EVENT_NAME: EMILIA_2ND_SHOCK
EVENT_ID: IT-2012-0011
EVENT_DATE_YYYYMMDD: 20120529
EVENT_TIME_HHMMSS: 070002
EVENT_LATITUDE_DEGREE: 44.8417
EVENT_LONGITUDE_DEGREE: 11.0657
EVENT_DEPTH_KM: 8.1
HYPOCENTER_REFERENCE: INGV-CNT_Seismic_Bulletin
MAGNITUDE_W: 6.0
MAGNITUDE_W_REFERENCE: RCMT-INGV
MAGNITUDE_L: 5.8
MAGNITUDE_L_REFERENCE: INGV-CNT_Seismic_Bulletin
FOCAL_MECHANISM: TF
NETWORK: BA
STATION_CODE: MIRE
STATION_NAME: MIRE
STATION_LATITUDE_DEGREE: 44.878212
STATION_LONGITUDE_DEGREE: 11.061747
STATION_ELEVATION_M: 
LOCATION: 
SENSOR_DEPTH_M: 0.0
VS30_M/S: 
SITE_CLASSIFICATION_EC8: C*
MORPHOLOGIC_CLASSIFICATION: 
EPICENTRAL_DISTANCE_KM: 4.1
EARTHQUAKE_BACKAZIMUTH_DEGREE: 175.6
DATE_TIME_FIRST_SAMPLE_YYYYMMDD_HHMMSS: 20120529_065950.000
DATE_TIME_FIRST_SAMPLE_PRECISION: seconds
SAMPLING_INTERVAL_S: 0.005000
NDATA: 12394
DURATION_S: 61.970
STREAM: HLN
UNITS: cm/s
INSTRUMENT: 
INSTRUMENT_ANALOG/DIGITAL: D
INSTRUMENTAL_FREQUENCY_HZ: 
INSTRUMENTAL_DAMPING: 
FULL_SCALE_G: 
N_BIT_DIGITAL_CONVERTER: 
PGV_CM/S: -58.524020
TIME_PGV_S: 19.220000
BASELINE_CORRECTION: BASELINE REMOVED
FILTER_TYPE: BUTTERWORTH
FILTER_ORDER: 2
LOW_CUT_FREQUENCY_HZ: 0.070
HIGH_CUT_FREQUENCY_HZ: 40.000
LATE/NORMAL_TRIGGERED: NT
DATABASE_VERSION: DYNA 1.0
HEADER_FORMAT: DYNA 1.2
DATA_TYPE: VELOCITY
PROCESSING: manual (Paolucci et al., 2011)
DATA_TIMESTAMP_YYYYMMDD_HHMMSS: 20141204_110616.699
DATA_LICENSE: U (unknown license)
DATA_CITATION: ESM working group (2015), European Strong-Motion database, version 0.1, Network Activity 3: Networking acceleration networks and SM data users. Project NERA (www.nera-eu.org)
DATA_CREATOR: ESM working group
ORIGINAL_DATA_MEDIATOR_CITATION: Basilicata Accelerometric Network, DOI 10.1007/s10518-009-9129-2
ORIGINAL_DATA_MEDIATOR: Ing. Maria Rosaria Gallipoli, CNR-IMAA, mariarosaria.gallipoli@imaa.cnr.it
ORIGINAL_DATA_CREATOR_CITATION: Basilicata Accelerometric Network, DOI 10.1007/s10518-009-9129-2
ORIGINAL_DATA_CREATOR: network: BA (University of Basilicata (UNIBAS) Network); owner: University of Basilicata
USER1: /home/dyna/processing-itaca/processing.py /var/www/processing/tmp/dyna_ingv//BA.MIRE..HLE.D.20120529.070003.X.ACC.ASC /var/www/processing/tmp/dyna_ingv//BA.MIRE..HLN.D.20120529.070003.X.ACC.ASC /var/www/processing/tmp/dyna_ingv//BA.MIRE..HLZ.D.20120529.070003.X.ACC.ASC --tmp /var/www/processing/tmp/dyna_ingv/ --le 0.070 --he 40.000 --ln 0.070 --hn 40.000 --lz 0.070 --hz 40.000 --fo 2 --ca 0 --cz 1750.02 --ta 5 --tz 5 --mf 1 --rf 0.005 --tr NT
USER2: 
USER3: 
USER4: 
USER5: 
[...]
-0.518993
-0.520055
-0.521125
-0.522196
-0.523260
-0.524310
-0.525341
-0.526356
-0.527363
-0.528375
-0.529404
-0.530453
-0.531514
-0.532579
-0.533644
-0.534702
-0.535749
-0.536779
-0.537794
-0.538802
-0.539812
-0.540828
-0.541850
-0.542876
-0.543902
-0.544922
-0.545927
-0.546913
-0.547883
-0.548847
-0.549815
-0.550796
-0.551794
-0.552811
-0.553841
-0.554874
-0.555898
-0.556907
-0.557904
-0.558897
-0.559896
-0.560912
-0.561949
-0.563012
-0.564096
-0.565199
-0.566317
-0.567442
-0.568565
-0.569678
-0.570779
-0.571870
-0.572954
-0.574029
-0.575095
-0.576147
-0.577184
-0.578208
-0.579223
-0.580237
-0.581256
-0.582283
-0.583315
-0.584347
-0.585380
-0.586418
-0.587462
-0.588511
-0.589560
-0.590610
-0.591667
-0.592734
-0.593809
-0.594889
-0.595971
-0.597053
-0.598136
-0.599220
-0.600303
-0.601388
-0.602475
-0.603566
-0.604664
-0.605767
-0.606870
-0.607963
-0.609034
-0.610085
-0.611128
-0.612174
-0.613225
-0.614274
-0.615316
-0.616354
-0.617396
-0.618445
-0.619494
-0.620541
-0.621585
-0.622630
-0.623674
-0.624718
-0.625765
-0.626822
-0.627888
-0.628953
-0.630008
-0.631053
-0.632100
-0.633157
-0.634223
-0.635290
-0.636355
-0.637419
-0.638487
-0.639553
-0.640611
-0.641660
-0.642707
-0.643760
-0.644822
-0.645891
-0.646965
-0.648043
-0.649126
-0.650209
-0.651288
-0.652358
-0.653418
-0.654470
-0.655516
-0.656561
-0.657604
-0.658646
-0.659686
-0.660727
-0.661773
-0.662830
-0.663893
-0.664957
-0.666012
-0.667057
-0.668097
-0.669141
-0.670199
-0.671276
-0.672369
-0.673470
-0.674563
-0.675641
-0.676705
-0.677764
-0.678827
-0.679898
-0.680970
-0.682038
-0.683098
-0.684156
-0.685217
-0.686283
-0.687352
-0.688422
-0.689497
-0.690583
-0.691683
-0.692796
-0.693917
-0.695043
-0.696172
-0.697302
-0.698426
-0.699536
-0.700627
-0.701703
-0.702773
-0.703844
-0.704919
-0.706000
-0.707086
-0.708170
-0.709249
-0.710317
-0.711377
-0.712434
-0.713493
-0.714556
-0.715620
-0.716683
-0.717747
-0.718812
-0.719879
-0.720942
-0.721999
-0.723047
-0.724091
-0.725135
-0.726183
-0.727238
-0.728302
-0.729376
-0.730457
-0.731544
-0.732634
-0.733725
-0.734818
-0.735913
-0.737007
-0.738100
-0.739191
-0.740283
-0.741376
-0.742471
-0.743565
-0.744654
-0.745736
-0.746810
-0.747880
-0.748950
-0.750024
-0.751103
-0.752183
-0.753263
-0.754341
-0.755414
-0.756480
-0.757537
-0.758587
-0.759631
-0.760671
-0.761707
-0.762745
-0.763792
-0.764850
-0.765916
-0.766977
-0.768029
-0.769071
-0.770111
-0.771151
-0.772186
-0.773213
-0.774233
-0.775256
-0.776290
-0.777334
-0.778380
-0.779416
-0.780438
-0.781455
-0.782477
-0.783517
-0.784576
-0.785648
-0.786724
-0.787797
-0.788868
-0.789940
-0.791015
-0.792089
-0.793157
-0.794217
-0.795275
-0.796340
-0.797412
-0.798482
-0.799540
-0.800583
-0.801618
-0.802660
-0.803712
-0.804771
-0.805830
-0.806888
-0.807949
-0.809017
-0.810090
-0.811161
-0.812222
-0.813273
-0.814313
-0.815340
-0.816357
-0.817367
-0.818378
-0.819392
-0.820407
-0.821420
-0.822431
-0.823442
-0.824455
-0.825468
-0.826477
-0.827479
-0.828479
-0.829481
-0.830489
-0.831504
-0.832524
-0.833545
-0.834565
-0.835583
-0.836601
-0.837622
-0.838645
-0.839667
-0.840684
-0.841696
-0.842705
-0.843715
-0.844726
-0.845734
-0.846737
-0.847738
-0.848743
-0.849754
-0.850771
-0.851787
-0.852797
-0.853799
-0.854795
-0.855791
-0.856792
-0.857800
-0.858812
-0.859817
-0.860810
-0.861795
-0.862776
-0.863759
-0.864743
-0.865725
-0.866705
-0.867688
-0.868675
-0.869664
-0.870648
-0.871621
-0.872581
-0.873535
-0.874492
-0.875459
-0.876434
-0.877409
-0.878380
-0.879351
-0.880329
-0.881314
-0.882296
-0.883265
-0.884220
-0.885173
-0.886136
-0.887108
-0.888085
-0.889059
-0.890030
-0.891000
-0.891967
-0.892928
-0.893883
-0.894837
-0.895798
-0.896767
-0.897739
-0.898707
-0.899666
-0.900614
-0.901554
-0.902487
-0.903417
-0.904349
-0.905283
-0.906216
-0.907148
-0.908081
-0.909014
-0.909945
-0.910868
-0.911781
-0.912685
-0.913587
-0.914488
-0.915389
-0.916291
-0.917197
-0.918109
-0.919023
-0.919938
-0.920852
-0.921754
-0.922636
-0.923504
-0.924368
-0.925215
-0.925997
-0.926641
-0.927077
-0.927268
-0.927210
-0.926930
-0.926475
-0.925897
-0.925236
-0.924490
-0.923633
-0.922645
-0.921510
-0.920170
-0.918543
-0.916570
-0.914147
-0.911007
-0.906794
-0.901386
-0.895238
-0.889477
-0.885422
-0.883640
-0.883385
-0.882747
-0.879573
-0.872812
-0.863246
-0.853269
-0.845744
-0.842396
-0.842912
-0.845126
-0.846130
-0.843848
-0.837953
-0.829732
-0.821055
-0.813188
-0.806892
-0.803522
-0.805004
-0.812268
-0.823611
-0.834372
-0.839431
-0.837288
-0.831240
-0.826950
-0.829193
-0.839433
-0.855472
-0.872951
-0.887419
-0.896295
-0.899956
-0.901416
-0.904233
-0.909780
-0.917072
-0.925023
-0.933690
-0.943504
-0.953825
-0.962353
-0.966970
-0.968559
-0.970297
-0.973701
-0.976864
-0.976256
-0.969607
-0.957767
-0.943558
-0.928837
-0.913937
-0.899404
-0.885963
-0.872523
-0.855949
-0.833311
-0.803989
-0.770153
-0.735246
-0.701727
-0.670963
-0.644626
-0.623812
-0.606267
-0.586571
-0.559972
-0.525909
-0.488923
-0.455737
-0.430209
-0.411228
-0.394601
-0.376522
-0.356639
-0.338410
-0.326737
-0.324948
-0.332540
-0.345223
-0.357019
-0.362596
-0.359207
-0.348040
-0.334309
-0.324671
-0.322934
-0.328164
-0.336242
-0.343064
-0.347344
-0.350295
-0.353071
-0.356253
-0.361632
-0.372605
-0.392278
-0.421207
-0.456196
-0.491299
-0.520335
-0.538620
-0.543719
-0.536570
-0.522347
-0.508279
-0.498829
-0.492882
-0.485079
-0.471158
-0.453976
-0.442665
-0.445240
-0.462926
-0.489413
-0.514413
-0.529179
-0.529804
-0.517877
-0.500463
-0.488860
-0.493367
-0.515671
-0.546487
-0.570248
-0.573121
-0.550557
-0.508874
-0.460608
-0.418116
-0.388279
-0.371299
-0.363575
-0.361732
-0.365219
-0.374396
-0.386002
-0.393184
-0.390626
-0.378545
-0.362698
-0.350282
-0.344140
-0.340966
-0.334496
-0.320470
-0.300454
-0.280671
-0.266162
-0.255418
-0.239290
-0.207543
-0.159166
-0.104049
-0.055149
-0.021299
-0.004759
-0.002544
-0.008613
-0.013124
-0.001417
0.039104
0.107044
0.185587
0.253469
0.296271
0.311440
0.304646
0.282219
0.250919
0.223250
0.214303
0.229796
0.260079
0.285353
0.287898
0.263885
0.222606
0.175137
0.128081
0.085358
0.050008
0.023162
0.002867
-0.015320
-0.035889
-0.061317
-0.094470
-0.142916
-0.215755
-0.313780
-0.424947
-0.528664
-0.604499
-0.640723
-0.636735
-0.600116
-0.544191
-0.486302
-0.442205
-0.417699
-0.406082
-0.393808
-0.370070
-0.334983
-0.297989
-0.267627
-0.243737
-0.216582
-0.172868
-0.105355
-0.018140
0.075172
0.159466
0.228258
0.286684
0.345834
0.414137
0.490865
0.567893
0.637743
0.697746
0.748164
0.789126
0.819505
0.839104
0.851904
0.864728
0.882113
0.904708
0.932352
0.966622
1.009705
1.059099
1.102787
1.125169
1.121295
1.102553
1.089144
1.096528
1.124317
1.159374
1.189903
1.212276
1.226950
1.232824
1.225101
1.198006
1.149739
1.083721
1.006074
0.924514
0.849651
0.795261
0.775340
0.797318
0.854207
0.923706
0.976404
0.989377
0.959130
0.902638
0.846651
0.815958
0.824515
0.869517
0.929365
0.969968
0.960031
0.889166
0.780013
0.679061
0.629575
0.651085
0.734437
0.850425
0.965437
1.052160
1.094282
1.090931
1.060088
1.032338
1.034396
1.073308
1.130749
1.177822
1.202680
1.221167
1.262970
1.346858
1.460821
1.569652
1.644574
1.680983
1.695154
1.711085
1.746352
1.805348
1.880338
1.956525
2.020125
2.068186
2.114449
2.179243
2.268633
2.368195
2.456006
2.519170
2.563016
2.604439
2.655026
2.714002
2.774217
2.829405
2.876633
2.912745
2.928715
2.911318
2.853372
2.764957
2.678231
2.636100
2.668279
2.774282
2.921695
3.060847
3.149193
3.167947
3.125761
3.051903
2.982871
2.949615
2.968713
3.040700
3.154976
3.296325
3.449098
3.595096
3.709178
3.765574
3.755355
3.700070
3.650494
3.661729
3.756652
3.915459
4.096080
4.259236
4.383784
4.465393
4.504842
4.503724
4.468781
4.412366
4.347305
4.285040
4.238070
4.219210
4.236517
4.289618
4.369246
4.458538
4.535753
4.579856
4.578807
4.536938
4.477632
4.435879
4.443040
4.516093
4.656603
4.858638
5.117744
5.425102
5.750801
6.043037
6.251927
6.365225
6.431862
6.533210
6.718142
6.978777
7.278108
7.579793
7.858749
8.097229
8.281216
8.415368
8.540821
8.708913
8.925089
9.143062
9.314840
9.426454
9.494237
9.538580
9.559808
9.547867
9.513443
9.486316
9.479378
9.470001
9.414816
9.280030
9.069292
8.826355
8.612126
8.476132
8.436235
8.481153
8.591290
8.754099
8.966145
9.226030
9.525295
9.848071
10.178529
10.504873
10.817398
11.105606
11.356147
11.551012
11.667925
11.687296
11.600911
11.408253
11.105416
10.690578
10.183341
9.626113
9.060620
8.500865
7.922808
7.291420
6.605711
5.899357
5.198572
4.502095
3.798574
3.088704
2.391845
1.729223
1.098185
0.473432
-0.167594
-0.833838
-1.528109
-2.244329
-2.951577
-3.590723
-4.091103
-4.394140
-4.470800
-4.318624
-3.947442
-3.384073
-2.691002
-1.957259
-1.256558
-0.609606
0.025772
0.721829
1.524918
2.434626
3.423209
4.452941
5.477043
6.436126
7.262266
7.899643
8.330918
8.577358
8.673246
8.647405
8.521250
8.312809
8.040032
7.720498
7.367577
6.984906
6.563161
6.087774
5.557424
5.001013
4.481896
4.076497
3.837944
3.782069
3.898936
4.162053
4.527376
4.934560
5.319736
5.642131
5.910135
6.172380
6.477768
6.849036
7.283582
7.768697
8.296967
8.865225
9.461875
10.066350
10.662377
11.244402
11.809548
12.341674
12.799588
13.129889
13.300839
13.326130
13.263533
13.185255
13.135499
13.115274
13.099853
13.062976
12.991983
12.884492
12.736279
12.546680
12.338013
12.155710
12.044803
12.028757
12.103814
12.250655
12.451985
12.692046
12.943052
13.170512
13.357026
13.510517
13.649602
13.786501
13.920521
14.048750
14.184516
14.357503
14.595326
14.910249
15.296369
15.727403
16.154715
16.516766
16.759689
16.853765
16.798620
16.615452
16.331015
15.965610
15.527214
15.008501
14.389360
13.652886
12.808095
11.893369
10.957939
10.042216
9.168100
8.343469
7.573518
6.860935
6.196638
5.561146
4.938649
4.327020
3.737504
3.187430
2.691263
2.257399
1.889677
1.585977
1.334378
1.115493
0.911557
0.713833
0.525017
0.357192
0.226980
0.150736
0.140956
0.204881
0.345310
0.562639
0.856815
1.226784
1.667426
2.166620
2.704059
3.253451
3.787704
4.284556
4.730948
5.124074
5.469049
5.775022
6.051219
6.305351
6.545286
6.782933
7.036881
7.327178
7.664810
8.048862
8.473690
8.938038
9.450379
10.025598
10.675412
11.402084
12.197344
13.042875
13.911963
14.775458
15.611518
16.412773
17.187330
17.951447
18.716648
19.481148
20.230017
20.944983
21.618532
22.258589
22.881639
23.502455
24.125202
24.740175
25.327183
25.864706
26.341946
26.764915
27.151855
27.516390
27.846972
28.105001
28.242994
28.223909
28.033184
27.681002
27.195946
26.613293
25.961142
25.252207
24.485590
23.659708
22.787741
21.894251
20.995214
20.088074
19.159393
18.199766
17.215584
16.225460
15.245437
14.282733
13.341214
12.427006
11.549670
10.720631
9.950579
9.246481
8.607869
8.023024
7.468350
6.917258
6.354938
5.783375
5.214106
4.658589
4.121940
3.602698
3.095225
2.587515
2.058718
1.491499
0.894661
0.308459
-0.212626
-0.621945
-0.894168
-1.019405
-0.988692
-0.802204
-0.496032
-0.145742
0.162642
0.369902
0.468462
0.492369
0.481062
0.456651
0.422794
0.367820
0.265729
0.080733
-0.220922
-0.654439
-1.204098
-1.832370
-2.506420
-3.214125
-3.961536
-4.760391
-5.614482
-6.515964
-7.451493
-8.409168
-9.382800
-10.373357
-11.387748
-12.434635
-13.518840
-14.638825
-15.787102
-16.949709
-18.105148
-19.227226
-20.290548
-21.271545
-22.145527
-22.888470
-23.484875
-23.934217
-24.249886
-24.446157
-24.521280
-24.459101
-24.247841
-23.890692
-23.401957
-22.799913
-22.103287
-21.333530
-20.518585
-19.688683
-18.867468
-18.074493
-17.338963
-16.706425
-16.230633
-15.952814
-15.878227
-15.972134
-16.178150
-16.444235
-16.744694
-17.084066
-17.483665
-17.965137
-18.538437
-19.199112
-19.933577
-20.725433
-21.558622
-22.414616
-23.267822
-24.090611
-24.866261
-25.594473
-26.286036
-26.954912
-27.613352
-28.273035
-28.947294
-29.642946
-30.346783
-31.029163
-31.664959
-32.248100
-32.791451
-33.316196
-33.837173
-34.353764
-34.848953
-35.295193
-35.665276
-35.943581
-36.132442
-36.245914
-36.295868
-36.289227
-36.237160
-36.159595
-36.080799
-36.023117
-36.003490
-36.034367
-36.126480
-36.287823
-36.520042
-36.820156
-37.186508
-37.619328
-38.115540
-38.667160
-39.265358
-39.904514
-40.582844
-41.298595
-42.044819
-42.810246
-43.585518
-44.366356
-45.151909
-45.942795
-46.740295
-47.545113
-48.355091
-49.163486
-49.959763
-50.734715
-51.486778
-52.220318
-52.937073
-53.632389
-54.298901
-54.931572
-55.530220
-56.097183
-56.632214
-57.130184
-57.581306
-57.969227
-58.269436
-58.457558
-58.524021
-58.476795
-58.329700
-58.090752
-57.759171
-57.334644
-56.829933
-56.265266
-55.648251
-54.968925
-54.215034
-53.387402
-52.503693
-51.585747
-50.639935
-49.655373
-48.620373
-47.533985
-46.404846
-45.243134
-44.052959
-42.834213
-41.591366
-40.335831
-39.079178
-37.825291
-36.567875
-35.298450
-34.019608
-32.746307
-31.493057
-30.260447
-29.030802
-27.781010
-26.505182
-25.221924
-23.961840
-22.749903
-21.592072
-20.474096
-19.371111
-18.258772
-17.121655
-15.956136
-14.767621
-13.564037
-12.349230
-11.122935
-9.885640
-8.638691
-7.379587
-6.101951
-4.801734
-3.482417
-2.154943
-0.831162
0.484157
1.791141
3.084507
4.350818
5.574813
6.742808
7.840064
8.848439
9.748365
10.526246
11.182764
11.731544
12.189570
12.572182
12.894055
13.167244
13.395606
13.574264
13.696365
13.761875
13.783241
13.781794
13.777608
13.784453
13.811159
13.861988
13.935237
14.026011
14.133373
14.264715
14.434168
14.655472
14.932937
15.258674
15.616830
15.989345
16.361126
16.724112
17.078648
17.428282
17.769848
18.088526
18.361607
18.569262
18.705900
18.779030
18.796284
18.755623
18.645098
18.451794
18.173834
17.822649
17.416117
16.974894
16.523987
16.091528
15.702302
15.370433
15.096445
14.874747
14.707072
14.605550
14.583861
14.649128
14.799678
15.027777
15.324327
15.680751
16.087826
16.534912
17.010996
17.507015
18.018072
18.542830
19.079750
19.622921
20.160374
20.678789
21.171873
21.642145
22.095119
22.533585
22.955637
23.356770
23.734118
24.088396
24.422503
24.738232
25.032455
25.295187
25.511026
25.665157
25.751371
25.774521
25.746248
25.678799
25.579987
25.452171
25.295362
25.112127
24.912010
24.711658
24.530930
24.389156
24.303215
24.287331
24.353378
24.509733
24.759407
25.100529
25.528217
26.033253
26.598782
27.202597
27.824968
28.453651
29.082491
29.704851
30.306551
30.867632
31.372190
31.815142
32.201950
32.542969
32.845318
33.107929
33.322369
33.480171
33.582279
33.638855
33.658970
33.641178
33.571365
33.431137
33.211533
32.917290
32.560585
32.155464
31.715921
31.253584
30.773914
30.274466
29.747002
29.183233
28.581150
27.945496
27.282980
26.599316
25.898872
25.182381
24.442949
23.666805
22.839989
21.956301
21.022104
20.052876
19.064224
18.068596
17.079329
16.114817
15.198635
14.353920
13.594825
12.922767
12.328403
11.794622
11.298873
10.816105
10.323489
9.806962
9.266986
8.717279
8.176881
7.662912
7.187268
6.757580
6.380356
6.061836
5.806539
5.617225
5.496777
5.449013
5.476916
5.578506
5.742554
5.949176
6.175552
6.402188
6.617120
6.816182
7.000081
7.171197
7.330653
7.475142
7.594898
7.676934
7.712816
7.704073
7.661934
7.600771
7.528911
7.445704
7.345139
7.218618
7.054990
6.841097
6.564589
6.218525
5.805463
5.336435
4.825156
4.283005
3.716980
3.130608
2.526990
1.911979
1.295951
0.692127
0.112611
-0.433190
-0.937106
-1.390959
-1.787300
-2.122592
-2.401137
-2.635602
-2.844032
-3.046702
-3.263270
-3.508577
-3.788099
-4.098015
-4.430548
-4.780318
-5.148172
-5.538691
-5.953666
-6.390196
-6.844098
-7.311716
-7.787377
-8.258380
-8.701707
-9.089490
-9.400929
-9.628115
-9.772883
-9.840451
-9.833878
-9.752720
-9.595012
-9.358569
-9.041327
-8.643111
-8.167825
-7.621480
-7.007301
-6.325433
-5.577293
-4.767241
-3.900237
-2.980499
-2.013583
-1.011404
0.002814
0.995567
1.928856
2.763194
3.458254
3.978967
4.306321
4.442069
4.404724
4.221832
3.921862
3.528821
3.060493
2.530157
1.949530
1.327873
0.667704
-0.035572
-0.785729
-1.569675
-2.344088
-3.048682
-3.640614
-4.111888
-4.479668
-4.765154
-4.975797
-5.107499
-5.161326
-5.148796
-5.082842
-4.972263
-4.824491
-4.648562
-4.454596
-4.251469
-4.045621
-3.844302
-3.660776
-3.512933
-3.415552
-3.375404
-3.391881
-3.460070
-3.574100
-3.729128
-3.921761
-4.149302
-4.408393
-4.694393
-5.002173
-5.328500
-5.674594
-6.045464
-6.446298
-6.879918
-7.346231
-7.842186
-8.361825
-8.897421
-9.442020
-9.992328
-10.550273
-11.120624
-11.706013
-12.305016
-12.913924
-13.528224
-14.142571
-14.750879
-15.347904
-15.932784
-16.512390
-17.099243
-17.704689
-18.334465
-18.988628
-19.663601
-20.354610
-21.057215
-21.768154
-22.485992
-23.210207
-23.935684
-24.645233
-25.309896
-25.898424
-26.388292
-26.772205
-27.054033
-27.237370
-27.320147
-27.298018
-27.170046
-26.942339
-26.626640
-26.235619
-25.780649
-25.272720
-24.722454
-24.138540
-23.526997
-22.891911
-22.236296
-21.562450
-20.872244
-20.167669
-19.451834
-18.729288
-18.003666
-17.273771
-16.533104
-15.773507
-14.989420
-14.180447
-13.350591
-12.504642
-11.644762
-10.769000
-9.873280
-8.955968
-8.021269
-7.080056
-6.148144
-5.243059
-4.381343
-3.576225
-2.834077
-2.150630
-1.511342
-0.896625
-0.288757
0.322116
0.936350
1.547885
2.149592
2.738594
3.317899
3.893811
4.471257
5.049026
5.618090
6.163834
6.671187
7.130989
7.543637
7.918273
8.267307
8.599081
8.915709
9.216505
9.501237
9.770922
10.026723
10.268607
10.496253
10.711680
10.920030
11.127771
11.340233
11.559602
11.784287
12.010032
12.232790
12.452134
12.671941
12.898041
13.135237
13.385006
13.644637
13.907529
14.163811
14.401400
14.608156
14.774414
14.893230
14.958293
14.962436
14.898472
14.763095
14.561701
14.308235
14.019276
13.706901
13.373843
13.014953
12.623896
12.198605
11.742873
11.263824
10.766719
10.251146
9.711035
9.139950
8.538081
7.911514
7.264664
6.598030
5.915591
5.237330
4.607172
4.079749
3.691711
3.448272
3.331999
