EVENT_NAME: EMILIA_2ND_SHOCK
EVENT_ID: IT-2012-0011
EVENT_DATE_YYYYMMDD: 20120529
EVENT_TIME_HHMMSS: 070002
EVENT_LATITUDE_DEGREE: 44.8417
EVENT_LONGITUDE_DEGREE: 11.0657
EVENT_DEPTH_KM: 8.1
HYPOCENTER_REFERENCE: INGV-CNT_Seismic_Bulletin
MAGNITUDE_W: 6.0
MAGNITUDE_W_REFERENCE: RCMT-INGV
MAGNITUDE_L: 5.8
MAGNITUDE_L_REFERENCE: INGV-CNT_Seismic_Bulletin
FOCAL_MECHANISM: TF
NETWORK: BA
STATION_CODE: MIRE
STATION_NAME: MIRE
STATION_LATITUDE_DEGREE: 44.878212
STATION_LONGITUDE_DEGREE: 11.061747
STATION_ELEVATION_M: 
LOCATION: 
SENSOR_DEPTH_M: 0.0
VS30_M/S: 
SITE_CLASSIFICATION_EC8: C*
MORPHOLOGIC_CLASSIFICATION: 
EPICENTRAL_DISTANCE_KM: 4.1
EARTHQUAKE_BACKAZIMUTH_DEGREE: 175.6
DATE_TIME_FIRST_SAMPLE_YYYYMMDD_HHMMSS: 20120529_065950.000
DATE_TIME_FIRST_SAMPLE_PRECISION: seconds
SAMPLING_INTERVAL_S: 0.005000
NDATA: 12394
DURATION_S: 61.970
STREAM: HLN
UNITS: cm
INSTRUMENT: 
INSTRUMENT_ANALOG/DIGITAL: D
INSTRUMENTAL_FREQUENCY_HZ: 
INSTRUMENTAL_DAMPING: 
FULL_SCALE_G: 
N_BIT_DIGITAL_CONVERTER: 
PGD_CM: -14.525537
TIME_PGD_S: 19.495000
BASELINE_CORRECTION: BASELINE REMOVED
FILTER_TYPE: BUTTERWORTH
FILTER_ORDER: 2
LOW_CUT_FREQUENCY_HZ: 0.070
HIGH_CUT_FREQUENCY_HZ: 40.000
LATE/NORMAL_TRIGGERED: NT
DATABASE_VERSION: DYNA 1.0
HEADER_FORMAT: DYNA 1.2
DATA_TYPE: DISPLACEMENT
PROCESSING: manual (Paolucci et al., 2011)
DATA_TIMESTAMP_YYYYMMDD_HHMMSS: 20141204_110616.699
DATA_LICENSE: U (unknown license)
DATA_CITATION: ESM working group (2015), European Strong-Motion database, version 0.1, Network Activity 3: Networking acceleration networks and SM data users. Project NERA (www.nera-eu.org)
DATA_CREATOR: ESM working group
ORIGINAL_DATA_MEDIATOR_CITATION: Basilicata Accelerometric Network, DOI 10.1007/s10518-009-9129-2
ORIGINAL_DATA_MEDIATOR: Ing. Maria Rosaria Gallipoli, CNR-IMAA, mariarosaria.gallipoli@imaa.cnr.it
ORIGINAL_DATA_CREATOR_CITATION: Basilicata Accelerometric Network, DOI 10.1007/s10518-009-9129-2
ORIGINAL_DATA_CREATOR: network: BA (University of Basilicata (UNIBAS) Network); owner: University of Basilicata
USER1: /home/dyna/processing-itaca/processing.py /var/www/processing/tmp/dyna_ingv//BA.MIRE..HLE.D.20120529.070003.X.ACC.ASC /var/www/processing/tmp/dyna_ingv//BA.MIRE..HLN.D.20120529.070003.X.ACC.ASC /var/www/processing/tmp/dyna_ingv//BA.MIRE..HLZ.D.20120529.070003.X.ACC.ASC --tmp /var/www/processing/tmp/dyna_ingv/ --le 0.070 --he 40.000 --ln 0.070 --hn 40.000 --lz 0.070 --hz 40.000 --fo 2 --ca 0 --cz 1750.02 --ta 5 --tz 5 --mf 1 --rf 0.005 --tr NT
USER2: 
USER3: 
USER4: 
USER5: 
[...]
-2.077850e+00
-2.082480e+00
-2.087106e+00
-2.091728e+00
-2.096347e+00
-2.100960e+00
-2.105567e+00
-2.110168e+00
-2.114761e+00
-2.119344e+00
-2.123914e+00
-2.128470e+00
-2.133004e+00
-2.137510e+00
-2.141987e+00
-2.146434e+00
-2.150861e+00
-2.155279e+00
-2.159696e+00
-2.164110e+00
-2.168508e+00
-2.172872e+00
-2.177188e+00
-2.181454e+00
-2.185683e+00
-2.189895e+00
-2.194110e+00
-2.198335e+00
-2.202566e+00
-2.206785e+00
-2.210975e+00
-2.215124e+00
-2.219229e+00
-2.223295e+00
-2.227329e+00
-2.231347e+00
-2.235372e+00
-2.239433e+00
-2.243551e+00
-2.247723e+00
-2.251920e+00
-2.256107e+00
-2.260263e+00
-2.264398e+00
-2.268544e+00
-2.272741e+00
-2.277018e+00
-2.281383e+00
-2.285820e+00
-2.290302e+00
-2.294801e+00
-2.299308e+00
-2.303830e+00
-2.308379e+00
-2.312964e+00
-2.317589e+00
-2.322257e+00
-2.326975e+00
-2.331744e+00
-2.336556e+00
-2.341391e+00
-2.346234e+00
-2.351085e+00
-2.355954e+00
-2.360838e+00
-2.365719e+00
-2.370567e+00
-2.375356e+00
-2.380074e+00
-2.384718e+00
-2.389288e+00
-2.393785e+00
-2.398214e+00
-2.402577e+00
-2.406857e+00
-2.411023e+00
-2.415043e+00
-2.418894e+00
-2.422570e+00
-2.426079e+00
-2.429434e+00
-2.432657e+00
-2.435776e+00
-2.438807e+00
-2.441740e+00
-2.444540e+00
-2.447170e+00
-2.449614e+00
-2.451893e+00
-2.454044e+00
-2.456100e+00
-2.458073e+00
-2.459956e+00
-2.461739e+00
-2.463431e+00
-2.465065e+00
-2.466689e+00
-2.468352e+00
-2.470078e+00
-2.471863e+00
-2.473676e+00
-2.475472e+00
-2.477212e+00
-2.478884e+00
-2.480507e+00
-2.482122e+00
-2.483763e+00
-2.485444e+00
-2.487159e+00
-2.488896e+00
-2.490648e+00
-2.492413e+00
-2.494194e+00
-2.496002e+00
-2.497865e+00
-2.499827e+00
-2.501933e+00
-2.504214e+00
-2.506670e+00
-2.509272e+00
-2.511965e+00
-2.514684e+00
-2.517367e+00
-2.519978e+00
-2.522520e+00
-2.525014e+00
-2.527478e+00
-2.529904e+00
-2.532259e+00
-2.534529e+00
-2.536743e+00
-2.538969e+00
-2.541283e+00
-2.543730e+00
-2.546303e+00
-2.548948e+00
-2.551597e+00
-2.554187e+00
-2.556689e+00
-2.559133e+00
-2.561600e+00
-2.564179e+00
-2.566911e+00
-2.569762e+00
-2.572628e+00
-2.575381e+00
-2.577925e+00
-2.580228e+00
-2.582319e+00
-2.584260e+00
-2.586117e+00
-2.587934e+00
-2.589743e+00
-2.591569e+00
-2.593441e+00
-2.595371e+00
-2.597337e+00
-2.599290e+00
-2.601183e+00
-2.602996e+00
-2.604748e+00
-2.606469e+00
-2.608173e+00
-2.609846e+00
-2.611448e+00
-2.612951e+00
-2.614354e+00
-2.615685e+00
-2.616962e+00
-2.618158e+00
-2.619196e+00
-2.619992e+00
-2.620512e+00
-2.620788e+00
-2.620894e+00
-2.620918e+00
-2.620931e+00
-2.620974e+00
-2.621039e+00
-2.621047e+00
-2.620851e+00
-2.620316e+00
-2.619388e+00
-2.618121e+00
-2.616639e+00
-2.615082e+00
-2.613559e+00
-2.612148e+00
-2.610893e+00
-2.609777e+00
-2.608705e+00
-2.607556e+00
-2.606256e+00
-2.604829e+00
-2.603390e+00
-2.602070e+00
-2.600957e+00
-2.600082e+00
-2.599441e+00
-2.599014e+00
-2.598764e+00
-2.598648e+00
-2.598634e+00
-2.598711e+00
-2.598890e+00
-2.599197e+00
-2.599669e+00
-2.600384e+00
-2.601462e+00
-2.603031e+00
-2.605156e+00
-2.607799e+00
-2.610822e+00
-2.614026e+00
-2.617209e+00
-2.620210e+00
-2.622931e+00
-2.625362e+00
-2.627573e+00
-2.629662e+00
-2.631692e+00
-2.633661e+00
-2.635512e+00
-2.637187e+00
-2.638676e+00
-2.640015e+00
-2.641233e+00
-2.642316e+00
-2.643181e+00
-2.643707e+00
-2.643798e+00
-2.643422e+00
-2.642625e+00
-2.641484e+00
-2.640050e+00
-2.638321e+00
-2.636250e+00
-2.633796e+00
-2.630956e+00
-2.627768e+00
-2.624279e+00
-2.620538e+00
-2.616593e+00
-2.612495e+00
-2.608300e+00
-2.604040e+00
-2.599716e+00
-2.595306e+00
-2.590782e+00
-2.586120e+00
-2.581287e+00
-2.576239e+00
-2.570943e+00
-2.565429e+00
-2.559804e+00
-2.554197e+00
-2.548684e+00
-2.543239e+00
-2.537756e+00
-2.532134e+00
-2.526338e+00
-2.520388e+00
-2.514327e+00
-2.508192e+00
-2.502028e+00
-2.495902e+00
-2.489912e+00
-2.484164e+00
-2.478745e+00
-2.473715e+00
-2.469092e+00
-2.464844e+00
-2.460867e+00
-2.456991e+00
-2.453004e+00
-2.448733e+00
-2.444115e+00
-2.439233e+00
-2.434286e+00
-2.429490e+00
-2.424977e+00
-2.420744e+00
-2.416664e+00
-2.412541e+00
-2.408194e+00
-2.403547e+00
-2.398697e+00
-2.393897e+00
-2.389451e+00
-2.385551e+00
-2.382156e+00
-2.379008e+00
-2.375752e+00
-2.372080e+00
-2.367828e+00
-2.363001e+00
-2.357740e+00
-2.352269e+00
-2.346814e+00
-2.341513e+00
-2.336352e+00
-2.331180e+00
-2.325813e+00
-2.320160e+00
-2.314270e+00
-2.308257e+00
-2.302151e+00
-2.295836e+00
-2.289102e+00
-2.281798e+00
-2.273950e+00
-2.265727e+00
-2.257322e+00
-2.248846e+00
-2.240291e+00
-2.231559e+00
-2.222532e+00
-2.213131e+00
-2.203348e+00
-2.193247e+00
-2.182906e+00
-2.172334e+00
-2.161438e+00
-2.150095e+00
-2.138254e+00
-2.125974e+00
-2.113378e+00
-2.100563e+00
-2.087541e+00
-2.074265e+00
-2.060695e+00
-2.046824e+00
-2.032677e+00
-2.018294e+00
-2.003730e+00
-1.989087e+00
-1.974530e+00
-1.960263e+00
-1.946439e+00
-1.933047e+00
-1.919867e+00
-1.906526e+00
-1.892654e+00
-1.878046e+00
-1.862741e+00
-1.846996e+00
-1.831156e+00
-1.815527e+00
-1.800267e+00
-1.785353e+00
-1.770605e+00
-1.755761e+00
-1.740558e+00
-1.724783e+00
-1.708301e+00
-1.691056e+00
-1.673080e+00
-1.654535e+00
-1.635707e+00
-1.616930e+00
-1.598430e+00
-1.580177e+00
-1.561868e+00
-1.543085e+00
-1.523508e+00
-1.503028e+00
-1.481731e+00
-1.459812e+00
-1.437485e+00
-1.414961e+00
-1.392443e+00
-1.370099e+00
-1.348037e+00
-1.326300e+00
-1.304875e+00
-1.283685e+00
-1.262589e+00
-1.241406e+00
-1.219958e+00
-1.198112e+00
-1.175819e+00
-1.153140e+00
-1.130241e+00
-1.107347e+00
-1.084662e+00
-1.062274e+00
-1.040095e+00
-1.017880e+00
-9.952992e-01
-9.720162e-01
-9.477230e-01
-9.221343e-01
-8.950087e-01
-8.662547e-01
-8.360396e-01
-8.047799e-01
-7.729538e-01
-7.407945e-01
-7.081284e-01
-6.745377e-01
-6.396438e-01
-6.032533e-01
-5.653543e-01
-5.260606e-01
-4.855744e-01
-4.441684e-01
-4.020915e-01
-3.593874e-01
-3.158429e-01
-2.712174e-01
-2.255021e-01
-1.789279e-01
-1.317956e-01
-8.432445e-02
-3.663155e-02
1.116749e-02
5.890683e-02
1.064740e-01
1.539056e-01
2.013025e-01
2.486525e-01
2.957266e-01
3.421267e-01
3.874732e-01
4.316050e-01
4.746656e-01
5.170463e-01
5.592274e-01
6.016332e-01
6.445897e-01
6.883602e-01
7.331909e-01
7.793210e-01
8.269475e-01
8.761879e-01
9.270805e-01
9.796049e-01
1.033692e+00
1.089220e+00
1.146001e+00
1.203756e+00
1.262095e+00
1.320532e+00
1.378536e+00
1.435578e+00
1.491105e+00
1.544558e+00
1.595474e+00
1.643605e+00
1.688908e+00
1.731412e+00
1.771026e+00
1.807483e+00
1.840512e+00
1.870009e+00
1.896002e+00
1.918512e+00
1.937505e+00
1.952948e+00
1.964908e+00
1.973554e+00
1.979045e+00
1.981412e+00
1.980574e+00
1.976405e+00
1.968764e+00
1.957543e+00
1.942785e+00
1.924831e+00
1.904376e+00
1.882405e+00
1.860051e+00
1.838458e+00
1.818721e+00
1.801800e+00
1.788345e+00
1.778559e+00
1.772276e+00
1.769228e+00
1.769357e+00
1.772966e+00
1.780591e+00
1.792764e+00
1.809880e+00
1.832144e+00
1.859530e+00
1.891710e+00
1.928022e+00
1.967520e+00
2.009174e+00
2.052061e+00
2.095427e+00
2.138665e+00
2.181271e+00
2.222835e+00
2.263035e+00
2.301637e+00
2.338475e+00
2.373400e+00
2.406216e+00
2.436655e+00
2.464442e+00
2.489447e+00
2.511856e+00
2.532239e+00
2.551428e+00
2.570339e+00
2.589833e+00
2.610644e+00
2.633281e+00
2.657953e+00
2.684552e+00
2.712763e+00
2.742313e+00
2.773175e+00
2.805564e+00
2.839809e+00
2.876227e+00
2.915071e+00
2.956556e+00
3.000882e+00
3.048191e+00
3.098523e+00
3.151835e+00
3.208057e+00
3.267104e+00
3.328813e+00
3.392811e+00
3.458460e+00
3.524964e+00
3.591595e+00
3.657913e+00
3.723839e+00
3.789516e+00
3.855093e+00
3.920592e+00
3.985907e+00
4.050867e+00
4.115289e+00
4.178971e+00
4.241704e+00
4.303394e+00
4.364173e+00
4.424397e+00
4.484541e+00
4.545060e+00
4.606313e+00
4.668573e+00
4.732033e+00
4.796748e+00
4.862601e+00
4.929386e+00
4.996939e+00
5.065187e+00
5.134119e+00
5.203722e+00
5.273965e+00
5.344888e+00
5.416676e+00
5.489652e+00
5.564203e+00
5.640685e+00
5.719322e+00
5.800096e+00
5.882680e+00
5.966478e+00
6.050747e+00
6.134740e+00
6.217817e+00
6.299472e+00
6.379300e+00
6.456937e+00
6.531979e+00
6.603926e+00
6.672190e+00
6.736231e+00
6.795698e+00
6.850487e+00
6.900698e+00
6.946539e+00
6.988256e+00
7.026124e+00
7.060428e+00
7.091412e+00
7.119217e+00
7.143911e+00
7.165546e+00
7.184233e+00
7.200170e+00
7.213627e+00
7.224914e+00
7.234362e+00
7.242292e+00
7.248964e+00
7.254541e+00
7.259099e+00
7.262668e+00
7.265293e+00
7.267079e+00
7.268214e+00
7.268968e+00
7.269673e+00
7.270697e+00
7.272424e+00
7.275237e+00
7.279521e+00
7.285655e+00
7.293992e+00
7.304825e+00
7.318345e+00
7.334613e+00
7.353551e+00
7.374974e+00
7.398629e+00
7.424249e+00
7.451594e+00
7.480469e+00
7.510726e+00
7.542252e+00
7.574979e+00
7.608893e+00
7.644078e+00
7.680714e+00
7.719038e+00
7.759282e+00
7.801650e+00
7.846341e+00
7.893593e+00
7.943721e+00
7.997098e+00
8.054108e+00
8.115095e+00
8.180309e+00
8.249869e+00
8.323746e+00
8.401804e+00
8.483868e+00
8.569804e+00
8.659562e+00
8.753145e+00
8.850551e+00
8.951701e+00
9.056426e+00
9.164518e+00
9.275811e+00
9.390219e+00
9.507732e+00
9.628358e+00
9.752059e+00
9.878694e+00
1.000802e+01
1.013973e+01
1.027355e+01
1.040931e+01
1.054689e+01
1.068613e+01
1.082665e+01
1.096787e+01
1.110899e+01
1.124915e+01
1.138756e+01
1.152354e+01
1.165660e+01
1.178641e+01
1.191267e+01
1.203510e+01
1.215340e+01
1.226734e+01
1.237681e+01
1.248178e+01
1.258222e+01
1.267802e+01
1.276902e+01
1.285510e+01
1.293623e+01
1.301245e+01
1.308387e+01
1.315057e+01
1.321271e+01
1.327046e+01
1.332406e+01
1.337381e+01
1.342004e+01
1.346308e+01
1.350320e+01
1.354054e+01
1.357513e+01
1.360690e+01
1.363582e+01
1.366189e+01
1.368518e+01
1.370579e+01
1.372381e+01
1.373928e+01
1.375222e+01
1.376251e+01
1.376997e+01
1.377444e+01
1.377599e+01
1.377492e+01
1.377181e+01
1.376734e+01
1.376224e+01
1.375730e+01
1.375329e+01
1.375081e+01
1.375008e+01
1.375089e+01
1.375274e+01
1.375509e+01
1.375755e+01
1.375995e+01
1.376224e+01
1.376435e+01
1.376619e+01
1.376752e+01
1.376792e+01
1.376682e+01
1.376355e+01
1.375752e+01
1.374836e+01
1.373583e+01
1.371976e+01
1.369995e+01
1.367615e+01
1.364808e+01
1.361550e+01
1.357824e+01
1.353620e+01
1.348928e+01
1.343741e+01
1.338048e+01
1.331830e+01
1.325071e+01
1.317751e+01
1.309858e+01
1.301383e+01
1.292330e+01
1.282717e+01
1.272572e+01
1.261936e+01
1.250863e+01
1.239419e+01
1.227676e+01
1.215709e+01
1.203584e+01
1.191361e+01
1.179101e+01
1.166871e+01
1.154747e+01
1.142802e+01
1.131101e+01
1.119701e+01
1.108649e+01
1.097982e+01
1.087723e+01
1.077879e+01
1.068445e+01
1.059408e+01
1.050738e+01
1.042385e+01
1.034270e+01
1.026293e+01
1.018354e+01
1.010368e+01
1.002279e+01
9.940570e+00
9.856847e+00
9.771426e+00
9.684008e+00
9.594182e+00
9.501490e+00
9.405495e+00
9.305827e+00
9.202199e+00
9.094406e+00
8.982333e+00
8.865994e+00
8.745541e+00
8.621210e+00
8.493237e+00
8.361807e+00
8.227033e+00
8.088966e+00
7.947601e+00
7.802864e+00
7.654650e+00
7.502916e+00
7.347770e+00
7.189445e+00
7.028205e+00
6.864247e+00
6.697666e+00
6.528480e+00
6.356712e+00
6.182467e+00
6.005991e+00
5.827665e+00
5.647947e+00
5.467284e+00
5.286055e+00
5.104576e+00
4.923129e+00
4.741944e+00
4.561146e+00
4.380742e+00
4.200626e+00
4.020609e+00
3.840437e+00
3.659804e+00
3.478365e+00
3.295765e+00
3.111664e+00
2.925732e+00
2.737635e+00
2.547057e+00
2.353722e+00
2.157395e+00
1.957872e+00
1.754958e+00
1.548465e+00
1.338241e+00
1.124190e+00
9.062621e-01
6.844303e-01
4.586707e-01
2.289568e-01
-4.744685e-03
-2.424702e-01
-4.842457e-01
-7.300631e-01
-9.798619e-01
-1.233536e+00
-1.490969e+00
-1.752071e+00
-2.016756e+00
-2.284918e+00
-2.556413e+00
-2.831071e+00
-3.108722e+00
-3.389208e+00
-3.672369e+00
-3.958020e+00
-4.245926e+00
-4.535772e+00
-4.827120e+00
-5.119407e+00
-5.412027e+00
-5.704411e+00
-5.996060e+00
-6.286514e+00
-6.575309e+00
-6.861983e+00
-7.146132e+00
-7.427459e+00
-7.705700e+00
-7.980545e+00
-8.251620e+00
-8.518557e+00
-8.781075e+00
-9.039004e+00
-9.292204e+00
-9.540481e+00
-9.783582e+00
-1.002125e+01
-1.025328e+01
-1.047949e+01
-1.069976e+01
-1.091393e+01
-1.112188e+01
-1.132356e+01
-1.151896e+01
-1.170809e+01
-1.189093e+01
-1.206742e+01
-1.223752e+01
-1.240125e+01
-1.255871e+01
-1.271002e+01
-1.285517e+01
-1.299407e+01
-1.312660e+01
-1.325271e+01
-1.337252e+01
-1.348627e+01
-1.359423e+01
-1.369660e+01
-1.379345e+01
-1.388475e+01
-1.397036e+01
-1.405014e+01
-1.412398e+01
-1.419180e+01
-1.425354e+01
-1.430916e+01
-1.435858e+01
-1.440178e+01
-1.443868e+01
-1.446919e+01
-1.449319e+01
-1.451061e+01
-1.452138e+01
-1.452554e+01
-1.452312e+01
-1.451416e+01
-1.449874e+01
-1.447698e+01
-1.444911e+01
-1.441540e+01
-1.437620e+01
-1.433195e+01
-1.428321e+01
-1.423058e+01
-1.417467e+01
-1.411601e+01
-1.405506e+01
-1.399220e+01
-1.392773e+01
-1.386189e+01
-1.379492e+01
-1.372704e+01
-1.365856e+01
-1.358975e+01
-1.352084e+01
-1.345193e+01
-1.338304e+01
-1.331412e+01
-1.324506e+01
-1.317575e+01
-1.310608e+01
-1.303595e+01
-1.296528e+01
-1.289396e+01
-1.282178e+01
-1.274851e+01
-1.267384e+01
-1.259755e+01
-1.251946e+01
-1.243952e+01
-1.235771e+01
-1.227409e+01
-1.218870e+01
-1.210156e+01
-1.201271e+01
-1.192227e+01
-1.183046e+01
-1.173761e+01
-1.164408e+01
-1.155019e+01
-1.145621e+01
-1.136243e+01
-1.126920e+01
-1.117694e+01
-1.108607e+01
-1.099696e+01
-1.090988e+01
-1.082501e+01
-1.074239e+01
-1.066193e+01
-1.058342e+01
-1.050656e+01
-1.043108e+01
-1.035671e+01
-1.028317e+01
-1.021014e+01
-1.013723e+01
-1.006398e+01
-9.989981e+00
-9.914843e+00
-9.838221e+00
-9.759817e+00
-9.679378e+00
-9.596704e+00
-9.511649e+00
-9.424113e+00
-9.334023e+00
-9.241309e+00
-9.145910e+00
-9.047796e+00
-8.946994e+00
-8.843600e+00
-8.737740e+00
-8.629530e+00
-8.519054e+00
-8.406386e+00
-8.291608e+00
-8.174824e+00
-8.056154e+00
-7.935712e+00
-7.813599e+00
-7.689908e+00
-7.564746e+00
-7.438270e+00
-7.310715e+00
-7.182389e+00
-7.053632e+00
-6.924759e+00
-6.796028e+00
-6.667634e+00
-6.539734e+00
-6.412473e+00
-6.285996e+00
-6.160436e+00
-6.035876e+00
-5.912317e+00
-5.789663e+00
-5.667717e+00
-5.546201e+00
-5.424764e+00
-5.302997e+00
-5.180449e+00
-5.056652e+00
-4.931149e+00
-4.803508e+00
-4.673342e+00
-4.540348e+00
-4.404335e+00
-4.265210e+00
-4.122942e+00
-3.977529e+00
-3.829005e+00
-3.677472e+00
-3.523134e+00
-3.366273e+00
-3.207197e+00
-3.046188e+00
-2.883473e+00
-2.719246e+00
-2.553707e+00
-2.387095e+00
-2.219694e+00
-2.051783e+00
-1.883588e+00
-1.715293e+00
-1.547088e+00
-1.379231e+00
-1.212075e+00
-1.046017e+00
-8.814309e-01
-7.186279e-01
-5.578506e-01
-3.992710e-01
-2.430031e-01
-8.913353e-02
6.223879e-02
2.109738e-01
3.568900e-01
4.997957e-01
6.395232e-01
7.759381e-01
9.089347e-01
1.038429e+00
1.164341e+00
1.286556e+00
1.404890e+00
1.519090e+00
1.628871e+00
1.733982e+00
1.834246e+00
1.929567e+00
2.019910e+00
2.105307e+00
2.185881e+00
2.261874e+00
2.333644e+00
2.401618e+00
2.466232e+00
2.527874e+00
2.586847e+00
2.643341e+00
2.697422e+00
2.749039e+00
2.798074e+00
2.844409e+00
2.887995e+00
2.928880e+00
2.967194e+00
3.003131e+00
3.036918e+00
3.068820e+00
3.099129e+00
3.128162e+00
3.156248e+00
3.183732e+00
3.210977e+00
3.238362e+00
3.266254e+00
3.294967e+00
3.324713e+00
3.355591e+00
3.387602e+00
3.420687e+00
3.454768e+00
3.489769e+00
3.525624e+00
3.562278e+00
3.599653e+00
3.637628e+00
3.676013e+00
3.714577e+00
3.753097e+00
3.791407e+00
3.829411e+00
3.867055e+00
3.904284e+00
3.941009e+00
3.977102e+00
4.012377e+00
4.046583e+00
4.079406e+00
4.110498e+00
4.139526e+00
4.166208e+00
4.190334e+00
4.211749e+00
4.230334e+00
4.245987e+00
4.258622e+00
4.268182e+00
4.274661e+00
4.278122e+00
4.278685e+00
4.276519e+00
4.271833e+00
4.264879e+00
4.255942e+00
4.245329e+00
4.233324e+00
4.220146e+00
4.205925e+00
4.190692e+00
4.174376e+00
4.156833e+00
4.137892e+00
4.117402e+00
4.095249e+00
4.071348e+00
4.045607e+00
4.017913e+00
3.988145e+00
3.956194e+00
3.921974e+00
3.885415e+00
3.846478e+00
3.805186e+00
3.761678e+00
3.716230e+00
3.669226e+00
3.621085e+00
3.572221e+00
3.523018e+00
3.473849e+00
3.425085e+00
3.377110e+00
3.330317e+00
3.285111e+00
3.241895e+00
3.201056e+00
3.162949e+00
3.127912e+00
3.096285e+00
3.068399e+00
3.044562e+00
3.025061e+00
3.010159e+00
3.000091e+00
2.995034e+00
2.995048e+00
3.000026e+00
3.009670e+00
3.023486e+00
3.040777e+00
3.060672e+00
3.082204e+00
3.104414e+00
3.126438e+00
3.147547e+00
3.167156e+00
3.184800e+00
3.200103e+00
3.212753e+00
3.222501e+00
3.229140e+00
3.232479e+00
3.232301e+00
3.228373e+00
3.220524e+00
3.208804e+00
3.193560e+00
3.175357e+00
3.154798e+00
3.132399e+00
3.108574e+00
3.083695e+00
3.058157e+00
3.032351e+00
3.006607e+00
2.981192e+00
2.956331e+00
2.932209e+00
2.908966e+00
2.886693e+00
2.865435e+00
2.845207e+00
2.825986e+00
2.807682e+00
2.790117e+00
2.773040e+00
2.756163e+00
2.739203e+00
2.721903e+00
2.704032e+00
2.685387e+00
2.665778e+00
2.645031e+00
2.622989e+00
2.599517e+00
2.574507e+00
2.547864e+00
2.519491e+00
2.489264e+00
2.457032e+00
2.422633e+00
2.385902e+00
2.346691e+00
2.304881e+00
2.260394e+00
2.213184e+00
2.163223e+00
2.110471e+00
2.054868e+00
1.996338e+00
1.934813e+00
1.870243e+00
1.802602e+00
1.731889e+00
1.658135e+00
1.581395e+00
1.501732e+00
1.419170e+00
1.333673e+00
1.245150e+00
1.153478e+00
1.058534e+00
9.602165e-01
8.584434e-01
7.531573e-01
6.443166e-01
5.318866e-01
4.158356e-01
2.961572e-01
1.729310e-01
4.638150e-02
-8.311063e-02
-2.150521e-01
-3.489131e-01
-4.841833e-01
-6.203701e-01
-7.569709e-01
-8.934610e-01
-1.029311e+00
-1.164023e+00
-1.297156e+00
-1.428334e+00
-1.557237e+00
-1.683601e+00
-1.807213e+00
-1.927906e+00
-2.045541e+00
-2.160001e+00
-2.271182e+00
-2.378994e+00
-2.483355e+00
-2.584194e+00
-2.681453e+00
-2.775099e+00
-2.865118e+00
-2.951487e+00
-3.034152e+00
-3.113020e+00
-3.187967e+00
-3.258869e+00
-3.325622e+00
-3.388145e+00
-3.446369e+00
-3.500214e+00
-3.549580e+00
-3.594360e+00
-3.634467e+00
-3.669867e+00
-3.700608e+00
-3.726823e+00
