EVENT_NAME: EMILIA_2ND_SHOCK
EVENT_ID: IT-2012-0011
EVENT_DATE_YYYYMMDD: 20120529
EVENT_TIME_HHMMSS: 070002
EVENT_LATITUDE_DEGREE: 44.8417
EVENT_LONGITUDE_DEGREE: 11.0657
EVENT_DEPTH_KM: 8.1
HYPOCENTER_REFERENCE: INGV-CNT_Seismic_Bulletin
MAGNITUDE_W: 6.0
MAGNITUDE_W_REFERENCE: RCMT-INGV
MAGNITUDE_L: 5.8
MAGNITUDE_L_REFERENCE: INGV-CNT_Seismic_Bulletin
FOCAL_MECHANISM: TF
NETWORK: BA
STATION_CODE: MIRH
STATION_NAME: MIRH
STATION_LATITUDE_DEGREE: 44.882400
STATION_LONGITUDE_DEGREE: 11.063100
STATION_ELEVATION_M: 15
LOCATION: 
SENSOR_DEPTH_M: 0.0
VS30_M/S: 
SITE_CLASSIFICATION_EC8: C*
MORPHOLOGIC_CLASSIFICATION: 
EPICENTRAL_DISTANCE_KM: 4.5
EARTHQUAKE_BACKAZIMUTH_DEGREE: 177.4
DATE_TIME_FIRST_SAMPLE_YYYYMMDD_HHMMSS: 20120529_065950.000
DATE_TIME_FIRST_SAMPLE_PRECISION: seconds
SAMPLING_INTERVAL_S: 0.005000
NDATA: 12998
DURATION_S: 64.990
STREAM: HLZ
UNITS: cm
INSTRUMENT: 
INSTRUMENT_ANALOG/DIGITAL: D
INSTRUMENTAL_FREQUENCY_HZ: 
INSTRUMENTAL_DAMPING: 
FULL_SCALE_G: 
N_BIT_DIGITAL_CONVERTER: 
PGD_CM: 5.336004
TIME_PGD_S: 19.110000
BASELINE_CORRECTION: BASELINE REMOVED
FILTER_TYPE: BUTTERWORTH
FILTER_ORDER: 2
LOW_CUT_FREQUENCY_HZ: 0.070
HIGH_CUT_FREQUENCY_HZ: 40.000
LATE/NORMAL_TRIGGERED: NT
DATABASE_VERSION: DYNA 1.0
HEADER_FORMAT: DYNA 1.2
DATA_TYPE: DISPLACEMENT
PROCESSING: manual (Paolucci et al., 2011)
DATA_TIMESTAMP_YYYYMMDD_HHMMSS: 20141203_155932.433
DATA_LICENSE: U (unknown license)
DATA_CITATION: ESM working group (2015), European Strong-Motion database, version 0.1, Network Activity 3: Networking acceleration networks and SM data users. Project NERA (www.nera-eu.org)
DATA_CREATOR: ESM working group
ORIGINAL_DATA_MEDIATOR_CITATION: Basilicata Accelerometric Network, DOI 10.1007/s10518-009-9129-2
ORIGINAL_DATA_MEDIATOR: Ing. Maria Rosaria Gallipoli, CNR-IMAA, mariarosaria.gallipoli@imaa.cnr.it
ORIGINAL_DATA_CREATOR_CITATION: Basilicata Accelerometric Network, DOI 10.1007/s10518-009-9129-2
ORIGINAL_DATA_CREATOR: network: BA (University of Basilicata (UNIBAS) Network); owner: University of Basilicata
USER1: /home/dyna/processing-itaca/processing.py /var/www/processing/tmp/dyna_ingv//BA.MIRH..HLE.D.20120529.070003.X.ACC.ASC /var/www/processing/tmp/dyna_ingv//BA.MIRH..HLN.D.20120529.070003.X.ACC.ASC /var/www/processing/tmp/dyna_ingv//BA.MIRH..HLZ.D.20120529.070003.X.ACC.ASC --tmp /var/www/processing/tmp/dyna_ingv/ --le 0.0700 --he 40.000 --ln 0.0700 --hn 40.000 --lz 0.0700 --hz 40.000 --fo 2 --ca 0 --cz 1750 --ta 5 --tz 5 --mf 1 --rf 0.005 --tr NT
USER2: 
USER3: 
USER4: 
USER5: 
[...]
-1.996362e+00
-2.001638e+00
-2.006921e+00
-2.012210e+00
-2.017506e+00
-2.022808e+00
-2.028117e+00
-2.033433e+00
-2.038755e+00
-2.044085e+00
-2.049421e+00
-2.054764e+00
-2.060115e+00
-2.065472e+00
-2.070835e+00
-2.076204e+00
-2.081580e+00
-2.086962e+00
-2.092350e+00
-2.097746e+00
-2.103148e+00
-2.108558e+00
-2.113974e+00
-2.119397e+00
-2.124827e+00
-2.130264e+00
-2.135707e+00
-2.141158e+00
-2.146615e+00
-2.152079e+00
-2.157549e+00
-2.163027e+00
-2.168511e+00
-2.174003e+00
-2.179501e+00
-2.185005e+00
-2.190517e+00
-2.196035e+00
-2.201559e+00
-2.207091e+00
-2.212629e+00
-2.218173e+00
-2.223724e+00
-2.229281e+00
-2.234845e+00
-2.240414e+00
-2.245991e+00
-2.251573e+00
-2.257163e+00
-2.262759e+00
-2.268361e+00
-2.273970e+00
-2.279586e+00
-2.285208e+00
-2.290836e+00
-2.296470e+00
-2.302111e+00
-2.307757e+00
-2.313409e+00
-2.319067e+00
-2.324731e+00
-2.330403e+00
-2.336080e+00
-2.341764e+00
-2.347454e+00
-2.353151e+00
-2.358854e+00
-2.364563e+00
-2.370278e+00
-2.376000e+00
-2.381728e+00
-2.387463e+00
-2.393203e+00
-2.398950e+00
-2.404703e+00
-2.410463e+00
-2.416227e+00
-2.421997e+00
-2.427774e+00
-2.433555e+00
-2.439333e+00
-2.445099e+00
-2.450836e+00
-2.456527e+00
-2.462145e+00
-2.467654e+00
-2.473019e+00
-2.478208e+00
-2.483194e+00
-2.487947e+00
-2.492444e+00
-2.496672e+00
-2.500633e+00
-2.504336e+00
-2.507792e+00
-2.511007e+00
-2.513973e+00
-2.516662e+00
-2.519030e+00
-2.521025e+00
-2.522598e+00
-2.523729e+00
-2.524441e+00
-2.524811e+00
-2.524958e+00
-2.525008e+00
-2.525048e+00
-2.525106e+00
-2.525188e+00
-2.525335e+00
-2.525630e+00
-2.526172e+00
-2.527020e+00
-2.528199e+00
-2.529746e+00
-2.531744e+00
-2.534260e+00
-2.537255e+00
-2.540544e+00
-2.543867e+00
-2.547039e+00
-2.550044e+00
-2.552989e+00
-2.555988e+00
-2.559122e+00
-2.562456e+00
-2.566088e+00
-2.570147e+00
-2.574730e+00
-2.579845e+00
-2.585421e+00
-2.591355e+00
-2.597533e+00
-2.603843e+00
-2.610204e+00
-2.616585e+00
-2.622952e+00
-2.629215e+00
-2.635212e+00
-2.640770e+00
-2.645803e+00
-2.650348e+00
-2.654484e+00
-2.658250e+00
-2.661659e+00
-2.664765e+00
-2.667720e+00
-2.670749e+00
-2.674067e+00
-2.677796e+00
-2.681957e+00
-2.686493e+00
-2.691294e+00
-2.696208e+00
-2.701053e+00
-2.705655e+00
-2.709917e+00
-2.713867e+00
-2.717639e+00
-2.721405e+00
-2.725290e+00
-2.729337e+00
-2.733516e+00
-2.737767e+00
-2.742029e+00
-2.746258e+00
-2.750424e+00
-2.754516e+00
-2.758535e+00
-2.762476e+00
-2.766335e+00
-2.770130e+00
-2.773947e+00
-2.777936e+00
-2.782236e+00
-2.786858e+00
-2.791653e+00
-2.796389e+00
-2.800896e+00
-2.805146e+00
-2.809178e+00
-2.812988e+00
-2.816541e+00
-2.819846e+00
-2.822988e+00
-2.826092e+00
-2.829240e+00
-2.832441e+00
-2.835673e+00
-2.838933e+00
-2.842223e+00
-2.845539e+00
-2.848919e+00
-2.852460e+00
-2.856214e+00
-2.860076e+00
-2.863794e+00
-2.867094e+00
-2.869824e+00
-2.872014e+00
-2.873777e+00
-2.875219e+00
-2.876459e+00
-2.877713e+00
-2.879305e+00
-2.881590e+00
-2.884842e+00
-2.889158e+00
-2.894464e+00
-2.900559e+00
-2.907181e+00
-2.914047e+00
-2.920877e+00
-2.927435e+00
-2.933609e+00
-2.939482e+00
-2.945340e+00
-2.951604e+00
-2.958694e+00
-2.966898e+00
-2.976281e+00
-2.986643e+00
-2.997528e+00
-3.008318e+00
-3.018415e+00
-3.027427e+00
-3.035236e+00
-3.041948e+00
-3.047770e+00
-3.052936e+00
-3.057748e+00
-3.062615e+00
-3.067972e+00
-3.074106e+00
-3.081017e+00
-3.088431e+00
-3.096009e+00
-3.103555e+00
-3.111035e+00
-3.118477e+00
-3.125871e+00
-3.133147e+00
-3.140202e+00
-3.146937e+00
-3.153248e+00
-3.159030e+00
-3.164188e+00
-3.168611e+00
-3.172058e+00
-3.174146e+00
-3.174556e+00
-3.173285e+00
-3.170668e+00
-3.167186e+00
-3.163196e+00
-3.158839e+00
-3.154197e+00
-3.149447e+00
-3.144752e+00
-3.140108e+00
-3.135452e+00
-3.130873e+00
-3.126729e+00
-3.123490e+00
-3.121407e+00
-3.120328e+00
-3.119901e+00
-3.119874e+00
-3.120170e+00
-3.120802e+00
-3.121834e+00
-3.123400e+00
-3.125723e+00
-3.129009e+00
-3.133235e+00
-3.138064e+00
-3.143067e+00
-3.147993e+00
-3.152811e+00
-3.157576e+00
-3.162304e+00
-3.166960e+00
-3.171539e+00
-3.176129e+00
-3.180862e+00
-3.185857e+00
-3.191242e+00
-3.197165e+00
-3.203681e+00
-3.210641e+00
-3.217699e+00
-3.224463e+00
-3.230669e+00
-3.236287e+00
-3.241459e+00
-3.246382e+00
-3.251223e+00
-3.256082e+00
-3.260990e+00
-3.265941e+00
-3.270941e+00
-3.276060e+00
-3.281420e+00
-3.287145e+00
-3.293281e+00
-3.299753e+00
-3.306380e+00
-3.312936e+00
-3.319212e+00
-3.325037e+00
-3.330227e+00
-3.334552e+00
-3.337766e+00
-3.339682e+00
-3.340222e+00
-3.339469e+00
-3.337709e+00
-3.335447e+00
-3.333359e+00
-3.332148e+00
-3.332371e+00
-3.334348e+00
-3.338235e+00
-3.344099e+00
-3.351832e+00
-3.361018e+00
-3.370913e+00
-3.380595e+00
-3.389241e+00
-3.396384e+00
-3.402004e+00
-3.406457e+00
-3.410285e+00
-3.413966e+00
-3.417700e+00
-3.421322e+00
-3.424444e+00
-3.426691e+00
-3.427896e+00
-3.428140e+00
-3.427602e+00
-3.426368e+00
-3.424354e+00
-3.421400e+00
-3.417467e+00
-3.412701e+00
-3.407218e+00
-3.400870e+00
-3.393273e+00
-3.384085e+00
-3.373312e+00
-3.361414e+00
-3.349083e+00
-3.336974e+00
-3.325624e+00
-3.315478e+00
-3.306850e+00
-3.299875e+00
-3.294563e+00
-3.290866e+00
-3.288689e+00
-3.287861e+00
-3.288137e+00
-3.289244e+00
-3.290926e+00
-3.292921e+00
-3.294861e+00
-3.296269e+00
-3.296771e+00
-3.296274e+00
-3.294899e+00
-3.292838e+00
-3.290346e+00
-3.287783e+00
-3.285546e+00
-3.283887e+00
-3.282741e+00
-3.281739e+00
-3.280468e+00
-3.278701e+00
-3.276362e+00
-3.273439e+00
-3.270062e+00
-3.266547e+00
-3.263224e+00
-3.260194e+00
-3.257305e+00
-3.254403e+00
-3.251690e+00
-3.249720e+00
-3.248809e+00
-3.248475e+00
-3.247566e+00
-3.244902e+00
-3.239919e+00
-3.232833e+00
-3.224154e+00
-3.214100e+00
-3.202481e+00
-3.189034e+00
-3.173915e+00
-3.157944e+00
-3.142372e+00
-3.128343e+00
-3.116385e+00
-3.106255e+00
-3.097248e+00
-3.088674e+00
-3.080134e+00
-3.071535e+00
-3.062931e+00
-3.054406e+00
-3.046120e+00
-3.038345e+00
-3.031296e+00
-3.024756e+00
-3.017686e+00
-3.008102e+00
-2.993451e+00
-2.971317e+00
-2.940145e+00
-2.899624e+00
-2.850527e+00
-2.794272e+00
-2.732531e+00
-2.666966e+00
-2.599095e+00
-2.530337e+00
-2.462236e+00
-2.396731e+00
-2.336224e+00
-2.283230e+00
-2.239631e+00
-2.206103e+00
-2.182233e+00
-2.167133e+00
-2.159999e+00
-2.160176e+00
-2.166568e+00
-2.177015e+00
-2.188331e+00
-2.197081e+00
-2.200757e+00
-2.198567e+00
-2.191258e+00
-2.180324e+00
-2.167172e+00
-2.152631e+00
-2.136894e+00
-2.119656e+00
-2.100273e+00
-2.078115e+00
-2.053149e+00
-2.026273e+00
-1.998964e+00
-1.972588e+00
-1.947904e+00
-1.924960e+00
-1.903298e+00
-1.882122e+00
-1.860213e+00
-1.835886e+00
-1.807212e+00
-1.772250e+00
-1.729043e+00
-1.675701e+00
-1.610915e+00
-1.534668e+00
-1.448661e+00
-1.356073e+00
-1.260679e+00
-1.165980e+00
-1.074915e+00
-9.897575e-01
-9.117524e-01
-8.407093e-01
-7.750338e-01
-7.123790e-01
-6.507009e-01
-5.889265e-01
-5.266956e-01
-4.637556e-01
-3.997315e-01
-3.342573e-01
-2.671754e-01
-1.986645e-01
-1.293130e-01
-6.023895e-02
6.819630e-03
6.987047e-02
1.276835e-01
1.807076e-01
2.310693e-01
2.816839e-01
3.349733e-01
3.919063e-01
4.518488e-01
5.129915e-01
5.729747e-01
6.295653e-01
6.813207e-01
7.280389e-01
7.707468e-01
8.111446e-01
8.507339e-01
8.903899e-01
9.308994e-01
9.738151e-01
1.021622e+00
1.076707e+00
1.139418e+00
1.206841e+00
1.273698e+00
1.334736e+00
1.387152e+00
1.431581e+00
1.470938e+00
1.508198e+00
1.544635e+00
1.579350e+00
1.610257e+00
1.635776e+00
1.656193e+00
1.673897e+00
1.692233e+00
1.713817e+00
1.739472e+00
1.768375e+00
1.799359e+00
1.832177e+00
1.867634e+00
1.906835e+00
1.950288e+00
1.997404e+00
2.046616e+00
2.095719e+00
2.142072e+00
2.182820e+00
2.215334e+00
2.237699e+00
2.248979e+00
2.249200e+00
2.239183e+00
2.220483e+00
2.195567e+00
2.167994e+00
2.142209e+00
2.122832e+00
2.113574e+00
2.116404e+00
2.131494e+00
2.157729e+00
2.193311e+00
2.236013e+00
2.282978e+00
2.330608e+00
2.374999e+00
2.412657e+00
2.440999e+00
2.458466e+00
2.464353e+00
2.458739e+00
2.442774e+00
2.419000e+00
2.391279e+00
2.364183e+00
2.341972e+00
2.327559e+00
2.321915e+00
2.324124e+00
2.332058e+00
2.343302e+00
2.355844e+00
2.368317e+00
2.379800e+00
2.389588e+00
2.397277e+00
2.403016e+00
2.407645e+00
2.412676e+00
2.420142e+00
2.432365e+00
2.451603e+00
2.479507e+00
2.516472e+00
2.561376e+00
2.612043e+00
2.665985e+00
2.720892e+00
2.774765e+00
2.825887e+00
2.872901e+00
2.915138e+00
2.952914e+00
2.987500e+00
3.020752e+00
3.054539e+00
3.090126e+00
3.127739e+00
3.166631e+00
3.205689e+00
3.243940e+00
3.280394e+00
3.313595e+00
3.341544e+00
3.362217e+00
3.374462e+00
3.378432e+00
3.375098e+00
3.365663e+00
3.351741e+00
3.335773e+00
3.320880e+00
3.310149e+00
3.305809e+00
3.308944e+00
3.320002e+00
3.339277e+00
3.366705e+00
3.401524e+00
3.442480e+00
3.488271e+00
3.537711e+00
3.589547e+00
3.642275e+00
3.694400e+00
3.745226e+00
3.795301e+00
3.845833e+00
3.897674e+00
3.950787e+00
4.004371e+00
4.057339e+00
4.108665e+00
4.157290e+00
4.202002e+00
4.241693e+00
4.275701e+00
4.303858e+00
4.326318e+00
4.343426e+00
4.355734e+00
4.364099e+00
4.369582e+00
4.373041e+00
4.374910e+00
4.375553e+00
4.375801e+00
4.377041e+00
4.380761e+00
4.387792e+00
4.397934e+00
4.410385e+00
4.424394e+00
4.439493e+00
4.455361e+00
4.471655e+00
4.487936e+00
4.503694e+00
4.518336e+00
4.531149e+00
4.541505e+00
4.549377e+00
4.555584e+00
4.561261e+00
4.567103e+00
4.573086e+00
4.578771e+00
4.583884e+00
4.588560e+00
4.592958e+00
4.596800e+00
4.599440e+00
4.600239e+00
4.598823e+00
4.595206e+00
4.589840e+00
4.583572e+00
4.577427e+00
4.572291e+00
4.568649e+00
4.566603e+00
4.566202e+00
4.567712e+00
4.571500e+00
4.577790e+00
4.586627e+00
4.597987e+00
4.611858e+00
4.628234e+00
4.647045e+00
4.667985e+00
4.690292e+00
4.712648e+00
4.733409e+00
4.751163e+00
4.765375e+00
4.776564e+00
4.785684e+00
4.793374e+00
4.799788e+00
4.804960e+00
4.809310e+00
4.813836e+00
4.819759e+00
4.827961e+00
4.838644e+00
4.851411e+00
4.865734e+00
4.881463e+00
4.898942e+00
4.918540e+00
4.939757e+00
4.960841e+00
4.979565e+00
4.994483e+00
5.005587e+00
5.013909e+00
5.020298e+00
5.024585e+00
5.026025e+00
5.024288e+00
5.019881e+00
5.013649e+00
5.005725e+00
4.994986e+00
4.979753e+00
4.958999e+00
4.933020e+00
4.903223e+00
4.871325e+00
4.838803e+00
4.807103e+00
4.777891e+00
4.752575e+00
4.731509e+00
4.713700e+00
4.697418e+00
4.681492e+00
4.666203e+00
4.652885e+00
4.642836e+00
4.636522e+00
4.633508e+00
4.633085e+00
4.635017e+00
4.639817e+00
4.648494e+00
4.661931e+00
4.680358e+00
4.703239e+00
4.729526e+00
4.758009e+00
4.787456e+00
4.816414e+00
4.843066e+00
4.865547e+00
4.882542e+00
4.893785e+00
4.900068e+00
4.902692e+00
4.902862e+00
4.901510e+00
4.899337e+00
4.896732e+00
4.893576e+00
4.889173e+00
4.882531e+00
4.873004e+00
4.860714e+00
4.846339e+00
4.830698e+00
4.814651e+00
4.799222e+00
4.785636e+00
4.775138e+00
4.768677e+00
4.766692e+00
4.769129e+00
4.775485e+00
4.784706e+00
4.795206e+00
4.805202e+00
4.813099e+00
4.817627e+00
4.817836e+00
4.813185e+00
4.803716e+00
4.790150e+00
4.773702e+00
4.755636e+00
4.736971e+00
4.718666e+00
4.701873e+00
4.687803e+00
4.677251e+00
4.670175e+00
4.665729e+00
4.662895e+00
4.661074e+00
4.660090e+00
4.659800e+00
4.659798e+00
4.659434e+00
4.658125e+00
4.655580e+00
4.651720e+00
4.646543e+00
4.640210e+00
4.633164e+00
4.626019e+00
4.619341e+00
4.613576e+00
4.609230e+00
4.607173e+00
4.608643e+00
4.614685e+00
4.625443e+00
4.639909e+00
4.656288e+00
4.672817e+00
4.688452e+00
4.702954e+00
4.716546e+00
4.729481e+00
4.741803e+00
4.753351e+00
4.763846e+00
4.772938e+00
4.780358e+00
4.786265e+00
4.791468e+00
4.797187e+00
4.804456e+00
4.813514e+00
4.823655e+00
4.833738e+00
4.842924e+00
4.851089e+00
4.858707e+00
4.866343e+00
4.874161e+00
4.881858e+00
4.888983e+00
4.895393e+00
4.901492e+00
4.908017e+00
4.915576e+00
4.924264e+00
4.933534e+00
4.942389e+00
4.949848e+00
4.955474e+00
4.959636e+00
4.963276e+00
4.967328e+00
4.972170e+00
4.977471e+00
4.982583e+00
4.987112e+00
4.991233e+00
4.995655e+00
5.001307e+00
5.008930e+00
5.018743e+00
5.030377e+00
5.043130e+00
5.056368e+00
5.069799e+00
5.083523e+00
5.097838e+00
5.112973e+00
5.128918e+00
5.145378e+00
5.161869e+00
5.177941e+00
5.193424e+00
5.208501e+00
5.223464e+00
5.238387e+00
5.253026e+00
5.266930e+00
5.279636e+00
5.290752e+00
5.299882e+00
5.306626e+00
5.310817e+00
5.312753e+00
5.313112e+00
5.312645e+00
5.311912e+00
5.311251e+00
5.310988e+00
5.311525e+00
5.313093e+00
5.315534e+00
5.318496e+00
5.321770e+00
5.325353e+00
5.329184e+00
5.332781e+00
5.335274e+00
5.336004e+00
5.334981e+00
5.332590e+00
5.329025e+00
5.324162e+00
5.317950e+00
5.310978e+00
5.304600e+00
5.300284e+00
5.298831e+00
5.300117e+00
5.303342e+00
5.307454e+00
5.311477e+00
5.314609e+00
5.316162e+00
5.315504e+00
5.312138e+00
5.305972e+00
5.297521e+00
5.287793e+00
5.277838e+00
5.268217e+00
5.258859e+00
5.249571e+00
5.240685e+00
5.233213e+00
5.228377e+00
5.226789e+00
5.227925e+00
5.230404e+00
5.232764e+00
5.234171e+00
5.234534e+00
5.233924e+00
5.231925e+00
5.227622e+00
5.220167e+00
5.209480e+00
5.196451e+00
5.182337e+00
5.167908e+00
5.153071e+00
5.137107e+00
5.119346e+00
5.099805e+00
5.079366e+00
5.059336e+00
5.040556e+00
5.022661e+00
5.004089e+00
4.982843e+00
4.957585e+00
4.928292e+00
4.895934e+00
4.861733e+00
4.826683e+00
4.791492e+00
4.756749e+00
4.723034e+00
4.690804e+00
4.660267e+00
4.631466e+00
4.604455e+00
4.579373e+00
4.556314e+00
4.535049e+00
4.514769e+00
4.494085e+00
4.471367e+00
4.445370e+00
4.415758e+00
4.383178e+00
4.348924e+00
4.314428e+00
4.280866e+00
4.249057e+00
4.219498e+00
4.192328e+00
4.167200e+00
4.143184e+00
4.118885e+00
4.092897e+00
4.064387e+00
4.033478e+00
4.001141e+00
3.968583e+00
3.936580e+00
3.905297e+00
3.874555e+00
3.844285e+00
3.814761e+00
3.786386e+00
3.759286e+00
3.733088e+00
3.707032e+00
3.680357e+00
3.652703e+00
3.624256e+00
3.595586e+00
3.567315e+00
3.539828e+00
3.513218e+00
3.487327e+00
3.461771e+00
3.435990e+00
3.409437e+00
3.381799e+00
3.353116e+00
3.323659e+00
3.293608e+00
3.262834e+00
3.231023e+00
3.197944e+00
3.163600e+00
3.128204e+00
3.092058e+00
3.055475e+00
3.018823e+00
2.982616e+00
2.947530e+00
2.914289e+00
2.883456e+00
2.855227e+00
2.829381e+00
2.805391e+00
2.782626e+00
2.760480e+00
2.738318e+00
2.715458e+00
2.691354e+00
2.665839e+00
2.639168e+00
2.611833e+00
2.584258e+00
2.556650e+00
2.529130e+00
2.501931e+00
2.475400e+00
2.449877e+00
2.425640e+00
2.402895e+00
2.381776e+00
2.362327e+00
2.344502e+00
2.328259e+00
2.313716e+00
2.301175e+00
2.290846e+00
2.282543e+00
2.275623e+00
2.269197e+00
2.262430e+00
2.254746e+00
2.245807e+00
2.235448e+00
2.223723e+00
2.210952e+00
2.197632e+00
2.184249e+00
2.171124e+00
2.158376e+00
2.145992e+00
2.133868e+00
2.121737e+00
2.109101e+00
2.095330e+00
2.079869e+00
2.062426e+00
2.043045e+00
2.021999e+00
1.999619e+00
1.976137e+00
1.951647e+00
1.926158e+00
1.899753e+00
1.872721e+00
1.845564e+00
1.818802e+00
1.792723e+00
1.767275e+00
1.742147e+00
1.716972e+00
1.691502e+00
1.665629e+00
1.639360e+00
1.612835e+00
1.586351e+00
1.560289e+00
1.534911e+00
1.510140e+00
1.485481e+00
1.460235e+00
1.433842e+00
1.406122e+00
1.377247e+00
1.347448e+00
1.316730e+00
1.284849e+00
1.251543e+00
1.216830e+00
1.181134e+00
1.145118e+00
1.109421e+00
1.074533e+00
1.040813e+00
1.008534e+00
9.778870e-01
9.488855e-01
9.212614e-01
8.944520e-01
8.676946e-01
8.402139e-01
8.114579e-01
7.813075e-01
7.501499e-01
7.187443e-01
6.879577e-01
6.584915e-01
6.306774e-01
6.044055e-01
5.792215e-01
5.545729e-01
5.300511e-01
5.054669e-01
4.807331e-01
4.556319e-01
4.296714e-01
4.021844e-01
3.725914e-01
3.406661e-01
3.066727e-01
2.712968e-01
2.354117e-01
1.997872e-01
1.649162e-01
1.310689e-01
9.846162e-02
6.736627e-02
3.806728e-02
1.067281e-02
-1.505946e-02
-3.972343e-02
-6.408656e-02
-8.880930e-02
-1.141995e-01
-1.401281e-01
-1.661421e-01
-1.917235e-01
-2.165190e-01
-2.403864e-01
-2.632972e-01
-2.852072e-01
-3.060017e-01
-3.255712e-01
-3.439527e-01
-3.614340e-01
-3.785400e-01
-3.958643e-01
-4.138252e-01
-4.324621e-01
-4.513899e-01
-4.699584e-01
-4.875157e-01
-5.036375e-01
-5.182542e-01
-5.316410e-01
-5.442810e-01
-5.566600e-01
-5.691396e-01
-5.820088e-01
-5.956026e-01
-6.103175e-01
-6.264427e-01
-6.438711e-01
-6.619786e-01
-6.798850e-01
-6.969057e-01
-7.128784e-01
-7.281863e-01
-7.434626e-01
-7.592213e-01
-7.756718e-01
-7.927661e-01
-8.103926e-01
-8.285170e-01
-8.471260e-01
-8.660620e-01
-8.849161e-01
-9.030969e-01
-9.200840e-01
-9.356724e-01
-9.500371e-01
-9.636591e-01
-9.772119e-01
-9.914187e-01
-1.006864e+00
-1.023796e+00
-1.042012e+00
-1.060930e+00
-1.079884e+00
-1.098397e+00
-1.116219e+00
-1.133204e+00
-1.149188e+00
-1.163997e+00
-1.177597e+00
-1.190227e+00
-1.202363e+00
-1.214570e+00
-1.227325e+00
-1.240881e+00
-1.255182e+00
-1.269889e+00
-1.284556e+00
-1.298856e+00
-1.312747e+00
-1.326491e+00
-1.340509e+00
-1.355181e+00
-1.370687e+00
-1.386924e+00
-1.403472e+00
-1.419693e+00
-1.434953e+00
-1.448852e+00
-1.461295e+00
-1.472422e+00
-1.482477e+00
-1.491728e+00
-1.500490e+00
-1.509149e+00
-1.518099e+00
-1.527671e+00
-1.538087e+00
-1.549435e+00
-1.561598e+00
-1.574215e+00
-1.586766e+00
-1.598793e+00
-1.610154e+00
-1.621134e+00
-1.632283e+00
-1.644102e+00
-1.656789e+00
-1.670217e+00
-1.684158e+00
-1.698586e+00
-1.713789e+00
-1.730181e+00
-1.747889e+00
-1.766459e+00
-1.784977e+00
-1.802473e+00
-1.818308e+00
-1.832344e+00
-1.844846e+00
-1.856274e+00
-1.867148e+00
-1.877927e+00
-1.888876e+00
-1.900017e+00
-1.911256e+00
-1.922545e+00
-1.933924e+00
-1.945460e+00
-1.957157e+00
-1.968938e+00
-1.980693e+00
-1.992333e+00
-2.003760e+00
-2.014858e+00
-2.025570e+00
-2.035973e+00
-2.046252e+00
-2.056599e+00
-2.067144e+00
-2.077919e+00
-2.088873e+00
-2.099903e+00
-2.110916e+00
-2.121879e+00
-2.132859e+00
-2.143978e+00
-2.155270e+00
-2.166579e+00
-2.177607e+00
-2.188060e+00
-2.197781e+00
-2.206748e+00
-2.214912e+00
-2.222063e+00
