EVENT_NAME: EMILIA_2ND_SHOCK
EVENT_ID: IT-2012-0011
EVENT_DATE_YYYYMMDD: 20120529
EVENT_TIME_HHMMSS: 070002
EVENT_LATITUDE_DEGREE: 44.8417
EVENT_LONGITUDE_DEGREE: 11.0657
EVENT_DEPTH_KM: 8.1
HYPOCENTER_REFERENCE: INGV-CNT_Seismic_Bulletin
MAGNITUDE_W: 6.0
MAGNITUDE_W_REFERENCE: RCMT-INGV
MAGNITUDE_L: 5.8
MAGNITUDE_L_REFERENCE: INGV-CNT_Seismic_Bulletin
FOCAL_MECHANISM: TF
NETWORK: BA
STATION_CODE: MIRH
STATION_NAME: MIRH
STATION_LATITUDE_DEGREE: 44.882400
STATION_LONGITUDE_DEGREE: 11.063100
STATION_ELEVATION_M: 15
LOCATION: 
SENSOR_DEPTH_M: 0.0
VS30_M/S: 
SITE_CLASSIFICATION_EC8: C*
MORPHOLOGIC_CLASSIFICATION: 
EPICENTRAL_DISTANCE_KM: 4.5
EARTHQUAKE_BACKAZIMUTH_DEGREE: 177.4
DATE_TIME_FIRST_SAMPLE_YYYYMMDD_HHMMSS: 20120529_065950.000
DATE_TIME_FIRST_SAMPLE_PRECISION: seconds
SAMPLING_INTERVAL_S: 0.005000
NDATA: 12998
DURATION_S: 64.990
STREAM: HLN
UNITS: cm/s
INSTRUMENT: 
INSTRUMENT_ANALOG/DIGITAL: D
INSTRUMENTAL_FREQUENCY_HZ: 
INSTRUMENTAL_DAMPING: 
FULL_SCALE_G: 
N_BIT_DIGITAL_CONVERTER: 
PGV_CM/S: -55.060041
TIME_PGV_S: 19.375000
BASELINE_CORRECTION: BASELINE REMOVED
FILTER_TYPE: BUTTERWORTH
FILTER_ORDER: 2
LOW_CUT_FREQUENCY_HZ: 0.070
HIGH_CUT_FREQUENCY_HZ: 40.000
LATE/NORMAL_TRIGGERED: NT
DATABASE_VERSION: DYNA 1.0
HEADER_FORMAT: DYNA 1.2
DATA_TYPE: VELOCITY
PROCESSING: manual (Paolucci et al., 2011)
DATA_TIMESTAMP_YYYYMMDD_HHMMSS: 20141203_155932.433
DATA_LICENSE: U (unknown license)
DATA_CITATION: ESM working group (2015), European Strong-Motion database, version 0.1, Network Activity 3: Networking acceleration networks and SM data users. Project NERA (www.nera-eu.org)
DATA_CREATOR: ESM working group
ORIGINAL_DATA_MEDIATOR_CITATION: Basilicata Accelerometric Network, DOI 10.1007/s10518-009-9129-2
ORIGINAL_DATA_MEDIATOR: Ing. Maria Rosaria Gallipoli, CNR-IMAA, mariarosaria.gallipoli@imaa.cnr.it
ORIGINAL_DATA_CREATOR_CITATION: Basilicata Accelerometric Network, DOI 10.1007/s10518-009-9129-2
ORIGINAL_DATA_CREATOR: network: BA (University of Basilicata (UNIBAS) Network); owner: University of Basilicata
USER1: /home/dyna/processing-itaca/processing.py /var/www/processing/tmp/dyna_ingv//BA.MIRH..HLE.D.20120529.070003.X.ACC.ASC /var/www/processing/tmp/dyna_ingv//BA.MIRH..HLN.D.20120529.070003.X.ACC.ASC /var/www/processing/tmp/dyna_ingv//BA.MIRH..HLZ.D.20120529.070003.X.ACC.ASC --tmp /var/www/processing/tmp/dyna_ingv/ --le 0.0700 --he 40.000 --ln 0.0700 --hn 40.000 --lz 0.0700 --hz 40.000 --fo 2 --ca 0 --cz 1750 --ta 5 --tz 5 --mf 1 --rf 0.005 --tr NT
USER2: 
USER3: 
USER4: 
USER5: 
[...]
-0.580554
-0.581691
-0.582832
-0.583968
-0.585094
-0.586212
-0.587326
-0.588440
-0.589561
-0.590693
-0.591836
-0.592980
-0.594116
-0.595243
-0.596369
-0.597502
-0.598635
-0.599755
-0.600861
-0.601962
-0.603075
-0.604205
-0.605345
-0.606476
-0.607591
-0.608691
-0.609782
-0.610870
-0.611956
-0.613046
-0.614149
-0.615274
-0.616422
-0.617580
-0.618733
-0.619871
-0.620996
-0.622120
-0.623252
-0.624393
-0.625539
-0.626685
-0.627829
-0.628968
-0.630104
-0.631239
-0.632372
-0.633500
-0.634617
-0.635720
-0.636813
-0.637906
-0.639010
-0.640127
-0.641255
-0.642391
-0.643533
-0.644684
-0.645852
-0.647036
-0.648227
-0.649406
-0.650562
-0.651696
-0.652819
-0.653943
-0.655073
-0.656206
-0.657346
-0.658505
-0.659690
-0.660896
-0.662107
-0.663304
-0.664483
-0.665654
-0.666825
-0.667993
-0.669148
-0.670285
-0.671413
-0.672548
-0.673699
-0.674862
-0.676025
-0.677180
-0.678326
-0.679469
-0.680612
-0.681752
-0.682885
-0.684011
-0.685135
-0.686269
-0.687419
-0.688581
-0.689749
-0.690912
-0.692065
-0.693208
-0.694341
-0.695469
-0.696597
-0.697733
-0.698882
-0.700042
-0.701208
-0.702378
-0.703550
-0.704728
-0.705905
-0.707073
-0.708220
-0.709344
-0.710455
-0.711573
-0.712713
-0.713881
-0.715069
-0.716265
-0.717454
-0.718631
-0.719798
-0.720961
-0.722123
-0.723280
-0.724430
-0.725572
-0.726712
-0.727856
-0.729010
-0.730172
-0.731337
-0.732499
-0.733653
-0.734801
-0.735950
-0.737105
-0.738270
-0.739444
-0.740626
-0.741814
-0.743002
-0.744188
-0.745374
-0.746559
-0.747744
-0.748921
-0.750085
-0.751237
-0.752383
-0.753531
-0.754683
-0.755835
-0.756990
-0.758154
-0.759331
-0.760513
-0.761695
-0.762872
-0.764051
-0.765240
-0.766440
-0.767646
-0.768847
-0.770037
-0.771202
-0.772334
-0.773443
-0.774552
-0.775682
-0.776836
-0.778001
-0.779161
-0.780311
-0.781458
-0.782602
-0.783739
-0.784868
-0.785998
-0.787138
-0.788290
-0.789450
-0.790612
-0.791772
-0.792930
-0.794086
-0.795235
-0.796375
-0.797505
-0.798619
-0.799718
-0.800809
-0.801908
-0.803020
-0.804147
-0.805285
-0.806432
-0.807591
-0.808761
-0.809936
-0.811111
-0.812282
-0.813452
-0.814620
-0.815781
-0.816932
-0.818080
-0.819231
-0.820390
-0.821561
-0.822740
-0.823920
-0.825089
-0.826237
-0.827367
-0.828491
-0.829621
-0.830760
-0.831893
-0.833010
-0.834117
-0.835227
-0.836356
-0.837512
-0.838689
-0.839878
-0.841065
-0.842243
-0.843407
-0.844558
-0.845700
-0.846836
-0.847964
-0.849083
-0.850195
-0.851306
-0.852427
-0.853565
-0.854724
-0.855894
-0.857059
-0.858208
-0.859339
-0.860460
-0.861580
-0.862700
-0.863818
-0.864930
-0.866039
-0.867147
-0.868253
-0.869360
-0.870468
-0.871579
-0.872688
-0.873792
-0.874886
-0.875979
-0.877086
-0.878214
-0.879359
-0.880513
-0.881669
-0.882829
-0.883994
-0.885159
-0.886314
-0.887455
-0.888583
-0.889702
-0.890808
-0.891898
-0.892973
-0.894038
-0.895100
-0.896171
-0.897255
-0.898355
-0.899470
-0.900591
-0.901714
-0.902838
-0.903963
-0.905082
-0.906176
-0.907233
-0.908260
-0.909277
-0.910310
-0.911371
-0.912455
-0.913546
-0.914633
-0.915714
-0.916796
-0.917886
-0.918988
-0.920094
-0.921192
-0.922273
-0.923338
-0.924394
-0.925454
-0.926528
-0.927619
-0.928719
-0.929810
-0.930879
-0.931920
-0.932945
-0.933972
-0.935014
-0.936074
-0.937148
-0.938232
-0.939324
-0.940425
-0.941530
-0.942631
-0.943720
-0.944790
-0.945841
-0.946875
-0.947898
-0.948916
-0.949934
-0.950955
-0.951979
-0.953006
-0.954041
-0.955093
-0.956160
-0.957233
-0.958296
-0.959341
-0.960368
-0.961382
-0.962388
-0.963393
-0.964402
-0.965414
-0.966424
-0.967424
-0.968417
-0.969416
-0.970423
-0.971430
-0.972440
-0.973460
-0.974481
-0.975483
-0.976468
-0.977461
-0.978479
-0.979515
-0.980545
-0.981558
-0.982572
-0.983604
-0.984625
-0.985596
-0.986548
-0.987544
-0.988558
-0.989502
-0.990371
-0.991239
-0.992109
-0.992874
-0.993439
-0.993799
-0.994002
-0.994057
-0.993896
-0.993443
-0.992753
-0.991939
-0.990979
-0.989756
-0.988281
-0.986641
-0.984730
-0.982325
-0.979461
-0.976445
-0.973494
-0.970650
-0.968039
-0.965949
-0.964568
-0.963661
-0.962510
-0.960483
-0.957796
-0.955242
-0.953094
-0.950892
-0.948356
-0.946113
-0.945553
-0.947740
-0.952073
-0.956394
-0.958587
-0.958039
-0.955985
-0.954226
-0.953159
-0.951631
-0.948739
-0.945188
-0.943111
-0.944361
-0.948347
-0.951972
-0.951969
-0.947622
-0.942117
-0.940491
-0.945356
-0.955202
-0.966389
-0.976396
-0.985815
-0.996282
-1.006231
-1.011159
-1.008345
-0.999214
-0.987681
-0.977555
-0.970831
-0.967571
-0.966800
-0.967069
-0.966743
-0.965044
-0.963128
-0.962804
-0.963828
-0.964246
-0.963500
-0.963141
-0.964398
-0.966358
-0.966328
-0.961863
-0.952914
-0.941451
-0.929012
-0.915629
-0.900830
-0.884966
-0.869813
-0.858007
-0.851674
-0.851413
-0.856008
-0.862849
-0.868832
-0.871279
-0.868666
-0.860935
-0.849294
-0.835558
-0.821402
-0.808214
-0.797329
-0.789519
-0.784007
-0.778668
-0.771362
-0.760660
-0.745867
-0.727638
-0.708791
-0.693095
-0.682316
-0.674870
-0.667188
-0.656620
-0.643808
-0.631304
-0.619688
-0.606922
-0.591255
-0.572781
-0.552697
-0.532801
-0.515632
-0.503397
-0.495997
-0.491055
-0.486325
-0.481818
-0.479926
-0.482650
-0.488108
-0.491792
-0.491730
-0.490306
-0.491475
-0.497788
-0.509090
-0.522729
-0.534798
-0.541897
-0.542888
-0.539371
-0.534667
-0.532109
-0.533578
-0.539614
-0.550692
-0.567507
-0.589895
-0.615787
-0.640809
-0.658893
-0.664196
-0.654336
-0.633279
-0.609861
-0.592529
-0.585854
-0.590387
-0.604116
-0.624022
-0.646279
-0.665327
-0.673568
-0.662673
-0.626973
-0.567877
-0.495596
-0.426110
-0.373167
-0.339713
-0.319037
-0.304237
-0.292686
-0.282838
-0.270783
-0.250600
-0.219023
-0.180623
-0.145496
-0.121058
-0.108976
-0.108358
-0.117309
-0.131484
-0.144822
-0.153123
-0.155771
-0.154092
-0.148488
-0.137055
-0.118761
-0.098231
-0.083235
-0.076591
-0.074892
-0.074889
-0.076742
-0.081342
-0.087052
-0.089639
-0.086893
-0.083745
-0.088270
-0.101524
-0.116971
-0.129867
-0.141634
-0.155645
-0.172264
-0.188058
-0.200601
-0.214179
-0.236012
-0.265997
-0.296348
-0.321558
-0.343028
-0.364497
-0.386204
-0.402807
-0.407326
-0.397718
-0.377324
-0.349597
-0.316155
-0.279571
-0.244980
-0.218535
-0.204798
-0.204556
-0.214267
-0.227343
-0.236814
-0.238029
-0.228778
-0.207693
-0.175003
-0.135335
-0.097477
-0.070142
-0.057312
-0.055978
-0.058900
-0.060427
-0.058619
-0.053259
-0.044787
-0.034831
-0.024992
-0.014299
0.000313
0.020969
0.048793
0.086684
0.139142
0.208627
0.293455
0.388669
0.487602
0.582413
0.663078
0.717631
0.738801
0.732632
0.714622
0.695853
0.679121
0.667194
0.667537
0.688360
0.731497
0.788046
0.843217
0.887111
0.918549
0.940871
0.958952
0.978610
1.002727
1.026130
1.039757
1.041782
1.039289
1.039237
1.042789
1.047796
1.054714
1.069917
1.099576
1.139498
1.178071
1.209755
1.236986
1.259484
1.270771
1.265409
1.243864
1.210087
1.166143
1.109516
1.039199
0.964913
0.902435
0.858256
0.827436
0.806326
0.799469
0.814338
0.852096
0.902039
0.947398
0.978678
0.999044
1.019064
1.049144
1.093204
1.144645
1.187361
1.206863
1.205471
1.201451
1.211467
1.236492
1.260997
1.266622
1.250533
1.226107
1.207054
1.198290
1.198978
1.207379
1.223285
1.249469
1.291702
1.354022
1.431627
1.511546
1.582551
1.645619
1.717082
1.816387
1.946342
2.091014
2.231025
2.352118
2.443311
2.499430
2.529406
2.555636
2.600311
2.668143
2.737130
2.773068
2.759351
2.706877
2.639063
2.574687
2.518805
2.463555
2.398220
2.325285
2.272974
2.283974
2.384854
2.568662
2.801119
3.041447
3.264455
3.463755
3.640238
3.800203
3.961529
4.142893
4.339981
4.524400
4.667284
4.754788
4.786156
4.767058
4.706558
4.620203
4.532832
4.468546
4.434891
4.427706
4.452045
4.522966
4.644257
4.798679
4.959758
5.110613
5.254936
5.404254
5.551920
5.671597
5.741997
5.763943
5.757290
5.745167
5.738461
5.738442
5.749943
5.775416
5.795537
5.777481
5.710220
5.620479
5.555734
5.553566
5.618459
5.731369
5.880476
6.066246
6.280251
6.500590
6.709600
6.902078
7.075444
7.218146
7.306716
7.316681
7.242175
7.107144
6.961699
6.864106
6.854528
6.938253
7.089414
7.280703
7.519719
7.841143
8.257216
8.725970
9.161212
9.477957
9.647374
9.708418
9.733706
9.791997
9.924168
10.133495
10.389381
10.646061
10.869980
11.054147
11.212490
11.361003
11.499906
11.621192
11.733770
11.866280
12.044900
12.279359
12.566031
12.893606
13.243445
13.585371
13.876192
14.072997
14.154251
14.121758
13.984203
13.749635
13.430752
13.045063
12.607766
12.132120
11.639532
11.165433
10.751913
10.424481
10.167527
9.933614
9.682137
9.401080
9.098976
8.784837
8.453209
8.092362
7.706725
7.318531
6.946241
6.589225
6.229605
5.845922
5.430302
4.996840
4.580203
4.229812
3.998236
3.918276
3.977513
4.119329
4.272275
4.382367
4.436223
4.468565
4.552343
4.771034
5.179893
5.779116
6.510918
7.286022
8.025227
8.676951
9.208324
9.599175
9.845577
9.959212
9.960300
9.874947
9.737195
9.584271
9.444195
9.328119
9.234030
9.160992
9.120991
9.123700
9.147238
9.146827
9.097787
9.012053
8.916421
8.829029
8.753274
8.690885
8.657589
8.669794
8.714731
8.759193
8.792258
8.836157
8.916317
9.038603
9.191893
9.364291
9.555627
9.766076
9.974455
10.151176
10.298097
10.453070
10.652991
10.906197
11.193289
11.486115
11.768736
12.038303
12.290286
12.515457
12.710102
12.877177
13.016631
13.124419
13.202800
13.266442
13.339257
13.447289
13.612161
13.849112
14.168685
14.576827
15.071684
15.638689
16.247007
16.853603
17.416185
17.909233
18.333805
18.706413
19.035192
19.315802
19.546997
19.734770
19.880011
19.971266
19.991304
19.931194
19.799488
19.609015
19.352873
19.010868
18.582825
18.099388
17.601843
17.121849
16.674435
16.261452
15.878398
15.515787
15.158254
14.792679
14.419128
14.041553
13.645662
13.203537
12.704190
12.166855
11.626031
11.109238
10.623426
10.162418
9.726123
9.322205
8.951350
8.605241
8.279193
7.974974
7.691386
7.422660
7.167349
6.931356
6.719791
6.525591
6.324829
6.090771
5.817961
5.525098
5.235695
4.964427
4.716187
4.487077
4.264840
4.035239
3.792446
3.540274
3.283125
3.019356
2.744651
2.466779
2.219349
2.046980
1.969117
1.967534
2.005865
2.054597
2.105901
2.169973
2.258891
2.377786
2.528786
2.720761
2.975245
3.315023
3.741338
4.227512
4.735597
5.240562
5.744553
6.260695
6.782758
7.293992
7.808762
8.379029
9.054088
9.840632
10.691498
11.536736
12.336170
13.095082
13.838237
14.585143
15.340918
16.094625
16.822124
17.497952
18.110987
18.664230
19.158382
19.579994
19.903566
20.106712
20.188120
20.166203
20.059429
19.872202
19.595387
19.218475
18.745401
18.199596
17.617754
17.042692
16.517792
16.078485
15.739908
15.487364
15.277428
15.058557
14.800699
14.500582
14.162669
13.788204
13.381061
12.956667
12.544345
12.177492
11.877227
11.646061
11.472525
11.334713
11.201760
11.041908
10.834459
10.569779
10.238328
9.827613
9.330980
8.756110
8.124095
7.453967
6.744246
5.981486
5.171692
4.353848
3.583919
2.905819
2.327872
1.828713
1.384664
0.980271
0.598662
0.219756
-0.168791
-0.567348
-0.973021
-1.391574
-1.841806
-2.341217
-2.883667
-3.442807
-3.999316
-4.553944
-5.118190
-5.701944
-6.306947
-6.926008
-7.546715
-8.159035
-8.763915
-9.374648
-10.009684
-10.682951
-11.397714
-12.150568
-12.939495
-13.759030
-14.589343
-15.409077
-16.226322
-17.082895
-18.024935
-19.071918
-20.202827
-21.369362
-22.526354
-23.648802
-24.729309
-25.768303
-26.762432
-27.693481
-28.523769
-29.211433
-29.738785
-30.122511
-30.399366
-30.604162
-30.751884
-30.835386
-30.838175
-30.751135
-30.585320
-30.371046
-30.143730
-29.927616
-29.725950
-29.527384
-29.324635
-29.125826
-28.951788
-28.822929
-28.743820
-28.700912
-28.674606
-28.653141
-28.639479
-28.644009
-28.669991
-28.712896
-28.772749
-28.857183
-28.971354
-29.109428
-29.254990
-29.390165
-29.506481
-29.603342
-29.676514
-29.714901
-29.708397
-29.654404
-29.558025
-29.428112
-29.273453
-29.104836
-28.939831
-28.798428
-28.690237
-28.607712
-28.530731
-28.438526
-28.320166
-28.169743
-27.973251
-27.714325
-27.395845
-27.043709
-26.688200
-26.349081
-26.036526
-25.765608
-25.569344
-25.483128
-25.511431
-25.626669
-25.801956
-26.031137
-26.322733
-26.685150
-27.115398
-27.598967
-28.117971
-28.657133
-29.207214
-29.771603
-30.370680
-31.027687
-31.744587
-32.503719
-33.294090
-34.122475
-34.999035
-35.916538
-36.840076
-37.723534
-38.543354
-39.312153
-40.065128
-40.838329
-41.649628
-42.489983
-43.328785
-44.134769
-44.901459
-45.647587
-46.392609
-47.137714
-47.864910
-48.551929
-49.191643
-49.794010
-50.371872
-50.932335
-51.477360
-52.002674
-52.496387
-52.950558
-53.378128
-53.803585
-54.229538
-54.619694
-54.913109
-55.060040
-55.057659
-54.946438
-54.772385
-54.562756
-54.326511
-54.060284
-53.752403
-53.389420
-52.964832
-52.481556
-51.947830
-51.374210
-50.772640
-50.152081
-49.510860
-48.833748
-48.098553
-47.292202
-46.426430
-45.530670
-44.626167
-43.712963
-42.776794
-41.800934
-40.774960
-39.697308
-38.571480
-37.398338
-36.171135
-34.885864
-33.560890
-32.238144
-30.960760
-29.746538
-28.574947
-27.406883
-26.223457
-25.034786
-23.855492
-22.686773
-21.517996
-20.336670
-19.138182
-17.929014
-16.723648
-15.538574
-14.385112
-13.263489
-12.161639
-11.063430
-9.960653
-8.851991
-7.732418
-6.595867
-5.449919
-4.316511
-3.215562
-2.152790
-1.121007
-0.112173
0.870076
1.815576
2.725333
3.613820
4.494180
5.370013
6.239532
7.100870
7.953945
8.800878
9.645880
10.492902
11.340945
12.180442
12.994315
13.766809
14.493362
15.174548
15.799404
16.346457
16.803026
17.174942
17.478682
17.727814
17.924385
18.065054
18.154917
18.206272
18.224277
18.205187
18.149109
18.065107
17.963593
17.848303
17.714756
17.556213
17.372059
17.167486
16.945810
16.706047
16.447071
16.168882
15.870066
15.549009
15.209722
14.865031
14.534327
14.237391
13.987464
13.789324
13.642318
13.543354
13.488409
13.473838
13.497609
13.558865
13.655717
13.783329
13.933942
14.100177
14.279796
14.476143
14.693610
14.932749
15.188148
15.451506
15.717771
15.987306
16.263060
16.547220
16.839581
17.138084
17.440495
17.744839
18.048615
18.348883
18.643867
18.934982
19.227829
19.529848
19.845182
20.170937
20.497318
20.813007
21.112803
21.399353
21.678360
21.954046
22.228130
22.502661
22.783871
23.080992
23.400640
23.743944
24.107992
24.488281
24.880882
25.284491
25.701639
26.136709
26.591398
27.062239
27.541468
28.019926
28.490463
28.949982
29.400331
29.849119
30.308754
30.789673
31.290697
31.797873
32.292088
32.755089
33.171021
33.527035
33.814545
34.029713
34.172287
34.243191
34.242962
34.174492
34.047363
33.874752
33.664356
33.416218
33.128819
32.804150
32.448269
32.069393
31.675566
31.273750
30.869551
30.465509
30.059343
29.646994
29.229090
28.812399
28.405104
28.011831
27.631151
27.256060
26.877117
26.487095
26.085543
25.679625
25.280893
24.901003
24.548441
24.228340
23.944168
23.697218
23.484264
23.297817
23.128752
22.966921
22.800285
22.618130
22.417774
22.206919
21.999294
21.807138
21.634907
21.480591
21.342857
21.224024
21.127125
21.052437
20.995270
20.944492
20.883022
20.793945
20.669483
20.512033
20.326105
20.110451
19.856424
19.556328
19.215933
18.854662
18.493029
18.142735
17.804737
17.472420
17.136738
16.789972
16.427736
16.050035
15.660732
15.263903
14.859319
14.443758
14.017101
13.584078
13.150118
12.717409
12.284398
11.849099
11.412987
10.978926
10.545196
10.106140
9.659308
9.208210
8.758340
8.312791
7.870830
7.429996
6.989178
6.547779
6.102830
5.651989
5.200523
4.760094
4.339397
3.939605
3.558220
3.195620
2.859228
2.560418
2.307107
2.102444
1.949579
1.852794
1.813813
1.830555
1.900014
2.020997
2.194710
2.423148
2.705862
3.036750
3.402909
3.789110
4.186616
4.598281
5.035104
5.502858
5.987411
6.459563
6.896305
7.290883
7.645905
7.963837
8.242563
8.477417
8.665352
8.802967
8.881124
8.888835
8.824189
8.694965
8.508660
8.268700
7.979032
7.645136
7.269192
6.847878
6.376033
5.853127
5.287576
4.692039
4.073653
3.434098
2.778852
2.119933
1.469996
0.838847
0.235235
-0.331646
-0.853561
-1.326537
-1.753859
-2.144961
-2.510111
-2.854786
-3.176660
-3.468386
-3.724536
-3.945438
-4.135244
-4.296191
-4.424414
-4.516333
-4.581073
-4.639959
-4.712594
-4.807630
-4.923860
-5.055893
-5.199248
-5.350475
-5.504651
-5.657926
-5.813623
-5.981309
-6.169108
-6.380572
-6.617877
-6.883771
-7.180111
-7.506132
-7.857872
-8.228384
-8.608716
-8.990396
-9.368877
-9.745192
-10.124556
-10.512355
-10.910535
-11.320098
-11.746796
-12.198788
-12.678015
-13.180099
-13.703295
-14.252092
-14.831643
-15.440237
-16.066046
-16.693621
-17.315592
-17.934753
-18.556496
-19.185232
-19.826624
-20.486408
-21.165232
-21.858171
-22.560207
-23.270313
-23.990688
-24.721537
-25.455383
-26.178774
-26.879551
-27.548582
-28.175329
-28.746771
-29.251360
-29.682047
-30.036301
-30.315159
-30.522203
-30.662155
-30.739176
-30.756144
-30.715517
-30.621330
-30.480467
-30.299582
-30.079165
-29.811920
-29.486847
-29.095036
-28.635027
-28.115833
-27.555984
-26.976423
-26.390425
-25.800533
-25.203690
-24.597124
-23.981525
-23.360632
-22.739006
-22.121559
-21.514149
-20.921387
-20.343071
-19.776134
-19.221004
-18.682838
-18.166616
-17.673681
-17.201986
-16.747519
-16.305557
-15.871803
-15.443755
-15.022019
-14.609979
-14.209516
-13.815743
-13.419491
-13.015871
-12.606411
-12.193292
-11.775068
-11.347206
-10.905040
-10.446360
-9.970796
-9.477465
-8.966004
-8.440012
-7.906131
-7.369051
-6.829973
-6.289338
-5.748058
-5.205969
-4.661035
-4.110641
-3.553885
-2.993223
-2.433302
-1.877993
-1.329657
-0.790520
-0.262239
0.256265
0.768614
1.278327
1.787678
2.298444
2.811295
3.323400
3.827157
4.311524
4.765851
5.184028
5.564144
5.904151
6.199336
6.443423
6.631603
6.763626
6.844447
6.882411
6.887000
6.867179
6.830571
6.782333
6.722182
6.641994
6.530893
6.386258
6.219148
6.050554
5.902004
5.785329
5.699457
5.634513
5.577602
5.518749
5.457189
5.404581
5.376983
5.379614
5.402812
5.431771
5.456951
5.477905
5.497986
5.515710
5.526431
5.532318
5.543624
5.569872
5.614962
5.679532
