EVENT_NAME: EMILIA_2ND_SHOCK
EVENT_ID: IT-2012-0011
EVENT_DATE_YYYYMMDD: 20120529
EVENT_TIME_HHMMSS: 070002
EVENT_LATITUDE_DEGREE: 44.8417
EVENT_LONGITUDE_DEGREE: 11.0657
EVENT_DEPTH_KM: 8.1
HYPOCENTER_REFERENCE: INGV-CNT_Seismic_Bulletin
MAGNITUDE_W: 6.0
MAGNITUDE_W_REFERENCE: RCMT-INGV
MAGNITUDE_L: 5.8
MAGNITUDE_L_REFERENCE: INGV-CNT_Seismic_Bulletin
FOCAL_MECHANISM: TF
NETWORK: BA
STATION_CODE: MIRH
STATION_NAME: MIRH
STATION_LATITUDE_DEGREE: 44.882400
STATION_LONGITUDE_DEGREE: 11.063100
STATION_ELEVATION_M: 15
LOCATION: 
SENSOR_DEPTH_M: 0.0
VS30_M/S: 
SITE_CLASSIFICATION_EC8: C*
MORPHOLOGIC_CLASSIFICATION: 
EPICENTRAL_DISTANCE_KM: 4.5
EARTHQUAKE_BACKAZIMUTH_DEGREE: 177.4
DATE_TIME_FIRST_SAMPLE_YYYYMMDD_HHMMSS: 20120529_065950.000
DATE_TIME_FIRST_SAMPLE_PRECISION: seconds
SAMPLING_INTERVAL_S: 0.005000
NDATA: 12998
DURATION_S: 64.990
STREAM: HLE
UNITS: cm/s
INSTRUMENT: 
INSTRUMENT_ANALOG/DIGITAL: D
INSTRUMENTAL_FREQUENCY_HZ: 
INSTRUMENTAL_DAMPING: 
FULL_SCALE_G: 
N_BIT_DIGITAL_CONVERTER: 
PGV_CM/S: -24.738718
TIME_PGV_S: 18.895000
BASELINE_CORRECTION: BASELINE REMOVED
FILTER_TYPE: BUTTERWORTH
FILTER_ORDER: 2
LOW_CUT_FREQUENCY_HZ: 0.070
HIGH_CUT_FREQUENCY_HZ: 40.000
LATE/NORMAL_TRIGGERED: NT
DATABASE_VERSION: DYNA 1.0
HEADER_FORMAT: DYNA 1.2
DATA_TYPE: VELOCITY
PROCESSING: manual (Paolucci et al., 2011)
DATA_TIMESTAMP_YYYYMMDD_HHMMSS: 20141203_155932.433
DATA_LICENSE: U (unknown license)
DATA_CITATION: ESM working group (2015), European Strong-Motion database, version 0.1, Network Activity 3: Networking acceleration networks and SM data users. Project NERA (www.nera-eu.org)
DATA_CREATOR: ESM working group
ORIGINAL_DATA_MEDIATOR_CITATION: Basilicata Accelerometric Network, DOI 10.1007/s10518-009-9129-2
ORIGINAL_DATA_MEDIATOR: Ing. Maria Rosaria Gallipoli, CNR-IMAA, mariarosaria.gallipoli@imaa.cnr.it
ORIGINAL_DATA_CREATOR_CITATION: Basilicata Accelerometric Network, DOI 10.1007/s10518-009-9129-2
ORIGINAL_DATA_CREATOR: network: BA (University of Basilicata (UNIBAS) Network); owner: University of Basilicata
USER1: /home/dyna/processing-itaca/processing.py /var/www/processing/tmp/dyna_ingv//BA.MIRH..HLE.D.20120529.070003.X.ACC.ASC /var/www/processing/tmp/dyna_ingv//BA.MIRH..HLN.D.20120529.070003.X.ACC.ASC /var/www/processing/tmp/dyna_ingv//BA.MIRH..HLZ.D.20120529.070003.X.ACC.ASC --tmp /var/www/processing/tmp/dyna_ingv/ --le 0.0700 --he 40.000 --ln 0.0700 --hn 40.000 --lz 0.0700 --hz 40.000 --fo 2 --ca 0 --cz 1750 --ta 5 --tz 5 --mf 1 --rf 0.005 --tr NT
USER2: 
USER3: 
USER4: 
USER5: 
[...]
-0.123005
-0.123233
-0.123458
-0.123675
-0.123883
-0.124085
-0.124281
-0.124473
-0.124665
-0.124861
-0.125063
-0.125270
-0.125475
-0.125669
-0.125853
-0.126030
-0.126205
-0.126377
-0.126549
-0.126722
-0.126902
-0.127096
-0.127307
-0.127534
-0.127768
-0.128000
-0.128222
-0.128428
-0.128617
-0.128794
-0.128969
-0.129154
-0.129353
-0.129561
-0.129765
-0.129954
-0.130129
-0.130300
-0.130480
-0.130674
-0.130875
-0.131073
-0.131261
-0.131440
-0.131614
-0.131784
-0.131952
-0.132116
-0.132277
-0.132440
-0.132611
-0.132792
-0.132980
-0.133169
-0.133359
-0.133559
-0.133778
-0.134016
-0.134260
-0.134489
-0.134693
-0.134881
-0.135071
-0.135276
-0.135496
-0.135718
-0.135932
-0.136138
-0.136340
-0.136544
-0.136749
-0.136951
-0.137148
-0.137342
-0.137531
-0.137716
-0.137893
-0.138060
-0.138220
-0.138382
-0.138549
-0.138720
-0.138894
-0.139069
-0.139252
-0.139447
-0.139654
-0.139862
-0.140065
-0.140259
-0.140449
-0.140643
-0.140843
-0.141042
-0.141234
-0.141417
-0.141594
-0.141773
-0.141960
-0.142153
-0.142350
-0.142549
-0.142746
-0.142938
-0.143123
-0.143301
-0.143475
-0.143653
-0.143836
-0.144018
-0.144198
-0.144378
-0.144564
-0.144763
-0.144973
-0.145182
-0.145381
-0.145566
-0.145744
-0.145925
-0.146113
-0.146309
-0.146511
-0.146713
-0.146905
-0.147083
-0.147249
-0.147413
-0.147586
-0.147769
-0.147956
-0.148136
-0.148306
-0.148469
-0.148629
-0.148790
-0.148953
-0.149121
-0.149299
-0.149488
-0.149687
-0.149891
-0.150098
-0.150307
-0.150518
-0.150733
-0.150951
-0.151172
-0.151396
-0.151620
-0.151844
-0.152067
-0.152287
-0.152501
-0.152705
-0.152899
-0.153085
-0.153267
-0.153448
-0.153626
-0.153803
-0.153979
-0.154159
-0.154342
-0.154526
-0.154707
-0.154881
-0.155051
-0.155221
-0.155395
-0.155574
-0.155756
-0.155940
-0.156123
-0.156301
-0.156470
-0.156634
-0.156800
-0.156972
-0.157148
-0.157319
-0.157481
-0.157638
-0.157798
-0.157969
-0.158149
-0.158331
-0.158508
-0.158682
-0.158860
-0.159043
-0.159228
-0.159408
-0.159582
-0.159752
-0.159923
-0.160095
-0.160259
-0.160411
-0.160555
-0.160699
-0.160848
-0.161004
-0.161165
-0.161332
-0.161510
-0.161700
-0.161891
-0.162075
-0.162248
-0.162419
-0.162596
-0.162782
-0.162972
-0.163158
-0.163343
-0.163528
-0.163714
-0.163898
-0.164077
-0.164253
-0.164433
-0.164620
-0.164812
-0.165006
-0.165202
-0.165402
-0.165598
-0.165786
-0.165958
-0.166117
-0.166269
-0.166415
-0.166555
-0.166692
-0.166830
-0.166976
-0.167126
-0.167277
-0.167426
-0.167576
-0.167726
-0.167873
-0.168015
-0.168156
-0.168306
-0.168464
-0.168624
-0.168783
-0.168946
-0.169120
-0.169305
-0.169491
-0.169667
-0.169832
-0.169994
-0.170156
-0.170313
-0.170461
-0.170607
-0.170758
-0.170921
-0.171096
-0.171278
-0.171461
-0.171643
-0.171821
-0.171994
-0.172161
-0.172322
-0.172479
-0.172636
-0.172795
-0.172956
-0.173118
-0.173277
-0.173435
-0.173591
-0.173744
-0.173886
-0.174016
-0.174136
-0.174255
-0.174380
-0.174511
-0.174644
-0.174777
-0.174917
-0.175067
-0.175226
-0.175390
-0.175556
-0.175725
-0.175900
-0.176075
-0.176242
-0.176394
-0.176528
-0.176653
-0.176775
-0.176897
-0.177019
-0.177139
-0.177258
-0.177378
-0.177501
-0.177629
-0.177760
-0.177893
-0.178028
-0.178167
-0.178311
-0.178459
-0.178604
-0.178741
-0.178868
-0.178989
-0.179112
-0.179241
-0.179377
-0.179517
-0.179662
-0.179812
-0.179964
-0.180113
-0.180251
-0.180374
-0.180485
-0.180594
-0.180710
-0.180841
-0.180986
-0.181135
-0.181278
-0.181409
-0.181532
-0.181661
-0.181806
-0.181964
-0.182123
-0.182270
-0.182401
-0.182521
-0.182641
-0.182766
-0.182891
-0.183008
-0.183110
-0.183200
-0.183287
-0.183381
-0.183487
-0.183602
-0.183718
-0.183832
-0.183941
-0.184048
-0.184155
-0.184266
-0.184385
-0.184513
-0.184644
-0.184772
-0.184894
-0.185009
-0.185123
-0.185239
-0.185357
-0.185473
-0.185589
-0.185708
-0.185835
-0.185965
-0.186089
-0.186205
-0.186318
-0.186435
-0.186557
-0.186677
-0.186789
-0.186893
-0.187002
-0.187120
-0.187243
-0.187364
-0.187479
-0.187591
-0.187707
-0.187829
-0.187953
-0.188073
-0.188182
-0.188281
-0.188371
-0.188460
-0.188556
-0.188664
-0.188783
-0.188904
-0.189020
-0.189128
-0.189231
-0.189332
-0.189434
-0.189532
-0.189625
-0.189717
-0.189812
-0.189911
-0.190010
-0.190107
-0.190205
-0.190307
-0.190412
-0.190513
-0.190602
-0.190683
-0.190764
-0.190854
-0.190948
-0.191037
-0.191118
-0.191193
-0.191268
-0.191341
-0.191408
-0.191464
-0.191515
-0.191563
-0.191610
-0.191657
-0.191704
-0.191756
-0.191815
-0.191876
-0.191931
-0.191977
-0.192020
-0.192069
-0.192124
-0.192177
-0.192216
-0.192240
-0.192259
-0.192282
-0.192312
-0.192343
-0.192375
-0.192408
-0.192444
-0.192485
-0.192533
-0.192592
-0.192666
-0.192740
-0.192797
-0.192841
-0.192886
-0.192936
-0.192978
-0.193023
-0.193092
-0.193185
-0.193271
-0.193326
-0.193361
-0.193403
-0.193465
-0.193518
-0.193539
-0.193570
-0.193668
-0.193780
-0.193790
-0.193693
-0.193579
-0.193432
-0.193107
-0.192512
-0.191707
-0.190822
-0.189908
-0.188870
-0.187615
-0.186276
-0.185111
-0.184155
-0.183210
-0.182153
-0.181014
-0.179767
-0.178271
-0.176434
-0.174310
-0.172062
-0.169977
-0.168491
-0.167995
-0.168458
-0.169335
-0.169921
-0.169957
-0.170000
-0.170761
-0.171984
-0.172777
-0.173175
-0.174435
-0.177589
-0.181932
-0.184844
-0.183942
-0.180032
-0.176522
-0.175595
-0.176249
-0.175811
-0.173006
-0.170048
-0.170413
-0.174089
-0.177341
-0.177211
-0.174225
-0.171210
-0.170423
-0.171376
-0.171951
-0.171524
-0.171133
-0.170884
-0.169574
-0.166926
-0.164178
-0.162320
-0.160949
-0.158943
-0.156100
-0.154235
-0.155596
-0.159840
-0.164256
-0.167099
-0.169105
-0.171951
-0.176164
-0.180236
-0.182063
-0.181548
-0.180872
-0.182238
-0.186115
-0.191182
-0.195600
-0.198566
-0.200467
-0.201746
-0.202345
-0.202116
-0.201306
-0.200614
-0.200729
-0.201707
-0.202953
-0.203883
-0.204528
-0.205514
-0.207055
-0.207851
-0.206108
-0.201959
-0.197466
-0.194038
-0.190922
-0.186185
-0.179254
-0.172673
-0.169533
-0.168720
-0.165935
-0.159741
-0.153100
-0.149123
-0.147982
-0.147620
-0.146471
-0.145487
-0.146155
-0.146685
-0.143600
-0.137404
-0.132474
-0.131026
-0.130944
-0.129478
-0.126833
-0.126372
-0.131037
-0.139058
-0.145513
-0.148415
-0.150229
-0.153742
-0.159107
-0.164407
-0.167890
-0.169881
-0.172301
-0.176514
-0.182637
-0.190577
-0.200386
-0.211387
-0.221480
-0.227476
-0.226684
-0.218983
-0.207312
-0.196081
-0.188582
-0.184872
-0.182565
-0.180068
-0.178603
-0.181341
-0.189883
-0.200799
-0.207856
-0.208604
-0.206602
-0.207381
-0.213116
-0.220169
-0.223144
-0.221969
-0.221321
-0.223178
-0.224573
-0.222379
-0.216860
-0.210684
-0.205359
-0.198670
-0.187816
-0.175070
-0.165417
-0.158319
-0.148344
-0.134514
-0.122849
-0.119054
-0.121643
-0.121976
-0.113325
-0.101310
-0.098180
-0.105401
-0.111509
-0.107273
-0.095140
-0.085069
-0.083894
-0.087617
-0.087936
-0.086433
-0.092613
-0.107437
-0.119457
-0.117743
-0.102405
-0.083860
-0.072379
-0.066772
-0.058376
-0.046075
-0.038267
-0.040365
-0.048705
-0.056205
-0.059600
-0.061804
-0.067088
-0.073873
-0.076556
-0.074442
-0.073011
-0.076553
-0.084758
-0.096040
-0.110534
-0.129618
-0.153188
-0.177488
-0.197578
-0.212528
-0.225520
-0.238921
-0.252066
-0.263391
-0.272472
-0.280030
-0.286485
-0.290526
-0.289940
-0.283982
-0.273833
-0.260896
-0.245882
-0.229500
-0.213424
-0.200229
-0.191399
-0.185107
-0.178058
-0.170170
-0.164985
-0.165009
-0.167974
-0.167207
-0.156731
-0.137411
-0.115735
-0.096354
-0.078907
-0.060979
-0.040884
-0.017712
0.010118
0.045670
0.091145
0.143930
0.196881
0.243075
0.279454
0.306920
0.327248
0.339482
0.341055
0.332846
0.321082
0.313725
0.314097
0.316694
0.312681
0.300988
0.288661
0.280162
0.271459
0.254004
0.223018
0.183297
0.144332
0.109140
0.073561
0.035906
0.000511
-0.027436
-0.045267
-0.051565
-0.045282
-0.027303
-0.002353
0.021188
0.035782
0.040345
0.038504
0.031729
0.019818
0.007602
0.003463
0.009853
0.021307
0.032259
0.043042
0.058609
0.081273
0.104306
0.118270
0.124401
0.132141
0.143175
0.149675
0.149265
0.152850
0.176658
0.226380
0.286514
0.333683
0.364329
0.397371
0.449658
0.519076
0.587929
0.638619
0.669172
0.690844
0.711326
0.727342
0.731310
0.719558
0.695795
0.668819
0.646557
0.631328
0.618607
0.600660
0.573446
0.541074
0.515381
0.510364
0.534229
0.586091
0.658710
0.743640
0.835621
0.932463
1.031303
1.126700
1.212188
1.283336
1.339583
1.381533
1.406378
1.410141
1.395413
1.372676
1.352987
1.340067
1.327679
1.306811
1.278275
1.255822
1.256716
1.288253
1.338331
1.380880
1.394199
1.375825
1.344814
1.327172
1.334281
1.360342
1.398195
1.447447
1.508736
1.576970
1.641113
1.691842
1.729908
1.760780
1.781153
1.782286
1.767588
1.753876
1.753430
1.762932
1.769036
1.763334
1.754100
1.756584
1.770259
1.778048
1.768007
1.743633
1.714442
1.684058
1.647912
1.606300
1.580534
1.601990
1.679836
1.791077
1.901004
1.987127
2.050265
2.104755
2.158310
2.209481
2.261271
2.322608
2.395341
2.470595
2.540065
2.607528
2.690352
2.805346
2.948513
3.095033
3.219308
3.308697
3.362305
3.382443
3.368034
3.320371
3.255065
3.197900
3.165344
3.155068
3.155086
3.162519
3.196792
3.284184
3.423738
3.580227
3.710881
3.794016
3.841146
3.883053
3.940179
4.008389
4.065551
4.084149
4.044040
3.944876
3.813519
3.693165
3.616871
3.588862
3.585051
3.575005
3.552200
3.539373
3.566224
3.646079
3.766231
3.899043
4.024786
4.140082
4.248212
4.347722
4.428732
4.480788
4.505224
4.514447
4.519301
4.523724
4.530281
4.544563
4.572330
4.610230
4.638264
4.629928
4.575590
4.491768
4.409198
4.351602
4.317344
4.280651
4.211329
4.094175
3.937508
3.764161
3.591732
3.424027
3.258284
3.097229
2.956729
2.859167
2.816237
2.819148
2.841731
2.852737
2.833079
2.789454
2.756478
2.777376
2.872444
3.028756
3.216669
3.412028
3.609367
3.815049
4.030081
4.251309
4.487414
4.755630
5.058606
5.376199
5.680697
5.956421
6.208999
6.453023
6.688928
6.902282
7.084593
7.242239
7.387515
7.531267
7.682559
7.847005
8.022242
8.198192
8.364051
8.515664
8.656282
8.784328
8.879562
8.917040
8.899823
8.860778
8.830415
8.815544
8.805117
8.791669
8.788620
8.816039
8.868545
8.919230
8.957505
9.002203
9.078270
9.192373
9.326691
9.454728
9.563992
9.653241
9.711202
9.720485
9.686234
9.643226
9.631498
9.668923
9.740343
9.815794
9.883201
9.952846
10.033440
10.119815
10.202174
10.277927
10.354777
10.442085
10.538954
10.637663
10.738760
10.852334
10.983712
11.126033
11.267086
11.402104
11.541910
11.703118
11.887502
12.079037
12.261093
12.430329
12.596700
12.770714
12.948301
13.113205
13.252964
13.362210
13.431914
13.447480
13.400287
13.296989
13.157015
12.996323
12.810379
12.584583
12.323563
12.052916
11.790698
11.530298
11.248576
10.926092
10.563396
10.174072
9.763369
9.327539
8.873084
8.420675
7.989595
7.589459
7.225869
6.905804
6.635727
6.413962
6.224278
6.042447
5.851459
5.645260
5.420916
5.177575
4.923279
4.673686
4.442360
4.238766
4.075693
3.972131
3.946515
4.005642
4.138149
4.325183
4.560595
4.851446
5.198499
5.585194
5.983335
6.364997
6.712548
7.019693
7.284140
7.499125
7.648586
7.711997
7.679379
7.568445
7.431381
7.331256
7.298784
7.316865
7.342953
7.342956
7.313521
7.267955
7.198990
7.071305
6.851774
6.541021
6.182721
5.836290
5.531185
5.256748
4.991603
4.728905
4.478558
4.249509
4.029674
3.795226
3.541998
3.292954
3.075203
2.898703
2.751510
2.611454
2.464080
2.306694
2.138186
1.951780
1.735687
1.476568
1.163413
0.791881
0.367002
-0.101322
-0.607288
-1.150196
-1.725891
-2.318582
-2.899611
-3.437441
-3.913359
-4.326416
-4.686400
-5.007644
-5.307991
-5.609275
-5.935303
-6.304087
-6.718287
-7.165822
-7.630349
-8.098934
-8.562932
-9.015759
-9.451375
-9.866883
-10.266668
-10.659700
-11.050482
-11.433427
-11.793408
-12.109204
-12.357456
-12.515990
-12.568001
-12.509043
-12.352215
-12.119717
-11.824648
-11.465538
-11.039207
-10.559550
-10.067828
-9.616187
-9.235960
-8.933437
-8.713817
-8.592866
-8.585556
-8.690653
-8.886218
-9.145974
-9.463314
-9.846876
-10.292911
-10.780136
-11.291066
-11.822518
-12.375398
-12.941986
-13.502642
-14.036642
-14.537525
-15.009840
-15.451611
-15.853443
-16.216194
-16.559395
-16.911991
-17.296143
-17.713823
-18.147207
-18.571690
-18.968990
-19.333618
-19.668941
-19.977093
-20.255421
-20.501200
-20.716179
-20.906023
-21.073793
-21.213692
-21.318256
-21.394020
-21.461435
-21.537813
-21.625513
-21.714043
-21.792006
-21.860067
-21.930025
-22.011833
-22.106279
-22.207809
-22.310608
-22.413658
-22.522543
-22.648214
-22.803944
-23.000624
-23.240891
-23.514215
-23.798401
-24.067774
-24.302206
-24.492147
-24.634333
-24.721441
-24.738718
-24.670219
-24.507914
-24.258423
-23.941837
-23.583176
-23.202854
-22.810005
-22.402290
-21.972075
-21.514437
-21.032909
-20.537193
-20.034746
-19.526325
-19.007563
-18.472273
-17.915850
-17.339218
-16.752602
-16.175247
-15.629725
-15.132618
-14.686206
-14.280049
-13.900826
-13.537837
-13.181317
-12.819963
-12.442425
-12.045544
-11.644339
-11.269838
-10.954601
-10.719899
-10.570609
-10.498075
-10.486929
-10.518213
-10.569821
-10.621949
-10.665522
-10.701194
-10.729559
-10.747217
-10.752041
-10.749253
-10.751576
-10.769025
-10.796179
-10.817720
-10.829139
-10.844490
-10.885279
-10.966058
-11.086920
-11.239160
-11.418763
-11.630760
-11.882352
-12.175523
-12.503260
-12.848801
-13.188576
-13.501069
-13.777425
-14.020815
-14.234558
-14.413175
-14.543340
-14.615223
-14.635989
-14.626694
-14.603793
-14.567086
-14.501897
-14.391570
-14.232623
-14.038722
-13.831186
-13.624195
-13.413228
-13.178943
-12.903957
-12.584486
-12.230395
-11.856363
-11.470741
-11.073878
-10.666007
-10.254316
-9.855506
-9.493921
-9.194416
-8.969047
-8.804701
-8.669945
-8.538785
-8.405895
-8.283761
-8.186199
-8.109959
-8.035743
-7.946083
-7.834628
-7.701105
-7.544065
-7.358397
-7.139626
-6.890971
-6.623298
-6.347297
-6.066407
-5.775524
-5.467899
-5.145436
-4.819340
-4.500765
-4.193537
-3.893684
-3.594267
-3.291438
-2.985112
-2.675619
-2.364260
-2.056583
-1.758770
-1.468834
-1.176701
-0.874220
-0.562138
-0.248630
0.058735
0.361262
0.666461
0.977260
1.289643
1.600271
1.911002
2.226234
2.547625
2.870151
3.183154
3.475550
3.740219
3.975546
4.183879
4.367919
4.527963
4.661899
4.769173
4.855684
4.931756
5.004694
5.076816
5.150181
5.229597
5.320712
5.425580
5.539795
5.656938
5.777241
5.908272
6.057189
6.225770
6.411437
6.610291
6.819611
7.038605
7.267951
7.509478
7.765762
8.038344
8.325447
8.622393
8.923912
9.223774
9.512704
9.781014
10.025345
10.250972
10.467556
10.682857
10.898560
11.112333
11.323146
11.530147
11.726465
11.900203
12.043421
12.157507
12.250513
12.329355
12.392897
12.435673
12.458947
12.472675
12.486835
12.505085
12.525504
12.545245
12.564357
12.582846
12.593934
12.585129
12.546856
12.476550
12.375513
12.245118
12.086161
11.902192
11.703559
11.504875
11.317060
11.143662
10.983202
10.832062
10.685843
10.540207
10.391872
10.239186
10.081530
9.917168
9.741310
9.548454
9.337418
9.111553
8.873930
8.624864
8.364140
8.095168
7.827441
7.572557
7.336143
7.115559
6.904755
6.699498
6.499468
6.306308
6.119664
5.936241
5.752517
5.567595
5.383890
5.204268
5.027478
4.847602
4.658171
4.456600
4.246014
4.032307
3.818601
3.603820
3.385621
3.162216
2.931981
2.693840
2.448837
2.200352
1.952223
1.706349
1.461298
1.213615
0.960847
0.702686
0.440422
0.178154
-0.074778
-0.304948
-0.499629
-0.650097
-0.751941
-0.804099
-0.807915
-0.767066
-0.687763
-0.577561
-0.443032
-0.288621
-0.117098
0.069607
0.269455
0.478906
0.691875
0.901205
1.101871
1.291779
1.469792
1.634203
1.782671
1.912712
2.022141
2.109466
2.174776
2.221636
2.258586
2.296799
2.345203
2.409391
2.494748
2.608254
2.757116
2.945975
3.174682
3.439050
3.733825
4.054080
4.394451
4.748423
5.108244
5.464461
5.804954
6.114666
6.376633
6.574482
6.696094
6.736892
6.701014
6.597795
6.434859
6.214045
5.932253
5.585840
5.175840
4.708907
4.193727
3.637027
3.041496
2.407054
1.734721
1.029872
0.303230
-0.430870
-1.156618
-1.854278
-2.495225
-3.044639
-3.473432
-3.771213
-3.953275
-4.053486
-4.106825
-4.138169
-4.161571
-4.184119
-4.209823
-4.239832
-4.270498
-4.294884
-4.307572
-4.306926
-4.293505
-4.267740
-4.228551
-4.173485
-4.099805
-4.005428
-3.890084
-3.757928
-3.620109
-3.492610
-3.389969
-3.321254
-3.289925
-3.295152
-3.333150
-3.398144
-3.483608
-3.584617
-3.700016
-3.830954
-3.977130
-4.136923
-4.310884
-4.501240
-4.706560
-4.917822
-5.119010
-5.292619
-5.426973
-5.518341
-5.568019
-5.580686
-5.564659
-5.529282
-5.479362
-5.412280
-5.319957
-5.194370
-5.033775
-4.844077
-4.634729
-4.413366
-4.182518
-3.942059
-3.695754
-3.454087
-3.230497
-3.032923
-2.856122
-2.685085
-2.507342
-2.319076
-2.122172
-1.920269
-1.717472
-1.519095
-1.332306
-1.163993
-1.017468
-0.893520
-0.794668
-0.724856
-0.684864
-0.671603
-0.681860
-0.713308
-0.761387
-0.816924
-0.866857
-0.897914
-0.901013
-0.871990
-0.809301
-0.713903
-0.591321
-0.451164
-0.304054
-0.160871
-0.034482
0.060939
0.114305
0.122885
0.095618
0.050709
0.008206
-0.016766
-0.017182
0.007865
0.058440
0.136439
0.244041
0.380246
0.538827
0.712270
0.899017
1.103683
1.329979
1.576225
1.836660
2.105502
2.380383
2.661292
2.946739
3.233802
3.521803
3.812767
4.108120
4.407429
4.710405
5.018598
5.335273
5.663938
6.006639
6.363708
6.734713
7.118767
7.514030
7.917733
8.326630
8.736524
9.141529
9.535663
9.915701
10.280462
10.627178
10.951206
11.249737
11.524161
11.778684
12.015918
12.232466
12.420313
12.572678
12.686094
12.757786
12.784188
12.761820
12.687338
12.556279
12.363282
12.104418
11.779596
11.393392
10.953036
10.465499
9.938921
9.387486
8.832350
8.296843
7.799696
7.349216
6.941899
6.565840
6.206810
5.854636
5.505786
5.161675
4.825367
4.498653
4.181696
3.874958
3.580799
3.303825
3.050080
2.825464
2.634129
2.477573
2.355390
2.266987
2.211768
2.187824
2.191585
2.218894
2.265994
2.329933
2.408897
2.502856
2.614358
2.748566
2.910908
3.103501
3.324669
3.571671
3.842608
4.136273
4.451067
4.783954
5.130183
