EVENT_NAME: EMILIA_2ND_SHOCK
EVENT_ID: IT-2012-0011
EVENT_DATE_YYYYMMDD: 20120529
EVENT_TIME_HHMMSS: 070002
EVENT_LATITUDE_DEGREE: 44.8417
EVENT_LONGITUDE_DEGREE: 11.0657
EVENT_DEPTH_KM: 8.1
HYPOCENTER_REFERENCE: INGV-CNT_Seismic_Bulletin
MAGNITUDE_W: 6.0
MAGNITUDE_W_REFERENCE: RCMT-INGV
MAGNITUDE_L: 5.8
MAGNITUDE_L_REFERENCE: INGV-CNT_Seismic_Bulletin
FOCAL_MECHANISM: TF
NETWORK: BA
STATION_CODE: MIRE
STATION_NAME: MIRE
STATION_LATITUDE_DEGREE: 44.878212
STATION_LONGITUDE_DEGREE: 11.061747
STATION_ELEVATION_M: 
LOCATION: 
SENSOR_DEPTH_M: 0.0
VS30_M/S: 
SITE_CLASSIFICATION_EC8: C*
MORPHOLOGIC_CLASSIFICATION: 
EPICENTRAL_DISTANCE_KM: 4.1
EARTHQUAKE_BACKAZIMUTH_DEGREE: 175.6
DATE_TIME_FIRST_SAMPLE_YYYYMMDD_HHMMSS: 20120529_065950.000
DATE_TIME_FIRST_SAMPLE_PRECISION: seconds
SAMPLING_INTERVAL_S: 0.005000
NDATA: 12394
DURATION_S: 61.970
STREAM: HLZ
UNITS: cm
INSTRUMENT: 
INSTRUMENT_ANALOG/DIGITAL: D
INSTRUMENTAL_FREQUENCY_HZ: 
INSTRUMENTAL_DAMPING: 
FULL_SCALE_G: 
N_BIT_DIGITAL_CONVERTER: 
PGD_CM: 6.425283
TIME_PGD_S: 18.080000
BASELINE_CORRECTION: BASELINE REMOVED
FILTER_TYPE: BUTTERWORTH
FILTER_ORDER: 2
LOW_CUT_FREQUENCY_HZ: 0.070
HIGH_CUT_FREQUENCY_HZ: 40.000
LATE/NORMAL_TRIGGERED: NT
DATABASE_VERSION: DYNA 1.0
HEADER_FORMAT: DYNA 1.2
DATA_TYPE: DISPLACEMENT
PROCESSING: manual (Paolucci et al., 2011)
DATA_TIMESTAMP_YYYYMMDD_HHMMSS: 20141204_110616.699
DATA_LICENSE: U (unknown license)
DATA_CITATION: ESM working group (2015), European Strong-Motion database, version 0.1, Network Activity 3: Networking acceleration networks and SM data users. Project NERA (www.nera-eu.org)
DATA_CREATOR: ESM working group
ORIGINAL_DATA_MEDIATOR_CITATION: Basilicata Accelerometric Network, DOI 10.1007/s10518-009-9129-2
ORIGINAL_DATA_MEDIATOR: Ing. Maria Rosaria Gallipoli, CNR-IMAA, mariarosaria.gallipoli@imaa.cnr.it
ORIGINAL_DATA_CREATOR_CITATION: Basilicata Accelerometric Network, DOI 10.1007/s10518-009-9129-2
ORIGINAL_DATA_CREATOR: network: BA (University of Basilicata (UNIBAS) Network); owner: University of Basilicata
USER1: /home/dyna/processing-itaca/processing.py /var/www/processing/tmp/dyna_ingv//BA.MIRE..HLE.D.20120529.070003.X.ACC.ASC /var/www/processing/tmp/dyna_ingv//BA.MIRE..HLN.D.20120529.070003.X.ACC.ASC /var/www/processing/tmp/dyna_ingv//BA.MIRE..HLZ.D.20120529.070003.X.ACC.ASC --tmp /var/www/processing/tmp/dyna_ingv/ --le 0.070 --he 40.000 --ln 0.070 --hn 40.000 --lz 0.070 --hz 40.000 --fo 2 --ca 0 --cz 1750.02 --ta 5 --tz 5 --mf 1 --rf 0.005 --tr NT
USER2: 
USER3: 
USER4: 
USER5: 
[...]
-1.310820e+00
-1.315378e+00
-1.319944e+00
-1.324517e+00
-1.329099e+00
-1.333689e+00
-1.338286e+00
-1.342892e+00
-1.347506e+00
-1.352128e+00
-1.356757e+00
-1.361395e+00
-1.366040e+00
-1.370694e+00
-1.375355e+00
-1.380025e+00
-1.384702e+00
-1.389388e+00
-1.394081e+00
-1.398782e+00
-1.403491e+00
-1.408207e+00
-1.412931e+00
-1.417662e+00
-1.422401e+00
-1.427147e+00
-1.431901e+00
-1.436662e+00
-1.441431e+00
-1.446208e+00
-1.450993e+00
-1.455785e+00
-1.460586e+00
-1.465394e+00
-1.470209e+00
-1.475033e+00
-1.479864e+00
-1.484703e+00
-1.489550e+00
-1.494405e+00
-1.499267e+00
-1.504138e+00
-1.509017e+00
-1.513903e+00
-1.518798e+00
-1.523700e+00
-1.528610e+00
-1.533528e+00
-1.538453e+00
-1.543387e+00
-1.548329e+00
-1.553279e+00
-1.558237e+00
-1.563203e+00
-1.568177e+00
-1.573160e+00
-1.578150e+00
-1.583149e+00
-1.588155e+00
-1.593170e+00
-1.598192e+00
-1.603223e+00
-1.608261e+00
-1.613308e+00
-1.618363e+00
-1.623426e+00
-1.628496e+00
-1.633575e+00
-1.638661e+00
-1.643755e+00
-1.648857e+00
-1.653966e+00
-1.659084e+00
-1.664209e+00
-1.669342e+00
-1.674483e+00
-1.679632e+00
-1.684789e+00
-1.689953e+00
-1.695126e+00
-1.700307e+00
-1.705496e+00
-1.710693e+00
-1.715898e+00
-1.721111e+00
-1.726332e+00
-1.731561e+00
-1.736798e+00
-1.742042e+00
-1.747295e+00
-1.752556e+00
-1.757824e+00
-1.763100e+00
-1.768384e+00
-1.773675e+00
-1.778974e+00
-1.784280e+00
-1.789594e+00
-1.794915e+00
-1.800244e+00
-1.805582e+00
-1.810927e+00
-1.816280e+00
-1.821642e+00
-1.827012e+00
-1.832389e+00
-1.837775e+00
-1.843169e+00
-1.848570e+00
-1.853979e+00
-1.859396e+00
-1.864821e+00
-1.870254e+00
-1.875694e+00
-1.881142e+00
-1.886598e+00
-1.892061e+00
-1.897532e+00
-1.903011e+00
-1.908497e+00
-1.913991e+00
-1.919492e+00
-1.925002e+00
-1.930518e+00
-1.936043e+00
-1.941575e+00
-1.947115e+00
-1.952663e+00
-1.958218e+00
-1.963782e+00
-1.969352e+00
-1.974931e+00
-1.980517e+00
-1.986112e+00
-1.991714e+00
-1.997324e+00
-2.002943e+00
-2.008569e+00
-2.014204e+00
-2.019846e+00
-2.025497e+00
-2.031156e+00
-2.036822e+00
-2.042497e+00
-2.048180e+00
-2.053871e+00
-2.059570e+00
-2.065277e+00
-2.070992e+00
-2.076715e+00
-2.082446e+00
-2.088185e+00
-2.093931e+00
-2.099686e+00
-2.105448e+00
-2.111218e+00
-2.116996e+00
-2.122781e+00
-2.128574e+00
-2.134375e+00
-2.140183e+00
-2.145999e+00
-2.151822e+00
-2.157653e+00
-2.163492e+00
-2.169338e+00
-2.175192e+00
-2.181053e+00
-2.186922e+00
-2.192798e+00
-2.198682e+00
-2.204573e+00
-2.210471e+00
-2.216378e+00
-2.222291e+00
-2.228213e+00
-2.234142e+00
-2.240078e+00
-2.246023e+00
-2.251975e+00
-2.257935e+00
-2.263903e+00
-2.269878e+00
-2.275862e+00
-2.281853e+00
-2.287852e+00
-2.293858e+00
-2.299872e+00
-2.305893e+00
-2.311921e+00
-2.317957e+00
-2.324000e+00
-2.330051e+00
-2.336109e+00
-2.342174e+00
-2.348246e+00
-2.354325e+00
-2.360412e+00
-2.366506e+00
-2.372607e+00
-2.378715e+00
-2.384832e+00
-2.390955e+00
-2.397087e+00
-2.403226e+00
-2.409373e+00
-2.415528e+00
-2.421690e+00
-2.427860e+00
-2.434038e+00
-2.440224e+00
-2.446418e+00
-2.452619e+00
-2.458828e+00
-2.465044e+00
-2.471267e+00
-2.477498e+00
-2.483736e+00
-2.489981e+00
-2.496233e+00
-2.502492e+00
-2.508759e+00
-2.515032e+00
-2.521313e+00
-2.527601e+00
-2.533896e+00
-2.540198e+00
-2.546507e+00
-2.552824e+00
-2.559147e+00
-2.565478e+00
-2.571817e+00
-2.578163e+00
-2.584517e+00
-2.590878e+00
-2.597247e+00
-2.603623e+00
-2.610007e+00
-2.616398e+00
-2.622795e+00
-2.629200e+00
-2.635612e+00
-2.642031e+00
-2.648457e+00
-2.654890e+00
-2.661330e+00
-2.667776e+00
-2.674230e+00
-2.680691e+00
-2.687159e+00
-2.693635e+00
-2.700117e+00
-2.706606e+00
-2.713103e+00
-2.719607e+00
-2.726119e+00
-2.732637e+00
-2.739161e+00
-2.745694e+00
-2.752233e+00
-2.758778e+00
-2.765327e+00
-2.771878e+00
-2.778422e+00
-2.784942e+00
-2.791411e+00
-2.797793e+00
-2.804050e+00
-2.810137e+00
-2.816008e+00
-2.821620e+00
-2.826945e+00
-2.831962e+00
-2.836662e+00
-2.841038e+00
-2.845097e+00
-2.848849e+00
-2.852302e+00
-2.855454e+00
-2.858280e+00
-2.860724e+00
-2.862690e+00
-2.864059e+00
-2.864735e+00
-2.864711e+00
-2.864107e+00
-2.863144e+00
-2.862069e+00
-2.861071e+00
-2.860223e+00
-2.859478e+00
-2.858713e+00
-2.857829e+00
-2.856830e+00
-2.855854e+00
-2.855128e+00
-2.854875e+00
-2.855245e+00
-2.856313e+00
-2.858097e+00
-2.860532e+00
-2.863434e+00
-2.866492e+00
-2.869372e+00
-2.871918e+00
-2.874291e+00
-2.876933e+00
-2.880361e+00
-2.884926e+00
-2.890685e+00
-2.897464e+00
-2.905010e+00
-2.913110e+00
-2.921643e+00
-2.930590e+00
-2.939994e+00
-2.949888e+00
-2.960212e+00
-2.970798e+00
-2.981419e+00
-2.991876e+00
-3.002033e+00
-3.011734e+00
-3.020735e+00
-3.028771e+00
-3.035705e+00
-3.041613e+00
-3.046756e+00
-3.051428e+00
-3.055839e+00
-3.060123e+00
-3.064405e+00
-3.068805e+00
-3.073396e+00
-3.078161e+00
-3.082980e+00
-3.087649e+00
-3.091912e+00
-3.095518e+00
-3.098314e+00
-3.100361e+00
-3.101956e+00
-3.103477e+00
-3.105180e+00
-3.107117e+00
-3.109167e+00
-3.111147e+00
-3.112893e+00
-3.114291e+00
-3.115324e+00
-3.116162e+00
-3.117199e+00
-3.118895e+00
-3.121575e+00
-3.125330e+00
-3.130076e+00
-3.135692e+00
-3.142105e+00
-3.149204e+00
-3.156718e+00
-3.164185e+00
-3.171079e+00
-3.177019e+00
-3.181925e+00
-3.186018e+00
-3.189695e+00
-3.193380e+00
-3.197413e+00
-3.202011e+00
-3.207238e+00
-3.212967e+00
-3.218903e+00
-3.224715e+00
-3.230183e+00
-3.235221e+00
-3.239790e+00
-3.243822e+00
-3.247238e+00
-3.250096e+00
-3.252649e+00
-3.255175e+00
-3.257759e+00
-3.260263e+00
-3.262502e+00
-3.264500e+00
-3.266596e+00
-3.269278e+00
-3.272931e+00
-3.277692e+00
-3.283462e+00
-3.290021e+00
-3.297172e+00
-3.304865e+00
-3.313191e+00
-3.322216e+00
-3.331775e+00
-3.341393e+00
-3.350443e+00
-3.358506e+00
-3.365643e+00
-3.372353e+00
-3.379330e+00
-3.387215e+00
-3.396394e+00
-3.406843e+00
-3.418088e+00
-3.429349e+00
-3.439879e+00
-3.449354e+00
-3.458019e+00
-3.466399e+00
-3.474893e+00
-3.483608e+00
-3.492444e+00
-3.501271e+00
-3.510011e+00
-3.518543e+00
-3.526572e+00
-3.533627e+00
-3.539221e+00
-3.543105e+00
-3.545457e+00
-3.546844e+00
-3.547984e+00
-3.549394e+00
-3.551188e+00
-3.553148e+00
-3.554929e+00
-3.556181e+00
-3.556621e+00
-3.556072e+00
-3.554442e+00
-3.551608e+00
-3.547354e+00
-3.541528e+00
-3.534288e+00
-3.526225e+00
-3.518157e+00
-3.510627e+00
-3.503566e+00
-3.496505e+00
-3.489023e+00
-3.481025e+00
-3.472851e+00
-3.465325e+00
-3.459647e+00
-3.457018e+00
-3.458087e+00
-3.462534e+00
-3.469157e+00
-3.476579e+00
-3.483878e+00
-3.490584e+00
-3.496393e+00
-3.501149e+00
-3.505116e+00
-3.509187e+00
-3.514677e+00
-3.522600e+00
-3.533043e+00
-3.545199e+00
-3.557851e+00
-3.569865e+00
-3.580478e+00
-3.589378e+00
-3.596710e+00
-3.603085e+00
-3.609466e+00
-3.616813e+00
-3.625685e+00
-3.636023e+00
-3.647213e+00
-3.658353e+00
-3.668513e+00
-3.676844e+00
-3.682665e+00
-3.685703e+00
-3.686381e+00
-3.685943e+00
-3.686147e+00
-3.688501e+00
-3.693526e+00
-3.700573e+00
-3.708226e+00
-3.715061e+00
-3.720267e+00
-3.723807e+00
-3.726187e+00
-3.728117e+00
-3.730209e+00
-3.732821e+00
-3.736023e+00
-3.739670e+00
-3.743525e+00
-3.747378e+00
-3.751089e+00
-3.754499e+00
-3.757311e+00
-3.759082e+00
-3.759412e+00
-3.758330e+00
-3.756556e+00
-3.755332e+00
-3.755858e+00
-3.758607e+00
-3.763052e+00
-3.768120e+00
-3.772906e+00
-3.777047e+00
-3.780628e+00
-3.783791e+00
-3.786480e+00
-3.788570e+00
-3.790078e+00
-3.791135e+00
-3.791870e+00
-3.792425e+00
-3.792936e+00
-3.793298e+00
-3.792914e+00
-3.790731e+00
-3.785771e+00
-3.777966e+00
-3.768534e+00
-3.759353e+00
-3.751931e+00
-3.746817e+00
-3.743667e+00
-3.741754e+00
-3.740444e+00
-3.739262e+00
-3.737735e+00
-3.735296e+00
-3.731360e+00
-3.725529e+00
-3.717863e+00
-3.709095e+00
-3.700606e+00
-3.694041e+00
-3.690780e+00
-3.691466e+00
-3.695722e+00
-3.702127e+00
-3.708572e+00
-3.712989e+00
-3.714138e+00
-3.712023e+00
-3.707724e+00
-3.702723e+00
-3.698223e+00
-3.694889e+00
-3.692876e+00
-3.691880e+00
-3.691244e+00
-3.690220e+00
-3.688354e+00
-3.685837e+00
-3.683548e+00
-3.682620e+00
-3.683831e+00
-3.687146e+00
-3.691625e+00
-3.695722e+00
-3.697833e+00
-3.696884e+00
-3.692760e+00
-3.686388e+00
-3.679381e+00
-3.673281e+00
-3.668771e+00
-3.665346e+00
-3.661686e+00
-3.656605e+00
-3.649750e+00
-3.641364e+00
-3.631554e+00
-3.619858e+00
-3.605608e+00
-3.588966e+00
-3.571527e+00
-3.555613e+00
-3.542937e+00
-3.533710e+00
-3.526661e+00
-3.519909e+00
-3.511976e+00
-3.502317e+00
-3.491400e+00
-3.480501e+00
-3.471151e+00
-3.464243e+00
-3.459387e+00
-3.455059e+00
-3.449455e+00
-3.441545e+00
-3.431544e+00
-3.420395e+00
-3.408849e+00
-3.396922e+00
-3.383870e+00
-3.368512e+00
-3.349565e+00
-3.325790e+00
-3.296135e+00
-3.260059e+00
-3.217890e+00
-3.170947e+00
-3.121200e+00
-3.070477e+00
-3.019642e+00
-2.968247e+00
-2.914846e+00
-2.857854e+00
-2.796467e+00
-2.731177e+00
-2.663819e+00
-2.597277e+00
-2.534939e+00
-2.480029e+00
-2.434993e+00
-2.401106e+00
-2.378319e+00
-2.365254e+00
-2.359260e+00
-2.356549e+00
-2.352787e+00
-2.344315e+00
-2.329426e+00
-2.308921e+00
-2.285626e+00
-2.262965e+00
-2.243467e+00
-2.228004e+00
-2.215809e+00
-2.205064e+00
-2.193708e+00
-2.180197e+00
-2.163905e+00
-2.144996e+00
-2.123982e+00
-2.101306e+00
-2.077317e+00
-2.052631e+00
-2.028265e+00
-2.004998e+00
-1.982416e+00
-1.958335e+00
-1.928994e+00
-1.889963e+00
-1.837199e+00
-1.767768e+00
-1.680455e+00
-1.576470e+00
-1.459821e+00
-1.336811e+00
-1.214697e+00
-1.099960e+00
-9.969354e-01
-9.073517e-01
-8.304445e-01
-7.632321e-01
-7.010115e-01
-6.382811e-01
-5.700061e-01
-4.929246e-01
-4.064064e-01
-3.124884e-01
-2.151723e-01
-1.192291e-01
-2.881968e-02
5.365903e-02
1.279289e-01
1.950850e-01
2.563995e-01
3.126082e-01
3.642074e-01
4.125959e-01
4.606959e-01
5.119792e-01
5.687120e-01
6.307944e-01
6.959265e-01
7.610389e-01
8.237957e-01
8.831871e-01
9.396113e-01
9.949780e-01
1.052392e+00
1.114898e+00
1.183804e+00
1.257589e+00
1.332241e+00
1.403151e+00
1.467033e+00
1.522417e+00
1.568931e+00
1.606330e+00
1.634186e+00
1.652692e+00
1.663865e+00
1.672161e+00
1.683845e+00
1.705069e+00
1.739695e+00
1.788101e+00
1.847457e+00
1.913315e+00
1.981350e+00
2.048210e+00
2.111591e+00
2.169993e+00
2.222419e+00
2.268056e+00
2.305948e+00
2.334828e+00
2.353630e+00
2.362778e+00
2.365067e+00
2.364983e+00
2.366894e+00
2.373248e+00
2.384006e+00
2.397720e+00
2.412924e+00
2.428491e+00
2.443332e+00
2.456272e+00
2.466374e+00
2.473494e+00
2.478622e+00
2.483719e+00
2.491381e+00
2.504588e+00
2.526195e+00
2.557897e+00
2.599285e+00
2.647712e+00
2.698926e+00
2.748187e+00
2.791559e+00
2.827098e+00
2.855595e+00
2.880408e+00
2.906061e+00
2.935871e+00
2.970221e+00
3.006835e+00
3.042376e+00
3.074058e+00
3.100361e+00
3.120713e+00
3.135073e+00
3.144205e+00
3.150083e+00
3.155659e+00
3.164018e+00
3.177353e+00
3.196315e+00
3.220069e+00
3.246841e+00
3.274584e+00
3.301438e+00
3.325919e+00
3.347073e+00
3.364901e+00
3.380908e+00
3.398375e+00
3.421713e+00
3.454758e+00
3.499087e+00
3.553532e+00
3.615007e+00
3.680028e+00
3.745944e+00
3.811156e+00
3.874786e+00
3.936413e+00
3.995958e+00
4.053531e+00
4.109138e+00
4.162253e+00
4.211507e+00
4.254735e+00
4.289502e+00
4.313973e+00
4.327663e+00
4.331582e+00
4.327732e+00
4.318259e+00
4.304895e+00
4.289107e+00
4.272559e+00
4.257310e+00
4.245671e+00
4.239810e+00
4.241248e+00
4.250411e+00
4.266417e+00
4.287318e+00
4.310783e+00
4.335009e+00
4.359250e+00
4.383617e+00
4.408657e+00
4.435300e+00
4.464981e+00
4.499488e+00
4.540350e+00
4.588001e+00
4.641536e+00
4.699483e+00
4.760732e+00
4.824630e+00
4.890509e+00
4.957302e+00
5.023706e+00
5.088809e+00
5.152413e+00
5.214518e+00
5.274708e+00
5.332214e+00
5.386341e+00
5.436625e+00
5.482609e+00
5.523470e+00
5.558008e+00
5.585238e+00
5.605053e+00
5.618386e+00
5.626979e+00
5.633016e+00
5.638681e+00
5.645619e+00
5.654449e+00
5.664520e+00
5.674114e+00
5.681119e+00
5.683882e+00
5.681835e+00
5.675564e+00
5.666215e+00
5.654706e+00
5.641268e+00
5.625594e+00
5.607481e+00
5.587350e+00
5.566160e+00
5.545028e+00
5.525049e+00
5.507458e+00
5.493958e+00
5.486764e+00
5.488055e+00
5.499197e+00
5.520264e+00
5.550082e+00
5.586750e+00
5.628235e+00
5.672657e+00
5.718320e+00
5.763682e+00
5.807461e+00
5.848898e+00
5.887942e+00
5.925120e+00
5.961189e+00
5.996766e+00
6.032119e+00
6.067155e+00
6.101507e+00
6.134568e+00
6.165538e+00
6.193523e+00
6.217622e+00
6.236978e+00
6.250941e+00
6.259475e+00
6.263643e+00
6.265826e+00
6.269299e+00
6.277099e+00
6.290914e+00
6.310681e+00
6.334854e+00
6.360947e+00
6.386013e+00
6.406930e+00
6.420744e+00
6.425283e+00
6.419790e+00
6.405202e+00
6.383965e+00
6.359418e+00
6.334973e+00
6.313366e+00
6.296249e+00
6.284253e+00
6.277272e+00
6.274710e+00
6.275743e+00
6.279651e+00
6.286090e+00
6.295093e+00
6.306680e+00
6.320287e+00
6.334608e+00
6.348231e+00
6.360371e+00
6.370921e+00
6.379837e+00
6.386386e+00
6.388929e+00
6.385621e+00
6.375426e+00
6.358681e+00
6.336994e+00
6.312594e+00
6.287560e+00
6.263357e+00
6.240811e+00
6.220419e+00
6.202629e+00
6.187789e+00
6.175913e+00
6.166524e+00
6.158676e+00
6.151122e+00
6.142513e+00
6.131584e+00
6.117439e+00
6.099955e+00
6.079955e+00
6.058873e+00
6.038117e+00
6.018595e+00
6.000680e+00
5.984676e+00
5.971290e+00
5.961640e+00
5.956826e+00
5.957348e+00
5.962780e+00
5.971938e+00
5.983337e+00
5.995589e+00
6.007543e+00
6.018146e+00
6.026294e+00
6.030947e+00
6.031500e+00
6.028198e+00
6.022230e+00
6.015278e+00
6.008824e+00
6.003621e+00
5.999546e+00
5.995828e+00
5.991345e+00
5.984795e+00
5.974985e+00
5.961429e+00
5.944897e+00
5.927385e+00
5.911394e+00
5.898761e+00
5.889817e+00
5.883475e+00
5.877886e+00
5.871079e+00
5.861359e+00
5.847532e+00
5.829212e+00
5.807277e+00
5.784009e+00
5.762491e+00
5.745520e+00
5.734602e+00
5.729524e+00
5.728711e+00
5.729977e+00
5.731163e+00
5.730580e+00
5.727277e+00
5.721094e+00
5.712468e+00
5.702117e+00
5.690777e+00
5.679127e+00
5.667860e+00
5.657652e+00
5.648874e+00
5.641351e+00
5.634509e+00
5.627739e+00
5.620718e+00
5.613522e+00
5.606550e+00
5.600421e+00
5.595918e+00
5.593840e+00
5.594633e+00
5.598141e+00
5.603760e+00
5.610874e+00
5.619213e+00
5.628844e+00
5.639744e+00
5.651352e+00
5.662556e+00
5.672131e+00
5.679389e+00
5.684699e+00
5.689562e+00
5.696215e+00
5.706873e+00
5.722938e+00
5.744497e+00
5.770334e+00
5.798439e+00
5.826609e+00
5.852761e+00
5.875004e+00
5.891724e+00
5.901839e+00
5.905218e+00
5.902855e+00
5.896515e+00
5.888093e+00
5.879070e+00
5.870208e+00
5.861459e+00
5.852001e+00
5.840383e+00
5.824906e+00
5.804263e+00
5.778151e+00
5.747502e+00
5.714251e+00
5.680778e+00
5.649339e+00
5.621728e+00
5.599097e+00
5.581814e+00
5.569374e+00
5.560486e+00
5.553414e+00
5.546541e+00
5.538863e+00
5.530165e+00
5.520997e+00
5.512578e+00
5.506582e+00
5.504703e+00
5.508055e+00
5.516620e+00
5.529092e+00
5.543336e+00
5.557162e+00
5.568989e+00
5.578111e+00
5.584471e+00
5.588192e+00
5.589194e+00
5.587144e+00
5.581760e+00
5.573091e+00
5.561446e+00
5.547142e+00
5.530392e+00
5.511438e+00
5.490834e+00
5.469569e+00
5.448817e+00
5.429609e+00
5.412681e+00
5.398417e+00
5.386695e+00
5.376771e+00
5.367412e+00
5.357233e+00
5.345111e+00
5.330439e+00
5.313123e+00
5.293447e+00
5.271990e+00
5.249476e+00
5.226509e+00
5.203377e+00
5.180117e+00
5.156769e+00
5.133590e+00
5.111100e+00
5.089889e+00
5.070396e+00
5.052809e+00
5.037074e+00
5.022956e+00
5.010164e+00
4.998529e+00
4.988133e+00
4.979231e+00
4.972027e+00
4.966461e+00
4.962184e+00
4.958830e+00
4.956315e+00
4.954888e+00
4.954933e+00
4.956662e+00
4.959856e+00
4.963802e+00
4.967438e+00
4.969715e+00
4.970017e+00
4.968454e+00
4.965763e+00
4.962746e+00
4.959717e+00
4.956420e+00
4.952381e+00
4.947394e+00
4.941660e+00
4.935410e+00
4.928467e+00
4.920266e+00
4.910286e+00
4.898514e+00
4.885528e+00
4.872017e+00
4.858254e+00
4.844060e+00
4.829181e+00
4.813728e+00
4.798213e+00
4.783054e+00
4.768087e+00
4.752656e+00
4.736113e+00
4.718283e+00
4.699518e+00
4.680273e+00
4.660657e+00
4.640419e+00
4.619180e+00
4.596614e+00
4.572485e+00
4.546616e+00
4.518992e+00
4.490014e+00
4.460667e+00
4.432317e+00
4.406214e+00
4.382973e+00
4.362268e+00
4.342968e+00
4.323593e+00
4.302899e+00
4.280240e+00
4.255503e+00
4.228787e+00
4.200108e+00
4.169339e+00
4.136417e+00
4.101535e+00
4.065082e+00
4.027449e+00
3.988908e+00
3.949620e+00
3.909738e+00
3.869504e+00
3.829240e+00
3.789258e+00
3.749707e+00
3.710427e+00
3.670909e+00
3.630444e+00
3.588455e+00
3.544767e+00
3.499593e+00
3.453298e+00
3.406160e+00
3.358248e+00
3.309466e+00
3.259672e+00
3.208793e+00
3.156934e+00
3.104486e+00
3.052120e+00
3.000603e+00
2.950563e+00
2.902379e+00
2.856208e+00
2.812131e+00
2.770316e+00
2.731121e+00
2.695083e+00
2.662724e+00
2.634263e+00
2.609352e+00
2.587059e+00
2.566192e+00
2.545723e+00
2.525029e+00
2.503910e+00
2.482468e+00
2.460942e+00
2.439567e+00
2.418456e+00
2.397524e+00
2.376536e+00
2.355289e+00
2.333729e+00
2.311817e+00
2.289345e+00
2.265923e+00
2.241230e+00
2.215348e+00
2.188859e+00
2.162481e+00
2.136611e+00
2.111178e+00
2.085824e+00
2.060200e+00
2.034106e+00
2.007372e+00
1.979764e+00
1.951184e+00
1.921957e+00
1.892892e+00
1.865064e+00
1.839391e+00
1.816325e+00
1.795828e+00
1.777536e+00
1.760909e+00
1.745353e+00
1.730331e+00
1.715476e+00
1.700659e+00
1.685940e+00
1.671382e+00
1.656847e+00
1.641916e+00
1.625976e+00
1.608445e+00
1.588953e+00
1.567346e+00
1.543531e+00
1.517288e+00
1.488212e+00
1.455885e+00
1.420138e+00
1.381195e+00
1.339609e+00
1.296034e+00
1.251025e+00
1.205031e+00
1.158492e+00
1.111874e+00
1.065603e+00
1.019916e+00
9.747823e-01
9.299449e-01
8.850345e-01
8.396493e-01
7.934740e-01
7.464770e-01
6.990377e-01
6.518449e-01
6.056186e-01
5.608296e-01
5.176313e-01
4.760721e-01
4.363014e-01
3.985113e-01
3.627752e-01
3.290179e-01
2.971110e-01
2.669717e-01
2.385675e-01
2.118202e-01
1.865424e-01
1.624784e-01
1.392849e-01
1.163468e-01
9.270267e-02
6.733891e-02
3.965838e-02
9.768360e-03
-2.163756e-02
-5.377553e-02
-8.618701e-02
