EVENT_NAME: EMILIA_2ND_SHOCK
EVENT_ID: IT-2012-0011
EVENT_DATE_YYYYMMDD: 20120529
EVENT_TIME_HHMMSS: 070002
EVENT_LATITUDE_DEGREE: 44.8417
EVENT_LONGITUDE_DEGREE: 11.0657
EVENT_DEPTH_KM: 8.1
HYPOCENTER_REFERENCE: INGV-CNT_Seismic_Bulletin
MAGNITUDE_W: 6.0
MAGNITUDE_W_REFERENCE: RCMT-INGV
MAGNITUDE_L: 5.8
MAGNITUDE_L_REFERENCE: INGV-CNT_Seismic_Bulletin
FOCAL_MECHANISM: TF
NETWORK: BA
STATION_CODE: MIRH
STATION_NAME: MIRH
STATION_LATITUDE_DEGREE: 44.882400
STATION_LONGITUDE_DEGREE: 11.063100
STATION_ELEVATION_M: 15
LOCATION: 
SENSOR_DEPTH_M: 0.0
VS30_M/S: 
SITE_CLASSIFICATION_EC8: C*
MORPHOLOGIC_CLASSIFICATION: 
EPICENTRAL_DISTANCE_KM: 4.5
EARTHQUAKE_BACKAZIMUTH_DEGREE: 177.4
DATE_TIME_FIRST_SAMPLE_YYYYMMDD_HHMMSS: 20120529_065950.000
DATE_TIME_FIRST_SAMPLE_PRECISION: seconds
SAMPLING_INTERVAL_S: 0.005000
NDATA: 12998
DURATION_S: 64.990
STREAM: HLE
UNITS: cm
INSTRUMENT: 
INSTRUMENT_ANALOG/DIGITAL: D
INSTRUMENTAL_FREQUENCY_HZ: 
INSTRUMENTAL_DAMPING: 
FULL_SCALE_G: 
N_BIT_DIGITAL_CONVERTER: 
PGD_CM: 8.260128
TIME_PGD_S: 18.360000
BASELINE_CORRECTION: BASELINE REMOVED
FILTER_TYPE: BUTTERWORTH
FILTER_ORDER: 2
LOW_CUT_FREQUENCY_HZ: 0.070
HIGH_CUT_FREQUENCY_HZ: 40.000
LATE/NORMAL_TRIGGERED: NT
DATABASE_VERSION: DYNA 1.0
HEADER_FORMAT: DYNA 1.2
DATA_TYPE: DISPLACEMENT
PROCESSING: manual (Paolucci et al., 2011)
DATA_TIMESTAMP_YYYYMMDD_HHMMSS: 20141203_155932.433
DATA_LICENSE: U (unknown license)
DATA_CITATION: ESM working group (2015), European Strong-Motion database, version 0.1, Network Activity 3: Networking acceleration networks and SM data users. Project NERA (www.nera-eu.org)
DATA_CREATOR: ESM working group
ORIGINAL_DATA_MEDIATOR_CITATION: Basilicata Accelerometric Network, DOI 10.1007/s10518-009-9129-2
ORIGINAL_DATA_MEDIATOR: Ing. Maria Rosaria Gallipoli, CNR-IMAA, mariarosaria.gallipoli@imaa.cnr.it
ORIGINAL_DATA_CREATOR_CITATION: Basilicata Accelerometric Network, DOI 10.1007/s10518-009-9129-2
ORIGINAL_DATA_CREATOR: network: BA (University of Basilicata (UNIBAS) Network); owner: University of Basilicata
USER1: /home/dyna/processing-itaca/processing.py /var/www/processing/tmp/dyna_ingv//BA.MIRH..HLE.D.20120529.070003.X.ACC.ASC /var/www/processing/tmp/dyna_ingv//BA.MIRH..HLN.D.20120529.070003.X.ACC.ASC /var/www/processing/tmp/dyna_ingv//BA.MIRH..HLZ.D.20120529.070003.X.ACC.ASC --tmp /var/www/processing/tmp/dyna_ingv/ --le 0.0700 --he 40.000 --ln 0.0700 --hn 40.000 --lz 0.0700 --hz 40.000 --fo 2 --ca 0 --cz 1750 --ta 5 --tz 5 --mf 1 --rf 0.005 --tr NT
USER2: 
USER3: 
USER4: 
USER5: 
[...]
-3.791188e-01
-3.799679e-01
-3.808179e-01
-3.816687e-01
-3.825203e-01
-3.833726e-01
-3.842256e-01
-3.850794e-01
-3.859340e-01
-3.867895e-01
-3.876459e-01
-3.885032e-01
-3.893614e-01
-3.902205e-01
-3.910805e-01
-3.919413e-01
-3.928029e-01
-3.936653e-01
-3.945284e-01
-3.953924e-01
-3.962572e-01
-3.971228e-01
-3.979892e-01
-3.988564e-01
-3.997243e-01
-4.005930e-01
-4.014625e-01
-4.023325e-01
-4.032032e-01
-4.040745e-01
-4.049464e-01
-4.058190e-01
-4.066922e-01
-4.075661e-01
-4.084406e-01
-4.093160e-01
-4.101921e-01
-4.110691e-01
-4.119468e-01
-4.128255e-01
-4.137050e-01
-4.145853e-01
-4.154666e-01
-4.163485e-01
-4.172312e-01
-4.181144e-01
-4.189983e-01
-4.198828e-01
-4.207679e-01
-4.216536e-01
-4.225399e-01
-4.234268e-01
-4.243143e-01
-4.252024e-01
-4.260912e-01
-4.269807e-01
-4.278708e-01
-4.287617e-01
-4.296532e-01
-4.305455e-01
-4.314385e-01
-4.323322e-01
-4.332266e-01
-4.341215e-01
-4.350171e-01
-4.359133e-01
-4.368102e-01
-4.377078e-01
-4.386061e-01
-4.395051e-01
-4.404049e-01
-4.413055e-01
-4.422068e-01
-4.431086e-01
-4.440111e-01
-4.449140e-01
-4.458176e-01
-4.467218e-01
-4.476267e-01
-4.485324e-01
-4.494388e-01
-4.503458e-01
-4.512535e-01
-4.521618e-01
-4.530708e-01
-4.539806e-01
-4.548912e-01
-4.558026e-01
-4.567146e-01
-4.576272e-01
-4.585404e-01
-4.594542e-01
-4.603687e-01
-4.612837e-01
-4.621993e-01
-4.631153e-01
-4.640317e-01
-4.649486e-01
-4.658661e-01
-4.667841e-01
-4.677027e-01
-4.686218e-01
-4.695415e-01
-4.704618e-01
-4.713825e-01
-4.723039e-01
-4.732258e-01
-4.741484e-01
-4.750716e-01
-4.759954e-01
-4.769199e-01
-4.778449e-01
-4.787706e-01
-4.796968e-01
-4.806235e-01
-4.815509e-01
-4.824789e-01
-4.834074e-01
-4.843366e-01
-4.852664e-01
-4.861968e-01
-4.871279e-01
-4.880595e-01
-4.889916e-01
-4.899244e-01
-4.908578e-01
-4.917917e-01
-4.927262e-01
-4.936612e-01
-4.945968e-01
-4.955330e-01
-4.964699e-01
-4.974072e-01
-4.983452e-01
-4.992837e-01
-5.002229e-01
-5.011626e-01
-5.021030e-01
-5.030439e-01
-5.039853e-01
-5.049272e-01
-5.058695e-01
-5.068123e-01
-5.077556e-01
-5.086995e-01
-5.096440e-01
-5.105891e-01
-5.115348e-01
-5.124809e-01
-5.134276e-01
-5.143747e-01
-5.153224e-01
-5.162705e-01
-5.172191e-01
-5.181682e-01
-5.191177e-01
-5.200678e-01
-5.210183e-01
-5.219693e-01
-5.229209e-01
-5.238729e-01
-5.248255e-01
-5.257785e-01
-5.267319e-01
-5.276858e-01
-5.286400e-01
-5.295948e-01
-5.305499e-01
-5.315055e-01
-5.324615e-01
-5.334178e-01
-5.343745e-01
-5.353316e-01
-5.362889e-01
-5.372465e-01
-5.382043e-01
-5.391623e-01
-5.401206e-01
-5.410791e-01
-5.420379e-01
-5.429970e-01
-5.439564e-01
-5.449160e-01
-5.458759e-01
-5.468360e-01
-5.477964e-01
-5.487570e-01
-5.497179e-01
-5.506789e-01
-5.516401e-01
-5.526014e-01
-5.535629e-01
-5.545244e-01
-5.554861e-01
-5.564480e-01
-5.574100e-01
-5.583723e-01
-5.593347e-01
-5.602974e-01
-5.612603e-01
-5.622237e-01
-5.631873e-01
-5.641513e-01
-5.651155e-01
-5.660800e-01
-5.670446e-01
-5.680095e-01
-5.689747e-01
-5.699401e-01
-5.709060e-01
-5.718724e-01
-5.728390e-01
-5.738058e-01
-5.747728e-01
-5.757402e-01
-5.767078e-01
-5.776755e-01
-5.786433e-01
-5.796116e-01
-5.805805e-01
-5.815495e-01
-5.825180e-01
-5.834859e-01
-5.844530e-01
-5.854186e-01
-5.863811e-01
-5.873396e-01
-5.882938e-01
-5.892433e-01
-5.901876e-01
-5.911257e-01
-5.920571e-01
-5.929827e-01
-5.939034e-01
-5.948195e-01
-5.957302e-01
-5.966353e-01
-5.975342e-01
-5.984255e-01
-5.993077e-01
-6.001792e-01
-6.010395e-01
-6.018894e-01
-6.027319e-01
-6.035719e-01
-6.044141e-01
-6.052608e-01
-6.061104e-01
-6.069602e-01
-6.078102e-01
-6.086640e-01
-6.095239e-01
-6.103878e-01
-6.112537e-01
-6.121259e-01
-6.130138e-01
-6.139235e-01
-6.148477e-01
-6.157674e-01
-6.166676e-01
-6.175502e-01
-6.184281e-01
-6.193094e-01
-6.201884e-01
-6.210535e-01
-6.219037e-01
-6.227558e-01
-6.236262e-01
-6.245129e-01
-6.253990e-01
-6.262701e-01
-6.271262e-01
-6.279783e-01
-6.288352e-01
-6.296949e-01
-6.305525e-01
-6.314082e-01
-6.322626e-01
-6.331105e-01
-6.339451e-01
-6.347660e-01
-6.355776e-01
-6.363824e-01
-6.371771e-01
-6.379576e-01
-6.387287e-01
-6.395067e-01
-6.403059e-01
-6.411272e-01
-6.419627e-01
-6.428082e-01
-6.436680e-01
-6.445488e-01
-6.454500e-01
-6.463603e-01
-6.472680e-01
-6.481724e-01
-6.490836e-01
-6.500142e-01
-6.509701e-01
-6.519481e-01
-6.529409e-01
-6.539432e-01
-6.549520e-01
-6.559637e-01
-6.569743e-01
-6.579808e-01
-6.589839e-01
-6.599875e-01
-6.609960e-01
-6.620108e-01
-6.630302e-01
-6.640529e-01
-6.650804e-01
-6.661157e-01
-6.671550e-01
-6.681855e-01
-6.691953e-01
-6.701826e-01
-6.711528e-01
-6.721074e-01
-6.730384e-01
-6.739346e-01
-6.747980e-01
-6.756456e-01
-6.764892e-01
-6.773189e-01
-6.781176e-01
-6.788831e-01
-6.796287e-01
-6.803686e-01
-6.811067e-01
-6.818391e-01
-6.825665e-01
-6.832973e-01
-6.840307e-01
-6.847487e-01
-6.854358e-01
-6.860981e-01
-6.867533e-01
-6.874080e-01
-6.880554e-01
-6.886895e-01
-6.893214e-01
-6.899766e-01
-6.906719e-01
-6.913994e-01
-6.921415e-01
-6.928927e-01
-6.936614e-01
-6.944569e-01
-6.952789e-01
-6.961184e-01
-6.969678e-01
-6.978293e-01
-6.987119e-01
-6.996251e-01
-7.005779e-01
-7.015799e-01
-7.026368e-01
-7.037442e-01
-7.048816e-01
-7.060150e-01
-7.071099e-01
-7.081465e-01
-7.091269e-01
-7.100698e-01
-7.109942e-01
-7.119070e-01
-7.128073e-01
-7.137003e-01
-7.146070e-01
-7.155565e-01
-7.165605e-01
-7.175997e-01
-7.186427e-01
-7.196758e-01
-7.207127e-01
-7.217782e-01
-7.228791e-01
-7.239948e-01
-7.251047e-01
-7.262113e-01
-7.273271e-01
-7.284500e-01
-7.295619e-01
-7.306462e-01
-7.316996e-01
-7.327264e-01
-7.337198e-01
-7.346588e-01
-7.355342e-01
-7.363613e-01
-7.371529e-01
-7.378946e-01
-7.385672e-01
-7.391814e-01
-7.397767e-01
-7.403849e-01
-7.409948e-01
-7.415614e-01
-7.420679e-01
-7.425588e-01
-7.430859e-01
-7.436434e-01
-7.441798e-01
-7.446555e-01
-7.450808e-01
-7.455003e-01
-7.459384e-01
-7.463780e-01
-7.468102e-01
-7.472733e-01
-7.478104e-01
-7.484077e-01
-7.489965e-01
-7.495085e-01
-7.499278e-01
-7.502897e-01
-7.506235e-01
-7.509154e-01
-7.511458e-01
-7.513371e-01
-7.515389e-01
-7.517825e-01
-7.520635e-01
-7.523615e-01
-7.526705e-01
-7.530060e-01
-7.533753e-01
-7.537581e-01
-7.541303e-01
-7.544954e-01
-7.548781e-01
-7.553019e-01
-7.557821e-01
-7.563348e-01
-7.569829e-01
-7.577488e-01
-7.586363e-01
-7.596242e-01
-7.606868e-01
-7.618144e-01
-7.630090e-01
-7.642693e-01
-7.655863e-01
-7.669486e-01
-7.683488e-01
-7.697812e-01
-7.712338e-01
-7.726835e-01
-7.741035e-01
-7.754726e-01
-7.767771e-01
-7.780065e-01
-7.791540e-01
-7.802211e-01
-7.812223e-01
-7.821793e-01
-7.831048e-01
-7.839951e-01
-7.848460e-01
-7.856709e-01
-7.864959e-01
-7.873358e-01
-7.881718e-01
-7.889555e-01
-7.896425e-01
-7.902212e-01
-7.907030e-01
-7.910975e-01
-7.914024e-01
-7.916068e-01
-7.916954e-01
-7.916448e-01
-7.914165e-01
-7.909607e-01
-7.902411e-01
-7.892567e-01
-7.880413e-01
-7.866440e-01
-7.851094e-01
-7.834732e-01
-7.817758e-01
-7.800705e-01
-7.784063e-01
-7.768009e-01
-7.752322e-01
-7.736618e-01
-7.720783e-01
-7.705149e-01
-7.690099e-01
-7.675666e-01
-7.661658e-01
-7.648085e-01
-7.635385e-01
-7.624234e-01
-7.615069e-01
-7.607853e-01
-7.602396e-01
-7.598718e-01
-7.596922e-01
-7.596897e-01
-7.598269e-01
-7.600532e-01
-7.603110e-01
-7.605374e-01
-7.606739e-01
-7.606857e-01
-7.605798e-01
-7.604009e-01
-7.601991e-01
-7.600066e-01
-7.598480e-01
-7.597489e-01
-7.597109e-01
-7.596936e-01
-7.596443e-01
-7.595378e-01
-7.593765e-01
-7.591613e-01
-7.588682e-01
-7.584618e-01
-7.579403e-01
-7.573490e-01
-7.567270e-01
-7.560663e-01
-7.553504e-01
-7.546020e-01
-7.538557e-01
-7.530914e-01
-7.522081e-01
-7.510762e-01
-7.496437e-01
-7.479753e-01
-7.461536e-01
-7.441668e-01
-7.419185e-01
-7.393231e-01
-7.363834e-01
-7.331903e-01
-7.298445e-01
-7.263903e-01
-7.228336e-01
-7.191969e-01
-7.155404e-01
-7.119426e-01
-7.084636e-01
-7.051195e-01
-7.018867e-01
-6.987301e-01
-6.956371e-01
-6.926338e-01
-6.897665e-01
-6.870612e-01
-6.844843e-01
-6.819324e-01
-6.792613e-01
-6.763308e-01
-6.730373e-01
-6.693191e-01
-6.651410e-01
-6.604787e-01
-6.553221e-01
-6.496886e-01
-6.436277e-01
-6.372110e-01
-6.305131e-01
-6.236054e-01
-6.165736e-01
-6.095229e-01
-6.025458e-01
-5.956824e-01
-5.889175e-01
-5.822171e-01
-5.755787e-01
-5.690447e-01
-5.626533e-01
-5.563742e-01
-5.500906e-01
-5.436494e-01
-5.369577e-01
-5.300533e-01
-5.230823e-01
-5.162032e-01
-5.094791e-01
-5.028433e-01
-4.961718e-01
-4.893701e-01
-4.823792e-01
-4.751419e-01
-4.675983e-01
-4.597134e-01
-4.515078e-01
-4.430486e-01
-4.343991e-01
-4.255952e-01
-4.166894e-01
-4.077780e-01
-3.989401e-01
-3.901707e-01
-3.814035e-01
-3.725889e-01
-3.637437e-01
-3.549270e-01
-3.461565e-01
-3.373736e-01
-3.285223e-01
-3.196321e-01
-3.107920e-01
-3.020739e-01
-2.935017e-01
-2.850814e-01
-2.768418e-01
-2.688103e-01
-2.609076e-01
-2.528977e-01
-2.444985e-01
-2.355431e-01
-2.260381e-01
-2.161025e-01
-2.058511e-01
-1.953274e-01
-1.845358e-01
-1.734884e-01
-1.621820e-01
-1.505690e-01
-1.385923e-01
-1.262393e-01
-1.135390e-01
-1.005014e-01
-8.704960e-02
-7.302287e-02
-5.828030e-02
-4.280514e-02
-2.670860e-02
-1.016511e-02
6.646410e-03
2.355862e-02
4.039879e-02
5.700065e-02
7.327597e-02
8.926547e-02
1.050922e-01
1.208675e-01
1.366430e-01
1.524556e-01
1.684395e-01
1.848604e-01
2.019791e-01
2.198803e-01
2.384347e-01
2.574047e-01
2.766105e-01
2.960257e-01
3.157266e-01
3.357686e-01
3.560963e-01
3.765171e-01
3.967373e-01
4.164617e-01
4.355293e-01
4.539951e-01
4.720794e-01
4.900237e-01
5.079490e-01
5.258240e-01
5.435850e-01
5.612819e-01
5.791130e-01
5.973434e-01
6.161746e-01
6.356698e-01
6.557937e-01
6.764941e-01
6.977352e-01
7.194738e-01
7.416174e-01
7.640214e-01
7.865475e-01
8.091197e-01
8.317162e-01
8.543349e-01
8.769863e-01
8.997091e-01
9.225707e-01
9.456219e-01
9.688132e-01
9.919628e-01
1.014841e+00
1.037300e+00
1.059346e+00
1.081104e+00
1.102690e+00
1.124094e+00
1.145150e+00
1.165621e+00
1.185309e+00
1.204129e+00
1.222088e+00
1.239208e+00
1.255500e+00
1.270986e+00
1.285769e+00
1.300065e+00
1.314146e+00
1.328242e+00
1.342451e+00
1.356715e+00
1.370880e+00
1.384827e+00
1.398610e+00
1.412497e+00
1.426859e+00
1.442003e+00
1.458086e+00
1.475146e+00
1.493193e+00
1.512268e+00
1.532418e+00
1.553675e+00
1.576112e+00
1.599890e+00
1.625183e+00
1.652064e+00
1.680468e+00
1.710250e+00
1.741295e+00
1.773560e+00
1.807005e+00
1.841516e+00
1.876939e+00
1.913150e+00
1.950088e+00
1.987744e+00
2.026157e+00
2.065392e+00
2.105503e+00
2.146494e+00
2.188314e+00
2.230893e+00
2.274174e+00
2.318096e+00
2.362494e+00
2.407079e+00
2.451578e+00
2.495882e+00
2.540034e+00
2.584112e+00
2.628137e+00
2.672095e+00
2.716039e+00
2.760119e+00
2.804461e+00
2.849058e+00
2.893845e+00
2.938856e+00
2.984248e+00
3.030209e+00
3.076843e+00
3.124116e+00
3.171936e+00
3.220203e+00
3.268759e+00
3.317361e+00
3.365792e+00
3.414008e+00
3.462166e+00
3.510510e+00
3.559212e+00
3.608291e+00
3.657707e+00
3.707471e+00
3.757639e+00
3.808238e+00
3.859249e+00
3.910638e+00
3.962412e+00
4.014622e+00
4.067317e+00
4.120506e+00
4.174199e+00
4.228461e+00
4.283380e+00
4.339010e+00
4.395345e+00
4.452356e+00
4.510065e+00
4.568581e+00
4.628018e+00
4.688414e+00
4.749719e+00
4.811871e+00
4.874854e+00
4.938708e+00
5.003449e+00
5.069015e+00
5.135280e+00
5.202091e+00
5.269251e+00
5.336488e+00
5.403490e+00
5.469974e+00
5.535760e+00
5.600741e+00
5.664793e+00
5.727716e+00
5.789334e+00
5.849598e+00
5.908552e+00
5.966203e+00
6.022446e+00
6.077077e+00
6.129894e+00
6.180764e+00
6.229581e+00
6.276219e+00
6.320584e+00
6.362687e+00
6.402635e+00
6.440583e+00
6.476712e+00
6.511241e+00
6.544420e+00
6.576489e+00
6.607611e+00
6.637823e+00
6.667080e+00
6.695307e+00
6.722411e+00
6.748299e+00
6.772916e+00
6.796284e+00
6.818496e+00
6.839690e+00
6.860068e+00
6.879929e+00
6.899661e+00
6.919689e+00
6.940380e+00
6.962006e+00
6.984809e+00
7.009066e+00
7.035059e+00
7.062985e+00
7.092901e+00
7.124726e+00
7.158289e+00
7.193388e+00
7.229808e+00
7.267304e+00
7.305547e+00
7.344107e+00
7.382504e+00
7.420346e+00
7.457503e+00
7.494159e+00
7.530653e+00
7.567237e+00
7.603952e+00
7.640667e+00
7.677235e+00
7.713574e+00
7.749569e+00
7.784926e+00
7.819185e+00
7.851890e+00
7.882803e+00
7.911985e+00
7.939641e+00
7.965925e+00
7.990883e+00
8.014527e+00
8.036920e+00
8.058167e+00
8.078316e+00
8.097292e+00
8.115002e+00
8.131467e+00
8.146843e+00
8.161336e+00
8.175094e+00
8.188151e+00
8.200471e+00
8.212005e+00
8.222696e+00
8.232455e+00
8.241133e+00
8.248516e+00
8.254333e+00
8.258293e+00
8.260128e+00
8.259621e+00
8.256584e+00
8.250833e+00
8.242204e+00
8.230611e+00
8.216113e+00
8.198926e+00
8.179359e+00
8.157727e+00
8.134295e+00
8.109257e+00
8.082717e+00
8.054670e+00
8.024994e+00
7.993473e+00
7.959882e+00
7.924053e+00
7.885901e+00
7.845407e+00
7.802592e+00
7.757513e+00
7.710256e+00
7.660922e+00
7.609588e+00
7.556290e+00
7.501038e+00
7.443870e+00
7.384903e+00
7.324357e+00
7.262570e+00
7.199990e+00
7.137150e+00
7.074605e+00
7.012844e+00
6.952245e+00
6.893122e+00
6.835794e+00
6.780598e+00
6.727800e+00
6.677461e+00
6.629380e+00
6.583201e+00
6.538533e+00
6.494964e+00
6.452000e+00
6.409072e+00
6.365619e+00
6.321188e+00
6.275458e+00
6.228141e+00
6.178907e+00
6.127443e+00
6.073542e+00
6.017086e+00
5.957974e+00
5.896097e+00
5.831387e+00
5.763874e+00
5.693691e+00
5.621003e+00
5.545954e+00
5.468696e+00
5.389428e+00
5.308348e+00
5.225551e+00
5.140991e+00
5.054510e+00
4.965941e+00
4.875205e+00
4.782346e+00
4.687501e+00
4.590833e+00
4.492489e+00
4.392603e+00
4.291326e+00
4.188820e+00
4.085239e+00
3.980709e+00
3.875340e+00
3.769272e+00
3.662680e+00
3.555710e+00
3.448403e+00
3.340714e+00
3.232586e+00
3.124016e+00
3.015056e+00
2.905756e+00
2.796106e+00
2.686046e+00
2.575515e+00
2.464476e+00
2.352923e+00
2.240855e+00
2.128242e+00
2.015001e+00
1.900981e+00
1.785978e+00
1.669774e+00
1.552203e+00
1.433210e+00
1.312872e+00
1.191361e+00
1.068900e+00
9.457282e-01
8.221210e-01
6.984274e-01
5.750763e-01
4.525367e-01
3.312446e-01
2.115354e-01
9.361955e-02
-2.239473e-02
-1.364447e-01
-2.484562e-01
-3.583166e-01
-4.658888e-01
-5.710533e-01
-6.737393e-01
-7.739130e-01
-8.715446e-01
-9.665825e-01
-1.058944e+00
-1.148523e+00
-1.235219e+00
-1.318982e+00
-1.399858e+00
-1.478007e+00
-1.553670e+00
-1.627101e+00
-1.698501e+00
-1.768006e+00
-1.835695e+00
-1.901601e+00
-1.965701e+00
-2.027913e+00
-2.088141e+00
-2.146363e+00
-2.202712e+00
-2.257485e+00
-2.311084e+00
-2.363937e+00
-2.416428e+00
-2.468862e+00
-2.521453e+00
-2.574303e+00
-2.627412e+00
-2.680740e+00
-2.734246e+00
-2.787894e+00
-2.841630e+00
-2.895390e+00
-2.949136e+00
-3.002894e+00
-3.056739e+00
-3.110720e+00
-3.164809e+00
-3.218954e+00
-3.273177e+00
-3.327603e+00
-3.382434e+00
-3.437868e+00
-3.494064e+00
-3.551158e+00
-3.609312e+00
-3.668723e+00
-3.729601e+00
-3.792117e+00
-3.856361e+00
-3.922304e+00
-3.989809e+00
-4.058697e+00
-4.128801e+00
-4.199973e+00
-4.272039e+00
-4.344756e+00
-4.417832e+00
-4.491012e+00
-4.564146e+00
-4.637165e+00
-4.710000e+00
-4.782509e+00
-4.854467e+00
-4.925630e+00
-4.995824e+00
-5.064980e+00
-5.133101e+00
-5.200167e+00
-5.266062e+00
-5.330582e+00
-5.393504e+00
-5.454656e+00
-5.513938e+00
-5.571292e+00
-5.626661e+00
-5.679991e+00
-5.731263e+00
-5.780540e+00
-5.828010e+00
-5.873982e+00
-5.918827e+00
-5.962850e+00
-6.006200e+00
-6.048894e+00
-6.090924e+00
-6.132342e+00
-6.173273e+00
-6.213823e+00
-6.254002e+00
-6.293732e+00
-6.332905e+00
-6.371411e+00
-6.409131e+00
-6.445923e+00
-6.481621e+00
-6.516076e+00
-6.549193e+00
-6.580929e+00
-6.611261e+00
-6.640139e+00
-6.667478e+00
-6.693206e+00
-6.717302e+00
-6.739806e+00
-6.760774e+00
-6.780242e+00
-6.798214e+00
-6.814671e+00
-6.829596e+00
-6.842974e+00
-6.854796e+00
-6.865079e+00
-6.873872e+00
-6.881217e+00
-6.887100e+00
-6.891471e+00
-6.894282e+00
-6.895525e+00
-6.895231e+00
-6.893425e+00
-6.890093e+00
-6.885206e+00
-6.878758e+00
-6.870757e+00
-6.861202e+00
-6.850071e+00
-6.837333e+00
-6.822982e+00
-6.807066e+00
-6.789688e+00
-6.770987e+00
-6.751110e+00
-6.730190e+00
-6.708351e+00
-6.685711e+00
-6.662401e+00
-6.638555e+00
-6.614277e+00
-6.589618e+00
-6.564595e+00
-6.539211e+00
-6.513460e+00
-6.487312e+00
-6.460708e+00
-6.433580e+00
-6.405881e+00
-6.377597e+00
-6.348710e+00
-6.319169e+00
-6.288883e+00
-6.257754e+00
-6.225697e+00
-6.192646e+00
-6.158548e+00
-6.123355e+00
-6.087015e+00
-6.049467e+00
-6.010639e+00
-5.970447e+00
-5.928820e+00
-5.885708e+00
-5.841088e+00
-5.794969e+00
-5.747406e+00
-5.698501e+00
-5.648374e+00
-5.597119e+00
-5.544781e+00
-5.491367e+00
-5.436874e+00
-5.381312e+00
-5.324697e+00
-5.267046e+00
-5.208414e+00
-5.148913e+00
-5.088696e+00
-5.027908e+00
-4.966655e+00
-4.905009e+00
-4.843044e+00
-4.780866e+00
-4.718571e+00
-4.656208e+00
-4.593774e+00
-4.531248e+00
-4.468621e+00
-4.405894e+00
-4.343073e+00
-4.280158e+00
-4.217189e+00
-4.154263e+00
-4.091529e+00
-4.029146e+00
-3.967268e+00
-3.906043e+00
-3.845612e+00
-3.786101e+00
-3.727583e+00
-3.670059e+00
-3.613474e+00
-3.557755e+00
-3.502839e+00
-3.448679e+00
-3.395250e+00
-3.342549e+00
-3.290589e+00
-3.239393e+00
-3.188986e+00
-3.139400e+00
-3.090693e+00
-3.042951e+00
-2.996264e+00
-2.950706e+00
-2.906337e+00
-2.863212e+00
-2.821392e+00
-2.780916e+00
-2.741779e+00
-2.703916e+00
-2.667235e+00
-2.631657e+00
-2.597134e+00
-2.563636e+00
-2.531139e+00
-2.499607e+00
-2.469009e+00
-2.439328e+00
-2.410565e+00
-2.382727e+00
-2.355808e+00
-2.329786e+00
-2.304649e+00
-2.280411e+00
-2.257120e+00
-2.234837e+00
-2.213607e+00
-2.193445e+00
-2.174352e+00
-2.156333e+00
-2.139405e+00
-2.123594e+00
-2.108934e+00
-2.095465e+00
-2.083221e+00
-2.072219e+00
-2.062458e+00
-2.053926e+00
-2.046620e+00
-2.040552e+00
-2.035747e+00
-2.032234e+00
-2.030032e+00
-2.029141e+00
-2.029515e+00
-2.031040e+00
-2.033538e+00
-2.036788e+00
-2.040548e+00
-2.044569e+00
-2.048608e+00
-2.052443e+00
-2.055882e+00
