EVENT_NAME: EMILIA_2ND_SHOCK
EVENT_ID: IT-2012-0011
EVENT_DATE_YYYYMMDD: 20120529
EVENT_TIME_HHMMSS: 070002
EVENT_LATITUDE_DEGREE: 44.8417
EVENT_LONGITUDE_DEGREE: 11.0657
EVENT_DEPTH_KM: 8.1
HYPOCENTER_REFERENCE: INGV-CNT_Seismic_Bulletin
MAGNITUDE_W: 6.0
MAGNITUDE_W_REFERENCE: RCMT-INGV
MAGNITUDE_L: 5.8
MAGNITUDE_L_REFERENCE: INGV-CNT_Seismic_Bulletin
FOCAL_MECHANISM: TF
NETWORK: BA
STATION_CODE: MIRE
STATION_NAME: MIRE
STATION_LATITUDE_DEGREE: 44.878212
STATION_LONGITUDE_DEGREE: 11.061747
STATION_ELEVATION_M: 
LOCATION: 
SENSOR_DEPTH_M: 0.0
VS30_M/S: 
SITE_CLASSIFICATION_EC8: C*
MORPHOLOGIC_CLASSIFICATION: 
EPICENTRAL_DISTANCE_KM: 4.1
EARTHQUAKE_BACKAZIMUTH_DEGREE: 175.6
DATE_TIME_FIRST_SAMPLE_YYYYMMDD_HHMMSS: 20120529_065950.000
DATE_TIME_FIRST_SAMPLE_PRECISION: seconds
SAMPLING_INTERVAL_S: 0.005000
NDATA: 12394
DURATION_S: 61.970
STREAM: HLZ
UNITS: cm/s
INSTRUMENT: 
INSTRUMENT_ANALOG/DIGITAL: D
INSTRUMENTAL_FREQUENCY_HZ: 
INSTRUMENTAL_DAMPING: 
FULL_SCALE_G: 
N_BIT_DIGITAL_CONVERTER: 
PGV_CM/S: 24.602108
TIME_PGV_S: 16.910000
BASELINE_CORRECTION: BASELINE REMOVED
FILTER_TYPE: BUTTERWORTH
FILTER_ORDER: 2
LOW_CUT_FREQUENCY_HZ: 0.070
HIGH_CUT_FREQUENCY_HZ: 40.000
LATE/NORMAL_TRIGGERED: NT
DATABASE_VERSION: DYNA 1.0
HEADER_FORMAT: DYNA 1.2
DATA_TYPE: VELOCITY
PROCESSING: manual (Paolucci et al., 2011)
DATA_TIMESTAMP_YYYYMMDD_HHMMSS: 20141204_110616.699
DATA_LICENSE: U (unknown license)
DATA_CITATION: ESM working group (2015), European Strong-Motion database, version 0.1, Network Activity 3: Networking acceleration networks and SM data users. Project NERA (www.nera-eu.org)
DATA_CREATOR: ESM working group
ORIGINAL_DATA_MEDIATOR_CITATION: Basilicata Accelerometric Network, DOI 10.1007/s10518-009-9129-2
ORIGINAL_DATA_MEDIATOR: Ing. Maria Rosaria Gallipoli, CNR-IMAA, mariarosaria.gallipoli@imaa.cnr.it
ORIGINAL_DATA_CREATOR_CITATION: Basilicata Accelerometric Network, DOI 10.1007/s10518-009-9129-2
ORIGINAL_DATA_CREATOR: network: BA (University of Basilicata (UNIBAS) Network); owner: University of Basilicata
USER1: /home/dyna/processing-itaca/processing.py /var/www/processing/tmp/dyna_ingv//BA.MIRE..HLE.D.20120529.070003.X.ACC.ASC /var/www/processing/tmp/dyna_ingv//BA.MIRE..HLN.D.20120529.070003.X.ACC.ASC /var/www/processing/tmp/dyna_ingv//BA.MIRE..HLZ.D.20120529.070003.X.ACC.ASC --tmp /var/www/processing/tmp/dyna_ingv/ --le 0.070 --he 40.000 --ln 0.070 --hn 40.000 --lz 0.070 --hz 40.000 --fo 2 --ca 0 --cz 1750.02 --ta 5 --tz 5 --mf 1 --rf 0.005 --tr NT
USER2: 
USER3: 
USER4: 
USER5: 
[...]
-0.195804
-0.196551
-0.197285
-0.198020
-0.198766
-0.199534
-0.200326
-0.201145
-0.201993
-0.202874
-0.203783
-0.204705
-0.205616
-0.206494
-0.207332
-0.208141
-0.208941
-0.209757
-0.210607
-0.211493
-0.212395
-0.213278
-0.214121
-0.214919
-0.215691
-0.216459
-0.217236
-0.218025
-0.218830
-0.219654
-0.220490
-0.221322
-0.222144
-0.222963
-0.223795
-0.224652
-0.225533
-0.226417
-0.227274
-0.228079
-0.228829
-0.229559
-0.230339
-0.231226
-0.232215
-0.233239
-0.234221
-0.235127
-0.235968
-0.236771
-0.237547
-0.238292
-0.239023
-0.239788
-0.240627
-0.241547
-0.242504
-0.243428
-0.244266
-0.245015
-0.245726
-0.246467
-0.247268
-0.248111
-0.248965
-0.249825
-0.250719
-0.251681
-0.252685
-0.253654
-0.254516
-0.255260
-0.255945
-0.256670
-0.257516
-0.258505
-0.259606
-0.260749
-0.261869
-0.262927
-0.263923
-0.264877
-0.265806
-0.266715
-0.267617
-0.268538
-0.269502
-0.270511
-0.271528
-0.272502
-0.273412
-0.274291
-0.275186
-0.276121
-0.277069
-0.277973
-0.278816
-0.279632
-0.280475
-0.281373
-0.282314
-0.283266
-0.284208
-0.285142
-0.286069
-0.286993
-0.287932
-0.288913
-0.289947
-0.291017
-0.292083
-0.293112
-0.294104
-0.295087
-0.296086
-0.297103
-0.298135
-0.299179
-0.300233
-0.301284
-0.302307
-0.303284
-0.304219
-0.305137
-0.306056
-0.306977
-0.307895
-0.308816
-0.309769
-0.310779
-0.311838
-0.312902
-0.313927
-0.314894
-0.315817
-0.316730
-0.317664
-0.318634
-0.319638
-0.320666
-0.321697
-0.322712
-0.323699
-0.324661
-0.325609
-0.326568
-0.327563
-0.328616
-0.329727
-0.330875
-0.332019
-0.333118
-0.334158
-0.335149
-0.336112
-0.337066
-0.338018
-0.338975
-0.339949
-0.340961
-0.342024
-0.343135
-0.344270
-0.345393
-0.346470
-0.347491
-0.348470
-0.349439
-0.350429
-0.351457
-0.352521
-0.353607
-0.354701
-0.355797
-0.356893
-0.357990
-0.359082
-0.360162
-0.361226
-0.362279
-0.363330
-0.364388
-0.365453
-0.366520
-0.367582
-0.368636
-0.369679
-0.370714
-0.371749
-0.372797
-0.373872
-0.374984
-0.376129
-0.377293
-0.378452
-0.379591
-0.380706
-0.381807
-0.382906
-0.384010
-0.385120
-0.386238
-0.387365
-0.388502
-0.389646
-0.390792
-0.391940
-0.393098
-0.394267
-0.395439
-0.396606
-0.397761
-0.398901
-0.400030
-0.401159
-0.402303
-0.403472
-0.404667
-0.405879
-0.407097
-0.408306
-0.409493
-0.410641
-0.411742
-0.412806
-0.413859
-0.414924
-0.416005
-0.417095
-0.418184
-0.419271
-0.420366
-0.421469
-0.422577
-0.423686
-0.424800
-0.425927
-0.427067
-0.428214
-0.429364
-0.430519
-0.431695
-0.432896
-0.434119
-0.435349
-0.436578
-0.437811
-0.439062
-0.440334
-0.441614
-0.442887
-0.444144
-0.445385
-0.446611
-0.447817
-0.448999
-0.450166
-0.451341
-0.452547
-0.453789
-0.455051
-0.456314
-0.457570
-0.458819
-0.460063
-0.461294
-0.462512
-0.463724
-0.464939
-0.466156
-0.467366
-0.468557
-0.469727
-0.470887
-0.472050
-0.473225
-0.474422
-0.475643
-0.476888
-0.478147
-0.479410
-0.480666
-0.481912
-0.483145
-0.484365
-0.485570
-0.486761
-0.487943
-0.489126
-0.490321
-0.491532
-0.492756
-0.493983
-0.495202
-0.496407
-0.497603
-0.498796
-0.499997
-0.501208
-0.502431
-0.503669
-0.504929
-0.506212
-0.507511
-0.508812
-0.510107
-0.511402
-0.512715
-0.514051
-0.515399
-0.516735
-0.518044
-0.519332
-0.520619
-0.521911
-0.523202
-0.524479
-0.525739
-0.526990
-0.528250
-0.529539
-0.530869
-0.532243
-0.533646
-0.535056
-0.536447
-0.537804
-0.539123
-0.540406
-0.541663
-0.542908
-0.544165
-0.545464
-0.546824
-0.548244
-0.549693
-0.551128
-0.552512
-0.553824
-0.555071
-0.556275
-0.557466
-0.558673
-0.559918
-0.561216
-0.562573
-0.563979
-0.565404
-0.566801
-0.568128
-0.569372
-0.570563
-0.571754
-0.572993
-0.574303
-0.575676
-0.577093
-0.578531
-0.579972
-0.581408
-0.582836
-0.584255
-0.585658
-0.587035
-0.588380
-0.589697
-0.590995
-0.592281
-0.593560
-0.594836
-0.596112
-0.597391
-0.598676
-0.599972
-0.601284
-0.602623
-0.604002
-0.605437
-0.606933
-0.608472
-0.610010
-0.611492
-0.612889
-0.614210
-0.615493
-0.616778
-0.618084
-0.619412
-0.620757
-0.622118
-0.623493
-0.624874
-0.626249
-0.627612
-0.628973
-0.630349
-0.631747
-0.633158
-0.634564
-0.635955
-0.637344
-0.638753
-0.640189
-0.641634
-0.643069
-0.644494
-0.645923
-0.647380
-0.648873
-0.650396
-0.651931
-0.653463
-0.654969
-0.656432
-0.657843
-0.659213
-0.660559
-0.661898
-0.663246
-0.664618
-0.666026
-0.667468
-0.668926
-0.670374
-0.671799
-0.673210
-0.674621
-0.676040
-0.677467
-0.678905
-0.680356
-0.681823
-0.683294
-0.684745
-0.686162
-0.687546
-0.688912
-0.690277
-0.691656
-0.693056
-0.694485
-0.695950
-0.697441
-0.698937
-0.700417
-0.701873
-0.703306
-0.704720
-0.706117
-0.707500
-0.708885
-0.710294
-0.711738
-0.713208
-0.714692
-0.716183
-0.717684
-0.719204
-0.720737
-0.722266
-0.723780
-0.725277
-0.726763
-0.728244
-0.729722
-0.731195
-0.732663
-0.734127
-0.735588
-0.737049
-0.738515
-0.739992
-0.741487
-0.743004
-0.744543
-0.746098
-0.747662
-0.749221
-0.750764
-0.752285
-0.753783
-0.755261
-0.756727
-0.758192
-0.759661
-0.761138
-0.762619
-0.764097
-0.765565
-0.767023
-0.768477
-0.769933
-0.771391
-0.772844
-0.774284
-0.775709
-0.777126
-0.778542
-0.779967
-0.781404
-0.782857
-0.784331
-0.785827
-0.787343
-0.788877
-0.790425
-0.791982
-0.793539
-0.795088
-0.796624
-0.798151
-0.799673
-0.801194
-0.802710
-0.804223
-0.805740
-0.807269
-0.808815
-0.810371
-0.811929
-0.813482
-0.815027
-0.816564
-0.818093
-0.819618
-0.821145
-0.822676
-0.824207
-0.825731
-0.827246
-0.828759
-0.830282
-0.831821
-0.833368
-0.834916
-0.836457
-0.837994
-0.839532
-0.841076
-0.842626
-0.844179
-0.845734
-0.847294
-0.848859
-0.850426
-0.851983
-0.853526
-0.855058
-0.856598
-0.858163
-0.859756
-0.861372
-0.862997
-0.864626
-0.866248
-0.867857
-0.869446
-0.871012
-0.872555
-0.874080
-0.875593
-0.877102
-0.878609
-0.880116
-0.881619
-0.883119
-0.884618
-0.886121
-0.887633
-0.889157
-0.890693
-0.892245
-0.893811
-0.895388
-0.896980
-0.898593
-0.900224
-0.901862
-0.903497
-0.905127
-0.906755
-0.908381
-0.909998
-0.911594
-0.913171
-0.914741
-0.916323
-0.917922
-0.919536
-0.921154
-0.922762
-0.924352
-0.925928
-0.927499
-0.929080
-0.930683
-0.932304
-0.933929
-0.935540
-0.937124
-0.938679
-0.940211
-0.941726
-0.943231
-0.944730
-0.946229
-0.947733
-0.949246
-0.950766
-0.952291
-0.953824
-0.955368
-0.956925
-0.958489
-0.960052
-0.961609
-0.963155
-0.964694
-0.966234
-0.967788
-0.969365
-0.970962
-0.972564
-0.974155
-0.975727
-0.977292
-0.978861
-0.980435
-0.982011
-0.983585
-0.985160
-0.986746
-0.988351
-0.989972
-0.991602
-0.993231
-0.994855
-0.996474
-0.998090
-0.999701
-1.001305
-1.002902
-1.004504
-1.006119
-1.007743
-1.009358
-1.010954
-1.012532
-1.014102
-1.015672
-1.017243
-1.018812
-1.020378
-1.021941
-1.023499
-1.025050
-1.026603
-1.028170
-1.029756
-1.031356
-1.032961
-1.034567
-1.036173
-1.037780
-1.039388
-1.040994
-1.042597
-1.044196
-1.045788
-1.047371
-1.048950
-1.050529
-1.052107
-1.053673
-1.055220
-1.056745
-1.058252
-1.059749
-1.061247
-1.062754
-1.064284
-1.065844
-1.067435
-1.069049
-1.070677
-1.072311
-1.073943
-1.075561
-1.077157
-1.078725
-1.080275
-1.081825
-1.083386
-1.084957
-1.086527
-1.088085
-1.089628
-1.091162
-1.092689
-1.094208
-1.095720
-1.097234
-1.098756
-1.100288
-1.101826
-1.103369
-1.104915
-1.106463
-1.108009
-1.109548
-1.111082
-1.112618
-1.114161
-1.115716
-1.117286
-1.118871
-1.120468
-1.122070
-1.123676
-1.125290
-1.126908
-1.128523
-1.130128
-1.131724
-1.133324
-1.134944
-1.136579
-1.138211
-1.139828
-1.141429
-1.143017
-1.144597
-1.146169
-1.147735
-1.149301
-1.150870
-1.152438
-1.153996
-1.155540
-1.157074
-1.158604
-1.160131
-1.161655
-1.163176
-1.164695
-1.166210
-1.167720
-1.169224
-1.170726
-1.172233
-1.173745
-1.175254
-1.176753
-1.178242
-1.179729
-1.181226
-1.182738
-1.184262
-1.185793
-1.187332
-1.188880
-1.190439
-1.192005
-1.193571
-1.195135
-1.196696
-1.198246
-1.199771
-1.201266
-1.202741
-1.204211
-1.205688
-1.207166
-1.208634
-1.210090
-1.211542
-1.212994
-1.214442
-1.215880
-1.217315
-1.218762
-1.220233
-1.221727
-1.223237
-1.224758
-1.226293
-1.227841
-1.229391
-1.230939
-1.232488
-1.234046
-1.235611
-1.237173
-1.238717
-1.240234
-1.241731
-1.243214
-1.244683
-1.246137
-1.247577
-1.249007
-1.250433
-1.251859
-1.253285
-1.254709
-1.256134
-1.257563
-1.258998
-1.260434
-1.261864
-1.263297
-1.264748
-1.266226
-1.267724
-1.269230
-1.270738
-1.272251
-1.273767
-1.275263
-1.276716
-1.278141
-1.279568
-1.280992
-1.282381
-1.283745
-1.285134
-1.286562
-1.287987
-1.289380
-1.290761
-1.292177
-1.293636
-1.295077
-1.296451
-1.297839
-1.299350
-1.300891
-1.302277
-1.303563
-1.304971
-1.306488
-1.307857
-1.308970
-1.309864
-1.310193
-1.308840
-1.303985
-1.293673
-1.276467
-1.251383
-1.217432
-1.174104
-1.122475
-1.064914
-1.003553
-0.939834
-0.875327
-0.811823
-0.750380
-0.690589
-0.630318
-0.565303
-0.488816
-0.393147
-0.273760
-0.135203
0.004824
0.120787
0.192565
0.215000
0.199624
0.169511
0.149102
0.152901
0.176873
0.199830
0.195180
0.145204
0.050584
-0.074013
-0.213620
-0.356711
-0.487166
-0.580348
-0.611526
-0.576106
-0.509029
-0.474635
-0.528459
-0.685591
-0.913003
-1.151804
-1.355748
-1.509272
-1.620034
-1.706649
-1.789316
-1.880868
-1.978635
-2.064827
-2.117348
-2.124160
-2.091418
-2.031418
-1.940170
-1.800049
-1.607261
-1.386746
-1.181699
-1.028567
-0.934427
-0.882144
-0.856866
-0.856442
-0.880026
-0.918134
-0.952922
-0.963830
-0.933746
-0.852639
-0.721260
-0.559203
-0.409438
-0.319000
-0.304071
-0.340728
-0.387352
-0.410071
-0.395967
-0.349163
-0.279681
-0.206419
-0.167759
-0.207372
-0.339186
-0.535928
-0.751130
-0.949168
-1.123209
-1.282489
-1.419945
-1.502669
-1.493364
-1.378890
-1.188014
-0.981206
-0.818525
-0.735438
-0.737015
-0.806642
-0.919477
-1.045373
-1.145945
-1.187106
-1.162346
-1.093746
-1.007555
-0.913885
-0.806288
-0.683196
-0.571610
-0.510628
-0.505263
-0.516764
-0.500672
-0.447866
-0.399716
-0.419108
-0.536474
-0.730556
-0.952136
-1.154092
-1.311696
-1.430245
-1.538641
-1.665182
-1.804999
-1.911725
-1.923558
-1.810109
-1.612616
-1.427361
-1.342001
-1.395453
-1.577039
-1.835740
-2.089840
-2.248936
-2.252230
-2.105949
-1.894997
-1.732948
-1.676050
-1.698888
-1.743019
-1.767192
-1.765331
-1.747894
-1.706420
-1.605874
-1.411013
-1.118726
-0.776874
-0.470304
-0.277528
-0.227930
-0.282051
-0.358736
-0.392075
-0.356095
-0.250531
-0.087938
0.109893
0.325916
0.566842
0.850681
1.165180
1.448038
1.612707
1.613497
1.505976
1.412267
1.412288
1.496397
1.599530
1.634707
1.505314
1.135574
0.525892
-0.213865
-0.889361
-1.324756
-1.484311
-1.459785
-1.341300
-1.161646
-0.951365
-0.793394
-0.814141
-1.097974
-1.584666
-2.088606
-2.431150
-2.530449
-2.402769
-2.122528
-1.779957
-1.466377
-1.275139
-1.276156
-1.469424
-1.774308
-2.067641
-2.238046
-2.227938
-2.032023
-1.666208
-1.164300
-0.607462
-0.135613
0.087541
-0.040864
-0.470773
-1.005018
-1.409296
-1.530691
-1.366866
-1.041359
-0.707902
-0.475997
-0.385939
-0.418481
-0.522362
-0.640435
-0.729440
-0.770952
-0.770687
-0.742159
-0.681893
-0.562541
-0.354121
-0.065962
0.216313
0.354823
0.244809
-0.105196
-0.549739
-0.888997
-1.013660
-0.957150
-0.828215
-0.716213
-0.632656
-0.537782
-0.417965
-0.301642
-0.211342
-0.147060
-0.111072
-0.102048
-0.072476
0.076890
0.436543
0.991954
1.561075
1.886403
1.836231
1.484416
1.022629
0.630044
0.382632
0.262021
0.236291
0.305488
0.487740
0.787208
1.166292
1.533237
1.753443
1.697970
1.312938
0.652187
-0.137195
-0.851157
-1.281155
-1.288931
-0.883339
-0.229899
0.423061
0.859875
1.000147
0.899952
0.666758
0.402714
0.199183
0.127080
0.204866
0.373305
0.503249
0.457977
0.185537
-0.242221
-0.663100
-0.895762
-0.819301
-0.422160
0.189731
0.824830
1.274431
1.401283
1.220107
0.902015
0.684899
0.732016
1.016242
1.371049
1.677061
1.961955
2.339217
2.850062
3.328421
3.487888
3.182799
2.535059
1.845437
1.409885
1.350382
1.586493
1.931763
2.183511
2.179769
1.870097
1.381485
0.971170
0.865727
1.120699
1.582016
2.000133
2.229835
2.309168
2.385474
2.610440
3.071472
3.789397
4.755070
5.931016
7.215257
8.433728
9.388649
9.949372
10.144574
10.167052
10.278882
10.680217
11.398546
12.277356
13.058058
13.471502
13.308368
12.467613
10.982047
9.007257
6.777267
4.557444
2.612944
1.198894
0.542237
0.752402
1.694301
2.977917
4.100849
4.659087
4.532275
3.899425
3.092712
2.438890
2.149136
2.271227
2.702108
3.258439
3.781680
4.202951
4.535132
4.797844
4.937149
4.873291
4.653314
4.516433
4.816115
5.868228
7.806173
10.552840
13.886197
17.462654
20.796972
23.329742
24.602108
24.422764
22.947462
20.604845
17.916744
15.381433
13.442483
12.444121
12.546081
13.655001
15.416288
17.303638
18.783598
19.463228
19.188637
18.081888
16.495743
14.853979
13.431207
12.262907
11.241733
10.319851
9.677688
9.620009
10.256664
11.346562
12.416470
13.026421
13.022485
12.551361
11.878276
11.284832
11.073345
11.482837
12.501169
13.781243
14.756905
14.930489
14.181985
12.776387
11.076723
9.302946
7.479790
5.571175
3.701068
2.234677
1.659259
2.336844
4.244618
6.925259
9.681231
11.871230
13.171626
13.606862
13.371988
12.676248
11.680522
10.485047
9.127421
7.578494
5.776045
3.760289
1.829559
0.457775
-0.016634
0.382159
1.270797
2.151498
2.742826
3.040770
3.113440
2.968140
2.588173
2.020341
1.423981
1.025591
1.019425
1.532363
2.641477
4.321441
6.340227
8.277724
9.685395
10.242739
9.852312
8.674374
7.107779
5.699345
4.962698
5.130584
5.961920
6.870085
7.322643
7.108268
6.336443
5.260627
4.070320
2.872092
1.826382
1.175476
1.115229
1.671813
2.667011
3.792419
4.750709
5.354537
5.548472
5.370923
4.896171
4.230805
3.565484
3.201598
3.493346
4.667527
6.609127
8.865617
10.889121
12.294885
13.004272
13.183144
13.042429
12.726011
12.325472
11.908926
11.514622
11.121311
10.623073
9.850741
8.645731
6.953387
4.894139
2.738054
0.783785
-0.770028
-1.894560
-2.672885
-3.157488
-3.309718
-3.049830
-2.327662
-1.172237
0.287668
1.832473
3.201273
4.180221
4.693046
4.845050
4.848185
4.873402
5.008019
5.328588
5.936245
6.901439
8.172287
9.530360
10.706945
11.589452
12.249663
12.779754
13.175791
13.358610
13.280665
13.020628
12.720799
12.421034
12.037984
11.501242
10.825300
10.056857
9.196820
8.172147
6.907577
5.446094
3.962934
2.666659
1.718663
1.207382
1.132836
1.387722
1.765953
2.014224
1.918881
1.401015
0.552565
-0.409375
-1.254387
-1.869684
-2.301856
-2.687654
-3.134752
-3.622553
-4.026265
-4.238031
-4.226393
-3.995731
-3.518270
-2.699989
-1.438733
0.258155
2.228401
4.213445
5.963566
7.333661
8.296973
8.884443
9.132515
9.072416
8.755794
8.287440
7.808766
7.435622
7.213722
7.115537
7.070526
7.007309
6.870312
6.612144
6.194071
5.596965
4.819770
3.871261
2.792604
1.706738
0.833648
0.436703
0.694451
1.560032
2.762961
3.953472
4.834606
5.218527
5.013229
4.183404
2.762734
0.907907
-1.098547
-2.917573
-4.247468
-4.909406
-4.888968
-4.321515
-3.423427
-2.399095
-1.396312
-0.512338
0.206668
0.781468
1.287907
1.800493
2.317414
2.721394
2.864315
2.724575
2.428071
2.109846
1.783266
1.309768
0.508548
-0.661480
-2.038955
-3.349015
-4.337381
-4.880091
-5.006877
-4.840456
-4.509183
-4.078516
-3.558045
-2.967904
-2.375198
-1.877870
-1.569621
-1.510793
-1.721774
-2.185771
-2.828942
-3.496914
-3.999849
-4.216514
-4.151131
-3.904442
-3.582956
-3.200795
-2.677213
-1.929954
-0.962845
0.104380
1.086339
1.831625
2.279799
2.450345
2.390804
2.120662
1.629569
0.930583
0.110663
-0.660317
-1.193697
-1.390364
-1.290737
-1.040702
-0.815067
-0.743554
-0.896524
-1.309948
-1.962125
-2.711081
-3.306443
-3.502442
-3.198135
-2.526658
-1.788858
-1.268409
-1.117698
-1.361377
-1.944023
-2.765351
-3.664012
-4.387086
-4.653588
-4.303659
-3.394160
-2.183490
-1.015747
-0.162480
0.253237
0.237109
-0.116668
-0.660595
-1.236542
-1.725097
-2.070288
-2.267925
-2.329993
-2.253479
-2.041600
-1.755709
-1.504418
-1.368431
-1.353991
-1.404260
-1.439260
-1.394288
-1.225916
-0.900472
-0.415649
0.158672
0.701481
1.123839
1.422857
1.667639
1.926310
2.180074
2.321464
2.240854
1.915000
1.451651
1.061979
0.972624
1.330469
2.131645
3.212975
4.311854
5.167471
5.620976
5.634042
5.230273
4.448609
3.343942
2.023129
0.675779
-0.472608
-1.268006
-1.684502
-1.804567
-1.772257
-1.749795
-1.891742
-2.323483
-3.095390
-4.128692
-5.222333
-6.129822
-6.650319
-6.694596
-6.287676
-5.522224
-4.526154
-3.456608
-2.488007
-1.777703
-1.414405
-1.374456
-1.535696
-1.739564
-1.833552
-1.683838
-1.199200
-0.375798
0.670387
1.712918
2.494426
2.848790
2.765183
2.365409
1.824376
1.272068
0.744215
0.200404
-0.409989
-1.076799
-1.733778
-2.329061
-2.860781
-3.349917
-3.790848
-4.120777
-4.253141
-4.150273
-3.841724
-3.385559
-2.852681
-2.344541
-1.984730
-1.871815
-2.035762
-2.424524
-2.934283
-3.463310
-3.935064
-4.291419
-4.502855
-4.593320
-4.626484
-4.651943
-4.669714
-4.635650
-4.498127
-4.242233
-3.898553
-3.517422
-3.147002
-2.823480
-2.558547
-2.326869
-2.079146
-1.780587
-1.440684
-1.113200
-0.855407
-0.670782
-0.502944
-0.285443
0.008995
0.345708
0.638920
0.789088
0.727318
0.455414
0.060389
-0.312579
-0.538370
-0.603393
-0.605668
-0.659542
-0.807674
-0.997445
-1.146782
-1.249944
-1.388735
-1.640170
-1.996065
-2.354342
-2.597199
-2.702231
-2.752471
-2.838882
-2.975755
-3.090673
-3.102927
-3.031829
-2.993415
-3.086173
-3.308547
-3.566079
-3.752906
-3.849079
-3.923125
-4.047718
-4.247856
-4.513042
-4.825922
-5.173676
-5.524895
-5.795604
-5.869263
-5.670190
-5.220464
-4.648284
-4.140863
-3.860119
-3.874970
-4.138761
-4.531863
-4.947374
-5.343185
-5.735872
-6.153811
-6.584401
-6.976414
-7.290571
-7.526523
-7.708248
-7.857682
-7.976239
-8.046845
-8.052781
-7.996375
-7.910355
-7.856000
-7.903415
-8.092998
-8.397992
-8.737445
-9.034763
-9.259033
-9.427690
-9.582440
-9.756426
-9.958724
-10.175796
-10.371783
-10.489613
-10.473167
-10.303435
-10.007917
-9.636951
-9.234174
-8.815319
-8.363116
-7.838824
-7.207612
-6.471813
-5.692288
-4.982212
