EVENT_NAME: EMILIA_2ND_SHOCK
EVENT_ID: IT-2012-0011
EVENT_DATE_YYYYMMDD: 20120529
EVENT_TIME_HHMMSS: 070002
EVENT_LATITUDE_DEGREE: 44.8417
EVENT_LONGITUDE_DEGREE: 11.0657
EVENT_DEPTH_KM: 8.1
HYPOCENTER_REFERENCE: INGV-CNT_Seismic_Bulletin
MAGNITUDE_W: 6.0
MAGNITUDE_W_REFERENCE: RCMT-INGV
MAGNITUDE_L: 5.8
MAGNITUDE_L_REFERENCE: INGV-CNT_Seismic_Bulletin
FOCAL_MECHANISM: TF
NETWORK: BA
STATION_CODE: MIRH
STATION_NAME: MIRH
STATION_LATITUDE_DEGREE: 44.882400
STATION_LONGITUDE_DEGREE: 11.063100
STATION_ELEVATION_M: 15
LOCATION: 
SENSOR_DEPTH_M: 0.0
VS30_M/S: 
SITE_CLASSIFICATION_EC8: C*
MORPHOLOGIC_CLASSIFICATION: 
EPICENTRAL_DISTANCE_KM: 4.5
EARTHQUAKE_BACKAZIMUTH_DEGREE: 177.4
DATE_TIME_FIRST_SAMPLE_YYYYMMDD_HHMMSS: 20120529_065950.000
DATE_TIME_FIRST_SAMPLE_PRECISION: seconds
SAMPLING_INTERVAL_S: 0.005000
NDATA: 12998
DURATION_S: 64.990
STREAM: HLN
UNITS: cm
INSTRUMENT: 
INSTRUMENT_ANALOG/DIGITAL: D
INSTRUMENTAL_FREQUENCY_HZ: 
INSTRUMENTAL_DAMPING: 
FULL_SCALE_G: 
N_BIT_DIGITAL_CONVERTER: 
PGD_CM: -15.929596
TIME_PGD_S: 19.675000
BASELINE_CORRECTION: BASELINE REMOVED
FILTER_TYPE: BUTTERWORTH
FILTER_ORDER: 2
LOW_CUT_FREQUENCY_HZ: 0.070
HIGH_CUT_FREQUENCY_HZ: 40.000
LATE/NORMAL_TRIGGERED: NT
DATABASE_VERSION: DYNA 1.0
HEADER_FORMAT: DYNA 1.2
DATA_TYPE: DISPLACEMENT
PROCESSING: manual (Paolucci et al., 2011)
DATA_TIMESTAMP_YYYYMMDD_HHMMSS: 20141203_155932.433
DATA_LICENSE: U (unknown license)
DATA_CITATION: ESM working group (2015), European Strong-Motion database, version 0.1, Network Activity 3: Networking acceleration networks and SM data users. Project NERA (www.nera-eu.org)
DATA_CREATOR: ESM working group
ORIGINAL_DATA_MEDIATOR_CITATION: Basilicata Accelerometric Network, DOI 10.1007/s10518-009-9129-2
ORIGINAL_DATA_MEDIATOR: Ing. Maria Rosaria Gallipoli, CNR-IMAA, mariarosaria.gallipoli@imaa.cnr.it
ORIGINAL_DATA_CREATOR_CITATION: Basilicata Accelerometric Network, DOI 10.1007/s10518-009-9129-2
ORIGINAL_DATA_CREATOR: network: BA (University of Basilicata (UNIBAS) Network); owner: University of Basilicata
USER1: /home/dyna/processing-itaca/processing.py /var/www/processing/tmp/dyna_ingv//BA.MIRH..HLE.D.20120529.070003.X.ACC.ASC /var/www/processing/tmp/dyna_ingv//BA.MIRH..HLN.D.20120529.070003.X.ACC.ASC /var/www/processing/tmp/dyna_ingv//BA.MIRH..HLZ.D.20120529.070003.X.ACC.ASC --tmp /var/www/processing/tmp/dyna_ingv/ --le 0.0700 --he 40.000 --ln 0.0700 --hn 40.000 --lz 0.0700 --hz 40.000 --fo 2 --ca 0 --cz 1750 --ta 5 --tz 5 --mf 1 --rf 0.005 --tr NT
USER2: 
USER3: 
USER4: 
USER5: 
[...]
-2.328210e+00
-2.332938e+00
-2.337677e+00
-2.342437e+00
-2.347219e+00
-2.352012e+00
-2.356802e+00
-2.361582e+00
-2.366353e+00
-2.371119e+00
-2.375877e+00
-2.380621e+00
-2.385347e+00
-2.390062e+00
-2.394784e+00
-2.399526e+00
-2.404286e+00
-2.409046e+00
-2.413784e+00
-2.418494e+00
-2.423197e+00
-2.427924e+00
-2.432700e+00
-2.437532e+00
-2.442414e+00
-2.447343e+00
-2.452324e+00
-2.457355e+00
-2.462411e+00
-2.467453e+00
-2.472449e+00
-2.477387e+00
-2.482275e+00
-2.487129e+00
-2.491967e+00
-2.496801e+00
-2.501636e+00
-2.506470e+00
-2.511295e+00
-2.516111e+00
-2.520925e+00
-2.525744e+00
-2.530565e+00
-2.535383e+00
-2.540199e+00
-2.545021e+00
-2.549852e+00
-2.554684e+00
-2.559493e+00
-2.564258e+00
-2.568965e+00
-2.573610e+00
-2.578188e+00
-2.582692e+00
-2.587117e+00
-2.591466e+00
-2.595756e+00
-2.600015e+00
-2.604272e+00
-2.608552e+00
-2.612866e+00
-2.617210e+00
-2.621567e+00
-2.625910e+00
-2.630215e+00
-2.634461e+00
-2.638639e+00
-2.642746e+00
-2.646787e+00
-2.650774e+00
-2.654721e+00
-2.658641e+00
-2.662535e+00
-2.666391e+00
-2.670195e+00
-2.673924e+00
-2.677562e+00
-2.681106e+00
-2.684572e+00
-2.687983e+00
-2.691358e+00
-2.694694e+00
-2.697977e+00
-2.701196e+00
-2.704352e+00
-2.707451e+00
-2.710485e+00
-2.713442e+00
-2.716305e+00
-2.719069e+00
-2.721733e+00
-2.724311e+00
-2.726828e+00
-2.729308e+00
-2.731763e+00
-2.734195e+00
-2.736604e+00
-2.739004e+00
-2.741417e+00
-2.743857e+00
-2.746316e+00
-2.748775e+00
-2.751227e+00
-2.753684e+00
-2.756173e+00
-2.758718e+00
-2.761332e+00
-2.764006e+00
-2.766715e+00
-2.769430e+00
-2.772127e+00
-2.774800e+00
-2.777461e+00
-2.780129e+00
-2.782827e+00
-2.785580e+00
-2.788418e+00
-2.791367e+00
-2.794446e+00
-2.797650e+00
-2.800945e+00
-2.804266e+00
-2.807537e+00
-2.810704e+00
-2.813753e+00
-2.816716e+00
-2.819645e+00
-2.822597e+00
-2.825617e+00
-2.828737e+00
-2.831969e+00
-2.835295e+00
-2.838663e+00
-2.841977e+00
-2.845112e+00
-2.847951e+00
-2.850429e+00
-2.852559e+00
-2.854425e+00
-2.856124e+00
-2.857719e+00
-2.859240e+00
-2.860704e+00
-2.862118e+00
-2.863472e+00
-2.864725e+00
-2.865820e+00
-2.866723e+00
-2.867450e+00
-2.868056e+00
-2.868601e+00
-2.869142e+00
-2.869729e+00
-2.870386e+00
-2.871110e+00
-2.871876e+00
-2.872655e+00
-2.873425e+00
-2.874168e+00
-2.874853e+00
-2.875447e+00
-2.875938e+00
-2.876354e+00
-2.876737e+00
-2.877112e+00
-2.877486e+00
-2.877870e+00
-2.878277e+00
-2.878712e+00
-2.879160e+00
-2.879594e+00
-2.880013e+00
-2.880455e+00
-2.880962e+00
-2.881547e+00
-2.882196e+00
-2.882905e+00
-2.883683e+00
-2.884544e+00
-2.885484e+00
-2.886487e+00
-2.887558e+00
-2.888738e+00
-2.890068e+00
-2.891550e+00
-2.893158e+00
-2.894873e+00
-2.896695e+00
-2.898626e+00
-2.900641e+00
-2.902677e+00
-2.904666e+00
-2.906552e+00
-2.908300e+00
-2.909881e+00
-2.911279e+00
-2.912504e+00
-2.913597e+00
-2.914621e+00
-2.915643e+00
-2.916715e+00
-2.917851e+00
-2.919035e+00
-2.920226e+00
-2.921369e+00
-2.922408e+00
-2.923283e+00
-2.923960e+00
-2.924447e+00
-2.924798e+00
-2.925084e+00
-2.925364e+00
-2.925659e+00
-2.925961e+00
-2.926254e+00
-2.926520e+00
-2.926744e+00
-2.926918e+00
-2.927043e+00
-2.927115e+00
-2.927113e+00
-2.927008e+00
-2.926764e+00
-2.926331e+00
-2.925635e+00
-2.924592e+00
-2.923125e+00
-2.921181e+00
-2.918743e+00
-2.915831e+00
-2.912516e+00
-2.908928e+00
-2.905234e+00
-2.901571e+00
-2.897998e+00
-2.894518e+00
-2.891123e+00
-2.887787e+00
-2.884449e+00
-2.881007e+00
-2.877350e+00
-2.873410e+00
-2.869193e+00
-2.864758e+00
-2.860165e+00
-2.855461e+00
-2.850666e+00
-2.845773e+00
-2.840759e+00
-2.835629e+00
-2.830430e+00
-2.825221e+00
-2.820025e+00
-2.814828e+00
-2.809614e+00
-2.804375e+00
-2.799102e+00
-2.793752e+00
-2.788254e+00
-2.782557e+00
-2.776667e+00
-2.770618e+00
-2.764433e+00
-2.758135e+00
-2.751782e+00
-2.745455e+00
-2.739235e+00
-2.733185e+00
-2.727354e+00
-2.721806e+00
-2.716610e+00
-2.711786e+00
-2.707274e+00
-2.702982e+00
-2.698845e+00
-2.694814e+00
-2.690816e+00
-2.686745e+00
-2.682484e+00
-2.677974e+00
-2.673237e+00
-2.668344e+00
-2.663348e+00
-2.658253e+00
-2.653007e+00
-2.647541e+00
-2.641818e+00
-2.635881e+00
-2.629847e+00
-2.623820e+00
-2.617812e+00
-2.611755e+00
-2.605573e+00
-2.599268e+00
-2.592934e+00
-2.586682e+00
-2.580551e+00
-2.574516e+00
-2.568525e+00
-2.562530e+00
-2.556493e+00
-2.550376e+00
-2.544129e+00
-2.537670e+00
-2.530900e+00
-2.523742e+00
-2.516184e+00
-2.508272e+00
-2.500044e+00
-2.491458e+00
-2.482376e+00
-2.472645e+00
-2.462190e+00
-2.451034e+00
-2.439274e+00
-2.427057e+00
-2.414560e+00
-2.401913e+00
-2.389135e+00
-2.376133e+00
-2.362793e+00
-2.349107e+00
-2.335242e+00
-2.321445e+00
-2.307910e+00
-2.294715e+00
-2.281842e+00
-2.269248e+00
-2.256930e+00
-2.244939e+00
-2.233312e+00
-2.221948e+00
-2.210528e+00
-2.198603e+00
-2.185760e+00
-2.171754e+00
-2.156547e+00
-2.140225e+00
-2.122906e+00
-2.104705e+00
-2.085704e+00
-2.065896e+00
-2.045182e+00
-2.023482e+00
-2.000860e+00
-1.977524e+00
-1.953750e+00
-1.929819e+00
-1.905984e+00
-1.882451e+00
-1.859350e+00
-1.836686e+00
-1.814343e+00
-1.792168e+00
-1.770030e+00
-1.747770e+00
-1.725155e+00
-1.701934e+00
-1.677940e+00
-1.653141e+00
-1.627588e+00
-1.601314e+00
-1.574292e+00
-1.546533e+00
-1.518175e+00
-1.489465e+00
-1.460645e+00
-1.431859e+00
-1.403133e+00
-1.374440e+00
-1.345748e+00
-1.316999e+00
-1.288121e+00
-1.259144e+00
-1.230256e+00
-1.201705e+00
-1.173603e+00
-1.145824e+00
-1.118056e+00
-1.089964e+00
-1.061307e+00
-1.031905e+00
-1.001574e+00
-9.701724e-01
-9.376694e-01
-9.041214e-01
-8.696110e-01
-8.342338e-01
-7.981431e-01
-7.616095e-01
-7.250261e-01
-6.888152e-01
-6.532795e-01
-6.184710e-01
-5.841505e-01
-5.498779e-01
-5.151866e-01
-4.797395e-01
-4.433360e-01
-4.057374e-01
-3.665317e-01
-3.252456e-01
-2.816158e-01
-2.358097e-01
-1.884199e-01
-1.401831e-01
-9.164096e-02
-4.297244e-02
5.987550e-03
5.560839e-02
1.062759e-01
1.582228e-01
2.114531e-01
2.658030e-01
3.210737e-01
3.771362e-01
4.339412e-01
4.914407e-01
5.495467e-01
6.082155e-01
6.675469e-01
7.277714e-01
7.891682e-01
8.519984e-01
9.164664e-01
9.826836e-01
1.050610e+00
1.119991e+00
1.190356e+00
1.261128e+00
1.331736e+00
1.401657e+00
1.470406e+00
1.537559e+00
1.602785e+00
1.665824e+00
1.726484e+00
1.784682e+00
1.840509e+00
1.894269e+00
1.946391e+00
1.997229e+00
2.046897e+00
2.095307e+00
2.142313e+00
2.187808e+00
2.231732e+00
2.273998e+00
2.314460e+00
2.352993e+00
2.389586e+00
2.424317e+00
2.457263e+00
2.488411e+00
2.517641e+00
2.544792e+00
2.569777e+00
2.592678e+00
2.613827e+00
2.633818e+00
2.653409e+00
2.673297e+00
2.693893e+00
2.715255e+00
2.737167e+00
2.759348e+00
2.781691e+00
2.804452e+00
2.828307e+00
2.854207e+00
2.883103e+00
2.915657e+00
2.952087e+00
2.992213e+00
3.035598e+00
3.081640e+00
3.129636e+00
3.178864e+00
3.228660e+00
3.278461e+00
3.327836e+00
3.376522e+00
3.424443e+00
3.471664e+00
3.518305e+00
3.564475e+00
3.610280e+00
3.655885e+00
3.701503e+00
3.747239e+00
3.792974e+00
3.838463e+00
3.883523e+00
3.928105e+00
3.972250e+00
4.016016e+00
4.059471e+00
4.102759e+00
4.146108e+00
4.189681e+00
4.233477e+00
4.277439e+00
4.321619e+00
4.366201e+00
4.411394e+00
4.457354e+00
4.504175e+00
4.551953e+00
4.600783e+00
4.650656e+00
4.701412e+00
4.752902e+00
4.805167e+00
4.858432e+00
4.912963e+00
4.968930e+00
5.026360e+00
5.085204e+00
5.145396e+00
5.206847e+00
5.269424e+00
5.332975e+00
5.397361e+00
5.462444e+00
5.528066e+00
5.594080e+00
5.660412e+00
5.727108e+00
5.794345e+00
5.862406e+00
5.931651e+00
6.002495e+00
6.075379e+00
6.150737e+00
6.228931e+00
6.310166e+00
6.394434e+00
6.481515e+00
6.571061e+00
6.662730e+00
6.756262e+00
6.851438e+00
6.948017e+00
7.045752e+00
7.144426e+00
7.243826e+00
7.343682e+00
7.443639e+00
7.543295e+00
7.642292e+00
7.740337e+00
7.837102e+00
7.932156e+00
8.025070e+00
8.115567e+00
8.203576e+00
8.289185e+00
8.372558e+00
8.453865e+00
8.533257e+00
8.610836e+00
8.686627e+00
8.760590e+00
8.832686e+00
8.902894e+00
8.971122e+00
9.037140e+00
9.100661e+00
9.161495e+00
9.219625e+00
9.275171e+00
9.328289e+00
9.379101e+00
9.427731e+00
9.474342e+00
9.519099e+00
9.562125e+00
9.603521e+00
9.643396e+00
9.681853e+00
9.718966e+00
9.754803e+00
9.789460e+00
9.823059e+00
9.855687e+00
9.887311e+00
9.917765e+00
9.946855e+00
9.974480e+00
1.000066e+01
1.002548e+01
1.004906e+01
1.007150e+01
1.009282e+01
1.011300e+01
1.013196e+01
1.014966e+01
1.016608e+01
1.018117e+01
1.019490e+01
1.020723e+01
1.021833e+01
1.022856e+01
1.023841e+01
1.024825e+01
1.025827e+01
1.026855e+01
1.027908e+01
1.028993e+01
1.030122e+01
1.031311e+01
1.032575e+01
1.033936e+01
1.035423e+01
1.037081e+01
1.038952e+01
1.041065e+01
1.043433e+01
1.046053e+01
1.048926e+01
1.052056e+01
1.055447e+01
1.059094e+01
1.062999e+01
1.067188e+01
1.071715e+01
1.076636e+01
1.081981e+01
1.087750e+01
1.093918e+01
1.100465e+01
1.107385e+01
1.114677e+01
1.122348e+01
1.130395e+01
1.138806e+01
1.147555e+01
1.156610e+01
1.165943e+01
1.175522e+01
1.185312e+01
1.195264e+01
1.205317e+01
1.215411e+01
1.225494e+01
1.235524e+01
1.245460e+01
1.255258e+01
1.264867e+01
1.274239e+01
1.283339e+01
1.292148e+01
1.300670e+01
1.308928e+01
1.316968e+01
1.324838e+01
1.332581e+01
1.340220e+01
1.347749e+01
1.355150e+01
1.362400e+01
1.369481e+01
1.376375e+01
1.383066e+01
1.389544e+01
1.395816e+01
1.401905e+01
1.407844e+01
1.413667e+01
1.419403e+01
1.425070e+01
1.430671e+01
1.436192e+01
1.441609e+01
1.446894e+01
1.452014e+01
1.456927e+01
1.461593e+01
1.465971e+01
1.470033e+01
1.473760e+01
1.477132e+01
1.480123e+01
1.482709e+01
1.484886e+01
1.486678e+01
1.488130e+01
1.489294e+01
1.490209e+01
1.490901e+01
1.491391e+01
1.491691e+01
1.491800e+01
1.491716e+01
1.491432e+01
1.490946e+01
1.490250e+01
1.489329e+01
1.488159e+01
1.486717e+01
1.484995e+01
1.482996e+01
1.480719e+01
1.478160e+01
1.475309e+01
1.472155e+01
1.468692e+01
1.464919e+01
1.460839e+01
1.456457e+01
1.451770e+01
1.446765e+01
1.441424e+01
1.435725e+01
1.429649e+01
1.423180e+01
1.416300e+01
1.409006e+01
1.401301e+01
1.393188e+01
1.384646e+01
1.375634e+01
1.366098e+01
1.355997e+01
1.345312e+01
1.334049e+01
1.322224e+01
1.309860e+01
1.296975e+01
1.283594e+01
1.269748e+01
1.255486e+01
1.240880e+01
1.226011e+01
1.210949e+01
1.195750e+01
1.180448e+01
1.165072e+01
1.149654e+01
1.134235e+01
1.118859e+01
1.103567e+01
1.088381e+01
1.073309e+01
1.058345e+01
1.043482e+01
1.028719e+01
1.014056e+01
9.994935e+00
9.850176e+00
9.706061e+00
9.562342e+00
9.418838e+00
9.275464e+00
9.132199e+00
8.989001e+00
8.845781e+00
8.702431e+00
8.558867e+00
8.415003e+00
8.270717e+00
8.125860e+00
7.980313e+00
7.834038e+00
7.687088e+00
7.539555e+00
7.391538e+00
7.243156e+00
7.094581e+00
6.946039e+00
6.797767e+00
6.649977e+00
6.502837e+00
6.356469e+00
6.210945e+00
6.066246e+00
5.922254e+00
5.778803e+00
5.635764e+00
5.493111e+00
5.350918e+00
5.209317e+00
5.068468e+00
4.928602e+00
4.790031e+00
4.653051e+00
4.517833e+00
4.384392e+00
4.252646e+00
4.122464e+00
3.993636e+00
3.865789e+00
3.738373e+00
3.610816e+00
3.482683e+00
3.353673e+00
3.223517e+00
3.091904e+00
2.958478e+00
2.822901e+00
2.684906e+00
2.544316e+00
2.401031e+00
2.254995e+00
2.106136e+00
1.954283e+00
1.799145e+00
1.640422e+00
1.477903e+00
1.311433e+00
1.140820e+00
9.658251e-01
7.862424e-01
6.020421e-01
4.134244e-01
2.207076e-01
2.414684e-02
-1.761788e-01
-3.803705e-01
-5.886186e-01
-8.010685e-01
-1.017712e+00
-1.238386e+00
-1.462894e+00
-1.691132e+00
-1.923095e+00
-2.158783e+00
-2.398108e+00
-2.640867e+00
-2.886826e+00
-3.135796e+00
-3.387655e+00
-3.642317e+00
-3.899703e+00
-4.159717e+00
-4.422199e+00
-4.686952e+00
-4.953842e+00
-5.222860e+00
-5.494008e+00
-5.767106e+00
-6.041672e+00
-6.316972e+00
-6.592260e+00
-6.866992e+00
-7.140854e+00
-7.413668e+00
-7.685301e+00
-7.955602e+00
-8.224364e+00
-8.491311e+00
-8.756135e+00
-9.018543e+00
-9.278282e+00
-9.535153e+00
-9.789017e+00
-1.003978e+01
-1.028733e+01
-1.053150e+01
-1.077199e+01
-1.100845e+01
-1.124059e+01
-1.146824e+01
-1.169137e+01
-1.190993e+01
-1.212382e+01
-1.233282e+01
-1.253670e+01
-1.273518e+01
-1.292804e+01
-1.311503e+01
-1.329589e+01
-1.347032e+01
-1.363812e+01
-1.379931e+01
-1.395412e+01
-1.410285e+01
-1.424573e+01
-1.438276e+01
-1.451388e+01
-1.463905e+01
-1.475833e+01
-1.487176e+01
-1.497935e+01
-1.508104e+01
-1.517673e+01
-1.526637e+01
-1.534999e+01
-1.542768e+01
-1.549961e+01
-1.556593e+01
-1.562673e+01
-1.568205e+01
-1.573185e+01
-1.577611e+01
-1.581478e+01
-1.584776e+01
-1.587501e+01
-1.589659e+01
-1.591267e+01
-1.592343e+01
-1.592903e+01
-1.592960e+01
-1.592525e+01
-1.591617e+01
-1.590254e+01
-1.588447e+01
-1.586200e+01
-1.583515e+01
-1.580395e+01
-1.576845e+01
-1.572868e+01
-1.568467e+01
-1.563645e+01
-1.558398e+01
-1.552728e+01
-1.546637e+01
-1.540140e+01
-1.533257e+01
-1.526010e+01
-1.518423e+01
-1.510523e+01
-1.502350e+01
-1.493948e+01
-1.485361e+01
-1.476622e+01
-1.467758e+01
-1.458795e+01
-1.449763e+01
-1.440686e+01
-1.431582e+01
-1.422470e+01
-1.413368e+01
-1.404293e+01
-1.395261e+01
-1.386279e+01
-1.377355e+01
-1.368497e+01
-1.359719e+01
-1.351033e+01
-1.342449e+01
-1.333976e+01
-1.325623e+01
-1.317400e+01
-1.309315e+01
-1.301380e+01
-1.293606e+01
-1.286001e+01
-1.278569e+01
-1.271301e+01
-1.264183e+01
-1.257189e+01
-1.250294e+01
-1.243473e+01
-1.236701e+01
-1.229957e+01
-1.223220e+01
-1.216471e+01
-1.209692e+01
-1.202864e+01
-1.195973e+01
-1.189006e+01
-1.181955e+01
-1.174816e+01
-1.167578e+01
-1.160231e+01
-1.152764e+01
-1.145170e+01
-1.137444e+01
-1.129586e+01
-1.121592e+01
-1.113460e+01
-1.105187e+01
-1.096767e+01
-1.088198e+01
-1.079478e+01
-1.070605e+01
-1.061581e+01
-1.052407e+01
-1.043085e+01
-1.033617e+01
-1.024003e+01
-1.014238e+01
-1.004316e+01
-9.942302e+00
-9.839816e+00
-9.735751e+00
-9.630187e+00
-9.523190e+00
-9.414798e+00
-9.305028e+00
-9.193887e+00
-9.081374e+00
-8.967455e+00
-8.852050e+00
-8.735047e+00
-8.616327e+00
-8.495787e+00
-8.373345e+00
-8.248941e+00
-8.122519e+00
-7.994010e+00
-7.863327e+00
-7.730370e+00
-7.595059e+00
-7.457351e+00
-7.317252e+00
-7.174799e+00
-7.030050e+00
-6.883048e+00
-6.733802e+00
-6.582258e+00
-6.428310e+00
-6.271857e+00
-6.112867e+00
-5.951407e+00
-5.787631e+00
-5.621776e+00
-5.454141e+00
-5.285068e+00
-5.114920e+00
-4.944058e+00
-4.772842e+00
-4.601628e+00
-4.430755e+00
-4.260518e+00
-4.091145e+00
-3.922823e+00
-3.755742e+00
-3.590098e+00
-3.426077e+00
-3.263836e+00
-3.103489e+00
-2.945111e+00
-2.788742e+00
-2.634394e+00
-2.482067e+00
-2.331770e+00
-2.183535e+00
-2.037390e+00
-1.893328e+00
-1.751302e+00
-1.611243e+00
-1.473087e+00
-1.336807e+00
-1.202421e+00
-1.069986e+00
-9.395581e-01
-8.111599e-01
-6.847555e-01
-5.602505e-01
-4.375083e-01
-3.163666e-01
-1.966457e-01
-7.815963e-02
3.926170e-02
1.557508e-01
2.713945e-01
3.862291e-01
5.002306e-01
6.133212e-01
7.254101e-01
8.364447e-01
9.464412e-01
1.055477e+00
1.163651e+00
1.271054e+00
1.377769e+00
1.483889e+00
1.589524e+00
1.694787e+00
1.799763e+00
1.904485e+00
2.008900e+00
2.112870e+00
2.216218e+00
2.318778e+00
2.420408e+00
2.520961e+00
2.620243e+00
2.718024e+00
2.814104e+00
2.908377e+00
3.000842e+00
3.091556e+00
3.180580e+00
3.267942e+00
3.353626e+00
3.437575e+00
3.519714e+00
3.599964e+00
3.678268e+00
3.754587e+00
3.828884e+00
3.901103e+00
3.971188e+00
4.039109e+00
4.104859e+00
4.168446e+00
4.229868e+00
4.289114e+00
4.346179e+00
4.401073e+00
4.453799e+00
4.504330e+00
4.552627e+00
4.598668e+00
4.642459e+00
4.684023e+00
4.723378e+00
4.760527e+00
4.795473e+00
4.828212e+00
4.858726e+00
4.886986e+00
4.912989e+00
4.936789e+00
4.958486e+00
4.978184e+00
4.995976e+00
5.011954e+00
5.026250e+00
5.039052e+00
5.050587e+00
5.061100e+00
5.070848e+00
5.080112e+00
5.089181e+00
5.098333e+00
5.107833e+00
5.117938e+00
5.128912e+00
5.141028e+00
5.154557e+00
5.169741e+00
5.186755e+00
5.205701e+00
5.226634e+00
5.249625e+00
5.274801e+00
5.302315e+00
5.332252e+00
5.364550e+00
5.399032e+00
5.435486e+00
5.473715e+00
5.513535e+00
5.554747e+00
5.597135e+00
5.640461e+00
5.684476e+00
5.728882e+00
5.773326e+00
5.817447e+00
5.860922e+00
5.903465e+00
5.944809e+00
5.984704e+00
6.022929e+00
6.059275e+00
6.093515e+00
6.125395e+00
6.154661e+00
6.181098e+00
6.204559e+00
6.224927e+00
6.242097e+00
6.255992e+00
6.266591e+00
6.273941e+00
6.278135e+00
6.279312e+00
6.277653e+00
6.273386e+00
6.266753e+00
6.257984e+00
6.247259e+00
6.234708e+00
6.220434e+00
6.204551e+00
6.187209e+00
6.168586e+00
6.148859e+00
6.128183e+00
6.106702e+00
6.084580e+00
6.061998e+00
6.039093e+00
6.015893e+00
5.992330e+00
5.968292e+00
5.943673e+00
5.918393e+00
5.892397e+00
5.865645e+00
5.838121e+00
5.809832e+00
5.780764e+00
5.750857e+00
5.720012e+00
5.688109e+00
5.655019e+00
5.620600e+00
5.584700e+00
5.547169e+00
5.507880e+00
5.466738e+00
5.423694e+00
5.378742e+00
5.331898e+00
5.283172e+00
5.232549e+00
5.179988e+00
5.125435e+00
5.068834e+00
5.010100e+00
4.949106e+00
4.885716e+00
4.819816e+00
4.751299e+00
4.680039e+00
4.605881e+00
4.528680e+00
4.448349e+00
4.364881e+00
4.278303e+00
4.188629e+00
4.095847e+00
3.999921e+00
3.900788e+00
3.798356e+00
3.692530e+00
3.583239e+00
3.470438e+00
3.354086e+00
3.234133e+00
3.110525e+00
2.983248e+00
2.852354e+00
2.717956e+00
2.580214e+00
2.439337e+00
2.295603e+00
2.149346e+00
2.000936e+00
1.850754e+00
1.699179e+00
1.546568e+00
1.393257e+00
1.239561e+00
1.085780e+00
9.322027e-01
7.790961e-01
6.266937e-01
4.751958e-01
3.248000e-01
1.757404e-01
2.830617e-02
-1.171690e-01
-2.603441e-01
-4.009233e-01
-5.387032e-01
-6.735853e-01
-8.055375e-01
-9.345401e-01
-1.060559e+00
-1.183544e+00
-1.303452e+00
-1.420255e+00
-1.533950e+00
-1.644558e+00
-1.752129e+00
-1.856735e+00
-1.958451e+00
-2.057332e+00
-2.153437e+00
-2.246851e+00
-2.337684e+00
-2.426052e+00
-2.512062e+00
-2.595800e+00
-2.677328e+00
-2.756687e+00
-2.833905e+00
-2.909015e+00
-2.982065e+00
-3.053113e+00
-3.122192e+00
-3.189289e+00
-3.254368e+00
-3.317400e+00
