EVENT_NAME: EMILIA_2ND_SHOCK
EVENT_ID: IT-2012-0011
EVENT_DATE_YYYYMMDD: 20120529
EVENT_TIME_HHMMSS: 070002
EVENT_LATITUDE_DEGREE: 44.8417
EVENT_LONGITUDE_DEGREE: 11.0657
EVENT_DEPTH_KM: 8.1
HYPOCENTER_REFERENCE: INGV-CNT_Seismic_Bulletin
MAGNITUDE_W: 6.0
MAGNITUDE_W_REFERENCE: RCMT-INGV
MAGNITUDE_L: 5.8
MAGNITUDE_L_REFERENCE: INGV-CNT_Seismic_Bulletin
FOCAL_MECHANISM: TF
NETWORK: BA
STATION_CODE: MIRE
STATION_NAME: MIRE
STATION_LATITUDE_DEGREE: 44.878212
STATION_LONGITUDE_DEGREE: 11.061747
STATION_ELEVATION_M: 
LOCATION: 
SENSOR_DEPTH_M: 0.0
VS30_M/S: 
SITE_CLASSIFICATION_EC8: C*
MORPHOLOGIC_CLASSIFICATION: 
EPICENTRAL_DISTANCE_KM: 4.1
EARTHQUAKE_BACKAZIMUTH_DEGREE: 175.6
DATE_TIME_FIRST_SAMPLE_YYYYMMDD_HHMMSS: 20120529_065950.000
DATE_TIME_FIRST_SAMPLE_PRECISION: seconds
SAMPLING_INTERVAL_S: 0.005000
NDATA: 12394
DURATION_S: 61.970
STREAM: HLE
UNITS: cm
INSTRUMENT: 
INSTRUMENT_ANALOG/DIGITAL: D
INSTRUMENTAL_FREQUENCY_HZ: 
INSTRUMENTAL_DAMPING: 
FULL_SCALE_G: 
N_BIT_DIGITAL_CONVERTER: 
PGD_CM: 8.268655
TIME_PGD_S: 18.245000
BASELINE_CORRECTION: BASELINE REMOVED
FILTER_TYPE: BUTTERWORTH
FILTER_ORDER: 2
LOW_CUT_FREQUENCY_HZ: 0.070
HIGH_CUT_FREQUENCY_HZ: 40.000
LATE/NORMAL_TRIGGERED: NT
DATABASE_VERSION: DYNA 1.0
HEADER_FORMAT: DYNA 1.2
DATA_TYPE: DISPLACEMENT
PROCESSING: manual (Paolucci et al., 2011)
DATA_TIMESTAMP_YYYYMMDD_HHMMSS: 20141204_110616.699
DATA_LICENSE: U (unknown license)
DATA_CITATION: ESM working group (2015), European Strong-Motion database, version 0.1, Network Activity 3: Networking acceleration networks and SM data users. Project NERA (www.nera-eu.org)
DATA_CREATOR: ESM working group
ORIGINAL_DATA_MEDIATOR_CITATION: Basilicata Accelerometric Network, DOI 10.1007/s10518-009-9129-2
ORIGINAL_DATA_MEDIATOR: Ing. Maria Rosaria Gallipoli, CNR-IMAA, mariarosaria.gallipoli@imaa.cnr.it
ORIGINAL_DATA_CREATOR_CITATION: Basilicata Accelerometric Network, DOI 10.1007/s10518-009-9129-2
ORIGINAL_DATA_CREATOR: network: BA (University of Basilicata (UNIBAS) Network); owner: University of Basilicata
USER1: /home/dyna/processing-itaca/processing.py /var/www/processing/tmp/dyna_ingv//BA.MIRE..HLE.D.20120529.070003.X.ACC.ASC /var/www/processing/tmp/dyna_ingv//BA.MIRE..HLN.D.20120529.070003.X.ACC.ASC /var/www/processing/tmp/dyna_ingv//BA.MIRE..HLZ.D.20120529.070003.X.ACC.ASC --tmp /var/www/processing/tmp/dyna_ingv/ --le 0.070 --he 40.000 --ln 0.070 --hn 40.000 --lz 0.070 --hz 40.000 --fo 2 --ca 0 --cz 1750.02 --ta 5 --tz 5 --mf 1 --rf 0.005 --tr NT
USER2: 
USER3: 
USER4: 
USER5: 
[...]
-2.894073e-01
-2.900522e-01
-2.906977e-01
-2.913439e-01
-2.919907e-01
-2.926381e-01
-2.932861e-01
-2.939349e-01
-2.945843e-01
-2.952345e-01
-2.958854e-01
-2.965370e-01
-2.971893e-01
-2.978423e-01
-2.984960e-01
-2.991503e-01
-2.998051e-01
-3.004604e-01
-3.011161e-01
-3.017721e-01
-3.024286e-01
-3.030855e-01
-3.037428e-01
-3.044007e-01
-3.050590e-01
-3.057179e-01
-3.063773e-01
-3.070373e-01
-3.076979e-01
-3.083591e-01
-3.090210e-01
-3.096835e-01
-3.103465e-01
-3.110099e-01
-3.116737e-01
-3.123379e-01
-3.130024e-01
-3.136673e-01
-3.143328e-01
-3.149989e-01
-3.156656e-01
-3.163330e-01
-3.170011e-01
-3.176697e-01
-3.183389e-01
-3.190087e-01
-3.196790e-01
-3.203498e-01
-3.210211e-01
-3.216929e-01
-3.223650e-01
-3.230375e-01
-3.237103e-01
-3.243837e-01
-3.250576e-01
-3.257322e-01
-3.264073e-01
-3.270830e-01
-3.277593e-01
-3.284363e-01
-3.291141e-01
-3.297925e-01
-3.304717e-01
-3.311515e-01
-3.318319e-01
-3.325129e-01
-3.331943e-01
-3.338763e-01
-3.345589e-01
-3.352418e-01
-3.359253e-01
-3.366091e-01
-3.372934e-01
-3.379782e-01
-3.386634e-01
-3.393492e-01
-3.400355e-01
-3.407224e-01
-3.414098e-01
-3.420978e-01
-3.427862e-01
-3.434752e-01
-3.441645e-01
-3.448544e-01
-3.455446e-01
-3.462354e-01
-3.469265e-01
-3.476180e-01
-3.483099e-01
-3.490021e-01
-3.496949e-01
-3.503881e-01
-3.510818e-01
-3.517761e-01
-3.524707e-01
-3.531659e-01
-3.538614e-01
-3.545574e-01
-3.552538e-01
-3.559505e-01
-3.566476e-01
-3.573452e-01
-3.580432e-01
-3.587416e-01
-3.594404e-01
-3.601395e-01
-3.608389e-01
-3.615386e-01
-3.622384e-01
-3.629386e-01
-3.636392e-01
-3.643403e-01
-3.650420e-01
-3.657443e-01
-3.664472e-01
-3.671506e-01
-3.678545e-01
-3.685590e-01
-3.692639e-01
-3.699693e-01
-3.706750e-01
-3.713811e-01
-3.720877e-01
-3.727947e-01
-3.735023e-01
-3.742104e-01
-3.749189e-01
-3.756279e-01
-3.763373e-01
-3.770470e-01
-3.777571e-01
-3.784676e-01
-3.791785e-01
-3.798899e-01
-3.806018e-01
-3.813142e-01
-3.820271e-01
-3.827404e-01
-3.834540e-01
-3.841679e-01
-3.848821e-01
-3.855966e-01
-3.863114e-01
-3.870265e-01
-3.877418e-01
-3.884575e-01
-3.891735e-01
-3.898898e-01
-3.906063e-01
-3.913232e-01
-3.920405e-01
-3.927581e-01
-3.934761e-01
-3.941944e-01
-3.949130e-01
-3.956318e-01
-3.963509e-01
-3.970702e-01
-3.977896e-01
-3.985092e-01
-3.992289e-01
-3.999488e-01
-4.006690e-01
-4.013893e-01
-4.021100e-01
-4.028310e-01
-4.035524e-01
-4.042742e-01
-4.049964e-01
-4.057189e-01
-4.064417e-01
-4.071648e-01
-4.078882e-01
-4.086118e-01
-4.093357e-01
-4.100598e-01
-4.107842e-01
-4.115090e-01
-4.122340e-01
-4.129594e-01
-4.136852e-01
-4.144112e-01
-4.151374e-01
-4.158639e-01
-4.165906e-01
-4.173175e-01
-4.180448e-01
-4.187725e-01
-4.195005e-01
-4.202289e-01
-4.209575e-01
-4.216865e-01
-4.224157e-01
-4.231452e-01
-4.238748e-01
-4.246046e-01
-4.253345e-01
-4.260644e-01
-4.267943e-01
-4.275244e-01
-4.282545e-01
-4.289847e-01
-4.297151e-01
-4.304457e-01
-4.311765e-01
-4.319075e-01
-4.326387e-01
-4.333703e-01
-4.341023e-01
-4.348347e-01
-4.355676e-01
-4.363010e-01
-4.370349e-01
-4.377692e-01
-4.385038e-01
-4.392387e-01
-4.399738e-01
-4.407091e-01
-4.414446e-01
-4.421802e-01
-4.429161e-01
-4.436522e-01
-4.443885e-01
-4.451251e-01
-4.458619e-01
-4.465989e-01
-4.473359e-01
-4.480730e-01
-4.488101e-01
-4.495472e-01
-4.502844e-01
-4.510219e-01
-4.517599e-01
-4.524993e-01
-4.532410e-01
-4.539860e-01
-4.547348e-01
-4.554878e-01
-4.562447e-01
-4.570046e-01
-4.577663e-01
-4.585284e-01
-4.592902e-01
-4.600514e-01
-4.608119e-01
-4.615721e-01
-4.623332e-01
-4.630964e-01
-4.638629e-01
-4.646345e-01
-4.654155e-01
-4.662104e-01
-4.670208e-01
-4.678394e-01
-4.686497e-01
-4.694322e-01
-4.701749e-01
-4.708809e-01
-4.715698e-01
-4.722705e-01
-4.730079e-01
-4.737903e-01
-4.746024e-01
-4.754117e-01
-4.761834e-01
-4.768979e-01
-4.775612e-01
-4.782012e-01
-4.788534e-01
-4.795439e-01
-4.802798e-01
-4.810539e-01
-4.818530e-01
-4.826612e-01
-4.834569e-01
-4.842098e-01
-4.848905e-01
-4.854952e-01
-4.860633e-01
-4.866649e-01
-4.873638e-01
-4.881743e-01
-4.890468e-01
-4.898985e-01
-4.906675e-01
-4.913502e-01
-4.919986e-01
-4.926770e-01
-4.934175e-01
-4.942125e-01
-4.950340e-01
-4.958580e-01
-4.966742e-01
-4.974764e-01
-4.982531e-01
-4.989942e-01
-4.997020e-01
-5.003928e-01
-5.010899e-01
-5.018128e-01
-5.025675e-01
-5.033403e-01
-5.041009e-01
-5.048215e-01
-5.054988e-01
-5.061645e-01
-5.068699e-01
-5.076467e-01
-5.084784e-01
-5.093117e-01
-5.100932e-01
-5.108019e-01
-5.114573e-01
-5.120993e-01
-5.127640e-01
-5.134758e-01
-5.142474e-01
-5.150758e-01
-5.159367e-01
-5.167874e-01
-5.175797e-01
-5.182776e-01
-5.188725e-01
-5.193887e-01
-5.198767e-01
-5.203941e-01
-5.209789e-01
-5.216255e-01
-5.222892e-01
-5.229262e-01
-5.235339e-01
-5.241503e-01
-5.248179e-01
-5.255414e-01
-5.262772e-01
-5.269708e-01
-5.276012e-01
-5.281905e-01
-5.287800e-01
-5.293984e-01
-5.300460e-01
-5.307044e-01
-5.313571e-01
-5.319987e-01
-5.326325e-01
-5.332634e-01
-5.338948e-01
-5.345324e-01
-5.351851e-01
-5.358573e-01
-5.365447e-01
-5.372420e-01
-5.379581e-01
-5.387207e-01
-5.395621e-01
-5.404887e-01
-5.414713e-01
-5.424762e-01
-5.435031e-01
-5.445860e-01
-5.457524e-01
-5.469713e-01
-5.481453e-01
-5.491747e-01
-5.500361e-01
-5.508038e-01
-5.516041e-01
-5.525348e-01
-5.536081e-01
-5.547590e-01
-5.558960e-01
-5.569552e-01
-5.579305e-01
-5.588722e-01
-5.598563e-01
-5.609400e-01
-5.621287e-01
-5.633762e-01
-5.646040e-01
-5.657268e-01
-5.666769e-01
-5.674290e-01
-5.680170e-01
-5.685299e-01
-5.690660e-01
-5.696591e-01
-5.702466e-01
-5.707309e-01
-5.710722e-01
-5.713224e-01
-5.715820e-01
-5.719141e-01
-5.722997e-01
-5.726883e-01
-5.730749e-01
-5.735184e-01
-5.740988e-01
-5.748489e-01
-5.757145e-01
-5.765794e-01
-5.773384e-01
-5.779726e-01
-5.785650e-01
-5.792274e-01
-5.800047e-01
-5.808425e-01
-5.816321e-01
-5.823046e-01
-5.828902e-01
-5.834878e-01
-5.841971e-01
-5.850733e-01
-5.861099e-01
-5.872327e-01
-5.883205e-01
-5.892620e-01
-5.900124e-01
-5.906075e-01
-5.911285e-01
-5.916425e-01
-5.921620e-01
-5.926531e-01
-5.930614e-01
-5.933237e-01
-5.933845e-01
-5.932304e-01
-5.929080e-01
-5.924936e-01
-5.920558e-01
-5.916525e-01
-5.913473e-01
-5.912046e-01
-5.912475e-01
-5.914012e-01
-5.915033e-01
-5.914226e-01
-5.911741e-01
-5.909123e-01
-5.908311e-01
-5.910543e-01
-5.915934e-01
-5.923937e-01
-5.933941e-01
-5.945309e-01
-5.957223e-01
-5.968870e-01
-5.979854e-01
-5.990456e-01
-6.001506e-01
-6.013906e-01
-6.028261e-01
-6.044934e-01
-6.064156e-01
-6.085774e-01
-6.108865e-01
-6.131675e-01
-6.152223e-01
-6.169463e-01
-6.184103e-01
-6.198283e-01
-6.214365e-01
-6.233580e-01
-6.255364e-01
-6.277822e-01
-6.298754e-01
-6.316522e-01
-6.330518e-01
-6.341216e-01
-6.349876e-01
-6.357914e-01
-6.366079e-01
-6.373771e-01
-6.379164e-01
-6.380472e-01
-6.377363e-01
-6.371332e-01
-6.364743e-01
-6.359043e-01
-6.353587e-01
-6.346168e-01
-6.334628e-01
-6.318331e-01
-6.298633e-01
-6.278061e-01
-6.258944e-01
-6.242434e-01
-6.228363e-01
-6.215905e-01
-6.204369e-01
-6.193454e-01
-6.183038e-01
-6.172849e-01
-6.162373e-01
-6.151143e-01
-6.139108e-01
-6.126769e-01
-6.115076e-01
-6.105178e-01
-6.097941e-01
-6.093328e-01
-6.090250e-01
-6.087304e-01
-6.083780e-01
-6.080051e-01
-6.077044e-01
-6.075113e-01
-6.073410e-01
-6.070546e-01
-6.065772e-01
-6.059616e-01
-6.053681e-01
-6.049774e-01
-6.048894e-01
-6.050590e-01
-6.053004e-01
-6.053667e-01
-6.050641e-01
-6.043427e-01
-6.033195e-01
-6.022175e-01
-6.012683e-01
-6.006349e-01
-6.003711e-01
-6.004176e-01
-6.006302e-01
-6.008331e-01
-6.008754e-01
-6.006704e-01
-6.002215e-01
-5.996320e-01
-5.990785e-01
-5.987316e-01
-5.986535e-01
-5.987240e-01
-5.986503e-01
-5.980802e-01
-5.967601e-01
-5.946577e-01
-5.920050e-01
-5.892368e-01
-5.868298e-01
-5.850829e-01
-5.839580e-01
-5.830918e-01
-5.819756e-01
-5.802223e-01
-5.777469e-01
-5.747365e-01
-5.714713e-01
-5.681347e-01
-5.647283e-01
-5.611480e-01
-5.573363e-01
-5.533836e-01
-5.494859e-01
-5.457515e-01
-5.420312e-01
-5.379527e-01
-5.331456e-01
-5.275263e-01
-5.214085e-01
-5.153035e-01
-5.095953e-01
-5.043383e-01
-4.992689e-01
-4.940015e-01
-4.882664e-01
-4.820471e-01
-4.755733e-01
-4.691874e-01
-4.631654e-01
-4.575912e-01
-4.523415e-01
-4.471818e-01
-4.418619e-01
-4.361255e-01
-4.297167e-01
-4.224754e-01
-4.144747e-01
-4.060886e-01
-3.978908e-01
-3.903806e-01
-3.837235e-01
-3.776940e-01
-3.718069e-01
-3.655400e-01
-3.585392e-01
-3.507229e-01
-3.422714e-01
-3.335210e-01
-3.248251e-01
-3.164511e-01
-3.085550e-01
-3.012288e-01
-2.945413e-01
-2.885038e-01
-2.830050e-01
-2.777916e-01
-2.725347e-01
-2.669676e-01
-2.610014e-01
-2.547316e-01
-2.483571e-01
-2.420644e-01
-2.359300e-01
-2.298844e-01
-2.237571e-01
-2.173985e-01
-2.108104e-01
-2.041939e-01
-1.978602e-01
-1.920261e-01
-1.866660e-01
-1.815599e-01
-1.764459e-01
-1.711316e-01
-1.655140e-01
-1.595369e-01
-1.531611e-01
-1.463855e-01
-1.392256e-01
-1.315995e-01
-1.232618e-01
-1.139141e-01
-1.033777e-01
-9.167188e-02
-7.899484e-02
-6.568365e-02
-5.222761e-02
-3.931180e-02
-2.769119e-02
-1.779684e-02
-9.389026e-03
-1.600749e-03
6.665127e-03
1.622106e-02
2.727667e-02
3.950429e-02
5.231970e-02
6.514457e-02
7.757796e-02
8.947910e-02
1.009723e-01
1.123811e-01
1.241167e-01
1.365482e-01
1.498788e-01
1.640649e-01
1.788440e-01
1.939030e-01
2.090948e-01
2.245670e-01
2.407110e-01
2.579271e-01
2.763833e-01
2.959389e-01
3.162303e-01
3.368503e-01
3.575512e-01
3.783839e-01
3.996570e-01
4.216688e-01
4.444030e-01
4.674244e-01
4.900578e-01
5.117668e-01
5.324263e-01
5.522567e-01
5.715769e-01
5.906205e-01
6.094846e-01
6.281888e-01
6.467790e-01
6.654104e-01
6.843556e-01
7.039069e-01
7.242178e-01
7.451693e-01
7.663721e-01
7.873416e-01
8.077030e-01
8.272797e-01
8.460991e-01
8.643641e-01
8.823403e-01
9.001356e-01
9.175399e-01
9.341066e-01
9.494490e-01
9.635737e-01
9.769643e-01
9.902819e-01
1.004006e+00
1.018340e+00
1.033298e+00
1.048744e+00
1.064387e+00
1.079781e+00
1.094436e+00
1.108034e+00
1.120539e+00
1.132099e+00
1.142930e+00
1.153385e+00
1.164051e+00
1.175654e+00
1.188831e+00
1.203928e+00
1.220959e+00
1.239715e+00
1.259877e+00
1.280996e+00
1.302555e+00
1.324213e+00
1.346046e+00
1.368477e+00
1.392010e+00
1.416937e+00
1.443228e+00
1.470631e+00
1.498811e+00
1.527375e+00
1.555906e+00
1.584107e+00
1.611968e+00
1.639795e+00
1.668086e+00
1.697335e+00
1.727870e+00
1.759806e+00
1.793067e+00
1.827439e+00
1.862664e+00
1.898573e+00
1.935140e+00
1.972426e+00
2.010475e+00
2.049292e+00
2.088895e+00
2.129366e+00
2.170816e+00
2.213260e+00
2.256538e+00
2.300415e+00
2.344750e+00
2.389568e+00
2.435053e+00
2.481474e+00
2.529128e+00
2.578299e+00
2.629212e+00
2.681956e+00
2.736406e+00
2.792199e+00
2.848758e+00
2.905363e+00
2.961307e+00
3.016147e+00
3.069875e+00
3.122885e+00
3.175745e+00
3.228910e+00
3.282473e+00
3.336059e+00
3.388897e+00
3.440062e+00
3.488816e+00
3.534923e+00
3.578756e+00
3.621103e+00
3.662857e+00
3.704807e+00
3.747541e+00
3.791415e+00
3.836558e+00
3.882916e+00
3.930370e+00
3.978877e+00
4.028532e+00
4.079460e+00
4.131680e+00
4.185109e+00
4.239655e+00
4.295272e+00
4.351941e+00
4.409585e+00
4.468048e+00
4.527182e+00
4.586928e+00
4.647259e+00
4.708084e+00
4.769247e+00
4.830609e+00
4.892154e+00
4.954026e+00
5.016474e+00
5.079764e+00
5.144130e+00
5.209716e+00
5.276478e+00
5.344114e+00
5.412137e+00
5.480024e+00
5.547359e+00
5.613877e+00
5.679384e+00
5.743626e+00
5.806223e+00
5.866713e+00
5.924705e+00
5.980039e+00
6.032855e+00
6.083523e+00
6.132484e+00
6.180085e+00
6.226517e+00
6.271810e+00
6.315844e+00
6.358396e+00
6.399224e+00
6.438158e+00
6.475157e+00
6.510301e+00
6.543743e+00
6.575617e+00
6.605958e+00
6.634630e+00
6.661326e+00
6.685634e+00
6.707170e+00
6.725711e+00
6.741255e+00
6.754017e+00
6.764385e+00
6.772883e+00
6.780149e+00
6.786920e+00
6.794018e+00
6.802293e+00
6.812550e+00
6.825454e+00
6.841472e+00
6.860868e+00
6.883761e+00
6.910178e+00
6.940010e+00
6.972904e+00
7.008127e+00
7.044617e+00
7.081287e+00
7.117418e+00
7.152872e+00
7.188030e+00
7.223494e+00
7.259758e+00
7.297046e+00
7.335297e+00
7.374208e+00
7.413316e+00
7.452110e+00
7.490143e+00
7.527147e+00
7.563106e+00
7.598296e+00
7.633241e+00
7.668538e+00
7.704623e+00
7.741550e+00
7.778931e+00
7.816077e+00
7.852264e+00
7.886953e+00
7.919918e+00
7.951250e+00
7.981266e+00
8.010353e+00
8.038799e+00
8.066646e+00
8.093654e+00
8.119426e+00
8.143599e+00
8.165976e+00
8.186523e+00
8.205238e+00
8.222007e+00
8.236583e+00
8.248660e+00
8.257986e+00
8.264428e+00
8.267970e+00
8.268655e+00
8.266548e+00
8.261716e+00
8.254228e+00
8.244179e+00
8.231707e+00
8.216997e+00
8.200235e+00
8.181537e+00
8.160898e+00
8.138196e+00
8.113283e+00
8.086095e+00
8.056705e+00
8.025278e+00
7.991959e+00
7.956784e+00
7.919687e+00
7.880586e+00
7.839486e+00
7.796526e+00
7.751927e+00
7.705883e+00
7.658480e+00
7.609657e+00
7.559254e+00
7.507076e+00
7.452932e+00
7.396634e+00
7.337969e+00
7.276686e+00
7.212527e+00
7.145287e+00
7.074875e+00
7.001388e+00
6.925168e+00
6.846805e+00
6.767064e+00
6.686711e+00
6.606318e+00
6.526128e+00
6.446090e+00
6.366016e+00
6.285793e+00
6.205538e+00
6.125634e+00
6.046664e+00
5.969296e+00
5.894173e+00
5.821827e+00
5.752589e+00
5.686461e+00
5.622978e+00
5.561182e+00
5.499789e+00
5.437607e+00
5.373919e+00
5.308577e+00
5.241804e+00
5.173831e+00
5.104658e+00
5.034092e+00
4.961892e+00
4.887834e+00
4.811678e+00
4.733165e+00
4.652070e+00
4.568307e+00
4.481960e+00
4.393170e+00
4.301981e+00
4.208269e+00
4.111772e+00
4.012195e+00
3.909296e+00
3.802920e+00
3.692977e+00
3.579418e+00
3.462235e+00
3.341493e+00
3.217347e+00
3.090024e+00
2.959795e+00
2.826976e+00
2.691979e+00
2.555374e+00
2.417908e+00
2.280453e+00
2.143887e+00
2.008945e+00
1.876110e+00
1.745570e+00
1.617290e+00
1.491150e+00
1.367082e+00
1.245109e+00
1.125268e+00
1.007456e+00
8.913245e-01
7.762872e-01
6.616044e-01
5.464746e-01
4.300890e-01
3.116713e-01
1.905847e-01
6.654608e-02
-6.018291e-02
-1.887881e-01
-3.181094e-01
-4.469886e-01
-5.745566e-01
-7.003001e-01
-8.239619e-01
-9.454093e-01
-1.064584e+00
-1.181572e+00
-1.296691e+00
-1.410465e+00
-1.523491e+00
-1.636238e+00
-1.748900e+00
-1.861388e+00
-1.973435e+00
-2.084748e+00
-2.195111e+00
-2.304366e+00
-2.412336e+00
-2.518776e+00
-2.623391e+00
-2.725934e+00
-2.826243e+00
-2.924155e+00
-3.019383e+00
-3.111522e+00
-3.200171e+00
-3.285092e+00
-3.366291e+00
-3.443942e+00
-3.518267e+00
-3.589494e+00
-3.657829e+00
-3.723387e+00
-3.786123e+00
-3.845868e+00
-3.902444e+00
-3.955814e+00
-4.006151e+00
-4.053775e+00
-4.099033e+00
-4.142220e+00
-4.183560e+00
-4.223233e+00
-4.261440e+00
-4.298485e+00
-4.334804e+00
-4.370884e+00
-4.407148e+00
-4.443922e+00
-4.481464e+00
-4.520052e+00
-4.560025e+00
-4.601740e+00
-4.645512e+00
-4.691597e+00
-4.740209e+00
-4.791533e+00
-4.845740e+00
-4.902997e+00
-4.963482e+00
-5.027343e+00
-5.094626e+00
-5.165198e+00
-5.238708e+00
-5.314633e+00
-5.392382e+00
-5.471385e+00
-5.551163e+00
-5.631350e+00
-5.711675e+00
-5.791930e+00
-5.871908e+00
-5.951347e+00
-6.029897e+00
-6.107150e+00
-6.182696e+00
-6.256165e+00
-6.327225e+00
-6.395561e+00
-6.460845e+00
-6.522730e+00
-6.580869e+00
-6.634945e+00
-6.684730e+00
-6.730183e+00
-6.771485e+00
-6.808955e+00
-6.842907e+00
-6.873566e+00
-6.901064e+00
-6.925529e+00
-6.947141e+00
-6.966104e+00
-6.982597e+00
-6.996798e+00
-7.008915e+00
-7.019188e+00
-7.027849e+00
-7.035103e+00
-7.041160e+00
-7.046283e+00
-7.050791e+00
-7.054971e+00
-7.058987e+00
-7.062902e+00
-7.066763e+00
-7.070681e+00
-7.074838e+00
-7.079404e+00
-7.084448e+00
-7.089901e+00
-7.095590e+00
-7.101301e+00
-7.106812e+00
-7.111881e+00
-7.116222e+00
-7.119500e+00
-7.121399e+00
-7.121709e+00
-7.120375e+00
-7.117418e+00
-7.112807e+00
-7.106362e+00
-7.097733e+00
-7.086482e+00
-7.072200e+00
-7.054627e+00
-7.033722e+00
-7.009683e+00
-6.982885e+00
-6.953748e+00
-6.922599e+00
-6.889611e+00
-6.854830e+00
-6.818288e+00
-6.780111e+00
-6.740549e+00
-6.699936e+00
-6.658591e+00
-6.616738e+00
-6.574501e+00
-6.531942e+00
-6.489079e+00
-6.445878e+00
-6.402217e+00
-6.357882e+00
-6.312641e+00
-6.266330e+00
-6.218885e+00
-6.170317e+00
-6.120659e+00
-6.069905e+00
-6.017995e+00
-5.964834e+00
-5.910334e+00
-5.854477e+00
-5.797352e+00
-5.739141e+00
-5.680047e+00
-5.620211e+00
-5.559690e+00
-5.498486e+00
-5.436603e+00
-5.374094e+00
-5.311096e+00
-5.247834e+00
-5.184607e+00
-5.121728e+00
-5.059462e+00
-4.997991e+00
-4.937479e+00
-4.878163e+00
-4.820398e+00
-4.764644e+00
-4.711398e+00
-4.661137e+00
-4.614259e+00
-4.571002e+00
-4.531298e+00
-4.494691e+00
-4.460420e+00
-4.427631e+00
-4.395605e+00
-4.363887e+00
-4.332243e+00
-4.300584e+00
-4.268941e+00
-4.237476e+00
-4.206436e+00
-4.176061e+00
-4.146492e+00
-4.117721e+00
-4.089607e+00
-4.061881e+00
-4.034108e+00
-4.005663e+00
-3.975817e+00
-3.943872e+00
-3.909273e+00
-3.871665e+00
-3.830911e+00
-3.787088e+00
-3.740489e+00
-3.691582e+00
-3.640943e+00
-3.589178e+00
-3.536908e+00
-3.484752e+00
-3.433263e+00
-3.382850e+00
-3.333735e+00
-3.285975e+00
-3.239531e+00
-3.194334e+00
-3.150319e+00
-3.107431e+00
-3.065608e+00
-3.024751e+00
-2.984669e+00
-2.945040e+00
-2.905442e+00
-2.865425e+00
-2.824578e+00
-2.782578e+00
-2.739179e+00
-2.694192e+00
-2.647469e+00
-2.598899e+00
-2.548412e+00
-2.495975e+00
-2.441575e+00
-2.385225e+00
-2.326989e+00
-2.267024e+00
-2.205602e+00
-2.143085e+00
-2.079873e+00
-2.016355e+00
-1.952909e+00
-1.889913e+00
-1.827736e+00
-1.766718e+00
-1.707181e+00
-1.649459e+00
-1.593922e+00
-1.540972e+00
-1.491002e+00
-1.444348e+00
-1.401269e+00
-1.361932e+00
-1.326424e+00
-1.294781e+00
-1.267049e+00
-1.243299e+00
-1.223592e+00
-1.207926e+00
-1.196260e+00
-1.188569e+00
-1.184867e+00
-1.185151e+00
-1.189278e+00
-1.196889e+00
-1.207463e+00
-1.220421e+00
-1.235195e+00
-1.251256e+00
-1.268147e+00
-1.285525e+00
-1.303188e+00
-1.321065e+00
-1.339163e+00
-1.357521e+00
-1.376182e+00
-1.395152e+00
