EVENT_NAME: EMILIA_2ND_SHOCK
EVENT_ID: IT-2012-0011
EVENT_DATE_YYYYMMDD: 20120529
EVENT_TIME_HHMMSS: 070002
EVENT_LATITUDE_DEGREE: 44.8417
EVENT_LONGITUDE_DEGREE: 11.0657
EVENT_DEPTH_KM: 8.1
HYPOCENTER_REFERENCE: INGV-CNT_Seismic_Bulletin
MAGNITUDE_W: 6.0
MAGNITUDE_W_REFERENCE: RCMT-INGV
MAGNITUDE_L: 5.8
MAGNITUDE_L_REFERENCE: INGV-CNT_Seismic_Bulletin
FOCAL_MECHANISM: TF
NETWORK: BA
STATION_CODE: MIRH
STATION_NAME: MIRH
STATION_LATITUDE_DEGREE: 44.882400
STATION_LONGITUDE_DEGREE: 11.063100
STATION_ELEVATION_M: 15
LOCATION: 
SENSOR_DEPTH_M: 0.0
VS30_M/S: 
SITE_CLASSIFICATION_EC8: C*
MORPHOLOGIC_CLASSIFICATION: 
EPICENTRAL_DISTANCE_KM: 4.5
EARTHQUAKE_BACKAZIMUTH_DEGREE: 177.4
DATE_TIME_FIRST_SAMPLE_YYYYMMDD_HHMMSS: 20120529_065950.000
DATE_TIME_FIRST_SAMPLE_PRECISION: seconds
SAMPLING_INTERVAL_S: 0.005000
NDATA: 12998
DURATION_S: 64.990
STREAM: HLZ
UNITS: cm/s
INSTRUMENT: 
INSTRUMENT_ANALOG/DIGITAL: D
INSTRUMENTAL_FREQUENCY_HZ: 
INSTRUMENTAL_DAMPING: 
FULL_SCALE_G: 
N_BIT_DIGITAL_CONVERTER: 
PGV_CM/S: 19.078896
TIME_PGV_S: 16.950000
BASELINE_CORRECTION: BASELINE REMOVED
FILTER_TYPE: BUTTERWORTH
FILTER_ORDER: 2
LOW_CUT_FREQUENCY_HZ: 0.070
HIGH_CUT_FREQUENCY_HZ: 40.000
LATE/NORMAL_TRIGGERED: NT
DATABASE_VERSION: DYNA 1.0
HEADER_FORMAT: DYNA 1.2
DATA_TYPE: VELOCITY
PROCESSING: manual (Paolucci et al., 2011)
DATA_TIMESTAMP_YYYYMMDD_HHMMSS: 20141203_155932.433
DATA_LICENSE: U (unknown license)
DATA_CITATION: ESM working group (2015), European Strong-Motion database, version 0.1, Network Activity 3: Networking acceleration networks and SM data users. Project NERA (www.nera-eu.org)
DATA_CREATOR: ESM working group
ORIGINAL_DATA_MEDIATOR_CITATION: Basilicata Accelerometric Network, DOI 10.1007/s10518-009-9129-2
ORIGINAL_DATA_MEDIATOR: Ing. Maria Rosaria Gallipoli, CNR-IMAA, mariarosaria.gallipoli@imaa.cnr.it
ORIGINAL_DATA_CREATOR_CITATION: Basilicata Accelerometric Network, DOI 10.1007/s10518-009-9129-2
ORIGINAL_DATA_CREATOR: network: BA (University of Basilicata (UNIBAS) Network); owner: University of Basilicata
USER1: /home/dyna/processing-itaca/processing.py /var/www/processing/tmp/dyna_ingv//BA.MIRH..HLE.D.20120529.070003.X.ACC.ASC /var/www/processing/tmp/dyna_ingv//BA.MIRH..HLN.D.20120529.070003.X.ACC.ASC /var/www/processing/tmp/dyna_ingv//BA.MIRH..HLZ.D.20120529.070003.X.ACC.ASC --tmp /var/www/processing/tmp/dyna_ingv/ --le 0.0700 --he 40.000 --ln 0.0700 --hn 40.000 --lz 0.0700 --hz 40.000 --fo 2 --ca 0 --cz 1750 --ta 5 --tz 5 --mf 1 --rf 0.005 --tr NT
USER2: 
USER3: 
USER4: 
USER5: 
[...]
-0.171672
-0.172403
-0.173142
-0.173879
-0.174611
-0.175336
-0.176058
-0.176777
-0.177493
-0.178206
-0.178914
-0.179616
-0.180310
-0.180996
-0.181677
-0.182361
-0.183054
-0.183756
-0.184461
-0.185164
-0.185868
-0.186580
-0.187299
-0.188019
-0.188725
-0.189416
-0.190101
-0.190792
-0.191489
-0.192192
-0.192905
-0.193643
-0.194415
-0.195213
-0.196011
-0.196789
-0.197547
-0.198298
-0.199053
-0.199814
-0.200578
-0.201340
-0.202101
-0.202863
-0.203630
-0.204408
-0.205204
-0.206015
-0.206830
-0.207633
-0.208417
-0.209181
-0.209933
-0.210677
-0.211417
-0.212159
-0.212911
-0.213675
-0.214445
-0.215214
-0.215978
-0.216743
-0.217515
-0.218297
-0.219089
-0.219887
-0.220694
-0.221513
-0.222344
-0.223179
-0.224007
-0.224820
-0.225617
-0.226403
-0.227181
-0.227953
-0.228720
-0.229482
-0.230243
-0.231004
-0.231767
-0.232535
-0.233316
-0.234117
-0.234936
-0.235767
-0.236597
-0.237417
-0.238226
-0.239031
-0.239841
-0.240664
-0.241512
-0.242388
-0.243286
-0.244191
-0.245082
-0.245951
-0.246805
-0.247651
-0.248495
-0.249335
-0.250172
-0.251010
-0.251850
-0.252693
-0.253532
-0.254366
-0.255197
-0.256027
-0.256856
-0.257685
-0.258516
-0.259351
-0.260189
-0.261031
-0.261874
-0.262715
-0.263555
-0.264392
-0.265227
-0.266065
-0.266915
-0.267791
-0.268702
-0.269648
-0.270611
-0.271565
-0.272480
-0.273345
-0.274170
-0.274975
-0.275782
-0.276610
-0.277473
-0.278377
-0.279314
-0.280263
-0.281197
-0.282099
-0.282976
-0.283842
-0.284710
-0.285584
-0.286455
-0.287316
-0.288162
-0.288998
-0.289837
-0.290694
-0.291573
-0.292469
-0.293366
-0.294253
-0.295132
-0.296011
-0.296903
-0.297810
-0.298729
-0.299654
-0.300581
-0.301510
-0.302447
-0.303393
-0.304352
-0.305323
-0.306303
-0.307284
-0.308254
-0.309199
-0.310116
-0.311015
-0.311917
-0.312837
-0.313784
-0.314754
-0.315737
-0.316724
-0.317707
-0.318682
-0.319650
-0.320612
-0.321574
-0.322533
-0.323485
-0.324426
-0.325358
-0.326285
-0.327212
-0.328144
-0.329092
-0.330062
-0.331054
-0.332057
-0.333054
-0.334036
-0.335010
-0.335982
-0.336953
-0.337913
-0.338856
-0.339786
-0.340718
-0.341666
-0.342630
-0.343610
-0.344608
-0.345627
-0.346664
-0.347703
-0.348716
-0.349688
-0.350621
-0.351540
-0.352473
-0.353437
-0.354429
-0.355431
-0.356418
-0.357369
-0.358279
-0.359165
-0.360058
-0.360993
-0.361984
-0.363022
-0.364085
-0.365153
-0.366222
-0.367292
-0.368365
-0.369437
-0.370500
-0.371549
-0.372582
-0.373602
-0.374614
-0.375624
-0.376637
-0.377654
-0.378667
-0.379673
-0.380676
-0.381691
-0.382728
-0.383785
-0.384848
-0.385898
-0.386926
-0.387934
-0.388930
-0.389924
-0.390925
-0.391947
-0.393002
-0.394093
-0.395211
-0.396338
-0.397456
-0.398556
-0.399639
-0.400707
-0.401766
-0.402818
-0.403872
-0.404934
-0.406005
-0.407077
-0.408136
-0.409179
-0.410219
-0.411272
-0.412345
-0.413426
-0.414495
-0.415539
-0.416557
-0.417561
-0.418562
-0.419569
-0.420593
-0.421643
-0.422728
-0.423847
-0.424994
-0.426150
-0.427295
-0.428420
-0.429532
-0.430644
-0.431767
-0.432892
-0.434001
-0.435087
-0.436163
-0.437249
-0.438359
-0.439491
-0.440630
-0.441767
-0.442899
-0.444025
-0.445142
-0.446250
-0.447352
-0.448452
-0.449554
-0.450659
-0.451771
-0.452900
-0.454055
-0.455230
-0.456407
-0.457566
-0.458698
-0.459808
-0.460911
-0.462013
-0.463117
-0.464227
-0.465348
-0.466489
-0.467650
-0.468827
-0.470014
-0.471203
-0.472388
-0.473559
-0.474705
-0.475820
-0.476906
-0.477978
-0.479057
-0.480161
-0.481297
-0.482461
-0.483641
-0.484822
-0.485995
-0.487154
-0.488297
-0.489429
-0.490562
-0.491706
-0.492864
-0.494030
-0.495198
-0.496358
-0.497504
-0.498634
-0.499752
-0.500862
-0.501967
-0.503069
-0.504175
-0.505296
-0.506442
-0.507618
-0.508818
-0.510035
-0.511268
-0.512511
-0.513753
-0.514984
-0.516201
-0.517415
-0.518638
-0.519870
-0.521099
-0.522316
-0.523525
-0.524739
-0.525975
-0.527234
-0.528508
-0.529780
-0.531039
-0.532282
-0.533514
-0.534738
-0.535953
-0.537157
-0.538349
-0.539537
-0.540734
-0.541947
-0.543172
-0.544400
-0.545624
-0.546845
-0.548069
-0.549302
-0.550543
-0.551786
-0.553025
-0.554261
-0.555498
-0.556739
-0.557980
-0.559214
-0.560435
-0.561645
-0.562851
-0.564066
-0.565294
-0.566532
-0.567763
-0.568966
-0.570130
-0.571268
-0.572410
-0.573589
-0.574818
-0.576090
-0.577388
-0.578699
-0.580016
-0.581330
-0.582624
-0.583885
-0.585110
-0.586309
-0.587499
-0.588699
-0.589926
-0.591187
-0.592485
-0.593815
-0.595164
-0.596518
-0.597861
-0.599182
-0.600478
-0.601751
-0.603004
-0.604241
-0.605467
-0.606692
-0.607928
-0.609179
-0.610437
-0.611693
-0.612941
-0.614188
-0.615448
-0.616730
-0.618033
-0.619347
-0.620663
-0.621972
-0.623272
-0.624563
-0.625851
-0.627145
-0.628449
-0.629764
-0.631082
-0.632395
-0.633695
-0.634980
-0.636250
-0.637508
-0.638763
-0.640028
-0.641312
-0.642615
-0.643923
-0.645221
-0.646502
-0.647771
-0.649035
-0.650300
-0.651564
-0.652829
-0.654107
-0.655408
-0.656739
-0.658094
-0.659465
-0.660840
-0.662212
-0.663568
-0.664905
-0.666231
-0.667563
-0.668914
-0.670279
-0.671644
-0.673000
-0.674343
-0.675680
-0.677014
-0.678338
-0.679653
-0.680961
-0.682270
-0.683585
-0.684913
-0.686255
-0.687604
-0.688941
-0.690245
-0.691512
-0.692758
-0.694019
-0.695324
-0.696677
-0.698065
-0.699461
-0.700839
-0.702187
-0.703513
-0.704838
-0.706194
-0.707599
-0.709040
-0.710482
-0.711894
-0.713264
-0.714605
-0.715935
-0.717263
-0.718583
-0.719891
-0.721188
-0.722480
-0.723776
-0.725081
-0.726396
-0.727721
-0.729056
-0.730404
-0.731764
-0.733136
-0.734519
-0.735909
-0.737299
-0.738683
-0.740053
-0.741402
-0.742736
-0.744068
-0.745414
-0.746780
-0.748162
-0.749551
-0.750947
-0.752348
-0.753751
-0.755142
-0.756507
-0.757847
-0.759174
-0.760501
-0.761833
-0.763171
-0.764519
-0.765886
-0.767280
-0.768695
-0.770118
-0.771540
-0.772959
-0.774376
-0.775790
-0.777197
-0.778597
-0.779996
-0.781398
-0.782801
-0.784193
-0.785571
-0.786943
-0.788324
-0.789727
-0.791149
-0.792573
-0.793978
-0.795349
-0.796687
-0.798003
-0.799322
-0.800663
-0.802036
-0.803432
-0.804838
-0.806240
-0.807634
-0.809020
-0.810400
-0.811772
-0.813134
-0.814482
-0.815820
-0.817157
-0.818508
-0.819880
-0.821270
-0.822661
-0.824035
-0.825387
-0.826732
-0.828098
-0.829505
-0.830950
-0.832411
-0.833861
-0.835280
-0.836668
-0.838035
-0.839400
-0.840781
-0.842188
-0.843619
-0.845057
-0.846483
-0.847890
-0.849284
-0.850679
-0.852083
-0.853490
-0.854890
-0.856278
-0.857658
-0.859039
-0.860431
-0.861837
-0.863255
-0.864678
-0.866099
-0.867515
-0.868923
-0.870324
-0.871716
-0.873100
-0.874477
-0.875852
-0.877227
-0.878603
-0.879980
-0.881362
-0.882759
-0.884178
-0.885612
-0.887047
-0.888473
-0.889891
-0.891312
-0.892744
-0.894185
-0.895619
-0.897035
-0.898428
-0.899803
-0.901171
-0.902542
-0.903922
-0.905304
-0.906671
-0.908017
-0.909346
-0.910678
-0.912032
-0.913416
-0.914827
-0.916248
-0.917661
-0.919049
-0.920405
-0.921743
-0.923087
-0.924456
-0.925849
-0.927255
-0.928661
-0.930064
-0.931464
-0.932860
-0.934245
-0.935619
-0.936992
-0.938372
-0.939759
-0.941154
-0.942560
-0.943978
-0.945405
-0.946831
-0.948250
-0.949668
-0.951095
-0.952529
-0.953957
-0.955375
-0.956794
-0.958226
-0.959670
-0.961102
-0.962486
-0.963806
-0.965083
-0.966361
-0.967685
-0.969072
-0.970507
-0.971955
-0.973385
-0.974786
-0.976168
-0.977539
-0.978905
-0.980265
-0.981619
-0.982976
-0.984348
-0.985743
-0.987157
-0.988574
-0.989975
-0.991354
-0.992716
-0.994073
-0.995431
-0.996790
-0.998150
-0.999518
-1.000908
-1.002323
-1.003751
-1.005176
-1.006587
-1.007984
-1.009373
-1.010763
-1.012154
-1.013548
-1.014944
-1.016336
-1.017719
-1.019090
-1.020450
-1.021803
-1.023149
-1.024487
-1.025815
-1.027136
-1.028456
-1.029781
-1.031117
-1.032462
-1.033809
-1.035149
-1.036474
-1.037792
-1.039115
-1.040458
-1.041818
-1.043183
-1.044539
-1.045881
-1.047221
-1.048568
-1.049923
-1.051273
-1.052605
-1.053916
-1.055212
-1.056506
-1.057809
-1.059128
-1.060462
-1.061808
-1.063161
-1.064523
-1.065896
-1.067281
-1.068668
-1.070037
-1.071368
-1.072651
-1.073895
-1.075129
-1.076389
-1.077701
-1.079073
-1.080482
-1.081894
-1.083281
-1.084638
-1.085980
-1.087330
-1.088694
-1.090066
-1.091435
-1.092797
-1.094156
-1.095517
-1.096878
-1.098234
-1.099583
-1.100928
-1.102274
-1.103617
-1.104953
-1.106273
-1.107580
-1.108879
-1.110167
-1.111436
-1.112691
-1.113953
-1.115242
-1.116557
-1.117882
-1.119200
-1.120510
-1.121821
-1.123121
-1.124387
-1.125623
-1.126847
-1.128053
-1.129225
-1.130396
-1.131629
-1.132925
-1.134220
-1.135486
-1.136753
-1.138052
-1.139361
-1.140617
-1.141807
-1.143028
-1.144368
-1.145721
-1.146914
-1.148037
-1.149320
-1.150695
-1.151874
-1.152884
-1.154045
-1.155349
-1.156191
-1.155686
-1.153029
-1.147535
-1.138230
-1.123500
-1.101807
-1.072963
-1.037880
-0.997084
-0.950610
-0.899393
-0.845715
-0.792172
-0.740564
-0.691268
-0.643034
-0.593105
-0.537812
-0.473679
-0.398866
-0.314657
-0.226246
-0.142468
-0.073944
-0.029265
-0.010020
-0.008066
-0.011538
-0.016430
-0.029339
-0.059179
-0.108246
-0.169723
-0.235826
-0.309374
-0.399460
-0.503261
-0.599000
-0.657804
-0.664678
-0.634381
-0.601066
-0.588829
-0.599893
-0.626819
-0.666836
-0.726268
-0.811758
-0.916763
-1.023015
-1.115163
-1.186831
-1.235611
-1.261833
-1.272279
-1.276142
-1.273535
-1.252562
-1.199288
-1.111623
-1.006691
-0.908885
-0.827206
-0.753367
-0.681654
-0.621221
-0.591040
-0.605887
-0.663487
-0.745816
-0.832156
-0.907203
-0.960280
-0.982831
-0.968907
-0.920324
-0.852415
-0.790061
-0.754504
-0.753037
-0.777097
-0.809430
-0.835764
-0.850119
-0.852512
-0.845662
-0.833215
-0.818572
-0.803627
-0.788208
-0.771862
-0.759082
-0.763235
-0.797986
-0.859959
-0.924305
-0.959053
-0.947170
-0.901335
-0.850130
-0.806415
-0.761970
-0.710576
-0.660977
-0.628501
-0.620708
-0.629652
-0.640198
-0.646397
-0.652028
-0.658013
-0.663145
-0.676001
-0.708133
-0.750759
-0.772459
-0.743702
-0.659840
-0.546047
-0.437945
-0.352766
-0.288357
-0.247999
-0.250806
-0.318302
-0.457129
-0.650273
-0.863340
-1.061133
-1.218979
-1.324370
-1.373192
-1.366033
-1.311659
-1.234757
-1.174530
-1.171716
-1.252771
-1.417969
-1.640748
-1.876572
-2.072440
-2.177097
-2.157936
-2.019414
-1.802344
-1.561839
-1.342455
-1.164392
-1.033195
-0.962349
-0.973416
-1.071362
-1.226872
-1.382169
-1.482737
-1.515638
-1.509192
-1.496063
-1.488299
-1.478900
-1.455192
-1.411035
-1.346903
-1.262321
-1.156253
-1.031604
-0.884659
-0.689499
-0.417425
-0.082110
0.254167
0.523428
0.696521
0.797811
0.871511
0.928430
0.949851
0.939188
0.928623
0.931345
0.915646
0.828882
0.647807
0.416564
0.215781
0.085510
0.005420
-0.059186
-0.126566
-0.206326
-0.313156
-0.464555
-0.657310
-0.845202
-0.965812
-1.000593
-0.985261
-0.963572
-0.952857
-0.945660
-0.931197
-0.915817
-0.918027
-0.946635
-0.998930
-1.077037
-1.184508
-1.303292
-1.391869
-1.411691
-1.352724
-1.241348
-1.123540
-1.034390
-0.984647
-0.968133
-0.971729
-0.981745
-0.990116
-1.000045
-1.023755
-1.072108
-1.144930
-1.227160
-1.294416
-1.325432
-1.311155
-1.255302
-1.164931
-1.037998
-0.864955
-0.642920
-0.383104
-0.108072
0.150584
0.352149
0.452357
0.417648
0.242086
-0.044600
-0.395329
-0.777511
-1.172817
-1.546585
-1.837191
-1.978975
-1.936312
-1.729248
-1.428640
-1.124029
-0.890622
-0.765477
-0.736307
-0.746684
-0.724504
-0.624385
-0.449345
-0.241110
-0.048760
0.107702
0.246839
0.402775
0.590790
0.786560
0.953218
1.096541
1.269657
1.519304
1.837703
2.154549
2.379607
2.466131
2.421916
2.269970
2.029098
1.725795
1.394984
1.062391
0.739353
0.435419
0.165608
-0.055301
-0.221365
-0.336364
-0.399059
-0.387892
-0.281589
-0.100492
0.099348
0.275044
0.412249
0.498412
0.512586
0.447437
0.331714
0.229166
0.200452
0.254112
0.353412
0.467949
0.584515
0.675469
0.702991
0.664647
0.605895
0.577742
0.580467
0.542685
0.393989
0.182206
0.066699
0.181784
0.532903
0.996510
1.417130
1.735811
2.010825
2.323870
2.689326
3.023835
3.194244
3.114380
2.805893
2.391564
2.025954
1.801315
1.714887
1.707987
1.719737
1.720785
1.705011
1.657285
1.554892
1.409847
1.307985
1.414089
1.916734
2.930187
4.426911
6.234354
8.104148
9.819480
11.251000
12.348144
13.113094
13.574136
13.751572
13.620168
13.101050
12.101488
10.598731
8.719695
6.705763
4.773889
3.020104
1.426740
-0.035490
-1.278304
-2.089358
-2.263188
-1.750062
-0.735278
0.438132
1.461678
2.186814
2.630526
2.908182
3.147246
3.447677
3.876626
4.431640
4.993114
5.375196
5.461848
5.275206
4.936767
4.588764
4.332368
4.235376
4.381754
4.865345
5.734857
6.992443
8.641263
10.668361
12.957320
15.249341
17.201456
18.517509
19.078896
18.939699
18.213055
17.031506
15.601033
14.208607
13.135110
12.530963
12.335614
12.354884
12.446164
12.588003
12.804817
13.094853
13.416377
13.702188
13.870282
13.814819
13.411716
12.610168
11.562601
10.604832
10.072327
10.122929
10.657869
11.386603
11.988499
12.228552
11.996629
11.318128
10.351085
9.343628
8.541580
8.079562
7.917866
7.931190
8.101909
8.583134
9.561339
11.017002
12.542149
13.484708
13.371459
12.207557
10.483123
8.885942
7.871397
7.451856
7.287469
6.942938
6.181418
5.103867
4.083326
3.540910
3.667115
4.316868
5.130999
5.780488
6.196847
6.563653
7.091259
7.840281
8.690560
9.423204
9.842432
9.820525
9.270651
8.149651
6.502762
4.473080
2.256032
0.044175
-2.003368
-3.740162
-4.983074
-5.514591
-5.156986
-3.875438
-1.851685
0.566072
3.017922
5.247001
7.116446
8.540305
9.393043
9.525981
8.878253
7.531638
5.668353
3.493373
1.177402
-1.122704
-3.192990
-4.754792
-5.544340
-5.419158
-4.442183
-2.882621
-1.128662
0.441696
1.586833
2.248712
2.508385
2.494672
2.296618
1.957525
1.537861
1.147766
0.925908
1.006162
1.493121
2.444553
3.847707
5.580783
7.392928
8.980955
10.133296
10.788351
10.981377
10.774744
10.224410
9.402756
8.447334
7.555312
6.917176
6.650341
6.757451
7.117409
7.522660
7.778395
7.811584
7.650223
7.290625
6.640253
5.589820
4.134617
2.448893
0.794177
-0.666919
-1.887054
-2.784263
-3.193650
-2.978639
-2.146061
-0.868097
0.627052
2.211615
3.854981
5.485560
6.963891
8.191009
9.158249
9.887954
10.367241
10.545616
10.425057
10.165112
10.015145
10.106373
10.368046
10.622771
10.716630
10.593628
10.265356
9.724909
8.942337
7.938252
6.801706
5.631343
4.492020
3.421603
2.461527
1.673046
1.096649
0.691821
0.373608
0.128754
0.049492
0.248035
0.744072
1.406112
2.028411
2.490187
2.801869
3.019734
3.173697
3.258755
3.256221
3.151587
2.928405
2.562653
2.071068
1.574498
1.241314
1.135378
1.168505
1.196609
1.136986
1.022461
0.935291
0.879553
0.768348
0.528191
0.159730
-0.283213
-0.723450
-1.073170
-1.253668
-1.229005
-1.027196
-0.728278
-0.409232
-0.080215
0.302044
0.757623
1.258028
1.767384
2.272000
2.774058
3.275353
3.762203
4.187999
4.461372
4.471221
4.152181
3.550656
2.842532
2.237751
1.823957
1.538090
1.282771
1.034302
0.870071
0.905229
1.184658
1.640322
2.136510
2.553401
2.864740
3.145650
3.495855
3.919624
4.243506
4.216751
3.744837
2.983591
2.220763
1.664278
1.277826
0.857426
0.287968
-0.347282
-0.881449
-1.246406
-1.584806
-2.147792
-3.046655
-4.150711
-5.195902
-5.959408
-6.379476
-6.504465
-6.340033
-5.842268
-5.063196
-4.213291
-3.561750
-3.256528
-3.185133
-3.057735
-2.663701
-2.009818
-1.262736
-0.602792
-0.084506
0.386236
0.960144
1.735298
2.687398
3.685407
4.576271
5.257287
5.696596
5.889512
5.791541
5.330455
4.496139
3.399031
2.248522
1.256678
0.524822
0.034013
-0.270411
-0.434588
-0.521125
-0.631078
-0.880618
-1.328385
-1.905448
-2.458051
-2.874872
-3.128184
-3.209566
-3.085783
-2.717178
-2.099637
-1.292208
-0.396984
0.487532
1.271119
1.844260
2.100042
1.999030
1.579419
0.905678
0.041773
-0.930242
-1.893714
-2.713300
-3.289586
-3.613238
-3.732894
-3.661075
-3.358499
-2.814064
-2.110327
-1.415311
-0.889094
-0.566870
-0.364100
-0.196791
-0.058012
-0.000543
-0.072740
-0.261877
-0.508953
-0.771890
-1.035434
-1.266594
-1.409168
-1.429064
-1.335689
-1.152904
-0.869164
-0.411498
0.294115
1.208369
2.151608
2.893157
3.275824
3.305805
3.126873
2.900570
2.718365
2.587036
2.464370
2.309498
2.098982
1.818496
1.484075
1.181333
1.040545
1.143871
1.453689
1.811635
2.028253
2.016543
1.837320
1.632843
1.523650
1.527187
1.563629
1.539442
1.424881
1.281999
1.219924
1.304939
1.511763
1.737753
1.853857
1.771050
1.491899
1.125025
0.832472
0.728000
0.810389
0.968498
1.060218
1.022289
0.905717
0.824269
0.884356
1.130480
1.524562
1.962697
2.326747
2.550641
2.647455
2.686227
2.744849
2.862958
3.027148
3.188988
3.291865
3.298344
3.214342
3.096557
3.015496
2.992433
2.984629
2.927879
2.780871
2.541072
2.223141
1.826156
1.348707
0.838135
0.387236
0.071802
-0.093307
-0.146591
-0.132192
-0.052683
0.107442
0.313551
0.488199
0.592453
0.654782
0.716697
0.766166
0.719302
0.498570
0.146012
-0.204605
-0.478192
-0.712925
-0.972626
-1.242484
-1.394262
-1.275746
-0.863096
-0.290558
0.257155
0.644963
0.822409
0.804621
0.626316
0.310698
-0.131572
-0.673144
-1.233336
-1.690137
-1.945650
-1.991044
-1.924191
-1.871513
-1.857623
-1.777215
-1.494456
-0.967147
-0.317682
0.227265
0.495757
0.472130
0.281324
0.072677
-0.122098
-0.399846
-0.860540
-1.490927
-2.137492
-2.605689
-2.822829
-2.885824
-2.967477
-3.192690
-3.552197
-3.908165
-4.087934
-4.005992
-3.755931
-3.578981
-3.714352
-4.249365
-5.051472
-5.858680
-6.471574
-6.840248
-7.009861
-7.038240
-6.948699
-6.743037
-6.445974
-6.107292
-5.760252
-5.402133
-5.016462
-4.611750
-4.253114
-4.055954
-4.136776
-4.543534
-5.199378
-5.922435
-6.516101
-6.850769
-6.899136
-6.712380
-6.361829
-5.911797
-5.434066
-5.025508
-4.803189
-4.859911
-5.197634
-5.701855
-6.181931
-6.467269
-6.511766
-6.400568
-6.256551
-6.148384
-6.054080
-5.904762
-5.674964
-5.420054
-5.239523
-5.211276
-5.335047
-5.530635
-5.689508
-5.733970
-5.654281
-5.497302
-5.322055
-5.178131
-5.111277
-5.156122
-5.310705
-5.527509
-5.736522
-5.891474
-6.010290
-6.154684
-6.362200
-6.615861
-6.868821
-7.079212
-7.229190
-7.316623
-7.330343
-7.241298
-7.017314
