EVENT_NAME: EMILIA_2ND_SHOCK
EVENT_ID: IT-2012-0011
EVENT_DATE_YYYYMMDD: 20120529
EVENT_TIME_HHMMSS: 070002
EVENT_LATITUDE_DEGREE: 44.8417
EVENT_LONGITUDE_DEGREE: 11.0657
EVENT_DEPTH_KM: 8.1
HYPOCENTER_REFERENCE: INGV-CNT_Seismic_Bulletin
MAGNITUDE_W: 6.0
MAGNITUDE_W_REFERENCE: RCMT-INGV
MAGNITUDE_L: 5.8
MAGNITUDE_L_REFERENCE: INGV-CNT_Seismic_Bulletin
FOCAL_MECHANISM: TF
NETWORK: BA
STATION_CODE: MIRE
STATION_NAME: MIRE
STATION_LATITUDE_DEGREE: 44.878212
STATION_LONGITUDE_DEGREE: 11.061747
STATION_ELEVATION_M: 
LOCATION: 
SENSOR_DEPTH_M: 0.0
VS30_M/S: 
SITE_CLASSIFICATION_EC8: C*
MORPHOLOGIC_CLASSIFICATION: 
EPICENTRAL_DISTANCE_KM: 4.1
EARTHQUAKE_BACKAZIMUTH_DEGREE: 175.6
DATE_TIME_FIRST_SAMPLE_YYYYMMDD_HHMMSS: 20120529_065950.000
DATE_TIME_FIRST_SAMPLE_PRECISION: seconds
SAMPLING_INTERVAL_S: 0.005000
NDATA: 12394
DURATION_S: 61.970
STREAM: HLE
UNITS: cm/s
INSTRUMENT: 
INSTRUMENT_ANALOG/DIGITAL: D
INSTRUMENTAL_FREQUENCY_HZ: 
INSTRUMENTAL_DAMPING: 
FULL_SCALE_G: 
N_BIT_DIGITAL_CONVERTER: 
PGV_CM/S: -27.493259
TIME_PGV_S: 18.675000
BASELINE_CORRECTION: BASELINE REMOVED
FILTER_TYPE: BUTTERWORTH
FILTER_ORDER: 2
LOW_CUT_FREQUENCY_HZ: 0.070
HIGH_CUT_FREQUENCY_HZ: 40.000
LATE/NORMAL_TRIGGERED: NT
DATABASE_VERSION: DYNA 1.0
HEADER_FORMAT: DYNA 1.2
DATA_TYPE: VELOCITY
PROCESSING: manual (Paolucci et al., 2011)
DATA_TIMESTAMP_YYYYMMDD_HHMMSS: 20141204_110616.699
DATA_LICENSE: U (unknown license)
DATA_CITATION: ESM working group (2015), European Strong-Motion database, version 0.1, Network Activity 3: Networking acceleration networks and SM data users. Project NERA (www.nera-eu.org)
DATA_CREATOR: ESM working group
ORIGINAL_DATA_MEDIATOR_CITATION: Basilicata Accelerometric Network, DOI 10.1007/s10518-009-9129-2
ORIGINAL_DATA_MEDIATOR: Ing. Maria Rosaria Gallipoli, CNR-IMAA, mariarosaria.gallipoli@imaa.cnr.it
ORIGINAL_DATA_CREATOR_CITATION: Basilicata Accelerometric Network, DOI 10.1007/s10518-009-9129-2
ORIGINAL_DATA_CREATOR: network: BA (University of Basilicata (UNIBAS) Network); owner: University of Basilicata
USER1: /home/dyna/processing-itaca/processing.py /var/www/processing/tmp/dyna_ingv//BA.MIRE..HLE.D.20120529.070003.X.ACC.ASC /var/www/processing/tmp/dyna_ingv//BA.MIRE..HLN.D.20120529.070003.X.ACC.ASC /var/www/processing/tmp/dyna_ingv//BA.MIRE..HLZ.D.20120529.070003.X.ACC.ASC --tmp /var/www/processing/tmp/dyna_ingv/ --le 0.070 --he 40.000 --ln 0.070 --hn 40.000 --lz 0.070 --hz 40.000 --fo 2 --ca 0 --cz 1750.02 --ta 5 --tz 5 --mf 1 --rf 0.005 --tr NT
USER2: 
USER3: 
USER4: 
USER5: 
[...]
-0.090126
-0.090257
-0.090391
-0.090536
-0.090694
-0.090857
-0.091017
-0.091169
-0.091311
-0.091438
-0.091550
-0.091649
-0.091748
-0.091862
-0.092001
-0.092165
-0.092345
-0.092532
-0.092715
-0.092891
-0.093060
-0.093227
-0.093393
-0.093554
-0.093702
-0.093833
-0.093952
-0.094070
-0.094201
-0.094354
-0.094528
-0.094714
-0.094900
-0.095077
-0.095245
-0.095406
-0.095562
-0.095709
-0.095836
-0.095935
-0.096011
-0.096083
-0.096167
-0.096271
-0.096398
-0.096547
-0.096722
-0.096928
-0.097150
-0.097362
-0.097549
-0.097716
-0.097876
-0.098039
-0.098196
-0.098331
-0.098441
-0.098541
-0.098644
-0.098757
-0.098880
-0.099014
-0.099157
-0.099308
-0.099460
-0.099606
-0.099746
-0.099885
-0.100026
-0.100172
-0.100318
-0.100459
-0.100590
-0.100712
-0.100830
-0.100953
-0.101095
-0.101266
-0.101462
-0.101668
-0.101866
-0.102046
-0.102205
-0.102349
-0.102477
-0.102590
-0.102696
-0.102810
-0.102940
-0.103082
-0.103225
-0.103367
-0.103516
-0.103683
-0.103865
-0.104044
-0.104204
-0.104343
-0.104471
-0.104601
-0.104740
-0.104892
-0.105054
-0.105216
-0.105366
-0.105491
-0.105593
-0.105687
-0.105790
-0.105912
-0.106053
-0.106207
-0.106369
-0.106535
-0.106706
-0.106882
-0.107060
-0.107235
-0.107403
-0.107559
-0.107705
-0.107844
-0.107981
-0.108116
-0.108253
-0.108394
-0.108546
-0.108713
-0.108896
-0.109089
-0.109285
-0.109477
-0.109655
-0.109812
-0.109949
-0.110073
-0.110194
-0.110323
-0.110464
-0.110611
-0.110763
-0.110917
-0.111076
-0.111242
-0.111411
-0.111578
-0.111742
-0.111907
-0.112076
-0.112249
-0.112423
-0.112594
-0.112759
-0.112920
-0.113074
-0.113217
-0.113351
-0.113479
-0.113605
-0.113730
-0.113857
-0.113989
-0.114129
-0.114274
-0.114415
-0.114545
-0.114661
-0.114765
-0.114864
-0.114961
-0.115059
-0.115162
-0.115278
-0.115414
-0.115573
-0.115753
-0.115945
-0.116135
-0.116312
-0.116473
-0.116618
-0.116749
-0.116860
-0.116946
-0.117013
-0.117078
-0.117160
-0.117268
-0.117401
-0.117552
-0.117711
-0.117871
-0.118030
-0.118183
-0.118333
-0.118481
-0.118628
-0.118770
-0.118905
-0.119032
-0.119153
-0.119274
-0.119400
-0.119536
-0.119684
-0.119845
-0.120022
-0.120214
-0.120417
-0.120622
-0.120817
-0.120997
-0.121162
-0.121315
-0.121454
-0.121581
-0.121699
-0.121818
-0.121943
-0.122074
-0.122204
-0.122326
-0.122440
-0.122547
-0.122646
-0.122736
-0.122821
-0.122908
-0.122999
-0.123093
-0.123186
-0.123283
-0.123385
-0.123491
-0.123597
-0.123695
-0.123789
-0.123889
-0.124005
-0.124141
-0.124295
-0.124460
-0.124625
-0.124784
-0.124932
-0.125070
-0.125202
-0.125336
-0.125476
-0.125625
-0.125781
-0.125939
-0.126096
-0.126249
-0.126394
-0.126528
-0.126645
-0.126743
-0.126830
-0.126918
-0.127016
-0.127119
-0.127218
-0.127310
-0.127398
-0.127490
-0.127591
-0.127697
-0.127804
-0.127912
-0.128019
-0.128126
-0.128236
-0.128348
-0.128463
-0.128581
-0.128703
-0.128833
-0.128970
-0.129107
-0.129238
-0.129359
-0.129478
-0.129607
-0.129749
-0.129894
-0.130034
-0.130173
-0.130318
-0.130466
-0.130610
-0.130740
-0.130855
-0.130959
-0.131055
-0.131139
-0.131214
-0.131290
-0.131374
-0.131469
-0.131569
-0.131670
-0.131772
-0.131881
-0.131998
-0.132122
-0.132250
-0.132378
-0.132498
-0.132602
-0.132688
-0.132758
-0.132824
-0.132900
-0.132993
-0.133100
-0.133219
-0.133346
-0.133477
-0.133608
-0.133731
-0.133843
-0.133949
-0.134056
-0.134166
-0.134268
-0.134352
-0.134422
-0.134490
-0.134572
-0.134674
-0.134787
-0.134905
-0.135023
-0.135142
-0.135268
-0.135403
-0.135547
-0.135695
-0.135835
-0.135963
-0.136078
-0.136187
-0.136295
-0.136402
-0.136503
-0.136596
-0.136684
-0.136771
-0.136860
-0.136952
-0.137048
-0.137152
-0.137263
-0.137377
-0.137488
-0.137592
-0.137690
-0.137785
-0.137877
-0.137967
-0.138055
-0.138141
-0.138223
-0.138301
-0.138377
-0.138456
-0.138546
-0.138646
-0.138748
-0.138845
-0.138936
-0.139025
-0.139113
-0.139197
-0.139274
-0.139347
-0.139424
-0.139508
-0.139597
-0.139683
-0.139761
-0.139827
-0.139881
-0.139928
-0.139975
-0.140036
-0.140119
-0.140224
-0.140340
-0.140457
-0.140569
-0.140680
-0.140790
-0.140896
-0.140988
-0.141066
-0.141140
-0.141222
-0.141316
-0.141415
-0.141514
-0.141610
-0.141705
-0.141797
-0.141879
-0.141950
-0.142018
-0.142094
-0.142183
-0.142282
-0.142383
-0.142481
-0.142573
-0.142656
-0.142727
-0.142787
-0.142843
-0.142898
-0.142954
-0.143012
-0.143073
-0.143136
-0.143198
-0.143257
-0.143313
-0.143375
-0.143448
-0.143528
-0.143602
-0.143662
-0.143713
-0.143763
-0.143814
-0.143859
-0.143892
-0.143917
-0.143944
-0.143980
-0.144024
-0.144074
-0.144132
-0.144199
-0.144278
-0.144362
-0.144440
-0.144507
-0.144565
-0.144619
-0.144671
-0.144724
-0.144775
-0.144827
-0.144883
-0.144945
-0.145014
-0.145084
-0.145149
-0.145203
-0.145248
-0.145289
-0.145336
-0.145392
-0.145459
-0.145531
-0.145603
-0.145671
-0.145734
-0.145792
-0.145845
-0.145893
-0.145930
-0.145956
-0.145973
-0.145984
-0.145992
-0.146003
-0.146021
-0.146048
-0.146083
-0.146119
-0.146155
-0.146195
-0.146250
-0.146319
-0.146398
-0.146484
-0.146578
-0.146678
-0.146774
-0.146858
-0.146926
-0.146980
-0.147024
-0.147060
-0.147092
-0.147128
-0.147173
-0.147222
-0.147266
-0.147308
-0.147358
-0.147402
-0.147417
-0.147410
-0.147411
-0.147430
-0.147450
-0.147488
-0.147606
-0.147879
-0.148347
-0.148994
-0.149765
-0.150590
-0.151376
-0.151992
-0.152332
-0.152417
-0.152364
-0.152245
-0.152096
-0.152035
-0.152215
-0.152649
-0.153291
-0.154335
-0.156188
-0.158992
-0.162068
-0.163722
-0.162062
-0.156511
-0.148540
-0.141199
-0.137781
-0.140127
-0.147491
-0.156475
-0.162424
-0.161859
-0.154338
-0.142905
-0.132661
-0.127999
-0.130441
-0.138089
-0.147189
-0.154814
-0.159816
-0.161654
-0.159138
-0.150564
-0.136139
-0.120957
-0.113615
-0.120321
-0.139766
-0.162118
-0.174492
-0.170332
-0.153803
-0.136548
-0.129684
-0.135668
-0.148113
-0.158991
-0.164290
-0.164806
-0.163239
-0.160435
-0.155355
-0.148222
-0.141548
-0.138168
-0.139416
-0.144576
-0.150952
-0.154546
-0.152125
-0.144118
-0.135463
-0.133146
-0.141080
-0.155358
-0.166340
-0.166658
-0.156299
-0.141744
-0.131075
-0.128395
-0.132942
-0.142356
-0.154332
-0.165684
-0.172171
-0.170144
-0.158462
-0.139575
-0.118982
-0.103247
-0.097596
-0.103485
-0.116947
-0.129325
-0.132730
-0.127398
-0.121548
-0.123287
-0.133515
-0.144695
-0.147167
-0.138712
-0.126086
-0.117856
-0.117896
-0.123696
-0.129508
-0.131679
-0.130543
-0.128327
-0.126761
-0.126173
-0.126286
-0.127525
-0.130527
-0.134452
-0.137470
-0.139460
-0.143211
-0.152539
-0.168275
-0.185319
-0.196516
-0.200973
-0.205396
-0.216578
-0.233267
-0.243788
-0.234796
-0.205875
-0.172295
-0.153536
-0.160053
-0.186144
-0.214668
-0.230168
-0.227413
-0.211829
-0.195061
-0.188344
-0.196827
-0.216723
-0.237757
-0.249492
-0.245558
-0.224555
-0.190027
-0.150409
-0.117616
-0.102567
-0.107219
-0.118632
-0.117487
-0.096869
-0.068264
-0.050035
-0.051923
-0.066410
-0.077119
-0.077731
-0.077311
-0.088703
-0.116082
-0.150019
-0.173121
-0.172983
-0.151799
-0.126837
-0.118491
-0.132463
-0.155476
-0.167552
-0.157919
-0.134507
-0.117104
-0.119537
-0.141849
-0.175245
-0.207322
-0.224562
-0.217560
-0.188287
-0.150088
-0.119017
-0.104214
-0.102797
-0.103892
-0.098225
-0.081647
-0.052460
-0.012161
0.030806
0.064494
0.082877
0.087557
0.080651
0.061049
0.028545
-0.008586
-0.030732
-0.020422
0.016125
0.049710
0.052358
0.016243
-0.044642
-0.107812
-0.160068
-0.200081
-0.227352
-0.238280
-0.232950
-0.219687
-0.212040
-0.220997
-0.247996
-0.287095
-0.333460
-0.384433
-0.432368
-0.461814
-0.456202
-0.410974
-0.344793
-0.292788
-0.283602
-0.321647
-0.384298
-0.435684
-0.449164
-0.418633
-0.355359
-0.279916
-0.213977
-0.173192
-0.160748
-0.163313
-0.153832
-0.107855
-0.026162
0.062174
0.120619
0.131781
0.113996
0.109132
0.148381
0.230795
0.325937
0.393958
0.411442
0.382338
0.330194
0.281433
0.249150
0.230717
0.218307
0.208320
0.203771
0.209523
0.224615
0.240687
0.246786
0.233867
0.197954
0.144731
0.092258
0.061574
0.058920
0.070472
0.074587
0.060138
0.038620
0.034053
0.057281
0.095484
0.123112
0.118704
0.078138
0.017597
-0.033919
-0.048268
-0.013266
0.060521
0.144285
0.204630
0.220401
0.189851
0.126683
0.052743
-0.009299
-0.042504
-0.040589
-0.008455
0.040996
0.089783
0.117900
0.110692
0.069373
0.015635
-0.014110
0.014745
0.114018
0.264017
0.420485
0.530549
0.553626
0.481400
0.349388
0.224975
0.173251
0.223223
0.350675
0.495072
0.602081
0.653036
0.667331
0.681278
0.716050
0.762351
0.790541
0.779527
0.746893
0.744047
0.815713
0.961421
1.123858
1.223559
1.220985
1.141650
1.051395
1.013879
1.053479
1.147019
1.243871
1.294748
1.277194
1.204392
1.114838
1.049947
1.031929
1.063994
1.147275
1.281751
1.448274
1.600137
1.677222
1.639553
1.502039
1.331415
1.205899
1.177433
1.253373
1.400156
1.563269
1.690308
1.750075
1.739181
1.674788
1.579226
1.465245
1.337500
1.207487
1.099759
1.042686
1.051392
1.113403
1.193253
1.253957
1.274889
1.258554
1.226876
1.209114
1.225469
1.271709
1.317618
1.323308
1.266744
1.166827
1.072018
1.021220
1.022786
1.062875
1.123505
1.195429
1.275148
1.355124
1.431977
1.525233
1.667541
1.869530
2.107281
2.341167
2.535407
2.662238
2.691209
2.583161
2.324123
1.978870
1.681562
1.557655
1.653175
1.911186
2.211122
2.445525
2.563081
2.564974
2.486677
2.380228
2.298639
2.281767
2.347123
2.486299
2.666112
2.837226
2.955821
3.011803
3.038347
3.094442
3.228795
3.443225
3.691245
3.911122
4.058269
4.124014
4.140182
4.166535
4.254614
4.402361
4.546832
4.604289
4.526688
4.341798
4.131897
3.966068
3.864052
3.808725
3.772811
3.740836
3.718042
3.726291
3.789035
3.910263
4.062171
4.190309
4.240544
4.193916
4.072270
3.915347
3.763884
3.652990
3.595240
3.559072
3.480856
3.313335
3.068479
2.824949
2.678117
2.663513
2.744743
2.866955
2.991458
3.089216
3.128611
3.078787
2.931130
2.719487
2.501001
2.312062
2.166145
2.090958
2.133194
2.320689
2.635385
3.019495
3.406090
3.751298
4.032268
4.223943
4.311628
4.331725
4.366467
4.486332
4.706523
4.985416
5.258253
5.480603
5.635862
5.712956
5.706212
5.640069
5.572203
5.565482
5.658254
5.849679
6.107030
6.387291
6.652153
6.874270
7.045168
7.181652
7.313421
7.457253
7.609824
7.763448
7.920615
8.094084
8.290029
8.488762
8.655569
8.775566
8.866844
8.963700
9.096961
9.284259
9.530774
9.834135
10.182686
10.548777
10.889896
11.158587
11.311867
11.320922
11.188891
10.967969
10.745725
10.601903
10.572039
10.633011
10.712493
10.717171
10.567673
10.233055
9.750829
9.221430
8.766580
8.469295
8.350786
8.389961
8.546796
8.774878
9.028559
9.271736
9.490686
9.701362
9.931161
10.185563
10.443859
10.685877
10.909222
11.123476
11.333717
11.528828
11.692571
11.826871
11.949208
12.066116
12.165059
12.232607
12.272389
12.308866
12.374436
12.489659
12.657991
12.873117
13.117327
13.352326
13.527226
13.604537
13.577380
13.467026
13.303722
13.101373
12.848384
12.519430
12.098023
11.598291
11.066849
10.563172
10.133700
9.792043
9.520175
9.286482
9.058536
8.806853
8.510458
8.165526
7.786834
7.399710
7.028899
6.688294
6.374923
6.068086
5.734448
5.339288
4.861565
4.307163
3.708170
3.108862
2.552347
2.073659
1.699679
1.453084
1.354301
1.419470
1.655043
2.051334
2.580816
3.203596
3.879201
4.578751
5.283226
5.966554
6.578731
7.044677
7.297917
7.334020
7.226239
7.090783
7.031661
7.092751
7.252697
7.457663
7.650197
7.782174
7.821672
7.758653
7.606790
7.400799
7.191634
7.038038
6.988960
7.059551
7.216963
7.385453
7.476025
7.429282
7.237380
6.937788
6.593056
6.266467
6.003040
5.817436
5.689314
5.569364
5.401566
5.154432
4.834607
4.475272
4.109420
3.743023
3.353913
2.915142
2.415389
1.865127
1.288560
0.708268
0.136945
-0.421316
-0.966419
-1.497540
-2.009910
-2.494347
-2.941923
-3.352458
-3.739539
-4.127811
-4.540470
-4.982652
-5.437460
-5.877982
-6.285499
-6.663769
-7.034936
-7.419469
-7.820298
-8.219936
-8.591896
-8.919946
-9.208675
-9.480673
-9.764564
-10.080576
-10.435581
-10.828767
-11.259665
-11.733127
-12.256591
-12.831642
-13.448118
-14.082411
-14.697303
-15.244088
-15.672472
-15.948324
-16.070580
-16.078630
-16.037901
-16.007629
-16.014772
-16.044582
-16.051012
-15.980847
-15.794028
-15.473529
-15.024640
-14.469289
-13.847507
-13.225683
-12.696428
-12.359379
-12.278561
-12.436316
-12.737676
-13.068282
-13.354640
-13.594616
-13.834562
-14.113365
-14.439870
-14.811645
-15.231176
-15.702697
-16.218975
-16.752535
-17.269447
-17.758017
-18.237707
-18.742426
-19.299337
-19.915543
-20.579779
-21.275167
-21.988586
-22.711815
-23.436544
-24.148455
-24.829203
-25.464516
-26.045931
-26.563801
-26.999264
-27.321091
-27.493259
-27.490906
-27.313238
-26.988319
-26.567139
-26.107857
-25.655996
-25.228144
-24.813614
-24.394461
-23.968309
-23.562416
-23.226217
-23.007471
-22.936552
-23.025969
-23.277117
-23.683529
-24.217327
-24.807726
-25.345798
-25.721029
-25.864267
-25.775839
-25.513597
-25.148705
-24.732363
-24.289471
-23.834921
-23.397701
-23.023727
-22.754784
-22.605146
-22.549400
-22.532518
-22.497591
-22.409298
-22.262688
-22.072594
-21.850924
-21.594139
-21.287958
-20.923019
-20.508512
-20.061911
-19.582279
-19.045576
-18.427895
-17.729710
-16.984219
-16.239925
-15.530151
-14.864963
-14.245306
-13.667073
-13.111551
-12.547314
-11.948979
-11.315209
-10.673996
-10.067432
-9.524814
-9.051509
-8.637317
-8.268054
-7.934684
-7.641375
-7.409047
-7.263839
-7.215813
-7.252967
-7.354721
-7.508400
-7.717612
-7.994547
-8.343071
-8.754444
-9.216952
-9.722329
-10.264921
-10.841258
-11.451537
-12.097008
-12.772040
-13.456638
-14.114455
-14.701944
-15.185126
-15.549679
-15.800582
-15.955736
-16.037346
-16.065031
-16.050892
-15.995682
-15.887831
-15.709968
-15.450553
-15.109294
-14.693706
-14.212055
-13.667233
-13.056652
-12.377003
-11.627931
-10.815095
-9.956997
-9.090659
-8.260464
-7.493873
-6.790480
-6.131675
-5.499667
-4.893059
-4.322454
-3.792498
-3.298684
-2.840081
-2.423500
-2.054625
-1.732062
-1.450903
-1.211443
-1.024567
-0.901622
-0.835886
-0.803244
-0.782976
-0.772184
-0.783643
-0.831329
-0.913261
-1.008736
-1.090591
-1.137983
-1.142171
-1.102071
-1.013951
-0.868087
-0.655641
-0.379712
-0.062131
0.266842
0.591452
0.922113
1.289061
1.725765
2.250307
2.856288
3.514608
4.181016
4.807871
5.359619
5.827385
6.229675
6.597702
6.956189
7.308285
7.635548
7.912389
8.122499
8.269032
8.370657
8.447284
8.511834
8.572576
8.640176
8.732355
8.867024
9.048088
9.262195
9.489103
9.713463
9.931649
10.150821
10.381948
10.632344
10.899948
11.171312
11.425033
11.642182
11.818879
11.967240
12.104172
12.240647
12.376649
12.501810
12.599658
12.652280
12.645544
12.575707
12.453272
12.294205
12.102360
11.863232
11.552921
11.150919
10.649100
10.052262
9.375541
8.651474
7.940835
7.321330
6.854101
6.557843
6.405147
6.343770
6.328739
6.331839
6.328550
6.293001
6.208057
6.074965
5.913858
5.754196
5.622811
5.545043
5.554678
5.689051
5.969172
6.388918
6.919845
7.521594
8.150852
8.764487
9.319961
9.781295
10.127888
10.353018
10.453942
10.431156
10.297764
10.082708
9.823021
9.551877
9.288818
9.039443
8.802888
8.577682
8.364634
8.171299
8.016462
7.925822
7.919527
8.003542
8.169306
8.400069
8.679830
8.997378
9.344625
9.713977
10.097333
10.487483
10.879878
11.269997
11.647280
11.992985
12.284469
12.503312
12.642384
12.703646
12.689257
12.599091
12.435403
12.203662
11.907409
11.544354
11.107332
10.590029
9.994117
9.330654
8.615856
7.867392
7.101654
6.328485
5.546576
4.749944
3.941424
3.133127
2.333127
1.538208
0.740485
-0.056727
-0.825459
-1.522327
-2.114692
-2.591550
-2.954811
-3.212175
-3.378176
-3.475627
-3.532669
-3.575303
-3.619618
-3.671643
-3.732155
-3.794146
-3.834859
-3.819656
-3.720084
-3.531653
-3.281390
-3.016614
-2.779758
-2.590053
-2.440499
-2.310270
-2.184345
-2.061523
-1.948811
-1.854819
-1.787862
-1.758249
-1.779617
-1.860656
-1.991258
-2.141009
-2.271895
-2.351342
-2.359421
-2.289673
-2.145790
-1.937931
-1.678647
-1.376732
-1.031607
-0.636048
-0.185559
0.317578
0.867344
1.456153
2.072743
2.697564
3.300150
3.845902
4.309634
4.682098
4.966414
5.170927
5.302837
5.365888
5.361195
5.287354
5.139721
4.911964
4.599858
4.203922
3.730488
3.193351
2.615673
2.028341
1.463536
0.945376
0.481185
0.060343
-0.339115
-0.742347
-1.170603
-1.636231
-2.140486
-2.675716
-3.230906
-3.796304
-4.366320
-4.942000
-5.532160
-6.149147
-6.799276
-7.473947
-8.146413
-8.779820
-9.342841
-9.818868
-10.206549
-10.518815
-10.781425
-11.025484
-11.273403
-11.525748
-11.755273
-11.915939
-11.964251
-11.877653
-11.662816
-11.350433
-10.979747
-10.584109
-10.183087
-9.784196
-9.390356
-9.002242
-8.615859
-8.225426
-7.832041
-7.447878
-7.092380
-6.783812
-6.531101
-6.333397
-6.185785
-6.081664
-6.011867
-5.968866
-5.954941
-5.982056
-6.061391
-6.191662
-6.352628
-6.509615
-6.626679
-6.677480
-6.650115
-6.546546
-6.378174
-6.160440
-5.908873
-5.639818
-5.373608
-5.132246
-4.931729
-4.777741
-4.667634
-4.596288
-4.562299
-4.568808
-4.618990
-4.710970
-4.833471
-4.961727
-5.055353
-5.064223
-4.943290
-4.670361
-4.259485
-3.757106
-3.221268
-2.698804
-2.210673
-1.755284
-1.324616
-0.912772
-0.513965
-0.121696
0.267332
0.650125
1.019340
1.371637
1.716433
2.071076
2.445621
2.838241
3.243917
3.661365
4.092280
4.535877
4.983946
5.423733
5.846632
6.251582
6.641698
7.021085
7.393721
7.761565
8.121896
8.467662
8.791493
9.090240
9.367786
9.633800
9.898691
10.168026
10.438919
10.701807
10.947416
11.174121
11.391340
11.613676
11.849162
12.094910
12.342487
12.585261
12.823139
13.061962
13.309025
13.569533
13.844582
14.128649
14.408188
14.666846
14.895388
15.095469
15.275245
15.443258
15.604565
15.761282
15.915268
16.066904
16.211010
16.337786
16.438889
16.510912
16.554567
16.573656
16.575327
16.570204
16.570988
16.588875
16.629911
16.696257
16.790573
16.914633
17.061592
17.210670
17.328831
17.380926
17.344166
17.215363
17.008068
16.743851
16.442823
16.121048
15.794131
15.478468
15.187007
14.921660
14.667666
14.399130
14.093189
13.737689
