EVENT_NAME: EMILIA_2ND_SHOCK
EVENT_ID: IT-2012-0011
EVENT_DATE_YYYYMMDD: 20120529
EVENT_TIME_HHMMSS: 070002
EVENT_LATITUDE_DEGREE: 44.8417
EVENT_LONGITUDE_DEGREE: 11.0657
EVENT_DEPTH_KM: 8.1
HYPOCENTER_REFERENCE: INGV-CNT_Seismic_Bulletin
MAGNITUDE_W: 6.0
MAGNITUDE_W_REFERENCE: RCMT-INGV
MAGNITUDE_L: 5.8
MAGNITUDE_L_REFERENCE: INGV-CNT_Seismic_Bulletin
FOCAL_MECHANISM: TF
NETWORK: IT
STATION_CODE: MRN
STATION_NAME: MIRANDOLA (NAPOLI)
STATION_LATITUDE_DEGREE: 44.878231
STATION_LONGITUDE_DEGREE: 11.061743
STATION_ELEVATION_M: 15
LOCATION: 
SENSOR_DEPTH_M: 0.0
VS30_M/S: 208
SITE_CLASSIFICATION_EC8: C
MORPHOLOGIC_CLASSIFICATION: 
EPICENTRAL_DISTANCE_KM: 4.1
EARTHQUAKE_BACKAZIMUTH_DEGREE: 175.6
DATE_TIME_FIRST_SAMPLE_YYYYMMDD_HHMMSS: 20120529_065948.000
DATE_TIME_FIRST_SAMPLE_PRECISION: seconds
SAMPLING_INTERVAL_S: 0.005000
NDATA: 13713
DURATION_S: 68.565
STREAM: HNE
UNITS: cm/s
INSTRUMENT: sensor = MS2007+ [Syscom] | digitizer = 130-01/3 [Reftek]
INSTRUMENT_ANALOG/DIGITAL: D
INSTRUMENTAL_FREQUENCY_HZ: 
INSTRUMENTAL_DAMPING: 
FULL_SCALE_G: 
N_BIT_DIGITAL_CONVERTER: 24
PGV_CM/S: -28.514466
TIME_PGV_S: 20.805000
BASELINE_CORRECTION: BASELINE REMOVED
FILTER_TYPE: BUTTERWORTH
FILTER_ORDER: 2
LOW_CUT_FREQUENCY_HZ: 0.070
HIGH_CUT_FREQUENCY_HZ: 40.000
LATE/NORMAL_TRIGGERED: NT
DATABASE_VERSION: DYNA 1.0
HEADER_FORMAT: DYNA 1.2
DATA_TYPE: VELOCITY
PROCESSING: manual (Paolucci et al., 2011)
DATA_TIMESTAMP_YYYYMMDD_HHMMSS: 20141204_104205.354
DATA_LICENSE: CC-BY3_0-IT (http://creativecommons.org/licenses/by/3.0/deed.en)
DATA_CITATION: ESM working group (2015), European Strong-Motion database, version 0.1, Network Activity 3: Networking acceleration networks and SM data users. Project NERA (www.nera-eu.org)
DATA_CREATOR: ESM working group
ORIGINAL_DATA_MEDIATOR_CITATION: Ufficio Rischio Sismico e Vulcanico del Dipartimento della Protezione Civile (http://www.protezionecivile.gov.it/)
ORIGINAL_DATA_MEDIATOR: Rete Accelerometrica Nazionale - RAN Download (http://www.mot1.it/randownload/)
ORIGINAL_DATA_CREATOR_CITATION: Italian Strong Motion Network, Italian Civil Protection Department http://www.protezionecivile.gov.it
ORIGINAL_DATA_CREATOR: network: IT (Italian Strong Motion Network); owner: Dipartimento Della Protezione Civile
USER1: /home/dyna/processing-itaca/processing.py /var/www/processing/tmp/fpacor//IT.MRN..HNE.D.20120529.070003.X.ACC.ASC /var/www/processing/tmp/fpacor//IT.MRN..HNN.D.20120529.070003.X.ACC.ASC /var/www/processing/tmp/fpacor//IT.MRN..HNZ.D.20120529.070003.X.ACC.ASC --tmp /var/www/processing/tmp/fpacor/ --le 0.070 --he 40.000 --ln 0.070 --hn 40.000 --lz 0.070 --hz 40.000 --fo 2 --ca -15 --cz 100 --ta 5 --tz 5 --mf 1 --rf 0 --tr NT
USER2: 
USER3: 
USER4: 
USER5: 
[...]
-0.000001709651
0.000002171564
0.000004903556
0.000002204830
0.000000263809
0.000003057132
0.000005438628
0.000001745035
-0.000001003998
0.000001800503
0.000003996031
0.000001617725
-0.000001213570
0.000001701844
0.000004703578
0.000001466086
-0.000001464846
0.000001762771
0.000003822835
-0.000000163697
-0.000003076855
0.000000331714
0.000003430748
0.000002680219
0.000005185188
0.000016535182
0.000032016290
0.000044288679
0.000052419811
0.000059773718
0.000071972417
0.000082621865
0.000080469836
0.000074270097
0.000076878993
0.000092839106
0.000102624877
0.000100828178
0.000108631868
0.000130614322
0.000172349352
0.000219973573
0.000258321967
0.000291292738
0.000307853375
0.000267328557
0.000120935505
-0.000047296839
-0.000084127228
0.000013367345
0.000116505985
0.000193978455
0.000319617775
0.000378482362
0.000220503347
-0.000057109082
-0.000240158976
-0.000189812147
-0.000003018633
0.000115539053
0.000120523031
0.000113773908
0.000183885168
0.000288210770
0.000279599364
0.000092618577
-0.000141495216
-0.000289756002
-0.000368023288
-0.000264146524
0.000140385058
0.000493541154
0.000471269437
0.000253103547
0.000055558644
-0.000060266007
-0.000114368021
-0.000118420107
0.000110680067
0.000547533139
0.000695249685
0.000348510447
-0.000065790165
-0.000159825667
-0.000006664771
0.000078666147
0.000019716440
0.000051924885
0.000253482909
0.000426025588
0.000413764836
0.000302827230
0.000208008306
0.000111806309
0.000043610679
0.000082493258
0.000297722377
0.000552273124
0.000548591878
0.000347787873
0.000148943527
-0.000129395557
-0.000566313018
-0.000898509701
-0.000752703151
-0.000292614685
0.000034516162
0.000124654280
0.000121763988
0.000211124988
0.000250306657
0.000050089979
-0.000147054163
-0.000119368528
0.000187331076
0.000593344070
0.000803709047
0.000788218648
0.000618047849
0.000448990627
0.000396933849
0.000501209701
0.000839836798
0.001143907741
0.001054978253
0.000658679418
0.000212191115
-0.000048003691
-0.000125683152
-0.000252417639
-0.000208303450
0.000334914542
0.000999935988
0.001298345979
0.001227846948
0.000971222904
0.000792707359
0.000724769069
0.000576927447
0.000479785527
0.000480619058
0.000418427593
0.000397446743
0.000429311708
0.000320643353
0.000057425522
-0.000295658347
-0.000559809375
-0.000591104705
-0.000518888191
-0.000425278326
-0.000359175033
-0.000407776725
-0.000596890007
-0.000926868147
-0.001178303045
-0.000993206576
-0.000406911028
0.000144540325
0.000264859334
-0.000124039408
-0.000690521973
-0.001070248852
-0.001228284705
-0.001232483987
-0.000863183139
0.000051357278
0.000993765060
0.001299252800
0.000813142708
-0.000144132378
-0.000958229269
-0.001151188938
-0.000704416128
-0.000024519333
0.000517600779
0.000677464354
0.000482956195
0.000398962248
0.000562363170
0.000762583180
0.000948332148
0.001149633613
0.001165742397
0.000886753348
0.000852142447
0.001352195769
0.001660808130
0.001192697797
0.000535200615
0.000292921974
0.000325959764
0.000396746750
0.000523625117
0.000921142039
0.001284367699
0.000984694240
-0.000080000575
-0.000983256540
-0.000601829845
0.000533737305
0.001196629130
0.001031260324
0.000652355876
0.000560598961
0.000055048382
-0.001136254886
-0.002093366185
-0.001908715789
-0.000529001197
0.001098861235
0.001981790186
0.002006622066
0.001792858227
0.001732876711
0.001618324695
0.001309394182
0.001072247200
0.001247895775
0.002011275908
0.003146994756
0.004249527699
0.004809238965
0.004554231023
0.003900451234
0.003044927833
0.002101722855
0.001368754855
0.000981331583
0.000965456214
0.000843816684
0.000318694862
-0.000246323329
-0.000644819425
-0.000842095085
-0.000761285063
-0.000483503972
-0.000186789789
-0.000262558471
-0.000818801337
-0.001502512546
-0.002078837623
-0.002262241752
-0.001964828822
-0.001412566807
-0.001081681052
-0.001301130467
-0.001666551974
-0.002009169407
-0.002358725575
-0.002349028414
-0.002221100571
-0.002280927308
-0.002257254677
-0.002418672028
-0.002762337393
-0.002771992259
-0.002390739689
-0.001583647813
-0.000467633998
0.000618579062
0.001350230493
0.001596670660
0.001568040100
0.001585495165
0.002027319127
0.002867703497
0.003623474737
0.003858111847
0.003400675196
0.002880231096
0.003198886052
0.004022652814
0.004619059530
0.005035795163
0.005457882360
0.005903818990
0.005891859580
0.005355522586
0.005233868209
0.005823094858
0.006764354125
0.007300989085
0.006630418017
0.005001614006
0.003280709407
0.002341497120
0.002387845432
0.002882862424
0.003193449163
0.002973944035
0.002702315893
0.002813403268
0.003052431243
0.003178637806
0.003324740456
0.003569825080
0.003323072141
0.002552697076
0.002019563633
0.001904162835
0.002198781965
0.002703016609
0.003417451472
0.004595799742
0.005569307077
0.005600135972
0.004441990722
0.002942377605
0.002135689156
0.001741229653
0.001469812056
0.001254718216
0.001649298159
0.002514452670
0.002477169985
0.001801183748
0.001047234694
0.000239498289
0.000148432928
0.000757485912
0.002149862427
0.004607372337
0.006432468188
0.006631046221
0.005979555890
0.005103254588
0.004246857106
0.003730110218
0.003869547542
0.004728709348
0.006731978256
0.008548264475
0.008666285779
0.007926008165
0.006675735916
0.005819132638
0.006840875878
0.009027062005
0.010551262920
0.010389130972
0.009447223438
0.009613647439
0.010830475686
0.011541328075
0.011348643537
0.010998778072
0.010283381077
0.008535435647
0.007302026550
0.007597025303
0.008683420579
0.010972214854
0.013467523688
0.014363606087
0.014105509592
0.013445650018
0.013186676282
0.013866566350
0.015254019368
0.016720557221
0.017488870544
0.018156160780
0.018784990023
0.018983619867
0.018518404442
0.016748154705
0.015653335112
0.015796054691
0.016287710813
0.018681140296
0.022821191365
0.026231459479
0.026478101384
0.024146045131
0.020786708159
0.017061817724
0.014669445436
0.013186008672
0.012004739736
0.011943558417
0.012545168063
0.013552845987
0.014979925488
0.016175003390
0.017631424649
0.019275601598
0.018962653030
0.016600260427
0.013497983020
0.011001257968
0.009954612509
0.010681481218
0.014063507337
0.018353663447
0.022148641480
0.023326480776
0.021802289279
0.021442629308
0.020322179653
0.018644796968
0.018624513497
0.018514228179
0.017755201403
0.016306456942
0.015058974433
0.014260232357
0.014798237312
0.017045686363
0.018916109049
0.020586868897
0.023116106371
0.025831401972
0.026715220610
0.025742207937
0.024063534184
0.022393109913
0.022275014044
0.022805680861
0.024454433733
0.027573369231
0.030791022267
0.034400651895
0.035339147116
0.033298074690
0.030261144940
0.026466194750
0.023098934238
0.020073730474
0.018221532694
0.017651907033
0.019047517974
0.022154296835
0.025365484604
0.027297503062
0.026082516749
0.027479651711
0.032730167468
0.038094990384
0.044205809413
0.046874124179
0.047132450600
0.047577796138
0.046197864644
0.044502189861
0.043334430389
0.044152895224
0.046109832964
0.048160171776
0.050535481535
0.050908188407
0.049452477428
0.047494431133
0.046427874416
0.046676124706
0.047366644630
0.047808283082
0.047597478660
0.046733831105
0.045499586578
0.044837670937
0.045712799347
0.048147829585
0.049412121235
0.047447409632
0.042990733447
0.038309403934
0.035333804870
0.033793769507
0.033653006285
0.035318292105
0.038039256361
0.040608467624
0.042813940203
0.044412440208
0.044879622063
0.044816739080
0.045461971715
0.048018737269
0.051712908992
0.053109447207
0.050855150284
0.045949779387
0.039292642310
0.033287495523
0.028677489596
0.024343385903
0.020774296566
0.018916433809
0.018676654534
0.019090572627
0.020266148630
0.021687721830
0.023205950366
0.025789306816
0.027170911935
0.027408450217
0.028158617687
0.029305702398
0.031084538872
0.032896237440
0.036505886464
0.041700626855
0.049892551394
0.058435846136
0.060069806656
0.059472282424
0.057552087125
0.053607831891
0.050940275203
0.049767069549
0.050873520046
0.053378948242
0.056863989747
0.060101460908
0.063502071199
0.064106560309
0.061169818779
0.059665134188
0.058790430601
0.059151303281
0.059921239037
0.062012367857
0.067037971825
0.071211914409
0.074888908457
0.078798462832
0.083948824678
0.089840138982
0.093073899273
0.094153482950
0.093734592164
0.092261142932
0.091047751790
0.091129169389
0.093010795422
0.095938155978
0.098623560774
0.099503208832
0.100311808047
0.102036176921
0.102541678022
0.103107796051
0.104300236907
0.105122220917
0.107288325035
0.110628319758
0.112987120825
0.114520586360
0.114194181893
0.111607064128
0.110037542990
0.110433241033
0.111804142562
0.113366506609
0.114977776838
0.115719142211
0.113773137657
0.109357579136
0.102392663197
0.094461453168
0.088698728037
0.086395034437
0.087372122504
0.089616417940
0.092220443980
0.095750716658
0.100591503909
0.105705991230
0.108436387076
0.109075028201
0.109803095779
0.111934414437
0.115602113195
0.118872149516
0.120728940790
0.122108476810
0.123589968118
0.124868203550
0.125527727299
0.125640750997
0.125488069826
0.126136284531
0.127936656451
0.129036181454
0.129329040967
0.130505653610
0.132229034239
0.134184535885
0.137650820044
0.141328015575
0.143858360042
0.146103988325
0.146520846116
0.144672278588
0.141619941141
0.136851069782
0.131293400902
0.126166486795
0.121109594811
0.116298736471
0.112129105626
0.107045184655
0.100336561133
0.093375057529
0.087174536128
0.082092460962
0.078399623967
0.076385251604
0.075249327210
0.074407095717
0.074057598255
0.073755696639
0.072672405064
0.070366248117
0.067338007840
0.063893627923
0.059979231948
0.056196722434
0.052999884046
0.049271270036
0.044348354399
0.039070379401
0.033884266854
0.029253558486
0.025174371440
0.021382026958
0.018303746421
0.016515426397
0.016614815140
0.019095760369
0.024174176486
0.030896395302
0.038416681285
0.046486592377
0.054522656517
0.062615392857
0.070793504478
0.079569618834
0.088219755202
0.094636429380
0.098255542416
0.097179935403
0.092046175808
0.086337546692
0.080520304596
0.075348082845
0.071046642034
0.066999976680
0.063412163605
0.060086920592
0.057688964991
0.055896711497
0.055414587276
0.056475707175
0.056959098948
0.058165421005
0.060118606181
0.062843230616
0.067032359784
0.070804484367
0.075111273211
0.079037582184
0.081247911247
0.080948041607
0.077845439645
0.075567808065
0.073535941167
0.072274420286
0.071974084410
0.068976784934
0.065067875475
0.060623693360
0.055296248425
0.050246246459
0.044181598198
0.037921729272
0.032412560032
0.026568498345
0.019587544615
0.012452131829
0.005370400034
-0.002168547277
-0.008896843544
-0.015133155443
-0.021087357586
-0.025873307720
-0.030272637333
-0.034719997377
-0.038978355622
-0.043092974133
-0.046443302122
-0.048839750144
-0.050736056479
-0.052471153389
-0.055449874025
-0.059490045253
-0.062914162755
-0.066030705964
-0.068894877445
-0.072032584313
-0.076433449456
-0.081188544682
-0.085731344260
-0.089900171304
-0.093636987256
-0.097331538263
-0.101001371984
-0.104697641321
-0.108778885993
-0.113054343550
-0.117200046110
-0.121762096465
-0.126891733111
-0.132880426631
-0.140047670740
-0.147520989329
-0.154359100911
-0.159838352129
-0.163930836729
-0.166434943147
-0.167040966436
-0.166322224101
-0.164391666179
-0.161580769271
-0.158851391864
-0.157247817199
-0.156341109108
-0.154758718590
-0.151792714858
-0.146666403543
-0.139493010476
-0.130055508085
-0.119084304736
-0.108248955864
-0.100114907018
-0.098324032988
-0.101758142086
-0.108718376076
-0.118540722753
-0.129127430063
-0.139812112593
-0.150085283047
-0.160148838756
-0.170320676320
-0.179765966135
-0.188262530723
-0.196016842336
-0.203040782177
-0.209018016997
-0.213683292158
-0.217483045293
-0.220431859152
-0.222813231472
-0.225471906716
-0.227814424739
-0.229567717306
-0.231286624036
-0.233243680297
-0.235856389559
-0.239326275911
-0.243501367252
-0.248351402662
-0.253752035244
-0.258751519912
-0.262112216313
-0.263961303614
-0.265397723282
-0.265863900426
-0.264940691618
-0.263085839084
-0.259655596858
-0.254758115596
-0.248542264802
-0.241170801094
-0.233501665243
-0.226299571481
-0.220488493752
-0.216386351951
-0.214579212346
-0.214718205918
-0.216167997445
-0.219573048272
-0.224724339988
-0.232005762797
-0.241355043809
-0.251476927539
-0.261976537255
-0.271359328056
-0.278077877015
-0.282453659352
-0.284528119594
-0.284905050389
-0.283939775421
-0.280509380487
-0.274652051436
-0.266142538909
-0.256809115591
-0.248979459817
-0.241482997539
-0.234846106565
-0.229307848554
-0.224596016654
-0.221439296199
-0.219205840495
-0.217527699026
-0.215870133813
-0.213630397047
-0.210722410123
-0.207369735493
-0.203986199324
-0.200063080879
-0.195914331640
-0.192757395784
-0.189445246579
-0.185209309751
-0.180879577705
-0.175982587982
-0.169661052182
-0.161838962985
-0.153207642727
-0.144714252252
-0.137441110526
-0.131248713707
-0.125612591764
-0.120216712567
-0.114161908876
-0.108277342271
-0.103022005223
-0.097955297842
-0.093240327512
-0.088987107895
-0.085816541641
-0.083529537927
-0.082025603841
-0.081730847864
-0.082506713806
-0.084639113695
-0.088129625903
-0.092497870231
-0.097233357435
-0.101784363037
-0.105926355134
-0.109833412490
-0.114221704614
-0.119345269911
-0.124820982965
-0.130808693041
-0.137655298798
-0.145063870577
-0.152298625469
-0.159227680116
-0.165291812490
-0.170098497229
-0.173897640151
-0.176198755896
-0.177928306015
-0.178884333507
-0.178112168108
-0.176591287701
-0.174047048160
-0.170583561008
-0.166576229284
-0.162052884937
-0.157226612280
-0.151635189770
-0.145651920444
-0.139481692364
-0.133406902804
-0.128304758013
-0.124108384641
-0.119996158976
-0.115728394713
-0.111428896832
-0.106345543137
-0.100364921305
-0.094334276928
-0.088521171615
-0.082947375723
-0.078106381304
-0.073970664119
-0.069627280133
-0.064916733453
-0.060417164271
-0.056535245383
-0.053203948361
-0.050076955019
-0.046984960385
-0.044003734606
-0.041722714250
-0.040393645261
-0.039367146959
-0.037865831068
-0.035742706510
-0.033731690171
-0.032528719554
-0.032250654377
-0.032538530734
-0.032767425161
-0.032286647744
-0.031046548736
-0.029680154364
-0.028331041915
-0.026783685368
-0.024578407538
-0.021491797887
-0.017604082605
-0.012493021705
-0.006444265471
-0.000050174458
0.006655233544
0.013530900031
0.019903721803
0.025428003553
0.030427743104
0.034876310096
0.039125907572
0.043809822732
0.049288632662
0.055007430721
0.059710172392
0.062975215785
0.064992572606
0.066417613494
0.067662500973
0.068775656853
0.069824087301
0.070786513111
0.071715245780
0.072554070102
0.073503749512
0.074528619653
0.075467978540
0.076090834661
0.076150603154
0.076534528010
0.077914223249
0.080649800770
0.084922501114
0.089885216782
0.095016244181
0.099790901521
0.104154858369
0.108752379799
0.113353680545
0.117639822308
0.121606712510
0.125815990452
0.130377637828
0.134081608051
0.136396004272
0.137693955025
0.138553506266
0.138973660797
0.138551971975
0.137545136740
0.136058640747
0.133963363335
0.131010227235
0.126991017677
0.122267227880
0.117040153111
0.111546829139
0.106081667234
0.100421487542
0.094407739016
0.087943284447
0.081045107981
0.074004070981
0.067186177437
0.061589929904
0.058266938388
0.057166284587
0.057485936904
0.058420527456
0.059505185948
0.060754236896
0.062423077671
0.064317985526
0.065803451260
0.066636159874
0.067212842109
0.067997061055
0.069092445589
0.070350977988
0.071639541232
0.073167182934
0.075482307267
0.079343442700
0.084867566555
0.090804874867
0.096157578092
0.100762832438
0.104293943867
0.106538498069
0.107710995268
0.107931321191
0.107019764389
0.105135043311
0.102579958064
0.099375629367
0.095103193559
0.089881993551
0.085354778432
0.082104953270
0.079622291774
0.078119103142
0.077645732263
0.077841358177
0.078461244568
0.079944599905
0.082378515692
0.085537706846
0.089790539608
0.095231227427
0.101224259665
0.106983008330
0.112506737350
0.118185449847
0.123995926561
0.129316076343
0.134258359288
0.138530908438
0.141938261160
0.145232368310
0.146356879719
0.145174134498
0.143756685337
0.141568599822
0.138188334049
0.133060031285
0.126555208994
0.119201136235
0.110845803819
0.102855076221
0.094806066916
0.086201954864
0.078246625051
0.070687299478
0.063439942486
0.056647044431
0.049673400340
0.043161995464
0.037541100331
0.032182366581
0.027041141316
0.021530640773
0.015871827524
0.011014497097
0.006725301489
0.002552978506
-0.002105586826
-0.006594700219
-0.009916980539
-0.012153194915
-0.013251495113
-0.013461921758
-0.013160515692
-0.012466991235
-0.011565944011
-0.010801417524
-0.009908367090
-0.008880146973
-0.008020032606
-0.007116317226
-0.006963369246
-0.007661581655
-0.008566243938
-0.009828528844
-0.011331896564
-0.013092257963
-0.014924346480
-0.016755326756
-0.019167084502
-0.022085963310
-0.024977986316
-0.027529216124
-0.029683896780
-0.031504801096
-0.032849763279
-0.033634080189
-0.033800063130
-0.033241403651
-0.032380164852
-0.031976052515
-0.032055722340
-0.031913846225
-0.031137118870
-0.029503664726
-0.026884274372
-0.023564544484
-0.019665304108
-0.015093426329
-0.009697050244
-0.003260146590
0.004049944384
0.012048560431
0.020549469903
0.029158442048
0.037756771648
0.045829889444
0.052757822210
0.058475768538
0.062580102387
0.064951426808
0.066129090839
0.066231270226
0.065270269127
0.063397997097
0.060401758106
0.056268341690
0.051314549636
0.045656206502
0.039366218685
0.032598733796
0.025553453879
0.018449091139
0.011678305758
0.005484029115
-0.000197844318
-0.005022095169
-0.008860738801
-0.012000608679
-0.014278459474
-0.015841465674
-0.017309583619
-0.018998869149
