EVENT_NAME: EMILIA_2ND_SHOCK
EVENT_ID: IT-2012-0011
EVENT_DATE_YYYYMMDD: 20120529
EVENT_TIME_HHMMSS: 070002
EVENT_LATITUDE_DEGREE: 44.8417
EVENT_LONGITUDE_DEGREE: 11.0657
EVENT_DEPTH_KM: 8.1
HYPOCENTER_REFERENCE: INGV-CNT_Seismic_Bulletin
MAGNITUDE_W: 6.0
MAGNITUDE_W_REFERENCE: RCMT-INGV
MAGNITUDE_L: 5.8
MAGNITUDE_L_REFERENCE: INGV-CNT_Seismic_Bulletin
FOCAL_MECHANISM: TF
NETWORK: IT
STATION_CODE: MRN
STATION_NAME: MIRANDOLA (NAPOLI)
STATION_LATITUDE_DEGREE: 44.878231
STATION_LONGITUDE_DEGREE: 11.061743
STATION_ELEVATION_M: 15
LOCATION: 
SENSOR_DEPTH_M: 0.0
VS30_M/S: 208
SITE_CLASSIFICATION_EC8: C
MORPHOLOGIC_CLASSIFICATION: 
EPICENTRAL_DISTANCE_KM: 4.1
EARTHQUAKE_BACKAZIMUTH_DEGREE: 175.6
DATE_TIME_FIRST_SAMPLE_YYYYMMDD_HHMMSS: 20120529_065948.000
DATE_TIME_FIRST_SAMPLE_PRECISION: seconds
SAMPLING_INTERVAL_S: 0.005000
NDATA: 13713
DURATION_S: 68.565
STREAM: HNN
UNITS: cm
INSTRUMENT: sensor = MS2007+ [Syscom] | digitizer = 130-01/3 [Reftek]
INSTRUMENT_ANALOG/DIGITAL: D
INSTRUMENTAL_FREQUENCY_HZ: 
INSTRUMENTAL_DAMPING: 
FULL_SCALE_G: 
N_BIT_DIGITAL_CONVERTER: 24
PGD_CM: 14.206279
TIME_PGD_S: 20.490000
BASELINE_CORRECTION: BASELINE REMOVED
FILTER_TYPE: BUTTERWORTH
FILTER_ORDER: 2
LOW_CUT_FREQUENCY_HZ: 0.070
HIGH_CUT_FREQUENCY_HZ: 40.000
LATE/NORMAL_TRIGGERED: NT
DATABASE_VERSION: DYNA 1.0
HEADER_FORMAT: DYNA 1.2
DATA_TYPE: DISPLACEMENT
PROCESSING: manual (Paolucci et al., 2011)
DATA_TIMESTAMP_YYYYMMDD_HHMMSS: 20141204_104205.354
DATA_LICENSE: CC-BY3_0-IT (http://creativecommons.org/licenses/by/3.0/deed.en)
DATA_CITATION: ESM working group (2015), European Strong-Motion database, version 0.1, Network Activity 3: Networking acceleration networks and SM data users. Project NERA (www.nera-eu.org)
DATA_CREATOR: ESM working group
ORIGINAL_DATA_MEDIATOR_CITATION: Ufficio Rischio Sismico e Vulcanico del Dipartimento della Protezione Civile (http://www.protezionecivile.gov.it/)
ORIGINAL_DATA_MEDIATOR: Rete Accelerometrica Nazionale - RAN Download (http://www.mot1.it/randownload/)
ORIGINAL_DATA_CREATOR_CITATION: Italian Strong Motion Network, Italian Civil Protection Department http://www.protezionecivile.gov.it
ORIGINAL_DATA_CREATOR: network: IT (Italian Strong Motion Network); owner: Dipartimento Della Protezione Civile
USER1: /home/dyna/processing-itaca/processing.py /var/www/processing/tmp/fpacor//IT.MRN..HNE.D.20120529.070003.X.ACC.ASC /var/www/processing/tmp/fpacor//IT.MRN..HNN.D.20120529.070003.X.ACC.ASC /var/www/processing/tmp/fpacor//IT.MRN..HNZ.D.20120529.070003.X.ACC.ASC --tmp /var/www/processing/tmp/fpacor/ --le 0.070 --he 40.000 --ln 0.070 --hn 40.000 --lz 0.070 --hz 40.000 --fo 2 --ca -15 --cz 100 --ta 5 --tz 5 --mf 1 --rf 0 --tr NT
USER2: 
USER3: 
USER4: 
USER5: 
[...]
0.151149322644
0.154368621366
0.157554558297
0.160672419747
0.163664852608
0.166543463285
0.169369335122
0.172211490983
0.175164742833
0.178261754141
0.181462367387
0.184763636255
0.188130652232
0.191459263406
0.194687807157
0.197833581684
0.200921312594
0.203932791215
0.206821900627
0.209527105909
0.212089962995
0.214606987057
0.217045014322
0.219348482351
0.221562841456
0.223852727684
0.226384136969
0.229142299856
0.231966862536
0.234670713838
0.237165805313
0.239516220506
0.241916386683
0.244609641260
0.247681272727
0.251085660503
0.254831479031
0.258839730588
0.262836412409
0.266600842939
0.270124997194
0.273487859145
0.276678044790
0.279794261168
0.283218489772
0.287108605587
0.291194779659
0.295238541118
0.299232960599
0.303245373727
0.307279853845
0.311304656060
0.315375870735
0.319760382139
0.324681898685
0.329982746417
0.335403587712
0.340962851052
0.346879179797
0.353092670504
0.359223450114
0.365148284254
0.371039859087
0.377063731943
0.383264338098
0.389498889140
0.395582875298
0.401628104781
0.407999353485
0.414839998380
0.422006511045
0.429304757637
0.436559722652
0.443557826926
0.450075123355
0.456054059986
0.461572151464
0.466756072678
0.471828162867
0.477172496896
0.483082773770
0.489454711720
0.495939352230
0.502161240958
0.507874055278
0.512932487391
0.517368724291
0.521512929087
0.525614100984
0.529758722620
0.534092930561
0.538691680780
0.543367930486
0.547787352753
0.551798622796
0.555449837260
0.558713340108
0.561564696417
0.564169042164
0.566709085897
0.569341645820
0.572348309711
0.575961828416
0.580099051622
0.584548566027
0.589180909444
0.593825053513
0.598390784834
0.603026820083
0.607880247530
0.612941895669
0.618187890813
0.623683401885
0.629578770651
0.636043643672
0.643097572183
0.650576602508
0.658291991727
0.666156776911
0.674104908340
0.682045380936
0.689948003636
0.697664734457
0.705048059029
0.712329074672
0.719923815788
0.728068517386
0.736695021618
0.745628253018
0.754858326987
0.764413333396
0.774131495674
0.783801755040
0.793473096583
0.803369349847
0.813648472385
0.824435190013
0.835730507236
0.847318176316
0.859055410481
0.870954620715
0.882909868665
0.894749438765
0.906412920015
0.917824823432
0.928906303259
0.939768034912
0.950621815370
0.961557924011
0.972652807738
0.984119656282
0.996015463225
1.008042219905
1.019845292523
1.031212793181
1.041852600452
1.051500858383
1.060331278735
1.068927071511
1.077975490094
1.087735220689
1.098027276554
1.108767997037
1.119921489203
1.131249564398
1.142332443690
1.152799621301
1.162679706298
1.172372116653
1.182054501657
1.191631623204
1.201250919528
1.211137143653
1.221165309174
1.231058117596
1.240690143369
1.250145885854
1.259660903514
1.269176460857
1.278646474154
1.288599536547
1.299517333253
1.311367459127
1.323772637713
1.336157458987
1.348052941150
1.359336179658
1.369935562265
1.379953877348
1.389940711664
1.400493945920
1.412142970675
1.425399475286
1.440082296652
1.455262250053
1.470340379239
1.485306941605
1.500300173491
1.514964980687
1.528847650187
1.542460221300
1.556523231031
1.571364950601
1.587398721912
1.604756505040
1.622778814975
1.640734398955
1.658452707938
1.676024740497
1.693542370780
1.711243053669
1.729540056333
1.748511100012
1.767850873326
1.787297601170
1.806654801867
1.825731021828
1.844553288389
1.863241033574
1.881702827720
1.899836193989
1.917743519793
1.935874490014
1.954422826901
1.973094366123
1.992004058515
2.011265837549
2.030553663566
2.049727885451
2.069226590346
2.089995480562
2.112495077266
2.136173558866
2.160241536874
2.184224924683
2.207994029113
2.231518725609
2.254623814414
2.277371083201
2.300252307928
2.323848880849
2.348566344632
2.374336575196
2.401196196391
2.429452774448
2.458767391287
2.488275491902
2.517302958512
2.545806542513
2.573484265443
2.600084883755
2.625892377110
2.650811962623
2.675614239343
2.701035977763
2.726621437204
2.751855652782
2.776348465734
2.799946114933
2.822609155082
2.844940525520
2.867763906595
2.891291568849
2.915582359064
2.940396741061
2.965783227892
2.992652864822
3.021102531942
3.050553511871
3.081127668693
3.112483581123
3.144373152914
3.177271954048
3.210995779137
3.244519222739
3.276512091227
3.307880719399
3.341127850886
3.376098599685
3.412213776199
3.450963050821
3.493279493769
3.538731474423
3.586639649054
3.636242727439
3.686465777696
3.737015288321
3.788160793162
3.839650677711
3.891310409706
3.942469323161
3.993105595432
4.044321174208
4.095865079743
4.147199513585
4.198090423800
4.248434097684
4.298687434238
4.348788371954
4.398473617599
4.447349632149
4.495462641394
4.543093648124
4.590427619335
4.637879112317
4.684591811705
4.730221001199
4.775481605427
4.820316630515
4.864493442431
4.908063581483
4.951748994572
4.996181390503
5.041793179800
5.089200311899
5.138997902854
5.191983019908
5.247908468949
5.306138531241
5.366602925967
5.429293251441
5.494793438344
5.562881297105
5.632053934960
5.701453583251
5.770728038304
5.839136807817
5.906174176530
5.971773136852
6.035450225434
6.096311499021
6.153088684803
6.204479998725
6.250658295193
6.293130289376
6.332392032172
6.367614973541
6.398974680408
6.427703108783
6.454621074354
6.479351542363
6.500759098315
6.518701887853
6.533479264018
6.544743511697
6.551906499833
6.554487232851
6.552749840330
6.547536795259
6.539680592774
6.529614298827
6.517675564306
6.504658034570
6.491130502969
6.477857046089
6.465402270571
6.453835805943
6.443889598769
6.436438890551
6.432732738202
6.433124715057
6.436603924592
6.443343890317
6.454411335087
6.470618766132
6.492415021771
6.519552277233
6.551139477267
6.586797734907
6.626307583355
6.668548086625
6.712439845227
6.757548694825
6.804071357611
6.852053161293
6.900751917931
6.948789843267
6.994785413412
7.037647959988
7.075925997559
7.109537769220
7.139981088498
7.168177936219
7.194267376675
7.217623244783
7.238297124509
7.257198865182
7.274989792687
7.292857150781
7.312214766925
7.334246807970
7.358569080856
7.383942665202
7.411073097900
7.440877991944
7.473515097776
7.509244346919
7.548243597443
7.591219397934
7.638618077649
7.689836278972
7.743952542762
7.800010729842
7.857327571001
7.915723738095
7.975692624915
8.037903753392
8.102614703488
8.169816287966
8.239015731943
8.309923486938
8.381954341382
8.453416634383
8.522828818773
8.589587382106
8.653693953263
8.715103064589
8.774131855568
8.831668500866
8.888017478270
8.943329058676
8.998791063056
9.055829698146
9.114828280104
9.175311255440
9.236598951313
9.299205615223
9.364481827783
9.432332313899
9.501784771716
9.572583494579
9.645221406106
9.720125851431
9.797059912956
9.875462674870
9.954830701272
10.034686982240
10.114697962265
10.194615926979
10.274081418253
10.353038493800
10.431360432378
10.509423724415
10.588403246148
10.668162167606
10.748271118142
10.829758858373
10.913316102791
10.998393495697
11.084393885034
11.170394288467
11.254942858908
11.337505205680
11.417756338228
11.494636621364
11.567784559382
11.637695958239
11.704406058010
11.767480406298
11.826532146377
11.881388850350
11.932245645918
11.979243494773
12.022128159598
12.060639366444
12.094836508255
12.125066213790
12.151776911334
12.175329915476
12.196117116438
12.214707182125
12.231553745095
12.247083966198
12.261940887968
12.276049506205
12.288613029352
12.299531817009
12.309302887521
12.318424009639
12.327450089996
12.336768195816
12.346556017835
12.356950968690
12.368008597314
12.379697887678
12.392168677229
12.405793646585
12.420846409930
12.437430216291
12.455607633936
12.475431853841
12.497013249685
12.520587234084
12.546290057847
12.574002966461
12.603644329523
12.634926316001
12.666890924135
12.698998668367
12.731745812449
12.765460710635
12.800022417532
12.835237358807
12.870780363685
12.906138752438
12.940770376438
12.974679667949
13.008209829505
13.042402057122
13.079222941803
13.119529254475
13.163378473412
13.211530594335
13.264494432096
13.322270050299
13.384854393143
13.452338255795
13.524577936626
13.601017053443
13.681174998407
13.764686112067
13.851943068631
13.944136079148
14.041626498596
14.143621285503
14.249469742698
14.359180006736
14.472733323401
14.589966735036
14.710511566100
14.833861196640
14.959881706442
15.088561285512
15.219507192961
15.352479157493
15.487818618174
15.625464713193
15.765337607974
15.907361010433
16.050704462220
16.194605365803
16.338323333683
16.481007732097
16.621677324215
16.759079012517
16.892229352978
17.020887090257
17.145489791611
17.266406712487
17.383763370178
17.497652826918
17.608440050804
17.716552326152
17.821612184020
17.922778830610
18.019523337752
18.111828634868
18.199986149002
18.284163380350
18.364361497409
18.440473729685
18.512314077670
18.579887166486
18.643430568379
18.703060881569
18.758824137317
18.810963470363
18.859780214958
18.905757903872
18.949331832965
18.990745467756
19.030450688283
19.068599639160
19.104968276838
19.138910313604
19.169535898226
19.196563763205
19.219811304882
19.239457588313
19.255963838974
19.269184050826
19.279053382609
19.285879748392
19.290327553717
19.293066024486
19.294344497176
19.294534954807
19.294279688151
19.294110017826
19.294674254206
19.296551928155
19.299266396957
19.302119387335
19.305244298300
19.309363489253
19.315051488509
19.321948914056
19.329311701710
19.336239921073
19.341511092390
19.344415401886
19.345036521237
19.343177560468
19.338160183125
19.329771756638
19.318151768505
19.303442534503
19.285107303701
19.261849815225
19.233339381969
19.199838802383
19.160915414126
19.115919258477
19.064478704852
19.006995764063
18.944135770833
18.876197442423
18.803340280323
18.725497099966
18.642671487240
18.554965931768
18.462525637756
18.365491087862
18.263904989104
18.158088840605
18.048488721126
17.935619608041
17.820286485238
17.703546368794
17.586691434815
17.470858016159
17.356695818987
17.244458170244
17.134077181950
17.025868923749
16.920671891359
16.818896491464
16.720575471354
16.625548724004
16.533671581432
16.445217033207
16.360329271704
16.278890227135
16.200906093367
16.126358856334
16.054622590575
15.984737133278
15.915730954627
15.846398973768
15.775553833315
15.701750489657
15.623814322865
15.540913823470
15.452963559196
15.360830452594
15.264546358645
15.164221675216
15.060078266605
14.951846738835
14.839223850372
14.722075767695
14.601096565696
14.476585867686
14.348696604477
14.217601308642
14.082917182582
13.945034569787
13.804933387316
13.663214028371
13.520634054088
13.377912467149
13.234659374111
13.090435953937
12.944915817354
12.797049495308
12.645919960655
12.491214091456
12.333032372615
12.171282005687
12.006178836307
11.838334802007
11.667878993229
11.495632789045
11.322658366991
11.148940995165
10.974428000902
10.799224549082
10.623479255334
10.447530721656
10.271370887426
10.094873969543
9.918003980019
9.740506944229
9.561955554493
9.381853610675
9.199637927187
9.015019974123
8.828147266682
8.638795587786
8.446365265463
8.250861322170
8.052788008969
7.852440577725
7.649581540841
7.443893145788
7.235374002037
7.023928716632
6.809286368122
6.591124327974
6.369138599172
6.143122441031
5.912795847008
5.677995506208
5.438870344724
5.195489047632
4.947896868895
4.696178163574
4.440273983858
4.180324217253
3.916547721942
3.649149029305
3.378454673699
3.104950290686
2.829162713299
2.551229913272
2.271342963984
1.990035594958
1.707734582897
1.424548473037
1.140350438778
0.855452250419
0.570768728259
0.286960613712
0.004331243253
-0.276605336525
-0.555168824773
-0.830777567864
-1.103072695295
-1.371998013564
-1.637681886518
-1.900185249381
-2.159314878374
-2.414785456414
-2.666430629561
-2.914232778999
-3.158232321173
-3.398124404838
-3.633328422198
-3.863504203339
-4.088491242029
-4.308200301318
-4.522728415764
-4.732034594072
-4.935627786496
-5.133035497983
-5.324289356971
-5.509610417497
-5.689044765582
-5.862554495886
-6.030066407507
-6.191456249813
-6.346775412794
-6.496176784276
-6.639691291723
-6.777375617513
-6.909288674065
-7.035480187063
-7.155947528996
-7.270534919963
-7.379217717266
-7.482058923271
-7.579011749935
-7.670047141601
-7.755117889317
-7.834250661755
-7.907575795368
-7.975090887059
-8.036632104021
-8.091772391509
-8.140079591784
-8.181481267068
-8.215931657550
-8.243209352241
-8.263187039402
-8.275998414428
-8.281855314277
-8.280952489476
-8.273555138149
-8.259952015507
-8.240272625316
-8.214386582001
-8.182140790724
-8.143628978269
-8.099300675214
-8.049950528593
-7.996617289343
-7.940288869055
-7.881497268103
-7.820518480158
-7.757733216182
-7.693525399375
-7.628220326154
-7.562036629351
-7.495206160950
-7.428048085245
-7.360505686150
-7.292330396776
-7.223658205023
-7.154811860877
-7.085992540398
-7.017214618530
-6.948366721763
-6.879285759045
-6.809819305471
-6.739762969095
-6.668753551187
-6.596446905834
-6.522474941967
-6.446544637982
-6.368648639018
-6.288701960989
-6.206566308394
-6.122253527452
-6.035804345155
-5.947342083089
-5.856916960496
-5.764503886551
-5.670256031516
-5.574490585976
-5.477630272502
-5.380097951830
-5.282297875918
-5.184580097525
-5.087239654214
-4.990550182914
-4.894576174301
-4.799476531010
-4.705758452823
-4.614038169058
-4.525014241519
-4.439145835163
-4.356575016223
-4.277416696100
-4.201496733791
-4.128372679581
-4.057529198054
-3.988233484669
-3.919536052776
-3.850580500890
-3.780643427426
-3.709226024110
-3.636382005263
-3.561777322671
-3.484843819280
-3.405729784114
-3.324187809560
-3.239690137798
-3.152285924661
-3.062013703478
-2.968716360946
-2.872419689132
-2.773438925145
-2.672069055568
-2.568462092596
-2.462707877429
-2.354858676512
-2.245161947936
-2.134025065480
-2.021627501809
-1.907888267570
-1.792763222464
-1.676203043609
-1.557911807879
-1.437668781706
-1.315721713877
-1.192325117480
-1.067406388694
-0.940933892237
-0.813165365018
-0.684678200338
-0.556043425109
-0.427639992771
-0.299743682763
-0.172414101623
-0.045761450251
0.080051447814
0.205066541347
0.329361041391
0.453140809267
0.576577064073
0.699642707810
0.822570491864
0.945826522167
1.069956112710
1.195487926795
1.322692205743
1.451864500301
1.583469554679
1.717940166379
1.855569414308
1.996366134776
2.140199022851
2.287173018937
2.437358916843
2.590430884509
2.746007334775
2.903842423700
3.063960202583
3.226583435796
3.391705019644
3.559105494095
3.728369024452
3.898969256841
4.070400053183
4.242119773281
4.413644858311
4.584551038701
4.754644021502
4.923886620034
5.092000161980
5.258656855331
5.423833029489
5.587586837887
5.749696590405
5.909782111427
6.067460745705
6.222466231812
6.374760838829
6.524428460393
6.671660231881
6.816699797115
6.959723040700
7.100822968144
7.240001109568
7.376972746973
7.511163051356
7.642136331584
7.769664270817
7.893453519952
8.013099256922
8.128212650074
8.238620601625
8.344261809069
8.444954794706
8.540633003226
8.631377220517
8.717216258054
8.798229007885
8.874599989014
8.946722589603
9.015051835577
9.079965732541
9.141895923522
9.201030508689
9.257389527275
9.311002107858
9.361694564690
9.409276803961
9.453584164429
9.494491940312
9.532037287085
9.566386282967
9.597956950721
9.627278090670
9.654806137483
9.681084778737
9.706783133213
9.732549726208
9.758996265808
9.786668415631
9.815895537205
9.846841153003
9.879495418676
9.913578165741
9.948724843252
9.984692132471
10.021422348803
10.058996301452
10.097461813346
10.136693495326
10.176411469530
10.216315785459
10.256212269830
10.296006940652
10.335641484950
10.375098938591
10.414305932530
10.453016624284
10.490864924414
10.527583491269
10.563132332257
10.597428831709
10.630207391212
10.661196844857
10.690276510710
10.717415077200
10.742368591507
10.764806319007
10.784555416881
10.801401053845
10.815015089522
10.825196866786
10.832146097471
10.836282994819
10.837938260902
10.837315641397
10.834583166953
10.830059097105
10.824047132070
10.816748558035
10.808265717155
10.798537651855
10.787462765324
10.774930396594
10.761038669186
10.745909722982
10.729457408187
10.711619703974
10.692302136740
10.671447180191
10.648969622486
10.624661747665
10.598359779839
10.569984033865
10.539578898730
10.507128472506
10.472626940934
10.436250306677
10.398136398312
10.358343561474
10.316840985570
10.273666970940
10.229208722702
10.183853337763
10.137825199310
10.091585568517
10.045758228439
10.000896427520
9.957258902603
9.914955026188
9.874731020899
9.837608846997
9.804051233916
9.774159936748
9.747948396552
9.725420473181
9.706665685466
9.691834681301
9.681153917098
9.674952432498
9.673545696321
9.677141672021
9.685669471754
9.698835605338
9.716308179059
9.737491632397
9.761572231523
9.787491992713
9.814087809313
9.840310442274
9.864967913516
9.887089800048
9.905865300347
9.921040192775
9.933096538766
9.941622173416
9.945783380649
9.945582216344
9.941290018348
9.932683483869
9.919195339826
9.900887650801
9.878517557893
9.853122194846
9.825701326316
9.796716368114
9.766621532718
9.736285274429
9.706449862499
9.678121129935
9.651596086060
9.625941385317
9.601787284746
9.580505712784
9.562036095117
9.545678237815
9.530821629591
9.517233384493
9.504574694369
9.492528453971
9.480763924871
9.468866128679
9.456550886462
9.443353071275
9.428557503594
9.411185735438
9.391451647988
9.369708007601
9.345042515502
9.317202968168
9.286241529894
9.251928310017
9.214203796759
9.173299848129
9.129750277131
9.084108970655
9.037031266058
8.988560138427
8.938415685102
8.886671828800
8.833328460501
8.778771895814
8.723112688224
8.665268724567
8.604845671732
8.542474154333
8.478160787808
8.411563094690
8.342388936427
8.270469500749
