EVENT_NAME: EMILIA_2ND_SHOCK
EVENT_ID: IT-2012-0011
EVENT_DATE_YYYYMMDD: 20120529
EVENT_TIME_HHMMSS: 070002
EVENT_LATITUDE_DEGREE: 44.8417
EVENT_LONGITUDE_DEGREE: 11.0657
EVENT_DEPTH_KM: 8.1
HYPOCENTER_REFERENCE: INGV-CNT_Seismic_Bulletin
MAGNITUDE_W: 6.0
MAGNITUDE_W_REFERENCE: RCMT-INGV
MAGNITUDE_L: 5.8
MAGNITUDE_L_REFERENCE: INGV-CNT_Seismic_Bulletin
FOCAL_MECHANISM: TF
NETWORK: IT
STATION_CODE: MRN
STATION_NAME: MIRANDOLA (NAPOLI)
STATION_LATITUDE_DEGREE: 44.878231
STATION_LONGITUDE_DEGREE: 11.061743
STATION_ELEVATION_M: 15
LOCATION: 
SENSOR_DEPTH_M: 0.0
VS30_M/S: 208
SITE_CLASSIFICATION_EC8: C
MORPHOLOGIC_CLASSIFICATION: 
EPICENTRAL_DISTANCE_KM: 4.1
EARTHQUAKE_BACKAZIMUTH_DEGREE: 175.6
DATE_TIME_FIRST_SAMPLE_YYYYMMDD_HHMMSS: 20120529_065948.000
DATE_TIME_FIRST_SAMPLE_PRECISION: seconds
SAMPLING_INTERVAL_S: 0.005000
NDATA: 13713
DURATION_S: 68.565
STREAM: HNN
UNITS: cm/s^2
INSTRUMENT: sensor = MS2007+ [Syscom] | digitizer = 130-01/3 [Reftek]
INSTRUMENT_ANALOG/DIGITAL: D
INSTRUMENTAL_FREQUENCY_HZ: 
INSTRUMENTAL_DAMPING: 
FULL_SCALE_G: 
N_BIT_DIGITAL_CONVERTER: 24
PGA_CM/S^2: 288.651206
TIME_PGA_S: 21.495000
BASELINE_CORRECTION: BASELINE REMOVED
FILTER_TYPE: BUTTERWORTH
FILTER_ORDER: 2
LOW_CUT_FREQUENCY_HZ: 0.070
HIGH_CUT_FREQUENCY_HZ: 40.000
LATE/NORMAL_TRIGGERED: NT
DATABASE_VERSION: DYNA 1.0
HEADER_FORMAT: DYNA 1.2
DATA_TYPE: ACCELERATION
PROCESSING: manual (Paolucci et al., 2011)
DATA_TIMESTAMP_YYYYMMDD_HHMMSS: 20141204_104205.354
DATA_LICENSE: CC-BY3_0-IT (http://creativecommons.org/licenses/by/3.0/deed.en)
DATA_CITATION: ESM working group (2015), European Strong-Motion database, version 0.1, Network Activity 3: Networking acceleration networks and SM data users. Project NERA (www.nera-eu.org)
DATA_CREATOR: ESM working group
ORIGINAL_DATA_MEDIATOR_CITATION: Ufficio Rischio Sismico e Vulcanico del Dipartimento della Protezione Civile (http://www.protezionecivile.gov.it/)
ORIGINAL_DATA_MEDIATOR: Rete Accelerometrica Nazionale - RAN Download (http://www.mot1.it/randownload/)
ORIGINAL_DATA_CREATOR_CITATION: Italian Strong Motion Network, Italian Civil Protection Department http://www.protezionecivile.gov.it
ORIGINAL_DATA_CREATOR: network: IT (Italian Strong Motion Network); owner: Dipartimento Della Protezione Civile
USER1: /home/dyna/processing-itaca/processing.py /var/www/processing/tmp/fpacor//IT.MRN..HNE.D.20120529.070003.X.ACC.ASC /var/www/processing/tmp/fpacor//IT.MRN..HNN.D.20120529.070003.X.ACC.ASC /var/www/processing/tmp/fpacor//IT.MRN..HNZ.D.20120529.070003.X.ACC.ASC --tmp /var/www/processing/tmp/fpacor/ --le 0.070 --he 40.000 --ln 0.070 --hn 40.000 --lz 0.070 --hz 40.000 --fo 2 --ca -15 --cz 100 --ta 5 --tz 5 --mf 1 --rf 0 --tr NT
USER2: 
USER3: 
USER4: 
USER5: 
[...]
-3.308443862500
-8.237818793000
-1.330372297100
5.291920935200
7.069331950500
1.357795459400
-6.022595330900
-1.550267021900
13.040768854700
18.775847643200
13.034710778700
5.269357119700
-1.731263102700
-10.274429667200
-19.232313768600
-21.534391920100
-18.433806105000
-13.366810586700
-4.473240991500
10.889753589400
22.637713797900
18.466443056700
4.508102383600
-10.510071238600
-20.362976360600
-26.175288266800
-24.887808544600
-11.681284120500
-1.721315976400
1.737989535400
7.583452213100
10.581691160800
3.099979437700
-10.273097544500
-16.326088982700
-14.402223124800
-15.508464679900
-16.485861520800
-9.880422492800
-2.572080565000
3.700647602100
14.964158704400
24.274192579700
20.948180021800
12.491647987200
7.313160479400
0.472026056200
-3.136509910600
2.812157133300
8.695687896700
8.328827708400
7.373880146200
9.980637193900
15.994307696600
22.780170250700
23.562219555500
17.004072585500
9.454355746000
5.975838618000
3.333849776400
-0.306353311700
-1.513995831300
-7.435675166700
-13.336249949200
-4.092357158400
12.549018927600
21.998419246100
19.272105381300
12.269086695400
11.873702807000
12.997297566200
6.526234760300
-1.916116482100
0.043287101000
8.996468835200
15.314770951000
20.303803590500
20.343983831500
11.694074238000
5.982603421200
6.479042755800
2.241508644300
-4.627113990700
-7.043553998800
-10.063113313600
-13.216943637400
-8.789926944200
-0.318047800400
3.293127340100
6.351003405000
14.878592728100
17.158335929200
5.237989469200
-8.947362459000
-17.422878392500
-29.107735518400
-39.661973573100
-32.713503164800
-9.385103018800
18.105032268800
28.452480451400
21.293010812200
17.946584752200
16.510867302100
6.983321124100
-9.807836077800
-24.628067250900
-23.483704548300
-7.506985722600
-0.401014011800
-4.210538259900
1.686991076900
10.677112024000
5.677655822000
-5.414283931400
-10.431305972200
-7.051331539100
2.371007041300
0.021587306800
-1.821761860900
19.321963864200
38.589372487900
37.293166767700
22.202108440100
-0.814292483600
-19.573564402400
-24.489746238600
-27.354236004800
-23.242700972600
-1.259230678300
22.655997593200
43.831619952000
64.299194248600
57.052670217400
19.885281384800
-4.072968610600
-4.462672785800
1.066780776800
-13.136987576200
-31.285507848600
-10.803935491900
18.017544745000
31.148393562800
47.682069617200
52.960472698100
26.581072261100
-2.669038200900
-9.490999848900
-5.851056989900
-2.176091017200
7.322104201500
23.852791057300
26.961640562600
14.749185412400
4.278181161700
-3.581085819700
-11.239229461200
-10.158136009000
-5.380855042600
-9.038041586800
-13.137115047600
-9.041618601300
8.945776703900
16.694666609400
4.928093415100
9.526126799600
14.083465669400
1.041879324800
-4.544165312900
12.979320439100
50.807412847500
69.228259502000
47.155395834200
15.579856333300
-3.383607971000
-8.571335138800
-9.776317376600
-16.784307646000
-14.312800723400
5.358237618200
28.613927750800
44.835634476400
42.110671261200
43.575625230700
55.878274453300
42.321551304800
7.739351034100
-19.225360205400
-20.955304340100
-33.034442878900
-43.084184672000
-31.724998298700
-35.516313707500
-4.692351704800
24.778468031900
6.548840824900
-14.049754530100
-29.656105050100
-35.806550124100
-37.384361977900
-13.266788453700
19.680425520500
28.171247099000
30.525118488600
20.943671259900
22.884193356500
59.326003953300
63.201207599300
40.052512384700
44.927075687800
31.270224354900
21.346374412900
40.369173744800
33.000958171500
-8.015259457900
-61.223004548500
-24.969612672600
75.140132607700
68.944692473100
45.777108610600
105.363924314300
142.686733050900
125.421508243600
98.247759079800
67.796150148900
24.798874889900
13.058414716100
23.839768636200
13.775188333100
6.793897799700
-20.032741565900
-20.905647370900
23.172260205000
13.133070360000
-8.378867697300
-17.740945124100
-21.889453194400
-3.613493218500
-6.095953549700
-16.627682805500
-32.369243823900
-30.520212161800
-19.280100615700
-11.881420779700
4.700870858300
-29.551743783900
-43.340395743900
-14.743410635200
-17.023165600200
-26.328526888800
-24.266914568700
4.610961515000
29.879313649000
47.175734647500
71.813712071500
95.618354259000
127.501043956100
117.613279469000
92.184530054700
89.373297340000
89.037229924700
112.394457171100
103.506874327800
43.391163760700
9.080417420900
-5.007729512700
-34.627421583200
-54.856032034100
-57.536335621800
-76.874869591200
-112.632599822800
-163.363512172500
-215.434874443600
-208.520698128200
-148.252091378100
-128.410055515000
-161.552057060100
-154.529380093400
-105.251139698400
-72.418512122300
-87.499902504500
-132.916482279600
-138.590656555700
-126.616534919900
-140.525139424000
-164.050381720800
-183.290204748800
-172.725021554300
-139.026101951900
-105.726296609300
-88.403658464200
-74.897622988500
-43.151808560300
-20.400074594100
10.162988788400
32.747254537200
35.532435583400
64.810298126900
99.819958262200
149.782234784200
163.925168109600
123.489307251600
130.430247564300
173.099161806800
205.599451022000
223.552983714500
213.639992947800
177.997782905000
162.842304202500
154.063632362100
109.226192825600
66.050213331500
48.683639783000
56.552527561100
58.365635817300
28.678118277300
-26.433252129100
-81.694207582700
-125.320942805400
-183.380360210100
-186.650636353100
-126.738095360600
-89.858862268800
-84.296290568800
-109.342893966000
-107.279535261200
-70.885562099300
-44.432526735000
3.057223558400
59.610321983900
106.976996060200
91.609273621800
42.052458410100
70.273934071000
106.978453866500
113.288471484200
123.685732462300
130.800055269700
159.061998646400
176.915168959800
152.780864323800
115.922498676500
77.676931600700
50.346163140200
43.173037415700
62.908789052200
89.689666288000
99.992864726200
99.625375306700
79.914379943000
68.332440730000
44.923977971200
-22.742457724300
-82.004344472300
-106.144842233500
-106.079687095300
-107.898393201500
-95.212813868500
-59.685827256800
-47.506715764000
-41.495879930400
6.016958995800
63.065228361400
78.397874755300
59.375735076600
32.188821511700
52.758721491200
106.781945985100
102.970942215300
64.078868067000
53.850601849800
73.567546533000
90.661351923200
81.184648025400
58.748015541300
38.610579520300
19.530182636200
6.187962289700
-3.720612444100
-18.098937620000
-20.336629051900
-25.405478788600
-10.345861609900
36.649187821700
31.175989040200
14.001163084000
55.151587773500
82.780167518900
60.805939507000
36.919857261300
0.000563800500
-58.073319653500
-79.448946756500
-92.448568954400
-134.833976487300
-149.293804717800
-129.461566472800
-128.051963406500
-145.430059327000
-160.904328350300
-167.801444267000
-159.996336160800
-154.357868558000
-164.527361176300
-174.938319170600
-172.562601407300
-158.697451028000
-140.760319661700
-126.307736062000
-110.632127193600
-87.885410995300
-69.740108703600
-52.653674649300
-26.931973329500
-29.932141351100
-61.803803577700
-65.789419598000
-45.908685802700
-25.997935754300
-3.801670439300
11.681018520100
18.788647964300
24.285153406700
26.507110810600
25.266469576400
31.259967473700
46.167192177200
57.111759593600
61.241720625100
63.744451373600
65.872090399800
70.287037543700
79.703542224200
85.153574549400
80.403394009600
77.138177974500
65.624936585800
27.304866292500
5.725443901400
25.575993972700
38.710164167800
33.872348486000
26.129375076200
13.122544127700
-7.384644991500
-29.070590139000
-28.893299548800
-15.165198206000
26.482642448300
105.146282552400
139.417119664200
141.716250600700
172.116079399100
192.468673544300
192.471217694900
192.348985602900
195.980792358100
190.232727147900
167.977439414400
148.753125901000
134.126747854000
149.833716142300
197.442158107700
211.896357256000
180.174698355100
154.146811550000
154.472273698800
153.722105076400
147.203798802300
132.456777121300
112.191979096600
106.835170469100
106.362770716000
90.653135149600
81.042283323500
94.699845955600
92.265373520400
89.071990483500
86.020307104400
52.801973147000
22.298071846900
-7.317428149100
-41.342778619000
-80.592251837900
-130.716152676900
-170.053913590700
-179.704127317000
-162.201436991100
-147.431219091700
-142.410527453500
-138.688038016600
-124.089314136700
-106.997941556700
-122.096699162600
-155.728451115800
-176.885577949200
-177.568401062900
-165.911319240700
-159.211311457900
-159.164571548900
-163.435391288200
-170.875371685000
-170.690366740100
-161.187476950000
-156.523548097000
-154.682297665600
-144.956908087400
-132.903538052100
-113.562227258700
-96.150392826500
-86.411772042200
-68.336570611000
-62.250785980000
-71.212527933200
-97.064036515000
-132.658085766800
-143.908785705400
-151.212932055700
-144.050329871500
-125.601310779100
-131.441552370100
-134.035202769900
-121.718640004800
-95.142418279800
-68.373382266600
-58.399923158300
-43.520602371900
-17.828971490100
3.423853283800
29.356268170500
52.537502767100
33.471794121600
5.540863033000
10.876823476900
39.771199533500
62.752332116900
48.377051618200
18.614484290400
-17.382731622500
-66.281921857100
-94.674472813800
-91.327605808700
-99.203204817400
-126.336662949900
-134.841965757600
-129.262465848500
-123.569834765700
-145.039871974300
-196.890307002800
-210.117791149000
-199.605853258700
-216.912346799400
-242.910695663700
-257.775919091800
-241.695486498100
-215.082097682800
-203.133407182500
-196.753347633100
-199.440730241900
-199.297294752900
-195.197709860500
-189.389541623700
-183.770235240000
-182.061954566900
-169.201989653700
-151.358839191300
-130.759744269900
-98.560388700900
-56.279745628300
-4.592701383200
40.860612901700
66.848859354800
76.981937165100
74.266417945500
86.909203717500
120.449032465300
136.865299783400
138.175191415500
131.770910390300
125.984191118800
136.903773871600
142.671468899700
137.948677363700
138.196431999200
137.475869425000
112.438850955100
74.032338488100
35.171145856800
-13.032088340100
-60.526383756600
-118.328128186600
-165.312925404100
-198.573304077700
-201.990595182500
-167.313693117100
-166.039493856500
-161.623579235600
-152.749007265600
-163.524766334000
-175.654427756400
-181.007768531800
-153.244772878100
-141.259840473200
-135.142607961000
-128.241305022600
-143.553208997400
-127.939469391200
-88.742787049100
-64.727058943900
-34.424613539400
-5.664506244400
-21.260243969800
-38.813085411800
-51.868656358800
-93.847418542300
-130.528504274900
-143.053381845000
-139.033985660300
-142.745923499100
-134.112098055500
-109.634596830200
-104.470979112300
-71.615816214900
-29.128714814900
-29.717990873700
-31.824897497200
-27.618302303400
-21.673677078300
-8.129597196300
-8.452022106900
-13.483346086400
-14.922865670400
-25.081850650700
-42.174157794100
-62.022163336300
-84.549586746500
-96.090783078200
-90.190175041000
-99.158858232900
-123.145737079600
-122.944838796400
-102.774796309800
-90.964721738400
-100.464225592300
-113.174326728900
-113.229947972200
-117.045666120000
-127.882524212400
-140.787665516700
-152.947546153400
-161.217173582100
-172.417435272700
-178.949871085500
-172.992827320800
-170.245424358700
-168.435265813000
-165.061063345800
-167.418975778600
-161.823475559100
-153.069148284800
-144.887892972700
-131.826518803400
-112.401096279900
-91.327774979500
-85.808905568300
-78.165970454200
-56.816789507600
-39.745721382900
-35.403912003700
-40.476975930900
-28.006163994700
8.586647956300
35.016304484000
47.149763561500
67.711627229100
94.923661182700
118.189806322400
132.544626352300
134.792366485200
129.657812642100
127.220403612700
134.949354783100
146.362038137200
153.016195738900
153.720948329900
152.104290571200
164.298340342500
187.522652227000
201.129448767600
207.549697992400
211.119176072400
207.237793717400
208.877445533500
228.519435355300
247.419237469600
246.154099940000
237.311938493800
235.468497654800
236.984711220100
239.912747357800
244.882772555200
242.827173052500
236.711659922100
235.474561385800
233.207266303800
230.850769529800
228.861742151700
228.966842582300
235.198038623400
236.183746590800
233.663651923700
235.535173629800
236.697399929300
238.585757999000
237.519011132200
232.305552969500
232.401676888100
238.954989186900
256.037178913500
273.323488566200
276.220999611900
278.051392072700
286.907831681500
292.000301147500
286.652485422300
278.179007088000
270.388986015300
259.781061025500
248.230852578700
243.050701987200
248.266124951500
254.389918447500
250.640847172000
232.659623980700
200.873742619900
159.323705199100
119.807241478700
98.527226568000
87.487479756300
72.259041194900
56.902113277500
43.890256546600
35.144943249800
25.870863966500
13.104292130000
15.372935614700
25.315611137000
19.876095180500
6.966095725900
-1.080946663500
-1.655944479100
2.798995981600
9.322638032700
15.419634214900
23.595312129300
38.123261229800
51.889097836400
66.612740536500
78.333604756300
78.627799138000
82.027162599200
87.558982618300
87.085133914000
85.456054181000
80.523190777900
78.514421053300
79.518054092800
73.391243597400
60.703620213700
43.794717353600
26.880287938700
10.710209571300
-3.291900765100
-15.093403271700
-26.038880434500
-28.618507478600
-34.974612887100
-55.262604162100
-79.911776858100
-107.854249076700
-126.220847293900
-131.903496621000
-136.499952728600
-129.534312499600
-111.836324023800
-91.222907285800
-61.910725672800
-23.931259689200
10.324799711600
39.260863133400
59.213194057700
57.064621257900
70.426549775000
93.152832000900
87.221270988100
97.117575494200
118.227888318000
116.261655037400
114.720321802800
121.004853999400
119.973171257200
107.363686919000
95.564223607500
89.483735802000
85.890087795600
83.799429984100
73.901106375500
57.606155222800
50.427248558600
53.666822717100
55.432434719800
57.405349922000
69.242275046900
78.071617678500
68.161666260900
57.981142712400
60.885295569100
62.150706796700
51.841230548700
28.745498384500
5.904421988900
-9.253715637600
-20.284893206700
-22.669154758500
-27.077190658000
-33.590132328100
-31.912181256600
-28.823739546400
-20.589286732100
-13.740522828400
-14.824442730900
-5.514387312300
13.129849934600
34.942409636700
56.088941634100
66.898594542700
78.720624406100
97.310392780800
114.622292891500
126.345449172300
126.698901536200
121.446704313100
125.644320401400
128.476072843800
115.442790358600
100.179303998300
90.345546403800
91.307598298300
100.218173173400
99.934025441900
91.155624079400
74.522236251000
53.468081317400
33.222558085600
11.556950244700
-7.785402730300
-24.756185574300
-32.527903590600
-34.015370720200
-45.162263486900
-58.273943751300
-59.220767771400
-56.894630369100
-65.762235208400
-80.969259840500
-96.275469745000
-106.925926840500
-108.435163630600
-105.079418098100
-97.434003019700
-87.688250168500
-80.652865978400
-76.932645638700
-76.871440798900
-88.260160780600
-111.253320822600
-128.680966247200
-137.813639804300
-149.547603873300
-165.740486657200
-181.293752665700
-188.217664060300
-190.669764288200
-197.928872304200
-200.591084626200
-197.359649220000
-196.207190095300
-193.051508280200
-185.670748062600
-169.935221630300
-151.734184584000
-136.613960391900
-119.348239323700
-111.824232532600
-111.022663263200
-109.857520145100
-116.804950025400
-124.408702411400
-130.995152147400
-135.983383410500
-134.497164382500
-127.854035631600
-111.133125144700
-89.981112151400
-71.723725479000
-49.976222367800
-23.211471106600
2.729540760300
27.197864206700
49.024408914900
62.198870035400
68.739768972600
68.345994959500
57.139255744900
42.557217771200
32.824468356000
30.517084522800
33.749452665200
35.662369841200
30.646803383700
19.451689013000
7.453668945000
-0.313262259900
-4.072542026400
-6.405060924000
-7.083626256600
-10.018388105500
-19.852087396100
-34.495664992400
-45.189330939100
-46.789034730300
-50.093661415100
-60.717597986200
-71.564234292100
-76.391511697400
-77.643974509800
-87.402087308600
-100.631472300300
-107.545185017300
-116.138436428800
-129.264051451300
-137.290336540400
-129.301863144100
-112.493333513300
-99.265250584700
-91.115423515100
-84.394197537400
-71.663816196900
-59.515807460400
-51.464359980600
-47.370673820300
-49.808976805100
-53.872849262800
-58.299287918700
-54.374347124400
-49.488751866100
-52.934743630400
-55.415576711300
-59.194520842300
-61.495572609600
-64.904046218300
-73.212684653400
-79.763720210100
-82.951125915900
-81.175566409400
-81.811643588600
-82.044213925100
-75.004107388000
-69.490964330800
-67.157138889600
-68.389562654000
-66.857549073600
-51.369344269900
-35.885468077500
-26.910140534600
-8.459693644100
16.491628655100
38.621566347800
48.971040068200
53.345940061200
83.194845072000
124.073255455600
142.582432849100
146.652636533500
147.190278855000
147.344673039500
150.925426183400
156.951342042000
166.009598470500
179.171184133000
191.789936878000
200.108475129000
197.272961307800
185.533354004800
172.257605526300
148.435184669100
115.885831499000
73.566482577900
27.042216390200
-14.927345547200
-62.606468780300
-101.423388403000
-133.855449297900
-144.024314840600
-124.741857503700
-141.228453615800
-174.577096694800
-174.494861503200
-163.641347648100
-172.573459303500
-195.264382609900
-192.781799219800
-162.496155350400
-121.010805552500
-81.020219358100
-62.563586828300
-44.395087776300
-9.656915747200
20.033854401800
60.267174620800
72.147547565200
34.813725288700
60.024006854800
114.901144391100
112.478171742600
84.470414678500
60.049963076500
50.734525018800
37.182198978800
24.497989082900
11.268451850900
-5.330683650200
