EVENT_NAME: EMILIA_2ND_SHOCK
EVENT_ID: IT-2012-0011
EVENT_DATE_YYYYMMDD: 20120529
EVENT_TIME_HHMMSS: 070002
EVENT_LATITUDE_DEGREE: 44.8417
EVENT_LONGITUDE_DEGREE: 11.0657
EVENT_DEPTH_KM: 8.1
HYPOCENTER_REFERENCE: INGV-CNT_Seismic_Bulletin
MAGNITUDE_W: 6.0
MAGNITUDE_W_REFERENCE: RCMT-INGV
MAGNITUDE_L: 5.8
MAGNITUDE_L_REFERENCE: INGV-CNT_Seismic_Bulletin
FOCAL_MECHANISM: TF
NETWORK: IT
STATION_CODE: MRN
STATION_NAME: MIRANDOLA (NAPOLI)
STATION_LATITUDE_DEGREE: 44.878231
STATION_LONGITUDE_DEGREE: 11.061743
STATION_ELEVATION_M: 15
LOCATION: 
SENSOR_DEPTH_M: 0.0
VS30_M/S: 208
SITE_CLASSIFICATION_EC8: C
MORPHOLOGIC_CLASSIFICATION: 
EPICENTRAL_DISTANCE_KM: 4.1
EARTHQUAKE_BACKAZIMUTH_DEGREE: 175.6
DATE_TIME_FIRST_SAMPLE_YYYYMMDD_HHMMSS: 20120529_065948.000
DATE_TIME_FIRST_SAMPLE_PRECISION: seconds
SAMPLING_INTERVAL_S: 0.005000
NDATA: 13713
DURATION_S: 68.565
STREAM: HNZ
UNITS: cm/s
INSTRUMENT: sensor = MS2007+ [Syscom] | digitizer = 130-01/3 [Reftek]
INSTRUMENT_ANALOG/DIGITAL: D
INSTRUMENTAL_FREQUENCY_HZ: 
INSTRUMENTAL_DAMPING: 
FULL_SCALE_G: 
N_BIT_DIGITAL_CONVERTER: 24
PGV_CM/S: 26.774378
TIME_PGV_S: 18.915000
BASELINE_CORRECTION: BASELINE REMOVED
FILTER_TYPE: BUTTERWORTH
FILTER_ORDER: 2
LOW_CUT_FREQUENCY_HZ: 0.070
HIGH_CUT_FREQUENCY_HZ: 40.000
LATE/NORMAL_TRIGGERED: NT
DATABASE_VERSION: DYNA 1.0
HEADER_FORMAT: DYNA 1.2
DATA_TYPE: VELOCITY
PROCESSING: manual (Paolucci et al., 2011)
DATA_TIMESTAMP_YYYYMMDD_HHMMSS: 20141204_104205.354
DATA_LICENSE: CC-BY3_0-IT (http://creativecommons.org/licenses/by/3.0/deed.en)
DATA_CITATION: ESM working group (2015), European Strong-Motion database, version 0.1, Network Activity 3: Networking acceleration networks and SM data users. Project NERA (www.nera-eu.org)
DATA_CREATOR: ESM working group
ORIGINAL_DATA_MEDIATOR_CITATION: Ufficio Rischio Sismico e Vulcanico del Dipartimento della Protezione Civile (http://www.protezionecivile.gov.it/)
ORIGINAL_DATA_MEDIATOR: Rete Accelerometrica Nazionale - RAN Download (http://www.mot1.it/randownload/)
ORIGINAL_DATA_CREATOR_CITATION: Italian Strong Motion Network, Italian Civil Protection Department http://www.protezionecivile.gov.it
ORIGINAL_DATA_CREATOR: network: IT (Italian Strong Motion Network); owner: Dipartimento Della Protezione Civile
USER1: /home/dyna/processing-itaca/processing.py /var/www/processing/tmp/fpacor//IT.MRN..HNE.D.20120529.070003.X.ACC.ASC /var/www/processing/tmp/fpacor//IT.MRN..HNN.D.20120529.070003.X.ACC.ASC /var/www/processing/tmp/fpacor//IT.MRN..HNZ.D.20120529.070003.X.ACC.ASC --tmp /var/www/processing/tmp/fpacor/ --le 0.070 --he 40.000 --ln 0.070 --hn 40.000 --lz 0.070 --hz 40.000 --fo 2 --ca -15 --cz 100 --ta 5 --tz 5 --mf 1 --rf 0 --tr NT
USER2: 
USER3: 
USER4: 
USER5: 
[...]
-0.000001151700
-0.000004244089
-0.000003142913
0.000000512082
-0.000001549615
-0.000005961083
-0.000006141253
-0.000002121046
-0.000004204443
-0.000009397882
-0.000010142340
-0.000007193471
-0.000009564563
-0.000013481723
-0.000012604237
-0.000008281117
-0.000008877778
-0.000012639252
-0.000011914351
-0.000007962434
-0.000010138735
-0.000015281296
-0.000015615006
-0.000012279506
-0.000013902753
-0.000017482668
-0.000016403898
-0.000012130791
-0.000011841337
-0.000014865892
-0.000013386232
-0.000007900929
-0.000007678876
-0.000010044853
-0.000008883902
-0.000004725836
-0.000005259925
-0.000010040143
-0.000009978063
-0.000006509282
-0.000008412901
-0.000012294895
-0.000011820836
-0.000007910118
-0.000008605321
-0.000012566964
-0.000011898451
-0.000007346416
-0.000007268878
-0.000010787091
-0.000009149098
-0.000004617419
-0.000006413866
-0.000011141951
-0.000011439804
-0.000008121041
-0.000010208190
-0.000015246173
-0.000014709467
-0.000011122020
-0.000011672690
-0.000015626390
-0.000014722730
-0.000009925114
-0.000011319695
-0.000014845464
-0.000013987757
-0.000010254468
-0.000011168433
-0.000016395677
-0.000016083810
-0.000012129823
-0.000012947007
-0.000016455015
-0.000015552859
-0.000010262908
-0.000009963170
-0.000013337674
-0.000012074209
-0.000008118007
-0.000010085972
-0.000014962146
-0.000015247067
-0.000013080084
-0.000015160632
-0.000019870718
-0.000019446214
-0.000016009478
-0.000017615057
-0.000021707488
-0.000021217109
-0.000016951301
-0.000018273579
-0.000022608757
-0.000020978635
-0.000016756254
-0.000017994714
-0.000021827220
-0.000020830553
-0.000016765539
-0.000017533775
-0.000021332221
-0.000019974007
-0.000015443211
-0.000016374172
-0.000020394126
-0.000020166300
-0.000016040869
-0.000016605052
-0.000020865971
-0.000020130376
-0.000016266139
-0.000017087904
-0.000021561398
-0.000021196516
-0.000016369934
-0.000017523962
-0.000021607110
-0.000020483376
-0.000017131220
-0.000018294919
-0.000022827762
-0.000022469339
-0.000018427475
-0.000020080675
-0.000024467207
-0.000023598763
-0.000019969484
-0.000021638964
-0.000025607424
-0.000024671311
-0.000021285594
-0.000022504793
-0.000026743240
-0.000026574300
-0.000023174974
-0.000024011028
-0.000027314224
-0.000026252311
-0.000021688363
-0.000021650775
-0.000024755557
-0.000023356672
-0.000019128746
-0.000019475523
-0.000022865236
-0.000022470512
-0.000019618226
-0.000021759602
-0.000026355589
-0.000025623582
-0.000021869488
-0.000022420246
-0.000025327376
-0.000023576242
-0.000018514306
-0.000018746724
-0.000021987625
-0.000020111859
-0.000015925411
-0.000017820711
-0.000022517766
-0.000022186491
-0.000019660368
-0.000021110112
-0.000025220493
-0.000024709854
-0.000020915559
-0.000022094120
-0.000025066703
-0.000024509415
-0.000020695632
-0.000021244108
-0.000025848671
-0.000025443577
-0.000022144154
-0.000022633482
-0.000026410428
-0.000025703996
-0.000021801933
-0.000023849710
-0.000028114179
-0.000028030816
-0.000024805991
-0.000025560656
-0.000029290253
-0.000028229274
-0.000024681213
-0.000026050154
-0.000029851999
-0.000028823050
-0.000025025290
-0.000025526598
-0.000029160927
-0.000028547290
-0.000024553954
-0.000026395215
-0.000031268767
-0.000030915632
-0.000028062003
-0.000030182812
-0.000034686990
-0.000033884763
-0.000029784685
-0.000030107024
-0.000033796792
-0.000032932466
-0.000028208448
-0.000028831134
-0.000031756482
-0.000029317138
-0.000024919355
-0.000024807600
-0.000028237715
-0.000027969862
-0.000023900040
-0.000025006983
-0.000029679820
-0.000029622557
-0.000026608734
-0.000028273793
-0.000032201838
-0.000031674067
-0.000028237589
-0.000029182223
-0.000033192776
-0.000032245198
-0.000028187971
-0.000028949223
-0.000032457198
-0.000031209111
-0.000027325994
-0.000027957897
-0.000031304614
-0.000030747316
-0.000026843984
-0.000027619453
-0.000032244506
-0.000031625583
-0.000027329915
-0.000028894120
-0.000032365186
-0.000030278661
-0.000025959189
-0.000025804081
-0.000028854072
-0.000027040210
-0.000022406694
-0.000023179372
-0.000026926954
-0.000026757523
-0.000022969399
-0.000024122143
-0.000028554739
-0.000027367914
-0.000023827134
-0.000024948195
-0.000028559723
-0.000028400870
-0.000024685850
-0.000025918204
-0.000030470523
-0.000030123136
-0.000027388170
-0.000028930476
-0.000033244166
-0.000033142859
-0.000029675257
-0.000030760185
-0.000034946908
-0.000034293717
-0.000030647592
-0.000032789431
-0.000037407465
-0.000037387224
-0.000034799212
-0.000036035388
-0.000040137188
-0.000039205739
-0.000035079701
-0.000035666828
-0.000038587787
-0.000036968261
-0.000032477212
-0.000033020261
-0.000036333511
-0.000035059089
-0.000030991531
-0.000031543744
-0.000035262336
-0.000033854619
-0.000029720827
-0.000030337164
-0.000033615125
-0.000033049423
-0.000028904526
-0.000029794445
-0.000034486109
-0.000034077059
-0.000031029902
-0.000032759324
-0.000037034805
-0.000036942075
-0.000032972492
-0.000033470686
-0.000037634723
-0.000036486685
-0.000032067381
-0.000032842578
-0.000036442757
-0.000035434102
-0.000031249073
-0.000031659445
-0.000035316760
-0.000033724243
-0.000029670245
-0.000030953939
-0.000034559096
-0.000034059418
-0.000029976521
-0.000030541313
-0.000034707085
-0.000033527865
-0.000029939952
-0.000031531216
-0.000036275038
-0.000036289928
-0.000032861490
-0.000034918786
-0.000038658853
-0.000037221029
-0.000033271822
-0.000033448934
-0.000037145729
-0.000035651041
-0.000030893505
-0.000032259533
-0.000036309291
-0.000035521164
-0.000031859974
-0.000032455918
-0.000036376140
-0.000035573773
-0.000031546042
-0.000032531315
-0.000036583747
-0.000035951551
-0.000032184199
-0.000033732015
-0.000037633699
-0.000036588847
-0.000032613124
-0.000033024883
-0.000036034349
-0.000034151704
-0.000030465827
-0.000031300126
-0.000034312095
-0.000033355694
-0.000029750416
-0.000030963760
-0.000035103542
-0.000035100606
-0.000032176197
-0.000033572691
-0.000037354228
-0.000036681973
-0.000032960595
-0.000033708744
-0.000038167930
-0.000037320000
-0.000033463015
-0.000035037251
-0.000038240079
-0.000036925483
-0.000033111032
-0.000033156617
-0.000036600699
-0.000036156855
-0.000031987371
-0.000033409254
-0.000037908039
-0.000037537486
-0.000033005472
-0.000028351796
-0.000017640617
0.000022449373
0.000108978102
0.000257489029
0.000507030568
0.000883111946
0.001345349826
0.001843876887
0.002448169229
0.003169222525
0.003864987718
0.004473998974
0.005063738647
0.005728452273
0.006375372615
0.006877550811
0.007354449262
0.007947997687
0.008762053463
0.009851341800
0.011208720245
0.012816598490
0.014513834922
0.015828108926
0.016066842543
0.015263844015
0.014387628123
0.014045755535
0.013951017794
0.014042021547
0.014811872134
0.015702346261
0.015487663947
0.014047024633
0.012079533687
0.010432383347
0.009424641644
0.008564162159
0.007539691832
0.006729473351
0.006960876216
0.008708388856
0.010796326157
0.011220822708
0.009493613443
0.006282254185
0.002260161090
-0.000875858651
-0.001413854617
-0.000665591161
-0.001130014342
-0.002760959066
-0.004292204605
-0.005470498590
-0.006752467312
-0.008178494141
-0.008630713673
-0.007228603679
-0.005230880089
-0.004156747023
-0.003210672979
-0.001177474412
0.001583972023
0.003865015721
0.004877384201
0.004974577524
0.005035933433
0.005519364713
0.005893390674
0.005582568672
0.004738322002
0.003451921576
0.002119677135
0.001548850310
0.002353791151
0.004385434580
0.006470000944
0.008297017396
0.010451420938
0.011950292724
0.011314435129
0.009542237298
0.009119737310
0.010130697738
0.010982118337
0.011680273728
0.012520424694
0.013342087377
0.013736997090
0.012462826694
0.009289983321
0.005527262562
0.002925633057
0.002042457014
0.001594308216
0.000625557421
-0.000722938676
-0.001492931020
-0.000912900546
0.000954802187
0.004446747591
0.008622694279
0.010975771116
0.010778702095
0.009388929503
0.008438367465
0.007594873312
0.005189565464
0.002289042765
0.001483515446
0.002352992113
0.003353479959
0.004378911046
0.005105064501
0.005742938676
0.006927213411
0.008232773723
0.009456367267
0.010423489208
0.010631895845
0.010932471213
0.012092518480
0.012715046121
0.011551348681
0.008707368732
0.005048098939
0.001789562626
-0.000430370227
-0.001297155253
-0.001216649109
-0.001414396386
-0.002612293015
-0.004786745012
-0.006985973468
-0.007095698982
-0.003834628400
0.001007565169
0.004199015987
0.004258611179
0.001940202826
-0.001043838689
-0.003751463570
-0.006754082661
-0.009227251911
-0.008265601124
-0.003893520028
0.000542176010
0.002489870108
0.000948619867
-0.003213985560
-0.006539243366
-0.006282283758
-0.003794712762
-0.001372113460
0.000217394799
0.000729553440
0.002141446438
0.006095105959
0.010154218795
0.012794687176
0.014567618900
0.013786235891
0.010366733988
0.008880331764
0.011762725146
0.015334367987
0.015694300121
0.014259759411
0.014466009800
0.016605650140
0.019337198750
0.023186547654
0.028553842736
0.033400740693
0.035172199786
0.032344408409
0.027672097158
0.027282410980
0.031136318318
0.033323922885
0.031478075968
0.028388860348
0.026508786419
0.023157179833
0.014653190333
0.003076215619
-0.006121209021
-0.008654326942
-0.004312243642
0.001695719298
0.005510916832
0.008709485502
0.012223830419
0.014261907910
0.012861073314
0.006964295164
-0.001204337944
-0.007227807428
-0.008498890412
-0.005372591249
-0.001228706391
0.001928577269
0.004451564548
0.005152600713
0.003364017112
-0.000366813131
-0.004636307499
-0.007648252892
-0.009472043424
-0.010014150379
-0.007768485003
-0.002840311311
0.003015671895
0.009095432901
0.014978739483
0.018997504117
0.019003584120
0.014618641070
0.007701380001
0.000628308496
-0.003424153986
-0.001969393312
0.002953812477
0.007536554593
0.010464045663
0.010911724801
0.008450304393
0.005094815915
0.003473075683
0.003690206437
0.004871228290
0.007427712182
0.010351743563
0.012060597934
0.013244118965
0.014694899708
0.016314501405
0.018474317315
0.020808195222
0.021686951016
0.019635536171
0.014059363895
0.006414449999
0.000252090767
-0.000139250420
0.004855689909
0.009149188798
0.010469234191
0.010276554259
0.009841157365
0.011303951694
0.013069391266
0.012909529685
0.013763113579
0.016219793233
0.016857432796
0.016892262396
0.019730776832
0.025193674568
0.033089979549
0.041185552731
0.042986352505
0.036146895831
0.025514322171
0.017272463996
0.014218278598
0.015159862149
0.016608085504
0.016503637902
0.017119316057
0.021088070750
0.026887944088
0.030990284277
0.033715463202
0.036122856183
0.034063768653
0.026353095991
0.017763616939
0.011091764290
0.005425639174
0.001173829925
0.001955445608
0.008754860530
0.018314633653
0.025702555174
0.027440691310
0.024344285085
0.019355023876
0.015934515347
0.015258121118
0.015970263026
0.018851811599
0.024475735242
0.029254144596
0.029262949224
0.024111659677
0.016015205297
0.007233516524
-0.000180192346
-0.002319682347
0.004062743235
0.016062766668
0.026875838273
0.034890563393
0.039811960054
0.036844686547
0.026675242232
0.015190883425
0.009422105226
0.014705064194
0.026184009850
0.037268025067
0.044533484644
0.045099660309
0.042898191989
0.045564194584
0.053400534719
0.055462945554
0.044358736560
0.027695380754
0.018390245408
0.021097234877
0.027645555760
0.033923311082
0.042488759952
0.045618018235
0.037211176893
0.026101172592
0.019895926863
0.017573989195
0.021666252425
0.032309741443
0.040566578375
0.042919137937
0.042843482292
0.041839769434
0.042021553963
0.046166659640
0.051673472505
0.057853555669
0.068937837143
0.086275194421
0.107333761271
0.123341256423
0.128516583359
0.126508587477
0.118801454847
0.107194499772
0.103384449436
0.116213118730
0.135515648449
0.150792085566
0.158766628955
0.153929372675
0.140326097561
0.123232700628
0.100579754904
0.074164719421
0.048458987981
0.025535881248
0.008151317289
-0.000374749390
0.003336354895
0.023177355047
0.050238168354
0.070818477360
0.080587344150
0.078589668228
0.069278631838
0.057180613176
0.047074398669
0.046144770259
0.054534045723
0.062451819300
0.063729131689
0.066877866610
0.070150222461
0.064692562381
0.056560223146
0.053202274502
0.054916709129
0.057195034499
0.056563791344
0.055133147010
0.061531447470
0.080800927956
0.109264845137
0.143913656954
0.182428392071
0.224192677148
0.261999536153
0.282262167831
0.282235435132
0.264061322669
0.232134826565
0.193127069925
0.151742690830
0.113831264864
0.089239808945
0.092939336668
0.120961817348
0.154541291344
0.180332485226
0.194980758139
0.205542206581
0.208030581533
0.199803295010
0.184722099291
0.166929399085
0.153941042567
0.150560604243
0.153525726446
0.144828467181
0.131061628789
0.124328190028
0.119902291329
0.126921146762
0.137845051573
0.146635728708
0.154459838464
0.152963566305
0.144432478329
0.130164449210
0.119556730382
0.119488288823
0.128083940379
0.145071376803
0.168001763831
0.187584919684
0.183289053485
0.160865878496
0.135659706980
0.108195957109
0.085864496419
0.070064448156
0.053871242586
0.032268756807
0.011871204516
0.003469685646
0.015779415752
0.052933430777
0.099345773704
0.138079334923
0.161148949243
0.167850815057
0.164072710214
0.152743567506
0.141745375431
0.137462128536
0.131102793052
0.116960857785
0.099345519785
0.078544150001
0.052204817461
0.022070107512
0.000191480833
-0.000370131137
0.016761191439
0.040747657500
0.060120042977
0.065167485386
0.061571737978
0.057715280720
0.050949544736
0.036968871774
0.019483462445
0.008890782422
0.007344260505
0.013936230218
0.031292623458
0.053956157036
0.078819259320
0.105444676664
0.123831077592
0.126581044901
0.116395238697
0.100093090268
0.077199759317
0.050148184928
0.024723290940
0.011210927589
0.028963069414
0.062299848146
0.088575029111
0.098228616121
0.083246773601
0.058770032214
0.033894403661
0.013428915922
0.001238533100
-0.002275661761
0.005644856480
0.025332150739
0.052932619710
0.076815207447
0.096747234156
0.108836860961
0.108980479104
0.098890750167
0.080322907046
0.068117204845
0.065924201503
0.066365591523
0.066200045469
0.073844885188
0.098278802949
0.129653770451
0.154851581113
0.163022774358
0.155649091712
0.140931435379
0.120367514315
0.102844511371
0.094762190021
0.094213578556
0.094196191538
0.092027154107
0.093649831371
0.090062795959
0.074467512531
0.052380548833
0.023627344409
-0.006006923097
-0.027162846260
-0.036922489181
-0.033965260068
-0.022860271811
-0.010475175369
0.001624360352
0.011276999875
0.019241604244
0.027996973612
0.040007724483
0.058460880919
0.080769205708
0.104067194487
0.120595818325
0.123150569444
0.116181310945
0.104463529873
0.094227067890
0.090043743769
0.085188208263
0.077052267915
0.075690196436
0.087862589061
0.105765719413
0.115946878011
0.115746630790
0.112276772871
0.112940612108
0.117782593481
0.118832829946
0.114504761600
0.110449435436
0.110570700428
0.113204876595
0.112874445047
0.107131516003
0.096543712103
0.088914195350
0.087336463995
0.080517858478
0.066927282412
0.052988753777
0.038807131670
0.029356688578
0.028288977085
0.030230331441
0.036105026616
0.047833845527
0.057406178489
0.058843591625
0.054816087422
0.047421978687
0.035229802289
0.020721435337
0.007084273696
0.000999918712
0.007270701492
0.011849320494
0.004669206977
-0.006345954530
-0.015002093690
-0.020972227348
-0.024357197484
-0.023197022915
-0.016479730123
-0.005021078354
0.011926615513
0.032576882533
0.052397138493
0.069379155438
0.082445012660
0.088717059721
0.087428527167
0.084489082701
0.085044818347
0.084562503049
0.079978596982
0.075402389646
0.072079701079
0.068670969221
0.064957474501
0.061646121484
0.059641242283
0.058147999245
0.056354102264
0.056852906222
0.060546264583
0.061871111251
0.057595940266
0.049374243615
0.038600023483
0.024608312664
0.008265588596
-0.000735424567
0.005357768963
0.024855962195
0.051448574587
0.073654916252
0.084846400142
0.085686467894
0.076411164862
0.057400249503
0.030867692742
0.001547910011
-0.027054467775
-0.048990016199
-0.058901866416
-0.054338922291
-0.033488143111
-0.012929539947
-0.003961240618
-0.000543201845
-0.002585266206
-0.002600164090
0.002270281690
0.007819379282
0.018236475284
0.033960497881
0.048787241308
0.054514604861
0.052488450073
0.044513318767
0.032146007407
0.024193836593
0.018497778539
0.012031711025
0.003010268460
-0.011678883891
-0.026890103379
-0.038845849016
-0.045082783818
-0.044435209269
-0.037594003214
-0.029827038423
-0.023954487274
-0.016844994742
-0.010994180900
-0.004384068513
0.003741105109
0.008765395129
0.011782469257
0.013851045109
0.013488617693
0.008866598797
0.000236112518
-0.009458855689
-0.016441293364
-0.018349730340
-0.015821047969
-0.011968607558
-0.010823219204
-0.010713613134
-0.005150931879
0.006883899121
0.022424947915
0.038223764456
0.049047443720
0.051739305297
0.047637596219
0.041074200173
0.035018854884
0.028229558693
0.019873992664
0.010453236500
0.000091933355
-0.009462245017
-0.015299269759
-0.015249631224
-0.010182686889
-0.005243659709
-0.004626799934
-0.007894958099
-0.011534209500
-0.013364016252
-0.016257325767
-0.021824725176
-0.025146414676
-0.020733872339
-0.008672293071
0.007031841012
0.020067595648
0.024984947087
0.022404865376
0.013706388432
0.000348465232
-0.015352099213
-0.031410580626
-0.041701796322
-0.041858896666
-0.033166011203
-0.018296015413
-0.001988062403
0.007412962507
0.006612553588
-0.000748202124
-0.011170638313
-0.019859713243
-0.023290621904
-0.020767447746
-0.013426304358
-0.004118791173
0.003747543940
0.009499593068
0.014727339435
0.018905703360
0.022990618884
0.026053653751
0.025707519739
0.022019377027
