EVENT_NAME: EMILIA_2ND_SHOCK
EVENT_ID: IT-2012-0011
EVENT_DATE_YYYYMMDD: 20120529
EVENT_TIME_HHMMSS: 070002
EVENT_LATITUDE_DEGREE: 44.8417
EVENT_LONGITUDE_DEGREE: 11.0657
EVENT_DEPTH_KM: 8.1
HYPOCENTER_REFERENCE: INGV-CNT_Seismic_Bulletin
MAGNITUDE_W: 6.0
MAGNITUDE_W_REFERENCE: RCMT-INGV
MAGNITUDE_L: 5.8
MAGNITUDE_L_REFERENCE: INGV-CNT_Seismic_Bulletin
FOCAL_MECHANISM: TF
NETWORK: IT
STATION_CODE: MRN
STATION_NAME: MIRANDOLA (NAPOLI)
STATION_LATITUDE_DEGREE: 44.878231
STATION_LONGITUDE_DEGREE: 11.061743
STATION_ELEVATION_M: 15
LOCATION: 
SENSOR_DEPTH_M: 0.0
VS30_M/S: 208
SITE_CLASSIFICATION_EC8: C
MORPHOLOGIC_CLASSIFICATION: 
EPICENTRAL_DISTANCE_KM: 4.1
EARTHQUAKE_BACKAZIMUTH_DEGREE: 175.6
DATE_TIME_FIRST_SAMPLE_YYYYMMDD_HHMMSS: 20120529_065948.000
DATE_TIME_FIRST_SAMPLE_PRECISION: seconds
SAMPLING_INTERVAL_S: 0.005000
NDATA: 13713
DURATION_S: 68.565
STREAM: HNE
UNITS: cm
INSTRUMENT: sensor = MS2007+ [Syscom] | digitizer = 130-01/3 [Reftek]
INSTRUMENT_ANALOG/DIGITAL: D
INSTRUMENTAL_FREQUENCY_HZ: 
INSTRUMENTAL_DAMPING: 
FULL_SCALE_G: 
N_BIT_DIGITAL_CONVERTER: 24
PGD_CM: 9.166983
TIME_PGD_S: 20.255000
BASELINE_CORRECTION: BASELINE REMOVED
FILTER_TYPE: BUTTERWORTH
FILTER_ORDER: 2
LOW_CUT_FREQUENCY_HZ: 0.070
HIGH_CUT_FREQUENCY_HZ: 40.000
LATE/NORMAL_TRIGGERED: NT
DATABASE_VERSION: DYNA 1.0
HEADER_FORMAT: DYNA 1.2
DATA_TYPE: DISPLACEMENT
PROCESSING: manual (Paolucci et al., 2011)
DATA_TIMESTAMP_YYYYMMDD_HHMMSS: 20141204_104205.354
DATA_LICENSE: CC-BY3_0-IT (http://creativecommons.org/licenses/by/3.0/deed.en)
DATA_CITATION: ESM working group (2015), European Strong-Motion database, version 0.1, Network Activity 3: Networking acceleration networks and SM data users. Project NERA (www.nera-eu.org)
DATA_CREATOR: ESM working group
ORIGINAL_DATA_MEDIATOR_CITATION: Ufficio Rischio Sismico e Vulcanico del Dipartimento della Protezione Civile (http://www.protezionecivile.gov.it/)
ORIGINAL_DATA_MEDIATOR: Rete Accelerometrica Nazionale - RAN Download (http://www.mot1.it/randownload/)
ORIGINAL_DATA_CREATOR_CITATION: Italian Strong Motion Network, Italian Civil Protection Department http://www.protezionecivile.gov.it
ORIGINAL_DATA_CREATOR: network: IT (Italian Strong Motion Network); owner: Dipartimento Della Protezione Civile
USER1: /home/dyna/processing-itaca/processing.py /var/www/processing/tmp/fpacor//IT.MRN..HNE.D.20120529.070003.X.ACC.ASC /var/www/processing/tmp/fpacor//IT.MRN..HNN.D.20120529.070003.X.ACC.ASC /var/www/processing/tmp/fpacor//IT.MRN..HNZ.D.20120529.070003.X.ACC.ASC --tmp /var/www/processing/tmp/fpacor/ --le 0.070 --he 40.000 --ln 0.070 --hn 40.000 --lz 0.070 --hz 40.000 --fo 2 --ca -15 --cz 100 --ta 5 --tz 5 --mf 1 --rf 0 --tr NT
USER2: 
USER3: 
USER4: 
USER5: 
[...]
0.000005149407
0.000005190130
0.000005243466
0.000005281451
0.000005304764
0.000005342643
0.000005391690
0.000005420949
0.000005435105
0.000005463428
0.000005499754
0.000005519294
0.000005526513
0.000005548471
0.000005585995
0.000005611666
0.000005626657
0.000005662123
0.000005712435
0.000005748503
0.000005773381
0.000005813450
0.000005865359
0.000005900745
0.000005919842
0.000005951804
0.000005995426
0.000006022659
0.000006035262
0.000006062696
0.000006102502
0.000006127600
0.000006140701
0.000006168010
0.000006205615
0.000006225926
0.000006232776
0.000006253878
0.000006285818
0.000006304775
0.000006309640
0.000006331260
0.000006368247
0.000006388493
0.000006397980
0.000006422150
0.000006459444
0.000006482346
0.000006489513
0.000006511934
0.000006542756
0.000006559599
0.000006563943
0.000006580554
0.000006613502
0.000006628459
0.000006627751
0.000006642327
0.000006666739
0.000006675968
0.000006670471
0.000006682008
0.000006705305
0.000006712315
0.000006711643
0.000006726221
0.000006755944
0.000006775838
0.000006783057
0.000006808051
0.000006847917
0.000006873119
0.000006886811
0.000006916467
0.000006958963
0.000006988474
0.000007005315
0.000007035394
0.000007077979
0.000007104153
0.000007114109
0.000007142057
0.000007185251
0.000007210218
0.000007222664
0.000007252467
0.000007293436
0.000007318984
0.000007331310
0.000007356194
0.000007393273
0.000007416562
0.000007426489
0.000007453580
0.000007493647
0.000007518367
0.000007531690
0.000007560608
0.000007601870
0.000007626269
0.000007636587
0.000007661667
0.000007699523
0.000007722869
0.000007732240
0.000007758149
0.000007795996
0.000007818079
0.000007828006
0.000007851672
0.000007886380
0.000007903326
0.000007907184
0.000007926256
0.000007956124
0.000007972748
0.000007972331
0.000007984280
0.000008008998
0.000008014228
0.000008006201
0.000008011504
0.000008029821
0.000008035627
0.000008027078
0.000008037936
0.000008062454
0.000008073478
0.000008074797
0.000008090083
0.000008117276
0.000008126001
0.000008120981
0.000008129984
0.000008149964
0.000008158053
0.000008151985
0.000008160494
0.000008184012
0.000008191342
0.000008184018
0.000008192832
0.000008211946
0.000008211128
0.000008195743
0.000008197402
0.000008214556
0.000008227957
0.000008253883
0.000008336559
0.000008496640
0.000008718083
0.000008980182
0.000009279051
0.000009638913
0.000010052022
0.000010454372
0.000010825722
0.000011210117
0.000011674313
0.000012187437
0.000012691578
0.000013234737
0.000013887809
0.000014749556
0.000015849423
0.000017141033
0.000018597497
0.000020136764
0.000021473407
0.000022078084
0.000021841600
0.000021420964
0.000021487801
0.000022070330
0.000023040223
0.000024638312
0.000026530723
0.000027633240
0.000027347695
0.000026146900
0.000025197839
0.000025182746
0.000025760441
0.000026363056
0.000026931926
0.000027851352
0.000029292406
0.000030690402
0.000031153495
0.000030446019
0.000028997239
0.000027157123
0.000025836390
0.000026538315
0.000029006021
0.000031362368
0.000032627886
0.000032905679
0.000032604349
0.000032032509
0.000031440409
0.000031993809
0.000034731475
0.000038207723
0.000039950275
0.000039621325
0.000038822196
0.000038788872
0.000039182203
0.000039280785
0.000039540410
0.000040807824
0.000042937952
0.000045006776
0.000046520913
0.000047560954
0.000048119986
0.000048338039
0.000048750505
0.000050239117
0.000053000483
0.000055743442
0.000057482382
0.000058227099
0.000057580121
0.000054748556
0.000050256008
0.000046492492
0.000045029419
0.000045201999
0.000045825271
0.000046434091
0.000047489716
0.000048741249
0.000048991699
0.000048256428
0.000047659585
0.000048596241
0.000051562961
0.000055581506
0.000059522600
0.000062612839
0.000064857792
0.000066842461
0.000069348510
0.000073547694
0.000079267232
0.000084542124
0.000087835521
0.000088896476
0.000088656458
0.000088028042
0.000086765954
0.000085724437
0.000087399009
0.000092398689
0.000098890419
0.000105029654
0.000109885769
0.000113849305
0.000117473151
0.000120357788
0.000122756716
0.000125159811
0.000127251949
0.000129239183
0.000131385741
0.000132988958
0.000133276085
0.000131797794
0.000128998747
0.000126043223
0.000123448782
0.000121322391
0.000119526516
0.000117487632
0.000114503182
0.000109868841
0.000103977326
0.000099011293
0.000096976738
0.000097699440
0.000099023736
0.000098403539
0.000094950929
0.000089599685
0.000083458262
0.000077295842
0.000072979926
0.000073236712
0.000078205538
0.000084701802
0.000088767515
0.000088046853
0.000083255707
0.000077499762
0.000073977682
0.000073855085
0.000076443089
0.000079830411
0.000082245192
0.000084240003
0.000087051819
0.000090864735
0.000095606395
0.000101354563
0.000107183275
0.000111617042
0.000115877754
0.000122638733
0.000130942774
0.000136906263
0.000139582266
0.000141046876
0.000142676675
0.000144660408
0.000147278534
0.000151884244
0.000158306083
0.000163229554
0.000162829551
0.000157913268
0.000154904119
0.000157572805
0.000163555951
0.000168712253
0.000171974032
0.000174777027
0.000175052269
0.000169370994
0.000158904163
0.000149360585
0.000146715579
0.000152209885
0.000162118836
0.000172151946
0.000181116237
0.000189780621
0.000197872244
0.000204419215
0.000209780451
0.000216019930
0.000226076309
0.000241811283
0.000263058922
0.000287105117
0.000309876272
0.000329378528
0.000344603167
0.000355111781
0.000361955556
0.000366862214
0.000371689495
0.000375908578
0.000377502052
0.000376270436
0.000373046339
0.000368835863
0.000365029438
0.000362611918
0.000361677969
0.000360365177
0.000356271170
0.000348758607
0.000338364419
0.000327053210
0.000317229066
0.000310166232
0.000304757827
0.000298252175
0.000289919415
0.000279873568
0.000268079940
0.000256334798
0.000245229295
0.000233824658
0.000222538385
0.000210445025
0.000196633338
0.000182773377
0.000170819678
0.000162901439
0.000160563269
0.000163656164
0.000170407317
0.000178390670
0.000186230871
0.000194158346
0.000204294942
0.000218633460
0.000236750833
0.000256041393
0.000273044769
0.000287445924
0.000303440354
0.000323553618
0.000346648916
0.000371827892
0.000399117304
0.000428636399
0.000458095696
0.000484873309
0.000511042650
0.000540158125
0.000573979895
0.000610484841
0.000643636931
0.000668645001
0.000685048548
0.000696756034
0.000708695261
0.000723109573
0.000739076819
0.000753946539
0.000767458118
0.000781525135
0.000796787291
0.000812680480
0.000829304182
0.000847153308
0.000863768668
0.000876532154
0.000886629972
0.000896150786
0.000907144696
0.000920659779
0.000937747036
0.000960726035
0.000988572570
0.001016573250
0.001038783204
0.001053495092
0.001064173538
0.001072879686
0.001080228746
0.001086502337
0.001094748828
0.001107321091
0.001119706941
0.001128712860
0.001133949033
0.001135146525
0.001135888690
0.001139676119
0.001150425431
0.001173462293
0.001205624634
0.001238779865
0.001268677644
0.001294193917
0.001315428203
0.001334078754
0.001353426492
0.001377070038
0.001410729930
0.001453471252
0.001496802681
0.001536432722
0.001569811401
0.001598907065
0.001633111444
0.001678246754
0.001731003069
0.001782948723
0.001830184841
0.001878253078
0.001932405456
0.001990112097
0.002046855314
0.002101849205
0.002153266110
0.002195943288
0.002232453421
0.002270438548
0.002313855650
0.002368716725
0.002436054343
0.002507872374
0.002578399922
0.002645628172
0.002711561553
0.002780894385
0.002857164482
0.002940767268
0.003028211620
0.003118992424
0.003212917374
0.003307835474
0.003400427496
0.003484168270
0.003562434945
0.003641415219
0.003722853773
0.003816259474
0.003930365431
0.004061522728
0.004193913235
0.004314643461
0.004418577002
0.004503886090
0.004577233317
0.004643163361
0.004703187060
0.004762904852
0.004825630692
0.004893394922
0.004968294549
0.005049169566
0.005137326690
0.005233704697
0.005328517963
0.005411519265
0.005479009180
0.005534015470
0.005583788532
0.005637195938
0.005707513475
0.005799281792
0.005910025000
0.006026657404
0.006135668850
0.006242881996
0.006344492895
0.006437716880
0.006530839447
0.006623410588
0.006712186595
0.006793718880
0.006869013752
0.006940314914
0.007014306100
0.007099534532
0.007194115077
0.007297049422
0.007412629954
0.007541786963
0.007675363067
0.007804074106
0.007924391777
0.008036357327
0.008147732397
0.008261760801
0.008384032970
0.008521899816
0.008675854927
0.008847858187
0.009024553922
0.009191044296
0.009342350021
0.009474680994
0.009590175666
0.009690544318
0.009781651981
0.009869911517
0.009965149106
0.010075920591
0.010202748014
0.010339235529
0.010469648113
0.010607046371
0.010770697209
0.010961172160
0.011182201208
0.011416571828
0.011652234081
0.011890123062
0.012121112385
0.012343623335
0.012560295487
0.012781059963
0.013011609128
0.013252409986
0.013505087394
0.013759628336
0.014006890723
0.014244362879
0.014476502251
0.014709882875
0.014946716098
0.015185757513
0.015423744906
0.015657414062
0.015884911995
0.016109100349
0.016337664346
0.016578403494
0.016825464100
0.017062701148
0.017277654816
0.017469201835
0.017645870860
0.017814839707
0.017983104739
0.018159696199
0.018349892481
0.018552934819
0.018767004520
0.018989066721
0.019213464831
0.019437548527
0.019664858385
0.019904952072
0.020163516617
0.020429063853
0.020683339604
0.020913088501
0.021109551713
0.021275989190
0.021419376638
0.021541093568
0.021644965051
0.021739547220
0.021832930492
0.021928383355
0.022029714099
0.022138152708
0.022254182460
0.022383128994
0.022518983553
0.022656025804
0.022796818893
0.022943347405
0.023098770099
0.023263251286
0.023445780719
0.023654283853
0.023903746610
0.024195925841
0.024496274874
0.024793636286
0.025081396722
0.025349435881
0.025604137257
0.025852972605
0.026107340205
0.026374234946
0.026658554895
0.026959062200
0.027276572556
0.027597105357
0.027902954451
0.028201280122
0.028495232275
0.028790988791
0.029090594987
0.029400656826
0.029735846685
0.030091906257
0.030466350799
0.030860343114
0.031280087237
0.031729287932
0.032194657428
0.032665424843
0.033134097804
0.033595403518
0.034050642277
0.034506288124
0.034971342101
0.035451032881
0.035944150685
0.036441666729
0.036943225770
0.037453406654
0.037966115044
0.038481654025
0.039003155209
0.039528766314
0.040065207939
0.040618349538
0.041183285142
0.041755888074
0.042326858983
0.042884894304
0.043435082019
0.043987248224
0.044546268937
0.045113101470
0.045687990354
0.046266586065
0.046835451753
0.047382239649
0.047894202965
0.048366510231
0.048810003871
0.049241979043
0.049678839656
0.050126921745
0.050588023965
0.051066777548
0.051569735068
0.052098265024
0.052640446960
0.053185822101
0.053734837579
0.054294509652
0.054872520218
0.055466880965
0.056070525669
0.056681068053
0.057299017894
0.057923358911
0.058550997548
0.059179201303
0.059806641652
0.060437323075
0.061077006357
0.061722187264
0.062368832469
0.063021360737
0.063682505908
0.064353428588
0.065041682688
0.065748322766
0.066467614566
0.067198134508
0.067930738738
0.068654100131
0.069362199837
0.070046455186
0.070702922190
0.071333754624
0.071939302598
0.072520796281
0.073081441809
0.073616667732
0.074118350538
0.074585225825
0.075021098506
0.075431560811
0.075823558931
0.076205485189
0.076581731825
0.076953767303
0.077324055295
0.077692833778
0.078056195803
0.078408027044
0.078744717083
0.079064185223
0.079364081382
0.079645064994
0.079910064415
0.080156420765
0.080378162537
0.080573514434
0.080742935768
0.080889203561
0.081015075418
0.081121985553
0.081213504285
0.081296081417
0.081379155492
0.081474634294
0.081595505177
0.081749987153
0.081942070560
0.082174503521
0.082447116804
0.082760193768
0.083114161291
0.083512009385
0.083953108161
0.084426290308
0.084917568020
0.085403467697
0.085863698576
0.086295386309
0.086697987832
0.087074728247
0.087429961457
0.087764961340
0.088082022158
0.088382456761
0.088670901586
0.088950385144
0.089227458080
0.089509836616
0.089794632111
0.090085459216
0.090386052247
0.090700268400
0.091035430199
0.091389452620
0.091765008986
0.092160196897
0.092566436454
0.092971176662
0.093360403860
0.093738242900
0.094105922606
0.094467294707
0.094827165129
0.095172049054
0.095497388432
0.095800506898
0.096076988140
0.096328219373
0.096549127364
0.096738736010
0.096900798810
0.097033641302
0.097131579025
0.097193839684
0.097220691684
0.097209848948
0.097165364730
0.097089698953
0.096984262165
0.096854895626
0.096703532440
0.096529932453
0.096335040675
0.096119575804
0.095887359294
0.095643160543
0.095389480260
0.095127124494
0.094849875123
0.094552424897
0.094237854083
0.093907700554
0.093563226166
0.093203063245
0.092820895997
0.092414953274
0.091986296553
0.091536795696
0.091068610760
0.090581953069
0.090076946209
0.089553458002
0.089009563572
0.088444291854
0.087858291624
0.087249481142
0.086615022476
0.085950620343
0.085250381989
0.084512777042
0.083740981538
0.082941789777
0.082122135594
0.081289960878
0.080454756046
0.079623144925
0.078801186594
0.077993282748
0.077199025789
0.076412786703
0.075631081157
0.074857287564
0.074098323990
0.073364991972
0.072667526920
0.072017249379
0.071421827856
0.070880583076
0.070380008541
0.069888388376
0.069379597666
0.068836005785
0.068243302172
0.067597665021
0.066898604458
0.066148178043
0.065347433849
0.064495830468
0.063597000637
0.062655687984
0.061675603772
0.060660399861
0.059615309776
0.058546893315
0.057459478089
0.056357318793
0.055243252636
0.054115893102
0.052976820978
0.051828982392
0.050672549272
0.049506330870
0.048327048922
0.047130417543
0.045912910707
0.044671153693
0.043402393517
0.042108635917
0.040798074836
0.039478268318
0.038151279701
0.036821960199
0.035497256741
0.034181827546
0.032883549561
0.031609758984
0.030367047659
0.029161193654
0.027993685328
0.026862187470
0.025759745002
0.024677813242
0.023604917180
0.022531326151
0.021450486163
0.020352620922
0.019228999222
0.018068970408
0.016862195189
0.015604810551
0.014294927865
0.012938131225
0.011547741840
0.010135473543
0.008712832945
0.007288307693
0.005868608816
0.004466061913
0.003092801656
0.001762088962
0.000478043384
-0.000766853915
-0.001974268903
-0.003148499436
-0.004295038679
-0.005418018762
-0.006525215243
-0.007621244445
-0.008708882940
-0.009788233610
-0.010856385595
-0.011909997645
-0.012946846323
-0.013966777319
-0.014967092724
-0.015946664382
-0.016910451361
-0.017857677594
-0.018783724143
-0.019688122031
-0.020568034971
-0.021416340232
-0.022225535047
-0.022991573261
-0.023715144522
-0.024402350074
-0.025058593643
-0.025686656602
-0.026287740165
-0.026858549709
-0.027399936420
-0.027915046446
-0.028404822936
-0.028871024573
-0.029315960113
-0.029745042821
-0.030162690511
-0.030572818530
-0.030981472769
-0.031394006338
-0.031817201907
-0.032257850036
-0.032720339387
-0.033206506174
-0.033715427990
-0.034245059765
-0.034794226828
-0.035365335351
-0.035962061700
-0.036586166615
-0.037240210080
-0.037928486574
-0.038653805927
-0.039415299055
-0.040211437455
-0.041037896518
-0.041888389004
-0.042757877204
-0.043638870984
-0.044528512514
-0.045422934182
-0.046313495022
-0.047196451461
-0.048066686701
-0.048919604506
-0.049752485653
-0.050562750078
-0.051348883139
-0.052107059088
-0.052835318690
-0.053532727152
-0.054199761666
-0.054841285456
-0.055461827379
-0.056061808174
-0.056640450148
-0.057197594632
-0.057729322347
-0.058231146954
-0.058702818339
-0.059145424197
-0.059560161075
-0.059950692982
-0.060320546302
-0.060668682703
-0.060993266370
-0.061295352192
-0.061578028419
-0.061844048160
-0.062094432936
-0.062329357737
-0.062549376410
-0.062757989982
-0.062959958208
-0.063156793943
-0.063346123098
-0.063524836631
-0.063693495082
-0.063856138679
-0.064017391951
-0.064180084605
-0.064343921731
-0.064505354969
-0.064660587713
-0.064808988485
-0.064950643695
-0.065084562121
-0.065207454159
-0.065314913148
-0.065402933561
-0.065465398670
-0.065497619997
-0.065497870870
-0.065464594702
-0.065396940202
-0.065297421593
-0.065170281575
-0.065018142859
-0.064843761309
-0.064648131771
-0.064429082657
-0.064182639494
-0.063907602341
-0.063609051479
-0.063294175400
-0.062969212537
-0.062637124469
-0.062298811964
-0.061954933680
-0.061605813244
-0.061251880678
-0.060893304449
-0.060530534099
-0.060163015351
-0.059790372253
-0.059413032360
-0.059032578187
-0.058651825171
-0.058269152531
-0.057879581415
-0.057476332411
-0.057051719905
-0.056602293821
-0.056127212600
-0.055628258093
-0.055107483801
-0.054563721902
-0.053996953499
-0.053408754388
-0.052800720825
-0.052171640873
-0.051519752684
-0.050849344644
-0.050167364622
-0.049478894847
-0.048786127316
-0.048091259012
-0.047398499152
-0.046710773468
-0.046030480264
-0.045360663448
-0.044705612312
-0.044070657223
-0.043459321084
-0.042874120318
-0.042316386173
-0.041785977836
-0.041283870399
-0.040811831704
-0.040372115281
-0.039966889741
-0.039596869387
-0.039260938499
-0.038952988850
-0.038661654158
-0.038375822735
-0.038088393050
-0.037796290413
-0.037498764483
-0.037194993299
-0.036882877911
-0.036561287983
-0.036232270727
-0.035899089927
-0.035563025717
-0.035223040411
-0.034877578184
-0.034525823294
-0.034167625587
-0.033801789673
-0.033424378136
-0.033027660923
-0.032603323090
-0.032149298716
-0.031668510825
-0.031164696663
-0.030643226944
-0.030110534453
-0.029571979477
-0.029032322871
-0.028497224049
-0.027971548833
-0.027458649042
-0.026961770896
-0.026486254928
-0.026036844960
-0.025610071068
-0.025199546301
-0.024801434843
-0.024410839327
-0.024022610666
-0.023633403875
-0.023241097652
-0.022841374652
-0.022429482074
-0.022001793540
