EVENT_NAME: EMILIA_2ND_SHOCK
EVENT_ID: IT-2012-0011
EVENT_DATE_YYYYMMDD: 20120529
EVENT_TIME_HHMMSS: 070002
EVENT_LATITUDE_DEGREE: 44.8417
EVENT_LONGITUDE_DEGREE: 11.0657
EVENT_DEPTH_KM: 8.1
HYPOCENTER_REFERENCE: INGV-CNT_Seismic_Bulletin
MAGNITUDE_W: 6.0
MAGNITUDE_W_REFERENCE: RCMT-INGV
MAGNITUDE_L: 5.8
MAGNITUDE_L_REFERENCE: INGV-CNT_Seismic_Bulletin
FOCAL_MECHANISM: TF
NETWORK: IT
STATION_CODE: MRN
STATION_NAME: MIRANDOLA (NAPOLI)
STATION_LATITUDE_DEGREE: 44.878231
STATION_LONGITUDE_DEGREE: 11.061743
STATION_ELEVATION_M: 15
LOCATION: 
SENSOR_DEPTH_M: 0.0
VS30_M/S: 208
SITE_CLASSIFICATION_EC8: C
MORPHOLOGIC_CLASSIFICATION: 
EPICENTRAL_DISTANCE_KM: 4.1
EARTHQUAKE_BACKAZIMUTH_DEGREE: 175.6
DATE_TIME_FIRST_SAMPLE_YYYYMMDD_HHMMSS: 20120529_065948.000
DATE_TIME_FIRST_SAMPLE_PRECISION: seconds
SAMPLING_INTERVAL_S: 0.005000
NDATA: 13713
DURATION_S: 68.565
STREAM: HNN
UNITS: cm/s
INSTRUMENT: sensor = MS2007+ [Syscom] | digitizer = 130-01/3 [Reftek]
INSTRUMENT_ANALOG/DIGITAL: D
INSTRUMENTAL_FREQUENCY_HZ: 
INSTRUMENTAL_DAMPING: 
FULL_SCALE_G: 
N_BIT_DIGITAL_CONVERTER: 24
PGV_CM/S: -57.510645
TIME_PGV_S: 21.230000
BASELINE_CORRECTION: BASELINE REMOVED
FILTER_TYPE: BUTTERWORTH
FILTER_ORDER: 2
LOW_CUT_FREQUENCY_HZ: 0.070
HIGH_CUT_FREQUENCY_HZ: 40.000
LATE/NORMAL_TRIGGERED: NT
DATABASE_VERSION: DYNA 1.0
HEADER_FORMAT: DYNA 1.2
DATA_TYPE: VELOCITY
PROCESSING: manual (Paolucci et al., 2011)
DATA_TIMESTAMP_YYYYMMDD_HHMMSS: 20141204_104205.354
DATA_LICENSE: CC-BY3_0-IT (http://creativecommons.org/licenses/by/3.0/deed.en)
DATA_CITATION: ESM working group (2015), European Strong-Motion database, version 0.1, Network Activity 3: Networking acceleration networks and SM data users. Project NERA (www.nera-eu.org)
DATA_CREATOR: ESM working group
ORIGINAL_DATA_MEDIATOR_CITATION: Ufficio Rischio Sismico e Vulcanico del Dipartimento della Protezione Civile (http://www.protezionecivile.gov.it/)
ORIGINAL_DATA_MEDIATOR: Rete Accelerometrica Nazionale - RAN Download (http://www.mot1.it/randownload/)
ORIGINAL_DATA_CREATOR_CITATION: Italian Strong Motion Network, Italian Civil Protection Department http://www.protezionecivile.gov.it
ORIGINAL_DATA_CREATOR: network: IT (Italian Strong Motion Network); owner: Dipartimento Della Protezione Civile
USER1: /home/dyna/processing-itaca/processing.py /var/www/processing/tmp/fpacor//IT.MRN..HNE.D.20120529.070003.X.ACC.ASC /var/www/processing/tmp/fpacor//IT.MRN..HNN.D.20120529.070003.X.ACC.ASC /var/www/processing/tmp/fpacor//IT.MRN..HNZ.D.20120529.070003.X.ACC.ASC --tmp /var/www/processing/tmp/fpacor/ --le 0.070 --he 40.000 --ln 0.070 --hn 40.000 --lz 0.070 --hz 40.000 --fo 2 --ca -15 --cz 100 --ta 5 --tz 5 --mf 1 --rf 0 --tr NT
USER2: 
USER3: 
USER4: 
USER5: 
[...]
0.063462733052
0.078706534887
0.112828864008
0.174042600433
0.228974731399
0.263155066233
0.299722786156
0.345045771524
0.370203193081
0.369795174407
0.369907904855
0.384617508965
0.416814210402
0.456438169817
0.488433318054
0.513224701667
0.532355266549
0.541354211535
0.532355893574
0.510008370395
0.498210415233
0.508084475207
0.532485175005
0.561050158952
0.592734208499
0.633147906607
0.664621660652
0.673132979419
0.677543673171
0.683923397801
0.680234920186
0.654527125425
0.611559090596
0.594746237613
0.607484790856
0.602011168074
0.575166874964
0.556714338015
0.565925045544
0.601870717967
0.638186418091
0.656167498596
0.664037786438
0.659992348502
0.642249522231
0.631987608726
0.632891026522
0.638677638908
0.645369378682
0.643859744351
0.637187386170
0.623572290079
0.598486572189
0.575722135327
0.565174367434
0.568431172349
0.590650369963
0.619402261600
0.640122649142
0.660253773615
0.673403195477
0.665722234778
0.645708750220
0.629154905378
0.617546181995
0.602295724220
0.577821882305
0.541041056472
0.512571417173
0.503404812456
0.487605452957
0.460693605838
0.442871820836
0.457977245685
0.506281857052
0.551632577427
0.564912535961
0.540770260324
0.499018295138
0.470083038412
0.480033235542
0.538650915407
0.614326293260
0.680877555377
0.749163705453
0.801650311485
0.799336364210
0.752886105989
0.704830850894
0.672572390353
0.638037128981
0.623243275458
0.684845720946
0.778023163037
0.817234814228
0.808752291953
0.798883896083
0.802482625694
0.806896023625
0.804960442891
0.814242935010
0.876902280734
0.984303309215
1.060169546416
1.084168259062
1.111852668082
1.183265748899
1.242698141341
1.226155922028
1.184966828063
1.178314966578
1.204774571254
1.240121231006
1.246910208303
1.216797231649
1.209045896539
1.274249740813
1.368128979029
1.433302532922
1.459649318521
1.450993003007
1.399620854671
1.303459285828
1.195787326228
1.103618295703
1.036784242769
1.014418037812
1.068866805759
1.182055374748
1.274387590032
1.296928101950
1.244377745757
1.142562863954
1.011686422620
0.887247379897
0.828840959294
0.820234379412
0.828924327089
0.866841588155
0.919750043959
0.935249941147
0.883884453425
0.802254008511
0.730242892887
0.652700569488
0.570271261884
0.520869149420
0.508008746595
0.526511984605
0.601332778127
0.722703741026
0.827444641135
0.889902881071
0.926468683468
0.928828813749
0.913146264196
0.927207049862
0.970685489346
1.012329627888
1.049199028619
1.099102214588
1.179073753071
1.292974604325
1.410785702102
1.495806065030
1.543077843760
1.572957036850
1.589626285732
1.588094519173
1.580524540017
1.543346164183
1.476664914437
1.456203128645
1.518948223283
1.628940319514
1.725300846420
1.786646279897
1.846014793932
1.911001281763
1.943632455565
1.934051873154
1.934268308659
1.979250652835
2.055824507590
2.157343525543
2.259063444700
2.317533815890
2.347446832996
2.379842046775
2.391049589997
2.367914020043
2.332696250049
2.282380683481
2.216295965294
2.172346330573
2.170756091571
2.187221728272
2.218976745297
2.293369708937
2.379161388583
2.405351335929
2.360614523634
2.273500131672
2.127961454080
1.929651586214
1.766084070390
1.719158555296
1.809683716640
1.951946118897
2.058411172958
2.148144096719
2.230698433230
2.265615038850
2.216575858461
2.093435522207
1.976016999465
1.938482070852
1.936477000793
1.915424309494
1.923859264878
1.977244824998
2.005633104108
1.978561684451
1.926405154590
1.891148496895
1.903003532101
1.903111468635
1.894002659331
1.990612478652
2.183559341091
2.370025174930
2.481035717130
2.476964254712
2.379096432700
2.256647701507
2.119876521483
2.003663016620
1.997366863229
2.110646851195
2.329804950955
2.651300922198
2.936564273285
3.035990680209
3.015625837156
2.993312473227
2.998646377111
2.932961439230
2.776533899987
2.722514222527
2.812601946252
2.968343914066
3.206754262152
3.471556625643
3.604461986948
3.591116795944
3.543661796699
3.514406511750
3.503526056664
3.540136577671
3.659400532958
3.794208735771
3.867954662833
3.889345568641
3.871440139543
3.815243992237
3.764453312192
3.737549036979
3.692358829045
3.626673253807
3.581465160800
3.626194044320
3.709667377367
3.734307844442
3.781938478440
3.852355806787
3.857565203411
3.834844376847
3.899740979042
4.153778043280
4.499919340790
4.735696319961
4.813595601627
4.796677561772
4.753820886078
4.704939299195
4.621017760965
4.549453757348
4.576244945439
4.719314584193
4.943492756575
5.154046112881
5.371924239035
5.651315611301
5.862923367825
5.901620122996
5.805493321969
5.700716800268
5.535544585874
5.320123662514
5.161498671020
4.983917102483
4.960455343959
5.084347684118
5.117091888243
5.046843115592
4.898562590342
4.719529839721
4.532608029832
4.466274087563
4.564676215166
4.705532450661
4.858158043104
4.962876399403
5.077297366186
5.373927385952
5.689933423949
5.890195985872
6.114831364311
6.271182486086
6.377914358150
6.579760226874
6.744765017732
6.704688720442
6.398573697700
6.273725634337
6.649426297375
6.994149759741
7.223035302794
7.749854924365
8.463288589620
9.090396130838
9.581634926237
9.920615676981
10.044610051431
10.109902125011
10.229100968192
10.297976909858
10.331946398856
10.231782691027
10.127254454172
10.243115755197
10.308781106997
10.266886768511
10.178182042890
10.068734776918
10.050667310826
10.020187543077
9.937049129050
9.775202909930
9.622601849121
9.526201346043
9.466794242144
9.490298596436
9.342539877516
9.125837898797
9.052120845621
8.967005017620
8.835362383176
8.714027810332
8.737082617907
8.886479186152
9.122357859390
9.481426419747
9.959518191042
10.597023410823
11.185089808168
11.646012458441
12.092878945141
12.538065094765
13.100037380620
13.617571752259
13.834527571063
13.879929658167
13.854891010604
13.681753902688
13.407473742517
13.119792064408
12.735417716452
12.172254717338
11.355437156476
10.278262784258
9.235659293617
8.494398836726
7.852348559151
7.044588273851
6.271941373384
5.745685674892
5.383593114280
4.946093601758
4.281511190360
3.588557907581
2.955475232982
2.252849535862
1.432597627258
0.516146603513
-0.347478504258
-1.042609014018
-1.571240497064
-2.013258789385
-2.387746904328
-2.603505947129
-2.705506320100
-2.654691376158
-2.490955103472
-2.313292925555
-1.989241434920
-1.490141643609
-0.741230469688
0.078395370860
0.695841907118
1.347993144940
2.213488953974
3.241486209084
4.359251127656
5.427451092395
6.317440006920
7.131651527933
7.901969689743
8.448100653871
8.778351720529
9.021769919444
9.304532557249
9.596360736336
9.739751327722
9.607585067077
9.199114029163
8.572509315136
7.655607514086
6.722354332320
6.088663855517
5.639369544173
5.217888091329
4.671173621499
4.134775945193
3.780348134697
3.558185501022
3.573471618814
3.871523228733
4.406408209034
4.864454577143
5.074716869194
5.426086539549
5.960978808881
6.527421166302
7.145849828614
7.799850104962
8.595160098194
9.479735942993
10.243640264612
10.823252757995
11.211637415998
11.463368231699
11.679233418778
11.993777364039
12.442225695479
12.942190019110
13.440316895643
13.839888795358
14.181550999008
14.406170888864
14.292458600243
13.882436877881
13.351712666714
12.821314231237
12.281822265230
11.805758195887
11.507329059603
11.269795480783
11.062316081131
11.092400876110
11.407727017917
11.799716391694
12.096595067077
12.257539174635
12.521332782091
13.055242512017
13.570097223093
13.890491563428
14.159744572677
14.527582305342
14.980889064958
15.386812305085
15.680552382792
15.873605280393
15.971256193574
16.002196005023
15.983592942802
15.893098254702
15.791415109443
15.664387715500
15.612658407450
15.795904346559
15.951784291760
16.021790107180
16.297548046047
16.711448883642
17.015478581177
17.200077867483
17.200080686486
16.909714088218
16.512469354436
16.050226509664
15.376056627227
14.629587603638
13.982279771274
13.342019954242
12.614869657607
11.810348015855
10.971340794520
10.171359113716
9.399569770926
8.576932965045
7.702241369192
6.839428362155
6.045941107015
5.342139508707
4.710600828397
4.157440192429
3.718013137452
3.369312593934
3.106044220688
2.971384354040
2.821723647285
2.512704629396
2.183757531406
1.954214102393
1.824224423621
1.805216071425
1.863621164025
1.957564403847
2.078990170880
2.211525724933
2.337858072815
2.494157910184
2.724993871070
3.010552669038
3.316761272163
3.635483529031
3.964843981030
4.316279168749
4.714796879870
5.140564752617
5.542581722665
5.928272612537
6.256397295466
6.392921626929
6.421548846436
6.549428816299
6.742979637138
6.912341379568
7.042988254949
7.108600975588
7.071677750630
6.926324799935
6.781858302191
6.706032311161
6.838445523403
7.364176936165
8.061262534486
8.769843787489
9.630424184485
10.592767552206
11.555123640681
12.516868568695
13.496772530486
14.447936166225
15.287823363297
16.031588992802
16.702222732072
17.451391312784
18.438602103322
19.498083889602
20.398957381378
21.169691439128
21.942052807622
22.710663333004
23.446682327015
24.108966212622
24.669926108105
25.204101960450
25.735915814030
26.189181489778
26.594392906396
27.067892136174
27.529219003776
27.974578956193
28.404680491715
28.668690357450
28.780180716685
28.743593575939
28.536879682844
28.133918423655
27.480337660270
26.630068092317
25.731547455732
24.920540270776
24.183384175318
23.471331538050
22.777891347967
22.157444777284
21.622455069500
21.011971573687
20.233329318108
19.348901428362
18.461059423048
17.631502826844
16.835446269555
16.039623411810
15.222446455369
14.368069596944
13.514617763244
12.708680378494
11.926062638009
11.152651149681
10.427866609244
9.763348918983
9.195537782690
8.714785818557
8.282726958346
7.941044105291
7.629790175391
7.273727535725
6.788407353150
6.125116924316
5.405572995789
4.649508335511
3.929256686153
3.301250132258
2.644042370407
1.973866356558
1.365273156534
0.889561065135
0.547694153802
0.255694538010
0.038091526150
-0.051053331300
-0.033934064881
0.112847275972
0.375534789807
0.542893760415
0.570598075580
0.624982192965
0.823838190632
1.137599851217
1.379485109308
1.472557530760
1.385643872647
1.054234263362
0.580861899293
0.124223870249
-0.371792153838
-1.003475468588
-1.677685297376
-2.323997626618
-2.941846800447
-3.667046160318
-4.651497695332
-5.702086651077
-6.700115917371
-7.784677651368
-8.999231129686
-10.288110725145
-11.496588157636
-12.571998646050
-13.587665681962
-14.571432420128
-15.568636071337
-16.565122545102
-17.541111094404
-18.488058802523
-19.406909978723
-20.317219751557
-21.163229699826
-21.920023895782
-22.573822617132
-23.066624560636
-23.348023288778
-23.370986795694
-23.166683731185
-22.832439434411
-22.447529748586
-22.076197658858
-21.641651640271
-21.039406477944
-20.355079979027
-19.664204021950
-19.005349469998
-18.375428514404
-17.690909645046
-16.977552300548
-16.287808913729
-15.596826753733
-14.909447406608
-14.347253151833
-13.977091459392
-13.801235730108
-13.866396171809
-14.169028090592
-14.760668731525
-15.587233358545
-16.580099878934
-17.590052854846
-18.426621320432
-19.256818789714
-20.064936685892
-20.828681722220
-21.646305553890
-22.524577692672
-23.429616535331
-24.195840399722
-24.902139602088
-25.577852641893
-26.219059167006
-26.936825211993
-27.576522558949
-28.020236494194
-28.343871788914
-28.515994856611
-28.544317387833
-28.650618607682
-28.844684034741
-29.104027316535
-29.573264409246
-30.225906930621
-30.941173839846
-31.636343768147
-32.350073385643
-33.020633875920
-33.568806860071
-34.091161755633
-34.449240836707
-34.594884410782
-34.743474365150
-34.902598852636
-35.040690364153
-35.149058749545
-35.189706735526
-35.231966846061
-35.299383576493
-35.373997904845
-35.499407158098
-35.710277947069
-36.020388763750
-36.443136697483
-36.923590612874
-37.374541488079
-37.870335779243
-38.486064464641
-39.100788658623
-39.614662640172
-40.069486248864
-40.571807376826
-41.137679010470
-41.703828750331
-42.289057080931
-42.928469701993
-43.632408029577
-44.397145760344
-45.203231628254
-46.065318804618
-46.960068160045
-47.825032296649
-48.676259418443
-49.518435747508
-50.343741064237
-51.180835943130
-51.989953320925
-52.755299062349
-53.479738527213
-54.138871121230
-54.700876602629
-55.157515477527
-55.586560005368
-55.977389857639
-56.261473805177
-56.460202412092
-56.637221972110
-56.839606851765
-56.979637671738
-56.936704431957
-56.761622909537
-56.525874091729
-56.187315955584
-55.712697649670
-55.121748618058
-54.459025486297
-53.785063653871
-53.136774590660
-52.500672572597
-51.825925798681
-51.094115607995
-50.329034629301
-49.560429887651
-48.799908434795
-47.978416733083
-47.040803471948
-46.035156228110
-44.997407738148
-43.941811857786
-42.905622889199
-41.861235661531
-40.718638484755
-39.481542297407
-38.250771797707
-37.064212105238
-35.886869616964
-34.701946060863
-33.502382324074
-32.277968461298
-31.063832596036
-29.880274296425
-28.702901489496
-27.536865157977
-26.382611310328
-25.238302599570
-24.093468386658
-22.917478193541
-21.736559460587
-20.568241200969
-19.390565332820
-18.207078333173
-17.014149543178
-15.826554487517
-14.665026722670
-13.503018338229
-12.308243392295
-11.028057497727
-9.661440054896
-8.280335056837
-6.890078096473
-5.455538938066
-3.995537432328
-2.562275005217
-1.171379969777
0.180564960300
1.479470265427
2.720624528321
3.935878038257
5.177208663014
6.449158255252
7.702362491112
8.865660611015
9.870029324115
10.666647850111
11.265684057504
11.758320190344
12.195757589126
12.557052795100
12.841563361488
13.061014644221
13.236739360470
13.366093680302
13.431615140952
13.508479819026
13.635057874711
13.734438350613
13.769268829243
13.763864095925
13.755584373530
13.769579353438
13.816192543601
13.893290714676
14.011267275322
14.201883581471
14.461329070653
14.794392773336
15.186060797117
15.579199792807
15.989335605803
16.427130518895
16.862556188465
17.289836459370
17.692452413259
18.085024518526
18.482614788990
18.849571006977
19.153089108045
19.372062694813
19.506464134507
19.560015182363
19.543555678538
19.468088662179
19.337894260007
19.194801722614
19.019928658178
18.743615637368
18.344056753077
17.804785507694
17.173681271224
16.514163788119
15.831664024476
15.183992461978
14.624810841859
14.168696305430
13.859142677066
13.739486378620
13.791110377178
13.987414692845
14.283480663134
14.568803769423
14.920936518298
15.386700678303
15.822807033243
16.308394910714
16.899534352304
17.480842627491
18.054444236505
18.659468506502
19.259334362788
19.796152797383
20.273973915421
20.721392594431
21.150843033409
21.569840183329
21.939345715207
22.227376491321
22.479512734114
22.747846847699
23.025009021298
23.312035770908
23.658247146143
24.048605234535
24.389413565840
24.679319279402
24.983745757247
25.294499291231
25.553705443974
25.697432935897
25.726955045841
25.680686467653
25.579262001620
25.465916227827
25.330530274537
25.162579612897
25.003018706614
24.858900008882
24.755953575221
24.687250961079
24.613128747425
24.585556810863
24.651206060536
24.825918108720
25.106362816890
25.440855789604
25.834458911634
26.321010875538
26.894122339996
27.525849585857
28.159344093538
28.766577615104
29.394799217111
30.037179581330
30.614393533123
31.115290053114
31.567017785133
32.023555776625
32.524646642492
33.024316769701
33.480094890098
33.852706071353
34.120046477940
34.286159268368
34.343944019592
34.305017005940
34.181236078069
34.018596560116
33.848519706515
33.622708389080
33.331338670324
33.035234831467
32.750761679621
32.421950503579
32.017104204377
31.535726855652
31.001097221449
30.458921403296
29.933524312806
29.446354297707
29.007913046865
28.604648716973
28.219985488779
27.835628284785
27.394327480882
26.838060876769
26.194656045533
25.505587846511
24.757849827145
23.929147393859
23.022678630530
22.081590310229
21.128241488788
20.138597127267
19.135641704136
18.148843458036
17.167807507559
16.202549966158
15.274196225845
14.424520117694
13.665849194774
12.982779392814
12.386038196196
11.826917033533
11.271803717217
10.722516116491
10.138491366364
9.516447854307
8.861472093570
8.181555176518
7.509069354605
6.869799176447
6.314133550724
5.864227989967
5.505609362572
5.255728250733
5.139670895200
5.153318599001
5.289307920035
5.534429964609
5.845424314786
6.189123159649
6.530853134447
6.816549413171
7.029335502027
7.193457843807
7.346043266421
7.514790529747
7.693102378953
7.846336395872
7.943594840937
7.980863185662
7.979296874362
7.958934164230
7.926908859610
7.891490728327
7.841398787800
7.742138350819
7.569660025857
7.343713371162
7.109768197510
6.859299890435
6.555711900504
6.197890729043
5.815933170556
5.427713298007
4.990702861464
4.487545499963
3.949819574876
3.369127392732
2.722807135476
2.036355452774
1.389846137053
0.827379469487
0.331053216563
-0.124523901013
-0.546494888700
-0.904813969684
-1.202393006986
-1.459714806889
-1.696568175991
-1.945613060016
-2.214977306330
-2.506473745924
-2.778345481546
-3.025789240876
-3.290462959028
-3.567540842585
-3.863513446796
-4.170991309844
-4.495511540936
-4.861574964203
-5.260393565253
-5.675149194833
-6.081027026880
-6.490085244823
-6.900306314448
-7.275326851388
-7.622781673042
-7.958567367490
-8.300515180760
-8.634802926128
-8.891649647478
-9.071076987865
-9.205627690538
-9.247926158759
-9.165468015483
-8.972360183744
-8.727504983403
-8.460775283097
-8.044801057737
-7.424434780459
-6.711522616214
-5.978259433546
-5.242308039271
-4.505584674074
-3.750957543157
-2.966200832947
-2.136152840594
-1.240296919929
-0.281347235539
0.719195140106
1.705559946645
2.633226716669
3.494514744301
