EVENT_NAME: EMILIA_2ND_SHOCK
EVENT_ID: IT-2012-0011
EVENT_DATE_YYYYMMDD: 20120529
EVENT_TIME_HHMMSS: 070002
EVENT_LATITUDE_DEGREE: 44.8417
EVENT_LONGITUDE_DEGREE: 11.0657
EVENT_DEPTH_KM: 8.1
HYPOCENTER_REFERENCE: INGV-CNT_Seismic_Bulletin
MAGNITUDE_W: 6.0
MAGNITUDE_W_REFERENCE: RCMT-INGV
MAGNITUDE_L: 5.8
MAGNITUDE_L_REFERENCE: INGV-CNT_Seismic_Bulletin
FOCAL_MECHANISM: TF
NETWORK: IT
STATION_CODE: MRN
STATION_NAME: MIRANDOLA (NAPOLI)
STATION_LATITUDE_DEGREE: 44.878231
STATION_LONGITUDE_DEGREE: 11.061743
STATION_ELEVATION_M: 15
LOCATION: 
SENSOR_DEPTH_M: 0.0
VS30_M/S: 208
SITE_CLASSIFICATION_EC8: C
MORPHOLOGIC_CLASSIFICATION: 
EPICENTRAL_DISTANCE_KM: 4.1
EARTHQUAKE_BACKAZIMUTH_DEGREE: 175.6
DATE_TIME_FIRST_SAMPLE_YYYYMMDD_HHMMSS: 20120529_065948.000
DATE_TIME_FIRST_SAMPLE_PRECISION: seconds
SAMPLING_INTERVAL_S: 0.005000
NDATA: 13713
DURATION_S: 68.565
STREAM: HNZ
UNITS: cm
INSTRUMENT: sensor = MS2007+ [Syscom] | digitizer = 130-01/3 [Reftek]
INSTRUMENT_ANALOG/DIGITAL: D
INSTRUMENTAL_FREQUENCY_HZ: 
INSTRUMENTAL_DAMPING: 
FULL_SCALE_G: 
N_BIT_DIGITAL_CONVERTER: 24
PGD_CM: 5.802346
TIME_PGD_S: 20.085000
BASELINE_CORRECTION: BASELINE REMOVED
FILTER_TYPE: BUTTERWORTH
FILTER_ORDER: 2
LOW_CUT_FREQUENCY_HZ: 0.070
HIGH_CUT_FREQUENCY_HZ: 40.000
LATE/NORMAL_TRIGGERED: NT
DATABASE_VERSION: DYNA 1.0
HEADER_FORMAT: DYNA 1.2
DATA_TYPE: DISPLACEMENT
PROCESSING: manual (Paolucci et al., 2011)
DATA_TIMESTAMP_YYYYMMDD_HHMMSS: 20141204_104205.354
DATA_LICENSE: CC-BY3_0-IT (http://creativecommons.org/licenses/by/3.0/deed.en)
DATA_CITATION: ESM working group (2015), European Strong-Motion database, version 0.1, Network Activity 3: Networking acceleration networks and SM data users. Project NERA (www.nera-eu.org)
DATA_CREATOR: ESM working group
ORIGINAL_DATA_MEDIATOR_CITATION: Ufficio Rischio Sismico e Vulcanico del Dipartimento della Protezione Civile (http://www.protezionecivile.gov.it/)
ORIGINAL_DATA_MEDIATOR: Rete Accelerometrica Nazionale - RAN Download (http://www.mot1.it/randownload/)
ORIGINAL_DATA_CREATOR_CITATION: Italian Strong Motion Network, Italian Civil Protection Department http://www.protezionecivile.gov.it
ORIGINAL_DATA_CREATOR: network: IT (Italian Strong Motion Network); owner: Dipartimento Della Protezione Civile
USER1: /home/dyna/processing-itaca/processing.py /var/www/processing/tmp/fpacor//IT.MRN..HNE.D.20120529.070003.X.ACC.ASC /var/www/processing/tmp/fpacor//IT.MRN..HNN.D.20120529.070003.X.ACC.ASC /var/www/processing/tmp/fpacor//IT.MRN..HNZ.D.20120529.070003.X.ACC.ASC --tmp /var/www/processing/tmp/fpacor/ --le 0.070 --he 40.000 --ln 0.070 --hn 40.000 --lz 0.070 --hz 40.000 --fo 2 --ca -15 --cz 100 --ta 5 --tz 5 --mf 1 --rf 0 --tr NT
USER2: 
USER3: 
USER4: 
USER5: 
0.000000000000
-0.000000014462
-0.000000043474
-0.000000071301
-0.000000070210
-0.000000075968
-0.000000097189
-0.000000112903
-0.000000110343
-0.000000118091
-0.000000147896
-0.000000178602
-0.000000189208
-0.000000210230
-0.000000257219
-0.000000307931
-0.000000343898
-0.000000391721
-0.000000459130
-0.000000522151
-0.000000563557
-0.000000607945
-0.000000671142
-0.000000730713
-0.000000770526
-0.000000821219
-0.000000897626
-0.000000975701
-0.000001037098
-0.000001106612
-0.000001194025
-0.000001276045
-0.000001336699
-0.000001395906
-0.000001470235
-0.000001537166
-0.000001576671
-0.000001615065
-0.000001665290
-0.000001709709
-0.000001733338
-0.000001759638
-0.000001809839
-0.000001859729
-0.000001892275
-0.000001934340
-0.000001995814
-0.000002054918
-0.000002094469
-0.000002137496
-0.000002200330
-0.000002259823
-0.000002296555
-0.000002332899
-0.000002386835
-0.000002432580
-0.000002455667
-0.000002487737
-0.000002543446
-0.000002600645
-0.000002641251
-0.000002692291
-0.000002768522
-0.000002842070
-0.000002897680
-0.000002956043
-0.000003034175
-0.000003107789
-0.000003157414
-0.000003214013
-0.000003288240
-0.000003358179
-0.000003409451
-0.000003465293
-0.000003547272
-0.000003627691
-0.000003688340
-0.000003753075
-0.000003835350
-0.000003913114
-0.000003964429
-0.000004014245
-0.000004080933
-0.000004141304
-0.000004181894
-0.000004232324
-0.000004307135
-0.000004383370
-0.000004448771
-0.000004524574
-0.000004623927
-0.000004721158
-0.000004801206
-0.000004889281
-0.000004997819
-0.000005103904
-0.000005188661
-0.000005280028
-0.000005393072
-0.000005497965
-0.000005581747
-0.000005671720
-0.000005780856
-0.000005885009
-0.000005968837
-0.000006056506
-0.000006163167
-0.000006263037
-0.000006340253
-0.000006422124
-0.000006524094
-0.000006624926
-0.000006705130
-0.000006788156
-0.000006892485
-0.000006993137
-0.000007074468
-0.000007159907
-0.000007267714
-0.000007373697
-0.000007455547
-0.000007543167
-0.000007651202
-0.000007753619
-0.000007839275
-0.000007930750
-0.000008044888
-0.000008157235
-0.000008249373
-0.000008349776
-0.000008472112
-0.000008590106
-0.000008689953
-0.000008798148
-0.000008926185
-0.000009049542
-0.000009155970
-0.000009268494
-0.000009402210
-0.000009535081
-0.000009650956
-0.000009771011
-0.000009907582
-0.000010038844
-0.000010147286
-0.000010255540
-0.000010379317
-0.000010496101
-0.000010591745
-0.000010689122
-0.000010803448
-0.000010915801
-0.000011013892
-0.000011122690
-0.000011254468
-0.000011382586
-0.000011491933
-0.000011604035
-0.000011730671
-0.000011848553
-0.000011941124
-0.000012034858
-0.000012144796
-0.000012245355
-0.000012324982
-0.000012414086
-0.000012526675
-0.000012637607
-0.000012735909
-0.000012841460
-0.000012967562
-0.000013091111
-0.000013195689
-0.000013306160
-0.000013431493
-0.000013554040
-0.000013657518
-0.000013763739
-0.000013892982
-0.000014020200
-0.000014130921
-0.000014244088
-0.000014376141
-0.000014504660
-0.000014613670
-0.000014732919
-0.000014873490
-0.000015013644
-0.000015137674
-0.000015265477
-0.000015411928
-0.000015553075
-0.000015676481
-0.000015806731
-0.000015955991
-0.000016100107
-0.000016225233
-0.000016352866
-0.000016498671
-0.000016641407
-0.000016764177
-0.000016896153
-0.000017052497
-0.000017207075
-0.000017347385
-0.000017498299
-0.000017671734
-0.000017841158
-0.000017990081
-0.000018140616
-0.000018309600
-0.000018474263
-0.000018615305
-0.000018759461
-0.000018918243
-0.000019064829
-0.000019189425
-0.000019313463
-0.000019454652
-0.000019594501
-0.000019714002
-0.000019839036
-0.000019987436
-0.000020135548
-0.000020268592
-0.000020409961
-0.000020570970
-0.000020729341
-0.000020870528
-0.000021016440
-0.000021182403
-0.000021343629
-0.000021484569
-0.000021629315
-0.000021791601
-0.000021947647
-0.000022084277
-0.000022224066
-0.000022380589
-0.000022534326
-0.000022668546
-0.000022806643
-0.000022967866
-0.000023125994
-0.000023262643
-0.000023407114
-0.000023568940
-0.000023720333
-0.000023850129
-0.000023979149
-0.000024123420
-0.000024258621
-0.000024370654
-0.000024486551
-0.000024621186
-0.000024754974
-0.000024869821
-0.000024990431
-0.000025133205
-0.000025270045
-0.000025389180
-0.000025513921
-0.000025656720
-0.000025798724
-0.000025922153
-0.000026051744
-0.000026204097
-0.000026354713
-0.000026491654
-0.000026636306
-0.000026802527
-0.000026968241
-0.000027116617
-0.000027270418
-0.000027445153
-0.000027616621
-0.000027769859
-0.000027933807
-0.000028120844
-0.000028307780
-0.000028481776
-0.000028661953
-0.000028862639
-0.000029058668
-0.000029234066
-0.000029412400
-0.000029605339
-0.000029790180
-0.000029952567
-0.000030117668
-0.000030299335
-0.000030474631
-0.000030629589
-0.000030787307
-0.000030963619
-0.000031132892
-0.000031281496
-0.000031433182
-0.000031601258
-0.000031766505
-0.000031911027
-0.000032060000
-0.000032232430
-0.000032402815
-0.000032557965
-0.000032721762
-0.000032906936
-0.000033091646
-0.000033256508
-0.000033423862
-0.000033612035
-0.000033794469
-0.000033954806
-0.000034119019
-0.000034301232
-0.000034478403
-0.000034634648
-0.000034792946
-0.000034969529
-0.000035138151
-0.000035286502
-0.000035441271
-0.000035614067
-0.000035784364
-0.000035934247
-0.000036086953
-0.000036260489
-0.000036428128
-0.000036577828
-0.000036735484
-0.000036916859
-0.000037098309
-0.000037262616
-0.000037437210
-0.000037630504
-0.000037816609
-0.000037982969
-0.000038150213
-0.000038335942
-0.000038514197
-0.000038668665
-0.000038829962
-0.000039011509
-0.000039189115
-0.000039348414
-0.000039510694
-0.000039692575
-0.000039870444
-0.000040028174
-0.000040190830
-0.000040373749
-0.000040553507
-0.000040714428
-0.000040883088
-0.000041071256
-0.000041254201
-0.000041417266
-0.000041582391
-0.000041762562
-0.000041933321
-0.000042085650
-0.000042242151
-0.000042413711
-0.000042580490
-0.000042729242
-0.000042884061
-0.000043059578
-0.000043235081
-0.000043395962
-0.000043563826
-0.000043750597
-0.000043934007
-0.000044098810
-0.000044267353
-0.000044458193
-0.000044644793
-0.000044812108
-0.000044987294
-0.000045178495
-0.000045363122
-0.000045528677
-0.000045694460
-0.000045877464
-0.000046058248
-0.000046218185
-0.000046385231
-0.000046574772
-0.000046762459
-0.000046927486
-0.000047069245
-0.000047157448
-0.000047045202
-0.000046500311
-0.000045212866
-0.000042677713
-0.000038262153
-0.000031535404
-0.000022316020
-0.000010075174
0.000005770939
0.000025095878
0.000047465873
0.000072784566
0.000101426827
0.000133303690
0.000167691444
0.000204463691
0.000244203679
0.000288013946
0.000337270655
0.000393314257
0.000457397249
0.000529966424
0.000609106968
0.000689441181
0.000765760401
0.000837698542
0.000907927319
0.000977682408
0.001047892516
0.001121951877
0.001200463608
0.001277901928
0.001348137051
0.001408534719
0.001460696636
0.001507819844
0.001550640655
0.001588339114
0.001621986481
0.001656790862
0.001700332806
0.001754314437
0.001810418551
0.001857886618
0.001889297889
0.001900598694
0.001896219401
0.001889150128
0.001885822172
0.001880172100
0.001866367305
0.001844906282
0.001817553789
0.001783791453
0.001742898982
0.001699745413
0.001663602395
0.001637447995
0.001616664260
0.001600610895
0.001594723523
0.001602643383
0.001621968461
0.001646355382
0.001671228270
0.001696407937
0.001724004761
0.001753471714
0.001781384557
0.001805076167
0.001822335775
0.001832934161
0.001840678413
0.001852447368
0.001874374541
0.001906724546
0.001948209633
0.002000466738
0.002060218201
0.002116790377
0.002164501563
0.002210100250
0.002260753739
0.002315664330
0.002374065699
0.002436667822
0.002503378259
0.002572063245
0.002634377378
0.002680827295
0.002708463608
0.002723091773
0.002733304058
0.002741275599
0.002744403386
0.002740788693
0.002733324038
0.002728759535
0.002733533546
0.002755767284
0.002798880755
0.002853759611
0.002907653121
0.002954597769
0.002996789606
0.003034763973
0.003060711800
0.003072157014
0.003079574591
0.003091339552
0.003108106951
0.003130001507
0.003155526829
0.003184241522
0.003218877590
0.003260041458
0.003307323294
0.003359440741
0.003412600220
0.003467262576
0.003527725168
0.003591300399
0.003649057142
0.003692593986
0.003717834481
0.003726782294
0.003724630443
0.003718144666
0.003712061421
0.003704989439
0.003691927974
0.003667994249
0.003633064381
0.003597585886
0.003578412744
0.003583450570
0.003604445650
0.003625738706
0.003635439720
0.003630220527
0.003611463209
0.003577692796
0.003531556536
0.003490228530
0.003470760930
0.003473471810
0.003485921161
0.003490664260
0.003474594332
0.003441898116
0.003410486697
0.003391513133
0.003384652566
0.003385739540
0.003389387307
0.003400094539
0.003430570069
0.003481341163
0.003545314599
0.003618152693
0.003687083873
0.003738917543
0.003783319201
0.003842132827
0.003918804667
0.003997276168
0.004068574965
0.004140905014
0.004223933265
0.004320619258
0.004436551997
0.004579321210
0.004746324914
0.004922185913
0.005083907955
0.005222268440
0.005358680495
0.005514362087
0.005680981701
0.005838372081
0.005980316383
0.006112860315
0.006228646214
0.006301912166
0.006317293244
0.006286687199
0.006243415564
0.006221854346
0.006230332942
0.006257887527
0.006301434954
0.006362554106
0.006433863646
0.006498169012
0.006532990488
0.006526968798
0.006490829761
0.006448335309
0.006421472353
0.006415328821
0.006424971707
0.006447229530
0.006472992534
0.006489812619
0.006487978554
0.006464797016
0.006426555752
0.006379195534
0.006329124783
0.006290282358
0.006276080801
0.006291159161
0.006336636325
0.006411530022
0.006506517543
0.006601535464
0.006674628669
0.006713135569
0.006716277111
0.006699156342
0.006689309375
0.006704078437
0.006741761210
0.006794081439
0.006848640063
0.006890891585
0.006916365664
0.006933731043
0.006952182075
0.006976538216
0.007013676777
0.007065435495
0.007125738485
0.007191959079
0.007265433578
0.007347006085
0.007439377672
0.007543418648
0.007651853403
0.007750031084
0.007820327903
0.007852400153
0.007853660607
0.007852964355
0.007877242804
0.007922988748
0.007975334919
0.008026717691
0.008075923477
0.008132443236
0.008197790192
0.008262337841
0.008331153409
0.008412252375
0.008496539539
0.008581000851
0.008679654735
0.008805623108
0.008971073005
0.009177000769
0.009391932532
0.009572667011
0.009700238622
0.009786600942
0.009857692335
0.009933491645
0.010016532073
0.010099050262
0.010184646843
0.010290087196
0.010424526917
0.010579478338
0.010748055654
0.010928669935
0.011098988778
0.011230754258
0.011319572343
0.011375031165
0.011402159360
0.011408028510
0.011417805738
0.011461580041
0.011553153209
0.011681665985
0.011818869441
0.011940590867
0.012037365986
0.012117038563
0.012193329169
0.012273180484
0.012367439542
0.012489818218
0.012636088941
0.012782403687
0.012902961985
0.012983038012
0.013019205594
0.013018304633
0.013006706221
0.013027019937
0.013107333770
0.013241712962
0.013416165779
0.013615225579
0.013799449012
0.013932825223
0.014008779640
0.014055890166
0.014129415487
0.014260335536
0.014446675662
0.014669343085
0.014894841387
0.015109332347
0.015337153319
0.015604155993
0.015881470721
0.016103264404
0.016241741307
0.016333692534
0.016439178709
0.016577406488
0.016747023043
0.016959466843
0.017187556934
0.017373612818
0.017504118681
0.017603598316
0.017691468262
0.017799799524
0.017961348231
0.018164181123
0.018378776813
0.018592994224
0.018802193071
0.019012300841
0.019243134139
0.019501501502
0.019790769280
0.020135458466
0.020566834438
0.021103503244
0.021720209526
0.022362792443
0.022995335381
0.023589342655
0.024125315154
0.024642237401
0.025223302994
0.025900881237
0.026654841665
0.027448674809
0.028218321673
0.028919952161
0.029536115664
0.030039014438
0.030409838035
0.030652132975
0.030779812381
0.030820568968
0.030818695221
0.030835376995
0.030951263771
0.031202454612
0.031556546999
0.031959483720
0.032352432061
0.032698825220
0.032984728286
0.033220100279
0.033450824131
0.033723494359
0.034035753456
0.034354399114
0.034688788447
0.035039539560
0.035363002372
0.035645803487
0.035911814860
0.036186398405
0.036472373578
0.036755192535
0.037030858270
0.037338515507
0.037742520147
0.038288844373
0.039008412657
0.039920554618
0.041041518003
0.042351515684
0.043762826523
0.045174003699
0.046494310312
0.047654984445
0.048620619795
0.049379333249
0.049948489573
0.050394688618
0.050859385301
0.051464194388
0.052236900845
0.053138563271
0.054113467062
0.055141178095
0.056181331002
0.057180347477
0.058103957974
0.058938604969
0.059708310182
0.060461113203
0.061228741835
0.061952884171
0.062608192315
0.063229833265
0.063829344722
0.064463950456
0.065153175714
0.065886354357
0.066658653550
0.067423471381
0.068145633773
0.068796456019
0.069394239671
0.069991681115
0.070632100817
0.071357457701
0.072197466520
0.073135391118
0.074051836386
0.074856165778
0.075534464313
0.076075444099
0.076504766581
0.076855088822
0.077124445034
0.077285788818
0.077345144841
0.077362493269
0.077441390348
0.077706057502
0.078202786370
0.078893183045
0.079698927791
0.080538181867
0.081358545418
0.082122263255
0.082830990132
0.083518300775
0.084173814740
0.084758619029
0.085255346628
0.085648067378
0.085909091465
0.086019442003
0.086020399407
0.086018548751
0.086102354709
0.086306092996
0.086606693211
0.086932530638
0.087240389328
0.087528965731
0.087783713455
0.087968557814
0.088065975126
0.088110429038
0.088147150341
0.088216831492
0.088373294609
0.088643075394
0.089037171691
0.089564395074
0.090183550462
0.090816455687
0.091398431880
0.091898897332
0.092284896128
0.092535637053
0.092659253508
0.092715308146
0.092860123493
0.093171622733
0.093614497879
0.094105640960
0.094521874828
0.094815724989
0.094985197007
0.095052341586
0.095058534252
0.095047155943
0.095075380226
0.095202040979
0.095466704078
0.095850780115
0.096334516286
0.096878700591
0.097423602986
0.097918056737
0.098319671272
0.098660257296
0.098989878304
0.099321706262
0.099652706489
0.100021930915
0.100513324930
0.101161593782
0.101935851687
0.102750965559
0.103529211018
0.104233868195
0.104835705766
0.105349928323
0.105823739273
0.106294807166
0.106765788124
0.107225923894
0.107694173051
0.108144487031
0.108516824594
0.108778727338
0.108896864060
0.108866829444
0.108731015213
0.108546402767
0.108376576467
0.108262275108
0.108209899231
0.108218021033
0.108274406032
0.108370614053
0.108510598921
0.108710637544
0.109002941948
0.109406787977
0.109927123949
0.110530103041
0.111145855888
0.111726762443
0.112249080092
0.112720215432
0.113170434150
0.113596375192
0.113981636531
0.114360087514
0.114799400459
0.115328229056
0.115907963446
0.116486696600
0.117048080464
0.117612783525
0.118201696492
0.118795860642
0.119368384450
0.119920631627
0.120473485129
0.121039509512
0.121603881737
0.122139539317
0.122622257878
0.123066828855
0.123503511175
0.123906100467
0.124240736879
0.124505680648
0.124699716306
0.124846499749
0.124987944635
0.125139096292
0.125319621425
0.125558790653
0.125845821545
0.126140039503
0.126414119940
0.126651229834
0.126827378845
0.126930986022
0.126966407390
0.126971406984
0.127007760491
0.127067007094
0.127090353129
0.127058623356
0.126983612888
0.126878751751
0.126756965763
0.126640980649
0.126558581998
0.126533476607
0.126593109684
0.126755994097
0.127017979789
0.127364875566
0.127777100630
0.128220685928
0.128657828564
0.129080273978
0.129505498069
0.129928310585
0.130328203570
0.130705215518
0.131065614023
0.131408968869
0.131733756242
0.132041986849
0.132340193061
0.132630933057
0.132912703568
0.133196968099
0.133499699422
0.133809054978
0.134097034680
0.134343905898
0.134536906015
0.134659947579
0.134701275522
0.134697598399
0.134724387244
0.134848667055
0.135105909927
0.135474184509
0.135898416509
0.136326848849
0.136708904673
0.136995905921
0.137150244384
0.137157983934
0.137022711596
0.136777761515
0.136483252183
0.136211557571
0.136044116856
0.135979469156
0.135959662953
0.135956946943
0.135944020612
0.135931019792
0.135942371200
0.135981468097
0.136072650473
0.136242452963
0.136486389169
0.136758962194
0.137021404444
0.137243971038
0.137404701075
0.137525670258
0.137618159150
0.137678317706
0.137693369048
0.137634974628
0.137500524112
0.137306294866
0.137080880947
0.136858704901
0.136670734885
0.136521599693
0.136401827256
0.136317602283
0.136262631378
0.136240711036
0.136259416561
0.136303243537
0.136362155883
0.136431411109
0.136498854197
0.136543187191
0.136544367754
0.136497073475
0.136414867008
0.136323118357
0.136244013117
0.136184170079
0.136130053983
0.136076485917
0.136050731258
0.136085150754
0.136197275493
0.136388394315
0.136633631534
0.136892328061
0.137130516042
0.137335887043
0.137510981317
0.137652129110
0.137751499074
0.137803765256
0.137804224923
0.137756913698
0.137680417349
0.137604169193
0.137553255759
0.137527037460
0.137503903460
0.137464428670
0.137406757622
0.137339937541
0.137258650912
0.137149527286
0.137023795213
0.136920125851
0.136876764386
0.136911923591
0.137012261569
0.137137186305
0.137249210632
0.137317742574
0.137319484900
0.137242724404
0.137085671501
0.136877162519
0.136667868036
0.136502037980
0.136410557903
0.136400617591
0.136437682403
0.136470745171
0.136467004160
0.136411150969
0.136311852403
0.136195399293
0.136091562054
0.136024430533
0.136003836577
0.136022574297
0.136070072262
0.136143708959
0.136238237476
0.136353190570
0.136483458839
0.136611996438
0.136722093323
0.136810483179
0.136901916173
0.137012112105
