EVENT_NAME: EMILIA_2ND_SHOCK
EVENT_ID: IT-2012-0011
EVENT_DATE_YYYYMMDD: 20120529
EVENT_TIME_HHMMSS: 070002
EVENT_LATITUDE_DEGREE: 44.8417
EVENT_LONGITUDE_DEGREE: 11.0657
EVENT_DEPTH_KM: 8.1
HYPOCENTER_REFERENCE: INGV-CNT_Seismic_Bulletin
MAGNITUDE_W: 6.0
MAGNITUDE_W_REFERENCE: RCMT-INGV
MAGNITUDE_L: 5.8
MAGNITUDE_L_REFERENCE: INGV-CNT_Seismic_Bulletin
FOCAL_MECHANISM: TF
NETWORK: IT
STATION_CODE: MRN
STATION_NAME: MIRANDOLA (NAPOLI)
STATION_LATITUDE_DEGREE: 44.878231
STATION_LONGITUDE_DEGREE: 11.061743
STATION_ELEVATION_M: 15
LOCATION: 
SENSOR_DEPTH_M: 0.0
VS30_M/S: 208
SITE_CLASSIFICATION_EC8: C
MORPHOLOGIC_CLASSIFICATION: 
EPICENTRAL_DISTANCE_KM: 4.1
EARTHQUAKE_BACKAZIMUTH_DEGREE: 175.6
DATE_TIME_FIRST_SAMPLE_YYYYMMDD_HHMMSS: 20120529_065948.000
DATE_TIME_FIRST_SAMPLE_PRECISION: seconds
SAMPLING_INTERVAL_S: 0.005000
NDATA: 13713
DURATION_S: 68.565
STREAM: HNZ
UNITS: cm/s^2
INSTRUMENT: sensor = MS2007+ [Syscom] | digitizer = 130-01/3 [Reftek]
INSTRUMENT_ANALOG/DIGITAL: D
INSTRUMENTAL_FREQUENCY_HZ: 
INSTRUMENTAL_DAMPING: 
FULL_SCALE_G: 
N_BIT_DIGITAL_CONVERTER: 24
PGA_CM/S^2: 840.558524
TIME_PGA_S: 19.165000
BASELINE_CORRECTION: BASELINE REMOVED
FILTER_TYPE: BUTTERWORTH
FILTER_ORDER: 2
LOW_CUT_FREQUENCY_HZ: 0.070
HIGH_CUT_FREQUENCY_HZ: 40.000
LATE/NORMAL_TRIGGERED: NT
DATABASE_VERSION: DYNA 1.0
HEADER_FORMAT: DYNA 1.2
DATA_TYPE: ACCELERATION
PROCESSING: manual (Paolucci et al., 2011)
DATA_TIMESTAMP_YYYYMMDD_HHMMSS: 20141204_104205.354
DATA_LICENSE: CC-BY3_0-IT (http://creativecommons.org/licenses/by/3.0/deed.en)
DATA_CITATION: ESM working group (2015), European Strong-Motion database, version 0.1, Network Activity 3: Networking acceleration networks and SM data users. Project NERA (www.nera-eu.org)
DATA_CREATOR: ESM working group
ORIGINAL_DATA_MEDIATOR_CITATION: Ufficio Rischio Sismico e Vulcanico del Dipartimento della Protezione Civile (http://www.protezionecivile.gov.it/)
ORIGINAL_DATA_MEDIATOR: Rete Accelerometrica Nazionale - RAN Download (http://www.mot1.it/randownload/)
ORIGINAL_DATA_CREATOR_CITATION: Italian Strong Motion Network, Italian Civil Protection Department http://www.protezionecivile.gov.it
ORIGINAL_DATA_CREATOR: network: IT (Italian Strong Motion Network); owner: Dipartimento Della Protezione Civile
USER1: /home/dyna/processing-itaca/processing.py /var/www/processing/tmp/fpacor//IT.MRN..HNE.D.20120529.070003.X.ACC.ASC /var/www/processing/tmp/fpacor//IT.MRN..HNN.D.20120529.070003.X.ACC.ASC /var/www/processing/tmp/fpacor//IT.MRN..HNZ.D.20120529.070003.X.ACC.ASC --tmp /var/www/processing/tmp/fpacor/ --le 0.070 --he 40.000 --ln 0.070 --hn 40.000 --lz 0.070 --hz 40.000 --fo 2 --ca -15 --cz 100 --ta 5 --tz 5 --mf 1 --rf 0 --tr NT
USER2: 
USER3: 
USER4: 
USER5: 
[...]
-0.000792328769
0.000133702601
0.000910407091
0.000015507663
-0.000703642770
0.000327598704
0.000906335817
-0.000359289508
-0.000945616886
-0.000059570574
0.000663752624
-0.000417429900
-0.001007596529
0.000107341235
0.000717489283
-0.000110134060
-0.000790739878
0.000180731880
0.000959523229
-0.000278916071
-0.000705153831
0.000171541261
0.000746657969
-0.000182793103
-0.001045448783
0.000062373396
0.000790797383
-0.000163436818
-0.000701601613
0.000180431191
0.001057990358
0.000059947543
-0.000674900820
0.000252692992
0.000791240362
-0.000393592963
-0.000975234718
-0.000056984206
0.000433396443
-0.000416109527
-0.000942017235
0.000084900764
0.000687347201
-0.000321115794
-0.000818486131
0.000098075739
0.000853161629
-0.000264455573
-0.000867035532
0.000326024414
0.000844476166
-0.000247691985
-0.000766501261
0.000199333447
0.000813002791
-0.000153647258
-0.000759689150
0.000271642702
0.000906159266
-0.000186192236
-0.000803990669
0.000045565092
0.000825086236
-0.000112836630
-0.000852183830
0.000147119061
0.000772847451
-0.000164353134
-0.000894698776
0.000072976423
0.000965316434
-0.000230805661
-0.000816629598
0.000224746756
0.000670431355
-0.000232739919
-0.000906568459
0.000071684456
0.000808372765
-0.000330639893
-0.000877306425
0.000173688780
0.000725855916
-0.000333896101
-0.000793691922
0.000187222633
0.000677143247
-0.000243839755
-0.000847689455
0.000033788056
0.000679865147
-0.000167210691
-0.000660639293
0.000212382702
0.000912789613
0.000007517480
-0.000620956417
0.000279777008
0.000845585298
-0.000069355429
-0.000677942543
0.000078944767
0.000570457229
-0.000428275260
-0.000919197485
0.000146401494
0.000750818871
-0.000110151654
-0.000581426043
0.000350226767
0.001012387310
-0.000046483650
-0.000648180290
0.000375153239
0.000837289590
-0.000379059940
-0.000939411009
0.000066255041
0.000505224543
-0.000289948875
-0.000822076119
0.000102127736
0.000758859002
-0.000235712167
-0.000594516505
0.000111457566
0.000762756605
-0.000109695236
-0.000920912530
0.000081018679
0.000659884591
-0.000097865577
-0.000755389122
0.000141286290
0.000780412714
-0.000409555476
-0.000852893801
0.000016672640
0.000644964930
-0.000150932866
-0.000745919522
0.000212195955
0.000709612167
-0.000273788326
-0.000760368923
0.000205789715
0.000759551994
-0.000100261603
-0.000726865688
0.000122727417
0.000798667070
-0.000368252032
-0.000974710492
0.000070627063
0.000570725776
-0.000424161816
-0.000900835706
0.000160445548
0.000820015506
-0.000064467770
-0.000737953684
0.000172865298
0.000944803498
-0.000124537052
-0.000585069721
0.000487868906
0.000879556480
0.000022351034
-0.000686023025
0.000053570630
0.000813964354
-0.000221388474
-0.000934567411
0.000011452479
0.000602764613
-0.000333011707
-0.000785609015
0.000105554172
0.000687295638
-0.000188926723
-0.000802110727
0.000189515729
0.000811445326
-0.000152250469
-0.000701594966
0.000249617456
0.000776623275
-0.000126380606
-0.000669343283
0.000111459543
0.000780666483
-0.000155093817
-0.000925010603
0.000123784603
0.000859133651
-0.000312841172
-0.000694213142
0.000417304944
0.000863894447
0.000031021543
-0.000609998019
0.000362772258
0.000926703182
-0.000154535499
-0.000749516331
0.000033886094
0.000757624732
-0.000230548740
-0.000886519255
0.000237365026
0.000708156070
-0.000224212215
-0.000722305601
0.000031770589
0.000743004000
-0.000246470879
-0.000910463714
0.000069477476
0.000546993154
-0.000308461245
-0.000862737904
0.000020261409
0.000693520292
-0.000216985658
-0.000837344524
0.000130638240
0.000729225057
-0.000428367932
-0.000923606695
0.000004048143
0.000517602386
-0.000247235297
-0.000820359920
0.000186289774
0.000825207668
-0.000117425345
-0.000584191927
0.000323905196
0.000898209896
-0.000108609868
-0.000662650017
0.000254884462
0.000813511532
-0.000110442584
-0.000743718354
0.000281543324
0.000826758487
-0.000123267379
-0.000655592308
0.000113140481
0.000828979300
-0.000177983711
-0.000938332911
0.000081810096
0.000609431345
-0.000345884413
-0.000855096186
0.000018546029
0.000793916581
-0.000099638785
-0.000832807331
0.000229607544
0.000883860844
-0.000155039514
-0.000720035638
0.000201730856
0.000837005820
-0.000082074368
-0.000731462925
0.000318503414
0.000810799543
-0.000256738728
-0.000721031445
0.000099935507
0.000816579470
-0.000112958353
-0.000833154516
0.000235844109
0.000717582540
-0.000318252844
-0.000948764371
-0.000002977972
0.000685687596
-0.000411459224
-0.000748013340
0.000287564660
0.000789841478
-0.000035422301
-0.000739359043
0.000298937575
0.000951507249
-0.000273205699
-0.000809951625
0.000157625536
0.000732237862
-0.000119188664
-0.000784044440
0.000160473332
0.000805546249
-0.000197054552
-0.000810486468
0.000126439174
0.000753470495
-0.000309563335
-0.000780336761
0.000208970449
0.000795144665
-0.000082351812
-0.000601893267
0.000376528963
0.000737175506
-0.000166859799
-0.000602393909
0.000191280183
0.000721055598
-0.000242668806
-0.000827956344
0.000000587278
0.000584881818
-0.000279298928
-0.000756307349
0.000134450975
0.000744275646
-0.000149629812
-0.000891837174
0.000169585897
0.000771397104
-0.000314847185
-0.000640565590
0.000262919062
0.000762890346
-0.000009117017
-0.000688816515
0.000088768913
0.000833896734
-0.000284376579
-0.000899757025
0.000074110515
0.000906402928
0.000930735118
0.002142235881
0.008017998048
0.017305745800
0.029702185356
0.049908307693
0.075216275743
0.092447575927
0.099705412253
0.120858468318
0.144210659174
0.139153038714
0.121802251167
0.117947934667
0.132942725091
0.129384068357
0.100435639255
0.095379690229
0.118709684959
0.162811155229
0.217857667392
0.271475689028
0.321575648982
0.339447286324
0.262854800924
0.047746723373
-0.160599705576
-0.175243178554
-0.068374517529
-0.018947548260
0.018200750732
0.153970117425
0.178094825325
-0.042936462789
-0.288127862746
-0.393498189190
-0.329430068084
-0.201548340563
-0.172095896976
-0.204894065414
-0.162043696146
0.046280572957
0.349502527956
0.417587460194
0.084899310201
-0.345441852957
-0.642271851595
-0.804418619032
-0.627203948253
-0.107599193216
0.149652691201
-0.092884636236
-0.326188944769
-0.306249107649
-0.235658796992
-0.256393744430
-0.285205365888
-0.090443906284
0.280421998798
0.399544717986
0.214826613174
0.189214808776
0.406639713296
0.552289287008
0.456208739688
0.202473695918
0.019438664691
0.012271181712
0.096686256140
0.074805192193
-0.062164400516
-0.168849333998
-0.257280085103
-0.266448888288
-0.114165364959
0.160988168177
0.406328685766
0.416913272757
0.365403290457
0.430880708365
0.299774357225
-0.127171518894
-0.354439566265
-0.084499997517
0.202192085491
0.170284119772
0.139631078178
0.168030193366
0.164332536604
0.078981942426
-0.254834079216
-0.634568674587
-0.752544151814
-0.520325900932
-0.176635208671
-0.089629759482
-0.193750159006
-0.269699219376
-0.153998468904
0.116006094884
0.373540546607
0.698389080716
0.835189337632
0.470615367465
-0.039413804294
-0.277954518390
-0.190112407546
-0.168698830530
-0.481061569688
-0.580104539704
-0.161105463837
0.173895333377
0.200097569113
0.205086217534
0.145230690932
0.127574835011
0.236854947079
0.261112062391
0.244718708809
0.193424388099
0.041681327422
0.060115073627
0.232009453423
0.124505528113
-0.232739487880
-0.568795989830
-0.731853958681
-0.651707262587
-0.443986570632
-0.173357005209
0.016101228921
-0.039549455455
-0.239579325856
-0.434890399465
-0.439845691037
-0.021945102948
0.652214116508
0.968438713743
0.638290163601
0.011919038413
-0.463681670492
-0.596808303052
-0.541524976275
-0.600523818177
-0.494633850056
0.192330157421
0.874416219276
0.887139207668
0.389538819572
-0.308250048272
-0.832521085446
-0.665051561082
0.051391921534
0.497514199272
0.484519860374
0.317901651689
0.102431728239
0.282378599649
0.790731904215
0.811822567172
0.528093676216
0.354586344718
-0.156276601692
-0.683900380586
-0.297280444960
0.576478676424
0.714328568206
0.071986426808
-0.286908141928
0.041250077739
0.427928068136
0.546309722002
0.769869780732
1.073459016448
0.969379591291
0.354291818616
-0.565558275331
-0.934462250268
-0.077937235638
0.770781467603
0.437520913352
-0.369169383283
-0.617843124035
-0.376014785735
-0.670321317163
-1.700797900177
-2.315394942667
-1.839484928086
-0.506623584120
0.868416660042
1.201592587859
0.763039506824
0.639713734049
0.702868983439
0.407615498178
-0.280166919216
-1.179355629939
-1.633726621745
-1.204693896712
-0.254216596853
0.625259832570
0.828776971741
0.631456731930
0.504597455861
0.140207232950
-0.357716720256
-0.746166048483
-0.853898873769
-0.602389078466
-0.364758106361
-0.108421391087
0.449133075171
0.985634738405
1.171196641321
1.215952201087
1.176661316508
0.803752926756
0.001216000547
-0.876988609917
-1.383452213793
-1.414614301152
-0.810492496282
0.290952134779
0.984641157833
0.916548423096
0.585498214071
0.089535827570
-0.492284081527
-0.671097695718
-0.324348046439
0.043426150848
0.236204370614
0.511296778418
0.584806276142
0.341770874307
0.236704206192
0.290156148597
0.323920339365
0.431963182043
0.466775581274
0.175751158853
-0.410282969003
-1.115234455122
-1.528982779193
-1.232471846398
-0.078268237497
0.998988065880
0.858699777828
0.264009078512
-0.038535986396
-0.087079378677
0.292558865632
0.353087914417
-0.031972316119
0.170716778684
0.491335930854
0.127527912608
0.006965920052
0.567702887115
1.092579547345
1.579260996044
1.619114636512
0.360159954820
-1.367891334908
-2.126514731971
-1.648371634972
-0.610837079593
0.188316710261
0.289644670979
-0.020889520383
0.123135630905
0.793750938703
1.159974667616
0.820468037662
0.545035785047
0.481478596277
-0.411817506003
-1.542134532459
-1.717895810443
-1.334370529830
-1.133225023195
-0.850361849830
0.156323136775
1.359882984368
1.911954624583
1.477584304242
0.347627227137
-0.619281245115
-0.997852241758
-0.684101705725
-0.135278845735
0.142428381580
0.576309714471
1.124784728690
0.955681870737
0.001760925615
-1.030257909421
-1.619290875877
-1.756337754757
-1.482741773900
-0.427898000256
1.276485116350
2.400004686702
2.162614320905
1.602945024049
0.984279332153
-0.593454701396
-2.033888862848
-2.296871761402
-1.153755639871
1.056591793532
2.295789131338
2.216803043402
1.453091915320
0.113235133071
-0.440293664031
0.533200518995
1.567268027053
0.412482166852
-2.220841798831
-3.332671161154
-1.861027069132
0.541397893762
1.309664176572
1.255551064510
1.713089773920
0.625851656541
-1.681368268401
-2.222000860200
-1.241049145661
-0.464387533644
0.818452645989
2.128697803618
1.651367386406
0.470511912291
-0.015131128845
-0.200742571658
0.036356905823
0.829021135294
1.101362573027
1.236016632751
2.216856294789
3.467471455745
4.211713369990
3.201499030268
1.035065387232
-0.401599176283
-1.541426526089
-2.321391014953
-0.762010067243
2.565733858912
3.860505943772
3.055287423260
1.594908677861
-0.967451255952
-2.720655022889
-3.418679386482
-4.530589144925
-5.283007096442
-5.141146288193
-4.584621346570
-3.476912791657
-1.705213335945
0.742220857140
3.968200030320
5.412162661344
4.116061801211
1.953773358077
-0.399535184430
-1.862207278013
-2.419603732376
-2.021242901451
-0.185925681996
1.677855092855
1.583554715290
0.255462477965
0.629746984186
0.654471170145
-1.091532015999
-1.626467846931
-0.671589728857
0.342886925409
0.455665073979
-0.126248630986
-0.286128866905
1.279660092023
3.853896097264
5.692783436301
6.929762363210
7.702947023442
8.352857015523
7.561371800922
4.052526335510
-0.005346539620
-3.634822492650
-6.385299220928
-7.801551327998
-8.276875818896
-7.582285193304
-4.918291183686
0.739905544558
5.604496136032
6.715894799126
5.158238776558
2.929654582541
2.112289688351
0.497674990370
-1.645457304563
-3.016239143795
-3.558540041129
-2.597671303574
-0.676087664890
0.593024440517
-1.739451852869
-2.753367678394
-1.346687752224
-0.885179739859
1.403771086654
2.184780962074
1.758135427111
1.564821951180
-0.299254431844
-1.706217595226
-2.853605823663
-2.121543765591
-0.013688311889
1.719130311130
3.397487284790
4.586077405710
3.916631170610
-0.859173239861
-4.484634997750
-5.041234303268
-5.492749974064
-4.466292138146
-3.160009652591
-3.238641113952
-4.320497155742
-4.079510458318
-1.680303773868
2.461946021083
7.430803004993
9.282468585391
7.746712243879
4.613922864053
1.340373162734
-0.755620968638
-2.265828541492
-2.199638415036
-0.856649379026
-1.271867096763
-2.828387053405
-3.523067600025
-4.160273956794
-5.267866507987
-6.026941989829
-4.375725335801
-0.112322393914
3.426264515135
4.797293212220
3.874477095361
1.009488481767
-0.719149481534
-0.771291451685
-1.353147196765
-2.796134592398
-3.497081865720
-2.118536004700
-0.309304383296
1.318393942586
3.471278647871
4.532706715654
4.972620456727
5.325083468985
3.677280185451
0.549993461854
-2.037161240882
-3.260429685700
-4.578666190163
-5.410314877769
-5.084978797670
-2.702472670254
3.550428364992
6.667355746523
5.255036193008
1.930717401923
-2.996368504038
-4.895348277404
-4.975125710481
-4.093097547888
-2.438076564306
-0.702838972367
1.584103648368
3.937458851767
5.520093794207
4.776517547279
3.986405341858
2.417925360945
0.028723628624
-2.017945787331
-3.713568624192
-2.441140440298
-0.438600668379
0.088278004045
-0.033109210790
1.528967943846
4.886783552060
6.274993500408
5.039562132495
1.634238648899
-1.474736529107
-2.943531266548
-4.112784212922
-3.504600588672
-1.616464270026
-0.109722293006
-0.003477403708
-0.433807486079
0.324535452756
-0.717407082362
-3.119056685625
-4.417392739681
-5.750640884796
-5.926853501172
-4.231184632555
-1.951928584171
0.591445822477
2.220997651479
2.477019288417
2.419907144189
1.930527904561
1.592920873902
1.751073873519
2.402150174143
3.690631287269
4.461664957879
4.659597755676
3.305724767713
0.510950223684
-1.393851699709
-2.343556214524
-2.047292396447
-0.836664824313
-0.971107101125
-1.627188069600
-0.272414295765
2.434478524977
3.580626070264
2.036231719647
-0.040049444125
-0.693971583844
0.132767847385
0.968396274690
0.210047292932
-0.865613669130
-0.811065232949
0.024252998455
0.526835233356
-0.066086309495
-1.148585808912
-2.117560779858
-1.525903350626
-0.315546270965
-1.363721103399
-2.718115213305
-2.787705726949
-2.836324421414
-1.890088618481
-0.213542298517
0.388270871212
1.174939034870
2.345763782380
1.914466592221
0.287482627293
-0.805500840628
-1.478821747068
-2.438435279417
-2.901673390540
-2.727432328054
-1.216870996981
1.254156556019
0.915723800492
-1.436022703345
-2.203032301519
-1.731227831939
-1.194026731690
-0.676994027109
0.232034913745
1.343458558431
2.291730353728
3.389538773465
4.130053404070
3.964051191877
3.396403388979
2.613171444447
1.254409412190
-0.257706510763
-0.587888893276
0.111147129282
-0.096463059530
-0.916781213473
-0.915241467243
-0.664537713415
-0.681746371462
-0.742698944023
-0.662270603472
-0.400975840161
-0.298648607643
-0.358779396250
0.099760791598
0.738671672247
0.264969333720
-0.855034197068
-1.644339330215
-2.154844026455
-2.798342163805
-3.268544813549
-1.800202632574
1.218638706006
3.899638646285
5.318522478540
4.441268332924
2.238296778027
0.168013550432
-1.855060606401
-3.802183071911
-5.306511352047
-5.863956546312
-5.720475557105
-4.387109684802
-1.982370043393
0.912588824885
4.170155836100
4.111720632707
1.793659865902
0.683607754612
-0.408412872186
-0.002979576957
0.974089156113
1.109819518287
2.083419200441
3.144804519526
2.965348685375
1.145472710571
-0.405230957702
-1.595026261064
-2.473462272025
-1.590434162866
-1.139211610826
-1.293213502813
-1.804288512897
-2.937830470239
-3.042243897534
-2.391149127422
-1.247386960503
0.129514909766
1.368241211023
1.553392958236
1.174510229875
1.421898506292
1.170162768493
1.322022477399
1.625034724292
1.004858004163
0.603414825544
0.413715170350
-0.072485483099
-0.924403779262
-1.726097255780
-1.938993641480
-1.396487534986
-0.381687395107
0.505736474085
0.770488082188
0.229077670840
0.021921213937
1.112536251091
2.406966200010
3.108209758776
3.159763308273
2.164735852673
0.538372315372
-0.820341815568
-1.312679209132
-1.211069057850
-1.357859238198
-1.671113205855
-1.884151232686
-2.072260629116
-1.910835674307
-1.167404948486
0.009927707141
1.013388866842
0.987805436115
0.123371955040
-0.653631633071
-0.727850280193
-0.365961350429
-0.578661902979
-1.113479881726
-0.664337900121
0.882508467478
2.412315853558
3.140826816691
2.607150927072
0.983470287891
-0.516016342280
-1.739695388748
-2.671584640065
-3.140112889012
-3.211696282591
-2.058243139198
-0.031420068715
1.738577092485
2.973999158170
3.261590601899
1.880204982002
-0.160081783846
-1.472151142370
-2.084487237682
-1.737814986143
-0.686181732051
0.504634831605
1.468228677548
1.861502636865
1.573267022713
1.150409825681
1.045549273355
0.835672784975
0.816983104847
0.612606973352
-0.069226802418
-0.737628542473
-0.868281166875
0.121725515593
0.750517529234
0.354579493211
0.242450102175
0.588735528871
0.733320392256
0.091270267321
-0.907394483562
-1.282918588576
-0.905144059869
0.024809673134
0.739948267121
0.601488411735
-0.007402982888
-0.880064923294
-1.566033205292
-1.565571728289
-0.620203029499
1.002699499915
2.382528709719
3.316670751444
3.171302068343
1.788352740166
0.078931082089
-1.586057486152
-2.440877624290
-2.577315479257
-2.884787059907
-3.141956993454
-2.878126326027
-1.833134494659
-0.249051082612
1.489056765196
2.937842958348
3.132334991710
2.209974778149
1.048608530950
-0.354902614441
-1.815605871333
-2.510498414353
-2.109057085214
-1.039841461325
