EVENT_NAME: EMILIA_2ND_SHOCK
EVENT_ID: IT-2012-0011
EVENT_DATE_YYYYMMDD: 20120529
EVENT_TIME_HHMMSS: 070002
EVENT_LATITUDE_DEGREE: 44.8417
EVENT_LONGITUDE_DEGREE: 11.0657
EVENT_DEPTH_KM: 8.1
HYPOCENTER_REFERENCE: INGV-CNT_Seismic_Bulletin
MAGNITUDE_W: 6.0
MAGNITUDE_W_REFERENCE: RCMT-INGV
MAGNITUDE_L: 5.8
MAGNITUDE_L_REFERENCE: INGV-CNT_Seismic_Bulletin
FOCAL_MECHANISM: TF
NETWORK: IT
STATION_CODE: MRN
STATION_NAME: MIRANDOLA (NAPOLI)
STATION_LATITUDE_DEGREE: 44.878231
STATION_LONGITUDE_DEGREE: 11.061743
STATION_ELEVATION_M: 15
LOCATION: 
SENSOR_DEPTH_M: 0.0
VS30_M/S: 208
SITE_CLASSIFICATION_EC8: C
MORPHOLOGIC_CLASSIFICATION: 
EPICENTRAL_DISTANCE_KM: 4.1
EARTHQUAKE_BACKAZIMUTH_DEGREE: 175.6
DATE_TIME_FIRST_SAMPLE_YYYYMMDD_HHMMSS: 20120529_065948.000
DATE_TIME_FIRST_SAMPLE_PRECISION: seconds
SAMPLING_INTERVAL_S: 0.005000
NDATA: 13713
DURATION_S: 68.565
STREAM: HNE
UNITS: cm/s^2
INSTRUMENT: sensor = MS2007+ [Syscom] | digitizer = 130-01/3 [Reftek]
INSTRUMENT_ANALOG/DIGITAL: D
INSTRUMENTAL_FREQUENCY_HZ: 
INSTRUMENTAL_DAMPING: 
FULL_SCALE_G: 
N_BIT_DIGITAL_CONVERTER: 24
PGA_CM/S^2: 218.643309
TIME_PGA_S: 20.515000
BASELINE_CORRECTION: BASELINE REMOVED
FILTER_TYPE: BUTTERWORTH
FILTER_ORDER: 2
LOW_CUT_FREQUENCY_HZ: 0.070
HIGH_CUT_FREQUENCY_HZ: 40.000
LATE/NORMAL_TRIGGERED: NT
DATABASE_VERSION: DYNA 1.0
HEADER_FORMAT: DYNA 1.2
DATA_TYPE: ACCELERATION
PROCESSING: manual (Paolucci et al., 2011)
DATA_TIMESTAMP_YYYYMMDD_HHMMSS: 20141204_104205.354
DATA_LICENSE: CC-BY3_0-IT (http://creativecommons.org/licenses/by/3.0/deed.en)
DATA_CITATION: ESM working group (2015), European Strong-Motion database, version 0.1, Network Activity 3: Networking acceleration networks and SM data users. Project NERA (www.nera-eu.org)
DATA_CREATOR: ESM working group
ORIGINAL_DATA_MEDIATOR_CITATION: Ufficio Rischio Sismico e Vulcanico del Dipartimento della Protezione Civile (http://www.protezionecivile.gov.it/)
ORIGINAL_DATA_MEDIATOR: Rete Accelerometrica Nazionale - RAN Download (http://www.mot1.it/randownload/)
ORIGINAL_DATA_CREATOR_CITATION: Italian Strong Motion Network, Italian Civil Protection Department http://www.protezionecivile.gov.it
ORIGINAL_DATA_CREATOR: network: IT (Italian Strong Motion Network); owner: Dipartimento Della Protezione Civile
USER1: /home/dyna/processing-itaca/processing.py /var/www/processing/tmp/fpacor//IT.MRN..HNE.D.20120529.070003.X.ACC.ASC /var/www/processing/tmp/fpacor//IT.MRN..HNN.D.20120529.070003.X.ACC.ASC /var/www/processing/tmp/fpacor//IT.MRN..HNZ.D.20120529.070003.X.ACC.ASC --tmp /var/www/processing/tmp/fpacor/ --le 0.070 --he 40.000 --ln 0.070 --hn 40.000 --lz 0.070 --hz 40.000 --fo 2 --ca -15 --cz 100 --ta 5 --tz 5 --mf 1 --rf 0 --tr NT
USER2: 
USER3: 
USER4: 
USER5: 
[...]
0.000500262781
-0.000656431104
-0.000648733883
0.000719681553
0.000609831529
-0.000729075917
-0.000500841778
0.000694283352
0.000446640522
-0.000616834093
-0.000528878099
0.000502299475
0.000487812205
-0.000551606802
-0.000534459304
0.000686553877
0.000519007840
-0.000613821185
-0.000455937004
0.000623836245
0.000493756341
-0.000674545216
-0.000563233641
0.000590505640
0.000511020595
-0.000580422943
-0.000558965124
0.000661524732
0.000477504323
-0.000630555529
-0.000486255692
0.000549596890
0.000441637487
-0.000710439692
-0.000523562384
0.000608599718
0.000431798062
-0.000529728867
-0.000681661620
0.000494682088
0.000510722967
-0.000779507703
-0.000530288280
0.000533187659
0.000520587941
-0.000500461099
-0.000574160099
0.000776243002
0.000546398381
-0.000539745170
-0.000388204153
0.000558664610
0.000476299209
-0.000738718547
-0.000549806644
0.000560900244
0.000439105534
-0.000475661194
-0.000566258947
0.000583082738
0.000600346760
-0.000647498325
-0.000586186402
0.000645523407
0.000412012741
-0.000797306397
-0.000582631669
0.000681713927
0.000619806753
-0.000150105921
0.000500993883
0.002269998871
0.003096221533
0.002454477885
0.001626226321
0.001470781397
0.002439739837
0.002129889655
-0.000430405895
-0.001239947718
0.000521779202
0.003192022439
0.001957154325
-0.000359339813
0.001560738016
0.004396490751
0.008347006059
0.009524844062
0.007669678956
0.006594154094
0.003312127341
-0.008104963585
-0.029278610288
-0.033646468866
-0.007366077774
0.019498914537
0.020627727998
0.015494494071
0.025127863961
0.011772917472
-0.031595803073
-0.055522485782
-0.036609978807
0.010069365928
0.037358702640
0.023711537173
0.000996795644
-0.001349824649
0.014022252099
0.020865120487
-0.001722281322
-0.037396157448
-0.046822758565
-0.029652157127
-0.015653457173
0.020775352756
0.080906316334
0.070631219170
-0.004454343366
-0.043633177931
-0.039508980580
-0.023164930211
-0.010820402734
-0.000810417264
0.045820034766
0.087370614369
0.029543309145
-0.069347847588
-0.082860122302
-0.018807100318
0.030632179194
0.017066183474
-0.011789941408
0.006441688955
0.040311604816
0.034508535801
-0.002452150407
-0.022187521160
-0.018963784847
-0.019240399358
-0.013639125901
0.007776515718
0.043045823849
0.050910149428
-0.000736249183
-0.040160801037
-0.039768869254
-0.055667816793
-0.087383492189
-0.066439336580
0.029161310065
0.092017693132
0.065426169344
0.018027623550
-0.000578058295
0.017872200049
0.007836333771
-0.040043335730
-0.039428828248
0.005537126904
0.061339920887
0.081202598716
0.042072995352
-0.003098079624
-0.034034159933
-0.033811444456
-0.010411355560
0.020855170374
0.067725419524
0.060814188466
-0.017785897586
-0.079259766834
-0.089297660649
-0.052038961286
-0.015535892161
-0.025346897466
0.008822837907
0.108643598362
0.133004289287
0.059681998081
-0.014099806101
-0.051324808862
-0.035703109014
-0.013587658014
-0.029568324280
-0.019428384021
0.000166706146
-0.012438293102
-0.004196169826
0.006372992945
-0.021733670957
-0.052643566269
-0.070616773724
-0.052830205713
-0.006259065881
0.014443302674
0.018721972939
0.013220658663
-0.009720338305
-0.037822656528
-0.065995627868
-0.050286979644
0.037019293744
0.117259109735
0.110290270595
0.024063801737
-0.077779748391
-0.113296512942
-0.075945375838
-0.031607170731
-0.000839856322
0.073860169560
0.182908083430
0.188481556365
0.061097547942
-0.097222018402
-0.191455017093
-0.162819378243
-0.038591933715
0.089354561939
0.135979358948
0.108424022413
0.031972715030
-0.038901631804
-0.016798789330
0.032680184400
0.040044001977
0.037149793479
0.040260293195
0.003221756675
-0.055797809809
-0.006922180106
0.100010664392
0.061722472229
-0.093622066733
-0.131499436307
-0.048455728219
0.006607557887
0.014157397370
0.025375673301
0.079503384434
0.072645132008
-0.059934691797
-0.212938963019
-0.180651192953
0.076285339038
0.227113429979
0.132578364954
-0.033073761163
-0.075780889634
-0.018351382965
-0.101110115774
-0.238260653671
-0.191422259842
0.036930079129
0.275942918543
0.325572486314
0.176585790222
0.004966376023
-0.042752767732
-0.011996303285
-0.022910403093
-0.061786102747
-0.047429396353
0.035129714931
0.152676026737
0.227143769521
0.220506588613
0.111942253140
-0.051001588260
-0.130755957957
-0.171104680033
-0.188640995728
-0.146593599915
-0.077484654447
-0.003175073754
-0.024327906024
-0.105024364398
-0.113003638168
-0.079699219217
-0.039455131949
0.016162004286
0.055556218243
0.059342836531
-0.015153736278
-0.111248573278
-0.136742241759
-0.115265015352
-0.036680825919
0.059482586105
0.110452403022
0.066177150906
-0.043889882953
-0.073084301361
-0.068523486669
-0.069911233610
0.001939432237
0.025585568512
-0.011965347445
0.004734526351
-0.032283470224
-0.068733073123
-0.001930973021
0.076250513969
0.161418375131
0.223202763019
0.217242612077
0.146330286035
0.049288033446
-0.005726112001
0.003491013048
0.088364792468
0.168076873926
0.151154247923
0.046927422030
-0.091487330233
-0.104088819946
0.063730991161
0.164753352410
0.119281343174
0.083347126761
0.084417439237
0.089187326156
-0.002391882006
-0.107267398849
-0.024330875479
0.117845329932
0.188251853260
0.107326992102
-0.134114213557
-0.325760802255
-0.344180919808
-0.187842457366
0.009269662438
0.099003398368
0.062117347779
-0.043901025639
-0.054325628388
0.022217475038
0.047805594957
0.025241312574
0.029220530092
0.049016924741
-0.049350587889
-0.154075012941
-0.106626688499
-0.023080159639
0.058923825937
0.100846928802
0.142886972661
0.235669653921
0.194701466954
0.006165779165
-0.231629050104
-0.299922623323
-0.161337689852
-0.078891900661
-0.054283519270
-0.043018768157
0.078915988645
0.173030902272
-0.007456536983
-0.135197247401
-0.150789810934
-0.161547280916
-0.018213072230
0.121810596813
0.278475303082
0.491501981856
0.365019170284
0.039715606532
-0.130298066232
-0.175260260370
-0.171279496347
-0.103349377497
0.027887464703
0.171832361165
0.400653781664
0.363257243797
0.023604260744
-0.148055522715
-0.250054449824
-0.171320655601
0.204348647880
0.437237225471
0.304840183031
-0.032426389613
-0.188381506845
0.033284800183
0.243365649502
0.142170477810
-0.038536907721
-0.069973093006
-0.143079398936
-0.349589085974
-0.246681819406
0.058999750684
0.217279055112
0.457758854955
0.499061766836
0.179216479736
-0.051619298945
-0.131971914870
-0.051794747095
0.135978013655
0.277490603578
0.293307570564
0.153662664542
0.133458047278
0.125765848521
0.039725968840
-0.093043084901
-0.354049947473
-0.218963918518
0.028543915696
0.098331224457
0.478685896593
0.828010213780
0.682053622755
0.049328381059
-0.466411250587
-0.671867394544
-0.744978086985
-0.478474457473
-0.296687352751
-0.236253787324
-0.012236263794
0.120321929227
0.201535584849
0.285415900227
0.239015580253
0.291284251897
0.328835389865
-0.062589713614
-0.472478520659
-0.620455481343
-0.499345010519
-0.209329091848
0.145373741813
0.676405223804
0.858031222060
0.758995606561
0.235567859168
-0.304838299325
-0.071931994217
-0.224089930933
-0.335476537020
-0.004056694133
-0.022057063729
-0.151805355202
-0.289748892094
-0.249496501845
-0.159748415198
0.107600991057
0.449489810205
0.374084537172
0.334151969466
0.505847494789
0.543059120233
0.176763727602
-0.194602534492
-0.335734750668
-0.334084854222
-0.023619173742
0.106133363302
0.329750574510
0.623787099480
0.643530607357
0.721925925560
0.187699044261
-0.408214485283
-0.607385950000
-0.758990037923
-0.673452102518
-0.605040752858
-0.370439555946
-0.113925132109
0.279122188117
0.621355772194
0.642237553884
0.386403691484
-0.242997262609
0.279426992443
1.050103151496
1.072964583065
1.222163805845
0.533662953160
0.051665284210
0.089069107603
-0.275986298692
-0.339134956646
-0.233551894489
0.163692966983
0.391387548136
0.410067762283
0.475061951814
0.074541374525
-0.291142195856
-0.391609259011
-0.213311343496
0.049650058121
0.138103984731
0.088327690514
-0.042160884493
-0.172729511030
-0.246848905333
-0.132383128263
0.175025681993
0.487006047675
0.252858330015
-0.392942320609
-0.891335237104
-0.936265902518
-0.595119812731
-0.308007072668
-0.028152644472
0.333057163995
0.544192851243
0.513842252592
0.441094515834
0.319700000927
0.093436371169
-0.012576596663
0.129046526953
0.511353110872
0.738834344546
0.279307642975
-0.450859384540
-0.981074179485
-1.331427415412
-1.201029357423
-0.922001185388
-0.866820738453
-0.713817867453
-0.371572551511
-0.047955854889
0.082783618556
0.235115200705
0.284314640003
0.303645707176
0.516671289934
0.276321023739
0.047507656526
0.150033494006
0.229416942070
0.355767294848
0.362339713587
0.721929804754
1.038948078289
1.638384907770
1.708658948485
0.326792103890
-0.119504846297
-0.384039059886
-0.788851046689
-0.533511337665
-0.234641130767
0.221290099355
0.501085639190
0.697008301082
0.647494232078
0.680122058292
0.120897822045
-0.587348306059
-0.300936918168
-0.174940717510
0.072174536009
0.153987151177
0.418225763989
1.005120793586
0.834788516894
0.735398809668
0.781910874841
1.030072369313
1.178262860681
0.646752058335
0.215916735323
-0.083778157175
-0.294689846464
-0.242678228371
0.016283519873
0.376325206645
0.585472111117
0.537080959189
0.175929611590
0.161719843001
0.344873774773
0.101100220227
0.113223605823
0.238488171107
0.164396802034
0.433220823683
0.667998944646
0.471760213340
0.306693106998
-0.065280893356
-0.517423552976
-0.313904227714
0.079139608666
0.274180305706
0.312472809408
0.322254045805
0.148273074683
-0.389200910782
-0.883111704196
-1.392983187856
-1.586242005791
-1.152545026236
-0.460738720015
0.195417613373
0.448859087262
0.520805207957
0.706054535606
0.968157450188
1.022897464300
0.546079169147
0.127728224988
0.145613515699
0.426263731459
0.733539751573
0.654007264296
0.371358254823
0.275907203964
0.296298261517
0.255647086423
0.131904749874
0.022604739620
-0.030536234312
0.129642941001
0.360074384035
0.219905000748
0.058571902553
0.235322528616
0.344676125792
0.391100329104
0.693256831924
0.735439106111
0.506068893341
0.449125656571
0.083371558350
-0.369713505755
-0.610467489366
-0.953774271767
-1.111533775883
-1.025382821578
-1.011378396729
-0.962171668034
-0.833926169029
-1.016784194150
-1.341724704444
-1.392300720669
-1.240104280257
-1.016415033228
-0.738567399038
-0.402874472521
-0.227184878846
-0.168446298520
-0.069899492365
-0.060380323315
-0.216658314999
-0.461231389415
-0.605648055355
-0.688875983333
-0.782879195146
-0.756501902787
-0.639367677484
-0.745722801991
-0.984583127517
-1.055594999635
-1.037222509212
-0.926141673633
-0.815837409228
-0.758468896476
-0.615656107441
-0.357664004710
0.019877748555
0.496189045893
1.015683223436
1.344443763097
1.504057196562
1.613982218455
1.607212827961
1.618547268036
1.635622324104
1.755222871305
1.730027273590
1.283334835617
0.723822607154
-0.215121402596
-1.026751919002
-1.141725823204
-1.163448419251
-1.034444350165
-0.860288162241
-0.809333070789
-0.717562614876
-0.665048602552
-0.479591120361
-0.358450698634
-0.096424844381
0.212223979818
0.096678354618
0.241264411411
0.390637035321
0.544924887002
0.837825833482
0.754424916603
0.861357768904
0.785261794577
0.442065812517
-0.059973927953
-0.620520392339
-0.455526316052
-0.406373379606
-0.252304176318
-0.060067175086
-0.599459895273
-0.781781891760
-0.888836423069
-1.065488986867
-1.010000393312
-1.212929652049
-1.251973785329
-1.101833848027
-1.168812337352
-1.396190745933
-1.427082557271
-1.416346358906
-1.507789462345
-1.345659253361
-1.247262379708
-1.190840428658
-0.957190026772
-0.879865922579
-0.889472008911
-0.851671648914
-0.822923702145
-0.670065597945
-0.479289604327
-0.379261266905
-0.347019382040
-0.595744127338
-0.808034245514
-0.684823500331
-0.623308641840
-0.572834296265
-0.627541373649
-0.880173028577
-0.951019045174
-0.908559915539
-0.833765408909
-0.747363190235
-0.738910201485
-0.733966744190
-0.739253867433
-0.816248934406
-0.855091511455
-0.829140511969
-0.912410070905
-1.025927329237
-1.197738703920
-1.433448821830
-1.494663717781
-1.367622316398
-1.095850243750
-0.818496919841
-0.500821283666
-0.121204657852
0.143748467022
0.386111584493
0.562179381543
0.545875481308
0.320714933073
0.181341618096
0.316478103649
0.593200746468
1.025262263003
1.434678613407
1.887500478125
2.194240669828
2.167069774333
1.626809769367
0.358174805879
-0.686821819495
-1.392046798151
-1.964469335256
-2.117341462032
-2.136936506012
-2.054634090739
-2.012711141884
-2.034367512748
-1.889057963009
-1.699312917686
-1.550862322579
-1.404787968178
-1.195446963940
-0.933055032162
-0.759950627102
-0.589762771791
-0.476274464007
-0.531735048826
-0.468503604658
-0.350658513218
-0.343781346020
-0.391411252218
-0.522541852426
-0.693977270361
-0.835018268276
-0.970007081929
-1.080126516365
-0.999896933635
-0.672139280310
-0.369817460083
-0.287283933649
-0.093235428834
0.184641761667
0.370970506692
0.686048445320
0.979496252327
1.243170158719
1.474292741652
1.533827170202
1.440418752505
1.162215545791
0.820428360177
0.361427920923
-0.027798714427
-0.289958305234
-0.681010165482
-1.030258343127
-1.456284561866
-1.869856202395
-2.024376745952
-2.099921943253
-1.876558160281
-1.343709791695
-0.875156467487
-0.414892048306
-0.075386159067
0.193054993584
0.686078986762
1.171465810316
1.701902505389
1.866684663528
1.565931154839
1.499292455526
1.327378194945
1.107651602148
0.942366380066
0.631344090897
0.446691140799
0.335628293914
0.331513042551
0.447947353107
0.581597384883
0.670534926039
0.676707233697
0.784623689028
0.829749847745
0.631387171190
0.662429841152
0.847187365507
0.865946409268
0.979397944560
1.264307160043
1.564417839313
1.726264051660
1.698678095020
1.454628345238
1.238479363708
1.127224388592
1.079175839354
1.210960738212
1.176913321116
1.051067409590
1.013341476106
0.942994066115
0.850643923267
0.634113250820
0.457400742763
0.300786817181
0.058951195517
-0.155173188365
-0.426479977838
-0.698102441630
-0.873648865564
-0.947097440881
-0.910201120332
-0.828398419392
-0.781411471143
-0.877658424835
-1.024713059462
-1.095142610791
-1.197542015156
-1.369321151399
-1.481714355797
-1.446950978487
-1.385810929435
-1.212826474770
-0.961336947775
-0.759828584462
-0.460223148875
-0.345910023837
-0.191205498383
0.154433079682
0.304176081399
0.508847908198
0.692697430567
0.801466344723
0.904668869303
0.965254531492
1.118284502041
1.196653865133
1.234045615946
1.214957912069
1.020428958194
0.839274674449
0.822445133047
0.853552852434
0.859899576323
1.016670738996
1.196124366320
1.206128875461
1.162621062506
1.114759178542
0.968198883747
0.827143436957
0.868676797258
0.942109335989
0.899913836395
0.776383777667
0.666259404368
0.625398668273
0.618398926811
0.596245155966
0.456204071192
0.265813797700
0.205299660448
0.300263178261
0.424624911467
0.402203267933
0.240594123218
0.055613035527
-0.057575271496
-0.045778885420
0.096155483494
0.248019801565
0.273278874349
0.269822489919
0.309471309399
0.441055565958
0.617321930244
0.777543056331
1.022212180059
1.209751246740
1.278818202591
1.341081600469
1.375133297371
1.274564354330
1.104856350089
0.999947910253
0.889713398350
0.849919495148
0.936783032103
1.095761985975
1.143759611730
0.940548334300
0.653008678507
0.403471364160
0.285008177647
0.248977495807
0.222631175909
0.209686089779
0.192485161850
0.185746533794
0.167764864468
0.189935881940
0.204974028303
0.187871777272
0.124571224272
0.011953698600
0.076784971186
0.275939047794
0.547115504258
0.854540068699
0.992543133576
1.026205479983
0.954931467977
0.872791369479
0.919504286131
0.920260149082
0.857228352661
0.793378040399
0.841855588420
0.912329475208
0.740794044527
0.462879244304
0.259590150445
0.171910248334
0.084030906063
-0.084337764412
-0.201367046882
-0.297299198594
-0.419055482436
-0.590627220075
-0.803841911484
-0.944757959489
-1.045414953831
-1.098664794395
-1.093032380886
-1.132035938452
-1.202749705127
-1.292890913828
-1.379635293150
-1.408207400134
-1.363578708841
-1.119249506482
-0.664598303198
-0.220130760318
0.063930463579
0.186918110336
0.216931698456
0.249810189593
0.333768154868
0.378981571062
0.297093146849
0.166541722835
0.115336446992
0.156843789193
0.219076906674
0.251706479883
0.257712648779
0.305528340489
0.463024866536
0.772227086546
1.104824771113
1.187461662327
1.070540644897
0.921050869269
0.706222285756
0.448910840438
0.234499439777
0.044065184590
-0.182311360440
-0.376944215445
-0.511017049518
-0.640865739299
-0.854487161693
-1.044240001593
-0.905443023772
-0.649965032418
-0.496532299186
-0.300637726320
-0.094674175876
0.039125182756
0.123977278288
0.296671067302
0.486783157547
0.631838230720
0.850566552330
1.088137563817
1.198606447565
1.151749733004
1.104745804079
1.135742499343
1.162095342818
1.064029956505
0.988456589007
0.854509829926
0.681470544323
0.658821430183
0.224902281769
-0.236549044189
-0.283489832259
-0.437617102925
-0.676053154658
-1.025660552749
-1.300964458313
-1.470814551681
-1.671066483293
-1.598145519505
-1.609801861078
-1.720822410505
-1.591065962448
-1.511865114723
-1.449471398252
-1.358579611179
-1.394728818007
-1.302280975314
-1.124179026510
-1.071746749986
-1.028245053162
-1.102100108601
-1.131762649796
-0.971466085291
-0.857839121637
-0.834464596564
-0.931713066472
-0.897822678571
-0.664456064026
-0.447242875108
-0.219660039748
-0.042085328835
0.060281213203
0.138704891407
0.180209444719
0.152905297367
0.178610086884
0.205644023361
0.172022873447
0.180743075892
0.030589595983
-0.139642481740
-0.180932456699
-0.252456981107
-0.300673543991
