EVENT_NAME: CENTRAL_ITALY
EVENT_ID: EMSC-20161026_0000095
EVENT_DATE_YYYYMMDD: 20161026
EVENT_TIME_HHMMSS: 191806
EVENT_LATITUDE_DEGREE: 42.9087
EVENT_LONGITUDE_DEGREE: 13.1288
EVENT_DEPTH_KM: 7.5
HYPOCENTER_REFERENCE: INGV-CNT_Seismic_Bulletin
MAGNITUDE_W: 5.9
MAGNITUDE_W_REFERENCE: INGV-webservice
MAGNITUDE_L: 5.9
MAGNITUDE_L_REFERENCE: INGV-CNT_Seismic_Bulletin
FOCAL_MECHANISM: NF
NETWORK: IT
STATION_CODE: ACC
STATION_NAME: Accumoli
STATION_LATITUDE_DEGREE: 42.695999
STATION_LONGITUDE_DEGREE: 13.242000
STATION_ELEVATION_M: 922
LOCATION: 
SENSOR_DEPTH_M: 
VS30_M/S: 
SITE_CLASSIFICATION_EC8: A*
MORPHOLOGIC_CLASSIFICATION: 
EPICENTRAL_DISTANCE_KM: 25.4
EARTHQUAKE_BACKAZIMUTH_DEGREE: 338.6
DATE_TIME_FIRST_SAMPLE_YYYYMMDD_HHMMSS: 20161026_191805.089
DATE_TIME_FIRST_SAMPLE_PRECISION: milliseconds
SAMPLING_INTERVAL_S: 0.005000
NDATA: 12982
DURATION_S: 64.910
STREAM: HGN
UNITS: cm/s
INSTRUMENT: sensor = Unknown [Unknown] | digitizer = Unknown [Unknown]
INSTRUMENT_ANALOG/DIGITAL: D
INSTRUMENTAL_FREQUENCY_HZ: 
INSTRUMENTAL_DAMPING: 
FULL_SCALE_G: 
N_BIT_DIGITAL_CONVERTER: 
PGV_CM/S: 2.927292
TIME_PGV_S: 21.120000
BASELINE_CORRECTION: BASELINE REMOVED
FILTER_TYPE: BUTTERWORTH
FILTER_ORDER: 2
LOW_CUT_FREQUENCY_HZ: 0.040
HIGH_CUT_FREQUENCY_HZ: 40.000
LATE/NORMAL_TRIGGERED: NT
DATABASE_VERSION: DYNA 1.0
HEADER_FORMAT: DYNA 1.2
DATA_TYPE: VELOCITY
PROCESSING: manual (Paolucci et al., 2011)
DATA_TIMESTAMP_YYYYMMDD_HHMMSS: 20161028_130247.609
DATA_LICENSE: CC-BY3_0-IT (http://creativecommons.org/licenses/by/3.0/deed.en)
DATA_CITATION: ESM working group (2015), European Strong-Motion database, version 0.1, Network Activity 3: Networking acceleration networks and SM data users. Project NERA (www.nera-eu.org)
DATA_CREATOR: ESM working group
ORIGINAL_DATA_MEDIATOR_CITATION: Ufficio Rischio Sismico e Vulcanico del Dipartimento della Protezione Civile (http://www.protezionecivile.gov.it/)
ORIGINAL_DATA_MEDIATOR: Rete Accelerometrica Nazionale - RAN Download (http://www.mot1.it/randownload/)
ORIGINAL_DATA_CREATOR_CITATION: Italian Strong Motion Network, Italian Civil Protection Department http://www.protezionecivile.gov.it
ORIGINAL_DATA_CREATOR: network: IT (Italian Strong Motion Network); owner: Dipartimento Della Protezione Civile
USER1: /home/dyna/processing-itaca/processing.py /var/www/processing//tmp/dyna_ingv//IT.ACC..HGE.D.20161026.191806.X.ACC.ASC /var/www/processing//tmp/dyna_ingv//IT.ACC..HGN.D.20161026.191806.X.ACC.ASC /var/www/processing//tmp/dyna_ingv//IT.ACC..HGZ.D.20161026.191806.X.ACC.ASC --tmp /var/www/processing//tmp/dyna_ingv/ --le 0.040 --he 40.000 --ln 0.040 --hn 40.000 --lz 0.040 --hz 40.000 --fo 2 --ca 0 --cz 40 --ta 5 --tz 5 --mf 1 --rf 0 --tr NT
USER2: 
USER3: 
USER4: 
USER5: 
[...]
-0.899747
-0.877280
-0.868154
-0.875361
-0.896846
-0.925968
-0.952123
-0.964076
-0.954729
-0.923766
-0.877469
-0.826990
-0.785477
-0.764272
-0.770322
-0.806344
-0.871900
-0.963241
-1.072585
-1.188950
-1.301135
-1.400729
-1.482853
-1.545559
-1.589631
-1.618031
-1.634187
-1.640629
-1.639199
-1.631719
-1.620004
-1.605735
-1.590866
-1.578111
-1.570801
-1.572178
-1.584630
-1.608956
-1.643896
-1.686225
-1.730931
-1.771006
-1.797791
-1.802865
-1.780487
-1.729406
-1.653960
-1.563554
-1.469595
-1.381582
-1.305221
-1.242844
-1.194042
-1.155719
-1.122821
-1.089950
-1.052321
-1.006069
-0.949574
-0.885238
-0.819625
-0.761534
-0.719392
-0.699899
-0.708142
-0.747179
-0.816480
-0.911019
-1.022277
-1.140477
-1.256584
-1.363322
-1.455543
-1.530593
-1.588785
-1.632912
-1.666804
-1.694319
-1.718693
-1.741645
-1.763078
-1.781664
-1.795274
-1.801243
-1.797217
-1.782144
-1.756352
-1.720832
-1.676324
-1.622426
-1.557372
-1.478796
-1.384558
-1.273238
-1.144830
-1.001352
-0.846874
-0.687465
-0.531162
-0.387210
-0.264424
-0.169734
-0.107820
-0.081228
-0.089950
-0.130642
-0.196305
-0.276971
-0.361253
-0.438193
-0.499063
-0.538946
-0.557351
-0.557073
-0.541989
-0.515635
-0.481091
-0.440971
-0.397069
-0.350358
-0.301249
-0.249838
-0.196588
-0.143340
-0.093745
-0.052404
-0.022775
-0.004910
0.005355
0.014966
0.030922
0.058431
0.100777
0.159390
0.232994
0.316849
0.403399
0.484120
0.551470
0.600376
0.629751
0.643813
0.650950
0.659368
0.673365
0.693452
0.718525
0.747408
0.779759
0.816631
0.859925
0.910843
0.968556
1.029812
1.089206
1.139561
1.172782
1.181693
1.162067
1.113851
1.041806
0.955291
0.866579
0.788711
0.733129
0.706509
0.708786
0.734257
0.774222
0.819051
0.859372
0.887020
0.895819
0.882180
0.845759
0.789626
0.719559
0.643476
0.570661
0.509682
0.466851
0.446917
0.453959
0.490674
0.557400
0.652075
0.770270
0.904691
1.045415
1.181760
1.304379
1.405779
1.479580
1.520683
1.527493
1.503860
1.457644
1.397010
1.328290
1.256693
1.187619
1.126385
1.076507
1.038214
1.008549
0.983540
0.960992
0.941291
0.925924
0.915627
0.908770
0.900269
0.882324
0.846732
0.786985
0.699604
0.585241
0.449552
0.302784
0.157640
0.026837
-0.078857
-0.153018
-0.195827
-0.213788
-0.216551
-0.213327
-0.210932
-0.213428
-0.222678
-0.239184
-0.262865
-0.293506
-0.330397
-0.371546
-0.413959
-0.455193
-0.494361
-0.531520
-0.566162
-0.596161
-0.618077
-0.627802
-0.620270
-0.590010
-0.533550
-0.450845
-0.344394
-0.217967
-0.076095
0.076166
0.233486
0.390155
0.539759
0.675570
0.791632
0.883680
0.949763
0.990510
1.008874
1.009849
1.000320
0.988344
0.981845
0.987395
1.009474
1.050138
1.108786
1.182074
1.264462
1.349314
1.430444
1.503533
1.566258
1.617657
1.657618
1.685734
1.700173
1.698642
1.680656
1.648525
1.606708
1.560364
1.513568
1.468344
1.425468
1.385968
1.351392
1.323117
1.302527
1.291615
1.292305
1.305635
1.332023
1.371193
1.421420
1.479587
1.541816
1.603676
1.660715
1.709620
1.748650
1.777153
1.795347
1.804422
1.806098
1.801867
1.792837
1.780203
1.765740
1.751798
1.740833
1.734927
1.735125
1.740433
1.747646
1.752643
1.751641
1.741816
1.722223
1.694339
1.661197
1.626211
1.592434
1.561434
1.532363
1.502695
1.469885
1.432249
1.388863
1.339590
1.285811
1.230992
1.180174
1.138449
1.109036
1.092052
1.084738
1.082764
1.081845
1.079036
1.073392
1.066201
1.060760
1.061806
1.074639
1.103273
1.147819
1.203226
1.260202
1.307104
1.332328
1.326938
1.286273
1.210293
1.103259
0.972328
0.826150
0.675284
0.531948
0.406184
0.301895
0.217329
0.148223
0.089896
0.038676
-0.006852
-0.046137
-0.078238
-0.102985
-0.121225
-0.134716
-0.146270
-0.159922
-0.180573
-0.213291
-0.262162
-0.328490
-0.409880
-0.501182
-0.596071
-0.688194
-0.771943
-0.843122
-0.899704
-0.942756
-0.976934
-1.009182
-1.045482
-1.087690
-1.132431
-1.172524
-1.200356
-1.211350
-1.205651
-1.188116
-1.167028
-1.151135
-1.146394
-1.154889
-1.175281
-1.202646
-1.228644
-1.244050
-1.242786
-1.224447
-1.193784
-1.158586
-1.127815
-1.110048
-1.111970
-1.137101
-1.184629
-1.248727
-1.319431
-1.385010
-1.434273
-1.458415
-1.452902
-1.418182
-1.358398
-1.279911
-1.190877
-1.100679
-1.018303
-0.950647
-0.901632
-0.871837
-0.858569
-0.856803
-0.860991
-0.867047
-0.873598
-0.881682
-0.893177
-0.909487
-0.931351
-0.958971
-0.991685
-1.027663
-1.064309
-1.099171
-1.130772
-1.159446
-1.188114
-1.221843
-1.265714
-1.322491
-1.391735
-1.470305
-1.553395
-1.635365
-1.710348
-1.773108
-1.820199
-1.850707
-1.866066
-1.869004
-1.862408
-1.849138
-1.832310
-1.814689
-1.797571
-1.780582
-1.762354
-1.741186
-1.715699
-1.685616
-1.652028
-1.617031
-1.583620
-1.555954
-1.538718
-1.535206
-1.545469
-1.565702
-1.589023
-1.607363
-1.613891
-1.604800
-1.579352
-1.538654
-1.484414
-1.417994
-1.339772
-1.249266
-1.146043
-1.030937
-0.907318
-0.781557
-0.661533
-0.554103
-0.463740
-0.392130
-0.337378
-0.293708
-0.253252
-0.209003
-0.156680
-0.094988
-0.025340
0.048650
0.122428
0.192466
0.257931
0.320799
0.384381
0.451490
0.523048
0.597020
0.668068
0.728817
0.772392
0.794833
0.796337
0.780914
0.754840
0.725045
0.698048
0.679011
0.670804
0.673741
0.685924
0.703519
0.721339
0.734350
0.739304
0.735238
0.722814
0.703443
0.678756
0.650131
0.618117
0.582461
0.542908
0.499669
0.453194
0.404360
0.355317
0.309652
0.271384
0.243845
0.229301
0.228700
0.240871
0.261974
0.286146
0.306838
0.318109
0.316085
0.300164
0.272709
0.237268
0.197012
0.154341
0.110989
0.067992
0.025768
-0.015605
-0.056079
-0.095316
-0.132332
-0.165504
-0.193290
-0.215471
-0.234410
-0.255563
-0.286193
-0.332584
-0.397984
-0.482116
-0.581250
-0.689311
-0.800136
-0.908934
-1.012466
-1.109105
-1.199042
-1.284226
-1.367450
-1.450631
-1.533536
-1.613778
-1.687598
-1.751176
-1.802115
-1.839775
-1.864458
-1.876875
-1.878269
-1.870441
-1.855394
-1.835071
-1.811377
-1.785993
-1.760013
-1.734241
-1.710021
-1.689720
-1.676524
-1.673745
-1.683817
-1.707183
-1.741570
-1.782213
-1.822970
-1.857608
-1.880656
-1.887898
-1.876928
-1.847805
-1.803288
-1.748390
-1.689447
-1.632663
-1.582100
-1.538326
-1.499245
-1.462430
-1.426567
-1.391316
-1.356741
-1.322876
-1.289459
-1.256074
-1.222434
-1.188306
-1.153174
-1.116126
-1.076040
-1.031736
-0.981914
-0.925411
-0.861771
-0.791234
-0.714294
-0.631607
-0.543890
-0.451648
-0.355612
-0.257646
-0.160717
-0.067822
0.018967
0.098675
0.171054
0.236065
0.293463
0.342688
0.383196
0.415016
0.438973
0.456262
0.467715
0.473480
0.473421
0.467771
0.457344
0.443305
0.427107
0.411001
0.398444
0.393859
0.402081
0.427548
0.473140
0.539377
0.624691
0.725867
0.837340
0.950141
1.053269
1.137431
1.197292
1.231082
1.240043
1.228395
1.202521
1.169186
1.134204
1.102363
1.077574
1.062285
1.056733
1.059123
1.066992
1.078819
1.094574
1.115112
1.141330
1.173631
1.211616
1.253869
1.297874
1.340206
1.377207
1.405937
1.424915
1.434498
1.436887
1.435559
1.434267
1.436270
1.444045
1.459111
1.481698
1.510543
1.543020
1.575416
1.603370
1.622467
1.628747
1.619294
1.592971
1.550894
1.496266
1.433467
1.366941
1.300523
1.237016
1.177986
1.123860
1.074064
1.027331
0.982370
0.938505
0.895817
0.854833
0.816117
0.780078
0.747055
0.717452
0.691722
0.670482
0.654785
0.646117
0.646089
0.656121
0.676945
0.707859
0.746162
0.787268
0.825635
0.856093
0.874824
0.879675
0.870081
0.846958
0.812614
0.770350
0.723686
0.675725
0.629141
0.586543
0.550549
0.523530
0.507315
0.502734
0.508973
0.523173
0.540608
0.555502
0.562284
0.556864
0.537463
0.505016
0.463201
0.417706
0.374607
0.338432
0.310925
0.291045
0.275856
0.261550
0.244545
0.222352
0.193579
0.157670
0.115516
0.070202
0.026564
-0.010438
-0.037449
-0.053889
-0.062380
-0.068288
-0.078121
-0.097129
-0.127666
-0.169204
-0.218905
-0.271839
-0.321668
-0.362172
-0.388711
-0.399018
-0.393522
-0.375487
-0.350626
-0.325738
-0.307056
-0.299270
-0.305344
-0.326672
-0.363014
-0.412067
-0.469138
-0.527771
-0.581457
-0.625109
-0.655229
-0.669700
-0.668152
-0.652075
-0.624043
-0.586773
-0.542454
-0.492189
-0.435687
-0.371577
-0.298154
-0.214417
-0.121481
-0.023496
0.073014
0.160964
0.234280
0.288982
0.324476
0.344439
0.355573
0.364853
0.377636
0.397161
0.424586
0.459506
0.500619
0.545812
0.592166
0.636707
0.677518
0.714416
0.748650
0.781694
0.814183
0.846040
0.877229
0.907923
0.938274
0.968388
0.998167
1.027089
1.054733
1.081847
1.110775
1.144875
1.187339
1.240052
1.303100
1.375017
1.453257
1.534628
1.615974
1.694855
1.769575
1.838632
1.900466
1.953797
1.998060
2.033533
2.061121
2.082078
2.097920
2.110444
2.121664
2.133825
2.149501
2.171438
2.201927
2.241944
2.290572
2.345069
2.401701
2.456847
2.507466
2.550866
2.584533
2.606680
2.617323
2.618934
2.615892
2.612799
2.612640
2.615939
2.621413
2.627569
2.634041
2.641579
2.650886
2.661738
2.673145
2.683878
2.692683
2.698055
2.697794
2.689045
2.669076
2.636343
2.591223
2.535860
2.472899
2.403791
2.327994
2.243806
2.150120
2.047617
1.938664
1.826391
1.713876
1.603786
1.498279
1.399086
1.307677
1.225429
1.153623
1.093083
1.043709
1.004337
0.972931
0.946602
0.921601
0.893908
0.860295
0.819160
0.770715
0.716728
0.660222
0.604973
0.554513
0.511020
0.474876
0.444796
0.418050
0.391004
0.360361
0.324383
0.283213
0.238419
0.192310
0.147382
0.105938
0.069651
0.039106
0.013756
-0.007569
-0.026060
-0.042690
-0.058239
-0.073271
-0.088082
-0.102925
-0.118543
-0.136541
-0.159174
-0.188716
-0.226916
-0.274628
-0.331413
-0.395398
-0.463807
-0.533943
-0.603938
-0.673028
-0.741517
-0.810396
-0.880507
-0.951702
-1.022770
-1.091863
-1.156827
-1.215796
-1.268125
-1.314716
-1.357447
-1.398671
-1.440970
-1.486529
-1.536423
-1.590486
-1.647382
-1.704329
-1.757089
-1.800982
-1.832716
-1.851952
-1.861605
-1.866837
-1.873210
-1.884653
-1.902139
-1.923822
-1.946377
-1.966626
-1.982491
-1.993068
-1.998411
-1.999341
-1.997139
-1.993240
-1.988922
-1.984744
-1.980145
-1.973958
-1.965557
-1.955349
-1.944223
-1.932848
-1.921173
-1.907931
-1.890799
-1.867597
-1.837483
-1.801096
-1.759979
-1.716056
-1.671640
-1.629847
-1.594761
-1.570854
-1.561852
-1.569706
-1.594353
-1.634233
-1.686779
-1.748418
-1.814442
-1.879128
-1.936215
-1.979873
-2.005957
-2.012850
-2.001306
-1.973486
-1.931840
-1.878474
-1.815372
-1.745212
-1.671945
-1.600655
-1.536804
-1.485194
-1.449017
-1.429510
-1.426209
-1.437123
-1.458282
-1.483517
-1.505817
-1.519726
-1.522527
-1.513694
-1.494486
-1.468135
-1.439373
-1.413186
-1.393795
-1.384083
-1.385096
-1.395655
-1.412461
-1.430735
-1.445167
-1.451010
-1.445169
-1.426971
-1.398344
-1.363457
-1.327997
-1.298199
-1.279812
-1.277369
-1.293605
-1.328880
-1.381136
-1.446495
-1.519902
-1.595747
-1.668511
-1.733244
-1.785723
-1.822398
-1.840567
-1.838930
-1.818035
-1.780182
-1.728932
-1.668414
-1.602634
-1.535000
-1.468096
-1.403530
-1.341796
-1.282315
-1.223725
-1.164179
-1.101580
-1.033877
-0.959460
-0.877385
-0.787221
-0.688792
-0.582183
-0.467958
-0.347553
-0.223783
-0.100980
0.015526
0.120245
0.208324
0.276262
0.322559
0.348001
0.355333
0.348404
0.331035
0.306042
0.275174
0.239718
0.200680
0.158612
0.113905
0.067558
0.021644
-0.021231
-0.058839
-0.089533
-0.112307
-0.127469
-0.136978
-0.143770
-0.150951
-0.161556
-0.178457
-0.203880
-0.238702
-0.282176
-0.332102
-0.385118
-0.437300
-0.485209
-0.527025
-0.563221
-0.596233
-0.629397
-0.665947
-0.708272
-0.757233
-0.811856
-0.869714
-0.927801
-0.983486
-1.035381
-1.083975
-1.131773
-1.182723
-1.241025
-1.309818
-1.390293
-1.481442
-1.580248
-1.682098
-1.781566
-1.873654
-1.954879
-2.023578
-2.079605
-2.123819
-2.157539
-2.182267
-2.199535
-2.210781
-2.217367
-2.220340
-2.219843
-2.215041
-2.204826
-2.188607
-2.166714
-2.140450
-2.111863
-2.083083
-2.055354
-2.028272
-1.999688
-1.966249
-1.924297
-1.870791
-1.803916
-1.723239
-1.629651
-1.525387
-1.413977
-1.299707
-1.186676
-1.078125
-0.976253
-0.882175
-0.795886
-0.716315
-0.641746
-0.570780
-0.503030
-0.438951
-0.379244
-0.324175
-0.272743
-0.222182
-0.168268
-0.106085
-0.031002
0.060093
0.167677
0.289175
0.419243
0.550565
0.675361
0.787417
0.883446
0.963115
1.028543
1.083710
1.133244
1.180798
1.228182
1.275610
1.322344
1.367279
1.409442
1.448268
1.483522
1.515008
1.542450
1.565717
1.585064
1.601204
1.615125
1.627739
1.639753
1.651967
1.665708
1.682942
1.705956
1.737023
1.778470
1.832813
1.902265
1.987768
2.088293
2.200796
2.320644
2.442240
2.559572
2.666710
2.758568
2.831623
2.883982
2.915341
2.927292
2.923222
2.907361
2.883746
2.855894
2.826962
2.799969
2.777745
2.762443
2.754981
2.755010
2.761304
2.772004
2.784561
2.795781
2.802222
2.800732
2.788981
2.765805
2.731165
2.685932
2.631915
2.572028
2.510060
2.449952
2.394967
2.347394
2.308734
2.279797
2.260677
2.250899
2.249598
2.255394
2.266143
2.279033
2.291094
2.299609
2.302184
2.296831
2.282473
2.259492
2.229581
2.194711
2.155980
2.113043
2.064149
2.006655
1.938111
1.857579
1.766368
1.667745
1.566105
1.466227
1.372634
1.288872
1.216812
1.156389
1.105875
1.062447
1.022952
0.984769
0.946328
0.906814
0.865386
0.820730
0.771219
0.715382
0.652429
0.582841
0.508915
0.434710
0.364942
0.303687
0.253864
0.216868
0.192036
0.177013
0.169034
0.165851
0.165701
0.166772
0.166945
0.164060
0.156457
0.143415
0.125129
0.102398
0.076237
0.047458
0.016564
-0.015800
-0.048478
-0.080173
-0.110124
-0.138257
-0.164769
-0.189790
-0.213396
-0.235795
-0.257547
-0.279671
-0.303412
-0.329737
-0.359057
-0.391362
-0.426394
-0.463625
-0.502306
-0.541562
-0.580420
-0.617843
-0.652825
-0.684498
-0.712281
-0.736057
-0.756358
-0.774364
-0.791499
-0.808913
-0.827297
-0.847080
-0.868806
-0.893450
-0.922396
-0.957067
-0.998463
-1.046773
-1.101090
-1.159333
-1.218378
-1.274447
-1.323908
-1.364193
-1.394338
-1.415079
-1.428542
-1.437480
-1.444260
-1.450051
-1.454524
-1.456160
-1.452901
-1.442932
-1.425497
-1.401380
-1.372702
-1.342337
-1.313458
-1.289331
-1.273049
-1.267047
-1.272691
-1.290243
-1.318956
-1.357090
-1.402061
-1.450767
-1.499761
-1.545471
-1.584717
-1.615133
-1.635261
-1.644573
-1.643541
-1.633610
-1.616922
-1.595704
-1.571639
-1.545724
-1.518668
-1.491342
-1.464843
-1.440206
-1.418113
-1.398832
-1.382448
-1.369160
-1.359221
-1.352442
-1.347726
-1.343087
-1.336028
-1.323950
-1.304545
-1.276163
-1.238125
-1.190945
-1.136270
-1.076284
-1.012815
-0.946746
-0.877870
-0.804960
-0.726145
-0.639839
-0.545903
-0.446315
-0.344835
-0.246037
-0.154366
-0.073509
-0.005981
0.047191
0.086655
0.114509
0.133709
0.147463
0.158824
0.170297
0.183478
0.199057
0.217279
0.238306
0.262006
0.287612
0.313884
0.339804
0.365319
0.391540
0.420260
0.453173
0.491227
0.534241
0.580850
0.628766
0.675188
0.717173
0.751825
0.776442
0.788988
0.788864
0.777528
0.758437
0.736069
0.714555
0.696795
0.684104
0.676168
0.671325
0.667084
0.660625
0.649476
0.632398
0.609992
0.584559
0.559301
0.537368
0.521133
0.511691
0.508611
0.510270
0.514684
0.520264
0.526071
0.531700
0.537128
0.542658
0.548858
0.556347
0.565459
0.575876
0.586442
0.595509
0.601720
0.604670
0.604908
0.603505
0.601740
0.601005
0.602458
0.606540
0.612770
0.619843
0.625882
0.628819
0.626787
0.618453
0.603363
0.582337
0.557683
0.532936
0.512110
0.498739
0.495021
0.501281
0.516068
0.536864
0.560848
0.585395
0.608358
0.628229
0.644112
0.655539
0.662345
0.664743
0.663290
0.658465
0.650314
0.638752
0.624173
0.607521
0.589720
0.571147
0.551659
0.531046
0.509415
0.487270
0.465407
0.444798
0.426509
0.411628
0.401138
0.395617
0.394794
0.397315
0.401103
0.404170
0.405314
0.404307
0.401598
0.397766
0.392980
0.386674
0.377559
0.363900
0.343929
0.316249
0.280216
0.236395
0.186941
0.135480
0.086230
0.042847
0.007734
-0.018173
-0.035357
-0.045286
-0.049851
-0.050975
-0.050219
-0.048489
-0.046269
-0.044047
-0.042253
-0.041018
-0.040431
-0.041055
-0.044011
-0.050514
-0.061328
-0.076451
-0.095133
-0.116271
-0.138851
-0.162084
-0.185290
-0.207690
-0.228312
-0.246090
-0.260115
-0.269871
-0.275212
-0.276060
-0.272085
-0.262571
-0.246568
-0.223336
-0.192767
-0.155517
-0.112900
-0.066559
-0.017971
0.031822
0.082033
0.131809
0.180281
0.226880
0.271376
0.313505
0.352646
0.387861
0.418164
0.442796
0.461418
0.474245
0.481980
0.485550
0.485866
0.483799
0.480241
0.475999
0.471520
0.466619
0.460468
0.451964
0.440406
0.425976
0.409550
0.392058
0.374002
0.355429
0.336228
0.316418
0.296156
0.275433
0.253871
0.230913
0.206224
0.179919
0.152482
0.124550
0.096820
0.070099
0.045271
0.023020
0.003493
-0.013806
-0.029824
-0.045578
-0.061736
-0.078348
-0.094942
-0.110914
-0.125827
-0.139452
-0.151780
-0.163129
-0.174186
-0.185937
-0.199552
-0.216313
-0.237491
-0.264099
-0.296622
-0.334933
-0.378221
-0.424763
-0.471932
-0.516757
-0.556757
-0.590466
-0.617460
-0.638228
-0.654171
-0.667525
-0.680896
-0.696517
-0.715687
-0.738716
-0.765099
-0.793682
-0.822904
-0.851155
-0.877039
-0.899413
-0.917360
-0.930316
-0.938313
-0.942106
-0.942994
-0.942374
-0.941239
-0.939880
-0.937938
-0.934745
-0.929699
-0.922459
-0.913029
-0.901864
-0.889949
-0.878722
-0.869704
-0.863874
-0.861109
-0.860108
-0.858934
-0.855906
-0.850290
-0.842378
-0.833090
-0.823525
-0.814706
-0.807404
-0.801820
-0.797253
-0.792111
-0.784381
-0.772359
-0.755255
-0.733392
-0.708143
-0.681700
-0.656588
-0.634962
-0.617974
-0.605441
-0.595843
-0.586636
-0.574945
-0.558470
-0.536205
-0.508696
-0.477850
-0.446462
-0.417570
-0.393670
-0.375957
-0.363984
-0.355939
-0.349308
-0.341639
-0.331247
-0.317490
-0.300404
-0.280096
-0.256474
-0.229286
-0.198248
-0.163165
-0.124151
-0.081963
-0.038198
0.004828
0.044510
0.078460
0.104816
0.122316
0.130371
0.129235
0.120097
0.105023
0.086628
0.067496
0.049658
0.034393
0.022329
0.013781
0.009084
0.008686
0.012911
0.021577
0.033820
0.048253
0.063236
0.077129
0.088529
0.096535
0.101010
