EVENT_NAME: L_AQUILA
EVENT_ID: IT-2009-0009
EVENT_DATE_YYYYMMDD: 20090406
EVENT_TIME_HHMMSS: 013240
EVENT_LATITUDE_DEGREE: 42.3420
EVENT_LONGITUDE_DEGREE: 13.3800
EVENT_DEPTH_KM: 8.3
HYPOCENTER_REFERENCE: INGV-CNT_Seismic_Bulletin
MAGNITUDE_W: 6.3
MAGNITUDE_W_REFERENCE: RCMT-INGV
MAGNITUDE_L: 5.9
MAGNITUDE_L_REFERENCE: INGV-CNT_Seismic_Bulletin
FOCAL_MECHANISM: NF
NETWORK: IT
STATION_CODE: AQK
STATION_NAME: L'AQUILA - V. ATERNO - AQUIL PARK ING.
STATION_LATITUDE_DEGREE: 42.344967
STATION_LONGITUDE_DEGREE: 13.400949
STATION_ELEVATION_M: 726
LOCATION: 
SENSOR_DEPTH_M: 0.0
VS30_M/S: 705
SITE_CLASSIFICATION_EC8: B
MORPHOLOGIC_CLASSIFICATION: SL
EPICENTRAL_DISTANCE_KM: 1.8
EARTHQUAKE_BACKAZIMUTH_DEGREE: 259.2
DATE_TIME_FIRST_SAMPLE_YYYYMMDD_HHMMSS: 20090406_013212.000
DATE_TIME_FIRST_SAMPLE_PRECISION: seconds
SAMPLING_INTERVAL_S: 0.005000
NDATA: 105
DURATION_S: 
STREAM: HNN
UNITS: cm/s^2
INSTRUMENT: sensor = FBA-3 [Kinemetrics] | digitizer = Etna [Kinemetrics]
INSTRUMENT_ANALOG/DIGITAL: D
INSTRUMENTAL_FREQUENCY_HZ: 214.000
INSTRUMENTAL_DAMPING: 0.700000
FULL_SCALE_G: 1.0
N_BIT_DIGITAL_CONVERTER: 18
PGV_CM/S: -35.797610
TIME_PGV_S: 32.955000
BASELINE_CORRECTION: BASELINE REMOVED
FILTER_TYPE: BUTTERWORTH
FILTER_ORDER: 2
LOW_CUT_FREQUENCY_HZ: 0.100
HIGH_CUT_FREQUENCY_HZ: 40.000
LATE/NORMAL_TRIGGERED: NT
DATABASE_VERSION: DYNA 1.0
HEADER_FORMAT: DYNA 1.2
DATA_TYPE: PSEUDO-VELOCITY RESPONSE SPECTRUM
PROCESSING: manual (Paolucci et al., 2011)
DATA_TIMESTAMP_YYYYMMDD_HHMMSS: 
DATA_LICENSE: CC-BY3_0-IT (http://creativecommons.org/licenses/by/3.0/deed.en)
DATA_CITATION: ESM working group (2015), European Strong-Motion database, version 0.1, Network Activity 3: Networking acceleration networks and SM data users. Project NERA (www.nera-eu.org)
DATA_CREATOR: ESM working group
ORIGINAL_DATA_MEDIATOR_CITATION: data obtained within the DPC-INGV data exchange agreements
ORIGINAL_DATA_MEDIATOR: Archive of Italian Department of Civil Protection
ORIGINAL_DATA_CREATOR_CITATION: Italian Strong Motion Network, Italian Civil Protection Department http://www.protezionecivile.gov.it
ORIGINAL_DATA_CREATOR: network: IT (Italian Strong Motion Network); owner: Dipartimento Della Protezione Civile
USER1: 
USER2: 
USER3: 
USER4: 
USER5: 
    0.010000     0.553299
    0.020000     1.199303
    0.022000     1.448225
    0.025000     1.584635
    0.029000     1.963650
    0.030000     2.167561
    0.032000     2.594880
    0.035001     4.153208
    0.036000     4.197389
    0.040000     4.573679
    0.041999     5.935113
    0.044001     6.243082
    0.045000     6.275321
    0.046000     6.403621
    0.048001     6.839552
    0.050000     6.953965
    0.054999     6.565994
    0.059999     7.504729
    0.064998     7.139612
    0.067002     7.358497
    0.069999     7.392958
    0.075002     6.587255
    0.080000     8.598955
    0.084998     9.807258
    0.090001     9.296205
    0.095003    10.394804
    0.100000    10.920751
    0.109999     8.629897
    0.120005    12.052381
    0.130005    17.239189
    0.132996    18.637602
    0.139997    20.226061
    0.149993    19.326246
    0.160000    18.346437
    0.170010    16.265472
    0.179986    18.592920
    0.190006    20.334850
    0.200000    17.492325
    0.220022    20.010483
    0.239981    26.278231
    0.250000    27.295328
    0.260010    26.019459
    0.280034    27.493462
    0.290023    28.575001
    0.300030    29.601118
    0.320000    31.339306
    0.340020    32.074493
    0.350017    32.052605
    0.359971    32.000660
    0.379939    32.419746
    0.400000    36.351154
    0.419992    43.769543
    0.439947    40.259212
    0.450045    36.709431
    0.459982    36.663715
    0.480077    35.998535
    0.500000    34.790035
    0.550055    35.010593
    0.599880    44.981606
    0.650195    53.637268
    0.667111    57.514198
    0.699790    58.576382
    0.750188    54.026531
    0.800000    60.132275
    0.850340    61.998402
    0.900090    49.157707
    0.949668    51.365948
    1.000000    55.590847
    1.100110    63.084148
    1.200480    69.389778
    1.300390    73.655006
    1.400560    78.273560
    1.499250    82.141174
    1.600000    82.692650
    1.700680    80.214638
    1.798561    76.388283
    1.901141    73.855072
    2.000000    70.902916
    2.197802    63.157974
    2.398082    54.837963
    2.500000    50.907925
    2.597403    47.498627
    2.801121    43.135185
    3.003003    40.529743
    3.205128    38.058170
    3.401361    35.610813
    3.496503    34.401260
    3.597122    33.208717
    3.802281    30.898188
    4.000000    28.711884
    4.201681    26.667048
    4.405286    24.769630
    4.608295    23.018148
    4.807692    21.408720
    5.000000    19.931076
    5.494505    16.756004
    5.988024    14.208772
    6.493506    12.158281
    6.993007    10.500907
    7.518797     9.729061
    8.000000     9.296011
    8.474576     8.881281
    9.009009     8.483681
    9.523809     8.106134
   10.000000     7.747813
