EVENT_NAME: CENTRAL_ITALY
EVENT_ID: EMSC-20161026_0000095
EVENT_DATE_YYYYMMDD: 20161026
EVENT_TIME_HHMMSS: 191806
EVENT_LATITUDE_DEGREE: 42.9087
EVENT_LONGITUDE_DEGREE: 13.1288
EVENT_DEPTH_KM: 7.5
HYPOCENTER_REFERENCE: INGV-CNT_Seismic_Bulletin
MAGNITUDE_W: 5.9
MAGNITUDE_W_REFERENCE: INGV-webservice
MAGNITUDE_L: 5.9
MAGNITUDE_L_REFERENCE: INGV-CNT_Seismic_Bulletin
FOCAL_MECHANISM: NF
NETWORK: IT
STATION_CODE: ACC
STATION_NAME: Accumoli
STATION_LATITUDE_DEGREE: 42.695999
STATION_LONGITUDE_DEGREE: 13.242000
STATION_ELEVATION_M: 922
LOCATION: 
SENSOR_DEPTH_M: 
VS30_M/S: 
SITE_CLASSIFICATION_EC8: A*
MORPHOLOGIC_CLASSIFICATION: 
EPICENTRAL_DISTANCE_KM: 25.4
EARTHQUAKE_BACKAZIMUTH_DEGREE: 338.6
DATE_TIME_FIRST_SAMPLE_YYYYMMDD_HHMMSS: 20161026_191805.089
DATE_TIME_FIRST_SAMPLE_PRECISION: milliseconds
SAMPLING_INTERVAL_S: 0.005000
NDATA: 12982
DURATION_S: 64.910
STREAM: HGN
UNITS: cm
INSTRUMENT: sensor = Unknown [Unknown] | digitizer = Unknown [Unknown]
INSTRUMENT_ANALOG/DIGITAL: D
INSTRUMENTAL_FREQUENCY_HZ: 
INSTRUMENTAL_DAMPING: 
FULL_SCALE_G: 
N_BIT_DIGITAL_CONVERTER: 
PGD_CM: 0.821203
TIME_PGD_S: 19.550000
BASELINE_CORRECTION: BASELINE REMOVED
FILTER_TYPE: BUTTERWORTH
FILTER_ORDER: 2
LOW_CUT_FREQUENCY_HZ: 0.040
HIGH_CUT_FREQUENCY_HZ: 40.000
LATE/NORMAL_TRIGGERED: NT
DATABASE_VERSION: DYNA 1.0
HEADER_FORMAT: DYNA 1.2
DATA_TYPE: DISPLACEMENT
PROCESSING: manual (Paolucci et al., 2011)
DATA_TIMESTAMP_YYYYMMDD_HHMMSS: 20161028_130247.609
DATA_LICENSE: CC-BY3_0-IT (http://creativecommons.org/licenses/by/3.0/deed.en)
DATA_CITATION: ESM working group (2015), European Strong-Motion database, version 0.1, Network Activity 3: Networking acceleration networks and SM data users. Project NERA (www.nera-eu.org)
DATA_CREATOR: ESM working group
ORIGINAL_DATA_MEDIATOR_CITATION: Ufficio Rischio Sismico e Vulcanico del Dipartimento della Protezione Civile (http://www.protezionecivile.gov.it/)
ORIGINAL_DATA_MEDIATOR: Rete Accelerometrica Nazionale - RAN Download (http://www.mot1.it/randownload/)
ORIGINAL_DATA_CREATOR_CITATION: Italian Strong Motion Network, Italian Civil Protection Department http://www.protezionecivile.gov.it
ORIGINAL_DATA_CREATOR: network: IT (Italian Strong Motion Network); owner: Dipartimento Della Protezione Civile
USER1: /home/dyna/processing-itaca/processing.py /var/www/processing//tmp/dyna_ingv//IT.ACC..HGE.D.20161026.191806.X.ACC.ASC /var/www/processing//tmp/dyna_ingv//IT.ACC..HGN.D.20161026.191806.X.ACC.ASC /var/www/processing//tmp/dyna_ingv//IT.ACC..HGZ.D.20161026.191806.X.ACC.ASC --tmp /var/www/processing//tmp/dyna_ingv/ --le 0.040 --he 40.000 --ln 0.040 --hn 40.000 --lz 0.040 --hz 40.000 --fo 2 --ca 0 --cz 40 --ta 5 --tz 5 --mf 1 --rf 0 --tr NT
USER2: 
USER3: 
USER4: 
USER5: 
[...]
-3.166190e-01
-3.242719e-01
-3.322159e-01
-3.403804e-01
-3.487144e-01
-3.571860e-01
-3.657795e-01
-3.744877e-01
-3.833031e-01
-3.922114e-01
-4.011878e-01
-4.101940e-01
-4.191801e-01
-4.280908e-01
-4.368726e-01
-4.454767e-01
-4.538584e-01
-4.619705e-01
-4.697573e-01
-4.771513e-01
-4.840741e-01
-4.904403e-01
-4.961645e-01
-5.011712e-01
-5.054056e-01
-5.088429e-01
-5.114987e-01
-5.134348e-01
-5.147569e-01
-5.156056e-01
-5.161447e-01
-5.165508e-01
-5.170006e-01
-5.176538e-01
-5.186353e-01
-5.200201e-01
-5.218264e-01
-5.240174e-01
-5.265127e-01
-5.292074e-01
-5.319942e-01
-5.347795e-01
-5.374895e-01
-5.400677e-01
-5.424731e-01
-5.446780e-01
-5.466633e-01
-5.484151e-01
-5.499213e-01
-5.511705e-01
-5.521535e-01
-5.528702e-01
-5.533389e-01
-5.536009e-01
-5.537148e-01
-5.537394e-01
-5.537126e-01
-5.536377e-01
-5.534831e-01
-5.531910e-01
-5.526871e-01
-5.518901e-01
-5.507252e-01
-5.491409e-01
-5.471239e-01
-5.447033e-01
-5.419460e-01
-5.389441e-01
-5.357953e-01
-5.325763e-01
-5.293215e-01
-5.260247e-01
-5.226579e-01
-5.191906e-01
-5.155980e-01
-5.118609e-01
-5.079621e-01
-5.038790e-01
-4.995794e-01
-4.950251e-01
-4.901824e-01
-4.850333e-01
-4.795873e-01
-4.738895e-01
-4.680256e-01
-4.621171e-01
-4.563068e-01
-4.507375e-01
-4.455285e-01
-4.407520e-01
-4.364191e-01
-4.324756e-01
-4.288099e-01
-4.252774e-01
-4.217335e-01
-4.180622e-01
-4.141911e-01
-4.100958e-01
-4.057990e-01
-4.013639e-01
-3.968848e-01
-3.924739e-01
-3.882451e-01
-3.842969e-01
-3.806991e-01
-3.774817e-01
-3.746284e-01
-3.720800e-01
-3.697458e-01
-3.675112e-01
-3.652414e-01
-3.627880e-01
-3.600010e-01
-3.567407e-01
-3.528893e-01
-3.483659e-01
-3.431388e-01
-3.372300e-01
-3.307081e-01
-3.236792e-01
-3.162813e-01
-3.086779e-01
-3.010404e-01
-2.935211e-01
-2.862329e-01
-2.792478e-01
-2.726064e-01
-2.663229e-01
-2.603848e-01
-2.547529e-01
-2.493704e-01
-2.441793e-01
-2.391366e-01
-2.342189e-01
-2.294139e-01
-2.247074e-01
-2.200778e-01
-2.154997e-01
-2.109558e-01
-2.064545e-01
-2.020429e-01
-1.978092e-01
-1.938743e-01
-1.903763e-01
-1.874501e-01
-1.852023e-01
-1.836884e-01
-1.829002e-01
-1.827660e-01
-1.831603e-01
-1.839254e-01
-1.849045e-01
-1.859734e-01
-1.870562e-01
-1.881228e-01
-1.891775e-01
-1.902446e-01
-1.913580e-01
-1.925540e-01
-1.938683e-01
-1.953358e-01
-1.969878e-01
-1.988455e-01
-2.009153e-01
-2.031913e-01
-2.056631e-01
-2.083207e-01
-2.111515e-01
-2.141323e-01
-2.172227e-01
-2.203617e-01
-2.234630e-01
-2.264131e-01
-2.290808e-01
-2.313351e-01
-2.330570e-01
-2.341469e-01
-2.345274e-01
-2.341465e-01
-2.329791e-01
-2.310283e-01
-2.283295e-01
-2.249517e-01
-2.209935e-01
-2.165751e-01
-2.118263e-01
-2.068738e-01
-2.018294e-01
-1.967801e-01
-1.917785e-01
-1.868368e-01
-1.819276e-01
-1.769906e-01
-1.719432e-01
-1.666926e-01
-1.611486e-01
-1.552383e-01
-1.489159e-01
-1.421694e-01
-1.350172e-01
-1.274995e-01
-1.196682e-01
-1.115799e-01
-1.032918e-01
-9.486316e-02
-8.636229e-02
-7.786909e-02
-6.946581e-02
-6.122318e-02
-5.318964e-02
-4.538782e-02
-3.781998e-02
-3.047826e-02
-2.335092e-02
-1.642108e-02
-9.664122e-03
-3.048537e-03
3.464099e-03
9.922175e-03
1.638370e-02
2.291187e-02
2.957199e-02
3.642795e-02
4.353505e-02
5.093299e-02
5.864207e-02
6.666045e-02
7.496402e-02
8.351212e-02
9.225537e-02
1.011411e-01
1.101179e-01
1.191400e-01
1.281705e-01
1.371798e-01
1.461440e-01
1.550450e-01
1.638737e-01
1.726327e-01
1.813369e-01
1.900115e-01
1.986871e-01
2.073893e-01
2.161275e-01
2.248907e-01
2.336489e-01
2.423580e-01
2.509691e-01
2.594408e-01
2.677468e-01
2.758779e-01
2.838400e-01
2.916472e-01
2.993090e-01
3.068225e-01
3.141719e-01
3.213332e-01
3.282775e-01
3.349754e-01
3.414045e-01
3.475594e-01
3.534603e-01
3.591526e-01
3.646977e-01
3.701580e-01
3.755817e-01
3.809955e-01
3.864047e-01
3.917999e-01
3.971669e-01
4.024979e-01
4.078017e-01
4.131107e-01
4.184839e-01
4.240003e-01
4.297394e-01
4.357555e-01
4.420565e-01
4.485920e-01
4.552537e-01
4.618883e-01
4.683197e-01
4.743712e-01
4.798875e-01
4.847491e-01
4.888799e-01
4.922563e-01
4.949160e-01
4.969469e-01
4.984564e-01
4.995431e-01
5.002842e-01
5.007337e-01
5.009270e-01
5.008928e-01
5.006621e-01
5.002709e-01
4.997560e-01
4.991498e-01
4.984763e-01
4.977449e-01
4.969453e-01
4.960424e-01
4.949760e-01
4.936652e-01
4.920227e-01
4.899733e-01
4.874674e-01
4.844871e-01
4.810461e-01
4.771864e-01
4.729708e-01
4.684722e-01
4.637585e-01
4.588738e-01
4.538279e-01
4.486005e-01
4.431620e-01
4.374999e-01
4.316373e-01
4.256355e-01
4.195787e-01
4.135505e-01
4.076099e-01
4.017747e-01
3.960191e-01
3.902871e-01
3.845127e-01
3.786362e-01
3.726230e-01
3.664798e-01
3.602595e-01
3.540456e-01
3.479234e-01
3.419545e-01
3.361615e-01
3.305225e-01
3.249722e-01
3.194124e-01
3.137269e-01
3.078037e-01
3.015601e-01
2.949629e-01
2.880379e-01
2.808665e-01
2.735744e-01
2.663099e-01
2.592190e-01
2.524270e-01
2.460275e-01
2.400731e-01
2.345697e-01
2.294782e-01
2.247249e-01
2.202168e-01
2.158576e-01
2.115648e-01
2.072807e-01
2.029758e-01
1.986405e-01
1.942726e-01
1.898641e-01
1.853983e-01
1.808508e-01
1.761941e-01
1.713992e-01
1.664408e-01
1.613025e-01
1.559809e-01
1.504851e-01
1.448312e-01
1.390340e-01
1.330934e-01
1.269842e-01
1.206556e-01
1.140432e-01
1.070845e-01
9.973297e-02
9.196600e-02
8.378917e-02
7.523743e-02
6.637189e-02
5.727089e-02
4.801736e-02
3.868702e-02
2.934200e-02
2.002996e-02
1.078427e-02
1.622722e-03
-7.450722e-03
-1.643858e-02
-2.534149e-02
-3.415326e-02
-4.285919e-02
-5.143768e-02
-5.986577e-02
-6.812591e-02
-7.621106e-02
-8.412916e-02
-9.190893e-02
-9.960252e-02
-1.072786e-01
-1.150059e-01
-1.228344e-01
-1.307795e-01
-1.388163e-01
-1.468858e-01
-1.549098e-01
-1.628066e-01
-1.704998e-01
-1.779219e-01
-1.850119e-01
-1.917107e-01
-1.979571e-01
-2.036873e-01
-2.088420e-01
-2.133785e-01
-2.172863e-01
-2.205940e-01
-2.233645e-01
-2.256832e-01
-2.276439e-01
-2.293307e-01
-2.307993e-01
-2.320655e-01
-2.331106e-01
-2.338940e-01
-2.343689e-01
-2.344956e-01
-2.342523e-01
-2.336402e-01
-2.326779e-01
-2.313882e-01
-2.297842e-01
-2.278623e-01
-2.256049e-01
-2.229896e-01
-2.200045e-01
-2.166642e-01
-2.130201e-01
-2.091581e-01
-2.051840e-01
-2.012023e-01
-1.972977e-01
-1.935235e-01
-1.898983e-01
-1.864081e-01
-1.830130e-01
-1.796590e-01
-1.762903e-01
-1.728607e-01
-1.693431e-01
-1.657364e-01
-1.620646e-01
-1.583681e-01
-1.546919e-01
-1.510778e-01
-1.475606e-01
-1.441668e-01
-1.409162e-01
-1.378256e-01
-1.349133e-01
-1.321988e-01
-1.297004e-01
-1.274344e-01
-1.254126e-01
-1.236361e-01
-1.220878e-01
-1.207309e-01
-1.195117e-01
-1.183652e-01
-1.172217e-01
-1.160173e-01
-1.147074e-01
-1.132767e-01
-1.117425e-01
-1.101520e-01
-1.085715e-01
-1.070707e-01
-1.057072e-01
-1.045208e-01
-1.035358e-01
-1.027641e-01
-1.022091e-01
-1.018692e-01
-1.017403e-01
-1.018184e-01
-1.020988e-01
-1.025753e-01
-1.032370e-01
-1.040645e-01
-1.050310e-01
-1.061083e-01
-1.072804e-01
-1.085582e-01
-1.099892e-01
-1.116521e-01
-1.136420e-01
-1.160526e-01
-1.189588e-01
-1.224054e-01
-1.264061e-01
-1.309507e-01
-1.360131e-01
-1.415586e-01
-1.475538e-01
-1.539749e-01
-1.608122e-01
-1.680653e-01
-1.757330e-01
-1.838019e-01
-1.922399e-01
-2.009958e-01
-2.100063e-01
-2.192052e-01
-2.285275e-01
-2.379119e-01
-2.473032e-01
-2.566554e-01
-2.659324e-01
-2.751078e-01
-2.841646e-01
-2.930946e-01
-3.018947e-01
-3.105659e-01
-3.191160e-01
-3.275646e-01
-3.359472e-01
-3.443159e-01
-3.527350e-01
-3.612709e-01
-3.699788e-01
-3.788898e-01
-3.880047e-01
-3.972927e-01
-4.066960e-01
-4.161355e-01
-4.255201e-01
-4.347592e-01
-4.437756e-01
-4.525176e-01
-4.609648e-01
-4.691281e-01
-4.770386e-01
-4.847302e-01
-4.922265e-01
-4.995386e-01
-5.066715e-01
-5.136280e-01
-5.204117e-01
-5.270261e-01
-5.334734e-01
-5.397538e-01
-5.458660e-01
-5.518075e-01
-5.575734e-01
-5.631540e-01
-5.685342e-01
-5.736929e-01
-5.786024e-01
-5.832295e-01
-5.875383e-01
-5.914945e-01
-5.950660e-01
-5.982240e-01
-6.009435e-01
-6.032017e-01
-6.049798e-01
-6.062680e-01
-6.070716e-01
-6.074107e-01
-6.073159e-01
-6.068225e-01
-6.059672e-01
-6.047869e-01
-6.033196e-01
-6.016061e-01
-5.996901e-01
-5.976151e-01
-5.954202e-01
-5.931389e-01
-5.908003e-01
-5.884329e-01
-5.860658e-01
-5.837270e-01
-5.814402e-01
-5.792237e-01
-5.770882e-01
-5.750332e-01
-5.730409e-01
-5.710717e-01
-5.690612e-01
-5.669235e-01
-5.645578e-01
-5.618609e-01
-5.587375e-01
-5.551081e-01
-5.509214e-01
-5.461707e-01
-5.409044e-01
-5.352172e-01
-5.292308e-01
-5.230754e-01
-5.168751e-01
-5.107332e-01
-5.047206e-01
-4.988746e-01
-4.932036e-01
-4.876918e-01
-4.823039e-01
-4.769925e-01
-4.717088e-01
-4.664132e-01
-4.610783e-01
-4.556842e-01
-4.502113e-01
-4.446357e-01
-4.389291e-01
-4.330609e-01
-4.270028e-01
-4.207335e-01
-4.142441e-01
-4.075431e-01
-4.006571e-01
-3.936274e-01
-3.865028e-01
-3.793303e-01
-3.721459e-01
-3.649681e-01
-3.577968e-01
-3.506154e-01
-3.433952e-01
-3.360996e-01
-3.286911e-01
-3.211384e-01
-3.134233e-01
-3.055462e-01
-2.975294e-01
-2.894171e-01
-2.812733e-01
-2.731769e-01
-2.652120e-01
-2.574575e-01
-2.499762e-01
-2.428089e-01
-2.359742e-01
-2.294715e-01
-2.232865e-01
-2.173965e-01
-2.117772e-01
-2.064069e-01
-2.012703e-01
-1.963584e-01
-1.916659e-01
-1.871868e-01
-1.829126e-01
-1.788321e-01
-1.749317e-01
-1.711964e-01
-1.676091e-01
-1.641505e-01
-1.607981e-01
-1.575242e-01
-1.542936e-01
-1.510632e-01
-1.477825e-01
-1.443978e-01
-1.408585e-01
-1.371277e-01
-1.331914e-01
-1.290632e-01
-1.247827e-01
-1.204086e-01
-1.160102e-01
-1.116598e-01
-1.074251e-01
-1.033620e-01
-9.951024e-02
-9.589181e-02
-9.251318e-02
-8.936747e-02
-8.643476e-02
-8.368202e-02
-8.106437e-02
-7.852779e-02
-7.601412e-02
-7.346926e-02
-7.085339e-02
-6.815035e-02
-6.537284e-02
-6.256142e-02
-5.977710e-02
-5.708978e-02
-5.456470e-02
-5.224870e-02
-5.016017e-02
-4.828713e-02
-4.659497e-02
-4.504035e-02
-4.358512e-02
-4.220585e-02
-4.089809e-02
-3.967537e-02
-3.856361e-02
-3.759572e-02
-3.680736e-02
-3.622979e-02
-3.587877e-02
-3.574596e-02
-3.579814e-02
-3.598539e-02
-3.625483e-02
-3.656673e-02
-3.690817e-02
-3.729878e-02
-3.778442e-02
-3.842275e-02
-3.926877e-02
-4.036330e-02
-4.172249e-02
-4.333083e-02
-4.514169e-02
-4.708524e-02
-4.908033e-02
-5.104794e-02
-5.292538e-02
-5.467851e-02
-5.630720e-02
-5.784248e-02
-5.933883e-02
-6.086555e-02
-6.249891e-02
-6.431398e-02
-6.637431e-02
-6.872000e-02
-7.135885e-02
-7.426614e-02
-7.739169e-02
-8.066783e-02
-8.401633e-02
-8.735709e-02
-9.061746e-02
-9.373768e-02
-9.667154e-02
-9.938381e-02
-1.018448e-01
-1.040232e-01
-1.058811e-01
-1.073718e-01
-1.084439e-01
-1.090513e-01
-1.091688e-01
-1.088037e-01
-1.079989e-01
-1.068275e-01
-1.053826e-01
-1.037602e-01
-1.020380e-01
-1.002602e-01
-9.843591e-02
-9.654772e-02
-9.456192e-02
-9.243899e-02
-9.014146e-02
-8.763836e-02
-8.490930e-02
-8.194847e-02
-7.876494e-02
-7.537735e-02
-7.180527e-02
-6.806202e-02
-6.415355e-02
-6.008263e-02
-5.585243e-02
-5.146629e-02
-4.692667e-02
-4.223530e-02
-3.739336e-02
-3.240252e-02
-2.726708e-02
-2.199341e-02
-1.658418e-02
-1.103030e-02
-5.305925e-03
6.307671e-04
6.831028e-03
1.334653e-02
2.022161e-02
2.748790e-02
3.516104e-02
4.324091e-02
5.171519e-02
6.056306e-02
6.975622e-02
7.925855e-02
8.902753e-02
9.901784e-02
1.091855e-01
1.194911e-01
1.299015e-01
1.403911e-01
1.509433e-01
1.615516e-01
1.722208e-01
1.829683e-01
1.938255e-01
2.048351e-01
2.160448e-01
2.274977e-01
2.392230e-01
2.512315e-01
2.635158e-01
2.760531e-01
2.888074e-01
3.017301e-01
3.147635e-01
3.278501e-01
3.409448e-01
3.540242e-01
3.670882e-01
3.801514e-01
3.932311e-01
4.063382e-01
4.194760e-01
4.326462e-01
4.458541e-01
4.591086e-01
4.724172e-01
4.857830e-01
4.992024e-01
5.126658e-01
5.261561e-01
5.396450e-01
5.530903e-01
5.664356e-01
5.796173e-01
5.925735e-01
6.052528e-01
6.176173e-01
6.296362e-01
6.412762e-01
6.524952e-01
6.632458e-01
6.734839e-01
6.831772e-01
6.923092e-01
7.008786e-01
7.088975e-01
7.163889e-01
7.233843e-01
7.299227e-01
7.360498e-01
7.418180e-01
7.472834e-01
7.525019e-01
7.575236e-01
7.623883e-01
7.671213e-01
7.717293e-01
7.761988e-01
7.805003e-01
7.845961e-01
7.884497e-01
7.920333e-01
7.953344e-01
7.983593e-01
8.011318e-01
8.036869e-01
8.060613e-01
8.082853e-01
8.103756e-01
8.123306e-01
8.141324e-01
8.157543e-01
8.171704e-01
8.183625e-01
8.193240e-01
8.200609e-01
8.205906e-01
8.209389e-01
8.211344e-01
8.212032e-01
8.211653e-01
8.210350e-01
8.208216e-01
8.205304e-01
8.201640e-01
8.197236e-01
8.192090e-01
8.186163e-01
8.179336e-01
8.171377e-01
8.161941e-01
8.150595e-01
8.136864e-01
8.120293e-01
8.100524e-01
8.077333e-01
8.050636e-01
8.020439e-01
7.986788e-01
7.949712e-01
7.909192e-01
7.865167e-01
7.817582e-01
7.766443e-01
7.711850e-01
7.654009e-01
7.593219e-01
7.529813e-01
7.464077e-01
7.396204e-01
7.326271e-01
7.254222e-01
7.179896e-01
7.103075e-01
7.023550e-01
6.941181e-01
6.855965e-01
6.768110e-01
6.678061e-01
6.586426e-01
6.493828e-01
6.400748e-01
6.307406e-01
6.213745e-01
6.119513e-01
6.024406e-01
5.928215e-01
5.830896e-01
5.732564e-01
5.633440e-01
5.533787e-01
5.433866e-01
5.333899e-01
5.234042e-01
5.134380e-01
5.034934e-01
4.935697e-01
4.836689e-01
4.737992e-01
4.639714e-01
4.541946e-01
4.444735e-01
4.348093e-01
4.252034e-01
4.156637e-01
4.062098e-01
3.968718e-01
3.876843e-01
3.786789e-01
3.698790e-01
3.612987e-01
3.529405e-01
3.447913e-01
3.368175e-01
3.289632e-01
3.211539e-01
3.133054e-01
3.053336e-01
2.971625e-01
2.887286e-01
2.799865e-01
2.709143e-01
2.615186e-01
2.518375e-01
2.419382e-01
2.319084e-01
2.218441e-01
2.118376e-01
2.019702e-01
1.923110e-01
1.829186e-01
1.738418e-01
1.651157e-01
1.567560e-01
1.487527e-01
1.410687e-01
1.336427e-01
1.263976e-01
1.192501e-01
1.121190e-01
1.049334e-01
9.764200e-02
9.022442e-02
8.269533e-02
7.509670e-02
6.748407e-02
5.991560e-02
5.244317e-02
4.510249e-02
3.790563e-02
3.083970e-02
2.387072e-02
1.695031e-02
1.002483e-02
3.046558e-03
-4.015746e-03
-1.116942e-02
-1.839525e-02
-2.565031e-02
-3.287615e-02
-4.001100e-02
-4.700273e-02
-5.382001e-02
-6.046000e-02
-6.695099e-02
-7.335005e-02
-7.973690e-02
-8.620493e-02
-9.284933e-02
-9.975501e-02
-1.069875e-01
-1.145870e-01
-1.225657e-01
-1.309083e-01
-1.395745e-01
-1.485031e-01
-1.576151e-01
-1.668179e-01
-1.760126e-01
-1.851028e-01
-1.940037e-01
-2.026483e-01
-2.109904e-01
-2.190036e-01
-2.266786e-01
-2.340191e-01
-2.410367e-01
-2.477457e-01
-2.541573e-01
-2.602759e-01
-2.660968e-01
-2.716047e-01
-2.767741e-01
-2.815714e-01
-2.859583e-01
-2.898944e-01
-2.933384e-01
-2.962493e-01
-2.985891e-01
-3.003268e-01
-3.014457e-01
-3.019506e-01
-3.018730e-01
-3.012718e-01
-3.002302e-01
-2.988489e-01
-2.972361e-01
-2.954961e-01
-2.937194e-01
-2.919774e-01
-2.903222e-01
-2.887920e-01
-2.874161e-01
-2.862175e-01
-2.852141e-01
-2.844211e-01
-2.838516e-01
-2.835138e-01
-2.834056e-01
-2.835117e-01
-2.838059e-01
-2.842536e-01
-2.848151e-01
-2.854524e-01
-2.861373e-01
-2.868562e-01
-2.876109e-01
-2.884187e-01
-2.893110e-01
-2.903304e-01
-2.915239e-01
-2.929348e-01
-2.945953e-01
-2.965209e-01
-2.987074e-01
-3.011334e-01
-3.037686e-01
-3.065847e-01
-3.095658e-01
-3.127128e-01
-3.160425e-01
-3.195839e-01
-3.233701e-01
-3.274294e-01
-3.317779e-01
-3.364169e-01
-3.413344e-01
-3.465113e-01
-3.519311e-01
-3.575900e-01
-3.635036e-01
-3.697087e-01
-3.762578e-01
-3.832093e-01
-3.906165e-01
-3.985178e-01
-4.069282e-01
-4.158361e-01
-4.252043e-01
-4.349787e-01
-4.450966e-01
-4.554947e-01
-4.661138e-01
-4.769014e-01
-4.878128e-01
-4.988105e-01
-5.098644e-01
-5.209512e-01
-5.320529e-01
-5.431521e-01
-5.542273e-01
-5.652515e-01
-5.761945e-01
-5.870281e-01
-5.977303e-01
-6.082896e-01
-6.187050e-01
-6.289818e-01
-6.391232e-01
-6.491216e-01
-6.589528e-01
-6.685743e-01
-6.779283e-01
-6.869479e-01
-6.955641e-01
-7.037123e-01
-7.113392e-01
-7.184091e-01
-7.249077e-01
-7.308410e-01
-7.362317e-01
-7.411129e-01
-7.455238e-01
-7.495032e-01
-7.530848e-01
-7.562935e-01
-7.591474e-01
-7.616626e-01
-7.638573e-01
-7.657536e-01
-7.673744e-01
-7.687382e-01
-7.698491e-01
-7.706904e-01
-7.712208e-01
-7.713758e-01
-7.710754e-01
-7.702370e-01
-7.687911e-01
-7.666949e-01
-7.639421e-01
-7.605653e-01
-7.566282e-01
-7.522110e-01
-7.473954e-01
-7.422527e-01
-7.368341e-01
-7.311679e-01
-7.252639e-01
-7.191230e-01
-7.127449e-01
-7.061332e-01
-6.992968e-01
-6.922496e-01
-6.850083e-01
-6.775907e-01
-6.700156e-01
-6.623034e-01
-6.544748e-01
-6.465495e-01
-6.385435e-01
-6.304678e-01
-6.223291e-01
-6.141304e-01
-6.058705e-01
-5.975420e-01
-5.891273e-01
-5.805975e-01
-5.719124e-01
-5.630200e-01
-5.538560e-01
-5.443447e-01
-5.344058e-01
-5.239643e-01
-5.129604e-01
-5.013571e-01
-4.891459e-01
-4.763481e-01
-4.630145e-01
-4.492217e-01
-4.350636e-01
-4.206437e-01
-4.060670e-01
-3.914305e-01
-3.768144e-01
-3.622776e-01
-3.478589e-01
-3.335794e-01
-3.194446e-01
-3.054447e-01
-2.915560e-01
-2.777438e-01
-2.639689e-01
-2.501938e-01
-2.363873e-01
-2.225273e-01
-2.086045e-01
-1.946256e-01
-1.806145e-01
-1.666108e-01
-1.526659e-01
-1.388369e-01
-1.251811e-01
-1.117514e-01
-9.859184e-02
-8.573169e-02
-7.318139e-02
-6.093163e-02
-4.895680e-02
-3.721983e-02
-2.567616e-02
-1.427718e-02
-2.973794e-03
8.280700e-03
1.952869e-02
3.080566e-02
4.213637e-02
5.353154e-02
6.498701e-02
7.648505e-02
8.799597e-02
9.948013e-02
1.108925e-01
1.221900e-01
1.333379e-01
1.443114e-01
1.550913e-01
1.656565e-01
1.759773e-01
1.860105e-01
1.957011e-01
2.049890e-01
2.138208e-01
2.221596e-01
2.299901e-01
2.373212e-01
2.441844e-01
2.506287e-01
2.567128e-01
2.624948e-01
2.680241e-01
2.733364e-01
2.784511e-01
2.833750e-01
2.881066e-01
2.926407e-01
2.969676e-01
3.010713e-01
3.049274e-01
3.085043e-01
3.117664e-01
