EVENT_NAME: L_AQUILA
EVENT_ID: IT-2009-0009
EVENT_DATE_YYYYMMDD: 20090406
EVENT_TIME_HHMMSS: 013240
EVENT_LATITUDE_DEGREE: 42.3420
EVENT_LONGITUDE_DEGREE: 13.3800
EVENT_DEPTH_KM: 8.3
HYPOCENTER_REFERENCE: INGV-CNT_Seismic_Bulletin
MAGNITUDE_W: 6.3
MAGNITUDE_W_REFERENCE: RCMT-INGV
MAGNITUDE_L: 5.9
MAGNITUDE_L_REFERENCE: INGV-CNT_Seismic_Bulletin
FOCAL_MECHANISM: NF
NETWORK: IT
STATION_CODE: AQK
STATION_NAME: L'AQUILA - V. ATERNO - AQUIL PARK ING.
STATION_LATITUDE_DEGREE: 42.344967
STATION_LONGITUDE_DEGREE: 13.400949
STATION_ELEVATION_M: 726
LOCATION: 
SENSOR_DEPTH_M: 0.0
VS30_M/S: 705
SITE_CLASSIFICATION_EC8: B
MORPHOLOGIC_CLASSIFICATION: SL
EPICENTRAL_DISTANCE_KM: 1.8
EARTHQUAKE_BACKAZIMUTH_DEGREE: 259.2
DATE_TIME_FIRST_SAMPLE_YYYYMMDD_HHMMSS: 20090406_013212.000
DATE_TIME_FIRST_SAMPLE_PRECISION: seconds
SAMPLING_INTERVAL_S: 0.005000
NDATA: 20001
DURATION_S: 100.005
STREAM: HNE
UNITS: cm/s
INSTRUMENT: sensor = FBA-3 [Kinemetrics] | digitizer = Etna [Kinemetrics]
INSTRUMENT_ANALOG/DIGITAL: D
INSTRUMENTAL_FREQUENCY_HZ: 212.000
INSTRUMENTAL_DAMPING: 0.700000
FULL_SCALE_G: 1.0
N_BIT_DIGITAL_CONVERTER: 18
PGV_CM/S: -32.217882
TIME_PGV_S: 33.055000
BASELINE_CORRECTION: BASELINE REMOVED
FILTER_TYPE: BUTTERWORTH
FILTER_ORDER: 2
LOW_CUT_FREQUENCY_HZ: 0.100
HIGH_CUT_FREQUENCY_HZ: 40.000
LATE/NORMAL_TRIGGERED: NT
DATABASE_VERSION: DYNA 1.0
HEADER_FORMAT: DYNA 1.2
DATA_TYPE: VELOCITY
PROCESSING: manual (Paolucci et al., 2011)
DATA_TIMESTAMP_YYYYMMDD_HHMMSS: 
DATA_LICENSE: CC-BY3_0-IT (http://creativecommons.org/licenses/by/3.0/deed.en)
DATA_CITATION: ESM working group (2015), European Strong-Motion database, version 0.1, Network Activity 3: Networking acceleration networks and SM data users. Project NERA (www.nera-eu.org)
DATA_CREATOR: ESM working group
ORIGINAL_DATA_MEDIATOR_CITATION: data obtained within the DPC-INGV data exchange agreements
ORIGINAL_DATA_MEDIATOR: Archive of Italian Department of Civil Protection
ORIGINAL_DATA_CREATOR_CITATION: Italian Strong Motion Network, Italian Civil Protection Department http://www.protezionecivile.gov.it
ORIGINAL_DATA_CREATOR: network: IT (Italian Strong Motion Network); owner: Dipartimento Della Protezione Civile
USER1: 
USER2: 
USER3: 
USER4: 
USER5: 
[...]
-0.007750
-0.007730
-0.007705
-0.007668
-0.007622
-0.007571
-0.007523
-0.007478
-0.007433
-0.007385
-0.007334
-0.007281
-0.007231
-0.007188
-0.007151
-0.007115
-0.007076
-0.007030
-0.006976
-0.006918
-0.006861
-0.006809
-0.006760
-0.006715
-0.006679
-0.006649
-0.006619
-0.006585
-0.006547
-0.006505
-0.006454
-0.006394
-0.006333
-0.006278
-0.006225
-0.006167
-0.006104
-0.006040
-0.005981
-0.005928
-0.005883
-0.005839
-0.005792
-0.005742
-0.005691
-0.005632
-0.005563
-0.005492
-0.005432
-0.005384
-0.005340
-0.005283
-0.005211
-0.005138
-0.005078
-0.005032
-0.004988
-0.004943
-0.004892
-0.004832
-0.004766
-0.004705
-0.004654
-0.004605
-0.004547
-0.004480
-0.004408
-0.004330
-0.004250
-0.004176
-0.004110
-0.004046
-0.003983
-0.003926
-0.003871
-0.003810
-0.003742
-0.003671
-0.003601
-0.003530
-0.003456
-0.003378
-0.003302
-0.003228
-0.003154
-0.003082
-0.003018
-0.002955
-0.002884
-0.002809
-0.002739
-0.002672
-0.002604
-0.002538
-0.002475
-0.002407
-0.002335
-0.002263
-0.002185
-0.002101
-0.002012
-0.001921
-0.001825
-0.001732
-0.001648
-0.001572
-0.001496
-0.001420
-0.001346
-0.001276
-0.001205
-0.001129
-0.001052
-0.000972
-0.000881
-0.000784
-0.000695
-0.000622
-0.000554
-0.000480
-0.000400
-0.000317
-0.000236
-0.000161
-0.000095
-0.000029
0.000045
0.000124
0.000199
0.000276
0.000362
0.000455
0.000549
0.000637
0.000721
0.000813
0.000915
0.001016
0.001109
0.001196
0.001283
0.001374
0.001471
0.001574
0.001679
0.001782
0.001880
0.001976
0.002070
0.002164
0.002261
0.002360
0.002454
0.002545
0.002641
0.002745
0.002854
0.002963
0.003067
0.003161
0.003247
0.003335
0.003435
0.003547
0.003663
0.003774
0.003876
0.003978
0.004082
0.004180
0.004269
0.004361
0.004463
0.004572
0.004680
0.004783
0.004882
0.004982
0.005085
0.005193
0.005305
0.005416
0.005527
0.005645
0.005766
0.005876
0.005971
0.006063
0.006171
0.006299
0.006432
0.006554
0.006665
0.006771
0.006875
0.006980
0.007098
0.007233
0.007373
0.007503
0.007621
0.007735
0.007855
0.007988
0.008130
0.008267
0.008394
0.008516
0.008641
0.008772
0.008906
0.009043
0.009179
0.009310
0.009444
0.009582
0.009715
0.009831
0.009932
0.010029
0.010133
0.010248
0.010372
0.010497
0.010615
0.010729
0.010850
0.010982
0.011122
0.011265
0.011405
0.011533
0.011647
0.011751
0.011854
0.011962
0.012076
0.012200
0.012334
0.012476
0.012616
0.012748
0.012873
0.013003
0.013143
0.013288
0.013428
0.013560
0.013688
0.013814
0.013942
0.014077
0.014219
0.014364
0.014505
0.014637
0.014761
0.014890
0.015030
0.015181
0.015335
0.015488
0.015635
0.015775
0.015905
0.016034
0.016172
0.016315
0.016453
0.016592
0.016744
0.016911
0.017077
0.017229
0.017374
0.017526
0.017690
0.017855
0.018013
0.018166
0.018323
0.018483
0.018638
0.018790
0.018944
0.019101
0.019261
0.019433
0.019613
0.019787
0.019944
0.020091
0.020236
0.020385
0.020542
0.020704
0.020867
0.021028
0.021182
0.021338
0.021502
0.021673
0.021842
0.022004
0.022168
0.022346
0.022533
0.022714
0.022883
0.023038
0.023184
0.023330
0.023480
0.023636
0.023798
0.023968
0.024140
0.024303
0.024457
0.024614
0.024782
0.024954
0.025127
0.025302
0.025476
0.025645
0.025817
0.025999
0.026182
0.026355
0.026523
0.026698
0.026882
0.027069
0.027255
0.027440
0.027625
0.027812
0.027996
0.028174
0.028353
0.028540
0.028729
0.028905
0.029069
0.029235
0.029415
0.029607
0.029803
0.029997
0.030189
0.030380
0.030571
0.030756
0.030932
0.031108
0.031289
0.031469
0.031644
0.031823
0.032004
0.032175
0.032339
0.032510
0.032692
0.032882
0.033075
0.033272
0.033474
0.033674
0.033865
0.034050
0.034235
0.034422
0.034613
0.034805
0.035003
0.035205
0.035402
0.035593
0.035789
0.036002
0.036227
0.036451
0.036661
0.036862
0.037069
0.037282
0.037497
0.037709
0.037912
0.038107
0.038308
0.038516
0.038721
0.038919
0.039117
0.039322
0.039539
0.039766
0.039994
0.040214
0.040425
0.040634
0.040844
0.041057
0.041278
0.041510
0.041743
0.041968
0.042185
0.042405
0.042633
0.042864
0.043095
0.043332
0.043575
0.043818
0.044058
0.044291
0.044518
0.044747
0.044977
0.045206
0.045436
0.045666
0.045896
0.046120
0.046337
0.046556
0.046785
0.047024
0.047263
0.047501
0.047741
0.047980
0.048214
0.048445
0.048684
0.048928
0.049169
0.049403
0.049638
0.049879
0.050119
0.050354
0.050589
0.050830
0.051076
0.051321
0.051562
0.051797
0.052033
0.052268
0.052501
0.052735
0.052979
0.053234
0.053493
0.053748
0.053998
0.054239
0.054478
0.054727
0.054989
0.055254
0.055519
0.055788
0.056056
0.056316
0.056568
0.056819
0.057070
0.057320
0.057571
0.057827
0.058086
0.058343
0.058601
0.058865
0.059129
0.059384
0.059637
0.059899
0.060173
0.060446
0.060714
0.060975
0.061232
0.061488
0.061752
0.062020
0.062289
0.062556
0.062814
0.063063
0.063312
0.063576
0.063855
0.064142
0.064426
0.064705
0.064979
0.065249
0.065517
0.065786
0.066059
0.066341
0.066627
0.066916
0.067199
0.067471
0.067738
0.068013
0.068302
0.068599
0.068888
0.069163
0.069433
0.069704
0.069973
0.070235
0.070500
0.070781
0.071069
0.071350
0.071631
0.071918
0.072207
0.072491
0.072770
0.073047
0.073327
0.073618
0.073921
0.074230
0.074535
0.074829
0.075112
0.075395
0.075682
0.075971
0.076262
0.076556
0.076848
0.077132
0.077415
0.077712
0.078026
0.078344
0.078657
0.078963
0.079267
0.079568
0.079864
0.080155
0.080443
0.080734
0.081031
0.081338
0.081646
0.081949
0.082242
0.082527
0.082812
0.083103
0.083399
0.083702
0.084010
0.084319
0.084618
0.084909
0.085199
0.085495
0.085795
0.086098
0.086406
0.086720
0.087037
0.087358
0.087686
0.088018
0.088349
0.088678
0.089006
0.089336
0.089665
0.089990
0.090308
0.090623
0.090942
0.091270
0.091600
0.091924
0.092247
0.092573
0.092899
0.093224
0.093554
0.093890
0.094222
0.094542
0.094859
0.095182
0.095514
0.095849
0.096178
0.096498
0.096809
0.097117
0.097432
0.097756
0.098087
0.098421
0.098756
0.099099
0.099446
0.099793
0.100139
0.100486
0.100834
0.101180
0.101524
0.101869
0.102223
0.102583
0.102937
0.103277
0.103607
0.103938
0.104279
0.104627
0.104970
0.105303
0.105638
0.105981
0.106327
0.106674
0.107028
0.107386
0.107741
0.108088
0.108436
0.108792
0.109152
0.109507
0.109858
0.110209
0.110553
0.110889
0.111226
0.111569
0.111914
0.112259
0.112605
0.112957
0.113312
0.113665
0.114017
0.114374
0.114735
0.115094
0.115449
0.115805
0.116159
0.116509
0.116856
0.117210
0.117574
0.117935
0.118279
0.118616
0.118963
0.119328
0.119701
0.120071
0.120431
0.120784
0.121140
0.121504
0.121872
0.122241
0.122610
0.122972
0.123321
0.123663
0.124010
0.124371
0.124746
0.125128
0.125509
0.125884
0.126256
0.126628
0.126999
0.127371
0.127745
0.128118
0.128485
0.128850
0.129214
0.129570
0.129918
0.130269
0.130626
0.130989
0.131361
0.131740
0.132117
0.132489
0.132858
0.133218
0.133574
0.133936
0.134311
0.134690
0.135066
0.135439
0.135814
0.136195
0.136586
0.136979
0.137366
0.137748
0.138128
0.138507
0.138888
0.139278
0.139678
0.140083
0.140482
0.140871
0.141256
0.141642
0.142030
0.142421
0.142817
0.143212
0.143605
0.143994
0.144381
0.144764
0.145145
0.145529
0.145910
0.146287
0.146667
0.147053
0.147440
0.147829
0.148219
0.148608
0.148994
0.149386
0.149786
0.150187
0.150579
0.150965
0.151352
0.151741
0.152130
0.152520
0.152914
0.153316
0.153728
0.154135
0.154522
0.154897
0.155278
0.155668
0.156063
0.156463
0.156864
0.157263
0.157656
0.158052
0.158462
0.158879
0.159290
0.159696
0.160101
0.160500
0.160891
0.161281
0.161676
0.162067
0.162454
0.162834
0.163208
0.163583
0.163976
0.164386
0.164804
0.165237
0.165660
0.166017
0.166244
0.166326
0.166337
0.166529
0.167569
0.169870
0.172847
0.175383
0.176507
0.176364
0.176627
0.178811
0.182430
0.185342
0.184535
0.177893
0.167673
0.158763
0.155046
0.158556
0.165741
0.168967
0.164818
0.155326
0.146082
0.144960
0.154381
0.168536
0.181304
0.189155
0.188806
0.178220
0.159868
0.142730
0.138160
0.149133
0.166212
0.178323
0.180722
0.175080
0.168747
0.165646
0.163100
0.162485
0.168136
0.178428
0.187834
0.192898
0.194882
0.194316
0.184980
0.163934
0.140386
0.128318
0.136670
0.160672
0.179546
0.171727
0.134374
0.087907
0.064472
0.084070
0.135961
0.190183
0.221551
0.220113
0.195228
0.169033
0.159321
0.173533
0.206243
0.234752
0.231993
0.187837
0.121190
0.072065
0.065905
0.092317
0.130708
0.168466
0.188886
0.179886
0.154397
0.139490
0.149866
0.173476
0.180770
0.153872
0.102645
0.051334
0.023808
0.033765
0.071313
0.112437
0.136353
0.126942
0.090647
0.056928
0.040686
0.044139
0.077949
0.141601
0.210927
0.258255
0.270099
0.248112
0.201758
0.144066
0.092572
0.065324
0.064525
0.072157
0.072623
0.062251
0.041904
0.022047
0.014747
0.016775
0.024452
0.048072
0.093601
0.148833
0.192482
0.210586
0.212370
0.218317
0.225050
0.212717
0.180681
0.146736
0.127044
0.124858
0.131813
0.142821
0.155412
0.165042
0.185949
0.241546
0.325025
0.405404
0.451831
0.448344
0.415474
0.388259
0.366531
0.333316
0.305431
0.332251
0.437039
0.540242
0.494442
0.250950
-0.060241
-0.251820
-0.258643
-0.172195
-0.102364
-0.066303
-0.040687
-0.048909
-0.133814
-0.268273
-0.349263
-0.306194
-0.184541
-0.098532
-0.121035
-0.230970
-0.341906
-0.382636
-0.377243
-0.398912
-0.451657
-0.481562
-0.461749
-0.411120
-0.370161
-0.364373
-0.382730
-0.408451
-0.431158
-0.422655
-0.367842
-0.305781
-0.306982
-0.410368
-0.569540
-0.689275
-0.725975
-0.717096
-0.720135
-0.742025
-0.730376
-0.667565
-0.637824
-0.714718
-0.847824
-0.929322
-0.908805
-0.826653
-0.751204
-0.694331
-0.634339
-0.585020
-0.581922
-0.639561
-0.743885
-0.866520
-0.988178
-1.099145
-1.194984
-1.296483
-1.412283
-1.490827
-1.490814
-1.433442
-1.350742
-1.274466
-1.239809
-1.237122
-1.234674
-1.252019
-1.333127
-1.482616
-1.663386
-1.800691
-1.814211
-1.709365
-1.582576
-1.526429
-1.585402
-1.736851
-1.880255
-1.921382
-1.850749
-1.714388
-1.559505
-1.410282
-1.285521
-1.238669
-1.327751
-1.516324
-1.665439
-1.654710
-1.463311
-1.188909
-1.005034
-0.984239
-1.036926
-1.056603
-0.992657
-0.862343
-0.745397
-0.675457
-0.600519
-0.474051
-0.292861
-0.079189
0.127993
0.304675
0.438155
0.494616
0.483730
0.485429
0.536190
0.601869
0.648122
0.660302
0.655954
0.679307
0.723864
0.678992
0.441898
0.090507
-0.173690
-0.272783
-0.321387
-0.435332
-0.607462
-0.788002
-0.973767
-1.187344
-1.402500
-1.546571
-1.582958
-1.532328
-1.414221
-1.221645
-0.948035
-0.611716
-0.304854
-0.166069
-0.225502
-0.383500
-0.533723
-0.637321
-0.711091
-0.747873
-0.751950
-0.851656
-1.197235
-1.774589
-2.372044
-2.696700
-2.605560
-2.240448
-1.858485
-1.597502
-1.456758
-1.362531
-1.235800
-1.052176
-0.791986
-0.444792
-0.081369
0.229129
0.502176
0.781705
1.095664
1.433377
1.721309
1.911194
2.074390
2.316752
2.656946
3.019860
3.318835
3.559569
3.811865
4.061319
4.202483
4.191424
4.089793
3.962091
3.840181
3.762674
3.749113
3.780275
3.833305
3.883160
3.927905
4.026111
4.221548
4.496413
4.846606
5.280065
5.767938
6.284800
6.800581
7.242960
7.545811
7.688764
7.719870
7.743770
7.816687
7.891509
7.885703
7.789823
7.702675
7.701845
7.751836
7.821020
7.946338
8.187687
8.650042
9.409306
10.376800
11.382160
12.314460
13.134470
13.849370
14.514650
15.213320
15.954430
16.658710
17.245140
17.624941
17.738640
17.636669
17.433210
17.237000
17.082399
16.895920
16.582939
16.122120
15.580910
15.037910
14.505260
13.961600
13.406920
12.866680
12.370290
11.918200
11.486690
11.083740
10.748690
10.488110
10.297300
10.218560
10.313120
10.630300
11.156150
11.725790
12.112620
12.236620
12.185570
12.067470
11.923030
11.747200
11.525450
11.271010
11.074280
11.068230
11.325180
11.799710
12.302450
12.581670
12.542390
12.291470
11.951940
11.592390
11.319060
11.281120
11.559530
12.110680
12.808570
13.517470
14.162760
14.750860
15.303470
15.781560
16.111900
16.274361
16.286119
16.139410
15.856010
15.515460
15.146640
14.698500
14.154600
13.579170
13.015240
12.396140
11.608890
10.646350
9.643967
8.712567
7.812309
6.853539
5.790841
4.578841
3.208099
1.809671
0.571674
-0.446515
-1.345671
-2.264723
-3.246627
-4.229342
-5.154715
-6.036893
-6.925415
-7.847222
-8.804683
-9.778971
-10.709910
-11.547400
-12.319090
-13.069030
-13.780050
-14.408370
-14.939870
-15.382210
-15.715410
-15.899050
-15.951820
-15.999820
-16.232210
-16.772610
-17.612850
-18.694071
-19.937420
-21.171101
-22.166731
-22.810280
-23.197689
-23.541929
-24.005030
-24.634569
-25.419849
-26.293890
-27.089531
-27.645700
-27.930639
-27.987761
-27.869490
-27.666880
-27.518431
-27.515011
-27.601879
-27.663971
-27.679790
-27.700121
-27.758699
-27.851761
-27.932211
-27.944700
-27.891840
-27.844540
-27.902269
-28.121639
-28.454760
-28.773750
-28.965410
-28.990000
-28.851980
-28.568359
-28.185381
-27.789249
-27.504040
-27.445089
-27.633230
-28.020309
-28.569429
-29.216070
-29.858170
-30.458750
-31.047131
-31.606840
-32.038170
-32.217880
-32.066090
-31.587971
-30.881630
-30.090429
-29.333389
-28.666731
-28.094891
-27.611450
-27.185040
-26.712811
-26.099119
-25.374920
-24.656651
-24.055050
-23.663710
-23.539499
-23.669029
-23.993200
-24.437750
-24.899160
-25.260611
-25.449881
-25.453899
-25.303089
-25.053909
-24.737221
-24.312941
-23.704430
-22.887671
-21.924570
-20.902870
-19.888479
-18.928600
-18.018471
-17.043570
-15.840650
-14.367820
-12.749160
-11.133470
-9.584046
-8.102402
-6.690849
-5.384951
-4.263463
-3.425990
-2.927289
-2.734338
-2.767188
-2.976346
-3.355332
-3.878432
-4.480476
-5.104712
-5.705748
-6.217916
-6.577933
-6.756713
-6.752905
-6.587362
-6.297079
-5.907186
-5.413631
-4.803643
-4.078032
-3.241268
-2.294790
-1.248696
-0.116247
1.099349
2.382418
3.648461
4.741523
5.529631
5.982456
6.157458
6.147664
6.027141
5.829259
5.565290
5.231335
4.814576
4.319761
3.775221
3.206403
2.600196
1.902364
1.080774
0.200629
-0.577716
-1.081020
-1.201206
-0.918205
-0.297343
0.527232
1.409851
2.249920
2.984157
3.560297
3.951659
4.170594
4.258700
4.282189
4.307882
4.364646
4.451538
4.570873
4.730429
4.928478
5.145054
5.351253
5.540036
5.732024
5.935370
6.119488
6.239912
6.275056
6.232372
6.149181
6.106283
6.205336
6.519957
7.081315
7.876146
8.830177
9.819598
10.721490
11.454880
11.994840
12.384170
12.715100
13.047520
13.365260
13.638760
13.874090
14.092970
14.313760
14.548340
14.798080
15.041940
15.239490
15.380460
15.522350
15.741740
16.062531
16.467119
16.941999
17.469469
18.015030
18.574949
19.209000
19.975651
20.863609
21.819960
22.794420
23.720800
24.499901
25.069651
25.494980
25.909420
26.360180
26.790211
27.134399
27.351789
27.402069
27.243210
26.868111
26.328800
25.694790
25.014099
24.340450
23.763599
23.376600
23.223579
23.292150
23.523790
23.826759
24.113689
24.330070
24.452980
24.485161
24.440781
24.327681
24.158001
23.954611
23.711220
23.388941
22.994030
22.603041
22.279160
22.015240
21.761160
21.451700
21.013941
20.395630
19.598930
18.677679
17.701290
16.714149
15.719540
14.720960
13.759380
12.859540
11.974040
11.019670
9.944665
8.761232
7.533181
6.331189
5.206448
4.203281
3.360331
2.690817
2.183352
1.820810
1.588004
1.464706
1.435907
1.509821
1.679694
1.881102
2.051434
2.200835
2.367594
2.548319
2.703772
2.792946
2.782697
2.654471
2.447340
2.247376
2.059376
1.805430
1.485560
1.158492
0.855794
0.634116
0.545180
0.595177
0.754408
0.907098
0.939199
0.853525
0.716246
0.599811
0.551659
0.591195
0.736604
1.008422
1.427722
1.983235
2.620274
3.285834
3.951637
4.608599
5.242896
5.818899
6.302238
6.686262
6.989690
7.239539
7.453908
7.620169
7.700188
7.682130
7.603846
7.510668
7.406870
7.246770
6.969801
6.554325
6.042771
5.513206
5.027957
4.610817
4.260155
3.966975
3.722541
3.518905
3.341976
3.165763
2.968065
2.755640
2.554721
2.375196
2.202563
2.007917
1.751447
1.410063
1.006340
0.582246
0.158685
-0.255194
-0.639212
-0.976854
-1.269193
-1.514500
-1.690119
-1.769631
-1.758612
-1.700142
-1.644185
-1.620011
-1.623358
-1.634513
-1.665557
-1.760124
-1.940283
-2.198261
-2.530838
-2.940639
-3.425463
-3.986381
-4.609765
-5.244660
-5.832800
-6.330362
-6.687705
-6.863418
-6.875391
-6.810293
-6.762006
-6.765092
-6.802918
-6.855579
-6.919531
-7.005759
-7.134782
-7.325673
-7.573238
-7.845322
-8.131382
-8.473092
-8.924866
-9.510587
-10.226170
-11.046490
-11.912310
-12.754020
-13.541270
-14.268020
-14.920650
-15.507070
-16.065830
-16.625900
-17.206520
-17.835310
-18.519760
-19.222910
-19.883240
-20.452990
-20.928329
-21.334551
-21.681339
-21.958151
-22.151880
-22.242300
-22.211340
-22.065451
-21.832109
-21.551340
-21.276230
-21.050030
-20.879580
-20.758310
-20.702610
-20.744600
-20.911779
-21.220551
-21.655331
-22.147970
-22.608080
-22.959221
-23.133751
-23.101749
-22.927219
-22.734020
-22.608959
-22.560869
-22.534679
-22.426291
-22.118891
-21.555519
-20.777790
-19.889210
-19.000000
-18.196320
-17.515421
-16.932440
-16.382971
-15.804170
-15.161890
-14.462220
-13.748630
-13.074320
-12.477790
-11.976760
-11.561310
-11.205000
-10.885490
-10.590210
-10.321420
-10.081080
-9.842779
-9.567732
-9.241443
-8.877075
-8.503871
-8.158095
-7.852989
-7.562924
-7.264341
-6.958651
-6.641183
-6.307816
-5.990115
-5.713075
-5.440592
-5.134632
-4.823370
-4.541493
-4.259346
-3.935604
-3.583462
-3.223580
-2.831102
-2.382319
-1.890314
-1.362103
-0.780732
-0.144224
0.516942
1.155580
1.720667
2.178533
2.538221
2.836596
3.100516
3.336532
3.534079
3.667430
3.716954
3.697340
3.657521
3.646918
3.686411
3.777776
3.924905
4.129287
4.371699
4.612752
4.817100
4.967451
5.057351
5.095085
5.111428
5.143470
5.209171
5.283582
5.295988
5.177029
4.901901
4.481266
3.950754
3.363204
2.751800
2.124542
1.503282
0.927386
0.435068
0.068097
-0.143684
-0.223453
-0.245628
-0.277530
-0.331222
-0.367715
-0.327821
-0.168533
0.112700
0.494378
0.962281
1.510461
2.120859
2.754159
3.360211
3.892191
4.318239
4.630314
4.848038
5.025006
5.226525
5.476774
5.759807
6.057967
6.350879
6.619396
6.890145
7.247541
7.749324
8.352423
8.977248
9.569226
10.071080
10.448960
10.723750
10.923970
11.076660
11.225960
11.405710
11.637090
11.952160
12.361360
12.817050
13.255480
13.654300
14.028090
14.387020
14.715640
14.992160
15.209620
15.370580
15.478060
15.526480
15.497740
15.382040
15.190530
14.940410
14.653480
14.356420
14.062310
13.782550
13.547400
13.375740
13.248870
13.131560
12.994820
12.831640
12.679920
12.602130
12.610340
12.642750
12.631310
