EVENT_NAME: CENTRAL_ITALY
EVENT_ID: EMSC-20161030_0000029
EVENT_DATE_YYYYMMDD: 20161030
EVENT_TIME_HHMMSS: 064018
EVENT_LATITUDE_DEGREE: 42.8400
EVENT_LONGITUDE_DEGREE: 13.1100
EVENT_DEPTH_KM: 9.4
HYPOCENTER_REFERENCE: INGV-webservice
MAGNITUDE_W: 6.5
MAGNITUDE_W_REFERENCE: INGV-webservice
MAGNITUDE_L: 6.1
MAGNITUDE_L_REFERENCE: INGV-webservice
FOCAL_MECHANISM: NF
NETWORK: IT
STATION_CODE: ACC
STATION_NAME: Accumoli
STATION_LATITUDE_DEGREE: 42.695999
STATION_LONGITUDE_DEGREE: 13.242000
STATION_ELEVATION_M: 922
LOCATION: 
SENSOR_DEPTH_M: 
VS30_M/S: 
SITE_CLASSIFICATION_EC8: A*
MORPHOLOGIC_CLASSIFICATION: 
EPICENTRAL_DISTANCE_KM: 19.3
EARTHQUAKE_BACKAZIMUTH_DEGREE: 326.0
DATE_TIME_FIRST_SAMPLE_YYYYMMDD_HHMMSS: 20161030_064005.559
DATE_TIME_FIRST_SAMPLE_PRECISION: milliseconds
SAMPLING_INTERVAL_S: 0.005000
NDATA: 12000
DURATION_S: 60.000
STREAM: HGN
UNITS: cm/s^2
INSTRUMENT: sensor = Unknown [Unknown] | digitizer = Unknown [Unknown]
INSTRUMENT_ANALOG/DIGITAL: D
INSTRUMENTAL_FREQUENCY_HZ: 
INSTRUMENTAL_DAMPING: 
FULL_SCALE_G: 
N_BIT_DIGITAL_CONVERTER: 
PGA_CM/S^2: 384.714075
TIME_PGA_S: 23.360000
BASELINE_CORRECTION: BASELINE REMOVED
FILTER_TYPE: BUTTERWORTH
FILTER_ORDER: 2
LOW_CUT_FREQUENCY_HZ: 0.060
HIGH_CUT_FREQUENCY_HZ: 30.000
LATE/NORMAL_TRIGGERED: NT
DATABASE_VERSION: DYNA 1.0
HEADER_FORMAT: DYNA 1.2
DATA_TYPE: ACCELERATION
PROCESSING: manual (Paolucci et al., 2011)
DATA_TIMESTAMP_YYYYMMDD_HHMMSS: 20161101_122856.566
DATA_LICENSE: CC-BY3_0-IT (http://creativecommons.org/licenses/by/3.0/deed.en)
DATA_CITATION: ESM working group (2015), European Strong-Motion database, version 0.1, Network Activity 3: Networking acceleration networks and SM data users. Project NERA (www.nera-eu.org)
DATA_CREATOR: ESM working group
ORIGINAL_DATA_MEDIATOR_CITATION: Ufficio Rischio Sismico e Vulcanico del Dipartimento della Protezione Civile (http://www.protezionecivile.gov.it/)
ORIGINAL_DATA_MEDIATOR: Rete Accelerometrica Nazionale - RAN Download (http://www.mot1.it/randownload/)
ORIGINAL_DATA_CREATOR_CITATION: Italian Strong Motion Network, Italian Civil Protection Department http://www.protezionecivile.gov.it
ORIGINAL_DATA_CREATOR: network: IT (Italian Strong Motion Network); owner: Dipartimento Della Protezione Civile
USER1: /home/dyna/processing-itaca/processing.py /var/www/processing//tmp/Lucia//IT.ACC..HGE.D.20161030.064018.X.ACC.ASC /var/www/processing//tmp/Lucia//IT.ACC..HGN.D.20161030.064018.X.ACC.ASC /var/www/processing//tmp/Lucia//IT.ACC..HGZ.D.20161030.064018.X.ACC.ASC --tmp /var/www/processing//tmp/Lucia/ --le 0.060 --he 30.000 --ln 0.060 --hn 30.000 --lz 0.060 --hz 30.000 --fo 2 --ca -10 --cz 130 --ta 5 --tz 5 --mf 1 --rf 0 --tr NT
USER2: 
USER3: 
USER4: 
USER5: 
[...]
-5.663227
-8.650101
-10.013131
-9.777479
-8.128141
-5.448267
-2.339748
0.474694
2.352656
2.879193
1.901932
-0.425832
-3.556354
-6.590798
-8.555945
-8.729991
-6.845365
-3.172480
1.559448
6.430400
10.579825
13.249615
13.780148
11.805383
7.518922
1.714318
-4.420584
-9.616773
-12.853882
-13.616612
-11.997640
-8.587438
-4.213524
0.255605
3.989555
6.332672
7.071786
6.619045
5.803327
5.331038
5.384487
5.675299
5.766966
5.284842
3.929330
1.503410
-1.924007
-5.830997
-9.235637
-11.009134
-10.415289
-7.523616
-3.207269
1.242402
4.682062
6.618803
7.314926
7.378134
7.268192
7.157129
7.011005
6.641334
5.750271
4.003333
1.116855
-2.980199
-7.923156
-12.819655
-16.459330
-17.737637
-16.025068
-11.322658
-4.299229
3.733556
11.053724
15.946938
17.161852
14.337587
8.183730
0.285023
-7.274842
-12.480739
-14.167434
-12.470131
-8.545640
-3.941006
-0.118185
1.804073
1.289036
-1.401403
-5.289222
-9.154910
-12.047464
-13.423308
-12.969824
-10.507843
-6.175139
-0.694046
4.673441
8.655977
10.593106
10.608854
9.390195
7.928803
7.185575
7.532917
8.381276
8.523910
6.935526
3.243919
-2.289538
-8.889260
-15.449615
-20.877338
-24.366934
-25.535116
-24.472572
-21.596031
-17.317211
-11.747991
-4.687815
3.956685
13.520350
22.205917
27.459862
27.066929
20.173033
7.440021
-9.455500
-28.136036
-45.446850
-57.738174
-62.022598
-57.169613
-43.979671
-24.578871
-2.123020
19.807377
38.438732
52.081593
59.303608
58.942173
51.111378
37.479912
20.438169
2.230327
-15.399344
-31.173147
-43.978943
-52.484829
-55.096588
-50.769447
-40.173622
-25.674627
-10.095993
4.088933
14.898979
21.411242
24.382893
25.588024
26.380728
27.324884
28.869701
31.551455
35.376251
39.115818
40.304947
36.335812
25.952511
9.834978
-10.093528
-31.590273
-52.260681
-69.394142
-80.447960
-83.883568
-79.237679
-66.633202
-46.802940
-21.682159
5.607456
31.870899
54.440338
70.908173
79.834023
81.816444
78.710213
71.750099
61.076149
46.808628
29.663095
10.413609
-10.416363
-31.892727
-52.095051
-68.506226
-79.078873
-83.336609
-82.571976
-78.751076
-73.366119
-66.989037
-58.859089
-46.943226
-29.362597
-6.128964
20.404615
46.697395
69.741302
87.496910
97.886223
98.466599
87.480347
64.817863
32.356522
-5.798021
-43.590431
-74.462692
-93.395859
-98.581856
-91.786034
-76.835693
-57.399826
-35.989048
-14.482067
5.137934
20.824465
30.960413
34.597416
31.601219
23.340582
13.178990
5.311383
2.867528
7.050350
16.858484
29.196955
40.138317
46.179016
44.404221
33.050014
13.210155
-10.482386
-32.027615
-47.635296
-57.385082
-63.454536
-66.723030
-65.136063
-55.633728
-37.418716
-12.931195
13.541558
37.361549
54.614651
63.247799
63.463181
56.731800
44.788925
29.742348
14.362309
1.515458
-6.988844
-11.177068
-12.569419
-13.130006
-14.552653
-18.055059
-24.167265
-32.339546
-40.711922
-46.418571
-46.485676
-39.053482
-24.125826
-3.155068
21.810352
48.041729
71.498817
87.620415
93.706474
90.272224
79.656364
63.639771
43.090149
19.964317
-1.547554
-16.933922
-24.031990
-23.596291
-18.129248
-10.717391
-4.544672
-2.301454
-5.138854
-12.454084
-22.662474
-33.558472
-42.469421
-46.992725
-45.853745
-39.352417
-28.911488
-15.949625
-1.585865
12.753831
25.182959
33.442375
34.893867
27.299461
10.074056
-15.078605
-44.259281
-72.044685
-92.814117
-102.448318
-99.392586
-84.581436
-61.006046
-33.101276
-5.614134
17.559601
34.546551
46.105938
53.952053
58.108761
56.939762
49.621353
37.566685
23.755104
11.479293
3.533959
1.661573
5.507344
11.948574
16.705156
16.756542
10.674953
-1.954288
-20.021833
-40.501408
-59.059662
-70.847313
-71.473595
-58.366886
-31.975801
3.495371
40.764996
72.583214
95.120697
108.399879
114.014168
112.991043
105.547623
91.771660
71.946281
46.833317
17.959332
-12.525700
-42.121971
-68.224121
-88.412979
-100.600067
-103.225876
-95.840607
-79.210442
-54.482788
-23.481871
9.684166
39.532166
62.544605
78.048386
85.948067
85.158104
74.597672
55.046577
29.336842
0.643890
-28.854876
-57.451733
-83.041138
-103.745552
-118.932922
-128.813309
-133.325943
-132.118530
-125.246506
-112.723419
-93.533302
-66.714241
-33.632805
1.690635
33.786701
57.255650
68.354057
65.298065
48.741398
23.578136
-1.930837
-20.320812
-27.442513
-22.206888
-6.483550
14.788025
34.900791
47.468655
48.249935
36.505440
15.588182
-8.010636
-27.160425
-36.396351
-33.178787
-18.295822
5.400062
35.013840
67.688698
99.393867
125.614502
143.760666
153.827209
156.450806
151.373032
137.885391
115.951416
87.459801
57.020855
30.292950
10.804581
-0.983615
-6.159552
-6.001972
-1.477993
6.760266
17.754089
29.654154
40.182697
47.619511
50.913631
49.456955
43.856045
36.152809
27.663853
16.740696
0.048467
-23.625713
-51.579193
-78.812340
-100.843857
-115.930565
-125.223015
-130.096268
-129.387512
-120.441933
-102.734947
-79.288132
-54.977303
-34.006557
-18.020941
-5.842221
5.407730
18.307896
32.647469
45.259453
52.755241
53.437962
47.329025
35.777069
20.550562
2.533589
-18.220638
-40.611191
-61.123711
-75.051125
-79.520782
-75.341293
-65.620926
-53.043865
-38.925121
-23.571135
-5.896923
16.386509
43.741940
71.420662
90.794769
95.182648
83.472420
58.462154
24.874849
-10.462368
-39.565231
-56.034233
-56.906235
-42.605339
-16.378042
15.947852
47.557255
73.515511
91.339035
99.576981
97.751083
86.852249
69.197701
48.656811
30.166405
17.220617
9.546047
4.191833
-0.805313
-4.878804
-6.906751
-7.082798
-6.761666
-7.735807
-12.028167
-21.349617
-34.976837
-47.927994
-53.031757
-45.853859
-27.716675
-4.673623
16.016417
29.497053
35.539562
37.997993
40.512444
42.196918
38.663673
26.896914
8.713650
-9.671103
-21.694738
-24.749483
-20.291687
-10.117275
5.759167
26.734652
49.045364
67.353722
78.000565
79.664841
71.969376
55.116131
30.875376
2.878655
-24.145172
-45.515301
-58.571419
-64.030861
-64.451401
-61.696789
-56.099804
-47.433308
-36.486614
-24.824781
-12.843275
0.716505
17.187063
36.255032
55.830181
73.046570
84.180214
85.021660
74.295113
56.051605
36.681362
20.155495
6.595970
-6.053809
-19.366808
-32.200096
-40.552898
-40.005756
-29.233431
-11.327116
8.873346
28.048347
45.315479
61.560925
77.502617
92.629364
106.360054
116.431572
116.693153
102.704529
77.760956
49.562042
24.449636
5.088512
-10.389604
-26.625826
-46.247173
-67.211166
-85.205879
-97.112640
-101.731926
-99.719543
-94.799606
-92.929535
-97.371025
-105.638779
-112.969154
-117.171471
-119.405205
-122.360931
-128.144775
-136.199997
-142.596451
-142.035507
-131.086914
-109.499809
-79.069290
-42.325119
-2.071263
38.611214
76.326042
107.668541
129.132401
136.605438
126.883949
100.821747
64.099594
25.569534
-5.016482
-20.726591
-20.021648
-5.300759
19.349424
49.282135
80.809967
111.879921
140.277664
162.540680
176.508530
184.497864
192.861725
207.444778
228.845230
252.271988
271.165344
280.158081
276.103455
258.383423
228.940903
191.671921
150.859909
109.701691
70.688622
37.250462
14.393527
6.941390
16.280043
38.903625
67.894867
94.912025
112.350548
116.095184
106.108459
84.749687
55.891800
25.200975
-0.669781
-18.120649
-29.762062
-40.603500
-51.796978
-59.309975
-57.461811
-42.985886
-15.823416
21.526852
63.944954
105.884781
144.850754
181.247452
215.152145
244.186401
264.653809
274.489075
274.483032
266.472168
250.484818
223.890915
183.730240
130.333771
69.488792
11.206280
-34.108700
-60.023540
-67.290375
-62.156567
-51.040756
-38.565704
-29.029350
-27.007673
-35.947273
-55.774323
-82.389450
-110.290146
-135.642334
-157.017700
-173.769226
-185.055649
-191.283829
-194.852203
-198.723373
-205.584412
-217.213287
-232.980606
-250.797180
-270.158661
-291.724976
-313.920135
-332.760193
-345.107971
-350.008209
-347.275696
-336.945618
-320.979858
-304.170288
-290.457489
-278.738281
-265.103119
-247.286850
-224.697159
-196.562164
-161.732864
-119.899879
-72.686020
-22.993372
26.356379
72.447960
112.552765
146.687714
177.908722
208.562302
237.423141
260.128082
272.048035
271.429230
260.197205
243.043869
226.103439
214.892471
211.616302
213.439774
214.051407
207.576675
191.163498
165.279770
132.522339
95.587700
56.366310
16.488073
-22.587000
-59.670250
-93.464523
-122.666405
-146.500671
-164.993652
-178.760834
-188.495834
-194.971634
-199.488022
-203.494049
-206.807434
-206.491959
-199.074890
-183.817230
-162.241974
-134.462372
-97.676147
-50.051922
3.045672
50.217442
85.145477
110.202187
127.349442
135.325806
133.777237
122.972275
102.208199
70.567291
29.077246
-18.108047
-65.274506
-107.765495
-143.419601
-170.288284
-183.851669
-180.431824
-161.748474
-132.874771
-98.736916
-64.566895
-36.500530
-19.010834
-11.930886
-11.492685
-13.568455
-14.192093
-9.661878
0.548475
12.613130
21.801846
25.899355
25.453600
23.442387
24.567682
30.976900
39.542160
45.882545
47.201069
40.103271
19.977942
-15.631551
-63.717140
-117.278564
-169.748795
-216.247375
-253.111481
-278.990295
-292.747345
-289.720367
-265.811401
-224.922211
-177.752792
-134.461288
-101.167328
-80.596001
-72.032173
-71.727417
-74.912514
-77.125893
-75.178154
-68.002846
-56.661171
-44.069298
-33.780045
-28.178514
-27.570202
-29.724619
-31.140467
-30.318987
-28.130835
-24.741867
-18.807674
-9.210960
4.536751
22.503210
43.490517
65.079819
85.052681
101.715500
113.179260
118.285385
118.830284
119.458603
124.928749
138.096451
159.092331
185.246216
213.096359
240.152985
263.552094
279.242035
284.598480
280.235107
268.211884
250.141525
227.496857
202.381424
177.694290
157.188492
144.998123
143.708298
151.969437
163.642822
169.553497
162.139984
139.752869
105.632187
64.013794
19.342093
-23.249720
-60.120613
-91.023781
-117.577019
-140.941895
-161.376907
-178.489075
-191.266678
-199.062454
-202.474899
-201.664093
-195.095215
-182.209579
-165.544250
-148.399689
-132.011261
-116.035866
-100.638092
-87.454208
-78.391960
-72.872963
-67.693588
-60.484402
-51.530033
-43.354176
-39.400696
-40.534039
-43.424011
-43.901855
-40.309738
-32.791035
-20.471121
-1.183905
25.415363
56.143108
86.625702
114.462814
139.606567
162.704514
183.944016
202.570435
216.510056
222.509872
217.055908
197.907990
165.437912
122.909988
75.903633
31.017986
-6.080250
-32.037960
-44.872883
-42.500240
-25.282001
1.122934
28.988848
52.877903
69.921494
78.811646
79.900063
75.471054
68.587944
61.143036
52.927647
42.264881
27.558929
8.611721
-12.796112
-33.386013
-50.243130
-62.801975
-72.930824
-82.916794
-93.405045
-103.312820
-111.442764
-117.745316
-123.223198
-129.185913
-136.375870
-144.435547
-152.511078
-160.082932
-166.292679
-168.861130
-164.871277
-152.454636
-131.037201
-100.919708
-63.862183
-23.771141
13.426402
40.747166
51.549717
41.674099
12.567038
-28.832762
-73.383415
-110.901161
-132.376877
-135.720993
-126.061066
-107.699020
-79.635460
-39.734829
9.779947
60.339771
100.776680
124.571510
133.432358
134.355011
132.719330
128.294510
117.861450
98.726479
70.567871
36.440960
0.794936
-30.833809
-49.760189
-49.971310
-36.501637
-21.355572
-13.924763
-19.258558
-39.703503
-73.489273
-113.319679
-149.472992
-176.425110
-196.015869
-213.375793
-230.271057
-243.153015
-248.070328
-245.643799
-238.916229
-228.853256
-214.920486
-197.583847
-178.293503
-158.345901
-138.049957
-116.638718
-93.775436
-70.639938
-47.879868
-24.375723
-1.138009
15.921361
21.280205
15.990525
4.835462
-10.130254
-30.223078
-56.722847
-87.974098
-119.825455
-150.043427
-179.962936
-210.036255
-236.574875
-253.758148
-256.886261
-244.416260
-218.813660
-185.212570
-148.613495
-112.147415
-77.522987
-46.103184
-18.840504
4.254657
23.921055
40.329529
52.343369
59.583179
64.390610
69.664391
75.441032
79.691963
81.652695
81.851204
79.844360
74.609665
66.308434
55.671383
42.386429
25.056810
2.240486
-26.921131
-62.477211
-102.986977
-145.072418
-182.908371
-208.662872
-217.551971
-212.100555
-198.269501
-179.637985
-157.019455
-131.231705
-103.959877
-75.722549
-44.976273
-10.065978
29.671076
74.256256
122.218849
170.149841
213.873642
248.542801
268.953064
272.241638
259.658539
235.856018
207.225693
179.421448
155.417206
135.972000
121.032951
109.907867
100.954185
91.997650
80.973686
66.680534
49.811497
33.231674
21.000582
17.107412
24.638788
45.039860
77.326279
117.830666
160.771713
199.665924
229.373199
248.158096
258.605652
265.787994
273.785980
283.947937
295.657959
307.959198
320.364349
332.580200
344.415924
355.948944
367.023499
376.586273
382.940155
384.714081
381.007599
370.858398
354.082550
332.385406
308.334137
284.095184
260.939697
237.695068
212.223282
186.170837
163.170837
143.409241
124.937119
107.361092
91.074844
74.898376
56.735046
35.464149
10.666890
-17.767481
-48.808407
-80.300499
-110.050468
-136.607559
-159.626541
-179.110855
-193.292831
-199.206345
-196.624451
-188.510056
-176.131638
-157.791718
-134.335236
-109.764923
-85.674911
-61.902222
-40.036739
-21.671782
-6.083929
9.366309
26.141851
41.736301
53.066208
60.818832
66.657959
70.133202
71.104622
70.867805
69.847984
66.035202
55.905788
37.889969
14.355594
-10.816447
-34.863964
-56.064835
-74.201828
-92.009842
-113.057869
-138.569336
-168.311279
-201.824142
-237.142685
-269.996338
-295.393402
-312.452179
-327.003235
-343.796783
-359.744171
-370.147247
-374.608490
-375.508698
-375.550659
-375.247681
-373.366241
-370.243073
-367.703003
-366.253265
-363.954468
-358.201752
-348.213928
-335.017181
-319.318848
-300.874695
-280.127319
-258.833649
-238.580734
-219.815567
-202.567154
-186.892487
-172.298264
-157.747437
-142.546265
-126.779053
-110.366966
-92.327110
-72.096710
-50.006332
-25.127310
4.327635
37.393196
70.905777
103.305458
134.198303
162.389694
187.454559
210.544662
231.896423
249.933014
263.182526
270.823578
271.944183
266.572998
256.683563
244.474808
230.408173
213.828445
194.843750
175.051346
156.317734
139.027054
122.025414
103.810707
83.318748
60.501457
36.616081
13.566344
-7.141038
-24.873707
-39.550278
-50.796757
-56.903511
-55.233707
-44.802479
-27.122105
-3.675747
25.093189
57.653473
91.107552
123.843956
155.997772
187.157349
215.834229
240.748138
260.970703
275.330322
282.682251
282.708557
276.247467
264.734314
249.581833
232.324905
214.650635
197.870972
182.730606
169.839462
160.104538
154.687866
154.466202
159.197067
167.109726
175.230942
180.344376
180.513428
175.454529
165.090912
149.384933
130.128326
110.818298
94.354401
82.084152
74.226662
69.959389
67.566673
65.251656
62.115452
58.517284
55.660969
54.667679
55.440544
56.105602
53.726212
45.928249
32.199261
13.927747
-6.441933
-26.267775
-43.806122
-59.431843
-75.150040
-92.249832
-109.937134
-126.524467
-141.033432
-153.172272
-163.010620
-171.177643
-178.507629
-185.299515
-191.097717
-195.168655
-196.875702
-195.477646
-190.401855
-182.031586
-171.483566
-159.502518
-146.060532
-130.989471
-114.615669
-97.485489
-79.321861
-58.447884
-32.706902
-1.256256
34.605141
72.317719
108.817741
140.103012
162.004745
172.872147
174.950226
172.603973
169.203583
165.507416
160.204803
151.581390
138.757706
121.380341
99.619858
75.215698
50.945705
28.783051
9.068822
-9.200556
-27.201702
-44.876869
-61.478653
-77.125977
-92.159714
-105.253555
-113.204926
-113.439034
-106.818420
-96.305344
-83.312752
-67.873192
-51.062641
-34.380146
-18.131916
-2.271325
12.606681
26.016699
38.227848
49.599194
60.076210
69.655182
78.598785
86.976288
94.298935
99.512756
101.106552
97.630920
88.589767
74.788231
57.981335
40.050755
22.032309
3.978417
-14.192929
-31.963030
-48.507511
-63.423309
-76.678268
-88.037521
-96.803223
-102.045982
-103.387215
-101.909126
-100.037239
-100.150719
-103.266571
-108.940399
-115.980827
-122.919556
-128.178055
-130.538940
-129.733032
-126.432755
-121.368790
-114.250778
-103.796928
-89.005066
-70.412521
-50.289474
-31.542791
-16.163225
-4.405153
4.872993
13.008811
20.513220
27.190897
32.923393
37.829655
41.749641
44.432133
46.424210
48.788609
51.855095
55.259998
59.066925
63.942539
70.220230
77.313850
84.263954
90.285149
94.284981
94.357422
88.183441
74.001930
51.806934
24.405357
-3.192468
-26.591311
-44.038204
-55.615845
-61.631138
-62.363323
-58.548435
-50.796764
-38.699455
-21.727440
-1.352433
18.420357
33.564831
42.689289
46.716255
47.201828
45.616753
43.244762
40.925629
38.870998
37.036728
35.831978
36.366692
39.938385
47.105595
56.858704
66.648117
73.621498
76.213921
74.855217
71.277580
67.017761
62.521496
57.498917
51.798996
45.777760
39.766281
33.582626
27.082602
20.634571
14.215970
6.693013
-3.046188
-14.736824
-26.747568
-36.886131
-43.361595
-45.077122
-41.054886
-30.513510
-14.021757
6.117520
27.140903
47.270046
66.218452
84.634254
102.727287
119.538277
133.388275
142.610168
146.209961
144.061920
136.731506
125.526093
112.146408
97.704948
82.467918
66.496010
49.974022
33.296875
16.951107
0.508776
-17.545925
-37.746601
-58.383308
-76.926247
-91.350136
-99.908104
-100.946022
-93.434715
-77.426018
-54.003788
-25.091797
6.649201
38.096691
66.358253
89.693169
107.531281
119.227989
123.746437
120.802879
111.075714
95.612671
76.073563
54.785324
33.481529
12.412435
-8.498875
-28.277981
-45.635475
-60.646038
-74.417473
-86.972992
-97.251717
-105.083740
-111.149918
-115.770851
-119.068985
-121.338364
-122.660431
-122.700783
-121.037926
-117.549080
-112.475914
-106.116394
-98.522041
-89.459251
-78.646652
-66.267174
-53.195572
-40.572655
-29.261225
-19.647421
-11.808478
-5.822196
-1.759294
0.763615
2.660212
4.613089
6.531869
7.953559
8.684742
8.929899
8.972132
8.951964
8.806123
8.219731
6.824621
4.433851
0.982102
-3.465054
-8.644286
-14.361571
-20.519983
-26.583441
-31.518064
-34.533928
-35.509594
-34.671028
-32.290794
-28.822138
-25.262981
-23.280815
-24.475344
-29.314642
-37.146252
-47.051941
-58.047581
