EVENT_NAME: CENTRAL_ITALY
EVENT_ID: EMSC-20161026_0000077
EVENT_DATE_YYYYMMDD: 20161026
EVENT_TIME_HHMMSS: 171036
EVENT_LATITUDE_DEGREE: 42.8802
EVENT_LONGITUDE_DEGREE: 13.1275
EVENT_DEPTH_KM: 8.7
HYPOCENTER_REFERENCE: INGV-CNT_Seismic_Bulletin
MAGNITUDE_W: 5.4
MAGNITUDE_W_REFERENCE: INGV-webservice
MAGNITUDE_L: 5.4
MAGNITUDE_L_REFERENCE: INGV-CNT_Seismic_Bulletin
FOCAL_MECHANISM: NF
NETWORK: IT
STATION_CODE: ACC
STATION_NAME: Accumoli
STATION_LATITUDE_DEGREE: 42.695999
STATION_LONGITUDE_DEGREE: 13.242000
STATION_ELEVATION_M: 922
LOCATION: 
SENSOR_DEPTH_M: 
VS30_M/S: 
SITE_CLASSIFICATION_EC8: A*
MORPHOLOGIC_CLASSIFICATION: 
EPICENTRAL_DISTANCE_KM: 22.5
EARTHQUAKE_BACKAZIMUTH_DEGREE: 335.4
DATE_TIME_FIRST_SAMPLE_YYYYMMDD_HHMMSS: 20161026_171034.835
DATE_TIME_FIRST_SAMPLE_PRECISION: milliseconds
SAMPLING_INTERVAL_S: 0.005000
NDATA: 7433
DURATION_S: 37.165
STREAM: HGZ
UNITS: cm/s^2
INSTRUMENT: sensor = Unknown [Unknown] | digitizer = Unknown [Unknown]
INSTRUMENT_ANALOG/DIGITAL: D
INSTRUMENTAL_FREQUENCY_HZ: 
INSTRUMENTAL_DAMPING: 
FULL_SCALE_G: 
N_BIT_DIGITAL_CONVERTER: 
PGA_CM/S^2: -39.631806
TIME_PGA_S: 11.810000
BASELINE_CORRECTION: BASELINE REMOVED
FILTER_TYPE: BUTTERWORTH
FILTER_ORDER: 2
LOW_CUT_FREQUENCY_HZ: 0.100
HIGH_CUT_FREQUENCY_HZ: 30.000
LATE/NORMAL_TRIGGERED: NT
DATABASE_VERSION: DYNA 1.0
HEADER_FORMAT: DYNA 1.2
DATA_TYPE: ACCELERATION
PROCESSING: manual (Paolucci et al., 2011)
DATA_TIMESTAMP_YYYYMMDD_HHMMSS: 20161027_131047.653
DATA_LICENSE: CC-BY3_0-IT (http://creativecommons.org/licenses/by/3.0/deed.en)
DATA_CITATION: ESM working group (2015), European Strong-Motion database, version 0.1, Network Activity 3: Networking acceleration networks and SM data users. Project NERA (www.nera-eu.org)
DATA_CREATOR: ESM working group
ORIGINAL_DATA_MEDIATOR_CITATION: Ufficio Rischio Sismico e Vulcanico del Dipartimento della Protezione Civile (http://www.protezionecivile.gov.it/)
ORIGINAL_DATA_MEDIATOR: Rete Accelerometrica Nazionale - RAN Download (http://www.mot1.it/randownload/)
ORIGINAL_DATA_CREATOR_CITATION: Italian Strong Motion Network, Italian Civil Protection Department http://www.protezionecivile.gov.it
ORIGINAL_DATA_CREATOR: network: IT (Italian Strong Motion Network); owner: Dipartimento Della Protezione Civile
USER1: /home/dyna/processing-itaca/processing.py /var/www/processing//tmp/felicetta//IT.ACC..HGE.D.20161026.171036.X.ACC.ASC /var/www/processing//tmp/felicetta//IT.ACC..HGN.D.20161026.171036.X.ACC.ASC /var/www/processing//tmp/felicetta//IT.ACC..HGZ.D.20161026.171036.X.ACC.ASC --tmp /var/www/processing//tmp/felicetta/ --le 0.100 --he 30.000 --ln 0.100 --hn 30.000 --lz 0.100 --hz 30.000 --fo 2 --ca 0 --cz 40 --ta 5 --tz 5 --mf 1 --rf 0 --tr NT
USER2: 
USER3: 
USER4: 
USER5: 
[...]
0.000672
0.001316
0.001035
0.000080
-0.000710
-0.000911
-0.000871
-0.000775
-0.000099
0.001104
0.001949
0.002205
0.002383
0.002748
0.003210
0.003563
0.003350
0.002240
0.000778
-0.000038
0.000070
0.000516
0.000847
0.001168
0.001361
0.000807
-0.000524
-0.001696
-0.002015
-0.001633
-0.000766
0.000690
0.002538
0.003863
0.003712
0.002184
0.000530
0.000066
0.000962
0.001989
0.001993
0.001259
0.000443
-0.000481
-0.001552
-0.002158
-0.001630
-0.000285
0.000983
0.001783
0.002146
0.001897
0.000889
-0.000475
-0.001646
-0.002274
-0.002146
-0.001616
-0.001357
-0.001352
-0.000881
0.000542
0.002299
0.003060
0.002398
0.001077
0.000160
0.000349
0.001273
0.001826
0.001433
0.000576
0.000262
0.000835
0.001611
0.001837
0.001377
0.000548
-0.000163
-0.000479
-0.000723
-0.001250
-0.001726
-0.001824
-0.001694
-0.001394
-0.000947
-0.000474
0.000119
0.000874
0.001404
0.001130
-0.000140
-0.001628
-0.001929
-0.000389
0.002077
0.003693
0.003434
0.002095
0.001346
0.001729
0.002331
0.002211
0.001341
0.000337
-0.000177
-0.000109
-0.000054
-0.000443
-0.000727
-0.000349
0.000176
0.000297
0.000433
0.001023
0.001708
0.001934
0.001513
0.000382
-0.001206
-0.002234
-0.002225
-0.002044
-0.002040
-0.001736
-0.001413
-0.001498
-0.001540
-0.001099
-0.000254
0.000824
0.001707
0.001628
0.000536
-0.000516
-0.000611
0.000020
0.000266
-0.000419
-0.001329
-0.001664
-0.001218
-0.000020
0.001825
0.003797
0.004717
0.003714
0.001619
0.000220
-0.000024
0.000032
0.000078
0.000395
0.000785
0.000953
0.001321
0.002096
0.002352
0.001344
-0.000268
-0.001292
-0.001087
0.000149
0.001350
0.001468
0.000591
-0.000218
-0.000230
0.000007
-0.000063
0.000020
0.000435
0.000812
0.001113
0.001571
0.002160
0.002532
0.002846
0.003862
0.005702
0.007322
0.007625
0.006364
0.003500
-0.000750
-0.005372
-0.009018
-0.010328
-0.008449
-0.003817
0.001660
0.004959
0.003206
-0.004979
-0.018448
-0.032333
-0.038917
-0.031306
-0.007107
0.029630
0.068507
0.095975
0.101370
0.082496
0.047014
0.007891
-0.025030
-0.050843
-0.075614
-0.104044
-0.131812
-0.145153
-0.128264
-0.073787
0.010665
0.102635
0.170775
0.187128
0.140849
0.045032
-0.066911
-0.154555
-0.187357
-0.155840
-0.073024
0.031614
0.122731
0.170918
0.162322
0.103756
0.020033
-0.056219
-0.097448
-0.092140
-0.048967
0.009865
0.061978
0.094011
0.101284
0.082599
0.038572
-0.023934
-0.087728
-0.129691
-0.135324
-0.111449
-0.082388
-0.072122
-0.086666
-0.109140
-0.111732
-0.075064
0.000689
0.099569
0.203103
0.300964
0.388971
0.457671
0.486273
0.451551
0.344898
0.181892
-0.003544
-0.175177
-0.309359
-0.401137
-0.460883
-0.504059
-0.539781
-0.564271
-0.562000
-0.513945
-0.406059
-0.232021
0.004157
0.279265
0.543983
0.733396
0.794284
0.710366
0.510281
0.257321
0.026676
-0.123787
-0.177833
-0.162690
-0.124664
-0.100051
-0.103978
-0.135584
-0.185484
-0.241302
-0.292316
-0.329249
-0.338331
-0.298201
-0.186758
0.006167
0.269774
0.571948
0.865193
1.096048
1.218546
1.204632
1.041196
0.722785
0.262381
-0.282964
-0.808665
-1.202074
-1.390933
-1.352008
-1.085082
-0.602566
0.046166
0.751907
1.360563
1.715958
1.699017
1.257329
0.437554
-0.588952
-1.542521
-2.111056
-2.057487
-1.309831
0.000703
1.569275
3.011013
3.979190
4.249639
3.743559
2.507899
0.692949
-1.446869
-3.548696
-5.191988
-6.022212
-5.880968
-4.855157
-3.218689
-1.319838
0.521414
2.086511
3.281525
4.081471
4.437756
4.248934
3.440158
2.096491
0.536343
-0.774831
-1.453963
-1.413712
-0.901228
-0.349024
-0.137756
-0.386092
-0.883938
-1.249652
-1.231826
-0.918597
-0.669282
-0.811056
-1.331158
-1.805089
-1.643403
-0.499889
1.458172
3.605832
5.180233
5.649617
4.918777
3.272886
1.153317
-1.028772
-2.940869
-4.309055
-4.917518
-4.643640
-3.512109
-1.737453
0.289379
2.096863
3.282823
3.628983
3.111237
1.857100
0.154214
-1.506479
-2.498845
-2.328113
-0.971271
0.976777
2.525376
2.795124
1.530952
-0.688481
-2.731917
-3.578424
-2.931175
-1.337993
0.253440
1.150162
1.297604
1.155753
1.224563
1.616385
1.998915
1.921874
1.243097
0.299010
-0.342579
-0.365610
0.009056
0.233866
-0.043011
-0.647585
-1.047323
-0.837995
-0.116933
0.551573
0.559280
-0.243476
-1.372715
-2.032646
-1.690918
-0.456404
1.000165
1.869978
1.662265
0.423488
-1.368743
-3.089253
-4.182893
-4.250231
-3.135187
-1.072655
1.260095
2.959916
3.322146
2.203684
0.086563
-2.185150
-3.812434
-4.363299
-3.897305
-2.851921
-1.691287
-0.546551
0.767164
2.324974
3.729608
4.234611
3.259792
0.869219
-2.114162
-4.414986
-4.909140
-3.240487
-0.048969
3.395049
5.896774
6.886731
6.502574
5.266059
3.683891
2.063461
0.548001
-0.819765
-2.081751
-3.271669
-4.218550
-4.511759
-3.825802
-2.328941
-0.687907
0.411095
0.770391
0.737408
0.806415
1.179382
1.651721
1.830941
1.457769
0.642709
-0.096195
-0.123742
0.757498
1.956395
2.428795
1.517455
-0.496803
-2.641027
-3.965350
-4.054527
-3.053814
-1.425319
0.258052
1.428731
1.663633
0.815722
-0.992268
-3.427855
-5.873958
-7.368209
-6.941074
-4.320044
-0.375443
3.223722
4.957699
4.308942
1.941199
-0.837111
-2.852390
-3.546280
-2.989510
-1.638450
-0.088293
1.127140
1.717686
1.706872
1.331456
0.918254
0.858469
1.548337
3.132812
5.216729
6.949098
7.570605
6.922514
5.379974
3.373040
1.159819
-0.923190
-2.243874
-2.157086
-0.536878
2.038614
4.612623
6.337223
6.791568
6.058850
4.593348
2.931169
1.362493
-0.244261
-2.291069
-5.033506
-8.255397
-11.307127
-13.376058
-13.733801
-11.984739
-8.420469
-4.228551
-1.128391
-0.442284
-2.203533
-4.989130
-6.670335
-5.658514
-1.878117
3.192951
7.460168
9.438699
8.886933
6.484375
2.993702
-1.238263
-5.991716
-10.513550
-13.323608
-12.866659
-8.538879
-1.276221
6.684944
12.722738
14.995054
13.285374
9.063082
4.681951
2.113088
1.993807
3.611741
5.663687
7.046811
7.152401
5.771475
3.005575
-0.667426
-4.337166
-6.838444
-7.203542
-5.195434
-1.600253
1.985414
3.849311
2.986739
-0.386039
-4.884560
-8.561040
-9.813902
-8.176020
-4.529663
-0.610312
1.856104
1.890025
-0.394946
-3.907455
-7.094733
-8.572810
-7.562702
-4.118526
0.754497
5.275180
7.610984
6.887502
3.773364
0.193109
-1.690822
-0.691280
2.701713
6.662569
9.239137
9.542956
8.106970
6.292432
5.249129
5.183957
5.440039
5.172113
3.919868
1.713096
-1.082460
-3.945465
-6.391842
-8.103422
-8.894693
-8.668651
-7.526556
-5.876377
-4.323032
-3.382150
-3.186321
-3.348197
-3.144911
-1.995117
0.111958
2.581445
4.601200
5.674352
5.891628
5.708390
5.413157
4.748507
3.001982
-0.435624
-5.316675
-10.140248
-12.682909
-11.346685
-6.327576
0.397429
6.216683
9.166170
8.550193
4.921099
-0.229113
-4.916575
-7.292493
-6.392348
-2.684089
2.007126
5.314181
5.482124
2.254542
-2.912255
-7.437937
-8.822936
-5.912188
0.474366
7.938275
13.718576
16.000246
14.523484
10.225516
4.429356
-1.634842
-6.783736
-9.804685
-9.772127
-6.604966
-1.360868
4.049787
7.583555
7.850036
4.666319
-0.830956
-6.594594
-10.458321
-11.011787
-8.172682
-3.143870
2.191780
6.043959
7.287036
5.724944
2.124583
-1.952341
-4.629180
-4.519066
-1.467914
3.359938
8.182472
11.481719
12.425897
10.866921
7.277145
2.642609
-1.863434
-5.288875
-7.084265
-7.064057
-5.411651
-2.783892
-0.261178
1.019615
0.338454
-2.342312
-6.362881
-10.472766
-13.090350
-12.862659
-9.381508
-3.533929
2.869896
7.913075
10.272045
9.580415
6.482717
2.322855
-1.450937
-3.804745
-4.301556
-3.040074
-0.562390
2.248388
4.407436
5.189923
4.402961
2.407445
-0.067515
-2.172752
-3.187379
-2.814305
-1.428875
0.046850
0.757489
0.549041
-0.005988
-0.269092
-0.269925
-0.768799
-2.485050
-5.164785
-7.422050
-7.597481
-4.929702
-0.123958
5.011533
8.551504
9.502027
8.310424
6.384430
4.857167
3.683300
2.017482
-0.480190
-2.855673
-3.545750
-1.877247
1.177217
3.724044
4.369327
3.047963
0.814483
-0.919926
-1.132029
0.328216
2.652736
4.499073
4.703844
2.779111
-1.036966
-5.918713
-10.587671
-13.618018
-13.987365
-11.555335
-7.138113
-2.150680
1.994226
4.421751
4.954573
3.907579
1.901930
-0.087763
-0.775427
0.922992
5.080908
10.306395
14.145846
14.242649
9.656522
1.626158
-6.767920
-12.036039
-12.140826
-7.762661
-1.998508
1.621061
1.445799
-1.434833
-4.287412
-4.752357
-2.297025
1.732020
5.222577
6.663930
5.876105
3.775089
1.580454
0.140942
-0.300591
0.003368
0.556024
0.862051
0.587205
-0.371411
-1.839919
-3.368037
-4.390191
-4.483249
-3.489379
-1.459057
1.389923
4.545684
7.057016
7.781157
6.157989
2.878296
-0.432926
-2.461943
-3.180843
-3.580401
-4.584253
-6.254699
-7.771261
-7.985552
-6.238228
-2.967277
0.476527
2.772783
3.459611
2.943015
1.934623
0.981598
0.380924
0.336375
1.068209
2.706640
5.092491
7.694423
9.668011
10.092113
8.448397
5.022484
0.759156
-3.317696
-6.590509
-9.020270
-11.117299
-13.657497
-17.024370
-20.528681
-22.414223
-20.839060
-15.270059
-7.228204
0.372968
4.996411
6.017277
4.776805
3.262012
2.732334
3.335066
4.550749
5.749896
6.485836
6.544100
5.871315
4.539067
2.850255
1.436720
1.027458
1.896251
3.526434
4.963501
5.599714
5.633858
5.766048
6.459663
7.536515
8.485638
9.066070
9.510422
10.146636
10.875499
11.030388
9.746496
6.540476
1.664692
-4.009117
-9.454975
-13.938311
-17.147835
-19.005707
-19.393887
-18.086990
-14.999551
-10.536716
-5.664967
-1.508026
1.297700
2.984302
4.445804
6.535309
9.283547
11.630873
12.037270
9.597301
4.760259
-0.895796
-5.544744
-7.911717
-7.568900
-4.864183
-0.723146
3.660940
7.168162
8.880580
8.096061
4.637703
-0.633577
-5.805473
-8.763089
-8.357628
-4.982084
-0.185110
4.214769
6.849327
7.148374
5.418977
2.653549
0.038829
-1.599139
-2.043422
-1.553293
-0.618846
0.217280
0.559624
0.376730
-0.024668
-0.342221
-0.569577
-0.896371
-1.368263
-1.709974
-1.466685
-0.297010
1.809001
4.460698
6.905045
8.221152
7.770329
5.711737
3.087260
1.196480
0.616953
0.654986
-0.215190
-3.156105
-7.932212
-12.840220
-15.594612
-14.485431
-9.181700
-0.970565
7.620580
13.809656
15.754451
13.238859
7.506039
0.573146
-5.492983
-9.182463
-9.956765
-8.189751
-4.559348
0.500476
6.571117
12.476622
16.042574
15.044431
8.788758
-0.930186
-10.353103
-15.545356
-14.359929
-7.393064
2.545312
11.981027
18.339231
20.650785
19.197346
14.670371
7.712590
-0.808179
-9.344836
-15.841342
-18.582874
-17.077009
-12.356892
-6.455307
-1.297287
2.250648
4.501964
6.253888
7.979370
9.582787
10.711987
11.152365
10.943248
10.235027
9.168155
7.932684
6.793930
5.828601
4.608631
2.363197
-1.374162
-6.261507
-11.220667
-14.942535
-16.527704
-15.977219
-14.204433
-12.491374
-11.720168
-11.826850
-11.764923
-10.109480
-6.101042
-0.347477
5.421681
9.233329
9.801181
7.220163
3.116202
-0.068723
-0.379304
2.645268
7.797026
12.752874
15.134990
13.709467
9.041609
3.100492
-2.024668
-5.475146
-8.028184
-11.158016
-15.500901
-20.044954
-22.645531
-21.308216
-15.288278
-5.472573
5.913562
16.010448
22.252064
23.265730
19.296059
11.859864
2.930258
-5.727672
-12.847721
-17.762466
-20.367920
-20.904625
-19.694700
-17.046341
-13.379254
-9.448676
-6.368158
-5.081147
-5.461612
-5.981379
-4.605975
-0.256814
6.453164
13.647579
19.222874
21.850321
21.550331
19.513577
17.152388
15.047509
12.648102
8.868185
2.992895
-4.715826
-13.001672
-20.189056
-25.004736
-27.071777
-26.792923
-24.844793
-21.677525
-17.331314
-11.699480
-5.014338
1.897333
7.848464
11.881238
13.742815
13.811803
12.622051
10.571270
8.084890
5.925593
5.219099
7.065435
11.892569
18.960930
26.521145
32.635818
36.012573
36.276962
33.772686
29.229164
23.457508
17.204136
11.171157
5.994957
2.136331
-0.176172
-0.942870
-0.403362
0.939353
2.331737
2.910264
1.961059
-0.890907
-5.603463
-11.600719
-17.762255
-22.827593
-26.014307
-27.282022
-27.106012
-26.129044
-24.955675
-24.046843
-23.609632
-23.449284
-22.933422
-21.292831
-18.063990
-13.231848
-7.093017
-0.104856
7.232221
14.414801
20.845518
25.761360
28.343994
27.891602
23.970297
16.872492
8.157258
0.153775
-5.505551
-8.559796
-9.258280
-7.314527
-2.065157
6.340124
15.977363
23.521393
25.888948
21.779573
12.039478
-0.886319
-13.915704
-24.441952
-31.188864
-34.508747
-35.922482
-36.709721
-36.225807
-31.906164
-21.921213
-7.805603
6.422662
17.517899
24.626867
28.310141
29.052977
26.840672
21.797586
14.864346
7.612567
1.572232
-2.128945
-2.886219
-0.800051
3.247256
7.730274
10.857683
11.313052
8.979401
4.930820
0.576085
-3.338941
-6.955635
-10.645228
-14.210426
-16.660702
-16.747465
-13.713222
-7.623524
0.607843
9.241902
16.005424
18.783373
16.292124
8.305780
-4.333180
-19.339766
-32.653870
-39.631805
-37.708595
-27.959270
-13.811008
1.374353
15.156406
25.474001
30.603388
29.833855
23.811863
14.389265
4.325186
-3.387444
-6.641684
-5.020096
0.242490
6.820544
12.099941
14.156097
12.445337
7.733978
1.501432
-4.752256
-10.132701
-14.549212
-18.277143
-21.390444
-23.499214
-23.790903
-21.472944
-16.468250
-9.709558
-2.794609
2.597273
5.284371
5.060874
2.701565
-0.600358
-3.840504
-6.503028
-8.598503
-10.433488
-12.184031
-13.556170
-13.782388
-12.093749
-8.471052
-3.928583
0.142403
2.931389
4.553713
5.703251
7.092015
9.026562
11.200566
12.776316
12.874381
11.191321
8.145387
4.432173
0.498934
-3.597508
-7.927232
-12.270364
-15.882152
-17.685978
-16.771509
-12.860976
-6.578709
0.565309
6.635486
10.096343
10.510045
8.628490
5.923943
3.954963
3.811930
5.705637
8.860487
11.907647
13.599735
13.279995
10.818271
6.343736
0.230857
-6.642147
-12.835672
-16.868044
-17.966272
-16.331299
-12.776553
-8.291813
-3.907134
-0.607857
0.993340
1.038612
0.436696
0.364212
1.595553
4.149897
7.376913
10.263301
11.844505
11.689827
10.165991
8.138056
6.300177
4.768565
3.273644
1.626187
-0.073940
-1.575229
-2.628053
-2.970325
-2.333918
-0.623481
1.930040
4.854050
7.638616
9.835930
11.036100
10.846990
8.980763
5.462629
0.850839
-3.790950
-7.371993
-9.460257
-10.558582
-11.662064
-13.477600
-15.957584
-18.434130
-20.141472
-20.721493
-20.384272
-19.638611
-18.831299
-17.867315
-16.256105
-13.330900
-8.514689
-1.644257
6.758008
15.473039
22.871983
27.398567
28.144131
25.287548
20.051035
14.125307
8.972789
5.442893
3.782595
3.839362
5.248146
7.537746
10.224173
12.932721
15.414851
17.371984
18.306190
17.699741
15.436074
11.981293
8.085437
4.324083
0.885964
-2.323720
-5.432253
-8.389271
-10.897124
-12.473877
-12.611077
-10.986176
-7.640941
-3.056370
1.859967
5.872567
7.675206
6.294540
1.442513
-6.327167
-15.595423
-24.180838
-29.577295
-29.826662
-24.471722
-14.937419
-3.974625
5.485732
11.299336
12.502232
9.319422
2.964333
-4.799013
-12.183035
-17.717016
-20.379984
-19.717682
-15.961653
-9.935242
-2.709868
4.661920
11.095972
15.400512
16.629131
14.711651
10.698374
6.307041
3.118284
1.926703
2.521470
3.933657
5.020998
5.126397
4.461591
3.945429
4.569193
6.749454
10.130733
13.848420
16.891844
18.362291
17.707342
14.934615
10.643725
5.809739
1.440171
-1.711796
-3.278009
-3.252243
-1.864969
0.535630
3.473226
6.247271
7.992758
8.008819
6.115370
2.748366
-1.195576
-4.607839
-6.480181
-6.269787
-4.136057
-0.862177
2.494998
5.012301
6.164816
5.853377
4.273867
1.833234
-0.840134
-2.965087
-3.833970
-3.082353
-0.867696
2.166700
5.195903
7.569925
8.912674
9.011304
7.781883
5.354621
2.119515
-1.316988
-4.241260
-6.043415
-6.490986
-5.869755
-4.841522
-4.089644
-3.980624
-4.434270
-5.031299
-5.269909
-4.857617
-3.892995
-2.805207
-2.080799
-1.966940
-2.348562
-2.866125
-3.146212
-2.961031
-2.285436
-1.328022
-0.515320
-0.329526
-1.056171
-2.648701
-4.771499
-6.881860
-8.296330
-8.349149
-6.655745
-3.324052
1.007738
5.305850
8.400255
9.313508
7.600861
3.601690
-1.565332
-6.351032
-9.315314
-9.571762
-6.985045
-2.160311
3.714706
9.163074
12.814582
13.815870
12.113266
8.457281
4.094725
0.301243
-2.018775
-2.531720
-1.478329
0.466528
2.450721
3.765105
4.101053
3.622985
2.834462
2.313751
2.427015
3.129537
3.967897
4.341737
3.905876
2.819349
1.639952
0.969087
1.113229
1.945145
3.022777
3.909981
4.478319
4.923183
5.482178
6.132881
6.513604
6.085067
4.423348
1.505194
-2.168505
-5.705549
-8.148819
-8.837049
-7.663276
-5.132998
-2.181847
0.172972
1.180357
0.544408
-1.594950
-4.805896
-8.505513
-12.049499
-14.804794
-16.232449
-15.968801
-13.901758
-10.270524
-5.761877
-1.452891
1.518453
2.438863
1.382146
-0.759170
-2.597028
-2.812850
-0.761711
3.180537
7.782789
11.579823
13.550147
13.450380
11.709392
9.064698
6.206315
3.607023
1.553058
0.252447
-0.129494
0.437770
1.708174
3.119871
3.966021
3.698660
2.162644
-0.357591
-3.262947
-5.863198
-7.615181
-8.312551
-8.180940
-7.816353
-7.909364
-8.838479
-10.418341
-12.027436
-12.994645
-12.919670
-11.758178
-9.758019
-7.364683
-5.077204
-3.235077
-1.873192
-0.787170
0.284122
1.584264
3.393402
5.992252
9.427686
13.299426
16.852913
19.336115
20.304390
19.683872
17.685911
14.716433
11.281460
7.851118
4.749302
2.161626
0.228326
-0.904612
-1.127952
-0.448248
0.945895
2.652157
4.109483
4.761726
4.244576
2.503438
-0.144798
-3.002671
-5.144634
-5.782183
-4.665699
-2.241835
0.552261
2.704148
3.489387
2.648111
0.400662
-2.648004
-5.704841
-8.017546
-9.004347
-8.286828
-5.782480
-1.896360
2.391033
5.749988
6.997498
5.614694
2.038190
-2.448477
-6.231238
-8.031146
-7.365865
-4.618227
-0.748098
3.168513
6.337442
8.397994
9.305985
9.113091
7.863160
5.683955
2.951060
0.315348
-1.518973
-2.140174
-1.623968
-0.430764
0.893987
1.994321
2.801731
3.453210
4.110652
4.793440
5.334486
5.479967
5.046571
4.039827
2.676636
1.293681
0.192237
-0.464215
-0.633230
-0.337229
0.309977
1.028550
1.434359
1.284316
0.661893
-0.120339
-0.782312
-1.224893
-1.486173
-1.639666
-1.746095
-1.823812
-1.785122
-1.433023
-0.639814
0.403855
1.155047
1.005536
-0.336205
-2.675123
-5.450011
-7.978331
-9.653561
-10.078358
-9.172323
-7.218385
-4.791496
-2.580773
-1.170645
-0.858641
-1.567521
-2.870447
-4.117787
-4.636625
-3.959769
-2.035125
