EVENT_NAME: L_AQUILA
EVENT_ID: IT-2009-0009
EVENT_DATE_YYYYMMDD: 20090406
EVENT_TIME_HHMMSS: 013240
EVENT_LATITUDE_DEGREE: 42.3420
EVENT_LONGITUDE_DEGREE: 13.3800
EVENT_DEPTH_KM: 8.3
HYPOCENTER_REFERENCE: INGV-CNT_Seismic_Bulletin
MAGNITUDE_W: 6.3
MAGNITUDE_W_REFERENCE: RCMT-INGV
MAGNITUDE_L: 5.9
MAGNITUDE_L_REFERENCE: INGV-CNT_Seismic_Bulletin
FOCAL_MECHANISM: NF
NETWORK: IT
STATION_CODE: AQK
STATION_NAME: L'AQUILA - V. ATERNO - AQUIL PARK ING.
STATION_LATITUDE_DEGREE: 42.344967
STATION_LONGITUDE_DEGREE: 13.400949
STATION_ELEVATION_M: 726
LOCATION: 
SENSOR_DEPTH_M: 0.0
VS30_M/S: 705
SITE_CLASSIFICATION_EC8: B
MORPHOLOGIC_CLASSIFICATION: SL
EPICENTRAL_DISTANCE_KM: 1.8
EARTHQUAKE_BACKAZIMUTH_DEGREE: 259.2
DATE_TIME_FIRST_SAMPLE_YYYYMMDD_HHMMSS: 20090406_013212.000
DATE_TIME_FIRST_SAMPLE_PRECISION: seconds
SAMPLING_INTERVAL_S: 0.005000
NDATA: 105
DURATION_S: 
STREAM: HNZ
UNITS: cm/s^2
INSTRUMENT: sensor = FBA-3 [Kinemetrics] | digitizer = Etna [Kinemetrics]
INSTRUMENT_ANALOG/DIGITAL: D
INSTRUMENTAL_FREQUENCY_HZ: 204.000
INSTRUMENTAL_DAMPING: 0.700000
FULL_SCALE_G: 1.0
N_BIT_DIGITAL_CONVERTER: 18
PGV_CM/S: -20.070084
TIME_PGV_S: 31.685000
BASELINE_CORRECTION: BASELINE REMOVED
FILTER_TYPE: BUTTERWORTH
FILTER_ORDER: 2
LOW_CUT_FREQUENCY_HZ: 0.100
HIGH_CUT_FREQUENCY_HZ: 40.000
LATE/NORMAL_TRIGGERED: NT
DATABASE_VERSION: DYNA 1.0
HEADER_FORMAT: DYNA 1.2
DATA_TYPE: PSEUDO-VELOCITY RESPONSE SPECTRUM
PROCESSING: manual (Paolucci et al., 2011)
DATA_TIMESTAMP_YYYYMMDD_HHMMSS: 
DATA_LICENSE: CC-BY3_0-IT (http://creativecommons.org/licenses/by/3.0/deed.en)
DATA_CITATION: ESM working group (2015), European Strong-Motion database, version 0.1, Network Activity 3: Networking acceleration networks and SM data users. Project NERA (www.nera-eu.org)
DATA_CREATOR: ESM working group
ORIGINAL_DATA_MEDIATOR_CITATION: data obtained within the DPC-INGV data exchange agreements
ORIGINAL_DATA_MEDIATOR: Archive of Italian Department of Civil Protection
ORIGINAL_DATA_CREATOR_CITATION: Italian Strong Motion Network, Italian Civil Protection Department http://www.protezionecivile.gov.it
ORIGINAL_DATA_CREATOR: network: IT (Italian Strong Motion Network); owner: Dipartimento Della Protezione Civile
USER1: 
USER2: 
USER3: 
USER4: 
USER5: 
    0.010000     0.569160
    0.020000     1.355384
    0.022000     1.613317
    0.025000     1.598817
    0.029000     2.226883
    0.030000     2.514030
    0.032000     3.398953
    0.035001     3.887103
    0.036000     3.807052
    0.040000     4.637285
    0.041999     5.771988
    0.044001     6.205148
    0.045000     6.559510
    0.046000     6.618151
    0.048001     7.203166
    0.050000     7.621435
    0.054999     8.470237
    0.059999     8.927401
    0.064998     7.291878
    0.067002     7.163419
    0.069999     7.410034
    0.075002     8.469282
    0.080000     7.469075
    0.084998     6.965758
    0.090001     7.352000
    0.095003     7.514249
    0.100000     9.366862
    0.109999    11.206890
    0.120005    13.192042
    0.130005    15.815364
    0.132996    17.850918
    0.139997    18.673544
    0.149993    18.525223
    0.160000    19.068027
    0.170010    17.072798
    0.179986    18.162432
    0.190006    20.015419
    0.200000    24.115847
    0.220022    24.461037
    0.239981    27.380976
    0.250000    30.277445
    0.260010    29.164225
    0.280034    23.649895
    0.290023    20.598242
    0.300030    19.648026
    0.320000    23.240582
    0.340020    25.602602
    0.350017    25.346928
    0.359971    23.978737
    0.379939    22.130959
    0.400000    26.521486
    0.419992    35.389023
    0.439947    41.568752
    0.450045    41.398911
    0.459982    39.247272
    0.480077    32.269657
    0.500000    31.724442
    0.550055    30.611799
    0.599880    27.372766
    0.650195    39.633465
    0.667111    42.791683
    0.699790    48.516178
    0.750188    47.886028
    0.800000    41.184700
    0.850340    39.486584
    0.900090    42.180161
    0.949668    50.967930
    1.000000    67.042809
    1.100110    49.152325
    1.200480    41.234100
    1.300390    24.183025
    1.400560    18.591938
    1.499250    20.125784
    1.600000    18.720352
    1.700680    18.643482
    1.798561    18.392658
    1.901141    17.017967
    2.000000    16.455549
    2.197802    18.319313
    2.398082    19.559740
    2.500000    19.183645
    2.597403    18.164179
    2.801121    17.822845
    3.003003    18.422626
    3.205128    20.482965
    3.401361    20.836617
    3.496503    20.417568
    3.597122    19.702467
    3.802281    17.881756
    4.000000    17.325455
    4.201681    15.387980
    4.405286    13.400158
    4.608295    13.349198
    4.807692    12.868822
    5.000000    12.224240
    5.494505    10.908110
    5.988024    10.021338
    6.493506     8.759397
    6.993007     7.402011
    7.518797     6.716451
    8.000000     6.164452
    8.474576     5.652545
    9.009009     5.181965
    9.523809     4.816239
   10.000000     4.500060
