EVENT_NAME: L_AQUILA
EVENT_ID: IT-2009-0009
EVENT_DATE_YYYYMMDD: 20090406
EVENT_TIME_HHMMSS: 013240
EVENT_LATITUDE_DEGREE: 42.3420
EVENT_LONGITUDE_DEGREE: 13.3800
EVENT_DEPTH_KM: 8.3
HYPOCENTER_REFERENCE: INGV-CNT_Seismic_Bulletin
MAGNITUDE_W: 6.3
MAGNITUDE_W_REFERENCE: RCMT-INGV
MAGNITUDE_L: 5.9
MAGNITUDE_L_REFERENCE: INGV-CNT_Seismic_Bulletin
FOCAL_MECHANISM: NF
NETWORK: IT
STATION_CODE: AQK
STATION_NAME: L'AQUILA - V. ATERNO - AQUIL PARK ING.
STATION_LATITUDE_DEGREE: 42.344967
STATION_LONGITUDE_DEGREE: 13.400949
STATION_ELEVATION_M: 726
LOCATION: 
SENSOR_DEPTH_M: 0.0
VS30_M/S: 705
SITE_CLASSIFICATION_EC8: B
MORPHOLOGIC_CLASSIFICATION: SL
EPICENTRAL_DISTANCE_KM: 1.8
EARTHQUAKE_BACKAZIMUTH_DEGREE: 259.2
DATE_TIME_FIRST_SAMPLE_YYYYMMDD_HHMMSS: 20090406_013212.000
DATE_TIME_FIRST_SAMPLE_PRECISION: seconds
SAMPLING_INTERVAL_S: 0.005000
NDATA: 105
DURATION_S: 
STREAM: HNN
UNITS: cm
INSTRUMENT: sensor = FBA-3 [Kinemetrics] | digitizer = Etna [Kinemetrics]
INSTRUMENT_ANALOG/DIGITAL: D
INSTRUMENTAL_FREQUENCY_HZ: 214.000
INSTRUMENTAL_DAMPING: 0.700000
FULL_SCALE_G: 1.0
N_BIT_DIGITAL_CONVERTER: 18
PGD_CM: 11.636455
TIME_PGD_S: 32.685000
BASELINE_CORRECTION: BASELINE REMOVED
FILTER_TYPE: BUTTERWORTH
FILTER_ORDER: 2
LOW_CUT_FREQUENCY_HZ: 0.100
HIGH_CUT_FREQUENCY_HZ: 40.000
LATE/NORMAL_TRIGGERED: NT
DATABASE_VERSION: DYNA 1.0
HEADER_FORMAT: DYNA 1.2
DATA_TYPE: DISPLACEMENT RESPONSE SPECTRUM
PROCESSING: manual (Paolucci et al., 2011)
DATA_TIMESTAMP_YYYYMMDD_HHMMSS: 
DATA_LICENSE: CC-BY3_0-IT (http://creativecommons.org/licenses/by/3.0/deed.en)
DATA_CITATION: ESM working group (2015), European Strong-Motion database, version 0.1, Network Activity 3: Networking acceleration networks and SM data users. Project NERA (www.nera-eu.org)
DATA_CREATOR: ESM working group
ORIGINAL_DATA_MEDIATOR_CITATION: data obtained within the DPC-INGV data exchange agreements
ORIGINAL_DATA_MEDIATOR: Archive of Italian Department of Civil Protection
ORIGINAL_DATA_CREATOR_CITATION: Italian Strong Motion Network, Italian Civil Protection Department http://www.protezionecivile.gov.it
ORIGINAL_DATA_CREATOR: network: IT (Italian Strong Motion Network); owner: Dipartimento Della Protezione Civile
USER1: 
USER2: 
USER3: 
USER4: 
USER5: 
    0.010000     0.000881
    0.020000     0.003817
    0.022000     0.005071
    0.025000     0.006305
    0.029000     0.009063
    0.030000     0.010349
    0.032000     0.013216
    0.035001     0.023135
    0.036000     0.024049
    0.040000     0.029117
    0.041999     0.039673
    0.044001     0.043719
    0.045000     0.044944
    0.046000     0.046882
    0.048001     0.052250
    0.050000     0.055338
    0.054999     0.057475
    0.059999     0.071665
    0.064998     0.073860
    0.067002     0.078466
    0.069999     0.082364
    0.075002     0.078629
    0.080000     0.109485
    0.084998     0.132674
    0.090001     0.133158
    0.095003     0.157166
    0.100000     0.173809
    0.109999     0.151084
    0.120005     0.230183
    0.130005     0.356680
    0.132996     0.394513
    0.139997     0.450670
    0.149993     0.461379
    0.160000     0.467187
    0.170010     0.440083
    0.179986     0.532647
    0.190006     0.614913
    0.200000     0.556797
    0.220022     0.700647
    0.239981     1.003752
    0.250000     1.086044
    0.260010     1.076690
    0.280034     1.225199
    0.290023     1.318874
    0.300030     1.413346
    0.320000     1.596094
    0.340020     1.735633
    0.350017     1.785462
    0.359971     1.833498
    0.379939     1.960705
    0.400000     2.314181
    0.419992     2.925771
    0.439947     2.819273
    0.450045     2.629113
    0.459982     2.684191
    0.480077     2.750079
    0.500000     2.768497
    0.550055     3.064653
    0.599880     4.295417
    0.650195     5.548800
    0.667111     6.105483
    0.699790     6.525889
    0.750188     6.448927
    0.800000     7.656261
    0.850340     8.387230
    0.900090     7.041306
    0.949668     7.766369
    1.000000     8.847538
    1.100110    11.044144
    1.200480    13.252441
    1.300390    15.239289
    1.400560    17.440634
    1.499250    19.609716
    1.600000    21.057463
    1.700680    21.703096
    1.798561    21.883581
    1.901141    22.333307
    2.000000    22.569048
    2.197802    22.114138
    2.398082    20.946512
    2.500000    20.255573
    2.597403    19.655020
    2.801121    19.222454
    3.003003    19.351482
    3.205128    19.382822
    3.401361    19.269922
    3.496503    19.162912
    3.597122    19.027149
    3.802281    18.686834
    4.000000    18.278511
    4.201681    17.825565
    4.405286    17.345680
    4.608295    16.851841
    4.807692    16.355021
    5.000000    15.860610
    5.494505    14.667373
    5.988024    13.568346
    6.493506    12.577800
    6.993007    11.698872
    7.518797    11.613184
    8.000000    11.836021
    8.474576    12.014720
    9.009009    12.151950
    9.523809    12.256219
   10.000000    12.330998
