EVENT_NAME: CENTRAL_ITALY
EVENT_ID: EMSC-20161030_0000029
EVENT_DATE_YYYYMMDD: 20161030
EVENT_TIME_HHMMSS: 064018
EVENT_LATITUDE_DEGREE: 42.8400
EVENT_LONGITUDE_DEGREE: 13.1100
EVENT_DEPTH_KM: 9.4
HYPOCENTER_REFERENCE: INGV-webservice
MAGNITUDE_W: 6.5
MAGNITUDE_W_REFERENCE: INGV-webservice
MAGNITUDE_L: 6.1
MAGNITUDE_L_REFERENCE: INGV-webservice
FOCAL_MECHANISM: NF
NETWORK: IT
STATION_CODE: ACC
STATION_NAME: Accumoli
STATION_LATITUDE_DEGREE: 42.695999
STATION_LONGITUDE_DEGREE: 13.242000
STATION_ELEVATION_M: 922
LOCATION: 
SENSOR_DEPTH_M: 
VS30_M/S: 
SITE_CLASSIFICATION_EC8: A*
MORPHOLOGIC_CLASSIFICATION: 
EPICENTRAL_DISTANCE_KM: 19.3
EARTHQUAKE_BACKAZIMUTH_DEGREE: 326.0
DATE_TIME_FIRST_SAMPLE_YYYYMMDD_HHMMSS: 20161030_064005.559
DATE_TIME_FIRST_SAMPLE_PRECISION: milliseconds
SAMPLING_INTERVAL_S: 0.005000
NDATA: 12000
DURATION_S: 60.000
STREAM: HGZ
UNITS: cm/s^2
INSTRUMENT: sensor = Unknown [Unknown] | digitizer = Unknown [Unknown]
INSTRUMENT_ANALOG/DIGITAL: D
INSTRUMENTAL_FREQUENCY_HZ: 
INSTRUMENTAL_DAMPING: 
FULL_SCALE_G: 
N_BIT_DIGITAL_CONVERTER: 
PGA_CM/S^2: -546.897296
TIME_PGA_S: 22.865000
BASELINE_CORRECTION: BASELINE REMOVED
FILTER_TYPE: BUTTERWORTH
FILTER_ORDER: 2
LOW_CUT_FREQUENCY_HZ: 0.060
HIGH_CUT_FREQUENCY_HZ: 30.000
LATE/NORMAL_TRIGGERED: NT
DATABASE_VERSION: DYNA 1.0
HEADER_FORMAT: DYNA 1.2
DATA_TYPE: ACCELERATION
PROCESSING: manual (Paolucci et al., 2011)
DATA_TIMESTAMP_YYYYMMDD_HHMMSS: 20161101_122856.566
DATA_LICENSE: CC-BY3_0-IT (http://creativecommons.org/licenses/by/3.0/deed.en)
DATA_CITATION: ESM working group (2015), European Strong-Motion database, version 0.1, Network Activity 3: Networking acceleration networks and SM data users. Project NERA (www.nera-eu.org)
DATA_CREATOR: ESM working group
ORIGINAL_DATA_MEDIATOR_CITATION: Ufficio Rischio Sismico e Vulcanico del Dipartimento della Protezione Civile (http://www.protezionecivile.gov.it/)
ORIGINAL_DATA_MEDIATOR: Rete Accelerometrica Nazionale - RAN Download (http://www.mot1.it/randownload/)
ORIGINAL_DATA_CREATOR_CITATION: Italian Strong Motion Network, Italian Civil Protection Department http://www.protezionecivile.gov.it
ORIGINAL_DATA_CREATOR: network: IT (Italian Strong Motion Network); owner: Dipartimento Della Protezione Civile
USER1: /home/dyna/processing-itaca/processing.py /var/www/processing//tmp/Lucia//IT.ACC..HGE.D.20161030.064018.X.ACC.ASC /var/www/processing//tmp/Lucia//IT.ACC..HGN.D.20161030.064018.X.ACC.ASC /var/www/processing//tmp/Lucia//IT.ACC..HGZ.D.20161030.064018.X.ACC.ASC --tmp /var/www/processing//tmp/Lucia/ --le 0.060 --he 30.000 --ln 0.060 --hn 30.000 --lz 0.060 --hz 30.000 --fo 2 --ca -10 --cz 130 --ta 5 --tz 5 --mf 1 --rf 0 --tr NT
USER2: 
USER3: 
USER4: 
USER5: 
[...]
10.517125
10.830132
8.607574
4.994445
0.882339
-3.252451
-6.938437
-9.334767
-9.462387
-6.967677
-2.770670
1.153535
2.986278
2.377354
0.686212
-0.097264
1.120910
3.697811
5.668854
5.182914
1.999035
-2.168877
-4.910909
-4.981858
-3.147735
-1.418242
-1.446665
-3.278224
-5.282439
-5.420240
-2.944261
0.967860
4.276364
5.801431
5.979277
6.102969
6.877743
7.583359
6.560644
2.558303
-4.236091
-12.152309
-18.738298
-21.678375
-19.605974
-12.607831
-2.234384
8.931333
17.898792
22.091640
20.379902
13.699911
4.559050
-4.228180
-10.517989
-13.117249
-11.782501
-7.247182
-1.140739
4.438811
7.744041
8.200047
6.584623
4.373325
2.775811
2.115690
1.764384
0.619121
-1.872724
-4.699207
-5.481965
-2.295307
4.330237
11.210410
14.490753
12.198098
5.375234
-2.852985
-9.305132
-12.380093
-12.527418
-11.565486
-11.255114
-11.916207
-12.081492
-9.646348
-3.737134
4.334243
11.863605
16.382334
16.680513
12.879246
6.175652
-1.377231
-7.339882
-9.780873
-8.125492
-3.309661
2.793277
8.143764
11.193638
11.499411
10.078117
8.905728
9.543840
11.956058
14.575650
15.449871
13.368342
8.295894
1.306455
-5.682563
-10.496931
-11.697093
-9.464064
-5.575301
-2.306831
-1.064654
-1.792467
-3.532287
-5.471696
-7.396610
-9.245773
-10.468382
-9.997205
-6.974140
-1.586486
4.771740
10.154046
13.054898
13.168572
11.467453
9.460751
8.108973
7.270122
6.101385
3.919866
0.658185
-3.359576
-7.750226
-11.923913
-14.765338
-15.018455
-12.394602
-8.138075
-4.169208
-1.646132
-0.361904
0.695760
2.325912
4.415315
5.929412
5.603614
2.999928
-0.866683
-4.094109
-5.367184
-4.971767
-4.341260
-4.708999
-6.286898
-8.478809
-10.377324
-10.912005
-8.992020
-4.059662
3.390846
11.998817
20.263567
26.972179
30.928057
30.683601
25.148655
14.659696
1.289133
-11.954959
-22.316948
-28.056257
-28.558994
-24.235872
-16.534662
-7.719702
-0.187426
4.312221
5.201644
3.224601
0.174609
-1.661259
-0.260328
5.121666
13.066080
20.152945
22.655813
18.927771
10.645987
1.730111
-4.227730
-5.872217
-4.055129
-0.606825
2.601330
4.027880
2.900752
-0.389328
-4.552253
-8.082651
-9.668759
-8.371283
-4.061999
2.055325
7.672758
10.646959
10.415831
8.404180
7.176329
9.043645
14.941345
23.873056
32.979897
38.427567
37.075417
28.140070
13.654628
-2.581449
-16.532455
-25.061424
-26.716938
-21.924816
-11.977769
2.386047
20.900660
41.880089
60.655277
70.683792
67.255157
50.669064
25.744526
-1.515969
-26.531197
-46.612354
-60.685455
-68.932709
-71.839394
-69.267517
-60.874279
-47.408512
-30.814524
-12.629552
7.057722
28.360828
49.506142
66.398750
74.462303
71.281364
58.020546
38.735184
18.498375
1.843358
-8.083265
-10.248079
-6.461321
-1.071512
0.970669
-3.681016
-15.828222
-33.947144
-54.672256
-73.104851
-83.502022
-81.087402
-64.209679
-35.304386
-0.266832
33.389690
58.959846
72.441338
73.136574
63.058353
45.666203
24.531481
2.608299
-17.517216
-33.331848
-43.117912
-46.774776
-45.522591
-41.118992
-35.368134
-29.720001
-25.004114
-21.491360
-18.979195
-16.386051
-10.870285
1.893576
24.707083
55.027798
84.247337
101.380089
98.946640
77.374626
45.017399
13.785375
-6.671391
-12.832731
-7.495308
2.886405
11.339875
12.718558
5.097154
-10.217722
-29.872234
-49.639847
-64.861084
-70.509552
-61.962173
-37.119202
1.138358
44.053692
79.050621
94.576317
85.185486
53.317383
6.674389
-45.509003
-93.295433
-124.995834
-129.211243
-101.552582
-50.280415
6.829858
53.541260
82.829353
93.992699
86.927147
62.916466
28.853998
-2.963610
-20.478180
-17.957394
1.759491
29.550108
54.607388
68.174339
65.523163
47.647011
22.526743
3.028269
-0.230141
13.110401
31.908285
41.104733
31.653164
5.299953
-28.150640
-57.849556
-77.146896
-84.046509
-79.460114
-66.540466
-50.641247
-37.871819
-32.154503
-33.060181
-36.735630
-38.961174
-37.275032
-31.189793
-21.431988
-9.025840
5.298322
21.085382
37.228539
50.866997
58.052528
56.028999
44.459454
24.994398
1.153734
-21.473400
-37.085255
-43.552616
-44.279762
-44.723572
-46.385860
-45.451805
-38.205311
-26.502747
-17.002520
-15.968410
-25.087294
-40.343197
-53.148026
-53.826294
-36.862457
-4.354929
34.957413
69.344223
87.682816
83.273155
57.910538
22.733557
-6.558612
-17.668589
-8.168059
13.537630
33.821980
41.790489
33.554108
11.963214
-14.880243
-35.107277
-36.364491
-11.417344
37.084667
95.983559
145.160583
164.340897
142.339310
83.848686
7.172410
-64.625725
-110.955711
-119.082916
-90.058388
-40.112221
7.032302
32.988235
33.549149
16.902206
-5.561261
-26.267488
-42.207958
-52.865665
-58.891380
-61.424561
-60.847153
-55.492081
-42.223721
-19.394022
10.660319
42.131905
67.755791
80.345573
74.766418
50.923897
15.299097
-21.615273
-50.804901
-69.158241
-79.820610
-87.928108
-94.928841
-97.335571
-91.084290
-76.279449
-57.777245
-41.132874
-27.617510
-13.546300
6.301653
35.291119
72.583412
111.973633
143.241150
155.567963
142.112061
104.237198
51.707184
-1.726392
-43.400787
-65.428490
-67.271309
-56.085953
-43.355156
-38.553783
-43.765995
-53.469772
-58.539970
-50.351562
-24.006439
18.957111
70.310013
118.176613
150.790741
159.248901
140.200470
97.504150
39.945393
-23.561712
-85.956467
-139.358749
-172.027695
-171.049057
-131.262695
-62.829552
11.239931
68.116364
97.351646
100.876083
85.143494
56.318176
20.710222
-12.953371
-32.831875
-27.325640
7.801353
63.659389
120.482903
157.530365
162.489700
134.281952
81.092911
17.138414
-42.337826
-87.124886
-114.845009
-128.977249
-134.767075
-135.787628
-132.590164
-123.351334
-105.596985
-78.284508
-43.254551
-5.147459
29.868439
55.414799
65.962784
58.630222
35.835957
5.560143
-23.416645
-47.239361
-67.507591
-86.216133
-99.892883
-98.870392
-74.057068
-26.228790
30.952906
78.077370
100.369797
92.551270
59.091492
12.680503
-28.964846
-47.840019
-33.360451
11.389988
71.606262
127.696304
161.861755
163.930679
135.121094
86.670364
34.232365
-7.656648
-29.887808
-32.745209
-27.025797
-29.301476
-52.912449
-99.160622
-153.029083
-188.023514
-181.528717
-130.887680
-54.822132
20.795605
76.863213
104.081764
100.809174
73.052528
34.017456
-1.407413
-23.390402
-28.448040
-17.174582
5.785685
30.135847
41.304443
26.629522
-16.487339
-76.383064
-130.505875
-154.439072
-132.579636
-65.771530
29.551788
129.538467
209.331940
247.506165
235.829819
186.006531
122.005142
65.937897
28.618010
7.339212
-9.097606
-30.947247
-59.394302
-85.322563
-96.916710
-90.500404
-74.313568
-60.229656
-52.618576
-48.657330
-46.412212
-46.029388
-45.432091
-40.951160
-31.563457
-18.914007
-3.217901
18.169268
46.374443
75.080704
90.978523
83.182274
52.825863
12.866219
-20.591700
-37.907707
-40.589638
-37.906467
-38.397968
-43.262169
-45.064667
-32.107647
3.021037
57.437374
119.044632
169.913483
190.474564
167.840622
103.620979
14.239659
-76.931923
-150.045547
-193.489777
-201.820740
-173.959381
-115.932053
-44.814583
15.595100
49.947479
60.050983
55.616108
43.556522
29.036127
18.848305
18.714855
29.396324
46.872166
64.483078
74.921303
72.753181
56.323177
27.051891
-12.649211
-59.335369
-105.968994
-141.501907
-156.344666
-149.833954
-130.544144
-105.849564
-71.799103
-19.093136
49.466503
112.783714
145.063461
133.685806
84.549225
14.667986
-57.020798
-113.923424
-144.433167
-146.751724
-131.998383
-119.616669
-124.895729
-146.933060
-168.202316
-167.424698
-136.202850
-85.842796
-36.701691
-1.170922
20.984026
34.995529
45.122967
54.487816
63.241703
64.556046
48.337845
12.702932
-30.811962
-64.983986
-78.847771
-73.548759
-59.143341
-45.695011
-36.001938
-25.474159
-7.759513
19.346436
50.998123
75.774857
80.053902
55.786274
6.877770
-51.532932
-100.143555
-122.763077
-110.423340
-63.925735
4.069068
71.382652
118.052322
139.836731
145.923264
143.925842
133.987061
113.602234
81.496681
41.317848
5.340418
-8.366804
13.803087
69.743019
139.319046
196.803711
226.459686
222.925186
183.657593
111.564316
20.515066
-67.253532
-127.459869
-142.418015
-109.617699
-41.625473
41.636410
119.556496
175.112885
199.511963
193.607910
162.158066
107.512802
31.510414
-58.578499
-149.551819
-225.454056
-268.443390
-261.684570
-199.346451
-97.008026
11.696431
94.616348
134.797913
130.741150
98.042282
63.041725
44.903481
49.330406
73.765900
110.274223
147.167099
172.610580
179.943771
171.317474
154.894791
136.455902
113.145905
76.276245
19.665770
-54.990978
-137.435135
-211.051163
-257.652588
-263.141327
-221.678497
-137.736023
-26.788006
85.638527
169.665588
202.954773
181.161667
115.249596
20.192442
-87.966461
-188.818054
-261.391266
-291.660065
-276.090363
-222.139740
-146.011703
-66.875275
-1.992620
33.979977
32.001888
-4.321562
-59.029209
-114.320099
-159.426941
-190.886475
-208.460373
-211.764572
-199.241119
-169.586700
-124.354980
-69.654701
-15.698501
25.505920
43.542152
33.836369
1.572246
-38.121719
-65.947205
-67.574417
-40.374180
6.815602
60.056950
106.624809
137.563858
149.094879
144.590271
134.642075
132.830353
147.298248
173.555939
196.575516
202.080368
186.978592
158.574463
125.593925
93.624741
65.670868
42.889908
25.932932
13.513555
-0.255925
-22.684250
-56.474915
-97.487686
-136.591629
-162.406754
-165.448685
-144.936569
-110.657135
-74.710876
-42.501431
-12.819941
16.131651
42.928574
63.371750
72.988686
69.459953
53.095341
25.466440
-11.040573
-51.612671
-88.332489
-113.070839
-121.222420
-111.398438
-82.424530
-34.529285
24.468861
76.558563
100.889618
86.209290
37.404163
-30.498186
-105.653465
-184.239075
-260.737640
-318.487854
-335.322998
-299.836182
-219.778656
-114.157463
-1.394344
103.950592
190.898453
254.902130
293.738251
299.230591
264.496948
195.644135
107.469315
14.006270
-73.917572
-149.580093
-211.187851
-256.013336
-273.020874
-247.814133
-176.496780
-71.464386
46.365852
157.943497
246.404144
292.325012
279.217529
205.381332
87.916389
-42.677689
-158.773941
-255.720901
-346.033813
-431.098236
-492.643616
-507.795288
-462.375092
-356.227783
-203.700882
-27.771015
148.156616
296.955322
383.945831
384.774963
305.950195
182.797241
59.923744
-32.343643
-90.007294
-125.192451
-145.631561
-147.800674
-128.733231
-96.629547
-66.112312
-48.355064
-46.665794
-54.466164
-57.903820
-46.006817
-17.416380
22.306049
64.356888
97.047165
108.538086
94.024055
59.900837
19.877836
-11.863688
-25.499727
-19.126797
0.627787
24.371922
48.152718
76.040588
114.667709
163.626053
209.536636
231.444809
214.716354
161.096924
86.206802
7.722668
-61.627251
-110.945839
-129.642288
-112.690308
-65.762421
-4.310695
54.732803
101.191971
131.009583
141.149582
128.597488
92.319427
34.434647
-38.754955
-115.307648
-177.131592
-203.655807
-182.746872
-122.612183
-49.157085
13.876097
58.970650
87.554092
99.880211
97.013641
83.309280
63.749828
42.967876
25.519257
13.915212
6.532351
-2.069892
-18.776241
-47.369808
-82.793739
-109.550560
-108.078110
-65.907448
13.510909
112.419235
208.984222
280.301910
301.497223
259.945709
170.753922
69.392746
-8.601191
-40.033039
-15.973282
55.971237
149.075272
230.300629
280.032074
291.872650
264.534332
206.282425
135.206024
68.652481
16.367107
-21.881006
-56.186356
-99.621811
-158.015182
-224.317734
-279.257507
-296.967163
-255.430649
-148.064148
10.671868
189.065125
347.339111
447.138855
463.464447
398.058228
280.828796
150.297668
28.513134
-79.935524
-167.917191
-219.879852
-225.310150
-189.511932
-131.983978
-74.359993
-28.101719
7.119736
35.819313
59.493275
75.303375
78.467644
65.168159
34.876736
-8.516688
-57.766125
-105.394814
-145.851669
-174.845596
-187.959885
-180.670059
-149.699295
-95.341797
-24.085056
50.463512
110.939339
143.832718
145.016434
118.176392
71.040642
13.711351
-44.397598
-98.718903
-149.187180
-193.975113
-221.257935
-208.256699
-135.867447
-9.660743
142.429260
293.801697
417.464233
473.925354
440.583954
340.219727
214.357208
84.034500
-45.606945
-158.603104
-229.924637
-247.922852
-223.772964
-184.564896
-159.218735
-162.829544
-186.272278
-202.706619
-189.834930
-146.078506
-85.926666
-21.546253
39.255253
75.386574
63.240852
6.559509
-73.588722
-165.412903
-257.628357
-321.861298
-327.163452
-267.629059
-169.339310
-72.566544
-7.357710
15.280907
-2.908970
-51.235477
-110.326057
-158.363754
-179.270187
-165.509201
-118.418640
-48.583260
27.864296
98.271751
159.758636
215.544876
265.640228
301.418152
308.840637
278.325348
212.480133
122.612846
17.183647
-103.710709
-239.540054
-376.617126
-487.935974
-546.897278
-543.465698
-487.701050
-395.941315
-277.388824
-137.587433
10.011026
141.183456
229.534409
258.970703
231.006454
162.175888
75.307304
-8.711763
-74.517479
-111.195938
-110.969963
-71.014328
3.399815
99.149826
198.851471
282.523804
329.098633
323.143433
262.126343
157.201691
27.830847
-105.171494
-224.391617
-318.006927
-379.272980
-404.662140
-394.570251
-354.695770
-292.689423
-212.703415
-115.375038
-3.684527
114.029190
227.169647
322.806946
384.586517
401.810516
377.844574
326.038574
262.203003
199.709869
145.912247
102.049950
67.032158
40.234016
20.696098
6.595864
-2.599608
-4.649114
4.149622
26.303423
59.889854
97.898048
132.209427
154.020050
151.585388
118.250412
62.083069
0.408965
-52.508842
-89.890984
-108.646255
-105.334160
-77.552017
-28.531382
31.158766
86.767464
124.208359
133.612228
111.319710
61.308704
-4.140690
-66.846214
-108.157173
-114.189644
-80.371841
-14.928934
64.659729
142.425568
208.529129
254.342270
272.725250
264.623932
238.839584
205.490677
171.709900
140.995544
113.938637
89.524910
67.161011
48.258823
35.676861
31.399490
35.044456
44.523724
56.851730
67.687592
71.663269
64.513329
44.375652
11.574362
-30.797405
-76.773956
-119.669510
-153.118500
-172.306854
-178.332993
-177.230286
-171.923553
-159.293655
-134.079544
-92.601501
-35.450840
30.760622
95.981102
153.883591
204.669998
247.668274
275.442749
279.450958
257.510925
213.036438
151.016464
78.344048
6.526195
-49.584805
-77.086609
-70.136299
-32.863426
20.992743
70.941185
94.813705
79.523315
31.588131
-26.476662
-71.579720
-92.279594
-90.963097
-76.804604
-56.154945
-30.621983
-2.415642
22.931419
41.128422
52.294529
53.858524
37.005447
-1.365992
-50.460464
-97.151772
-138.918762
-176.833054
-202.835480
-203.342575
-170.801941
-108.308815
-27.185820
57.785378
130.933853
175.975815
180.468033
144.774902
83.801033
17.849104
-36.070229
-66.636185
-69.183182
-47.742317
-13.426116
22.442261
53.565529
77.711945
92.972176
96.304764
85.471001
61.442749
28.266855
-8.784793
-44.107277
-71.932648
-87.155815
-86.051888
-66.102913
-26.232182
31.675873
101.806900
175.858765
244.964005
299.419128
329.659027
331.174438
306.661224
262.535919
206.231186
145.602509
87.158157
34.433346
-10.727035
-46.024757
-69.845551
-84.578400
-96.793983
-112.396317
-131.750641
-150.410294
-164.163818
-173.071442
-180.856781
-191.205917
-205.947159
-225.557861
-248.976730
-272.636841
-290.179382
-293.527222
-275.486908
-232.648392
-166.628906
-83.520126
8.332547
101.522034
188.740738
258.381989
297.092896
298.896729
267.939575
213.715012
147.741959
82.946465
30.807358
-4.835710
-30.001219
-52.418522
-72.770042
-86.718292
-91.083809
-85.497131
-70.890022
-48.081112
-17.938368
17.803600
56.008427
91.410980
116.491554
123.150414
105.989288
65.011581
5.383316
-65.422081
-140.299332
-212.509171
-274.617004
-319.283539
-341.148376
-337.674286
-308.368011
-254.283035
-179.318558
-91.382607
-1.666204
77.456253
134.680374
162.051819
157.747528
127.517792
82.403801
33.410019
-12.848306
-54.172115
-90.469116
-122.482689
-150.918930
-174.729462
-190.298386
-193.007248
-179.874817
-151.271042
-110.595497
-62.471619
-11.573300
36.967026
77.782288
107.400330
125.019341
130.864670
125.838776
112.872894
97.024017
83.756287
77.102768
79.301918
91.047173
110.660904
133.790207
155.179062
170.639267
177.512970
174.048508
159.237289
133.877075
101.262703
66.170723
33.243984
6.219302
-12.187071
-20.683899
-19.589901
-9.371381
11.229715
43.766254
85.955978
130.742188
169.941711
197.231659
207.898911
198.446213
168.421387
122.527672
69.613968
18.124638
-27.894257
-68.078667
-101.951927
-127.818855
-144.695206
-151.706177
-145.556107
-122.099579
-81.847420
-33.484299
10.482685
45.680454
79.005630
113.212784
138.017944
142.744400
127.310326
98.665649
63.989895
28.615267
-2.927791
-26.455580
-39.376087
-42.091396
-37.027477
-26.349958
-11.519484
5.854970
23.180801
36.794510
42.989849
39.112373
24.289627
-0.157999
-30.256287
-59.033474
-77.953384
-80.594887
-66.719666
-42.269485
-13.559844
16.784235
46.547993
70.308502
82.235245
80.754982
68.844559
51.211185
32.238350
15.391237
2.968311
-4.172579
-5.985358
-1.784692
9.253801
25.417221
41.947346
53.550358
55.933735
45.980400
23.407001
-7.319091
-38.363522
-62.799225
-77.811951
-84.238388
-83.636528
-75.743385
-58.361141
-30.159822
5.932895
42.460693
70.797455
84.961761
83.165703
67.485809
43.343155
18.964432
3.626623
4.063469
20.633713
46.368980
70.317909
82.920700
79.885437
63.304680
39.981670
17.191385
-1.278535
-15.021934
-23.716360
-26.201263
-23.766090
-21.893551
-25.811462
-33.967838
-38.708057
-35.378365
-28.052845
-24.495670
-27.780577
-33.912685
-36.620846
-33.592697
-27.467800
-21.185802
-13.633206
-0.890326
18.083277
38.627975
54.191750
61.143028
59.379375
50.381241
35.559738
15.698122
-8.405118
-34.659260
-59.472969
-79.234489
-91.966827
-97.769730
-97.802284
-92.894890
-83.071693
-68.032066
-48.504795
-27.617279
-10.310872
-0.752182
-0.261125
-7.091799
-16.877211
-23.788544
-23.721752
-17.221058
-8.131059
-0.073009
4.403782
3.319977
-4.357097
-18.683161
-38.030605
-57.588650
-70.804367
-73.321907
-65.018204
-49.098965
-29.851307
-10.810551
5.291211
15.717333
17.990231
11.204212
-3.191744
-22.206976
-42.519226
