EVENT_NAME: CENTRAL_ITALY
EVENT_ID: EMSC-20161026_0000077
EVENT_DATE_YYYYMMDD: 20161026
EVENT_TIME_HHMMSS: 171036
EVENT_LATITUDE_DEGREE: 42.8802
EVENT_LONGITUDE_DEGREE: 13.1275
EVENT_DEPTH_KM: 8.7
HYPOCENTER_REFERENCE: INGV-CNT_Seismic_Bulletin
MAGNITUDE_W: 5.4
MAGNITUDE_W_REFERENCE: INGV-webservice
MAGNITUDE_L: 5.4
MAGNITUDE_L_REFERENCE: INGV-CNT_Seismic_Bulletin
FOCAL_MECHANISM: NF
NETWORK: IT
STATION_CODE: ACC
STATION_NAME: Accumoli
STATION_LATITUDE_DEGREE: 42.695999
STATION_LONGITUDE_DEGREE: 13.242000
STATION_ELEVATION_M: 922
LOCATION: 
SENSOR_DEPTH_M: 
VS30_M/S: 
SITE_CLASSIFICATION_EC8: A*
MORPHOLOGIC_CLASSIFICATION: 
EPICENTRAL_DISTANCE_KM: 22.5
EARTHQUAKE_BACKAZIMUTH_DEGREE: 335.4
DATE_TIME_FIRST_SAMPLE_YYYYMMDD_HHMMSS: 20161026_171034.835
DATE_TIME_FIRST_SAMPLE_PRECISION: milliseconds
SAMPLING_INTERVAL_S: 0.005000
NDATA: 7433
DURATION_S: 37.165
STREAM: HGN
UNITS: cm/s^2
INSTRUMENT: sensor = Unknown [Unknown] | digitizer = Unknown [Unknown]
INSTRUMENT_ANALOG/DIGITAL: D
INSTRUMENTAL_FREQUENCY_HZ: 
INSTRUMENTAL_DAMPING: 
FULL_SCALE_G: 
N_BIT_DIGITAL_CONVERTER: 
PGA_CM/S^2: 52.897238
TIME_PGA_S: 11.700000
BASELINE_CORRECTION: BASELINE REMOVED
FILTER_TYPE: BUTTERWORTH
FILTER_ORDER: 2
LOW_CUT_FREQUENCY_HZ: 0.100
HIGH_CUT_FREQUENCY_HZ: 30.000
LATE/NORMAL_TRIGGERED: NT
DATABASE_VERSION: DYNA 1.0
HEADER_FORMAT: DYNA 1.2
DATA_TYPE: ACCELERATION
PROCESSING: manual (Paolucci et al., 2011)
DATA_TIMESTAMP_YYYYMMDD_HHMMSS: 20161027_131047.653
DATA_LICENSE: CC-BY3_0-IT (http://creativecommons.org/licenses/by/3.0/deed.en)
DATA_CITATION: ESM working group (2015), European Strong-Motion database, version 0.1, Network Activity 3: Networking acceleration networks and SM data users. Project NERA (www.nera-eu.org)
DATA_CREATOR: ESM working group
ORIGINAL_DATA_MEDIATOR_CITATION: Ufficio Rischio Sismico e Vulcanico del Dipartimento della Protezione Civile (http://www.protezionecivile.gov.it/)
ORIGINAL_DATA_MEDIATOR: Rete Accelerometrica Nazionale - RAN Download (http://www.mot1.it/randownload/)
ORIGINAL_DATA_CREATOR_CITATION: Italian Strong Motion Network, Italian Civil Protection Department http://www.protezionecivile.gov.it
ORIGINAL_DATA_CREATOR: network: IT (Italian Strong Motion Network); owner: Dipartimento Della Protezione Civile
USER1: /home/dyna/processing-itaca/processing.py /var/www/processing//tmp/felicetta//IT.ACC..HGE.D.20161026.171036.X.ACC.ASC /var/www/processing//tmp/felicetta//IT.ACC..HGN.D.20161026.171036.X.ACC.ASC /var/www/processing//tmp/felicetta//IT.ACC..HGZ.D.20161026.171036.X.ACC.ASC --tmp /var/www/processing//tmp/felicetta/ --le 0.100 --he 30.000 --ln 0.100 --hn 30.000 --lz 0.100 --hz 30.000 --fo 2 --ca 0 --cz 40 --ta 5 --tz 5 --mf 1 --rf 0 --tr NT
USER2: 
USER3: 
USER4: 
USER5: 
[...]
-0.002082
-0.003096
-0.002782
-0.001792
-0.001304
-0.001353
-0.001548
-0.002023
-0.002820
-0.003369
-0.002930
-0.001840
-0.001485
-0.002314
-0.003494
-0.004234
-0.003912
-0.002213
-0.000106
0.000937
0.000861
0.000630
0.000366
-0.000252
-0.000743
-0.000586
-0.000269
-0.000743
-0.001846
-0.002278
-0.001659
-0.001000
-0.001203
-0.002211
-0.003361
-0.004193
-0.004324
-0.003370
-0.002032
-0.001473
-0.001635
-0.001694
-0.001343
-0.001090
-0.001456
-0.002086
-0.002487
-0.002902
-0.003298
-0.002809
-0.001100
0.000632
0.000851
-0.000166
-0.000685
-0.000062
0.000657
0.000450
-0.000367
-0.000908
-0.001109
-0.001409
-0.001824
-0.002044
-0.002046
-0.002056
-0.001949
-0.001617
-0.001360
-0.001184
-0.000951
-0.000852
-0.000909
-0.000976
-0.000968
-0.001035
-0.001639
-0.002501
-0.002765
-0.002435
-0.002002
-0.001749
-0.001901
-0.002310
-0.002442
-0.002059
-0.001392
-0.000857
-0.000668
-0.000610
-0.000697
-0.001239
-0.001798
-0.001664
-0.001030
-0.000634
-0.000917
-0.001639
-0.002222
-0.002621
-0.003149
-0.003673
-0.003881
-0.003989
-0.004450
-0.005144
-0.005449
-0.004886
-0.003297
-0.001189
-0.000005
-0.000709
-0.002385
-0.003370
-0.003295
-0.003087
-0.003276
-0.003255
-0.002492
-0.001649
-0.001544
-0.002012
-0.002734
-0.003539
-0.003653
-0.002555
-0.001243
-0.001177
-0.002343
-0.003287
-0.002996
-0.002021
-0.001575
-0.002241
-0.003566
-0.004754
-0.005456
-0.005545
-0.004991
-0.004143
-0.003379
-0.002702
-0.002177
-0.002221
-0.002806
-0.003146
-0.003014
-0.002997
-0.003346
-0.003954
-0.004583
-0.004883
-0.004513
-0.003243
-0.001815
-0.001479
-0.002046
-0.002369
-0.002229
-0.002143
-0.002300
-0.002482
-0.002664
-0.003417
-0.004655
-0.004802
-0.002988
-0.000830
-0.000326
-0.001494
-0.003325
-0.005200
-0.006629
-0.007073
-0.006608
-0.005943
-0.005361
-0.004633
-0.003968
-0.004077
-0.004858
-0.005218
-0.005034
-0.004943
-0.004841
-0.004698
-0.004892
-0.005744
-0.007018
-0.007596
-0.007048
-0.006214
-0.005756
-0.005654
-0.006049
-0.007214
-0.008452
-0.008568
-0.006975
-0.004008
-0.000941
0.001000
0.001259
-0.000148
-0.002292
-0.003766
-0.003783
-0.002185
0.001298
0.006917
0.013408
0.016838
0.012663
-0.000387
-0.019495
-0.039577
-0.054892
-0.060657
-0.054308
-0.036361
-0.010754
0.016894
0.041887
0.061719
0.075610
0.082858
0.081196
0.066417
0.035462
-0.009418
-0.060543
-0.106459
-0.133329
-0.129090
-0.090018
-0.025099
0.045573
0.098443
0.116396
0.095184
0.044008
-0.018140
-0.069097
-0.091363
-0.078647
-0.038617
0.010170
0.046469
0.055879
0.036803
0.000017
-0.036997
-0.058216
-0.056133
-0.033197
0.001705
0.037185
0.062878
0.072282
0.064317
0.044117
0.020881
0.002800
-0.006569
-0.009246
-0.012287
-0.025000
-0.053272
-0.094913
-0.140905
-0.180431
-0.205017
-0.210263
-0.195004
-0.160475
-0.110180
-0.047814
0.024424
0.104021
0.185666
0.261300
0.321911
0.358881
0.366337
0.343328
0.290619
0.207380
0.094117
-0.043790
-0.196539
-0.351490
-0.491083
-0.589247
-0.615836
-0.550691
-0.396927
-0.182873
0.047794
0.250345
0.391835
0.458308
0.454149
0.397022
0.312597
0.228501
0.164974
0.126311
0.102336
0.078918
0.045680
-0.004138
-0.075767
-0.172933
-0.297037
-0.444750
-0.602835
-0.745284
-0.839004
-0.854211
-0.769308
-0.571175
-0.263909
0.115810
0.499222
0.808956
0.985792
1.000567
0.851779
0.560787
0.170818
-0.254943
-0.642170
-0.919359
-1.030562
-0.946617
-0.676231
-0.270035
0.186191
0.580438
0.785371
0.687964
0.240117
-0.498955
-1.363175
-2.127487
-2.574320
-2.545679
-1.976445
-0.917570
0.469111
1.953423
3.281929
4.208323
4.534893
4.168767
3.152880
1.649046
-0.101043
-1.814936
-3.221847
-4.123248
-4.422230
-4.119913
-3.314866
-2.194716
-0.985361
0.116762
0.985515
1.579336
1.935929
2.137880
2.258390
2.317059
2.266349
2.023021
1.541855
0.876713
0.166945
-0.438937
-0.859188
-1.112444
-1.298744
-1.536897
-1.886473
-2.292988
-2.594947
-2.606910
-2.232834
-1.528178
-0.667320
0.155787
0.816110
1.271911
1.525549
1.595236
1.508421
1.293348
0.977544
0.603837
0.240948
-0.030490
-0.147356
-0.091312
0.095940
0.309280
0.393506
0.190887
-0.383286
-1.276516
-2.277499
-3.056677
-3.283883
-2.786382
-1.648114
-0.173986
1.257063
2.345985
2.939264
3.000871
2.561570
1.703092
0.575569
-0.586361
-1.486977
-1.857643
-1.584517
-0.785448
0.232504
1.102925
1.535088
1.400624
0.755792
-0.204439
-1.233357
-2.098089
-2.606020
-2.631092
-2.153070
-1.278941
-0.225112
0.730630
1.339223
1.511600
1.378171
1.187048
1.138960
1.290667
1.552135
1.764502
1.809781
1.648613
1.256657
0.579594
-0.380786
-1.439030
-2.249788
-2.491320
-2.038132
-1.020529
0.220224
1.265987
1.808629
1.780810
1.329739
0.674467
-0.006575
-0.585207
-0.949731
-1.004880
-0.704012
-0.061301
0.852792
1.875566
2.713200
3.010253
2.508735
1.165545
-0.815656
-3.001049
-4.817328
-5.752825
-5.575305
-4.401331
-2.578964
-0.531323
1.328322
2.670585
3.324483
3.265933
2.562957
1.381162
0.006856
-1.210273
-1.992597
-2.259815
-2.152692
-1.928559
-1.783671
-1.723730
-1.598045
-1.261535
-0.694229
0.017444
0.788082
1.616043
2.532074
3.429301
3.982423
3.823606
2.829094
1.234915
-0.468360
-1.735159
-2.185145
-1.766772
-0.749261
0.455059
1.505563
2.235676
2.580966
2.456229
1.777408
0.619329
-0.707800
-1.776706
-2.224141
-1.864505
-0.769766
0.703189
2.061923
2.943480
3.248799
3.054801
2.458516
1.530600
0.395991
-0.693482
-1.434992
-1.676690
-1.553654
-1.401637
-1.500426
-1.851358
-2.185103
-2.210118
-1.856693
-1.279109
-0.682559
-0.204576
0.078393
0.117525
-0.118185
-0.669254
-1.601506
-2.910432
-4.372611
-5.564313
-6.093773
-5.800209
-4.716703
-2.920657
-0.511819
2.278042
5.020812
7.165645
8.212204
7.900022
6.320539
3.885695
1.183494
-1.175530
-2.678461
-3.039935
-2.334671
-1.019873
0.239411
0.868549
0.643881
-0.185788
-0.980546
-1.028277
0.053546
2.139491
4.757422
7.376164
9.546997
10.856126
10.874865
9.277238
6.075764
1.764608
-2.820968
-6.847599
-9.692592
-10.984124
-10.725462
-9.363638
-7.522707
-5.638020
-3.867028
-2.231457
-0.763976
0.431631
1.242479
1.693639
1.999101
2.402768
2.934545
3.324822
3.198144
2.399504
1.151962
-0.092163
-0.925712
-1.148880
-0.814070
-0.233659
0.118079
-0.133943
-1.017350
-2.211267
-3.272126
-3.840011
-3.685114
-2.712098
-1.032153
1.009555
2.938762
4.279554
4.659118
3.972266
2.513783
0.865933
-0.404989
-0.991368
-0.937692
-0.586918
-0.323908
-0.263084
-0.235422
-0.102910
0.014391
-0.143345
-0.705852
-1.516810
-2.172571
-2.224071
-1.407465
0.244694
2.413766
4.576737
6.174523
6.818850
6.380081
4.926211
2.683686
0.080044
-2.297073
-3.900060
-4.432330
-3.937593
-2.769053
-1.459867
-0.506194
-0.145666
-0.270459
-0.552783
-0.703678
-0.652813
-0.500991
-0.336726
-0.120965
0.290642
1.034708
2.078716
3.123261
3.713956
3.496962
2.399968
0.656489
-1.271625
-2.826614
-3.524776
-3.127132
-1.732069
0.252964
2.230858
3.584117
3.884769
3.142055
1.914713
1.006758
0.864808
1.226796
1.330015
0.447231
-1.646861
-4.520554
-7.290030
-9.050304
-9.261598
-7.885112
-5.305503
-2.165421
0.829441
3.076842
4.208089
4.170345
3.176036
1.586547
-0.118736
-1.362096
-1.652769
-0.881253
0.590945
2.199237
3.503942
4.267998
4.383543
3.856128
2.841516
1.627435
0.554024
-0.063451
-0.047173
0.492611
1.168074
1.564255
1.457914
0.782301
-0.473803
-2.181242
-3.943865
-5.212126
-5.568426
-4.897133
-3.370449
-1.393501
0.446143
1.530216
1.482595
0.367814
-1.364002
-3.100156
-4.267483
-4.471369
-3.601541
-1.880006
0.176637
1.902304
2.739531
2.495540
1.432667
0.149079
-0.679509
-0.593605
0.441825
2.052699
3.687837
4.846342
5.174291
4.537864
3.121194
1.395598
-0.116560
-1.057782
-1.234267
-0.580629
0.728994
2.237081
3.414002
3.903155
3.572783
2.493404
0.967484
-0.520887
-1.504236
-1.686533
-0.954218
0.606896
2.623362
4.419902
5.204945
4.411394
1.991407
-1.531438
-5.261523
-8.252003
-9.823315
-9.760889
-8.274068
-5.747644
-2.536832
0.988625
4.284710
6.648201
7.473628
6.582034
4.378348
1.653463
-0.864367
-2.824465
-4.204811
-5.066897
-5.407952
-5.206927
-4.549929
-3.670471
-2.819589
-2.040313
-1.090355
0.312370
2.126264
3.900588
5.040869
5.121971
4.030189
2.006181
-0.380259
-2.434738
-3.613197
-3.621197
-2.424979
-0.351589
1.921766
3.653347
4.351281
3.911956
2.660582
1.285376
0.511421
0.640235
1.361302
1.992310
1.908196
0.881152
-0.831825
-2.715516
-4.341178
-5.527776
-6.285136
-6.669377
-6.625585
-5.922713
-4.313608
-1.845378
1.014332
3.627552
5.549510
6.623680
6.795547
5.969034
4.128789
1.582778
-0.972372
-2.680965
-2.948455
-1.800728
0.108678
1.881321
2.827938
2.678160
1.549303
-0.135893
-1.750012
-2.703040
-2.761574
-2.166488
-1.418132
-0.928246
-0.828062
-1.004064
-1.238703
-1.356836
-1.338366
-1.312863
-1.392215
-1.523465
-1.597773
-1.676014
-1.922196
-2.265300
-2.322428
-1.777637
-0.731141
0.377031
1.059806
0.997752
0.213626
-0.801938
-1.261063
-0.559425
1.359708
4.095800
7.127307
9.983027
12.215887
13.447329
13.554697
12.734747
11.266098
9.246221
6.626697
3.430248
-0.122619
-3.628420
-6.600198
-8.616870
-9.474244
-9.257452
-8.252113
-6.737351
-4.854134
-2.663359
-0.307717
1.889283
3.500282
4.204753
3.939524
2.850454
1.144247
-0.935846
-2.981112
-4.420391
-4.844393
-4.333132
-3.394579
-2.630929
-2.441371
-2.859263
-3.582075
-4.208916
-4.484882
-4.356616
-3.867577
-3.040112
-1.862298
-0.376498
1.263605
2.870565
4.338931
5.621789
6.596613
7.006803
6.538065
4.964302
2.316654
-1.018503
-4.400452
-7.165220
-8.800377
-9.057570
-8.045663
-6.170100
-3.874056
-1.427221
1.055480
3.481841
5.711401
7.579519
8.952218
9.745983
9.892914
9.291906
7.842548
5.600152
2.942034
0.572831
-0.747322
-0.660839
0.513128
1.994828
3.066411
3.398610
2.976412
1.901328
0.344657
-1.409403
-2.976701
-3.952705
-4.037063
-3.186220
-1.699102
-0.115884
1.040539
1.467792
1.088028
-0.029066
-1.648201
-3.324347
-4.540882
-4.995753
-4.749288
-4.091622
-3.316762
-2.644296
-2.264837
-2.325163
-2.813099
-3.457206
-3.755089
-3.192136
-1.577097
0.769756
3.176388
5.000085
5.943587
6.125996
5.870624
5.382717
4.644437
3.595260
2.303601
0.945333
-0.286245
-1.222624
-1.732423
-1.703022
-1.004908
0.449775
2.531082
4.790143
6.609000
7.497906
7.234317
5.745638
3.022394
-0.720962
-4.837019
-8.306722
-10.132936
-9.835015
-7.718705
-4.766699
-2.227865
-1.060779
-1.476872
-2.897217
-4.350881
-4.975427
-4.273366
-2.079174
1.507592
6.089413
10.986128
15.339890
18.293905
19.311869
18.461973
16.379829
13.919589
11.746873
10.157543
9.187332
8.795323
8.944360
9.591393
10.647017
11.965453
13.400771
14.892023
16.498917
18.299273
20.177935
21.741831
22.524080
22.272419
20.973763
18.608091
14.955972
9.686204
2.672038
-5.712921
-14.611245
-23.060942
-30.382032
-36.232368
-40.508499
-43.324776
-44.859982
-45.022491
-43.384918
-39.581287
-33.733860
-26.490665
-18.773893
-11.523015
-5.458925
-0.879265
2.337199
4.540790
6.131158
7.415951
8.491138
9.207691
9.249330
8.294965
6.193436
3.042158
-0.840719
-4.978200
-8.822085
-11.893337
-13.917197
-14.827057
-14.630286
-13.280288
-10.616423
-6.369209
-0.331976
7.309069
15.765536
23.791925
30.067432
33.536602
33.645969
30.473604
24.555405
16.485029
6.787890
-3.832728
-14.396213
-23.914385
-31.660025
-37.224590
-40.484818
-41.494400
-40.345455
-37.159355
-32.173931
-25.777536
-18.473808
-10.828048
-3.390872
3.378417
9.089654
13.317784
15.630862
15.819642
14.043365
10.703901
6.282538
1.334173
-3.506040
-7.603662
-10.396152
-11.452231
-10.573844
-7.833347
-3.494083
2.032606
8.173614
14.306578
19.976875
24.978224
29.235712
32.616108
34.787495
35.304195
33.968540
31.117199
27.489191
23.867619
20.846142
18.723558
17.460274
16.750723
16.112829
14.921146
12.543692
8.578444
3.022051
-3.627239
-10.390342
-16.108240
-19.878426
-21.272318
-20.257338
-17.113794
-12.506949
-7.479614
-3.176884
-0.484779
0.131777
-1.448399
-5.082551
-10.296372
-16.311863
-22.315332
-27.614918
-31.554214
-33.510193
-33.083427
-30.366131
-26.037060
-20.930553
-15.497965
-9.854120
-4.007955
2.172653
8.785990
15.487812
21.677193
27.159554
32.004383
35.742523
37.448891
36.546513
33.064198
27.474615
20.656902
13.614665
6.863403
0.369717
-5.878291
-11.648088
-16.680758
-20.775473
-23.598053
-24.447575
-22.388931
-16.914505
-8.864080
-0.829524
4.079800
4.341981
0.298422
-6.816211
-14.711817
-20.574221
-23.107491
-22.737066
-20.053076
-15.535367
-10.105949
-4.640330
0.923815
7.438441
15.411769
24.318333
33.196697
41.295288
47.817516
51.859604
52.897240
50.845661
45.783096
37.944252
27.878544
16.479130
4.739637
-6.556438
-16.890379
-25.891390
-33.316113
-39.106579
-43.294380
-45.754940
-45.992016
-43.032440
-35.734989
-23.914093
-9.446355
4.298460
14.424964
19.908596
21.438316
20.300648
17.574057
13.870895
9.069987
2.673472
-5.125142
-13.279238
-20.837515
-27.463873
-33.038952
-37.236927
-39.698742
-40.344524
-39.260990
-36.473976
-31.967539
-25.703753
-17.607075
-7.800070
3.147672
14.270393
24.365496
32.320435
37.586220
40.260445
40.850456
40.106239
38.723267
36.949425
34.564621
31.174429
26.434084
20.247049
13.008501
5.631033
-0.748863
-5.174384
-7.123844
-6.583545
-4.171758
-1.262858
0.366498
-0.616627
-4.513687
-10.668542
-17.836489
-24.670088
-30.285601
-34.462620
-37.368282
-39.228970
-40.173725
-40.246574
-39.429218
-37.539841
-34.256863
-29.394381
-23.131847
-16.046688
-8.991975
-2.780061
2.197107
6.054621
9.114530
11.578820
13.468161
14.690417
15.131760
14.865387
14.279217
13.872609
13.958616
14.551082
15.416330
16.232882
16.723091
16.621395
15.640421
13.580433
10.438457
6.394218
1.749701
-3.053557
-7.408219
-10.694932
-12.530385
-12.872817
-11.985130
-10.349407
-8.544908
-7.134628
-6.602440
-7.264769
-9.122558
-11.804134
-14.721317
-17.318855
-19.202835
-20.123108
-19.949907
-18.678535
-16.372976
-13.085922
-8.907309
-4.117851
0.755402
5.095147
8.441366
10.575929
11.429672
11.079231
9.870944
8.414843
7.356767
7.128248
7.871828
9.514023
11.824661
14.415285
16.827871
18.773275
20.293049
21.668880
23.199965
25.033253
27.101719
29.162418
30.900970
32.033569
32.370647
31.847616
30.505981
28.420073
25.637049
22.191292
18.144745
13.590937
8.645839
3.431245
-1.951518
-7.381737
-12.609273
-17.201670
-20.613630
-22.348011
-22.185921
-20.327303
-17.214878
-13.259205
-8.867044
-4.614963
-1.181869
0.929540
1.578337
0.919226
-0.770487
-3.159618
-5.838018
-8.360503
-10.429599
-12.065651
-13.549463
-15.179584
-17.089857
-19.228912
-21.414967
-23.353140
-24.613808
-24.701147
-23.225002
-20.025167
-15.219477
-9.240393
-2.795617
3.315415
8.429619
12.158833
14.417908
15.376479
15.360811
14.751544
13.911292
13.136484
12.627794
12.442127
12.386390
11.985288
10.705032
8.298050
4.935495
1.059924
-2.790398
-6.025977
-8.085564
-8.664987
-7.866002
-6.095882
-3.885911
-1.807155
-0.427596
-0.181369
-1.195530
-3.261157
-5.981893
-8.912619
-11.559760
-13.347381
-13.734905
-12.484792
-9.835876
-6.408162
-2.975623
-0.288487
1.078313
0.872071
-0.798271
-3.566932
-6.951860
-10.405214
-13.307182
-15.069101
-15.370360
-14.322687
-12.358061
-9.942679
-7.411927
-4.947000
-2.553147
-0.105581
2.508778
5.319584
8.325526
11.536129
14.902432
18.214682
21.121977
23.266489
24.398426
24.441626
23.536879
22.026018
20.351404
18.897970
17.843576
17.126719
16.572660
16.043488
15.468888
14.826159
14.176464
13.654564
13.332943
13.116583
12.764641
11.944090
10.289344
7.520953
3.578340
-1.317901
-6.697886
-11.964222
-16.549992
-20.015158
-22.086344
-22.705839
-22.041397
-20.399937
-18.125860
-15.563948
-13.032494
-10.741704
-8.719725
-6.835335
-4.899288
-2.769387
-0.413074
2.081399
4.530448
6.701519
8.369223
9.359620
9.586718
9.104794
8.132332
6.976101
5.884975
4.936564
4.015651
2.884516
1.315787
-0.771554
-3.233952
-5.716361
-7.765214
-8.992692
-9.176602
-8.251851
-6.305881
-3.635685
-0.736583
1.847331
3.698636
4.629298
4.682785
4.040387
2.910545
1.475951
-0.110978
-1.706188
-3.135425
-4.197895
-4.756500
-4.814435
-4.450205
-3.702418
-2.605127
-1.310785
-0.060131
0.971441
1.734975
2.269079
2.678706
3.112974
3.667800
4.280492
4.755189
4.902584
4.649953
4.072040
3.373189
2.803166
2.522561
2.516541
2.622026
2.638246
2.429800
1.964607
1.315875
0.644976
0.129250
-0.133866
-0.169023
-0.101012
-0.082753
-0.205089
-0.456760
-0.752854
-0.990296
-1.095328
-1.053948
-0.918925
-0.776126
-0.682096
-0.622681
-0.516922
-0.250613
0.280558
1.141007
2.352571
3.904230
5.748104
7.777387
9.812409
11.615068
12.926563
13.532828
13.353297
12.498205
11.245732
9.952355
8.948451
8.452816
8.500263
8.901840
9.301890
9.346573
8.859571
7.883447
6.581200
5.127760
3.669679
2.328712
1.223753
0.486650
0.225125
0.438711
0.974727
1.604892
2.151437
2.507968
2.577543
2.253719
1.454735
0.166630
-1.534609
-3.504261
-5.577858
-7.613377
-9.510321
-11.209219
-12.677007
-13.886272
-14.819802
-15.503232
-16.005304
-16.388496
-16.671516
-16.829388
-16.801088
-16.503729
-15.874547
-14.924750
-13.758411
-12.524148
-11.330227
-10.196582
-9.070641
-7.872271
-6.522081
-4.945890
-3.096403
-0.998533
1.234834
3.428059
5.371450
6.861343
7.767296
8.063370
7.782932
6.971969
5.701255
4.091558
2.289727
0.407244
-1.507940
-3.432972
-5.304241
-6.972137
-8.208199
-8.776788
-8.541585
-7.552890
-6.059911
-4.428358
-3.013637
-2.034979
-1.476029
-1.071787
-0.397306
0.984474
3.346609
6.665247
10.624016
14.719998
18.346270
20.859062
21.732147
20.768368
18.216240
14.692276
10.977915
7.825273
5.775394
4.984179
5.192248
5.895028
6.547726
6.661700
5.863967
4.015311
1.293603
-1.884246
-5.035224
-7.727016
-9.628120
-10.575403
-10.646233
-10.130965
-9.398249
-8.771791
-8.478547
-8.621532
-9.159742
-9.925752
-10.669369
-11.099314
-10.930858
-9.945720
-8.055707
-5.356122
-2.138221
1.168134
4.109331
6.331237
7.668965
8.168244
8.014607
7.428374
