EVENT_NAME: L_AQUILA
EVENT_ID: IT-2009-0009
EVENT_DATE_YYYYMMDD: 20090406
EVENT_TIME_HHMMSS: 013240
EVENT_LATITUDE_DEGREE: 42.3420
EVENT_LONGITUDE_DEGREE: 13.3800
EVENT_DEPTH_KM: 8.3
HYPOCENTER_REFERENCE: INGV-CNT_Seismic_Bulletin
MAGNITUDE_W: 6.3
MAGNITUDE_W_REFERENCE: RCMT-INGV
MAGNITUDE_L: 5.9
MAGNITUDE_L_REFERENCE: INGV-CNT_Seismic_Bulletin
FOCAL_MECHANISM: NF
NETWORK: IT
STATION_CODE: AQK
STATION_NAME: L'AQUILA - V. ATERNO - AQUIL PARK ING.
STATION_LATITUDE_DEGREE: 42.344967
STATION_LONGITUDE_DEGREE: 13.400949
STATION_ELEVATION_M: 726
LOCATION: 
SENSOR_DEPTH_M: 0.0
VS30_M/S: 705
SITE_CLASSIFICATION_EC8: B
MORPHOLOGIC_CLASSIFICATION: SL
EPICENTRAL_DISTANCE_KM: 1.8
EARTHQUAKE_BACKAZIMUTH_DEGREE: 259.2
DATE_TIME_FIRST_SAMPLE_YYYYMMDD_HHMMSS: 20090406_013212.000
DATE_TIME_FIRST_SAMPLE_PRECISION: seconds
SAMPLING_INTERVAL_S: 0.005000
NDATA: 105
DURATION_S: 
STREAM: HNE
UNITS: cm/s^2
INSTRUMENT: sensor = FBA-3 [Kinemetrics] | digitizer = Etna [Kinemetrics]
INSTRUMENT_ANALOG/DIGITAL: D
INSTRUMENTAL_FREQUENCY_HZ: 212.000
INSTRUMENTAL_DAMPING: 0.700000
FULL_SCALE_G: 1.0
N_BIT_DIGITAL_CONVERTER: 18
PGV_CM/S: -32.217882
TIME_PGV_S: 33.055000
BASELINE_CORRECTION: BASELINE REMOVED
FILTER_TYPE: BUTTERWORTH
FILTER_ORDER: 2
LOW_CUT_FREQUENCY_HZ: 0.100
HIGH_CUT_FREQUENCY_HZ: 40.000
LATE/NORMAL_TRIGGERED: NT
DATABASE_VERSION: DYNA 1.0
HEADER_FORMAT: DYNA 1.2
DATA_TYPE: PSEUDO-VELOCITY RESPONSE SPECTRUM
PROCESSING: manual (Paolucci et al., 2011)
DATA_TIMESTAMP_YYYYMMDD_HHMMSS: 
DATA_LICENSE: CC-BY3_0-IT (http://creativecommons.org/licenses/by/3.0/deed.en)
DATA_CITATION: ESM working group (2015), European Strong-Motion database, version 0.1, Network Activity 3: Networking acceleration networks and SM data users. Project NERA (www.nera-eu.org)
DATA_CREATOR: ESM working group
ORIGINAL_DATA_MEDIATOR_CITATION: data obtained within the DPC-INGV data exchange agreements
ORIGINAL_DATA_MEDIATOR: Archive of Italian Department of Civil Protection
ORIGINAL_DATA_CREATOR_CITATION: Italian Strong Motion Network, Italian Civil Protection Department http://www.protezionecivile.gov.it
ORIGINAL_DATA_CREATOR: network: IT (Italian Strong Motion Network); owner: Dipartimento Della Protezione Civile
USER1: 
USER2: 
USER3: 
USER4: 
USER5: 
    0.010000     0.520459
    0.020000     1.136574
    0.022000     1.289064
    0.025000     1.495530
    0.029000     1.852592
    0.030000     1.997139
    0.032000     2.183367
    0.035001     2.586666
    0.036000     2.661538
    0.040000     3.119580
    0.041999     3.675444
    0.044001     3.618809
    0.045000     3.571534
    0.046000     3.548059
    0.048001     3.466215
    0.050000     3.806156
    0.054999     4.396604
    0.059999     5.908518
    0.064998     5.926012
    0.067002     6.180275
    0.069999     6.579796
    0.075002     7.074477
    0.080000     6.208847
    0.084998     6.180926
    0.090001     7.706777
    0.095003     9.103103
    0.100000     9.564024
    0.109999    13.289521
    0.120005    13.640201
    0.130005    15.731808
    0.132996    17.213652
    0.139997    22.698816
    0.149993    23.672474
    0.160000    27.532623
    0.170010    24.759871
    0.179986    17.463324
    0.190006    16.883575
    0.200000    15.097942
    0.220022    16.025175
    0.239981    19.047573
    0.250000    21.809380
    0.260010    24.187349
    0.280034    27.565126
    0.290023    28.313753
    0.300030    28.334118
    0.320000    26.835459
    0.340020    26.324883
    0.350017    26.714209
    0.359971    26.479225
    0.379939    25.245535
    0.400000    25.483286
    0.419992    25.464729
    0.439947    29.527388
    0.450045    30.349634
    0.459982    30.349348
    0.480077    29.856510
    0.500000    30.335604
    0.550055    36.294350
    0.599880    46.239704
    0.650195    52.905594
    0.667111    53.283482
    0.699790    55.565311
    0.750188    45.365883
    0.800000    44.478184
    0.850340    48.564957
    0.900090    53.063080
    0.949668    57.445839
    1.000000    64.041656
    1.100110    63.287407
    1.200480    64.519096
    1.300390    70.781616
    1.400560    71.684578
    1.499250    74.719910
    1.600000    91.115898
    1.700680    85.171738
    1.798561    83.655746
    1.901141    79.454460
    2.000000    72.706161
    2.197802    58.971020
    2.398082    47.210693
    2.500000    43.083523
    2.597403    39.268841
    2.801121    32.662773
    3.003003    26.845154
    3.205128    22.693428
    3.401361    19.909559
    3.496503    19.070429
    3.597122    18.359406
    3.802281    17.069920
    4.000000    15.934391
    4.201681    14.931291
    4.405286    14.042638
    4.608295    13.794601
    4.807692    13.724827
    5.000000    13.415679
    5.494505    11.935166
    5.988024    10.041275
    6.493506     8.597923
    6.993007     7.865923
    7.518797     7.245300
    8.000000     6.710077
    8.474576     6.244505
    9.009009     5.836854
    9.523809     5.477200
   10.000000     5.155777
