EVENT_NAME: CENTRAL_ITALY
EVENT_ID: EMSC-20161026_0000095
EVENT_DATE_YYYYMMDD: 20161026
EVENT_TIME_HHMMSS: 191806
EVENT_LATITUDE_DEGREE: 42.9087
EVENT_LONGITUDE_DEGREE: 13.1288
EVENT_DEPTH_KM: 7.5
HYPOCENTER_REFERENCE: INGV-CNT_Seismic_Bulletin
MAGNITUDE_W: 5.9
MAGNITUDE_W_REFERENCE: INGV-webservice
MAGNITUDE_L: 5.9
MAGNITUDE_L_REFERENCE: INGV-CNT_Seismic_Bulletin
FOCAL_MECHANISM: NF
NETWORK: IT
STATION_CODE: ACC
STATION_NAME: Accumoli
STATION_LATITUDE_DEGREE: 42.695999
STATION_LONGITUDE_DEGREE: 13.242000
STATION_ELEVATION_M: 922
LOCATION: 
SENSOR_DEPTH_M: 
VS30_M/S: 
SITE_CLASSIFICATION_EC8: A*
MORPHOLOGIC_CLASSIFICATION: 
EPICENTRAL_DISTANCE_KM: 25.4
EARTHQUAKE_BACKAZIMUTH_DEGREE: 338.6
DATE_TIME_FIRST_SAMPLE_YYYYMMDD_HHMMSS: 20161026_191805.089
DATE_TIME_FIRST_SAMPLE_PRECISION: milliseconds
SAMPLING_INTERVAL_S: 0.005000
NDATA: 12982
DURATION_S: 64.910
STREAM: HGZ
UNITS: cm
INSTRUMENT: sensor = Unknown [Unknown] | digitizer = Unknown [Unknown]
INSTRUMENT_ANALOG/DIGITAL: D
INSTRUMENTAL_FREQUENCY_HZ: 
INSTRUMENTAL_DAMPING: 
FULL_SCALE_G: 
N_BIT_DIGITAL_CONVERTER: 
PGD_CM: 0.880496
TIME_PGD_S: 16.395000
BASELINE_CORRECTION: BASELINE REMOVED
FILTER_TYPE: BUTTERWORTH
FILTER_ORDER: 2
LOW_CUT_FREQUENCY_HZ: 0.040
HIGH_CUT_FREQUENCY_HZ: 40.000
LATE/NORMAL_TRIGGERED: NT
DATABASE_VERSION: DYNA 1.0
HEADER_FORMAT: DYNA 1.2
DATA_TYPE: DISPLACEMENT
PROCESSING: manual (Paolucci et al., 2011)
DATA_TIMESTAMP_YYYYMMDD_HHMMSS: 20161028_130247.609
DATA_LICENSE: CC-BY3_0-IT (http://creativecommons.org/licenses/by/3.0/deed.en)
DATA_CITATION: ESM working group (2015), European Strong-Motion database, version 0.1, Network Activity 3: Networking acceleration networks and SM data users. Project NERA (www.nera-eu.org)
DATA_CREATOR: ESM working group
ORIGINAL_DATA_MEDIATOR_CITATION: Ufficio Rischio Sismico e Vulcanico del Dipartimento della Protezione Civile (http://www.protezionecivile.gov.it/)
ORIGINAL_DATA_MEDIATOR: Rete Accelerometrica Nazionale - RAN Download (http://www.mot1.it/randownload/)
ORIGINAL_DATA_CREATOR_CITATION: Italian Strong Motion Network, Italian Civil Protection Department http://www.protezionecivile.gov.it
ORIGINAL_DATA_CREATOR: network: IT (Italian Strong Motion Network); owner: Dipartimento Della Protezione Civile
USER1: /home/dyna/processing-itaca/processing.py /var/www/processing//tmp/dyna_ingv//IT.ACC..HGE.D.20161026.191806.X.ACC.ASC /var/www/processing//tmp/dyna_ingv//IT.ACC..HGN.D.20161026.191806.X.ACC.ASC /var/www/processing//tmp/dyna_ingv//IT.ACC..HGZ.D.20161026.191806.X.ACC.ASC --tmp /var/www/processing//tmp/dyna_ingv/ --le 0.040 --he 40.000 --ln 0.040 --hn 40.000 --lz 0.040 --hz 40.000 --fo 2 --ca 0 --cz 40 --ta 5 --tz 5 --mf 1 --rf 0 --tr NT
USER2: 
USER3: 
USER4: 
USER5: 
[...]
-1.900268e-01
-1.872457e-01
-1.846352e-01
-1.820620e-01
-1.794343e-01
-1.767422e-01
-1.740801e-01
-1.716294e-01
-1.695989e-01
-1.681390e-01
-1.672559e-01
-1.667663e-01
-1.663257e-01
-1.655299e-01
-1.640452e-01
-1.617178e-01
-1.586235e-01
-1.550409e-01
-1.513532e-01
-1.479156e-01
-1.449430e-01
-1.424565e-01
-1.403080e-01
-1.382692e-01
-1.361421e-01
-1.338366e-01
-1.313737e-01
-1.288293e-01
-1.262618e-01
-1.236696e-01
-1.209938e-01
-1.181510e-01
-1.150653e-01
-1.116791e-01
-1.079450e-01
-1.038170e-01
-9.925804e-02
-9.426508e-02
-8.889786e-02
-8.327707e-02
-7.754142e-02
-7.179277e-02
-6.607003e-02
-6.036383e-02
-5.465237e-02
-4.892829e-02
-4.319564e-02
-3.744122e-02
-3.160976e-02
-2.561228e-02
-1.936894e-02
-1.285843e-02
-6.143031e-03
6.416571e-04
7.328692e-03
1.378089e-02
1.993989e-02
2.582689e-02
3.149301e-02
3.696106e-02
4.220478e-02
4.717303e-02
5.183085e-02
5.618958e-02
6.031851e-02
6.433684e-02
6.838255e-02
7.257094e-02
7.696928e-02
8.159810e-02
8.644593e-02
9.148124e-02
9.665894e-02
1.019295e-01
1.072523e-01
1.126025e-01
1.179635e-01
1.233161e-01
1.286386e-01
1.339134e-01
1.391241e-01
1.442452e-01
1.492432e-01
1.540952e-01
1.588035e-01
1.633886e-01
1.678731e-01
1.722804e-01
1.766538e-01
1.810762e-01
1.856692e-01
1.905700e-01
1.958966e-01
2.017106e-01
2.079885e-01
2.146173e-01
2.214263e-01
2.282422e-01
2.349367e-01
2.414384e-01
2.477189e-01
2.537796e-01
2.596437e-01
2.653382e-01
2.708770e-01
2.762631e-01
2.815082e-01
2.866534e-01
2.917784e-01
2.969912e-01
3.023960e-01
3.080434e-01
3.138855e-01
3.197660e-01
3.254598e-01
3.307406e-01
3.354409e-01
3.394771e-01
3.428461e-01
3.456136e-01
3.478933e-01
3.498081e-01
3.514391e-01
3.527921e-01
3.538012e-01
3.543727e-01
3.544397e-01
3.539888e-01
3.530485e-01
3.516628e-01
3.498807e-01
3.477618e-01
3.453793e-01
3.428107e-01
3.401219e-01
3.373489e-01
3.344831e-01
3.314725e-01
3.282474e-01
3.247569e-01
3.209942e-01
3.170024e-01
3.128695e-01
3.087222e-01
3.047133e-01
3.009983e-01
2.977059e-01
2.949117e-01
2.926228e-01
2.907774e-01
2.892607e-01
2.879363e-01
2.866874e-01
2.854476e-01
2.842027e-01
2.829748e-01
2.818134e-01
2.807883e-01
2.799724e-01
2.794162e-01
2.791282e-01
2.790699e-01
2.791676e-01
2.793295e-01
2.794571e-01
2.794477e-01
2.791988e-01
2.786239e-01
2.776876e-01
2.764504e-01
2.750870e-01
2.738468e-01
2.729799e-01
2.726740e-01
2.730183e-01
2.739877e-01
2.754463e-01
2.771742e-01
2.789178e-01
2.804481e-01
2.816068e-01
2.823235e-01
2.826066e-01
2.825121e-01
2.821047e-01
2.814256e-01
2.804790e-01
2.792400e-01
2.776857e-01
2.758416e-01
2.738162e-01
2.717936e-01
2.699801e-01
2.685275e-01
2.674706e-01
2.667089e-01
2.660444e-01
2.652532e-01
2.641559e-01
2.626571e-01
2.607403e-01
2.584276e-01
2.557330e-01
2.526335e-01
2.490682e-01
2.449671e-01
2.402979e-01
2.351046e-01
2.295104e-01
2.236788e-01
2.177586e-01
2.118417e-01
2.059466e-01
2.000334e-01
1.940504e-01
1.879937e-01
1.819484e-01
1.760841e-01
1.705971e-01
1.656264e-01
1.611944e-01
1.572080e-01
1.535154e-01
1.499812e-01
1.465407e-01
1.432087e-01
1.400496e-01
1.371402e-01
1.345489e-01
1.323267e-01
1.304947e-01
1.290342e-01
1.278868e-01
1.269645e-01
1.261624e-01
1.253704e-01
1.244816e-01
1.233998e-01
1.220526e-01
1.204070e-01
1.184793e-01
1.163358e-01
1.140713e-01
1.117664e-01
1.094386e-01
1.070194e-01
1.043783e-01
1.013878e-01
9.799793e-02
9.428423e-02
9.045211e-02
8.679064e-02
8.357906e-02
8.098050e-02
7.897651e-02
7.737231e-02
7.586252e-02
7.412678e-02
7.191783e-02
6.910920e-02
6.569074e-02
6.172725e-02
5.731107e-02
5.253551e-02
4.749498e-02
4.229593e-02
3.705322e-02
3.185863e-02
2.673741e-02
2.162474e-02
1.637968e-02
1.083252e-02
4.847510e-03
-1.626330e-03
-8.539747e-03
-1.576345e-02
-2.313010e-02
-3.048883e-02
-3.776080e-02
-4.496807e-02
-5.221037e-02
-5.960202e-02
-6.721282e-02
-7.504289e-02
-8.302635e-02
-9.104888e-02
-9.897758e-02
-1.067022e-01
-1.141697e-01
-1.213942e-01
-1.284388e-01
-1.353809e-01
-1.422747e-01
-1.491340e-01
-1.559441e-01
-1.626897e-01
-1.693724e-01
-1.760069e-01
-1.826048e-01
-1.891646e-01
-1.956770e-01
-2.021383e-01
-2.085575e-01
-2.149475e-01
-2.213045e-01
-2.275950e-01
-2.337580e-01
-2.397132e-01
-2.453670e-01
-2.506268e-01
-2.554325e-01
-2.597904e-01
-2.637794e-01
-2.675170e-01
-2.711053e-01
-2.745929e-01
-2.779700e-01
-2.811921e-01
-2.842184e-01
-2.870495e-01
-2.897480e-01
-2.924369e-01
-2.952807e-01
-2.984632e-01
-3.021676e-01
-3.065611e-01
-3.117759e-01
-3.178833e-01
-3.248707e-01
-3.326307e-01
-3.409701e-01
-3.496451e-01
-3.584123e-01
-3.670762e-01
-3.755034e-01
-3.836030e-01
-3.912935e-01
-3.984886e-01
-4.051121e-01
-4.111271e-01
-4.165655e-01
-4.215419e-01
-4.262325e-01
-4.308194e-01
-4.354231e-01
-4.400570e-01
-4.446189e-01
-4.489184e-01
-4.527297e-01
-4.558582e-01
-4.582014e-01
-4.597943e-01
-4.608318e-01
-4.616518e-01
-4.626704e-01
-4.642852e-01
-4.667768e-01
-4.702339e-01
-4.745243e-01
-4.793266e-01
-4.842209e-01
-4.887999e-01
-4.927547e-01
-4.959147e-01
-4.982476e-01
-4.998372e-01
-5.008576e-01
-5.015533e-01
-5.022191e-01
-5.031628e-01
-5.046439e-01
-5.068091e-01
-5.096498e-01
-5.130048e-01
-5.166118e-01
-5.201865e-01
-5.234902e-01
-5.263666e-01
-5.287458e-01
-5.306280e-01
-5.320643e-01
-5.331533e-01
-5.340399e-01
-5.348969e-01
-5.358917e-01
-5.371585e-01
-5.387812e-01
-5.407785e-01
-5.430904e-01
-5.455894e-01
-5.481237e-01
-5.505731e-01
-5.528877e-01
-5.550978e-01
-5.572924e-01
-5.595738e-01
-5.620067e-01
-5.645811e-01
-5.672040e-01
-5.697289e-01
-5.720168e-01
-5.739971e-01
-5.756996e-01
-5.772436e-01
-5.787921e-01
-5.804899e-01
-5.824080e-01
-5.845118e-01
-5.866665e-01
-5.886811e-01
-5.903720e-01
-5.916252e-01
-5.924317e-01
-5.928803e-01
-5.931189e-01
-5.933097e-01
-5.935951e-01
-5.940729e-01
-5.947825e-01
-5.957114e-01
-5.968221e-01
-5.980803e-01
-5.994683e-01
-6.009802e-01
-6.026067e-01
-6.043183e-01
-6.060498e-01
-6.076900e-01
-6.090902e-01
-6.100969e-01
-6.105940e-01
-6.105368e-01
-6.099634e-01
-6.089849e-01
-6.077566e-01
-6.064360e-01
-6.051359e-01
-6.038948e-01
-6.026859e-01
-6.014567e-01
-6.001682e-01
-5.988154e-01
-5.974333e-01
-5.961002e-01
-5.949338e-01
-5.940670e-01
-5.936082e-01
-5.936033e-01
-5.940131e-01
-5.947102e-01
-5.954946e-01
-5.961336e-01
-5.964175e-01
-5.962162e-01
-5.955086e-01
-5.943761e-01
-5.929601e-01
-5.914034e-01
-5.897948e-01
-5.881409e-01
-5.863740e-01
-5.843842e-01
-5.820597e-01
-5.793230e-01
-5.761549e-01
-5.725969e-01
-5.687313e-01
-5.646452e-01
-5.603958e-01
-5.559931e-01
-5.514023e-01
-5.465648e-01
-5.414281e-01
-5.359748e-01
-5.302378e-01
-5.242984e-01
-5.182721e-01
-5.122915e-01
-5.064867e-01
-5.009608e-01
-4.957642e-01
-4.908881e-01
-4.862927e-01
-4.819631e-01
-4.779526e-01
-4.743801e-01
-4.713760e-01
-4.690073e-01
-4.672175e-01
-4.658149e-01
-4.645204e-01
-4.630552e-01
-4.612236e-01
-4.589530e-01
-4.562833e-01
-4.533309e-01
-4.502496e-01
-4.471989e-01
-4.443130e-01
-4.416695e-01
-4.392685e-01
-4.370403e-01
-4.348867e-01
-4.327355e-01
-4.305811e-01
-4.284916e-01
-4.265837e-01
-4.249776e-01
-4.237565e-01
-4.229476e-01
-4.225267e-01
-4.224332e-01
-4.225833e-01
-4.228788e-01
-4.232095e-01
-4.234515e-01
-4.234629e-01
-4.230863e-01
-4.221634e-01
-4.205656e-01
-4.182273e-01
-4.151661e-01
-4.114755e-01
-4.072966e-01
-4.027809e-01
-3.980634e-01
-3.932594e-01
-3.884784e-01
-3.838365e-01
-3.794483e-01
-3.753982e-01
-3.717061e-01
-3.683121e-01
-3.650890e-01
-3.618759e-01
-3.585150e-01
-3.548771e-01
-3.508677e-01
-3.464161e-01
-3.414599e-01
-3.359371e-01
-3.297832e-01
-3.229340e-01
-3.153394e-01
-3.069941e-01
-2.979734e-01
-2.884519e-01
-2.786897e-01
-2.689855e-01
-2.596118e-01
-2.507575e-01
-2.425015e-01
-2.348226e-01
-2.276316e-01
-2.208011e-01
-2.141872e-01
-2.076481e-01
-2.010656e-01
-1.943593e-01
-1.874930e-01
-1.804753e-01
-1.733617e-01
-1.662611e-01
-1.593368e-01
-1.527865e-01
-1.467958e-01
-1.414867e-01
-1.368880e-01
-1.329403e-01
-1.295288e-01
-1.265223e-01
-1.238006e-01
-1.212692e-01
-1.188710e-01
-1.166006e-01
-1.145121e-01
-1.127054e-01
-1.112871e-01
-1.103245e-01
-1.098174e-01
-1.097018e-01
-1.098809e-01
-1.102666e-01
-1.108061e-01
-1.114801e-01
-1.122842e-01
-1.132085e-01
-1.142231e-01
-1.152716e-01
-1.162764e-01
-1.171521e-01
-1.178152e-01
-1.181845e-01
-1.181794e-01
-1.177280e-01
-1.167874e-01
-1.153680e-01
-1.135492e-01
-1.114790e-01
-1.093456e-01
-1.073181e-01
-1.054807e-01
-1.037950e-01
-1.021182e-01
-1.002670e-01
-9.808655e-02
-9.548716e-02
-9.243869e-02
-8.894702e-02
-8.504161e-02
-8.078326e-02
-7.627314e-02
-7.163812e-02
-6.698731e-02
-6.236498e-02
-5.773752e-02
-5.303108e-02
-4.819702e-02
-4.326120e-02
-3.832980e-02
-3.355467e-02
-2.907752e-02
-2.497493e-02
-2.122805e-02
-1.773511e-02
-1.436352e-02
-1.101513e-02
-7.670508e-03
-4.393766e-03
-1.305219e-03
1.457159e-03
3.771141e-03
5.552738e-03
6.767357e-03
7.429924e-03
7.595062e-03
7.341108e-03
6.755150e-03
5.922974e-03
4.917875e-03
3.782892e-03
2.515262e-03
1.067391e-03
-6.349188e-04
-2.670480e-03
-5.107150e-03
-7.990271e-03
-1.132857e-02
-1.507942e-02
-1.914495e-02
-2.338498e-02
-2.763895e-02
-3.174710e-02
-3.557072e-02
-3.901184e-02
-4.202827e-02
-4.464063e-02
-4.692926e-02
-4.901747e-02
-5.104072e-02
-5.311236e-02
-5.530252e-02
-5.763817e-02
-6.011648e-02
-6.271526e-02
-6.539254e-02
-6.808241e-02
-7.070103e-02
-7.316712e-02
-7.542403e-02
-7.744554e-02
-7.922255e-02
-8.074485e-02
-8.199256e-02
-8.293979e-02
-8.356707e-02
-8.387836e-02
-8.391611e-02
-8.376170e-02
-8.351312e-02
-8.324878e-02
-8.300113e-02
-8.275747e-02
-8.248302e-02
-8.214613e-02
-8.173206e-02
-8.124910e-02
-8.073367e-02
-8.025103e-02
-7.988310e-02
-7.970211e-02
-7.973527e-02
-7.992979e-02
-8.013504e-02
-8.012036e-02
-7.962937e-02
-7.844622e-02
-7.644258e-02
-7.359142e-02
-6.995411e-02
-6.565360e-02
-6.084264e-02
-5.567178e-02
-5.026319e-02
-4.469771e-02
-3.901791e-02
-3.323903e-02
-2.735960e-02
-2.137439e-02
-1.528954e-02
-9.123511e-03
-2.882712e-03
3.469961e-03
1.002496e-02
1.690656e-02
2.423814e-02
3.210615e-02
4.052641e-02
4.941798e-02
5.859857e-02
6.781105e-02
7.677563e-02
8.525256e-02
9.309963e-02
1.003076e-01
1.070004e-01
1.133984e-01
1.197534e-01
1.262762e-01
1.330844e-01
1.401865e-01
1.474975e-01
1.548692e-01
1.621265e-01
1.691069e-01
1.757010e-01
1.818797e-01
1.876893e-01
1.932155e-01
1.985393e-01
2.037096e-01
2.087384e-01
2.136154e-01
2.183307e-01
2.228954e-01
2.273492e-01
2.317495e-01
2.361447e-01
2.405477e-01
2.449342e-01
2.492680e-01
2.535279e-01
2.577113e-01
2.618180e-01
2.658336e-01
2.697193e-01
2.734076e-01
2.768078e-01
2.798300e-01
2.824229e-01
2.846022e-01
2.864442e-01
2.880475e-01
2.894941e-01
2.908378e-01
2.921191e-01
2.933848e-01
2.946956e-01
2.961203e-01
2.977264e-01
2.995743e-01
3.017138e-01
3.041807e-01
3.069915e-01
3.101371e-01
3.135734e-01
3.172185e-01
3.209671e-01
3.247231e-01
3.284396e-01
3.321432e-01
3.359303e-01
3.399322e-01
3.442649e-01
3.489902e-01
3.541065e-01
3.595671e-01
3.653052e-01
3.712459e-01
3.773103e-01
3.834250e-01
3.895355e-01
3.956127e-01
4.016453e-01
4.076278e-01
4.135514e-01
4.194038e-01
4.251765e-01
4.308746e-01
4.365220e-01
4.421599e-01
4.478389e-01
4.536038e-01
4.594767e-01
4.654528e-01
4.715148e-01
4.776610e-01
4.839215e-01
4.903538e-01
4.970173e-01
5.039400e-01
5.110960e-01
5.184087e-01
5.257784e-01
5.331160e-01
5.403659e-01
5.475075e-01
5.545397e-01
5.614620e-01
5.682688e-01
5.749583e-01
5.815471e-01
5.880793e-01
5.946225e-01
6.012543e-01
6.080468e-01
6.150544e-01
6.223043e-01
6.297881e-01
6.374543e-01
6.452118e-01
6.529503e-01
6.605723e-01
6.680187e-01
6.752745e-01
6.823550e-01
6.892837e-01
6.960760e-01
7.027358e-01
7.092592e-01
7.156356e-01
7.218432e-01
7.278453e-01
7.336005e-01
7.390840e-01
7.443075e-01
7.493325e-01
7.542688e-01
7.592458e-01
7.643601e-01
7.696308e-01
7.749920e-01
7.803229e-01
7.854943e-01
7.904074e-01
7.950092e-01
7.992810e-01
8.032162e-01
8.068110e-01
8.100737e-01
8.130391e-01
8.157769e-01
8.183849e-01
8.209662e-01
8.236024e-01
8.263369e-01
8.291753e-01
8.320965e-01
8.350677e-01
8.380602e-01
8.410583e-01
8.440587e-01
8.470624e-01
8.500670e-01
8.530660e-01
8.560495e-01
8.590023e-01
8.618975e-01
8.646878e-01
8.673023e-01
8.696535e-01
8.716592e-01
8.732697e-01
8.744890e-01
8.753845e-01
8.760758e-01
8.767003e-01
8.773650e-01
8.781102e-01
8.788987e-01
8.796341e-01
8.801986e-01
8.804960e-01
8.804814e-01
8.801693e-01
8.796238e-01
8.789376e-01
8.782106e-01
8.775340e-01
8.769664e-01
8.765011e-01
8.760429e-01
8.754271e-01
8.744840e-01
8.731172e-01
8.713478e-01
8.693024e-01
8.671575e-01
8.650742e-01
8.631520e-01
8.614180e-01
8.598451e-01
8.583774e-01
8.569485e-01
8.554871e-01
8.539127e-01
8.521298e-01
8.500319e-01
8.475172e-01
8.445105e-01
8.409822e-01
8.369608e-01
8.325303e-01
8.278090e-01
8.229235e-01
8.179914e-01
8.131152e-01
8.083703e-01
8.037838e-01
7.993236e-01
7.949218e-01
7.905188e-01
7.860887e-01
7.816297e-01
7.771388e-01
7.725935e-01
7.679462e-01
7.631239e-01
7.580332e-01
7.525772e-01
7.466854e-01
7.403445e-01
7.336101e-01
7.265946e-01
7.194378e-01
7.122759e-01
7.052157e-01
6.983149e-01
6.915728e-01
6.849369e-01
6.783223e-01
6.716344e-01
6.647955e-01
6.577696e-01
6.505831e-01
6.433291e-01
6.361459e-01
6.291600e-01
6.224129e-01
6.158181e-01
6.091881e-01
6.023208e-01
5.950965e-01
5.875381e-01
5.798133e-01
5.721768e-01
5.648759e-01
5.580624e-01
5.517508e-01
5.458303e-01
5.401139e-01
5.343987e-01
5.285238e-01
5.224140e-01
5.160939e-01
5.096636e-01
5.032442e-01
4.969258e-01
4.907518e-01
4.847386e-01
4.789019e-01
4.732656e-01
4.678539e-01
4.626760e-01
4.577121e-01
4.529068e-01
4.481801e-01
4.434515e-01
4.386664e-01
4.338156e-01
4.289394e-01
4.241170e-01
4.194426e-01
4.150002e-01
4.108430e-01
4.069792e-01
4.033628e-01
3.998928e-01
3.964264e-01
3.928103e-01
3.889287e-01
3.847498e-01
3.803453e-01
3.758689e-01
3.715064e-01
3.674215e-01
3.637140e-01
3.603934e-01
3.573761e-01
3.545067e-01
3.516018e-01
3.484996e-01
3.450989e-01
3.413780e-01
3.373908e-01
3.332419e-01
3.290470e-01
3.248902e-01
3.207949e-01
3.167214e-01
3.125931e-01
3.083365e-01
3.039123e-01
2.993248e-01
2.946082e-01
2.898005e-01
2.849179e-01
2.799446e-01
2.748395e-01
2.695522e-01
2.640375e-01
2.582623e-01
2.522087e-01
2.458785e-01
2.392979e-01
2.325169e-01
2.255963e-01
2.185885e-01
2.115224e-01
2.043993e-01
1.972021e-01
1.899125e-01
1.825269e-01
1.750659e-01
1.675694e-01
1.600861e-01
1.526651e-01
1.453506e-01
1.381759e-01
1.311534e-01
1.242649e-01
1.174617e-01
1.106769e-01
1.038416e-01
9.689797e-02
8.980647e-02
8.255705e-02
7.518173e-02
6.775789e-02
6.039226e-02
5.318909e-02
4.621702e-02
3.948741e-02
3.294845e-02
2.649606e-02
2.000390e-02
1.336782e-02
6.546916e-03
-4.216500e-04
-7.443030e-03
-1.440668e-02
-2.122796e-02
-2.787418e-02
-3.436948e-02
-4.077966e-02
-4.718292e-02
-5.363494e-02
-6.013951e-02
-6.663523e-02
-7.300430e-02
-7.910344e-02
-8.480931e-02
-9.006188e-02
-9.488571e-02
-9.938108e-02
-1.036952e-01
-1.079900e-01
-1.124126e-01
-1.170707e-01
-1.220146e-01
-1.272360e-01
-1.326877e-01
-1.383138e-01
-1.440694e-01
-1.499268e-01
-1.558719e-01
-1.618994e-01
-1.680037e-01
-1.741666e-01
-1.803459e-01
-1.864747e-01
-1.924723e-01
-1.982593e-01
-2.037733e-01
-2.089842e-01
-2.139088e-01
-2.186155e-01
-2.232097e-01
-2.278000e-01
-2.324671e-01
-2.372504e-01
-2.421564e-01
-2.471744e-01
-2.522900e-01
-2.574910e-01
-2.627677e-01
-2.681076e-01
-2.734959e-01
-2.789252e-01
-2.844077e-01
-2.899741e-01
-2.956555e-01
-3.014600e-01
-3.073611e-01
-3.133015e-01
-3.192056e-01
-3.249938e-01
-3.305992e-01
-3.359871e-01
-3.411754e-01
-3.462471e-01
-3.513427e-01
-3.566309e-01
-3.622638e-01
-3.683296e-01
-3.748220e-01
-3.816440e-01
-3.886498e-01
-3.957060e-01
-4.027423e-01
-4.097664e-01
-4.168409e-01
-4.240354e-01
-4.313815e-01
-4.388526e-01
-4.463756e-01
-4.538638e-01
-4.612525e-01
-4.685202e-01
-4.756897e-01
-4.828131e-01
-4.899470e-01
-4.971277e-01
-5.043534e-01
-5.115783e-01
-5.187231e-01
-5.256993e-01
-5.324345e-01
-5.388897e-01
-5.450637e-01
-5.509854e-01
-5.567022e-01
-5.622690e-01
-5.677432e-01
-5.731829e-01
-5.786395e-01
-5.841466e-01
-5.897097e-01
-5.953053e-01
-6.008907e-01
-6.064208e-01
-6.118686e-01
-6.172382e-01
-6.225616e-01
-6.278786e-01
-6.332136e-01
-6.385671e-01
-6.439241e-01
-6.492729e-01
-6.546156e-01
-6.599650e-01
-6.653279e-01
-6.706912e-01
-6.760201e-01
-6.812702e-01
-6.864003e-01
-6.913748e-01
-6.961578e-01
-7.007057e-01
-7.049682e-01
-7.088981e-01
-7.124635e-01
-7.156582e-01
-7.185064e-01
-7.210573e-01
-7.233705e-01
-7.254966e-01
-7.274651e-01
-7.292874e-01
-7.309674e-01
-7.325097e-01
-7.339153e-01
-7.351723e-01
-7.362493e-01
-7.371051e-01
-7.377108e-01
-7.380695e-01
-7.382215e-01
-7.382308e-01
-7.381660e-01
-7.380837e-01
-7.380194e-01
-7.379866e-01
-7.379841e-01
-7.380076e-01
-7.380563e-01
-7.381287e-01
-7.382139e-01
-7.382908e-01
-7.383384e-01
-7.383477e-01
-7.383266e-01
-7.382935e-01
-7.382664e-01
-7.382476e-01
-7.382066e-01
-7.380679e-01
-7.377172e-01
-7.370291e-01
-7.359047e-01
-7.342975e-01
-7.322166e-01
-7.297114e-01
-7.268515e-01
-7.237138e-01
-7.203804e-01
-7.169391e-01
-7.134784e-01
-7.100718e-01
-7.067550e-01
-7.035119e-01
-7.002835e-01
-6.970009e-01
-6.936167e-01
-6.901149e-01
-6.865028e-01
-6.828006e-01
-6.790354e-01
-6.752344e-01
-6.714186e-01
-6.676044e-01
-6.638094e-01
-6.600531e-01
-6.563481e-01
-6.526923e-01
-6.490745e-01
-6.454899e-01
-6.419514e-01
-6.384862e-01
-6.351214e-01
-6.318693e-01
-6.287226e-01
-6.256556e-01
-6.226315e-01
-6.196140e-01
-6.165789e-01
-6.135213e-01
-6.104545e-01
-6.074010e-01
-6.043797e-01
-6.013916e-01
-5.984134e-01
-5.954021e-01
-5.923085e-01
-5.890955e-01
