EVENT_NAME: L_AQUILA
EVENT_ID: IT-2009-0009
EVENT_DATE_YYYYMMDD: 20090406
EVENT_TIME_HHMMSS: 013240
EVENT_LATITUDE_DEGREE: 42.3420
EVENT_LONGITUDE_DEGREE: 13.3800
EVENT_DEPTH_KM: 8.3
HYPOCENTER_REFERENCE: INGV-CNT_Seismic_Bulletin
MAGNITUDE_W: 6.3
MAGNITUDE_W_REFERENCE: RCMT-INGV
MAGNITUDE_L: 5.9
MAGNITUDE_L_REFERENCE: INGV-CNT_Seismic_Bulletin
FOCAL_MECHANISM: NF
NETWORK: IT
STATION_CODE: AQK
STATION_NAME: L'AQUILA - V. ATERNO - AQUIL PARK ING.
STATION_LATITUDE_DEGREE: 42.344967
STATION_LONGITUDE_DEGREE: 13.400949
STATION_ELEVATION_M: 726
LOCATION: 
SENSOR_DEPTH_M: 0.0
VS30_M/S: 705
SITE_CLASSIFICATION_EC8: B
MORPHOLOGIC_CLASSIFICATION: SL
EPICENTRAL_DISTANCE_KM: 1.8
EARTHQUAKE_BACKAZIMUTH_DEGREE: 259.2
DATE_TIME_FIRST_SAMPLE_YYYYMMDD_HHMMSS: 20090406_013212.000
DATE_TIME_FIRST_SAMPLE_PRECISION: seconds
SAMPLING_INTERVAL_S: 0.005000
NDATA: 105
DURATION_S: 
STREAM: HNE
UNITS: cm/s^2
INSTRUMENT: sensor = FBA-3 [Kinemetrics] | digitizer = Etna [Kinemetrics]
INSTRUMENT_ANALOG/DIGITAL: D
INSTRUMENTAL_FREQUENCY_HZ: 212.000
INSTRUMENTAL_DAMPING: 0.700000
FULL_SCALE_G: 1.0
N_BIT_DIGITAL_CONVERTER: 18
PGA_CM/S^2: 323.731938
TIME_PGA_S: 33.245000
BASELINE_CORRECTION: BASELINE REMOVED
FILTER_TYPE: BUTTERWORTH
FILTER_ORDER: 2
LOW_CUT_FREQUENCY_HZ: 0.100
HIGH_CUT_FREQUENCY_HZ: 40.000
LATE/NORMAL_TRIGGERED: NT
DATABASE_VERSION: DYNA 1.0
HEADER_FORMAT: DYNA 1.2
DATA_TYPE: ACCELERATION RESPONSE SPECTRUM
PROCESSING: manual (Paolucci et al., 2011)
DATA_TIMESTAMP_YYYYMMDD_HHMMSS: 
DATA_LICENSE: CC-BY3_0-IT (http://creativecommons.org/licenses/by/3.0/deed.en)
DATA_CITATION: ESM working group (2015), European Strong-Motion database, version 0.1, Network Activity 3: Networking acceleration networks and SM data users. Project NERA (www.nera-eu.org)
DATA_CREATOR: ESM working group
ORIGINAL_DATA_MEDIATOR_CITATION: data obtained within the DPC-INGV data exchange agreements
ORIGINAL_DATA_MEDIATOR: Archive of Italian Department of Civil Protection
ORIGINAL_DATA_CREATOR_CITATION: Italian Strong Motion Network, Italian Civil Protection Department http://www.protezionecivile.gov.it
ORIGINAL_DATA_CREATOR: network: IT (Italian Strong Motion Network); owner: Dipartimento Della Protezione Civile
USER1: 
USER2: 
USER3: 
USER4: 
USER5: 
    0.010000   327.131653
    0.020000   356.611694
    0.022000   368.258270
    0.025000   376.328979
    0.029000   401.987579
    0.030000   416.846466
    0.032000   428.920959
    0.035001   465.331482
    0.036000   467.550201
    0.040000   490.227631
    0.041999   553.876892
    0.044001   516.344177
    0.045000   501.552551
    0.046000   487.367157
    0.048001   456.931702
    0.050000   479.951141
    0.054999   498.862518
    0.059999   622.711670
    0.064998   580.130310
    0.067002   576.229553
    0.069999   590.524536
    0.075002   598.769592
    0.080000   492.053772
    0.084998   459.229706
    0.090001   535.892334
    0.095003   602.897522
    0.100000   607.238403
    0.109999   761.651001
    0.120005   717.051392
    0.130005   764.239441
    0.132996   818.086121
    0.139997  1029.868896
    0.149993   998.990540
    0.160000  1083.237183
    0.170010   921.930908
    0.179986   613.575562
    0.190006   559.451477
    0.200000   476.677307
    0.220022   459.748535
    0.239981   499.990875
    0.250000   549.661133
    0.260010   586.524536
    0.280034   620.614319
    0.290023   615.619080
    0.300030   595.628662
    0.320000   529.081360
    0.340020   489.230347
    0.350017   482.646332
    0.359971   464.854584
    0.379939   419.430328
    0.400000   401.889374
    0.419992   381.631683
    0.439947   423.723389
    0.450045   425.460541
    0.459982   416.202759
    0.480077   392.634735
    0.500000   383.314178
    0.550055   416.363983
    0.599880   486.362427
    0.650195   513.336792
    0.667111   504.079895
    0.699790   501.246277
    0.750188   381.702148
    0.800000   351.526245
    0.850340   360.315765
    0.900090   371.594177
    0.949668   382.041229
    1.000000   404.492157
    1.100110   363.564240
    1.200480   339.451416
    1.300390   344.219025
    1.400560   323.145386
    1.499250   315.170410
    1.600000   359.465210
    1.700680   316.800964
    1.798561   293.571045
    1.901141   264.256989
    2.000000   229.370651
    2.197802   169.590240
    2.398082   124.644936
    2.500000   109.074501
    2.597403    95.424347
    2.801121    74.167549
    3.003003    57.087170
    3.205128    45.199223
    3.401361    38.037979
    3.496503    35.504562
    3.597122    33.214523
    3.802281    29.251078
    4.000000    25.963449
    4.201681    23.214821
    4.405286    20.894218
    4.608295    19.500885
    4.807692    18.634321
    5.000000    17.532980
    5.494505    14.312051
    5.988024    11.186303
    6.493506     9.131975
    6.993007     7.897467
    7.518797     6.917265
    8.000000     6.121011
    8.474576     5.467839
    9.009009     4.923177
    9.523809     4.463995
   10.000000     4.070693
