EVENT_NAME: CENTRAL_ITALY
EVENT_ID: EMSC-20161030_0000029
EVENT_DATE_YYYYMMDD: 20161030
EVENT_TIME_HHMMSS: 064018
EVENT_LATITUDE_DEGREE: 42.8400
EVENT_LONGITUDE_DEGREE: 13.1100
EVENT_DEPTH_KM: 9.4
HYPOCENTER_REFERENCE: INGV-webservice
MAGNITUDE_W: 6.5
MAGNITUDE_W_REFERENCE: INGV-webservice
MAGNITUDE_L: 6.1
MAGNITUDE_L_REFERENCE: INGV-webservice
FOCAL_MECHANISM: NF
NETWORK: IT
STATION_CODE: ACC
STATION_NAME: Accumoli
STATION_LATITUDE_DEGREE: 42.695999
STATION_LONGITUDE_DEGREE: 13.242000
STATION_ELEVATION_M: 922
LOCATION: 
SENSOR_DEPTH_M: 
VS30_M/S: 
SITE_CLASSIFICATION_EC8: A*
MORPHOLOGIC_CLASSIFICATION: 
EPICENTRAL_DISTANCE_KM: 19.3
EARTHQUAKE_BACKAZIMUTH_DEGREE: 326.0
DATE_TIME_FIRST_SAMPLE_YYYYMMDD_HHMMSS: 20161030_064005.559
DATE_TIME_FIRST_SAMPLE_PRECISION: milliseconds
SAMPLING_INTERVAL_S: 0.005000
NDATA: 12000
DURATION_S: 60.000
STREAM: HGE
UNITS: cm/s^2
INSTRUMENT: sensor = Unknown [Unknown] | digitizer = Unknown [Unknown]
INSTRUMENT_ANALOG/DIGITAL: D
INSTRUMENTAL_FREQUENCY_HZ: 
INSTRUMENTAL_DAMPING: 
FULL_SCALE_G: 
N_BIT_DIGITAL_CONVERTER: 
PGA_CM/S^2: 425.850370
TIME_PGA_S: 23.505000
BASELINE_CORRECTION: BASELINE REMOVED
FILTER_TYPE: BUTTERWORTH
FILTER_ORDER: 2
LOW_CUT_FREQUENCY_HZ: 0.060
HIGH_CUT_FREQUENCY_HZ: 30.000
LATE/NORMAL_TRIGGERED: NT
DATABASE_VERSION: DYNA 1.0
HEADER_FORMAT: DYNA 1.2
DATA_TYPE: ACCELERATION
PROCESSING: manual (Paolucci et al., 2011)
DATA_TIMESTAMP_YYYYMMDD_HHMMSS: 20161101_122856.566
DATA_LICENSE: CC-BY3_0-IT (http://creativecommons.org/licenses/by/3.0/deed.en)
DATA_CITATION: ESM working group (2015), European Strong-Motion database, version 0.1, Network Activity 3: Networking acceleration networks and SM data users. Project NERA (www.nera-eu.org)
DATA_CREATOR: ESM working group
ORIGINAL_DATA_MEDIATOR_CITATION: Ufficio Rischio Sismico e Vulcanico del Dipartimento della Protezione Civile (http://www.protezionecivile.gov.it/)
ORIGINAL_DATA_MEDIATOR: Rete Accelerometrica Nazionale - RAN Download (http://www.mot1.it/randownload/)
ORIGINAL_DATA_CREATOR_CITATION: Italian Strong Motion Network, Italian Civil Protection Department http://www.protezionecivile.gov.it
ORIGINAL_DATA_CREATOR: network: IT (Italian Strong Motion Network); owner: Dipartimento Della Protezione Civile
USER1: /home/dyna/processing-itaca/processing.py /var/www/processing//tmp/Lucia//IT.ACC..HGE.D.20161030.064018.X.ACC.ASC /var/www/processing//tmp/Lucia//IT.ACC..HGN.D.20161030.064018.X.ACC.ASC /var/www/processing//tmp/Lucia//IT.ACC..HGZ.D.20161030.064018.X.ACC.ASC --tmp /var/www/processing//tmp/Lucia/ --le 0.060 --he 30.000 --ln 0.060 --hn 30.000 --lz 0.060 --hz 30.000 --fo 2 --ca -10 --cz 130 --ta 5 --tz 5 --mf 1 --rf 0 --tr NT
USER2: 
USER3: 
USER4: 
USER5: 
[...]
1.774716
3.332134
3.018991
1.393692
-0.450861
-1.388080
-0.744570
1.481615
4.753638
8.317185
11.451894
13.562115
14.232644
13.338497
11.103358
7.975824
4.364836
0.469520
-3.617050
-7.680515
-11.280117
-13.835218
-14.857869
-14.181378
-12.073082
-9.183990
-6.244655
-3.651170
-1.245938
1.537265
5.114947
9.164529
12.604089
14.140945
12.975459
9.259588
3.996498
-1.454917
-5.822733
-8.213299
-8.422627
-7.107006
-5.343327
-3.861371
-2.761151
-1.772687
-0.656728
0.595710
1.923470
3.408526
5.303538
7.889084
11.163497
14.617356
17.262966
17.817932
15.173771
9.080785
0.510840
-8.569358
-15.909116
-19.909571
-20.245749
-17.723804
-13.619129
-9.144575
-5.262623
-2.560095
-1.023252
0.062467
1.835636
5.272145
10.556043
16.721523
21.896982
24.159504
22.389696
16.611765
8.037230
-1.118407
-8.419255
-12.270541
-12.452967
-9.951608
-6.319414
-2.880224
-0.212964
1.862305
3.939751
6.581793
10.000081
13.928433
17.628433
20.145315
20.909946
20.148449
18.518866
16.403358
13.596938
9.588771
4.307178
-1.486166
-6.802907
-11.012824
-13.864608
-15.728303
-17.506498
-19.596855
-21.266834
-21.297501
-18.964491
-14.269775
-7.359789
1.796636
12.853927
24.568964
34.869198
41.152645
41.088913
34.019798
21.597366
6.700279
-7.965681
-20.019463
-27.398033
-29.508667
-27.996714
-25.325531
-22.540680
-18.922342
-13.562459
-6.466138
1.881927
11.147720
20.926134
30.344358
38.078030
42.470417
41.969608
36.057510
25.749834
12.966579
-0.601110
-13.769595
-25.275084
-33.822887
-38.773342
-40.456631
-40.149994
-39.271259
-37.896080
-34.516678
-27.569756
-17.107197
-4.950345
6.738770
16.902996
25.986126
35.224541
45.188969
54.603367
60.313957
58.468685
46.376217
24.215916
-4.122942
-31.936043
-52.547283
-62.096264
-60.008095
-47.981110
-29.395151
-8.655621
10.169496
24.476662
33.324364
37.021442
36.766987
34.213165
30.696491
26.874186
23.349930
21.193047
20.884153
20.965797
18.521095
11.248650
-0.723257
-15.472038
-31.199903
-45.828037
-55.858913
-58.177483
-52.791374
-42.739285
-31.248394
-19.518867
-7.355251
5.071404
16.399904
24.599888
28.466419
28.809643
28.352695
29.648771
31.827131
30.451508
21.828915
6.663970
-10.339995
-23.474045
-28.683992
-23.983370
-9.318037
12.300808
34.587433
50.584682
56.272015
51.982620
40.712105
25.805836
10.340719
-2.596810
-10.672003
-14.138516
-16.224581
-20.637878
-28.782057
-38.974491
-47.299431
-49.692589
-44.409294
-33.252201
-20.848837
-12.450839
-11.197019
-16.024370
-21.877804
-22.856831
-15.943399
-2.174430
14.759776
30.460499
41.480888
46.441654
45.780499
40.585999
31.929104
20.579653
6.990615
-7.879702
-22.168783
-34.021572
-42.528439
-47.736607
-49.488865
-46.204491
-35.566898
-16.739141
7.666699
31.538330
48.138645
53.556980
47.600262
32.834900
13.751277
-3.906259
-14.649525
-15.661189
-8.113722
3.945081
15.618155
22.944254
24.464186
21.337578
15.891266
10.841606
9.341822
13.999332
25.145605
39.642002
51.129124
52.593117
40.537220
18.088133
-6.864297
-27.234283
-39.172344
-41.535374
-36.291515
-28.293718
-23.112114
-24.044205
-30.249571
-37.749493
-42.307739
-41.768921
-36.140755
-26.163406
-12.863303
1.570290
13.690195
21.035128
24.569586
27.355213
31.039562
34.868931
36.737480
34.126122
25.516705
11.709640
-4.459038
-19.709291
-32.233536
-42.240383
-50.648018
-58.011040
-63.857674
-66.266121
-63.384296
-55.389748
-44.355999
-32.588570
-20.678919
-7.077998
9.691986
28.495104
45.689732
57.586147
62.150280
58.626125
47.288532
30.287397
11.436179
-5.329300
-16.375624
-18.302486
-10.006505
5.249457
21.217222
32.281040
36.330795
35.158726
32.729126
33.146111
38.926064
49.667274
61.981121
70.892715
72.177216
64.074730
46.930576
22.769917
-4.458978
-30.472778
-52.210411
-67.120766
-73.102257
-70.085716
-60.479767
-48.009861
-36.608749
-29.504349
-28.912630
-35.713509
-47.637825
-58.930458
-63.194000
-56.268940
-37.699841
-11.330163
15.517470
35.501850
45.231323
45.115112
36.593277
21.847422
4.853574
-9.704459
-18.315723
-19.432249
-14.027117
-5.931711
-0.228171
0.349601
-2.925429
-6.925994
-8.934870
-7.859148
-5.113952
-3.090428
-2.538775
-2.902893
-4.582303
-9.008346
-16.361231
-24.590979
-31.085167
-34.957287
-37.645985
-40.669636
-42.907703
-41.053360
-32.301384
-15.718803
7.955667
35.608379
60.912617
76.675674
79.522888
72.067741
60.121300
48.632233
40.466270
36.592388
36.044662
36.499264
34.953144
28.692720
17.678740
5.707868
-2.400131
-4.298948
-0.331607
7.314725
14.147686
14.671610
6.234936
-8.510216
-22.457155
-27.985336
-21.539562
-5.221380
14.431748
29.375769
33.431969
23.422880
-0.796280
-35.135418
-71.231941
-99.992416
-115.923660
-117.862526
-106.937111
-86.180374
-61.831032
-41.851433
-31.612213
-31.705784
-38.988670
-48.243015
-53.812187
-51.751789
-41.475224
-25.196209
-5.508499
15.720149
35.529686
49.774460
56.553032
57.071072
53.574036
48.643627
44.024315
38.281765
27.513411
9.538332
-13.096216
-34.570030
-49.462173
-55.016979
-51.887386
-42.922318
-30.374353
-15.335702
0.651863
15.324062
26.702396
33.640331
36.200623
36.223076
36.327454
36.847790
34.576153
25.840769
10.463882
-7.698727
-24.095474
-36.849300
-46.448528
-53.747822
-59.253960
-62.353100
-60.255821
-49.639175
-29.654484
-2.150720
29.804731
62.635677
92.367271
114.487724
124.561798
119.956017
101.002113
71.117073
36.198036
2.209201
-27.722120
-52.631115
-70.572456
-78.995888
-78.921814
-76.511742
-78.729195
-87.497803
-98.977295
-107.864288
-110.870445
-107.166847
-97.826637
-85.433350
-73.483612
-65.056137
-61.443676
-62.100620
-66.066826
-73.283180
-83.529785
-93.634712
-97.897293
-93.077408
-81.089188
-65.283363
-45.475300
-17.332647
23.542391
75.926651
131.243362
178.035629
207.678635
217.921555
213.190170
199.289917
177.489227
147.400009
114.750450
91.091942
84.470612
92.088013
105.169502
119.742165
136.353561
152.719604
163.438568
165.854645
163.576218
162.216675
162.864929
162.682098
160.793121
159.219116
157.524948
151.830124
140.258621
125.801865
112.914429
102.573334
91.863686
78.451653
63.269455
47.991989
32.807877
17.424961
2.202370
-11.984854
-24.251726
-33.707634
-39.514473
-41.859322
-42.755615
-45.052319
-50.167713
-57.357338
-66.057648
-77.917969
-94.699875
-116.578896
-143.876877
-175.979004
-208.890656
-237.143234
-256.343536
-263.893402
-258.624634
-238.989243
-203.346756
-154.017578
-98.832771
-47.169037
-6.275428
19.716543
30.681557
29.871845
21.683147
11.675765
7.371034
15.343076
36.834187
67.503738
100.807457
130.446472
151.105392
159.165787
153.447693
135.808365
110.430077
80.479553
46.667564
11.074991
-20.006329
-38.943451
-41.962833
-32.161755
-17.080305
-2.550537
8.704813
12.720763
3.365295
-21.746466
-55.166992
-83.473457
-98.674721
-101.483986
-95.312630
-82.487640
-64.212112
-41.528374
-16.922712
6.363080
26.976536
44.850315
58.567787
65.149918
61.329536
45.571152
20.729021
-5.703541
-24.990175
-32.003109
-27.762953
-16.575678
-1.108256
18.911375
44.427647
72.702393
95.819695
108.177261
113.089966
117.742737
125.470718
134.311417
140.221573
140.457428
132.846329
114.557533
85.359451
49.566700
12.403260
-23.363514
-56.754990
-86.532249
-110.419640
-126.037300
-132.379105
-130.406601
-122.021378
-108.066460
-88.186890
-63.351437
-37.190052
-14.510697
0.601245
6.008916
1.636183
-11.817702
-33.147240
-58.931816
-84.155647
-105.429222
-121.542686
-132.853348
-141.299393
-147.803345
-150.776688
-149.142197
-144.428299
-139.222412
-134.601013
-129.617157
-124.345734
-122.547119
-129.905136
-149.040848
-174.908997
-197.137863
-209.454941
-213.901413
-215.520477
-216.985260
-218.116516
-218.626068
-219.990814
-222.167099
-220.196854
-207.545212
-182.751892
-151.974976
-123.555389
-100.595810
-80.878944
-61.096962
-38.429695
-11.079082
20.480703
53.858978
86.450027
116.365479
142.164352
162.236588
175.710892
184.913803
195.953461
214.816055
242.461533
274.745911
305.433105
327.486938
332.967529
314.466553
271.527802
218.610535
180.139511
170.788589
184.996048
206.066711
216.892288
206.583344
176.362885
135.900848
93.127449
52.325317
17.027769
-12.453698
-40.896023
-75.607941
-123.511909
-183.131897
-238.722855
-274.596649
-291.225311
-298.286316
-303.348907
-310.198944
-317.304901
-319.550781
-314.480499
-302.741272
-283.561890
-254.864670
-217.520706
-175.713165
-133.973694
-96.023354
-64.795937
-42.622128
-30.279575
-23.203615
-12.300639
8.463606
39.887981
80.783051
127.973343
176.345276
222.764664
269.688660
321.542175
374.391510
411.676056
414.385284
376.532074
309.223419
231.834137
163.753265
120.391869
109.470009
126.940643
155.905319
176.733612
181.636429
175.528381
165.565460
154.025482
139.228989
119.915489
96.346954
68.924049
39.113777
9.978954
-16.533895
-42.210518
-70.972916
-103.098732
-132.432159
-150.847580
-153.128830
-137.492706
-105.163467
-60.000534
-6.413178
52.824852
115.581802
176.219833
224.746063
253.456955
262.656799
256.309235
234.590622
195.947067
145.026520
93.164795
50.662933
21.681715
6.041776
1.562403
3.848733
7.791535
11.113931
14.832186
19.929922
24.977642
26.404812
20.314547
5.819267
-12.856821
-29.217609
-39.646358
-45.408134
-51.819275
-66.618347
-94.756790
-132.150864
-168.093491
-194.087112
-207.392746
-208.476715
-198.349518
-177.676865
-147.910019
-112.707321
-76.844215
-43.764801
-14.744817
9.226599
25.776218
33.679493
35.643257
35.521812
34.124790
29.198429
18.125238
-0.040800
-25.803461
-60.805180
-104.207306
-149.324371
-186.640991
-207.821426
-207.905273
-187.625427
-152.750092
-110.639679
-69.870567
-39.873310
-25.472218
-22.840322
-22.811172
-17.862907
-6.377158
8.397108
22.080360
31.971788
37.896206
41.864967
47.258465
57.251530
71.923050
87.500244
100.938126
112.969574
124.423027
132.535385
131.532867
114.368599
77.047050
26.450836
-20.763403
-51.693775
-65.495842
-69.784065
-73.634361
-82.481522
-97.235657
-116.548767
-138.515335
-160.094162
-177.077179
-186.953629
-190.826202
-192.045120
-193.725327
-196.635559
-198.656601
-196.624084
-188.621262
-174.542038
-155.811646
-134.936050
-113.814430
-92.122688
-68.293335
-41.979416
-15.474047
6.471920
18.898952
19.759266
10.404679
-6.293284
-26.802126
-47.128956
-64.805389
-80.604523
-96.960350
-114.888824
-132.357803
-145.049042
-148.219604
-138.802704
-117.338661
-89.788551
-71.696953
-83.336800
-128.267151
-184.392380
-223.851135
-234.166473
-219.254700
-188.255371
-148.060654
-104.004478
-63.285480
-34.483032
-21.372995
-19.531296
-20.328033
-15.144104
3.195144
37.989002
84.771904
131.330673
163.849960
173.983124
164.133087
146.733795
133.128311
124.838303
117.606110
107.706238
92.766190
71.093430
43.014172
11.498382
-20.813574
-53.054020
-83.090431
-106.333740
-119.185760
-122.165558
-119.130325
-113.459282
-105.588799
-95.130447
-83.573578
-73.749207
-68.197723
-67.902328
-71.018768
-74.128670
-77.217331
-86.788780
-112.013550
-156.453735
-213.088470
-267.093536
-305.277039
-324.358765
-327.006836
-314.418915
-288.535675
-254.444458
-216.872299
-176.157211
-128.325150
-70.171913
-3.968945
62.031158
118.174728
159.660812
188.076233
209.279373
231.059677
259.237396
293.451172
327.693207
354.481628
367.537720
362.679199
340.233521
307.093384
271.765900
237.711441
204.800613
174.024017
148.374512
130.030167
117.492294
107.767448
100.596443
97.611656
99.130630
104.122681
111.691025
120.442123
125.983437
123.117653
113.491966
104.724968
101.178001
102.241051
105.768982
108.967766
109.760094
108.274124
106.205376
105.491096
107.908333
114.347672
123.688187
134.637589
147.780350
162.778610
176.150635
186.169022
196.920502
212.068863
228.204971
238.421402
238.059387
225.948059
204.299042
178.310043
154.441147
137.790558
130.337997
131.330048
138.853577
150.681229
164.224731
176.988266
187.242172
194.077347
197.070282
196.657104
195.872467
199.453629
209.106079
222.351456
236.057159
248.003616
256.058624
258.002167
252.085159
237.236298
213.288055
182.022919
146.999496
111.259392
75.969238
41.626923
9.797465
-17.468073
-40.294266
-61.592709
-84.103203
-108.659264
-135.615814
-165.011795
-195.101334
-222.807983
-244.629593
-257.451477
-262.432251
-264.600922
-264.519012
-257.459503
-241.055557
-217.499649
-190.812286
-163.566620
-135.454529
-105.321716
-72.646469
-36.457386
5.048655
52.158951
102.671249
153.851913
203.756592
252.935074
304.558868
357.744171
402.382721
425.850372
423.069458
396.967438
351.966492
290.460175
213.907349
125.841797
34.967941
-45.588909
-102.403549
-128.460571
-129.952576
-121.768784
-115.098541
-113.149628
-115.208794
-119.927902
-125.211891
-128.658218
-129.887665
-131.373337
-136.524643
-145.597900
-153.422531
-153.701569
-144.634567
-129.289612
-112.989212
-99.313049
-87.160774
-73.699776
-57.640793
-36.829460
-5.647829
42.399834
107.970428
180.568878
242.843842
283.093933
297.198547
280.735870
233.070114
164.055511
89.664795
23.867664
-28.155800
-67.890663
-96.452438
-114.458229
-124.571053
-130.850800
-136.522385
-142.959351
-150.004639
-157.042511
-164.303452
-172.739594
-183.142502
-195.563492
-209.290039
-223.343491
-236.334183
-246.331650
-251.896194
-252.333221
-246.389511
-232.947571
-213.523270
-191.265121
-168.374191
-147.268646
-131.948410
-126.242790
-132.182632
-148.886581
-171.472061
-193.522400
-211.208176
-223.009506
-228.221970
-228.527252
-227.353668
-225.804688
-221.350357
-210.327011
-190.900345
-164.073776
-132.612488
-100.299561
-71.676018
-50.075733
-35.400131
-24.559778
-13.355743
2.214285
24.433908
52.706463
84.956085
120.348305
159.322678
200.280579
237.738464
265.060028
278.557434
278.961670
269.421814
252.721298
230.741150
204.856842
176.681488
149.671234
127.719002
111.499626
98.664268
86.534203
73.253044
58.100506
41.480572
24.336363
7.564170
-8.444555
-24.106054
-40.385483
-58.008427
-77.077431
-97.103882
-116.333351
-130.665833
-134.593155
-125.098579
-104.045143
-76.032608
-45.529617
-15.257217
14.703059
45.691551
78.565125
113.700348
151.381317
190.673569
228.463974
260.383453
282.832397
294.935516
298.618225
296.311890
289.243713
278.043365
263.794678
247.873413
231.616898
216.171188
201.488495
185.920349
167.713928
146.525040
123.327667
99.586845
76.892960
56.491749
38.293392
21.073252
3.931196
-13.764738
-33.875126
-59.014214
-89.663406
-123.067230
-155.666199
-185.258102
-210.571518
-230.308548
-243.784897
-252.084976
-256.926758
-258.264862
-254.563095
-245.181870
-231.123093
-213.980301
-195.188644
-176.185181
-158.579071
-142.428909
-124.065758
-98.060242
-62.266281
-20.354433
20.873264
56.734585
85.609566
105.518097
114.305679
113.628532
109.488197
107.148468
106.224297
102.237686
92.265915
77.336815
59.461712
38.584461
14.442780
-10.715236
-33.841038
-53.399830
-68.891937
-79.943665
-85.690903
-85.238304
-80.450493
-75.995895
-73.044090
-66.512764
-52.844360
-35.110161
-17.470928
-0.937905
14.558865
28.330906
39.376934
47.714275
55.163963
64.049057
75.198708
88.219833
102.733757
118.017288
132.196045
142.592239
146.958679
144.008530
133.151550
114.534157
88.558632
55.619747
17.675402
-20.992529
-56.054489
-85.627357
-110.217216
-130.950287
-148.490005
-163.730850
-178.444977
-193.864044
-208.623001
-219.702408
-226.183090
-230.106018
-232.985809
-233.990021
-231.871414
-226.320969
-216.989227
-202.685379
-182.281616
-156.093735
-126.298752
-96.167030
-68.508835
-44.345757
-22.611141
-0.721746
24.069992
53.062229
85.701828
120.468826
155.598694
189.359329
220.253876
246.455063
264.989349
272.788910
268.405121
251.727264
223.543274
186.577606
145.877686
107.847252
78.334824
59.474968
47.803104
36.788582
21.530035
1.207918
-21.318012
-42.161514
-60.307297
-79.245438
-104.849174
-141.366074
-187.313370
-233.862854
-269.639252
-289.345581
-295.444946
-292.306091
-283.107147
-270.017548
-253.747253
-234.113678
-210.810928
-183.175125
-151.547653
-118.829994
-88.181564
-59.923443
-32.275478
-3.845734
25.077600
52.603951
76.355797
95.030594
109.336807
121.189011
131.707611
140.174194
144.634476
142.901047
133.409241
116.157867
93.116096
67.471817
42.241501
19.495272
0.548041
-13.810038
-23.340813
-28.269756
-29.196020
-27.141453
-23.162428
-17.430086
-9.416584
0.292577
8.989920
13.237560
10.958390
2.040071
-12.004166
-28.155897
-42.734154
-53.017910
-58.136471
-58.728260
-55.652313
-48.780598
-37.362843
-22.023355
-5.719685
8.300508
18.517839
24.627253
26.640734
24.758381
19.202059
10.295362
-1.230119
-14.485581
-29.002947
-44.509926
-60.034096
-74.018234
-85.457176
-94.339958
-101.127899
-106.141243
-109.310181
-110.450455
-109.661987
-107.100098
-102.596680
-96.007584
-87.570824
-77.393036
-64.758339
-48.318604
-27.013300
-0.791922
29.179817
60.210300
87.984642
108.198105
118.997780
121.374954
117.298759
108.111694
94.866310
79.395966
64.110756
50.912678
40.938126
34.803143
32.429867
33.359772
37.298233
43.660564
51.206795
58.639652
65.005913
69.319336
70.225464
66.445152
57.632774
44.726055
29.572233
14.262928
0.473895
-11.001832
-20.339582
-28.255220
-35.322090
-41.629883
-46.853542
-50.488876
-52.141232
-51.646400
-48.913345
-43.752296
-36.138226
-26.774040
-17.176224
-8.968659
-2.818434
2.172360
7.914256
15.917996
26.292028
38.086658
50.319256
62.170464
72.591385
80.556763
85.332062
86.144249
82.333160
73.942894
61.757526
47.067688
31.477070
16.466242
3.186739
-7.203343
-13.590680
-15.559473
-13.495072
-8.074817
-0.212473
8.707299
17.154036
24.059164
29.215677
33.368484
37.572586
42.193584
46.645992
49.820797
50.666325
48.641399
43.627274
35.668507
25.138367
12.816050
-0.371834
-13.552123
-26.050940
-37.325500
-46.684940
-53.284428
-56.303097
-55.044285
-49.019932
-38.220997
-23.783472
