EVENT_NAME: CENTRAL_ITALY
EVENT_ID: EMSC-20161026_0000095
EVENT_DATE_YYYYMMDD: 20161026
EVENT_TIME_HHMMSS: 191806
EVENT_LATITUDE_DEGREE: 42.9087
EVENT_LONGITUDE_DEGREE: 13.1288
EVENT_DEPTH_KM: 7.5
HYPOCENTER_REFERENCE: INGV-CNT_Seismic_Bulletin
MAGNITUDE_W: 5.9
MAGNITUDE_W_REFERENCE: INGV-webservice
MAGNITUDE_L: 5.9
MAGNITUDE_L_REFERENCE: INGV-CNT_Seismic_Bulletin
FOCAL_MECHANISM: NF
NETWORK: IT
STATION_CODE: ACC
STATION_NAME: Accumoli
STATION_LATITUDE_DEGREE: 42.695999
STATION_LONGITUDE_DEGREE: 13.242000
STATION_ELEVATION_M: 922
LOCATION: 
SENSOR_DEPTH_M: 
VS30_M/S: 
SITE_CLASSIFICATION_EC8: A*
MORPHOLOGIC_CLASSIFICATION: 
EPICENTRAL_DISTANCE_KM: 25.4
EARTHQUAKE_BACKAZIMUTH_DEGREE: 338.6
DATE_TIME_FIRST_SAMPLE_YYYYMMDD_HHMMSS: 20161026_191805.089
DATE_TIME_FIRST_SAMPLE_PRECISION: milliseconds
SAMPLING_INTERVAL_S: 0.005000
NDATA: 12982
DURATION_S: 64.910
STREAM: HGZ
UNITS: cm/s^2
INSTRUMENT: sensor = Unknown [Unknown] | digitizer = Unknown [Unknown]
INSTRUMENT_ANALOG/DIGITAL: D
INSTRUMENTAL_FREQUENCY_HZ: 
INSTRUMENTAL_DAMPING: 
FULL_SCALE_G: 
N_BIT_DIGITAL_CONVERTER: 
PGA_CM/S^2: -38.626966
TIME_PGA_S: 13.720000
BASELINE_CORRECTION: BASELINE REMOVED
FILTER_TYPE: BUTTERWORTH
FILTER_ORDER: 2
LOW_CUT_FREQUENCY_HZ: 0.040
HIGH_CUT_FREQUENCY_HZ: 40.000
LATE/NORMAL_TRIGGERED: NT
DATABASE_VERSION: DYNA 1.0
HEADER_FORMAT: DYNA 1.2
DATA_TYPE: ACCELERATION
PROCESSING: manual (Paolucci et al., 2011)
DATA_TIMESTAMP_YYYYMMDD_HHMMSS: 20161028_130247.609
DATA_LICENSE: CC-BY3_0-IT (http://creativecommons.org/licenses/by/3.0/deed.en)
DATA_CITATION: ESM working group (2015), European Strong-Motion database, version 0.1, Network Activity 3: Networking acceleration networks and SM data users. Project NERA (www.nera-eu.org)
DATA_CREATOR: ESM working group
ORIGINAL_DATA_MEDIATOR_CITATION: Ufficio Rischio Sismico e Vulcanico del Dipartimento della Protezione Civile (http://www.protezionecivile.gov.it/)
ORIGINAL_DATA_MEDIATOR: Rete Accelerometrica Nazionale - RAN Download (http://www.mot1.it/randownload/)
ORIGINAL_DATA_CREATOR_CITATION: Italian Strong Motion Network, Italian Civil Protection Department http://www.protezionecivile.gov.it
ORIGINAL_DATA_CREATOR: network: IT (Italian Strong Motion Network); owner: Dipartimento Della Protezione Civile
USER1: /home/dyna/processing-itaca/processing.py /var/www/processing//tmp/dyna_ingv//IT.ACC..HGE.D.20161026.191806.X.ACC.ASC /var/www/processing//tmp/dyna_ingv//IT.ACC..HGN.D.20161026.191806.X.ACC.ASC /var/www/processing//tmp/dyna_ingv//IT.ACC..HGZ.D.20161026.191806.X.ACC.ASC --tmp /var/www/processing//tmp/dyna_ingv/ --le 0.040 --he 40.000 --ln 0.040 --hn 40.000 --lz 0.040 --hz 40.000 --fo 2 --ca 0 --cz 40 --ta 5 --tz 5 --mf 1 --rf 0 --tr NT
USER2: 
USER3: 
USER4: 
USER5: 
[...]
-2.396362
-2.197226
-1.254781
0.120219
1.479854
2.379771
2.529676
1.912689
0.810204
-0.340389
-1.198620
-1.662469
-1.778903
-1.589091
-1.118004
-0.465153
0.188397
0.681121
0.943386
0.979175
0.832112
0.589742
0.374601
0.268818
0.228558
0.101139
-0.232513
-0.706298
-1.059024
-1.002963
-0.457297
0.330980
0.909574
0.933916
0.408360
-0.354642
-0.977999
-1.233220
-1.103731
-0.725944
-0.272133
0.157065
0.559427
0.956895
1.285256
1.365868
1.034297
0.336764
-0.415344
-0.822283
-0.658480
-0.015836
0.733950
1.106997
0.760457
-0.261275
-1.481012
-2.252427
-2.178682
-1.355810
-0.229109
0.781920
1.507224
1.930817
1.992303
1.575835
0.694736
-0.387764
-1.281269
-1.702585
-1.577579
-0.987005
-0.122647
0.711898
1.200863
1.210397
0.834883
0.218752
-0.569870
-1.413889
-1.992893
-1.923013
-1.106656
0.133764
1.312820
2.106628
2.411589
2.221626
1.586293
0.676451
-0.228650
-0.891652
-1.225769
-1.236355
-0.931118
-0.365169
0.266952
0.694822
0.766989
0.535236
0.127320
-0.390769
-0.959243
-1.397777
-1.467198
-1.078556
-0.368193
0.432653
1.126352
1.559130
1.626691
1.340328
0.833255
0.243030
-0.381793
-0.998450
-1.416899
-1.344544
-0.664210
0.359141
1.206221
1.467293
1.118716
0.502164
0.059757
0.040078
0.372396
0.767537
0.940447
0.782547
0.392992
-0.016912
-0.289131
-0.438021
-0.594670
-0.827778
-1.051844
-1.118713
-0.978020
-0.739159
-0.586603
-0.644720
-0.895111
-1.169050
-1.214711
-0.839246
-0.055868
0.901106
1.737744
2.284865
2.514998
2.418795
1.947059
1.095148
0.006406
-0.997453
-1.484992
-1.140536
-0.063878
1.182116
1.942061
1.919589
1.266112
0.326418
-0.604014
-1.327115
-1.699897
-1.653186
-1.285313
-0.887227
-0.764561
-0.965734
-1.214160
-1.154811
-0.653860
0.139920
0.915393
1.302438
1.004520
0.053559
-1.055418
-1.652971
-1.421055
-0.615589
0.225772
0.724572
0.810734
0.583464
0.183369
-0.210649
-0.413552
-0.361069
-0.133591
0.221538
0.785012
1.561837
2.273506
2.522930
2.178028
1.471967
0.696854
-0.071817
-0.895765
-1.744187
-2.400299
-2.513356
-1.751398
-0.058754
2.120715
3.906695
4.410235
3.264257
0.864141
-1.828758
-3.759186
-4.262348
-3.327920
-1.505495
0.481915
2.098643
3.030255
3.002268
1.770324
-0.624703
-3.651595
-6.379636
-7.766467
-7.022466
-4.089200
-0.012263
3.342138
4.343005
2.641776
-0.703052
-4.044555
-6.118888
-6.452872
-5.157837
-2.594575
0.711378
3.990827
6.255548
6.571924
4.531632
0.643447
-3.688490
-6.698931
-7.064706
-4.548857
-0.086805
4.788353
8.722684
10.863557
10.686308
7.948038
3.099349
-2.418029
-6.663347
-8.253070
-7.119890
-4.379559
-1.518117
0.366237
0.873720
0.338836
-0.284254
0.095964
1.895101
4.409134
6.272161
6.376020
4.470562
1.211751
-2.146982
-4.286136
-4.459960
-2.871018
-0.472663
1.554965
2.222953
1.003134
-1.918320
-5.552108
-8.427508
-9.253139
-7.590153
-4.120245
-0.192350
3.056731
5.222826
6.450784
6.940045
6.667259
5.483415
3.416572
0.926168
-1.115246
-1.838478
-1.036067
0.509335
1.536421
1.341464
0.391485
-0.089832
0.754386
2.596818
4.157046
4.154617
2.111940
-1.410958
-5.038827
-7.131924
-6.593520
-3.564243
0.572180
3.976825
5.323965
4.290020
1.520370
-1.659365
-3.770191
-3.906110
-2.240083
0.115971
1.830811
2.098672
0.907393
-1.146680
-3.173459
-4.245849
-3.627612
-1.069701
2.881946
6.820163
8.871102
7.516194
2.479541
-4.857967
-11.839080
-15.539596
-14.013646
-7.426419
1.598202
9.189610
12.497138
11.176100
6.983611
2.241347
-1.364648
-3.050879
-2.836051
-1.533616
-0.355665
0.021601
-0.096227
-0.097151
0.084012
0.083077
-0.164529
-0.322004
-0.345256
-0.852453
-2.512137
-5.172408
-7.712538
-8.700596
-7.264017
-3.591965
1.099562
4.972291
6.311559
4.578728
1.057484
-1.858364
-2.497173
-1.194265
0.293980
0.597937
-0.130197
-0.755797
-0.551855
0.090159
0.195920
-0.798055
-2.577050
-4.088141
-3.952011
-1.249111
3.459646
7.987917
9.917692
8.299009
3.980770
-1.389227
-6.343851
-9.744268
-10.581760
-8.232496
-3.047872
3.487485
9.286704
12.401022
11.562524
6.591401
-1.251639
-9.308789
-14.433662
-14.530693
-9.632782
-1.739827
6.186418
11.417163
12.591875
10.217875
6.011668
1.733834
-1.488664
-3.240165
-3.599389
-2.818863
-1.204697
0.696301
2.092544
2.419248
1.694712
0.240934
-1.666854
-3.549688
-4.488116
-3.738808
-1.505315
1.298835
3.928577
6.154679
7.928634
9.086681
9.395439
8.622807
6.532074
3.105899
-1.035991
-4.633752
-6.584035
-6.916454
-6.792685
-7.353380
-8.570977
-9.150580
-7.387125
-2.325392
5.284859
12.869975
17.273670
16.711576
11.898635
5.458179
0.254102
-1.960058
-0.978345
2.076654
5.422249
7.526824
7.759206
6.322800
3.677579
0.213000
-3.536159
-6.613290
-7.784129
-6.228670
-2.407816
1.857394
4.517139
4.565099
2.217919
-1.738682
-6.319395
-10.137346
-11.448981
-9.098091
-3.713879
2.261592
6.046204
6.113545
2.653468
-2.901990
-8.491410
-11.976362
-11.998288
-8.911749
-4.645084
-1.226864
0.489573
0.729391
0.058455
-0.902228
-1.408272
-0.800871
1.011156
3.339515
5.056786
5.275538
3.886634
1.533889
-0.922960
-2.979322
-4.644129
-6.052341
-6.908420
-6.461421
-4.194176
-0.455790
3.718905
7.255348
9.398647
9.760922
8.382417
5.827330
3.050996
0.839280
-0.783516
-2.451592
-4.649280
-7.023250
-8.545453
-8.435255
-6.939884
-5.127337
-3.944059
-3.560663
-3.471295
-2.934269
-1.287218
1.770231
5.695701
8.863632
9.286198
6.141774
0.845904
-3.666551
-5.181648
-3.881273
-1.827943
-0.963932
-1.645812
-2.813755
-3.190854
-2.271988
-0.487472
1.233805
2.046661
1.705667
0.790752
0.279514
0.644855
1.445676
2.006577
2.279225
2.577487
2.637714
1.714147
-0.125436
-1.390734
-0.349144
3.292439
7.973424
11.301639
11.402714
7.740114
1.342107
-5.578916
-10.766512
-13.296665
-13.922585
-13.741519
-12.474100
-8.557013
-1.193585
8.161507
16.613476
21.517191
21.194439
15.194557
4.989132
-5.889153
-13.389355
-15.283980
-12.263281
-6.872005
-1.490281
2.681388
5.157497
5.591641
4.061026
1.432923
-1.044818
-2.488127
-2.622229
-1.472081
0.764079
3.327119
4.805290
3.952626
0.721016
-3.534428
-6.912307
-8.220758
-7.602107
-6.129915
-5.037363
-5.256754
-7.136627
-10.041206
-12.164217
-11.184970
-5.750447
3.254794
12.937592
20.118773
22.826263
20.333794
12.778599
1.620797
-9.864781
-17.599831
-18.967358
-14.352268
-6.532308
1.321132
7.046103
9.605471
8.919508
5.943612
2.327815
-0.659608
-2.922383
-4.860986
-5.970926
-4.837546
-0.905930
4.255810
7.998218
8.728605
6.762970
3.367430
-0.552767
-4.723296
-8.790840
-11.753355
-12.427542
-10.623264
-7.540066
-4.521915
-1.609329
2.110118
6.922662
11.880936
15.613426
17.088465
15.574292
10.682075
3.077437
-5.181970
-11.604301
-14.654742
-14.163329
-10.658622
-4.772626
2.533664
9.582191
14.350590
15.294667
11.877565
4.857454
-3.601379
-10.526323
-13.528504
-12.067384
-7.534499
-2.125740
2.403338
5.282420
6.758087
7.721690
8.779684
9.383956
8.064492
3.831817
-2.467009
-8.227314
-10.814786
-9.553401
-6.106393
-2.916013
-1.355194
-1.220363
-1.476915
-1.255384
-0.507427
-0.037777
-0.802819
-2.968706
-5.550716
-7.005768
-6.352833
-3.867884
-0.658825
2.474616
5.604809
8.998588
12.044595
13.124765
10.815486
5.457886
-0.497652
-4.097883
-4.207925
-2.280969
-0.780547
-0.971343
-2.149512
-2.514885
-0.614964
3.546606
8.208152
10.617636
8.713910
2.720934
-4.682291
-9.987131
-11.140376
-8.670373
-4.796693
-1.512181
0.630501
2.189394
3.622821
4.652371
4.681430
3.354772
0.723782
-2.525962
-4.830364
-4.319165
-0.266196
5.829499
10.810583
11.914447
8.603714
2.610520
-3.615153
-8.454014
-11.345992
-12.022970
-10.152736
-5.896475
-0.489826
3.974724
5.479020
3.124132
-2.273335
-8.290616
-11.811225
-10.624680
-4.887878
2.824728
9.219304
12.310282
11.992525
9.163017
4.872485
0.194876
-3.810674
-6.439611
-7.562350
-7.429328
-6.363578
-4.715644
-2.985850
-1.694559
-0.953464
-0.259553
1.105282
3.369131
5.931998
7.724763
7.900996
6.236215
3.083816
-0.751062
-4.030857
-5.349039
-3.955104
-0.646502
2.275735
2.332777
-1.431320
-7.760554
-13.954086
-17.350826
-16.609400
-12.116955
-5.234328
2.883016
11.594660
20.100800
26.838173
29.624556
26.585873
17.533865
4.772002
-7.711670
-16.297108
-19.378630
-17.533655
-12.780462
-7.744337
-4.578859
-3.873007
-4.811688
-6.544061
-8.844164
-11.297964
-12.459154
-10.337425
-3.902762
5.777380
15.690467
22.101156
22.196299
15.578669
4.694471
-6.483601
-14.691761
-18.782736
-19.175312
-16.011572
-8.520121
3.237569
16.590525
27.042961
30.928368
27.203531
17.298925
4.378705
-7.271371
-13.511828
-12.242292
-4.631521
5.540347
14.206659
18.998652
19.440136
16.195292
10.622297
4.485441
-0.777977
-4.843978
-8.227602
-10.936621
-11.751085
-9.232516
-3.300065
4.266144
10.519174
12.639933
9.456485
2.349275
-5.293863
-9.635295
-7.963537
0.140211
12.351897
24.410664
32.019180
32.647533
26.297731
15.198281
2.686740
-8.165554
-15.340268
-18.015102
-16.571383
-12.320676
-6.822886
-1.491596
2.177980
2.578642
-1.199918
-8.457127
-16.808998
-22.822128
-23.074718
-15.737412
-1.962006
14.211569
27.552197
33.709175
30.676220
19.530602
4.207196
-10.007420
-18.595547
-19.446615
-13.523868
-4.381405
3.526253
7.140838
6.292074
3.262096
0.925415
0.987196
3.342672
6.680984
9.714712
12.020505
13.918068
15.750576
17.243919
17.358013
14.970383
10.143144
4.594047
0.520151
-1.036198
-0.662036
0.210531
0.505200
0.342428
0.870717
3.081880
6.640759
9.834068
10.686976
8.195800
2.771395
-3.906126
-9.393470
-11.728092
-10.879765
-8.835316
-7.922504
-8.973431
-11.019013
-12.416788
-11.963940
-9.192054
-4.423865
1.095241
5.707266
8.398106
9.218792
8.760719
7.499268
5.695440
3.714183
2.089540
1.094741
0.433953
-0.335293
-1.204199
-1.908580
-2.564400
-3.586564
-4.921078
-5.838111
-5.751343
-4.926535
-4.023921
-3.089284
-1.353827
1.959505
6.822683
12.312860
17.030525
19.497616
18.556198
14.035688
7.204224
0.279858
-4.856212
-7.709758
-8.850777
-8.790813
-7.865848
-6.783340
-6.229468
-6.106087
-5.637821
-3.997414
-0.812129
3.515160
7.680613
9.703988
7.786258
1.539666
-7.472346
-16.517532
-23.218493
-26.567219
-26.686172
-24.062622
-19.508839
-14.599312
-11.348434
-11.123326
-13.754103
-17.502052
-20.182022
-20.714340
-19.578234
-17.815134
-15.857285
-13.471762
-10.543734
-7.443398
-4.807424
-3.366818
-3.715146
-5.789563
-8.581087
-10.619143
-10.884021
-9.164193
-5.643816
-0.577293
5.534466
11.757805
16.906235
19.926966
20.208836
17.740734
13.149994
7.691323
3.019786
0.365901
-0.206424
0.683402
2.656019
5.453837
8.367568
10.386410
10.728610
9.192082
6.235049
2.571055
-1.372732
-5.480696
-9.580025
-13.039625
-14.458898
-12.031761
-5.048189
4.925691
14.932721
22.440704
26.007202
25.005360
19.565458
10.773633
0.626175
-8.527918
-14.867756
-17.676914
-17.347618
-15.101518
-12.515258
-10.868159
-10.701467
-11.695901
-12.611137
-11.592428
-7.254800
0.114961
8.363596
14.437885
15.824741
11.810180
3.887308
-5.069420
-12.243190
-16.056995
-16.721718
-15.838872
-15.273811
-16.195646
-18.633469
-21.431652
-22.723684
-20.962519
-16.037167
-9.495902
-3.542729
0.130815
0.869867
-0.722030
-2.791401
-2.948878
0.457456
7.238326
15.091399
20.655094
21.545956
17.824305
11.751331
6.337486
3.747912
4.339255
6.915360
9.987107
12.726688
14.760144
15.612712
14.857024
12.522963
9.005880
4.808090
0.405601
-3.874203
-7.720878
-10.612017
-11.941119
-11.280571
-8.634316
-4.834799
-1.620798
-0.916429
-3.652309
-8.880761
-13.975034
-15.971508
-12.954646
-4.737513
6.826444
17.995663
24.520445
23.783266
15.991101
3.776691
-9.038082
-18.928408
-23.987045
-24.393288
-21.801308
-18.107285
-14.375488
-10.598979
-6.340579
-1.746156
1.924586
2.934717
0.341849
-5.295287
-12.084300
-17.513630
-19.553356
-17.583099
-12.411239
-5.718298
0.316873
3.470736
2.587855
-1.401278
-5.973914
-8.766215
-8.770559
-6.135776
-1.562564
3.752904
8.163937
10.281768
9.724365
7.193865
4.100952
1.929449
1.381798
1.967877
2.581827
2.514105
1.926490
1.465743
1.524204
1.896201
2.046539
1.681153
1.167910
1.319452
2.660433
5.097431
8.314598
12.058926
15.757381
18.161242
17.915405
14.756081
10.055223
5.971518
4.028766
4.419079
6.199782
7.830955
7.810989
5.301657
0.387933
-6.199191
-13.547320
-20.877554
-27.565390
-32.848583
-35.705013
-35.199867
-30.900965
-23.182169
-13.417713
-3.693512
4.136904
9.464240
13.104501
16.366880
19.811918
22.865841
24.341009
23.060646
18.484598
11.428822
4.148419
-0.671162
-1.207196
2.878046
10.499917
19.522320
27.314053
31.415539
30.007696
22.217022
8.701564
-7.947082
-23.846931
-35.067406
-38.626965
-33.328423
-20.474606
-3.681955
12.612602
24.967300
31.791010
33.085819
29.730808
22.768776
12.989736
1.191214
-11.111638
-21.496656
-27.364239
-27.022570
-20.567940
-10.082477
1.293148
10.838269
17.094450
19.883095
19.885792
17.833584
13.892561
8.096584
1.182303
-5.514579
-10.874042
-14.238134
-14.984025
-12.587798
-7.479344
-1.412764
3.395751
5.391264
4.180317
0.619298
-3.471113
-6.059011
-5.662381
-1.937699
3.916582
9.482840
12.304470
11.112100
6.338284
-0.178650
-5.974443
-8.811561
-7.423156
-2.042098
5.606793
12.948348
17.505625
17.872589
14.313706
8.398080
1.914159
-3.783900
-7.699009
-9.268519
-8.773617
-7.272177
-5.898272
-5.193297
-4.957017
-4.582162
-3.406199
-0.794906
3.653695
9.596177
15.743383
20.382507
22.175640
20.644342
16.205053
9.991626
3.691346
-0.818731
-2.360960
-1.289197
0.814247
2.369132
2.574003
1.173849
-1.964029
-6.665218
-11.983050
-16.321030
-18.155548
-16.592405
-11.486640
-3.495222
5.820653
14.197906
19.413420
20.245842
17.002243
11.336851
5.626554
2.079361
1.811311
4.518237
8.915858
13.391357
16.484602
17.257313
15.594635
12.305331
8.822819
6.527655
6.134970
7.521572
9.869924
11.966015
12.663544
11.347916
8.099485
3.473833
-1.828063
-7.032362
-11.153519
-13.174957
-12.817316
-11.232160
-10.627687
-12.765848
-17.518932
-22.740004
-25.411554
-23.156614
-15.490444
-4.323164
6.830881
14.652591
17.563379
15.960943
11.310243
5.152667
-1.222356
-6.590526
-9.696727
-9.700023
-6.913395
-2.981725
-0.099225
0.130436
-2.597570
-7.261346
-12.074051
-15.398666
-16.486992
-15.522139
-13.095783
-9.746517
-5.812574
-1.408733
3.550601
9.218357
15.524066
21.850353
26.998447
29.616905
28.919556
25.171049
19.533781
13.476194
8.067469
3.461208
-0.920862
-5.562282
-10.149113
-13.522410
-14.324134
-11.920135
-6.835750
-0.403359
5.912988
11.083182
14.857664
17.688257
20.183006
22.667477
25.239466
27.814398
29.816635
30.024591
27.018383
20.033501
9.626007
-2.319792
-13.219292
-20.778013
-23.927408
-23.086601
-19.516947
-14.422467
-8.657453
-2.998607
1.739801
4.951609
6.400111
6.056621
3.832330
-0.517399
-7.051757
-14.958525
-22.385178
-27.266672
-28.414848
-26.038149
-21.448208
-16.200788
-11.391653
-7.612000
-5.329661
-5.110448
-7.276058
-11.270798
-15.536123
-18.228567
-18.222914
-15.656787
-11.787496
-8.267432
-6.150254
-5.380760
-5.201091
-4.808631
-3.613372
-1.356150
1.746494
5.165625
8.506010
11.749457
14.975051
17.856030
19.564987
19.154087
15.974508
10.053009
2.534431
-4.241251
-7.603433
-6.066094
-0.356496
6.977923
13.166882
16.758835
17.962736
17.728523
16.549292
14.117752
10.070731
4.996104
0.631465
-1.139263
0.205553
3.158868
5.104905
4.070294
-0.176490
-6.251073
-11.919386
-14.981819
-14.228777
-10.157712
-4.853945
-0.927836
-0.150720
-2.715297
-7.527756
-13.046753
-17.935888
-21.295347
-22.679150
-22.082096
-19.897114
-16.763708
-13.280156
-9.848719
-6.916954
-5.195305
-5.305910
-7.209629
-10.177565
-13.330045
-16.044338
-17.858082
-18.206955
-16.502298
-12.586988
-6.980359
-0.557173
5.832560
11.381193
15.300317
16.987297
16.162918
12.949051
8.016872
2.598634
-1.935853
-4.740785
-5.819646
-5.706219
-4.818974
-3.139854
-0.503723
2.849874
6.101393
8.367225
9.415948
9.780327
10.187771
10.984156
12.018675
12.798389
12.639529
10.941650
7.686304
3.766956
0.630095
-0.667475
-0.159359
1.231024
2.498153
3.086910
2.755823
1.298696
-1.311508
-4.588518
-7.477587
-8.566045
-6.454430
-0.429223
8.797197
19.052591
27.686266
32.819603
33.900883
31.446272
26.527508
20.418333
14.395677
9.509391
6.275646
4.572852
3.963063
4.021948
4.231288
3.985302
3.247613
2.990603
4.475006
8.093191
13.063618
17.999332
21.457418
22.089825
18.852718
11.560295
1.275931
-9.916044
-19.505898
-25.194681
-25.563881
-20.605364
-11.795153
-1.719440
6.716792
11.411717
11.754770
8.357115
2.429453
-4.577833
-11.074376
-15.450101
-16.619349
-14.764446
-11.334835
-8.092641
-6.144067
-5.658057
-6.072697
-6.468206
-6.025237
-4.435999
-2.137057
-0.206780
0.312766
-0.658956
-2.109451
-2.956195
-3.058505
-3.067245
-3.648126
-5.192769
-7.893824
-11.527280
-15.122179
-17.167856
-16.544109
-13.494453
-9.547635
-6.266698
-4.114038
-2.498158
-0.625772
1.805128
4.556202
7.255422
9.673074
11.666173
13.090222
13.760882
13.390242
11.626196
8.355375
4.137459
0.300017
-1.583705
-0.514540
3.339398
8.589645
13.235385
15.704974
15.636367
13.773332
11.098806
8.105855
4.950401
2.007408
-0.164363
-1.336037
-1.783036
-2.002109
-2.354139
-2.851050
-3.187613
-2.984249
-2.030026
-0.376890
1.645044
3.432446
4.324790
4.121529
3.442094
3.363490
4.575715
6.871063
9.245245
10.370307
9.331968
6.267807
2.278124
-1.281974
-3.508190
-4.329983
-4.381050
-4.393888
-4.616615
-4.695047
-4.027296
-2.263688
0.439654
3.543083
6.427842
8.602672
9.695695
9.353494
7.297332
3.652720
-0.760046
-4.662126
-7.024649
-7.622419
-7.011623
-6.072219
-5.454679
-5.301459
-5.457352
-5.876496
-6.755854
-8.218295
-9.872214
-10.871965
-10.399463
-7.940866
-3.549084
1.629688
5.492878
6.254847
3.620007
-1.211098
-6.381979
-10.329806
-12.450546
-13.204055
-13.464063
-13.611108
-13.288674
-11.890926
-9.101354
-5.194536
-1.067335
2.193108
3.934917
4.159000
3.307764
2.002211
0.849333
0.224425
0.095008
0.128581
0.038808
-0.225161
-0.620185
-1.227849
-2.307714
-4.189486
