EVENT_NAME: CENTRAL_ITALY
EVENT_ID: EMSC-20161026_0000095
EVENT_DATE_YYYYMMDD: 20161026
EVENT_TIME_HHMMSS: 191806
EVENT_LATITUDE_DEGREE: 42.9087
EVENT_LONGITUDE_DEGREE: 13.1288
EVENT_DEPTH_KM: 7.5
HYPOCENTER_REFERENCE: INGV-CNT_Seismic_Bulletin
MAGNITUDE_W: 5.9
MAGNITUDE_W_REFERENCE: INGV-webservice
MAGNITUDE_L: 5.9
MAGNITUDE_L_REFERENCE: INGV-CNT_Seismic_Bulletin
FOCAL_MECHANISM: NF
NETWORK: IT
STATION_CODE: ACC
STATION_NAME: Accumoli
STATION_LATITUDE_DEGREE: 42.695999
STATION_LONGITUDE_DEGREE: 13.242000
STATION_ELEVATION_M: 922
LOCATION: 
SENSOR_DEPTH_M: 
VS30_M/S: 
SITE_CLASSIFICATION_EC8: A*
MORPHOLOGIC_CLASSIFICATION: 
EPICENTRAL_DISTANCE_KM: 25.4
EARTHQUAKE_BACKAZIMUTH_DEGREE: 338.6
DATE_TIME_FIRST_SAMPLE_YYYYMMDD_HHMMSS: 20161026_191805.089
DATE_TIME_FIRST_SAMPLE_PRECISION: milliseconds
SAMPLING_INTERVAL_S: 0.005000
NDATA: 12982
DURATION_S: 64.910
STREAM: HGN
UNITS: cm/s^2
INSTRUMENT: sensor = Unknown [Unknown] | digitizer = Unknown [Unknown]
INSTRUMENT_ANALOG/DIGITAL: D
INSTRUMENTAL_FREQUENCY_HZ: 
INSTRUMENTAL_DAMPING: 
FULL_SCALE_G: 
N_BIT_DIGITAL_CONVERTER: 
PGA_CM/S^2: -49.272947
TIME_PGA_S: 14.635000
BASELINE_CORRECTION: BASELINE REMOVED
FILTER_TYPE: BUTTERWORTH
FILTER_ORDER: 2
LOW_CUT_FREQUENCY_HZ: 0.040
HIGH_CUT_FREQUENCY_HZ: 40.000
LATE/NORMAL_TRIGGERED: NT
DATABASE_VERSION: DYNA 1.0
HEADER_FORMAT: DYNA 1.2
DATA_TYPE: ACCELERATION
PROCESSING: manual (Paolucci et al., 2011)
DATA_TIMESTAMP_YYYYMMDD_HHMMSS: 20161028_130247.609
DATA_LICENSE: CC-BY3_0-IT (http://creativecommons.org/licenses/by/3.0/deed.en)
DATA_CITATION: ESM working group (2015), European Strong-Motion database, version 0.1, Network Activity 3: Networking acceleration networks and SM data users. Project NERA (www.nera-eu.org)
DATA_CREATOR: ESM working group
ORIGINAL_DATA_MEDIATOR_CITATION: Ufficio Rischio Sismico e Vulcanico del Dipartimento della Protezione Civile (http://www.protezionecivile.gov.it/)
ORIGINAL_DATA_MEDIATOR: Rete Accelerometrica Nazionale - RAN Download (http://www.mot1.it/randownload/)
ORIGINAL_DATA_CREATOR_CITATION: Italian Strong Motion Network, Italian Civil Protection Department http://www.protezionecivile.gov.it
ORIGINAL_DATA_CREATOR: network: IT (Italian Strong Motion Network); owner: Dipartimento Della Protezione Civile
USER1: /home/dyna/processing-itaca/processing.py /var/www/processing//tmp/dyna_ingv//IT.ACC..HGE.D.20161026.191806.X.ACC.ASC /var/www/processing//tmp/dyna_ingv//IT.ACC..HGN.D.20161026.191806.X.ACC.ASC /var/www/processing//tmp/dyna_ingv//IT.ACC..HGZ.D.20161026.191806.X.ACC.ASC --tmp /var/www/processing//tmp/dyna_ingv/ --le 0.040 --he 40.000 --ln 0.040 --hn 40.000 --lz 0.040 --hz 40.000 --fo 2 --ca 0 --cz 40 --ta 5 --tz 5 --mf 1 --rf 0 --tr NT
USER2: 
USER3: 
USER4: 
USER5: 
[...]
0.663893
0.561770
0.452258
0.309985
0.145439
0.039614
0.023270
-0.013892
-0.229753
-0.650194
-1.105986
-1.360547
-1.293712
-0.939696
-0.382206
0.288073
0.913456
1.297069
1.339152
1.072697
0.554900
-0.193210
-1.095563
-1.912936
-2.314447
-2.098597
-1.315592
-0.195530
0.962710
1.846338
2.196772
1.914796
1.111192
0.049527
-0.959856
-1.631916
-1.751700
-1.247737
-0.257474
0.909380
1.869667
2.229124
1.719374
0.469701
-0.929690
-1.794805
-1.775474
-0.926295
0.488695
2.117986
3.512424
4.213630
3.966519
2.803491
0.969423
-1.083773
-2.678110
-3.159003
-2.302499
-0.456089
1.654651
3.245308
3.774806
3.101087
1.429768
-0.834046
-3.176327
-4.990023
-5.670059
-4.864400
-2.695116
0.243958
3.084992
4.968029
5.330472
4.147100
1.984011
-0.323749
-2.184028
-3.435324
-4.133436
-4.326744
-4.032924
-3.332765
-2.425970
-1.541146
-0.774435
-0.074271
0.595015
1.157609
1.541250
1.773177
1.879185
1.852271
1.825625
2.057618
2.590524
3.076956
3.060387
2.340652
1.047746
-0.520197
-2.091663
-3.492301
-4.550539
-5.031018
-4.768391
-3.832487
-2.467319
-0.908046
0.656921
2.029993
3.039737
3.613761
3.787194
3.662717
3.314245
2.689164
1.678675
0.338543
-0.993086
-1.832502
-1.839641
-1.033057
0.206159
1.290419
1.671908
1.106581
-0.258145
-2.026621
-3.731117
-4.899636
-5.091373
-4.077501
-2.103419
0.136139
1.908208
2.848606
3.034358
2.798000
2.504721
2.365124
2.324815
2.153280
1.652220
0.735150
-0.572024
-2.027280
-3.113536
-3.246823
-2.115353
0.130642
2.842538
4.958348
5.409703
3.748668
0.440197
-3.394890
-6.483589
-7.907307
-7.385214
-5.154261
-1.774988
1.896431
4.889236
6.513249
6.612528
5.519114
3.779201
1.851965
0.070653
-1.201696
-1.653886
-1.310424
-0.493605
0.522222
1.632570
2.729587
3.587530
3.894472
3.278038
1.438402
-1.434308
-4.439194
-6.471075
-6.936593
-5.913997
-3.886735
-1.517796
0.537335
1.896408
2.567203
2.782495
2.801216
2.817193
2.921881
3.148879
3.505847
3.835122
3.712718
2.685776
0.682245
-1.833453
-4.088761
-5.396523
-5.472890
-4.505744
-2.927203
-1.206983
0.128348
0.648024
0.387612
-0.202242
-0.707611
-0.919599
-0.664656
0.268743
1.993635
4.303854
6.524952
7.694661
7.107927
4.749755
1.220679
-2.622941
-5.934554
-8.003559
-8.387555
-7.066026
-4.454037
-1.262143
1.667283
3.578402
4.061073
3.166076
1.327049
-0.802238
-2.531685
-3.344002
-3.041034
-1.706989
0.358773
2.579677
4.185718
4.611316
3.752013
1.789143
-0.960103
-3.894580
-6.168664
-7.127060
-6.570154
-4.587902
-1.443976
2.259001
5.600475
7.807554
8.644475
8.256224
6.826124
4.577142
1.933387
-0.599280
-2.747282
-4.564646
-6.115011
-7.092398
-7.007085
-5.790072
-3.931369
-2.006985
-0.365067
0.746130
1.120895
0.762571
-0.178195
-1.632940
-3.421055
-4.883029
-5.225592
-4.315538
-2.764489
-1.264804
-0.153880
0.499297
0.716478
0.569246
0.190188
-0.272407
-0.686279
-0.874170
-0.667029
-0.149824
0.294368
0.315370
-0.111893
-0.678758
-0.870180
-0.217695
1.391269
3.625288
5.841189
7.345717
7.753792
7.124777
5.743238
3.897094
1.864738
-0.051236
-1.643958
-2.943331
-4.038774
-4.765465
-4.780492
-3.901303
-2.179176
0.233423
2.997988
5.439481
6.843573
6.998667
6.269216
5.146315
3.861218
2.362689
0.477251
-1.951992
-4.940945
-8.207188
-11.104880
-12.824137
-12.801602
-10.982290
-7.642011
-3.144137
1.863047
6.260950
8.941748
9.459304
8.079744
5.476657
2.522955
0.041573
-1.522811
-2.215823
-2.377839
-2.379167
-2.511335
-2.914899
-3.405629
-3.433437
-2.395619
-0.168813
2.601005
4.862524
5.888399
5.626183
4.445870
2.728180
0.709832
-1.422282
-3.365449
-4.640378
-4.801376
-3.736034
-1.685558
0.887465
3.323794
4.912607
5.257387
4.424384
2.687052
0.350867
-2.066520
-3.803893
-4.298010
-3.588164
-2.194712
-0.690286
0.548087
1.344758
1.792911
2.338890
3.475149
5.158816
6.725882
7.520619
7.386716
6.446671
4.711836
2.053865
-1.586565
-5.927084
-10.166679
-13.143617
-13.793068
-11.627577
-6.965926
-0.811511
5.500603
10.765537
14.228510
15.455161
14.145949
10.461277
5.309007
-0.035340
-4.472505
-7.287131
-8.177518
-7.353494
-5.610755
-3.966174
-2.978724
-2.506402
-2.092781
-1.423473
-0.389736
1.076165
2.961295
4.964158
6.516456
7.098290
6.482391
4.714631
2.097245
-0.747015
-3.093855
-4.554902
-5.177149
-5.152124
-4.561190
-3.365537
-1.584890
0.563213
2.752524
4.696174
6.122936
6.701570
6.198799
4.750433
2.784913
0.678255
-1.283960
-2.692203
-3.222253
-3.115068
-2.997772
-3.160661
-3.306857
-3.005183
-2.217429
-1.344471
-0.807000
-0.677081
-0.761505
-0.898327
-1.012194
-1.010802
-0.807431
-0.311712
0.676748
2.251185
3.981431
5.111612
5.240138
4.468799
2.989998
0.907330
-1.595235
-4.176639
-6.438410
-7.969752
-8.319769
-7.131180
-4.475217
-1.027851
2.283681
4.888880
6.656354
7.440239
6.947121
5.106611
2.234337
-1.185538
-4.511481
-6.849290
-7.457277
-6.262972
-3.850370
-1.099711
1.213764
2.664699
3.072073
2.299443
0.388657
-2.183358
-4.651888
-6.309685
-6.546680
-4.863035
-1.244181
3.514140
8.088865
11.320693
12.645365
12.093933
10.189085
7.791062
5.719256
4.328795
3.450986
2.781525
2.312763
2.282174
2.685722
3.048012
2.750730
1.441106
-0.787968
-3.352333
-5.446564
-6.652923
-7.195139
-7.474026
-7.510708
-6.882973
-5.080082
-2.021225
1.579070
4.448877
5.620004
5.145680
3.874122
2.534566
1.169794
-0.640900
-3.173091
-6.076494
-8.383320
-9.093276
-7.911485
-5.466066
-2.826730
-0.868574
0.040560
0.018997
-0.561662
-1.292102
-1.774770
-1.666074
-0.795971
0.707481
2.362949
3.532263
3.812992
3.162643
1.664388
-0.558324
-3.098443
-5.185079
-6.057970
-5.393963
-3.406133
-0.676122
2.160608
4.704068
6.766323
8.044961
7.997561
6.273251
3.241241
-0.034252
-2.353852
-2.989742
-1.975373
-0.054022
1.670411
2.342931
1.859967
0.763928
-0.359813
-1.268136
-1.847970
-1.760111
-0.569729
1.760765
4.696408
7.427283
9.170854
9.345492
7.856213
5.278236
2.518055
0.247252
-1.247995
-1.908744
-1.904818
-1.596257
-1.236959
-0.891708
-0.701088
-0.904975
-1.488739
-2.030704
-2.049986
-1.429992
-0.408261
0.722411
1.807624
2.898470
4.136153
5.390675
6.114350
5.759656
4.301916
2.226250
0.026382
-2.158169
-4.407118
-6.668355
-8.599847
-9.668655
-9.387662
-7.612508
-4.670392
-1.073054
2.828071
6.735792
10.095918
12.055100
11.808970
9.127056
4.551683
-0.804314
-5.499386
-8.234226
-8.673484
-7.713522
-6.705954
-6.567992
-7.528014
-9.199021
-10.649549
-10.680479
-8.492356
-4.245915
1.158247
6.753448
11.705589
15.043709
15.750056
13.316560
8.134014
1.563099
-4.284650
-7.455013
-7.331937
-4.780111
-1.281654
1.737950
3.159506
2.313703
-0.973334
-6.317739
-12.663754
-18.309834
-21.353626
-20.633142
-16.422140
-10.108548
-3.193722
3.379608
8.976885
12.789220
14.097157
12.827852
9.556903
5.234143
1.122094
-1.461012
-1.920389
-0.805938
0.757758
1.697091
1.033583
-1.873277
-6.647664
-11.748638
-15.261725
-15.839683
-12.989188
-6.873898
1.753894
11.473290
20.470438
27.160963
30.445354
29.630125
24.733755
16.798788
7.601542
-0.743971
-6.200554
-7.722317
-5.953982
-2.702661
0.186486
1.386729
0.220783
-3.035397
-7.018255
-9.841539
-9.981534
-6.836792
-0.779547
7.150652
15.460420
22.331415
26.192522
26.387356
23.280462
17.939623
11.696332
5.716025
0.749744
-2.814161
-4.781274
-5.119270
-4.064805
-2.248846
-0.584858
0.214693
0.115813
-0.285847
-0.307271
0.385310
1.805739
3.905646
6.705894
10.193014
14.080377
17.616354
19.687513
19.381025
16.641008
12.360763
7.880646
4.347104
2.240182
1.325399
1.022648
0.799914
0.383426
-0.279918
-1.317780
-3.042555
-5.562582
-8.456004
-11.108404
-13.240498
-14.881963
-16.023754
-16.447474
-15.831892
-14.080973
-11.439174
-8.105855
-4.007822
0.687998
5.103275
8.203924
9.723920
10.174269
10.129684
9.863080
9.493687
9.067429
8.397594
7.014179
4.448564
0.617048
-4.079058
-8.952907
-13.228578
-16.079645
-16.801105
-15.276034
-12.090957
-8.005846
-3.502346
1.129033
5.316441
8.095519
8.898212
7.965003
5.606723
1.951481
-2.389124
-6.334070
-9.112825
-10.631178
-11.244778
-11.342555
-11.128939
-10.771106
-10.370687
-9.617796
-7.915957
-5.044465
-1.457516
2.053467
4.768770
6.175879
5.952909
3.999239
0.434880
-4.433251
-9.916607
-15.069549
-19.407988
-23.005083
-25.916800
-28.158693
-29.897806
-31.085932
-31.303324
-30.580751
-29.826410
-29.681932
-29.870539
-30.059271
-30.023375
-28.996895
-25.988272
-20.691828
-13.672131
-5.727126
2.587018
10.618304
17.215231
21.216866
22.387062
21.481586
19.288139
16.033306
11.744815
6.573275
0.719393
-5.533518
-11.809662
-17.787245
-23.153481
-27.525925
-30.553007
-31.812231
-30.672358
-26.627420
-19.699839
-10.554555
-0.705205
7.607062
12.553016
13.533035
10.741697
5.015913
-1.837162
-7.535827
-10.252815
-9.203580
-4.898933
1.242840
7.767192
13.662929
18.381941
21.765635
23.805399
24.432838
23.665833
21.815950
19.428457
17.072172
15.081317
13.397460
11.728987
9.853997
7.746271
5.557125
3.618891
2.347892
1.985608
2.473456
3.488022
4.450266
4.753400
4.150470
2.700166
0.474116
-2.443947
-5.976933
-10.193850
-15.161711
-20.614689
-25.822952
-29.843801
-32.020760
-32.082310
-29.763350
-24.959148
-18.262096
-10.563918
-2.335912
6.061124
13.885105
20.289619
24.763710
27.378340
28.823910
29.970627
31.259190
32.505207
33.228252
33.226231
32.803928
32.466408
32.487698
32.659840
32.581558
32.198013
31.692659
31.174452
30.789228
30.590414
30.179955
29.005726
27.016998
24.671158
22.367271
20.131592
17.905369
15.877591
14.286976
13.166455
12.467676
12.059560
11.454148
9.924412
7.117659
3.473108
0.125598
-1.635680
-1.207882
0.877811
3.305906
4.572338
3.625967
0.468319
-4.015380
-8.790365
-13.038350
-16.241697
-18.294119
-19.448416
-20.106710
-20.431856
-20.035669
-18.412607
-15.600104
-12.076018
-8.300939
-4.551900
-1.003153
2.113832
4.560479
6.339809
7.707253
8.958840
10.292099
11.743235
13.155419
14.216074
14.607453
14.239560
13.406503
12.708930
12.724647
13.656438
15.231168
16.801186
17.516020
16.643726
13.910753
9.510014
3.953132
-1.931895
-7.187388
-11.174398
-13.776387
-15.255229
-16.218952
-17.785940
-21.167713
-26.601006
-33.062256
-39.200184
-44.038353
-46.900059
-47.473618
-45.947071
-42.591358
-37.418041
-30.440205
-22.005159
-12.793907
-3.575580
5.010681
12.437236
18.187572
21.806065
23.126589
22.471140
20.422405
17.319496
13.203935
8.250903
2.888618
-2.602841
-8.230687
-13.857363
-18.970554
-22.985756
-25.494390
-26.323730
-25.610434
-23.646460
-20.598558
-16.590773
-11.964550
-7.194178
-2.706409
1.003184
3.363948
4.013415
2.945694
0.374187
-3.503526
-8.599374
-14.754208
-21.248562
-26.517874
-28.849546
-27.550817
-23.387745
-18.088120
-13.470099
-10.712049
-9.985308
-10.546811
-11.297278
-11.451878
-10.784280
-9.360302
-7.231297
-4.387038
-0.841087
3.229824
7.365010
10.880371
13.016258
13.136495
11.059146
7.174986
2.217231
-2.948913
-7.446000
-10.491413
-11.453459
-9.943818
-6.000078
-0.196866
6.470403
12.722945
17.115562
18.592665
17.068359
13.014723
6.795767
-0.969467
-8.911546
-15.388245
-19.190533
-19.856565
-17.824713
-14.280532
-10.523647
-7.353143
-4.998274
-3.387791
-2.332727
-1.638469
-1.204838
-1.089168
-1.555347
-2.959052
-5.447290
-8.711882
-11.958986
-14.145787
-14.385491
-12.272794
-7.901742
-1.703503
5.533963
12.657972
18.526102
22.466343
24.348345
24.315027
22.678392
20.100735
17.476444
15.441770
14.196185
13.664559
13.565713
13.547422
13.475048
13.553276
14.252446
16.115726
19.429420
23.945259
28.866858
33.145733
35.952400
36.946320
36.116756
33.550560
29.530506
24.669800
19.689762
15.075699
10.909744
6.924174
2.774131
-1.717162
-6.592514
-11.810058
-17.060141
-21.707636
-25.111338
-26.937380
-27.123459
-25.687260
-22.739077
-18.629553
-13.866654
-8.905757
-4.193711
-0.268953
2.451303
3.884880
4.107909
3.171977
1.324801
-0.821747
-2.673388
-4.139669
-5.540478
-7.090049
-8.608706
-9.677040
-9.951999
-9.335920
-7.938815
-5.991025
-3.788064
-1.557281
0.735898
3.364934
6.557920
10.276727
14.159451
17.531631
19.580173
19.703751
17.792427
14.202315
9.521085
4.387077
-0.589022
-4.831781
-7.749988
-8.809062
-7.881588
-5.525416
-2.703549
-0.210081
1.649883
3.101946
4.726860
7.069520
10.248948
13.762354
16.642689
17.988335
17.421553
15.041343
11.133585
6.177436
0.977739
-3.590354
-6.979611
-8.944646
-9.283480
-7.912271
-5.166775
-1.712341
1.913467
5.424502
8.575543
11.210347
13.422405
15.366500
16.833933
17.051088
15.082410
10.522160
3.627391
-5.141001
-15.329342
-26.142681
-36.234322
-44.121609
-48.677471
-49.272945
-45.791111
-38.603981
-28.564505
-17.022318
-5.639116
4.071822
11.249935
15.834499
18.285110
19.209261
19.073559
18.039095
15.990920
12.738314
8.178515
2.296105
-4.746176
-12.347042
-19.418083
-24.743944
-27.522312
-27.695011
-25.800514
-22.409657
-17.702654
-11.809567
-5.450282
0.173628
4.009367
5.455962
4.493358
1.825298
-1.441547
-4.296976
-5.824419
-5.230880
-2.390698
1.869496
6.192489
9.259530
10.095788
8.302452
4.241139
-1.210082
-7.204316
-13.111263
-18.268270
-21.868809
-23.272926
-22.437025
-19.918676
-16.424824
-12.541264
-8.814319
-5.680157
-3.231171
-1.288430
0.286059
1.496019
2.342993
2.853755
2.973863
2.550938
1.462108
-0.275447
-2.490400
-4.865185
-6.987994
-8.465859
-8.941249
-8.014926
-5.357081
-1.014809
4.475743
10.216061
15.089215
18.081282
18.791759
17.602575
15.272220
12.475443
9.760368
7.664530
6.579729
6.574156
7.525874
9.250407
11.298944
12.867176
13.122657
11.618181
8.428383
3.898576
-1.648624
-7.807367
-13.860123
-18.907881
-22.251511
-23.640070
-23.221354
-21.347763
-18.444086
-15.010039
-11.638350
-8.825422
-6.778487
-5.502852
-4.874839
-4.590397
-4.286619
-3.717172
-2.722107
-1.193641
0.805041
3.014587
5.158561
7.103829
8.901748
10.779602
13.010684
15.715305
18.847473
22.264101
25.681526
28.695580
30.895760
31.881750
31.260517
28.790424
24.557245
18.938044
12.382682
5.318367
-1.744372
-8.138287
-13.132669
-16.133226
-16.856403
-15.387969
-12.173958
-7.976553
-3.681020
0.055559
3.016717
5.270881
6.908816
8.023959
8.780431
9.342214
9.821751
10.282231
10.650038
10.649482
9.918980
8.268257
5.925893
3.572853
2.053055
1.922204
3.191312
5.501759
8.469084
11.722712
14.720804
16.770996
17.309952
16.144238
13.469888
9.781302
5.874951
2.812478
1.427403
1.683502
2.799372
4.017375
5.014685
5.776688
6.470145
7.374352
8.658769
10.183689
11.542477
12.251218
11.878782
10.071150
6.644219
1.782065
-3.925153
-9.643246
-14.409041
-17.302874
-17.742434
-15.573666
-11.116243
-5.324128
0.455366
5.094213
7.993089
8.965708
8.064326
5.529496
1.759883
-2.727770
-7.284228
-11.226625
-14.013428
-15.216504
-14.563038
-12.195797
-8.566283
-3.986850
1.408387
7.343030
13.345161
18.935036
23.638979
26.884193
28.144817
27.269037
24.523842
20.280077
14.760212
8.220443
1.362130
-4.726623
-9.243204
-12.126873
-13.743901
-14.319462
-13.814783
-12.246912
-9.975471
-7.658734
-5.932895
-5.001735
-4.509600
-3.940322
-3.073431
-2.059333
-1.371324
-1.700274
-3.588999
-7.118489
-11.949247
-17.476322
-22.872629
-27.137657
-29.353638
-29.028728
-26.160769
-21.138784
-14.832085
-8.561847
-3.592243
-0.552566
0.644736
0.479114
-0.499319
-1.849985
-3.301154
-4.736126
-6.128224
-7.378306
-8.229733
-8.482633
-8.246746
-7.833687
-7.431740
-6.928412
-5.999845
-4.383115
-1.944940
1.506339
6.051976
11.292090
16.540951
21.290123
25.285351
28.374500
30.452164
31.463942
31.333864
29.920801
27.162249
23.212305
18.409723
13.216612
8.149305
3.672848
0.195033
-1.905884
-2.395083
-1.299975
1.110060
4.415730
8.132904
11.729601
14.657673
16.477610
16.970245
16.226028
14.617745
12.545053
10.279928
7.992041
5.623283
2.887701
-0.306193
-3.597176
-6.426217
-8.363240
-9.268860
-9.359204
-9.044851
-8.575190
-7.900020
-6.915136
-5.655057
-4.117924
-2.182407
0.137977
2.665882
5.277711
7.834042
10.045284
11.633462
12.445896
12.371916
11.407713
9.780998
7.806121
5.700499
3.638783
1.815110
0.335143
-0.846171
-1.806081
-2.526719
-2.892545
-2.788475
-2.192904
-1.181355
0.039659
1.061545
1.442610
0.999459
-0.200400
-1.964910
-3.918741
-5.576803
-6.628252
-6.997298
-6.755393
-6.200043
-5.814113
-5.933683
-6.562028
-7.527176
-8.677118
-9.854656
-10.755874
-10.963622
-10.163671
-8.345085
-5.882475
-3.396947
-1.462810
-0.394792
-0.183684
-0.561901
-1.128649
-1.438367
-1.088098
0.209099
2.566588
5.726881
8.909285
11.081400
11.395090
9.380385
5.044885
-1.077940
-8.133176
-15.195934
-21.406710
-26.186266
-29.235636
-30.173132
-28.667253
-25.152719
-20.857904
-16.913074
-13.821361
-11.665291
-10.244011
-9.105598
-7.857114
-6.420119
-4.949367
-3.648088
-2.698194
-2.310649
-2.730594
-4.130192
-6.543594
-9.774139
-13.265481
-16.278133
-18.260378
-18.977701
-18.424749
-16.749739
-14.235876
-11.316389
-8.610275
-6.835679
-6.449596
-7.259894
-8.441586
-8.948211
-8.018679
-5.566427
-2.198761
1.139756
3.507019
4.217610
3.178556
0.948296
-1.699144
-4.078383
-5.472943
-5.199628
-3.081241
0.252964
3.667750
6.132490
7.039710
6.154239
3.553411
-0.384510
-5.026264
-9.505576
-12.819518
-14.140812
-13.115849
-9.852498
-4.828361
1.102415
6.944106
11.956849
15.697339
17.806702
18.039598
16.475384
13.531161
9.802892
5.959001
2.653679
0.353203
-0.837612
-1.211248
-1.310120
-1.616899
-2.298919
-3.261960
-4.372915
-5.523880
-6.542929
-7.195627
-7.329080
-6.972357
-6.320238
-5.734915
-5.733469
-6.745951
-8.774149
-11.355435
-13.848619
-15.714148
-16.618006
-16.394026
-14.996484
-12.552101
-9.418189
-6.101564
-3.071833
-0.587553
1.319120
2.654015
3.365751
3.524168
3.423508
3.397787
3.645610
4.233684
5.097386
6.016538
6.717554
6.999512
6.682248
5.533108
3.447126
0.702406
-2.052596
-4.046517
-4.664186
-3.667979
-1.305578
1.818196
5.089547
8.139616
10.847977
13.283911
15.644449
18.101273
20.644667
23.021063
24.723913
25.152187
24.004812
21.485918
18.072557
14.321990
