EVENT_NAME: L_AQUILA
EVENT_ID: IT-2009-0009
EVENT_DATE_YYYYMMDD: 20090406
EVENT_TIME_HHMMSS: 013240
EVENT_LATITUDE_DEGREE: 42.3420
EVENT_LONGITUDE_DEGREE: 13.3800
EVENT_DEPTH_KM: 8.3
HYPOCENTER_REFERENCE: INGV-CNT_Seismic_Bulletin
MAGNITUDE_W: 6.3
MAGNITUDE_W_REFERENCE: RCMT-INGV
MAGNITUDE_L: 5.9
MAGNITUDE_L_REFERENCE: INGV-CNT_Seismic_Bulletin
FOCAL_MECHANISM: NF
NETWORK: IT
STATION_CODE: AQK
STATION_NAME: L'AQUILA - V. ATERNO - AQUIL PARK ING.
STATION_LATITUDE_DEGREE: 42.344967
STATION_LONGITUDE_DEGREE: 13.400949
STATION_ELEVATION_M: 726
LOCATION: 
SENSOR_DEPTH_M: 0.0
VS30_M/S: 705
SITE_CLASSIFICATION_EC8: B
MORPHOLOGIC_CLASSIFICATION: SL
EPICENTRAL_DISTANCE_KM: 1.8
EARTHQUAKE_BACKAZIMUTH_DEGREE: 259.2
DATE_TIME_FIRST_SAMPLE_YYYYMMDD_HHMMSS: 20090406_013212.000
DATE_TIME_FIRST_SAMPLE_PRECISION: seconds
SAMPLING_INTERVAL_S: 0.005000
NDATA: 105
DURATION_S: 
STREAM: HNN
UNITS: cm/s^2
INSTRUMENT: sensor = FBA-3 [Kinemetrics] | digitizer = Etna [Kinemetrics]
INSTRUMENT_ANALOG/DIGITAL: D
INSTRUMENTAL_FREQUENCY_HZ: 214.000
INSTRUMENTAL_DAMPING: 0.700000
FULL_SCALE_G: 1.0
N_BIT_DIGITAL_CONVERTER: 18
PGA_CM/S^2: -346.784272
TIME_PGA_S: 32.620000
BASELINE_CORRECTION: BASELINE REMOVED
FILTER_TYPE: BUTTERWORTH
FILTER_ORDER: 2
LOW_CUT_FREQUENCY_HZ: 0.100
HIGH_CUT_FREQUENCY_HZ: 40.000
LATE/NORMAL_TRIGGERED: NT
DATABASE_VERSION: DYNA 1.0
HEADER_FORMAT: DYNA 1.2
DATA_TYPE: ACCELERATION RESPONSE SPECTRUM
PROCESSING: manual (Paolucci et al., 2011)
DATA_TIMESTAMP_YYYYMMDD_HHMMSS: 
DATA_LICENSE: CC-BY3_0-IT (http://creativecommons.org/licenses/by/3.0/deed.en)
DATA_CITATION: ESM working group (2015), European Strong-Motion database, version 0.1, Network Activity 3: Networking acceleration networks and SM data users. Project NERA (www.nera-eu.org)
DATA_CREATOR: ESM working group
ORIGINAL_DATA_MEDIATOR_CITATION: data obtained within the DPC-INGV data exchange agreements
ORIGINAL_DATA_MEDIATOR: Archive of Italian Department of Civil Protection
ORIGINAL_DATA_CREATOR_CITATION: Italian Strong Motion Network, Italian Civil Protection Department http://www.protezionecivile.gov.it
ORIGINAL_DATA_CREATOR: network: IT (Italian Strong Motion Network); owner: Dipartimento Della Protezione Civile
USER1: 
USER2: 
USER3: 
USER4: 
USER5: 
    0.010000   347.716461
    0.020000   376.460663
    0.022000   414.682892
    0.025000   398.008118
    0.029000   429.122192
    0.030000   451.127136
    0.032000   511.459229
    0.035001   754.252808
    0.036000   735.412903
    0.040000   724.146851
    0.041999   894.670532
    0.044001   902.282898
    0.045000   871.439331
    0.046000   876.643188
    0.048001   895.991577
    0.050000   893.147461
    0.054999   759.022034
    0.059999   784.340515
    0.064998   696.521851
    0.067002   685.056030
    0.069999   658.550415
    0.075002   552.686951
    0.080000   672.604492
    0.084998   734.301331
    0.090001   656.506958
    0.095003   692.507751
    0.100000   687.755188
    0.109999   495.316772
    0.120005   634.414062
    0.130005   834.489136
    0.132996   883.558472
    0.139997   914.024048
    0.149993   814.387024
    0.160000   724.690674
    0.170010   602.112244
    0.179986   652.820435
    0.190006   674.540466
    0.200000   551.891541
    0.220022   574.794312
    0.239981   691.126526
    0.250000   689.646240
    0.260010   631.272095
    0.280034   619.191650
    0.290023   621.074646
    0.300030   621.910156
    0.320000   617.479187
    0.340020   595.079834
    0.350017   577.895264
    0.359971   561.047058
    0.379939   538.321533
    0.400000   573.251831
    0.419992   656.906494
    0.439947   577.042908
    0.450045   514.945068
    0.459982   502.682709
    0.480077   472.928497
    0.500000   438.934387
    0.550055   402.362610
    0.599880   473.552612
    0.650195   520.856506
    0.667111   544.511292
    0.699790   528.716248
    0.750188   455.170288
    0.800000   474.591187
    0.850340   460.710480
    0.900090   344.369690
    0.949668   340.915588
    1.000000   350.385223
    1.100110   362.363922
    1.200480   365.189240
    1.300390   358.231628
    1.400560   353.287903
    1.499250   346.299316
    1.600000   326.846008
    1.700680   298.124725
    1.798561   267.782898
    1.901141   245.798096
    2.000000   224.415497
    2.197802   181.720718
    2.398082   144.331146
    2.500000   128.788696
    2.597403   115.238693
    2.801121    97.874855
    3.003003    85.734985
    3.205128    75.344765
    3.401361    66.563019
    3.496503    62.586468
    3.597122    58.858738
    3.802281    52.090603
    4.000000    46.165920
    4.201681    40.997700
    4.405286    36.492020
    4.608295    32.565594
    4.807692    29.146244
    5.000000    26.160017
    5.494505    20.220156
    5.988024    15.913094
    6.493506    12.740059
    6.993007    10.365206
    7.518797     9.213344
    8.000000     8.335687
    8.474576     7.571677
    9.009009     6.903018
    9.523809     6.315792
   10.000000     5.797291
