EVENT_NAME: CENTRAL_ITALY
EVENT_ID: EMSC-20161026_0000095
EVENT_DATE_YYYYMMDD: 20161026
EVENT_TIME_HHMMSS: 191806
EVENT_LATITUDE_DEGREE: 42.9087
EVENT_LONGITUDE_DEGREE: 13.1288
EVENT_DEPTH_KM: 7.5
HYPOCENTER_REFERENCE: INGV-CNT_Seismic_Bulletin
MAGNITUDE_W: 5.9
MAGNITUDE_W_REFERENCE: INGV-webservice
MAGNITUDE_L: 5.9
MAGNITUDE_L_REFERENCE: INGV-CNT_Seismic_Bulletin
FOCAL_MECHANISM: NF
NETWORK: IT
STATION_CODE: ACC
STATION_NAME: Accumoli
STATION_LATITUDE_DEGREE: 42.695999
STATION_LONGITUDE_DEGREE: 13.242000
STATION_ELEVATION_M: 922
LOCATION: 
SENSOR_DEPTH_M: 
VS30_M/S: 
SITE_CLASSIFICATION_EC8: A*
MORPHOLOGIC_CLASSIFICATION: 
EPICENTRAL_DISTANCE_KM: 25.4
EARTHQUAKE_BACKAZIMUTH_DEGREE: 338.6
DATE_TIME_FIRST_SAMPLE_YYYYMMDD_HHMMSS: 20161026_191805.089
DATE_TIME_FIRST_SAMPLE_PRECISION: milliseconds
SAMPLING_INTERVAL_S: 0.005000
NDATA: 12982
DURATION_S: 64.910
STREAM: HGE
UNITS: cm
INSTRUMENT: sensor = Unknown [Unknown] | digitizer = Unknown [Unknown]
INSTRUMENT_ANALOG/DIGITAL: D
INSTRUMENTAL_FREQUENCY_HZ: 
INSTRUMENTAL_DAMPING: 
FULL_SCALE_G: 
N_BIT_DIGITAL_CONVERTER: 
PGD_CM: 1.085595
TIME_PGD_S: 19.020000
BASELINE_CORRECTION: BASELINE REMOVED
FILTER_TYPE: BUTTERWORTH
FILTER_ORDER: 2
LOW_CUT_FREQUENCY_HZ: 0.040
HIGH_CUT_FREQUENCY_HZ: 40.000
LATE/NORMAL_TRIGGERED: NT
DATABASE_VERSION: DYNA 1.0
HEADER_FORMAT: DYNA 1.2
DATA_TYPE: DISPLACEMENT
PROCESSING: manual (Paolucci et al., 2011)
DATA_TIMESTAMP_YYYYMMDD_HHMMSS: 20161028_130247.609
DATA_LICENSE: CC-BY3_0-IT (http://creativecommons.org/licenses/by/3.0/deed.en)
DATA_CITATION: ESM working group (2015), European Strong-Motion database, version 0.1, Network Activity 3: Networking acceleration networks and SM data users. Project NERA (www.nera-eu.org)
DATA_CREATOR: ESM working group
ORIGINAL_DATA_MEDIATOR_CITATION: Ufficio Rischio Sismico e Vulcanico del Dipartimento della Protezione Civile (http://www.protezionecivile.gov.it/)
ORIGINAL_DATA_MEDIATOR: Rete Accelerometrica Nazionale - RAN Download (http://www.mot1.it/randownload/)
ORIGINAL_DATA_CREATOR_CITATION: Italian Strong Motion Network, Italian Civil Protection Department http://www.protezionecivile.gov.it
ORIGINAL_DATA_CREATOR: network: IT (Italian Strong Motion Network); owner: Dipartimento Della Protezione Civile
USER1: /home/dyna/processing-itaca/processing.py /var/www/processing//tmp/dyna_ingv//IT.ACC..HGE.D.20161026.191806.X.ACC.ASC /var/www/processing//tmp/dyna_ingv//IT.ACC..HGN.D.20161026.191806.X.ACC.ASC /var/www/processing//tmp/dyna_ingv//IT.ACC..HGZ.D.20161026.191806.X.ACC.ASC --tmp /var/www/processing//tmp/dyna_ingv/ --le 0.040 --he 40.000 --ln 0.040 --hn 40.000 --lz 0.040 --hz 40.000 --fo 2 --ca 0 --cz 40 --ta 5 --tz 5 --mf 1 --rf 0 --tr NT
USER2: 
USER3: 
USER4: 
USER5: 
[...]
-2.671015e-01
-2.597468e-01
-2.528468e-01
-2.464982e-01
-2.407651e-01
-2.356992e-01
-2.313428e-01
-2.277136e-01
-2.247929e-01
-2.225293e-01
-2.208482e-01
-2.196565e-01
-2.188503e-01
-2.183271e-01
-2.179942e-01
-2.177630e-01
-2.175387e-01
-2.172188e-01
-2.167081e-01
-2.159357e-01
-2.148624e-01
-2.134794e-01
-2.118052e-01
-2.098790e-01
-2.077431e-01
-2.054237e-01
-2.029173e-01
-2.001877e-01
-1.971696e-01
-1.937835e-01
-1.899595e-01
-1.856615e-01
-1.808983e-01
-1.757203e-01
-1.702033e-01
-1.644263e-01
-1.584562e-01
-1.523459e-01
-1.461424e-01
-1.398886e-01
-1.336169e-01
-1.273472e-01
-1.210897e-01
-1.148476e-01
-1.086175e-01
-1.023892e-01
-9.614335e-02
-8.985195e-02
-8.348294e-02
-7.700295e-02
-7.037829e-02
-6.358174e-02
-5.660481e-02
-4.946369e-02
-4.219345e-02
-3.483830e-02
-2.744691e-02
-2.007461e-02
-1.279098e-02
-5.684485e-03
1.143626e-03
7.593677e-03
1.358254e-02
1.905549e-02
2.399315e-02
2.841312e-02
3.236580e-02
3.592307e-02
3.916265e-02
4.215421e-02
4.495179e-02
4.759326e-02
5.010510e-02
5.250907e-02
5.482692e-02
5.708348e-02
5.931235e-02
6.156470e-02
6.391367e-02
6.644633e-02
6.924418e-02
7.236171e-02
7.581283e-02
7.957045e-02
8.358112e-02
8.778964e-02
9.216103e-02
9.668972e-02
1.013974e-01
1.063229e-01
1.115094e-01
1.169927e-01
1.227926e-01
1.288983e-01
1.352509e-01
1.417350e-01
1.481970e-01
1.544864e-01
1.604997e-01
1.662053e-01
1.716525e-01
1.769605e-01
1.822850e-01
1.877722e-01
1.935216e-01
1.995705e-01
2.059001e-01
2.124556e-01
2.191676e-01
2.259700e-01
2.328093e-01
2.396466e-01
2.464498e-01
2.531820e-01
2.597918e-01
2.662098e-01
2.723513e-01
2.781237e-01
2.834271e-01
2.881520e-01
2.921889e-01
2.954491e-01
2.978864e-01
2.995134e-01
3.004063e-01
3.006938e-01
3.005401e-01
3.001294e-01
2.996476e-01
2.992587e-01
2.990800e-01
2.991655e-01
2.995046e-01
3.000336e-01
3.006529e-01
3.012494e-01
3.017245e-01
3.020215e-01
3.021376e-01
3.021194e-01
3.020518e-01
3.020396e-01
3.021883e-01
3.025867e-01
3.032944e-01
3.043350e-01
3.056976e-01
3.073433e-01
3.092167e-01
3.112594e-01
3.134230e-01
3.156777e-01
3.180139e-01
3.204382e-01
3.229666e-01
3.256166e-01
3.284014e-01
3.313275e-01
3.343969e-01
3.376057e-01
3.409368e-01
3.443533e-01
3.477978e-01
3.511970e-01
3.544682e-01
3.575295e-01
3.603120e-01
3.627717e-01
3.648943e-01
3.666927e-01
3.682012e-01
3.694677e-01
3.705435e-01
3.714714e-01
3.722722e-01
3.729341e-01
3.734104e-01
3.736300e-01
3.735159e-01
3.730053e-01
3.720629e-01
3.706863e-01
3.689036e-01
3.667629e-01
3.643203e-01
3.616351e-01
3.587754e-01
3.558247e-01
3.528818e-01
3.500532e-01
3.474430e-01
3.451417e-01
3.432153e-01
3.416947e-01
3.405679e-01
3.397836e-01
3.392655e-01
3.389327e-01
3.387186e-01
3.385858e-01
3.385343e-01
3.385973e-01
3.388238e-01
3.392543e-01
3.398991e-01
3.407277e-01
3.416736e-01
3.426493e-01
3.435640e-01
3.443353e-01
3.448998e-01
3.452245e-01
3.453068e-01
3.451637e-01
3.448142e-01
3.442629e-01
3.434904e-01
3.424577e-01
3.411243e-01
3.394672e-01
3.374928e-01
3.352419e-01
3.327876e-01
3.302243e-01
3.276518e-01
3.251616e-01
3.228284e-01
3.207074e-01
3.188329e-01
3.172170e-01
3.158470e-01
3.146819e-01
3.136518e-01
3.126600e-01
3.115939e-01
3.103462e-01
3.088358e-01
3.070167e-01
3.048809e-01
3.024643e-01
2.998468e-01
2.971371e-01
2.944528e-01
2.919111e-01
2.896338e-01
2.877466e-01
2.863583e-01
2.855355e-01
2.852896e-01
2.855767e-01
2.863086e-01
2.873692e-01
2.886259e-01
2.899384e-01
2.911658e-01
2.921784e-01
2.928690e-01
2.931619e-01
2.930152e-01
2.924171e-01
2.913772e-01
2.899163e-01
2.880618e-01
2.858481e-01
2.833172e-01
2.805151e-01
2.774839e-01
2.742520e-01
2.708246e-01
2.671783e-01
2.632642e-01
2.590228e-01
2.544063e-01
2.493981e-01
2.440246e-01
2.383560e-01
2.324959e-01
2.265667e-01
2.206959e-01
2.150025e-01
2.095861e-01
2.045203e-01
1.998530e-01
1.956077e-01
1.917832e-01
1.883557e-01
1.852849e-01
1.825223e-01
1.800120e-01
1.776873e-01
1.754739e-01
1.732952e-01
1.710789e-01
1.687658e-01
1.663137e-01
1.636923e-01
1.608717e-01
1.578082e-01
1.544376e-01
1.506799e-01
1.464567e-01
1.417113e-01
1.364163e-01
1.305671e-01
1.241742e-01
1.172626e-01
1.098779e-01
1.020897e-01
9.398890e-02
8.567729e-02
7.725420e-02
6.880384e-02
6.038424e-02
5.201654e-02
4.368132e-02
3.532916e-02
2.689991e-02
1.834111e-02
9.626174e-03
7.672982e-04
-8.187575e-03
-1.716758e-02
-2.608683e-02
-3.484723e-02
-4.334335e-02
-5.147296e-02
-5.915417e-02
-6.634222e-02
-7.303606e-02
-7.927151e-02
-8.510415e-02
-9.059135e-02
-9.578013e-02
-1.007002e-01
-1.053647e-01
-1.097776e-01
-1.139417e-01
-1.178628e-01
-1.215548e-01
-1.250430e-01
-1.283675e-01
-1.315870e-01
-1.347857e-01
-1.380721e-01
-1.415723e-01
-1.454179e-01
-1.497334e-01
-1.546209e-01
-1.601478e-01
-1.663404e-01
-1.731859e-01
-1.806424e-01
-1.886528e-01
-1.971563e-01
-2.060906e-01
-2.153878e-01
-2.249717e-01
-2.347603e-01
-2.446698e-01
-2.546136e-01
-2.645006e-01
-2.742387e-01
-2.837428e-01
-2.929489e-01
-3.018365e-01
-3.104463e-01
-3.188789e-01
-3.272731e-01
-3.357717e-01
-3.444819e-01
-3.534402e-01
-3.625978e-01
-3.718316e-01
-3.809782e-01
-3.898765e-01
-3.984045e-01
-4.064991e-01
-4.141558e-01
-4.214166e-01
-4.283515e-01
-4.350384e-01
-4.415419e-01
-4.479044e-01
-4.541567e-01
-4.603378e-01
-4.665082e-01
-4.727513e-01
-4.791644e-01
-4.858404e-01
-4.928485e-01
-5.002192e-01
-5.079379e-01
-5.159489e-01
-5.241711e-01
-5.325218e-01
-5.409319e-01
-5.493463e-01
-5.577160e-01
-5.659890e-01
-5.741077e-01
-5.820152e-01
-5.896659e-01
-5.970330e-01
-6.041130e-01
-6.109322e-01
-6.175457e-01
-6.240196e-01
-6.304057e-01
-6.367249e-01
-6.429668e-01
-6.491062e-01
-6.551218e-01
-6.610090e-01
-6.667884e-01
-6.725074e-01
-6.782332e-01
-6.840394e-01
-6.899886e-01
-6.961131e-01
-7.024025e-01
-7.088059e-01
-7.152443e-01
-7.216267e-01
-7.278646e-01
-7.338812e-01
-7.396137e-01
-7.450098e-01
-7.500203e-01
-7.545954e-01
-7.586869e-01
-7.622525e-01
-7.652586e-01
-7.676858e-01
-7.695388e-01
-7.708574e-01
-7.717203e-01
-7.722356e-01
-7.725155e-01
-7.726449e-01
-7.726589e-01
-7.725369e-01
-7.722146e-01
-7.716121e-01
-7.706695e-01
-7.693715e-01
-7.677513e-01
-7.658757e-01
-7.638183e-01
-7.616289e-01
-7.593145e-01
-7.568446e-01
-7.541736e-01
-7.512680e-01
-7.481290e-01
-7.448054e-01
-7.413920e-01
-7.380070e-01
-7.347540e-01
-7.316892e-01
-7.288088e-01
-7.260576e-01
-7.233486e-01
-7.205840e-01
-7.176746e-01
-7.145532e-01
-7.111831e-01
-7.075605e-01
-7.037151e-01
-6.997096e-01
-6.956383e-01
-6.916174e-01
-6.877694e-01
-6.842072e-01
-6.810196e-01
-6.782596e-01
-6.759365e-01
-6.740179e-01
-6.724367e-01
-6.710982e-01
-6.698877e-01
-6.686834e-01
-6.673780e-01
-6.658990e-01
-6.642230e-01
-6.623771e-01
-6.604272e-01
-6.584564e-01
-6.565409e-01
-6.547310e-01
-6.530391e-01
-6.514396e-01
-6.498782e-01
-6.482869e-01
-6.466000e-01
-6.447693e-01
-6.427735e-01
-6.406159e-01
-6.383132e-01
-6.358844e-01
-6.333482e-01
-6.307271e-01
-6.280561e-01
-6.253899e-01
-6.228076e-01
-6.204097e-01
-6.183072e-01
-6.166042e-01
-6.153775e-01
-6.146554e-01
-6.144063e-01
-6.145468e-01
-6.149613e-01
-6.155230e-01
-6.161099e-01
-6.166205e-01
-6.169868e-01
-6.171811e-01
-6.172129e-01
-6.171145e-01
-6.169203e-01
-6.166484e-01
-6.162936e-01
-6.158329e-01
-6.152402e-01
-6.145007e-01
-6.136177e-01
-6.126137e-01
-6.115277e-01
-6.104098e-01
-6.093114e-01
-6.082745e-01
-6.073236e-01
-6.064648e-01
-6.056895e-01
-6.049792e-01
-6.043093e-01
-6.036565e-01
-6.030093e-01
-6.023751e-01
-6.017803e-01
-6.012639e-01
-6.008684e-01
-6.006265e-01
-6.005480e-01
-6.006129e-01
-6.007758e-01
-6.009782e-01
-6.011647e-01
-6.012960e-01
-6.013537e-01
-6.013355e-01
-6.012445e-01
-6.010771e-01
-6.008146e-01
-6.004219e-01
-5.998556e-01
-5.990769e-01
-5.980654e-01
-5.968264e-01
-5.953905e-01
-5.938082e-01
-5.921417e-01
-5.904511e-01
-5.887781e-01
-5.871329e-01
-5.854928e-01
-5.838131e-01
-5.820455e-01
-5.801552e-01
-5.781314e-01
-5.759877e-01
-5.737531e-01
-5.714573e-01
-5.691171e-01
-5.667298e-01
-5.642723e-01
-5.617056e-01
-5.589816e-01
-5.560548e-01
-5.528970e-01
-5.495101e-01
-5.459282e-01
-5.422119e-01
-5.384349e-01
-5.346683e-01
-5.309651e-01
-5.273528e-01
-5.238355e-01
-5.204055e-01
-5.170578e-01
-5.137994e-01
-5.106494e-01
-5.076310e-01
-5.047590e-01
-5.020302e-01
-4.994212e-01
-4.968952e-01
-4.944084e-01
-4.919136e-01
-4.893660e-01
-4.867284e-01
-4.839744e-01
-4.810876e-01
-4.780603e-01
-4.748915e-01
-4.715858e-01
-4.681534e-01
-4.646086e-01
-4.609620e-01
-4.572091e-01
-4.533195e-01
-4.492340e-01
-4.448689e-01
-4.401277e-01
-4.349173e-01
-4.291667e-01
-4.228419e-01
-4.159527e-01
-4.085466e-01
-4.006940e-01
-3.924723e-01
-3.839524e-01
-3.751949e-01
-3.662547e-01
-3.571939e-01
-3.480922e-01
-3.390476e-01
-3.301646e-01
-3.215351e-01
-3.132209e-01
-3.052428e-01
-2.975812e-01
-2.901902e-01
-2.830180e-01
-2.760249e-01
-2.691917e-01
-2.625190e-01
-2.560240e-01
-2.497347e-01
-2.436858e-01
-2.379121e-01
-2.324400e-01
-2.272793e-01
-2.224220e-01
-2.178503e-01
-2.135450e-01
-2.094874e-01
-2.056531e-01
-2.020073e-01
-1.985016e-01
-1.950740e-01
-1.916500e-01
-1.881479e-01
-1.844869e-01
-1.805969e-01
-1.764303e-01
-1.719720e-01
-1.672399e-01
-1.622758e-01
-1.571287e-01
-1.518409e-01
-1.464427e-01
-1.409538e-01
-1.353899e-01
-1.297710e-01
-1.241290e-01
-1.185103e-01
-1.129744e-01
-1.075912e-01
-1.024392e-01
-9.760407e-02
-9.317642e-02
-8.924627e-02
-8.589519e-02
-8.318858e-02
-8.117031e-02
-7.986077e-02
-7.925751e-02
-7.933546e-02
-8.004586e-02
-8.131821e-02
-8.306712e-02
-8.520091e-02
-8.763052e-02
-9.027823e-02
-9.308332e-02
-9.600234e-02
-9.900419e-02
-1.020626e-01
-1.051490e-01
-1.082292e-01
-1.112620e-01
-1.142004e-01
-1.169920e-01
-1.195778e-01
-1.218908e-01
-1.238577e-01
-1.254061e-01
-1.264760e-01
-1.270299e-01
-1.270580e-01
-1.265795e-01
-1.256361e-01
-1.242809e-01
-1.225677e-01
-1.205467e-01
-1.182671e-01
-1.157819e-01
-1.131490e-01
-1.104284e-01
-1.076782e-01
-1.049477e-01
-1.022747e-01
-9.968526e-02
-9.719528e-02
-9.480672e-02
-9.250059e-02
-9.023414e-02
-8.794694e-02
-8.557001e-02
-8.303168e-02
-8.025971e-02
-7.718447e-02
-7.374477e-02
-6.989291e-02
-6.559746e-02
-6.084603e-02
-5.564832e-02
-5.003656e-02
-4.406265e-02
-3.779254e-02
-3.129732e-02
-2.464355e-02
-1.788791e-02
-1.107733e-02
-4.250425e-03
2.562518e-03
9.339894e-03
1.606853e-02
2.274222e-02
2.935757e-02
3.590714e-02
4.237257e-02
4.872053e-02
5.490384e-02
6.086886e-02
6.656786e-02
7.197128e-02
7.707331e-02
8.188925e-02
8.644905e-02
9.079174e-02
9.496156e-02
9.900454e-02
1.029661e-01
1.068925e-01
1.108350e-01
1.148530e-01
1.190124e-01
1.233797e-01
1.280150e-01
1.329687e-01
1.382847e-01
1.440079e-01
1.501871e-01
1.568723e-01
1.641075e-01
1.719213e-01
1.803175e-01
1.892685e-01
1.987152e-01
2.085773e-01
2.187668e-01
2.292013e-01
2.398120e-01
2.505486e-01
2.613804e-01
2.722922e-01
2.832773e-01
2.943313e-01
3.054476e-01
3.166162e-01
3.278243e-01
3.390582e-01
3.503054e-01
3.615554e-01
3.728046e-01
3.840603e-01
3.953418e-01
4.066722e-01
4.180674e-01
4.295295e-01
4.410478e-01
4.526040e-01
4.641815e-01
4.757742e-01
4.873923e-01
4.990597e-01
5.108010e-01
5.226235e-01
5.345036e-01
5.463866e-01
5.581974e-01
5.698597e-01
5.813142e-01
5.925310e-01
6.035130e-01
6.142928e-01
6.249219e-01
6.354577e-01
6.459518e-01
6.564393e-01
6.669351e-01
6.774369e-01
6.879343e-01
6.984181e-01
7.088863e-01
7.193437e-01
7.297945e-01
7.402301e-01
7.506190e-01
7.609038e-01
7.710091e-01
7.808576e-01
7.903860e-01
7.995555e-01
8.083517e-01
8.167778e-01
8.248485e-01
8.325822e-01
8.399906e-01
8.470749e-01
8.538286e-01
8.602459e-01
8.663279e-01
8.720875e-01
8.775527e-01
8.827666e-01
8.877842e-01
8.926660e-01
8.974710e-01
9.022497e-01
9.070398e-01
9.118646e-01
9.167368e-01
9.216653e-01
9.266627e-01
9.317506e-01
9.369605e-01
9.423310e-01
9.478997e-01
9.536932e-01
9.597188e-01
9.659620e-01
9.723901e-01
9.789596e-01
9.856245e-01
9.923413e-01
9.990728e-01
1.005785e+00
1.012444e+00
1.019001e+00
1.025394e+00
1.031539e+00
1.037344e+00
1.042718e+00
1.047592e+00
1.051929e+00
1.055729e+00
1.059030e+00
1.061895e+00
1.064389e+00
1.066568e+00
1.068467e+00
1.070111e+00
1.071526e+00
1.072751e+00
1.073838e+00
1.074850e+00
1.075855e+00
1.076916e+00
1.078068e+00
1.079304e+00
1.080574e+00
1.081795e+00
1.082882e+00
1.083776e+00
1.084454e+00
1.084927e+00
1.085234e+00
1.085424e+00
1.085539e+00
1.085595e+00
1.085579e+00
1.085458e+00
1.085191e+00
1.084748e+00
1.084116e+00
1.083304e+00
1.082337e+00
1.081248e+00
1.080069e+00
1.078825e+00
1.077527e+00
1.076177e+00
1.074761e+00
1.073260e+00
1.071646e+00
1.069886e+00
1.067944e+00
1.065788e+00
1.063398e+00
1.060773e+00
1.057934e+00
1.054915e+00
1.051758e+00
1.048498e+00
1.045162e+00
1.041766e+00
1.038308e+00
1.034779e+00
1.031156e+00
1.027405e+00
1.023488e+00
1.019360e+00
1.014983e+00
1.010330e+00
1.005397e+00
1.000207e+00
9.947973e-01
9.892114e-01
9.834816e-01
9.776271e-01
9.716545e-01
9.655615e-01
9.593415e-01
9.529868e-01
9.464902e-01
9.398452e-01
9.330463e-01
9.260871e-01
9.189573e-01
9.116388e-01
9.041028e-01
8.963142e-01
8.882374e-01
8.798427e-01
8.711087e-01
8.620198e-01
8.525597e-01
8.427050e-01
8.324213e-01
8.216668e-01
8.104023e-01
7.986034e-01
7.862682e-01
7.734179e-01
7.600925e-01
7.463431e-01
7.322234e-01
7.177795e-01
7.030429e-01
6.880281e-01
6.727387e-01
6.571782e-01
6.413632e-01
6.253323e-01
6.091464e-01
5.928791e-01
5.766009e-01
5.603651e-01
5.442023e-01
5.281246e-01
5.121358e-01
4.962458e-01
4.804838e-01
4.649012e-01
4.495661e-01
4.345494e-01
4.199129e-01
4.057014e-01
3.919406e-01
3.786402e-01
3.657984e-01
3.534076e-01
3.414562e-01
3.299289e-01
3.188034e-01
3.080476e-01
2.976158e-01
2.874481e-01
2.774714e-01
2.676051e-01
2.577697e-01
2.478983e-01
2.379476e-01
2.279017e-01
2.177705e-01
2.075807e-01
1.973658e-01
1.871563e-01
1.769693e-01
1.668038e-01
1.566414e-01
1.464584e-01
1.362406e-01
1.259974e-01
1.157688e-01
1.056219e-01
9.564011e-02
8.590962e-02
7.650495e-02
6.747874e-02
5.885930e-02
5.065560e-02
4.286475e-02
3.547680e-02
2.847504e-02
2.183327e-02
1.551320e-02
9.465617e-03
3.636282e-03
-2.027146e-03
-7.572503e-03
-1.304558e-02
-1.849317e-02
-2.396233e-02
-2.949636e-02
-3.513154e-02
-4.089675e-02
-4.681564e-02
-5.291085e-02
-5.920858e-02
-6.574005e-02
-7.253715e-02
-7.962322e-02
-8.700291e-02
-9.465620e-02
-1.025405e-01
-1.106004e-01
-1.187811e-01
-1.270393e-01
-1.353485e-01
-1.436986e-01
-1.520909e-01
-1.605280e-01
-1.690035e-01
-1.774960e-01
-1.859684e-01
-1.943766e-01
-2.026804e-01
-2.108521e-01
-2.188783e-01
-2.267553e-01
-2.344809e-01
-2.420456e-01
-2.494288e-01
-2.566014e-01
-2.635319e-01
-2.701948e-01
-2.765796e-01
-2.826951e-01
-2.885709e-01
-2.942569e-01
-2.998172e-01
-3.053152e-01
-3.107954e-01
-3.162734e-01
-3.217384e-01
-3.271659e-01
-3.325361e-01
-3.378506e-01
-3.431417e-01
-3.484703e-01
-3.539135e-01
-3.595468e-01
-3.654294e-01
-3.715942e-01
-3.780463e-01
-3.847671e-01
-3.917237e-01
-3.988785e-01
-4.061971e-01
-4.136533e-01
-4.212297e-01
-4.289127e-01
-4.366855e-01
-4.445256e-01
-4.524062e-01
-4.602998e-01
-4.681797e-01
-4.760197e-01
-4.837927e-01
-4.914718e-01
-4.990338e-01
-5.064631e-01
-5.137522e-01
-5.209007e-01
-5.279141e-01
-5.348006e-01
-5.415643e-01
-5.481969e-01
-5.546756e-01
-5.609685e-01
-5.670451e-01
-5.728844e-01
-5.784772e-01
-5.838255e-01
-5.889367e-01
-5.938182e-01
-5.984737e-01
-6.029032e-01
-6.071039e-01
-6.110673e-01
-6.147752e-01
-6.181971e-01
-6.212935e-01
-6.240247e-01
-6.263635e-01
-6.283083e-01
-6.298897e-01
-6.311669e-01
-6.322145e-01
-6.331087e-01
-6.339164e-01
-6.346913e-01
-6.354746e-01
-6.362967e-01
-6.371751e-01
-6.381078e-01
-6.390671e-01
-6.399978e-01
-6.408208e-01
-6.414421e-01
-6.417646e-01
-6.417019e-01
-6.411916e-01
-6.402050e-01
-6.387504e-01
-6.368698e-01
-6.346305e-01
-6.321122e-01
-6.293949e-01
-6.265484e-01
-6.236296e-01
-6.206858e-01
-6.177562e-01
-6.148729e-01
-6.120605e-01
-6.093354e-01
-6.067072e-01
-6.041819e-01
-6.017653e-01
-5.994647e-01
-5.972876e-01
-5.952410e-01
-5.933331e-01
-5.915745e-01
-5.899758e-01
-5.885418e-01
-5.872682e-01
-5.861394e-01
-5.851294e-01
-5.842055e-01
-5.833318e-01
-5.824666e-01
-5.815569e-01
-5.805364e-01
-5.793321e-01
-5.778748e-01
-5.761050e-01
-5.739750e-01
-5.714520e-01
-5.685202e-01
-5.651801e-01
-5.614440e-01
-5.573326e-01
-5.528719e-01
-5.480904e-01
-5.430155e-01
-5.376769e-01
-5.321132e-01
-5.263749e-01
-5.205237e-01
-5.146346e-01
-5.088004e-01
-5.031339e-01
-4.977634e-01
-4.928201e-01
-4.884221e-01
-4.846628e-01
-4.816081e-01
-4.792980e-01
-4.777459e-01
-4.769363e-01
-4.768256e-01
-4.773478e-01
-4.784244e-01
-4.799713e-01
-4.819039e-01
-4.841432e-01
-4.866244e-01
-4.893031e-01
-4.921516e-01
-4.951487e-01
-4.982695e-01
-5.014813e-01
-5.047446e-01
-5.080179e-01
-5.112652e-01
-5.144625e-01
-5.176009e-01
-5.206857e-01
-5.237314e-01
-5.267583e-01
-5.297938e-01
-5.328722e-01
-5.360312e-01
-5.393056e-01
-5.427220e-01
-5.462953e-01
-5.500264e-01
-5.539019e-01
-5.578965e-01
-5.619785e-01
-5.661199e-01
-5.703044e-01
-5.745288e-01
-5.787953e-01
-5.831036e-01
-5.874441e-01
-5.917968e-01
-5.961318e-01
-6.004122e-01
-6.046007e-01
-6.086663e-01
-6.125883e-01
-6.163529e-01
-6.199457e-01
-6.233433e-01
-6.265090e-01
-6.293916e-01
-6.319275e-01
-6.340464e-01
-6.356792e-01
-6.367667e-01
-6.372678e-01
-6.371625e-01
-6.364514e-01
-6.351506e-01
-6.332854e-01
-6.308871e-01
-6.279917e-01
-6.246388e-01
-6.208709e-01
-6.167304e-01
-6.122574e-01
-6.074876e-01
-6.024526e-01
-5.971787e-01
-5.916866e-01
-5.859944e-01
-5.801204e-01
-5.740842e-01
-5.679047e-01
-5.615955e-01
-5.551626e-01
-5.486032e-01
-5.419079e-01
-5.350660e-01
-5.280759e-01
-5.209566e-01
