EVENT_NAME: L_AQUILA
EVENT_ID: IT-2009-0009
EVENT_DATE_YYYYMMDD: 20090406
EVENT_TIME_HHMMSS: 013240
EVENT_LATITUDE_DEGREE: 42.3420
EVENT_LONGITUDE_DEGREE: 13.3800
EVENT_DEPTH_KM: 8.3
HYPOCENTER_REFERENCE: INGV-CNT_Seismic_Bulletin
MAGNITUDE_W: 6.3
MAGNITUDE_W_REFERENCE: RCMT-INGV
MAGNITUDE_L: 5.9
MAGNITUDE_L_REFERENCE: INGV-CNT_Seismic_Bulletin
FOCAL_MECHANISM: NF
NETWORK: IT
STATION_CODE: AQK
STATION_NAME: L'AQUILA - V. ATERNO - AQUIL PARK ING.
STATION_LATITUDE_DEGREE: 42.344967
STATION_LONGITUDE_DEGREE: 13.400949
STATION_ELEVATION_M: 726
LOCATION: 
SENSOR_DEPTH_M: 0.0
VS30_M/S: 705
SITE_CLASSIFICATION_EC8: B
MORPHOLOGIC_CLASSIFICATION: SL
EPICENTRAL_DISTANCE_KM: 1.8
EARTHQUAKE_BACKAZIMUTH_DEGREE: 259.2
DATE_TIME_FIRST_SAMPLE_YYYYMMDD_HHMMSS: 20090406_013212.000
DATE_TIME_FIRST_SAMPLE_PRECISION: seconds
SAMPLING_INTERVAL_S: 0.005000
NDATA: 20001
DURATION_S: 100.005
STREAM: HNZ
UNITS: cm
INSTRUMENT: sensor = FBA-3 [Kinemetrics] | digitizer = Etna [Kinemetrics]
INSTRUMENT_ANALOG/DIGITAL: D
INSTRUMENTAL_FREQUENCY_HZ: 204.000
INSTRUMENTAL_DAMPING: 0.700000
FULL_SCALE_G: 1.0
N_BIT_DIGITAL_CONVERTER: 18
PGD_CM: 4.137245
TIME_PGD_S: 31.055000
BASELINE_CORRECTION: BASELINE REMOVED
FILTER_TYPE: BUTTERWORTH
FILTER_ORDER: 2
LOW_CUT_FREQUENCY_HZ: 0.100
HIGH_CUT_FREQUENCY_HZ: 40.000
LATE/NORMAL_TRIGGERED: NT
DATABASE_VERSION: DYNA 1.0
HEADER_FORMAT: DYNA 1.2
DATA_TYPE: DISPLACEMENT
PROCESSING: manual (Paolucci et al., 2011)
DATA_TIMESTAMP_YYYYMMDD_HHMMSS: 
DATA_LICENSE: CC-BY3_0-IT (http://creativecommons.org/licenses/by/3.0/deed.en)
DATA_CITATION: ESM working group (2015), European Strong-Motion database, version 0.1, Network Activity 3: Networking acceleration networks and SM data users. Project NERA (www.nera-eu.org)
DATA_CREATOR: ESM working group
ORIGINAL_DATA_MEDIATOR_CITATION: data obtained within the DPC-INGV data exchange agreements
ORIGINAL_DATA_MEDIATOR: Archive of Italian Department of Civil Protection
ORIGINAL_DATA_CREATOR_CITATION: Italian Strong Motion Network, Italian Civil Protection Department http://www.protezionecivile.gov.it
ORIGINAL_DATA_CREATOR: network: IT (Italian Strong Motion Network); owner: Dipartimento Della Protezione Civile
USER1: 
USER2: 
USER3: 
USER4: 
USER5: 
[...]
-4.165674e-01
-4.166018e-01
-4.166322e-01
-4.166586e-01
-4.166809e-01
-4.166991e-01
-4.167131e-01
-4.167230e-01
-4.167289e-01
-4.167306e-01
-4.167282e-01
-4.167217e-01
-4.167110e-01
-4.166962e-01
-4.166772e-01
-4.166540e-01
-4.166266e-01
-4.165949e-01
-4.165590e-01
-4.165188e-01
-4.164743e-01
-4.164255e-01
-4.163723e-01
-4.163148e-01
-4.162528e-01
-4.161864e-01
-4.161155e-01
-4.160401e-01
-4.159603e-01
-4.158759e-01
-4.157872e-01
-4.156939e-01
-4.155962e-01
-4.154939e-01
-4.153871e-01
-4.152757e-01
-4.151596e-01
-4.150389e-01
-4.149135e-01
-4.147835e-01
-4.146488e-01
-4.145093e-01
-4.143650e-01
-4.142159e-01
-4.140619e-01
-4.139031e-01
-4.137394e-01
-4.135709e-01
-4.133974e-01
-4.132192e-01
-4.130360e-01
-4.128479e-01
-4.126549e-01
-4.124569e-01
-4.122539e-01
-4.120459e-01
-4.118329e-01
-4.116149e-01
-4.113917e-01
-4.111634e-01
-4.109299e-01
-4.106913e-01
-4.104476e-01
-4.101988e-01
-4.099447e-01
-4.096855e-01
-4.094209e-01
-4.091511e-01
-4.088761e-01
-4.085957e-01
-4.083101e-01
-4.080192e-01
-4.077230e-01
-4.074215e-01
-4.071148e-01
-4.068026e-01
-4.064849e-01
-4.061618e-01
-4.058332e-01
-4.054991e-01
-4.051594e-01
-4.048141e-01
-4.044632e-01
-4.041067e-01
-4.037446e-01
-4.033768e-01
-4.030035e-01
-4.026244e-01
-4.022397e-01
-4.018494e-01
-4.014534e-01
-4.010516e-01
-4.006441e-01
-4.002309e-01
-3.998118e-01
-3.993869e-01
-3.989562e-01
-3.985196e-01
-3.980772e-01
-3.976289e-01
-3.971745e-01
-3.967142e-01
-3.962479e-01
-3.957757e-01
-3.952974e-01
-3.948132e-01
-3.943227e-01
-3.938262e-01
-3.933236e-01
-3.928150e-01
-3.923003e-01
-3.917794e-01
-3.912523e-01
-3.907191e-01
-3.901796e-01
-3.896339e-01
-3.890820e-01
-3.885237e-01
-3.879592e-01
-3.873883e-01
-3.868110e-01
-3.862274e-01
-3.856372e-01
-3.850407e-01
-3.844377e-01
-3.838282e-01
-3.832122e-01
-3.825898e-01
-3.819608e-01
-3.813253e-01
-3.806832e-01
-3.800344e-01
-3.793790e-01
-3.787170e-01
-3.780485e-01
-3.773732e-01
-3.766912e-01
-3.760025e-01
-3.753069e-01
-3.746046e-01
-3.738955e-01
-3.731795e-01
-3.724567e-01
-3.717271e-01
-3.709904e-01
-3.702469e-01
-3.694963e-01
-3.687388e-01
-3.679742e-01
-3.672026e-01
-3.664240e-01
-3.656383e-01
-3.648455e-01
-3.640456e-01
-3.632385e-01
-3.624242e-01
-3.616027e-01
-3.607740e-01
-3.599381e-01
-3.590949e-01
-3.582444e-01
-3.573867e-01
-3.565215e-01
-3.556490e-01
-3.547690e-01
-3.538815e-01
-3.529866e-01
-3.520842e-01
-3.511742e-01
-3.502567e-01
-3.493316e-01
-3.483988e-01
-3.474584e-01
-3.465104e-01
-3.455547e-01
-3.445914e-01
-3.436203e-01
-3.426415e-01
-3.416549e-01
-3.406605e-01
-3.396584e-01
-3.386483e-01
-3.376305e-01
-3.366049e-01
-3.355714e-01
-3.345300e-01
-3.334807e-01
-3.324233e-01
-3.313579e-01
-3.302846e-01
-3.292032e-01
-3.281137e-01
-3.270162e-01
-3.259105e-01
-3.247967e-01
-3.236747e-01
-3.225445e-01
-3.214062e-01
-3.202595e-01
-3.191046e-01
-3.179415e-01
-3.167700e-01
-3.155903e-01
-3.144020e-01
-3.132053e-01
-3.120000e-01
-3.107862e-01
-3.095639e-01
-3.083330e-01
-3.070935e-01
-3.058454e-01
-3.045886e-01
-3.033232e-01
-3.020493e-01
-3.007668e-01
-2.994758e-01
-2.981760e-01
-2.968676e-01
-2.955503e-01
-2.942243e-01
-2.928895e-01
-2.915459e-01
-2.901932e-01
-2.888316e-01
-2.874609e-01
-2.860814e-01
-2.846928e-01
-2.832953e-01
-2.818887e-01
-2.804729e-01
-2.790480e-01
-2.776140e-01
-2.761709e-01
-2.747186e-01
-2.732572e-01
-2.717867e-01
-2.703069e-01
-2.688179e-01
-2.673195e-01
-2.658119e-01
-2.642949e-01
-2.627685e-01
-2.612326e-01
-2.596872e-01
-2.581323e-01
-2.565679e-01
-2.549941e-01
-2.534106e-01
-2.518176e-01
-2.502151e-01
-2.486031e-01
-2.469814e-01
-2.453500e-01
-2.437089e-01
-2.420581e-01
-2.403976e-01
-2.387273e-01
-2.370473e-01
-2.353574e-01
-2.336576e-01
-2.319478e-01
-2.302282e-01
-2.284986e-01
-2.267592e-01
-2.250097e-01
-2.232502e-01
-2.214808e-01
-2.197013e-01
-2.179118e-01
-2.161123e-01
-2.143026e-01
-2.124826e-01
-2.106525e-01
-2.088122e-01
-2.069617e-01
-2.051010e-01
-2.032300e-01
-2.013487e-01
-1.994570e-01
-1.975550e-01
-1.956426e-01
-1.937196e-01
-1.917862e-01
-1.898421e-01
-1.878875e-01
-1.859223e-01
-1.839466e-01
-1.819602e-01
-1.799633e-01
-1.779556e-01
-1.759372e-01
-1.739080e-01
-1.718680e-01
-1.698173e-01
-1.677557e-01
-1.656833e-01
-1.636001e-01
-1.615061e-01
-1.594011e-01
-1.572850e-01
-1.551579e-01
-1.530198e-01
-1.508706e-01
-1.487103e-01
-1.465390e-01
-1.443564e-01
-1.421627e-01
-1.399578e-01
-1.377416e-01
-1.355141e-01
-1.332752e-01
-1.310249e-01
-1.287633e-01
-1.264904e-01
-1.242062e-01
-1.219105e-01
-1.196034e-01
-1.172847e-01
-1.149545e-01
-1.126127e-01
-1.102595e-01
-1.078946e-01
-1.055181e-01
-1.031299e-01
-1.007300e-01
-9.831823e-02
-9.589470e-02
-9.345938e-02
-9.101231e-02
-8.855348e-02
-8.608283e-02
-8.360028e-02
-8.110580e-02
-7.859941e-02
-7.608108e-02
-7.355076e-02
-7.100842e-02
-6.845406e-02
-6.588766e-02
-6.330919e-02
-6.071857e-02
-5.811574e-02
-5.550070e-02
-5.287344e-02
-5.023394e-02
-4.758219e-02
-4.491817e-02
-4.224185e-02
-3.955323e-02
-3.685225e-02
-3.413886e-02
-3.141297e-02
-2.867452e-02
-2.592353e-02
-2.316006e-02
-2.038411e-02
-1.759563e-02
-1.479454e-02
-1.198081e-02
-9.154411e-03
-6.315294e-03
-3.463445e-03
-5.988939e-04
2.278329e-03
5.168256e-03
8.070947e-03
1.098644e-02
1.391477e-02
1.685597e-02
1.981011e-02
2.277729e-02
2.575754e-02
2.875089e-02
3.175734e-02
3.477688e-02
3.780953e-02
4.085537e-02
4.391446e-02
4.698683e-02
5.007253e-02
5.317157e-02
5.628393e-02
5.940956e-02
6.254845e-02
6.570069e-02
6.886632e-02
7.204536e-02
7.523782e-02
7.844374e-02
8.166317e-02
8.489611e-02
8.814257e-02
9.140256e-02
9.467611e-02
9.796326e-02
1.012641e-01
1.045786e-01
1.079069e-01
1.112489e-01
1.146047e-01
1.179743e-01
1.213577e-01
1.247552e-01
1.281666e-01
1.315919e-01
1.350312e-01
1.384844e-01
1.419516e-01
1.454328e-01
1.489280e-01
1.524374e-01
1.559609e-01
1.594987e-01
1.630507e-01
1.666170e-01
1.701976e-01
1.737923e-01
1.774012e-01
1.810243e-01
1.846617e-01
1.883134e-01
1.919796e-01
1.956600e-01
1.993549e-01
2.030642e-01
2.067879e-01
2.105260e-01
2.142787e-01
2.180460e-01
2.218279e-01
2.256245e-01
2.294359e-01
2.332620e-01
2.371027e-01
2.409581e-01
2.448282e-01
2.487131e-01
2.526129e-01
2.565275e-01
2.604570e-01
2.644015e-01
2.683610e-01
2.723354e-01
2.763247e-01
2.803290e-01
2.843483e-01
2.883828e-01
2.924325e-01
2.964974e-01
3.005775e-01
3.046728e-01
3.087834e-01
3.129092e-01
3.170502e-01
3.212064e-01
3.253778e-01
3.295644e-01
3.337665e-01
3.379838e-01
3.422166e-01
3.464648e-01
3.507285e-01
3.550076e-01
3.593022e-01
3.636122e-01
3.679377e-01
3.722789e-01
3.766357e-01
3.810083e-01
3.853965e-01
3.898005e-01
3.942202e-01
3.986557e-01
4.031069e-01
4.075740e-01
4.120570e-01
4.165558e-01
4.210704e-01
4.256009e-01
4.301473e-01
4.347097e-01
4.392882e-01
4.438828e-01
4.484934e-01
4.531201e-01
4.577630e-01
4.624220e-01
4.670972e-01
4.717886e-01
4.764964e-01
4.812204e-01
4.859606e-01
4.907170e-01
4.954898e-01
5.002790e-01
5.050845e-01
5.099065e-01
5.147448e-01
5.195995e-01
5.244706e-01
5.293581e-01
5.342622e-01
5.391829e-01
5.441201e-01
5.490740e-01
5.540445e-01
5.590316e-01
5.640355e-01
5.690560e-01
5.740931e-01
5.791470e-01
5.842177e-01
5.893050e-01
5.944092e-01
5.995301e-01
6.046679e-01
6.098225e-01
6.149939e-01
6.201823e-01
6.253876e-01
6.306097e-01
6.358489e-01
6.411051e-01
6.463783e-01
6.516687e-01
6.569761e-01
6.623007e-01
6.676423e-01
6.730011e-01
6.783769e-01
6.837699e-01
6.891800e-01
6.946072e-01
7.000516e-01
7.055133e-01
7.109922e-01
7.164883e-01
7.220018e-01
7.275325e-01
7.330807e-01
7.386462e-01
7.442293e-01
7.498298e-01
7.554479e-01
7.610835e-01
7.667367e-01
7.724075e-01
7.780959e-01
7.838018e-01
7.895252e-01
7.952663e-01
8.010250e-01
8.068013e-01
8.125954e-01
8.184073e-01
8.242369e-01
8.300843e-01
8.359494e-01
8.418323e-01
8.477329e-01
8.536513e-01
8.595876e-01
8.655417e-01
8.715138e-01
8.775038e-01
8.835117e-01
8.895375e-01
8.955813e-01
9.016430e-01
9.077228e-01
9.138205e-01
9.199363e-01
9.260703e-01
9.322225e-01
9.383928e-01
9.445814e-01
9.507881e-01
9.570131e-01
9.632562e-01
9.695175e-01
9.757970e-01
9.820949e-01
9.884110e-01
9.947453e-01
1.001098e+00
1.007469e+00
1.013858e+00
1.020266e+00
1.026692e+00
1.033137e+00
1.039600e+00
1.046082e+00
1.052582e+00
1.059100e+00
1.065637e+00
1.072192e+00
1.078766e+00
1.085359e+00
1.091970e+00
1.098599e+00
1.105248e+00
1.111914e+00
1.118600e+00
1.125303e+00
1.132026e+00
1.138767e+00
1.145527e+00
1.152306e+00
1.159103e+00
1.165920e+00
1.172755e+00
1.179608e+00
1.186481e+00
1.193373e+00
1.200283e+00
1.207212e+00
1.214160e+00
1.221127e+00
1.228113e+00
1.235118e+00
1.242142e+00
1.249184e+00
1.256246e+00
1.263326e+00
1.270425e+00
1.277544e+00
1.284681e+00
1.291838e+00
1.299013e+00
1.306208e+00
1.313421e+00
1.320654e+00
1.327906e+00
1.335177e+00
1.342467e+00
1.349776e+00
1.357104e+00
1.364451e+00
1.371818e+00
1.379203e+00
1.386608e+00
1.394032e+00
1.401475e+00
1.408938e+00
1.416419e+00
1.423920e+00
1.431440e+00
1.438980e+00
1.446539e+00
1.454117e+00
1.461714e+00
1.469330e+00
1.476966e+00
1.484621e+00
1.492296e+00
1.499990e+00
1.507703e+00
1.515436e+00
1.523188e+00
1.530960e+00
1.538751e+00
1.546561e+00
1.554391e+00
1.562240e+00
1.570109e+00
1.577996e+00
1.585904e+00
1.593831e+00
1.601777e+00
1.609742e+00
1.617728e+00
1.625732e+00
1.633757e+00
1.641800e+00
1.649864e+00
1.657946e+00
1.666049e+00
1.674170e+00
1.682312e+00
1.690473e+00
1.698653e+00
1.706853e+00
1.715072e+00
1.723311e+00
1.731570e+00
1.739848e+00
1.748146e+00
1.756464e+00
1.764801e+00
1.773158e+00
1.781534e+00
1.789931e+00
1.798347e+00
1.806782e+00
1.815237e+00
1.823712e+00
1.832207e+00
1.840721e+00
1.849254e+00
1.857808e+00
1.866381e+00
1.874973e+00
1.883586e+00
1.892218e+00
1.900869e+00
1.909541e+00
1.918232e+00
1.926942e+00
1.935672e+00
1.944422e+00
1.953192e+00
1.961981e+00
1.970790e+00
1.979618e+00
1.988466e+00
1.997333e+00
2.006220e+00
2.015127e+00
2.024054e+00
2.033000e+00
2.041966e+00
2.050951e+00
2.059957e+00
2.068981e+00
2.078026e+00
2.087090e+00
2.096173e+00
2.105276e+00
2.114399e+00
2.123542e+00
2.132704e+00
2.141885e+00
2.151087e+00
2.160308e+00
2.169548e+00
2.178808e+00
2.188088e+00
2.197387e+00
2.206706e+00
2.216044e+00
2.225402e+00
2.234780e+00
2.244177e+00
2.253594e+00
2.263031e+00
2.272487e+00
2.281963e+00
2.291458e+00
2.300973e+00
2.310507e+00
2.320061e+00
2.329634e+00
2.339227e+00
2.348839e+00
2.358471e+00
2.368122e+00
2.377793e+00
2.387483e+00
2.397192e+00
2.406921e+00
2.416669e+00
2.426436e+00
2.436223e+00
2.446030e+00
2.455856e+00
2.465701e+00
2.475565e+00
2.485449e+00
2.495353e+00
2.505275e+00
2.515217e+00
2.525179e+00
2.535159e+00
2.545159e+00
2.555178e+00
2.565216e+00
2.575274e+00
2.585351e+00
2.595447e+00
2.605562e+00
2.615697e+00
2.625851e+00
2.636024e+00
2.646216e+00
2.656427e+00
2.666657e+00
2.676906e+00
2.687174e+00
2.697461e+00
2.707768e+00
2.718093e+00
2.728436e+00
2.738797e+00
2.749174e+00
2.759568e+00
2.769978e+00
2.780406e+00
2.790852e+00
2.801311e+00
2.811768e+00
2.822191e+00
2.832529e+00
2.842721e+00
2.852727e+00
2.862553e+00
2.872253e+00
2.881897e+00
2.891526e+00
2.901124e+00
2.910634e+00
2.920008e+00
2.929259e+00
2.938481e+00
2.947814e+00
2.957361e+00
2.967141e+00
2.977094e+00
2.987129e+00
2.997192e+00
3.007282e+00
3.017407e+00
3.027579e+00
3.037828e+00
3.048190e+00
3.058703e+00
3.069399e+00
3.080228e+00
3.091044e+00
3.101737e+00
3.112318e+00
3.122837e+00
3.133341e+00
3.143889e+00
3.154548e+00
3.165352e+00
3.176310e+00
3.187401e+00
3.198531e+00
3.209557e+00
3.220406e+00
3.231116e+00
3.241767e+00
3.252398e+00
3.262958e+00
3.273289e+00
3.283222e+00
3.292733e+00
3.302012e+00
3.311385e+00
3.321130e+00
3.331325e+00
3.341823e+00
3.352339e+00
3.362645e+00
3.372772e+00
3.383030e+00
3.393764e+00
3.405035e+00
3.416560e+00
3.427987e+00
3.439156e+00
3.450092e+00
3.460903e+00
3.471702e+00
3.482492e+00
3.493085e+00
3.503240e+00
3.512923e+00
3.522376e+00
3.531963e+00
3.541942e+00
3.552366e+00
3.563092e+00
3.573855e+00
3.584425e+00
3.594719e+00
3.604852e+00
3.615163e+00
3.626123e+00
3.638021e+00
3.650789e+00
3.664110e+00
3.677581e+00
3.690846e+00
3.703749e+00
3.716337e+00
3.728659e+00
3.740684e+00
3.752411e+00
3.763947e+00
3.775452e+00
3.786994e+00
3.798466e+00
3.809593e+00
3.820054e+00
3.829775e+00
3.839061e+00
3.848270e+00
3.857485e+00
3.866607e+00
3.875567e+00
3.884374e+00
3.893180e+00
3.902310e+00
3.912015e+00
3.922222e+00
3.932628e+00
3.942990e+00
3.953303e+00
3.963778e+00
3.974631e+00
3.985854e+00
3.997225e+00
4.008557e+00
4.019880e+00
4.031342e+00
4.043004e+00
4.054765e+00
4.066433e+00
4.077764e+00
4.088508e+00
4.098497e+00
4.107624e+00
4.115780e+00
4.122887e+00
4.128889e+00
4.133602e+00
4.136598e+00
4.137248e+00
4.134929e+00
4.129259e+00
4.120301e+00
4.108600e+00
4.094730e+00
4.078643e+00
4.059559e+00
4.036427e+00
4.008383e+00
3.975082e+00
3.936875e+00
3.894743e+00
3.850189e+00
3.804952e+00
3.760194e+00
3.715712e+00
3.670181e+00
3.622538e+00
3.573126e+00
3.523390e+00
3.474726e+00
3.427884e+00
3.383018e+00
3.339678e+00
3.296853e+00
3.253752e+00
3.210761e+00
3.169282e+00
3.130544e+00
3.094743e+00
3.061223e+00
3.029102e+00
2.997788e+00
2.967186e+00
2.937575e+00
2.909267e+00
2.882238e+00
2.855891e+00
2.829556e+00
2.803455e+00
2.778705e+00
2.756341e+00
2.736788e+00
2.720022e+00
2.705714e+00
2.693384e+00
2.682791e+00
2.674104e+00
2.667328e+00
2.661661e+00
2.655812e+00
2.648937e+00
2.640975e+00
2.632152e+00
2.622420e+00
2.611538e+00
2.599596e+00
2.587084e+00
2.574452e+00
2.561902e+00
2.549532e+00
2.537330e+00
2.525261e+00
2.513518e+00
2.502374e+00
2.491694e+00
2.480725e+00
2.468465e+00
2.454394e+00
2.438970e+00
2.423293e+00
2.408171e+00
2.393553e+00
2.378954e+00
2.364141e+00
2.349189e+00
2.334201e+00
2.319193e+00
2.303879e+00
2.287630e+00
2.269989e+00
2.251089e+00
2.231671e+00
2.213019e+00
2.196400e+00
2.182093e+00
2.169109e+00
2.155736e+00
2.140126e+00
2.120799e+00
2.097142e+00
2.069541e+00
2.038991e+00
2.006394e+00
1.971752e+00
1.933873e+00
1.890954e+00
1.841488e+00
1.784951e+00
1.722104e+00
1.654631e+00
1.584341e+00
1.512524e+00
1.439589e+00
1.365064e+00
1.288249e+00
1.209085e+00
1.128509e+00
1.048133e+00
9.694389e-01
8.929491e-01
8.180246e-01
7.433007e-01
6.674836e-01
5.903037e-01
5.126049e-01
4.351451e-01
3.575883e-01
2.785589e-01
1.962405e-01
1.092624e-01
1.740800e-02
-7.851034e-02
-1.772060e-01
-2.773044e-01
-3.776548e-01
-4.774724e-01
-5.761908e-01
-6.732602e-01
-7.680962e-01
-8.605632e-01
-9.515102e-01
-1.041855e+00
-1.130991e+00
-1.217078e+00
-1.298886e+00
-1.376603e+00
-1.451154e+00
-1.523667e+00
-1.595248e+00
-1.666045e+00
-1.734413e+00
-1.797547e+00
-1.852952e+00
-1.899469e+00
-1.937758e+00
-1.970119e+00
-1.999598e+00
-2.029066e+00
-2.060793e+00
-2.096248e+00
-2.135898e+00
-2.178971e+00
-2.223517e+00
-2.267172e+00
-2.308301e+00
-2.346761e+00
-2.384177e+00
-2.423539e+00
-2.467755e+00
-2.517925e+00
-2.572647e+00
-2.628810e+00
-2.683494e+00
-2.735622e+00
-2.786056e+00
-2.836257e+00
-2.886764e+00
-2.936768e+00
-2.984770e+00
-3.029505e+00
-3.070731e+00
-3.109688e+00
-3.148490e+00
-3.188749e+00
-3.230700e+00
-3.273337e+00
-3.315370e+00
-3.356270e+00
-3.396429e+00
-3.436551e+00
-3.476980e+00
-3.517095e+00
-3.555326e+00
-3.590199e+00
-3.621213e+00
-3.648489e+00
-3.671874e+00
-3.690573e+00
-3.703639e+00
-3.710928e+00
-3.713524e+00
-3.713085e+00
-3.710773e+00
-3.706520e+00
-3.699083e+00
-3.687045e+00
-3.669971e+00
-3.648658e+00
-3.624525e+00
-3.598901e+00
-3.572586e+00
-3.545670e+00
-3.517684e+00
-3.488003e+00
-3.456364e+00
-3.423472e+00
-3.391225e+00
-3.362217e+00
-3.339012e+00
-3.323425e+00
-3.315711e+00
-3.314360e+00
-3.316927e+00
-3.321265e+00
-3.326525e+00
-3.333308e+00
-3.342730e+00
-3.355394e+00
-3.371233e+00
-3.389969e+00
-3.411323e+00
-3.434658e+00
-3.458549e+00
-3.480943e+00
-3.499945e+00
-3.514778e+00
-3.526056e+00
-3.534916e+00
-3.541870e+00
-3.546302e+00
-3.546726e+00
-3.542058e+00
-3.533070e+00
-3.522214e+00
-3.511914e+00
-3.503143e+00
-3.495150e+00
-3.486030e+00
-3.473809e+00
-3.457732e+00
-3.438595e+00
-3.417820e+00
-3.396681e+00
-3.376319e+00
-3.357801e+00
-3.341929e+00
-3.328971e+00
-3.318317e+00
-3.308248e+00
-3.296360e+00
-3.280817e+00
-3.261621e+00
-3.240774e+00
-3.221136e+00
-3.205048e+00
-3.193850e+00
-3.188172e+00
-3.188157e+00
-3.193384e+00
-3.202963e+00
-3.216084e+00
-3.232574e+00
-3.252823e+00
-3.276973e+00
-3.304329e+00
-3.333753e+00
-3.364374e+00
-3.395858e+00
-3.428321e+00
-3.461843e+00
-3.495520e+00
-3.527124e+00
-3.554058e+00
-3.574688e+00
-3.588803e+00
-3.597100e+00
-3.600417e+00
-3.599364e+00
-3.594553e+00
-3.586932e+00
-3.577678e+00
-3.567934e+00
-3.558804e+00
-3.551390e+00
-3.546727e+00
-3.545622e+00
-3.548221e+00
-3.553705e+00
-3.560898e+00
-3.569318e+00
-3.579380e+00
-3.591695e+00
-3.606524e+00
-3.623769e+00
-3.643185e+00
-3.664722e+00
-3.688865e+00
-3.716416e+00
-3.747695e+00
-3.782036e+00
-3.817801e+00
-3.852564e+00
-3.883735e+00
-3.909763e+00
-3.930863e+00
-3.948447e+00
-3.963911e+00
-3.977954e+00
-3.990626e+00
-4.001492e+00
-4.009746e+00
-4.014723e+00
-4.016642e+00
-4.016631e+00
-4.016075e+00
-4.016304e+00
-4.018603e+00
-4.023684e+00
-4.031023e+00
-4.039161e+00
-4.046729e+00
-4.052945e+00
-4.057246e+00
-4.059053e+00
-4.058157e+00
-4.055120e+00
-4.051092e+00
-4.047140e+00
-4.043682e+00
-4.040309e+00
-4.035778e+00
-4.028186e+00
-4.015704e+00
-3.997449e+00
-3.973697e+00
-3.945433e+00
-3.913843e+00
-3.880093e+00
-3.845336e+00
-3.810690e+00
-3.777244e+00
-3.746310e+00
-3.719499e+00
-3.698134e+00
-3.682338e+00
-3.670814e+00
-3.661675e+00
-3.653324e+00
-3.644513e+00
-3.634180e+00
-3.621797e+00
-3.607797e+00
-3.593439e+00
-3.580107e+00
-3.568556e+00
-3.558462e+00
-3.548387e+00
-3.536443e+00
-3.521597e+00
-3.504508e+00
-3.486851e+00
-3.469947e+00
-3.454214e+00
-3.439468e+00
-3.425086e+00
-3.409960e+00
-3.392973e+00
-3.373749e+00
-3.352606e+00
-3.329880e+00
-3.305757e+00
-3.280742e+00
-3.255938e+00
-3.232699e+00
-3.212085e+00
-3.194653e+00
-3.180379e+00
-3.168457e+00
-3.157415e+00
-3.145959e+00
-3.133906e+00
-3.122160e+00
-3.111806e+00
-3.103438e+00
-3.097222e+00
-3.093099e+00
-3.090585e+00
-3.088533e+00
