EVENT_NAME: CENTRAL_ITALY
EVENT_ID: EMSC-20161026_0000077
EVENT_DATE_YYYYMMDD: 20161026
EVENT_TIME_HHMMSS: 171036
EVENT_LATITUDE_DEGREE: 42.8802
EVENT_LONGITUDE_DEGREE: 13.1275
EVENT_DEPTH_KM: 8.7
HYPOCENTER_REFERENCE: INGV-CNT_Seismic_Bulletin
MAGNITUDE_W: 5.4
MAGNITUDE_W_REFERENCE: INGV-webservice
MAGNITUDE_L: 5.4
MAGNITUDE_L_REFERENCE: INGV-CNT_Seismic_Bulletin
FOCAL_MECHANISM: NF
NETWORK: IT
STATION_CODE: ACC
STATION_NAME: Accumoli
STATION_LATITUDE_DEGREE: 42.695999
STATION_LONGITUDE_DEGREE: 13.242000
STATION_ELEVATION_M: 922
LOCATION: 
SENSOR_DEPTH_M: 
VS30_M/S: 
SITE_CLASSIFICATION_EC8: A*
MORPHOLOGIC_CLASSIFICATION: 
EPICENTRAL_DISTANCE_KM: 22.5
EARTHQUAKE_BACKAZIMUTH_DEGREE: 335.4
DATE_TIME_FIRST_SAMPLE_YYYYMMDD_HHMMSS: 20161026_171034.835
DATE_TIME_FIRST_SAMPLE_PRECISION: milliseconds
SAMPLING_INTERVAL_S: 0.005000
NDATA: 7433
DURATION_S: 37.165
STREAM: HGE
UNITS: cm
INSTRUMENT: sensor = Unknown [Unknown] | digitizer = Unknown [Unknown]
INSTRUMENT_ANALOG/DIGITAL: D
INSTRUMENTAL_FREQUENCY_HZ: 
INSTRUMENTAL_DAMPING: 
FULL_SCALE_G: 
N_BIT_DIGITAL_CONVERTER: 
PGD_CM: 0.249879
TIME_PGD_S: 14.205000
BASELINE_CORRECTION: BASELINE REMOVED
FILTER_TYPE: BUTTERWORTH
FILTER_ORDER: 2
LOW_CUT_FREQUENCY_HZ: 0.100
HIGH_CUT_FREQUENCY_HZ: 30.000
LATE/NORMAL_TRIGGERED: NT
DATABASE_VERSION: DYNA 1.0
HEADER_FORMAT: DYNA 1.2
DATA_TYPE: DISPLACEMENT
PROCESSING: manual (Paolucci et al., 2011)
DATA_TIMESTAMP_YYYYMMDD_HHMMSS: 20161027_131047.653
DATA_LICENSE: CC-BY3_0-IT (http://creativecommons.org/licenses/by/3.0/deed.en)
DATA_CITATION: ESM working group (2015), European Strong-Motion database, version 0.1, Network Activity 3: Networking acceleration networks and SM data users. Project NERA (www.nera-eu.org)
DATA_CREATOR: ESM working group
ORIGINAL_DATA_MEDIATOR_CITATION: Ufficio Rischio Sismico e Vulcanico del Dipartimento della Protezione Civile (http://www.protezionecivile.gov.it/)
ORIGINAL_DATA_MEDIATOR: Rete Accelerometrica Nazionale - RAN Download (http://www.mot1.it/randownload/)
ORIGINAL_DATA_CREATOR_CITATION: Italian Strong Motion Network, Italian Civil Protection Department http://www.protezionecivile.gov.it
ORIGINAL_DATA_CREATOR: network: IT (Italian Strong Motion Network); owner: Dipartimento Della Protezione Civile
USER1: /home/dyna/processing-itaca/processing.py /var/www/processing//tmp/felicetta//IT.ACC..HGE.D.20161026.171036.X.ACC.ASC /var/www/processing//tmp/felicetta//IT.ACC..HGN.D.20161026.171036.X.ACC.ASC /var/www/processing//tmp/felicetta//IT.ACC..HGZ.D.20161026.171036.X.ACC.ASC --tmp /var/www/processing//tmp/felicetta/ --le 0.100 --he 30.000 --ln 0.100 --hn 30.000 --lz 0.100 --hz 30.000 --fo 2 --ca 0 --cz 40 --ta 5 --tz 5 --mf 1 --rf 0 --tr NT
USER2: 
USER3: 
USER4: 
USER5: 
[...]
-2.121018e-02
-2.157949e-02
-2.176139e-02
-2.173356e-02
-2.150271e-02
-2.110309e-02
-2.058686e-02
-2.000827e-02
-1.940689e-02
-1.879590e-02
-1.816189e-02
-1.747796e-02
-1.672421e-02
-1.590456e-02
-1.505112e-02
-1.421391e-02
-1.344036e-02
-1.275440e-02
-1.214649e-02
-1.157924e-02
-1.100221e-02
-1.036511e-02
-9.624724e-03
-8.748352e-03
-7.717031e-03
-6.529250e-03
-5.203409e-03
-3.777647e-03
-2.306701e-03
-8.560907e-04
5.053374e-04
1.712751e-03
2.710568e-03
3.455524e-03
3.919407e-03
4.091983e-03
3.982176e-03
3.615750e-03
3.029573e-03
2.263437e-03
1.351375e-03
3.168060e-04
-8.235201e-04
-2.046286e-03
-3.307181e-03
-4.538312e-03
-5.664106e-03
-6.628158e-03
-7.414349e-03
-8.048900e-03
-8.581763e-03
-9.057236e-03
-9.488998e-03
-9.852270e-03
-1.009731e-02
-1.017735e-02
-1.007558e-02
-9.816754e-03
-9.459651e-03
-9.077951e-03
-8.739391e-03
-8.490209e-03
-8.347895e-03
-8.302925e-03
-8.328430e-03
-8.392995e-03
-8.468924e-03
-8.532296e-03
-8.558280e-03
-8.517772e-03
-8.379025e-03
-8.113670e-03
-7.703664e-03
-7.146918e-03
-6.460984e-03
-5.683237e-03
-4.866406e-03
-4.071415e-03
-3.360900e-03
-2.794738e-03
-2.426566e-03
-2.300020e-03
-2.444092e-03
-2.867572e-03
-3.553967e-03
-4.460000e-03
-5.519980e-03
-6.655571e-03
-7.788217e-03
-8.850253e-03
-9.790951e-03
-1.057629e-02
-1.118506e-02
-1.160611e-02
-1.184074e-02
-1.190979e-02
-1.186114e-02
-1.177121e-02
-1.173652e-02
-1.185477e-02
-1.219907e-02
-1.279284e-02
-1.359534e-02
-1.450719e-02
-1.539750e-02
-1.614321e-02
-1.666366e-02
-1.693787e-02
-1.700193e-02
-1.693226e-02
-1.682100e-02
-1.674801e-02
-1.675693e-02
-1.684549e-02
-1.697465e-02
-1.709132e-02
-1.715397e-02
-1.715003e-02
-1.709840e-02
-1.703848e-02
-1.701223e-02
-1.704637e-02
-1.714037e-02
-1.726393e-02
-1.736627e-02
-1.739492e-02
-1.731654e-02
-1.712960e-02
-1.686247e-02
-1.655814e-02
-1.625450e-02
-1.597151e-02
-1.571103e-02
-1.546510e-02
-1.522363e-02
-1.497599e-02
-1.470878e-02
-1.440602e-02
-1.405576e-02
-1.365976e-02
-1.323936e-02
-1.283284e-02
-1.248456e-02
-1.222949e-02
-1.207961e-02
-1.201983e-02
-1.201699e-02
-1.203711e-02
-1.206184e-02
-1.209609e-02
-1.216343e-02
-1.229149e-02
-1.249360e-02
-1.275534e-02
-1.303419e-02
-1.327523e-02
-1.343680e-02
-1.351288e-02
-1.354001e-02
-1.358586e-02
-1.372534e-02
-1.401463e-02
-1.447419e-02
-1.508785e-02
-1.581616e-02
-1.661517e-02
-1.745129e-02
-1.830675e-02
-1.917647e-02
-2.006268e-02
-2.097275e-02
-2.191875e-02
-2.291125e-02
-2.394358e-02
-2.497279e-02
-2.591048e-02
-2.663336e-02
-2.701322e-02
-2.695634e-02
-2.643716e-02
-2.551287e-02
-2.431553e-02
-2.302819e-02
-2.185256e-02
-2.097589e-02
-2.054756e-02
-2.066812e-02
-2.138337e-02
-2.267960e-02
-2.448574e-02
-2.668701e-02
-2.914775e-02
-3.173438e-02
-3.433244e-02
-3.685781e-02
-3.926365e-02
-4.154263e-02
-4.372344e-02
-4.586178e-02
-4.802745e-02
-5.028942e-02
-5.270121e-02
-5.529018e-02
-5.805419e-02
-6.096478e-02
-6.397259e-02
-6.701344e-02
-7.001647e-02
-7.291549e-02
-7.565978e-02
-7.821800e-02
-8.057108e-02
-8.269857e-02
-8.457096e-02
-8.615645e-02
-8.743626e-02
-8.841185e-02
-8.909403e-02
-8.948382e-02
-8.956014e-02
-8.927866e-02
-8.858109e-02
-8.741469e-02
-8.575848e-02
-8.364361e-02
-8.115219e-02
-7.839500e-02
-7.548344e-02
-7.250981e-02
-6.954196e-02
-6.663064e-02
-6.382419e-02
-6.118205e-02
-5.877626e-02
-5.667544e-02
-5.491753e-02
-5.348337e-02
-5.228426e-02
-5.117353e-02
-4.997947e-02
-4.854142e-02
-4.673092e-02
-4.445549e-02
-4.165445e-02
-3.829557e-02
-3.437774e-02
-2.994042e-02
-2.507391e-02
-1.992027e-02
-1.466028e-02
-9.488409e-03
-4.582237e-03
-7.695392e-05
3.945415e-03
7.450646e-03
1.043705e-02
1.292045e-02
1.492698e-02
1.649168e-02
1.765823e-02
1.847964e-02
1.902071e-02
1.935953e-02
1.958773e-02
1.981277e-02
2.016253e-02
2.078583e-02
2.184116e-02
2.347207e-02
2.577670e-02
2.878572e-02
3.245989e-02
3.670806e-02
4.141683e-02
4.647812e-02
5.180516e-02
5.733464e-02
6.301890e-02
6.881560e-02
7.468291e-02
8.058328e-02
8.649331e-02
9.241346e-02
9.837159e-02
1.044173e-01
1.106092e-01
1.170029e-01
1.236460e-01
1.305759e-01
1.378151e-01
1.453606e-01
1.531713e-01
1.611596e-01
1.691904e-01
1.770881e-01
1.846515e-01
1.916732e-01
1.979588e-01
2.033451e-01
2.077164e-01
2.110150e-01
2.132390e-01
2.144295e-01
2.146535e-01
2.139900e-01
2.125158e-01
2.102951e-01
2.073736e-01
2.037769e-01
1.995086e-01
1.945490e-01
1.888573e-01
1.823815e-01
1.750805e-01
1.669498e-01
1.580472e-01
1.485115e-01
1.385671e-01
1.285106e-01
1.186778e-01
1.094012e-01
1.009647e-01
9.357278e-02
8.733877e-02
8.228985e-02
7.838528e-02
7.554670e-02
7.369271e-02
7.276577e-02
7.274712e-02
7.365826e-02
7.554664e-02
7.846215e-02
8.243256e-02
8.744401e-02
9.343607e-02
1.003107e-01
1.079383e-01
1.161505e-01
1.247238e-01
1.333677e-01
1.417303e-01
1.494369e-01
1.561436e-01
1.615673e-01
1.654777e-01
1.676785e-01
1.680086e-01
1.663689e-01
1.627514e-01
1.572558e-01
1.500857e-01
1.415221e-01
1.318947e-01
1.215651e-01
1.109099e-01
1.002967e-01
9.005909e-02
8.047770e-02
7.176934e-02
6.407547e-02
5.745402e-02
5.188489e-02
4.729594e-02
4.361784e-02
4.084443e-02
3.904755e-02
3.834719e-02
3.887384e-02
4.072634e-02
4.393238e-02
4.843899e-02
5.412937e-02
6.083958e-02
6.836307e-02
7.644481e-02
8.477465e-02
9.299573e-02
1.007353e-01
1.076527e-01
1.134860e-01
1.180717e-01
1.213276e-01
1.232316e-01
1.238136e-01
1.231460e-01
1.213147e-01
1.183824e-01
1.143726e-01
1.092854e-01
1.031245e-01
9.591536e-02
8.772172e-02
7.866597e-02
6.894119e-02
5.880671e-02
4.856931e-02
3.855320e-02
2.906258e-02
2.035129e-02
1.260558e-02
5.927079e-03
3.124358e-04
-4.345719e-03
-8.217017e-03
-1.146926e-02
-1.421895e-02
-1.650504e-02
-1.827378e-02
-1.938698e-02
-1.966518e-02
-1.894623e-02
-1.713742e-02
-1.424701e-02
-1.038913e-02
-5.770529e-03
-6.681415e-04
4.601918e-03
9.722195e-03
1.441152e-02
1.845536e-02
2.172418e-02
2.417332e-02
2.582356e-02
2.673271e-02
2.696708e-02
2.657732e-02
2.558038e-02
2.395159e-02
2.163339e-02
1.856014e-02
1.468888e-02
1.002766e-02
4.656352e-03
-1.268901e-03
-7.532465e-03
-1.388896e-02
-2.009386e-02
-2.592825e-02
-3.121564e-02
-3.583281e-02
-3.971820e-02
-4.287638e-02
-4.537490e-02
-4.733560e-02
-4.892314e-02
-5.032757e-02
-5.173596e-02
-5.329541e-02
-5.508492e-02
-5.711327e-02
-5.933625e-02
-6.167259e-02
-6.401528e-02
-6.624639e-02
-6.825254e-02
-6.993490e-02
-7.121599e-02
-7.204676e-02
-7.241273e-02
-7.233312e-02
-7.184875e-02
-7.100528e-02
-6.984293e-02
-6.839616e-02
-6.670134e-02
-6.480779e-02
-6.278654e-02
-6.073236e-02
-5.875877e-02
-5.698802e-02
-5.553854e-02
-5.451269e-02
-5.398828e-02
-5.401660e-02
-5.462393e-02
-5.581285e-02
-5.756360e-02
-5.983625e-02
-6.257271e-02
-6.569770e-02
-6.911879e-02
-7.272743e-02
-7.640080e-02
-8.000307e-02
-8.338840e-02
-8.641037e-02
-8.893822e-02
-9.087584e-02
-9.217702e-02
-9.285071e-02
-9.295319e-02
-9.257001e-02
-9.179505e-02
-9.071426e-02
-8.939502e-02
-8.787907e-02
-8.618220e-02
-8.430326e-02
-8.223756e-02
-7.998706e-02
-7.756528e-02
-7.499857e-02
-7.232629e-02
-6.959913e-02
-6.687309e-02
-6.419958e-02
-6.161713e-02
-5.914992e-02
-5.681400e-02
-5.462782e-02
-5.262199e-02
-5.084417e-02
-4.935827e-02
-4.823981e-02
-4.756928e-02
-4.742681e-02
-4.788874e-02
-4.902207e-02
-5.087358e-02
-5.345707e-02
-5.674679e-02
-6.068113e-02
-6.517183e-02
-7.011130e-02
-7.537773e-02
-8.084254e-02
-8.638100e-02
-9.188218e-02
-9.725284e-02
-1.024146e-01
-1.072986e-01
-1.118419e-01
-1.159879e-01
-1.196896e-01
-1.229145e-01
-1.256510e-01
-1.279123e-01
-1.297371e-01
-1.311851e-01
-1.323303e-01
-1.332501e-01
-1.340147e-01
-1.346789e-01
-1.352780e-01
-1.358240e-01
-1.363014e-01
-1.366663e-01
-1.368466e-01
-1.367459e-01
-1.362489e-01
-1.352351e-01
-1.336007e-01
-1.312906e-01
-1.283252e-01
-1.248101e-01
-1.209235e-01
-1.168919e-01
-1.129659e-01
-1.093968e-01
-1.064100e-01
-1.041793e-01
-1.028098e-01
-1.023369e-01
-1.027325e-01
-1.039160e-01
-1.057676e-01
-1.081465e-01
-1.109084e-01
-1.139198e-01
-1.170698e-01
-1.202733e-01
-1.234661e-01
-1.265952e-01
-1.296060e-01
-1.324306e-01
-1.349791e-01
-1.371396e-01
-1.387853e-01
-1.397895e-01
-1.400418e-01
-1.394651e-01
-1.380294e-01
-1.357556e-01
-1.327080e-01
-1.289783e-01
-1.246709e-01
-1.198990e-01
-1.147887e-01
-1.094836e-01
-1.041447e-01
-9.894064e-02
-9.403164e-02
-8.954948e-02
-8.558200e-02
-8.216777e-02
-7.930180e-02
-7.694888e-02
-7.506157e-02
-7.360085e-02
-7.255375e-02
-7.194058e-02
-7.180875e-02
-7.221667e-02
-7.321453e-02
-7.482729e-02
-7.704508e-02
-7.982468e-02
-8.310001e-02
-8.679512e-02
-9.083411e-02
-9.514552e-02
-9.966135e-02
-1.043117e-01
-1.090169e-01
-1.136817e-01
-1.181945e-01
-1.224338e-01
-1.262788e-01
-1.296226e-01
-1.323826e-01
-1.345047e-01
-1.359613e-01
-1.367432e-01
-1.368491e-01
-1.362741e-01
-1.350022e-01
-1.330059e-01
-1.302524e-01
-1.267170e-01
-1.223975e-01
-1.173274e-01
-1.115821e-01
-1.052794e-01
-9.857253e-02
-9.163861e-02
-8.466435e-02
-7.783197e-02
-7.130620e-02
-6.522316e-02
-5.968232e-02
-5.474354e-02
-5.042984e-02
-4.673418e-02
-4.362777e-02
-4.106813e-02
-3.900491e-02
-3.738204e-02
-3.613638e-02
-3.519646e-02
-3.448515e-02
-3.392626e-02
-3.345182e-02
-3.300880e-02
-3.256629e-02
-3.212200e-02
-3.170394e-02
-3.136443e-02
-3.116739e-02
-3.117170e-02
-3.141605e-02
-3.190972e-02
-3.263015e-02
-3.352631e-02
-3.452792e-02
-3.555765e-02
-3.654141e-02
-3.741341e-02
-3.811661e-02
-3.860061e-02
-3.882013e-02
-3.873612e-02
-3.831821e-02
-3.754579e-02
-3.640691e-02
-3.489708e-02
-3.302108e-02
-3.079809e-02
-2.826686e-02
-2.548739e-02
-2.253749e-02
-1.950538e-02
-1.648082e-02
-1.354706e-02
-1.077421e-02
-8.214088e-03
-5.898218e-03
-3.840255e-03
-2.042176e-03
-5.014264e-04
7.841336e-04
1.815836e-03
2.598323e-03
3.143995e-03
3.471995e-03
3.599893e-03
3.531974e-03
3.250780e-03
2.716785e-03
1.876907e-03
6.787576e-04
-9.139392e-04
-2.908363e-03
-5.275083e-03
-7.949221e-03
-1.084135e-02
-1.385513e-02
-1.690644e-02
-1.993896e-02
-2.293116e-02
-2.589150e-02
-2.884181e-02
-3.179412e-02
-3.472941e-02
-3.758670e-02
-4.026656e-02
-4.264764e-02
-4.461140e-02
-4.606780e-02
-4.697358e-02
-4.733740e-02
-4.721325e-02
-4.668695e-02
-4.585917e-02
-4.482691e-02
-4.366794e-02
-4.243279e-02
-4.114513e-02
-3.980761e-02
-3.840957e-02
-3.693409e-02
-3.536290e-02
-3.367891e-02
-3.186694e-02
-2.991294e-02
-2.780157e-02
-2.551328e-02
-2.302346e-02
-2.030556e-02
-1.733727e-02
-1.410764e-02
-1.062266e-02
-6.908035e-03
-3.008801e-03
1.014149e-03
5.089868e-03
9.143640e-03
1.310181e-02
1.689493e-02
2.046036e-02
2.374462e-02
2.670515e-02
2.931094e-02
3.154173e-02
3.338652e-02
3.484287e-02
3.591798e-02
3.663150e-02
3.701944e-02
3.713709e-02
3.705802e-02
3.686793e-02
3.665402e-02
3.649293e-02
3.644148e-02
3.653426e-02
3.678880e-02
3.721525e-02
3.782553e-02
3.863889e-02
3.968275e-02
4.098935e-02
4.259044e-02
4.451217e-02
4.677129e-02
4.937298e-02
5.231012e-02
5.556460e-02
5.911102e-02
6.292198e-02
6.697274e-02
7.124285e-02
7.571438e-02
8.036802e-02
8.517805e-02
9.010555e-02
9.508975e-02
1.000410e-01
1.048411e-01
1.093528e-01
1.134374e-01
1.169733e-01
1.198694e-01
1.220716e-01
1.235646e-01
1.243700e-01
1.245418e-01
1.241594e-01
1.233179e-01
1.221181e-01
1.206579e-01
1.190257e-01
1.172945e-01
1.155197e-01
1.137424e-01
1.119957e-01
1.103098e-01
1.087133e-01
1.072316e-01
1.058843e-01
1.046853e-01
1.036459e-01
1.027788e-01
1.021010e-01
1.016300e-01
1.013795e-01
1.013533e-01
1.015424e-01
1.019247e-01
1.024670e-01
1.031315e-01
1.038837e-01
1.047006e-01
1.055760e-01
1.065179e-01
1.075417e-01
1.086587e-01
1.098673e-01
1.111480e-01
1.124644e-01
1.137699e-01
1.150184e-01
1.161731e-01
1.172137e-01
1.181392e-01
1.189684e-01
1.197367e-01
1.204906e-01
1.212806e-01
1.221557e-01
1.231596e-01
1.243286e-01
1.256917e-01
1.272697e-01
1.290746e-01
1.311087e-01
1.333631e-01
1.358180e-01
1.384469e-01
1.412226e-01
1.441210e-01
1.471221e-01
1.502045e-01
1.533405e-01
1.564932e-01
1.596189e-01
1.626747e-01
1.656279e-01
1.684645e-01
1.711951e-01
1.738549e-01
1.764993e-01
1.791945e-01
1.820058e-01
1.849873e-01
1.881731e-01
1.915722e-01
1.951660e-01
1.989110e-01
2.027472e-01
2.066106e-01
2.104487e-01
2.142311e-01
2.179529e-01
2.216259e-01
2.252625e-01
2.288589e-01
2.323832e-01
2.357731e-01
2.389441e-01
2.418039e-01
2.442712e-01
2.462898e-01
2.478375e-01
2.489249e-01
2.495882e-01
2.498788e-01
2.498525e-01
2.495601e-01
2.490380e-01
2.483019e-01
2.473448e-01
2.461428e-01
2.446645e-01
2.428821e-01
2.407802e-01
2.383586e-01
2.356315e-01
2.326201e-01
2.293443e-01
2.258152e-01
2.220317e-01
2.179821e-01
2.136468e-01
2.090024e-01
2.040243e-01
1.986904e-01
1.929849e-01
1.869026e-01
1.804518e-01
1.736555e-01
1.665485e-01
1.591718e-01
1.515663e-01
1.437695e-01
1.358126e-01
1.277214e-01
1.195199e-01
1.112356e-01
1.029044e-01
9.457353e-02
8.629980e-02
7.814516e-02
7.016900e-02
6.242074e-02
5.493563e-02
4.773417e-02
4.082488e-02
3.420948e-02
2.788980e-02
2.187410e-02
1.617935e-02
1.082784e-02
5.840179e-03
1.229180e-03
-3.002355e-03
-6.860491e-03
-1.035768e-02
-1.351087e-02
-1.634104e-02
-1.887373e-02
-2.114012e-02
-2.317799e-02
-2.503298e-02
-2.675938e-02
-2.841873e-02
-3.007407e-02
-3.177959e-02
-3.356824e-02
-3.544192e-02
-3.736908e-02
-3.929153e-02
-4.113818e-02
-4.284031e-02
-4.434352e-02
-4.561428e-02
-4.664063e-02
-4.742806e-02
-4.799324e-02
-4.835824e-02
-4.854603e-02
-4.857769e-02
-4.847067e-02
-4.823779e-02
-4.788704e-02
-4.742170e-02
-4.684002e-02
-4.613440e-02
-4.529128e-02
-4.429335e-02
-4.312512e-02
-4.178074e-02
-4.027126e-02
-3.862761e-02
-3.689725e-02
-3.513544e-02
-3.339383e-02
-3.171080e-02
-3.010700e-02
-2.858707e-02
-2.714488e-02
-2.576862e-02
-2.444304e-02
-2.314902e-02
-2.186235e-02
-2.055439e-02
-1.919632e-02
-1.776563e-02
-1.625199e-02
-1.465922e-02
-1.300296e-02
-1.130531e-02
-9.588831e-03
-7.872073e-03
-6.167810e-03
-4.483422e-03
-2.821493e-03
-1.179144e-03
4.536308e-04
2.095060e-03
3.770738e-03
5.510645e-03
7.344893e-03
9.298916e-03
1.138845e-02
1.361495e-02
1.596278e-02
1.839940e-02
2.087992e-02
2.335588e-02
2.578580e-02
2.814427e-02
3.042615e-02
3.264434e-02
3.482202e-02
3.698233e-02
3.913862e-02
4.128829e-02
4.341183e-02
4.547637e-02
4.744219e-02
4.926949e-02
5.092303e-02
5.237366e-02
5.359759e-02
5.457485e-02
5.528783e-02
5.572038e-02
5.585749e-02
5.568613e-02
5.519775e-02
5.439208e-02
5.327997e-02
5.188303e-02
5.022881e-02
4.834342e-02
4.624469e-02
4.394011e-02
4.143148e-02
3.872423e-02
3.583605e-02
3.279939e-02
2.965718e-02
2.645499e-02
2.323361e-02
2.002467e-02
1.684976e-02
1.372298e-02
1.065588e-02
7.663088e-03
4.766268e-03
1.993833e-03
-6.244441e-04
-3.065455e-03
-5.319776e-03
-7.395015e-03
-9.314464e-03
-1.111139e-02
-1.282048e-02
-1.446919e-02
-1.607205e-02
-1.763050e-02
-1.913836e-02
-2.059021e-02
-2.198906e-02
-2.335108e-02
-2.470579e-02
-2.609152e-02
-2.754725e-02
-2.910360e-02
-3.077612e-02
-3.256247e-02
-3.444393e-02
-3.638905e-02
-3.835770e-02
-4.030478e-02
-4.218437e-02
-4.395426e-02
-4.558025e-02
-4.703947e-02
-4.832202e-02
-4.943074e-02
-5.037936e-02
-5.118945e-02
-5.188689e-02
-5.249912e-02
-5.305400e-02
-5.357950e-02
-5.410287e-02
-5.464888e-02
-5.523781e-02
-5.588452e-02
-5.659882e-02
-5.738664e-02
-5.825120e-02
-5.919379e-02
-6.021462e-02
-6.131389e-02
-6.249274e-02
-6.375319e-02
-6.509648e-02
-6.651997e-02
-6.801302e-02
-6.955281e-02
-7.110226e-02
-7.261171e-02
-7.402495e-02
-7.528851e-02
-7.636110e-02
-7.721994e-02
-7.786150e-02
-7.829667e-02
-7.854298e-02
-7.861797e-02
-7.853601e-02
-7.830874e-02
-7.794722e-02
-7.746357e-02
-7.687057e-02
-7.617969e-02
-7.539916e-02
-7.453416e-02
-7.358918e-02
-7.257164e-02
-7.149450e-02
-7.037667e-02
-6.924163e-02
-6.811576e-02
-6.702737e-02
-6.600607e-02
-6.508121e-02
-6.427976e-02
-6.362394e-02
-6.312939e-02
-6.280445e-02
-6.265074e-02
-6.266478e-02
-6.283964e-02
-6.316583e-02
-6.363122e-02
-6.422019e-02
-6.491295e-02
-6.568589e-02
-6.651271e-02
-6.736542e-02
-6.821491e-02
-6.903200e-02
-6.978992e-02
-7.046821e-02
-7.105700e-02
-7.155998e-02
-7.199495e-02
-7.239181e-02
-7.278870e-02
-7.322695e-02
-7.374545e-02
-7.437555e-02
-7.513746e-02
-7.603774e-02
-7.706785e-02
-7.820347e-02
-7.940504e-02
-8.062029e-02
-8.178952e-02
-8.285295e-02
-8.375812e-02
-8.446576e-02
-8.495324e-02
-8.521558e-02
-8.526356e-02
-8.511950e-02
-8.481165e-02
-8.436867e-02
-8.381477e-02
-8.316582e-02
-8.242757e-02
-8.159667e-02
-8.066482e-02
-7.962487e-02
-7.847714e-02
-7.723350e-02
-7.591754e-02
-7.456077e-02
-7.319583e-02
-7.184871e-02
-7.053267e-02
-6.924625e-02
-6.797649e-02
-6.670694e-02
-6.542749e-02
-6.414228e-02
-6.287181e-02
-6.164834e-02
-6.050659e-02
-5.947375e-02
-5.856267e-02
-5.776973e-02
-5.707653e-02
-5.645407e-02
-5.586781e-02
-5.528280e-02
-5.466806e-02
-5.399983e-02
-5.326316e-02
-5.245118e-02
-5.156183e-02
-5.059281e-02
-4.953685e-02
-4.837902e-02
-4.709719e-02
-4.566534e-02
-4.405882e-02
-4.226039e-02
-4.026608e-02
-3.808929e-02
-3.576120e-02
-3.332628e-02
-3.083454e-02
-2.833447e-02
-2.586934e-02
-2.347694e-02
-2.119152e-02
-1.904614e-02
-1.707332e-02
-1.530282e-02
-1.375746e-02
-1.244914e-02
-1.137700e-02
-1.052900e-02
-9.886117e-03
-9.427786e-03
-9.136954e-03
-9.003667e-03
-9.026025e-03
-9.208257e-03
-9.556690e-03
-1.007495e-02
-1.076006e-02
-1.160083e-02
-1.257923e-02
-1.367420e-02
-1.486632e-02
-1.614127e-02
-1.749058e-02
-1.890972e-02
-2.039447e-02
-2.193725e-02
-2.352500e-02
-2.513894e-02
-2.675635e-02
-2.835295e-02
-2.990447e-02
-3.138671e-02
-3.277499e-02
-3.404417e-02
-3.516964e-02
-3.612860e-02
-3.690123e-02
-3.747165e-02
-3.782879e-02
-3.796738e-02
-3.788886e-02
-3.760184e-02
-3.712144e-02
