EVENT_NAME: CENTRAL_ITALY
EVENT_ID: EMSC-20161026_0000077
EVENT_DATE_YYYYMMDD: 20161026
EVENT_TIME_HHMMSS: 171036
EVENT_LATITUDE_DEGREE: 42.8802
EVENT_LONGITUDE_DEGREE: 13.1275
EVENT_DEPTH_KM: 8.7
HYPOCENTER_REFERENCE: INGV-CNT_Seismic_Bulletin
MAGNITUDE_W: 5.4
MAGNITUDE_W_REFERENCE: INGV-webservice
MAGNITUDE_L: 5.4
MAGNITUDE_L_REFERENCE: INGV-CNT_Seismic_Bulletin
FOCAL_MECHANISM: NF
NETWORK: IT
STATION_CODE: ACC
STATION_NAME: Accumoli
STATION_LATITUDE_DEGREE: 42.695999
STATION_LONGITUDE_DEGREE: 13.242000
STATION_ELEVATION_M: 922
LOCATION: 
SENSOR_DEPTH_M: 
VS30_M/S: 
SITE_CLASSIFICATION_EC8: A*
MORPHOLOGIC_CLASSIFICATION: 
EPICENTRAL_DISTANCE_KM: 22.5
EARTHQUAKE_BACKAZIMUTH_DEGREE: 335.4
DATE_TIME_FIRST_SAMPLE_YYYYMMDD_HHMMSS: 20161026_171034.835
DATE_TIME_FIRST_SAMPLE_PRECISION: milliseconds
SAMPLING_INTERVAL_S: 0.005000
NDATA: 7433
DURATION_S: 37.165
STREAM: HGN
UNITS: cm
INSTRUMENT: sensor = Unknown [Unknown] | digitizer = Unknown [Unknown]
INSTRUMENT_ANALOG/DIGITAL: D
INSTRUMENTAL_FREQUENCY_HZ: 
INSTRUMENTAL_DAMPING: 
FULL_SCALE_G: 
N_BIT_DIGITAL_CONVERTER: 
PGD_CM: 0.334858
TIME_PGD_S: 11.855000
BASELINE_CORRECTION: BASELINE REMOVED
FILTER_TYPE: BUTTERWORTH
FILTER_ORDER: 2
LOW_CUT_FREQUENCY_HZ: 0.100
HIGH_CUT_FREQUENCY_HZ: 30.000
LATE/NORMAL_TRIGGERED: NT
DATABASE_VERSION: DYNA 1.0
HEADER_FORMAT: DYNA 1.2
DATA_TYPE: DISPLACEMENT
PROCESSING: manual (Paolucci et al., 2011)
DATA_TIMESTAMP_YYYYMMDD_HHMMSS: 20161027_131047.653
DATA_LICENSE: CC-BY3_0-IT (http://creativecommons.org/licenses/by/3.0/deed.en)
DATA_CITATION: ESM working group (2015), European Strong-Motion database, version 0.1, Network Activity 3: Networking acceleration networks and SM data users. Project NERA (www.nera-eu.org)
DATA_CREATOR: ESM working group
ORIGINAL_DATA_MEDIATOR_CITATION: Ufficio Rischio Sismico e Vulcanico del Dipartimento della Protezione Civile (http://www.protezionecivile.gov.it/)
ORIGINAL_DATA_MEDIATOR: Rete Accelerometrica Nazionale - RAN Download (http://www.mot1.it/randownload/)
ORIGINAL_DATA_CREATOR_CITATION: Italian Strong Motion Network, Italian Civil Protection Department http://www.protezionecivile.gov.it
ORIGINAL_DATA_CREATOR: network: IT (Italian Strong Motion Network); owner: Dipartimento Della Protezione Civile
USER1: /home/dyna/processing-itaca/processing.py /var/www/processing//tmp/felicetta//IT.ACC..HGE.D.20161026.171036.X.ACC.ASC /var/www/processing//tmp/felicetta//IT.ACC..HGN.D.20161026.171036.X.ACC.ASC /var/www/processing//tmp/felicetta//IT.ACC..HGZ.D.20161026.171036.X.ACC.ASC --tmp /var/www/processing//tmp/felicetta/ --le 0.100 --he 30.000 --ln 0.100 --hn 30.000 --lz 0.100 --hz 30.000 --fo 2 --ca 0 --cz 40 --ta 5 --tz 5 --mf 1 --rf 0 --tr NT
USER2: 
USER3: 
USER4: 
USER5: 
[...]
-7.554037e-03
-7.757595e-03
-7.936714e-03
-8.100737e-03
-8.258737e-03
-8.417498e-03
-8.579944e-03
-8.744672e-03
-8.907002e-03
-9.061600e-03
-9.206360e-03
-9.346348e-03
-9.495919e-03
-9.677402e-03
-9.915822e-03
-1.023066e-02
-1.062759e-02
-1.109419e-02
-1.160199e-02
-1.211413e-02
-1.259485e-02
-1.301692e-02
-1.336551e-02
-1.363908e-02
-1.384861e-02
-1.401556e-02
-1.416812e-02
-1.433534e-02
-1.453973e-02
-1.479057e-02
-1.508102e-02
-1.539110e-02
-1.569538e-02
-1.597208e-02
-1.621040e-02
-1.641370e-02
-1.659812e-02
-1.678764e-02
-1.700799e-02
-1.728080e-02
-1.761876e-02
-1.802250e-02
-1.848006e-02
-1.896960e-02
-1.946476e-02
-1.994166e-02
-2.038508e-02
-2.079071e-02
-2.116188e-02
-2.150338e-02
-2.181641e-02
-2.209716e-02
-2.233912e-02
-2.253696e-02
-2.268956e-02
-2.280094e-02
-2.288090e-02
-2.294638e-02
-2.302137e-02
-2.313234e-02
-2.329956e-02
-2.352906e-02
-2.380951e-02
-2.411547e-02
-2.441593e-02
-2.468474e-02
-2.490833e-02
-2.508741e-02
-2.523324e-02
-2.536221e-02
-2.549134e-02
-2.563510e-02
-2.580261e-02
-2.599524e-02
-2.620547e-02
-2.641723e-02
-2.660767e-02
-2.675122e-02
-2.682694e-02
-2.682741e-02
-2.676516e-02
-2.667376e-02
-2.660276e-02
-2.660679e-02
-2.673125e-02
-2.699953e-02
-2.740719e-02
-2.792489e-02
-2.850706e-02
-2.910251e-02
-2.966476e-02
-3.016024e-02
-3.057261e-02
-3.090333e-02
-3.116998e-02
-3.140209e-02
-3.163404e-02
-3.189624e-02
-3.220826e-02
-3.257677e-02
-3.299910e-02
-3.346965e-02
-3.398478e-02
-3.454301e-02
-3.514119e-02
-3.577091e-02
-3.641799e-02
-3.706462e-02
-3.769156e-02
-3.827810e-02
-3.880133e-02
-3.923883e-02
-3.957677e-02
-3.981912e-02
-3.999074e-02
-4.013149e-02
-4.028395e-02
-4.047979e-02
-4.073026e-02
-4.102489e-02
-4.133826e-02
-4.164025e-02
-4.190460e-02
-4.211306e-02
-4.225700e-02
-4.233953e-02
-4.237763e-02
-4.240024e-02
-4.244054e-02
-4.252527e-02
-4.266560e-02
-4.285254e-02
-4.305872e-02
-4.324733e-02
-4.338438e-02
-4.344785e-02
-4.343010e-02
-4.333598e-02
-4.318040e-02
-4.298655e-02
-4.278280e-02
-4.259639e-02
-4.244586e-02
-4.233724e-02
-4.226746e-02
-4.223272e-02
-4.223550e-02
-4.228456e-02
-4.238824e-02
-4.254718e-02
-4.275254e-02
-4.298987e-02
-4.324427e-02
-4.350378e-02
-4.376133e-02
-4.401595e-02
-4.427352e-02
-4.454782e-02
-4.486215e-02
-4.524925e-02
-4.574567e-02
-4.638119e-02
-4.716905e-02
-4.810193e-02
-4.915271e-02
-5.027652e-02
-5.141312e-02
-5.249277e-02
-5.344690e-02
-5.422189e-02
-5.479157e-02
-5.516375e-02
-5.537792e-02
-5.549495e-02
-5.558239e-02
-5.569922e-02
-5.588301e-02
-5.614279e-02
-5.646095e-02
-5.680460e-02
-5.714226e-02
-5.745822e-02
-5.775807e-02
-5.806257e-02
-5.839159e-02
-5.874631e-02
-5.909969e-02
-5.939958e-02
-5.958054e-02
-5.957710e-02
-5.933498e-02
-5.882145e-02
-5.803606e-02
-5.701873e-02
-5.584951e-02
-5.463618e-02
-5.349337e-02
-5.252175e-02
-5.179244e-02
-5.133774e-02
-5.115117e-02
-5.119869e-02
-5.143429e-02
-5.181083e-02
-5.228405e-02
-5.281305e-02
-5.336116e-02
-5.389847e-02
-5.440472e-02
-5.486863e-02
-5.528257e-02
-5.563643e-02
-5.591693e-02
-5.611431e-02
-5.623173e-02
-5.628917e-02
-5.631781e-02
-5.634876e-02
-5.640284e-02
-5.648565e-02
-5.658881e-02
-5.669781e-02
-5.680386e-02
-5.691326e-02
-5.704809e-02
-5.723820e-02
-5.751012e-02
-5.787804e-02
-5.833808e-02
-5.886593e-02
-5.941958e-02
-5.994799e-02
-6.040294e-02
-6.075089e-02
-6.098237e-02
-6.111454e-02
-6.118386e-02
-6.123154e-02
-6.128934e-02
-6.137193e-02
-6.147795e-02
-6.159865e-02
-6.172745e-02
-6.186283e-02
-6.200409e-02
-6.214792e-02
-6.229140e-02
-6.243846e-02
-6.260316e-02
-6.280579e-02
-6.306272e-02
-6.337526e-02
-6.372299e-02
-6.406460e-02
-6.434587e-02
-6.451271e-02
-6.452520e-02
-6.436721e-02
-6.404972e-02
-6.360908e-02
-6.310134e-02
-6.259160e-02
-6.213929e-02
-6.178448e-02
-6.154048e-02
-6.139492e-02
-6.131859e-02
-6.127875e-02
-6.125156e-02
-6.122802e-02
-6.121124e-02
-6.120828e-02
-6.122291e-02
-6.125386e-02
-6.129734e-02
-6.134923e-02
-6.140415e-02
-6.145181e-02
-6.147359e-02
-6.144341e-02
-6.133514e-02
-6.113403e-02
-6.084549e-02
-6.049696e-02
-6.013201e-02
-5.979885e-02
-5.953635e-02
-5.936198e-02
-5.926579e-02
-5.921289e-02
-5.915367e-02
-5.903869e-02
-5.883409e-02
-5.853238e-02
-5.815212e-02
-5.772399e-02
-5.727069e-02
-5.679577e-02
-5.629018e-02
-5.575134e-02
-5.520132e-02
-5.469247e-02
-5.429664e-02
-5.408305e-02
-5.409572e-02
-5.433994e-02
-5.478128e-02
-5.535526e-02
-5.598337e-02
-5.659075e-02
-5.712121e-02
-5.754646e-02
-5.786746e-02
-5.810905e-02
-5.831098e-02
-5.851588e-02
-5.875483e-02
-5.903511e-02
-5.933741e-02
-5.962494e-02
-5.985749e-02
-6.000244e-02
-6.004069e-02
-5.996935e-02
-5.980161e-02
-5.956283e-02
-5.928336e-02
-5.899004e-02
-5.869831e-02
-5.840776e-02
-5.810490e-02
-5.777283e-02
-5.740165e-02
-5.699403e-02
-5.656685e-02
-5.615152e-02
-5.579071e-02
-5.552851e-02
-5.539660e-02
-5.540391e-02
-5.553364e-02
-5.574764e-02
-5.599647e-02
-5.623416e-02
-5.643358e-02
-5.659594e-02
-5.674910e-02
-5.693637e-02
-5.720114e-02
-5.757259e-02
-5.805583e-02
-5.862911e-02
-5.924939e-02
-5.986525e-02
-6.043356e-02
-6.093338e-02
-6.137080e-02
-6.177242e-02
-6.217030e-02
-6.258517e-02
-6.301489e-02
-6.343355e-02
-6.380090e-02
-6.407606e-02
-6.423005e-02
-6.425469e-02
-6.416588e-02
-6.399904e-02
-6.379731e-02
-6.359850e-02
-6.342613e-02
-6.328461e-02
-6.315762e-02
-6.301239e-02
-6.281124e-02
-6.252474e-02
-6.214066e-02
-6.166727e-02
-6.113153e-02
-6.057161e-02
-6.002471e-02
-5.951542e-02
-5.904829e-02
-5.860502e-02
-5.814657e-02
-5.762254e-02
-5.698802e-02
-5.622337e-02
-5.534843e-02
-5.442371e-02
-5.353727e-02
-5.278238e-02
-5.223378e-02
-5.193077e-02
-5.187177e-02
-5.201963e-02
-5.231118e-02
-5.266616e-02
-5.299641e-02
-5.321955e-02
-5.327648e-02
-5.314658e-02
-5.285212e-02
-5.244820e-02
-5.200295e-02
-5.157930e-02
-5.122627e-02
-5.097836e-02
-5.085712e-02
-5.087108e-02
-5.101521e-02
-5.127309e-02
-5.162273e-02
-5.204286e-02
-5.251400e-02
-5.301240e-02
-5.350299e-02
-5.394042e-02
-5.428034e-02
-5.449423e-02
-5.458008e-02
-5.456517e-02
-5.450011e-02
-5.444455e-02
-5.444987e-02
-5.454551e-02
-5.473168e-02
-5.497848e-02
-5.523406e-02
-5.544161e-02
-5.555782e-02
-5.556524e-02
-5.547487e-02
-5.531798e-02
-5.512896e-02
-5.492716e-02
-5.470934e-02
-5.445750e-02
-5.415584e-02
-5.380649e-02
-5.343510e-02
-5.308451e-02
-5.280181e-02
-5.262763e-02
-5.259165e-02
-5.271280e-02
-5.300069e-02
-5.345421e-02
-5.405580e-02
-5.476523e-02
-5.552080e-02
-5.625101e-02
-5.689052e-02
-5.739130e-02
-5.772649e-02
-5.789179e-02
-5.790787e-02
-5.782072e-02
-5.769401e-02
-5.759160e-02
-5.755622e-02
-5.759455e-02
-5.767790e-02
-5.775853e-02
-5.779213e-02
-5.775503e-02
-5.765097e-02
-5.750819e-02
-5.736880e-02
-5.727316e-02
-5.724509e-02
-5.728607e-02
-5.738121e-02
-5.751180e-02
-5.766560e-02
-5.784010e-02
-5.803970e-02
-5.827027e-02
-5.853476e-02
-5.883271e-02
-5.916348e-02
-5.952905e-02
-5.993271e-02
-6.037632e-02
-6.086183e-02
-6.139539e-02
-6.198558e-02
-6.263384e-02
-6.332653e-02
-6.403751e-02
-6.473906e-02
-6.541411e-02
-6.606422e-02
-6.670899e-02
-6.737380e-02
-6.807015e-02
-6.878048e-02
-6.945682e-02
-7.003076e-02
-7.042652e-02
-7.057270e-02
-7.041349e-02
-6.991809e-02
-6.908383e-02
-6.793119e-02
-6.649691e-02
-6.483147e-02
-6.300036e-02
-6.108349e-02
-5.916969e-02
-5.734661e-02
-5.568852e-02
-5.424586e-02
-5.304005e-02
-5.206568e-02
-5.129762e-02
-5.069798e-02
-5.021971e-02
-4.980801e-02
-4.940401e-02
-4.895277e-02
-4.841403e-02
-4.777017e-02
-4.702782e-02
-4.621421e-02
-4.537200e-02
-4.455318e-02
-4.380888e-02
-4.317510e-02
-4.266243e-02
-4.225808e-02
-4.193860e-02
-4.168490e-02
-4.149222e-02
-4.137103e-02
-4.133939e-02
-4.141298e-02
-4.159868e-02
-4.189331e-02
-4.228462e-02
-4.275193e-02
-4.326580e-02
-4.378909e-02
-4.428078e-02
-4.470071e-02
-4.501216e-02
-4.518308e-02
-4.518907e-02
-4.501990e-02
-4.468727e-02
-4.423054e-02
-4.371589e-02
-4.322670e-02
-4.284753e-02
-4.264748e-02
-4.266745e-02
-4.291385e-02
-4.336139e-02
-4.396319e-02
-4.466184e-02
-4.539617e-02
-4.610411e-02
-4.672501e-02
-4.720312e-02
-4.749174e-02
-4.755656e-02
-4.737773e-02
-4.695158e-02
-4.629312e-02
-4.543861e-02
-4.444409e-02
-4.337602e-02
-4.229363e-02
-4.122992e-02
-4.018273e-02
-3.912272e-02
-3.801283e-02
-3.682628e-02
-3.555477e-02
-3.420885e-02
-3.281539e-02
-3.141332e-02
-3.004649e-02
-2.875407e-02
-2.756047e-02
-2.646779e-02
-2.545477e-02
-2.448423e-02
-2.351659e-02
-2.252293e-02
-2.149258e-02
-2.043502e-02
-1.937819e-02
-1.836257e-02
-1.743006e-02
-1.661107e-02
-1.591697e-02
-1.534161e-02
-1.486853e-02
-1.447838e-02
-1.415433e-02
-1.388690e-02
-1.367760e-02
-1.353863e-02
-1.348609e-02
-1.352743e-02
-1.364857e-02
-1.380914e-02
-1.395046e-02
-1.401237e-02
-1.394929e-02
-1.373761e-02
-1.337278e-02
-1.286119e-02
-1.221502e-02
-1.145275e-02
-1.060060e-02
-9.690855e-03
-8.757478e-03
-7.831257e-03
-6.935602e-03
-6.083257e-03
-5.273488e-03
-4.488842e-03
-3.692951e-03
-2.833783e-03
-1.854862e-03
-7.107150e-04
6.208792e-04
2.133331e-03
3.789424e-03
5.521077e-03
7.234706e-03
8.827409e-03
1.021244e-02
1.134416e-02
1.222999e-02
1.292286e-02
1.349656e-02
1.401457e-02
1.450605e-02
1.496062e-02
1.534275e-02
1.561611e-02
1.576509e-02
1.580723e-02
1.579739e-02
1.582524e-02
1.600533e-02
1.646007e-02
1.729831e-02
1.859389e-02
2.037227e-02
2.261220e-02
2.526163e-02
2.825905e-02
3.155014e-02
3.509516e-02
3.886987e-02
4.286447e-02
4.708267e-02
5.154066e-02
5.626482e-02
6.128812e-02
6.664644e-02
7.237706e-02
7.852015e-02
8.512072e-02
9.222574e-02
9.987431e-02
1.080860e-01
1.168545e-01
1.261473e-01
1.359053e-01
1.460372e-01
1.564113e-01
1.668522e-01
1.771503e-01
1.870830e-01
1.964393e-01
2.050360e-01
2.127269e-01
2.194051e-01
2.250001e-01
2.294737e-01
2.328217e-01
2.350851e-01
2.363589e-01
2.367894e-01
2.365576e-01
2.358565e-01
2.348673e-01
2.337417e-01
2.325940e-01
2.315048e-01
2.305291e-01
2.297067e-01
2.290697e-01
2.286449e-01
2.284504e-01
2.284871e-01
2.287311e-01
2.291300e-01
2.296050e-01
2.300589e-01
2.303884e-01
2.304973e-01
2.303089e-01
2.297726e-01
2.288656e-01
2.275928e-01
2.259880e-01
2.241178e-01
2.220884e-01
2.200507e-01
2.181957e-01
2.167348e-01
2.158688e-01
2.157544e-01
2.164785e-01
2.180437e-01
2.203707e-01
2.233116e-01
2.266647e-01
2.301874e-01
2.336143e-01
2.366813e-01
2.391505e-01
2.408282e-01
2.415752e-01
2.413101e-01
2.400077e-01
2.376966e-01
2.344566e-01
2.304121e-01
2.257233e-01
2.205726e-01
2.151512e-01
2.096451e-01
2.042234e-01
1.990289e-01
1.941674e-01
1.896966e-01
1.856214e-01
1.818972e-01
1.784406e-01
1.751411e-01
1.718750e-01
1.685212e-01
1.649773e-01
1.611735e-01
1.570834e-01
1.527289e-01
1.481786e-01
1.435410e-01
1.389542e-01
1.345717e-01
1.305469e-01
1.270215e-01
1.241206e-01
1.219505e-01
1.205959e-01
1.201109e-01
1.205085e-01
1.217554e-01
1.237802e-01
1.264922e-01
1.298009e-01
1.336308e-01
1.379288e-01
1.426632e-01
1.478164e-01
1.533725e-01
1.593016e-01
1.655442e-01
1.720014e-01
1.785341e-01
1.849761e-01
1.911583e-01
1.969378e-01
2.022204e-01
2.069712e-01
2.112155e-01
2.150320e-01
2.185358e-01
2.218527e-01
2.250901e-01
2.283153e-01
2.315439e-01
2.347363e-01
2.378016e-01
2.406095e-01
2.430096e-01
2.448518e-01
2.460037e-01
2.463666e-01
2.458919e-01
2.445900e-01
2.425290e-01
2.398171e-01
2.365819e-01
2.329592e-01
2.290902e-01
2.251210e-01
2.212062e-01
2.175109e-01
2.142029e-01
2.114368e-01
2.093497e-01
2.080627e-01
2.076692e-01
2.082120e-01
2.096684e-01
2.119515e-01
2.149214e-01
2.184077e-01
2.222344e-01
2.262327e-01
2.302402e-01
2.341008e-01
2.376702e-01
2.408225e-01
2.434555e-01
2.454985e-01
2.469303e-01
2.478024e-01
2.482517e-01
2.484793e-01
2.486862e-01
2.489951e-01
2.494125e-01
2.498374e-01
2.500919e-01
2.499786e-01
2.493510e-01
2.481456e-01
2.463719e-01
2.440968e-01
2.414333e-01
2.385172e-01
2.354850e-01
2.324760e-01
2.296529e-01
2.272151e-01
2.253853e-01
2.243854e-01
2.244178e-01
2.256458e-01
2.281702e-01
2.320170e-01
2.371350e-01
2.433975e-01
2.506087e-01
2.585168e-01
2.668369e-01
2.752755e-01
2.835501e-01
2.914026e-01
2.986077e-01
3.049799e-01
3.103745e-01
3.146867e-01
3.178550e-01
3.198736e-01
3.208163e-01
3.208656e-01
3.203171e-01
3.195325e-01
3.188553e-01
3.185387e-01
3.187198e-01
3.194369e-01
3.206615e-01
3.223255e-01
3.243362e-01
3.265737e-01
3.288780e-01
3.310542e-01
3.328984e-01
3.342217e-01
3.348584e-01
3.346691e-01
3.335489e-01
3.314362e-01
3.283149e-01
3.242121e-01
3.191974e-01
3.133835e-01
3.069271e-01
3.000304e-01
2.929388e-01
2.859258e-01
2.792697e-01
2.732226e-01
2.679836e-01
2.636842e-01
2.603913e-01
2.581197e-01
2.568508e-01
2.565499e-01
2.571727e-01
2.586597e-01
2.609261e-01
2.638533e-01
2.672866e-01
2.710452e-01
2.749446e-01
2.788252e-01
2.825765e-01
2.861497e-01
2.895583e-01
2.928626e-01
2.961353e-01
2.994172e-01
3.026836e-01
3.058373e-01
3.087242e-01
3.111652e-01
3.129894e-01
3.140566e-01
3.142621e-01
3.135334e-01
3.118241e-01
3.091103e-01
3.053904e-01
3.006848e-01
2.950407e-01
2.885402e-01
2.813048e-01
2.734911e-01
2.652762e-01
2.568365e-01
2.483274e-01
2.398731e-01
2.315703e-01
2.234953e-01
2.157097e-01
2.082609e-01
2.011793e-01
1.944760e-01
1.881444e-01
1.821697e-01
1.765419e-01
1.712630e-01
1.663479e-01
1.618182e-01
1.576943e-01
1.539885e-01
1.506983e-01
1.477990e-01
1.452393e-01
1.429405e-01
1.408016e-01
1.387064e-01
1.365349e-01
1.341781e-01
1.315540e-01
1.286167e-01
1.253575e-01
1.217987e-01
1.179812e-01
1.139500e-01
1.097405e-01
1.053659e-01
1.008097e-01
9.602538e-02
9.094600e-02
8.549858e-02
7.961820e-02
7.325775e-02
6.639422e-02
5.903194e-02
5.120269e-02
4.296412e-02
3.439841e-02
2.561001e-02
1.671867e-02
7.846207e-03
-8.988741e-04
-9.432921e-03
-1.770257e-02
-2.568648e-02
-3.339340e-02
-4.085355e-02
-4.810334e-02
-5.516920e-02
-6.205685e-02
-6.874771e-02
-7.520072e-02
-8.135812e-02
-8.715513e-02
-9.253144e-02
-9.743842e-02
-1.018381e-01
-1.056960e-01
-1.089739e-01
-1.116261e-01
-1.136006e-01
-1.148461e-01
-1.153191e-01
-1.149912e-01
-1.138541e-01
-1.119208e-01
-1.092248e-01
-1.058183e-01
-1.017709e-01
-9.716876e-02
-9.211296e-02
-8.671739e-02
-8.110567e-02
-7.540817e-02
-6.975946e-02
-6.429529e-02
-5.914635e-02
-5.442746e-02
-5.022391e-02
-4.657905e-02
-4.348885e-02
-4.090683e-02
-3.875518e-02
-3.693501e-02
-3.533651e-02
-3.385339e-02
-3.239982e-02
-3.092301e-02
-2.940674e-02
-2.786749e-02
-2.634750e-02
-2.490650e-02
-2.361145e-02
-2.252541e-02
-2.170012e-02
-2.117647e-02
-2.099155e-02
-2.118612e-02
-2.180794e-02
-2.291048e-02
-2.454839e-02
-2.677014e-02
-2.960723e-02
-3.306185e-02
-3.709709e-02
-4.163296e-02
-4.654932e-02
-5.169669e-02
-5.691395e-02
-6.204832e-02
-6.697196e-02
-7.159162e-02
-7.585083e-02
-7.972564e-02
-8.321642e-02
-8.633841e-02
-8.911262e-02
-9.155842e-02
-9.368853e-02
-9.550758e-02
-9.701697e-02
-9.822673e-02
-9.916887e-02
-9.990355e-02
-1.005148e-01
-1.010996e-01
-1.017542e-01
-1.025594e-01
-1.035667e-01
-1.047907e-01
-1.062113e-01
-1.077844e-01
-1.094545e-01
-1.111699e-01
-1.128959e-01
-1.146265e-01
-1.163869e-01
-1.182289e-01
-1.202204e-01
-1.224348e-01
-1.249381e-01
-1.277752e-01
-1.309556e-01
-1.344481e-01
-1.381865e-01
-1.420851e-01
-1.460581e-01
-1.500383e-01
-1.539916e-01
-1.579231e-01
-1.618745e-01
-1.659151e-01
-1.701295e-01
-1.746040e-01
-1.794112e-01
-1.845951e-01
-1.901633e-01
-1.960896e-01
-2.023248e-01
-2.088085e-01
-2.154776e-01
-2.222704e-01
-2.291269e-01
-2.359861e-01
-2.427826e-01
-2.494461e-01
-2.559015e-01
-2.620685e-01
-2.678629e-01
-2.732019e-01
-2.780129e-01
-2.822422e-01
-2.858616e-01
-2.888699e-01
-2.912898e-01
-2.931591e-01
-2.945195e-01
-2.954075e-01
-2.958495e-01
-2.958632e-01
-2.954627e-01
-2.946610e-01
-2.934726e-01
-2.919136e-01
-2.900002e-01
-2.877454e-01
-2.851573e-01
-2.822412e-01
-2.790061e-01
-2.754723e-01
-2.716813e-01
-2.677023e-01
-2.636339e-01
-2.595983e-01
-2.557303e-01
-2.521613e-01
-2.490061e-01
-2.463512e-01
-2.442485e-01
-2.427135e-01
-2.417295e-01
-2.412555e-01
-2.412346e-01
-2.416029e-01
-2.422969e-01
-2.432595e-01
-2.444401e-01
-2.457916e-01
-2.472656e-01
-2.488087e-01
-2.503623e-01
-2.518637e-01
-2.532520e-01
-2.544727e-01
-2.554841e-01
-2.562616e-01
-2.567994e-01
-2.571095e-01
-2.572164e-01
-2.571489e-01
-2.569342e-01
-2.565961e-01
-2.561577e-01
-2.556471e-01
-2.551036e-01
-2.545794e-01
-2.541361e-01
-2.538357e-01
-2.537294e-01
-2.538479e-01
-2.541958e-01
-2.547501e-01
-2.554619e-01
-2.562647e-01
-2.570859e-01
-2.578609e-01
-2.585434e-01
-2.591102e-01
-2.595600e-01
-2.599087e-01
-2.601846e-01
-2.604237e-01
-2.606655e-01
-2.609500e-01
-2.613129e-01
-2.617807e-01
-2.623675e-01
-2.630746e-01
-2.638929e-01
-2.648038e-01
-2.657799e-01
-2.667887e-01
-2.677990e-01
-2.687850e-01
-2.697277e-01
-2.706136e-01
-2.714326e-01
-2.721737e-01
-2.728231e-01
-2.733656e-01
-2.737891e-01
-2.740901e-01
-2.742748e-01
-2.743578e-01
-2.743564e-01
-2.742849e-01
-2.741504e-01
-2.739529e-01
-2.736899e-01
-2.733609e-01
-2.729712e-01
-2.725324e-01
-2.720607e-01
-2.715729e-01
-2.710818e-01
-2.705941e-01
-2.701106e-01
-2.696296e-01
-2.691507e-01
-2.686769e-01
-2.682145e-01
-2.677710e-01
-2.673522e-01
-2.669608e-01
-2.665958e-01
-2.662537e-01
-2.659310e-01
-2.656254e-01
-2.653354e-01
-2.650582e-01
-2.647874e-01
-2.645095e-01
-2.642031e-01
-2.638379e-01
-2.633750e-01
-2.627685e-01
-2.619675e-01
-2.609213e-01
-2.595846e-01
-2.579248e-01
-2.559267e-01
-2.535947e-01
-2.509503e-01
-2.480247e-01
-2.448504e-01
-2.414523e-01
-2.378429e-01
-2.340210e-01
-2.299765e-01
-2.256995e-01
-2.211888e-01
-2.164567e-01
-2.115274e-01
-2.064336e-01
-2.012117e-01
-1.958980e-01
-1.905260e-01
-1.851235e-01
-1.797088e-01
-1.742885e-01
-1.688572e-01
