EVENT_NAME: CENTRAL_ITALY
EVENT_ID: EMSC-20161026_0000095
EVENT_DATE_YYYYMMDD: 20161026
EVENT_TIME_HHMMSS: 191806
EVENT_LATITUDE_DEGREE: 42.9087
EVENT_LONGITUDE_DEGREE: 13.1288
EVENT_DEPTH_KM: 7.5
HYPOCENTER_REFERENCE: INGV-CNT_Seismic_Bulletin
MAGNITUDE_W: 5.9
MAGNITUDE_W_REFERENCE: INGV-webservice
MAGNITUDE_L: 5.9
MAGNITUDE_L_REFERENCE: INGV-CNT_Seismic_Bulletin
FOCAL_MECHANISM: NF
NETWORK: IT
STATION_CODE: ACC
STATION_NAME: Accumoli
STATION_LATITUDE_DEGREE: 42.695999
STATION_LONGITUDE_DEGREE: 13.242000
STATION_ELEVATION_M: 922
LOCATION: 
SENSOR_DEPTH_M: 
VS30_M/S: 
SITE_CLASSIFICATION_EC8: A*
MORPHOLOGIC_CLASSIFICATION: 
EPICENTRAL_DISTANCE_KM: 25.4
EARTHQUAKE_BACKAZIMUTH_DEGREE: 338.6
DATE_TIME_FIRST_SAMPLE_YYYYMMDD_HHMMSS: 20161026_191805.089
DATE_TIME_FIRST_SAMPLE_PRECISION: milliseconds
SAMPLING_INTERVAL_S: 0.005000
NDATA: 12982
DURATION_S: 64.910
STREAM: HGZ
UNITS: cm/s
INSTRUMENT: sensor = Unknown [Unknown] | digitizer = Unknown [Unknown]
INSTRUMENT_ANALOG/DIGITAL: D
INSTRUMENTAL_FREQUENCY_HZ: 
INSTRUMENTAL_DAMPING: 
FULL_SCALE_G: 
N_BIT_DIGITAL_CONVERTER: 
PGV_CM/S: 1.952438
TIME_PGV_S: 14.670000
BASELINE_CORRECTION: BASELINE REMOVED
FILTER_TYPE: BUTTERWORTH
FILTER_ORDER: 2
LOW_CUT_FREQUENCY_HZ: 0.040
HIGH_CUT_FREQUENCY_HZ: 40.000
LATE/NORMAL_TRIGGERED: NT
DATABASE_VERSION: DYNA 1.0
HEADER_FORMAT: DYNA 1.2
DATA_TYPE: VELOCITY
PROCESSING: manual (Paolucci et al., 2011)
DATA_TIMESTAMP_YYYYMMDD_HHMMSS: 20161028_130247.609
DATA_LICENSE: CC-BY3_0-IT (http://creativecommons.org/licenses/by/3.0/deed.en)
DATA_CITATION: ESM working group (2015), European Strong-Motion database, version 0.1, Network Activity 3: Networking acceleration networks and SM data users. Project NERA (www.nera-eu.org)
DATA_CREATOR: ESM working group
ORIGINAL_DATA_MEDIATOR_CITATION: Ufficio Rischio Sismico e Vulcanico del Dipartimento della Protezione Civile (http://www.protezionecivile.gov.it/)
ORIGINAL_DATA_MEDIATOR: Rete Accelerometrica Nazionale - RAN Download (http://www.mot1.it/randownload/)
ORIGINAL_DATA_CREATOR_CITATION: Italian Strong Motion Network, Italian Civil Protection Department http://www.protezionecivile.gov.it
ORIGINAL_DATA_CREATOR: network: IT (Italian Strong Motion Network); owner: Dipartimento Della Protezione Civile
USER1: /home/dyna/processing-itaca/processing.py /var/www/processing//tmp/dyna_ingv//IT.ACC..HGE.D.20161026.191806.X.ACC.ASC /var/www/processing//tmp/dyna_ingv//IT.ACC..HGN.D.20161026.191806.X.ACC.ASC /var/www/processing//tmp/dyna_ingv//IT.ACC..HGZ.D.20161026.191806.X.ACC.ASC --tmp /var/www/processing//tmp/dyna_ingv/ --le 0.040 --he 40.000 --ln 0.040 --hn 40.000 --lz 0.040 --hz 40.000 --fo 2 --ca 0 --cz 40 --ta 5 --tz 5 --mf 1 --rf 0 --tr NT
USER2: 
USER3: 
USER4: 
USER5: 
[...]
0.003796
0.004495
0.009072
0.015585
0.020607
0.020875
0.015598
0.007333
0.000228
-0.002850
-0.001721
0.001902
0.005955
0.008873
0.009789
0.008736
0.006668
0.004863
0.004195
0.005303
0.009228
0.017037
0.028405
0.041019
0.051909
0.059269
0.062753
0.062394
0.057916
0.049195
0.037193
0.024626
0.015869
0.015576
0.026179
0.045713
0.067764
0.084085
0.088406
0.079262
0.060466
0.039154
0.022515
0.014987
0.017397
0.027890
0.043041
0.058053
0.066904
0.063781
0.045523
0.013625
-0.025208
-0.060320
-0.080766
-0.080827
-0.064117
-0.042402
-0.029193
-0.032708
-0.052931
-0.083525
-0.115790
-0.141579
-0.154552
-0.150995
-0.131041
-0.099763
-0.066903
-0.044245
-0.041028
-0.059470
-0.092965
-0.128289
-0.151033
-0.151467
-0.127525
-0.083912
-0.029594
0.023838
0.063578
0.079075
0.066984
0.033668
-0.007598
-0.043197
-0.065095
-0.072685
-0.070854
-0.066486
-0.064791
-0.066213
-0.065733
-0.056257
-0.034212
-0.002851
0.029029
0.051382
0.057441
0.046706
0.025275
0.002975
-0.011380
-0.013743
-0.005968
0.005147
0.010162
0.000571
-0.027190
-0.069327
-0.115593
-0.153544
-0.174145
-0.175107
-0.159823
-0.133709
-0.101455
-0.066755
-0.033419
-0.006002
0.011081
0.015712
0.010136
0.000943
-0.004237
-0.001690
0.005992
0.012699
0.014657
0.014207
0.017979
0.030964
0.051749
0.072522
0.083082
0.076027
0.050833
0.015173
-0.017795
-0.035616
-0.032755
-0.012871
0.013749
0.035199
0.042801
0.034504
0.015653
-0.003877
-0.015078
-0.014498
-0.005344
0.005149
0.009686
0.003953
-0.011914
-0.033143
-0.051282
-0.056630
-0.042220
-0.008120
0.036236
0.073817
0.086215
0.061925
0.002729
-0.074969
-0.145037
-0.182169
-0.174178
-0.128230
-0.065744
-0.009864
0.025054
0.036261
0.029438
0.014184
0.000003
-0.007665
-0.009443
-0.009335
-0.009816
-0.010302
-0.009882
-0.009467
-0.010289
-0.011899
-0.013626
-0.017888
-0.030448
-0.056311
-0.094873
-0.138376
-0.174696
-0.192656
-0.187158
-0.162297
-0.130739
-0.107845
-0.102558
-0.111850
-0.124336
-0.130307
-0.128837
-0.125847
-0.126498
-0.130277
-0.133037
-0.132586
-0.131606
-0.135597
-0.148482
-0.168922
-0.188683
-0.194928
-0.177630
-0.137690
-0.088102
-0.046607
-0.026703
-0.033649
-0.065368
-0.114090
-0.166998
-0.208161
-0.223400
-0.205963
-0.159529
-0.097524
-0.039712
-0.006755
-0.013013
-0.059557
-0.131725
-0.204379
-0.252542
-0.261242
-0.230309
-0.173224
-0.110264
-0.059175
-0.029117
-0.020447
-0.027891
-0.044092
-0.062088
-0.076183
-0.082206
-0.078725
-0.068262
-0.056166
-0.047692
-0.046488
-0.054822
-0.072570
-0.095011
-0.113705
-0.121231
-0.114737
-0.095094
-0.064321
-0.024678
0.020756
0.067733
0.110847
0.143507
0.159037
0.153857
0.130688
0.097768
0.063185
0.029222
-0.007545
-0.050400
-0.096153
-0.133088
-0.144715
-0.118291
-0.053941
0.032427
0.115985
0.175478
0.202769
0.204040
0.194239
0.189348
0.199731
0.226842
0.264476
0.303272
0.334886
0.353274
0.354339
0.336659
0.303592
0.264671
0.233528
0.221489
0.230776
0.253362
0.276187
0.287277
0.278583
0.246986
0.196300
0.139055
0.093564
0.074995
0.086303
0.116534
0.147102
0.160369
0.145859
0.103402
0.043520
-0.016471
-0.061030
-0.084256
-0.090390
-0.087942
-0.084295
-0.084003
-0.088514
-0.095555
-0.099560
-0.094504
-0.077806
-0.052522
-0.026145
-0.006711
0.000958
-0.003657
-0.018553
-0.041774
-0.072036
-0.106578
-0.138885
-0.159856
-0.162135
-0.143540
-0.107264
-0.060270
-0.011466
0.030446
0.059583
0.074838
0.079034
0.075117
0.062859
0.039612
0.004496
-0.038231
-0.080407
-0.115107
-0.140743
-0.160464
-0.178267
-0.195623
-0.210295
-0.216731
-0.207880
-0.179401
-0.135083
-0.088652
-0.057943
-0.053714
-0.072046
-0.097955
-0.117361
-0.126501
-0.131320
-0.139550
-0.153618
-0.169573
-0.180933
-0.183370
-0.177201
-0.166968
-0.158439
-0.154485
-0.153088
-0.149864
-0.142635
-0.132602
-0.121206
-0.108319
-0.095130
-0.086559
-0.087187
-0.094140
-0.095886
-0.079424
-0.039557
0.016951
0.073965
0.112666
0.119376
0.091482
0.037649
-0.028834
-0.098447
-0.167155
-0.229525
-0.272310
-0.278278
-0.237471
-0.154403
-0.046817
0.059155
0.135128
0.160073
0.130627
0.063681
-0.012739
-0.074056
-0.108416
-0.115867
-0.102460
-0.076673
-0.048714
-0.028409
-0.021245
-0.026469
-0.038909
-0.052021
-0.059381
-0.055561
-0.038925
-0.014899
0.004865
0.008470
-0.009203
-0.043764
-0.084868
-0.122878
-0.153528
-0.178715
-0.204999
-0.240682
-0.290888
-0.351709
-0.407634
-0.436386
-0.420112
-0.355424
-0.254830
-0.140699
-0.039030
0.024863
0.032967
-0.016357
-0.104356
-0.199193
-0.270954
-0.303616
-0.297010
-0.261779
-0.213752
-0.169154
-0.139436
-0.127797
-0.131095
-0.145707
-0.170012
-0.199867
-0.224055
-0.228584
-0.207305
-0.167314
-0.123671
-0.089856
-0.073019
-0.075783
-0.099399
-0.143354
-0.202120
-0.264258
-0.317374
-0.355075
-0.377684
-0.385731
-0.375180
-0.340567
-0.281162
-0.203095
-0.117653
-0.039781
0.013629
0.029016
0.003106
-0.054915
-0.128189
-0.199006
-0.252299
-0.276162
-0.263494
-0.215583
-0.143830
-0.067356
-0.007968
0.016319
-0.001688
-0.054320
-0.121962
-0.182299
-0.219972
-0.230600
-0.218584
-0.192172
-0.158381
-0.119773
-0.075874
-0.028954
0.011368
0.030527
0.018192
-0.022945
-0.077018
-0.124785
-0.155317
-0.169897
-0.176673
-0.182775
-0.190160
-0.196437
-0.198974
-0.199163
-0.203177
-0.218020
-0.245774
-0.280803
-0.312567
-0.331906
-0.335201
-0.322827
-0.294803
-0.249810
-0.189587
-0.123964
-0.069886
-0.042597
-0.045085
-0.065574
-0.086614
-0.098019
-0.101922
-0.106778
-0.117526
-0.130100
-0.133175
-0.115442
-0.074401
-0.021313
0.022256
0.035861
0.012450
-0.037486
-0.093188
-0.136540
-0.160523
-0.168084
-0.164932
-0.153985
-0.135871
-0.112609
-0.089202
-0.072428
-0.068809
-0.081439
-0.105590
-0.127186
-0.128517
-0.099370
-0.045317
0.014255
0.057274
0.070327
0.052251
0.009981
-0.046749
-0.106864
-0.157628
-0.187110
-0.189559
-0.169686
-0.142291
-0.126670
-0.138037
-0.179490
-0.238546
-0.291669
-0.316109
-0.301985
-0.255888
-0.194337
-0.134374
-0.088559
-0.064197
-0.063223
-0.082276
-0.114474
-0.152286
-0.189432
-0.221250
-0.244828
-0.259758
-0.268230
-0.272998
-0.274296
-0.268769
-0.251923
-0.222264
-0.183640
-0.144135
-0.112954
-0.097535
-0.101290
-0.121444
-0.148189
-0.167965
-0.171197
-0.159819
-0.148155
-0.155311
-0.194114
-0.263885
-0.350639
-0.433686
-0.494271
-0.520442
-0.506027
-0.448054
-0.347550
-0.213359
-0.065236
0.067693
0.155363
0.179223
0.140664
0.059179
-0.037714
-0.125383
-0.189285
-0.228007
-0.250901
-0.270266
-0.294325
-0.327045
-0.371266
-0.427755
-0.490051
-0.541738
-0.561252
-0.532365
-0.453913
-0.343407
-0.232426
-0.154532
-0.131060
-0.163478
-0.236937
-0.330850
-0.426727
-0.506785
-0.549385
-0.533198
-0.450245
-0.315030
-0.160388
-0.024371
0.062124
0.084017
0.047661
-0.019899
-0.081110
-0.104268
-0.076566
-0.005533
0.089461
0.186661
0.267638
0.320749
0.343177
0.339287
0.315067
0.273929
0.219246
0.160490
0.114328
0.097827
0.119158
0.171754
0.234954
0.282236
0.293982
0.267513
0.219337
0.179519
0.180220
0.241979
0.364033
0.524129
0.687366
0.818855
0.894846
0.908280
0.867452
0.790751
0.700675
0.617819
0.556215
0.522101
0.514643
0.525533
0.538426
0.532426
0.490141
0.406096
0.291985
0.176611
0.097924
0.088114
0.159172
0.296933
0.465479
0.618860
0.716513
0.737549
0.687512
0.594534
0.497301
0.429682
0.407775
0.425406
0.461110
0.492571
0.508881
0.513508
0.518444
0.535158
0.568562
0.617136
0.677239
0.746829
0.825582
0.911801
0.998591
1.073443
1.124159
1.147129
1.149730
1.144549
1.141239
1.142292
1.144818
1.146530
1.150883
1.166293
1.199496
1.248667
1.302102
1.343081
1.356938
1.337407
1.290440
1.231799
1.177400
1.133224
1.093611
1.048744
0.993649
0.931565
0.871745
0.825785
0.803666
0.809142
0.837678
0.879669
0.925763
0.969566
1.007063
1.035540
1.054111
1.064559
1.070032
1.072202
1.070526
1.064505
1.054962
1.042140
1.024207
0.999601
0.970411
0.941654
0.917022
0.896902
0.881456
0.874686
0.884484
0.918597
0.980162
1.065314
1.162802
1.255583
1.325762
1.361783
1.363182
1.338901
1.300352
1.256098
1.212144
1.172815
1.138898
1.107751
1.077221
1.049032
1.029044
1.024984
1.042560
1.080963
1.129483
1.168414
1.176112
1.138751
1.056163
0.940070
0.807234
0.673803
0.553490
0.455946
0.382950
0.326207
0.270591
0.201820
0.114310
0.013400
-0.090172
-0.188063
-0.277139
-0.356425
-0.423784
-0.476503
-0.513720
-0.537757
-0.554591
-0.573167
-0.602114
-0.645020
-0.698115
-0.752536
-0.798357
-0.826576
-0.829462
-0.801790
-0.743001
-0.658470
-0.558835
-0.457791
-0.369087
-0.303337
-0.264880
-0.249781
-0.247952
-0.248984
-0.245567
-0.232287
-0.205018
-0.163180
-0.111248
-0.057605
-0.011644
0.019531
0.032386
0.025523
-0.001881
-0.049781
-0.114979
-0.187274
-0.247432
-0.272673
-0.248045
-0.173381
-0.061178
0.068858
0.193885
0.291712
0.345580
0.348711
0.306072
0.231733
0.143348
0.056610
-0.018897
-0.081474
-0.135814
-0.189322
-0.247801
-0.310857
-0.368819
-0.405093
-0.404518
-0.362700
-0.290511
-0.211387
-0.152336
-0.132900
-0.158247
-0.219463
-0.299748
-0.383356
-0.462551
-0.538920
-0.619898
-0.713065
-0.820224
-0.933842
-1.038655
-1.118840
-1.166320
-1.184034
-1.183380
-1.179030
-1.182640
-1.196597
-1.211342
-1.209054
-1.172863
-1.097406
-0.994130
-0.886401
-0.797279
-0.738522
-0.706835
-0.688095
-0.666399
-0.631822
-0.581887
-0.518253
-0.444453
-0.366389
-0.292104
-0.229489
-0.184460
-0.160419
-0.158391
-0.177762
-0.216367
-0.269427
-0.329132
-0.385535
-0.428707
-0.452881
-0.460985
-0.465567
-0.483828
-0.528232
-0.598107
-0.677965
-0.742738
-0.766426
-0.732294
-0.642315
-0.519713
-0.400797
-0.320841
-0.301958
-0.347148
-0.441790
-0.561725
-0.683692
-0.792698
-0.883235
-0.955112
-1.008107
-1.039810
-1.048541
-1.038918
-1.024244
-1.022535
-1.049011
-1.109433
-1.197001
-1.294768
-1.382683
-1.444740
-1.473331
-1.471747
-1.454393
-1.441454
-1.448460
-1.478330
-1.522161
-1.566014
-1.596692
-1.604505
-1.585741
-1.544921
-1.493512
-1.444890
-1.408921
-1.388416
-1.378769
-1.371860
-1.362021
-1.349112
-1.336541
-1.326909
-1.319580
-1.311959
-1.302478
-1.292245
-1.283839
-1.278000
-1.271403
-1.258100
-1.232613
-1.191040
-1.130746
-1.051959
-0.961153
-0.871576
-0.797795
-0.747519
-0.717661
-0.697518
-0.675422
-0.644423
-0.605269
-0.566214
-0.539705
-0.537766
-0.568762
-0.636498
-0.740886
-0.878713
-1.042956
-1.221481
-1.397480
-1.551985
-1.667896
-1.734984
-1.753452
-1.732767
-1.685446
-1.619924
-1.538089
-1.439030
-1.324701
-1.202996
-1.087692
-0.995269
-0.938125
-0.917383
-0.920739
-0.926775
-0.912385
-0.859885
-0.762273
-0.625703
-0.468626
-0.318587
-0.207502
-0.163994
-0.203730
-0.322964
-0.498301
-0.691436
-0.858078
-0.960451
-0.978861
-0.915798
-0.790961
-0.632006
-0.466577
-0.317923
-0.204079
-0.139131
-0.133175
-0.188733
-0.296216
-0.433037
-0.568150
-0.670990
-0.721402
-0.714937
-0.660745
-0.575273
-0.475857
-0.376428
-0.287261
-0.217798
-0.177315
-0.171403
-0.198976
-0.253346
-0.324537
-0.399457
-0.462396
-0.499793
-0.506857
-0.489878
-0.462922
-0.442020
-0.438924
-0.456279
-0.486574
-0.514886
-0.524575
-0.504992
-0.457578
-0.396055
-0.340495
-0.308803
-0.309697
-0.339569
-0.383627
-0.420742
-0.430953
-0.402919
-0.338177
-0.250649
-0.161286
-0.089717
-0.047727
-0.038156
-0.057076
-0.095571
-0.141913
-0.185782
-0.222142
-0.251634
-0.277600
-0.302385
-0.325296
-0.342327
-0.346302
-0.328033
-0.280052
-0.201335
-0.099423
0.011455
0.114677
0.195702
0.245660
0.264117
0.260024
0.248219
0.241773
0.245844
0.257690
0.270560
0.276429
0.266609
0.233283
0.173367
0.091762
0.000985
-0.081978
-0.139411
-0.156887
-0.127784
-0.056794
0.040273
0.141502
0.226513
0.283198
0.311331
0.321727
0.330784
0.353375
0.397954
0.464911
0.547334
0.633621
0.711594
0.773121
0.817235
0.849873
0.880548
0.918156
0.967505
1.027335
1.090653
1.147393
1.187890
1.205259
1.196119
1.160957
1.105189
1.039315
0.975228
0.919067
0.865929
0.802100
0.714505
0.600805
0.473747
0.357964
0.280512
0.258896
0.293050
0.366313
0.454130
0.533935
0.590486
0.616250
0.610138
0.577185
0.528702
0.480201
0.445634
0.430726
0.430230
0.430882
0.417894
0.381587
0.321217
0.244224
0.161789
0.084178
0.018699
-0.030033
-0.059096
-0.066140
-0.048387
-0.002295
0.075325
0.184577
0.319569
0.467654
0.612251
0.738107
0.835776
0.903157
0.943494
0.960800
0.956196
0.928384
0.877639
0.810027
0.738406
0.678805
0.644627
0.642610
0.672175
0.727591
0.801879
0.890320
0.991235
1.104573
1.230770
1.369842
1.518925
1.669048
1.804140
1.904308
1.952438
1.940839
1.874742
1.770852
1.651215
1.535782
1.438197
1.366085
1.322798
1.307805
1.316504
1.341262
1.373262
1.403545
1.422707
1.420120
1.384861
1.310069
1.198143
1.061809
0.919735
0.789544
0.682303
0.601299
0.544341
0.506281
0.479633
0.454081
0.417700
0.361346
0.283666
0.192523
0.101408
0.023124
-0.035813
-0.077150
-0.107902
-0.134805
-0.160811
-0.184854
-0.202921
-0.209702
-0.200969
-0.175141
-0.132611
-0.073864
0.001012
0.090292
0.188117
0.283887
0.363760
0.414025
0.426697
0.405491
0.367473
0.337143
0.335361
0.370250
0.436085
0.519879
0.609692
0.698335
0.781081
0.851670
0.902024
0.927004
0.930162
0.924465
0.925493
0.941288
0.966812
0.987164
0.986281
0.955026
0.895429
0.820520
0.749376
0.698587
0.674318
0.669678
0.668925
0.655348
0.617709
0.552476
0.462796
0.356320
0.242924
0.132513
0.033028
-0.050791
-0.117192
-0.166435
-0.201020
-0.226996
-0.253526
-0.289574
-0.340462
-0.407112
-0.487334
-0.576624
-0.667659
-0.750171
-0.813106
-0.848007
-0.850793
-0.821630
-0.764724
-0.688223
-0.603286
-0.522472
-0.457727
-0.417642
-0.404649
-0.414328
-0.438032
-0.467130
-0.495661
-0.519756
-0.535456
-0.537974
-0.523725
-0.493218
-0.451382
-0.404302
-0.355400
-0.304462
-0.249541
-0.189447
-0.125455
-0.062258
-0.007550
0.030882
0.049717
0.052867
0.049530
0.048733
0.054888
0.067379
0.082813
0.096593
0.103086
0.096529
0.073586
0.036198
-0.006632
-0.038904
-0.041050
0.002935
0.098198
0.236630
0.400728
0.570232
0.727464
0.860101
0.962193
1.034171
1.081718
1.113096
1.135961
1.155776
1.175886
1.197042
1.216969
1.233207
1.248160
1.270535
1.311001
1.376319
1.466315
1.573603
1.684052
1.778315
1.836117
1.842496
1.792916
1.695387
1.569413
1.441594
1.338567
1.279591
1.270994
1.304578
1.361637
1.420410
1.462196
1.474343
1.451454
1.396082
1.318832
1.235735
1.161913
1.105239
1.064775
1.034055
1.005765
0.975401
0.943060
0.912934
0.890754
0.880069
0.879035
0.880599
0.877304
0.866757
0.851976
0.836683
0.821347
0.803106
0.777143
0.737673
0.680037
0.604426
0.518587
0.435866
0.368394
0.320656
0.289322
0.268752
0.256261
0.253132
0.262158
0.284939
0.321216
0.369582
0.427912
0.493364
0.562168
0.629119
0.687250
0.729027
0.749714
0.751214
0.743296
0.740723
0.757420
0.800368
0.866545
0.945070
1.023252
1.092119
1.147613
1.188142
1.212894
1.222931
1.222109
1.215429
1.206514
1.196503
1.184733
1.170477
1.154539
1.139618
1.129468
1.127584
1.135809
1.152971
1.174595
1.195203
1.212413
1.229230
1.252109
1.286464
1.332691
1.384542
1.431202
1.462541
1.473932
1.467522
1.449981
1.428331
1.406426
1.384456
1.361373
1.337898
1.317761
1.306443
1.308641
1.326357
1.358496
1.401509
1.449988
1.496755
1.533242
1.551505
1.547705
1.524395
1.489271
1.451159
1.416101
1.385740
1.358467
1.331959
1.304673
1.275290
1.241511
1.200419
1.151058
1.096698
1.044701
1.004997
0.987251
0.995400
1.022864
1.054138
1.072238
1.066183
1.034273
0.982624
0.920371
0.854351
0.787031
0.718975
0.652532
0.593077
0.547570
0.521598
0.516261
0.527227
0.546901
0.567696
0.584235
0.594246
0.598493
0.599615
0.600090
0.600733
0.600927
0.599801
0.596700
0.590561
0.579022
0.558075
0.522900
0.470237
0.401145
0.322095
0.243867
0.179087
0.138266
0.124899
0.132943
0.149026
0.157710
0.147081
0.112895
0.059486
-0.002927
-0.062421
-0.109088
-0.137251
-0.145388
-0.135325
-0.113513
-0.093072
-0.091637
-0.123161
-0.188619
-0.273363
-0.353877
-0.409089
-0.428976
-0.416660
-0.384445
-0.346787
-0.314584
-0.293545
-0.285775
-0.292273
-0.314886
-0.356583
-0.419587
-0.502924
-0.601343
-0.705668
-0.804270
-0.886111
-0.944259
-0.977102
-0.986411
-0.975252
-0.948979
-0.917302
-0.892038
-0.880346
-0.880599
-0.886029
-0.891792
-0.898179
-0.909061
-0.929468
-0.964460
-1.018132
-1.091205
-1.178356
-1.268194
-1.346874
-1.403092
-1.431357
-1.432384
-1.412045
-1.380165
-1.348422
-1.327163
-1.322940
-1.337572
-1.367782
-1.405166
-1.437311
-1.450799
-1.436645
-1.397184
-1.349421
-1.318952
-1.326000
-1.373450
-1.444862
-1.511686
-1.544963
-1.527291
-1.460186
-1.362701
-1.262330
-1.184091
-1.143281
-1.143044
-1.174971
-1.221964
-1.264018
-1.286055
-1.283890
-1.263675
-1.234793
-1.202645
-1.167352
-1.127255
-1.082339
-1.035569
-0.992797
-0.961061
-0.945334
-0.945726
-0.957005
-0.970169
-0.975229
-0.964478
-0.934885
-0.888490
-0.831430
-0.772756
-0.723286
-0.693996
-0.693288
-0.723219
-0.776315
-0.835779
-0.880904
-0.895280
-0.872509
-0.816965
-0.741509
-0.664113
-0.603474
-0.573878
-0.580973
-0.620447
-0.680137
-0.744167
-0.797439
-0.829780
-0.838981
-0.831365
-0.819068
-0.814697
-0.825650
-0.851326
-0.884839
-0.917508
-0.943314
-0.961542
-0.976514
-0.994660
-1.021031
-1.057460
-1.102938
-1.155033
-1.210712
-1.266057
-1.316112
-1.356191
-1.384123
-1.401558
-1.413231
-1.424626
-1.439422
-1.457934
-1.477106
-1.492205
-1.499310
-1.496657
-1.484205
-1.462900
-1.434932
-1.404508
-1.377701
-1.360624
-1.356971
-1.367050
-1.388732
-1.418300
-1.449883
-1.475064
-1.484769
-1.473126
-1.440633
-1.394415
-1.345921
-1.307792
-1.290478
-1.298432
-1.327217
-1.364180
-1.393713
-1.404276
-1.392730
-1.364255
-1.329244
-1.299060
-1.282037
-1.280651
-1.290405
-1.300915
-1.299143
-1.273814
-1.219828
-1.141174
-1.050514
-0.964766
-0.899073
-0.862832
-0.858944
-0.884520
-0.931632
-0.988785
-1.044268
-1.090353
-1.125209
-1.151130
