EVENT_NAME: CENTRAL_ITALY
EVENT_ID: EMSC-20161030_0000029
EVENT_DATE_YYYYMMDD: 20161030
EVENT_TIME_HHMMSS: 064018
EVENT_LATITUDE_DEGREE: 42.8400
EVENT_LONGITUDE_DEGREE: 13.1100
EVENT_DEPTH_KM: 9.4
HYPOCENTER_REFERENCE: INGV-webservice
MAGNITUDE_W: 6.5
MAGNITUDE_W_REFERENCE: INGV-webservice
MAGNITUDE_L: 6.1
MAGNITUDE_L_REFERENCE: INGV-webservice
FOCAL_MECHANISM: NF
NETWORK: IT
STATION_CODE: ACC
STATION_NAME: Accumoli
STATION_LATITUDE_DEGREE: 42.695999
STATION_LONGITUDE_DEGREE: 13.242000
STATION_ELEVATION_M: 922
LOCATION: 
SENSOR_DEPTH_M: 
VS30_M/S: 
SITE_CLASSIFICATION_EC8: A*
MORPHOLOGIC_CLASSIFICATION: 
EPICENTRAL_DISTANCE_KM: 19.3
EARTHQUAKE_BACKAZIMUTH_DEGREE: 326.0
DATE_TIME_FIRST_SAMPLE_YYYYMMDD_HHMMSS: 20161030_064005.559
DATE_TIME_FIRST_SAMPLE_PRECISION: milliseconds
SAMPLING_INTERVAL_S: 0.005000
NDATA: 12000
DURATION_S: 60.000
STREAM: HGE
UNITS: cm
INSTRUMENT: sensor = Unknown [Unknown] | digitizer = Unknown [Unknown]
INSTRUMENT_ANALOG/DIGITAL: D
INSTRUMENTAL_FREQUENCY_HZ: 
INSTRUMENTAL_DAMPING: 
FULL_SCALE_G: 
N_BIT_DIGITAL_CONVERTER: 
PGD_CM: -14.302745
TIME_PGD_S: 23.170000
BASELINE_CORRECTION: BASELINE REMOVED
FILTER_TYPE: BUTTERWORTH
FILTER_ORDER: 2
LOW_CUT_FREQUENCY_HZ: 0.060
HIGH_CUT_FREQUENCY_HZ: 30.000
LATE/NORMAL_TRIGGERED: NT
DATABASE_VERSION: DYNA 1.0
HEADER_FORMAT: DYNA 1.2
DATA_TYPE: DISPLACEMENT
PROCESSING: manual (Paolucci et al., 2011)
DATA_TIMESTAMP_YYYYMMDD_HHMMSS: 20161101_122856.566
DATA_LICENSE: CC-BY3_0-IT (http://creativecommons.org/licenses/by/3.0/deed.en)
DATA_CITATION: ESM working group (2015), European Strong-Motion database, version 0.1, Network Activity 3: Networking acceleration networks and SM data users. Project NERA (www.nera-eu.org)
DATA_CREATOR: ESM working group
ORIGINAL_DATA_MEDIATOR_CITATION: Ufficio Rischio Sismico e Vulcanico del Dipartimento della Protezione Civile (http://www.protezionecivile.gov.it/)
ORIGINAL_DATA_MEDIATOR: Rete Accelerometrica Nazionale - RAN Download (http://www.mot1.it/randownload/)
ORIGINAL_DATA_CREATOR_CITATION: Italian Strong Motion Network, Italian Civil Protection Department http://www.protezionecivile.gov.it
ORIGINAL_DATA_CREATOR: network: IT (Italian Strong Motion Network); owner: Dipartimento Della Protezione Civile
USER1: /home/dyna/processing-itaca/processing.py /var/www/processing//tmp/Lucia//IT.ACC..HGE.D.20161030.064018.X.ACC.ASC /var/www/processing//tmp/Lucia//IT.ACC..HGN.D.20161030.064018.X.ACC.ASC /var/www/processing//tmp/Lucia//IT.ACC..HGZ.D.20161030.064018.X.ACC.ASC --tmp /var/www/processing//tmp/Lucia/ --le 0.060 --he 30.000 --ln 0.060 --hn 30.000 --lz 0.060 --hz 30.000 --fo 2 --ca -10 --cz 130 --ta 5 --tz 5 --mf 1 --rf 0 --tr NT
USER2: 
USER3: 
USER4: 
USER5: 
[...]
-9.213645e-01
-9.149662e-01
-9.071061e-01
-8.980866e-01
-8.884617e-01
-8.789399e-01
-8.702165e-01
-8.628068e-01
-8.569495e-01
-8.525923e-01
-8.494347e-01
-8.470120e-01
-8.448057e-01
-8.423452e-01
-8.392727e-01
-8.353671e-01
-8.305360e-01
-8.247857e-01
-8.181801e-01
-8.108070e-01
-8.027621e-01
-7.941335e-01
-7.849750e-01
-7.752945e-01
-7.650898e-01
-7.544220e-01
-7.434731e-01
-7.325422e-01
-7.219981e-01
-7.122340e-01
-7.036157e-01
-6.963938e-01
-6.906263e-01
-6.861786e-01
-6.827994e-01
-6.802014e-01
-6.780914e-01
-6.761653e-01
-6.741124e-01
-6.716494e-01
-6.685715e-01
-6.647820e-01
-6.602721e-01
-6.550535e-01
-6.490936e-01
-6.423381e-01
-6.348213e-01
-6.267588e-01
-6.185296e-01
-6.105590e-01
-6.031752e-01
-5.965085e-01
-5.904414e-01
-5.846072e-01
-5.784655e-01
-5.714592e-01
-5.631882e-01
-5.535104e-01
-5.425331e-01
-5.305379e-01
-5.178976e-01
-5.049988e-01
-4.921649e-01
-4.795978e-01
-4.673842e-01
-4.555762e-01
-4.442841e-01
-4.337116e-01
-4.241135e-01
-4.156978e-01
-4.085245e-01
-4.024613e-01
-3.972295e-01
-3.925189e-01
-3.881196e-01
-3.840002e-01
-3.802814e-01
-3.771096e-01
-3.745091e-01
-3.723073e-01
-3.701598e-01
-3.676434e-01
-3.643654e-01
-3.600504e-01
-3.545743e-01
-3.479538e-01
-3.403186e-01
-3.318851e-01
-3.229372e-01
-3.138145e-01
-3.048888e-01
-2.965173e-01
-2.889964e-01
-2.825386e-01
-2.772743e-01
-2.732472e-01
-2.703752e-01
-2.683924e-01
-2.668281e-01
-2.650721e-01
-2.625276e-01
-2.587797e-01
-2.536929e-01
-2.474160e-01
-2.403183e-01
-2.328768e-01
-2.255329e-01
-2.185553e-01
-2.119692e-01
-2.055860e-01
-1.991041e-01
-1.922318e-01
-1.847859e-01
-1.767283e-01
-1.681374e-01
-1.591491e-01
-1.498898e-01
-1.403970e-01
-1.305541e-01
-1.200827e-01
-1.086202e-01
-9.587943e-02
-8.182386e-02
-6.675486e-02
-5.123365e-02
-3.588406e-02
-2.121532e-02
-7.525887e-03
5.125159e-03
1.686892e-02
2.790533e-02
3.836395e-02
4.822145e-02
5.732272e-02
6.548025e-02
7.258009e-02
7.863570e-02
8.378780e-02
8.828581e-02
9.246224e-02
9.667792e-02
1.012359e-01
1.063197e-01
1.120177e-01
1.183997e-01
1.255576e-01
1.335873e-01
1.425353e-01
1.523366e-01
1.627757e-01
1.735076e-01
1.841281e-01
1.942558e-01
2.035776e-01
2.118434e-01
2.188431e-01
2.243925e-01
2.283454e-01
2.306417e-01
2.313533e-01
2.306802e-01
2.288983e-01
2.263016e-01
2.231879e-01
2.198973e-01
2.168490e-01
2.145130e-01
2.133193e-01
2.135653e-01
2.153650e-01
2.186304e-01
2.230779e-01
2.282827e-01
2.337734e-01
2.391308e-01
2.440789e-01
2.485694e-01
2.528097e-01
2.571812e-01
2.620832e-01
2.677922e-01
2.744095e-01
2.819058e-01
2.902203e-01
2.993634e-01
3.094797e-01
3.208376e-01
3.337451e-01
3.484250e-01
3.649092e-01
3.829953e-01
4.022547e-01
4.220833e-01
4.418005e-01
4.607558e-01
4.784059e-01
4.943779e-01
5.085224e-01
5.209148e-01
5.317951e-01
5.414752e-01
5.502401e-01
5.582674e-01
5.655719e-01
5.719835e-01
5.772042e-01
5.809516e-01
5.831192e-01
5.838800e-01
5.836984e-01
5.832335e-01
5.831565e-01
5.839671e-01
5.859085e-01
5.889777e-01
5.929618e-01
5.974921e-01
6.021437e-01
6.065527e-01
6.105038e-01
6.139690e-01
6.170837e-01
6.200500e-01
6.230106e-01
6.259799e-01
6.288762e-01
6.315992e-01
6.340989e-01
6.364022e-01
6.385775e-01
6.406756e-01
6.427103e-01
6.446723e-01
6.465199e-01
6.481422e-01
6.493554e-01
6.499539e-01
6.497753e-01
6.487227e-01
6.467290e-01
6.437186e-01
6.396354e-01
6.345259e-01
6.286089e-01
6.222989e-01
6.161878e-01
6.109669e-01
6.072689e-01
6.054877e-01
6.056946e-01
6.077032e-01
6.112148e-01
6.159422e-01
6.216813e-01
6.283352e-01
6.358902e-01
6.443577e-01
6.536990e-01
6.637576e-01
6.742583e-01
6.849016e-01
6.954849e-01
7.059607e-01
7.164282e-01
7.270786e-01
7.380827e-01
7.494536e-01
7.609804e-01
7.722944e-01
7.830469e-01
7.930999e-01
8.026143e-01
8.119982e-01
8.217430e-01
8.322221e-01
8.435370e-01
8.554374e-01
8.673180e-01
8.783202e-01
8.875416e-01
8.942632e-01
8.980866e-01
8.989636e-01
8.971671e-01
8.932160e-01
8.877193e-01
8.811762e-01
8.738428e-01
8.657168e-01
8.566160e-01
8.463092e-01
8.346571e-01
8.217112e-01
8.077284e-01
7.931156e-01
7.783652e-01
7.640078e-01
7.505386e-01
7.383138e-01
7.275028e-01
7.181186e-01
7.100738e-01
7.032450e-01
6.975169e-01
6.927457e-01
6.886625e-01
6.848176e-01
6.806454e-01
6.756089e-01
6.693359e-01
6.616875e-01
6.527418e-01
6.427231e-01
6.319451e-01
6.207836e-01
6.096385e-01
5.988764e-01
5.887819e-01
5.795284e-01
5.711800e-01
5.637371e-01
5.572024e-01
5.515889e-01
5.468397e-01
5.427367e-01
5.388952e-01
5.348612e-01
5.302249e-01
5.246673e-01
5.179485e-01
5.098860e-01
5.003422e-01
4.892395e-01
4.766305e-01
4.627804e-01
4.481890e-01
4.335439e-01
4.196438e-01
4.073096e-01
3.972847e-01
3.901219e-01
3.860731e-01
3.850233e-01
3.864985e-01
3.897517e-01
3.939098e-01
3.981231e-01
4.016434e-01
4.038478e-01
4.042880e-01
4.027533e-01
3.992456e-01
3.938250e-01
3.864362e-01
3.768600e-01
3.648093e-01
3.500620e-01
3.325430e-01
3.123448e-01
2.897009e-01
2.649212e-01
2.383045e-01
2.100613e-01
1.802820e-01
1.489502e-01
1.159667e-01
8.115114e-02
4.424735e-02
5.002681e-03
-3.668942e-02
-8.070845e-02
-1.267547e-01
-1.744331e-01
-2.232483e-01
-2.724968e-01
-3.211568e-01
-3.679186e-01
-4.113994e-01
-4.504292e-01
-4.842671e-01
-5.126569e-01
-5.357170e-01
-5.537949e-01
-5.674355e-01
-5.773911e-01
-5.844779e-01
-5.892875e-01
-5.919852e-01
-5.923808e-01
-5.901472e-01
-5.849200e-01
-5.762839e-01
-5.638299e-01
-5.472899e-01
-5.266035e-01
-5.018277e-01
-4.729965e-01
-4.400937e-01
-4.031239e-01
-3.621342e-01
-3.171640e-01
-2.682557e-01
-2.155516e-01
-1.593411e-01
-9.998556e-02
-3.780714e-02
2.693562e-02
9.397497e-02
1.629756e-01
2.335580e-01
3.053402e-01
3.779425e-01
4.509805e-01
5.240736e-01
5.968670e-01
6.690542e-01
7.403986e-01
8.107552e-01
8.800653e-01
9.483065e-01
1.015421e+00
1.081282e+00
1.145709e+00
1.208484e+00
1.269312e+00
1.327772e+00
1.383317e+00
1.435265e+00
1.482814e+00
1.525141e+00
1.561539e+00
1.591529e+00
1.614921e+00
1.631848e+00
1.642800e+00
1.648668e+00
1.650686e+00
1.650233e+00
1.648601e+00
1.646811e+00
1.645515e+00
1.644986e+00
1.645204e+00
1.645963e+00
1.647015e+00
1.648251e+00
1.649870e+00
1.652411e+00
1.656638e+00
1.663387e+00
1.673396e+00
1.687183e+00
1.704949e+00
1.726551e+00
1.751548e+00
1.779306e+00
1.809077e+00
1.840013e+00
1.871227e+00
1.901941e+00
1.931681e+00
1.960372e+00
1.988259e+00
2.015718e+00
2.043114e+00
2.070728e+00
2.098660e+00
2.126676e+00
2.154148e+00
2.180241e+00
2.204247e+00
2.225787e+00
2.244789e+00
2.261408e+00
2.275965e+00
2.288917e+00
2.300831e+00
2.312322e+00
2.323971e+00
2.336295e+00
2.349741e+00
2.364650e+00
2.381189e+00
2.399260e+00
2.418471e+00
2.438200e+00
2.457787e+00
2.476748e+00
2.494910e+00
2.512378e+00
2.529431e+00
2.546456e+00
2.563955e+00
2.582564e+00
2.602990e+00
2.625812e+00
2.651339e+00
2.679692e+00
2.710989e+00
2.745424e+00
2.783215e+00
2.824513e+00
2.869321e+00
2.917451e+00
2.968445e+00
3.021573e+00
3.075940e+00
3.130617e+00
3.184710e+00
3.237384e+00
3.287895e+00
3.335646e+00
3.380245e+00
3.421535e+00
3.459565e+00
3.494544e+00
3.526822e+00
3.556895e+00
3.585384e+00
3.612943e+00
3.640140e+00
3.667351e+00
3.694713e+00
3.722116e+00
3.749223e+00
3.775502e+00
3.800307e+00
3.823009e+00
3.843074e+00
3.860102e+00
3.873807e+00
3.883981e+00
3.890459e+00
3.893168e+00
3.892148e+00
3.887518e+00
3.879407e+00
3.867931e+00
3.853214e+00
3.835389e+00
3.814500e+00
3.790364e+00
3.762502e+00
3.730267e+00
3.693103e+00
3.650703e+00
3.602956e+00
3.549820e+00
3.491260e+00
3.427247e+00
3.357768e+00
3.282790e+00
3.202257e+00
3.116219e+00
3.024993e+00
2.929198e+00
2.829604e+00
2.726921e+00
2.621723e+00
2.514502e+00
2.405755e+00
2.296047e+00
2.186061e+00
2.076588e+00
1.968461e+00
1.862496e+00
1.759439e+00
1.659937e+00
1.564491e+00
1.473437e+00
1.387006e+00
1.305474e+00
1.229313e+00
1.159213e+00
1.095982e+00
1.040386e+00
9.929779e-01
9.538937e-01
9.226713e-01
8.982370e-01
8.792680e-01
8.648024e-01
8.546066e-01
8.490357e-01
8.486165e-01
8.536196e-01
8.637872e-01
8.783639e-01
8.963382e-01
9.166406e-01
9.382512e-01
9.602874e-01
9.820124e-01
1.002715e+00
1.021527e+00
1.037252e+00
1.048398e+00
1.053576e+00
1.051889e+00
1.042922e+00
1.026497e+00
1.002489e+00
9.707258e-01
9.310299e-01
8.833453e-01
8.277986e-01
7.646835e-01
6.944792e-01
6.179034e-01
5.358895e-01
4.494828e-01
3.597268e-01
2.675701e-01
1.737936e-01
7.895153e-02
-1.664754e-02
-1.128267e-01
-2.093134e-01
-3.055884e-01
-4.008663e-01
-4.941246e-01
-5.841836e-01
-6.698340e-01
-7.499152e-01
-8.232542e-01
-8.885546e-01
-9.444953e-01
-9.901441e-01
-1.025433e+00
-1.051309e+00
-1.069454e+00
-1.081804e+00
-1.090059e+00
-1.095305e+00
-1.097814e+00
-1.097150e+00
-1.092587e+00
-1.083607e+00
-1.070086e+00
-1.052176e+00
-1.030127e+00
-1.004228e+00
-9.748477e-01
-9.424697e-01
-9.076831e-01
-8.711733e-01
-8.336857e-01
-7.959486e-01
-7.586249e-01
-7.223564e-01
-6.878623e-01
-6.559456e-01
-6.273398e-01
-6.025051e-01
-5.814986e-01
-5.639295e-01
-5.489894e-01
-5.355494e-01
-5.222697e-01
-5.076693e-01
-4.901795e-01
-4.682841e-01
-4.407701e-01
-4.069196e-01
-3.665027e-01
-3.196781e-01
-2.669888e-01
-2.094007e-01
-1.481870e-01
-8.464420e-02
-1.983480e-02
4.551664e-02
1.110191e-01
1.765607e-01
2.421984e-01
3.080310e-01
3.741414e-01
4.406226e-01
5.076021e-01
5.752060e-01
6.434700e-01
7.122418e-01
7.811592e-01
8.497552e-01
9.176207e-01
9.844950e-01
1.050234e+00
1.114678e+00
1.177456e+00
1.237865e+00
1.294971e+00
1.347874e+00
1.395925e+00
1.438791e+00
1.476445e+00
1.509141e+00
1.537394e+00
1.561950e+00
1.583688e+00
1.603506e+00
1.622228e+00
1.640583e+00
1.659168e+00
1.678397e+00
1.698469e+00
1.719431e+00
1.741281e+00
1.763985e+00
1.787419e+00
1.811305e+00
1.835191e+00
1.858432e+00
1.880152e+00
1.899267e+00
1.914650e+00
1.925366e+00
1.930886e+00
1.931209e+00
1.926842e+00
1.918655e+00
1.907703e+00
1.895004e+00
1.881308e+00
1.866975e+00
1.852071e+00
1.836597e+00
1.820677e+00
1.804596e+00
1.788726e+00
1.773408e+00
1.758889e+00
1.745318e+00
1.732793e+00
1.721450e+00
1.711538e+00
1.703424e+00
1.697497e+00
1.694094e+00
1.693515e+00
1.696047e+00
1.701892e+00
1.711026e+00
1.723018e+00
1.736937e+00
1.751517e+00
1.765579e+00
1.778347e+00
1.789479e+00
1.798865e+00
1.806411e+00
1.811895e+00
1.814948e+00
1.815087e+00
1.811763e+00
1.804437e+00
1.792685e+00
1.776258e+00
1.755060e+00
1.729062e+00
1.698220e+00
1.662462e+00
1.621738e+00
1.576099e+00
1.525744e+00
1.471025e+00
1.412411e+00
1.350424e+00
1.285591e+00
1.218455e+00
1.149612e+00
1.079719e+00
1.009440e+00
9.393220e-01
8.696768e-01
8.005256e-01
7.316344e-01
6.625860e-01
5.928675e-01
5.219708e-01
4.494539e-01
3.749219e-01
2.979660e-01
2.181377e-01
1.350006e-01
4.823722e-02
-4.223164e-02
-1.361706e-01
-2.330430e-01
-3.321601e-01
-4.330696e-01
-5.360626e-01
-6.422622e-01
-7.530717e-01
-8.694774e-01
-9.917373e-01
-1.119479e+00
-1.251926e+00
-1.388075e+00
-1.526825e+00
-1.667156e+00
-1.808349e+00
-1.950077e+00
-2.092293e+00
-2.235018e+00
-2.378121e+00
-2.521144e+00
-2.663217e+00
-2.803171e+00
-2.939842e+00
-3.072416e+00
-3.200641e+00
-3.324762e+00
-3.445216e+00
-3.562341e+00
-3.676345e+00
-3.787409e+00
-3.895780e+00
-4.001832e+00
-4.106107e+00
-4.209306e+00
-4.312218e+00
-4.415650e+00
-4.520409e+00
-4.627245e+00
-4.736739e+00
-4.849213e+00
-4.964741e+00
-5.083247e+00
-5.204590e+00
-5.328573e+00
-5.454933e+00
-5.583383e+00
-5.713677e+00
-5.845676e+00
-5.979372e+00
-6.114844e+00
-6.252169e+00
-6.391424e+00
-6.532850e+00
-6.677075e+00
-6.825212e+00
-6.978676e+00
-7.138817e+00
-7.306591e+00
-7.482473e+00
-7.666530e+00
-7.858448e+00
-8.057580e+00
-8.263072e+00
-8.473986e+00
-8.689304e+00
-8.907831e+00
-9.128111e+00
-9.348491e+00
-9.567320e+00
-9.783195e+00
-9.995078e+00
-1.020226e+01
-1.040421e+01
-1.060038e+01
-1.079007e+01
-1.097243e+01
-1.114659e+01
-1.131189e+01
-1.146801e+01
-1.161505e+01
-1.175359e+01
-1.188445e+01
-1.200852e+01
-1.212665e+01
-1.223965e+01
-1.234831e+01
-1.245325e+01
-1.255495e+01
-1.265371e+01
-1.274977e+01
-1.284332e+01
-1.293443e+01
-1.302306e+01
-1.310908e+01
-1.319232e+01
-1.327254e+01
-1.334962e+01
-1.342361e+01
-1.349477e+01
-1.356331e+01
-1.362932e+01
-1.369278e+01
-1.375359e+01
-1.381168e+01
-1.386702e+01
-1.391965e+01
-1.396963e+01
-1.401698e+01
-1.406162e+01
-1.410341e+01
-1.414211e+01
-1.417743e+01
-1.420907e+01
-1.423663e+01
-1.425980e+01
-1.427830e+01
-1.429189e+01
-1.430017e+01
-1.430275e+01
-1.429936e+01
-1.429003e+01
-1.427504e+01
-1.425495e+01
-1.423040e+01
-1.420199e+01
-1.417014e+01
-1.413503e+01
-1.409663e+01
-1.405476e+01
-1.400913e+01
-1.395939e+01
-1.390522e+01
-1.384638e+01
-1.378268e+01
-1.371405e+01
-1.364051e+01
-1.356207e+01
-1.347865e+01
-1.339000e+01
-1.329579e+01
-1.319567e+01
-1.308936e+01
-1.297665e+01
-1.285748e+01
-1.273202e+01
-1.260062e+01
-1.246389e+01
-1.232261e+01
-1.217766e+01
-1.202992e+01
-1.188029e+01
-1.172961e+01
-1.157869e+01
-1.142820e+01
-1.127873e+01
-1.113079e+01
-1.098496e+01
-1.084184e+01
-1.070211e+01
-1.056651e+01
-1.043578e+01
-1.031063e+01
-1.019159e+01
-1.007899e+01
-9.972945e+00
-9.873518e+00
-9.780705e+00
-9.694327e+00
-9.613976e+00
-9.539063e+00
-9.468920e+00
-9.402866e+00
-9.340198e+00
-9.280164e+00
-9.221945e+00
-9.164638e+00
-9.107205e+00
-9.048468e+00
-8.987164e+00
-8.922014e+00
-8.851770e+00
-8.775202e+00
-8.691021e+00
-8.597896e+00
-8.494711e+00
-8.380880e+00
-8.256472e+00
-8.122141e+00
-7.979010e+00
-7.828617e+00
-7.672877e+00
-7.513991e+00
-7.354230e+00
-7.195610e+00
-7.039549e+00
-6.886700e+00
-6.737100e+00
-6.590543e+00
-6.446865e+00
-6.306015e+00
-6.168045e+00
-6.033074e+00
-5.901233e+00
-5.772608e+00
-5.647231e+00
-5.525137e+00
-5.406457e+00
-5.291417e+00
-5.180213e+00
-5.072851e+00
-4.969105e+00
-4.868591e+00
-4.770901e+00
-4.675695e+00
-4.582668e+00
-4.491483e+00
-4.401739e+00
-4.312916e+00
-4.224234e+00
-4.134492e+00
-4.042051e+00
-3.945096e+00
-3.842069e+00
-3.731966e+00
-3.614432e+00
-3.489880e+00
-3.359501e+00
-3.225020e+00
-3.088299e+00
-2.950980e+00
-2.814365e+00
-2.679448e+00
-2.546942e+00
-2.417297e+00
-2.290766e+00
-2.167507e+00
-2.047661e+00
-1.931389e+00
-1.818867e+00
-1.710271e+00
-1.605783e+00
-1.505613e+00
-1.410022e+00
-1.319320e+00
-1.233850e+00
-1.153963e+00
-1.079985e+00
-1.012166e+00
-9.506433e-01
-8.954294e-01
-8.463751e-01
-8.031446e-01
-7.652521e-01
-7.321413e-01
-7.032398e-01
-6.780200e-01
-6.560990e-01
-6.373340e-01
-6.218736e-01
-6.101353e-01
-6.026839e-01
-6.000705e-01
-6.027373e-01
-6.109794e-01
-6.249270e-01
-6.445877e-01
-6.699324e-01
-7.009221e-01
-7.374456e-01
-7.792273e-01
-8.257815e-01
-8.764375e-01
-9.304088e-01
-9.868876e-01
-1.045158e+00
-1.104681e+00
-1.165089e+00
-1.226110e+00
-1.287466e+00
-1.348766e+00
-1.409455e+00
-1.468827e+00
-1.526075e+00
-1.580314e+00
-1.630570e+00
-1.675819e+00
-1.715124e+00
-1.747803e+00
-1.773518e+00
-1.792259e+00
-1.804265e+00
-1.809952e+00
-1.809871e+00
-1.804668e+00
-1.795049e+00
-1.781688e+00
-1.765133e+00
-1.745791e+00
-1.723983e+00
-1.700011e+00
-1.674208e+00
-1.646953e+00
-1.618660e+00
-1.589759e+00
-1.560669e+00
-1.531790e+00
-1.503514e+00
-1.476247e+00
-1.450430e+00
-1.426541e+00
-1.405079e+00
-1.386525e+00
-1.371238e+00
-1.359316e+00
-1.350521e+00
-1.344328e+00
-1.340035e+00
-1.336880e+00
-1.334107e+00
-1.330967e+00
-1.326684e+00
-1.320437e+00
-1.311347e+00
-1.298473e+00
-1.280832e+00
-1.257479e+00
-1.227617e+00
-1.190684e+00
-1.146378e+00
-1.094606e+00
-1.035426e+00
-9.690158e-01
-8.956540e-01
-8.156973e-01
-7.295438e-01
-6.375999e-01
-5.402518e-01
-4.378664e-01
-3.308330e-01
-2.196067e-01
-1.047173e-01
1.325524e-02
1.337175e-01
2.561020e-01
3.798989e-01
5.046531e-01
6.299341e-01
7.553134e-01
8.803486e-01
1.004537e+00
1.127250e+00
1.247721e+00
1.365116e+00
1.478619e+00
1.587491e+00
1.691098e+00
1.788947e+00
1.880702e+00
1.966155e+00
2.045185e+00
2.117758e+00
2.183967e+00
2.244046e+00
2.298348e+00
2.347299e+00
2.391372e+00
2.431039e+00
2.466742e+00
2.498884e+00
2.527925e+00
2.554514e+00
2.579547e+00
2.604070e+00
2.629116e+00
2.655579e+00
2.684184e+00
2.715426e+00
2.749525e+00
2.786466e+00
2.826143e+00
2.868499e+00
2.913511e+00
2.961079e+00
3.010954e+00
3.062761e+00
3.116056e+00
3.170315e+00
3.224935e+00
3.279287e+00
3.332794e+00
3.384965e+00
3.435414e+00
3.483864e+00
3.530172e+00
3.574349e+00
3.616515e+00
3.656781e+00
3.695221e+00
3.731998e+00
3.767454e+00
3.802032e+00
3.836173e+00
3.870291e+00
3.904773e+00
3.939963e+00
3.976138e+00
4.013505e+00
4.052252e+00
4.092600e+00
4.134827e+00
4.179261e+00
4.226262e+00
4.276214e+00
4.329471e+00
4.386293e+00
4.446789e+00
4.510884e+00
4.578309e+00
4.648597e+00
4.721099e+00
4.794992e+00
4.869326e+00
4.943136e+00
5.015544e+00
5.085812e+00
5.153324e+00
5.217562e+00
5.278088e+00
5.334521e+00
5.386493e+00
5.433618e+00
5.475527e+00
5.511944e+00
5.542707e+00
5.567716e+00
5.586901e+00
5.600237e+00
5.607775e+00
5.609656e+00
5.606112e+00
5.597500e+00
5.584332e+00
5.567261e+00
5.547033e+00
5.524401e+00
5.500056e+00
5.474602e+00
5.448583e+00
5.422546e+00
5.397111e+00
5.373002e+00
5.351036e+00
5.332081e+00
5.317017e+00
5.306686e+00
5.301862e+00
5.303199e+00
5.311161e+00
5.325943e+00
5.347434e+00
5.375219e+00
5.408593e+00
5.446631e+00
5.488316e+00
5.532697e+00
5.579037e+00
5.626863e+00
5.675884e+00
5.725825e+00
5.776305e+00
5.826814e+00
5.876791e+00
5.925714e+00
5.973129e+00
6.018562e+00
6.061375e+00
6.100653e+00
6.135249e+00
6.163998e+00
6.186006e+00
6.200780e+00
6.208169e+00
6.208249e+00
6.201252e+00
6.187505e+00
6.167413e+00
6.141469e+00
6.110255e+00
6.074461e+00
6.034879e+00
5.992326e+00
5.947568e+00
5.901313e+00
5.854250e+00
5.807091e+00
5.760559e+00
5.715342e+00
5.672035e+00
5.631103e+00
5.592904e+00
5.557735e+00
