EVENT_NAME: CENTRAL_ITALY
EVENT_ID: EMSC-20161030_0000029
EVENT_DATE_YYYYMMDD: 20161030
EVENT_TIME_HHMMSS: 064018
EVENT_LATITUDE_DEGREE: 42.8400
EVENT_LONGITUDE_DEGREE: 13.1100
EVENT_DEPTH_KM: 9.4
HYPOCENTER_REFERENCE: INGV-webservice
MAGNITUDE_W: 6.5
MAGNITUDE_W_REFERENCE: INGV-webservice
MAGNITUDE_L: 6.1
MAGNITUDE_L_REFERENCE: INGV-webservice
FOCAL_MECHANISM: NF
NETWORK: IT
STATION_CODE: ACC
STATION_NAME: Accumoli
STATION_LATITUDE_DEGREE: 42.695999
STATION_LONGITUDE_DEGREE: 13.242000
STATION_ELEVATION_M: 922
LOCATION: 
SENSOR_DEPTH_M: 
VS30_M/S: 
SITE_CLASSIFICATION_EC8: A*
MORPHOLOGIC_CLASSIFICATION: 
EPICENTRAL_DISTANCE_KM: 19.3
EARTHQUAKE_BACKAZIMUTH_DEGREE: 326.0
DATE_TIME_FIRST_SAMPLE_YYYYMMDD_HHMMSS: 20161030_064005.559
DATE_TIME_FIRST_SAMPLE_PRECISION: milliseconds
SAMPLING_INTERVAL_S: 0.005000
NDATA: 12000
DURATION_S: 60.000
STREAM: HGN
UNITS: cm
INSTRUMENT: sensor = Unknown [Unknown] | digitizer = Unknown [Unknown]
INSTRUMENT_ANALOG/DIGITAL: D
INSTRUMENTAL_FREQUENCY_HZ: 
INSTRUMENTAL_DAMPING: 
FULL_SCALE_G: 
N_BIT_DIGITAL_CONVERTER: 
PGD_CM: -10.371511
TIME_PGD_S: 24.120000
BASELINE_CORRECTION: BASELINE REMOVED
FILTER_TYPE: BUTTERWORTH
FILTER_ORDER: 2
LOW_CUT_FREQUENCY_HZ: 0.060
HIGH_CUT_FREQUENCY_HZ: 30.000
LATE/NORMAL_TRIGGERED: NT
DATABASE_VERSION: DYNA 1.0
HEADER_FORMAT: DYNA 1.2
DATA_TYPE: DISPLACEMENT
PROCESSING: manual (Paolucci et al., 2011)
DATA_TIMESTAMP_YYYYMMDD_HHMMSS: 20161101_122856.566
DATA_LICENSE: CC-BY3_0-IT (http://creativecommons.org/licenses/by/3.0/deed.en)
DATA_CITATION: ESM working group (2015), European Strong-Motion database, version 0.1, Network Activity 3: Networking acceleration networks and SM data users. Project NERA (www.nera-eu.org)
DATA_CREATOR: ESM working group
ORIGINAL_DATA_MEDIATOR_CITATION: Ufficio Rischio Sismico e Vulcanico del Dipartimento della Protezione Civile (http://www.protezionecivile.gov.it/)
ORIGINAL_DATA_MEDIATOR: Rete Accelerometrica Nazionale - RAN Download (http://www.mot1.it/randownload/)
ORIGINAL_DATA_CREATOR_CITATION: Italian Strong Motion Network, Italian Civil Protection Department http://www.protezionecivile.gov.it
ORIGINAL_DATA_CREATOR: network: IT (Italian Strong Motion Network); owner: Dipartimento Della Protezione Civile
USER1: /home/dyna/processing-itaca/processing.py /var/www/processing//tmp/Lucia//IT.ACC..HGE.D.20161030.064018.X.ACC.ASC /var/www/processing//tmp/Lucia//IT.ACC..HGN.D.20161030.064018.X.ACC.ASC /var/www/processing//tmp/Lucia//IT.ACC..HGZ.D.20161030.064018.X.ACC.ASC --tmp /var/www/processing//tmp/Lucia/ --le 0.060 --he 30.000 --ln 0.060 --hn 30.000 --lz 0.060 --hz 30.000 --fo 2 --ca -10 --cz 130 --ta 5 --tz 5 --mf 1 --rf 0 --tr NT
USER2: 
USER3: 
USER4: 
USER5: 
[...]
-1.658785e+00
-1.686273e+00
-1.712543e+00
-1.738224e+00
-1.763952e+00
-1.790189e+00
-1.817112e+00
-1.844589e+00
-1.872229e+00
-1.899500e+00
-1.925897e+00
-1.951109e+00
-1.975113e+00
-1.998205e+00
-2.020908e+00
-2.043811e+00
-2.067392e+00
-2.091884e+00
-2.117205e+00
-2.142984e+00
-2.168627e+00
-2.193395e+00
-2.216471e+00
-2.237062e+00
-2.254513e+00
-2.268370e+00
-2.278381e+00
-2.284481e+00
-2.286796e+00
-2.285664e+00
-2.281634e+00
-2.275417e+00
-2.267774e+00
-2.259374e+00
-2.250705e+00
-2.242059e+00
-2.233568e+00
-2.225227e+00
-2.216922e+00
-2.208449e+00
-2.199532e+00
-2.189873e+00
-2.179210e+00
-2.167356e+00
-2.154230e+00
-2.139867e+00
-2.124408e+00
-2.108044e+00
-2.090990e+00
-2.073517e+00
-2.056042e+00
-2.039158e+00
-2.023564e+00
-2.009940e+00
-1.998837e+00
-1.990632e+00
-1.985558e+00
-1.983737e+00
-1.985150e+00
-1.989574e+00
-1.996566e+00
-2.005541e+00
-2.015890e+00
-2.027089e+00
-2.038739e+00
-2.050535e+00
-2.062195e+00
-2.073398e+00
-2.083785e+00
-2.093040e+00
-2.100977e+00
-2.107577e+00
-2.112994e+00
-2.117517e+00
-2.121526e+00
-2.125472e+00
-2.129873e+00
-2.135289e+00
-2.142234e+00
-2.151055e+00
-2.161864e+00
-2.174556e+00
-2.188889e+00
-2.204548e+00
-2.221180e+00
-2.238402e+00
-2.255770e+00
-2.272730e+00
-2.288595e+00
-2.302675e+00
-2.314486e+00
-2.323916e+00
-2.331260e+00
-2.337142e+00
-2.342403e+00
-2.347925e+00
-2.354436e+00
-2.362348e+00
-2.371683e+00
-2.382082e+00
-2.392892e+00
-2.403302e+00
-2.412524e+00
-2.419907e+00
-2.425008e+00
-2.427618e+00
-2.427786e+00
-2.425781e+00
-2.422047e+00
-2.417096e+00
-2.411392e+00
-2.405256e+00
-2.398882e+00
-2.392404e+00
-2.385945e+00
-2.379608e+00
-2.373444e+00
-2.367457e+00
-2.361640e+00
-2.356015e+00
-2.350691e+00
-2.345901e+00
-2.341986e+00
-2.339268e+00
-2.337877e+00
-2.337631e+00
-2.338079e+00
-2.338643e+00
-2.338808e+00
-2.338234e+00
-2.336772e+00
-2.334361e+00
-2.330936e+00
-2.326456e+00
-2.321010e+00
-2.314892e+00
-2.308555e+00
-2.302461e+00
-2.296909e+00
-2.291975e+00
-2.287549e+00
-2.283376e+00
-2.279058e+00
-2.274073e+00
-2.267861e+00
-2.259965e+00
-2.250120e+00
-2.238283e+00
-2.224646e+00
-2.209632e+00
-2.193845e+00
-2.177987e+00
-2.162733e+00
-2.148616e+00
-2.135963e+00
-2.124912e+00
-2.115471e+00
-2.107574e+00
-2.101078e+00
-2.095768e+00
-2.091371e+00
-2.087594e+00
-2.084138e+00
-2.080665e+00
-2.076761e+00
-2.071952e+00
-2.065746e+00
-2.057715e+00
-2.047578e+00
-2.035317e+00
-2.021198e+00
-2.005677e+00
-1.989240e+00
-1.972299e+00
-1.955193e+00
-1.938238e+00
-1.921767e+00
-1.906101e+00
-1.891450e+00
-1.877798e+00
-1.864877e+00
-1.852239e+00
-1.839380e+00
-1.825819e+00
-1.811125e+00
-1.794893e+00
-1.776723e+00
-1.756237e+00
-1.733092e+00
-1.707036e+00
-1.678063e+00
-1.646522e+00
-1.613038e+00
-1.578314e+00
-1.542979e+00
-1.507517e+00
-1.472314e+00
-1.437778e+00
-1.404397e+00
-1.372697e+00
-1.343126e+00
-1.315984e+00
-1.291385e+00
-1.269279e+00
-1.249543e+00
-1.232130e+00
-1.217151e+00
-1.204814e+00
-1.195300e+00
-1.188716e+00
-1.185117e+00
-1.184577e+00
-1.187241e+00
-1.193310e+00
-1.202943e+00
-1.216128e+00
-1.232589e+00
-1.251788e+00
-1.272964e+00
-1.295198e+00
-1.317484e+00
-1.338805e+00
-1.358217e+00
-1.374938e+00
-1.388430e+00
-1.398507e+00
-1.405412e+00
-1.409797e+00
-1.412579e+00
-1.414722e+00
-1.416990e+00
-1.419776e+00
-1.423063e+00
-1.426483e+00
-1.429418e+00
-1.431122e+00
-1.430805e+00
-1.427692e+00
-1.421071e+00
-1.410387e+00
-1.395290e+00
-1.375581e+00
-1.351051e+00
-1.321334e+00
-1.285896e+00
-1.244151e+00
-1.195627e+00
-1.140099e+00
-1.077669e+00
-1.008779e+00
-9.341650e-01
-8.547596e-01
-7.715828e-01
-6.856633e-01
-5.979767e-01
-5.093588e-01
-4.203811e-01
-3.312298e-01
-2.416716e-01
-1.511407e-01
-5.891250e-02
3.568853e-02
1.330983e-01
2.334105e-01
3.363754e-01
4.414590e-01
5.479399e-01
6.550509e-01
7.621451e-01
8.687862e-01
9.746834e-01
1.079565e+00
1.183153e+00
1.285257e+00
1.385925e+00
1.485518e+00
1.584715e+00
1.684451e+00
1.785786e+00
1.889767e+00
1.997370e+00
2.109504e+00
2.227017e+00
2.350634e+00
2.480868e+00
2.617964e+00
2.761922e+00
2.912542e+00
3.069424e+00
3.231903e+00
3.398976e+00
3.569306e+00
3.741375e+00
3.913723e+00
4.085218e+00
4.255213e+00
4.423526e+00
4.590285e+00
4.755767e+00
4.920286e+00
5.084079e+00
5.247197e+00
5.409416e+00
5.570240e+00
5.729005e+00
5.885013e+00
6.037629e+00
6.186321e+00
6.330667e+00
6.470388e+00
6.605326e+00
6.735394e+00
6.860493e+00
6.980452e+00
7.094981e+00
7.203686e+00
7.306120e+00
7.401801e+00
7.490189e+00
7.570728e+00
7.642949e+00
7.706542e+00
7.761384e+00
7.807545e+00
7.845282e+00
7.874995e+00
7.897103e+00
7.911950e+00
7.919829e+00
7.921079e+00
7.916148e+00
7.905599e+00
7.890137e+00
7.870631e+00
7.848127e+00
7.823806e+00
7.798911e+00
7.774674e+00
7.752249e+00
7.732637e+00
7.716693e+00
7.705196e+00
7.698913e+00
7.698566e+00
7.704722e+00
7.717679e+00
7.737423e+00
7.763671e+00
7.795995e+00
7.833971e+00
7.877320e+00
7.925960e+00
7.979935e+00
8.039262e+00
8.103778e+00
8.173073e+00
8.246500e+00
8.323240e+00
8.402370e+00
8.482909e+00
8.563860e+00
8.644247e+00
8.723142e+00
8.799700e+00
8.873192e+00
8.943021e+00
9.008725e+00
9.069960e+00
9.126483e+00
9.178131e+00
9.224793e+00
9.266367e+00
9.302770e+00
9.334012e+00
9.360276e+00
9.381946e+00
9.399559e+00
9.413810e+00
9.425620e+00
9.436178e+00
9.446813e+00
9.458703e+00
9.472721e+00
9.489495e+00
9.509452e+00
9.532793e+00
9.559478e+00
9.589237e+00
9.621551e+00
9.655630e+00
9.690435e+00
9.724788e+00
9.757509e+00
9.787536e+00
9.813977e+00
9.836162e+00
9.853749e+00
9.866826e+00
9.875860e+00
9.881571e+00
9.884814e+00
9.886443e+00
9.887160e+00
9.887401e+00
9.887344e+00
9.886999e+00
9.886315e+00
9.885277e+00
9.883997e+00
9.882731e+00
9.881780e+00
9.881374e+00
9.881615e+00
9.882493e+00
9.883957e+00
9.886035e+00
9.888888e+00
9.892729e+00
9.897717e+00
9.903885e+00
9.911056e+00
9.918726e+00
9.926005e+00
9.931692e+00
9.934446e+00
9.932957e+00
9.926062e+00
9.912839e+00
9.892641e+00
9.865124e+00
9.830365e+00
9.788960e+00
9.741932e+00
9.690460e+00
9.635627e+00
9.578264e+00
9.518887e+00
9.457709e+00
9.394737e+00
9.329893e+00
9.263121e+00
9.194469e+00
9.124117e+00
9.052349e+00
8.979479e+00
8.905764e+00
8.831345e+00
8.756236e+00
8.680385e+00
8.603755e+00
8.526367e+00
8.448276e+00
8.369566e+00
8.290386e+00
8.210976e+00
8.131679e+00
8.052945e+00
7.975298e+00
7.899278e+00
7.825384e+00
7.754034e+00
7.685512e+00
7.619948e+00
7.557355e+00
7.497748e+00
7.441264e+00
7.388233e+00
7.339179e+00
7.294756e+00
7.255661e+00
7.222569e+00
7.196066e+00
7.176544e+00
7.164138e+00
7.158737e+00
7.160041e+00
7.167599e+00
7.180844e+00
7.199149e+00
7.221897e+00
7.248574e+00
7.278875e+00
7.312770e+00
7.350464e+00
7.392249e+00
7.438273e+00
7.488350e+00
7.541921e+00
7.598133e+00
7.655945e+00
7.714241e+00
7.771955e+00
7.828167e+00
7.882103e+00
7.933099e+00
7.980572e+00
8.024011e+00
8.062987e+00
8.097182e+00
8.126400e+00
8.150556e+00
8.169671e+00
8.183908e+00
8.193590e+00
8.199133e+00
8.200967e+00
8.199500e+00
8.195132e+00
8.188248e+00
8.179178e+00
8.168148e+00
8.155297e+00
8.140752e+00
8.124696e+00
8.107352e+00
8.088924e+00
8.069510e+00
8.049084e+00
8.027571e+00
8.004962e+00
7.981344e+00
7.956907e+00
7.931958e+00
7.906979e+00
7.882636e+00
7.859696e+00
7.838922e+00
7.821009e+00
7.806587e+00
7.796232e+00
7.790476e+00
7.789784e+00
7.794505e+00
7.804789e+00
7.820499e+00
7.841157e+00
7.865950e+00
7.893817e+00
7.923581e+00
7.954120e+00
7.984508e+00
8.014094e+00
8.042559e+00
8.069961e+00
8.096731e+00
8.123529e+00
8.151052e+00
8.179897e+00
8.210490e+00
8.243053e+00
8.277614e+00
8.314061e+00
8.352223e+00
8.391914e+00
8.432928e+00
8.474999e+00
8.517758e+00
8.560733e+00
8.603388e+00
8.645208e+00
8.685773e+00
8.724767e+00
8.761938e+00
8.797035e+00
8.829798e+00
8.859978e+00
8.887372e+00
8.911823e+00
8.933192e+00
8.951332e+00
8.966063e+00
8.977183e+00
8.984490e+00
8.987795e+00
8.986942e+00
8.981869e+00
8.972673e+00
8.959666e+00
8.943383e+00
8.924577e+00
8.904174e+00
8.883178e+00
8.862516e+00
8.842874e+00
8.824520e+00
8.807208e+00
8.790211e+00
8.772492e+00
8.752939e+00
8.730613e+00
8.704978e+00
8.675950e+00
8.643771e+00
8.608899e+00
8.572036e+00
8.534179e+00
8.496568e+00
8.460464e+00
8.426880e+00
8.396411e+00
8.369277e+00
8.345502e+00
8.325045e+00
8.307795e+00
8.293492e+00
8.281657e+00
8.271587e+00
8.262427e+00
8.253287e+00
8.243376e+00
8.232222e+00
8.219818e+00
8.206501e+00
8.192651e+00
8.178452e+00
8.163773e+00
8.148100e+00
8.130590e+00
8.110247e+00
8.086168e+00
8.057678e+00
8.024287e+00
7.985562e+00
7.941080e+00
7.890520e+00
7.833757e+00
7.770854e+00
7.701977e+00
7.627380e+00
7.547409e+00
7.462499e+00
7.373131e+00
7.279805e+00
7.183027e+00
7.083334e+00
6.981296e+00
6.877492e+00
6.772491e+00
6.666881e+00
6.561242e+00
6.456001e+00
6.351292e+00
6.246984e+00
6.142795e+00
6.038354e+00
5.933157e+00
5.826542e+00
5.717728e+00
5.605918e+00
5.490357e+00
5.370297e+00
5.244986e+00
5.113761e+00
4.976191e+00
4.832200e+00
4.682098e+00
4.526526e+00
4.366323e+00
4.202405e+00
4.035684e+00
3.867024e+00
3.697212e+00
3.526928e+00
3.356752e+00
3.187173e+00
3.018602e+00
2.851340e+00
2.685568e+00
2.521405e+00
2.358984e+00
2.198449e+00
2.039906e+00
1.883405e+00
1.728949e+00
1.576490e+00
1.425897e+00
1.276961e+00
1.129416e+00
9.829316e-01
8.370734e-01
6.912712e-01
5.447959e-01
3.967588e-01
2.461469e-01
9.190825e-02
-6.690311e-02
-2.309310e-01
-4.003978e-01
-5.751670e-01
-7.548930e-01
-9.391100e-01
-1.127252e+00
-1.318676e+00
-1.512698e+00
-1.708613e+00
-1.905653e+00
-2.102944e+00
-2.299494e+00
-2.494187e+00
-2.685824e+00
-2.873208e+00
-3.055246e+00
-3.231069e+00
-3.400169e+00
-3.562462e+00
-3.718265e+00
-3.868170e+00
-4.012896e+00
-4.153135e+00
-4.289489e+00
-4.422444e+00
-4.552373e+00
-4.679555e+00
-4.804212e+00
-4.926570e+00
-5.046903e+00
-5.165569e+00
-5.282990e+00
-5.399580e+00
-5.515645e+00
-5.631283e+00
-5.746304e+00
-5.860200e+00
-5.972162e+00
-6.081178e+00
-6.186176e+00
-6.286181e+00
-6.380453e+00
-6.468520e+00
-6.550122e+00
-6.625080e+00
-6.693192e+00
-6.754207e+00
-6.807829e+00
-6.853753e+00
-6.891668e+00
-6.921268e+00
-6.942257e+00
-6.954348e+00
-6.957264e+00
-6.950764e+00
-6.934692e+00
-6.909001e+00
-6.873785e+00
-6.829298e+00
-6.775958e+00
-6.714309e+00
-6.644952e+00
-6.568492e+00
-6.485509e+00
-6.396584e+00
-6.302352e+00
-6.203467e+00
-6.100502e+00
-5.993952e+00
-5.884279e+00
-5.771922e+00
-5.657287e+00
-5.540781e+00
-5.422856e+00
-5.304044e+00
-5.184965e+00
-5.066331e+00
-4.948917e+00
-4.833511e+00
-4.720856e+00
-4.611616e+00
-4.506366e+00
-4.405595e+00
-4.309655e+00
-4.218696e+00
-4.132653e+00
-4.051322e+00
-3.974395e+00
-3.901412e+00
-3.831788e+00
-3.764907e+00
-3.700169e+00
-3.636978e+00
-3.574789e+00
-3.513141e+00
-3.451645e+00
-3.389915e+00
-3.327531e+00
-3.264104e+00
-3.199350e+00
-3.133076e+00
-3.065136e+00
-2.995442e+00
-2.923970e+00
-2.850727e+00
-2.775737e+00
-2.699097e+00
-2.621059e+00
-2.542074e+00
-2.462730e+00
-2.383656e+00
-2.305454e+00
-2.228654e+00
-2.153708e+00
-2.081063e+00
-2.011244e+00
-1.944890e+00
-1.882743e+00
-1.825642e+00
-1.774469e+00
-1.730047e+00
-1.693009e+00
-1.663782e+00
-1.642731e+00
-1.630274e+00
-1.626812e+00
-1.632602e+00
-1.647758e+00
-1.672302e+00
-1.706235e+00
-1.749548e+00
-1.802196e+00
-1.864100e+00
-1.935196e+00
-2.015449e+00
-2.104801e+00
-2.203108e+00
-2.310120e+00
-2.425507e+00
-2.548878e+00
-2.679770e+00
-2.817665e+00
-2.962032e+00
-3.112363e+00
-3.268189e+00
-3.429079e+00
-3.594642e+00
-3.764512e+00
-3.938326e+00
-4.115704e+00
-4.296251e+00
-4.479557e+00
-4.665171e+00
-4.852588e+00
-5.041255e+00
-5.230550e+00
-5.419737e+00
-5.607989e+00
-5.794469e+00
-5.978366e+00
-6.158908e+00
-6.335390e+00
-6.507186e+00
-6.673718e+00
-6.834452e+00
-6.988939e+00
-7.136846e+00
-7.277982e+00
-7.412320e+00
-7.539993e+00
-7.661249e+00
-7.776394e+00
-7.885778e+00
-7.989816e+00
-8.088984e+00
-8.183775e+00
-8.274658e+00
-8.362065e+00
-8.446422e+00
-8.528184e+00
-8.607862e+00
-8.686028e+00
-8.763279e+00
-8.840191e+00
-8.917281e+00
-8.994993e+00
-9.073693e+00
-9.153664e+00
-9.235057e+00
-9.317831e+00
-9.401725e+00
-9.486297e+00
-9.570961e+00
-9.654998e+00
-9.737593e+00
-9.817911e+00
-9.895132e+00
-9.968454e+00
-1.003710e+01
-1.010034e+01
-1.015757e+01
-1.020828e+01
-1.025210e+01
-1.028885e+01
-1.031853e+01
-1.034131e+01
-1.035748e+01
-1.036740e+01
-1.037151e+01
-1.037026e+01
-1.036406e+01
-1.035329e+01
-1.033828e+01
-1.031926e+01
-1.029638e+01
-1.026963e+01
-1.023891e+01
-1.020400e+01
-1.016472e+01
-1.012093e+01
-1.007262e+01
-1.001993e+01
-9.963114e+00
-9.902560e+00
-9.838754e+00
-9.772177e+00
-9.703241e+00
-9.632253e+00
-9.559409e+00
-9.484817e+00
-9.408535e+00
-9.330622e+00
-9.251156e+00
-9.170227e+00
-9.087907e+00
-9.004220e+00
-8.919146e+00
-8.832671e+00
-8.744852e+00
-8.655885e+00
-8.566113e+00
-8.475992e+00
-8.386033e+00
-8.296731e+00
-8.208523e+00
-8.121802e+00
-8.036959e+00
-7.954422e+00
-7.874634e+00
-7.798009e+00
-7.724910e+00
-7.655640e+00
-7.590445e+00
-7.529530e+00
-7.473077e+00
-7.421257e+00
-7.374215e+00
-7.332051e+00
-7.294810e+00
-7.262455e+00
-7.234861e+00
-7.211817e+00
-7.193061e+00
-7.178292e+00
-7.167174e+00
-7.159331e+00
-7.154354e+00
-7.151814e+00
-7.151256e+00
-7.152160e+00
-7.153882e+00
-7.155635e+00
-7.156523e+00
-7.155603e+00
-7.151962e+00
-7.144819e+00
-7.133626e+00
-7.118111e+00
-7.098223e+00
-7.074019e+00
-7.045585e+00
-7.013013e+00
-6.976437e+00
-6.936070e+00
-6.892235e+00
-6.845366e+00
-6.796005e+00
-6.744765e+00
-6.692251e+00
-6.639017e+00
-6.585556e+00
-6.532326e+00
-6.479775e+00
-6.428347e+00
-6.378455e+00
-6.330492e+00
-6.284832e+00
-6.241804e+00
-6.201606e+00
-6.164244e+00
-6.129553e+00
-6.097269e+00
-6.067068e+00
-6.038563e+00
-6.011336e+00
-5.984968e+00
-5.959053e+00
-5.933195e+00
-5.907021e+00
-5.880198e+00
-5.852418e+00
-5.823399e+00
-5.792878e+00
-5.760615e+00
-5.726387e+00
-5.689985e+00
-5.651226e+00
-5.609978e+00
-5.566203e+00
-5.519988e+00
-5.471557e+00
-5.421257e+00
-5.369507e+00
-5.316756e+00
-5.263454e+00
-5.210053e+00
-5.157007e+00
-5.104759e+00
-5.053725e+00
-5.004276e+00
-4.956743e+00
-4.911412e+00
-4.868501e+00
-4.828141e+00
-4.790366e+00
-4.755138e+00
-4.722412e+00
-4.692189e+00
-4.664548e+00
-4.639630e+00
-4.617612e+00
-4.598666e+00
-4.582926e+00
-4.570448e+00
-4.561215e+00
-4.555141e+00
-4.552103e+00
-4.551920e+00
-4.554332e+00
-4.558970e+00
-4.565367e+00
-4.573022e+00
-4.581466e+00
-4.590313e+00
-4.599271e+00
-4.608107e+00
-4.616618e+00
-4.624616e+00
-4.631934e+00
-4.638429e+00
-4.643978e+00
-4.648484e+00
-4.651878e+00
-4.654112e+00
-4.655127e+00
-4.654845e+00
-4.653181e+00
-4.650041e+00
-4.645303e+00
-4.638808e+00
-4.630381e+00
-4.619848e+00
-4.607057e+00
-4.591909e+00
-4.574402e+00
-4.554691e+00
-4.533129e+00
-4.510273e+00
-4.486806e+00
-4.463419e+00
-4.440697e+00
-4.419075e+00
-4.398845e+00
-4.380155e+00
-4.363024e+00
-4.347356e+00
-4.332959e+00
-4.319529e+00
-4.306642e+00
-4.293790e+00
-4.280476e+00
-4.266324e+00
-4.251104e+00
-4.234716e+00
-4.217149e+00
-4.198440e+00
-4.178651e+00
-4.157839e+00
-4.136055e+00
-4.113345e+00
-4.089739e+00
-4.065224e+00
-4.039710e+00
-4.013019e+00
-3.984907e+00
-3.955128e+00
-3.923509e+00
-3.889984e+00
-3.854588e+00
-3.817410e+00
-3.778556e+00
-3.738140e+00
-3.696286e+00
-3.653137e+00
-3.608844e+00
-3.563556e+00
-3.517429e+00
-3.470625e+00
-3.423305e+00
-3.375630e+00
-3.327787e+00
-3.280020e+00
-3.232622e+00
-3.185893e+00
-3.140085e+00
-3.095362e+00
-3.051766e+00
-3.009196e+00
-2.967388e+00
-2.925932e+00
-2.884322e+00
-2.842034e+00
-2.798564e+00
-2.753439e+00
-2.706198e+00
-2.656389e+00
-2.603591e+00
-2.547458e+00
-2.487761e+00
-2.424408e+00
-2.357453e+00
-2.287080e+00
-2.213569e+00
-2.137255e+00
-2.058498e+00
-1.977679e+00
-1.895197e+00
-1.811467e+00
-1.726903e+00
-1.641917e+00
-1.556917e+00
-1.472356e+00
-1.388739e+00
-1.306581e+00
-1.226346e+00
-1.148395e+00
-1.072942e+00
-1.000013e+00
-9.294193e-01
-8.607614e-01
-7.934535e-01
-7.267730e-01
-6.599262e-01
-5.921270e-01
-5.226688e-01
-4.509684e-01
-3.765796e-01
-2.992101e-01
-2.187470e-01
-1.352638e-01
-4.900369e-02
3.964672e-02
1.301990e-01
2.221209e-01
3.148798e-01
4.079490e-01
5.008058e-01
5.929556e-01
6.839645e-01
7.734573e-01
8.610896e-01
9.465476e-01
1.029574e+00
1.109974e+00
1.187595e+00
1.262321e+00
1.334071e+00
1.402788e+00
1.468438e+00
1.531020e+00
1.590576e+00
1.647194e+00
1.701000e+00
1.752153e+00
1.800843e+00
1.847296e+00
1.891783e+00
1.934614e+00
1.976115e+00
2.016601e+00
2.056356e+00
2.095619e+00
2.134588e+00
2.173411e+00
2.212189e+00
2.250987e+00
2.289852e+00
2.328832e+00
2.367975e+00
2.407317e+00
2.446876e+00
2.486658e+00
2.526664e+00
2.566895e+00
2.607345e+00
2.648001e+00
2.688828e+00
2.729766e+00
2.770728e+00
2.811603e+00
2.852262e+00
2.892563e+00
2.932350e+00
2.971473e+00
3.009807e+00
3.047279e+00
3.083862e+00
3.119579e+00
3.154489e+00
3.188678e+00
3.222235e+00
3.255211e+00
3.287574e+00
3.319205e+00
3.349907e+00
3.379433e+00
3.407507e+00
3.433865e+00
3.458287e+00
3.480638e+00
3.500881e+00
3.519095e+00
3.535469e+00
3.550287e+00
3.563893e+00
3.576647e+00
3.588856e+00
3.600727e+00
3.612324e+00
3.623584e+00
3.634347e+00
3.644388e+00
3.653449e+00
3.661245e+00
3.667493e+00
3.671939e+00
3.674392e+00
3.674775e+00
3.673148e+00
3.669724e+00
3.664855e+00
3.658992e+00
3.652629e+00
3.646251e+00
3.640281e+00
3.635041e+00
3.630721e+00
3.627373e+00
3.624923e+00
3.623194e+00
3.621946e+00
3.620914e+00
3.619842e+00
3.618496e+00
3.616667e+00
3.614170e+00
3.610860e+00
3.606648e+00
3.601509e+00
3.595479e+00
3.588638e+00
3.581095e+00
3.572977e+00
3.564405e+00
3.555484e+00
3.546321e+00
3.537034e+00
3.527762e+00
