EVENT_NAME: CENTRAL_ITALY
EVENT_ID: EMSC-20161030_0000029
EVENT_DATE_YYYYMMDD: 20161030
EVENT_TIME_HHMMSS: 064018
EVENT_LATITUDE_DEGREE: 42.8400
EVENT_LONGITUDE_DEGREE: 13.1100
EVENT_DEPTH_KM: 9.4
HYPOCENTER_REFERENCE: INGV-webservice
MAGNITUDE_W: 6.5
MAGNITUDE_W_REFERENCE: INGV-webservice
MAGNITUDE_L: 6.1
MAGNITUDE_L_REFERENCE: INGV-webservice
FOCAL_MECHANISM: NF
NETWORK: IT
STATION_CODE: ACC
STATION_NAME: Accumoli
STATION_LATITUDE_DEGREE: 42.695999
STATION_LONGITUDE_DEGREE: 13.242000
STATION_ELEVATION_M: 922
LOCATION: 
SENSOR_DEPTH_M: 
VS30_M/S: 
SITE_CLASSIFICATION_EC8: A*
MORPHOLOGIC_CLASSIFICATION: 
EPICENTRAL_DISTANCE_KM: 19.3
EARTHQUAKE_BACKAZIMUTH_DEGREE: 326.0
DATE_TIME_FIRST_SAMPLE_YYYYMMDD_HHMMSS: 20161030_064005.559
DATE_TIME_FIRST_SAMPLE_PRECISION: milliseconds
SAMPLING_INTERVAL_S: 0.005000
NDATA: 12000
DURATION_S: 60.000
STREAM: HGE
UNITS: cm/s
INSTRUMENT: sensor = Unknown [Unknown] | digitizer = Unknown [Unknown]
INSTRUMENT_ANALOG/DIGITAL: D
INSTRUMENTAL_FREQUENCY_HZ: 
INSTRUMENTAL_DAMPING: 
FULL_SCALE_G: 
N_BIT_DIGITAL_CONVERTER: 
PGV_CM/S: -44.075963
TIME_PGV_S: 22.915000
BASELINE_CORRECTION: BASELINE REMOVED
FILTER_TYPE: BUTTERWORTH
FILTER_ORDER: 2
LOW_CUT_FREQUENCY_HZ: 0.060
HIGH_CUT_FREQUENCY_HZ: 30.000
LATE/NORMAL_TRIGGERED: NT
DATABASE_VERSION: DYNA 1.0
HEADER_FORMAT: DYNA 1.2
DATA_TYPE: VELOCITY
PROCESSING: manual (Paolucci et al., 2011)
DATA_TIMESTAMP_YYYYMMDD_HHMMSS: 20161101_122856.566
DATA_LICENSE: CC-BY3_0-IT (http://creativecommons.org/licenses/by/3.0/deed.en)
DATA_CITATION: ESM working group (2015), European Strong-Motion database, version 0.1, Network Activity 3: Networking acceleration networks and SM data users. Project NERA (www.nera-eu.org)
DATA_CREATOR: ESM working group
ORIGINAL_DATA_MEDIATOR_CITATION: Ufficio Rischio Sismico e Vulcanico del Dipartimento della Protezione Civile (http://www.protezionecivile.gov.it/)
ORIGINAL_DATA_MEDIATOR: Rete Accelerometrica Nazionale - RAN Download (http://www.mot1.it/randownload/)
ORIGINAL_DATA_CREATOR_CITATION: Italian Strong Motion Network, Italian Civil Protection Department http://www.protezionecivile.gov.it
ORIGINAL_DATA_CREATOR: network: IT (Italian Strong Motion Network); owner: Dipartimento Della Protezione Civile
USER1: /home/dyna/processing-itaca/processing.py /var/www/processing//tmp/Lucia//IT.ACC..HGE.D.20161030.064018.X.ACC.ASC /var/www/processing//tmp/Lucia//IT.ACC..HGN.D.20161030.064018.X.ACC.ASC /var/www/processing//tmp/Lucia//IT.ACC..HGZ.D.20161030.064018.X.ACC.ASC --tmp /var/www/processing//tmp/Lucia/ --le 0.060 --he 30.000 --ln 0.060 --hn 30.000 --lz 0.060 --hz 30.000 --fo 2 --ca -10 --cz 130 --ta 5 --tz 5 --mf 1 --rf 0 --tr NT
USER2: 
USER3: 
USER4: 
USER5: 
[...]
-0.125790
-0.130213
-0.133194
-0.134338
-0.133766
-0.131904
-0.129330
-0.126737
-0.124831
-0.124101
-0.124563
-0.125659
-0.126437
-0.125956
-0.123704
-0.119736
-0.114490
-0.108434
-0.101883
-0.095134
-0.088759
-0.083731
-0.081178
-0.081898
-0.085907
-0.092316
-0.099620
-0.106187
-0.110611
-0.111966
-0.110091
-0.105725
-0.100351
-0.095709
-0.093169
-0.093266
-0.095607
-0.099107
-0.102475
-0.104778
-0.105874
-0.106510
-0.107992
-0.111494
-0.117314
-0.124571
-0.131607
-0.136841
-0.139434
-0.139438
-0.137565
-0.134741
-0.131458
-0.127162
-0.120361
-0.109705
-0.095449
-0.080217
-0.068272
-0.063504
-0.067509
-0.079078
-0.095209
-0.112559
-0.128395
-0.141098
-0.150423
-0.157240
-0.162569
-0.166376
-0.166998
-0.161652
-0.147712
-0.124131
-0.092544
-0.057619
-0.026244
-0.005600
-0.000922
-0.014007
-0.042981
-0.082980
-0.127309
-0.168971
-0.201888
-0.221383
-0.224743
-0.212010
-0.185893
-0.150508
-0.109760
-0.066347
-0.021982
0.021301
0.059774
0.087973
0.100511
0.094494
0.070930
0.034567
-0.007649
-0.049172
-0.086431
-0.119815
-0.152246
-0.186160
-0.220766
-0.251320
-0.271025
-0.274299
-0.259201
-0.227961
-0.185997
-0.140114
-0.096527
-0.059297
-0.029733
-0.007239
0.008715
0.016810
0.013649
-0.004406
-0.038434
-0.085195
-0.137321
-0.184967
-0.218235
-0.229902
-0.217616
-0.184450
-0.137730
-0.087133
-0.042425
-0.010896
0.004439
0.004765
-0.006281
-0.024909
-0.048484
-0.074956
-0.101454
-0.123879
-0.137969
-0.140761
-0.131438
-0.111432
-0.083963
-0.053269
-0.024160
-0.002231
0.006108
-0.005112
-0.039107
-0.094518
-0.165176
-0.240792
-0.308288
-0.354738
-0.371175
-0.354950
-0.310024
-0.245501
-0.172839
-0.102852
-0.043805
-0.000926
0.023355
0.029023
0.018028
-0.006047
-0.038333
-0.073266
-0.105242
-0.129154
-0.141166
-0.139658
-0.125554
-0.101708
-0.072320
-0.042927
-0.019984
-0.009211
-0.013226
-0.030022
-0.054059
-0.079919
-0.105570
-0.132190
-0.160678
-0.188325
-0.208839
-0.215596
-0.205494
-0.180791
-0.147895
-0.114007
-0.083678
-0.057349
-0.032967
-0.009140
0.013125
0.031031
0.041545
0.042674
0.034202
0.017711
-0.004197
-0.029160
-0.055962
-0.084198
-0.113359
-0.142933
-0.172895
-0.202402
-0.226758
-0.235774
-0.216629
-0.160551
-0.068745
0.046636
0.166486
0.270608
0.342737
0.373875
0.363849
0.320809
0.258529
0.192308
0.135090
0.095113
0.075458
0.075064
0.090284
0.116188
0.147378
0.178530
0.204771
0.221696
0.225187
0.211774
0.180014
0.132257
0.075359
0.019297
-0.025818
-0.052902
-0.060065
-0.051191
-0.034531
-0.019436
-0.012467
-0.014721
-0.021662
-0.025385
-0.017977
0.005792
0.047377
0.104637
0.172448
0.243611
0.310303
0.365820
0.405699
0.427523
0.429871
0.411786
0.373383
0.316983
0.247806
0.173517
0.102610
0.042245
-0.003675
-0.034898
-0.053154
-0.059384
-0.051698
-0.026123
0.019700
0.082720
0.153425
0.218302
0.264600
0.284583
0.277308
0.248194
0.207128
0.165015
0.129480
0.102763
0.083456
0.069650
0.060787
0.057503
0.060482
0.070099
0.087142
0.113660
0.153105
0.208923
0.282009
0.368324
0.457414
0.533283
0.578687
0.581241
0.538394
0.458848
0.359301
0.258072
0.169453
0.101357
0.055634
0.029321
0.016521
0.011404
0.011717
0.020895
0.047256
0.100036
0.183643
0.293128
0.413926
0.525874
0.608933
0.649119
0.643527
0.601431
0.540078
0.477814
0.428055
0.396458
0.382057
0.380992
0.390304
0.410003
0.442912
0.492912
0.562554
0.650696
0.751423
0.855973
0.956715
1.049309
1.131326
1.199311
1.247255
1.268791
1.261360
1.227345
1.172281
1.102958
1.024316
0.936784
0.838800
0.732466
0.625978
0.531156
0.459807
0.423008
0.431991
0.496261
0.619105
0.793451
0.999215
1.204659
1.374758
1.482745
1.516246
1.476418
1.376321
1.239331
1.091787
0.951804
0.825176
0.712473
0.617861
0.550049
0.517718
0.527128
0.582866
0.687497
0.839219
1.029609
1.241961
1.451809
1.632096
1.760846
1.825678
1.822673
1.753825
1.627450
1.458335
1.264468
1.062185
0.861435
0.665079
0.475599
0.303015
0.165166
0.079630
0.054879
0.088573
0.173088
0.303018
0.479141
0.705086
0.978103
1.279672
1.572016
1.803897
1.924976
1.904362
1.744681
1.481945
1.171464
0.871423
0.631518
0.484542
0.441264
0.492111
0.614495
0.781116
0.966224
1.150059
1.321124
1.474607
1.608978
1.725727
1.831693
1.936113
2.040942
2.133548
2.189791
2.186175
2.108815
1.952815
1.723675
1.444380
1.153493
0.889536
0.675840
0.519598
0.422003
0.385227
0.410584
0.492584
0.615583
0.757915
0.901963
1.043727
1.191971
1.351106
1.503364
1.612509
1.645828
1.594128
1.476758
1.333338
1.213421
1.166831
1.228335
1.401272
1.654196
1.935556
2.195469
2.399030
2.528059
2.579762
2.566778
2.513418
2.442726
2.361603
2.258413
2.114503
1.919631
1.683133
1.434671
1.212624
1.046363
0.942119
0.879865
0.823880
0.743758
0.634369
0.520085
0.440368
0.429495
0.503294
0.655597
0.863001
1.095209
1.324112
1.527042
1.686687
1.789586
1.824539
1.785140
1.674296
1.504189
1.291546
1.052863
0.805419
0.574397
0.396562
0.312866
0.351200
0.508891
0.749585
1.017370
1.255371
1.419545
1.488302
1.468771
1.395523
1.317217
1.276648
1.296374
1.374465
1.489186
1.611507
1.718195
1.797651
1.851859
1.898568
1.968565
2.094293
2.292503
2.548148
2.811114
3.013800
3.104241
3.069919
2.933748
2.737886
2.530209
2.348752
2.207283
2.091723
1.971501
1.820254
1.631506
1.419967
1.211123
1.030419
0.899602
0.835286
0.843137
0.911588
1.016764
1.139612
1.276388
1.431585
1.605930
1.789617
1.960248
2.087832
2.146380
2.124085
2.025538
1.864370
1.653169
1.399928
1.109873
0.790585
0.459254
0.142333
-0.134616
-0.356396
-0.519339
-0.622733
-0.658123
-0.609663
-0.467188
-0.238739
0.049192
0.359943
0.653074
0.889516
1.040953
1.098134
1.071488
0.989609
0.898097
0.848064
0.874312
0.980398
1.141803
1.323457
1.499251
1.662896
1.828627
2.023257
2.271594
2.581499
2.935963
3.296849
3.617223
3.851875
3.965725
3.943430
3.791066
3.530014
3.194410
2.828899
2.478470
2.176072
1.936022
1.752979
1.605457
1.460894
1.282326
1.044137
0.749485
0.433515
0.152170
-0.036329
-0.092980
-0.015393
0.162117
0.388273
0.613849
0.796815
0.906052
0.930320
0.881798
0.790219
0.693058
0.622922
0.593264
0.592123
0.593871
0.579244
0.544614
0.499940
0.460644
0.435074
0.419622
0.406928
0.392414
0.369502
0.324460
0.242654
0.119699
-0.035727
-0.210513
-0.398743
-0.602091
-0.816630
-1.021896
-1.183403
-1.261997
-1.222219
-1.044177
-0.739614
-0.356236
0.041379
0.401718
0.702324
0.945485
1.147817
1.330778
1.511002
1.693498
1.868264
2.011727
2.100121
2.128660
2.116660
2.095165
2.093507
2.130081
2.200819
2.274177
2.305352
2.262801
2.150515
2.010588
1.902890
1.876784
1.948942
2.095821
2.262981
2.380095
2.376114
2.200437
1.844277
1.344315
0.764697
0.175384
-0.359301
-0.790203
-1.099358
-1.308616
-1.466677
-1.625206
-1.820149
-2.061364
-2.330425
-2.589184
-2.796560
-2.922541
-2.950084
-2.871483
-2.693834
-2.444962
-2.162197
-1.876842
-1.608971
-1.365753
-1.145632
-0.954223
-0.816656
-0.768964
-0.834445
-1.007295
-1.254606
-1.529691
-1.789128
-2.003740
-2.155611
-2.232290
-2.229031
-2.152410
-2.018898
-1.850697
-1.669694
-1.488578
-1.306941
-1.122702
-0.949821
-0.820617
-0.768298
-0.806792
-0.927269
-1.111515
-1.343758
-1.612497
-1.908767
-2.220533
-2.521812
-2.770008
-2.918280
-2.929034
-2.780010
-2.466831
-2.004995
-1.432557
-0.809748
-0.209967
0.295043
0.650628
0.831619
0.842665
0.704054
0.440898
0.088036
-0.306943
-0.701552
-1.084111
-1.477757
-1.915246
-2.410132
-2.949454
-3.503806
-4.039640
-4.528774
-4.955940
-5.323358
-5.648639
-5.955857
-6.266361
-6.596695
-6.963111
-7.380759
-7.848933
-8.338420
-8.803807
-9.209253
-9.535669
-9.763046
-9.849709
-9.731997
-9.352364
-8.696147
-7.805969
-6.767576
-5.677968
-4.612017
-3.615568
-2.728121
-1.991121
-1.417369
-0.961909
-0.539556
-0.079116
0.446731
1.045442
1.727210
2.490808
3.308001
4.137274
4.955155
5.766238
6.580563
7.393974
8.197939
8.994035
9.781659
10.540810
11.242103
11.871112
12.435685
12.948551
13.407870
13.800128
14.116475
14.356435
14.520475
14.607599
14.618611
14.558687
14.437428
14.268890
14.071318
13.862021
13.648243
13.422981
13.172143
12.885356
12.555068
12.165478
11.691979
11.109084
10.389700
9.509805
8.465352
7.279635
5.997918
4.678451
3.385328
2.190381
1.173648
0.403560
-0.090604
-0.326449
-0.357826
-0.259244
-0.105836
0.043523
0.151939
0.210318
0.247173
0.323888
0.508059
0.845578
1.349615
2.001848
2.757375
3.553204
4.320442
4.999484
5.551634
5.954032
6.187370
6.242745
6.142713
5.947996
5.738182
5.577373
5.491971
5.479219
5.522743
5.586347
5.603173
5.494441
5.218606
4.801239
4.307865
3.800445
3.323882
2.911444
2.590383
2.382741
2.298128
2.329943
2.464826
2.689077
2.981916
3.307666
3.614314
3.842169
3.945814
3.917297
3.792346
3.632330
3.493515
3.410637
3.405096
3.499653
3.721791
4.085303
4.564401
5.105288
5.670737
6.259451
6.886805
7.558362
8.259470
8.961757
9.625988
10.198776
10.625573
10.873407
10.935423
10.818606
10.534831
10.102169
9.550071
8.919885
8.257989
7.605956
6.995849
6.455517
6.014583
5.697825
5.511875
5.439322
5.442328
5.472372
5.480553
5.421465
5.255729
4.961070
4.540291
4.013145
3.405432
2.741165
2.034668
1.295651
0.541768
-0.203943
-0.926085
-1.622197
-2.295202
-2.943288
-3.565016
-4.177752
-4.827277
-5.572482
-6.447027
-7.432716
-8.479991
-9.549498
-10.627100
-11.712026
-12.802609
-13.895739
-14.995694
-16.106529
-17.207514
-18.245239
-19.158998
-19.918875
-20.536652
-21.039631
-21.444023
-21.749510
-21.941658
-21.997053
-21.894650
-21.625355
-21.193106
-20.611277
-19.900455
-19.089273
-18.210718
-17.286148
-16.306381
-15.232302
-14.019994
-12.646264
-11.119099
-9.481664
-7.816826
-6.244494
-4.886855
-3.793802
-2.893104
-2.039162
-1.114181
-0.083848
1.000614
2.033530
2.915345
3.594849
4.060486
4.322113
4.407252
4.344983
4.140503
3.762463
3.144904
2.229244
1.035630
-0.337353
-1.793480
-3.284911
-4.801656
-6.352651
-7.939175
-9.536929
-11.109332
-12.623038
-14.040847
-15.315171
-16.402775
-17.281340
-17.951208
-18.431326
-18.755304
-18.968414
-19.119814
-19.235830
-19.297335
-19.255016
-19.055576
-18.651661
-18.011795
-17.130068
-16.016245
-14.667802
-13.060091
-11.188133
-9.129753
-7.057826
-5.175166
-3.629049
-2.469878
-1.651112
-1.049153
-0.501803
0.132901
0.912427
1.796095
2.704277
3.581919
4.409747
5.179874
5.876019
6.475596
6.957331
7.301951
7.497520
7.547415
7.464746
7.253693
6.898828
6.383335
5.721174
4.966936
4.201292
3.513828
2.988011
2.688008
2.655942
2.920067
3.497976
4.379075
5.502805
6.770090
8.083374
9.364920
10.537873
11.517609
12.242741
12.708565
12.961880
13.070288
13.100497
13.108309
13.127553
13.166511
13.222080
13.296241
13.395891
13.520779
13.652803
13.754376
13.783472
13.719188
13.573100
13.374868
13.147828
12.888731
12.555639
12.081856
11.421101
10.580634
9.610198
8.573235
7.530851
6.539103
5.650719
4.911169
4.347632
3.963411
3.744587
3.670863
3.716996
3.845877
4.014275
4.192491
4.370100
4.540724
4.686716
4.777342
4.777138
4.648121
4.344095
3.823059
3.076437
2.143232
1.104125
0.064598
-0.873529
-1.637279
-2.190478
-2.539830
-2.739197
-2.866558
-2.980760
-3.094816
-3.184130
-3.216016
-3.174030
-3.063629
-2.903770
-2.714289
-2.504964
-2.268671
-1.982414
-1.622799
-1.185297
-0.680607
-0.115759
0.506356
1.169033
1.826698
2.398541
2.783776
2.916030
2.812213
2.553744
2.226265
1.877345
1.509173
1.096765
0.610587
0.027843
-0.664734
-1.465204
-2.350590
-3.285359
-4.239490
-5.199715
-6.168342
-7.151520
-8.144803
-9.127923
-10.071029
-10.943739
-11.722798
-12.397478
-12.966550
-13.427164
-13.768630
-13.978527
-14.055898
-14.023538
-13.929043
-13.830247
-13.778223
-13.809690
-13.943700
-14.179345
-14.503372
-14.906395
-15.391197
-15.965641
-16.627430
-17.352674
-18.093773
-18.787786
-19.374479
-19.823423
-20.181908
-20.598591
-21.239927
-22.161888
-23.281145
-24.451977
-25.548250
-26.489527
-27.229832
-27.749853
-28.066280
-28.238695
-28.345560
-28.443216
-28.544857
-28.620579
-28.604603
-28.414658
-27.990797
-27.334145
-26.514894
-25.644979
-24.824312
-24.090645
-23.425003
-22.800812
-22.212782
-21.674250
-21.210419
-20.854952
-20.639879
-20.582390
-20.686457
-20.951727
-21.367180
-21.898848
-22.494776
-23.105604
-23.701256
-24.268553
-24.796495
-25.272148
-25.690016
-26.058762
-26.399752
-26.739262
-27.094357
-27.465000
-27.851086
-28.285030
-28.845098
-29.627367
-30.692808
-32.028278
-33.554661
-35.176456
-36.811489
-38.383583
-39.826263
-41.098484
-42.182846
-43.063633
-43.705257
-44.056118
-44.075962
-43.765808
-43.174934
-42.376629
-41.436249
-40.389851
-39.234554
-37.938366
-36.471111
-34.832645
-33.060238
-31.222548
-29.409151
-27.707985
-26.172518
-24.813686
-23.625130
-22.601128
-21.731007
-20.989134
-20.338984
-19.751522
-19.212685
-18.709702
-18.221643
-17.725990
-17.205378
-16.646923
-16.044712
-15.414795
-14.799206
-14.231747
-13.708122
-13.202232
-12.691027
-12.162182
-11.617343
-11.068542
-10.527172
-9.996145
-9.468689
-8.929148
-8.357409
-7.738968
-7.065780
-6.326879
-5.512986
-4.632232
-3.701387
-2.716785
-1.656440
-0.515416
0.676691
1.866988
2.996729
4.018224
4.909774
5.681980
6.370933
7.022623
7.679273
8.373541
9.126947
9.948071
10.833012
11.769223
12.739609
13.724961
14.708246
15.687609
16.684877
17.730408
18.842165
20.022449
21.262468
22.542763
23.832773
25.093199
26.279381
27.345819
28.255936
28.990932
29.547230
29.927074
30.135210
30.184196
30.096857
29.895386
29.587421
29.166906
28.623610
27.945532
27.120472
26.144964
25.030926
23.807777
22.520519
21.208359
19.885353
18.562759
17.275461
16.070185
14.982685
14.028624
13.210791
12.533518
12.006909
11.643677
11.461390
11.486633
11.747428
12.260784
13.030044
14.048827
15.313502
16.836296
18.625017
20.636930
22.766184
24.881531
26.866367
28.626200
30.078501
31.148037
31.777246
31.952085
31.724142
31.212124
30.569820
29.920057
29.311214
28.735722
28.169973
27.593929
26.994289
26.368231
25.724939
25.075500
24.418634
23.736012
23.008020
22.240910
21.472401
20.749228
20.102779
19.537834
19.041269
18.605465
18.236965
17.948763
17.764614
17.736376
17.948376
18.488228
19.391071
20.605291
22.020760
23.506754
24.910433
26.075783
26.896061
27.344383
27.463722
27.322945
26.983490
26.501228
25.928938
25.306082
24.651829
23.969215
23.254419
22.504396
21.719183
20.897667
20.033968
19.118256
18.140438
17.093988
15.977271
14.795600
13.563941
12.304460
11.042794
9.810847
8.646109
7.578493
6.622167
5.780296
5.043953
4.384211
3.752997
3.092084
2.347651
1.490290
0.522678
-0.533363
-1.648410
-2.789520
-3.932156
-5.068925
-6.197948
-7.304700
-8.356335
-9.310837
-10.131205
-10.794268
-11.295766
-11.654146
-11.904524
-12.081525
-12.204324
-12.271103
-12.260031
-12.137862
-11.874329
-11.449549
-10.847807
-10.051194
-9.049791
-7.861099
-6.535799
-5.143012
-3.748203
-2.401094
-1.137488
0.016218
1.040502
1.923910
2.672266
3.310861
3.868359
4.361680
4.794351
5.160617
5.451119
5.658522
5.780204
5.818025
5.775802
5.655272
5.453344
5.163302
4.777915
4.292395
3.710729
3.057400
2.384434
1.758941
1.238715
0.858552
0.630904
0.554618
0.628133
0.856591
1.249417
1.817918
2.574825
3.528193
4.670513
5.972430
7.386592
8.861270
10.354361
11.835920
13.282139
14.672356
15.991329
17.230696
18.388781
19.469637
20.477079
21.406681
22.245251
22.977877
23.594515
24.092447
24.476913
24.759373
24.950838
25.056206
25.075861
25.007036
24.837662
24.542591
24.094275
23.478937
22.700605
21.774317
20.721458
19.569916
18.350990
17.090567
15.805932
14.514608
13.241793
12.015883
10.860268
9.790366
8.814423
7.933497
7.140602
6.428457
5.808129
5.317827
5.006496
4.904724
5.009090
5.292763
5.720811
6.248401
6.819930
7.388072
7.935513
8.471256
9.002377
9.513566
9.974895
10.361579
10.658888
10.851810
10.924024
10.870448
10.701243
10.434243
10.089784
9.690065
9.261611
8.835419
8.433167
8.053187
7.687967
7.355403
7.091181
6.915631
6.828276
6.823586
6.896381
7.038035
7.234920
7.473491
7.749311
8.069556
8.445550
8.886649
9.400318
9.990404
10.651385
11.364346
12.099139
12.819182
13.484939
14.057610
14.500403
14.778502
14.866879
14.761917
14.481644
14.053507
13.502421
12.847670
12.105220
11.286565
10.394341
9.425020
8.381905
7.283393
6.152478
5.001948
3.837019
2.667069
1.507712
0.376107
-0.708839
-1.722266
-2.633674
-3.414143
-4.045637
-4.526472
-4.869016
-5.090745
-5.203801
-5.207409
-5.087059
-4.821748
-4.393239
-3.790895
-3.012901
-2.066105
-0.964835
0.267440
1.592387
2.956331
4.298357
5.556993
6.674709
7.607598
8.336986
8.876222
9.267896
9.565271
9.804287
9.988230
10.095880
10.101919
9.995329
9.784522
9.482985
9.086758
8.562512
7.855682
6.919115
5.749801
4.401604
2.954877
1.477652
0.016121
-1.399414
-2.749502
-4.018239
-5.188807
-6.242862
-7.158737
-7.916475
-8.510625
-8.951533
-9.251150
-9.412528
-9.431756
-9.306368
-9.043349
-8.661570
-8.186417
-7.639733
-7.033788
-6.375250
-5.674379
-4.951206
-4.236701
-3.569655
-2.988865
-2.523285
-2.185926
-1.974718
-1.877242
-1.874502
-1.943552
-2.060256
-2.201605
-2.347585
-2.483292
-2.599104
-2.686255
-2.733338
-2.731875
-2.686925
-2.620737
-2.565945
-2.555745
-2.615766
-2.756545
-2.970216
-3.235306
-3.525988
-3.819629
-4.097891
-4.341794
-4.528608
-4.638725
-4.667323
-4.625821
-4.533232
-4.410095
-4.276892
-4.153100
-4.057089
-4.005613
-4.011763
-4.084191
-4.229206
-4.451755
-4.751926
-5.122017
-5.549303
-6.021003
-6.526642
-7.057348
-7.603899
-8.156152
-8.704462
-9.239962
-9.752946
-10.232983
-10.670838
-11.057803
-11.381594
-11.623187
-11.758254
-11.762214
-11.616314
-11.315263
-10.875340
-10.334349
-9.739360
-9.132486
-8.545992
-8.005433
-7.531102
-7.134122
-6.813568
-6.559005
-6.354314
-6.180298
-6.018149
-5.851350
-5.664859
-5.446556
-5.190522
-4.897324
-4.572294
-4.225698
-3.874570
-3.542345
-3.254181
-3.030550
-2.882689
-2.811375
-2.809005
