EVENT_NAME: CENTRAL_ITALY
EVENT_ID: EMSC-20161026_0000095
EVENT_DATE_YYYYMMDD: 20161026
EVENT_TIME_HHMMSS: 191806
EVENT_LATITUDE_DEGREE: 42.9087
EVENT_LONGITUDE_DEGREE: 13.1288
EVENT_DEPTH_KM: 7.5
HYPOCENTER_REFERENCE: INGV-CNT_Seismic_Bulletin
MAGNITUDE_W: 5.9
MAGNITUDE_W_REFERENCE: INGV-webservice
MAGNITUDE_L: 5.9
MAGNITUDE_L_REFERENCE: INGV-CNT_Seismic_Bulletin
FOCAL_MECHANISM: NF
NETWORK: IT
STATION_CODE: ACC
STATION_NAME: Accumoli
STATION_LATITUDE_DEGREE: 42.695999
STATION_LONGITUDE_DEGREE: 13.242000
STATION_ELEVATION_M: 922
LOCATION: 
SENSOR_DEPTH_M: 
VS30_M/S: 
SITE_CLASSIFICATION_EC8: A*
MORPHOLOGIC_CLASSIFICATION: 
EPICENTRAL_DISTANCE_KM: 25.4
EARTHQUAKE_BACKAZIMUTH_DEGREE: 338.6
DATE_TIME_FIRST_SAMPLE_YYYYMMDD_HHMMSS: 20161026_191805.089
DATE_TIME_FIRST_SAMPLE_PRECISION: milliseconds
SAMPLING_INTERVAL_S: 0.005000
NDATA: 12982
DURATION_S: 64.910
STREAM: HGE
UNITS: cm/s^2
INSTRUMENT: sensor = Unknown [Unknown] | digitizer = Unknown [Unknown]
INSTRUMENT_ANALOG/DIGITAL: D
INSTRUMENTAL_FREQUENCY_HZ: 
INSTRUMENTAL_DAMPING: 
FULL_SCALE_G: 
N_BIT_DIGITAL_CONVERTER: 
PGA_CM/S^2: 88.319921
TIME_PGA_S: 13.270000
BASELINE_CORRECTION: BASELINE REMOVED
FILTER_TYPE: BUTTERWORTH
FILTER_ORDER: 2
LOW_CUT_FREQUENCY_HZ: 0.040
HIGH_CUT_FREQUENCY_HZ: 40.000
LATE/NORMAL_TRIGGERED: NT
DATABASE_VERSION: DYNA 1.0
HEADER_FORMAT: DYNA 1.2
DATA_TYPE: ACCELERATION
PROCESSING: manual (Paolucci et al., 2011)
DATA_TIMESTAMP_YYYYMMDD_HHMMSS: 20161028_130247.609
DATA_LICENSE: CC-BY3_0-IT (http://creativecommons.org/licenses/by/3.0/deed.en)
DATA_CITATION: ESM working group (2015), European Strong-Motion database, version 0.1, Network Activity 3: Networking acceleration networks and SM data users. Project NERA (www.nera-eu.org)
DATA_CREATOR: ESM working group
ORIGINAL_DATA_MEDIATOR_CITATION: Ufficio Rischio Sismico e Vulcanico del Dipartimento della Protezione Civile (http://www.protezionecivile.gov.it/)
ORIGINAL_DATA_MEDIATOR: Rete Accelerometrica Nazionale - RAN Download (http://www.mot1.it/randownload/)
ORIGINAL_DATA_CREATOR_CITATION: Italian Strong Motion Network, Italian Civil Protection Department http://www.protezionecivile.gov.it
ORIGINAL_DATA_CREATOR: network: IT (Italian Strong Motion Network); owner: Dipartimento Della Protezione Civile
USER1: /home/dyna/processing-itaca/processing.py /var/www/processing//tmp/dyna_ingv//IT.ACC..HGE.D.20161026.191806.X.ACC.ASC /var/www/processing//tmp/dyna_ingv//IT.ACC..HGN.D.20161026.191806.X.ACC.ASC /var/www/processing//tmp/dyna_ingv//IT.ACC..HGZ.D.20161026.191806.X.ACC.ASC --tmp /var/www/processing//tmp/dyna_ingv/ --le 0.040 --he 40.000 --ln 0.040 --hn 40.000 --lz 0.040 --hz 40.000 --fo 2 --ca 0 --cz 40 --ta 5 --tz 5 --mf 1 --rf 0 --tr NT
USER2: 
USER3: 
USER4: 
USER5: 
[...]
0.005638
-0.525549
-1.051718
-1.365453
-1.326602
-0.901548
-0.169473
0.687630
1.427820
1.836056
1.810093
1.395053
0.744027
0.029821
-0.617826
-1.113556
-1.401409
-1.460751
-1.314753
-1.018224
-0.632075
-0.204869
0.231805
0.656964
1.043744
1.340197
1.466727
1.339304
0.910218
0.218184
-0.582630
-1.259849
-1.600332
-1.511485
-1.065075
-0.445352
0.163253
0.648089
0.953670
1.038215
0.868816
0.463814
-0.059658
-0.499348
-0.662442
-0.470068
0.000692
0.543066
0.905421
0.911832
0.548179
-0.037342
-0.607412
-0.945120
-0.942003
-0.617427
-0.089694
0.460451
0.831356
0.859469
0.494097
-0.149998
-0.820748
-1.242091
-1.246999
-0.852248
-0.229240
0.406185
0.897757
1.176592
1.227209
1.058874
0.708356
0.242149
-0.258350
-0.714666
-1.058190
-1.222201
-1.140798
-0.776951
-0.161572
0.589097
1.293120
1.751705
1.808663
1.410496
0.643270
-0.292046
-1.158691
-1.761563
-1.986121
-1.807874
-1.293457
-0.587066
0.137339
0.733552
1.103621
1.189758
0.985361
0.570100
0.105689
-0.247454
-0.417129
-0.417499
-0.290773
-0.078789
0.167092
0.381955
0.504968
0.504967
0.392704
0.204000
-0.021835
-0.240206
-0.401511
-0.471907
-0.445993
-0.334116
-0.148889
0.086179
0.324772
0.509191
0.600016
0.601152
0.555668
0.500662
0.418954
0.253599
-0.016473
-0.326073
-0.567786
-0.685583
-0.706501
-0.692485
-0.688790
-0.699096
-0.674228
-0.525971
-0.180382
0.350360
0.936006
1.375776
1.493003
1.216862
0.619050
-0.114735
-0.776835
-1.220680
-1.367054
-1.181882
-0.694320
-0.022111
0.651578
1.131931
1.258494
0.960833
0.328386
-0.389145
-0.901915
-1.031718
-0.783007
-0.317228
0.136121
0.390117
0.372488
0.136655
-0.167111
-0.364758
-0.361325
-0.189568
0.040757
0.228503
0.324522
0.325948
0.252979
0.130293
-0.011972
-0.125115
-0.154367
-0.073689
0.103216
0.343326
0.612593
0.861370
0.999249
0.927271
0.621968
0.176707
-0.250625
-0.537443
-0.654008
-0.639837
-0.552788
-0.445221
-0.359507
-0.320202
-0.319813
-0.315652
-0.253217
-0.106611
0.088234
0.244843
0.290161
0.217634
0.081268
-0.047495
-0.124331
-0.146774
-0.131189
-0.090803
-0.038541
0.013101
0.061347
0.104060
0.127552
0.119573
0.090665
0.080412
0.134518
0.252381
0.358776
0.355918
0.211803
-0.008090
-0.182643
-0.203503
-0.033370
0.268561
0.575633
0.765042
0.776348
0.618289
0.336160
-0.024185
-0.425580
-0.822911
-1.156041
-1.368171
-1.418101
-1.272947
-0.920730
-0.413013
0.126079
0.559886
0.814910
0.911452
0.931623
0.940701
0.923049
0.794563
0.477728
-0.018634
-0.563039
-0.948508
-1.009068
-0.715335
-0.181370
0.404443
0.871924
1.119037
1.099088
0.807260
0.298447
-0.300726
-0.810746
-1.057648
-0.959224
-0.577701
-0.087864
0.310515
0.472850
0.359601
0.050044
-0.298799
-0.531167
-0.557944
-0.395830
-0.172686
-0.057632
-0.146924
-0.398969
-0.660838
-0.779217
-0.711736
-0.516200
-0.259647
-0.000678
0.167191
0.144030
-0.080218
-0.382703
-0.569802
-0.498554
-0.166620
0.314105
0.814985
1.213577
1.366317
1.182232
0.732588
0.211096
-0.206852
-0.426485
-0.407940
-0.155439
0.254018
0.672005
0.967282
1.107952
1.104658
0.906645
0.437265
-0.263065
-0.976856
-1.415503
-1.397355
-0.931943
-0.160210
0.696027
1.306683
1.315199
0.586606
-0.647788
-1.931506
-2.839075
-3.130283
-2.782950
-1.925211
-0.727615
0.594677
1.693175
2.124352
1.594846
0.216672
-1.482516
-2.819444
-3.307747
-2.861867
-1.756054
-0.468958
0.515411
0.902491
0.651266
-0.076476
-1.004552
-1.799725
-2.072090
-1.483065
0.014504
2.045262
3.915995
4.922079
4.690371
3.336473
1.395187
-0.434682
-1.602009
-1.856757
-1.279244
-0.261291
0.692107
1.234219
1.222982
0.656749
-0.274493
-1.170471
-1.542860
-1.029335
0.334332
1.997553
3.106488
2.928869
1.296054
-1.220308
-3.582501
-4.809943
-4.473679
-2.909134
-0.934842
0.661085
1.399515
1.136575
0.073579
-1.237966
-2.057569
-1.821169
-0.493660
1.407681
3.170227
4.303725
4.677399
4.369863
3.515975
2.287250
0.872723
-0.566935
-1.895435
-2.957865
-3.557513
-3.541293
-2.964437
-2.121700
-1.334196
-0.705291
-0.101911
0.698469
1.818399
3.097404
4.129873
4.557674
4.269728
3.400155
2.278773
1.250298
0.378893
-0.583966
-1.868334
-3.367263
-4.644166
-5.205873
-4.742748
-3.204462
-0.822534
1.862765
4.032884
4.851185
3.980852
1.902518
-0.382840
-1.965616
-2.382154
-1.635791
-0.134147
1.444846
2.428996
2.437279
1.527711
0.112004
-1.277376
-2.107530
-1.931780
-0.614263
1.503402
3.582606
4.519725
3.636775
1.241330
-1.607500
-3.758232
-4.486469
-3.693609
-1.862751
0.117696
1.316087
1.214191
0.007833
-1.503848
-2.451499
-2.364559
-1.261042
0.470462
2.240844
3.407811
3.467475
2.360278
0.552084
-1.276658
-2.545321
-2.911585
-2.398590
-1.448871
-0.700141
-0.526044
-0.692793
-0.576475
0.146695
1.121579
1.643262
1.183041
-0.348810
-2.554316
-4.668881
-5.891174
-5.753550
-4.295745
-1.977692
0.623522
3.124370
5.340434
7.002068
7.576977
6.576568
4.085668
0.781419
-2.497273
-5.006455
-6.223948
-5.994655
-4.481440
-2.055827
0.651949
2.827782
3.863031
3.608527
2.249282
0.229554
-1.723240
-2.862496
-2.831046
-1.833385
-0.497284
0.503950
0.796781
0.377832
-0.439331
-1.131972
-1.219894
-0.535543
0.649939
1.729258
2.081798
1.418209
-0.089198
-1.910181
-3.376008
-3.952576
-3.426849
-1.866553
0.470435
3.085158
5.205800
6.030676
5.225526
3.228774
0.999710
-0.525270
-0.899369
-0.399691
0.206076
0.246713
-0.489336
-1.775776
-3.106718
-3.966299
-4.139022
-3.752675
-2.989096
-1.818316
-0.098170
2.140099
4.610315
6.837589
8.219155
8.228147
6.750730
4.247993
1.548718
-0.533693
-1.442695
-1.027333
0.293784
1.625991
2.075830
1.269591
-0.449011
-2.233931
-3.214732
-2.950859
-1.547936
0.607170
3.063922
5.247136
6.471960
6.210026
4.361551
1.347602
-2.009442
-4.727724
-5.970152
-5.461833
-3.743948
-1.870594
-0.809383
-1.029438
-2.323488
-3.899931
-4.808473
-4.407495
-2.609934
0.157610
3.218207
5.771821
6.876827
5.769176
2.427151
-2.222018
-6.646352
-9.361952
-9.604248
-7.701991
-4.844538
-2.342583
-0.955610
-0.698154
-1.042898
-1.288695
-0.942065
0.084137
1.615007
3.474505
5.480345
7.278745
8.387303
8.466265
7.574479
6.172545
4.814060
3.807768
3.204421
2.978606
2.980182
2.777965
1.862991
0.091058
-2.191794
-4.469066
-6.348095
-7.579273
-8.013856
-7.558215
-6.177056
-4.053261
-1.671061
0.388020
1.754637
2.316566
1.973409
0.592192
-1.674658
-4.197521
-6.088477
-6.663948
-5.886210
-4.423409
-3.216624
-2.936901
-3.610075
-4.528406
-4.634626
-3.137785
0.064349
4.238096
8.088702
10.442240
10.780381
9.294170
6.628807
3.557989
0.711135
-1.593542
-3.325636
-4.542950
-5.210922
-5.177355
-4.290943
-2.593721
-0.426418
1.689173
3.260620
3.948566
3.667274
2.707675
1.689608
1.239506
1.595905
2.433671
3.109190
3.168732
2.556776
1.368920
-0.333001
-2.402110
-4.492728
-6.174169
-7.122285
-7.103020
-5.902543
-3.548725
-0.526180
2.356688
4.277076
4.778409
4.044745
2.762709
1.737488
1.537394
2.247567
3.501253
4.727584
5.421470
5.330934
4.382575
2.528373
-0.128673
-3.100976
-5.597566
-6.979387
-7.160838
-6.620638
-6.096954
-6.135270
-6.766890
-7.507699
-7.537178
-6.012805
-2.518317
2.639804
8.494225
13.618821
16.428053
15.842072
11.837273
5.395073
-1.727574
-7.440327
-10.235748
-9.879040
-7.186426
-3.370646
0.306899
2.889344
4.261251
5.095565
6.235262
8.267072
11.263425
14.552931
16.944630
17.488705
16.068430
13.149529
9.068158
3.862561
-2.197830
-8.239278
-13.125521
-16.095352
-16.991570
-15.936906
-13.030010
-8.587415
-3.498406
0.967052
3.746303
4.500844
3.667406
1.982128
0.019617
-1.951764
-3.946739
-6.092890
-8.325573
-10.164447
-10.865673
-9.928160
-7.456155
-3.998812
-0.197969
3.285887
5.775260
6.809720
6.372258
4.883861
3.069493
1.723077
1.447121
2.544401
4.877180
7.644787
9.591936
9.684534
7.525196
3.353467
-1.865558
-6.510981
-9.059227
-8.971116
-6.884677
-4.108731
-1.865678
-0.699849
-0.415904
-0.551669
-0.842395
-1.279396
-1.949416
-2.898201
-3.988598
-4.798195
-4.808656
-3.848269
-2.309186
-0.884412
-0.084980
0.080047
0.010589
0.116513
0.554445
1.273389
2.112622
2.817367
3.146515
3.082036
2.869536
2.861496
3.379333
4.584658
6.269254
7.811492
8.512984
7.962239
6.125170
3.353915
0.323071
-2.266814
-4.009952
-4.884946
-5.140353
-5.072863
-4.871125
-4.667619
-4.610610
-4.770694
-5.033087
-5.152609
-4.902372
-4.182559
-3.053563
-1.627429
0.108481
2.185063
4.287709
5.706634
5.790945
4.413709
1.996598
-0.882290
-3.910487
-7.016440
-9.934470
-12.003040
-12.446146
-10.754680
-6.915403
-1.499783
4.396002
9.475541
12.717319
13.601256
12.104474
8.705994
4.309416
0.027105
-3.105064
-4.417543
-3.861415
-2.154302
-0.475062
0.342216
0.345726
0.133422
0.169524
0.562300
1.178735
1.570228
0.952855
-1.280090
-4.901969
-8.802246
-11.575860
-12.233713
-10.664146
-7.589181
-3.976723
-0.549513
2.143731
3.604067
3.590774
2.321814
0.417691
-1.305675
-2.058077
-1.350012
0.665305
3.167052
5.108898
5.733935
4.901462
3.111631
1.279019
0.408253
1.150852
3.455704
6.612904
9.623383
11.558124
11.680293
9.476205
4.739521
-2.161588
-9.917656
-16.519056
-20.287159
-20.741089
-18.487791
-14.531667
-9.877280
-5.435880
-1.897477
0.428276
1.767821
2.753625
3.909409
5.350746
6.986302
8.767243
10.632432
12.273812
12.981035
11.797974
8.158385
2.578143
-3.465693
-8.466736
-11.549387
-12.376473
-10.938673
-7.599895
-3.146424
1.476386
5.572869
8.641796
10.127684
9.743228
7.917378
5.643852
3.958356
3.431627
3.784474
3.933238
2.750914
-0.062661
-3.865394
-7.575265
-10.221821
-11.288510
-10.778079
-9.054171
-6.621502
-4.025827
-1.706352
0.388573
2.871355
6.202049
9.960691
13.026501
14.369935
13.686744
11.404550
8.173610
4.606747
1.431180
-0.638734
-1.402346
-1.441997
-1.863568
-3.601214
-6.561852
-9.296085
-9.875614
-7.409294
-2.556198
3.309289
8.853994
12.854574
14.348465
13.049933
9.474352
4.669160
-0.208333
-4.273271
-6.978570
-7.888965
-6.649602
-3.247771
1.766166
7.173726
11.279301
12.592070
10.519210
5.631600
-0.461308
-5.779001
-8.969454
-9.740911
-8.711257
-7.160016
-6.321032
-6.560835
-7.383618
-7.843899
-6.824473
-3.577724
1.599296
7.397392
12.250418
14.970896
15.041932
12.819809
9.404131
6.060123
3.701058
2.804804
3.604533
6.144029
10.064140
14.508789
18.392748
20.748337
21.017981
19.335064
16.451538
13.154714
9.750700
6.098945
1.915635
-2.961018
-8.152781
-12.453785
-14.408935
-13.423318
-10.178356
-5.959382
-1.792670
1.864877
5.154643
8.648441
12.793196
17.461952
21.952152
25.277676
26.671242
26.028580
23.972485
21.465918
19.223774
17.446907
16.038317
14.828428
13.520222
11.727252
9.306809
6.555184
4.012362
2.247857
1.774957
2.769356
4.824015
7.200455
9.241033
10.540570
10.945450
10.410013
8.835859
6.078027
2.015188
-3.517395
-10.788171
-19.609310
-28.667179
-36.310658
-41.922981
-45.720715
-47.850941
-48.412163
-47.656368
-45.706238
-42.437351
-37.816795
-32.132118
-25.661573
-18.355614
-10.144843
-1.326957
7.529146
15.735634
22.462086
27.068499
29.689777
31.283104
32.978924
35.161831
37.191799
38.338196
38.886852
39.939568
42.054283
44.837433
48.008343
51.519569
54.594635
55.770306
53.871967
48.884743
41.809486
33.400585
23.725033
12.873744
1.180088
-10.874442
-22.474611
-32.420490
-39.431335
-42.802078
-42.983963
-41.367973
-39.358505
-37.747868
-37.014652
-37.778591
-40.586555
-45.549576
-52.135754
-58.859230
-63.780224
-66.079102
-66.488693
-65.766785
-63.719910
-59.972858
-54.803711
-48.857830
-42.290703
-34.728077
-26.282145
-18.051247
-11.284011
-6.437336
-3.584912
-3.040409
-4.322443
-5.404179
-4.133819
0.372206
7.697347
16.356659
24.092691
28.652664
28.855288
25.159861
19.057240
12.179738
6.047685
1.693675
-0.847450
-2.267062
-3.356955
-4.767390
-6.850214
-9.435471
-11.987862
-14.036014
-15.296693
-15.600706
-15.067646
-14.287796
-13.977532
-14.324556
-14.767860
-14.442200
-12.955811
-10.707589
-8.169316
-5.352544
-2.368996
0.220983
1.733058
1.770230
0.777677
0.030322
0.703133
3.230813
7.192242
11.479634
15.340163
19.220419
23.867605
29.215338
34.584312
38.998234
41.248611
40.403423
36.015686
27.857409
16.023939
1.384966
-14.144136
-28.287025
-39.626400
-47.703583
-52.481628
-54.422363
-54.458656
-53.521683
-52.287209
-50.925453
-48.939377
-45.755337
-41.290936
-35.902412
-30.214275
-24.609097
-18.911024
-13.048446
-7.428201
-2.583771
0.914542
2.559979
2.268188
0.474450
-1.899350
-3.508665
-3.113381
-0.318102
4.247999
9.297001
13.464697
16.081520
17.535347
18.890177
21.542740
26.850948
35.304382
46.317944
58.789307
71.168343
81.401253
87.505775
88.319923
84.160133
76.667938
67.272026
56.313271
43.977379
30.976744
18.299337
6.894155
-2.643766
-10.004854
-14.892696
-17.400093
-18.308996
-18.502054
-18.291815
-17.348049
-15.111026
-11.406286
-6.707845
-1.815557
2.506132
5.541780
6.671911
5.677573
2.853570
-1.085921
-5.015545
-7.711508
-8.491477
-7.440070
-5.144137
-2.497155
-0.512063
0.217969
-0.150340
-1.220986
-2.963091
-5.378774
-7.876887
-9.649576
-10.363404
-9.958900
-8.367297
-5.789815
-2.736672
0.297840
3.038625
5.529259
7.992407
10.418797
12.433141
13.550846
13.369241
11.601163
8.251819
3.823906
-0.843867
-4.992274
-8.304018
-10.911703
-12.860352
-13.783733
-13.458269
-12.357170
-11.385423
-11.352933
-12.736632
-15.450903
-18.748543
-21.697231
-23.592642
-23.879368
-22.172979
-18.406429
-12.890339
-6.291136
0.687374
7.619072
14.289956
20.644480
26.878950
33.108402
38.571251
41.475693
40.261372
35.119411
28.047350
21.532791
17.280252
15.837209
16.835205
19.223915
21.531624
22.430586
21.191584
17.584028
11.620867
3.591416
-5.810806
-15.517282
-24.277060
-31.004145
-35.113403
-36.562168
-35.612137
-32.705505
-28.558615
-23.982563
-19.544830
-15.681116
-12.972834
-11.875497
-12.128396
-12.921828
-13.721380
-14.462786
-15.096073
-15.462679
-15.570486
-15.632395
-15.948131
-17.030153
-19.462887
-23.218451
-27.492975
-31.435137
-34.639565
-36.964508
-38.079975
-37.279575
-33.968803
-28.116285
-20.090359
-10.518387
-0.417862
8.944827
16.568005
22.099497
25.885813
28.732445
31.437553
34.324642
36.923580
38.158401
37.278008
34.498219
30.375860
25.016249
18.463924
11.389662
4.892744
-0.027262
-2.837043
-3.800824
-3.776752
-3.508244
-3.373202
-3.525385
-3.845535
-4.049513
-4.031218
-3.944969
-4.058500
-4.613495
-5.741514
-7.362431
-9.009373
-9.926332
-9.574276
-7.892847
-5.005825
-1.074647
3.346498
7.143877
9.100210
8.566901
5.820054
1.874096
-2.060396
-4.999086
-6.244690
-5.357836
-2.319034
2.341367
7.744273
12.974889
17.169954
19.513216
19.443321
17.046154
13.277059
9.631679
7.325090
6.643851
7.009700
7.495083
7.210551
5.480628
2.125864
-2.221109
-6.194826
-8.241914
-7.393802
-3.794774
1.526926
7.302299
12.435214
16.233009
18.501806
19.397743
19.271564
18.619661
17.915312
17.362890
16.887249
16.275129
15.219253
13.435877
10.945671
8.248539
6.267723
5.992536
7.794759
10.930313
13.853941
15.137456
14.116380
10.916949
6.282949
1.393596
-2.546449
-4.797847
-5.253278
-4.314070
-2.607612
-0.588396
1.557562
3.598445
5.106495
5.717342
5.460424
4.738272
3.945296
3.215600
2.532304
1.971751
1.772984
2.141787
3.161003
4.889028
7.231281
9.656866
11.251131
11.257354
9.472234
5.928711
0.666370
-5.862118
-12.574621
-18.188967
-22.054468
-24.617208
-26.691065
-28.381220
-29.085175
-28.340309
-26.288229
-23.296310
-19.577127
-15.417937
-11.322984
-7.608292
-4.071766
-0.274284
3.823130
7.635258
10.465040
12.035043
12.391915
11.642523
10.084892
8.385375
7.341987
7.477798
8.930774
11.535499
14.723044
17.514420
18.962936
18.608109
16.589100
13.561019
10.398677
7.727609
5.605788
3.726709
2.014046
0.714551
-0.078329
-0.492133
-0.612905
-0.478670
-0.072653
0.701303
1.821846
3.104809
4.438987
5.786531
6.875898
7.215402
6.567063
5.165467
3.395755
1.450121
-0.764124
-3.546410
-7.085440
-11.135407
-15.122433
-18.447414
-20.636589
-21.411903
-20.707083
-18.691835
-15.816591
-12.707225
-9.920994
-7.759374
-6.244081
-5.185327
-4.314908
-3.444601
-2.451716
-1.107604
0.939204
3.865050
7.347409
10.607388
12.787475
13.343266
12.260593
10.121496
7.914330
6.514256
6.292629
7.157958
8.715835
10.436008
11.876485
12.662418
12.232020
9.873228
5.263450
-0.887568
-6.898921
-11.049505
-12.305484
-10.335774
-5.566332
0.659461
6.507613
10.487124
11.977622
11.231816
9.032516
6.263954
3.613388
1.477428
-0.081527
-1.362720
-2.840623
-4.893743
-7.675735
-11.056883
-14.764660
-18.761541
-23.138771
-27.521196
-31.067427
-32.916313
-32.409409
-29.365908
-24.217525
-17.646168
-10.281564
-2.842227
3.716980
8.404621
10.568209
10.146106
7.594675
3.614959
-0.915793
-4.855261
-7.120548
-7.240528
-5.367787
-1.980633
2.219081
6.436524
9.986905
12.368712
13.319880
12.878621
11.326511
9.107352
6.769502
4.836895
3.644839
3.259988
3.524293
4.161813
4.866591
5.388906
5.653167
5.732235
5.577509
4.893714
3.412110
1.121310
-1.812455
-5.119329
-8.398602
-11.149641
-12.911988
-13.483750
-12.966811
-11.597428
-9.681529
-7.625954
-5.917301
-5.083193
-5.557550
-7.421982
-10.269041
-13.346035
-15.862432
-17.271084
-17.365273
-16.249147
-14.318468
-12.072577
-9.705776
-6.984141
-3.636084
0.311222
4.572652
8.736003
12.355784
14.997537
16.228271
15.754992
13.697814
10.648944
7.413083
4.745735
3.253335
3.252995
4.577677
6.542137
8.161498
8.567496
7.355397
4.689579
1.193407
-2.439453
-5.737583
-8.268279
-9.597846
-9.690867
-9.018157
-8.257465
-8.069183
-8.848763
-10.407282
-12.029837
-12.949276
-12.690196
-11.059186
-8.138176
-4.358816
-0.364927
3.286432
6.282891
8.489626
9.856978
10.345201
9.835305
8.199179
5.397963
1.529765
-2.970614
-7.261254
-10.510019
-12.350350
-12.667012
-11.229059
-8.037907
-3.687185
1.014487
5.703427
10.578592
15.603626
19.953705
22.622047
23.076328
21.317514
17.795158
13.144409
7.848340
2.226391
-3.397455
-8.595361
-12.880629
-15.906938
-17.585110
-18.056068
-17.671335
-16.838360
