EVENT_NAME: CENTRAL_ITALY
EVENT_ID: EMSC-20161026_0000077
EVENT_DATE_YYYYMMDD: 20161026
EVENT_TIME_HHMMSS: 171036
EVENT_LATITUDE_DEGREE: 42.8802
EVENT_LONGITUDE_DEGREE: 13.1275
EVENT_DEPTH_KM: 8.7
HYPOCENTER_REFERENCE: INGV-CNT_Seismic_Bulletin
MAGNITUDE_W: 5.4
MAGNITUDE_W_REFERENCE: INGV-webservice
MAGNITUDE_L: 5.4
MAGNITUDE_L_REFERENCE: INGV-CNT_Seismic_Bulletin
FOCAL_MECHANISM: NF
NETWORK: IT
STATION_CODE: ACC
STATION_NAME: Accumoli
STATION_LATITUDE_DEGREE: 42.695999
STATION_LONGITUDE_DEGREE: 13.242000
STATION_ELEVATION_M: 922
LOCATION: 
SENSOR_DEPTH_M: 
VS30_M/S: 
SITE_CLASSIFICATION_EC8: A*
MORPHOLOGIC_CLASSIFICATION: 
EPICENTRAL_DISTANCE_KM: 22.5
EARTHQUAKE_BACKAZIMUTH_DEGREE: 335.4
DATE_TIME_FIRST_SAMPLE_YYYYMMDD_HHMMSS: 20161026_171034.835
DATE_TIME_FIRST_SAMPLE_PRECISION: milliseconds
SAMPLING_INTERVAL_S: 0.005000
NDATA: 7433
DURATION_S: 37.165
STREAM: HGE
UNITS: cm/s^2
INSTRUMENT: sensor = Unknown [Unknown] | digitizer = Unknown [Unknown]
INSTRUMENT_ANALOG/DIGITAL: D
INSTRUMENTAL_FREQUENCY_HZ: 
INSTRUMENTAL_DAMPING: 
FULL_SCALE_G: 
N_BIT_DIGITAL_CONVERTER: 
PGA_CM/S^2: -79.115837
TIME_PGA_S: 11.520000
BASELINE_CORRECTION: BASELINE REMOVED
FILTER_TYPE: BUTTERWORTH
FILTER_ORDER: 2
LOW_CUT_FREQUENCY_HZ: 0.100
HIGH_CUT_FREQUENCY_HZ: 30.000
LATE/NORMAL_TRIGGERED: NT
DATABASE_VERSION: DYNA 1.0
HEADER_FORMAT: DYNA 1.2
DATA_TYPE: ACCELERATION
PROCESSING: manual (Paolucci et al., 2011)
DATA_TIMESTAMP_YYYYMMDD_HHMMSS: 20161027_131047.653
DATA_LICENSE: CC-BY3_0-IT (http://creativecommons.org/licenses/by/3.0/deed.en)
DATA_CITATION: ESM working group (2015), European Strong-Motion database, version 0.1, Network Activity 3: Networking acceleration networks and SM data users. Project NERA (www.nera-eu.org)
DATA_CREATOR: ESM working group
ORIGINAL_DATA_MEDIATOR_CITATION: Ufficio Rischio Sismico e Vulcanico del Dipartimento della Protezione Civile (http://www.protezionecivile.gov.it/)
ORIGINAL_DATA_MEDIATOR: Rete Accelerometrica Nazionale - RAN Download (http://www.mot1.it/randownload/)
ORIGINAL_DATA_CREATOR_CITATION: Italian Strong Motion Network, Italian Civil Protection Department http://www.protezionecivile.gov.it
ORIGINAL_DATA_CREATOR: network: IT (Italian Strong Motion Network); owner: Dipartimento Della Protezione Civile
USER1: /home/dyna/processing-itaca/processing.py /var/www/processing//tmp/felicetta//IT.ACC..HGE.D.20161026.171036.X.ACC.ASC /var/www/processing//tmp/felicetta//IT.ACC..HGN.D.20161026.171036.X.ACC.ASC /var/www/processing//tmp/felicetta//IT.ACC..HGZ.D.20161026.171036.X.ACC.ASC --tmp /var/www/processing//tmp/felicetta/ --le 0.100 --he 30.000 --ln 0.100 --hn 30.000 --lz 0.100 --hz 30.000 --fo 2 --ca 0 --cz 40 --ta 5 --tz 5 --mf 1 --rf 0 --tr NT
USER2: 
USER3: 
USER4: 
USER5: 
[...]
-0.002583
-0.002533
-0.002453
-0.002696
-0.002586
-0.001868
-0.001053
-0.000220
0.000910
0.001646
0.001237
0.000438
0.000134
0.000119
0.000026
-0.000054
0.000120
0.000629
0.001150
0.001272
0.001019
0.000456
-0.000351
-0.000863
-0.000829
-0.000807
-0.001110
-0.000977
0.000290
0.001710
0.001824
0.000869
0.000049
-0.000147
-0.000014
0.000137
0.000447
0.001069
0.001642
0.001771
0.001434
0.000796
0.000401
0.000953
0.002380
0.003716
0.004049
0.003539
0.002918
0.002026
0.000446
-0.001052
-0.001472
-0.000835
0.000180
0.000662
0.000196
-0.000465
-0.000344
0.000494
0.001293
0.001649
0.001788
0.002251
0.003145
0.003864
0.003847
0.003028
0.001738
0.000545
-0.000267
-0.000867
-0.001318
-0.001457
-0.001434
-0.001447
-0.000997
0.000284
0.001686
0.002368
0.002257
0.001585
0.000487
-0.000625
-0.001036
-0.000583
0.000109
0.000454
0.000289
-0.000336
-0.001300
-0.002364
-0.002815
-0.002020
-0.000526
0.000659
0.001236
0.001421
0.001288
0.000755
0.000200
-0.000015
-0.000194
-0.000391
-0.000322
-0.000329
-0.000862
-0.001444
-0.001325
-0.000820
-0.000834
-0.001384
-0.001837
-0.001963
-0.001859
-0.001423
-0.000519
0.000518
0.001279
0.001768
0.001888
0.001376
0.000443
-0.000129
0.000431
0.001836
0.002493
0.001437
-0.000377
-0.001626
-0.001946
-0.001700
-0.001283
-0.000812
-0.000626
-0.000807
-0.000581
0.000366
0.001110
0.000801
-0.000108
-0.000532
-0.000277
-0.000023
0.000029
0.000337
0.000646
0.000195
-0.000575
-0.000605
0.000162
0.000990
0.001255
0.000950
0.000627
0.000869
0.001767
0.002780
0.003222
0.003022
0.002666
0.002325
0.001703
0.000821
0.000350
0.000741
0.001447
0.001979
0.002577
0.002948
0.002519
0.001954
0.002030
0.002212
0.002014
0.001768
0.001575
0.001297
0.001045
0.001034
0.001451
0.002087
0.002241
0.001529
0.000481
-0.000009
0.000382
0.001366
0.002317
0.002411
0.001423
0.000236
0.000005
0.000937
0.002098
0.002579
0.002243
0.001233
-0.000084
-0.000936
-0.000680
0.000661
0.002301
0.003299
0.003231
0.002225
0.000722
-0.000791
-0.001841
-0.002201
-0.002045
-0.001382
0.000068
0.002005
0.003395
0.003643
0.003102
0.002226
0.001329
0.001063
0.001868
0.003121
0.003617
0.002979
0.002166
0.002028
0.002153
0.001845
0.001348
0.001327
0.001692
0.001945
0.001825
0.001166
0.000205
-0.000446
-0.000407
0.000190
0.000929
0.001741
0.002579
0.002944
0.002428
0.001256
0.000284
0.000216
0.001155
0.002814
0.004492
0.005364
0.004927
0.003484
0.002021
0.001237
0.001381
0.002401
0.003857
0.005154
0.005440
0.003933
0.000518
-0.004455
-0.009676
-0.012475
-0.010583
-0.003988
0.005139
0.013868
0.019979
0.022260
0.020369
0.015135
0.007699
-0.001823
-0.013241
-0.024546
-0.032789
-0.036542
-0.036128
-0.031492
-0.021704
-0.006062
0.014558
0.036329
0.053176
0.058725
0.048432
0.023040
-0.009232
-0.035810
-0.046536
-0.037993
-0.014442
0.012742
0.029384
0.026021
0.002807
-0.031196
-0.062302
-0.077040
-0.066891
-0.033012
0.013042
0.055424
0.081486
0.085639
0.070193
0.044079
0.018856
0.002916
-0.001547
0.002650
0.009325
0.010427
-0.000805
-0.025568
-0.057021
-0.082578
-0.089418
-0.069467
-0.023047
0.039769
0.102308
0.148314
0.168475
0.162033
0.133512
0.088833
0.033610
-0.026761
-0.085877
-0.135028
-0.164656
-0.169550
-0.153054
-0.125025
-0.095093
-0.067047
-0.037478
0.001625
0.056506
0.124236
0.191253
0.240144
0.258413
0.241586
0.190465
0.109822
0.010960
-0.087508
-0.165092
-0.209150
-0.221477
-0.216600
-0.214054
-0.228093
-0.258261
-0.287029
-0.287423
-0.236183
-0.124749
0.037791
0.229108
0.420332
0.582889
0.694740
0.743980
0.728782
0.654107
0.527229
0.355997
0.150768
-0.074440
-0.303450
-0.517994
-0.695179
-0.805638
-0.817198
-0.707443
-0.478745
-0.162513
0.190856
0.526416
0.794772
0.958054
0.994211
0.896015
0.666033
0.323090
-0.079495
-0.449351
-0.679310
-0.689586
-0.464628
-0.065551
0.387172
0.753827
0.923172
0.850863
0.569738
0.162280
-0.279634
-0.679510
-0.984514
-1.158373
-1.173982
-1.022211
-0.716716
-0.295149
0.166921
0.570634
0.858106
1.052956
1.216510
1.364820
1.428622
1.289027
0.865500
0.191647
-0.579192
-1.241843
-1.637098
-1.719158
-1.557699
-1.287344
-1.036197
-0.861459
-0.730424
-0.568752
-0.330574
-0.025448
0.305602
0.635137
0.979866
1.383733
1.868244
2.398574
2.872084
3.121342
2.954352
2.228401
0.920057
-0.831182
-2.726759
-4.374159
-5.389432
-5.508595
-4.682773
-3.103585
-1.124150
0.880713
2.631617
3.973425
4.814148
5.064653
4.659414
3.620217
2.087869
0.306549
-1.427845
-2.842390
-3.750796
-4.081126
-3.874617
-3.250691
-2.333552
-1.190750
0.154776
1.640629
3.069566
4.082507
4.258382
3.330034
1.405956
-0.969182
-3.008768
-4.040539
-3.799532
-2.489050
-0.617920
1.250168
2.688655
3.466131
3.500295
2.800273
1.464877
-0.273357
-2.045969
-3.453819
-4.218873
-4.262021
-3.658177
-2.529576
-0.978829
0.890191
2.884500
4.647632
5.698803
5.603725
4.191629
1.696342
-1.271623
-3.930443
-5.611089
-5.975843
-5.084668
-3.309460
-1.167967
0.827880
2.285937
3.027372
3.115259
2.765503
2.192521
1.502913
0.684056
-0.330546
-1.546979
-2.803694
-3.765752
-4.081987
-3.607892
-2.486735
-1.035726
0.419898
1.652120
2.559555
3.131913
3.376563
3.250727
2.662936
1.579087
0.156124
-1.221757
-2.062640
-1.991848
-0.941742
0.808481
2.740762
4.274301
4.947028
4.577025
3.330248
1.614084
-0.132855
-1.609074
-2.712777
-3.497635
-4.063599
-4.454223
-4.612510
-4.412855
-3.743333
-2.599328
-1.146587
0.321868
1.531236
2.317269
2.583092
2.249455
1.318999
-0.019084
-1.377295
-2.279607
-2.362252
-1.576217
-0.228907
1.183628
2.224897
2.697615
2.661616
2.294485
1.742922
1.105630
0.496195
0.047609
-0.161387
-0.172361
-0.147935
-0.308940
-0.814013
-1.618774
-2.420503
-2.775366
-2.374206
-1.318797
-0.131821
0.586104
0.554258
-0.093792
-1.009112
-1.844806
-2.345898
-2.371420
-1.912528
-1.090024
-0.101884
0.863780
1.685711
2.306287
2.729758
3.052208
3.452870
4.093474
4.953057
5.709352
5.837139
4.950341
3.124081
0.895990
-1.035681
-2.136975
-2.197176
-1.344732
0.013629
1.312934
2.005259
1.756713
0.579457
-1.178656
-2.978430
-4.297160
-4.834189
-4.647886
-4.133423
-3.812197
-4.019835
-4.668358
-5.272816
-5.239179
-4.200770
-2.237786
0.094052
1.980107
2.738540
2.160650
0.583148
-1.351633
-3.043237
-4.089437
-4.228608
-3.312268
-1.385005
1.285011
4.278724
7.102632
9.257163
10.345032
10.167604
8.793107
6.629716
4.347929
2.508062
1.172996
-0.060502
-1.653934
-3.765461
-6.139210
-8.176423
-9.139683
-8.463461
-6.055800
-2.406642
1.579724
4.910630
6.829946
7.032174
5.702982
3.415741
0.927856
-1.084802
-2.248647
-2.598197
-2.561404
-2.768132
-3.681755
-5.264036
-6.926075
-7.812814
-7.246539
-5.073782
-1.759073
1.768812
4.441266
5.468665
4.715831
2.779744
0.669326
-0.646263
-0.560910
0.952081
3.237867
5.171522
5.726064
4.551309
2.157009
-0.384321
-2.015272
-2.221606
-1.204930
0.337779
1.599275
2.003178
1.418957
0.168262
-1.202447
-2.221342
-2.670954
-2.606263
-2.258059
-1.868814
-1.545221
-1.234210
-0.821379
-0.244954
0.443670
1.092706
1.544162
1.729865
1.658231
1.332209
0.725456
-0.179358
-1.371842
-2.817564
-4.423677
-5.947481
-6.924615
-6.770939
-5.085376
-1.931588
2.084466
5.927654
8.432439
8.761463
6.822302
3.387226
-0.193343
-2.585279
-3.107321
-2.032691
-0.323070
0.948923
1.047678
-0.191494
-2.277379
-4.203141
-4.820386
-3.316564
0.352670
5.270525
9.808239
12.305867
11.805488
8.412150
3.215157
-2.161936
-6.184578
-7.853725
-6.970066
-4.248246
-1.030405
1.351150
2.138537
1.310810
-0.619455
-2.894398
-4.753838
-5.658102
-5.445190
-4.367933
-2.976728
-1.861864
-1.405081
-1.658875
-2.348408
-2.972519
-2.981875
-1.988728
0.051450
2.760944
5.454641
7.429869
8.249552
7.864769
6.566813
4.850862
3.279271
2.357235
2.373832
3.250815
4.553928
5.692143
6.114684
5.375341
3.179979
-0.423820
-4.809920
-8.808985
-11.166169
-11.128503
-8.742792
-4.765600
-0.371957
3.144492
4.676080
3.691608
0.542921
-3.633534
-7.430566
-9.762457
-10.187342
-8.848582
-6.209019
-2.837956
0.663274
3.722290
5.966576
7.358346
8.068394
8.228197
7.858812
6.972937
5.647201
3.982221
2.044797
-0.099007
-2.267362
-4.079874
-5.049571
-4.850345
-3.571164
-1.758254
-0.178107
0.595679
0.495526
-0.087344
-0.680365
-1.123374
-1.656700
-2.649770
-4.210610
-5.985217
-7.327847
-7.724545
-7.069083
-5.574164
-3.523332
-1.119320
1.499877
4.120433
6.365406
7.828081
8.318493
7.984946
7.233434
6.531496
6.201718
6.269656
6.444314
6.296949
5.555599
4.283170
2.784127
1.364370
0.199233
-0.637290
-1.140742
-1.406936
-1.626184
-2.008067
-2.688323
-3.629834
-4.568161
-5.095216
-4.848228
-3.681492
-1.761063
0.443547
2.269823
3.023342
2.198065
-0.237533
-3.659714
-6.922179
-8.802693
-8.536917
-6.160689
-2.535988
0.963419
3.074716
3.275696
2.018193
0.462018
-0.125121
0.971079
3.487813
6.233721
7.680839
6.834399
3.807379
-0.312374
-4.131430
-6.622032
-7.433398
-6.823707
-5.382268
-3.731061
-2.294942
-1.148790
-0.011779
1.505651
3.519107
5.704932
7.496528
8.389103
8.121201
6.750340
4.664709
2.493951
0.912119
0.384075
0.920774
1.997008
2.792574
2.636141
1.351880
-0.649520
-2.546526
-3.503426
-3.121781
-1.626661
0.390968
2.403378
4.131023
5.439543
6.197971
6.258362
5.522442
3.996813
1.807405
-0.813464
-3.567282
-6.160592
-8.383838
-10.114459
-11.242892
-11.652309
-11.295323
-10.264758
-8.790034
-7.198353
-5.837018
-4.900326
-4.230264
-3.297594
-1.525148
1.190524
4.213495
6.469694
7.114427
6.065599
4.067550
2.295582
1.748407
2.739631
4.729254
6.600088
7.272133
6.282595
3.930915
0.983910
-1.725616
-3.575111
-4.274749
-3.893761
-2.818961
-1.562415
-0.454594
0.502328
1.495495
2.659702
3.929540
5.064296
5.786076
5.869588
5.167527
3.672530
1.563341
-0.873602
-3.379053
-5.774085
-7.919621
-9.665017
-10.824749
-11.176317
-10.516585
-8.785542
-6.157861
-3.024436
0.117766
2.824432
4.853511
6.214291
7.063060
7.508252
7.457397
6.622922
4.707960
1.651128
-2.209507
-6.117343
-9.042344
-9.978702
-8.349435
-4.373510
0.861111
5.784416
9.010175
9.849611
8.406040
5.349239
1.663590
-1.530899
-3.276129
-3.185732
-1.624210
0.499775
2.160742
2.663786
1.907362
0.331363
-1.346286
-2.415811
-2.394193
-1.182622
0.848845
2.947280
4.281482
4.342493
3.207515
1.488060
-0.027509
-0.826249
-0.900212
-0.582151
-0.178347
0.246656
0.783206
1.421658
1.900182
1.829415
0.976009
-0.555044
-2.329628
-3.728581
-4.207233
-3.604328
-2.277415
-0.918409
-0.184597
-0.380502
-1.323856
-2.428842
-2.961838
-2.385365
-0.684245
1.512530
3.178428
3.419903
1.957913
-0.748781
-3.745218
-5.992474
-6.810721
-6.164043
-4.585844
-2.827922
-1.484764
-0.773573
-0.570219
-0.659350
-0.954857
-1.437019
-1.859935
-1.593256
0.124820
3.660657
8.592286
13.721031
17.469786
18.491713
16.204359
10.922179
3.599850
-4.467986
-11.958719
-17.933678
-21.955746
-23.787119
-23.239738
-20.395782
-15.805777
-10.378544
-5.035539
-0.457409
2.907835
4.781008
5.074376
3.927084
1.698472
-1.092862
-3.852087
-5.993079
-7.086913
-7.001862
-5.862865
-3.889240
-1.321319
1.512815
4.160514
6.189002
7.442721
8.205760
9.023674
10.203745
11.476262
12.227269
12.168606
11.736436
11.695526
12.538596
14.312372
16.643555
18.753233
19.592161
18.346582
15.062051
10.630633
6.174876
2.482630
-0.230915
-2.261481
-4.194463
-6.572557
-9.454073
-12.198828
-13.716330
-12.949954
-9.401920
-3.535406
3.333280
9.759459
14.898151
18.597347
21.024387
22.313202
22.358404
20.779312
17.167803
11.485033
4.254105
-3.524651
-10.628052
-16.035589
-19.316534
-20.685555
-20.753227
-20.119677
-19.075407
-17.672804
-15.925921
-13.805806
-11.213881
-8.089666
-4.424785
-0.126486
4.989037
10.941341
17.281431
23.022926
26.948698
28.176117
26.605547
22.960205
18.423731
14.101070
10.630008
8.097672
6.190897
4.497905
2.824092
1.322745
0.386332
0.404334
1.519748
3.502516
5.847209
8.075806
9.971572
11.471751
12.374884
12.250632
10.607901
7.106190
1.697679
-5.325024
-13.369941
-21.668455
-29.443125
-35.972782
-40.599751
-42.909466
-42.981251
-41.344997
-38.654743
-35.501541
-32.428223
-29.862270
-28.028486
-27.010460
-26.864147
-27.647795
-29.289356
-31.359127
-33.012096
-33.188499
-30.873116
-25.324923
-16.345337
-4.490300
8.955383
22.242971
33.604595
41.784023
46.316238
47.403805
45.773720
42.639694
39.383904
37.081482
36.332100
37.191154
39.089653
41.085629
42.195789
41.641403
39.224628
35.302742
30.120598
23.379513
14.448560
2.821320
-11.250981
-26.240076
-39.996822
-51.320633
-60.527763
-68.389297
-74.825256
-78.790848
-79.115837
-75.122246
-66.978340
-55.741734
-42.551453
-28.087801
-13.024313
1.682198
15.020400
26.249693
34.921597
40.579433
42.896912
42.092564
39.207375
36.433941
36.187691
39.061394
43.860649
49.080063
53.034191
54.141827
52.022755
47.350502
40.793221
32.531540
22.329834
9.924112
-4.350646
-19.258677
-32.890408
-43.360538
-49.907753
-53.187172
-54.080051
-52.879215
-49.981388
-46.549896
-44.041306
-43.099743
-43.092594
-42.949383
-41.932610
-39.377827
-34.484444
-26.761213
-16.388424
-4.116147
8.851085
21.019955
31.173018
38.623295
42.688236
42.554398
38.259537
31.474262
24.762291
20.101818
18.544384
20.693790
26.221434
33.400333
39.885902
43.594521
43.263752
38.699009
30.428537
19.351671
6.706848
-5.991272
-17.237919
-25.819868
-31.000383
-32.787487
-31.955502
-29.643986
-26.991234
-24.965290
-24.286940
-25.273979
-27.576483
-30.202168
-31.920336
-31.598194
-28.403650
-22.157810
-13.532425
-3.717324
6.064003
14.820240
21.879984
26.809055
29.270695
29.088806
26.386475
21.512312
14.927029
7.323773
-0.157933
-6.042482
-9.202639
-9.553351
-7.785123
-4.534599
-0.253960
4.463019
8.998472
12.951658
16.050835
18.012854
18.592096
17.823128
16.190409
14.363649
12.755744
11.376289
9.922381
7.949116
5.107936
1.317163
-3.223720
-8.113181
-12.851240
-16.944910
-20.057831
-22.109093
-23.160196
-23.263781
-22.473219
-20.875797
-18.552773
-15.540800
-11.844332
-7.501854
-2.589194
2.843870
8.677608
14.534588
19.764626
23.609299
25.457474
25.099987
22.847792
19.426756
15.671494
12.232498
9.538528
7.868389
7.236628
7.282684
7.470825
7.391400
6.851841
5.796829
4.222623
2.195535
-0.044681
-2.101488
-3.642329
-4.609848
-5.251290
-5.989434
-7.214558
-9.119952
-11.677098
-14.697307
-17.917419
-21.122204
-24.175861
-26.856438
-28.726889
-29.279184
-28.249437
-25.784893
-22.254168
-17.950621
-13.078856
-7.934671
-2.946412
1.491251
5.220944
8.355241
11.111685
13.627846
15.891645
17.773186
19.068731
19.539040
19.006548
17.461813
15.067379
12.115230
9.015660
6.210802
4.014114
2.601122
2.128579
2.741160
4.501839
7.379143
11.247087
15.847346
20.674467
24.818777
27.032724
26.212812
21.986927
14.858721
5.798878
-4.222246
-14.273475
-23.295801
-30.240423
-34.453518
-35.858532
-34.743820
-31.513597
-26.724251
-21.093422
-15.317210
-9.984938
-5.540973
-2.136285
0.423789
2.548902
4.730322
7.450142
11.040102
15.525679
20.587482
25.662155
30.077320
33.156265
34.363968
33.523838
30.948168
27.286016
23.107567
18.580355
13.538638
7.787669
1.355542
-5.395776
-11.801855
-17.073521
-20.587196
-22.130066
-21.930536
-20.521690
-18.624752
-17.063385
-16.544573
-17.357660
-19.253237
-21.590330
-23.597427
-24.595755
-24.201609
-22.472387
-19.828840
-16.791428
-13.755067
-10.896932
-8.176742
-5.379307
-2.196425
1.616557
6.078544
10.943507
15.770442
20.046461
23.354574
25.514973
26.621025
26.984150
27.042252
27.239393
27.872992
28.976427
30.284273
31.281155
31.360943
30.026449
27.006054
22.297169
16.166117
9.082541
1.613142
-5.674850
-12.264606
-17.709497
-21.687546
-24.082396
-25.003557
-24.721169
-23.570381
-21.870777
-19.856668
-17.613914
-15.088640
-12.229233
-9.144527
-6.096914
-3.378048
-1.256876
-0.020087
0.071030
-1.048976
-3.142415
-5.698678
-8.053904
-9.601329
-9.973398
-9.069853
-7.029401
-4.218020
-1.125048
1.839253
4.470181
6.751989
8.768044
10.578994
12.141405
13.356182
14.180161
14.658277
14.837980
14.646979
13.879859
12.329193
9.929735
6.817055
3.288596
-0.301776
-3.632458
-6.436143
-8.509233
-9.770034
-10.316271
-10.395375
-10.293164
-10.207593
-10.154303
-9.968597
-9.472650
-8.706824
-8.004108
-7.832707
-8.530955
-10.112050
-12.235324
-14.330860
-15.781893
-16.069101
-14.891797
-12.296771
-8.719795
-4.865543
-1.501481
0.751560
1.612551
1.274837
0.400862
-0.079974
0.681114
3.119780
7.097259
11.951240
16.692732
20.294100
22.025200
21.678179
19.519241
16.085751
12.059018
8.179079
5.068592
3.047370
2.100264
1.994283
2.420931
3.097800
3.828195
4.511841
5.119424
5.681349
6.294461
7.076906
8.061047
9.123557
10.015445
10.453544
10.213951
9.185838
7.384414
4.948611
2.110785
-0.877893
-3.824152
-6.601817
-9.107637
-11.246865
-12.949429
-14.189393
-14.999750
-15.440403
-15.537353
-15.249660
-14.463879
-13.022719
-10.811837
-7.868862
-4.440902
-0.952500
2.112630
4.385675
5.769013
6.470697
6.876211
7.353326
8.123295
9.219641
10.509761
11.779749
12.825392
13.495821
13.702521
13.418060
12.693614
11.677735
10.581809
9.591388
8.774294
8.057136
7.283857
6.255854
4.699077
2.267556
-1.316101
-6.049414
-11.535784
-17.081373
-21.948601
-25.593819
-27.752712
-28.369633
-27.507599
-25.340899
-22.165976
-18.365351
-14.334750
-10.413461
-6.880134
-3.960471
-1.742701
-0.100131
1.222988
2.430990
3.577196
4.591210
5.378163
5.931591
6.379411
6.898961
7.565073
8.277041
8.817919
8.972717
8.613531
7.723625
6.403974
4.886847
3.506077
2.592796
2.334326
2.664979
3.271665
3.729185
3.666205
2.883774
1.424590
-0.432429
-2.282941
-3.748304
-4.565771
-4.603884
-3.854402
-2.434292
-0.575416
1.445868
3.402086
5.148458
6.610157
7.761263
8.592774
9.080150
9.169063
8.807347
8.021593
6.963813
5.866717
4.913319
4.103851
3.254654
2.142762
0.665007
-1.078058
-2.794850
-4.104314
-4.660730
-4.245419
-2.831261
-0.613512
2.030737
4.646149
6.805422
8.174028
8.530234
7.786864
