EVENT_NAME: CENTRAL_ITALY
EVENT_ID: EMSC-20161030_0000029
EVENT_DATE_YYYYMMDD: 20161030
EVENT_TIME_HHMMSS: 064018
EVENT_LATITUDE_DEGREE: 42.8400
EVENT_LONGITUDE_DEGREE: 13.1100
EVENT_DEPTH_KM: 9.4
HYPOCENTER_REFERENCE: INGV-webservice
MAGNITUDE_W: 6.5
MAGNITUDE_W_REFERENCE: INGV-webservice
MAGNITUDE_L: 6.1
MAGNITUDE_L_REFERENCE: INGV-webservice
FOCAL_MECHANISM: NF
NETWORK: IT
STATION_CODE: ACC
STATION_NAME: Accumoli
STATION_LATITUDE_DEGREE: 42.695999
STATION_LONGITUDE_DEGREE: 13.242000
STATION_ELEVATION_M: 922
LOCATION: 
SENSOR_DEPTH_M: 
VS30_M/S: 
SITE_CLASSIFICATION_EC8: A*
MORPHOLOGIC_CLASSIFICATION: 
EPICENTRAL_DISTANCE_KM: 19.3
EARTHQUAKE_BACKAZIMUTH_DEGREE: 326.0
DATE_TIME_FIRST_SAMPLE_YYYYMMDD_HHMMSS: 20161030_064005.559
DATE_TIME_FIRST_SAMPLE_PRECISION: milliseconds
SAMPLING_INTERVAL_S: 0.005000
NDATA: 12000
DURATION_S: 60.000
STREAM: HGN
UNITS: cm/s
INSTRUMENT: sensor = Unknown [Unknown] | digitizer = Unknown [Unknown]
INSTRUMENT_ANALOG/DIGITAL: D
INSTRUMENTAL_FREQUENCY_HZ: 
INSTRUMENTAL_DAMPING: 
FULL_SCALE_G: 
N_BIT_DIGITAL_CONVERTER: 
PGV_CM/S: -39.458267
TIME_PGV_S: 23.130000
BASELINE_CORRECTION: BASELINE REMOVED
FILTER_TYPE: BUTTERWORTH
FILTER_ORDER: 2
LOW_CUT_FREQUENCY_HZ: 0.060
HIGH_CUT_FREQUENCY_HZ: 30.000
LATE/NORMAL_TRIGGERED: NT
DATABASE_VERSION: DYNA 1.0
HEADER_FORMAT: DYNA 1.2
DATA_TYPE: VELOCITY
PROCESSING: manual (Paolucci et al., 2011)
DATA_TIMESTAMP_YYYYMMDD_HHMMSS: 20161101_122856.566
DATA_LICENSE: CC-BY3_0-IT (http://creativecommons.org/licenses/by/3.0/deed.en)
DATA_CITATION: ESM working group (2015), European Strong-Motion database, version 0.1, Network Activity 3: Networking acceleration networks and SM data users. Project NERA (www.nera-eu.org)
DATA_CREATOR: ESM working group
ORIGINAL_DATA_MEDIATOR_CITATION: Ufficio Rischio Sismico e Vulcanico del Dipartimento della Protezione Civile (http://www.protezionecivile.gov.it/)
ORIGINAL_DATA_MEDIATOR: Rete Accelerometrica Nazionale - RAN Download (http://www.mot1.it/randownload/)
ORIGINAL_DATA_CREATOR_CITATION: Italian Strong Motion Network, Italian Civil Protection Department http://www.protezionecivile.gov.it
ORIGINAL_DATA_CREATOR: network: IT (Italian Strong Motion Network); owner: Dipartimento Della Protezione Civile
USER1: /home/dyna/processing-itaca/processing.py /var/www/processing//tmp/Lucia//IT.ACC..HGE.D.20161030.064018.X.ACC.ASC /var/www/processing//tmp/Lucia//IT.ACC..HGN.D.20161030.064018.X.ACC.ASC /var/www/processing//tmp/Lucia//IT.ACC..HGZ.D.20161030.064018.X.ACC.ASC --tmp /var/www/processing//tmp/Lucia/ --le 0.060 --he 30.000 --ln 0.060 --hn 30.000 --lz 0.060 --hz 30.000 --fo 2 --ca -10 --cz 130 --ta 5 --tz 5 --mf 1 --rf 0 --tr NT
USER2: 
USER3: 
USER4: 
USER5: 
[...]
0.121544
0.096520
0.071397
0.045995
0.017956
-0.016051
-0.058152
-0.106910
-0.156184
-0.196166
-0.216430
-0.209609
-0.173920
-0.113647
-0.037924
0.041448
0.112386
0.164479
0.190350
0.187034
0.157238
0.108886
0.052388
-0.002643
-0.049449
-0.084713
-0.108120
-0.121474
-0.128022
-0.132067
-0.138146
-0.149301
-0.165130
-0.180969
-0.188897
-0.180447
-0.150476
-0.100642
-0.039990
0.018398
0.062458
0.084832
0.084322
0.065793
0.038769
0.014619
0.002982
0.008621
0.029730
0.058210
0.082095
0.089608
0.073220
0.031913
-0.028793
-0.098399
-0.163996
-0.213358
-0.237693
-0.233216
-0.201181
-0.146798
-0.078097
-0.005095
0.061588
0.113128
0.144839
0.157094
0.154440
0.143222
0.128540
0.112101
0.092422
0.067183
0.035650
-0.000853
-0.040125
-0.079962
-0.117726
-0.149415
-0.169463
-0.171628
-0.150810
-0.105548
-0.040313
0.034230
0.103768
0.154379
0.176135
0.165495
0.126582
0.070876
0.014543
-0.026002
-0.038660
-0.019410
0.025825
0.082841
0.134003
0.163825
0.163285
0.131938
0.077221
0.011075
-0.054609
-0.111330
-0.154793
-0.184060
-0.200041
-0.203738
-0.195296
-0.175035
-0.145677
-0.113302
-0.085593
-0.068247
-0.061767
-0.060763
-0.056365
-0.040348
-0.008591
0.037669
0.092492
0.146655
0.189314
0.210224
0.202542
0.165018
0.102224
0.023009
-0.061826
-0.142037
-0.209755
-0.259622
-0.287834
-0.291533
-0.269117
-0.221548
-0.154452
-0.079207
-0.010729
0.037664
0.058841
0.052794
0.024478
-0.018772
-0.068838
-0.117725
-0.158366
-0.185607
-0.197306
-0.194933
-0.183169
-0.168773
-0.159264
-0.161393
-0.179175
-0.212129
-0.254908
-0.298558
-0.332785
-0.348647
-0.340850
-0.308698
-0.255799
-0.189551
-0.120650
-0.061623
-0.024029
-0.015457
-0.037560
-0.085644
-0.149913
-0.217996
-0.277985
-0.320922
-0.341989
-0.340711
-0.320764
-0.289100
-0.253741
-0.220646
-0.191630
-0.164974
-0.138052
-0.109675
-0.080841
-0.054416
-0.034770
-0.027253
-0.036873
-0.066028
-0.112206
-0.167252
-0.219328
-0.256946
-0.272982
-0.266770
-0.243360
-0.210266
-0.173691
-0.136801
-0.100460
-0.064674
-0.029619
0.003588
0.032339
0.052356
0.057940
0.043039
0.003423
-0.060675
-0.142972
-0.231660
-0.311785
-0.368399
-0.389895
-0.371227
-0.315958
-0.236224
-0.150414
-0.078727
-0.037808
-0.036383
-0.072757
-0.135161
-0.205998
-0.268349
-0.311077
-0.330782
-0.331373
-0.322352
-0.315907
-0.322914
-0.349360
-0.395135
-0.455372
-0.522489
-0.587338
-0.639877
-0.670753
-0.674223
-0.650856
-0.607576
-0.554610
-0.501566
-0.454615
-0.414971
-0.379043
-0.341379
-0.299472
-0.256853
-0.222175
-0.205955
-0.217403
-0.261849
-0.339097
-0.443484
-0.565319
-0.692994
-0.815357
-0.923337
-1.009924
-1.068663
-1.092103
-1.072319
-1.004717
-0.893688
-0.756388
-0.621054
-0.520189
-0.482989
-0.530266
-0.670946
-0.898180
-1.186871
-1.496984
-1.782832
-2.002731
-2.125625
-2.136240
-2.037203
-1.845010
-1.584602
-1.288084
-0.993373
-0.737816
-0.550416
-0.448226
-0.437074
-0.514071
-0.669936
-0.889831
-1.152255
-1.427738
-1.681585
-1.882454
-2.010827
-2.061307
-2.040862
-1.966367
-1.859311
-1.737396
-1.609456
-1.477553
-1.340928
-1.196580
-1.038822
-0.861941
-0.666362
-0.464837
-0.283158
-0.153396
-0.104221
-0.154689
-0.312640
-0.573943
-0.920914
-1.323154
-1.742572
-2.138760
-2.471926
-2.705941
-2.814352
-2.786314
-2.626960
-2.354758
-2.000217
-1.601047
-1.191965
-0.798414
-0.439663
-0.134283
0.099761
0.248076
0.300144
0.248062
0.088599
-0.171877
-0.514408
-0.909802
-1.326485
-1.739345
-2.133100
-2.499931
-2.834876
-3.129172
-3.363888
-3.510701
-3.541346
-3.439323
-3.205836
-2.857129
-2.419645
-1.930213
-1.437880
-1.000479
-0.676389
-0.514607
-0.543597
-0.761549
-1.133862
-1.600842
-2.093751
-2.552681
-2.936860
-3.223859
-3.403804
-3.476214
-3.450525
-3.346402
-3.191600
-3.018613
-2.860607
-2.743904
-2.678009
-2.651452
-2.637115
-2.601863
-2.517571
-2.371586
-2.170894
-1.939999
-1.717978
-1.552728
-1.486677
-1.539089
-1.699227
-1.937404
-2.224329
-2.541602
-2.875217
-3.200897
-3.479066
-3.666159
-3.730815
-3.663108
-3.476300
-3.203227
-2.886988
-2.569672
-2.286013
-2.062068
-1.913356
-1.841545
-1.833968
-1.868912
-1.924797
-1.987644
-2.053294
-2.126057
-2.216333
-2.337169
-2.498867
-2.702426
-2.934519
-3.166948
-3.362215
-3.482844
-3.498620
-3.389568
-3.149359
-2.791865
-2.353763
-1.885231
-1.433870
-1.035588
-0.717389
-0.501938
-0.402117
-0.409854
-0.494524
-0.614684
-0.732665
-0.823312
-0.876898
-0.899622
-0.911129
-0.936823
-0.999094
-1.112406
-1.280199
-1.492546
-1.727509
-1.956778
-2.153540
-2.298098
-2.377846
-2.385775
-2.322006
-2.196091
-2.028879
-1.854410
-1.717912
-1.667542
-1.742935
-1.964232
-2.324455
-2.788526
-3.300767
-3.797730
-4.220637
-4.525668
-4.691174
-4.719245
-4.631447
-4.458714
-4.228184
-3.958424
-3.667880
-3.383181
-3.135075
-2.947241
-2.828466
-2.771069
-2.753399
-2.745092
-2.717555
-2.657812
-2.574286
-2.490503
-2.437129
-2.446900
-2.547009
-2.749516
-3.044815
-3.399051
-3.756419
-4.048254
-4.208133
-4.190656
-3.986831
-3.623915
-3.148311
-2.606312
-2.036241
-1.471286
-0.943548
-0.484689
-0.124958
0.109209
0.199005
0.136377
-0.074233
-0.415354
-0.857419
-1.360419
-1.876548
-2.355751
-2.751803
-3.024217
-3.141627
-3.093206
-2.895545
-2.582822
-2.192580
-1.762840
-1.337049
-0.964061
-0.688828
-0.542144
-0.538924
-0.683199
-0.970457
-1.385663
-1.904391
-2.499055
-3.143122
-3.809752
-4.470344
-5.096577
-5.660194
-6.127861
-6.461432
-6.629596
-6.621143
-6.452209
-6.165931
-5.824161
-5.497670
-5.253963
-5.136073
-5.145727
-5.247331
-5.384543
-5.495578
-5.527996
-5.454055
-5.279551
-5.042208
-4.800959
-4.618431
-4.540490
-4.580544
-4.716346
-4.898327
-5.064221
-5.155701
-5.128700
-4.953631
-4.615188
-4.118218
-3.490146
-2.771342
-2.002206
-1.219952
-0.463087
0.226340
0.806097
1.243396
1.528500
1.679965
1.733988
1.729070
1.698272
1.668262
1.660872
1.694674
1.783444
1.931715
2.132628
2.370726
2.625294
2.872579
3.091859
3.272623
3.410942
3.494646
3.494888
3.376760
3.118864
2.724802
2.220583
1.640930
1.014815
0.364333
-0.282604
-0.884814
-1.398489
-1.794929
-2.069816
-2.239849
-2.329953
-2.359164
-2.332126
-2.240586
-2.077349
-1.851052
-1.587275
-1.320086
-1.083441
-0.904555
-0.801802
-0.789134
-0.880238
-1.083294
-1.388912
-1.764168
-2.161772
-2.538478
-2.866583
-3.131802
-3.326428
-3.444283
-3.473768
-3.391835
-3.173126
-2.816022
-2.362049
-1.886135
-1.468773
-1.176462
-1.052088
-1.104400
-1.302226
-1.582397
-1.866929
-2.079955
-2.161845
-2.082106
-1.844320
-1.476742
-1.020047
-0.522162
-0.033407
0.400854
0.746843
0.990127
1.140959
1.227062
1.274792
1.295751
1.291725
1.267331
1.232797
1.197383
1.163575
1.124896
1.064755
0.958007
0.783123
0.543483
0.278324
0.049055
-0.089529
-0.112897
-0.032815
0.114670
0.292368
0.482358
0.684920
0.895905
1.089223
1.223708
1.267276
1.218921
1.110447
0.986700
0.885241
0.834655
0.863451
0.997124
1.242351
1.579119
1.969122
2.367446
2.727293
3.002874
3.157251
3.171644
3.050918
2.823342
2.530485
2.210330
1.888073
1.579589
1.299090
1.061924
0.879491
0.755367
0.691150
0.694733
0.780668
0.961943
1.241094
1.606327
2.027228
2.452336
2.823812
3.104070
3.287477
3.388254
3.421234
3.390965
3.294131
3.133131
2.930366
2.730337
2.584170
2.527535
2.571901
2.712143
2.938721
3.246525
3.634038
4.097185
4.628985
5.211143
5.794609
6.308132
6.696936
6.944747
7.066995
7.092437
7.040489
6.907360
6.676124
6.340069
5.914039
5.428476
4.919816
4.421219
3.947220
3.482573
2.995718
2.467524
1.902678
1.316821
0.719795
0.107990
-0.532734
-1.213734
-1.926716
-2.636894
-3.292328
-3.839827
-4.235174
-4.446799
-4.457156
-4.264100
-3.882469
-3.344127
-2.698465
-2.015437
-1.381018
-0.876909
-0.556411
-0.428563
-0.453646
-0.557279
-0.657387
-0.683891
-0.587144
-0.340733
0.063317
0.622716
1.324105
2.136808
3.019351
3.941840
4.906149
5.943373
7.087599
8.348959
9.704785
11.105576
12.486093
13.778010
14.922715
15.881074
16.635374
17.183882
17.537327
17.723577
17.795546
17.830252
17.911654
18.106171
18.445644
18.920204
19.481958
20.062433
20.592976
21.016726
21.296185
21.422190
21.418840
21.328236
21.179426
20.976410
20.717424
20.420874
20.133566
19.918634
19.839518
19.947153
20.266876
20.796301
21.520555
22.426792
23.502554
24.723486
26.046755
27.419199
28.791615
30.123976
31.376400
32.495853
33.414505
34.066174
34.413616
34.469650
34.299107
33.998989
33.662537
33.351753
33.096550
32.903721
32.758575
32.623535
32.443802
32.164928
31.752981
31.201530
30.523319
29.738230
28.869385
27.944105
26.987686
26.013426
25.019810
23.991886
22.905821
21.740917
20.486931
19.136139
17.677513
16.107912
14.444111
12.718572
10.968531
9.232152
7.547424
5.942525
4.421673
2.969386
1.575694
0.250179
-0.986256
-2.109741
-3.092552
-3.901217
-4.500716
-4.864146
-4.979113
-4.847331
-4.485091
-3.922327
-3.188889
-2.299345
-1.256534
-0.069418
1.231222
2.591463
3.948609
5.249595
6.464814
7.595331
8.669794
9.727875
10.795074
11.865331
12.903214
13.859032
14.685431
15.348042
15.825981
16.107813
16.190252
16.077318
15.778967
15.311644
14.698312
13.965809
13.140840
12.247036
11.304557
10.329699
9.332259
8.314788
7.280751
6.248291
5.252917
4.333831
3.522621
2.850309
2.361928
2.111669
2.126897
2.377984
2.803712
3.354723
3.991470
4.668099
5.336985
5.951847
6.462888
6.815724
6.961110
6.870570
6.544197
6.005370
5.288272
4.436831
3.517572
2.615413
1.806671
1.142297
0.648612
0.325778
0.143275
0.048221
-0.011433
-0.068897
-0.136739
-0.207700
-0.256009
-0.253267
-0.190201
-0.081192
0.048305
0.175573
0.292785
0.415623
0.570508
0.768219
0.997631
1.233637
1.434153
1.534043
1.455885
1.137299
0.550906
-0.297837
-1.379074
-2.644632
-4.039583
-5.503320
-6.951922
-8.280979
-9.405590
-10.294354
-10.966660
-11.472497
-11.875477
-12.235638
-12.594275
-12.968838
-13.354467
-13.730358
-14.070372
-14.353678
-14.574024
-14.742925
-14.883817
-15.021668
-15.170291
-15.325994
-15.477588
-15.618243
-15.741952
-15.835990
-15.882045
-15.859361
-15.746845
-15.529393
-15.203994
-14.778730
-14.270153
-13.704256
-13.112830
-12.518678
-11.921385
-11.296741
-10.606259
-9.810797
-8.884566
-7.819085
-6.618320
-5.300559
-3.904349
-2.481357
-1.080181
0.260878
1.511586
2.649070
3.660977
4.549449
5.335391
6.060382
6.778923
7.538771
8.356985
9.204752
10.015452
10.714217
11.242377
11.562446
11.659157
11.542908
11.242305
10.787186
10.199301
9.494592
8.687707
7.795262
6.838928
5.843616
4.831242
3.822921
2.847445
1.936397
1.108676
0.366678
-0.293379
-0.873558
-1.376749
-1.814020
-2.205979
-2.570344
-2.908812
-3.211234
-3.468884
-3.685655
-3.882659
-4.085329
-4.302449
-4.521958
-4.723507
-4.887462
-4.989818
-4.995737
-4.868660
-4.587945
-4.154816
-3.582502
-2.884469
-2.070947
-1.151227
-0.138375
0.944176
2.056725
3.142005
4.131544
4.958734
5.573284
5.952802
6.107892
6.077491
5.917301
5.692937
5.480435
5.354025
5.359640
5.504584
5.768974
6.118581
6.512640
6.912140
7.289495
7.632435
7.938150
8.202788
8.414113
8.551907
8.594966
8.530985
8.364055
8.112840
7.798830
7.434176
7.019592
6.552566
6.036002
5.478788
4.890062
4.273946
3.628016
2.946137
2.223959
1.461404
0.660989
-0.170474
-1.014780
-1.839136
-2.601409
-3.256595
-3.761194
-4.080505
-4.199361
-4.132229
-3.928493
-3.670744
-3.462374
-3.399539
-3.543702
-3.910619
-4.465125
-5.127010
-5.805615
-6.435920
-6.974415
-7.372592
-7.571266
-7.522367
-7.220668
-6.716784
-6.093927
-5.426765
-4.754990
-4.091393
-3.449921
-2.860614
-2.366981
-2.014142
-1.831937
-1.827962
-1.982131
-2.230932
-2.480789
-2.663297
-2.770075
-2.839699
-2.935992
-3.134509
-3.501955
-4.068554
-4.815919
-5.698044
-6.678124
-7.745003
-8.896358
-10.112123
-11.352475
-12.580694
-13.775275
-14.919541
-15.994144
-16.982063
-17.873529
-18.665260
-19.355511
-19.938704
-20.407579
-20.760780
-21.000179
-21.122059
-21.127748
-21.048141
-20.941740
-20.861788
-20.837610
-20.888262
-21.039377
-21.322990
-21.762861
-22.361988
-23.112206
-24.012020
-25.062202
-26.245075
-27.513866
-28.798298
-30.020380
-31.114449
-32.040512
-32.783577
-33.344315
-33.731930
-33.962444
-34.056648
-34.035374
-33.915771
-33.714123
-33.452408
-33.154491
-32.832539
-32.484215
-32.107010
-31.708549
-31.300285
-30.891029
-30.491810
-30.118759
-29.787218
-29.508862
-29.296928
-29.171644
-29.160442
-29.295048
-29.607433
-30.122370
-30.847731
-31.762274
-32.805588
-33.893349
-34.953850
-35.945198
-36.843388
-37.628487
-38.284641
-38.804443
-39.183056
-39.407936
-39.458267
-39.309910
-38.938629
-38.327538
-37.476788
-36.407417
-35.164703
-33.819939
-32.458733
-31.160439
-29.981157
-28.945030
-28.047922
-27.270836
-26.590977
-25.985811
-25.436272
-24.931501
-24.471514
-24.066645
-23.733242
-23.484184
-23.318026
-23.213022
-23.127485
-23.004292
-22.779093
-22.392462
-21.803308
-20.999451
-20.001120
-18.854254
-17.613464
-16.320435
-14.991495
-13.622565
-12.202826
-10.724536
-9.184740
-7.582918
-5.920017
-4.197938
-2.418193
-0.583076
1.299856
3.214557
5.138127
7.043165
8.897457
10.667870
12.329797
13.871468
15.291944
16.596642
17.785116
18.846233
19.777088
20.592941
21.309988
21.934673
22.471479
22.926853
23.301346
23.585020
23.762341
23.815676
23.726837
23.482796
23.081293
22.531042
21.848003
21.049871
20.154318
19.187853
18.191820
17.208698
16.266148
15.385490
14.596532
13.924855
13.376031
12.947656
12.638145
12.437961
12.329603
12.299183
12.346014
12.476724
12.685405
12.950736
13.254830
13.588120
13.938786
14.294309
14.648648
14.997888
15.328064
15.607593
15.797043
15.868821
15.814739
15.640419
15.360095
14.989086
14.529036
13.963747
13.270900
12.429344
11.420223
10.234510
8.884528
7.407561
5.845300
4.210284
2.491300
0.692579
-1.158157
-3.031199
-4.908743
-6.786496
-8.662734
-10.529566
-12.380781
-14.219296
-16.050562
-17.870335
-19.661343
-21.402412
-23.077499
-24.674093
-26.178467
-27.579103
-28.873272
-30.066175
-31.165253
-32.178089
-33.112553
-33.974045
-34.762779
-35.475510
-36.109406
-36.661240
-37.122875
-37.483360
-37.733391
-37.859028
-37.837391
-37.650425
-37.295895
-36.779369
-36.108376
-35.296429
-34.359154
-33.306431
-32.146950
-30.897285
-29.581371
-28.227255
-26.867533
-25.534668
-24.251251
-23.028877
-21.876837
-20.807693
-19.833475
-18.958218
-18.176628
-17.481495
-16.871367
-16.352312
-15.935720
-15.633212
-15.450132
-15.382300
-15.418006
-15.542374
-15.740125
-15.994109
-16.278627
-16.554794
-16.778809
-16.914417
-16.932796
-16.807331
-16.519064
-16.063526
-15.444306
-14.664317
-13.728531
-12.649359
-11.445619
-10.140765
-8.764113
-7.350702
-5.937160
-4.555922
-3.232251
-1.984341
-0.822717
0.250536
1.239891
2.153544
3.002741
3.803264
4.576703
5.349034
6.145020
6.980568
7.856723
8.758445
9.661012
10.538285
11.363739
12.110664
12.761306
13.315397
13.787169
14.197590
14.568723
14.918520
15.256353
15.582612
15.893189
16.185776
16.464081
16.737419
17.014622
17.295149
17.563780
17.793423
17.954418
18.024057
17.991846
17.860508
17.641478
17.344318
16.968569
16.507318
15.957633
15.325011
14.619844
13.853982
13.038929
12.183041
11.290503
10.364005
9.408517
8.432673
7.448295
6.470907
5.518897
4.608739
3.751322
2.953809
2.223506
1.568559
0.995481
0.508053
0.111444
-0.180795
-0.344330
-0.350611
-0.177586
0.184003
0.728092
1.428607
2.238631
3.102991
3.977742
4.840762
5.686780
6.514317
7.315341
8.073248
8.767037
9.373938
9.872038
10.248116
10.502845
10.646760
10.692104
10.646101
10.510093
10.285708
9.978315
9.592685
9.131887
8.605619
8.039594
7.472399
6.938307
6.456780
6.040217
5.700851
5.445537
5.273637
5.182977
5.171621
5.234654
5.364737
5.555877
5.803873
6.104254
6.452530
6.845524
7.280405
7.751900
8.249463
8.754996
9.243151
9.686100
10.060041
10.349947
10.550201
10.660363
10.680255
10.609290
10.449475
10.206938
9.889821
9.506430
9.066242
8.582226
8.071996
7.555060
7.045514
6.545328
6.044574
5.528242
4.983540
4.403636
3.789038
3.148147
2.495453
1.846788
1.214624
0.607780
0.036526
-0.482459
-0.927484
-1.279547
-1.530994
-1.688708
-1.769524
-1.791550
-1.767185
-1.702141
-1.599575
-1.463620
-1.299003
-1.109855
-0.901107
-0.678946
-0.446825
-0.202882
0.056394
0.332694
0.628028
0.947741
1.298842
1.685411
2.106731
2.558157
3.029582
3.501369
3.942286
4.312296
4.571330
4.693357
4.677395
4.544438
4.324247
4.046168
3.738012
3.426196
3.133453
2.879470
2.685972
2.577335
2.570573
2.662675
2.830499
3.043945
3.277527
3.513536
3.741620
3.957843
4.162472
4.356827
4.542010
4.721170
4.903003
5.102695
5.338223
5.622517
5.955757
6.323865
6.704935
7.079211
7.435599
7.770687
8.083295
8.370789
8.629784
8.858673
9.057505
9.225418
9.360831
9.464004
9.535083
9.568549
9.553318
9.479633
9.345896
9.161465
8.944657
8.719271
8.513997
8.361429
8.291321
8.321908
8.457613
8.693963
9.025055
9.448226
9.961863
10.559554
11.226496
11.939546
12.670596
13.390906
14.074563
14.702194
15.262926
15.751451
16.163790
16.496269
16.746140
16.912624
16.997379
16.999924
16.912195
16.723461
16.431545
16.046913
15.590163
15.090623
14.585892
14.118719
13.731589
13.461570
13.336111
13.369357
13.559840
13.891632
14.340097
14.877754
15.473894
16.092627
16.696640
17.252020
17.730082
18.110451
18.384377
18.551785
18.613846
18.571352
18.429962
18.201784
17.898556
17.526466
17.091602
16.605345
16.079926
15.524175
14.945321
14.349976
13.743284
13.129982
12.516478
11.911289
11.323543
10.761164
10.230582
9.737972
9.290675
8.897442
8.566106
8.300128
8.097265
7.950959
7.852722
7.793679
7.764568
7.755772
7.759590
7.772891
7.795957
7.828616
7.868384
7.911807
7.956457
8.001318
8.046077
8.090108
8.131207
8.165330
8.187499
8.192410
8.175084
8.131863
8.060055
7.957455
7.824538
7.666948
7.494278
7.316730
7.143375
6.981921
6.837810
6.711495
6.595091
6.472714
6.326141
6.140410
5.905150
5.614912
5.271420
4.884493
4.470144
