EVENT_NAME: CENTRAL_ITALY
EVENT_ID: EMSC-20161026_0000077
EVENT_DATE_YYYYMMDD: 20161026
EVENT_TIME_HHMMSS: 171036
EVENT_LATITUDE_DEGREE: 42.8802
EVENT_LONGITUDE_DEGREE: 13.1275
EVENT_DEPTH_KM: 8.7
HYPOCENTER_REFERENCE: INGV-CNT_Seismic_Bulletin
MAGNITUDE_W: 5.4
MAGNITUDE_W_REFERENCE: INGV-webservice
MAGNITUDE_L: 5.4
MAGNITUDE_L_REFERENCE: INGV-CNT_Seismic_Bulletin
FOCAL_MECHANISM: NF
NETWORK: IT
STATION_CODE: ACC
STATION_NAME: Accumoli
STATION_LATITUDE_DEGREE: 42.695999
STATION_LONGITUDE_DEGREE: 13.242000
STATION_ELEVATION_M: 922
LOCATION: 
SENSOR_DEPTH_M: 
VS30_M/S: 
SITE_CLASSIFICATION_EC8: A*
MORPHOLOGIC_CLASSIFICATION: 
EPICENTRAL_DISTANCE_KM: 22.5
EARTHQUAKE_BACKAZIMUTH_DEGREE: 335.4
DATE_TIME_FIRST_SAMPLE_YYYYMMDD_HHMMSS: 20161026_171034.835
DATE_TIME_FIRST_SAMPLE_PRECISION: milliseconds
SAMPLING_INTERVAL_S: 0.005000
NDATA: 7433
DURATION_S: 37.165
STREAM: HGZ
UNITS: cm/s
INSTRUMENT: sensor = Unknown [Unknown] | digitizer = Unknown [Unknown]
INSTRUMENT_ANALOG/DIGITAL: D
INSTRUMENTAL_FREQUENCY_HZ: 
INSTRUMENTAL_DAMPING: 
FULL_SCALE_G: 
N_BIT_DIGITAL_CONVERTER: 
PGV_CM/S: -1.273445
TIME_PGV_S: 12.520000
BASELINE_CORRECTION: BASELINE REMOVED
FILTER_TYPE: BUTTERWORTH
FILTER_ORDER: 2
LOW_CUT_FREQUENCY_HZ: 0.100
HIGH_CUT_FREQUENCY_HZ: 30.000
LATE/NORMAL_TRIGGERED: NT
DATABASE_VERSION: DYNA 1.0
HEADER_FORMAT: DYNA 1.2
DATA_TYPE: VELOCITY
PROCESSING: manual (Paolucci et al., 2011)
DATA_TIMESTAMP_YYYYMMDD_HHMMSS: 20161027_131047.653
DATA_LICENSE: CC-BY3_0-IT (http://creativecommons.org/licenses/by/3.0/deed.en)
DATA_CITATION: ESM working group (2015), European Strong-Motion database, version 0.1, Network Activity 3: Networking acceleration networks and SM data users. Project NERA (www.nera-eu.org)
DATA_CREATOR: ESM working group
ORIGINAL_DATA_MEDIATOR_CITATION: Ufficio Rischio Sismico e Vulcanico del Dipartimento della Protezione Civile (http://www.protezionecivile.gov.it/)
ORIGINAL_DATA_MEDIATOR: Rete Accelerometrica Nazionale - RAN Download (http://www.mot1.it/randownload/)
ORIGINAL_DATA_CREATOR_CITATION: Italian Strong Motion Network, Italian Civil Protection Department http://www.protezionecivile.gov.it
ORIGINAL_DATA_CREATOR: network: IT (Italian Strong Motion Network); owner: Dipartimento Della Protezione Civile
USER1: /home/dyna/processing-itaca/processing.py /var/www/processing//tmp/felicetta//IT.ACC..HGE.D.20161026.171036.X.ACC.ASC /var/www/processing//tmp/felicetta//IT.ACC..HGN.D.20161026.171036.X.ACC.ASC /var/www/processing//tmp/felicetta//IT.ACC..HGZ.D.20161026.171036.X.ACC.ASC --tmp /var/www/processing//tmp/felicetta/ --le 0.100 --he 30.000 --ln 0.100 --hn 30.000 --lz 0.100 --hz 30.000 --fo 2 --ca 0 --cz 40 --ta 5 --tz 5 --mf 1 --rf 0 --tr NT
USER2: 
USER3: 
USER4: 
USER5: 
[...]
0.000666
0.000673
0.000675
0.000669
0.000658
0.000647
0.000637
0.000626
0.000618
0.000611
0.000603
0.000596
0.000590
0.000589
0.000593
0.000601
0.000610
0.000612
0.000610
0.000607
0.000607
0.000608
0.000606
0.000599
0.000591
0.000585
0.000585
0.000594
0.000613
0.000636
0.000655
0.000663
0.000664
0.000664
0.000664
0.000665
0.000667
0.000671
0.000675
0.000682
0.000692
0.000704
0.000711
0.000710
0.000703
0.000698
0.000698
0.000705
0.000713
0.000715
0.000714
0.000713
0.000713
0.000713
0.000713
0.000715
0.000719
0.000725
0.000733
0.000744
0.000756
0.000770
0.000790
0.000818
0.000855
0.000893
0.000925
0.000942
0.000939
0.000912
0.000867
0.000815
0.000773
0.000754
0.000762
0.000787
0.000803
0.000778
0.000686
0.000524
0.000329
0.000173
0.000137
0.000285
0.000628
0.001108
0.001615
0.002027
0.002262
0.002302
0.002177
0.001922
0.001544
0.001024
0.000365
-0.000361
-0.001002
-0.001371
-0.001318
-0.000805
0.000049
0.000985
0.001689
0.001914
0.001580
0.000807
-0.000130
-0.000909
-0.001274
-0.001116
-0.000502
0.000352
0.001164
0.001683
0.001783
0.001502
0.001014
0.000554
0.000309
0.000358
0.000668
0.001138
0.001645
0.002058
0.002250
0.002131
0.001692
0.001044
0.000367
-0.000190
-0.000602
-0.000963
-0.001396
-0.001942
-0.002500
-0.002876
-0.002872
-0.002374
-0.001359
0.000146
0.002091
0.004379
0.006811
0.009068
0.010793
0.011702
0.011684
0.010809
0.009262
0.007256
0.004952
0.002431
-0.000267
-0.003089
-0.005899
-0.008469
-0.010499
-0.011659
-0.011638
-0.010242
-0.007522
-0.003855
0.000116
0.003668
0.006220
0.007506
0.007640
0.007021
0.006132
0.005318
0.004695
0.004195
0.003675
0.002997
0.002069
0.000863
-0.000599
-0.002245
-0.003937
-0.005428
-0.006361
-0.006331
-0.004982
-0.002122
0.002204
0.007684
0.013777
0.019800
0.025006
0.028620
0.029932
0.028517
0.024474
0.018463
0.011509
0.004749
-0.000677
-0.003690
-0.003459
0.000301
0.007104
0.015683
0.024178
0.030465
0.032653
0.029708
0.021996
0.011440
0.001153
-0.005396
-0.005393
0.002454
0.017509
0.037405
0.058653
0.077371
0.089910
0.093375
0.086140
0.068397
0.042437
0.012326
-0.017079
-0.041355
-0.057448
-0.064047
-0.061440
-0.051008
-0.034600
-0.014193
0.007996
0.029241
0.046442
0.056924
0.059606
0.055732
0.048462
0.041393
0.036887
0.035142
0.034453
0.032523
0.028103
0.021855
0.015696
0.011103
0.007756
0.003701
-0.002955
-0.011980
-0.020197
-0.022697
-0.015406
0.002623
0.028524
0.056772
0.081366
0.097731
0.103497
0.098354
0.083649
0.062104
0.037516
0.014298
-0.003262
-0.011950
-0.010503
-0.000018
0.016396
0.034541
0.050097
0.059382
0.060153
0.052621
0.040127
0.028486
0.023630
0.028514
0.041141
0.055116
0.062771
0.059329
0.045669
0.027777
0.013121
0.006431
0.007698
0.013449
0.019937
0.025716
0.031839
0.039920
0.049915
0.059524
0.065740
0.067235
0.065522
0.063694
0.063739
0.064909
0.064694
0.061456
0.056219
0.052029
0.051444
0.054202
0.056999
0.055781
0.048918
0.038754
0.030300
0.028018
0.033019
0.042369
0.050680
0.052797
0.045954
0.030507
0.009593
-0.011658
-0.027334
-0.032697
-0.026397
-0.011597
0.005013
0.016032
0.016465
0.005539
-0.013523
-0.035340
-0.054826
-0.069086
-0.077542
-0.080275
-0.076439
-0.064814
-0.046166
-0.024993
-0.008694
-0.004348
-0.014919
-0.036994
-0.061540
-0.077742
-0.077987
-0.061012
-0.031528
0.002906
0.035419
0.061749
0.080168
0.090486
0.093226
0.089127
0.078718
0.062360
0.041267
0.018708
-0.000421
-0.012066
-0.015505
-0.013450
-0.009598
-0.005911
-0.001879
0.004018
0.012277
0.021432
0.028721
0.031934
0.031453
0.030834
0.034622
0.044404
0.056548
0.064135
0.061651
0.048446
0.028619
0.008347
-0.006922
-0.014049
-0.012759
-0.005615
0.002703
0.006782
0.001820
-0.015319
-0.044689
-0.081530
-0.116235
-0.137835
-0.139713
-0.123594
-0.098806
-0.077261
-0.067555
-0.071740
-0.086002
-0.103734
-0.118681
-0.126874
-0.127315
-0.121679
-0.113091
-0.104557
-0.097899
-0.093308
-0.089016
-0.081274
-0.065610
-0.039526
-0.004781
0.033072
0.067685
0.094585
0.111450
0.117249
0.112633
0.101414
0.090628
0.087944
0.098137
0.121200
0.152886
0.186844
0.217138
0.240105
0.254761
0.261573
0.260352
0.248897
0.223729
0.182452
0.125917
0.059036
-0.009633
-0.069556
-0.111659
-0.132802
-0.138444
-0.140655
-0.151673
-0.176618
-0.209970
-0.238263
-0.247653
-0.231688
-0.194387
-0.147194
-0.102759
-0.070337
-0.055369
-0.061560
-0.091519
-0.144087
-0.210705
-0.275038
-0.317732
-0.324113
-0.290689
-0.227075
-0.152100
-0.085673
-0.040357
-0.016948
-0.006382
0.003587
0.021645
0.049964
0.085198
0.120960
0.149817
0.164845
0.161508
0.139822
0.105630
0.069612
0.043635
0.035634
0.045561
0.064807
0.079741
0.077811
0.053388
0.010583
-0.038487
-0.079367
-0.102015
-0.105066
-0.095786
-0.086336
-0.088311
-0.107848
-0.143322
-0.186186
-0.223999
-0.244592
-0.240819
-0.214443
-0.176388
-0.141951
-0.123084
-0.122119
-0.130573
-0.134029
-0.120520
-0.087208
-0.041012
0.006703
0.047238
0.078700
0.104945
0.130865
0.158065
0.183926
0.203525
0.212091
0.206679
0.186951
0.154992
0.114475
0.070001
0.026658
-0.010975
-0.040356
-0.061972
-0.078882
-0.094814
-0.111555
-0.127280
-0.137255
-0.136695
-0.123788
-0.100782
-0.072410
-0.042952
-0.014410
0.012656
0.036398
0.051408
0.049230
0.022647
-0.028055
-0.091469
-0.148203
-0.179841
-0.177853
-0.146770
-0.100939
-0.058188
-0.033583
-0.034728
-0.059311
-0.095774
-0.127735
-0.141156
-0.131120
-0.104549
-0.077139
-0.065866
-0.080427
-0.117617
-0.161732
-0.191293
-0.188921
-0.149229
-0.080636
-0.000635
0.071982
0.123110
0.145257
0.137082
0.103164
0.054140
0.005280
-0.027745
-0.034550
-0.014301
0.023617
0.062867
0.086199
0.082044
0.049071
-0.003220
-0.058279
-0.099143
-0.114862
-0.103903
-0.073683
-0.037248
-0.008624
0.001999
-0.007762
-0.030908
-0.053504
-0.060843
-0.044043
-0.003131
0.054278
0.116407
0.170742
0.207127
0.220340
0.211023
0.184579
0.149158
0.113837
0.086779
0.072860
0.071554
0.076652
0.078344
0.066632
0.034818
-0.017546
-0.082998
-0.147311
-0.194218
-0.211888
-0.197539
-0.157973
-0.106613
-0.058711
-0.026297
-0.014683
-0.021938
-0.040961
-0.062469
-0.077670
-0.080482
-0.069240
-0.047202
-0.021253
0.000762
0.012799
0.012462
0.001598
-0.014339
-0.028411
-0.035555
-0.035321
-0.031533
-0.028788
-0.028818
-0.030163
-0.031513
-0.035357
-0.047782
-0.073606
-0.110716
-0.148704
-0.173352
-0.173972
-0.148914
-0.106157
-0.058647
-0.017095
0.014827
0.039113
0.057530
0.067617
0.065216
0.050938
0.033209
0.023823
0.029709
0.048329
0.070176
0.085416
0.089488
0.084888
0.079228
0.080869
0.094133
0.116628
0.140148
0.154043
0.148858
0.119265
0.066326
-0.001764
-0.071701
-0.129477
-0.165168
-0.175921
-0.165950
-0.143841
-0.119068
-0.099531
-0.090021
-0.090460
-0.094337
-0.089722
-0.064317
-0.012785
0.057944
0.129157
0.177440
0.185571
0.151731
0.091551
0.030847
-0.007967
-0.017959
-0.009854
-0.002625
-0.009799
-0.031236
-0.054998
-0.066483
-0.057823
-0.031710
0.001610
0.030990
0.049866
0.057768
0.058473
0.056970
0.056986
0.059767
0.064077
0.067013
0.065156
0.055956
0.039116
0.017165
-0.005251
-0.022698
-0.029993
-0.023044
-0.000315
0.034970
0.073875
0.104665
0.119057
0.116892
0.104583
0.088678
0.070776
0.047855
0.016582
-0.022275
-0.062202
-0.093394
-0.108230
-0.105847
-0.091983
-0.074685
-0.059970
-0.050297
-0.045389
-0.043485
-0.041803
-0.036462
-0.022928
0.002534
0.041006
0.089346
0.139807
0.182049
0.207161
0.210957
0.194368
0.161416
0.116315
0.060728
-0.007559
-0.092681
-0.195325
-0.307396
-0.411591
-0.487941
-0.524082
-0.522218
-0.497236
-0.467149
-0.443265
-0.426955
-0.413293
-0.396618
-0.373864
-0.345115
-0.312686
-0.279965
-0.250609
-0.227913
-0.213662
-0.206478
-0.201341
-0.191860
-0.174228
-0.149410
-0.121412
-0.093242
-0.064412
-0.032114
0.005569
0.047997
0.093327
0.140879
0.191613
0.245990
0.301142
0.349875
0.382577
0.390900
0.370855
0.323580
0.253888
0.168149
0.073121
-0.023849
-0.114284
-0.189281
-0.241965
-0.270290
-0.277830
-0.271341
-0.256420
-0.234191
-0.201514
-0.155097
-0.096942
-0.036756
0.011231
0.035032
0.030553
0.002829
-0.036729
-0.074574
-0.098895
-0.102511
-0.084206
-0.048365
-0.003962
0.036518
0.059707
0.056539
0.027511
-0.016304
-0.058092
-0.083003
-0.083928
-0.062854
-0.028608
0.007134
0.034229
0.047497
0.047691
0.039695
0.029478
0.021712
0.018617
0.019704
0.022502
0.024386
0.024262
0.022551
0.019703
0.015221
0.008380
-0.000170
-0.007503
-0.008988
0.000057
0.022360
0.056885
0.097991
0.136843
0.165402
0.180838
0.186820
0.189905
0.193180
0.192104
0.176324
0.136662
0.072461
-0.005512
-0.077939
-0.123847
-0.128700
-0.090597
-0.021549
0.057223
0.123418
0.160948
0.163813
0.136349
0.090436
0.040652
-0.000296
-0.023093
-0.020591
0.012265
0.074648
0.154861
0.230083
0.274027
0.269376
0.217610
0.139884
0.068084
0.031119
0.043845
0.103750
0.195446
0.298700
0.394687
0.468039
0.506602
0.502561
0.455837
0.376630
0.283716
0.198331
0.136546
0.104270
0.097783
0.109037
0.131546
0.162816
0.202713
0.250627
0.304187
0.359948
0.414665
0.465840
0.511680
0.551344
0.585314
0.614457
0.637500
0.649316
0.642445
0.611137
0.555034
0.480321
0.397683
0.317797
0.246775
0.184318
0.125717
0.066583
0.007758
-0.042789
-0.073295
-0.075032
-0.047924
-0.001757
0.047249
0.083350
0.098931
0.098587
0.096691
0.109917
0.148902
0.212666
0.288341
0.356889
0.402097
0.417599
0.407476
0.380100
0.339959
0.284169
0.206665
0.106440
-0.006788
-0.113329
-0.189770
-0.217133
-0.187565
-0.107513
0.003747
0.120076
0.216556
0.275856
0.290507
0.261868
0.197630
0.108818
0.006978
-0.097545
-0.196019
-0.281250
-0.348147
-0.395390
-0.427231
-0.452637
-0.479945
-0.509852
-0.532881
-0.534165
-0.501900
-0.433662
-0.337547
-0.228296
-0.120544
-0.022976
0.062786
0.138023
0.201264
0.245605
0.260569
0.236990
0.171982
0.071036
-0.053987
-0.189346
-0.323311
-0.447535
-0.555922
-0.642579
-0.701076
-0.726148
-0.716661
-0.677419
-0.618013
-0.549299
-0.480240
-0.417130
-0.364273
-0.323849
-0.294221
-0.268125
-0.232798
-0.173335
-0.078531
0.054075
0.217254
0.397317
0.578702
0.747565
0.893711
1.010999
1.097019
1.152875
1.182850
1.193532
1.192651
1.187936
1.185920
1.190616
1.202275
1.216826
1.226632
1.222177
1.194160
1.136156
1.047345
0.933207
0.803135
0.666725
0.531195
0.400550
0.275772
0.155537
0.037489
-0.079757
-0.194424
-0.300888
-0.391208
-0.457368
-0.492833
-0.493357
-0.457196
-0.385122
-0.280894
-0.152087
-0.010367
0.129091
0.248942
0.333304
0.374091
0.374860
0.347332
0.304533
0.258241
0.221669
0.211343
0.243044
0.322930
0.440537
0.569982
0.678880
0.739077
0.734646
0.665067
0.542858
0.386913
0.214370
0.034757
-0.148791
-0.329921
-0.489451
-0.599057
-0.638085
-0.605972
-0.518383
-0.395248
-0.253698
-0.108433
0.025771
0.134759
0.209080
0.247143
0.255004
0.244360
0.229929
0.225928
0.242165
0.280816
0.335104
0.391670
0.436567
0.461221
0.464101
0.447406
0.412628
0.359402
0.288350
0.205046
0.121309
0.052743
0.014625
0.017665
0.063874
0.143901
0.237818
0.319279
0.360808
0.339142
0.242443
0.079174
-0.118985
-0.307528
-0.447325
-0.516380
-0.509508
-0.433726
-0.306356
-0.153339
-0.004170
0.114889
0.186836
0.208462
0.191525
0.158316
0.133216
0.134428
0.168531
0.229031
0.299811
0.362038
0.400708
0.408215
0.384453
0.333790
0.261044
0.169658
0.062706
-0.054790
-0.173745
-0.281109
-0.363451
-0.411998
-0.425971
-0.412985
-0.386563
-0.361259
-0.347751
-0.350753
-0.369955
-0.402471
-0.445463
-0.497630
-0.558551
-0.626331
-0.695243
-0.755712
-0.798067
-0.817710
-0.816998
-0.802341
-0.779573
-0.751057
-0.715596
-0.670464
-0.614461
-0.550579
-0.486207
-0.430251
-0.389524
-0.367363
-0.364868
-0.382856
-0.422492
-0.483844
-0.563255
-0.651684
-0.735542
-0.799847
-0.832740
-0.829914
-0.796736
-0.746255
-0.693704
-0.650562
-0.620942
-0.601168
-0.582108
-0.553580
-0.509277
-0.449739
-0.381740
-0.315340
-0.261249
-0.229530
-0.228376
-0.261587
-0.325765
-0.410105
-0.499937
-0.581593
-0.645476
-0.686935
-0.706471
-0.709510
-0.704543
-0.699350
-0.697167
-0.695346
-0.687368
-0.666618
-0.629734
-0.578417
-0.519195
-0.460746
-0.409916
-0.369225
-0.337725
-0.313882
-0.297514
-0.289383
-0.289752
-0.297628
-0.310769
-0.325620
-0.337290
-0.340407
-0.330757
-0.306487
-0.268294
-0.219114
-0.163934
-0.109699
-0.064795
-0.037482
-0.033228
-0.052182
-0.089042
-0.136344
-0.189136
-0.247447
-0.314835
-0.394623
-0.486793
-0.587501
-0.691108
-0.793030
-0.891223
-0.985379
-1.074716
-1.155996
-1.222651
-1.265224
-1.273445
-1.239655
-1.162290
-1.047930
-0.910937
-0.770217
-0.643779
-0.543524
-0.472897
-0.428033
-0.400819
-0.381906
-0.362709
-0.336468
-0.298780
-0.247659
-0.182995
-0.105921
-0.019061
0.072470
0.160969
0.238149
0.298055
0.338483
0.360103
0.364533
0.352914
0.325753
0.283807
0.229321
0.166952
0.103896
0.048965
0.010761
-0.004521
0.004779
0.034142
0.072518
0.103990
0.111203
0.079567
0.001590
-0.119314
-0.267201
-0.416334
-0.538693
-0.613380
-0.633253
-0.605824
-0.549328
-0.486816
-0.440219
-0.425398
-0.449393
-0.510308
-0.598893
-0.700793
-0.799381
-0.879190
-0.928866
-0.942415
-0.919106
-0.863626
-0.786623
-0.703477
-0.629919
-0.576427
-0.544892
-0.529301
-0.519667
-0.507060
-0.487392
-0.462287
-0.436655
-0.414347
-0.394619
-0.371774
-0.338026
-0.287373
-0.218130
-0.133671
-0.041860
0.046677
0.121350
0.174569
0.203617
0.210818
0.202259
0.185869
0.169608
0.160283
0.162961
0.180327
0.211564
0.251527
0.291572
0.322148
0.335890
0.329912
0.306873
0.274472
0.243123
0.222443
0.218132
0.230607
0.255669
0.286493
0.315760
0.337129
0.346295
0.342094
0.327269
0.308099
0.292687
0.288349
0.299182
0.325162
0.363012
0.407575
0.452631
0.491541
0.518314
0.528912
0.522327
0.501120
0.470903
0.438448
0.409100
0.384892
0.364444
0.344541
0.322369
0.297213
0.270863
0.246575
0.227110
0.213084
0.202680
0.192845
0.181103
0.166772
0.151041
0.136236
0.124809
0.118168
0.115592
0.113944
0.108663
0.095420
0.071562
0.037153
-0.004329
-0.046074
-0.079353
-0.095973
-0.090935
-0.064405
-0.022404
0.024163
0.062168
0.080176
0.072350
0.040594
-0.005982
-0.053841
-0.088766
-0.099568
-0.080994
-0.035179
0.028894
0.097973
0.158540
0.200826
0.221300
0.222806
0.212712
0.200054
0.192662
0.194995
0.207248
0.226074
0.246579
0.264694
0.278866
0.290435
0.302570
0.318218
0.338057
0.359766
0.379295
0.393392
0.401592
0.406437
0.412003
0.421729
0.436843
0.456393
0.478784
0.503400
0.530811
0.561476
0.594044
0.624469
0.646586
0.654112
0.643269
0.614741
0.573997
0.529812
0.491496
0.465831
0.454921
0.455786
0.461688
0.464410
0.456435
0.432406
0.389878
0.329631
0.255607
0.174445
0.094601
0.025092
-0.026261
-0.055070
-0.062335
-0.054742
-0.042548
-0.035637
-0.039433
-0.052418
-0.066483
-0.070291
-0.054388
-0.015474
0.042425
0.110175
0.177427
0.235974
0.281298
0.312329
0.330364
0.338130
0.339392
0.338744
0.340933
0.349474
0.365074
0.384904
0.403397
0.414210
0.412422
0.396107
0.366791
0.328716
0.287153
0.246248
0.207166
0.167620
0.123427
0.071335
0.011198
-0.053775
-0.118373
-0.177164
-0.225954
-0.262778
-0.288164
-0.304339
-0.313705
-0.317641
-0.316220
-0.308299
-0.291332
-0.261371
-0.214232
-0.147735
-0.063471
0.033210
0.134732
0.233151
0.321581
0.395163
0.451570
0.490826
0.514572
0.525381
0.526522
0.521999
0.516359
0.514118
0.518848
0.532108
0.552656
0.576464
0.597687
0.610205
0.609481
0.594467
0.568744
0.539833
0.516505
0.505295
0.508057
0.521577
0.539024
0.552265
0.554268
0.541028
0.512504
0.472416
0.427395
0.385960
0.357048
0.347566
0.359521
0.388271
0.423259
0.451332
0.461523
0.449281
0.418125
0.377969
0.341140
0.318048
0.314308
0.330151
0.361838
0.403828
0.450358
0.495923
0.535239
0.563659
0.578414
0.579991
0.572396
0.561695
0.553575
0.551421
0.555891
0.565863
0.579872
0.597138
0.617691
0.641658
0.668330
0.695730
0.720963
0.741162
0.754545
0.761014
0.761975
0.759654
0.756488
0.754802
0.756352
0.761494
0.768666
0.775088
0.778397
0.777795
0.773884
0.767759
0.760329
0.752130
0.743400
0.734281
0.725355
0.718190
0.714991
0.717010
0.722785
0.727813
0.726132
0.712756
0.685506
0.645615
0.597347
0.546955
0.501094
0.465002
0.441044
0.428140
0.422287
0.417994
0.410156
0.395804
0.375215
0.352032
0.332233
0.322057
0.325340
0.341285
0.363941
0.383898
0.391346
0.378984
0.343705
0.286954
0.214157
0.133403
0.053294
-0.019472
-0.081458
-0.131951
-0.171460
-0.200860
-0.221618
-0.236164
-0.247556
-0.258664
-0.271571
-0.287449
-0.306469
-0.327512
-0.348030
-0.364563
-0.373862
-0.374100
-0.365666
-0.351358
-0.335902
-0.324753
-0.322282
-0.329957
-0.345471
-0.363557
-0.378262
-0.385554
-0.384901
-0.379019
-0.372066
-0.367376
-0.365951
-0.366421
-0.366302
-0.363696
-0.358360
-0.351451
-0.344187
-0.336461
-0.326598
-0.312607
-0.294046
-0.272926
-0.252831
-0.236950
-0.226562
-0.220964
-0.218509
-0.217630
-0.217097
-0.215661
-0.211761
-0.203880
-0.191621
-0.176853
-0.163710
-0.156893
-0.159187
-0.169815
-0.184572
-0.197494
-0.203135
-0.198327
-0.182767
-0.158460
-0.128611
-0.096594
-0.065274
-0.036643
-0.011686
0.009385
0.026433
0.038509
0.043410
0.038057
0.019563
-0.013482
-0.059816
-0.114867
-0.171274
-0.220865
-0.257403
-0.278700
-0.286938
-0.287143
-0.284689
-0.283094
-0.283201
-0.284012
-0.284364
-0.284237
-0.285059
-0.289280
-0.299772
-0.319105
-0.348474
-0.386428
-0.428165
-0.466178
-0.492372
-0.500884
-0.490480
-0.465539
-0.435059
-0.409765
-0.398305
-0.404286
-0.425649
-0.456471
-0.489920
-0.520650
-0.545780
-0.564667
-0.578191
-0.588063
-0.596227
-0.604305
-0.613120
-0.622358
-0.630422
-0.634594
-0.631814
-0.619949
-0.598809
-0.570180
-0.536952
-0.502013
-0.467610
-0.435348
-0.406403
-0.381496
-0.360601
-0.342821
-0.326657
-0.310453
-0.292790
-0.272921
-0.251297
-0.229825
-0.211404
-0.198792
-0.193382
-0.194510
-0.199679
-0.205684
-0.210145
-0.212684
