EVENT_NAME: CENTRAL_ITALY
EVENT_ID: EMSC-20161026_0000095
EVENT_DATE_YYYYMMDD: 20161026
EVENT_TIME_HHMMSS: 191806
EVENT_LATITUDE_DEGREE: 42.9087
EVENT_LONGITUDE_DEGREE: 13.1288
EVENT_DEPTH_KM: 7.5
HYPOCENTER_REFERENCE: INGV-CNT_Seismic_Bulletin
MAGNITUDE_W: 5.9
MAGNITUDE_W_REFERENCE: INGV-webservice
MAGNITUDE_L: 5.9
MAGNITUDE_L_REFERENCE: INGV-CNT_Seismic_Bulletin
FOCAL_MECHANISM: NF
NETWORK: IT
STATION_CODE: ACC
STATION_NAME: Accumoli
STATION_LATITUDE_DEGREE: 42.695999
STATION_LONGITUDE_DEGREE: 13.242000
STATION_ELEVATION_M: 922
LOCATION: 
SENSOR_DEPTH_M: 
VS30_M/S: 
SITE_CLASSIFICATION_EC8: A*
MORPHOLOGIC_CLASSIFICATION: 
EPICENTRAL_DISTANCE_KM: 25.4
EARTHQUAKE_BACKAZIMUTH_DEGREE: 338.6
DATE_TIME_FIRST_SAMPLE_YYYYMMDD_HHMMSS: 20161026_191805.089
DATE_TIME_FIRST_SAMPLE_PRECISION: milliseconds
SAMPLING_INTERVAL_S: 0.005000
NDATA: 12982
DURATION_S: 64.910
STREAM: HGE
UNITS: cm/s
INSTRUMENT: sensor = Unknown [Unknown] | digitizer = Unknown [Unknown]
INSTRUMENT_ANALOG/DIGITAL: D
INSTRUMENTAL_FREQUENCY_HZ: 
INSTRUMENTAL_DAMPING: 
FULL_SCALE_G: 
N_BIT_DIGITAL_CONVERTER: 
PGV_CM/S: 4.350360
TIME_PGV_S: 12.620000
BASELINE_CORRECTION: BASELINE REMOVED
FILTER_TYPE: BUTTERWORTH
FILTER_ORDER: 2
LOW_CUT_FREQUENCY_HZ: 0.040
HIGH_CUT_FREQUENCY_HZ: 40.000
LATE/NORMAL_TRIGGERED: NT
DATABASE_VERSION: DYNA 1.0
HEADER_FORMAT: DYNA 1.2
DATA_TYPE: VELOCITY
PROCESSING: manual (Paolucci et al., 2011)
DATA_TIMESTAMP_YYYYMMDD_HHMMSS: 20161028_130247.609
DATA_LICENSE: CC-BY3_0-IT (http://creativecommons.org/licenses/by/3.0/deed.en)
DATA_CITATION: ESM working group (2015), European Strong-Motion database, version 0.1, Network Activity 3: Networking acceleration networks and SM data users. Project NERA (www.nera-eu.org)
DATA_CREATOR: ESM working group
ORIGINAL_DATA_MEDIATOR_CITATION: Ufficio Rischio Sismico e Vulcanico del Dipartimento della Protezione Civile (http://www.protezionecivile.gov.it/)
ORIGINAL_DATA_MEDIATOR: Rete Accelerometrica Nazionale - RAN Download (http://www.mot1.it/randownload/)
ORIGINAL_DATA_CREATOR_CITATION: Italian Strong Motion Network, Italian Civil Protection Department http://www.protezionecivile.gov.it
ORIGINAL_DATA_CREATOR: network: IT (Italian Strong Motion Network); owner: Dipartimento Della Protezione Civile
USER1: /home/dyna/processing-itaca/processing.py /var/www/processing//tmp/dyna_ingv//IT.ACC..HGE.D.20161026.191806.X.ACC.ASC /var/www/processing//tmp/dyna_ingv//IT.ACC..HGN.D.20161026.191806.X.ACC.ASC /var/www/processing//tmp/dyna_ingv//IT.ACC..HGZ.D.20161026.191806.X.ACC.ASC --tmp /var/www/processing//tmp/dyna_ingv/ --le 0.040 --he 40.000 --ln 0.040 --hn 40.000 --lz 0.040 --hz 40.000 --fo 2 --ca 0 --cz 40 --ta 5 --tz 5 --mf 1 --rf 0 --tr NT
USER2: 
USER3: 
USER4: 
USER5: 
[...]
-0.000452
-0.000471
-0.000509
-0.000575
-0.000676
-0.000804
-0.000943
-0.001073
-0.001172
-0.001214
-0.001190
-0.001114
-0.001004
-0.000873
-0.000728
-0.000581
-0.000445
-0.000331
-0.000238
-0.000157
-0.000080
-0.000003
0.000062
0.000091
0.000066
-0.000006
-0.000095
-0.000177
-0.000231
-0.000235
-0.000172
-0.000022
0.000239
0.000633
0.001145
0.001704
0.002197
0.002507
0.002538
0.002233
0.001604
0.000753
-0.000137
-0.000854
-0.001237
-0.001259
-0.001039
-0.000766
-0.000572
-0.000466
-0.000369
-0.000189
0.000146
0.000677
0.001369
0.002071
0.002535
0.002516
0.001872
0.000639
-0.000971
-0.002651
-0.004123
-0.005194
-0.005761
-0.005803
-0.005372
-0.004577
-0.003542
-0.002379
-0.001207
-0.000137
0.000781
0.001601
0.002450
0.003409
0.004408
0.005196
0.005403
0.004673
0.002827
0.000005
-0.003303
-0.006394
-0.008552
-0.009230
-0.008198
-0.005609
-0.001978
0.001890
0.005031
0.006630
0.006402
0.004736
0.002466
0.000501
-0.000520
-0.000445
0.000366
0.001215
0.001341
0.000211
-0.002252
-0.005581
-0.008869
-0.011059
-0.011322
-0.009365
-0.005515
-0.000580
0.004387
0.008378
0.010749
0.011413
0.010782
0.009464
0.007961
0.006506
0.004985
0.002982
-0.000012
-0.004216
-0.009207
-0.013872
-0.016816
-0.016963
-0.013971
-0.008339
-0.001267
0.005677
0.011015
0.013850
0.014156
0.012695
0.010568
0.008681
0.007423
0.006597
0.005500
0.003170
-0.001098
-0.007182
-0.013926
-0.019460
-0.021895
-0.020047
-0.013915
-0.004773
0.005194
0.013572
0.018484
0.019224
0.016462
0.011930
0.007724
0.005431
0.005499
0.007157
0.008828
0.008856
0.006228
0.000970
-0.005858
-0.012491
-0.016998
-0.017846
-0.014408
-0.007269
0.001912
0.010962
0.017937
0.021658
0.021807
0.018718
0.013150
0.006143
-0.001161
-0.007735
-0.012826
-0.015986
-0.017011
-0.015852
-0.012567
-0.007348
-0.000647
0.006687
0.013383
0.017934
0.019025
0.016112
0.009813
0.001811
-0.005746
-0.011072
-0.013299
-0.012482
-0.009242
-0.004473
0.000718
0.005062
0.007381
0.007082
0.004586
0.001273
-0.001077
-0.001073
0.001642
0.006169
0.010728
0.013469
0.013282
0.010245
0.005520
0.000810
-0.002277
-0.002726
-0.000424
0.003733
0.008030
0.010501
0.009751
0.005647
-0.000563
-0.006798
-0.011059
-0.012206
-0.010175
-0.005686
0.000197
0.006333
0.011627
0.015169
0.016380
0.015088
0.011515
0.006224
0.000113
-0.005591
-0.009476
-0.010284
-0.007338
-0.000873
0.007886
0.016929
0.023982
0.027198
0.025738
0.019944
0.011137
0.001206
-0.007833
-0.014301
-0.017236
-0.016549
-0.012882
-0.007363
-0.001415
0.003512
0.006363
0.006891
0.005654
0.003568
0.001481
0.000027
-0.000367
0.000468
0.002378
0.004903
0.007428
0.009391
0.010411
0.010302
0.009101
0.007094
0.004734
0.002504
0.000833
0.000089
0.000520
0.002144
0.004690
0.007690
0.010696
0.013474
0.015977
0.018072
0.019340
0.019258
0.017627
0.014788
0.011360
0.007828
0.004365
0.000922
-0.002574
-0.005945
-0.008575
-0.009477
-0.007725
-0.003045
0.003834
0.011299
0.017383
0.020478
0.019905
0.016021
0.009917
0.003082
-0.002828
-0.006299
-0.006410
-0.003152
0.002508
0.008800
0.013605
0.015246
0.013301
0.008791
0.003633
-0.000282
-0.001869
-0.001188
0.000763
0.002625
0.003308
0.002473
0.000649
-0.001158
-0.002106
-0.001902
-0.000759
0.000863
0.002493
0.003758
0.004409
0.004350
0.003724
0.002952
0.002584
0.003100
0.004816
0.007879
0.012186
0.017183
0.021819
0.024929
0.025812
0.024559
0.021872
0.018602
0.015403
0.012639
0.010413
0.008615
0.007014
0.005415
0.003837
0.002571
0.002038
0.002479
0.003703
0.005154
0.006242
0.006648
0.006411
0.005789
0.005055
0.004399
0.003945
0.003753
0.003818
0.004125
0.004645
0.005283
0.005881
0.006334
0.006736
0.007409
0.008671
0.010465
0.012244
0.013303
0.013263
0.012350
0.011332
0.011165
0.012508
0.015386
0.019211
0.023093
0.026185
0.027865
0.027744
0.025617
0.021502
0.015722
0.008881
0.001790
-0.004574
-0.009178
-0.011243
-0.010613
-0.007813
-0.003739
0.000819
0.005477
0.010180
0.014795
0.018768
0.021157
0.021064
0.018249
0.013506
0.008461
0.004884
0.003977
0.005999
0.010359
0.015954
0.021450
0.025486
0.026978
0.025475
0.021421
0.016133
0.011336
0.008448
0.008009
0.009561
0.011925
0.013723
0.013974
0.012480
0.009824
0.007034
0.005055
0.004192
0.003903
0.003169
0.001174
-0.002130
-0.006026
-0.009585
-0.012166
-0.013464
-0.013468
-0.012632
-0.011912
-0.012313
-0.014226
-0.017075
-0.019568
-0.020401
-0.018831
-0.014756
-0.008688
-0.001856
0.004055
0.007718
0.008773
0.007739
0.005607
0.003567
0.002790
0.004060
0.007420
0.012256
0.017796
0.023319
0.027853
0.030039
0.028724
0.023839
0.016762
0.009775
0.005115
0.004314
0.007794
0.014328
0.020904
0.023837
0.020598
0.010940
-0.003255
-0.018906
-0.032821
-0.042447
-0.046085
-0.043112
-0.034646
-0.024024
-0.016050
-0.014967
-0.022379
-0.036476
-0.053015
-0.067324
-0.076105
-0.078450
-0.075872
-0.071360
-0.068104
-0.068486
-0.073509
-0.082507
-0.092868
-0.100283
-0.100211
-0.089984
-0.070404
-0.045794
-0.022342
-0.005660
0.001316
-0.000857
-0.008867
-0.018151
-0.024547
-0.025854
-0.022393
-0.016222
-0.010107
-0.006824
-0.008196
-0.014048
-0.021763
-0.026909
-0.025238
-0.015250
0.000283
0.014927
0.021407
0.015306
-0.002607
-0.026657
-0.049025
-0.063571
-0.068245
-0.064939
-0.057942
-0.052259
-0.051891
-0.058081
-0.068369
-0.077475
-0.079943
-0.072905
-0.057053
-0.035535
-0.012148
0.009702
0.027281
0.038718
0.043081
0.040247
0.030769
0.015980
-0.001807
-0.019514
-0.034336
-0.044945
-0.051616
-0.055142
-0.055652
-0.052159
-0.043067
-0.027580
-0.006931
0.015858
0.037206
0.054207
0.065601
0.071852
0.073747
0.070827
0.061485
0.044649
0.021428
-0.004601
-0.028315
-0.044337
-0.048450
-0.039136
-0.018972
0.005284
0.025188
0.034701
0.032787
0.022959
0.011048
0.002869
0.002198
0.009423
0.021567
0.033754
0.041392
0.041952
0.035566
0.025028
0.015369
0.012298
0.019815
0.037728
0.060326
0.078510
0.084717
0.076679
0.057888
0.035456
0.016988
0.007674
0.008263
0.014843
0.020914
0.020953
0.013434
0.001176
-0.010646
-0.016952
-0.014599
-0.003395
0.013644
0.030981
0.042783
0.045543
0.039160
0.026433
0.011875
-0.000118
-0.007362
-0.010863
-0.013493
-0.016957
-0.019839
-0.019106
-0.013498
-0.005282
0.000634
-0.001110
-0.013882
-0.037226
-0.066682
-0.095450
-0.116929
-0.126817
-0.123700
-0.108078
-0.081376
-0.046365
-0.008480
0.024403
0.044831
0.048738
0.036252
0.011219
-0.019900
-0.049874
-0.072281
-0.082560
-0.079300
-0.065161
-0.045846
-0.027804
-0.016557
-0.015409
-0.024026
-0.038338
-0.052493
-0.061660
-0.064147
-0.061627
-0.057643
-0.055754
-0.057950
-0.063610
-0.069710
-0.072388
-0.069138
-0.060492
-0.050083
-0.042992
-0.043438
-0.052988
-0.069868
-0.089631
-0.106766
-0.116098
-0.113746
-0.098320
-0.072291
-0.042138
-0.016010
0.000133
0.005132
0.002506
-0.001991
-0.003990
-0.002959
-0.001726
-0.004172
-0.013051
-0.028585
-0.048416
-0.069111
-0.087875
-0.102820
-0.111912
-0.112403
-0.101702
-0.078651
-0.044463
-0.003367
0.037774
0.071527
0.092767
0.100511
0.097843
0.090629
0.085492
0.086961
0.095091
0.105470
0.111818
0.109573
0.098404
0.082330
0.067576
0.059836
0.062872
0.078192
0.104427
0.136787
0.167837
0.189645
0.196383
0.186336
0.162697
0.132846
0.105537
0.086817
0.077464
0.073418
0.068270
0.056653
0.037153
0.013111
-0.008927
-0.021976
-0.021188
-0.005097
0.023762
0.058146
0.086992
0.099128
0.088018
0.054786
0.007976
-0.040045
-0.078555
-0.102778
-0.114491
-0.119269
-0.122760
-0.127974
-0.134418
-0.139128
-0.138707
-0.130632
-0.113260
-0.085858
-0.049464
-0.007528
0.034804
0.072676
0.103539
0.127609
0.146648
0.162670
0.177563
0.192464
0.206354
0.215669
0.216124
0.205165
0.182820
0.151079
0.113183
0.073114
0.035323
0.004437
-0.015829
-0.024184
-0.022244
-0.013471
-0.001888
0.007979
0.010940
0.002567
-0.018421
-0.048863
-0.082183
-0.111614
-0.133731
-0.149814
-0.164499
-0.182549
-0.205191
-0.228364
-0.244053
-0.243732
-0.222541
-0.182098
-0.129886
-0.075985
-0.029514
0.003630
0.021420
0.024976
0.017008
0.000380
-0.022335
-0.048389
-0.074276
-0.095731
-0.108699
-0.110831
-0.102386
-0.086083
-0.066340
-0.048003
-0.034465
-0.026017
-0.019819
-0.011840
0.000328
0.015874
0.031718
0.044502
0.051347
0.049682
0.037671
0.015207
-0.015663
-0.051275
-0.086790
-0.116303
-0.134046
-0.136677
-0.124894
-0.103508
-0.079616
-0.059393
-0.045579
-0.036892
-0.029205
-0.017967
-0.000461
0.023177
0.050285
0.076939
0.098852
0.111494
0.110851
0.095346
0.067358
0.032461
-0.003343
-0.036446
-0.066931
-0.097607
-0.131442
-0.168980
-0.206666
-0.236730
-0.249322
-0.236123
-0.193652
-0.125558
-0.043417
0.035793
0.094979
0.121955
0.113317
0.076115
0.024936
-0.024459
-0.060391
-0.077244
-0.075710
-0.061263
-0.039957
-0.014479
0.016698
0.058033
0.114350
0.187115
0.271838
0.359281
0.439623
0.505371
0.550712
0.570025
0.559036
0.517839
0.452212
0.371735
0.286777
0.207092
0.141942
0.099005
0.081513
0.086349
0.105080
0.127584
0.145921
0.155832
0.155930
0.146171
0.126438
0.095973
0.054345
0.003523
-0.050805
-0.100446
-0.137727
-0.157721
-0.158711
-0.142281
-0.113405
-0.079357
-0.047495
-0.023076
-0.007728
0.000887
0.008122
0.020845
0.045230
0.083454
0.131414
0.179837
0.217463
0.234230
0.224902
0.192347
0.147051
0.102196
0.067772
0.047229
0.037900
0.034401
0.032321
0.029563
0.025351
0.018954
0.009207
-0.005284
-0.025227
-0.049218
-0.073261
-0.092503
-0.104049
-0.108471
-0.108895
-0.108495
-0.108442
-0.107860
-0.105088
-0.098721
-0.088157
-0.074071
-0.058338
-0.042928
-0.028580
-0.014273
0.002624
0.025547
0.056894
0.095951
0.138516
0.178327
0.208953
0.225723
0.227338
0.216004
0.195954
0.171529
0.145828
0.120463
0.096108
0.072770
0.049716
0.025863
0.000698
-0.025065
-0.049577
-0.070490
-0.085758
-0.093895
-0.093353
-0.082427
-0.060989
-0.032456
-0.003501
0.018568
0.028551
0.024139
0.004587
-0.030495
-0.080168
-0.140183
-0.202414
-0.256187
-0.290764
-0.298263
-0.276283
-0.228905
-0.165319
-0.097313
-0.036790
0.006740
0.028287
0.028422
0.012897
-0.009191
-0.028498
-0.039269
-0.041644
-0.039933
-0.038205
-0.037538
-0.036690
-0.033879
-0.027985
-0.020134
-0.015369
-0.021770
-0.046280
-0.090291
-0.148170
-0.209339
-0.262660
-0.300605
-0.320489
-0.323237
-0.312518
-0.294498
-0.276544
-0.264935
-0.262846
-0.269375
-0.279665
-0.286415
-0.283089
-0.267253
-0.241709
-0.213039
-0.188532
-0.172974
-0.166579
-0.164537
-0.158783
-0.141505
-0.108440
-0.060323
-0.002532
0.055869
0.103250
0.126948
0.116140
0.066551
-0.016044
-0.117480
-0.221185
-0.313624
-0.386282
-0.435669
-0.462848
-0.472336
-0.470194
-0.461355
-0.447587
-0.428040
-0.401286
-0.366355
-0.322519
-0.269356
-0.207987
-0.143082
-0.084092
-0.043300
-0.030410
-0.047738
-0.090072
-0.147819
-0.209701
-0.264394
-0.302394
-0.318126
-0.310744
-0.282880
-0.239671
-0.189032
-0.140316
-0.100729
-0.072510
-0.052718
-0.035560
-0.016638
0.003028
0.016783
0.016470
-0.002857
-0.040734
-0.091843
-0.148285
-0.202176
-0.247446
-0.280554
-0.300683
-0.309215
-0.307272
-0.292915
-0.261905
-0.212102
-0.146969
-0.075119
-0.006686
0.050337
0.091205
0.114239
0.121395
0.118201
0.111189
0.103979
0.094662
0.076655
0.043846
-0.002634
-0.052012
-0.089059
-0.101840
-0.085293
-0.041023
0.023250
0.094992
0.160242
0.207613
0.230959
0.229917
0.208551
0.173658
0.134213
0.100965
0.084727
0.093557
0.129426
0.185823
0.248783
0.301379
0.329537
0.327230
0.298335
0.253488
0.204784
0.161227
0.125427
0.093822
0.061018
0.024100
-0.015120
-0.049242
-0.067131
-0.059134
-0.022147
0.039105
0.113959
0.189169
0.253268
0.300289
0.330589
0.349095
0.363119
0.381141
0.411861
0.462182
0.534726
0.626690
0.730431
0.835521
0.932197
1.014454
1.080228
1.128981
1.159476
1.169054
1.154249
1.113485
1.051216
0.979172
0.912055
0.861163
0.831366
0.822403
0.831727
0.857501
0.900743
0.964709
1.052019
1.161779
1.288168
1.421524
1.551667
1.671529
1.778859
1.874978
1.962212
2.042404
2.116546
2.184147
2.242783
2.289317
2.322093
2.342155
2.353394
2.362269
2.376116
2.400236
2.436238
2.482444
2.535146
2.589874
2.641924
2.686103
2.716493
2.726569
2.708982
2.655041
2.556995
2.413659
2.232106
2.022491
1.793887
1.554632
1.312572
1.074290
0.845758
0.633572
0.444488
0.283827
0.155519
0.063741
0.013017
0.006382
0.044028
0.122706
0.235017
0.370359
0.518808
0.675223
0.840118
1.015927
1.201886
1.393577
1.588011
1.787709
1.997981
2.222168
2.462210
2.719807
2.992781
3.271632
3.540992
3.785416
3.994463
4.161466
4.280091
4.344460
4.350360
4.295988
4.183615
4.021513
3.824356
3.610346
3.395426
3.188586
2.991793
2.803054
2.617981
2.429088
2.226155
1.998407
1.737728
1.443432
1.124531
0.794136
0.461692
0.132858
-0.185741
-0.485606
-0.759624
-1.003913
-1.215367
-1.389007
-1.520418
-1.610674
-1.667094
-1.699281
-1.717205
-1.732407
-1.754020
-1.781041
-1.801710
-1.799849
-1.761362
-1.679579
-1.559115
-1.415852
-1.271575
-1.145776
-1.050490
-0.989591
-0.959353
-0.950884
-0.955122
-0.966457
-0.983242
-1.007079
-1.041330
-1.088507
-1.148446
-1.218627
-1.295110
-1.373113
-1.448452
-1.519891
-1.589778
-1.661401
-1.735240
-1.807451
-1.872230
-1.925768
-1.966615
-1.993378
-2.005223
-2.004118
-1.995453
-1.986601
-1.982713
-1.982561
-1.979046
-1.962892
-1.926930
-1.869532
-1.792831
-1.696729
-1.577391
-1.431315
-1.258393
-1.063402
-0.857159
-0.655142
-0.475063
-0.335776
-0.255657
-0.248732
-0.319452
-0.460888
-0.659020
-0.897537
-1.159946
-1.432057
-1.704351
-1.971959
-2.233395
-2.488022
-2.732719
-2.961496
-3.167951
-3.347463
-3.498534
-3.621580
-3.716135
-3.781377
-3.818518
-3.831437
-3.826864
-3.814064
-3.802723
-3.800351
-3.809848
-3.827391
-3.842958
-3.844548
-3.823308
-3.776823
-3.709500
-3.629092
-3.541416
-3.446965
-3.339251
-3.204996
-3.028474
-2.796885
-2.502938
-2.147096
-1.740090
-1.302561
-0.860962
-0.440161
-0.056821
0.279539
0.561105
0.780992
0.935876
1.027372
1.061843
1.048624
0.998600
0.924137
0.837136
0.745591
0.653081
0.561622
0.474882
0.399326
0.342295
0.308756
0.299678
0.312209
0.339918
0.373277
0.401665
0.415933
0.410503
0.385426
0.346868
0.304411
0.267210
0.241490
0.229004
0.226443
0.227533
0.226782
0.220677
0.205861
0.178967
0.139583
0.091335
0.039518
-0.010276
-0.052113
-0.081062
-0.094745
-0.093256
-0.078063
-0.050417
-0.010455
0.041639
0.103805
0.171559
0.238405
0.296411
0.337670
0.356790
0.352570
0.327609
0.286089
0.231531
0.167229
0.098310
0.031019
-0.030767
-0.087694
-0.144459
-0.208142
-0.285397
-0.379139
-0.487625
-0.605589
-0.724985
-0.835850
-0.927883
-0.992334
-1.023790
-1.020353
-0.982258
-0.910808
-0.807585
-0.673191
-0.507649
-0.314792
-0.107414
0.093893
0.269490
0.409727
0.517391
0.603792
0.682978
0.767154
0.863274
0.970932
1.083085
1.189042
1.276963
1.335067
1.353024
1.323970
1.246384
1.124998
0.969978
0.794411
0.611600
0.433539
0.270012
0.127218
0.007306
-0.090419
-0.168824
-0.233688
-0.293066
-0.353708
-0.418317
-0.486924
-0.559238
-0.634718
-0.712031
-0.789884
-0.868046
-0.947787
-1.032937
-1.130252
-1.246344
-1.383809
-1.540985
-1.714182
-1.899005
-2.089405
-2.275803
-2.445647
-2.586228
-2.686680
-2.739272
-2.741361
-2.696637
-2.613797
-2.503300
-2.373870
-2.230208
-2.073021
-1.901397
-1.716779
-1.525987
-1.339597
-1.167106
-1.015227
-0.890146
-0.797826
-0.740878
-0.716414
-0.716550
-0.730736
-0.749740
-0.768623
-0.786165
-0.803031
-0.820658
-0.839885
-0.860133
-0.880289
-0.900014
-0.920306
-0.943374
-0.972081
-1.008894
-1.053940
-1.103572
-1.151443
-1.190908
-1.215937
-1.221310
-1.204578
-1.168858
-1.123357
-1.080523
-1.051422
-1.042052
-1.052354
-1.077349
-1.108573
-1.135362
-1.146957
-1.135250
-1.096529
-1.031654
-0.945805
-0.848239
-0.751022
-0.665791
-0.599406
-0.551247
-0.514622
-0.481403
-0.446354
-0.408879
-0.372826
-0.345423
-0.334794
-0.345899
-0.376873
-0.418083
-0.455052
-0.474026
-0.466391
-0.429880
-0.367704
-0.286539
-0.194029
-0.097041
-0.000683
0.092415
0.181992
0.268806
0.353243
0.434618
0.510715
0.577894
0.632622
0.673865
0.705204
0.735166
0.774140
0.828792
0.898061
0.973749
1.044330
1.098915
1.130330
1.137298
1.124566
1.100576
1.074310
1.052740
1.039702
1.036760
1.044548
1.062540
1.088072
1.116659
1.143961
1.167652
1.187379
1.203457
1.216118
1.225977
1.234842
1.245551
1.261356
1.285801
1.321958
1.370242
1.426498
1.482784
1.530145
1.559789
1.563121
1.533810
1.470937
1.379992
1.269720
1.146634
1.013179
0.871273
0.725847
0.584145
0.452704
0.336222
0.238337
0.161247
0.104632
0.066591
0.046232
0.044861
0.063976
0.102152
0.154478
0.214653
0.276612
0.334825
0.385250
0.427176
0.463886
0.501275
0.545929
0.603607
0.677222
0.764794
0.859609
0.952649
1.035595
1.103400
1.155393
1.194031
1.222060
1.240694
1.250764
1.254337
1.253945
1.251484
1.248420
1.246027
1.245663
1.249170
1.258279
1.273803
1.295998
1.324931
1.359310
1.395387
1.428222
1.454050
1.471029
1.478279
1.474459
1.456727
1.421299
1.365622
1.290010
1.197773
1.094590
0.987531
0.883995
0.790536
0.711453
0.647917
0.598312
0.559515
0.528295
0.502368
0.480793
0.463570
0.451312
0.445774
0.450470
0.469795
0.506532
0.559569
0.623506
0.690223
0.751526
0.802133
0.841705
0.874276
0.905739
0.941529
0.985108
1.037288
1.096671
1.159983
1.221143
1.270509
1.296826
1.292389
1.257894
1.202646
1.141119
1.089440
1.061608
1.064906
1.097444
1.149879
1.209768
1.265927
1.311089
1.342409
1.360476
1.367863
1.367455
1.360642
1.346439
1.321970
1.283591
1.228307
1.154484
1.060676
0.944982
0.807376
0.652039
0.487457
0.325410
0.178581
0.057493
-0.030738
-0.082146
-0.096357
-0.077772
-0.035749
0.017092
0.067823
0.105796
0.123871
0.119292
0.095016
0.059413
0.023210
-0.003628
-0.013532
-0.002436
0.029746
0.079681
0.141524
0.208124
0.272517
0.329150
0.374686
0.408534
0.432718
0.450942
0.467242
0.484864
0.505673
0.530006
0.556950
0.585216
0.613877
0.641765
