EVENT_NAME: CENTRAL_ITALY
EVENT_ID: EMSC-20161030_0000029
EVENT_DATE_YYYYMMDD: 20161030
EVENT_TIME_HHMMSS: 064018
EVENT_LATITUDE_DEGREE: 42.8400
EVENT_LONGITUDE_DEGREE: 13.1100
EVENT_DEPTH_KM: 9.4
HYPOCENTER_REFERENCE: INGV-webservice
MAGNITUDE_W: 6.5
MAGNITUDE_W_REFERENCE: INGV-webservice
MAGNITUDE_L: 6.1
MAGNITUDE_L_REFERENCE: INGV-webservice
FOCAL_MECHANISM: NF
NETWORK: IT
STATION_CODE: ACC
STATION_NAME: Accumoli
STATION_LATITUDE_DEGREE: 42.695999
STATION_LONGITUDE_DEGREE: 13.242000
STATION_ELEVATION_M: 922
LOCATION: 
SENSOR_DEPTH_M: 
VS30_M/S: 
SITE_CLASSIFICATION_EC8: A*
MORPHOLOGIC_CLASSIFICATION: 
EPICENTRAL_DISTANCE_KM: 19.3
EARTHQUAKE_BACKAZIMUTH_DEGREE: 326.0
DATE_TIME_FIRST_SAMPLE_YYYYMMDD_HHMMSS: 20161030_064005.559
DATE_TIME_FIRST_SAMPLE_PRECISION: milliseconds
SAMPLING_INTERVAL_S: 0.005000
NDATA: 12000
DURATION_S: 60.000
STREAM: HGZ
UNITS: cm/s
INSTRUMENT: sensor = Unknown [Unknown] | digitizer = Unknown [Unknown]
INSTRUMENT_ANALOG/DIGITAL: D
INSTRUMENTAL_FREQUENCY_HZ: 
INSTRUMENTAL_DAMPING: 
FULL_SCALE_G: 
N_BIT_DIGITAL_CONVERTER: 
PGV_CM/S: -23.904937
TIME_PGV_S: 23.050000
BASELINE_CORRECTION: BASELINE REMOVED
FILTER_TYPE: BUTTERWORTH
FILTER_ORDER: 2
LOW_CUT_FREQUENCY_HZ: 0.060
HIGH_CUT_FREQUENCY_HZ: 30.000
LATE/NORMAL_TRIGGERED: NT
DATABASE_VERSION: DYNA 1.0
HEADER_FORMAT: DYNA 1.2
DATA_TYPE: VELOCITY
PROCESSING: manual (Paolucci et al., 2011)
DATA_TIMESTAMP_YYYYMMDD_HHMMSS: 20161101_122856.566
DATA_LICENSE: CC-BY3_0-IT (http://creativecommons.org/licenses/by/3.0/deed.en)
DATA_CITATION: ESM working group (2015), European Strong-Motion database, version 0.1, Network Activity 3: Networking acceleration networks and SM data users. Project NERA (www.nera-eu.org)
DATA_CREATOR: ESM working group
ORIGINAL_DATA_MEDIATOR_CITATION: Ufficio Rischio Sismico e Vulcanico del Dipartimento della Protezione Civile (http://www.protezionecivile.gov.it/)
ORIGINAL_DATA_MEDIATOR: Rete Accelerometrica Nazionale - RAN Download (http://www.mot1.it/randownload/)
ORIGINAL_DATA_CREATOR_CITATION: Italian Strong Motion Network, Italian Civil Protection Department http://www.protezionecivile.gov.it
ORIGINAL_DATA_CREATOR: network: IT (Italian Strong Motion Network); owner: Dipartimento Della Protezione Civile
USER1: /home/dyna/processing-itaca/processing.py /var/www/processing//tmp/Lucia//IT.ACC..HGE.D.20161030.064018.X.ACC.ASC /var/www/processing//tmp/Lucia//IT.ACC..HGN.D.20161030.064018.X.ACC.ASC /var/www/processing//tmp/Lucia//IT.ACC..HGZ.D.20161030.064018.X.ACC.ASC --tmp /var/www/processing//tmp/Lucia/ --le 0.060 --he 30.000 --ln 0.060 --hn 30.000 --lz 0.060 --hz 30.000 --fo 2 --ca -10 --cz 130 --ta 5 --tz 5 --mf 1 --rf 0 --tr NT
USER2: 
USER3: 
USER4: 
USER5: 
[...]
0.324410
0.328997
0.333181
0.335846
0.336686
0.336128
0.335037
0.334453
0.335451
0.339139
0.346738
0.359506
0.378265
0.402584
0.430113
0.456661
0.477165
0.487154
0.484069
0.467969
0.441593
0.409940
0.379467
0.356739
0.346499
0.349712
0.362723
0.378430
0.389215
0.390047
0.379993
0.361659
0.339558
0.318578
0.302928
0.295390
0.296860
0.306423
0.322021
0.341345
0.362446
0.383777
0.403770
0.420431
0.431485
0.435265
0.432070
0.425224
0.420856
0.425658
0.443088
0.470106
0.496887
0.510371
0.500059
0.462925
0.404815
0.337895
0.275673
0.227741
0.196595
0.178265
0.166388
0.156780
0.149443
0.147682
0.156557
0.182192
0.230943
0.306858
0.407859
0.523153
0.634454
0.721533
0.769735
0.775375
0.745633
0.693121
0.629433
0.562401
0.497778
0.441892
0.401409
0.380027
0.375774
0.382107
0.391912
0.400682
0.406669
0.409153
0.407222
0.400235
0.389736
0.381474
0.385076
0.409328
0.454594
0.508021
0.547149
0.551749
0.516638
0.456224
0.397030
0.363371
0.366138
0.400890
0.453475
0.507626
0.550664
0.575636
0.580048
0.563786
0.529093
0.482420
0.435108
0.400269
0.386416
0.392184
0.407115
0.419002
0.422433
0.421946
0.427551
0.446040
0.474384
0.500299
0.510294
0.499450
0.474895
0.449986
0.434247
0.427156
0.419923
0.403532
0.377119
0.350018
0.335297
0.340136
0.361518
0.390525
0.420421
0.450936
0.485325
0.523242
0.556045
0.568837
0.547656
0.486895
0.393203
0.284811
0.186781
0.123742
0.112570
0.157227
0.246721
0.357179
0.459079
0.527578
0.550373
0.529232
0.476643
0.411056
0.352144
0.315908
0.310204
0.332398
0.371118
0.412119
0.445042
0.466908
0.480787
0.491366
0.500188
0.503283
0.493920
0.470424
0.443014
0.431537
0.453189
0.509241
0.581694
0.642685
0.669561
0.655296
0.608771
0.546870
0.484233
0.426406
0.370130
0.310549
0.250141
0.201910
0.183224
0.204895
0.264213
0.346125
0.429528
0.493924
0.524802
0.517916
0.481216
0.432312
0.391685
0.375136
0.389103
0.429822
0.485790
0.543287
0.593677
0.638206
0.685925
0.745705
0.818584
0.895833
0.962675
1.004154
1.010687
0.982274
0.929789
0.871304
0.823983
0.796107
0.784573
0.779249
0.770287
0.752626
0.725267
0.688284
0.642055
0.589713
0.539727
0.504857
0.496924
0.520783
0.571553
0.636828
0.702670
0.760008
0.807311
0.847856
0.884207
0.914714
0.934313
0.937604
0.920806
0.882055
0.822436
0.748609
0.673517
0.611544
0.570853
0.550007
0.541776
0.539967
0.543446
0.555075
0.577152
0.606799
0.634817
0.649817
0.645483
0.625013
0.598177
0.573318
0.551612
0.528067
0.496632
0.454238
0.402351
0.347791
0.302831
0.282533
0.299487
0.359481
0.460799
0.595660
0.750300
0.903718
1.029462
1.102760
1.109206
1.049431
0.937846
0.797565
0.654770
0.533591
0.450917
0.412319
0.411382
0.432943
0.458951
0.475074
0.475947
0.467641
0.466339
0.491947
0.557278
0.658043
0.771322
0.865961
0.919190
0.927841
0.906702
0.877341
0.857066
0.854032
0.867038
0.887178
0.901681
0.899735
0.876973
0.836560
0.788216
0.746360
0.726050
0.736327
0.774690
0.827925
0.880004
0.922025
0.957907
1.003125
1.077832
1.197197
1.362097
1.554234
1.739612
1.880312
1.948585
1.935678
1.853015
1.727708
1.594124
1.484500
1.424611
1.436541
1.541044
1.750445
2.053721
2.407140
2.743416
2.996761
3.125484
3.117904
2.985248
2.752186
2.448759
2.104095
1.744898
1.398561
1.094189
0.857147
0.703074
0.639926
0.675215
0.817019
1.064550
1.396544
1.768855
2.125262
2.415365
2.609041
2.701533
2.710749
2.670333
2.619093
2.586786
2.581428
2.586282
2.567877
2.488736
2.319000
2.045639
1.680114
1.262604
0.857167
0.536119
0.359597
0.358263
0.525211
0.820010
1.182217
1.547900
1.863192
2.091523
2.214180
2.227222
2.139636
1.972976
1.757387
1.523513
1.295900
1.090305
0.913464
0.764864
0.639844
0.532387
0.437491
0.355561
0.301209
0.310677
0.434213
0.709352
1.130588
1.637489
2.132222
2.519095
2.744182
2.813109
2.779752
2.715588
2.678112
2.692544
2.749243
2.812836
2.838322
2.787233
2.637872
2.389673
2.065367
1.712819
1.403009
1.217413
1.223104
1.443373
1.838626
2.311508
2.737435
3.004022
3.037394
2.809849
2.343372
1.718393
1.072336
0.564573
0.313171
0.347321
0.615027
1.029174
1.499137
1.933773
2.248355
2.392625
2.377807
2.275416
2.185629
2.194427
2.342177
2.615214
2.956086
3.283702
3.521937
3.634571
3.649712
3.648561
3.714113
3.873655
4.079178
4.237444
4.263944
4.123191
3.833943
3.448208
3.027976
2.630675
2.297973
2.044767
1.855408
1.694635
1.529334
1.345656
1.150850
0.964475
0.808526
0.701366
0.656237
0.682729
0.788155
0.974298
1.228633
1.518896
1.799041
2.021338
2.146310
2.152079
2.044712
1.859285
1.641522
1.420123
1.196506
0.964576
0.737317
0.546291
0.413777
0.328764
0.248922
0.123486
-0.078230
-0.343970
-0.613102
-0.797414
-0.819189
-0.644402
-0.297680
0.140734
0.557099
0.846652
0.960320
0.927527
0.839184
0.798344
0.866032
1.035142
1.244094
1.411865
1.471681
1.397279
1.221743
1.039921
0.982834
1.168257
1.648175
2.373978
3.195682
3.907379
4.326622
4.362484
4.039356
3.484577
2.889163
2.438871
2.238310
2.273471
2.438412
2.606158
2.690669
2.662863
2.531525
2.320486
2.056157
1.761700
1.454578
1.150342
0.872881
0.661763
0.564793
0.618094
0.828754
1.167533
1.569261
1.943093
2.197712
2.274208
2.166131
1.912107
1.566316
1.167212
0.727572
0.252928
-0.233750
-0.689172
-1.070569
-1.359455
-1.565119
-1.703207
-1.770938
-1.739430
-1.562975
-1.200058
-0.640189
0.076016
0.853856
1.564417
2.085602
2.344138
2.335506
2.118503
1.791360
1.455004
1.174574
0.957798
0.765029
0.546199
0.278850
-0.013850
-0.265607
-0.385640
-0.290854
0.060696
0.651579
1.405533
2.201777
2.902780
3.390300
3.590027
3.472219
3.042436
2.345643
1.485504
0.630259
-0.026055
-0.340202
-0.284003
0.056579
0.543337
1.047718
1.473435
1.755026
1.858577
1.793811
1.629651
1.493023
1.532030
1.850327
2.452741
3.240393
4.052842
4.724251
5.129716
5.215408
5.003719
4.568094
3.993869
3.348983
2.675148
1.996209
1.333259
0.716502
0.188517
-0.202906
-0.419178
-0.444916
-0.295573
-0.018499
0.311315
0.604466
0.783645
0.811446
0.694363
0.458166
0.120628
-0.310452
-0.809917
-1.304269
-1.674554
-1.805698
-1.650934
-1.260547
-0.758698
-0.295941
-0.000484
0.062919
-0.081906
-0.321106
-0.487908
-0.430958
-0.072927
0.565555
1.374864
2.194517
2.870122
3.303474
3.474636
3.436353
3.286914
3.123188
2.988059
2.841551
2.576989
2.081186
1.316041
0.375923
-0.531721
-1.186159
-1.460270
-1.356292
-0.971976
-0.451567
0.052479
0.417742
0.587829
0.580792
0.463840
0.321600
0.235727
0.264655
0.415334
0.621857
0.755004
0.672568
0.290652
-0.361877
-1.134072
-1.796971
-2.125828
-1.978069
-1.330377
-0.283717
0.953814
2.132963
3.062995
3.673021
4.002711
4.145801
4.182497
4.137009
3.982272
3.685301
3.258688
2.774105
2.321602
1.950035
1.648886
1.385793
1.142507
0.910446
0.680299
0.453138
0.248383
0.090565
-0.004005
-0.020094
0.070752
0.302624
0.678028
1.132920
1.548832
1.812961
1.877292
1.774334
1.584795
1.381847
1.192315
1.000325
0.784014
0.558691
0.398152
0.413258
0.700444
1.295668
2.145235
3.097608
3.936811
4.454916
4.526114
4.141455
3.391227
2.423778
1.414674
0.544877
-0.034783
-0.258856
-0.180880
0.068857
0.369112
0.647192
0.864975
1.010156
1.104397
1.197972
1.344953
1.579314
1.901729
2.276336
2.640102
2.921718
3.056977
2.993731
2.697054
2.167209
1.459700
0.677976
-0.071193
-0.723914
-1.253162
-1.612157
-1.707623
-1.460291
-0.896372
-0.171055
0.497374
0.920121
0.993460
0.708356
0.138739
-0.583427
-1.317185
-1.977177
-2.575260
-3.199739
-3.934404
-4.775416
-5.612539
-6.293554
-6.722768
-6.906276
-6.912131
-6.807211
-6.632233
-6.406618
-6.134179
-5.817970
-5.495190
-5.253501
-5.189986
-5.344046
-5.668966
-6.063205
-6.430949
-6.726665
-6.955141
-7.135150
-7.262521
-7.301319
-7.204586
-6.949596
-6.570722
-6.170452
-5.891521
-5.857132
-6.114796
-6.615514
-7.229330
-7.781446
-8.101075
-8.080730
-7.723816
-7.133555
-6.434371
-5.704755
-4.985126
-4.315190
-3.747179
-3.339696
-3.133106
-3.106404
-3.148238
-3.079223
-2.730508
-2.033913
-1.049894
0.082404
1.197030
2.115318
2.673140
2.775715
2.439447
1.802148
1.090058
0.541970
0.333842
0.542024
1.139807
2.015371
3.012931
3.980971
4.791761
5.329325
5.486877
5.193984
4.446225
3.318955
1.976738
0.668315
-0.328417
-0.813457
-0.754975
-0.281893
0.392096
1.045802
1.536014
1.851222
2.075740
2.322392
2.691221
3.242592
3.978428
4.841481
5.741200
6.597787
7.372261
8.054540
8.620270
9.001651
9.099980
8.825025
8.137849
7.082594
5.794331
4.478624
3.370232
2.681551
2.547611
2.975804
3.824132
4.838906
5.744714
6.320962
6.421924
5.982092
5.038002
3.731045
2.272745
0.892293
-0.218405
-0.948464
-1.282840
-1.292803
-1.122904
-0.962894
-0.984502
-1.279648
-1.851248
-2.648383
-3.602816
-4.645117
-5.703940
-6.700146
-7.548079
-8.169854
-8.518128
-8.596620
-8.469091
-8.251380
-8.082198
-8.074337
-8.264945
-8.594681
-8.932554
-9.134424
-9.100346
-8.800062
-8.266938
-7.579118
-6.833644
-6.110693
-5.437482
-4.773330
-4.036839
-3.169060
-2.186182
-1.175780
-0.240887
0.551985
1.179955
1.648079
1.976433
2.190882
2.320547
2.388115
2.386835
2.273414
1.991039
1.503601
0.820643
0.008609
-0.818634
-1.543317
-2.096603
-2.470157
-2.682664
-2.746764
-2.666106
-2.451463
-2.134604
-1.769661
-1.422361
-1.156884
-1.029552
-1.084755
-1.342818
-1.784481
-2.349835
-2.955947
-3.512939
-3.925062
-4.097708
-3.975364
-3.592571
-3.088123
-2.657077
-2.470056
-2.622547
-3.150814
-4.072009
-5.375698
-6.968137
-8.644752
-10.143933
-11.242826
-11.813613
-11.820585
-11.300832
-10.346340
-9.071829
-7.603138
-6.106985
-4.784500
-3.806280
-3.268933
-3.198902
-3.568490
-4.316390
-5.372329
-6.652396
-8.017500
-9.256571
-10.139055
-10.496377
-10.264548
-9.474830
-8.242809
-6.781184
-5.385097
-4.358190
-3.918608
-4.131996
-4.925866
-6.204471
-7.934640
-10.090131
-12.553349
-15.092325
-17.404202
-19.185341
-20.203844
-20.342699
-19.601915
-18.117140
-16.197411
-14.273535
-12.743784
-11.829798
-11.530179
-11.691898
-12.141934
-12.767896
-13.496054
-14.235057
-14.878724
-15.361871
-15.692433
-15.934208
-16.167538
-16.439869
-16.729387
-16.959421
-17.046503
-16.934973
-16.613188
-16.127953
-15.585262
-15.115142
-14.815638
-14.716248
-14.775567
-14.903066
-14.998700
-14.995561
-14.873701
-14.632937
-14.252734
-13.679396
-12.861266
-11.813582
-10.656358
-9.582777
-8.777292
-8.346258
-8.307645
-8.615781
-9.170510
-9.818722
-10.382173
-10.710985
-10.732539
-10.458875
-9.952915
-9.297867
-8.592119
-7.949132
-7.487534
-7.315361
-7.509136
-8.085674
-8.971332
-9.989611
-10.903346
-11.516407
-11.762192
-11.692811
-11.397958
-10.960188
-10.460787
-9.975718
-9.559172
-9.240423
-9.025583
-8.897987
-8.828411
-8.795749
-8.806099
-8.899980
-9.136829
-9.550798
-10.098551
-10.638941
-10.968478
-10.900924
-10.338828
-9.293907
-7.892397
-6.384911
-5.085182
-4.231413
-3.884449
-3.927455
-4.127620
-4.207486
-3.927630
-3.182254
-2.030751
-0.630590
0.828773
2.151445
3.182857
3.858887
4.202149
4.283985
4.174580
3.893648
3.395539
2.605463
1.483874
0.087587
-1.397249
-2.674402
-3.414723
-3.361364
-2.416038
-0.679342
1.556352
3.873674
5.863965
7.268109
8.019598
8.162163
7.762486
6.922900
5.823501
4.696950
3.749390
3.089470
2.717670
2.577162
2.612760
2.791857
3.089323
3.465840
3.858178
4.184019
4.358403
4.315819
4.026989
3.500015
2.770756
1.896528
0.956729
0.053379
-0.695118
-1.171827
-1.292252
-1.039935
-0.485238
0.233926
0.959008
1.549890
1.905093
1.973650
1.751662
1.258067
0.512131
-0.457744
-1.564034
-2.605317
-3.284655
-3.332958
-2.620812
-1.151804
0.935518
3.305144
5.508064
7.209163
8.280949
8.701121
8.473087
7.680071
6.530448
5.290834
4.171969
3.249144
2.453051
1.638903
0.707542
-0.305991
-1.255166
-1.985559
-2.415192
-2.522923
-2.326647
-1.949714
-1.633510
-1.600712
-1.968656
-2.795720
-4.083862
-5.693169
-7.328986
-8.667131
-9.513828
-9.876661
-9.913449
-9.837045
-9.851589
-10.107767
-10.659397
-11.451216
-12.347567
-13.175113
-13.767206
-14.010122
-13.870801
-13.379442
-12.580649
-11.502924
-10.174723
-8.667633
-7.123429
-5.731803
-4.669402
-4.056338
-3.970420
-4.488973
-5.686673
-7.569759
-10.009439
-12.743925
-15.461254
-17.899759
-19.879465
-21.266411
-21.954348
-21.904291
-21.198374
-20.050701
-18.755850
-17.600817
-16.789936
-16.413401
-16.456959
-16.829548
-17.385527
-17.940376
-18.295448
-18.278448
-17.782700
-16.788443
-15.375824
-13.730330
-12.114613
-10.803981
-10.017973
-9.878819
-10.404676
-11.526634
-13.116669
-15.013034
-17.036345
-19.009195
-20.782675
-22.246122
-23.309639
-23.886515
-23.904938
-23.334791
-22.198942
-20.584908
-18.661976
-16.652922
-14.763700
-13.133507
-11.822492
-10.823942
-10.094381
-9.584131
-9.248971
-9.047800
-8.944320
-8.911341
-8.924339
-8.947584
-8.926836
-8.795319
-8.495870
-8.006379
-7.345332
-6.575232
-5.817305
-5.226053
-4.915638
-4.913593
-5.176137
-5.625592
-6.168823
-6.695494
-7.083254
-7.225911
-7.070117
-6.636280
-6.015238
-5.347177
-4.790578
-4.484035
-4.504738
-4.838969
-5.379755
-5.950703
-6.352563
-6.427207
-6.103909
-5.391781
-4.349135
-3.077424
-1.713798
-0.390678
0.803520
1.830973
2.689523
3.394501
3.964194
4.411818
4.747623
4.988917
5.167302
5.324299
5.499522
5.722140
6.006399
6.344837
6.703153
7.025720
7.247598
7.305470
7.151483
6.767613
6.169265
5.403673
4.542139
3.650474
2.764322
1.904705
1.108236
0.437839
-0.025169
-0.202423
-0.048620
0.431285
1.200703
2.224053
3.462395
4.839609
6.236863
7.524418
8.589600
9.344682
9.736403
9.769034
9.521110
9.135677
8.784995
8.620678
8.725642
9.080348
9.554416
9.952033
10.109973
9.977590
9.619691
9.158293
8.703478
8.319455
8.038680
7.885570
7.873492
7.988149
8.193791
8.455264
8.724557
8.909584
8.902754
8.650452
8.164693
7.470099
6.585934
5.571756
4.555043
3.701034
3.159490
3.023561
3.312487
3.967157
4.847036
5.749376
6.473250
6.892255
6.981501
6.801150
6.467969
6.122053
5.883341
5.816211
5.928422
6.196250
6.584810
7.049670
7.531194
7.958549
8.265763
8.407097
8.363173
8.142637
7.782974
7.347195
6.916935
6.586421
6.455260
6.613639
7.122674
8.001967
9.226787
10.723883
12.372178
14.028050
15.561356
16.874037
17.905191
18.633204
19.068995
19.241161
19.187527
18.957403
18.608175
18.185284
17.701313
17.139332
16.480579
15.728527
14.907708
14.042351
13.138067
12.182037
11.152302
10.024512
8.779629
7.416444
5.965547
4.497911
3.120477
1.957235
1.124090
0.706490
0.748152
1.255762
2.199466
3.491376
4.976841
6.471324
7.811022
8.879597
9.618307
10.033039
10.187076
10.162897
10.012891
9.750799
9.386949
8.953357
8.497938
8.070452
7.716002
7.475597
7.385905
7.474923
7.754965
8.212020
8.794478
9.410230
9.940176
10.265234
10.292151
9.965040
9.263544
8.200998
6.827913
5.231495
3.525753
1.837382
0.295542
-0.975874
-1.872466
-2.329379
-2.337710
-1.950429
-1.277027
-0.466768
0.321970
0.959558
1.371577
1.538628
1.474386
1.203525
0.751180
0.138766
-0.615828
-1.489476
-2.440967
-3.406004
-4.305378
-5.061733
-5.614710
-5.927069
-5.984935
-5.800100
-5.411188
-4.874187
-4.249090
-3.594767
-2.965573
-2.401208
-1.916088
-1.497307
-1.111793
-0.715283
-0.260048
0.293257
0.962208
1.738103
2.591300
3.478864
4.349107
5.145293
5.814679
6.320992
6.651846
6.818066
6.849162
6.788227
6.684807
6.586858
6.540001
6.596150
6.814981
7.244761
7.898472
8.748180
9.734339
10.773833
11.766064
12.608171
13.220810
13.568879
13.659503
13.520031
13.179638
12.669878
12.030784
11.307308
10.548777
9.820997
9.210499
8.801262
8.633840
8.686254
8.914656
9.309684
9.875748
10.565838
11.279560
11.916111
12.409440
12.729389
12.872465
12.857826
12.725548
12.528668
12.318211
12.133074
12.001324
11.943726
11.973001
12.088905
12.272878
12.487827
12.683389
12.804837
12.804047
12.652766
12.357598
11.967831
11.564857
11.231259
11.019911
10.952112
11.036033
11.268773
11.620316
12.031492
12.435267
12.779490
13.035546
13.196737
13.273693
13.288535
13.267672
13.237745
13.228822
13.275091
13.402177
13.611914
13.879666
14.159334
14.389236
14.506271
14.469676
14.277858
13.963862
13.574802
13.153610
12.735428
12.356711
12.064905
11.914106
11.943770
12.156074
12.510061
12.934870
13.350698
13.688128
13.904843
13.999665
14.017799
14.038116
14.141284
14.373129
14.724719
15.139322
15.538750
15.855273
16.055182
16.141138
16.134747
16.059635
15.941054
15.810048
15.691217
15.581750
15.452692
15.282853
15.089313
14.912421
14.772157
14.649678
14.510776
14.341212
14.158108
13.990144
13.852805
13.746876
13.678710
13.674259
13.764675
13.957815
14.228774
14.534489
14.831386
15.083292
15.261091
15.339581
15.297556
15.124259
14.826894
14.430722
13.970888
13.482039
12.993028
12.528553
12.113195
11.773035
11.530511
11.392424
11.340870
11.337109
11.335803
11.300344
11.215958
11.097016
10.978407
10.892302
10.851646
10.851281
10.873300
10.889900
10.868114
10.774699
10.584546
10.296602
9.942581
9.575971
9.250880
9.005385
8.856129
8.802076
8.828532
8.907119
8.997070
9.053091
9.037132
8.926097
8.713501
8.408528
8.027643
7.576358
7.040518
6.406383
5.691758
4.952358
4.259097
3.667373
3.198515
2.851719
2.635100
2.566700
2.635368
2.775888
2.888495
2.879081
2.696637
2.355401
1.927695
1.504714
1.147411
0.867674
0.657361
0.527100
0.500232
0.567780
0.665581
0.698050
0.576592
0.249036
-0.285717
-0.987214
-1.801447
-2.678265
-3.564336
-4.399331
-5.138011
-5.770292
-6.296848
-6.683807
-6.875423
-6.856458
-6.672330
-6.398471
-6.114209
-5.890595
-5.778058
-5.795727
-5.931550
-6.154190
-6.428007
-6.723866
-7.023750
-7.320086
-7.612607
-7.905618
-8.205368
-8.514844
-8.826229
-9.118653
-9.368930
-9.569870
-9.739736
-9.913123
-10.122708
-10.386470
-10.702778
-11.051737
-11.402740
-11.723418
-11.983068
-12.151235
-12.200767
-12.117623
-11.908150
-11.598367
-11.228187
-10.844043
-10.491039
-10.204603
-10.002821
-9.884140
-9.834753
-9.841793
-9.900714
-10.009353
-10.155720
-10.313412
-10.448529
-10.528753
-10.526810
