EVENT_NAME: CENTRAL_ITALY
EVENT_ID: EMSC-20161030_0000029
EVENT_DATE_YYYYMMDD: 20161030
EVENT_TIME_HHMMSS: 064018
EVENT_LATITUDE_DEGREE: 42.8400
EVENT_LONGITUDE_DEGREE: 13.1100
EVENT_DEPTH_KM: 9.4
HYPOCENTER_REFERENCE: INGV-webservice
MAGNITUDE_W: 6.5
MAGNITUDE_W_REFERENCE: INGV-webservice
MAGNITUDE_L: 6.1
MAGNITUDE_L_REFERENCE: INGV-webservice
FOCAL_MECHANISM: NF
NETWORK: IT
STATION_CODE: ACC
STATION_NAME: Accumoli
STATION_LATITUDE_DEGREE: 42.695999
STATION_LONGITUDE_DEGREE: 13.242000
STATION_ELEVATION_M: 922
LOCATION: 
SENSOR_DEPTH_M: 
VS30_M/S: 
SITE_CLASSIFICATION_EC8: A*
MORPHOLOGIC_CLASSIFICATION: 
EPICENTRAL_DISTANCE_KM: 19.3
EARTHQUAKE_BACKAZIMUTH_DEGREE: 326.0
DATE_TIME_FIRST_SAMPLE_YYYYMMDD_HHMMSS: 20161030_064005.559
DATE_TIME_FIRST_SAMPLE_PRECISION: milliseconds
SAMPLING_INTERVAL_S: 0.005000
NDATA: 12000
DURATION_S: 60.000
STREAM: HGZ
UNITS: cm
INSTRUMENT: sensor = Unknown [Unknown] | digitizer = Unknown [Unknown]
INSTRUMENT_ANALOG/DIGITAL: D
INSTRUMENTAL_FREQUENCY_HZ: 
INSTRUMENTAL_DAMPING: 
FULL_SCALE_G: 
N_BIT_DIGITAL_CONVERTER: 
PGD_CM: -10.546572
TIME_PGD_S: 23.305000
BASELINE_CORRECTION: BASELINE REMOVED
FILTER_TYPE: BUTTERWORTH
FILTER_ORDER: 2
LOW_CUT_FREQUENCY_HZ: 0.060
HIGH_CUT_FREQUENCY_HZ: 30.000
LATE/NORMAL_TRIGGERED: NT
DATABASE_VERSION: DYNA 1.0
HEADER_FORMAT: DYNA 1.2
DATA_TYPE: DISPLACEMENT
PROCESSING: manual (Paolucci et al., 2011)
DATA_TIMESTAMP_YYYYMMDD_HHMMSS: 20161101_122856.566
DATA_LICENSE: CC-BY3_0-IT (http://creativecommons.org/licenses/by/3.0/deed.en)
DATA_CITATION: ESM working group (2015), European Strong-Motion database, version 0.1, Network Activity 3: Networking acceleration networks and SM data users. Project NERA (www.nera-eu.org)
DATA_CREATOR: ESM working group
ORIGINAL_DATA_MEDIATOR_CITATION: Ufficio Rischio Sismico e Vulcanico del Dipartimento della Protezione Civile (http://www.protezionecivile.gov.it/)
ORIGINAL_DATA_MEDIATOR: Rete Accelerometrica Nazionale - RAN Download (http://www.mot1.it/randownload/)
ORIGINAL_DATA_CREATOR_CITATION: Italian Strong Motion Network, Italian Civil Protection Department http://www.protezionecivile.gov.it
ORIGINAL_DATA_CREATOR: network: IT (Italian Strong Motion Network); owner: Dipartimento Della Protezione Civile
USER1: /home/dyna/processing-itaca/processing.py /var/www/processing//tmp/Lucia//IT.ACC..HGE.D.20161030.064018.X.ACC.ASC /var/www/processing//tmp/Lucia//IT.ACC..HGN.D.20161030.064018.X.ACC.ASC /var/www/processing//tmp/Lucia//IT.ACC..HGZ.D.20161030.064018.X.ACC.ASC --tmp /var/www/processing//tmp/Lucia/ --le 0.060 --he 30.000 --ln 0.060 --hn 30.000 --lz 0.060 --hz 30.000 --fo 2 --ca -10 --cz 130 --ta 5 --tz 5 --mf 1 --rf 0 --tr NT
USER2: 
USER3: 
USER4: 
USER5: 
[...]
1.820414e+00
1.835434e+00
1.850621e+00
1.864670e+00
1.876387e+00
1.884979e+00
1.890340e+00
1.893163e+00
1.894729e+00
1.896466e+00
1.899541e+00
1.904687e+00
1.912182e+00
1.921851e+00
1.933093e+00
1.945056e+00
1.956945e+00
1.968322e+00
1.979250e+00
1.990223e+00
2.001933e+00
2.015009e+00
2.029790e+00
2.046208e+00
2.063818e+00
2.081991e+00
2.100240e+00
2.118482e+00
2.137053e+00
2.156421e+00
2.176817e+00
2.198004e+00
2.219324e+00
2.239940e+00
2.259110e+00
2.276351e+00
2.291491e+00
2.304644e+00
2.316134e+00
2.326358e+00
2.335635e+00
2.344108e+00
2.351755e+00
2.358483e+00
2.364237e+00
2.369059e+00
2.373102e+00
2.376609e+00
2.379890e+00
2.383304e+00
2.387244e+00
2.392116e+00
2.398259e+00
2.405854e+00
2.414849e+00
2.424956e+00
2.435687e+00
2.446447e+00
2.456671e+00
2.465967e+00
2.474175e+00
2.481276e+00
2.487258e+00
2.492081e+00
2.495768e+00
2.498499e+00
2.500568e+00
2.502212e+00
2.503456e+00
2.504074e+00
2.503683e+00
2.501963e+00
2.498897e+00
2.494910e+00
2.490814e+00
2.487592e+00
2.486104e+00
2.486808e+00
2.489593e+00
2.493826e+00
2.498628e+00
2.503266e+00
2.507462e+00
2.511453e+00
2.515783e+00
2.520959e+00
2.527180e+00
2.534239e+00
2.541597e+00
2.548584e+00
2.554692e+00
2.559892e+00
2.564806e+00
2.570647e+00
2.578888e+00
2.590758e+00
2.606737e+00
2.626274e+00
2.647907e+00
2.669719e+00
2.689916e+00
2.707339e+00
2.721785e+00
2.733979e+00
2.745170e+00
2.756538e+00
2.768730e+00
2.781761e+00
2.795214e+00
2.808528e+00
2.821186e+00
2.832788e+00
2.843069e+00
2.851878e+00
2.859151e+00
2.864902e+00
2.869267e+00
2.872575e+00
2.875399e+00
2.878490e+00
2.882634e+00
2.888471e+00
2.896318e+00
2.906033e+00
2.917022e+00
2.928393e+00
2.939223e+00
2.948784e+00
2.956615e+00
2.962452e+00
2.966089e+00
2.967354e+00
2.966185e+00
2.962739e+00
2.957387e+00
2.950589e+00
2.942764e+00
2.934248e+00
2.925393e+00
2.916696e+00
2.908881e+00
2.902881e+00
2.899680e+00
2.900060e+00
2.904329e+00
2.912151e+00
2.922579e+00
2.934300e+00
2.945977e+00
2.956570e+00
2.965527e+00
2.972802e+00
2.978675e+00
2.983464e+00
2.987289e+00
2.990020e+00
2.991414e+00
2.991345e+00
2.990017e+00
2.988089e+00
2.986634e+00
2.986938e+00
2.990196e+00
2.997223e+00
3.008232e+00
3.022746e+00
3.039698e+00
3.057648e+00
3.075009e+00
3.090221e+00
3.101949e+00
3.109377e+00
3.112528e+00
3.112398e+00
3.110697e+00
3.109277e+00
3.109560e+00
3.112276e+00
3.117515e+00
3.124882e+00
3.133657e+00
3.142950e+00
3.151919e+00
3.160067e+00
3.167533e+00
3.175193e+00
3.184444e+00
3.196708e+00
3.212910e+00
3.233174e+00
3.256795e+00
3.282444e+00
3.308521e+00
3.333540e+00
3.356380e+00
3.376349e+00
3.393094e+00
3.406470e+00
3.416451e+00
3.423117e+00
3.426700e+00
3.427643e+00
3.426628e+00
3.424532e+00
3.422308e+00
3.420830e+00
3.420737e+00
3.422294e+00
3.425316e+00
3.429234e+00
3.433292e+00
3.436763e+00
3.439054e+00
3.439657e+00
3.438105e+00
3.434055e+00
3.427534e+00
3.419161e+00
3.410133e+00
3.401878e+00
3.395575e+00
3.391782e+00
3.390302e+00
3.390300e+00
3.390614e+00
3.390205e+00
3.388599e+00
3.386160e+00
3.384005e+00
3.383640e+00
3.386468e+00
3.393343e+00
3.404315e+00
3.418666e+00
3.435183e+00
3.452556e+00
3.469738e+00
3.486173e+00
3.501789e+00
3.516729e+00
3.530937e+00
3.543822e+00
3.554227e+00
3.560808e+00
3.562687e+00
3.560029e+00
3.554098e+00
3.546797e+00
3.540015e+00
3.535155e+00
3.532897e+00
3.533160e+00
3.535248e+00
3.538188e+00
3.541092e+00
3.543411e+00
3.545019e+00
3.546197e+00
3.547521e+00
3.549597e+00
3.552707e+00
3.556482e+00
3.559845e+00
3.561298e+00
3.559488e+00
3.553818e+00
3.544833e+00
3.534204e+00
3.524314e+00
3.517662e+00
3.516243e+00
3.521012e+00
3.531677e+00
3.546992e+00
3.565357e+00
3.585371e+00
3.606100e+00
3.627012e+00
3.647697e+00
3.667609e+00
3.686035e+00
3.702329e+00
3.716199e+00
3.727807e+00
3.737557e+00
3.745802e+00
3.752731e+00
3.758443e+00
3.762995e+00
3.766397e+00
3.768663e+00
3.769905e+00
3.770357e+00
3.770337e+00
3.770237e+00
3.770591e+00
3.772104e+00
3.775494e+00
3.781158e+00
3.788903e+00
3.797967e+00
3.807354e+00
3.816226e+00
3.824150e+00
3.831059e+00
3.837020e+00
3.842022e+00
3.845942e+00
3.848736e+00
3.850726e+00
3.852793e+00
3.856295e+00
3.862773e+00
3.873499e+00
3.888987e+00
3.908671e+00
3.930946e+00
3.953577e+00
3.974284e+00
3.991240e+00
4.003359e+00
4.010432e+00
4.013157e+00
4.012983e+00
4.011688e+00
4.010784e+00
4.011128e+00
4.012974e+00
4.016210e+00
4.020535e+00
4.025585e+00
4.031107e+00
4.037097e+00
4.043822e+00
4.051719e+00
4.061227e+00
4.072609e+00
4.085809e+00
4.100418e+00
4.115703e+00
4.130672e+00
4.144157e+00
4.154993e+00
4.162291e+00
4.165681e+00
4.165325e+00
4.161706e+00
4.155440e+00
4.147379e+00
4.138841e+00
4.131540e+00
4.127058e+00
4.126202e+00
4.128689e+00
4.133290e+00
4.138257e+00
4.141799e+00
4.142493e+00
4.139576e+00
4.132990e+00
4.123104e+00
4.110227e+00
4.094229e+00
4.074557e+00
4.050680e+00
4.022617e+00
3.991149e+00
3.957535e+00
3.923004e+00
3.888443e+00
3.854407e+00
3.821246e+00
3.789213e+00
3.758542e+00
3.729452e+00
3.701976e+00
3.675709e+00
3.649759e+00
3.623039e+00
3.594694e+00
3.564378e+00
3.532223e+00
3.498590e+00
3.463814e+00
3.428138e+00
3.391826e+00
3.355319e+00
3.319296e+00
3.284548e+00
3.251695e+00
3.220842e+00
3.191385e+00
3.162099e+00
3.131525e+00
3.098448e+00
3.062301e+00
3.023394e+00
2.982888e+00
2.942485e+00
2.903866e+00
2.868198e+00
2.836026e+00
2.807502e+00
2.782576e+00
2.761001e+00
2.742265e+00
2.725566e+00
2.709901e+00
2.694369e+00
2.678627e+00
2.663231e+00
2.649579e+00
2.639409e+00
2.634160e+00
2.634572e+00
2.640557e+00
2.651133e+00
2.664499e+00
2.678378e+00
2.690575e+00
2.699586e+00
2.705036e+00
2.707746e+00
2.709415e+00
2.712125e+00
2.717824e+00
2.727901e+00
2.742966e+00
2.762871e+00
2.786829e+00
2.813476e+00
2.840910e+00
2.866880e+00
2.889111e+00
2.905706e+00
2.915590e+00
2.918932e+00
2.917289e+00
2.913222e+00
2.909447e+00
2.908038e+00
2.909998e+00
2.915227e+00
2.922907e+00
2.932163e+00
2.942542e+00
2.954154e+00
2.967610e+00
2.983823e+00
3.003715e+00
3.027923e+00
3.056629e+00
3.089618e+00
3.126479e+00
3.166752e+00
3.209853e+00
3.254861e+00
3.300361e+00
3.344486e+00
3.385176e+00
3.420589e+00
3.449560e+00
3.471953e+00
3.488804e+00
3.502212e+00
3.514950e+00
3.529829e+00
3.548950e+00
3.573144e+00
3.601868e+00
3.633473e+00
3.665582e+00
3.695493e+00
3.720683e+00
3.739338e+00
3.750702e+00
3.755163e+00
3.754071e+00
3.749329e+00
3.742915e+00
3.736451e+00
3.730836e+00
3.726022e+00
3.721099e+00
3.714701e+00
3.705445e+00
3.692203e+00
3.674189e+00
3.650963e+00
3.622444e+00
3.588943e+00
3.551202e+00
3.510353e+00
3.467763e+00
3.424779e+00
3.382434e+00
3.341177e+00
3.300766e+00
3.260394e+00
3.219070e+00
3.176096e+00
3.131433e+00
3.085761e+00
3.040260e+00
2.996259e+00
2.954925e+00
2.917029e+00
2.882861e+00
2.852307e+00
2.825120e+00
2.801253e+00
2.781069e+00
2.765224e+00
2.754293e+00
2.748414e+00
2.747210e+00
2.749969e+00
2.755869e+00
2.764110e+00
2.773992e+00
2.784946e+00
2.796549e+00
2.808490e+00
2.820424e+00
2.831791e+00
2.841746e+00
2.849264e+00
2.853367e+00
2.853410e+00
2.849317e+00
2.841600e+00
2.831117e+00
2.818767e+00
2.805353e+00
2.791620e+00
2.778289e+00
2.766032e+00
2.755359e+00
2.746510e+00
2.739399e+00
2.733614e+00
2.728466e+00
2.723043e+00
2.716329e+00
2.707406e+00
2.695657e+00
2.680877e+00
2.663313e+00
2.643687e+00
2.623199e+00
2.603322e+00
2.585359e+00
2.569918e+00
2.556633e+00
2.544283e+00
2.531170e+00
2.515416e+00
2.495056e+00
2.468177e+00
2.433337e+00
2.390113e+00
2.339393e+00
2.283179e+00
2.224111e+00
2.165008e+00
2.108504e+00
2.056772e+00
2.011413e+00
1.973397e+00
1.942863e+00
1.918940e+00
1.899909e+00
1.883564e+00
1.867569e+00
1.849727e+00
1.828145e+00
1.801283e+00
1.768021e+00
1.727934e+00
1.681651e+00
1.630956e+00
1.578474e+00
1.527151e+00
1.479777e+00
1.438563e+00
1.404657e+00
1.377732e+00
1.355941e+00
1.336348e+00
1.315688e+00
1.291058e+00
1.260036e+00
1.220363e+00
1.169912e+00
1.107145e+00
1.031684e+00
9.446627e-01
8.487360e-01
7.477168e-01
6.460033e-01
5.479937e-01
4.574080e-01
3.764209e-01
3.050533e-01
2.413343e-01
1.821854e-01
1.245345e-01
6.607497e-02
5.365305e-03
-5.847418e-02
-1.259544e-01
-1.971297e-01
-2.715234e-01
-3.483327e-01
-4.267949e-01
-5.064659e-01
-5.873036e-01
-6.695029e-01
-7.531499e-01
-8.379470e-01
-9.231795e-01
-1.007854e+00
-1.090920e+00
-1.171560e+00
-1.249486e+00
-1.325062e+00
-1.399140e+00
-1.472722e+00
-1.546599e+00
-1.621115e+00
-1.696108e+00
-1.771086e+00
-1.845454e+00
-1.918619e+00
-1.989883e+00
-2.058280e+00
-2.122586e+00
-2.181654e+00
-2.234936e+00
-2.282850e+00
-2.326736e+00
-2.368467e+00
-2.410006e+00
-2.453085e+00
-2.498937e+00
-2.548031e+00
-2.599942e+00
-2.653497e+00
-2.707159e+00
-2.759454e+00
-2.809218e+00
-2.855708e+00
-2.898668e+00
-2.938414e+00
-2.975851e+00
-3.012428e+00
-3.049974e+00
-3.090402e+00
-3.135259e+00
-3.185207e+00
-3.239724e+00
-3.297306e+00
-3.356117e+00
-3.414581e+00
-3.471571e+00
-3.526372e+00
-3.578675e+00
-3.628554e+00
-3.676350e+00
-3.722552e+00
-3.767680e+00
-3.812170e+00
-3.856312e+00
-3.900291e+00
-3.944321e+00
-3.988821e+00
-4.034505e+00
-4.082259e+00
-4.132752e+00
-4.185947e+00
-4.240789e+00
-4.295294e+00
-4.346988e+00
-4.393457e+00
-4.432919e+00
-4.464844e+00
-4.490270e+00
-4.511427e+00
-4.530849e+00
-4.550486e+00
-4.571125e+00
-4.592162e+00
-4.611800e+00
-4.627711e+00
-4.637865e+00
-4.641018e+00
-4.636874e+00
-4.626117e+00
-4.610203e+00
-4.590908e+00
-4.569898e+00
-4.548478e+00
-4.527605e+00
-4.508136e+00
-4.491159e+00
-4.478131e+00
-4.470712e+00
-4.470274e+00
-4.477260e+00
-4.490632e+00
-4.507706e+00
-4.524513e+00
-4.536593e+00
-4.539990e+00
-4.532208e+00
-4.512840e+00
-4.483520e+00
-4.447179e+00
-4.407081e+00
-4.366270e+00
-4.327458e+00
-4.292843e+00
-4.263726e+00
-4.240241e+00
-4.221494e+00
-4.206047e+00
-4.192459e+00
-4.179573e+00
-4.166509e+00
-4.152550e+00
-4.137103e+00
-4.119774e+00
-4.100483e+00
-4.079563e+00
-4.057771e+00
-4.036192e+00
-4.016057e+00
-3.998557e+00
-3.984703e+00
-3.975220e+00
-3.970437e+00
-3.970170e+00
-3.973645e+00
-3.979505e+00
-3.985966e+00
-3.991165e+00
-3.993592e+00
-3.992422e+00
-3.987627e+00
-3.979878e+00
-3.970352e+00
-3.960484e+00
-3.951725e+00
-3.945435e+00
-3.942874e+00
-3.945163e+00
-3.952983e+00
-3.966010e+00
-3.982433e+00
-3.999098e+00
-4.012202e+00
-4.017961e+00
-4.013284e+00
-3.996758e+00
-3.969217e+00
-3.933172e+00
-3.891767e+00
-3.848261e+00
-3.805896e+00
-3.767496e+00
-3.734843e+00
-3.708389e+00
-3.687529e+00
-3.671284e+00
-3.659018e+00
-3.650824e+00
-3.647286e+00
-3.648816e+00
-3.655092e+00
-3.665020e+00
-3.677096e+00
-3.689710e+00
-3.701343e+00
-3.711092e+00
-3.719260e+00
-3.727263e+00
-3.737106e+00
-3.751085e+00
-3.771504e+00
-3.799970e+00
-3.836615e+00
-3.879951e+00
-3.927520e+00
-3.976903e+00
-4.026470e+00
-4.075656e+00
-4.124914e+00
-4.175452e+00
-4.228749e+00
-4.286006e+00
-4.347743e+00
-4.413619e+00
-4.482455e+00
-4.552506e+00
-4.621860e+00
-4.688757e+00
-4.751660e+00
-4.809175e+00
-4.860048e+00
-4.903386e+00
-4.939004e+00
-4.967663e+00
-4.991010e+00
-5.011291e+00
-5.031143e+00
-5.053588e+00
-5.082022e+00
-5.119870e+00
-5.169918e+00
-5.233637e+00
-5.310943e+00
-5.400442e+00
-5.499840e+00
-5.606172e+00
-5.715943e+00
-5.825465e+00
-5.931457e+00
-6.031710e+00
-6.125489e+00
-6.213494e+00
-6.297443e+00
-6.379510e+00
-6.461795e+00
-6.545943e+00
-6.632870e+00
-6.722572e+00
-6.814050e+00
-6.905442e+00
-6.994355e+00
-7.078298e+00
-7.155177e+00
-7.223828e+00
-7.284401e+00
-7.338421e+00
-7.388511e+00
-7.437905e+00
-7.489929e+00
-7.547562e+00
-7.613145e+00
-7.688210e+00
-7.773392e+00
-7.868438e+00
-7.972351e+00
-8.083582e+00
-8.200130e+00
-8.319563e+00
-8.439087e+00
-8.555761e+00
-8.666756e+00
-8.769681e+00
-8.862990e+00
-8.946255e+00
-9.020074e+00
-9.085741e+00
-9.144854e+00
-9.198973e+00
-9.249445e+00
-9.297366e+00
-9.343611e+00
-9.388850e+00
-9.433571e+00
-9.478128e+00
-9.522750e+00
-9.567488e+00
-9.612122e+00
-9.656098e+00
-9.698578e+00
-9.738610e+00
-9.775336e+00
-9.808212e+00
-9.837299e+00
-9.863429e+00
-9.888007e+00
-9.912575e+00
-9.938456e+00
-9.966584e+00
-9.997428e+00
-1.003091e+01
-1.006632e+01
-1.010245e+01
-1.013780e+01
-1.017098e+01
-1.020106e+01
-1.022780e+01
-1.025175e+01
-1.027417e+01
-1.029669e+01
-1.032089e+01
-1.034779e+01
-1.037754e+01
-1.040930e+01
-1.044144e+01
-1.047196e+01
-1.049892e+01
-1.052066e+01
-1.053605e+01
-1.054462e+01
-1.054657e+01
-1.054255e+01
-1.053340e+01
-1.051995e+01
-1.050298e+01
-1.048316e+01
-1.046110e+01
-1.043736e+01
-1.041242e+01
-1.038658e+01
-1.035996e+01
-1.033246e+01
-1.030385e+01
-1.027382e+01
-1.024209e+01
-1.020858e+01
-1.017345e+01
-1.013721e+01
-1.010068e+01
-1.006493e+01
-1.003109e+01
-1.000024e+01
-9.973224e+00
-9.950513e+00
-9.932261e+00
-9.918440e+00
-9.908916e+00
-9.903375e+00
-9.901186e+00
-9.901311e+00
-9.902324e+00
-9.902567e+00
-9.900410e+00
-9.894407e+00
-9.883286e+00
-9.865974e+00
-9.841776e+00
-9.810592e+00
-9.772970e+00
-9.730022e+00
-9.683299e+00
-9.634617e+00
-9.585771e+00
-9.538166e+00
-9.492488e+00
-9.448563e+00
-9.405459e+00
-9.361831e+00
-9.316429e+00
-9.268657e+00
-9.218897e+00
-9.168347e+00
-9.118459e+00
-9.070361e+00
-9.024569e+00
-8.981052e+00
-8.939455e+00
-8.899261e+00
-8.859833e+00
-8.820466e+00
-8.780525e+00
-8.739556e+00
-8.697280e+00
-8.653657e+00
-8.609109e+00
-8.564595e+00
-8.521343e+00
-8.480520e+00
-8.443169e+00
-8.410239e+00
-8.382381e+00
-8.359605e+00
-8.341100e+00
-8.325303e+00
-8.310185e+00
-8.293623e+00
-8.273787e+00
-8.249552e+00
-8.220805e+00
-8.188439e+00
-8.153977e+00
-8.119070e+00
-8.085064e+00
-8.052724e+00
-8.022114e+00
-7.992697e+00
-7.963616e+00
-7.933974e+00
-7.902993e+00
-7.870069e+00
-7.834820e+00
-7.797164e+00
-7.757372e+00
-7.716043e+00
-7.674007e+00
-7.632191e+00
-7.591478e+00
-7.552563e+00
-7.515827e+00
-7.481243e+00
-7.448311e+00
-7.416034e+00
-7.382966e+00
-7.347353e+00
-7.307343e+00
-7.261209e+00
-7.207590e+00
-7.145729e+00
-7.075588e+00
-6.997782e+00
-6.913412e+00
-6.823886e+00
-6.730720e+00
-6.635375e+00
-6.539169e+00
-6.443231e+00
-6.348444e+00
-6.255403e+00
-6.164477e+00
-6.075970e+00
-5.990274e+00
-5.907871e+00
-5.829228e+00
-5.754690e+00
-5.684478e+00
-5.618787e+00
-5.557877e+00
-5.502116e+00
-5.451993e+00
-5.408095e+00
-5.371013e+00
-5.341185e+00
-5.318696e+00
-5.303093e+00
-5.293307e+00
-5.287686e+00
-5.284154e+00
-5.280413e+00
-5.274134e+00
-5.263137e+00
-5.245680e+00
-5.220796e+00
-5.188439e+00
-5.149384e+00
-5.104986e+00
-5.056895e+00
-5.006730e+00
-4.955794e+00
-4.904980e+00
-4.854915e+00
-4.806161e+00
-4.759227e+00
-4.714460e+00
-4.671970e+00
-4.631618e+00
-4.593038e+00
-4.555660e+00
-4.518730e+00
-4.481356e+00
-4.442581e+00
-4.401521e+00
-4.357548e+00
-4.310497e+00
-4.260796e+00
-4.209470e+00
-4.158009e+00
-4.108184e+00
-4.061866e+00
-4.020862e+00
-3.986722e+00
-3.960564e+00
-3.942936e+00
-3.933749e+00
-3.932271e+00
-3.937150e+00
-3.946513e+00
-3.958160e+00
-3.969848e+00
-3.979600e+00
-3.985986e+00
-3.988319e+00
-3.986710e+00
-3.981912e+00
-3.975054e+00
-3.967361e+00
-3.959989e+00
-3.953971e+00
-3.950215e+00
-3.949521e+00
-3.952601e+00
-3.960048e+00
-3.972253e+00
-3.989283e+00
-4.010810e+00
-4.036118e+00
-4.064192e+00
-4.093827e+00
-4.123752e+00
-4.152752e+00
-4.179808e+00
-4.204179e+00
-4.225425e+00
-4.243399e+00
-4.258226e+00
-4.270232e+00
-4.279813e+00
-4.287299e+00
-4.292858e+00
-4.296435e+00
-4.297735e+00
-4.296269e+00
-4.291458e+00
-4.282767e+00
-4.269811e+00
-4.252416e+00
-4.230671e+00
-4.204944e+00
-4.175871e+00
-4.144266e+00
-4.111007e+00
-4.076916e+00
-4.042671e+00
-4.008730e+00
-3.975306e+00
-3.942371e+00
-3.909671e+00
-3.876690e+00
-3.842616e+00
-3.806392e+00
-3.766899e+00
-3.723158e+00
-3.674487e+00
-3.620618e+00
-3.561787e+00
-3.498746e+00
-3.432642e+00
-3.364798e+00
-3.296501e+00
-3.228900e+00
-3.163002e+00
-3.099653e+00
-3.039499e+00
-2.982962e+00
-2.930218e+00
-2.881113e+00
-2.835061e+00
-2.791055e+00
-2.747885e+00
-2.704454e+00
-2.659881e+00
-2.613332e+00
-2.563954e+00
-2.511125e+00
-2.454727e+00
-2.395146e+00
-2.333099e+00
-2.269452e+00
-2.205090e+00
-2.140801e+00
-2.077173e+00
-2.014529e+00
-1.952938e+00
-1.892273e+00
-1.832266e+00
-1.772548e+00
-1.712683e+00
-1.652238e+00
-1.590874e+00
-1.528435e+00
-1.465018e+00
-1.400994e+00
-1.336973e+00
-1.273710e+00
-1.211922e+00
-1.152082e+00
-1.094258e+00
-1.038102e+00
-9.830023e-01
-9.282417e-01
-8.730616e-01
-8.167177e-01
-7.586161e-01
-6.984587e-01
-6.362823e-01
-5.723849e-01
-5.072071e-01
-4.412235e-01
-3.748550e-01
-3.084123e-01
-2.420740e-01
-1.758852e-01
-1.097411e-01
-4.336567e-02
2.364522e-02
9.170479e-02
1.611031e-01
2.318998e-01
3.038460e-01
3.763773e-01
4.487257e-01
5.201150e-01
5.899343e-01
6.578083e-01
7.235764e-01
7.872535e-01
8.490371e-01
9.093616e-01
9.689321e-01
1.028651e+00
1.089431e+00
1.151982e+00
1.216656e+00
1.283409e+00
1.351850e+00
1.421374e+00
1.491373e+00
1.561462e+00
1.631652e+00
1.702359e+00
1.774224e+00
1.847848e+00
1.923545e+00
2.001238e+00
2.080515e+00
2.160791e+00
2.241496e+00
2.322170e+00
2.402468e+00
2.482173e+00
2.561224e+00
2.639680e+00
2.717588e+00
2.794852e+00
2.871266e+00
2.946713e+00
3.021275e+00
3.095136e+00
3.168384e+00
3.240938e+00
3.312644e+00
3.383435e+00
3.453385e+00
3.522649e+00
3.591384e+00
3.659777e+00
3.728149e+00
3.796972e+00
3.866761e+00
3.937905e+00
4.010577e+00
4.084734e+00
4.160151e+00
4.236456e+00
4.313154e+00
4.389642e+00
4.465263e+00
4.539398e+00
4.611551e+00
4.681406e+00
4.748816e+00
4.813781e+00
4.876424e+00
4.936990e+00
4.995855e+00
5.053507e+00
5.110470e+00
5.167174e+00
5.223859e+00
5.280538e+00
5.337040e+00
5.393120e+00
5.448605e+00
5.503497e+00
5.557959e+00
5.612217e+00
5.666473e+00
5.720840e+00
