EVENT_NAME: L_AQUILA
EVENT_ID: IT-2009-0009
EVENT_DATE_YYYYMMDD: 20090406
EVENT_TIME_HHMMSS: 013240
EVENT_LATITUDE_DEGREE: 42.3420
EVENT_LONGITUDE_DEGREE: 13.3800
EVENT_DEPTH_KM: 8.3
HYPOCENTER_REFERENCE: INGV-CNT_Seismic_Bulletin
MAGNITUDE_W: 6.3
MAGNITUDE_W_REFERENCE: RCMT-INGV
MAGNITUDE_L: 5.9
MAGNITUDE_L_REFERENCE: INGV-CNT_Seismic_Bulletin
FOCAL_MECHANISM: NF
NETWORK: IT
STATION_CODE: AQK
STATION_NAME: L'AQUILA - V. ATERNO - AQUIL PARK ING.
STATION_LATITUDE_DEGREE: 42.344967
STATION_LONGITUDE_DEGREE: 13.400949
STATION_ELEVATION_M: 726
LOCATION: 
SENSOR_DEPTH_M: 0.0
VS30_M/S: 705
SITE_CLASSIFICATION_EC8: B
MORPHOLOGIC_CLASSIFICATION: SL
EPICENTRAL_DISTANCE_KM: 1.8
EARTHQUAKE_BACKAZIMUTH_DEGREE: 259.2
DATE_TIME_FIRST_SAMPLE_YYYYMMDD_HHMMSS: 20090406_013212.000
DATE_TIME_FIRST_SAMPLE_PRECISION: seconds
SAMPLING_INTERVAL_S: 0.005000
NDATA: 20001
DURATION_S: 100.005
STREAM: HNZ
UNITS: cm/s
INSTRUMENT: sensor = FBA-3 [Kinemetrics] | digitizer = Etna [Kinemetrics]
INSTRUMENT_ANALOG/DIGITAL: D
INSTRUMENTAL_FREQUENCY_HZ: 204.000
INSTRUMENTAL_DAMPING: 0.700000
FULL_SCALE_G: 1.0
N_BIT_DIGITAL_CONVERTER: 18
PGV_CM/S: -20.070084
TIME_PGV_S: 31.685000
BASELINE_CORRECTION: BASELINE REMOVED
FILTER_TYPE: BUTTERWORTH
FILTER_ORDER: 2
LOW_CUT_FREQUENCY_HZ: 0.100
HIGH_CUT_FREQUENCY_HZ: 40.000
LATE/NORMAL_TRIGGERED: NT
DATABASE_VERSION: DYNA 1.0
HEADER_FORMAT: DYNA 1.2
DATA_TYPE: VELOCITY
PROCESSING: manual (Paolucci et al., 2011)
DATA_TIMESTAMP_YYYYMMDD_HHMMSS: 
DATA_LICENSE: CC-BY3_0-IT (http://creativecommons.org/licenses/by/3.0/deed.en)
DATA_CITATION: ESM working group (2015), European Strong-Motion database, version 0.1, Network Activity 3: Networking acceleration networks and SM data users. Project NERA (www.nera-eu.org)
DATA_CREATOR: ESM working group
ORIGINAL_DATA_MEDIATOR_CITATION: data obtained within the DPC-INGV data exchange agreements
ORIGINAL_DATA_MEDIATOR: Archive of Italian Department of Civil Protection
ORIGINAL_DATA_CREATOR_CITATION: Italian Strong Motion Network, Italian Civil Protection Department http://www.protezionecivile.gov.it
ORIGINAL_DATA_CREATOR: network: IT (Italian Strong Motion Network); owner: Dipartimento Della Protezione Civile
USER1: 
USER2: 
USER3: 
USER4: 
USER5: 
[...]
-0.117374
-0.117294
-0.117208
-0.117122
-0.117032
-0.116932
-0.116828
-0.116740
-0.116669
-0.116594
-0.116502
-0.116398
-0.116295
-0.116196
-0.116094
-0.115989
-0.115882
-0.115776
-0.115667
-0.115550
-0.115427
-0.115300
-0.115173
-0.115051
-0.114936
-0.114821
-0.114697
-0.114561
-0.114421
-0.114283
-0.114142
-0.113997
-0.113853
-0.113721
-0.113601
-0.113478
-0.113342
-0.113196
-0.113050
-0.112908
-0.112766
-0.112621
-0.112472
-0.112322
-0.112170
-0.112015
-0.111852
-0.111676
-0.111491
-0.111307
-0.111131
-0.110959
-0.110782
-0.110603
-0.110424
-0.110243
-0.110053
-0.109855
-0.109654
-0.109456
-0.109262
-0.109066
-0.108861
-0.108653
-0.108447
-0.108240
-0.108027
-0.107813
-0.107600
-0.107385
-0.107164
-0.106936
-0.106704
-0.106474
-0.106249
-0.106023
-0.105798
-0.105579
-0.105359
-0.105129
-0.104888
-0.104646
-0.104401
-0.104151
-0.103901
-0.103662
-0.103432
-0.103197
-0.102953
-0.102705
-0.102452
-0.102192
-0.101926
-0.101655
-0.101378
-0.101098
-0.100818
-0.100540
-0.100263
-0.099988
-0.099716
-0.099445
-0.099172
-0.098894
-0.098618
-0.098343
-0.098060
-0.097770
-0.097478
-0.097187
-0.096893
-0.096594
-0.096291
-0.095983
-0.095665
-0.095338
-0.095009
-0.094685
-0.094365
-0.094049
-0.093731
-0.093403
-0.093067
-0.092729
-0.092394
-0.092064
-0.091735
-0.091404
-0.091069
-0.090727
-0.090369
-0.089998
-0.089623
-0.089247
-0.088868
-0.088488
-0.088111
-0.087735
-0.087351
-0.086961
-0.086574
-0.086196
-0.085824
-0.085453
-0.085078
-0.084696
-0.084309
-0.083916
-0.083522
-0.083136
-0.082755
-0.082367
-0.081965
-0.081552
-0.081132
-0.080709
-0.080287
-0.079871
-0.079459
-0.079042
-0.078619
-0.078192
-0.077759
-0.077317
-0.076872
-0.076433
-0.075999
-0.075560
-0.075111
-0.074655
-0.074196
-0.073735
-0.073268
-0.072795
-0.072320
-0.071846
-0.071373
-0.070903
-0.070434
-0.069961
-0.069481
-0.068995
-0.068504
-0.068010
-0.067517
-0.067031
-0.066553
-0.066070
-0.065570
-0.065058
-0.064543
-0.064024
-0.063500
-0.062975
-0.062450
-0.061922
-0.061394
-0.060868
-0.060343
-0.059814
-0.059275
-0.058729
-0.058179
-0.057634
-0.057095
-0.056557
-0.056016
-0.055471
-0.054920
-0.054357
-0.053789
-0.053224
-0.052661
-0.052094
-0.051522
-0.050947
-0.050368
-0.049782
-0.049189
-0.048593
-0.047994
-0.047392
-0.046789
-0.046181
-0.045560
-0.044925
-0.044290
-0.043667
-0.043058
-0.042449
-0.041832
-0.041211
-0.040589
-0.039958
-0.039316
-0.038668
-0.038018
-0.037357
-0.036683
-0.036011
-0.035349
-0.034680
-0.033995
-0.033306
-0.032628
-0.031955
-0.031277
-0.030593
-0.029907
-0.029219
-0.028521
-0.027812
-0.027098
-0.026387
-0.025679
-0.024970
-0.024255
-0.023534
-0.022806
-0.022070
-0.021332
-0.020601
-0.019879
-0.019158
-0.018427
-0.017681
-0.016923
-0.016164
-0.015409
-0.014658
-0.013902
-0.013132
-0.012356
-0.011585
-0.010817
-0.010039
-0.009246
-0.008448
-0.007659
-0.006876
-0.006085
-0.005279
-0.004462
-0.003636
-0.002805
-0.001980
-0.001164
-0.000348
0.000478
0.001309
0.002135
0.002958
0.003792
0.004639
0.005489
0.006336
0.007183
0.008034
0.008895
0.009765
0.010638
0.011511
0.012391
0.013279
0.014178
0.015080
0.015976
0.016865
0.017754
0.018647
0.019545
0.020450
0.021364
0.022286
0.023214
0.024144
0.025073
0.026004
0.026944
0.027897
0.028861
0.029827
0.030793
0.031762
0.032735
0.033711
0.034687
0.035658
0.036632
0.037617
0.038608
0.039599
0.040594
0.041594
0.042600
0.043614
0.044636
0.045664
0.046692
0.047716
0.048739
0.049769
0.050809
0.051857
0.052908
0.053960
0.055011
0.056066
0.057126
0.058185
0.059239
0.060292
0.061355
0.062436
0.063529
0.064626
0.065722
0.066822
0.067932
0.069053
0.070182
0.071309
0.072428
0.073545
0.074672
0.075806
0.076938
0.078069
0.079206
0.080349
0.081499
0.082656
0.083817
0.084978
0.086139
0.087307
0.088484
0.089672
0.090869
0.092067
0.093258
0.094446
0.095644
0.096858
0.098082
0.099304
0.100515
0.101725
0.102945
0.104178
0.105415
0.106650
0.107890
0.109140
0.110393
0.111649
0.112909
0.114176
0.115453
0.116737
0.118023
0.119312
0.120603
0.121899
0.123193
0.124486
0.125787
0.127103
0.128430
0.129756
0.131077
0.132393
0.133713
0.135048
0.136397
0.137753
0.139110
0.140466
0.141825
0.143188
0.144558
0.145937
0.147325
0.148717
0.150111
0.151507
0.152909
0.154319
0.155730
0.157141
0.158557
0.159984
0.161419
0.162856
0.164297
0.165741
0.167188
0.168636
0.170090
0.171553
0.173028
0.174512
0.176001
0.177489
0.178980
0.180480
0.181993
0.183510
0.185028
0.186550
0.188077
0.189605
0.191133
0.192670
0.194217
0.195767
0.197315
0.198870
0.200436
0.202006
0.203567
0.205124
0.206692
0.208277
0.209872
0.211472
0.213073
0.214675
0.216280
0.217891
0.219509
0.221132
0.222761
0.224397
0.226036
0.227677
0.229325
0.230978
0.232632
0.234288
0.235958
0.237647
0.239348
0.241053
0.242759
0.244467
0.246180
0.247898
0.249622
0.251351
0.253075
0.254788
0.256496
0.258211
0.259944
0.261692
0.263447
0.265201
0.266961
0.268737
0.270530
0.272329
0.274124
0.275914
0.277706
0.279509
0.281324
0.283148
0.284977
0.286806
0.288630
0.290451
0.292274
0.294108
0.295957
0.297813
0.299670
0.301529
0.303397
0.305281
0.307179
0.309081
0.310979
0.312872
0.314772
0.316685
0.318599
0.320504
0.322412
0.324338
0.326277
0.328218
0.330157
0.332101
0.334053
0.336013
0.337981
0.339961
0.341947
0.343930
0.345909
0.347893
0.349890
0.351896
0.353897
0.355892
0.357894
0.359912
0.361944
0.363981
0.366020
0.368062
0.370105
0.372149
0.374198
0.376260
0.378331
0.380406
0.382487
0.384582
0.386694
0.388812
0.390925
0.393035
0.395148
0.397266
0.399391
0.401531
0.403684
0.405840
0.407996
0.410155
0.412315
0.414475
0.416638
0.418812
0.421003
0.423210
0.425420
0.427627
0.429834
0.432051
0.434278
0.436510
0.438742
0.440981
0.443234
0.445504
0.447784
0.450059
0.452321
0.454576
0.456843
0.459128
0.461429
0.463736
0.466044
0.468351
0.470658
0.472972
0.475300
0.477640
0.479988
0.482344
0.484706
0.487065
0.489415
0.491765
0.494130
0.496511
0.498895
0.501278
0.503666
0.506064
0.508468
0.510872
0.513279
0.515694
0.518125
0.520566
0.523008
0.525452
0.527900
0.530351
0.532804
0.535262
0.537726
0.540196
0.542678
0.545178
0.547690
0.550198
0.552694
0.555190
0.557697
0.560217
0.562745
0.565280
0.567823
0.570370
0.572910
0.575445
0.577985
0.580538
0.583099
0.585665
0.588240
0.590829
0.593435
0.596051
0.598669
0.601289
0.603908
0.606531
0.609168
0.611818
0.614475
0.617140
0.619808
0.622471
0.625125
0.627780
0.630447
0.633126
0.635808
0.638492
0.641184
0.643886
0.646588
0.649291
0.651998
0.654710
0.657430
0.660161
0.662904
0.665654
0.668406
0.671159
0.673918
0.676693
0.679485
0.682280
0.685067
0.687853
0.690643
0.693439
0.696241
0.699051
0.701874
0.704710
0.707555
0.710405
0.713260
0.716106
0.718942
0.721779
0.724625
0.727481
0.730348
0.733223
0.736099
0.738976
0.741855
0.744738
0.747627
0.750532
0.753454
0.756388
0.759330
0.762274
0.765211
0.768142
0.771079
0.774027
0.776984
0.779947
0.782922
0.785910
0.788903
0.791892
0.794875
0.797860
0.800857
0.803871
0.806902
0.809941
0.812982
0.816020
0.819062
0.822109
0.825157
0.828198
0.831236
0.834281
0.837337
0.840403
0.843477
0.846558
0.849644
0.852732
0.855820
0.858911
0.862005
0.865111
0.868231
0.871365
0.874507
0.877653
0.880798
0.883942
0.887091
0.890252
0.893421
0.896590
0.899757
0.902924
0.906099
0.909283
0.912483
0.915697
0.918914
0.922129
0.925344
0.928568
0.931800
0.935040
0.938290
0.941546
0.944797
0.948043
0.951292
0.954554
0.957833
0.961116
0.964390
0.967661
0.970936
0.974219
0.977513
0.980818
0.984131
0.987447
0.990770
0.994101
0.997436
1.000768
1.004097
1.007434
1.010780
1.014127
1.017474
1.020825
1.024185
1.027552
1.030922
1.034295
1.037671
1.041051
1.044436
1.047832
1.051238
1.054651
1.058068
1.061488
1.064909
1.068329
1.071749
1.075170
1.078593
1.082017
1.085446
1.088884
1.092331
1.095780
1.099230
1.102687
1.106156
1.109631
1.113110
1.116602
1.120110
1.123620
1.127127
1.130637
1.134155
1.137673
1.141183
1.144691
1.148209
1.151738
1.155273
1.158818
1.162370
1.165924
1.169475
1.173024
1.176572
1.180124
1.183685
1.187257
1.190834
1.194412
1.197994
1.201580
1.205168
1.208757
1.212348
1.215942
1.219546
1.223166
1.226798
1.230433
1.234070
1.237710
1.241352
1.244991
1.248624
1.252260
1.255907
1.259566
1.263222
1.266872
1.270527
1.274198
1.277879
1.281559
1.285238
1.288921
1.292612
1.296305
1.299996
1.303687
1.307380
1.311079
1.314787
1.318502
1.322218
1.325931
1.329637
1.333339
1.337045
1.340767
1.344505
1.348252
1.352000
1.355748
1.359497
1.363248
1.367004
1.370767
1.374536
1.378307
1.382077
1.385845
1.389615
1.393393
1.397174
1.400951
1.404727
1.408508
1.412296
1.416087
1.419881
1.423682
1.427489
1.431297
1.435101
1.438909
1.442724
1.446537
1.450353
1.454175
1.457994
1.461803
1.465615
1.469446
1.473289
1.477129
1.480967
1.484809
1.488653
1.492491
1.496330
1.500179
1.504034
1.507887
1.511738
1.515591
1.519448
1.523308
1.527173
1.531047
1.534926
1.538802
1.542673
1.546547
1.550429
1.554312
1.558194
1.562076
1.565951
1.569822
1.573696
1.577578
1.581464
1.585351
1.589242
1.593137
1.597034
1.600936
1.604844
1.608751
1.612651
1.616547
1.620451
1.624362
1.628269
1.632171
1.636073
1.639982
1.643894
1.647813
1.651739
1.655670
1.659594
1.663512
1.667434
1.671368
1.675308
1.679247
1.683182
1.687114
1.691043
1.694964
1.698879
1.702801
1.706737
1.710677
1.714606
1.718528
1.722454
1.726390
1.730329
1.734268
1.738200
1.742125
1.746046
1.749970
1.753895
1.757819
1.761740
1.765654
1.769572
1.773509
1.777456
1.781395
1.785318
1.789237
1.793161
1.797088
1.801012
1.804935
1.808861
1.812793
1.816724
1.820648
1.824564
1.828485
1.832418
1.836357
1.840284
1.844194
1.848096
1.852003
1.855916
1.859835
1.863760
1.867689
1.871619
1.875542
1.879459
1.883374
1.887292
1.891213
1.895131
1.899045
1.902959
1.906868
1.910767
1.914655
1.918542
1.922440
1.926346
1.930247
1.934132
1.938007
1.941880
1.945755
1.949633
1.953514
1.957393
1.961274
1.965158
1.969040
1.972916
1.976789
1.980664
1.984539
1.988408
1.992263
1.996108
1.999957
2.003812
2.007670
2.011524
2.015374
2.019222
2.023069
2.026914
2.030754
2.034586
2.038404
2.042211
2.046018
2.049829
2.053640
2.057456
2.061276
2.065045
2.068676
2.072135
2.075460
2.078705
2.082012
2.085576
2.089207
2.091849
2.091381
2.084584
2.067542
2.038390
2.001189
1.965304
1.940030
1.928765
1.925802
1.919583
1.901999
1.874898
1.850108
1.844388
1.866667
1.909386
1.955898
1.990618
2.006997
2.012641
2.018050
2.024994
2.034290
2.049853
2.072377
2.102605
2.139278
2.165767
2.163092
2.138787
2.116065
2.103824
2.100746
2.109768
2.131789
2.160762
2.191485
2.218251
2.226122
2.205197
2.169677
2.142095
2.130067
2.126208
2.112068
2.066164
1.986640
1.902276
1.855804
1.874496
1.948972
2.039131
2.099499
2.103124
2.061213
2.025387
2.051658
2.146869
2.254154
2.305027
2.285407
2.233711
2.187312
2.162083
2.159813
2.158133
2.118475
2.031127
1.936489
1.890694
1.917384
1.995818
2.084825
2.145064
2.152684
2.113883
2.058967
2.026512
2.062249
2.191925
2.379686
2.553539
2.664136
2.694286
2.652925
2.580672
2.517575
2.464352
2.405136
2.345352
2.307166
2.300956
2.308445
2.294457
2.225381
2.092156
1.944213
1.857222
1.841804
1.842921
1.824500
1.792016
1.761272
1.761213
1.825938
1.941049
2.041392
2.081245
2.072459
2.062528
2.094978
2.170703
2.244519
2.274184
2.266532
2.264440
2.292513
2.332316
2.352172
2.333761
2.266176
2.148693
1.997768
1.825406
1.631197
1.421543
1.200382
0.942637
0.599087
0.129972
-0.463814
-1.134026
-1.791425
-2.340297
-2.773898
-3.217468
-3.816868
-4.626420
-5.608834
-6.660056
-7.641391
-8.426483
-8.910726
-9.047541
-8.951478
-8.896504
-9.106143
-9.528561
-9.882394
-9.947266
-9.732706
-9.368551
-8.973101
-8.667989
-8.564988
-8.620226
-8.598292
-8.295628
-7.747773
-7.160020
-6.704025
-6.424230
-6.262915
-6.120229
-5.922370
-5.661515
-5.405796
-5.269469
-5.266904
-5.220183
-4.950101
-4.472803
-3.910576
-3.353274
-2.861489
-2.466109
-2.118540
-1.737335
-1.355156
-1.133513
-1.169676
-1.375068
-1.592461
-1.764481
-1.946542
-2.176266
-2.388546
-2.502345
-2.526450
-2.509875
-2.474094
-2.440381
-2.413675
-2.348714
-2.228754
-2.135956
-2.193793
-2.452086
-2.814130
-3.084960
-3.135353
-3.024399
-2.923556
-2.919860
-2.962449
-2.990493
-2.997650
-3.001542
-3.062742
-3.249880
-3.528128
-3.780022
-3.883677
-3.730390
-3.323805
-2.861373
-2.596719
-2.674620
-3.121958
-3.865550
-4.731415
-5.520165
-6.109927
-6.519447
-6.928314
-7.575787
-8.583851
-9.893207
-11.307340
-12.569570
-13.494590
-14.058010
-14.363270
-14.587010
-14.905060
-15.362980
-15.832760
-16.115231
-16.075180
-15.738880
-15.297960
-14.984880
-14.944800
-15.163410
-15.435980
-15.539760
-15.491970
-15.511360
-15.805890
-16.463671
-17.395630
-18.370880
-19.183670
-19.739120
-20.019690
-20.070080
-19.963520
-19.743679
-19.413879
-18.967190
-18.493389
-18.189409
-18.068979
-17.827271
-17.217220
-16.361610
-15.543470
-14.910150
-14.502750
-14.316100
-14.159500
-13.673560
-12.626780
-11.080880
-9.303578
-7.657723
-6.472285
-5.895713
-5.893671
-6.345282
-7.091024
-7.929971
-8.614688
-8.909236
-8.730881
-8.225753
-7.692156
-7.483043
-7.872511
-8.843215
-10.034030
-10.944360
-11.232650
-10.936760
-10.425460
-10.086980
-10.040020
-10.101580
-10.000690
-9.600450
-8.946886
-8.245236
-7.791432
-7.760343
-8.051889
-8.390228
-8.527333
-8.406525
-8.180126
-8.031722
-8.024443
-8.085868
-8.022899
-7.646190
-6.974636
-6.202867
-5.455153
-4.676968
-3.739916
-2.613045
-1.457835
-0.519193
0.087836
0.462412
0.850610
1.487260
2.407575
3.414924
4.262447
4.826656
5.124874
5.262915
5.383202
5.597163
5.936203
6.327934
6.578408
6.449277
5.801737
4.641004
3.117232
1.542852
0.270237
-0.513404
-0.867556
-1.051985
-1.356592
-1.884465
-2.532726
-3.167899
-3.747100
-4.270796
-4.667005
-4.778245
-4.478751
-3.800454
-2.966628
-2.255649
-1.771934
-1.390858
-0.886317
-0.084883
0.933692
1.797635
2.171088
2.059976
1.754349
1.598418
1.824190
2.444084
3.215327
3.827458
4.154960
4.227802
4.072445
3.703643
3.174477
2.591561
2.130710
2.013843
2.377576
3.108567
3.839214
4.169385
3.927742
3.217527
2.239504
1.135762
0.002891
-1.045290
-1.915868
-2.624181
-3.297971
-4.049837
-4.829980
-5.471222
-5.884778
-6.124304
-6.296645
-6.492740
-6.704282
-6.735460
-6.320834
-5.386692
-4.126013
-2.823036
-1.659416
-0.663373
0.210507
0.962208
1.524271
1.850851
1.948771
1.825876
1.482790
0.932710
0.221040
-0.519782
-1.096891
-1.438591
-1.683987
-2.012388
-2.463068
-2.965808
-3.448942
-3.883174
-4.307364
-4.828773
-5.510099
-6.255763
-6.868211
-7.153114
-6.952503
-6.234139
-5.205616
-4.220156
-3.516787
-3.092677
-2.808587
-2.534469
-2.173274
-1.650754
-0.995424
-0.383684
0.002122
0.111196
-0.045788
-0.459816
-1.016076
-1.467796
-1.627609
-1.513700
-1.243138
-0.860258
-0.361412
0.179295
0.607390
0.805561
0.790321
0.691747
0.674428
0.906291
1.518399
2.496388
3.650917
4.750445
5.652790
6.318031
6.750094
6.951236
6.929350
6.689240
6.186627
5.362191
4.273159
3.159048
2.304790
1.827913
1.670153
1.762214
2.066509
2.476768
2.799887
2.871560
2.666493
2.310119
2.018968
2.014900
2.388730
2.969296
3.417837
3.531366
3.380841
3.146520
2.949193
2.876415
3.025233
3.397391
3.844689
4.228611
4.545226
4.824582
5.003095
4.960798
4.647761
4.122731
3.486459
2.854775
2.384375
2.208421
2.291227
2.410574
2.349222
2.070763
1.673581
1.243314
0.824520
0.502786
0.410463
0.617549
1.096876
1.801878
2.664501
3.531021
4.234831
4.733853
5.106494
5.459206
5.894059
6.508409
7.338562
8.277095
9.088915
9.559220
9.618773
9.326879
8.796546
8.156139
7.529634
7.041727
6.831675
6.984475
7.451892
8.112261
8.862228
9.597761
10.199750
10.604590
10.826640
10.902070
10.871690
10.817160
10.886520
11.259150
12.025930
13.065460
14.062350
14.690620
14.795830
14.420950
13.719940
12.880030
12.065490
11.343430
10.659910
9.941355
9.189852
8.441144
7.693833
6.925145
6.140327
5.387604
4.734419
4.218034
3.805633
3.416320
3.002453
2.601543
2.284058
2.056707
1.850709
1.607796
1.342109
1.115394
1.002510
1.087774
1.423565
1.964387
2.589673
3.196432
3.738738
4.209139
4.622881
5.003643
5.367538
5.725445
6.089731
6.452331
6.756550
6.927024
6.926155
6.739745
6.343507
5.750485
5.041990
4.294456
3.533888
2.792300
2.143030
1.648140
1.310405
1.105358
1.033275
1.103840
1.286436
1.509701
1.705449
1.844649
1.942225
2.026600
2.097542
2.120467
2.062009
1.916123
1.700749
1.450233
1.201668
0.966315
0.712621
0.380572
-0.068129
-0.589831
-1.076360
-1.461339
-1.770282
-2.042738
-2.256765
-2.361989
-2.348217
-2.254699
-2.138261
-2.048627
-2.013656
-2.030625
-2.063377
-2.044218
-1.907554
-1.648411
-1.332276
-1.045992
-0.858782
-0.809597
-0.894649
-1.066815
-1.254812
-1.378127
-1.367929
-1.215619
-0.994981
-0.804769
-0.699896
-0.697317
-0.810411
-1.034242
-1.326533
-1.651561
-2.021080
-2.437342
-2.804329
-2.962372
-2.831044
-2.452725
-1.884425
-1.151406
-0.327159
0.459475
1.135086
1.717411
2.221116
2.615839
2.913415
3.205500
3.554545
3.921671
4.252718
4.557404
4.845199
5.053133
5.118282
5.074449
4.993667
4.875792
4.668859
4.352905
3.940025
3.422867
2.782948
2.041224
1.247825
0.435125
-0.364159
-1.082078
-1.665799
-2.151314
-2.643382
-3.224913
-3.900863
-4.615748
-5.301992
-5.895195
-6.307346
-6.434698
-6.227687
-5.718795
-4.973086
-4.063896
-3.087550
-2.144460
-1.310517
-0.640707
-0.173591
0.070446
0.086161
-0.095335
-0.372134
-0.598729
-0.676834
-0.616291
-0.524642
-0.539470
-0.725130
-1.020043
-1.286586
-1.389798
-1.246623
-0.846839
-0.232909
0.535283
1.379412
2.199944
2.917500
3.513127
4.016806
4.472700
4.931134
5.444193
6.025220
6.626655
7.186558
7.661507
7.990429
8.100383
8.000810
7.822489
7.726187
7.797446
8.031384
8.376874
8.766283
9.100183
9.265746
9.261962
9.260635
9.434999
9.768227
10.103660
10.319500
10.407930
10.438440
10.468160
10.483230
10.431120
10.287000
10.064670
9.783321
9.460414
9.127072
8.826492
8.597142
8.455260
8.390395
8.374826
8.377007
8.378266
8.375532
8.343313
8.203619
7.881493
7.378872
6.759702
6.104665
5.503878
5.031636
4.698542
4.461381
4.279367
4.133917
4.011483
3.901873
3.813764
3.776852
3.817397
3.925415
4.056596
4.177659
4.297309
4.440629
4.608032
4.774484
4.908297
4.967350
4.906095
4.716507
4.432648
4.090482
3.728188
3.399114
