EVENT_NAME: CENTRAL_ITALY
EVENT_ID: EMSC-20161026_0000077
EVENT_DATE_YYYYMMDD: 20161026
EVENT_TIME_HHMMSS: 171036
EVENT_LATITUDE_DEGREE: 42.8802
EVENT_LONGITUDE_DEGREE: 13.1275
EVENT_DEPTH_KM: 8.7
HYPOCENTER_REFERENCE: INGV-CNT_Seismic_Bulletin
MAGNITUDE_W: 5.4
MAGNITUDE_W_REFERENCE: INGV-webservice
MAGNITUDE_L: 5.4
MAGNITUDE_L_REFERENCE: INGV-CNT_Seismic_Bulletin
FOCAL_MECHANISM: NF
NETWORK: IT
STATION_CODE: ACC
STATION_NAME: Accumoli
STATION_LATITUDE_DEGREE: 42.695999
STATION_LONGITUDE_DEGREE: 13.242000
STATION_ELEVATION_M: 922
LOCATION: 
SENSOR_DEPTH_M: 
VS30_M/S: 
SITE_CLASSIFICATION_EC8: A*
MORPHOLOGIC_CLASSIFICATION: 
EPICENTRAL_DISTANCE_KM: 22.5
EARTHQUAKE_BACKAZIMUTH_DEGREE: 335.4
DATE_TIME_FIRST_SAMPLE_YYYYMMDD_HHMMSS: 20161026_171034.835
DATE_TIME_FIRST_SAMPLE_PRECISION: milliseconds
SAMPLING_INTERVAL_S: 0.005000
NDATA: 7433
DURATION_S: 37.165
STREAM: HGE
UNITS: cm/s
INSTRUMENT: sensor = Unknown [Unknown] | digitizer = Unknown [Unknown]
INSTRUMENT_ANALOG/DIGITAL: D
INSTRUMENTAL_FREQUENCY_HZ: 
INSTRUMENTAL_DAMPING: 
FULL_SCALE_G: 
N_BIT_DIGITAL_CONVERTER: 
PGV_CM/S: -2.131041
TIME_PGV_S: 11.550000
BASELINE_CORRECTION: BASELINE REMOVED
FILTER_TYPE: BUTTERWORTH
FILTER_ORDER: 2
LOW_CUT_FREQUENCY_HZ: 0.100
HIGH_CUT_FREQUENCY_HZ: 30.000
LATE/NORMAL_TRIGGERED: NT
DATABASE_VERSION: DYNA 1.0
HEADER_FORMAT: DYNA 1.2
DATA_TYPE: VELOCITY
PROCESSING: manual (Paolucci et al., 2011)
DATA_TIMESTAMP_YYYYMMDD_HHMMSS: 20161027_131047.653
DATA_LICENSE: CC-BY3_0-IT (http://creativecommons.org/licenses/by/3.0/deed.en)
DATA_CITATION: ESM working group (2015), European Strong-Motion database, version 0.1, Network Activity 3: Networking acceleration networks and SM data users. Project NERA (www.nera-eu.org)
DATA_CREATOR: ESM working group
ORIGINAL_DATA_MEDIATOR_CITATION: Ufficio Rischio Sismico e Vulcanico del Dipartimento della Protezione Civile (http://www.protezionecivile.gov.it/)
ORIGINAL_DATA_MEDIATOR: Rete Accelerometrica Nazionale - RAN Download (http://www.mot1.it/randownload/)
ORIGINAL_DATA_CREATOR_CITATION: Italian Strong Motion Network, Italian Civil Protection Department http://www.protezionecivile.gov.it
ORIGINAL_DATA_CREATOR: network: IT (Italian Strong Motion Network); owner: Dipartimento Della Protezione Civile
USER1: /home/dyna/processing-itaca/processing.py /var/www/processing//tmp/felicetta//IT.ACC..HGE.D.20161026.171036.X.ACC.ASC /var/www/processing//tmp/felicetta//IT.ACC..HGN.D.20161026.171036.X.ACC.ASC /var/www/processing//tmp/felicetta//IT.ACC..HGZ.D.20161026.171036.X.ACC.ASC --tmp /var/www/processing//tmp/felicetta/ --le 0.100 --he 30.000 --ln 0.100 --hn 30.000 --lz 0.100 --hz 30.000 --fo 2 --ca 0 --cz 40 --ta 5 --tz 5 --mf 1 --rf 0 --tr NT
USER2: 
USER3: 
USER4: 
USER5: 
[...]
0.000469
0.000484
0.000499
0.000510
0.000514
0.000513
0.000514
0.000519
0.000527
0.000533
0.000533
0.000530
0.000525
0.000521
0.000518
0.000514
0.000507
0.000496
0.000479
0.000461
0.000443
0.000430
0.000423
0.000420
0.000416
0.000407
0.000394
0.000381
0.000369
0.000356
0.000343
0.000333
0.000328
0.000327
0.000332
0.000340
0.000346
0.000348
0.000349
0.000349
0.000350
0.000349
0.000350
0.000353
0.000359
0.000365
0.000370
0.000373
0.000371
0.000366
0.000362
0.000358
0.000353
0.000348
0.000349
0.000358
0.000367
0.000371
0.000372
0.000371
0.000371
0.000371
0.000374
0.000379
0.000387
0.000396
0.000403
0.000407
0.000409
0.000414
0.000426
0.000444
0.000465
0.000482
0.000497
0.000507
0.000509
0.000504
0.000497
0.000493
0.000493
0.000497
0.000498
0.000495
0.000494
0.000496
0.000503
0.000511
0.000520
0.000531
0.000547
0.000566
0.000585
0.000601
0.000609
0.000612
0.000611
0.000606
0.000600
0.000592
0.000585
0.000578
0.000573
0.000574
0.000583
0.000595
0.000606
0.000614
0.000616
0.000613
0.000608
0.000605
0.000606
0.000608
0.000609
0.000608
0.000601
0.000589
0.000575
0.000565
0.000563
0.000566
0.000572
0.000579
0.000586
0.000589
0.000590
0.000590
0.000589
0.000587
0.000586
0.000584
0.000580
0.000573
0.000566
0.000562
0.000558
0.000551
0.000542
0.000532
0.000522
0.000515
0.000513
0.000515
0.000522
0.000531
0.000540
0.000547
0.000549
0.000548
0.000551
0.000560
0.000572
0.000579
0.000578
0.000569
0.000560
0.000551
0.000545
0.000541
0.000538
0.000534
0.000531
0.000533
0.000538
0.000542
0.000542
0.000539
0.000537
0.000537
0.000538
0.000539
0.000542
0.000543
0.000541
0.000538
0.000538
0.000543
0.000550
0.000554
0.000557
0.000562
0.000571
0.000585
0.000601
0.000616
0.000629
0.000641
0.000649
0.000653
0.000655
0.000659
0.000666
0.000676
0.000689
0.000704
0.000716
0.000726
0.000736
0.000747
0.000757
0.000766
0.000774
0.000780
0.000786
0.000791
0.000798
0.000808
0.000820
0.000827
0.000830
0.000830
0.000832
0.000838
0.000850
0.000862
0.000869
0.000870
0.000870
0.000875
0.000886
0.000898
0.000910
0.000916
0.000915
0.000911
0.000907
0.000911
0.000922
0.000939
0.000955
0.000966
0.000970
0.000966
0.000956
0.000945
0.000935
0.000928
0.000929
0.000939
0.000956
0.000974
0.000989
0.001000
0.001007
0.001012
0.001022
0.001037
0.001055
0.001070
0.001081
0.001091
0.001102
0.001111
0.001118
0.001125
0.001133
0.001143
0.001152
0.001158
0.001159
0.001157
0.001155
0.001155
0.001160
0.001169
0.001182
0.001196
0.001209
0.001215
0.001216
0.001217
0.001223
0.001237
0.001260
0.001286
0.001311
0.001329
0.001339
0.001345
0.001352
0.001364
0.001383
0.001409
0.001436
0.001456
0.001458
0.001436
0.001388
0.001325
0.001272
0.001252
0.001278
0.001347
0.001447
0.001559
0.001660
0.001736
0.001775
0.001766
0.001699
0.001577
0.001413
0.001230
0.001049
0.000892
0.000783
0.000753
0.000826
0.001007
0.001273
0.001567
0.001809
0.001924
0.001878
0.001699
0.001466
0.001276
0.001204
0.001268
0.001415
0.001545
0.001559
0.001403
0.001092
0.000706
0.000372
0.000207
0.000272
0.000549
0.000957
0.001385
0.001736
0.001956
0.002050
0.002065
0.002057
0.002070
0.002117
0.002169
0.002165
0.002037
0.001752
0.001339
0.000892
0.000545
0.000430
0.000629
0.001140
0.001882
0.002724
0.003534
0.004202
0.004646
0.004814
0.004680
0.004251
0.003576
0.002752
0.001905
0.001139
0.000514
0.000039
-0.000296
-0.000484
-0.000476
-0.000193
0.000428
0.001384
0.002585
0.003877
0.005085
0.006037
0.006586
0.006641
0.006204
0.005378
0.004332
0.003225
0.002142
0.001072
-0.000069
-0.001360
-0.002795
-0.004232
-0.005413
-0.006037
-0.005848
-0.004702
-0.002601
0.000314
0.003787
0.007507
0.011151
0.014422
0.017058
0.018838
0.019592
0.019220
0.017702
0.015112
0.011636
0.007608
0.003522
-0.000015
-0.002409
-0.003221
-0.002267
0.000365
0.004339
0.009129
0.014100
0.018580
0.021910
0.023526
0.023128
0.020882
0.017485
0.014037
0.011714
0.011386
0.013322
0.017091
0.021707
0.025962
0.028810
0.029622
0.028223
0.024826
0.019903
0.014111
0.008242
0.003130
-0.000453
-0.001929
-0.001094
0.001759
0.006049
0.011314
0.017397
0.024221
0.031364
0.037809
0.042137
0.043095
0.040199
0.033990
0.025804
0.017208
0.009420
0.002983
-0.002198
-0.006505
-0.010157
-0.013001
-0.014654
-0.014781
-0.013253
-0.010077
-0.005178
0.001741
0.011082
0.023075
0.037435
0.053042
0.067814
0.078956
0.083556
0.079400
0.065766
0.043895
0.016948
-0.010595
-0.034009
-0.049527
-0.055147
-0.050744
-0.037586
-0.017718
0.006352
0.031676
0.054973
0.073074
0.083513
0.085046
0.077907
0.063695
0.044941
0.024535
0.005162
-0.011092
-0.022759
-0.028713
-0.027939
-0.019736
-0.004388
0.016024
0.037316
0.053966
0.060996
0.056150
0.041106
0.020904
0.001906
-0.010539
-0.013629
-0.007378
0.006065
0.023396
0.040897
0.054899
0.062223
0.060856
0.050627
0.033357
0.012263
-0.009047
-0.027338
-0.039986
-0.044880
-0.040429
-0.026006
-0.002768
0.025726
0.053744
0.074703
0.083184
0.076826
0.057174
0.029118
-0.000761
-0.026184
-0.042731
-0.048571
-0.044432
-0.033002
-0.017865
-0.002289
0.011539
0.022501
0.030016
0.033436
0.031783
0.024048
0.010030
-0.008799
-0.029209
-0.047248
-0.059682
-0.064861
-0.062761
-0.054500
-0.041703
-0.026043
-0.009160
0.007093
0.020408
0.028303
0.029084
0.022975
0.012662
0.002703
-0.002006
0.002036
0.015740
0.037112
0.061847
0.084732
0.101383
0.109454
0.108789
0.100744
0.087180
0.069692
0.049374
0.027103
0.004040
-0.018024
-0.036741
-0.049737
-0.055470
-0.053861
-0.046205
-0.034618
-0.021703
-0.010456
-0.003861
-0.003956
-0.010842
-0.022240
-0.034052
-0.041933
-0.043077
-0.037159
-0.026035
-0.012547
0.000761
0.012234
0.020948
0.026477
0.028958
0.029196
0.028389
0.027527
0.026787
0.025243
0.021172
0.013079
0.000976
-0.012901
-0.024772
-0.031366
-0.032025
-0.029094
-0.026323
-0.026792
-0.031838
-0.041062
-0.052791
-0.064648
-0.074211
-0.079661
-0.080170
-0.075852
-0.067423
-0.055892
-0.042243
-0.026982
-0.009717
0.010750
0.035515
0.064062
0.093248
0.117999
0.133620
0.138100
0.132921
0.122237
0.111251
0.104527
0.104595
0.111160
0.121186
0.129970
0.132867
0.126974
0.112082
0.090596
0.066425
0.043185
0.022518
0.003457
-0.016642
-0.039984
-0.066348
-0.092544
-0.113548
-0.124736
-0.124266
-0.114366
-0.100673
-0.089870
-0.086954
-0.093712
-0.108928
-0.129376
-0.150519
-0.167080
-0.174005
-0.167580
-0.146186
-0.110673
-0.064387
-0.012662
0.038176
0.082141
0.115290
0.137030
0.149570
0.155435
0.155132
0.146863
0.128035
0.097339
0.056457
0.010759
-0.031558
-0.061837
-0.073871
-0.065972
-0.041419
-0.007269
0.027892
0.056407
0.073485
0.078125
0.072701
0.061457
0.048466
0.035659
0.021819
0.003410
-0.022910
-0.057541
-0.096605
-0.132837
-0.158206
-0.167002
-0.158158
-0.135951
-0.108608
-0.085029
-0.071130
-0.067783
-0.071015
-0.073819
-0.069059
-0.052870
-0.027012
0.001618
0.024375
0.035160
0.033238
0.023162
0.012054
0.006029
0.007718
0.015715
0.025731
0.032825
0.033667
0.027654
0.016548
0.003193
-0.009838
-0.021129
-0.030473
-0.038199
-0.044370
-0.048477
-0.049702
-0.047483
-0.042020
-0.034299
-0.025650
-0.017358
-0.010697
-0.007070
-0.007967
-0.014826
-0.028914
-0.051032
-0.080770
-0.115393
-0.149248
-0.174674
-0.184332
-0.173910
-0.144272
-0.102110
-0.058302
-0.024191
-0.007255
-0.008221
-0.021148
-0.036684
-0.046848
-0.048463
-0.043718
-0.038480
-0.039438
-0.050824
-0.071840
-0.095942
-0.112525
-0.110762
-0.084409
-0.035368
0.026162
0.085189
0.127250
0.143326
0.132516
0.101593
0.062324
0.027474
0.006233
0.001081
0.007837
0.018529
0.025083
0.021986
0.007514
-0.016255
-0.044546
-0.071772
-0.093611
-0.108495
-0.117804
-0.124830
-0.133124
-0.144866
-0.159729
-0.174638
-0.184582
-0.184324
-0.170520
-0.143247
-0.106097
-0.064849
-0.025526
0.007308
0.031563
0.047959
0.059745
0.071614
0.087869
0.110638
0.139099
0.169672
0.196549
0.212449
0.210330
0.186280
0.142235
0.086404
0.030762
-0.012952
-0.036780
-0.038640
-0.022917
0.000463
0.018921
0.021636
0.003468
-0.033685
-0.082497
-0.133434
-0.177677
-0.208722
-0.222912
-0.219595
-0.200984
-0.171151
-0.134359
-0.094017
-0.052876
-0.013582
0.021283
0.049519
0.069430
0.079654
0.079159
0.067822
0.047422
0.022175
-0.002077
-0.019933
-0.028724
-0.029615
-0.026636
-0.024159
-0.024595
-0.027997
-0.033614
-0.041898
-0.055146
-0.076200
-0.106126
-0.142765
-0.181388
-0.216733
-0.244604
-0.262220
-0.267817
-0.260318
-0.239716
-0.207889
-0.168748
-0.127156
-0.087231
-0.051064
-0.018406
0.012602
0.043951
0.076172
0.107657
0.135435
0.156851
0.170771
0.177593
0.178589
0.175403
0.169699
0.162665
0.154534
0.144493
0.131052
0.112903
0.090062
0.064586
0.040345
0.021937
0.013132
0.015349
0.026699
0.041815
0.052806
0.051618
0.033319
-0.001291
-0.045305
-0.087990
-0.118793
-0.131473
-0.126656
-0.111282
-0.094904
-0.084813
-0.082503
-0.083128
-0.078273
-0.060834
-0.029665
0.008739
0.042911
0.061948
0.060386
0.039729
0.006619
-0.030548
-0.064667
-0.091578
-0.110234
-0.121708
-0.127452
-0.127511
-0.119983
-0.102387
-0.073863
-0.036380
0.005566
0.046172
0.079923
0.103247
0.115717
0.120277
0.122198
0.126801
0.136786
0.150749
0.163930
0.170689
0.167442
0.154709
0.137192
0.121583
0.113450
0.115405
0.127422
0.148077
0.175274
0.206264
0.237556
0.265168
0.285152
0.294189
0.290122
0.272286
0.241483
0.199563
0.148991
0.092777
0.034515
-0.021961
-0.073285
-0.117235
-0.153227
-0.182412
-0.206914
-0.228065
-0.244553
-0.252179
-0.246226
-0.225159
-0.192810
-0.157238
-0.126910
-0.106572
-0.095095
-0.086353
-0.072654
-0.049008
-0.016008
0.020353
0.051766
0.071421
0.076340
0.067712
0.049836
0.028463
0.008994
-0.005101
-0.012913
-0.015186
-0.012674
-0.005197
0.008102
0.027749
0.053071
0.082001
0.111349
0.137187
0.155549
0.163366
0.158998
0.142103
0.113232
0.073634
0.025309
-0.028814
-0.084696
-0.137279
-0.181207
-0.211996
-0.227118
-0.226529
-0.212407
-0.188140
-0.157068
-0.121753
-0.084212
-0.046925
-0.013810
0.009730
0.017985
0.006938
-0.023649
-0.068861
-0.118754
-0.160501
-0.182369
-0.178063
-0.149141
-0.104090
-0.054842
-0.012812
0.013934
0.022252
0.014598
-0.001783
-0.017712
-0.025833
-0.023334
-0.012530
0.000789
0.010326
0.011982
0.005251
-0.006828
-0.018799
-0.024712
-0.020468
-0.005731
0.015676
0.037388
0.053426
0.060866
0.060729
0.056597
0.052096
0.049186
0.048294
0.049527
0.053443
0.060552
0.070052
0.079199
0.084080
0.081304
0.069656
0.051013
0.029977
0.011955
0.000568
-0.004024
-0.004947
-0.006849
-0.013468
-0.025613
-0.040422
-0.052349
-0.055770
-0.048207
-0.032315
-0.015216
-0.005426
-0.009170
-0.027896
-0.057858
-0.091912
-0.122732
-0.145661
-0.159801
-0.167225
-0.171093
-0.173944
-0.177241
-0.182015
-0.189200
-0.198500
-0.206466
-0.205842
-0.187538
-0.144577
-0.075972
0.011377
0.103836
0.184857
0.239468
0.257468
0.235128
0.175334
0.085666
-0.024113
-0.143049
-0.259247
-0.361226
-0.440255
-0.492148
-0.517326
-0.519613
-0.505073
-0.481168
-0.455797
-0.436161
-0.427669
-0.433133
-0.452394
-0.482359
-0.517793
-0.552803
-0.582117
-0.601563
-0.608170
-0.600606
-0.579803
-0.548858
-0.511645
-0.470616
-0.425497
-0.374479
-0.317097
-0.255961
-0.195118
-0.136436
-0.077958
-0.015265
0.056297
0.139514
0.233281
0.331241
0.422974
0.498285
0.551438
0.582312
0.594725
0.593571
0.582263
0.561291
0.528428
0.481158
0.420164
0.351582
0.286832
0.239823
0.222146
0.238812
0.287609
0.362100
0.455087
0.560209
0.671775
0.783567
0.887463
0.973302
1.030727
1.051998
1.034375
0.981234
0.901057
0.804474
0.701046
0.597280
0.496682
0.401305
0.312941
0.233311
0.164282
0.108212
0.067764
0.045640
0.045008
0.069953
0.124660
0.211067
0.326181
0.460925
0.601806
0.734833
0.849634
0.941753
1.012258
1.065408
1.105897
1.136851
1.159341
1.173461
1.180075
1.182007
1.184028
1.191627
1.209140
1.238376
1.278755
1.328612
1.385971
1.447846
1.509099
1.562138
1.597669
1.606158
1.579533
1.512683
1.404341
1.257125
1.077261
0.874262
0.659715
0.444809
0.238084
0.044810
-0.132698
-0.294839
-0.444150
-0.584293
-0.719345
-0.853666
-0.991905
-1.138351
-1.295147
-1.460208
-1.626150
-1.780516
-1.907140
-1.988867
-2.011318
-1.966541
-1.855327
-1.687304
-1.478384
-1.246802
-1.009783
-0.780915
-0.567716
-0.370797
-0.185389
-0.003729
0.182227
0.377675
0.583103
0.794082
1.002289
1.198412
1.374926
1.525529
1.642427
1.714670
1.728776
1.672521
1.541321
1.341337
1.084734
0.782095
0.440148
0.066022
-0.327932
-0.723511
-1.099123
-1.434014
-1.712723
-1.925480
-2.065919
-2.131041
-2.122630
-2.047528
-1.916279
-1.741671
-1.538774
-1.324290
-1.113827
-0.917790
-0.735620
-0.554682
-0.359375
-0.140072
0.105329
0.370500
0.641209
0.901323
1.138075
1.342041
1.504699
1.616348
1.665969
1.644215
1.547922
1.383470
1.166667
0.917129
0.651193
0.380792
0.116396
-0.133511
-0.366260
-0.586467
-0.801965
-1.017428
-1.232175
-1.441838
-1.638727
-1.811150
-1.944956
-2.026898
-2.047479
-2.003223
-1.898123
-1.742258
-1.549142
-1.335701
-1.122929
-0.931631
-0.774260
-0.650448
-0.549939
-0.457217
-0.353748
-0.222641
-0.055639
0.143790
0.361763
0.578082
0.771577
0.923719
1.020478
1.054012
1.024055
0.937866
0.808767
0.653765
0.489827
0.330050
0.181830
0.046874
-0.077953
-0.199388
-0.325757
-0.463640
-0.614651
-0.774252
-0.932243
-1.074262
-1.185051
-1.252713
-1.271299
-1.240979
-1.166878
-1.057478
-0.923433
-0.777080
-0.631635
-0.499703
-0.392142
-0.317506
-0.280888
-0.281677
-0.311890
-0.357903
-0.405670
-0.444595
-0.467268
-0.468538
-0.446223
-0.401231
-0.336472
-0.256218
-0.166154
-0.073193
0.015922
0.096874
0.168693
0.232471
0.289353
0.338965
0.378710
0.404250
0.410836
0.394717
0.354151
0.289895
0.205170
0.104881
-0.005664
-0.121465
-0.237784
-0.350150
-0.454529
-0.547293
-0.624997
-0.684219
-0.721728
-0.734674
-0.720454
-0.677066
-0.604394
-0.505570
-0.387524
-0.260237
-0.134737
-0.020498
0.076636
0.154994
0.216156
0.263849
0.303191
0.339374
0.375787
0.413141
0.450098
0.484358
0.513342
0.534455
0.545433
0.545209
0.534702
0.516490
0.493441
0.467184
0.437237
0.401164
0.355565
0.297179
0.223693
0.134105
0.028494
-0.092385
-0.226667
-0.370301
-0.516697
-0.657945
-0.786869
-0.898140
-0.987893
-1.053287
-1.092961
-1.107693
-1.100236
-1.074132
-1.032355
-0.976797
-0.908658
-0.829200
-0.740334
-0.644990
-0.547295
-0.452262
-0.364953
-0.289616
-0.229040
-0.183962
-0.152908
-0.132837
-0.119831
-0.109189
-0.095483
-0.072974
-0.036078
0.020158
0.099394
0.202767
0.326861
0.462024
0.593088
0.703023
0.777316
0.806311
0.785200
0.713832
0.597353
0.446151
0.273884
0.094591
-0.079128
-0.236696
-0.370317
-0.475785
-0.552371
-0.602295
-0.630000
-0.640682
-0.638563
-0.625818
-0.602167
-0.564916
-0.509715
-0.432087
-0.329150
-0.200839
-0.050452
0.115329
0.287149
0.454768
0.609509
0.745939
0.861477
0.954379
1.022072
1.061010
1.067788
1.040809
0.981800
0.896432
0.793496
0.682846
0.573193
0.470585
0.377461
0.292144
0.209421
0.122633
0.026367
-0.081585
-0.199572
-0.322551
-0.443559
-0.555921
-0.655065
-0.739022
-0.807797
-0.862282
-0.903166
-0.930062
-0.941044
-0.932962
-0.902569
-0.847851
-0.768999
-0.668767
-0.551994
-0.424419
-0.291314
-0.156393
-0.021182
0.115015
0.254380
0.399262
0.550683
0.707089
0.863894
1.014026
1.149056
1.260542
1.341373
1.386786
1.394851
1.366477
1.305154
1.216606
1.108169
0.987757
0.862739
0.739133
0.621281
0.511927
0.412644
0.324574
0.249131
0.187985
0.142262
0.111778
0.094888
0.088603
0.088503
0.088858
0.083613
0.067901
0.039408
-0.000862
-0.048869
-0.098736
-0.144085
-0.179232
-0.200322
-0.205947
-0.196751
-0.174400
-0.140640
-0.096800
-0.043905
0.016802
0.083583
0.154484
0.227775
0.301965
0.375200
0.444599
0.506245
0.555894
0.589979
0.606422
0.604913
0.586751
0.554570
0.512024
0.463174
0.411593
0.359616
0.308150
0.257112
0.206340
0.156497
0.109134
0.065600
0.025580
-0.013584
-0.056239
-0.106799
-0.167976
-0.239630
-0.318539
-0.398885
-0.473344
-0.534828
-0.578427
-0.602754
-0.610262
-0.606504
-0.598441
-0.592067
-0.590063
-0.590463
-0.587057
-0.571458
-0.535972
-0.476216
-0.392752
-0.291281
-0.181155
-0.072765
0.024832
0.105260
0.165555
0.206451
0.231794
0.247031
0.257532
0.267503
0.279608
0.295097
0.314238
0.336797
0.362394
0.390801
0.422273
0.457658
0.497963
0.543581
0.593658
0.645926
0.696996
0.742925
0.779847
0.804590
0.815144
0.810754
0.791634
0.758625
0.713086
0.656852
0.592105
0.521158
0.446159
0.368957
0.291270
0.215022
0.142703
0.077589
0.023530
-0.015814
-0.038019
-0.042781
-0.032218
-0.010290
0.018555
0.050909
0.085290
0.122056
0.162673
0.208771
0.261320
0.320219
0.384346
0.451825
0.520337
0.587428
0.650896
0.709284
0.762193
0.810150
0.854022
0.894307
0.930727
0.962006
0.985501
0.996839
0.990259
0.960012
0.902333
0.816926
0.707183
0.579214
0.440450
0.298602
0.161064
0.034360
-0.076470
-0.168297
-0.239971
-0.292038
-0.326439
-0.346241
-0.354955
-0.355455
-0.349340
-0.337185
-0.319299
-0.296343
-0.269453
-0.239795
-0.207898
-0.173403
-0.135577
-0.094192
-0.050103
-0.005239
0.037829
0.076447
0.108467
0.132901
0.150431
0.163395
0.175067
0.188392
0.204750
0.223396
0.241727
0.256146
0.263269
0.261107
0.249692
0.230950
0.208122
0.185102
0.165830
0.153659
0.150782
0.158011
0.175021
0.200764
0.233814
0.272621
0.315585
0.360985
0.406831
0.450867
0.490975
0.525794
0.555128
0.579695
0.600214
0.616487
0.627201
0.630526
0.625136
0.611161
0.590640
0.567336
0.546109
0.531953
0.528885
0.539039
0.562270
0.596297
0.637167
0.679818
0.718752
0.748999
0.767232
0.772696
0.767605
0.756486
0.744369
0.734598
0.727321
0.719275
0.704854
0.677991
0.634185
0.571973
0.493447
0.403728
0.309541
0.217484
0.132666
0.058114
-0.005258
-0.058490
-0.104417
-0.147226
-0.191407
-0.240404
-0.295666
-0.356466
-0.420397
-0.484311
-0.545424
-0.602274
-0.655156
-0.705830
-0.756692
-0.809928
-0.867057
