EVENT_NAME: CENTRAL_ITALY
EVENT_ID: EMSC-20161026_0000077
EVENT_DATE_YYYYMMDD: 20161026
EVENT_TIME_HHMMSS: 171036
EVENT_LATITUDE_DEGREE: 42.8802
EVENT_LONGITUDE_DEGREE: 13.1275
EVENT_DEPTH_KM: 8.7
HYPOCENTER_REFERENCE: INGV-CNT_Seismic_Bulletin
MAGNITUDE_W: 5.4
MAGNITUDE_W_REFERENCE: INGV-webservice
MAGNITUDE_L: 5.4
MAGNITUDE_L_REFERENCE: INGV-CNT_Seismic_Bulletin
FOCAL_MECHANISM: NF
NETWORK: IT
STATION_CODE: ACC
STATION_NAME: Accumoli
STATION_LATITUDE_DEGREE: 42.695999
STATION_LONGITUDE_DEGREE: 13.242000
STATION_ELEVATION_M: 922
LOCATION: 
SENSOR_DEPTH_M: 
VS30_M/S: 
SITE_CLASSIFICATION_EC8: A*
MORPHOLOGIC_CLASSIFICATION: 
EPICENTRAL_DISTANCE_KM: 22.5
EARTHQUAKE_BACKAZIMUTH_DEGREE: 335.4
DATE_TIME_FIRST_SAMPLE_YYYYMMDD_HHMMSS: 20161026_171034.835
DATE_TIME_FIRST_SAMPLE_PRECISION: milliseconds
SAMPLING_INTERVAL_S: 0.005000
NDATA: 7433
DURATION_S: 37.165
STREAM: HGN
UNITS: cm/s
INSTRUMENT: sensor = Unknown [Unknown] | digitizer = Unknown [Unknown]
INSTRUMENT_ANALOG/DIGITAL: D
INSTRUMENTAL_FREQUENCY_HZ: 
INSTRUMENTAL_DAMPING: 
FULL_SCALE_G: 
N_BIT_DIGITAL_CONVERTER: 
PGV_CM/S: 2.088176
TIME_PGV_S: 10.835000
BASELINE_CORRECTION: BASELINE REMOVED
FILTER_TYPE: BUTTERWORTH
FILTER_ORDER: 2
LOW_CUT_FREQUENCY_HZ: 0.100
HIGH_CUT_FREQUENCY_HZ: 30.000
LATE/NORMAL_TRIGGERED: NT
DATABASE_VERSION: DYNA 1.0
HEADER_FORMAT: DYNA 1.2
DATA_TYPE: VELOCITY
PROCESSING: manual (Paolucci et al., 2011)
DATA_TIMESTAMP_YYYYMMDD_HHMMSS: 20161027_131047.653
DATA_LICENSE: CC-BY3_0-IT (http://creativecommons.org/licenses/by/3.0/deed.en)
DATA_CITATION: ESM working group (2015), European Strong-Motion database, version 0.1, Network Activity 3: Networking acceleration networks and SM data users. Project NERA (www.nera-eu.org)
DATA_CREATOR: ESM working group
ORIGINAL_DATA_MEDIATOR_CITATION: Ufficio Rischio Sismico e Vulcanico del Dipartimento della Protezione Civile (http://www.protezionecivile.gov.it/)
ORIGINAL_DATA_MEDIATOR: Rete Accelerometrica Nazionale - RAN Download (http://www.mot1.it/randownload/)
ORIGINAL_DATA_CREATOR_CITATION: Italian Strong Motion Network, Italian Civil Protection Department http://www.protezionecivile.gov.it
ORIGINAL_DATA_CREATOR: network: IT (Italian Strong Motion Network); owner: Dipartimento Della Protezione Civile
USER1: /home/dyna/processing-itaca/processing.py /var/www/processing//tmp/felicetta//IT.ACC..HGE.D.20161026.171036.X.ACC.ASC /var/www/processing//tmp/felicetta//IT.ACC..HGN.D.20161026.171036.X.ACC.ASC /var/www/processing//tmp/felicetta//IT.ACC..HGZ.D.20161026.171036.X.ACC.ASC --tmp /var/www/processing//tmp/felicetta/ --le 0.100 --he 30.000 --ln 0.100 --hn 30.000 --lz 0.100 --hz 30.000 --fo 2 --ca 0 --cz 40 --ta 5 --tz 5 --mf 1 --rf 0 --tr NT
USER2: 
USER3: 
USER4: 
USER5: 
[...]
0.001289
0.001287
0.001287
0.001286
0.001283
0.001277
0.001267
0.001254
0.001238
0.001227
0.001227
0.001241
0.001262
0.001284
0.001296
0.001294
0.001285
0.001275
0.001265
0.001254
0.001241
0.001229
0.001219
0.001212
0.001208
0.001210
0.001213
0.001215
0.001217
0.001225
0.001239
0.001254
0.001263
0.001266
0.001263
0.001256
0.001249
0.001247
0.001250
0.001250
0.001246
0.001239
0.001227
0.001214
0.001207
0.001208
0.001212
0.001211
0.001204
0.001194
0.001188
0.001186
0.001183
0.001176
0.001164
0.001155
0.001153
0.001157
0.001161
0.001161
0.001160
0.001162
0.001164
0.001165
0.001163
0.001159
0.001155
0.001147
0.001138
0.001127
0.001113
0.001096
0.001078
0.001061
0.001044
0.001027
0.001010
0.000992
0.000977
0.000968
0.000967
0.000971
0.000977
0.000986
0.001000
0.001021
0.001040
0.001050
0.001048
0.001039
0.001029
0.001020
0.001014
0.001013
0.001017
0.001026
0.001037
0.001045
0.001047
0.001043
0.001037
0.001033
0.001034
0.001037
0.001041
0.001042
0.001036
0.001026
0.001017
0.001014
0.001013
0.001011
0.001007
0.001001
0.000992
0.000981
0.000968
0.000959
0.000955
0.000953
0.000951
0.000948
0.000946
0.000947
0.000951
0.000951
0.000942
0.000923
0.000897
0.000872
0.000850
0.000830
0.000811
0.000793
0.000774
0.000754
0.000735
0.000719
0.000705
0.000692
0.000681
0.000673
0.000668
0.000661
0.000654
0.000650
0.000651
0.000654
0.000656
0.000655
0.000651
0.000643
0.000633
0.000627
0.000626
0.000624
0.000618
0.000604
0.000589
0.000578
0.000574
0.000573
0.000572
0.000565
0.000553
0.000536
0.000515
0.000489
0.000462
0.000439
0.000421
0.000408
0.000399
0.000394
0.000392
0.000392
0.000396
0.000405
0.000417
0.000425
0.000426
0.000423
0.000419
0.000418
0.000416
0.000411
0.000404
0.000397
0.000393
0.000391
0.000387
0.000377
0.000361
0.000347
0.000338
0.000332
0.000325
0.000317
0.000307
0.000293
0.000276
0.000262
0.000252
0.000245
0.000233
0.000216
0.000195
0.000175
0.000164
0.000164
0.000168
0.000173
0.000176
0.000178
0.000176
0.000173
0.000170
0.000168
0.000165
0.000155
0.000144
0.000136
0.000131
0.000125
0.000114
0.000097
0.000076
0.000054
0.000037
0.000027
0.000020
0.000012
0.000003
-0.000004
-0.000009
-0.000016
-0.000027
-0.000039
-0.000054
-0.000070
-0.000084
-0.000090
-0.000087
-0.000082
-0.000083
-0.000087
-0.000087
-0.000084
-0.000081
-0.000083
-0.000088
-0.000093
-0.000100
-0.000109
-0.000120
-0.000130
-0.000140
-0.000150
-0.000158
-0.000165
-0.000171
-0.000175
-0.000180
-0.000184
-0.000189
-0.000194
-0.000199
-0.000207
-0.000220
-0.000234
-0.000246
-0.000256
-0.000265
-0.000274
-0.000286
-0.000298
-0.000308
-0.000315
-0.000319
-0.000323
-0.000326
-0.000329
-0.000335
-0.000344
-0.000353
-0.000358
-0.000361
-0.000366
-0.000374
-0.000385
-0.000398
-0.000414
-0.000432
-0.000452
-0.000472
-0.000494
-0.000520
-0.000547
-0.000571
-0.000588
-0.000594
-0.000594
-0.000597
-0.000609
-0.000626
-0.000642
-0.000658
-0.000674
-0.000691
-0.000703
-0.000711
-0.000719
-0.000729
-0.000743
-0.000760
-0.000779
-0.000791
-0.000798
-0.000804
-0.000815
-0.000832
-0.000847
-0.000857
-0.000865
-0.000876
-0.000894
-0.000917
-0.000945
-0.000972
-0.000997
-0.001018
-0.001035
-0.001049
-0.001059
-0.001070
-0.001085
-0.001100
-0.001115
-0.001130
-0.001147
-0.001167
-0.001190
-0.001214
-0.001237
-0.001253
-0.001262
-0.001269
-0.001280
-0.001291
-0.001303
-0.001313
-0.001325
-0.001337
-0.001351
-0.001368
-0.001391
-0.001415
-0.001430
-0.001434
-0.001436
-0.001443
-0.001460
-0.001486
-0.001519
-0.001554
-0.001587
-0.001617
-0.001644
-0.001667
-0.001687
-0.001707
-0.001732
-0.001758
-0.001783
-0.001807
-0.001832
-0.001855
-0.001880
-0.001908
-0.001943
-0.001981
-0.002017
-0.002048
-0.002077
-0.002105
-0.002135
-0.002171
-0.002213
-0.002256
-0.002291
-0.002311
-0.002316
-0.002311
-0.002305
-0.002305
-0.002317
-0.002336
-0.002354
-0.002365
-0.002359
-0.002324
-0.002257
-0.002173
-0.002110
-0.002112
-0.002209
-0.002407
-0.002682
-0.002985
-0.003256
-0.003438
-0.003492
-0.003407
-0.003198
-0.002889
-0.002511
-0.002097
-0.001691
-0.001359
-0.001182
-0.001229
-0.001532
-0.002064
-0.002730
-0.003376
-0.003826
-0.003951
-0.003724
-0.003231
-0.002649
-0.002174
-0.001953
-0.002044
-0.002390
-0.002846
-0.003240
-0.003433
-0.003382
-0.003150
-0.002870
-0.002686
-0.002686
-0.002871
-0.003162
-0.003443
-0.003609
-0.003600
-0.003414
-0.003100
-0.002739
-0.002417
-0.002196
-0.002092
-0.002078
-0.002111
-0.002157
-0.002218
-0.002343
-0.002610
-0.003084
-0.003789
-0.004691
-0.005716
-0.006767
-0.007743
-0.008545
-0.009096
-0.009335
-0.009213
-0.008693
-0.007764
-0.006458
-0.004848
-0.003054
-0.001222
0.000494
0.001948
0.002984
0.003455
0.003236
0.002253
0.000496
-0.001959
-0.004906
-0.007985
-0.010738
-0.012723
-0.013637
-0.013398
-0.012147
-0.010187
-0.007896
-0.005625
-0.003640
-0.002077
-0.000935
-0.000110
0.000522
0.001034
0.001428
0.001657
0.001636
0.001257
0.000392
-0.001093
-0.003317
-0.006331
-0.010057
-0.014252
-0.018523
-0.022370
-0.025226
-0.026545
-0.025966
-0.023470
-0.019425
-0.014496
-0.009493
-0.005235
-0.002431
-0.001577
-0.002851
-0.006062
-0.010659
-0.015812
-0.020545
-0.023926
-0.025276
-0.024345
-0.021443
-0.017516
-0.014076
-0.012876
-0.015371
-0.022186
-0.032824
-0.045695
-0.058424
-0.068306
-0.072894
-0.070548
-0.060781
-0.044372
-0.023330
-0.000655
0.020188
0.035953
0.044198
0.043693
0.034618
0.018509
-0.002107
-0.024219
-0.044818
-0.061392
-0.072366
-0.077293
-0.076709
-0.071781
-0.063885
-0.054205
-0.043516
-0.032224
-0.020638
-0.009307
0.000808
0.008518
0.012901
0.013736
0.011541
0.007245
0.001683
-0.004811
-0.012495
-0.021927
-0.033392
-0.046367
-0.059402
-0.070566
-0.078207
-0.081543
-0.080764
-0.076684
-0.070324
-0.062697
-0.054720
-0.047178
-0.040712
-0.035824
-0.032805
-0.031600
-0.031752
-0.032489
-0.032946
-0.032466
-0.030920
-0.028952
-0.027998
-0.029914
-0.036297
-0.047684
-0.062968
-0.079387
-0.093319
-0.101559
-0.102429
-0.096144
-0.084414
-0.069718
-0.054713
-0.041906
-0.033390
-0.030512
-0.033444
-0.040879
-0.050167
-0.058090
-0.062017
-0.060854
-0.055340
-0.047664
-0.040661
-0.036882
-0.037905
-0.044071
-0.054562
-0.067592
-0.080747
-0.091513
-0.097907
-0.099033
-0.095380
-0.088684
-0.081126
-0.074235
-0.068300
-0.062605
-0.056151
-0.048391
-0.039568
-0.030519
-0.022276
-0.015993
-0.013095
-0.014999
-0.022194
-0.033443
-0.045900
-0.056090
-0.061193
-0.060092
-0.053762
-0.044719
-0.035815
-0.029166
-0.025794
-0.025827
-0.028753
-0.033501
-0.038526
-0.042046
-0.042352
-0.038088
-0.028710
-0.015144
-0.000093
0.012451
0.018278
0.014200
-0.000805
-0.024892
-0.053656
-0.081533
-0.103539
-0.116434
-0.119091
-0.112449
-0.099096
-0.082474
-0.066144
-0.053329
-0.046423
-0.046389
-0.052441
-0.062404
-0.073703
-0.084466
-0.094109
-0.103027
-0.111646
-0.119636
-0.125944
-0.129415
-0.129328
-0.125387
-0.117307
-0.104647
-0.087500
-0.067588
-0.048470
-0.034325
-0.028150
-0.030492
-0.039168
-0.050093
-0.058927
-0.062673
-0.060398
-0.052870
-0.041692
-0.028787
-0.016506
-0.007619
-0.004522
-0.008061
-0.016945
-0.028066
-0.037388
-0.041237
-0.037721
-0.027411
-0.012694
0.003550
0.018824
0.031117
0.038770
0.040750
0.037282
0.030107
0.021724
0.013955
0.006947
-0.000555
-0.009812
-0.020737
-0.031788
-0.041071
-0.047467
-0.050880
-0.051902
-0.051510
-0.050923
-0.051514
-0.054860
-0.062868
-0.077420
-0.099283
-0.127104
-0.157573
-0.186574
-0.210158
-0.224761
-0.227320
-0.215930
-0.190826
-0.154998
-0.113937
-0.074437
-0.042834
-0.023405
-0.017488
-0.023366
-0.036758
-0.051958
-0.063631
-0.068730
-0.067533
-0.063190
-0.059971
-0.060900
-0.065803
-0.070944
-0.070676
-0.059979
-0.036192
0.000689
0.048424
0.102705
0.157079
0.203465
0.233844
0.242667
0.228562
0.194324
0.145861
0.090941
0.037313
-0.009505
-0.047118
-0.075309
-0.094644
-0.105801
-0.109621
-0.107463
-0.101250
-0.092782
-0.082787
-0.070773
-0.056100
-0.039476
-0.023485
-0.011488
-0.005728
-0.006189
-0.010817
-0.016562
-0.020632
-0.021800
-0.021210
-0.021880
-0.026966
-0.038023
-0.054383
-0.073583
-0.092009
-0.105569
-0.110730
-0.105682
-0.090989
-0.069591
-0.046295
-0.026434
-0.013865
-0.009535
-0.011560
-0.016517
-0.021206
-0.024140
-0.025760
-0.027075
-0.028252
-0.028767
-0.028695
-0.029412
-0.032941
-0.040525
-0.051388
-0.062508
-0.069545
-0.068322
-0.056253
-0.033369
-0.002497
0.031597
0.063498
0.088129
0.101547
0.101948
0.090462
0.070962
0.048800
0.029112
0.015267
0.007968
0.005437
0.004708
0.003356
0.000592
-0.002926
-0.006190
-0.008695
-0.010379
-0.010984
-0.009531
-0.004357
0.006037
0.021653
0.040223
0.057708
0.069707
0.072990
0.066632
0.052499
0.034875
0.019239
0.010579
0.011844
0.022998
0.040918
0.060342
0.076053
0.085626
0.090660
0.094984
0.101118
0.107768
0.110004
0.101770
0.079167
0.042717
-0.002535
-0.048843
-0.088268
-0.114796
-0.125623
-0.121476
-0.106091
-0.085051
-0.064199
-0.048319
-0.040386
-0.040980
-0.047790
-0.056054
-0.060461
-0.057506
-0.046510
-0.028990
-0.007650
0.014268
0.033548
0.047756
0.055893
0.058663
0.058346
0.058110
0.060573
0.066414
0.074235
0.081524
0.085436
0.083067
0.072161
0.052441
0.026381
-0.001461
-0.025947
-0.042799
-0.049767
-0.047536
-0.039885
-0.032472
-0.030633
-0.037453
-0.052954
-0.074291
-0.096648
-0.114656
-0.124056
-0.123173
-0.113661
-0.099963
-0.087486
-0.080322
-0.079577
-0.082974
-0.085943
-0.083733
-0.073470
-0.055031
-0.030799
-0.004928
0.017762
0.033368
0.040346
0.039763
0.034474
0.028303
0.025400
0.029045
0.040230
0.057300
0.076816
0.094680
0.107147
0.111984
0.109380
0.101858
0.093426
0.088655
0.091689
0.104806
0.126905
0.152930
0.174987
0.184944
0.177287
0.150979
0.109719
0.060603
0.011798
-0.029572
-0.058310
-0.070994
-0.066051
-0.044628
-0.011387
0.025981
0.058892
0.080783
0.089051
0.084729
0.070607
0.049583
0.024248
-0.002792
-0.028826
-0.051576
-0.069928
-0.084026
-0.094228
-0.099680
-0.098118
-0.087486
-0.067984
-0.042779
-0.017169
0.002982
0.013012
0.011111
-0.001062
-0.019128
-0.037234
-0.049359
-0.051117
-0.041508
-0.023242
-0.001485
0.018074
0.031377
0.037804
0.040361
0.043563
0.050369
0.060331
0.069872
0.074277
0.070118
0.056541
0.034835
0.007196
-0.024230
-0.057577
-0.090705
-0.120318
-0.141886
-0.151113
-0.146041
-0.127904
-0.100156
-0.067038
-0.033060
-0.003215
0.017429
0.025343
0.020481
0.007076
-0.007666
-0.016670
-0.016126
-0.006720
0.007420
0.020811
0.028557
0.027878
0.019128
0.005613
-0.008195
-0.019028
-0.026118
-0.030760
-0.034900
-0.039920
-0.046114
-0.052898
-0.059590
-0.066154
-0.073115
-0.080732
-0.088721
-0.097101
-0.106712
-0.118039
-0.129651
-0.138539
-0.142195
-0.140310
-0.135011
-0.130022
-0.128954
-0.132963
-0.139269
-0.142066
-0.135267
-0.114788
-0.079152
-0.029237
0.031843
0.099079
0.166853
0.230527
0.286857
0.333088
0.366222
0.383373
0.382760
0.364618
0.331617
0.288532
0.241161
0.194874
0.153613
0.119927
0.095656
0.082339
0.080801
0.090247
0.107748
0.128772
0.148470
0.162722
0.168443
0.163764
0.148858
0.126756
0.102535
0.080869
0.063896
0.050741
0.038534
0.024238
0.006328
-0.014717
-0.037141
-0.058924
-0.078262
-0.093463
-0.102774
-0.104657
-0.098339
-0.083986
-0.062291
-0.034182
-0.001199
0.033835
0.066525
0.091347
0.102930
0.097837
0.075835
0.040009
-0.003993
-0.049281
-0.089509
-0.120360
-0.139730
-0.146866
-0.141588
-0.124179
-0.095622
-0.057725
-0.012964
0.035766
0.085231
0.131690
0.170903
0.198904
0.213614
0.216478
0.212742
0.209437
0.212003
0.221977
0.237309
0.254302
0.269184
0.278691
0.280414
0.273367
0.258484
0.238720
0.218535
0.202604
0.194108
0.193529
0.198732
0.206071
0.211511
0.211365
0.203124
0.186503
0.163798
0.138819
0.115073
0.094615
0.078031
0.064810
0.053485
0.041860
0.027794
0.010508
-0.008267
-0.024228
-0.032114
-0.028265
-0.012383
0.012618
0.042336
0.072966
0.102319
0.129232
0.152454
0.170431
0.181949
0.186675
0.185244
0.179131
0.170469
0.161954
0.156929
0.159178
0.171834
0.195784
0.228829
0.266319
0.302490
0.331219
0.346331
0.342726
0.318541
0.277007
0.226342
0.177167
0.138574
0.114740
0.103601
0.098297
0.090913
0.076427
0.054672
0.029795
0.008428
-0.001968
0.005570
0.036017
0.090948
0.167647
0.259117
0.355676
0.447986
0.529885
0.599483
0.658218
0.709005
0.754942
0.798919
0.843640
0.891597
0.944833
1.004660
1.071664
1.146124
1.228618
1.320115
1.421004
1.529714
1.642334
1.753696
1.858565
1.951605
2.026385
2.074816
2.088176
2.059612
1.986556
1.871251
1.719341
1.538179
1.335636
1.119012
0.894713
0.669600
0.452676
0.254769
0.086100
-0.046354
-0.140223
-0.197838
-0.225133
-0.229529
-0.217843
-0.195139
-0.164483
-0.127404
-0.084948
-0.038909
0.007337
0.048812
0.079779
0.094990
0.090786
0.065895
0.021785
-0.037682
-0.107268
-0.181403
-0.254554
-0.320956
-0.374038
-0.405884
-0.407544
-0.370999
-0.292171
-0.173211
-0.022874
0.144809
0.313039
0.465407
0.588184
0.670609
0.704548
0.685385
0.613404
0.493832
0.335532
0.149409
-0.053015
-0.260487
-0.462215
-0.648011
-0.808881
-0.937769
-1.030138
-1.084278
-1.101232
-1.084340
-1.038892
-0.972303
-0.894149
-0.815051
-0.744834
-0.691314
-0.659902
-0.653231
-0.670761
-0.708779
-0.760760
-0.818021
-0.870890
-0.910057
-0.927527
-0.917364
-0.876496
-0.804963
-0.705079
-0.580188
-0.434009
-0.270929
-0.096991
0.079530
0.249372
0.404958
0.542404
0.661742
0.765973
0.859591
0.946892
1.030646
1.111210
1.185816
1.248534
1.291426
1.306537
1.288400
1.236449
1.155907
1.056515
0.950154
0.848867
0.763298
0.700763
0.663365
0.647481
0.645057
0.645716
0.638474
0.613061
0.561579
0.480020
0.368443
0.230369
0.072598
-0.094953
-0.260371
-0.412201
-0.542386
-0.647039
-0.724529
-0.773800
-0.793839
-0.782976
-0.739046
-0.661607
-0.553221
-0.417423
-0.257402
-0.078689
0.108556
0.291288
0.456609
0.593982
0.697267
0.765340
0.799657
0.801506
0.772114
0.713874
0.630470
0.526593
0.408602
0.286364
0.174420
0.089847
0.045527
0.041379
0.061778
0.083488
0.084980
0.050899
-0.022660
-0.125531
-0.241068
-0.354754
-0.455019
-0.532696
-0.583226
-0.606427
-0.601808
-0.564616
-0.487557
-0.365966
-0.199982
0.006494
0.245582
0.504880
0.769366
1.023594
1.252510
1.442231
1.581624
1.664020
1.687718
1.654936
1.570484
1.441027
1.274446
1.078913
0.862441
0.633667
0.403707
0.188544
0.009869
-0.109701
-0.156933
-0.135440
-0.063316
0.036227
0.143419
0.244922
0.332792
0.402147
0.447497
0.460864
0.435238
0.368842
0.264655
0.127335
-0.037859
-0.224044
-0.422538
-0.624260
-0.820565
-1.002935
-1.162773
-1.291292
-1.379327
-1.418327
-1.402589
-1.331237
-1.209410
-1.047807
-0.859876
-0.658574
-0.454322
-0.253791
-0.060174
0.124573
0.297396
0.453268
0.585439
0.686674
0.751716
0.779871
0.776127
0.750255
0.714636
0.681718
0.660859
0.654545
0.656378
0.653295
0.630726
0.577383
0.488201
0.364851
0.213423
0.041109
-0.145732
-0.341877
-0.542745
-0.743978
-0.941124
-1.128824
-1.300108
-1.447080
-1.562739
-1.642973
-1.687932
-1.701833
-1.690847
-1.660574
-1.615001
-1.557107
-1.489766
-1.416314
-1.340656
-1.266329
-1.194933
-1.125570
-1.055776
-0.983021
-0.905939
-0.824775
-0.741160
-0.658053
-0.579850
-0.511948
-0.459756
-0.427785
-0.419036
-0.434304
-0.471345
-0.524820
-0.587472
-0.651836
-0.711762
-0.763509
-0.806233
-0.841906
-0.874919
-0.911242
-0.956855
-1.015876
-1.089482
-1.176077
-1.272091
-1.372706
-1.472456
-1.565849
-1.647714
-1.713143
-1.757680
-1.778269
-1.774492
-1.749016
-1.706809
-1.653930
-1.596781
-1.541385
-1.492030
-1.449956
-1.413172
-1.377531
-1.338172
-1.290602
-1.231479
-1.159402
-1.075263
-0.981396
-0.879931
-0.771587
-0.655587
-0.530421
-0.394912
-0.249100
-0.094595
0.065573
0.227426
0.386664
0.539194
0.681294
0.809480
0.920436
1.011160
1.079114
1.122344
1.139500
1.129742
1.092834
1.029787
0.943779
0.840711
0.728971
0.618041
0.516404
0.430330
0.364034
0.319699
0.296624
0.290715
0.295362
0.303254
0.307850
0.303998
0.288200
0.259010
0.217207
0.165059
0.104731
0.036984
-0.038914
-0.124364
-0.220508
-0.327583
-0.444349
-0.567418
-0.690924
-0.807049
-0.907174
-0.983272
-1.029474
-1.043452
-1.026875
-0.984727
-0.923933
-0.851843
-0.774961
-0.698157
-0.624399
-0.554842
-0.489160
-0.426021
-0.363810
-0.301878
-0.241952
-0.188427
-0.146937
-0.122259
-0.116959
-0.130911
-0.161041
-0.201469
-0.244794
-0.284124
-0.314603
-0.334033
-0.343069
-0.345207
-0.346114
-0.352091
-0.368397
-0.398307
-0.442870
-0.500668
-0.567405
-0.636080
-0.698504
-0.747683
-0.779724
-0.794602
-0.796045
-0.790653
-0.786293
-0.790284
-0.808119
-0.842878
-0.894904
-0.961440
-1.036785
-1.113637
-1.185251
-1.247041
-1.296754
-1.333814
-1.358549
-1.371315
-1.371843
-1.359299
-1.332701
-1.291073
-1.233393
-1.158880
-1.067807
-0.962197
-0.845865
-0.723873
-0.601664
-0.483980
-0.373850
-0.272093
-0.177603
-0.088385
-0.002752
0.080112
0.160329
0.237674
0.311804
0.382687
0.450960
0.517624
0.583207
0.647030
0.706751
0.758198
0.795802
0.813694
0.807104
0.773615
0.713794
0.631044
0.530968
0.420536
0.307007
0.196800
0.094801
0.004171
-0.073648
-0.138811
-0.192519
-0.236118
-0.270295
-0.294791
-0.308638
-0.310703
-0.300296
-0.277644
-0.244137
-0.202290
-0.155492
-0.107559
-0.062035
-0.021373
0.013507
0.042932
0.067615
0.087693
0.102116
0.108695
0.104837
0.088667
0.060085
0.021259
-0.023704
-0.069587
-0.110846
-0.142376
-0.160554
-0.164237
-0.155000
-0.136507
-0.113361
-0.089947
-0.069745
-0.055192
-0.047812
-0.048367
-0.056898
-0.072575
-0.093565
-0.117347
-0.141420
-0.163671
-0.182183
-0.195208
-0.201762
-0.202063
-0.197206
-0.188531
-0.177185
-0.163792
-0.148227
-0.129888
-0.108486
-0.084710
-0.060197
-0.036947
-0.016587
0.000279
0.014295
0.026908
0.039491
0.052601
0.065792
0.077941
0.087764
0.094343
0.097568
0.098215
0.097545
0.096700
0.096195
0.095781
0.094756
