EVENT_NAME: L_AQUILA
EVENT_ID: IT-2009-0009
EVENT_DATE_YYYYMMDD: 20090406
EVENT_TIME_HHMMSS: 013240
EVENT_LATITUDE_DEGREE: 42.3420
EVENT_LONGITUDE_DEGREE: 13.3800
EVENT_DEPTH_KM: 8.3
HYPOCENTER_REFERENCE: INGV-CNT_Seismic_Bulletin
MAGNITUDE_W: 6.3
MAGNITUDE_W_REFERENCE: RCMT-INGV
MAGNITUDE_L: 5.9
MAGNITUDE_L_REFERENCE: INGV-CNT_Seismic_Bulletin
FOCAL_MECHANISM: NF
NETWORK: IT
STATION_CODE: AQK
STATION_NAME: L'AQUILA - V. ATERNO - AQUIL PARK ING.
STATION_LATITUDE_DEGREE: 42.344967
STATION_LONGITUDE_DEGREE: 13.400949
STATION_ELEVATION_M: 726
LOCATION: 
SENSOR_DEPTH_M: 0.0
VS30_M/S: 705
SITE_CLASSIFICATION_EC8: B
MORPHOLOGIC_CLASSIFICATION: SL
EPICENTRAL_DISTANCE_KM: 1.8
EARTHQUAKE_BACKAZIMUTH_DEGREE: 259.2
DATE_TIME_FIRST_SAMPLE_YYYYMMDD_HHMMSS: 20090406_013212.000
DATE_TIME_FIRST_SAMPLE_PRECISION: seconds
SAMPLING_INTERVAL_S: 0.005000
NDATA: 20001
DURATION_S: 100.005
STREAM: HNN
UNITS: cm/s
INSTRUMENT: sensor = FBA-3 [Kinemetrics] | digitizer = Etna [Kinemetrics]
INSTRUMENT_ANALOG/DIGITAL: D
INSTRUMENTAL_FREQUENCY_HZ: 214.000
INSTRUMENTAL_DAMPING: 0.700000
FULL_SCALE_G: 1.0
N_BIT_DIGITAL_CONVERTER: 18
PGV_CM/S: -35.797610
TIME_PGV_S: 32.955000
BASELINE_CORRECTION: BASELINE REMOVED
FILTER_TYPE: BUTTERWORTH
FILTER_ORDER: 2
LOW_CUT_FREQUENCY_HZ: 0.100
HIGH_CUT_FREQUENCY_HZ: 40.000
LATE/NORMAL_TRIGGERED: NT
DATABASE_VERSION: DYNA 1.0
HEADER_FORMAT: DYNA 1.2
DATA_TYPE: VELOCITY
PROCESSING: manual (Paolucci et al., 2011)
DATA_TIMESTAMP_YYYYMMDD_HHMMSS: 
DATA_LICENSE: CC-BY3_0-IT (http://creativecommons.org/licenses/by/3.0/deed.en)
DATA_CITATION: ESM working group (2015), European Strong-Motion database, version 0.1, Network Activity 3: Networking acceleration networks and SM data users. Project NERA (www.nera-eu.org)
DATA_CREATOR: ESM working group
ORIGINAL_DATA_MEDIATOR_CITATION: data obtained within the DPC-INGV data exchange agreements
ORIGINAL_DATA_MEDIATOR: Archive of Italian Department of Civil Protection
ORIGINAL_DATA_CREATOR_CITATION: Italian Strong Motion Network, Italian Civil Protection Department http://www.protezionecivile.gov.it
ORIGINAL_DATA_CREATOR: network: IT (Italian Strong Motion Network); owner: Dipartimento Della Protezione Civile
USER1: 
USER2: 
USER3: 
USER4: 
USER5: 
[...]
-0.117896
-0.118349
-0.118798
-0.119247
-0.119697
-0.120133
-0.120553
-0.120971
-0.121391
-0.121808
-0.122223
-0.122651
-0.123104
-0.123572
-0.124028
-0.124463
-0.124890
-0.125328
-0.125776
-0.126229
-0.126680
-0.127125
-0.127564
-0.128007
-0.128469
-0.128942
-0.129410
-0.129864
-0.130310
-0.130751
-0.131189
-0.131628
-0.132077
-0.132551
-0.133041
-0.133519
-0.133971
-0.134420
-0.134884
-0.135361
-0.135843
-0.136321
-0.136787
-0.137246
-0.137711
-0.138190
-0.138676
-0.139154
-0.139621
-0.140085
-0.140556
-0.141034
-0.141520
-0.142010
-0.142492
-0.142956
-0.143403
-0.143849
-0.144316
-0.144801
-0.145291
-0.145778
-0.146256
-0.146720
-0.147185
-0.147672
-0.148178
-0.148682
-0.149167
-0.149632
-0.150089
-0.150548
-0.151013
-0.151490
-0.151978
-0.152472
-0.152963
-0.153449
-0.153932
-0.154418
-0.154911
-0.155409
-0.155912
-0.156415
-0.156915
-0.157407
-0.157893
-0.158385
-0.158885
-0.159387
-0.159894
-0.160409
-0.160925
-0.161432
-0.161930
-0.162428
-0.162921
-0.163403
-0.163884
-0.164376
-0.164887
-0.165408
-0.165927
-0.166439
-0.166946
-0.167455
-0.167966
-0.168478
-0.168991
-0.169503
-0.170011
-0.170518
-0.171023
-0.171525
-0.172032
-0.172554
-0.173085
-0.173605
-0.174106
-0.174604
-0.175113
-0.175634
-0.176162
-0.176699
-0.177237
-0.177763
-0.178276
-0.178791
-0.179315
-0.179840
-0.180355
-0.180864
-0.181379
-0.181904
-0.182437
-0.182973
-0.183504
-0.184023
-0.184530
-0.185039
-0.185565
-0.186102
-0.186635
-0.187158
-0.187679
-0.188208
-0.188740
-0.189275
-0.189815
-0.190360
-0.190899
-0.191421
-0.191935
-0.192456
-0.192988
-0.193530
-0.194081
-0.194627
-0.195157
-0.195680
-0.196218
-0.196777
-0.197336
-0.197878
-0.198403
-0.198923
-0.199446
-0.199978
-0.200524
-0.201081
-0.201639
-0.202186
-0.202728
-0.203278
-0.203835
-0.204389
-0.204940
-0.205492
-0.206036
-0.206568
-0.207103
-0.207658
-0.208225
-0.208779
-0.209317
-0.209850
-0.210386
-0.210925
-0.211465
-0.212011
-0.212569
-0.213132
-0.213689
-0.214239
-0.214790
-0.215345
-0.215898
-0.216447
-0.216994
-0.217539
-0.218090
-0.218653
-0.219224
-0.219789
-0.220340
-0.220881
-0.221423
-0.221971
-0.222523
-0.223075
-0.223621
-0.224160
-0.224698
-0.225247
-0.225806
-0.226369
-0.226925
-0.227474
-0.228019
-0.228561
-0.229098
-0.229634
-0.230181
-0.230743
-0.231309
-0.231866
-0.232412
-0.232956
-0.233507
-0.234069
-0.234641
-0.235214
-0.235779
-0.236334
-0.236884
-0.237433
-0.237984
-0.238540
-0.239099
-0.239653
-0.240203
-0.240755
-0.241314
-0.241881
-0.242449
-0.243007
-0.243559
-0.244115
-0.244676
-0.245245
-0.245820
-0.246398
-0.246966
-0.247514
-0.248052
-0.248604
-0.249179
-0.249760
-0.250326
-0.250876
-0.251421
-0.251969
-0.252520
-0.253074
-0.253634
-0.254197
-0.254758
-0.255320
-0.255887
-0.256462
-0.257035
-0.257599
-0.258160
-0.258722
-0.259281
-0.259835
-0.260389
-0.260942
-0.261494
-0.262052
-0.262614
-0.263168
-0.263715
-0.264271
-0.264840
-0.265406
-0.265959
-0.266506
-0.267060
-0.267622
-0.268186
-0.268749
-0.269308
-0.269857
-0.270394
-0.270933
-0.271487
-0.272052
-0.272614
-0.273168
-0.273722
-0.274275
-0.274822
-0.275363
-0.275910
-0.276464
-0.277016
-0.277562
-0.278114
-0.278678
-0.279249
-0.279823
-0.280395
-0.280952
-0.281489
-0.282016
-0.282548
-0.283091
-0.283638
-0.284182
-0.284725
-0.285276
-0.285841
-0.286418
-0.286997
-0.287563
-0.288108
-0.288639
-0.289166
-0.289702
-0.290249
-0.290801
-0.291350
-0.291890
-0.292421
-0.292951
-0.293485
-0.294028
-0.294576
-0.295118
-0.295650
-0.296181
-0.296714
-0.297248
-0.297785
-0.298329
-0.298870
-0.299399
-0.299919
-0.300441
-0.300975
-0.301520
-0.302061
-0.302583
-0.303085
-0.303580
-0.304080
-0.304594
-0.305123
-0.305659
-0.306188
-0.306705
-0.307218
-0.307736
-0.308267
-0.308807
-0.309340
-0.309850
-0.310334
-0.310812
-0.311308
-0.311826
-0.312355
-0.312885
-0.313414
-0.313935
-0.314444
-0.314944
-0.315447
-0.315959
-0.316471
-0.316976
-0.317476
-0.317973
-0.318467
-0.318962
-0.319463
-0.319971
-0.320475
-0.320965
-0.321444
-0.321925
-0.322411
-0.322899
-0.323384
-0.323864
-0.324344
-0.324827
-0.325312
-0.325803
-0.326303
-0.326806
-0.327304
-0.327796
-0.328282
-0.328766
-0.329252
-0.329743
-0.330234
-0.330721
-0.331202
-0.331681
-0.332166
-0.332656
-0.333140
-0.333619
-0.334094
-0.334563
-0.335027
-0.335499
-0.335980
-0.336462
-0.336938
-0.337403
-0.337858
-0.338310
-0.338762
-0.339218
-0.339684
-0.340157
-0.340627
-0.341091
-0.341552
-0.342008
-0.342453
-0.342885
-0.343312
-0.343742
-0.344173
-0.344602
-0.345033
-0.345470
-0.345908
-0.346337
-0.346759
-0.347187
-0.347629
-0.348075
-0.348523
-0.348962
-0.349382
-0.349786
-0.350195
-0.350621
-0.351053
-0.351478
-0.351893
-0.352303
-0.352716
-0.353132
-0.353548
-0.353960
-0.354366
-0.354760
-0.355143
-0.355530
-0.355921
-0.356308
-0.356688
-0.357067
-0.357450
-0.357835
-0.358222
-0.358616
-0.359015
-0.359410
-0.359795
-0.360170
-0.360538
-0.360902
-0.361264
-0.361625
-0.361989
-0.362348
-0.362696
-0.363038
-0.363386
-0.363739
-0.364090
-0.364440
-0.364790
-0.365132
-0.365456
-0.365770
-0.366091
-0.366429
-0.366778
-0.367119
-0.367447
-0.367772
-0.368097
-0.368423
-0.368750
-0.369083
-0.369413
-0.369729
-0.370039
-0.370358
-0.370681
-0.370996
-0.371298
-0.371593
-0.371884
-0.372171
-0.372460
-0.372755
-0.373054
-0.373341
-0.373615
-0.373886
-0.374161
-0.374436
-0.374705
-0.374971
-0.375233
-0.375479
-0.375707
-0.375938
-0.376195
-0.376474
-0.376756
-0.377029
-0.377288
-0.377531
-0.377763
-0.377993
-0.378231
-0.378473
-0.378708
-0.378933
-0.379153
-0.379376
-0.379601
-0.379831
-0.380064
-0.380286
-0.380485
-0.380666
-0.380851
-0.381051
-0.381262
-0.381474
-0.381686
-0.381892
-0.382089
-0.382278
-0.382465
-0.382654
-0.382842
-0.383014
-0.383164
-0.383308
-0.383460
-0.383620
-0.383777
-0.383922
-0.384051
-0.384173
-0.384305
-0.384448
-0.384591
-0.384729
-0.384870
-0.385011
-0.385139
-0.385252
-0.385362
-0.385481
-0.385611
-0.385739
-0.385861
-0.385974
-0.386074
-0.386165
-0.386262
-0.386371
-0.386472
-0.386552
-0.386621
-0.386692
-0.386765
-0.386834
-0.386900
-0.386963
-0.387017
-0.387059
-0.387101
-0.387155
-0.387217
-0.387273
-0.387313
-0.387338
-0.387359
-0.387386
-0.387422
-0.387459
-0.387486
-0.387496
-0.387493
-0.387482
-0.387468
-0.387454
-0.387445
-0.387441
-0.387435
-0.387417
-0.387384
-0.387348
-0.387321
-0.387302
-0.387278
-0.387239
-0.387189
-0.387136
-0.387085
-0.387035
-0.386984
-0.386928
-0.386859
-0.386768
-0.386669
-0.386580
-0.386507
-0.386440
-0.386362
-0.386264
-0.386146
-0.386013
-0.385874
-0.385742
-0.385620
-0.385490
-0.385345
-0.385193
-0.385042
-0.384892
-0.384743
-0.384594
-0.384441
-0.384274
-0.384098
-0.383931
-0.383783
-0.383636
-0.383471
-0.383289
-0.383097
-0.382893
-0.382673
-0.382450
-0.382235
-0.382024
-0.381809
-0.381581
-0.381347
-0.381116
-0.380890
-0.380658
-0.380414
-0.380154
-0.379875
-0.379582
-0.379292
-0.379013
-0.378730
-0.378442
-0.378161
-0.377890
-0.377610
-0.377311
-0.376999
-0.376686
-0.376370
-0.376043
-0.375706
-0.375362
-0.375012
-0.374662
-0.374316
-0.373970
-0.373617
-0.373251
-0.372871
-0.372479
-0.372085
-0.371692
-0.371300
-0.370899
-0.370492
-0.370084
-0.369680
-0.369272
-0.368849
-0.368409
-0.367958
-0.367498
-0.367031
-0.366565
-0.366109
-0.365652
-0.365176
-0.364677
-0.364169
-0.363672
-0.363192
-0.362714
-0.362219
-0.361704
-0.361173
-0.360632
-0.360096
-0.359570
-0.359038
-0.358486
-0.357919
-0.357349
-0.356773
-0.356183
-0.355580
-0.354977
-0.354384
-0.353798
-0.353207
-0.352606
-0.351996
-0.351376
-0.350753
-0.350128
-0.349502
-0.348865
-0.348211
-0.347563
-0.346942
-0.346317
-0.345652
-0.344972
-0.344269
-0.343583
-0.343166
-0.343341
-0.344240
-0.345802
-0.347973
-0.349727
-0.348961
-0.345002
-0.339543
-0.335278
-0.334850
-0.338750
-0.343062
-0.342441
-0.334533
-0.321473
-0.311515
-0.312284
-0.321281
-0.330996
-0.334951
-0.328345
-0.314404
-0.302701
-0.297788
-0.300171
-0.308310
-0.313536
-0.311970
-0.313922
-0.320988
-0.317010
-0.300226
-0.290221
-0.295681
-0.308825
-0.322676
-0.329927
-0.319452
-0.295132
-0.280878
-0.286120
-0.294219
-0.295741
-0.299314
-0.309078
-0.319008
-0.324018
-0.321672
-0.309901
-0.287059
-0.258830
-0.245615
-0.267416
-0.318126
-0.363749
-0.367674
-0.320362
-0.253531
-0.219962
-0.246406
-0.308182
-0.354818
-0.359255
-0.330957
-0.289878
-0.257780
-0.257798
-0.287908
-0.313619
-0.310248
-0.290178
-0.270811
-0.245650
-0.214127
-0.208356
-0.246657
-0.291526
-0.301292
-0.280507
-0.248499
-0.216644
-0.203070
-0.218626
-0.251487
-0.283561
-0.293922
-0.266035
-0.226188
-0.229048
-0.283782
-0.343088
-0.363622
-0.342934
-0.301366
-0.256959
-0.232157
-0.241778
-0.261801
-0.266011
-0.271446
-0.293652
-0.307746
-0.293218
-0.258386
-0.203228
-0.128035
-0.078297
-0.102895
-0.180458
-0.246884
-0.267043
-0.245173
-0.197522
-0.143361
-0.109239
-0.111411
-0.135172
-0.158622
-0.187720
-0.240463
-0.306456
-0.344500
-0.323460
-0.265531
-0.227717
-0.225977
-0.225469
-0.208549
-0.192578
-0.192469
-0.206499
-0.229951
-0.260322
-0.279710
-0.258271
-0.206611
-0.180186
-0.207686
-0.272448
-0.339111
-0.352100
-0.268092
-0.106727
0.069693
0.200796
0.238865
0.159590
0.002490
-0.099065
-0.010982
0.250325
0.534809
0.705500
0.721086
0.621423
0.499754
0.480632
0.628160
0.858520
1.025767
1.084806
1.075672
0.995103
0.834078
0.695962
0.725392
0.917790
1.072704
1.011215
0.843700
0.843341
1.029602
1.147139
1.056459
0.877379
0.769386
0.767643
0.825477
0.880390
0.848531
0.667395
0.404956
0.224140
0.207602
0.297575
0.375555
0.359754
0.269783
0.195432
0.199128
0.273883
0.354600
0.365897
0.322067
0.323726
0.401369
0.455642
0.394231
0.266668
0.217856
0.325460
0.531908
0.719804
0.832323
0.933647
1.111614
1.346141
1.563680
1.732714
1.817315
1.780951
1.662720
1.532055
1.438964
1.432398
1.518230
1.645935
1.788367
1.942230
2.064933
2.122105
2.148487
2.198028
2.285146
2.366136
2.367496
2.278396
2.198030
2.265529
2.558834
3.038906
3.561561
3.981454
4.249581
4.386230
4.432263
4.457964
4.548977
4.760916
5.092810
5.455462
5.683375
5.671445
5.458598
5.190351
5.061046
5.144052
5.316354
5.465634
5.596821
5.743534
5.940667
6.207056
6.482159
6.649416
6.630816
6.464861
6.328021
6.388704
6.631322
6.913615
7.080664
7.047737
6.948065
7.005445
7.178330
7.220731
7.062812
6.866960
6.787021
6.888530
7.196682
7.592827
7.768473
7.516046
6.982604
6.471544
6.144800
6.011188
6.019485
6.108215
6.239527
6.394390
6.544660
6.663420
6.752882
6.835690
6.915619
6.938580
6.880494
6.877040
7.096922
7.513351
7.902981
8.061331
7.992783
7.859747
7.854089
8.140141
8.723939
9.380912
9.786987
9.678337
9.043569
8.260880
7.825546
7.935125
8.465133
9.128189
9.622990
9.845260
9.895438
9.920621
10.028170
10.177970
10.208850
10.103350
10.057470
10.234800
10.634970
11.147150
11.584950
11.791530
11.782320
11.723000
11.774110
11.939450
12.062210
12.034040
11.973290
12.100120
12.477000
12.943120
13.252760
13.270980
13.095750
12.941380
12.904580
12.956740
13.082100
13.298550
13.619190
14.016840
14.371230
14.536190
14.517460
14.478880
14.570470
14.834400
15.216770
15.602480
15.850670
15.843280
15.574970
15.178830
14.812180
14.542910
14.361830
14.302660
14.484560
14.945070
15.546770
16.111370
16.482821
16.557880
16.437071
16.386230
16.578350
16.990431
17.497919
17.921400
18.042360
17.818390
17.515020
17.392799
17.427420
17.420620
17.192209
16.681549
15.974140
15.261030
14.724170
14.373960
14.016140
13.427930
12.559610
11.540980
10.544340
9.708710
9.131402
8.846326
8.812180
8.930358
9.073694
9.168199
9.285757
9.549554
9.952349
10.399040
10.851170
11.322120
11.810090
12.264690
12.585210
12.682440
12.562560
12.341380
12.194590
12.304270
12.768760
13.463100
14.039080
14.159920
13.742220
13.020530
12.427750
12.338520
12.877340
13.953790
15.384880
16.904400
18.173820
18.990829
19.451180
19.789110
20.153061
20.594080
21.123220
21.687429
22.188030
22.570539
22.828501
22.942030
22.850479
22.449120
21.656340
20.540850
19.290720
17.998249
16.583040
14.966090
13.232170
11.593860
10.219210
9.133593
8.307691
7.726925
7.283714
6.766921
6.094681
5.331977
4.447864
3.362626
2.132873
0.908923
-0.184999
-1.143813
-2.052231
-2.968274
-3.923592
-4.962763
-6.094414
-7.241406
-8.315332
-9.314886
-10.272180
-11.161350
-11.927420
-12.552790
-13.058560
-13.480960
-13.875460
-14.329270
-14.935830
-15.724810
-16.639500
-17.578520
-18.399490
-18.952850
-19.235880
-19.457939
-19.855579
-20.486980
-21.234461
-21.930321
-22.489950
-22.959909
-23.369370
-23.610510
-23.643539
-23.703320
-24.090380
-24.855400
-25.813120
-26.777220
-27.698990
-28.586901
-29.413191
-30.171850
-30.892200
-31.559580
-32.136169
-32.631859
-33.100529
-33.615250
-34.225201
-34.887249
-35.466400
-35.797611
-35.742500
-35.266960
-34.524010
-33.788029
-33.236408
-32.851250
-32.518940
-32.132069
-31.614700
-30.912590
-30.039860
-29.193680
-28.698990
-28.731810
-29.205641
-29.919170
-30.640520
-31.117531
-31.174471
-30.824909
-30.314739
-30.010090
-30.132320
-30.607651
-31.187290
-31.658661
-31.954760
-32.131729
-32.275848
-32.446869
-32.703110
-33.086349
-33.527069
-33.876381
-34.052380
-34.037769
-33.803600
-33.364410
-32.820358
-32.267921
-31.747690
-31.293079
-30.968069
-30.852070
-30.993710
-31.375010
-31.917160
-32.519199
-33.112591
-33.664612
-34.120209
-34.416660
-34.536270
-34.435749
-34.017181
-33.296268
-32.458870
-31.637360
-30.769480
-29.755251
-28.629021
-27.521250
-26.525040
-25.607691
-24.617300
-23.416691
-22.041861
-20.697220
-19.590160
-18.793249
-18.259069
-17.921989
-17.734640
-17.619030
-17.448549
-17.104139
-16.534941
-15.787630
-15.006420
-14.363130
-13.946150
-13.735380
-13.676590
-13.733160
-13.869500
-14.031280
-14.143210
-14.120660
-13.924240
-13.610660
-13.291440
-13.010090
-12.687770
-12.240610
-11.681890
-11.035890
-10.250650
-9.277485
-8.157420
-6.972235
-5.766997
-4.554451
-3.350501
-2.173523
-1.027710
0.089922
1.166728
2.157481
2.990009
3.613750
4.052154
4.392414
4.730401
5.138013
5.660079
6.293351
6.965236
7.582555
8.119169
8.635504
9.214773
9.890375
10.621830
11.341820
12.021910
12.658860
13.215330
13.630240
13.871740
13.935640
13.828710
13.603800
13.378920
13.280770
13.368070
13.599620
13.868090
14.082080
14.213940
14.260080
14.193780
13.989240
13.659430
13.222520
12.679160
12.101740
11.677490
11.604100
11.970890
12.686240
13.509500
14.223620
14.766150
15.183490
15.526630
15.830090
16.120199
16.373240
16.491171
16.363310
15.976420
15.438030
14.858980
14.276750
13.716850
13.229100
12.838160
12.542120
12.377560
12.389610
12.501040
12.537420
12.430150
12.293120
12.298460
12.535950
12.978170
13.532310
14.067310
14.445280
14.634640
14.737080
14.850140
14.985180
15.131370
15.309230
15.527810
15.743740
15.911360
16.046141
16.193171
16.361830
16.534031
16.703180
16.873249
17.044550
17.214830
17.373980
17.493210
17.541019
17.495680
17.328560
17.010799
16.539970
15.944080
15.290950
14.692840
14.245520
13.950620
13.721340
13.445000
13.029760
12.445180
11.748320
11.047260
10.427390
9.912083
9.477474
9.086747
8.705058
8.286344
7.783277
7.199617
6.604691
6.090872
5.729718
5.535581
5.442658
5.330324
5.094409
4.701556
4.189952
3.640048
3.137898
2.748042
2.505680
2.410598
2.407404
2.389757
2.269387
2.052388
1.815360
1.602230
1.404596
1.242268
1.180619
1.254339
1.406412
1.478460
1.305365
0.981954
0.854789
1.016018
1.233556
1.410324
1.566365
1.615816
1.474179
1.162552
0.799216
0.516380
0.372959
0.359435
0.410763
0.457964
0.487678
0.523656
0.589334
0.685440
0.802803
0.947010
1.132170
1.372625
1.686725
2.090905
2.581047
3.135357
3.715697
4.240954
4.617640
4.812237
4.843315
4.731610
4.503365
4.195089
3.807065
3.295257
2.647347
1.932403
1.252630
0.662034
0.136015
-0.391078
-0.965569
-1.592241
-2.263665
-2.986460
-3.764128
-4.577784
-5.401145
-6.220079
-7.043471
-7.916730
-8.895634
-9.958249
-10.977100
-11.826230
-12.460540
-12.886490
-13.152940
-13.348330
-13.526030
-13.663680
-13.714720
-13.658390
-13.506790
-13.296180
-13.072640
-12.865880
-12.658710
-12.384560
-11.967170
-11.373190
-10.647570
-9.902753
-9.248154
-8.746287
-8.448282
-8.385120
-8.488488
-8.606383
-8.617552
-8.476160
-8.176895
-7.741547
-7.220574
-6.687009
-6.221947
-5.865297
-5.579985
-5.300762
-5.025203
-4.823240
-4.739945
-4.742401
-4.779487
-4.828568
-4.860259
-4.813131
-4.655010
-4.441006
-4.257863
-4.126674
-3.993718
-3.797983
-3.512903
-3.147804
-2.757493
-2.425211
-2.207861
-2.124196
-2.188487
-2.417892
-2.811267
-3.340935
-3.956633
-4.593493
-5.189051
-5.698731
-6.108716
-6.437800
-6.710584
-6.927420
-7.056516
-7.040919
-6.827265
-6.410276
-5.842211
-5.200150
-4.556130
-3.951169
-3.371974
-2.774261
-2.146047
-1.531230
-0.986993
-0.544549
-0.207001
0.045621
0.239435
0.394814
0.554338
0.769164
1.018066
1.218205
1.341847
1.440096
1.550626
1.655944
1.716242
1.683005
1.496446
1.119204
0.578365
-0.044997
-0.652876
-1.143232
-1.439061
-1.548104
-1.570252
-1.620755
-1.735759
-1.838933
-1.795067
-1.501972
-0.947375
-0.203079
0.621739
1.426806
2.142232
2.748063
3.290056
3.836273
4.408522
4.987542
5.570896
6.189455
6.879904
7.665207
8.527960
9.381522
10.120430
10.702460
11.131940
11.409670
11.550330
11.571110
11.423700
11.027880
10.394740
9.639758
8.881717
8.204049
7.690019
7.393823
7.258089
7.128425
6.893313
6.565088
6.195259
5.799854
5.382349
4.944734
4.482046
3.982152
3.416568
2.758047
2.015835
1.231775
0.446663
-0.307309
-0.999634
-1.620754
-2.186963
-2.689073
-3.063669
-3.263235
-3.325726
-3.338402
-3.367332
-3.437068
-3.539723
-3.635312
-3.659603
-3.574176
-3.426109
-3.346740
-3.484475
-3.916350
-4.595720
-5.403466
-6.247892
-7.079843
-7.866895
-8.604038
-9.285893
-9.853786
-10.231650
-10.405860
-10.435670
-10.412970
-10.423780
-10.504660
-10.617340
-10.692950
-10.712560
-10.727720
-10.805970
-10.977530
-11.226880
-11.525440
-11.867330
-12.252050
-12.650870
-13.022290
-13.336240
-13.563060
-13.660040
-13.595430
-13.404110
-13.217380
-13.193930
-13.374230
-13.623730
-13.741900
-13.596210
-13.161140
-12.507780
-11.797050
-11.194370
-10.719610
-10.262250
-9.741782
-9.150526
-8.508165
-7.854505
-7.218282
-6.597283
-6.003046
-5.459839
-4.967795
-4.524400
