EVENT_NAME: L_AQUILA
EVENT_ID: IT-2009-0009
EVENT_DATE_YYYYMMDD: 20090406
EVENT_TIME_HHMMSS: 013240
EVENT_LATITUDE_DEGREE: 42.3420
EVENT_LONGITUDE_DEGREE: 13.3800
EVENT_DEPTH_KM: 8.3
HYPOCENTER_REFERENCE: INGV-CNT_Seismic_Bulletin
MAGNITUDE_W: 6.3
MAGNITUDE_W_REFERENCE: RCMT-INGV
MAGNITUDE_L: 5.9
MAGNITUDE_L_REFERENCE: INGV-CNT_Seismic_Bulletin
FOCAL_MECHANISM: NF
NETWORK: IT
STATION_CODE: AQK
STATION_NAME: L'AQUILA - V. ATERNO - AQUIL PARK ING.
STATION_LATITUDE_DEGREE: 42.344967
STATION_LONGITUDE_DEGREE: 13.400949
STATION_ELEVATION_M: 726
LOCATION: 
SENSOR_DEPTH_M: 0.0
VS30_M/S: 705
SITE_CLASSIFICATION_EC8: B
MORPHOLOGIC_CLASSIFICATION: SL
EPICENTRAL_DISTANCE_KM: 1.8
EARTHQUAKE_BACKAZIMUTH_DEGREE: 259.2
DATE_TIME_FIRST_SAMPLE_YYYYMMDD_HHMMSS: 20090406_013212.000
DATE_TIME_FIRST_SAMPLE_PRECISION: seconds
SAMPLING_INTERVAL_S: 0.005000
NDATA: 20001
DURATION_S: 100.005
STREAM: HNZ
UNITS: cm/s^2
INSTRUMENT: sensor = FBA-3 [Kinemetrics] | digitizer = Etna [Kinemetrics]
INSTRUMENT_ANALOG/DIGITAL: D
INSTRUMENTAL_FREQUENCY_HZ: 204.000
INSTRUMENTAL_DAMPING: 0.700000
FULL_SCALE_G: 1.0
N_BIT_DIGITAL_CONVERTER: 18
PGA_CM/S^2: 355.459606
TIME_PGA_S: 31.780000
BASELINE_CORRECTION: BASELINE REMOVED
FILTER_TYPE: BUTTERWORTH
FILTER_ORDER: 2
LOW_CUT_FREQUENCY_HZ: 0.100
HIGH_CUT_FREQUENCY_HZ: 40.000
LATE/NORMAL_TRIGGERED: NT
DATABASE_VERSION: DYNA 1.0
HEADER_FORMAT: DYNA 1.2
DATA_TYPE: ACCELERATION
PROCESSING: manual (Paolucci et al., 2011)
DATA_TIMESTAMP_YYYYMMDD_HHMMSS: 
DATA_LICENSE: CC-BY3_0-IT (http://creativecommons.org/licenses/by/3.0/deed.en)
DATA_CITATION: ESM working group (2015), European Strong-Motion database, version 0.1, Network Activity 3: Networking acceleration networks and SM data users. Project NERA (www.nera-eu.org)
DATA_CREATOR: ESM working group
ORIGINAL_DATA_MEDIATOR_CITATION: data obtained within the DPC-INGV data exchange agreements
ORIGINAL_DATA_MEDIATOR: Archive of Italian Department of Civil Protection
ORIGINAL_DATA_CREATOR_CITATION: Italian Strong Motion Network, Italian Civil Protection Department http://www.protezionecivile.gov.it
ORIGINAL_DATA_CREATOR: network: IT (Italian Strong Motion Network); owner: Dipartimento Della Protezione Civile
USER1: 
USER2: 
USER3: 
USER4: 
USER5: 
[...]
0.018442
0.020701
0.020624
0.019900
0.020224
0.021189
0.021355
0.021128
0.021860
0.023290
0.024591
0.025497
0.025450
0.024266
0.023017
0.023071
0.024855
0.027080
0.027997
0.027748
0.028007
0.029098
0.028871
0.026302
0.023997
0.024591
0.027258
0.029165
0.029138
0.028436
0.028369
0.029049
0.029807
0.030111
0.030286
0.030999
0.032649
0.035090
0.037039
0.036905
0.035211
0.034411
0.035240
0.035898
0.035786
0.036277
0.037847
0.039565
0.040291
0.039634
0.038752
0.039312
0.040966
0.041618
0.041086
0.041371
0.042574
0.042938
0.042595
0.042987
0.044181
0.045576
0.046429
0.045930
0.045124
0.045173
0.044869
0.043813
0.043996
0.046143
0.048115
0.048501
0.048833
0.050010
0.050009
0.047809
0.046111
0.046995
0.048692
0.049643
0.050652
0.052027
0.053152
0.054176
0.055374
0.056029
0.055917
0.055686
0.055444
0.055054
0.054396
0.054014
0.054775
0.055523
0.055100
0.055082
0.056600
0.058059
0.058263
0.058245
0.058913
0.059829
0.060551
0.061630
0.063599
0.065416
0.065719
0.064857
0.063879
0.063249
0.063686
0.065474
0.067218
0.067661
0.066915
0.065962
0.065832
0.066297
0.066900
0.068512
0.071540
0.074203
0.075023
0.075204
0.075838
0.076008
0.075343
0.075268
0.076682
0.077985
0.077370
0.075659
0.074474
0.074226
0.074983
0.076313
0.077520
0.078588
0.078698
0.077192
0.076196
0.077676
0.080382
0.082527
0.083954
0.084730
0.084425
0.083190
0.082433
0.083239
0.084615
0.085418
0.086547
0.088439
0.089102
0.087789
0.086814
0.087799
0.089782
0.091168
0.091719
0.092326
0.093386
0.094502
0.095071
0.094887
0.094431
0.094001
0.093899
0.094676
0.095973
0.097198
0.098229
0.098801
0.098556
0.097132
0.095626
0.096654
0.099998
0.102359
0.102974
0.103769
0.104810
0.105046
0.105070
0.105499
0.105607
0.105112
0.105004
0.105961
0.107656
0.109312
0.109872
0.109043
0.107870
0.107544
0.108187
0.109005
0.110322
0.112477
0.113571
0.112980
0.112672
0.113429
0.114330
0.114963
0.115850
0.117273
0.118557
0.119186
0.119777
0.120427
0.120647
0.121587
0.124223
0.126882
0.127084
0.124506
0.121869
0.121793
0.123384
0.124229
0.124485
0.126050
0.128468
0.129626
0.130018
0.132092
0.134804
0.134452
0.132490
0.133738
0.137079
0.137681
0.135584
0.134560
0.135682
0.136880
0.137087
0.137620
0.139555
0.141872
0.142854
0.142238
0.141472
0.141812
0.142977
0.144252
0.145671
0.147177
0.147590
0.146153
0.144335
0.144202
0.146202
0.149266
0.151591
0.151907
0.150814
0.150197
0.151387
0.153859
0.155221
0.154225
0.153499
0.155607
0.158742
0.159590
0.157858
0.156571
0.158088
0.161160
0.163576
0.165173
0.166054
0.165164
0.163208
0.163116
0.165173
0.166230
0.165155
0.164696
0.166835
0.169384
0.169899
0.169447
0.169413
0.170187
0.172160
0.174046
0.174524
0.174708
0.175836
0.177720
0.179703
0.180482
0.179231
0.177775
0.177849
0.178617
0.179499
0.180972
0.182791
0.184407
0.185592
0.185992
0.185842
0.186297
0.187999
0.190571
0.192671
0.193195
0.193201
0.193813
0.194634
0.195304
0.195111
0.194193
0.194839
0.197052
0.198158
0.198230
0.198957
0.200091
0.201200
0.202651
0.204377
0.205647
0.205645
0.204775
0.204594
0.205923
0.208031
0.209657
0.210290
0.210244
0.210266
0.211010
0.211950
0.211823
0.210797
0.210655
0.212656
0.216080
0.218696
0.219328
0.219278
0.220011
0.221874
0.224323
0.225777
0.225284
0.223796
0.223510
0.225356
0.226860
0.226411
0.226200
0.227359
0.228656
0.229880
0.231365
0.232260
0.232144
0.232318
0.233605
0.235399
0.237507
0.239425
0.239582
0.238213
0.237719
0.239582
0.242794
0.244804
0.244227
0.242353
0.241860
0.244017
0.246701
0.247308
0.246959
0.248076
0.249922
0.250740
0.251126
0.252060
0.253472
0.255265
0.256794
0.257348
0.257620
0.258360
0.259059
0.258924
0.258594
0.260078
0.263222
0.265337
0.265365
0.264180
0.263173
0.264063
0.266922
0.269826
0.271242
0.271290
0.271222
0.271823
0.272681
0.273851
0.275783
0.277592
0.278506
0.278841
0.279197
0.280410
0.281958
0.282260
0.282031
0.283259
0.285476
0.286887
0.287474
0.288169
0.288893
0.289247
0.289674
0.290808
0.292661
0.294924
0.296865
0.297665
0.297718
0.298228
0.300015
0.302417
0.303560
0.303585
0.304339
0.305407
0.305511
0.305749
0.307429
0.309390
0.309895
0.309672
0.310898
0.313251
0.313909
0.312303
0.311507
0.313578
0.316861
0.319099
0.319984
0.320196
0.320362
0.320980
0.322213
0.323581
0.324617
0.325792
0.327202
0.327875
0.328204
0.329473
0.330704
0.330693
0.331227
0.334037
0.337746
0.340240
0.341096
0.341175
0.341596
0.342582
0.343638
0.344857
0.345700
0.344774
0.342648
0.341614
0.343050
0.346458
0.349753
0.350962
0.350783
0.351941
0.355220
0.358553
0.359858
0.359019
0.357891
0.358429
0.360629
0.363080
0.364824
0.365725
0.365720
0.364895
0.364104
0.364621
0.366886
0.369683
0.371216
0.371378
0.371770
0.373637
0.376803
0.379668
0.380492
0.379408
0.378614
0.380118
0.382601
0.382716
0.381027
0.381698
0.385182
0.387806
0.388119
0.387902
0.388720
0.390377
0.391998
0.393724
0.395859
0.397162
0.396654
0.395813
0.396743
0.399399
0.401186
0.400293
0.399046
0.400333
0.403562
0.406423
0.407524
0.407750
0.408331
0.408612
0.408698
0.410009
0.412293
0.414177
0.415139
0.416170
0.418867
0.422380
0.423712
0.422580
0.421914
0.422687
0.423526
0.424989
0.427991
0.430568
0.431202
0.431280
0.431834
0.432056
0.431907
0.432612
0.434828
0.438238
0.441309
0.442131
0.441281
0.441412
0.443398
0.445474
0.446271
0.446548
0.447753
0.450523
0.454023
0.456029
0.455033
0.452317
0.451108
0.453237
0.457165
0.460204
0.461420
0.461530
0.461325
0.461453
0.462836
0.465515
0.468029
0.469629
0.471218
0.472437
0.471688
0.469946
0.470124
0.473008
0.476076
0.476909
0.476651
0.477611
0.479530
0.480752
0.480942
0.481237
0.483075
0.486191
0.488136
0.488387
0.488861
0.489668
0.490113
0.490709
0.491613
0.492621
0.493995
0.496425
0.500037
0.502512
0.501517
0.499169
0.499166
0.501547
0.504009
0.505578
0.506986
0.508639
0.509298
0.508050
0.506904
0.508136
0.510554
0.512176
0.513265
0.514930
0.517838
0.521173
0.523115
0.523762
0.523967
0.523750
0.524589
0.527354
0.529968
0.531483
0.532936
0.533757
0.532592
0.530714
0.530951
0.533540
0.535811
0.536317
0.536740
0.538517
0.540245
0.540543
0.540542
0.541332
0.542517
0.543997
0.546133
0.548542
0.550085
0.550399
0.550535
0.551840
0.554996
0.558341
0.558986
0.557573
0.557077
0.557982
0.559219
0.560399
0.561974
0.564630
0.567311
0.568836
0.570147
0.570844
0.569291
0.567201
0.567362
0.569178
0.571264
0.573484
0.574871
0.575153
0.575474
0.575908
0.576421
0.577929
0.580922
0.584423
0.586917
0.588323
0.588705
0.587455
0.586211
0.587345
0.589731
0.591277
0.592648
0.595052
0.597629
0.598603
0.597686
0.596621
0.597107
0.599364
0.602755
0.606084
0.607969
0.608112
0.607709
0.608239
0.609502
0.609639
0.608225
0.607520
0.608941
0.611230
0.613146
0.614801
0.616307
0.617219
0.617501
0.617717
0.618065
0.618933
0.621062
0.624060
0.626765
0.628519
0.629214
0.628975
0.628666
0.629855
0.632278
0.633800
0.633771
0.633308
0.633566
0.634823
0.636876
0.639890
0.642820
0.643595
0.642831
0.643084
0.644729
0.646458
0.648092
0.649968
0.651040
0.650313
0.649147
0.649745
0.652587
0.655754
0.656486
0.654940
0.654098
0.655048
0.656654
0.658660
0.660995
0.662574
0.663302
0.664476
0.666269
0.667080
0.666304
0.665927
0.667369
0.669094
0.669490
0.669346
0.670238
0.672045
0.673357
0.673949
0.674563
0.675269
0.675968
0.677115
0.679091
0.681260
0.682648
0.683403
0.684000
0.684143
0.683888
0.684003
0.684381
0.684504
0.684824
0.685856
0.687584
0.689295
0.689879
0.689979
0.691439
0.693793
0.695027
0.695817
0.698403
0.701487
0.702096
0.701304
0.702007
0.703655
0.703614
0.701917
0.701631
0.703649
0.705679
0.707149
0.708941
0.710402
0.710724
0.710269
0.709730
0.709679
0.710442
0.712180
0.714299
0.715375
0.715669
0.716462
0.717218
0.717463
0.717806
0.718210
0.718796
0.720763
0.724026
0.726406
0.727071
0.727343
0.728003
0.728432
0.727787
0.726706
0.727088
0.729517
0.731687
0.731245
0.729897
0.731026
0.734221
0.736225
0.736055
0.735714
0.736639
0.738107
0.738709
0.738283
0.738029
0.738664
0.739908
0.741513
0.742966
0.743312
0.742452
0.741171
0.740400
0.741349
0.744299
0.747592
0.749392
0.749615
0.749554
0.749842
0.750276
0.751182
0.752642
0.753805
0.754222
0.754020
0.753515
0.753963
0.755628
0.756245
0.755322
0.755164
0.756326
0.757544
0.758243
0.758832
0.760098
0.761498
0.761481
0.760854
0.761665
0.762835
0.762762
0.763137
0.764349
0.763746
0.761850
0.762517
0.766091
0.768543
0.768105
0.767588
0.768487
0.768692
0.767675
0.767816
0.769719
0.771042
0.770615
0.770130
0.770707
0.771401
0.771897
0.773042
0.774798
0.775850
0.775177
0.774153
0.774863
0.776256
0.776607
0.776550
0.776275
0.775139
0.774113
0.774740
0.776440
0.777287
0.777393
0.778137
0.779041
0.779449
0.780290
0.781544
0.781505
0.779907
0.779245
0.780849
0.782205
0.781445
0.780293
0.780514
0.781620
0.782586
0.783691
0.785288
0.786047
0.784923
0.783587
0.784386
0.786730
0.788112
0.787753
0.786899
0.786487
0.785812
0.784124
0.782973
0.784453
0.787266
0.787922
0.785917
0.784374
0.785245
0.787061
0.787943
0.787710
0.786493
0.784816
0.784279
0.784868
0.785038
0.784791
0.784053
0.782792
0.783695
0.787344
0.789474
0.787700
0.784700
0.783752
0.784766
0.785418
0.784881
0.784510
0.785315
0.786401
0.786212
0.784640
0.783349
0.784123
0.786617
0.787803
0.785472
0.781867
0.780474
0.781328
0.782686
0.783822
0.784885
0.785869
0.785927
0.784690
0.783348
0.783014
0.783603
0.784113
0.783661
0.782902
0.782633
0.781864
0.779751
0.777606
0.777471
0.779552
0.781332
0.780146
0.776983
0.774933
0.774621
0.774997
0.775706
0.776093
0.775876
0.776141
0.776780
0.776386
0.775239
0.774667
0.774913
0.775099
0.773749
0.770924
0.769119
0.769674
0.771077
0.771524
0.770836
0.769995
0.769605
0.769413
0.768979
0.768118
0.766375
0.763553
0.761389
0.761458
0.762171
0.762110
0.763334
0.763953
0.753700
0.726186
0.691850
0.665021
0.648939
0.661424
0.712752
0.726303
0.528459
-0.093747
-1.359351
-3.408380
-5.830387
-7.440240
-7.176901
-5.054954
-2.252909
-0.592620
-1.243751
-3.516775
-5.420302
-4.957874
-1.144051
4.455797
8.543697
9.302406
6.943992
3.275796
1.128831
1.081806
1.388892
1.859115
3.112591
4.504755
6.045643
7.334753
5.297736
-0.535010
-4.861104
-4.544319
-2.448199
-0.615562
1.804401
4.404139
5.794712
6.144478
5.353147
1.574382
-4.185015
-7.104126
-5.516297
-2.405672
-0.771743
-2.827971
-9.180866
-15.904887
-16.872738
-9.294450
3.738551
14.895105
18.031849
12.073572
0.724970
-8.382080
-7.165343
5.254261
19.042236
21.456884
10.174602
-3.923918
-10.339237
-9.279725
-5.045767
-0.454154
-0.335955
-7.931552
-17.469549
-18.927622
-9.159103
5.337957
15.686851
17.801439
12.047861
1.523923
-7.760215
-10.983219
-6.490902
7.147418
25.935205
37.552120
34.770653
22.119379
6.030065
-8.272203
-14.450591
-12.619484
-10.644707
-11.843072
-11.956737
-7.637317
-1.241895
1.497678
-2.797541
-13.815179
-26.644976
-29.588602
-17.398184
-3.083780
0.223561
-3.684251
-6.496844
-6.148731
-0.011769
12.944919
23.022282
20.068514
7.970641
-1.757274
-1.986081
6.489948
15.144886
14.763270
5.933027
-1.530317
-0.418582
5.614730
7.960587
3.971220
-3.682212
-13.516987
-23.496607
-30.185080
-34.472374
-38.841869
-41.930756
-44.232231
-51.548843
-68.710167
-93.822891
-118.757339
-134.042282
-131.479767
-109.774475
-86.720123
-88.714066
-119.879936
-161.910400
-196.482834
-210.244461
-196.267029
-157.018387
-96.848488
-27.363014
19.212626
10.994824
-41.927799
-84.483658
-70.766609
-12.974448
42.912037
72.830925
79.090065
61.022503
20.600178
-11.047686
4.386866
60.532833
109.570854
117.550713
91.198921
55.958939
32.263142
28.537132
39.571838
52.171017
51.143799
27.265266
0.513122
9.344074
54.016521
95.459579
112.445427
111.460274
98.357025
79.076111
69.513802
76.241020
76.435638
44.328728
-7.232576
-41.078491
-43.478481
-34.404163
-36.412067
-45.944912
-42.455894
-22.759790
-4.821080
3.315005
7.156114
6.742650
5.341209
12.992244
23.992056
18.559566
-11.567492
-51.658443
-72.408836
-54.166008
-10.078722
22.190836
20.168678
0.739151
-8.517810
-5.608755
-1.431434
-0.778435
-12.239947
-37.427639
-55.649597
-50.378685
-20.731125
30.657339
81.317139
92.486305
52.930817
-15.580158
-89.467583
-148.718399
-173.172928
-157.750137
-117.952431
-81.903992
-81.773361
-129.494507
-201.612808
-261.871307
-282.826050
-252.445877
-185.003876
-112.684776
-61.051765
-44.747208
-63.610554
-91.584167
-93.956032
-56.493744
8.010240
67.259293
88.184052
62.615223
8.017653
-43.721966
-54.514973
-20.756594
9.559193
-3.877713
-58.906143
-131.557220
-186.391052
-195.049683
-162.558548
-111.090706
-56.113636
-10.078614
21.312359
43.969265
65.958588
89.337547
94.760384
60.795650
24.087597
48.342281
122.009544
171.121246
163.628601
126.662971
81.480690
37.329174
31.321161
97.186882
209.357635
309.179871
355.459595
329.170990
237.087646
115.314384
0.408450
-90.322105
-149.148392
-167.789429
-136.943466
-58.909565
35.671051
101.025421
106.719505
41.822563
-77.893585
-194.140869
-238.163681
-182.066086
-57.657429
59.178555
102.259186
67.696167
9.392647
-12.312518
20.178257
80.047935
130.712814
140.330078
90.760788
6.217670
-58.309177
-67.667747
-27.420952
24.161577
45.279900
29.680607
1.455942
-12.284947
12.593614
75.341942
134.310699
154.353745
149.542984
155.636993
187.410309
225.374298
231.042007
187.728394
121.405693
74.915306
77.639473
127.330109
184.062881
201.469955
169.504440
112.841881
59.643597
27.608089
24.057400
42.792294
67.807938
78.346344
50.094654
-25.826042
-129.508026
-232.146606
-304.754456
-314.875946
-254.523071
-156.728210
-70.830292
-36.885902
-60.921364
-105.574707
-129.652115
-127.034653
-115.840057
-104.739250
-79.241837
-22.247961
59.898682
135.659470
166.765198
142.195770
96.743141
76.215111
100.908195
160.286804
203.715027
172.788635
74.690475
-22.222261
-61.125542
-31.186220
45.154438
123.978928
154.248596
122.426186
65.500244
14.568551
-31.071396
-73.760376
-105.833382
-116.583031
-92.170319
-23.373278
72.746544
146.198090
146.129578
66.034042
-48.328598
-142.042953
-195.604538
-220.748489
-226.574234
-209.636200
-174.115555
-141.662552
-134.757935
-150.373352
-156.028549
-128.248474
-82.711220
-47.905197
-34.468193
-39.218956
-42.308304
-6.235723
82.925354
186.828354
252.135849
260.595245
232.724121
199.208649
174.775970
150.340149
112.412674
65.315895
19.584087
-24.578960
-68.617363
-110.015892
-142.334106
-148.164413
-115.421692
-68.339951
-49.079262
-65.680237
-90.136070
-100.547806
-96.626892
-86.846344
-84.838127
-104.281670
-136.265366
-149.132614
-122.489754
-56.980473
40.122116
143.672729
205.704620
197.092087
140.673767
84.822037
56.817932
54.823715
72.238914
104.503990
131.066010
122.347961
77.161346
21.814695
-31.396700
-82.805748
-111.251976
-90.344002
-31.962595
22.781776
54.112492
76.575951
99.769135
108.141472
85.618942
39.634296
-3.048083
-19.714821
-3.463806
46.372692
122.421532
195.597900
230.905762
219.905655
180.469025
133.048050
86.412750
40.228298
-4.377257
-48.021908
-100.522629
-164.887207
-217.806351
-222.822144
-170.851624
-95.375465
-31.552042
18.412146
60.859039
82.051758
64.623985
14.334434
-41.013336
-71.274696
-58.230366
-0.813502
74.765915
116.113342
89.708069
22.705805
-30.104876
-46.864197
-39.465481
-14.555600
29.763617
74.431526
89.459648
76.784348
63.323025
55.871193
35.702553
-8.459343
-62.607292
-105.005997
-127.254501
-126.336853
-94.079941
-35.190750
16.561243
23.869255
-12.270393
-55.691811
-79.436317
-86.053497
-83.758728
-64.346840
-18.464479
41.417141
95.865395
141.000290
172.524750
173.303970
140.762009
99.804451
74.528114
70.542351
86.970604
122.870140
166.030624
187.706543
162.364044
94.060852
11.910757
-58.378975
-106.066559
-128.081314
-125.301064
-97.581314
-42.010384
30.559851
93.483383
132.073853
149.993423
147.106537
120.398560
80.967987
44.409912
15.084846
-6.075638
-10.905102
13.871941
74.524971
153.356216
207.905487
199.379471
125.653564
21.040842
-74.976082
-140.200592
-167.982468
-162.908447
-144.411621
-136.703033
-143.711945
-150.300537
-149.741638
-149.462265
-153.737595
-156.963577
-150.544525
-130.636948
-103.277161
-82.480103
-77.862541
-82.773537
-80.181854
-63.497028
-45.470276
-41.199543
-48.582649
-53.137348
-45.343014
-22.576735
17.052717
67.158257
108.164398
125.057106
121.351906
108.461189
94.080109
82.748451
76.152328
72.779144
71.581215
72.857315
72.519997
60.843708
34.094929
-0.173914
-37.282024
-79.247543
-118.604340
-141.699112
-149.506714
-152.113632
-148.317596
-129.853989
-98.978020
-67.546951
-41.009480
-14.416599
14.113065
36.519138
44.653042
39.149597
27.839939
19.515253
16.875107
14.188287
4.584973
-11.691537
-29.177181
-43.074772
-50.103191
-49.713032
-47.070553
-50.738823
-66.409973
-89.740105
-104.340416
-97.305756
-76.995735
-61.788761
-54.491028
-42.805573
-21.044722
2.754358
18.703701
23.287531
17.926809
6.994265
-3.393945
-6.550227
3.831622
27.332909
51.828632
63.226940
57.256783
37.442024
9.837028
-17.010349
-34.433292
-37.599312
-24.663120
2.039704
30.461939
44.127529
38.042519
20.974558
0.515699
-22.618670
-44.766293
-58.458138
-65.005531
-73.903969
-83.252251
-73.397392
-31.608599
26.265472
75.663757
113.660118
146.603683
164.849518
157.326797
135.122269
116.464928
100.740974
78.944534
59.515244
58.416962
69.809097
73.425133
66.209427
60.937302
57.558872
41.586746
13.029954
-8.766678
-16.156483
-23.574986
-41.386589
-63.190693
-82.575958
-103.431656
-127.983894
-148.344818
-158.679794
-162.539810
-159.856842
-143.583862
-116.744179
-97.102943
-98.413704
-116.306190
-135.189987
-142.977036
-137.248734
-118.640572
-82.430183
-25.470411
41.402222
101.778267
149.141800
181.837982
195.269348
188.617920
166.788528
133.962128
93.423172
48.807350
3.143043
-36.299137
-55.359936
-45.318848
-15.621163
12.108696
18.329882
-2.965697
-37.132099
-58.982430
-53.308739
-20.642380
28.635036
79.956741
122.786087
153.638397
168.825745
164.106369
143.511337
119.125229
100.735909
91.178696
91.686867
102.611839
116.205376
120.287079
111.980469
94.989899
65.784286
21.990799
-19.914568
-35.664211
-19.260330
14.251726
46.787651
69.098053
77.881668
66.780090
33.112534
-0.756713
-0.265453
34.872841
66.645607
67.086555
43.168495
17.685047
