EVENT_NAME: CENTRAL_ITALY
EVENT_ID: EMSC-20161026_0000077
EVENT_DATE_YYYYMMDD: 20161026
EVENT_TIME_HHMMSS: 171036
EVENT_LATITUDE_DEGREE: 42.8802
EVENT_LONGITUDE_DEGREE: 13.1275
EVENT_DEPTH_KM: 8.7
HYPOCENTER_REFERENCE: INGV-CNT_Seismic_Bulletin
MAGNITUDE_W: 5.4
MAGNITUDE_W_REFERENCE: INGV-webservice
MAGNITUDE_L: 5.4
MAGNITUDE_L_REFERENCE: INGV-CNT_Seismic_Bulletin
FOCAL_MECHANISM: NF
NETWORK: IT
STATION_CODE: ACC
STATION_NAME: Accumoli
STATION_LATITUDE_DEGREE: 42.695999
STATION_LONGITUDE_DEGREE: 13.242000
STATION_ELEVATION_M: 922
LOCATION: 
SENSOR_DEPTH_M: 
VS30_M/S: 
SITE_CLASSIFICATION_EC8: A*
MORPHOLOGIC_CLASSIFICATION: 
EPICENTRAL_DISTANCE_KM: 22.5
EARTHQUAKE_BACKAZIMUTH_DEGREE: 335.4
DATE_TIME_FIRST_SAMPLE_YYYYMMDD_HHMMSS: 20161026_171034.835
DATE_TIME_FIRST_SAMPLE_PRECISION: milliseconds
SAMPLING_INTERVAL_S: 0.005000
NDATA: 7433
DURATION_S: 37.165
STREAM: HGZ
UNITS: cm
INSTRUMENT: sensor = Unknown [Unknown] | digitizer = Unknown [Unknown]
INSTRUMENT_ANALOG/DIGITAL: D
INSTRUMENTAL_FREQUENCY_HZ: 
INSTRUMENTAL_DAMPING: 
FULL_SCALE_G: 
N_BIT_DIGITAL_CONVERTER: 
PGD_CM: 0.272088
TIME_PGD_S: 14.525000
BASELINE_CORRECTION: BASELINE REMOVED
FILTER_TYPE: BUTTERWORTH
FILTER_ORDER: 2
LOW_CUT_FREQUENCY_HZ: 0.100
HIGH_CUT_FREQUENCY_HZ: 30.000
LATE/NORMAL_TRIGGERED: NT
DATABASE_VERSION: DYNA 1.0
HEADER_FORMAT: DYNA 1.2
DATA_TYPE: DISPLACEMENT
PROCESSING: manual (Paolucci et al., 2011)
DATA_TIMESTAMP_YYYYMMDD_HHMMSS: 20161027_131047.653
DATA_LICENSE: CC-BY3_0-IT (http://creativecommons.org/licenses/by/3.0/deed.en)
DATA_CITATION: ESM working group (2015), European Strong-Motion database, version 0.1, Network Activity 3: Networking acceleration networks and SM data users. Project NERA (www.nera-eu.org)
DATA_CREATOR: ESM working group
ORIGINAL_DATA_MEDIATOR_CITATION: Ufficio Rischio Sismico e Vulcanico del Dipartimento della Protezione Civile (http://www.protezionecivile.gov.it/)
ORIGINAL_DATA_MEDIATOR: Rete Accelerometrica Nazionale - RAN Download (http://www.mot1.it/randownload/)
ORIGINAL_DATA_CREATOR_CITATION: Italian Strong Motion Network, Italian Civil Protection Department http://www.protezionecivile.gov.it
ORIGINAL_DATA_CREATOR: network: IT (Italian Strong Motion Network); owner: Dipartimento Della Protezione Civile
USER1: /home/dyna/processing-itaca/processing.py /var/www/processing//tmp/felicetta//IT.ACC..HGE.D.20161026.171036.X.ACC.ASC /var/www/processing//tmp/felicetta//IT.ACC..HGN.D.20161026.171036.X.ACC.ASC /var/www/processing//tmp/felicetta//IT.ACC..HGZ.D.20161026.171036.X.ACC.ASC --tmp /var/www/processing//tmp/felicetta/ --le 0.100 --he 30.000 --ln 0.100 --hn 30.000 --lz 0.100 --hz 30.000 --fo 2 --ca 0 --cz 40 --ta 5 --tz 5 --mf 1 --rf 0 --tr NT
USER2: 
USER3: 
USER4: 
USER5: 
[...]
-4.409546e-02
-4.510216e-02
-4.606146e-02
-4.693260e-02
-4.767965e-02
-4.828671e-02
-4.875292e-02
-4.907498e-02
-4.923555e-02
-4.920770e-02
-4.896772e-02
-4.850108e-02
-4.779668e-02
-4.683862e-02
-4.560867e-02
-4.410296e-02
-4.235359e-02
-4.044070e-02
-3.848620e-02
-3.663193e-02
-3.501403e-02
-3.374458e-02
-3.290384e-02
-3.253823e-02
-3.265748e-02
-3.322890e-02
-3.417530e-02
-3.538513e-02
-3.673658e-02
-3.812573e-02
-3.948244e-02
-4.076454e-02
-4.193549e-02
-4.294306e-02
-4.371855e-02
-4.420326e-02
-4.438704e-02
-4.433088e-02
-4.415573e-02
-4.400296e-02
-4.398882e-02
-4.417246e-02
-4.454533e-02
-4.503981e-02
-4.555236e-02
-4.597339e-02
-4.621521e-02
-4.623503e-02
-4.605244e-02
-4.575390e-02
-4.547121e-02
-4.533365e-02
-4.541517e-02
-4.570563e-02
-4.612065e-02
-4.654029e-02
-4.685456e-02
-4.699760e-02
-4.696193e-02
-4.679078e-02
-4.655330e-02
-4.631484e-02
-4.611637e-02
-4.596897e-02
-4.586042e-02
-4.576733e-02
-4.566881e-02
-4.555630e-02
-4.543437e-02
-4.531306e-02
-4.520030e-02
-4.510179e-02
-4.502568e-02
-4.498378e-02
-4.498463e-02
-4.502214e-02
-4.506709e-02
-4.506680e-02
-4.495500e-02
-4.467057e-02
-4.418062e-02
-4.349640e-02
-4.266939e-02
-4.176521e-02
-4.083110e-02
-3.988158e-02
-3.891568e-02
-3.795516e-02
-3.707354e-02
-3.639023e-02
-3.602792e-02
-3.605548e-02
-3.644517e-02
-3.706441e-02
-3.770791e-02
-3.816090e-02
-3.826864e-02
-3.798253e-02
-3.736544e-02
-3.656070e-02
-3.574163e-02
-3.505989e-02
-3.460771e-02
-3.440445e-02
-3.440593e-02
-3.452140e-02
-3.462435e-02
-3.456303e-02
-3.418979e-02
-3.341548e-02
-3.226507e-02
-3.089493e-02
-2.954805e-02
-2.846000e-02
-2.776058e-02
-2.742016e-02
-2.726457e-02
-2.704535e-02
-2.652659e-02
-2.554936e-02
-2.405586e-02
-2.208242e-02
-1.974223e-02
-1.720922e-02
-1.469641e-02
-1.241723e-02
-1.053408e-02
-9.115501e-03
-8.123847e-03
-7.441116e-03
-6.919767e-03
-6.430851e-03
-5.885668e-03
-5.227937e-03
-4.413858e-03
-3.400295e-03
-2.147162e-03
-6.262293e-04
1.173512e-03
3.246835e-03
5.576034e-03
8.134436e-03
1.089116e-02
1.381772e-02
1.689001e-02
2.007750e-02
2.332408e-02
2.653631e-02
2.959199e-02
3.236716e-02
3.476877e-02
3.675718e-02
3.834617e-02
3.958004e-02
4.050163e-02
4.113021e-02
4.146313e-02
4.150192e-02
4.128797e-02
4.092150e-02
4.054634e-02
4.030672e-02
4.029793e-02
4.053418e-02
4.095093e-02
4.144558e-02
4.193852e-02
4.242197e-02
4.297155e-02
4.371606e-02
4.477940e-02
4.622110e-02
4.800555e-02
5.001603e-02
5.210403e-02
5.414141e-02
5.604191e-02
5.774171e-02
5.916255e-02
6.019587e-02
6.072807e-02
6.069414e-02
6.012749e-02
5.917864e-02
5.809298e-02
5.715515e-02
5.661758e-02
5.663632e-02
5.723670e-02
5.831948e-02
5.969876e-02
6.115129e-02
6.246064e-02
6.344879e-02
6.399287e-02
6.402776e-02
6.354004e-02
6.255994e-02
6.115369e-02
5.941296e-02
5.743601e-02
5.529985e-02
5.303667e-02
5.063695e-02
4.808769e-02
4.542328e-02
4.275246e-02
4.024296e-02
3.807465e-02
3.638691e-02
3.524543e-02
3.464271e-02
3.452783e-02
3.484176e-02
3.553188e-02
3.653820e-02
3.776622e-02
3.906907e-02
4.025402e-02
4.111392e-02
4.146911e-02
4.119917e-02
4.025244e-02
3.863588e-02
3.639821e-02
3.361860e-02
3.040570e-02
2.690032e-02
2.326958e-02
1.968627e-02
1.629918e-02
1.320911e-02
1.046262e-02
8.061422e-03
5.975774e-03
4.154408e-03
2.535165e-03
1.064061e-03
-2.765653e-04
-1.440556e-03
-2.307232e-03
-2.699885e-03
-2.429509e-03
-1.343238e-03
6.433472e-04
3.536857e-03
7.274683e-03
1.174324e-02
1.679823e-02
2.228333e-02
2.804771e-02
3.396195e-02
3.992961e-02
4.589287e-02
5.183255e-02
5.776215e-02
6.371523e-02
6.972660e-02
7.581074e-02
8.194389e-02
8.805478e-02
9.402558e-02
9.970636e-02
1.049431e-01
1.096091e-01
1.136248e-01
1.169584e-01
1.196144e-01
1.216171e-01
1.229960e-01
1.237737e-01
1.239611e-01
1.235624e-01
1.225902e-01
1.210858e-01
1.191297e-01
1.168429e-01
1.143787e-01
1.119120e-01
1.096260e-01
1.077004e-01
1.062959e-01
1.055355e-01
1.054836e-01
1.061291e-01
1.073738e-01
1.090403e-01
1.109108e-01
1.127851e-01
1.145217e-01
1.160444e-01
1.173356e-01
1.184439e-01
1.195007e-01
1.207159e-01
1.223305e-01
1.245332e-01
1.273831e-01
1.307775e-01
1.344729e-01
1.381461e-01
1.414715e-01
1.441858e-01
1.461203e-01
1.471922e-01
1.473660e-01
1.466220e-01
1.449724e-01
1.425251e-01
1.395299e-01
1.363394e-01
1.333096e-01
1.307177e-01
1.287414e-01
1.274729e-01
1.269308e-01
1.270596e-01
1.277334e-01
1.287788e-01
1.300145e-01
1.312896e-01
1.325114e-01
1.336610e-01
1.347906e-01
1.360015e-01
1.374055e-01
1.390811e-01
1.410394e-01
1.432222e-01
1.455283e-01
1.478489e-01
1.500859e-01
1.521490e-01
1.539460e-01
1.553878e-01
1.564130e-01
1.570196e-01
1.572833e-01
1.573564e-01
1.574447e-01
1.577641e-01
1.584836e-01
1.596727e-01
1.612691e-01
1.630731e-01
1.647688e-01
1.659811e-01
1.663769e-01
1.657820e-01
1.642443e-01
1.620077e-01
1.594258e-01
1.568783e-01
1.547097e-01
1.531779e-01
1.524112e-01
1.523903e-01
1.529648e-01
1.538990e-01
1.549413e-01
1.558989e-01
1.566905e-01
1.573565e-01
1.580287e-01
1.588713e-01
1.600165e-01
1.615155e-01
1.633257e-01
1.653293e-01
1.673703e-01
1.692926e-01
1.709616e-01
1.722668e-01
1.731151e-01
1.734286e-01
1.731547e-01
1.722859e-01
1.708804e-01
1.690631e-01
1.670031e-01
1.648733e-01
1.628084e-01
1.608755e-01
1.590692e-01
1.573305e-01
1.555767e-01
1.537269e-01
1.517146e-01
1.494873e-01
1.469991e-01
1.442064e-01
1.410747e-01
1.375985e-01
1.338199e-01
1.298296e-01
1.257411e-01
1.216561e-01
1.176444e-01
1.137465e-01
1.099912e-01
1.064132e-01
1.030609e-01
9.998860e-02
9.723571e-02
9.480467e-02
9.265342e-02
9.070580e-02
8.886898e-02
8.704464e-02
8.513036e-02
8.301790e-02
8.059868e-02
7.778241e-02
7.452399e-02
7.084628e-02
6.684705e-02
6.268334e-02
5.853377e-02
5.455009e-02
5.081882e-02
4.735030e-02
4.409749e-02
4.099277e-02
3.798694e-02
3.507640e-02
3.230850e-02
2.976211e-02
2.751342e-02
2.560472e-02
2.402801e-02
2.272177e-02
2.157412e-02
2.043224e-02
1.912430e-02
1.749548e-02
1.544495e-02
1.294527e-02
1.003730e-02
6.809922e-03
3.375247e-03
-1.571064e-04
-3.704656e-03
-7.227373e-03
-1.072412e-02
-1.420996e-02
-1.768669e-02
-2.112353e-02
-2.445662e-02
-2.760529e-02
-3.049737e-02
-3.309335e-02
-3.539708e-02
-3.744666e-02
-3.929278e-02
-4.098141e-02
-4.255081e-02
-4.403838e-02
-4.548530e-02
-4.693406e-02
-4.842220e-02
-4.997604e-02
-5.160414e-02
-5.329059e-02
-5.499263e-02
-5.664642e-02
-5.817885e-02
-5.952032e-02
-6.061589e-02
-6.143556e-02
-6.198405e-02
-6.230803e-02
-6.249544e-02
-6.266157e-02
-6.292249e-02
-6.336770e-02
-6.404942e-02
-6.499510e-02
-6.623233e-02
-6.780651e-02
-6.977962e-02
-7.221359e-02
-7.515109e-02
-7.860663e-02
-8.257178e-02
-8.702789e-02
-9.195479e-02
-9.732837e-02
-1.031083e-01
-1.092216e-01
-1.155477e-01
-1.219149e-01
-1.281132e-01
-1.339247e-01
-1.391643e-01
-1.437190e-01
-1.475701e-01
-1.507890e-01
-1.535066e-01
-1.558711e-01
-1.580113e-01
-1.600154e-01
-1.619249e-01
-1.637384e-01
-1.654208e-01
-1.669147e-01
-1.681530e-01
-1.690679e-01
-1.695976e-01
-1.696929e-01
-1.693305e-01
-1.685257e-01
-1.673349e-01
-1.658446e-01
-1.641522e-01
-1.623517e-01
-1.605290e-01
-1.587645e-01
-1.571357e-01
-1.557167e-01
-1.545701e-01
-1.537353e-01
-1.532158e-01
-1.529710e-01
-1.529172e-01
-1.529398e-01
-1.529159e-01
-1.527452e-01
-1.523826e-01
-1.518627e-01
-1.513067e-01
-1.509088e-01
-1.509009e-01
-1.514974e-01
-1.528334e-01
-1.549151e-01
-1.576086e-01
-1.606755e-01
-1.638417e-01
-1.668709e-01
-1.696175e-01
-1.720516e-01
-1.742527e-01
-1.763797e-01
-1.786266e-01
-1.811782e-01
-1.841726e-01
-1.876766e-01
-1.916735e-01
-1.960695e-01
-2.007138e-01
-2.054259e-01
-2.100214e-01
-2.143395e-01
-2.182726e-01
-2.217900e-01
-2.249396e-01
-2.278218e-01
-2.305462e-01
-2.331927e-01
-2.357911e-01
-2.383264e-01
-2.407633e-01
-2.430747e-01
-2.452580e-01
-2.473298e-01
-2.493029e-01
-2.511617e-01
-2.528518e-01
-2.542887e-01
-2.553794e-01
-2.560477e-01
-2.562570e-01
-2.560236e-01
-2.554169e-01
-2.545440e-01
-2.535260e-01
-2.524719e-01
-2.514606e-01
-2.505312e-01
-2.496832e-01
-2.488818e-01
-2.480670e-01
-2.471653e-01
-2.461075e-01
-2.448499e-01
-2.433920e-01
-2.417813e-01
-2.401018e-01
-2.384523e-01
-2.369179e-01
-2.355455e-01
-2.343299e-01
-2.332177e-01
-2.321270e-01
-2.309740e-01
-2.296957e-01
-2.282632e-01
-2.266844e-01
-2.249987e-01
-2.232673e-01
-2.215568e-01
-2.199205e-01
-2.183800e-01
-2.169165e-01
-2.154748e-01
-2.139789e-01
-2.123531e-01
-2.105380e-01
-2.085001e-01
-2.062370e-01
-2.037793e-01
-2.011877e-01
-1.985431e-01
-1.959315e-01
-1.934259e-01
-1.910714e-01
-1.888791e-01
-1.868336e-01
-1.849092e-01
-1.830870e-01
-1.813643e-01
-1.797524e-01
-1.782664e-01
-1.769120e-01
-1.756792e-01
-1.745436e-01
-1.734782e-01
-1.724648e-01
-1.715006e-01
-1.705950e-01
-1.697612e-01
-1.690060e-01
-1.683248e-01
-1.677008e-01
-1.671099e-01
-1.665320e-01
-1.659622e-01
-1.654189e-01
-1.649418e-01
-1.645840e-01
-1.643982e-01
-1.644199e-01
-1.646503e-01
-1.650470e-01
-1.655269e-01
-1.659816e-01
-1.663036e-01
-1.664156e-01
-1.662948e-01
-1.659840e-01
-1.655831e-01
-1.652213e-01
-1.650184e-01
-1.650483e-01
-1.653175e-01
-1.657613e-01
-1.662591e-01
-1.666641e-01
-1.668400e-01
-1.666955e-01
-1.662057e-01
-1.654130e-01
-1.644088e-01
-1.633023e-01
-1.621883e-01
-1.611247e-01
-1.601245e-01
-1.591612e-01
-1.581862e-01
-1.571500e-01
-1.560196e-01
-1.547867e-01
-1.534632e-01
-1.520689e-01
-1.506167e-01
-1.491039e-01
-1.475128e-01
-1.458225e-01
-1.440237e-01
-1.421272e-01
-1.401602e-01
-1.381523e-01
-1.361201e-01
-1.340601e-01
-1.319514e-01
-1.297672e-01
-1.274852e-01
-1.250913e-01
-1.225743e-01
-1.199203e-01
-1.171129e-01
-1.141427e-01
-1.110203e-01
-1.077874e-01
-1.045168e-01
-1.013005e-01
-9.822678e-02
-9.535680e-02
-9.270774e-02
-9.025026e-02
-8.792111e-02
-8.564650e-02
-8.336757e-02
-8.105913e-02
-7.873708e-02
-7.645490e-02
-7.429287e-02
-7.234348e-02
-7.069532e-02
-6.941729e-02
-6.854507e-02
-6.807206e-02
-6.794660e-02
-6.807791e-02
-6.835326e-02
-6.866493e-02
-6.893864e-02
-6.915138e-02
-6.932957e-02
-6.952673e-02
-6.978883e-02
-7.012124e-02
-7.047269e-02
-7.074464e-02
-7.082201e-02
-7.060988e-02
-7.005901e-02
-6.917187e-02
-6.799200e-02
-6.658551e-02
-6.502387e-02
-6.337204e-02
-6.168139e-02
-5.998443e-02
-5.829071e-02
-5.658605e-02
-5.483867e-02
-5.301331e-02
-5.108879e-02
-4.907180e-02
-4.700075e-02
-4.493864e-02
-4.295810e-02
-4.112415e-02
-3.948057e-02
-3.804480e-02
-3.681356e-02
-3.577773e-02
-3.493963e-02
-3.432250e-02
-3.396582e-02
-3.390983e-02
-3.417870e-02
-3.477057e-02
-3.565639e-02
-3.678616e-02
-3.810005e-02
-3.954087e-02
-4.106257e-02
-4.263109e-02
-4.421930e-02
-4.580040e-02
-4.734189e-02
-4.879855e-02
-5.010541e-02
-5.117657e-02
-5.191524e-02
-5.223260e-02
-5.206655e-02
-5.139289e-02
-5.022713e-02
-4.861923e-02
-4.664341e-02
-4.438556e-02
-4.193143e-02
-3.935857e-02
-3.673166e-02
-3.409905e-02
-3.148906e-02
-2.890726e-02
-2.633667e-02
-2.374243e-02
-2.108189e-02
-1.831861e-02
-1.543629e-02
-1.244785e-02
-9.396830e-03
-6.349427e-03
-3.377092e-03
-5.333717e-04
2.165794e-03
4.748317e-03
7.274794e-03
9.815077e-03
1.242296e-02
1.511809e-02
1.787941e-02
2.065075e-02
2.335589e-02
2.591841e-02
2.828050e-02
3.041747e-02
3.234727e-02
3.413251e-02
3.587034e-02
3.766795e-02
3.960930e-02
4.172560e-02
4.398226e-02
4.628988e-02
4.853628e-02
5.062690e-02
5.251675e-02
5.422245e-02
5.581269e-02
5.738423e-02
5.903498e-02
6.084417e-02
6.286331e-02
6.511510e-02
6.759471e-02
7.027091e-02
7.308920e-02
7.598127e-02
7.888122e-02
8.174320e-02
8.455168e-02
8.731955e-02
9.007666e-02
9.285612e-02
9.568543e-02
9.858479e-02
1.015705e-01
1.046589e-01
1.078672e-01
1.112089e-01
1.146875e-01
1.182923e-01
1.219982e-01
1.257709e-01
1.295759e-01
1.333858e-01
1.371841e-01
1.409665e-01
1.447405e-01
1.485223e-01
1.523298e-01
1.561731e-01
1.600485e-01
1.639405e-01
1.678295e-01
1.716989e-01
1.755377e-01
1.793394e-01
1.831000e-01
1.868170e-01
1.904884e-01
1.941152e-01
1.977061e-01
2.012811e-01
2.048661e-01
2.084801e-01
2.121191e-01
2.157498e-01
2.193136e-01
2.227411e-01
2.259692e-01
2.289559e-01
2.316907e-01
2.341962e-01
2.365212e-01
2.387264e-01
2.408671e-01
2.429785e-01
2.450685e-01
2.471193e-01
2.490983e-01
2.509744e-01
2.527345e-01
2.543957e-01
2.560060e-01
2.576327e-01
2.593391e-01
2.611588e-01
2.630783e-01
2.650350e-01
2.669300e-01
2.686485e-01
2.700833e-01
2.711540e-01
2.718211e-01
2.720875e-01
2.719902e-01
2.715829e-01
2.709231e-01
2.700658e-01
2.690615e-01
2.679534e-01
2.667726e-01
2.655348e-01
2.642415e-01
2.628837e-01
2.614464e-01
2.599141e-01
2.582765e-01
2.565364e-01
2.547135e-01
2.528442e-01
2.509737e-01
2.491454e-01
2.473886e-01
2.457091e-01
2.440853e-01
2.424739e-01
2.408241e-01
2.390968e-01
2.372790e-01
2.353877e-01
2.334599e-01
2.315354e-01
2.296403e-01
2.277800e-01
2.259431e-01
2.241134e-01
2.222813e-01
2.204497e-01
2.186313e-01
2.168395e-01
2.150822e-01
2.133613e-01
2.116790e-01
2.100460e-01
2.084829e-01
2.070127e-01
2.056481e-01
2.043839e-01
2.031992e-01
2.020664e-01
2.009615e-01
1.998690e-01
1.987809e-01
1.976954e-01
1.966171e-01
1.955583e-01
1.945389e-01
1.935808e-01
1.926965e-01
1.918779e-01
1.910935e-01
1.902975e-01
1.894485e-01
1.885256e-01
1.875381e-01
1.865225e-01
1.855308e-01
1.846170e-01
1.838247e-01
1.831816e-01
1.826987e-01
1.823723e-01
1.821891e-01
1.821307e-01
1.821776e-01
1.823097e-01
1.825023e-01
1.827193e-01
1.829096e-01
1.830074e-01
1.829400e-01
1.826410e-01
1.820666e-01
1.812102e-01
1.801059e-01
1.788189e-01
1.774254e-01
1.759907e-01
1.745550e-01
1.731316e-01
1.717161e-01
1.703001e-01
1.688800e-01
1.674582e-01
1.660370e-01
1.646117e-01
1.631653e-01
1.616665e-01
1.600709e-01
1.583286e-01
1.563964e-01
1.542556e-01
1.519247e-01
1.494629e-01
1.469584e-01
1.445060e-01
1.421783e-01
1.400030e-01
1.379542e-01
1.359627e-01
1.339413e-01
1.318130e-01
1.295307e-01
1.270811e-01
1.244778e-01
1.217489e-01
1.189256e-01
1.160346e-01
1.130943e-01
1.101132e-01
1.070917e-01
1.040261e-01
1.009143e-01
9.776215e-02
9.458918e-02
9.143011e-02
8.833036e-02
8.533632e-02
8.248542e-02
7.980066e-02
7.729060e-02
7.495254e-02
7.277580e-02
7.074379e-02
6.883631e-02
6.703330e-02
6.531920e-02
6.368591e-02
6.213365e-02
6.066970e-02
5.930509e-02
5.804860e-02
5.689948e-02
5.584246e-02
5.484850e-02
5.388159e-02
5.290904e-02
5.191064e-02
5.088222e-02
4.983150e-02
4.876808e-02
4.769270e-02
4.659176e-02
4.544044e-02
4.421240e-02
4.289071e-02
4.147397e-02
3.997440e-02
3.840876e-02
3.678672e-02
3.510395e-02
3.334416e-02
3.148830e-02
2.952351e-02
2.744568e-02
2.525475e-02
2.294789e-02
2.051704e-02
1.795306e-02
1.525369e-02
1.242880e-02
9.499140e-03
6.489130e-03
3.418395e-03
2.969051e-04
-2.874029e-03
-6.096250e-03
-9.369274e-03
-1.268957e-02
-1.605512e-02
-1.947072e-02
-2.294826e-02
-2.650099e-02
-3.013500e-02
-3.384349e-02
-3.760710e-02
-4.140027e-02
-4.520026e-02
-4.899402e-02
-5.277967e-02
-5.656244e-02
-6.034887e-02
-6.414341e-02
-6.794862e-02
-7.176607e-02
-7.559517e-02
-7.943028e-02
-8.325936e-02
-8.706606e-02
-9.083381e-02
-9.454903e-02
-9.820195e-02
-1.017856e-01
-1.052940e-01
-1.087203e-01
-1.120529e-01
-1.152732e-01
-1.183559e-01
-1.212761e-01
-1.240196e-01
-1.265893e-01
-1.290045e-01
-1.312909e-01
-1.334681e-01
-1.355379e-01
-1.374810e-01
-1.392604e-01
-1.408309e-01
-1.421505e-01
-1.431920e-01
-1.439493e-01
-1.444415e-01
-1.447127e-01
-1.448287e-01
-1.448692e-01
-1.449119e-01
-1.450128e-01
-1.451870e-01
-1.454023e-01
-1.455900e-01
-1.456700e-01
-1.455804e-01
-1.452978e-01
-1.448429e-01
-1.442690e-01
-1.436401e-01
-1.430067e-01
-1.423874e-01
-1.417628e-01
-1.410823e-01
-1.402805e-01
-1.392966e-01
-1.380908e-01
-1.366520e-01
-1.349959e-01
-1.331566e-01
-1.311757e-01
-1.290920e-01
-1.269337e-01
-1.247147e-01
-1.224345e-01
-1.200824e-01
-1.176467e-01
-1.151251e-01
-1.125332e-01
-1.099074e-01
-1.073003e-01
-1.047676e-01
-1.023506e-01
-1.000622e-01
-9.788089e-02
-9.575766e-02
-9.363296e-02
-9.145733e-02
-8.920868e-02
-8.690042e-02
-8.457695e-02
-8.229738e-02
-8.011356e-02
-7.805176e-02
-7.610466e-02
-7.423515e-02
-7.238895e-02
-7.051114e-02
-6.856098e-02
-6.652088e-02
-6.439736e-02
-6.221450e-02
-6.000288e-02
-5.778756e-02
-5.557939e-02
-5.337279e-02
-5.115009e-02
-4.888897e-02
-4.656856e-02
-4.417253e-02
-4.169117e-02
-3.912398e-02
-3.648150e-02
-3.378360e-02
-3.105334e-02
-2.830874e-02
-2.555670e-02
-2.279216e-02
-2.000267e-02
-1.717556e-02
-1.430299e-02
-1.138206e-02
-8.411528e-03
-5.388814e-03
-2.310692e-03
8.231733e-04
4.007111e-03
7.229097e-03
1.047249e-02
1.371772e-02
1.694301e-02
2.012480e-02
2.323979e-02
2.626865e-02
2.919957e-02
3.202844e-02
3.475433e-02
3.737290e-02
3.987190e-02
4.223173e-02
4.443086e-02
4.645266e-02
4.828975e-02
4.994471e-02
5.142835e-02
5.275779e-02
5.395438e-02
5.504081e-02
5.603788e-02
5.696229e-02
5.782546e-02
5.863249e-02
5.938063e-02
6.005829e-02
6.064681e-02
6.112598e-02
6.148200e-02
6.171451e-02
6.183881e-02
6.188130e-02
6.186965e-02
6.182230e-02
6.174357e-02
6.162762e-02
6.146887e-02
6.127257e-02
6.106006e-02
6.086706e-02
6.073631e-02
6.070711e-02
6.080536e-02
6.103791e-02
6.139347e-02
6.184787e-02
6.237025e-02
6.292739e-02
6.348632e-02
6.401615e-02
6.449033e-02
6.488975e-02
6.520647e-02
6.544604e-02
6.562631e-02
6.577195e-02
6.590678e-02
6.604766e-02
6.620235e-02
6.637135e-02
6.655197e-02
6.674242e-02
6.694426e-02
6.716257e-02
6.740449e-02
6.767722e-02
6.798612e-02
6.833248e-02
6.871158e-02
6.911241e-02
6.952026e-02
6.992192e-02
7.031029e-02
7.068538e-02
7.105085e-02
7.140843e-02
7.175345e-02
7.207428e-02
7.235595e-02
7.258631e-02
7.276190e-02
7.289049e-02
7.298960e-02
7.308279e-02
7.319644e-02
7.335757e-02
7.359111e-02
7.391597e-02
