EVENT_NAME: L_AQUILA
EVENT_ID: IT-2009-0009
EVENT_DATE_YYYYMMDD: 20090406
EVENT_TIME_HHMMSS: 013240
EVENT_LATITUDE_DEGREE: 42.3420
EVENT_LONGITUDE_DEGREE: 13.3800
EVENT_DEPTH_KM: 8.3
HYPOCENTER_REFERENCE: INGV-CNT_Seismic_Bulletin
MAGNITUDE_W: 6.3
MAGNITUDE_W_REFERENCE: RCMT-INGV
MAGNITUDE_L: 5.9
MAGNITUDE_L_REFERENCE: INGV-CNT_Seismic_Bulletin
FOCAL_MECHANISM: NF
NETWORK: IT
STATION_CODE: AQK
STATION_NAME: L'AQUILA - V. ATERNO - AQUIL PARK ING.
STATION_LATITUDE_DEGREE: 42.344967
STATION_LONGITUDE_DEGREE: 13.400949
STATION_ELEVATION_M: 726
LOCATION: 
SENSOR_DEPTH_M: 0.0
VS30_M/S: 705
SITE_CLASSIFICATION_EC8: B
MORPHOLOGIC_CLASSIFICATION: SL
EPICENTRAL_DISTANCE_KM: 1.8
EARTHQUAKE_BACKAZIMUTH_DEGREE: 259.2
DATE_TIME_FIRST_SAMPLE_YYYYMMDD_HHMMSS: 20090406_013212.000
DATE_TIME_FIRST_SAMPLE_PRECISION: seconds
SAMPLING_INTERVAL_S: 0.005000
NDATA: 20001
DURATION_S: 100.005
STREAM: HNN
UNITS: cm
INSTRUMENT: sensor = FBA-3 [Kinemetrics] | digitizer = Etna [Kinemetrics]
INSTRUMENT_ANALOG/DIGITAL: D
INSTRUMENTAL_FREQUENCY_HZ: 214.000
INSTRUMENTAL_DAMPING: 0.700000
FULL_SCALE_G: 1.0
N_BIT_DIGITAL_CONVERTER: 18
PGD_CM: 11.636455
TIME_PGD_S: 32.685000
BASELINE_CORRECTION: BASELINE REMOVED
FILTER_TYPE: BUTTERWORTH
FILTER_ORDER: 2
LOW_CUT_FREQUENCY_HZ: 0.100
HIGH_CUT_FREQUENCY_HZ: 40.000
LATE/NORMAL_TRIGGERED: NT
DATABASE_VERSION: DYNA 1.0
HEADER_FORMAT: DYNA 1.2
DATA_TYPE: DISPLACEMENT
PROCESSING: manual (Paolucci et al., 2011)
DATA_TIMESTAMP_YYYYMMDD_HHMMSS: 
DATA_LICENSE: CC-BY3_0-IT (http://creativecommons.org/licenses/by/3.0/deed.en)
DATA_CITATION: ESM working group (2015), European Strong-Motion database, version 0.1, Network Activity 3: Networking acceleration networks and SM data users. Project NERA (www.nera-eu.org)
DATA_CREATOR: ESM working group
ORIGINAL_DATA_MEDIATOR_CITATION: data obtained within the DPC-INGV data exchange agreements
ORIGINAL_DATA_MEDIATOR: Archive of Italian Department of Civil Protection
ORIGINAL_DATA_CREATOR_CITATION: Italian Strong Motion Network, Italian Civil Protection Department http://www.protezionecivile.gov.it
ORIGINAL_DATA_CREATOR: network: IT (Italian Strong Motion Network); owner: Dipartimento Della Protezione Civile
USER1: 
USER2: 
USER3: 
USER4: 
USER5: 
[...]
-3.374106e-01
-3.387874e-01
-3.401669e-01
-3.415493e-01
-3.429343e-01
-3.443221e-01
-3.457127e-01
-3.471061e-01
-3.485024e-01
-3.499015e-01
-3.513034e-01
-3.527082e-01
-3.541156e-01
-3.555257e-01
-3.569385e-01
-3.583539e-01
-3.597721e-01
-3.611930e-01
-3.626166e-01
-3.640430e-01
-3.654722e-01
-3.669043e-01
-3.683393e-01
-3.697771e-01
-3.712177e-01
-3.726609e-01
-3.741067e-01
-3.755552e-01
-3.770064e-01
-3.784604e-01
-3.799172e-01
-3.813766e-01
-3.828387e-01
-3.843035e-01
-3.857709e-01
-3.872411e-01
-3.887139e-01
-3.901895e-01
-3.916678e-01
-3.931487e-01
-3.946323e-01
-3.961185e-01
-3.976074e-01
-3.990991e-01
-4.005934e-01
-4.020904e-01
-4.035900e-01
-4.050922e-01
-4.065971e-01
-4.081047e-01
-4.096150e-01
-4.111279e-01
-4.126433e-01
-4.141612e-01
-4.156816e-01
-4.172046e-01
-4.187302e-01
-4.202585e-01
-4.217895e-01
-4.233230e-01
-4.248591e-01
-4.263978e-01
-4.279391e-01
-4.294831e-01
-4.310298e-01
-4.325791e-01
-4.341308e-01
-4.356848e-01
-4.372414e-01
-4.388005e-01
-4.403623e-01
-4.419267e-01
-4.434938e-01
-4.450634e-01
-4.466356e-01
-4.482104e-01
-4.497876e-01
-4.513674e-01
-4.529498e-01
-4.545346e-01
-4.561220e-01
-4.577119e-01
-4.593042e-01
-4.608990e-01
-4.624963e-01
-4.640962e-01
-4.656986e-01
-4.673034e-01
-4.689106e-01
-4.705202e-01
-4.721323e-01
-4.737468e-01
-4.753637e-01
-4.769830e-01
-4.786047e-01
-4.802289e-01
-4.818554e-01
-4.834845e-01
-4.851160e-01
-4.867500e-01
-4.883865e-01
-4.900255e-01
-4.916669e-01
-4.933107e-01
-4.949570e-01
-4.966057e-01
-4.982569e-01
-4.999105e-01
-5.015665e-01
-5.032249e-01
-5.048857e-01
-5.065490e-01
-5.082147e-01
-5.098828e-01
-5.115533e-01
-5.132261e-01
-5.149012e-01
-5.165787e-01
-5.182586e-01
-5.199409e-01
-5.216256e-01
-5.233126e-01
-5.250019e-01
-5.266935e-01
-5.283873e-01
-5.300834e-01
-5.317818e-01
-5.334826e-01
-5.351857e-01
-5.368912e-01
-5.385989e-01
-5.403090e-01
-5.420212e-01
-5.437357e-01
-5.454522e-01
-5.471709e-01
-5.488918e-01
-5.506148e-01
-5.523400e-01
-5.540673e-01
-5.557969e-01
-5.575286e-01
-5.592623e-01
-5.609983e-01
-5.627364e-01
-5.644768e-01
-5.662194e-01
-5.679642e-01
-5.697111e-01
-5.714601e-01
-5.732110e-01
-5.749642e-01
-5.767194e-01
-5.784768e-01
-5.802363e-01
-5.819978e-01
-5.837614e-01
-5.855270e-01
-5.872948e-01
-5.890646e-01
-5.908364e-01
-5.926102e-01
-5.943859e-01
-5.961636e-01
-5.979432e-01
-5.997247e-01
-6.015082e-01
-6.032935e-01
-6.050807e-01
-6.068699e-01
-6.086610e-01
-6.104541e-01
-6.122492e-01
-6.140462e-01
-6.158452e-01
-6.176461e-01
-6.194487e-01
-6.212533e-01
-6.230596e-01
-6.248677e-01
-6.266776e-01
-6.284894e-01
-6.303029e-01
-6.321180e-01
-6.339350e-01
-6.357537e-01
-6.375741e-01
-6.393963e-01
-6.412203e-01
-6.430459e-01
-6.448732e-01
-6.467021e-01
-6.485325e-01
-6.503647e-01
-6.521985e-01
-6.540341e-01
-6.558714e-01
-6.577102e-01
-6.595507e-01
-6.613928e-01
-6.632366e-01
-6.650820e-01
-6.669291e-01
-6.687777e-01
-6.706279e-01
-6.724797e-01
-6.743331e-01
-6.761881e-01
-6.780446e-01
-6.799025e-01
-6.817620e-01
-6.836228e-01
-6.854851e-01
-6.873489e-01
-6.892142e-01
-6.910809e-01
-6.929489e-01
-6.948184e-01
-6.966892e-01
-6.985613e-01
-7.004349e-01
-7.023097e-01
-7.041859e-01
-7.060633e-01
-7.079418e-01
-7.098215e-01
-7.117025e-01
-7.135849e-01
-7.154686e-01
-7.173538e-01
-7.192402e-01
-7.211279e-01
-7.230167e-01
-7.249067e-01
-7.267978e-01
-7.286902e-01
-7.305837e-01
-7.324784e-01
-7.343742e-01
-7.362710e-01
-7.381690e-01
-7.400682e-01
-7.419685e-01
-7.438699e-01
-7.457724e-01
-7.476757e-01
-7.495800e-01
-7.514852e-01
-7.533915e-01
-7.552989e-01
-7.572073e-01
-7.591168e-01
-7.610272e-01
-7.629386e-01
-7.648509e-01
-7.667642e-01
-7.686784e-01
-7.705935e-01
-7.725093e-01
-7.744258e-01
-7.763431e-01
-7.782612e-01
-7.801801e-01
-7.820997e-01
-7.840200e-01
-7.859408e-01
-7.878624e-01
-7.897846e-01
-7.917076e-01
-7.936312e-01
-7.955556e-01
-7.974806e-01
-7.994063e-01
-8.013326e-01
-8.032594e-01
-8.051868e-01
-8.071148e-01
-8.090435e-01
-8.109728e-01
-8.129027e-01
-8.148331e-01
-8.167639e-01
-8.186952e-01
-8.206271e-01
-8.225594e-01
-8.244922e-01
-8.264253e-01
-8.283588e-01
-8.302926e-01
-8.322267e-01
-8.341612e-01
-8.360961e-01
-8.380311e-01
-8.399664e-01
-8.419019e-01
-8.438377e-01
-8.457738e-01
-8.477102e-01
-8.496467e-01
-8.515834e-01
-8.535202e-01
-8.554571e-01
-8.573943e-01
-8.593316e-01
-8.612690e-01
-8.632065e-01
-8.651439e-01
-8.670813e-01
-8.690187e-01
-8.709559e-01
-8.728932e-01
-8.748304e-01
-8.767676e-01
-8.787046e-01
-8.806416e-01
-8.825783e-01
-8.845149e-01
-8.864514e-01
-8.883878e-01
-8.903240e-01
-8.922599e-01
-8.941956e-01
-8.961311e-01
-8.980662e-01
-9.000011e-01
-9.019358e-01
-9.038701e-01
-9.058039e-01
-9.077373e-01
-9.096702e-01
-9.116027e-01
-9.135349e-01
-9.154667e-01
-9.173980e-01
-9.193288e-01
-9.212588e-01
-9.231882e-01
-9.251169e-01
-9.270450e-01
-9.289724e-01
-9.308992e-01
-9.328251e-01
-9.347503e-01
-9.366748e-01
-9.385985e-01
-9.405215e-01
-9.424437e-01
-9.443651e-01
-9.462856e-01
-9.482052e-01
-9.501241e-01
-9.520423e-01
-9.539597e-01
-9.558761e-01
-9.577916e-01
-9.597061e-01
-9.616194e-01
-9.635317e-01
-9.654429e-01
-9.673530e-01
-9.692620e-01
-9.711699e-01
-9.730767e-01
-9.749822e-01
-9.768867e-01
-9.787900e-01
-9.806920e-01
-9.825928e-01
-9.844922e-01
-9.863901e-01
-9.882866e-01
-9.901816e-01
-9.920753e-01
-9.939675e-01
-9.958583e-01
-9.977477e-01
-9.996358e-01
-1.001522e+00
-1.003407e+00
-1.005291e+00
-1.007173e+00
-1.009053e+00
-1.010931e+00
-1.012808e+00
-1.014683e+00
-1.016557e+00
-1.018428e+00
-1.020298e+00
-1.022166e+00
-1.024032e+00
-1.025897e+00
-1.027759e+00
-1.029619e+00
-1.031478e+00
-1.033334e+00
-1.035189e+00
-1.037041e+00
-1.038892e+00
-1.040740e+00
-1.042587e+00
-1.044431e+00
-1.046273e+00
-1.048113e+00
-1.049950e+00
-1.051785e+00
-1.053618e+00
-1.055449e+00
-1.057277e+00
-1.059103e+00
-1.060926e+00
-1.062747e+00
-1.064565e+00
-1.066381e+00
-1.068195e+00
-1.070006e+00
-1.071815e+00
-1.073620e+00
-1.075424e+00
-1.077224e+00
-1.079022e+00
-1.080817e+00
-1.082610e+00
-1.084399e+00
-1.086186e+00
-1.087970e+00
-1.089751e+00
-1.091529e+00
-1.093303e+00
-1.095075e+00
-1.096844e+00
-1.098610e+00
-1.100373e+00
-1.102133e+00
-1.103890e+00
-1.105644e+00
-1.107395e+00
-1.109142e+00
-1.110887e+00
-1.112628e+00
-1.114365e+00
-1.116100e+00
-1.117832e+00
-1.119560e+00
-1.121285e+00
-1.123006e+00
-1.124724e+00
-1.126440e+00
-1.128157e+00
-1.129878e+00
-1.131607e+00
-1.133347e+00
-1.135095e+00
-1.136840e+00
-1.138565e+00
-1.140263e+00
-1.141939e+00
-1.143613e+00
-1.145307e+00
-1.147023e+00
-1.148735e+00
-1.150407e+00
-1.152015e+00
-1.153572e+00
-1.155134e+00
-1.156740e+00
-1.158395e+00
-1.160070e+00
-1.161712e+00
-1.163284e+00
-1.164797e+00
-1.166286e+00
-1.167787e+00
-1.169328e+00
-1.170896e+00
-1.172456e+00
-1.174026e+00
-1.175631e+00
-1.177216e+00
-1.178717e+00
-1.180168e+00
-1.181646e+00
-1.183190e+00
-1.184804e+00
-1.186453e+00
-1.188051e+00
-1.189526e+00
-1.190931e+00
-1.192361e+00
-1.193832e+00
-1.195311e+00
-1.196808e+00
-1.198353e+00
-1.199948e+00
-1.201568e+00
-1.203177e+00
-1.204726e+00
-1.206161e+00
-1.207456e+00
-1.208684e+00
-1.210021e+00
-1.211611e+00
-1.213430e+00
-1.215268e+00
-1.216870e+00
-1.218138e+00
-1.219238e+00
-1.220470e+00
-1.222011e+00
-1.223785e+00
-1.225581e+00
-1.227236e+00
-1.228685e+00
-1.229974e+00
-1.231263e+00
-1.232703e+00
-1.234271e+00
-1.235822e+00
-1.237273e+00
-1.238627e+00
-1.239855e+00
-1.240926e+00
-1.241968e+00
-1.243201e+00
-1.244658e+00
-1.246165e+00
-1.247567e+00
-1.248810e+00
-1.249893e+00
-1.250909e+00
-1.252002e+00
-1.253259e+00
-1.254677e+00
-1.256147e+00
-1.257477e+00
-1.258608e+00
-1.259753e+00
-1.261172e+00
-1.262887e+00
-1.264705e+00
-1.266420e+00
-1.267927e+00
-1.269212e+00
-1.270372e+00
-1.271581e+00
-1.272890e+00
-1.274220e+00
-1.275578e+00
-1.277046e+00
-1.278585e+00
-1.280051e+00
-1.281343e+00
-1.282359e+00
-1.282999e+00
-1.283390e+00
-1.283905e+00
-1.284807e+00
-1.286042e+00
-1.287377e+00
-1.288603e+00
-1.289590e+00
-1.290307e+00
-1.290853e+00
-1.291410e+00
-1.292086e+00
-1.292879e+00
-1.293818e+00
-1.295020e+00
-1.296552e+00
-1.298275e+00
-1.299892e+00
-1.301220e+00
-1.302359e+00
-1.303488e+00
-1.304616e+00
-1.305659e+00
-1.306621e+00
-1.307584e+00
-1.308616e+00
-1.309766e+00
-1.311068e+00
-1.312466e+00
-1.313758e+00
-1.314791e+00
-1.315691e+00
-1.316730e+00
-1.318092e+00
-1.319788e+00
-1.321548e+00
-1.322889e+00
-1.323422e+00
-1.323074e+00
-1.322070e+00
-1.320876e+00
-1.320078e+00
-1.320065e+00
-1.320560e+00
-1.320615e+00
-1.319364e+00
-1.316690e+00
-1.313162e+00
-1.309557e+00
-1.306450e+00
-1.303951e+00
-1.301548e+00
-1.298407e+00
-1.294114e+00
-1.288985e+00
-1.283561e+00
-1.278183e+00
-1.273208e+00
-1.269037e+00
-1.265557e+00
-1.261930e+00
-1.257341e+00
-1.251978e+00
-1.246922e+00
-1.242703e+00
-1.238487e+00
-1.233339e+00
-1.227603e+00
-1.222321e+00
-1.217934e+00
-1.214087e+00
-1.210249e+00
-1.206121e+00
-1.201719e+00
-1.197477e+00
-1.194140e+00
-1.192115e+00
-1.190994e+00
-1.189956e+00
-1.188468e+00
-1.186591e+00
-1.184792e+00
-1.183443e+00
-1.182466e+00
-1.181470e+00
-1.180101e+00
-1.178328e+00
-1.176498e+00
-1.174888e+00
-1.173269e+00
-1.171262e+00
-1.168984e+00
-1.167013e+00
-1.165680e+00
-1.164590e+00
-1.162963e+00
-1.160303e+00
-1.156704e+00
-1.152543e+00
-1.147875e+00
-1.142317e+00
-1.135586e+00
-1.127767e+00
-1.119104e+00
-1.110017e+00
-1.101113e+00
-1.092799e+00
-1.085139e+00
-1.077944e+00
-1.070782e+00
-1.063191e+00
-1.054961e+00
-1.046019e+00
-1.036308e+00
-1.025983e+00
-1.015373e+00
-1.004630e+00
-9.936403e-01
-9.822146e-01
-9.703839e-01
-9.585464e-01
-9.471544e-01
-9.361643e-01
-9.248366e-01
-9.120425e-01
-8.968479e-01
-8.790401e-01
-8.591329e-01
-8.378849e-01
-8.159538e-01
-7.937925e-01
-7.715027e-01
-7.487578e-01
-7.249532e-01
-6.994891e-01
-6.722118e-01
-6.437950e-01
-6.154377e-01
-5.881447e-01
-5.621930e-01
-5.368878e-01
-5.111675e-01
-4.845857e-01
-4.572576e-01
-4.292735e-01
-4.005558e-01
-3.708524e-01
-3.398172e-01
-3.074064e-01
-2.741593e-01
-2.410052e-01
-2.086809e-01
-1.770408e-01
-1.450973e-01
-1.119407e-01
-7.737260e-02
-4.196928e-02
-6.730592e-03
2.800974e-02
6.303696e-02
9.892861e-02
1.350323e-01
1.703463e-01
2.046811e-01
2.386162e-01
2.730589e-01
3.090423e-01
3.470064e-01
3.858488e-01
4.234290e-01
4.583420e-01
4.906998e-01
5.214238e-01
5.514797e-01
5.815771e-01
6.121182e-01
6.433158e-01
6.752878e-01
7.080111e-01
7.413282e-01
7.750926e-01
8.092710e-01
8.438491e-01
8.785420e-01
9.129445e-01
9.473297e-01
9.828143e-01
1.020381e+00
1.059896e+00
1.100203e+00
1.140167e+00
1.179465e+00
1.218736e+00
1.259436e+00
1.303056e+00
1.349961e+00
1.398896e+00
1.447287e+00
1.492505e+00
1.533810e+00
1.572937e+00
1.612613e+00
1.654939e+00
1.700579e+00
1.748694e+00
1.797921e+00
1.847398e+00
1.897001e+00
1.947142e+00
1.998032e+00
2.049076e+00
2.099593e+00
2.149880e+00
2.201054e+00
2.254229e+00
2.309965e+00
2.367889e+00
2.426847e+00
2.485759e+00
2.544374e+00
2.603244e+00
2.662942e+00
2.723253e+00
2.783423e+00
2.843289e+00
2.903790e+00
2.966175e+00
3.030890e+00
3.097154e+00
3.163509e+00
3.228988e+00
3.293695e+00
3.358218e+00
3.423001e+00
3.488412e+00
3.554905e+00
3.623001e+00
3.693085e+00
3.764941e+00
3.837622e+00
3.910209e+00
3.982604e+00
4.055456e+00
4.129628e+00
4.205712e+00
4.283724e+00
4.362978e+00
4.442194e+00
4.520069e+00
4.595963e+00
4.670024e+00
4.742738e+00
4.814548e+00
4.886061e+00
4.958484e+00
5.033209e+00
5.110943e+00
5.191500e+00
5.273914e+00
5.356703e+00
5.438889e+00
5.520820e+00
5.603712e+00
5.688664e+00
5.776153e+00
5.865760e+00
5.955972e+00
6.045064e+00
6.132639e+00
6.219603e+00
6.306740e+00
6.393843e+00
6.479804e+00
6.563212e+00
6.643083e+00
6.719388e+00
6.793009e+00
6.864879e+00
6.934959e+00
7.002099e+00
7.064897e+00
7.122602e+00
7.175324e+00
7.223867e+00
7.269524e+00
7.313756e+00
7.357817e+00
7.402468e+00
7.447837e+00
7.493678e+00
7.540107e+00
7.587854e+00
7.637616e+00
7.689611e+00
7.743867e+00
7.800478e+00
7.859528e+00
7.920852e+00
7.983778e+00
8.047190e+00
8.110003e+00
8.171710e+00
8.232683e+00
8.294204e+00
8.358048e+00
8.425363e+00
8.495559e+00
8.566358e+00
8.635069e+00
8.700172e+00
8.762311e+00
8.824003e+00
8.888390e+00
8.958159e+00
9.035083e+00
9.119605e+00
9.210475e+00
9.305429e+00
9.402685e+00
9.501630e+00
9.602396e+00
9.705366e+00
9.810982e+00
9.919419e+00
1.003036e+01
1.014321e+01
1.025735e+01
1.037206e+01
1.048632e+01
1.059856e+01
1.070684e+01
1.080955e+01
1.090600e+01
1.099599e+01
1.107891e+01
1.115374e+01
1.121990e+01
1.127787e+01
1.132897e+01
1.137463e+01
1.141617e+01
1.145481e+01
1.149122e+01
1.152506e+01
1.155553e+01
1.158219e+01
1.160443e+01
1.162125e+01
1.163191e+01
1.163645e+01
1.163553e+01
1.162981e+01
1.161955e+01
1.160471e+01
1.158509e+01
1.156028e+01
1.152980e+01
1.149360e+01
1.145202e+01
1.140545e+01
1.135408e+01
1.129828e+01
1.123864e+01
1.117588e+01
1.111058e+01
1.104318e+01
1.097380e+01
1.090216e+01
1.082748e+01
1.074885e+01
1.066566e+01
1.057776e+01
1.048577e+01
1.039100e+01
1.029482e+01
1.019753e+01
1.009825e+01
9.995819e+00
9.889647e+00
9.779995e+00
9.667545e+00
9.552746e+00
9.435899e+00
9.317846e+00
9.199629e+00
9.081112e+00
8.960660e+00
8.836383e+00
8.707318e+00
8.573431e+00
8.434937e+00
8.292002e+00
8.144936e+00
7.994077e+00
7.839616e+00
7.681818e+00
7.521137e+00
7.357978e+00
7.192475e+00
7.024399e+00
6.853273e+00
6.678837e+00
6.501505e+00
6.322517e+00
6.143804e+00
5.967469e+00
5.794849e+00
5.625909e+00
5.459727e+00
5.295471e+00
5.132876e+00
4.972216e+00
4.814142e+00
4.659579e+00
4.509380e+00
4.363412e+00
4.219917e+00
4.076258e+00
3.930229e+00
3.780633e+00
3.627431e+00
3.471843e+00
3.315971e+00
3.161846e+00
3.010273e+00
2.860222e+00
2.709561e+00
2.556522e+00
2.400586e+00
2.242293e+00
2.082519e+00
1.921860e+00
1.760481e+00
1.598247e+00
1.434731e+00
1.269299e+00
1.101664e+00
9.322819e-01
7.620201e-01
5.918312e-01
4.228132e-01
2.559911e-01
9.188929e-02
-6.945030e-02
-2.281888e-01
-3.846542e-01
-5.394945e-01
-6.937549e-01
-8.487234e-01
-1.005598e+00
-1.165184e+00
-1.327780e+00
-1.493343e+00
-1.661666e+00
-1.832267e+00
-2.004351e+00
-2.177032e+00
-2.349211e+00
-2.519297e+00
-2.685778e+00
-2.848072e+00
-3.006259e+00
-3.160106e+00
-3.308883e+00
-3.452028e+00
-3.589634e+00
-3.722259e+00
-3.850298e+00
-3.973384e+00
-4.090468e+00
-4.200677e+00
-4.304163e+00
-4.402114e+00
-4.496080e+00
-4.587376e+00
-4.676986e+00
-4.765659e+00
-4.853754e+00
-4.940997e+00
-5.026517e+00
-5.109192e+00
-5.188130e+00
-5.263162e+00
-5.334978e+00
-5.404709e+00
-5.473386e+00
-5.541769e+00
-5.610434e+00
-5.679782e+00
-5.749938e+00
-5.820654e+00
-5.891258e+00
-5.960879e+00
-6.028932e+00
-6.095389e+00
-6.160440e+00
-6.223879e+00
-6.285082e+00
-6.343491e+00
-6.398670e+00
-6.449924e+00
-6.496311e+00
-6.537098e+00
-6.571959e+00
-6.600794e+00
-6.623567e+00
-6.640319e+00
-6.651187e+00
-6.656325e+00
-6.655876e+00
-6.650042e+00
-6.639255e+00
-6.624305e+00
-6.606236e+00
-6.585975e+00
-6.564013e+00
-6.540361e+00
-6.514671e+00
-6.486371e+00
-6.454904e+00
-6.420078e+00
-6.382165e+00
-6.341569e+00
-6.298391e+00
-6.252318e+00
-6.202866e+00
-6.149757e+00
-6.093047e+00
-6.032938e+00
-5.969644e+00
-5.903567e+00
-5.835416e+00
-5.766057e+00
-5.696379e+00
-5.627235e+00
-5.559216e+00
-5.492322e+00
-5.425918e+00
-5.359077e+00
-5.291079e+00
-5.221739e+00
-5.151329e+00
-5.080259e+00
-5.008958e+00
-4.937990e+00
-4.868043e+00
-4.799746e+00
-4.733634e+00
-4.670238e+00
-4.609729e+00
-4.551342e+00
-4.493321e+00
-4.433467e+00
-4.370035e+00
-4.302488e+00
-4.231370e+00
-4.157539e+00
-4.081622e+00
-4.003989e+00
-3.924838e+00
-3.844237e+00
-3.762371e+00
-3.679915e+00
-3.598098e+00
-3.518216e+00
-3.441026e+00
-3.366731e+00
-3.295348e+00
-3.226763e+00
-3.160618e+00
-3.096427e+00
-3.033716e+00
-2.971829e+00
-2.909881e+00
-2.847375e+00
-2.784688e+00
-2.722538e+00
-2.661072e+00
-2.599580e+00
-2.536900e+00
-2.472009e+00
-2.404347e+00
-2.334011e+00
-2.261785e+00
-2.188611e+00
-2.114926e+00
-2.040675e+00
-1.965749e+00
-1.890092e+00
-1.813546e+00
-1.735907e+00
-1.657189e+00
-1.577632e+00
-1.497401e+00
-1.416435e+00
-1.334626e+00
-1.251956e+00
-1.168440e+00
-1.084074e+00
-9.988510e-01
-9.127768e-01
-8.259069e-01
-7.384409e-01
-6.507358e-01
-5.632574e-01
-4.766145e-01
-3.915605e-01
-3.088607e-01
-2.291403e-01
-1.526855e-01
-7.922135e-02
-7.993752e-03
6.175933e-02
1.303660e-01
1.975911e-01
2.627398e-01
3.249657e-01
3.837073e-01
4.389436e-01
4.910806e-01
5.406410e-01
5.880284e-01
6.334621e-01
6.769874e-01
7.184191e-01
7.573355e-01
7.933336e-01
8.263570e-01
8.568114e-01
8.854600e-01
9.131379e-01
9.403512e-01
9.670028e-01
9.924748e-01
1.015983e+00
1.036932e+00
1.055133e+00
1.070822e+00
1.084562e+00
1.097091e+00
1.109144e+00
1.121181e+00
1.133130e+00
1.144476e+00
1.154738e+00
1.163815e+00
1.171826e+00
1.178849e+00
1.185061e+00
1.190964e+00
1.197235e+00
1.204267e+00
1.211660e+00
1.218187e+00
1.223096e+00
1.227370e+00
1.232450e+00
1.238618e+00
1.245670e+00
1.253502e+00
1.261581e+00
1.268952e+00
1.274764e+00
1.278760e+00
1.281342e+00
1.283207e+00
1.285004e+00
1.287058e+00
1.289348e+00
1.291786e+00
1.294405e+00
1.297351e+00
1.300779e+00
1.304793e+00
1.309528e+00
1.315188e+00
1.322052e+00
1.330485e+00
1.340940e+00
1.353845e+00
1.369522e+00
1.388100e+00
1.409305e+00
1.432393e+00
1.456454e+00
1.480671e+00
1.504329e+00
1.526846e+00
1.547821e+00
1.566857e+00
1.583333e+00
1.596570e+00
1.606232e+00
1.612495e+00
1.615805e+00
1.616485e+00
1.614530e+00
1.609702e+00
1.601741e+00
1.590422e+00
1.575490e+00
1.556669e+00
1.533780e+00
1.506775e+00
1.475674e+00
1.440457e+00
1.400873e+00
1.356395e+00
1.306604e+00
1.251718e+00
1.192587e+00
1.130285e+00
1.065852e+00
1.000087e+00
9.333457e-01
8.657156e-01
7.973971e-01
7.288235e-01
6.605316e-01
5.929976e-01
5.265167e-01
4.611535e-01
3.968241e-01
3.335305e-01
2.716078e-01
2.117719e-01
1.549059e-01
1.016681e-01
5.215431e-02
5.913541e-03
-3.781789e-02
-8.005931e-02
-1.219849e-01
-1.644273e-01
-2.074593e-01
-2.505470e-01
-2.929278e-01
-3.338123e-01
-3.725200e-01
-4.086229e-01
-4.420580e-01
-4.731677e-01
-5.024942e-01
-5.303941e-01
-5.568979e-01
-5.820239e-01
