EVENT_NAME: L_AQUILA
EVENT_ID: IT-2009-0009
EVENT_DATE_YYYYMMDD: 20090406
EVENT_TIME_HHMMSS: 013240
EVENT_LATITUDE_DEGREE: 42.3420
EVENT_LONGITUDE_DEGREE: 13.3800
EVENT_DEPTH_KM: 8.3
HYPOCENTER_REFERENCE: INGV-CNT_Seismic_Bulletin
MAGNITUDE_W: 6.3
MAGNITUDE_W_REFERENCE: RCMT-INGV
MAGNITUDE_L: 5.9
MAGNITUDE_L_REFERENCE: INGV-CNT_Seismic_Bulletin
FOCAL_MECHANISM: NF
NETWORK: IT
STATION_CODE: AQK
STATION_NAME: L'AQUILA - V. ATERNO - AQUIL PARK ING.
STATION_LATITUDE_DEGREE: 42.344967
STATION_LONGITUDE_DEGREE: 13.400949
STATION_ELEVATION_M: 726
LOCATION: 
SENSOR_DEPTH_M: 0.0
VS30_M/S: 705
SITE_CLASSIFICATION_EC8: B
MORPHOLOGIC_CLASSIFICATION: SL
EPICENTRAL_DISTANCE_KM: 1.8
EARTHQUAKE_BACKAZIMUTH_DEGREE: 259.2
DATE_TIME_FIRST_SAMPLE_YYYYMMDD_HHMMSS: 20090406_013212.000
DATE_TIME_FIRST_SAMPLE_PRECISION: seconds
SAMPLING_INTERVAL_S: 0.005000
NDATA: 20001
DURATION_S: 100.005
STREAM: HNE
UNITS: cm
INSTRUMENT: sensor = FBA-3 [Kinemetrics] | digitizer = Etna [Kinemetrics]
INSTRUMENT_ANALOG/DIGITAL: D
INSTRUMENTAL_FREQUENCY_HZ: 212.000
INSTRUMENTAL_DAMPING: 0.700000
FULL_SCALE_G: 1.0
N_BIT_DIGITAL_CONVERTER: 18
PGD_CM: -7.191418
TIME_PGD_S: 33.395000
BASELINE_CORRECTION: BASELINE REMOVED
FILTER_TYPE: BUTTERWORTH
FILTER_ORDER: 2
LOW_CUT_FREQUENCY_HZ: 0.100
HIGH_CUT_FREQUENCY_HZ: 40.000
LATE/NORMAL_TRIGGERED: NT
DATABASE_VERSION: DYNA 1.0
HEADER_FORMAT: DYNA 1.2
DATA_TYPE: DISPLACEMENT
PROCESSING: manual (Paolucci et al., 2011)
DATA_TIMESTAMP_YYYYMMDD_HHMMSS: 
DATA_LICENSE: CC-BY3_0-IT (http://creativecommons.org/licenses/by/3.0/deed.en)
DATA_CITATION: ESM working group (2015), European Strong-Motion database, version 0.1, Network Activity 3: Networking acceleration networks and SM data users. Project NERA (www.nera-eu.org)
DATA_CREATOR: ESM working group
ORIGINAL_DATA_MEDIATOR_CITATION: data obtained within the DPC-INGV data exchange agreements
ORIGINAL_DATA_MEDIATOR: Archive of Italian Department of Civil Protection
ORIGINAL_DATA_CREATOR_CITATION: Italian Strong Motion Network, Italian Civil Protection Department http://www.protezionecivile.gov.it
ORIGINAL_DATA_CREATOR: network: IT (Italian Strong Motion Network); owner: Dipartimento Della Protezione Civile
USER1: 
USER2: 
USER3: 
USER4: 
USER5: 
[...]
-5.754943e-03
-5.491270e-03
-5.226377e-03
-4.960205e-03
-4.692739e-03
-4.423997e-03
-4.154007e-03
-3.882810e-03
-3.610421e-03
-3.336787e-03
-3.061843e-03
-2.785572e-03
-2.507975e-03
-2.229037e-03
-1.948758e-03
-1.667178e-03
-1.384338e-03
-1.100245e-03
-8.148961e-04
-5.282967e-04
-2.404420e-04
4.869385e-05
3.391251e-04
6.308391e-04
9.238429e-04
1.218168e-03
1.513812e-03
1.810733e-03
2.108916e-03
2.408412e-03
2.709275e-03
3.011507e-03
3.315076e-03
3.619952e-03
3.926110e-03
4.233550e-03
4.542309e-03
4.852411e-03
5.163857e-03
5.476635e-03
5.790707e-03
6.106022e-03
6.422584e-03
6.740463e-03
7.059739e-03
7.380447e-03
7.702576e-03
8.026099e-03
8.350992e-03
8.677236e-03
9.004822e-03
9.333750e-03
9.664046e-03
9.995749e-03
1.032889e-02
1.066346e-02
1.099946e-02
1.133681e-02
1.167550e-02
1.201557e-02
1.235708e-02
1.270007e-02
1.304451e-02
1.339033e-02
1.373749e-02
1.408602e-02
1.443588e-02
1.478706e-02
1.513956e-02
1.549346e-02
1.584881e-02
1.620556e-02
1.656371e-02
1.692330e-02
1.728434e-02
1.764679e-02
1.801064e-02
1.837587e-02
1.874251e-02
1.911060e-02
1.948021e-02
1.985136e-02
2.022403e-02
2.059818e-02
2.097374e-02
2.135071e-02
2.172912e-02
2.210898e-02
2.249029e-02
2.287307e-02
2.325731e-02
2.364297e-02
2.403004e-02
2.441860e-02
2.480873e-02
2.520045e-02
2.559373e-02
2.598855e-02
2.638489e-02
2.678273e-02
2.718205e-02
2.758282e-02
2.798504e-02
2.838871e-02
2.879386e-02
2.920055e-02
2.960878e-02
3.001853e-02
3.042974e-02
3.084238e-02
3.125644e-02
3.167196e-02
3.208895e-02
3.250746e-02
3.292751e-02
3.334911e-02
3.377220e-02
3.419675e-02
3.462274e-02
3.505021e-02
3.547919e-02
3.590968e-02
3.634171e-02
3.677531e-02
3.721049e-02
3.764728e-02
3.808571e-02
3.852580e-02
3.896754e-02
3.941093e-02
3.985596e-02
4.030265e-02
4.075097e-02
4.120092e-02
4.165247e-02
4.210558e-02
4.256029e-02
4.301664e-02
4.347464e-02
4.393426e-02
4.439549e-02
4.485836e-02
4.532285e-02
4.578897e-02
4.625674e-02
4.672619e-02
4.719731e-02
4.767002e-02
4.814431e-02
4.862022e-02
4.909779e-02
4.957703e-02
5.005793e-02
5.054041e-02
5.102446e-02
5.151004e-02
5.199720e-02
5.248598e-02
5.297641e-02
5.346852e-02
5.396230e-02
5.445780e-02
5.495503e-02
5.545400e-02
5.595469e-02
5.645712e-02
5.696129e-02
5.746719e-02
5.797481e-02
5.848416e-02
5.899527e-02
5.950818e-02
6.002287e-02
6.053925e-02
6.105729e-02
6.157698e-02
6.209838e-02
6.262151e-02
6.314636e-02
6.367288e-02
6.420107e-02
6.473097e-02
6.526261e-02
6.579598e-02
6.633112e-02
6.686805e-02
6.740675e-02
6.794719e-02
6.848937e-02
6.903333e-02
6.957909e-02
7.012663e-02
7.067592e-02
7.122696e-02
7.177972e-02
7.233417e-02
7.289030e-02
7.344814e-02
7.400771e-02
7.456900e-02
7.513203e-02
7.569681e-02
7.626337e-02
7.683170e-02
7.740178e-02
7.797365e-02
7.854733e-02
7.912280e-02
7.970005e-02
8.027907e-02
8.085987e-02
8.144241e-02
8.202669e-02
8.261274e-02
8.320061e-02
8.379029e-02
8.438168e-02
8.497476e-02
8.556958e-02
8.616622e-02
8.676472e-02
8.736508e-02
8.796723e-02
8.857115e-02
8.917685e-02
8.978437e-02
9.039373e-02
9.100494e-02
9.161799e-02
9.223285e-02
9.284946e-02
9.346777e-02
9.408782e-02
9.470968e-02
9.533341e-02
9.595905e-02
9.658659e-02
9.721601e-02
9.784730e-02
9.848043e-02
9.911543e-02
9.975228e-02
1.003910e-01
1.010316e-01
1.016740e-01
1.023183e-01
1.029643e-01
1.036122e-01
1.042618e-01
1.049131e-01
1.055663e-01
1.062212e-01
1.068780e-01
1.075367e-01
1.081973e-01
1.088597e-01
1.095240e-01
1.101901e-01
1.108580e-01
1.115277e-01
1.121992e-01
1.128727e-01
1.135480e-01
1.142252e-01
1.149043e-01
1.155852e-01
1.162682e-01
1.169531e-01
1.176399e-01
1.183286e-01
1.190193e-01
1.197118e-01
1.204062e-01
1.211026e-01
1.218010e-01
1.225014e-01
1.232039e-01
1.239082e-01
1.246145e-01
1.253227e-01
1.260329e-01
1.267450e-01
1.274590e-01
1.281751e-01
1.288931e-01
1.296131e-01
1.303350e-01
1.310588e-01
1.317846e-01
1.325122e-01
1.332417e-01
1.339732e-01
1.347065e-01
1.354418e-01
1.361790e-01
1.369181e-01
1.376592e-01
1.384023e-01
1.391472e-01
1.398942e-01
1.406431e-01
1.413940e-01
1.421469e-01
1.429017e-01
1.436585e-01
1.444172e-01
1.451779e-01
1.459405e-01
1.467050e-01
1.474716e-01
1.482403e-01
1.490109e-01
1.497835e-01
1.505580e-01
1.513344e-01
1.521128e-01
1.528931e-01
1.536754e-01
1.544597e-01
1.552460e-01
1.560343e-01
1.568246e-01
1.576169e-01
1.584113e-01
1.592077e-01
1.600062e-01
1.608067e-01
1.616092e-01
1.624137e-01
1.632201e-01
1.640284e-01
1.648388e-01
1.656511e-01
1.664652e-01
1.672813e-01
1.680992e-01
1.689190e-01
1.697410e-01
1.705650e-01
1.713912e-01
1.722195e-01
1.730496e-01
1.738808e-01
1.747124e-01
1.755441e-01
1.763767e-01
1.772146e-01
1.780639e-01
1.789282e-01
1.798051e-01
1.806876e-01
1.815694e-01
1.824526e-01
1.833466e-01
1.842588e-01
1.851855e-01
1.861082e-01
1.869976e-01
1.878360e-01
1.886298e-01
1.894051e-01
1.901978e-01
1.910265e-01
1.918714e-01
1.926955e-01
1.934721e-01
1.942025e-01
1.949273e-01
1.956992e-01
1.965419e-01
1.974484e-01
1.983942e-01
1.993382e-01
2.002293e-01
2.010286e-01
2.017423e-01
2.024331e-01
2.031788e-01
2.040098e-01
2.049014e-01
2.058050e-01
2.066804e-01
2.075242e-01
2.083524e-01
2.091679e-01
2.099803e-01
2.108210e-01
2.117131e-01
2.126523e-01
2.136168e-01
2.145912e-01
2.155628e-01
2.164877e-01
2.173074e-01
2.180093e-01
2.186509e-01
2.193342e-01
2.201376e-01
2.210353e-01
2.218940e-01
2.225658e-01
2.230054e-01
2.233277e-01
2.237481e-01
2.244279e-01
2.253788e-01
2.264866e-01
2.275871e-01
2.285633e-01
2.294084e-01
2.302050e-01
2.310727e-01
2.321039e-01
2.332777e-01
2.344376e-01
2.353768e-01
2.359828e-01
2.363431e-01
2.366726e-01
2.371342e-01
2.377878e-01
2.386301e-01
2.395745e-01
2.404739e-01
2.412459e-01
2.419434e-01
2.426927e-01
2.435601e-01
2.444639e-01
2.452333e-01
2.457465e-01
2.460032e-01
2.461222e-01
2.462911e-01
2.466476e-01
2.472098e-01
2.478916e-01
2.485263e-01
2.489795e-01
2.492642e-01
2.494676e-01
2.496883e-01
2.500780e-01
2.507860e-01
2.518407e-01
2.531319e-01
2.544824e-01
2.557230e-01
2.567318e-01
2.574521e-01
2.579150e-01
2.582416e-01
2.585642e-01
2.589250e-01
2.592881e-01
2.595994e-01
2.598089e-01
2.599191e-01
2.599929e-01
2.600767e-01
2.601990e-01
2.604394e-01
2.609074e-01
2.616515e-01
2.626139e-01
2.636669e-01
2.647287e-01
2.658203e-01
2.669456e-01
2.680091e-01
2.689126e-01
2.696462e-01
2.702814e-01
2.709057e-01
2.715648e-01
2.722789e-01
2.730560e-01
2.738812e-01
2.748109e-01
2.760186e-01
2.776438e-01
2.796708e-01
2.819300e-01
2.841717e-01
2.862490e-01
2.881903e-01
2.900230e-01
2.916896e-01
2.932167e-01
2.948780e-01
2.970632e-01
2.997644e-01
3.022366e-01
3.034913e-01
3.031901e-01
3.019310e-01
3.006378e-01
2.997768e-01
2.992650e-01
2.989335e-01
2.987301e-01
2.984855e-01
2.978165e-01
2.964751e-01
2.947288e-01
2.931978e-01
2.922751e-01
2.917825e-01
2.911773e-01
2.900224e-01
2.883129e-01
2.863997e-01
2.845135e-01
2.825189e-01
2.802607e-01
2.778528e-01
2.755441e-01
2.734885e-01
2.716377e-01
2.698158e-01
2.679022e-01
2.658599e-01
2.637041e-01
2.615909e-01
2.597517e-01
2.582228e-01
2.566878e-01
2.546360e-01
2.517883e-01
2.483419e-01
2.447121e-01
2.411266e-01
2.375259e-01
2.338158e-01
2.301639e-01
2.268261e-01
2.236369e-01
2.200634e-01
2.158242e-01
2.111776e-01
2.066336e-01
2.025003e-01
1.987443e-01
1.952727e-01
1.921010e-01
1.891759e-01
1.862663e-01
1.830684e-01
1.793490e-01
1.750164e-01
1.700755e-01
1.645798e-01
1.586049e-01
1.521225e-01
1.450611e-01
1.376069e-01
1.301529e-01
1.229856e-01
1.162319e-01
1.098596e-01
1.036606e-01
9.747495e-02
9.130158e-02
8.504148e-02
7.837585e-02
7.096277e-02
6.264584e-02
5.364239e-02
4.457133e-02
3.602450e-02
2.811162e-02
2.047947e-02
1.255246e-02
3.868207e-03
-5.533070e-03
-1.513998e-02
-2.439373e-02
-3.296567e-02
-4.076319e-02
-4.781460e-02
-5.424220e-02
-6.043555e-02
-6.707430e-02
-7.465592e-02
-8.298311e-02
-9.125666e-02
-9.857322e-02
-1.045178e-01
-1.095429e-01
-1.144641e-01
-1.196488e-01
-1.249318e-01
-1.298951e-01
-1.342068e-01
-1.379338e-01
-1.413110e-01
-1.443136e-01
-1.466839e-01
-1.481482e-01
-1.485442e-01
-1.479042e-01
-1.463808e-01
-1.441900e-01
-1.417170e-01
-1.392983e-01
-1.368712e-01
-1.341902e-01
-1.311809e-01
-1.279403e-01
-1.246388e-01
-1.213590e-01
-1.179624e-01
-1.143431e-01
-1.109482e-01
-1.087387e-01
-1.082861e-01
-1.091546e-01
-1.105185e-01
-1.121254e-01
-1.143021e-01
-1.173394e-01
-1.212794e-01
-1.261483e-01
-1.320850e-01
-1.390975e-01
-1.468303e-01
-1.547451e-01
-1.624068e-01
-1.694779e-01
-1.755861e-01
-1.803263e-01
-1.833848e-01
-1.849091e-01
-1.857395e-01
-1.868670e-01
-1.887845e-01
-1.914531e-01
-1.946397e-01
-1.981951e-01
-2.019345e-01
-2.056942e-01
-2.099525e-01
-2.159387e-01
-2.248116e-01
-2.366719e-01
-2.501554e-01
-2.631832e-01
-2.743854e-01
-2.836778e-01
-2.916653e-01
-2.989491e-01
-3.057618e-01
-3.119408e-01
-3.172017e-01
-3.211616e-01
-3.233856e-01
-3.237924e-01
-3.226468e-01
-3.201359e-01
-3.162273e-01
-3.107490e-01
-3.035821e-01
-2.949756e-01
-2.854196e-01
-2.750477e-01
-2.634639e-01
-2.501792e-01
-2.350799e-01
-2.184857e-01
-2.006879e-01
-1.816285e-01
-1.613219e-01
-1.403095e-01
-1.193524e-01
-9.890345e-02
-7.909299e-02
-5.989209e-02
-4.107872e-02
-2.233315e-02
-3.431778e-03
1.573475e-02
3.515055e-02
5.479007e-02
7.492062e-02
9.602836e-02
1.185104e-01
1.427435e-01
1.691438e-01
1.979835e-01
2.294075e-01
2.634104e-01
2.996252e-01
3.373542e-01
3.757980e-01
4.143974e-01
4.531163e-01
4.921997e-01
5.316572e-01
5.710857e-01
6.100349e-01
6.485482e-01
6.870575e-01
7.258166e-01
7.649217e-01
8.046534e-01
8.455919e-01
8.888421e-01
9.358886e-01
9.877726e-01
1.044683e+00
1.106256e+00
1.171928e+00
1.241175e+00
1.313748e+00
1.389815e+00
1.469587e+00
1.552880e+00
1.639106e+00
1.727231e+00
1.815924e+00
1.904107e+00
1.991274e+00
2.077459e+00
2.162871e+00
2.247350e+00
2.330265e+00
2.410875e+00
2.488780e+00
2.563969e+00
2.636496e+00
2.706304e+00
2.773338e+00
2.837672e+00
2.899523e+00
2.959114e+00
3.016548e+00
3.071966e+00
3.125710e+00
3.178150e+00
3.229637e+00
3.280730e+00
3.332295e+00
3.385447e+00
3.441228e+00
3.499857e+00
3.560420e+00
3.621603e+00
3.682531e+00
3.742868e+00
3.802483e+00
3.861219e+00
3.918846e+00
3.975201e+00
4.030573e+00
4.085914e+00
4.142540e+00
4.201538e+00
4.263051e+00
4.325959e+00
4.388671e+00
4.450128e+00
4.509888e+00
4.567850e+00
4.624445e+00
4.680851e+00
4.738648e+00
4.799202e+00
4.863245e+00
4.930832e+00
5.001646e+00
5.075400e+00
5.151918e+00
5.230825e+00
5.311385e+00
5.392757e+00
5.474187e+00
5.554884e+00
5.634164e+00
5.711742e+00
5.787475e+00
5.860967e+00
5.931740e+00
5.999636e+00
6.064712e+00
6.126693e+00
6.184738e+00
6.237969e+00
6.286189e+00
6.329752e+00
6.368814e+00
6.403081e+00
6.432035e+00
6.454930e+00
6.470970e+00
6.480018e+00
6.482877e+00
6.480644e+00
6.473916e+00
6.462592e+00
6.446359e+00
6.425212e+00
6.399439e+00
6.369254e+00
6.334627e+00
6.295391e+00
6.251368e+00
6.202473e+00
6.148923e+00
6.091186e+00
6.029591e+00
5.964246e+00
5.895346e+00
5.823304e+00
5.748604e+00
5.671693e+00
5.593116e+00
5.513621e+00
5.433862e+00
5.353863e+00
5.272702e+00
5.188839e+00
5.100775e+00
5.007304e+00
4.907617e+00
4.801762e+00
4.690928e+00
4.576877e+00
4.460888e+00
4.343179e+00
4.223153e+00
4.099981e+00
3.972881e+00
3.841412e+00
3.705964e+00
3.567736e+00
3.428082e+00
3.288144e+00
3.148796e+00
3.010462e+00
2.872870e+00
2.735295e+00
2.597285e+00
2.458965e+00
2.320566e+00
2.182066e+00
2.043272e+00
1.904013e+00
1.764352e+00
1.624629e+00
1.485170e+00
1.345947e+00
1.206436e+00
1.065827e+00
9.235536e-01
7.796848e-01
6.348578e-01
4.899078e-01
3.456479e-01
2.028061e-01
6.187915e-02
-7.706713e-02
-2.145873e-01
-3.518127e-01
-4.899789e-01
-6.300805e-01
-7.729276e-01
-9.190080e-01
-1.068299e+00
-1.220593e+00
-1.375828e+00
-1.533862e+00
-1.694053e+00
-1.855143e+00
-2.015473e+00
-2.173413e+00
-2.327821e+00
-2.478273e+00
-2.624940e+00
-2.768274e+00
-2.908748e+00
-3.046806e+00
-3.182731e+00
-3.316295e+00
-3.446791e+00
-3.573665e+00
-3.696948e+00
-3.817224e+00
-3.935542e+00
-4.053240e+00
-4.171585e+00
-4.291551e+00
-4.413740e+00
-4.538235e+00
-4.664538e+00
-4.791788e+00
-4.919057e+00
-5.045573e+00
-5.170842e+00
-5.294528e+00
-5.416093e+00
-5.534615e+00
-5.649054e+00
-5.758677e+00
-5.863191e+00
-5.962633e+00
-6.057276e+00
-6.147369e+00
-6.232587e+00
-6.311790e+00
-6.383629e+00
-6.447375e+00
-6.503042e+00
-6.550962e+00
-6.591474e+00
-6.624928e+00
-6.651853e+00
-6.673171e+00
-6.690301e+00
-6.704937e+00
-6.718609e+00
-6.732445e+00
-6.747326e+00
-6.764103e+00
-6.783495e+00
-6.805898e+00
-6.831421e+00
-6.859950e+00
-6.891039e+00
-6.923929e+00
-6.957713e+00
-6.991477e+00
-7.024414e+00
-7.055899e+00
-7.085435e+00
-7.112503e+00
-7.136522e+00
-7.156912e+00
-7.173118e+00
-7.184592e+00
-7.190836e+00
-7.191417e+00
-7.185920e+00
-7.174008e+00
-7.155766e+00
-7.132058e+00
-7.104410e+00
-7.074498e+00
-7.043710e+00
-7.012972e+00
-6.982836e+00
-6.953690e+00
-6.925864e+00
-6.899707e+00
-6.875634e+00
-6.854035e+00
-6.835159e+00
-6.819127e+00
-6.806126e+00
-6.796614e+00
-6.791210e+00
-6.790207e+00
-6.793096e+00
-6.798501e+00
-6.804507e+00
-6.809098e+00
-6.810585e+00
-6.807949e+00
-6.800899e+00
-6.789650e+00
-6.774729e+00
-6.756927e+00
-6.737169e+00
-6.716316e+00
-6.695023e+00
-6.673612e+00
-6.652072e+00
-6.630249e+00
-6.607991e+00
-6.585137e+00
-6.561485e+00
-6.536842e+00
-6.511117e+00
-6.484361e+00
-6.456661e+00
-6.428001e+00
-6.398324e+00
-6.367726e+00
-6.336527e+00
-6.305152e+00
-6.273990e+00
-6.243244e+00
-6.212712e+00
-6.181686e+00
-6.149086e+00
-6.113679e+00
-6.074299e+00
-6.030148e+00
-5.981050e+00
-5.927442e+00
-5.870168e+00
-5.810194e+00
-5.748273e+00
-5.684697e+00
-5.619460e+00
-5.552633e+00
-5.484440e+00
-5.415069e+00
-5.344604e+00
-5.273036e+00
-5.200294e+00
-5.126303e+00
-5.051094e+00
-4.974896e+00
-4.897994e+00
-4.820382e+00
-4.741674e+00
-4.661361e+00
-4.579025e+00
-4.494315e+00
-4.406968e+00
-4.316893e+00
-4.224018e+00
-4.127973e+00
-4.028095e+00
-3.923777e+00
-3.814677e+00
-3.700705e+00
-3.582101e+00
-3.459601e+00
-3.334253e+00
-3.206778e+00
-3.077231e+00
-2.945430e+00
-2.811479e+00
-2.675807e+00
-2.539048e+00
-2.402038e+00
-2.265822e+00
-2.131481e+00
-1.999837e+00
-1.871363e+00
-1.746293e+00
-1.624591e+00
-1.505773e+00
-1.388890e+00
-1.272772e+00
-1.156311e+00
-1.038692e+00
-9.195582e-01
-7.989897e-01
-6.773394e-01
-5.550745e-01
-4.326487e-01
-3.104447e-01
-1.888063e-01
-6.801632e-02
5.175671e-02
1.703128e-01
2.872575e-01
4.022277e-01
5.152429e-01
6.266387e-01
7.367148e-01
8.455206e-01
9.527791e-01
1.057849e+00
1.159827e+00
1.257822e+00
1.351210e+00
1.439716e+00
1.523287e+00
1.601885e+00
1.675490e+00
1.744287e+00
1.808584e+00
1.868455e+00
1.923553e+00
1.973276e+00
2.017082e+00
2.054748e+00
2.086404e+00
2.112436e+00
2.133453e+00
2.150255e+00
2.163709e+00
2.174625e+00
2.183729e+00
2.191669e+00
2.198993e+00
2.206173e+00
2.213722e+00
2.222120e+00
2.231526e+00
2.241783e+00
2.252787e+00
2.264625e+00
2.277367e+00
2.290885e+00
2.304850e+00
2.318764e+00
2.332036e+00
2.344273e+00
2.355510e+00
2.365806e+00
2.374834e+00
2.382261e+00
2.388054e+00
2.392333e+00
2.395503e+00
2.398229e+00
2.401205e+00
2.404977e+00
2.409513e+00
2.414209e+00
2.418476e+00
2.422058e+00
2.425057e+00
2.427815e+00
2.430771e+00
2.434454e+00
2.439496e+00
2.446635e+00
2.456551e+00
2.469652e+00
2.486081e+00
2.505840e+00
2.528883e+00
2.555097e+00
2.584191e+00
2.615703e+00
2.649134e+00
2.684082e+00
2.720280e+00
2.757550e+00
2.795651e+00
2.834151e+00
2.872562e+00
2.910581e+00
2.948135e+00
2.985169e+00
3.021403e+00
3.056252e+00
3.089024e+00
3.119237e+00
3.146803e+00
3.171943e+00
3.194997e+00
3.216298e+00
3.236133e+00
3.254746e+00
3.272340e+00
3.289050e+00
3.304879e+00
3.319719e+00
3.333497e+00
3.346271e+00
3.358147e+00
3.369160e+00
3.379199e+00
3.387957e+00
3.395007e+00
3.400039e+00
3.402950e+00
3.403743e+00
3.402467e+00
3.399271e+00
3.394387e+00
3.388041e+00
3.380468e+00
3.372018e+00
3.363170e+00
3.354377e+00
3.345876e+00
3.337655e+00
3.329555e+00
3.321438e+00
3.313266e+00
3.304938e+00
3.296137e+00
3.286436e+00
3.275444e+00
3.262790e+00
3.248087e+00
3.230960e+00
3.211028e+00
3.187979e+00
3.161756e+00
3.132592e+00
3.100940e+00
3.067501e+00
3.033184e+00
2.998807e+00
2.964756e+00
2.930946e+00
2.897120e+00
2.863106e+00
2.828828e+00
2.794230e+00
2.759201e+00
2.723528e+00
2.686899e+00
2.649033e+00
2.609806e+00
2.569150e+00
2.526784e+00
2.482160e+00
2.434607e+00
2.383476e+00
2.328244e+00
2.268682e+00
2.204912e+00
2.137206e+00
2.065865e+00
1.991262e+00
1.913727e+00
1.833398e+00
1.750268e+00
1.664236e+00
1.575059e+00
1.482460e+00
1.386346e+00
1.286929e+00
1.184664e+00
1.080023e+00
9.733501e-01
8.649434e-01
7.551526e-01
6.443932e-01
5.331817e-01
4.221250e-01
3.117977e-01
2.026372e-01
9.488046e-02
-1.150068e-02
-1.167508e-01
-2.211487e-01
-3.249403e-01
-4.284534e-01
-5.321764e-01
-6.367353e-01
-7.428380e-01
-8.511146e-01
-9.618545e-01
-1.074895e+00
-1.189691e+00
-1.305360e+00
-1.420868e+00
-1.535504e+00
-1.649175e+00
-1.762219e+00
-1.875024e+00
-1.987697e+00
-2.099829e+00
-2.210423e+00
-2.318201e+00
-2.422090e+00
-2.521536e+00
-2.616536e+00
-2.707517e+00
-2.795094e+00
-2.879757e+00
-2.961671e+00
-3.040692e+00
-3.116502e+00
-3.188813e+00
-3.257556e+00
-3.322928e+00
-3.385317e+00
-3.445200e+00
-3.503007e+00
-3.559032e+00
-3.613459e+00
-3.666410e+00
-3.718018e+00
-3.768423e+00
-3.817637e+00
-3.865476e+00
-3.911683e+00
-3.956068e+00
-3.998587e+00
-4.039378e+00
-4.078643e+00
-4.116458e+00
-4.152779e+00
-4.187572e+00
-4.220778e+00
-4.252317e+00
-4.282268e+00
-4.310833e+00
-4.338036e+00
-4.363710e+00
-4.387826e+00
-4.410534e+00
-4.431831e+00
-4.451509e+00
-4.469426e+00
-4.485544e+00
-4.499699e+00
-4.511611e+00
-4.521063e+00
-4.527873e+00
-4.531777e+00
-4.532498e+00
-4.529913e+00
-4.524135e+00
-4.515532e+00
-4.504639e+00
-4.491948e+00
-4.477765e+00
-4.462263e+00
-4.445580e+00
-4.427909e+00
-4.409572e+00
-4.390988e+00
-4.372501e+00
-4.354213e+00
-4.335979e+00
-4.317547e+00
-4.298658e+00
-4.279033e+00
-4.258387e+00
-4.236528e+00
-4.213464e+00
-4.189379e+00
-4.164542e+00
-4.139255e+00
-4.113780e+00
-4.088222e+00
-4.062505e+00
-4.036459e+00
-4.010041e+00
-3.983561e+00
-3.957676e+00
-3.933167e+00
