EVENT_NAME: EMILIA_2ND_SHOCK
EVENT_ID: IT-2012-0011
EVENT_DATE_YYYYMMDD: 20120529
EVENT_TIME_HHMMSS: 070002
EVENT_LATITUDE_DEGREE: 44.8417
EVENT_LONGITUDE_DEGREE: 11.0657
EVENT_DEPTH_KM: 8.1
HYPOCENTER_REFERENCE: INGV-CNT_Seismic_Bulletin
MAGNITUDE_W: 6.0
MAGNITUDE_W_REFERENCE: RCMT-INGV
MAGNITUDE_L: 5.8
MAGNITUDE_L_REFERENCE: INGV-CNT_Seismic_Bulletin
FOCAL_MECHANISM: TF
NETWORK: IT
STATION_CODE: BON0
STATION_NAME: BONDENO
STATION_LATITUDE_DEGREE: 44.886000
STATION_LONGITUDE_DEGREE: 11.418000
STATION_ELEVATION_M: 65
LOCATION: 
SENSOR_DEPTH_M: 0.0
VS30_M/S: 
SITE_CLASSIFICATION_EC8: C*
MORPHOLOGIC_CLASSIFICATION: 
EPICENTRAL_DISTANCE_KM: 28.3
EARTHQUAKE_BACKAZIMUTH_DEGREE: 260.1
DATE_TIME_FIRST_SAMPLE_YYYYMMDD_HHMMSS: 20120529_070003.000
DATE_TIME_FIRST_SAMPLE_PRECISION: seconds
SAMPLING_INTERVAL_S: 0.005000
NDATA: 22001
DURATION_S: 110.005
STREAM: HNZ
UNITS: cm/s
INSTRUMENT: sensor = Episensor FBA ES-T [Kinemetrics] | digitizer = Etna [Kinemetrics]
INSTRUMENT_ANALOG/DIGITAL: D
INSTRUMENTAL_FREQUENCY_HZ: 
INSTRUMENTAL_DAMPING: 
FULL_SCALE_G: 
N_BIT_DIGITAL_CONVERTER: 18
PGV_CM/S: -1.219436
TIME_PGV_S: 17.325000
BASELINE_CORRECTION: BASELINE REMOVED
FILTER_TYPE: BUTTERWORTH
FILTER_ORDER: 2
LOW_CUT_FREQUENCY_HZ: 0.050
HIGH_CUT_FREQUENCY_HZ: 40.000
LATE/NORMAL_TRIGGERED: NT
DATABASE_VERSION: DYNA 1.0
HEADER_FORMAT: DYNA 1.2
DATA_TYPE: VELOCITY
PROCESSING: manual (Paolucci et al., 2011)
DATA_TIMESTAMP_YYYYMMDD_HHMMSS: 
DATA_LICENSE: CC-BY3_0-IT (http://creativecommons.org/licenses/by/3.0/deed.en)
DATA_CITATION: ESM working group (2015), European Strong-Motion database, version 0.1, Network Activity 3: Networking acceleration networks and SM data users. Project NERA (www.nera-eu.org)
DATA_CREATOR: ESM working group
ORIGINAL_DATA_MEDIATOR_CITATION: Ufficio Rischio Sismico e Vulcanico del Dipartimento della Protezione Civile (http://www.protezionecivile.gov.it/)
ORIGINAL_DATA_MEDIATOR: Rete Accelerometrica Nazionale - RAN Download (http://www.mot1.it/randownload/)
ORIGINAL_DATA_CREATOR_CITATION: Italian Strong Motion Network, Italian Civil Protection Department http://www.protezionecivile.gov.it
ORIGINAL_DATA_CREATOR: network: IT (Italian Strong Motion Network); owner: Dipartimento Della Protezione Civile
USER1: 
USER2: 
USER3: 
USER4: 
USER5: 
[...]
-0.003515
-0.000233
0.005508
0.012684
0.020530
0.028670
0.037336
0.047082
0.057549
0.066223
0.068682
0.060371
0.038372
0.002226
-0.045982
-0.101878
-0.159470
-0.212301
-0.254723
-0.282763
-0.294556
-0.290392
-0.272057
-0.241738
-0.201471
-0.153523
-0.100975
-0.047808
0.001300
0.041099
0.066550
0.074851
0.067299
0.048889
0.025786
0.002941
-0.016299
-0.029214
-0.033395
-0.027738
-0.013245
0.007580
0.031939
0.057428
0.082319
0.105711
0.126950
0.144411
0.155179
0.156374
0.147083
0.129652
0.109491
0.092913
0.083954
0.082724
0.086604
0.092503
0.098139
0.102555
0.106188
0.109875
0.113174
0.113718
0.108768
0.097693
0.082642
0.066690
0.051469
0.036288
0.019007
-0.002478
-0.029387
-0.061859
-0.098467
-0.135309
-0.166225
-0.185099
-0.188372
-0.175669
-0.148867
-0.111107
-0.066167
-0.017727
0.031280
0.078230
0.119330
0.149110
0.162045
0.154335
0.124078
0.071169
-0.001503
-0.087311
-0.177713
-0.265007
-0.343192
-0.407306
-0.453550
-0.480238
-0.487423
-0.475129
-0.442904
-0.391528
-0.324512
-0.247632
-0.167282
-0.089271
-0.018486
0.041395
0.088614
0.123629
0.148257
0.164308
0.172856
0.174616
0.170516
0.161496
0.148031
0.130466
0.109937
0.088905
0.070785
0.058749
0.054310
0.056658
0.062987
0.069234
0.070984
0.064694
0.048887
0.024568
-0.005455
-0.037831
-0.069601
-0.098561
-0.123318
-0.142935
-0.156243
-0.161635
-0.157759
-0.144287
-0.122165
-0.093722
-0.062813
-0.034357
-0.013022
-0.001816
-0.001910
-0.013803
-0.037814
-0.072672
-0.114194
-0.156496
-0.194720
-0.226098
-0.248597
-0.259915
-0.258542
-0.244923
-0.220969
-0.189287
-0.153508
-0.118562
-0.089775
-0.071530
-0.066241
-0.073412
-0.088953
-0.105734
-0.116000
-0.114664
-0.101205
-0.078864
-0.052225
-0.025184
-0.000139
0.022015
0.041687
0.060174
0.078878
0.098572
0.119471
0.141763
0.165452
0.189650
0.212526
0.232263
0.248022
0.259939
0.268255
0.272548
0.271957
0.266198
0.256093
0.243127
0.229125
0.216125
0.205086
0.194526
0.181774
0.165794
0.148147
0.131818
0.119581
0.112615
0.109983
0.109506
0.109214
0.108308
0.107246
0.107139
0.109103
0.113979
0.122337
0.134556
0.150683
0.170188
0.192271
0.216643
0.243367
0.271258
0.296759
0.315615
0.326595
0.332971
0.339354
0.347675
0.357428
0.369209
0.386100
0.410966
0.443212
0.478438
0.510552
0.533908
0.544508
0.540669
0.523092
0.494032
0.456033
0.410761
0.358171
0.296988
0.227392
0.153672
0.083039
0.021292
-0.029620
-0.069936
-0.099390
-0.116912
-0.122259
-0.116605
-0.101312
-0.077511
-0.047825
-0.017789
0.005567
0.016909
0.014628
0.000720
-0.020535
-0.044508
-0.068174
-0.090832
-0.112669
-0.132106
-0.144876
-0.146519
-0.135380
-0.112172
-0.077414
-0.031455
0.022909
0.080377
0.136629
0.190124
0.239865
0.283146
0.316554
0.338118
0.347760
0.346988
0.339776
0.333423
0.337372
0.360558
0.408996
0.484020
0.581277
0.691569
0.803684
0.907246
0.993796
1.056890
1.093195
1.104364
1.096681
1.076931
1.048148
1.009890
0.961939
0.906192
0.845025
0.779829
0.712551
0.648001
0.593205
0.553817
0.531243
0.522999
0.524440
0.529496
0.531427
0.524652
0.505809
0.473264
0.427108
0.370178
0.307902
0.245665
0.185789
0.127391
0.069126
0.011431
-0.043773
-0.094485
-0.139052
-0.175316
-0.199730
-0.208231
-0.199050
-0.175371
-0.145327
-0.118385
-0.100517
-0.092346
-0.091321
-0.095145
-0.103785
-0.119717
-0.146907
-0.188325
-0.242798
-0.304131
-0.363406
-0.411461
-0.440277
-0.445613
-0.429965
-0.401440
-0.368882
-0.338070
-0.311178
-0.288376
-0.269511
-0.254013
-0.239633
-0.222660
-0.199787
-0.169013
-0.129055
-0.079495
-0.021892
0.040316
0.103629
0.165777
0.224857
0.277782
0.320517
0.350015
0.365595
0.368574
0.360997
0.344782
0.321672
0.293265
0.260379
0.222354
0.177811
0.126810
0.071955
0.017077
-0.034675
-0.081306
-0.121167
-0.152304
-0.173076
-0.183511
-0.185788
-0.183295
-0.179543
-0.178350
-0.184865
-0.204883
-0.241485
-0.292211
-0.350304
-0.408845
-0.463610
-0.513016
-0.557239
-0.597884
-0.636972
-0.674915
-0.709283
-0.735644
-0.749523
-0.748072
-0.731218
-0.702076
-0.665786
-0.627389
-0.590379
-0.556261
-0.524752
-0.494423
-0.464000
-0.433945
-0.406581
-0.384020
-0.366136
-0.350910
-0.336610
-0.323283
-0.311734
-0.301145
-0.288241
-0.269135
-0.242040
-0.208292
-0.170943
-0.132545
-0.093867
-0.053423
-0.007305
0.049761
0.121531
0.207050
0.299422
0.387672
0.461113
0.513809
0.546083
0.562341
0.567422
0.564153
0.552774
0.531318
0.496618
0.445929
0.378299
0.295077
0.199878
0.097827
-0.005916
-0.107180
-0.202622
-0.289288
-0.364907
-0.428372
-0.479257
-0.516560
-0.538491
-0.544073
-0.534820
-0.514964
-0.490806
-0.469765
-0.458615
-0.461338
-0.478202
-0.506589
-0.542518
-0.582169
-0.623151
-0.664814
-0.706910
-0.747183
-0.780020
-0.797768
-0.793456
-0.762781
-0.705053
-0.623693
-0.525966
-0.421613
-0.320729
-0.231692
-0.159978
-0.107915
-0.074786
-0.057498
-0.052302
-0.056608
-0.069215
-0.089000
-0.113827
-0.140306
-0.163644
-0.177896
-0.177510
-0.159349
-0.123927
-0.075496
-0.020672
0.033865
0.082534
0.120538
0.144286
0.152917
0.148806
0.136351
0.120671
0.107056
0.100345
0.103890
0.118969
0.145009
0.179953
0.220300
0.261124
0.296433
0.319883
0.325714
0.309717
0.269917
0.206756
0.122852
0.022781
-0.087179
-0.200435
-0.312711
-0.423230
-0.532691
-0.640023
-0.740779
-0.828047
-0.894935
-0.936822
-0.952169
-0.941994
-0.908488
-0.853555
-0.778553
-0.685587
-0.578655
-0.463142
-0.344406
-0.226976
-0.114708
-0.011092
0.080751
0.157873
0.217261
0.256694
0.276299
0.278943
0.268591
0.247558
0.214846
0.167057
0.100631
0.013668
-0.092793
-0.214380
-0.344441
-0.475835
-0.602368
-0.719177
-0.821908
-0.905763
-0.965733
-0.997898
-1.000797
-0.975804
-0.926113
-0.855660
-0.769245
-0.672910
-0.573393
-0.476957
-0.388312
-0.309935
-0.242412
-0.186063
-0.142318
-0.112940
-0.097578
-0.092008
-0.088545
-0.078327
-0.053983
-0.011431
0.049053
0.122549
0.201054
0.276175
0.340867
0.389750
0.419214
0.427739
0.415320
0.382032
0.327961
0.254892
0.167134
0.070207
-0.031044
-0.132801
-0.231052
-0.320650
-0.395769
-0.450892
-0.481200
-0.482919
-0.454822
-0.399977
-0.325245
-0.238739
-0.148321
-0.061980
0.012507
0.069438
0.106597
0.125108
0.128240
0.119884
0.103447
0.081396
0.055393
0.027030
-0.001444
-0.026987
-0.045969
-0.054462
-0.048893
-0.027280
0.009551
0.057738
0.110958
0.161039
0.198914
0.216555
0.209252
0.176764
0.122462
0.051311
-0.031389
-0.120388
-0.211062
-0.299850
-0.383619
-0.458383
-0.518825
-0.559448
-0.577149
-0.573493
-0.554353
-0.527094
-0.498157
-0.472517
-0.453696
-0.443358
-0.441445
-0.447294
-0.460739
-0.482105
-0.510976
-0.544917
-0.579402
-0.608763
-0.627263
-0.629987
-0.613560
-0.576656
-0.520241
-0.447127
-0.360913
-0.265408
-0.164784
-0.063751
0.032599
0.119377
0.192621
0.249488
0.288040
0.307617
0.309829
0.298676
0.279658
0.258942
0.242715
0.236294
0.242889
0.262475
0.291914
0.326308
0.360409
0.389865
0.412127
0.426102
0.430908
0.424960
0.405785
0.370773
0.318725
0.251112
0.172275
0.088651
0.007796
-0.062526
-0.116019
-0.149560
-0.163187
-0.158904
-0.139907
-0.110061
-0.072961
-0.031299
0.012617
0.055909
0.095231
0.127759
0.151726
0.167051
0.176144
0.183692
0.195226
0.214757
0.243389
0.280493
0.325344
0.377034
0.433876
0.494033
0.556298
0.619462
0.681389
0.739066
0.789097
0.828197
0.853664
0.863867
0.859036
0.841961
0.817717
0.792501
0.772122
0.760375
0.758263
0.764773
0.777922
0.794789
0.811625
0.825384
0.835615
0.844459
0.854459
0.866507
0.879754
0.892816
0.904926
0.916269
0.927546
0.939181
0.950479
0.959218
0.962097
0.955515
0.936299
0.902464
0.853420
0.789317
0.710532
0.618367
0.516360
0.410391
0.306737
0.209630
0.120571
0.039215
-0.035963
-0.107289
-0.176720
-0.244145
-0.306758
-0.359881
-0.398145
-0.417200
-0.415949
-0.397129
-0.365862
-0.327820
-0.287345
-0.246233
-0.204478
-0.161694
-0.117722
-0.073363
-0.031210
0.004918
0.031461
0.046567
0.051787
0.052811
0.057690
0.073886
0.106247
0.156403
0.223283
0.303480
0.390846
0.477305
0.555828
0.622453
0.675013
0.710874
0.726521
0.718752
0.685817
0.627942
0.547792
0.450958
0.345498
0.240358
0.143825
0.062486
0.000485
-0.040647
-0.061523
-0.064337
-0.052324
-0.029211
0.001131
0.034786
0.067749
0.095643
0.113411
0.115607
0.097738
0.057912
-0.002607
-0.079642
-0.166523
-0.255379
-0.338827
-0.410708
-0.466459
-0.503534
-0.521145
-0.519803
-0.501166
-0.467594
-0.421684
-0.366390
-0.305220
-0.241885
-0.179491
-0.120052
-0.065019
-0.016103
0.024877
0.057111
0.081429
0.099737
0.114088
0.126284
0.137953
0.150555
0.165085
0.181880
0.200836
0.221741
0.244490
0.269291
0.296872
0.328055
0.362245
0.396147
0.424368
0.441303
0.443022
0.428739
0.401557
0.367859
0.335071
0.309070
0.293091
0.288110
0.293452
0.307012
0.325103
0.342584
0.353569
0.352235
0.333670
0.294930
0.235600
0.157461
0.063998
-0.040069
-0.149771
-0.260740
-0.368969
-0.470359
-0.561170
-0.638960
-0.703048
-0.754275
-0.794382
-0.825164
-0.847598
-0.861409
-0.865182
-0.857087
-0.835999
-0.802067
-0.756463
-0.700972
-0.637681
-0.568482
-0.494620
-0.416939
-0.336663
-0.255759
-0.176521
-0.101091
-0.031661
0.029326
0.080111
0.120797
0.153178
0.179451
0.201085
0.218369
0.230516
0.236218
0.234163
0.223126
0.202235
0.171813
0.133859
0.091250
0.046225
-0.000285
-0.047768
-0.094566
-0.137119
-0.170646
-0.190800
-0.195432
-0.185525
-0.164604
-0.137390
-0.109008
-0.084415
-0.067392
-0.059984
-0.062922
-0.076049
-0.098338
-0.127678
-0.160675
-0.193305
-0.222152
-0.244635
-0.258382
-0.261195
-0.251534
-0.228049
-0.188640
-0.131424
-0.057134
0.030044
0.123979
0.218330
0.306754
0.382238
0.437328
0.465650
0.463348
0.429384
0.365067
0.273309
0.157980
0.023969
-0.122326
-0.273394
-0.421936
-0.561567
-0.686258
-0.789933
-0.867527
-0.916392
-0.936023
-0.926843
-0.890018
-0.828294
-0.746376
-0.650137
-0.545392
-0.437261
-0.330340
-0.229236
-0.138579
-0.062142
-0.001778
0.042909
0.074154
0.095533
0.111516
0.126609
0.143876
0.163952
0.185356
0.205219
0.219821
0.225638
0.220799
0.205521
0.181176
0.148815
0.108195
0.058409
-0.000533
-0.067158
-0.138854
-0.212058
-0.282678
-0.347059
-0.403057
-0.450137
-0.488456
-0.518425
-0.540911
-0.557051
-0.567781
-0.573503
-0.574240
-0.570446
-0.563584
-0.555470
-0.547094
-0.538409
-0.528979
-0.518282
-0.505208
-0.487646
-0.462999
-0.429289
-0.385921
-0.333411
-0.272506
-0.203730
-0.127705
-0.045852
0.039099
0.123282
0.202212
0.271033
0.325005
0.360951
0.378750
0.381546
0.374791
0.364615
0.355972
0.351624
0.352609
0.359424
0.372709
0.392910
0.419651
0.451636
0.486571
0.520920
0.550567
0.572446
0.585348
0.589036
0.583334
0.568640
0.546646
0.519679
0.489179
0.454971
0.415917
0.371245
0.321502
0.268201
0.212777
0.156907
0.103690
0.056892
0.018684
-0.011174
-0.034410
-0.053155
-0.069134
-0.083220
-0.095603
-0.105861
-0.112696
-0.114174
-0.108417
-0.094286
-0.071890
-0.042209
-0.005775
0.038039
0.090179
0.150540
0.217642
0.289380
0.363211
0.435230
0.499994
0.552163
0.588293
0.606861
0.607054
0.588306
0.551084
0.497555
0.431178
0.355969
0.276260
0.196368
0.119857
0.049558
-0.011565
-0.060404
-0.095125
-0.116140
-0.125301
-0.124385
-0.114541
-0.097114
-0.074684
-0.051083
-0.030606
-0.017251
-0.014142
-0.022967
-0.043600
-0.074097
-0.111110
-0.150833
-0.189807
-0.224924
-0.253343
-0.272905
-0.282329
-0.280974
-0.268556
-0.244995
-0.210536
-0.166111
-0.113614
-0.055685
0.004735
0.064349
0.119611
0.167813
0.208271
0.242260
0.271818
0.298624
0.323681
0.347531
0.370859
0.394945
0.421361
0.451454
0.486215
0.526212
0.571324
0.620257
0.670412
0.718608
0.762111
0.799054
0.827964
0.847274
0.855729
0.853245
0.841048
0.820725
0.793288
0.759610
0.721621
0.682448
0.645346
0.612958
0.587394
0.570018
0.560913
0.558998
0.562457
0.568812
0.575222
0.579532
0.580918
0.579135
0.573521
0.563434
0.549062
0.530522
0.506754
0.476615
0.440618
0.400699
0.358604
0.315159
0.270952
0.226895
0.183954
0.142808
0.103979
0.068046
0.035695
0.007555
-0.016266
-0.036446
-0.054099
-0.070447
-0.086811
-0.104005
-0.121575
-0.138515
-0.154452
-0.169282
-0.182191
-0.191787
-0.197088
-0.198223
-0.196068
-0.191405
-0.184927
-0.177813
-0.171326
-0.165720
-0.160089
-0.153251
-0.144415
-0.133220
-0.119544
-0.103178
-0.083542
-0.060088
-0.032977
-0.002912
0.029339
0.062815
0.096347
0.129069
0.160747
0.191737
0.222896
0.255381
0.290441
0.329060
0.371381
0.416524
0.462824
0.507974
0.549251
0.584010
0.610209
0.626754
0.633312
0.629670
0.615525
0.590979
0.556849
0.514697
0.466860
0.416099
0.365239
0.317235
0.274794
0.239366
0.210847
0.188065
0.169115
0.151692
0.133450
0.112004
0.084823
0.049241
0.002794
-0.055907
-0.126368
-0.206443
-0.293536
-0.385782
-0.482213
-0.581844
-0.682678
-0.781902
-0.876907
-0.965453
-1.044980
-1.112592
-1.165709
-1.202043
-1.219436
-1.216698
-1.194022
-1.151889
-1.090846
-1.012838
-0.921265
-0.819413
-0.710271
-0.598074
-0.488341
-0.385786
-0.292995
-0.210806
-0.138648
-0.074661
-0.016592
0.037182
0.087496
0.134681
0.179041
0.221682
0.264671
0.309962
0.358503
0.410128
0.463315
0.515206
0.562612
0.602998
0.634282
0.654318
0.661228
0.653923
0.631859
0.594540
0.541584
0.473345
0.391315
0.297914
0.196138
0.089556
-0.017504
-0.120159
-0.213896
-0.295685
-0.364335
-0.419939
-0.463108
-0.494704
-0.515946
-0.528228
-0.532721
-0.530605
-0.523915
-0.515579
-0.508113
-0.502921
-0.501321
-0.505459
-0.517594
-0.538668
-0.567982
-0.604341
-0.647010
-0.695223
-0.747264
-0.800316
-0.851088
-0.896488
-0.933722
-0.960195
-0.973410
-0.970848
-0.950360
-0.910941
-0.853057
-0.778815
-0.692350
-0.599208
-0.504247
-0.410304
-0.318938
-0.231485
-0.149339
-0.073836
-0.005820
0.054496
0.106940
0.151360
0.188413
0.219434
0.245457
0.266780
0.283033
0.293472
0.297583
0.295381
0.287006
0.272358
0.251151
0.223110
0.188649
0.149471
0.107573
0.063751
0.017966
-0.029110
-0.075682
-0.119626
-0.159024
-0.192077
-0.217473
-0.235327
-0.247156
-0.254593
-0.258637
-0.260508
-0.263031
-0.270467
-0.286301
-0.311725
-0.346381
-0.389211
-0.438536
-0.492788
-0.550773
-0.610417
-0.668216
-0.720318
-0.763873
-0.797849
-0.822618
-0.838452
-0.844690
-0.840472
-0.825660
-0.800522
-0.765312
-0.720824
-0.668844
-0.611805
-0.552032
-0.491143
-0.430206
-0.370233
-0.312465
-0.258480
-0.210074
-0.168856
-0.135816
-0.110981
-0.093443
-0.081727
-0.074072
-0.068407
-0.062164
-0.052628
-0.037915
-0.017299
0.009334
0.041877
0.080167
0.124339
0.174740
0.230963
0.291485
0.354717
0.419505
0.484076
0.545266
0.599385
0.643420
0.675133
0.692418
0.693072
0.675395
0.638914
0.584638
0.514735
0.431875
0.338950
0.239550
0.138171
0.039230
-0.054070
-0.139635
-0.215729
-0.280921
-0.334544
-0.376931
-0.409358
-0.433474
-0.450305
-0.460114
-0.463335
-0.461231
-0.455573
-0.447811
-0.438701
-0.429154
-0.421223
-0.417211
-0.417891
-0.422500
-0.430182
-0.440848
-0.454676
-0.471036
-0.488238
-0.504044
-0.515940
-0.521331
-0.518345
-0.506620
-0.487013
-0.460533
-0.428026
-0.391098
-0.352525
-0.315083
-0.280276
-0.248528
-0.220219
-0.195941
-0.175661
-0.157993
-0.140614
-0.121517
-0.099688
-0.074650
-0.045947
-0.013193
0.023790
0.065007
0.110155
0.158257
0.207615
0.256172
0.301845
0.342932
0.378552
0.408642
0.433496
0.453340
0.468354
0.479242
0.487467
0.494071
0.498459
0.498960
0.494121
0.483215
0.466220
0.443718
0.416395
0.384357
0.347466
0.306115
0.260563
0.209670
0.151537
0.085607
0.013489
-0.062339
-0.140460
-0.220844
-0.303365
-0.386888
-0.469584
-0.549200
-0.623346
-0.689979
-0.747113
-0.791923
-0.821174
-0.833287
-0.829247
-0.811049
-0.780392
-0.739095
-0.689511
-0.633870
-0.573672
-0.510120
-0.445032
-0.381122
-0.321168
-0.266991
-0.219530
-0.179363
-0.146543
-0.120159
-0.098180
-0.077984
-0.057775
-0.037317
-0.016551
0.005797
0.031479
0.061360
0.095317
0.132978
0.174050
0.217792
0.262620
0.306460
0.347238
0.383638
0.415298
0.441261
0.459327
0.467165
0.463020
0.446633
0.419410
0.382780
0.337326
0.283283
0.221390
0.152958
0.078701
-0.001457
-0.086757
-0.174995
-0.264048
-0.352735
-0.439874
-0.523612
-0.601691
-0.671695
-0.731235
-0.778789
-0.814802
-0.841320
-0.859928
-0.870536
-0.872340
-0.865242
-0.850033
-0.827732
-0.799008
-0.764069
-0.723444
-0.678953
-0.633341
-0.588926
-0.546596
-0.505726
-0.465309
-0.425599
-0.388163
-0.354187
-0.323801
-0.296902
-0.273239
-0.251898
-0.231935
-0.213219
-0.196137
-0.181113
-0.168496
-0.158371
-0.150630
-0.145518
-0.143809
-0.146043
-0.151737
-0.159840
-0.169693
-0.180921
-0.192855
-0.204980
-0.217737
-0.231865
-0.246709
-0.259948
-0.269116
-0.272751
-0.270577
-0.263517
-0.253148
-0.240702
-0.226587
-0.210128
-0.189454
-0.162609
-0.129062
-0.089654
-0.045516
0.002147
0.051561
0.100484
0.146868
0.189386
0.227371
0.260379
0.287968
0.309584
0.324138
0.329893
0.325198
0.309384
0.283114
0.247613
0.203389
0.150324
0.088799
0.020019
-0.054218
-0.131154
-0.206994
-0.278262
-0.343104
-0.401029
-0.452239
-0.497209
-0.535820
-0.567087
-0.590854
-0.609619
-0.627636
-0.647969
-0.671027
-0.695612
-0.720124
-0.742851
-0.762254
-0.777240
-0.786528
-0.787549
-0.776845
-0.752383
-0.715082
-0.667261
-0.610113
-0.543731
-0.468727
-0.386432
-0.298069
-0.205028
-0.109402
-0.013289
0.081478
0.172761
0.258147
0.334918
0.400380
0.453281
0.493864
0.522322
0.538039
0.540029
0.527826
0.501791
0.462832
0.412719
0.354166
0.290227
0.224089
0.158573
0.095750
0.037867
-0.012587
-0.054642
-0.089655
-0.119653
-0.145079
-0.164514
-0.176893
-0.183635
-0.187931
-0.192253
-0.197026
-0.201172
-0.203296
-0.202600
-0.199509
-0.195539
-0.192274
-0.190914
-0.192738
-0.198871
-0.209164
-0.221822
-0.234537
-0.245794
-0.254990
-0.261677
-0.265044
-0.264406
-0.259991
-0.252388
-0.241245
-0.225358
-0.204035
-0.177820
-0.148136
-0.116475
-0.083784
-0.050592
-0.017275
0.016164
0.049880
0.083234
0.114796
0.143773
0.170524
0.195505
0.218748
0.240238
0.260021
0.278140
0.294648
0.309462
0.322075
0.331376
0.335866
0.334531
0.327556
0.315726
0.299322
0.277973
0.251300
0.219154
0.181209
0.137123
0.087624
0.034786
-0.019067
-0.072274
-0.123905
-0.173698
-0.222101
-0.269799
-0.317103
-0.364289
-0.411534
-0.457286
-0.498046
-0.530518
-0.553064
-0.565591
-0.568514
-0.561926
-0.546492
-0.524396
-0.497927
-0.467535
-0.432290
-0.391588
