EVENT_NAME: EMILIA_2ND_SHOCK
EVENT_ID: IT-2012-0011
EVENT_DATE_YYYYMMDD: 20120529
EVENT_TIME_HHMMSS: 070002
EVENT_LATITUDE_DEGREE: 44.8417
EVENT_LONGITUDE_DEGREE: 11.0657
EVENT_DEPTH_KM: 8.1
HYPOCENTER_REFERENCE: INGV-CNT_Seismic_Bulletin
MAGNITUDE_W: 6.0
MAGNITUDE_W_REFERENCE: RCMT-INGV
MAGNITUDE_L: 5.8
MAGNITUDE_L_REFERENCE: INGV-CNT_Seismic_Bulletin
FOCAL_MECHANISM: TF
NETWORK: IT
STATION_CODE: BON0
STATION_NAME: BONDENO
STATION_LATITUDE_DEGREE: 44.886000
STATION_LONGITUDE_DEGREE: 11.418000
STATION_ELEVATION_M: 65
LOCATION: 
SENSOR_DEPTH_M: 0.0
VS30_M/S: 
SITE_CLASSIFICATION_EC8: C*
MORPHOLOGIC_CLASSIFICATION: 
EPICENTRAL_DISTANCE_KM: 28.3
EARTHQUAKE_BACKAZIMUTH_DEGREE: 260.1
DATE_TIME_FIRST_SAMPLE_YYYYMMDD_HHMMSS: 20120529_070003.000
DATE_TIME_FIRST_SAMPLE_PRECISION: seconds
SAMPLING_INTERVAL_S: 0.005000
NDATA: 22001
DURATION_S: 110.005
STREAM: HNZ
UNITS: cm
INSTRUMENT: sensor = Episensor FBA ES-T [Kinemetrics] | digitizer = Etna [Kinemetrics]
INSTRUMENT_ANALOG/DIGITAL: D
INSTRUMENTAL_FREQUENCY_HZ: 
INSTRUMENTAL_DAMPING: 
FULL_SCALE_G: 
N_BIT_DIGITAL_CONVERTER: 18
PGD_CM: -0.282970
TIME_PGD_S: 20.110000
BASELINE_CORRECTION: BASELINE REMOVED
FILTER_TYPE: BUTTERWORTH
FILTER_ORDER: 2
LOW_CUT_FREQUENCY_HZ: 0.050
HIGH_CUT_FREQUENCY_HZ: 40.000
LATE/NORMAL_TRIGGERED: NT
DATABASE_VERSION: DYNA 1.0
HEADER_FORMAT: DYNA 1.2
DATA_TYPE: DISPLACEMENT
PROCESSING: manual (Paolucci et al., 2011)
DATA_TIMESTAMP_YYYYMMDD_HHMMSS: 
DATA_LICENSE: CC-BY3_0-IT (http://creativecommons.org/licenses/by/3.0/deed.en)
DATA_CITATION: ESM working group (2015), European Strong-Motion database, version 0.1, Network Activity 3: Networking acceleration networks and SM data users. Project NERA (www.nera-eu.org)
DATA_CREATOR: ESM working group
ORIGINAL_DATA_MEDIATOR_CITATION: Ufficio Rischio Sismico e Vulcanico del Dipartimento della Protezione Civile (http://www.protezionecivile.gov.it/)
ORIGINAL_DATA_MEDIATOR: Rete Accelerometrica Nazionale - RAN Download (http://www.mot1.it/randownload/)
ORIGINAL_DATA_CREATOR_CITATION: Italian Strong Motion Network, Italian Civil Protection Department http://www.protezionecivile.gov.it
ORIGINAL_DATA_CREATOR: network: IT (Italian Strong Motion Network); owner: Dipartimento Della Protezione Civile
USER1: 
USER2: 
USER3: 
USER4: 
USER5: 
[...]
5.544844e-02
5.476285e-02
5.390962e-02
5.295562e-02
5.197846e-02
5.105083e-02
5.022781e-02
4.954086e-02
4.899583e-02
4.857375e-02
4.823679e-02
4.793687e-02
4.762226e-02
4.724202e-02
4.675033e-02
4.611194e-02
4.530856e-02
4.434204e-02
4.323127e-02
4.200810e-02
4.071619e-02
3.941021e-02
3.815254e-02
3.701230e-02
3.606910e-02
3.541198e-02
3.512632e-02
3.527654e-02
3.589643e-02
3.698808e-02
3.852186e-02
4.043305e-02
4.261969e-02
4.494794e-02
4.726468e-02
4.941160e-02
5.123693e-02
5.260348e-02
5.339338e-02
5.351323e-02
5.290160e-02
5.153463e-02
4.942494e-02
4.661711e-02
4.318582e-02
3.923615e-02
3.489852e-02
3.031656e-02
2.563644e-02
2.100223e-02
1.655214e-02
1.241067e-02
8.678790e-03
5.428106e-03
2.701145e-03
5.148393e-04
-1.136859e-03
-2.283039e-03
-2.975935e-03
-3.286644e-03
-3.295534e-03
-3.080991e-03
-2.710220e-03
-2.232556e-03
-1.674975e-03
-1.041930e-03
-3.225492e-04
4.972123e-04
1.423993e-03
2.450090e-03
3.549194e-03
4.677385e-03
5.781381e-03
6.808986e-03
7.714864e-03
8.458939e-03
8.999916e-03
9.291959e-03
9.289292e-03
8.953504e-03
8.259235e-03
7.198944e-03
5.785556e-03
4.050259e-03
2.034975e-03
-2.157109e-04
-2.657990e-03
-5.250117e-03
-7.954672e-03
-1.073993e-02
-1.357884e-02
-1.644635e-02
-1.931755e-02
-2.216978e-02
-2.498770e-02
-2.776505e-02
-3.050052e-02
-3.319256e-02
-3.583745e-02
-3.842887e-02
-4.095491e-02
-4.339313e-02
-4.570813e-02
-4.785458e-02
-4.978418e-02
-5.145124e-02
-5.281377e-02
-5.383242e-02
-5.447094e-02
-5.470020e-02
-5.450471e-02
-5.388830e-02
-5.287724e-02
-5.152207e-02
-4.989705e-02
-4.809229e-02
-4.619854e-02
-4.429081e-02
-4.241686e-02
-4.059378e-02
-3.881392e-02
-3.705581e-02
-3.529276e-02
-3.349564e-02
-3.163210e-02
-2.966755e-02
-2.756929e-02
-2.531112e-02
-2.287826e-02
-2.027366e-02
-1.752083e-02
-1.465860e-02
-1.173186e-02
-8.786678e-03
-5.870007e-03
-3.026807e-03
-2.935754e-04
2.304822e-03
4.750719e-03
7.025573e-03
9.105156e-03
1.096138e-02
1.256889e-02
1.390990e-02
1.497378e-02
1.575831e-02
1.627676e-02
1.656123e-02
1.665465e-02
1.659878e-02
1.642673e-02
1.616096e-02
1.581529e-02
1.539918e-02
1.492117e-02
1.439186e-02
1.382838e-02
1.325752e-02
1.271543e-02
1.224400e-02
1.188455e-02
1.167351e-02
1.164463e-02
1.183483e-02
1.228573e-02
1.303843e-02
1.412664e-02
1.557354e-02
1.738959e-02
1.956574e-02
2.206571e-02
2.482653e-02
2.776799e-02
3.080230e-02
3.383757e-02
3.677910e-02
3.953452e-02
4.202230e-02
4.417819e-02
4.595803e-02
4.733933e-02
4.832117e-02
4.892046e-02
4.916825e-02
4.911042e-02
4.880840e-02
4.833278e-02
4.775208e-02
4.712557e-02
4.650365e-02
4.593095e-02
4.544538e-02
4.507196e-02
4.481654e-02
4.466351e-02
4.457726e-02
4.450655e-02
4.439171e-02
4.417371e-02
4.380323e-02
4.324768e-02
4.249351e-02
4.154448e-02
4.041986e-02
3.915314e-02
3.778862e-02
3.637698e-02
3.497211e-02
3.362932e-02
3.240435e-02
3.135167e-02
3.052111e-02
2.995304e-02
2.967462e-02
2.969829e-02
3.002004e-02
3.061809e-02
3.145716e-02
3.249851e-02
3.370981e-02
3.506891e-02
3.656203e-02
3.818043e-02
3.991809e-02
4.177238e-02
4.374711e-02
4.585391e-02
4.811119e-02
5.054226e-02
5.317332e-02
5.602994e-02
5.913122e-02
6.248328e-02
6.607632e-02
6.988688e-02
7.388215e-02
7.802197e-02
8.225834e-02
8.653699e-02
9.080321e-02
9.500845e-02
9.911208e-02
1.030785e-01
1.068766e-01
1.104847e-01
1.138969e-01
1.171236e-01
1.201884e-01
1.231254e-01
1.259755e-01
1.287801e-01
1.315751e-01
1.343873e-01
1.372314e-01
1.401075e-01
1.430052e-01
1.459098e-01
1.488054e-01
1.516730e-01
1.544902e-01
1.572355e-01
1.598881e-01
1.624219e-01
1.648050e-01
1.670081e-01
1.690116e-01
1.708046e-01
1.723804e-01
1.737351e-01
1.748696e-01
1.757894e-01
1.765034e-01
1.770233e-01
1.773635e-01
1.775420e-01
1.775798e-01
1.774985e-01
1.773162e-01
1.770457e-01
1.766935e-01
1.762594e-01
1.757394e-01
1.751315e-01
1.744390e-01
1.736667e-01
1.728203e-01
1.719093e-01
1.709504e-01
1.699650e-01
1.689739e-01
1.679935e-01
1.670365e-01
1.661119e-01
1.652228e-01
1.643662e-01
1.635376e-01
1.627371e-01
1.619709e-01
1.612488e-01
1.605827e-01
1.599850e-01
1.594691e-01
1.590514e-01
1.587509e-01
1.585860e-01
1.585715e-01
1.587182e-01
1.590323e-01
1.595140e-01
1.601593e-01
1.609631e-01
1.619218e-01
1.630362e-01
1.643132e-01
1.657654e-01
1.674107e-01
1.692676e-01
1.713502e-01
1.736643e-01
1.762042e-01
1.789504e-01
1.818705e-01
1.849215e-01
1.880553e-01
1.912218e-01
1.943702e-01
1.974478e-01
2.004027e-01
2.031870e-01
2.057605e-01
2.080948e-01
2.101752e-01
2.120014e-01
2.135876e-01
2.149616e-01
2.161584e-01
2.172127e-01
2.181530e-01
2.189986e-01
2.197570e-01
2.204243e-01
2.209843e-01
2.214084e-01
2.216546e-01
2.216686e-01
2.213890e-01
2.207572e-01
2.197250e-01
2.182573e-01
2.163284e-01
2.139173e-01
2.110081e-01
2.075947e-01
2.036852e-01
1.993007e-01
1.944734e-01
1.892485e-01
1.836856e-01
1.778570e-01
1.718468e-01
1.657496e-01
1.596661e-01
1.536960e-01
1.479366e-01
1.424823e-01
1.374181e-01
1.328118e-01
1.287148e-01
1.251634e-01
1.221730e-01
1.197313e-01
1.178024e-01
1.163374e-01
1.152834e-01
1.145902e-01
1.142168e-01
1.141339e-01
1.143198e-01
1.147573e-01
1.154307e-01
1.163259e-01
1.174343e-01
1.187576e-01
1.203075e-01
1.221000e-01
1.241506e-01
1.264672e-01
1.290432e-01
1.318563e-01
1.348713e-01
1.380427e-01
1.413143e-01
1.446204e-01
1.478900e-01
1.510493e-01
1.540220e-01
1.567300e-01
1.590967e-01
1.610532e-01
1.625428e-01
1.635235e-01
1.639713e-01
1.638838e-01
1.632830e-01
1.622135e-01
1.607351e-01
1.589134e-01
1.568137e-01
1.544982e-01
1.520246e-01
1.494449e-01
1.468038e-01
1.441402e-01
1.414871e-01
1.388676e-01
1.362897e-01
1.337491e-01
1.312345e-01
1.287279e-01
1.262006e-01
1.236126e-01
1.209193e-01
1.180794e-01
1.150577e-01
1.118226e-01
1.083465e-01
1.046102e-01
1.006086e-01
9.635316e-02
9.187072e-02
8.720211e-02
8.240114e-02
7.753409e-02
7.267985e-02
6.792805e-02
6.337334e-02
5.910806e-02
5.521399e-02
5.175224e-02
4.875620e-02
4.623496e-02
4.418344e-02
4.258876e-02
4.143133e-02
4.068463e-02
4.031545e-02
4.028635e-02
4.055883e-02
4.109353e-02
4.185033e-02
4.279240e-02
4.388957e-02
4.511686e-02
4.645076e-02
4.786592e-02
4.933328e-02
5.082119e-02
5.229810e-02
5.373313e-02
5.509492e-02
5.635068e-02
5.746623e-02
5.840947e-02
5.915683e-02
5.969469e-02
6.001345e-02
6.010328e-02
5.995773e-02
5.957932e-02
5.898119e-02
5.818607e-02
5.722568e-02
5.613831e-02
5.496168e-02
5.372590e-02
5.245294e-02
5.115975e-02
4.985721e-02
4.854206e-02
4.718972e-02
4.575822e-02
4.419960e-02
4.246769e-02
4.052164e-02
3.832896e-02
3.586501e-02
3.311115e-02
3.005906e-02
2.671798e-02
2.311639e-02
1.929702e-02
1.530778e-02
1.119469e-02
7.002428e-03
2.778978e-03
-1.423382e-03
-5.551683e-03
-9.554291e-03
-1.338085e-02
-1.698497e-02
-2.032919e-02
-2.338822e-02
-2.614838e-02
-2.860409e-02
-3.075512e-02
-3.260629e-02
-3.416861e-02
-3.546102e-02
-3.651138e-02
-3.735567e-02
-3.803474e-02
-3.858965e-02
-3.905686e-02
-3.946550e-02
-3.983586e-02
-4.017790e-02
-4.048872e-02
-4.075186e-02
-4.094143e-02
-4.102793e-02
-4.098126e-02
-4.077187e-02
-4.037103e-02
-3.974934e-02
-3.887564e-02
-3.772082e-02
-3.626340e-02
-3.448981e-02
-3.239229e-02
-2.997191e-02
-2.724558e-02
-2.424866e-02
-2.103156e-02
-1.765589e-02
-1.419381e-02
-1.072845e-02
-7.351475e-03
-4.156907e-03
-1.233719e-03
1.339956e-03
3.499332e-03
5.194083e-03
6.391832e-03
7.082686e-03
7.278837e-03
7.008486e-03
6.310314e-03
5.231669e-03
3.827062e-03
2.154340e-03
2.696861e-04
-1.777102e-03
-3.944470e-03
-6.195996e-03
-8.496565e-03
-1.081324e-02
-1.311940e-02
-1.539726e-02
-1.763632e-02
-1.982982e-02
-2.197560e-02
-2.408171e-02
-2.616777e-02
-2.825722e-02
-3.036972e-02
-3.252063e-02
-3.472487e-02
-3.699826e-02
-3.935344e-02
-4.179463e-02
-4.431484e-02
-4.689454e-02
-4.950120e-02
-5.209292e-02
-5.462603e-02
-5.706109e-02
-5.936376e-02
-6.150388e-02
-6.345937e-02
-6.522200e-02
-6.679741e-02
-6.819879e-02
-6.944143e-02
-7.054253e-02
-7.152223e-02
-7.240054e-02
-7.319050e-02
-7.389357e-02
-7.450115e-02
-7.499959e-02
-7.537284e-02
-7.560257e-02
-7.566854e-02
-7.554959e-02
-7.522455e-02
-7.467377e-02
-7.388249e-02
-7.284442e-02
-7.156356e-02
-7.005434e-02
-6.833968e-02
-6.644692e-02
-6.440371e-02
-6.223623e-02
-5.996953e-02
-5.762776e-02
-5.523155e-02
-5.279422e-02
-5.032386e-02
-4.783157e-02
-4.533676e-02
-4.286616e-02
-4.045009e-02
-3.811899e-02
-3.590040e-02
-3.381842e-02
-3.189664e-02
-3.015931e-02
-2.862873e-02
-2.732592e-02
-2.627757e-02
-2.551989e-02
-2.509185e-02
-2.502441e-02
-2.533610e-02
-2.603840e-02
-2.714262e-02
-2.865945e-02
-3.059389e-02
-3.294181e-02
-3.568781e-02
-3.880454e-02
-4.225444e-02
-4.599000e-02
-4.994962e-02
-5.405549e-02
-5.822192e-02
-6.236816e-02
-6.642340e-02
-7.032536e-02
-7.402083e-02
-7.746839e-02
-8.063774e-02
-8.350610e-02
-8.605670e-02
-8.828186e-02
-9.018747e-02
-9.179331e-02
-9.312827e-02
-9.422592e-02
-9.512273e-02
-9.585544e-02
-9.645624e-02
-9.694714e-02
-9.733706e-02
-9.762593e-02
-9.781252e-02
-9.789528e-02
-9.786629e-02
-9.770890e-02
-9.740210e-02
-9.692551e-02
-9.626062e-02
-9.539037e-02
-9.430141e-02
-9.298831e-02
-9.145600e-02
-8.971981e-02
-8.780162e-02
-8.572514e-02
-8.351883e-02
-8.122220e-02
-7.888637e-02
-7.657127e-02
-7.433810e-02
-7.224105e-02
-7.032715e-02
-6.864052e-02
-6.722410e-02
-6.611715e-02
-6.535236e-02
-6.495886e-02
-6.496614e-02
-6.539993e-02
-6.627490e-02
-6.759514e-02
-6.935882e-02
-7.155819e-02
-7.417625e-02
-7.718471e-02
-8.054318e-02
-8.419936e-02
-8.809330e-02
-9.216731e-02
-9.637391e-02
-1.006735e-01
-1.050262e-01
-1.093879e-01
-1.137141e-01
-1.179643e-01
-1.221030e-01
-1.260980e-01
-1.299184e-01
-1.335356e-01
-1.369303e-01
-1.400970e-01
-1.430417e-01
-1.457747e-01
-1.483033e-01
-1.506298e-01
-1.527578e-01
-1.546986e-01
-1.564696e-01
-1.580886e-01
-1.595731e-01
-1.609393e-01
-1.621988e-01
-1.633585e-01
-1.644245e-01
-1.654052e-01
-1.663108e-01
-1.671533e-01
-1.679451e-01
-1.686983e-01
-1.694259e-01
-1.701449e-01
-1.708751e-01
-1.716338e-01
-1.724330e-01
-1.732815e-01
-1.741861e-01
-1.751504e-01
-1.761753e-01
-1.772640e-01
-1.784233e-01
-1.796568e-01
-1.809566e-01
-1.823021e-01
-1.836659e-01
-1.850188e-01
-1.863364e-01
-1.876021e-01
-1.888056e-01
-1.899386e-01
-1.909892e-01
-1.919365e-01
-1.927495e-01
-1.933948e-01
-1.938431e-01
-1.940707e-01
-1.940599e-01
-1.938021e-01
-1.932997e-01
-1.925654e-01
-1.916184e-01
-1.904816e-01
-1.891797e-01
-1.877399e-01
-1.861919e-01
-1.845712e-01
-1.829218e-01
-1.812958e-01
-1.797489e-01
-1.783333e-01
-1.770952e-01
-1.760783e-01
-1.753267e-01
-1.748827e-01
-1.747826e-01
-1.750537e-01
-1.757094e-01
-1.767444e-01
-1.781357e-01
-1.798512e-01
-1.818564e-01
-1.841176e-01
-1.866036e-01
-1.892827e-01
-1.921181e-01
-1.950724e-01
-1.981205e-01
-2.012587e-01
-2.044985e-01
-2.078537e-01
-2.113317e-01
-2.149324e-01
-2.186466e-01
-2.224579e-01
-2.263441e-01
-2.302767e-01
-2.342145e-01
-2.380987e-01
-2.418606e-01
-2.454360e-01
-2.487723e-01
-2.518229e-01
-2.545415e-01
-2.568852e-01
-2.588173e-01
-2.603077e-01
-2.613328e-01
-2.618798e-01
-2.619463e-01
-2.615389e-01
-2.606751e-01
-2.593843e-01
-2.577098e-01
-2.557079e-01
-2.534414e-01
-2.509721e-01
-2.483605e-01
-2.456703e-01
-2.429702e-01
-2.403310e-01
-2.378221e-01
-2.355079e-01
-2.334443e-01
-2.316735e-01
-2.302224e-01
-2.291019e-01
-2.283091e-01
-2.278303e-01
-2.276410e-01
-2.277039e-01
-2.279771e-01
-2.284254e-01
-2.290237e-01
-2.297490e-01
-2.305716e-01
-2.314561e-01
-2.323743e-01
-2.333139e-01
-2.342752e-01
-2.352603e-01
-2.362662e-01
-2.372827e-01
-2.382957e-01
-2.392932e-01
-2.402709e-01
-2.412323e-01
-2.421868e-01
-2.431505e-01
-2.441449e-01
-2.451907e-01
-2.462998e-01
-2.474725e-01
-2.487015e-01
-2.499764e-01
-2.512848e-01
-2.526100e-01
-2.539321e-01
-2.552320e-01
-2.564940e-01
-2.577002e-01
-2.588270e-01
-2.598471e-01
-2.607362e-01
-2.614769e-01
-2.620593e-01
-2.624782e-01
-2.627312e-01
-2.628176e-01
-2.627367e-01
-2.624873e-01
-2.620712e-01
-2.614972e-01
-2.607783e-01
-2.599257e-01
-2.589482e-01
-2.578544e-01
-2.566532e-01
-2.553531e-01
-2.539624e-01
-2.524892e-01
-2.509419e-01
-2.493315e-01
-2.476746e-01
-2.459953e-01
-2.443226e-01
-2.426849e-01
-2.411062e-01
-2.396096e-01
-2.382198e-01
-2.369633e-01
-2.358675e-01
-2.349615e-01
-2.342758e-01
-2.338377e-01
-2.336638e-01
-2.337591e-01
-2.341205e-01
-2.347400e-01
-2.356085e-01
-2.367190e-01
-2.380680e-01
-2.396535e-01
-2.414750e-01
-2.435326e-01
-2.458191e-01
-2.483093e-01
-2.509619e-01
-2.537272e-01
-2.565551e-01
-2.593977e-01
-2.622073e-01
-2.649398e-01
-2.675618e-01
-2.700514e-01
-2.723891e-01
-2.745505e-01
-2.765085e-01
-2.782368e-01
-2.797140e-01
-2.809260e-01
-2.818645e-01
-2.825226e-01
-2.828925e-01
-2.829701e-01
-2.827620e-01
-2.822891e-01
-2.815851e-01
-2.806926e-01
-2.796592e-01
-2.785337e-01
-2.773611e-01
-2.761806e-01
-2.750245e-01
-2.739165e-01
-2.728721e-01
-2.719011e-01
-2.710113e-01
-2.702091e-01
-2.694968e-01
-2.688696e-01
-2.683190e-01
-2.678365e-01
-2.674169e-01
-2.670597e-01
-2.667656e-01
-2.665344e-01
-2.663687e-01
-2.662755e-01
-2.662596e-01
-2.663151e-01
-2.664252e-01
-2.665673e-01
-2.667170e-01
-2.668489e-01
-2.669383e-01
-2.669620e-01
-2.668992e-01
-2.667328e-01
-2.664529e-01
-2.660604e-01
-2.655650e-01
-2.649793e-01
-2.643203e-01
-2.636156e-01
-2.629027e-01
-2.622205e-01
-2.615983e-01
-2.610548e-01
-2.606026e-01
-2.602489e-01
-2.599890e-01
-2.598061e-01
-2.596779e-01
-2.595840e-01
-2.595061e-01
-2.594230e-01
-2.593091e-01
-2.591407e-01
-2.589032e-01
-2.585937e-01
-2.582194e-01
-2.577956e-01
-2.573443e-01
-2.568908e-01
-2.564599e-01
-2.560730e-01
-2.557466e-01
-2.554900e-01
-2.553025e-01
-2.551719e-01
-2.550809e-01
-2.550154e-01
-2.549656e-01
-2.549196e-01
-2.548579e-01
-2.547538e-01
-2.545771e-01
-2.543008e-01
-2.539067e-01
-2.533908e-01
-2.527646e-01
-2.520511e-01
-2.512780e-01
-2.504708e-01
-2.496541e-01
-2.488571e-01
-2.481148e-01
-2.474622e-01
-2.469291e-01
-2.465370e-01
-2.462984e-01
-2.462151e-01
-2.462769e-01
-2.464658e-01
-2.467598e-01
-2.471349e-01
-2.475669e-01
-2.480329e-01
-2.485058e-01
-2.489446e-01
-2.492997e-01
-2.495287e-01
-2.496023e-01
-2.495044e-01
-2.492312e-01
-2.487872e-01
-2.481779e-01
-2.474109e-01
-2.465005e-01
-2.454651e-01
-2.443200e-01
-2.430756e-01
-2.417399e-01
-2.403185e-01
-2.388122e-01
-2.372158e-01
-2.355208e-01
-2.337139e-01
-2.317747e-01
-2.296823e-01
-2.274286e-01
-2.250240e-01
-2.224907e-01
-2.198545e-01
-2.171410e-01
-2.143765e-01
-2.115890e-01
-2.088065e-01
-2.060550e-01
-2.033595e-01
-2.007449e-01
-1.982353e-01
-1.958480e-01
-1.935881e-01
-1.914485e-01
-1.894132e-01
-1.874588e-01
-1.855579e-01
-1.836848e-01
-1.818181e-01
-1.799434e-01
-1.780572e-01
-1.761641e-01
-1.742701e-01
-1.723786e-01
-1.704905e-01
-1.686094e-01
-1.667439e-01
-1.649051e-01
-1.631050e-01
-1.613576e-01
-1.596797e-01
-1.580876e-01
-1.565908e-01
-1.551883e-01
-1.538739e-01
-1.526425e-01
-1.514917e-01
-1.504212e-01
-1.494334e-01
-1.485297e-01
-1.477043e-01
-1.469401e-01
-1.462091e-01
-1.454781e-01
-1.447155e-01
-1.438958e-01
-1.430043e-01
-1.420405e-01
-1.410152e-01
-1.399395e-01
-1.388165e-01
-1.376424e-01
-1.364105e-01
-1.351128e-01
-1.337433e-01
-1.323056e-01
-1.308145e-01
-1.292878e-01
-1.277351e-01
-1.261539e-01
-1.245328e-01
-1.228546e-01
-1.210961e-01
-1.192332e-01
-1.172441e-01
-1.151118e-01
-1.128330e-01
-1.104264e-01
-1.079237e-01
-1.053577e-01
-1.027525e-01
-1.001182e-01
-9.745445e-02
-9.476334e-02
-9.205754e-02
-8.935739e-02
-8.668173e-02
-8.404002e-02
-8.142959e-02
-7.883963e-02
-7.625911e-02
-7.368295e-02
-7.111138e-02
-6.854604e-02
-6.599074e-02
-6.345358e-02
-6.094350e-02
-5.846501e-02
-5.601787e-02
-5.360142e-02
-5.121876e-02
-4.887739e-02
-4.658836e-02
-4.436616e-02
-4.222857e-02
-4.019510e-02
-3.828226e-02
-3.649775e-02
-3.483939e-02
-3.329899e-02
-3.186593e-02
-3.052753e-02
-2.926687e-02
-2.806098e-02
-2.688172e-02
-2.569859e-02
-2.448077e-02
-2.319745e-02
-2.182016e-02
-2.032818e-02
-1.871145e-02
-1.696666e-02
-1.509305e-02
-1.309262e-02
-1.097283e-02
-8.749338e-03
-6.443359e-03
-4.075135e-03
-1.663598e-03
7.693417e-04
3.200751e-03
5.613645e-03
7.999286e-03
1.035417e-02
1.267849e-02
1.497774e-02
1.726289e-02
1.954648e-02
2.183884e-02
2.414726e-02
2.647565e-02
2.882523e-02
3.119961e-02
3.361047e-02
3.607624e-02
3.861470e-02
4.123926e-02
4.396179e-02
4.679452e-02
4.974830e-02
5.283241e-02
5.605598e-02
5.942646e-02
6.294554e-02
6.660691e-02
7.039609e-02
7.428980e-02
7.825668e-02
8.226311e-02
8.627821e-02
9.027067e-02
9.420363e-02
9.803610e-02
1.017284e-01
1.052455e-01
1.085571e-01
1.116398e-01
1.144813e-01
1.170812e-01
1.194444e-01
1.215765e-01
1.234845e-01
1.251766e-01
1.266607e-01
1.279406e-01
1.290125e-01
1.298653e-01
1.304891e-01
1.308823e-01
1.310530e-01
1.310135e-01
1.307739e-01
1.303389e-01
1.297098e-01
1.288888e-01
1.278835e-01
1.267116e-01
1.254008e-01
1.239852e-01
1.225026e-01
1.209951e-01
1.195061e-01
1.180787e-01
1.167531e-01
1.155615e-01
1.145265e-01
1.136656e-01
1.129954e-01
1.125298e-01
1.122766e-01
1.122357e-01
1.123982e-01
1.127464e-01
1.132542e-01
1.138911e-01
1.146291e-01
1.154488e-01
1.163359e-01
1.172772e-01
1.182609e-01
1.192788e-01
1.203234e-01
1.213857e-01
1.224573e-01
1.235343e-01
1.246155e-01
1.256970e-01
1.267688e-01
1.278152e-01
1.288185e-01
1.297635e-01
1.306426e-01
1.314547e-01
1.321999e-01
1.328774e-01
1.334856e-01
1.340244e-01
1.344975e-01
1.349094e-01
1.352599e-01
1.355469e-01
1.357720e-01
1.359419e-01
1.360665e-01
1.361546e-01
1.362110e-01
1.362380e-01
1.362417e-01
1.362340e-01
1.362261e-01
1.362227e-01
1.362188e-01
1.362019e-01
1.361547e-01
1.360585e-01
1.358925e-01
1.356339e-01
1.352623e-01
1.347600e-01
1.341112e-01
1.332992e-01
1.323053e-01
1.311136e-01
1.297172e-01
1.281177e-01
1.263216e-01
1.243359e-01
1.221648e-01
1.198079e-01
1.172599e-01
1.145174e-01
1.115823e-01
1.084619e-01
1.051665e-01
1.017119e-01
9.811960e-02
9.441310e-02
9.061592e-02
8.675409e-02
8.285641e-02
7.895233e-02
7.506957e-02
7.123223e-02
6.746133e-02
6.377842e-02
6.020756e-02
5.677306e-02
5.349695e-02
5.039950e-02
4.750000e-02
4.481576e-02
4.235995e-02
4.014017e-02
