EVENT_NAME: EMILIA_2ND_SHOCK
EVENT_ID: IT-2012-0011
EVENT_DATE_YYYYMMDD: 20120529
EVENT_TIME_HHMMSS: 070002
EVENT_LATITUDE_DEGREE: 44.8417
EVENT_LONGITUDE_DEGREE: 11.0657
EVENT_DEPTH_KM: 8.1
HYPOCENTER_REFERENCE: INGV-CNT_Seismic_Bulletin
MAGNITUDE_W: 6.0
MAGNITUDE_W_REFERENCE: RCMT-INGV
MAGNITUDE_L: 5.8
MAGNITUDE_L_REFERENCE: INGV-CNT_Seismic_Bulletin
FOCAL_MECHANISM: TF
NETWORK: IT
STATION_CODE: BON0
STATION_NAME: BONDENO
STATION_LATITUDE_DEGREE: 44.886000
STATION_LONGITUDE_DEGREE: 11.418000
STATION_ELEVATION_M: 65
LOCATION: 
SENSOR_DEPTH_M: 0.0
VS30_M/S: 
SITE_CLASSIFICATION_EC8: C*
MORPHOLOGIC_CLASSIFICATION: 
EPICENTRAL_DISTANCE_KM: 28.3
EARTHQUAKE_BACKAZIMUTH_DEGREE: 260.1
DATE_TIME_FIRST_SAMPLE_YYYYMMDD_HHMMSS: 20120529_070003.000
DATE_TIME_FIRST_SAMPLE_PRECISION: seconds
SAMPLING_INTERVAL_S: 0.005000
NDATA: 22001
DURATION_S: 110.005
STREAM: HNE
UNITS: cm/s
INSTRUMENT: sensor = Episensor FBA ES-T [Kinemetrics] | digitizer = Etna [Kinemetrics]
INSTRUMENT_ANALOG/DIGITAL: D
INSTRUMENTAL_FREQUENCY_HZ: 
INSTRUMENTAL_DAMPING: 
FULL_SCALE_G: 
N_BIT_DIGITAL_CONVERTER: 18
PGV_CM/S: -2.242355
TIME_PGV_S: 16.530000
BASELINE_CORRECTION: BASELINE REMOVED
FILTER_TYPE: BUTTERWORTH
FILTER_ORDER: 2
LOW_CUT_FREQUENCY_HZ: 0.050
HIGH_CUT_FREQUENCY_HZ: 40.000
LATE/NORMAL_TRIGGERED: NT
DATABASE_VERSION: DYNA 1.0
HEADER_FORMAT: DYNA 1.2
DATA_TYPE: VELOCITY
PROCESSING: manual (Paolucci et al., 2011)
DATA_TIMESTAMP_YYYYMMDD_HHMMSS: 
DATA_LICENSE: CC-BY3_0-IT (http://creativecommons.org/licenses/by/3.0/deed.en)
DATA_CITATION: ESM working group (2015), European Strong-Motion database, version 0.1, Network Activity 3: Networking acceleration networks and SM data users. Project NERA (www.nera-eu.org)
DATA_CREATOR: ESM working group
ORIGINAL_DATA_MEDIATOR_CITATION: Ufficio Rischio Sismico e Vulcanico del Dipartimento della Protezione Civile (http://www.protezionecivile.gov.it/)
ORIGINAL_DATA_MEDIATOR: Rete Accelerometrica Nazionale - RAN Download (http://www.mot1.it/randownload/)
ORIGINAL_DATA_CREATOR_CITATION: Italian Strong Motion Network, Italian Civil Protection Department http://www.protezionecivile.gov.it
ORIGINAL_DATA_CREATOR: network: IT (Italian Strong Motion Network); owner: Dipartimento Della Protezione Civile
USER1: 
USER2: 
USER3: 
USER4: 
USER5: 
[...]
0.361688
0.362087
0.360057
0.354470
0.345294
0.333958
0.322645
0.313086
0.306057
0.301670
0.299695
0.299631
0.300746
0.302260
0.303506
0.303802
0.302263
0.298050
0.291015
0.282156
0.273317
0.266115
0.260871
0.256373
0.250721
0.242684
0.232561
0.221910
0.212480
0.205217
0.200010
0.196131
0.192795
0.189468
0.185926
0.182087
0.177821
0.172972
0.167523
0.161720
0.155936
0.150264
0.144413
0.138219
0.132156
0.127161
0.123968
0.122690
0.123048
0.124825
0.128032
0.132852
0.139535
0.147998
0.157247
0.165262
0.169696
0.168955
0.162895
0.152683
0.140147
0.127212
0.115533
0.106026
0.098547
0.092194
0.086034
0.079602
0.072992
0.066721
0.061579
0.058465
0.057963
0.059745
0.062407
0.064082
0.063455
0.060552
0.056594
0.052877
0.049591
0.045621
0.039373
0.029803
0.017078
0.002696
-0.010979
-0.021530
-0.027330
-0.028205
-0.025468
-0.021055
-0.016460
-0.012295
-0.008479
-0.004615
-0.000366
0.004233
0.008639
0.011979
0.013461
0.012709
0.009806
0.005096
-0.001020
-0.008124
-0.015745
-0.023496
-0.031386
-0.039892
-0.049585
-0.060613
-0.072537
-0.084649
-0.096318
-0.106999
-0.116241
-0.123902
-0.130216
-0.135629
-0.140600
-0.145379
-0.149951
-0.154309
-0.158699
-0.163424
-0.168505
-0.173596
-0.178185
-0.181900
-0.184677
-0.186823
-0.188955
-0.191674
-0.195157
-0.199022
-0.202547
-0.205070
-0.206323
-0.206350
-0.205027
-0.201738
-0.195589
-0.185956
-0.172926
-0.157434
-0.141046
-0.125550
-0.112522
-0.102959
-0.097212
-0.095199
-0.096661
-0.101251
-0.108470
-0.117657
-0.128090
-0.138971
-0.149515
-0.159238
-0.168047
-0.176112
-0.183881
-0.192128
-0.201539
-0.212008
-0.222437
-0.231315
-0.237627
-0.241305
-0.242874
-0.242920
-0.242159
-0.241807
-0.243466
-0.248337
-0.256354
-0.265887
-0.274252
-0.278796
-0.277901
-0.271187
-0.258884
-0.241165
-0.218307
-0.191334
-0.162109
-0.132838
-0.105518
-0.081571
-0.061622
-0.045449
-0.032194
-0.021002
-0.011689
-0.004753
-0.000684
0.000641
-0.000107
-0.002200
-0.005052
-0.008149
-0.011117
-0.013763
-0.015914
-0.017260
-0.017459
-0.016609
-0.015438
-0.014682
-0.014388
-0.014022
-0.013307
-0.012814
-0.013617
-0.016441
-0.021227
-0.027387
-0.034367
-0.041983
-0.050366
-0.059780
-0.070495
-0.082649
-0.096040
-0.110196
-0.124823
-0.139964
-0.155442
-0.170344
-0.183284
-0.193150
-0.199621
-0.203126
-0.204274
-0.203308
-0.200289
-0.195807
-0.191408
-0.189265
-0.191331
-0.198472
-0.210058
-0.224244
-0.238872
-0.252232
-0.263047
-0.270025
-0.271800
-0.267580
-0.257886
-0.244515
-0.229650
-0.215021
-0.201687
-0.190197
-0.180810
-0.173774
-0.169499
-0.168443
-0.170708
-0.175568
-0.181470
-0.186765
-0.190467
-0.192331
-0.192510
-0.191286
-0.188881
-0.185252
-0.180194
-0.173764
-0.166529
-0.159557
-0.154181
-0.151334
-0.150812
-0.151290
-0.151219
-0.149675
-0.146473
-0.141845
-0.136133
-0.129462
-0.121554
-0.111870
-0.099943
-0.085728
-0.069787
-0.053187
-0.037352
-0.023899
-0.014033
-0.007861
-0.004408
-0.002340
-0.000688
0.000901
0.002377
0.003716
0.005325
0.008065
0.012733
0.019303
0.026611
0.032805
0.036196
0.035863
0.031468
0.022726
0.009604
-0.006887
-0.024715
-0.041887
-0.057338
-0.070907
-0.082854
-0.093498
-0.103040
-0.111499
-0.118730
-0.124509
-0.128684
-0.131313
-0.132710
-0.133503
-0.134606
-0.136791
-0.139937
-0.142697
-0.143058
-0.139291
-0.130587
-0.117003
-0.098918
-0.076767
-0.051461
-0.024840
0.000486
0.021752
0.036854
0.045055
0.046992
0.044106
0.038037
0.030253
0.021990
0.014378
0.008297
0.004023
0.001390
0.000554
0.002346
0.007934
0.018446
0.034704
0.056674
0.082883
0.110421
0.135886
0.157093
0.174439
0.190621
0.208925
0.231541
0.258761
0.289188
0.320839
0.352273
0.382903
0.412705
0.441764
0.470006
0.497236
0.523236
0.547612
0.569329
0.586467
0.597048
0.600493
0.597938
0.591020
0.580844
0.568334
0.554852
0.541720
0.529211
0.516337
0.501907
0.486077
0.470844
0.459041
0.453043
0.454226
0.463067
0.479402
0.502447
0.530629
0.561596
0.592794
0.622411
0.649725
0.674513
0.696333
0.714271
0.727152
0.734127
0.735413
0.732804
0.729390
0.728050
0.729791
0.733752
0.738762
0.744695
0.752493
0.763035
0.775997
0.789706
0.801960
0.810773
0.814650
0.812912
0.806153
0.796215
0.785827
0.778280
0.776690
0.782833
0.796590
0.816490
0.840687
0.867546
0.895691
0.923976
0.951642
0.978470
1.004897
1.031986
1.061077
1.093176
1.128226
1.164570
1.199283
1.229359
1.252686
1.268378
1.276852
1.279404
1.277170
1.270546
1.259886
1.246747
1.234229
1.225855
1.223985
1.229252
1.241265
1.259309
1.282292
1.308710
1.337130
1.366526
1.396188
1.425518
1.453951
1.481302
1.508004
1.534527
1.560693
1.585711
1.608565
1.628339
1.644601
1.657389
1.666863
1.673346
1.677686
1.681545
1.687302
1.697223
1.711987
1.729634
1.746171
1.757433
1.760538
1.753969
1.736960
1.709558
1.673581
1.633057
1.593093
1.557976
1.530111
1.510343
1.499143
1.497528
1.506546
1.525792
1.552643
1.582797
1.611529
1.635019
1.651150
1.659440
1.660067
1.652864
1.637299
1.613086
1.580617
1.540999
1.495845
1.447023
1.396255
1.344687
1.293100
1.243030
1.197522
1.160541
1.135449
1.123384
1.122685
1.129830
1.140843
1.152087
1.160366
1.162660
1.155916
1.137462
1.106354
1.064984
1.019007
0.974841
0.936674
0.905158
0.878248
0.853279
0.828753
0.804617
0.780867
0.755849
0.726048
0.687536
0.637654
0.575902
0.503808
0.424220
0.340753
0.257663
0.179632
0.111157
0.055978
0.016584
-0.006468
-0.014863
-0.011771
-0.000516
0.016470
0.038237
0.065611
0.101137
0.148295
0.209508
0.283863
0.366421
0.449572
0.525562
0.588633
0.635482
0.664523
0.675372
0.668796
0.646716
0.612402
0.570815
0.528639
0.493630
0.472874
0.470005
0.483357
0.507093
0.534598
0.561402
0.585633
0.606482
0.623008
0.634671
0.642751
0.650877
0.663852
0.685673
0.718245
0.761458
0.813981
0.873920
0.939131
1.007256
1.075447
1.140053
1.196882
1.242151
1.273468
1.289715
1.289541
1.270276
1.228776
1.163561
1.076499
0.972676
0.858696
0.740644
0.622962
0.508852
0.401175
0.302698
0.215893
0.142812
0.084991
0.043074
0.016328
0.002798
0.000009
0.005365
0.016077
0.029136
0.041610
0.051119
0.055981
0.054572
0.044873
0.025228
-0.004819
-0.044725
-0.093599
-0.150783
-0.216308
-0.290493
-0.372516
-0.459192
-0.545158
-0.624344
-0.691972
-0.746194
-0.788379
-0.822294
-0.852964
-0.885089
-0.921308
-0.961760
-1.005387
-1.051380
-1.099232
-1.147898
-1.195532
-1.240089
-1.280290
-1.316551
-1.351511
-1.389410
-1.434352
-1.488650
-1.551875
-1.620616
-1.689232
-1.751430
-1.801983
-1.837768
-1.857848
-1.862908
-1.854337
-1.833383
-1.800981
-1.758356
-1.707732
-1.652419
-1.596481
-1.544498
-1.500956
-1.468901
-1.448402
-1.435966
-1.425669
-1.411281
-1.387853
-1.352372
-1.303984
-1.243947
-1.175349
-1.102608
-1.030495
-0.962999
-0.902765
-0.851024
-0.807631
-0.771143
-0.739006
-0.708088
-0.675496
-0.639406
-0.599758
-0.558262
-0.517560
-0.480247
-0.448239
-0.422228
-0.401280
-0.383590
-0.368145
-0.355472
-0.347159
-0.345056
-0.350645
-0.364926
-0.388957
-0.424480
-0.473782
-0.538406
-0.617582
-0.707848
-0.804200
-0.901519
-0.995116
-1.080439
-1.153129
-1.210112
-1.250806
-1.277347
-1.293595
-1.303682
-1.310998
-1.317909
-1.326152
-1.337341
-1.352988
-1.374082
-1.400450
-1.430161
-1.459646
-1.484785
-1.502366
-1.511268
-1.512692
-1.509133
-1.502937
-1.495415
-1.486894
-1.477609
-1.468575
-1.461628
-1.458569
-1.459936
-1.463912
-1.465896
-1.459443
-1.438709
-1.400890
-1.346977
-1.280521
-1.205129
-1.122703
-1.033739
-0.938750
-0.839351
-0.738299
-0.639206
-0.546435
-0.464727
-0.398614
-0.351979
-0.327279
-0.324248
-0.339234
-0.366222
-0.398813
-0.431517
-0.459913
-0.480823
-0.492884
-0.496537
-0.493507
-0.486394
-0.478251
-0.471890
-0.468955
-0.469230
-0.470701
-0.470151
-0.464110
-0.450317
-0.428946
-0.402459
-0.374368
-0.347814
-0.324242
-0.302846
-0.281206
-0.256355
-0.225787
-0.188189
-0.143403
-0.091852
-0.033943
0.030284
0.101064
0.178404
0.261441
0.348231
0.436519
0.524969
0.613515
0.702471
0.791178
0.877276
0.957402
1.028815
1.090455
1.142670
1.186010
1.219883
1.242120
1.249937
1.241270
1.215475
1.173548
1.117811
1.050929
0.974729
0.889759
0.796036
0.694159
0.585972
0.474585
0.363693
0.256569
0.154920
0.058086
-0.036233
-0.129939
-0.222684
-0.311247
-0.390467
-0.455165
-0.502058
-0.530900
-0.544226
-0.545815
-0.539389
-0.528325
-0.515472
-0.502697
-0.490624
-0.479159
-0.468499
-0.459421
-0.453015
-0.450627
-0.453365
-0.460903
-0.470593
-0.477961
-0.478375
-0.468412
-0.446382
-0.412412
-0.368199
-0.316260
-0.259026
-0.198522
-0.136645
-0.075419
-0.017078
0.036215
0.083276
0.125083
0.165029
0.207701
0.257116
0.315490
0.382719
0.456354
0.532176
0.605329
0.671413
0.727433
0.772291
0.806483
0.831491
0.849446
0.862938
0.874839
0.888149
0.905431
0.928104
0.956349
0.989524
1.026540
1.065944
1.105824
1.143616
1.175914
1.198646
1.207977
1.201729
1.180426
1.147258
1.107155
1.065308
1.025727
0.990659
0.960862
0.936097
0.915754
0.899566
0.887942
0.882088
0.884180
0.896932
0.922377
0.960669
1.009657
1.065348
1.123074
1.178825
1.229743
1.273606
1.308418
1.332592
1.345405
1.347379
1.340146
1.325789
1.306187
1.282660
1.255851
1.225930
1.193229
1.158751
1.124024
1.090615
1.059623
1.031495
1.006233
0.983179
0.960709
0.936795
0.909661
0.877900
0.840501
0.797058
0.748259
0.696342
0.644611
0.595916
0.551480
0.511141
0.474322
0.440841
0.411430
0.387418
0.369768
0.358387
0.351695
0.346520
0.339087
0.326545
0.307789
0.283459
0.255547
0.226832
0.200186
0.177693
0.159649
0.144486
0.130393
0.116796
0.104211
0.093871
0.087576
0.086778
0.091475
0.099925
0.109137
0.115829
0.117633
0.114026
0.106164
0.095686
0.083671
0.070486
0.056368
0.042387
0.031264
0.027407
0.036060
0.062048
0.108448
0.175497
0.260215
0.357180
0.460264
0.564232
0.665329
0.761029
0.849376
0.928106
0.994332
1.045205
1.078495
1.092898
1.088380
1.065998
1.027224
0.973181
0.904076
0.819741
0.721079
0.610587
0.491731
0.368533
0.245311
0.125886
0.012998
-0.091753
-0.188057
-0.276879
-0.359912
-0.439052
-0.515920
-0.591358
-0.665139
-0.735891
-0.801252
-0.858380
-0.904549
-0.937700
-0.957021
-0.963066
-0.957239
-0.941647
-0.919388
-0.894359
-0.870775
-0.852888
-0.844369
-0.847205
-0.860948
-0.882826
-0.908456
-0.932580
-0.949611
-0.954066
-0.940960
-0.906213
-0.846941
-0.761760
-0.651137
-0.517326
-0.364002
-0.196172
-0.020118
0.157101
0.328329
0.486597
0.625070
0.737283
0.818092
0.864621
0.875899
0.851636
0.792562
0.702537
0.589535
0.464422
0.339099
0.225040
0.132300
0.068734
0.039414
0.046321
0.088101
0.160308
0.256547
0.369670
0.492186
0.616481
0.735601
0.844538
0.941158
1.025659
1.098970
1.161914
1.215278
1.259554
1.294422
1.318774
1.331248
1.330900
1.317547
1.291513
1.253325
1.203715
1.143714
1.074903
0.999438
0.919168
0.834776
0.746053
0.652602
0.554304
0.451639
0.345828
0.238709
0.132410
0.028833
-0.070741
-0.165563
-0.255017
-0.338391
-0.415014
-0.484510
-0.547028
-0.603693
-0.656835
-0.709292
-0.763230
-0.819313
-0.876550
-0.932763
-0.985263
-1.031685
-1.070736
-1.102397
-1.127767
-1.148776
-1.167765
-1.187009
-1.208138
-1.231745
-1.257551
-1.284840
-1.312810
-1.340876
-1.369130
-1.398657
-1.431145
-1.467916
-1.509254
-1.554399
-1.601792
-1.649108
-1.693117
-1.729737
-1.754426
-1.762747
-1.751204
-1.718124
-1.664105
-1.591970
-1.506394
-1.413083
-1.317699
-1.225320
-1.140566
-1.067533
-1.009280
-0.967425
-0.942043
-0.931838
-0.934625
-0.947958
-0.969423
-0.996639
-1.027388
-1.059614
-1.091055
-1.119320
-1.142670
-1.160707
-1.174298
-1.184817
-1.193240
-1.199805
-1.204182
-1.205397
-1.201649
-1.190434
-1.169047
-1.135500
-1.088829
-1.028298
-0.952892
-0.861770
-0.754906
-0.633420
-0.499370
-0.355013
-0.202365
-0.043651
0.117801
0.276708
0.425726
0.556662
0.662082
0.736164
0.774842
0.775845
0.738879
0.665747
0.560147
0.427179
0.273100
0.105443
-0.067429
-0.237547
-0.398178
-0.544250
-0.672966
-0.783983
-0.878595
-0.958646
-1.025895
-1.081818
-1.127787
-1.165349
-1.196147
-1.221603
-1.242949
-1.261667
-1.279636
-1.298745
-1.320591
-1.346457
-1.377034
-1.411689
-1.448029
-1.482480
-1.511327
-1.531392
-1.540702
-1.539238
-1.528909
-1.512814
-1.494733
-1.478880
-1.469479
-1.470394
-1.484827
-1.514707
-1.559771
-1.617218
-1.682241
-1.748908
-1.811311
-1.864533
-1.904695
-1.929156
-1.937241
-1.930051
-1.909755
-1.879081
-1.840652
-1.796520
-1.748218
-1.696953
-1.643792
-1.589875
-1.536525
-1.484964
-1.435776
-1.388565
-1.342327
-1.296499
-1.251449
-1.207942
-1.166715
-1.128771
-1.095718
-1.069488
-1.051765
-1.043721
-1.046163
-1.059815
-1.085238
-1.122312
-1.169773
-1.225421
-1.286942
-1.352395
-1.419974
-1.487614
-1.553200
-1.615364
-1.674023
-1.730138
-1.785060
-1.839847
-1.894923
-1.950388
-2.006159
-2.061413
-2.114169
-2.161566
-2.200503
-2.228192
-2.242355
-2.241156
-2.223197
-2.187709
-2.134813
-2.065777
-1.983513
-1.893195
-1.802279
-1.719396
-1.652363
-1.606428
-1.583458
-1.581897
-1.597617
-1.625526
-1.660529
-1.697641
-1.732256
-1.760540
-1.779278
-1.785502
-1.776629
-1.750981
-1.708327
-1.650441
-1.581149
-1.505625
-1.429250
-1.356217
-1.288547
-1.226343
-1.168696
-1.114306
-1.062001
-1.011259
-0.962213
-0.915204
-0.870615
-0.829036
-0.791282
-0.758174
-0.730380
-0.708433
-0.693024
-0.685228
-0.685978
-0.695225
-0.712042
-0.735438
-0.764589
-0.798261
-0.834479
-0.870910
-0.905623
-0.937787
-0.967736
-0.996444
-1.025132
-1.055214
-1.087836
-1.122786
-1.158430
-1.193332
-1.227313
-1.260772
-1.293693
-1.325196
-1.353732
-1.377555
-1.394703
-1.402836
-1.399666
-1.383568
-1.353799
-1.310462
-1.254321
-1.186356
-1.107623
-1.019628
-0.924503
-0.824713
-0.722641
-0.620226
-0.518662
-0.418397
-0.319667
-0.222997
-0.129015
-0.038099
0.049235
0.131758
0.207699
0.275297
0.333192
0.380540
0.416918
0.442413
0.457758
0.464266
0.463738
0.458063
0.448449
0.435043
0.417122
0.393400
0.362437
0.323121
0.274841
0.217450
0.151557
0.078808
0.001283
-0.079247
-0.160960
-0.241485
-0.318420
-0.389969
-0.454958
-0.512667
-0.562784
-0.605575
-0.641860
-0.672404
-0.697522
-0.717267
-0.731565
-0.740234
-0.743186
-0.740739
-0.733935
-0.724397
-0.713576
-0.702312
-0.691052
-0.680089
-0.669846
-0.661068
-0.654533
-0.650761
-0.650017
-0.652269
-0.657157
-0.664186
-0.672899
-0.683068
-0.694835
-0.708298
-0.722865
-0.736916
-0.747802
-0.752514
-0.748887
-0.736350
-0.715421
-0.686604
-0.650260
-0.607352
-0.559707
-0.509611
-0.459024
-0.409200
-0.361667
-0.318896
-0.282914
-0.254249
-0.232709
-0.217746
-0.207935
-0.201378
-0.196533
-0.192361
-0.188118
-0.183203
-0.177236
-0.170053
-0.161223
-0.149862
-0.135349
-0.117759
-0.097344
-0.074354
-0.049382
-0.023520
0.001678
0.024424
0.043088
0.056422
0.063651
0.064577
0.059689
0.049993
0.036510
0.019971
0.001011
-0.019486
-0.040477
-0.061059
-0.080435
-0.097788
-0.112440
-0.124166
-0.133243
-0.140388
-0.146764
-0.153650
-0.161841
-0.171305
-0.180995
-0.188891
-0.192635
-0.190457
-0.181664
-0.166272
-0.144384
-0.116318
-0.082956
-0.045293
-0.003776
0.041614
0.090781
0.143097
0.197453
0.252633
0.307582
0.361316
0.412545
0.459363
0.499299
0.529742
0.548473
0.554099
0.546394
0.526443
0.496402
0.459029
0.417318
0.374271
0.332726
0.295098
0.263173
0.238066
0.220303
0.210210
0.208491
0.216047
0.232867
0.257456
0.287495
0.320733
0.355472
0.390518
0.424769
0.456994
0.485983
0.511043
0.532278
0.550426
0.566826
0.583151
0.600677
0.620150
0.642057
0.666406
0.692642
0.719967
0.747742
0.775646
0.802747
0.827033
0.846922
0.861726
0.870526
0.872503
0.867747
0.856641
0.839227
0.815791
0.787344
0.755095
0.719814
0.681518
0.639333
0.592206
0.540252
0.484966
0.428062
0.370814
0.314364
0.260252
0.210398
0.166290
0.128483
0.096959
0.071784
0.053474
0.042681
0.039573
0.043803
0.054924
0.072512
0.096064
0.125096
0.159522
0.199669
0.245716
0.297390
0.353868
0.413571
0.474353
0.534054
0.590954
0.644041
0.692980
0.737748
0.778197
0.814002
0.845198
0.872700
0.898154
0.923236
0.949084
0.976339
1.005354
1.036264
1.069259
1.104743
1.142820
1.182836
1.223586
1.263848
1.302682
1.338973
1.371125
1.397913
1.419159
1.435273
1.446390
1.452059
1.451768
1.445518
1.433632
1.416282
1.393541
1.365779
1.334059
1.300176
1.266237
1.234537
1.207513
1.186977
1.173724
1.167949
1.169149
1.176055
1.187826
1.204780
1.227336
1.255097
1.287397
1.324074
1.365186
1.410216
1.457840
1.506334
1.554359
1.601671
1.648909
1.696532
1.744313
1.791798
1.838423
1.883125
1.924359
1.960521
1.990196
2.012113
2.025003
2.027742
2.020038
2.002902
1.978172
1.947696
1.913095
1.875815
1.836539
1.794460
1.748064
1.696735
1.640927
1.581236
1.518191
1.452594
1.385695
1.319105
1.254337
1.192721
1.135908
1.085740
1.043397
1.009149
0.982741
0.963448
0.950130
0.941767
0.937833
0.938066
0.942203
0.950152
0.962232
0.978853
1.000058
1.025778
1.056111
1.090892
1.129508
1.171268
1.215342
1.260468
1.305235
1.348534
1.389665
1.428103
1.463133
1.494145
1.521253
1.545057
1.566121
1.584602
1.599909
1.611171
1.617928
1.620144
1.617869
1.610799
1.598580
1.581881
1.562188
1.540696
1.518114
1.494778
1.470839
1.446693
1.422698
1.398567
1.373487
1.346428
1.316315
1.282446
1.244715
1.203350
1.158701
1.111230
1.061504
1.010328
0.958768
0.908010
0.859165
0.812776
0.769195
0.729686
0.695922
0.668534
0.647142
0.631336
0.620850
0.615102
0.613204
0.614712
0.620175
0.630370
0.645454
0.665281
0.689590
0.717761
0.748951
0.782111
0.815694
0.847838
0.876992
0.902040
0.922415
0.938681
0.952133
0.963739
0.974088
0.983751
0.993222
1.002462
1.010377
1.014988
1.014427
1.007678
0.994469
0.974994
0.949675
0.918936
0.883182
0.843156
0.800418
0.757155
0.715329
0.676391
0.641821
0.613292
0.591845
0.577194
0.567976
0.562429
0.558966
0.556294
0.553165
0.548532
0.541780
0.532330
0.519197
0.500967
0.476410
0.445357
0.408522
0.366502
0.319606
0.268364
0.213748
0.157213
0.100685
0.046282
-0.004064
-0.048895
-0.087487
-0.120085
-0.147741
-0.171602
-0.192169
-0.209381
-0.223350
-0.234485
-0.242628
-0.246701
-0.245577
-0.238807
-0.226433
-0.208788
-0.186616
-0.161193
-0.134229
-0.107586
-0.083034
-0.061982
-0.045385
-0.033944
-0.028171
-0.028389
-0.035045
-0.049077
-0.071717
-0.103794
-0.145407
-0.195874
-0.254086
-0.319041
-0.389209
-0.462304
-0.536233
-0.609020
-0.678144
