EVENT_NAME: EMILIA_2ND_SHOCK
EVENT_ID: IT-2012-0011
EVENT_DATE_YYYYMMDD: 20120529
EVENT_TIME_HHMMSS: 070002
EVENT_LATITUDE_DEGREE: 44.8417
EVENT_LONGITUDE_DEGREE: 11.0657
EVENT_DEPTH_KM: 8.1
HYPOCENTER_REFERENCE: INGV-CNT_Seismic_Bulletin
MAGNITUDE_W: 6.0
MAGNITUDE_W_REFERENCE: RCMT-INGV
MAGNITUDE_L: 5.8
MAGNITUDE_L_REFERENCE: INGV-CNT_Seismic_Bulletin
FOCAL_MECHANISM: TF
NETWORK: IT
STATION_CODE: BON0
STATION_NAME: BONDENO
STATION_LATITUDE_DEGREE: 44.886000
STATION_LONGITUDE_DEGREE: 11.418000
STATION_ELEVATION_M: 65
LOCATION: 
SENSOR_DEPTH_M: 0.0
VS30_M/S: 
SITE_CLASSIFICATION_EC8: C*
MORPHOLOGIC_CLASSIFICATION: 
EPICENTRAL_DISTANCE_KM: 28.3
EARTHQUAKE_BACKAZIMUTH_DEGREE: 260.1
DATE_TIME_FIRST_SAMPLE_YYYYMMDD_HHMMSS: 20120529_070003.000
DATE_TIME_FIRST_SAMPLE_PRECISION: seconds
SAMPLING_INTERVAL_S: 0.005000
NDATA: 22001
DURATION_S: 110.005
STREAM: HNE
UNITS: cm
INSTRUMENT: sensor = Episensor FBA ES-T [Kinemetrics] | digitizer = Etna [Kinemetrics]
INSTRUMENT_ANALOG/DIGITAL: D
INSTRUMENTAL_FREQUENCY_HZ: 
INSTRUMENTAL_DAMPING: 
FULL_SCALE_G: 
N_BIT_DIGITAL_CONVERTER: 18
PGD_CM: -1.045355
TIME_PGD_S: 17.620000
BASELINE_CORRECTION: BASELINE REMOVED
FILTER_TYPE: BUTTERWORTH
FILTER_ORDER: 2
LOW_CUT_FREQUENCY_HZ: 0.050
HIGH_CUT_FREQUENCY_HZ: 40.000
LATE/NORMAL_TRIGGERED: NT
DATABASE_VERSION: DYNA 1.0
HEADER_FORMAT: DYNA 1.2
DATA_TYPE: DISPLACEMENT
PROCESSING: manual (Paolucci et al., 2011)
DATA_TIMESTAMP_YYYYMMDD_HHMMSS: 
DATA_LICENSE: CC-BY3_0-IT (http://creativecommons.org/licenses/by/3.0/deed.en)
DATA_CITATION: ESM working group (2015), European Strong-Motion database, version 0.1, Network Activity 3: Networking acceleration networks and SM data users. Project NERA (www.nera-eu.org)
DATA_CREATOR: ESM working group
ORIGINAL_DATA_MEDIATOR_CITATION: Ufficio Rischio Sismico e Vulcanico del Dipartimento della Protezione Civile (http://www.protezionecivile.gov.it/)
ORIGINAL_DATA_MEDIATOR: Rete Accelerometrica Nazionale - RAN Download (http://www.mot1.it/randownload/)
ORIGINAL_DATA_CREATOR_CITATION: Italian Strong Motion Network, Italian Civil Protection Department http://www.protezionecivile.gov.it
ORIGINAL_DATA_CREATOR: network: IT (Italian Strong Motion Network); owner: Dipartimento Della Protezione Civile
USER1: 
USER2: 
USER3: 
USER4: 
USER5: 
[...]
7.815005e-01
7.850917e-01
7.888990e-01
7.929689e-01
7.973385e-01
8.020342e-01
8.070705e-01
8.124477e-01
8.181480e-01
8.241324e-01
8.303431e-01
8.367105e-01
8.431590e-01
8.496067e-01
8.559581e-01
8.621020e-01
8.679198e-01
8.733023e-01
8.781657e-01
8.824592e-01
8.861624e-01
8.892772e-01
8.918214e-01
8.938273e-01
8.953408e-01
8.964203e-01
8.971343e-01
8.975593e-01
8.977747e-01
8.978563e-01
8.978703e-01
8.978703e-01
8.978972e-01
8.979775e-01
8.981232e-01
8.983313e-01
8.985869e-01
8.988668e-01
8.991396e-01
8.993640e-01
8.994901e-01
8.994661e-01
8.992424e-01
8.987744e-01
8.980205e-01
8.969390e-01
8.954865e-01
8.936239e-01
8.913280e-01
8.886022e-01
8.854805e-01
8.820206e-01
8.782896e-01
8.743477e-01
8.702363e-01
8.659714e-01
8.615460e-01
8.569395e-01
8.521307e-01
8.471037e-01
8.418468e-01
8.363507e-01
8.306112e-01
8.246335e-01
8.184331e-01
8.120316e-01
8.054489e-01
7.986913e-01
7.917443e-01
7.845725e-01
7.771292e-01
7.693699e-01
7.612668e-01
7.528206e-01
7.440635e-01
7.350536e-01
7.258647e-01
7.165755e-01
7.072610e-01
6.979893e-01
6.888224e-01
6.798174e-01
6.710257e-01
6.624870e-01
6.542249e-01
6.462425e-01
6.385200e-01
6.310152e-01
6.236707e-01
6.164287e-01
6.092489e-01
6.021205e-01
5.950641e-01
5.881249e-01
5.813630e-01
5.748431e-01
5.686234e-01
5.627466e-01
5.572336e-01
5.520811e-01
5.472661e-01
5.427523e-01
5.384972e-01
5.344590e-01
5.306033e-01
5.269083e-01
5.233678e-01
5.199903e-01
5.167933e-01
5.137945e-01
5.110032e-01
5.084154e-01
5.060142e-01
5.037730e-01
5.016618e-01
4.996554e-01
4.977375e-01
4.958968e-01
4.941194e-01
4.923836e-01
4.906583e-01
4.889051e-01
4.870805e-01
4.851357e-01
4.830133e-01
4.806444e-01
4.779524e-01
4.748644e-01
4.713252e-01
4.673042e-01
4.627966e-01
4.578210e-01
4.524188e-01
4.466532e-01
4.406026e-01
4.343486e-01
4.279619e-01
4.214939e-01
4.149755e-01
4.084205e-01
4.018309e-01
3.952002e-01
3.885135e-01
3.817485e-01
3.748781e-01
3.678759e-01
3.607251e-01
3.534268e-01
3.460029e-01
3.384911e-01
3.309347e-01
3.233713e-01
3.158256e-01
3.083109e-01
3.008339e-01
2.933994e-01
2.860113e-01
2.786685e-01
2.713603e-01
2.640675e-01
2.567678e-01
2.494482e-01
2.421188e-01
2.348215e-01
2.276280e-01
2.206236e-01
2.138887e-01
2.074861e-01
2.014604e-01
1.958469e-01
1.906782e-01
1.859845e-01
1.817877e-01
1.780962e-01
1.749002e-01
1.721680e-01
1.698444e-01
1.678513e-01
1.660914e-01
1.644550e-01
1.628338e-01
1.611376e-01
1.593065e-01
1.573124e-01
1.551548e-01
1.528553e-01
1.504512e-01
1.479867e-01
1.455041e-01
1.430365e-01
1.406046e-01
1.382133e-01
1.358538e-01
1.335091e-01
1.311629e-01
1.288094e-01
1.264587e-01
1.241381e-01
1.218865e-01
1.197418e-01
1.177295e-01
1.158577e-01
1.141186e-01
1.124974e-01
1.109832e-01
1.095771e-01
1.082954e-01
1.071664e-01
1.062255e-01
1.055085e-01
1.050492e-01
1.048795e-01
1.050309e-01
1.055362e-01
1.064282e-01
1.077354e-01
1.094766e-01
1.116592e-01
1.142840e-01
1.173516e-01
1.208640e-01
1.248199e-01
1.292062e-01
1.339933e-01
1.391373e-01
1.445896e-01
1.503029e-01
1.562330e-01
1.623324e-01
1.685430e-01
1.747927e-01
1.809990e-01
1.870764e-01
1.929442e-01
1.985332e-01
2.037879e-01
2.086615e-01
2.131103e-01
2.170905e-01
2.205613e-01
2.234911e-01
2.258641e-01
2.276825e-01
2.289654e-01
2.297400e-01
2.300304e-01
2.298492e-01
2.291996e-01
2.280861e-01
2.265299e-01
2.245776e-01
2.223017e-01
2.197914e-01
2.171369e-01
2.144158e-01
2.116867e-01
2.089898e-01
2.063482e-01
2.037708e-01
2.012573e-01
1.988042e-01
1.964084e-01
1.940659e-01
1.917688e-01
1.895037e-01
1.872506e-01
1.849838e-01
1.826793e-01
1.803263e-01
1.779365e-01
1.755446e-01
1.732026e-01
1.709706e-01
1.689086e-01
1.670676e-01
1.654863e-01
1.641912e-01
1.631985e-01
1.625153e-01
1.621382e-01
1.620528e-01
1.622339e-01
1.626503e-01
1.632757e-01
1.641008e-01
1.651393e-01
1.664249e-01
1.680024e-01
1.699160e-01
1.721977e-01
1.748586e-01
1.778853e-01
1.812423e-01
1.848795e-01
1.887410e-01
1.927734e-01
1.969308e-01
2.011781e-01
2.054928e-01
2.098669e-01
2.143077e-01
2.188348e-01
2.234754e-01
2.282571e-01
2.332047e-01
2.383374e-01
2.436671e-01
2.491963e-01
2.549143e-01
2.607939e-01
2.667871e-01
2.728270e-01
2.788357e-01
2.847378e-01
2.904741e-01
2.960099e-01
3.013364e-01
3.064650e-01
3.114183e-01
3.162227e-01
3.209031e-01
3.254819e-01
3.299797e-01
3.344195e-01
3.388299e-01
3.432508e-01
3.477355e-01
3.523473e-01
3.571507e-01
3.621990e-01
3.675257e-01
3.731411e-01
3.790352e-01
3.851839e-01
3.915519e-01
3.980940e-01
4.047570e-01
4.114840e-01
4.182209e-01
4.249216e-01
4.315506e-01
4.380815e-01
4.444948e-01
4.507741e-01
4.569037e-01
4.628699e-01
4.686636e-01
4.742838e-01
4.797368e-01
4.850349e-01
4.901924e-01
4.952236e-01
5.001395e-01
5.049430e-01
5.096270e-01
5.141753e-01
5.185648e-01
5.227673e-01
5.267526e-01
5.304939e-01
5.339756e-01
5.371986e-01
5.401782e-01
5.429356e-01
5.454913e-01
5.478629e-01
5.500671e-01
5.521243e-01
5.540614e-01
5.559102e-01
5.577022e-01
5.594606e-01
5.611932e-01
5.628887e-01
5.645214e-01
5.660603e-01
5.674776e-01
5.687554e-01
5.698895e-01
5.708905e-01
5.717789e-01
5.725772e-01
5.732996e-01
5.739516e-01
5.745356e-01
5.750566e-01
5.755260e-01
5.759638e-01
5.763977e-01
5.768551e-01
5.773547e-01
5.779004e-01
5.784796e-01
5.790677e-01
5.796379e-01
5.801687e-01
5.806471e-01
5.810655e-01
5.814179e-01
5.816997e-01
5.819117e-01
5.820680e-01
5.822050e-01
5.823853e-01
5.826956e-01
5.832378e-01
5.841153e-01
5.854164e-01
5.872023e-01
5.895036e-01
5.923247e-01
5.956514e-01
5.994565e-01
6.037034e-01
6.083439e-01
6.133156e-01
6.185416e-01
6.239341e-01
6.293986e-01
6.348405e-01
6.401705e-01
6.453066e-01
6.501725e-01
6.546929e-01
6.587916e-01
6.623970e-01
6.654499e-01
6.679086e-01
6.697512e-01
6.709778e-01
6.716072e-01
6.716722e-01
6.712135e-01
6.702732e-01
6.688888e-01
6.670892e-01
6.648940e-01
6.623144e-01
6.593576e-01
6.560319e-01
6.523524e-01
6.483462e-01
6.440543e-01
6.395315e-01
6.348430e-01
6.300579e-01
6.252426e-01
6.204564e-01
6.157482e-01
6.111512e-01
6.066794e-01
6.023255e-01
5.980611e-01
5.938393e-01
5.896032e-01
5.852985e-01
5.808844e-01
5.763421e-01
5.716792e-01
5.669311e-01
5.621608e-01
5.574560e-01
5.529249e-01
5.486902e-01
5.448814e-01
5.416258e-01
5.390391e-01
5.372191e-01
5.362383e-01
5.361377e-01
5.369232e-01
5.385648e-01
5.409978e-01
5.441231e-01
5.478096e-01
5.519000e-01
5.562231e-01
5.606026e-01
5.648608e-01
5.688236e-01
5.723363e-01
5.752840e-01
5.776061e-01
5.793016e-01
5.804268e-01
5.810883e-01
5.814319e-01
5.816290e-01
5.818606e-01
5.823011e-01
5.831027e-01
5.843854e-01
5.862337e-01
5.886947e-01
5.917771e-01
5.954551e-01
5.996778e-01
6.043836e-01
6.095119e-01
6.150067e-01
6.208163e-01
6.268927e-01
6.331904e-01
6.396625e-01
6.462564e-01
6.529127e-01
6.595672e-01
6.661549e-01
6.726125e-01
6.788791e-01
6.848976e-01
6.906162e-01
6.959907e-01
7.009879e-01
7.055838e-01
7.097576e-01
7.134879e-01
7.167509e-01
7.195224e-01
7.217806e-01
7.235098e-01
7.247033e-01
7.253654e-01
7.255095e-01
7.251558e-01
7.243280e-01
7.230529e-01
7.213610e-01
7.192859e-01
7.168634e-01
7.141282e-01
7.111098e-01
7.078256e-01
7.042791e-01
7.004630e-01
6.963664e-01
6.919837e-01
6.873198e-01
6.823935e-01
6.772351e-01
6.718814e-01
6.663694e-01
6.607306e-01
6.549867e-01
6.491479e-01
6.432128e-01
6.371722e-01
6.310134e-01
6.247257e-01
6.183015e-01
6.117374e-01
6.050330e-01
5.981874e-01
5.911941e-01
5.840384e-01
5.766988e-01
5.691525e-01
5.613805e-01
5.533716e-01
5.451260e-01
5.366605e-01
5.280118e-01
5.192396e-01
5.104259e-01
5.016699e-01
4.930793e-01
4.847587e-01
4.767989e-01
4.692669e-01
4.622015e-01
4.556130e-01
4.494864e-01
4.437836e-01
4.384459e-01
4.333995e-01
4.285624e-01
4.238522e-01
4.191930e-01
4.145199e-01
4.097801e-01
4.049330e-01
3.999498e-01
3.948128e-01
3.895148e-01
3.840595e-01
3.784629e-01
3.727495e-01
3.669460e-01
3.610745e-01
3.551504e-01
3.491842e-01
3.431852e-01
3.371643e-01
3.311373e-01
3.251291e-01
3.191769e-01
3.133316e-01
3.076541e-01
3.022100e-01
2.970685e-01
2.923041e-01
2.879952e-01
2.842207e-01
2.810536e-01
2.785567e-01
2.767817e-01
2.757698e-01
2.755516e-01
2.761406e-01
2.775241e-01
2.796528e-01
2.824361e-01
2.857465e-01
2.894273e-01
2.933015e-01
2.971807e-01
3.008751e-01
3.042039e-01
3.070046e-01
3.091405e-01
3.105060e-01
3.110332e-01
3.106961e-01
3.095083e-01
3.075174e-01
3.047962e-01
3.014314e-01
2.975114e-01
2.931185e-01
2.883252e-01
2.831958e-01
2.777867e-01
2.721477e-01
2.663210e-01
2.603402e-01
2.542322e-01
2.480175e-01
2.417092e-01
2.353110e-01
2.288173e-01
2.222143e-01
2.154820e-01
2.085968e-01
2.015384e-01
1.942982e-01
1.868858e-01
1.793292e-01
1.716723e-01
1.639687e-01
1.562726e-01
1.486280e-01
1.410639e-01
1.335903e-01
1.261959e-01
1.188485e-01
1.114965e-01
1.040724e-01
9.649884e-02
8.869998e-02
8.061389e-02
7.220269e-02
6.345815e-02
5.440159e-02
4.507893e-02
3.555545e-02
2.590967e-02
1.622347e-02
6.573213e-03
-2.975562e-03
-1.237097e-02
-2.157423e-02
-3.055683e-02
-3.929792e-02
-4.778268e-02
-5.600164e-02
-6.395102e-02
-7.163364e-02
-7.905846e-02
-8.623734e-02
-9.318017e-02
-9.989180e-02
-1.063743e-01
-1.126315e-01
-1.186712e-01
-1.245048e-01
-1.301487e-01
-1.356273e-01
-1.409747e-01
-1.462335e-01
-1.514521e-01
-1.566830e-01
-1.619820e-01
-1.674082e-01
-1.730198e-01
-1.788686e-01
-1.849957e-01
-1.914305e-01
-1.981924e-01
-2.052923e-01
-2.127304e-01
-2.204964e-01
-2.285732e-01
-2.369433e-01
-2.455940e-01
-2.545193e-01
-2.637185e-01
-2.731931e-01
-2.829451e-01
-2.929759e-01
-3.032829e-01
-3.138538e-01
-3.246616e-01
-3.356641e-01
-3.468051e-01
-3.580169e-01
-3.692227e-01
-3.803386e-01
-3.912772e-01
-4.019513e-01
-4.122801e-01
-4.221977e-01
-4.316637e-01
-4.406751e-01
-4.492720e-01
-4.575339e-01
-4.655660e-01
-4.734833e-01
-4.813928e-01
-4.893809e-01
-4.975085e-01
-5.058111e-01
-5.142993e-01
-5.229606e-01
-5.317633e-01
-5.406597e-01
-5.495872e-01
-5.584704e-01
-5.672253e-01
-5.757669e-01
-5.840191e-01
-5.919248e-01
-5.994530e-01
-6.065992e-01
-6.133803e-01
-6.198230e-01
-6.259548e-01
-6.317982e-01
-6.373698e-01
-6.426798e-01
-6.477361e-01
-6.525471e-01
-6.571231e-01
-6.614762e-01
-6.656214e-01
-6.695778e-01
-6.733687e-01
-6.770206e-01
-6.805628e-01
-6.840279e-01
-6.874540e-01
-6.908839e-01
-6.943600e-01
-6.979202e-01
-7.015974e-01
-7.054204e-01
-7.094117e-01
-7.135841e-01
-7.179386e-01
-7.224667e-01
-7.271557e-01
-7.319944e-01
-7.369766e-01
-7.421022e-01
-7.473783e-01
-7.528175e-01
-7.584314e-01
-7.642236e-01
-7.701902e-01
-7.763268e-01
-7.826306e-01
-7.890991e-01
-7.957251e-01
-8.024938e-01
-8.093815e-01
-8.163550e-01
-8.233692e-01
-8.303676e-01
-8.372854e-01
-8.440544e-01
-8.506067e-01
-8.568783e-01
-8.628101e-01
-8.683482e-01
-8.734463e-01
-8.780688e-01
-8.821924e-01
-8.858056e-01
-8.889067e-01
-8.915001e-01
-8.935920e-01
-8.951904e-01
-8.963054e-01
-8.969504e-01
-8.971409e-01
-8.968947e-01
-8.962360e-01
-8.951975e-01
-8.938210e-01
-8.921550e-01
-8.902523e-01
-8.881677e-01
-8.859557e-01
-8.836669e-01
-8.813455e-01
-8.790269e-01
-8.767365e-01
-8.744943e-01
-8.723191e-01
-8.702335e-01
-8.682665e-01
-8.664543e-01
-8.648387e-01
-8.634645e-01
-8.623772e-01
-8.616194e-01
-8.612254e-01
-8.612190e-01
-8.616152e-01
-8.624200e-01
-8.636275e-01
-8.652196e-01
-8.671694e-01
-8.694442e-01
-8.720075e-01
-8.748214e-01
-8.778493e-01
-8.810586e-01
-8.844206e-01
-8.879082e-01
-8.914946e-01
-8.951524e-01
-8.988536e-01
-9.025695e-01
-9.062732e-01
-9.099429e-01
-9.135649e-01
-9.171327e-01
-9.206443e-01
-9.240996e-01
-9.275000e-01
-9.308492e-01
-9.341546e-01
-9.374272e-01
-9.406810e-01
-9.439311e-01
-9.471925e-01
-9.504783e-01
-9.537992e-01
-9.571637e-01
-9.605790e-01
-9.640532e-01
-9.675947e-01
-9.712090e-01
-9.748936e-01
-9.786326e-01
-9.823952e-01
-9.861396e-01
-9.898214e-01
-9.933985e-01
-9.968315e-01
-1.000083e+00
-1.003120e+00
-1.005918e+00
-1.008466e+00
-1.010761e+00
-1.012807e+00
-1.014616e+00
-1.016210e+00
-1.017625e+00
-1.018896e+00
-1.020059e+00
-1.021148e+00
-1.022188e+00
-1.023195e+00
-1.024177e+00
-1.025139e+00
-1.026080e+00
-1.026996e+00
-1.027882e+00
-1.028732e+00
-1.029538e+00
-1.030288e+00
-1.030964e+00
-1.031553e+00
-1.032040e+00
-1.032412e+00
-1.032659e+00
-1.032776e+00
-1.032768e+00
-1.032646e+00
-1.032430e+00
-1.032148e+00
-1.031830e+00
-1.031507e+00
-1.031209e+00
-1.030959e+00
-1.030776e+00
-1.030676e+00
-1.030671e+00
-1.030769e+00
-1.030971e+00
-1.031276e+00
-1.031678e+00
-1.032167e+00
-1.032730e+00
-1.033350e+00
-1.034017e+00
-1.034719e+00
-1.035452e+00
-1.036221e+00
-1.037030e+00
-1.037886e+00
-1.038791e+00
-1.039736e+00
-1.040699e+00
-1.041651e+00
-1.042560e+00
-1.043391e+00
-1.044113e+00
-1.044694e+00
-1.045109e+00
-1.045336e+00
-1.045355e+00
-1.045146e+00
-1.044693e+00
-1.043977e+00
-1.042990e+00
-1.041727e+00
-1.040189e+00
-1.038382e+00
-1.036319e+00
-1.034023e+00
-1.031526e+00
-1.028877e+00
-1.026135e+00
-1.023365e+00
-1.020633e+00
-1.018000e+00
-1.015518e+00
-1.013223e+00
-1.011137e+00
-1.009265e+00
-1.007602e+00
-1.006126e+00
-1.004810e+00
-1.003620e+00
-1.002518e+00
-1.001467e+00
-1.000425e+00
-9.993447e-01
-9.981804e-01
-9.968931e-01
-9.954557e-01
-9.938520e-01
-9.920746e-01
-9.901220e-01
-9.879982e-01
-9.857132e-01
-9.832833e-01
-9.807281e-01
-9.780667e-01
-9.753146e-01
-9.724804e-01
-9.695647e-01
-9.665613e-01
-9.634606e-01
-9.602503e-01
-9.569182e-01
-9.534550e-01
-9.498552e-01
-9.461165e-01
-9.422383e-01
-9.382245e-01
-9.340894e-01
-9.298547e-01
-9.255461e-01
-9.211935e-01
-9.168310e-01
-9.124922e-01
-9.082090e-01
-9.040129e-01
-8.999339e-01
-8.959972e-01
-8.922217e-01
-8.886227e-01
-8.852151e-01
-8.820184e-01
-8.790574e-01
-8.763561e-01
-8.739313e-01
-8.717910e-01
-8.699369e-01
-8.683651e-01
-8.670638e-01
-8.660119e-01
-8.651804e-01
-8.645380e-01
-8.640532e-01
-8.636943e-01
-8.634269e-01
-8.632135e-01
-8.630156e-01
-8.627966e-01
-8.625220e-01
-8.621594e-01
-8.616791e-01
-8.610536e-01
-8.602560e-01
-8.592577e-01
-8.580291e-01
-8.565422e-01
-8.547728e-01
-8.527050e-01
-8.503332e-01
-8.476629e-01
-8.447082e-01
-8.414880e-01
-8.380231e-01
-8.343343e-01
-8.304433e-01
-8.263733e-01
-8.221473e-01
-8.177838e-01
-8.132931e-01
-8.086769e-01
-8.039315e-01
-7.990498e-01
-7.940230e-01
-7.888417e-01
-7.834954e-01
-7.779717e-01
-7.722576e-01
-7.663434e-01
-7.602255e-01
-7.539062e-01
-7.473928e-01
-7.406979e-01
-7.338423e-01
-7.268528e-01
-7.197570e-01
-7.125806e-01
-7.053486e-01
-6.980884e-01
-6.908295e-01
-6.836019e-01
-6.764338e-01
-6.693524e-01
-6.623846e-01
-6.555558e-01
-6.488855e-01
-6.423846e-01
-6.360534e-01
-6.298807e-01
-6.238431e-01
-6.179083e-01
-6.120396e-01
-6.061999e-01
-6.003541e-01
-5.944739e-01
-5.885347e-01
-5.825108e-01
-5.763742e-01
-5.700987e-01
-5.636617e-01
-5.570413e-01
-5.502154e-01
-5.431643e-01
-5.358751e-01
-5.283434e-01
-5.205716e-01
-5.125633e-01
-5.043187e-01
-4.958361e-01
-4.871145e-01
-4.781555e-01
-4.689634e-01
-4.595478e-01
-4.499260e-01
-4.401234e-01
-4.301724e-01
-4.201118e-01
-4.099868e-01
-3.998481e-01
-3.897479e-01
-3.797334e-01
-3.698426e-01
-3.601041e-01
-3.505386e-01
-3.411595e-01
-3.319768e-01
-3.230045e-01
-3.142642e-01
-3.057805e-01
-2.975759e-01
-2.896697e-01
-2.820788e-01
-2.748158e-01
-2.678873e-01
-2.612918e-01
-2.550201e-01
-2.490565e-01
-2.433770e-01
-2.379483e-01
-2.327313e-01
-2.276855e-01
-2.227718e-01
-2.179546e-01
-2.132039e-01
-2.084951e-01
-2.038059e-01
-1.991156e-01
-1.944046e-01
-1.896538e-01
-1.848427e-01
-1.799484e-01
-1.749481e-01
-1.698192e-01
-1.645387e-01
-1.590842e-01
-1.534367e-01
-1.475803e-01
-1.415036e-01
-1.352013e-01
-1.286751e-01
-1.219324e-01
-1.149841e-01
-1.078436e-01
-1.005279e-01
-9.305721e-02
-8.545095e-02
-7.772566e-02
-6.989506e-02
-6.197205e-02
-5.397250e-02
-4.591665e-02
-3.782701e-02
-2.972629e-02
-2.163694e-02
-1.358295e-02
-5.590047e-03
2.319358e-03
1.013030e-02
1.783378e-02
2.542435e-02
3.289824e-02
4.025243e-02
4.748590e-02
5.459939e-02
6.159222e-02
6.845966e-02
7.519180e-02
8.177337e-02
8.818560e-02
9.440917e-02
1.004259e-01
1.062194e-01
1.117756e-01
1.170831e-01
1.221347e-01
1.269286e-01
1.314686e-01
1.357645e-01
1.398283e-01
1.436743e-01
1.473227e-01
1.508024e-01
1.541450e-01
1.573807e-01
1.605374e-01
1.636417e-01
1.667172e-01
1.697832e-01
1.728567e-01
1.759576e-01
1.791095e-01
1.823367e-01
1.856631e-01
1.891111e-01
1.926999e-01
1.964447e-01
2.003552e-01
2.044337e-01
2.086729e-01
2.130578e-01
2.175680e-01
2.221801e-01
2.268735e-01
2.316342e-01
2.364529e-01
2.413233e-01
2.462421e-01
2.512082e-01
2.562205e-01
2.612724e-01
2.663473e-01
2.714194e-01
2.764578e-01
2.814302e-01
2.863052e-01
2.910535e-01
2.956482e-01
3.000641e-01
3.042799e-01
3.082820e-01
3.120678e-01
3.156444e-01
3.190264e-01
3.222355e-01
3.253019e-01
3.282611e-01
3.311471e-01
3.339870e-01
3.367991e-01
3.395940e-01
3.423754e-01
3.451413e-01
3.478839e-01
3.505928e-01
3.532545e-01
3.558505e-01
3.583553e-01
3.607373e-01
3.629641e-01
3.650067e-01
3.668393e-01
3.684373e-01
3.697791e-01
3.708478e-01
3.716339e-01
3.721373e-01
3.723687e-01
3.723484e-01
3.721039e-01
3.716665e-01
3.710661e-01
3.703274e-01
3.694694e-01
3.685085e-01
3.674616e-01
3.663449e-01
3.651724e-01
3.639593e-01
3.627258e-01
3.614979e-01
3.603039e-01
3.591717e-01
3.581278e-01
3.571947e-01
3.563887e-01
3.557176e-01
3.551797e-01
3.547645e-01
3.544546e-01
3.542277e-01
3.540579e-01
3.539171e-01
3.537751e-01
3.535999e-01
3.533545e-01
3.529959e-01
3.524770e-01
3.517499e-01
3.507706e-01
3.495001e-01
3.479049e-01
3.459589e-01
3.436474e-01
3.409662e-01
3.379211e-01
3.345304e-01
3.308267e-01
3.268541e-01
3.226617e-01
3.182995e-01
3.138186e-01
3.092700e-01
3.046997e-01
3.001457e-01
2.956391e-01
2.912063e-01
2.868692e-01
2.826446e-01
2.785411e-01
2.745585e-01
2.706892e-01
2.669218e-01
2.632366e-01
2.595972e-01
2.559556e-01
2.522664e-01
2.484937e-01
2.446101e-01
2.405965e-01
2.364432e-01
2.321517e-01
2.277341e-01
2.232106e-01
2.186121e-01
2.139801e-01
2.093587e-01
2.047870e-01
2.002946e-01
1.959014e-01
1.916218e-01
1.874657e-01
1.834363e-01
1.795294e-01
1.757326e-01
1.720241e-01
1.683754e-01
1.647560e-01
1.611380e-01
1.574986e-01
1.538150e-01
1.500623e-01
