EVENT_NAME: EMILIA_2ND_SHOCK
EVENT_ID: IT-2012-0011
EVENT_DATE_YYYYMMDD: 20120529
EVENT_TIME_HHMMSS: 070002
EVENT_LATITUDE_DEGREE: 44.8417
EVENT_LONGITUDE_DEGREE: 11.0657
EVENT_DEPTH_KM: 8.1
HYPOCENTER_REFERENCE: INGV-CNT_Seismic_Bulletin
MAGNITUDE_W: 6.0
MAGNITUDE_W_REFERENCE: RCMT-INGV
MAGNITUDE_L: 5.8
MAGNITUDE_L_REFERENCE: INGV-CNT_Seismic_Bulletin
FOCAL_MECHANISM: TF
NETWORK: IT
STATION_CODE: BON0
STATION_NAME: BONDENO
STATION_LATITUDE_DEGREE: 44.886000
STATION_LONGITUDE_DEGREE: 11.418000
STATION_ELEVATION_M: 65
LOCATION: 
SENSOR_DEPTH_M: 0.0
VS30_M/S: 
SITE_CLASSIFICATION_EC8: C*
MORPHOLOGIC_CLASSIFICATION: 
EPICENTRAL_DISTANCE_KM: 28.3
EARTHQUAKE_BACKAZIMUTH_DEGREE: 260.1
DATE_TIME_FIRST_SAMPLE_YYYYMMDD_HHMMSS: 20120529_070003.000
DATE_TIME_FIRST_SAMPLE_PRECISION: seconds
SAMPLING_INTERVAL_S: 0.005000
NDATA: 22001
DURATION_S: 110.005
STREAM: HNN
UNITS: cm/s
INSTRUMENT: sensor = Episensor FBA ES-T [Kinemetrics] | digitizer = Etna [Kinemetrics]
INSTRUMENT_ANALOG/DIGITAL: D
INSTRUMENTAL_FREQUENCY_HZ: 
INSTRUMENTAL_DAMPING: 
FULL_SCALE_G: 
N_BIT_DIGITAL_CONVERTER: 18
PGV_CM/S: -2.890410
TIME_PGV_S: 12.985000
BASELINE_CORRECTION: BASELINE REMOVED
FILTER_TYPE: BUTTERWORTH
FILTER_ORDER: 2
LOW_CUT_FREQUENCY_HZ: 0.050
HIGH_CUT_FREQUENCY_HZ: 40.000
LATE/NORMAL_TRIGGERED: NT
DATABASE_VERSION: DYNA 1.0
HEADER_FORMAT: DYNA 1.2
DATA_TYPE: VELOCITY
PROCESSING: manual (Paolucci et al., 2011)
DATA_TIMESTAMP_YYYYMMDD_HHMMSS: 
DATA_LICENSE: CC-BY3_0-IT (http://creativecommons.org/licenses/by/3.0/deed.en)
DATA_CITATION: ESM working group (2015), European Strong-Motion database, version 0.1, Network Activity 3: Networking acceleration networks and SM data users. Project NERA (www.nera-eu.org)
DATA_CREATOR: ESM working group
ORIGINAL_DATA_MEDIATOR_CITATION: Ufficio Rischio Sismico e Vulcanico del Dipartimento della Protezione Civile (http://www.protezionecivile.gov.it/)
ORIGINAL_DATA_MEDIATOR: Rete Accelerometrica Nazionale - RAN Download (http://www.mot1.it/randownload/)
ORIGINAL_DATA_CREATOR_CITATION: Italian Strong Motion Network, Italian Civil Protection Department http://www.protezionecivile.gov.it
ORIGINAL_DATA_CREATOR: network: IT (Italian Strong Motion Network); owner: Dipartimento Della Protezione Civile
USER1: 
USER2: 
USER3: 
USER4: 
USER5: 
[...]
0.002880
0.002586
0.002454
0.002525
0.002774
0.003130
0.003513
0.003861
0.004102
0.004144
0.003921
0.003466
0.002908
0.002396
0.002021
0.001793
0.001664
0.001570
0.001468
0.001348
0.001208
0.001029
0.000802
0.000587
0.000497
0.000639
0.001053
0.001694
0.002438
0.003085
0.003397
0.003185
0.002449
0.001423
0.000437
-0.000295
-0.000756
-0.001035
-0.001194
-0.001249
-0.001184
-0.000972
-0.000592
-0.000035
0.000677
0.001459
0.002135
0.002512
0.002517
0.002231
0.001791
0.001292
0.000797
0.000380
0.000110
0.000002
0.000008
0.000056
0.000097
0.000137
0.000224
0.000430
0.000815
0.001399
0.002161
0.003037
0.003923
0.004674
0.005129
0.005207
0.004946
0.004448
0.003802
0.003051
0.002245
0.001488
0.000913
0.000608
0.000596
0.000863
0.001373
0.002049
0.002790
0.003511
0.004137
0.004587
0.004805
0.004791
0.004585
0.004228
0.003767
0.003268
0.002800
0.002407
0.002128
0.002033
0.002184
0.002557
0.003027
0.003461
0.003766
0.003889
0.003839
0.003698
0.003580
0.003565
0.003678
0.003865
0.004001
0.003928
0.003524
0.002803
0.001936
0.001180
0.000756
0.000784
0.001263
0.002082
0.003055
0.004002
0.004807
0.005437
0.005895
0.006177
0.006280
0.006215
0.006002
0.005632
0.005116
0.004534
0.004016
0.003670
0.003574
0.003775
0.004268
0.004966
0.005710
0.006360
0.006868
0.007289
0.007716
0.008174
0.008554
0.008688
0.008491
0.008008
0.007343
0.006586
0.005865
0.005395
0.005395
0.005939
0.006888
0.007955
0.008871
0.009511
0.009909
0.010168
0.010389
0.010669
0.011112
0.011812
0.012773
0.013853
0.014801
0.015404
0.015612
0.015543
0.015394
0.015359
0.015579
0.016131
0.016992
0.018026
0.019042
0.019880
0.020471
0.020833
0.021040
0.021170
0.021289
0.021469
0.021797
0.022390
0.023357
0.024731
0.026421
0.028256
0.030082
0.031758
0.033076
0.033771
0.033673
0.032893
0.031803
0.030793
0.030045
0.029497
0.029001
0.028526
0.028234
0.028366
0.029051
0.030227
0.031729
0.033388
0.035019
0.036380
0.037251
0.037577
0.037514
0.037267
0.036884
0.036260
0.035338
0.034237
0.033202
0.032477
0.032220
0.032457
0.033105
0.034023
0.035058
0.036065
0.036936
0.037627
0.038132
0.038437
0.038513
0.038341
0.037936
0.037344
0.036580
0.035564
0.034217
0.032604
0.030935
0.029432
0.028247
0.027497
0.027280
0.027580
0.028223
0.028978
0.029689
0.030318
0.030882
0.031377
0.031737
0.031872
0.031748
0.031403
0.030905
0.030288
0.029567
0.028819
0.028184
0.027751
0.027501
0.027381
0.027413
0.027673
0.028197
0.028957
0.029901
0.030908
0.031746
0.032223
0.032395
0.032503
0.032714
0.032987
0.033170
0.033160
0.032965
0.032685
0.032455
0.032359
0.032392
0.032511
0.032714
0.033044
0.033516
0.034096
0.034769
0.035590
0.036600
0.037710
0.038706
0.039359
0.039491
0.038973
0.037761
0.035990
0.033948
0.031927
0.030105
0.028553
0.027295
0.026342
0.025713
0.025426
0.025453
0.025709
0.026088
0.026539
0.027053
0.027596
0.028074
0.028395
0.028518
0.028389
0.027882
0.026902
0.025550
0.024098
0.022836
0.021996
0.021737
0.022060
0.022719
0.023297
0.023433
0.023008
0.022149
0.021131
0.020298
0.019943
0.020125
0.020598
0.020949
0.020803
0.019961
0.018460
0.016522
0.014463
0.012636
0.011384
0.010970
0.011479
0.012746
0.014391
0.015962
0.017122
0.017707
0.017637
0.016855
0.015423
0.013588
0.011695
0.010018
0.008732
0.007996
0.007996
0.008819
0.010284
0.011907
0.013068
0.013305
0.012552
0.011149
0.009612
0.008342
0.007470
0.006865
0.006250
0.005401
0.004344
0.003357
0.002733
0.002532
0.002585
0.002712
0.002876
0.003094
0.003292
0.003338
0.003178
0.002868
0.002474
0.002019
0.001543
0.001173
0.001078
0.001336
0.001857
0.002408
0.002722
0.002664
0.002344
0.002015
0.001834
0.001787
0.001824
0.001968
0.002304
0.002890
0.003681
0.004511
0.005142
0.005397
0.005225
0.004646
0.003684
0.002407
0.001021
-0.000143
-0.000803
-0.000965
-0.001032
-0.001647
-0.003302
-0.005973
-0.009081
-0.011810
-0.013487
-0.013811
-0.012897
-0.011216
-0.009480
-0.008438
-0.008608
-0.010127
-0.012761
-0.016033
-0.019445
-0.022660
-0.025486
-0.027730
-0.029139
-0.029566
-0.029135
-0.028154
-0.026856
-0.025218
-0.023034
-0.020206
-0.016938
-0.013650
-0.010791
-0.008781
-0.008006
-0.008733
-0.011016
-0.014625
-0.019058
-0.023669
-0.027874
-0.031282
-0.033668
-0.034844
-0.034611
-0.032885
-0.029856
-0.025941
-0.021603
-0.017291
-0.013513
-0.010799
-0.009535
-0.009828
-0.011525
-0.014277
-0.017572
-0.020823
-0.023520
-0.025335
-0.026099
-0.025701
-0.024024
-0.021047
-0.017037
-0.012628
-0.008649
-0.005770
-0.004263
-0.004073
-0.005053
-0.007068
-0.009948
-0.013446
-0.017289
-0.021188
-0.024740
-0.027427
-0.028855
-0.029026
-0.028361
-0.027449
-0.026738
-0.026392
-0.026297
-0.026208
-0.026025
-0.025974
-0.026437
-0.027600
-0.029280
-0.031115
-0.032853
-0.034397
-0.035641
-0.036405
-0.036494
-0.035761
-0.034125
-0.031562
-0.028089
-0.023779
-0.018868
-0.013819
-0.009232
-0.005597
-0.003109
-0.001704
-0.001180
-0.001244
-0.001448
-0.001140
0.000369
0.003415
0.007735
0.012621
0.017307
0.021299
0.024425
0.026708
0.028300
0.029482
0.030570
0.031707
0.032753
0.033401
0.033375
0.032546
0.030932
0.028669
0.025960
0.023049
0.020308
0.018299
0.017548
0.018133
0.019587
0.021318
0.023141
0.025379
0.028471
0.032468
0.036942
0.041369
0.045500
0.049286
0.052631
0.055336
0.057203
0.058118
0.058128
0.057466
0.056482
0.055619
0.055422
0.056478
0.059237
0.063722
0.069422
0.075577
0.081540
0.086951
0.091779
0.096198
0.100270
0.103781
0.106512
0.108606
0.110499
0.112509
0.114663
0.116927
0.119478
0.122656
0.126719
0.131698
0.137449
0.143719
0.150159
0.156314
0.161663
0.165700
0.168076
0.168839
0.168530
0.167950
0.167806
0.168554
0.170397
0.173273
0.176854
0.180691
0.184468
0.188113
0.191647
0.194922
0.197484
0.198702
0.198059
0.195381
0.191060
0.186102
0.181821
0.179379
0.179423
0.181925
0.186315
0.191862
0.197960
0.204103
0.209777
0.214593
0.218479
0.221494
0.223393
0.223523
0.221289
0.216728
0.210625
0.204151
0.198469
0.194442
0.192383
0.192064
0.193037
0.194931
0.197560
0.200999
0.205605
0.211754
0.219382
0.227861
0.236317
0.243968
0.250180
0.254483
0.256758
0.257378
0.256970
0.255925
0.254188
0.251569
0.248157
0.244350
0.240633
0.237334
0.234642
0.232885
0.232564
0.233931
0.236663
0.240043
0.243456
0.246650
0.249598
0.252367
0.255220
0.258660
0.263295
0.269586
0.277542
0.286533
0.295402
0.302927
0.308373
0.311633
0.312964
0.312797
0.311680
0.310088
0.308311
0.306581
0.305238
0.304783
0.305665
0.307945
0.311295
0.315269
0.319486
0.323642
0.327406
0.330393
0.332315
0.333105
0.332897
0.331957
0.330568
0.329014
0.327749
0.327435
0.328605
0.331265
0.334740
0.337765
0.338844
0.336953
0.332245
0.326079
0.320218
0.315860
0.313252
0.312044
0.311736
0.311779
0.311536
0.310473
0.308482
0.305854
0.302808
0.299101
0.294178
0.287760
0.280221
0.272349
0.264788
0.257805
0.251635
0.246783
0.243708
0.242383
0.242281
0.242645
0.242783
0.242300
0.241177
0.239671
0.238104
0.236648
0.235376
0.234481
0.234295
0.234945
0.236094
0.237156
0.237798
0.238194
0.238810
0.240147
0.242734
0.247115
0.253670
0.262510
0.273388
0.285605
0.298175
0.310254
0.321457
0.331709
0.340782
0.348108
0.353131
0.355773
0.356629
0.356723
0.356842
0.357053
0.356886
0.355846
0.353806
0.351136
0.348511
0.346400
0.344591
0.342185
0.337990
0.330906
0.320152
0.305355
0.286669
0.264925
0.241510
0.217932
0.195422
0.174810
0.156471
0.140260
0.125608
0.111781
0.098070
0.083907
0.068914
0.052778
0.035052
0.015258
-0.006576
-0.029452
-0.051539
-0.070893
-0.086112
-0.096460
-0.101679
-0.101938
-0.097902
-0.090729
-0.081807
-0.072282
-0.062635
-0.052699
-0.042238
-0.031723
-0.022562
-0.016526
-0.014896
-0.017980
-0.025095
-0.034863
-0.045764
-0.056745
-0.067418
-0.077716
-0.087401
-0.095896
-0.102524
-0.106827
-0.108672
-0.108178
-0.105593
-0.101366
-0.096414
-0.092255
-0.090777
-0.093729
-0.102071
-0.115416
-0.131950
-0.149020
-0.164082
-0.175362
-0.182014
-0.184102
-0.182583
-0.178943
-0.174430
-0.169656
-0.165013
-0.161254
-0.159530
-0.160958
-0.166013
-0.174141
-0.184040
-0.194441
-0.204621
-0.214089
-0.222029
-0.227551
-0.230558
-0.232111
-0.233977
-0.237851
-0.244570
-0.253684
-0.263716
-0.272910
-0.279768
-0.283126
-0.282151
-0.276506
-0.266478
-0.252916
-0.236983
-0.219823
-0.202440
-0.185944
-0.171793
-0.161546
-0.156309
-0.156313
-0.160986
-0.169401
-0.180353
-0.191893
-0.201257
-0.205679
-0.203481
-0.194653
-0.180624
-0.163496
-0.145548
-0.129288
-0.117515
-0.112691
-0.115948
-0.126760
-0.143531
-0.164238
-0.186569
-0.207902
-0.225643
-0.237813
-0.243375
-0.242086
-0.234327
-0.221144
-0.204134
-0.184976
-0.165013
-0.145225
-0.126391
-0.109321
-0.095159
-0.085343
-0.080913
-0.081852
-0.087242
-0.095879
-0.106654
-0.118582
-0.130705
-0.142120
-0.152049
-0.159848
-0.165070
-0.167733
-0.168487
-0.168354
-0.168060
-0.167413
-0.165255
-0.160120
-0.151106
-0.138316
-0.122722
-0.105714
-0.088676
-0.072801
-0.059041
-0.047903
-0.039370
-0.033231
-0.029449
-0.028233
-0.029855
-0.034397
-0.041707
-0.051494
-0.063516
-0.077809
-0.094591
-0.113713
-0.134238
-0.154729
-0.174008
-0.191579
-0.207257
-0.220419
-0.229576
-0.232779
-0.228782
-0.218070
-0.202832
-0.185908
-0.169534
-0.154758
-0.141589
-0.129413
-0.117431
-0.105028
-0.091853
-0.077765
-0.062931
-0.047976
-0.033773
-0.021039
-0.010232
-0.001750
0.004133
0.007817
0.010552
0.013599
0.017276
0.021198
0.025423
0.031095
0.039820
0.052453
0.068310
0.085247
0.100351
0.110913
0.115326
0.113461
0.106601
0.097113
0.087770
0.080842
0.077392
0.077114
0.078813
0.081238
0.083837
0.086942
0.091368
0.097803
0.106381
0.116602
0.127521
0.138072
0.147431
0.155289
0.161990
0.168516
0.176077
0.185476
0.196674
0.208817
0.220656
0.231082
0.239631
0.246799
0.253930
0.262685
0.274343
0.289404
0.307677
0.328480
0.350634
0.372531
0.392462
0.408928
0.420987
0.428757
0.433554
0.437380
0.441966
0.447805
0.453933
0.458714
0.460860
0.459830
0.455739
0.449278
0.441614
0.433960
0.426967
0.420573
0.414505
0.408878
0.404380
0.401963
0.402301
0.405438
0.410891
0.417961
0.425694
0.432673
0.437487
0.439762
0.440794
0.443170
0.449456
0.460826
0.476804
0.496150
0.517834
0.541260
0.565811
0.590425
0.613807
0.635167
0.654718
0.673411
0.692086
0.710766
0.728621
0.744565
0.757967
0.768838
0.777425
0.783775
0.787691
0.789087
0.788430
0.786731
0.784998
0.783708
0.782904
0.782678
0.783450
0.785793
0.790006
0.795757
0.802093
0.807751
0.811504
0.812631
0.811437
0.809142
0.807048
0.805769
0.805094
0.804377
0.803140
0.801426
0.799400
0.796418
0.790482
0.778841
0.759538
0.732754
0.700808
0.666660
0.632259
0.598358
0.565722
0.535973
0.510759
0.490245
0.473080
0.458097
0.445784
0.437738
0.434615
0.434858
0.435430
0.433498
0.427354
0.416054
0.398639
0.374101
0.342334
0.304907
0.264457
0.223314
0.182960
0.144484
0.108985
0.077453
0.050568
0.028763
0.012278
0.000909
-0.006138
-0.009930
-0.011545
-0.012037
-0.012165
-0.012115
-0.011563
-0.009947
-0.006911
-0.002725
0.001612
0.004657
0.005255
0.003199
-0.001124
-0.007806
-0.017935
-0.033063
-0.054169
-0.080842
-0.111502
-0.144605
-0.179527
-0.216310
-0.254882
-0.294663
-0.334716
-0.373974
-0.411198
-0.444986
-0.474012
-0.497238
-0.513932
-0.523687
-0.526559
-0.523295
-0.515605
-0.506341
-0.499251
-0.498054
-0.505067
-0.520100
-0.540494
-0.562298
-0.581518
-0.594870
-0.600259
-0.596925
-0.585240
-0.566310
-0.541487
-0.512239
-0.480403
-0.447933
-0.416018
-0.384642
-0.352938
-0.319623
-0.283311
-0.242924
-0.197924
-0.148086
-0.093275
-0.033650
0.029947
0.095827
0.161800
0.225854
0.286348
0.341460
0.388991
0.427300
0.456371
0.477543
0.491968
0.499545
0.499560
0.492234
0.479500
0.464152
0.448115
0.431477
0.413130
0.392217
0.368808
0.343194
0.314755
0.281404
0.239983
0.187599
0.123121
0.047604
-0.036571
-0.127027
-0.222068
-0.320082
-0.418386
-0.513308
-0.601828
-0.682956
-0.757432
-0.826429
-0.890643
-0.950319
-1.005611
-1.056666
-1.103790
-1.148083
-1.191516
-1.235694
-1.280611
-1.324558
-1.365058
-1.400093
-1.428988
-1.452771
-1.473740
-1.494252
-1.515908
-1.539583
-1.565435
-1.592699
-1.619731
-1.644234
-1.663667
-1.676144
-1.681141
-1.679493
-1.673163
-1.664785
-1.656730
-1.650385
-1.646290
-1.644803
-1.646540
-1.652134
-1.661773
-1.675327
-1.693068
-1.716221
-1.746774
-1.786696
-1.837170
-1.898117
-1.967922
-2.043772
-2.122723
-2.202558
-2.281904
-2.359904
-2.435665
-2.507657
-2.573396
-2.629714
-2.673592
-2.702967
-2.716826
-2.714749
-2.696682
-2.663311
-2.616560
-2.559539
-2.496005
-2.429649
-2.363311
-2.298893
-2.238083
-2.182819
-2.135120
-2.096821
-2.069330
-2.053466
-2.049617
-2.058208
-2.080072
-2.116258
-2.167450
-2.233536
-2.313370
-2.404293
-2.501521
-2.598419
-2.688004
-2.764722
-2.825081
-2.866992
-2.889039
-2.890410
-2.870938
-2.830700
-2.769717
-2.688612
-2.589793
-2.477867
-2.359080
-2.240326
-2.128124
-2.027718
-1.942377
-1.873285
-1.820205
-1.782399
-1.759412
-1.751619
-1.760142
-1.785976
-1.828826
-1.886307
-1.954053
-2.026758
-2.099473
-2.168599
-2.232246
-2.289798
-2.341105
-2.385976
-2.423847
-2.453253
-2.471519
-2.475268
-2.461728
-2.430013
-2.381423
-2.318533
-2.243771
-2.158618
-2.063737
-1.959496
-1.846788
-1.727865
-1.606516
-1.487662
-1.376636
-1.278035
-1.194604
-1.126993
-1.074286
-1.034941
-1.007801
-0.992269
-0.987517
-0.991925
-1.003548
-1.021030
-1.044038
-1.073089
-1.109054
-1.152531
-1.203510
-1.261640
-1.326772
-1.398892
-1.477393
-1.560812
-1.647198
-1.734362
-1.819832
-1.900487
-1.972275
-2.030522
-2.070418
-2.087605
-2.079445
-2.046534
-1.992920
-1.924711
-1.847862
-1.766024
-1.680013
-1.589979
-1.498206
-1.409523
-1.329569
-1.263045
-1.212958
-1.180860
-1.167094
-1.170220
-1.186726
-1.212284
-1.243628
-1.279438
-1.319955
-1.365649
-1.415537
-1.466229
-1.512201
-1.546935
-1.564291
-1.559858
-1.532222
-1.483832
-1.421023
-1.353004
-1.290090
-1.241618
-1.214259
-1.211145
-1.231776
-1.272871
-1.329773
-1.397333
-1.469795
-1.540372
-1.601760
-1.647907
-1.675590
-1.684694
-1.677719
-1.659293
-1.635599
-1.613242
-1.597476
-1.590569
-1.591283
-1.595819
-1.599617
-1.598653
-1.589516
-1.569080
-1.534704
-1.484743
-1.418824
-1.337743
-1.242900
-1.135702
-1.017963
-0.892992
-0.765898
-0.642478
-0.527592
-0.424330
-0.334300
-0.258439
-0.197545
-0.151902
-0.120232
-0.099125
-0.083634
-0.068739
-0.050789
-0.027893
0.000666
0.034982
0.074786
0.119746
0.169452
0.222881
0.277974
0.331789
0.380919
0.421975
0.452319
0.470982
0.479007
0.478934
0.473905
0.466993
0.461138
0.459523
0.465629
0.482322
0.510550
0.548982
0.594722
0.644353
0.694962
0.744957
0.794194
0.843104
0.891182
0.936081
0.974156
1.002092
1.018454
1.024175
1.021912
1.015089
1.007221
1.001700
1.001878
1.011019
1.031755
1.065450
1.112058
1.170430
1.238814
1.315281
1.397878
1.484645
1.573760
1.663851
1.754155
1.844245
1.933549
2.020998
2.105118
2.184440
2.257531
2.322496
2.376629
2.416737
2.439974
2.444628
2.430209
2.396852
2.344991
2.275925
2.192439
2.098540
1.998763
1.897490
1.798064
1.702396
1.611572
1.526679
1.449321
1.382016
1.328262
1.292001
1.276806
1.285029
1.316831
1.369422
1.437133
1.512560
1.588168
1.657251
1.714195
1.754666
1.775739
1.775716
1.753869
1.710701
1.648739
1.572969
1.490557
1.410143
1.340622
1.289413
1.260699
1.254503
1.267442
1.294660
1.331399
1.373657
1.418226
1.462295
1.503034
1.537453
1.562666
1.576654
1.578979
1.571010
1.555709
1.536583
1.516495
1.497634
1.482048
1.471596
1.467569
1.470548
1.480481
1.496569
1.517076
1.539634
1.561718
1.580433
1.592150
1.592941
1.579931
1.552456
1.511851
1.460676
1.402572
1.342279
1.284887
1.234595
1.194387
1.166572
1.152283
1.150124
1.155907
1.163790
1.167830
1.163398
1.148139
1.122056
1.086891
1.045286
1.000009
0.953602
0.908624
0.867904
0.834507
0.811713
0.802742
0.809876
0.833620
0.872606
0.924040
0.984074
1.048120
1.111422
1.169715
1.219410
1.257110
1.279361
1.283564
1.269343
1.239383
1.199321
1.156593
1.118722
1.091745
1.079327
1.082721
1.101262
1.133248
1.176961
1.231049
1.294106
1.364134
1.438303
1.513360
1.586515
1.655844
1.719962
1.777831
1.828627
1.871118
1.903324
1.922823
1.927242
1.915254
1.887500
1.846291
1.794783
1.736569
1.675342
1.614549
1.557482
1.507629
1.468572
1.443361
1.434001
1.441119
1.463636
1.498854
1.543066
1.592200
1.642351
1.690230
1.733563
1.771315
1.803537
1.830846
1.853710
1.871902
1.884335
1.889015
1.883031
1.862971
1.825812
1.769611
1.693857
1.599962
1.491678
1.374957
1.257473
1.147715
1.053244
0.978672
0.924809
0.889519
0.869008
0.858640
0.853552
0.849023
0.840655
0.824866
0.799588
0.764756
0.722373
0.676151
0.630827
0.591308
0.561759
0.544989
0.542112
0.552055
0.571465
0.595687
0.620003
0.640330
0.653664
0.658392
0.654483
0.643451
0.627858
0.610481
0.593872
0.580544
0.573052
0.573294
0.581287
0.594298
0.607141
0.613760
0.609343
0.591777
0.561767
0.521928
0.475715
0.426706
0.378112
0.332244
0.290041
0.251163
0.214722
0.180021
0.147002
0.116487
0.089992
0.069068
0.054548
0.045897
0.041179
0.037826
0.033513
0.026864
0.018074
0.009179
0.003729
0.005902
0.019382
0.046538
0.088032
0.142585
0.206921
0.276215
0.345039
0.408418
0.462594
0.505454
0.536700
0.557707
0.571127
0.580342
0.588837
0.599514
0.614083
0.632880
0.655014
0.678257
0.698527
0.709927
0.706122
0.682398
0.637129
0.572131
0.492052
0.403115
0.311845
0.223988
0.143639
0.073201
0.014121
-0.032553
-0.066028
-0.085951
-0.093224
-0.090708
-0.082703
-0.073784
-0.068143
-0.069201
-0.078942
-0.097294
-0.122345
-0.151435
-0.182346
-0.213837
-0.245481
-0.277372
-0.309796
-0.342593
-0.374548
-0.403553
-0.427556
-0.445352
-0.456541
-0.461317
-0.460989
-0.458284
-0.456414
-0.457749
-0.463158
-0.472362
-0.485165
-0.502597
-0.526915
-0.560500
-0.604523
-0.658148
-0.718936
-0.784277
-0.852483
-0.922686
-0.994154
-1.065969
-1.136866
-1.204581
-1.265351
-1.314241
-1.345829
-1.355067
-1.338378
-1.294608
-1.225467
-1.135533
-1.031689
-0.921916
-0.814193
-0.715977
-0.633727
-0.572169
-0.533464
-0.516743
-0.518516
-0.533659
-0.556496
-0.581738
-0.605031
-0.623177
-0.634064
-0.636192
-0.628392
-0.610280
-0.582920
-0.548863
-0.511369
-0.473202
-0.435275
-0.395674
-0.349986
-0.293123
-0.221455
-0.134062
-0.032922
0.077503
0.191105
