EVENT_NAME: EMILIA_2ND_SHOCK
EVENT_ID: IT-2012-0011
EVENT_DATE_YYYYMMDD: 20120529
EVENT_TIME_HHMMSS: 070002
EVENT_LATITUDE_DEGREE: 44.8417
EVENT_LONGITUDE_DEGREE: 11.0657
EVENT_DEPTH_KM: 8.1
HYPOCENTER_REFERENCE: INGV-CNT_Seismic_Bulletin
MAGNITUDE_W: 6.0
MAGNITUDE_W_REFERENCE: RCMT-INGV
MAGNITUDE_L: 5.8
MAGNITUDE_L_REFERENCE: INGV-CNT_Seismic_Bulletin
FOCAL_MECHANISM: TF
NETWORK: IT
STATION_CODE: BON0
STATION_NAME: BONDENO
STATION_LATITUDE_DEGREE: 44.886000
STATION_LONGITUDE_DEGREE: 11.418000
STATION_ELEVATION_M: 65
LOCATION: 
SENSOR_DEPTH_M: 0.0
VS30_M/S: 
SITE_CLASSIFICATION_EC8: C*
MORPHOLOGIC_CLASSIFICATION: 
EPICENTRAL_DISTANCE_KM: 28.3
EARTHQUAKE_BACKAZIMUTH_DEGREE: 260.1
DATE_TIME_FIRST_SAMPLE_YYYYMMDD_HHMMSS: 20120529_070003.000
DATE_TIME_FIRST_SAMPLE_PRECISION: seconds
SAMPLING_INTERVAL_S: 0.005000
NDATA: 22001
DURATION_S: 110.005
STREAM: HNZ
UNITS: cm/s^2
INSTRUMENT: sensor = Episensor FBA ES-T [Kinemetrics] | digitizer = Etna [Kinemetrics]
INSTRUMENT_ANALOG/DIGITAL: D
INSTRUMENTAL_FREQUENCY_HZ: 
INSTRUMENTAL_DAMPING: 
FULL_SCALE_G: 
N_BIT_DIGITAL_CONVERTER: 18
PGA_CM/S^2: -30.213508
TIME_PGA_S: 15.730000
BASELINE_CORRECTION: BASELINE REMOVED
FILTER_TYPE: BUTTERWORTH
FILTER_ORDER: 2
LOW_CUT_FREQUENCY_HZ: 0.050
HIGH_CUT_FREQUENCY_HZ: 40.000
LATE/NORMAL_TRIGGERED: NT
DATABASE_VERSION: DYNA 1.0
HEADER_FORMAT: DYNA 1.2
DATA_TYPE: ACCELERATION
PROCESSING: manual (Paolucci et al., 2011)
DATA_TIMESTAMP_YYYYMMDD_HHMMSS: 
DATA_LICENSE: CC-BY3_0-IT (http://creativecommons.org/licenses/by/3.0/deed.en)
DATA_CITATION: ESM working group (2015), European Strong-Motion database, version 0.1, Network Activity 3: Networking acceleration networks and SM data users. Project NERA (www.nera-eu.org)
DATA_CREATOR: ESM working group
ORIGINAL_DATA_MEDIATOR_CITATION: Ufficio Rischio Sismico e Vulcanico del Dipartimento della Protezione Civile (http://www.protezionecivile.gov.it/)
ORIGINAL_DATA_MEDIATOR: Rete Accelerometrica Nazionale - RAN Download (http://www.mot1.it/randownload/)
ORIGINAL_DATA_CREATOR_CITATION: Italian Strong Motion Network, Italian Civil Protection Department http://www.protezionecivile.gov.it
ORIGINAL_DATA_CREATOR: network: IT (Italian Strong Motion Network); owner: Dipartimento Della Protezione Civile
USER1: 
USER2: 
USER3: 
USER4: 
USER5: 
[...]
1.441485
2.266176
3.042622
3.389778
3.007442
1.737302
-0.346893
-2.789604
-4.770361
-5.519153
-4.852695
-3.273834
-1.581192
-0.413514
-0.006894
-0.164548
-0.405401
-0.255670
0.490656
1.732394
3.172672
4.429949
5.166287
5.214873
4.609846
3.526814
2.231380
1.064321
0.325608
0.011925
-0.272254
-0.988110
-2.281207
-3.952043
-5.579112
-6.573849
-6.401384
-5.007687
-2.976406
-1.152840
-0.136130
-0.081233
-0.732258
-1.475350
-1.556240
-0.591840
1.068142
2.634800
3.500484
3.451583
2.487561
0.797952
-1.117015
-2.613672
-3.310056
-3.288409
-2.926274
-2.585535
-2.434084
-2.456716
-2.565817
-2.690077
-2.736500
-2.557409
-2.099794
-1.459204
-0.636385
0.545395
2.087570
3.540776
4.271811
3.979912
2.909483
1.635992
0.703231
0.368395
0.507228
0.733288
0.698171
0.298293
-0.332819
-0.940340
-1.291432
-1.263972
-0.887188
-0.383313
-0.089486
-0.214031
-0.642492
-1.026157
-1.115447
-0.950323
-0.693435
-0.446632
-0.262100
-0.102403
0.262297
1.125982
2.529290
4.092147
5.132366
4.988284
3.436606
0.969076
-1.413493
-2.862730
-3.219600
-2.951908
-2.699985
-2.929855
-3.822344
-5.208541
-6.519300
-6.957330
-5.987905
-3.820250
-1.328538
0.585713
1.488314
1.415926
0.748965
0.139073
0.272777
1.497088
3.606646
5.897980
7.495483
7.792001
6.609600
4.153814
1.072622
-1.647804
-3.160695
-3.182124
-2.030210
-0.392942
1.049388
1.937763
2.229561
2.046148
1.605090
1.130058
0.669544
-0.009890
-1.192104
-2.743409
-4.046531
-4.518765
-4.030630
-2.802819
-1.123327
0.769409
2.678035
4.416838
5.771720
6.478938
6.293737
5.151063
3.269865
1.075536
-0.962004
-2.456926
-3.232286
-3.411445
-3.365049
-3.487512
-3.912835
-4.400477
-4.527377
-4.002851
-2.777342
-0.905975
1.523994
4.251397
6.722807
8.245767
8.351408
7.058959
4.830600
2.335818
0.207704
-1.211040
-2.035259
-2.649832
-3.252379
-3.654754
-3.565479
-2.915309
-1.823049
-0.420020
1.076491
2.214916
2.535801
1.976805
0.874557
-0.363329
-1.391758
-1.860869
-1.536783
-0.538756
0.720080
1.856365
2.714179
3.322894
3.819046
4.386913
5.074925
5.621312
5.587885
4.690851
2.983766
0.828858
-1.244645
-2.774573
-3.602335
-3.934342
-4.165184
-4.573054
-5.102146
-5.390028
-5.010742
-3.770863
-1.831265
0.458507
2.777501
4.845263
6.357678
7.042772
6.802903
5.812062
4.435614
3.012575
1.736497
0.677697
-0.238878
-1.274543
-2.727501
-4.661269
-6.784968
-8.543519
-9.326805
-8.767982
-6.997703
-4.596485
-2.268289
-0.554015
0.330897
0.607009
0.838858
1.610317
3.217824
5.549180
8.158180
10.440861
11.807254
11.843013
10.444518
7.850532
4.514845
0.873242
-2.803673
-6.273569
-9.052616
-10.519811
-10.358074
-8.692336
-5.886307
-2.438570
1.061551
4.100074
6.316930
7.421797
7.221843
5.753549
3.313603
0.427642
-2.258251
-4.248447
-5.409460
-5.875303
-5.822495
-5.387598
-4.686752
-3.820269
-2.867889
-1.889866
-0.932734
-0.055643
0.656462
1.148139
1.435205
1.569194
1.627988
1.733200
1.949088
2.093598
1.734758
0.491828
-1.662271
-4.399775
-7.229296
-9.641557
-11.179258
-11.518241
-10.566197
-8.484567
-5.607885
-2.358581
0.832760
3.667016
6.063838
8.053285
9.589754
10.509560
10.633344
9.821617
7.959856
5.090055
1.660315
-1.510478
-3.682048
-4.620611
-4.568822
-3.848002
-2.583027
-0.836185
1.131368
2.898645
4.164860
4.871880
5.097849
4.978141
4.678401
4.247785
3.492198
2.153581
0.238986
-1.858199
-3.486263
-4.032040
-3.315649
-1.791892
-0.245995
0.776036
1.179771
1.127255
0.883260
0.726593
0.737341
0.659741
0.108950
-0.990028
-2.215090
-3.010132
-3.190468
-3.044223
-3.036228
-3.456177
-4.297018
-5.381789
-6.494331
-7.321677
-7.368267
-6.183346
-3.774689
-0.654623
2.540587
5.360421
7.551918
8.988159
9.687970
9.801244
9.390120
8.219899
5.956178
2.586962
-1.541980
-6.051473
-10.581755
-14.534389
-17.161715
-18.080357
-17.458849
-15.636936
-12.822697
-9.248850
-5.337698
-1.437004
2.458742
6.445098
10.275298
13.403054
15.376012
16.069996
15.602293
14.156948
11.976156
9.443923
7.002846
4.925670
3.210103
1.709807
0.351964
-0.820037
-1.804026
-2.692918
-3.513172
-4.105775
-4.206303
-3.623977
-2.407163
-0.887798
0.469421
1.265906
1.249474
0.349841
-1.257918
-3.161430
-4.863867
-6.004517
-6.475169
-6.354057
-5.792055
-4.951314
-3.923472
-2.661521
-1.078403
0.775225
2.694331
4.424506
5.688447
6.181809
5.691275
4.267088
2.241170
-0.018961
-2.378506
-4.802207
-6.971601
-8.304495
-8.460257
-7.644849
-6.275637
-4.499687
-2.263708
0.274644
2.723822
4.790728
6.336459
7.155827
6.989178
5.757453
3.649026
1.057782
-1.434376
-3.108156
-3.356062
-2.053256
0.267088
2.691864
4.468302
5.327666
5.408327
5.008883
4.430923
3.934391
3.697261
3.740802
3.938864
4.179894
4.458262
4.737942
4.839588
4.575039
3.947526
3.151818
2.383282
1.663335
0.858582
-0.118311
-1.151770
-2.020958
-2.593260
-2.800476
-2.599983
-2.207601
-2.112128
-2.550281
-3.196057
-3.529345
-3.265942
-2.447435
-1.393160
-0.526356
-0.095459
-0.058415
-0.181162
-0.212380
-0.021402
0.392748
0.975186
1.671679
2.443712
3.225560
3.900884
4.416582
4.874522
5.344658
5.578289
5.100267
3.771134
2.196024
1.275234
1.276617
1.664175
1.950651
2.356182
3.378075
4.973239
6.449136
7.045365
6.422735
4.671077
2.120079
-0.767712
-3.515532
-5.811934
-7.599710
-9.054486
-10.517998
-12.236606
-13.919292
-14.743883
-14.126621
-12.349515
-10.182342
-8.063178
-5.890831
-3.504341
-1.069517
1.130892
3.058553
4.760197
5.937332
6.007225
4.671012
2.268419
-0.456159
-2.781502
-4.251035
-4.794569
-4.733278
-4.531510
-4.367436
-3.887527
-2.554005
-0.328584
2.227799
4.641584
6.951779
9.191780
10.872810
11.493563
11.250328
10.699138
9.948075
8.656284
6.681470
4.312922
1.928361
-0.154441
-1.442415
-1.270640
0.789822
4.637244
9.687698
15.004626
19.451481
22.058487
22.422918
20.712339
17.310013
12.618855
7.260985
2.233732
-1.536620
-3.949835
-5.756582
-7.651603
-9.590294
-11.149494
-12.233240
-13.039231
-13.455533
-12.910101
-10.959189
-7.877640
-4.514786
-1.648857
0.288367
1.011174
0.386061
-1.354939
-3.768666
-6.508870
-9.231148
-11.386029
-12.455285
-12.447412
-11.975148
-11.679721
-11.652968
-11.538854
-11.040914
-10.142270
-8.913450
-7.252820
-4.882846
-1.700275
1.836320
4.735779
6.008744
5.388436
3.573637
1.634247
0.204906
-0.764739
-1.727922
-3.186448
-5.438150
-8.283481
-10.894589
-12.266678
-11.854936
-9.610951
-5.763240
-1.067165
3.129478
5.705091
6.511624
6.162265
5.378429
4.560476
3.772960
3.099686
2.875884
3.394601
4.574562
6.154872
7.991662
9.912034
11.520424
12.441627
12.662692
12.429556
11.816048
10.585002
8.546883
5.899642
3.116088
0.595691
-1.515311
-3.242972
-4.622133
-5.681302
-6.577183
-7.605014
-8.908622
-10.200278
-10.970969
-10.975619
-10.350327
-9.326179
-7.972312
-6.227406
-4.154256
-2.087158
-0.455244
0.498551
0.750416
0.238568
-1.302975
-4.003682
-7.320252
-10.145209
-11.618703
-11.708209
-10.952964
-9.881092
-8.844748
-8.128967
-7.817664
-7.588476
-6.873741
-5.272168
-2.775794
0.290281
3.370863
5.828259
7.258119
7.679246
7.402079
6.823535
6.301933
6.065726
6.084649
6.011031
5.472784
4.512225
3.576674
3.045296
2.859899
2.665420
2.309777
2.117755
2.580899
3.821248
5.418936
6.749558
7.469794
7.679650
7.735551
8.088937
9.223625
11.413023
14.353989
17.103800
18.474468
17.649916
14.688370
10.539164
6.454805
3.251570
1.016141
-0.653636
-2.275846
-4.291162
-6.940173
-10.137686
-13.526051
-16.644407
-19.039692
-20.410219
-20.748594
-20.252962
-19.088398
-17.333183
-15.123792
-12.692954
-10.176907
-7.460617
-4.386193
-1.116496
1.850662
3.971275
4.831389
4.208257
2.230053
-0.544498
-3.372988
-5.677351
-7.185696
-7.930229
-8.196518
-8.332438
-8.419245
-8.054623
-6.567459
-3.549608
0.862336
6.135197
11.545466
16.272137
19.545326
20.870535
20.176931
17.807348
14.342744
10.412674
6.625694
3.457572
1.039312
-0.861228
-2.521487
-3.957006
-4.965250
-5.295941
-4.667607
-2.850389
0.077288
3.632161
7.084433
9.686261
10.964769
10.907455
9.733683
7.600830
4.749557
1.726327
-0.822202
-2.491023
-3.136103
-2.722859
-1.342324
0.708939
3.015942
5.207857
6.988823
8.069458
8.164730
7.061920
4.689874
1.166235
-3.199372
-7.959893
-12.632222
-16.780823
-20.014338
-21.991816
-22.651335
-22.455059
-22.103848
-21.892242
-21.466337
-20.151260
-17.453506
-13.377676
-8.377329
-3.069474
2.034971
6.701172
10.986560
15.000562
18.593204
21.386251
23.102678
23.747213
23.485905
22.453705
20.723246
18.368509
15.424371
11.877713
7.886447
3.921104
0.528753
-2.070484
-4.206434
-6.542520
-9.557848
-13.285047
-17.392668
-21.292192
-24.317314
-26.012339
-26.278727
-25.306515
-23.361967
-20.546070
-16.770996
-11.994070
-6.432949
-0.579803
4.998642
9.938169
14.090490
17.283142
19.266848
19.903503
19.287165
17.729012
15.675461
13.504452
11.269899
8.749061
5.875514
3.072374
1.114027
0.692508
2.043612
4.868849
8.510515
12.096620
14.699321
15.701008
15.024170
12.938299
9.776666
5.892909
1.704967
-2.483770
-6.657650
-10.814148
-14.613940
-17.551474
-19.385544
-20.250168
-20.351379
-19.650253
-17.919487
-15.023889
-11.024548
-6.061674
-0.343675
5.619376
10.968948
14.946409
17.301315
18.083416
17.268385
14.897218
11.386312
7.431877
3.702108
0.626493
-1.671271
-3.287472
-4.410210
-5.200592
-5.672497
-5.694876
-5.108622
-3.796313
-1.698660
1.113776
4.322577
7.366347
9.637368
10.644026
10.016141
7.574912
3.528337
-1.460763
-6.497446
-10.860548
-14.230179
-16.539846
-17.799898
-18.134783
-17.757710
-16.753677
-14.952810
-12.088383
-8.124676
-3.540091
0.731179
3.827897
5.451795
5.787472
5.127992
3.764200
2.067575
0.382702
-1.169886
-2.689062
-4.273233
-5.774076
-6.788198
-6.897096
-5.872099
-3.700085
-0.544696
3.285445
7.380720
11.283026
14.622777
17.242836
19.100931
20.124760
20.206732
19.269848
17.355606
14.648795
11.373494
7.710302
3.915550
0.442303
-2.230462
-3.803789
-4.143203
-3.245267
-1.284136
1.318957
3.917184
5.887817
6.878623
6.820237
5.891324
4.452265
2.795149
0.961220
-1.189714
-3.835014
-7.002325
-10.409559
-13.522628
-15.767338
-16.724886
-16.170931
-14.064464
-10.698637
-6.708117
-2.725400
0.856525
3.799383
5.969115
7.420151
8.332271
8.783378
8.658266
7.864360
6.505659
4.793346
3.065118
1.818479
1.509577
2.306828
3.906353
5.726380
7.420653
8.970257
10.338137
11.368193
12.031410
12.453180
12.632644
12.385410
11.535423
10.006220
7.820050
5.093341
2.040670
-0.966303
-3.414991
-4.848700
-5.043167
-4.075861
-2.349408
-0.422375
1.302053
2.629725
3.373305
3.367164
2.751958
2.046152
1.768743
2.000025
2.409742
2.649264
2.612375
2.421973
2.268746
2.255244
2.327074
2.259646
1.747734
0.575794
-1.316434
-3.843106
-6.767069
-9.808800
-12.820550
-15.756990
-18.433035
-20.401415
-21.193832
-20.730780
-19.421427
-17.811739
-16.271271
-15.035488
-14.265119
-13.886305
-13.485103
-12.522558
-10.624500
-7.652824
-3.811096
0.250354
3.763847
6.253507
7.608403
8.094934
8.222500
8.350973
8.556738
8.794331
8.871839
8.430623
7.225582
5.308700
3.021217
1.043907
0.204811
0.975786
3.239313
6.472009
10.031342
13.376046
16.039299
17.473299
17.291716
15.704641
13.325040
10.512012
7.172054
3.129405
-1.553773
-6.586968
-11.575034
-16.029999
-19.366777
-21.091997
-21.027937
-19.306683
-16.267757
-12.400268
-8.226261
-4.175285
-0.562854
2.402639
4.622627
6.068279
6.731108
6.592545
5.578763
3.553678
0.439135
-3.573738
-7.965247
-12.103665
-15.407127
-17.376099
-17.771261
-16.689650
-14.376080
-11.150303
-7.415045
-3.522125
0.268473
3.727413
6.714293
9.181983
11.058808
12.234118
12.666935
12.478867
11.887764
11.006631
9.783032
8.196112
6.446763
4.863634
3.661658
2.870205
2.439220
2.333751
2.520395
2.906003
3.359015
3.791187
4.180905
4.549766
4.960295
5.516095
6.236737
6.837880
6.780457
5.644224
3.386958
0.343837
-2.856571
-5.436405
-6.739609
-6.557563
-5.200200
-3.195769
-0.996398
1.068509
2.712003
3.618304
3.496137
2.196914
-0.266728
-3.713006
-7.747937
-11.866029
-15.627903
-18.692535
-20.813416
-21.940496
-22.193684
-21.645844
-20.278004
-18.162161
-15.557996
-12.817678
-10.245306
-8.021413
-6.156371
-4.486817
-2.762164
-0.754633
1.618871
4.217739
6.786322
9.120814
11.098169
12.658218
13.839892
14.772317
15.536167
16.055250
16.180813
15.847511
15.086013
13.885966
12.197588
10.157002
8.137000
6.476266
5.254710
4.326734
3.456727
2.429552
1.140321
-0.411075
-2.207305
-4.178154
-6.084452
-7.590747
-8.521796
-9.004986
-9.302127
-9.496514
-9.359703
-8.510619
-6.705282
-4.030790
-0.926499
1.981379
4.184282
5.442855
5.676403
4.918594
3.404570
1.481504
-0.587462
-2.625580
-4.457700
-5.868013
-6.599364
-6.526035
-5.769467
-4.496629
-2.749362
-0.562498
1.932199
4.697070
7.881769
11.443208
14.857987
17.435631
18.786983
18.870075
17.684910
15.096818
11.017828
5.664591
-0.460508
-6.792842
-12.863305
-18.351620
-23.065744
-26.802198
-29.259151
-30.213509
-29.708496
-27.926102
-24.938290
-20.734957
-15.518844
-9.772874
-3.926248
1.835982
7.364946
12.344935
16.383541
19.247837
20.948910
21.626192
21.384298
20.220736
18.131388
15.287462
12.072742
8.937318
6.249164
4.275664
3.196729
3.018544
3.453418
4.015238
4.280751
3.972671
2.920275
1.163510
-0.967853
-3.055603
-4.869103
-6.472097
-8.123938
-9.957338
-11.788410
-13.324880
-14.339192
-14.640879
-14.123927
-12.876314
-11.199506
-9.416048
-7.663744
-5.993904
-4.497151
-3.228058
-2.145995
-1.144359
-0.147441
0.758960
1.372328
1.622859
1.675200
1.737021
1.885914
2.139303
2.614883
3.512487
4.929337
6.741883
8.673773
10.501876
12.181055
13.755116
15.205089
16.370623
16.990105
16.836670
15.786047
13.764186
10.794297
7.189343
3.559721
0.559090
-1.350925
-2.035113
-1.728695
-0.869635
0.197012
1.363068
2.657047
4.040110
5.348180
6.396978
6.987007
6.869806
5.929467
4.375787
2.580461
0.737537
-1.140346
-2.938821
-4.398759
-5.393375
-6.099986
-6.841732
-7.810868
-8.934247
-9.948637
-10.660253
-11.084799
-11.174042
-10.643266
-9.359601
-7.641557
-5.971695
-4.647173
-3.748961
-3.195916
-2.817180
-2.476576
-2.051635
-1.366908
-0.295596
1.151288
2.826309
4.479215
5.936197
7.286728
8.762823
10.428013
12.072224
13.420425
14.347539
14.766140
14.403887
12.952676
10.433798
7.226146
3.713597
0.038570
-3.749570
-7.444414
-10.705869
-13.275339
-15.041898
-15.941665
-15.978529
-15.302092
-14.059785
-12.224704
-9.767791
-6.944141
-4.203050
-1.832258
0.183363
1.968818
3.485370
4.485999
4.720058
4.095439
2.671100
0.621630
-1.764937
-4.126627
-6.099325
-7.402633
-7.944534
-7.794895
-7.023266
-5.683836
-3.912427
-1.884766
0.270899
2.483565
4.712284
6.891721
8.885079
10.499363
11.585863
12.083953
11.922870
11.052301
9.640532
8.091433
6.797966
5.911529
5.361181
5.011428
4.770079
4.665423
4.817358
5.283144
6.018620
6.952068
7.999412
9.022468
9.786597
10.031070
9.639149
8.700664
7.388478
5.782018
3.862117
1.690907
-0.496842
-2.439262
-4.064733
-5.487379
-6.735523
-7.597874
-7.834509
-7.420484
-6.477511
-5.112816
-3.475359
-1.820822
-0.383147
0.691893
1.270899
1.282001
0.862102
0.277210
-0.356701
-1.122756
-2.017296
-2.874502
-3.707963
-4.753555
-6.027793
-7.199540
-7.983646
-8.419160
-8.688882
-8.841497
-8.811353
-8.588168
-8.229293
-7.765705
-7.186563
-6.470340
-5.628012
-4.764152
-4.035943
-3.530596
-3.269718
-3.272685
-3.438722
-3.514089
-3.387927
-3.187432
-2.966110
-2.581789
-1.919186
-1.060256
-0.226827
0.430864
0.932749
1.295558
1.422800
1.297315
1.121166
1.126314
1.367494
1.767173
2.239147
2.735187
3.273252
3.927139
4.690725
5.422200
6.013040
6.450215
6.695258
6.706264
6.544517
6.335523
6.198076
6.231792
6.497016
7.011920
7.723825
8.464245
9.028493
9.260000
9.030125
8.255355
6.951672
5.239940
3.308860
1.311697
-0.728347
-2.829004
-4.909284
-6.826001
-8.430273
-9.567522
-10.152171
-10.172061
-9.600651
-8.488188
-7.085744
-5.703721
-4.556462
-3.790012
-3.484510
-3.648519
-4.289177
-5.436145
-7.116330
-9.289539
-11.740113
-14.092313
-16.014889
-17.418697
-18.449196
-19.286066
-19.926189
-20.166805
-19.844809
-19.000956
-17.709339
-15.905368
-13.522443
-10.623300
-7.266854
-3.478524
0.547433
4.535319
8.426492
12.208641
15.601658
18.314505
20.370565
21.828243
22.439468
21.946568
20.511051
18.558130
16.437836
14.431686
12.797329
11.613727
10.754853
10.062836
9.437002
8.871963
8.528153
8.597918
9.058092
9.708355
10.324928
10.637378
10.378222
9.481266
8.077035
6.256809
4.007253
1.382093
-1.461080
-4.412702
-7.463864
-10.591132
-13.647918
-16.406101
-18.680117
-20.355146
-21.316362
-21.412067
-20.531000
-18.747416
-16.357784
-13.730052
-11.120772
-8.633769
-6.319191
-4.248324
-2.456393
-0.898778
0.423233
1.337964
1.667214
1.493249
1.038373
0.320121
-0.827627
-2.426947
-4.214941
-5.862736
-7.271877
-8.533800
-9.642579
-10.408160
-10.610340
-10.154543
-9.079903
-7.446899
-5.294431
-2.643079
0.512389
4.097588
7.883779
11.576908
14.848383
17.293003
18.628277
18.992319
18.788651
18.273169
17.490517
16.429134
15.100624
13.603184
12.063332
10.488764
8.883933
7.410725
6.204150
5.204596
4.264533
3.250591
2.087865
0.822158
-0.440299
-1.674996
-2.929666
-4.241413
-5.608263
-6.892100
-7.835665
-8.379647
-8.764368
-9.156891
-9.415367
-9.314276
-8.788835
-7.879563
-6.610635
-5.079279
-3.570670
-2.365876
-1.487316
-0.808893
-0.374078
-0.504654
-1.487190
-3.166797
-5.084746
-6.931293
-8.566008
-9.865086
-10.850355
-11.597041
-11.928719
-11.559818
-10.420441
-8.710979
-6.795184
-4.953700
-3.166964
-1.247495
0.843572
2.962384
5.027699
7.041990
8.897479
10.396052
11.407708
11.954799
12.177657
12.187449
11.994572
11.553629
10.796884
9.681353
8.243520
6.608067
4.967052
3.507554
2.343103
1.530981
1.132983
1.248738
1.907205
2.942493
4.123238
5.326643
6.508657
7.658019
8.834343
10.080194
11.244492
12.104481
12.646294
12.957731
12.914121
12.237985
10.823819
8.806936
6.342763
3.456859
0.130817
-3.535415
-7.296177
-10.855225
-13.980507
-16.571987
-18.584951
-19.880100
-20.275826
-19.788073
-18.660120
-17.112839
-15.218879
-13.038518
-10.724596
-8.477268
-6.485359
-4.823216
-3.366324
-1.961682
-0.644249
0.420710
1.131637
1.552406
1.821976
1.909353
1.586219
0.802516
-0.136063
-0.921763
-1.536357
-2.133358
-2.765507
-3.272093
-3.440220
-3.161169
-2.379293
-1.078213
0.597149
2.345018
3.921389
5.296081
6.501449
7.385581
7.714490
7.488446
6.961317
6.349686
5.661866
4.855583
4.055995
