EVENT_NAME: EMILIA_2ND_SHOCK
EVENT_ID: IT-2012-0011
EVENT_DATE_YYYYMMDD: 20120529
EVENT_TIME_HHMMSS: 070002
EVENT_LATITUDE_DEGREE: 44.8417
EVENT_LONGITUDE_DEGREE: 11.0657
EVENT_DEPTH_KM: 8.1
HYPOCENTER_REFERENCE: INGV-CNT_Seismic_Bulletin
MAGNITUDE_W: 6.0
MAGNITUDE_W_REFERENCE: RCMT-INGV
MAGNITUDE_L: 5.8
MAGNITUDE_L_REFERENCE: INGV-CNT_Seismic_Bulletin
FOCAL_MECHANISM: TF
NETWORK: IT
STATION_CODE: BON0
STATION_NAME: BONDENO
STATION_LATITUDE_DEGREE: 44.886000
STATION_LONGITUDE_DEGREE: 11.418000
STATION_ELEVATION_M: 65
LOCATION: 
SENSOR_DEPTH_M: 0.0
VS30_M/S: 
SITE_CLASSIFICATION_EC8: C*
MORPHOLOGIC_CLASSIFICATION: 
EPICENTRAL_DISTANCE_KM: 28.3
EARTHQUAKE_BACKAZIMUTH_DEGREE: 260.1
DATE_TIME_FIRST_SAMPLE_YYYYMMDD_HHMMSS: 20120529_070003.000
DATE_TIME_FIRST_SAMPLE_PRECISION: seconds
SAMPLING_INTERVAL_S: 0.005000
NDATA: 22001
DURATION_S: 110.005
STREAM: HNE
UNITS: cm/s^2
INSTRUMENT: sensor = Episensor FBA ES-T [Kinemetrics] | digitizer = Etna [Kinemetrics]
INSTRUMENT_ANALOG/DIGITAL: D
INSTRUMENTAL_FREQUENCY_HZ: 
INSTRUMENTAL_DAMPING: 
FULL_SCALE_G: 
N_BIT_DIGITAL_CONVERTER: 18
PGA_CM/S^2: 35.443966
TIME_PGA_S: 15.310000
BASELINE_CORRECTION: BASELINE REMOVED
FILTER_TYPE: BUTTERWORTH
FILTER_ORDER: 2
LOW_CUT_FREQUENCY_HZ: 0.050
HIGH_CUT_FREQUENCY_HZ: 40.000
LATE/NORMAL_TRIGGERED: NT
DATABASE_VERSION: DYNA 1.0
HEADER_FORMAT: DYNA 1.2
DATA_TYPE: ACCELERATION
PROCESSING: manual (Paolucci et al., 2011)
DATA_TIMESTAMP_YYYYMMDD_HHMMSS: 
DATA_LICENSE: CC-BY3_0-IT (http://creativecommons.org/licenses/by/3.0/deed.en)
DATA_CITATION: ESM working group (2015), European Strong-Motion database, version 0.1, Network Activity 3: Networking acceleration networks and SM data users. Project NERA (www.nera-eu.org)
DATA_CREATOR: ESM working group
ORIGINAL_DATA_MEDIATOR_CITATION: Ufficio Rischio Sismico e Vulcanico del Dipartimento della Protezione Civile (http://www.protezionecivile.gov.it/)
ORIGINAL_DATA_MEDIATOR: Rete Accelerometrica Nazionale - RAN Download (http://www.mot1.it/randownload/)
ORIGINAL_DATA_CREATOR_CITATION: Italian Strong Motion Network, Italian Civil Protection Department http://www.protezionecivile.gov.it
ORIGINAL_DATA_CREATOR: network: IT (Italian Strong Motion Network); owner: Dipartimento Della Protezione Civile
USER1: 
USER2: 
USER3: 
USER4: 
USER5: 
[...]
-0.065939
0.091711
0.174646
0.163526
0.104117
0.058413
0.047596
0.056330
0.063806
0.051779
0.013049
-0.036375
-0.071761
-0.097790
-0.160601
-0.293490
-0.460505
-0.579145
-0.583176
-0.451556
-0.193237
0.170743
0.587491
0.945657
1.110751
1.015205
0.711347
0.330415
0.002882
-0.190665
-0.240355
-0.209632
-0.202777
-0.290159
-0.443201
-0.555834
-0.526641
-0.317541
0.028436
0.401032
0.679205
0.811619
0.845841
0.868273
0.920566
0.968726
0.943508
0.817564
0.641597
0.499357
0.447960
0.506699
0.652148
0.809179
0.902449
0.922362
0.911826
0.916119
0.956768
1.029814
1.127093
1.236025
1.298661
1.219353
0.957079
0.593449
0.292910
0.197651
0.329607
0.563613
0.727147
0.752521
0.694039
0.599347
0.451926
0.270417
0.178600
0.294624
0.572761
0.819618
0.869257
0.716440
0.485345
0.307414
0.258674
0.361423
0.570679
0.778793
0.884677
0.862863
0.761923
0.644898
0.537438
0.419463
0.254223
0.041255
-0.165863
-0.307487
-0.362030
-0.345805
-0.297180
-0.263982
-0.290695
-0.394492
-0.523164
-0.551804
-0.388270
-0.086577
0.188160
0.310617
0.308235
0.329405
0.509988
0.877365
1.344928
1.766687
2.018163
2.047651
1.873764
1.563977
1.200905
0.844341
0.530727
0.294974
0.169410
0.166822
0.263338
0.397985
0.524448
0.666889
0.884721
1.185621
1.494063
1.692069
1.688623
1.477183
1.147655
0.835486
0.649076
0.649296
0.856168
1.215246
1.586727
1.819480
1.845410
1.727678
1.611101
1.578333
1.571673
1.477938
1.238948
0.867618
0.407119
-0.103565
-0.614952
-1.034408
-1.260228
-1.264238
-1.130445
-0.997911
-0.957450
-1.007916
-1.070705
-1.014744
-0.718445
-0.156739
0.560987
1.245482
1.751046
2.060472
2.233338
2.283715
2.146230
1.752952
1.119152
0.355595
-0.390554
-0.976426
-1.286506
-1.283162
-0.997677
-0.491322
0.111636
0.619515
0.866205
0.823078
0.628458
0.472802
0.455832
0.553680
0.649794
0.610770
0.413318
0.178344
0.053880
0.104454
0.311806
0.624326
0.992532
1.394812
1.834814
2.295475
2.693704
2.883697
2.727755
2.204566
1.462408
0.743661
0.249402
0.092231
0.313656
0.818324
1.304701
1.405207
0.961241
0.158972
-0.581071
-0.860743
-0.527951
0.273286
1.224114
2.006846
2.422127
2.423649
2.101168
1.611348
1.094670
0.660086
0.398452
0.320278
0.284133
0.079684
-0.406008
-1.117431
-1.835100
-2.267265
-2.262543
-1.911869
-1.405756
-0.877339
-0.395067
-0.012794
0.222956
0.302776
0.249355
0.059232
-0.307855
-0.842568
-1.407030
-1.771727
-1.767848
-1.440385
-1.048953
-0.899457
-1.130449
-1.607452
-2.024537
-2.130234
-1.885935
-1.452591
-1.041538
-0.775692
-0.667252
-0.665435
-0.708319
-0.767801
-0.853152
-0.969797
-1.089918
-1.160533
-1.156858
-1.134445
-1.170160
-1.238753
-1.212652
-0.999018
-0.638613
-0.255507
0.071529
0.355546
0.641348
0.963941
1.336609
1.692623
1.849706
1.603111
0.886821
-0.148169
-1.212132
-2.042414
-2.507190
-2.586864
-2.335893
-1.901304
-1.495851
-1.270588
-1.231986
-1.286370
-1.322031
-1.254182
-1.028428
-0.622865
-0.100311
0.356258
0.532538
0.334837
-0.125371
-0.580541
-0.791678
-0.743338
-0.657099
-0.794068
-1.249677
-1.913870
-2.545077
-2.876456
-2.734931
-2.110173
-1.159933
-0.175180
0.547479
0.882692
0.918992
0.832965
0.763168
0.772699
0.849834
0.919825
0.881295
0.667975
0.296298
-0.150276
-0.580698
-0.942042
-1.223022
-1.420957
-1.524143
-1.550165
-1.578072
-1.701189
-1.938645
-2.205605
-2.384670
-2.422426
-2.333858
-2.136173
-1.848392
-1.532228
-1.262738
-1.082714
-0.994173
-0.955826
-0.914362
-0.871520
-0.877963
-0.945106
-1.016242
-1.018153
-0.917780
-0.742895
-0.555488
-0.429232
-0.426323
-0.543789
-0.696707
-0.773051
-0.704837
-0.504612
-0.250594
-0.005494
0.264543
0.657943
1.229638
1.926748
2.606037
3.098355
3.277617
3.099150
2.605670
1.912428
1.149499
0.402530
-0.292292
-0.917984
-1.443755
-1.837525
-2.086615
-2.176109
-2.108799
-1.944632
-1.761889
-1.612977
-1.553693
-1.649517
-1.882132
-2.093761
-2.085876
-1.775572
-1.262325
-0.735745
-0.313702
-0.009236
0.152300
0.070339
-0.331871
-0.974159
-1.603458
-1.906651
-1.672813
-0.908964
0.179000
1.342890
2.460573
3.543821
4.571538
5.394722
5.844889
5.854247
5.463898
4.789552
3.989760
3.234582
2.650922
2.238581
1.862493
1.387205
0.813770
0.265083
-0.149693
-0.418614
-0.570289
-0.619413
-0.593676
-0.529106
-0.430237
-0.269169
-0.039784
0.169942
0.234252
0.151130
0.058914
0.073032
0.143060
0.098536
-0.160587
-0.564736
-0.957214
-1.231975
-1.396110
-1.523115
-1.676590
-1.882813
-2.142991
-2.430799
-2.678267
-2.831131
-2.925482
-3.028032
-3.095655
-2.980481
-2.588014
-1.973087
-1.294140
-0.701077
-0.229534
0.193116
0.603889
0.896343
0.879851
0.428436
-0.413112
-1.428247
-2.317091
-2.837279
-2.925665
-2.671909
-2.163037
-1.395601
-0.355015
0.844043
1.938737
2.674320
2.972881
2.925879
2.666682
2.298048
1.877411
1.407139
0.855036
0.211258
-0.452931
-0.972070
-1.180490
-1.058948
-0.740349
-0.372790
-0.035749
0.244673
0.481004
0.725872
1.011601
1.286027
1.446858
1.394400
1.075281
0.569306
0.104483
-0.095622
0.014282
0.308704
0.640482
0.925603
1.142361
1.334095
1.581672
1.936924
2.385328
2.843045
3.188100
3.319991
3.167057
2.690657
1.973065
1.234487
0.690537
0.413688
0.330356
0.317771
0.295154
0.267937
0.321655
0.547982
0.933779
1.313918
1.461558
1.238884
0.678243
-0.066774
-0.878858
-1.748486
-2.624370
-3.298237
-3.565614
-3.434446
-3.090158
-2.713790
-2.389433
-2.128749
-1.908419
-1.691704
-1.446203
-1.155755
-0.834998
-0.525889
-0.279477
-0.158466
-0.220599
-0.437018
-0.629150
-0.552199
-0.072094
0.753386
1.740738
2.716807
3.617049
4.430239
5.061146
5.324188
5.065325
4.253092
3.020457
1.640199
0.387454
-0.577325
-1.213828
-1.556818
-1.652456
-1.522544
-1.216153
-0.854785
-0.526515
-0.167221
0.358388
1.117496
2.102569
3.251532
4.393986
5.241841
5.507544
5.092916
4.241408
3.469312
3.236434
3.660714
4.523139
5.444056
6.085433
6.330243
6.286720
6.126091
5.960307
5.811793
5.648455
5.446069
5.199963
4.875124
4.343352
3.427592
2.116367
0.688831
-0.510982
-1.383525
-2.035222
-2.502002
-2.696366
-2.626349
-2.501888
-2.574780
-2.885957
-3.166136
-3.046503
-2.360670
-1.199557
0.236560
1.768340
3.266937
4.608929
5.636525
6.193375
6.239552
5.923423
5.462793
4.957592
4.363929
3.587758
2.576120
1.394898
0.257361
-0.521874
-0.682866
-0.268000
0.348168
0.792416
1.001872
1.186695
1.559491
2.108413
2.592347
2.741893
2.450694
1.762758
0.775259
-0.347621
-1.351752
-1.987480
-2.077588
-1.509565
-0.318015
1.228665
2.751367
3.980014
4.839391
5.371786
5.628971
5.657151
5.533125
5.365613
5.285412
5.417865
5.818081
6.419845
7.010105
7.268628
6.942595
6.015270
4.665358
3.138425
1.694832
0.510388
-0.446768
-1.324735
-2.132013
-2.627812
-2.503641
-1.674755
-0.374093
1.053416
2.402654
3.608840
4.596528
5.283501
5.684148
5.879085
5.932397
5.866001
5.686599
5.470341
5.340307
5.304680
5.233032
5.003651
4.570759
3.954831
3.252358
2.557671
1.894919
1.296500
0.868030
0.771685
1.151458
1.984314
2.952726
3.529464
3.307283
2.252456
0.620999
-1.313740
-3.401818
-5.480385
-7.195431
-8.104800
-7.992921
-7.023365
-5.572930
-3.953652
-2.239940
-0.323042
1.803683
3.849177
5.370127
6.030729
5.746506
4.697941
3.226290
1.658002
0.125321
-1.440557
-3.113026
-4.842618
-6.493697
-7.923765
-9.030613
-9.764590
-10.153538
-10.313653
-10.317408
-10.013827
-9.101631
-7.396172
-5.018391
-2.413118
-0.139853
1.429104
2.202664
2.248818
1.655783
0.458673
-1.348677
-3.690893
-6.221616
-8.273996
-9.195380
-8.833178
-7.633381
-6.303277
-5.381992
-4.993745
-4.905144
-4.827313
-4.749872
-5.003649
-5.960171
-7.702563
-9.976200
-12.350584
-14.418796
-15.917470
-16.693497
-16.617851
-15.606336
-13.695014
-11.035744
-7.878854
-4.610362
-1.678901
0.618252
2.251080
3.397218
4.353349
5.474736
7.105294
9.431635
12.242482
14.871148
16.511477
16.630188
15.197938
12.614318
9.369790
5.808109
2.169993
-1.315346
-4.416019
-6.862804
-8.317321
-8.435292
-7.001657
-4.151217
-0.573841
2.670441
4.747171
5.500895
5.360979
4.846165
4.169733
3.305300
2.332507
1.616009
1.625196
2.595047
4.364072
6.514492
8.642659
10.504525
11.987768
13.042152
13.625014
13.638234
12.921210
11.365911
9.053656
6.263419
3.249471
-0.034821
-3.853078
-8.299903
-13.042965
-17.412504
-20.764500
-22.796022
-23.610542
-23.536272
-22.821991
-21.535355
-19.695545
-17.360937
-14.616220
-11.564186
-8.383479
-5.349174
-2.705883
-0.557913
1.071355
2.142404
2.611647
2.494858
1.901856
0.972401
-0.281777
-1.939822
-3.929064
-6.009315
-7.981342
-9.774785
-11.436812
-13.104877
-14.837076
-16.404591
-17.335135
-17.193310
-15.837177
-13.525673
-10.844201
-8.437132
-6.782974
-6.133929
-6.425067
-7.243711
-8.090506
-8.725375
-9.198671
-9.570296
-9.733299
-9.526664
-8.911514
-8.040229
-7.252120
-6.992065
-7.579723
-8.988345
-10.859706
-12.644933
-13.748313
-13.723029
-12.439653
-10.110578
-7.157069
-4.016080
-1.011949
1.714154
4.190940
6.480373
8.524997
10.124668
11.062786
11.187540
10.396503
8.708480
6.411005
4.099695
2.487237
2.059383
2.877714
4.685559
7.096210
9.677615
12.007389
13.719585
14.548127
14.422676
13.499209
12.046818
10.348139
8.678585
7.297698
6.427356
6.183606
6.518488
7.217830
7.929623
8.299243
8.140364
7.462640
6.401658
5.202189
4.189655
3.537976
3.088982
2.534495
1.662660
0.420640
-1.117769
-2.856373
-4.806141
-7.104614
-9.860273
-12.924919
-15.835201
-18.053240
-19.270369
-19.463676
-18.719530
-17.064564
-14.538071
-11.396585
-8.138660
-5.308359
-3.249610
-2.017218
-1.463271
-1.382301
-1.648604
-2.237711
-3.129362
-4.218836
-5.273581
-5.942292
-5.896868
-5.027948
-3.516205
-1.780249
-0.284836
0.711849
1.239093
1.504532
1.704045
1.857130
1.806686
1.389426
0.611884
-0.273508
-0.795154
-0.396731
1.290599
4.146649
7.563916
10.782621
13.291116
15.078495
16.485067
17.792885
18.997730
19.879940
20.210297
19.818720
18.554146
16.341492
13.222591
9.327087
4.940000
0.606255
-2.997326
-5.397640
-6.518011
-6.540988
-5.679180
-4.181958
-2.412144
-0.730667
0.606102
1.422609
1.628514
1.272253
0.586973
-0.055047
-0.294115
0.109972
1.208203
2.758510
4.274210
5.297453
5.618152
5.310866
4.714320
4.279321
4.327964
4.970249
6.113529
7.519514
8.957230
10.310158
11.581856
12.845494
14.155993
15.467927
16.607450
17.358028
17.657606
17.689960
17.709209
17.791237
17.741335
17.219580
16.025110
14.282622
12.328095
10.442948
8.668018
6.774673
4.447294
1.563521
-1.733491
-5.158967
-8.385484
-11.147375
-13.376278
-15.239983
-16.993996
-18.744656
-20.375439
-21.637354
-22.277416
-22.178400
-21.424829
-20.329824
-19.366785
-18.863745
-18.741171
-18.549059
-17.712601
-15.843954
-12.939729
-9.378458
-5.768491
-2.665244
-0.317656
1.285018
2.212942
2.570649
2.555010
2.414493
2.292973
2.131952
1.815636
1.281296
0.477586
-0.547578
-1.507727
-1.938019
-1.473600
-0.082725
1.992535
4.406053
6.793928
8.842710
10.387749
11.446868
12.100690
12.375490
12.245175
11.668149
10.658606
9.412342
8.361281
7.989182
8.534417
9.883145
11.674725
13.445818
14.726876
15.164564
14.630537
13.216854
11.203861
8.971576
6.838520
5.001611
3.591021
2.698237
2.380209
2.661997
3.456469
4.534580
5.649003
6.635092
7.403093
7.880796
7.975964
7.558460
6.459586
4.546536
1.866139
-1.249596
-4.260603
-6.633544
-8.020646
-8.369434
-7.916157
-7.013598
-5.959472
-4.952960
-4.068633
-3.237583
-2.324741
-1.170766
0.418265
2.550359
5.088964
7.658526
9.797575
11.138238
11.545255
11.150168
10.183456
8.772711
6.962442
4.834717
2.562630
0.394747
-1.446638
-2.871354
-3.920321
-4.705400
-5.361893
-5.984166
-6.540180
-6.895603
-6.945304
-6.681865
-6.198478
-5.625574
-5.052450
-4.610816
-4.493852
-4.782899
-5.426852
-6.352218
-7.479666
-8.688552
-9.759912
-10.383467
-10.346207
-9.738858
-8.887221
-8.067715
-7.363950
-6.696139
-5.882221
-4.802344
-3.530072
-2.276158
-1.338404
-1.034937
-1.486571
-2.508529
-3.751243
-4.865922
-5.582314
-5.743144
-5.329168
-4.498531
-3.608906
-3.032574
-2.818514
-2.719562
-2.517002
-2.067919
-1.258958
-0.159546
0.939237
1.690077
1.842518
1.338212
0.360877
-0.721364
-1.572494
-2.095523
-2.402928
-2.637017
-2.823608
-2.796312
-2.224466
-0.771442
1.730578
5.197661
9.279972
13.409704
16.943600
19.393131
20.616695
20.793543
20.219467
19.139948
17.669493
15.745902
13.245239
10.174596
6.658134
2.880547
-0.903624
-4.476354
-7.754780
-10.808625
-13.821109
-16.866850
-19.732548
-22.098450
-23.771114
-24.639551
-24.644451
-23.884880
-22.577797
-20.950190
-19.260723
-17.764297
-16.606722
-15.827884
-15.373721
-15.087569
-14.756236
-14.150352
-13.072194
-11.425606
-9.233836
-6.630187
-3.864188
-1.208922
1.165310
3.118461
4.451807
5.005770
4.716747
3.577345
1.703829
-0.567183
-2.748525
-4.375639
-5.125927
-4.824890
-3.406239
-0.890843
2.621138
6.949408
11.854394
17.036255
22.124521
26.762190
30.664761
33.566002
35.210724
35.443966
34.245590
31.653503
27.694551
22.442614
16.161800
9.305845
2.255690
-4.852591
-11.814877
-18.004936
-22.600531
-25.022617
-25.064611
-22.811752
-18.547943
-12.713246
-5.863927
1.381342
8.356067
14.441347
19.247866
22.624620
24.503174
24.858892
23.824121
21.787270
19.323990
16.900309
14.662206
12.588768
10.672856
8.855114
6.973596
4.870435
2.494723
-0.069557
-2.670623
-5.206776
-7.637605
-9.921971
-12.000110
-13.762341
-15.092925
-16.053921
-16.878424
-17.744747
-18.690201
-19.659601
-20.532843
-21.162209
-21.423853
-21.259766
-20.715397
-19.914881
-18.964382
-17.890839
-16.674797
-15.324623
-13.899103
-12.503605
-11.333040
-10.628402
-10.491344
-10.787640
-11.216591
-11.447496
-11.242418
-10.500028
-9.284450
-7.810204
-6.332131
-5.074114
-4.201870
-3.797724
-3.848856
-4.225665
-4.721491
-5.161262
-5.457774
-5.593898
-5.613258
-5.650735
-5.905423
-6.497558
-7.354354
-8.267565
-9.028929
-9.478595
-9.463266
-8.801697
-7.324121
-4.937711
-1.664262
2.308708
6.615983
10.803754
14.426922
17.115183
18.662342
19.076822
18.475735
16.950821
14.606671
11.650475
8.371033
5.076371
2.041018
-0.557447
-2.666504
-4.293137
-5.443034
-6.149843
-6.445212
-6.288277
-5.653038
-4.669958
-3.607313
-2.718250
-2.103778
-1.684526
-1.313022
-0.875494
-0.242934
0.749655
2.242939
4.277400
6.709459
9.334109
12.106149
15.081232
18.224400
21.372734
24.297382
26.809872
28.871370
30.529768
31.742714
32.290405
31.781382
29.803642
26.187140
21.084019
14.816474
7.735508
0.200641
-7.393205
-14.626337
-21.120161
-26.593582
-30.815710
-33.531414
-34.574501
-34.023453
-32.126205
-29.214462
-25.743214
-22.203339
-18.922409
-16.010265
-13.449846
-11.184579
-9.193652
-7.512530
-6.159563
-5.091154
-4.269188
-3.743615
-3.593906
-3.821717
-4.369201
-5.173212
-6.115423
-6.931075
-7.267947
-6.890249
-5.769259
-4.013067
-1.861986
0.292858
2.065668
3.219110
3.616084
3.170783
1.880102
-0.182920
-2.886767
-5.975844
-9.012867
-11.489460
-13.004473
-13.333421
-12.480594
-10.644509
-8.032319
-4.892309
-1.616874
1.437993
4.059178
6.134798
7.685842
8.826324
9.660453
10.252911
10.632249
10.783418
10.669931
10.312286
9.837646
9.442109
9.247659
9.165611
9.009897
8.701497
8.245375
7.588796
6.610686
5.245932
3.544536
1.608845
-0.488427
-2.730384
-5.084588
-7.414790
-9.492143
-11.129765
-12.304065
-13.090676
-13.515759
-13.528024
-13.117242
-12.432801
-11.731829
-11.222861
-10.984488
-10.957309
-11.015278
-11.093038
-11.154069
-11.050870
-10.551303
-9.479385
-7.787322
-5.537695
-2.832611
0.239716
3.591849
7.097449
10.579262
13.807319
16.452742
18.063660
18.183102
16.576651
13.406497
9.187131
4.593952
0.312285
-3.144120
-5.581689
-7.000683
-7.422352
-6.923031
-5.656844
-3.747565
-1.244784
1.774531
5.129705
8.530688
11.577291
13.858321
15.104891
15.275023
14.606588
13.533953
12.440708
11.529566
10.877867
10.461088
10.148446
9.809135
9.401706
8.917797
8.315763
7.550888
6.621531
5.558838
4.389359
3.081956
1.559071
-0.149982
-1.849426
-3.363298
-4.679165
-5.830284
-6.734366
-7.243602
-7.286306
-6.942506
-6.432780
-5.989807
-5.741521
-5.737646
-6.016474
-6.524354
-6.990058
-7.128842
-6.980420
-6.796023
-6.691918
-6.584064
-6.300623
-5.707332
-4.764612
-3.429502
-1.626561
0.633911
3.219603
5.953849
8.667274
11.228388
13.592944
15.746562
17.599070
19.024981
19.957996
20.414413
20.482937
20.312880
20.052980
19.746002
19.334019
18.796404
18.183121
17.466740
16.504601
15.188307
13.519465
11.579034
9.469702
7.275635
5.099002
3.068861
1.301677
-0.105564
-1.135118
-1.922759
-2.681203
-3.584178
-4.744450
-6.192656
-7.863078
-9.656081
-11.478233
-13.178443
-14.549825
-15.505110
-16.106009
-16.342512
-16.104975
-15.387137
-14.309656
-12.997766
-11.541937
-10.023364
-8.558230
-7.256863
-6.108821
-5.023615
-3.949039
-2.859532
-1.733825
-0.590489
0.489456
1.360879
1.907459
2.164285
2.252729
2.252027
2.192575
2.048559
1.755727
1.306976
0.754324
0.148764
-0.450335
-0.977648
-1.405754
-1.742499
-2.033817
-2.353468
-2.692558
-2.913468
-2.810261
-2.177217
-0.942221
0.725401
2.507374
4.185739
5.763415
7.268867
8.581621
9.528912
10.019193
10.117340
9.964954
9.506458
8.554286
7.196314
5.733133
4.307840
2.992575
1.962373
1.311366
0.968892
0.834507
0.848639
0.982997
1.193366
1.436586
1.765913
2.272266
2.902566
3.518072
4.082874
4.598138
4.994281
5.172537
5.039494
4.549308
3.732750
2.666713
1.445932
0.185054
-0.977506
-1.939256
-2.696642
-3.307752
-3.792015
-4.099385
-4.198235
-4.116308
-3.875200
-3.470541
-2.930549
-2.345097
-1.815380
-1.428995
-1.275215
-1.377219
-1.638259
-1.892768
-1.938090
-1.579172
-0.748800
0.435585
1.758746
3.078283
4.377572
5.613346
6.672266
7.532763
8.303342
9.077909
9.833549
10.463086
10.871314
11.035931
10.989704
10.746838
10.245846
9.363585
7.987166
6.088555
3.746251
1.125202
-1.540985
-3.990121
-6.008337
-7.474493
-8.342323
-8.609314
-8.309078
-7.525610
-6.384995
-5.021399
-3.552456
-2.018602
-0.343957
1.511318
3.364010
4.917807
6.007722
6.647582
6.947895
7.009062
6.850409
6.444932
5.797689
5.012011
4.247111
3.629617
3.279903
3.264991
3.505158
3.894672
4.381335
4.869856
5.247179
5.465056
5.555082
5.580721
5.420193
4.857191
3.977774
2.960771
1.760139
0.395220
-0.951131
-2.221146
-3.482774
-4.687316
-5.689296
-6.449896
-7.056101
-7.659291
-8.436860
-9.425506
-10.390826
-11.057232
-11.380781
-11.449570
-11.290036
-10.822278
-9.970926
-8.821550
-7.561423
-6.304857
-5.034904
