EVENT_NAME: EMILIA_2ND_SHOCK
EVENT_ID: IT-2012-0011
EVENT_DATE_YYYYMMDD: 20120529
EVENT_TIME_HHMMSS: 070002
EVENT_LATITUDE_DEGREE: 44.8417
EVENT_LONGITUDE_DEGREE: 11.0657
EVENT_DEPTH_KM: 8.1
HYPOCENTER_REFERENCE: INGV-CNT_Seismic_Bulletin
MAGNITUDE_W: 6.0
MAGNITUDE_W_REFERENCE: RCMT-INGV
MAGNITUDE_L: 5.8
MAGNITUDE_L_REFERENCE: INGV-CNT_Seismic_Bulletin
FOCAL_MECHANISM: TF
NETWORK: IT
STATION_CODE: BON0
STATION_NAME: BONDENO
STATION_LATITUDE_DEGREE: 44.886000
STATION_LONGITUDE_DEGREE: 11.418000
STATION_ELEVATION_M: 65
LOCATION: 
SENSOR_DEPTH_M: 0.0
VS30_M/S: 
SITE_CLASSIFICATION_EC8: C*
MORPHOLOGIC_CLASSIFICATION: 
EPICENTRAL_DISTANCE_KM: 28.3
EARTHQUAKE_BACKAZIMUTH_DEGREE: 260.1
DATE_TIME_FIRST_SAMPLE_YYYYMMDD_HHMMSS: 20120529_070003.000
DATE_TIME_FIRST_SAMPLE_PRECISION: seconds
SAMPLING_INTERVAL_S: 0.005000
NDATA: 22001
DURATION_S: 110.005
STREAM: HNN
UNITS: cm/s^2
INSTRUMENT: sensor = Episensor FBA ES-T [Kinemetrics] | digitizer = Etna [Kinemetrics]
INSTRUMENT_ANALOG/DIGITAL: D
INSTRUMENTAL_FREQUENCY_HZ: 
INSTRUMENTAL_DAMPING: 
FULL_SCALE_G: 
N_BIT_DIGITAL_CONVERTER: 18
PGA_CM/S^2: 25.418964
TIME_PGA_S: 13.690000
BASELINE_CORRECTION: BASELINE REMOVED
FILTER_TYPE: BUTTERWORTH
FILTER_ORDER: 2
LOW_CUT_FREQUENCY_HZ: 0.050
HIGH_CUT_FREQUENCY_HZ: 40.000
LATE/NORMAL_TRIGGERED: NT
DATABASE_VERSION: DYNA 1.0
HEADER_FORMAT: DYNA 1.2
DATA_TYPE: ACCELERATION
PROCESSING: manual (Paolucci et al., 2011)
DATA_TIMESTAMP_YYYYMMDD_HHMMSS: 
DATA_LICENSE: CC-BY3_0-IT (http://creativecommons.org/licenses/by/3.0/deed.en)
DATA_CITATION: ESM working group (2015), European Strong-Motion database, version 0.1, Network Activity 3: Networking acceleration networks and SM data users. Project NERA (www.nera-eu.org)
DATA_CREATOR: ESM working group
ORIGINAL_DATA_MEDIATOR_CITATION: Ufficio Rischio Sismico e Vulcanico del Dipartimento della Protezione Civile (http://www.protezionecivile.gov.it/)
ORIGINAL_DATA_MEDIATOR: Rete Accelerometrica Nazionale - RAN Download (http://www.mot1.it/randownload/)
ORIGINAL_DATA_CREATOR_CITATION: Italian Strong Motion Network, Italian Civil Protection Department http://www.protezionecivile.gov.it
ORIGINAL_DATA_CREATOR: network: IT (Italian Strong Motion Network); owner: Dipartimento Della Protezione Civile
USER1: 
USER2: 
USER3: 
USER4: 
USER5: 
[...]
0.167623
0.118116
0.072522
0.041358
0.025884
0.023931
0.035871
0.065737
0.118544
0.193316
0.274923
0.337968
0.367003
0.365209
0.335111
0.263730
0.138976
-0.019611
-0.155984
-0.218107
-0.202005
-0.149589
-0.109574
-0.099210
-0.094961
-0.058315
0.026403
0.136927
0.235254
0.300410
0.331758
0.326192
0.272259
0.174008
0.065318
-0.012538
-0.049573
-0.076605
-0.124701
-0.184477
-0.220044
-0.206990
-0.145013
-0.051527
0.047467
0.129510
0.183626
0.207093
0.201355
0.174255
0.138226
0.100910
0.060936
0.015193
-0.034316
-0.080957
-0.118384
-0.152966
-0.203037
-0.269385
-0.322704
-0.333766
-0.300568
-0.237105
-0.149932
-0.043421
0.059978
0.128591
0.150952
0.142364
0.125670
0.112801
0.099089
0.071902
0.027105
-0.024854
-0.069004
-0.099572
-0.123339
-0.144255
-0.149621
-0.126995
-0.086549
-0.050080
-0.023870
0.006308
0.051935
0.104804
0.152020
0.188777
0.201499
0.167564
0.095370
0.034386
0.021681
0.042226
0.054491
0.036566
-0.001967
-0.038990
-0.055942
-0.045949
-0.019184
0.006483
0.023790
0.040724
0.065923
0.094386
0.115989
0.134674
0.164179
0.201992
0.221986
0.199232
0.130578
0.026335
-0.103647
-0.242221
-0.354388
-0.408391
-0.404100
-0.364499
-0.310282
-0.251621
-0.190681
-0.125721
-0.057492
0.005553
0.051071
0.075889
0.090122
0.102817
0.108565
0.095607
0.064316
0.024622
-0.025840
-0.101460
-0.195975
-0.270458
-0.290310
-0.252400
-0.168019
-0.051727
0.064526
0.131792
0.115617
0.027141
-0.084992
-0.171795
-0.203591
-0.166567
-0.070948
0.036344
0.094505
0.070274
-0.029254
-0.168341
-0.300157
-0.387636
-0.411831
-0.365480
-0.250386
-0.082729
0.101750
0.253473
0.328938
0.314250
0.232061
0.117035
-0.014160
-0.156272
-0.286529
-0.366854
-0.378645
-0.335433
-0.257291
-0.147065
-0.000011
0.164631
0.292999
0.324537
0.232238
0.047390
-0.150624
-0.280538
-0.307414
-0.254092
-0.174450
-0.120941
-0.123002
-0.169784
-0.211353
-0.197390
-0.124819
-0.040157
0.010447
0.025392
0.032930
0.043643
0.039611
0.009157
-0.031962
-0.062028
-0.078789
-0.091116
-0.095227
-0.073885
-0.019095
0.051644
0.104207
0.110115
0.062888
-0.011547
-0.063999
-0.065856
-0.036247
-0.009275
0.007237
0.028842
0.067316
0.117045
0.158288
0.165961
0.126259
0.050999
-0.034355
-0.115802
-0.192455
-0.255372
-0.277240
-0.232786
-0.132006
-0.032396
-0.013444
-0.123005
-0.331016
-0.534190
-0.621635
-0.545670
-0.335448
-0.064884
0.182830
0.336275
0.347109
0.208451
-0.033979
-0.303799
-0.526715
-0.654422
-0.682552
-0.642886
-0.565265
-0.448836
-0.281699
-0.085380
0.086173
0.196239
0.259521
0.327577
0.436795
0.565724
0.653569
0.657500
0.571847
0.401939
0.155029
-0.145408
-0.456501
-0.721866
-0.886501
-0.922307
-0.841070
-0.681439
-0.477182
-0.235376
0.046697
0.345243
0.605769
0.782955
0.867718
0.862349
0.755591
0.542666
0.252844
-0.058514
-0.339388
-0.550469
-0.659011
-0.650112
-0.539495
-0.363019
-0.152833
0.079782
0.335406
0.595218
0.802040
0.881849
0.795795
0.575729
0.301392
0.038003
-0.195851
-0.402997
-0.575973
-0.699709
-0.768635
-0.779716
-0.710468
-0.537420
-0.285563
-0.034152
0.133036
0.182415
0.142039
0.069254
0.019080
0.017823
0.036441
0.010361
-0.092582
-0.232693
-0.336052
-0.366955
-0.347682
-0.308679
-0.248885
-0.152823
-0.017762
0.146665
0.327266
0.512417
0.694741
0.861869
0.982234
1.009864
0.917307
0.727050
0.497676
0.280990
0.104671
-0.012671
-0.040788
0.061532
0.301883
0.609193
0.863979
0.977159
0.937275
0.798303
0.625176
0.456652
0.318329
0.236420
0.217564
0.227417
0.209342
0.129457
-0.005193
-0.165792
-0.322748
-0.452579
-0.541823
-0.582208
-0.548274
-0.401768
-0.150248
0.116992
0.290886
0.346282
0.364494
0.447686
0.618344
0.799443
0.894670
0.885483
0.826133
0.757176
0.669026
0.541157
0.373383
0.182924
0.002049
-0.132403
-0.196863
-0.172653
-0.039271
0.211216
0.551680
0.896977
1.140009
1.231048
1.192635
1.082157
0.965703
0.883808
0.814329
0.702221
0.546218
0.418821
0.378520
0.402113
0.430761
0.452792
0.510138
0.635633
0.812534
0.995898
1.150045
1.254163
1.288039
1.230822
1.069915
0.807328
0.475194
0.152692
-0.061779
-0.116121
-0.028697
0.149561
0.368494
0.575347
0.716221
0.767276
0.755462
0.729073
0.706706
0.655075
0.512355
0.243669
-0.128776
-0.535583
-0.864153
-0.991483
-0.856237
-0.488553
0.008901
0.500284
0.878039
1.109474
1.219607
1.228686
1.134712
0.963253
0.777219
0.602845
0.379804
0.026137
-0.446926
-0.912160
-1.220683
-1.294780
-1.136318
-0.805465
-0.411787
-0.063838
0.194672
0.378858
0.525773
0.687745
0.921278
1.229721
1.525722
1.695657
1.691193
1.530277
1.242390
0.860515
0.455071
0.123963
-0.081592
-0.208875
-0.347561
-0.523643
-0.682535
-0.761294
-0.743494
-0.659868
-0.538259
-0.351364
-0.064309
0.273534
0.546337
0.675982
0.682592
0.638821
0.589496
0.553978
0.570582
0.687830
0.927083
1.258208
1.591224
1.798242
1.773692
1.505063
1.089132
0.652042
0.266231
-0.033414
-0.223454
-0.318433
-0.355367
-0.345999
-0.268666
-0.090950
0.176404
0.456031
0.670055
0.794727
0.843473
0.831241
0.752715
0.597408
0.384433
0.157885
-0.041549
-0.188046
-0.277701
-0.310823
-0.253052
-0.062772
0.234094
0.532000
0.694929
0.605043
0.215763
-0.378284
-0.941497
-1.233300
-1.172042
-0.871689
-0.521522
-0.241664
-0.061679
0.008733
-0.048652
-0.212644
-0.398088
-0.525710
-0.609070
-0.741459
-0.984682
-1.283477
-1.507859
-1.574463
-1.512123
-1.396720
-1.233915
-0.970324
-0.615095
-0.265061
-0.020344
0.072759
0.027620
-0.096448
-0.224705
-0.301102
-0.313582
-0.291109
-0.254451
-0.178938
-0.037312
0.130077
0.229900
0.212227
0.128416
0.079236
0.123270
0.267266
0.517542
0.876216
1.311001
1.767938
2.175563
2.443454
2.513944
2.415818
2.240604
2.050489
1.814614
1.465155
1.004564
0.528430
0.171235
0.018678
0.023796
0.042343
-0.033469
-0.207965
-0.408036
-0.534044
-0.524973
-0.422181
-0.361813
-0.481106
-0.839209
-1.416738
-2.150792
-2.959465
-3.736997
-4.348878
-4.683082
-4.715561
-4.501901
-4.122499
-3.667770
-3.242306
-2.930267
-2.765383
-2.742258
-2.832569
-2.998645
-3.227184
-3.545253
-3.958700
-4.366886
-4.575119
-4.417464
-3.870840
-3.043801
-2.069476
-1.043927
-0.051711
0.807101
1.434697
1.784309
1.905096
1.929438
1.987188
2.092181
2.103045
1.832089
1.207200
0.326011
-0.616694
-1.423135
-1.953562
-2.180091
-2.196360
-2.134599
-2.059515
-1.937059
-1.698916
-1.325651
-0.860545
-0.369150
0.098799
0.517075
0.845441
0.990347
0.831881
0.295534
-0.590441
-1.668273
-2.669151
-3.306651
-3.413998
-3.012502
-2.255890
-1.330467
-0.417691
0.303878
0.727987
0.902537
0.954939
0.928545
0.751750
0.344845
-0.285514
-1.011004
-1.625719
-1.979715
-2.080248
-2.035979
-1.893553
-1.588044
-1.104386
-0.601431
-0.310553
-0.373356
-0.774764
-1.343840
-1.822674
-2.006367
-1.838792
-1.371687
-0.671505
0.195014
1.128875
2.005644
2.712349
3.186567
3.432037
3.476735
3.299074
2.830246
2.049427
1.047455
-0.000820
-0.934665
-1.683019
-2.190307
-2.307999
-1.872798
-0.884546
0.439669
1.765503
2.805977
3.425462
3.589713
3.252009
2.354586
0.964666
-0.651422
-2.162368
-3.354133
-4.141416
-4.466185
-4.266650
-3.548040
-2.434189
-1.112316
0.257841
1.551742
2.636695
3.401830
3.831647
3.992680
3.957519
3.766765
3.414095
2.832458
1.963137
0.886064
-0.187821
-1.078034
-1.727368
-2.155110
-2.385467
-2.424748
-2.282857
-1.985861
-1.559775
-1.044497
-0.532592
-0.150831
0.026658
0.058865
0.129443
0.431603
1.026961
1.802821
2.557986
3.118829
3.401492
3.407683
3.174880
2.752004
2.227706
1.706525
1.227765
0.756551
0.243073
-0.324319
-0.908504
-1.461911
-1.957370
-2.404459
-2.858534
-3.356477
-3.824404
-4.104952
-4.098209
-3.855872
-3.514212
-3.135595
-2.632274
-1.831496
-0.640469
0.799400
2.142234
3.047631
3.384886
3.274736
2.955257
2.633681
2.435289
2.396344
2.480693
2.634848
2.817726
2.966768
2.990911
2.840613
2.546800
2.161419
1.696388
1.176752
0.736704
0.547004
0.609347
0.735458
0.784325
0.845140
1.134292
1.745092
2.526555
3.171374
3.387525
3.020721
2.112280
0.882647
-0.372907
-1.372145
-1.897413
-1.868677
-1.385509
-0.690074
-0.055585
0.339848
0.485006
0.519656
0.621078
0.885143
1.287100
1.715598
2.044174
2.183860
2.110019
1.871988
1.571465
1.340214
1.305219
1.512215
1.879833
2.239562
2.428612
2.367747
2.085187
1.709912
1.433478
1.426276
1.750973
2.331592
3.012211
3.654594
4.160673
4.430719
4.379344
3.986368
3.293099
2.411882
1.553961
0.959305
0.765329
0.917099
1.167894
1.225474
0.956164
0.429379
-0.206094
-0.818224
-1.292086
-1.532861
-1.530786
-1.398593
-1.278856
-1.213645
-1.125322
-0.899535
-0.483495
0.067585
0.627490
1.090599
1.413980
1.546505
1.395884
0.962815
0.455029
0.206334
0.475286
1.257144
2.273933
3.195680
3.869237
4.336797
4.685038
4.910241
4.922813
4.676342
4.272013
3.910270
3.738510
3.735163
3.736025
3.570893
3.188749
2.680507
2.174173
1.717322
1.270127
0.783135
0.279299
-0.131553
-0.339776
-0.346669
-0.257892
-0.160833
-0.045135
0.154447
0.468553
0.842562
1.150278
1.267176
1.131605
0.750463
0.225383
-0.238801
-0.458923
-0.418698
-0.255808
-0.135059
-0.143399
-0.247375
-0.342940
-0.405118
-0.596292
-1.187376
-2.328133
-3.860535
-5.356785
-6.389204
-6.829739
-6.880178
-6.780115
-6.527260
-5.949710
-5.042900
-4.102782
-3.432973
-2.996640
-2.462485
-1.609302
-0.624552
0.048650
0.114268
-0.386278
-1.228841
-2.260135
-3.482887
-4.907512
-6.353521
-7.485368
-8.090059
-8.228589
-8.070701
-7.695184
-7.099873
-6.306409
-5.376989
-4.360939
-3.297111
-2.273796
-1.409298
-0.758546
-0.322914
-0.098316
-0.025719
0.010012
0.110360
0.323336
0.607180
0.837062
0.867515
0.609003
0.119648
-0.411306
-0.864574
-1.336426
-2.025742
-3.025718
-4.221199
-5.334540
-6.131988
-6.620648
-6.984423
-7.356425
-7.714483
-7.956209
-8.010562
-7.851552
-7.444990
-6.757454
-5.805186
-4.645287
-3.338840
-1.950869
-0.574419
0.652694
1.538080
1.852742
1.417995
0.239403
-1.402497
-3.006638
-4.078892
-4.360630
-3.843989
-2.670497
-1.077748
0.666698
2.336988
3.785979
4.964609
5.849626
6.367188
6.494129
6.382996
6.275064
6.340903
6.662967
7.262444
8.077384
8.999999
9.967655
10.962084
11.924930
12.719416
13.176074
13.194622
12.810730
12.098755
11.022394
9.506252
7.661842
5.814280
4.234352
2.885010
1.515411
0.002873
-1.465085
-2.546817
-3.069711
-3.207344
-3.327507
-3.669465
-4.182558
-4.681801
-5.122757
-5.687900
-6.670066
-8.284316
-10.476759
-12.895636
-15.103427
-16.835005
-18.091133
-19.008263
-19.602720
-19.660950
-18.984203
-17.704115
-16.225517
-14.895156
-13.799429
-12.842891
-11.935205
-11.058290
-10.211081
-9.424770
-8.858670
-8.686514
-8.835619
-8.983358
-8.789403
-8.100047
-7.007127
-5.778828
-4.756734
-4.193718
-4.102346
-4.331374
-4.734964
-5.170439
-5.452628
-5.406555
-4.900535
-3.886583
-2.495475
-0.999268
0.329638
1.265918
1.675606
1.610968
1.269042
0.819044
0.297264
-0.347338
-1.118862
-1.927761
-2.710814
-3.548256
-4.630410
-6.110694
-7.984485
-10.094813
-12.189404
-13.960856
-15.169950
-15.790259
-15.967047
-15.869188
-15.600032
-15.152249
-14.398308
-13.147751
-11.263634
-8.775674
-5.875053
-2.771731
0.415494
3.613260
6.674292
9.350162
11.404156
12.706830
13.271311
13.267426
12.883766
12.161918
11.052804
9.539730
7.659778
5.498324
3.172741
0.769823
-1.718179
-4.372749
-7.237228
-10.238481
-13.217075
-15.966947
-18.184448
-19.445665
-19.379536
-17.917152
-15.343546
-12.071766
-8.382262
-4.409264
-0.274205
3.894390
8.047458
12.196578
16.221022
19.763952
22.385117
23.757420
23.750866
22.440241
20.081219
17.068338
13.818391
10.615890
7.561186
4.597502
1.558538
-1.704593
-5.166704
-8.570018
-11.496225
-13.549305
-14.540863
-14.543080
-13.825198
-12.729425
-11.510468
-10.261278
-8.974251
-7.574117
-5.881176
-3.653284
-0.749724
2.707945
6.342973
9.718076
12.577868
14.952503
17.030485
18.976181
20.848368
22.541529
23.784628
24.269789
23.770735
22.205149
19.720383
16.686171
13.522071
10.541451
7.869003
5.427984
3.106420
0.950330
-0.881609
-2.324458
-3.496522
-4.601579
-5.810241
-7.192976
-8.695283
-10.195868
-11.626023
-13.026397
-14.424016
-15.700067
-16.683817
-17.277180
-17.432928
-17.094023
-16.130833
-14.357748
-11.649268
-7.979343
-3.437285
1.631883
6.582190
10.722909
13.641846
15.369690
16.367579
17.202209
18.006849
18.354509
17.736633
15.990762
13.304932
10.017382
6.419490
2.753347
-0.625305
-3.301213
-5.111561
-6.268769
-7.161934
-8.103571
-9.138736
-9.977669
-10.138306
-9.194345
-6.946902
-3.471091
0.886606
5.527149
9.677916
12.561877
13.603693
12.582819
9.694418
5.471813
0.622934
-4.126311
-8.218991
-11.380468
-13.512016
-14.492396
-14.115283
-12.277701
-9.229299
-5.536624
-1.820764
1.395039
3.685119
4.738758
4.471409
3.153217
1.381475
-0.142938
-0.907155
-0.759639
0.192795
1.827510
4.087086
6.875317
9.992094
13.183804
16.216244
18.968699
21.439592
23.547672
24.994188
25.418964
24.683977
22.977201
20.652374
18.005886
15.172192
12.178776
9.128649
6.334031
4.221442
3.098260
2.978894
3.590036
4.579229
5.711769
6.863183
7.960909
8.991856
9.941212
10.685755
11.018755
10.762884
9.826129
8.211191
6.068753
3.732648
1.604993
-0.014780
-1.005758
-1.382305
-1.170957
-0.323061
1.221159
3.338606
5.645633
7.686299
9.148067
9.926167
10.121839
9.998933
9.847563
9.781961
9.615655
8.979640
7.615095
5.587231
3.272429
1.144017
-0.452457
-1.364601
-1.573629
-1.104305
0.035749
1.828191
4.147136
6.739043
9.321500
11.674532
13.676793
15.293247
16.519468
17.353403
17.822956
18.018333
18.060768
18.018061
17.860729
17.489683
16.824060
15.864482
14.618203
12.992897
10.826709
8.021509
4.647372
0.930802
-2.883801
-6.671405
-10.372223
-13.813120
-16.697218
-18.779850
-19.955250
-20.254765
-19.885115
-19.133604
-18.164808
-16.978609
-15.471512
-13.461004
-10.750951
-7.252038
-3.039011
1.644506
6.360500
10.518188
13.542173
15.085457
15.121516
13.816684
11.388646
8.094270
4.214630
-0.004657
-4.369416
-8.633555
-12.392330
-15.154126
-16.482344
-16.082764
-13.904255
-10.241735
-5.742825
-1.239165
2.587834
5.443527
7.347752
8.451551
8.913811
8.813922
8.147766
6.883792
5.042541
2.797720
0.464919
-1.593748
-3.060256
-3.825261
-4.017560
-3.772172
-3.117284
-2.090234
-0.805574
0.595822
1.986649
3.217601
4.101396
4.511662
4.416674
3.743176
2.343260
0.158243
-2.601999
-5.495016
-8.120892
-10.235118
-11.620681
-12.058680
-11.478325
-10.058392
-8.041622
-5.563057
-2.857808
-0.431803
1.156598
1.576646
0.807913
-0.886349
-3.051842
-5.216520
-7.033044
-8.321007
-9.055430
-9.281388
-8.995505
-8.144010
-6.679435
-4.558756
-1.794302
1.426863
4.748717
7.797179
10.286792
12.006819
12.809267
12.660474
11.658551
9.939014
7.539894
4.450300
0.840473
-2.844152
-5.992030
-8.012407
-8.545455
-7.574359
-5.395244
-2.483591
0.678679
3.708315
6.397067
8.742750
10.817556
12.611364
14.005571
14.833930
15.011221
14.630989
13.865952
12.823589
11.573841
10.159093
8.498141
6.441365
3.899641
0.883954
-2.397625
-5.550932
-8.241814
-10.301566
-11.642730
-12.245467
-12.158601
-11.413345
-9.970594
-7.811401
-5.042128
-1.872014
1.423586
4.503270
7.043735
8.842356
9.826783
10.030189
9.575765
8.666603
7.550426
6.444367
5.461868
4.572763
3.638334
2.486732
0.936003
-1.196914
-4.011895
-7.431870
-11.240137
-15.150916
-18.778948
-21.656761
-23.344213
-23.496738
-21.951666
-18.894190
-14.914410
-10.772535
-7.058018
-4.102172
-2.073668
-1.017703
-0.905772
-1.673544
-3.157819
-5.055529
-6.966494
-8.476434
-9.244540
-9.064698
-7.903783
-5.909876
-3.353974
-0.575512
1.988779
3.881935
4.844420
4.863115
4.065503
2.666759
0.945661
-0.781950
-2.206293
-3.118599
-3.475448
-3.321834
-2.665500
-1.498442
0.048358
1.598679
2.602175
2.568502
1.323854
-0.883348
-3.513176
-6.002136
-7.967735
-9.242495
-9.801932
-9.718718
-9.173608
-8.440615
-7.775582
-7.288345
-6.940053
-6.603855
-6.102998
-5.299053
-4.184701
-2.904009
-1.730299
-0.943488
-0.670549
-0.862611
-1.329865
-1.757956
-1.779094
-1.090053
0.434614
2.696039
5.431169
8.298761
10.910610
12.867321
13.858770
13.764781
12.675774
10.835201
8.572101
6.249102
4.201503
2.684034
1.842816
1.699094
2.135306
2.913922
3.759350
4.426764
4.648571
4.054008
2.280137
-0.761135
-4.744710
-9.053727
-12.999647
-16.015745
-17.787529
-18.254047
-17.571253
-16.069780
-14.087628
-11.816135
-9.334805
-6.694880
-3.984668
-1.454477
0.503028
1.601125
1.783791
1.128236
-0.211682
-1.948257
-3.670245
-5.010202
-5.818122
-6.182238
-6.298073
-6.328860
-6.378109
-6.484877
-6.559510
-6.390797
-5.801141
-4.800536
-3.559191
-2.237762
-0.955231
0.065544
0.540969
0.374061
-0.266956
-1.081849
-1.840811
-2.560528
-3.486487
-4.863628
-6.716999
-8.804533
-10.725107
-12.157457
-13.068192
-13.641332
-14.040544
-14.293629
-14.362921
-14.179434
-13.542983
-12.154059
-9.777935
-6.317586
-1.847694
3.337770
8.754055
13.828196
17.986914
20.768684
21.954697
21.544619
19.643028
16.450041
12.311676
7.740998
3.344151
-0.354497
-3.028620
-4.567421
-5.048493
-4.658540
-3.629171
-2.177396
-0.425584
1.559914
3.622498
5.471893
6.811408
7.498770
7.633446
7.585383
7.920315
9.137582
11.372583
14.333515
17.478609
20.227999
22.085085
22.720360
22.098192
20.475494
18.105551
14.995436
11.070542
6.495260
1.799962
-2.268929
-5.129625
-6.662428
-7.128206
-6.914147
-6.364669
-5.693988
-5.013661
-4.451056
-4.218263
-4.557257
-5.580368
-7.182844
-9.138523
-11.181627
-13.024307
-14.470786
-15.445252
-15.817195
-15.409973
-14.226521
-12.458811
-10.293622
-7.830756
-5.164019
-2.479410
-0.052362
1.838084
2.994621
3.333919
2.905613
1.940197
0.832629
0.002943
-0.290532
-0.074219
0.369365
0.669676
0.561255
0.023676
-0.654247
-0.969368
-0.491587
0.889313
2.989454
5.478274
7.959757
10.041334
11.374298
11.632529
10.564576
8.172824
4.823891
1.071322
-2.660487
-6.118278
-9.027426
-11.078427
-12.062937
-11.946257
-10.919720
-9.352856
-7.590844
-5.824138
-4.127010
-2.523868
-0.998716
0.509067
2.064505
3.673114
5.304312
6.965796
8.643140
10.188523
11.349101
11.878646
11.597349
10.328469
7.896185
4.384627
0.209763
-4.199357
-8.419645
-11.871493
-14.107188
-15.047590
-14.848285
-13.791217
-12.152775
-10.038835
-7.486501
-4.676370
-1.903900
0.566004
2.546612
3.943357
4.762498
5.087968
5.046492
4.770220
4.393587
4.080160
4.028839
4.380802
5.016337
5.587032
5.860155
5.822730
5.496260
4.896413
4.095979
3.155675
2.032007
