EVENT_NAME: EMILIA_2ND_SHOCK
EVENT_ID: IT-2012-0011
EVENT_DATE_YYYYMMDD: 20120529
EVENT_TIME_HHMMSS: 070002
EVENT_LATITUDE_DEGREE: 44.8417
EVENT_LONGITUDE_DEGREE: 11.0657
EVENT_DEPTH_KM: 8.1
HYPOCENTER_REFERENCE: INGV-CNT_Seismic_Bulletin
MAGNITUDE_W: 6.0
MAGNITUDE_W_REFERENCE: RCMT-INGV
MAGNITUDE_L: 5.8
MAGNITUDE_L_REFERENCE: INGV-CNT_Seismic_Bulletin
FOCAL_MECHANISM: TF
NETWORK: IT
STATION_CODE: BON0
STATION_NAME: BONDENO
STATION_LATITUDE_DEGREE: 44.886000
STATION_LONGITUDE_DEGREE: 11.418000
STATION_ELEVATION_M: 65
LOCATION: 
SENSOR_DEPTH_M: 0.0
VS30_M/S: 
SITE_CLASSIFICATION_EC8: C*
MORPHOLOGIC_CLASSIFICATION: 
EPICENTRAL_DISTANCE_KM: 28.3
EARTHQUAKE_BACKAZIMUTH_DEGREE: 260.1
DATE_TIME_FIRST_SAMPLE_YYYYMMDD_HHMMSS: 20120529_070003.000
DATE_TIME_FIRST_SAMPLE_PRECISION: seconds
SAMPLING_INTERVAL_S: 0.005000
NDATA: 22001
DURATION_S: 110.005
STREAM: HNN
UNITS: cm
INSTRUMENT: sensor = Episensor FBA ES-T [Kinemetrics] | digitizer = Etna [Kinemetrics]
INSTRUMENT_ANALOG/DIGITAL: D
INSTRUMENTAL_FREQUENCY_HZ: 
INSTRUMENTAL_DAMPING: 
FULL_SCALE_G: 
N_BIT_DIGITAL_CONVERTER: 18
PGD_CM: -1.571479
TIME_PGD_S: 13.755000
BASELINE_CORRECTION: BASELINE REMOVED
FILTER_TYPE: BUTTERWORTH
FILTER_ORDER: 2
LOW_CUT_FREQUENCY_HZ: 0.050
HIGH_CUT_FREQUENCY_HZ: 40.000
LATE/NORMAL_TRIGGERED: NT
DATABASE_VERSION: DYNA 1.0
HEADER_FORMAT: DYNA 1.2
DATA_TYPE: DISPLACEMENT
PROCESSING: manual (Paolucci et al., 2011)
DATA_TIMESTAMP_YYYYMMDD_HHMMSS: 
DATA_LICENSE: CC-BY3_0-IT (http://creativecommons.org/licenses/by/3.0/deed.en)
DATA_CITATION: ESM working group (2015), European Strong-Motion database, version 0.1, Network Activity 3: Networking acceleration networks and SM data users. Project NERA (www.nera-eu.org)
DATA_CREATOR: ESM working group
ORIGINAL_DATA_MEDIATOR_CITATION: Ufficio Rischio Sismico e Vulcanico del Dipartimento della Protezione Civile (http://www.protezionecivile.gov.it/)
ORIGINAL_DATA_MEDIATOR: Rete Accelerometrica Nazionale - RAN Download (http://www.mot1.it/randownload/)
ORIGINAL_DATA_CREATOR_CITATION: Italian Strong Motion Network, Italian Civil Protection Department http://www.protezionecivile.gov.it
ORIGINAL_DATA_CREATOR: network: IT (Italian Strong Motion Network); owner: Dipartimento Della Protezione Civile
USER1: 
USER2: 
USER3: 
USER4: 
USER5: 
[...]
3.112553e-02
3.121619e-02
3.131412e-02
3.142072e-02
3.153642e-02
3.166332e-02
3.180567e-02
3.196801e-02
3.215272e-02
3.235956e-02
3.258706e-02
3.283349e-02
3.309664e-02
3.337333e-02
3.365934e-02
3.394993e-02
3.424057e-02
3.452790e-02
3.481031e-02
3.508841e-02
3.536552e-02
3.564791e-02
3.594409e-02
3.626270e-02
3.660981e-02
3.698769e-02
3.739539e-02
3.783015e-02
3.828904e-02
3.877004e-02
3.927139e-02
3.979029e-02
4.032285e-02
4.086589e-02
4.141838e-02
4.198093e-02
4.255424e-02
4.313888e-02
4.373627e-02
4.434955e-02
4.498315e-02
4.564164e-02
4.632888e-02
4.704748e-02
4.779827e-02
4.857984e-02
4.938816e-02
5.021666e-02
5.105704e-02
5.190123e-02
5.274389e-02
5.358363e-02
5.442267e-02
5.526544e-02
5.611742e-02
5.698379e-02
5.786806e-02
5.877151e-02
5.969385e-02
6.063442e-02
6.159266e-02
6.256727e-02
6.355469e-02
6.454820e-02
6.553849e-02
6.651540e-02
6.747070e-02
6.840121e-02
6.931032e-02
7.020721e-02
7.110432e-02
7.201395e-02
7.294552e-02
7.390483e-02
7.489463e-02
7.591515e-02
7.696403e-02
7.803700e-02
7.912940e-02
8.023687e-02
8.135383e-02
8.247145e-02
8.357789e-02
8.466153e-02
8.571465e-02
8.673541e-02
8.772775e-02
8.869996e-02
8.966187e-02
9.062219e-02
9.158738e-02
9.256203e-02
9.354983e-02
9.455483e-02
9.558285e-02
9.664162e-02
9.773854e-02
9.887784e-02
1.000594e-01
1.012793e-01
1.025302e-01
1.038026e-01
1.050864e-01
1.063733e-01
1.076581e-01
1.089377e-01
1.102087e-01
1.114665e-01
1.127073e-01
1.139291e-01
1.151322e-01
1.163189e-01
1.174921e-01
1.186565e-01
1.198193e-01
1.209890e-01
1.221723e-01
1.233725e-01
1.245898e-01
1.258231e-01
1.270710e-01
1.283329e-01
1.296090e-01
1.309023e-01
1.322188e-01
1.335667e-01
1.349544e-01
1.363871e-01
1.378641e-01
1.393787e-01
1.409206e-01
1.424787e-01
1.440436e-01
1.456075e-01
1.471659e-01
1.487164e-01
1.502579e-01
1.517908e-01
1.533170e-01
1.548409e-01
1.563693e-01
1.579090e-01
1.594655e-01
1.610418e-01
1.626392e-01
1.642575e-01
1.658945e-01
1.675464e-01
1.692080e-01
1.708735e-01
1.725380e-01
1.741978e-01
1.758507e-01
1.774957e-01
1.791345e-01
1.807716e-01
1.824147e-01
1.840710e-01
1.857447e-01
1.874335e-01
1.891277e-01
1.908125e-01
1.924737e-01
1.941041e-01
1.957052e-01
1.972845e-01
1.988508e-01
2.004110e-01
2.019697e-01
2.035286e-01
2.050863e-01
2.066386e-01
2.081810e-01
2.097103e-01
2.112243e-01
2.127198e-01
2.141907e-01
2.156295e-01
2.170306e-01
2.183924e-01
2.197163e-01
2.210053e-01
2.222635e-01
2.234974e-01
2.247160e-01
2.259279e-01
2.271393e-01
2.283525e-01
2.295664e-01
2.307779e-01
2.319838e-01
2.331822e-01
2.343727e-01
2.355559e-01
2.367328e-01
2.379052e-01
2.390767e-01
2.402514e-01
2.414319e-01
2.426177e-01
2.438067e-01
2.449976e-01
2.461917e-01
2.473924e-01
2.486061e-01
2.498417e-01
2.511100e-01
2.524226e-01
2.537895e-01
2.552175e-01
2.567084e-01
2.582597e-01
2.598670e-01
2.615255e-01
2.632294e-01
2.649700e-01
2.667356e-01
2.685145e-01
2.702976e-01
2.720812e-01
2.738654e-01
2.756507e-01
2.774351e-01
2.792144e-01
2.809834e-01
2.827391e-01
2.844816e-01
2.862136e-01
2.879366e-01
2.896475e-01
2.913375e-01
2.929920e-01
2.945928e-01
2.961195e-01
2.975529e-01
2.988775e-01
3.000851e-01
3.011747e-01
3.021518e-01
3.030259e-01
3.038082e-01
3.045095e-01
3.051376e-01
3.056965e-01
3.061868e-01
3.066064e-01
3.069509e-01
3.072148e-01
3.073901e-01
3.074664e-01
3.074335e-01
3.072862e-01
3.070285e-01
3.066741e-01
3.062435e-01
3.057612e-01
3.052528e-01
3.047431e-01
3.042536e-01
3.038000e-01
3.033909e-01
3.030295e-01
3.027163e-01
3.024528e-01
3.022417e-01
3.020830e-01
3.019702e-01
3.018876e-01
3.018131e-01
3.017232e-01
3.015978e-01
3.014234e-01
3.011946e-01
3.009109e-01
3.005738e-01
3.001852e-01
2.997482e-01
2.992687e-01
2.987561e-01
2.982220e-01
2.976786e-01
2.971377e-01
2.966098e-01
2.961029e-01
2.956209e-01
2.951596e-01
2.947057e-01
2.942371e-01
2.937267e-01
2.931496e-01
2.924899e-01
2.917448e-01
2.909244e-01
2.900476e-01
2.891375e-01
2.882170e-01
2.873041e-01
2.864093e-01
2.855372e-01
2.846889e-01
2.838638e-01
2.830576e-01
2.822599e-01
2.814551e-01
2.806251e-01
2.797544e-01
2.788342e-01
2.778620e-01
2.768389e-01
2.757684e-01
2.746583e-01
2.735205e-01
2.723677e-01
2.712072e-01
2.700373e-01
2.688480e-01
2.676252e-01
2.663568e-01
2.650382e-01
2.636736e-01
2.622748e-01
2.608592e-01
2.594484e-01
2.580659e-01
2.567335e-01
2.554689e-01
2.542840e-01
2.531849e-01
2.521727e-01
2.512430e-01
2.503840e-01
2.495763e-01
2.487947e-01
2.480132e-01
2.472082e-01
2.463612e-01
2.454595e-01
2.445000e-01
2.434937e-01
2.424653e-01
2.414479e-01
2.404746e-01
2.395715e-01
2.387540e-01
2.380263e-01
2.373799e-01
2.367923e-01
2.362288e-01
2.356491e-01
2.350153e-01
2.342976e-01
2.334764e-01
2.325436e-01
2.315041e-01
2.303759e-01
2.291868e-01
2.279699e-01
2.267595e-01
2.255879e-01
2.244821e-01
2.234615e-01
2.225366e-01
2.217115e-01
2.209854e-01
2.203534e-01
2.198068e-01
2.193311e-01
2.189043e-01
2.184998e-01
2.180905e-01
2.176543e-01
2.171749e-01
2.166416e-01
2.160487e-01
2.153952e-01
2.146846e-01
2.139244e-01
2.131251e-01
2.122998e-01
2.114611e-01
2.106187e-01
2.097769e-01
2.089366e-01
2.080995e-01
2.072733e-01
2.064727e-01
2.057171e-01
2.050256e-01
2.044120e-01
2.038834e-01
2.034400e-01
2.030760e-01
2.027808e-01
2.025413e-01
2.023444e-01
2.021783e-01
2.020310e-01
2.018899e-01
2.017406e-01
2.015686e-01
2.013601e-01
2.011026e-01
2.007850e-01
2.003960e-01
1.999230e-01
1.993545e-01
1.986833e-01
1.979096e-01
1.970396e-01
1.960817e-01
1.950454e-01
1.939433e-01
1.927954e-01
1.916315e-01
1.904876e-01
1.893973e-01
1.883831e-01
1.874536e-01
1.866059e-01
1.858321e-01
1.851242e-01
1.844771e-01
1.838899e-01
1.833648e-01
1.829055e-01
1.825167e-01
1.822021e-01
1.819622e-01
1.817933e-01
1.816881e-01
1.816370e-01
1.816282e-01
1.816489e-01
1.816880e-01
1.817407e-01
1.818087e-01
1.818951e-01
1.820011e-01
1.821282e-01
1.822837e-01
1.824828e-01
1.827450e-01
1.830866e-01
1.835128e-01
1.840146e-01
1.845691e-01
1.851458e-01
1.857131e-01
1.862461e-01
1.867316e-01
1.871705e-01
1.875747e-01
1.879617e-01
1.883472e-01
1.887413e-01
1.891475e-01
1.895667e-01
1.900014e-01
1.904582e-01
1.909472e-01
1.914791e-01
1.920622e-01
1.926998e-01
1.933901e-01
1.941273e-01
1.949037e-01
1.957137e-01
1.965563e-01
1.974366e-01
1.983640e-01
1.993474e-01
2.003915e-01
2.014948e-01
2.026502e-01
2.038483e-01
2.050823e-01
2.063520e-01
2.076654e-01
2.090371e-01
2.104841e-01
2.120225e-01
2.136649e-01
2.154181e-01
2.172807e-01
2.192430e-01
2.212877e-01
2.233926e-01
2.255364e-01
2.277042e-01
2.298911e-01
2.321009e-01
2.343399e-01
2.366096e-01
2.389032e-01
2.412075e-01
2.435066e-01
2.457853e-01
2.480317e-01
2.502398e-01
2.524096e-01
2.545444e-01
2.566473e-01
2.587198e-01
2.607642e-01
2.627861e-01
2.647959e-01
2.668074e-01
2.688346e-01
2.708891e-01
2.729789e-01
2.751073e-01
2.772707e-01
2.794581e-01
2.816569e-01
2.838609e-01
2.860768e-01
2.883241e-01
2.906282e-01
2.930122e-01
2.954930e-01
2.980821e-01
3.007884e-01
3.036175e-01
3.065696e-01
3.096386e-01
3.128145e-01
3.160881e-01
3.194551e-01
3.229155e-01
3.264694e-01
3.301125e-01
3.338353e-01
3.376251e-01
3.414693e-01
3.453565e-01
3.492753e-01
3.532138e-01
3.571592e-01
3.611014e-01
3.650350e-01
3.689600e-01
3.728786e-01
3.767931e-01
3.807065e-01
3.846237e-01
3.885527e-01
3.925027e-01
3.964815e-01
4.004920e-01
4.045307e-01
4.085882e-01
4.126514e-01
4.167086e-01
4.207543e-01
4.247895e-01
4.288184e-01
4.328439e-01
4.368657e-01
4.408814e-01
4.448886e-01
4.488856e-01
4.528677e-01
4.568201e-01
4.607143e-01
4.645120e-01
4.681757e-01
4.716798e-01
4.750131e-01
4.781744e-01
4.811662e-01
4.839948e-01
4.866746e-01
4.892284e-01
4.916797e-01
4.940451e-01
4.963355e-01
4.985645e-01
5.007531e-01
5.029262e-01
5.051005e-01
5.072777e-01
5.094452e-01
5.115819e-01
5.136622e-01
5.156554e-01
5.175259e-01
5.192376e-01
5.207621e-01
5.220844e-01
5.232010e-01
5.241158e-01
5.248382e-01
5.253831e-01
5.257704e-01
5.260232e-01
5.261670e-01
5.262284e-01
5.262330e-01
5.262023e-01
5.261526e-01
5.260949e-01
5.260347e-01
5.259739e-01
5.259133e-01
5.258555e-01
5.258058e-01
5.257712e-01
5.257576e-01
5.257656e-01
5.257889e-01
5.258152e-01
5.258312e-01
5.258256e-01
5.257865e-01
5.256969e-01
5.255316e-01
5.252607e-01
5.248565e-01
5.242990e-01
5.235760e-01
5.226783e-01
5.215968e-01
5.203224e-01
5.188490e-01
5.171755e-01
5.153056e-01
5.132496e-01
5.110247e-01
5.086546e-01
5.061684e-01
5.035988e-01
5.009803e-01
4.983475e-01
4.957311e-01
4.931530e-01
4.906213e-01
4.881251e-01
4.856348e-01
4.831095e-01
4.805090e-01
4.778065e-01
4.749950e-01
4.720874e-01
4.691131e-01
4.661118e-01
4.631272e-01
4.602010e-01
4.573694e-01
4.546620e-01
4.521008e-01
4.496988e-01
4.474591e-01
4.453790e-01
4.434558e-01
4.416911e-01
4.400930e-01
4.386764e-01
4.374618e-01
4.364722e-01
4.357318e-01
4.352654e-01
4.350971e-01
4.352469e-01
4.357260e-01
4.365350e-01
4.376643e-01
4.390960e-01
4.408033e-01
4.427483e-01
4.448848e-01
4.471666e-01
4.495543e-01
4.520142e-01
4.545119e-01
4.570097e-01
4.594709e-01
4.618684e-01
4.641891e-01
4.664297e-01
4.685871e-01
4.706527e-01
4.726138e-01
4.744579e-01
4.761738e-01
4.777476e-01
4.791546e-01
4.803546e-01
4.812926e-01
4.819082e-01
4.821462e-01
4.819633e-01
4.813282e-01
4.802178e-01
4.786174e-01
4.765255e-01
4.739590e-01
4.709498e-01
4.675350e-01
4.637479e-01
4.596157e-01
4.551625e-01
4.504109e-01
4.453829e-01
4.400996e-01
4.345806e-01
4.288402e-01
4.228826e-01
4.167041e-01
4.103011e-01
4.036783e-01
3.968530e-01
3.898525e-01
3.827076e-01
3.754437e-01
3.680751e-01
3.606038e-01
3.530243e-01
3.453263e-01
3.374992e-01
3.295357e-01
3.214370e-01
3.132158e-01
3.048975e-01
2.965168e-01
2.881111e-01
2.797136e-01
2.713478e-01
2.630239e-01
2.547402e-01
2.464883e-01
2.382569e-01
2.300328e-01
2.218001e-01
2.135395e-01
2.052306e-01
1.968540e-01
1.883886e-01
1.798075e-01
1.710736e-01
1.621402e-01
1.529543e-01
1.434637e-01
1.336241e-01
1.234053e-01
1.127916e-01
1.017789e-01
9.036933e-02
7.856981e-02
6.639149e-02
5.385320e-02
4.098622e-02
2.783765e-02
1.446969e-02
9.548559e-04
-1.262927e-02
-2.620302e-02
-3.968643e-02
-5.300298e-02
-6.608579e-02
-7.888348e-02
-9.136351e-02
-1.035118e-01
-1.153283e-01
-1.268228e-01
-1.380132e-01
-1.489273e-01
-1.596029e-01
-1.700870e-01
-1.804336e-01
-1.907010e-01
-2.009491e-01
-2.112401e-01
-2.216405e-01
-2.322217e-01
-2.430590e-01
-2.542267e-01
-2.657935e-01
-2.778150e-01
-2.903226e-01
-3.033147e-01
-3.167547e-01
-3.305783e-01
-3.447037e-01
-3.590387e-01
-3.734839e-01
-3.879359e-01
-4.022906e-01
-4.164441e-01
-4.302927e-01
-4.437358e-01
-4.566847e-01
-4.690741e-01
-4.808695e-01
-4.920711e-01
-5.027117e-01
-5.128503e-01
-5.225622e-01
-5.319286e-01
-5.410296e-01
-5.499416e-01
-5.587387e-01
-5.674968e-01
-5.762975e-01
-5.852274e-01
-5.943715e-01
-6.038030e-01
-6.135733e-01
-6.237071e-01
-6.342045e-01
-6.450474e-01
-6.562087e-01
-6.676577e-01
-6.793632e-01
-6.912931e-01
-7.034123e-01
-7.156786e-01
-7.280362e-01
-7.404125e-01
-7.527211e-01
-7.648712e-01
-7.767783e-01
-7.883710e-01
-7.995898e-01
-8.103829e-01
-8.207016e-01
-8.304991e-01
-8.397330e-01
-8.483724e-01
-8.564049e-01
-8.638433e-01
-8.707264e-01
-8.771166e-01
-8.830896e-01
-8.887246e-01
-8.940960e-01
-8.992707e-01
-9.043097e-01
-9.092711e-01
-9.142087e-01
-9.191683e-01
-9.241860e-01
-9.292912e-01
-9.345114e-01
-9.398768e-01
-9.454221e-01
-9.511848e-01
-9.572023e-01
-9.635105e-01
-9.701444e-01
-9.771388e-01
-9.845258e-01
-9.923298e-01
-1.000566e+00
-1.009238e+00
-1.018337e+00
-1.027839e+00
-1.037701e+00
-1.047853e+00
-1.058205e+00
-1.068643e+00
-1.079041e+00
-1.089273e+00
-1.099238e+00
-1.108861e+00
-1.118101e+00
-1.126931e+00
-1.135331e+00
-1.143281e+00
-1.150772e+00
-1.157819e+00
-1.164467e+00
-1.170783e+00
-1.176847e+00
-1.182752e+00
-1.188587e+00
-1.194438e+00
-1.200372e+00
-1.206433e+00
-1.212651e+00
-1.219049e+00
-1.225648e+00
-1.232477e+00
-1.239554e+00
-1.246885e+00
-1.254446e+00
-1.262181e+00
-1.270003e+00
-1.277802e+00
-1.285463e+00
-1.292882e+00
-1.299987e+00
-1.306752e+00
-1.313203e+00
-1.319411e+00
-1.325482e+00
-1.331538e+00
-1.337697e+00
-1.344061e+00
-1.350710e+00
-1.357697e+00
-1.365046e+00
-1.372747e+00
-1.380756e+00
-1.388996e+00
-1.397374e+00
-1.405797e+00
-1.414186e+00
-1.422482e+00
-1.430660e+00
-1.438726e+00
-1.446714e+00
-1.454667e+00
-1.462623e+00
-1.470602e+00
-1.478600e+00
-1.486594e+00
-1.494541e+00
-1.502386e+00
-1.510060e+00
-1.517484e+00
-1.524578e+00
-1.531267e+00
-1.537481e+00
-1.543160e+00
-1.548249e+00
-1.552714e+00
-1.556544e+00
-1.559756e+00
-1.562394e+00
-1.564516e+00
-1.566187e+00
-1.567480e+00
-1.568467e+00
-1.569227e+00
-1.569828e+00
-1.570324e+00
-1.570742e+00
-1.571085e+00
-1.571339e+00
-1.571479e+00
-1.571475e+00
-1.571301e+00
-1.570927e+00
-1.570328e+00
-1.569481e+00
-1.568366e+00
-1.566976e+00
-1.565317e+00
-1.563413e+00
-1.561303e+00
-1.559041e+00
-1.556686e+00
-1.554291e+00
-1.551897e+00
-1.549527e+00
-1.547192e+00
-1.544887e+00
-1.542589e+00
-1.540261e+00
-1.537849e+00
-1.535296e+00
-1.532552e+00
-1.529578e+00
-1.526356e+00
-1.522881e+00
-1.519157e+00
-1.515186e+00
-1.510970e+00
-1.506514e+00
-1.501834e+00
-1.496963e+00
-1.491953e+00
-1.486860e+00
-1.481739e+00
-1.476630e+00
-1.471554e+00
-1.466518e+00
-1.461510e+00
-1.456500e+00
-1.451445e+00
-1.446287e+00
-1.440959e+00
-1.435399e+00
-1.429547e+00
-1.423353e+00
-1.416776e+00
-1.409787e+00
-1.402364e+00
-1.394495e+00
-1.386176e+00
-1.377405e+00
-1.368184e+00
-1.358516e+00
-1.348411e+00
-1.337885e+00
-1.326963e+00
-1.315676e+00
-1.304063e+00
-1.292180e+00
-1.280096e+00
-1.267896e+00
-1.255673e+00
-1.243522e+00
-1.231538e+00
-1.219813e+00
-1.208433e+00
-1.197471e+00
-1.186978e+00
-1.176985e+00
-1.167497e+00
-1.158507e+00
-1.149995e+00
-1.141937e+00
-1.134304e+00
-1.127057e+00
-1.120147e+00
-1.113506e+00
-1.107046e+00
-1.100662e+00
-1.094236e+00
-1.087652e+00
-1.080805e+00
-1.073619e+00
-1.066057e+00
-1.058116e+00
-1.049830e+00
-1.041259e+00
-1.032485e+00
-1.023607e+00
-1.014728e+00
-1.005959e+00
-9.974052e-01
-9.891615e-01
-9.812966e-01
-9.738438e-01
-9.667931e-01
-9.600900e-01
-9.536429e-01
-9.473394e-01
-9.410669e-01
-9.347297e-01
-9.282564e-01
-9.215994e-01
-9.147311e-01
-9.076400e-01
-9.003285e-01
-8.928134e-01
-8.851261e-01
-8.773128e-01
-8.694295e-01
-8.615346e-01
-8.536796e-01
-8.459010e-01
-8.382181e-01
-8.306356e-01
-8.231474e-01
-8.157372e-01
-8.083792e-01
-8.010414e-01
-7.936886e-01
-7.862862e-01
-7.788034e-01
-7.712180e-01
-7.635199e-01
-7.557113e-01
-7.478091e-01
-7.398483e-01
-7.318836e-01
-7.239840e-01
-7.162217e-01
-7.086625e-01
-7.013591e-01
-6.943462e-01
-6.876348e-01
-6.812104e-01
-6.750374e-01
-6.690655e-01
-6.632326e-01
-6.574712e-01
-6.517206e-01
-6.459410e-01
-6.401221e-01
-6.342829e-01
-6.284659e-01
-6.227253e-01
-6.171150e-01
-6.116805e-01
-6.064541e-01
-6.014540e-01
-5.966860e-01
-5.921429e-01
-5.878034e-01
-5.836309e-01
-5.795723e-01
-5.755586e-01
-5.715092e-01
-5.673411e-01
-5.629781e-01
-5.583579e-01
-5.534375e-01
-5.481969e-01
-5.426398e-01
-5.367912e-01
-5.306942e-01
-5.244086e-01
-5.180118e-01
-5.115940e-01
-5.052473e-01
-4.990504e-01
-4.930538e-01
-4.872708e-01
-4.816772e-01
-4.762185e-01
-4.708218e-01
-4.654082e-01
-4.599019e-01
-4.542357e-01
-4.483509e-01
-4.421956e-01
-4.357251e-01
-4.289044e-01
-4.217129e-01
-4.141461e-01
-4.062135e-01
-3.979343e-01
-3.893345e-01
-3.804453e-01
-3.713022e-01
-3.619466e-01
-3.524300e-01
-3.428159e-01
-3.331797e-01
-3.236034e-01
-3.141659e-01
-3.049345e-01
-2.959605e-01
-2.872777e-01
-2.789010e-01
-2.708282e-01
-2.630408e-01
-2.555027e-01
-2.481598e-01
-2.409430e-01
-2.337730e-01
-2.265674e-01
-2.192492e-01
-2.117550e-01
-2.040396e-01
-1.960786e-01
-1.878669e-01
-1.794157e-01
-1.707479e-01
-1.618913e-01
-1.528737e-01
-1.437194e-01
-1.344509e-01
-1.250914e-01
-1.156697e-01
-1.062246e-01
-9.680947e-02
-8.749461e-02
-7.836555e-02
-6.951750e-02
-6.104821e-02
-5.304840e-02
-4.559001e-02
-3.871523e-02
-3.242786e-02
-2.668929e-02
-2.142307e-02
-1.652971e-02
-1.190566e-02
-7.458064e-03
-3.113023e-03
1.180177e-03
5.447934e-03
9.693048e-03
1.389632e-02
1.802065e-02
2.201859e-02
2.584237e-02
2.945424e-02
3.283499e-02
3.598913e-02
3.894567e-02
4.175447e-02
4.447941e-02
4.718997e-02
4.995025e-02
5.280757e-02
5.578601e-02
5.888602e-02
6.208767e-02
6.535600e-02
6.864796e-02
7.192037e-02
7.513763e-02
7.827692e-02
8.132932e-02
8.429868e-02
8.720140e-02
9.006667e-02
9.293314e-02
9.583957e-02
9.881106e-02
1.018468e-01
1.049156e-01
1.079623e-01
1.109212e-01
1.137300e-01
1.163396e-01
1.187182e-01
1.208517e-01
1.227423e-01
1.244035e-01
1.258537e-01
1.271096e-01
1.281832e-01
1.290833e-01
1.298183e-01
1.304007e-01
1.308507e-01
1.311960e-01
1.314688e-01
1.316982e-01
1.319041e-01
1.320933e-01
1.322608e-01
1.323952e-01
1.324855e-01
1.325314e-01
1.325501e-01
1.325796e-01
1.326765e-01
1.329092e-01
1.333493e-01
1.340622e-01
1.350969e-01
1.364779e-01
1.382031e-01
1.402452e-01
1.425582e-01
1.450855e-01
1.477690e-01
1.505575e-01
1.534131e-01
1.563148e-01
1.592590e-01
1.622566e-01
1.653270e-01
1.684914e-01
1.717665e-01
1.751578e-01
1.786504e-01
1.822000e-01
1.857306e-01
1.891426e-01
1.923283e-01
1.951889e-01
1.976492e-01
1.996648e-01
2.012240e-01
2.023439e-01
2.030621e-01
2.034281e-01
2.034987e-01
2.033360e-01
2.030058e-01
2.025761e-01
2.021100e-01
2.016564e-01
2.012429e-01
2.008740e-01
2.005333e-01
2.001873e-01
1.997926e-01
1.993061e-01
1.986944e-01
1.979372e-01
1.970255e-01
1.959563e-01
1.947289e-01
1.933420e-01
1.917930e-01
1.900801e-01
1.882073e-01
1.861896e-01
1.840518e-01
1.818250e-01
1.795423e-01
1.772357e-01
1.749308e-01
1.726394e-01
1.703573e-01
1.680686e-01
1.657528e-01
1.633910e-01
1.609651e-01
1.584521e-01
1.558176e-01
1.530151e-01
1.499925e-01
1.467017e-01
1.431070e-01
1.391856e-01
1.349232e-01
1.303098e-01
1.253390e-01
1.200092e-01
1.143249e-01
1.083020e-01
1.019752e-01
9.540399e-02
8.867485e-02
8.189951e-02
7.520762e-02
6.873458e-02
6.260724e-02
5.692958e-02
5.177114e-02
4.716156e-02
4.309060e-02
3.951071e-02
3.634207e-02
3.348123e-02
3.081391e-02
2.823019e-02
2.563762e-02
2.296932e-02
2.018684e-02
