EVENT_NAME: EMILIA_2ND_SHOCK
EVENT_ID: IT-2012-0011
EVENT_DATE_YYYYMMDD: 20120529
EVENT_TIME_HHMMSS: 070002
EVENT_LATITUDE_DEGREE: 44.8417
EVENT_LONGITUDE_DEGREE: 11.0657
EVENT_DEPTH_KM: 8.1
HYPOCENTER_REFERENCE: INGV-CNT_Seismic_Bulletin
MAGNITUDE_W: 6.0
MAGNITUDE_W_REFERENCE: RCMT-INGV
MAGNITUDE_L: 5.8
MAGNITUDE_L_REFERENCE: INGV-CNT_Seismic_Bulletin
FOCAL_MECHANISM: TF
NETWORK: IT
STATION_CODE: CNT
STATION_NAME: CENTO
STATION_LATITUDE_DEGREE: 44.723400
STATION_LONGITUDE_DEGREE: 11.286700
STATION_ELEVATION_M: 68
LOCATION: 
SENSOR_DEPTH_M: 0.0
VS30_M/S: 
SITE_CLASSIFICATION_EC8: C*
MORPHOLOGIC_CLASSIFICATION: 
EPICENTRAL_DISTANCE_KM: 21.9
EARTHQUAKE_BACKAZIMUTH_DEGREE: 307.0
DATE_TIME_FIRST_SAMPLE_YYYYMMDD_HHMMSS: 20120529_065953.000
DATE_TIME_FIRST_SAMPLE_PRECISION: seconds
SAMPLING_INTERVAL_S: 0.005000
NDATA: 27600
DURATION_S: 138.000
STREAM: HNN
UNITS: cm/s
INSTRUMENT: sensor = Episensor FBA ES-T [Kinemetrics] | digitizer = Etna [Kinemetrics]
INSTRUMENT_ANALOG/DIGITAL: D
INSTRUMENTAL_FREQUENCY_HZ: 
INSTRUMENTAL_DAMPING: 
FULL_SCALE_G: 
N_BIT_DIGITAL_CONVERTER: 18
PGV_CM/S: -13.820911
TIME_PGV_S: 23.660000
BASELINE_CORRECTION: BASELINE REMOVED
FILTER_TYPE: BUTTERWORTH
FILTER_ORDER: 2
LOW_CUT_FREQUENCY_HZ: 0.070
HIGH_CUT_FREQUENCY_HZ: 40.000
LATE/NORMAL_TRIGGERED: NT
DATABASE_VERSION: DYNA 1.0
HEADER_FORMAT: DYNA 1.2
DATA_TYPE: VELOCITY
PROCESSING: manual (Paolucci et al., 2011)
DATA_TIMESTAMP_YYYYMMDD_HHMMSS: 20141204_102759.333
DATA_LICENSE: CC-BY3_0-IT (http://creativecommons.org/licenses/by/3.0/deed.en)
DATA_CITATION: ESM working group (2015), European Strong-Motion database, version 0.1, Network Activity 3: Networking acceleration networks and SM data users. Project NERA (www.nera-eu.org)
DATA_CREATOR: ESM working group
ORIGINAL_DATA_MEDIATOR_CITATION: Ufficio Rischio Sismico e Vulcanico del Dipartimento della Protezione Civile (http://www.protezionecivile.gov.it/)
ORIGINAL_DATA_MEDIATOR: Rete Accelerometrica Nazionale - RAN Download (http://www.mot1.it/randownload/)
ORIGINAL_DATA_CREATOR_CITATION: Italian Strong Motion Network, Italian Civil Protection Department http://www.protezionecivile.gov.it
ORIGINAL_DATA_CREATOR: network: IT (Italian Strong Motion Network); owner: Dipartimento Della Protezione Civile
USER1: /home/dyna/processing-itaca/processing.py /var/www/processing/tmp/fpacor//IT.CNT..HNE.D.20120529.070003.X.ACC.ASC /var/www/processing/tmp/fpacor//IT.CNT..HNN.D.20120529.070003.X.ACC.ASC /var/www/processing/tmp/fpacor//IT.CNT..HNZ.D.20120529.070003.X.ACC.ASC --tmp /var/www/processing/tmp/fpacor/ --le 0.070 --he 40.000 --ln 0.070 --hn 40.000 --lz 0.070 --hz 40.000 --fo 2 --ca -10 --cz 30 --ta 5 --tz 5 --mf 1 --rf 0 --tr NT
USER2: 
USER3: 
USER4: 
USER5: 
[...]
-0.056781
-0.055135
-0.052892
-0.050344
-0.045930
-0.039208
-0.033236
-0.032964
-0.040943
-0.054731
-0.068515
-0.077238
-0.079586
-0.077800
-0.074919
-0.071865
-0.066962
-0.058326
-0.046575
-0.035094
-0.027748
-0.026432
-0.030501
-0.038025
-0.047314
-0.057445
-0.067678
-0.076526
-0.081666
-0.081384
-0.076407
-0.069772
-0.064384
-0.060873
-0.058082
-0.055359
-0.053864
-0.055453
-0.060531
-0.067062
-0.071643
-0.071720
-0.067220
-0.060348
-0.053856
-0.049407
-0.047324
-0.047267
-0.048618
-0.050231
-0.050401
-0.047883
-0.043096
-0.038033
-0.034932
-0.034992
-0.038020
-0.042957
-0.048528
-0.053225
-0.054907
-0.051216
-0.041408
-0.028282
-0.017907
-0.016504
-0.026657
-0.045965
-0.068946
-0.090156
-0.106113
-0.115594
-0.118920
-0.116776
-0.109630
-0.098756
-0.087499
-0.080141
-0.078710
-0.081201
-0.083097
-0.080407
-0.071532
-0.057102
-0.039184
-0.021224
-0.008103
-0.004747
-0.013420
-0.031752
-0.053451
-0.071692
-0.082779
-0.087078
-0.086584
-0.081834
-0.071415
-0.054560
-0.033975
-0.015536
-0.004602
-0.002338
-0.005677
-0.010936
-0.017456
-0.027651
-0.043403
-0.062427
-0.078555
-0.086062
-0.084011
-0.076722
-0.070137
-0.067241
-0.066403
-0.064123
-0.059442
-0.055355
-0.055818
-0.061632
-0.069345
-0.073950
-0.072672
-0.066538
-0.058909
-0.053213
-0.051730
-0.055040
-0.061560
-0.068118
-0.072060
-0.073307
-0.074180
-0.077011
-0.081884
-0.086544
-0.088200
-0.085406
-0.078584
-0.069116
-0.058101
-0.046141
-0.034325
-0.025052
-0.021548
-0.026361
-0.039812
-0.059120
-0.078807
-0.092799
-0.097380
-0.092949
-0.083175
-0.072096
-0.061382
-0.050598
-0.040695
-0.036349
-0.042937
-0.060698
-0.082725
-0.099075
-0.103175
-0.095355
-0.081385
-0.067912
-0.058885
-0.055270
-0.056849
-0.063308
-0.073607
-0.085082
-0.094005
-0.097535
-0.095566
-0.091039
-0.088295
-0.090381
-0.096910
-0.103796
-0.105337
-0.097736
-0.081699
-0.061843
-0.043221
-0.028252
-0.017017
-0.010125
-0.010290
-0.020165
-0.038787
-0.061021
-0.080666
-0.093661
-0.098653
-0.095822
-0.086239
-0.072173
-0.057045
-0.044233
-0.035566
-0.030830
-0.028555
-0.027381
-0.027208
-0.029251
-0.034542
-0.042203
-0.049886
-0.056280
-0.062758
-0.072170
-0.085910
-0.101722
-0.114333
-0.119096
-0.115787
-0.108524
-0.101514
-0.095069
-0.086096
-0.072442
-0.056605
-0.045192
-0.044675
-0.057148
-0.078996
-0.102485
-0.118814
-0.121698
-0.110432
-0.089936
-0.066638
-0.043864
-0.021968
-0.002878
0.007243
0.001892
-0.018692
-0.045481
-0.066863
-0.077152
-0.079286
-0.080225
-0.084185
-0.089495
-0.091031
-0.085475
-0.074403
-0.062419
-0.052467
-0.043152
-0.030716
-0.013649
0.004556
0.017215
0.019061
0.009238
-0.009312
-0.032051
-0.054328
-0.072139
-0.082693
-0.084745
-0.078857
-0.067852
-0.056778
-0.051239
-0.054416
-0.065363
-0.080355
-0.095454
-0.107323
-0.112540
-0.108187
-0.094425
-0.076014
-0.059859
-0.050136
-0.045715
-0.042148
-0.035585
-0.025183
-0.013548
-0.005596
-0.005103
-0.010729
-0.016373
-0.016805
-0.013054
-0.011898
-0.019520
-0.035164
-0.051309
-0.060322
-0.060694
-0.056746
-0.052870
-0.048924
-0.041520
-0.029378
-0.016907
-0.012088
-0.020351
-0.040089
-0.063687
-0.082595
-0.091966
-0.091936
-0.085831
-0.077261
-0.067780
-0.056116
-0.039796
-0.018378
0.004909
0.025252
0.039947
0.049863
0.057289
0.062496
0.062873
0.055368
0.038944
0.014892
-0.013560
-0.041651
-0.065023
-0.082016
-0.092301
-0.092639
-0.076747
-0.042579
0.000124
0.032304
0.038235
0.016875
-0.018253
-0.049305
-0.064823
-0.063108
-0.048797
-0.028437
-0.008311
0.006649
0.013738
0.011988
0.000675
-0.020458
-0.048339
-0.074787
-0.089475
-0.085318
-0.061308
-0.021934
0.024725
0.069576
0.105281
0.127244
0.132304
0.117976
0.084878
0.039908
-0.004991
-0.039061
-0.058463
-0.066147
-0.066800
-0.062575
-0.053030
-0.037621
-0.017654
0.003599
0.022705
0.038963
0.055840
0.078220
0.106236
0.131309
0.140165
0.125186
0.091067
0.050167
0.011430
-0.024914
-0.061756
-0.096374
-0.119219
-0.121207
-0.101457
-0.068770
-0.036603
-0.015547
-0.008577
-0.012297
-0.021885
-0.033893
-0.044390
-0.046432
-0.032085
0.001290
0.045847
0.084478
0.099773
0.085105
0.047634
-0.000226
-0.051047
-0.102623
-0.149801
-0.180202
-0.180610
-0.147974
-0.094189
-0.040078
-0.003469
0.009752
0.006399
-0.000892
-0.003505
-0.002034
-0.001797
-0.003577
-0.000650
0.013485
0.034452
0.045287
0.027582
-0.023130
-0.090990
-0.148405
-0.173778
-0.164929
-0.136765
-0.105373
-0.074995
-0.040817
-0.001806
0.032626
0.049042
0.041660
0.018013
-0.005642
-0.015109
-0.006648
0.013517
0.036707
0.058007
0.076143
0.090116
0.097994
0.098705
0.093920
0.087394
0.082239
0.079675
0.081419
0.091765
0.113696
0.141429
0.159461
0.152802
0.120254
0.078018
0.048979
0.045646
0.061574
0.079711
0.089658
0.095658
0.107473
0.126500
0.143826
0.150886
0.148855
0.146135
0.147968
0.150912
0.148357
0.140180
0.134503
0.138106
0.146358
0.146069
0.129388
0.102492
0.079055
0.067085
0.064264
0.064937
0.068130
0.077309
0.094040
0.113567
0.127029
0.128829
0.122987
0.121864
0.136349
0.165431
0.196030
0.214440
0.217746
0.213812
0.212088
0.216183
0.223714
0.230200
0.232622
0.231211
0.229000
0.229018
0.231390
0.233692
0.234287
0.233948
0.233284
0.229908
0.220358
0.205492
0.192859
0.192200
0.208084
0.237270
0.272141
0.304627
0.327637
0.336322
0.330125
0.312913
0.289974
0.265109
0.241263
0.222679
0.213950
0.216150
0.224954
0.233050
0.233936
0.223964
0.202441
0.171266
0.135514
0.104240
0.088097
0.092963
0.114802
0.141855
0.163120
0.175094
0.180621
0.182197
0.177476
0.161590
0.133302
0.097850
0.062639
0.029703
-0.007147
-0.056703
-0.121009
-0.191562
-0.255288
-0.303960
-0.336783
-0.354068
-0.350929
-0.320135
-0.261710
-0.188066
-0.118062
-0.065743
-0.034840
-0.022429
-0.024977
-0.039744
-0.062262
-0.085098
-0.099991
-0.101236
-0.087779
-0.063050
-0.033027
-0.004193
0.017806
0.030348
0.036830
0.046290
0.067171
0.100420
0.139633
0.177946
0.213065
0.244989
0.270728
0.283521
0.278289
0.258244
0.236398
0.229932
0.250736
0.298225
0.359348
0.415826
0.453393
0.467256
0.461925
0.446913
0.430814
0.417157
0.405456
0.396422
0.394892
0.406100
0.429090
0.455052
0.473074
0.477603
0.470461
0.457299
0.443654
0.433362
0.428452
0.429950
0.439282
0.458465
0.487409
0.520723
0.548986
0.565196
0.570471
0.572715
0.578639
0.586480
0.586438
0.568516
0.531021
0.482879
0.437971
0.406217
0.388760
0.380066
0.373166
0.362989
0.346679
0.322740
0.290216
0.247835
0.193781
0.126781
0.047312
-0.042850
-0.141622
-0.245363
-0.346121
-0.432061
-0.492589
-0.523112
-0.524984
-0.503241
-0.466775
-0.429874
-0.410190
-0.422343
-0.471767
-0.552535
-0.649406
-0.743221
-0.817736
-0.863698
-0.877250
-0.855339
-0.794309
-0.694069
-0.563542
-0.421236
-0.288800
-0.181044
-0.099048
-0.031980
0.032579
0.097031
0.149559
0.170401
0.144635
0.073255
-0.025442
-0.125772
-0.208617
-0.268941
-0.312049
-0.343498
-0.362960
-0.367457
-0.358906
-0.346545
-0.341173
-0.347401
-0.361871
-0.377909
-0.390405
-0.397195
-0.398786
-0.398463
-0.401721
-0.413738
-0.437101
-0.472792
-0.522967
-0.591357
-0.679945
-0.784599
-0.893790
-0.991954
-1.065797
-1.110360
-1.130459
-1.134858
-1.127364
-1.103359
-1.055544
-0.983136
-0.895045
-0.804415
-0.720526
-0.645111
-0.575295
-0.509406
-0.449147
-0.395960
-0.346433
-0.293025
-0.230242
-0.159618
-0.087764
-0.019308
0.047561
0.117745
0.192522
0.268106
0.340653
0.411166
0.484414
0.561965
0.635964
0.691082
0.713925
0.701182
0.659414
0.597914
0.522029
0.432856
0.332695
0.229455
0.133949
0.052077
-0.020200
-0.094548
-0.183148
-0.292046
-0.418286
-0.551896
-0.681741
-0.801472
-0.911558
-1.016743
-1.120724
-1.221386
-1.310960
-1.382269
-1.436050
-1.482272
-1.532865
-1.590902
-1.645934
-1.681098
-1.686327
-1.664949
-1.627243
-1.578188
-1.512646
-1.423164
-1.312134
-1.195023
-1.090912
-1.010095
-0.950757
-0.906216
-0.873403
-0.853491
-0.845146
-0.838582
-0.816979
-0.764228
-0.672315
-0.543084
-0.385322
-0.211442
-0.035749
0.127131
0.264950
0.370849
0.444759
0.491914
0.519232
0.532635
0.537108
0.537469
0.537563
0.538727
0.539531
0.537353
0.530406
0.518484
0.502268
0.482244
0.458167
0.429045
0.392877
0.346734
0.288323
0.217734
0.137021
0.048088
-0.048152
-0.149646
-0.250088
-0.338378
-0.402124
-0.433200
-0.430804
-0.399192
-0.343303
-0.268122
-0.182574
-0.102191
-0.045090
-0.022830
-0.033607
-0.063378
-0.093684
-0.110150
-0.106569
-0.083997
-0.047218
-0.001386
0.048901
0.098244
0.139253
0.163251
0.162963
0.136180
0.087947
0.028840
-0.030415
-0.084087
-0.132039
-0.176096
-0.216375
-0.250456
-0.275233
-0.289213
-0.292556
-0.284934
-0.264280
-0.228579
-0.179224
-0.122442
-0.067410
-0.023024
0.004489
0.012794
0.004072
-0.015184
-0.036282
-0.052074
-0.059796
-0.061039
-0.059730
-0.060092
-0.065568
-0.078160
-0.097053
-0.117762
-0.134080
-0.141772
-0.140860
-0.134218
-0.122890
-0.103340
-0.071441
-0.029584
0.011573
0.039344
0.047091
0.036713
0.014703
-0.013196
-0.043866
-0.074527
-0.099604
-0.110731
-0.100061
-0.063352
-0.000348
0.086663
0.193600
0.313631
0.436455
0.550540
0.647813
0.726927
0.791934
0.847291
0.893478
0.927066
0.944767
0.946757
0.935743
0.913731
0.880909
0.837530
0.785695
0.728434
0.667458
0.602669
0.533877
0.462462
0.391017
0.321439
0.254200
0.190338
0.133615
0.089379
0.060618
0.045195
0.037195
0.031156
0.025447
0.021856
0.021417
0.020417
0.011482
-0.010426
-0.043305
-0.079706
-0.112533
-0.138899
-0.159323
-0.174521
-0.182998
-0.180720
-0.162351
-0.122867
-0.059000
0.029513
0.139380
0.265031
0.401732
0.547910
0.704079
0.869906
1.043224
1.221842
1.405098
1.592525
1.780980
1.963498
2.131318
2.277892
2.401491
2.503461
2.583506
2.636945
2.656950
2.639719
2.587405
2.505759
2.398784
2.265630
2.102823
1.909610
1.690840
1.454091
1.203992
0.939893
0.659226
0.362737
0.056428
-0.251058
-0.553280
-0.849665
-1.145015
-1.444358
-1.746704
-2.042388
-2.315239
-2.547773
-2.726581
-2.844480
-2.898205
-2.884802
-2.800835
-2.645431
-2.423443
-2.144079
-1.816375
-1.447238
-1.043872
-0.616615
-0.178039
0.260869
0.693273
1.116406
1.530717
1.938599
2.341620
2.738368
3.126199
3.504894
3.877168
4.245324
4.607228
4.955227
5.279947
5.575402
5.839074
6.067458
6.253131
6.386077
6.457806
6.465381
6.412887
6.310070
6.169113
6.001478
5.816605
5.621049
5.416371
5.197585
4.954421
4.675365
4.352329
3.982757
3.567833
3.109005
2.606610
2.062031
1.480714
0.872676
0.250569
-0.372413
-0.983633
-1.571068
-2.122695
-2.625792
-3.065879
-3.427488
-3.699591
-3.881539
-3.982840
-4.016559
-3.991846
-3.911067
-3.772238
-3.573280
-3.314272
-2.996105
-2.616923
-2.170318
-1.648984
-1.052219
-0.391473
0.310245
1.025355
1.730695
2.412372
3.064998
3.688524
4.285466
4.859382
5.414363
5.955107
6.486793
7.013624
7.536083
8.048952
8.542653
9.007590
9.437961
9.832310
10.190995
10.511870
10.786920
11.003937
11.152857
11.230512
11.240260
11.188903
11.083919
10.931917
10.737393
10.500924
10.217518
9.876229
9.461627
8.957417
8.351693
7.642120
6.838775
5.962504
5.038493
4.088968
3.130646
2.177187
1.240752
0.329609
-0.554209
-1.413326
-2.250905
-3.067537
-3.861266
-4.629945
-5.371984
-6.082367
-6.748323
-7.350663
-7.866918
-8.269754
-8.525606
-8.603489
-8.489472
-8.191541
-7.732620
-7.143055
-6.456956
-5.705535
-4.906994
-4.064821
-3.177992
-2.251055
-1.295483
-0.325449
0.646784
1.613162
2.567897
3.503774
4.411815
5.283789
6.114629
6.903378
7.650890
8.356150
9.016057
9.628156
10.191425
10.704645
11.167312
11.583350
11.960708
12.305408
12.617716
12.894911
13.135783
13.340488
13.507025
13.630114
13.702240
13.711038
13.633863
13.439950
13.103871
12.616363
11.978778
11.187392
10.227119
9.086011
7.779412
6.357418
4.886746
3.428497
2.026719
0.702079
-0.549597
-1.747508
-2.906692
-4.024078
-5.083389
-6.070333
-6.980105
-7.814578
-8.575893
-9.261144
-9.860279
-10.357191
-10.734758
-10.981217
-11.091568
-11.066014
-10.910112
-10.633925
-10.249438
-9.771070
-9.220099
-8.625211
-8.012817
-7.397144
-6.789082
-6.219796
-5.745375
-5.417231
-5.251059
-5.225589
-5.301873
-5.441838
-5.613932
-5.786089
-5.923211
-5.999478
-6.007878
-5.953842
-5.849037
-5.712685
-5.570834
-5.456111
-5.405614
-5.447017
-5.584680
-5.803431
-6.082408
-6.401921
-6.745150
-7.102913
-7.474384
-7.857765
-8.244411
-8.625605
-8.999344
-9.368910
-9.739733
-10.117041
-10.503204
-10.896973
-11.295084
-11.694340
-12.091186
-12.477697
-12.839595
-13.160269
-13.426207
-13.628554
-13.761393
-13.820911
-13.805363
-13.712937
-13.539868
-13.283124
-12.945291
-12.533918
-12.056483
-11.518562
-10.924154
-10.277493
-9.589004
-8.878289
-8.167579
-7.474429
-6.812063
-6.190095
-5.611119
-5.071155
-4.563379
-4.076749
-3.594816
-3.102374
-2.591387
-2.059974
-1.512305
-0.959378
-0.411999
0.127221
0.659582
1.180986
1.683031
2.161603
2.619634
3.061462
3.487408
3.894222
4.278790
4.639815
4.973574
5.267583
5.503119
5.667810
5.764591
5.807895
5.813733
5.793566
5.753345
5.694135
5.613680
5.509418
5.380024
5.224077
5.038847
4.820978
4.567539
4.276553
3.948059
3.584695
3.190257
2.768180
2.321214
1.851509
1.361083
0.852756
0.330648
-0.200476
-0.736051
-1.272110
-1.805954
-2.335957
-2.859472
-3.371430
-3.865718
-4.337087
-4.781557
-5.196415
-5.580031
-5.930580
-6.244930
-6.519554
-6.753204
-6.949461
-7.116312
-7.261522
-7.387950
-7.493699
-7.575681
-7.632570
-7.666432
-7.681462
-7.678522
-7.652491
-7.596575
-7.506131
-7.378816
-7.214730
-7.015704
-6.782254
-6.512655
-6.205361
-5.858166
-5.465590
-5.022314
-4.527556
-3.983476
-3.393294
-2.762181
-2.096156
-1.400383
-0.680898
0.055105
0.803052
1.561466
2.326568
3.088507
3.833182
4.545497
5.211224
5.819069
6.362650
6.839973
7.251355
7.599040
7.887832
8.123514
8.310000
8.448734
8.541134
8.592765
8.610104
8.589889
8.526821
8.430110
8.312273
8.174374
8.012077
7.818547
7.585405
7.310299
6.995269
6.639714
6.240871
5.795606
5.300852
4.757852
4.175488
3.566465
2.940917
2.304664
1.662057
1.018871
0.382222
-0.242169
-0.851723
-1.445343
-2.020423
-2.571820
-3.093640
-3.582186
-4.035995
-4.451672
-4.821752
-5.138583
-5.399535
-5.607590
-5.767043
-5.879408
-5.943579
-5.958480
-5.923977
-5.840900
-5.713340
-5.549093
-5.355916
-5.140014
-4.907495
-4.664248
-4.416137
-4.170673
-3.935787
-3.716861
-3.517688
-3.343211
-3.198833
-3.089170
-3.020798
-3.003807
-3.046580
-3.149918
-3.302933
-3.478376
-3.640527
-3.767309
-3.857138
-3.912034
-3.926834
-3.897437
-3.828420
-3.729494
-3.611071
-3.483675
-3.355144
-3.226341
-3.092185
-2.947101
-2.788196
-2.613653
-2.420242
-2.205109
-1.970481
-1.723866
-1.472566
-1.220042
-0.967811
-0.719781
-0.485017
-0.275050
-0.097168
0.047267
0.156879
0.225673
0.245373
0.210039
0.118802
-0.021839
-0.198136
-0.394934
-0.599219
-0.795056
-0.961833
-1.083314
-1.155746
-1.185327
-1.178813
-1.136893
-1.057147
-0.943284
-0.810032
-0.676983
-0.556265
-0.446582
-0.339772
-0.231307
-0.122973
-0.018607
0.079188
0.170059
0.256245
0.341343
0.428725
0.520243
0.614578
0.708692
0.801802
0.894970
0.986892
1.073865
1.154864
1.234252
1.319318
1.416767
1.530112
1.657501
1.791773
1.923632
2.044939
2.150245
2.236817
2.302777
2.344557
2.356782
2.334623
2.274989
2.175558
2.034342
1.849862
1.621061
1.348446
1.035385
0.686447
0.305491
-0.101759
-0.524313
-0.947172
-1.353739
-1.725761
-2.044630
-2.295086
-2.467253
-2.557925
-2.572761
-2.524860
-2.429053
-2.298135
-2.143344
-1.975204
-1.802582
-1.632209
-1.468416
-1.312363
-1.163745
-1.023260
-0.891439
-0.766626
-0.646521
-0.531786
-0.427341
-0.339965
-0.274739
-0.232900
-0.211603
-0.205482
-0.208989
-0.216991
-0.224046
-0.225097
-0.215984
-0.191754
-0.145921
-0.072085
0.035091
0.179706
0.363170
0.582798
0.832295
1.103068
1.384711
1.664523
1.927069
2.155132
2.332739
2.449254
2.502207
2.498000
2.450785
2.378738
2.298857
2.223805
2.162083
2.120140
2.103320
2.114238
2.152301
2.215936
2.303132
2.409122
2.525166
2.639505
2.739164
2.812595
2.851829
2.852655
2.814447
2.740591
2.637656
2.513219
2.374594
2.228296
2.078624
1.926351
1.769708
1.607076
1.438986
1.269150
1.105182
0.957551
0.836053
0.746375
0.688743
0.658494
0.648203
0.649877
0.655552
0.657061
0.646890
0.620388
0.576949
0.518516
0.447338
0.365670
0.277060
0.186109
0.095325
0.002451
-0.097925
-0.209674
-0.331425
-0.457030
-0.580307
-0.699476
-0.816863
-0.934454
-1.049710
-1.155693
-1.244568
-1.310119
-1.347906
-1.354778
-1.328840
-1.269201
-1.175648
-1.049609
-0.895125
-0.717329
-0.520212
-0.306760
-0.079860
0.158088
0.404917
0.657847
0.914387
1.173450
1.434596
1.696751
1.957724
2.214290
2.463199
2.702677
2.932250
3.150992
3.356321
3.544027
3.709635
3.850060
3.963934
4.050989
4.111107
4.143529
4.147379
4.122689
4.070440
3.992440
3.891746
3.772469
3.638806
3.494744
3.344192
3.190169
3.033799
2.874334
2.709500
2.535916
2.350603
2.152882
1.944130
1.725924
1.499587
1.266824
1.029090
0.786457
0.538058
0.283664
0.024237
-0.239142
-0.506042
-0.776188
-1.049466
-1.326642
-1.608723
-1.894735
-2.179179
-2.450334
-2.691727
-2.887789
-3.029513
-3.115246
-3.147899
-3.132670
-3.076552
-2.988386
-2.877445
-2.750735
-2.611311
-2.458564
-2.290639
-2.107896
-1.914494
-1.716967
-1.521119
-1.329525
-1.142031
-0.958741
-0.781748
-0.614553
-0.461632
-0.327665
-0.214282
-0.117199
-0.027898
0.061636
0.155657
0.254985
0.359678
0.471583
0.594093
0.728586
0.871888
1.018574
1.164858
1.308832
1.448069
1.578776
1.696642
1.797269
1.876660
1.932548
1.965517
1.979461
1.981576
1.980301
1.981352
1.985998
1.992669
1.998189
1.997947
1.986814
1.959816
1.912408
1.842104
1.749941
1.639292
1.513760
1.376672
1.231340
1.081108
0.929732
0.781209
0.638434
0.502617
0.374342
0.254325
0.143082
0.040792
-0.052189
-0.135250
-0.207970
-0.269893
-0.319756
-0.355993
-0.377951
-0.385356
-0.377068
-0.351599
-0.308108
-0.246567
