EVENT_NAME: EMILIA_2ND_SHOCK
EVENT_ID: IT-2012-0011
EVENT_DATE_YYYYMMDD: 20120529
EVENT_TIME_HHMMSS: 070002
EVENT_LATITUDE_DEGREE: 44.8417
EVENT_LONGITUDE_DEGREE: 11.0657
EVENT_DEPTH_KM: 8.1
HYPOCENTER_REFERENCE: INGV-CNT_Seismic_Bulletin
MAGNITUDE_W: 6.0
MAGNITUDE_W_REFERENCE: RCMT-INGV
MAGNITUDE_L: 5.8
MAGNITUDE_L_REFERENCE: INGV-CNT_Seismic_Bulletin
FOCAL_MECHANISM: TF
NETWORK: IT
STATION_CODE: CRP
STATION_NAME: CARPI
STATION_LATITUDE_DEGREE: 44.782300
STATION_LONGITUDE_DEGREE: 10.870300
STATION_ELEVATION_M: 89
LOCATION: 
SENSOR_DEPTH_M: 0.0
VS30_M/S: 
SITE_CLASSIFICATION_EC8: C*
MORPHOLOGIC_CLASSIFICATION: 
EPICENTRAL_DISTANCE_KM: 16.8
EARTHQUAKE_BACKAZIMUTH_DEGREE: 66.8
DATE_TIME_FIRST_SAMPLE_YYYYMMDD_HHMMSS: 20120529_065953.000
DATE_TIME_FIRST_SAMPLE_PRECISION: seconds
SAMPLING_INTERVAL_S: 0.005000
NDATA: 27723
DURATION_S: 138.615
STREAM: HNN
UNITS: cm/s^2
INSTRUMENT: sensor = Episensor FBA ES-T [Kinemetrics] | digitizer = Etna [Kinemetrics]
INSTRUMENT_ANALOG/DIGITAL: D
INSTRUMENTAL_FREQUENCY_HZ: 
INSTRUMENTAL_DAMPING: 
FULL_SCALE_G: 
N_BIT_DIGITAL_CONVERTER: 18
PGA_CM/S^2: 172.779187
TIME_PGA_S: 23.375000
BASELINE_CORRECTION: BASELINE REMOVED
FILTER_TYPE: BUTTERWORTH
FILTER_ORDER: 2
LOW_CUT_FREQUENCY_HZ: 0.050
HIGH_CUT_FREQUENCY_HZ: 40.000
LATE/NORMAL_TRIGGERED: NT
DATABASE_VERSION: DYNA 1.0
HEADER_FORMAT: DYNA 1.2
DATA_TYPE: ACCELERATION
PROCESSING: manual (Paolucci et al., 2011)
DATA_TIMESTAMP_YYYYMMDD_HHMMSS: 20141204_103047.929
DATA_LICENSE: CC-BY3_0-IT (http://creativecommons.org/licenses/by/3.0/deed.en)
DATA_CITATION: ESM working group (2015), European Strong-Motion database, version 0.1, Network Activity 3: Networking acceleration networks and SM data users. Project NERA (www.nera-eu.org)
DATA_CREATOR: ESM working group
ORIGINAL_DATA_MEDIATOR_CITATION: Ufficio Rischio Sismico e Vulcanico del Dipartimento della Protezione Civile (http://www.protezionecivile.gov.it/)
ORIGINAL_DATA_MEDIATOR: Rete Accelerometrica Nazionale - RAN Download (http://www.mot1.it/randownload/)
ORIGINAL_DATA_CREATOR_CITATION: Italian Strong Motion Network, Italian Civil Protection Department http://www.protezionecivile.gov.it
ORIGINAL_DATA_CREATOR: network: IT (Italian Strong Motion Network); owner: Dipartimento Della Protezione Civile
USER1: /home/dyna/processing-itaca/processing.py /var/www/processing/tmp/fpacor//IT.CRP..HNE.D.20120529.070003.X.ACC.ASC /var/www/processing/tmp/fpacor//IT.CRP..HNN.D.20120529.070003.X.ACC.ASC /var/www/processing/tmp/fpacor//IT.CRP..HNZ.D.20120529.070003.X.ACC.ASC --tmp /var/www/processing/tmp/fpacor/ --le 0.050 --he 40.000 --ln 0.050 --hn 40.000 --lz 0.050 --hz 40.000 --fo 2 --ca -10 --cz 40 --ta 5 --tz 5 --mf 1 --rf 0 --tr NT
USER2: 
USER3: 
USER4: 
USER5: 
[...]
-7.753058
-6.007270
-1.676370
2.790246
5.376576
5.593322
4.376745
2.868078
1.320681
-0.435159
-1.819630
-1.821598
-0.471629
0.836230
0.645364
-1.077242
-2.765543
-2.874585
-1.567362
-0.261055
0.067475
-0.658767
-2.279961
-4.406274
-5.914873
-5.458576
-2.762270
1.031386
4.428709
6.716407
7.941273
8.003495
6.134810
1.767647
-3.925002
-8.093923
-8.320692
-4.331785
2.061391
7.895675
10.285966
7.870427
1.724227
-5.051815
-9.030483
-8.380165
-3.775586
2.020846
5.686979
5.233878
0.905777
-5.123008
-9.435106
-8.796613
-2.586150
5.940436
11.690159
11.581855
6.521673
0.018406
-4.556317
-5.524335
-2.977412
1.624911
6.015512
7.971943
6.307095
1.585957
-4.037369
-8.008638
-8.630406
-5.639816
-0.486766
3.978829
5.247853
3.082026
-0.497325
-2.984278
-3.129128
-1.531993
0.132012
0.774229
0.834034
1.232036
1.652528
0.676970
-2.200677
-5.353989
-6.240073
-3.687985
1.011242
5.054608
6.228386
4.427282
1.437803
-0.589406
-0.669157
0.448415
1.170065
0.850738
0.417143
0.924287
2.101648
2.837851
2.673796
2.182253
1.814202
0.916073
-1.506893
-5.103086
-7.900865
-8.162043
-6.157167
-3.625826
-1.951451
-1.263465
-0.559427
1.596937
5.644386
10.096939
12.636991
12.067420
8.902956
4.413538
-0.476978
-5.248032
-9.022505
-10.551227
-9.469449
-7.024651
-4.920267
-3.703104
-2.585322
-0.417411
3.357543
8.068021
11.746514
12.248090
8.860119
2.694209
-4.217370
-9.887526
-12.928528
-12.737688
-9.461822
-4.138088
1.319037
4.968016
5.829261
4.126211
1.211609
-0.804009
-0.279816
2.646482
6.005195
7.325280
5.291843
0.517151
-4.853516
-8.167693
-7.578518
-3.248669
2.555348
6.956512
8.336017
6.821668
3.387459
-0.835848
-4.428816
-5.717278
-3.659883
0.986192
5.620769
7.594843
6.302525
3.408596
1.349704
1.754144
4.723594
9.073200
13.102819
15.337606
15.113172
12.892997
9.946051
7.554790
6.513680
7.075531
8.808638
10.429772
10.299008
7.450045
2.241118
-3.637598
-7.656137
-7.578005
-2.758863
5.386741
14.161715
21.168344
25.538795
27.977859
29.988924
32.980610
37.656635
43.896317
50.894325
57.306183
61.647217
63.078754
62.006424
59.764496
57.553005
55.447865
51.880795
43.858826
28.388472
4.603029
-25.133726
-56.292122
-84.542130
-107.568199
-125.218117
-138.016571
-145.387085
-145.609711
-137.727539
-123.092201
-104.906891
-86.660713
-70.786270
-57.950069
-47.113773
-36.477589
-25.014088
-13.364426
-3.036514
5.112330
11.362348
16.388985
20.272869
22.378609
22.469805
21.740997
22.429514
26.366421
33.557968
42.155289
49.979328
55.664169
58.667377
59.112476
57.630978
55.058998
52.025532
48.368378
42.930260
34.324017
22.188515
7.897873
-5.904571
-16.681812
-23.245682
-26.123234
-27.001640
-27.458160
-27.956846
-28.092899
-27.339211
-25.131151
-20.764109
-14.059628
-6.108897
1.107723
5.839607
7.340984
6.021470
3.311991
1.256209
1.478290
4.052305
7.461655
9.761791
9.965337
8.744882
7.845761
8.581249
11.046303
14.615033
18.577158
22.211006
24.628677
25.075439
23.548256
20.729963
17.241074
13.106871
7.835269
0.987575
-7.156308
-15.368676
-21.991268
-25.883959
-26.783537
-24.633627
-19.220604
-11.108318
-2.391005
4.399212
8.201714
9.650086
9.545012
8.077208
5.558490
2.805272
0.327436
-1.982785
-4.004097
-5.290617
-5.860824
-6.103980
-6.077896
-5.466435
-4.148816
-2.633781
-1.845537
-2.315957
-3.382119
-3.215537
-0.107008
6.046060
13.691466
20.539499
24.167652
23.010363
17.837694
11.551993
6.855580
4.468624
3.527906
2.798651
1.353709
-0.928264
-3.014472
-3.284559
-0.755541
4.181105
10.010429
14.823674
16.988478
15.948619
12.869643
9.964301
8.658704
8.561186
8.295580
6.908579
4.411359
1.682100
0.049932
0.407192
2.682106
6.142625
9.412987
10.271151
6.705754
-1.284686
-11.345262
-20.412472
-26.399153
-28.517090
-27.221304
-24.051561
-20.507809
-16.991053
-13.226173
-9.338266
-6.032602
-4.001601
-3.540130
-4.350634
-5.565640
-6.487895
-7.189541
-7.680286
-6.724532
-2.259892
6.976931
20.310249
35.448772
49.816223
61.564457
69.855301
74.314110
73.980637
67.580040
55.279591
39.404564
23.327435
10.196819
2.114129
-0.505638
1.171289
5.437494
10.951710
16.601345
21.116495
23.326487
22.347557
17.537600
8.930069
-2.306069
-14.241304
-25.083864
-33.617943
-38.976467
-40.359592
-37.199699
-29.622581
-18.580967
-5.828379
6.017055
14.321867
18.052074
18.026085
15.374133
10.342531
2.543503
-8.253606
-21.576498
-36.112682
-50.041065
-61.774807
-70.389084
-75.439575
-77.331841
-77.900215
-79.487854
-83.279793
-88.759163
-94.370216
-98.460442
-99.981148
-98.740196
-95.043320
-89.348282
-82.674759
-76.759300
-72.757797
-69.892975
-66.008820
-59.398659
-50.066936
-39.531601
-29.536167
-21.129948
-14.805700
-10.779974
-9.049523
-9.494264
-11.540488
-13.510272
-12.965166
-8.227017
0.587573
12.214596
25.427322
39.267982
52.752686
64.746117
73.976303
79.155510
79.115448
73.015717
60.672707
42.869911
21.488279
-0.840169
-21.565964
-39.095142
-52.916180
-62.442738
-65.820755
-60.832478
-47.426922
-28.850609
-9.872260
5.958746
17.256870
24.092916
27.626398
30.105207
34.122257
41.119820
50.387085
59.871471
67.700401
72.645699
74.105820
72.182701
67.608299
61.810261
56.575905
52.803066
49.869686
46.552425
42.289928
37.474075
32.631191
27.951963
23.614454
19.319344
13.704760
5.414270
-5.535710
-17.998384
-30.634415
-41.821396
-49.342842
-51.601498
-49.253193
-44.768776
-40.277233
-36.336197
-32.484047
-28.281790
-23.732565
-19.014885
-14.175777
-9.037704
-3.374535
2.582508
8.106129
12.814917
17.053385
20.793383
22.924143
22.461203
19.650850
15.566698
11.247986
7.166358
3.141010
-1.409141
-6.890151
-13.019797
-19.115080
-24.671019
-29.211109
-31.891317
-32.050983
-29.997181
-26.646061
-22.825308
-19.068216
-15.405053
-11.381249
-6.836318
-2.557889
0.294808
1.279385
1.064499
1.158597
3.235666
8.260232
16.091309
25.710957
35.623112
44.342960
50.702171
53.876961
53.819847
51.772011
49.601929
48.335194
47.621174
46.424980
43.824757
39.576649
34.432423
29.776230
26.766144
25.757729
26.410482
28.197227
30.735996
33.647900
36.267250
37.851185
38.081306
36.850315
33.668674
28.148956
21.077969
14.138268
8.505882
4.057959
-0.468513
-6.704264
-15.415983
-25.656260
-35.209007
-41.918209
-44.683201
-43.632133
-39.752968
-34.397484
-28.823177
-23.892826
-20.135044
-17.638426
-15.612568
-12.483712
-6.618715
2.872610
15.642738
30.369881
45.525440
59.701599
71.684143
80.841064
86.918861
89.336983
87.428780
81.000015
69.966316
53.866947
32.433044
6.756394
-20.297396
-44.762817
-62.813564
-72.071297
-72.493942
-66.452797
-57.697437
-49.574253
-43.765003
-40.606876
-40.493713
-44.338783
-52.396114
-63.237053
-74.228287
-82.930862
-88.115524
-89.466476
-86.673660
-79.591347
-69.177887
-57.417805
-46.019238
-35.307430
-24.282438
-11.571648
3.498746
20.267382
36.978897
51.988251
64.652611
74.865280
82.578812
88.051437
91.619240
93.275055
92.941833
90.721664
86.824333
81.844643
76.887573
72.720871
68.979759
64.595345
58.943108
52.421532
45.714039
38.728127
30.659491
20.838793
9.088489
-4.581567
-19.788872
-34.899750
-46.875717
-52.423805
-49.623512
-39.026527
-23.641058
-7.544366
6.349309
17.306807
25.683842
31.653515
34.989891
35.318890
32.492336
27.004795
20.079758
13.160412
7.170685
2.249550
-2.012205
-6.022119
-9.495172
-11.682326
-12.469997
-12.444714
-12.002534
-11.348691
-11.029390
-11.532290
-12.432739
-12.421098
-10.224777
-5.486375
0.788726
6.302700
8.460500
5.652998
-2.371630
-14.543557
-28.264608
-39.917439
-46.330372
-45.989754
-39.359444
-28.421566
-15.824656
-4.138793
4.915683
11.023276
14.722009
16.514652
16.762861
15.697574
13.229707
9.110293
3.435578
-3.019715
-9.151874
-14.116133
-17.435827
-18.850845
-18.139055
-15.091056
-10.003632
-4.184306
0.517603
2.759483
1.938835
-2.223395
-9.598418
-19.276445
-29.563000
-38.446621
-44.460960
-47.271282
-47.353664
-45.269360
-41.388016
-36.264950
-31.135138
-27.753477
-27.525869
-30.491571
-34.905193
-38.157795
-38.287807
-34.482784
-26.812466
-16.056555
-3.380630
9.999279
22.770229
33.634960
41.855637
47.498405
51.013187
52.720642
52.623692
50.480736
46.142368
39.887108
32.284889
23.726221
14.055353
2.640416
-11.006225
-26.587503
-42.856098
-57.846428
-69.408585
-76.109093
-78.281845
-78.127075
-78.043831
-78.801811
-79.746544
-80.132317
-79.585632
-78.135727
-76.371696
-74.893021
-73.214500
-69.411278
-60.927746
-45.831760
-24.209818
0.832512
24.429838
43.008598
55.545822
62.221394
63.397934
59.951683
53.174187
44.225361
34.316227
24.653528
15.724715
7.407916
-0.194185
-6.623293
-11.611579
-15.237587
-17.728937
-19.637268
-21.897881
-25.185526
-29.342264
-33.567245
-36.923401
-38.572323
-37.884579
-34.833740
-30.278856
-25.278334
-20.052973
-14.348886
-8.850900
-5.241476
-4.562242
-6.263181
-8.987152
-11.645755
-13.864271
-15.917253
-18.090208
-20.220888
-22.319935
-25.033560
-28.750359
-32.857574
-36.282017
-37.916409
-36.198875
-29.229753
-16.200022
1.197721
18.916277
32.389915
39.198627
40.654015
40.427242
41.177288
42.408226
41.458279
36.251949
26.930058
15.262776
3.180707
-7.833354
-16.447649
-21.494116
-22.533344
-20.214254
-16.075607
-11.989004
-9.155442
-7.048957
-3.901179
1.643240
10.036612
21.164881
34.003017
46.660881
57.493824
65.670502
70.908150
73.546936
74.613457
75.170219
75.570274
75.228592
72.811974
66.765266
56.104275
40.926197
22.425838
2.689884
-15.817359
-30.883099
-41.075848
-46.410896
-48.603073
-50.128841
-52.682728
-56.606888
-61.706348
-67.584770
-72.768219
-74.983109
-73.056732
-67.719772
-60.700794
-53.429634
-46.006870
-37.478699
-27.369648
-16.380756
-5.475276
4.990521
14.838391
23.260122
28.903223
30.550888
27.779741
21.636522
14.447224
8.418088
5.057195
5.524423
9.933419
16.599689
22.987804
27.076706
27.842520
25.542580
21.539433
17.018902
12.342815
7.770433
3.734392
0.548327
-1.264922
-0.917221
1.583443
5.128154
8.552813
11.139931
12.467757
12.359812
10.772064
7.834653
4.407307
2.344497
3.169870
6.651591
11.438445
16.311838
20.564932
24.037594
26.811323
28.749254
29.721550
30.082134
30.544197
31.820044
34.256683
37.344360
39.782475
40.332806
38.413261
34.015995
27.695257
20.580841
13.983796
9.198466
7.385624
8.745597
11.956662
15.107009
17.090387
17.955673
18.471399
19.517361
21.386761
23.541677
24.972322
24.710526
22.299747
18.039612
12.918738
8.267818
5.130969
3.531783
2.396938
0.763946
-0.831546
-0.598087
2.786079
9.155095
17.412361
26.195593
34.142357
40.183491
43.522816
43.347416
38.991367
30.669567
19.619040
7.291942
-5.087617
-16.548582
-26.443224
-34.111683
-38.751251
-40.043224
-38.473751
-34.698090
-29.029934
-21.949318
-14.644140
-8.645205
-4.947744
-3.397422
-3.058790
-3.184897
-3.518807
-3.966130
-4.571421
-5.566056
-6.902805
-8.066551
-8.665675
-8.576144
-7.445479
-4.821166
-0.712019
4.063319
7.849103
9.128845
7.789745
4.804278
0.948283
-3.544184
-8.431673
-13.124829
-16.964531
-19.701309
-21.436140
-22.256960
-22.441542
-22.612171
-23.131754
-23.854530
-24.598198
-25.207726
-25.329975
-24.867767
-24.394943
-24.320711
-24.135639
-23.374285
-22.639639
-22.823227
-23.821676
-24.692999
-24.761423
-23.931067
-22.153257
-19.168913
-14.651762
-8.305633
0.020252
10.018317
20.825691
31.342508
40.392063
46.812389
49.812511
49.086670
44.743778
37.568806
29.178438
21.585983
16.561392
15.022403
16.686136
20.488045
25.218023
29.798847
33.412212
35.464622
35.592571
33.650833
29.571142
23.495031
15.870347
7.278907
-1.416745
-8.764664
-13.169581
-13.834372
-11.111035
-6.364691
-1.464355
2.366824
5.055624
6.802157
7.484213
7.126315
6.055569
4.352063
1.821753
-1.306747
-4.144906
-5.802897
-5.919898
-4.544955
-2.037830
0.915087
3.562388
5.447684
6.681571
8.120568
10.914047
15.388272
20.591734
24.915960
26.964542
26.213722
23.015867
17.997885
11.728472
4.836480
-2.124059
-9.000008
-15.686380
-21.593584
-25.864744
-27.702785
-26.362822
-21.463869
-13.582766
-4.114732
5.411079
13.488668
18.806984
20.975002
20.776253
19.536917
18.434317
18.177731
18.711273
19.175524
18.479174
15.868782
11.176202
4.785654
-2.743840
-11.052211
-20.093704
-29.923777
-40.179707
-49.816017
-57.489090
-62.230572
-63.866852
-62.801399
-59.378101
-53.786938
-46.553898
-38.530430
-30.467625
-22.997997
-16.693661
-11.945413
-9.159110
-8.981820
-12.036101
-18.397427
-27.181599
-36.652653
-44.915749
-50.597973
-52.746738
-49.704056
-38.425571
-15.974772
17.836136
59.276047
101.733574
137.858337
162.087585
172.779190
172.416245
165.444885
155.284027
142.869370
127.718658
109.836571
90.272514
69.880760
47.414833
19.432060
-16.145214
-55.544998
-89.586868
-110.006721
-114.926765
-107.889435
-93.558464
-75.540253
-56.348789
-37.782642
-21.549892
-9.172516
-0.935769
4.367596
8.562070
13.282489
19.553169
27.318132
35.211994
41.549152
45.561790
46.964081
45.016666
39.039047
29.759010
19.821756
12.313931
8.240893
5.657220
1.344354
-6.874268
-19.086864
-33.585346
-47.821339
-59.572891
-67.634727
-71.719391
-72.249405
-70.277496
-66.887939
-62.429127
-56.668228
-49.440563
-40.776890
-30.791759
-19.702040
-7.645220
5.386330
18.981911
31.956224
42.687534
49.346291
50.577187
47.007156
41.285225
36.333439
34.189747
35.380257
38.340031
40.554325
40.790340
39.273418
35.914120
29.940905
21.277834
10.867234
-0.310006
-11.786002
-23.598400
-36.075623
-49.067005
-61.117970
-69.898087
-73.610741
-71.817574
-65.200111
-54.922150
-42.398022
-29.502163
-18.259348
-9.882016
-4.505103
-1.903113
-1.712242
-2.970744
-4.252068
-4.356211
-2.750865
0.220883
3.393218
5.501554
6.115571
5.851480
5.846555
6.942577
9.062530
11.257799
12.209258
10.594373
5.279351
-4.178894
-16.884741
-30.866026
-44.109631
-55.028862
-62.382549
-65.433609
-64.016228
-58.383251
-49.450279
-39.024803
-29.121569
-20.859333
-14.241123
-8.822863
-4.084967
0.624279
5.987706
12.627958
20.947163
30.467691
39.355576
45.190720
46.332417
42.645351
35.714413
28.421141
23.484201
22.065628
23.586744
26.465366
28.926350
29.472143
27.086863
21.452374
13.104448
3.174223
-7.084646
-16.845226
-25.990307
-34.413670
-41.283966
-45.421524
-46.064636
-43.268566
-38.090710
-32.502388
-28.405107
-26.219341
-24.845194
-23.106283
-20.658615
-17.565044
-13.826305
-9.540542
-4.999854
-0.363569
4.569530
9.851535
14.976003
19.466724
23.215128
26.255714
28.762398
30.737385
31.658781
30.798006
27.751808
22.896133
17.495277
13.054793
10.522416
10.011640
10.823886
11.910187
12.624096
12.815528
12.410683
11.204799
9.033113
6.084618
2.953226
0.407697
-1.012315
-1.314611
-0.961127
-0.509697
-0.310429
-0.561525
-1.465165
-3.192565
-5.918076
-9.594167
-13.555140
-16.766815
-18.361212
-17.737440
-14.615389
-9.427237
-3.382696
2.103877
6.061247
8.274929
9.085225
9.011950
8.400980
7.156309
5.181397
2.909813
0.985714
-0.143828
-0.174024
1.009461
3.095171
5.543257
8.028262
10.489836
13.040596
15.853135
18.822798
21.441656
23.097076
23.356171
22.132954
19.803865
16.719973
12.464360
6.350109
-1.432493
-9.760465
-17.195719
-22.360708
-24.361279
-23.239695
-19.742529
-14.711725
-9.181642
-4.679950
-2.554129
-2.953706
-4.870454
-6.892073
-7.431380
-5.097269
0.177755
6.955585
13.365037
17.586302
17.851669
13.286821
4.621838
-6.380461
-17.549603
-26.596819
-31.921574
-33.243221
-31.392616
-27.687765
-23.171574
-18.078596
-12.100114
-5.146489
2.522996
10.708919
19.089958
26.725784
32.310658
34.881912
34.096600
30.384457
25.168171
20.288799
16.910128
15.179277
14.629724
14.463071
13.650391
11.083106
5.722689
-2.884220
-13.963359
-25.767275
-36.544624
-45.053558
-50.301144
-51.573280
-49.066257
-43.843258
-37.103600
-29.988705
-23.804361
-19.704006
-18.218458
-19.336706
-22.386429
-25.938103
-28.505903
-28.974358
-26.540264
-21.031788
-13.171234
-4.162932
4.851662
12.839674
18.831745
22.094276
22.325230
19.762503
15.066678
9.089717
2.721432
-3.014935
-7.036733
-8.798497
-8.399618
-6.287544
-3.395711
-0.964908
0.137380
-0.261591
-1.796354
-3.675876
-4.805808
-4.459021
-2.866706
-0.853121
0.897430
2.105162
2.826550
3.417379
4.368930
6.039754
8.597315
12.005778
15.911998
19.709297
22.860477
25.314783
27.746214
31.038902
35.299400
39.744541
43.501011
46.086472
47.243549
46.705940
44.259087
39.919418
33.994499
27.049961
19.816038
12.876159
6.530408
1.298392
-2.080198
-3.457810
-3.197511
-1.552486
1.111816
4.123020
6.863270
8.917247
10.095663
10.689865
11.546416
13.550840
16.928984
21.221338
25.769842
29.926546
33.069103
34.669731
34.453053
32.450165
28.497192
22.127375
13.600119
4.242925
-4.743711
-12.979039
-20.294758
-26.436337
-31.453310
-35.601009
-38.795116
-40.802616
-41.974953
-43.049950
-44.237949
-44.998821
-44.491314
-42.039410
-37.514992
-31.518244
-25.004936
-18.573792
-12.241311
-5.887351
0.297303
5.884514
10.527844
14.060475
16.376299
17.335159
16.934307
15.280088
12.204467
7.584881
2.047410
-3.275357
-7.449137
-10.041106
-11.405543
-12.728843
-15.150656
-19.021109
-24.113548
-29.805344
-34.964333
-38.218582
-38.595097
-35.825874
-30.075449
-21.784883
-11.768592
-0.948898
9.965740
20.144602
28.368752
33.687477
36.006550
35.817783
33.738876
30.440292
26.694498
23.146412
20.164396
17.912792
16.330257
15.067761
13.434962
10.707446
6.733300
1.921554
-3.276519
-8.491804
-13.244096
-17.071594
-19.787680
-21.349718
-21.686480
-20.931723
-19.526197
-17.833204
-16.170950
-15.095350
-14.835889
-14.942183
-14.906674
-14.459585
-13.354790
-11.384353
-8.479299
-4.668729
-0.111133
4.633433
8.398232
9.876982
8.455407
4.275401
-2.263463
-10.580342
-19.704399
-28.292597
-35.134800
-39.768353
-42.319492
-42.904755
-41.568558
-38.463306
-33.706535
-27.433233
-20.186361
-12.758707
-5.631701
0.957761
6.738875
11.677442
16.032042
19.837177
22.666552
24.073601
24.168777
23.363331
21.732117
19.217102
15.847871
