EVENT_NAME: EMILIA_2ND_SHOCK
EVENT_ID: IT-2012-0011
EVENT_DATE_YYYYMMDD: 20120529
EVENT_TIME_HHMMSS: 070002
EVENT_LATITUDE_DEGREE: 44.8417
EVENT_LONGITUDE_DEGREE: 11.0657
EVENT_DEPTH_KM: 8.1
HYPOCENTER_REFERENCE: INGV-CNT_Seismic_Bulletin
MAGNITUDE_W: 6.0
MAGNITUDE_W_REFERENCE: RCMT-INGV
MAGNITUDE_L: 5.8
MAGNITUDE_L_REFERENCE: INGV-CNT_Seismic_Bulletin
FOCAL_MECHANISM: TF
NETWORK: IT
STATION_CODE: CRP
STATION_NAME: CARPI
STATION_LATITUDE_DEGREE: 44.782300
STATION_LONGITUDE_DEGREE: 10.870300
STATION_ELEVATION_M: 89
LOCATION: 
SENSOR_DEPTH_M: 0.0
VS30_M/S: 
SITE_CLASSIFICATION_EC8: C*
MORPHOLOGIC_CLASSIFICATION: 
EPICENTRAL_DISTANCE_KM: 16.8
EARTHQUAKE_BACKAZIMUTH_DEGREE: 66.8
DATE_TIME_FIRST_SAMPLE_YYYYMMDD_HHMMSS: 20120529_065953.000
DATE_TIME_FIRST_SAMPLE_PRECISION: seconds
SAMPLING_INTERVAL_S: 0.005000
NDATA: 27723
DURATION_S: 138.615
STREAM: HNE
UNITS: cm/s
INSTRUMENT: sensor = Episensor FBA ES-T [Kinemetrics] | digitizer = Etna [Kinemetrics]
INSTRUMENT_ANALOG/DIGITAL: D
INSTRUMENTAL_FREQUENCY_HZ: 
INSTRUMENTAL_DAMPING: 
FULL_SCALE_G: 
N_BIT_DIGITAL_CONVERTER: 18
PGV_CM/S: -9.156144
TIME_PGV_S: 19.620000
BASELINE_CORRECTION: BASELINE REMOVED
FILTER_TYPE: BUTTERWORTH
FILTER_ORDER: 2
LOW_CUT_FREQUENCY_HZ: 0.050
HIGH_CUT_FREQUENCY_HZ: 40.000
LATE/NORMAL_TRIGGERED: NT
DATABASE_VERSION: DYNA 1.0
HEADER_FORMAT: DYNA 1.2
DATA_TYPE: VELOCITY
PROCESSING: manual (Paolucci et al., 2011)
DATA_TIMESTAMP_YYYYMMDD_HHMMSS: 20141204_103047.929
DATA_LICENSE: CC-BY3_0-IT (http://creativecommons.org/licenses/by/3.0/deed.en)
DATA_CITATION: ESM working group (2015), European Strong-Motion database, version 0.1, Network Activity 3: Networking acceleration networks and SM data users. Project NERA (www.nera-eu.org)
DATA_CREATOR: ESM working group
ORIGINAL_DATA_MEDIATOR_CITATION: Ufficio Rischio Sismico e Vulcanico del Dipartimento della Protezione Civile (http://www.protezionecivile.gov.it/)
ORIGINAL_DATA_MEDIATOR: Rete Accelerometrica Nazionale - RAN Download (http://www.mot1.it/randownload/)
ORIGINAL_DATA_CREATOR_CITATION: Italian Strong Motion Network, Italian Civil Protection Department http://www.protezionecivile.gov.it
ORIGINAL_DATA_CREATOR: network: IT (Italian Strong Motion Network); owner: Dipartimento Della Protezione Civile
USER1: /home/dyna/processing-itaca/processing.py /var/www/processing/tmp/fpacor//IT.CRP..HNE.D.20120529.070003.X.ACC.ASC /var/www/processing/tmp/fpacor//IT.CRP..HNN.D.20120529.070003.X.ACC.ASC /var/www/processing/tmp/fpacor//IT.CRP..HNZ.D.20120529.070003.X.ACC.ASC --tmp /var/www/processing/tmp/fpacor/ --le 0.050 --he 40.000 --ln 0.050 --hn 40.000 --lz 0.050 --hz 40.000 --fo 2 --ca -10 --cz 40 --ta 5 --tz 5 --mf 1 --rf 0 --tr NT
USER2: 
USER3: 
USER4: 
USER5: 
[...]
-0.062227
-0.062270
-0.062348
-0.062425
-0.062476
-0.062527
-0.062602
-0.062674
-0.062721
-0.062763
-0.062814
-0.062849
-0.062858
-0.062871
-0.062896
-0.062910
-0.062913
-0.062931
-0.062969
-0.063007
-0.063039
-0.063071
-0.063100
-0.063104
-0.063093
-0.063102
-0.063136
-0.063164
-0.063182
-0.063219
-0.063278
-0.063336
-0.063397
-0.063480
-0.063566
-0.063615
-0.063634
-0.063654
-0.063674
-0.063674
-0.063679
-0.063722
-0.063784
-0.063827
-0.063854
-0.063898
-0.063957
-0.064008
-0.064054
-0.064111
-0.064161
-0.064178
-0.064182
-0.064218
-0.064279
-0.064323
-0.064340
-0.064351
-0.064350
-0.064319
-0.064281
-0.064286
-0.064326
-0.064349
-0.064344
-0.064348
-0.064379
-0.064414
-0.064445
-0.064500
-0.064575
-0.064635
-0.064677
-0.064735
-0.064813
-0.064878
-0.064924
-0.064967
-0.065011
-0.065045
-0.065082
-0.065143
-0.065193
-0.065179
-0.065112
-0.065056
-0.065044
-0.065058
-0.065090
-0.065149
-0.065213
-0.065237
-0.065224
-0.065236
-0.065308
-0.065407
-0.065489
-0.065556
-0.065609
-0.065626
-0.065612
-0.065611
-0.065650
-0.065707
-0.065757
-0.065794
-0.065808
-0.065780
-0.065724
-0.065696
-0.065724
-0.065780
-0.065827
-0.065859
-0.065880
-0.065877
-0.065858
-0.065870
-0.065938
-0.066020
-0.066076
-0.066122
-0.066183
-0.066238
-0.066269
-0.066301
-0.066356
-0.066406
-0.066425
-0.066435
-0.066450
-0.066445
-0.066409
-0.066377
-0.066367
-0.066359
-0.066355
-0.066383
-0.066441
-0.066474
-0.066461
-0.066450
-0.066474
-0.066506
-0.066530
-0.066585
-0.066688
-0.066786
-0.066848
-0.066898
-0.066950
-0.066960
-0.066921
-0.066885
-0.066885
-0.066887
-0.066867
-0.066848
-0.066864
-0.066901
-0.066942
-0.066992
-0.067045
-0.067070
-0.067072
-0.067091
-0.067137
-0.067169
-0.067160
-0.067124
-0.067078
-0.067014
-0.066931
-0.066860
-0.066824
-0.066806
-0.066784
-0.066769
-0.066770
-0.066788
-0.066841
-0.066953
-0.067078
-0.067133
-0.067134
-0.067184
-0.067281
-0.067271
-0.067044
-0.066664
-0.066239
-0.065835
-0.065546
-0.065462
-0.065498
-0.065373
-0.064848
-0.064043
-0.063460
-0.063495
-0.063914
-0.064101
-0.063875
-0.063676
-0.063919
-0.064463
-0.064725
-0.064120
-0.062634
-0.061145
-0.060890
-0.062349
-0.064770
-0.066761
-0.067319
-0.066458
-0.065026
-0.063894
-0.063295
-0.062926
-0.062388
-0.061343
-0.059737
-0.058363
-0.058538
-0.060489
-0.062594
-0.063008
-0.061678
-0.060186
-0.059828
-0.060194
-0.059617
-0.057097
-0.053747
-0.051959
-0.053101
-0.056354
-0.059698
-0.061470
-0.061064
-0.059083
-0.057105
-0.056408
-0.056561
-0.055957
-0.053992
-0.052017
-0.051692
-0.052960
-0.054383
-0.055081
-0.055449
-0.056129
-0.057270
-0.058878
-0.060909
-0.062710
-0.063325
-0.062797
-0.062256
-0.062121
-0.061135
-0.058033
-0.053650
-0.050736
-0.051767
-0.056889
-0.063492
-0.067712
-0.067046
-0.062044
-0.055583
-0.050775
-0.049441
-0.051504
-0.055052
-0.057724
-0.058754
-0.059266
-0.060460
-0.062319
-0.064070
-0.064902
-0.064208
-0.062048
-0.059497
-0.058065
-0.058784
-0.061760
-0.065901
-0.068881
-0.068328
-0.063927
-0.058121
-0.054104
-0.053279
-0.055020
-0.058304
-0.062415
-0.066060
-0.067231
-0.064851
-0.060023
-0.055150
-0.052059
-0.051134
-0.051967
-0.054390
-0.058374
-0.062973
-0.066136
-0.066171
-0.063310
-0.059576
-0.057098
-0.056523
-0.056962
-0.057326
-0.057511
-0.058178
-0.059593
-0.061034
-0.061532
-0.060693
-0.058354
-0.054249
-0.049129
-0.045850
-0.047922
-0.056024
-0.066189
-0.072390
-0.071339
-0.064592
-0.056396
-0.050206
-0.047126
-0.046767
-0.048783
-0.053033
-0.058506
-0.063080
-0.064972
-0.064147
-0.061899
-0.059261
-0.056517
-0.054351
-0.054345
-0.057423
-0.062414
-0.067094
-0.070343
-0.072388
-0.073152
-0.071464
-0.066271
-0.058244
-0.050008
-0.044737
-0.043996
-0.046634
-0.050083
-0.052572
-0.053736
-0.053720
-0.052515
-0.050005
-0.046595
-0.043941
-0.044054
-0.046804
-0.049246
-0.048603
-0.045542
-0.043634
-0.045553
-0.050233
-0.053718
-0.052412
-0.045752
-0.036736
-0.030076
-0.028811
-0.031874
-0.035242
-0.035821
-0.033838
-0.031541
-0.030612
-0.031189
-0.032518
-0.033934
-0.035249
-0.036289
-0.036405
-0.035086
-0.032980
-0.031536
-0.031358
-0.031608
-0.031319
-0.030428
-0.028987
-0.026467
-0.023014
-0.020763
-0.022359
-0.027809
-0.033777
-0.036534
-0.035064
-0.030955
-0.026100
-0.021679
-0.019051
-0.019918
-0.024783
-0.032004
-0.038895
-0.043451
-0.045216
-0.045162
-0.044660
-0.044107
-0.042721
-0.039995
-0.036773
-0.034371
-0.033287
-0.033297
-0.034121
-0.035417
-0.036503
-0.036697
-0.036177
-0.036050
-0.036923
-0.037734
-0.037010
-0.035259
-0.034725
-0.036354
-0.038416
-0.039007
-0.038822
-0.040276
-0.044019
-0.047186
-0.045783
-0.038858
-0.029902
-0.023951
-0.023428
-0.026576
-0.029403
-0.029068
-0.025689
-0.021308
-0.017732
-0.015471
-0.013713
-0.010742
-0.005516
0.000361
0.003081
-0.000521
-0.010506
-0.022802
-0.029921
-0.024922
-0.007311
0.014400
0.027494
0.025175
0.013107
0.004228
0.005854
0.013021
0.015043
0.007142
-0.005552
-0.014131
-0.013472
-0.003682
0.012273
0.029378
0.040899
0.041998
0.034606
0.027099
0.026795
0.032783
0.038229
0.039274
0.038394
0.038993
0.040299
0.038890
0.033729
0.028612
0.028734
0.033825
0.036147
0.028395
0.013958
0.005880
0.012724
0.027125
0.032201
0.019561
-0.001730
-0.014223
-0.008386
0.010143
0.028052
0.037034
0.038085
0.036155
0.034967
0.036730
0.042152
0.048461
0.049815
0.042496
0.030385
0.024656
0.035995
0.063924
0.093183
0.104342
0.091032
0.065437
0.045771
0.040907
0.047958
0.059557
0.069271
0.073803
0.074845
0.076623
0.078801
0.074985
0.060855
0.040913
0.024773
0.018698
0.022660
0.033712
0.048249
0.060351
0.062768
0.053979
0.042729
0.041532
0.054825
0.074798
0.088939
0.091201
0.086560
0.085919
0.096661
0.116399
0.133541
0.134868
0.116323
0.087405
0.063777
0.056210
0.066214
0.087893
0.110672
0.122659
0.116408
0.094190
0.067986
0.053096
0.058509
0.079934
0.101961
0.109808
0.101028
0.086178
0.078331
0.081421
0.087755
0.086930
0.077041
0.065887
0.061878
0.066195
0.073244
0.075941
0.071052
0.061694
0.054355
0.052780
0.055738
0.059964
0.063026
0.064244
0.065221
0.068534
0.073663
0.075056
0.066914
0.050420
0.034649
0.029412
0.036707
0.048517
0.053615
0.047699
0.036553
0.028621
0.025703
0.023153
0.018892
0.018668
0.029782
0.051026
0.072148
0.083897
0.085772
0.082627
0.077320
0.070383
0.065140
0.068416
0.084100
0.107429
0.127574
0.136400
0.134441
0.128530
0.124178
0.121084
0.116305
0.110133
0.107063
0.111807
0.125974
0.147771
0.172299
0.191158
0.195063
0.181077
0.156903
0.135244
0.124609
0.127415
0.143616
0.170436
0.199034
0.216484
0.213261
0.189496
0.155451
0.124735
0.105074
0.096727
0.098575
0.110495
0.128926
0.144937
0.150125
0.144669
0.137914
0.138663
0.145572
0.150066
0.148171
0.145750
0.150944
0.164380
0.179596
0.191179
0.197846
0.197697
0.186158
0.161628
0.130974
0.107721
0.104677
0.125804
0.161564
0.192261
0.200202
0.182644
0.153565
0.131665
0.126765
0.137738
0.159798
0.188456
0.216533
0.233956
0.235001
0.224125
0.212828
0.211009
0.220179
0.232655
0.237539
0.230101
0.216300
0.207545
0.211276
0.225488
0.239587
0.241677
0.229263
0.212668
0.204835
0.208696
0.216896
0.221489
0.220728
0.218435
0.220159
0.229129
0.243956
0.260365
0.274974
0.287315
0.299719
0.314759
0.330371
0.338444
0.331696
0.312338
0.292088
0.283473
0.291225
0.310580
0.332279
0.348449
0.354952
0.352155
0.345959
0.345171
0.354087
0.367723
0.375917
0.372175
0.358098
0.340807
0.328107
0.324121
0.325538
0.322611
0.307640
0.283216
0.260351
0.248598
0.249286
0.257473
0.267632
0.276713
0.284933
0.295618
0.311376
0.328623
0.338895
0.336891
0.324585
0.307766
0.292538
0.285356
0.291165
0.307902
0.324737
0.329128
0.316936
0.296275
0.282226
0.286936
0.312493
0.350583
0.386523
0.405265
0.400907
0.385120
0.381380
0.403918
0.442799
0.473200
0.478732
0.463964
0.446138
0.438079
0.439823
0.443767
0.444212
0.441107
0.436782
0.432113
0.427835
0.428935
0.443932
0.475657
0.512756
0.534894
0.530055
0.505781
0.481510
0.471292
0.475100
0.482996
0.484271
0.475945
0.465652
0.463906
0.471897
0.478229
0.468636
0.440267
0.407820
0.393717
0.408611
0.441084
0.468189
0.475633
0.467004
0.455942
0.451963
0.452982
0.449314
0.434325
0.412529
0.398650
0.407458
0.440930
0.484039
0.515422
0.524150
0.515792
0.502780
0.491700
0.481610
0.472512
0.471160
0.486546
0.520577
0.562984
0.594334
0.597504
0.571659
0.534718
0.508185
0.499002
0.498158
0.496622
0.498420
0.513617
0.539675
0.556990
0.547796
0.516006
0.482751
0.464284
0.460265
0.461496
0.460980
0.457602
0.456184
0.464816
0.487658
0.519531
0.548636
0.564144
0.562341
0.547653
0.527595
0.506728
0.487946
0.479055
0.491025
0.524581
0.562349
0.580200
0.567227
0.534996
0.509452
0.511857
0.542482
0.581091
0.603694
0.599427
0.574998
0.547759
0.533861
0.537981
0.552564
0.568391
0.584244
0.603709
0.625889
0.645277
0.660561
0.677502
0.699907
0.720894
0.727478
0.714587
0.692559
0.679705
0.687499
0.711493
0.735020
0.743567
0.737302
0.727637
0.721766
0.715364
0.701675
0.682761
0.668892
0.669926
0.689259
0.722474
0.758184
0.782255
0.785844
0.770902
0.747337
0.725412
0.711073
0.705261
0.703421
0.696765
0.679541
0.657311
0.644776
0.652190
0.674664
0.696861
0.707343
0.706533
0.702329
0.701930
0.708081
0.718627
0.726907
0.725146
0.710580
0.688710
0.670018
0.662940
0.669365
0.685800
0.706670
0.725391
0.735849
0.737739
0.739556
0.751833
0.776525
0.804974
0.826318
0.835889
0.835536
0.829704
0.824467
0.827624
0.844057
0.870131
0.896175
0.915816
0.930886
0.946475
0.963602
0.978198
0.985594
0.985109
0.981670
0.983155
0.994126
1.010227
1.019075
1.009868
0.984540
0.958015
0.945917
0.952337
0.967839
0.976852
0.968952
0.946837
0.924130
0.914671
0.924008
0.950181
0.989106
1.035812
1.081452
1.114598
1.129952
1.134426
1.140630
1.154490
1.171695
1.184634
1.189158
1.185859
1.179068
1.175382
1.180546
1.195319
1.213640
1.226425
1.229584
1.228437
1.232406
1.244969
1.261218
1.276457
1.293728
1.319742
1.355557
1.394618
1.429406
1.457611
1.481970
1.506566
1.533886
1.562715
1.586830
1.597503
1.589983
1.567576
1.538573
1.510923
1.491556
1.487576
1.503342
1.535466
1.571944
1.597422
1.601555
1.585159
1.559685
1.539766
1.533487
1.536410
1.533629
1.509814
1.459899
1.390818
1.313602
1.233915
1.147189
1.040329
0.900736
0.727723
0.535679
0.345695
0.175375
0.036155
-0.063702
-0.117433
-0.122919
-0.088131
-0.031706
0.025650
0.072374
0.108454
0.136925
0.153885
0.147094
0.104220
0.022630
-0.087503
-0.206946
-0.313824
-0.390872
-0.431889
-0.443412
-0.439133
-0.428135
-0.403930
-0.345580
-0.232299
-0.058437
0.163327
0.410170
0.659184
0.892716
1.100984
1.284004
1.448701
1.599802
1.732462
1.833971
1.891501
1.898813
1.858778
1.781329
1.677726
1.554737
1.412968
1.249778
1.064368
0.861494
0.650551
0.442342
0.248273
0.079876
-0.055052
-0.155568
-0.224385
-0.262473
-0.268499
-0.240836
-0.177537
-0.076793
0.060137
0.227329
0.416434
0.619475
0.828548
1.034594
1.228580
1.402464
1.548318
1.660085
1.738328
1.790994
1.827120
1.849827
1.855154
1.835750
1.786360
1.709038
1.612903
1.506480
1.391911
1.269563
1.146514
1.036572
0.952043
0.898156
0.874294
0.875903
0.894033
0.917202
0.938114
0.959191
0.989987
1.039654
1.113262
1.213113
1.338784
1.483916
1.634936
1.775025
1.890352
1.974634
2.030755
2.068398
2.097355
2.119771
2.126492
2.101888
2.036217
1.935540
1.818951
1.705071
1.600651
1.500485
1.395398
1.281140
1.165223
1.068588
1.016535
1.021900
1.075532
1.153884
1.236653
1.318811
1.406610
1.502542
1.596094
1.669828
1.713224
1.731390
1.743143
1.771053
1.830270
1.922782
2.039220
2.165199
2.286932
2.393615
2.477868
2.535871
2.567349
2.574965
2.563984
2.543183
2.523981
2.515602
2.521103
2.538363
2.562247
2.583646
2.590225
2.575113
2.546223
2.523423
2.525308
2.559613
2.624262
2.712902
2.816845
2.922914
3.013362
3.071854
3.090626
3.071875
3.023790
2.956522
2.880481
2.805252
2.737641
2.680058
2.631591
2.590642
2.554524
2.514907
2.452431
2.335350
2.128512
1.811628
1.392419
0.902482
0.381347
-0.138050
-0.636172
-1.105661
-1.544880
-1.952466
-2.327120
-2.670362
-2.988404
-3.292945
-3.600630
-3.928445
-4.286537
-4.675486
-5.090789
-5.528347
-5.984274
-6.449850
-6.908243
-7.337331
-7.715499
-8.025437
-8.256043
-8.404773
-8.479665
-8.498018
-8.481705
-8.452988
-8.432238
-8.434926
-8.467609
-8.526438
-8.600880
-8.680662
-8.759285
-8.830703
-8.885583
-8.914948
-8.919657
-8.915576
-8.925589
-8.963052
-9.022498
-9.085792
-9.134569
-9.156144
-9.142148
-9.087708
-8.993389
-8.863553
-8.698549
-8.489001
-8.219820
-7.879944
-7.468177
-6.991710
-6.462327
-5.895292
-5.309751
-4.728406
-4.178009
-3.689656
-3.292467
-3.000600
-2.804513
-2.675033
-2.576757
-2.480669
-2.369416
-2.236650
-2.085879
-1.930111
-1.788402
-1.677566
-1.603867
-1.561333
-1.537714
-1.522378
-1.509833
-1.498130
-1.486007
-1.471486
-1.450362
-1.412812
-1.341900
-1.219124
-1.034487
-0.793168
-0.514123
-0.222005
0.063289
0.335341
0.602479
0.878650
1.171343
1.476499
1.781208
2.069043
2.324490
2.535539
2.695902
2.808286
2.884882
2.941626
2.991775
3.045166
3.111050
3.198860
3.314639
3.456594
3.616412
3.785825
3.958902
4.126642
4.272396
4.376268
4.425343
4.419804
4.372380
4.304728
4.240467
4.195813
4.174022
4.167058
4.162142
4.148632
4.120713
4.074710
4.005610
3.907607
3.778656
3.625253
3.462706
3.309456
3.178559
3.071501
2.977978
2.880938
2.763977
2.618033
2.444946
2.256757
2.070797
1.902129
1.756339
1.628485
1.511653
1.406896
1.322894
1.266466
1.235346
1.219058
1.203254
1.173666
1.120158
1.039787
0.938413
0.832340
0.746905
0.708054
0.731871
0.820374
0.964552
1.150676
1.366079
1.601155
1.847589
2.097135
2.343139
2.581644
2.809704
3.023291
3.218362
3.394978
3.559211
3.718059
3.870628
4.004142
4.099331
4.141147
4.126171
4.061883
3.959776
3.827858
3.667915
3.480404
3.272410
3.058895
2.855170
2.668463
2.495250
2.324291
2.142284
1.940155
1.717993
1.485796
1.259515
1.055384
0.885838
0.757519
0.670570
0.618989
0.592104
0.577703
0.565841
0.550676
0.529552
0.500957
0.463403
0.414954
0.352055
0.268949
0.159160
0.018534
-0.151957
-0.345158
-0.547630
-0.740937
-0.906524
-1.033264
-1.122463
-1.186056
-1.240555
-1.302861
-1.388799
-1.509354
-1.664111
-1.839070
-2.012020
-2.161413
-2.274294
-2.349848
-2.396471
-2.423903
-2.437096
-2.437864
-2.431249
-2.428230
-2.440981
-2.475349
-2.529858
-2.603545
-2.701792
-2.829659
-2.979371
-3.128623
-3.253262
-3.340222
-3.389003
-3.404955
-3.391850
-3.347582
-3.265583
-3.140603
-2.973077
-2.768173
-2.531928
-2.270008
-1.989356
-1.698043
-1.402444
-1.105291
-0.806021
-0.501813
-0.188480
0.138912
0.485214
0.852954
1.239928
1.639982
2.046679
2.454478
2.855484
3.237530
3.587904
3.899615
4.173553
4.413864
4.621967
4.795820
4.933403
5.034776
5.102355
5.142375
5.164965
5.180000
5.193039
5.206817
5.225790
5.255444
5.295693
5.336609
5.360927
5.350091
5.288928
5.168775
4.991388
4.770952
4.529471
4.288442
4.065081
3.874404
3.731066
3.647906
3.632920
3.686600
3.800265
3.956743
4.134889
4.315092
4.481033
4.616618
4.702986
4.723584
4.675204
4.571792
4.435556
4.284404
4.125914
3.957722
3.769778
3.548964
3.287297
2.988873
2.668604
2.341945
2.014277
1.680308
1.333306
0.973903
0.610673
0.253260
-0.094711
-0.434910
-0.767039
-1.085410
-1.383668
-1.660373
-1.918667
-2.162132
-2.392014
-2.606992
-2.804113
-2.979754
-3.130280
-3.253558
-3.351536
-3.430709
-3.497906
-3.556261
-3.608465
-3.663028
-3.733269
-3.830377
-3.959139
-4.117712
-4.298785
-4.492368
-4.689774
-4.884688
-5.069593
-5.232927
-5.363474
-5.460116
-5.536651
-5.614291
-5.707206
-5.813694
-5.918488
-6.000676
-6.040902
-6.027399
-5.960354
-5.850797
-5.713956
-5.562718
-5.404823
-5.242752
-5.075767
-4.903984
-4.731911
-4.568620
-4.422322
-4.291859
-4.164516
-4.025078
-3.869271
-3.711065
-3.578744
-3.501700
-3.494852
-3.549977
-3.640358
-3.736279
-3.820607
-3.893243
-3.961914
-4.028236
-4.082275
-4.109702
-4.102503
-4.063455
-4.003281
-3.934369
-3.864623
-3.793654
-3.712999
-3.610971
-3.480149
-3.323186
-3.152169
-2.981520
-2.821727
-2.680080
-2.564091
-2.479993
-2.428307
-2.402281
-2.389214
-2.374345
-2.347467
-2.308012
-2.264581
-2.229272
-2.210111
-2.207211
-2.216785
-2.239265
-2.282428
-2.355289
-2.458757
-2.582663
-2.711227
-2.830914
-2.935233
-3.026170
-3.113180
-3.208667
-3.320366
-3.446637
-3.580265
-3.716230
-3.854246
-3.996313
-4.145887
-4.307523
-4.481945
-4.659995
-4.823247
-4.953152
-5.043285
-5.105218
-5.161699
-5.232901
-5.328453
-5.448884
-5.587935
-5.730060
-5.849468
-5.917985
-5.918321
-5.852334
-5.736855
-5.589928
-5.419109
-5.222355
-5.000313
-4.765700
-4.538043
-4.330778
-4.146210
-3.981298
-3.834589
-3.707044
-3.598926
-3.507493
-3.425795
-3.342729
-3.246206
-3.127565
-2.984710
-2.823815
-2.656713
-2.492288
-2.328693
-2.155310
-1.963990
-1.758145
-1.550095
-1.350194
-1.158571
-0.965766
-0.759431
-0.530044
-0.272859
0.012779
0.324731
0.656605
0.993739
1.312523
1.586253
1.793494
1.923110
1.973605
1.948306
1.850420
1.682417
1.449442
1.160920
0.827850
0.460524
0.070577
-0.325272
-0.704967
-1.045506
-1.329682
-1.552063
-1.719550
-1.845402
-1.942738
-2.020907
-2.083002
-2.126535
-2.149297
-2.155955
-2.160562
-2.182589
-2.237822
-2.331712
-2.460744
-2.618907
-2.803090
-3.013004
-3.244723
-3.483357
-3.704769
-3.887541
-4.023666
-4.119053
-4.187676
-4.246632
-4.311849
-4.392923
-4.490287
-4.595653
-4.694100
-4.768871
-4.808758
-4.812224
-4.784503
-4.732744
-4.663687
-4.582650
-4.493753
-4.402096
-4.315136
-4.240710
-4.183527
-4.142929
-4.112530
-4.081970
-4.040404
-3.980352
-3.900024
-3.802245
-3.691418
-3.571513
-3.445271
-3.313869
-3.176690
-3.031466
-2.875951
-2.709873
-2.534315
-2.350267
-2.159566
-1.965158
-1.767129
-1.559707
-1.335739
-1.095123
-0.848851
-0.615720
-0.414232
-0.254810
