EVENT_NAME: EMILIA_2ND_SHOCK
EVENT_ID: IT-2012-0011
EVENT_DATE_YYYYMMDD: 20120529
EVENT_TIME_HHMMSS: 070002
EVENT_LATITUDE_DEGREE: 44.8417
EVENT_LONGITUDE_DEGREE: 11.0657
EVENT_DEPTH_KM: 8.1
HYPOCENTER_REFERENCE: INGV-CNT_Seismic_Bulletin
MAGNITUDE_W: 6.0
MAGNITUDE_W_REFERENCE: RCMT-INGV
MAGNITUDE_L: 5.8
MAGNITUDE_L_REFERENCE: INGV-CNT_Seismic_Bulletin
FOCAL_MECHANISM: TF
NETWORK: IT
STATION_CODE: CAS0
STATION_NAME: CASTELMASSA
STATION_LATITUDE_DEGREE: 45.025000
STATION_LONGITUDE_DEGREE: 11.311000
STATION_ELEVATION_M: 65
LOCATION: 
SENSOR_DEPTH_M: 0.0
VS30_M/S: 
SITE_CLASSIFICATION_EC8: C*
MORPHOLOGIC_CLASSIFICATION: 
EPICENTRAL_DISTANCE_KM: 28.1
EARTHQUAKE_BACKAZIMUTH_DEGREE: 223.6
DATE_TIME_FIRST_SAMPLE_YYYYMMDD_HHMMSS: 20120529_070003.000
DATE_TIME_FIRST_SAMPLE_PRECISION: seconds
SAMPLING_INTERVAL_S: 0.005000
NDATA: 29001
DURATION_S: 145.005
STREAM: HNE
UNITS: cm/s^2
INSTRUMENT: sensor = Episensor FBA ES-T [Kinemetrics] | digitizer = Etna [Kinemetrics]
INSTRUMENT_ANALOG/DIGITAL: D
INSTRUMENTAL_FREQUENCY_HZ: 
INSTRUMENTAL_DAMPING: 
FULL_SCALE_G: 
N_BIT_DIGITAL_CONVERTER: 18
PGA_CM/S^2: 66.153127
TIME_PGA_S: 16.310000
BASELINE_CORRECTION: BASELINE REMOVED
FILTER_TYPE: BUTTERWORTH
FILTER_ORDER: 2
LOW_CUT_FREQUENCY_HZ: 0.060
HIGH_CUT_FREQUENCY_HZ: 35.000
LATE/NORMAL_TRIGGERED: NT
DATABASE_VERSION: DYNA 1.0
HEADER_FORMAT: DYNA 1.2
DATA_TYPE: ACCELERATION
PROCESSING: manual (Paolucci et al., 2011)
DATA_TIMESTAMP_YYYYMMDD_HHMMSS: 
DATA_LICENSE: CC-BY3_0-IT (http://creativecommons.org/licenses/by/3.0/deed.en)
DATA_CITATION: ESM working group (2015), European Strong-Motion database, version 0.1, Network Activity 3: Networking acceleration networks and SM data users. Project NERA (www.nera-eu.org)
DATA_CREATOR: ESM working group
ORIGINAL_DATA_MEDIATOR_CITATION: Ufficio Rischio Sismico e Vulcanico del Dipartimento della Protezione Civile (http://www.protezionecivile.gov.it/)
ORIGINAL_DATA_MEDIATOR: Rete Accelerometrica Nazionale - RAN Download (http://www.mot1.it/randownload/)
ORIGINAL_DATA_CREATOR_CITATION: Italian Strong Motion Network, Italian Civil Protection Department http://www.protezionecivile.gov.it
ORIGINAL_DATA_CREATOR: network: IT (Italian Strong Motion Network); owner: Dipartimento Della Protezione Civile
USER1: 
USER2: 
USER3: 
USER4: 
USER5: 
[...]
-1.717099
-1.852889
-2.016914
-2.170953
-2.262009
-2.212377
-2.007812
-1.780717
-1.656708
-1.626679
-1.660961
-1.801178
-2.054615
-2.295045
-2.332691
-2.103533
-1.769884
-1.523427
-1.360245
-1.187769
-0.977859
-0.720734
-0.396854
0.006397
0.493513
0.991007
1.354203
1.569624
1.840058
2.352877
3.036513
3.603795
3.798079
3.603231
3.224516
2.819394
2.352596
1.808918
1.335096
1.076207
1.048806
1.165595
1.288110
1.351506
1.427402
1.541023
1.545877
1.307988
0.892058
0.477577
0.168727
-0.079936
-0.386466
-0.787466
-1.206266
-1.595837
-1.969957
-2.306275
-2.598942
-2.905093
-3.210084
-3.400174
-3.380961
-3.105657
-2.590926
-1.969548
-1.417872
-1.020742
-0.768518
-0.658742
-0.728410
-0.965915
-1.241746
-1.421658
-1.534532
-1.683233
-1.866492
-2.032704
-2.162272
-2.254021
-2.319274
-2.323309
-2.201092
-1.999739
-1.821517
-1.624968
-1.281490
-0.795541
-0.330703
-0.041374
0.078510
0.189845
0.399354
0.563716
0.472260
0.221483
0.154212
0.418416
0.810139
1.058613
1.112504
1.091308
1.053153
0.935825
0.712028
0.512272
0.539413
0.834775
1.187860
1.370762
1.400954
1.453122
1.575523
1.650046
1.591967
1.448500
1.347573
1.400199
1.587590
1.784129
1.915138
1.996557
2.039590
2.013980
1.898650
1.732334
1.613129
1.623972
1.732050
1.817498
1.843456
1.906748
2.080848
2.273552
2.265258
1.933620
1.431772
1.028564
0.807352
0.652456
0.483196
0.373322
0.429628
0.620404
0.784641
0.810777
0.743667
0.699812
0.710266
0.670485
0.485337
0.227346
0.038513
-0.083863
-0.248015
-0.455690
-0.605542
-0.658339
-0.638630
-0.542954
-0.358287
-0.115509
0.102935
0.198750
0.164208
0.143716
0.305595
0.635805
0.911304
0.957702
0.877217
0.883876
1.022159
1.191878
1.328392
1.455386
1.603841
1.725075
1.738526
1.677699
1.695483
1.868428
2.071223
2.110446
1.942127
1.707480
1.561151
1.518208
1.524635
1.598694
1.755476
1.866543
1.767404
1.445563
1.009702
0.552361
0.108438
-0.314053
-0.669106
-0.845406
-0.793795
-0.630312
-0.494186
-0.395185
-0.272653
-0.096591
0.115718
0.318593
0.432492
0.333795
-0.074534
-0.781576
-1.672494
-2.566876
-3.303996
-3.863647
-4.345145
-4.782583
-5.050113
-4.975325
-4.486956
-3.661869
-2.640775
-1.473414
-0.147660
1.214078
2.378747
3.215756
3.739049
4.016073
4.112883
4.040646
3.764428
3.333341
2.942218
2.773753
2.815029
2.919488
3.012780
3.142025
3.330912
3.474810
3.467677
3.420446
3.589255
4.042299
4.572098
4.919528
4.950197
4.702540
4.298620
3.762743
3.049854
2.243696
1.532607
1.003663
0.593462
0.196950
-0.252162
-0.755632
-1.264897
-1.752388
-2.235822
-2.692282
-3.059781
-3.350764
-3.589085
-3.674327
-3.510616
-3.161641
-2.744962
-2.344176
-2.054893
-1.938160
-1.949607
-2.004916
-2.057920
-2.092585
-2.092835
-2.054942
-2.037937
-2.105947
-2.188477
-2.156066
-1.987849
-1.705395
-1.302648
-0.827557
-0.338441
0.184858
0.736115
1.199738
1.458415
1.486917
1.318937
1.015185
0.682160
0.462694
0.457085
0.610858
0.751263
0.820556
0.948221
1.245568
1.680854
2.137889
2.513425
2.817296
3.131662
3.406346
3.453810
3.221055
2.897333
2.681078
2.552900
2.339918
1.947541
1.470405
1.065306
0.738938
0.313698
-0.358783
-1.187798
-1.942714
-2.534343
-3.045811
-3.513129
-3.846129
-3.966673
-3.900936
-3.718399
-3.463556
-3.190496
-3.032237
-3.162093
-3.630495
-4.259755
-4.758354
-4.948695
-4.856759
-4.608300
-4.283920
-3.876826
-3.383007
-2.880858
-2.460160
-2.117472
-1.784666
-1.429212
-1.089492
-0.813921
-0.581268
-0.326140
-0.051040
0.162101
0.275500
0.344221
0.417244
0.477310
0.520766
0.649096
1.013598
1.633969
2.303098
2.735808
2.819106
2.683584
2.546719
2.524044
2.579612
2.622900
2.632821
2.668972
2.774460
2.923187
3.064540
3.159919
3.174363
3.089492
2.926237
2.730505
2.564201
2.513463
2.646631
2.929653
3.193524
3.215598
2.879874
2.278646
1.645613
1.179553
0.923780
0.805088
0.759766
0.777653
0.826364
0.786777
0.500396
-0.106673
-0.947543
-1.836510
-2.614694
-3.200039
-3.554420
-3.670229
-3.609308
-3.513336
-3.534306
-3.735252
-4.043845
-4.296787
-4.377094
-4.329451
-4.231518
-3.980644
-3.403716
-2.525444
-1.588896
-0.854744
-0.393751
-0.080361
0.189583
0.381433
0.473008
0.578210
0.812079
1.102343
1.219908
1.005572
0.512841
-0.117887
-0.822254
-1.569512
-2.259012
-2.722899
-2.836883
-2.649994
-2.333541
-1.963130
-1.457655
-0.764732
-0.009347
0.580513
0.871665
0.943681
0.992761
1.113218
1.230616
1.240522
1.123245
0.953613
0.833630
0.769326
0.686383
0.561808
0.405120
0.216075
0.093916
0.205647
0.563404
1.018256
1.433493
1.722358
1.854329
1.903031
1.957683
1.979936
1.845151
1.518856
1.166779
1.091002
1.493580
2.295366
3.241567
4.110178
4.764907
5.126000
5.169373
4.928676
4.494352
4.015144
3.669473
3.602188
3.856949
4.325572
4.754768
4.866079
4.550617
3.955534
3.352855
2.956049
2.866315
3.079363
3.502684
4.038857
4.601824
5.035940
5.177931
5.015204
4.678494
4.310004
3.979671
3.682142
3.408442
3.210697
3.125779
3.048757
2.764743
2.121417
1.144140
-0.051017
-1.405523
-2.837860
-4.066988
-4.715820
-4.644429
-4.108612
-3.528358
-3.143707
-2.939574
-2.811205
-2.726169
-2.760336
-3.004387
-3.449817
-4.002794
-4.580166
-5.124700
-5.594883
-6.043711
-6.573572
-7.124487
-7.511048
-7.655462
-7.575391
-7.295736
-6.912922
-6.516811
-6.064383
-5.547688
-5.099581
-4.757330
-4.353109
-3.772304
-3.140123
-2.665457
-2.402001
-2.214276
-1.989910
-1.838523
-1.977410
-2.472815
-3.191661
-3.958565
-4.717399
-5.505331
-6.239002
-6.682867
-6.715569
-6.489171
-6.308282
-6.431093
-6.933008
-7.699007
-8.541771
-9.296115
-9.807112
-9.898866
-9.456967
-8.565747
-7.409174
-6.041019
-4.462803
-2.811462
-1.236696
0.235551
1.630389
3.050420
4.668313
6.463383
8.161830
9.518073
10.416418
10.735995
10.377015
9.405492
8.041399
6.597363
5.453286
4.883111
4.935228
5.594546
6.793889
8.178740
9.198875
9.527258
9.206270
8.410203
7.280872
6.004923
4.806162
3.790903
2.944672
2.243399
1.685364
1.285076
1.010454
0.682844
0.079645
-0.807685
-1.728393
-2.359962
-2.488859
-2.105959
-1.349076
-0.347544
0.828215
2.131364
3.478550
4.671193
5.471674
5.840617
6.007745
6.262812
6.743886
7.425014
8.222837
9.068220
9.896909
10.573693
10.876387
10.680845
10.065337
9.121628
7.869701
6.429019
5.046436
3.927634
3.169417
2.743514
2.466647
2.142721
1.753178
1.408303
1.178898
1.071288
1.102171
1.301122
1.640253
2.032923
2.435427
2.895181
3.460776
4.067411
4.527992
4.635942
4.302944
3.621873
2.800536
2.048955
1.514173
1.268350
1.319927
1.635493
2.164909
2.855929
3.647922
4.431855
5.042600
5.371207
5.453848
5.370875
5.136688
4.738575
4.183775
3.524960
2.904472
2.474840
2.254463
2.175622
2.237291
2.491838
2.920850
3.417364
3.875112
4.258428
4.584644
4.842891
4.950887
4.819228
4.459342
3.990974
3.539391
3.176029
2.983780
3.114446
3.687336
4.656466
5.828240
6.980908
7.963876
8.707467
9.172758
9.319554
9.128043
8.659572
8.032377
7.279733
6.338216
5.238048
4.169367
3.327775
2.798978
2.523492
2.321606
2.085390
1.896649
1.858020
1.969592
2.230203
2.679188
3.275543
3.841267
4.161215
4.126350
3.796334
3.297653
2.719152
2.170161
1.782396
1.589975
1.541666
1.582783
1.619812
1.533423
1.267720
0.796284
0.121083
-0.585926
-1.017454
-1.006197
-0.669128
-0.260270
0.037085
0.186229
0.220579
0.127832
-0.080912
-0.244348
-0.185047
0.100376
0.483766
0.840259
1.114529
1.277257
1.223702
0.823757
0.114246
-0.682453
-1.363972
-1.861607
-2.120318
-1.967993
-1.196912
0.202341
1.928249
3.561898
4.860303
5.812137
6.484545
6.898757
7.040754
6.962097
6.792138
6.583596
6.232384
5.650545
4.971519
4.496648
4.407791
4.559472
4.633852
4.490852
4.237983
3.974695
3.636374
3.121545
2.481250
1.944640
1.761193
2.032964
2.693144
3.584652
4.542764
5.443445
6.195063
6.711440
6.935989
6.879137
6.582821
6.089749
5.493319
4.922399
4.428699
3.961865
3.415206
2.643719
1.559257
0.243359
-1.118622
-2.368364
-3.408470
-4.198073
-4.721489
-4.912902
-4.681947
-4.076354
-3.325743
-2.644215
-2.027982
-1.279030
-0.237026
0.991788
2.050295
2.580356
2.434957
1.685084
0.484781
-1.049236
-2.827422
-4.702679
-6.450806
-7.845210
-8.736825
-9.077770
-8.917575
-8.379185
-7.606230
-6.703161
-5.673366
-4.406529
-2.812633
-1.026901
0.570846
1.576542
1.782111
1.196173
-0.116320
-2.183047
-5.078401
-8.721349
-12.746252
-16.611717
-19.838381
-22.133257
-23.375452
-23.581104
-22.898434
-21.664904
-20.399164
-19.607513
-19.621222
-20.599241
-22.539152
-25.249624
-28.383392
-31.529039
-34.273354
-36.220379
-37.061512
-36.712467
-35.413666
-33.685204
-32.012047
-30.497503
-28.971220
-27.318853
-25.440170
-23.047291
-19.831945
-15.755727
-11.064445
-6.190058
-1.622326
2.257095
5.191641
6.972329
7.497389
6.925231
5.698033
4.427442
3.666280
3.601236
4.094954
5.062686
6.474887
8.089111
9.583269
10.823552
11.772276
12.400886
12.797252
13.063948
13.169282
13.113377
13.031110
12.973538
12.809535
12.412487
11.775895
11.002562
10.281000
9.768890
9.546560
9.766171
10.621251
12.078225
13.865290
15.711130
17.407640
18.797346
19.859375
20.655190
21.208031
21.572100
21.885509
22.234478
22.547056
22.642845
22.290138
21.153761
18.780363
14.856678
9.542296
3.453404
-2.621367
-7.944189
-11.979210
-14.553271
-15.890876
-16.470289
-16.866913
-17.614849
-19.039200
-21.191772
-23.954205
-27.122107
-30.384604
-33.338024
-35.608063
-37.002136
-37.611664
-37.794277
-37.954620
-38.286823
-38.725849
-39.052597
-39.009983
-38.373539
-36.956593
-34.612778
-31.324207
-27.296568
-22.919777
-18.672224
-15.075722
-12.624433
-11.631324
-12.099415
-13.715044
-15.919389
-18.007254
-19.254822
-19.068869
-17.145313
-13.603987
-8.964040
-3.897230
1.014373
5.320293
8.656297
10.811708
11.863927
12.108640
11.835986
11.289294
10.713514
10.255524
9.922089
9.689101
9.479933
9.117016
8.539176
7.941969
7.580525
7.622261
8.159637
9.132610
10.252242
11.115164
11.369999
10.794828
9.366643
7.242695
4.641630
1.883607
-0.571790
-2.307626
-3.067552
-2.734015
-1.374408
0.764204
3.423447
6.402117
9.498087
12.543793
15.461952
18.183685
20.506834
22.107698
22.748304
22.444361
21.394016
19.831026
18.032263
16.330988
15.007076
14.214708
13.961470
14.104372
14.490103
15.090602
15.889208
16.765953
17.631985
18.523972
19.457462
20.302811
20.886497
21.156492
21.151588
20.857035
20.202307
19.148308
17.753065
16.271959
15.137957
14.677847
14.980229
16.085257
17.979416
20.407902
22.980799
25.399130
27.428764
28.816786
29.393129
29.164160
28.223349
26.616566
24.364813
21.586670
18.467587
15.159954
11.827966
8.626978
5.532663
2.393582
-0.806850
-3.911966
-6.724538
-9.046552
-10.763812
-12.026836
-13.238635
-14.789751
-16.835169
-19.290274
-21.967007
-24.711784
-27.447695
-30.049555
-32.174145
-33.320454
-33.065811
-31.257488
-28.137915
-24.313288
-20.471169
-17.098547
-14.480574
-12.817604
-12.203416
-12.515181
-13.402994
-14.482791
-15.486977
-16.155172
-16.216150
-15.596796
-14.443453
-12.946816
-11.259192
-9.414534
-7.358983
-5.233593
-3.390551
-2.049778
-1.193369
-0.801503
-1.026890
-2.095735
-4.082775
-6.830396
-10.133186
-13.861647
-17.762592
-21.379107
-24.306400
-26.325727
-27.366240
-27.470371
-26.515177
-24.045788
-19.817698
-14.370742
-8.786155
-4.029554
-0.629522
1.247661
1.588737
0.370050
-2.386215
-6.458669
-11.416587
-16.561945
-20.846773
-23.212246
-23.157669
-20.911888
-17.224764
-13.023786
-8.926534
-5.090437
-1.649143
1.074347
2.919249
4.146118
5.224404
6.473164
7.879796
9.170047
10.099646
10.616534
10.657413
10.036071
8.728602
7.031011
5.333521
3.957380
3.165092
3.055955
3.457584
4.096531
4.759708
5.239125
5.400167
5.335146
5.264123
5.316445
5.506672
5.841492
6.307217
6.773941
7.055356
7.091385
6.946399
6.653755
6.251793
5.920100
5.920172
6.476851
7.749728
9.734070
12.155206
14.646535
17.026110
19.261269
21.250248
22.800009
23.811504
24.389589
24.727915
24.956125
25.141081
25.334217
25.610559
26.116405
26.969917
28.125305
29.467865
30.956192
32.544346
34.052216
35.193466
35.640869
35.051716
33.154533
29.864559
25.330528
19.882414
13.895879
7.710033
1.603901
-4.240901
-9.685283
-14.620179
-19.102461
-23.334028
-27.475641
-31.631893
-35.896374
-40.162437
-44.038166
-47.128731
-49.278397
-50.562218
-51.186981
-51.399834
-51.476048
-51.740250
-52.465736
-53.753098
-55.531208
-57.572937
-59.551250
-61.193150
-62.295410
-62.620411
-62.050484
-60.783566
-59.137718
-57.322311
-55.492851
-53.831654
-52.461273
-51.306515
-50.103855
-48.560261
-46.525482
-44.060890
-41.329514
-38.380424
-35.192177
-31.956099
-29.032766
-26.615852
-24.558651
-22.511955
-20.179207
-17.394583
-14.039622
-9.956031
-4.994322
0.846470
7.395035
14.380780
21.488976
28.400618
34.824345
40.525078
45.399677
49.538055
53.099316
56.096321
58.477703
60.357262
61.921310
63.250454
64.350998
65.200287
65.751434
66.029938
66.153130
66.151505
65.910805
65.342079
64.492729
63.488361
62.412075
61.233311
59.902649
58.481537
57.077759
55.680214
54.132393
52.275784
50.017597
47.299351
44.132042
40.624733
36.913948
33.078617
29.202003
25.480307
22.187778
19.554630
17.699406
16.652069
16.349194
16.614077
17.181501
17.748459
18.013227
17.641403
16.238045
13.376776
8.776016
2.527720
-4.941600
-13.099093
-21.472410
-29.581375
-36.779427
-42.359383
-45.880501
-47.403069
-47.375633
-46.341743
-44.777283
-43.052540
-41.463596
-40.257710
-39.603264
-39.545498
-39.953964
-40.540466
-40.998085
-41.149155
-40.990894
-40.566399
-39.778728
-38.408585
-36.290733
-33.375435
-29.631762
-25.060999
-19.838833
-14.263192
-8.579132
-3.025230
2.010724
6.080224
8.914376
10.490723
10.941848
10.519037
9.593802
8.586141
7.872884
7.634046
7.794838
8.273205
9.100685
10.253922
11.593021
12.952465
14.151997
14.984094
15.419609
15.685530
15.932854
16.073265
15.969766
15.510422
14.539297
12.930280
10.717601
8.078412
5.273931
2.604047
0.238825
-1.844939
-3.605378
-4.824211
-5.391413
-5.455333
-5.232480
-4.933514
-4.824388
-5.078276
-5.672371
-6.601189
-7.943072
-9.571289
-11.130169
-12.355675
-13.184823
-13.611078
-13.532363
-12.799044
-11.390849
-9.423561
-6.988133
-4.043620
-0.541819
3.396290
7.488934
11.399875
14.848701
17.621397
19.528603
20.479816
20.604170
20.232405
19.742233
19.449062
19.571398
20.245895
21.547918
23.449215
25.785160
28.259005
30.524458
32.295296
33.302639
33.252048
31.957899
29.481836
26.118595
22.238482
18.136457
13.989998
9.871863
5.797602
1.745305
-2.368871
-6.655807
-11.140393
-15.736465
-20.370234
-25.008364
-29.574867
-33.937344
-37.916737
-41.307571
-43.946384
-45.727604
-46.577656
-46.534428
-45.830395
-44.778481
-43.580772
-42.301292
-40.999676
-39.796852
-38.797585
-38.008305
-37.324001
-36.629196
-35.896908
-35.144417
-34.358391
-33.474468
-32.416286
-31.101295
-29.386171
-27.088995
-24.064114
-20.283508
-15.891649
-11.133865
-6.213849
-1.209322
3.929861
9.273621
14.764896
20.238762
25.539408
30.550463
35.144840
39.170116
42.502495
45.040081
46.658501
47.194454
46.467869
44.369328
40.932018
36.377506
31.139330
25.754534
20.619638
15.899145
11.700198
8.152568
5.296361
3.073403
1.441953
0.344428
-0.388804
-0.949683
-1.494175
-2.202107
-3.222853
-4.554247
-6.102641
-7.875004
-9.954568
-12.362532
-15.026925
-17.740870
-20.188217
-22.055454
-23.041506
-22.798037
-21.049488
-17.815508
-13.395573
-8.207712
-2.718744
2.570989
7.239808
11.054773
13.895600
15.734614
16.723925
17.107246
17.036213
16.559401
15.727611
14.595843
13.205456
11.536878
9.405473
6.632239
3.405980
0.283972
-2.233355
-3.969922
-4.975073
-5.360462
-5.209069
-4.642498
-3.972048
-3.635472
-3.909894
-4.773370
-6.068627
-7.669044
-9.439110
-11.135420
-12.412080
-12.929923
-12.463267
-10.983267
-8.763915
-6.229394
-3.684702
-1.401240
0.329163
1.407915
1.958598
2.054595
1.583310
0.473186
-1.162347
-3.168223
-5.437953
-7.849270
-10.222927
-12.374891
-14.164297
-15.485480
-16.248766
-16.358370
-15.725010
-14.362504
-12.503098
-10.550238
-8.869557
-7.685361
-7.105615
-7.113801
-7.529883
-8.020834
-8.206031
-7.813122
-6.812457
-5.386586
-3.754711
-2.086288
-0.533272
0.730181
1.560784
1.939578
2.013140
2.049744
2.289230
2.872963
3.873196
5.263605
6.850152
8.311811
9.395844
10.029022
10.275283
10.252113
10.086283
9.944356
9.997541
10.308910
10.789969
11.256935
11.494259
11.333339
10.771456
9.965140
9.095752
8.321488
7.864727
8.038003
9.058369
10.843739
13.091838
15.483813
17.676346
19.224539
19.724483
19.105724
17.651819
15.705759
13.571586
11.619335
10.236057
9.636602
9.796208
10.539281
11.587954
12.646522
13.505748
14.061196
14.354528
14.578887
14.956029
15.563665
16.343849
17.235847
18.148439
18.883808
19.180147
18.841072
17.806358
16.131121
13.974817
11.579025
9.198599
7.005795
5.061110
3.295804
1.508800
-0.492267
-2.767591
-5.224675
-7.687982
-10.048552
-12.313583
-14.478869
-16.423437
-18.071184
-19.544994
-20.975828
-22.330244
-23.502260
-24.384485
-24.852871
-24.833481
-24.342276
-23.358034
-21.806730
-19.775866
-17.560564
-15.500668
-13.888450
-12.901940
-12.574716
-12.842906
-13.489002
-14.064148
-14.085958
-13.326313
-11.816353
-9.731138
-7.328620
-4.864241
-2.548474
-0.545721
1.061261
2.303117
3.300138
4.193324
5.107175
6.121040
7.248821
8.457600
9.609360
10.410195
10.512719
9.705268
8.026563
5.677045
2.883461
-0.149393
-3.237380
-6.203048
-8.919470
-11.370729
-13.662898
-15.948031
-18.297285
-20.650419
-22.867079
-24.794168
-26.218258
-26.811716
-26.260374
-24.452045
-21.554361
-17.954203
-14.153151
-10.646341
-7.779762
-5.692078
-4.321631
-3.447614
-2.768225
-1.961139
-0.735303
1.089601
3.474352
6.151658
8.762645
11.049189
12.975107
14.598766
15.930259
17.017328
18.019875
19.142815
20.564598
22.392839
24.558140
26.777168
28.686190
29.962690
30.334946
29.591911
27.719891
25.010086
21.956478
19.081797
16.832754
15.507780
15.202067
15.787071
16.916246
18.127932
19.041744
19.460926
19.281301
18.410355
16.849298
14.784007
12.557866
10.533983
8.941280
7.809153
7.033487
6.489819
6.069325
5.695122
5.326199
4.951576
4.601310
4.295127
3.998129
3.673077
3.340857
3.001862
2.552176
1.910127
1.114239
0.214290
-0.790933
-1.828593
-2.703193
-3.235354
-3.325640
-2.911801
-1.952770
-0.464942
1.458022
3.709838
6.148263
8.499678
10.460920
11.881907
12.734395
12.965840
12.528625
11.483330
9.951408
