EVENT_NAME: EMILIA_2ND_SHOCK
EVENT_ID: IT-2012-0011
EVENT_DATE_YYYYMMDD: 20120529
EVENT_TIME_HHMMSS: 070002
EVENT_LATITUDE_DEGREE: 44.8417
EVENT_LONGITUDE_DEGREE: 11.0657
EVENT_DEPTH_KM: 8.1
HYPOCENTER_REFERENCE: INGV-CNT_Seismic_Bulletin
MAGNITUDE_W: 6.0
MAGNITUDE_W_REFERENCE: RCMT-INGV
MAGNITUDE_L: 5.8
MAGNITUDE_L_REFERENCE: INGV-CNT_Seismic_Bulletin
FOCAL_MECHANISM: TF
NETWORK: IT
STATION_CODE: CAS0
STATION_NAME: CASTELMASSA
STATION_LATITUDE_DEGREE: 45.025000
STATION_LONGITUDE_DEGREE: 11.311000
STATION_ELEVATION_M: 65
LOCATION: 
SENSOR_DEPTH_M: 0.0
VS30_M/S: 
SITE_CLASSIFICATION_EC8: C*
MORPHOLOGIC_CLASSIFICATION: 
EPICENTRAL_DISTANCE_KM: 28.1
EARTHQUAKE_BACKAZIMUTH_DEGREE: 223.6
DATE_TIME_FIRST_SAMPLE_YYYYMMDD_HHMMSS: 20120529_070003.000
DATE_TIME_FIRST_SAMPLE_PRECISION: seconds
SAMPLING_INTERVAL_S: 0.005000
NDATA: 29001
DURATION_S: 145.005
STREAM: HNE
UNITS: cm/s
INSTRUMENT: sensor = Episensor FBA ES-T [Kinemetrics] | digitizer = Etna [Kinemetrics]
INSTRUMENT_ANALOG/DIGITAL: D
INSTRUMENTAL_FREQUENCY_HZ: 
INSTRUMENTAL_DAMPING: 
FULL_SCALE_G: 
N_BIT_DIGITAL_CONVERTER: 18
PGV_CM/S: -7.474147
TIME_PGV_S: 16.210000
BASELINE_CORRECTION: BASELINE REMOVED
FILTER_TYPE: BUTTERWORTH
FILTER_ORDER: 2
LOW_CUT_FREQUENCY_HZ: 0.060
HIGH_CUT_FREQUENCY_HZ: 35.000
LATE/NORMAL_TRIGGERED: NT
DATABASE_VERSION: DYNA 1.0
HEADER_FORMAT: DYNA 1.2
DATA_TYPE: VELOCITY
PROCESSING: manual (Paolucci et al., 2011)
DATA_TIMESTAMP_YYYYMMDD_HHMMSS: 
DATA_LICENSE: CC-BY3_0-IT (http://creativecommons.org/licenses/by/3.0/deed.en)
DATA_CITATION: ESM working group (2015), European Strong-Motion database, version 0.1, Network Activity 3: Networking acceleration networks and SM data users. Project NERA (www.nera-eu.org)
DATA_CREATOR: ESM working group
ORIGINAL_DATA_MEDIATOR_CITATION: Ufficio Rischio Sismico e Vulcanico del Dipartimento della Protezione Civile (http://www.protezionecivile.gov.it/)
ORIGINAL_DATA_MEDIATOR: Rete Accelerometrica Nazionale - RAN Download (http://www.mot1.it/randownload/)
ORIGINAL_DATA_CREATOR_CITATION: Italian Strong Motion Network, Italian Civil Protection Department http://www.protezionecivile.gov.it
ORIGINAL_DATA_CREATOR: network: IT (Italian Strong Motion Network); owner: Dipartimento Della Protezione Civile
USER1: 
USER2: 
USER3: 
USER4: 
USER5: 
[...]
-0.525837
-0.521623
-0.516460
-0.510902
-0.505234
-0.499214
-0.492345
-0.484736
-0.477223
-0.470160
-0.462752
-0.453780
-0.442447
-0.428822
-0.413858
-0.398717
-0.384213
-0.370936
-0.359237
-0.348881
-0.339214
-0.329899
-0.321479
-0.315101
-0.311506
-0.310439
-0.311475
-0.314888
-0.320849
-0.328577
-0.337163
-0.346427
-0.356512
-0.367366
-0.378676
-0.389738
-0.399777
-0.408681
-0.416965
-0.425098
-0.433403
-0.442409
-0.452682
-0.464157
-0.475820
-0.486338
-0.495187
-0.502805
-0.509606
-0.515545
-0.520434
-0.524038
-0.526022
-0.525990
-0.523522
-0.518567
-0.511796
-0.503948
-0.494748
-0.482983
-0.467801
-0.449782
-0.430791
-0.412775
-0.396653
-0.382556
-0.370793
-0.361748
-0.355073
-0.349692
-0.344448
-0.338620
-0.332179
-0.325422
-0.318285
-0.310580
-0.302850
-0.296310
-0.291850
-0.289462
-0.288618
-0.289018
-0.290950
-0.294888
-0.300919
-0.308898
-0.318748
-0.330279
-0.343274
-0.357800
-0.373850
-0.390851
-0.407756
-0.423284
-0.436239
-0.446086
-0.453176
-0.458279
-0.462122
-0.465416
-0.469058
-0.473887
-0.480096
-0.487204
-0.494877
-0.503293
-0.512626
-0.522789
-0.533601
-0.544871
-0.556467
-0.568084
-0.579089
-0.589088
-0.598195
-0.606320
-0.612728
-0.616705
-0.618359
-0.618566
-0.618173
-0.617224
-0.615227
-0.612409
-0.610047
-0.608940
-0.608169
-0.606077
-0.602026
-0.596733
-0.591170
-0.585714
-0.580448
-0.575769
-0.572209
-0.569647
-0.566950
-0.562777
-0.556837
-0.549983
-0.542979
-0.535713
-0.527835
-0.519585
-0.511625
-0.504383
-0.497645
-0.490644
-0.482706
-0.473785
-0.464210
-0.454227
-0.444029
-0.433959
-0.424466
-0.415804
-0.407739
-0.399619
-0.390958
-0.381871
-0.372654
-0.363120
-0.352716
-0.341348
-0.330022
-0.320354
-0.313195
-0.308052
-0.304015
-0.300753
-0.298337
-0.296470
-0.294322
-0.291220
-0.287297
-0.283243
-0.279525
-0.276026
-0.272474
-0.269122
-0.266695
-0.265558
-0.265366
-0.265785
-0.267025
-0.269304
-0.272331
-0.275623
-0.278816
-0.281531
-0.283322
-0.283900
-0.283385
-0.282391
-0.281570
-0.280852
-0.279324
-0.276145
-0.271588
-0.266800
-0.262414
-0.257994
-0.252884
-0.246924
-0.240282
-0.233005
-0.224986
-0.216361
-0.207668
-0.199280
-0.190802
-0.181460
-0.171104
-0.160552
-0.150841
-0.142304
-0.134498
-0.126907
-0.119284
-0.111290
-0.102513
-0.093180
-0.084343
-0.077115
-0.072067
-0.069305
-0.068763
-0.070333
-0.073679
-0.077906
-0.081875
-0.085026
-0.087497
-0.089473
-0.090836
-0.091319
-0.090741
-0.089148
-0.086985
-0.085316
-0.085689
-0.089597
-0.097959
-0.110794
-0.127314
-0.146632
-0.168358
-0.192271
-0.217521
-0.242398
-0.264832
-0.283142
-0.296346
-0.303713
-0.304451
-0.298381
-0.286487
-0.270408
-0.251713
-0.231633
-0.211068
-0.190865
-0.172043
-0.155376
-0.140665
-0.126796
-0.112721
-0.098124
-0.083060
-0.067350
-0.050695
-0.033321
-0.015983
0.001120
0.019066
0.039277
0.062138
0.086735
0.111487
0.134999
0.156492
0.175306
0.190555
0.201774
0.209437
0.214455
0.217422
0.218407
0.217146
0.213368
0.207044
0.198282
0.187103
0.173641
0.158342
0.141588
0.123643
0.105271
0.087718
0.071910
0.058185
0.046464
0.036190
0.026499
0.016751
0.006727
-0.003563
-0.014026
-0.024490
-0.034765
-0.044955
-0.055484
-0.066427
-0.077207
-0.087146
-0.095673
-0.102186
-0.106324
-0.108016
-0.107092
-0.103412
-0.097413
-0.090121
-0.082686
-0.076091
-0.071016
-0.067605
-0.065291
-0.063006
-0.059952
-0.056195
-0.052092
-0.047351
-0.041124
-0.032719
-0.022030
-0.009463
0.004624
0.020282
0.037314
0.054583
0.070688
0.085175
0.098580
0.111345
0.123044
0.132782
0.140134
0.145461
0.149155
0.150724
0.148930
0.142991
0.133277
0.120605
0.105376
0.087811
0.068580
0.048747
0.029242
0.010650
-0.006668
-0.022620
-0.037781
-0.053592
-0.071744
-0.093043
-0.116835
-0.141578
-0.165862
-0.188904
-0.210323
-0.229707
-0.246622
-0.261027
-0.273327
-0.283915
-0.292838
-0.299984
-0.305432
-0.309501
-0.312408
-0.314038
-0.314294
-0.313483
-0.312106
-0.310384
-0.308298
-0.305912
-0.303308
-0.300062
-0.294994
-0.286824
-0.275309
-0.261630
-0.247534
-0.234116
-0.221383
-0.208763
-0.195865
-0.182750
-0.169586
-0.156241
-0.142369
-0.127753
-0.112430
-0.096631
-0.080759
-0.065311
-0.050680
-0.037028
-0.024207
-0.011639
0.001594
0.016242
0.032210
0.048288
0.062687
0.074080
0.082308
0.088206
0.092825
0.096851
0.100649
0.104538
0.108669
0.112603
0.115105
0.114572
0.109834
0.100652
0.087578
0.071578
0.053806
0.035455
0.017408
-0.000158
-0.017830
-0.036506
-0.056725
-0.078209
-0.100095
-0.121742
-0.142900
-0.162803
-0.179822
-0.192449
-0.200393
-0.204667
-0.206636
-0.207037
-0.206090
-0.204182
-0.201817
-0.198926
-0.194866
-0.189354
-0.183255
-0.178227
-0.175663
-0.176252
-0.180363
-0.188211
-0.199506
-0.213120
-0.227305
-0.240555
-0.252223
-0.262038
-0.269327
-0.273150
-0.273197
-0.270294
-0.265936
-0.261218
-0.256254
-0.250688
-0.244535
-0.238332
-0.232716
-0.227948
-0.223779
-0.219933
-0.216501
-0.213692
-0.211666
-0.210586
-0.210116
-0.209088
-0.206271
-0.201180
-0.194012
-0.185401
-0.176129
-0.166614
-0.156825
-0.146926
-0.137700
-0.130106
-0.124272
-0.118817
-0.111349
-0.099872
-0.083664
-0.063113
-0.039289
-0.013659
0.012188
0.036831
0.059303
0.079379
0.097726
0.115737
0.135022
0.156650
0.180424
0.204754
0.227507
0.247285
0.264049
0.278829
0.293161
0.308558
0.326071
0.346265
0.369275
0.394454
0.420344
0.445420
0.468812
0.490362
0.510261
0.528672
0.545714
0.561767
0.577396
0.592640
0.606464
0.617071
0.622791
0.622536
0.615509
0.601319
0.580984
0.557405
0.534183
0.513640
0.495998
0.480280
0.465582
0.451526
0.437895
0.424093
0.409072
0.391822
0.371808
0.348908
0.323284
0.295310
0.265091
0.232223
0.196601
0.159046
0.120768
0.082891
0.046413
0.011848
-0.020736
-0.051058
-0.078796
-0.104294
-0.128081
-0.149846
-0.168708
-0.184409
-0.197736
-0.209746
-0.220817
-0.230767
-0.239959
-0.249847
-0.262211
-0.278169
-0.297962
-0.321549
-0.349075
-0.380270
-0.413685
-0.447263
-0.479708
-0.511250
-0.543405
-0.578070
-0.616565
-0.659274
-0.705755
-0.754790
-0.804285
-0.851569
-0.894398
-0.931444
-0.961649
-0.983963
-0.998021
-1.004204
-1.003026
-0.994874
-0.979622
-0.956281
-0.923964
-0.883155
-0.835564
-0.783482
-0.729802
-0.677917
-0.630890
-0.590683
-0.557696
-0.530429
-0.506014
-0.481338
-0.453365
-0.419396
-0.378502
-0.332507
-0.284871
-0.238840
-0.196789
-0.160384
-0.130360
-0.106329
-0.087375
-0.072651
-0.061434
-0.053007
-0.046582
-0.041530
-0.038115
-0.037717
-0.041756
-0.050398
-0.062197
-0.074642
-0.085172
-0.091917
-0.093655
-0.089514
-0.078857
-0.061464
-0.038108
-0.010750
0.018453
0.048492
0.079806
0.113526
0.150651
0.191765
0.237106
0.286591
0.339459
0.393841
0.447245
0.497572
0.543180
0.582528
0.614674
0.639906
0.659544
0.675391
0.689109
0.701442
0.712155
0.720921
0.727963
0.733857
0.739214
0.744725
0.751230
0.759431
0.769596
0.781773
0.796249
0.813553
0.833890
0.856530
0.879710
0.901224
0.919334
0.933336
0.943581
0.951152
0.957494
0.964094
0.972271
0.983096
0.997375
1.015615
1.037774
1.062987
1.089843
1.117112
1.143967
1.169650
1.193343
1.214262
1.231887
1.246409
1.258783
1.270056
1.280934
1.292120
1.304579
1.319184
1.336270
1.355646
1.376938
1.399861
1.424076
1.448830
1.472926
1.495223
1.515178
1.532875
1.548755
1.563674
1.579246
1.597683
1.620965
1.650106
1.685011
1.724830
1.768368
1.814231
1.860829
1.906469
1.949767
1.989929
2.026328
2.058019
2.084209
2.105056
2.121695
2.135690
2.148307
2.159915
2.170342
2.179825
2.189116
2.198964
2.210115
2.223510
2.239888
2.259095
2.279901
2.300532
2.319514
2.336002
2.349598
2.360449
2.369361
2.377311
2.385019
2.392933
2.401032
2.408699
2.415038
2.419019
2.419625
2.416695
2.411608
2.406577
2.403231
2.401930
2.402115
2.403046
2.404149
2.404788
2.404384
2.403162
2.402237
2.402739
2.405157
2.409359
2.414931
2.421318
2.427436
2.431555
2.432126
2.428714
2.421894
2.412586
2.401984
2.392145
2.386160
2.387172
2.396813
2.414622
2.438924
2.467985
2.500407
2.534901
2.570105
2.604915
2.638876
2.671794
2.702956
2.731209
2.756066
2.778550
2.800588
2.823386
2.846555
2.869009
2.890199
2.910073
2.928255
2.943862
2.956269
2.965992
2.974798
2.984963
2.998428
3.016352
3.039065
3.066283
3.097258
3.130815
3.165495
3.199891
3.232805
3.263254
3.290720
3.315332
3.337476
3.357285
3.374361
3.387580
3.395376
3.396593
3.391000
3.379158
3.362115
3.341125
3.317518
3.292953
3.269543
3.249162
3.232533
3.219312
3.209172
3.202777
3.201592
3.206551
3.216802
3.229704
3.241879
3.250304
3.252728
3.247482
3.233345
3.209831
3.177577
3.138351
3.094667
3.049278
3.004690
2.962794
2.924763
2.891247
2.862881
2.840848
2.826785
2.821650
2.824505
2.832387
2.841298
2.847279
2.846697
2.835782
2.810390
2.766783
2.703052
2.619993
2.520801
2.410135
2.293258
2.175352
2.060860
1.952536
1.850540
1.752502
1.654396
1.551400
1.438704
1.312456
1.170539
1.012894
0.841527
0.660425
0.475118
0.291555
0.114487
-0.053939
-0.213999
-0.366487
-0.511343
-0.647937
-0.775138
-0.890374
-0.989534
-1.068313
-1.123635
-1.154585
-1.162697
-1.151412
-1.125453
-1.090592
-1.053105
-1.018479
-0.989988
-0.967851
-0.949520
-0.931514
-0.911039
-0.885725
-0.853351
-0.812905
-0.764989
-0.710871
-0.652010
-0.590006
-0.526019
-0.460699
-0.394853
-0.329286
-0.264131
-0.199263
-0.135215
-0.073153
-0.014273
0.040739
0.092144
0.140989
0.188722
0.237552
0.290659
0.351050
0.420376
0.498932
0.585970
0.679957
0.779254
0.882530
0.988570
1.096430
1.205858
1.317030
1.429766
1.542980
1.654431
1.760199
1.854101
1.928385
1.976096
1.993363
1.980256
1.940535
1.880639
1.807873
1.728418
1.646067
1.561732
1.473658
1.378462
1.272503
1.152732
1.017122
0.865199
0.698509
0.520468
0.335458
0.147399
-0.041572
-0.231345
-0.422779
-0.616409
-0.811671
-1.006721
-1.198589
-1.383372
-1.556436
-1.713057
-1.849540
-1.964139
-2.057500
-2.132878
-2.196001
-2.254157
-2.314654
-2.383230
-2.462826
-2.552863
-2.649137
-2.744481
-2.830208
-2.898228
-2.943048
-2.962534
-2.957462
-2.930861
-2.887579
-2.833521
-2.774201
-2.713658
-2.654478
-2.598031
-2.544464
-2.493186
-2.443576
-2.395130
-2.347731
-2.302146
-2.259450
-2.219740
-2.181837
-2.143726
-2.102928
-2.057265
-2.006003
-1.950428
-1.893578
-1.839603
-1.792770
-1.756557
-1.733349
-1.723931
-1.726790
-1.738328
-1.753665
-1.767336
-1.774208
-1.770387
-1.753269
-1.721259
-1.673768
-1.611049
-1.533740
-1.442821
-1.340287
-1.229748
-1.116007
-1.003785
-0.896815
-0.797660
-0.707499
-0.625844
-0.550808
-0.479735
-0.409927
-0.339406
-0.266955
-0.191502
-0.112056
-0.028226
0.059934
0.152553
0.249841
0.351355
0.455787
0.561570
0.667328
0.771613
0.872625
0.968366
1.057131
1.138491
1.214181
1.287570
1.362471
1.442898
1.532795
1.634834
1.749738
1.876734
2.013878
2.157962
2.304927
2.450748
2.591865
2.724948
2.846772
2.954705
3.047043
3.122843
3.181983
3.225117
3.252781
3.264749
3.260714
3.241155
3.207532
3.162299
3.108480
3.048346
2.982153
2.908204
2.824028
2.727577
2.617742
2.494183
2.356944
2.206697
2.045826
1.879224
1.713895
1.557607
1.416918
1.295351
1.192995
1.107503
1.035100
0.971012
0.909994
0.847419
0.780404
0.707990
0.630555
0.549779
0.468698
0.390714
0.318497
0.253763
0.197467
0.150394
0.113599
0.087431
0.070479
0.060230
0.054263
0.050255
0.045121
0.034642
0.014228
-0.019924
-0.070590
-0.139898
-0.228711
-0.335606
-0.457138
-0.588767
-0.725598
-0.862950
-0.995526
-1.115755
-1.214843
-1.286697
-1.330628
-1.350776
-1.353923
-1.347685
-1.339741
-1.337891
-1.349822
-1.382115
-1.439198
-1.522008
-1.626242
-1.742303
-1.858091
-1.962651
-2.048775
-2.113894
-2.158526
-2.183978
-2.192224
-2.186852
-2.172256
-2.151526
-2.125404
-2.093038
-2.053639
-2.007789
-1.957290
-1.904208
-1.850921
-1.800740
-1.757097
-1.721942
-1.695275
-1.675488
-1.659662
-1.644382
-1.627095
-1.606612
-1.582813
-1.556618
-1.529617
-1.502941
-1.476621
-1.450038
-1.422505
-1.393297
-1.361761
-1.327892
-1.292615
-1.257158
-1.222426
-1.189157
-1.157898
-1.128298
-1.098697
-1.066313
-1.027564
-0.978894
-0.918118
-0.844885
-0.759754
-0.663448
-0.557197
-0.443197
-0.324139
-0.202191
-0.078552
0.046229
0.171934
0.298605
0.426658
0.557240
0.692090
0.832716
0.980056
1.134837
1.297558
1.467819
1.643787
1.821991
1.997250
2.163022
2.312345
2.438998
2.538410
2.607889
2.646439
2.654459
2.633254
2.584828
2.511727
2.416215
2.299545
2.162166
2.004007
1.824525
1.623713
1.403522
1.167878
0.921486
0.668675
0.412740
0.155741
-0.101639
-0.360340
-0.622669
-0.891434
-1.169090
-1.456955
-1.754711
-2.060677
-2.372154
-2.685256
-2.995509
-3.299426
-3.595115
-3.881727
-4.159191
-4.428349
-4.690655
-4.947188
-5.197707
-5.440509
-5.673136
-5.893440
-6.100088
-6.291990
-6.467951
-6.627732
-6.772895
-6.905975
-7.028768
-7.141328
-7.242224
-7.329197
-7.399395
-7.449175
-7.474147
-7.469914
-7.432939
-7.361035
-7.253590
-7.111587
-6.937465
-6.734840
-6.507842
-6.260151
-5.994655
-5.714173
-5.421785
-5.119998
-4.810392
-4.494139
-4.172385
-3.846383
-3.517626
-3.187476
-2.856711
-2.525953
-2.196399
-1.869689
-1.547225
-1.229783
-0.917723
-0.611556
-0.312043
-0.019635
0.265754
0.544155
0.814816
1.076195
1.326283
1.562780
1.783440
1.986564
2.171134
2.336527
2.482537
2.609938
2.720877
2.818650
2.907147
2.990408
3.072154
3.155224
3.241132
3.329874
3.419940
3.508147
3.589337
3.656221
3.700101
3.712740
3.688032
3.622536
3.515174
3.367268
3.183370
2.971573
2.742171
2.505156
2.268277
2.036569
1.812682
1.597420
1.390102
1.188813
0.990797
0.793069
0.593300
0.390597
0.185607
-0.020139
-0.225093
-0.427925
-0.626819
-0.818862
-1.000316
-1.167193
-1.315352
-1.440657
-1.539851
-1.611167
-1.654062
-1.669189
-1.659135
-1.628734
-1.584162
-1.531708
-1.476999
-1.424404
-1.376435
-1.333504
-1.294140
-1.255970
-1.216995
-1.175629
-1.130126
-1.078856
-1.020891
-0.956129
-0.885369
-0.810449
-0.733350
-0.654923
-0.575258
-0.494892
-0.415043
-0.337491
-0.264795
-0.200143
-0.146555
-0.106163
-0.079794
-0.066773
-0.065579
-0.074804
-0.092831
-0.116952
-0.143909
-0.171186
-0.197348
-0.222016
-0.246138
-0.271529
-0.299891
-0.332897
-0.372612
-0.420469
-0.476119
-0.537898
-0.603822
-0.671877
-0.739539
-0.803534
-0.860489
-0.907606
-0.942547
-0.962765
-0.965474
-0.948493
-0.911048
-0.854049
-0.779805
-0.691698
-0.594055
-0.491656
-0.388635
-0.287473
-0.188762
-0.091517
0.006340
0.107570
0.215309
0.332555
0.461481
0.602776
0.755398
0.916875
1.083388
1.249648
1.409438
1.556847
1.687440
1.798632
1.889315
1.959265
2.008624
2.037612
2.046339
2.034494
2.001215
1.945513
1.866831
1.764980
1.639938
1.492064
1.322377
1.132793
0.926255
0.706523
0.477885
0.244997
0.012325
-0.216827
-0.440719
-0.658623
-0.870130
-1.075128
-1.274112
-1.468100
-1.658142
-1.844762
-2.027908
-2.207392
-2.383114
-2.554906
-2.722279
-2.884360
-3.039867
-3.186798
-3.322243
-3.442563
-3.543981
-3.623439
-3.679108
-3.710177
-3.716224
-3.696575
-3.650207
-3.576382
-3.475188
-3.347491
-3.194739
-3.019015
-2.823164
-2.610652
-2.385451
-2.152159
-1.916187
-1.683847
-1.462001
-1.257341
-1.075453
-0.919756
-0.790984
-0.687886
-0.608390
-0.549889
-0.509126
-0.482644
-0.467277
-0.460067
-0.458345
-0.460289
-0.465038
-0.472508
-0.483519
-0.499633
-0.522404
-0.552918
-0.592293
-0.642066
-0.703878
-0.779013
-0.867717
-0.968658
-1.078936
-1.194143
-1.308133
-1.413381
-1.502458
-1.569436
-1.610475
-1.624068
-1.611213
-1.575014
-1.519741
-1.450263
-1.371590
-1.287970
-1.202434
-1.117253
-1.034456
-0.955818
-0.882838
-0.816811
-0.759127
-0.712099
-0.678938
-0.661908
-0.660488
-0.671655
-0.691505
-0.716380
-0.743182
-0.769228
-0.792440
-0.812301
-0.830478
-0.850027
-0.873894
-0.904237
-0.942582
-0.989778
-1.045455
-1.107516
-1.172165
-1.234482
-1.289398
-1.333217
-1.364364
-1.382788
-1.389794
-1.388148
-1.381109
-1.371316
-1.361043
-1.353126
-1.350760
-1.356572
-1.372413
-1.399603
-1.438849
-1.489964
-1.551838
-1.622660
-1.700087
-1.781331
-1.863123
-1.941748
-2.013560
-2.076076
-2.128827
-2.173175
-2.211602
-2.247130
-2.282699
-2.320348
-2.360452
-2.401483
-2.440548
-2.474610
-2.501543
-2.520317
-2.530748
-2.533415
-2.529764
-2.521960
-2.512262
-2.502196
-2.491948
-2.480501
-2.466137
-2.446771
-2.420453
-2.386202
-2.344643
-2.297664
-2.247518
-2.196142
-2.144882
-2.094450
-2.044728
-1.994741
-1.943196
-1.889246
-1.832962
-1.775490
-1.718824
-1.664966
-1.615141
-1.569662
-1.528054
-1.488731
-1.448541
-1.403249
-1.349030
-1.283571
-1.206152
-1.117770
-1.021647
-0.923025
-0.827496
-0.739237
-0.660709
-0.592851
-0.534754
-0.483574
-0.435391
-0.386410
-0.333713
-0.275773
-0.212541
-0.145012
-0.074706
-0.002933
0.069961
0.144741
0.222559
0.304279
0.390458
0.481200
0.575619
0.671520
0.765725
0.854757
0.935413
1.005287
1.063182
1.109175
1.144204
1.169509
1.185988
1.193532
1.191071
1.177233
1.151110
1.112670
1.062427
1.000859
0.928465
0.846348
0.755992
0.658267
0.553388
0.441736
0.324225
0.202303
0.078038
-0.046129
-0.167840
-0.284631
-0.393664
-0.492544
-0.580347
-0.657850
-0.727292
-0.791802
-0.854675
-0.918890
-0.986335
-1.056656
-1.127085
-1.193717
-1.252799
-1.301454
-1.338098
-1.362419
-1.375161
-1.377890
-1.372583
-1.361068
-1.344567
-1.323601
-1.298065
-1.267459
-1.231215
-1.188927
-1.140881
-1.088830
-1.036266
-0.987740
-0.947607
-0.919222
-0.904804
-0.905551
-0.921738
-0.952753
-0.997351
-1.054204
-1.122519
-1.202259
-1.293745
-1.396998
-1.511333
-1.635304
-1.766395
-1.900454
-2.031756
-2.154016
-2.261788
-2.351559
-2.422324
-2.475556
-2.514455
-2.542915
-2.564523
-2.581761
-2.595603
-2.605408
-2.609085
-2.603637
-2.586265
-2.555507
-2.511694
-2.456448
-2.391572
-2.318578
-2.238927
-2.153840
-2.063741
-1.968027
-1.865204
-1.753240
-1.630449
-1.496563
-1.353132
-1.203319
-1.051644
-0.903684
-0.765085
-0.640035
-0.530252
-0.434843
-0.350679
-0.273140
-0.197130
-0.118195
-0.033614
0.057026
0.152235
0.249539
0.345946
0.437998
0.522244
0.596164
0.658954
0.711623
0.756330
0.795376
0.830543
0.862992
0.893339
0.921814
0.948445
0.973203
0.996210
1.017685
1.037676
1.056041
1.072746
1.087755
1.100516
1.110067
1.115638
1.116709
1.112755
1.103612
1.090096
1.073919
1.057291
1.042732
1.032968
1.030643
1.037933
1.056482
1.087224
1.129722
1.182027
1.241436
1.305108
1.369937
1.432581
1.489997
