EVENT_NAME: EMILIA_2ND_SHOCK
EVENT_ID: IT-2012-0011
EVENT_DATE_YYYYMMDD: 20120529
EVENT_TIME_HHMMSS: 070002
EVENT_LATITUDE_DEGREE: 44.8417
EVENT_LONGITUDE_DEGREE: 11.0657
EVENT_DEPTH_KM: 8.1
HYPOCENTER_REFERENCE: INGV-CNT_Seismic_Bulletin
MAGNITUDE_W: 6.0
MAGNITUDE_W_REFERENCE: RCMT-INGV
MAGNITUDE_L: 5.8
MAGNITUDE_L_REFERENCE: INGV-CNT_Seismic_Bulletin
FOCAL_MECHANISM: TF
NETWORK: IT
STATION_CODE: CRP
STATION_NAME: CARPI
STATION_LATITUDE_DEGREE: 44.782300
STATION_LONGITUDE_DEGREE: 10.870300
STATION_ELEVATION_M: 89
LOCATION: 
SENSOR_DEPTH_M: 0.0
VS30_M/S: 
SITE_CLASSIFICATION_EC8: C*
MORPHOLOGIC_CLASSIFICATION: 
EPICENTRAL_DISTANCE_KM: 16.8
EARTHQUAKE_BACKAZIMUTH_DEGREE: 66.8
DATE_TIME_FIRST_SAMPLE_YYYYMMDD_HHMMSS: 20120529_065953.000
DATE_TIME_FIRST_SAMPLE_PRECISION: seconds
SAMPLING_INTERVAL_S: 0.005000
NDATA: 27723
DURATION_S: 138.615
STREAM: HNZ
UNITS: cm/s
INSTRUMENT: sensor = Episensor FBA ES-T [Kinemetrics] | digitizer = Etna [Kinemetrics]
INSTRUMENT_ANALOG/DIGITAL: D
INSTRUMENTAL_FREQUENCY_HZ: 
INSTRUMENTAL_DAMPING: 
FULL_SCALE_G: 
N_BIT_DIGITAL_CONVERTER: 18
PGV_CM/S: 2.226490
TIME_PGV_S: 21.455000
BASELINE_CORRECTION: BASELINE REMOVED
FILTER_TYPE: BUTTERWORTH
FILTER_ORDER: 2
LOW_CUT_FREQUENCY_HZ: 0.050
HIGH_CUT_FREQUENCY_HZ: 40.000
LATE/NORMAL_TRIGGERED: NT
DATABASE_VERSION: DYNA 1.0
HEADER_FORMAT: DYNA 1.2
DATA_TYPE: VELOCITY
PROCESSING: manual (Paolucci et al., 2011)
DATA_TIMESTAMP_YYYYMMDD_HHMMSS: 20141204_103047.929
DATA_LICENSE: CC-BY3_0-IT (http://creativecommons.org/licenses/by/3.0/deed.en)
DATA_CITATION: ESM working group (2015), European Strong-Motion database, version 0.1, Network Activity 3: Networking acceleration networks and SM data users. Project NERA (www.nera-eu.org)
DATA_CREATOR: ESM working group
ORIGINAL_DATA_MEDIATOR_CITATION: Ufficio Rischio Sismico e Vulcanico del Dipartimento della Protezione Civile (http://www.protezionecivile.gov.it/)
ORIGINAL_DATA_MEDIATOR: Rete Accelerometrica Nazionale - RAN Download (http://www.mot1.it/randownload/)
ORIGINAL_DATA_CREATOR_CITATION: Italian Strong Motion Network, Italian Civil Protection Department http://www.protezionecivile.gov.it
ORIGINAL_DATA_CREATOR: network: IT (Italian Strong Motion Network); owner: Dipartimento Della Protezione Civile
USER1: /home/dyna/processing-itaca/processing.py /var/www/processing/tmp/fpacor//IT.CRP..HNE.D.20120529.070003.X.ACC.ASC /var/www/processing/tmp/fpacor//IT.CRP..HNN.D.20120529.070003.X.ACC.ASC /var/www/processing/tmp/fpacor//IT.CRP..HNZ.D.20120529.070003.X.ACC.ASC --tmp /var/www/processing/tmp/fpacor/ --le 0.050 --he 40.000 --ln 0.050 --hn 40.000 --lz 0.050 --hz 40.000 --fo 2 --ca -10 --cz 40 --ta 5 --tz 5 --mf 1 --rf 0 --tr NT
USER2: 
USER3: 
USER4: 
USER5: 
[...]
-0.259800
-0.282936
-0.280654
-0.263462
-0.247668
-0.244378
-0.252152
-0.260391
-0.259874
-0.249330
-0.233273
-0.216634
-0.201764
-0.187683
-0.170713
-0.146821
-0.114234
-0.074759
-0.034465
-0.003399
0.007894
-0.005750
-0.040756
-0.086807
-0.131306
-0.162821
-0.174332
-0.166939
-0.149934
-0.134387
-0.125394
-0.120382
-0.113376
-0.099270
-0.075305
-0.041920
-0.004292
0.027956
0.045163
0.043303
0.025361
-0.002065
-0.032121
-0.058665
-0.076863
-0.084232
-0.080888
-0.069507
-0.055810
-0.047320
-0.049001
-0.059913
-0.074897
-0.088685
-0.098000
-0.102037
-0.103002
-0.105345
-0.112188
-0.121091
-0.123928
-0.112444
-0.084568
-0.045498
-0.004166
0.029680
0.046349
0.038804
0.008115
-0.033382
-0.066437
-0.075623
-0.059087
-0.029340
-0.004121
0.005074
-0.002062
-0.018771
-0.039899
-0.067477
-0.108753
-0.169586
-0.249526
-0.341254
-0.433439
-0.515831
-0.583324
-0.634207
-0.664308
-0.664846
-0.626510
-0.546413
-0.436355
-0.328173
-0.265832
-0.281639
-0.371482
-0.490822
-0.580020
-0.601830
-0.560242
-0.488065
-0.420162
-0.375668
-0.356806
-0.356883
-0.367882
-0.385079
-0.409690
-0.446503
-0.495494
-0.546422
-0.584347
-0.600600
-0.597273
-0.580775
-0.552413
-0.507636
-0.443186
-0.360601
-0.263214
-0.154754
-0.042544
0.058938
0.128115
0.144458
0.104447
0.030662
-0.041685
-0.092421
-0.129332
-0.170437
-0.214985
-0.237327
-0.211146
-0.137704
-0.050951
0.003932
0.000662
-0.052743
-0.121832
-0.165989
-0.158132
-0.098405
-0.016352
0.043719
0.047579
-0.011171
-0.112070
-0.224451
-0.327392
-0.418341
-0.502052
-0.570294
-0.597077
-0.558064
-0.452474
-0.304708
-0.149639
-0.017238
0.078522
0.143460
0.190870
0.220923
0.219579
0.182134
0.128867
0.091496
0.089980
0.125024
0.184839
0.252461
0.310465
0.347903
0.366725
0.376848
0.380035
0.360156
0.292995
0.168328
0.006790
-0.141184
-0.217354
-0.188951
-0.072272
0.071363
0.168219
0.174623
0.099173
-0.011842
-0.108194
-0.159242
-0.159987
-0.127474
-0.089986
-0.071331
-0.079865
-0.108894
-0.145031
-0.178422
-0.209781
-0.247079
-0.290644
-0.321368
-0.309658
-0.241112
-0.134215
-0.031857
0.027398
0.034443
0.010080
-0.017221
-0.033148
-0.040428
-0.045745
-0.046353
-0.029889
0.010922
0.063904
0.102059
0.104604
0.073265
0.031361
0.009966
0.029729
0.088097
0.162272
0.227011
0.271201
0.298079
0.311890
0.307807
0.276517
0.218464
0.152558
0.108053
0.104084
0.135124
0.176156
0.202106
0.203062
0.184168
0.157206
0.136613
0.139788
0.180857
0.257659
0.347916
0.423114
0.465810
0.473123
0.447968
0.392195
0.310176
0.217237
0.140719
0.108642
0.132599
0.197150
0.265101
0.296906
0.270952
0.192404
0.088374
-0.006650
-0.068877
-0.097065
-0.109171
-0.125992
-0.157757
-0.205054
-0.264273
-0.325599
-0.372966
-0.396901
-0.405718
-0.416067
-0.432316
-0.438338
-0.407590
-0.322220
-0.188779
-0.036938
0.098233
0.190699
0.225384
0.198805
0.123503
0.028127
-0.053166
-0.100603
-0.123466
-0.149983
-0.198767
-0.261328
-0.308102
-0.304884
-0.226984
-0.069596
0.144964
0.368836
0.546544
0.642255
0.655129
0.613084
0.555363
0.513618
0.495291
0.480255
0.439403
0.360706
0.257174
0.151502
0.057496
-0.023450
-0.095941
-0.169167
-0.259643
-0.384478
-0.544378
-0.714099
-0.851569
-0.917690
-0.894874
-0.796123
-0.657021
-0.513636
-0.385247
-0.276897
-0.194407
-0.152833
-0.169137
-0.244118
-0.349065
-0.435849
-0.469836
-0.454584
-0.421745
-0.398927
-0.388311
-0.370224
-0.322290
-0.239101
-0.140636
-0.063459
-0.041011
-0.087890
-0.196695
-0.346167
-0.513884
-0.681783
-0.829250
-0.926751
-0.944703
-0.872033
-0.727046
-0.552325
-0.397661
-0.299866
-0.268250
-0.281486
-0.299652
-0.290599
-0.254644
-0.224783
-0.240275
-0.316100
-0.430422
-0.535604
-0.584253
-0.555761
-0.468913
-0.371014
-0.308826
-0.305142
-0.359590
-0.463234
-0.604430
-0.761902
-0.899022
-0.970303
-0.938243
-0.792419
-0.563268
-0.319672
-0.141065
-0.077728
-0.130190
-0.257178
-0.395035
-0.479601
-0.473782
-0.389415
-0.280734
-0.208395
-0.202021
-0.248303
-0.308164
-0.349184
-0.373077
-0.418019
-0.530728
-0.726528
-0.963933
-1.153061
-1.200584
-1.064853
-0.777774
-0.417958
-0.065576
0.223483
0.417384
0.500651
0.475506
0.368523
0.226612
0.097659
0.009740
-0.035194
-0.050855
-0.050863
-0.042817
-0.036587
-0.052115
-0.108006
-0.196871
-0.278359
-0.306042
-0.264328
-0.180312
-0.103211
-0.070226
-0.081585
-0.101253
-0.084848
-0.011782
0.106830
0.245910
0.387169
0.523135
0.642688
0.717494
0.714054
0.628097
0.504972
0.418101
0.420628
0.510881
0.636593
0.731499
0.757175
0.721292
0.661651
0.611018
0.571525
0.519271
0.433303
0.319913
0.209344
0.131535
0.096231
0.094005
0.111998
0.144691
0.189344
0.235484
0.262229
0.246480
0.178687
0.078110
-0.009822
-0.040726
0.000152
0.094548
0.209487
0.313472
0.377740
0.375566
0.299485
0.186456
0.112978
0.147476
0.299695
0.513022
0.699969
0.788340
0.754844
0.637088
0.514025
0.458291
0.493410
0.587343
0.678055
0.706872
0.643440
0.496479
0.311287
0.157680
0.106327
0.192076
0.382255
0.582513
0.688987
0.649799
0.488948
0.281815
0.106355
0.003616
-0.028599
-0.012692
0.032895
0.099251
0.179752
0.262956
0.331432
0.368477
0.368206
0.335643
0.272423
0.167826
0.014132
-0.170448
-0.344762
-0.472441
-0.539176
-0.543525
-0.483162
-0.358205
-0.185760
-0.007173
0.122522
0.160922
0.106488
0.005881
-0.074171
-0.091275
-0.045838
0.039712
0.148399
0.272839
0.403938
0.524674
0.611866
0.640467
0.591645
0.464049
0.276873
0.058737
-0.164182
-0.367522
-0.524825
-0.614433
-0.629149
-0.572077
-0.444647
-0.249057
-0.007743
0.225683
0.384832
0.425788
0.348786
0.193476
0.017761
-0.127622
-0.219632
-0.266162
-0.287123
-0.290815
-0.269458
-0.214058
-0.128561
-0.031147
0.052594
0.095720
0.074278
-0.023055
-0.180865
-0.356089
-0.500709
-0.588578
-0.621083
-0.613149
-0.577579
-0.517418
-0.425953
-0.291803
-0.107750
0.119417
0.365966
0.600706
0.797725
0.937973
1.002969
0.978230
0.869600
0.713434
0.565280
0.473318
0.453624
0.481609
0.506261
0.481593
0.397925
0.292463
0.228071
0.252527
0.369527
0.540804
0.710758
0.835185
0.899686
0.918709
0.919514
0.927211
0.958880
1.019323
1.092922
1.141964
1.124829
1.026595
0.875276
0.727097
0.634009
0.619474
0.672671
0.755232
0.817208
0.820068
0.754790
0.643363
0.525925
0.443700
0.425159
0.477104
0.580000
0.691446
0.763916
0.771613
0.727624
0.674121
0.649600
0.660532
0.681661
0.679700
0.635619
0.550944
0.442376
0.332599
0.240174
0.172707
0.127820
0.098790
0.077803
0.055629
0.023370
-0.020862
-0.068744
-0.111303
-0.153904
-0.219630
-0.335293
-0.509650
-0.719087
-0.912168
-1.032538
-1.046061
-0.954379
-0.786624
-0.576221
-0.341034
-0.083074
0.194397
0.470706
0.706678
0.858642
0.899454
0.834244
0.698540
0.538364
0.387991
0.260911
0.154192
0.057610
-0.038690
-0.140256
-0.246114
-0.344712
-0.411937
-0.420319
-0.358656
-0.246913
-0.131380
-0.061171
-0.062740
-0.128523
-0.223302
-0.302992
-0.337867
-0.329197
-0.307903
-0.312965
-0.361498
-0.431092
-0.471191
-0.439596
-0.336446
-0.209199
-0.127376
-0.145719
-0.275324
-0.475337
-0.671103
-0.793242
-0.816018
-0.768497
-0.710712
-0.694967
-0.739158
-0.822260
-0.898444
-0.922101
-0.869743
-0.745530
-0.572645
-0.382763
-0.209174
-0.081280
-0.017924
-0.020446
-0.071878
-0.146796
-0.224115
-0.293326
-0.356354
-0.428372
-0.531567
-0.679681
-0.865900
-1.065341
-1.246036
-1.377897
-1.440498
-1.431392
-1.367477
-1.275783
-1.181975
-1.102969
-1.042319
-0.990174
-0.931601
-0.858228
-0.773519
-0.688872
-0.615776
-0.560637
-0.525160
-0.511541
-0.527391
-0.581176
-0.668038
-0.762252
-0.828419
-0.840920
-0.793945
-0.700127
-0.586489
-0.489031
-0.441024
-0.457109
-0.523981
-0.606021
-0.661600
-0.657471
-0.577183
-0.429090
-0.250437
-0.095168
-0.006689
0.005679
-0.029327
-0.061076
-0.043011
0.044287
0.183800
0.333934
0.457886
0.549398
0.631704
0.729802
0.840522
0.925241
0.930007
0.818573
0.598963
0.328818
0.093183
-0.036459
-0.037299
0.058780
0.191057
0.308745
0.395557
0.463968
0.529270
0.590188
0.630161
0.630431
0.581736
0.489798
0.373337
0.256125
0.159573
0.099229
0.081222
0.097131
0.122640
0.123006
0.061433
-0.091626
-0.346748
-0.685947
-1.064011
-1.422248
-1.706562
-1.880277
-1.930096
-1.869994
-1.740680
-1.594332
-1.466728
-1.360031
-1.254143
-1.132143
-0.991723
-0.838733
-0.680713
-0.528376
-0.396398
-0.297356
-0.233768
-0.195810
-0.165316
-0.121948
-0.051002
0.047430
0.155309
0.245964
0.300709
0.321270
0.331256
0.365479
0.449162
0.577233
0.712229
0.808633
0.844690
0.833678
0.809417
0.803873
0.831580
0.883153
0.929290
0.936418
0.885156
0.779744
0.646388
0.523475
0.445845
0.431462
0.479709
0.576772
0.698494
0.813881
0.896399
0.937832
0.953314
0.971979
1.016914
1.087791
1.160740
1.206283
1.210547
1.184612
1.158134
1.162359
1.210675
1.286561
1.348121
1.348802
1.260273
1.082669
0.840787
0.575446
0.335045
0.162936
0.079263
0.068558
0.087850
0.095622
0.080689
0.065707
0.083006
0.147174
0.247402
0.357837
0.451916
0.515964
0.560739
0.621271
0.738564
0.933040
1.188736
1.459914
1.694348
1.856147
1.936462
1.952362
1.936366
1.917528
1.902128
1.867671
1.775027
1.590606
1.306863
0.952399
0.586542
0.278247
0.076155
-0.015404
-0.037797
-0.052652
-0.105068
-0.199463
-0.302095
-0.364648
-0.350194
-0.247665
-0.075489
0.121884
0.289046
0.386574
0.414099
0.411023
0.432641
0.517465
0.666703
0.846913
1.011449
1.127236
1.192362
1.233515
1.283248
1.353773
1.428544
1.475445
1.466488
1.389809
1.251959
1.074092
0.885170
0.714442
0.583935
0.503066
0.469374
0.472882
0.497117
0.519353
0.518968
0.490317
0.445629
0.404741
0.383069
0.385826
0.407609
0.435545
0.454226
0.449875
0.413667
0.344650
0.250507
0.146711
0.057194
0.014705
0.052822
0.187605
0.400949
0.640977
0.842451
0.955922
0.970106
0.916367
0.852515
0.834554
0.891691
1.015821
1.168797
1.303204
1.385037
1.405664
1.377677
1.319409
1.239598
1.132817
0.989501
0.814371
0.637079
0.502430
0.447606
0.484636
0.594856
0.732389
0.837601
0.860515
0.782776
0.624641
0.434882
0.269817
0.169557
0.141617
0.160188
0.180115
0.156415
0.060948
-0.107568
-0.322532
-0.538833
-0.710193
-0.807237
-0.828320
-0.798627
-0.758145
-0.745041
-0.783637
-0.881581
-1.031677
-1.210561
-1.375245
-1.468798
-1.441163
-1.275419
-1.002314
-0.691521
-0.421643
-0.246351
-0.177563
-0.192645
-0.255841
-0.338226
-0.426506
-0.521457
-0.631110
-0.762030
-0.912959
-1.074957
-1.235544
-1.381680
-1.501253
-1.585322
-1.631433
-1.645044
-1.635987
-1.612988
-1.582897
-1.554426
-1.539263
-1.547710
-1.582445
-1.634507
-1.684140
-1.706921
-1.682813
-1.604536
-1.480402
-1.328696
-1.168090
-1.011876
-0.868412
-0.744322
-0.646585
-0.581605
-0.551977
-0.553779
-0.575425
-0.598103
-0.600363
-0.568018
-0.504073
-0.430712
-0.380964
-0.384939
-0.457676
-0.594316
-0.775382
-0.978342
-1.185345
-1.380835
-1.545216
-1.656566
-1.703263
-1.694886
-1.656546
-1.609351
-1.556568
-1.489497
-1.405512
-1.317541
-1.244420
-1.192597
-1.146933
-1.078387
-0.963570
-0.802530
-0.621255
-0.457869
-0.344584
-0.296790
-0.310915
-0.367696
-0.439788
-0.502641
-0.541883
-0.551208
-0.525823
-0.461263
-0.358428
-0.227060
-0.083637
0.052366
0.160221
0.219384
0.214291
0.143239
0.026080
-0.098298
-0.188582
-0.221858
-0.201218
-0.144723
-0.069011
0.017734
0.113563
0.219279
0.335171
0.456585
0.574102
0.682474
0.788255
0.902586
1.023743
1.128595
1.181170
1.148658
1.015510
0.794268
0.529090
0.284330
0.120450
0.071638
0.137084
0.286447
0.473063
0.648824
0.777199
0.841682
0.847714
0.818574
0.787595
0.786892
0.832754
0.914484
0.996960
1.039852
1.022300
0.953670
0.862510
0.776597
0.710727
0.665247
0.630892
0.598001
0.565572
0.540902
0.527577
0.512958
0.469480
0.371939
0.218031
0.036490
-0.123390
-0.214008
-0.208565
-0.106981
0.067296
0.271390
0.450558
0.554872
0.558637
0.470367
0.328973
0.188948
0.100075
0.090715
0.161687
0.289047
0.431882
0.546186
0.602841
0.598360
0.550380
0.485316
0.429735
0.405721
0.425501
0.487401
0.576808
0.669997
0.739721
0.765479
0.745018
0.696132
0.644192
0.604840
0.576902
0.550536
0.519825
0.487756
0.464040
0.461663
0.492975
0.564616
0.673758
0.808995
0.956153
1.104151
1.245315
1.371796
1.473815
1.540074
1.558541
1.521474
1.436614
1.333684
1.253407
1.224139
1.244711
1.284999
1.303406
1.273246
1.202201
1.128370
1.093764
1.114749
1.169504
1.210959
1.198133
1.124286
1.021195
0.938924
0.918710
0.975565
1.095264
1.243122
1.380311
1.481199
1.543037
1.582560
1.623018
1.682037
1.767591
1.879588
2.009542
2.135965
2.222435
2.226490
2.116437
1.884404
1.549033
1.149478
0.733272
0.340280
-0.009948
-0.318669
-0.597462
-0.856941
-1.101018
-1.324386
-1.509536
-1.625905
-1.637494
-1.519083
-1.272275
-0.932279
-0.561981
-0.233712
-0.003657
0.111107
0.141738
0.154576
0.218394
0.369854
0.596680
0.843265
1.031810
1.093136
1.000773
0.791712
0.555190
0.390318
0.357436
0.452471
0.615128
0.759553
0.808580
0.719353
0.496404
0.190201
-0.120290
-0.356495
-0.468286
-0.448609
-0.329129
-0.160682
0.008921
0.145963
0.228997
0.245114
0.192293
0.082621
-0.062294
-0.222181
-0.384938
-0.542912
-0.683926
-0.788053
-0.833421
-0.805881
-0.708858
-0.570849
-0.443749
-0.386286
-0.436741
-0.589550
-0.792994
-0.974356
-1.077320
-1.084405
-1.012882
-0.897770
-0.778828
-0.693601
-0.669630
-0.713589
-0.804608
-0.901029
-0.959829
-0.957480
-0.901029
-0.825038
-0.775655
-0.787635
-0.866446
-0.987651
-1.112156
-1.203500
-1.237650
-1.206909
-1.121464
-1.007274
-0.897635
-0.820315
-0.786475
-0.786832
-0.796876
-0.788830
-0.744290
-0.660607
-0.548617
-0.425096
-0.304100
-0.189393
-0.071636
0.065586
0.233189
0.427112
0.629833
0.819819
0.978140
1.087085
1.127554
1.083645
0.953135
0.755391
0.528984
0.316841
0.146311
0.018243
-0.087193
-0.194222
-0.316329
-0.448805
-0.570034
-0.649434
-0.657946
-0.578362
-0.414803
-0.197000
0.027914
0.214712
0.338530
0.403221
0.437837
0.482832
0.572211
0.721357
0.925105
1.162853
1.405962
1.625440
1.799017
1.915796
1.976553
1.989708
1.965839
1.914221
1.841945
1.754193
1.653780
1.538722
1.399800
1.222084
0.991629
0.703924
0.369827
0.018114
-0.305024
-0.542618
-0.644143
-0.590138
-0.409274
-0.172296
0.037111
0.157662
0.172343
0.107332
0.011260
-0.072389
-0.122866
-0.140102
-0.129739
-0.091572
-0.020927
0.081919
0.205719
0.330297
0.432577
0.493501
0.505561
0.477273
0.429583
0.384377
0.351993
0.326449
0.291171
0.230250
0.137518
0.018440
-0.113990
-0.244741
-0.360383
-0.449496
-0.500976
-0.504459
-0.454808
-0.356305
-0.222830
-0.076888
0.050911
0.127234
0.129033
0.055884
-0.069910
-0.216190
-0.356070
-0.475809
-0.574208
-0.656769
-0.728275
-0.788051
-0.832555
-0.863843
-0.893381
-0.933408
-0.983799
-1.030383
-1.057594
-1.062000
-1.054970
-1.056062
-1.084222
-1.148570
-1.239061
-1.324342
-1.364199
-1.330966
-1.224246
-1.068917
-0.900297
-0.747701
-0.624709
-0.527904
-0.442405
-0.352135
-0.251075
-0.148363
-0.061730
-0.002888
0.033290
0.066677
0.119500
0.205141
0.326358
0.479675
0.657778
0.848236
1.033893
1.198538
1.333623
1.439629
1.522873
1.591790
1.652764
1.705937
1.744649
1.759560
1.743677
1.694584
1.613967
1.506392
1.378627
1.238904
1.095531
0.955834
0.825844
0.709919
0.610262
0.526168
0.452004
0.375810
0.283756
0.171255
0.052087
-0.044883
-0.091195
-0.075011
-0.006814
0.087354
0.178780
0.246346
0.280179
0.281530
0.261361
0.235677
0.217003
0.206862
0.195177
0.166630
0.108784
0.017938
-0.097908
-0.219965
-0.326314
-0.404830
-0.461804
-0.517437
-0.590375
-0.682860
-0.776770
-0.841963
-0.851994
-0.800208
-0.707669
-0.616111
-0.567926
-0.585316
-0.661489
-0.767833
-0.870743
-0.946688
-0.987446
-0.995912
-0.978921
-0.943300
-0.895718
-0.843010
-0.791764
-0.747849
-0.715400
-0.695478
-0.687102
-0.691053
-0.711916
-0.754517
-0.817067
-0.887379
-0.946041
-0.974631
-0.963190
-0.911725
-0.825310
-0.708211
-0.563536
-0.399142
-0.233412
-0.093205
-0.003424
0.024298
-0.003346
-0.063822
-0.127459
-0.170268
-0.184681
-0.180630
-0.176614
-0.188000
-0.219504
-0.264297
-0.308705
-0.339686
-0.351401
-0.348077
-0.342569
-0.351343
-0.387560
-0.455103
-0.545679
-0.639223
-0.707942
-0.725131
-0.676822
-0.570111
-0.432090
-0.298489
-0.198545
-0.145002
-0.132282
-0.140922
-0.147460
-0.137698
-0.115333
-0.098808
-0.108852
-0.156021
-0.236173
-0.336233
-0.445481
-0.562814
-0.693919
-0.841189
-0.994339
-1.129041
-1.216232
-1.236955
-1.193013
-1.106767
-1.009711
-0.925551
-0.858304
-0.794336
-0.716480
-0.616592
-0.495479
-0.356079
-0.203393
-0.050872
0.080224
0.173439
0.229752
0.267298
0.308294
0.363370
0.424194
0.469322
0.479283
0.450546
0.399140
0.352481
0.335535
0.359199
0.415927
0.483262
0.532276
0.537115
0.483290
0.372091
0.218622
0.044703
-0.129098
-0.288921
-0.429710
-0.554547
-0.671322
-0.786587
-0.898813
-0.995500
-1.057310
-1.067644
-1.021767
-0.929461
-0.809984
-0.683628
-0.564969
-0.459723
-0.364990
-0.272793
-0.176019
-0.073692
0.027756
0.118578
0.193588
0.257716
0.322042
0.391641
0.456392
0.493891
0.482093
0.411420
0.288476
0.131762
-0.035722
-0.193295
-0.326269
-0.425693
-0.487494
-0.512979
-0.508221
-0.481404
-0.440165
-0.390389
-0.336357
-0.280794
-0.224560
-0.167427
-0.109850
-0.053962
-0.002758
0.041820
0.079236
0.108230
0.126000
0.131478
0.129428
0.130124
0.143804
0.174425
0.217876
0.265387
0.308375
0.340352
0.355294
0.346419
0.309090
0.246204
0.169914
0.096258
0.037651
0.000962
-0.008281
0.017876
0.087441
0.200684
0.343433
0.488487
0.606379
0.678597
0.703898
0.694359
0.665344
0.626088
0.575663
0.505756
0.408040
0.281155
0.133115
-0.021301
-0.166128
-0.289440
-0.385413
-0.453439
-0.496493
-0.518953
-0.522888
-0.505102
-0.459107
-0.381787
-0.279325
-0.168277
-0.071851
-0.013145
-0.007709
-0.058381
-0.154767
-0.277686
-0.406353
-0.525093
-0.627004
-0.712789
-0.785601
-0.846066
-0.891085
-0.916570
-0.921766
-0.911965
-0.896964
-0.886135
