EVENT_NAME: EMILIA_2ND_SHOCK
EVENT_ID: IT-2012-0011
EVENT_DATE_YYYYMMDD: 20120529
EVENT_TIME_HHMMSS: 070002
EVENT_LATITUDE_DEGREE: 44.8417
EVENT_LONGITUDE_DEGREE: 11.0657
EVENT_DEPTH_KM: 8.1
HYPOCENTER_REFERENCE: INGV-CNT_Seismic_Bulletin
MAGNITUDE_W: 6.0
MAGNITUDE_W_REFERENCE: RCMT-INGV
MAGNITUDE_L: 5.8
MAGNITUDE_L_REFERENCE: INGV-CNT_Seismic_Bulletin
FOCAL_MECHANISM: TF
NETWORK: IT
STATION_CODE: CAS0
STATION_NAME: CASTELMASSA
STATION_LATITUDE_DEGREE: 45.025000
STATION_LONGITUDE_DEGREE: 11.311000
STATION_ELEVATION_M: 65
LOCATION: 
SENSOR_DEPTH_M: 0.0
VS30_M/S: 
SITE_CLASSIFICATION_EC8: C*
MORPHOLOGIC_CLASSIFICATION: 
EPICENTRAL_DISTANCE_KM: 28.1
EARTHQUAKE_BACKAZIMUTH_DEGREE: 223.6
DATE_TIME_FIRST_SAMPLE_YYYYMMDD_HHMMSS: 20120529_070003.000
DATE_TIME_FIRST_SAMPLE_PRECISION: seconds
SAMPLING_INTERVAL_S: 0.005000
NDATA: 29001
DURATION_S: 145.005
STREAM: HNN
UNITS: cm/s
INSTRUMENT: sensor = Episensor FBA ES-T [Kinemetrics] | digitizer = Etna [Kinemetrics]
INSTRUMENT_ANALOG/DIGITAL: D
INSTRUMENTAL_FREQUENCY_HZ: 
INSTRUMENTAL_DAMPING: 
FULL_SCALE_G: 
N_BIT_DIGITAL_CONVERTER: 18
PGV_CM/S: 6.857174
TIME_PGV_S: 14.895000
BASELINE_CORRECTION: BASELINE REMOVED
FILTER_TYPE: BUTTERWORTH
FILTER_ORDER: 2
LOW_CUT_FREQUENCY_HZ: 0.060
HIGH_CUT_FREQUENCY_HZ: 35.000
LATE/NORMAL_TRIGGERED: NT
DATABASE_VERSION: DYNA 1.0
HEADER_FORMAT: DYNA 1.2
DATA_TYPE: VELOCITY
PROCESSING: manual (Paolucci et al., 2011)
DATA_TIMESTAMP_YYYYMMDD_HHMMSS: 
DATA_LICENSE: CC-BY3_0-IT (http://creativecommons.org/licenses/by/3.0/deed.en)
DATA_CITATION: ESM working group (2015), European Strong-Motion database, version 0.1, Network Activity 3: Networking acceleration networks and SM data users. Project NERA (www.nera-eu.org)
DATA_CREATOR: ESM working group
ORIGINAL_DATA_MEDIATOR_CITATION: Ufficio Rischio Sismico e Vulcanico del Dipartimento della Protezione Civile (http://www.protezionecivile.gov.it/)
ORIGINAL_DATA_MEDIATOR: Rete Accelerometrica Nazionale - RAN Download (http://www.mot1.it/randownload/)
ORIGINAL_DATA_CREATOR_CITATION: Italian Strong Motion Network, Italian Civil Protection Department http://www.protezionecivile.gov.it
ORIGINAL_DATA_CREATOR: network: IT (Italian Strong Motion Network); owner: Dipartimento Della Protezione Civile
USER1: 
USER2: 
USER3: 
USER4: 
USER5: 
[...]
-0.112953
-0.111367
-0.110285
-0.109445
-0.108370
-0.106902
-0.105602
-0.105384
-0.106603
-0.108535
-0.109803
-0.109376
-0.107324
-0.104615
-0.102111
-0.099861
-0.097383
-0.094460
-0.091558
-0.089468
-0.088531
-0.088331
-0.088115
-0.087399
-0.086249
-0.085145
-0.084617
-0.084892
-0.085743
-0.086619
-0.087026
-0.086883
-0.086401
-0.085591
-0.084154
-0.081973
-0.079471
-0.077303
-0.075769
-0.074626
-0.073446
-0.072117
-0.070914
-0.070149
-0.069923
-0.070232
-0.071052
-0.072146
-0.072897
-0.072632
-0.071205
-0.069137
-0.067045
-0.064980
-0.062420
-0.058946
-0.054826
-0.050783
-0.047262
-0.044095
-0.040871
-0.037540
-0.034631
-0.032915
-0.032886
-0.034486
-0.037151
-0.040093
-0.042739
-0.045050
-0.047353
-0.049820
-0.052181
-0.054002
-0.055172
-0.056043
-0.057136
-0.058721
-0.060665
-0.062664
-0.064615
-0.066749
-0.069458
-0.073073
-0.077713
-0.083268
-0.089485
-0.096055
-0.102671
-0.109114
-0.115323
-0.121406
-0.127547
-0.133778
-0.139731
-0.144736
-0.148308
-0.150623
-0.152447
-0.154556
-0.157242
-0.160369
-0.163744
-0.167263
-0.170789
-0.174095
-0.177014
-0.179671
-0.182416
-0.185412
-0.188403
-0.190981
-0.192963
-0.194417
-0.195378
-0.195671
-0.195018
-0.193319
-0.190875
-0.188325
-0.186268
-0.184852
-0.183704
-0.182242
-0.180120
-0.177517
-0.175080
-0.173527
-0.173071
-0.173250
-0.173454
-0.173583
-0.173998
-0.174872
-0.175770
-0.175923
-0.174852
-0.172753
-0.170407
-0.168693
-0.168137
-0.168826
-0.170568
-0.173000
-0.175651
-0.178112
-0.180223
-0.182050
-0.183626
-0.184878
-0.185896
-0.187129
-0.189152
-0.192201
-0.195918
-0.199535
-0.202302
-0.203833
-0.204223
-0.203946
-0.203670
-0.204063
-0.205565
-0.208144
-0.211262
-0.214182
-0.216391
-0.217807
-0.218642
-0.219163
-0.219646
-0.220470
-0.222051
-0.224522
-0.227439
-0.229922
-0.231164
-0.230929
-0.229648
-0.228047
-0.226606
-0.225327
-0.223934
-0.222180
-0.219973
-0.217381
-0.214607
-0.211923
-0.209468
-0.207097
-0.204530
-0.201689
-0.198902
-0.196828
-0.196038
-0.196512
-0.197579
-0.198484
-0.199039
-0.199747
-0.201340
-0.204183
-0.208084
-0.212583
-0.217406
-0.222736
-0.229118
-0.237021
-0.246391
-0.256677
-0.267314
-0.278164
-0.289486
-0.301449
-0.313702
-0.325536
-0.336542
-0.347097
-0.358207
-0.370860
-0.385435
-0.401613
-0.418767
-0.436411
-0.454433
-0.472958
-0.491993
-0.511174
-0.529796
-0.547079
-0.562526
-0.575990
-0.587326
-0.596257
-0.602739
-0.607336
-0.611060
-0.614833
-0.619007
-0.623260
-0.626893
-0.629244
-0.629973
-0.629179
-0.627289
-0.624700
-0.621568
-0.617911
-0.613729
-0.608996
-0.603558
-0.596941
-0.588399
-0.577393
-0.563990
-0.548836
-0.532889
-0.517142
-0.502445
-0.489574
-0.479316
-0.472227
-0.468282
-0.466783
-0.466529
-0.466314
-0.465565
-0.464437
-0.463321
-0.462407
-0.461553
-0.460446
-0.459042
-0.457773
-0.457120
-0.457121
-0.457507
-0.458159
-0.459256
-0.461012
-0.463358
-0.466031
-0.468949
-0.472181
-0.475586
-0.478757
-0.481228
-0.482539
-0.482276
-0.480161
-0.475996
-0.469628
-0.461140
-0.450934
-0.439431
-0.426775
-0.412835
-0.397358
-0.380126
-0.361167
-0.341075
-0.321107
-0.302691
-0.286680
-0.273208
-0.262136
-0.253213
-0.245900
-0.239494
-0.233529
-0.227953
-0.222965
-0.218675
-0.214848
-0.210965
-0.206724
-0.202562
-0.199600
-0.198868
-0.200513
-0.203871
-0.208371
-0.214188
-0.222043
-0.232559
-0.245673
-0.260462
-0.275670
-0.290524
-0.304947
-0.319130
-0.333084
-0.346532
-0.359109
-0.370685
-0.381543
-0.392280
-0.403468
-0.415226
-0.427007
-0.438004
-0.447853
-0.456845
-0.465518
-0.474106
-0.482205
-0.489008
-0.494015
-0.497418
-0.499776
-0.501511
-0.502669
-0.502983
-0.502060
-0.499611
-0.495670
-0.490689
-0.485379
-0.480342
-0.475805
-0.471545
-0.466965
-0.461465
-0.454927
-0.447768
-0.440584
-0.433824
-0.427768
-0.422608
-0.418365
-0.414668
-0.410759
-0.405932
-0.400041
-0.393533
-0.387003
-0.380738
-0.374690
-0.368822
-0.363288
-0.357988
-0.352165
-0.344931
-0.336235
-0.327127
-0.319095
-0.313208
-0.309704
-0.308161
-0.307927
-0.308436
-0.309248
-0.309927
-0.309888
-0.308328
-0.304323
-0.297177
-0.286919
-0.274426
-0.260838
-0.246783
-0.232152
-0.216620
-0.200352
-0.184205
-0.169209
-0.155880
-0.144131
-0.133792
-0.125057
-0.118343
-0.113680
-0.110214
-0.106411
-0.100896
-0.093116
-0.083372
-0.072393
-0.060901
-0.049491
-0.038744
-0.029135
-0.020713
-0.013090
-0.005883
0.000912
0.006971
0.011915
0.015436
0.017123
0.016397
0.012993
0.007642
0.002081
-0.001833
-0.003016
-0.001197
0.003592
0.011250
0.021449
0.033491
0.046448
0.059485
0.072070
0.084036
0.095572
0.107075
0.118857
0.130919
0.142979
0.154715
0.166022
0.176972
0.187483
0.197256
0.206199
0.214715
0.223398
0.232571
0.242125
0.251656
0.260643
0.268457
0.274440
0.278333
0.280583
0.281972
0.282953
0.283439
0.283216
0.282479
0.281898
0.282034
0.282735
0.283296
0.283107
0.281963
0.279958
0.277362
0.274482
0.271400
0.267859
0.263561
0.258502
0.252815
0.246295
0.238259
0.228037
0.215682
0.202234
0.189276
0.178175
0.169757
0.164666
0.163628
0.167130
0.174882
0.185527
0.196908
0.206841
0.213948
0.218112
0.220498
0.223061
0.227754
0.235869
0.247847
0.263504
0.282452
0.304216
0.327857
0.351782
0.374288
0.394399
0.412344
0.429278
0.446192
0.462869
0.477978
0.490115
0.498510
0.502875
0.502967
0.498542
0.489744
0.477483
0.463292
0.448697
0.434745
0.421917
0.410141
0.398832
0.387050
0.373627
0.357431
0.337932
0.315605
0.291661
0.267496
0.244284
0.222633
0.202411
0.183054
0.164188
0.145840
0.128065
0.110535
0.092702
0.074439
0.056375
0.039398
0.023986
0.010150
-0.002383
-0.014160
-0.025886
-0.038187
-0.051476
-0.065801
-0.080715
-0.095436
-0.109204
-0.121474
-0.131847
-0.139890
-0.145057
-0.146798
-0.144745
-0.139011
-0.130426
-0.120208
-0.109357
-0.098562
-0.088604
-0.080520
-0.075229
-0.072874
-0.072555
-0.072796
-0.072364
-0.070741
-0.068074
-0.064802
-0.061194
-0.057202
-0.052772
-0.048095
-0.043553
-0.039733
-0.037486
-0.037795
-0.041729
-0.050417
-0.064696
-0.084674
-0.109623
-0.138242
-0.168995
-0.200353
-0.230910
-0.259481
-0.285232
-0.307717
-0.326874
-0.343040
-0.356874
-0.369052
-0.379832
-0.388926
-0.395981
-0.401239
-0.405507
-0.409368
-0.412564
-0.414233
-0.413753
-0.411333
-0.407823
-0.404011
-0.400187
-0.396249
-0.392064
-0.387722
-0.383499
-0.379616
-0.375931
-0.371744
-0.365905
-0.357398
-0.346106
-0.333037
-0.319750
-0.307572
-0.297209
-0.288798
-0.282047
-0.276316
-0.270713
-0.264275
-0.256194
-0.245968
-0.233360
-0.218341
-0.201201
-0.182741
-0.164244
-0.147068
-0.132011
-0.118926
-0.106880
-0.094687
-0.081423
-0.066694
-0.050667
-0.034006
-0.017678
-0.002680
0.010163
0.020253
0.027364
0.031902
0.034998
0.038205
0.043057
0.050753
0.061950
0.076547
0.093640
0.111809
0.129588
0.145806
0.159766
0.171341
0.181062
0.190037
0.199511
0.210174
0.221661
0.232677
0.241695
0.247618
0.249850
0.248076
0.242394
0.233807
0.224356
0.216456
0.211905
0.211283
0.214030
0.218908
0.224454
0.229273
0.232261
0.232749
0.230518
0.225678
0.218467
0.209231
0.198715
0.188226
0.179181
0.172284
0.166976
0.161686
0.154721
0.144987
0.132162
0.116614
0.099336
0.081790
0.065418
0.051054
0.038747
0.028063
0.018398
0.008988
-0.001115
-0.012748
-0.026127
-0.040576
-0.054869
-0.067934
-0.079280
-0.088932
-0.097212
-0.104681
-0.112221
-0.120929
-0.131671
-0.144559
-0.158769
-0.172861
-0.185379
-0.195410
-0.202905
-0.208696
-0.214299
-0.221462
-0.231458
-0.244448
-0.259387
-0.274415
-0.287466
-0.296787
-0.301133
-0.299762
-0.292636
-0.280690
-0.265728
-0.250027
-0.235906
-0.225263
-0.219149
-0.217620
-0.220002
-0.225489
-0.233674
-0.244651
-0.258681
-0.275765
-0.295431
-0.316835
-0.339047
-0.361246
-0.382570
-0.401844
-0.417660
-0.428926
-0.435415
-0.437865
-0.437736
-0.436903
-0.437335
-0.440746
-0.448302
-0.460268
-0.475709
-0.492634
-0.508747
-0.522397
-0.533172
-0.541767
-0.549255
-0.556371
-0.563315
-0.570012
-0.576348
-0.582017
-0.586207
-0.587724
-0.585684
-0.580131
-0.571858
-0.561655
-0.549927
-0.537034
-0.523555
-0.509928
-0.495936
-0.480630
-0.462767
-0.441412
-0.416238
-0.387404
-0.355235
-0.320042
-0.282304
-0.242985
-0.203414
-0.164604
-0.126701
-0.089199
-0.051571
-0.013689
0.024149
0.061556
0.098365
0.134466
0.169542
0.203177
0.235235
0.266242
0.297420
0.330068
0.364899
0.402170
0.442278
0.485862
0.533271
0.584016
0.636771
0.689843
0.741597
0.790466
0.834904
0.873711
0.906584
0.934496
0.959544
0.984118
1.009992
1.037981
1.068030
1.099371
1.130748
1.160884
1.189007
1.214986
1.238966
1.260952
1.280801
1.298484
1.314099
1.327507
1.338125
1.345219
1.348232
1.346748
1.340388
1.328865
1.312229
1.291294
1.267740
1.243331
1.218842
1.193943
1.167958
1.140469
1.111226
1.079711
1.044960
1.005926
0.962005
0.913142
0.859643
0.802293
0.742531
0.682062
0.622298
0.564460
0.510018
0.460700
0.418109
0.383533
0.357837
0.341256
0.333426
0.333555
0.340365
0.352170
0.367504
0.385736
0.406984
0.431560
0.459547
0.490821
0.525377
0.563497
0.605593
0.652018
0.702915
0.758089
0.817194
0.880061
0.946600
1.016285
1.087784
1.159117
1.228209
1.293495
1.354280
1.410721
1.463578
1.513847
1.562352
1.609669
1.656263
1.702323
1.747493
1.791162
1.833024
1.873264
1.912376
1.950807
1.988455
2.024351
2.056857
2.084157
2.104645
2.117097
2.120843
2.115995
2.103642
2.085870
2.065479
2.045371
2.027660
2.012784
1.999191
1.984032
1.964369
1.937878
1.902762
1.857330
1.799848
1.728832
1.643718
1.545459
1.436404
1.319359
1.196569
1.069367
0.938611
0.805589
0.672689
0.543085
0.419677
0.304274
0.197576
0.099699
0.010615
-0.070013
-0.143429
-0.211904
-0.277898
-0.342996
-0.407432
-0.470311
-0.530155
-0.585447
-0.634978
-0.677956
-0.714028
-0.743336
-0.766657
-0.785437
-0.801515
-0.816618
-0.831834
-0.847260
-0.861846
-0.873612
-0.880229
-0.879688
-0.870796
-0.853493
-0.829019
-0.799767
-0.768532
-0.737421
-0.707116
-0.676979
-0.645687
-0.611776
-0.573904
-0.531094
-0.483069
-0.430540
-0.375193
-0.319080
-0.263644
-0.209179
-0.155033
-0.100136
-0.043439
0.015804
0.077922
0.142733
0.209407
0.276381
0.341274
0.400899
0.451807
0.491236
0.517500
0.529913
0.529046
0.517078
0.497548
0.474360
0.450479
0.427066
0.403659
0.379141
0.352517
0.323033
0.290109
0.253653
0.214650
0.175229
0.137723
0.103378
0.071714
0.040777
0.007950
-0.028896
-0.070457
-0.115841
-0.163144
-0.210384
-0.256378
-0.301120
-0.345515
-0.390822
-0.438311
-0.489118
-0.543884
-0.601996
-0.661036
-0.717111
-0.765970
-0.804381
-0.831341
-0.848696
-0.860723
-0.872749
-0.889700
-0.915397
-0.952432
-1.001915
-1.062934
-1.132297
-1.205258
-1.277146
-1.345023
-1.408387
-1.468561
-1.527272
-1.585380
-1.642256
-1.695910
-1.743842
-1.784257
-1.816845
-1.842595
-1.862951
-1.879290
-1.893268
-1.907412
-1.924944
-1.948563
-1.978928
-2.014090
-2.050523
-2.085106
-2.116642
-2.145967
-2.174879
-2.204838
-2.236343
-2.269307
-2.303785
-2.340164
-2.378696
-2.418995
-2.460114
-2.501258
-2.542593
-2.585462
-2.631762
-2.682875
-2.738689
-2.797111
-2.854322
-2.905747
-2.947320
-2.976400
-2.992020
-2.994679
-2.986139
-2.969427
-2.948662
-2.928217
-2.911352
-2.899025
-2.889546
-2.879275
-2.863968
-2.840106
-2.805668
-2.760144
-2.704040
-2.638309
-2.563942
-2.481782
-2.392560
-2.296987
-2.195698
-2.089126
-1.977549
-1.861593
-1.742968
-1.624774
-1.510818
-1.404134
-1.305537
-1.213343
-1.124493
-1.036098
-0.946344
-0.854521
-0.760515
-0.664320
-0.566159
-0.467112
-0.369510
-0.276482
-0.190738
-0.113465
-0.044310
0.017566
0.072337
0.119153
0.156630
0.183843
0.201168
0.210150
0.212457
0.209133
0.200618
0.186962
0.168005
0.143535
0.113231
0.076639
0.033834
-0.013509
-0.061655
-0.105490
-0.139999
-0.161711
-0.169083
-0.161732
-0.139665
-0.103344
-0.054220
0.005123
0.071542
0.142237
0.215065
0.287953
0.358392
0.423781
0.482027
0.531839
0.572640
0.603870
0.624104
0.631111
0.623051
0.599508
0.561326
0.509586
0.444735
0.366602
0.275211
0.171741
0.059072
-0.058368
-0.175576
-0.288350
-0.394094
-0.491751
-0.581472
-0.664174
-0.740705
-0.810908
-0.873192
-0.924628
-0.961388
-0.979646
-0.976626
-0.951110
-0.903194
-0.834019
-0.746154
-0.644054
-0.533554
-0.420573
-0.309909
-0.204339
-0.104018
-0.006561
0.091881
0.195043
0.305289
0.423165
0.547809
0.677844
0.812153
0.950253
1.092315
1.239072
1.391760
1.551805
1.720015
1.895841
2.077280
2.261392
2.444874
2.624358
2.796573
2.958620
3.108535
3.246128
3.373389
3.493747
3.610393
3.724947
3.837408
3.947052
4.053387
4.156585
4.257530
4.357698
4.458798
4.562107
4.667916
4.775475
4.883262
4.989213
5.090870
5.185558
5.270751
5.344623
5.406706
5.458408
5.502941
5.544648
5.588291
5.638436
5.698642
5.770815
5.855295
5.951146
6.056320
6.168098
6.283660
6.400055
6.513618
6.619540
6.712061
6.785366
6.834722
6.857174
6.851647
6.818826
6.760910
6.681169
6.583649
6.472997
6.353936
6.230514
6.105653
5.981167
5.858128
5.737429
5.620135
5.507192
5.398728
5.293829
5.191055
5.089150
4.987313
4.885004
4.781651
4.676494
4.568807
4.458365
4.345764
4.232235
4.119181
4.007889
3.899358
3.794088
3.692063
3.592713
3.494486
3.394589
3.289369
3.175081
3.048741
2.908957
2.756463
2.594022
2.425805
2.256697
2.091696
1.935297
1.790886
1.660330
1.543602
1.438653
1.342081
1.250264
1.160267
1.070359
0.979963
0.888956
0.796836
0.702184
0.602555
0.495073
0.377816
0.251657
0.121724
-0.003011
-0.112638
-0.199685
-0.260224
-0.292562
-0.295582
-0.268536
-0.212401
-0.131224
-0.031644
0.079309
0.196339
0.316514
0.438502
0.561252
0.682898
0.800300
0.909318
1.005793
1.086947
1.152636
1.205745
1.251446
1.295640
1.343137
1.396377
1.455229
1.517500
1.579474
1.636481
1.683705
1.717153
1.734601
1.735880
1.722251
1.695656
1.658379
1.612888
1.561810
1.507816
1.453317
1.400568
1.352077
1.310582
1.278573
1.257889
1.249265
1.251646
1.261749
1.274386
1.283642
1.284574
1.274543
1.253626
1.224525
1.192159
1.162633
1.141724
1.133249
1.137783
1.152587
1.172977
1.193920
1.210842
1.219952
1.218424
1.204474
1.177464
1.137907
1.087097
1.026453
0.957082
0.879601
0.794026
0.699775
0.595913
0.481588
0.356617
0.221872
0.079057
-0.069801
-0.222807
-0.378892
-0.538332
-0.702154
-0.870788
-1.043130
-1.216427
-1.386846
-1.550671
-1.705321
-1.849364
-1.982098
-2.103589
-2.214979
-2.318603
-2.417730
-2.515473
-2.613146
-2.709484
-2.801185
-2.883805
-2.952532
-3.003378
-3.034628
-3.047470
-3.045559
-3.034085
-3.018735
-3.004679
-2.995816
-2.994614
-3.002321
-3.018900
-3.042820
-3.071386
-3.101474
-3.129979
-3.153901
-3.170435
-3.176831
-3.170045
-3.146944
-3.105052
-3.043179
-2.961863
-2.863755
-2.753892
-2.639487
-2.528843
-2.429650
-2.347381
-2.284266
-2.239023
-2.207315
-2.182599
-2.157041
-2.122644
-2.072636
-2.002747
-1.911714
-1.800646
-1.671873
-1.528295
-1.373468
-1.211991
-1.049526
-0.891846
-0.743363
-0.606344
-0.481272
-0.367645
-0.264324
-0.169296
-0.079488
0.008662
0.098141
0.190756
0.287305
0.388184
0.493962
0.605526
0.723763
0.849183
0.981894
1.121657
1.267712
1.418574
1.571921
1.724770
1.874068
2.017150
2.151817
2.276343
2.389380
2.489751
2.576403
2.648513
2.705493
2.746995
2.773136
2.784586
2.782472
2.768516
2.745116
2.714927
2.680213
2.642369
2.601673
2.557174
2.506761
2.447722
2.377624
2.294653
2.197204
2.083561
1.952532
1.804272
1.639981
1.461220
1.269948
1.068896
0.861526
0.651465
0.442098
0.236765
0.039092
-0.147108
-0.318675
-0.473784
-0.611679
-0.732580
-0.838428
-0.933436
-1.023475
-1.114811
-1.213287
-1.323840
-1.449715
-1.591803
-1.748758
-1.917691
-2.094715
-2.275142
-2.453699
-2.624642
-2.781766
-2.918938
-3.031281
-3.116135
-3.172898
-3.202210
-3.205727
-3.186634
-3.150121
-3.103026
-3.052476
-3.004229
-2.961860
-2.926817
-2.898689
-2.875535
-2.854178
-2.830362
-2.799051
-2.755045
-2.693921
-2.612848
-2.510930
-2.389119
-2.249751
-2.095871
-1.930850
-1.758504
-1.583034
-1.408522
-1.238414
-1.075235
-0.920833
-0.776980
-0.645703
-0.529104
-0.428625
-0.344222
-0.274156
-0.215627
-0.165660
-0.121550
-0.080931
-0.041965
-0.003528
0.035201
0.075395
0.118433
0.165146
0.215405
0.268304
0.322320
0.375019
0.422870
0.461843
0.488325
0.499692
0.494409
0.472096
0.433843
0.382391
0.321713
0.256012
0.188658
0.121826
0.056795
-0.005735
-0.065288
-0.121062
-0.171845
-0.216426
-0.253859
-0.283517
-0.305347
-0.320439
-0.331502
-0.342967
-0.360533
-0.389964
-0.435648
-0.499703
-0.581685
-0.678523
-0.784972
-0.894875
-1.002378
-1.102686
-1.192976
-1.273269
-1.346227
-1.415499
-1.483710
-1.551536
-1.618309
-1.683396
-1.747018
-1.810014
-1.873440
-1.938689
-2.007631
-2.082569
-2.166403
-2.262293
-2.372403
-2.496841
-2.633452
-2.778435
-2.927621
-3.077633
-3.226042
-3.370867
-3.510269
-3.641988
-3.762299
-3.865999
-3.948129
-4.006042
-4.040200
-4.053643
-4.051145
-4.038708
-4.023246
-4.011624
-4.008969
-4.017305
-4.035132
-4.057779
-4.078308
-4.089113
-4.083774
-4.058202
-4.010895
-3.942705
-3.856297
-3.755271
-3.643208
-3.522855
-3.395610
-3.261884
-3.122078
-2.977207
-2.829077
-2.680133
-2.533174
-2.391421
-2.258676
-2.138773
-2.034340
-1.946097
-1.873408
-1.815189
-1.770274
-1.737142
-1.713556
-1.696839
-1.684703
-1.675910
-1.670164
-1.667758
-1.669663
-1.677495
-1.692921
-1.717213
-1.751369
-1.796407
-1.853367
-1.922890
-2.004789
-2.097981
-2.200638
-2.310230
-2.423448
-2.536475
-2.645594
-2.747463
-2.839076
-2.917691
-2.980828
-3.026461
-3.053272
-3.060819
-3.049503
-3.020318
-2.974686
-2.914294
-2.840991
-2.757157
-2.665894
-2.570475
-2.473767
-2.378139
-2.285846
-2.199074
-2.119342
-2.047095
-1.981498
-1.920305
-1.860172
-1.797403
-1.729062
-1.653805
-1.572002
-1.485562
-1.397672
-1.312444
-1.234552
-1.168718
-1.119088
-1.088635
-1.078589
-1.088028
-1.114019
-1.152320
-1.198267
-1.247430
-1.296166
-1.341852
-1.382636
-1.417223
-1.444873
-1.465414
-1.478962
-1.485339
-1.483777
-1.473221
-1.453049
-1.423386
-1.384916
-1.339226
-1.289403
-1.239716
-1.194531
-1.157432
-1.130798
-1.115496
-1.110737
-1.114261
-1.122611
-1.131311
-1.135386
-1.130237
-1.112346
-1.079733
-1.032181
-0.970927
-0.898111
-0.816333
-0.728190
-0.636098
-0.542821
-0.451686
-0.365904
-0.288140
-0.220692
-0.165507
-0.123736
-0.095448
-0.080143
-0.077584
-0.087732
-0.109792
-0.141617
-0.180316
-0.223226
