EVENT_NAME: EMILIA_2ND_SHOCK
EVENT_ID: IT-2012-0011
EVENT_DATE_YYYYMMDD: 20120529
EVENT_TIME_HHMMSS: 070002
EVENT_LATITUDE_DEGREE: 44.8417
EVENT_LONGITUDE_DEGREE: 11.0657
EVENT_DEPTH_KM: 8.1
HYPOCENTER_REFERENCE: INGV-CNT_Seismic_Bulletin
MAGNITUDE_W: 6.0
MAGNITUDE_W_REFERENCE: RCMT-INGV
MAGNITUDE_L: 5.8
MAGNITUDE_L_REFERENCE: INGV-CNT_Seismic_Bulletin
FOCAL_MECHANISM: TF
NETWORK: IT
STATION_CODE: CNT
STATION_NAME: CENTO
STATION_LATITUDE_DEGREE: 44.723400
STATION_LONGITUDE_DEGREE: 11.286700
STATION_ELEVATION_M: 68
LOCATION: 
SENSOR_DEPTH_M: 0.0
VS30_M/S: 
SITE_CLASSIFICATION_EC8: C*
MORPHOLOGIC_CLASSIFICATION: 
EPICENTRAL_DISTANCE_KM: 21.9
EARTHQUAKE_BACKAZIMUTH_DEGREE: 307.0
DATE_TIME_FIRST_SAMPLE_YYYYMMDD_HHMMSS: 20120529_065953.000
DATE_TIME_FIRST_SAMPLE_PRECISION: seconds
SAMPLING_INTERVAL_S: 0.005000
NDATA: 27600
DURATION_S: 138.000
STREAM: HNN
UNITS: cm
INSTRUMENT: sensor = Episensor FBA ES-T [Kinemetrics] | digitizer = Etna [Kinemetrics]
INSTRUMENT_ANALOG/DIGITAL: D
INSTRUMENTAL_FREQUENCY_HZ: 
INSTRUMENTAL_DAMPING: 
FULL_SCALE_G: 
N_BIT_DIGITAL_CONVERTER: 18
PGD_CM: 3.015421
TIME_PGD_S: 23.310000
BASELINE_CORRECTION: BASELINE REMOVED
FILTER_TYPE: BUTTERWORTH
FILTER_ORDER: 2
LOW_CUT_FREQUENCY_HZ: 0.070
HIGH_CUT_FREQUENCY_HZ: 40.000
LATE/NORMAL_TRIGGERED: NT
DATABASE_VERSION: DYNA 1.0
HEADER_FORMAT: DYNA 1.2
DATA_TYPE: DISPLACEMENT
PROCESSING: manual (Paolucci et al., 2011)
DATA_TIMESTAMP_YYYYMMDD_HHMMSS: 20141204_102759.333
DATA_LICENSE: CC-BY3_0-IT (http://creativecommons.org/licenses/by/3.0/deed.en)
DATA_CITATION: ESM working group (2015), European Strong-Motion database, version 0.1, Network Activity 3: Networking acceleration networks and SM data users. Project NERA (www.nera-eu.org)
DATA_CREATOR: ESM working group
ORIGINAL_DATA_MEDIATOR_CITATION: Ufficio Rischio Sismico e Vulcanico del Dipartimento della Protezione Civile (http://www.protezionecivile.gov.it/)
ORIGINAL_DATA_MEDIATOR: Rete Accelerometrica Nazionale - RAN Download (http://www.mot1.it/randownload/)
ORIGINAL_DATA_CREATOR_CITATION: Italian Strong Motion Network, Italian Civil Protection Department http://www.protezionecivile.gov.it
ORIGINAL_DATA_CREATOR: network: IT (Italian Strong Motion Network); owner: Dipartimento Della Protezione Civile
USER1: /home/dyna/processing-itaca/processing.py /var/www/processing/tmp/fpacor//IT.CNT..HNE.D.20120529.070003.X.ACC.ASC /var/www/processing/tmp/fpacor//IT.CNT..HNN.D.20120529.070003.X.ACC.ASC /var/www/processing/tmp/fpacor//IT.CNT..HNZ.D.20120529.070003.X.ACC.ASC --tmp /var/www/processing/tmp/fpacor/ --le 0.070 --he 40.000 --ln 0.070 --hn 40.000 --lz 0.070 --hz 40.000 --fo 2 --ca -10 --cz 30 --ta 5 --tz 5 --mf 1 --rf 0 --tr NT
USER2: 
USER3: 
USER4: 
USER5: 
[...]
-1.581007e-01
-1.585605e-01
-1.590202e-01
-1.594494e-01
-1.598357e-01
-1.601746e-01
-1.604552e-01
-1.606541e-01
-1.607460e-01
-1.607215e-01
-1.605952e-01
-1.603955e-01
-1.601462e-01
-1.598597e-01
-1.595472e-01
-1.592329e-01
-1.589560e-01
-1.587613e-01
-1.586869e-01
-1.587547e-01
-1.589629e-01
-1.592880e-01
-1.596981e-01
-1.601596e-01
-1.606228e-01
-1.610065e-01
-1.612194e-01
-1.612188e-01
-1.610573e-01
-1.608661e-01
-1.607817e-01
-1.608730e-01
-1.611195e-01
-1.614437e-01
-1.617592e-01
-1.620032e-01
-1.621454e-01
-1.621869e-01
-1.621537e-01
-1.620850e-01
-1.620250e-01
-1.620217e-01
-1.621240e-01
-1.623657e-01
-1.627396e-01
-1.631870e-01
-1.636136e-01
-1.639201e-01
-1.640298e-01
-1.639061e-01
-1.635583e-01
-1.630319e-01
-1.623956e-01
-1.617341e-01
-1.611442e-01
-1.607199e-01
-1.605203e-01
-1.605453e-01
-1.607406e-01
-1.610329e-01
-1.613636e-01
-1.616976e-01
-1.620105e-01
-1.622756e-01
-1.624637e-01
-1.625520e-01
-1.625340e-01
-1.624205e-01
-1.622257e-01
-1.619465e-01
-1.615554e-01
-1.610242e-01
-1.603677e-01
-1.596668e-01
-1.590409e-01
-1.585856e-01
-1.583347e-01
-1.582776e-01
-1.584022e-01
-1.587109e-01
-1.591928e-01
-1.597889e-01
-1.603949e-01
-1.609022e-01
-1.612461e-01
-1.614291e-01
-1.615068e-01
-1.615497e-01
-1.616112e-01
-1.617206e-01
-1.618901e-01
-1.621120e-01
-1.623442e-01
-1.625046e-01
-1.624982e-01
-1.622689e-01
-1.618465e-01
-1.613477e-01
-1.609221e-01
-1.606840e-01
-1.606851e-01
-1.609403e-01
-1.614535e-01
-1.622025e-01
-1.631035e-01
-1.640065e-01
-1.647464e-01
-1.652173e-01
-1.654177e-01
-1.654351e-01
-1.653863e-01
-1.653543e-01
-1.653588e-01
-1.653763e-01
-1.653865e-01
-1.653955e-01
-1.654133e-01
-1.654166e-01
-1.653492e-01
-1.651769e-01
-1.649505e-01
-1.648126e-01
-1.649282e-01
-1.653832e-01
-1.661252e-01
-1.669941e-01
-1.678187e-01
-1.685026e-01
-1.690294e-01
-1.694044e-01
-1.696085e-01
-1.696175e-01
-1.694544e-01
-1.692092e-01
-1.690009e-01
-1.689108e-01
-1.689390e-01
-1.690146e-01
-1.690478e-01
-1.689802e-01
-1.687967e-01
-1.685066e-01
-1.681259e-01
-1.676753e-01
-1.671854e-01
-1.666919e-01
-1.662223e-01
-1.657853e-01
-1.653741e-01
-1.649757e-01
-1.645686e-01
-1.641098e-01
-1.635413e-01
-1.628342e-01
-1.620369e-01
-1.612729e-01
-1.606716e-01
-1.602815e-01
-1.600366e-01
-1.598084e-01
-1.595005e-01
-1.591019e-01
-1.586537e-01
-1.581754e-01
-1.576380e-01
-1.570055e-01
-1.562864e-01
-1.555319e-01
-1.547877e-01
-1.540570e-01
-1.533171e-01
-1.525626e-01
-1.518208e-01
-1.511199e-01
-1.504474e-01
-1.497569e-01
-1.490251e-01
-1.482947e-01
-1.476478e-01
-1.471353e-01
-1.467400e-01
-1.464046e-01
-1.460833e-01
-1.457586e-01
-1.454180e-01
-1.450314e-01
-1.445612e-01
-1.439934e-01
-1.433582e-01
-1.427141e-01
-1.420992e-01
-1.414898e-01
-1.408081e-01
-1.399809e-01
-1.390008e-01
-1.379286e-01
-1.368399e-01
-1.357708e-01
-1.347104e-01
-1.336294e-01
-1.325109e-01
-1.313599e-01
-1.301968e-01
-1.290407e-01
-1.278957e-01
-1.267506e-01
-1.255937e-01
-1.244252e-01
-1.232538e-01
-1.220840e-01
-1.209176e-01
-1.197681e-01
-1.186663e-01
-1.176388e-01
-1.166745e-01
-1.157135e-01
-1.146731e-01
-1.134867e-01
-1.121260e-01
-1.106029e-01
-1.089647e-01
-1.072831e-01
-1.056325e-01
-1.040679e-01
-1.026181e-01
-1.012925e-01
-1.000862e-01
-9.897280e-02
-9.790305e-02
-9.682230e-02
-9.569752e-02
-9.453227e-02
-9.336259e-02
-9.224277e-02
-9.123057e-02
-9.037424e-02
-8.969667e-02
-8.917547e-02
-8.873498e-02
-8.827017e-02
-8.769616e-02
-8.698688e-02
-8.617128e-02
-8.529581e-02
-8.439271e-02
-8.348172e-02
-8.259434e-02
-8.178639e-02
-8.111988e-02
-8.063064e-02
-8.031744e-02
-8.016893e-02
-8.020466e-02
-8.048818e-02
-8.109322e-02
-8.205103e-02
-8.332747e-02
-8.484727e-02
-8.653119e-02
-8.830153e-02
-9.005617e-02
-9.165685e-02
-9.296539e-02
-9.390572e-02
-9.449603e-02
-9.482475e-02
-9.499895e-02
-9.511109e-02
-9.523598e-02
-9.543470e-02
-9.574601e-02
-9.617150e-02
-9.667145e-02
-9.717763e-02
-9.761652e-02
-9.793177e-02
-9.809691e-02
-9.811787e-02
-9.802884e-02
-9.787710e-02
-9.769295e-02
-9.746150e-02
-9.712564e-02
-9.662354e-02
-9.592538e-02
-9.503564e-02
-9.397032e-02
-9.274538e-02
-9.139174e-02
-8.997413e-02
-8.858268e-02
-8.729146e-02
-8.610947e-02
-8.495981e-02
-8.370613e-02
-8.221501e-02
-8.041827e-02
-7.833914e-02
-7.607217e-02
-7.373589e-02
-7.142627e-02
-6.919170e-02
-6.703763e-02
-6.495184e-02
-6.292456e-02
-6.094245e-02
-5.896799e-02
-5.693749e-02
-5.479204e-02
-5.251679e-02
-5.015142e-02
-4.776340e-02
-4.541110e-02
-4.312460e-02
-4.090633e-02
-3.873952e-02
-3.659726e-02
-3.444751e-02
-3.225110e-02
-2.995878e-02
-2.752173e-02
-2.491812e-02
-2.217319e-02
-1.934721e-02
-1.649485e-02
-1.363128e-02
-1.073808e-02
-7.805684e-03
-4.873496e-03
-2.030917e-03
6.241889e-04
3.038586e-03
5.228441e-03
7.259528e-03
9.203328e-03
1.110366e-02
1.296948e-02
1.478443e-02
1.651783e-02
1.813153e-02
1.958261e-02
2.082178e-02
2.179069e-02
2.242459e-02
2.266115e-02
2.244690e-02
2.173879e-02
2.051198e-02
1.878138e-02
1.662107e-02
1.415813e-02
1.154256e-02
8.917643e-03
6.401440e-03
4.067567e-03
1.918197e-03
-1.327531e-04
-2.244470e-03
-4.603307e-03
-7.365983e-03
-1.061301e-02
-1.432912e-02
-1.841779e-02
-2.273628e-02
-2.712253e-02
-3.139923e-02
-3.537077e-02
-3.884112e-02
-4.165883e-02
-4.376501e-02
-4.520901e-02
-4.611423e-02
-4.660947e-02
-4.676937e-02
-4.660647e-02
-4.612132e-02
-4.537353e-02
-4.452152e-02
-4.379835e-02
-4.343207e-02
-4.355928e-02
-4.418814e-02
-4.523123e-02
-4.657593e-02
-4.813618e-02
-4.985367e-02
-5.166847e-02
-5.350576e-02
-5.530029e-02
-5.703301e-02
-5.873888e-02
-6.047588e-02
-6.228523e-02
-6.417478e-02
-6.612681e-02
-6.811278e-02
-7.010671e-02
-7.209903e-02
-7.410763e-02
-7.617632e-02
-7.836182e-02
-8.072579e-02
-8.334062e-02
-8.629740e-02
-8.969713e-02
-9.362012e-02
-9.808907e-02
-1.030488e-01
-1.083778e-01
-1.139296e-01
-1.195819e-01
-1.252562e-01
-1.308930e-01
-1.364098e-01
-1.416875e-01
-1.466032e-01
-1.510785e-01
-1.551005e-01
-1.587032e-01
-1.619287e-01
-1.648052e-01
-1.673522e-01
-1.695980e-01
-1.715778e-01
-1.733099e-01
-1.747750e-01
-1.759263e-01
-1.767243e-01
-1.771632e-01
-1.772597e-01
-1.770219e-01
-1.764332e-01
-1.754706e-01
-1.741300e-01
-1.724268e-01
-1.703709e-01
-1.679489e-01
-1.651390e-01
-1.619592e-01
-1.585038e-01
-1.549342e-01
-1.514283e-01
-1.481312e-01
-1.451416e-01
-1.425315e-01
-1.403672e-01
-1.387037e-01
-1.375565e-01
-1.368867e-01
-1.366263e-01
-1.367273e-01
-1.372001e-01
-1.381158e-01
-1.395760e-01
-1.416675e-01
-1.444269e-01
-1.478357e-01
-1.518430e-01
-1.564008e-01
-1.614845e-01
-1.670881e-01
-1.731951e-01
-1.797499e-01
-1.866612e-01
-1.938415e-01
-2.012528e-01
-2.089171e-01
-2.168717e-01
-2.251013e-01
-2.335068e-01
-2.419385e-01
-2.502632e-01
-2.583994e-01
-2.662904e-01
-2.738536e-01
-2.809694e-01
-2.875301e-01
-2.935052e-01
-2.989597e-01
-3.040102e-01
-3.087640e-01
-3.132951e-01
-3.176621e-01
-3.219296e-01
-3.261553e-01
-3.303482e-01
-3.344331e-01
-3.382542e-01
-3.416158e-01
-3.443312e-01
-3.462578e-01
-3.473150e-01
-3.474938e-01
-3.468581e-01
-3.455334e-01
-3.436791e-01
-3.414553e-01
-3.389958e-01
-3.363996e-01
-3.337364e-01
-3.310509e-01
-3.283636e-01
-3.256757e-01
-3.229821e-01
-3.202844e-01
-3.175977e-01
-3.149456e-01
-3.123532e-01
-3.098419e-01
-3.074307e-01
-3.051398e-01
-3.029946e-01
-3.010302e-01
-2.992966e-01
-2.978549e-01
-2.967663e-01
-2.960812e-01
-2.958407e-01
-2.960815e-01
-2.968297e-01
-2.980802e-01
-2.997721e-01
-3.017827e-01
-3.039487e-01
-3.061027e-01
-3.080986e-01
-3.098152e-01
-3.111558e-01
-3.120686e-01
-3.125796e-01
-3.128051e-01
-3.129192e-01
-3.130872e-01
-3.134041e-01
-3.138725e-01
-3.144233e-01
-3.149561e-01
-3.153761e-01
-3.156122e-01
-3.156191e-01
-3.153746e-01
-3.148834e-01
-3.141872e-01
-3.133709e-01
-3.125561e-01
-3.118752e-01
-3.114355e-01
-3.112913e-01
-3.114433e-01
-3.118638e-01
-3.125240e-01
-3.134044e-01
-3.144863e-01
-3.157386e-01
-3.171148e-01
-3.185608e-01
-3.200236e-01
-3.214483e-01
-3.227697e-01
-3.239126e-01
-3.248087e-01
-3.254209e-01
-3.257579e-01
-3.258731e-01
-3.258506e-01
-3.257866e-01
-3.257663e-01
-3.258422e-01
-3.260236e-01
-3.262840e-01
-3.265830e-01
-3.268882e-01
-3.271868e-01
-3.274873e-01
-3.278151e-01
-3.282059e-01
-3.286912e-01
-3.292800e-01
-3.299504e-01
-3.306592e-01
-3.313635e-01
-3.320346e-01
-3.326491e-01
-3.331658e-01
-3.335230e-01
-3.336709e-01
-3.336130e-01
-3.334163e-01
-3.331809e-01
-3.329973e-01
-3.329238e-01
-3.329898e-01
-3.332091e-01
-3.335817e-01
-3.340797e-01
-3.346334e-01
-3.351337e-01
-3.354505e-01
-3.354522e-01
-3.350189e-01
-3.340509e-01
-3.324827e-01
-3.303005e-01
-3.275478e-01
-3.243087e-01
-3.206741e-01
-3.167144e-01
-3.124779e-01
-3.080106e-01
-3.033752e-01
-2.986514e-01
-2.939176e-01
-2.892389e-01
-2.846702e-01
-2.802657e-01
-2.760780e-01
-2.721496e-01
-2.685074e-01
-2.651701e-01
-2.621568e-01
-2.594874e-01
-2.571751e-01
-2.552200e-01
-2.536128e-01
-2.523418e-01
-2.513901e-01
-2.507220e-01
-2.502751e-01
-2.499720e-01
-2.497461e-01
-2.495601e-01
-2.494043e-01
-2.492771e-01
-2.491678e-01
-2.490607e-01
-2.489586e-01
-2.489012e-01
-2.489533e-01
-2.491699e-01
-2.495684e-01
-2.501311e-01
-2.508256e-01
-2.516222e-01
-2.524948e-01
-2.534098e-01
-2.543134e-01
-2.551251e-01
-2.557394e-01
-2.560344e-01
-2.558869e-01
-2.551900e-01
-2.538648e-01
-2.518562e-01
-2.491166e-01
-2.455962e-01
-2.412467e-01
-2.360306e-01
-2.299214e-01
-2.228959e-01
-2.149332e-01
-2.060283e-01
-1.962109e-01
-1.855543e-01
-1.741648e-01
-1.621573e-01
-1.496400e-01
-1.367225e-01
-1.235378e-01
-1.102530e-01
-9.705444e-02
-8.411742e-02
-7.158862e-02
-5.959470e-02
-4.826655e-02
-3.775243e-02
-2.820438e-02
-1.975018e-02
-1.247973e-02
-6.459766e-03
-1.760302e-03
1.535829e-03
3.349513e-03
3.631653e-03
2.376365e-03
-3.900372e-04
-4.638360e-03
-1.036343e-02
-1.758522e-02
-2.631874e-02
-3.653068e-02
-4.810688e-02
-6.084574e-02
-7.447865e-02
-8.870105e-02
-1.031921e-01
-1.176161e-01
-1.316203e-01
-1.448474e-01
-1.569646e-01
-1.676850e-01
-1.767669e-01
-1.840031e-01
-1.892224e-01
-1.923055e-01
-1.931957e-01
-1.918914e-01
-1.884250e-01
-1.828430e-01
-1.751894e-01
-1.654964e-01
-1.537883e-01
-1.400965e-01
-1.244655e-01
-1.069410e-01
-8.755515e-02
-6.632853e-02
-4.329239e-02
-1.851626e-02
7.883479e-03
3.576049e-02
6.495586e-02
9.529314e-02
1.265588e-01
1.584892e-01
1.907782e-01
2.231051e-01
2.551696e-01
2.867199e-01
3.175655e-01
3.475729e-01
3.766559e-01
4.047611e-01
4.318430e-01
4.578309e-01
4.826030e-01
5.059798e-01
5.277415e-01
5.476553e-01
5.654944e-01
5.810395e-01
5.940725e-01
6.043827e-01
6.117862e-01
6.161496e-01
6.174025e-01
6.155404e-01
6.106222e-01
6.027669e-01
5.921534e-01
5.790245e-01
5.636951e-01
5.465576e-01
5.280597e-01
5.086520e-01
4.887378e-01
4.686550e-01
4.486958e-01
4.291404e-01
4.102792e-01
3.924128e-01
3.758415e-01
3.608609e-01
3.477763e-01
3.369247e-01
3.286798e-01
3.234187e-01
3.214614e-01
3.230126e-01
3.281394e-01
3.367928e-01
3.488547e-01
3.641797e-01
3.826223e-01
4.040496e-01
4.283466e-01
4.554184e-01
4.851939e-01
5.176279e-01
5.526960e-01
5.903764e-01
6.306212e-01
6.733344e-01
7.183724e-01
7.655622e-01
8.147237e-01
8.656787e-01
9.182380e-01
9.721726e-01
1.027192e+00
1.082957e+00
1.139109e+00
1.195310e+00
1.251255e+00
1.306675e+00
1.361334e+00
1.415021e+00
1.467526e+00
1.518613e+00
1.567994e+00
1.615303e+00
1.660090e+00
1.701848e+00
1.740059e+00
1.774253e+00
1.804065e+00
1.829258e+00
1.849702e+00
1.865356e+00
1.876242e+00
1.882445e+00
1.884093e+00
1.881322e+00
1.874256e+00
1.863001e+00
1.847664e+00
1.828357e+00
1.805208e+00
1.778348e+00
1.747936e+00
1.714194e+00
1.677441e+00
1.638106e+00
1.596757e+00
1.554129e+00
1.511112e+00
1.468665e+00
1.427707e+00
1.389044e+00
1.353329e+00
1.321044e+00
1.292516e+00
1.267981e+00
1.247657e+00
1.231767e+00
1.220512e+00
1.214034e+00
1.212407e+00
1.215641e+00
1.223707e+00
1.236546e+00
1.254065e+00
1.276124e+00
1.302543e+00
1.333116e+00
1.367633e+00
1.405888e+00
1.447668e+00
1.492749e+00
1.540890e+00
1.591847e+00
1.645370e+00
1.701206e+00
1.759123e+00
1.818927e+00
1.880454e+00
1.943542e+00
2.008017e+00
2.073696e+00
2.140398e+00
2.207933e+00
2.276084e+00
2.344595e+00
2.413150e+00
2.481320e+00
2.548519e+00
2.614039e+00
2.677121e+00
2.737014e+00
2.792951e+00
2.844087e+00
2.889517e+00
2.928414e+00
2.960201e+00
2.984635e+00
3.001777e+00
3.011911e+00
3.015421e+00
3.012673e+00
3.003936e+00
2.989402e+00
2.969282e+00
2.943865e+00
2.913513e+00
2.878613e+00
2.839540e+00
2.796661e+00
2.750355e+00
2.701053e+00
2.649268e+00
2.595594e+00
2.540688e+00
2.485230e+00
2.429900e+00
2.375349e+00
2.322180e+00
2.270932e+00
2.222077e+00
2.175977e+00
2.132850e+00
2.092786e+00
2.055801e+00
2.021855e+00
1.990756e+00
1.962029e+00
1.934943e+00
1.908688e+00
1.882560e+00
1.856051e+00
1.828841e+00
1.800772e+00
1.771841e+00
1.742225e+00
1.712228e+00
1.682188e+00
1.652419e+00
1.623174e+00
1.594611e+00
1.566756e+00
1.539476e+00
1.512448e+00
1.485213e+00
1.457289e+00
1.428272e+00
1.397860e+00
1.365851e+00
1.332125e+00
1.296610e+00
1.259238e+00
1.219950e+00
1.178727e+00
1.135599e+00
1.090603e+00
1.043758e+00
9.950595e-01
9.444743e-01
8.919583e-01
8.374734e-01
7.809980e-01
7.225263e-01
6.620704e-01
5.996819e-01
5.354839e-01
4.696826e-01
4.025515e-01
3.344087e-01
2.656018e-01
1.964972e-01
1.274704e-01
5.890573e-02
-8.793610e-03
-7.520923e-02
-1.399357e-01
-2.026053e-01
-2.628877e-01
-3.204805e-01
-3.751013e-01
-4.264887e-01
-4.744338e-01
-5.188252e-01
-5.596631e-01
-5.970352e-01
-6.310956e-01
-6.620460e-01
-6.901016e-01
-7.154574e-01
-7.382743e-01
-7.586580e-01
-7.766321e-01
-7.921440e-01
-8.051009e-01
-8.154008e-01
-8.229623e-01
-8.277592e-01
-8.298192e-01
-8.291831e-01
-8.258852e-01
-8.199803e-01
-8.115651e-01
-8.007571e-01
-7.876589e-01
-7.723516e-01
-7.549146e-01
-7.354435e-01
-7.140495e-01
-6.908504e-01
-6.659826e-01
-6.396447e-01
-6.121291e-01
-5.837900e-01
-5.549671e-01
-5.259276e-01
-4.968589e-01
-4.678911e-01
-4.391244e-01
-4.106537e-01
-3.825853e-01
-3.550382e-01
-3.281381e-01
-3.020177e-01
-2.768235e-01
-2.527186e-01
-2.298809e-01
-2.084981e-01
-1.887578e-01
-1.708343e-01
-1.548831e-01
-1.410422e-01
-1.294361e-01
-1.201785e-01
-1.133731e-01
-1.091093e-01
-1.074561e-01
-1.084585e-01
-1.121387e-01
-1.184993e-01
-1.275291e-01
-1.392088e-01
-1.535062e-01
-1.703634e-01
-1.896919e-01
-2.113774e-01
-2.352852e-01
-2.612672e-01
-2.891674e-01
-3.188203e-01
-3.500449e-01
-3.826427e-01
-4.164087e-01
-4.511560e-01
-4.867376e-01
-5.230452e-01
-5.599850e-01
-5.974535e-01
-6.353319e-01
-6.734947e-01
-7.118269e-01
-7.502342e-01
-7.886268e-01
-8.268892e-01
-8.648721e-01
-9.024028e-01
-9.392969e-01
-9.753705e-01
-1.010449e+00
-1.044360e+00
-1.076924e+00
-1.107950e+00
-1.137241e+00
-1.164569e+00
-1.189681e+00
-1.212318e+00
-1.232236e+00
-1.249202e+00
-1.263013e+00
-1.273494e+00
-1.280496e+00
-1.283900e+00
-1.283625e+00
-1.279610e+00
-1.271802e+00
-1.260169e+00
-1.244727e+00
-1.225561e+00
-1.202834e+00
-1.176777e+00
-1.147682e+00
-1.115869e+00
-1.081669e+00
-1.045412e+00
-1.007417e+00
-9.679778e-01
-9.273603e-01
-8.858103e-01
-8.435666e-01
-8.008609e-01
-7.578971e-01
-7.148466e-01
-6.718971e-01
-6.292630e-01
-5.871125e-01
-5.455511e-01
-5.046793e-01
-4.646189e-01
-4.255261e-01
-3.875991e-01
-3.510476e-01
-3.160713e-01
-2.828727e-01
-2.516683e-01
-2.226903e-01
-1.961860e-01
-1.723968e-01
-1.515193e-01
-1.336870e-01
-1.189824e-01
-1.074591e-01
-9.914883e-02
-9.405448e-02
-9.214337e-02
-9.335421e-02
-9.761283e-02
-1.048395e-01
-1.149417e-01
-1.278008e-01
-1.432690e-01
-1.611799e-01
-1.813599e-01
-2.036182e-01
-2.277270e-01
-2.534199e-01
-2.804176e-01
-3.084555e-01
-3.372907e-01
-3.666878e-01
-3.964057e-01
-4.261981e-01
-4.558180e-01
-4.850225e-01
-5.135892e-01
-5.413346e-01
-5.681142e-01
-5.938143e-01
-6.183517e-01
-6.416730e-01
-6.637537e-01
-6.846070e-01
-7.042860e-01
-7.228703e-01
-7.404587e-01
-7.571748e-01
-7.731689e-01
-7.886148e-01
-8.037188e-01
-8.187378e-01
-8.339707e-01
-8.497203e-01
-8.662350e-01
-8.836268e-01
-9.018295e-01
-9.206660e-01
-9.399517e-01
-9.595119e-01
-9.791461e-01
-9.986332e-01
-1.017775e+00
-1.036423e+00
-1.054478e+00
-1.071897e+00
-1.088672e+00
-1.104804e+00
-1.120265e+00
-1.135000e+00
-1.148941e+00
-1.162010e+00
-1.174111e+00
-1.185136e+00
-1.194989e+00
-1.203608e+00
-1.210971e+00
-1.217071e+00
-1.221910e+00
-1.225509e+00
-1.227934e+00
-1.229309e+00
-1.229795e+00
-1.229559e+00
-1.228775e+00
-1.227646e+00
-1.226419e+00
-1.225369e+00
-1.224775e+00
-1.224884e+00
-1.225875e+00
-1.227850e+00
-1.230846e+00
-1.234821e+00
-1.239630e+00
-1.245047e+00
-1.250826e+00
-1.256752e+00
-1.262646e+00
-1.268331e+00
-1.273616e+00
-1.278333e+00
-1.282383e+00
-1.285768e+00
-1.288549e+00
-1.290782e+00
-1.292481e+00
-1.293638e+00
-1.294252e+00
-1.294345e+00
-1.293950e+00
-1.293099e+00
-1.291818e+00
-1.290111e+00
-1.287968e+00
-1.285366e+00
-1.282294e+00
-1.278750e+00
-1.274741e+00
-1.270266e+00
-1.265332e+00
-1.259962e+00
-1.254188e+00
-1.248017e+00
-1.241420e+00
-1.234336e+00
-1.226686e+00
-1.218398e+00
-1.209440e+00
-1.199821e+00
-1.189597e+00
-1.178845e+00
-1.167661e+00
-1.156147e+00
-1.144425e+00
-1.132641e+00
-1.120968e+00
-1.109593e+00
-1.098715e+00
-1.088543e+00
-1.079294e+00
-1.071189e+00
-1.064446e+00
-1.059269e+00
-1.055837e+00
-1.054310e+00
-1.054819e+00
-1.057440e+00
-1.062176e+00
-1.068945e+00
-1.077573e+00
-1.087797e+00
-1.099272e+00
-1.111608e+00
-1.124398e+00
-1.137262e+00
-1.149886e+00
-1.162031e+00
-1.173522e+00
-1.184239e+00
-1.194115e+00
-1.203128e+00
-1.211289e+00
-1.218631e+00
-1.225193e+00
-1.231011e+00
-1.236128e+00
-1.240585e+00
-1.244418e+00
-1.247651e+00
