EVENT_NAME: EMILIA_2ND_SHOCK
EVENT_ID: IT-2012-0011
EVENT_DATE_YYYYMMDD: 20120529
EVENT_TIME_HHMMSS: 070002
EVENT_LATITUDE_DEGREE: 44.8417
EVENT_LONGITUDE_DEGREE: 11.0657
EVENT_DEPTH_KM: 8.1
HYPOCENTER_REFERENCE: INGV-CNT_Seismic_Bulletin
MAGNITUDE_W: 6.0
MAGNITUDE_W_REFERENCE: RCMT-INGV
MAGNITUDE_L: 5.8
MAGNITUDE_L_REFERENCE: INGV-CNT_Seismic_Bulletin
FOCAL_MECHANISM: TF
NETWORK: IT
STATION_CODE: CAS0
STATION_NAME: CASTELMASSA
STATION_LATITUDE_DEGREE: 45.025000
STATION_LONGITUDE_DEGREE: 11.311000
STATION_ELEVATION_M: 65
LOCATION: 
SENSOR_DEPTH_M: 0.0
VS30_M/S: 
SITE_CLASSIFICATION_EC8: C*
MORPHOLOGIC_CLASSIFICATION: 
EPICENTRAL_DISTANCE_KM: 28.1
EARTHQUAKE_BACKAZIMUTH_DEGREE: 223.6
DATE_TIME_FIRST_SAMPLE_YYYYMMDD_HHMMSS: 20120529_070003.000
DATE_TIME_FIRST_SAMPLE_PRECISION: seconds
SAMPLING_INTERVAL_S: 0.005000
NDATA: 29001
DURATION_S: 145.005
STREAM: HNN
UNITS: cm/s^2
INSTRUMENT: sensor = Episensor FBA ES-T [Kinemetrics] | digitizer = Etna [Kinemetrics]
INSTRUMENT_ANALOG/DIGITAL: D
INSTRUMENTAL_FREQUENCY_HZ: 
INSTRUMENTAL_DAMPING: 
FULL_SCALE_G: 
N_BIT_DIGITAL_CONVERTER: 18
PGA_CM/S^2: -42.012321
TIME_PGA_S: 16.220000
BASELINE_CORRECTION: BASELINE REMOVED
FILTER_TYPE: BUTTERWORTH
FILTER_ORDER: 2
LOW_CUT_FREQUENCY_HZ: 0.060
HIGH_CUT_FREQUENCY_HZ: 35.000
LATE/NORMAL_TRIGGERED: NT
DATABASE_VERSION: DYNA 1.0
HEADER_FORMAT: DYNA 1.2
DATA_TYPE: ACCELERATION
PROCESSING: manual (Paolucci et al., 2011)
DATA_TIMESTAMP_YYYYMMDD_HHMMSS: 
DATA_LICENSE: CC-BY3_0-IT (http://creativecommons.org/licenses/by/3.0/deed.en)
DATA_CITATION: ESM working group (2015), European Strong-Motion database, version 0.1, Network Activity 3: Networking acceleration networks and SM data users. Project NERA (www.nera-eu.org)
DATA_CREATOR: ESM working group
ORIGINAL_DATA_MEDIATOR_CITATION: Ufficio Rischio Sismico e Vulcanico del Dipartimento della Protezione Civile (http://www.protezionecivile.gov.it/)
ORIGINAL_DATA_MEDIATOR: Rete Accelerometrica Nazionale - RAN Download (http://www.mot1.it/randownload/)
ORIGINAL_DATA_CREATOR_CITATION: Italian Strong Motion Network, Italian Civil Protection Department http://www.protezionecivile.gov.it
ORIGINAL_DATA_CREATOR: network: IT (Italian Strong Motion Network); owner: Dipartimento Della Protezione Civile
USER1: 
USER2: 
USER3: 
USER4: 
USER5: 
[...]
-0.634164
-0.494248
-0.262222
0.052611
0.422970
0.832938
1.273727
1.697493
2.041330
2.300601
2.531017
2.788131
3.095293
3.446471
3.791892
4.018304
3.993548
3.683300
3.202223
2.694264
2.214406
1.784603
1.462697
1.281230
1.192961
1.115088
0.997736
0.857874
0.765561
0.776598
0.848156
0.832276
0.592571
0.146347
-0.329106
-0.671575
-0.899941
-1.163479
-1.570934
-2.103116
-2.622956
-2.957692
-3.041613
-2.970868
-2.884609
-2.836461
-2.790849
-2.689726
-2.515375
-2.315043
-2.171697
-2.147378
-2.237617
-2.351572
-2.356292
-2.199297
-1.969759
-1.798400
-1.734674
-1.717608
-1.619747
-1.360628
-1.001484
-0.680434
-0.471728
-0.346862
-0.231649
-0.062937
0.184657
0.489776
0.788225
0.996224
1.062001
1.007344
0.907421
0.851986
0.916055
1.099961
1.307695
1.431669
1.436944
1.351943
1.211156
1.031996
0.848577
0.739430
0.781794
0.965417
1.178234
1.301470
1.306179
1.252839
1.209647
1.173708
1.106833
1.059977
1.164448
1.446805
1.739174
1.821671
1.606423
1.177489
0.700769
0.308634
0.046634
-0.101684
-0.162386
-0.135898
0.007886
0.312002
0.801032
1.429217
2.051436
2.498779
2.717492
2.811006
2.926228
3.106448
3.253608
3.229335
2.999199
2.665739
2.349780
2.067868
1.747075
1.342743
0.932491
0.693385
0.760508
1.103058
1.555901
1.948794
2.195769
2.298388
2.282098
2.149342
1.921797
1.684501
1.524479
1.441388
1.359158
1.211649
0.988890
0.704216
0.337360
-0.145145
-0.680848
-1.070237
-1.112180
-0.782704
-0.236616
0.363776
0.957739
1.531637
2.039827
2.408276
2.591469
2.607435
2.517021
2.393107
2.307171
2.300712
2.356289
2.412400
2.412014
2.347188
2.261481
2.189971
2.102306
1.954587
1.788566
1.703131
1.736595
1.834692
1.910787
1.906077
1.797430
1.562842
1.196589
0.778718
0.449967
0.277783
0.196102
0.097201
-0.044614
-0.147302
-0.116154
0.027024
0.140222
0.112363
-0.037787
-0.228928
-0.401004
-0.519217
-0.575981
-0.616424
-0.708259
-0.859591
-1.011775
-1.137330
-1.303902
-1.607228
-2.044471
-2.470964
-2.689667
-2.591528
-2.220292
-1.683466
-1.018228
-0.207727
0.700544
1.550329
2.129037
2.276137
1.986706
1.421242
0.832972
0.477014
0.512720
0.938651
1.623031
2.395565
3.131394
3.789593
4.352806
4.728129
4.785057
4.501250
4.022107
3.588973
3.386748
3.382930
3.335359
3.021847
2.427381
1.679002
0.872873
0.018395
-0.884931
-1.759628
-2.452095
-2.838215
-2.919008
-2.790469
-2.565503
-2.355248
-2.261722
-2.356553
-2.684523
-3.239234
-3.899706
-4.465414
-4.788856
-4.832975
-4.642530
-4.330058
-4.044421
-3.871406
-3.773281
-3.669497
-3.555132
-3.505852
-3.566583
-3.652750
-3.612661
-3.395459
-3.082466
-2.767056
-2.506614
-2.355515
-2.345177
-2.460225
-2.657732
-2.864953
-2.982803
-2.944309
-2.753635
-2.453905
-2.074669
-1.608563
-1.033430
-0.348221
0.410739
1.146700
1.717066
2.043538
2.170193
2.158959
1.991761
1.616658
1.058295
0.470935
0.063906
-0.048317
0.086334
0.324740
0.533317
0.654361
0.721714
0.798444
0.885941
0.935332
0.908490
0.763879
0.449470
-0.061787
-0.786855
-1.737468
-2.855964
-3.995524
-4.989843
-5.723701
-6.150610
-6.271720
-6.111248
-5.714364
-5.150156
-4.496911
-3.831504
-3.233166
-2.766813
-2.435603
-2.155995
-1.818711
-1.411003
-1.051689
-0.853529
-0.772275
-0.639144
-0.333829
0.096106
0.483851
0.702075
0.762364
0.764794
0.787717
0.836832
0.868473
0.844603
0.776673
0.736888
0.837366
1.167900
1.701341
2.258339
2.613951
2.657240
2.435718
2.072598
1.682118
1.350272
1.146248
1.120510
1.287689
1.616153
2.045292
2.521528
3.003749
3.428001
3.692093
3.699283
3.435248
3.011412
2.616918
2.409223
2.438672
2.652689
2.945977
3.205250
3.332242
3.265540
2.999616
2.568568
2.018180
1.422052
0.907660
0.619119
0.641408
0.970411
1.539342
2.239309
2.919390
3.418583
3.633950
3.555707
3.243654
2.791889
2.314995
1.944238
1.795030
1.894802
2.132556
2.297493
2.203152
1.803615
1.184504
0.446501
-0.354792
-1.136522
-1.717303
-1.890249
-1.579965
-0.910267
-0.124414
0.549370
0.975751
1.109127
0.963742
0.597607
0.097610
-0.446169
-0.968076
-1.442135
-1.847155
-2.103105
-2.097938
-1.809043
-1.379291
-1.061651
-1.057922
-1.393008
-1.946895
-2.564850
-3.109613
-3.455639
-3.509263
-3.274430
-2.872710
-2.461363
-2.136848
-1.932950
-1.881998
-2.020674
-2.326667
-2.675833
-2.889745
-2.858473
-2.613121
-2.269256
-1.930408
-1.655854
-1.493764
-1.508054
-1.741580
-2.148427
-2.577593
-2.841977
-2.818451
-2.503520
-2.006258
-1.498995
-1.158295
-1.120531
-1.432686
-1.999059
-2.598163
-2.987800
-3.005607
-2.610029
-1.864250
-0.869275
0.274350
1.425166
2.389114
2.992445
3.140133
2.824175
2.128731
1.222707
0.305895
-0.476417
-1.097396
-1.637011
-2.195416
-2.806054
-3.416766
-3.933233
-4.280695
-4.442519
-4.439798
-4.264839
-3.854802
-3.163044
-2.253193
-1.297870
-0.490019
0.025898
0.166542
-0.086337
-0.682394
-1.511009
-2.393207
-3.088237
-3.384957
-3.222628
-2.730060
-2.154913
-1.719034
-1.497748
-1.423191
-1.388667
-1.339439
-1.267250
-1.133661
-0.838099
-0.303474
0.408009
1.110640
1.654558
2.040746
2.345532
2.578505
2.695825
2.725441
2.798491
3.061176
3.572559
4.271072
5.034670
5.766808
6.433895
7.038491
7.547552
7.863898
7.914232
7.762076
7.580553
7.500375
7.525641
7.576372
7.567564
7.481428
7.361716
7.220327
7.015182
6.726899
6.411581
6.201537
6.235540
6.529504
6.966176
7.454298
8.021555
8.716891
9.481696
10.149083
10.550965
10.614373
10.350848
9.773882
8.887503
7.761434
6.574564
5.582436
5.009543
4.914817
5.174896
5.597706
6.009884
6.268184
6.275265
6.027213
5.624649
5.195758
4.796011
4.397287
3.969764
3.536604
3.123063
2.681503
2.123546
1.418950
0.602508
-0.296717
-1.271998
-2.304747
-3.327092
-4.187079
-4.710676
-4.881873
-4.897692
-4.979810
-5.197075
-5.497860
-5.848458
-6.303047
-6.950275
-7.806748
-8.784138
-9.772734
-10.699863
-11.469977
-11.952209
-12.093986
-11.952612
-11.567735
-10.888451
-9.863579
-8.518168
-6.915126
-5.139139
-3.316273
-1.566099
0.025910
1.362011
2.360866
3.066835
3.646385
4.249653
4.915184
5.597328
6.254837
6.911270
7.623953
8.419151
9.285160
10.179410
11.034771
11.820973
12.573325
13.307918
13.937007
14.299716
14.266660
13.818306
13.057196
12.157112
11.288063
10.571464
10.053715
9.701086
9.463322
9.318814
9.211987
9.034078
8.733788
8.372441
8.048065
7.822392
7.686102
7.529592
7.179261
6.501091
5.460163
4.097430
2.490420
0.749290
-0.969645
-2.470603
-3.554424
-4.078098
-4.021702
-3.542137
-2.975195
-2.718728
-3.031613
-3.932774
-5.298021
-7.023308
-9.086401
-11.496403
-14.203231
-17.022799
-19.651682
-21.810972
-23.409126
-24.558050
-25.440350
-26.151258
-26.604326
-26.580057
-25.920717
-24.681515
-23.080664
-21.339540
-19.575497
-17.816893
-16.125439
-14.683309
-13.694889
-13.198905
-13.019550
-12.887127
-12.575849
-11.968775
-11.058482
-9.906070
-8.595633
-7.214520
-5.861630
-4.664146
-3.755908
-3.215760
-3.020429
-3.043339
-3.085214
-2.917201
-2.353055
-1.323501
0.108227
1.778401
3.460585
4.894730
5.850554
6.246884
6.222272
6.060915
6.027435
6.258429
6.782153
7.574475
8.562033
9.604941
10.505769
11.069417
11.222585
11.087176
10.893149
10.829037
10.979511
11.339287
11.848576
12.423763
12.962102
13.334804
13.394716
12.978755
11.924902
10.181687
7.885798
5.252708
2.482748
-0.173447
-2.393569
-3.906035
-4.637605
-4.776160
-4.682704
-4.681358
-4.903555
-5.324885
-5.896699
-6.584793
-7.291229
-7.800613
-7.884349
-7.501061
-6.868988
-6.332797
-6.187511
-6.565385
-7.369076
-8.312214
-9.076855
-9.460580
-9.447985
-9.198860
-8.948491
-8.878881
-9.061451
-9.497706
-10.161474
-10.953185
-11.622328
-11.808067
-11.215064
-9.771745
-7.682146
-5.391996
-3.470979
-2.405403
-2.405243
-3.390207
-5.139489
-7.406896
-9.896696
-12.203726
-13.872600
-14.592307
-14.377597
-13.575218
-12.672902
-12.034797
-11.742218
-11.621524
-11.375269
-10.730697
-9.586410
-8.083104
-6.517592
-5.149920
-4.071224
-3.267807
-2.795575
-2.828844
-3.506458
-4.723762
-6.073013
-7.032474
-7.286530
-6.916551
-6.307240
-5.864935
-5.782425
-5.991879
-6.301037
-6.592625
-6.895588
-7.275893
-7.706337
-8.059885
-8.223869
-8.228715
-8.267059
-8.573722
-9.259982
-10.222557
-11.162802
-11.684515
-11.442153
-10.285073
-8.314614
-5.815964
-3.123923
-0.531736
1.707919
3.342434
4.153025
4.088921
3.372926
2.465470
1.895846
2.054177
3.061450
4.772432
6.887579
9.104742
11.220887
13.146201
14.873265
16.432098
17.844254
19.114613
20.257845
21.314497
22.315268
23.191359
23.724932
23.638857
22.791069
21.336876
19.719299
18.438805
17.770140
17.678951
17.950850
18.364466
18.801268
19.239033
19.632124
19.809458
19.520466
18.605490
17.148808
15.454640
13.831024
12.375156
10.954281
9.363118
7.495466
5.442469
3.465092
1.796392
0.461407
-0.664752
-1.703063
-2.731179
-3.791507
-4.893933
-6.060851
-7.318319
-8.561120
-9.468519
-9.629162
-8.766991
-6.901808
-4.342477
-1.474292
1.470152
4.413368
7.264173
9.824835
11.868627
13.283856
14.138962
14.565652
14.577468
14.087842
13.077893
11.649197
9.962429
8.160003
6.246121
4.046749
1.401401
-1.611900
-4.708784
-7.636354
-10.347977
-12.970226
-15.626463
-18.278234
-20.694086
-22.533724
-23.487968
-23.441711
-22.554848
-21.148611
-19.531502
-17.944178
-16.540333
-15.306350
-14.040530
-12.456800
-10.287194
-7.352085
-3.651475
0.604018
5.103119
9.583145
13.835111
17.573042
20.419884
22.100012
22.596155
22.132959
21.113892
20.064186
19.491421
19.688339
20.632450
22.049215
23.575171
24.928900
26.006849
26.861944
27.620003
28.412300
29.351414
30.537680
32.008865
33.642147
35.165173
36.287823
36.822289
36.696419
35.896793
34.443115
32.409252
29.983147
27.518442
25.452196
24.071699
23.329098
22.910917
22.492130
21.928913
21.266979
20.639603
20.188852
20.033672
20.220106
20.661776
21.161718
21.511896
21.557365
21.190239
20.331213
18.937683
17.038683
14.774278
12.416624
10.340379
8.906643
8.341497
8.728447
10.029145
12.041030
14.434704
16.895967
19.170280
21.034801
22.355612
23.112417
23.278847
22.712664
21.184381
18.504242
14.660957
9.871211
4.490499
-1.105504
-6.564151
-11.583236
-15.948180
-19.504011
-22.130421
-23.812143
-24.684500
-24.972219
-24.897203
-24.607634
-24.139954
-23.458694
-22.588661
-21.692820
-20.979824
-20.554834
-20.380819
-20.367527
-20.461742
-20.670649
-21.031361
-21.537500
-22.088255
-22.520309
-22.705755
-22.610788
-22.258484
-21.706205
-21.054003
-20.404821
-19.870150
-19.645376
-19.979397
-21.043955
-22.857513
-25.268103
-27.956730
-30.498789
-32.488365
-33.643253
-33.821747
-33.000072
-31.279797
-28.882217
-26.111128
-23.345737
-20.989744
-19.314318
-18.363483
-17.999338
-17.981600
-18.079344
-18.201412
-18.423965
-18.930365
-19.925877
-21.496405
-23.451227
-25.231882
-25.986635
-24.946924
-21.925449
-17.409384
-12.107872
-6.467479
-0.604023
5.409160
11.226947
16.235437
19.915951
22.190619
23.405964
24.035160
24.397617
24.549906
24.329264
23.480289
21.803680
19.295031
16.230782
13.137746
10.621765
9.140282
8.838699
9.499491
10.647955
11.770483
12.454242
12.394603
11.401525
9.444732
6.689696
3.489594
0.255813
-2.725822
-5.319014
-7.455489
-9.098213
-10.215449
-10.798963
-10.899711
-10.549855
-9.698057
-8.299043
-6.401841
-4.136769
-1.724783
0.476103
2.020547
2.527566
1.851141
0.186353
-2.006069
-4.183467
-5.820197
-6.473240
-5.905175
-4.181822
-1.695081
0.906960
2.960757
4.078040
4.188581
3.384297
1.822144
-0.305655
-2.789980
-5.402012
-7.911388
-10.162151
-12.128616
-13.874287
-15.496182
-17.115021
-18.850180
-20.772442
-22.865053
-24.994156
-26.948914
-28.563026
-29.771658
-30.601276
-31.216917
-31.887901
-32.764523
-33.726696
-34.468533
-34.659260
-34.083817
-32.765118
-30.929901
-28.808578
-26.546818
-24.298332
-22.277954
-20.724756
-19.825451
-19.548498
-19.534731
-19.267593
-18.340132
-16.524082
-13.745342
-10.169128
-6.249957
-2.568511
0.382297
2.294811
3.069874
2.811231
1.772618
0.240401
-1.541476
-3.315790
-4.783965
-5.713075
-6.017723
-5.701027
-4.784277
-3.306841
-1.279217
1.357270
4.620134
8.378420
12.374497
16.263254
19.621655
21.972525
22.880974
22.128847
19.838615
16.453863
12.622950
9.048600
6.341526
4.943226
5.111545
6.879487
10.001567
13.977752
18.206730
22.213530
25.754589
28.715631
30.965319
32.295422
32.493023
31.536037
29.696697
27.403641
25.014517
22.725426
20.664045
19.005726
17.961601
17.630028
17.895807
18.522894
19.309818
20.175907
21.155550
22.312756
23.647314
25.084051
26.542244
27.952623
29.211033
30.172253
30.669416
30.569912
29.859505
28.616468
26.933422
24.905245
22.607412
20.074081
17.330387
14.422012
11.395960
8.300389
5.228341
2.289984
-0.422951
-2.791164
-4.680014
-6.037813
-6.942703
-7.568734
-8.139325
-8.899739
-10.082671
-11.807782
-14.019482
-16.594351
-19.489773
-22.728588
-26.205807
-29.651947
-32.858181
-35.752151
-38.254429
-40.210503
-41.473873
-42.012321
-41.873405
-41.066547
-39.534630
-37.240086
-34.313320
-31.021845
-27.579006
-24.180033
-21.169725
-19.001503
-18.007938
-18.267162
-19.695095
-22.110600
-25.175032
-28.417648
-31.390915
-33.786694
-35.404743
-36.085381
-35.711552
-34.188541
-31.424719
-27.434402
-22.468578
-16.970917
-11.352522
-5.862518
-0.703291
3.818560
7.302671
9.418949
10.110075
9.649395
8.473829
7.008510
5.625682
4.630679
4.271527
4.763157
6.262168
8.801248
12.224792
16.214636
20.383610
24.362099
27.873623
30.775917
33.004227
34.469273
35.093864
34.902451
34.021553
32.635899
30.880480
28.770527
26.255310
23.319862
20.095776
16.880739
14.013053
11.705926
9.993424
8.821838
8.123953
7.793186
7.687227
7.745918
8.038713
8.607599
9.342582
10.051951
10.579659
10.803377
10.539739
9.570109
7.794652
5.296479
2.273296
-1.056498
-4.462644
-7.650609
-10.290392
-12.135629
-13.140228
-13.470701
-13.366559
-13.006149
-12.506015
-11.910507
-11.154864
-10.156656
-8.916046
-7.486579
-5.931718
-4.365953
-3.018324
-2.212715
-2.292956
-3.513187
-5.886316
-9.136658
-12.811015
-16.396511
-19.367542
-21.289867
-21.980577
-21.500498
-20.061689
-18.057928
-16.058668
-14.591546
-13.854380
-13.642206
-13.565245
-13.354671
-13.017390
-12.724385
-12.599187
-12.685163
-13.049795
-13.788329
-14.987604
-16.766809
-19.178022
-22.022120
-24.887535
-27.322195
-28.996544
-29.837341
-30.002386
-29.681772
-28.965036
-27.880301
-26.343857
-24.062153
-20.739906
-16.426062
-11.582561
-6.831632
-2.688715
0.499644
2.487396
3.092399
2.324530
0.530932
-1.667132
-3.565464
-4.529500
-4.105663
-2.161006
1.067710
5.114446
9.461432
13.637917
17.281723
20.205191
22.412493
24.070623
25.448980
26.745234
27.961199
28.974115
29.626005
29.788841
29.391773
28.350595
26.549147
23.980490
20.886618
17.648552
14.537800
11.643927
8.982842
6.626505
4.717249
3.343422
2.427062
1.758545
1.149234
0.481275
-0.381052
-1.566372
-3.085142
-4.858433
-6.831135
-9.007613
-11.392012
-13.904655
-16.379717
-18.638395
-20.531473
-21.918465
-22.643595
-22.605448
-21.823751
-20.373831
-18.322498
-15.723040
-12.627455
-9.126436
-5.362223
-1.509532
2.263314
5.837007
9.126275
12.078373
14.660747
16.766680
18.252752
19.083771
19.341486
19.125568
18.458624
17.354448
15.946461
14.449289
13.119526
12.238535
12.026617
12.553800
13.668119
15.051408
16.360701
17.287880
17.578098
17.045521
15.578544
13.166795
9.925955
6.090483
2.009364
-1.887955
-5.198155
-7.660160
-9.189401
-9.832678
-9.747061
-9.137283
-8.156828
-6.917433
-5.529953
-4.108143
-2.709619
-1.275460
0.312394
2.111243
4.034512
5.932483
7.693932
9.138107
9.964503
9.937383
9.037034
7.419783
5.326864
3.060368
0.951897
-0.704880
-1.670028
-1.740031
-0.814854
1.029672
3.578312
6.522470
9.510557
12.250823
14.563203
16.355490
17.628519
18.418550
18.655275
18.227032
17.156376
15.552930
13.489631
11.036929
8.354099
5.657753
3.060932
0.511755
-2.029571
-4.411974
-6.365092
-7.739665
-8.582134
-8.973797
-8.912917
-8.377333
-7.477145
-6.476420
-5.630058
-5.039498
-4.677872
-4.550947
-4.749867
-5.316680
-6.166085
-7.150672
-8.112869
-8.841126
-9.086682
-8.713590
-7.784927
-6.510671
-5.140140
-3.880349
-2.899708
-2.352869
-2.335993
-2.820669
-3.691267
-4.843543
-6.174339
-7.485974
-8.500717
-9.028547
-9.098496
-8.921655
-8.759149
-8.837710
-9.319112
-10.245695
-11.545989
-13.111338
-14.820701
-16.504889
-17.926062
-18.856915
-19.180914
-18.930304
-18.295048
-17.581997
-17.104570
-17.027811
-17.321688
-17.861673
-18.506563
-19.111706
-19.492828
-19.395660
-18.545115
-16.751354
-14.031596
-10.642576
-6.957176
-3.301714
0.119123
3.233857
6.090163
8.778431
11.341049
13.761173
15.992070
17.948311
19.485525
20.413483
20.506708
19.522375
17.333767
14.093157
10.225084
6.245558
2.533136
-0.684010
-3.152551
-4.580378
-4.765142
-3.693500
-1.526691
1.452310
4.816160
8.089016
10.936575
13.222153
14.887627
15.794453
15.764156
14.734364
12.791451
10.084238
6.767195
3.037755
-0.839376
-4.571963
-7.888572
-10.580886
-12.559945
-13.859115
-14.566390
-14.777694
-14.594285
-14.176236
-13.747302
-13.486198
-13.485016
-13.826293
-14.620116
-15.874837
-17.394596
-18.895241
-20.075354
-20.567802
-20.010574
-18.222157
-15.284544
-11.434688
-6.908149
-1.894963
3.400139
8.660208
13.486067
17.555695
20.705460
22.912830
24.249189
24.830441
24.796404
24.312717
23.543356
22.581434
21.505234
20.526428
19.921938
19.817934
20.139351
20.735147
21.501467
22.410946
23.442947
24.486244
25.368765
25.969341
26.220894
26.052645
25.411921
24.358974
23.059210
21.642082
20.141075
18.528481
16.772726
14.878448
12.867618
10.778480
8.673083
6.619600
4.658939
2.794252
1.037855
-0.573281
-1.981796
-3.129526
-4.030372
-4.791227
-5.557647
-6.437683
-7.457893
-8.590147
-9.791791
-11.004534
-12.161436
-13.255021
-14.355996
-15.526244
-16.727076
-17.811632
-18.629490
-19.095657
-19.151825
-18.765791
-17.991924
-16.969507
-15.829909
-14.640017
-13.404198
-12.077156
-10.645799
-9.215433
-7.952454
-6.912356
-5.978832
-4.999339
-3.915118
-2.760906
-1.601705
-0.510874
0.417815
1.107010
1.550735
1.819806
2.027517
2.292098
2.718729
3.360556
4.137323
4.824683
5.172904
5.034590
4.385764
3.289388
1.884047
0.378457
-0.973888
-1.932873
-2.337261
-2.138197
-1.388392
-0.200228
1.258357
2.762766
4.076184
5.019190
5.532617
5.655867
5.437017
4.855571
3.865104
2.517599
0.929692
-0.855140
-2.867288
-5.076565
-7.350590
-9.586837
-11.751308
-13.751326
