EVENT_NAME: EMILIA_2ND_SHOCK
EVENT_ID: IT-2012-0011
EVENT_DATE_YYYYMMDD: 20120529
EVENT_TIME_HHMMSS: 070002
EVENT_LATITUDE_DEGREE: 44.8417
EVENT_LONGITUDE_DEGREE: 11.0657
EVENT_DEPTH_KM: 8.1
HYPOCENTER_REFERENCE: INGV-CNT_Seismic_Bulletin
MAGNITUDE_W: 6.0
MAGNITUDE_W_REFERENCE: RCMT-INGV
MAGNITUDE_L: 5.8
MAGNITUDE_L_REFERENCE: INGV-CNT_Seismic_Bulletin
FOCAL_MECHANISM: TF
NETWORK: IT
STATION_CODE: CAS0
STATION_NAME: CASTELMASSA
STATION_LATITUDE_DEGREE: 45.025000
STATION_LONGITUDE_DEGREE: 11.311000
STATION_ELEVATION_M: 65
LOCATION: 
SENSOR_DEPTH_M: 0.0
VS30_M/S: 
SITE_CLASSIFICATION_EC8: C*
MORPHOLOGIC_CLASSIFICATION: 
EPICENTRAL_DISTANCE_KM: 28.1
EARTHQUAKE_BACKAZIMUTH_DEGREE: 223.6
DATE_TIME_FIRST_SAMPLE_YYYYMMDD_HHMMSS: 20120529_070003.000
DATE_TIME_FIRST_SAMPLE_PRECISION: seconds
SAMPLING_INTERVAL_S: 0.005000
NDATA: 29001
DURATION_S: 145.005
STREAM: HNN
UNITS: cm
INSTRUMENT: sensor = Episensor FBA ES-T [Kinemetrics] | digitizer = Etna [Kinemetrics]
INSTRUMENT_ANALOG/DIGITAL: D
INSTRUMENTAL_FREQUENCY_HZ: 
INSTRUMENTAL_DAMPING: 
FULL_SCALE_G: 
N_BIT_DIGITAL_CONVERTER: 18
PGD_CM: -3.726028
TIME_PGD_S: 24.830000
BASELINE_CORRECTION: BASELINE REMOVED
FILTER_TYPE: BUTTERWORTH
FILTER_ORDER: 2
LOW_CUT_FREQUENCY_HZ: 0.060
HIGH_CUT_FREQUENCY_HZ: 35.000
LATE/NORMAL_TRIGGERED: NT
DATABASE_VERSION: DYNA 1.0
HEADER_FORMAT: DYNA 1.2
DATA_TYPE: DISPLACEMENT
PROCESSING: manual (Paolucci et al., 2011)
DATA_TIMESTAMP_YYYYMMDD_HHMMSS: 
DATA_LICENSE: CC-BY3_0-IT (http://creativecommons.org/licenses/by/3.0/deed.en)
DATA_CITATION: ESM working group (2015), European Strong-Motion database, version 0.1, Network Activity 3: Networking acceleration networks and SM data users. Project NERA (www.nera-eu.org)
DATA_CREATOR: ESM working group
ORIGINAL_DATA_MEDIATOR_CITATION: Ufficio Rischio Sismico e Vulcanico del Dipartimento della Protezione Civile (http://www.protezionecivile.gov.it/)
ORIGINAL_DATA_MEDIATOR: Rete Accelerometrica Nazionale - RAN Download (http://www.mot1.it/randownload/)
ORIGINAL_DATA_CREATOR_CITATION: Italian Strong Motion Network, Italian Civil Protection Department http://www.protezionecivile.gov.it
ORIGINAL_DATA_CREATOR: network: IT (Italian Strong Motion Network); owner: Dipartimento Della Protezione Civile
USER1: 
USER2: 
USER3: 
USER4: 
USER5: 
[...]
1.459489e+00
1.471860e+00
1.483857e+00
1.495484e+00
1.506743e+00
1.517632e+00
1.528142e+00
1.538254e+00
1.547943e+00
1.557180e+00
1.565935e+00
1.574182e+00
1.581898e+00
1.589066e+00
1.595669e+00
1.601694e+00
1.607126e+00
1.611955e+00
1.616172e+00
1.619775e+00
1.622766e+00
1.625153e+00
1.626953e+00
1.628192e+00
1.628906e+00
1.629132e+00
1.628915e+00
1.628298e+00
1.627324e+00
1.626032e+00
1.624460e+00
1.622641e+00
1.620610e+00
1.618396e+00
1.616034e+00
1.613558e+00
1.611007e+00
1.608420e+00
1.605838e+00
1.603303e+00
1.600867e+00
1.598581e+00
1.596504e+00
1.594692e+00
1.593207e+00
1.592110e+00
1.591459e+00
1.591304e+00
1.591683e+00
1.592622e+00
1.594134e+00
1.596221e+00
1.598871e+00
1.602064e+00
1.605774e+00
1.609972e+00
1.614627e+00
1.619705e+00
1.625165e+00
1.630963e+00
1.637052e+00
1.643387e+00
1.649923e+00
1.656621e+00
1.663453e+00
1.670400e+00
1.677458e+00
1.684631e+00
1.691933e+00
1.699384e+00
1.707002e+00
1.714803e+00
1.722794e+00
1.730976e+00
1.739348e+00
1.747904e+00
1.756639e+00
1.765549e+00
1.774629e+00
1.783870e+00
1.793263e+00
1.802796e+00
1.812453e+00
1.822216e+00
1.832066e+00
1.841989e+00
1.851975e+00
1.862031e+00
1.872176e+00
1.882445e+00
1.892881e+00
1.903530e+00
1.914433e+00
1.925622e+00
1.937116e+00
1.948917e+00
1.961012e+00
1.973372e+00
1.985960e+00
1.998736e+00
2.011665e+00
2.024720e+00
2.037881e+00
2.051135e+00
2.064478e+00
2.077905e+00
2.091407e+00
2.104969e+00
2.118565e+00
2.132161e+00
2.145708e+00
2.159153e+00
2.172443e+00
2.185527e+00
2.198363e+00
2.210911e+00
2.223135e+00
2.235010e+00
2.246510e+00
2.257617e+00
2.268309e+00
2.278565e+00
2.288366e+00
2.297696e+00
2.306540e+00
2.314888e+00
2.322729e+00
2.330058e+00
2.336873e+00
2.343170e+00
2.348938e+00
2.354162e+00
2.358819e+00
2.362881e+00
2.366319e+00
2.369104e+00
2.371215e+00
2.372636e+00
2.373360e+00
2.373389e+00
2.372729e+00
2.371396e+00
2.369400e+00
2.366751e+00
2.363454e+00
2.359511e+00
2.354926e+00
2.349702e+00
2.343853e+00
2.337396e+00
2.330359e+00
2.322769e+00
2.314654e+00
2.306031e+00
2.296917e+00
2.287319e+00
2.277237e+00
2.266666e+00
2.255590e+00
2.243996e+00
2.231873e+00
2.219215e+00
2.206022e+00
2.192302e+00
2.178069e+00
2.163343e+00
2.148146e+00
2.132499e+00
2.116422e+00
2.099935e+00
2.083056e+00
2.065801e+00
2.048187e+00
2.030229e+00
2.011943e+00
1.993341e+00
1.974433e+00
1.955229e+00
1.935738e+00
1.915971e+00
1.895944e+00
1.875682e+00
1.855220e+00
1.834605e+00
1.813887e+00
1.793121e+00
1.772360e+00
1.751657e+00
1.731063e+00
1.710622e+00
1.690373e+00
1.670347e+00
1.650573e+00
1.631076e+00
1.611875e+00
1.592987e+00
1.574432e+00
1.556226e+00
1.538390e+00
1.520943e+00
1.503902e+00
1.487284e+00
1.471107e+00
1.455387e+00
1.440139e+00
1.425380e+00
1.411124e+00
1.397387e+00
1.384187e+00
1.371545e+00
1.359482e+00
1.348023e+00
1.337194e+00
1.327019e+00
1.317516e+00
1.308703e+00
1.300591e+00
1.293185e+00
1.286485e+00
1.280481e+00
1.275157e+00
1.270488e+00
1.266437e+00
1.262956e+00
1.259984e+00
1.257452e+00
1.255281e+00
1.253391e+00
1.251709e+00
1.250170e+00
1.248725e+00
1.247341e+00
1.246003e+00
1.244711e+00
1.243477e+00
1.242319e+00
1.241263e+00
1.240331e+00
1.239539e+00
1.238892e+00
1.238386e+00
1.238007e+00
1.237737e+00
1.237555e+00
1.237437e+00
1.237366e+00
1.237320e+00
1.237282e+00
1.237232e+00
1.237153e+00
1.237033e+00
1.236861e+00
1.236632e+00
1.236347e+00
1.236016e+00
1.235655e+00
1.235287e+00
1.234941e+00
1.234649e+00
1.234437e+00
1.234325e+00
1.234320e+00
1.234419e+00
1.234611e+00
1.234881e+00
1.235207e+00
1.235567e+00
1.235940e+00
1.236310e+00
1.236671e+00
1.237027e+00
1.237390e+00
1.237780e+00
1.238224e+00
1.238751e+00
1.239389e+00
1.240162e+00
1.241090e+00
1.242189e+00
1.243467e+00
1.244921e+00
1.246541e+00
1.248309e+00
1.250205e+00
1.252202e+00
1.254271e+00
1.256380e+00
1.258499e+00
1.260598e+00
1.262650e+00
1.264632e+00
1.266526e+00
1.268329e+00
1.270040e+00
1.271670e+00
1.273233e+00
1.274747e+00
1.276230e+00
1.277696e+00
1.279151e+00
1.280589e+00
1.281994e+00
1.283341e+00
1.284597e+00
1.285727e+00
1.286693e+00
1.287455e+00
1.287976e+00
1.288219e+00
1.288147e+00
1.287725e+00
1.286921e+00
1.285708e+00
1.284059e+00
1.281956e+00
1.279384e+00
1.276335e+00
1.272808e+00
1.268804e+00
1.264327e+00
1.259380e+00
1.253964e+00
1.248077e+00
1.241713e+00
1.234866e+00
1.227533e+00
1.219718e+00
1.211438e+00
1.202724e+00
1.193622e+00
1.184195e+00
1.174513e+00
1.164658e+00
1.154709e+00
1.144744e+00
1.134838e+00
1.125065e+00
1.115491e+00
1.106176e+00
1.097175e+00
1.088543e+00
1.080333e+00
1.072594e+00
1.065374e+00
1.058712e+00
1.052645e+00
1.047199e+00
1.042392e+00
1.038236e+00
1.034740e+00
1.031908e+00
1.029742e+00
1.028240e+00
1.027400e+00
1.027215e+00
1.027679e+00
1.028780e+00
1.030504e+00
1.032836e+00
1.035755e+00
1.039234e+00
1.043242e+00
1.047740e+00
1.052682e+00
1.058014e+00
1.063675e+00
1.069607e+00
1.075748e+00
1.082042e+00
1.088437e+00
1.094890e+00
1.101368e+00
1.107842e+00
1.114296e+00
1.120715e+00
1.127092e+00
1.133420e+00
1.139693e+00
1.145907e+00
1.152058e+00
1.158141e+00
1.164150e+00
1.170078e+00
1.175914e+00
1.181646e+00
1.187256e+00
1.192728e+00
1.198047e+00
1.203196e+00
1.208160e+00
1.212926e+00
1.217485e+00
1.221829e+00
1.225960e+00
1.229881e+00
1.233607e+00
1.237155e+00
1.240546e+00
1.243799e+00
1.246934e+00
1.249965e+00
1.252907e+00
1.255767e+00
1.258552e+00
1.261268e+00
1.263915e+00
1.266496e+00
1.269012e+00
1.271461e+00
1.273841e+00
1.276147e+00
1.278371e+00
1.280503e+00
1.282534e+00
1.284455e+00
1.286261e+00
1.287957e+00
1.289554e+00
1.291072e+00
1.292542e+00
1.293999e+00
1.295480e+00
1.297020e+00
1.298649e+00
1.300392e+00
1.302263e+00
1.304272e+00
1.306417e+00
1.308692e+00
1.311083e+00
1.313570e+00
1.316128e+00
1.318730e+00
1.321343e+00
1.323937e+00
1.326478e+00
1.328940e+00
1.331300e+00
1.333541e+00
1.335653e+00
1.337633e+00
1.339482e+00
1.341207e+00
1.342818e+00
1.344322e+00
1.345721e+00
1.347011e+00
1.348176e+00
1.349197e+00
1.350047e+00
1.350697e+00
1.351118e+00
1.351281e+00
1.351161e+00
1.350738e+00
1.349992e+00
1.348909e+00
1.347474e+00
1.345679e+00
1.343514e+00
1.340976e+00
1.338068e+00
1.334797e+00
1.331178e+00
1.327227e+00
1.322968e+00
1.318425e+00
1.313620e+00
1.308572e+00
1.303290e+00
1.297782e+00
1.292052e+00
1.286101e+00
1.279931e+00
1.273553e+00
1.266985e+00
1.260255e+00
1.253400e+00
1.246463e+00
1.239491e+00
1.232530e+00
1.225620e+00
1.218800e+00
1.212096e+00
1.205529e+00
1.199112e+00
1.192850e+00
1.186747e+00
1.180802e+00
1.175014e+00
1.169383e+00
1.163909e+00
1.158590e+00
1.153420e+00
1.148392e+00
1.143498e+00
1.138735e+00
1.134104e+00
1.129615e+00
1.125292e+00
1.121166e+00
1.117277e+00
1.113669e+00
1.110384e+00
1.107457e+00
1.104913e+00
1.102767e+00
1.101021e+00
1.099669e+00
1.098694e+00
1.098076e+00
1.097792e+00
1.097820e+00
1.098134e+00
1.098712e+00
1.099527e+00
1.100550e+00
1.101748e+00
1.103079e+00
1.104502e+00
1.105970e+00
1.107438e+00
1.108859e+00
1.110192e+00
1.111390e+00
1.112411e+00
1.113212e+00
1.113755e+00
1.114005e+00
1.113931e+00
1.113505e+00
1.112708e+00
1.111521e+00
1.109930e+00
1.107923e+00
1.105493e+00
1.102636e+00
1.099351e+00
1.095639e+00
1.091505e+00
1.086955e+00
1.082005e+00
1.076678e+00
1.071005e+00
1.065021e+00
1.058764e+00
1.052277e+00
1.045597e+00
1.038758e+00
1.031789e+00
1.024708e+00
1.017532e+00
1.010271e+00
1.002934e+00
9.955295e-01
9.880684e-01
9.805618e-01
9.730235e-01
9.654761e-01
9.579541e-01
9.505024e-01
9.431721e-01
9.360195e-01
9.291062e-01
9.224955e-01
9.162462e-01
9.104055e-01
9.050067e-01
9.000669e-01
8.955839e-01
8.915347e-01
8.878782e-01
8.845611e-01
8.815261e-01
8.787171e-01
8.760826e-01
8.735767e-01
8.711605e-01
8.688031e-01
8.664808e-01
8.641738e-01
8.618649e-01
8.595382e-01
8.571798e-01
8.547772e-01
8.523175e-01
8.497852e-01
8.471584e-01
8.444086e-01
8.415002e-01
8.383910e-01
8.350317e-01
8.313686e-01
8.273494e-01
8.229277e-01
8.180660e-01
8.127397e-01
8.069399e-01
8.006766e-01
7.939782e-01
7.868891e-01
7.794648e-01
7.717680e-01
7.638661e-01
7.558281e-01
7.477210e-01
7.396067e-01
7.315405e-01
7.235701e-01
7.157354e-01
7.080681e-01
7.005924e-01
6.933246e-01
6.862715e-01
6.794298e-01
6.727875e-01
6.663265e-01
6.600239e-01
6.538514e-01
6.477767e-01
6.417679e-01
6.357960e-01
6.298339e-01
6.238566e-01
6.178425e-01
6.117753e-01
6.056419e-01
5.994311e-01
5.931336e-01
5.867447e-01
5.802639e-01
5.736931e-01
5.670366e-01
5.603011e-01
5.534952e-01
5.466267e-01
5.397009e-01
5.327199e-01
5.256824e-01
5.185804e-01
5.113999e-01
5.041242e-01
4.967389e-01
4.892356e-01
4.816134e-01
4.738808e-01
4.660559e-01
4.581646e-01
4.502357e-01
4.422962e-01
4.343674e-01
4.264610e-01
4.185754e-01
4.106954e-01
4.027957e-01
3.948463e-01
3.868176e-01
3.786871e-01
3.704432e-01
3.620865e-01
3.536272e-01
3.450821e-01
3.364721e-01
3.278165e-01
3.191300e-01
3.104240e-01
3.017105e-01
2.930042e-01
2.843228e-01
2.756874e-01
2.671226e-01
2.586553e-01
2.503096e-01
2.421018e-01
2.340375e-01
2.261102e-01
2.183011e-01
2.105804e-01
2.029115e-01
1.952579e-01
1.875877e-01
1.798769e-01
1.721107e-01
1.642815e-01
1.563859e-01
1.484200e-01
1.403770e-01
1.322450e-01
1.240072e-01
1.156447e-01
1.071394e-01
9.847843e-02
8.965531e-02
8.067093e-02
7.153281e-02
6.225335e-02
5.284624e-02
4.332104e-02
3.367899e-02
2.391217e-02
1.400400e-02
3.929860e-03
-6.340375e-03
-1.683753e-02
-2.758921e-02
-3.861783e-02
-4.993928e-02
-6.156136e-02
-7.348287e-02
-8.569381e-02
-9.817670e-02
-1.109089e-01
-1.238651e-01
-1.370180e-01
-1.503406e-01
-1.638076e-01
-1.773964e-01
-1.910875e-01
-2.048662e-01
-2.187240e-01
-2.326589e-01
-2.466754e-01
-2.607838e-01
-2.749996e-01
-2.893411e-01
-3.038282e-01
-3.184801e-01
-3.333124e-01
-3.483341e-01
-3.635455e-01
-3.789391e-01
-3.945014e-01
-4.102150e-01
-4.260604e-01
-4.420186e-01
-4.580734e-01
-4.742115e-01
-4.904226e-01
-5.066996e-01
-5.230407e-01
-5.394492e-01
-5.559316e-01
-5.724984e-01
-5.891637e-01
-6.059448e-01
-6.228603e-01
-6.399276e-01
-6.571610e-01
-6.745695e-01
-6.921539e-01
-7.099063e-01
-7.278113e-01
-7.458497e-01
-7.640014e-01
-7.822476e-01
-8.005734e-01
-8.189695e-01
-8.374326e-01
-8.559658e-01
-8.745772e-01
-8.932780e-01
-9.120800e-01
-9.309949e-01
-9.500350e-01
-9.692124e-01
-9.885386e-01
-1.008023e+00
-1.027671e+00
-1.047489e+00
-1.067477e+00
-1.087632e+00
-1.107945e+00
-1.128400e+00
-1.148977e+00
-1.169646e+00
-1.190374e+00
-1.211123e+00
-1.231861e+00
-1.252555e+00
-1.273178e+00
-1.293712e+00
-1.314146e+00
-1.334477e+00
-1.354706e+00
-1.374839e+00
-1.394885e+00
-1.414853e+00
-1.434748e+00
-1.454569e+00
-1.474310e+00
-1.493958e+00
-1.513497e+00
-1.532908e+00
-1.552172e+00
-1.571266e+00
-1.590172e+00
-1.608874e+00
-1.627361e+00
-1.645621e+00
-1.663647e+00
-1.681435e+00
-1.698984e+00
-1.716296e+00
-1.733377e+00
-1.750241e+00
-1.766906e+00
-1.783402e+00
-1.799765e+00
-1.816036e+00
-1.832261e+00
-1.848479e+00
-1.864724e+00
-1.881019e+00
-1.897379e+00
-1.913808e+00
-1.930307e+00
-1.946869e+00
-1.963489e+00
-1.980164e+00
-1.996894e+00
-2.013683e+00
-2.030538e+00
-2.047463e+00
-2.064460e+00
-2.081530e+00
-2.098672e+00
-2.115884e+00
-2.133166e+00
-2.150517e+00
-2.167939e+00
-2.185435e+00
-2.203005e+00
-2.220646e+00
-2.238349e+00
-2.256096e+00
-2.273863e+00
-2.291620e+00
-2.309331e+00
-2.326958e+00
-2.344470e+00
-2.361839e+00
-2.379044e+00
-2.396070e+00
-2.412912e+00
-2.429564e+00
-2.446030e+00
-2.462317e+00
-2.478437e+00
-2.494410e+00
-2.510259e+00
-2.526020e+00
-2.541731e+00
-2.557439e+00
-2.573189e+00
-2.589024e+00
-2.604985e+00
-2.621107e+00
-2.637418e+00
-2.653936e+00
-2.670671e+00
-2.687628e+00
-2.704803e+00
-2.722190e+00
-2.739783e+00
-2.757570e+00
-2.775537e+00
-2.793668e+00
-2.811948e+00
-2.830360e+00
-2.848881e+00
-2.867492e+00
-2.886172e+00
-2.904909e+00
-2.923689e+00
-2.942503e+00
-2.961341e+00
-2.980194e+00
-2.999052e+00
-3.017898e+00
-3.036711e+00
-3.055468e+00
-3.074145e+00
-3.092718e+00
-3.111168e+00
-3.129484e+00
-3.147668e+00
-3.165726e+00
-3.183672e+00
-3.201522e+00
-3.219289e+00
-3.236978e+00
-3.254587e+00
-3.272101e+00
-3.289499e+00
-3.306752e+00
-3.323834e+00
-3.340718e+00
-3.357380e+00
-3.373801e+00
-3.389969e+00
-3.405878e+00
-3.421526e+00
-3.436910e+00
-3.452031e+00
-3.466888e+00
-3.481479e+00
-3.495802e+00
-3.509850e+00
-3.523618e+00
-3.537096e+00
-3.550267e+00
-3.563111e+00
-3.575605e+00
-3.587722e+00
-3.599435e+00
-3.610719e+00
-3.621551e+00
-3.631911e+00
-3.641783e+00
-3.651158e+00
-3.660026e+00
-3.668382e+00
-3.676221e+00
-3.683539e+00
-3.690329e+00
-3.696582e+00
-3.702284e+00
-3.707419e+00
-3.711969e+00
-3.715913e+00
-3.719234e+00
-3.721917e+00
-3.723947e+00
-3.725314e+00
-3.726010e+00
-3.726028e+00
-3.725357e+00
-3.723988e+00
-3.721911e+00
-3.719116e+00
-3.715592e+00
-3.711333e+00
-3.706332e+00
-3.700588e+00
-3.694099e+00
-3.686869e+00
-3.678901e+00
-3.670205e+00
-3.660789e+00
-3.650668e+00
-3.639857e+00
-3.628375e+00
-3.616240e+00
-3.603471e+00
-3.590083e+00
-3.576091e+00
-3.561507e+00
-3.546337e+00
-3.530589e+00
-3.514269e+00
-3.497380e+00
-3.479929e+00
-3.461925e+00
-3.443382e+00
-3.424314e+00
-3.404742e+00
-3.384686e+00
-3.364166e+00
-3.343202e+00
-3.321810e+00
-3.300003e+00
-3.277790e+00
-3.255175e+00
-3.232161e+00
-3.208748e+00
-3.184936e+00
-3.160724e+00
-3.136112e+00
-3.111103e+00
-3.085702e+00
-3.059919e+00
-3.033766e+00
-3.007262e+00
-2.980430e+00
-2.953297e+00
-2.925894e+00
-2.898253e+00
-2.870408e+00
-2.842393e+00
-2.814243e+00
-2.785994e+00
-2.757675e+00
-2.729316e+00
-2.700940e+00
-2.672569e+00
-2.644223e+00
-2.615917e+00
-2.587664e+00
-2.559475e+00
-2.531359e+00
-2.503319e+00
-2.475359e+00
-2.447481e+00
-2.419687e+00
-2.391981e+00
-2.364370e+00
-2.336858e+00
-2.309456e+00
-2.282171e+00
-2.255016e+00
-2.227997e+00
-2.201119e+00
-2.174385e+00
-2.147796e+00
-2.121356e+00
-2.095068e+00
-2.068934e+00
-2.042962e+00
-2.017157e+00
-1.991524e+00
-1.966068e+00
-1.940791e+00
-1.915698e+00
-1.890791e+00
-1.866074e+00
-1.841556e+00
-1.817246e+00
-1.793162e+00
-1.769325e+00
-1.745757e+00
-1.722482e+00
-1.699523e+00
-1.676895e+00
-1.654611e+00
-1.632673e+00
-1.611078e+00
-1.589815e+00
-1.568870e+00
-1.548227e+00
-1.527863e+00
-1.507759e+00
-1.487894e+00
-1.468251e+00
-1.448814e+00
-1.429572e+00
-1.410514e+00
-1.391635e+00
-1.372935e+00
-1.354416e+00
-1.336085e+00
-1.317950e+00
-1.300022e+00
-1.282311e+00
-1.264824e+00
-1.247565e+00
-1.230535e+00
-1.213725e+00
-1.197124e+00
-1.180713e+00
-1.164466e+00
-1.148357e+00
-1.132352e+00
-1.116420e+00
-1.100523e+00
-1.084623e+00
-1.068682e+00
-1.052661e+00
-1.036525e+00
-1.020239e+00
-1.003778e+00
-9.871206e-01
-9.702532e-01
-9.531702e-01
-9.358731e-01
-9.183687e-01
-9.006668e-01
-8.827775e-01
-8.647099e-01
-8.464720e-01
-8.280705e-01
-8.095122e-01
-7.908043e-01
-7.719559e-01
-7.529790e-01
-7.338893e-01
-7.147066e-01
-6.954538e-01
-6.761560e-01
-6.568384e-01
-6.375261e-01
-6.182439e-01
-5.990180e-01
-5.798776e-01
-5.608562e-01
-5.419911e-01
-5.233231e-01
-5.048953e-01
-4.867514e-01
-4.689331e-01
-4.514757e-01
-4.344059e-01
-4.177393e-01
-4.014814e-01
-3.856273e-01
-3.701650e-01
-3.550792e-01
-3.403543e-01
-3.259751e-01
-3.119269e-01
-2.981952e-01
-2.847672e-01
-2.716310e-01
-2.587748e-01
-2.461865e-01
-2.338543e-01
-2.217695e-01
-2.099263e-01
-1.983230e-01
-1.869616e-01
-1.758472e-01
-1.649879e-01
-1.543934e-01
-1.440739e-01
-1.340384e-01
-1.242947e-01
-1.148501e-01
-1.057133e-01
-9.689496e-02
-8.840928e-02
-8.027525e-02
-7.251739e-02
-6.516495e-02
-5.825042e-02
-5.180802e-02
-4.587285e-02
-4.048006e-02
-3.566377e-02
-3.145641e-02
-2.788915e-02
-2.499187e-02
-2.279190e-02
-2.131243e-02
-2.057156e-02
-2.058109e-02
-2.134480e-02
-2.285782e-02
-2.510807e-02
-2.807870e-02
-3.174998e-02
-3.610007e-02
-4.110580e-02
-4.674362e-02
-5.298887e-02
-5.981369e-02
-6.718592e-02
-7.506921e-02
-8.342219e-02
-9.219720e-02
-1.013417e-01
-1.108022e-01
-1.205280e-01
-1.304710e-01
-1.405866e-01
-1.508336e-01
-1.611755e-01
-1.715779e-01
-1.820067e-01
-1.924269e-01
-2.028028e-01
-2.130989e-01
-2.232802e-01
-2.333124e-01
-2.431634e-01
-2.528042e-01
-2.622095e-01
-2.713569e-01
-2.802262e-01
-2.887982e-01
-2.970543e-01
-3.049744e-01
-3.125374e-01
-3.197218e-01
-3.265070e-01
-3.328754e-01
-3.388118e-01
-3.443046e-01
-3.493450e-01
-3.539278e-01
-3.580508e-01
-3.617138e-01
-3.649183e-01
-3.676663e-01
-3.699614e-01
-3.718087e-01
-3.732151e-01
-3.741890e-01
-3.747406e-01
-3.748823e-01
-3.746279e-01
-3.739913e-01
-3.729858e-01
-3.716236e-01
-3.699162e-01
-3.678746e-01
-3.655103e-01
-3.628379e-01
-3.598764e-01
-3.566499e-01
-3.531880e-01
-3.495244e-01
-3.456951e-01
-3.417351e-01
-3.376764e-01
-3.335459e-01
-3.293641e-01
-3.251441e-01
-3.208916e-01
-3.166080e-01
-3.122916e-01
-3.079387e-01
-3.035446e-01
-2.991053e-01
-2.946176e-01
-2.900785e-01
-2.854846e-01
-2.808305e-01
-2.761081e-01
-2.713071e-01
-2.664155e-01
-2.614210e-01
-2.563112e-01
-2.510739e-01
-2.456964e-01
-2.401645e-01
-2.344617e-01
-2.285689e-01
-2.224635e-01
-2.161213e-01
-2.095178e-01
-2.026306e-01
-1.954409e-01
-1.879346e-01
-1.801034e-01
-1.719439e-01
-1.634566e-01
-1.546456e-01
-1.455176e-01
-1.360805e-01
-1.263423e-01
-1.163102e-01
-1.059909e-01
-9.539022e-02
-8.451245e-02
-7.336064e-02
-6.193692e-02
-5.024240e-02
-3.827663e-02
-2.603697e-02
-1.351803e-02
-7.110926e-04
1.239591e-02
2.581767e-02
3.957001e-02
5.366789e-02
6.812379e-02
8.294665e-02
9.814108e-02
1.137065e-01
1.296367e-01
1.459209e-01
1.625451e-01
1.794929e-01
1.967461e-01
2.142849e-01
2.320879e-01
2.501333e-01
2.683995e-01
2.868651e-01
3.055099e-01
3.243141e-01
3.432585e-01
3.623242e-01
3.814920e-01
4.007429e-01
4.200576e-01
4.394168e-01
4.588000e-01
4.781853e-01
4.975502e-01
5.168727e-01
5.361323e-01
5.553112e-01
5.743953e-01
5.933748e-01
6.122441e-01
6.310009e-01
6.496459e-01
6.681826e-01
6.866162e-01
7.049530e-01
7.231996e-01
7.413628e-01
7.594496e-01
7.774676e-01
7.954257e-01
8.133338e-01
8.312021e-01
8.490402e-01
8.668560e-01
8.846545e-01
9.024384e-01
9.202089e-01
9.379657e-01
9.557083e-01
9.734356e-01
9.911470e-01
1.008842e+00
1.026522e+00
1.044184e+00
