EVENT_NAME: EMILIA_2ND_SHOCK
EVENT_ID: IT-2012-0011
EVENT_DATE_YYYYMMDD: 20120529
EVENT_TIME_HHMMSS: 070002
EVENT_LATITUDE_DEGREE: 44.8417
EVENT_LONGITUDE_DEGREE: 11.0657
EVENT_DEPTH_KM: 8.1
HYPOCENTER_REFERENCE: INGV-CNT_Seismic_Bulletin
MAGNITUDE_W: 6.0
MAGNITUDE_W_REFERENCE: RCMT-INGV
MAGNITUDE_L: 5.8
MAGNITUDE_L_REFERENCE: INGV-CNT_Seismic_Bulletin
FOCAL_MECHANISM: TF
NETWORK: IT
STATION_CODE: CAS0
STATION_NAME: CASTELMASSA
STATION_LATITUDE_DEGREE: 45.025000
STATION_LONGITUDE_DEGREE: 11.311000
STATION_ELEVATION_M: 65
LOCATION: 
SENSOR_DEPTH_M: 0.0
VS30_M/S: 
SITE_CLASSIFICATION_EC8: C*
MORPHOLOGIC_CLASSIFICATION: 
EPICENTRAL_DISTANCE_KM: 28.1
EARTHQUAKE_BACKAZIMUTH_DEGREE: 223.6
DATE_TIME_FIRST_SAMPLE_YYYYMMDD_HHMMSS: 20120529_070003.000
DATE_TIME_FIRST_SAMPLE_PRECISION: seconds
SAMPLING_INTERVAL_S: 0.005000
NDATA: 29001
DURATION_S: 145.005
STREAM: HNZ
UNITS: cm/s
INSTRUMENT: sensor = Episensor FBA ES-T [Kinemetrics] | digitizer = Etna [Kinemetrics]
INSTRUMENT_ANALOG/DIGITAL: D
INSTRUMENTAL_FREQUENCY_HZ: 
INSTRUMENTAL_DAMPING: 
FULL_SCALE_G: 
N_BIT_DIGITAL_CONVERTER: 18
PGV_CM/S: -1.293834
TIME_PGV_S: 18.835000
BASELINE_CORRECTION: BASELINE REMOVED
FILTER_TYPE: BUTTERWORTH
FILTER_ORDER: 2
LOW_CUT_FREQUENCY_HZ: 0.060
HIGH_CUT_FREQUENCY_HZ: 35.000
LATE/NORMAL_TRIGGERED: NT
DATABASE_VERSION: DYNA 1.0
HEADER_FORMAT: DYNA 1.2
DATA_TYPE: VELOCITY
PROCESSING: manual (Paolucci et al., 2011)
DATA_TIMESTAMP_YYYYMMDD_HHMMSS: 
DATA_LICENSE: CC-BY3_0-IT (http://creativecommons.org/licenses/by/3.0/deed.en)
DATA_CITATION: ESM working group (2015), European Strong-Motion database, version 0.1, Network Activity 3: Networking acceleration networks and SM data users. Project NERA (www.nera-eu.org)
DATA_CREATOR: ESM working group
ORIGINAL_DATA_MEDIATOR_CITATION: Ufficio Rischio Sismico e Vulcanico del Dipartimento della Protezione Civile (http://www.protezionecivile.gov.it/)
ORIGINAL_DATA_MEDIATOR: Rete Accelerometrica Nazionale - RAN Download (http://www.mot1.it/randownload/)
ORIGINAL_DATA_CREATOR_CITATION: Italian Strong Motion Network, Italian Civil Protection Department http://www.protezionecivile.gov.it
ORIGINAL_DATA_CREATOR: network: IT (Italian Strong Motion Network); owner: Dipartimento Della Protezione Civile
USER1: 
USER2: 
USER3: 
USER4: 
USER5: 
[...]
-0.173392
-0.194223
-0.205430
-0.202197
-0.184830
-0.155164
-0.114504
-0.064924
-0.011168
0.039614
0.080082
0.104864
0.111558
0.101099
0.077589
0.046605
0.012224
-0.025154
-0.068540
-0.121351
-0.183102
-0.246822
-0.301185
-0.336864
-0.351897
-0.351331
-0.342326
-0.329589
-0.314449
-0.297063
-0.278493
-0.260155
-0.241909
-0.221698
-0.196713
-0.164068
-0.121448
-0.068689
-0.008886
0.051395
0.102266
0.133460
0.140295
0.126757
0.102300
0.076536
0.056626
0.047808
0.054885
0.081781
0.127924
0.184594
0.236027
0.266046
0.265978
0.238091
0.192089
0.137751
0.079294
0.015203
-0.056711
-0.133675
-0.206937
-0.265586
-0.301344
-0.311318
-0.298345
-0.269724
-0.234754
-0.201244
-0.172326
-0.145803
-0.117062
-0.083815
-0.048842
-0.018755
-0.001057
-0.001945
-0.025074
-0.071987
-0.143537
-0.238635
-0.350431
-0.465117
-0.564983
-0.632885
-0.656714
-0.633023
-0.567173
-0.469418
-0.350087
-0.216652
-0.073602
0.074799
0.221619
0.357855
0.474868
0.565216
0.623390
0.648623
0.647015
0.629694
0.607795
0.587027
0.564524
0.531285
0.480329
0.413696
0.341541
0.275308
0.221636
0.180766
0.149236
0.124102
0.105060
0.093173
0.088396
0.088364
0.089001
0.085539
0.072714
0.045943
0.004970
-0.043418
-0.087566
-0.116723
-0.126011
-0.117674
-0.098156
-0.072884
-0.042323
-0.002375
0.050782
0.114945
0.180856
0.238296
0.283628
0.320677
0.355009
0.388177
0.416032
0.431386
0.429595
0.412608
0.387343
0.360161
0.332582
0.300774
0.258462
0.201762
0.133393
0.063179
0.003395
-0.038681
-0.065461
-0.086831
-0.112675
-0.146158
-0.182562
-0.213645
-0.233667
-0.242638
-0.244597
-0.242616
-0.234904
-0.215351
-0.177989
-0.121694
-0.051585
0.023407
0.094229
0.153669
0.196418
0.219484
0.223685
0.213943
0.196949
0.177678
0.157109
0.132964
0.103370
0.069866
0.036161
0.003794
-0.030932
-0.075836
-0.138178
-0.219695
-0.314706
-0.412181
-0.500132
-0.569966
-0.619124
-0.651093
-0.672708
-0.690144
-0.706388
-0.721852
-0.736536
-0.751013
-0.765786
-0.780246
-0.791642
-0.794177
-0.779602
-0.740597
-0.675557
-0.591392
-0.501895
-0.422066
-0.361841
-0.323483
-0.303809
-0.298845
-0.307366
-0.330373
-0.366415
-0.407456
-0.440161
-0.452015
-0.438239
-0.405768
-0.370852
-0.350015
-0.350583
-0.368005
-0.390443
-0.405424
-0.404162
-0.382949
-0.343215
-0.290817
-0.234017
-0.181335
-0.140835
-0.119493
-0.120940
-0.142746
-0.175179
-0.202998
-0.211635
-0.195266
-0.160451
-0.122261
-0.096009
-0.089693
-0.100826
-0.119146
-0.133317
-0.137050
-0.130469
-0.115739
-0.091543
-0.053408
-0.000316
0.059998
0.113503
0.148631
0.163501
0.164699
0.159067
0.146930
0.122659
0.080721
0.021341
-0.048478
-0.118831
-0.182517
-0.238490
-0.290968
-0.345025
-0.402155
-0.459224
-0.511087
-0.554338
-0.589443
-0.619819
-0.648550
-0.675454
-0.697087
-0.709768
-0.712796
-0.709106
-0.703315
-0.698993
-0.696789
-0.694170
-0.687054
-0.672967
-0.653618
-0.634362
-0.620700
-0.614450
-0.612130
-0.606548
-0.590582
-0.560936
-0.519484
-0.471388
-0.421919
-0.374718
-0.332039
-0.295644
-0.267079
-0.246901
-0.233557
-0.223606
-0.213483
-0.200712
-0.183941
-0.163330
-0.141077
-0.120410
-0.103549
-0.090488
-0.079533
-0.069132
-0.059475
-0.052332
-0.049278
-0.050033
-0.052647
-0.055845
-0.061706
-0.075503
-0.101799
-0.139983
-0.183159
-0.221150
-0.245228
-0.251459
-0.241121
-0.219145
-0.192621
-0.170133
-0.160835
-0.172205
-0.207199
-0.262820
-0.331449
-0.403938
-0.471988
-0.528600
-0.567451
-0.582854
-0.571398
-0.534757
-0.481162
-0.423354
-0.373701
-0.339576
-0.321759
-0.316469
-0.319261
-0.327716
-0.341126
-0.358437
-0.376916
-0.392789
-0.403953
-0.412965
-0.426864
-0.452921
-0.493213
-0.541640
-0.585388
-0.610101
-0.605688
-0.570034
-0.509592
-0.436835
-0.365214
-0.303445
-0.252067
-0.204779
-0.154407
-0.099668
-0.047051
-0.005858
0.018610
0.027777
0.027720
0.024681
0.020882
0.014074
0.001777
-0.013898
-0.024783
-0.019157
0.012422
0.070768
0.146594
0.225879
0.297381
0.356409
0.403022
0.437300
0.457138
0.460939
0.450609
0.430189
0.402121
0.365368
0.317262
0.259105
0.201184
0.159235
0.143133
0.149388
0.164014
0.171283
0.162102
0.138163
0.109276
0.085520
0.070356
0.059540
0.046199
0.027657
0.007238
-0.010277
-0.023120
-0.032244
-0.038439
-0.040285
-0.034406
-0.018548
0.005012
0.030060
0.050767
0.065379
0.077262
0.094146
0.125539
0.178005
0.250530
0.333628
0.413083
0.475817
0.515102
0.532591
0.534729
0.525346
0.501450
0.456841
0.389820
0.307653
0.224492
0.154644
0.105290
0.072645
0.043882
0.004357
-0.053611
-0.125824
-0.198334
-0.254725
-0.283646
-0.283008
-0.259661
-0.224807
-0.187473
-0.150506
-0.112052
-0.070950
-0.031572
-0.004457
-0.002001
-0.031840
-0.092471
-0.173806
-0.261683
-0.343350
-0.411157
-0.463179
-0.501377
-0.528874
-0.547740
-0.558276
-0.560098
-0.553892
-0.542001
-0.527069
-0.509928
-0.488815
-0.460854
-0.424711
-0.382954
-0.342537
-0.311796
-0.295567
-0.292826
-0.298427
-0.306954
-0.316553
-0.330114
-0.351446
-0.379576
-0.407120
-0.423775
-0.421877
-0.401019
-0.368467
-0.333683
-0.300914
-0.266387
-0.222140
-0.163332
-0.093879
-0.026065
0.025416
0.050425
0.048237
0.028396
0.005827
-0.006849
-0.003775
0.014243
0.042088
0.073706
0.104875
0.133027
0.154911
0.165230
0.157646
0.127211
0.072706
-0.002090
-0.088206
-0.172958
-0.243768
-0.292770
-0.319772
-0.331875
-0.338876
-0.347083
-0.356829
-0.365235
-0.370478
-0.373541
-0.376701
-0.380803
-0.383721
-0.381339
-0.370641
-0.351968
-0.327814
-0.299829
-0.267670
-0.230406
-0.189084
-0.148802
-0.117688
-0.102403
-0.104492
-0.120429
-0.143252
-0.164265
-0.175586
-0.172571
-0.154082
-0.121230
-0.076877
-0.026126
0.024111
0.067473
0.100912
0.126243
0.149594
0.177848
0.213545
0.252817
0.288237
0.313002
0.323292
0.318966
0.302955
0.279400
0.251610
0.220665
0.184807
0.140556
0.086290
0.026320
-0.028693
-0.066491
-0.079758
-0.070102
-0.047185
-0.023478
-0.008221
-0.004328
-0.009026
-0.017100
-0.025105
-0.033730
-0.046416
-0.065781
-0.091221
-0.119653
-0.148141
-0.175437
-0.201595
-0.226748
-0.249735
-0.267990
-0.279444
-0.283603
-0.280409
-0.269740
-0.252343
-0.229912
-0.204192
-0.176686
-0.149242
-0.124648
-0.106207
-0.096210
-0.094856
-0.100375
-0.109423
-0.117872
-0.122437
-0.122033
-0.118418
-0.116546
-0.122673
-0.139940
-0.166072
-0.195464
-0.222703
-0.245223
-0.264281
-0.282811
-0.301282
-0.315868
-0.320918
-0.313433
-0.296204
-0.276897
-0.263369
-0.259750
-0.266614
-0.283586
-0.311538
-0.352608
-0.407168
-0.470185
-0.531568
-0.580528
-0.609597
-0.616190
-0.602644
-0.575023
-0.540584
-0.505656
-0.475017
-0.451690
-0.437033
-0.431567
-0.435990
-0.451999
-0.481731
-0.524019
-0.570311
-0.606496
-0.620639
-0.609110
-0.576411
-0.530756
-0.478774
-0.422478
-0.361152
-0.296158
-0.232766
-0.176591
-0.128892
-0.086267
-0.044809
-0.004010
0.033035
0.062922
0.086279
0.108950
0.137288
0.171370
0.203321
0.222239
0.221022
0.200705
0.170537
0.143547
0.130063
0.133511
0.150473
0.173253
0.192718
0.200807
0.192607
0.167351
0.128083
0.080413
0.030557
-0.016522
-0.057689
-0.091343
-0.117182
-0.135837
-0.148446
-0.156772
-0.163448
-0.171383
-0.182264
-0.195184
-0.206767
-0.212862
-0.210486
-0.199256
-0.181767
-0.161681
-0.141023
-0.120279
-0.100750
-0.085583
-0.078728
-0.082706
-0.095612
-0.110013
-0.116254
-0.107684
-0.083371
-0.047115
-0.004562
0.039460
0.082603
0.125591
0.171112
0.221059
0.274305
0.326429
0.370759
0.400622
0.412467
0.407201
0.388515
0.360695
0.327694
0.292782
0.258405
0.226626
0.199976
0.181669
0.174488
0.178545
0.189504
0.199879
0.203643
0.200525
0.196584
0.200571
0.217890
0.246837
0.280672
0.312964
0.340813
0.364523
0.385940
0.406378
0.424505
0.436060
0.436239
0.423424
0.401565
0.378540
0.361269
0.352229
0.350495
0.354642
0.363430
0.375082
0.387672
0.399924
0.411353
0.422038
0.431715
0.438598
0.439958
0.434630
0.424761
0.414910
0.409294
0.409157
0.412133
0.414084
0.411900
0.405252
0.395991
0.385316
0.371443
0.350589
0.320150
0.281072
0.238336
0.199355
0.170447
0.153645
0.146676
0.145796
0.148607
0.154910
0.165339
0.179058
0.192940
0.203144
0.207341
0.205363
0.197719
0.183970
0.163232
0.136464
0.107619
0.081866
0.062538
0.049617
0.040367
0.030622
0.016107
-0.005841
-0.034814
-0.067316
-0.098514
-0.124777
-0.145166
-0.160680
-0.172226
-0.179659
-0.182146
-0.178207
-0.165398
-0.140858
-0.102398
-0.048811
0.020044
0.101912
0.190765
0.277634
0.353352
0.411298
0.448721
0.466508
0.468149
0.458715
0.444646
0.434002
0.435254
0.454080
0.490644
0.539514
0.592140
0.640716
0.681470
0.714715
0.741755
0.762544
0.775997
0.781200
0.778538
0.769880
0.756732
0.738345
0.712317
0.676710
0.632091
0.583145
0.537720
0.502100
0.477120
0.459367
0.445325
0.434152
0.427471
0.426884
0.431249
0.436483
0.438140
0.433413
0.421006
0.401174
0.376217
0.349456
0.323768
0.301462
0.283891
0.269805
0.255053
0.234578
0.204140
0.161162
0.105797
0.040627
-0.031510
-0.108748
-0.189281
-0.269725
-0.343869
-0.402959
-0.439063
-0.450166
-0.442513
-0.427956
-0.418120
-0.418771
-0.427728
-0.437380
-0.439920
-0.431985
-0.415787
-0.396037
-0.375298
-0.351895
-0.322325
-0.286046
-0.248244
-0.218136
-0.204492
-0.211806
-0.239348
-0.282975
-0.337666
-0.398978
-0.463455
-0.528728
-0.593227
-0.655874
-0.716394
-0.775208
-0.832098
-0.885097
-0.931024
-0.967467
-0.994579
-1.014871
-1.030950
-1.043589
-1.051986
-1.055138
-1.052603
-1.044490
-1.031019
-1.012091
-0.987627
-0.958521
-0.926965
-0.895557
-0.866129
-0.839285
-0.815077
-0.794531
-0.780410
-0.775770
-0.781716
-0.796607
-0.816903
-0.838859
-0.859912
-0.878675
-0.893622
-0.901781
-0.899141
-0.882355
-0.849893
-0.802128
-0.740734
-0.668011
-0.586754
-0.500465
-0.413341
-0.329828
-0.254340
-0.191167
-0.143447
-0.111738
-0.093896
-0.085759
-0.081537
-0.074754
-0.060348
-0.036676
-0.005606
0.029310
0.065038
0.100301
0.135140
0.169582
0.203141
0.235348
0.266176
0.296016
0.325514
0.354968
0.383395
0.408378
0.427039
0.437537
0.440741
0.441245
0.445630
0.458034
0.477265
0.499188
0.521785
0.547370
0.580523
0.624076
0.676150
0.730313
0.778416
0.814408
0.837325
0.851030
0.860246
0.866514
0.868150
0.863410
0.852745
0.838508
0.823603
0.809729
0.795542
0.776845
0.749478
0.712200
0.667089
0.617821
0.567617
0.518027
0.469129
0.420739
0.373035
0.326001
0.278887
0.230271
0.178421
0.122272
0.062262
-0.000329
-0.064352
-0.128400
-0.190097
-0.246429
-0.294578
-0.332116
-0.356876
-0.367702
-0.365600
-0.353756
-0.336211
-0.316358
-0.296296
-0.277195
-0.260175
-0.246609
-0.237631
-0.234201
-0.237212
-0.246301
-0.258794
-0.271051
-0.281061
-0.289086
-0.296026
-0.302399
-0.309172
-0.318808
-0.335343
-0.363361
-0.406246
-0.464916
-0.537670
-0.620003
-0.704126
-0.779854
-0.837688
-0.871953
-0.881630
-0.869271
-0.839830
-0.799808
-0.755918
-0.713378
-0.675044
-0.641760
-0.612913
-0.586443
-0.558895
-0.526478
-0.486688
-0.438984
-0.384207
-0.324001
-0.260565
-0.196028
-0.132040
-0.070313
-0.013433
0.035292
0.073109
0.098969
0.113469
0.117950
0.114083
0.104391
0.092570
0.082926
0.079541
0.085924
0.105131
0.139903
0.192393
0.263264
0.350546
0.449297
0.552781
0.654425
0.749176
0.833986
0.907674
0.970166
1.021673
1.062736
1.094670
1.119038
1.136515
1.146656
1.148872
1.143612
1.132541
1.117041
1.096181
1.066507
1.024514
0.969798
0.906156
0.840454
0.780309
0.731183
0.694319
0.666866
0.643632
0.618757
0.587007
0.545427
0.494703
0.438747
0.382647
0.330693
0.285397
0.247241
0.214866
0.185824
0.158265
0.133139
0.114809
0.108289
0.114883
0.130184
0.145845
0.153735
0.149781
0.134803
0.111870
0.083140
0.049684
0.013273
-0.023097
-0.055992
-0.082640
-0.102142
-0.115543
-0.124166
-0.128237
-0.127443
-0.122152
-0.113799
-0.104542
-0.096265
-0.089234
-0.081701
-0.071048
-0.055618
-0.036042
-0.014955
0.004838
0.021964
0.036634
0.049876
0.062054
0.071411
0.074405
0.067438
0.047895
0.014783
-0.029886
-0.080462
-0.129618
-0.171812
-0.205644
-0.233613
-0.259756
-0.287058
-0.316454
-0.347792
-0.381307
-0.417908
-0.458242
-0.501276
-0.543279
-0.578192
-0.599665
-0.603641
-0.589839
-0.561543
-0.524245
-0.484153
-0.447332
-0.419316
-0.404375
-0.404206
-0.416865
-0.436853
-0.456358
-0.467247
-0.463269
-0.441863
-0.404556
-0.355556
-0.299886
-0.242680
-0.189495
-0.146121
-0.117348
-0.105458
-0.109040
-0.122720
-0.138389
-0.147658
-0.143924
-0.122839
-0.082493
-0.024682
0.044360
0.115710
0.180961
0.234709
0.275495
0.304982
0.325612
0.338474
0.342858
0.337324
0.321085
0.294843
0.260830
0.222074
0.181069
0.138294
0.091834
0.039149
-0.020445
-0.085236
-0.152938
-0.222841
-0.296383
-0.375830
-0.461820
-0.551479
-0.639024
-0.718763
-0.787915
-0.846914
-0.897550
-0.941209
-0.978756
-1.011639
-1.042484
-1.074361
-1.109345
-1.147316
-1.185995
-1.222436
-1.254382
-1.279518
-1.293834
-1.292145
-1.270964
-1.231184
-1.178230
-1.119383
-1.060337
-1.003353
-0.947577
-0.890667
-0.830794
-0.768139
-0.705299
-0.646153
-0.593394
-0.547016
-0.505367
-0.466868
-0.430296
-0.394432
-0.358407
-0.321950
-0.284931
-0.247217
-0.209007
-0.170831
-0.133519
-0.098687
-0.068906
-0.046643
-0.032727
-0.025813
-0.023544
-0.024558
-0.029412
-0.039708
-0.056287
-0.077555
-0.099434
-0.117699
-0.130810
-0.140732
-0.151696
-0.168373
-0.194278
-0.230853
-0.277379
-0.331341
-0.389026
-0.446092
-0.498078
-0.541430
-0.574951
-0.600253
-0.620479
-0.638403
-0.655277
-0.670680
-0.683064
-0.690704
-0.692478
-0.688222
-0.679148
-0.668272
-0.659882
-0.657953
-0.664720
-0.680072
-0.701655
-0.725538
-0.747413
-0.763744
-0.772197
-0.771447
-0.760701
-0.739315
-0.707002
-0.664440
-0.613491
-0.556835
-0.497387
-0.437824
-0.380001
-0.324103
-0.268392
-0.210329
-0.148168
-0.081969
-0.014013
0.051627
0.110702
0.160587
0.200789
0.232429
0.257852
0.280081
0.301589
0.323358
0.345269
0.367119
0.389003
0.411133
0.433453
0.454980
0.473288
0.484904
0.487113
0.480265
0.468321
0.456964
0.451094
0.453126
0.462367
0.476000
0.491228
0.506430
0.520684
0.533242
0.543885
0.553409
0.563372
0.574966
0.587724
0.599217
0.605837
0.603871
0.590938
0.567567
0.537477
0.506102
0.478599
0.458596
0.447883
0.446610
0.453386
0.464987
0.476442
0.482381
0.478831
0.464095
0.438533
0.403820
0.362254
0.316454
0.269339
0.223908
0.182633
0.146975
0.117326
0.092918
0.071624
0.050376
0.026058
-0.003843
-0.040643
-0.083713
-0.130393
-0.176937
-0.219952
-0.257606
-0.289825
-0.317127
-0.339110
-0.354189
-0.361086
-0.360943
-0.357896
-0.356973
-0.360642
-0.366875
-0.370226
-0.364864
-0.347240
-0.316837
-0.275271
-0.225166
-0.169546
-0.111530
-0.054481
-0.002479
0.039976
0.069650
0.086588
0.094667
0.099986
0.108191
0.122662
0.144381
0.172815
0.206831
0.245055
0.285557
0.325274
0.360009
0.385424
0.398630
0.399505
0.390777
0.376765
0.361728
0.348809
0.340146
0.337735
0.343510
0.358034
0.379447
0.404435
0.430270
0.455969
0.482217
0.510506
0.541854
0.575830
0.611002
0.646708
0.684011
0.723852
0.764034
0.798757
0.821317
0.827486
0.817714
0.797283
0.773807
0.753209
0.737421
0.725561
0.716788
0.711943
0.712746
0.719156
0.727224
0.729985
0.721263
0.699388
0.668186
0.634481
0.603480
0.575713
0.548012
0.516713
0.480326
0.440705
0.401772
0.366363
0.334437
0.304009
0.272653
0.238523
0.201492
0.163342
0.126144
0.090593
0.055775
0.020028
-0.017541
-0.055644
-0.091298
-0.122207
-0.148223
-0.170612
-0.191031
-0.211124
-0.231980
-0.253793
-0.276233
-0.298901
-0.321561
-0.344024
-0.365198
-0.382068
-0.390625
-0.388696
-0.377979
-0.363248
-0.349594
-0.339898
-0.334009
-0.329809
-0.325175
-0.319036
-0.310875
-0.299865
-0.284544
-0.262997
-0.233670
-0.196495
-0.153423
-0.107684
-0.062115
-0.017878
0.025204
0.067078
0.106629
0.142357
0.173438
0.200504
0.225887
0.252609
0.282341
0.313898
0.343735
0.368223
0.385962
0.398292
0.407597
0.415072
0.419964
0.420728
0.417192
0.411841
0.408634
0.410332
0.416876
0.425836
0.433624
0.436130
0.429424
0.411670
0.385239
0.356677
0.333687
0.320927
0.317649
0.318481
0.316485
0.306710
0.288280
0.263922
0.237326
0.210618
0.184054
0.157364
0.131001
0.106595
0.086625
0.073249
0.066865
0.065886
0.068250
0.072962
0.079919
0.088484
0.096470
0.100683
0.098809
0.091035
0.079838
0.068036
0.056798
0.044990
0.030271
0.011205
-0.011331
-0.034295
-0.053959
-0.068273
-0.078215
-0.086334
-0.094064
-0.100718
-0.104681
-0.105599
-0.105783
-0.108970
-0.116614
-0.125150
-0.127220
-0.116031
-0.089655
-0.052176
-0.011050
0.026600
0.055954
0.075195
0.085845
0.091721
0.096567
0.102464
0.110257
0.120658
0.134669
0.153455
0.177698
0.206593
0.237391
0.265840
0.287147
0.297524
0.296189
0.286068
0.272050
0.258548
0.248152
0.241383
0.237239
0.234147
0.230700
0.226256
0.221182
0.215875
0.209356
0.199407
0.184032
0.162556
0.135891
0.106298
0.076617
0.049001
0.023699
-0.001263
-0.028822
-0.060486
-0.094726
-0.127688
-0.155291
-0.174827
-0.185528
-0.188714
-0.187507
-0.185519
-0.185123
-0.186904
-0.190610
-0.196203
-0.203735
-0.212251
-0.219236
-0.221854
-0.219231
-0.213451
-0.208147
-0.206021
-0.207395
-0.210486
-0.212624
-0.211835
-0.208348
-0.204555
-0.202719
-0.202248
-0.199141
-0.188475
-0.167888
-0.138949
-0.105737
-0.072647
-0.042938
-0.017970
0.002528
0.018870
0.030175
0.035119
0.033821
0.028675
0.023327
0.020809
0.022444
0.027905
0.035633
0.043193
0.047905
0.047814
0.042311
0.031837
0.017111
-0.001380
-0.023258
-0.047702
-0.072962
-0.096623
-0.116864
-0.133843
-0.149522
-0.165680
-0.182188
-0.197149
-0.208230
-0.213933
-0.214365
-0.211249
-0.206976
-0.203181
-0.200104
-0.197318
-0.194634
-0.191908
-0.188346
-0.182415
-0.172177
-0.155670
-0.131608
-0.100050
-0.062384
-0.020595
0.023828
0.070445
0.118964
0.167799
0.213848
0.253787
0.285647
0.309489
0.327079
0.340884
0.352572
0.362047
0.368044
0.369547
0.366612
0.360375
0.353017
0.347222
0.344610
0.344645
0.345233
0.344021
0.339088
0.329106
0.313532
0.293156
0.270522
0.249205
0.232035
0.219830
0.211417
0.204036
0.193935
0.178013
0.155714
0.129472
0.103387
0.080640
0.060983
0.040981
0.017558
-0.008767
-0.034310
-0.055346
-0.070369
-0.079914
-0.085174
-0.087016
-0.085650
-0.080449
-0.070215
-0.054118
-0.032448
-0.006259
0.023393
0.055305
0.087323
0.116247
0.139153
0.155158
0.165831
0.173715
0.180128
0.183968
0.182132
0.171091
0.148923
0.116692
