EVENT_NAME: EMILIA_2ND_SHOCK
EVENT_ID: IT-2012-0011
EVENT_DATE_YYYYMMDD: 20120529
EVENT_TIME_HHMMSS: 070002
EVENT_LATITUDE_DEGREE: 44.8417
EVENT_LONGITUDE_DEGREE: 11.0657
EVENT_DEPTH_KM: 8.1
HYPOCENTER_REFERENCE: INGV-CNT_Seismic_Bulletin
MAGNITUDE_W: 6.0
MAGNITUDE_W_REFERENCE: RCMT-INGV
MAGNITUDE_L: 5.8
MAGNITUDE_L_REFERENCE: INGV-CNT_Seismic_Bulletin
FOCAL_MECHANISM: TF
NETWORK: IT
STATION_CODE: CRP
STATION_NAME: CARPI
STATION_LATITUDE_DEGREE: 44.782300
STATION_LONGITUDE_DEGREE: 10.870300
STATION_ELEVATION_M: 89
LOCATION: 
SENSOR_DEPTH_M: 0.0
VS30_M/S: 
SITE_CLASSIFICATION_EC8: C*
MORPHOLOGIC_CLASSIFICATION: 
EPICENTRAL_DISTANCE_KM: 16.8
EARTHQUAKE_BACKAZIMUTH_DEGREE: 66.8
DATE_TIME_FIRST_SAMPLE_YYYYMMDD_HHMMSS: 20120529_065953.000
DATE_TIME_FIRST_SAMPLE_PRECISION: seconds
SAMPLING_INTERVAL_S: 0.005000
NDATA: 27723
DURATION_S: 138.615
STREAM: HNE
UNITS: cm/s^2
INSTRUMENT: sensor = Episensor FBA ES-T [Kinemetrics] | digitizer = Etna [Kinemetrics]
INSTRUMENT_ANALOG/DIGITAL: D
INSTRUMENTAL_FREQUENCY_HZ: 
INSTRUMENTAL_DAMPING: 
FULL_SCALE_G: 
N_BIT_DIGITAL_CONVERTER: 18
PGA_CM/S^2: 117.108091
TIME_PGA_S: 19.685000
BASELINE_CORRECTION: BASELINE REMOVED
FILTER_TYPE: BUTTERWORTH
FILTER_ORDER: 2
LOW_CUT_FREQUENCY_HZ: 0.050
HIGH_CUT_FREQUENCY_HZ: 40.000
LATE/NORMAL_TRIGGERED: NT
DATABASE_VERSION: DYNA 1.0
HEADER_FORMAT: DYNA 1.2
DATA_TYPE: ACCELERATION
PROCESSING: manual (Paolucci et al., 2011)
DATA_TIMESTAMP_YYYYMMDD_HHMMSS: 20141204_103047.929
DATA_LICENSE: CC-BY3_0-IT (http://creativecommons.org/licenses/by/3.0/deed.en)
DATA_CITATION: ESM working group (2015), European Strong-Motion database, version 0.1, Network Activity 3: Networking acceleration networks and SM data users. Project NERA (www.nera-eu.org)
DATA_CREATOR: ESM working group
ORIGINAL_DATA_MEDIATOR_CITATION: Ufficio Rischio Sismico e Vulcanico del Dipartimento della Protezione Civile (http://www.protezionecivile.gov.it/)
ORIGINAL_DATA_MEDIATOR: Rete Accelerometrica Nazionale - RAN Download (http://www.mot1.it/randownload/)
ORIGINAL_DATA_CREATOR_CITATION: Italian Strong Motion Network, Italian Civil Protection Department http://www.protezionecivile.gov.it
ORIGINAL_DATA_CREATOR: network: IT (Italian Strong Motion Network); owner: Dipartimento Della Protezione Civile
USER1: /home/dyna/processing-itaca/processing.py /var/www/processing/tmp/fpacor//IT.CRP..HNE.D.20120529.070003.X.ACC.ASC /var/www/processing/tmp/fpacor//IT.CRP..HNN.D.20120529.070003.X.ACC.ASC /var/www/processing/tmp/fpacor//IT.CRP..HNZ.D.20120529.070003.X.ACC.ASC --tmp /var/www/processing/tmp/fpacor/ --le 0.050 --he 40.000 --ln 0.050 --hn 40.000 --lz 0.050 --hz 40.000 --fo 2 --ca -10 --cz 40 --ta 5 --tz 5 --mf 1 --rf 0 --tr NT
USER2: 
USER3: 
USER4: 
USER5: 
[...]
-0.012545
-0.008450
-0.005466
-0.008735
-0.011837
-0.010270
-0.009192
-0.011365
-0.010071
-0.003315
-0.000886
-0.007193
-0.012196
-0.008709
-0.003383
-0.002179
0.000076
0.006290
0.007505
-0.000921
-0.007957
-0.004710
0.001022
-0.000829
-0.006209
-0.006861
-0.006323
-0.010905
-0.015000
-0.011992
-0.008451
-0.011636
-0.015506
-0.013126
-0.009059
-0.008733
-0.008812
-0.006679
-0.007562
-0.012194
-0.009996
0.002903
0.013399
0.011093
0.002567
-0.002824
-0.006536
-0.011810
-0.012766
-0.004739
0.002643
-0.002359
-0.014538
-0.019680
-0.016450
-0.013451
-0.010652
-0.003410
0.002926
0.000214
-0.007782
-0.011510
-0.009972
-0.007435
-0.002823
0.005739
0.011137
0.005545
-0.005613
-0.011093
-0.009373
-0.006529
-0.004125
0.000643
0.003800
-0.002451
-0.013526
-0.016438
-0.011195
-0.009296
-0.012179
-0.011046
-0.006117
-0.006427
-0.011015
-0.009926
-0.003872
-0.002003
-0.002949
0.001077
0.007009
0.006448
0.002111
0.001455
0.000954
-0.005735
-0.011636
-0.006579
0.002711
0.002245
-0.004911
-0.006302
-0.004769
-0.011149
-0.020483
-0.019740
-0.012236
-0.010171
-0.010217
-0.002112
0.007809
0.007108
0.000174
-0.000524
0.004139
0.003647
-0.003083
-0.007548
-0.008191
-0.009988
-0.010492
-0.005104
-0.000365
-0.003858
-0.009142
-0.006342
0.001864
0.007115
0.009144
0.012838
0.016654
0.014209
0.007124
0.003648
0.004306
0.003072
-0.000299
-0.003458
-0.010669
-0.022469
-0.024957
-0.011012
-0.000216
-0.009832
-0.019409
0.001998
0.045271
0.076092
0.085045
0.080727
0.057777
0.016898
-0.007264
0.024941
0.104986
0.161015
0.116604
-0.007003
-0.083682
-0.037546
0.045327
0.039705
-0.048513
-0.108828
-0.052439
0.120924
0.297323
0.297666
0.051136
-0.291922
-0.484106
-0.398155
-0.111666
0.172198
0.286345
0.226391
0.119774
0.073920
0.107513
0.209079
0.321144
0.274825
-0.035020
-0.390163
-0.421043
-0.082697
0.266034
0.298376
0.071474
-0.073197
0.115535
0.503938
0.669987
0.357572
-0.228381
-0.650649
-0.668766
-0.354336
0.081129
0.396138
0.395664
0.139369
-0.030545
0.120775
0.392990
0.394940
0.065121
-0.253684
-0.284567
-0.139502
-0.073635
-0.136130
-0.228169
-0.321533
-0.406112
-0.360266
-0.122932
0.105503
0.108123
0.027115
0.197092
0.620420
0.876622
0.582732
-0.206150
-1.024410
-1.320478
-0.843967
0.133132
1.000461
1.292048
0.961757
0.266715
-0.412527
-0.709670
-0.534479
-0.205981
-0.102377
-0.238774
-0.371725
-0.350259
-0.166395
0.138858
0.431944
0.510194
0.286414
-0.143817
-0.595184
-0.828200
-0.596124
0.110765
0.880085
1.161197
0.803382
0.164986
-0.348084
-0.656783
-0.822303
-0.729021
-0.234222
0.476111
0.965574
0.974582
0.618177
0.185136
-0.166737
-0.484645
-0.796698
-0.919850
-0.632613
-0.007023
0.572240
0.746886
0.495636
0.114876
-0.087684
-0.072864
-0.036969
-0.133497
-0.282905
-0.288209
-0.099582
0.167843
0.467724
0.820935
1.024099
0.655844
-0.414567
-1.620293
-2.032943
-1.240350
0.210313
1.349294
1.639284
1.237940
0.616082
0.071684
-0.403212
-0.849999
-1.094499
-0.914826
-0.378424
0.165074
0.449627
0.527593
0.548720
0.433133
0.001311
-0.615718
-0.998168
-0.935933
-0.649888
-0.408912
-0.152850
0.337705
1.038553
1.605342
1.647325
1.054066
0.148308
-0.527570
-0.689823
-0.497910
-0.232736
0.003204
0.240920
0.502133
0.681837
0.530846
-0.022489
-0.549984
-0.488502
0.128511
0.612296
0.381638
-0.383908
-0.935848
-0.697108
0.261280
1.331879
1.803185
1.332165
0.252891
-0.612560
-0.673567
-0.115918
0.396621
0.459504
0.185843
-0.115441
-0.265955
-0.283056
-0.263113
-0.208009
-0.023121
0.263892
0.421150
0.288815
0.035445
-0.049865
0.057725
0.178158
0.288374
0.503918
0.690615
0.450194
-0.319262
-1.089927
-1.193629
-0.551427
0.293960
0.821925
0.970980
0.884147
0.525559
-0.173444
-0.972830
-1.444316
-1.378237
-0.911047
-0.353143
0.010938
0.100416
0.110466
0.277243
0.545287
0.644313
0.480426
0.216785
-0.002082
-0.164697
-0.259213
-0.217185
-0.038737
0.103960
0.025367
-0.174691
-0.162072
0.144728
0.350276
0.106745
-0.325825
-0.412409
-0.118077
0.036964
-0.290943
-0.748580
-0.633358
0.280639
1.385016
1.791122
1.190310
0.104578
-0.629706
-0.565401
0.066962
0.675815
0.876288
0.715174
0.452312
0.351574
0.594188
1.045137
1.175393
0.544008
-0.720416
-1.997037
-2.459074
-1.423779
0.999697
3.522256
4.342080
2.618908
-0.463864
-2.413477
-1.775883
0.325223
1.433275
0.404579
-1.580241
-2.538829
-1.715749
0.131749
1.958070
3.191020
3.420904
2.304106
0.219867
-1.478310
-1.501445
-0.060798
1.197481
1.089197
0.209059
-0.176057
0.119884
0.261174
-0.281679
-1.032235
-1.023358
0.024265
1.018334
0.464391
-1.550489
-2.887355
-1.615658
1.368855
2.880077
1.015206
-2.527948
-4.258155
-2.498705
1.167480
3.705837
3.581719
1.796546
0.210151
-0.386128
-0.237449
0.352577
1.084398
1.261759
0.270708
-1.463785
-2.422124
-1.145755
2.267702
5.585871
5.851833
2.231796
-2.662041
-5.119046
-3.933162
-0.972758
1.410149
2.319745
1.942868
0.906303
0.208436
0.355582
0.435593
-0.763188
-2.825962
-3.988293
-3.227982
-1.215161
0.792448
2.210521
2.907366
2.420426
0.483319
-1.757793
-2.250069
-0.239363
2.658661
3.994477
2.828277
0.452309
-0.928115
-0.128218
2.148372
3.947623
3.428426
0.265375
-3.708927
-5.783674
-4.725559
-1.513334
2.000653
4.335801
4.555889
2.397456
-1.250307
-4.443517
-5.240842
-2.977945
1.082586
4.285008
4.405286
1.569380
-1.755915
-2.969942
-1.569522
0.617982
1.266780
-0.164831
-1.977860
-2.230829
-0.801768
0.863469
1.409629
0.539519
-0.977768
-1.871736
-1.467776
-0.314876
0.591596
0.845123
0.612306
0.243610
0.195415
0.662673
1.025826
0.278595
-1.628364
-3.298846
-3.154160
-1.047354
1.458995
2.361968
1.019595
-1.183286
-2.229246
-1.586264
-0.583564
-0.510095
-0.852283
-0.044793
2.222849
4.248855
4.224314
2.349779
0.375043
-0.628870
-1.061459
-1.387480
-1.048508
0.655124
3.136830
4.665729
4.029141
1.765077
-0.391768
-1.182189
-0.870406
-0.618723
-0.955944
-1.234367
-0.613955
0.948898
2.833260
4.359485
4.905477
3.771912
0.780956
-2.797284
-4.834670
-4.331739
-2.127113
0.561255
3.240151
5.364049
5.719615
3.489906
-0.644521
-4.753095
-6.808865
-6.143194
-3.932212
-1.669435
0.369497
2.384084
3.686252
3.202075
1.037585
-1.091084
-1.350983
0.149765
1.381675
0.898829
-0.378870
-0.484174
1.038677
2.687157
3.043194
2.316657
1.333337
-0.029746
-2.307756
-4.906095
-6.130714
-4.650516
-0.608973
4.225553
7.151997
6.139397
1.588108
-3.511491
-5.815802
-4.380131
-0.979893
2.194564
4.412003
5.731620
5.615344
3.484680
0.208863
-2.175151
-2.259282
-0.363898
1.834066
2.495122
0.976756
-1.487507
-2.760226
-1.750917
0.746206
2.842272
2.819801
0.418105
-2.482915
-3.318909
-1.566695
0.772304
1.639910
0.918548
-0.152044
-0.458681
0.344804
1.794082
2.965275
3.281850
2.921708
2.468294
2.480779
3.007946
3.122523
1.614651
-1.349614
-3.871742
-4.050027
-1.722876
1.550265
3.871192
4.339694
3.234057
1.300639
-0.559470
-1.239115
-0.157619
1.783175
2.727148
1.638773
-0.748401
-2.815450
-3.458220
-2.539824
-0.797184
0.283261
-0.585294
-2.994213
-4.884803
-4.573014
-2.350565
0.137436
1.637451
2.031887
1.816130
1.644078
2.136975
3.151632
3.449289
2.054450
-0.400799
-2.461122
-3.363881
-3.045670
-1.436415
1.161975
3.347346
3.367051
0.878202
-2.438404
-4.132209
-2.809938
0.942151
5.111339
7.617946
7.188007
3.748368
-0.871570
-3.157281
-0.748120
4.507724
7.776008
6.080253
1.106390
-2.953519
-3.565323
-1.611794
0.348834
0.788824
0.089023
-0.621089
-0.864851
-0.933848
-0.855642
0.220112
2.999375
6.344988
7.419704
4.427684
-0.967729
-4.854974
-4.854069
-2.043703
0.761585
1.579355
0.254937
-1.665258
-2.058629
-0.349150
1.598273
1.266254
-1.918565
-5.673754
-6.489441
-2.820593
2.978772
6.494628
5.420946
1.488810
-1.725727
-2.212433
-0.795778
0.203893
-0.733731
-2.997761
-4.359197
-2.775743
1.761455
6.694455
8.621788
6.276673
1.745491
-1.671492
-2.602322
-2.216190
-2.017885
-1.819645
-0.270346
3.077269
6.806182
8.481355
6.270050
0.633844
-5.168917
-7.388206
-5.306511
-1.836672
-0.168848
-0.307166
0.359522
3.039507
5.211623
3.463009
-1.838918
-6.357932
-6.651026
-3.693368
-0.803797
0.246113
-0.103226
-0.675585
-0.283470
1.726312
4.568370
6.374749
5.820920
3.101529
-0.360570
-2.937538
-4.011541
-4.173413
-3.756441
-1.778260
2.394084
6.711039
7.553648
3.570267
-2.594595
-6.446205
-5.108848
0.480986
6.125067
7.721683
4.520602
-0.853260
-4.885801
-5.447884
-2.779564
0.823951
2.916590
3.165398
3.170602
3.893083
4.435995
3.877680
3.056736
3.388089
4.481125
4.197277
1.316872
-2.578271
-4.405589
-2.570747
1.558741
4.798901
4.705444
1.709380
-1.253064
-1.932992
-1.174157
-1.280544
-2.737653
-3.782773
-2.773862
0.206887
3.866430
6.643143
7.141974
4.814176
0.717812
-2.988422
-4.712935
-4.385103
-2.867685
-1.162490
-0.368063
-1.331105
-3.444812
-4.446095
-2.506874
1.482690
4.494928
4.439261
2.096479
-0.162104
-0.840626
-0.079780
1.230177
2.109047
1.656003
-0.352094
-2.913266
-4.373928
-3.738478
-1.415640
1.285069
3.287055
4.173928
3.744204
2.091638
0.378002
0.363297
2.455565
4.938223
5.689941
4.268766
1.914144
-0.070575
-1.166462
-1.047284
0.631458
3.286564
5.214707
5.208749
3.928306
3.014042
3.117689
3.425380
2.919319
1.479128
-0.097066
-0.687708
0.296919
2.194219
3.220246
1.769529
-1.841329
-5.065610
-5.305074
-2.419517
1.283960
3.100414
1.802700
-1.580069
-4.422916
-4.541525
-1.891807
1.867532
5.234499
7.784938
9.341320
9.128047
6.629034
3.070957
0.894666
1.240940
2.771901
3.441100
2.587796
0.904671
-0.659672
-1.358328
-0.737088
1.032769
2.954544
3.664256
2.556943
0.631842
-0.229409
0.793897
2.512516
3.249739
3.047896
3.454223
5.202671
7.162966
7.812286
6.957636
5.641019
4.871760
4.919115
5.464159
5.765789
4.822830
2.134794
-1.504147
-4.481304
-5.800602
-5.530031
-3.873481
-0.795851
3.153184
6.424706
7.295595
5.095655
0.826623
-3.279223
-5.094755
-3.983789
-1.255780
0.584555
-0.556187
-4.762990
-9.983007
-13.816328
-15.443179
-15.937267
-17.345201
-21.372009
-27.918592
-34.602791
-38.408772
-37.996655
-34.064140
-27.843945
-19.971313
-10.746369
-1.097107
6.957544
11.285012
11.471247
9.344817
7.216062
5.694163
3.392041
-1.358312
-8.574741
-16.318056
-22.026621
-23.888584
-21.375570
-15.409693
-8.203337
-2.304500
0.855809
2.199463
4.840977
11.670038
22.656334
34.772350
44.352779
49.368587
49.802856
46.706398
41.653599
36.603851
32.939396
30.220270
26.532093
20.301628
11.506028
1.462517
-8.006988
-15.489778
-20.720686
-24.597738
-28.353853
-32.637962
-37.082104
-40.574657
-42.188683
-41.641804
-38.813797
-33.679367
-26.985620
-20.103186
-13.763439
-7.617601
-1.205165
5.532654
12.659666
20.148926
27.385965
33.438465
37.820927
40.608170
41.814678
41.209171
38.797211
34.776722
29.170786
22.353378
15.648633
10.533148
7.225237
4.541437
1.065328
-3.880646
-9.878001
-15.464426
-19.227051
-21.284632
-22.913839
-24.469454
-24.609791
-21.988401
-16.905842
-10.777530
-4.772278
0.321847
3.625915
4.633772
4.182472
4.215425
6.159228
9.933390
14.721433
19.970263
25.134159
29.026394
30.204048
28.017769
23.065369
16.856527
11.224171
7.528529
5.791383
4.483344
1.344054
-4.920813
-13.134052
-20.135502
-23.317736
-22.775974
-20.884060
-20.033281
-21.017208
-22.851768
-23.183413
-19.326900
-10.410649
1.072992
10.726382
15.670433
16.553768
16.431728
17.559731
19.186405
18.710478
14.746697
8.679288
3.633189
2.350590
5.581881
11.843557
18.502342
23.287640
25.195677
24.346716
21.336557
16.850536
11.600586
6.295681
1.523242
-2.196255
-4.160155
-3.840434
-1.675793
1.100162
3.452044
4.776740
4.279773
1.315948
-3.022480
-5.777985
-4.560081
0.377066
6.861036
12.929809
17.727962
20.788521
21.213776
18.089659
11.698378
3.754359
-3.750188
-9.616955
-13.453567
-15.208174
-15.045823
-13.522208
-11.516586
-9.693371
-8.189810
-7.223705
-7.923277
-12.495347
-23.416010
-41.367657
-63.376854
-83.841850
-97.987411
-104.226830
-103.879440
-99.624527
-93.897667
-87.843788
-81.517303
-74.930756
-68.648445
-63.608440
-60.908173
-61.536880
-65.563103
-71.618294
-77.789871
-83.060638
-87.511543
-91.185425
-93.115196
-91.678543
-85.817612
-75.633614
-61.987587
-46.121250
-29.745970
-14.978389
-3.670617
3.262593
5.743343
4.150088
-0.537655
-6.536611
-11.765782
-14.888324
-15.956441
-15.724565
-14.283563
-10.976045
-5.873035
-0.941910
0.816373
-2.002746
-7.492535
-11.889229
-12.658794
-9.755425
-4.314885
2.799138
10.887975
18.863844
25.967079
33.000843
41.909569
53.836227
67.975349
82.353233
95.293404
105.876701
113.407059
117.108093
116.268959
110.079498
97.670654
79.437798
58.373360
39.217434
25.895845
19.655382
19.217426
22.250671
26.553230
30.154160
31.153543
28.341841
22.167309
14.739794
8.506781
4.723652
3.067320
2.508879
2.340712
2.424592
2.904102
4.224977
7.509927
14.182480
24.555075
36.927387
48.263847
55.809078
58.423603
57.058784
54.410275
53.427711
55.234180
58.538498
61.031303
60.941837
57.567017
51.089249
42.209839
32.072659
22.476717
15.319163
11.348812
10.029933
10.678147
13.176752
17.562012
23.155771
28.391129
31.963619
33.882599
34.615330
33.547916
29.150850
20.774426
9.814892
-1.107671
-9.484771
-13.530413
-12.852176
-8.930854
-4.358270
-1.392686
-0.983273
-2.702030
-5.583830
-9.200471
-13.819980
-19.600725
-25.790125
-30.680571
-32.509483
-30.649900
-26.179495
-21.411585
-18.704615
-19.408003
-23.392128
-29.188843
-34.617374
-37.637833
-37.192074
-33.733589
-29.157858
-25.570938
-23.366375
-20.951435
-16.800276
-11.285703
-6.223938
-3.257685
-3.160666
-5.917568
-10.701681
-16.074268
-20.274733
-21.214542
-17.087090
-7.770149
4.763439
17.700556
28.835606
37.224735
43.080704
47.015049
49.286789
49.909351
49.200642
47.701145
45.611950
42.717365
39.014187
35.323223
32.846703
31.769445
30.513834
26.702744
19.037943
8.363076
-2.995113
-12.857654
-20.421326
-26.383577
-31.988659
-37.502182
-41.598713
-42.703106
-40.745041
-37.341339
-34.642620
-34.191830
-36.401276
-40.425911
-44.432457
-46.439289
-45.256317
-40.826183
-33.909222
-25.663719
-17.389746
-10.316289
-5.376977
-2.880254
-2.372324
-3.032973
-4.224762
-5.719000
-7.510822
-9.689791
-12.579879
-16.621126
-21.957895
-28.125072
-34.098320
-38.640064
-40.494511
-38.661476
-33.117298
-25.348059
-17.839659
-12.718705
-10.899832
-12.461083
-17.187584
-24.111004
-30.951445
-34.991833
-34.590054
-29.878639
-22.576023
-15.110927
-9.324529
-5.486491
-2.638567
-0.153583
1.322934
0.603952
-2.550358
-6.873626
-10.901796
-14.737293
-19.649317
-25.573397
-29.942480
-29.850424
-24.927731
-17.391985
-9.756332
-3.190435
2.621041
8.853656
16.399733
24.995964
33.505371
40.980705
47.249065
52.384014
56.130402
58.262486
59.119766
59.430695
59.854057
60.841568
62.666653
65.478241
69.260429
73.548103
77.394798
80.010696
81.339401
81.559822
80.201149
76.409187
70.074837
62.342285
54.787651
48.062164
41.620510
34.770630
27.516560
20.274691
13.515762
8.003941
4.518109
3.006957
2.607757
2.755588
3.794671
5.930856
8.049714
8.183118
4.863738
-2.167247
-12.232585
-24.030638
-35.477360
-44.087200
-48.296146
-48.205814
-44.672363
-38.135269
-28.667591
-16.632124
-2.997035
10.735996
22.732981
31.295624
35.629097
36.040524
33.188362
27.116995
17.273626
4.119588
-9.676066
-20.682314
-27.247381
-30.230219
-31.698099
-33.638355
-37.588787
-44.162865
-52.333469
-59.684807
-64.053757
-65.331657
-65.533653
-66.793800
-69.400520
-71.880577
-72.645866
-71.482727
-69.594170
-68.039742
-66.425911
-63.674206
-59.651485
-55.341076
-51.658737
-48.692932
-45.976543
-42.995510
-39.424320
-35.128189
-30.105150
-24.655479
-19.595640
-15.834654
-13.439496
-11.670895
-10.440750
-10.912734
-14.048081
-19.421713
-25.752310
-31.714691
-36.214626
-38.716595
-39.481125
-38.982819
-36.981010
-32.666847
-26.109327
-19.328413
-15.307048
-15.527893
-18.582956
-21.297749
-20.958670
-16.437712
-8.045215
2.700624
13.409064
21.911448
27.368038
30.247725
31.578875
32.414227
33.396976
34.356651
34.414627
32.658272
29.259457
26.092644
25.468637
27.887556
31.161470
31.641178
26.464243
15.408839
1.369576
-11.024988
-18.076185
-19.184349
-16.865498
-14.527266
-13.734176
-13.264388
-10.807894
-5.485327
1.439880
7.809605
12.034682
13.782437
13.949222
14.193792
16.131004
20.405565
26.164381
31.392700
34.203331
34.129787
31.958557
28.329395
23.197777
16.819733
10.337141
5.205194
2.613391
2.973832
5.375696
7.890840
8.686251
7.061725
3.832311
0.580063
-1.914789
-4.496037
-8.632745
-14.572041
-20.693762
-24.781067
-25.712849
-23.937384
-20.863878
-18.187403
-17.401896
-19.097462
-22.339693
-25.254242
-26.725561
-27.193138
-27.603170
-28.413300
-29.914879
-32.327122
-34.884537
-35.609840
-32.650440
-25.980974
-18.026611
-12.386742
-11.296079
-14.240350
-19.110542
-24.086107
-27.810303
-28.424984
-23.881554
-13.703353
-0.067293
13.197439
23.095730
29.385403
34.163860
39.350803
44.408325
46.922745
45.531288
41.452972
36.913719
32.982437
29.341812
25.508938
21.623558
18.286688
16.339525
16.613199
19.304604
23.728128
28.571117
32.179012
33.420341
32.885029
32.718979
34.676502
38.264133
41.168880
41.609997
39.980194
38.324741
38.560974
41.267002
45.877434
51.436985
57.127609
62.390240
66.374947
67.426781
63.756702
54.746086
41.448158
25.923281
10.098998
-5.059880
-19.577162
-33.600723
-46.594807
-57.704483
-66.614044
-73.465263
-77.989342
-79.169724
-75.938965
-68.107803
-56.835312
-44.476200
-33.497334
-25.170523
-19.467161
-15.633763
-12.418967
-8.706650
-4.552310
-1.331658
-0.921378
-4.405414
-11.046619
-18.778011
-25.806431
-31.632612
-36.836510
-41.982819
-46.343884
-47.726715
-44.282421
-36.554386
-27.224987
-19.077490
-13.724486
-11.791224
-13.043452
-16.214687
-19.472881
-21.073175
-19.689344
-14.954255
-7.977382
-0.693198
5.544114
10.351819
13.811423
16.207458
17.779358
18.331381
17.392094
14.885192
11.436483
8.119631
