EVENT_NAME: EMILIA_2ND_SHOCK
EVENT_ID: IT-2012-0011
EVENT_DATE_YYYYMMDD: 20120529
EVENT_TIME_HHMMSS: 070002
EVENT_LATITUDE_DEGREE: 44.8417
EVENT_LONGITUDE_DEGREE: 11.0657
EVENT_DEPTH_KM: 8.1
HYPOCENTER_REFERENCE: INGV-CNT_Seismic_Bulletin
MAGNITUDE_W: 6.0
MAGNITUDE_W_REFERENCE: RCMT-INGV
MAGNITUDE_L: 5.8
MAGNITUDE_L_REFERENCE: INGV-CNT_Seismic_Bulletin
FOCAL_MECHANISM: TF
NETWORK: IT
STATION_CODE: CNT
STATION_NAME: CENTO
STATION_LATITUDE_DEGREE: 44.723400
STATION_LONGITUDE_DEGREE: 11.286700
STATION_ELEVATION_M: 68
LOCATION: 
SENSOR_DEPTH_M: 0.0
VS30_M/S: 
SITE_CLASSIFICATION_EC8: C*
MORPHOLOGIC_CLASSIFICATION: 
EPICENTRAL_DISTANCE_KM: 21.9
EARTHQUAKE_BACKAZIMUTH_DEGREE: 307.0
DATE_TIME_FIRST_SAMPLE_YYYYMMDD_HHMMSS: 20120529_065953.000
DATE_TIME_FIRST_SAMPLE_PRECISION: seconds
SAMPLING_INTERVAL_S: 0.005000
NDATA: 27600
DURATION_S: 138.000
STREAM: HNN
UNITS: cm/s^2
INSTRUMENT: sensor = Episensor FBA ES-T [Kinemetrics] | digitizer = Etna [Kinemetrics]
INSTRUMENT_ANALOG/DIGITAL: D
INSTRUMENTAL_FREQUENCY_HZ: 
INSTRUMENTAL_DAMPING: 
FULL_SCALE_G: 
N_BIT_DIGITAL_CONVERTER: 18
PGA_CM/S^2: -294.134379
TIME_PGA_S: 23.295000
BASELINE_CORRECTION: BASELINE REMOVED
FILTER_TYPE: BUTTERWORTH
FILTER_ORDER: 2
LOW_CUT_FREQUENCY_HZ: 0.070
HIGH_CUT_FREQUENCY_HZ: 40.000
LATE/NORMAL_TRIGGERED: NT
DATABASE_VERSION: DYNA 1.0
HEADER_FORMAT: DYNA 1.2
DATA_TYPE: ACCELERATION
PROCESSING: manual (Paolucci et al., 2011)
DATA_TIMESTAMP_YYYYMMDD_HHMMSS: 20141204_102759.333
DATA_LICENSE: CC-BY3_0-IT (http://creativecommons.org/licenses/by/3.0/deed.en)
DATA_CITATION: ESM working group (2015), European Strong-Motion database, version 0.1, Network Activity 3: Networking acceleration networks and SM data users. Project NERA (www.nera-eu.org)
DATA_CREATOR: ESM working group
ORIGINAL_DATA_MEDIATOR_CITATION: Ufficio Rischio Sismico e Vulcanico del Dipartimento della Protezione Civile (http://www.protezionecivile.gov.it/)
ORIGINAL_DATA_MEDIATOR: Rete Accelerometrica Nazionale - RAN Download (http://www.mot1.it/randownload/)
ORIGINAL_DATA_CREATOR_CITATION: Italian Strong Motion Network, Italian Civil Protection Department http://www.protezionecivile.gov.it
ORIGINAL_DATA_CREATOR: network: IT (Italian Strong Motion Network); owner: Dipartimento Della Protezione Civile
USER1: /home/dyna/processing-itaca/processing.py /var/www/processing/tmp/fpacor//IT.CNT..HNE.D.20120529.070003.X.ACC.ASC /var/www/processing/tmp/fpacor//IT.CNT..HNN.D.20120529.070003.X.ACC.ASC /var/www/processing/tmp/fpacor//IT.CNT..HNZ.D.20120529.070003.X.ACC.ASC --tmp /var/www/processing/tmp/fpacor/ --le 0.070 --he 40.000 --ln 0.070 --hn 40.000 --lz 0.070 --hz 40.000 --fo 2 --ca -10 --cz 30 --ta 5 --tz 5 --mf 1 --rf 0 --tr NT
USER2: 
USER3: 
USER4: 
USER5: 
[...]
-0.420500
-1.315812
-1.636291
-1.559800
-1.343404
-1.071166
-0.680425
-0.127263
0.524062
1.090712
1.331124
1.145795
0.769183
0.646095
0.992859
1.467873
1.391873
0.416270
-1.046079
-2.143544
-2.352916
-1.885062
-1.328155
-0.977289
-0.619651
0.061581
1.037939
1.926037
2.291301
1.911429
0.865379
-0.515211
-1.793059
-2.613217
-2.825907
-2.473878
-1.672561
-0.515962
0.848071
2.057510
2.595105
2.152306
0.949991
-0.337414
-1.012982
-0.835158
-0.180024
0.329176
0.448619
0.509551
0.882939
1.344295
1.194336
0.054565
-1.595798
-2.757695
-2.756786
-1.744622
-0.469656
0.357314
0.576152
0.610825
0.980554
1.727298
2.350044
2.296335
1.469174
0.263182
-0.813764
-1.504822
-1.857878
-2.026242
-2.046425
-1.769606
-1.028099
0.056393
0.995432
1.327052
1.077615
0.702086
0.558348
0.544493
0.299074
-0.317919
-1.015516
-1.306265
-0.916164
-0.015417
0.900074
1.374342
1.298489
0.889731
0.416486
0.011519
-0.270307
-0.322529
-0.033995
0.503555
0.957355
1.012645
0.620223
-0.012014
-0.605460
-0.987591
-1.114195
-0.939337
-0.336431
0.738207
1.961605
2.625297
2.074950
0.280694
-2.030777
-3.861427
-4.596216
-4.242007
-3.191373
-1.896255
-0.665275
0.428921
1.429078
2.174770
2.251503
1.471483
0.286255
-0.498255
-0.379083
0.537899
1.775091
2.886014
3.583656
3.591941
2.624159
0.671172
-1.734610
-3.666318
-4.339911
-3.648097
-2.217416
-0.859784
0.098764
0.950037
2.083852
3.370971
4.116877
3.687812
2.186908
0.452782
-0.667775
-1.051850
-1.303940
-2.038995
-3.150492
-3.804767
-3.225575
-1.501357
0.410030
1.457899
1.316998
0.579103
0.167774
0.455883
0.936241
0.817392
-0.092570
-1.162809
-1.542724
-0.920830
0.255449
1.226875
1.525742
1.139327
0.296483
-0.661963
-1.303994
-1.311504
-0.788464
-0.249481
-0.174550
-0.566181
-0.974658
-0.931863
-0.331253
0.558750
1.364462
1.893471
2.203018
2.392108
2.363222
1.854568
0.700827
-0.962568
-2.690278
-3.861684
-3.937396
-2.798338
-0.916225
0.886319
1.954628
2.215882
2.142854
2.156708
1.980537
0.869200
-1.317437
-3.552350
-4.405344
-3.270061
-0.819836
1.563921
2.794038
2.694465
1.805568
0.722836
-0.315748
-1.291681
-2.059813
-2.294973
-1.784660
-0.705986
0.393714
0.905368
0.548930
-0.417269
-1.305863
-1.377083
-0.308185
1.520206
3.207405
3.971167
3.724335
2.993816
2.247030
1.378316
-0.032874
-1.974982
-3.724472
-4.446791
-3.928950
-2.599148
-0.998292
0.566142
1.916611
2.813320
3.025578
2.562359
1.733408
0.947133
0.454988
0.234751
0.034767
-0.408741
-1.058141
-1.532144
-1.536554
-1.278992
-1.295407
-1.882519
-2.747997
-3.162441
-2.522111
-0.952661
0.661863
1.452566
1.401922
1.289051
1.794564
2.730950
3.167298
2.282585
0.103458
-2.494706
-4.369506
-4.697722
-3.265801
-0.576882
2.253276
4.099201
4.659583
4.554666
4.379268
3.818022
2.024101
-1.070106
-4.116894
-5.357756
-4.276364
-2.057804
-0.426778
-0.187835
-0.791969
-1.062028
-0.307238
1.111247
2.214451
2.396730
1.990477
1.862867
2.487179
3.413560
3.640976
2.531790
0.369229
-1.964571
-3.710109
-4.547708
-4.455447
-3.562207
-2.110847
-0.410299
1.177486
2.201032
2.214890
1.107805
-0.635560
-2.189311
-2.998368
-3.019791
-2.373759
-1.043404
0.870602
2.752383
3.682163
3.230897
1.944590
0.884221
0.713521
1.312564
2.080450
2.326999
1.590260
0.098739
-1.125247
-1.128875
-0.086420
0.750255
0.231122
-1.524241
-3.128929
-3.229030
-1.802443
-0.074382
0.789592
0.775163
0.789151
1.480757
2.428467
2.494232
0.963689
-1.652580
-3.947581
-4.719629
-3.781463
-1.874194
0.005825
1.221128
1.713948
1.896190
2.332820
3.263975
4.283552
4.657531
4.068628
2.938932
1.983255
1.485093
1.041343
0.075440
-1.500857
-3.284813
-4.810394
-5.690431
-5.618287
-4.674370
-3.398537
-2.057051
-0.067693
3.178460
6.833683
8.540452
6.436015
1.186328
-4.272033
-7.025641
-6.210423
-3.103468
0.342963
2.862077
4.072015
4.025154
2.992142
1.417659
-0.349911
-2.262633
-4.226637
-5.576074
-5.289695
-2.937473
0.831350
4.801945
7.874836
9.331687
8.970384
7.140857
4.392622
1.012047
-2.865704
-6.619431
-8.994074
-8.979778
-6.813957
-3.880494
-1.536753
-0.130656
0.845094
1.909015
3.081774
3.993310
4.250548
3.821268
3.251604
3.375508
4.475817
5.603221
5.014724
1.771152
-2.995890
-6.823772
-8.179980
-7.747437
-7.268632
-7.368417
-6.923617
-4.569023
-0.397600
3.950010
6.537385
6.433295
4.211368
1.394000
-0.744034
-1.917595
-2.401753
-2.099384
-0.408282
2.869440
6.674914
8.911330
7.726323
3.058963
-2.933688
-7.494185
-9.571853
-10.164340
-10.315231
-9.435466
-6.080195
-0.081682
6.527285
10.756961
10.822109
7.321793
2.644197
-0.670476
-1.458269
-0.522659
0.294364
0.047353
-0.355943
0.585241
2.827099
4.193326
2.167062
-3.541035
-10.142371
-13.571985
-11.483105
-5.074538
1.769769
5.632930
6.278358
6.075606
6.835572
7.802247
6.886379
3.283127
-1.476419
-4.729336
-4.731034
-1.893462
1.692272
4.033004
4.637940
4.260148
3.627053
2.794624
1.575600
0.142269
-0.957051
-1.305097
-1.030985
-0.512845
0.348667
2.069269
4.386205
5.546556
3.606412
-1.331675
-6.509641
-8.447244
-5.807873
-0.666572
3.185579
3.627555
1.989293
1.200042
2.363071
3.805249
3.465279
1.412036
-0.406209
-0.544136
0.366740
0.588839
-0.511058
-1.635355
-1.135553
0.720656
1.650516
-0.057992
-3.336088
-5.379213
-4.687319
-2.394112
-0.564170
0.134568
0.638595
1.835880
3.346125
3.905455
2.692365
0.360015
-1.168429
-0.224589
2.896996
5.816435
6.119792
3.682058
0.661057
-0.786704
-0.344761
0.819006
1.506062
1.297198
0.484454
-0.282114
-0.442312
0.003688
0.474287
0.460557
0.118986
-0.067814
-0.132800
-0.675318
-1.909910
-2.973283
-2.526518
-0.131753
3.176638
5.837296
6.974142
6.497218
4.602100
1.736966
-1.239505
-3.442245
-4.587980
-4.972905
-4.769127
-3.716836
-1.745846
0.439995
1.760909
1.619077
0.177254
-1.994413
-4.304529
-6.235173
-7.150325
-6.254838
-3.228471
0.973098
4.367726
5.410766
4.252936
2.394811
1.105441
0.315091
-0.944177
-3.177231
-5.657536
-7.090466
-7.042140
-6.587203
-7.369955
-9.911322
-12.861178
-14.110493
-12.745261
-9.734305
-6.564775
-3.456884
0.627851
6.158660
11.685086
14.728836
14.000697
10.463892
6.180554
2.482155
-0.509526
-2.953394
-4.503655
-4.567099
-2.978595
-0.249046
2.691399
4.945696
6.004669
5.766716
4.399904
2.508448
1.296409
1.891993
4.176204
6.649672
7.842684
7.662657
7.023628
6.384845
5.147832
2.558693
-1.046417
-4.009113
-4.369135
-1.293156
4.160779
9.497714
12.224616
11.295614
7.513361
2.772719
-1.066273
-3.002401
-3.219727
-2.731475
-2.340162
-1.806844
-0.305907
2.241467
4.598034
5.192329
3.604436
0.905796
-1.428249
-2.632553
-2.728913
-2.058481
-0.981944
0.299494
1.866548
3.836583
5.788797
6.662721
5.652710
3.242014
1.054981
0.448663
1.184786
1.568263
-0.008420
-3.584394
-7.498911
-9.628375
-8.981656
-6.350713
-3.491516
-1.738820
-1.380041
-2.035254
-3.262066
-4.787720
-6.504961
-8.476021
-10.810891
-13.400085
-15.893806
-18.032242
-19.754395
-20.748220
-20.151590
-17.188026
-12.105736
-6.104593
-0.374331
4.348710
7.293191
7.380110
3.936798
-2.430688
-9.884766
-16.153572
-19.374079
-18.763153
-14.902842
-9.192467
-2.710392
4.382201
12.205869
20.048189
26.105312
28.461189
26.487173
21.551266
16.399183
13.413559
12.911783
12.890360
10.505595
4.168523
-5.153178
-14.276094
-19.739342
-20.066017
-16.569050
-12.064828
-8.621598
-6.289826
-3.892251
-0.899523
1.710202
2.472363
1.074399
-1.245632
-2.894069
-3.207687
-2.499106
-1.357981
-0.318210
0.064591
-0.651613
-2.403384
-4.672507
-7.138335
-10.034863
-13.678084
-17.717537
-20.930824
-21.838272
-19.632795
-14.768631
-8.912597
-4.019731
-0.879822
1.498775
4.800992
9.563010
14.481608
17.618118
18.126081
16.777811
15.083086
13.963049
13.177784
12.051908
10.637414
9.905405
10.681609
12.556497
14.124810
14.370751
13.691268
13.373882
14.036715
14.955334
15.116827
14.509549
14.102542
14.649634
15.510191
14.799766
11.023594
4.568633
-2.548548
-8.353636
-12.299978
-15.177163
-17.834595
-20.032194
-20.647884
-19.101278
-16.374372
-14.455314
-14.869624
-17.720018
-21.779594
-25.248106
-26.721867
-25.969084
-23.946093
-22.017321
-21.037043
-20.796148
-20.132420
-17.914762
-14.261785
-10.756293
-9.244274
-10.118565
-11.607452
-11.006480
-7.032761
-1.045785
4.275537
7.541353
9.810897
13.108470
17.896257
22.206121
23.422209
20.822113
16.163530
11.867473
8.908176
6.562565
3.982479
1.669084
1.312767
4.320510
10.550149
18.382767
25.846169
31.552464
34.775852
35.138741
32.575920
27.563799
21.179831
14.782033
9.430937
5.463600
2.680515
0.894662
0.072149
0.018851
0.232889
0.160777
-0.435578
-1.389378
-2.384531
-3.243179
-4.004814
-4.815362
-5.824499
-7.233555
-9.228624
-11.682172
-14.117838
-16.142431
-17.786613
-19.248156
-20.298679
-20.088463
-17.658031
-12.749094
-6.215256
0.479273
6.322369
11.177789
15.036078
17.109720
16.076477
11.420215
4.452163
-2.155395
-5.954223
-6.061222
-3.293176
0.716159
4.514340
7.355792
9.166348
10.057511
9.868652
8.201705
4.799592
-0.057521
-5.356730
-9.646559
-11.821339
-11.851023
-10.734441
-9.590422
-8.811227
-8.055859
-6.816228
-4.955401
-2.796001
-0.668690
1.524413
4.130965
7.140161
9.870891
11.356513
11.006421
8.877198
5.502543
1.660944
-1.744332
-3.851232
-4.219539
-3.158474
-1.544343
-0.248557
0.261647
-0.072286
-1.095208
-2.518415
-3.778559
-4.141795
-3.263633
-1.538465
0.182403
1.328515
2.265486
3.909920
6.379975
8.371405
8.231253
5.554217
1.549390
-2.075467
-4.402136
-5.579825
-6.133976
-6.132160
-5.015297
-2.225486
2.133984
7.341730
12.600983
17.402117
21.387302
24.006207
24.564796
22.817038
19.454742
15.822740
13.001395
11.071400
9.237301
6.717672
3.540107
0.398082
-2.202743
-4.402380
-6.564507
-8.675785
-10.367027
-11.452098
-12.195270
-12.957872
-13.758299
-14.283096
-14.288954
-13.915534
-13.447803
-12.772396
-11.344617
-8.847158
-5.752330
-3.084491
-1.600004
-1.207899
-1.141674
-0.718169
-0.087796
-0.200133
-1.786866
-4.381790
-6.575667
-7.280146
-6.565452
-5.273222
-4.084745
-3.039621
-1.695354
0.455436
3.673915
7.896790
12.773335
17.702648
21.973412
25.130136
27.340307
29.235552
31.233871
33.165394
34.663433
35.723633
36.651295
37.485416
37.690983
36.503460
33.564133
29.314730
24.719809
20.393961
16.009134
10.687697
4.001041
-3.446137
-10.462973
-16.329016
-21.395103
-26.630754
-32.561344
-38.642609
-43.754044
-47.349857
-50.019733
-52.819897
-56.133305
-59.297848
-61.261776
-61.497143
-60.444565
-59.276833
-59.069996
-59.868732
-60.469109
-59.136799
-54.570320
-46.506618
-35.761669
-23.579826
-10.744986
2.680639
16.793285
31.080791
44.397667
55.872795
65.540878
73.827232
80.673225
85.451492
87.715202
87.781502
86.480774
84.626648
82.862320
81.576302
80.604317
79.349586
77.566177
75.738930
74.454903
73.631020
72.380791
69.599930
64.943970
59.090973
52.734348
45.676796
37.134705
26.589184
14.345851
1.514970
-10.498892
-20.563356
-28.191290
-33.527027
-36.974728
-39.111134
-40.935539
-43.757263
-48.632828
-55.811192
-64.607224
-73.914299
-82.984772
-91.765625
-100.479012
-108.915810
-116.263481
-121.607613
-124.421410
-124.596245
-122.244125
-117.486969
-110.325485
-100.619286
-88.017372
-72.321854
-54.420635
-36.389610
-20.260155
-6.743728
4.942556
16.155775
27.765856
39.791611
51.801628
63.633385
75.836388
89.320923
104.266853
119.352997
132.149139
140.343613
143.021942
141.068130
136.335281
130.525345
124.705101
119.388390
114.783249
110.996147
108.148903
106.337059
105.366295
104.491730
102.573746
98.740211
92.987564
86.074158
78.869690
71.736984
64.175026
55.010033
43.403477
29.784019
15.530864
1.949661
-10.271399
-20.996811
-30.400429
-38.904743
-47.293846
-56.681221
-68.257668
-82.920464
-100.842003
-121.144814
-141.914673
-160.668945
-175.254181
-184.802216
-189.905060
-191.664291
-190.691772
-187.286987
-182.228668
-176.763626
-171.823471
-167.515762
-163.326370
-158.745712
-153.735855
-148.407761
-142.076645
-133.191193
-120.468086
-103.251038
-80.567039
-51.170452
-15.576599
22.803432
59.586132
91.784302
117.912987
137.219696
150.284225
159.708099
168.434708
177.365875
185.387390
191.114426
194.006790
194.446503
193.275513
190.947083
187.175446
181.608139
174.394913
166.167892
157.749817
149.502502
141.051895
131.981415
122.419823
112.653854
102.643982
92.533386
83.207634
75.471497
68.939972
62.461552
55.439064
48.174362
40.941010
33.307396
24.617945
14.425089
1.759674
-15.435104
-38.782555
-67.215828
-97.501503
-127.516998
-158.277252
-192.054565
-228.221741
-261.319672
-284.398865
-294.134369
-291.649719
-280.355591
-264.928040
-250.335312
-239.582169
-231.836746
-223.477234
-211.862244
-197.388718
-181.954529
-166.894470
-152.262955
-137.050339
-119.826965
-99.382446
-75.513313
-49.291859
-22.070141
5.110710
31.180475
55.237450
76.897285
95.673599
110.194168
118.977699
122.478752
123.134575
121.612442
113.857285
94.884178
65.628769
33.234291
5.094051
-15.256671
-27.993135
-34.418720
-34.431465
-27.424435
-15.253308
-1.680077
10.807231
20.960972
27.270502
28.370062
22.944662
10.099442
-8.280666
-27.532591
-43.750099
-55.795544
-63.902470
-68.645889
-71.552650
-74.294029
-76.676247
-77.329185
-76.238892
-74.747803
-73.913055
-74.164726
-75.461563
-77.232559
-78.753860
-79.622238
-79.851128
-79.369125
-77.302292
-72.379669
-64.134773
-53.187626
-40.469360
-26.567732
-11.903549
3.109521
18.485106
34.613968
51.348804
67.566452
82.274635
95.487045
107.584175
118.881607
129.332169
137.697784
142.143036
142.142075
138.629913
132.473221
124.393539
115.795280
107.992813
101.555191
97.325974
96.386635
98.488434
102.197395
106.282471
109.533897
110.585419
109.475685
107.844009
106.472237
104.280762
100.409019
95.714378
91.606232
88.365601
85.189316
81.362686
76.913704
72.204994
66.751640
58.801861
47.107300
32.938084
19.356228
8.660832
1.167551
-4.033288
-8.044290
-11.841962
-16.091112
-20.852318
-25.878782
-31.189501
-37.045879
-43.573914
-50.687683
-58.197166
-65.698853
-72.672897
-78.887589
-84.415344
-89.393173
-93.940987
-98.085220
-101.665367
-104.421577
-106.224899
-107.114861
-107.211983
-106.768692
-106.000565
-104.703049
-102.391548
-98.857674
-94.273827
-88.894043
-82.971420
-76.723198
-70.109886
-62.869957
-54.924931
-46.729855
-39.251389
-33.370235
-29.042109
-25.285610
-21.149784
-16.396265
-11.377893
-6.772474
-3.005810
0.587919
5.206160
11.183262
18.088663
25.463072
32.817200
39.805267
46.690052
53.919788
61.458813
69.438896
78.515236
88.655212
98.951622
108.815971
118.036453
126.222435
133.205032
139.154587
143.897095
147.200485
149.589462
151.682877
153.020401
152.387665
148.935165
142.462906
133.145355
121.569138
108.716125
95.464523
82.276550
69.536957
57.758377
47.136395
37.297199
27.746719
18.480015
10.326233
3.467836
-4.043092
-12.613598
-19.342154
-23.567327
-27.579794
-32.459404
-38.705956
-46.628479
-55.021297
-63.005966
-71.110985
-79.768478
-89.053040
-98.950775
-108.600037
-116.472870
-121.804520
-125.109734
-127.250427
-128.521484
-128.637177
-127.329887
-124.878098
-121.910820
-118.723991
-115.015991
-110.279404
-104.363968
-97.709343
-90.761635
-83.135445
-74.016045
-63.366268
-52.190418
-41.610909
-31.890532
-22.473101
-12.834228
-2.980112
6.900571
16.615416
25.512018
32.849380
38.635483
43.180309
46.503845
48.649384
49.622143
49.092865
46.977139
43.785152
39.834755
34.895271
28.875549
21.932617
13.674567
3.398148
-8.554637
-20.667562
-30.603090
-35.088551
-32.430237
-25.356449
-17.965805
-10.979085
-2.960115
5.879566
13.803360
19.785194
23.684622
25.479139
25.706287
25.760429
26.831284
29.016870
31.781010
34.908455
38.682289
43.026611
46.925575
49.323093
50.259819
50.504955
50.446175
49.606041
46.952751
41.993446
35.576359
28.886951
21.922478
13.758724
3.939960
-7.066792
-18.247366
-28.128279
-35.259403
-39.359612
-40.856892
-39.167480
-33.355301
-24.296255
-14.486308
-5.916262
1.302791
8.383967
15.949196
22.772575
26.650459
26.609787
24.143557
21.936678
21.361980
21.692991
21.666840
20.873150
19.559046
18.174166
17.237177
17.019541
17.476418
18.303667
18.866959
18.822920
18.621969
18.633663
18.384394
17.394442
16.199793
15.877616
17.013237
19.489786
22.669006
25.477741
26.854553
26.371666
24.261419
21.061253
17.314335
13.191967
8.356103
2.444925
-4.431641
-11.926963
-19.886200
-28.243141
-36.895969
-45.760258
-54.522957
-62.612167
-69.787712
-76.191208
-81.449928
-84.510811
-84.571793
-81.313461
-74.404320
-63.773872
-50.091179
-34.433258
-18.134436
-2.967170
9.580220
19.161280
26.183714
30.958128
33.628052
34.524277
34.074715
32.758587
31.210636
29.723597
28.096855
26.364225
24.962624
24.021099
22.946981
20.888983
17.475214
13.045077
8.367899
4.259458
1.224021
-0.701377
-1.600321
-1.411022
-0.210261
1.822603
4.846112
9.166598
14.767059
21.435272
28.922918
36.692970
43.925564
49.899395
54.154652
56.328426
55.962414
52.509338
45.612507
35.521534
23.302961
10.590548
-0.841494
-9.442883
-14.409400
-15.976238
-15.010340
-12.344519
-8.388472
-3.363986
2.183552
7.612504
12.727046
17.439320
21.197838
23.208797
22.867920
19.931684
14.686214
7.846933
0.165215
-7.641785
-14.771176
-20.587000
-24.887318
-27.725065
-29.259628
-29.934256
-30.454590
-31.328632
-32.526402
-33.618000
-33.967171
-32.793652
-29.526169
-24.299612
-17.935698
-11.526282
-6.049867
-2.058201
0.334770
1.135024
0.301825
-2.034198
-5.300469
-8.687796
-11.686465
-14.235644
-16.333633
-17.722034
-18.190121
-18.156813
-18.574915
-20.075077
-22.349918
-24.350029
-25.121031
-24.655392
-23.833929
-23.477369
-23.518269
-23.051083
-21.196539
-17.774996
-13.110351
-7.557291
-1.374448
5.187625
11.927730
18.710581
25.207924
30.896790
35.559067
39.423573
42.690369
45.379890
47.589699
49.365658
50.586086
51.308083
51.812450
52.229202
52.431164
52.194527
51.313210
49.781708
47.895664
45.914597
43.748329
