EVENT_NAME: EMILIA_2ND_SHOCK
EVENT_ID: IT-2012-0011
EVENT_DATE_YYYYMMDD: 20120529
EVENT_TIME_HHMMSS: 070002
EVENT_LATITUDE_DEGREE: 44.8417
EVENT_LONGITUDE_DEGREE: 11.0657
EVENT_DEPTH_KM: 8.1
HYPOCENTER_REFERENCE: INGV-CNT_Seismic_Bulletin
MAGNITUDE_W: 6.0
MAGNITUDE_W_REFERENCE: RCMT-INGV
MAGNITUDE_L: 5.8
MAGNITUDE_L_REFERENCE: INGV-CNT_Seismic_Bulletin
FOCAL_MECHANISM: TF
NETWORK: IT
STATION_CODE: CAS0
STATION_NAME: CASTELMASSA
STATION_LATITUDE_DEGREE: 45.025000
STATION_LONGITUDE_DEGREE: 11.311000
STATION_ELEVATION_M: 65
LOCATION: 
SENSOR_DEPTH_M: 0.0
VS30_M/S: 
SITE_CLASSIFICATION_EC8: C*
MORPHOLOGIC_CLASSIFICATION: 
EPICENTRAL_DISTANCE_KM: 28.1
EARTHQUAKE_BACKAZIMUTH_DEGREE: 223.6
DATE_TIME_FIRST_SAMPLE_YYYYMMDD_HHMMSS: 20120529_070003.000
DATE_TIME_FIRST_SAMPLE_PRECISION: seconds
SAMPLING_INTERVAL_S: 0.005000
NDATA: 29001
DURATION_S: 145.005
STREAM: HNZ
UNITS: cm
INSTRUMENT: sensor = Episensor FBA ES-T [Kinemetrics] | digitizer = Etna [Kinemetrics]
INSTRUMENT_ANALOG/DIGITAL: D
INSTRUMENTAL_FREQUENCY_HZ: 
INSTRUMENTAL_DAMPING: 
FULL_SCALE_G: 
N_BIT_DIGITAL_CONVERTER: 18
PGD_CM: -0.518153
TIME_PGD_S: 27.515000
BASELINE_CORRECTION: BASELINE REMOVED
FILTER_TYPE: BUTTERWORTH
FILTER_ORDER: 2
LOW_CUT_FREQUENCY_HZ: 0.060
HIGH_CUT_FREQUENCY_HZ: 35.000
LATE/NORMAL_TRIGGERED: NT
DATABASE_VERSION: DYNA 1.0
HEADER_FORMAT: DYNA 1.2
DATA_TYPE: DISPLACEMENT
PROCESSING: manual (Paolucci et al., 2011)
DATA_TIMESTAMP_YYYYMMDD_HHMMSS: 
DATA_LICENSE: CC-BY3_0-IT (http://creativecommons.org/licenses/by/3.0/deed.en)
DATA_CITATION: ESM working group (2015), European Strong-Motion database, version 0.1, Network Activity 3: Networking acceleration networks and SM data users. Project NERA (www.nera-eu.org)
DATA_CREATOR: ESM working group
ORIGINAL_DATA_MEDIATOR_CITATION: Ufficio Rischio Sismico e Vulcanico del Dipartimento della Protezione Civile (http://www.protezionecivile.gov.it/)
ORIGINAL_DATA_MEDIATOR: Rete Accelerometrica Nazionale - RAN Download (http://www.mot1.it/randownload/)
ORIGINAL_DATA_CREATOR_CITATION: Italian Strong Motion Network, Italian Civil Protection Department http://www.protezionecivile.gov.it
ORIGINAL_DATA_CREATOR: network: IT (Italian Strong Motion Network); owner: Dipartimento Della Protezione Civile
USER1: 
USER2: 
USER3: 
USER4: 
USER5: 
[...]
-2.950139e-02
-2.716223e-02
-2.484167e-02
-2.255762e-02
-2.033674e-02
-1.820842e-02
-1.619595e-02
-1.431010e-02
-1.254956e-02
-1.090545e-02
-9.363277e-03
-7.902194e-03
-6.497964e-03
-5.130060e-03
-3.785352e-03
-2.454191e-03
-1.124436e-03
2.172690e-04
1.577053e-03
2.948941e-03
4.319398e-03
5.675550e-03
7.009671e-03
8.320076e-03
9.612094e-03
1.089715e-02
1.218648e-02
1.348404e-02
1.478706e-02
1.609385e-02
1.740945e-02
1.874287e-02
2.009972e-02
2.147844e-02
2.287301e-02
2.427839e-02
2.569325e-02
2.711862e-02
2.855500e-02
3.000259e-02
3.146523e-02
3.295400e-02
3.448564e-02
3.607541e-02
3.772806e-02
3.943417e-02
4.117628e-02
4.293878e-02
4.471117e-02
4.648296e-02
4.823735e-02
4.995124e-02
5.160104e-02
5.316971e-02
5.465100e-02
5.604859e-02
5.737121e-02
5.862786e-02
5.982555e-02
6.096971e-02
6.206760e-02
6.313407e-02
6.419417e-02
6.527746e-02
6.640767e-02
6.759514e-02
6.883586e-02
7.011583e-02
7.141788e-02
7.272638e-02
7.402740e-02
7.530548e-02
7.654085e-02
7.770972e-02
7.878717e-02
7.974994e-02
8.057818e-02
8.125754e-02
8.178195e-02
8.215594e-02
8.239520e-02
8.252602e-02
8.258356e-02
8.260687e-02
8.263125e-02
8.268388e-02
8.278611e-02
8.295751e-02
8.321612e-02
8.357641e-02
8.404843e-02
8.463876e-02
8.535302e-02
8.619871e-02
8.718679e-02
8.833053e-02
8.964089e-02
9.112021e-02
9.276038e-02
9.454634e-02
9.645930e-02
9.847788e-02
1.005821e-01
1.027588e-01
1.050004e-01
1.072980e-01
1.096364e-01
1.119957e-01
1.143552e-01
1.166965e-01
1.190043e-01
1.212658e-01
1.234721e-01
1.256163e-01
1.276894e-01
1.296782e-01
1.315656e-01
1.333347e-01
1.349725e-01
1.364735e-01
1.378395e-01
1.390752e-01
1.401836e-01
1.411664e-01
1.420270e-01
1.427706e-01
1.434013e-01
1.439183e-01
1.443144e-01
1.445773e-01
1.446979e-01
1.446790e-01
1.445354e-01
1.442837e-01
1.439316e-01
1.434771e-01
1.429188e-01
1.422656e-01
1.415391e-01
1.407662e-01
1.399736e-01
1.391862e-01
1.384262e-01
1.377111e-01
1.370496e-01
1.364392e-01
1.358660e-01
1.353120e-01
1.347657e-01
1.342281e-01
1.337116e-01
1.332320e-01
1.328007e-01
1.324234e-01
1.321042e-01
1.318520e-01
1.316816e-01
1.316098e-01
1.316448e-01
1.317810e-01
1.320019e-01
1.322920e-01
1.326456e-01
1.330678e-01
1.335694e-01
1.341645e-01
1.348687e-01
1.356986e-01
1.366699e-01
1.377914e-01
1.390560e-01
1.404390e-01
1.419072e-01
1.434341e-01
1.450104e-01
1.466439e-01
1.483482e-01
1.501288e-01
1.519786e-01
1.538864e-01
1.558487e-01
1.578735e-01
1.599739e-01
1.621548e-01
1.644059e-01
1.667082e-01
1.690470e-01
1.714180e-01
1.738205e-01
1.762492e-01
1.786902e-01
1.811275e-01
1.835510e-01
1.859610e-01
1.883631e-01
1.907563e-01
1.931230e-01
1.954289e-01
1.976329e-01
1.997016e-01
2.016192e-01
2.033903e-01
2.050358e-01
2.065852e-01
2.080662e-01
2.094971e-01
2.108850e-01
2.122270e-01
2.135119e-01
2.147224e-01
2.158386e-01
2.168434e-01
2.177285e-01
2.184984e-01
2.191688e-01
2.197620e-01
2.203013e-01
2.208082e-01
2.213012e-01
2.217933e-01
2.222886e-01
2.227799e-01
2.232504e-01
2.236822e-01
2.240647e-01
2.244007e-01
2.247044e-01
2.249928e-01
2.252757e-01
2.255543e-01
2.258274e-01
2.260990e-01
2.263819e-01
2.266956e-01
2.270612e-01
2.274951e-01
2.280019e-01
2.285675e-01
2.291600e-01
2.297410e-01
2.302818e-01
2.307732e-01
2.312234e-01
2.316484e-01
2.320628e-01
2.324743e-01
2.328837e-01
2.332921e-01
2.337079e-01
2.341476e-01
2.346285e-01
2.351613e-01
2.357481e-01
2.363849e-01
2.370678e-01
2.377978e-01
2.385793e-01
2.394155e-01
2.403046e-01
2.412393e-01
2.422065e-01
2.431901e-01
2.441712e-01
2.451289e-01
2.460401e-01
2.468810e-01
2.476301e-01
2.482730e-01
2.488059e-01
2.492341e-01
2.495665e-01
2.498125e-01
2.499827e-01
2.500911e-01
2.501534e-01
2.501789e-01
2.501631e-01
2.500889e-01
2.499352e-01
2.496885e-01
2.493513e-01
2.489454e-01
2.485049e-01
2.480644e-01
2.476469e-01
2.472587e-01
2.468907e-01
2.465252e-01
2.461449e-01
2.457383e-01
2.452964e-01
2.448071e-01
2.442543e-01
2.436232e-01
2.429102e-01
2.421280e-01
2.413032e-01
2.404691e-01
2.396593e-01
2.389025e-01
2.382188e-01
2.376192e-01
2.371059e-01
2.366730e-01
2.363071e-01
2.359902e-01
2.357033e-01
2.354291e-01
2.351531e-01
2.348663e-01
2.345674e-01
2.342625e-01
2.339616e-01
2.336740e-01
2.334038e-01
2.331495e-01
2.329051e-01
2.326635e-01
2.324173e-01
2.321597e-01
2.318822e-01
2.315744e-01
2.312255e-01
2.308269e-01
2.303720e-01
2.298569e-01
2.292838e-01
2.286627e-01
2.280068e-01
2.273280e-01
2.266334e-01
2.259217e-01
2.251789e-01
2.243830e-01
2.235172e-01
2.225802e-01
2.215848e-01
2.205477e-01
2.194787e-01
2.183817e-01
2.172644e-01
2.161465e-01
2.150609e-01
2.140472e-01
2.131412e-01
2.123648e-01
2.117216e-01
2.111995e-01
2.107760e-01
2.104202e-01
2.100973e-01
2.097759e-01
2.094378e-01
2.090850e-01
2.087396e-01
2.084351e-01
2.082020e-01
2.080571e-01
2.080014e-01
2.080254e-01
2.081150e-01
2.082584e-01
2.084496e-01
2.086870e-01
2.089673e-01
2.092810e-01
2.096165e-01
2.099681e-01
2.103386e-01
2.107345e-01
2.111561e-01
2.115955e-01
2.120404e-01
2.124781e-01
2.128945e-01
2.132704e-01
2.135794e-01
2.137912e-01
2.138793e-01
2.138324e-01
2.136604e-01
2.133922e-01
2.130634e-01
2.127004e-01
2.123107e-01
2.118848e-01
2.114074e-01
2.108702e-01
2.102773e-01
2.096407e-01
2.089703e-01
2.082690e-01
2.075331e-01
2.067597e-01
2.059543e-01
2.051310e-01
2.043073e-01
2.034960e-01
2.027009e-01
2.019182e-01
2.011436e-01
2.003786e-01
1.996331e-01
1.989222e-01
1.982621e-01
1.976655e-01
1.971393e-01
1.966847e-01
1.963024e-01
1.959975e-01
1.957832e-01
1.956784e-01
1.957020e-01
1.958648e-01
1.961647e-01
1.965871e-01
1.971097e-01
1.977106e-01
1.983732e-01
1.990863e-01
1.998401e-01
2.006241e-01
2.014279e-01
2.022432e-01
2.030648e-01
2.038915e-01
2.047232e-01
2.055579e-01
2.063884e-01
2.072033e-01
2.079881e-01
2.087276e-01
2.094089e-01
2.100233e-01
2.105665e-01
2.110380e-01
2.114406e-01
2.117798e-01
2.120607e-01
2.122851e-01
2.124491e-01
2.125442e-01
2.125611e-01
2.124916e-01
2.123275e-01
2.120621e-01
2.116934e-01
2.112265e-01
2.106747e-01
2.100564e-01
2.093896e-01
2.086873e-01
2.079565e-01
2.072038e-01
2.064416e-01
2.056883e-01
2.049607e-01
2.042672e-01
2.036062e-01
2.029705e-01
2.023526e-01
2.017507e-01
2.011732e-01
2.006387e-01
2.001708e-01
1.997924e-01
1.995218e-01
1.993694e-01
1.993374e-01
1.994200e-01
1.996069e-01
1.998870e-01
2.002505e-01
2.006880e-01
2.011918e-01
2.017613e-01
2.024059e-01
2.031400e-01
2.039729e-01
2.049032e-01
2.059183e-01
2.069981e-01
2.081177e-01
2.092512e-01
2.103772e-01
2.114861e-01
2.125836e-01
2.136870e-01
2.148149e-01
2.159798e-01
2.171833e-01
2.184158e-01
2.196584e-01
2.208868e-01
2.220756e-01
2.232036e-01
2.242558e-01
2.252202e-01
2.260832e-01
2.268287e-01
2.274427e-01
2.279202e-01
2.282684e-01
2.285041e-01
2.286463e-01
2.287069e-01
2.286878e-01
2.285827e-01
2.283846e-01
2.280893e-01
2.276954e-01
2.272010e-01
2.266006e-01
2.258855e-01
2.250460e-01
2.240753e-01
2.229737e-01
2.217511e-01
2.204270e-01
2.190279e-01
2.175851e-01
2.161314e-01
2.146974e-01
2.133070e-01
2.119734e-01
2.106965e-01
2.094638e-01
2.082564e-01
2.070554e-01
2.058478e-01
2.046270e-01
2.033929e-01
2.021516e-01
2.009147e-01
1.996975e-01
1.985147e-01
1.973739e-01
1.962718e-01
1.951940e-01
1.941216e-01
1.930361e-01
1.919235e-01
1.907714e-01
1.895658e-01
1.882910e-01
1.869356e-01
1.854995e-01
1.839990e-01
1.824630e-01
1.809249e-01
1.794103e-01
1.779311e-01
1.764857e-01
1.750674e-01
1.736731e-01
1.723092e-01
1.709907e-01
1.697368e-01
1.685636e-01
1.674807e-01
1.664920e-01
1.655981e-01
1.647975e-01
1.640850e-01
1.634536e-01
1.628970e-01
1.624089e-01
1.619799e-01
1.615942e-01
1.612310e-01
1.608690e-01
1.604902e-01
1.600817e-01
1.596341e-01
1.591418e-01
1.586045e-01
1.580266e-01
1.574153e-01
1.567777e-01
1.561183e-01
1.554386e-01
1.547386e-01
1.540192e-01
1.532829e-01
1.525339e-01
1.517785e-01
1.510255e-01
1.502867e-01
1.495761e-01
1.489081e-01
1.482906e-01
1.477195e-01
1.471775e-01
1.466419e-01
1.460961e-01
1.455382e-01
1.449811e-01
1.444440e-01
1.439407e-01
1.434701e-01
1.430143e-01
1.425454e-01
1.420383e-01
1.414800e-01
1.408681e-01
1.402049e-01
1.394935e-01
1.387365e-01
1.379341e-01
1.370833e-01
1.361797e-01
1.352193e-01
1.342001e-01
1.331199e-01
1.319755e-01
1.307651e-01
1.294895e-01
1.281506e-01
1.267489e-01
1.252836e-01
1.237544e-01
1.221630e-01
1.205152e-01
1.188221e-01
1.170977e-01
1.153518e-01
1.135867e-01
1.117983e-01
1.099817e-01
1.081330e-01
1.062490e-01
1.043264e-01
1.023629e-01
1.003589e-01
9.831890e-02
9.625047e-02
9.416348e-02
9.206807e-02
8.997289e-02
8.788441e-02
8.580687e-02
8.374104e-02
8.168181e-02
7.961736e-02
7.753121e-02
7.540714e-02
7.323550e-02
7.101873e-02
6.877315e-02
6.652528e-02
6.430430e-02
6.213494e-02
6.003405e-02
5.801053e-02
5.606683e-02
5.420006e-02
5.240242e-02
5.066111e-02
4.895898e-02
4.727729e-02
4.560113e-02
4.392464e-02
4.225134e-02
4.059021e-02
3.895184e-02
3.734613e-02
3.578142e-02
3.426581e-02
3.280850e-02
3.141721e-02
3.009296e-02
2.882733e-02
2.760391e-02
2.640252e-02
2.520432e-02
2.399605e-02
2.277240e-02
2.153679e-02
2.029946e-02
1.907290e-02
1.786731e-02
1.668927e-02
1.554238e-02
1.442841e-02
1.334952e-02
1.231010e-02
1.131522e-02
1.036701e-02
9.462567e-03
8.595247e-03
7.760152e-03
6.960488e-03
6.208847e-03
5.520429e-03
4.901954e-03
4.343516e-03
3.818529e-03
3.292198e-03
2.733826e-03
2.125934e-03
1.466572e-03
7.660426e-04
4.041913e-05
-6.957983e-04
-1.434663e-03
-2.175449e-03
-2.922381e-03
-3.682680e-03
-4.466721e-03
-5.288868e-03
-6.166876e-03
-7.119183e-03
-8.160195e-03
-9.295414e-03
-1.051990e-02
-1.182190e-02
-1.318951e-02
-1.461589e-02
-1.609960e-02
-1.764080e-02
-1.923585e-02
-2.087391e-02
-2.253737e-02
-2.420695e-02
-2.586919e-02
-2.752142e-02
-2.917093e-02
-3.082909e-02
-3.250466e-02
-3.420140e-02
-3.592162e-02
-3.767335e-02
-3.947564e-02
-4.135737e-02
-4.334926e-02
-4.547369e-02
-4.773870e-02
-5.014015e-02
-5.266982e-02
-5.532354e-02
-5.810340e-02
-6.101369e-02
-6.405417e-02
-6.721527e-02
-7.047790e-02
-7.381676e-02
-7.720459e-02
-8.061630e-02
-8.403174e-02
-8.743613e-02
-9.081907e-02
-9.417463e-02
-9.750332e-02
-1.008137e-01
-1.041207e-01
-1.074418e-01
-1.107913e-01
-1.141757e-01
-1.175910e-01
-1.210251e-01
-1.244646e-01
-1.279008e-01
-1.313328e-01
-1.347639e-01
-1.381956e-01
-1.416224e-01
-1.450313e-01
-1.484046e-01
-1.517269e-01
-1.549938e-01
-1.582165e-01
-1.614221e-01
-1.646464e-01
-1.679238e-01
-1.712765e-01
-1.747061e-01
-1.781933e-01
-1.817051e-01
-1.852072e-01
-1.886746e-01
-1.920970e-01
-1.954759e-01
-1.988205e-01
-2.021442e-01
-2.054617e-01
-2.087858e-01
-2.121263e-01
-2.154902e-01
-2.188821e-01
-2.223041e-01
-2.257545e-01
-2.292265e-01
-2.327065e-01
-2.361744e-01
-2.396038e-01
-2.429658e-01
-2.462352e-01
-2.493972e-01
-2.524524e-01
-2.554154e-01
-2.583073e-01
-2.611476e-01
-2.639511e-01
-2.667286e-01
-2.694874e-01
-2.722321e-01
-2.749663e-01
-2.776945e-01
-2.804216e-01
-2.831515e-01
-2.858861e-01
-2.886238e-01
-2.913592e-01
-2.940808e-01
-2.967733e-01
-2.994236e-01
-3.020285e-01
-3.045952e-01
-3.071350e-01
-3.096553e-01
-3.121566e-01
-3.146368e-01
-3.170969e-01
-3.195441e-01
-3.219883e-01
-3.244368e-01
-3.268915e-01
-3.293509e-01
-3.318125e-01
-3.342734e-01
-3.367289e-01
-3.391724e-01
-3.415966e-01
-3.439967e-01
-3.463744e-01
-3.487401e-01
-3.511104e-01
-3.535019e-01
-3.559242e-01
-3.583779e-01
-3.608574e-01
-3.633559e-01
-3.658686e-01
-3.683936e-01
-3.709320e-01
-3.734871e-01
-3.760661e-01
-3.786796e-01
-3.813379e-01
-3.840474e-01
-3.868083e-01
-3.896158e-01
-3.924643e-01
-3.953511e-01
-3.982775e-01
-4.012475e-01
-4.042637e-01
-4.073239e-01
-4.104217e-01
-4.135489e-01
-4.166987e-01
-4.198653e-01
-4.230426e-01
-4.262245e-01
-4.294065e-01
-4.325876e-01
-4.357683e-01
-4.389449e-01
-4.421047e-01
-4.452274e-01
-4.482936e-01
-4.512952e-01
-4.542388e-01
-4.571403e-01
-4.600136e-01
-4.628631e-01
-4.656820e-01
-4.684574e-01
-4.711765e-01
-4.738305e-01
-4.764129e-01
-4.789185e-01
-4.813442e-01
-4.836917e-01
-4.859674e-01
-4.881797e-01
-4.903319e-01
-4.924173e-01
-4.944221e-01
-4.963345e-01
-4.981499e-01
-4.998704e-01
-5.015001e-01
-5.030411e-01
-5.044921e-01
-5.058494e-01
-5.071088e-01
-5.082665e-01
-5.093216e-01
-5.102776e-01
-5.111410e-01
-5.119175e-01
-5.126091e-01
-5.132144e-01
-5.137319e-01
-5.141619e-01
-5.145065e-01
-5.147693e-01
-5.149570e-01
-5.150799e-01
-5.151497e-01
-5.151785e-01
-5.151781e-01
-5.151613e-01
-5.151428e-01
-5.151374e-01
-5.151561e-01
-5.152034e-01
-5.152794e-01
-5.153828e-01
-5.155119e-01
-5.156660e-01
-5.158475e-01
-5.160606e-01
-5.163072e-01
-5.165813e-01
-5.168673e-01
-5.171452e-01
-5.173991e-01
-5.176212e-01
-5.178084e-01
-5.179581e-01
-5.180667e-01
-5.181315e-01
-5.181533e-01
-5.181377e-01
-5.180927e-01
-5.180277e-01
-5.179537e-01
-5.178821e-01
-5.178213e-01
-5.177750e-01
-5.177435e-01
-5.177238e-01
-5.177084e-01
-5.176838e-01
-5.176331e-01
-5.175404e-01
-5.173945e-01
-5.171883e-01
-5.169160e-01
-5.165714e-01
-5.161477e-01
-5.156361e-01
-5.150264e-01
-5.143090e-01
-5.134791e-01
-5.125418e-01
-5.115138e-01
-5.104191e-01
-5.092804e-01
-5.081122e-01
-5.069200e-01
-5.057039e-01
-5.044602e-01
-5.031801e-01
-5.018502e-01
-5.004540e-01
-4.989759e-01
-4.974045e-01
-4.957350e-01
-4.939703e-01
-4.921209e-01
-4.902027e-01
-4.882364e-01
-4.862457e-01
-4.842537e-01
-4.822763e-01
-4.803159e-01
-4.783602e-01
-4.763882e-01
-4.743776e-01
-4.723121e-01
-4.701818e-01
-4.679795e-01
-4.656975e-01
-4.633290e-01
-4.608724e-01
-4.583341e-01
-4.557243e-01
-4.530484e-01
-4.503032e-01
-4.474791e-01
-4.445679e-01
-4.415683e-01
-4.384867e-01
-4.353343e-01
-4.321225e-01
-4.288598e-01
-4.255518e-01
-4.222023e-01
-4.188138e-01
-4.153870e-01
-4.119191e-01
-4.084036e-01
-4.048329e-01
-4.012015e-01
-3.975087e-01
-3.937586e-01
-3.899585e-01
-3.861166e-01
-3.822411e-01
-3.783409e-01
-3.744262e-01
-3.705076e-01
-3.665955e-01
-3.626981e-01
-3.588189e-01
-3.549562e-01
-3.511044e-01
-3.472587e-01
-3.434186e-01
-3.395862e-01
-3.357635e-01
-3.319516e-01
-3.281509e-01
-3.243622e-01
-3.205869e-01
-3.168263e-01
-3.130802e-01
-3.093454e-01
-3.056151e-01
-3.018810e-01
-2.981367e-01
-2.943816e-01
-2.906205e-01
-2.868597e-01
-2.831038e-01
-2.793557e-01
-2.756200e-01
-2.719077e-01
-2.682359e-01
-2.646214e-01
-2.610703e-01
-2.575734e-01
-2.541111e-01
-2.506641e-01
-2.472216e-01
-2.437812e-01
-2.403435e-01
-2.369053e-01
-2.334567e-01
-2.299831e-01
-2.264704e-01
-2.229091e-01
-2.192943e-01
-2.156244e-01
-2.118991e-01
-2.081194e-01
-2.042880e-01
-2.004092e-01
-1.964878e-01
-1.925288e-01
-1.885375e-01
-1.845212e-01
-1.804906e-01
-1.764604e-01
-1.724441e-01
-1.684473e-01
-1.644638e-01
-1.604782e-01
-1.564711e-01
-1.524232e-01
-1.483172e-01
-1.441386e-01
-1.398759e-01
-1.355222e-01
-1.310770e-01
-1.265469e-01
-1.219444e-01
-1.172844e-01
-1.125814e-01
-1.078472e-01
-1.030914e-01
-9.832183e-02
-9.354222e-02
-8.875034e-02
-8.393610e-02
-7.908210e-02
-7.416711e-02
-6.917263e-02
-6.408874e-02
-5.891593e-02
-5.366226e-02
-4.833857e-02
-4.295429e-02
-3.751525e-02
-3.202359e-02
-2.647845e-02
-2.087661e-02
-1.521280e-02
-9.479463e-03
-3.667360e-03
2.231600e-03
8.221270e-03
1.430009e-02
2.046157e-02
2.669532e-02
3.298701e-02
3.931648e-02
4.565644e-02
5.197520e-02
5.824320e-02
6.443941e-02
7.055408e-02
7.658781e-02
8.254825e-02
8.844573e-02
9.428866e-02
1.000805e-01
1.058199e-01
1.115036e-01
1.171305e-01
1.227033e-01
1.282275e-01
1.337085e-01
1.391486e-01
1.445447e-01
1.498884e-01
1.551687e-01
1.603768e-01
1.655099e-01
1.705709e-01
1.755650e-01
1.804959e-01
1.853635e-01
1.901671e-01
1.949088e-01
1.995964e-01
2.042415e-01
2.088571e-01
2.134551e-01
2.180458e-01
2.226349e-01
2.272202e-01
2.317915e-01
2.363351e-01
2.408400e-01
2.453020e-01
2.497228e-01
2.541045e-01
2.584433e-01
2.627288e-01
2.669484e-01
2.710956e-01
2.751750e-01
2.792005e-01
2.831899e-01
2.871566e-01
2.911046e-01
2.950288e-01
2.989194e-01
3.027664e-01
3.065622e-01
3.103011e-01
3.139769e-01
3.175830e-01
3.211149e-01
3.245750e-01
3.279743e-01
3.313304e-01
3.346610e-01
3.379767e-01
3.412757e-01
3.445452e-01
3.477691e-01
3.509354e-01
3.540396e-01
3.570823e-01
3.600640e-01
3.629816e-01
3.658281e-01
3.685963e-01
3.712823e-01
3.738869e-01
3.764148e-01
3.788736e-01
3.812747e-01
3.836346e-01
3.859714e-01
3.883003e-01
3.906290e-01
3.929577e-01
3.952828e-01
3.976002e-01
3.999087e-01
4.022100e-01
4.045080e-01
4.068076e-01
4.091149e-01
4.114377e-01
4.137832e-01
4.161533e-01
4.185418e-01
4.209323e-01
4.233024e-01
4.256297e-01
4.278992e-01
4.301085e-01
4.322668e-01
4.343900e-01
4.364936e-01
4.385879e-01
4.406774e-01
4.427615e-01
4.448367e-01
4.468981e-01
4.489405e-01
4.509593e-01
4.529514e-01
4.549177e-01
4.568629e-01
4.587932e-01
4.607121e-01
4.626184e-01
4.645082e-01
4.663781e-01
4.682270e-01
4.700565e-01
4.718678e-01
4.736575e-01
4.754153e-01
4.771262e-01
4.787753e-01
4.803532e-01
4.818571e-01
4.832896e-01
4.846537e-01
4.859484e-01
4.871656e-01
4.882934e-01
4.893222e-01
4.902492e-01
4.910791e-01
4.918207e-01
4.924822e-01
4.930696e-01
4.935876e-01
4.940415e-01
4.944376e-01
4.947812e-01
4.950726e-01
4.953056e-01
4.954704e-01
4.955580e-01
4.955652e-01
4.954945e-01
4.953527e-01
4.951474e-01
4.948850e-01
4.945703e-01
4.942079e-01
4.938042e-01
4.933681e-01
4.929089e-01
4.924354e-01
4.919556e-01
4.914767e-01
4.910037e-01
4.905379e-01
4.900776e-01
4.896193e-01
4.891590e-01
4.886930e-01
4.882166e-01
4.877242e-01
4.872102e-01
4.866720e-01
4.861130e-01
4.855422e-01
4.849698e-01
4.844029e-01
4.838422e-01
4.832824e-01
4.827149e-01
4.821296e-01
4.815177e-01
4.808714e-01
4.801838e-01
4.794471e-01
4.786506e-01
4.777823e-01
4.768328e-01
4.758010e-01
4.746951e-01
4.735309e-01
4.723265e-01
4.710953e-01
4.698425e-01
4.685630e-01
4.672459e-01
4.658822e-01
4.644710e-01
4.630213e-01
4.615492e-01
4.600725e-01
4.586055e-01
4.571546e-01
4.557169e-01
4.542837e-01
4.528466e-01
4.514024e-01
4.499533e-01
4.485032e-01
4.470547e-01
4.456078e-01
4.441609e-01
4.427122e-01
4.412604e-01
4.398046e-01
4.383420e-01
4.368654e-01
4.353637e-01
4.338257e-01
4.322436e-01
4.306142e-01
4.289384e-01
4.272201e-01
4.254659e-01
4.236828e-01
