EVENT_NAME: EMILIA_2ND_SHOCK
EVENT_ID: IT-2012-0011
EVENT_DATE_YYYYMMDD: 20120529
EVENT_TIME_HHMMSS: 070002
EVENT_LATITUDE_DEGREE: 44.8417
EVENT_LONGITUDE_DEGREE: 11.0657
EVENT_DEPTH_KM: 8.1
HYPOCENTER_REFERENCE: INGV-CNT_Seismic_Bulletin
MAGNITUDE_W: 6.0
MAGNITUDE_W_REFERENCE: RCMT-INGV
MAGNITUDE_L: 5.8
MAGNITUDE_L_REFERENCE: INGV-CNT_Seismic_Bulletin
FOCAL_MECHANISM: TF
NETWORK: IT
STATION_CODE: CRP
STATION_NAME: CARPI
STATION_LATITUDE_DEGREE: 44.782300
STATION_LONGITUDE_DEGREE: 10.870300
STATION_ELEVATION_M: 89
LOCATION: 
SENSOR_DEPTH_M: 0.0
VS30_M/S: 
SITE_CLASSIFICATION_EC8: C*
MORPHOLOGIC_CLASSIFICATION: 
EPICENTRAL_DISTANCE_KM: 16.8
EARTHQUAKE_BACKAZIMUTH_DEGREE: 66.8
DATE_TIME_FIRST_SAMPLE_YYYYMMDD_HHMMSS: 20120529_065953.000
DATE_TIME_FIRST_SAMPLE_PRECISION: seconds
SAMPLING_INTERVAL_S: 0.005000
NDATA: 27723
DURATION_S: 138.615
STREAM: HNZ
UNITS: cm/s^2
INSTRUMENT: sensor = Episensor FBA ES-T [Kinemetrics] | digitizer = Etna [Kinemetrics]
INSTRUMENT_ANALOG/DIGITAL: D
INSTRUMENTAL_FREQUENCY_HZ: 
INSTRUMENTAL_DAMPING: 
FULL_SCALE_G: 
N_BIT_DIGITAL_CONVERTER: 18
PGA_CM/S^2: -83.241107
TIME_PGA_S: 21.480000
BASELINE_CORRECTION: BASELINE REMOVED
FILTER_TYPE: BUTTERWORTH
FILTER_ORDER: 2
LOW_CUT_FREQUENCY_HZ: 0.050
HIGH_CUT_FREQUENCY_HZ: 40.000
LATE/NORMAL_TRIGGERED: NT
DATABASE_VERSION: DYNA 1.0
HEADER_FORMAT: DYNA 1.2
DATA_TYPE: ACCELERATION
PROCESSING: manual (Paolucci et al., 2011)
DATA_TIMESTAMP_YYYYMMDD_HHMMSS: 20141204_103047.929
DATA_LICENSE: CC-BY3_0-IT (http://creativecommons.org/licenses/by/3.0/deed.en)
DATA_CITATION: ESM working group (2015), European Strong-Motion database, version 0.1, Network Activity 3: Networking acceleration networks and SM data users. Project NERA (www.nera-eu.org)
DATA_CREATOR: ESM working group
ORIGINAL_DATA_MEDIATOR_CITATION: Ufficio Rischio Sismico e Vulcanico del Dipartimento della Protezione Civile (http://www.protezionecivile.gov.it/)
ORIGINAL_DATA_MEDIATOR: Rete Accelerometrica Nazionale - RAN Download (http://www.mot1.it/randownload/)
ORIGINAL_DATA_CREATOR_CITATION: Italian Strong Motion Network, Italian Civil Protection Department http://www.protezionecivile.gov.it
ORIGINAL_DATA_CREATOR: network: IT (Italian Strong Motion Network); owner: Dipartimento Della Protezione Civile
USER1: /home/dyna/processing-itaca/processing.py /var/www/processing/tmp/fpacor//IT.CRP..HNE.D.20120529.070003.X.ACC.ASC /var/www/processing/tmp/fpacor//IT.CRP..HNN.D.20120529.070003.X.ACC.ASC /var/www/processing/tmp/fpacor//IT.CRP..HNZ.D.20120529.070003.X.ACC.ASC --tmp /var/www/processing/tmp/fpacor/ --le 0.050 --he 40.000 --ln 0.050 --hn 40.000 --lz 0.050 --hz 40.000 --fo 2 --ca -10 --cz 40 --ta 5 --tz 5 --mf 1 --rf 0 --tr NT
USER2: 
USER3: 
USER4: 
USER5: 
[...]
-16.478376
-13.498710
-10.176511
-6.020137
-0.107652
7.667230
16.019350
22.011564
21.636480
12.468082
-3.161357
-17.968655
-23.868002
-17.839527
-4.362107
8.317693
14.435342
13.580679
8.898724
3.772372
-0.015364
-2.199754
-3.439335
-4.922213
-7.362718
-9.798193
-10.185450
-7.585179
-3.250482
0.665419
3.299639
5.672343
8.955392
12.890011
16.516912
19.477535
21.692017
22.441891
20.296471
13.835433
3.268600
-8.002301
-14.756928
-14.469514
-10.147140
-7.382222
-8.221066
-8.909450
-4.468426
5.236102
14.688483
17.350550
10.976670
-0.654067
-10.681064
-13.817631
-8.831423
1.571296
11.945473
16.410648
12.014044
0.772060
-11.750026
-20.179762
-22.476109
-20.588295
-18.189842
-16.742109
-13.648376
-5.356608
7.802541
21.118053
29.553242
31.013702
26.480177
19.152105
12.987532
9.481966
6.010546
-0.268687
-7.489080
-10.653263
-7.474286
-0.303170
7.008822
11.963028
13.524373
11.600764
7.487518
3.764438
2.024564
0.637544
-3.975795
-13.432229
-24.933413
-32.307728
-29.594643
-15.234093
5.680682
23.335827
28.726826
19.371262
1.280804
-15.090076
-22.202967
-19.270403
-10.209518
-0.149109
6.502650
7.497678
3.730996
-1.706746
-5.805985
-7.227241
-6.678305
-6.271835
-7.459452
-8.713162
-6.144644
2.342022
13.709141
21.379351
20.471594
11.850933
1.409020
-4.872496
-5.460239
-3.185321
-1.456030
-1.063447
-0.121657
3.292789
8.162353
10.596259
7.630994
0.509145
-6.267949
-8.380764
-4.279030
3.952580
11.673659
14.834967
12.947935
8.837873
5.375599
2.762335
-0.816779
-6.257921
-11.610614
-13.181222
-8.900866
-0.793879
6.208035
8.206447
5.189870
0.191152
-3.778713
-5.392446
-4.118464
0.634840
8.213937
15.360434
18.051361
15.039584
8.539095
1.462756
-5.031105
-11.154524
-16.403814
-18.587831
-15.303634
-6.415421
4.791533
12.910101
13.590173
6.361060
-5.190754
-15.709590
-20.805996
-19.004892
-12.445381
-5.637593
-2.421156
-3.364215
-6.353131
-9.459383
-11.843703
-12.265135
-9.473577
-4.786889
-1.763342
-2.069801
-3.249870
-1.204330
6.149428
17.074070
26.688124
30.368259
27.034275
18.493210
6.936959
-5.315824
-15.060391
-19.075205
-16.258526
-9.487557
-4.572501
-5.303414
-9.756794
-12.512194
-9.354842
0.643562
15.580102
31.477652
42.911880
44.774471
35.541634
19.142160
2.574692
-8.408919
-11.544247
-8.348953
-3.665476
-3.007107
-8.170414
-15.739469
-20.706268
-21.134396
-18.801229
-16.189182
-14.498245
-14.645148
-18.095205
-24.966967
-31.980162
-33.944073
-27.494026
-13.224211
4.563097
19.750322
27.820393
28.676861
25.677942
21.669924
16.498003
8.314756
-3.260650
-14.996356
-20.989286
-17.356871
-6.797412
3.050540
6.567708
4.563677
2.123223
3.617236
9.586821
16.637873
19.693027
15.435257
4.489653
-9.375730
-21.760944
-29.894564
-33.543369
-33.579655
-29.493496
-19.500179
-3.590452
14.533981
28.997517
34.944073
30.932774
19.559132
6.323169
-2.647123
-3.633370
1.810707
7.191012
5.972207
-3.098481
-15.164880
-22.864553
-21.036369
-9.729804
5.698348
17.369644
19.579790
12.437720
0.736755
-10.889643
-20.728830
-28.239141
-31.494352
-27.424053
-14.256263
6.412115
29.164841
45.830086
48.719296
35.721355
12.667353
-10.492410
-25.397524
-27.571423
-16.913256
1.163858
16.873346
21.736198
14.467787
1.274901
-9.256395
-11.972279
-8.203891
-4.778761
-8.988382
-22.541813
-39.159973
-47.480938
-37.825699
-9.504502
27.146208
57.415730
71.963264
70.476364
57.811905
38.780128
16.653353
-5.029018
-21.396460
-28.382231
-25.790632
-17.583906
-8.986654
-3.132301
-0.001564
1.609215
1.246034
-3.105654
-11.178215
-17.773018
-16.297495
-5.536700
8.342824
16.803249
15.420103
6.597006
-2.271748
-3.933595
3.281045
14.613187
23.722408
27.815887
28.251831
27.193214
23.910570
14.961202
-0.687884
-17.191530
-24.624969
-17.374222
0.505459
18.050659
25.142281
18.981249
5.135111
-7.176610
-11.928038
-10.126662
-7.898522
-10.450786
-17.193663
-22.678005
-22.113914
-15.561688
-7.060793
-0.445268
3.598740
6.538442
8.930675
9.227996
5.349018
-3.149760
-13.558592
-20.115473
-17.586367
-6.180790
8.175501
18.879232
22.987873
20.796873
12.853675
-0.434760
-15.216197
-22.605753
-14.695712
6.899566
30.443830
42.665440
37.389286
17.674318
-6.699307
-23.551168
-24.612541
-11.146794
7.023754
18.786718
18.142324
5.763389
-12.686384
-29.392281
-37.038315
-30.721390
-10.270702
17.149851
38.035812
40.051659
21.294744
-7.837662
-32.170147
-41.426643
-35.091980
-20.547682
-6.442985
3.181252
9.117492
13.271085
16.100323
16.640856
13.695194
7.408874
-0.054153
-6.512545
-12.644165
-20.919382
-30.738632
-36.915993
-34.862892
-25.535711
-13.347083
-0.869890
12.072776
24.991293
34.488995
35.717354
25.939154
7.679984
-10.886953
-20.121361
-16.010330
-3.420837
9.087477
17.109962
21.737415
24.887859
26.219988
24.147081
17.438461
5.720100
-9.764239
-25.519260
-37.435135
-43.627243
-44.583923
-40.667942
-31.460569
-17.921558
-2.943347
11.414500
25.486040
39.117851
48.262802
46.685368
31.829660
8.191340
-15.400525
-31.061964
-35.142994
-29.076643
-18.401907
-9.306091
-4.192151
-0.738452
4.271469
11.080007
17.099447
19.482771
16.748238
8.625182
-4.288435
-19.466597
-31.561996
-35.044842
-28.923973
-17.573870
-6.500857
1.586668
7.114079
12.032155
18.292974
26.829931
36.810623
45.433552
49.309708
46.948044
39.403824
28.049456
12.999327
-4.947815
-21.726023
-31.233221
-29.630688
-18.392527
-3.938857
5.597119
4.930434
-4.933741
-16.733593
-21.092390
-12.878314
4.891088
23.400158
34.255276
33.990864
24.885361
12.900211
3.804664
0.160954
1.539344
6.333874
12.088609
14.719677
9.808523
-3.427104
-19.646666
-30.263895
-29.635832
-18.617586
-2.906961
10.639327
16.512280
12.395213
0.572090
-13.055763
-22.285423
-23.487549
-16.444895
-3.708335
10.389168
20.579025
22.289272
14.493952
1.539547
-8.797956
-10.700597
-4.904198
2.186464
4.225879
-0.392333
-8.816190
-16.935011
-21.713602
-21.955311
-18.485067
-13.493305
-8.977463
-5.805971
-4.197452
-4.434844
-6.451701
-8.846466
-9.576457
-8.511798
-8.520140
-13.145132
-23.132591
-34.871414
-41.887394
-38.616230
-24.073978
-2.704717
18.336527
33.550922
42.080654
47.037407
51.591984
55.494167
55.261803
47.194359
30.392820
8.162341
-13.041994
-27.140657
-32.035160
-30.074627
-25.416149
-21.343639
-19.316488
-19.259903
-20.313280
-21.171530
-19.719673
-13.445047
-1.676374
12.332634
22.348667
23.106535
14.041770
-0.313726
-13.156691
-18.955681
-15.938041
-6.975112
1.734079
4.258881
-1.012590
-9.706503
-13.918720
-8.019943
6.319100
20.629974
25.449360
16.364634
-3.668562
-25.920956
-40.002613
-39.153374
-24.427618
-4.555217
9.504229
11.556920
3.149044
-8.838233
-16.620464
-15.236699
-4.731441
10.471515
24.842640
34.577061
37.976402
34.717762
25.578857
12.671079
-0.504278
-10.286378
-14.983744
-15.463696
-13.842238
-12.605516
-14.403625
-20.639076
-29.622770
-37.243736
-39.888363
-36.138939
-26.372173
-12.520140
1.821120
12.782951
18.338854
18.761553
15.801233
12.130037
10.429067
11.714539
14.674513
16.941957
16.929260
14.619252
11.027794
7.095332
2.723815
-3.169967
-10.757019
-17.372280
-18.842840
-13.233390
-2.500182
9.394938
18.763496
22.727697
19.491571
9.601394
-3.216921
-13.374401
-16.408081
-11.115864
0.825974
16.057467
29.618643
35.730545
31.053944
17.695782
2.473547
-7.001167
-6.349876
3.612961
17.459679
27.902632
30.026760
24.790363
18.302410
16.461332
19.619568
22.143890
16.943850
0.953110
-22.286718
-43.921959
-54.029018
-47.127117
-25.928226
-0.168059
19.215805
26.455347
23.537607
17.362349
13.682269
13.060318
12.183605
7.994690
0.053983
-9.738985
-18.387688
-23.292128
-23.442377
-19.310312
-12.068942
-3.601261
3.181623
5.101783
0.073298
-12.314534
-30.611933
-51.024387
-67.839760
-75.612762
-71.647377
-56.862942
-34.742847
-9.963812
12.020287
25.862932
29.269493
25.520748
21.339405
21.177773
24.399914
28.083906
30.598106
31.603952
30.467461
26.395506
19.808441
12.717697
7.591525
6.098735
8.673614
14.189175
19.686527
21.575684
18.131056
10.949103
4.112181
1.997029
6.844646
16.736563
25.614328
26.999245
19.280764
7.211411
-2.202509
-4.852080
-1.108795
5.541289
10.314546
9.227534
1.425463
-10.252229
-21.082521
-26.671217
-24.582596
-15.525882
-2.876598
9.649262
19.412678
24.344452
23.077364
16.503517
8.286592
3.096549
3.732871
8.987113
14.175288
14.589856
9.108638
0.852816
-5.187086
-5.295527
0.844953
9.663267
15.177131
12.312080
0.136101
-17.705767
-35.520798
-48.376472
-53.068130
-48.080132
-34.421864
-16.734678
-2.140954
3.858427
1.554387
-2.986580
-2.996350
3.459726
12.833624
20.045614
22.086987
18.815733
12.809566
8.955074
12.106481
23.458574
38.895123
51.139294
54.235451
46.886810
32.359962
16.062939
3.180003
-3.199200
-3.767713
-3.079923
-6.891344
-18.528803
-36.884274
-56.748482
-70.892960
-73.171326
-61.658955
-40.418423
-18.311878
-4.478621
-2.970916
-10.483148
-18.879063
-20.526468
-12.510491
2.890670
20.505882
34.435116
39.474663
33.432491
19.505617
5.505001
-0.615238
4.323566
16.964706
29.847622
36.042072
32.907097
23.157394
13.025259
8.230673
9.946612
14.105047
14.954019
9.380275
-1.791413
-15.335873
-27.569885
-35.573318
-37.784538
-34.145489
-26.101458
-16.173878
-6.738274
0.701451
4.847040
4.447343
-0.077056
-5.730207
-8.937537
-8.177661
-4.334366
0.551416
4.356601
5.587072
3.736313
-0.870326
-7.241517
-13.803458
-18.828547
-20.759268
-17.903364
-8.497827
7.623441
26.956671
42.668736
48.005630
40.294765
22.694132
2.836963
-10.747939
-12.770437
-3.592211
11.427496
24.826061
30.595137
26.881397
16.366634
4.125348
-5.597319
-11.653684
-15.962134
-21.356209
-28.663275
-35.025955
-35.458321
-26.929888
-10.964743
7.405840
22.044155
27.506607
21.042313
4.582884
-15.547766
-31.627096
-37.951797
-33.013069
-20.051859
-5.587986
3.714133
3.985469
-4.740179
-19.093319
-33.703281
-42.992706
-43.260136
-34.272148
-19.408630
-4.216640
5.938655
8.096288
2.620805
-7.719266
-19.588640
-30.019341
-35.776672
-32.936893
-18.710588
5.527109
33.148724
54.620941
62.158615
53.975662
35.058353
13.757613
-3.016475
-12.639213
-16.476925
-17.655964
-18.990217
-21.930651
-26.184004
-30.185762
-32.399662
-32.117413
-29.227203
-23.914511
-16.813824
-9.222166
-2.722146
1.811231
4.599989
6.018078
5.694179
3.032630
-1.689354
-6.947084
-10.412309
-9.926590
-4.556342
4.821763
15.655270
24.826811
30.341278
32.121174
31.242735
28.692781
24.818134
19.547319
12.996009
5.925683
-0.360471
-4.329135
-4.535608
-0.452049
6.469035
12.788995
14.672135
9.949612
-0.794916
-14.547360
-27.328178
-36.213097
-40.592113
-41.400482
-39.097939
-32.876194
-22.270193
-9.339300
1.675342
7.668072
9.438937
10.556594
13.414276
16.796993
17.594095
14.624248
10.364630
9.132859
13.709124
22.963459
32.208023
36.254932
32.677284
22.656897
9.558797
-2.824925
-11.356332
-14.418403
-12.570592
-7.848263
-1.865136
5.077032
12.912127
20.566946
26.273605
28.684492
27.200588
21.571167
11.832521
-1.018518
-14.210478
-23.431812
-24.875536
-18.056862
-6.655284
4.128043
11.299154
15.142337
17.348999
19.165735
21.143211
23.178375
24.282890
23.503309
21.674513
21.156063
22.866272
24.231359
20.970442
10.515078
-6.502514
-26.629509
-44.248550
-53.035557
-48.951988
-32.776054
-9.762260
13.089121
29.872705
37.323166
35.152222
25.674969
12.896629
1.206307
-5.827897
-6.195799
-0.140702
9.172395
16.346092
16.495087
8.578541
-3.510404
-13.726035
-18.232008
-17.182590
-13.174094
-9.095965
-6.871049
-6.578091
-6.485934
-4.934015
-2.664822
-2.923952
-8.695606
-19.508146
-30.781673
-36.308071
-31.975954
-18.123587
1.088475
20.316874
34.855339
40.818737
35.833755
20.862667
0.753076
-17.654114
-28.278666
-28.004978
-17.774733
-1.872009
14.194494
25.471987
28.567076
22.860783
11.330860
-0.896114
-9.596013
-13.012793
-11.116212
-4.802875
3.956065
12.380046
17.881311
18.637882
13.944835
5.151586
-4.092159
-9.777331
-10.387888
-7.870407
-5.587558
-5.273390
-6.142183
-6.413797
-4.743052
-0.475379
6.262297
14.328116
21.828556
27.047413
29.431532
29.599552
28.232777
25.296230
20.403809
13.251781
3.693469
-7.413338
-16.972136
-20.585970
-16.055305
-5.853699
4.114372
8.057665
3.681368
-6.032043
-14.208873
-14.766322
-6.921123
4.196921
10.950963
8.291151
-2.565321
-14.769411
-20.618084
-16.454262
-4.042781
11.371005
23.939775
29.571720
27.437788
20.177534
12.367598
7.904498
8.091615
11.803821
17.110790
22.399439
25.990908
25.284578
17.293922
0.811037
-22.010708
-46.406502
-67.074280
-79.911026
-83.241104
-78.598381
-70.045708
-61.744144
-55.758553
-51.895733
-48.815407
-44.673714
-37.029896
-23.273968
-2.317796
23.682299
49.361542
67.999199
74.059715
65.653679
46.011059
22.952770
6.126268
2.567557
12.763539
30.292051
45.365215
49.316971
37.709118
12.265037
-18.472507
-41.812160
-47.304539
-32.974342
-6.576381
19.007093
32.531300
28.884937
9.805400
-17.845316
-44.589878
-61.240509
-62.098312
-47.240856
-22.358347
3.935420
23.896049
33.689453
33.920570
27.408413
16.606770
3.223400
-10.564253
-21.934383
-28.982990
-31.977354
-32.551388
-31.594778
-28.202751
-20.825544
-9.073589
5.508099
19.404560
27.601854
25.419970
11.492553
-10.090905
-30.561829
-40.688869
-36.272362
-20.592873
-1.416968
14.304689
23.022354
23.788290
17.045527
4.794048
-8.791625
-18.203785
-19.284378
-11.759993
0.469831
11.290281
15.198267
9.876507
-2.395917
-15.762325
-24.240917
-24.901136
-18.268764
-6.829981
6.148230
17.088968
22.838060
21.927835
15.463848
6.768188
-0.071552
-2.008728
1.609163
8.908102
16.736458
22.398085
24.704203
24.199081
22.941450
23.551411
27.444441
33.520618
38.784618
40.544155
37.997105
31.664211
21.789127
8.093825
-8.781776
-26.102064
-39.548771
-45.281487
-42.428596
-34.106026
-25.613607
-21.087145
-21.405781
-24.421402
-26.495199
-24.245846
-15.880053
-1.702286
15.916770
32.711788
43.560589
44.982918
37.359512
24.763651
12.938124
6.923123
8.999014
17.875929
29.829149
40.749573
47.549698
48.621788
43.895458
34.715565
23.355703
12.151506
2.630842
-4.773677
-10.323551
-14.455375
-17.550312
-20.082642
-23.011572
-27.784309
-35.543224
-46.091057
-57.541100
-66.819382
-70.342583
-64.627518
-47.518806
-20.304956
10.800962
36.172848
47.395596
41.881233
24.110271
2.936162
-13.002237
-19.214369
-16.729759
-10.095323
-3.447250
2.072581
7.633394
14.128972
20.569174
24.760006
24.915686
20.455917
12.184869
2.412042
-5.657601
-9.538072
-9.041115
-6.476872
-5.108724
-7.055696
-12.184136
-18.546413
-23.815531
-26.486031
-26.150318
-23.128380
-17.822569
-10.295907
-0.696589
9.930018
19.700642
26.694960
29.188419
25.559813
15.264667
0.359887
-14.629859
-25.158745
-29.256142
-27.975990
-23.947771
-19.679691
-16.512390
-14.301098
-11.955126
-8.900888
-6.257586
-5.907664
-8.005258
-10.078290
-9.316856
-5.442106
-0.881213
1.405893
-0.218378
-5.631949
-12.869609
-18.098171
-17.056278
-7.971414
6.646643
21.344097
31.065706
33.724133
30.519096
24.598467
19.361000
17.099840
18.053926
20.211910
20.542391
17.326763
11.768388
7.235550
6.677379
10.564526
17.128258
24.243353
30.663465
35.620495
38.091663
37.131477
32.928890
27.017139
21.201202
16.648676
13.783485
12.194666
10.634692
7.742322
2.982345
-3.176722
-9.818467
-16.123552
-21.514912
-25.553007
-27.944630
-28.674591
-27.939470
-25.997980
-23.184959
-19.931364
-16.818737
-14.832878
-15.238740
-18.410854
-22.500116
-23.833666
-19.393991
-9.262399
3.236825
13.639375
18.833668
18.285196
13.513170
6.766539
0.270205
-4.033819
-5.136733
-3.734915
-2.028069
-2.337093
-5.709459
-11.569140
-18.169254
-23.169209
-24.411295
-21.269772
-15.703311
-11.394804
-11.126592
-14.587587
-18.496941
-18.782032
-13.038648
-2.006089
10.357225
18.507700
18.311573
9.637002
-3.477933
-15.234511
-21.268841
-20.582115
-15.188854
-8.151659
-1.693220
3.398277
7.124031
9.516446
10.541573
10.249228
8.782949
6.489990
3.984368
1.675129
-0.790155
-4.172709
-8.520109
-12.510105
-14.062309
-11.732434
-5.718052
2.288328
10.292852
17.283197
23.419724
28.934938
32.878845
33.146008
28.041351
17.956223
5.544493
-5.528810
-12.095220
-12.727395
-8.561839
-2.882714
0.810297
0.803135
-2.277151
-6.300732
-8.958661
-8.881643
-6.196180
-2.342892
0.664748
1.101495
-1.754645
-7.243469
-13.508543
-18.115192
-18.708897
-13.743782
-3.437714
9.661640
21.342186
27.604254
26.720234
19.988764
10.708586
2.544033
-1.727880
-1.307756
1.952525
4.472906
3.305001
-2.008730
-9.433836
-16.030361
-20.011944
-21.849718
-23.466576
-26.220963
-29.454136
-30.629929
-26.940315
-17.438234
-4.144722
8.788420
17.249260
19.411249
16.831974
13.449371
12.793553
15.571221
19.977642
24.222605
27.880016
30.537184
30.504177
26.219231
18.642916
11.262768
7.509145
8.199226
11.015168
12.164696
9.025673
1.992244
-5.747375
-10.281335
-9.331662
-3.389273
4.732724
11.345621
13.467045
9.802752
0.967946
-10.765058
-22.239834
-30.693705
-34.783978
-34.760075
-31.964622
-28.157803
-24.967398
-23.354916
-23.053104
-22.445127
-19.337448
-12.361979
-2.066807
9.175432
18.461210
23.895227
25.271259
23.731886
21.049206
18.946552
18.439331
19.354795
20.465382
20.289705
18.164406
15.001930
12.825637
12.865187
13.919748
12.950310
7.499715
-2.359520
-14.134669
-24.588734
-31.342875
-33.496857
-31.514528
-26.594786
-19.884886
-12.360012
-5.097105
0.951518
5.363423
8.247969
9.955164
10.806397
11.112496
11.246920
11.426434
11.515431
11.177741
10.240648
8.915703
7.483152
5.798811
3.554070
1.095595
-0.410095
0.139276
2.735960
6.124212
8.690243
9.502144
8.597575
6.395343
2.988419
-1.774867
-7.465899
-12.577271
-15.257981
-14.731213
-11.721339
-7.337792
-1.848630
5.231456
13.913016
22.648577
28.549871
29.010830
23.578400
14.443572
5.060128
-1.907755
-5.803031
-7.851275
-10.084883
-13.981549
-19.543032
-25.377131
-29.607849
-30.883369
-28.965343
-24.662437
-19.194630
