EVENT_NAME: EMILIA_2ND_SHOCK
EVENT_ID: IT-2012-0011
EVENT_DATE_YYYYMMDD: 20120529
EVENT_TIME_HHMMSS: 070002
EVENT_LATITUDE_DEGREE: 44.8417
EVENT_LONGITUDE_DEGREE: 11.0657
EVENT_DEPTH_KM: 8.1
HYPOCENTER_REFERENCE: INGV-CNT_Seismic_Bulletin
MAGNITUDE_W: 6.0
MAGNITUDE_W_REFERENCE: RCMT-INGV
MAGNITUDE_L: 5.8
MAGNITUDE_L_REFERENCE: INGV-CNT_Seismic_Bulletin
FOCAL_MECHANISM: TF
NETWORK: IT
STATION_CODE: CRP
STATION_NAME: CARPI
STATION_LATITUDE_DEGREE: 44.782300
STATION_LONGITUDE_DEGREE: 10.870300
STATION_ELEVATION_M: 89
LOCATION: 
SENSOR_DEPTH_M: 0.0
VS30_M/S: 
SITE_CLASSIFICATION_EC8: C*
MORPHOLOGIC_CLASSIFICATION: 
EPICENTRAL_DISTANCE_KM: 16.8
EARTHQUAKE_BACKAZIMUTH_DEGREE: 66.8
DATE_TIME_FIRST_SAMPLE_YYYYMMDD_HHMMSS: 20120529_065953.000
DATE_TIME_FIRST_SAMPLE_PRECISION: seconds
SAMPLING_INTERVAL_S: 0.005000
NDATA: 27723
DURATION_S: 138.615
STREAM: HNN
UNITS: cm
INSTRUMENT: sensor = Episensor FBA ES-T [Kinemetrics] | digitizer = Etna [Kinemetrics]
INSTRUMENT_ANALOG/DIGITAL: D
INSTRUMENTAL_FREQUENCY_HZ: 
INSTRUMENTAL_DAMPING: 
FULL_SCALE_G: 
N_BIT_DIGITAL_CONVERTER: 18
PGD_CM: 1.831121
TIME_PGD_S: 21.365000
BASELINE_CORRECTION: BASELINE REMOVED
FILTER_TYPE: BUTTERWORTH
FILTER_ORDER: 2
LOW_CUT_FREQUENCY_HZ: 0.050
HIGH_CUT_FREQUENCY_HZ: 40.000
LATE/NORMAL_TRIGGERED: NT
DATABASE_VERSION: DYNA 1.0
HEADER_FORMAT: DYNA 1.2
DATA_TYPE: DISPLACEMENT
PROCESSING: manual (Paolucci et al., 2011)
DATA_TIMESTAMP_YYYYMMDD_HHMMSS: 20141204_103047.929
DATA_LICENSE: CC-BY3_0-IT (http://creativecommons.org/licenses/by/3.0/deed.en)
DATA_CITATION: ESM working group (2015), European Strong-Motion database, version 0.1, Network Activity 3: Networking acceleration networks and SM data users. Project NERA (www.nera-eu.org)
DATA_CREATOR: ESM working group
ORIGINAL_DATA_MEDIATOR_CITATION: Ufficio Rischio Sismico e Vulcanico del Dipartimento della Protezione Civile (http://www.protezionecivile.gov.it/)
ORIGINAL_DATA_MEDIATOR: Rete Accelerometrica Nazionale - RAN Download (http://www.mot1.it/randownload/)
ORIGINAL_DATA_CREATOR_CITATION: Italian Strong Motion Network, Italian Civil Protection Department http://www.protezionecivile.gov.it
ORIGINAL_DATA_CREATOR: network: IT (Italian Strong Motion Network); owner: Dipartimento Della Protezione Civile
USER1: /home/dyna/processing-itaca/processing.py /var/www/processing/tmp/fpacor//IT.CRP..HNE.D.20120529.070003.X.ACC.ASC /var/www/processing/tmp/fpacor//IT.CRP..HNN.D.20120529.070003.X.ACC.ASC /var/www/processing/tmp/fpacor//IT.CRP..HNZ.D.20120529.070003.X.ACC.ASC --tmp /var/www/processing/tmp/fpacor/ --le 0.050 --he 40.000 --ln 0.050 --hn 40.000 --lz 0.050 --hz 40.000 --fo 2 --ca -10 --cz 40 --ta 5 --tz 5 --mf 1 --rf 0 --tr NT
USER2: 
USER3: 
USER4: 
USER5: 
[...]
-3.128016e-01
-3.126427e-01
-3.125127e-01
-3.123945e-01
-3.122760e-01
-3.121623e-01
-3.120706e-01
-3.120088e-01
-3.119614e-01
-3.118979e-01
-3.117962e-01
-3.116626e-01
-3.115382e-01
-3.114887e-01
-3.115779e-01
-3.118353e-01
-3.122361e-01
-3.127030e-01
-3.131306e-01
-3.134231e-01
-3.135278e-01
-3.134552e-01
-3.132779e-01
-3.131061e-01
-3.130436e-01
-3.131511e-01
-3.134316e-01
-3.138381e-01
-3.142957e-01
-3.147308e-01
-3.150908e-01
-3.153476e-01
-3.154889e-01
-3.155134e-01
-3.154331e-01
-3.152736e-01
-3.150686e-01
-3.148513e-01
-3.146475e-01
-3.144687e-01
-3.143044e-01
-3.141230e-01
-3.138907e-01
-3.136012e-01
-3.132841e-01
-3.129720e-01
-3.126576e-01
-3.122980e-01
-3.118698e-01
-3.114218e-01
-3.110740e-01
-3.109558e-01
-3.111228e-01
-3.115099e-01
-3.119450e-01
-3.122151e-01
-3.121569e-01
-3.117290e-01
-3.110227e-01
-3.101986e-01
-3.094021e-01
-3.087122e-01
-3.081427e-01
-3.076748e-01
-3.072971e-01
-3.070237e-01
-3.068802e-01
-3.068787e-01
-3.070100e-01
-3.072461e-01
-3.075342e-01
-3.077927e-01
-3.079361e-01
-3.079233e-01
-3.077876e-01
-3.076204e-01
-3.075180e-01
-3.075310e-01
-3.076583e-01
-3.078782e-01
-3.081692e-01
-3.084982e-01
-3.088047e-01
-3.090122e-01
-3.090694e-01
-3.089887e-01
-3.088439e-01
-3.087246e-01
-3.086819e-01
-3.087111e-01
-3.087780e-01
-3.088566e-01
-3.089403e-01
-3.090176e-01
-3.090448e-01
-3.089585e-01
-3.087296e-01
-3.084079e-01
-3.081100e-01
-3.079546e-01
-3.079930e-01
-3.081816e-01
-3.084121e-01
-3.085729e-01
-3.085992e-01
-3.084857e-01
-3.082628e-01
-3.079682e-01
-3.076406e-01
-3.073238e-01
-3.070525e-01
-3.068268e-01
-3.066129e-01
-3.063781e-01
-3.061271e-01
-3.059031e-01
-3.057482e-01
-3.056651e-01
-3.056213e-01
-3.055840e-01
-3.055449e-01
-3.055224e-01
-3.055569e-01
-3.057015e-01
-3.059940e-01
-3.064229e-01
-3.069209e-01
-3.073931e-01
-3.077547e-01
-3.079482e-01
-3.079433e-01
-3.077383e-01
-3.073799e-01
-3.069773e-01
-3.066728e-01
-3.065707e-01
-3.066766e-01
-3.068908e-01
-3.070535e-01
-3.070188e-01
-3.067269e-01
-3.062383e-01
-3.057065e-01
-3.053011e-01
-3.051214e-01
-3.051512e-01
-3.052754e-01
-3.053491e-01
-3.052806e-01
-3.050813e-01
-3.048593e-01
-3.047654e-01
-3.049074e-01
-3.052693e-01
-3.056958e-01
-3.059738e-01
-3.059596e-01
-3.056559e-01
-3.051891e-01
-3.047218e-01
-3.043684e-01
-3.041532e-01
-3.040123e-01
-3.038309e-01
-3.034991e-01
-3.029680e-01
-3.022791e-01
-3.015507e-01
-3.009232e-01
-3.004959e-01
-3.002843e-01
-3.002138e-01
-3.001554e-01
-2.999976e-01
-2.997085e-01
-2.993424e-01
-2.989888e-01
-2.987097e-01
-2.985089e-01
-2.983463e-01
-2.981805e-01
-2.979953e-01
-2.977893e-01
-2.975525e-01
-2.972743e-01
-2.969792e-01
-2.967392e-01
-2.966330e-01
-2.966828e-01
-2.968248e-01
-2.969415e-01
-2.969318e-01
-2.967665e-01
-2.964904e-01
-2.961784e-01
-2.958812e-01
-2.956007e-01
-2.953089e-01
-2.949879e-01
-2.946457e-01
-2.942930e-01
-2.939172e-01
-2.934889e-01
-2.929896e-01
-2.924235e-01
-2.918028e-01
-2.911368e-01
-2.904478e-01
-2.897966e-01
-2.892729e-01
-2.889467e-01
-2.888246e-01
-2.888564e-01
-2.889789e-01
-2.891501e-01
-2.893530e-01
-2.895698e-01
-2.897467e-01
-2.897825e-01
-2.895658e-01
-2.890333e-01
-2.881990e-01
-2.871422e-01
-2.859750e-01
-2.848198e-01
-2.837958e-01
-2.829973e-01
-2.824626e-01
-2.821646e-01
-2.820423e-01
-2.820430e-01
-2.821362e-01
-2.822941e-01
-2.824624e-01
-2.825468e-01
-2.824295e-01
-2.820185e-01
-2.813013e-01
-2.803626e-01
-2.793565e-01
-2.784559e-01
-2.778025e-01
-2.774723e-01
-2.774605e-01
-2.776853e-01
-2.780135e-01
-2.783088e-01
-2.784798e-01
-2.785052e-01
-2.784273e-01
-2.783192e-01
-2.782312e-01
-2.781501e-01
-2.780029e-01
-2.777056e-01
-2.772252e-01
-2.766124e-01
-2.759867e-01
-2.754824e-01
-2.751822e-01
-2.750716e-01
-2.750421e-01
-2.749487e-01
-2.746815e-01
-2.742058e-01
-2.735596e-01
-2.728287e-01
-2.721187e-01
-2.715194e-01
-2.710631e-01
-2.706982e-01
-2.703087e-01
-2.697787e-01
-2.690588e-01
-2.681814e-01
-2.672187e-01
-2.662223e-01
-2.651820e-01
-2.640236e-01
-2.626385e-01
-2.609257e-01
-2.588295e-01
-2.563555e-01
-2.535591e-01
-2.505141e-01
-2.472802e-01
-2.438835e-01
-2.403099e-01
-2.365161e-01
-2.324615e-01
-2.281495e-01
-2.236512e-01
-2.190969e-01
-2.146335e-01
-2.103615e-01
-2.062790e-01
-2.022655e-01
-1.981172e-01
-1.936150e-01
-1.885835e-01
-1.829136e-01
-1.765442e-01
-1.694251e-01
-1.614814e-01
-1.525964e-01
-1.426139e-01
-1.313591e-01
-1.186717e-01
-1.044430e-01
-8.863739e-02
-7.128162e-02
-5.243173e-02
-3.214302e-02
-1.046811e-02
1.250382e-02
3.657222e-02
6.135033e-02
8.624352e-02
1.105084e-01
1.333659e-01
1.541099e-01
1.721647e-01
1.870890e-01
1.985629e-01
2.064022e-01
2.106011e-01
2.113570e-01
2.090355e-01
2.040913e-01
1.969806e-01
1.881003e-01
1.777712e-01
1.662642e-01
1.538453e-01
1.408011e-01
1.274228e-01
1.139685e-01
1.006421e-01
8.759966e-02
7.496700e-02
6.284116e-02
5.127478e-02
4.027015e-02
2.980904e-02
1.990867e-02
1.066746e-02
2.265199e-03
-5.083179e-03
-1.118207e-02
-1.588936e-02
-1.912997e-02
-2.089276e-02
-2.121478e-02
-2.016033e-02
-1.780524e-02
-1.424093e-02
-9.603373e-03
-4.107713e-03
1.942660e-03
8.190479e-03
1.429068e-02
1.997384e-02
2.507586e-02
2.952480e-02
3.329870e-02
3.638614e-02
3.877466e-02
4.046086e-02
4.146358e-02
4.183801e-02
4.169335e-02
4.119720e-02
4.054832e-02
3.992714e-02
3.945194e-02
3.916028e-02
3.901914e-02
3.896081e-02
3.893389e-02
3.894392e-02
3.905525e-02
3.935313e-02
3.989506e-02
4.068612e-02
4.169579e-02
4.290162e-02
4.432197e-02
4.601849e-02
4.808037e-02
5.060669e-02
5.368828e-02
5.738559e-02
6.170979e-02
6.662269e-02
7.205384e-02
7.791602e-02
8.410587e-02
9.049160e-02
9.690202e-02
1.031335e-01
1.089808e-01
1.142783e-01
1.189288e-01
1.229096e-01
1.262746e-01
1.291590e-01
1.317658e-01
1.343128e-01
1.369698e-01
1.398318e-01
1.429350e-01
1.462769e-01
1.498207e-01
1.535035e-01
1.572564e-01
1.610175e-01
1.647291e-01
1.683405e-01
1.718197e-01
1.751523e-01
1.783323e-01
1.813604e-01
1.842519e-01
1.870396e-01
1.897614e-01
1.924372e-01
1.950550e-01
1.975883e-01
2.000412e-01
2.024914e-01
2.050928e-01
2.080364e-01
2.114935e-01
2.155549e-01
2.201915e-01
2.252740e-01
2.306453e-01
2.361881e-01
2.418425e-01
2.475851e-01
2.533977e-01
2.592442e-01
2.650674e-01
2.708153e-01
2.764810e-01
2.821279e-01
2.878793e-01
2.938810e-01
3.002532e-01
3.070502e-01
3.142459e-01
3.217633e-01
3.295298e-01
3.375128e-01
3.457099e-01
3.541143e-01
3.626914e-01
3.713788e-01
3.801083e-01
3.888390e-01
3.975799e-01
4.063878e-01
4.153494e-01
4.245462e-01
4.339998e-01
4.436211e-01
4.532102e-01
4.625157e-01
4.713109e-01
4.794462e-01
4.868684e-01
4.936102e-01
4.997507e-01
5.053785e-01
5.105815e-01
5.154538e-01
5.200927e-01
5.245808e-01
5.289688e-01
5.332683e-01
5.374591e-01
5.415107e-01
5.454002e-01
5.491098e-01
5.526275e-01
5.559771e-01
5.592702e-01
5.627377e-01
5.667129e-01
5.715744e-01
5.776813e-01
5.853272e-01
5.947196e-01
6.059698e-01
6.190696e-01
6.338588e-01
6.500300e-01
6.671864e-01
6.849259e-01
7.029204e-01
7.209677e-01
7.390023e-01
7.570663e-01
7.752662e-01
7.937398e-01
8.126285e-01
8.320452e-01
8.520449e-01
8.726034e-01
8.936003e-01
9.148205e-01
9.359830e-01
9.567895e-01
9.769689e-01
9.963078e-01
1.014672e+00
1.032028e+00
1.048453e+00
1.064138e+00
1.079359e+00
1.094434e+00
1.109659e+00
1.125242e+00
1.141276e+00
1.157762e+00
1.174631e+00
1.191759e+00
1.208951e+00
1.225936e+00
1.242382e+00
1.257925e+00
1.272217e+00
1.284965e+00
1.295953e+00
1.305055e+00
1.312224e+00
1.317445e+00
1.320679e+00
1.321831e+00
1.320764e+00
1.317338e+00
1.311450e+00
1.303063e+00
1.292207e+00
1.278975e+00
1.263509e+00
1.245977e+00
1.226526e+00
1.205255e+00
1.182237e+00
1.157570e+00
1.131417e+00
1.104012e+00
1.075619e+00
1.046488e+00
1.016829e+00
9.867989e-01
9.564998e-01
9.259744e-01
8.952117e-01
8.641604e-01
8.327714e-01
8.010583e-01
7.691395e-01
7.372354e-01
7.056366e-01
6.746736e-01
6.446922e-01
6.160296e-01
5.889857e-01
5.637912e-01
5.405756e-01
5.193379e-01
4.999256e-01
4.820301e-01
4.652063e-01
4.489198e-01
4.326122e-01
4.157655e-01
3.979414e-01
3.787944e-01
3.580864e-01
3.357328e-01
3.118584e-01
2.867984e-01
2.610170e-01
2.349889e-01
2.091097e-01
1.836620e-01
1.588166e-01
1.346618e-01
1.112597e-01
8.871061e-02
6.718953e-02
4.692813e-02
2.816352e-02
1.109142e-02
-4.164544e-03
-1.756786e-02
-2.916661e-02
-3.907515e-02
-4.743843e-02
-5.438732e-02
-6.001613e-02
-6.439820e-02
-6.761645e-02
-6.977746e-02
-7.100162e-02
-7.141000e-02
-7.111957e-02
-7.023879e-02
-6.887502e-02
-6.716864e-02
-6.532690e-02
-6.362355e-02
-6.237015e-02
-6.188263e-02
-6.244063e-02
-6.423221e-02
-6.731382e-02
-7.162676e-02
-7.705893e-02
-8.349802e-02
-9.084552e-02
-9.900512e-02
-1.078718e-01
-1.173317e-01
-1.272671e-01
-1.375568e-01
-1.480724e-01
-1.586725e-01
-1.692079e-01
-1.795408e-01
-1.895532e-01
-1.991393e-01
-2.082056e-01
-2.166988e-01
-2.246304e-01
-2.320708e-01
-2.391220e-01
-2.458920e-01
-2.524828e-01
-2.589951e-01
-2.655427e-01
-2.722625e-01
-2.793078e-01
-2.868309e-01
-2.949709e-01
-3.038411e-01
-3.135086e-01
-3.239774e-01
-3.351961e-01
-3.470810e-01
-3.595365e-01
-3.724687e-01
-3.857860e-01
-3.993878e-01
-4.131606e-01
-4.269973e-01
-4.408267e-01
-4.546240e-01
-4.683948e-01
-4.821366e-01
-4.957974e-01
-5.092518e-01
-5.223039e-01
-5.347133e-01
-5.462320e-01
-5.566422e-01
-5.657848e-01
-5.735805e-01
-5.800307e-01
-5.851866e-01
-5.891025e-01
-5.918099e-01
-5.933269e-01
-5.936832e-01
-5.929439e-01
-5.912152e-01
-5.886256e-01
-5.852917e-01
-5.812886e-01
-5.766416e-01
-5.713343e-01
-5.653221e-01
-5.585415e-01
-5.509196e-01
-5.423911e-01
-5.329164e-01
-5.224895e-01
-5.111415e-01
-4.989517e-01
-4.860582e-01
-4.726377e-01
-4.588638e-01
-4.448772e-01
-4.307892e-01
-4.167129e-01
-4.028042e-01
-3.892809e-01
-3.763990e-01
-3.643974e-01
-3.534437e-01
-3.436070e-01
-3.348612e-01
-3.271092e-01
-3.202172e-01
-3.140457e-01
-3.084715e-01
-3.034007e-01
-2.987709e-01
-2.945314e-01
-2.906040e-01
-2.868420e-01
-2.830082e-01
-2.787834e-01
-2.737993e-01
-2.676771e-01
-2.600624e-01
-2.506555e-01
-2.392276e-01
-2.256267e-01
-2.097925e-01
-1.917725e-01
-1.717274e-01
-1.499333e-01
-1.267925e-01
-1.028408e-01
-7.872022e-02
-5.510708e-02
-3.261301e-02
-1.168929e-02
7.432660e-03
2.474226e-02
4.039053e-02
5.459637e-02
6.756286e-02
7.943522e-02
9.029240e-02
1.001372e-01
1.088736e-01
1.163001e-01
1.221456e-01
1.261355e-01
1.280520e-01
1.277657e-01
1.252427e-01
1.205529e-01
1.138733e-01
1.054643e-01
9.561975e-02
8.462477e-02
7.274710e-02
6.026237e-02
4.748835e-02
3.480180e-02
2.262194e-02
1.136654e-02
1.410854e-03
-6.928519e-03
-1.339626e-02
-1.779953e-02
-2.000151e-02
-1.991302e-02
-1.749264e-02
-1.274873e-02
-5.736766e-03
3.445803e-03
1.467449e-02
2.782536e-02
4.279426e-02
5.948765e-02
7.779592e-02
9.757777e-02
1.186702e-01
1.409054e-01
1.641088e-01
1.880788e-01
2.125697e-01
2.372878e-01
2.618914e-01
2.860002e-01
3.092366e-01
3.313010e-01
3.520549e-01
3.715682e-01
3.901058e-01
4.080524e-01
4.258104e-01
4.437271e-01
4.620765e-01
4.810680e-01
5.008508e-01
5.215084e-01
5.430489e-01
5.654017e-01
5.884297e-01
6.119597e-01
6.358186e-01
6.598569e-01
6.839514e-01
7.079955e-01
7.318891e-01
7.555454e-01
7.789096e-01
8.019620e-01
8.247033e-01
8.471446e-01
8.693021e-01
8.911839e-01
9.127774e-01
9.340601e-01
9.550322e-01
9.757487e-01
9.963281e-01
1.016927e+00
1.037684e+00
1.058652e+00
1.079761e+00
1.100812e+00
1.121498e+00
1.141478e+00
1.160460e+00
1.178284e+00
1.194958e+00
1.210648e+00
1.225628e+00
1.240212e+00
1.254692e+00
1.269296e+00
1.284174e+00
1.299421e+00
1.315081e+00
1.331160e+00
1.347631e+00
1.364434e+00
1.381463e+00
1.398579e+00
1.415619e+00
1.432431e+00
1.448889e+00
1.464912e+00
1.480463e+00
1.495561e+00
1.510282e+00
1.524752e+00
1.539118e+00
1.553497e+00
1.567945e+00
1.582441e+00
1.596882e+00
1.611083e+00
1.624802e+00
1.637782e+00
1.649800e+00
1.660707e+00
1.670433e+00
1.678974e+00
1.686384e+00
1.692759e+00
1.698227e+00
1.702917e+00
1.706914e+00
1.710222e+00
1.712767e+00
1.714441e+00
1.715160e+00
1.714922e+00
1.713822e+00
1.712051e+00
1.709879e+00
1.707623e+00
1.705617e+00
1.704180e+00
1.703584e+00
1.704034e+00
1.705671e+00
1.708584e+00
1.712815e+00
1.718362e+00
1.725171e+00
1.733133e+00
1.742092e+00
1.751859e+00
1.762218e+00
1.772929e+00
1.783706e+00
1.794208e+00
1.804045e+00
1.812811e+00
1.820131e+00
1.825715e+00
1.829397e+00
1.831121e+00
1.830893e+00
1.828713e+00
1.824563e+00
1.818420e+00
1.810273e+00
1.800137e+00
1.788047e+00
1.774048e+00
1.758177e+00
1.740475e+00
1.721038e+00
1.700078e+00
1.677972e+00
1.655261e+00
1.632571e+00
1.610491e+00
1.589487e+00
1.569871e+00
1.551811e+00
1.535335e+00
1.520359e+00
1.506712e+00
1.494170e+00
1.482487e+00
1.471419e+00
1.460745e+00
1.450256e+00
1.439762e+00
1.429103e+00
1.418153e+00
1.406823e+00
1.395049e+00
1.382784e+00
1.369972e+00
1.356530e+00
1.342355e+00
1.327340e+00
1.311402e+00
1.294500e+00
1.276651e+00
1.257931e+00
1.238454e+00
1.218345e+00
1.197735e+00
1.176766e+00
1.155576e+00
1.134255e+00
1.112820e+00
1.091228e+00
1.069411e+00
1.047303e+00
1.024849e+00
1.001997e+00
9.786924e-01
9.548824e-01
9.305144e-01
9.055205e-01
8.798079e-01
8.532739e-01
8.258328e-01
7.974438e-01
7.681498e-01
7.381251e-01
7.076954e-01
6.772956e-01
6.473687e-01
6.182516e-01
5.901144e-01
5.629936e-01
5.368835e-01
5.118028e-01
4.877823e-01
4.647983e-01
4.427206e-01
4.213161e-01
4.002932e-01
3.793498e-01
3.582105e-01
3.366601e-01
3.145723e-01
2.919212e-01
2.687648e-01
2.452064e-01
2.213483e-01
1.972614e-01
1.729982e-01
1.486375e-01
1.243178e-01
1.002491e-01
7.670951e-02
5.401999e-02
3.249698e-02
1.241133e-02
-6.032565e-03
-2.270376e-02
-3.753627e-02
-5.050345e-02
-6.159138e-02
-7.079005e-02
-7.810800e-02
-8.360565e-02
-8.743417e-02
-8.986009e-02
-9.126285e-02
-9.210496e-02
-9.287983e-02
-9.405013e-02
-9.599251e-02
-9.896179e-02
-1.030913e-01
-1.084360e-01
-1.150338e-01
-1.229487e-01
-1.322788e-01
-1.431515e-01
-1.557139e-01
-1.700955e-01
-1.863516e-01
-2.044342e-01
-2.242098e-01
-2.455028e-01
-2.681316e-01
-2.919106e-01
-3.166266e-01
-3.420268e-01
-3.678365e-01
-3.937831e-01
-4.196050e-01
-4.450558e-01
-4.699252e-01
-4.940720e-01
-5.174550e-01
-5.401436e-01
-5.622912e-01
-5.840776e-01
-6.056536e-01
-6.271031e-01
-6.484146e-01
-6.694777e-01
-6.901258e-01
-7.101992e-01
-7.295957e-01
-7.482962e-01
-7.663580e-01
-7.838814e-01
-8.009794e-01
-8.177687e-01
-8.343638e-01
-8.508655e-01
-8.673535e-01
-8.838732e-01
-9.004157e-01
-9.169187e-01
-9.332935e-01
-9.494545e-01
-9.653369e-01
-9.809077e-01
-9.961695e-01
-1.011162e+00
-1.025959e+00
-1.040645e+00
-1.055273e+00
-1.069821e+00
-1.084204e+00
-1.098300e+00
-1.111988e+00
-1.125163e+00
-1.137736e+00
-1.149639e+00
-1.160824e+00
-1.171265e+00
-1.180955e+00
-1.189880e+00
-1.198011e+00
-1.205284e+00
-1.211625e+00
-1.216970e+00
-1.221308e+00
-1.224685e+00
-1.227211e+00
-1.229045e+00
-1.230365e+00
-1.231335e+00
-1.232075e+00
-1.232631e+00
-1.232968e+00
-1.233006e+00
-1.232666e+00
-1.231899e+00
-1.230683e+00
-1.229005e+00
-1.226840e+00
-1.224140e+00
-1.220851e+00
-1.216938e+00
-1.212407e+00
-1.207318e+00
-1.201779e+00
-1.195917e+00
-1.189848e+00
-1.183650e+00
-1.177365e+00
-1.171019e+00
-1.164655e+00
-1.158311e+00
-1.151982e+00
-1.145583e+00
-1.138956e+00
-1.131893e+00
-1.124176e+00
-1.115604e+00
-1.106029e+00
-1.095365e+00
-1.083617e+00
-1.070895e+00
-1.057406e+00
-1.043427e+00
-1.029265e+00
-1.015230e+00
-1.001609e+00
-9.886494e-01
-9.765423e-01
-9.654041e-01
-9.552669e-01
-9.460916e-01
-9.377837e-01
-9.302016e-01
-9.231682e-01
-9.165009e-01
-9.100498e-01
-9.037223e-01
-8.974798e-01
-8.913137e-01
-8.852273e-01
-8.792288e-01
-8.733295e-01
-8.675445e-01
-8.618986e-01
-8.564253e-01
-8.511536e-01
-8.460986e-01
-8.412580e-01
-8.366036e-01
-8.320696e-01
-8.275535e-01
-8.229358e-01
-8.181219e-01
-8.130797e-01
-8.078428e-01
-8.024858e-01
-7.971051e-01
-7.918129e-01
-7.867316e-01
-7.819784e-01
-7.776493e-01
-7.738128e-01
-7.705121e-01
-7.677679e-01
-7.655847e-01
-7.639668e-01
-7.629272e-01
-7.624840e-01
-7.626557e-01
-7.634576e-01
-7.648928e-01
-7.669497e-01
-7.696164e-01
-7.728912e-01
-7.767693e-01
-7.812318e-01
-7.862603e-01
-7.918594e-01
-7.980540e-01
-8.048659e-01
-8.122969e-01
-8.203261e-01
-8.289092e-01
-8.379715e-01
-8.474001e-01
-8.570364e-01
-8.666721e-01
-8.760574e-01
-8.849220e-01
-8.930031e-01
-9.000744e-01
-9.059753e-01
-9.106310e-01
-9.140595e-01
-9.163693e-01
-9.177400e-01
-9.183812e-01
-9.184828e-01
-9.181703e-01
-9.174823e-01
-9.163771e-01
-9.147597e-01
-9.125118e-01
-9.095190e-01
-9.056909e-01
-9.009762e-01
-8.953716e-01
-8.889258e-01
-8.817407e-01
-8.739682e-01
-8.657990e-01
-8.574478e-01
-8.491320e-01
-8.410353e-01
-8.332679e-01
-8.258463e-01
-8.187025e-01
-8.117178e-01
-8.047698e-01
-7.977625e-01
-7.906289e-01
-7.833252e-01
-7.758344e-01
-7.681655e-01
-7.603451e-01
-7.524160e-01
-7.444413e-01
-7.364993e-01
-7.286609e-01
-7.209676e-01
-7.134223e-01
-7.059906e-01
-6.986098e-01
-6.912062e-01
-6.837135e-01
-6.760846e-01
-6.682887e-01
-6.602897e-01
-6.520180e-01
-6.433615e-01
-6.341902e-01
-6.243960e-01
-6.139277e-01
-6.028041e-01
-5.911050e-01
-5.789560e-01
-5.665138e-01
-5.539507e-01
-5.414407e-01
-5.291557e-01
-5.172629e-01
-5.059099e-01
-4.952035e-01
-4.851896e-01
-4.758349e-01
-4.670167e-01
-4.585382e-01
-4.501624e-01
-4.416514e-01
-4.328032e-01
-4.234849e-01
-4.136421e-01
-4.032799e-01
-3.924293e-01
-3.811179e-01
-3.693520e-01
-3.571183e-01
-3.444053e-01
-3.312302e-01
-3.176585e-01
-3.038073e-01
-2.898365e-01
-2.759343e-01
-2.623084e-01
-2.491848e-01
-2.368094e-01
-2.254384e-01
-2.153128e-01
-2.066245e-01
-1.994919e-01
-1.939560e-01
-1.899901e-01
-1.875087e-01
