EVENT_NAME: EMILIA_2ND_SHOCK
EVENT_ID: IT-2012-0011
EVENT_DATE_YYYYMMDD: 20120529
EVENT_TIME_HHMMSS: 070002
EVENT_LATITUDE_DEGREE: 44.8417
EVENT_LONGITUDE_DEGREE: 11.0657
EVENT_DEPTH_KM: 8.1
HYPOCENTER_REFERENCE: INGV-CNT_Seismic_Bulletin
MAGNITUDE_W: 6.0
MAGNITUDE_W_REFERENCE: RCMT-INGV
MAGNITUDE_L: 5.8
MAGNITUDE_L_REFERENCE: INGV-CNT_Seismic_Bulletin
FOCAL_MECHANISM: TF
NETWORK: IT
STATION_CODE: CNT
STATION_NAME: CENTO
STATION_LATITUDE_DEGREE: 44.723400
STATION_LONGITUDE_DEGREE: 11.286700
STATION_ELEVATION_M: 68
LOCATION: 
SENSOR_DEPTH_M: 0.0
VS30_M/S: 
SITE_CLASSIFICATION_EC8: C*
MORPHOLOGIC_CLASSIFICATION: 
EPICENTRAL_DISTANCE_KM: 21.9
EARTHQUAKE_BACKAZIMUTH_DEGREE: 307.0
DATE_TIME_FIRST_SAMPLE_YYYYMMDD_HHMMSS: 20120529_065953.000
DATE_TIME_FIRST_SAMPLE_PRECISION: seconds
SAMPLING_INTERVAL_S: 0.005000
NDATA: 27600
DURATION_S: 138.000
STREAM: HNZ
UNITS: cm/s^2
INSTRUMENT: sensor = Episensor FBA ES-T [Kinemetrics] | digitizer = Etna [Kinemetrics]
INSTRUMENT_ANALOG/DIGITAL: D
INSTRUMENTAL_FREQUENCY_HZ: 
INSTRUMENTAL_DAMPING: 
FULL_SCALE_G: 
N_BIT_DIGITAL_CONVERTER: 18
PGA_CM/S^2: -63.788098
TIME_PGA_S: 20.065000
BASELINE_CORRECTION: BASELINE REMOVED
FILTER_TYPE: BUTTERWORTH
FILTER_ORDER: 2
LOW_CUT_FREQUENCY_HZ: 0.070
HIGH_CUT_FREQUENCY_HZ: 40.000
LATE/NORMAL_TRIGGERED: NT
DATABASE_VERSION: DYNA 1.0
HEADER_FORMAT: DYNA 1.2
DATA_TYPE: ACCELERATION
PROCESSING: manual (Paolucci et al., 2011)
DATA_TIMESTAMP_YYYYMMDD_HHMMSS: 20141204_102759.333
DATA_LICENSE: CC-BY3_0-IT (http://creativecommons.org/licenses/by/3.0/deed.en)
DATA_CITATION: ESM working group (2015), European Strong-Motion database, version 0.1, Network Activity 3: Networking acceleration networks and SM data users. Project NERA (www.nera-eu.org)
DATA_CREATOR: ESM working group
ORIGINAL_DATA_MEDIATOR_CITATION: Ufficio Rischio Sismico e Vulcanico del Dipartimento della Protezione Civile (http://www.protezionecivile.gov.it/)
ORIGINAL_DATA_MEDIATOR: Rete Accelerometrica Nazionale - RAN Download (http://www.mot1.it/randownload/)
ORIGINAL_DATA_CREATOR_CITATION: Italian Strong Motion Network, Italian Civil Protection Department http://www.protezionecivile.gov.it
ORIGINAL_DATA_CREATOR: network: IT (Italian Strong Motion Network); owner: Dipartimento Della Protezione Civile
USER1: /home/dyna/processing-itaca/processing.py /var/www/processing/tmp/fpacor//IT.CNT..HNE.D.20120529.070003.X.ACC.ASC /var/www/processing/tmp/fpacor//IT.CNT..HNN.D.20120529.070003.X.ACC.ASC /var/www/processing/tmp/fpacor//IT.CNT..HNZ.D.20120529.070003.X.ACC.ASC --tmp /var/www/processing/tmp/fpacor/ --le 0.070 --he 40.000 --ln 0.070 --hn 40.000 --lz 0.070 --hz 40.000 --fo 2 --ca -10 --cz 30 --ta 5 --tz 5 --mf 1 --rf 0 --tr NT
USER2: 
USER3: 
USER4: 
USER5: 
[...]
0.021908
0.051206
0.059976
0.049924
0.024111
-0.009320
-0.029217
-0.017132
0.018002
0.047777
0.055256
0.042098
0.014400
-0.018679
-0.039871
-0.035840
-0.013587
0.007294
0.017130
0.018733
0.013341
0.001356
-0.008076
-0.005992
0.001476
0.001272
-0.007765
-0.016568
-0.021796
-0.026713
-0.029648
-0.026718
-0.021733
-0.018167
-0.009332
0.009270
0.027728
0.035116
0.036415
0.042342
0.050141
0.050522
0.044496
0.035395
0.015406
-0.019308
-0.049426
-0.051266
-0.029288
-0.009536
-0.007530
-0.019499
-0.036402
-0.048773
-0.042566
-0.009255
0.038976
0.078855
0.097391
0.091640
0.059632
0.007677
-0.043780
-0.075654
-0.084861
-0.075847
-0.047821
-0.003524
0.037066
0.051927
0.042210
0.024250
0.006400
-0.009665
-0.015833
-0.003307
0.020784
0.038636
0.043051
0.037526
0.021708
-0.004746
-0.029797
-0.038564
-0.031808
-0.019749
-0.005003
0.012789
0.025139
0.023174
0.012805
0.008103
0.010538
0.009646
0.003079
-0.003247
-0.010891
-0.024303
-0.036591
-0.038029
-0.032830
-0.030629
-0.026771
-0.008376
0.024189
0.056021
0.074460
0.075956
0.059949
0.030021
-0.001481
-0.023383
-0.036064
-0.042393
-0.037070
-0.016958
0.005904
0.015304
0.009574
-0.002410
-0.015916
-0.026388
-0.021024
0.006366
0.039765
0.056849
0.053069
0.036646
0.010559
-0.023490
-0.053031
-0.065023
-0.061978
-0.053552
-0.039663
-0.016996
0.006689
0.020825
0.027930
0.037224
0.046730
0.046653
0.037456
0.026378
0.010055
-0.017539
-0.045084
-0.053364
-0.039237
-0.013892
0.014650
0.040938
0.052265
0.039185
0.012942
-0.004939
-0.008473
-0.006567
-0.002162
0.008459
0.020470
0.024346
0.020810
0.015055
0.003551
-0.017085
-0.035689
-0.037006
-0.022265
-0.004761
0.009845
0.022946
0.030301
0.027702
0.021460
0.017761
0.010537
-0.006700
-0.025197
-0.030595
-0.022311
-0.011193
-0.003986
-0.001257
-0.005179
-0.015947
-0.023332
-0.017052
-0.002026
0.010542
0.020509
0.033353
0.043942
0.042419
0.031005
0.018474
0.005440
-0.009752
-0.018633
-0.011903
0.004719
0.018036
0.023417
0.021597
0.009737
-0.010631
-0.025870
-0.025928
-0.019366
-0.018511
-0.020847
-0.019043
-0.017877
-0.027162
-0.045223
-0.061639
-0.072999
-0.082897
-0.087259
-0.076661
-0.052867
-0.027004
-0.006257
0.006122
0.008110
0.007770
0.021945
0.050226
0.065277
0.049890
0.029151
0.041131
0.084343
0.121933
0.136726
0.152915
0.195927
0.252896
0.285328
0.272349
0.231004
0.187658
0.126028
-0.019676
-0.287516
-0.604000
-0.818559
-0.847388
-0.759369
-0.686749
-0.667056
-0.614037
-0.438388
-0.153674
0.144257
0.364665
0.473107
0.486289
0.443470
0.383706
0.340561
0.340355
0.381281
0.407569
0.335534
0.145108
-0.061268
-0.139288
-0.060041
0.058991
0.109756
0.132006
0.249344
0.492831
0.731885
0.785663
0.589403
0.247966
-0.069779
-0.280252
-0.418748
-0.540770
-0.637143
-0.664735
-0.620036
-0.544695
-0.475773
-0.424137
-0.394690
-0.395322
-0.419640
-0.441558
-0.437933
-0.410394
-0.385509
-0.401476
-0.478531
-0.571703
-0.562555
-0.341036
0.088742
0.590693
0.977926
1.112907
0.959554
0.590374
0.176756
-0.067817
-0.023757
0.215919
0.402415
0.363056
0.196527
0.212783
0.635005
1.351212
1.976187
2.132767
1.647451
0.550198
-0.954186
-2.437618
-3.310504
-3.154909
-2.080129
-0.697745
0.303743
0.599444
0.336179
-0.099368
-0.404864
-0.535312
-0.655433
-0.969027
-1.550848
-2.245659
-2.688882
-2.481935
-1.441152
0.242685
2.047148
3.336548
3.636737
2.875695
1.489086
0.224064
-0.342236
-0.183896
0.278803
0.652894
0.882779
1.081838
1.183335
0.932420
0.257350
-0.483030
-0.736922
-0.252211
0.667576
1.363303
1.289567
0.392015
-0.851742
-1.751489
-1.894087
-1.419870
-0.816644
-0.458121
-0.373920
-0.415054
-0.513339
-0.662674
-0.691762
-0.284525
0.631027
1.631682
2.128520
1.980144
1.651287
1.682565
2.105367
2.486407
2.430701
1.825430
0.593231
-1.500088
-4.466544
-7.490097
-9.021352
-7.889970
-4.486536
-0.691738
1.560247
1.698065
0.574562
-0.609398
-1.186929
-0.974327
0.157811
2.275236
4.986372
7.354429
8.408328
7.790618
5.924946
3.572394
1.233111
-1.012957
-3.166790
-4.988212
-6.042368
-5.957359
-4.643081
-2.385752
0.203025
2.377282
3.546675
3.546020
2.655442
1.297999
-0.258516
-1.860371
-3.260201
-4.140142
-4.356657
-4.050106
-3.473162
-2.797056
-2.159371
-1.776816
-1.774018
-1.896234
-1.640386
-0.791255
0.313818
1.178986
1.729725
2.338751
3.238005
4.062989
4.180969
3.463151
2.533743
2.181693
2.638956
3.464405
3.986974
3.738603
2.567910
0.642115
-1.476324
-2.922896
-3.023267
-1.838757
-0.201336
0.832103
0.689375
-0.313748
-1.167144
-0.887087
0.746083
2.985060
4.551757
4.384340
2.239810
-1.144158
-4.341279
-5.887384
-5.120885
-2.703377
-0.240543
0.846427
0.261983
-1.159233
-2.206452
-2.069843
-0.659735
1.480089
3.427191
4.248669
3.462712
1.328022
-1.299224
-3.422493
-4.336733
-3.840102
-2.258802
-0.379060
0.810072
0.723398
-0.215231
-0.738328
0.206673
2.478255
4.851161
6.052392
5.622986
3.919932
1.637899
-0.512292
-1.921784
-2.249488
-1.582615
-0.338042
1.058704
2.326975
3.126108
2.882454
1.098870
-2.057190
-5.533801
-7.855100
-7.956395
-5.826667
-2.543171
0.379460
1.958101
2.318897
2.382469
2.912360
3.812112
4.336390
3.889195
2.468675
0.411571
-1.984743
-4.401494
-6.222875
-6.662294
-5.348504
-2.714591
0.252762
2.556733
3.522927
2.925242
1.124923
-0.908614
-2.057144
-1.865030
-0.889672
-0.080090
0.181314
0.323176
0.952330
2.133153
3.271839
3.564171
2.553910
0.409662
-2.210765
-4.511144
-5.807911
-5.600244
-3.622724
-0.014310
4.488670
8.626311
11.120157
11.291795
9.235499
5.464296
0.596574
-4.485762
-8.408696
-9.773522
-8.267978
-5.234638
-2.735180
-1.861043
-2.094807
-2.337890
-2.233504
-2.220308
-2.506193
-2.476148
-1.343394
0.809900
2.942225
4.003470
3.752977
2.665046
1.383999
0.435103
0.163786
0.572619
1.212641
1.523878
1.430687
1.458191
2.107888
3.196921
3.980906
3.917584
3.142753
2.129788
1.056048
-0.247981
-1.715608
-2.729754
-2.703177
-1.895134
-1.323216
-1.740924
-2.861403
-3.726669
-3.731633
-3.060058
-2.141392
-1.033131
0.393338
1.804301
2.315380
1.243021
-1.152073
-3.813819
-5.752146
-6.629784
-6.527086
-5.409154
-3.114158
0.115534
3.320344
5.291888
5.489370
4.500233
3.551780
3.516102
4.277718
4.955115
4.743425
3.611756
2.235692
1.317399
1.015780
0.984922
0.851378
0.606373
0.616157
1.350328
3.036755
5.367553
7.436039
8.127261
6.837384
3.931434
0.447632
-2.749291
-5.577852
-8.465176
-11.414249
-13.452356
-13.213757
-10.151174
-5.127386
0.149488
4.178412
6.269461
6.450825
5.092285
2.650510
-0.456315
-3.923122
-7.450451
-10.417235
-11.707215
-10.139745
-5.363104
1.590972
8.712737
14.040858
16.391132
15.425466
11.504646
5.669048
-0.477338
-5.247497
-7.548992
-7.336334
-5.542968
-3.452807
-1.820910
-0.400245
1.626186
4.566491
7.464668
8.545581
6.661279
2.423391
-2.106716
-4.887817
-5.163481
-3.504348
-0.949602
1.649348
3.655164
4.579706
4.274143
2.989822
1.041736
-1.478349
-4.459691
-7.306992
-8.985071
-8.726235
-6.678163
-3.738606
-0.779433
1.833941
4.000464
5.407737
5.522561
4.116359
1.680223
-0.861751
-2.921280
-4.611085
-6.156914
-6.997577
-5.838147
-1.902254
3.899933
9.219774
11.791145
10.888673
7.637193
4.165326
2.328893
2.728057
4.452444
5.719661
5.070016
2.276021
-1.624527
-5.014680
-6.591285
-6.015690
-4.025649
-2.001371
-1.292481
-2.662772
-6.012969
-10.363750
-14.137828
-15.849375
-14.926705
-11.948109
-8.013220
-3.930236
-0.013896
3.526200
6.233019
7.508292
7.028725
5.066754
2.487066
0.439296
-0.124434
1.085573
3.488190
5.825150
6.741525
5.542537
2.654697
-0.615868
-2.883129
-3.427577
-2.338557
-0.047660
3.153512
7.067146
11.156330
14.310819
15.164144
12.809081
7.437602
0.430796
-6.257765
-11.052134
-13.365759
-13.535051
-12.315942
-10.403836
-8.259920
-6.157086
-4.198767
-2.349527
-0.600058
0.957788
2.304004
3.570376
4.762606
5.489310
5.131730
3.299480
0.166900
-3.467242
-6.359995
-7.192251
-5.150940
-0.628124
4.535417
7.845699
7.671243
4.350376
-0.041529
-3.183038
-4.107911
-3.595708
-3.125331
-3.484452
-4.261793
-4.444926
-3.402945
-1.394097
0.709052
2.075301
2.329173
1.486462
-0.354589
-3.157409
-6.733268
-10.429634
-13.144333
-13.748624
-11.632533
-7.056298
-1.126931
4.665081
9.142809
11.850834
12.870597
12.381183
10.497467
7.455639
3.796386
0.300298
-2.238017
-3.205451
-2.321994
0.140732
3.243690
5.789498
7.159153
7.728593
8.283053
8.985183
9.036074
7.449615
4.115279
-0.021511
-3.780997
-6.545524
-8.242340
-8.817288
-7.978130
-5.511053
-1.722784
2.582017
6.508916
9.293180
10.194057
8.548705
4.221565
-2.042029
-8.869963
-14.893534
-19.064489
-20.398911
-17.699389
-10.083458
1.663451
14.297576
23.352591
25.751030
21.432480
12.713127
2.434252
-7.235625
-14.793305
-19.141058
-19.849630
-17.537945
-13.633932
-9.547155
-5.969353
-2.881037
-0.110670
2.266363
4.085970
5.355572
6.041537
5.701372
3.795040
0.666599
-1.981998
-2.077992
1.049208
5.887314
9.815805
10.978830
9.263955
5.865530
2.309027
-0.045575
-0.084842
2.586731
6.819653
9.943433
9.298342
4.140513
-3.850456
-11.810168
-17.353733
-19.386318
-18.027266
-14.259523
-9.541915
-5.280793
-2.270353
-0.418523
1.078254
3.184630
6.332929
9.995434
12.895330
13.762329
12.130100
8.700550
4.986951
2.277322
0.589799
-1.360801
-4.899476
-9.919062
-14.672787
-17.018068
-15.829957
-11.407051
-5.023093
1.552005
6.441233
8.412219
7.687655
5.733568
3.830617
1.915662
-0.770494
-3.901259
-5.616663
-4.447567
-1.451027
0.306596
-1.231947
-4.894753
-7.415290
-6.552243
-2.733997
1.967321
5.658627
7.373237
6.857523
4.417241
1.037545
-1.845602
-3.124514
-2.649594
-1.099355
0.628809
1.890102
2.440021
2.390189
2.048114
1.676203
1.297451
0.684183
-0.474582
-2.311017
-4.501285
-6.135478
-5.956113
-3.005529
2.658297
9.706746
15.933913
19.079147
17.877253
12.964372
6.795659
2.197481
0.547683
1.091437
1.844945
1.081829
-1.882048
-6.836802
-13.066491
-19.532053
-25.197266
-29.679565
-33.290012
-35.773796
-35.155785
-28.659920
-15.295675
2.368130
19.119181
30.048803
32.815868
27.628626
16.155355
1.038929
-14.031663
-24.841574
-28.178640
-23.292404
-12.072633
1.994640
15.168532
24.368507
27.677652
24.798990
17.238087
7.605872
-1.670370
-9.098072
-13.746619
-14.460072
-9.993791
-0.375326
11.962317
22.788164
28.122705
26.089512
17.301111
3.922651
-11.242559
-24.824558
-33.051781
-32.996880
-24.129299
-8.941359
7.513755
19.105145
21.371906
14.550158
4.127356
-2.747061
-2.583931
2.218195
6.190912
5.492664
0.104874
-7.343769
-13.736735
-16.680775
-15.075436
-9.747171
-3.451078
0.778049
2.171945
3.152175
7.156876
15.311996
25.330910
33.359158
36.266232
32.324169
21.075733
3.833764
-15.738540
-32.391529
-41.435848
-40.806221
-31.666996
-17.485691
-2.463764
9.818217
17.115469
18.563164
14.461715
6.313464
-3.053443
-10.026973
-11.632772
-7.034888
1.882079
11.283676
17.289255
18.160910
15.404796
12.540504
11.902703
12.187218
9.489131
1.236616
-10.756594
-21.211700
-25.397045
-22.303917
-14.358752
-4.941232
3.404903
9.197340
11.990178
12.853808
14.327510
18.911104
27.007139
36.124893
42.053288
41.127842
32.214924
17.420523
1.188024
-11.701970
-18.199476
-18.118387
-13.566692
-6.992980
0.198152
7.012207
11.584434
11.694032
6.928436
-0.244939
-6.106123
-8.367066
-7.240690
-4.423879
-1.756790
-0.654152
-1.583184
-3.466496
-4.432983
-3.909965
-3.527009
-5.329175
-9.224472
-12.666526
-13.098778
-10.612931
-7.958144
-7.857126
-10.393523
-12.961165
-12.677538
-9.060468
-4.479794
-1.787031
-1.508604
-1.582139
0.343605
4.680497
9.615289
12.354123
10.719234
4.429882
-4.470096
-12.449050
-16.114950
-13.659991
-5.604688
5.326510
15.292114
21.053959
21.364073
16.965363
9.314325
-0.433803
-10.953547
-19.442980
-21.567547
-14.062896
1.564149
18.115953
26.639187
22.617449
9.153034
-5.756953
-15.266664
-17.560545
-14.838321
-9.761641
-3.671583
2.231126
5.844654
5.856913
4.118752
4.794048
10.125530
17.229883
20.012423
14.940004
4.926836
-2.737021
-2.537088
4.896050
14.192072
20.287910
21.382530
17.467607
7.912846
-7.699216
-26.413881
-41.402771
-46.247997
-40.010143
-27.830769
-16.728981
-10.850080
-9.869460
-10.726655
-10.492980
-8.044949
-3.725374
1.818707
7.879333
12.975833
14.887816
12.315799
6.577728
1.019021
-1.658969
-1.309675
0.351229
1.839871
3.129898
5.234227
9.095069
14.856980
21.703329
28.087181
32.306931
33.273418
31.053843
26.708584
21.597778
17.042875
14.446902
14.873583
17.976713
21.714373
23.577740
21.987898
16.309107
5.975841
-9.374733
-28.340931
-46.875710
-59.844582
-63.788097
-58.458950
-46.390434
-31.407244
-17.188883
-6.277365
0.649763
4.899171
8.512133
12.115756
13.853292
10.929260
2.769948
-7.349016
-14.136750
-13.963808
-7.099700
3.045149
12.425863
18.302023
19.640205
16.763334
11.147363
5.235731
1.595938
1.373099
3.131951
3.438109
-0.668510
-8.959679
-17.492748
-21.156921
-17.210548
-6.630184
7.463753
22.027571
34.738125
43.339066
45.538105
40.136799
28.026375
11.769473
-5.611460
-21.207886
-31.984221
-34.948174
-28.606644
-14.899018
0.435927
10.533593
11.820534
6.216400
-1.293195
-7.113894
-10.786473
-12.944083
-13.047924
-10.065332
-4.753547
-0.040744
1.274250
-1.118086
-5.081680
-8.020381
-8.570712
-6.900527
-4.201580
-2.117451
-2.127137
-4.566112
-7.744538
-8.633514
-5.480580
0.009190
3.681334
2.577780
-2.464466
-7.811618
-10.130545
-8.276265
-2.857052
4.929864
13.599638
21.117176
25.210457
24.257532
17.854425
6.874616
-6.509961
-18.965509
-27.060514
-29.181810
-26.622980
-22.344275
-18.324781
-14.221377
-8.718716
-1.931900
3.857954
5.928332
3.512650
-1.480598
-5.923716
-7.514357
-5.730903
-1.498015
3.574447
7.806623
10.125909
10.819277
11.527949
13.973153
18.389845
23.237907
26.395123
26.347452
22.308870
14.041564
2.309351
-10.665125
-21.742508
-28.100588
-28.074999
-21.328547
-9.033717
5.756071
18.497103
24.951939
23.441044
15.810024
6.351807
-0.555924
-2.649935
-0.593820
2.992122
5.546051
6.193593
5.860870
5.872044
6.201330
4.797498
-1.307247
-13.508511
-29.457893
-43.317898
-48.776657
-42.673145
-26.751379
-6.692284
10.866385
21.609919
25.026941
23.104168
17.659929
9.057042
-2.618706
-15.709106
-26.852167
-32.709614
-31.657394
-24.074648
-11.698129
2.878417
16.449335
25.874144
29.221666
26.408875
18.766249
8.245180
-2.816118
-11.668214
-15.941032
-15.179349
-11.447233
-7.835772
-5.959629
-4.709163
-1.371232
5.857861
15.956254
25.135847
28.929878
25.040236
14.915665
2.813380
-6.891714
-12.036219
-13.023548
-11.484185
-8.916469
-6.365318
-4.687663
-4.448183
-5.293704
-5.832120
-4.834826
-2.769049
-1.763840
-3.602289
-7.581804
-10.571028
-9.530965
-4.164007
2.908811
8.561846
11.673545
13.279265
14.539452
14.915006
12.490171
6.034675
-3.358544
-12.621943
-18.539101
-19.389681
-15.332045
-7.747927
1.525855
10.628823
18.053896
23.097017
25.846188
26.365540
23.911972
17.427988
7.139746
-4.472575
-13.709378
-18.066713
-17.828035
-15.217150
-11.909906
-7.498005
-0.590702
8.584799
16.977320
20.565508
17.802225
11.223057
5.379785
3.027779
3.285190
3.355215
1.753433
-0.354881
-0.806524
1.097700
4.107581
6.794057
9.222218
12.457002
16.673058
20.351294
21.495604
19.376131
14.941069
9.661904
4.315827
-0.837994
-5.002558
-6.703568
-5.025231
-0.699082
4.334993
8.462793
11.406487
13.731255
15.549183
15.910991
13.500041
7.842957
-0.284329
-9.621329
-19.239531
-28.332308
-35.500832
-38.862999
-37.212215
-31.039368
-22.334599
-13.455465
-6.162290
-1.313113
1.162537
2.335579
4.052314
7.922429
13.942100
20.034355
23.195951
21.433689
14.862453
5.067496
-6.405655
-18.619822
-30.282669
-38.766666
-40.893661
-35.153637
-23.183439
-9.042466
3.047382
10.732564
14.075727
14.617058
13.970042
12.977758
11.597376
9.186281
5.109762
-0.417759
-5.862861
-8.965399
-8.264855
-4.384622
0.180157
2.725350
1.968607
-1.697228
-7.040524
-12.657252
-17.071795
-18.937960
-17.744715
-14.492712
-11.411661
-10.515716
-12.085784
-14.452413
-15.218168
-12.803687
-7.194124
0.355201
8.051236
14.094208
17.096254
16.705366
13.990231
10.860292
8.789496
8.021834
7.975939
8.205105
8.697436
9.369240
9.785555
9.690472
9.634150
10.660128
12.996657
15.126109
14.766145
11.078843
5.603437
0.833207
-2.056546
-3.997753
-6.578037
-10.106225
-13.306783
-14.630413
-13.539159
-10.526235
-6.312795
-1.621279
2.246563
3.299487
-0.002796
-7.238170
-15.730170
-22.014320
-23.908545
-21.513239
-16.463364
-10.320155
-3.703280
3.259417
9.982506
14.988189
16.410234
13.021920
4.858857
-6.883004
-20.152456
-32.168755
-39.723480
-40.265808
-33.444153
-21.677593
-8.877845
1.785131
9.254273
14.185973
17.638014
20.325994
22.826612
25.851170
29.786926
33.914295
36.460110
35.801422
31.794975
26.000769
20.532354
16.485697
13.299025
9.537837
4.296384
-2.048285
-8.162450
-12.575290
-14.345576
-13.367741
-10.336379
-6.463062
-2.984897
-0.547192
1.161191
3.104379
5.993514
9.509407
12.460874
13.719412
12.907681
10.230759
5.884750
-0.050773
-6.991670
-13.424236
-17.625595
-19.061361
-18.966978
-19.337730
-21.213413
-23.833717
-25.309738
-24.139063
-20.286207
-14.962094
-9.457728
-4.217802
1.047618
6.440373
11.183491
14.036956
14.451051
13.173864
11.596604
10.486177
9.430094
7.597411
5.029573
3.132921
3.900656
8.568030
16.707829
26.241255
34.236469
38.091312
36.609222
30.425211
21.454950
11.728647
2.547186
-5.421974
-11.479791
-14.617566
-14.088015
-10.261557
-4.834870
-0.107788
2.108357
1.179570
-2.343660
-7.151603
-11.738831
-14.902958
-15.970886
-14.740715
-11.431623
-6.849197
-2.493218
-0.116896
-0.756819
-4.095149
-8.938397
-14.299579
-19.809099
-25.091473
-29.120436
-30.564796
-28.797373
-24.460197
-19.063358
-14.063635
-10.267703
-7.967845
-7.375188
-8.580843
-10.983328
-13.057170
-13.162948
-10.916034
-7.820678
-6.353157
-8.079261
-12.364974
-16.743467
-18.631767
-17.008781
-12.647217
-6.953033
-0.853980
5.340880
11.497801
