EVENT_NAME: EMILIA_2ND_SHOCK
EVENT_ID: IT-2012-0011
EVENT_DATE_YYYYMMDD: 20120529
EVENT_TIME_HHMMSS: 070002
EVENT_LATITUDE_DEGREE: 44.8417
EVENT_LONGITUDE_DEGREE: 11.0657
EVENT_DEPTH_KM: 8.1
HYPOCENTER_REFERENCE: INGV-CNT_Seismic_Bulletin
MAGNITUDE_W: 6.0
MAGNITUDE_W_REFERENCE: RCMT-INGV
MAGNITUDE_L: 5.8
MAGNITUDE_L_REFERENCE: INGV-CNT_Seismic_Bulletin
FOCAL_MECHANISM: TF
NETWORK: IT
STATION_CODE: CRP
STATION_NAME: CARPI
STATION_LATITUDE_DEGREE: 44.782300
STATION_LONGITUDE_DEGREE: 10.870300
STATION_ELEVATION_M: 89
LOCATION: 
SENSOR_DEPTH_M: 0.0
VS30_M/S: 
SITE_CLASSIFICATION_EC8: C*
MORPHOLOGIC_CLASSIFICATION: 
EPICENTRAL_DISTANCE_KM: 16.8
EARTHQUAKE_BACKAZIMUTH_DEGREE: 66.8
DATE_TIME_FIRST_SAMPLE_YYYYMMDD_HHMMSS: 20120529_065953.000
DATE_TIME_FIRST_SAMPLE_PRECISION: seconds
SAMPLING_INTERVAL_S: 0.005000
NDATA: 27723
DURATION_S: 138.615
STREAM: HNE
UNITS: cm
INSTRUMENT: sensor = Episensor FBA ES-T [Kinemetrics] | digitizer = Etna [Kinemetrics]
INSTRUMENT_ANALOG/DIGITAL: D
INSTRUMENTAL_FREQUENCY_HZ: 
INSTRUMENTAL_DAMPING: 
FULL_SCALE_G: 
N_BIT_DIGITAL_CONVERTER: 18
PGD_CM: 2.192437
TIME_PGD_S: 19.395000
BASELINE_CORRECTION: BASELINE REMOVED
FILTER_TYPE: BUTTERWORTH
FILTER_ORDER: 2
LOW_CUT_FREQUENCY_HZ: 0.050
HIGH_CUT_FREQUENCY_HZ: 40.000
LATE/NORMAL_TRIGGERED: NT
DATABASE_VERSION: DYNA 1.0
HEADER_FORMAT: DYNA 1.2
DATA_TYPE: DISPLACEMENT
PROCESSING: manual (Paolucci et al., 2011)
DATA_TIMESTAMP_YYYYMMDD_HHMMSS: 20141204_103047.929
DATA_LICENSE: CC-BY3_0-IT (http://creativecommons.org/licenses/by/3.0/deed.en)
DATA_CITATION: ESM working group (2015), European Strong-Motion database, version 0.1, Network Activity 3: Networking acceleration networks and SM data users. Project NERA (www.nera-eu.org)
DATA_CREATOR: ESM working group
ORIGINAL_DATA_MEDIATOR_CITATION: Ufficio Rischio Sismico e Vulcanico del Dipartimento della Protezione Civile (http://www.protezionecivile.gov.it/)
ORIGINAL_DATA_MEDIATOR: Rete Accelerometrica Nazionale - RAN Download (http://www.mot1.it/randownload/)
ORIGINAL_DATA_CREATOR_CITATION: Italian Strong Motion Network, Italian Civil Protection Department http://www.protezionecivile.gov.it
ORIGINAL_DATA_CREATOR: network: IT (Italian Strong Motion Network); owner: Dipartimento Della Protezione Civile
USER1: /home/dyna/processing-itaca/processing.py /var/www/processing/tmp/fpacor//IT.CRP..HNE.D.20120529.070003.X.ACC.ASC /var/www/processing/tmp/fpacor//IT.CRP..HNN.D.20120529.070003.X.ACC.ASC /var/www/processing/tmp/fpacor//IT.CRP..HNZ.D.20120529.070003.X.ACC.ASC --tmp /var/www/processing/tmp/fpacor/ --le 0.050 --he 40.000 --ln 0.050 --hn 40.000 --lz 0.050 --hz 40.000 --fo 2 --ca -10 --cz 40 --ta 5 --tz 5 --mf 1 --rf 0 --tr NT
USER2: 
USER3: 
USER4: 
USER5: 
[...]
-3.020507e-01
-3.023470e-01
-3.026296e-01
-3.029013e-01
-3.031730e-01
-3.034602e-01
-3.037722e-01
-3.041077e-01
-3.044594e-01
-3.048214e-01
-3.051871e-01
-3.055444e-01
-3.058758e-01
-3.061670e-01
-3.064171e-01
-3.066407e-01
-3.068607e-01
-3.070939e-01
-3.073443e-01
-3.076072e-01
-3.078758e-01
-3.081444e-01
-3.084070e-01
-3.086570e-01
-3.088900e-01
-3.091097e-01
-3.093300e-01
-3.095640e-01
-3.098102e-01
-3.100532e-01
-3.102810e-01
-3.104991e-01
-3.107269e-01
-3.109781e-01
-3.112466e-01
-3.115087e-01
-3.117375e-01
-3.119212e-01
-3.120715e-01
-3.122156e-01
-3.123750e-01
-3.125512e-01
-3.127303e-01
-3.128995e-01
-3.130572e-01
-3.132102e-01
-3.133662e-01
-3.135288e-01
-3.136984e-01
-3.138747e-01
-3.140561e-01
-3.142381e-01
-3.144136e-01
-3.145785e-01
-3.147361e-01
-3.148929e-01
-3.150510e-01
-3.152076e-01
-3.153597e-01
-3.155047e-01
-3.156370e-01
-3.157521e-01
-3.158559e-01
-3.159677e-01
-3.161067e-01
-3.162756e-01
-3.164583e-01
-3.166336e-01
-3.167884e-01
-3.169189e-01
-3.170273e-01
-3.171225e-01
-3.172221e-01
-3.173460e-01
-3.175060e-01
-3.177005e-01
-3.179178e-01
-3.181438e-01
-3.183697e-01
-3.185930e-01
-3.188135e-01
-3.190271e-01
-3.192271e-01
-3.194109e-01
-3.195828e-01
-3.197492e-01
-3.199157e-01
-3.200863e-01
-3.202634e-01
-3.204459e-01
-3.206294e-01
-3.208103e-01
-3.209905e-01
-3.211751e-01
-3.213638e-01
-3.215489e-01
-3.217252e-01
-3.218988e-01
-3.220806e-01
-3.222726e-01
-3.224677e-01
-3.226618e-01
-3.228632e-01
-3.230833e-01
-3.233192e-01
-3.235481e-01
-3.237424e-01
-3.238919e-01
-3.240117e-01
-3.241288e-01
-3.242617e-01
-3.244087e-01
-3.245540e-01
-3.246825e-01
-3.247890e-01
-3.248777e-01
-3.249550e-01
-3.250236e-01
-3.250773e-01
-3.251049e-01
-3.251031e-01
-3.250877e-01
-3.250903e-01
-3.251428e-01
-3.252568e-01
-3.254064e-01
-3.255310e-01
-3.255676e-01
-3.254956e-01
-3.253581e-01
-3.252322e-01
-3.251667e-01
-3.251456e-01
-3.251163e-01
-3.250512e-01
-3.249760e-01
-3.249403e-01
-3.249680e-01
-3.250387e-01
-3.251060e-01
-3.251244e-01
-3.250631e-01
-3.249162e-01
-3.247117e-01
-3.245017e-01
-3.243287e-01
-3.241932e-01
-3.240592e-01
-3.238953e-01
-3.237041e-01
-3.235078e-01
-3.233158e-01
-3.231208e-01
-3.229194e-01
-3.227249e-01
-3.225563e-01
-3.224132e-01
-3.222695e-01
-3.221004e-01
-3.219197e-01
-3.217777e-01
-3.217079e-01
-3.216785e-01
-3.216149e-01
-3.214793e-01
-3.213182e-01
-3.212204e-01
-3.212291e-01
-3.213002e-01
-3.213421e-01
-3.212914e-01
-3.211512e-01
-3.209660e-01
-3.207756e-01
-3.205948e-01
-3.204200e-01
-3.202363e-01
-3.200255e-01
-3.197832e-01
-3.195342e-01
-3.193217e-01
-3.191698e-01
-3.190465e-01
-3.188665e-01
-3.185469e-01
-3.180810e-01
-3.175593e-01
-3.171041e-01
-3.167769e-01
-3.165481e-01
-3.163435e-01
-3.161037e-01
-3.158060e-01
-3.154596e-01
-3.150906e-01
-3.147164e-01
-3.143333e-01
-3.139393e-01
-3.135643e-01
-3.132601e-01
-3.130555e-01
-3.129316e-01
-3.128381e-01
-3.127248e-01
-3.125563e-01
-3.123150e-01
-3.120133e-01
-3.116994e-01
-3.114295e-01
-3.112159e-01
-3.110082e-01
-3.107341e-01
-3.103601e-01
-3.099154e-01
-3.094594e-01
-3.090266e-01
-3.085970e-01
-3.081137e-01
-3.075317e-01
-3.068640e-01
-3.061897e-01
-3.056081e-01
-3.051710e-01
-3.048522e-01
-3.045711e-01
-3.042400e-01
-3.038006e-01
-3.032472e-01
-3.026339e-01
-3.020519e-01
-3.015809e-01
-3.012410e-01
-3.009755e-01
-3.006830e-01
-3.002833e-01
-2.997735e-01
-2.992245e-01
-2.987193e-01
-2.982884e-01
-2.978968e-01
-2.974897e-01
-2.970509e-01
-2.966162e-01
-2.962310e-01
-2.959016e-01
-2.955922e-01
-2.952612e-01
-2.948950e-01
-2.945153e-01
-2.941600e-01
-2.938516e-01
-2.935798e-01
-2.933159e-01
-2.930372e-01
-2.927374e-01
-2.924223e-01
-2.921010e-01
-2.917749e-01
-2.914323e-01
-2.910640e-01
-2.906887e-01
-2.903541e-01
-2.901020e-01
-2.899288e-01
-2.897817e-01
-2.895982e-01
-2.893556e-01
-2.890875e-01
-2.888490e-01
-2.886662e-01
-2.885231e-01
-2.883946e-01
-2.882788e-01
-2.881844e-01
-2.880911e-01
-2.879421e-01
-2.876870e-01
-2.873263e-01
-2.869068e-01
-2.864779e-01
-2.860648e-01
-2.856782e-01
-2.853263e-01
-2.850006e-01
-2.846585e-01
-2.842380e-01
-2.837009e-01
-2.830630e-01
-2.823810e-01
-2.817088e-01
-2.810661e-01
-2.804452e-01
-2.798398e-01
-2.792583e-01
-2.787076e-01
-2.781723e-01
-2.776133e-01
-2.769834e-01
-2.762446e-01
-2.753831e-01
-2.744273e-01
-2.734520e-01
-2.725466e-01
-2.717621e-01
-2.710858e-01
-2.704628e-01
-2.698257e-01
-2.691076e-01
-2.682555e-01
-2.672603e-01
-2.661779e-01
-2.651116e-01
-2.641641e-01
-2.633868e-01
-2.627631e-01
-2.622378e-01
-2.617541e-01
-2.612613e-01
-2.607088e-01
-2.600642e-01
-2.593395e-01
-2.585889e-01
-2.578655e-01
-2.571759e-01
-2.564826e-01
-2.557548e-01
-2.550044e-01
-2.542636e-01
-2.535348e-01
-2.527801e-01
-2.519582e-01
-2.510602e-01
-2.501043e-01
-2.491151e-01
-2.481266e-01
-2.471958e-01
-2.463877e-01
-2.457328e-01
-2.451942e-01
-2.446708e-01
-2.440418e-01
-2.432340e-01
-2.422727e-01
-2.412717e-01
-2.403585e-01
-2.395906e-01
-2.389323e-01
-2.382985e-01
-2.376098e-01
-2.368108e-01
-2.358685e-01
-2.347859e-01
-2.336161e-01
-2.324411e-01
-2.313204e-01
-2.302563e-01
-2.292013e-01
-2.281004e-01
-2.269371e-01
-2.257494e-01
-2.245989e-01
-2.235174e-01
-2.224797e-01
-2.214233e-01
-2.202958e-01
-2.190979e-01
-2.178895e-01
-2.167432e-01
-2.156799e-01
-2.146557e-01
-2.136122e-01
-2.125277e-01
-2.114203e-01
-2.103166e-01
-2.092245e-01
-2.081237e-01
-2.069780e-01
-2.057583e-01
-2.044564e-01
-2.030816e-01
-2.016450e-01
-2.001464e-01
-1.985726e-01
-1.969207e-01
-1.952285e-01
-1.935700e-01
-1.920083e-01
-1.905479e-01
-1.891305e-01
-1.876744e-01
-1.861215e-01
-1.844601e-01
-1.827179e-01
-1.809431e-01
-1.791823e-01
-1.774525e-01
-1.757267e-01
-1.739562e-01
-1.721176e-01
-1.702380e-01
-1.683772e-01
-1.665867e-01
-1.648827e-01
-1.632421e-01
-1.616215e-01
-1.599938e-01
-1.583808e-01
-1.568426e-01
-1.554265e-01
-1.541247e-01
-1.528817e-01
-1.516353e-01
-1.503479e-01
-1.490098e-01
-1.476262e-01
-1.462016e-01
-1.447235e-01
-1.431666e-01
-1.415235e-01
-1.398290e-01
-1.381445e-01
-1.365216e-01
-1.349828e-01
-1.335201e-01
-1.320933e-01
-1.306375e-01
-1.290980e-01
-1.274743e-01
-1.258286e-01
-1.242440e-01
-1.227626e-01
-1.213515e-01
-1.199168e-01
-1.183543e-01
-1.166014e-01
-1.146688e-01
-1.126425e-01
-1.106379e-01
-1.087123e-01
-1.068054e-01
-1.047858e-01
-1.025718e-01
-1.002058e-01
-9.781218e-02
-9.549236e-02
-9.326167e-02
-9.107128e-02
-8.887216e-02
-8.665333e-02
-8.443227e-02
-8.222674e-02
-8.004282e-02
-7.788226e-02
-7.574309e-02
-7.359841e-02
-7.137875e-02
-6.900046e-02
-6.643668e-02
-6.376221e-02
-6.111193e-02
-5.858303e-02
-5.617548e-02
-5.381902e-02
-5.144352e-02
-4.902854e-02
-4.660718e-02
-4.422746e-02
-4.189920e-02
-3.957967e-02
-3.722019e-02
-3.482904e-02
-3.248586e-02
-3.028453e-02
-2.824543e-02
-2.627685e-02
-2.423379e-02
-2.202837e-02
-1.968743e-02
-1.730927e-02
-1.497425e-02
-1.269454e-02
-1.043472e-02
-8.169811e-03
-5.923242e-03
-3.751618e-03
-1.688973e-03
3.042784e-04
2.341566e-03
4.546215e-03
6.966408e-03
9.543519e-03
1.216427e-02
1.474323e-02
1.725713e-02
1.971563e-02
2.212368e-02
2.448624e-02
2.684204e-02
2.927477e-02
3.187766e-02
3.469258e-02
3.766425e-02
4.065177e-02
4.351006e-02
4.618365e-02
4.872458e-02
5.121959e-02
5.371038e-02
5.619349e-02
5.868559e-02
6.125368e-02
6.395205e-02
6.673700e-02
6.947598e-02
7.205601e-02
7.446977e-02
7.679119e-02
7.909251e-02
8.139999e-02
8.370489e-02
8.599290e-02
8.827382e-02
9.059790e-02
9.303619e-02
9.563385e-02
9.837703e-02
1.011977e-01
1.040094e-01
1.067477e-01
1.093857e-01
1.119193e-01
1.143591e-01
1.167543e-01
1.192095e-01
1.218324e-01
1.246441e-01
1.275451e-01
1.303812e-01
1.330562e-01
1.356035e-01
1.381628e-01
1.408752e-01
1.437806e-01
1.467991e-01
1.497962e-01
1.526712e-01
1.554100e-01
1.580793e-01
1.607692e-01
1.635321e-01
1.663740e-01
1.692952e-01
1.723138e-01
1.754432e-01
1.786696e-01
1.819724e-01
1.853599e-01
1.888595e-01
1.924639e-01
1.961013e-01
1.996742e-01
2.031370e-01
2.065356e-01
2.099731e-01
2.135305e-01
2.172056e-01
2.209235e-01
2.246100e-01
2.282482e-01
2.318570e-01
2.354338e-01
2.389422e-01
2.423560e-01
2.457004e-01
2.490501e-01
2.524964e-01
2.561087e-01
2.598997e-01
2.638109e-01
2.677402e-01
2.715947e-01
2.753314e-01
2.789584e-01
2.825138e-01
2.860401e-01
2.895572e-01
2.930410e-01
2.964387e-01
2.997253e-01
3.029492e-01
3.062101e-01
3.095834e-01
3.130677e-01
3.166044e-01
3.201371e-01
3.236488e-01
3.271584e-01
3.306988e-01
3.342919e-01
3.379265e-01
3.415522e-01
3.451051e-01
3.485487e-01
3.518988e-01
3.552135e-01
3.585603e-01
3.619893e-01
3.655226e-01
3.691496e-01
3.728288e-01
3.765175e-01
3.802153e-01
3.839745e-01
3.878571e-01
3.918820e-01
3.960136e-01
4.001930e-01
4.043707e-01
4.085192e-01
4.126415e-01
4.167796e-01
4.209999e-01
4.253506e-01
4.298315e-01
4.344105e-01
4.390650e-01
4.437973e-01
4.486154e-01
4.535063e-01
4.584343e-01
4.633599e-01
4.682682e-01
4.731840e-01
4.781546e-01
4.832057e-01
4.883011e-01
4.933505e-01
4.982732e-01
5.030632e-01
5.077928e-01
5.125545e-01
5.173937e-01
5.222780e-01
5.271227e-01
5.318569e-01
5.364775e-01
5.410509e-01
5.456709e-01
5.504218e-01
5.553674e-01
5.605464e-01
5.659537e-01
5.715267e-01
5.771764e-01
5.828486e-01
5.885517e-01
5.943242e-01
6.001827e-01
6.061058e-01
6.120516e-01
6.179809e-01
6.238763e-01
6.297532e-01
6.356559e-01
6.416325e-01
6.477007e-01
6.538328e-01
6.599807e-01
6.661229e-01
6.722850e-01
6.785098e-01
6.848159e-01
6.911982e-01
6.976668e-01
7.042655e-01
7.110433e-01
7.180164e-01
7.251634e-01
7.324515e-01
7.398613e-01
7.473942e-01
7.550636e-01
7.628772e-01
7.708113e-01
7.787988e-01
7.867487e-01
7.945866e-01
8.022795e-01
8.098341e-01
8.172919e-01
8.247298e-01
8.322465e-01
8.399238e-01
8.477835e-01
8.557706e-01
8.637784e-01
8.717042e-01
8.795026e-01
8.872015e-01
8.948689e-01
9.025510e-01
9.102191e-01
9.177682e-01
9.250677e-01
9.320218e-01
9.385898e-01
9.447593e-01
9.504953e-01
9.556969e-01
9.602006e-01
9.638392e-01
9.665176e-01
9.682461e-01
9.691230e-01
9.693038e-01
9.689852e-01
9.683981e-01
9.677835e-01
9.673428e-01
9.671843e-01
9.673125e-01
9.676744e-01
9.682167e-01
9.689013e-01
9.696707e-01
9.704062e-01
9.709273e-01
9.710405e-01
9.706029e-01
9.695682e-01
9.679991e-01
9.660447e-01
9.638853e-01
9.616682e-01
9.594726e-01
9.573319e-01
9.553122e-01
9.535843e-01
9.524228e-01
9.521307e-01
9.529473e-01
9.549981e-01
9.582941e-01
9.627577e-01
9.682626e-01
9.746826e-01
9.819261e-01
9.899251e-01
9.985874e-01
1.007757e+00
1.017215e+00
1.026709e+00
1.036003e+00
1.044909e+00
1.053298e+00
1.061072e+00
1.068137e+00
1.074385e+00
1.079707e+00
1.084015e+00
1.087267e+00
1.089479e+00
1.090721e+00
1.091120e+00
1.090845e+00
1.090067e+00
1.088945e+00
1.087633e+00
1.086290e+00
1.085086e+00
1.084198e+00
1.083814e+00
1.084115e+00
1.085252e+00
1.087334e+00
1.090431e+00
1.094574e+00
1.099747e+00
1.105890e+00
1.112902e+00
1.120644e+00
1.128944e+00
1.137636e+00
1.146591e+00
1.155726e+00
1.164975e+00
1.174251e+00
1.183430e+00
1.192362e+00
1.200907e+00
1.208971e+00
1.216504e+00
1.223463e+00
1.229811e+00
1.235544e+00
1.240727e+00
1.245487e+00
1.249978e+00
1.254349e+00
1.258729e+00
1.263199e+00
1.267785e+00
1.272475e+00
1.277271e+00
1.282221e+00
1.287420e+00
1.292986e+00
1.299051e+00
1.305745e+00
1.313165e+00
1.321340e+00
1.330215e+00
1.339666e+00
1.349540e+00
1.359693e+00
1.370035e+00
1.380522e+00
1.391121e+00
1.401753e+00
1.412263e+00
1.422444e+00
1.432122e+00
1.441216e+00
1.449742e+00
1.457745e+00
1.465247e+00
1.472224e+00
1.478630e+00
1.484456e+00
1.489799e+00
1.494882e+00
1.499991e+00
1.505369e+00
1.511138e+00
1.517322e+00
1.523916e+00
1.530949e+00
1.538462e+00
1.546442e+00
1.554791e+00
1.563357e+00
1.572014e+00
1.580730e+00
1.589585e+00
1.598737e+00
1.608350e+00
1.618547e+00
1.629373e+00
1.640807e+00
1.652775e+00
1.665165e+00
1.677844e+00
1.690681e+00
1.703556e+00
1.716376e+00
1.729091e+00
1.741711e+00
1.754289e+00
1.766895e+00
1.779587e+00
1.792398e+00
1.805316e+00
1.818267e+00
1.831143e+00
1.843874e+00
1.856491e+00
1.869118e+00
1.881916e+00
1.895037e+00
1.908601e+00
1.922686e+00
1.937300e+00
1.952367e+00
1.967726e+00
1.983179e+00
1.998539e+00
2.013658e+00
2.028440e+00
2.042843e+00
2.056869e+00
2.070557e+00
2.083958e+00
2.097116e+00
2.110069e+00
2.122841e+00
2.135416e+00
2.147678e+00
2.159355e+00
2.169997e+00
2.179056e+00
2.186018e+00
2.190530e+00
2.192437e+00
2.191746e+00
2.188566e+00
2.183037e+00
2.175313e+00
2.165551e+00
2.153915e+00
2.140563e+00
2.125621e+00
2.109156e+00
2.091153e+00
2.071511e+00
2.050078e+00
2.026701e+00
2.001247e+00
1.973605e+00
1.943684e+00
1.911435e+00
1.876893e+00
1.840207e+00
1.801629e+00
1.761502e+00
1.720222e+00
1.678198e+00
1.635800e+00
1.593310e+00
1.550901e+00
1.508636e+00
1.466475e+00
1.424300e+00
1.381962e+00
1.339330e+00
1.296326e+00
1.252922e+00
1.209126e+00
1.164972e+00
1.120545e+00
1.075970e+00
1.031372e+00
9.867936e-01
9.421657e-01
8.973504e-01
8.522379e-01
8.068090e-01
7.611361e-01
7.153554e-01
6.696447e-01
6.242061e-01
5.792392e-01
5.349214e-01
4.914287e-01
4.489837e-01
4.078846e-01
3.684848e-01
3.311440e-01
2.961854e-01
2.638738e-01
2.343973e-01
2.078486e-01
1.842065e-01
1.633165e-01
1.448682e-01
1.284059e-01
1.134029e-01
9.938030e-02
8.600514e-02
7.312136e-02
6.071801e-02
4.887093e-02
3.768768e-02
2.725828e-02
1.760773e-02
8.665716e-03
2.778879e-04
-7.741445e-03
-1.554811e-02
-2.323668e-02
-3.084857e-02
-3.839774e-02
-4.588839e-02
-5.331842e-02
-6.067586e-02
-6.792766e-02
-7.499172e-02
-8.170122e-02
-8.779684e-02
-9.296928e-02
-9.693512e-02
-9.950573e-02
-1.006158e-01
-1.002993e-01
-9.862260e-02
-9.561021e-02
-9.121696e-02
-8.536024e-02
-7.797775e-02
-6.907170e-02
-5.872649e-02
-4.710404e-02
-3.442634e-02
-2.094683e-02
-6.905404e-03
7.519005e-03
2.222713e-02
3.718601e-02
5.241184e-02
6.796709e-02
8.396139e-02
1.005346e-01
1.178176e-01
1.358996e-01
1.548287e-01
1.746233e-01
1.952565e-01
2.166184e-01
2.384998e-01
2.606265e-01
2.827255e-01
3.045874e-01
3.261111e-01
3.473134e-01
3.682925e-01
3.891626e-01
4.099979e-01
4.308086e-01
4.515517e-01
4.721553e-01
4.925288e-01
5.125569e-01
5.320949e-01
5.509882e-01
5.691145e-01
5.864280e-01
6.029753e-01
6.188681e-01
6.342256e-01
6.491155e-01
6.635202e-01
6.773401e-01
6.904302e-01
7.026550e-01
7.139387e-01
7.242927e-01
7.338034e-01
7.425851e-01
7.507275e-01
7.582857e-01
7.653202e-01
7.719347e-01
7.782670e-01
7.844438e-01
7.905390e-01
7.965553e-01
8.024237e-01
8.080244e-01
8.132234e-01
8.179154e-01
8.220771e-01
8.258117e-01
8.293519e-01
8.330113e-01
8.371132e-01
8.419359e-01
8.476893e-01
8.545197e-01
8.625255e-01
8.717634e-01
8.822491e-01
8.939648e-01
9.068730e-01
9.209215e-01
9.360380e-01
9.521298e-01
9.691047e-01
9.869007e-01
1.005491e+00
1.024844e+00
1.044865e+00
1.065362e+00
1.086067e+00
1.106698e+00
1.127008e+00
1.146806e+00
1.165946e+00
1.184285e+00
1.201687e+00
1.218049e+00
1.233344e+00
1.247620e+00
1.260962e+00
1.273438e+00
1.285060e+00
1.295771e+00
1.305472e+00
1.314062e+00
1.321491e+00
1.327788e+00
1.333065e+00
1.337495e+00
1.341282e+00
1.344635e+00
1.347730e+00
1.350690e+00
1.353579e+00
1.356408e+00
1.359162e+00
1.361809e+00
1.364314e+00
1.366631e+00
1.368706e+00
1.370466e+00
1.371811e+00
1.372607e+00
1.372699e+00
1.371940e+00
1.370214e+00
1.367476e+00
1.363771e+00
1.359238e+00
1.354072e+00
1.348460e+00
1.342529e+00
1.336327e+00
1.329812e+00
1.322868e+00
1.315322e+00
1.307001e+00
1.297806e+00
1.287746e+00
1.276938e+00
1.265567e+00
1.253818e+00
1.241835e+00
1.229716e+00
1.217530e+00
1.205341e+00
1.193185e+00
1.181044e+00
1.168839e+00
1.156462e+00
1.143813e+00
1.130795e+00
1.117286e+00
1.103138e+00
1.088241e+00
1.072598e+00
1.056332e+00
1.039630e+00
1.022685e+00
1.005661e+00
9.887014e-01
9.719635e-01
9.556355e-01
9.399325e-01
9.250671e-01
9.112263e-01
8.985666e-01
8.872166e-01
8.772698e-01
8.687796e-01
8.617674e-01
8.562409e-01
8.522108e-01
8.497018e-01
8.487594e-01
8.494539e-01
8.518800e-01
8.561448e-01
8.623444e-01
8.705443e-01
8.807777e-01
8.930501e-01
9.073275e-01
9.235152e-01
9.414547e-01
9.609528e-01
9.818205e-01
1.003890e+00
1.027000e+00
1.050979e+00
1.075646e+00
1.100820e+00
1.126331e+00
1.152043e+00
1.177868e+00
1.203768e+00
1.229733e+00
1.255767e+00
1.281896e+00
1.308174e+00
1.334652e+00
1.361335e+00
1.388140e+00
1.414890e+00
1.441335e+00
1.467179e+00
1.492136e+00
1.515990e+00
1.538638e+00
1.560080e+00
1.580405e+00
1.599777e+00
1.618433e+00
1.636672e+00
1.654837e+00
1.673270e+00
1.692271e+00
1.712055e+00
1.732729e+00
1.754305e+00
1.776710e+00
1.799793e+00
1.823308e+00
1.846926e+00
1.870302e+00
1.893161e+00
1.915339e+00
1.936761e+00
1.957390e+00
1.977179e+00
1.996028e+00
2.013773e+00
2.030209e+00
2.045153e+00
2.058496e+00
2.070206e+00
2.080278e+00
2.088679e+00
2.095346e+00
2.100215e+00
2.103269e+00
2.104535e+00
2.104061e+00
2.101887e+00
2.098052e+00
2.092624e+00
2.085706e+00
2.077404e+00
2.067811e+00
2.057000e+00
2.045040e+00
2.032005e+00
2.017985e+00
2.003086e+00
1.987435e+00
1.971167e+00
1.954409e+00
1.937255e+00
1.919766e+00
1.901985e+00
1.883942e+00
1.865627e+00
1.846961e+00
1.827809e+00
1.808013e+00
1.787425e+00
1.765931e+00
1.743469e+00
1.720020e+00
1.695597e+00
1.670249e+00
1.644084e+00
1.617267e+00
1.589966e+00
1.562283e+00
1.534211e+00
1.505675e+00
1.476607e+00
1.447014e+00
1.417011e+00
1.386807e+00
1.356670e+00
1.326868e+00
1.297614e+00
1.269044e+00
1.241230e+00
1.214206e+00
1.187993e+00
1.162614e+00
1.138094e+00
1.114434e+00
1.091591e+00
1.069480e+00
1.048020e+00
1.027198e+00
1.007072e+00
9.877259e-01
9.691706e-01
9.512768e-01
9.337683e-01
9.162941e-01
8.985442e-01
8.803424e-01
8.616610e-01
8.425580e-01
8.230918e-01
8.032822e-01
