EVENT_NAME: EMILIA_2ND_SHOCK
EVENT_ID: IT-2012-0011
EVENT_DATE_YYYYMMDD: 20120529
EVENT_TIME_HHMMSS: 070002
EVENT_LATITUDE_DEGREE: 44.8417
EVENT_LONGITUDE_DEGREE: 11.0657
EVENT_DEPTH_KM: 8.1
HYPOCENTER_REFERENCE: INGV-CNT_Seismic_Bulletin
MAGNITUDE_W: 6.0
MAGNITUDE_W_REFERENCE: RCMT-INGV
MAGNITUDE_L: 5.8
MAGNITUDE_L_REFERENCE: INGV-CNT_Seismic_Bulletin
FOCAL_MECHANISM: TF
NETWORK: IT
STATION_CODE: CRP
STATION_NAME: CARPI
STATION_LATITUDE_DEGREE: 44.782300
STATION_LONGITUDE_DEGREE: 10.870300
STATION_ELEVATION_M: 89
LOCATION: 
SENSOR_DEPTH_M: 0.0
VS30_M/S: 
SITE_CLASSIFICATION_EC8: C*
MORPHOLOGIC_CLASSIFICATION: 
EPICENTRAL_DISTANCE_KM: 16.8
EARTHQUAKE_BACKAZIMUTH_DEGREE: 66.8
DATE_TIME_FIRST_SAMPLE_YYYYMMDD_HHMMSS: 20120529_065953.000
DATE_TIME_FIRST_SAMPLE_PRECISION: seconds
SAMPLING_INTERVAL_S: 0.005000
NDATA: 27723
DURATION_S: 138.615
STREAM: HNN
UNITS: cm/s
INSTRUMENT: sensor = Episensor FBA ES-T [Kinemetrics] | digitizer = Etna [Kinemetrics]
INSTRUMENT_ANALOG/DIGITAL: D
INSTRUMENTAL_FREQUENCY_HZ: 
INSTRUMENTAL_DAMPING: 
FULL_SCALE_G: 
N_BIT_DIGITAL_CONVERTER: 18
PGV_CM/S: 6.816219
TIME_PGV_S: 30.260000
BASELINE_CORRECTION: BASELINE REMOVED
FILTER_TYPE: BUTTERWORTH
FILTER_ORDER: 2
LOW_CUT_FREQUENCY_HZ: 0.050
HIGH_CUT_FREQUENCY_HZ: 40.000
LATE/NORMAL_TRIGGERED: NT
DATABASE_VERSION: DYNA 1.0
HEADER_FORMAT: DYNA 1.2
DATA_TYPE: VELOCITY
PROCESSING: manual (Paolucci et al., 2011)
DATA_TIMESTAMP_YYYYMMDD_HHMMSS: 20141204_103047.929
DATA_LICENSE: CC-BY3_0-IT (http://creativecommons.org/licenses/by/3.0/deed.en)
DATA_CITATION: ESM working group (2015), European Strong-Motion database, version 0.1, Network Activity 3: Networking acceleration networks and SM data users. Project NERA (www.nera-eu.org)
DATA_CREATOR: ESM working group
ORIGINAL_DATA_MEDIATOR_CITATION: Ufficio Rischio Sismico e Vulcanico del Dipartimento della Protezione Civile (http://www.protezionecivile.gov.it/)
ORIGINAL_DATA_MEDIATOR: Rete Accelerometrica Nazionale - RAN Download (http://www.mot1.it/randownload/)
ORIGINAL_DATA_CREATOR_CITATION: Italian Strong Motion Network, Italian Civil Protection Department http://www.protezionecivile.gov.it
ORIGINAL_DATA_CREATOR: network: IT (Italian Strong Motion Network); owner: Dipartimento Della Protezione Civile
USER1: /home/dyna/processing-itaca/processing.py /var/www/processing/tmp/fpacor//IT.CRP..HNE.D.20120529.070003.X.ACC.ASC /var/www/processing/tmp/fpacor//IT.CRP..HNN.D.20120529.070003.X.ACC.ASC /var/www/processing/tmp/fpacor//IT.CRP..HNZ.D.20120529.070003.X.ACC.ASC --tmp /var/www/processing/tmp/fpacor/ --le 0.050 --he 40.000 --ln 0.050 --hn 40.000 --lz 0.050 --hz 40.000 --fo 2 --ca -10 --cz 40 --ta 5 --tz 5 --mf 1 --rf 0 --tr NT
USER2: 
USER3: 
USER4: 
USER5: 
[...]
0.842326
0.687996
0.467448
0.192303
-0.119610
-0.446778
-0.766859
-1.058775
-1.306026
-1.501150
-1.646758
-1.751055
-1.822260
-1.866375
-1.886800
-1.883678
-1.853740
-1.790600
-1.685864
-1.533526
-1.336748
-1.110794
-0.879132
-0.665905
-0.487333
-0.345228
-0.227807
-0.117478
0.000455
0.132782
0.277414
0.424775
0.560209
0.667471
0.732993
0.748864
0.713441
0.629215
0.499263
0.327195
0.120775
-0.106333
-0.336656
-0.552999
-0.743452
-0.905964
-1.047990
-1.179086
-1.303312
-1.418844
-1.522137
-1.609962
-1.679093
-1.726796
-1.751795
-1.753613
-1.730766
-1.681508
-1.606628
-1.509294
-1.393219
-1.261940
-1.118128
-0.964441
-0.806147
-0.652157
-0.513398
-0.398918
-0.311441
-0.246167
-0.193555
-0.143497
-0.089378
-0.029827
0.033294
0.097372
0.159425
0.215449
0.260615
0.291038
0.305804
0.307842
0.302781
0.296208
0.291402
0.288853
0.287301
0.284494
0.277168
0.261205
0.231615
0.183644
0.115868
0.032034
-0.059772
-0.148459
-0.221536
-0.268672
-0.285586
-0.275066
-0.244760
-0.203386
-0.157959
-0.112900
-0.070895
-0.035113
-0.009206
0.005343
0.010271
0.009552
0.008682
0.013729
0.029205
0.056922
0.097063
0.149512
0.214715
0.293981
0.388095
0.495303
0.610788
0.727569
0.838234
0.937253
1.020853
1.083175
1.114925
1.107763
1.058961
0.972982
0.861179
0.739372
0.623174
0.524461
0.450902
0.404994
0.381594
0.368824
0.354055
0.329703
0.295243
0.258086
0.232599
0.233488
0.268266
0.335091
0.423023
0.512281
0.578715
0.601824
0.569922
0.482174
0.349190
0.189582
0.023366
-0.133597
-0.272036
-0.387894
-0.478287
-0.538787
-0.564520
-0.551905
-0.498360
-0.402910
-0.269281
-0.107728
0.066681
0.237164
0.389087
0.514928
0.616372
0.700922
0.776819
0.849967
0.922283
0.990535
1.045950
1.074563
1.060142
0.990326
0.861489
0.678766
0.453498
0.201993
-0.055874
-0.301205
-0.520421
-0.705939
-0.855883
-0.974905
-1.073425
-1.164517
-1.261201
-1.373133
-1.502823
-1.645353
-1.790225
-1.922926
-2.028085
-2.093941
-2.114756
-2.090497
-2.026299
-1.932140
-1.821669
-1.710043
-1.611230
-1.535897
-1.490448
-1.476841
-1.491916
-1.527099
-1.571092
-1.613090
-1.644528
-1.661506
-1.666331
-1.665644
-1.666952
-1.675934
-1.694313
-1.718342
-1.740637
-1.754971
-1.759236
-1.754749
-1.744223
-1.730091
-1.713004
-1.691159
-1.660960
-1.617974
-1.557945
-1.478385
-1.379838
-1.265536
-1.138962
-1.000231
-0.845036
-0.668539
-0.469817
-0.252312
-0.021879
0.214338
0.447868
0.669164
0.868761
1.038733
1.173983
1.273063
1.337444
1.370096
1.376588
1.366187
1.348898
1.332910
1.325148
1.330707
1.351322
1.385638
1.430225
1.480703
1.534152
1.591884
1.659639
1.744284
1.850390
1.979239
2.128872
2.294218
2.467566
2.639832
2.802082
2.944568
3.055205
3.123206
3.144421
3.120702
3.055807
2.954333
2.822151
2.664885
2.486880
2.292904
2.088891
1.879016
1.663767
1.442577
1.217583
0.995126
0.784929
0.597354
0.439763
0.314738
0.221869
0.160663
0.131226
0.132712
0.162135
0.214774
0.285077
0.366958
0.453634
0.538305
0.614706
0.675728
0.713653
0.723890
0.707513
0.670267
0.620062
0.563034
0.499390
0.423636
0.328531
0.207963
0.058936
-0.115885
-0.306978
-0.499954
-0.679083
-0.829460
-0.938385
-0.997228
-1.001972
-0.952143
-0.851420
-0.709577
-0.541139
-0.361106
-0.182018
-0.013323
0.138878
0.272351
0.388083
0.488905
0.578469
0.660120
0.735459
0.802634
0.856171
0.889837
0.899445
0.883063
0.840604
0.774383
0.689025
0.590087
0.483338
0.374906
0.270247
0.172616
0.083450
0.002595
-0.072881
-0.147061
-0.221772
-0.296305
-0.368603
-0.435377
-0.492299
-0.534695
-0.558039
-0.558595
-0.535427
-0.493436
-0.444051
-0.401774
-0.380397
-0.391715
-0.444616
-0.543138
-0.684601
-0.860275
-1.059117
-1.270715
-1.485238
-1.693081
-1.885398
-2.053930
-2.191096
-2.292028
-2.355822
-2.383980
-2.379191
-2.345497
-2.287110
-2.206950
-2.107764
-1.994431
-1.874063
-1.753219
-1.636403
-1.527742
-1.431656
-1.352417
-1.295120
-1.265390
-1.266985
-1.300980
-1.367240
-1.465036
-1.591687
-1.741676
-1.907757
-2.082281
-2.257118
-2.423274
-2.572179
-2.698620
-2.802863
-2.890426
-2.970881
-3.055720
-3.154645
-3.272528
-3.407776
-3.551369
-3.688393
-3.803505
-3.886570
-3.933347
-3.943177
-3.918045
-3.861993
-3.780013
-3.678779
-3.568189
-3.460018
-3.364673
-3.289384
-3.237919
-3.210431
-3.203352
-3.210449
-3.225142
-3.242473
-3.259778
-3.276116
-3.291379
-3.305784
-3.319621
-3.333142
-3.346390
-3.359145
-3.370901
-3.380352
-3.385212
-3.383248
-3.373538
-3.356311
-3.331706
-3.299336
-3.258690
-3.209083
-3.149161
-3.077490
-2.994070
-2.900208
-2.796685
-2.682849
-2.557915
-2.423317
-2.283609
-2.144975
-2.012624
-1.888652
-1.771560
-1.657687
-1.543235
-1.425904
-1.306431
-1.188811
-1.077412
-0.973388
-0.874302
-0.776908
-0.679545
-0.581977
-0.484325
-0.387342
-0.293409
-0.206160
-0.128969
-0.064167
-0.012852
0.026194
0.057791
0.089338
0.128127
0.180153
0.250396
0.342277
0.456703
0.592488
0.747227
0.916750
1.094275
1.270959
1.437303
1.584701
1.707264
1.803122
1.873853
1.922350
1.950411
1.957274
1.940693
1.900142
1.838752
1.762053
1.675816
1.585685
1.497481
1.415836
1.342711
1.278295
1.222165
1.172153
1.123399
1.070308
1.009260
0.939006
0.859649
0.772714
0.681813
0.592064
0.508854
0.437145
0.380802
0.342321
0.323780
0.327281
0.353636
0.401356
0.467387
0.548354
0.640970
0.741379
0.844299
0.943077
1.030466
1.099544
1.144534
1.160781
1.144116
1.091115
1.000217
0.872326
0.711229
0.524167
0.321246
0.113086
-0.092081
-0.289876
-0.479060
-0.659981
-0.833283
-0.999147
-1.157074
-1.305357
-1.440072
-1.555108
-1.644296
-1.704668
-1.738247
-1.751192
-1.751576
-1.746674
-1.740356
-1.733110
-1.725528
-1.720829
-1.723245
-1.735153
-1.756398
-1.784745
-1.815317
-1.840068
-1.849524
-1.836044
-1.795878
-1.729050
-1.638097
-1.526922
-1.400576
-1.265310
-1.127571
-0.992183
-0.860965
-0.732579
-0.604007
-0.472440
-0.335386
-0.189754
-0.032590
0.137114
0.318085
0.507454
0.700971
0.893386
1.079566
1.255018
1.415642
1.558069
1.679689
1.776669
1.842075
1.867094
1.843642
1.765849
1.631378
1.442662
1.206466
0.932400
0.631978
0.317771
0.001951
-0.304835
-0.594095
-0.860630
-1.103253
-1.323756
-1.524835
-1.707978
-1.871989
-2.013000
-2.126114
-2.208163
-2.259516
-2.282206
-2.276546
-2.240894
-2.173989
-2.076032
-1.947830
-1.791041
-1.610648
-1.415334
-1.214026
-1.013380
-0.818254
-0.632346
-0.458263
-0.298344
-0.155148
-0.030410
0.075701
0.163380
0.231723
0.279544
0.307686
0.320139
0.323151
0.323511
0.326966
0.337242
0.356453
0.386271
0.427889
0.480983
0.543465
0.612482
0.684979
0.756449
0.819728
0.866209
0.888325
0.880564
0.839061
0.762069
0.651450
0.512308
0.350689
0.172781
-0.014279
-0.202768
-0.385724
-0.557968
-0.716589
-0.860619
-0.990506
-1.107780
-1.214524
-1.313397
-1.408083
-1.502467
-1.598857
-1.697096
-1.795207
-1.890749
-1.981695
-2.067071
-2.147727
-2.225832
-2.303538
-2.382690
-2.464621
-2.549405
-2.635836
-2.721862
-2.804762
-2.881798
-2.950860
-3.010336
-3.059024
-3.095920
-3.119437
-3.127215
-3.117005
-3.088053
-3.041533
-2.979109
-2.901807
-2.811076
-2.709972
-2.602436
-2.492267
-2.383031
-2.277731
-2.178095
-2.084578
-1.996985
-1.914798
-1.836910
-1.761821
-1.688575
-1.616721
-1.545111
-1.471590
-1.394203
-1.311811
-1.222805
-1.124484
-1.015640
-0.899249
-0.781640
-0.670051
-0.571375
-0.491867
-0.436627
-0.408883
-0.410157
-0.441024
-0.500888
-0.587009
-0.694567
-0.817812
-0.950952
-1.088687
-1.227035
-1.364088
-1.499541
-1.632817
-1.761695
-1.882652
-1.991881
-2.086258
-2.163863
-2.223367
-2.263093
-2.281758
-2.280398
-2.262420
-2.231412
-2.189210
-2.135666
-2.069883
-1.991218
-1.898959
-1.792165
-1.670665
-1.535635
-1.389001
-1.233125
-1.071270
-0.907741
-0.747013
-0.592677
-0.447387
-0.312922
-0.189638
-0.076773
0.026320
0.119562
0.202508
0.275023
0.337322
0.389305
0.430751
0.462652
0.488192
0.512691
0.542244
0.581517
0.633003
0.697998
0.776675
0.867074
0.965301
1.066742
1.166458
1.259193
1.340307
1.406957
1.458350
1.495148
1.518741
1.530522
1.531199
1.520909
1.500064
1.469846
1.432578
1.392315
1.354862
1.326686
1.313615
1.320529
1.351575
1.409450
1.494396
1.604428
1.736045
1.884581
2.044414
2.209366
2.373887
2.534335
2.688700
2.835621
2.974120
3.103528
3.223417
3.334068
3.436633
3.532086
3.619753
3.696720
3.758860
3.802745
3.826414
3.828754
3.809364
3.769488
3.712928
3.645532
3.573393
3.501216
3.431137
3.362423
3.292670
3.219018
3.138323
3.046971
2.940999
2.817287
2.675568
2.518824
2.351425
2.177537
2.000998
1.825964
1.657023
1.498084
1.351919
1.220763
1.105572
1.005267
0.918391
0.844857
0.785611
0.741736
0.713979
0.701923
0.703453
0.715091
0.732155
0.748863
0.759225
0.757857
0.740089
0.702646
0.644871
0.568604
0.477078
0.374059
0.262933
0.145523
0.021654
-0.109806
-0.250095
-0.400465
-0.560835
-0.728376
-0.898627
-1.067549
-1.231393
-1.385313
-1.523764
-1.642411
-1.739158
-1.813933
-1.868138
-1.904611
-1.927994
-1.944415
-1.960109
-1.980347
-2.009478
-2.050765
-2.105193
-2.170825
-2.243866
-2.320135
-2.395739
-2.467250
-2.530919
-2.582067
-2.617092
-2.635749
-2.640223
-2.632777
-2.614995
-2.588106
-2.553238
-2.511713
-2.464503
-2.411096
-2.349891
-2.279953
-2.201782
-2.116782
-2.027162
-1.936239
-1.847960
-1.766208
-1.694380
-1.634913
-1.588577
-1.553921
-1.528355
-1.510021
-1.497508
-1.488208
-1.478842
-1.468234
-1.458854
-1.455038
-1.459566
-1.472567
-1.493563
-1.523079
-1.562246
-1.611785
-1.671017
-1.737725
-1.809643
-1.885824
-1.965613
-2.046757
-2.125405
-2.197311
-2.258578
-2.306075
-2.337400
-2.350134
-2.341677
-2.310752
-2.258826
-2.189721
-2.108309
-2.019467
-1.927163
-1.834026
-1.742067
-1.653405
-1.570048
-1.493666
-1.425654
-1.367178
-1.319172
-1.281883
-1.254290
-1.234293
-1.219502
-1.207576
-1.195878
-1.181387
-1.161406
-1.134328
-1.099931
-1.059255
-1.013953
-0.965680
-0.916517
-0.869470
-0.827336
-0.791050
-0.759737
-0.731568
-0.703767
-0.673003
-0.637012
-0.595418
-0.549202
-0.500627
-0.453687
-0.413593
-0.385742
-0.374990
-0.384708
-0.416078
-0.468569
-0.540712
-0.630249
-0.734099
-0.848399
-0.968689
-1.090517
-1.210612
-1.327853
-1.442749
-1.556007
-1.667674
-1.777252
-1.884406
-1.989133
-2.090920
-2.188303
-2.279378
-2.361941
-2.433131
-2.490201
-2.531892
-2.558244
-2.569376
-2.565087
-2.545186
-2.509453
-2.457583
-2.390028
-2.308516
-2.215095
-2.111548
-2.000113
-1.883772
-1.766029
-1.651233
-1.544195
-1.448598
-1.366005
-1.296109
-1.237501
-1.188183
-1.145913
-1.108975
-1.076704
-1.049095
-1.026162
-1.007642
-0.992960
-0.980942
-0.968987
-0.952702
-0.927031
-0.887688
-0.831896
-0.758942
-0.670124
-0.567997
-0.455877
-0.337538
-0.216326
-0.093932
0.029567
0.154171
0.279066
0.403168
0.525746
0.646702
0.766678
0.886407
1.005834
1.124314
1.241149
1.355928
1.468937
1.580852
1.691947
1.802189
1.911769
2.020800
2.128788
2.235037
2.338959
2.439281
2.533552
2.618918
2.692967
2.754019
2.801262
2.834731
2.855030
2.863186
2.860838
2.850100
2.832920
2.810846
2.784981
2.755441
2.721242
2.680977
2.633176
2.576403
2.509763
2.433134
2.346530
2.249477
2.141076
2.020343
1.886509
1.739129
1.577840
1.401975
1.210976
1.005296
0.786207
0.555032
0.313341
0.063622
-0.190840
-0.446483
-0.699280
-0.944635
-1.178228
-1.396712
-1.597829
-1.780698
-1.945840
-2.094258
-2.226384
-2.341392
-2.436849
-2.509617
-2.557690
-2.580651
-2.578513
-2.550971
-2.497722
-2.419285
-2.317646
-2.196086
-2.058851
-1.911639
-1.761452
-1.614714
-1.475731
-1.347036
-1.229957
-1.124051
-1.026517
-0.932548
-0.836325
-0.732412
-0.617235
-0.489689
-0.350474
-0.201317
-0.044685
0.116856
0.281162
0.445873
0.607966
0.764793
0.915058
1.058213
1.193227
1.318146
1.430697
1.529435
1.614340
1.685900
1.743942
1.788159
1.818897
1.836462
1.840508
1.830215
1.804119
1.760029
1.695773
1.610161
1.503662
1.378559
1.238501
1.087806
0.931009
0.772545
0.616251
0.465194
0.322074
0.189634
0.070702
-0.031908
-0.115252
-0.176213
-0.212236
-0.222119
-0.206123
-0.165808
-0.103244
-0.019831
0.083396
0.204551
0.340934
0.489537
0.647032
0.810224
0.976714
1.144694
1.312279
1.477364
1.638041
1.792803
1.940699
2.081383
2.214545
2.339521
2.455780
2.563604
2.664414
2.760859
2.856382
2.954019
3.055518
3.161613
3.272760
3.389428
3.512003
3.640643
3.775010
3.914411
4.058488
4.207166
4.359695
4.514445
4.669878
4.825159
4.979937
5.134238
5.288075
5.440795
5.591396
5.739335
5.884510
6.026675
6.165008
6.297647
6.421499
6.532927
6.628661
6.706178
6.763739
6.800429
6.816219
6.811807
6.788742
6.749838
6.698767
6.638997
6.572917
6.501156
6.422478
6.335014
6.237714
6.130206
6.011738
5.881067
5.737595
5.582435
5.418257
5.248216
5.074849
4.899726
4.723671
4.546822
4.368792
4.189299
4.008509
3.826394
3.641956
3.453570
3.259881
3.060487
2.856506
2.650560
2.445975
2.245998
2.053747
1.872626
1.706478
1.559386
1.435371
1.337968
1.269629
1.231434
1.223329
1.244011
1.290498
1.358181
1.441251
1.533440
1.629082
1.723794
1.814669
1.900336
1.980729
2.056510
2.128325
2.196112
2.258867
2.315139
2.363643
2.403486
2.434265
2.456177
2.469637
2.474892
2.472389
2.462934
2.447096
2.425401
2.399334
2.371162
2.342780
2.315412
2.290110
2.267920
2.249275
2.233302
2.218213
2.202160
2.183246
2.159465
2.129038
2.090369
2.042032
1.983115
1.913272
1.832973
1.744205
1.649971
1.552763
1.454181
1.355557
1.258320
1.164427
1.076364
0.996147
0.924580
0.861361
0.805397
0.755274
0.709719
0.667561
0.627367
0.587292
0.545642
0.502085
0.457871
0.414657
0.373630
0.335176
0.298856
0.263911
0.229352
0.193881
0.156569
0.117258
0.076061
0.033204
-0.010504
-0.053850
-0.095874
-0.135627
-0.171599
-0.202206
-0.226623
-0.244767
-0.257278
-0.265690
-0.271505
-0.275400
-0.278115
-0.281121
-0.285619
-0.291520
-0.297737
-0.303094
-0.306896
-0.308822
-0.308376
-0.304630
-0.296935
-0.285970
-0.273530
-0.261530
-0.251950
-0.247186
-0.249769
-0.261681
-0.283340
-0.312841
-0.346944
-0.383127
-0.420240
-0.457910
-0.496394
-0.536548
-0.579301
-0.625332
-0.675311
-0.729558
-0.787387
-0.847587
-0.908942
-0.969837
-1.028606
-1.084954
-1.140349
-1.197011
-1.257054
-1.322057
-1.392694
-1.468987
-1.550963
-1.638585
-1.730996
-1.826243
-1.921662
-2.014450
-2.102561
-2.185061
-2.261476
-2.331674
-2.396252
-2.455935
-2.510773
-2.560704
-2.606179
-2.647361
-2.683751
-2.715129
-2.741725
-2.763678
-2.781491
-2.796430
-2.809532
-2.820725
-2.829342
-2.834849
-2.836735
-2.834081
-2.825291
-2.808156
-2.780552
-2.741283
-2.690063
-2.626799
-2.551440
-2.464642
-2.368281
-2.265289
-2.158660
-2.050358
-1.941683
-1.834291
-1.729905
-1.629502
-1.533499
-1.442102
-1.355020
-1.271616
-1.191456
-1.114010
-1.038284
-0.963333
-0.888323
-0.811726
-0.731496
-0.646127
-0.554500
-0.455290
-0.347539
-0.230983
-0.105388
0.029330
0.172055
0.320335
0.471641
0.624713
0.779679
0.937033
1.096850
1.259066
1.423942
1.591603
1.761250
1.931273
2.099649
2.263965
2.421822
2.571169
2.709740
2.835032
2.945816
3.042687
3.126483
3.197342
3.255868
3.303797
3.342912
3.374208
3.398014
3.414105
3.422013
3.421535
3.412789
3.395914
3.371127
3.339134
3.300955
3.257230
3.208025
3.152845
3.090544
3.019850
2.940114
2.851417
2.754490
2.650655
2.541457
2.428741
2.314802
2.201652
2.090547
1.982647
1.879447
1.782109
1.690952
1.606036
1.527698
1.456479
1.392752
1.336139
1.285503
1.239929
1.199293
1.163476
1.131897
1.104437
1.082023
1.065964
1.057276
1.056722
1.065016
1.082715
1.109965
1.146069
1.189066
1.236074
1.284136
1.330531
1.372721
1.408803
1.437894
1.459847
1.474768
1.482402
1.481723
1.471689
1.452532
1.425878
1.393815
1.358150
1.319841
1.278883
1.235299
1.189854
1.143299
1.095798
1.047620
0.999127
0.949529
0.896976
0.840161
0.778662
0.711956
0.639403
0.561156
0.478361
0.392688
0.305869
0.219144
0.132859
0.046817
-0.038747
-0.122665
-0.203562
-0.281022
-0.355779
-0.428866
-0.500983
-0.572637
-0.644573
-0.718059
-0.794664
-0.875530
-0.960859
-1.050052
-1.142456
-1.237899
-1.336247
-1.436785
-1.538387
-1.639863
-1.740192
-1.838871
-1.935943
-2.031685
-2.126668
-2.221957
-2.318674
-2.417371
-2.518085
-2.620886
-2.725950
-2.832927
-2.940621
-3.047556
-3.152645
-3.255335
-3.355512
-3.453274
-3.548484
-3.640520
-3.728788
-3.813423
-3.895222
-3.974958
-4.052952
-4.129200
-4.203599
-4.275963
-4.346046
-4.413610
-4.478508
-4.540721
-4.600120
-4.656138
-4.708136
-4.756149
-4.800876
-4.843044
-4.883075
-4.921093
-4.956921
-4.990167
-5.020253
-5.046151
-5.066304
-5.079196
-5.084082
-5.081052
-5.070516
-5.052976
-5.029249
-5.000525
-4.968272
-4.934243
-4.900349
-4.868282
-4.839193
-4.813648
-4.791748
-4.773181
-4.756972
-4.741329
-4.724154
-4.703597
-4.678121
-4.646643
-4.608675
-4.563838
-4.511321
-4.450050
-4.379138
-4.298211
-4.207788
-4.109242
-4.003995
-3.892812
-3.776098
-3.654624
-3.529702
-3.402850
-3.275388
-3.148278
-3.022259
-2.898122
-2.777082
-2.660964
-2.551627
-2.449935
-2.355430
-2.267137
-2.184363
-2.106515
-2.032709
-1.961956
-1.893391
-1.826269
-1.760266
-1.695778
-1.633390
-1.573104
-1.514672
-1.458578
-1.406234
-1.359514
-1.320130
-1.288870
-1.265438
-1.249106
-1.239129
-1.234669
-1.234930
-1.239268
-1.246734
-1.255540
-1.263346
-1.268208
-1.269185
-1.266036
-1.258491
-1.245797
-1.226976
-1.201689
-1.170753
-1.135705
-1.098160
-1.059526
-1.020709
-0.982055
-0.943836
-0.906499
-0.870308
-0.835151
-0.800677
-0.766354
-0.731876
-0.697913
-0.666078
-0.638074
-0.615091
-0.597705
-0.586094
-0.580512
-0.581511
-0.589482
-0.604192
-0.624751
-0.649644
-0.677026
-0.705444
-0.734246
-0.763191
-0.791847
-0.819459
-0.845375
-0.869317
-0.890937
-0.909401
-0.923671
-0.932825
-0.936111
-0.932824
-0.922006
-0.902460
-0.873283
-0.834342
-0.786420
-0.730946
-0.669466
-0.603326
-0.533575
-0.460905
-0.385907
-0.309674
-0.234028
-0.160956
-0.091866
-0.027424
0.032005
0.086002
0.134112
