EVENT_NAME: EMILIA_2ND_SHOCK
EVENT_ID: IT-2012-0011
EVENT_DATE_YYYYMMDD: 20120529
EVENT_TIME_HHMMSS: 070002
EVENT_LATITUDE_DEGREE: 44.8417
EVENT_LONGITUDE_DEGREE: 11.0657
EVENT_DEPTH_KM: 8.1
HYPOCENTER_REFERENCE: INGV-CNT_Seismic_Bulletin
MAGNITUDE_W: 6.0
MAGNITUDE_W_REFERENCE: RCMT-INGV
MAGNITUDE_L: 5.8
MAGNITUDE_L_REFERENCE: INGV-CNT_Seismic_Bulletin
FOCAL_MECHANISM: TF
NETWORK: IT
STATION_CODE: CNT
STATION_NAME: CENTO
STATION_LATITUDE_DEGREE: 44.723400
STATION_LONGITUDE_DEGREE: 11.286700
STATION_ELEVATION_M: 68
LOCATION: 
SENSOR_DEPTH_M: 0.0
VS30_M/S: 
SITE_CLASSIFICATION_EC8: C*
MORPHOLOGIC_CLASSIFICATION: 
EPICENTRAL_DISTANCE_KM: 21.9
EARTHQUAKE_BACKAZIMUTH_DEGREE: 307.0
DATE_TIME_FIRST_SAMPLE_YYYYMMDD_HHMMSS: 20120529_065953.000
DATE_TIME_FIRST_SAMPLE_PRECISION: seconds
SAMPLING_INTERVAL_S: 0.005000
NDATA: 27600
DURATION_S: 138.000
STREAM: HNE
UNITS: cm/s
INSTRUMENT: sensor = Episensor FBA ES-T [Kinemetrics] | digitizer = Etna [Kinemetrics]
INSTRUMENT_ANALOG/DIGITAL: D
INSTRUMENTAL_FREQUENCY_HZ: 
INSTRUMENTAL_DAMPING: 
FULL_SCALE_G: 
N_BIT_DIGITAL_CONVERTER: 18
PGV_CM/S: 16.893330
TIME_PGV_S: 23.720000
BASELINE_CORRECTION: BASELINE REMOVED
FILTER_TYPE: BUTTERWORTH
FILTER_ORDER: 2
LOW_CUT_FREQUENCY_HZ: 0.070
HIGH_CUT_FREQUENCY_HZ: 40.000
LATE/NORMAL_TRIGGERED: NT
DATABASE_VERSION: DYNA 1.0
HEADER_FORMAT: DYNA 1.2
DATA_TYPE: VELOCITY
PROCESSING: manual (Paolucci et al., 2011)
DATA_TIMESTAMP_YYYYMMDD_HHMMSS: 20141204_102759.333
DATA_LICENSE: CC-BY3_0-IT (http://creativecommons.org/licenses/by/3.0/deed.en)
DATA_CITATION: ESM working group (2015), European Strong-Motion database, version 0.1, Network Activity 3: Networking acceleration networks and SM data users. Project NERA (www.nera-eu.org)
DATA_CREATOR: ESM working group
ORIGINAL_DATA_MEDIATOR_CITATION: Ufficio Rischio Sismico e Vulcanico del Dipartimento della Protezione Civile (http://www.protezionecivile.gov.it/)
ORIGINAL_DATA_MEDIATOR: Rete Accelerometrica Nazionale - RAN Download (http://www.mot1.it/randownload/)
ORIGINAL_DATA_CREATOR_CITATION: Italian Strong Motion Network, Italian Civil Protection Department http://www.protezionecivile.gov.it
ORIGINAL_DATA_CREATOR: network: IT (Italian Strong Motion Network); owner: Dipartimento Della Protezione Civile
USER1: /home/dyna/processing-itaca/processing.py /var/www/processing/tmp/fpacor//IT.CNT..HNE.D.20120529.070003.X.ACC.ASC /var/www/processing/tmp/fpacor//IT.CNT..HNN.D.20120529.070003.X.ACC.ASC /var/www/processing/tmp/fpacor//IT.CNT..HNZ.D.20120529.070003.X.ACC.ASC --tmp /var/www/processing/tmp/fpacor/ --le 0.070 --he 40.000 --ln 0.070 --hn 40.000 --lz 0.070 --hz 40.000 --fo 2 --ca -10 --cz 30 --ta 5 --tz 5 --mf 1 --rf 0 --tr NT
USER2: 
USER3: 
USER4: 
USER5: 
[...]
0.077111
0.074180
0.064519
0.053558
0.047097
0.047666
0.053550
0.060469
0.064180
0.062374
0.055336
0.045705
0.037609
0.035211
0.040930
0.053991
0.070284
0.084108
0.090944
0.089431
0.081503
0.071026
0.061906
0.056675
0.056168
0.060010
0.067124
0.075753
0.083299
0.086785
0.084243
0.076046
0.064908
0.054418
0.047174
0.043665
0.042570
0.042131
0.041591
0.041765
0.044410
0.050772
0.060373
0.070961
0.079574
0.083954
0.083450
0.078881
0.071550
0.062389
0.052028
0.041423
0.032248
0.026850
0.027606
0.035478
0.048724
0.063362
0.075453
0.083344
0.088083
0.091860
0.095835
0.099223
0.100181
0.097400
0.091319
0.084370
0.079656
0.078561
0.079312
0.077996
0.071522
0.060452
0.049392
0.044155
0.047614
0.057390
0.067064
0.070043
0.063498
0.049843
0.035062
0.025216
0.023284
0.028008
0.035228
0.040612
0.041788
0.038693
0.032561
0.024897
0.017431
0.012743
0.014061
0.023393
0.039240
0.056271
0.067931
0.070332
0.064475
0.055084
0.047173
0.043233
0.042792
0.043818
0.044350
0.043391
0.040841
0.036897
0.031718
0.025808
0.020609
0.018365
0.020821
0.027431
0.034727
0.038087
0.034846
0.026084
0.015692
0.007746
0.004377
0.005476
0.009801
0.016162
0.023896
0.032648
0.041883
0.050610
0.057495
0.061225
0.061066
0.057491
0.052131
0.046527
0.040830
0.034292
0.027258
0.022197
0.022131
0.027745
0.035985
0.041713
0.041316
0.035226
0.027354
0.022362
0.022944
0.028225
0.033902
0.034651
0.027780
0.015484
0.003853
-0.000638
0.005282
0.020316
0.040079
0.059835
0.075992
0.085792
0.087129
0.080010
0.068134
0.057949
0.054883
0.059445
0.066523
0.068756
0.061441
0.045250
0.025423
0.009071
0.002354
0.008009
0.023574
0.041506
0.052117
0.048420
0.030009
0.003338
-0.021661
-0.036388
-0.037230
-0.026568
-0.011181
0.000940
0.004116
-0.002292
-0.013186
-0.019953
-0.015061
0.003403
0.030210
0.055593
0.070426
0.070823
0.059519
0.043530
0.029788
0.021553
0.017702
0.014899
0.010634
0.004931
-0.000098
-0.002080
-0.000220
0.004050
0.008090
0.010130
0.010866
0.013012
0.018608
0.026276
0.031733
0.031816
0.027957
0.024864
0.025195
0.025941
0.020738
0.005765
-0.016427
-0.038014
-0.050584
-0.050077
-0.038829
-0.023781
-0.012300
-0.008021
-0.009125
-0.010301
-0.007205
-0.000309
0.004799
0.001327
-0.013429
-0.035829
-0.058285
-0.073805
-0.078994
-0.074085
-0.061522
-0.045176
-0.030275
-0.022509
-0.025510
-0.038286
-0.055163
-0.068880
-0.074643
-0.072459
-0.066481
-0.062122
-0.062885
-0.068563
-0.075458
-0.078465
-0.073999
-0.061974
-0.045680
-0.030033
-0.019322
-0.015300
-0.016675
-0.021007
-0.027647
-0.038591
-0.056020
-0.078564
-0.099790
-0.111322
-0.108877
-0.095558
-0.079275
-0.067256
-0.062376
-0.063301
-0.067214
-0.072413
-0.078878
-0.087134
-0.097155
-0.108351
-0.120125
-0.132253
-0.144639
-0.156228
-0.163972
-0.163453
-0.151364
-0.128354
-0.100268
-0.076057
-0.062516
-0.059528
-0.060553
-0.058543
-0.051874
-0.045035
-0.044388
-0.053667
-0.072447
-0.097156
-0.122974
-0.145383
-0.160576
-0.165575
-0.159549
-0.145587
-0.130473
-0.121502
-0.121896
-0.127843
-0.130211
-0.121057
-0.100442
-0.078081
-0.068267
-0.081367
-0.117051
-0.163156
-0.201224
-0.216070
-0.203800
-0.173626
-0.142300
-0.124207
-0.123417
-0.133129
-0.142140
-0.142530
-0.133265
-0.119192
-0.107969
-0.106903
-0.120304
-0.147648
-0.183398
-0.219082
-0.246741
-0.261846
-0.264686
-0.259999
-0.254489
-0.253153
-0.256904
-0.262605
-0.264374
-0.255406
-0.231040
-0.192558
-0.148975
-0.114441
-0.102177
-0.118481
-0.159405
-0.211036
-0.254146
-0.272610
-0.261876
-0.232066
-0.202512
-0.190510
-0.202132
-0.230827
-0.262977
-0.285929
-0.294267
-0.291567
-0.286883
-0.288017
-0.295678
-0.302459
-0.297499
-0.273793
-0.233268
-0.186459
-0.147371
-0.126950
-0.128677
-0.147749
-0.173507
-0.194348
-0.203262
-0.200589
-0.192286
-0.185790
-0.186518
-0.196605
-0.215552
-0.240780
-0.267064
-0.286866
-0.292894
-0.281134
-0.252889
-0.215671
-0.180975
-0.158111
-0.148523
-0.145770
-0.141177
-0.131059
-0.120115
-0.117560
-0.128782
-0.150161
-0.171980
-0.186699
-0.194836
-0.202895
-0.215626
-0.230867
-0.242257
-0.246398
-0.246480
-0.248702
-0.255137
-0.259747
-0.251591
-0.223268
-0.178033
-0.130043
-0.097563
-0.093315
-0.117537
-0.158285
-0.199203
-0.228906
-0.244964
-0.250951
-0.251018
-0.247502
-0.243038
-0.243407
-0.256593
-0.287703
-0.333692
-0.382740
-0.419948
-0.436332
-0.435045
-0.429323
-0.432365
-0.447167
-0.465020
-0.472924
-0.463022
-0.437808
-0.408968
-0.391076
-0.393879
-0.417170
-0.450147
-0.475601
-0.478559
-0.456159
-0.421640
-0.397290
-0.400282
-0.432093
-0.479203
-0.523068
-0.550253
-0.555722
-0.540483
-0.509537
-0.472723
-0.444269
-0.436388
-0.450319
-0.473846
-0.489089
-0.484493
-0.461329
-0.430655
-0.404860
-0.390920
-0.389010
-0.394744
-0.401598
-0.402950
-0.395377
-0.382368
-0.374509
-0.384053
-0.416709
-0.466750
-0.519864
-0.561931
-0.586722
-0.596833
-0.598735
-0.597802
-0.597280
-0.599599
-0.606179
-0.615149
-0.620598
-0.615923
-0.598706
-0.572978
-0.547741
-0.532761
-0.533658
-0.549355
-0.573569
-0.598913
-0.620683
-0.638163
-0.653483
-0.670019
-0.691515
-0.720740
-0.757028
-0.794535
-0.823194
-0.832639
-0.817454
-0.780690
-0.733303
-0.689453
-0.659574
-0.645041
-0.638358
-0.628973
-0.610773
-0.586623
-0.567156
-0.564330
-0.583840
-0.621502
-0.665974
-0.705604
-0.734250
-0.752691
-0.766282
-0.780962
-0.799050
-0.816780
-0.825676
-0.817765
-0.791697
-0.755478
-0.722925
-0.705696
-0.706944
-0.720952
-0.737462
-0.746712
-0.742296
-0.721373
-0.684033
-0.633883
-0.578548
-0.527430
-0.487308
-0.459165
-0.439301
-0.424118
-0.413520
-0.409249
-0.411012
-0.415915
-0.422454
-0.434251
-0.457987
-0.496431
-0.543607
-0.587466
-0.618107
-0.634267
-0.642642
-0.651799
-0.666995
-0.689508
-0.718429
-0.751257
-0.783099
-0.807190
-0.817717
-0.812985
-0.796791
-0.777440
-0.764875
-0.766411
-0.782257
-0.803539
-0.815437
-0.805101
-0.770353
-0.723179
-0.683809
-0.668037
-0.677255
-0.698806
-0.714952
-0.712678
-0.688604
-0.648227
-0.601691
-0.559057
-0.527258
-0.509253
-0.504948
-0.512592
-0.528763
-0.547538
-0.561973
-0.568178
-0.567964
-0.567096
-0.570879
-0.580919
-0.595163
-0.610362
-0.624799
-0.639419
-0.656454
-0.676449
-0.696589
-0.712422
-0.721425
-0.724876
-0.726426
-0.728656
-0.730423
-0.727388
-0.716056
-0.698458
-0.683300
-0.682082
-0.703041
-0.747464
-0.810568
-0.885121
-0.964042
-1.040527
-1.107531
-1.158385
-1.188269
-1.195330
-1.181014
-1.149668
-1.107102
-1.058140
-1.004220
-0.942463
-0.867052
-0.772809
-0.659729
-0.535706
-0.414016
-0.305844
-0.213916
-0.133125
-0.057663
0.011300
0.063627
0.085845
0.070242
0.021117
-0.045364
-0.107913
-0.150112
-0.166827
-0.162370
-0.142838
-0.109480
-0.058560
0.012577
0.099356
0.189715
0.269529
0.328753
0.364421
0.379824
0.380904
0.372174
0.355079
0.329857
0.298770
0.267184
0.241101
0.223403
0.212159
0.202508
0.191038
0.179292
0.173121
0.178279
0.196361
0.224625
0.258982
0.296779
0.337374
0.380474
0.423609
0.461301
0.487436
0.499377
0.500515
0.498818
0.502160
0.513790
0.530787
0.546432
0.554778
0.554177
0.548271
0.544594
0.550318
0.566643
0.586216
0.595770
0.581790
0.535869
0.457200
0.351120
0.225062
0.085083
-0.064687
-0.220096
-0.375433
-0.524774
-0.664938
-0.796157
-0.919019
-1.030518
-1.123273
-1.188864
-1.222157
-1.223466
-1.198781
-1.159097
-1.118309
-1.089057
-1.077674
-1.081336
-1.090157
-1.093229
-1.084093
-1.061868
-1.027978
-0.982547
-0.924687
-0.855352
-0.777782
-0.694206
-0.602541
-0.496872
-0.371919
-0.228006
-0.071599
0.089996
0.255003
0.428525
0.617401
0.822410
1.034002
1.235510
1.411372
1.553517
1.661835
1.740654
1.794838
1.827205
1.837640
1.823779
1.782663
1.713017
1.617127
1.500300
1.368258
1.225995
1.079693
0.938666
0.813698
0.712174
0.634195
0.573563
0.523121
0.479416
0.442092
0.409332
0.374726
0.328184
0.259337
0.161011
0.031098
-0.127482
-0.307644
-0.499056
-0.689751
-0.869023
-1.030386
-1.172526
-1.297484
-1.407414
-1.502472
-1.581076
-1.640801
-1.678343
-1.689661
-1.671853
-1.626063
-1.558676
-1.479011
-1.395364
-1.312795
-1.233284
-1.156408
-1.079534
-0.998340
-0.908509
-0.808220
-0.700167
-0.591319
-0.489555
-0.399157
-0.318865
-0.243694
-0.168536
-0.091425
-0.015514
0.051102
0.098303
0.118757
0.112250
0.086515
0.052935
0.019473
-0.013651
-0.052456
-0.103941
-0.171007
-0.250297
-0.333531
-0.410531
-0.472042
-0.512311
-0.531603
-0.537258
-0.542049
-0.560091
-0.601740
-0.669808
-0.759605
-0.862736
-0.971624
-1.082072
-1.193275
-1.305800
-1.418633
-1.527283
-1.624611
-1.704048
-1.762687
-1.801733
-1.824178
-1.832094
-1.825564
-1.802813
-1.760701
-1.695575
-1.604461
-1.486917
-1.347102
-1.193584
-1.035853
-0.879931
-0.726630
-0.574222
-0.422987
-0.277251
-0.143805
-0.028799
0.064369
0.135096
0.184542
0.214629
0.227395
0.225118
0.211361
0.192281
0.176809
0.174336
0.190647
0.224913
0.269708
0.314302
0.349352
0.369655
0.373479
0.360056
0.327720
0.273643
0.194271
0.085857
-0.054364
-0.226023
-0.422987
-0.632144
-0.835983
-1.018300
-1.169117
-1.285665
-1.369678
-1.423927
-1.450610
-1.451734
-1.430209
-1.390373
-1.337398
-1.276518
-1.213099
-1.152639
-1.099369
-1.054010
-1.012737
-0.968423
-0.913367
-0.842062
-0.753034
-0.649144
-0.536046
-0.419191
-0.301297
-0.182366
-0.062147
0.056965
0.168588
0.263848
0.335135
0.379177
0.396846
0.390309
0.361045
0.310912
0.244237
0.168102
0.090692
0.018808
-0.044099
-0.098096
-0.145359
-0.188879
-0.232387
-0.280814
-0.339861
-0.414357
-0.506484
-0.615217
-0.737351
-0.869130
-1.007337
-1.149345
-1.292237
-1.432238
-1.565506
-1.689326
-1.802254
-1.903316
-1.990942
-2.062213
-2.113329
-2.141311
-2.145410
-2.127094
-2.088982
-2.033647
-1.963164
-1.879591
-1.785984
-1.687281
-1.590110
-1.500668
-1.421312
-1.348666
-1.275673
-1.196524
-1.110554
-1.022234
-0.937750
-0.860999
-0.791875
-0.727813
-0.667096
-0.611060
-0.563314
-0.526557
-0.499603
-0.477659
-0.456346
-0.436134
-0.423666
-0.429783
-0.465886
-0.540368
-0.656760
-0.813731
-1.006121
-1.227251
-1.471934
-1.737428
-2.021433
-2.319573
-2.624206
-2.924525
-3.208223
-3.464426
-3.686072
-3.870695
-4.019681
-4.135835
-4.220463
-4.272362
-4.289425
-4.271671
-4.224054
-4.157529
-4.086823
-4.025135
-3.979256
-3.948027
-3.923872
-3.895893
-3.853099
-3.786840
-3.692052
-3.567051
-3.412496
-3.230962
-3.027128
-2.806978
-2.576099
-2.339246
-2.101473
-1.869112
-1.649220
-1.447955
-1.270031
-1.119483
-0.999109
-0.908094
-0.840177
-0.784053
-0.726216
-0.655189
-0.564982
-0.456685
-0.338306
-0.223093
-0.127149
-0.066767
-0.055529
-0.102387
-0.211494
-0.382258
-0.608893
-0.881323
-1.188010
-1.518428
-1.863065
-2.211867
-2.554104
-2.880384
-3.185001
-3.467532
-3.732954
-3.989332
-4.244028
-4.500858
-4.759908
-5.020371
-5.283926
-5.554760
-5.836642
-6.130365
-6.431821
-6.731013
-7.014047
-7.267177
-7.479866
-7.645712
-7.761966
-7.828593
-7.846422
-7.814416
-7.728254
-7.582275
-7.374660
-7.112316
-6.810444
-6.486908
-6.157284
-5.833860
-5.526060
-5.239578
-4.974716
-4.725775
-4.482569
-4.233833
-3.970616
-3.686936
-3.377645
-3.036997
-2.659104
-2.238125
-1.770581
-1.262534
-0.734712
-0.217805
0.258460
0.672412
1.010444
1.265977
1.440624
1.543001
1.582682
1.563838
1.485282
1.347341
1.157205
0.927578
0.673240
0.409111
0.147542
-0.105315
-0.350405
-0.593803
-0.844891
-1.114163
-1.408384
-1.726323
-2.060377
-2.401431
-2.739611
-3.061270
-3.348069
-3.580401
-3.742765
-3.826511
-3.828607
-3.750376
-3.598300
-3.383781
-3.119501
-2.814339
-2.470697
-2.087931
-1.671124
-1.236272
-0.804539
-0.392428
-0.010265
0.331527
0.620287
0.848410
1.021797
1.159954
1.287925
1.427694
1.596302
1.806612
2.063102
2.359966
2.689284
3.051006
3.455129
3.915448
4.441345
5.034907
5.692765
6.408082
7.171075
7.967901
8.780306
9.588909
10.376974
11.131311
11.841435
12.498371
13.094836
13.628390
14.104706
14.536504
14.936480
15.306016
15.625888
15.858498
15.965626
15.929434
15.756915
15.466937
15.076469
14.594600
14.025252
13.376399
12.664798
11.910346
11.129062
10.335631
9.552835
8.812830
8.146843
7.577368
7.118229
6.774646
6.541017
6.400295
6.327790
6.299724
6.299458
6.315003
6.335177
6.352992
6.370374
6.395347
6.435457
6.494776
6.574403
6.674353
6.796142
6.943824
7.123005
7.341313
7.610025
7.941483
8.343410
8.816719
9.356875
9.954280
10.593805
11.257552
11.930961
12.606299
13.278815
13.938702
14.567878
15.145141
15.653463
16.082905
16.428244
16.684380
16.843044
16.893330
16.825905
16.636707
16.327909
15.907799
15.388777
14.783350
14.102820
13.359340
12.566197
11.735175
10.875042
9.992502
9.092956
8.180743
7.260487
6.337617
5.416227
4.497745
3.582773
2.672434
1.767334
0.866897
-0.029828
-0.923219
-1.811783
-2.689218
-3.541279
-4.344544
-5.068357
-5.683133
-6.172036
-6.534817
-6.782267
-6.931567
-7.005882
-7.031792
-7.032180
-7.020173
-6.998898
-6.965045
-6.913232
-6.841758
-6.757915
-6.677382
-6.617262
-6.589622
-6.599585
-6.645067
-6.717587
-6.806417
-6.903071
-7.001295
-7.094822
-7.177844
-7.246088
-7.295345
-7.320604
-7.316281
-7.274958
-7.187828
-7.048866
-6.857537
-6.616908
-6.330104
-5.998064
-5.619843
-5.195548
-4.728393
-4.222932
-3.682652
-3.110886
-2.513399
-1.899189
-1.279092
-0.663014
-0.057436
0.534197
1.108772
1.662916
2.194558
2.702066
3.183590
3.639422
4.071720
4.482356
4.872958
5.244250
5.595393
5.925574
6.233866
6.516947
6.769300
6.985238
7.160195
7.291894
7.381340
7.432675
7.450697
7.437752
7.394701
7.323567
7.225691
7.098291
6.934449
6.724161
6.455157
6.116106
5.699917
5.203536
4.627195
3.975376
3.256478
2.479901
1.653604
0.784168
-0.122555
-1.061219
-2.025422
-3.005716
-3.990904
-4.973285
-5.951350
-6.924366
-7.886283
-8.827684
-9.740935
-10.620807
-11.461137
-12.251529
-12.977182
-13.622936
-14.177999
-14.636262
-14.993871
-15.249342
-15.405198
-15.467569
-15.444464
-15.344033
-15.173129
-14.937224
-14.641279
-14.289956
-13.887730
-13.440040
-12.953947
-12.436775
-11.894147
-11.328415
-10.737036
-10.112186
-9.443564
-8.723164
-7.948201
-7.120042
-6.241217
-5.314314
-4.343700
-3.337521
-2.305655
-1.254091
-0.184572
0.899597
1.992225
3.088567
4.186988
5.285795
6.381332
7.469686
8.547294
9.610728
10.657086
11.681178
12.668362
13.586850
14.391215
15.044776
15.540424
15.894218
16.122810
16.236198
16.250340
16.194237
16.098951
15.984653
15.859478
15.725382
15.582008
15.428201
15.264847
15.097839
14.937190
14.791794
14.664014
14.548251
14.433740
14.308456
14.160995
13.982081
13.767811
13.520801
13.246716
12.949031
12.625276
12.268069
11.870963
11.433275
10.960406
10.461413
9.945880
9.421331
8.892695
8.364656
7.844085
7.338045
6.851080
6.388611
5.959252
5.567080
5.205199
4.863015
4.536842
4.229772
3.943448
3.670858
3.395660
3.099070
2.768385
2.399390
1.992336
1.546795
1.059838
0.528753
-0.045411
-0.658250
-1.305069
-1.981761
-2.683000
-3.402688
-4.137426
-4.885665
-5.642906
-6.402086
-7.157108
-7.901568
-8.624435
-9.307070
-9.923531
-10.446524
-10.856550
-11.146506
-11.319293
-11.383224
-11.349609
-11.232631
-11.047881
-10.808355
-10.521992
-10.191862
-9.817452
-9.396995
-8.928849
-8.411425
-7.844489
-7.230150
-6.571538
-5.872797
-5.140775
-4.384674
-3.614972
-2.844372
-2.088153
-1.360948
-0.672476
-0.026865
0.573875
1.126190
1.624535
2.063963
2.442899
2.764038
3.034002
3.262366
3.458590
3.629525
3.781670
3.922198
4.056056
4.185480
4.309944
4.425432
4.527348
4.613446
4.682903
4.734161
4.764216
4.768996
4.743895
4.684534
4.587298
4.449717
4.271163
4.052529
3.794678
3.497672
3.160906
2.783249
2.364307
1.906844
1.418029
0.908806
0.392273
-0.118381
-0.612118
-1.081497
-1.520809
-1.920190
-2.260751
-2.517325
-2.668792
-2.708349
-2.645382
-2.498404
-2.287623
-2.033134
-1.754665
-1.468564
-1.184612
-0.905784
-0.630043
-0.353050
-0.071656
0.213122
0.495100
0.764042
1.007945
1.215375
1.377516
1.489578
1.550712
1.562584
1.528117
1.451099
1.336461
1.191011
1.023083
0.840382
0.648489
0.451258
0.251430
0.050588
-0.150322
-0.349622
-0.544523
-0.732576
-0.913182
-1.087372
-1.256820
-1.423242
-1.587455
-1.748857
-1.906402
-2.058962
-2.204132
-2.337903
-2.456793
-2.560349
-2.650612
-2.729232
-2.796335
-2.851363
-2.893400
-2.920977
-2.932023
-2.924706
-2.899790
-2.861508
-2.813727
-2.755062
-2.679626
-2.582740
-2.465019
-2.331647
-2.188745
-2.040721
-1.890885
-1.742445
-1.596566
-1.450464
-1.299926
-1.143628
-0.983952
-0.824383
-0.666963
-0.511753
-0.358070
-0.206013
-0.057091
0.086130
0.220848
0.344523
0.454519
0.547514
0.619866
0.669034
0.694959
0.699689
0.684994
0.650749
0.595803
0.519807
0.424455
0.313360
0.190524
0.058936
-0.078901
-0.218930
-0.354755
-0.479116
-0.585638
-0.669669
-0.728557
-0.761645
-0.770499
-0.759027
-0.732439
-0.696099
-0.655889
-0.618683
-0.591220
-0.578337
-0.581979
-0.601341
-0.633108
-0.670971
-0.705987
-0.728878
-0.732042
-0.709728
-0.657553
-0.572798
-0.455447
-0.308554
-0.137231
0.052512
0.254294
0.461400
0.666226
0.859413
1.029450
1.164242
1.255312
1.301409
1.308055
1.283982
1.237300
1.173339
1.094941
1.004318
0.904933
0.801773
0.698925
0.596706
0.491905
0.379946
0.255796
0.114487
-0.046998
-0.228000
-0.424746
-0.632690
-0.848065
-1.067428
-1.286311
-1.498024
-1.692718
-1.857465
-1.978816
-2.047444
-2.061469
-2.025767
-1.948718
-1.839355
-1.705681
-1.553796
-1.388160
-1.212855
-1.032273
-0.850221
-0.668905
-0.489384
-0.312420
-0.138248
0.033832
0.205514
0.380381
0.564734
0.766170
0.990645
1.240697
1.515550
1.811611
2.123181
2.444530
2.771932
3.103352
3.436612
3.768121
4.092592
4.403453
4.693823
4.957271
5.187464
5.377598
5.521596
5.616516
5.663353
5.666077
5.630220
5.561158
5.462750
5.336901
5.183832
5.003457
4.796840
4.565801
4.312093
4.037934
3.746712
3.443001
3.132678
2.823271
2.523541
2.241905
1.984504
1.753637
1.547264
