EVENT_NAME: EMILIA_2ND_SHOCK
EVENT_ID: IT-2012-0011
EVENT_DATE_YYYYMMDD: 20120529
EVENT_TIME_HHMMSS: 070002
EVENT_LATITUDE_DEGREE: 44.8417
EVENT_LONGITUDE_DEGREE: 11.0657
EVENT_DEPTH_KM: 8.1
HYPOCENTER_REFERENCE: INGV-CNT_Seismic_Bulletin
MAGNITUDE_W: 6.0
MAGNITUDE_W_REFERENCE: RCMT-INGV
MAGNITUDE_L: 5.8
MAGNITUDE_L_REFERENCE: INGV-CNT_Seismic_Bulletin
FOCAL_MECHANISM: TF
NETWORK: IT
STATION_CODE: CNT
STATION_NAME: CENTO
STATION_LATITUDE_DEGREE: 44.723400
STATION_LONGITUDE_DEGREE: 11.286700
STATION_ELEVATION_M: 68
LOCATION: 
SENSOR_DEPTH_M: 0.0
VS30_M/S: 
SITE_CLASSIFICATION_EC8: C*
MORPHOLOGIC_CLASSIFICATION: 
EPICENTRAL_DISTANCE_KM: 21.9
EARTHQUAKE_BACKAZIMUTH_DEGREE: 307.0
DATE_TIME_FIRST_SAMPLE_YYYYMMDD_HHMMSS: 20120529_065953.000
DATE_TIME_FIRST_SAMPLE_PRECISION: seconds
SAMPLING_INTERVAL_S: 0.005000
NDATA: 27600
DURATION_S: 138.000
STREAM: HNZ
UNITS: cm
INSTRUMENT: sensor = Episensor FBA ES-T [Kinemetrics] | digitizer = Etna [Kinemetrics]
INSTRUMENT_ANALOG/DIGITAL: D
INSTRUMENTAL_FREQUENCY_HZ: 
INSTRUMENTAL_DAMPING: 
FULL_SCALE_G: 
N_BIT_DIGITAL_CONVERTER: 18
PGD_CM: 0.660344
TIME_PGD_S: 26.025000
BASELINE_CORRECTION: BASELINE REMOVED
FILTER_TYPE: BUTTERWORTH
FILTER_ORDER: 2
LOW_CUT_FREQUENCY_HZ: 0.070
HIGH_CUT_FREQUENCY_HZ: 40.000
LATE/NORMAL_TRIGGERED: NT
DATABASE_VERSION: DYNA 1.0
HEADER_FORMAT: DYNA 1.2
DATA_TYPE: DISPLACEMENT
PROCESSING: manual (Paolucci et al., 2011)
DATA_TIMESTAMP_YYYYMMDD_HHMMSS: 20141204_102759.333
DATA_LICENSE: CC-BY3_0-IT (http://creativecommons.org/licenses/by/3.0/deed.en)
DATA_CITATION: ESM working group (2015), European Strong-Motion database, version 0.1, Network Activity 3: Networking acceleration networks and SM data users. Project NERA (www.nera-eu.org)
DATA_CREATOR: ESM working group
ORIGINAL_DATA_MEDIATOR_CITATION: Ufficio Rischio Sismico e Vulcanico del Dipartimento della Protezione Civile (http://www.protezionecivile.gov.it/)
ORIGINAL_DATA_MEDIATOR: Rete Accelerometrica Nazionale - RAN Download (http://www.mot1.it/randownload/)
ORIGINAL_DATA_CREATOR_CITATION: Italian Strong Motion Network, Italian Civil Protection Department http://www.protezionecivile.gov.it
ORIGINAL_DATA_CREATOR: network: IT (Italian Strong Motion Network); owner: Dipartimento Della Protezione Civile
USER1: /home/dyna/processing-itaca/processing.py /var/www/processing/tmp/fpacor//IT.CNT..HNE.D.20120529.070003.X.ACC.ASC /var/www/processing/tmp/fpacor//IT.CNT..HNN.D.20120529.070003.X.ACC.ASC /var/www/processing/tmp/fpacor//IT.CNT..HNZ.D.20120529.070003.X.ACC.ASC --tmp /var/www/processing/tmp/fpacor/ --le 0.070 --he 40.000 --ln 0.070 --hn 40.000 --lz 0.070 --hz 40.000 --fo 2 --ca -10 --cz 30 --ta 5 --tz 5 --mf 1 --rf 0 --tr NT
USER2: 
USER3: 
USER4: 
USER5: 
[...]
2.259128e-01
2.298721e-01
2.333660e-01
2.361028e-01
2.378704e-01
2.386157e-01
2.384821e-01
2.377690e-01
2.368298e-01
2.359667e-01
2.353720e-01
2.351292e-01
2.352518e-01
2.357237e-01
2.365200e-01
2.376062e-01
2.389221e-01
2.403658e-01
2.417990e-01
2.430856e-01
2.441481e-01
2.450040e-01
2.457502e-01
2.465010e-01
2.473199e-01
2.481880e-01
2.490137e-01
2.496633e-01
2.499965e-01
2.499030e-01
2.493360e-01
2.483253e-01
2.469524e-01
2.452942e-01
2.433730e-01
2.411497e-01
2.385652e-01
2.356001e-01
2.323150e-01
2.288500e-01
2.253939e-01
2.221391e-01
2.192366e-01
2.167615e-01
2.147041e-01
2.129964e-01
2.115603e-01
2.103438e-01
2.093280e-01
2.085115e-01
2.079001e-01
2.075062e-01
2.073465e-01
2.074315e-01
2.077587e-01
2.083267e-01
2.091613e-01
2.103208e-01
2.118584e-01
2.137652e-01
2.159490e-01
2.182728e-01
2.206175e-01
2.229108e-01
2.251041e-01
2.271329e-01
2.289092e-01
2.303527e-01
2.314305e-01
2.321698e-01
2.326459e-01
2.329643e-01
2.332421e-01
2.335760e-01
2.339925e-01
2.344089e-01
2.346443e-01
2.344864e-01
2.337783e-01
2.324724e-01
2.306286e-01
2.283733e-01
2.258600e-01
2.232541e-01
2.207297e-01
2.184548e-01
2.165547e-01
2.150648e-01
2.139004e-01
2.128575e-01
2.116426e-01
2.099238e-01
2.074009e-01
2.038848e-01
1.993621e-01
1.940033e-01
1.881025e-01
1.819798e-01
1.759017e-01
1.700550e-01
1.645629e-01
1.595118e-01
1.549689e-01
1.509966e-01
1.476705e-01
1.450892e-01
1.433557e-01
1.425337e-01
1.426067e-01
1.434747e-01
1.449926e-01
1.470239e-01
1.494672e-01
1.522431e-01
1.552574e-01
1.583791e-01
1.614497e-01
1.643161e-01
1.668682e-01
1.690616e-01
1.709209e-01
1.725217e-01
1.739609e-01
1.753256e-01
1.766765e-01
1.780565e-01
1.795141e-01
1.811215e-01
1.829667e-01
1.851234e-01
1.876230e-01
1.904454e-01
1.935235e-01
1.967488e-01
1.999727e-01
2.030219e-01
2.057355e-01
2.080085e-01
2.098049e-01
2.111271e-01
2.119659e-01
2.122743e-01
2.119870e-01
2.110668e-01
2.095432e-01
2.075125e-01
2.051076e-01
2.024664e-01
1.997197e-01
1.969992e-01
1.944397e-01
1.921597e-01
1.902308e-01
1.886630e-01
1.874247e-01
1.864762e-01
1.857899e-01
1.853394e-01
1.850788e-01
1.849439e-01
1.848873e-01
1.849283e-01
1.851835e-01
1.858563e-01
1.871852e-01
1.893700e-01
1.925071e-01
1.965594e-01
2.013724e-01
2.067217e-01
2.123642e-01
2.180705e-01
2.236411e-01
2.289248e-01
2.338430e-01
2.384091e-01
2.427186e-01
2.469072e-01
2.510931e-01
2.553318e-01
2.595999e-01
2.638094e-01
2.678402e-01
2.715775e-01
2.749422e-01
2.779076e-01
2.805045e-01
2.828156e-01
2.849555e-01
2.870331e-01
2.891077e-01
2.911634e-01
2.931168e-01
2.948467e-01
2.962190e-01
2.970962e-01
2.973461e-01
2.968679e-01
2.956257e-01
2.936635e-01
2.910898e-01
2.880395e-01
2.846377e-01
2.809791e-01
2.771213e-01
2.730792e-01
2.688225e-01
2.642913e-01
2.594336e-01
2.542469e-01
2.487872e-01
2.431321e-01
2.373181e-01
2.313021e-01
2.249770e-01
2.182333e-01
2.110239e-01
2.033892e-01
1.954383e-01
1.873136e-01
1.791675e-01
1.711550e-01
1.634299e-01
1.561383e-01
1.494064e-01
1.433230e-01
1.379183e-01
1.331490e-01
1.289016e-01
1.250194e-01
1.213423e-01
1.177426e-01
1.141399e-01
1.104950e-01
1.067969e-01
1.030567e-01
9.930946e-02
9.560968e-02
9.201733e-02
8.858185e-02
8.533786e-02
8.231137e-02
7.952589e-02
7.700184e-02
7.475190e-02
7.277650e-02
7.106000e-02
6.956702e-02
6.823966e-02
6.699712e-02
6.573791e-02
6.434445e-02
6.268985e-02
6.065055e-02
5.813028e-02
5.509084e-02
5.157069e-02
4.767234e-02
4.351842e-02
3.919993e-02
3.474730e-02
3.013837e-02
2.533053e-02
2.029290e-02
1.502467e-02
9.556883e-03
3.941076e-03
-1.767416e-03
-7.522640e-03
-1.329397e-02
-1.906441e-02
-2.481983e-02
-3.053236e-02
-3.614945e-02
-4.159767e-02
-4.680122e-02
-5.170804e-02
-5.631401e-02
-6.067127e-02
-6.487076e-02
-6.900436e-02
-7.312426e-02
-7.721884e-02
-8.121607e-02
-8.500700e-02
-8.846835e-02
-9.147111e-02
-9.388207e-02
-9.557443e-02
-9.645162e-02
-9.646988e-02
-9.564198e-02
-9.401955e-02
-9.166968e-02
-8.866320e-02
-8.507773e-02
-8.100475e-02
-7.655005e-02
-7.182841e-02
-6.696365e-02
-6.209947e-02
-5.740702e-02
-5.307001e-02
-4.925613e-02
-4.610170e-02
-4.371050e-02
-4.215128e-02
-4.145885e-02
-4.164594e-02
-4.271252e-02
-4.464585e-02
-4.742380e-02
-5.102776e-02
-5.545060e-02
-6.068308e-02
-6.668393e-02
-7.335508e-02
-8.053401e-02
-8.800271e-02
-9.551300e-02
-1.028236e-01
-1.097337e-01
-1.161019e-01
-1.218501e-01
-1.269613e-01
-1.314751e-01
-1.354857e-01
-1.391362e-01
-1.425991e-01
-1.460417e-01
-1.495863e-01
-1.532881e-01
-1.571376e-01
-1.610855e-01
-1.650727e-01
-1.690502e-01
-1.729810e-01
-1.768342e-01
-1.805789e-01
-1.841746e-01
-1.875570e-01
-1.906267e-01
-1.932536e-01
-1.952956e-01
-1.966205e-01
-1.971186e-01
-1.967094e-01
-1.953581e-01
-1.931069e-01
-1.900980e-01
-1.865578e-01
-1.827507e-01
-1.789272e-01
-1.752683e-01
-1.718450e-01
-1.686319e-01
-1.655776e-01
-1.626800e-01
-1.600183e-01
-1.577315e-01
-1.559697e-01
-1.548593e-01
-1.544889e-01
-1.548976e-01
-1.560632e-01
-1.579037e-01
-1.602982e-01
-1.631200e-01
-1.662636e-01
-1.696519e-01
-1.732251e-01
-1.769235e-01
-1.806850e-01
-1.844632e-01
-1.882529e-01
-1.921017e-01
-1.960970e-01
-2.003380e-01
-2.049115e-01
-2.098811e-01
-2.152818e-01
-2.211122e-01
-2.273195e-01
-2.337896e-01
-2.403603e-01
-2.468666e-01
-2.531994e-01
-2.593402e-01
-2.653492e-01
-2.713143e-01
-2.772909e-01
-2.832703e-01
-2.892000e-01
-2.950372e-01
-3.007831e-01
-3.064580e-01
-3.120340e-01
-3.173984e-01
-3.223963e-01
-3.269010e-01
-3.308376e-01
-3.341617e-01
-3.368393e-01
-3.388454e-01
-3.401746e-01
-3.408591e-01
-3.409753e-01
-3.406283e-01
-3.399196e-01
-3.389306e-01
-3.377347e-01
-3.364247e-01
-3.351290e-01
-3.340009e-01
-3.331784e-01
-3.327333e-01
-3.326322e-01
-3.327261e-01
-3.327684e-01
-3.324527e-01
-3.314578e-01
-3.294956e-01
-3.263633e-01
-3.219859e-01
-3.164254e-01
-3.098448e-01
-3.024658e-01
-2.945528e-01
-2.864038e-01
-2.783238e-01
-2.705956e-01
-2.634653e-01
-2.571330e-01
-2.517437e-01
-2.473890e-01
-2.441198e-01
-2.419572e-01
-2.408960e-01
-2.409069e-01
-2.419311e-01
-2.438651e-01
-2.465496e-01
-2.497876e-01
-2.533939e-01
-2.572404e-01
-2.612702e-01
-2.654848e-01
-2.699122e-01
-2.745673e-01
-2.794246e-01
-2.844142e-01
-2.894342e-01
-2.943684e-01
-2.991000e-01
-3.035204e-01
-3.075397e-01
-3.111023e-01
-3.142003e-01
-3.168699e-01
-3.191723e-01
-3.211759e-01
-3.229439e-01
-3.245243e-01
-3.259350e-01
-3.271529e-01
-3.281168e-01
-3.287431e-01
-3.289424e-01
-3.286292e-01
-3.277308e-01
-3.261934e-01
-3.239860e-01
-3.211067e-01
-3.175938e-01
-3.135287e-01
-3.090230e-01
-3.041916e-01
-2.991255e-01
-2.938689e-01
-2.884098e-01
-2.826867e-01
-2.766130e-01
-2.701134e-01
-2.631504e-01
-2.557288e-01
-2.478880e-01
-2.396958e-01
-2.312456e-01
-2.226538e-01
-2.140572e-01
-2.056091e-01
-1.974714e-01
-1.898043e-01
-1.827544e-01
-1.764444e-01
-1.709636e-01
-1.663611e-01
-1.626429e-01
-1.597783e-01
-1.577144e-01
-1.563910e-01
-1.557498e-01
-1.557344e-01
-1.562915e-01
-1.573774e-01
-1.589718e-01
-1.610941e-01
-1.638136e-01
-1.672429e-01
-1.715155e-01
-1.767552e-01
-1.830477e-01
-1.904253e-01
-1.988607e-01
-2.082666e-01
-2.184970e-01
-2.293513e-01
-2.405856e-01
-2.519291e-01
-2.631090e-01
-2.738815e-01
-2.840603e-01
-2.935279e-01
-3.022290e-01
-3.101471e-01
-3.172750e-01
-3.235898e-01
-3.290361e-01
-3.335196e-01
-3.369155e-01
-3.390962e-01
-3.399655e-01
-3.394812e-01
-3.376568e-01
-3.345438e-01
-3.302080e-01
-3.247124e-01
-3.181112e-01
-3.104556e-01
-3.018012e-01
-2.922121e-01
-2.817653e-01
-2.705592e-01
-2.587166e-01
-2.463780e-01
-2.336924e-01
-2.208091e-01
-2.078750e-01
-1.950365e-01
-1.824452e-01
-1.702594e-01
-1.586445e-01
-1.477720e-01
-1.378190e-01
-1.289629e-01
-1.213735e-01
-1.152010e-01
-1.105558e-01
-1.074743e-01
-1.059059e-01
-1.057504e-01
-1.069083e-01
-1.092826e-01
-1.127607e-01
-1.172196e-01
-1.225465e-01
-1.286496e-01
-1.354546e-01
-1.428976e-01
-1.509260e-01
-1.595064e-01
-1.686198e-01
-1.782352e-01
-1.882779e-01
-1.986158e-01
-2.090754e-01
-2.194725e-01
-2.296328e-01
-2.393893e-01
-2.485702e-01
-2.569983e-01
-2.645132e-01
-2.710014e-01
-2.764210e-01
-2.808101e-01
-2.842715e-01
-2.869313e-01
-2.888903e-01
-2.901948e-01
-2.908395e-01
-2.907885e-01
-2.899944e-01
-2.884027e-01
-2.859463e-01
-2.825465e-01
-2.781243e-01
-2.726204e-01
-2.660119e-01
-2.583255e-01
-2.496448e-01
-2.401101e-01
-2.299100e-01
-2.192619e-01
-2.083825e-01
-1.974591e-01
-1.866360e-01
-1.760123e-01
-1.656415e-01
-1.555356e-01
-1.456820e-01
-1.360732e-01
-1.267324e-01
-1.177222e-01
-1.091401e-01
-1.011106e-01
-9.376617e-02
-8.720053e-02
-8.143339e-02
-7.643860e-02
-7.220542e-02
-6.874550e-02
-6.603504e-02
-6.397110e-02
-6.238761e-02
-6.109954e-02
-5.993972e-02
-5.878460e-02
-5.756580e-02
-5.626167e-02
-5.487998e-02
-5.344940e-02
-5.201667e-02
-5.063594e-02
-4.935336e-02
-4.820043e-02
-4.719796e-02
-4.635942e-02
-4.568317e-02
-4.513267e-02
-4.462170e-02
-4.402615e-02
-4.321586e-02
-4.207916e-02
-4.053385e-02
-3.853169e-02
-3.605331e-02
-3.309623e-02
-2.966552e-02
-2.576856e-02
-2.141130e-02
-1.659561e-02
-1.131709e-02
-5.564690e-03
6.741274e-04
7.404444e-03
1.462401e-02
2.233777e-02
3.055754e-02
3.926601e-02
4.839021e-02
5.782914e-02
6.749328e-02
7.729687e-02
8.712362e-02
9.682093e-02
1.062310e-01
1.152285e-01
1.237360e-01
1.317140e-01
1.391358e-01
1.459713e-01
1.521828e-01
1.577253e-01
1.625503e-01
1.666190e-01
1.699203e-01
1.724794e-01
1.743503e-01
1.756008e-01
1.763050e-01
1.765472e-01
1.764230e-01
1.760256e-01
1.754234e-01
1.746441e-01
1.736746e-01
1.724782e-01
1.710228e-01
1.693062e-01
1.673704e-01
1.653023e-01
1.632238e-01
1.612710e-01
1.595696e-01
1.582149e-01
1.572591e-01
1.567099e-01
1.565394e-01
1.567014e-01
1.571493e-01
1.578474e-01
1.587712e-01
1.599000e-01
1.612128e-01
1.626887e-01
1.643115e-01
1.660740e-01
1.679784e-01
1.700387e-01
1.722841e-01
1.747626e-01
1.775400e-01
1.806894e-01
1.842750e-01
1.883392e-01
1.929053e-01
1.979907e-01
2.036171e-01
2.098051e-01
2.165584e-01
2.238514e-01
2.316324e-01
2.398413e-01
2.484232e-01
2.573276e-01
2.664967e-01
2.758561e-01
2.853081e-01
2.947355e-01
3.040182e-01
3.130554e-01
3.217755e-01
3.301281e-01
3.380676e-01
3.455385e-01
3.524707e-01
3.587856e-01
3.644011e-01
3.692315e-01
3.731883e-01
3.761907e-01
3.781834e-01
3.791501e-01
3.791161e-01
3.781419e-01
3.763168e-01
3.737578e-01
3.706086e-01
3.670358e-01
3.632152e-01
3.593092e-01
3.554421e-01
3.516897e-01
3.480874e-01
3.446483e-01
3.413750e-01
3.382648e-01
3.353157e-01
3.325344e-01
3.299332e-01
3.275206e-01
3.253007e-01
3.232740e-01
3.214305e-01
3.197442e-01
3.181885e-01
3.167628e-01
3.155038e-01
3.144720e-01
3.137354e-01
3.133629e-01
3.134186e-01
3.139535e-01
3.150024e-01
3.165912e-01
3.187430e-01
3.214711e-01
3.247644e-01
3.285759e-01
3.328206e-01
3.373864e-01
3.421552e-01
3.470257e-01
3.519239e-01
3.567940e-01
3.615819e-01
3.662266e-01
3.706674e-01
3.748553e-01
3.787599e-01
3.823723e-01
3.857059e-01
3.887994e-01
3.917222e-01
3.945755e-01
3.974847e-01
4.005784e-01
4.039609e-01
4.076833e-01
4.117284e-01
4.160142e-01
4.204154e-01
4.247900e-01
4.290020e-01
4.329317e-01
4.364776e-01
4.395629e-01
4.421450e-01
4.442197e-01
4.458189e-01
4.470058e-01
4.478677e-01
4.485081e-01
4.490457e-01
4.496096e-01
4.503246e-01
4.512945e-01
4.525999e-01
4.543112e-01
4.564997e-01
4.592351e-01
4.625744e-01
4.665551e-01
4.711988e-01
4.765199e-01
4.825280e-01
4.892197e-01
4.965646e-01
5.044938e-01
5.128949e-01
5.216191e-01
5.305004e-01
5.393766e-01
5.480984e-01
5.565318e-01
5.645619e-01
5.720985e-01
5.790779e-01
5.854590e-01
5.912131e-01
5.963148e-01
6.007432e-01
6.044925e-01
6.075862e-01
6.100814e-01
6.120610e-01
6.136160e-01
6.148261e-01
6.157446e-01
6.163991e-01
6.167997e-01
6.169486e-01
6.168431e-01
6.164779e-01
6.158499e-01
6.149687e-01
6.138659e-01
6.125974e-01
6.112340e-01
6.098479e-01
6.085030e-01
6.072495e-01
6.061227e-01
6.051424e-01
6.043133e-01
6.036244e-01
6.030502e-01
6.025546e-01
6.020982e-01
6.016460e-01
6.011752e-01
6.006843e-01
6.002014e-01
5.997857e-01
5.995171e-01
5.994771e-01
5.997303e-01
6.003178e-01
6.012593e-01
6.025601e-01
6.042174e-01
6.062239e-01
6.085684e-01
6.112323e-01
6.141873e-01
6.173958e-01
6.208137e-01
6.243931e-01
6.280849e-01
6.318416e-01
6.356196e-01
6.393793e-01
6.430804e-01
6.466692e-01
6.500658e-01
6.531617e-01
6.558340e-01
6.579667e-01
6.594664e-01
6.602694e-01
6.603444e-01
6.596887e-01
6.583150e-01
6.562380e-01
6.534709e-01
6.500314e-01
6.459482e-01
6.412609e-01
6.360149e-01
6.302573e-01
6.240368e-01
6.174043e-01
6.104128e-01
6.031163e-01
5.955734e-01
5.878527e-01
5.800309e-01
5.721853e-01
5.643870e-01
5.567020e-01
5.491950e-01
5.419250e-01
5.349364e-01
5.282549e-01
5.218936e-01
5.158668e-01
5.102009e-01
5.049387e-01
5.001345e-01
4.958457e-01
4.921239e-01
4.890048e-01
4.864980e-01
4.845820e-01
4.832082e-01
4.823182e-01
4.818625e-01
4.818120e-01
4.821607e-01
4.829209e-01
4.841125e-01
4.857484e-01
4.878271e-01
4.903332e-01
4.932425e-01
4.965261e-01
5.001515e-01
5.040806e-01
5.082660e-01
5.126459e-01
5.171407e-01
5.216558e-01
5.260919e-01
5.303597e-01
5.343940e-01
5.381604e-01
5.416489e-01
5.448572e-01
5.477734e-01
5.503687e-01
5.526022e-01
5.544321e-01
5.558255e-01
5.567608e-01
5.572235e-01
5.571987e-01
5.566681e-01
5.556132e-01
5.540222e-01
5.518967e-01
5.492524e-01
5.461187e-01
5.425361e-01
5.385533e-01
5.342242e-01
5.296043e-01
5.247471e-01
5.196999e-01
5.144965e-01
5.091501e-01
5.036533e-01
4.979871e-01
4.921384e-01
4.861165e-01
4.799624e-01
4.737456e-01
4.675523e-01
4.614703e-01
4.555757e-01
4.499238e-01
4.445435e-01
4.394371e-01
4.345854e-01
4.299551e-01
4.255073e-01
4.212036e-01
4.170118e-01
4.129119e-01
4.089018e-01
4.049928e-01
4.011934e-01
3.974958e-01
3.938790e-01
3.903257e-01
3.868349e-01
3.834179e-01
3.800830e-01
3.768246e-01
3.736210e-01
3.704380e-01
3.672326e-01
3.639578e-01
3.605685e-01
3.570242e-01
3.532916e-01
3.493513e-01
3.452024e-01
3.408623e-01
3.363578e-01
3.317139e-01
3.269441e-01
3.220493e-01
3.170222e-01
3.118586e-01
3.065688e-01
3.011744e-01
2.956921e-01
2.901219e-01
2.844509e-01
2.786667e-01
2.727710e-01
2.667873e-01
2.607591e-01
2.547365e-01
2.487619e-01
2.428642e-01
2.370605e-01
2.313618e-01
2.257767e-01
2.203181e-01
2.150114e-01
2.098978e-01
2.050284e-01
2.004505e-01
1.961966e-01
1.922814e-01
1.887113e-01
1.854996e-01
1.826742e-01
1.802747e-01
1.783387e-01
1.768851e-01
1.759040e-01
1.753591e-01
1.751952e-01
1.753466e-01
1.757423e-01
1.763107e-01
1.769810e-01
1.776835e-01
1.783498e-01
1.789160e-01
1.793260e-01
1.795345e-01
1.795082e-01
1.792240e-01
1.786642e-01
1.778147e-01
1.766648e-01
1.752053e-01
1.734258e-01
1.713159e-01
1.688664e-01
1.660734e-01
1.629412e-01
1.594865e-01
1.557397e-01
1.517455e-01
1.475588e-01
1.432361e-01
1.388253e-01
1.343570e-01
1.298407e-01
1.252675e-01
1.206190e-01
1.158714e-01
1.109955e-01
1.059542e-01
1.007023e-01
9.519560e-02
8.940195e-02
8.330992e-02
7.693377e-02
7.031238e-02
6.350185e-02
5.656567e-02
4.956363e-02
4.253948e-02
3.551247e-02
2.847876e-02
2.142279e-02
1.433288e-02
7.212621e-03
8.239630e-05
-7.026068e-03
-1.407447e-02
-2.102018e-02
-2.781991e-02
-3.443602e-02
-4.084152e-02
-4.702258e-02
-5.298099e-02
-5.873480e-02
-6.431592e-02
-6.976842e-02
-7.514687e-02
-8.051062e-02
-8.591511e-02
-9.140452e-02
-9.700864e-02
-1.027443e-01
-1.086198e-01
-1.146394e-01
-1.208048e-01
-1.271128e-01
-1.335513e-01
-1.400993e-01
-1.467276e-01
-1.534028e-01
-1.600902e-01
-1.667543e-01
-1.733547e-01
-1.798443e-01
-1.861725e-01
-1.922909e-01
-1.981573e-01
-2.037379e-01
-2.090092e-01
-2.139562e-01
-2.185705e-01
-2.228468e-01
-2.267812e-01
-2.303725e-01
-2.336234e-01
-2.365428e-01
-2.391471e-01
-2.414640e-01
-2.435363e-01
-2.454188e-01
-2.471704e-01
-2.488462e-01
-2.504901e-01
-2.521302e-01
-2.537782e-01
-2.554308e-01
-2.570718e-01
-2.586776e-01
-2.602238e-01
-2.616901e-01
-2.630581e-01
-2.643069e-01
-2.654113e-01
-2.663463e-01
-2.670967e-01
-2.676676e-01
-2.680884e-01
-2.684092e-01
-2.686902e-01
-2.689922e-01
-2.693654e-01
-2.698398e-01
-2.704213e-01
-2.710954e-01
-2.718371e-01
-2.726213e-01
-2.734338e-01
-2.742738e-01
-2.751491e-01
-2.760691e-01
-2.770411e-01
-2.780682e-01
-2.791469e-01
-2.802674e-01
-2.814140e-01
-2.825692e-01
-2.837213e-01
-2.848694e-01
-2.860211e-01
-2.871846e-01
-2.883622e-01
-2.895495e-01
-2.907397e-01
-2.919310e-01
-2.931295e-01
-2.943463e-01
-2.955922e-01
-2.968768e-01
-2.982126e-01
-2.996180e-01
-3.011163e-01
-3.027298e-01
-3.044753e-01
-3.063645e-01
-3.084090e-01
-3.106236e-01
-3.130242e-01
-3.156229e-01
-3.184251e-01
-3.214314e-01
-3.246407e-01
-3.280538e-01
-3.316735e-01
-3.355018e-01
-3.395376e-01
-3.437780e-01
-3.482214e-01
-3.528700e-01
-3.577332e-01
-3.628295e-01
-3.681832e-01
-3.738185e-01
-3.797497e-01
-3.859746e-01
-3.924713e-01
-3.992026e-01
-4.061234e-01
-4.131861e-01
-4.203428e-01
-4.275470e-01
-4.347548e-01
-4.419273e-01
-4.490331e-01
-4.560479e-01
-4.629516e-01
-4.697233e-01
-4.763408e-01
-4.827832e-01
-4.890320e-01
-4.950688e-01
-5.008728e-01
-5.064196e-01
-5.116834e-01
-5.166419e-01
-5.212761e-01
-5.255676e-01
-5.294940e-01
-5.330296e-01
-5.361484e-01
-5.388269e-01
-5.410477e-01
-5.428016e-01
-5.440903e-01
-5.449274e-01
-5.453399e-01
-5.453663e-01
-5.450575e-01
-5.444760e-01
-5.436914e-01
-5.427703e-01
-5.417662e-01
-5.407141e-01
-5.396311e-01
-5.385197e-01
-5.373751e-01
-5.361914e-01
-5.349651e-01
-5.336958e-01
-5.323848e-01
-5.310327e-01
-5.296362e-01
-5.281851e-01
-5.266643e-01
-5.250580e-01
-5.233543e-01
-5.215472e-01
-5.196336e-01
-5.176103e-01
-5.154743e-01
-5.132289e-01
-5.108918e-01
-5.084990e-01
-5.061001e-01
-5.037433e-01
-5.014594e-01
-4.992544e-01
