EVENT_NAME: EMILIA_2ND_SHOCK
EVENT_ID: IT-2012-0011
EVENT_DATE_YYYYMMDD: 20120529
EVENT_TIME_HHMMSS: 070002
EVENT_LATITUDE_DEGREE: 44.8417
EVENT_LONGITUDE_DEGREE: 11.0657
EVENT_DEPTH_KM: 8.1
HYPOCENTER_REFERENCE: INGV-CNT_Seismic_Bulletin
MAGNITUDE_W: 6.0
MAGNITUDE_W_REFERENCE: RCMT-INGV
MAGNITUDE_L: 5.8
MAGNITUDE_L_REFERENCE: INGV-CNT_Seismic_Bulletin
FOCAL_MECHANISM: TF
NETWORK: IT
STATION_CODE: CRP
STATION_NAME: CARPI
STATION_LATITUDE_DEGREE: 44.782300
STATION_LONGITUDE_DEGREE: 10.870300
STATION_ELEVATION_M: 89
LOCATION: 
SENSOR_DEPTH_M: 0.0
VS30_M/S: 
SITE_CLASSIFICATION_EC8: C*
MORPHOLOGIC_CLASSIFICATION: 
EPICENTRAL_DISTANCE_KM: 16.8
EARTHQUAKE_BACKAZIMUTH_DEGREE: 66.8
DATE_TIME_FIRST_SAMPLE_YYYYMMDD_HHMMSS: 20120529_065953.000
DATE_TIME_FIRST_SAMPLE_PRECISION: seconds
SAMPLING_INTERVAL_S: 0.005000
NDATA: 27723
DURATION_S: 138.615
STREAM: HNZ
UNITS: cm
INSTRUMENT: sensor = Episensor FBA ES-T [Kinemetrics] | digitizer = Etna [Kinemetrics]
INSTRUMENT_ANALOG/DIGITAL: D
INSTRUMENTAL_FREQUENCY_HZ: 
INSTRUMENTAL_DAMPING: 
FULL_SCALE_G: 
N_BIT_DIGITAL_CONVERTER: 18
PGD_CM: 0.720525
TIME_PGD_S: 36.230000
BASELINE_CORRECTION: BASELINE REMOVED
FILTER_TYPE: BUTTERWORTH
FILTER_ORDER: 2
LOW_CUT_FREQUENCY_HZ: 0.050
HIGH_CUT_FREQUENCY_HZ: 40.000
LATE/NORMAL_TRIGGERED: NT
DATABASE_VERSION: DYNA 1.0
HEADER_FORMAT: DYNA 1.2
DATA_TYPE: DISPLACEMENT
PROCESSING: manual (Paolucci et al., 2011)
DATA_TIMESTAMP_YYYYMMDD_HHMMSS: 20141204_103047.929
DATA_LICENSE: CC-BY3_0-IT (http://creativecommons.org/licenses/by/3.0/deed.en)
DATA_CITATION: ESM working group (2015), European Strong-Motion database, version 0.1, Network Activity 3: Networking acceleration networks and SM data users. Project NERA (www.nera-eu.org)
DATA_CREATOR: ESM working group
ORIGINAL_DATA_MEDIATOR_CITATION: Ufficio Rischio Sismico e Vulcanico del Dipartimento della Protezione Civile (http://www.protezionecivile.gov.it/)
ORIGINAL_DATA_MEDIATOR: Rete Accelerometrica Nazionale - RAN Download (http://www.mot1.it/randownload/)
ORIGINAL_DATA_CREATOR_CITATION: Italian Strong Motion Network, Italian Civil Protection Department http://www.protezionecivile.gov.it
ORIGINAL_DATA_CREATOR: network: IT (Italian Strong Motion Network); owner: Dipartimento Della Protezione Civile
USER1: /home/dyna/processing-itaca/processing.py /var/www/processing/tmp/fpacor//IT.CRP..HNE.D.20120529.070003.X.ACC.ASC /var/www/processing/tmp/fpacor//IT.CRP..HNN.D.20120529.070003.X.ACC.ASC /var/www/processing/tmp/fpacor//IT.CRP..HNZ.D.20120529.070003.X.ACC.ASC --tmp /var/www/processing/tmp/fpacor/ --le 0.050 --he 40.000 --ln 0.050 --hn 40.000 --lz 0.050 --hz 40.000 --fo 2 --ca -10 --cz 40 --ta 5 --tz 5 --mf 1 --rf 0 --tr NT
USER2: 
USER3: 
USER4: 
USER5: 
[...]
1.325409e-01
1.345413e-01
1.366575e-01
1.388831e-01
1.411999e-01
1.435824e-01
1.460040e-01
1.484432e-01
1.508851e-01
1.533222e-01
1.557533e-01
1.581828e-01
1.606180e-01
1.630678e-01
1.655441e-01
1.680624e-01
1.706396e-01
1.732900e-01
1.760223e-01
1.788407e-01
1.817477e-01
1.847480e-01
1.878524e-01
1.910765e-01
1.944363e-01
1.979431e-01
2.016009e-01
2.054057e-01
2.093453e-01
2.134028e-01
2.175641e-01
2.218244e-01
2.261877e-01
2.306579e-01
2.352315e-01
2.398932e-01
2.446182e-01
2.493759e-01
2.541362e-01
2.588741e-01
2.635703e-01
2.682075e-01
2.727674e-01
2.772292e-01
2.815709e-01
2.857712e-01
2.898132e-01
2.936865e-01
2.973889e-01
3.009277e-01
3.043207e-01
3.075962e-01
3.107871e-01
3.139229e-01
3.170236e-01
3.200993e-01
3.231517e-01
3.261762e-01
3.291643e-01
3.321068e-01
3.349972e-01
3.378345e-01
3.406245e-01
3.433776e-01
3.461037e-01
3.488087e-01
3.514946e-01
3.541640e-01
3.568233e-01
3.594808e-01
3.621427e-01
3.648097e-01
3.674775e-01
3.701387e-01
3.727866e-01
3.754167e-01
3.780279e-01
3.806216e-01
3.831996e-01
3.857618e-01
3.883044e-01
3.908181e-01
3.932890e-01
3.957037e-01
3.980550e-01
4.003445e-01
4.025801e-01
4.047698e-01
4.069178e-01
4.090259e-01
4.110988e-01
4.131490e-01
4.151985e-01
4.172775e-01
4.194183e-01
4.216461e-01
4.239730e-01
4.263970e-01
4.289084e-01
4.314971e-01
4.341566e-01
4.368822e-01
4.396660e-01
4.424932e-01
4.453423e-01
4.481886e-01
4.510086e-01
4.537849e-01
4.565087e-01
4.591803e-01
4.618067e-01
4.643975e-01
4.669623e-01
4.695089e-01
4.720442e-01
4.745751e-01
4.771066e-01
4.796392e-01
4.821679e-01
4.846852e-01
4.871848e-01
4.896639e-01
4.921220e-01
4.945577e-01
4.969669e-01
4.993397e-01
5.016604e-01
5.039108e-01
5.060755e-01
5.081480e-01
5.101336e-01
5.120482e-01
5.139123e-01
5.157429e-01
5.175467e-01
5.193174e-01
5.210399e-01
5.226982e-01
5.242831e-01
5.257977e-01
5.272563e-01
5.286800e-01
5.300896e-01
5.315013e-01
5.329245e-01
5.343614e-01
5.358066e-01
5.372479e-01
5.386695e-01
5.400553e-01
5.413914e-01
5.426663e-01
5.438715e-01
5.450015e-01
5.460530e-01
5.470207e-01
5.478934e-01
5.486526e-01
5.492748e-01
5.497364e-01
5.500192e-01
5.501146e-01
5.500253e-01
5.497629e-01
5.493453e-01
5.487939e-01
5.481302e-01
5.473731e-01
5.465365e-01
5.456298e-01
5.446584e-01
5.436245e-01
5.425274e-01
5.413643e-01
5.401299e-01
5.388153e-01
5.374077e-01
5.358920e-01
5.342553e-01
5.324917e-01
5.306052e-01
5.286062e-01
5.265072e-01
5.243217e-01
5.220658e-01
5.197585e-01
5.174184e-01
5.150587e-01
5.126858e-01
5.103014e-01
5.079071e-01
5.055089e-01
5.031180e-01
5.007498e-01
4.984204e-01
4.961453e-01
4.939387e-01
4.918136e-01
4.897814e-01
4.878505e-01
4.860250e-01
4.843047e-01
4.826871e-01
4.811704e-01
4.797541e-01
4.784379e-01
4.772188e-01
4.760902e-01
4.750418e-01
4.740613e-01
4.731379e-01
4.722655e-01
4.714439e-01
4.706776e-01
4.699733e-01
4.693384e-01
4.687786e-01
4.682958e-01
4.678858e-01
4.675385e-01
4.672404e-01
4.669760e-01
4.667288e-01
4.664808e-01
4.662136e-01
4.659109e-01
4.655607e-01
4.651562e-01
4.646940e-01
4.641734e-01
4.635931e-01
4.629488e-01
4.622299e-01
4.614170e-01
4.604837e-01
4.594012e-01
4.581455e-01
4.567023e-01
4.550683e-01
4.532485e-01
4.512517e-01
4.490879e-01
4.467672e-01
4.443020e-01
4.417062e-01
4.389933e-01
4.361728e-01
4.332489e-01
4.302222e-01
4.270924e-01
4.238612e-01
4.205356e-01
4.171287e-01
4.136592e-01
4.101477e-01
4.066143e-01
4.030776e-01
3.995532e-01
3.960522e-01
3.925788e-01
3.891271e-01
3.856813e-01
3.822200e-01
3.787236e-01
3.751800e-01
3.715854e-01
3.679421e-01
3.642554e-01
3.605315e-01
3.567760e-01
3.529956e-01
3.491999e-01
3.454027e-01
3.416188e-01
3.378613e-01
3.341383e-01
3.304501e-01
3.267895e-01
3.231445e-01
3.195023e-01
3.158537e-01
3.121970e-01
3.085420e-01
3.049106e-01
3.013336e-01
2.978417e-01
2.944553e-01
2.911808e-01
2.880108e-01
2.849291e-01
2.819163e-01
2.789556e-01
2.760367e-01
2.731572e-01
2.703195e-01
2.675266e-01
2.647773e-01
2.620639e-01
2.593721e-01
2.566812e-01
2.539649e-01
2.511952e-01
2.483494e-01
2.454186e-01
2.424130e-01
2.393592e-01
2.362894e-01
2.332266e-01
2.301734e-01
2.271090e-01
2.239961e-01
2.207947e-01
2.174760e-01
2.140318e-01
2.104742e-01
2.068274e-01
2.031168e-01
1.993605e-01
1.955664e-01
1.917346e-01
1.878627e-01
1.839510e-01
1.800072e-01
1.760465e-01
1.720881e-01
1.681491e-01
1.642403e-01
1.603645e-01
1.565178e-01
1.526908e-01
1.488692e-01
1.450341e-01
1.411636e-01
1.372356e-01
1.332313e-01
1.291377e-01
1.249488e-01
1.206651e-01
1.162933e-01
1.118459e-01
1.073385e-01
1.027859e-01
9.819914e-02
9.358578e-02
8.895282e-02
8.430888e-02
7.966407e-02
7.502817e-02
7.040784e-02
6.580358e-02
6.120823e-02
5.660897e-02
5.199204e-02
4.734729e-02
4.267054e-02
3.796340e-02
3.323111e-02
2.847952e-02
2.371316e-02
1.893533e-02
1.414912e-02
9.358154e-03
4.566927e-03
-2.190133e-04
-4.993316e-03
-9.749287e-03
-1.448031e-02
-1.918027e-02
-2.384416e-02
-2.846863e-02
-3.305183e-02
-3.759172e-02
-4.208370e-02
-4.651905e-02
-5.088545e-02
-5.516962e-02
-5.936098e-02
-6.345438e-02
-6.745041e-02
-7.135347e-02
-7.517059e-02
-7.891327e-02
-8.259971e-02
-8.625363e-02
-8.989984e-02
-9.356000e-02
-9.725070e-02
-1.009833e-01
-1.047652e-01
-1.086013e-01
-1.124966e-01
-1.164555e-01
-1.204803e-01
-1.245690e-01
-1.287129e-01
-1.328960e-01
-1.370960e-01
-1.412901e-01
-1.454620e-01
-1.496066e-01
-1.537289e-01
-1.578408e-01
-1.619583e-01
-1.660989e-01
-1.702791e-01
-1.745117e-01
-1.788027e-01
-1.831511e-01
-1.875506e-01
-1.919922e-01
-1.964678e-01
-2.009722e-01
-2.055054e-01
-2.100734e-01
-2.146863e-01
-2.193540e-01
-2.240811e-01
-2.288642e-01
-2.336933e-01
-2.385542e-01
-2.434343e-01
-2.483255e-01
-2.532258e-01
-2.581380e-01
-2.630672e-01
-2.680169e-01
-2.729851e-01
-2.779631e-01
-2.829375e-01
-2.878957e-01
-2.928306e-01
-2.977451e-01
-3.026518e-01
-3.075697e-01
-3.125162e-01
-3.174998e-01
-3.225173e-01
-3.275565e-01
-3.326003e-01
-3.376309e-01
-3.426329e-01
-3.475932e-01
-3.524992e-01
-3.573371e-01
-3.620928e-01
-3.667545e-01
-3.713138e-01
-3.757655e-01
-3.801083e-01
-3.843451e-01
-3.884824e-01
-3.925274e-01
-3.964862e-01
-4.003644e-01
-4.041689e-01
-4.079101e-01
-4.116042e-01
-4.152741e-01
-4.189453e-01
-4.226396e-01
-4.263685e-01
-4.301322e-01
-4.339234e-01
-4.377344e-01
-4.415632e-01
-4.454159e-01
-4.493024e-01
-4.532308e-01
-4.572033e-01
-4.612164e-01
-4.652637e-01
-4.693373e-01
-4.734285e-01
-4.775286e-01
-4.816284e-01
-4.857195e-01
-4.897959e-01
-4.938559e-01
-4.979018e-01
-5.019361e-01
-5.059568e-01
-5.099533e-01
-5.139056e-01
-5.177865e-01
-5.215678e-01
-5.252253e-01
-5.287436e-01
-5.321174e-01
-5.353502e-01
-5.384515e-01
-5.414326e-01
-5.443054e-01
-5.470810e-01
-5.497685e-01
-5.523742e-01
-5.549004e-01
-5.573456e-01
-5.597050e-01
-5.619731e-01
-5.641470e-01
-5.662306e-01
-5.682357e-01
-5.701816e-01
-5.720911e-01
-5.739861e-01
-5.758820e-01
-5.777848e-01
-5.796917e-01
-5.815961e-01
-5.834940e-01
-5.853888e-01
-5.872913e-01
-5.892149e-01
-5.911671e-01
-5.931445e-01
-5.951317e-01
-5.971064e-01
-5.990446e-01
-6.009261e-01
-6.027382e-01
-6.044773e-01
-6.061473e-01
-6.077581e-01
-6.093227e-01
-6.108544e-01
-6.123633e-01
-6.138510e-01
-6.153104e-01
-6.167310e-01
-6.181065e-01
-6.194384e-01
-6.207329e-01
-6.219955e-01
-6.232276e-01
-6.244278e-01
-6.255926e-01
-6.267181e-01
-6.278008e-01
-6.288389e-01
-6.298343e-01
-6.307921e-01
-6.317178e-01
-6.326150e-01
-6.334852e-01
-6.343278e-01
-6.351428e-01
-6.359321e-01
-6.366999e-01
-6.374518e-01
-6.381941e-01
-6.389325e-01
-6.396718e-01
-6.404137e-01
-6.411539e-01
-6.418802e-01
-6.425737e-01
-6.432121e-01
-6.437747e-01
-6.442456e-01
-6.446157e-01
-6.448828e-01
-6.450502e-01
-6.451248e-01
-6.451125e-01
-6.450179e-01
-6.448459e-01
-6.446046e-01
-6.443044e-01
-6.439534e-01
-6.435539e-01
-6.431019e-01
-6.425884e-01
-6.420010e-01
-6.413284e-01
-6.405654e-01
-6.397169e-01
-6.388011e-01
-6.378486e-01
-6.368981e-01
-6.359882e-01
-6.351493e-01
-6.343988e-01
-6.337400e-01
-6.331621e-01
-6.326423e-01
-6.321505e-01
-6.316563e-01
-6.311338e-01
-6.305643e-01
-6.299374e-01
-6.292496e-01
-6.285006e-01
-6.276904e-01
-6.268178e-01
-6.258803e-01
-6.248739e-01
-6.237930e-01
-6.226312e-01
-6.213821e-01
-6.200404e-01
-6.186026e-01
-6.170687e-01
-6.154423e-01
-6.137279e-01
-6.119285e-01
-6.100430e-01
-6.080672e-01
-6.059963e-01
-6.038287e-01
-6.015685e-01
-5.992249e-01
-5.968079e-01
-5.943230e-01
-5.917686e-01
-5.891377e-01
-5.864209e-01
-5.836084e-01
-5.806914e-01
-5.776636e-01
-5.745215e-01
-5.712642e-01
-5.678938e-01
-5.644167e-01
-5.608444e-01
-5.571903e-01
-5.534639e-01
-5.496651e-01
-5.457824e-01
-5.417970e-01
-5.376922e-01
-5.334599e-01
-5.291019e-01
-5.246259e-01
-5.200398e-01
-5.153484e-01
-5.105548e-01
-5.056644e-01
-5.006868e-01
-4.956340e-01
-4.905155e-01
-4.853372e-01
-4.801041e-01
-4.748221e-01
-4.694980e-01
-4.641394e-01
-4.587559e-01
-4.533598e-01
-4.479642e-01
-4.425781e-01
-4.372055e-01
-4.318477e-01
-4.265060e-01
-4.211820e-01
-4.158764e-01
-4.105876e-01
-4.053122e-01
-4.000456e-01
-3.947825e-01
-3.895167e-01
-3.842419e-01
-3.789546e-01
-3.736551e-01
-3.683460e-01
-3.630290e-01
-3.577039e-01
-3.523697e-01
-3.470264e-01
-3.416756e-01
-3.363216e-01
-3.309709e-01
-3.256304e-01
-3.203051e-01
-3.149983e-01
-3.097112e-01
-3.044414e-01
-2.991802e-01
-2.939154e-01
-2.886371e-01
-2.833432e-01
-2.780411e-01
-2.727436e-01
-2.674624e-01
-2.622046e-01
-2.569707e-01
-2.517562e-01
-2.465527e-01
-2.413499e-01
-2.361384e-01
-2.309106e-01
-2.256600e-01
-2.203813e-01
-2.150718e-01
-2.097347e-01
-2.043793e-01
-1.990164e-01
-1.936536e-01
-1.882923e-01
-1.829280e-01
-1.775524e-01
-1.721571e-01
-1.667361e-01
-1.612879e-01
-1.558161e-01
-1.503288e-01
-1.448366e-01
-1.393491e-01
-1.338717e-01
-1.284044e-01
-1.229441e-01
-1.174889e-01
-1.120399e-01
-1.065996e-01
-1.011682e-01
-9.574103e-02
-9.030778e-02
-8.485447e-02
-7.936464e-02
-7.382065e-02
-6.820597e-02
-6.250768e-02
-5.671700e-02
-5.082810e-02
-4.483713e-02
-3.874224e-02
-3.254501e-02
-2.625266e-02
-1.987857e-02
-1.343995e-02
-6.953310e-03
-4.302479e-04
6.123967e-03
1.270837e-02
1.932155e-02
2.595655e-02
3.259876e-02
3.922858e-02
4.582758e-02
5.238483e-02
5.890029e-02
6.538313e-02
7.184632e-02
7.830010e-02
8.474664e-02
9.117805e-02
9.757811e-02
1.039265e-01
1.102036e-01
1.163944e-01
1.224904e-01
1.284897e-01
1.343962e-01
1.402194e-01
1.459731e-01
1.516731e-01
1.573336e-01
1.629645e-01
1.685719e-01
1.741606e-01
1.797371e-01
1.853095e-01
1.908866e-01
1.964753e-01
2.020791e-01
2.076972e-01
2.133250e-01
2.189541e-01
2.245731e-01
2.301699e-01
2.357362e-01
2.412707e-01
2.467822e-01
2.522864e-01
2.577998e-01
2.633330e-01
2.688864e-01
2.744511e-01
2.800142e-01
2.855652e-01
2.910996e-01
2.966181e-01
3.021224e-01
3.076131e-01
3.130885e-01
3.185479e-01
3.239932e-01
3.294293e-01
3.348625e-01
3.402998e-01
3.457481e-01
3.512136e-01
3.567012e-01
3.622134e-01
3.677506e-01
3.733112e-01
3.788929e-01
3.844938e-01
3.901128e-01
3.957483e-01
4.013981e-01
4.070602e-01
4.127348e-01
4.184238e-01
4.241291e-01
4.298514e-01
4.355881e-01
4.413330e-01
4.470768e-01
4.528108e-01
4.585301e-01
4.642348e-01
4.699296e-01
4.756205e-01
4.813111e-01
4.869999e-01
4.926802e-01
4.983427e-01
5.039777e-01
5.095771e-01
5.151351e-01
5.206492e-01
5.261203e-01
5.315506e-01
5.369422e-01
5.422956e-01
5.476088e-01
5.528771e-01
5.580945e-01
5.632567e-01
5.683620e-01
5.734106e-01
5.784010e-01
5.833267e-01
5.881740e-01
5.929243e-01
5.975599e-01
6.020698e-01
6.064515e-01
6.107095e-01
6.148510e-01
6.188823e-01
6.228066e-01
6.266231e-01
6.303275e-01
6.339142e-01
6.373772e-01
6.407100e-01
6.439067e-01
6.469652e-01
6.498899e-01
6.526928e-01
6.553903e-01
6.580002e-01
6.605364e-01
6.630067e-01
6.654135e-01
6.677567e-01
6.700367e-01
6.722555e-01
6.744161e-01
6.765200e-01
6.785642e-01
6.805406e-01
6.824392e-01
6.842543e-01
6.859878e-01
6.876508e-01
6.892596e-01
6.908316e-01
6.923795e-01
6.939070e-01
6.954081e-01
6.968695e-01
6.982753e-01
6.996119e-01
7.008727e-01
7.020603e-01
7.031856e-01
7.042640e-01
7.053106e-01
7.063350e-01
7.073378e-01
7.083100e-01
7.092374e-01
7.101068e-01
7.109135e-01
7.116634e-01
7.123716e-01
7.130560e-01
7.137311e-01
7.144054e-01
7.150815e-01
7.157592e-01
7.164359e-01
7.171059e-01
7.177596e-01
7.183834e-01
7.189606e-01
7.194727e-01
7.199015e-01
7.202295e-01
7.204413e-01
7.205249e-01
7.204731e-01
7.202843e-01
7.199603e-01
7.195046e-01
7.189201e-01
7.182090e-01
7.173732e-01
7.164152e-01
7.153387e-01
7.141477e-01
7.128447e-01
7.114291e-01
7.098981e-01
7.082484e-01
7.064778e-01
7.045854e-01
7.025715e-01
7.004361e-01
6.981785e-01
6.957951e-01
6.932805e-01
6.906293e-01
6.878400e-01
6.849195e-01
6.818853e-01
6.787626e-01
6.755781e-01
6.723514e-01
6.690912e-01
6.657954e-01
6.624557e-01
6.590642e-01
6.556174e-01
6.521182e-01
6.485728e-01
6.449862e-01
6.413585e-01
6.376846e-01
6.339568e-01
6.301685e-01
6.263173e-01
6.224054e-01
6.184370e-01
6.144162e-01
6.103466e-01
6.062324e-01
6.020797e-01
5.978971e-01
5.936950e-01
5.894837e-01
5.852720e-01
5.810663e-01
5.768688e-01
5.726796e-01
5.684976e-01
5.643227e-01
5.601551e-01
5.559948e-01
5.518422e-01
5.476976e-01
5.435615e-01
5.394338e-01
5.353124e-01
5.311914e-01
5.270604e-01
5.229066e-01
5.187176e-01
5.144833e-01
5.101957e-01
5.058479e-01
5.014332e-01
4.969444e-01
4.923743e-01
4.877181e-01
4.829748e-01
4.781473e-01
4.732409e-01
4.682603e-01
4.632077e-01
4.580817e-01
4.528788e-01
4.475955e-01
4.422306e-01
4.367853e-01
4.312635e-01
4.256716e-01
4.200187e-01
4.143160e-01
4.085741e-01
4.028003e-01
3.969954e-01
3.911527e-01
3.852610e-01
3.793085e-01
3.732864e-01
3.671903e-01
3.610191e-01
3.547746e-01
3.484603e-01
3.420809e-01
3.356419e-01
3.291496e-01
3.226111e-01
3.160332e-01
3.094217e-01
3.027821e-01
2.961191e-01
2.894363e-01
2.827362e-01
2.760201e-01
2.692872e-01
2.625336e-01
2.557536e-01
2.489426e-01
2.421012e-01
2.352368e-01
2.283612e-01
2.214862e-01
2.146177e-01
2.077543e-01
2.008892e-01
1.940160e-01
1.871332e-01
1.802442e-01
1.733549e-01
1.664720e-01
1.596016e-01
1.527500e-01
1.459248e-01
1.391368e-01
1.323980e-01
1.257187e-01
1.191040e-01
1.125524e-01
1.060572e-01
9.960991e-02
9.320391e-02
8.683786e-02
8.051560e-02
7.424360e-02
6.802739e-02
6.186937e-02
5.576830e-02
4.972047e-02
4.372177e-02
3.776950e-02
3.186252e-02
2.599989e-02
2.017894e-02
1.439417e-02
8.638393e-03
2.905548e-03
-2.806498e-03
-8.495599e-03
-1.415767e-02
-1.978993e-02
-2.539282e-02
-3.097044e-02
-3.653077e-02
-4.208550e-02
-4.764818e-02
-5.323133e-02
-5.884421e-02
-6.449111e-02
-7.017083e-02
-7.587799e-02
-8.160603e-02
-8.734948e-02
-9.310492e-02
-9.887093e-02
-1.046471e-01
-1.104318e-01
-1.162200e-01
-1.220026e-01
-1.277687e-01
-1.335088e-01
-1.392174e-01
-1.448935e-01
-1.505405e-01
-1.561645e-01
-1.617717e-01
-1.673669e-01
-1.729534e-01
-1.785337e-01
-1.841091e-01
-1.896810e-01
-1.952504e-01
-2.008179e-01
-2.063816e-01
-2.119360e-01
-2.174722e-01
-2.229808e-01
-2.284552e-01
-2.338933e-01
-2.392962e-01
-2.446670e-01
-2.500073e-01
-2.553164e-01
-2.605916e-01
-2.658301e-01
-2.710290e-01
-2.761842e-01
-2.812887e-01
-2.863321e-01
-2.913024e-01
-2.961891e-01
-3.009861e-01
-3.056929e-01
-3.103128e-01
-3.148512e-01
-3.193115e-01
-3.236940e-01
-3.279951e-01
-3.322090e-01
-3.363312e-01
-3.403605e-01
-3.442998e-01
-3.481546e-01
-3.519298e-01
-3.556266e-01
-3.592412e-01
-3.627659e-01
-3.661928e-01
-3.695183e-01
-3.727444e-01
-3.758789e-01
-3.789317e-01
-3.819131e-01
-3.848341e-01
-3.877082e-01
-3.905509e-01
-3.933790e-01
-3.962073e-01
-3.990460e-01
-4.018995e-01
-4.047667e-01
-4.076428e-01
-4.105212e-01
-4.133950e-01
-4.162573e-01
-4.191002e-01
-4.219139e-01
-4.246864e-01
-4.274041e-01
-4.300532e-01
-4.326224e-01
-4.351052e-01
-4.375006e-01
-4.398130e-01
-4.420492e-01
-4.442168e-01
-4.463228e-01
-4.483732e-01
-4.503738e-01
-4.523317e-01
-4.542557e-01
-4.561556e-01
-4.580406e-01
-4.599176e-01
-4.617886e-01
-4.636498e-01
-4.654931e-01
-4.673080e-01
-4.690844e-01
-4.708140e-01
-4.724908e-01
-4.741096e-01
-4.756662e-01
-4.771552e-01
-4.785696e-01
-4.799007e-01
-4.811386e-01
-4.822735e-01
-4.832970e-01
-4.842026e-01
-4.849877e-01
-4.856547e-01
-4.862123e-01
-4.866759e-01
-4.870657e-01
-4.874033e-01
-4.877065e-01
-4.879856e-01
-4.882425e-01
-4.884721e-01
-4.886666e-01
-4.888209e-01
-4.889371e-01
-4.890249e-01
-4.890984e-01
-4.891717e-01
-4.892553e-01
-4.893550e-01
-4.894715e-01
-4.896013e-01
-4.897387e-01
-4.898774e-01
-4.900108e-01
-4.901325e-01
-4.902360e-01
-4.903159e-01
-4.903685e-01
-4.903931e-01
-4.903907e-01
-4.903616e-01
-4.903027e-01
-4.902070e-01
-4.900657e-01
-4.898711e-01
-4.896182e-01
-4.893071e-01
-4.889431e-01
-4.885352e-01
-4.880929e-01
-4.876227e-01
-4.871264e-01
-4.866012e-01
-4.860417e-01
-4.854435e-01
-4.848054e-01
-4.841299e-01
-4.834214e-01
-4.826855e-01
-4.819276e-01
-4.811539e-01
-4.803715e-01
-4.795868e-01
-4.788041e-01
-4.780230e-01
-4.772381e-01
-4.764399e-01
-4.756175e-01
-4.747610e-01
-4.738630e-01
-4.729185e-01
-4.719245e-01
-4.708790e-01
-4.697795e-01
-4.686223e-01
-4.674020e-01
-4.661117e-01
-4.647444e-01
-4.632943e-01
-4.617576e-01
-4.601334e-01
-4.584233e-01
-4.566301e-01
-4.547562e-01
-4.528032e-01
-4.507724e-01
-4.486657e-01
-4.464868e-01
-4.442402e-01
-4.419302e-01
-4.395607e-01
-4.371345e-01
-4.346529e-01
-4.321150e-01
-4.295182e-01
-4.268592e-01
-4.241348e-01
-4.213422e-01
-4.184804e-01
-4.155509e-01
-4.125575e-01
-4.095034e-01
-4.063896e-01
-4.032143e-01
-3.999752e-01
-3.966714e-01
-3.933067e-01
-3.898894e-01
-3.864306e-01
-3.829411e-01
-3.794291e-01
-3.759002e-01
-3.723573e-01
-3.688019e-01
-3.652344e-01
-3.616544e-01
-3.580600e-01
