EVENT_NAME: EMILIA_2ND_SHOCK
EVENT_ID: IT-2012-0011
EVENT_DATE_YYYYMMDD: 20120529
EVENT_TIME_HHMMSS: 070002
EVENT_LATITUDE_DEGREE: 44.8417
EVENT_LONGITUDE_DEGREE: 11.0657
EVENT_DEPTH_KM: 8.1
HYPOCENTER_REFERENCE: INGV-CNT_Seismic_Bulletin
MAGNITUDE_W: 6.0
MAGNITUDE_W_REFERENCE: RCMT-INGV
MAGNITUDE_L: 5.8
MAGNITUDE_L_REFERENCE: INGV-CNT_Seismic_Bulletin
FOCAL_MECHANISM: TF
NETWORK: IT
STATION_CODE: CNT
STATION_NAME: CENTO
STATION_LATITUDE_DEGREE: 44.723400
STATION_LONGITUDE_DEGREE: 11.286700
STATION_ELEVATION_M: 68
LOCATION: 
SENSOR_DEPTH_M: 0.0
VS30_M/S: 
SITE_CLASSIFICATION_EC8: C*
MORPHOLOGIC_CLASSIFICATION: 
EPICENTRAL_DISTANCE_KM: 21.9
EARTHQUAKE_BACKAZIMUTH_DEGREE: 307.0
DATE_TIME_FIRST_SAMPLE_YYYYMMDD_HHMMSS: 20120529_065953.000
DATE_TIME_FIRST_SAMPLE_PRECISION: seconds
SAMPLING_INTERVAL_S: 0.005000
NDATA: 27600
DURATION_S: 138.000
STREAM: HNE
UNITS: cm
INSTRUMENT: sensor = Episensor FBA ES-T [Kinemetrics] | digitizer = Etna [Kinemetrics]
INSTRUMENT_ANALOG/DIGITAL: D
INSTRUMENTAL_FREQUENCY_HZ: 
INSTRUMENTAL_DAMPING: 
FULL_SCALE_G: 
N_BIT_DIGITAL_CONVERTER: 18
PGD_CM: -3.359791
TIME_PGD_S: 23.265000
BASELINE_CORRECTION: BASELINE REMOVED
FILTER_TYPE: BUTTERWORTH
FILTER_ORDER: 2
LOW_CUT_FREQUENCY_HZ: 0.070
HIGH_CUT_FREQUENCY_HZ: 40.000
LATE/NORMAL_TRIGGERED: NT
DATABASE_VERSION: DYNA 1.0
HEADER_FORMAT: DYNA 1.2
DATA_TYPE: DISPLACEMENT
PROCESSING: manual (Paolucci et al., 2011)
DATA_TIMESTAMP_YYYYMMDD_HHMMSS: 20141204_102759.333
DATA_LICENSE: CC-BY3_0-IT (http://creativecommons.org/licenses/by/3.0/deed.en)
DATA_CITATION: ESM working group (2015), European Strong-Motion database, version 0.1, Network Activity 3: Networking acceleration networks and SM data users. Project NERA (www.nera-eu.org)
DATA_CREATOR: ESM working group
ORIGINAL_DATA_MEDIATOR_CITATION: Ufficio Rischio Sismico e Vulcanico del Dipartimento della Protezione Civile (http://www.protezionecivile.gov.it/)
ORIGINAL_DATA_MEDIATOR: Rete Accelerometrica Nazionale - RAN Download (http://www.mot1.it/randownload/)
ORIGINAL_DATA_CREATOR_CITATION: Italian Strong Motion Network, Italian Civil Protection Department http://www.protezionecivile.gov.it
ORIGINAL_DATA_CREATOR: network: IT (Italian Strong Motion Network); owner: Dipartimento Della Protezione Civile
USER1: /home/dyna/processing-itaca/processing.py /var/www/processing/tmp/fpacor//IT.CNT..HNE.D.20120529.070003.X.ACC.ASC /var/www/processing/tmp/fpacor//IT.CNT..HNN.D.20120529.070003.X.ACC.ASC /var/www/processing/tmp/fpacor//IT.CNT..HNZ.D.20120529.070003.X.ACC.ASC --tmp /var/www/processing/tmp/fpacor/ --le 0.070 --he 40.000 --ln 0.070 --hn 40.000 --lz 0.070 --hz 40.000 --fo 2 --ca -10 --cz 30 --ta 5 --tz 5 --mf 1 --rf 0 --tr NT
USER2: 
USER3: 
USER4: 
USER5: 
[...]
2.758064e-01
2.754703e-01
2.751082e-01
2.747138e-01
2.742782e-01
2.737924e-01
2.732506e-01
2.726500e-01
2.719888e-01
2.712656e-01
2.704844e-01
2.696646e-01
2.688473e-01
2.680905e-01
2.674487e-01
2.669474e-01
2.665671e-01
2.662545e-01
2.659569e-01
2.656541e-01
2.653614e-01
2.651020e-01
2.648768e-01
2.646549e-01
2.643866e-01
2.640243e-01
2.635385e-01
2.629237e-01
2.621967e-01
2.613939e-01
2.605660e-01
2.597682e-01
2.590403e-01
2.583879e-01
2.577804e-01
2.571710e-01
2.565317e-01
2.558807e-01
2.552754e-01
2.547732e-01
2.543828e-01
2.540414e-01
2.536346e-01
2.530494e-01
2.522336e-01
2.512275e-01
2.501471e-01
2.491281e-01
2.482600e-01
2.475485e-01
2.469274e-01
2.463104e-01
2.456447e-01
2.449340e-01
2.442214e-01
2.435550e-01
2.429591e-01
2.424192e-01
2.418847e-01
2.412832e-01
2.405450e-01
2.396280e-01
2.385326e-01
2.372989e-01
2.359896e-01
2.346662e-01
2.333662e-01
2.320938e-01
2.308280e-01
2.295435e-01
2.282304e-01
2.269086e-01
2.256315e-01
2.244763e-01
2.235136e-01
2.227687e-01
2.221965e-01
2.216856e-01
2.210932e-01
2.202962e-01
2.192410e-01
2.179703e-01
2.166072e-01
2.152978e-01
2.141375e-01
2.131249e-01
2.121724e-01
2.111617e-01
2.100076e-01
2.086927e-01
2.072631e-01
2.057917e-01
2.043339e-01
2.028995e-01
2.014594e-01
1.999810e-01
1.984687e-01
1.969812e-01
1.956122e-01
1.944459e-01
1.935136e-01
1.927767e-01
1.921420e-01
1.914986e-01
1.907599e-01
1.898923e-01
1.889206e-01
1.879043e-01
1.869013e-01
1.859399e-01
1.850110e-01
1.840784e-01
1.830953e-01
1.820176e-01
1.808137e-01
1.794784e-01
1.780440e-01
1.765796e-01
1.751739e-01
1.739095e-01
1.728311e-01
1.719262e-01
1.711357e-01
1.703931e-01
1.696642e-01
1.689583e-01
1.683030e-01
1.677024e-01
1.671146e-01
1.664707e-01
1.657199e-01
1.648600e-01
1.639265e-01
1.629524e-01
1.619379e-01
1.608597e-01
1.597054e-01
1.584941e-01
1.572621e-01
1.560297e-01
1.547862e-01
1.535105e-01
1.522118e-01
1.509539e-01
1.498375e-01
1.489474e-01
1.482971e-01
1.478093e-01
1.473427e-01
1.467551e-01
1.459636e-01
1.449676e-01
1.438231e-01
1.425983e-01
1.413435e-01
1.400884e-01
1.388509e-01
1.376357e-01
1.364187e-01
1.351357e-01
1.336972e-01
1.320287e-01
1.301150e-01
1.280153e-01
1.258336e-01
1.236584e-01
1.215118e-01
1.193500e-01
1.171141e-01
1.147890e-01
1.124244e-01
1.101093e-01
1.079203e-01
1.058754e-01
1.039201e-01
1.019507e-01
9.986481e-02
9.761408e-02
9.523607e-02
9.284328e-02
9.056248e-02
8.845429e-02
8.646784e-02
8.446642e-02
8.230596e-02
7.990994e-02
7.729461e-02
7.454334e-02
7.176473e-02
6.906231e-02
6.651463e-02
6.415102e-02
6.192967e-02
5.974773e-02
5.749614e-02
5.512691e-02
5.268146e-02
5.025900e-02
4.795235e-02
4.579908e-02
4.377478e-02
4.182018e-02
3.987513e-02
3.790141e-02
3.589342e-02
3.387867e-02
3.190178e-02
2.998994e-02
2.811739e-02
2.619713e-02
2.411358e-02
2.177983e-02
1.918052e-02
1.637086e-02
1.343725e-02
1.045309e-02
7.459415e-03
4.470406e-03
1.484006e-03
-1.513992e-03
-4.544885e-03
-7.620628e-03
-1.072362e-02
-1.380323e-02
-1.679676e-02
-1.966165e-02
-2.240036e-02
-2.506416e-02
-2.773245e-02
-3.047923e-02
-3.334707e-02
-3.634164e-02
-3.944506e-02
-4.263587e-02
-4.590329e-02
-4.925338e-02
-5.271096e-02
-5.631466e-02
-6.009980e-02
-6.407248e-02
-6.818844e-02
-7.235164e-02
-7.643891e-02
-8.034237e-02
-8.400888e-02
-8.745615e-02
-9.075402e-02
-9.397922e-02
-9.717101e-02
-1.003159e-01
-1.033697e-01
-1.063029e-01
-1.091386e-01
-1.119603e-01
-1.148795e-01
-1.179870e-01
-1.213169e-01
-1.248449e-01
-1.285161e-01
-1.322796e-01
-1.361110e-01
-1.400158e-01
-1.440111e-01
-1.480950e-01
-1.522233e-01
-1.563122e-01
-1.602707e-01
-1.640480e-01
-1.676627e-01
-1.711911e-01
-1.747259e-01
-1.783306e-01
-1.820179e-01
-1.857515e-01
-1.894630e-01
-1.930698e-01
-1.964900e-01
-1.996594e-01
-2.025522e-01
-2.051893e-01
-2.076259e-01
-2.099217e-01
-2.121182e-01
-2.142388e-01
-2.163064e-01
-2.183526e-01
-2.204077e-01
-2.224873e-01
-2.245995e-01
-2.267708e-01
-2.290607e-01
-2.315429e-01
-2.342609e-01
-2.371982e-01
-2.402888e-01
-2.434601e-01
-2.466733e-01
-2.499323e-01
-2.532673e-01
-2.567148e-01
-2.603070e-01
-2.640633e-01
-2.679788e-01
-2.720147e-01
-2.761033e-01
-2.801682e-01
-2.841522e-01
-2.880394e-01
-2.918637e-01
-2.956958e-01
-2.996071e-01
-3.036248e-01
-3.077020e-01
-3.117275e-01
-3.155792e-01
-3.191951e-01
-3.226142e-01
-3.259544e-01
-3.293406e-01
-3.328347e-01
-3.364094e-01
-3.399728e-01
-3.434158e-01
-3.466570e-01
-3.496654e-01
-3.524607e-01
-3.550970e-01
-3.576433e-01
-3.601680e-01
-3.627310e-01
-3.653748e-01
-3.681125e-01
-3.709223e-01
-3.737632e-01
-3.766030e-01
-3.794385e-01
-3.822929e-01
-3.851975e-01
-3.881733e-01
-3.912251e-01
-3.943491e-01
-3.975462e-01
-4.008285e-01
-4.042107e-01
-4.076937e-01
-4.112558e-01
-4.148629e-01
-4.184873e-01
-4.221194e-01
-4.257627e-01
-4.294148e-01
-4.330518e-01
-4.366321e-01
-4.401243e-01
-4.435408e-01
-4.469513e-01
-4.504665e-01
-4.542038e-01
-4.582566e-01
-4.626822e-01
-4.675024e-01
-4.727051e-01
-4.782427e-01
-4.840347e-01
-4.899760e-01
-4.959526e-01
-5.018577e-01
-5.076061e-01
-5.131416e-01
-5.184323e-01
-5.234534e-01
-5.281657e-01
-5.325009e-01
-5.363650e-01
-5.396636e-01
-5.423422e-01
-5.444122e-01
-5.459415e-01
-5.470110e-01
-5.476767e-01
-5.479650e-01
-5.479085e-01
-5.475904e-01
-5.471611e-01
-5.468099e-01
-5.467043e-01
-5.469312e-01
-5.474707e-01
-5.482213e-01
-5.490554e-01
-5.498673e-01
-5.505815e-01
-5.511289e-01
-5.514217e-01
-5.513588e-01
-5.508620e-01
-5.499134e-01
-5.485658e-01
-5.469220e-01
-5.450999e-01
-5.432008e-01
-5.412963e-01
-5.394354e-01
-5.376600e-01
-5.360107e-01
-5.345169e-01
-5.331809e-01
-5.319754e-01
-5.308584e-01
-5.297976e-01
-5.287851e-01
-5.278299e-01
-5.269334e-01
-5.260678e-01
-5.251764e-01
-5.241946e-01
-5.230715e-01
-5.217766e-01
-5.202927e-01
-5.186058e-01
-5.167035e-01
-5.145854e-01
-5.122789e-01
-5.098417e-01
-5.073449e-01
-5.048423e-01
-5.023482e-01
-4.998374e-01
-4.972684e-01
-4.946145e-01
-4.918823e-01
-4.891085e-01
-4.863376e-01
-4.835962e-01
-4.808732e-01
-4.781217e-01
-4.752884e-01
-4.723574e-01
-4.693785e-01
-4.664696e-01
-4.637902e-01
-4.615042e-01
-4.597486e-01
-4.586233e-01
-4.581979e-01
-4.585213e-01
-4.596218e-01
-4.614990e-01
-4.641228e-01
-4.674475e-01
-4.714283e-01
-4.760234e-01
-4.811760e-01
-4.867924e-01
-4.927367e-01
-4.988475e-01
-5.049648e-01
-5.109587e-01
-5.167542e-01
-5.223457e-01
-5.277910e-01
-5.331794e-01
-5.385861e-01
-5.440369e-01
-5.495030e-01
-5.549235e-01
-5.602328e-01
-5.653727e-01
-5.702854e-01
-5.749089e-01
-5.791856e-01
-5.830745e-01
-5.865456e-01
-5.895583e-01
-5.920426e-01
-5.939022e-01
-5.950423e-01
-5.954002e-01
-5.949503e-01
-5.936753e-01
-5.915326e-01
-5.884456e-01
-5.843336e-01
-5.791636e-01
-5.729860e-01
-5.659291e-01
-5.581616e-01
-5.498524e-01
-5.411491e-01
-5.321749e-01
-5.230389e-01
-5.138507e-01
-5.047318e-01
-4.958185e-01
-4.872534e-01
-4.791678e-01
-4.716663e-01
-4.648250e-01
-4.586950e-01
-4.532965e-01
-4.486032e-01
-4.445347e-01
-4.409739e-01
-4.378029e-01
-4.349351e-01
-4.323195e-01
-4.299224e-01
-4.277119e-01
-4.256653e-01
-4.237916e-01
-4.221507e-01
-4.208540e-01
-4.200490e-01
-4.198935e-01
-4.205309e-01
-4.220691e-01
-4.245644e-01
-4.280132e-01
-4.323583e-01
-4.375102e-01
-4.433728e-01
-4.498603e-01
-4.568973e-01
-4.644097e-01
-4.723151e-01
-4.805191e-01
-4.889108e-01
-4.973591e-01
-5.057183e-01
-5.138487e-01
-5.216420e-01
-5.290371e-01
-5.360139e-01
-5.425779e-01
-5.487443e-01
-5.545263e-01
-5.599240e-01
-5.649157e-01
-5.694583e-01
-5.734994e-01
-5.770002e-01
-5.799568e-01
-5.824046e-01
-5.844004e-01
-5.859947e-01
-5.872131e-01
-5.880558e-01
-5.885130e-01
-5.885905e-01
-5.883350e-01
-5.878435e-01
-5.872497e-01
-5.866885e-01
-5.862559e-01
-5.859912e-01
-5.858939e-01
-5.859621e-01
-5.862244e-01
-5.867441e-01
-5.875991e-01
-5.888506e-01
-5.905183e-01
-5.925709e-01
-5.949311e-01
-5.974927e-01
-6.001507e-01
-6.028370e-01
-6.055472e-01
-6.083477e-01
-6.113564e-01
-6.147054e-01
-6.185035e-01
-6.228171e-01
-6.276753e-01
-6.330856e-01
-6.390520e-01
-6.455810e-01
-6.526742e-01
-6.603106e-01
-6.684336e-01
-6.769539e-01
-6.857673e-01
-6.947760e-01
-7.038969e-01
-7.130573e-01
-7.221852e-01
-7.311992e-01
-7.400027e-01
-7.484806e-01
-7.565029e-01
-7.639375e-01
-7.706730e-01
-7.766409e-01
-7.818202e-01
-7.862198e-01
-7.898530e-01
-7.927241e-01
-7.948390e-01
-7.962253e-01
-7.969443e-01
-7.970883e-01
-7.967665e-01
-7.960910e-01
-7.951683e-01
-7.940951e-01
-7.929582e-01
-7.918326e-01
-7.907758e-01
-7.898144e-01
-7.889303e-01
-7.880586e-01
-7.871054e-01
-7.859808e-01
-7.846323e-01
-7.830608e-01
-7.813140e-01
-7.794657e-01
-7.775984e-01
-7.757981e-01
-7.741595e-01
-7.727913e-01
-7.718199e-01
-7.713906e-01
-7.716624e-01
-7.727925e-01
-7.749075e-01
-7.780682e-01
-7.822481e-01
-7.873396e-01
-7.931852e-01
-7.996135e-01
-8.064619e-01
-8.135816e-01
-8.208346e-01
-8.280933e-01
-8.352443e-01
-8.421962e-01
-8.488832e-01
-8.552658e-01
-8.613313e-01
-8.670945e-01
-8.725913e-01
-8.778614e-01
-8.829250e-01
-8.877672e-01
-8.923340e-01
-8.965443e-01
-9.003095e-01
-9.035552e-01
-9.062354e-01
-9.083314e-01
-9.098379e-01
-9.107497e-01
-9.110604e-01
-9.107756e-01
-9.099327e-01
-9.086134e-01
-9.069377e-01
-9.050419e-01
-9.030576e-01
-9.011061e-01
-8.993009e-01
-8.977463e-01
-8.965251e-01
-8.956846e-01
-8.952311e-01
-8.951371e-01
-8.953576e-01
-8.958481e-01
-8.965749e-01
-8.975193e-01
-8.986812e-01
-9.000853e-01
-9.017846e-01
-9.038564e-01
-9.063888e-01
-9.094649e-01
-9.131516e-01
-9.174973e-01
-9.225340e-01
-9.282807e-01
-9.347419e-01
-9.419031e-01
-9.497306e-01
-9.581772e-01
-9.671885e-01
-9.767051e-01
-9.866598e-01
-9.969709e-01
-1.007537e+00
-1.018244e+00
-1.028971e+00
-1.039607e+00
-1.050051e+00
-1.060220e+00
-1.070036e+00
-1.079433e+00
-1.088363e+00
-1.096800e+00
-1.104750e+00
-1.112254e+00
-1.119360e+00
-1.126104e+00
-1.132482e+00
-1.138465e+00
-1.144017e+00
-1.149129e+00
-1.153817e+00
-1.158122e+00
-1.162082e+00
-1.165721e+00
-1.169056e+00
-1.172111e+00
-1.174928e+00
-1.177561e+00
-1.180059e+00
-1.182447e+00
-1.184729e+00
-1.186910e+00
-1.189028e+00
-1.191177e+00
-1.193506e+00
-1.196208e+00
-1.199492e+00
-1.203561e+00
-1.208591e+00
-1.214727e+00
-1.222087e+00
-1.230774e+00
-1.240881e+00
-1.252479e+00
-1.265600e+00
-1.280223e+00
-1.296264e+00
-1.313586e+00
-1.332016e+00
-1.351370e+00
-1.371468e+00
-1.392148e+00
-1.413250e+00
-1.434612e+00
-1.456059e+00
-1.477417e+00
-1.498537e+00
-1.519325e+00
-1.539759e+00
-1.559885e+00
-1.579781e+00
-1.599521e+00
-1.619141e+00
-1.638620e+00
-1.657886e+00
-1.676820e+00
-1.695280e+00
-1.713115e+00
-1.730178e+00
-1.746333e+00
-1.761468e+00
-1.775503e+00
-1.788384e+00
-1.800080e+00
-1.810587e+00
-1.819933e+00
-1.828179e+00
-1.835419e+00
-1.841769e+00
-1.847366e+00
-1.852362e+00
-1.856902e+00
-1.861103e+00
-1.865023e+00
-1.868654e+00
-1.871930e+00
-1.874755e+00
-1.877039e+00
-1.878730e+00
-1.879846e+00
-1.880481e+00
-1.880815e+00
-1.881093e+00
-1.881605e+00
-1.882662e+00
-1.884574e+00
-1.887618e+00
-1.892025e+00
-1.897965e+00
-1.905557e+00
-1.914872e+00
-1.925932e+00
-1.938702e+00
-1.953104e+00
-1.969029e+00
-1.986367e+00
-2.005031e+00
-2.024978e+00
-2.046198e+00
-2.068703e+00
-2.092502e+00
-2.117604e+00
-2.144024e+00
-2.171797e+00
-2.200981e+00
-2.231632e+00
-2.263791e+00
-2.297447e+00
-2.332517e+00
-2.368853e+00
-2.406252e+00
-2.444481e+00
-2.483290e+00
-2.522433e+00
-2.561665e+00
-2.600738e+00
-2.639379e+00
-2.677290e+00
-2.714163e+00
-2.749725e+00
-2.783777e+00
-2.816212e+00
-2.846998e+00
-2.876168e+00
-2.903798e+00
-2.929996e+00
-2.954869e+00
-2.978498e+00
-3.000911e+00
-3.022080e+00
-3.041933e+00
-3.060368e+00
-3.077256e+00
-3.092441e+00
-3.105737e+00
-3.116927e+00
-3.125780e+00
-3.132093e+00
-3.135766e+00
-3.136855e+00
-3.135563e+00
-3.132201e+00
-3.127149e+00
-3.120819e+00
-3.113616e+00
-3.105901e+00
-3.097987e+00
-3.090168e+00
-3.082742e+00
-3.076005e+00
-3.070219e+00
-3.065581e+00
-3.062215e+00
-3.060170e+00
-3.059432e+00
-3.059958e+00
-3.061710e+00
-3.064679e+00
-3.068904e+00
-3.074475e+00
-3.081517e+00
-3.090148e+00
-3.100450e+00
-3.112457e+00
-3.126155e+00
-3.141462e+00
-3.158202e+00
-3.176104e+00
-3.194818e+00
-3.213950e+00
-3.233093e+00
-3.251845e+00
-3.269837e+00
-3.286756e+00
-3.302353e+00
-3.316425e+00
-3.328778e+00
-3.339218e+00
-3.347574e+00
-3.353755e+00
-3.357778e+00
-3.359740e+00
-3.359791e+00
-3.358134e+00
-3.355032e+00
-3.350790e+00
-3.345681e+00
-3.339881e+00
-3.333442e+00
-3.326303e+00
-3.318322e+00
-3.309289e+00
-3.298973e+00
-3.287173e+00
-3.273727e+00
-3.258472e+00
-3.241196e+00
-3.221619e+00
-3.199412e+00
-3.174238e+00
-3.145774e+00
-3.113733e+00
-3.077878e+00
-3.038039e+00
-2.994137e+00
-2.946193e+00
-2.894308e+00
-2.838651e+00
-2.779444e+00
-2.716952e+00
-2.651478e+00
-2.583336e+00
-2.512812e+00
-2.440130e+00
-2.365447e+00
-2.288917e+00
-2.210788e+00
-2.131495e+00
-2.051667e+00
-1.972020e+00
-1.893236e+00
-1.815901e+00
-1.740519e+00
-1.667546e+00
-1.597419e+00
-1.530537e+00
-1.467213e+00
-1.407662e+00
-1.352016e+00
-1.300338e+00
-1.252574e+00
-1.208510e+00
-1.167776e+00
-1.129889e+00
-1.094298e+00
-1.060424e+00
-1.027719e+00
-9.957178e-01
-9.640788e-01
-9.325802e-01
-9.010829e-01
-8.695079e-01
-8.378320e-01
-8.060671e-01
-7.742152e-01
-7.422385e-01
-7.100612e-01
-6.775873e-01
-6.447153e-01
-6.113435e-01
-5.773628e-01
-5.426437e-01
-5.070287e-01
-4.703221e-01
-4.322720e-01
-3.925646e-01
-3.508475e-01
-3.067639e-01
-2.599796e-01
-2.102082e-01
-1.572391e-01
-1.009514e-01
-4.129656e-02
2.173494e-02
8.812901e-02
1.578225e-01
2.306619e-01
3.063876e-01
3.846549e-01
4.650695e-01
5.472107e-01
6.306326e-01
7.148478e-01
7.993144e-01
8.834440e-01
9.666275e-01
1.048267e+00
1.127806e+00
1.204750e+00
1.278667e+00
1.349181e+00
1.415977e+00
1.478808e+00
1.537484e+00
1.591860e+00
1.641822e+00
1.687287e+00
1.728191e+00
1.764493e+00
1.796181e+00
1.823262e+00
1.845751e+00
1.863665e+00
1.877027e+00
1.885864e+00
1.890198e+00
1.890049e+00
1.885433e+00
1.876374e+00
1.862928e+00
1.845221e+00
1.823499e+00
1.798157e+00
1.769741e+00
1.738881e+00
1.706207e+00
1.672296e+00
1.637638e+00
1.602608e+00
1.567450e+00
1.532289e+00
1.497188e+00
1.462193e+00
1.427368e+00
1.392802e+00
1.358593e+00
1.324804e+00
1.291417e+00
1.258330e+00
1.225382e+00
1.192384e+00
1.159159e+00
1.125571e+00
1.091539e+00
1.057024e+00
1.022017e+00
9.865430e-01
9.506537e-01
9.144233e-01
8.779466e-01
8.413436e-01
8.047621e-01
7.683874e-01
7.324482e-01
6.972039e-01
6.629162e-01
6.298317e-01
5.981811e-01
5.681908e-01
5.400916e-01
5.141139e-01
4.904719e-01
4.693572e-01
4.509440e-01
4.353896e-01
4.228226e-01
4.133266e-01
4.069312e-01
4.036161e-01
4.033289e-01
4.059999e-01
4.115438e-01
4.198583e-01
4.308311e-01
4.443415e-01
4.602594e-01
4.784565e-01
4.988151e-01
5.212269e-01
5.455917e-01
5.718129e-01
5.997899e-01
6.294178e-01
6.605871e-01
6.931718e-01
7.270183e-01
7.619445e-01
7.977455e-01
8.342050e-01
8.711117e-01
9.082750e-01
9.455285e-01
9.827173e-01
1.019691e+00
1.056309e+00
1.092437e+00
1.127929e+00
1.162601e+00
1.196222e+00
1.228497e+00
1.259078e+00
1.287577e+00
1.313595e+00
1.336731e+00
1.356608e+00
1.372890e+00
1.385290e+00
1.393558e+00
1.397479e+00
1.396866e+00
1.391560e+00
1.381433e+00
1.366404e+00
1.346450e+00
1.321583e+00
1.291827e+00
1.257205e+00
1.217773e+00
1.173635e+00
1.124930e+00
1.071826e+00
1.014520e+00
9.532628e-01
8.883769e-01
8.202622e-01
7.493722e-01
6.761909e-01
6.012216e-01
5.249749e-01
4.479489e-01
3.706110e-01
2.933887e-01
2.166685e-01
1.408029e-01
6.611677e-02
-7.089626e-03
-7.853941e-02
-1.479781e-01
-2.151783e-01
-2.799480e-01
-3.421319e-01
-4.016026e-01
-4.582447e-01
-5.119299e-01
-5.624908e-01
-6.097086e-01
-6.533244e-01
-6.930654e-01
-7.286656e-01
-7.598717e-01
-7.864433e-01
-8.081618e-01
-8.248494e-01
-8.363777e-01
-8.426481e-01
-8.435710e-01
-8.390730e-01
-8.291119e-01
-8.136690e-01
-7.927341e-01
-7.663051e-01
-7.343985e-01
-6.970500e-01
-6.543136e-01
-6.062599e-01
-5.529745e-01
-4.945686e-01
-4.312268e-01
-3.632925e-01
-2.913365e-01
-2.161126e-01
-1.384105e-01
-5.893939e-02
2.167467e-02
1.028557e-01
1.841074e-01
2.650785e-01
3.455733e-01
4.254966e-01
5.047940e-01
5.834209e-01
6.613309e-01
7.384719e-01
8.147961e-01
8.902853e-01
9.649713e-01
1.038930e+00
1.112250e+00
1.184992e+00
1.257160e+00
1.328703e+00
1.399508e+00
1.469418e+00
1.538257e+00
1.605861e+00
1.672095e+00
1.736840e+00
1.799966e+00
1.861306e+00
1.920661e+00
1.977828e+00
2.032630e+00
2.084937e+00
2.134666e+00
2.181773e+00
2.226236e+00
2.268060e+00
2.307280e+00
2.343970e+00
2.378226e+00
2.410169e+00
2.439965e+00
2.467800e+00
2.493826e+00
2.518141e+00
2.540826e+00
2.561974e+00
2.581692e+00
2.600046e+00
2.617024e+00
2.632520e+00
2.646362e+00
2.658359e+00
2.668320e+00
2.676054e+00
2.681353e+00
2.683997e+00
2.683770e+00
2.680479e+00
2.673953e+00
2.664045e+00
2.650630e+00
2.633616e+00
2.612929e+00
2.588501e+00
2.560286e+00
2.528276e+00
2.492490e+00
2.452982e+00
2.409860e+00
2.363325e+00
2.313707e+00
2.261475e+00
2.207192e+00
2.151459e+00
2.094863e+00
2.037947e+00
1.981199e+00
1.925036e+00
1.869796e+00
1.815754e+00
1.763144e+00
1.712185e+00
1.663098e+00
1.616113e+00
1.571469e+00
1.529412e+00
1.490189e+00
1.454038e+00
1.421181e+00
1.391817e+00
1.366113e+00
1.344189e+00
1.326115e+00
1.311893e+00
1.301452e+00
1.294647e+00
1.291285e+00
1.291150e+00
1.294020e+00
1.299651e+00
1.307773e+00
1.318093e+00
1.330308e+00
1.344128e+00
1.359298e+00
1.375610e+00
1.392903e+00
1.411050e+00
1.429959e+00
1.449570e+00
1.469850e+00
1.490777e+00
1.512327e+00
1.534454e+00
1.557091e+00
1.580158e+00
1.603573e+00
1.627244e+00
1.651065e+00
1.674910e+00
1.698629e+00
