EVENT_NAME: EMILIA_2ND_SHOCK
EVENT_ID: IT-2012-0011
EVENT_DATE_YYYYMMDD: 20120529
EVENT_TIME_HHMMSS: 070002
EVENT_LATITUDE_DEGREE: 44.8417
EVENT_LONGITUDE_DEGREE: 11.0657
EVENT_DEPTH_KM: 8.1
HYPOCENTER_REFERENCE: INGV-CNT_Seismic_Bulletin
MAGNITUDE_W: 6.0
MAGNITUDE_W_REFERENCE: RCMT-INGV
MAGNITUDE_L: 5.8
MAGNITUDE_L_REFERENCE: INGV-CNT_Seismic_Bulletin
FOCAL_MECHANISM: TF
NETWORK: IT
STATION_CODE: CNT
STATION_NAME: CENTO
STATION_LATITUDE_DEGREE: 44.723400
STATION_LONGITUDE_DEGREE: 11.286700
STATION_ELEVATION_M: 68
LOCATION: 
SENSOR_DEPTH_M: 0.0
VS30_M/S: 
SITE_CLASSIFICATION_EC8: C*
MORPHOLOGIC_CLASSIFICATION: 
EPICENTRAL_DISTANCE_KM: 21.9
EARTHQUAKE_BACKAZIMUTH_DEGREE: 307.0
DATE_TIME_FIRST_SAMPLE_YYYYMMDD_HHMMSS: 20120529_065953.000
DATE_TIME_FIRST_SAMPLE_PRECISION: seconds
SAMPLING_INTERVAL_S: 0.005000
NDATA: 27600
DURATION_S: 138.000
STREAM: HNZ
UNITS: cm/s
INSTRUMENT: sensor = Episensor FBA ES-T [Kinemetrics] | digitizer = Etna [Kinemetrics]
INSTRUMENT_ANALOG/DIGITAL: D
INSTRUMENTAL_FREQUENCY_HZ: 
INSTRUMENTAL_DAMPING: 
FULL_SCALE_G: 
N_BIT_DIGITAL_CONVERTER: 18
PGV_CM/S: 2.586838
TIME_PGV_S: 24.260000
BASELINE_CORRECTION: BASELINE REMOVED
FILTER_TYPE: BUTTERWORTH
FILTER_ORDER: 2
LOW_CUT_FREQUENCY_HZ: 0.070
HIGH_CUT_FREQUENCY_HZ: 40.000
LATE/NORMAL_TRIGGERED: NT
DATABASE_VERSION: DYNA 1.0
HEADER_FORMAT: DYNA 1.2
DATA_TYPE: VELOCITY
PROCESSING: manual (Paolucci et al., 2011)
DATA_TIMESTAMP_YYYYMMDD_HHMMSS: 20141204_102759.333
DATA_LICENSE: CC-BY3_0-IT (http://creativecommons.org/licenses/by/3.0/deed.en)
DATA_CITATION: ESM working group (2015), European Strong-Motion database, version 0.1, Network Activity 3: Networking acceleration networks and SM data users. Project NERA (www.nera-eu.org)
DATA_CREATOR: ESM working group
ORIGINAL_DATA_MEDIATOR_CITATION: Ufficio Rischio Sismico e Vulcanico del Dipartimento della Protezione Civile (http://www.protezionecivile.gov.it/)
ORIGINAL_DATA_MEDIATOR: Rete Accelerometrica Nazionale - RAN Download (http://www.mot1.it/randownload/)
ORIGINAL_DATA_CREATOR_CITATION: Italian Strong Motion Network, Italian Civil Protection Department http://www.protezionecivile.gov.it
ORIGINAL_DATA_CREATOR: network: IT (Italian Strong Motion Network); owner: Dipartimento Della Protezione Civile
USER1: /home/dyna/processing-itaca/processing.py /var/www/processing/tmp/fpacor//IT.CNT..HNE.D.20120529.070003.X.ACC.ASC /var/www/processing/tmp/fpacor//IT.CNT..HNN.D.20120529.070003.X.ACC.ASC /var/www/processing/tmp/fpacor//IT.CNT..HNZ.D.20120529.070003.X.ACC.ASC --tmp /var/www/processing/tmp/fpacor/ --le 0.070 --he 40.000 --ln 0.070 --hn 40.000 --lz 0.070 --hz 40.000 --fo 2 --ca -10 --cz 30 --ta 5 --tz 5 --mf 1 --rf 0 --tr NT
USER2: 
USER3: 
USER4: 
USER5: 
[...]
-0.365963
-0.424126
-0.459407
-0.465042
-0.441717
-0.396002
-0.336748
-0.272395
-0.210489
-0.158002
-0.120724
-0.101742
-0.100240
-0.111431
-0.127458
-0.139068
-0.138364
-0.122146
-0.093198
-0.057402
-0.018759
0.022656
0.067582
0.112762
0.150010
0.170587
0.170479
0.151574
0.118846
0.077635
0.033548
-0.006342
-0.033898
-0.042512
-0.029601
0.002943
0.049409
0.100379
0.143123
0.164231
0.154020
0.109671
0.035203
-0.060119
-0.162114
-0.250611
-0.301028
-0.292711
-0.221223
-0.104460
0.024295
0.131457
0.195023
0.207194
0.171016
0.097050
0.001344
-0.097904
-0.185594
-0.253763
-0.301499
-0.331346
-0.345751
-0.346304
-0.334972
-0.314543
-0.287765
-0.257557
-0.229050
-0.210075
-0.206742
-0.216652
-0.227042
-0.221796
-0.192359
-0.143280
-0.088386
-0.042066
-0.012739
-0.001194
-0.001421
-0.001846
0.011088
0.045186
0.094903
0.141395
0.162098
0.142845
0.083795
-0.002974
-0.099906
-0.190042
-0.261340
-0.309049
-0.335453
-0.346805
-0.348898
-0.343506
-0.327583
-0.295919
-0.245941
-0.181465
-0.112653
-0.052003
-0.008500
0.016435
0.027822
0.030771
0.023967
-0.000531
-0.050126
-0.123490
-0.208580
-0.287730
-0.344765
-0.369881
-0.362121
-0.329915
-0.287854
-0.249415
-0.220748
-0.201594
-0.192016
-0.195869
-0.215375
-0.243458
-0.265696
-0.272951
-0.271418
-0.277578
-0.302052
-0.339128
-0.371889
-0.385559
-0.375723
-0.347430
-0.310563
-0.276276
-0.254190
-0.249002
-0.258230
-0.273852
-0.287100
-0.292597
-0.289453
-0.280003
-0.267803
-0.255852
-0.245611
-0.237230
-0.230743
-0.227322
-0.229695
-0.241250
-0.263756
-0.294434
-0.324214
-0.339242
-0.325950
-0.277417
-0.197747
-0.102351
-0.012965
0.051857
0.085835
0.096822
0.099561
0.105018
0.114243
0.119652
0.110242
0.076058
0.010725
-0.086935
-0.212921
-0.361319
-0.527769
-0.706638
-0.882417
-1.025717
-1.102195
-1.090354
-0.994759
-0.844515
-0.680435
-0.542292
-0.461515
-0.456321
-0.526479
-0.650687
-0.791580
-0.908042
-0.968405
-0.958432
-0.882589
-0.760747
-0.622359
-0.498364
-0.412173
-0.374144
-0.382496
-0.427986
-0.496719
-0.569019
-0.618988
-0.620865
-0.561053
-0.447113
-0.306499
-0.176052
-0.089546
-0.069933
-0.126146
-0.250268
-0.415527
-0.580512
-0.701158
-0.745865
-0.708296
-0.612770
-0.505911
-0.433160
-0.412523
-0.426259
-0.439178
-0.428087
-0.397133
-0.369669
-0.369145
-0.405864
-0.474548
-0.557951
-0.633329
-0.682065
-0.699320
-0.695430
-0.684570
-0.668809
-0.633025
-0.556465
-0.429810
-0.263014
-0.081683
0.079938
0.185316
0.204485
0.125792
-0.036165
-0.243344
-0.447376
-0.605711
-0.693139
-0.705458
-0.656367
-0.570789
-0.477974
-0.405665
-0.374098
-0.389365
-0.439500
-0.497664
-0.532838
-0.523428
-0.467009
-0.380563
-0.289758
-0.212735
-0.150032
-0.090518
-0.029582
0.017863
0.024046
-0.029737
-0.135795
-0.262780
-0.374300
-0.446094
-0.470800
-0.453775
-0.407789
-0.347838
-0.283569
-0.211931
-0.117376
0.017660
0.198285
0.408551
0.614190
0.775265
0.862367
0.868308
0.809798
0.718800
0.628208
0.560375
0.525410
0.526401
0.561462
0.619384
0.677854
0.712496
0.711272
0.680741
0.638906
0.602702
0.580583
0.571799
0.568528
0.560612
0.543280
0.521115
0.501565
0.483930
0.457284
0.411162
0.347829
0.282335
0.229271
0.189480
0.150194
0.098227
0.033421
-0.029967
-0.075269
-0.097668
-0.106603
-0.114146
-0.122057
-0.120339
-0.096937
-0.048860
0.012910
0.066507
0.088656
0.066306
0.004060
-0.076514
-0.144814
-0.172838
-0.146205
-0.069745
0.035525
0.142345
0.227172
0.273744
0.271575
0.216807
0.119592
0.011754
-0.058560
-0.050739
0.039840
0.173036
0.286124
0.331889
0.303104
0.226771
0.138968
0.064776
0.015968
-0.002390
0.008766
0.037989
0.067274
0.087868
0.111838
0.162465
0.248615
0.348677
0.423377
0.448011
0.434326
0.421641
0.446121
0.517081
0.618521
0.725433
0.812771
0.852336
0.813840
0.681770
0.474756
0.243516
0.043466
-0.095688
-0.179333
-0.233584
-0.282931
-0.336564
-0.389029
-0.429254
-0.447881
-0.438787
-0.399390
-0.334511
-0.260072
-0.198493
-0.165605
-0.160509
-0.168804
-0.175353
-0.173597
-0.164397
-0.148748
-0.122577
-0.077101
-0.002816
0.105700
0.246136
0.407671
0.574038
0.729307
0.862850
0.970839
1.056053
1.128288
1.202656
1.292539
1.401111
1.519000
1.628939
1.710485
1.740364
1.693490
1.551786
1.317407
1.018184
0.699244
0.406949
0.174997
0.017961
-0.067984
-0.099370
-0.096122
-0.071626
-0.029065
0.031514
0.100780
0.155426
0.169276
0.132531
0.061847
-0.007972
-0.043470
-0.028245
0.033885
0.125395
0.223596
0.307413
0.363149
0.389328
0.397308
0.404173
0.419833
0.437024
0.433681
0.388883
0.301419
0.195634
0.109582
0.076431
0.113749
0.223887
0.397578
0.614273
0.841964
1.042648
1.182780
1.241627
1.213570
1.107530
0.947609
0.772868
0.629835
0.555340
0.557520
0.610188
0.669290
0.700372
0.693906
0.658337
0.604404
0.539684
0.474444
0.424118
0.400350
0.400146
0.406517
0.400927
0.375519
0.335417
0.292563
0.258061
0.237053
0.226465
0.215830
0.192999
0.154276
0.111109
0.083706
0.083752
0.102159
0.115048
0.102725
0.063667
0.013014
-0.028367
-0.042652
-0.018003
0.049995
0.155581
0.281633
0.402921
0.492193
0.526566
0.494017
0.399189
0.263886
0.117977
-0.015138
-0.126859
-0.218483
-0.289590
-0.333183
-0.342843
-0.323553
-0.293911
-0.276348
-0.283751
-0.313370
-0.350941
-0.379596
-0.387086
-0.369214
-0.330181
-0.279551
-0.225455
-0.167815
-0.097949
-0.006000
0.110189
0.242165
0.373902
0.485447
0.555655
0.567201
0.513876
0.405163
0.264660
0.124285
0.017642
-0.027526
0.001254
0.093740
0.218499
0.335705
0.414755
0.446514
0.443734
0.430485
0.427515
0.442476
0.470206
0.501174
0.530479
0.559839
0.590845
0.614833
0.608297
0.540754
0.393465
0.176875
-0.067008
-0.280374
-0.414131
-0.447592
-0.393260
-0.285211
-0.160076
-0.044555
0.043745
0.089030
0.075936
-0.002609
-0.136870
-0.300418
-0.458705
-0.579078
-0.637569
-0.623177
-0.540930
-0.411560
-0.265451
-0.133407
-0.039576
0.001650
-0.012430
-0.070771
-0.150477
-0.226373
-0.283609
-0.322788
-0.352586
-0.376132
-0.382988
-0.353699
-0.273918
-0.148239
-0.003589
0.121612
0.196190
0.210257
0.175799
0.115618
0.050500
-0.006921
-0.051504
-0.083330
-0.106768
-0.129009
-0.155478
-0.184638
-0.208813
-0.222658
-0.231477
-0.249488
-0.287397
-0.340253
-0.387907
-0.408727
-0.394183
-0.351374
-0.293006
-0.226610
-0.153913
-0.079338
-0.016887
0.013286
-0.003506
-0.066616
-0.159312
-0.256260
-0.332920
-0.371660
-0.364031
-0.310886
-0.220617
-0.105132
0.024099
0.155927
0.275487
0.362627
0.398325
0.375962
0.307416
0.217082
0.127942
0.051856
-0.007693
-0.045184
-0.048137
-0.005213
0.079674
0.182501
0.271512
0.327628
0.354526
0.369665
0.386091
0.402867
0.411635
0.409860
0.405828
0.411316
0.431854
0.465824
0.511935
0.574220
0.657586
0.759342
0.866820
0.963701
1.038406
1.086716
1.108295
1.104105
1.079092
1.045574
1.020448
1.016953
1.038628
1.080941
1.137974
1.206630
1.284376
1.363931
1.431431
1.470646
1.469224
1.421118
1.324920
1.183259
1.005754
0.811439
0.625378
0.470181
0.358508
0.291231
0.260420
0.253854
0.259667
0.271345
0.291606
0.331218
0.400929
0.501101
0.617080
0.724249
0.798561
0.823899
0.791870
0.698771
0.547358
0.353525
0.149056
-0.026712
-0.142629
-0.187841
-0.172604
-0.118942
-0.048563
0.024522
0.094372
0.159261
0.217248
0.263180
0.288728
0.286640
0.257325
0.212498
0.171174
0.149251
0.150152
0.163778
0.173621
0.165135
0.129933
0.066646
-0.018713
-0.113402
-0.202126
-0.274589
-0.331648
-0.384226
-0.444655
-0.516917
-0.593008
-0.657027
-0.692997
-0.691221
-0.650965
-0.580494
-0.495013
-0.411486
-0.341535
-0.287233
-0.243286
-0.203177
-0.163297
-0.122271
-0.078784
-0.031938
0.016990
0.065442
0.113613
0.166914
0.231897
0.307527
0.381358
0.436752
0.464769
0.468935
0.458653
0.438664
0.405774
0.355243
0.288709
0.215557
0.147861
0.095230
0.063666
0.055559
0.066792
0.083290
0.083276
0.047085
-0.031566
-0.141638
-0.261180
-0.368747
-0.451063
-0.502664
-0.521181
-0.504883
-0.454971
-0.380030
-0.297979
-0.232869
-0.208575
-0.242990
-0.343752
-0.504596
-0.703213
-0.904542
-1.071763
-1.180151
-1.224540
-1.215615
-1.169343
-1.098414
-1.010223
-0.908594
-0.794460
-0.665205
-0.516270
-0.346698
-0.164398
0.014609
0.173584
0.303588
0.406250
0.488678
0.555173
0.602862
0.624344
0.614103
0.573291
0.510414
0.438686
0.371848
0.320166
0.287850
0.272926
0.270190
0.275996
0.291518
0.321485
0.369032
0.431337
0.499934
0.564472
0.615626
0.645050
0.644796
0.609838
0.542716
0.454588
0.359282
0.264447
0.167758
0.061691
-0.057478
-0.184026
-0.304722
-0.406153
-0.480963
-0.528252
-0.549341
-0.544103
-0.511901
-0.455983
-0.385799
-0.313543
-0.247674
-0.189691
-0.137260
-0.090110
-0.052122
-0.026975
-0.011310
0.008193
0.051033
0.134573
0.265779
0.436961
0.627418
0.810464
0.962590
1.069865
1.128508
1.141244
1.114134
1.056735
0.983647
0.913207
0.861899
0.837725
0.837186
0.847728
0.853626
0.841907
0.806149
0.747455
0.672940
0.593086
0.519382
0.462224
0.427978
0.415512
0.414928
0.411144
0.390668
0.345976
0.274478
0.175433
0.049975
-0.095627
-0.248451
-0.392438
-0.514739
-0.610056
-0.680374
-0.731712
-0.771552
-0.808428
-0.851332
-0.906248
-0.971534
-1.037349
-1.091929
-1.131033
-1.162798
-1.203195
-1.265019
-1.348737
-1.441896
-1.526940
-1.590176
-1.624941
-1.629211
-1.602506
-1.545017
-1.458322
-1.346387
-1.216679
-1.080925
-0.953865
-0.849478
-0.776448
-0.735426
-0.719941
-0.720531
-0.728969
-0.739630
-0.748030
-0.749458
-0.739956
-0.718470
-0.687094
-0.648799
-0.605297
-0.557096
-0.504811
-0.449988
-0.395081
-0.343299
-0.298596
-0.265472
-0.248509
-0.251841
-0.278692
-0.330921
-0.407860
-0.504054
-0.607889
-0.704029
-0.779671
-0.830783
-0.863697
-0.890528
-0.921785
-0.961569
-1.007526
-1.053645
-1.093557
-1.123161
-1.141698
-1.151045
-1.154265
-1.154089
-1.151083
-1.142507
-1.123417
-1.089644
-1.040709
-0.981366
-0.921194
-0.871451
-0.839898
-0.826720
-0.823980
-0.818917
-0.799446
-0.758185
-0.692271
-0.600553
-0.482191
-0.338473
-0.175438
-0.003652
0.165580
0.324487
0.469975
0.601296
0.717094
0.814595
0.890941
0.944328
0.972952
0.972837
0.938490
0.867402
0.762775
0.630886
0.478241
0.311845
0.138485
-0.037418
-0.213315
-0.386666
-0.555591
-0.720792
-0.884569
-1.046496
-1.200169
-1.334230
-1.435787
-1.493739
-1.502059
-1.462119
-1.382027
-1.273626
-1.149650
-1.022233
-0.902755
-0.802136
-0.730097
-0.692585
-0.688507
-0.708928
-0.740348
-0.769911
-0.789583
-0.797441
-0.795486
-0.786157
-0.770653
-0.748937
-0.719142
-0.676472
-0.613941
-0.525380
-0.408403
-0.264979
-0.099625
0.081835
0.270270
0.450231
0.601781
0.708055
0.761408
0.764711
0.731777
0.684654
0.642622
0.610854
0.579520
0.532340
0.457372
0.352359
0.222068
0.074087
-0.081732
-0.233134
-0.368099
-0.478895
-0.564361
-0.628711
-0.677670
-0.714633
-0.739677
-0.752316
-0.755642
-0.757927
-0.769762
-0.799071
-0.848196
-0.914702
-0.993906
-1.080152
-1.166079
-1.241452
-1.294022
-1.314149
-1.301260
-1.266546
-1.228164
-1.201810
-1.193011
-1.195312
-1.195884
-1.185943
-1.167441
-1.149180
-1.134979
-1.115198
-1.072886
-0.999578
-0.900946
-0.787320
-0.664807
-0.535525
-0.401214
-0.265858
-0.136884
-0.023250
0.069412
0.141738
0.197791
0.239174
0.262010
0.259132
0.225621
0.164495
0.089030
0.020221
-0.018779
-0.008464
0.063136
0.198995
0.392432
0.626468
0.875470
1.112098
1.316118
1.475801
1.582599
1.629800
1.616010
1.545637
1.426055
1.266461
1.077860
0.870944
0.653833
0.432531
0.212228
-0.002183
-0.204830
-0.386799
-0.536898
-0.647604
-0.721263
-0.769291
-0.805965
-0.842928
-0.885482
-0.931021
-0.971460
-0.997908
-1.004003
-0.986843
-0.946314
-0.884091
-0.803859
-0.712519
-0.619601
-0.533907
-0.460492
-0.400703
-0.353601
-0.316083
-0.282149
-0.243581
-0.192768
-0.125272
-0.039855
0.062640
0.179682
0.307472
0.441487
0.575862
0.702584
0.813004
0.901158
0.966262
1.013222
1.051333
1.091811
1.144618
1.214742
1.299927
1.392601
1.484313
1.568164
1.638443
1.690029
1.718356
1.719324
1.689625
1.627532
1.533432
1.409976
1.261994
1.096156
0.920515
0.743641
0.572906
0.412792
0.264670
0.128250
0.003079
-0.111422
-0.217186
-0.318874
-0.424461
-0.543892
-0.685859
-0.854532
-1.047927
-1.258515
-1.475515
-1.687075
-1.881192
-2.046065
-2.170861
-2.246866
-2.268707
-2.235963
-2.154510
-2.035755
-1.893519
-1.740214
-1.583623
-1.425591
-1.262953
-1.089264
-0.896692
-0.679177
-0.436143
-0.173857
0.096848
0.364879
0.622610
0.867149
1.099124
1.320242
1.531119
1.730869
1.917835
2.089364
2.241204
2.368524
2.467717
2.537122
2.576654
2.586838
2.567690
2.518267
2.437151
2.322984
2.174495
1.990608
1.771211
1.517891
1.234489
0.929055
0.616290
0.313685
0.031090
-0.231564
-0.474869
-0.695625
-0.891777
-1.065380
-1.220622
-1.361002
-1.488585
-1.605688
-1.716087
-1.822668
-1.923093
-2.008539
-2.067570
-2.091915
-2.079422
-2.032057
-1.951319
-1.836162
-1.685620
-1.502991
-1.297647
-1.083903
-0.877819
-0.692280
-0.531968
-0.391802
-0.260900
-0.128930
0.010192
0.158810
0.318356
0.491267
0.679973
0.884425
1.100782
1.321709
1.537284
1.736138
1.906929
2.040023
2.129621
2.175884
2.184672
2.164618
2.124753
2.074158
2.021187
1.970713
1.921754
1.868164
1.802032
1.716433
1.605894
1.468886
1.313127
1.153430
0.998958
0.846636
0.691984
0.542091
0.412789
0.316697
0.257614
0.231963
0.231025
0.243759
0.260826
0.276338
0.286116
0.286547
0.276145
0.256517
0.230586
0.200494
0.167707
0.135251
0.110099
0.102195
0.119110
0.162057
0.227341
0.309061
0.400434
0.495676
0.591415
0.686142
0.779393
0.871452
0.963137
1.055705
1.150479
1.247763
1.346063
1.443912
1.542752
1.643956
1.741694
1.824839
1.887786
1.932829
1.960717
1.965350
1.939461
1.882024
1.799484
1.701514
1.595587
1.484363
1.367110
1.242294
1.108498
0.965007
0.813732
0.660254
0.511834
0.374181
0.250086
0.140849
0.048447
-0.024848
-0.079477
-0.120433
-0.155869
-0.193908
-0.239268
-0.291083
-0.343317
-0.387164
-0.413613
-0.415702
-0.390572
-0.340277
-0.270944
-0.191152
-0.109843
-0.034096
0.032396
0.089577
0.139633
0.184743
0.225769
0.262570
0.295173
0.324566
0.352482
0.380884
0.412065
0.449078
0.495702
0.555475
0.629891
0.717110
0.812840
0.913222
1.017090
1.125268
1.237595
1.350670
1.458596
1.556207
1.641774
1.716386
1.780867
1.833832
1.871873
1.890410
1.885479
1.856532
1.807437
1.744016
1.670528
1.587904
1.494170
1.386452
1.262977
1.123094
0.966080
0.791357
0.600482
0.398546
0.193350
-0.006805
-0.194853
-0.365009
-0.511809
-0.629828
-0.714562
-0.764126
-0.781207
-0.773402
-0.750482
-0.720467
-0.687828
-0.654646
-0.622053
-0.589822
-0.556249
-0.520249
-0.482508
-0.443980
-0.405340
-0.368703
-0.337257
-0.311154
-0.285134
-0.251804
-0.206361
-0.147308
-0.074513
0.011139
0.106990
0.209780
0.317762
0.430357
0.545619
0.658664
0.762293
0.848940
0.913157
0.953756
0.974105
0.979636
0.974035
0.957567
0.928942
0.888171
0.837572
0.780927
0.722480
0.666710
0.618710
0.584553
0.570669
0.581830
0.618754
0.676493
0.744485
0.809006
0.857172
0.880239
0.874912
0.842408
0.785933
0.709174
0.617064
0.516434
0.414936
0.319831
0.237393
0.172362
0.128090
0.107519
0.112773
0.143002
0.193980
0.261084
0.342260
0.437695
0.547085
0.667861
0.796131
0.928747
1.064219
1.201617
1.338340
1.468981
1.585840
1.680231
1.744827
1.776261
1.775253
1.744363
1.686662
1.606027
1.507327
1.395880
1.276213
1.150812
1.020356
0.885674
0.749867
0.618736
0.499037
0.395911
0.311019
0.242004
0.183714
0.130888
0.080130
0.029774
-0.021106
-0.073044
-0.125585
-0.176251
-0.220555
-0.253701
-0.272688
-0.277202
-0.268984
-0.250708
-0.225362
-0.196046
-0.165830
-0.137785
-0.114839
-0.099111
-0.091279
-0.090454
-0.094161
-0.098162
-0.096579
-0.083157
-0.053713
-0.008009
0.050644
0.117496
0.188305
0.260170
0.331459
0.401305
0.468886
0.532780
0.591007
0.641701
0.683574
0.715882
0.738367
0.751338
0.755588
0.751953
0.740224
0.717756
0.679305
0.619180
0.534468
0.426547
0.299936
0.160597
0.015010
-0.131139
-0.274744
-0.415406
-0.553427
-0.687898
-0.816639
-0.937463
-1.049195
-1.151508
-1.244116
-1.326493
-1.398294
-1.459306
-1.508575
-1.544154
-1.564352
-1.569117
-1.559672
-1.536985
-1.501400
-1.454010
-1.397723
-1.336304
-1.272242
-1.205366
-1.133174
-1.052441
-0.960853
-0.857759
-0.744354
-0.623831
-0.501346
-0.383204
-0.274757
-0.178006
-0.091139
-0.010090
0.069731
0.152049
0.238311
0.327182
0.415733
0.501215
0.581863
0.656723
0.725076
0.785824
0.837085
0.875984
0.898961
0.903018
0.887216
0.853554
0.806863
0.753285
0.697702
0.641656
0.583240
0.519057
0.446696
0.365986
0.278678
0.187068
0.092534
-0.004959
-0.106116
-0.210994
-0.318184
-0.425106
-0.528852
-0.626742
-0.716535
-0.796559
-0.865814
-0.923981
-0.971432
-1.009436
-1.040690
-1.069279
-1.099370
-1.133233
-1.169747
-1.204370
-1.230812
-1.243360
-1.238663
-1.216405
-1.178917
-1.130387
-1.076062
-1.021270
-0.970350
-0.926056
-0.889557
-0.860731
-0.838370
-0.819984
-0.802014
-0.781797
-0.759877
-0.739521
-0.723358
-0.710663
-0.698165
-0.683405
-0.666967
-0.651695
-0.640723
-0.636587
-0.641089
-0.654958
-0.677851
-0.708870
-0.746512
-0.788068
-0.829773
-0.868031
-0.900887
-0.928786
-0.953952
-0.978964
-1.005426
-1.032712
-1.057969
-1.078881
-1.096451
-1.114039
-1.134204
-1.156840
-1.179150
-1.196728
-1.205643
-1.204530
-1.194911
-1.179551
-1.160731
-1.139748
-1.117021
-1.091713
-1.061342
-1.022708
-0.973895
-0.915580
-0.850776
-0.783041
-0.714007
-0.642348
-0.565080
-0.479898
-0.387200
-0.290731
-0.196205
-0.108982
-0.032775
0.030269
0.079143
0.113678
0.134069
0.140492
0.133264
0.113244
0.081996
0.041688
-0.005252
-0.056843
-0.111957
-0.169893
-0.229979
-0.291919
-0.355888
-0.421990
-0.489884
-0.558613
-0.626430
-0.690943
-0.749362
-0.798842
-0.837342
-0.864546
-0.882160
-0.893643
-0.903277
-0.914624
-0.929701
-0.949533
-0.975169
-1.008266
-1.050377
-1.101341
-1.158731
-1.218405
-1.275229
-1.324279
-1.362106
