EVENT_NAME: EMILIA_2ND_SHOCK
EVENT_ID: IT-2012-0011
EVENT_DATE_YYYYMMDD: 20120529
EVENT_TIME_HHMMSS: 070002
EVENT_LATITUDE_DEGREE: 44.8417
EVENT_LONGITUDE_DEGREE: 11.0657
EVENT_DEPTH_KM: 8.1
HYPOCENTER_REFERENCE: INGV-CNT_Seismic_Bulletin
MAGNITUDE_W: 6.0
MAGNITUDE_W_REFERENCE: RCMT-INGV
MAGNITUDE_L: 5.8
MAGNITUDE_L_REFERENCE: INGV-CNT_Seismic_Bulletin
FOCAL_MECHANISM: TF
NETWORK: IT
STATION_CODE: CNT
STATION_NAME: CENTO
STATION_LATITUDE_DEGREE: 44.723400
STATION_LONGITUDE_DEGREE: 11.286700
STATION_ELEVATION_M: 68
LOCATION: 
SENSOR_DEPTH_M: 0.0
VS30_M/S: 
SITE_CLASSIFICATION_EC8: C*
MORPHOLOGIC_CLASSIFICATION: 
EPICENTRAL_DISTANCE_KM: 21.9
EARTHQUAKE_BACKAZIMUTH_DEGREE: 307.0
DATE_TIME_FIRST_SAMPLE_YYYYMMDD_HHMMSS: 20120529_065953.000
DATE_TIME_FIRST_SAMPLE_PRECISION: seconds
SAMPLING_INTERVAL_S: 0.005000
NDATA: 27600
DURATION_S: 138.000
STREAM: HNE
UNITS: cm/s^2
INSTRUMENT: sensor = Episensor FBA ES-T [Kinemetrics] | digitizer = Etna [Kinemetrics]
INSTRUMENT_ANALOG/DIGITAL: D
INSTRUMENTAL_FREQUENCY_HZ: 
INSTRUMENTAL_DAMPING: 
FULL_SCALE_G: 
N_BIT_DIGITAL_CONVERTER: 18
PGA_CM/S^2: 219.761445
TIME_PGA_S: 24.555000
BASELINE_CORRECTION: BASELINE REMOVED
FILTER_TYPE: BUTTERWORTH
FILTER_ORDER: 2
LOW_CUT_FREQUENCY_HZ: 0.070
HIGH_CUT_FREQUENCY_HZ: 40.000
LATE/NORMAL_TRIGGERED: NT
DATABASE_VERSION: DYNA 1.0
HEADER_FORMAT: DYNA 1.2
DATA_TYPE: ACCELERATION
PROCESSING: manual (Paolucci et al., 2011)
DATA_TIMESTAMP_YYYYMMDD_HHMMSS: 20141204_102759.333
DATA_LICENSE: CC-BY3_0-IT (http://creativecommons.org/licenses/by/3.0/deed.en)
DATA_CITATION: ESM working group (2015), European Strong-Motion database, version 0.1, Network Activity 3: Networking acceleration networks and SM data users. Project NERA (www.nera-eu.org)
DATA_CREATOR: ESM working group
ORIGINAL_DATA_MEDIATOR_CITATION: Ufficio Rischio Sismico e Vulcanico del Dipartimento della Protezione Civile (http://www.protezionecivile.gov.it/)
ORIGINAL_DATA_MEDIATOR: Rete Accelerometrica Nazionale - RAN Download (http://www.mot1.it/randownload/)
ORIGINAL_DATA_CREATOR_CITATION: Italian Strong Motion Network, Italian Civil Protection Department http://www.protezionecivile.gov.it
ORIGINAL_DATA_CREATOR: network: IT (Italian Strong Motion Network); owner: Dipartimento Della Protezione Civile
USER1: /home/dyna/processing-itaca/processing.py /var/www/processing/tmp/fpacor//IT.CNT..HNE.D.20120529.070003.X.ACC.ASC /var/www/processing/tmp/fpacor//IT.CNT..HNN.D.20120529.070003.X.ACC.ASC /var/www/processing/tmp/fpacor//IT.CNT..HNZ.D.20120529.070003.X.ACC.ASC --tmp /var/www/processing/tmp/fpacor/ --le 0.070 --he 40.000 --ln 0.070 --hn 40.000 --lz 0.070 --hz 40.000 --fo 2 --ca -10 --cz 30 --ta 5 --tz 5 --mf 1 --rf 0 --tr NT
USER2: 
USER3: 
USER4: 
USER5: 
[...]
0.066199
0.149259
-1.040731
-2.994571
-4.438431
-4.317301
-2.513950
0.101402
2.249542
3.009589
2.296229
0.855665
-0.220777
-0.235166
0.619232
1.379194
1.021530
-0.694297
-2.951304
-4.479997
-4.491142
-3.104014
-1.037803
0.981811
2.512613
3.269251
2.980066
1.553342
-0.600320
-2.555091
-3.375530
-2.743280
-1.152720
0.436799
1.195726
0.871784
-0.152563
-1.135608
-1.379048
-0.601460
0.893235
2.405044
3.258719
3.129538
2.142038
0.804523
-0.275098
-0.866416
-1.327863
-2.188933
-3.485701
-4.508739
-4.245226
-2.306537
0.489005
2.663865
3.256602
2.403859
0.975865
-0.184864
-0.782588
-1.039837
-1.292986
-1.651249
-2.004222
-2.239175
-2.354887
-2.425452
-2.477241
-2.317882
-1.548666
0.103785
2.417741
4.601967
5.617240
4.842129
2.708300
0.597612
-0.205130
0.402045
1.333803
1.367941
0.129288
-1.855768
-3.756070
-4.941784
-5.163628
-4.481730
-3.038678
-0.999821
1.205334
2.792336
3.022840
1.794261
-0.078945
-1.189401
-0.473554
1.830846
4.122914
4.472291
1.962796
-2.619945
-7.136963
-9.220866
-7.613741
-2.969006
2.453941
6.034802
6.265184
3.618507
0.158155
-1.942422
-1.802283
-0.078027
1.852991
2.814619
2.244716
0.213024
-2.680012
-5.468914
-7.150060
-7.136626
-5.531858
-3.021035
-0.568000
0.937352
1.102140
0.267105
-0.750166
-1.140282
-0.353684
1.793484
4.873178
7.696458
8.716528
6.906961
2.452782
-3.260909
-8.184721
-10.326293
-8.621898
-3.692742
2.146765
5.961850
5.910864
2.400365
-2.324421
-5.738875
-6.430134
-4.590291
-1.667669
0.540142
0.936689
-0.226854
-1.532126
-1.356155
0.991875
4.741288
8.105057
9.361752
7.817595
4.084152
-0.345402
-3.814285
-5.151677
-4.168228
-1.782816
0.534638
1.660569
1.299335
-0.145726
-2.017358
-3.789395
-5.045539
-5.256889
-3.960294
-1.205775
2.352171
5.648857
7.443694
6.939251
4.572739
1.917497
0.550628
0.918587
2.023572
2.188912
0.511042
-2.244403
-4.275885
-4.363860
-2.943711
-1.627491
-1.611666
-2.546299
-3.048146
-2.277953
-0.828285
-0.016370
-0.444389
-1.286957
-0.921970
1.631140
5.664478
9.047058
9.597957
6.496122
0.849535
-4.844410
-8.149601
-8.183558
-5.940687
-3.211505
-1.197352
-0.013382
0.703181
0.892744
-0.073765
-2.637334
-6.221948
-9.197792
-9.809514
-7.441635
-3.276889
0.257439
1.144464
-0.608364
-2.960470
-3.570539
-1.580808
1.980444
5.042689
5.767940
3.578469
-0.560646
-4.658140
-6.595428
-5.090855
-0.591497
4.480043
6.903807
4.869888
-0.598420
-6.362195
-9.421859
-8.772991
-5.437177
-1.093797
3.047906
6.189212
7.362773
5.690748
1.576290
-2.786245
-4.705371
-3.048552
0.919145
4.632715
6.134808
5.158991
2.788092
0.382001
-1.146880
-1.370746
-0.270329
1.514443
2.601884
1.571711
-1.908813
-6.531102
-10.008143
-10.622765
-8.413447
-4.958270
-2.022111
-0.380441
0.186647
0.104293
-0.463861
-1.315852
-1.793962
-1.089797
0.934897
3.443393
5.145630
5.047324
2.996055
-0.179322
-3.139487
-4.842829
-5.068796
-4.354047
-3.495997
-3.063845
-3.307281
-4.299288
-5.844880
-7.257709
-7.501309
-5.731757
-1.889142
3.036998
7.352837
9.477418
8.770024
5.975882
2.906560
1.336481
1.877104
3.640036
4.829895
3.893436
0.565265
-3.902074
-7.532358
-8.894500
-7.925926
-5.729233
-3.688065
-2.718352
-2.935947
-3.617532
-3.545976
-1.779355
1.582237
5.213716
7.243820
6.510459
3.445909
-0.249739
-2.801446
-3.302167
-1.849916
0.883107
4.184681
7.467938
10.029982
11.067142
10.223509
8.024415
5.628574
3.972815
3.036714
2.119616
0.854043
-0.352576
-0.980626
-1.307821
-2.359286
-4.747209
-7.688753
-9.435178
-8.771888
-6.128191
-3.231963
-1.675017
-1.831353
-3.039327
-4.502564
-5.784148
-6.565621
-6.368352
-4.818237
-2.105374
0.946442
3.238789
3.870031
2.513133
-0.307243
-3.169266
-4.256265
-2.379618
2.067116
6.949614
9.434758
7.873982
3.154437
-1.843515
-4.310254
-3.229173
0.454763
4.814881
8.075398
9.307188
8.526779
6.359680
3.601044
0.861027
-1.528803
-3.234212
-3.755061
-2.886903
-1.241027
0.042904
0.173459
-0.756468
-2.008014
-2.848937
-3.039814
-2.887279
-2.923951
-3.407108
-3.999052
-4.027909
-3.166699
-1.800419
-0.690333
-0.309985
-0.446008
-0.353275
0.606899
2.266369
3.519726
3.031543
0.243609
-4.191827
-8.884605
-12.620803
-14.910601
-15.784096
-15.297189
-13.400780
-10.170758
-5.976783
-1.412174
2.863179
6.269174
8.513228
9.792492
10.783821
12.351446
15.082292
18.848513
22.615952
24.804661
24.338060
21.634274
18.385775
16.158056
15.092405
13.792634
10.465421
4.443634
-3.120585
-9.825094
-13.296199
-12.509763
-8.439856
-3.342888
0.891399
3.906338
6.671653
10.184066
14.227362
17.355698
18.071768
15.962874
11.844836
7.133565
3.080559
0.216005
-1.746026
-3.418990
-5.044344
-6.217339
-6.317284
-5.216663
-3.539605
-2.248782
-1.930125
-2.293935
-2.349191
-1.234201
1.031497
3.616331
5.652912
6.871350
7.559506
8.119019
8.619938
8.626976
7.538307
5.227019
2.388312
0.227657
-0.339555
0.668518
2.325883
3.399468
3.128921
1.669272
-0.120174
-1.181262
-0.735458
1.144950
3.264931
3.914573
1.910766
-2.795900
-9.184229
-15.733836
-21.216064
-25.211466
-27.995781
-29.954077
-31.081808
-31.067293
-29.868217
-28.032845
-26.243895
-24.572224
-22.299946
-18.550961
-13.118192
-6.658574
-0.261839
4.937038
7.936789
8.157538
5.850548
2.276435
-0.732380
-1.764247
-0.614249
1.827241
4.444831
6.778134
9.086210
11.571852
13.867003
15.514036
16.715250
18.333073
21.133764
24.990536
28.782572
31.281523
32.318871
33.001369
34.704483
37.775276
41.001663
42.318550
40.301533
35.172394
28.428885
21.663763
15.763758
10.836781
6.473356
2.086953
-2.772192
-8.223064
-13.929251
-19.178053
-23.365303
-26.408392
-28.452734
-29.260408
-28.205414
-24.993553
-20.304829
-15.595713
-12.126396
-10.088458
-8.740945
-7.464793
-6.551971
-6.921196
-9.308505
-13.769375
-19.665268
-25.982515
-31.715897
-36.032543
-38.282379
-38.139000
-35.854424
-32.272617
-28.427896
-24.991598
-21.985941
-19.011759
-15.720700
-11.945025
-7.508428
-2.263513
3.561549
9.158070
13.477359
15.933043
16.729359
16.513729
15.902155
15.375200
15.374918
16.238689
17.966270
20.057770
21.610613
21.769529
20.352945
18.079597
16.058393
15.034047
15.031706
15.422262
15.182030
13.323207
9.440211
4.090790
-1.301375
-5.146894
-6.716122
-6.692421
-6.624728
-7.761044
-10.296986
-13.413053
-15.858035
-16.646763
-15.400122
-12.302085
-8.053972
-3.858243
-1.131132
-0.958199
-3.608300
-8.329792
-13.613730
-17.959389
-20.626141
-21.777634
-22.089542
-22.240679
-22.504894
-22.566719
-21.729870
-19.465578
-15.887470
-11.727868
-7.809233
-4.488825
-1.583327
1.305989
4.550187
8.422487
13.025194
18.222729
23.508917
27.962990
30.703489
31.546230
31.184402
30.660265
30.481573
30.246944
29.147291
26.689199
23.001198
18.633492
14.145529
9.889106
6.017364
2.553309
-0.455517
-2.751244
-3.816093
-3.094349
-0.494581
3.262188
6.853120
8.958964
8.918794
7.009999
4.060638
0.764822
-2.684497
-6.467194
-10.815545
-15.874320
-21.682753
-28.044334
-34.331718
-39.392769
-41.831501
-40.767708
-36.463379
-30.163429
-23.309738
-16.802580
-10.849636
-5.336655
-0.224869
4.305049
7.967101
10.595033
12.175988
12.683926
12.091877
10.654041
9.071809
8.254616
8.862818
11.011274
14.260858
17.805710
20.777903
22.619720
23.370928
23.578796
23.786209
24.043695
23.822489
22.324522
19.052010
14.257513
8.808409
3.533708
-1.307308
-5.852927
-10.026585
-13.334938
-15.226921
-15.482174
-14.376673
-12.581333
-10.799533
-9.452586
-8.703970
-8.701603
-9.685488
-11.809378
-14.899075
-18.425426
-21.746622
-24.426796
-26.355791
-27.641521
-28.401571
-28.578423
-28.000200
-26.653593
-24.763941
-22.585567
-20.212370
-17.525253
-14.254196
-10.223157
-5.596538
-0.819698
3.663142
7.622525
11.066880
14.096747
16.714586
18.721218
19.740715
19.434101
17.888510
15.871199
14.529134
14.598672
15.829798
17.194002
17.663923
16.896919
15.350220
13.824753
12.812359
12.143375
11.207189
9.549130
7.351586
5.390755
4.388784
4.262655
4.042299
2.493556
-1.223255
-7.220617
-14.896489
-23.278313
-31.394329
-38.477947
-44.225925
-48.936695
-53.098774
-56.800922
-59.628155
-60.926533
-60.063885
-56.739494
-51.240520
-44.329262
-36.924545
-29.797276
-23.230831
-16.925573
-10.379828
-3.412585
3.550883
9.523390
13.304958
14.141242
12.337506
9.175854
6.245681
4.831066
5.595915
8.558654
13.251900
18.957611
25.000181
30.910946
36.306850
40.766773
44.030102
46.175632
47.370575
47.554611
46.472305
43.978294
40.253017
35.584824
30.109732
24.074673
18.203054
13.583285
11.224880
11.567467
14.205292
18.041515
21.659246
23.675823
23.042673
19.188765
12.076484
2.247571
-9.371609
-21.821480
-34.152733
-45.326996
-54.485970
-61.337357
-66.083740
-68.927330
-69.760338
-68.447411
-65.256020
-60.923458
-56.506115
-53.084435
-51.275639
-50.939289
-51.365860
-51.809948
-52.092663
-52.711006
-54.166737
-56.376568
-58.744434
-60.291302
-59.838364
-56.606903
-50.625877
-42.537815
-33.169163
-23.250772
-13.325564
-3.565756
6.401302
17.232418
29.195744
41.523006
52.468800
60.374424
64.707153
65.924690
64.684967
61.559971
57.296375
52.972343
49.788216
48.641289
49.747036
52.643528
56.735909
61.858273
68.129669
75.578423
84.195847
93.508759
101.609497
105.564308
103.381401
95.253105
82.790314
67.606430
51.106724
34.929363
20.475328
7.936169
-3.768755
-15.711210
-27.588154
-38.027206
-45.925404
-50.867661
-52.825665
-52.313938
-50.571308
-49.018047
-48.679516
-50.217655
-53.854347
-58.844330
-63.587734
-66.810730
-68.210815
-67.636032
-64.331863
-57.359730
-46.466465
-32.472778
-16.749254
-0.419228
15.646338
30.415115
42.903755
52.855988
61.032539
68.728371
76.553192
83.361382
86.970329
86.346703
82.422226
76.432518
68.358437
57.751904
45.624626
34.677338
27.631590
25.594135
27.953842
33.721615
42.061947
51.297886
59.372883
65.863564
72.344444
80.824623
92.063751
105.179512
118.712364
131.571609
143.063232
152.598709
159.365082
162.481171
161.720474
157.613098
150.867310
142.024841
131.387161
119.292961
106.710785
95.263367
86.359505
79.995285
73.907120
63.974346
46.522133
21.425549
-7.238376
-34.503788
-57.995636
-78.093544
-96.373817
-113.869667
-129.770660
-142.320099
-150.890381
-156.256790
-158.686325
-156.559143
-148.001022
-133.197311
-113.895096
-91.827698
-68.716591
-46.725842
-28.144350
-14.501153
-5.613085
-0.053261
3.109077
4.034748
3.563105
3.476212
4.994628
8.021979
11.863885
15.925485
19.990009
24.357651
29.536495
35.836094
43.661652
53.742424
66.291595
80.385429
94.661781
108.031097
119.481125
127.905006
132.749420
134.681717
135.067535
134.503357
131.977371
125.835220
115.452492
101.664482
85.888344
69.067657
51.227402
31.732912
10.057014
-13.485010
-37.839432
-61.759586
-84.022118
-103.804512
-121.085243
-136.106110
-148.696045
-158.628571
-166.204407
-172.026520
-176.508026
-179.909302
-182.442551
-184.051224
-184.573914
-184.278061
-183.696335
-182.994385
-182.067810
-181.020004
-180.087509
-179.344833
-178.678207
-177.712921
-175.487000
-170.412231
-160.652924
-144.762619
-122.955223
-97.780579
-72.556274
-49.489883
-29.860027
-14.862946
-5.182043
-0.077594
2.401408
4.254885
6.770686
10.362515
14.294862
16.768726
16.106411
12.024108
5.527943
-1.992528
-9.096429
-14.504018
-17.766058
-19.330652
-19.644794
-18.705553
-16.604317
-13.648751
-9.851433
-5.051824
0.864600
8.264666
17.425940
27.792292
38.265854
48.125877
57.360718
66.407990
75.644180
84.859161
93.430992
101.092163
108.055954
114.353111
119.497559
122.841904
124.019455
123.215523
121.115685
118.326630
114.914993
110.828758
106.328445
101.501617
96.304733
91.166382
86.459557
82.127197
78.120377
74.258453
70.228539
66.036232
61.658524
56.616055
50.470592
43.187691
34.991386
26.339840
17.889175
10.266934
3.604482
-2.589005
-8.610273
-14.226812
-19.575151
-25.479931
-32.768486
-42.057499
-53.800800
-67.810265
-83.237839
-99.276146
-115.268326
-130.363647
-143.779587
-155.315399
-165.259445
-173.887314
-181.344559
-187.732834
-192.840607
-196.058807
-197.037430
-196.476242
-195.612976
-194.603180
-192.383423
-188.280334
-182.650101
-175.974548
-168.065948
-158.078369
-145.130585
-129.150787
-111.012657
-91.652634
-71.521759
-51.094120
-31.171289
-12.474178
4.621098
20.086189
34.180801
47.180935
59.188927
70.264648
80.445312
89.537842
97.218735
103.434319
108.525658
113.146446
118.275688
124.970108
133.724304
144.080002
154.992554
165.631805
175.765106
185.380508
194.122787
201.235870
206.373169
210.312881
213.903809
216.833786
218.525467
219.268509
219.684097
219.761444
219.107483
217.670792
215.521622
212.686691
209.271622
204.818466
197.436646
183.697586
160.873016
130.712311
99.129547
70.758759
45.718716
22.677567
2.828226
-11.220854
-19.057049
-22.859529
-25.034927
-26.819269
-28.674795
-30.761448
-32.670849
-33.401443
-32.129910
-29.079231
-25.555864
-23.152624
-22.902348
-25.056711
-29.492144
-35.782936
-42.853909
-49.401936
-54.817047
-59.536995
-64.751091
-71.441391
-79.421219
-87.537437
-94.573799
-99.798599
-103.106735
-104.909813
-105.727051
-105.607796
-104.114326
-101.207985
-97.392990
-92.493729
-85.871765
-78.434479
-72.376244
-68.436691
-65.234642
-61.413956
-57.264851
-54.518124
-55.039524
-59.318069
-66.136894
-73.798988
-81.410904
-89.108177
-97.391296
-106.217056
-114.832756
-122.567772
-129.363876
-135.338333
-140.247757
-143.937759
-146.947601
-149.647690
-151.448166
-151.836090
-151.004303
-148.892166
-144.573273
-136.526993
-123.292328
-104.598434
-82.005257
-57.991261
-34.557316
-12.786356
6.723153
23.395552
36.950058
47.905106
57.272713
66.025909
74.881989
84.091347
93.629265
103.484825
113.387207
122.867851
131.722382
139.748062
146.404419
151.220184
153.940460
154.119919
151.243866
145.440979
137.694550
129.122070
120.147980
110.463013
99.669067
87.885551
75.787216
64.227768
53.992859
45.672771
39.244724
34.187057
30.428988
28.105700
26.771624
25.884748
24.892796
23.097483
20.383226
17.219650
13.891329
10.251698
6.010924
0.956000
-5.020241
-11.872070
-19.447220
-27.516300
-35.710777
-43.726833
-51.570049
-59.401302
-67.353195
-75.531319
-83.788376
-91.492683
-97.762978
-101.844620
-103.306503
-102.130844
-98.747513
-93.875740
-87.862450
-79.876144
-68.112137
-51.314907
-30.293337
-7.911319
12.593276
29.395651
42.156113
50.897812
55.693794
57.220318
56.790268
55.765686
55.148254
55.398468
56.278954
56.955593
56.395466
53.788483
48.780499
41.486069
32.428116
22.412399
12.226926
2.374299
-6.893304
-15.403553
-22.927757
-29.089836
-33.585766
-36.540066
-38.378735
-39.446121
-39.965530
-40.168526
-40.181847
-39.860138
-38.980160
-37.610645
-36.121101
-34.837986
-33.889713
-33.284348
-32.842571
-32.280510
-31.508833
-30.512100
-29.033895
-26.754377
-23.777992
-20.711102
-18.052612
-15.723988
-13.420591
-11.005532
-8.407408
-5.515530
-2.209141
1.463394
4.983148
7.656355
9.556250
11.732951
15.087344
19.377211
23.544134
26.674309
28.580563
29.604750
29.967281
29.687975
29.175800
29.220308
30.107643
31.259495
31.935331
31.913818
31.483887
31.042147
30.736586
30.411390
29.784386
28.644236
26.943594
24.734936
21.999231
18.598888
14.470409
9.833697
5.184855
0.945998
-2.938878
-6.848983
-10.989295
-15.199172
-19.070435
-22.218990
-24.567078
-26.317764
-27.567364
-28.005791
-27.164890
-24.872177
-21.304531
-16.806219
-11.777439
-6.617753
-1.770701
2.294455
5.317408
7.268104
8.042037
7.441219
5.492472
2.576628
-0.728445
-3.872228
-6.353566
-7.572433
-7.003236
-4.578311
-0.632779
4.462809
10.434983
16.951130
23.470083
29.378536
34.264652
37.948570
40.356407
41.421349
40.965122
38.637371
34.007435
26.958364
18.214046
9.219418
1.329096
-4.814553
-9.336348
-12.792135
-15.679745
-18.124489
-19.876991
-20.632093
-20.569485
-20.443865
-20.960300
-22.391714
-24.830050
-28.261801
-32.297001
-36.200306
-39.349331
-41.588715
-43.074944
-43.872578
-43.776623
-42.342625
-38.938744
-32.949409
-24.270275
-13.725649
-2.805009
7.140452
15.409753
21.872595
26.734764
30.376987
33.127281
35.060963
36.116482
36.410336
36.263184
35.904282
35.392738
34.834496
34.416039
34.336330
34.973316
36.870686
40.287144
44.894936
50.010406
54.970642
59.212204
62.314014
64.269836
65.480370
66.283928
66.652039
66.301888
64.894112
62.172176
58.074093
52.689487
46.038780
38.026630
28.799711
18.983965
9.367453
0.544746
-7.171492
-13.812241
-19.681612
-25.169832
-30.613873
-36.074871
-41.323433
-46.207752
-50.741714
-54.831821
-58.244286
-60.742336
-62.064575
-61.881321
-59.946087
-56.327045
-51.480270
-46.173512
-41.274525
-37.416302
-34.851509
-33.588413
-33.500687
-34.369850
-35.939980
-37.876877
-39.755455
-41.142529
-41.631737
-41.011833
-39.421383
-37.061859
-33.984802
-30.264675
-25.897860
-20.644714
-14.344222
-7.113811
0.741951
8.755056
16.474043
23.655861
30.017710
35.032539
38.307274
39.888081
39.942383
38.501419
35.643944
31.623768
26.872372
21.946253
17.242367
12.886719
8.904998
5.250842
1.929279
-0.838802
-2.753808
-3.583506
-3.343433
-2.469597
-1.453261
-0.323287
1.246686
3.536556
6.502190
9.540174
11.689170
12.250108
11.031896
8.128709
3.716115
-1.934303
-8.401400
-15.270589
-22.321424
-29.421066
-36.300095
-42.616398
-48.228825
-53.215618
-57.594982
-61.182163
-63.703812
-64.873985
-64.387238
-62.034782
-57.835041
-52.021412
-44.991234
-37.198742
-29.020840
-20.757502
-12.665792
-4.971098
2.100131
8.384851
13.858989
18.636707
22.947083
26.898252
30.249683
32.638493
33.802212
33.447002
31.311028
27.464088
22.252640
16.019085
9.158751
2.322425
-3.804470
-8.879651
-12.830020
-15.604691
-17.166456
-17.527462
-16.765709
-15.019478
-12.390385
-9.040504
-5.433142
-2.197470
0.182598
1.389690
1.289647
0.013456
-2.142472
-4.743918
-7.253703
-9.362663
-11.151997
-12.822920
-14.448863
-16.034237
-17.645359
-19.307396
-20.854986
-21.990282
-22.409138
-21.926052
-20.541294
