EVENT_NAME: EMILIA_2ND_SHOCK
EVENT_ID: IT-2012-0011
EVENT_DATE_YYYYMMDD: 20120529
EVENT_TIME_HHMMSS: 070002
EVENT_LATITUDE_DEGREE: 44.8417
EVENT_LONGITUDE_DEGREE: 11.0657
EVENT_DEPTH_KM: 8.1
HYPOCENTER_REFERENCE: INGV-CNT_Seismic_Bulletin
MAGNITUDE_W: 6.0
MAGNITUDE_W_REFERENCE: RCMT-INGV
MAGNITUDE_L: 5.8
MAGNITUDE_L_REFERENCE: INGV-CNT_Seismic_Bulletin
FOCAL_MECHANISM: TF
NETWORK: IT
STATION_CODE: CAS0
STATION_NAME: CASTELMASSA
STATION_LATITUDE_DEGREE: 45.025000
STATION_LONGITUDE_DEGREE: 11.311000
STATION_ELEVATION_M: 65
LOCATION: 
SENSOR_DEPTH_M: 0.0
VS30_M/S: 
SITE_CLASSIFICATION_EC8: C*
MORPHOLOGIC_CLASSIFICATION: 
EPICENTRAL_DISTANCE_KM: 28.1
EARTHQUAKE_BACKAZIMUTH_DEGREE: 223.6
DATE_TIME_FIRST_SAMPLE_YYYYMMDD_HHMMSS: 20120529_070003.000
DATE_TIME_FIRST_SAMPLE_PRECISION: seconds
SAMPLING_INTERVAL_S: 0.005000
NDATA: 29001
DURATION_S: 145.005
STREAM: HNE
UNITS: cm
INSTRUMENT: sensor = Episensor FBA ES-T [Kinemetrics] | digitizer = Etna [Kinemetrics]
INSTRUMENT_ANALOG/DIGITAL: D
INSTRUMENTAL_FREQUENCY_HZ: 
INSTRUMENTAL_DAMPING: 
FULL_SCALE_G: 
N_BIT_DIGITAL_CONVERTER: 18
PGD_CM: -2.255102
TIME_PGD_S: 34.465000
BASELINE_CORRECTION: BASELINE REMOVED
FILTER_TYPE: BUTTERWORTH
FILTER_ORDER: 2
LOW_CUT_FREQUENCY_HZ: 0.060
HIGH_CUT_FREQUENCY_HZ: 35.000
LATE/NORMAL_TRIGGERED: NT
DATABASE_VERSION: DYNA 1.0
HEADER_FORMAT: DYNA 1.2
DATA_TYPE: DISPLACEMENT
PROCESSING: manual (Paolucci et al., 2011)
DATA_TIMESTAMP_YYYYMMDD_HHMMSS: 
DATA_LICENSE: CC-BY3_0-IT (http://creativecommons.org/licenses/by/3.0/deed.en)
DATA_CITATION: ESM working group (2015), European Strong-Motion database, version 0.1, Network Activity 3: Networking acceleration networks and SM data users. Project NERA (www.nera-eu.org)
DATA_CREATOR: ESM working group
ORIGINAL_DATA_MEDIATOR_CITATION: Ufficio Rischio Sismico e Vulcanico del Dipartimento della Protezione Civile (http://www.protezionecivile.gov.it/)
ORIGINAL_DATA_MEDIATOR: Rete Accelerometrica Nazionale - RAN Download (http://www.mot1.it/randownload/)
ORIGINAL_DATA_CREATOR_CITATION: Italian Strong Motion Network, Italian Civil Protection Department http://www.protezionecivile.gov.it
ORIGINAL_DATA_CREATOR: network: IT (Italian Strong Motion Network); owner: Dipartimento Della Protezione Civile
USER1: 
USER2: 
USER3: 
USER4: 
USER5: 
[...]
-1.399224e+00
-1.388816e+00
-1.377729e+00
-1.365966e+00
-1.353535e+00
-1.340445e+00
-1.326707e+00
-1.312334e+00
-1.297339e+00
-1.281738e+00
-1.265549e+00
-1.248794e+00
-1.231497e+00
-1.213684e+00
-1.195388e+00
-1.176643e+00
-1.157482e+00
-1.137943e+00
-1.118062e+00
-1.097879e+00
-1.077431e+00
-1.056760e+00
-1.035905e+00
-1.014910e+00
-9.938152e-01
-9.726629e-01
-9.514942e-01
-9.303496e-01
-9.092687e-01
-8.882896e-01
-8.674485e-01
-8.467792e-01
-8.263129e-01
-8.060781e-01
-7.861017e-01
-7.664095e-01
-7.470274e-01
-7.279819e-01
-7.093001e-01
-6.910096e-01
-6.731373e-01
-6.557089e-01
-6.387470e-01
-6.222694e-01
-6.062877e-01
-5.908069e-01
-5.758254e-01
-5.613350e-01
-5.473218e-01
-5.337664e-01
-5.206462e-01
-5.079356e-01
-4.956075e-01
-4.836341e-01
-4.719871e-01
-4.606381e-01
-4.495582e-01
-4.387180e-01
-4.280877e-01
-4.176367e-01
-4.073332e-01
-3.971446e-01
-3.870375e-01
-3.769780e-01
-3.669323e-01
-3.568674e-01
-3.467517e-01
-3.365561e-01
-3.262534e-01
-3.158188e-01
-3.052292e-01
-2.944631e-01
-2.835004e-01
-2.723217e-01
-2.609092e-01
-2.492460e-01
-2.373169e-01
-2.251077e-01
-2.126069e-01
-1.998058e-01
-1.866987e-01
-1.732822e-01
-1.595538e-01
-1.455125e-01
-1.311577e-01
-1.164897e-01
-1.015087e-01
-8.621517e-02
-7.060962e-02
-5.469254e-02
-3.846449e-02
-2.192631e-02
-5.078922e-03
1.207679e-02
2.953972e-02
4.730813e-02
6.537940e-02
8.374965e-02
1.024133e-01
1.213626e-01
1.405881e-01
1.600782e-01
1.798190e-01
1.997949e-01
2.199887e-01
2.403821e-01
2.609565e-01
2.816926e-01
3.025712e-01
3.235727e-01
3.446766e-01
3.658611e-01
3.871033e-01
4.083795e-01
4.296664e-01
4.509416e-01
4.721829e-01
4.933686e-01
5.144782e-01
5.354928e-01
5.563952e-01
5.771710e-01
5.978089e-01
6.183011e-01
6.386423e-01
6.588284e-01
6.788554e-01
6.987195e-01
7.184170e-01
7.379452e-01
7.573017e-01
7.764855e-01
7.954967e-01
8.143372e-01
8.330100e-01
8.515193e-01
8.698689e-01
8.880623e-01
9.061013e-01
9.239858e-01
9.417125e-01
9.592756e-01
9.766680e-01
9.938824e-01
1.010913e+00
1.027754e+00
1.044405e+00
1.060863e+00
1.077131e+00
1.093212e+00
1.109106e+00
1.124816e+00
1.140341e+00
1.155682e+00
1.170834e+00
1.185798e+00
1.200570e+00
1.215151e+00
1.229543e+00
1.243748e+00
1.257767e+00
1.271603e+00
1.285256e+00
1.298723e+00
1.312001e+00
1.325083e+00
1.337959e+00
1.350621e+00
1.363059e+00
1.375266e+00
1.387232e+00
1.398951e+00
1.410413e+00
1.421609e+00
1.432526e+00
1.443152e+00
1.453472e+00
1.463472e+00
1.473139e+00
1.482459e+00
1.491424e+00
1.500028e+00
1.508266e+00
1.516136e+00
1.523638e+00
1.530773e+00
1.537541e+00
1.543943e+00
1.549981e+00
1.555654e+00
1.560964e+00
1.565909e+00
1.570487e+00
1.574693e+00
1.578522e+00
1.581965e+00
1.585012e+00
1.587652e+00
1.589873e+00
1.591662e+00
1.593009e+00
1.593906e+00
1.594345e+00
1.594323e+00
1.593834e+00
1.592877e+00
1.591451e+00
1.589555e+00
1.587191e+00
1.584360e+00
1.581066e+00
1.577313e+00
1.573105e+00
1.568446e+00
1.563340e+00
1.557793e+00
1.551811e+00
1.545401e+00
1.538573e+00
1.531335e+00
1.523700e+00
1.515681e+00
1.507294e+00
1.498560e+00
1.489498e+00
1.480132e+00
1.470489e+00
1.460592e+00
1.450468e+00
1.440138e+00
1.429627e+00
1.418955e+00
1.408145e+00
1.397217e+00
1.386191e+00
1.375086e+00
1.363920e+00
1.352708e+00
1.341466e+00
1.330205e+00
1.318937e+00
1.307673e+00
1.296423e+00
1.285199e+00
1.274008e+00
1.262861e+00
1.251766e+00
1.240732e+00
1.229768e+00
1.218884e+00
1.208088e+00
1.197390e+00
1.186797e+00
1.176317e+00
1.165955e+00
1.155713e+00
1.145589e+00
1.135578e+00
1.125672e+00
1.115858e+00
1.106122e+00
1.096448e+00
1.086826e+00
1.077245e+00
1.067700e+00
1.058188e+00
1.048711e+00
1.039271e+00
1.029872e+00
1.020520e+00
1.011218e+00
1.001972e+00
9.927839e-01
9.836568e-01
9.745924e-01
9.655915e-01
9.566543e-01
9.477808e-01
9.389708e-01
9.302235e-01
9.215380e-01
9.129133e-01
9.043493e-01
8.958479e-01
8.874130e-01
8.790513e-01
8.707714e-01
8.625839e-01
8.545010e-01
8.465365e-01
8.387048e-01
8.310200e-01
8.234943e-01
8.161371e-01
8.089547e-01
8.019502e-01
7.951240e-01
7.884750e-01
7.820014e-01
7.757020e-01
7.695779e-01
7.636329e-01
7.578736e-01
7.523100e-01
7.469540e-01
7.418189e-01
7.369182e-01
7.322632e-01
7.278617e-01
7.237166e-01
7.198257e-01
7.161811e-01
7.127696e-01
7.095731e-01
7.065709e-01
7.037412e-01
7.010625e-01
6.985137e-01
6.960744e-01
6.937257e-01
6.914494e-01
6.892293e-01
6.870512e-01
6.849021e-01
6.827711e-01
6.806495e-01
6.785317e-01
6.764143e-01
6.742956e-01
6.721747e-01
6.700516e-01
6.679268e-01
6.658006e-01
6.636728e-01
6.615425e-01
6.594084e-01
6.572690e-01
6.551232e-01
6.529704e-01
6.508112e-01
6.486467e-01
6.464786e-01
6.443082e-01
6.421360e-01
6.399608e-01
6.377804e-01
6.355920e-01
6.333931e-01
6.311816e-01
6.289570e-01
6.267193e-01
6.244696e-01
6.222095e-01
6.199409e-01
6.176651e-01
6.153818e-01
6.130895e-01
6.107855e-01
6.084665e-01
6.061289e-01
6.037691e-01
6.013837e-01
5.989698e-01
5.965256e-01
5.940501e-01
5.915430e-01
5.890050e-01
5.864373e-01
5.838428e-01
5.812260e-01
5.785938e-01
5.759555e-01
5.733226e-01
5.707078e-01
5.681234e-01
5.655798e-01
5.630849e-01
5.606446e-01
5.582645e-01
5.559500e-01
5.537084e-01
5.515487e-01
5.494821e-01
5.475226e-01
5.456856e-01
5.439881e-01
5.424464e-01
5.410755e-01
5.398891e-01
5.388991e-01
5.381164e-01
5.375516e-01
5.372154e-01
5.371189e-01
5.372733e-01
5.376888e-01
5.383745e-01
5.393380e-01
5.405850e-01
5.421189e-01
5.439415e-01
5.460530e-01
5.484538e-01
5.511453e-01
5.541312e-01
5.574183e-01
5.610158e-01
5.649350e-01
5.691875e-01
5.737847e-01
5.787364e-01
5.840493e-01
5.897267e-01
5.957675e-01
6.021670e-01
6.089171e-01
6.160073e-01
6.234265e-01
6.311632e-01
6.392069e-01
6.475468e-01
6.561729e-01
6.650753e-01
6.742457e-01
6.836776e-01
6.933669e-01
7.033107e-01
7.135075e-01
7.239571e-01
7.346599e-01
7.456163e-01
7.568258e-01
7.682854e-01
7.799897e-01
7.919303e-01
8.040967e-01
8.164753e-01
8.290507e-01
8.418061e-01
8.547239e-01
8.677852e-01
8.809702e-01
8.942592e-01
9.076330e-01
9.210735e-01
9.345631e-01
9.480835e-01
9.616166e-01
9.751444e-01
9.886488e-01
1.002111e+00
1.015513e+00
1.028835e+00
1.042056e+00
1.055157e+00
1.068116e+00
1.080912e+00
1.093523e+00
1.105929e+00
1.118107e+00
1.130040e+00
1.141707e+00
1.153094e+00
1.164188e+00
1.174979e+00
1.185463e+00
1.195636e+00
1.205500e+00
1.215055e+00
1.224304e+00
1.233251e+00
1.241897e+00
1.250247e+00
1.258304e+00
1.266074e+00
1.273563e+00
1.280776e+00
1.287719e+00
1.294394e+00
1.300803e+00
1.306943e+00
1.312808e+00
1.318393e+00
1.323693e+00
1.328708e+00
1.333440e+00
1.337897e+00
1.342089e+00
1.346034e+00
1.349750e+00
1.353258e+00
1.356574e+00
1.359715e+00
1.362694e+00
1.365520e+00
1.368199e+00
1.370737e+00
1.373139e+00
1.375409e+00
1.377551e+00
1.379572e+00
1.381476e+00
1.383266e+00
1.384947e+00
1.386523e+00
1.387997e+00
1.389373e+00
1.390657e+00
1.391859e+00
1.392992e+00
1.394071e+00
1.395111e+00
1.396128e+00
1.397134e+00
1.398139e+00
1.399150e+00
1.400168e+00
1.401189e+00
1.402207e+00
1.403215e+00
1.404202e+00
1.405162e+00
1.406090e+00
1.406985e+00
1.407852e+00
1.408699e+00
1.409535e+00
1.410377e+00
1.411241e+00
1.412144e+00
1.413103e+00
1.414135e+00
1.415254e+00
1.416473e+00
1.417800e+00
1.419241e+00
1.420801e+00
1.422482e+00
1.424285e+00
1.426209e+00
1.428256e+00
1.430425e+00
1.432721e+00
1.435148e+00
1.437716e+00
1.440436e+00
1.443321e+00
1.446387e+00
1.449648e+00
1.453118e+00
1.456805e+00
1.460714e+00
1.464846e+00
1.469193e+00
1.473743e+00
1.478480e+00
1.483381e+00
1.488424e+00
1.493582e+00
1.498829e+00
1.504140e+00
1.509489e+00
1.514853e+00
1.520210e+00
1.525537e+00
1.530813e+00
1.536020e+00
1.541136e+00
1.546145e+00
1.551025e+00
1.555759e+00
1.560327e+00
1.564705e+00
1.568871e+00
1.572798e+00
1.576459e+00
1.579827e+00
1.582875e+00
1.585577e+00
1.587908e+00
1.589849e+00
1.591384e+00
1.592500e+00
1.593188e+00
1.593441e+00
1.593255e+00
1.592625e+00
1.591550e+00
1.590024e+00
1.588043e+00
1.585603e+00
1.582703e+00
1.579341e+00
1.575516e+00
1.571228e+00
1.566475e+00
1.561258e+00
1.555576e+00
1.549427e+00
1.542812e+00
1.535732e+00
1.528189e+00
1.520186e+00
1.511726e+00
1.502817e+00
1.493465e+00
1.483682e+00
1.473479e+00
1.462869e+00
1.451866e+00
1.440484e+00
1.428740e+00
1.416649e+00
1.404225e+00
1.391484e+00
1.378441e+00
1.365115e+00
1.351523e+00
1.337687e+00
1.323623e+00
1.309352e+00
1.294891e+00
1.280258e+00
1.265473e+00
1.250551e+00
1.235512e+00
1.220371e+00
1.205148e+00
1.189857e+00
1.174514e+00
1.159132e+00
1.143726e+00
1.128306e+00
1.112888e+00
1.097482e+00
1.082099e+00
1.066747e+00
1.051435e+00
1.036168e+00
1.020952e+00
1.005790e+00
9.906853e-01
9.756374e-01
9.606475e-01
9.457166e-01
9.308478e-01
9.160461e-01
9.013192e-01
8.866777e-01
8.721352e-01
8.577070e-01
8.434089e-01
8.292562e-01
8.152631e-01
8.014425e-01
7.878062e-01
7.743642e-01
7.611255e-01
7.480983e-01
7.352902e-01
7.227076e-01
7.103558e-01
6.982387e-01
6.863594e-01
6.747202e-01
6.633238e-01
6.521728e-01
6.412696e-01
6.306166e-01
6.202154e-01
6.100661e-01
6.001659e-01
5.905090e-01
5.810851e-01
5.718800e-01
5.628750e-01
5.540481e-01
5.453746e-01
5.368289e-01
5.283861e-01
5.200222e-01
5.117150e-01
5.034443e-01
4.951920e-01
4.869420e-01
4.786799e-01
4.703924e-01
4.620666e-01
4.536894e-01
4.452467e-01
4.367238e-01
4.281046e-01
4.193717e-01
4.105055e-01
4.014847e-01
3.922871e-01
3.828908e-01
3.732757e-01
3.634249e-01
3.533261e-01
3.429719e-01
3.323592e-01
3.214881e-01
3.103616e-01
2.989835e-01
2.873583e-01
2.754901e-01
2.633823e-01
2.510365e-01
2.384531e-01
2.256321e-01
2.125735e-01
1.992779e-01
1.857464e-01
1.719799e-01
1.579789e-01
1.437424e-01
1.292689e-01
1.145564e-01
9.960387e-02
8.441190e-02
6.898300e-02
5.332171e-02
3.743446e-02
2.132900e-02
5.013639e-03
-1.150369e-02
-2.821603e-02
-4.511750e-02
-6.220341e-02
-7.947039e-02
-9.691585e-02
-1.145374e-01
-1.323325e-01
-1.502982e-01
-1.684306e-01
-1.867248e-01
-2.051739e-01
-2.237692e-01
-2.425003e-01
-2.613552e-01
-2.803202e-01
-2.993791e-01
-3.185142e-01
-3.377067e-01
-3.569375e-01
-3.761881e-01
-3.954405e-01
-4.146774e-01
-4.338837e-01
-4.530468e-01
-4.721577e-01
-4.912100e-01
-5.101991e-01
-5.291215e-01
-5.479733e-01
-5.667492e-01
-5.854422e-01
-6.040430e-01
-6.225405e-01
-6.409225e-01
-6.591756e-01
-6.772868e-01
-6.952433e-01
-7.130342e-01
-7.306507e-01
-7.480872e-01
-7.653403e-01
-7.824095e-01
-7.992963e-01
-8.160039e-01
-8.325369e-01
-8.489009e-01
-8.651019e-01
-8.811463e-01
-8.970400e-01
-9.127872e-01
-9.283899e-01
-9.438479e-01
-9.591583e-01
-9.743159e-01
-9.893137e-01
-1.004144e+00
-1.018800e+00
-1.033275e+00
-1.047565e+00
-1.061670e+00
-1.075588e+00
-1.089325e+00
-1.102883e+00
-1.116266e+00
-1.129480e+00
-1.142529e+00
-1.155416e+00
-1.168146e+00
-1.180719e+00
-1.193136e+00
-1.205394e+00
-1.217492e+00
-1.229427e+00
-1.241197e+00
-1.252799e+00
-1.264231e+00
-1.275494e+00
-1.286589e+00
-1.297521e+00
-1.308297e+00
-1.318926e+00
-1.329420e+00
-1.339792e+00
-1.350056e+00
-1.360228e+00
-1.370323e+00
-1.380355e+00
-1.390338e+00
-1.400281e+00
-1.410194e+00
-1.420081e+00
-1.429947e+00
-1.439792e+00
-1.449616e+00
-1.459418e+00
-1.469195e+00
-1.478944e+00
-1.488665e+00
-1.498357e+00
-1.508021e+00
-1.517659e+00
-1.527273e+00
-1.536866e+00
-1.546441e+00
-1.556001e+00
-1.565553e+00
-1.575101e+00
-1.584653e+00
-1.594216e+00
-1.603797e+00
-1.613404e+00
-1.623045e+00
-1.632726e+00
-1.642454e+00
-1.652229e+00
-1.662055e+00
-1.671931e+00
-1.681857e+00
-1.691829e+00
-1.701845e+00
-1.711902e+00
-1.721996e+00
-1.732125e+00
-1.742283e+00
-1.752468e+00
-1.762675e+00
-1.772899e+00
-1.783132e+00
-1.793367e+00
-1.803596e+00
-1.813809e+00
-1.823997e+00
-1.834152e+00
-1.844267e+00
-1.854336e+00
-1.864355e+00
-1.874320e+00
-1.884227e+00
-1.894075e+00
-1.903856e+00
-1.913565e+00
-1.923197e+00
-1.932746e+00
-1.942207e+00
-1.951575e+00
-1.960848e+00
-1.970024e+00
-1.979099e+00
-1.988072e+00
-1.996942e+00
-2.005709e+00
-2.014371e+00
-2.022930e+00
-2.031383e+00
-2.039728e+00
-2.047962e+00
-2.056078e+00
-2.064069e+00
-2.071928e+00
-2.079646e+00
-2.087215e+00
-2.094625e+00
-2.101872e+00
-2.108949e+00
-2.115852e+00
-2.122580e+00
-2.129132e+00
-2.135507e+00
-2.141710e+00
-2.147742e+00
-2.153607e+00
-2.159307e+00
-2.164844e+00
-2.170220e+00
-2.175436e+00
-2.180491e+00
-2.185386e+00
-2.190117e+00
-2.194683e+00
-2.199080e+00
-2.203303e+00
-2.207351e+00
-2.211223e+00
-2.214920e+00
-2.218447e+00
-2.221810e+00
-2.225014e+00
-2.228066e+00
-2.230971e+00
-2.233733e+00
-2.236355e+00
-2.238838e+00
-2.241181e+00
-2.243380e+00
-2.245427e+00
-2.247313e+00
-2.249029e+00
-2.250561e+00
-2.251896e+00
-2.253020e+00
-2.253916e+00
-2.254571e+00
-2.254971e+00
-2.255102e+00
-2.254955e+00
-2.254522e+00
-2.253795e+00
-2.252773e+00
-2.251454e+00
-2.249837e+00
-2.247921e+00
-2.245707e+00
-2.243194e+00
-2.240379e+00
-2.237258e+00
-2.233828e+00
-2.230084e+00
-2.226020e+00
-2.221629e+00
-2.216904e+00
-2.211837e+00
-2.206422e+00
-2.200651e+00
-2.194520e+00
-2.188024e+00
-2.181162e+00
-2.173933e+00
-2.166341e+00
-2.158392e+00
-2.150091e+00
-2.141446e+00
-2.132467e+00
-2.123161e+00
-2.113537e+00
-2.103603e+00
-2.093366e+00
-2.082833e+00
-2.072010e+00
-2.060907e+00
-2.049530e+00
-2.037888e+00
-2.025990e+00
-2.013848e+00
-2.001471e+00
-1.988870e+00
-1.976055e+00
-1.963036e+00
-1.949822e+00
-1.936424e+00
-1.922852e+00
-1.909117e+00
-1.895229e+00
-1.881201e+00
-1.867047e+00
-1.852778e+00
-1.838409e+00
-1.823951e+00
-1.809417e+00
-1.794817e+00
-1.780158e+00
-1.765447e+00
-1.750687e+00
-1.735880e+00
-1.721024e+00
-1.706115e+00
-1.691149e+00
-1.676120e+00
-1.661025e+00
-1.645859e+00
-1.630621e+00
-1.615308e+00
-1.599920e+00
-1.584456e+00
-1.568917e+00
-1.553304e+00
-1.537619e+00
-1.521864e+00
-1.506044e+00
-1.490161e+00
-1.474221e+00
-1.458231e+00
-1.442198e+00
-1.426128e+00
-1.410028e+00
-1.393905e+00
-1.377762e+00
-1.361602e+00
-1.345427e+00
-1.329236e+00
-1.313029e+00
-1.296808e+00
-1.280571e+00
-1.264321e+00
-1.248062e+00
-1.231798e+00
-1.215538e+00
-1.199290e+00
-1.183066e+00
-1.166880e+00
-1.150744e+00
-1.134672e+00
-1.118678e+00
-1.102773e+00
-1.086965e+00
-1.071260e+00
-1.055662e+00
-1.040174e+00
-1.024794e+00
-1.009523e+00
-9.943564e-01
-9.792937e-01
-9.643334e-01
-9.494752e-01
-9.347206e-01
-9.200720e-01
-9.055335e-01
-8.911095e-01
-8.768048e-01
-8.626243e-01
-8.485732e-01
-8.346561e-01
-8.208773e-01
-8.072400e-01
-7.937464e-01
-7.803974e-01
-7.671925e-01
-7.541292e-01
-7.412033e-01
-7.284089e-01
-7.157395e-01
-7.031887e-01
-6.907505e-01
-6.784202e-01
-6.661954e-01
-6.540755e-01
-6.420610e-01
-6.301531e-01
-6.183531e-01
-6.066611e-01
-5.950755e-01
-5.835925e-01
-5.722066e-01
-5.609113e-01
-5.496993e-01
-5.385636e-01
-5.274979e-01
-5.164961e-01
-5.055529e-01
-4.946636e-01
-4.838239e-01
-4.730304e-01
-4.622797e-01
-4.515686e-01
-4.408945e-01
-4.302558e-01
-4.196525e-01
-4.090857e-01
-3.985570e-01
-3.880683e-01
-3.776211e-01
-3.672166e-01
-3.568554e-01
-3.465375e-01
-3.362624e-01
-3.260300e-01
-3.158411e-01
-3.056976e-01
-2.956036e-01
-2.855645e-01
-2.755874e-01
-2.656807e-01
-2.558530e-01
-2.461123e-01
-2.364657e-01
-2.269187e-01
-2.174754e-01
-2.081386e-01
-1.989098e-01
-1.897895e-01
-1.807773e-01
-1.718719e-01
-1.630719e-01
-1.543752e-01
-1.457799e-01
-1.372841e-01
-1.288858e-01
-1.205838e-01
-1.123782e-01
-1.042705e-01
-9.626363e-02
-8.836255e-02
-8.057360e-02
-7.290444e-02
-6.536338e-02
-5.795854e-02
-5.069720e-02
-4.358542e-02
-3.662790e-02
-2.982782e-02
-2.318666e-02
-1.670431e-02
-1.037932e-02
-4.209350e-03
1.808438e-03
7.677008e-03
1.339917e-02
1.897758e-02
2.441490e-02
2.971386e-02
3.487682e-02
3.990551e-02
4.480096e-02
4.956394e-02
5.419547e-02
5.869731e-02
6.307241e-02
6.732532e-02
7.146214e-02
7.549008e-02
7.941697e-02
8.325077e-02
8.699920e-02
9.066939e-02
9.426779e-02
9.780012e-02
1.012715e-01
1.046868e-01
1.080504e-01
1.113666e-01
1.146394e-01
1.178722e-01
1.210676e-01
1.242278e-01
1.273541e-01
1.304470e-01
1.335062e-01
1.365312e-01
1.395220e-01
1.424792e-01
1.454039e-01
1.482987e-01
1.511664e-01
1.540110e-01
1.568369e-01
1.596488e-01
1.624513e-01
1.652492e-01
1.680474e-01
1.708507e-01
1.736633e-01
1.764886e-01
1.793291e-01
1.821865e-01
1.850617e-01
1.879552e-01
1.908664e-01
1.937940e-01
1.967361e-01
1.996902e-01
2.026534e-01
2.056222e-01
2.085928e-01
2.115611e-01
2.145232e-01
2.174745e-01
2.204105e-01
2.233270e-01
2.262198e-01
2.290857e-01
2.319219e-01
2.347264e-01
2.374975e-01
2.402339e-01
2.429347e-01
2.455992e-01
2.482263e-01
2.508143e-01
2.533609e-01
2.558633e-01
2.583183e-01
2.607220e-01
2.630704e-01
2.653596e-01
2.675859e-01
2.697464e-01
2.718388e-01
2.738615e-01
2.758136e-01
2.776947e-01
2.795049e-01
2.812449e-01
2.829160e-01
2.845208e-01
2.860628e-01
2.875458e-01
2.889737e-01
2.903497e-01
2.916758e-01
2.929524e-01
2.941779e-01
2.953488e-01
2.964599e-01
2.975046e-01
2.984752e-01
2.993634e-01
3.001606e-01
3.008580e-01
3.014478e-01
3.019236e-01
3.022804e-01
3.025151e-01
3.026270e-01
3.026184e-01
3.024954e-01
3.022673e-01
3.019468e-01
3.015491e-01
3.010906e-01
3.005880e-01
3.000569e-01
2.995115e-01
2.989638e-01
2.984230e-01
2.978960e-01
2.973873e-01
2.968993e-01
2.964333e-01
2.959894e-01
2.955676e-01
2.951679e-01
2.947915e-01
2.944400e-01
2.941158e-01
2.938220e-01
2.935617e-01
2.933384e-01
2.931550e-01
2.930142e-01
2.929181e-01
2.928684e-01
2.928663e-01
2.929128e-01
2.930084e-01
2.931535e-01
2.933489e-01
2.935961e-01
2.938975e-01
2.942567e-01
2.946784e-01
2.951682e-01
2.957321e-01
2.963756e-01
2.971032e-01
2.979176e-01
2.988205e-01
2.998121e-01
3.008917e-01
3.020578e-01
3.033082e-01
3.046410e-01
3.060542e-01
3.075457e-01
3.091130e-01
3.107525e-01
3.124593e-01
3.142272e-01
3.160485e-01
3.179153e-01
3.198189e-01
3.217521e-01
3.237084e-01
3.256835e-01
3.276740e-01
3.296780e-01
3.316938e-01
3.337202e-01
3.357556e-01
3.377980e-01
3.398450e-01
3.418942e-01
3.439439e-01
3.459941e-01
3.480465e-01
3.501042e-01
3.521721e-01
3.542564e-01
3.563640e-01
3.585019e-01
3.606770e-01
3.628948e-01
3.651604e-01
3.674774e-01
3.698492e-01
3.722778e-01
3.747640e-01
3.773069e-01
3.799041e-01
