EVENT_NAME: EMILIA_2ND_SHOCK
EVENT_ID: IT-2012-0011
EVENT_DATE_YYYYMMDD: 20120529
EVENT_TIME_HHMMSS: 070002
EVENT_LATITUDE_DEGREE: 44.8417
EVENT_LONGITUDE_DEGREE: 11.0657
EVENT_DEPTH_KM: 8.1
HYPOCENTER_REFERENCE: INGV-CNT_Seismic_Bulletin
MAGNITUDE_W: 6.0
MAGNITUDE_W_REFERENCE: RCMT-INGV
MAGNITUDE_L: 5.8
MAGNITUDE_L_REFERENCE: INGV-CNT_Seismic_Bulletin
FOCAL_MECHANISM: TF
NETWORK: IT
STATION_CODE: CAS0
STATION_NAME: CASTELMASSA
STATION_LATITUDE_DEGREE: 45.025000
STATION_LONGITUDE_DEGREE: 11.311000
STATION_ELEVATION_M: 65
LOCATION: 
SENSOR_DEPTH_M: 0.0
VS30_M/S: 
SITE_CLASSIFICATION_EC8: C*
MORPHOLOGIC_CLASSIFICATION: 
EPICENTRAL_DISTANCE_KM: 28.1
EARTHQUAKE_BACKAZIMUTH_DEGREE: 223.6
DATE_TIME_FIRST_SAMPLE_YYYYMMDD_HHMMSS: 20120529_070003.000
DATE_TIME_FIRST_SAMPLE_PRECISION: seconds
SAMPLING_INTERVAL_S: 0.005000
NDATA: 29001
DURATION_S: 145.005
STREAM: HNZ
UNITS: cm/s^2
INSTRUMENT: sensor = Episensor FBA ES-T [Kinemetrics] | digitizer = Etna [Kinemetrics]
INSTRUMENT_ANALOG/DIGITAL: D
INSTRUMENTAL_FREQUENCY_HZ: 
INSTRUMENTAL_DAMPING: 
FULL_SCALE_G: 
N_BIT_DIGITAL_CONVERTER: 18
PGA_CM/S^2: 29.680137
TIME_PGA_S: 12.840000
BASELINE_CORRECTION: BASELINE REMOVED
FILTER_TYPE: BUTTERWORTH
FILTER_ORDER: 2
LOW_CUT_FREQUENCY_HZ: 0.060
HIGH_CUT_FREQUENCY_HZ: 35.000
LATE/NORMAL_TRIGGERED: NT
DATABASE_VERSION: DYNA 1.0
HEADER_FORMAT: DYNA 1.2
DATA_TYPE: ACCELERATION
PROCESSING: manual (Paolucci et al., 2011)
DATA_TIMESTAMP_YYYYMMDD_HHMMSS: 
DATA_LICENSE: CC-BY3_0-IT (http://creativecommons.org/licenses/by/3.0/deed.en)
DATA_CITATION: ESM working group (2015), European Strong-Motion database, version 0.1, Network Activity 3: Networking acceleration networks and SM data users. Project NERA (www.nera-eu.org)
DATA_CREATOR: ESM working group
ORIGINAL_DATA_MEDIATOR_CITATION: Ufficio Rischio Sismico e Vulcanico del Dipartimento della Protezione Civile (http://www.protezionecivile.gov.it/)
ORIGINAL_DATA_MEDIATOR: Rete Accelerometrica Nazionale - RAN Download (http://www.mot1.it/randownload/)
ORIGINAL_DATA_CREATOR_CITATION: Italian Strong Motion Network, Italian Civil Protection Department http://www.protezionecivile.gov.it
ORIGINAL_DATA_CREATOR: network: IT (Italian Strong Motion Network); owner: Dipartimento Della Protezione Civile
USER1: 
USER2: 
USER3: 
USER4: 
USER5: 
[...]
-0.290515
-0.550695
-0.623590
-0.378218
0.080124
0.449200
0.468410
0.162659
-0.180622
-0.321300
-0.293379
-0.277648
-0.345865
-0.412284
-0.381975
-0.274195
-0.199137
-0.237110
-0.356967
-0.469291
-0.537795
-0.575794
-0.536901
-0.312217
0.100175
0.487322
0.582383
0.355364
0.095702
0.152846
0.579697
1.058609
1.190928
0.838983
0.213080
-0.307446
-0.441276
-0.165781
0.317489
0.734451
0.892750
0.790361
0.601336
0.487770
0.423010
0.258470
-0.056950
-0.375267
-0.465034
-0.239324
0.121153
0.315272
0.209129
-0.048575
-0.173486
0.009960
0.396452
0.647846
0.505740
0.088873
-0.182043
0.032039
0.696132
1.439641
1.842613
1.731244
1.251769
0.678323
0.178596
-0.218933
-0.488211
-0.527413
-0.253323
0.243807
0.671261
0.706479
0.252111
-0.454202
-0.988639
-1.026712
-0.536001
0.227465
0.848880
0.944606
0.402939
-0.459355
-1.062909
-1.013070
-0.394609
0.384200
0.960519
1.199179
1.114215
0.733088
0.098167
-0.618855
-1.126954
-1.230224
-0.972508
-0.525276
-0.014702
0.504435
0.974287
1.272994
1.243766
0.843863
0.275680
-0.096839
-0.013931
0.456011
0.932382
1.024174
0.664497
0.110722
-0.350344
-0.627004
-0.803691
-0.954676
-0.994326
-0.782985
-0.377662
-0.037913
0.077956
0.138319
0.484065
1.219027
1.948783
2.014153
1.113798
-0.299580
-1.323172
-1.347777
-0.555743
0.254891
0.365802
-0.263604
-1.032474
-1.283884
-0.863618
-0.194610
0.134084
-0.103666
-0.580058
-0.712489
-0.136757
1.028805
2.216576
2.703151
2.084339
0.626921
-0.854973
-1.566145
-1.282718
-0.429264
0.339672
0.625702
0.439902
0.041793
-0.269769
-0.294644
-0.027842
0.339175
0.583030
0.647678
0.650656
0.703073
0.780056
0.776857
0.667706
0.579539
0.659849
0.881125
1.038945
0.945961
0.608079
0.228425
0.021456
-0.016688
-0.127322
-0.520069
-1.084976
-1.414183
-1.160967
-0.409661
0.348843
0.647378
0.453020
0.174373
0.272177
0.826890
1.445730
1.578472
0.979451
-0.053801
-0.903405
-1.168681
-0.993514
-0.828225
-0.917748
-1.106859
-1.119247
-0.897613
-0.605822
-0.392427
-0.264305
-0.156926
-0.020112
0.147048
0.209169
-0.133688
-1.049160
-2.161490
-2.653279
-1.987552
-0.517236
0.744238
1.008975
0.309355
-0.785644
-1.822814
-2.653085
-3.139251
-2.994352
-2.021682
-0.440972
1.082381
1.790275
1.349525
0.113584
-1.147333
-1.825661
-1.842392
-1.503814
-1.089827
-0.667937
-0.238900
0.108495
0.217522
-0.023964
-0.539578
-0.964307
-0.804143
0.084132
1.136468
1.421537
0.521281
-0.951501
-1.822210
-1.414152
-0.173623
0.743801
0.530978
-0.545110
-1.419048
-1.236961
-0.120110
1.000355
1.217998
0.360156
-0.983625
-2.012567
-2.276559
-1.841664
-1.111994
-0.528767
-0.313248
-0.407627
-0.651118
-0.946777
-1.196567
-1.223916
-0.959159
-0.643689
-0.651419
-1.038478
-1.371724
-1.141384
-0.349368
0.436634
0.668718
0.349605
-0.108047
-0.429603
-0.707037
-1.118280
-1.592855
-1.828003
-1.606412
-1.073741
-0.706489
-0.983521
-1.975275
-3.148725
-3.628948
-2.802912
-0.812932
1.430839
2.766622
2.518021
0.929470
-1.007857
-2.204946
-2.161082
-1.194511
-0.081715
0.490644
0.219374
-0.764237
-1.922352
-2.539522
-2.189918
-1.019760
0.421296
1.495075
1.714680
1.020658
-0.068693
-0.786874
-0.730352
-0.128953
0.466131
0.726537
0.780917
0.926319
1.241007
1.614963
1.967384
2.136744
1.676960
0.124955
-2.412582
-5.018445
-6.393085
-5.720239
-3.402986
-1.022790
-0.297048
-1.712146
-4.021532
-5.167723
-3.950927
-1.070445
1.435521
1.963153
0.655030
-0.978003
-1.456512
-0.284229
2.024774
4.440276
6.029276
6.372379
5.529383
3.718237
1.194422
-1.558332
-3.787321
-4.902309
-4.960920
-4.509716
-3.852277
-2.708869
-0.848476
1.098366
1.863366
0.732913
-1.629434
-3.643136
-4.047083
-2.750332
-0.675363
1.088422
1.964669
1.910750
1.139243
0.019063
-0.971036
-1.462749
-1.377313
-0.853737
-0.089302
0.740097
1.501985
2.088968
2.417299
2.517112
2.552983
2.610830
2.511716
1.981201
0.959283
-0.371463
-1.757878
-2.906927
-3.425398
-2.945911
-1.439048
0.571037
2.191254
2.745669
2.252971
1.259853
0.234651
-0.749757
-1.751098
-2.550328
-2.686386
-1.982927
-0.945294
-0.427307
-0.811028
-1.555187
-1.576373
-0.154273
2.297027
4.235435
4.042279
1.461310
-1.854417
-3.367211
-1.659529
2.175049
5.220882
5.161135
2.236363
-1.063284
-2.280019
-1.189489
0.201470
-0.082112
-1.855221
-3.025922
-1.801242
1.521463
4.828919
5.998087
4.416481
1.111325
-2.173691
-4.081396
-4.282341
-3.303376
-1.713775
0.434668
3.173684
5.808729
7.052201
6.224742
4.152175
2.560011
2.454841
3.217713
3.354483
2.021610
-0.176787
-1.698902
-1.326058
0.900980
3.808698
6.020391
6.765559
6.019245
4.250201
2.208912
0.651298
-0.148024
-0.649426
-1.548143
-2.849456
-3.638983
-3.063451
-1.443408
-0.100976
-0.070449
-1.123747
-1.961035
-1.247876
1.315397
4.660842
7.055739
7.365455
5.887094
3.981242
2.743535
2.049984
1.035591
-0.625750
-2.167468
-2.403888
-0.827032
1.874909
4.292004
5.361369
5.101496
4.389158
4.046287
4.107751
3.934163
2.985458
1.393588
-0.212184
-1.221428
-1.250942
-0.084926
2.241244
5.143475
7.323732
7.242693
4.233219
-0.671364
-5.097471
-6.727173
-4.790417
-0.586432
3.525315
5.901879
6.484244
6.146638
5.619885
5.060125
4.268910
3.094817
1.594022
-0.085611
-1.686176
-2.676001
-2.519386
-1.307025
0.103813
0.665801
-0.087554
-1.542660
-2.262823
-1.150523
1.452486
3.882077
4.401333
2.568703
-0.339181
-2.357289
-2.474035
-1.251977
0.026691
0.608439
0.801033
1.455908
2.867673
4.284508
4.692362
3.891764
2.581615
1.545385
0.943438
0.377656
-0.427408
-1.133861
-1.081671
0.034761
1.865065
3.612351
4.427077
3.789925
1.825178
-0.658040
-2.565344
-3.113419
-2.225073
-0.561713
0.841501
1.186824
0.309763
-1.415691
-3.399354
-5.039205
-5.813920
-5.433766
-4.029984
-2.184402
-0.698060
-0.189503
-0.746734
-1.894851
-2.879736
-2.974263
-1.697846
0.911590
4.076246
6.495976
7.103074
5.821437
3.651643
1.987241
1.667791
2.410848
3.085155
2.769369
1.745234
1.341698
2.613908
5.200964
7.495635
7.791210
5.387009
1.045810
-3.429326
-6.348429
-7.200563
-6.810514
-6.580683
-7.385572
-8.844541
-9.572565
-8.279549
-4.863349
-0.688307
2.235457
2.681145
1.056526
-1.076906
-2.242956
-1.960261
-0.859412
-0.097026
-0.413770
-1.582739
-2.829262
-3.742500
-4.624053
-5.908740
-7.312209
-7.700499
-6.027772
-2.500526
1.311359
3.628748
3.761423
2.492255
1.437949
1.814308
3.423282
4.873614
4.973961
3.809083
2.356989
1.270603
0.294690
-1.201025
-3.335231
-5.348692
-6.096883
-5.016775
-2.644238
-0.240823
1.094723
1.257864
1.196446
1.859697
3.132480
4.091400
4.087980
3.227662
1.991699
0.707975
-0.587442
-1.839925
-2.755116
-3.060514
-2.820774
-2.513363
-2.913633
-4.471108
-6.480533
-7.277047
-5.572076
-1.544521
3.215043
6.633997
7.367661
5.627255
3.004291
1.338188
1.319084
1.844376
0.992015
-2.127811
-6.616699
-10.636566
-12.665085
-12.222917
-9.851417
-6.640561
-3.863668
-2.613652
-3.142239
-4.518546
-5.216270
-4.139348
-1.235389
2.600063
6.138125
8.446713
9.096578
8.233012
6.687076
5.462062
4.845895
4.422783
3.797012
2.815448
1.370453
-0.554436
-2.738210
-4.630439
-5.318881
-3.993484
-0.813671
2.864053
5.342942
5.727382
4.378862
2.347480
0.392534
-1.313010
-2.787331
-4.068865
-5.307061
-6.627861
-7.901942
-8.610425
-7.957559
-5.558355
-2.217070
0.364543
0.973404
0.021565
-0.648670
0.796333
4.513933
8.499033
9.981836
7.681054
2.956952
-1.242431
-2.908437
-2.610646
-2.561222
-4.307201
-7.411442
-9.907769
-9.960699
-7.485646
-4.136377
-1.600877
-0.219388
0.703021
1.743704
2.753278
3.109647
2.374172
0.728682
-1.092358
-2.112173
-1.561163
0.505656
3.075433
4.881633
5.111113
3.567849
0.659841
-2.626352
-4.946286
-5.117200
-2.918612
0.359424
2.530828
2.194512
-0.048901
-2.096951
-2.108925
0.103504
3.233710
5.663973
6.392188
5.313478
3.042435
0.472242
-1.573317
-2.612816
-2.829137
-2.907169
-3.286242
-3.760476
-3.918644
-3.831899
-4.165411
-5.448755
-7.191725
-7.991901
-6.763568
-3.724613
-0.094559
2.895790
4.722334
5.751447
6.813909
8.326284
9.688441
9.599715
7.100714
2.491569
-2.632847
-6.331483
-7.558205
-6.670412
-4.779659
-2.657881
-0.381521
2.036329
4.003178
4.552786
3.217564
0.758650
-1.047752
-0.619186
2.250502
6.222372
9.257262
9.866007
7.935629
4.476040
0.677407
-2.608654
-4.689257
-4.929860
-3.169175
-0.145435
2.698436
4.083725
3.778429
2.604328
1.583044
1.162451
1.108527
0.898135
0.216364
-0.756562
-1.411637
-1.131538
0.167115
1.851932
2.980700
2.922753
1.664772
-0.341343
-2.546857
-4.545621
-6.070745
-6.999115
-7.425347
-7.458721
-6.883408
-5.316540
-2.722885
0.462935
3.668897
6.476349
8.620732
9.759273
9.337500
6.945733
2.931297
-1.452409
-4.633675
-5.588323
-4.281494
-1.497300
1.549309
3.623797
3.947345
2.569697
0.404939
-1.289003
-1.840507
-1.637038
-1.594380
-2.259258
-3.459443
-4.669474
-5.583946
-6.347456
-7.319838
-8.641743
-9.897139
-10.053111
-7.981641
-3.549170
1.889870
6.515067
9.422225
10.788135
11.034827
10.148782
7.778654
4.002454
-0.087195
-2.955348
-3.951790
-3.805820
-3.725795
-4.147995
-4.308556
-2.994437
0.171605
4.110806
6.949583
7.369929
5.421168
2.253169
-0.650559
-2.142753
-1.903553
-0.517274
1.149694
2.776062
4.714014
7.261167
9.915837
11.621385
11.844848
11.027665
9.783414
8.071679
5.352402
1.377259
-3.073834
-6.183277
-6.183675
-2.762872
2.591332
7.643782
10.816536
11.765900
10.972860
9.078863
6.620002
4.100343
1.968660
0.446074
-0.560299
-1.450120
-2.726957
-4.485495
-6.155030
-6.981733
-6.775322
-6.245729
-6.525950
-7.932727
-9.177362
-8.310841
-4.620375
0.601476
5.123074
7.431834
7.454991
6.042327
4.099633
2.245406
0.922820
0.360897
0.384915
0.588031
0.720926
0.832930
1.313080
2.772905
5.324134
7.903564
8.792973
6.991500
3.123835
-0.827043
-2.819710
-2.213817
-0.194256
1.275460
1.184552
0.346575
0.358079
1.700861
3.187900
3.150937
0.956585
-2.366005
-4.841766
-5.052756
-3.002671
0.306576
3.745091
6.408900
7.496385
6.342216
2.948389
-1.456976
-4.770902
-5.340380
-3.106357
0.355223
2.894433
3.293831
1.967798
0.178446
-1.284326
-2.699108
-4.928225
-8.213718
-11.363249
-12.461343
-10.629555
-6.996763
-3.837759
-2.698183
-3.187926
-3.482682
-2.092602
0.738856
3.380129
4.545881
4.568908
4.909235
6.583778
9.173931
11.214778
11.432074
9.719089
7.107635
4.831493
3.279546
1.747525
-0.703362
-4.036767
-6.985353
-8.142079
-7.263897
-5.465802
-4.266971
-4.444682
-5.582031
-6.594095
-6.755836
-6.311075
-6.142582
-6.877325
-8.331020
-9.832046
-10.933612
-11.580765
-11.681988
-10.867284
-8.778173
-5.477733
-1.546131
2.153383
4.799091
5.883151
5.455223
4.234306
3.315964
3.499791
4.757027
6.293231
7.103599
6.648868
5.328654
4.364716
4.929911
7.114555
9.693415
11.028992
10.378149
8.373244
6.236337
4.658881
3.490545
2.242519
0.629679
-1.269973
-3.101537
-4.342655
-4.418951
-2.964381
-0.215263
2.797341
4.623226
4.247711
1.775453
-1.694236
-4.947012
-7.529209
-9.781122
-11.965525
-13.475934
-13.106563
-10.132409
-5.073010
0.517299
4.937716
7.239805
7.642153
7.230362
7.086272
7.442286
7.492735
6.015329
2.398888
-2.675203
-7.561899
-10.763752
-11.666866
-10.369164
-7.297402
-3.108892
1.310433
4.973507
7.137068
7.596399
6.545838
4.259188
1.066967
-2.424479
-5.197026
-6.030272
-4.184117
-0.188992
4.032652
6.082497
4.538970
-0.132855
-5.976032
-10.881856
-13.832575
-15.228177
-16.111788
-17.045218
-17.739407
-17.569731
-16.245132
-14.098037
-11.808134
-9.708168
-7.368672
-4.042944
0.431290
5.232849
9.060198
11.065184
11.383331
10.873870
10.491783
10.747707
11.401066
11.744786
11.400645
10.641664
9.908438
9.336523
8.668517
7.318420
4.737467
1.036658
-2.812037
-5.475526
-6.057584
-4.718669
-2.644273
-1.218711
-1.106441
-2.030064
-3.237260
-4.183939
-4.927513
-5.925434
-7.490737
-9.443571
-11.172353
-11.971838
-11.424939
-9.545388
-6.559606
-2.700020
1.541540
5.071331
6.603628
5.733024
3.508969
1.729296
1.483008
2.225386
2.321524
0.703407
-2.011495
-4.085468
-4.166251
-2.241501
0.646662
3.473399
5.933227
8.132020
9.916011
10.751054
10.156388
8.093630
4.956447
1.338903
-2.091927
-4.701862
-6.196984
-6.876066
-7.475584
-8.677223
-10.562233
-12.350215
-12.743976
-10.872569
-7.135915
-3.006513
0.113156
1.800939
2.547516
3.028044
3.477016
3.714124
3.667664
3.649146
4.042106
4.997106
6.528893
8.524124
10.551747
11.960667
12.056125
10.174203
6.238743
1.366969
-2.707468
-4.891431
-5.152896
-3.981951
-1.763512
1.415417
5.379197
9.228446
11.334016
10.286746
6.003780
-0.013745
-5.577365
-9.200368
-10.867538
-11.691395
-12.818294
-14.382660
-15.392811
-14.652522
-11.729747
-7.151545
-1.994875
2.594606
5.724111
6.994015
6.702102
5.783581
5.304523
5.748378
6.649396
6.994415
6.017415
3.539631
-0.177549
-4.625897
-9.382509
-14.309958
-19.019625
-22.359257
-22.937225
-19.973196
-13.580306
-4.765798
4.738169
13.170029
19.551023
23.866074
26.687016
28.610109
29.680138
29.364082
27.247049
23.402756
18.069618
11.634676
5.046539
-0.321506
-3.464270
-4.379722
-4.153593
-4.500584
-6.647883
-10.191125
-13.326661
-14.430891
-13.246647
-10.734504
-8.173838
-6.306179
-5.026642
-3.808501
-2.377454
-0.955273
-0.006495
0.127385
-0.692413
-2.564901
-5.354145
-8.194753
-9.677507
-8.829648
-5.831390
-1.857525
1.667409
3.903525
5.054503
6.112112
7.989659
10.631372
12.832540
13.182152
11.488022
9.066408
7.409941
6.866272
6.633632
5.570910
3.070881
-0.358239
-3.397430
-5.052971
-5.436280
-5.515927
-6.361554
-8.462425
-11.339977
-13.673727
-14.042968
-11.956690
-8.415123
-5.356010
-4.274031
-5.168877
-6.696539
-7.280755
-6.216585
-4.004496
-1.794097
-0.391808
0.396081
1.542431
3.910512
7.472379
11.259144
14.021701
14.998548
14.164361
11.888023
8.549833
4.613186
0.840158
-1.948337
-3.398804
-3.854252
-4.113929
-4.828936
-5.918708
-6.700829
-6.741057
-6.473417
-6.945161
-8.980804
-12.468422
-16.303432
-19.002216
-19.494991
-17.590076
-13.966839
-9.831608
-6.393891
-4.322950
-3.487111
-3.248900
-3.092781
-2.936768
-2.895415
-2.954651
-2.891894
-2.279231
-0.507106
2.915039
7.801021
13.007974
16.833061
17.899366
15.965861
12.045001
7.671642
3.934630
0.992774
-1.704192
-4.601262
-7.208489
-8.208148
-6.541027
-2.370871
2.755311
6.494158
6.983163
4.167396
-0.113524
-3.484325
-4.487663
-2.996318
0.252593
4.242555
7.946660
10.479649
11.359949
10.536470
8.099979
4.268340
-0.289278
-4.361319
-6.486606
-5.563656
-1.727395
3.273797
6.962876
7.637985
5.250404
1.263219
-2.226579
-3.663931
-2.834121
-0.746709
1.316252
2.945923
4.839200
7.627087
10.618396
12.062742
10.701040
7.025525
2.973981
0.239724
-1.126480
-2.427426
-4.854058
-8.387769
-11.875865
-13.963855
-14.070597
-12.737207
-11.194611
-10.495532
-10.811408
-11.426026
-11.413920
-10.372545
-8.650107
-7.021104
-6.075049
-5.746379
-5.380817
-4.326575
-2.536123
-0.605579
0.737952
1.158221
0.864465
0.440729
0.523857
1.423229
2.817269
3.869852
3.851274
2.732217
1.250181
0.463856
1.116445
3.193245
5.929184
8.290339
9.619250
9.893799
9.440288
8.535775
7.279013
5.712901
4.035608
2.668885
1.990142
2.024665
2.554095
3.354197
4.122164
4.450771
4.133276
3.372216
2.612208
2.190961
2.080151
1.931583
1.428565
0.610835
-0.151012
-0.522845
-0.639738
-1.172155
-2.759329
-5.259224
-7.636821
-8.635240
-7.598076
-4.815688
-1.246230
2.067746
4.395083
5.304768
4.497627
1.859586
-2.273866
-6.998816
-11.124340
-13.725703
-14.497754
-13.610168
-11.322208
-7.770340
-3.080609
2.291191
7.328207
10.718953
11.561649
9.930621
6.824970
3.563371
1.058060
-0.558352
-1.691080
-2.681856
-3.462220
-3.695942
-3.174563
-2.232858
-1.802282
-2.779836
-5.211376
-8.058314
-9.685404
-8.749614
-4.942599
0.882502
7.130905
12.088398
14.551373
14.324213
12.353659
10.275644
9.457601
10.074410
10.947790
10.523347
8.238687
4.893673
1.833353
-0.011500
-0.607709
-0.759793
-1.361554
-2.459482
-3.134929
-2.177040
1.125265
6.315722
11.669111
15.165355
15.856986
14.300336
11.805697
9.322448
6.855654
3.967631
0.760239
-2.066051
-4.083954
-5.613755
-7.350435
-9.621273
-11.631391
-11.584114
-8.389800
-3.220470
1.250903
2.925300
1.453879
-1.836353
-4.787727
-5.777470
-4.751240
-3.032686
-2.163212
-2.668258
-3.708265
-4.083928
-3.503003
-2.568609
-1.824790
-1.238948
-0.369269
1.175889
3.171613
4.711966
5.009552
4.141434
2.922366
2.376542
3.376875
6.278654
10.493108
14.505087
16.619576
15.890948
12.546786
7.857140
3.497810
0.427547
-1.876617
-4.779237
-8.921801
-13.404107
-16.433371
-16.632280
-13.969710
-9.870679
-6.529041
-5.752591
-7.904981
-11.593536
-14.442649
-14.502055
-11.278105
-5.784342
0.127643
4.669383
6.970824
7.466847
7.393413
7.690705
8.220354
7.875792
5.422933
0.491162
-5.967891
-12.126171
-16.266899
-17.575373
-16.333370
-13.561448
-10.404401
-7.639535
-5.499425
-3.773202
-2.107362
-0.364275
1.241197
2.378223
2.986292
3.428205
4.222614
5.592206
7.228667
8.351348
8.083379
6.148238
3.245737
0.548292
-1.120323
-1.705279
-1.919869
-2.712190
-4.266326
-5.625980
-5.508911
-3.331020
0.379643
4.171582
6.510512
6.956803
6.553746
6.905466
8.849347
11.761631
13.890581
13.562748
10.296108
5.001852
-0.437577
-3.968239
-4.513780
-2.535114
0.614709
3.603602
5.568990
6.323749
6.233654
5.630483
4.376815
2.063832
-1.516831
-6.086992
-10.901082
-14.959138
-17.223267
-16.950417
-14.161971
-9.800349
-5.400454
-2.420642
-1.400169
-1.641318
-1.949283
-1.681196
-1.048661
-0.612481
-0.631950
-0.820567
-0.583437
0.476308
2.139597
3.734687
4.830773
5.596998
6.431788
7.452738
8.264480
8.056439
6.222805
3.056919
-0.417879
-3.187326
-4.564608
-4.202645
-2.264184
0.602940
3.697985
6.570240
8.870740
10.150036
10.047458
8.672527
6.687775
5.066058
4.670172
5.650915
7.139295
7.854578
7.083930
4.952919
2.058165
-0.865252
-3.202227
-4.711053
-5.557961
-6.188969
-7.171558
-8.850281
-10.853252
-11.993860
-11.002656
-7.559687
-2.653372
1.931287
4.583369
4.741280
3.051585
0.778411
-0.939568
-1.614811
-1.600972
-1.724905
-2.537318
-3.872957
-5.087937
-5.686403
-5.697595
-5.459263
-5.231564
-5.030604
-4.597406
-3.651060
-2.290769
-0.831840
0.638887
2.133681
3.479419
4.486314
5.143923
5.501148
5.488960
4.918739
3.688098
1.999528
0.270729
-1.103768
-1.809666
-1.689684
-0.913134
0.080957
0.723017
0.374407
-1.225458
-3.453510
-5.226218
-5.878502
-5.447822
-4.504006
-3.811613
-3.705997
-3.694080
-2.917272
-1.009947
1.497043
3.445773
3.861401
