EVENT_NAME: EMILIA_2ND_SHOCK
EVENT_ID: IT-2012-0011
EVENT_DATE_YYYYMMDD: 20120529
EVENT_TIME_HHMMSS: 070002
EVENT_LATITUDE_DEGREE: 44.8417
EVENT_LONGITUDE_DEGREE: 11.0657
EVENT_DEPTH_KM: 8.1
HYPOCENTER_REFERENCE: INGV-CNT_Seismic_Bulletin
MAGNITUDE_W: 6.0
MAGNITUDE_W_REFERENCE: RCMT-INGV
MAGNITUDE_L: 5.8
MAGNITUDE_L_REFERENCE: INGV-CNT_Seismic_Bulletin
FOCAL_MECHANISM: TF
NETWORK: IT
STATION_CODE: FIN0
STATION_NAME: FINALE EMILIA
STATION_LATITUDE_DEGREE: 44.829700
STATION_LONGITUDE_DEGREE: 11.286700
STATION_ELEVATION_M: 61
LOCATION: 
SENSOR_DEPTH_M: 0.0
VS30_M/S: 
SITE_CLASSIFICATION_EC8: C*
MORPHOLOGIC_CLASSIFICATION: 
EPICENTRAL_DISTANCE_KM: 17.5
EARTHQUAKE_BACKAZIMUTH_DEGREE: 274.4
DATE_TIME_FIRST_SAMPLE_YYYYMMDD_HHMMSS: 20120529_065953.000
DATE_TIME_FIRST_SAMPLE_PRECISION: seconds
SAMPLING_INTERVAL_S: 0.005000
NDATA: 23800
DURATION_S: 119.000
STREAM: HNZ
UNITS: cm
INSTRUMENT: sensor = Episensor FBA ES-T [Kinemetrics] | digitizer = Etna [Kinemetrics]
INSTRUMENT_ANALOG/DIGITAL: D
INSTRUMENTAL_FREQUENCY_HZ: 
INSTRUMENTAL_DAMPING: 
FULL_SCALE_G: 
N_BIT_DIGITAL_CONVERTER: 18
PGD_CM: 0.896266
TIME_PGD_S: 33.705000
BASELINE_CORRECTION: BASELINE REMOVED
FILTER_TYPE: BUTTERWORTH
FILTER_ORDER: 2
LOW_CUT_FREQUENCY_HZ: 0.050
HIGH_CUT_FREQUENCY_HZ: 30.000
LATE/NORMAL_TRIGGERED: NT
DATABASE_VERSION: DYNA 1.0
HEADER_FORMAT: DYNA 1.2
DATA_TYPE: DISPLACEMENT
PROCESSING: manual (Paolucci et al., 2011)
DATA_TIMESTAMP_YYYYMMDD_HHMMSS: 20141204_102913.574
DATA_LICENSE: CC-BY3_0-IT (http://creativecommons.org/licenses/by/3.0/deed.en)
DATA_CITATION: ESM working group (2015), European Strong-Motion database, version 0.1, Network Activity 3: Networking acceleration networks and SM data users. Project NERA (www.nera-eu.org)
DATA_CREATOR: ESM working group
ORIGINAL_DATA_MEDIATOR_CITATION: Ufficio Rischio Sismico e Vulcanico del Dipartimento della Protezione Civile (http://www.protezionecivile.gov.it/)
ORIGINAL_DATA_MEDIATOR: Rete Accelerometrica Nazionale - RAN Download (http://www.mot1.it/randownload/)
ORIGINAL_DATA_CREATOR_CITATION: Italian Strong Motion Network, Italian Civil Protection Department http://www.protezionecivile.gov.it
ORIGINAL_DATA_CREATOR: network: IT (Italian Strong Motion Network); owner: Dipartimento Della Protezione Civile
USER1: /home/dyna/processing-itaca/processing.py /var/www/processing/tmp/fpacor//IT.FIN0..HNE.D.20120529.070003.X.ACC.ASC /var/www/processing/tmp/fpacor//IT.FIN0..HNN.D.20120529.070003.X.ACC.ASC /var/www/processing/tmp/fpacor//IT.FIN0..HNZ.D.20120529.070003.X.ACC.ASC --tmp /var/www/processing/tmp/fpacor/ --le 0.050 --he 30.000 --ln 0.050 --hn 30.000 --lz 0.050 --hz 30.000 --fo 2 --ca -10 --cz 40 --ta 5 --tz 5 --mf 1 --rf 0 --tr NT
USER2: 
USER3: 
USER4: 
USER5: 
[...]
2.767203e-02
2.420114e-02
2.063116e-02
1.702182e-02
1.343441e-02
9.923424e-03
6.526481e-03
3.255526e-03
9.312407e-05
-3.003155e-03
-6.089101e-03
-9.219128e-03
-1.243310e-02
-1.574786e-02
-1.915556e-02
-2.262940e-02
-2.613480e-02
-2.964161e-02
-3.313291e-02
-3.660733e-02
-4.007392e-02
-4.354282e-02
-4.701692e-02
-5.048892e-02
-5.394364e-02
-5.736301e-02
-6.073107e-02
-6.403675e-02
-6.727383e-02
-7.043910e-02
-7.353038e-02
-7.654543e-02
-7.948152e-02
-8.233527e-02
-8.510271e-02
-8.778037e-02
-9.036750e-02
-9.286840e-02
-9.529369e-02
-9.766000e-02
-9.998844e-02
-1.023020e-01
-1.046221e-01
-1.069654e-01
-1.093402e-01
-1.117450e-01
-1.141687e-01
-1.165941e-01
-1.190044e-01
-1.213885e-01
-1.237433e-01
-1.260708e-01
-1.283756e-01
-1.306611e-01
-1.329257e-01
-1.351605e-01
-1.373498e-01
-1.394757e-01
-1.415243e-01
-1.434906e-01
-1.453812e-01
-1.472132e-01
-1.490115e-01
-1.508049e-01
-1.526213e-01
-1.544830e-01
-1.564035e-01
-1.583854e-01
-1.604180e-01
-1.624762e-01
-1.645214e-01
-1.665077e-01
-1.683932e-01
-1.701537e-01
-1.717933e-01
-1.733491e-01
-1.748865e-01
-1.764834e-01
-1.782095e-01
-1.801062e-01
-1.821748e-01
-1.843784e-01
-1.866570e-01
-1.889481e-01
-1.912063e-01
-1.934143e-01
-1.955827e-01
-1.977398e-01
-1.999177e-01
-2.021397e-01
-2.044117e-01
-2.067222e-01
-2.090484e-01
-2.113641e-01
-2.136453e-01
-2.158720e-01
-2.180281e-01
-2.201014e-01
-2.220856e-01
-2.239818e-01
-2.257983e-01
-2.275478e-01
-2.292434e-01
-2.308944e-01
-2.325028e-01
-2.340617e-01
-2.355554e-01
-2.369629e-01
-2.382629e-01
-2.394395e-01
-2.404838e-01
-2.413925e-01
-2.421645e-01
-2.427987e-01
-2.432941e-01
-2.436493e-01
-2.438606e-01
-2.439209e-01
-2.438184e-01
-2.435373e-01
-2.430604e-01
-2.423735e-01
-2.414709e-01
-2.403596e-01
-2.390617e-01
-2.376127e-01
-2.360569e-01
-2.344393e-01
-2.327952e-01
-2.311406e-01
-2.294679e-01
-2.277464e-01
-2.259306e-01
-2.239721e-01
-2.218340e-01
-2.195037e-01
-2.169994e-01
-2.143683e-01
-2.116767e-01
-2.089976e-01
-2.063983e-01
-2.039318e-01
-2.016313e-01
-1.995075e-01
-1.975497e-01
-1.957291e-01
-1.940052e-01
-1.923338e-01
-1.906757e-01
-1.890028e-01
-1.873016e-01
-1.855706e-01
-1.838143e-01
-1.820350e-01
-1.802281e-01
-1.783818e-01
-1.764809e-01
-1.745123e-01
-1.724670e-01
-1.703404e-01
-1.681311e-01
-1.658403e-01
-1.634725e-01
-1.610365e-01
-1.585459e-01
-1.560181e-01
-1.534716e-01
-1.509215e-01
-1.483777e-01
-1.458449e-01
-1.433262e-01
-1.408281e-01
-1.383646e-01
-1.359602e-01
-1.336500e-01
-1.314762e-01
-1.294817e-01
-1.277009e-01
-1.261494e-01
-1.248189e-01
-1.236779e-01
-1.226782e-01
-1.217630e-01
-1.208760e-01
-1.199698e-01
-1.190116e-01
-1.179849e-01
-1.168870e-01
-1.157232e-01
-1.145018e-01
-1.132308e-01
-1.119167e-01
-1.105617e-01
-1.091603e-01
-1.076981e-01
-1.061529e-01
-1.044997e-01
-1.027159e-01
-1.007868e-01
-9.870943e-02
-9.649519e-02
-9.416680e-02
-9.175102e-02
-8.926940e-02
-8.673195e-02
-8.413522e-02
-8.146290e-02
-7.868760e-02
-7.577417e-02
-7.268576e-02
-6.939165e-02
-6.587463e-02
-6.213645e-02
-5.819984e-02
-5.410534e-02
-4.990208e-02
-4.563515e-02
-4.133477e-02
-3.701129e-02
-3.265721e-02
-2.825485e-02
-2.378728e-02
-1.924874e-02
-1.464980e-02
-1.001393e-02
-5.366470e-03
-7.217440e-04
3.925162e-03
8.598671e-03
1.333564e-02
1.817379e-02
2.313924e-02
2.823687e-02
3.344713e-02
3.873043e-02
4.403697e-02
4.931784e-02
5.453459e-02
5.966623e-02
6.471312e-02
6.969586e-02
7.464882e-02
7.961047e-02
8.461363e-02
8.967825e-02
9.480812e-02
9.999170e-02
1.052070e-01
1.104293e-01
1.156387e-01
1.208251e-01
1.259880e-01
1.311318e-01
1.362603e-01
1.413722e-01
1.464583e-01
1.514999e-01
1.564701e-01
1.613390e-01
1.660802e-01
1.706760e-01
1.751175e-01
1.794040e-01
1.835421e-01
1.875480e-01
1.914473e-01
1.952722e-01
1.990564e-01
2.028296e-01
2.066142e-01
2.104231e-01
2.142610e-01
2.181270e-01
2.220206e-01
2.259474e-01
2.299218e-01
2.339651e-01
2.381012e-01
2.423523e-01
2.467370e-01
2.512693e-01
2.559556e-01
2.607924e-01
2.657636e-01
2.708407e-01
2.759851e-01
2.811527e-01
2.863004e-01
2.913944e-01
2.964157e-01
3.013621e-01
3.062473e-01
3.110978e-01
3.159479e-01
3.208338e-01
3.257876e-01
3.308330e-01
3.359808e-01
3.412260e-01
3.465454e-01
3.518991e-01
3.572354e-01
3.624992e-01
3.676423e-01
3.726334e-01
3.774647e-01
3.821542e-01
3.867415e-01
3.912794e-01
3.958229e-01
4.004180e-01
4.050923e-01
4.098498e-01
4.146718e-01
4.195244e-01
4.243686e-01
4.291696e-01
4.339056e-01
4.385730e-01
4.431860e-01
4.477714e-01
4.523585e-01
4.569695e-01
4.616132e-01
4.662831e-01
4.709613e-01
4.756230e-01
4.802435e-01
4.848042e-01
4.892969e-01
4.937231e-01
4.980882e-01
5.023948e-01
5.066381e-01
5.108057e-01
5.148808e-01
5.188483e-01
5.227015e-01
5.264464e-01
5.301017e-01
5.336920e-01
5.372367e-01
5.407419e-01
5.441968e-01
5.475762e-01
5.508469e-01
5.539748e-01
5.569341e-01
5.597134e-01
5.623186e-01
5.647709e-01
5.671006e-01
5.693392e-01
5.715119e-01
5.736321e-01
5.756995e-01
5.777001e-01
5.796103e-01
5.814027e-01
5.830531e-01
5.845462e-01
5.858777e-01
5.870526e-01
5.880826e-01
5.889821e-01
5.897644e-01
5.904386e-01
5.910081e-01
5.914716e-01
5.918266e-01
5.920724e-01
5.922120e-01
5.922514e-01
5.921993e-01
5.920642e-01
5.918517e-01
5.915615e-01
5.911851e-01
5.907062e-01
5.901041e-01
5.893613e-01
5.884710e-01
5.874400e-01
5.862853e-01
5.850272e-01
5.836816e-01
5.822562e-01
5.807494e-01
5.791514e-01
5.774484e-01
5.756262e-01
5.736724e-01
5.715776e-01
5.693368e-01
5.669496e-01
5.644183e-01
5.617445e-01
5.589270e-01
5.559629e-01
5.528490e-01
5.495822e-01
5.461587e-01
5.425737e-01
5.388201e-01
5.348888e-01
5.307691e-01
5.264526e-01
5.219378e-01
5.172337e-01
5.123606e-01
5.073476e-01
5.022271e-01
4.970282e-01
4.917717e-01
4.864685e-01
4.811196e-01
4.757183e-01
4.702517e-01
4.647038e-01
4.590582e-01
4.533008e-01
4.474233e-01
4.414268e-01
4.353227e-01
4.291309e-01
4.228735e-01
4.165696e-01
4.102306e-01
4.038571e-01
3.974373e-01
3.909493e-01
3.843653e-01
3.776567e-01
3.707972e-01
3.637638e-01
3.565388e-01
3.491131e-01
3.414898e-01
3.336857e-01
3.257302e-01
3.176614e-01
3.095212e-01
3.013477e-01
2.931676e-01
2.849919e-01
2.768163e-01
2.686269e-01
2.604073e-01
2.521450e-01
2.438364e-01
2.354881e-01
2.271142e-01
2.187310e-01
2.103523e-01
2.019893e-01
1.936516e-01
1.853475e-01
1.770827e-01
1.688617e-01
1.606910e-01
1.525809e-01
1.445444e-01
1.365936e-01
1.287357e-01
1.209696e-01
1.132841e-01
1.056582e-01
9.806707e-02
9.048989e-02
8.291666e-02
7.535059e-02
6.780727e-02
6.031103e-02
5.288841e-02
4.556061e-02
3.833886e-02
3.122472e-02
2.421347e-02
1.729824e-02
1.047310e-02
3.733257e-03
-2.928152e-03
-9.524707e-03
-1.607940e-02
-2.262269e-02
-2.918575e-02
-3.579161e-02
-4.244831e-02
-4.914726e-02
-5.586795e-02
-6.258652e-02
-6.928457e-02
-7.595467e-02
-8.260130e-02
-8.923749e-02
-9.587937e-02
-1.025404e-01
-1.092274e-01
-1.159387e-01
-1.226655e-01
-1.293935e-01
-1.361050e-01
-1.427810e-01
-1.494045e-01
-1.559649e-01
-1.624608e-01
-1.689002e-01
-1.752987e-01
-1.816759e-01
-1.880527e-01
-1.944478e-01
-2.008750e-01
-2.073431e-01
-2.138583e-01
-2.204280e-01
-2.270630e-01
-2.337762e-01
-2.405793e-01
-2.474807e-01
-2.544828e-01
-2.615797e-01
-2.687564e-01
-2.759901e-01
-2.832536e-01
-2.905178e-01
-2.977546e-01
-3.049393e-01
-3.120561e-01
-3.191005e-01
-3.260808e-01
-3.330130e-01
-3.399137e-01
-3.467915e-01
-3.536420e-01
-3.604497e-01
-3.671935e-01
-3.738551e-01
-3.804238e-01
-3.868985e-01
-3.932842e-01
-3.995880e-01
-4.058173e-01
-4.119804e-01
-4.180893e-01
-4.241599e-01
-4.302106e-01
-4.362603e-01
-4.423261e-01
-4.484209e-01
-4.545511e-01
-4.607166e-01
-4.669112e-01
-4.731247e-01
-4.793441e-01
-4.855549e-01
-4.917422e-01
-4.978905e-01
-5.039835e-01
-5.100034e-01
-5.159307e-01
-5.217448e-01
-5.274264e-01
-5.329604e-01
-5.383379e-01
-5.435571e-01
-5.486225e-01
-5.535436e-01
-5.583334e-01
-5.630063e-01
-5.675771e-01
-5.720600e-01
-5.764662e-01
-5.808012e-01
-5.850628e-01
-5.892430e-01
-5.933320e-01
-5.973229e-01
-6.012133e-01
-6.050072e-01
-6.087164e-01
-6.123599e-01
-6.159584e-01
-6.195265e-01
-6.230668e-01
-6.265702e-01
-6.300182e-01
-6.333870e-01
-6.366544e-01
-6.398063e-01
-6.428432e-01
-6.457795e-01
-6.486402e-01
-6.514557e-01
-6.542580e-01
-6.570760e-01
-6.599315e-01
-6.628352e-01
-6.657866e-01
-6.687753e-01
-6.717845e-01
-6.747953e-01
-6.777926e-01
-6.807698e-01
-6.837295e-01
-6.866803e-01
-6.896300e-01
-6.925792e-01
-6.955189e-01
-6.984309e-01
-7.012889e-01
-7.040615e-01
-7.067160e-01
-7.092244e-01
-7.115660e-01
-7.137287e-01
-7.157080e-01
-7.175073e-01
-7.191361e-01
-7.206078e-01
-7.219356e-01
-7.231295e-01
-7.241944e-01
-7.251303e-01
-7.259342e-01
-7.266019e-01
-7.271300e-01
-7.275167e-01
-7.277617e-01
-7.278670e-01
-7.278371e-01
-7.276783e-01
-7.273975e-01
-7.270007e-01
-7.264914e-01
-7.258698e-01
-7.251332e-01
-7.242781e-01
-7.233012e-01
-7.222006e-01
-7.209759e-01
-7.196280e-01
-7.181579e-01
-7.165662e-01
-7.148524e-01
-7.130163e-01
-7.110596e-01
-7.089875e-01
-7.068084e-01
-7.045340e-01
-7.021787e-01
-6.997579e-01
-6.972842e-01
-6.947652e-01
-6.922033e-01
-6.895958e-01
-6.869359e-01
-6.842132e-01
-6.814153e-01
-6.785318e-01
-6.755571e-01
-6.724920e-01
-6.693426e-01
-6.661177e-01
-6.628232e-01
-6.594596e-01
-6.560209e-01
-6.524984e-01
-6.488838e-01
-6.451726e-01
-6.413651e-01
-6.374679e-01
-6.334939e-01
-6.294605e-01
-6.253865e-01
-6.212906e-01
-6.171909e-01
-6.131038e-01
-6.090417e-01
-6.050097e-01
-6.010040e-01
-5.970133e-01
-5.930231e-01
-5.890188e-01
-5.849885e-01
-5.809228e-01
-5.768166e-01
-5.726695e-01
-5.684852e-01
-5.642677e-01
-5.600176e-01
-5.557291e-01
-5.513895e-01
-5.469814e-01
-5.424854e-01
-5.378842e-01
-5.331669e-01
-5.283340e-01
-5.233987e-01
-5.183828e-01
-5.133081e-01
-5.081866e-01
-5.030148e-01
-4.977725e-01
-4.924272e-01
-4.869420e-01
-4.812863e-01
-4.754443e-01
-4.694207e-01
-4.632390e-01
-4.569341e-01
-4.505415e-01
-4.440884e-01
-4.375871e-01
-4.310331e-01
-4.244066e-01
-4.176783e-01
-4.108193e-01
-4.038091e-01
-3.966417e-01
-3.893252e-01
-3.818786e-01
-3.743266e-01
-3.666933e-01
-3.589960e-01
-3.512400e-01
-3.434180e-01
-3.355117e-01
-3.274974e-01
-3.193513e-01
-3.110543e-01
-3.025950e-01
-2.939703e-01
-2.851834e-01
-2.762416e-01
-2.671541e-01
-2.579322e-01
-2.485890e-01
-2.391396e-01
-2.295999e-01
-2.199855e-01
-2.103085e-01
-2.005743e-01
-1.907793e-01
-1.809121e-01
-1.709568e-01
-1.608981e-01
-1.507250e-01
-1.404343e-01
-1.300298e-01
-1.195222e-01
-1.089278e-01
-9.826813e-02
-8.756738e-02
-7.684864e-02
-6.613194e-02
-5.543411e-02
-4.476930e-02
-3.414944e-02
-2.358531e-02
-1.308834e-02
-2.671778e-03
7.650249e-03
1.786552e-02
2.796718e-02
3.795661e-02
4.784505e-02
5.765283e-02
6.740578e-02
7.713014e-02
8.684781e-02
9.657329e-02
1.063118e-01
1.160586e-01
1.258005e-01
1.355197e-01
1.451991e-01
1.548278e-01
1.644060e-01
1.739480e-01
1.834820e-01
1.930463e-01
2.026833e-01
2.124321e-01
2.223218e-01
2.323663e-01
2.425620e-01
2.528886e-01
2.633130e-01
2.737935e-01
2.842857e-01
2.947487e-01
3.051488e-01
3.154623e-01
3.256759e-01
3.357865e-01
3.457981e-01
3.557188e-01
3.655569e-01
3.753181e-01
3.850052e-01
3.946179e-01
4.041551e-01
4.136166e-01
4.230058e-01
4.323306e-01
4.416026e-01
4.508361e-01
4.600464e-01
4.692473e-01
4.784484e-01
4.876525e-01
4.968551e-01
5.060465e-01
5.152160e-01
5.243569e-01
5.334679e-01
5.425516e-01
5.516115e-01
5.606483e-01
5.696559e-01
5.786192e-01
5.875149e-01
5.963164e-01
6.050021e-01
6.135608e-01
6.219942e-01
6.303136e-01
6.385336e-01
6.466641e-01
6.547031e-01
6.626332e-01
6.704260e-01
6.780497e-01
6.854795e-01
6.927032e-01
6.997235e-01
7.065557e-01
7.132235e-01
7.197536e-01
7.261699e-01
7.324894e-01
7.387187e-01
7.448533e-01
7.508777e-01
7.567691e-01
7.625021e-01
7.680562e-01
7.734210e-01
7.785996e-01
7.836081e-01
7.884726e-01
7.932244e-01
7.978939e-01
8.025073e-01
8.070833e-01
8.116315e-01
8.161513e-01
8.206328e-01
8.250585e-01
8.294074e-01
8.336601e-01
8.378050e-01
8.418418e-01
8.457812e-01
8.496384e-01
8.534237e-01
8.571338e-01
8.607500e-01
8.642401e-01
8.675667e-01
8.706955e-01
8.736032e-01
8.762817e-01
8.787371e-01
8.809856e-01
8.830477e-01
8.849430e-01
8.866880e-01
8.882938e-01
8.897644e-01
8.910957e-01
8.922770e-01
8.932953e-01
8.941416e-01
8.948157e-01
8.953275e-01
8.956974e-01
8.959526e-01
8.961213e-01
8.962240e-01
8.962659e-01
8.962335e-01
8.960976e-01
8.958195e-01
8.953596e-01
8.946848e-01
8.937748e-01
8.926243e-01
8.912425e-01
8.896487e-01
8.878667e-01
8.859191e-01
8.838231e-01
8.815890e-01
8.792215e-01
8.767205e-01
8.740817e-01
8.712976e-01
8.683586e-01
8.652560e-01
8.619835e-01
8.585372e-01
8.549182e-01
8.511349e-01
8.472057e-01
8.431583e-01
8.390270e-01
8.348463e-01
8.306465e-01
8.264495e-01
8.222668e-01
8.180990e-01
8.139354e-01
8.097569e-01
8.055416e-01
8.012697e-01
7.969273e-01
7.925081e-01
7.880138e-01
7.834523e-01
7.788317e-01
7.741529e-01
7.694032e-01
7.645545e-01
7.595667e-01
7.543964e-01
7.490082e-01
7.433823e-01
7.375193e-01
7.314385e-01
7.251748e-01
7.187718e-01
7.122720e-01
7.057059e-01
6.990849e-01
6.924003e-01
6.856290e-01
6.787418e-01
6.717123e-01
6.645238e-01
6.571726e-01
6.496656e-01
6.420148e-01
6.342297e-01
6.263128e-01
6.182603e-01
6.100666e-01
6.017285e-01
5.932490e-01
5.846383e-01
5.759118e-01
5.670873e-01
5.581807e-01
5.492043e-01
5.401674e-01
5.310779e-01
5.219432e-01
5.127691e-01
5.035571e-01
4.943015e-01
4.849889e-01
4.756009e-01
4.661188e-01
4.565284e-01
4.468243e-01
4.370120e-01
4.271068e-01
4.171303e-01
4.071041e-01
3.970462e-01
3.869681e-01
3.768751e-01
3.667678e-01
3.566428e-01
3.464947e-01
3.363166e-01
3.261011e-01
3.158405e-01
3.055267e-01
2.951513e-01
2.847064e-01
2.741857e-01
2.635859e-01
2.529076e-01
2.421557e-01
2.313397e-01
2.204737e-01
2.095737e-01
1.986539e-01
1.877213e-01
1.767715e-01
1.657877e-01
1.547450e-01
1.436181e-01
1.323906e-01
1.210636e-01
1.096597e-01
9.821968e-02
8.679328e-02
7.542726e-02
6.415669e-02
5.300137e-02
4.196658e-02
3.104606e-02
2.022622e-02
9.491112e-03
-1.173405e-03
-1.177763e-02
-2.232788e-02
-3.282662e-02
-4.327219e-02
-5.365940e-02
-6.398113e-02
-7.423013e-02
-8.439984e-02
-9.448413e-02
-1.044765e-01
-1.143697e-01
-1.241564e-01
-1.338311e-01
-1.433924e-01
-1.528437e-01
-1.621925e-01
-1.714488e-01
-1.806228e-01
-1.897217e-01
-1.987473e-01
-2.076972e-01
-2.165679e-01
-2.253596e-01
-2.340782e-01
-2.427357e-01
-2.513492e-01
-2.599381e-01
-2.685197e-01
-2.771053e-01
-2.856979e-01
-2.942914e-01
-3.028741e-01
-3.114332e-01
-3.199613e-01
-3.284612e-01
-3.369470e-01
-3.454414e-01
-3.539690e-01
-3.625474e-01
-3.711795e-01
-3.798484e-01
-3.885194e-01
-3.971458e-01
-4.056781e-01
-4.140717e-01
-4.222946e-01
-4.303310e-01
-4.381813e-01
-4.458564e-01
-4.533700e-01
-4.607321e-01
-4.679457e-01
-4.750071e-01
-4.819086e-01
-4.886419e-01
-4.952017e-01
-5.015875e-01
-5.078050e-01
-5.138656e-01
-5.197839e-01
-5.255749e-01
-5.312499e-01
-5.368134e-01
-5.422631e-01
-5.475935e-01
-5.528014e-01
-5.578900e-01
-5.628701e-01
-5.677600e-01
-5.725798e-01
-5.773432e-01
-5.820485e-01
-5.866758e-01
-5.911926e-01
-5.955642e-01
-5.997629e-01
-6.037728e-01
-6.075925e-01
-6.112334e-01
-6.147161e-01
-6.180631e-01
-6.212930e-01
-6.244174e-01
-6.274404e-01
-6.303592e-01
-6.331656e-01
-6.358485e-01
-6.383969e-01
-6.408009e-01
-6.430511e-01
-6.451386e-01
-6.470571e-01
-6.488055e-01
-6.503894e-01
-6.518194e-01
-6.531076e-01
-6.542631e-01
-6.552888e-01
-6.561802e-01
-6.569278e-01
-6.575213e-01
-6.579540e-01
-6.582263e-01
-6.583449e-01
-6.583208e-01
-6.581672e-01
-6.578984e-01
-6.575283e-01
-6.570680e-01
-6.565217e-01
-6.558840e-01
-6.551401e-01
-6.542704e-01
-6.532578e-01
-6.520929e-01
-6.507758e-01
-6.493145e-01
-6.477227e-01
-6.460160e-01
-6.442085e-01
-6.423108e-01
-6.403298e-01
-6.382708e-01
-6.361360e-01
-6.339234e-01
-6.316258e-01
-6.292346e-01
-6.267440e-01
-6.241568e-01
-6.214850e-01
-6.187472e-01
-6.159648e-01
-6.131576e-01
-6.103396e-01
-6.075159e-01
-6.046803e-01
-6.018164e-01
-5.989033e-01
-5.959210e-01
-5.928546e-01
-5.896972e-01
-5.864502e-01
-5.831227e-01
-5.797295e-01
-5.762868e-01
-5.728073e-01
-5.692951e-01
-5.657438e-01
-5.621366e-01
-5.584505e-01
-5.546616e-01
-5.507495e-01
-5.466995e-01
-5.425030e-01
-5.381573e-01
-5.336646e-01
-5.290313e-01
-5.242665e-01
-5.193817e-01
-5.143899e-01
-5.093039e-01
-5.041348e-01
-4.988893e-01
-4.935677e-01
-4.881646e-01
-4.826706e-01
-4.770753e-01
-4.713707e-01
-4.655534e-01
-4.596255e-01
-4.535940e-01
-4.474679e-01
-4.412547e-01
-4.349592e-01
-4.285841e-01
-4.221324e-01
-4.156092e-01
-4.090204e-01
-4.023715e-01
-3.956663e-01
-3.889086e-01
-3.821038e-01
-3.752575e-01
-3.683745e-01
-3.614569e-01
-3.545053e-01
-3.475174e-01
-3.404861e-01
-3.334009e-01
-3.262530e-01
-3.190400e-01
-3.117674e-01
-3.044454e-01
-2.970853e-01
-2.896968e-01
-2.822868e-01
-2.748598e-01
-2.674182e-01
-2.599632e-01
-2.524936e-01
-2.450067e-01
-2.374998e-01
-2.299715e-01
-2.224229e-01
-2.148552e-01
-2.072679e-01
-1.996565e-01
-1.920120e-01
-1.843226e-01
-1.765764e-01
-1.687654e-01
-1.608905e-01
-1.529637e-01
-1.450090e-01
-1.370568e-01
-1.291363e-01
-1.212679e-01
-1.134586e-01
-1.057024e-01
-9.798188e-02
-9.027290e-02
-8.255171e-02
-7.480440e-02
-6.703361e-02
-5.925787e-02
-5.150385e-02
-4.379647e-02
-3.615204e-02
-2.857588e-02
-2.106305e-02
-1.360056e-02
-6.170955e-03
1.242772e-03
8.652874e-03
1.606606e-02
2.348526e-02
3.091054e-02
3.833756e-02
4.575629e-02
5.315281e-02
6.051401e-02
6.783223e-02
7.510750e-02
8.234672e-02
8.956005e-02
9.675528e-02
1.039323e-01
1.110807e-01
1.181837e-01
1.252244e-01
1.321904e-01
1.390745e-01
1.458723e-01
1.525796e-01
