EVENT_NAME: EMILIA_2ND_SHOCK
EVENT_ID: IT-2012-0011
EVENT_DATE_YYYYMMDD: 20120529
EVENT_TIME_HHMMSS: 070002
EVENT_LATITUDE_DEGREE: 44.8417
EVENT_LONGITUDE_DEGREE: 11.0657
EVENT_DEPTH_KM: 8.1
HYPOCENTER_REFERENCE: INGV-CNT_Seismic_Bulletin
MAGNITUDE_W: 6.0
MAGNITUDE_W_REFERENCE: RCMT-INGV
MAGNITUDE_L: 5.8
MAGNITUDE_L_REFERENCE: INGV-CNT_Seismic_Bulletin
FOCAL_MECHANISM: TF
NETWORK: IT
STATION_CODE: FIN0
STATION_NAME: FINALE EMILIA
STATION_LATITUDE_DEGREE: 44.829700
STATION_LONGITUDE_DEGREE: 11.286700
STATION_ELEVATION_M: 61
LOCATION: 
SENSOR_DEPTH_M: 0.0
VS30_M/S: 
SITE_CLASSIFICATION_EC8: C*
MORPHOLOGIC_CLASSIFICATION: 
EPICENTRAL_DISTANCE_KM: 17.5
EARTHQUAKE_BACKAZIMUTH_DEGREE: 274.4
DATE_TIME_FIRST_SAMPLE_YYYYMMDD_HHMMSS: 20120529_065953.000
DATE_TIME_FIRST_SAMPLE_PRECISION: seconds
SAMPLING_INTERVAL_S: 0.005000
NDATA: 23800
DURATION_S: 119.000
STREAM: HNZ
UNITS: cm/s
INSTRUMENT: sensor = Episensor FBA ES-T [Kinemetrics] | digitizer = Etna [Kinemetrics]
INSTRUMENT_ANALOG/DIGITAL: D
INSTRUMENTAL_FREQUENCY_HZ: 
INSTRUMENTAL_DAMPING: 
FULL_SCALE_G: 
N_BIT_DIGITAL_CONVERTER: 18
PGV_CM/S: 2.962139
TIME_PGV_S: 17.920000
BASELINE_CORRECTION: BASELINE REMOVED
FILTER_TYPE: BUTTERWORTH
FILTER_ORDER: 2
LOW_CUT_FREQUENCY_HZ: 0.050
HIGH_CUT_FREQUENCY_HZ: 30.000
LATE/NORMAL_TRIGGERED: NT
DATABASE_VERSION: DYNA 1.0
HEADER_FORMAT: DYNA 1.2
DATA_TYPE: VELOCITY
PROCESSING: manual (Paolucci et al., 2011)
DATA_TIMESTAMP_YYYYMMDD_HHMMSS: 20141204_102913.574
DATA_LICENSE: CC-BY3_0-IT (http://creativecommons.org/licenses/by/3.0/deed.en)
DATA_CITATION: ESM working group (2015), European Strong-Motion database, version 0.1, Network Activity 3: Networking acceleration networks and SM data users. Project NERA (www.nera-eu.org)
DATA_CREATOR: ESM working group
ORIGINAL_DATA_MEDIATOR_CITATION: Ufficio Rischio Sismico e Vulcanico del Dipartimento della Protezione Civile (http://www.protezionecivile.gov.it/)
ORIGINAL_DATA_MEDIATOR: Rete Accelerometrica Nazionale - RAN Download (http://www.mot1.it/randownload/)
ORIGINAL_DATA_CREATOR_CITATION: Italian Strong Motion Network, Italian Civil Protection Department http://www.protezionecivile.gov.it
ORIGINAL_DATA_CREATOR: network: IT (Italian Strong Motion Network); owner: Dipartimento Della Protezione Civile
USER1: /home/dyna/processing-itaca/processing.py /var/www/processing/tmp/fpacor//IT.FIN0..HNE.D.20120529.070003.X.ACC.ASC /var/www/processing/tmp/fpacor//IT.FIN0..HNN.D.20120529.070003.X.ACC.ASC /var/www/processing/tmp/fpacor//IT.FIN0..HNZ.D.20120529.070003.X.ACC.ASC --tmp /var/www/processing/tmp/fpacor/ --le 0.050 --he 30.000 --ln 0.050 --hn 30.000 --lz 0.050 --hz 30.000 --fo 2 --ca -10 --cz 40 --ta 5 --tz 5 --mf 1 --rf 0 --tr NT
USER2: 
USER3: 
USER4: 
USER5: 
[...]
-0.012291
-0.012276
-0.012379
-0.012557
-0.012777
-0.013001
-0.013174
-0.013248
-0.013219
-0.013122
-0.012999
-0.012885
-0.012806
-0.012773
-0.012785
-0.012847
-0.012972
-0.013154
-0.013354
-0.013512
-0.013579
-0.013546
-0.013436
-0.013277
-0.013094
-0.012911
-0.012759
-0.012672
-0.012673
-0.012778
-0.012974
-0.013204
-0.013393
-0.013495
-0.013511
-0.013477
-0.013427
-0.013365
-0.013284
-0.013187
-0.013091
-0.013026
-0.013031
-0.013125
-0.013286
-0.013475
-0.013654
-0.013799
-0.013893
-0.013927
-0.013899
-0.013813
-0.013685
-0.013556
-0.013483
-0.013503
-0.013599
-0.013700
-0.013737
-0.013687
-0.013579
-0.013476
-0.013428
-0.013440
-0.013471
-0.013469
-0.013422
-0.013365
-0.013335
-0.013332
-0.013333
-0.013305
-0.013229
-0.013116
-0.013009
-0.012947
-0.012932
-0.012960
-0.013040
-0.013173
-0.013339
-0.013502
-0.013631
-0.013706
-0.013721
-0.013680
-0.013598
-0.013497
-0.013392
-0.013295
-0.013229
-0.013218
-0.013264
-0.013350
-0.013461
-0.013585
-0.013700
-0.013788
-0.013846
-0.013893
-0.013953
-0.014031
-0.014111
-0.014160
-0.014150
-0.014081
-0.013980
-0.013893
-0.013859
-0.013901
-0.014019
-0.014192
-0.014389
-0.014571
-0.014697
-0.014742
-0.014714
-0.014642
-0.014558
-0.014493
-0.014481
-0.014541
-0.014662
-0.014809
-0.014946
-0.015054
-0.015139
-0.015224
-0.015329
-0.015462
-0.015611
-0.015741
-0.015816
-0.015828
-0.015792
-0.015729
-0.015650
-0.015558
-0.015462
-0.015381
-0.015340
-0.015358
-0.015440
-0.015566
-0.015692
-0.015760
-0.015728
-0.015581
-0.015338
-0.015057
-0.014812
-0.014667
-0.014658
-0.014787
-0.015022
-0.015301
-0.015546
-0.015685
-0.015677
-0.015528
-0.015289
-0.015027
-0.014809
-0.014680
-0.014653
-0.014706
-0.014787
-0.014843
-0.014836
-0.014761
-0.014653
-0.014560
-0.014518
-0.014530
-0.014586
-0.014677
-0.014784
-0.014881
-0.014949
-0.014989
-0.015023
-0.015072
-0.015139
-0.015205
-0.015246
-0.015243
-0.015195
-0.015116
-0.015028
-0.014962
-0.014944
-0.014981
-0.015054
-0.015139
-0.015229
-0.015333
-0.015453
-0.015560
-0.015614
-0.015602
-0.015541
-0.015453
-0.015344
-0.015214
-0.015067
-0.014924
-0.014823
-0.014797
-0.014855
-0.014978
-0.015121
-0.015225
-0.015247
-0.015188
-0.015087
-0.014986
-0.014901
-0.014829
-0.014773
-0.014748
-0.014776
-0.014875
-0.015041
-0.015236
-0.015416
-0.015550
-0.015623
-0.015632
-0.015582
-0.015502
-0.015434
-0.015406
-0.015424
-0.015476
-0.015540
-0.015599
-0.015648
-0.015699
-0.015762
-0.015834
-0.015901
-0.015953
-0.015993
-0.016037
-0.016103
-0.016193
-0.016291
-0.016370
-0.016406
-0.016402
-0.016386
-0.016381
-0.016383
-0.016372
-0.016344
-0.016322
-0.016322
-0.016335
-0.016333
-0.016298
-0.016241
-0.016190
-0.016169
-0.016192
-0.016256
-0.016352
-0.016467
-0.016592
-0.016711
-0.016800
-0.016831
-0.016780
-0.016653
-0.016501
-0.016401
-0.016409
-0.016534
-0.016722
-0.016895
-0.017000
-0.017027
-0.017002
-0.016961
-0.016930
-0.016914
-0.016893
-0.016857
-0.016816
-0.016793
-0.016796
-0.016826
-0.016886
-0.016975
-0.017086
-0.017201
-0.017292
-0.017338
-0.017330
-0.017272
-0.017191
-0.017143
-0.017180
-0.017312
-0.017487
-0.017630
-0.017684
-0.017635
-0.017518
-0.017403
-0.017362
-0.017429
-0.017575
-0.017743
-0.017880
-0.017957
-0.017977
-0.017968
-0.017960
-0.017960
-0.017961
-0.017965
-0.017986
-0.018021
-0.018048
-0.018045
-0.018006
-0.017938
-0.017870
-0.017842
-0.017894
-0.018030
-0.018206
-0.018363
-0.018468
-0.018527
-0.018554
-0.018550
-0.018519
-0.018490
-0.018488
-0.018513
-0.018557
-0.018611
-0.018669
-0.018717
-0.018753
-0.018797
-0.018865
-0.018946
-0.019005
-0.018998
-0.018898
-0.018716
-0.018509
-0.018357
-0.018303
-0.018324
-0.018367
-0.018406
-0.018446
-0.018491
-0.018534
-0.018569
-0.018584
-0.018566
-0.018516
-0.018460
-0.018434
-0.018452
-0.018507
-0.018587
-0.018676
-0.018748
-0.018781
-0.018768
-0.018707
-0.018604
-0.018480
-0.018359
-0.018258
-0.018169
-0.018086
-0.018022
-0.017999
-0.018013
-0.018047
-0.018092
-0.018164
-0.018285
-0.018461
-0.018657
-0.018816
-0.018903
-0.018918
-0.018876
-0.018788
-0.018674
-0.018561
-0.018487
-0.018481
-0.018553
-0.018695
-0.018875
-0.019041
-0.019147
-0.019179
-0.019167
-0.019160
-0.019193
-0.019269
-0.019378
-0.019508
-0.019637
-0.019725
-0.019733
-0.019654
-0.019512
-0.019345
-0.019190
-0.019079
-0.019025
-0.019008
-0.018998
-0.018976
-0.018931
-0.018841
-0.018676
-0.018430
-0.018137
-0.017858
-0.017640
-0.017485
-0.017365
-0.017236
-0.017034
-0.016666
-0.016058
-0.015216
-0.014226
-0.013192
-0.012176
-0.011199
-0.010279
-0.009441
-0.008686
-0.008025
-0.007549
-0.007444
-0.007848
-0.008673
-0.009600
-0.010246
-0.010316
-0.009624
-0.008134
-0.006106
-0.004247
-0.003638
-0.005381
-0.010208
-0.018231
-0.028862
-0.040839
-0.052384
-0.061553
-0.066725
-0.067106
-0.062966
-0.055468
-0.046251
-0.037026
-0.029229
-0.023750
-0.020808
-0.020054
-0.020843
-0.022593
-0.025008
-0.027910
-0.030852
-0.033047
-0.033765
-0.032675
-0.029734
-0.025048
-0.019169
-0.013505
-0.009967
-0.009713
-0.012084
-0.014860
-0.015539
-0.012499
-0.005576
0.003684
0.012023
0.015238
0.009951
-0.004437
-0.024987
-0.046317
-0.062777
-0.070472
-0.068415
-0.058665
-0.045491
-0.033788
-0.027253
-0.027026
-0.031410
-0.036946
-0.040386
-0.040305
-0.037332
-0.033274
-0.030178
-0.029574
-0.031548
-0.034162
-0.034146
-0.028503
-0.015845
0.002932
0.024411
0.043142
0.053036
0.049100
0.028911
-0.006030
-0.049330
-0.090515
-0.118533
-0.126462
-0.114453
-0.089240
-0.060998
-0.039399
-0.030118
-0.032607
-0.040120
-0.042694
-0.032297
-0.007361
0.026253
0.058245
0.078325
0.079720
0.061248
0.028251
-0.008201
-0.034787
-0.041376
-0.025495
0.006642
0.042345
0.066928
0.069775
0.049330
0.013165
-0.026767
-0.059343
-0.077063
-0.077212
-0.062077
-0.037533
-0.010581
0.012332
0.026187
0.028639
0.020917
0.006767
-0.009635
-0.024327
-0.033105
-0.032720
-0.023817
-0.011973
-0.004993
-0.009518
-0.029852
-0.067327
-0.117902
-0.170345
-0.209226
-0.221871
-0.203751
-0.158993
-0.097835
-0.033946
0.018359
0.048317
0.052910
0.037615
0.013257
-0.008235
-0.017773
-0.012943
0.000606
0.012277
0.011112
-0.011696
-0.060562
-0.131562
-0.210502
-0.277126
-0.312619
-0.304893
-0.251045
-0.159001
-0.047439
0.058460
0.134693
0.166155
0.151940
0.106497
0.054602
0.020934
0.019690
0.049660
0.095192
0.130719
0.129039
0.073803
-0.029639
-0.154116
-0.262458
-0.322570
-0.317494
-0.249156
-0.137516
-0.015195
0.082700
0.130812
0.121778
0.066161
-0.013643
-0.090268
-0.137544
-0.137770
-0.089006
-0.007631
0.076747
0.132290
0.137413
0.089786
0.007649
-0.077762
-0.135385
-0.146994
-0.113825
-0.055080
0.000382
0.026253
0.010605
-0.038314
-0.096427
-0.136563
-0.141678
-0.110553
-0.054901
0.007161
0.057117
0.081147
0.073630
0.037346
-0.018529
-0.079983
-0.129758
-0.151385
-0.135250
-0.083430
-0.011201
0.055606
0.088846
0.070498
0.002495
-0.092913
-0.182210
-0.233419
-0.227613
-0.165805
-0.068118
0.035089
0.115219
0.153874
0.145059
0.093520
0.012408
-0.079331
-0.161078
-0.215540
-0.232003
-0.207423
-0.147692
-0.069154
0.003667
0.046833
0.048278
0.013849
-0.035934
-0.075608
-0.085306
-0.057937
-0.001053
0.067002
0.125470
0.160777
0.172546
0.172081
0.173187
0.180705
0.185281
0.168900
0.116988
0.028212
-0.083224
-0.192279
-0.272094
-0.304172
-0.285243
-0.226703
-0.147126
-0.063443
0.013260
0.076009
0.118121
0.132222
0.113421
0.063453
-0.008082
-0.086051
-0.153939
-0.198884
-0.216507
-0.212009
-0.195070
-0.172100
-0.142675
-0.102798
-0.050956
0.008502
0.066214
0.111258
0.135422
0.136912
0.121385
0.098570
0.076041
0.055251
0.033305
0.007971
-0.019220
-0.043106
-0.055989
-0.049332
-0.018004
0.034173
0.092937
0.139152
0.157313
0.140503
0.090555
0.016579
-0.067181
-0.145209
-0.204298
-0.233864
-0.225401
-0.175799
-0.092704
0.004623
0.091174
0.144758
0.152782
0.115919
0.048093
-0.028559
-0.093190
-0.134865
-0.153651
-0.153874
-0.137113
-0.102001
-0.049376
0.013840
0.075250
0.120770
0.140135
0.132452
0.107908
0.082632
0.069523
0.071706
0.082212
0.088412
0.078538
0.048302
0.004859
-0.034827
-0.051002
-0.029688
0.031675
0.123048
0.223459
0.304710
0.338708
0.308057
0.214273
0.077597
-0.070793
-0.197877
-0.275681
-0.287651
-0.234897
-0.137601
-0.027554
0.064563
0.118717
0.127611
0.094228
0.029493
-0.048990
-0.119404
-0.161001
-0.161095
-0.120811
-0.056391
0.006066
0.041286
0.035902
-0.005538
-0.062132
-0.105351
-0.112396
-0.077940
-0.016384
0.047126
0.089704
0.099664
0.078944
0.040261
0.001068
-0.022798
-0.021412
0.007094
0.056183
0.113032
0.162816
0.192614
0.193483
0.162311
0.104181
0.032534
-0.034978
-0.083033
-0.103610
-0.096529
-0.065999
-0.017311
0.042859
0.104532
0.155699
0.186985
0.194912
0.180871
0.148434
0.102688
0.051431
0.005336
-0.024345
-0.029405
-0.008060
0.033047
0.080101
0.117189
0.131963
0.118594
0.079072
0.024309
-0.027675
-0.058925
-0.060318
-0.034972
0.006261
0.053120
0.101051
0.149312
0.195559
0.234247
0.260981
0.277350
0.290458
0.307149
0.327083
0.338570
0.319966
0.248685
0.116318
-0.058439
-0.230210
-0.344230
-0.360578
-0.270280
-0.096462
0.115806
0.314516
0.456214
0.517740
0.499145
0.416697
0.292160
0.146318
-0.001938
-0.135903
-0.243476
-0.318091
-0.355278
-0.349617
-0.298291
-0.208161
-0.097813
0.007023
0.079560
0.097816
0.052392
-0.046348
-0.169508
-0.282623
-0.363041
-0.409418
-0.437129
-0.464084
-0.497120
-0.526798
-0.532395
-0.493151
-0.398741
-0.253575
-0.074958
0.111472
0.277033
0.396433
0.454963
0.453495
0.408575
0.347417
0.298980
0.282337
0.295699
0.313504
0.296985
0.213449
0.052934
-0.164808
-0.393229
-0.571241
-0.644319
-0.586145
-0.406521
-0.141501
0.161110
0.447500
0.659497
0.745821
0.681690
0.479854
0.183986
-0.146639
-0.450281
-0.673484
-0.782731
-0.774579
-0.677629
-0.541748
-0.417899
-0.339777
-0.317522
-0.343500
-0.400706
-0.466866
-0.517750
-0.535454
-0.516594
-0.470032
-0.406086
-0.330590
-0.248232
-0.165058
-0.083434
0.001833
0.095618
0.189433
0.260127
0.283090
0.244511
0.142182
-0.016705
-0.210367
-0.397843
-0.530380
-0.574708
-0.526904
-0.408540
-0.257801
-0.123951
-0.056923
-0.085727
-0.197740
-0.337774
-0.430669
-0.412699
-0.254004
0.035367
0.411171
0.804647
1.134713
1.326199
1.333027
1.155388
0.837978
0.449406
0.058060
-0.282481
-0.539420
-0.703001
-0.783202
-0.798613
-0.762577
-0.675088
-0.525599
-0.305738
-0.025461
0.276489
0.535827
0.682505
0.671407
0.509227
0.259379
0.018131
-0.123995
-0.113737
0.050163
0.316933
0.597057
0.789581
0.816643
0.648798
0.308704
-0.143289
-0.628358
-1.063801
-1.372762
-1.494714
-1.401444
-1.113462
-0.703195
-0.278638
0.044953
0.176126
0.075591
-0.226950
-0.638532
-1.032397
-1.288622
-1.330697
-1.149354
-0.806842
-0.415159
-0.092724
0.080209
0.084214
-0.045446
-0.240215
-0.419518
-0.510255
-0.467274
-0.288534
-0.014902
0.286746
0.547938
0.719063
0.779419
0.736425
0.618086
0.463965
0.316343
0.210644
0.167194
0.190385
0.277227
0.425183
0.626203
0.851473
1.048143
1.158105
1.143166
0.995802
0.733360
0.389566
0.012925
-0.334734
-0.590613
-0.710303
-0.679460
-0.511519
-0.239809
0.086253
0.404846
0.655596
0.799389
0.827225
0.752502
0.599213
0.397032
0.179802
-0.018700
-0.168196
-0.238676
-0.196589
-0.015588
0.294797
0.664583
0.972621
1.093305
0.951770
0.556820
0.003659
-0.549327
-0.929876
-1.017532
-0.790836
-0.326415
0.238531
0.748541
1.064931
1.099386
0.842548
0.367964
-0.198359
-0.721163
-1.082660
-1.193371
-1.009653
-0.562057
0.032086
0.598169
0.968756
1.044982
0.821025
0.371379
-0.175342
-0.663392
-0.946115
-0.931999
-0.617075
-0.082181
0.538294
1.093821
1.449894
1.516066
1.268419
0.758710
0.103312
-0.547112
-1.045990
-1.282614
-1.202264
-0.819323
-0.221996
0.442493
1.008273
1.344514
1.394299
1.179019
0.776326
0.292252
-0.163763
-0.502202
-0.670620
-0.655777
-0.474036
-0.163845
0.215970
0.592640
0.896183
1.077380
1.117831
1.033663
0.873917
0.705926
0.584713
0.523570
0.491803
0.443174
0.348882
0.211115
0.059197
-0.059447
-0.092490
-0.005001
0.195150
0.446876
0.653138
0.719631
0.596266
0.303244
-0.070376
-0.396109
-0.550968
-0.461105
-0.129236
0.365192
0.892333
1.311966
1.514872
1.456115
1.167867
0.744692
0.311059
-0.010724
-0.122522
0.032144
0.446219
1.031350
1.627904
2.054224
2.175976
1.957644
1.470723
0.863432
0.313839
-0.021050
-0.057838
0.176928
0.559029
0.932486
1.186267
1.291005
1.287323
1.255409
1.287507
1.457299
1.783632
2.211619
2.630097
2.913390
2.962139
2.728439
2.223095
1.510374
0.697769
-0.076978
-0.666208
-0.943443
-0.840274
-0.376208
0.334323
1.106563
1.736200
2.058886
1.996293
1.573206
0.903697
0.154406
-0.501191
-0.924320
-1.043540
-0.875011
-0.518887
-0.126974
0.145372
0.187888
-0.025669
-0.422771
-0.857334
-1.172096
-1.265254
-1.125606
-0.831895
-0.527221
-0.366891
-0.446894
-0.753204
-1.170826
-1.542861
-1.735276
-1.679132
-1.388150
-0.949009
-0.480125
-0.076500
0.223507
0.430523
0.571706
0.661575
0.690325
0.630655
0.457002
0.162846
-0.235973
-0.704915
-1.188524
-1.610959
-1.895031
-1.987636
-1.865891
-1.531241
-1.021268
-0.432466
0.089047
0.403425
0.439696
0.218194
-0.172160
-0.613497
-0.992571
-1.223969
-1.264829
-1.122697
-0.854838
-0.550320
-0.294514
-0.136086
-0.076939
-0.083425
-0.102001
-0.070527
0.067330
0.335890
0.700113
1.064609
1.312418
1.361382
1.199678
0.882846
0.504145
0.157274
-0.097910
-0.257586
-0.371281
-0.510825
-0.726939
-1.016596
-1.316121
-1.523794
-1.541756
-1.314835
-0.848589
-0.206051
0.507696
1.168336
1.660856
1.904410
1.864194
1.556130
1.051634
0.471392
-0.046962
-0.396602
-0.530700
-0.457466
-0.222459
0.104110
0.447473
0.763538
1.062482
1.387460
1.758149
2.131021
2.413840
2.519467
2.413900
2.128829
1.740463
1.331758
0.961050
0.657724
0.436100
0.298765
0.231369
0.215913
0.256000
0.372367
0.560467
0.763013
0.901594
0.935149
0.876899
0.758950
0.601820
0.425157
0.266003
0.163737
0.130490
0.153736
0.229930
0.379616
0.620561
0.934072
1.264321
1.543102
1.706702
1.700059
1.491805
1.098943
0.585527
0.024776
-0.537337
-1.084795
-1.610635
-2.095594
-2.495664
-2.743648
-2.771938
-2.549844
-2.110620
-1.551690
-1.015326
-0.655932
-0.588172
-0.830394
-1.286335
-1.789696
-2.182050
-2.370273
-2.339071
-2.132337
-1.825922
-1.502644
-1.232614
-1.063485
-1.020902
-1.109574
-1.307896
-1.562921
-1.799758
-1.947231
-1.960254
-1.822508
-1.541161
-1.150353
-0.712470
-0.298048
0.044341
0.297197
0.457596
0.523974
0.506153
0.441932
0.390027
0.397836
0.475029
0.596331
0.724546
0.830075
0.893307
0.898151
0.836561
0.722463
0.587535
0.452112
0.306457
0.128952
-0.081024
-0.294522
-0.474925
-0.600869
-0.666550
-0.672037
-0.626874
-0.560184
-0.513186
-0.517671
-0.588079
-0.729749
-0.937352
-1.180678
-1.405456
-1.554789
-1.584073
-1.460505
-1.169495
-0.736266
-0.237481
0.217436
0.520003
0.589287
0.393945
-0.025903
-0.553922
-1.027797
-1.294197
-1.256190
-0.893709
-0.264898
0.499962
1.218742
1.707388
1.851195
1.655278
1.233383
0.738658
0.288719
-0.063121
-0.313126
-0.492378
-0.668178
-0.926875
-1.314004
-1.772115
-2.141933
-2.237945
-1.942853
-1.263958
-0.337807
0.607522
1.324503
1.634858
1.493836
0.995157
0.328728
-0.272402
-0.590818
-0.498246
-0.009634
0.728483
1.506028
2.126867
2.460898
2.459340
2.145668
1.605643
0.977206
0.419079
0.057714
-0.054949
0.054577
0.307464
0.600669
0.825962
0.892491
0.760584
0.468872
0.127934
-0.123531
-0.173970
0.024799
0.448860
1.014290
1.606184
2.117798
2.481052
2.672084
2.697356
2.578376
2.342289
2.017603
1.638219
1.252960
0.925935
0.718560
0.662526
0.742208
0.896209
1.035017
1.070833
0.955502
0.709021
0.414328
0.177029
0.080688
0.168015
0.445684
0.887832
1.426472
1.946716
2.312801
2.419990
2.232142
1.779071
1.136272
0.417239
-0.233314
-0.671265
-0.798674
-0.593560
-0.116885
0.499609
1.087659
1.491417
1.609267
1.415006
0.962855
0.380257
-0.163538
-0.516325
-0.595559
-0.400297
0.007455
0.524083
1.023324
1.382034
1.512063
1.385254
1.039229
0.561294
0.059702
-0.361650
-0.619071
-0.664819
-0.504876
-0.201385
0.152389
0.469952
0.697189
0.816138
0.835112
0.776522
0.667157
0.530723
0.383910
0.237274
0.096692
-0.037640
-0.168968
-0.293937
-0.393406
-0.437199
-0.400528
-0.276024
-0.075043
0.173852
0.427426
0.638640
0.774061
0.824359
0.800450
0.722397
0.612008
0.493135
0.395938
0.355894
0.399658
0.524290
0.690011
0.835947
0.904289
0.856020
0.679493
0.399386
0.078559
-0.201920
-0.378349
-0.427479
-0.361439
-0.209185
-0.006346
0.204615
0.377525
0.474915
0.480165
0.399834
0.259469
0.099526
-0.031467
-0.092318
-0.068064
0.021405
0.129825
0.204617
0.209248
0.139718
0.026719
-0.080954
-0.144351
-0.156400
-0.144306
-0.152920
-0.220464
-0.358040
-0.540266
-0.712584
-0.814234
-0.803967
-0.675334
-0.461008
-0.228116
-0.058217
-0.011698
-0.097416
-0.272248
-0.469018
-0.626220
-0.702403
-0.683272
-0.587821
-0.460635
-0.345340
-0.260896
-0.202729
-0.163403
-0.148600
-0.172481
-0.239241
-0.330216
-0.408718
-0.440046
-0.414144
-0.355760
-0.314672
-0.341201
-0.459407
-0.651013
-0.859826
-1.018511
-1.086052
-1.072609
-1.034350
-1.042511
-1.147080
-1.353520
-1.619222
-1.868194
-2.017452
-2.002751
-1.792714
-1.390917
-0.832346
-0.177417
0.497563
1.112631
1.595615
1.892885
1.982168
1.883926
1.661428
1.404753
1.205714
1.134262
1.221359
1.450341
1.760193
2.062372
2.266183
2.302382
2.138288
1.784621
1.293950
0.748722
0.243092
-0.132856
-0.306407
-0.238762
0.060593
0.533686
1.087955
1.615073
2.010297
2.193588
2.130206
1.840049
1.387209
0.855044
0.320804
-0.159305
-0.553405
-0.851937
-1.065221
-1.218560
-1.341087
-1.451656
-1.551396
-1.627193
-1.661540
-1.642953
-1.573214
-1.468708
-1.355837
-1.262921
-1.210679
-1.204744
-1.234877
-1.280914
-1.319871
-1.329991
-1.293333
-1.199952
-1.052049
-0.863734
-0.654954
-0.442988
-0.237842
