EVENT_NAME: EMILIA_2ND_SHOCK
EVENT_ID: IT-2012-0011
EVENT_DATE_YYYYMMDD: 20120529
EVENT_TIME_HHMMSS: 070002
EVENT_LATITUDE_DEGREE: 44.8417
EVENT_LONGITUDE_DEGREE: 11.0657
EVENT_DEPTH_KM: 8.1
HYPOCENTER_REFERENCE: INGV-CNT_Seismic_Bulletin
MAGNITUDE_W: 6.0
MAGNITUDE_W_REFERENCE: RCMT-INGV
MAGNITUDE_L: 5.8
MAGNITUDE_L_REFERENCE: INGV-CNT_Seismic_Bulletin
FOCAL_MECHANISM: TF
NETWORK: IT
STATION_CODE: FIN0
STATION_NAME: FINALE EMILIA
STATION_LATITUDE_DEGREE: 44.829700
STATION_LONGITUDE_DEGREE: 11.286700
STATION_ELEVATION_M: 61
LOCATION: 
SENSOR_DEPTH_M: 0.0
VS30_M/S: 
SITE_CLASSIFICATION_EC8: C*
MORPHOLOGIC_CLASSIFICATION: 
EPICENTRAL_DISTANCE_KM: 17.5
EARTHQUAKE_BACKAZIMUTH_DEGREE: 274.4
DATE_TIME_FIRST_SAMPLE_YYYYMMDD_HHMMSS: 20120529_065953.000
DATE_TIME_FIRST_SAMPLE_PRECISION: seconds
SAMPLING_INTERVAL_S: 0.005000
NDATA: 23800
DURATION_S: 119.000
STREAM: HNN
UNITS: cm/s
INSTRUMENT: sensor = Episensor FBA ES-T [Kinemetrics] | digitizer = Etna [Kinemetrics]
INSTRUMENT_ANALOG/DIGITAL: D
INSTRUMENTAL_FREQUENCY_HZ: 
INSTRUMENTAL_DAMPING: 
FULL_SCALE_G: 
N_BIT_DIGITAL_CONVERTER: 18
PGV_CM/S: 16.974349
TIME_PGV_S: 21.100000
BASELINE_CORRECTION: BASELINE REMOVED
FILTER_TYPE: BUTTERWORTH
FILTER_ORDER: 2
LOW_CUT_FREQUENCY_HZ: 0.050
HIGH_CUT_FREQUENCY_HZ: 30.000
LATE/NORMAL_TRIGGERED: NT
DATABASE_VERSION: DYNA 1.0
HEADER_FORMAT: DYNA 1.2
DATA_TYPE: VELOCITY
PROCESSING: manual (Paolucci et al., 2011)
DATA_TIMESTAMP_YYYYMMDD_HHMMSS: 20141204_102913.574
DATA_LICENSE: CC-BY3_0-IT (http://creativecommons.org/licenses/by/3.0/deed.en)
DATA_CITATION: ESM working group (2015), European Strong-Motion database, version 0.1, Network Activity 3: Networking acceleration networks and SM data users. Project NERA (www.nera-eu.org)
DATA_CREATOR: ESM working group
ORIGINAL_DATA_MEDIATOR_CITATION: Ufficio Rischio Sismico e Vulcanico del Dipartimento della Protezione Civile (http://www.protezionecivile.gov.it/)
ORIGINAL_DATA_MEDIATOR: Rete Accelerometrica Nazionale - RAN Download (http://www.mot1.it/randownload/)
ORIGINAL_DATA_CREATOR_CITATION: Italian Strong Motion Network, Italian Civil Protection Department http://www.protezionecivile.gov.it
ORIGINAL_DATA_CREATOR: network: IT (Italian Strong Motion Network); owner: Dipartimento Della Protezione Civile
USER1: /home/dyna/processing-itaca/processing.py /var/www/processing/tmp/fpacor//IT.FIN0..HNE.D.20120529.070003.X.ACC.ASC /var/www/processing/tmp/fpacor//IT.FIN0..HNN.D.20120529.070003.X.ACC.ASC /var/www/processing/tmp/fpacor//IT.FIN0..HNZ.D.20120529.070003.X.ACC.ASC --tmp /var/www/processing/tmp/fpacor/ --le 0.050 --he 30.000 --ln 0.050 --hn 30.000 --lz 0.050 --hz 30.000 --fo 2 --ca -10 --cz 40 --ta 5 --tz 5 --mf 1 --rf 0 --tr NT
USER2: 
USER3: 
USER4: 
USER5: 
[...]
0.008723
0.010239
0.017240
0.027884
0.039735
0.049722
0.054434
0.051563
0.041312
0.026557
0.012028
0.002920
0.002866
0.012087
0.027199
0.042768
0.053246
0.054504
0.045262
0.028220
0.009625
-0.003310
-0.005553
0.004049
0.022716
0.044495
0.061893
0.068666
0.062477
0.045707
0.024153
0.004758
-0.006480
-0.005955
0.006584
0.027553
0.050220
0.066890
0.071671
0.062452
0.041637
0.015812
-0.005983
-0.015593
-0.009392
0.009964
0.034738
0.055337
0.064032
0.057991
0.040481
0.019362
0.003412
-0.001534
0.005461
0.020934
0.038985
0.053420
0.059707
0.056515
0.046033
0.032621
0.020853
0.014301
0.015020
0.023001
0.035789
0.048918
0.057045
0.055477
0.042318
0.020511
-0.002273
-0.016793
-0.016594
-0.000864
0.025201
0.052328
0.070847
0.074701
0.063620
0.042461
0.018777
0.000141
-0.008090
-0.004202
0.009794
0.029436
0.049614
0.065781
0.074264
0.072512
0.060088
0.039788
0.017410
-0.000213
-0.007716
-0.002902
0.012678
0.033971
0.053735
0.065135
0.064680
0.053700
0.037379
0.021976
0.011946
0.008462
0.009946
0.013890
0.018492
0.023173
0.028278
0.034509
0.042113
0.050029
0.055903
0.057412
0.053849
0.046485
0.037611
0.029215
0.022156
0.016262
0.011301
0.008111
0.008779
0.015486
0.028678
0.045728
0.061197
0.069145
0.066346
0.054097
0.037308
0.021979
0.012900
0.012186
0.018638
0.028326
0.036612
0.040482
0.039583
0.035533
0.030427
0.025797
0.022479
0.020966
0.021748
0.025535
0.033189
0.044831
0.058533
0.070180
0.075418
0.072221
0.061806
0.047463
0.032915
0.021479
0.015478
0.015395
0.019835
0.026881
0.035181
0.043482
0.049910
0.052480
0.050069
0.042711
0.031771
0.020503
0.013674
0.015244
0.025627
0.041024
0.055527
0.064300
0.065537
0.060284
0.050996
0.040174
0.029576
0.019981
0.011778
0.006075
0.004859
0.009472
0.018974
0.030207
0.039339
0.043498
0.041938
0.036549
0.031101
0.029202
0.032397
0.039797
0.048941
0.056693
0.059829
0.055938
0.044815
0.029232
0.013999
0.003687
0.000762
0.005372
0.016131
0.030527
0.044929
0.055249
0.058363
0.053166
0.040812
0.024693
0.010191
0.003262
0.007766
0.023243
0.044914
0.065869
0.079766
0.082643
0.073730
0.055664
0.034071
0.016235
0.008900
0.015653
0.034782
0.059016
0.078235
0.084243
0.074615
0.053312
0.028326
0.007987
-0.002336
-0.001592
0.007973
0.022707
0.038644
0.051858
0.059054
0.058528
0.050876
0.039082
0.027772
0.021393
0.022138
0.029119
0.039088
0.047811
0.051444
0.047822
0.037294
0.022714
0.008599
-0.000405
-0.001412
0.005569
0.018103
0.032773
0.046288
0.056007
0.060510
0.060117
0.056522
0.051506
0.045948
0.039940
0.033373
0.026434
0.020110
0.016343
0.016893
0.021650
0.028420
0.034635
0.039034
0.041678
0.042754
0.041813
0.038220
0.032268
0.025726
0.021113
0.020269
0.023513
0.029760
0.036916
0.042191
0.042959
0.038463
0.031150
0.025998
0.027792
0.038153
0.054139
0.069020
0.075047
0.067453
0.047514
0.022165
0.000069
-0.012777
-0.014645
-0.006756
0.008553
0.028398
0.049077
0.066445
0.077199
0.079810
0.074382
0.062366
0.046693
0.031273
0.019493
0.013242
0.013468
0.020745
0.034336
0.050985
0.065630
0.073846
0.073789
0.066368
0.054324
0.041245
0.030632
0.024952
0.025111
0.030535
0.039437
0.049161
0.056869
0.060430
0.058984
0.052972
0.043947
0.034388
0.027158
0.024243
0.025297
0.027442
0.026912
0.021400
0.011666
0.001844
-0.001789
0.006284
0.027306
0.056833
0.086937
0.109887
0.120034
0.113853
0.090755
0.055043
0.015960
-0.015806
-0.032263
-0.029522
-0.007570
0.028792
0.069141
0.100005
0.110278
0.095745
0.060252
0.013827
-0.030680
-0.061146
-0.069169
-0.052141
-0.014376
0.033336
0.077212
0.106349
0.116891
0.111458
0.095776
0.076233
0.058832
0.047720
0.043661
0.044663
0.048324
0.052764
0.055327
0.052502
0.043163
0.031626
0.025583
0.029751
0.041931
0.055617
0.065028
0.066776
0.059150
0.043316
0.025614
0.016175
0.023439
0.049670
0.090737
0.137944
0.179412
0.202085
0.195997
0.159134
0.099246
0.031250
-0.027948
-0.064747
-0.072251
-0.050660
-0.006129
0.049556
0.100013
0.129191
0.128476
0.100571
0.057435
0.014352
-0.016141
-0.028076
-0.022751
-0.006414
0.013509
0.031364
0.044535
0.053628
0.061652
0.071947
0.085531
0.099033
0.104447
0.092276
0.058002
0.007457
-0.044570
-0.081888
-0.093668
-0.076010
-0.030716
0.035334
0.110422
0.179396
0.226329
0.238122
0.208674
0.141950
0.052335
-0.037594
-0.101393
-0.116021
-0.071123
0.024794
0.146050
0.258073
0.327586
0.332276
0.268813
0.155536
0.025929
-0.084606
-0.150082
-0.158522
-0.112877
-0.030251
0.063467
0.143118
0.191596
0.201576
0.175026
0.123016
0.063308
0.014818
-0.007805
0.002269
0.041977
0.099387
0.158918
0.207255
0.235701
0.239513
0.217500
0.172821
0.113189
0.049085
-0.009114
-0.053056
-0.076547
-0.075249
-0.048141
-0.000049
0.058306
0.114177
0.157402
0.181820
0.183870
0.162285
0.120229
0.066708
0.014304
-0.025222
-0.043635
-0.036749
-0.005548
0.042210
0.093509
0.135278
0.158684
0.159239
0.135149
0.087524
0.022196
-0.049694
-0.113832
-0.155820
-0.162738
-0.124862
-0.041540
0.071669
0.183969
0.261147
0.279801
0.235130
0.141029
0.025210
-0.078956
-0.142948
-0.152100
-0.107098
-0.018654
0.096522
0.215240
0.308415
0.347730
0.316540
0.218261
0.076365
-0.073595
-0.194171
-0.253650
-0.232532
-0.132002
0.020772
0.179673
0.297411
0.342009
0.303958
0.196317
0.050731
-0.092354
-0.196645
-0.238357
-0.208662
-0.114501
0.022715
0.172626
0.302466
0.382384
0.392036
0.328098
0.207079
0.060050
-0.077109
-0.172147
-0.202662
-0.162036
-0.063421
0.062998
0.180775
0.259758
0.282888
0.247075
0.161728
0.045670
-0.077781
-0.185518
-0.257407
-0.278858
-0.245315
-0.166599
-0.066219
0.026605
0.088396
0.109338
0.094104
0.057733
0.019439
-0.004577
-0.007484
0.006453
0.026768
0.044586
0.056676
0.064213
0.070338
0.078708
0.091879
0.109301
0.125683
0.130797
0.112751
0.064518
-0.010336
-0.096207
-0.168908
-0.203344
-0.182874
-0.105888
0.013597
0.151285
0.280244
0.375607
0.416525
0.390369
0.298864
0.160570
0.007720
-0.120761
-0.188801
-0.173831
-0.076041
0.077352
0.237755
0.352253
0.384951
0.330409
0.212470
0.072394
-0.045648
-0.107052
-0.096588
-0.023695
0.082427
0.187724
0.266360
0.303653
0.294616
0.245236
0.173564
0.105333
0.065459
0.069637
0.118387
0.196194
0.277214
0.333845
0.343574
0.294567
0.191095
0.054982
-0.080223
-0.179532
-0.217193
-0.185493
-0.098365
0.012880
0.110255
0.161147
0.146916
0.066509
-0.064590
-0.218604
-0.360553
-0.455198
-0.478695
-0.429629
-0.329928
-0.216507
-0.131197
-0.109175
-0.163731
-0.276855
-0.408147
-0.516496
-0.576344
-0.581745
-0.544813
-0.490861
-0.446811
-0.428329
-0.437131
-0.467789
-0.512951
-0.564205
-0.614414
-0.660971
-0.703937
-0.740635
-0.764179
-0.767052
-0.744326
-0.694218
-0.619004
-0.525492
-0.420267
-0.304454
-0.178400
-0.050956
0.061923
0.148893
0.210855
0.258645
0.307896
0.375641
0.474676
0.605121
0.750846
0.885234
0.982062
1.025307
1.013851
0.960002
0.883701
0.805302
0.740093
0.696343
0.673975
0.661546
0.637336
0.579427
0.477127
0.334160
0.165360
-0.007293
-0.159387
-0.271289
-0.334963
-0.356056
-0.349797
-0.332417
-0.313046
-0.290930
-0.257734
-0.202299
-0.117255
-0.005453
0.118361
0.231476
0.309659
0.335249
0.305134
0.231809
0.135587
0.035955
-0.051773
-0.116875
-0.155136
-0.172316
-0.184125
-0.210593
-0.271345
-0.384685
-0.562593
-0.800117
-1.072574
-1.347766
-1.600542
-1.816357
-1.987538
-2.111757
-2.192321
-2.234140
-2.237063
-2.195787
-2.107383
-1.976954
-1.816849
-1.642664
-1.467382
-1.294210
-1.114660
-0.918836
-0.710814
-0.511482
-0.345067
-0.225724
-0.157235
-0.139040
-0.166495
-0.227815
-0.307626
-0.395903
-0.490616
-0.589073
-0.678628
-0.740249
-0.761701
-0.744590
-0.699012
-0.634999
-0.560934
-0.486300
-0.418691
-0.356508
-0.290133
-0.212865
-0.127722
-0.043578
0.030930
0.089041
0.126219
0.142298
0.142560
0.134394
0.121444
0.100233
0.061339
-0.005989
-0.106304
-0.229814
-0.351449
-0.442178
-0.484262
-0.477821
-0.437585
-0.386867
-0.350244
-0.342040
-0.356054
-0.367655
-0.347467
-0.273828
-0.137171
0.059963
0.303257
0.568104
0.824652
1.044780
1.206260
1.294621
1.307412
1.258899
1.177275
1.092832
1.025873
0.983258
0.962702
0.957409
0.956698
0.945622
0.908913
0.837882
0.732859
0.599508
0.445209
0.279025
0.112505
-0.041886
-0.174561
-0.281156
-0.360853
-0.413679
-0.441152
-0.449802
-0.452564
-0.463269
-0.487679
-0.521717
-0.559615
-0.600789
-0.646196
-0.691016
-0.725837
-0.743969
-0.742671
-0.718100
-0.664882
-0.581738
-0.474007
-0.350065
-0.218914
-0.093022
0.011093
0.080195
0.110789
0.106756
0.075286
0.028444
-0.016249
-0.043583
-0.050433
-0.047315
-0.052637
-0.087225
-0.170778
-0.315450
-0.515367
-0.740110
-0.941508
-1.072477
-1.105967
-1.042574
-0.905296
-0.728783
-0.550124
-0.401167
-0.299132
-0.238084
-0.191758
-0.132260
-0.049439
0.048022
0.145199
0.227486
0.277207
0.274109
0.206033
0.079225
-0.082274
-0.245514
-0.377826
-0.456232
-0.478374
-0.465518
-0.449079
-0.450377
-0.472029
-0.504763
-0.536722
-0.555216
-0.545020
-0.491347
-0.387203
-0.239885
-0.072310
0.083907
0.199897
0.255667
0.239606
0.150864
0.006757
-0.156472
-0.296602
-0.382897
-0.406244
-0.380208
-0.336048
-0.312572
-0.342093
-0.437306
-0.585524
-0.753961
-0.903241
-1.000975
-1.029880
-0.990622
-0.899092
-0.777474
-0.644727
-0.514184
-0.397181
-0.305010
-0.246599
-0.225819
-0.239798
-0.276776
-0.316765
-0.339267
-0.332741
-0.297572
-0.243242
-0.184059
-0.134893
-0.107338
-0.106978
-0.132108
-0.174591
-0.224014
-0.272627
-0.314831
-0.341753
-0.341221
-0.307589
-0.250488
-0.192319
-0.159238
-0.173645
-0.247787
-0.378186
-0.545930
-0.724068
-0.885070
-1.003778
-1.061379
-1.054717
-1.002540
-0.938510
-0.894688
-0.888675
-0.920585
-0.975657
-1.028544
-1.049996
-1.014979
-0.908205
-0.726108
-0.478008
-0.187146
0.110532
0.372040
0.558030
0.645042
0.632062
0.537334
0.389415
0.219099
0.054269
-0.084019
-0.184844
-0.248081
-0.281533
-0.297494
-0.311081
-0.337867
-0.388231
-0.462400
-0.551991
-0.645971
-0.734320
-0.809014
-0.865706
-0.904479
-0.926639
-0.931206
-0.916716
-0.886223
-0.848782
-0.816170
-0.799114
-0.805508
-0.839947
-0.903775
-0.995382
-1.110295
-1.241324
-1.379454
-1.515244
-1.639510
-1.743040
-1.817936
-1.862412
-1.884488
-1.898314
-1.915327
-1.939625
-1.971075
-2.008909
-2.049542
-2.083012
-2.095475
-2.076656
-2.025090
-1.948083
-1.859140
-1.775276
-1.713631
-1.686976
-1.700123
-1.749054
-1.821978
-1.900961
-1.965136
-1.996850
-1.988512
-1.945543
-1.883922
-1.824763
-1.787877
-1.785123
-1.816265
-1.870898
-1.935966
-2.003347
-2.072373
-2.147519
-2.234882
-2.339382
-2.462554
-2.601922
-2.753431
-2.915219
-3.088430
-3.274948
-3.477134
-3.699608
-3.946494
-4.214178
-4.488570
-4.750176
-4.980570
-5.164723
-5.290802
-5.351793
-5.348459
-5.289170
-5.186469
-5.054687
-4.909219
-4.764109
-4.627477
-4.498172
-4.366177
-4.217029
-4.039324
-3.832386
-3.609190
-3.391322
-3.198165
-3.037005
-2.900040
-2.769372
-2.627163
-2.466394
-2.296603
-2.140818
-2.026345
-1.975815
-2.001733
-2.104449
-2.273443
-2.491500
-2.739825
-3.001462
-3.262187
-3.511529
-3.745792
-3.970247
-4.197733
-4.444403
-4.723494
-5.037505
-5.372947
-5.702829
-5.994540
-6.216266
-6.340676
-6.349385
-6.239311
-6.026433
-5.741971
-5.423277
-5.105282
-4.814201
-4.563542
-4.353412
-4.173004
-4.004663
-3.827550
-3.619604
-3.359027
-3.027615
-2.615652
-2.125189
-1.569517
-0.970517
-0.356266
0.242038
0.795699
1.285335
1.705126
2.061766
2.369090
2.642578
2.897018
3.146800
3.406092
3.686916
3.996128
4.333918
4.694072
5.064310
5.426828
5.760574
6.044919
6.262225
6.397837
6.439014
6.374734
6.196290
5.897826
5.476264
4.931383
4.267261
3.494811
2.633188
1.707447
0.742890
-0.240003
-1.227062
-2.209051
-3.180626
-4.140884
-5.090720
-6.020462
-6.894349
-7.653943
-8.247769
-8.661218
-8.919601
-9.067228
-9.143022
-9.168491
-9.151028
-9.093588
-8.999315
-8.868835
-8.698013
-8.481818
-8.219585
-7.915091
-7.573441
-7.200013
-6.801221
-6.385054
-5.961810
-5.544746
-5.148661
-4.785653
-4.460986
-4.171966
-3.908955
-3.657463
-3.401292
-3.125419
-2.817447
-2.468344
-2.073307
-1.632527
-1.151139
-0.638335
-0.106933
0.426386
0.942451
1.423784
1.859412
2.247434
2.594690
2.914364
3.222267
3.532879
3.857110
4.202635
4.574874
4.976653
5.406969
5.860591
6.329645
6.806593
7.287329
7.773247
8.270888
8.789419
9.337432
9.919572
10.534347
11.174127
11.826361
12.475896
13.108263
13.711737
14.277392
14.798585
15.270888
15.691901
16.060221
16.374126
16.630079
16.821539
16.939459
16.974348
16.918121
16.764666
16.509615
16.150206
15.685533
15.116770
14.447084
13.681454
12.826525
11.890452
10.882833
9.814646
8.698115
7.546711
6.375777
5.204363
4.058161
2.971815
1.986208
1.137712
0.445674
-0.091913
-0.493334
-0.783941
-0.987639
-1.122796
-1.203637
-1.243391
-1.254753
-1.247904
-1.228730
-1.198610
-1.156004
-1.098926
-1.027203
-0.943860
-0.855300
-0.770679
-0.701250
-0.659637
-0.657300
-0.700401
-0.787786
-0.912713
-1.065930
-1.237994
-1.420949
-1.609881
-1.803723
-2.004689
-2.215993
-2.439044
-2.672752
-2.914884
-3.164712
-3.426374
-3.708957
-4.021987
-4.369054
-4.742320
-5.121856
-5.481553
-5.798747
-6.061778
-6.270276
-6.428796
-6.540191
-6.603767
-6.616709
-6.576167
-6.481438
-6.334302
-6.137878
-5.896756
-5.617715
-5.308946
-4.977557
-4.627023
-4.256618
-3.863021
-3.442997
-2.996400
-2.529753
-2.059438
-1.610503
-1.209959
-0.879324
-0.630096
-0.462743
-0.369273
-0.336981
-0.350430
-0.392737
-0.446969
-0.495384
-0.517513
-0.491457
-0.399634
-0.236353
-0.010818
0.258476
0.552155
0.854175
1.152172
1.437077
1.703308
1.949052
2.175232
2.382593
2.568393
2.725266
2.843316
2.913552
2.930062
2.890684
2.797031
2.653428
2.465393
2.239939
1.986795
1.718033
1.446917
1.186554
0.947176
0.732932
0.540408
0.361097
0.185819
0.005927
-0.185841
-0.391146
-0.604217
-0.814675
-1.011342
-1.185698
-1.334268
-1.459529
-1.568882
-1.671593
-1.775320
-1.883813
-1.996405
-2.108809
-2.214195
-2.304308
-2.370607
-2.405507
-2.403746
-2.362728
-2.280720
-2.154962
-1.982137
-1.760282
-1.490912
-1.180343
-0.837312
-0.468619
-0.078710
0.327890
0.745694
1.168360
1.588973
2.000943
2.398415
2.774980
3.122983
3.435437
3.707670
3.936659
4.119565
4.253359
4.336113
4.368872
4.356904
4.309622
4.238665
4.155210
4.068128
3.982925
3.900706
3.817437
3.724626
3.612106
3.471647
3.299546
3.097015
2.867838
2.615152
2.340389
2.045435
1.736053
1.423520
1.123704
0.854790
0.634184
0.474377
0.379342
0.343924
0.356164
0.400272
0.458427
0.512439
0.546289
0.547852
0.509334
0.427051
0.300844
0.134006
-0.066576
-0.291081
-0.527834
-0.763881
-0.985351
-1.178850
-1.334020
-1.445563
-1.513175
-1.539696
-1.528732
-1.482925
-1.403473
-1.290482
-1.143841
-0.964359
-0.754641
-0.519629
-0.266734
-0.004891
0.257418
0.513751
0.759952
0.993758
1.214571
1.423664
1.624453
1.821544
2.018428
2.215670
2.410946
2.600107
2.777693
2.937131
3.071819
3.176528
3.247781
3.283712
3.284879
3.255179
3.200476
3.125267
3.030413
2.914038
2.774639
2.613519
2.435299
2.247571
2.060285
1.884584
1.731365
1.610137
1.528036
1.488699
1.491587
1.531956
1.600617
1.684168
1.767342
1.836338
1.880925
1.895423
1.879194
1.836217
1.773401
1.698087
1.616258
1.533059
1.454713
1.388987
1.342944
1.319759
1.317052
1.327621
1.341679
1.349082
1.341320
1.313316
1.264065
1.195706
1.111903
1.016667
0.914262
0.809693
0.708994
0.618492
0.543233
0.486136
0.447774
0.426310
0.418354
0.420014
0.427523
0.438023
0.450380
0.465471
0.485453
0.512478
0.548469
0.595673
0.655961
0.728701
0.808789
0.886195
0.947632
0.979470
0.970429
0.913675
0.808226
0.659251
0.477095
0.275231
0.067895
-0.131456
-0.310907
-0.461031
-0.575882
-0.653284
-0.694448
-0.703749
-0.688960
-0.661083
-0.632990
-0.617090
-0.622423
-0.652061
-0.702521
-0.765934
-0.833549
-0.897838
-0.952504
-0.993212
-1.019584
-1.035556
-1.048052
-1.065118
-1.093597
-1.137220
-1.195487
-1.263968
-1.336484
-1.406802
-1.468751
-1.516501
-1.545581
-1.553577
-1.539687
-1.503673
-1.445032
-1.362504
-1.254607
-1.120926
-0.962236
-0.779534
-0.573403
-0.344176
-0.092373
0.181127
0.474878
0.786281
1.111364
1.445684
1.785535
2.127940
2.469371
2.804999
3.129124
3.435435
3.716258
3.962189
4.163544
4.312703
4.405380
4.440251
4.417865
4.339858
4.208642
4.027453
3.800954
3.535945
3.241590
2.929508
2.614084
2.312227
2.041427
1.816247
1.645036
1.528515
1.460247
1.428428
1.418577
1.416268
1.408710
1.385397
1.339011
1.266277
1.167556
1.045495
0.903798
0.746576
0.578059
0.401905
0.220340
0.034830
-0.151733
-0.333812
-0.503767
-0.652962
-0.772683
-0.854965
-0.893809
-0.886624
-0.835063
-0.743761
-0.618034
-0.463090
-0.283832
-0.085132
0.126834
0.344179
0.558150
0.760597
0.945902
1.112617
1.263958
1.406322
1.546785
1.691325
1.843942
2.006093
2.176112
2.348667
2.515182
2.665608
2.790708
2.883825
2.941833
2.965457
2.959017
2.929826
2.886871
2.838669
2.791060
2.745392
2.698410
2.644558
2.579595
2.503473
2.420416
2.337042
2.260443
2.196584
2.149027
2.117942
2.100005
2.089782
2.081744
2.072125
2.060220
2.048275
2.040101
2.039694
2.049838
2.070590
2.098744
2.128469
2.152421
2.163129
2.154461
2.122723
2.066945
1.988148
1.887940
1.767388
1.627091
1.468155
1.293143
1.106491
0.914420
0.724418
0.544093
0.379734
0.235591
0.114180
0.016947
-0.055269
-0.102125
-0.124012
-0.122395
-0.100068
-0.061292
-0.011605
0.042790
0.095829
0.142366
0.178746
0.202981
0.214415
0.213085
0.198977
0.171424
0.129194
0.071005
-0.004268
-0.097371
-0.208304
-0.336267
-0.479757
-0.636581
-0.803952
-0.978875
-1.158649
-1.340991
-1.523657
-1.704144
-1.879739
-2.047758
-2.205761
-2.351549
-2.483246
-2.599765
-2.701155
-2.787968
-2.860083
-2.916272
-2.954559
-2.972535
-2.967554
-2.937174
-2.879599
-2.793671
-2.678720
-2.534803
-2.363277
-2.167131
-1.950435
-1.717188
-1.470698
-1.213888
-0.949932
