EVENT_NAME: EMILIA_2ND_SHOCK
EVENT_ID: IT-2012-0011
EVENT_DATE_YYYYMMDD: 20120529
EVENT_TIME_HHMMSS: 070002
EVENT_LATITUDE_DEGREE: 44.8417
EVENT_LONGITUDE_DEGREE: 11.0657
EVENT_DEPTH_KM: 8.1
HYPOCENTER_REFERENCE: INGV-CNT_Seismic_Bulletin
MAGNITUDE_W: 6.0
MAGNITUDE_W_REFERENCE: RCMT-INGV
MAGNITUDE_L: 5.8
MAGNITUDE_L_REFERENCE: INGV-CNT_Seismic_Bulletin
FOCAL_MECHANISM: TF
NETWORK: IT
STATION_CODE: FIN0
STATION_NAME: FINALE EMILIA
STATION_LATITUDE_DEGREE: 44.829700
STATION_LONGITUDE_DEGREE: 11.286700
STATION_ELEVATION_M: 61
LOCATION: 
SENSOR_DEPTH_M: 0.0
VS30_M/S: 
SITE_CLASSIFICATION_EC8: C*
MORPHOLOGIC_CLASSIFICATION: 
EPICENTRAL_DISTANCE_KM: 17.5
EARTHQUAKE_BACKAZIMUTH_DEGREE: 274.4
DATE_TIME_FIRST_SAMPLE_YYYYMMDD_HHMMSS: 20120529_065953.000
DATE_TIME_FIRST_SAMPLE_PRECISION: seconds
SAMPLING_INTERVAL_S: 0.005000
NDATA: 23800
DURATION_S: 119.000
STREAM: HNE
UNITS: cm/s
INSTRUMENT: sensor = Episensor FBA ES-T [Kinemetrics] | digitizer = Etna [Kinemetrics]
INSTRUMENT_ANALOG/DIGITAL: D
INSTRUMENTAL_FREQUENCY_HZ: 
INSTRUMENTAL_DAMPING: 
FULL_SCALE_G: 
N_BIT_DIGITAL_CONVERTER: 18
PGV_CM/S: -17.556853
TIME_PGV_S: 20.995000
BASELINE_CORRECTION: BASELINE REMOVED
FILTER_TYPE: BUTTERWORTH
FILTER_ORDER: 2
LOW_CUT_FREQUENCY_HZ: 0.050
HIGH_CUT_FREQUENCY_HZ: 30.000
LATE/NORMAL_TRIGGERED: NT
DATABASE_VERSION: DYNA 1.0
HEADER_FORMAT: DYNA 1.2
DATA_TYPE: VELOCITY
PROCESSING: manual (Paolucci et al., 2011)
DATA_TIMESTAMP_YYYYMMDD_HHMMSS: 20141204_102913.574
DATA_LICENSE: CC-BY3_0-IT (http://creativecommons.org/licenses/by/3.0/deed.en)
DATA_CITATION: ESM working group (2015), European Strong-Motion database, version 0.1, Network Activity 3: Networking acceleration networks and SM data users. Project NERA (www.nera-eu.org)
DATA_CREATOR: ESM working group
ORIGINAL_DATA_MEDIATOR_CITATION: Ufficio Rischio Sismico e Vulcanico del Dipartimento della Protezione Civile (http://www.protezionecivile.gov.it/)
ORIGINAL_DATA_MEDIATOR: Rete Accelerometrica Nazionale - RAN Download (http://www.mot1.it/randownload/)
ORIGINAL_DATA_CREATOR_CITATION: Italian Strong Motion Network, Italian Civil Protection Department http://www.protezionecivile.gov.it
ORIGINAL_DATA_CREATOR: network: IT (Italian Strong Motion Network); owner: Dipartimento Della Protezione Civile
USER1: /home/dyna/processing-itaca/processing.py /var/www/processing/tmp/fpacor//IT.FIN0..HNE.D.20120529.070003.X.ACC.ASC /var/www/processing/tmp/fpacor//IT.FIN0..HNN.D.20120529.070003.X.ACC.ASC /var/www/processing/tmp/fpacor//IT.FIN0..HNZ.D.20120529.070003.X.ACC.ASC --tmp /var/www/processing/tmp/fpacor/ --le 0.050 --he 30.000 --ln 0.050 --hn 30.000 --lz 0.050 --hz 30.000 --fo 2 --ca -10 --cz 40 --ta 5 --tz 5 --mf 1 --rf 0 --tr NT
USER2: 
USER3: 
USER4: 
USER5: 
[...]
-0.051090
-0.053785
-0.057652
-0.062031
-0.066323
-0.069601
-0.070848
-0.069785
-0.067192
-0.064275
-0.061915
-0.060478
-0.059924
-0.059887
-0.059880
-0.059495
-0.058267
-0.055608
-0.051379
-0.046522
-0.042686
-0.041184
-0.042542
-0.046782
-0.053487
-0.061401
-0.068508
-0.072974
-0.074007
-0.071853
-0.067427
-0.062222
-0.058204
-0.057033
-0.058957
-0.062463
-0.065172
-0.065234
-0.062172
-0.056851
-0.050998
-0.046567
-0.045102
-0.047239
-0.052556
-0.059855
-0.067617
-0.074297
-0.078450
-0.079049
-0.075939
-0.069997
-0.062848
-0.056500
-0.053028
-0.053967
-0.059445
-0.067818
-0.076295
-0.082123
-0.083487
-0.079927
-0.072509
-0.063633
-0.056154
-0.052098
-0.051779
-0.053891
-0.056373
-0.057536
-0.056986
-0.055681
-0.054975
-0.055492
-0.056963
-0.058979
-0.061518
-0.064715
-0.068393
-0.071861
-0.074030
-0.073829
-0.070912
-0.066221
-0.061691
-0.059179
-0.059554
-0.062485
-0.066604
-0.069734
-0.069583
-0.065065
-0.057324
-0.049331
-0.044303
-0.044249
-0.049483
-0.058827
-0.070024
-0.080268
-0.086898
-0.088179
-0.083861
-0.075120
-0.063991
-0.052819
-0.044023
-0.039840
-0.041694
-0.049449
-0.061182
-0.073709
-0.083600
-0.088233
-0.086494
-0.079032
-0.068256
-0.057955
-0.052089
-0.052907
-0.059678
-0.069140
-0.077295
-0.081242
-0.080121
-0.075006
-0.067982
-0.060981
-0.055110
-0.050790
-0.048367
-0.048462
-0.051546
-0.057080
-0.063238
-0.067905
-0.070265
-0.071479
-0.073759
-0.078695
-0.086050
-0.093668
-0.098365
-0.097362
-0.089716
-0.077009
-0.062691
-0.050508
-0.043154
-0.041766
-0.045941
-0.053908
-0.063033
-0.070848
-0.076023
-0.078431
-0.078501
-0.076838
-0.074344
-0.072109
-0.070733
-0.069784
-0.068176
-0.065091
-0.060462
-0.054808
-0.049066
-0.044622
-0.043002
-0.045221
-0.051445
-0.061046
-0.072437
-0.082889
-0.089295
-0.089860
-0.085232
-0.077874
-0.070319
-0.064025
-0.059603
-0.057643
-0.059075
-0.064751
-0.074561
-0.086681
-0.097572
-0.103139
-0.100740
-0.090819
-0.076841
-0.063418
-0.053992
-0.049659
-0.049525
-0.051964
-0.055829
-0.060863
-0.067070
-0.073668
-0.078914
-0.081308
-0.080943
-0.079431
-0.078423
-0.078294
-0.078173
-0.076882
-0.073711
-0.068632
-0.062256
-0.055758
-0.050533
-0.047518
-0.046853
-0.048306
-0.051788
-0.057085
-0.063172
-0.068221
-0.070576
-0.069660
-0.065943
-0.060327
-0.053881
-0.048066
-0.044865
-0.046292
-0.053396
-0.065411
-0.079799
-0.093297
-0.103234
-0.108066
-0.106981
-0.099502
-0.085843
-0.067753
-0.048873
-0.033904
-0.026717
-0.028379
-0.036421
-0.046030
-0.052580
-0.053882
-0.050839
-0.046356
-0.043450
-0.043795
-0.047369
-0.052988
-0.059105
-0.064309
-0.067502
-0.068061
-0.066041
-0.062145
-0.057409
-0.052904
-0.049763
-0.049331
-0.052788
-0.060141
-0.069439
-0.077170
-0.079956
-0.076392
-0.067602
-0.056295
-0.045451
-0.037643
-0.034896
-0.038523
-0.048654
-0.063635
-0.079823
-0.092545
-0.098245
-0.096293
-0.088860
-0.079117
-0.069578
-0.061761
-0.056640
-0.054858
-0.056500
-0.060854
-0.066495
-0.071752
-0.075228
-0.076061
-0.074056
-0.070011
-0.065779
-0.063364
-0.063367
-0.064343
-0.063956
-0.060887
-0.055739
-0.050504
-0.047356
-0.047463
-0.050263
-0.053844
-0.056560
-0.058446
-0.060660
-0.063417
-0.064787
-0.061897
-0.053421
-0.040981
-0.028435
-0.019903
-0.017988
-0.022948
-0.032954
-0.045374
-0.058425
-0.071732
-0.084906
-0.095635
-0.099972
-0.095153
-0.082166
-0.065448
-0.050277
-0.040521
-0.037930
-0.042274
-0.051759
-0.063827
-0.076087
-0.086732
-0.094290
-0.097269
-0.094313
-0.084870
-0.070019
-0.052851
-0.037609
-0.027592
-0.023234
-0.022140
-0.021360
-0.019873
-0.019116
-0.021407
-0.027832
-0.037160
-0.046371
-0.052348
-0.053726
-0.051618
-0.048322
-0.044951
-0.040638
-0.034341
-0.026841
-0.020385
-0.016839
-0.016805
-0.019915
-0.024720
-0.028340
-0.027575
-0.021382
-0.012182
-0.004248
-0.000831
-0.003082
-0.011332
-0.026449
-0.049319
-0.078869
-0.110574
-0.137185
-0.151844
-0.151337
-0.136950
-0.113082
-0.085769
-0.061776
-0.047150
-0.045111
-0.055022
-0.073501
-0.096054
-0.117586
-0.132869
-0.138503
-0.134790
-0.124842
-0.111432
-0.095299
-0.076889
-0.058770
-0.045122
-0.038832
-0.039873
-0.046658
-0.057773
-0.071590
-0.085313
-0.095786
-0.101019
-0.100252
-0.093037
-0.079241
-0.060191
-0.039051
-0.019423
-0.003522
0.008269
0.016243
0.020017
0.018632
0.012144
0.002791
-0.005899
-0.011502
-0.014257
-0.015949
-0.017484
-0.018372
-0.018563
-0.020004
-0.025958
-0.038736
-0.057613
-0.078179
-0.093571
-0.097212
-0.085522
-0.059079
-0.022143
0.018584
0.055186
0.079715
0.085923
0.071641
0.040413
0.000170
-0.040889
-0.077792
-0.108704
-0.132274
-0.145967
-0.147217
-0.135844
-0.115242
-0.091283
-0.069862
-0.055101
-0.049144
-0.052740
-0.065293
-0.084090
-0.103954
-0.118413
-0.121668
-0.110321
-0.084748
-0.049508
-0.011941
0.020299
0.040956
0.045745
0.033200
0.006379
-0.026768
-0.056156
-0.073652
-0.075433
-0.062503
-0.040775
-0.019875
-0.009293
-0.013775
-0.031524
-0.056149
-0.079728
-0.094770
-0.095537
-0.079232
-0.046512
-0.001457
0.048409
0.092906
0.122337
0.131851
0.123285
0.103041
0.078783
0.057913
0.047042
0.050335
0.067241
0.091971
0.115767
0.130476
0.130816
0.114441
0.081681
0.036686
-0.011667
-0.051801
-0.073562
-0.071488
-0.046228
-0.004529
0.042411
0.082704
0.108395
0.117851
0.113806
0.098853
0.072990
0.035533
-0.011468
-0.062118
-0.107908
-0.139354
-0.147741
-0.127898
-0.081902
-0.020877
0.038404
0.080839
0.098286
0.089911
0.060389
0.018059
-0.027761
-0.069320
-0.100199
-0.112998
-0.099233
-0.054516
0.014661
0.090852
0.153974
0.190278
0.195598
0.173517
0.132288
0.082991
0.038177
0.009212
0.002790
0.019387
0.055274
0.104966
0.159785
0.205184
0.224030
0.205797
0.153039
0.079815
0.005773
-0.049452
-0.071042
-0.052996
-0.000223
0.072235
0.142864
0.189513
0.196369
0.159183
0.085690
-0.007533
-0.098832
-0.166068
-0.192891
-0.173924
-0.114899
-0.028649
0.068611
0.159011
0.225075
0.253756
0.240360
0.189894
0.116653
0.042404
-0.008826
-0.019292
0.015199
0.084515
0.169814
0.250327
0.307831
0.329695
0.311292
0.256432
0.175441
0.082553
-0.006139
-0.075059
-0.113057
-0.117454
-0.094859
-0.057120
-0.014917
0.026401
0.066291
0.105582
0.143603
0.177577
0.203958
0.220633
0.228092
0.228279
0.222365
0.209990
0.190970
0.167501
0.144237
0.126063
0.115343
0.110430
0.106461
0.097930
0.081406
0.057389
0.031083
0.011313
0.006944
0.022199
0.054190
0.095597
0.140894
0.189243
0.240704
0.290925
0.330886
0.352211
0.352359
0.335461
0.310943
0.291898
0.291199
0.315008
0.358131
0.406103
0.442911
0.458126
0.448794
0.416928
0.366592
0.303053
0.233874
0.169743
0.121347
0.092486
0.076731
0.063073
0.045343
0.026016
0.013036
0.015148
0.038662
0.085056
0.149625
0.222338
0.290500
0.340911
0.360932
0.340821
0.277828
0.178812
0.059113
-0.061208
-0.161494
-0.224756
-0.242922
-0.220298
-0.171428
-0.114610
-0.066108
-0.038113
-0.037982
-0.065647
-0.112260
-0.163585
-0.204990
-0.224275
-0.213412
-0.171304
-0.105616
-0.029996
0.041650
0.098890
0.136178
0.154558
0.162346
0.171939
0.194686
0.237772
0.303262
0.387525
0.481683
0.574653
0.656480
0.719407
0.759867
0.783106
0.803587
0.836485
0.887911
0.952852
1.018981
1.069823
1.086624
1.052974
0.962269
0.821349
0.646237
0.454365
0.258643
0.065463
-0.122132
-0.298091
-0.450177
-0.563970
-0.630553
-0.650445
-0.631171
-0.582742
-0.514984
-0.435866
-0.349624
-0.256920
-0.158546
-0.058775
0.036630
0.125992
0.213819
0.306313
0.404680
0.502492
0.588937
0.654636
0.696375
0.719311
0.734893
0.754320
0.782011
0.813385
0.837051
0.839364
0.809136
0.740731
0.634150
0.492625
0.321548
0.130023
-0.069396
-0.265796
-0.455176
-0.638449
-0.814404
-0.978339
-1.127443
-1.262508
-1.382268
-1.478374
-1.537322
-1.545716
-1.492633
-1.369785
-1.174324
-0.913639
-0.605509
-0.271592
0.069486
0.405407
0.730904
1.044688
1.342063
1.609834
1.830129
1.989438
2.081703
2.103032
2.048678
1.917646
1.716490
1.456196
1.148644
0.809952
0.465755
0.148297
-0.113783
-0.301787
-0.404386
-0.413614
-0.326868
-0.151487
0.096004
0.396309
0.732661
1.089782
1.448604
1.784304
2.070235
2.282317
2.401233
2.415217
2.323222
2.134974
1.867656
1.542271
1.181731
0.810240
0.453032
0.136391
-0.113816
-0.277791
-0.348400
-0.330711
-0.234081
-0.066793
0.160767
0.431108
0.721042
1.006800
1.266448
1.481727
1.643273
1.754731
1.829556
1.882177
1.920416
1.942685
1.938535
1.891475
1.784912
1.610632
1.374707
1.095079
0.793445
0.490318
0.206535
-0.034273
-0.208297
-0.297956
-0.296689
-0.209891
-0.053303
0.149406
0.370032
0.581519
0.764123
0.907920
1.011152
1.077125
1.111582
1.121176
1.111851
1.085331
1.035927
0.952207
0.823630
0.647127
0.429072
0.183357
-0.070743
-0.310738
-0.515711
-0.671693
-0.772316
-0.814557
-0.794788
-0.709288
-0.557757
-0.345930
-0.087159
0.196417
0.476245
0.725163
0.926011
1.073964
1.171893
1.225325
1.240966
1.226044
1.186257
1.125655
1.050662
0.972596
0.903258
0.848102
0.806024
0.775886
0.760404
0.763635
0.788265
0.836496
0.911474
1.015573
1.145275
1.286390
1.414885
1.504776
1.537204
1.503536
1.403348
1.244070
1.044087
0.831806
0.635427
0.471792
0.346638
0.264816
0.236457
0.271126
0.368057
0.513329
0.681994
0.841252
0.960135
1.023376
1.034108
1.001382
0.927592
0.809852
0.652430
0.475695
0.311748
0.190925
0.131710
0.139649
0.210162
0.330833
0.483920
0.650197
0.813860
0.966203
1.104720
1.228280
1.334120
1.420353
1.489967
1.550369
1.608877
1.668404
1.725243
1.769216
1.787021
1.767787
1.707563
1.610803
1.489013
1.357637
1.232341
1.124652
1.037239
0.962065
0.884313
0.789957
0.672744
0.538205
0.403341
0.291233
0.222546
0.208908
0.252325
0.348654
0.489335
0.659815
0.839915
1.009013
1.150322
1.250137
1.296932
1.284666
1.217164
1.108225
0.975876
0.834982
0.694827
0.562542
0.446082
0.351755
0.279708
0.224215
0.179319
0.144661
0.127788
0.142973
0.206884
0.331184
0.516689
0.753765
1.025670
1.309963
1.579954
1.809575
1.978937
2.076549
2.099879
2.056971
1.967418
1.859332
1.761480
1.694046
1.663023
1.660256
1.668473
1.669812
1.654531
1.625257
1.594788
1.579537
1.592802
1.641884
1.728926
1.851597
2.001357
2.160691
2.303245
2.399491
2.425588
2.370875
2.241030
2.055613
1.840642
1.619915
1.410645
1.225425
1.075621
0.970115
0.910426
0.888916
0.893483
0.915057
0.952268
1.010760
1.097858
1.215322
1.355228
1.502677
1.642900
1.767033
1.873501
1.965227
2.044154
2.106068
2.140073
2.134323
2.083100
1.988461
1.856488
1.694171
1.509881
1.314422
1.120545
0.942405
0.795304
0.692834
0.640634
0.631467
0.646972
0.665437
0.669907
0.651963
0.611236
0.553275
0.486900
0.421029
0.362169
0.313747
0.276591
0.249432
0.229184
0.211305
0.190409
0.160780
0.116792
0.054293
-0.027328
-0.124937
-0.233966
-0.350073
-0.468700
-0.585286
-0.697282
-0.804983
-0.909708
-1.011868
-1.110810
-1.205231
-1.292170
-1.365573
-1.418888
-1.450981
-1.467693
-1.476893
-1.483174
-1.486288
-1.482042
-1.464174
-1.427427
-1.371069
-1.299800
-1.219971
-1.133715
-1.035848
-0.915741
-0.763402
-0.577057
-0.367145
-0.152533
0.049118
0.229545
0.391085
0.541440
0.686257
0.823779
0.944048
1.033035
1.079066
1.076608
1.024634
0.922208
0.765846
0.550551
0.273415
-0.062336
-0.445414
-0.858725
-1.284869
-1.710728
-2.127782
-2.529253
-2.907488
-3.251879
-3.545951
-3.765463
-3.881068
-3.865613
-3.701425
-3.382893
-2.915107
-2.312620
-1.599559
-0.808449
0.023907
0.861459
1.672864
2.433682
3.125733
3.734809
4.250676
4.670208
4.999768
5.253089
5.445850
5.591244
5.698547
5.772885
5.814011
5.814935
5.762974
5.643812
5.446361
5.165634
4.802686
4.363046
3.855672
3.292978
2.690813
2.067633
1.443514
0.839383
0.276005
-0.227126
-0.652569
-0.985691
-1.215707
-1.336630
-1.347844
-1.254176
-1.065335
-0.795025
-0.460172
-0.080047
0.325071
0.735254
1.132176
1.500536
1.828784
2.108382
2.332097
2.492664
2.583399
2.600616
2.545438
2.424322
2.250156
2.044633
1.839987
1.674758
1.580056
1.563522
1.603720
1.659711
1.689100
1.662668
1.567806
1.402256
1.165161
0.851579
0.453542
-0.033836
-0.606441
-1.249743
-1.942871
-2.665809
-3.405250
-4.154711
-4.909078
-5.660566
-6.400724
-7.123974
-7.827341
-8.507724
-9.160654
-9.781022
-10.363720
-10.903327
-11.393742
-11.829262
-12.207317
-12.530540
-12.806507
-13.045852
-13.259750
-13.458191
-13.649847
-13.842852
-14.045767
-14.267408
-14.514149
-14.786356
-15.078166
-15.381388
-15.688489
-15.992542
-16.286789
-16.563759
-16.815023
-17.033964
-17.217560
-17.364405
-17.472492
-17.538345
-17.556852
-17.522182
-17.429241
-17.274496
-17.055641
-16.770466
-16.416637
-15.992908
-15.500094
-14.941384
-14.322258
-13.649403
-12.928501
-12.162031
-11.349016
-10.487478
-9.577794
-8.624660
-7.636479
-6.623051
-5.593633
-4.556055
-3.517342
-2.485817
-1.472311
-0.489113
0.451776
1.339643
2.165194
2.920532
3.600153
4.202676
4.731904
5.196970
5.612227
5.996407
6.369338
6.746596
7.135330
7.532968
7.928656
8.307603
8.656690
8.968135
9.239693
9.472086
9.665536
9.817950
9.927077
9.995657
10.034407
10.058724
10.081513
10.108844
10.140976
10.174717
10.203464
10.216615
10.201356
10.146037
10.042709
9.888025
9.682359
9.427372
9.123621
8.769807
8.363910
7.905314
7.396518
6.843518
6.254268
5.634952
4.987288
4.310799
3.606609
2.878235
2.131911
1.377608
0.628536
-0.098700
-0.781600
-1.390350
-1.891071
-2.254242
-2.464081
-2.522492
-2.445368
-2.254362
-1.969571
-1.607930
-1.186673
-0.725474
-0.245099
0.233062
0.686472
1.093695
1.438836
1.714369
1.920306
2.061449
2.145308
2.180712
2.176357
2.139601
2.077069
1.997571
1.914423
1.844266
1.803624
1.805511
1.856898
1.958444
2.106408
2.294087
2.512129
2.748635
2.988256
3.210900
3.392410
3.508180
3.539618
3.479265
3.329214
3.096017
2.787898
2.414143
1.985083
1.512501
1.010526
0.497037
-0.005296
-0.470055
-0.870586
-1.184502
-1.397514
-1.504716
-1.508019
-1.411509
-1.218430
-0.931452
-0.554505
-0.094449
0.436892
1.021011
1.634736
2.255445
2.863888
3.443940
3.981741
4.464718
4.882388
5.227532
5.495626
5.684950
5.796570
5.833550
5.800912
5.705586
5.556432
5.363928
5.139195
4.893723
4.639552
4.389112
4.155550
3.953878
3.799636
3.703272
3.665616
3.679718
3.735892
3.823532
3.930390
4.044213
4.155943
4.261390
4.361128
4.458730
4.558046
4.661113
4.767244
4.873160
4.973834
5.063012
5.133275
5.177104
5.189175
5.168617
5.120018
5.052167
4.975451
4.900273
4.837161
4.796126
4.783612
4.799951
4.840224
4.896862
4.961825
5.028525
5.092331
5.148761
5.192671
5.220130
5.229303
5.218805
5.186850
5.132858
5.058973
4.969328
4.867651
4.754819
4.627729
4.480225
4.305987
4.102487
3.873820
3.630341
3.385347
3.151553
2.939865
2.759715
2.618701
2.521210
2.466669
2.448441
2.455497
2.476518
2.502273
2.525104
2.538995
2.542548
2.542723
2.554793
2.596536
2.679992
2.806539
2.967050
3.144267
3.315459
3.455826
3.542926
3.560843
3.502579
3.370211
3.172489
2.920865
2.626601
2.300874
1.956102
1.605028
1.257704
0.918868
0.587186
0.257634
-0.074704
-0.412850
-0.757326
-1.105975
-1.455715
-1.804279
-2.149560
-2.488409
-2.817250
-3.133317
-3.434216
-3.716240
-3.973572
-4.199243
-4.386526
-4.529499
-4.623625
-4.666493
-4.657297
-4.595816
-4.482488
-4.318977
-4.108361
-3.854836
-3.562956
-3.237290
-2.883366
-2.509246
-2.125921
-1.745658
-1.379779
-1.037628
-0.726525
-0.451870
-0.217538
-0.026426
0.119395
0.218333
0.268368
0.267301
0.214871
0.114417
-0.027256
-0.200337
-0.391374
-0.582625
-0.753555
-0.884802
-0.962598
-0.981343
-0.943283
-0.856054
-0.730165
-0.577610
-0.411611
-0.247039
-0.100286
0.012478
0.077944
0.087608
0.038587
-0.065940
-0.216032
-0.394916
-0.581483
-0.754569
-0.895959
-0.991618
-1.032900
-1.017984
-0.951578
-0.842148
-0.698739
-0.529649
-0.342800
-0.146001
0.053536
0.249457
0.435558
0.604600
0.748173
0.858074
0.927964
0.954066
0.934669
0.869111
0.757365
0.600570
0.401624
0.165400
-0.101525
-0.392137
-0.701128
-1.026430
-1.368145
-1.725112
-2.091691
-2.456229
-2.800962
-3.104273
-3.346103
-3.514157
-3.607497
-3.636222
-3.617918
-3.572534
-3.517356
-3.463908
-3.417486
-3.378043
-3.341551
-3.301883
-3.252523
-3.187393
-3.100783
-2.986860
-2.840026
-2.657381
-2.442083
-2.204576
-1.960846
-1.729960
-1.531781
-1.383515
-1.295391
-1.267693
-1.291148
-1.350834
-1.430937
-1.517728
-1.600694
-1.673419
-1.734482
-1.787015
-1.836990
-1.891523
-1.957659
-2.041565
-2.147653
-2.277254
-2.427534
-2.591698
-2.760213
-2.921775
-3.063986
-3.174712
-3.244397
-3.268132
-3.246068
-3.182332
-3.083654
-2.958003
-2.813115
-2.655162
-2.488036
-2.314234
-2.137503
-1.965532
-1.810466
-1.686630
-1.606704
-1.578550
-1.604279
-1.681195
-1.802801
-1.959073
-2.136899
-2.321400
-2.497715
-2.652590
-2.775356
-2.858222
-2.896633
-2.890124
-2.842919
-2.763460
-2.662650
-2.551036
-2.435820
-2.319156
-2.198668
-2.069854
-1.929069
-1.776068
-1.615110
-1.453552
-1.298830
-1.156031
-1.027367
-0.912838
-0.810857
-0.718737
-0.632580
-0.547494
-0.459363
-0.366796
-0.271692
-0.178339
-0.092407
-0.020594
0.029690
0.050688
0.034531
-0.026602
-0.140326
-0.313307
-0.549673
-0.848998
-1.205055
-1.606324
-2.037523
-2.481073
-2.918266
-3.329991
-3.697416
-4.003380
-4.234788
-4.385008
-4.454829
-4.452156
-4.390198
-4.284397
-4.150037
-4.000740
-3.847398
-3.697729
-3.556441
-3.425891
-3.306947
-3.199751
-3.104160
-3.019792
-2.946019
-2.881968
-2.826124
-2.775782
-2.726962
-2.674750
-2.613989
-2.540006
-2.448866
-2.337258
-2.202397
-2.042124
-1.855290
-1.642293
-1.405234
-1.147571
-0.873509
-0.587433
-0.293754
0.002731
0.296320
0.580184
0.846786
1.088767
1.299960
1.476322
1.616341
1.720790
1.792156
1.833952
1.850003
1.843855
1.818201
1.774400
1.712310
1.630651
1.527930
1.403487
1.258109
1.094045
0.914661
0.723986
0.526139
0.324783
0.123161
-0.075258
-0.266339
-0.445282
-0.606852
-0.746192
-0.860143
-0.948227
-1.012798
-1.058735
-1.093077
