EVENT_NAME: EMILIA_2ND_SHOCK
EVENT_ID: IT-2012-0011
EVENT_DATE_YYYYMMDD: 20120529
EVENT_TIME_HHMMSS: 070002
EVENT_LATITUDE_DEGREE: 44.8417
EVENT_LONGITUDE_DEGREE: 11.0657
EVENT_DEPTH_KM: 8.1
HYPOCENTER_REFERENCE: INGV-CNT_Seismic_Bulletin
MAGNITUDE_W: 6.0
MAGNITUDE_W_REFERENCE: RCMT-INGV
MAGNITUDE_L: 5.8
MAGNITUDE_L_REFERENCE: INGV-CNT_Seismic_Bulletin
FOCAL_MECHANISM: TF
NETWORK: IT
STATION_CODE: FIN0
STATION_NAME: FINALE EMILIA
STATION_LATITUDE_DEGREE: 44.829700
STATION_LONGITUDE_DEGREE: 11.286700
STATION_ELEVATION_M: 61
LOCATION: 
SENSOR_DEPTH_M: 0.0
VS30_M/S: 
SITE_CLASSIFICATION_EC8: C*
MORPHOLOGIC_CLASSIFICATION: 
EPICENTRAL_DISTANCE_KM: 17.5
EARTHQUAKE_BACKAZIMUTH_DEGREE: 274.4
DATE_TIME_FIRST_SAMPLE_YYYYMMDD_HHMMSS: 20120529_065953.000
DATE_TIME_FIRST_SAMPLE_PRECISION: seconds
SAMPLING_INTERVAL_S: 0.005000
NDATA: 23800
DURATION_S: 119.000
STREAM: HNE
UNITS: cm
INSTRUMENT: sensor = Episensor FBA ES-T [Kinemetrics] | digitizer = Etna [Kinemetrics]
INSTRUMENT_ANALOG/DIGITAL: D
INSTRUMENTAL_FREQUENCY_HZ: 
INSTRUMENTAL_DAMPING: 
FULL_SCALE_G: 
N_BIT_DIGITAL_CONVERTER: 18
PGD_CM: -2.993462
TIME_PGD_S: 24.635000
BASELINE_CORRECTION: BASELINE REMOVED
FILTER_TYPE: BUTTERWORTH
FILTER_ORDER: 2
LOW_CUT_FREQUENCY_HZ: 0.050
HIGH_CUT_FREQUENCY_HZ: 30.000
LATE/NORMAL_TRIGGERED: NT
DATABASE_VERSION: DYNA 1.0
HEADER_FORMAT: DYNA 1.2
DATA_TYPE: DISPLACEMENT
PROCESSING: manual (Paolucci et al., 2011)
DATA_TIMESTAMP_YYYYMMDD_HHMMSS: 20141204_102913.574
DATA_LICENSE: CC-BY3_0-IT (http://creativecommons.org/licenses/by/3.0/deed.en)
DATA_CITATION: ESM working group (2015), European Strong-Motion database, version 0.1, Network Activity 3: Networking acceleration networks and SM data users. Project NERA (www.nera-eu.org)
DATA_CREATOR: ESM working group
ORIGINAL_DATA_MEDIATOR_CITATION: Ufficio Rischio Sismico e Vulcanico del Dipartimento della Protezione Civile (http://www.protezionecivile.gov.it/)
ORIGINAL_DATA_MEDIATOR: Rete Accelerometrica Nazionale - RAN Download (http://www.mot1.it/randownload/)
ORIGINAL_DATA_CREATOR_CITATION: Italian Strong Motion Network, Italian Civil Protection Department http://www.protezionecivile.gov.it
ORIGINAL_DATA_CREATOR: network: IT (Italian Strong Motion Network); owner: Dipartimento Della Protezione Civile
USER1: /home/dyna/processing-itaca/processing.py /var/www/processing/tmp/fpacor//IT.FIN0..HNE.D.20120529.070003.X.ACC.ASC /var/www/processing/tmp/fpacor//IT.FIN0..HNN.D.20120529.070003.X.ACC.ASC /var/www/processing/tmp/fpacor//IT.FIN0..HNZ.D.20120529.070003.X.ACC.ASC --tmp /var/www/processing/tmp/fpacor/ --le 0.050 --he 30.000 --ln 0.050 --hn 30.000 --lz 0.050 --hz 30.000 --fo 2 --ca -10 --cz 40 --ta 5 --tz 5 --mf 1 --rf 0 --tr NT
USER2: 
USER3: 
USER4: 
USER5: 
[...]
1.287611e+00
1.283586e+00
1.279037e+00
1.273978e+00
1.268424e+00
1.262398e+00
1.255937e+00
1.249109e+00
1.242015e+00
1.234760e+00
1.227421e+00
1.220037e+00
1.212621e+00
1.205189e+00
1.197779e+00
1.190458e+00
1.183321e+00
1.176466e+00
1.169967e+00
1.163867e+00
1.158198e+00
1.153019e+00
1.148441e+00
1.144623e+00
1.141738e+00
1.139902e+00
1.139140e+00
1.139385e+00
1.140533e+00
1.142489e+00
1.145196e+00
1.148627e+00
1.152746e+00
1.157466e+00
1.162631e+00
1.168027e+00
1.173410e+00
1.178533e+00
1.183144e+00
1.186973e+00
1.189726e+00
1.191093e+00
1.190781e+00
1.188554e+00
1.184261e+00
1.177836e+00
1.169283e+00
1.158644e+00
1.145997e+00
1.131460e+00
1.115201e+00
1.097471e+00
1.078644e+00
1.059238e+00
1.039910e+00
1.021403e+00
1.004489e+00
9.899130e-01
9.783499e-01
9.703521e-01
9.663099e-01
9.664294e-01
9.707367e-01
9.791010e-01
9.912695e-01
1.006898e+00
1.025572e+00
1.046826e+00
1.070177e+00
1.095175e+00
1.121441e+00
1.148670e+00
1.176626e+00
1.205119e+00
1.233983e+00
1.263054e+00
1.292128e+00
1.320943e+00
1.349162e+00
1.376394e+00
1.402222e+00
1.426236e+00
1.448051e+00
1.467329e+00
1.483794e+00
1.497248e+00
1.507586e+00
1.514804e+00
1.519001e+00
1.520381e+00
1.519245e+00
1.515982e+00
1.511054e+00
1.504975e+00
1.498292e+00
1.491553e+00
1.485282e+00
1.479955e+00
1.475980e+00
1.473679e+00
1.473279e+00
1.474905e+00
1.478581e+00
1.484242e+00
1.491744e+00
1.500888e+00
1.511430e+00
1.523091e+00
1.535554e+00
1.548471e+00
1.561474e+00
1.574201e+00
1.586323e+00
1.597574e+00
1.607797e+00
1.616997e+00
1.625371e+00
1.633271e+00
1.641088e+00
1.649107e+00
1.657406e+00
1.665851e+00
1.674164e+00
1.682003e+00
1.689015e+00
1.694841e+00
1.699098e+00
1.701366e+00
1.701197e+00
1.698165e+00
1.691916e+00
1.682202e+00
1.668873e+00
1.651846e+00
1.631073e+00
1.606527e+00
1.578225e+00
1.546221e+00
1.510601e+00
1.471464e+00
1.428926e+00
1.383123e+00
1.334217e+00
1.282399e+00
1.227882e+00
1.170913e+00
1.111767e+00
1.050731e+00
9.880779e-01
9.240454e-01
8.588161e-01
7.925173e-01
7.252264e-01
6.569772e-01
5.877629e-01
5.175341e-01
4.461970e-01
3.736263e-01
2.996945e-01
2.243037e-01
1.473967e-01
6.895429e-02
-1.100842e-02
-9.244236e-02
-1.752611e-01
-2.593363e-01
-3.445061e-01
-4.305939e-01
-5.174159e-01
-6.047784e-01
-6.924701e-01
-7.802544e-01
-8.678653e-01
-9.550115e-01
-1.041384e+00
-1.126662e+00
-1.210514e+00
-1.292598e+00
-1.372562e+00
-1.450063e+00
-1.524770e+00
-1.596381e+00
-1.664628e+00
-1.729270e+00
-1.790081e+00
-1.846826e+00
-1.899263e+00
-1.947152e+00
-1.990275e+00
-2.028458e+00
-2.061573e+00
-2.089541e+00
-2.112321e+00
-2.129908e+00
-2.142337e+00
-2.149699e+00
-2.152144e+00
-2.149885e+00
-2.143187e+00
-2.132361e+00
-2.117759e+00
-2.099758e+00
-2.078744e+00
-2.055085e+00
-2.029100e+00
-2.001039e+00
-1.971057e+00
-1.939210e+00
-1.905477e+00
-1.869801e+00
-1.832136e+00
-1.792492e+00
-1.750954e+00
-1.707671e+00
-1.662830e+00
-1.616632e+00
-1.569271e+00
-1.520944e+00
-1.471854e+00
-1.422219e+00
-1.372240e+00
-1.322068e+00
-1.271775e+00
-1.221367e+00
-1.170823e+00
-1.120118e+00
-1.069244e+00
-1.018227e+00
-9.671440e-01
-9.161373e-01
-8.654071e-01
-8.151935e-01
-7.657534e-01
-7.173416e-01
-6.702047e-01
-6.245866e-01
-5.807376e-01
-5.389181e-01
-4.993915e-01
-4.624089e-01
-4.281913e-01
-3.969200e-01
-3.687452e-01
-3.438088e-01
-3.222548e-01
-3.042217e-01
-2.898306e-01
-2.791710e-01
-2.722830e-01
-2.691403e-01
-2.696338e-01
-2.735418e-01
-2.804935e-01
-2.899489e-01
-3.012201e-01
-3.135405e-01
-3.261530e-01
-3.383798e-01
-3.496516e-01
-3.594995e-01
-3.675391e-01
-3.734725e-01
-3.770999e-01
-3.783253e-01
-3.771600e-01
-3.737277e-01
-3.682592e-01
-3.610650e-01
-3.524932e-01
-3.428916e-01
-3.325844e-01
-3.218579e-01
-3.109543e-01
-3.000725e-01
-2.893745e-01
-2.789892e-01
-2.690013e-01
-2.594292e-01
-2.502079e-01
-2.411897e-01
-2.321622e-01
-2.228777e-01
-2.130855e-01
-2.025534e-01
-1.910830e-01
-1.785224e-01
-1.647792e-01
-1.498379e-01
-1.337834e-01
-1.168214e-01
-9.928045e-02
-8.158236e-02
-6.418603e-02
-4.753996e-02
-3.205988e-02
-1.812039e-02
-6.049670e-03
3.875745e-03
1.143825e-02
1.649088e-02
1.897607e-02
1.894959e-02
1.659931e-02
1.224638e-02
6.323870e-03
-6.637017e-04
-8.187280e-03
-1.572737e-02
-2.278492e-02
-2.887707e-02
-3.353432e-02
-3.630685e-02
-3.677909e-02
-3.459463e-02
-2.948958e-02
-2.131590e-02
-1.003867e-02
4.280767e-03
2.150047e-02
4.140917e-02
6.373276e-02
8.814470e-02
1.142824e-01
1.417605e-01
1.701852e-01
1.991681e-01
2.283358e-01
2.573404e-01
2.858683e-01
3.136505e-01
3.404701e-01
3.661661e-01
3.906347e-01
4.138325e-01
4.357780e-01
4.565558e-01
4.763252e-01
4.953233e-01
5.138397e-01
5.321678e-01
5.505664e-01
5.692458e-01
5.883635e-01
6.080155e-01
6.282365e-01
6.490162e-01
6.703232e-01
6.921288e-01
7.144225e-01
7.372127e-01
7.605183e-01
7.843545e-01
8.087203e-01
8.335895e-01
8.589045e-01
8.845709e-01
9.104564e-01
9.364023e-01
9.622454e-01
9.878455e-01
1.013106e+00
1.037984e+00
1.062485e+00
1.086671e+00
1.110651e+00
1.134569e+00
1.158569e+00
1.182770e+00
1.207255e+00
1.232064e+00
1.257206e+00
1.282668e+00
1.308412e+00
1.334375e+00
1.360476e+00
1.386622e+00
1.412716e+00
1.438651e+00
1.464315e+00
1.489610e+00
1.514456e+00
1.538795e+00
1.562569e+00
1.585707e+00
1.608109e+00
1.629638e+00
1.650151e+00
1.669520e+00
1.687672e+00
1.704598e+00
1.720356e+00
1.735056e+00
1.748854e+00
1.761948e+00
1.774554e+00
1.786887e+00
1.799129e+00
1.811407e+00
1.823789e+00
1.836301e+00
1.848926e+00
1.861621e+00
1.874334e+00
1.887047e+00
1.899821e+00
1.912804e+00
1.926204e+00
1.940237e+00
1.955072e+00
1.970793e+00
1.987371e+00
2.004650e+00
2.022364e+00
2.040169e+00
2.057682e+00
2.074533e+00
2.090395e+00
2.104999e+00
2.118132e+00
2.129637e+00
2.139417e+00
2.147442e+00
2.153731e+00
2.158325e+00
2.161261e+00
2.162549e+00
2.162176e+00
2.160112e+00
2.156325e+00
2.150795e+00
2.143516e+00
2.134495e+00
2.123747e+00
2.111305e+00
2.097219e+00
2.081552e+00
2.064381e+00
2.045800e+00
2.025932e+00
2.004936e+00
1.983003e+00
1.960356e+00
1.937238e+00
1.913905e+00
1.890619e+00
1.867640e+00
1.845227e+00
1.823632e+00
1.803091e+00
1.783816e+00
1.766002e+00
1.749815e+00
1.735398e+00
1.722852e+00
1.712223e+00
1.703494e+00
1.696595e+00
1.691407e+00
1.687775e+00
1.685515e+00
1.684428e+00
1.684295e+00
1.684892e+00
1.685984e+00
1.687326e+00
1.688662e+00
1.689737e+00
1.690309e+00
1.690173e+00
1.689171e+00
1.687214e+00
1.684301e+00
1.680533e+00
1.676109e+00
1.671296e+00
1.666389e+00
1.661673e+00
1.657393e+00
1.653742e+00
1.650854e+00
1.648796e+00
1.647561e+00
1.647059e+00
1.647122e+00
1.647511e+00
1.647949e+00
1.648142e+00
1.647813e+00
1.646732e+00
1.644758e+00
1.641850e+00
1.638078e+00
1.633598e+00
1.628640e+00
1.623475e+00
1.618385e+00
1.613627e+00
1.609417e+00
1.605923e+00
1.603275e+00
1.601561e+00
1.600831e+00
1.601098e+00
1.602346e+00
1.604523e+00
1.607546e+00
1.611287e+00
1.615578e+00
1.620218e+00
1.624988e+00
1.629661e+00
1.634007e+00
1.637794e+00
1.640796e+00
1.642805e+00
1.643632e+00
1.643124e+00
1.641163e+00
1.637658e+00
1.632525e+00
1.625685e+00
1.617059e+00
1.606601e+00
1.594320e+00
1.580315e+00
1.564793e+00
1.548063e+00
1.530492e+00
1.512455e+00
1.494273e+00
1.476184e+00
1.458321e+00
1.440734e+00
1.423415e+00
1.406327e+00
1.389437e+00
1.372729e+00
1.356220e+00
1.339957e+00
1.324021e+00
1.308517e+00
1.293582e+00
1.279382e+00
1.266095e+00
1.253885e+00
1.242862e+00
1.233058e+00
1.224408e+00
1.216749e+00
1.209831e+00
1.203354e+00
1.197016e+00
1.190560e+00
1.183806e+00
1.176651e+00
1.169063e+00
1.161059e+00
1.152692e+00
1.144020e+00
1.135085e+00
1.125900e+00
1.116442e+00
1.106654e+00
1.096446e+00
1.085708e+00
1.074322e+00
1.062184e+00
1.049225e+00
1.035424e+00
1.020815e+00
1.005496e+00
9.896219e-01
9.734000e-01
9.570593e-01
9.408290e-01
9.249173e-01
9.094990e-01
8.947090e-01
8.806434e-01
8.673676e-01
8.549274e-01
8.433563e-01
8.326688e-01
8.228411e-01
8.137888e-01
8.053556e-01
7.973221e-01
7.894294e-01
7.814080e-01
7.730020e-01
7.639880e-01
7.541926e-01
7.435081e-01
7.319011e-01
7.194125e-01
7.061496e-01
6.922728e-01
6.779817e-01
6.634985e-01
6.490479e-01
6.348333e-01
6.210160e-01
6.077028e-01
5.949476e-01
5.827685e-01
5.711727e-01
5.601794e-01
5.498301e-01
5.401848e-01
5.313044e-01
5.232289e-01
5.159611e-01
5.094670e-01
5.036868e-01
4.985500e-01
4.939858e-01
4.899315e-01
4.863378e-01
4.831749e-01
4.804374e-01
4.781406e-01
4.763067e-01
4.749482e-01
4.740565e-01
4.735945e-01
4.734915e-01
4.736399e-01
4.738934e-01
4.740660e-01
4.739330e-01
4.732314e-01
4.716649e-01
4.689165e-01
4.646715e-01
4.586462e-01
4.506146e-01
4.404270e-01
4.280216e-01
4.134303e-01
3.967804e-01
3.782933e-01
3.582764e-01
3.371024e-01
3.151774e-01
2.929033e-01
2.706425e-01
2.486915e-01
2.272695e-01
2.065193e-01
1.865156e-01
1.672786e-01
1.487900e-01
1.310078e-01
1.138783e-01
9.734359e-02
8.134484e-02
6.582404e-02
5.072508e-02
3.599498e-02
2.158514e-02
7.454525e-03
-6.424387e-03
-2.005920e-02
-3.343295e-02
-4.650289e-02
-5.920292e-02
-7.144725e-02
-8.313354e-02
-9.414552e-02
-1.043561e-01
-1.136326e-01
-1.218441e-01
-1.288702e-01
-1.346081e-01
-1.389756e-01
-1.419128e-01
-1.433816e-01
-1.433679e-01
-1.418863e-01
-1.389854e-01
-1.347515e-01
-1.293076e-01
-1.228078e-01
-1.154262e-01
-1.073445e-01
-9.874056e-02
-8.977978e-02
-8.061002e-02
-7.136001e-02
-6.214073e-02
-5.304973e-02
-4.417773e-02
-3.561618e-02
-2.746292e-02
-1.982327e-02
-1.280584e-02
-6.515298e-03
-1.045072e-03
3.528234e-03
7.148163e-03
9.778859e-03
1.140278e-02
1.201858e-02
1.164229e-02
1.031060e-02
8.084186e-03
5.049927e-03
1.318967e-03
-2.981749e-03
-7.722884e-03
-1.278688e-02
-1.808055e-02
-2.354593e-02
-2.916744e-02
-3.497237e-02
-4.102424e-02
-4.741120e-02
-5.423123e-02
-6.157644e-02
-6.952049e-02
-7.811083e-02
-8.736473e-02
-9.726714e-02
-1.077700e-01
-1.187951e-01
-1.302428e-01
-1.420047e-01
-1.539773e-01
-1.660703e-01
-1.782111e-01
-1.903470e-01
-2.024479e-01
-2.145099e-01
-2.265555e-01
-2.386290e-01
-2.507905e-01
-2.631114e-01
-2.756694e-01
-2.885423e-01
-3.018015e-01
-3.155106e-01
-3.297284e-01
-3.445163e-01
-3.599455e-01
-3.761021e-01
-3.930868e-01
-4.110121e-01
-4.300003e-01
-4.501779e-01
-4.716661e-01
-4.945671e-01
-5.189499e-01
-5.448423e-01
-5.722294e-01
-6.010592e-01
-6.312502e-01
-6.627002e-01
-6.952975e-01
-7.289286e-01
-7.634827e-01
-7.988492e-01
-8.349123e-01
-8.715482e-01
-9.086235e-01
-9.459921e-01
-9.834914e-01
-1.020938e+00
-1.058127e+00
-1.094837e+00
-1.130835e+00
-1.165881e+00
-1.199741e+00
-1.232192e+00
-1.263037e+00
-1.292114e+00
-1.319294e+00
-1.344493e+00
-1.367674e+00
-1.388848e+00
-1.408070e+00
-1.425421e+00
-1.440994e+00
-1.454876e+00
-1.467147e+00
-1.477885e+00
-1.487187e+00
-1.495196e+00
-1.502113e+00
-1.508189e+00
-1.513704e+00
-1.518943e+00
-1.524184e+00
-1.529693e+00
-1.535721e+00
-1.542498e+00
-1.550229e+00
-1.559080e+00
-1.569170e+00
-1.580550e+00
-1.593201e+00
-1.607021e+00
-1.621833e+00
-1.637404e+00
-1.653462e+00
-1.669727e+00
-1.685923e+00
-1.701790e+00
-1.717081e+00
-1.731572e+00
-1.745069e+00
-1.757419e+00
-1.768513e+00
-1.778293e+00
-1.786745e+00
-1.793905e+00
-1.799846e+00
-1.804680e+00
-1.808548e+00
-1.811624e+00
-1.814105e+00
-1.816215e+00
-1.818205e+00
-1.820339e+00
-1.822887e+00
-1.826101e+00
-1.830200e+00
-1.835352e+00
-1.841674e+00
-1.849225e+00
-1.858013e+00
-1.868005e+00
-1.879132e+00
-1.891298e+00
-1.904384e+00
-1.918258e+00
-1.932783e+00
-1.947828e+00
-1.963270e+00
-1.978998e+00
-1.994912e+00
-2.010930e+00
-2.026996e+00
-2.043092e+00
-2.059245e+00
-2.075521e+00
-2.092007e+00
-2.108796e+00
-2.125970e+00
-2.143589e+00
-2.161677e+00
-2.180217e+00
-2.199155e+00
-2.218403e+00
-2.237853e+00
-2.257383e+00
-2.276878e+00
-2.296240e+00
-2.315400e+00
-2.334339e+00
-2.353081e+00
-2.371700e+00
-2.390304e+00
-2.409022e+00
-2.427981e+00
-2.447290e+00
-2.467017e+00
-2.487189e+00
-2.507789e+00
-2.528765e+00
-2.550041e+00
-2.571534e+00
-2.593168e+00
-2.614879e+00
-2.636624e+00
-2.658365e+00
-2.680073e+00
-2.701713e+00
-2.723240e+00
-2.744595e+00
-2.765697e+00
-2.786440e+00
-2.806695e+00
-2.826325e+00
-2.845189e+00
-2.863157e+00
-2.880113e+00
-2.895960e+00
-2.910630e+00
-2.924079e+00
-2.936290e+00
-2.947267e+00
-2.957026e+00
-2.965595e+00
-2.973001e+00
-2.979268e+00
-2.984406e+00
-2.988409e+00
-2.991262e+00
-2.992948e+00
-2.993462e+00
-2.992832e+00
-2.991131e+00
-2.988488e+00
-2.985086e+00
-2.981153e+00
-2.976940e+00
-2.972696e+00
-2.968648e+00
-2.964981e+00
-2.961830e+00
-2.959272e+00
-2.957321e+00
-2.955931e+00
-2.955004e+00
-2.954408e+00
-2.953996e+00
-2.953629e+00
-2.953189e+00
-2.952586e+00
-2.951762e+00
-2.950680e+00
-2.949325e+00
-2.947691e+00
-2.945782e+00
-2.943604e+00
-2.941165e+00
-2.938473e+00
-2.935538e+00
-2.932374e+00
-2.929000e+00
-2.925439e+00
-2.921720e+00
-2.917881e+00
-2.913965e+00
-2.910018e+00
-2.906081e+00
-2.902185e+00
-2.898343e+00
-2.894546e+00
-2.890762e+00
-2.886942e+00
-2.883017e+00
-2.878906e+00
-2.874517e+00
-2.869756e+00
-2.864540e+00
-2.858810e+00
-2.852544e+00
-2.845760e+00
-2.838508e+00
-2.830847e+00
-2.822833e+00
-2.814504e+00
-2.805872e+00
-2.796927e+00
-2.787652e+00
-2.778034e+00
-2.768084e+00
-2.757842e+00
-2.747389e+00
-2.736842e+00
-2.726353e+00
-2.716095e+00
-2.706247e+00
-2.696979e+00
-2.688445e+00
-2.680770e+00
-2.674048e+00
-2.668337e+00
-2.663659e+00
-2.660000e+00
-2.657318e+00
-2.655555e+00
-2.654644e+00
-2.654520e+00
-2.655123e+00
-2.656399e+00
-2.658299e+00
-2.660772e+00
-2.663768e+00
-2.667230e+00
-2.671094e+00
-2.675298e+00
-2.679774e+00
-2.684452e+00
-2.689249e+00
-2.694071e+00
-2.698809e+00
-2.703344e+00
-2.707555e+00
-2.711337e+00
-2.714608e+00
-2.717315e+00
-2.719431e+00
-2.720951e+00
-2.721881e+00
-2.722229e+00
-2.722000e+00
-2.721188e+00
-2.719779e+00
-2.717747e+00
-2.715061e+00
-2.711684e+00
-2.707575e+00
-2.702693e+00
-2.696998e+00
-2.690453e+00
-2.683038e+00
-2.674745e+00
-2.665589e+00
-2.655604e+00
-2.644839e+00
-2.633357e+00
-2.621221e+00
-2.608492e+00
-2.595216e+00
-2.581425e+00
-2.567130e+00
-2.552327e+00
-2.537008e+00
-2.521169e+00
-2.504822e+00
-2.488004e+00
-2.470778e+00
-2.453241e+00
-2.435508e+00
-2.417704e+00
-2.399947e+00
-2.382343e+00
-2.364979e+00
-2.347916e+00
-2.331186e+00
-2.314800e+00
-2.298750e+00
-2.283024e+00
-2.267607e+00
-2.252484e+00
-2.237647e+00
-2.223100e+00
-2.208856e+00
-2.194937e+00
-2.181364e+00
-2.168151e+00
-2.155302e+00
-2.142811e+00
-2.130654e+00
-2.118789e+00
-2.107157e+00
-2.095675e+00
-2.084242e+00
-2.072737e+00
-2.061030e+00
-2.048989e+00
-2.036482e+00
-2.023384e+00
-2.009582e+00
-1.994976e+00
-1.979487e+00
-1.963054e+00
-1.945635e+00
-1.927206e+00
-1.907767e+00
-1.887336e+00
-1.865957e+00
-1.843695e+00
-1.820649e+00
-1.796958e+00
-1.772800e+00
-1.748390e+00
-1.723955e+00
-1.699720e+00
-1.675877e+00
-1.652574e+00
-1.629907e+00
-1.607908e+00
-1.586553e+00
-1.565761e+00
-1.545405e+00
-1.525330e+00
-1.505367e+00
-1.485350e+00
-1.465137e+00
-1.444617e+00
-1.423712e+00
-1.402372e+00
-1.380572e+00
-1.358306e+00
-1.335574e+00
-1.312375e+00
-1.288701e+00
-1.264530e+00
-1.239834e+00
-1.214579e+00
-1.188743e+00
-1.162320e+00
-1.135331e+00
-1.107827e+00
-1.079893e+00
-1.051646e+00
-1.023229e+00
-9.947964e-01
-9.664963e-01
-9.384564e-01
-9.107703e-01
-8.834958e-01
-8.566563e-01
-8.302435e-01
-8.042196e-01
-7.785238e-01
-7.530853e-01
-7.278360e-01
-7.027207e-01
-6.777002e-01
-6.527500e-01
-6.278546e-01
-6.030028e-01
-5.781861e-01
-5.533986e-01
-5.286367e-01
-5.038970e-01
-4.791759e-01
-4.544704e-01
-4.297816e-01
-4.051187e-01
-3.804987e-01
-3.559413e-01
-3.314628e-01
-3.070719e-01
-2.827693e-01
-2.585503e-01
-2.344097e-01
-2.103469e-01
-1.863673e-01
-1.624824e-01
-1.387084e-01
-1.150628e-01
-9.155878e-02
-6.819968e-02
-4.497565e-02
-2.186364e-02
1.169335e-03
2.416041e-02
4.714369e-02
7.014299e-02
9.316685e-02
1.162074e-01
1.392440e-01
1.622492e-01
1.851963e-01
2.080639e-01
2.308373e-01
2.535088e-01
2.760757e-01
2.985390e-01
3.209021e-01
3.431715e-01
3.653579e-01
3.874791e-01
4.095615e-01
4.316402e-01
4.537565e-01
4.759544e-01
4.982777e-01
5.207670e-01
5.434571e-01
5.663757e-01
5.895435e-01
6.129748e-01
6.366767e-01
6.606468e-01
6.848697e-01
7.093132e-01
7.339252e-01
7.586324e-01
7.833451e-01
8.079648e-01
8.323944e-01
8.565489e-01
8.803659e-01
9.038153e-01
9.269076e-01
9.496970e-01
9.722769e-01
9.947677e-01
1.017303e+00
1.040018e+00
1.063041e+00
1.086482e+00
1.110428e+00
1.134931e+00
1.160000e+00
1.185596e+00
1.211627e+00
1.237950e+00
1.264384e+00
1.290726e+00
1.316766e+00
1.342308e+00
1.367171e+00
1.391195e+00
1.414236e+00
1.436169e+00
1.456883e+00
1.476286e+00
1.494309e+00
1.510901e+00
1.526024e+00
1.539654e+00
1.551776e+00
1.562391e+00
1.571519e+00
1.579200e+00
1.585494e+00
1.590479e+00
1.594246e+00
1.596898e+00
1.598544e+00
1.599291e+00
1.599236e+00
1.598459e+00
1.597024e+00
1.594970e+00
1.592319e+00
1.589068e+00
1.585196e+00
1.580665e+00
1.575431e+00
1.569447e+00
1.562674e+00
1.555079e+00
1.546649e+00
1.537385e+00
1.527317e+00
1.516499e+00
1.505014e+00
1.492970e+00
1.480491e+00
1.467713e+00
1.454776e+00
1.441823e+00
1.428992e+00
1.416410e+00
1.404197e+00
1.392457e+00
1.381277e+00
1.370725e+00
1.360849e+00
1.351672e+00
1.343195e+00
1.335395e+00
1.328226e+00
1.321619e+00
1.315486e+00
1.309716e+00
1.304187e+00
1.298763e+00
1.293302e+00
1.287660e+00
1.281700e+00
1.275292e+00
1.268320e+00
1.260689e+00
1.252323e+00
1.243174e+00
1.233220e+00
1.222464e+00
1.210936e+00
1.198677e+00
1.185741e+00
1.172189e+00
1.158088e+00
1.143501e+00
1.128490e+00
1.113112e+00
1.097414e+00
1.081438e+00
1.065217e+00
1.048779e+00
1.032150e+00
1.015353e+00
