EVENT_NAME: EMILIA_2ND_SHOCK
EVENT_ID: IT-2012-0011
EVENT_DATE_YYYYMMDD: 20120529
EVENT_TIME_HHMMSS: 070002
EVENT_LATITUDE_DEGREE: 44.8417
EVENT_LONGITUDE_DEGREE: 11.0657
EVENT_DEPTH_KM: 8.1
HYPOCENTER_REFERENCE: INGV-CNT_Seismic_Bulletin
MAGNITUDE_W: 6.0
MAGNITUDE_W_REFERENCE: RCMT-INGV
MAGNITUDE_L: 5.8
MAGNITUDE_L_REFERENCE: INGV-CNT_Seismic_Bulletin
FOCAL_MECHANISM: TF
NETWORK: IT
STATION_CODE: FIN0
STATION_NAME: FINALE EMILIA
STATION_LATITUDE_DEGREE: 44.829700
STATION_LONGITUDE_DEGREE: 11.286700
STATION_ELEVATION_M: 61
LOCATION: 
SENSOR_DEPTH_M: 0.0
VS30_M/S: 
SITE_CLASSIFICATION_EC8: C*
MORPHOLOGIC_CLASSIFICATION: 
EPICENTRAL_DISTANCE_KM: 17.5
EARTHQUAKE_BACKAZIMUTH_DEGREE: 274.4
DATE_TIME_FIRST_SAMPLE_YYYYMMDD_HHMMSS: 20120529_065953.000
DATE_TIME_FIRST_SAMPLE_PRECISION: seconds
SAMPLING_INTERVAL_S: 0.005000
NDATA: 23800
DURATION_S: 119.000
STREAM: HNZ
UNITS: cm/s^2
INSTRUMENT: sensor = Episensor FBA ES-T [Kinemetrics] | digitizer = Etna [Kinemetrics]
INSTRUMENT_ANALOG/DIGITAL: D
INSTRUMENTAL_FREQUENCY_HZ: 
INSTRUMENTAL_DAMPING: 
FULL_SCALE_G: 
N_BIT_DIGITAL_CONVERTER: 18
PGA_CM/S^2: 189.065821
TIME_PGA_S: 19.265000
BASELINE_CORRECTION: BASELINE REMOVED
FILTER_TYPE: BUTTERWORTH
FILTER_ORDER: 2
LOW_CUT_FREQUENCY_HZ: 0.050
HIGH_CUT_FREQUENCY_HZ: 30.000
LATE/NORMAL_TRIGGERED: NT
DATABASE_VERSION: DYNA 1.0
HEADER_FORMAT: DYNA 1.2
DATA_TYPE: ACCELERATION
PROCESSING: manual (Paolucci et al., 2011)
DATA_TIMESTAMP_YYYYMMDD_HHMMSS: 20141204_102913.574
DATA_LICENSE: CC-BY3_0-IT (http://creativecommons.org/licenses/by/3.0/deed.en)
DATA_CITATION: ESM working group (2015), European Strong-Motion database, version 0.1, Network Activity 3: Networking acceleration networks and SM data users. Project NERA (www.nera-eu.org)
DATA_CREATOR: ESM working group
ORIGINAL_DATA_MEDIATOR_CITATION: Ufficio Rischio Sismico e Vulcanico del Dipartimento della Protezione Civile (http://www.protezionecivile.gov.it/)
ORIGINAL_DATA_MEDIATOR: Rete Accelerometrica Nazionale - RAN Download (http://www.mot1.it/randownload/)
ORIGINAL_DATA_CREATOR_CITATION: Italian Strong Motion Network, Italian Civil Protection Department http://www.protezionecivile.gov.it
ORIGINAL_DATA_CREATOR: network: IT (Italian Strong Motion Network); owner: Dipartimento Della Protezione Civile
USER1: /home/dyna/processing-itaca/processing.py /var/www/processing/tmp/fpacor//IT.FIN0..HNE.D.20120529.070003.X.ACC.ASC /var/www/processing/tmp/fpacor//IT.FIN0..HNN.D.20120529.070003.X.ACC.ASC /var/www/processing/tmp/fpacor//IT.FIN0..HNZ.D.20120529.070003.X.ACC.ASC --tmp /var/www/processing/tmp/fpacor/ --le 0.050 --he 30.000 --ln 0.050 --hn 30.000 --lz 0.050 --hz 30.000 --fo 2 --ca -10 --cz 40 --ta 5 --tz 5 --mf 1 --rf 0 --tr NT
USER2: 
USER3: 
USER4: 
USER5: 
[...]
-0.000203
-0.000921
-0.004183
-0.007027
-0.005415
0.000607
0.007974
0.013411
0.013677
0.005607
-0.010374
-0.027178
-0.035279
-0.031352
-0.021023
-0.011826
-0.005369
0.000898
0.006036
0.005842
0.000533
-0.005146
-0.008695
-0.010886
-0.011544
-0.009572
-0.007292
-0.008816
-0.013600
-0.016249
-0.011719
0.001380
0.020012
0.036496
0.041328
0.030462
0.010801
-0.004321
-0.008599
-0.007682
-0.007985
-0.009031
-0.008693
-0.006922
-0.003057
0.003571
0.010035
0.011203
0.005312
-0.003653
-0.011095
-0.016018
-0.017699
-0.014394
-0.006714
0.002731
0.012230
0.020456
0.024940
0.024064
0.020191
0.017776
0.016776
0.012658
0.004597
-0.002832
-0.006662
-0.009081
-0.014312
-0.024256
-0.035268
-0.039206
-0.031721
-0.017325
-0.003047
0.008444
0.017435
0.022991
0.022527
0.014707
0.001287
-0.014348
-0.028427
-0.036060
-0.033266
-0.021155
-0.006442
0.002438
0.001361
-0.006510
-0.015233
-0.021857
-0.026007
-0.025793
-0.017556
-0.001561
0.015886
0.028345
0.033411
0.030998
0.022113
0.010817
0.003336
0.002098
0.004447
0.008957
0.018023
0.032917
0.049224
0.058610
0.055749
0.043626
0.030957
0.024176
0.025745
0.040365
0.073619
0.121537
0.168377
0.198044
0.206843
0.203223
0.195400
0.183859
0.167716
0.150884
0.132354
0.095222
0.020927
-0.080709
-0.165013
-0.185464
-0.129298
-0.013845
0.138261
0.298000
0.405735
0.371687
0.121887
-0.348669
-0.965338
-1.604566
-2.126296
-2.395288
-2.309052
-1.833782
-1.034407
-0.076182
0.827954
1.499667
1.843274
1.844983
1.559387
1.095962
0.588372
0.150723
-0.157890
-0.349988
-0.482836
-0.580487
-0.588478
-0.438819
-0.143709
0.218053
0.588233
0.937200
1.175736
1.132879
0.707505
0.050760
-0.474088
-0.555190
-0.135808
0.607859
1.384730
1.852006
1.667718
0.643026
-1.057487
-2.877475
-4.110047
-4.265967
-3.292089
-1.539036
0.411515
1.950008
2.634701
2.340725
1.307006
0.045313
-0.876759
-1.107284
-0.687971
0.016248
0.594593
0.811534
0.619321
0.120835
-0.394985
-0.522796
0.003388
1.128533
2.531622
3.755274
4.295909
3.746101
1.978806
-0.787234
-4.037772
-6.988228
-8.659977
-8.236942
-5.603611
-1.585787
2.401731
5.042690
5.648366
4.319836
1.856259
-0.497889
-1.502551
-0.514842
2.079424
4.987120
6.722892
6.398364
4.016064
0.278923
-3.694407
-6.599334
-7.290480
-5.317079
-1.317800
3.176059
6.427392
7.140730
4.916562
0.569462
-4.089075
-7.233009
-7.986414
-6.515177
-3.544101
-0.029714
3.026957
4.908891
5.390455
4.582525
2.771063
0.490311
-1.544339
-2.830023
-3.280505
-2.938365
-1.755573
0.077032
1.780638
2.368795
1.395983
-0.905089
-4.066729
-7.495030
-10.114970
-10.488653
-7.776153
-2.528973
3.623987
8.951544
12.231605
12.777851
10.460908
5.991667
0.918559
-3.058913
-4.871690
-4.298331
-1.907671
0.966073
2.709779
2.334249
-0.233142
-4.561415
-9.773304
-14.200045
-15.787946
-13.324893
-7.098427
1.545160
10.769504
18.408825
22.312401
21.179735
15.246661
6.292381
-2.843003
-9.088541
-10.379090
-6.733490
-0.248771
5.993855
9.106402
7.105481
-0.335997
-11.047278
-20.688364
-24.895424
-21.668278
-12.022443
1.015273
13.667550
22.328018
24.464237
19.578815
9.622568
-1.806959
-11.123370
-15.960771
-15.325058
-9.455086
-0.045169
9.752750
16.274963
16.875658
11.108612
1.024559
-9.525303
-16.427502
-17.082188
-11.524619
-2.321871
6.633786
11.749074
11.092462
5.174215
-3.129568
-9.783943
-11.622467
-8.027327
-1.022891
6.224853
11.130541
12.412313
9.991143
4.806050
-1.503374
-7.256829
-11.174956
-12.290863
-9.954995
-4.325343
3.226906
10.364083
14.445726
13.361508
6.647955
-3.669624
-13.600533
-19.081656
-17.859261
-10.241840
1.161049
12.361632
19.537506
20.641422
16.026001
7.730956
-1.763114
-10.307778
-16.222429
-18.347614
-16.349480
-10.892483
-3.292553
4.915948
11.946355
15.707556
14.564185
8.633126
0.289097
-6.885768
-9.956669
-7.934783
-1.939686
5.473796
11.376793
13.610987
11.693741
7.061445
2.353731
-0.092942
0.221029
1.503728
0.915177
-3.276141
-10.382443
-17.755207
-22.287155
-21.811161
-15.963000
-6.415536
3.785864
11.707975
15.915366
16.736603
15.340635
12.549826
8.422362
2.820246
-3.760311
-9.993471
-14.307041
-15.593922
-13.577559
-8.988953
-3.524666
0.899748
3.387757
4.593943
5.885042
7.975317
10.368562
11.891428
11.542433
9.008831
4.832726
0.297997
-3.105231
-4.563118
-4.505806
-4.157898
-4.389215
-5.066868
-5.438166
-4.777255
-2.576653
1.331428
6.265728
10.435339
11.752883
9.242960
3.632185
-3.362101
-9.989514
-14.795205
-16.752077
-15.605468
-11.817913
-5.913054
1.692459
9.920364
16.619148
19.465277
17.310326
10.716689
1.604933
-7.372711
-13.565209
-15.330293
-12.926319
-8.334998
-3.757142
-0.044545
3.352230
7.022397
10.524841
12.643331
12.281927
9.104035
3.873050
-1.536696
-4.908735
-5.055185
-2.621801
0.436633
2.101043
1.240122
-1.974956
-6.047050
-8.688579
-7.937358
-3.234895
4.262862
12.272570
18.274529
20.082157
16.250168
6.799786
-6.130314
-18.756865
-27.335091
-29.678106
-25.416756
-15.560797
-2.393929
10.550794
19.459145
22.009487
18.423384
10.830675
1.778854
-6.676504
-12.947055
-15.696699
-14.082637
-8.319459
-0.018867
8.056805
12.883967
12.491420
7.043971
-1.076623
-8.288093
-11.318729
-8.643967
-1.408968
6.891218
12.311336
12.701898
8.515620
1.992085
-4.144110
-7.736654
-7.838562
-4.773097
0.277079
5.701311
9.817663
11.369833
9.956942
5.959556
0.173795
-6.234434
-11.625954
-14.329369
-13.502437
-9.611023
-4.115530
1.416318
6.106025
9.737645
12.033846
12.334762
10.233353
6.257178
1.585330
-2.808180
-6.487310
-9.149236
-10.251496
-9.218905
-5.936328
-1.011810
4.268897
8.221357
9.410798
7.417728
2.954718
-2.673872
-7.904265
-10.952626
-10.396747
-6.249995
-0.278657
5.069121
8.246703
9.371691
9.586223
9.652249
9.249407
7.737580
5.346727
3.273804
2.621569
3.338299
3.986695
2.297525
-3.720848
-14.256175
-26.473364
-34.951527
-34.354111
-22.804064
-3.269540
18.059685
34.763519
42.453495
39.742115
28.339607
12.305090
-3.718868
-16.489698
-24.907343
-29.168415
-29.651194
-26.793074
-21.514542
-14.922988
-7.437333
1.132074
10.265213
18.026148
22.069487
20.967190
14.507513
3.651159
-9.084792
-19.748070
-24.631926
-22.623148
-16.083557
-9.275384
-5.542188
-5.391069
-6.607026
-5.935649
-1.119330
7.848795
18.881977
29.033201
35.723354
37.286049
33.112072
23.880054
11.705977
-0.293626
-8.984003
-12.231498
-9.687372
-3.328666
2.672326
3.561066
-3.303713
-16.707350
-32.102863
-43.548538
-45.684181
-35.602383
-14.615527
11.634650
35.924877
53.003994
60.522137
57.277992
42.399403
17.264847
-12.826162
-40.367252
-59.173477
-66.125053
-60.728355
-44.640697
-21.849398
1.630407
19.389975
27.176346
24.769737
15.624436
4.450847
-5.195542
-11.441246
-13.231869
-10.176901
-3.540735
3.771891
9.312403
12.789282
15.099186
16.471600
16.634733
16.324987
17.053356
18.756874
18.763062
14.138864
4.592572
-7.715799
-20.465862
-31.777367
-38.732414
-37.495228
-26.507353
-8.865679
9.560977
23.672743
30.147856
26.769876
13.405665
-5.760849
-22.402521
-28.006897
-18.578955
3.593964
31.738962
57.874352
75.160744
78.695084
66.013206
38.297359
1.365473
-35.527733
-63.482063
-77.714432
-78.269188
-68.108208
-51.387653
-32.716328
-16.040178
-3.082115
7.207066
17.497772
29.897854
43.972153
56.055393
60.390007
51.867729
29.335497
-2.219521
-32.435951
-49.969711
-48.249641
-28.425138
2.051632
32.780079
53.353924
56.024754
38.504772
5.412563
-33.569038
-68.018753
-90.398743
-97.013672
-87.088646
-61.792145
-24.390545
18.654072
57.596306
82.053566
84.911339
64.718079
26.234743
-20.106960
-60.508385
-82.316254
-78.773140
-51.244961
-8.414880
36.268623
68.502342
78.336647
64.487007
34.586567
0.800887
-25.931957
-38.953808
-35.860565
-18.147333
8.596043
35.748074
54.726421
60.329502
52.238438
34.225082
12.071240
-8.598896
-23.667694
-30.824240
-29.524359
-21.139906
-8.690040
4.638335
17.368359
29.591200
40.203976
45.053928
39.334095
21.992361
-2.987835
-29.472813
-52.488338
-68.758881
-75.328140
-69.531860
-51.175732
-23.938053
6.168646
33.588291
54.341923
65.212341
63.718571
50.150181
28.758453
5.567239
-14.944665
-30.657633
-40.436310
-43.445885
-39.700592
-29.899067
-14.095994
8.417437
36.200211
62.076820
73.957306
61.607643
24.136675
-28.306950
-78.990059
-110.632133
-110.597244
-76.109802
-17.531063
45.339157
92.884193
112.989227
102.001862
63.278103
6.890961
-51.367661
-94.916771
-113.264572
-104.560860
-72.299385
-22.142237
36.743603
89.519310
118.828621
113.216537
74.117508
15.245076
-44.791416
-89.929108
-109.344215
-97.610023
-56.544613
2.823135
62.984882
106.978821
124.094902
111.105499
71.214653
13.234367
-49.529522
-101.941635
-131.079620
-130.084915
-99.775459
-47.324921
16.070080
76.588081
119.465500
132.897827
113.155983
67.248070
9.957022
-43.055992
-80.538483
-96.814896
-91.202873
-67.687813
-33.683685
2.968631
36.348267
62.038082
75.963028
75.333992
60.708569
36.239342
8.090349
-16.833654
-31.949133
-33.598232
-24.242542
-12.228636
-6.353464
-9.725704
-18.858555
-27.553349
-30.383598
-23.728840
-6.608630
17.497799
40.030338
50.345078
41.252422
13.298607
-24.672876
-58.604427
-74.723969
-65.146622
-30.971802
17.972614
66.373665
98.885757
105.428062
83.926689
40.581223
-11.751412
-57.649624
-84.635094
-86.726593
-64.356644
-22.359577
30.933281
82.815071
117.026215
119.310707
85.264084
24.350229
-43.666237
-97.384285
-121.458138
-109.918571
-66.977852
-7.357628
46.953098
76.420341
74.691444
50.756020
20.947748
-0.736493
-6.382822
6.419725
33.958271
65.266602
85.597488
83.695610
56.658638
9.749760
-46.739975
-101.068787
-142.544220
-162.521149
-154.949371
-117.846024
-55.446888
20.633831
92.813210
142.106201
154.447922
125.927429
64.537262
-12.518671
-84.617348
-133.901794
-149.858231
-131.119370
-84.625961
-23.843996
33.705791
71.224815
78.382584
54.469250
8.503154
-42.711403
-79.420227
-86.912628
-62.952549
-18.631485
27.929586
58.742256
60.934822
32.065990
-16.000729
-61.261990
-83.524353
-74.406937
-38.483139
11.228812
58.196457
87.828171
93.776901
80.725021
60.001209
41.403309
28.236662
17.973759
5.749894
-11.934009
-34.730530
-58.831215
-79.763817
-93.788437
-96.721764
-84.486916
-56.814373
-18.521124
24.349033
66.930099
101.994614
117.760361
104.302567
62.875599
7.254127
-44.300320
-78.070740
-88.267479
-75.814743
-46.279594
-8.172075
28.426443
53.571693
60.903732
51.161037
31.685717
11.829452
-1.297332
-3.715110
6.294850
27.571369
53.712017
72.844536
72.899170
49.561893
9.792644
-32.340790
-63.366276
-75.740234
-69.374207
-51.036785
-31.935198
-22.738960
-27.908878
-43.222740
-57.931446
-59.904938
-41.534645
-3.592432
45.384174
93.249146
128.507706
142.749481
132.127884
98.504089
48.710655
-8.043197
-61.612679
-100.899345
-116.048378
-103.670662
-69.927963
-26.819654
14.646756
47.001350
65.313866
68.672653
63.212837
59.788898
64.995697
74.137703
74.574417
56.563736
21.125345
-21.113253
-57.014187
-77.673203
-81.741035
-74.141678
-60.665081
-44.324928
-27.467005
-13.479122
-3.091125
8.017342
23.273335
37.619980
40.509254
27.716240
6.710987
-11.650050
-23.589706
-31.426073
-35.332661
-31.830797
-20.453192
-6.649250
4.649184
15.238723
29.937260
48.188988
62.702164
66.049881
55.756023
32.720100
-1.328631
-41.650780
-78.572487
-102.683037
-112.150269
-112.422630
-109.491631
-105.167908
-96.991852
-80.013885
-49.596958
-5.657883
44.418758
87.844734
111.786034
107.272774
71.878937
13.551930
-48.444378
-91.188156
-100.672272
-78.470779
-37.644714
6.240492
41.346737
61.283092
64.655624
54.005936
33.825859
8.516560
-17.734377
-39.664474
-51.005032
-47.367241
-29.494598
-2.604607
27.549206
56.269264
78.161713
87.576584
82.884308
68.477791
50.571198
32.079895
13.275498
-3.564076
-12.844198
-10.381044
1.561771
15.438656
24.260431
25.642977
21.105724
12.646316
0.968970
-12.318171
-22.819422
-26.985704
-27.084499
-29.131113
-35.501041
-41.995045
-42.699753
-36.080536
-25.188732
-13.136306
-1.097255
9.032492
13.338079
9.399439
-0.897004
-14.081559
-28.333866
-41.520607
-48.665188
-44.955650
-29.866617
-5.856866
24.713661
58.202076
86.645798
99.756866
90.983543
60.513237
13.856893
-39.068489
-83.969437
-105.603928
-94.774971
-53.279915
7.601233
72.496246
125.762207
152.972122
143.755798
97.729309
28.761417
-39.183434
-84.378906
-98.945068
-89.987907
-70.367973
-50.000900
-35.850391
-35.160072
-51.739410
-77.425743
-91.622246
-73.963554
-19.202463
59.018505
135.779022
185.230103
189.065826
143.396225
62.070969
-28.204390
-99.735725
-133.285843
-120.226112
-63.683201
18.514395
97.722519
147.623367
155.509033
124.167831
66.806084
-0.311507
-62.734474
-108.005043
-125.687286
-111.625351
-72.273026
-22.532658
21.905230
50.577389
58.641003
45.058487
13.305913
-26.381353
-58.342430
-68.187584
-50.292973
-10.087872
39.753845
84.812157
113.085892
118.378983
102.322769
72.650780
38.206348
5.054328
-23.795965
-47.217377
-64.937119
-75.876801
-77.051933
-65.404984
-41.475014
-11.206661
15.936407
30.800104
27.761524
7.163361
-23.066179
-49.296249
-58.938690
-47.459759
-19.268227
17.465536
55.533722
88.429611
107.728043
104.048767
73.216873
21.437807
-37.569603
-90.614052
-128.559937
-143.806564
-130.110657
-87.590065
-25.481844
41.022835
95.335045
123.298691
117.610054
80.751625
23.569923
-38.852085
-90.430252
-116.519585
-108.759018
-70.557457
-15.846814
39.052353
81.550560
103.325539
99.848206
71.742043
26.005713
-25.361828
-69.204948
-95.587067
-100.318413
-84.270370
-51.484261
-9.149595
31.988720
60.698227
70.754646
63.512630
45.447376
23.789915
3.794814
-11.718074
-21.872873
-27.286961
-29.362598
-29.327154
-28.116346
-26.866430
-26.265541
-24.993898
-19.893810
-8.758545
7.334215
24.900845
40.196091
49.778973
50.714909
42.242718
27.084196
10.059748
-4.781811
-15.610695
-22.077728
-23.774591
-19.439390
-8.008938
8.752856
24.926332
33.144344
29.187084
13.668494
-9.653936
-35.305374
-56.021374
-64.165398
-56.095798
-35.285709
-9.826033
13.207943
30.450756
40.567825
42.192230
34.582069
19.478033
1.049967
-16.066338
-28.072914
-31.988634
-26.198603
-12.170120
4.850840
17.893772
21.683964
14.958310
0.926246
-13.905977
-22.599823
-21.534523
-12.679507
-2.409650
2.418723
-1.722771
-13.508780
-27.515228
-36.445255
-34.463558
-20.330046
2.053380
25.726591
42.865314
46.578281
33.979893
9.303720
-17.143454
-34.966511
-39.353992
-31.440374
-15.236712
3.826312
19.090252
25.437176
23.058855
16.888853
11.633453
7.865183
2.960690
-4.776363
-13.351914
-18.194950
-15.700421
-6.265662
5.180508
11.676741
8.217653
-5.305836
-23.641157
-38.321243
-41.762608
-31.737118
-13.508191
2.688695
7.651835
-1.632225
-20.913897
-41.287979
-53.140247
-49.794586
-29.851442
2.940208
42.007404
80.359268
111.714188
130.985947
134.995880
123.013550
96.596825
59.454082
17.856543
-19.648361
-44.499626
-51.334923
-39.807846
-14.290431
17.419357
45.796566
61.970264
60.435860
40.762142
7.239797
-32.818729
-70.733360
-98.134331
-109.045479
-101.126091
-75.189613
-34.710125
13.528983
59.871052
94.618614
110.853683
105.423561
79.044800
36.658360
-12.676472
-58.031384
-90.567978
-106.433105
-106.847939
-96.021889
-78.819923
-59.706413
-42.656704
-30.667915
-24.505346
-22.113733
-19.948067
-15.159439
-6.869388
3.717473
13.947717
20.901276
22.574228
18.583096
10.448343
1.187028
-6.026612
-9.207269
-7.791372
-2.024067
7.331536
18.676292
29.580486
37.663151
41.755981
42.393143
41.029148
38.625324
35.027344
29.614075
22.537640
15.095936
8.599965
3.322810
-1.181207
-5.119571
-7.961675
-8.733998
-6.881243
-3.137327
0.297372
0.896916
-2.056691
-6.941358
-12.099640
-16.864447
-19.224342
-15.016212
-1.506736
18.338249
35.756084
41.498951
32.043709
11.048177
-13.588357
-33.310150
-41.639259
-36.228516
-19.715067
1.428826
19.611254
29.326302
29.303370
22.013126
11.294220
0.232684
-9.757301
-18.888817
-28.390301
-39.259430
-50.693897
-59.466557
-61.104698
-52.278286
-32.915890
-6.584728
21.081745
44.444344
59.315659
63.967884
59.388771
48.280228
33.716152
18.502123
5.039978
-4.586480
-8.692224
-6.528256
1.348365
12.833929
23.839079
29.107365
25.053886
11.855772
-7.350348
-28.297359
-46.770767
-59.392006
-64.059898
-60.154778
-48.496925
-31.057676
-11.018936
7.276872
19.642887
23.675945
19.123480
7.558475
-7.745135
-22.274073
-31.681355
-33.515377
-28.325527
-19.421272
-10.948563
-5.670762
-4.051405
-4.514864
-4.392638
-1.271527
5.916691
16.653994
29.325018
41.897655
52.401028
59.003159
59.778912
52.850651
37.451721
15.048811
-10.905918
-36.550163
-59.007797
-76.235603
-85.947075
-86.043076
-76.569176
-60.102512
-39.905964
-18.287577
3.659137
25.363342
45.671562
62.278732
72.339256
73.636833
65.593193
49.703468
29.191916
8.533046
-7.261237
-14.353418
-11.773402
-1.894593
10.390124
19.723841
22.535816
18.260551
9.295924
-0.375041
-7.214092
-9.365711
-6.809108
-1.047937
5.755421
12.117460
17.644497
22.100788
24.456173
23.117880
17.195387
7.131276
-5.384317
-17.324823
-24.912655
-24.933020
-16.503136
-2.575887
11.265881
20.147306
21.761492
15.853417
3.491808
-12.705775
-28.351103
-38.560555
-40.530441
-34.444805
-22.233261
-6.897908
8.029393
19.638885
26.031340
26.367161
21.131306
12.053139
1.575264
-7.986443
-15.166621
-19.487473
-20.946922
-19.456133
-14.974461
-8.040778
-0.072851
6.668708
9.676021
7.114693
-1.919549
-17.518677
-38.097389
-59.247803
-74.450165
-77.864342
-67.984924
-49.606155
-30.853138
-17.659517
-11.530251
-10.874751
-12.808014
-14.341254
-13.190224
-8.150374
1.044773
13.930110
29.219769
44.705818
57.669975
65.673927
67.135056
61.667858
50.286446
35.260201
19.419687
5.161978
-5.612738
-10.604800
-7.632576
3.150083
18.265303
32.004025
38.448772
34.174438
19.772308
-0.727114
-20.733791
-33.466984
-35.119530
-25.284132
