EVENT_NAME: EMILIA_2ND_SHOCK
EVENT_ID: IT-2012-0011
EVENT_DATE_YYYYMMDD: 20120529
EVENT_TIME_HHMMSS: 070002
EVENT_LATITUDE_DEGREE: 44.8417
EVENT_LONGITUDE_DEGREE: 11.0657
EVENT_DEPTH_KM: 8.1
HYPOCENTER_REFERENCE: INGV-CNT_Seismic_Bulletin
MAGNITUDE_W: 6.0
MAGNITUDE_W_REFERENCE: RCMT-INGV
MAGNITUDE_L: 5.8
MAGNITUDE_L_REFERENCE: INGV-CNT_Seismic_Bulletin
FOCAL_MECHANISM: TF
NETWORK: IT
STATION_CODE: FIN0
STATION_NAME: FINALE EMILIA
STATION_LATITUDE_DEGREE: 44.829700
STATION_LONGITUDE_DEGREE: 11.286700
STATION_ELEVATION_M: 61
LOCATION: 
SENSOR_DEPTH_M: 0.0
VS30_M/S: 
SITE_CLASSIFICATION_EC8: C*
MORPHOLOGIC_CLASSIFICATION: 
EPICENTRAL_DISTANCE_KM: 17.5
EARTHQUAKE_BACKAZIMUTH_DEGREE: 274.4
DATE_TIME_FIRST_SAMPLE_YYYYMMDD_HHMMSS: 20120529_065953.000
DATE_TIME_FIRST_SAMPLE_PRECISION: seconds
SAMPLING_INTERVAL_S: 0.005000
NDATA: 23800
DURATION_S: 119.000
STREAM: HNE
UNITS: cm/s^2
INSTRUMENT: sensor = Episensor FBA ES-T [Kinemetrics] | digitizer = Etna [Kinemetrics]
INSTRUMENT_ANALOG/DIGITAL: D
INSTRUMENTAL_FREQUENCY_HZ: 
INSTRUMENTAL_DAMPING: 
FULL_SCALE_G: 
N_BIT_DIGITAL_CONVERTER: 18
PGA_CM/S^2: 207.742687
TIME_PGA_S: 21.105000
BASELINE_CORRECTION: BASELINE REMOVED
FILTER_TYPE: BUTTERWORTH
FILTER_ORDER: 2
LOW_CUT_FREQUENCY_HZ: 0.050
HIGH_CUT_FREQUENCY_HZ: 30.000
LATE/NORMAL_TRIGGERED: NT
DATABASE_VERSION: DYNA 1.0
HEADER_FORMAT: DYNA 1.2
DATA_TYPE: ACCELERATION
PROCESSING: manual (Paolucci et al., 2011)
DATA_TIMESTAMP_YYYYMMDD_HHMMSS: 20141204_102913.574
DATA_LICENSE: CC-BY3_0-IT (http://creativecommons.org/licenses/by/3.0/deed.en)
DATA_CITATION: ESM working group (2015), European Strong-Motion database, version 0.1, Network Activity 3: Networking acceleration networks and SM data users. Project NERA (www.nera-eu.org)
DATA_CREATOR: ESM working group
ORIGINAL_DATA_MEDIATOR_CITATION: Ufficio Rischio Sismico e Vulcanico del Dipartimento della Protezione Civile (http://www.protezionecivile.gov.it/)
ORIGINAL_DATA_MEDIATOR: Rete Accelerometrica Nazionale - RAN Download (http://www.mot1.it/randownload/)
ORIGINAL_DATA_CREATOR_CITATION: Italian Strong Motion Network, Italian Civil Protection Department http://www.protezionecivile.gov.it
ORIGINAL_DATA_CREATOR: network: IT (Italian Strong Motion Network); owner: Dipartimento Della Protezione Civile
USER1: /home/dyna/processing-itaca/processing.py /var/www/processing/tmp/fpacor//IT.FIN0..HNE.D.20120529.070003.X.ACC.ASC /var/www/processing/tmp/fpacor//IT.FIN0..HNN.D.20120529.070003.X.ACC.ASC /var/www/processing/tmp/fpacor//IT.FIN0..HNZ.D.20120529.070003.X.ACC.ASC --tmp /var/www/processing/tmp/fpacor/ --le 0.050 --he 30.000 --ln 0.050 --hn 30.000 --lz 0.050 --hz 30.000 --fo 2 --ca -10 --cz 40 --ta 5 --tz 5 --mf 1 --rf 0 --tr NT
USER2: 
USER3: 
USER4: 
USER5: 
[...]
-0.103427
-0.294154
-0.403182
-0.507857
-0.639393
-0.735504
-0.693596
-0.433949
0.040211
0.583441
0.938192
0.906052
0.502407
-0.074934
-0.586296
-0.823746
-0.625996
0.030184
0.903516
1.548325
1.598495
1.005556
0.010803
-1.046747
-1.868798
-2.239449
-2.048754
-1.325932
-0.256298
0.863741
1.748189
2.225807
2.234377
1.759213
0.836504
-0.370845
-1.550967
-2.346545
-2.505428
-1.978263
-0.926583
0.347920
1.492348
2.155264
2.060133
1.173198
-0.163529
-1.354302
-1.892374
-1.630967
-0.789400
0.224235
1.022956
1.404809
1.400243
1.174169
0.864040
0.484596
-0.019070
-0.616843
-1.106673
-1.231742
-0.933308
-0.472081
-0.242700
-0.456011
-0.987155
-1.471009
-1.523655
-0.939510
0.200777
1.529189
2.541293
2.863553
2.436749
1.470725
0.277517
-0.834981
-1.593427
-1.824901
-1.563050
-1.035027
-0.481443
-0.014066
0.332524
0.498912
0.446878
0.275267
0.189814
0.321599
0.616949
0.925750
1.130933
1.148405
0.888828
0.323825
-0.443717
-1.244755
-1.920302
-2.278168
-2.090352
-1.281241
-0.112983
0.925598
1.471567
1.511088
1.258853
0.884271
0.391967
-0.286334
-1.135126
-1.962052
-2.423937
-2.178203
-1.113466
0.479876
1.984197
2.795454
2.684753
1.885073
0.866550
0.026817
-0.487829
-0.772837
-1.006792
-1.241556
-1.319491
-1.049137
-0.478917
0.072963
0.302529
0.201583
0.025749
0.024286
0.258193
0.634125
1.015704
1.275262
1.299601
1.045003
0.603059
0.133062
-0.290751
-0.696345
-1.059409
-1.217322
-1.009865
-0.471024
0.183137
0.743523
1.123136
1.289292
1.163031
0.640190
-0.285582
-1.420797
-2.402934
-2.877474
-2.699722
-1.987430
-0.966342
0.216965
1.495904
2.731652
3.618014
3.776080
2.993709
1.437467
-0.332475
-1.608258
-1.921943
-1.309990
-0.260294
0.608527
0.896555
0.581336
-0.069076
-0.714725
-1.123875
-1.223460
-1.040813
-0.638451
-0.111847
0.403926
0.779270
0.947181
0.901053
0.628217
0.086271
-0.691288
-1.470584
-1.859566
-1.546290
-0.557247
0.712828
1.758020
2.261382
2.168733
1.561790
0.549273
-0.725470
-2.026111
-2.996268
-3.237595
-2.544380
-1.139858
0.390397
1.486514
1.948558
1.907927
1.563408
1.024081
0.356464
-0.328439
-0.870755
-1.128302
-1.051305
-0.695282
-0.166462
0.400928
0.809036
0.846350
0.483082
-0.000785
-0.195098
0.077473
0.613702
1.029702
1.046974
0.629463
-0.021418
-0.560001
-0.716032
-0.543346
-0.377178
-0.442707
-0.551367
-0.274082
0.577929
1.695364
2.487890
2.509227
1.706395
0.382920
-0.991877
-2.001290
-2.483981
-2.610071
-2.661576
-2.634728
-2.145695
-0.867548
0.963871
2.597368
3.343637
3.034094
1.951318
0.518234
-0.868826
-1.896962
-2.413638
-2.451965
-2.129146
-1.511577
-0.595688
0.591120
1.888554
2.970281
3.433581
3.048400
2.003364
0.871695
0.218687
0.156126
0.297311
0.151424
-0.458134
-1.285037
-1.865641
-1.842209
-1.195423
-0.275608
0.421541
0.659326
0.674199
0.862527
1.259405
1.500102
1.291143
0.709219
0.006705
-0.621987
-0.961020
-0.724017
0.153160
1.238593
1.839919
1.586809
0.683443
-0.450195
-1.650047
-3.023434
-4.573872
-5.910109
-6.340907
-5.322311
-2.931704
0.101438
2.877413
4.773480
5.462545
4.798638
2.925176
0.407896
-1.982329
-3.695606
-4.510734
-4.306404
-3.056653
-1.126755
0.742671
1.989502
2.682067
3.226639
3.681890
3.623792
2.729609
1.258121
-0.208239
-1.357050
-2.222972
-2.763305
-2.744577
-2.094786
-1.046418
0.153251
1.443128
2.759093
3.810063
4.228011
3.925552
3.180287
2.358031
1.594926
0.754841
-0.277151
-1.297474
-1.870646
-1.737993
-1.120595
-0.551110
-0.338333
-0.306973
-0.177508
-0.038317
-0.288129
-1.190906
-2.555501
-3.775360
-4.113345
-3.078320
-0.728250
2.337995
5.288703
7.387057
8.145384
7.320416
4.905928
1.241561
-2.856391
-6.245703
-8.048491
-8.211910
-7.380510
-6.182347
-4.713989
-2.738589
-0.250129
2.274564
4.120414
4.791936
4.284164
2.952154
1.191369
-0.719221
-2.510568
-3.759312
-3.972876
-2.891794
-0.650929
2.269306
5.114723
7.047836
7.513543
6.448008
4.131410
0.957712
-2.508971
-5.364308
-6.629301
-5.877600
-3.499178
-0.356253
2.586038
4.345502
4.180038
2.116377
-0.896306
-3.549761
-4.925066
-4.715764
-3.008441
-0.153466
3.261013
6.544036
9.010954
9.973302
8.899383
5.886257
1.902671
-1.713117
-4.048771
-4.851583
-4.174091
-2.174185
0.658581
3.381181
4.946097
4.759112
2.941768
0.068106
-3.275137
-6.551996
-8.998861
-9.670691
-8.026809
-4.352059
0.414658
5.052031
8.339737
9.388150
8.058608
5.138163
1.891149
-0.809076
-2.990531
-5.172594
-7.491477
-9.400093
-10.130009
-9.157910
-6.289368
-1.677247
3.968458
9.199303
12.204877
11.856280
8.487053
3.489391
-1.674994
-5.904536
-8.465856
-9.164059
-8.311865
-6.175772
-2.559741
2.752907
8.943501
13.835425
15.238165
12.624366
7.260782
1.064006
-4.416219
-8.245803
-9.859438
-8.962801
-5.792966
-1.284343
3.319393
7.177390
9.938411
10.963736
9.079928
3.769093
-3.646575
-10.551513
-14.644789
-14.808399
-11.045159
-4.317889
3.609170
10.554509
14.491694
14.125823
9.329693
1.371206
-7.437157
-14.698623
-18.644571
-18.259819
-13.447106
-5.364722
3.793574
11.804834
17.250031
19.452074
18.080046
13.212654
5.736201
-2.679200
-10.093052
-14.648291
-14.849843
-10.246047
-2.093121
6.898220
13.863150
17.059925
16.102606
11.500642
4.372920
-3.680725
-10.972003
-16.198044
-18.577602
-17.738457
-13.784075
-7.599455
-0.879513
4.519102
7.547752
8.440597
8.263552
7.978065
7.858234
7.604176
6.794755
5.276197
3.335006
1.491820
0.037468
-1.182884
-2.475055
-3.803970
-4.693885
-4.652789
-3.634631
-2.144022
-0.982563
-0.793962
-1.706159
-3.304727
-4.803435
-5.261186
-3.953983
-0.873800
3.051036
6.398112
8.281505
9.059377
9.669677
10.292300
10.044244
7.992039
4.265001
0.029596
-3.379546
-4.903504
-3.809177
-0.139631
4.761799
8.624606
9.594318
7.361580
3.042994
-1.866312
-6.373176
-10.067380
-12.707643
-13.835921
-12.826188
-9.679111
-5.772244
-3.150900
-2.731661
-3.546129
-3.865231
-2.595993
0.422286
4.702859
9.278818
12.913715
14.542669
13.632425
10.082248
4.004104
-4.022152
-12.598627
-19.803238
-23.939705
-24.064375
-20.057022
-12.652429
-3.633336
4.524917
9.773984
11.363545
9.700435
5.599094
0.026057
-5.532920
-9.322693
-10.264946
-8.280952
-3.857132
2.172783
8.421520
13.137608
15.124015
14.329244
11.448021
7.457456
3.675997
1.557723
1.918553
4.549429
8.617073
13.098166
16.852444
18.831612
18.594135
16.365223
12.585549
8.091874
4.647914
4.096232
6.579563
10.285130
12.988237
13.225707
10.168396
3.360386
-6.730014
-18.141159
-28.183947
-35.022282
-38.374531
-39.144314
-38.636093
-37.518890
-35.191940
-30.417192
-22.758587
-13.316576
-3.978364
3.854803
9.685822
13.551669
15.823542
17.248362
18.540802
19.674725
19.954203
19.081026
17.872387
17.565376
18.498924
19.673304
19.562431
17.289099
13.139664
8.347896
4.587124
3.116413
3.885511
5.538071
6.274830
4.733121
0.462765
-6.045590
-13.681138
-21.316143
-28.304913
-34.215561
-38.304928
-39.883713
-39.280098
-37.875965
-36.654560
-35.191097
-32.787025
-29.820835
-27.012983
-23.951876
-19.221252
-11.789660
-1.678740
10.616653
24.569492
39.092190
52.136997
61.626003
66.783463
68.215698
67.184074
65.099373
62.756832
59.475006
53.554310
44.058998
31.861628
18.453165
4.265741
-10.870803
-26.206326
-40.231247
-52.058926
-61.510296
-67.738388
-68.839462
-63.491478
-52.416058
-37.600777
-20.519909
-1.845495
17.349163
35.076183
49.498264
60.060993
67.270378
71.424179
71.764343
67.140007
57.186188
42.416435
23.783119
2.796871
-18.398975
-37.649693
-53.463448
-65.077087
-72.107994
-74.298218
-71.441658
-63.328068
-50.041451
-32.794910
-14.121836
3.537659
19.326073
33.457565
45.512100
54.068253
57.986607
57.151688
51.929646
43.055752
32.309135
22.291590
14.965129
10.524235
7.647732
4.453694
-0.829913
-9.411967
-21.312695
-34.855919
-47.184944
-55.925697
-60.326706
-60.625496
-56.756493
-48.161705
-34.804825
-17.931728
0.253399
17.359640
31.317516
40.541759
44.125248
42.297478
36.520672
28.759470
20.646460
13.194568
6.891346
1.918848
-1.864999
-5.304090
-9.880661
-16.744131
-25.715351
-35.300522
-43.611034
-49.142971
-50.820030
-47.999043
-40.994598
-31.196308
-20.124603
-8.448270
3.953701
17.100115
30.306265
42.365242
51.754303
56.715096
55.965736
49.783566
40.169579
29.590565
19.585852
10.686357
3.128125
-2.984240
-7.957567
-12.120335
-14.998646
-15.613222
-13.867427
-11.031190
-8.415723
-6.027604
-3.096418
0.646237
4.926110
9.646035
14.995670
20.819765
25.940418
28.223118
25.698917
17.978165
6.485588
-6.733606
-20.037622
-31.855513
-39.996628
-42.456188
-39.275776
-32.727100
-25.030634
-16.364470
-5.671729
6.933623
19.386274
29.054331
33.733013
31.851681
23.776567
12.648231
2.146318
-6.545090
-14.758021
-23.548058
-31.484419
-35.346855
-32.789425
-24.164583
-11.843021
1.587805
14.102502
24.134274
30.617395
33.255360
32.732681
30.468565
27.703257
24.712069
21.168119
17.246548
13.922827
12.080373
11.701504
11.905530
11.367823
8.794528
3.560907
-3.846808
-12.044676
-19.352108
-24.357988
-26.275118
-25.059252
-21.537781
-17.482653
-15.034671
-15.550571
-18.871063
-23.442738
-26.907665
-26.972843
-22.421614
-13.737445
-2.727460
8.683249
19.265902
28.136189
34.095936
36.020023
33.819702
28.261784
19.962980
9.358994
-2.453223
-13.500484
-21.787750
-26.469704
-28.178875
-28.031059
-26.456919
-23.292011
-18.865330
-14.409498
-11.098617
-8.979244
-6.931435
-3.374609
3.036888
12.782221
24.860077
37.100891
47.415318
54.380943
56.858528
53.998306
45.924198
33.872402
19.522400
4.665952
-8.581582
-17.910559
-21.617241
-19.570505
-13.486672
-6.204627
-0.553502
1.643545
0.267705
-3.056212
-5.854804
-6.093708
-3.050178
2.652921
9.816443
17.408470
24.534056
29.951954
31.866905
28.510805
19.249268
5.219299
-10.942535
-25.968954
-37.083576
-42.994205
-44.145287
-41.854019
-37.043938
-29.960825
-21.101156
-11.937888
-4.301927
0.913355
4.314862
7.442055
11.698555
17.419523
23.492720
27.981270
29.489693
28.044794
24.826546
21.293468
18.345341
15.785420
12.382803
6.800999
-1.149988
-10.244723
-18.927687
-26.394732
-32.463310
-36.858128
-39.091640
-38.775551
-35.627827
-29.420279
-20.494038
-10.439909
-1.833375
3.100877
3.693008
0.894009
-3.588725
-8.145459
-11.592273
-13.274958
-13.174253
-11.771831
-9.684426
-7.431282
-5.431874
-4.049582
-3.575797
-4.179111
-5.925784
-8.797574
-12.499863
-16.324224
-19.521841
-21.805765
-23.221401
-23.725445
-23.317213
-22.399017
-21.540239
-20.945118
-20.432018
-19.788324
-18.884287
-17.387741
-14.680568
-10.663049
-6.418511
-3.342528
-1.839971
-1.256138
-0.622717
0.849094
3.573540
7.349580
11.271563
14.253692
15.965871
17.251240
19.573313
24.021379
30.467760
37.269127
41.982445
42.922367
40.330193
36.085293
32.308090
30.070875
28.963535
27.504370
24.053885
17.797403
9.206201
-0.491772
-10.394707
-20.485304
-31.272373
-43.058903
-55.427155
-67.150253
-76.615540
-82.662224
-85.228767
-85.171860
-83.410767
-80.294327
-75.647003
-68.878120
-58.814327
-43.902538
-23.121016
3.090968
32.837746
63.706371
93.557114
120.497559
142.612137
158.221954
166.471176
167.510483
162.280853
152.163742
138.410156
121.815254
103.173347
83.906448
65.911865
50.664185
38.552216
29.078857
21.460655
14.867491
8.225258
0.184810
-10.392119
-23.832397
-39.490219
-56.145401
-72.589668
-87.927902
-101.474953
-112.538826
-120.432816
-124.636047
-124.823746
-120.826347
-112.675552
-100.626167
-85.088562
-66.624413
-46.003304
-24.184652
-2.242740
18.733694
37.768181
54.062008
66.970612
76.024902
81.023582
82.036568
79.384407
73.672005
65.649765
55.919441
44.743088
32.113415
18.146950
3.443472
-11.035741
-24.223129
-34.833214
-41.104610
-40.929237
-33.045654
-18.940416
-3.306843
8.039599
11.198196
5.877862
-5.286428
-18.972395
-33.109951
-47.419006
-62.716450
-79.607445
-97.475594
-114.520943
-128.660492
-138.625519
-144.587631
-147.888229
-149.892105
-150.873550
-150.297546
-148.031586
-144.650085
-140.673248
-136.076706
-130.585907
-124.073662
-116.539650
-107.921349
-98.082977
-87.103912
-75.611145
-64.644470
-55.193508
-47.868961
-42.779575
-39.688194
-38.331135
-38.601028
-40.582993
-44.328194
-49.348209
-54.441376
-58.362190
-60.644386
-61.420044
-60.810574
-58.849419
-55.393829
-50.252953
-43.788425
-36.719093
-29.368977
-21.617510
-13.170625
-3.701390
6.933840
18.588507
30.949011
43.770725
57.035519
70.765511
84.745842
98.562836
111.741852
123.825256
134.571121
144.180298
153.294098
162.602997
172.307449
181.936844
190.626846
197.636276
202.685547
205.883530
207.515564
207.742691
206.305084
202.701096
196.639694
188.177719
177.573486
165.110214
151.067459
135.924225
120.504753
105.845604
93.013100
83.051353
76.836052
74.586189
75.451569
77.746941
79.527496
79.137581
75.789497
69.817268
62.289062
54.311691
46.478584
38.689884
30.482815
21.825386
13.715988
7.750121
4.863236
4.557976
5.466122
6.426312
6.748327
5.749312
2.630287
-3.051936
-11.063748
-20.665567
-30.936872
-41.133118
-50.997379
-60.750164
-70.762833
-81.179512
-91.719193
-101.759148
-110.600060
-117.849998
-123.863136
-129.532684
-135.297928
-140.837906
-145.674835
-149.264740
-150.860764
-149.814377
-145.447083
-136.580109
-121.749855
-100.144287
-72.634186
-41.967857
-11.682250
15.424953
38.201164
56.958084
72.328362
84.251366
92.239685
96.075020
95.632263
90.681992
81.444633
69.028221
55.106609
41.187279
28.228760
16.771685
7.080810
-0.871088
-7.351027
-12.506439
-15.899711
-16.629440
-14.031544
-8.128324
0.377394
10.277361
20.309181
29.592871
37.535748
43.608421
47.301235
47.924137
44.528915
36.301987
23.153963
6.287633
-12.070645
-30.010189
-46.639362
-61.623878
-74.750961
-85.812012
-94.516380
-100.395012
-102.697868
-100.466484
-92.951874
-80.106293
-62.783127
-42.602440
-21.440281
-0.660584
19.301964
38.615814
57.395641
75.389374
92.011086
106.268211
116.823792
122.745140
124.141647
121.688698
116.010414
107.560135
96.595345
83.534035
69.028755
53.618809
37.864864
22.323942
7.396066
-6.527659
-19.065226
-29.830667
-38.500816
-44.946632
-49.094479
-50.834091
-50.088074
-46.712379
-40.334427
-30.848345
-19.272772
-7.531150
2.820311
11.234744
17.528091
21.371632
22.764616
22.346003
21.089312
19.947697
19.520292
19.863241
20.613375
21.226112
21.183352
20.134710
17.835728
14.052416
8.765857
2.414314
-4.111603
-9.719862
-13.570138
-15.343200
-15.035693
-12.622456
-8.207014
-2.502695
3.267831
8.054495
11.327583
12.992719
13.339945
12.761238
11.285998
8.782036
5.491729
1.834681
-2.099744
-6.390982
-10.798362
-14.776958
-17.928993
-20.335510
-22.566339
-25.417892
-29.500921
-34.847572
-40.700085
-45.733250
-48.695877
-48.998707
-46.758904
-42.337654
-36.029984
-28.202791
-19.498163
-10.908130
-3.645701
1.411237
4.204219
5.151041
4.566066
2.778222
0.710621
0.034936
2.414106
8.348647
16.691090
25.309370
32.102253
35.443333
34.238579
28.073273
17.420135
3.583251
-11.652653
-26.473707
-39.544437
-50.324810
-58.852772
-65.145447
-68.954300
-70.214790
-69.464806
-67.767258
-66.336296
-65.910385
-66.467644
-67.629265
-68.895149
-69.729889
-69.947945
-69.712822
-69.056137
-67.769745
-65.768288
-63.213421
-60.179707
-56.404892
-51.466370
-45.134094
-37.456753
-28.594616
-18.825184
-8.573618
1.839265
12.296292
22.665451
32.702301
42.123192
50.704964
58.376045
65.133156
70.784866
74.824028
76.665009
76.052544
73.175743
68.430161
62.220692
54.930973
46.866451
38.222294
29.164192
19.787727
10.006847
-0.213234
-10.486146
-20.090778
-28.334644
-34.616119
-38.207378
-38.250168
-34.185974
-26.249510
-15.559107
-3.749152
7.612081
17.445866
25.177750
30.510967
33.199875
32.914391
29.350559
22.552809
13.093263
1.932788
-9.804280
-20.905359
-30.018396
-35.776829
-37.313465
-34.617119
-28.277983
-19.131804
-8.256385
2.983242
13.281029
21.886074
28.681847
33.818062
37.369713
39.359833
39.907326
39.184223
37.220123
33.808407
28.714764
21.980066
13.978045
5.220451
-3.879528
-13.111604
-22.349070
-31.359064
-39.789265
-47.244785
-53.384941
-58.122307
-61.798294
-65.060364
-68.343117
-71.393250
-73.315910
-72.907600
-68.946564
-60.662231
-48.365936
-33.610779
-18.668127
-5.744903
3.660752
9.076865
11.035569
10.689672
9.284265
7.888637
7.298471
7.933622
9.871948
13.026090
17.321980
22.784458
29.366859
36.529102
43.059441
47.501465
48.745937
46.177204
39.635857
29.653299
17.624617
5.539780
-4.691046
-11.937205
-16.020597
-17.358305
-16.593094
-14.544952
-12.212764
-10.506523
-9.995101
-10.906479
-13.227185
-16.781313
-21.217440
-25.920391
-30.055983
-32.832760
-33.702904
-32.312500
-28.442072
-22.145321
-13.936876
-4.747004
4.412725
12.747216
19.735510
25.130316
28.977478
31.590668
33.425262
34.760376
35.346104
34.394360
31.013010
24.767357
15.985190
5.630693
-5.145754
-15.383193
-24.321102
-31.254475
-35.565250
-36.900158
-35.263062
-30.974995
-24.553114
-16.573309
-7.682193
1.301892
9.440996
15.891820
20.161888
22.322823
23.043304
23.332767
24.097496
25.762823
28.157116
30.600203
32.191597
32.311611
30.944275
28.559912
25.732708
22.905903
20.396173
18.423931
17.231489
17.017159
17.626143
18.513426
19.020863
18.670546
17.186424
14.362505
10.056906
4.199519
-3.231266
-12.226760
-22.744654
-34.596195
-47.273281
-59.864960
-71.211372
-80.253922
-86.239792
-88.709900
-87.438751
-82.344810
-73.485031
-61.192776
-46.281597
-30.044189
-13.964047
0.534559
12.391657
21.160210
26.871962
29.859291
30.668390
29.933788
28.257778
26.109999
23.788679
21.439264
19.118166
16.873573
14.754664
12.810129
11.168860
10.068314
9.764048
10.442394
12.152250
14.796631
18.227890
22.321711
26.972191
32.054638
37.366680
42.599491
47.411652
51.532639
54.812431
57.215183
58.735764
59.297031
58.717743
56.772877
53.320461
48.396076
42.238644
35.272366
28.003923
20.889700
14.273329
8.359101
3.210141
-1.229516
-5.130720
-8.760219
-12.418074
-16.331869
