EVENT_NAME: EMILIA_2ND_SHOCK
EVENT_ID: IT-2012-0011
EVENT_DATE_YYYYMMDD: 20120529
EVENT_TIME_HHMMSS: 070002
EVENT_LATITUDE_DEGREE: 44.8417
EVENT_LONGITUDE_DEGREE: 11.0657
EVENT_DEPTH_KM: 8.1
HYPOCENTER_REFERENCE: INGV-CNT_Seismic_Bulletin
MAGNITUDE_W: 6.0
MAGNITUDE_W_REFERENCE: RCMT-INGV
MAGNITUDE_L: 5.8
MAGNITUDE_L_REFERENCE: INGV-CNT_Seismic_Bulletin
FOCAL_MECHANISM: TF
NETWORK: IT
STATION_CODE: FIN0
STATION_NAME: FINALE EMILIA
STATION_LATITUDE_DEGREE: 44.829700
STATION_LONGITUDE_DEGREE: 11.286700
STATION_ELEVATION_M: 61
LOCATION: 
SENSOR_DEPTH_M: 0.0
VS30_M/S: 
SITE_CLASSIFICATION_EC8: C*
MORPHOLOGIC_CLASSIFICATION: 
EPICENTRAL_DISTANCE_KM: 17.5
EARTHQUAKE_BACKAZIMUTH_DEGREE: 274.4
DATE_TIME_FIRST_SAMPLE_YYYYMMDD_HHMMSS: 20120529_065953.000
DATE_TIME_FIRST_SAMPLE_PRECISION: seconds
SAMPLING_INTERVAL_S: 0.005000
NDATA: 23800
DURATION_S: 119.000
STREAM: HNN
UNITS: cm/s^2
INSTRUMENT: sensor = Episensor FBA ES-T [Kinemetrics] | digitizer = Etna [Kinemetrics]
INSTRUMENT_ANALOG/DIGITAL: D
INSTRUMENTAL_FREQUENCY_HZ: 
INSTRUMENTAL_DAMPING: 
FULL_SCALE_G: 
N_BIT_DIGITAL_CONVERTER: 18
PGA_CM/S^2: -234.282728
TIME_PGA_S: 21.180000
BASELINE_CORRECTION: BASELINE REMOVED
FILTER_TYPE: BUTTERWORTH
FILTER_ORDER: 2
LOW_CUT_FREQUENCY_HZ: 0.050
HIGH_CUT_FREQUENCY_HZ: 30.000
LATE/NORMAL_TRIGGERED: NT
DATABASE_VERSION: DYNA 1.0
HEADER_FORMAT: DYNA 1.2
DATA_TYPE: ACCELERATION
PROCESSING: manual (Paolucci et al., 2011)
DATA_TIMESTAMP_YYYYMMDD_HHMMSS: 20141204_102913.574
DATA_LICENSE: CC-BY3_0-IT (http://creativecommons.org/licenses/by/3.0/deed.en)
DATA_CITATION: ESM working group (2015), European Strong-Motion database, version 0.1, Network Activity 3: Networking acceleration networks and SM data users. Project NERA (www.nera-eu.org)
DATA_CREATOR: ESM working group
ORIGINAL_DATA_MEDIATOR_CITATION: Ufficio Rischio Sismico e Vulcanico del Dipartimento della Protezione Civile (http://www.protezionecivile.gov.it/)
ORIGINAL_DATA_MEDIATOR: Rete Accelerometrica Nazionale - RAN Download (http://www.mot1.it/randownload/)
ORIGINAL_DATA_CREATOR_CITATION: Italian Strong Motion Network, Italian Civil Protection Department http://www.protezionecivile.gov.it
ORIGINAL_DATA_CREATOR: network: IT (Italian Strong Motion Network); owner: Dipartimento Della Protezione Civile
USER1: /home/dyna/processing-itaca/processing.py /var/www/processing/tmp/fpacor//IT.FIN0..HNE.D.20120529.070003.X.ACC.ASC /var/www/processing/tmp/fpacor//IT.FIN0..HNN.D.20120529.070003.X.ACC.ASC /var/www/processing/tmp/fpacor//IT.FIN0..HNZ.D.20120529.070003.X.ACC.ASC --tmp /var/www/processing/tmp/fpacor/ --le 0.050 --he 30.000 --ln 0.050 --hn 30.000 --lz 0.050 --hz 30.000 --fo 2 --ca -10 --cz 40 --ta 5 --tz 5 --mf 1 --rf 0 --tr NT
USER2: 
USER3: 
USER4: 
USER5: 
[...]
4.035495
3.233405
1.696744
-0.350488
-2.484831
-4.059996
-4.475636
-3.524437
-1.500711
0.962906
3.115962
4.258483
3.952805
2.280167
-0.091096
-2.195911
-3.264381
-3.080534
-2.005936
-0.696792
0.296665
0.788922
0.920439
0.936092
1.021039
1.246260
1.520656
1.583248
1.174825
0.301900
-0.712751
-1.472802
-1.774725
-1.679264
-1.411733
-1.178853
-0.992113
-0.638053
0.133640
1.341437
2.638322
3.409935
3.093904
1.589487
-0.559668
-2.449813
-3.357921
-3.065618
-1.815924
-0.142768
1.290337
1.937568
1.657343
0.774048
-0.179811
-0.810088
-1.021133
-0.926077
-0.663675
-0.302473
0.156265
0.757590
1.530644
2.328508
2.740401
2.329341
1.047597
-0.639434
-2.082940
-2.868547
-2.909628
-2.287286
-1.200096
-0.016645
0.887947
1.409176
1.660061
1.660285
1.285599
0.513943
-0.482208
-1.471703
-2.187961
-2.253489
-1.365925
0.314080
2.076607
3.079277
2.900671
1.754687
0.247316
-1.050643
-1.857569
-2.164343
-2.119632
-1.918930
-1.640606
-1.140638
-0.243283
0.922680
1.900314
2.246771
1.826360
0.831828
-0.312025
-1.077928
-1.089499
-0.379847
0.638919
1.480144
1.828759
1.550413
0.627144
-0.778080
-2.224707
-3.116643
-3.046528
-2.062323
-0.584998
0.921910
2.151832
2.879222
2.880256
2.064152
0.622729
-1.039364
-2.470728
-3.223801
-2.900433
-1.385879
0.900828
3.095395
4.334278
4.190867
2.779395
0.575499
-1.782717
-3.613149
-4.318547
-3.567211
-1.466950
1.350512
3.825843
4.846757
3.843752
1.201759
-1.925594
-4.260625
-4.997308
-4.067684
-2.064635
0.148743
1.913005
2.946800
3.187394
2.642772
1.439153
-0.105051
-1.530457
-2.358776
-2.262033
-1.275892
0.149130
1.396131
1.993910
1.744575
0.726611
-0.724379
-2.105617
-2.916162
-2.822814
-1.800792
-0.201444
1.396132
2.506748
2.934110
2.703003
1.943809
0.900527
-0.078586
-0.718930
-1.003365
-1.111462
-1.201699
-1.313254
-1.387985
-1.264621
-0.753433
0.110028
0.951266
1.354066
1.242914
0.879934
0.528699
0.215260
-0.188152
-0.718589
-1.190555
-1.308342
-0.922612
-0.168695
0.648699
1.249365
1.431352
1.054962
0.153564
-0.899143
-1.462616
-1.030427
0.358864
2.072022
3.197242
2.976210
1.205433
-1.518803
-3.987780
-5.069774
-4.419219
-2.569199
-0.373554
1.577668
3.061873
3.968994
4.135870
3.473606
2.150727
0.522249
-1.085631
-2.403125
-3.134624
-3.083976
-2.356171
-1.250078
0.045207
1.455297
2.718238
3.329773
2.929065
1.643148
-0.011476
-1.484095
-2.408737
-2.615941
-2.122492
-1.135942
0.031742
1.084783
1.780333
1.944773
1.541703
0.712172
-0.289291
-1.202394
-1.804838
-1.911931
-1.445919
-0.582937
0.210676
0.428947
-0.105853
-1.102538
-1.946776
-1.964311
-0.726544
1.614516
4.204389
5.905444
6.020783
4.589969
2.029498
-1.236204
-4.619687
-7.142310
-7.816596
-6.353214
-3.291478
0.548215
4.390350
7.272356
8.069921
6.172830
2.054515
-2.906625
-7.098622
-9.284923
-8.901344
-6.093288
-1.604664
3.405623
7.553087
9.542427
8.775115
5.827411
2.108333
-1.086524
-3.136321
-3.908722
-3.480127
-2.222387
-0.811746
0.200296
0.732300
0.887878
0.512665
-0.565017
-1.867821
-2.307337
-1.208579
0.833476
2.436099
2.737127
1.882182
0.349726
-1.525234
-3.166755
-3.540567
-1.887674
1.452712
5.246251
8.213468
9.441339
8.293562
4.534548
-1.217602
-7.372540
-11.977683
-13.599156
-11.839554
-7.359754
-1.500905
4.318166
8.906344
11.137019
10.091356
5.835527
-0.142939
-5.581008
-8.627224
-8.616633
-6.098599
-2.386999
1.065090
3.267428
3.984608
3.570917
2.634197
1.818654
1.604817
2.058869
2.716830
2.700513
1.082698
-2.434274
-6.854755
-10.109002
-10.405274
-7.463684
-2.355944
3.531577
9.058875
13.209934
15.017563
13.794908
9.386446
2.358579
-5.889620
-13.344619
-17.923149
-17.985798
-12.759814
-2.925514
8.979532
19.183542
24.251200
22.404514
13.902693
0.937986
-12.692598
-22.655416
-25.921400
-22.107100
-13.095111
-1.687988
9.129000
16.525169
18.743517
15.930160
9.695681
1.996035
-5.309960
-10.402146
-11.941482
-9.698090
-4.524542
2.014848
7.941612
11.481919
11.906262
9.667406
5.689079
0.762510
-4.402608
-8.935931
-11.926264
-12.820910
-11.639712
-8.788395
-4.698178
0.259477
5.421607
9.618394
11.671104
11.174213
8.644975
4.883557
0.410000
-4.317040
-8.411161
-10.704236
-10.480666
-7.905330
-3.682577
1.377283
6.240146
9.551633
10.259838
8.353681
4.681198
0.111095
-4.817938
-9.525052
-13.065666
-14.377973
-12.827516
-8.397733
-1.383569
7.575159
16.664402
22.641926
22.459896
15.435661
3.730772
-8.934139
-18.820196
-23.163963
-20.833155
-12.798408
-1.830258
9.000416
17.688631
23.035292
23.743484
18.635027
7.863052
-6.237934
-19.655869
-28.379187
-29.991962
-24.115145
-11.895788
4.223517
20.105921
30.554869
31.780130
23.547672
8.919654
-7.610191
-21.528185
-29.117371
-28.616974
-20.858047
-8.342498
5.938989
18.832239
27.443155
29.982130
25.968157
15.983501
1.930455
-12.787550
-24.203873
-29.405788
-27.431742
-19.007574
-6.103026
8.125174
19.723045
25.283615
23.555431
15.796612
4.626069
-7.162698
-17.069378
-23.211454
-24.690365
-21.547352
-14.377824
-4.290168
6.708702
15.743044
20.076141
18.564686
12.358312
4.188258
-3.046695
-7.274148
-7.658813
-4.803201
-0.581379
2.787238
4.063061
3.563615
2.418033
1.507453
1.224955
1.674004
2.634130
3.484413
3.276483
1.022724
-3.609275
-9.646611
-14.970699
-17.174126
-14.540289
-6.887144
4.093883
15.397182
23.897001
27.537609
25.791906
19.072580
8.183487
-5.231178
-18.300917
-27.658834
-30.570004
-25.696251
-13.607954
2.994065
19.557896
30.678667
32.080601
22.899536
6.539632
-10.908350
-23.587772
-28.015232
-23.608339
-12.280786
2.092727
14.578567
21.224476
21.059311
15.727321
7.458459
-1.807404
-9.876022
-14.334398
-13.646178
-7.974761
0.835674
9.749981
15.561300
16.204159
11.326040
1.945836
-9.801331
-20.694393
-27.222580
-27.041164
-19.861628
-7.532317
6.339963
17.425655
22.249071
19.475029
10.178231
-2.846013
-16.081585
-26.219774
-30.802759
-28.389736
-18.929047
-4.699409
9.813183
19.940292
22.684160
17.062059
4.404318
-10.911190
-22.624737
-26.258417
-21.669884
-11.969622
-1.080085
7.386332
10.790412
8.809961
3.696387
-1.760433
-6.131514
-9.032438
-10.250828
-10.041790
-9.311414
-8.593126
-7.339700
-4.708658
-0.574739
4.545329
10.021464
15.042985
18.702299
21.044981
23.162701
25.210651
25.488861
22.575743
17.393988
12.392533
9.557889
9.850340
13.548901
19.807022
26.089067
29.144981
26.877565
19.365614
8.648992
-2.291159
-10.769783
-15.260213
-15.679914
-13.041685
-8.750079
-4.473547
-2.485807
-4.842028
-11.581743
-20.460169
-28.593342
-33.759907
-34.530647
-30.418743
-22.380407
-12.734892
-4.218625
1.251924
3.475884
3.874202
4.423180
6.639294
11.086953
17.008770
22.360355
24.762836
22.623081
15.636629
5.118026
-6.023064
-14.664974
-19.244518
-19.926346
-17.545519
-13.020503
-7.652241
-3.435964
-2.361672
-5.293573
-12.150559
-22.667959
-35.581539
-47.504883
-54.491268
-55.038490
-50.555244
-43.163017
-34.236217
-24.843664
-16.112850
-8.363707
-0.584716
8.255233
17.680880
26.085747
32.020977
34.836964
35.056450
34.634384
35.910042
39.164757
41.604294
39.866405
33.283012
23.868605
13.697797
3.639160
-5.491068
-12.263968
-15.962321
-17.655420
-18.942587
-19.691292
-17.910944
-12.324344
-4.290250
3.422181
9.115538
12.802694
14.812898
14.926713
13.521929
12.436476
13.275074
15.453639
17.028587
16.828829
14.901457
11.622397
7.435594
3.215659
0.052354
-1.633020
-2.590007
-4.242290
-7.778812
-13.465595
-20.063063
-24.701851
-24.327061
-18.145826
-8.416743
1.288165
8.047252
10.143639
7.324431
1.640797
-2.802624
-2.320263
4.037486
14.727843
27.331430
39.426823
48.658848
52.969372
51.309547
44.025604
32.296024
17.672215
2.558215
-9.702710
-16.324757
-16.888597
-13.391838
-8.523032
-4.111072
-1.058685
-0.142123
-2.215270
-7.341798
-14.206158
-21.004515
-26.670227
-30.859798
-33.236923
-33.303875
-30.878202
-26.534964
-21.319120
-15.939291
-10.565314
-5.494518
-1.730001
-0.552525
-2.140944
-4.881900
-6.807682
-7.579688
-8.234755
-9.081311
-8.964059
-6.964251
-3.626400
0.259577
4.914289
10.643679
16.628647
21.546274
24.788403
26.230280
25.178246
20.823124
13.820439
6.118658
-0.806654
-6.293801
-9.368506
-8.938605
-5.466791
-1.370037
0.623591
-1.064275
-6.917615
-16.710653
-28.934399
-39.983486
-44.948498
-40.279568
-26.193951
-6.697919
12.678516
27.455786
35.302570
35.731762
29.791327
20.407104
12.209646
9.265059
11.899739
16.564184
19.492144
19.435307
16.457541
9.944221
-0.619625
-13.615342
-25.361471
-32.299839
-32.647968
-26.462385
-15.681181
-4.428393
2.571096
3.287759
-0.259589
-4.330337
-6.546736
-6.391978
-3.698678
2.039143
10.734636
20.828880
29.463493
33.514980
31.243479
23.198036
11.153896
-3.212103
-17.748396
-28.821409
-32.645885
-28.025936
-17.259033
-4.669459
5.207222
8.832086
4.695194
-5.904169
-19.042591
-29.643604
-33.687523
-29.855972
-19.546768
-5.780949
7.851601
18.305861
24.323706
26.549269
26.108755
23.400478
18.434284
11.682190
4.155943
-2.795762
-7.395666
-7.997651
-4.500475
1.305262
7.033680
10.866086
11.836638
9.833110
5.511071
0.071899
-5.025858
-8.496616
-9.884688
-9.722536
-8.440948
-5.384233
0.106331
6.726359
11.420181
11.633821
6.616135
-2.881232
-14.828540
-26.079781
-33.548790
-35.627491
-32.200531
-23.741438
-11.520335
1.332416
10.435460
12.805993
8.764271
1.202691
-6.382070
-11.014244
-10.577465
-4.290355
7.003330
21.354767
36.419346
49.620079
58.172333
59.535725
52.301571
37.198009
17.402309
-2.596015
-18.945583
-29.583797
-34.063232
-32.965893
-27.657587
-20.164978
-12.647349
-6.690557
-3.192106
-2.717446
-5.357269
-10.072814
-14.833612
-17.918375
-18.795820
-17.669918
-14.938863
-11.338379
-7.754610
-4.431954
-0.913425
2.898108
6.098557
7.488249
6.522288
3.411308
-1.278781
-6.887776
-12.765707
-18.321306
-22.982637
-26.205948
-27.625998
-27.157890
-24.853277
-20.705973
-14.979188
-8.895157
-4.415260
-2.765089
-3.402636
-4.859711
-6.289860
-7.566765
-8.126666
-6.694027
-2.492653
3.763801
10.313177
15.401374
17.788794
16.772711
12.329027
5.331022
-2.629359
-9.786325
-14.584675
-15.796609
-12.835153
-6.342667
1.667596
8.593785
12.324231
11.831745
7.377167
0.550833
-6.228363
-10.926761
-13.013570
-13.476069
-13.805294
-15.029077
-17.472691
-20.899937
-24.634373
-27.873632
-30.301788
-32.357735
-34.642056
-37.303783
-40.437038
-44.494827
-49.377220
-53.536770
-54.878349
-52.321228
-46.078915
-36.830585
-25.215767
-12.198277
0.666780
11.857926
20.540146
26.356455
29.093470
29.022089
27.326479
25.860840
26.399088
29.829651
35.540886
41.387726
44.639210
43.573441
38.631512
32.231915
27.393145
26.133507
28.441771
32.153870
33.958252
31.156851
22.894613
10.106156
-5.183749
-20.543165
-33.798843
-43.611431
-49.665005
-52.327385
-52.144871
-49.868542
-46.852543
-44.891045
-45.497055
-49.334000
-55.818180
-62.802345
-67.088409
-65.976250
-58.342186
-44.345230
-24.881969
-1.741916
22.014862
42.575508
56.892483
63.738739
63.599113
58.216110
50.131817
42.025913
36.081738
33.668186
35.422508
41.589310
52.115398
66.282288
82.392616
98.092720
111.134354
119.800018
122.850075
119.660820
110.732262
97.927216
83.958145
71.327995
61.464722
54.697624
50.888054
49.956497
51.858326
56.164707
61.842529
67.557983
72.030792
74.047661
72.503532
66.749161
56.868950
43.461338
27.122261
8.235499
-12.856048
-35.688763
-59.692806
-84.312317
-108.976379
-132.824387
-154.489883
-172.324646
-185.148224
-192.911301
-196.578659
-197.411865
-196.397690
-194.315155
-192.051437
-189.967285
-185.948425
-174.777405
-151.918716
-118.765266
-82.689789
-51.676517
-29.525404
-15.158849
-5.093868
3.492669
11.487999
18.854650
26.095957
34.164448
43.238914
52.446690
60.898724
68.330009
74.685593
79.758377
83.233376
84.648895
83.412766
79.216988
72.601593
64.933388
57.804070
52.602077
50.298386
51.234219
55.174713
61.594280
69.820686
79.007477
88.155876
96.277702
102.560730
106.280327
106.663918
103.212982
96.266647
87.125481
77.604523
69.451225
63.934669
61.580662
62.122349
64.846298
69.104942
74.447777
80.355789
86.063248
90.724411
93.810791
95.389595
96.147141
97.183731
99.528008
103.706352
109.602478
116.428047
122.954941
127.956116
130.446777
129.906906
126.473557
120.694756
113.131058
104.238434
94.460594
84.202614
73.664146
62.780964
51.190639
38.291710
23.584072
6.978144
-11.245498
-30.691101
-51.010292
-71.881828
-92.934593
-113.752502
-133.937302
-153.125870
-170.985733
-187.214630
-201.523865
-213.637436
-223.306152
-230.280838
-234.186783
-234.282730
-229.240494
-217.269272
-197.121277
-169.699203
-138.407639
-107.517387
-80.284233
-58.121349
-40.739574
-27.031515
-16.168198
-7.950790
-2.272316
1.369715
3.834782
6.024116
8.521194
11.415531
14.344550
16.668774
17.711979
16.924213
13.885673
8.322631
0.467484
-8.620232
-17.477030
-24.985371
-30.643505
-34.412697
-36.591118
-37.786243
-38.768559
-40.193130
-42.260735
-44.610191
-46.741695
-48.426441
-49.965454
-52.332413
-56.516628
-62.606125
-69.413284
-74.653290
-75.907211
-71.939301
-63.438908
-52.606182
-41.699551
-31.703981
-22.278933
-12.715264
-2.588492
8.108481
18.945803
29.427307
39.284660
48.224361
55.808308
61.753742
66.277931
70.106750
74.080894
78.719543
84.004692
89.319359
93.329414
94.063004
89.787033
80.108711
66.127136
49.845474
33.470654
18.693983
6.458358
-2.689731
-8.461345
-10.846528
-9.682927
-4.425843
5.211326
18.364487
32.656300
45.107025
53.858643
58.735947
60.403965
59.599438
56.980946
53.246269
49.148739
45.235977
41.472210
37.159950
31.374653
23.609941
14.047213
3.302060
-7.875570
-18.730665
-28.720516
-37.606998
-45.090946
-50.628704
-53.752434
-54.223175
-52.072689
-47.875458
-42.848892
-38.504856
-35.862213
-35.055569
-35.978287
-38.353584
-41.060974
-42.614353
-42.091442
-39.333462
-34.871258
-29.714066
-25.052031
-21.870676
-20.542219
-20.745476
-21.698420
-22.518461
-22.480782
-21.077209
-18.022545
-13.259872
-6.980000
0.352143
8.203577
16.401600
25.151680
34.564899
44.371120
53.873955
62.113838
68.606148
73.738708
77.981712
81.319977
83.560738
84.533302
84.122612
82.393936
79.494347
75.313065
69.600616
62.490849
54.446564
45.797710
36.581333
26.758652
16.550877
6.551781
-2.393559
-9.456376
-14.191364
-16.691097
-17.416353
-17.040680
-16.443752
-16.653748
-18.562225
-22.503916
-28.091927
-34.420139
-40.506199
-45.835365
-50.537201
-54.952675
-58.990757
-61.876472
-62.506470
-59.963367
-53.782818
-44.121014
-31.961502
-19.006971
-7.083568
2.448014
8.821601
11.630896
10.802425
6.770004
0.312664
-7.703620
-16.456566
-25.241457
-33.367603
-40.116375
-44.900944
-47.350624
-47.209534
-44.293911
-38.699814
-31.034000
-22.308624
-13.522349
-5.304181
2.192748
9.161354
15.890460
22.598202
29.328281
35.896221
41.943661
47.002464
50.579021
52.368553
52.461784
51.266594
49.240208
46.761223
44.162525
41.818703
40.157845
39.418098
39.376751
39.448380
39.055218
37.832321
35.517174
31.887615
26.937574
20.941704
14.250676
7.186194
0.233331
-5.940007
-10.940560
-15.041681
-18.970858
-23.275078
-27.879782
-32.223961
-35.644066
-37.545528
-37.457111
-35.140331
-30.643742
-24.245644
-16.420191
-7.867295
0.577550
8.073851
13.732048
16.710205
16.634897
13.799063
8.917518
2.899612
-3.245789
-8.595461
-12.563178
-15.062874
-16.365774
-16.639837
-15.669133
-13.145206
-9.208605
-4.636960
-0.541514
2.113986
2.811481
1.480679
-1.552383
-5.600802
-9.850209
-13.671775
-16.760727
-19.047245
-20.480940
-20.913685
-20.139956
-18.100384
-15.051792
-11.419421
-7.672366
-4.292714
-1.591190
0.331912
1.501777
2.100081
2.471302
3.018347
3.996316
5.404989
7.198224
9.440683
12.057622
14.548071
16.017607
15.481239
12.287447
6.367483
-1.808140
-11.350740
-21.089834
-29.795053
-36.431190
-40.372795
-41.467216
-39.870197
-35.890282
-30.024691
-22.970217
-15.480345
-8.232930
-1.860096
2.957718
5.575431
5.618685
3.179872
-1.066520
-5.927610
-10.091971
-12.682657
-13.523008
-12.857740
-10.933159
-8.141711
-5.274401
-3.194363
-2.499124
-3.413225
-5.695853
-8.724698
-11.653241
-13.696320
-14.503153
-14.063560
-12.389805
-9.550015
-5.815975
-1.599191
2.777857
7.202944
11.728086
16.505726
21.579306
26.736332
31.737926
36.540417
41.226234
45.845421
50.360561
54.699875
58.750267
62.280506
65.016724
66.863899
67.970337
68.480873
68.286194
67.125565
64.825195
61.262123
56.164627
49.186138
40.270969
29.831911
18.535324
6.974300
-4.477334
-15.601361
-26.243170
-36.237778
-45.299793
-53.001778
-58.871063
-62.416458
-63.084705
-60.371513
-54.160011
-45.035950
-34.242077
-23.304375
-13.653518
-6.363821
-1.970158
-0.461888
-1.511607
-4.662548
-9.277077
-14.546802
-19.744259
-24.412289
-28.339321
-31.444347
-33.703533
-35.230740
-36.313087
-37.101940
-37.312599
-36.415844
-33.990845
-29.839001
-23.944254
-16.456514
-7.768630
1.436909
10.312272
18.260239
25.145411
30.988964
35.851562
39.739983
42.393150
43.469013
42.794201
40.489395
37.060913
33.343124
30.268110
28.472910
28.092489
28.908112
30.523382
32.430073
34.003872
34.511097
33.302860
30.085247
25.020014
18.623474
11.601588
4.724718
-1.287929
-5.838307
-8.590979
-9.640313
-9.521884
-9.133621
-9.396430
-10.770386
-12.992594
-15.224251
-16.611416
-16.674932
-15.319649
-12.771913
-9.511411
-6.217001
-3.587328
-2.044683
-1.607615
-1.923773
-2.380875
-2.389074
-1.634901
-0.081412
2.028935
4.150338
5.630868
5.944953
4.790442
2.141602
-1.733686
-6.347465
-11.155719
-15.759325
-20.041752
-24.110336
-28.059364
-31.787285
-35.002281
-37.330379
-38.414173
-38.000446
-36.065098
-32.871769
-28.828632
-24.282158
-19.446592
-14.443248
-9.371188
-4.377376
0.323361
4.465394
7.755213
9.937460
10.879059
10.607801
9.307348
7.276049
4.846916
2.286915
-0.266032
-2.821749
-5.510557
-8.445901
-11.637884
-15.054635
-18.620453
-22.186586
-25.592615
-28.698071
-31.364767
-33.474247
