EVENT_NAME: EMILIA_2ND_SHOCK
EVENT_ID: IT-2012-0011
EVENT_DATE_YYYYMMDD: 20120529
EVENT_TIME_HHMMSS: 070002
EVENT_LATITUDE_DEGREE: 44.8417
EVENT_LONGITUDE_DEGREE: 11.0657
EVENT_DEPTH_KM: 8.1
HYPOCENTER_REFERENCE: INGV-CNT_Seismic_Bulletin
MAGNITUDE_W: 6.0
MAGNITUDE_W_REFERENCE: RCMT-INGV
MAGNITUDE_L: 5.8
MAGNITUDE_L_REFERENCE: INGV-CNT_Seismic_Bulletin
FOCAL_MECHANISM: TF
NETWORK: IT
STATION_CODE: FIN0
STATION_NAME: FINALE EMILIA
STATION_LATITUDE_DEGREE: 44.829700
STATION_LONGITUDE_DEGREE: 11.286700
STATION_ELEVATION_M: 61
LOCATION: 
SENSOR_DEPTH_M: 0.0
VS30_M/S: 
SITE_CLASSIFICATION_EC8: C*
MORPHOLOGIC_CLASSIFICATION: 
EPICENTRAL_DISTANCE_KM: 17.5
EARTHQUAKE_BACKAZIMUTH_DEGREE: 274.4
DATE_TIME_FIRST_SAMPLE_YYYYMMDD_HHMMSS: 20120529_065953.000
DATE_TIME_FIRST_SAMPLE_PRECISION: seconds
SAMPLING_INTERVAL_S: 0.005000
NDATA: 23800
DURATION_S: 119.000
STREAM: HNN
UNITS: cm
INSTRUMENT: sensor = Episensor FBA ES-T [Kinemetrics] | digitizer = Etna [Kinemetrics]
INSTRUMENT_ANALOG/DIGITAL: D
INSTRUMENTAL_FREQUENCY_HZ: 
INSTRUMENTAL_DAMPING: 
FULL_SCALE_G: 
N_BIT_DIGITAL_CONVERTER: 18
PGD_CM: -2.861642
TIME_PGD_S: 20.905000
BASELINE_CORRECTION: BASELINE REMOVED
FILTER_TYPE: BUTTERWORTH
FILTER_ORDER: 2
LOW_CUT_FREQUENCY_HZ: 0.050
HIGH_CUT_FREQUENCY_HZ: 30.000
LATE/NORMAL_TRIGGERED: NT
DATABASE_VERSION: DYNA 1.0
HEADER_FORMAT: DYNA 1.2
DATA_TYPE: DISPLACEMENT
PROCESSING: manual (Paolucci et al., 2011)
DATA_TIMESTAMP_YYYYMMDD_HHMMSS: 20141204_102913.574
DATA_LICENSE: CC-BY3_0-IT (http://creativecommons.org/licenses/by/3.0/deed.en)
DATA_CITATION: ESM working group (2015), European Strong-Motion database, version 0.1, Network Activity 3: Networking acceleration networks and SM data users. Project NERA (www.nera-eu.org)
DATA_CREATOR: ESM working group
ORIGINAL_DATA_MEDIATOR_CITATION: Ufficio Rischio Sismico e Vulcanico del Dipartimento della Protezione Civile (http://www.protezionecivile.gov.it/)
ORIGINAL_DATA_MEDIATOR: Rete Accelerometrica Nazionale - RAN Download (http://www.mot1.it/randownload/)
ORIGINAL_DATA_CREATOR_CITATION: Italian Strong Motion Network, Italian Civil Protection Department http://www.protezionecivile.gov.it
ORIGINAL_DATA_CREATOR: network: IT (Italian Strong Motion Network); owner: Dipartimento Della Protezione Civile
USER1: /home/dyna/processing-itaca/processing.py /var/www/processing/tmp/fpacor//IT.FIN0..HNE.D.20120529.070003.X.ACC.ASC /var/www/processing/tmp/fpacor//IT.FIN0..HNN.D.20120529.070003.X.ACC.ASC /var/www/processing/tmp/fpacor//IT.FIN0..HNZ.D.20120529.070003.X.ACC.ASC --tmp /var/www/processing/tmp/fpacor/ --le 0.050 --he 30.000 --ln 0.050 --hn 30.000 --lz 0.050 --hz 30.000 --fo 2 --ca -10 --cz 40 --ta 5 --tz 5 --mf 1 --rf 0 --tr NT
USER2: 
USER3: 
USER4: 
USER5: 
[...]
1.252062e-01
1.254260e-01
1.255979e-01
1.257337e-01
1.258549e-01
1.259814e-01
1.261186e-01
1.262532e-01
1.263602e-01
1.264185e-01
1.264277e-01
1.264188e-01
1.264502e-01
1.265867e-01
1.268709e-01
1.273056e-01
1.278550e-01
1.284552e-01
1.290245e-01
1.294782e-01
1.297535e-01
1.298333e-01
1.297542e-01
1.295929e-01
1.294453e-01
1.294075e-01
1.295514e-01
1.298971e-01
1.303971e-01
1.309485e-01
1.314273e-01
1.317285e-01
1.317977e-01
1.316443e-01
1.313385e-01
1.309927e-01
1.307320e-01
1.306601e-01
1.308268e-01
1.312128e-01
1.317446e-01
1.323290e-01
1.328863e-01
1.333652e-01
1.337464e-01
1.340405e-01
1.342791e-01
1.344974e-01
1.347207e-01
1.349624e-01
1.352262e-01
1.355028e-01
1.357653e-01
1.359812e-01
1.361393e-01
1.362672e-01
1.364160e-01
1.366256e-01
1.369037e-01
1.372288e-01
1.375627e-01
1.378585e-01
1.380751e-01
1.382031e-01
1.382840e-01
1.384012e-01
1.386495e-01
1.391032e-01
1.397929e-01
1.406900e-01
1.417004e-01
1.426804e-01
1.434761e-01
1.439723e-01
1.441286e-01
1.439888e-01
1.436651e-01
1.433038e-01
1.430505e-01
1.430199e-01
1.432677e-01
1.437677e-01
1.444137e-01
1.450561e-01
1.455589e-01
1.458461e-01
1.459179e-01
1.458371e-01
1.456968e-01
1.455830e-01
1.455509e-01
1.456185e-01
1.457753e-01
1.459980e-01
1.462661e-01
1.465744e-01
1.469341e-01
1.473618e-01
1.478569e-01
1.483792e-01
1.488406e-01
1.491306e-01
1.491678e-01
1.489450e-01
1.485356e-01
1.480672e-01
1.476872e-01
1.475336e-01
1.477103e-01
1.482624e-01
1.491594e-01
1.502910e-01
1.514816e-01
1.525250e-01
1.532347e-01
1.534964e-01
1.533084e-01
1.528015e-01
1.522214e-01
1.518657e-01
1.519897e-01
1.527200e-01
1.540103e-01
1.556483e-01
1.573096e-01
1.586537e-01
1.594314e-01
1.595610e-01
1.591380e-01
1.583876e-01
1.575950e-01
1.570306e-01
1.568794e-01
1.571967e-01
1.579123e-01
1.588703e-01
1.598781e-01
1.607533e-01
1.613683e-01
1.616849e-01
1.617590e-01
1.617200e-01
1.617313e-01
1.619412e-01
1.624381e-01
1.632327e-01
1.642690e-01
1.654475e-01
1.666451e-01
1.677326e-01
1.685967e-01
1.691626e-01
1.694080e-01
1.693625e-01
1.690972e-01
1.687144e-01
1.683382e-01
1.680975e-01
1.680972e-01
1.683888e-01
1.689597e-01
1.697467e-01
1.706558e-01
1.715751e-01
1.723865e-01
1.729877e-01
1.733212e-01
1.733927e-01
1.732666e-01
1.730485e-01
1.728647e-01
1.728370e-01
1.730480e-01
1.735156e-01
1.741920e-01
1.749854e-01
1.757816e-01
1.764573e-01
1.768949e-01
1.770059e-01
1.767575e-01
1.761883e-01
1.754092e-01
1.745955e-01
1.739712e-01
1.737635e-01
1.741218e-01
1.750417e-01
1.763474e-01
1.777464e-01
1.789221e-01
1.796272e-01
1.797533e-01
1.793585e-01
1.786437e-01
1.778832e-01
1.773478e-01
1.772545e-01
1.777371e-01
1.788133e-01
1.803554e-01
1.820940e-01
1.836767e-01
1.847680e-01
1.851498e-01
1.847819e-01
1.838110e-01
1.825428e-01
1.813801e-01
1.807201e-01
1.808240e-01
1.817223e-01
1.832094e-01
1.849194e-01
1.864392e-01
1.874208e-01
1.876745e-01
1.872127e-01
1.862295e-01
1.850377e-01
1.839944e-01
1.834219e-01
1.835354e-01
1.843986e-01
1.859109e-01
1.878228e-01
1.897830e-01
1.914235e-01
1.924589e-01
1.927591e-01
1.923736e-01
1.915129e-01
1.904996e-01
1.896894e-01
1.893723e-01
1.896873e-01
1.905911e-01
1.918899e-01
1.933044e-01
1.945397e-01
1.953484e-01
1.955767e-01
1.951878e-01
1.942602e-01
1.929732e-01
1.915789e-01
1.903523e-01
1.895193e-01
1.891882e-01
1.893213e-01
1.897632e-01
1.903099e-01
1.907805e-01
1.910691e-01
1.911663e-01
1.911434e-01
1.911060e-01
1.911383e-01
1.912721e-01
1.914950e-01
1.917784e-01
1.920995e-01
1.924512e-01
1.928447e-01
1.933041e-01
1.938506e-01
1.944790e-01
1.951330e-01
1.956968e-01
1.960194e-01
1.959677e-01
1.954867e-01
1.946421e-01
1.936254e-01
1.927110e-01
1.921816e-01
1.922496e-01
1.930060e-01
1.944072e-01
1.962853e-01
1.983679e-01
2.003197e-01
2.018140e-01
2.026169e-01
2.026555e-01
2.020517e-01
2.011077e-01
2.002385e-01
1.998583e-01
2.002451e-01
2.014338e-01
2.031951e-01
2.051199e-01
2.067719e-01
2.078343e-01
2.081962e-01
2.079680e-01
2.074327e-01
2.069498e-01
2.068313e-01
2.072435e-01
2.081821e-01
2.095139e-01
2.110321e-01
2.125052e-01
2.137314e-01
2.145992e-01
2.151259e-01
2.154532e-01
2.158014e-01
2.163933e-01
2.173743e-01
2.187603e-01
2.204296e-01
2.221474e-01
2.236203e-01
2.245757e-01
2.248507e-01
2.244495e-01
2.235519e-01
2.224659e-01
2.215384e-01
2.210466e-01
2.211110e-01
2.216623e-01
2.224680e-01
2.232026e-01
2.235352e-01
2.232122e-01
2.221192e-01
2.203164e-01
2.180404e-01
2.156470e-01
2.134988e-01
2.118492e-01
2.107666e-01
2.101107e-01
2.095648e-01
2.087461e-01
2.073619e-01
2.053211e-01
2.027386e-01
1.998569e-01
1.969482e-01
1.942241e-01
1.917698e-01
1.895358e-01
1.873941e-01
1.852085e-01
1.828695e-01
1.803048e-01
1.774837e-01
1.744117e-01
1.711068e-01
1.675871e-01
1.638840e-01
1.600631e-01
1.562278e-01
1.525062e-01
1.490351e-01
1.459401e-01
1.433126e-01
1.412113e-01
1.396890e-01
1.387970e-01
1.385422e-01
1.388518e-01
1.395963e-01
1.406506e-01
1.419438e-01
1.434833e-01
1.453615e-01
1.477349e-01
1.507605e-01
1.545147e-01
1.589409e-01
1.638512e-01
1.689777e-01
1.740470e-01
1.788470e-01
1.832655e-01
1.872920e-01
1.909925e-01
1.944742e-01
1.978441e-01
2.011518e-01
2.043385e-01
2.072356e-01
2.096212e-01
2.112920e-01
2.121188e-01
2.120824e-01
2.112854e-01
2.099290e-01
2.082542e-01
2.064739e-01
2.047249e-01
2.030628e-01
2.014976e-01
2.000429e-01
1.987543e-01
1.977428e-01
1.971565e-01
1.971292e-01
1.977210e-01
1.988784e-01
2.004267e-01
2.021030e-01
2.036286e-01
2.047877e-01
2.054656e-01
2.056454e-01
2.053865e-01
2.048021e-01
2.040265e-01
2.031649e-01
2.022443e-01
2.011913e-01
1.998346e-01
1.979111e-01
1.950982e-01
1.910976e-01
1.857347e-01
1.789959e-01
1.709932e-01
1.619114e-01
1.519737e-01
1.414149e-01
1.304533e-01
1.192826e-01
1.080973e-01
9.711837e-02
8.658146e-02
7.669669e-02
6.761244e-02
5.939912e-02
5.206221e-02
4.559116e-02
4.001786e-02
3.542368e-02
3.186961e-02
2.931220e-02
2.758686e-02
2.645824e-02
2.567206e-02
2.497687e-02
2.414439e-02
2.300532e-02
2.146719e-02
1.948767e-02
1.703459e-02
1.408922e-02
1.069608e-02
6.994837e-03
3.186334e-03
-5.366144e-04
-4.031674e-03
-7.206667e-03
-1.001134e-02
-1.244284e-02
-1.453629e-02
-1.631884e-02
-1.776950e-02
-1.883382e-02
-1.947243e-02
-1.969032e-02
-1.953568e-02
-1.909047e-02
-1.845937e-02
-1.774788e-02
-1.703508e-02
-1.636311e-02
-1.575589e-02
-1.525473e-02
-1.494803e-02
-1.497798e-02
-1.550950e-02
-1.665857e-02
-1.841581e-02
-2.062670e-02
-2.304801e-02
-2.543712e-02
-2.762504e-02
-2.955937e-02
-3.131060e-02
-3.302080e-02
-3.480106e-02
-3.663934e-02
-3.837668e-02
-3.974582e-02
-4.043167e-02
-4.013186e-02
-3.861557e-02
-3.577505e-02
-3.165179e-02
-2.642789e-02
-2.039659e-02
-1.392348e-02
-7.386423e-03
-1.091930e-03
4.794445e-03
1.025860e-02
1.538797e-02
2.030426e-02
2.511777e-02
2.990481e-02
3.468830e-02
3.941641e-02
4.396097e-02
4.815038e-02
5.181468e-02
5.481222e-02
5.703827e-02
5.843339e-02
5.899592e-02
5.878649e-02
5.791369e-02
5.650791e-02
5.470365e-02
5.263525e-02
5.042949e-02
4.818048e-02
4.591766e-02
4.360132e-02
4.116292e-02
3.855434e-02
3.575626e-02
3.275231e-02
2.952134e-02
2.606626e-02
2.243707e-02
1.871722e-02
1.500387e-02
1.141337e-02
8.088958e-03
5.180266e-03
2.810231e-03
1.059906e-03
-3.466153e-05
-4.997732e-04
-4.443068e-04
-4.332942e-05
5.106144e-04
1.044392e-03
1.420824e-03
1.563044e-03
1.481799e-03
1.263884e-03
1.011718e-03
7.751417e-04
5.119586e-04
7.583511e-05
-7.780547e-04
-2.355304e-03
-4.932141e-03
-8.632691e-03
-1.334023e-02
-1.870262e-02
-2.423245e-02
-2.944532e-02
-3.397180e-02
-3.761572e-02
-4.036634e-02
-4.237217e-02
-4.386783e-02
-4.505825e-02
-4.601704e-02
-4.667834e-02
-4.692553e-02
-4.668542e-02
-4.595943e-02
-4.482199e-02
-4.343596e-02
-4.206541e-02
-4.103525e-02
-4.063912e-02
-4.105049e-02
-4.227806e-02
-4.416719e-02
-4.644834e-02
-4.884021e-02
-5.116780e-02
-5.341320e-02
-5.566509e-02
-5.802523e-02
-6.054904e-02
-6.323266e-02
-6.600873e-02
-6.873384e-02
-7.119057e-02
-7.312658e-02
-7.432601e-02
-7.468756e-02
-7.426802e-02
-7.326854e-02
-7.199020e-02
-7.079217e-02
-7.003785e-02
-7.000406e-02
-7.078642e-02
-7.226943e-02
-7.418392e-02
-7.621514e-02
-7.811618e-02
-7.979642e-02
-8.135928e-02
-8.306974e-02
-8.525627e-02
-8.818388e-02
-9.195369e-02
-9.646990e-02
-1.014748e-01
-1.066242e-01
-1.115773e-01
-1.160727e-01
-1.199601e-01
-1.231837e-01
-1.257547e-01
-1.277406e-01
-1.292656e-01
-1.304986e-01
-1.316277e-01
-1.328267e-01
-1.342106e-01
-1.357944e-01
-1.374907e-01
-1.391544e-01
-1.406423e-01
-1.418585e-01
-1.427788e-01
-1.434533e-01
-1.439900e-01
-1.445249e-01
-1.451854e-01
-1.460583e-01
-1.471784e-01
-1.485415e-01
-1.501157e-01
-1.518245e-01
-1.535306e-01
-1.550685e-01
-1.563210e-01
-1.572826e-01
-1.580787e-01
-1.589470e-01
-1.601859e-01
-1.620768e-01
-1.648065e-01
-1.684268e-01
-1.728522e-01
-1.778711e-01
-1.831780e-01
-1.884515e-01
-1.934642e-01
-1.981568e-01
-2.026302e-01
-2.070736e-01
-2.116765e-01
-2.165548e-01
-2.216975e-01
-2.269475e-01
-2.320224e-01
-2.365634e-01
-2.401940e-01
-2.425840e-01
-2.435198e-01
-2.429671e-01
-2.411069e-01
-2.383167e-01
-2.350915e-01
-2.319312e-01
-2.292446e-01
-2.272975e-01
-2.262020e-01
-2.259307e-01
-2.263507e-01
-2.272750e-01
-2.285154e-01
-2.299230e-01
-2.314105e-01
-2.329659e-01
-2.346552e-01
-2.365964e-01
-2.389084e-01
-2.416684e-01
-2.448982e-01
-2.485698e-01
-2.526149e-01
-2.569434e-01
-2.614658e-01
-2.660990e-01
-2.707550e-01
-2.753386e-01
-2.797697e-01
-2.840136e-01
-2.880945e-01
-2.920901e-01
-2.961176e-01
-3.003173e-01
-3.048362e-01
-3.098131e-01
-3.153646e-01
-3.215712e-01
-3.284685e-01
-3.360447e-01
-3.442423e-01
-3.529575e-01
-3.620471e-01
-3.713592e-01
-3.807816e-01
-3.902732e-01
-3.998498e-01
-4.095480e-01
-4.194033e-01
-4.294479e-01
-4.396956e-01
-4.501106e-01
-4.605880e-01
-4.709713e-01
-4.810968e-01
-4.908372e-01
-5.001329e-01
-5.090093e-01
-5.175774e-01
-5.260123e-01
-5.345129e-01
-5.432582e-01
-5.523681e-01
-5.618729e-01
-5.716985e-01
-5.816828e-01
-5.916253e-01
-6.013531e-01
-6.107727e-01
-6.198965e-01
-6.288359e-01
-6.377615e-01
-6.468428e-01
-6.561973e-01
-6.658771e-01
-6.758939e-01
-6.862557e-01
-6.969933e-01
-7.081677e-01
-7.198646e-01
-7.321774e-01
-7.451870e-01
-7.589542e-01
-7.735303e-01
-7.889724e-01
-8.053472e-01
-8.227328e-01
-8.412309e-01
-8.609633e-01
-8.820342e-01
-9.044771e-01
-9.282279e-01
-9.531308e-01
-9.789544e-01
-1.005408e+00
-1.032167e+00
-1.058910e+00
-1.085356e+00
-1.111288e+00
-1.136561e+00
-1.161107e+00
-1.184928e+00
-1.208065e+00
-1.230556e+00
-1.252387e+00
-1.273472e+00
-1.293669e+00
-1.312831e+00
-1.330877e+00
-1.347833e+00
-1.363824e+00
-1.379009e+00
-1.393509e+00
-1.407356e+00
-1.420492e+00
-1.432824e+00
-1.444307e+00
-1.455011e+00
-1.465143e+00
-1.475022e+00
-1.485031e+00
-1.495553e+00
-1.506920e+00
-1.519378e+00
-1.533077e+00
-1.548084e+00
-1.564395e+00
-1.581953e+00
-1.600682e+00
-1.620533e+00
-1.641521e+00
-1.663743e+00
-1.687361e+00
-1.712548e+00
-1.739413e+00
-1.767927e+00
-1.797900e+00
-1.828981e+00
-1.860685e+00
-1.892432e+00
-1.923628e+00
-1.953760e+00
-1.982470e+00
-2.009587e+00
-2.035113e+00
-2.059184e+00
-2.082002e+00
-2.103769e+00
-2.124634e+00
-2.144657e+00
-2.163795e+00
-2.181893e+00
-2.198688e+00
-2.213826e+00
-2.226904e+00
-2.237530e+00
-2.245378e+00
-2.250231e+00
-2.252012e+00
-2.250802e+00
-2.246823e+00
-2.240396e+00
-2.231871e+00
-2.221562e+00
-2.209717e+00
-2.196504e+00
-2.182019e+00
-2.166285e+00
-2.149254e+00
-2.130820e+00
-2.110839e+00
-2.089169e+00
-2.065699e+00
-2.040377e+00
-2.013243e+00
-1.984440e+00
-1.954216e+00
-1.922905e+00
-1.890915e+00
-1.858720e+00
-1.826847e+00
-1.795865e+00
-1.766376e+00
-1.738995e+00
-1.714338e+00
-1.693002e+00
-1.675528e+00
-1.662362e+00
-1.653824e+00
-1.650110e+00
-1.651310e+00
-1.657445e+00
-1.668491e+00
-1.684394e+00
-1.705098e+00
-1.730552e+00
-1.760654e+00
-1.795126e+00
-1.833395e+00
-1.874634e+00
-1.917940e+00
-1.962538e+00
-2.007875e+00
-2.053590e+00
-2.099432e+00
-2.145187e+00
-2.190655e+00
-2.235652e+00
-2.279996e+00
-2.323486e+00
-2.365895e+00
-2.406993e+00
-2.446568e+00
-2.484436e+00
-2.520436e+00
-2.554442e+00
-2.586367e+00
-2.616176e+00
-2.643900e+00
-2.669643e+00
-2.693571e+00
-2.715876e+00
-2.736736e+00
-2.756281e+00
-2.774568e+00
-2.791575e+00
-2.807202e+00
-2.821289e+00
-2.833631e+00
-2.843997e+00
-2.852160e+00
-2.857916e+00
-2.861107e+00
-2.861642e+00
-2.859510e+00
-2.854798e+00
-2.847679e+00
-2.838382e+00
-2.827145e+00
-2.814171e+00
-2.799599e+00
-2.783488e+00
-2.765824e+00
-2.746538e+00
-2.725525e+00
-2.702651e+00
-2.677767e+00
-2.650732e+00
-2.621430e+00
-2.589781e+00
-2.555748e+00
-2.519312e+00
-2.480445e+00
-2.439091e+00
-2.395144e+00
-2.348457e+00
-2.298859e+00
-2.246187e+00
-2.190317e+00
-2.131185e+00
-2.068805e+00
-2.003264e+00
-1.934705e+00
-1.863318e+00
-1.789325e+00
-1.712971e+00
-1.634511e+00
-1.554210e+00
-1.472340e+00
-1.389189e+00
-1.305082e+00
-1.220384e+00
-1.135513e+00
-1.050922e+00
-9.670986e-01
-8.845505e-01
-8.037995e-01
-7.253718e-01
-6.497880e-01
-5.775526e-01
-5.091453e-01
-4.450127e-01
-3.855604e-01
-3.311462e-01
-2.820730e-01
-2.385824e-01
-2.008489e-01
-1.689700e-01
-1.429482e-01
-1.226574e-01
-1.077983e-01
-9.786727e-02
-9.217871e-02
-8.995034e-02
-9.040990e-02
-9.287657e-02
-9.679628e-02
-1.017345e-01
-1.073485e-01
-1.133666e-01
-1.195836e-01
-1.258574e-01
-1.320969e-01
-1.382405e-01
-1.442336e-01
-1.500136e-01
-1.555082e-01
-1.606442e-01
-1.653635e-01
-1.696400e-01
-1.734934e-01
-1.769997e-01
-1.802979e-01
-1.835844e-01
-1.870864e-01
-1.910253e-01
-1.955889e-01
-2.009185e-01
-2.071085e-01
-2.142132e-01
-2.222626e-01
-2.312813e-01
-2.413047e-01
-2.523847e-01
-2.645799e-01
-2.779436e-01
-2.925181e-01
-3.083416e-01
-3.254735e-01
-3.440183e-01
-3.641282e-01
-3.859735e-01
-4.096851e-01
-4.352944e-01
-4.627021e-01
-4.916959e-01
-5.220048e-01
-5.533561e-01
-5.855001e-01
-6.182011e-01
-6.512199e-01
-6.843035e-01
-7.171843e-01
-7.495915e-01
-7.812630e-01
-8.119524e-01
-8.414362e-01
-8.695247e-01
-8.960695e-01
-9.209572e-01
-9.440924e-01
-9.653755e-01
-9.846906e-01
-1.001906e+00
-1.016888e+00
-1.029536e+00
-1.039834e+00
-1.047886e+00
-1.053936e+00
-1.058332e+00
-1.061483e+00
-1.063797e+00
-1.065643e+00
-1.067328e+00
-1.069080e+00
-1.071044e+00
-1.073279e+00
-1.075756e+00
-1.078343e+00
-1.080800e+00
-1.082799e+00
-1.083980e+00
-1.084034e+00
-1.082742e+00
-1.079981e+00
-1.075710e+00
-1.069949e+00
-1.062764e+00
-1.054248e+00
-1.044502e+00
-1.033626e+00
-1.021713e+00
-1.008871e+00
-9.952449e-01
-9.810283e-01
-9.664605e-01
-9.518102e-01
-9.373568e-01
-9.233717e-01
-9.101045e-01
-8.977776e-01
-8.865779e-01
-8.766439e-01
-8.680537e-01
-8.608191e-01
-8.548864e-01
-8.501505e-01
-8.464858e-01
-8.437838e-01
-8.419783e-01
-8.410492e-01
-8.410196e-01
-8.419488e-01
-8.439045e-01
-8.469256e-01
-8.509990e-01
-8.560557e-01
-8.619842e-01
-8.686555e-01
-8.759532e-01
-8.837976e-01
-8.921555e-01
-9.010321e-01
-9.104512e-01
-9.204332e-01
-9.309773e-01
-9.420482e-01
-9.535698e-01
-9.654228e-01
-9.774503e-01
-9.894691e-01
-1.001283e+00
-1.012686e+00
-1.023461e+00
-1.033372e+00
-1.042173e+00
-1.049628e+00
-1.055529e+00
-1.059716e+00
-1.062059e+00
-1.062453e+00
-1.060813e+00
-1.057085e+00
-1.051243e+00
-1.043298e+00
-1.033293e+00
-1.021301e+00
-1.007426e+00
-9.918115e-01
-9.746343e-01
-9.560960e-01
-9.364127e-01
-9.158149e-01
-8.945481e-01
-8.728675e-01
-8.510231e-01
-8.292386e-01
-8.076905e-01
-7.864972e-01
-7.657211e-01
-7.453805e-01
-7.254659e-01
-7.059623e-01
-6.868752e-01
-6.682520e-01
-6.501915e-01
-6.328333e-01
-6.163355e-01
-6.008505e-01
-5.865113e-01
-5.734355e-01
-5.617336e-01
-5.515064e-01
-5.428261e-01
-5.357085e-01
-5.300900e-01
-5.258160e-01
-5.226451e-01
-5.202732e-01
-5.183765e-01
-5.166569e-01
-5.148761e-01
-5.128747e-01
-5.105826e-01
-5.080204e-01
-5.052890e-01
-5.025497e-01
-5.000030e-01
-4.978678e-01
-4.963635e-01
-4.956935e-01
-4.960264e-01
-4.974818e-01
-5.001210e-01
-5.039404e-01
-5.088671e-01
-5.147614e-01
-5.214315e-01
-5.286593e-01
-5.362252e-01
-5.439236e-01
-5.515673e-01
-5.589819e-01
-5.659993e-01
-5.724517e-01
-5.781709e-01
-5.829927e-01
-5.867659e-01
-5.893641e-01
-5.906977e-01
-5.907222e-01
-5.894351e-01
-5.868663e-01
-5.830666e-01
-5.780978e-01
-5.720249e-01
-5.649066e-01
-5.567843e-01
-5.476766e-01
-5.375845e-01
-5.265061e-01
-5.144514e-01
-5.014509e-01
-4.875624e-01
-4.728767e-01
-4.575177e-01
-4.416350e-01
-4.253961e-01
-4.089775e-01
-3.925532e-01
-3.762773e-01
-3.602749e-01
-3.446485e-01
-3.294965e-01
-3.149263e-01
-3.010531e-01
-2.879855e-01
-2.758090e-01
-2.645712e-01
-2.542697e-01
-2.448468e-01
-2.361900e-01
-2.281393e-01
-2.204991e-01
-2.130556e-01
-2.055977e-01
-1.979379e-01
-1.899348e-01
-1.815140e-01
-1.726773e-01
-1.634956e-01
-1.540910e-01
-1.446138e-01
-1.352179e-01
-1.260368e-01
-1.171698e-01
-1.086793e-01
-1.005981e-01
-9.293276e-02
-8.565920e-02
-7.871426e-02
-7.199954e-02
-6.540075e-02
-5.881549e-02
-5.217738e-02
-4.546899e-02
-3.872358e-02
-3.201697e-02
-2.545039e-02
-1.913006e-02
-1.315153e-02
-7.592018e-03
-2.508685e-03
2.062624e-03
6.111091e-03
9.656060e-03
1.274852e-02
1.546468e-02
1.789536e-02
2.013423e-02
2.226578e-02
2.435755e-02
2.645762e-02
2.859524e-02
3.078535e-02
3.303725e-02
3.536461e-02
3.779187e-02
4.035426e-02
4.309661e-02
4.607497e-02
4.935478e-02
5.299828e-02
5.704223e-02
6.147320e-02
6.621136e-02
7.110871e-02
7.596086e-02
8.052924e-02
8.457037e-02
8.786662e-02
9.025210e-02
9.162825e-02
9.196773e-02
9.131045e-02
8.975591e-02
8.745076e-02
8.457135e-02
8.130493e-02
7.783269e-02
7.431394e-02
7.086914e-02
6.756373e-02
6.439878e-02
6.131333e-02
5.820121e-02
5.494091e-02
