EVENT_NAME: EMILIA_2ND_SHOCK
EVENT_ID: IT-2012-0011
EVENT_DATE_YYYYMMDD: 20120529
EVENT_TIME_HHMMSS: 070002
EVENT_LATITUDE_DEGREE: 44.8417
EVENT_LONGITUDE_DEGREE: 11.0657
EVENT_DEPTH_KM: 8.1
HYPOCENTER_REFERENCE: INGV-CNT_Seismic_Bulletin
MAGNITUDE_W: 6.0
MAGNITUDE_W_REFERENCE: RCMT-INGV
MAGNITUDE_L: 5.8
MAGNITUDE_L_REFERENCE: INGV-CNT_Seismic_Bulletin
FOCAL_MECHANISM: TF
NETWORK: IT
STATION_CODE: MDN
STATION_NAME: MODENA
STATION_LATITUDE_DEGREE: 44.646988
STATION_LONGITUDE_DEGREE: 10.889912
STATION_ELEVATION_M: 77
LOCATION: 
SENSOR_DEPTH_M: 0.0
VS30_M/S: 213
SITE_CLASSIFICATION_EC8: C
MORPHOLOGIC_CLASSIFICATION: 
EPICENTRAL_DISTANCE_KM: 25.7
EARTHQUAKE_BACKAZIMUTH_DEGREE: 32.7
DATE_TIME_FIRST_SAMPLE_YYYYMMDD_HHMMSS: 20120529_065953.000
DATE_TIME_FIRST_SAMPLE_PRECISION: seconds
SAMPLING_INTERVAL_S: 0.005000
NDATA: 26000
DURATION_S: 130.000
STREAM: HNZ
UNITS: cm
INSTRUMENT: sensor = FBA-3 [Kinemetrics] | digitizer = Etna [Kinemetrics]
INSTRUMENT_ANALOG/DIGITAL: D
INSTRUMENTAL_FREQUENCY_HZ: 198.000
INSTRUMENTAL_DAMPING: 0.700000
FULL_SCALE_G: 1.0
N_BIT_DIGITAL_CONVERTER: 18
PGD_CM: -0.594875
TIME_PGD_S: 30.310000
BASELINE_CORRECTION: BASELINE REMOVED
FILTER_TYPE: BUTTERWORTH
FILTER_ORDER: 2
LOW_CUT_FREQUENCY_HZ: 0.050
HIGH_CUT_FREQUENCY_HZ: 35.000
LATE/NORMAL_TRIGGERED: NT
DATABASE_VERSION: DYNA 1.0
HEADER_FORMAT: DYNA 1.2
DATA_TYPE: DISPLACEMENT
PROCESSING: manual (Paolucci et al., 2011)
DATA_TIMESTAMP_YYYYMMDD_HHMMSS: 20141204_103511.587
DATA_LICENSE: CC-BY3_0-IT (http://creativecommons.org/licenses/by/3.0/deed.en)
DATA_CITATION: ESM working group (2015), European Strong-Motion database, version 0.1, Network Activity 3: Networking acceleration networks and SM data users. Project NERA (www.nera-eu.org)
DATA_CREATOR: ESM working group
ORIGINAL_DATA_MEDIATOR_CITATION: Ufficio Rischio Sismico e Vulcanico del Dipartimento della Protezione Civile (http://www.protezionecivile.gov.it/)
ORIGINAL_DATA_MEDIATOR: Rete Accelerometrica Nazionale - RAN Download (http://www.mot1.it/randownload/)
ORIGINAL_DATA_CREATOR_CITATION: Italian Strong Motion Network, Italian Civil Protection Department http://www.protezionecivile.gov.it
ORIGINAL_DATA_CREATOR: network: IT (Italian Strong Motion Network); owner: Dipartimento Della Protezione Civile
USER1: /home/dyna/processing-itaca/processing.py /var/www/processing/tmp/fpacor//IT.MDN..HNE.D.20120529.070003.X.ACC.ASC /var/www/processing/tmp/fpacor//IT.MDN..HNN.D.20120529.070003.X.ACC.ASC /var/www/processing/tmp/fpacor//IT.MDN..HNZ.D.20120529.070003.X.ACC.ASC --tmp /var/www/processing/tmp/fpacor/ --le 0.05 --he 35.000 --ln 0.05 --hn 35.000 --lz 0.05 --hz 35.000 --fo 2 --ca -10 --cz 30 --ta 5 --tz 5 --mf 1 --rf 0 --tr NT
USER2: 
USER3: 
USER4: 
USER5: 
[...]
-4.414095e-02
-4.144626e-02
-3.842263e-02
-3.501404e-02
-3.118703e-02
-2.693273e-02
-2.226647e-02
-1.722566e-02
-1.186803e-02
-6.270543e-03
-5.277048e-04
5.253349e-03
1.096212e-02
1.649720e-02
2.177886e-02
2.675889e-02
3.142578e-02
3.580539e-02
3.995772e-02
4.396991e-02
4.794606e-02
5.199537e-02
5.622094e-02
6.071116e-02
6.553478e-02
7.073941e-02
7.635321e-02
8.238874e-02
8.884820e-02
9.572927e-02
1.030297e-01
1.107493e-01
1.188884e-01
1.274446e-01
1.364074e-01
1.457517e-01
1.554319e-01
1.653794e-01
1.755045e-01
1.857041e-01
1.958713e-01
2.059051e-01
2.157164e-01
2.252319e-01
2.343949e-01
2.431665e-01
2.515279e-01
2.594798e-01
2.670389e-01
2.742292e-01
2.810728e-01
2.875817e-01
2.937561e-01
2.995874e-01
3.050666e-01
3.101918e-01
3.149723e-01
3.194284e-01
3.235891e-01
3.274882e-01
3.311613e-01
3.346417e-01
3.379561e-01
3.411228e-01
3.441507e-01
3.470404e-01
3.497873e-01
3.523853e-01
3.548325e-01
3.571348e-01
3.593095e-01
3.613845e-01
3.633966e-01
3.653856e-01
3.673881e-01
3.694318e-01
3.715300e-01
3.736760e-01
3.758379e-01
3.779542e-01
3.799331e-01
3.816598e-01
3.830094e-01
3.838649e-01
3.841330e-01
3.837573e-01
3.827247e-01
3.810657e-01
3.788479e-01
3.761652e-01
3.731248e-01
3.698363e-01
3.664031e-01
3.629167e-01
3.594518e-01
3.560632e-01
3.527836e-01
3.496234e-01
3.465743e-01
3.436164e-01
3.407279e-01
3.378938e-01
3.351098e-01
3.323829e-01
3.297274e-01
3.271609e-01
3.246992e-01
3.223521e-01
3.201196e-01
3.179875e-01
3.159257e-01
3.138877e-01
3.118146e-01
3.096415e-01
3.073063e-01
3.047584e-01
3.019628e-01
2.989026e-01
2.955768e-01
2.919971e-01
2.881833e-01
2.841570e-01
2.799356e-01
2.755273e-01
2.709292e-01
2.661279e-01
2.611044e-01
2.558396e-01
2.503190e-01
2.445361e-01
2.384934e-01
2.322022e-01
2.256828e-01
2.189636e-01
2.120818e-01
2.050824e-01
1.980174e-01
1.909432e-01
1.839177e-01
1.769974e-01
1.702355e-01
1.636795e-01
1.573695e-01
1.513369e-01
1.456028e-01
1.401782e-01
1.350637e-01
1.302514e-01
1.257274e-01
1.214748e-01
1.174755e-01
1.137106e-01
1.101585e-01
1.067946e-01
1.035928e-01
1.005306e-01
9.759434e-02
9.478288e-02
9.210790e-02
8.959243e-02
8.726827e-02
8.517322e-02
8.334780e-02
8.183061e-02
8.065161e-02
7.982460e-02
7.934108e-02
7.916782e-02
7.924879e-02
7.951048e-02
7.986956e-02
8.024207e-02
8.055264e-02
8.074237e-02
8.077379e-02
8.063255e-02
8.032619e-02
7.988137e-02
7.934065e-02
7.875896e-02
7.819941e-02
7.772855e-02
7.741235e-02
7.731346e-02
7.748951e-02
7.799142e-02
7.886172e-02
8.013268e-02
8.182391e-02
8.393998e-02
8.646970e-02
8.938817e-02
9.266027e-02
9.624377e-02
1.000913e-01
1.041517e-01
1.083712e-01
1.126961e-01
1.170748e-01
1.214613e-01
1.258171e-01
1.301133e-01
1.343306e-01
1.384592e-01
1.424969e-01
1.464455e-01
1.503075e-01
1.540829e-01
1.577675e-01
1.613528e-01
1.648276e-01
1.681809e-01
1.714052e-01
1.745006e-01
1.774761e-01
1.803498e-01
1.831459e-01
1.858905e-01
1.886088e-01
1.913213e-01
1.940412e-01
1.967738e-01
1.995166e-01
2.022619e-01
2.050006e-01
2.077249e-01
2.104296e-01
2.131122e-01
2.157710e-01
2.184048e-01
2.210120e-01
2.235913e-01
2.261416e-01
2.286606e-01
2.311428e-01
2.335788e-01
2.359547e-01
2.382524e-01
2.404505e-01
2.425247e-01
2.444488e-01
2.461965e-01
2.477410e-01
2.490561e-01
2.501153e-01
2.508929e-01
2.513647e-01
2.515106e-01
2.513162e-01
2.507735e-01
2.498818e-01
2.486485e-01
2.470902e-01
2.452323e-01
2.431101e-01
2.407696e-01
2.382687e-01
2.356783e-01
2.330798e-01
2.305599e-01
2.282034e-01
2.260844e-01
2.242607e-01
2.227697e-01
2.216277e-01
2.208302e-01
2.203553e-01
2.201680e-01
2.202267e-01
2.204885e-01
2.209131e-01
2.214632e-01
2.221015e-01
2.227851e-01
2.234633e-01
2.240777e-01
2.245652e-01
2.248641e-01
2.249200e-01
2.246915e-01
2.241545e-01
2.233027e-01
2.221482e-01
2.207187e-01
2.190530e-01
2.171951e-01
2.151872e-01
2.130652e-01
2.108530e-01
2.085590e-01
2.061764e-01
2.036867e-01
2.010654e-01
1.982893e-01
1.953425e-01
1.922197e-01
1.889276e-01
1.854846e-01
1.819216e-01
1.782823e-01
1.746209e-01
1.709967e-01
1.674670e-01
1.640798e-01
1.608680e-01
1.578490e-01
1.550259e-01
1.523915e-01
1.499314e-01
1.476285e-01
1.454670e-01
1.434369e-01
1.415350e-01
1.397633e-01
1.381264e-01
1.366283e-01
1.352676e-01
1.340351e-01
1.329120e-01
1.318719e-01
1.308837e-01
1.299168e-01
1.289462e-01
1.279558e-01
1.269382e-01
1.258926e-01
1.248230e-01
1.237365e-01
1.226412e-01
1.215430e-01
1.204419e-01
1.193302e-01
1.181919e-01
1.170047e-01
1.157422e-01
1.143772e-01
1.128835e-01
1.112394e-01
1.094296e-01
1.074477e-01
1.052981e-01
1.029979e-01
1.005777e-01
9.808047e-02
9.556035e-02
9.307864e-02
9.069937e-02
8.848395e-02
8.648646e-02
8.475085e-02
8.331058e-02
8.218962e-02
8.140372e-02
8.096191e-02
8.086783e-02
8.112064e-02
8.171464e-02
8.263779e-02
8.387016e-02
8.538294e-02
8.713832e-02
8.908993e-02
9.118420e-02
9.336265e-02
9.556504e-02
9.773247e-02
9.980953e-02
1.017449e-01
1.034894e-01
1.049936e-01
1.062062e-01
1.070760e-01
1.075555e-01
1.076063e-01
1.072018e-01
1.063312e-01
1.050021e-01
1.032423e-01
1.011013e-01
9.865017e-02
9.598123e-02
9.320510e-02
9.044546e-02
8.783171e-02
8.549052e-02
8.353728e-02
8.206815e-02
8.115417e-02
8.083795e-02
8.113262e-02
8.202308e-02
8.347036e-02
8.541818e-02
8.779973e-02
9.054292e-02
9.357425e-02
9.682157e-02
1.002160e-01
1.036932e-01
1.071950e-01
1.106707e-01
1.140769e-01
1.173744e-01
1.205263e-01
1.234957e-01
1.262454e-01
1.287394e-01
1.309442e-01
1.328313e-01
1.343775e-01
1.355657e-01
1.363857e-01
1.368355e-01
1.369214e-01
1.366582e-01
1.360688e-01
1.351832e-01
1.340377e-01
1.326732e-01
1.311344e-01
1.294687e-01
1.277253e-01
1.259538e-01
1.242024e-01
1.225156e-01
1.209298e-01
1.194683e-01
1.181391e-01
1.169351e-01
1.158373e-01
1.148199e-01
1.138548e-01
1.129149e-01
1.119763e-01
1.110181e-01
1.100225e-01
1.089760e-01
1.078708e-01
1.067061e-01
1.054871e-01
1.042239e-01
1.029284e-01
1.016126e-01
1.002882e-01
9.896478e-02
9.764915e-02
9.634257e-02
9.503890e-02
9.372307e-02
9.237128e-02
9.095415e-02
8.944145e-02
8.780674e-02
8.603158e-02
8.410925e-02
8.204647e-02
7.986205e-02
7.758290e-02
7.523950e-02
7.286153e-02
7.047390e-02
6.809414e-02
6.573204e-02
6.339050e-02
6.106658e-02
5.875234e-02
5.643546e-02
5.409980e-02
5.172647e-02
4.929578e-02
4.678968e-02
4.419394e-02
4.149978e-02
3.870549e-02
3.581781e-02
3.285280e-02
2.983537e-02
2.679687e-02
2.377102e-02
2.078915e-02
1.787500e-02
1.503992e-02
1.227949e-02
9.572190e-03
6.880291e-03
4.153702e-03
1.336204e-03
-1.627327e-03
-4.784567e-03
-8.171446e-03
-1.181005e-02
-1.570810e-02
-1.985971e-02
-2.424727e-02
-2.884424e-02
-3.361736e-02
-3.852800e-02
-4.353310e-02
-4.858689e-02
-5.364312e-02
-5.865775e-02
-6.359172e-02
-6.841210e-02
-7.309060e-02
-7.760056e-02
-8.191474e-02
-8.600496e-02
-8.984291e-02
-9.340092e-02
-9.665180e-02
-9.956841e-02
-1.021239e-01
-1.042941e-01
-1.060621e-01
-1.074229e-01
-1.083875e-01
-1.089839e-01
-1.092556e-01
-1.092586e-01
-1.090550e-01
-1.087071e-01
-1.082725e-01
-1.078004e-01
-1.073302e-01
-1.068908e-01
-1.065023e-01
-1.061778e-01
-1.059246e-01
-1.057445e-01
-1.056352e-01
-1.055919e-01
-1.056083e-01
-1.056768e-01
-1.057871e-01
-1.059251e-01
-1.060724e-01
-1.062072e-01
-1.063070e-01
-1.063511e-01
-1.063217e-01
-1.062041e-01
-1.059876e-01
-1.056666e-01
-1.052420e-01
-1.047226e-01
-1.041254e-01
-1.034750e-01
-1.028025e-01
-1.021434e-01
-1.015371e-01
-1.010250e-01
-1.006486e-01
-1.004461e-01
-1.004511e-01
-1.006901e-01
-1.011815e-01
-1.019358e-01
-1.029565e-01
-1.042415e-01
-1.057842e-01
-1.075747e-01
-1.096000e-01
-1.118419e-01
-1.142762e-01
-1.168718e-01
-1.195935e-01
-1.224046e-01
-1.252698e-01
-1.281574e-01
-1.310399e-01
-1.338919e-01
-1.366875e-01
-1.393981e-01
-1.419926e-01
-1.444382e-01
-1.467022e-01
-1.487571e-01
-1.505862e-01
-1.521870e-01
-1.535702e-01
-1.547566e-01
-1.557743e-01
-1.566554e-01
-1.574338e-01
-1.581434e-01
-1.588181e-01
-1.594897e-01
-1.601869e-01
-1.609326e-01
-1.617423e-01
-1.626219e-01
-1.635673e-01
-1.645636e-01
-1.655880e-01
-1.666127e-01
-1.676090e-01
-1.685513e-01
-1.694208e-01
-1.702065e-01
-1.709048e-01
-1.715171e-01
-1.720482e-01
-1.725052e-01
-1.728964e-01
-1.732312e-01
-1.735207e-01
-1.737783e-01
-1.740197e-01
-1.742636e-01
-1.745313e-01
-1.748463e-01
-1.752327e-01
-1.757125e-01
-1.763033e-01
-1.770142e-01
-1.778443e-01
-1.787833e-01
-1.798143e-01
-1.809165e-01
-1.820677e-01
-1.832451e-01
-1.844261e-01
-1.855900e-01
-1.867199e-01
-1.878056e-01
-1.888462e-01
-1.898509e-01
-1.908372e-01
-1.918283e-01
-1.928499e-01
-1.939275e-01
-1.950830e-01
-1.963325e-01
-1.976852e-01
-1.991448e-01
-2.007095e-01
-2.023736e-01
-2.041271e-01
-2.059547e-01
-2.078358e-01
-2.097445e-01
-2.116525e-01
-2.135312e-01
-2.153539e-01
-2.170972e-01
-2.187412e-01
-2.202699e-01
-2.216712e-01
-2.229371e-01
-2.240632e-01
-2.250494e-01
-2.259003e-01
-2.266285e-01
-2.272554e-01
-2.278107e-01
-2.283295e-01
-2.288489e-01
-2.294052e-01
-2.300311e-01
-2.307532e-01
-2.315901e-01
-2.325510e-01
-2.336367e-01
-2.348420e-01
-2.361596e-01
-2.375844e-01
-2.391153e-01
-2.407555e-01
-2.425121e-01
-2.443946e-01
-2.464141e-01
-2.485802e-01
-2.508965e-01
-2.533563e-01
-2.559399e-01
-2.586158e-01
-2.613442e-01
-2.640812e-01
-2.667821e-01
-2.694024e-01
-2.718984e-01
-2.742290e-01
-2.763569e-01
-2.782514e-01
-2.798907e-01
-2.812644e-01
-2.823748e-01
-2.832381e-01
-2.838835e-01
-2.843521e-01
-2.846922e-01
-2.849544e-01
-2.851868e-01
-2.854321e-01
-2.857261e-01
-2.860978e-01
-2.865693e-01
-2.871563e-01
-2.878696e-01
-2.887153e-01
-2.896965e-01
-2.908136e-01
-2.920655e-01
-2.934488e-01
-2.949580e-01
-2.965859e-01
-2.983246e-01
-3.001676e-01
-3.021123e-01
-3.041609e-01
-3.063200e-01
-3.085995e-01
-3.110102e-01
-3.135607e-01
-3.162551e-01
-3.190906e-01
-3.220565e-01
-3.251343e-01
-3.282989e-01
-3.315196e-01
-3.347636e-01
-3.379989e-01
-3.411977e-01
-3.443390e-01
-3.474100e-01
-3.504081e-01
-3.533413e-01
-3.562268e-01
-3.590891e-01
-3.619565e-01
-3.648561e-01
-3.678089e-01
-3.708268e-01
-3.739118e-01
-3.770569e-01
-3.802469e-01
-3.834603e-01
-3.866713e-01
-3.898512e-01
-3.929694e-01
-3.959945e-01
-3.988957e-01
-4.016439e-01
-4.042135e-01
-4.065835e-01
-4.087406e-01
-4.106808e-01
-4.124093e-01
-4.139397e-01
-4.152932e-01
-4.164975e-01
-4.175850e-01
-4.185903e-01
-4.195465e-01
-4.204829e-01
-4.214224e-01
-4.223813e-01
-4.233688e-01
-4.243875e-01
-4.254334e-01
-4.264960e-01
-4.275580e-01
-4.285979e-01
-4.295929e-01
-4.305240e-01
-4.313794e-01
-4.321556e-01
-4.328576e-01
-4.334972e-01
-4.340910e-01
-4.346579e-01
-4.352151e-01
-4.357766e-01
-4.363525e-01
-4.369499e-01
-4.375739e-01
-4.382288e-01
-4.389171e-01
-4.396383e-01
-4.403869e-01
-4.411523e-01
-4.419216e-01
-4.426827e-01
-4.434261e-01
-4.441457e-01
-4.448386e-01
-4.455037e-01
-4.461414e-01
-4.467542e-01
-4.473474e-01
-4.479295e-01
-4.485112e-01
-4.491043e-01
-4.497211e-01
-4.503724e-01
-4.510670e-01
-4.518109e-01
-4.526083e-01
-4.534617e-01
-4.543721e-01
-4.553381e-01
-4.563553e-01
-4.574163e-01
-4.585107e-01
-4.596265e-01
-4.607513e-01
-4.618730e-01
-4.629801e-01
-4.640613e-01
-4.651055e-01
-4.661033e-01
-4.670478e-01
-4.679370e-01
-4.687733e-01
-4.695639e-01
-4.703195e-01
-4.710532e-01
-4.717798e-01
-4.725141e-01
-4.732706e-01
-4.740631e-01
-4.749055e-01
-4.758108e-01
-4.767905e-01
-4.778543e-01
-4.790100e-01
-4.802641e-01
-4.816213e-01
-4.830852e-01
-4.846590e-01
-4.863457e-01
-4.881479e-01
-4.900670e-01
-4.921033e-01
-4.942553e-01
-4.965193e-01
-4.988888e-01
-5.013537e-01
-5.038988e-01
-5.065006e-01
-5.091266e-01
-5.117362e-01
-5.142846e-01
-5.167285e-01
-5.190314e-01
-5.211663e-01
-5.231172e-01
-5.248776e-01
-5.264493e-01
-5.278414e-01
-5.290690e-01
-5.301518e-01
-5.311133e-01
-5.319792e-01
-5.327769e-01
-5.335341e-01
-5.342784e-01
-5.350366e-01
-5.358330e-01
-5.366886e-01
-5.376190e-01
-5.386329e-01
-5.397322e-01
-5.409127e-01
-5.421667e-01
-5.434860e-01
-5.448644e-01
-5.462989e-01
-5.477899e-01
-5.493401e-01
-5.509540e-01
-5.526374e-01
-5.543976e-01
-5.562438e-01
-5.581849e-01
-5.602278e-01
-5.623748e-01
-5.646214e-01
-5.669551e-01
-5.693546e-01
-5.717893e-01
-5.742219e-01
-5.766107e-01
-5.789144e-01
-5.810974e-01
-5.831333e-01
-5.850069e-01
-5.867130e-01
-5.882538e-01
-5.896357e-01
-5.908647e-01
-5.919438e-01
-5.928703e-01
-5.936369e-01
-5.942327e-01
-5.946451e-01
-5.948621e-01
-5.948747e-01
-5.946781e-01
-5.942720e-01
-5.936608e-01
-5.928523e-01
-5.918567e-01
-5.906840e-01
-5.893445e-01
-5.878481e-01
-5.862058e-01
-5.844305e-01
-5.825378e-01
-5.805459e-01
-5.784743e-01
-5.763432e-01
-5.741720e-01
-5.719791e-01
-5.697813e-01
-5.675930e-01
-5.654248e-01
-5.632839e-01
-5.611734e-01
-5.590920e-01
-5.570334e-01
-5.549858e-01
-5.529325e-01
-5.508534e-01
-5.487283e-01
-5.465411e-01
-5.442834e-01
-5.419558e-01
-5.395692e-01
-5.371433e-01
-5.347043e-01
-5.322818e-01
-5.299058e-01
-5.276039e-01
-5.254005e-01
-5.233154e-01
-5.213637e-01
-5.195577e-01
-5.179081e-01
-5.164247e-01
-5.151158e-01
-5.139855e-01
-5.130314e-01
-5.122430e-01
-5.116032e-01
-5.110904e-01
-5.106799e-01
-5.103460e-01
-5.100628e-01
-5.098065e-01
-5.095555e-01
-5.092904e-01
-5.089945e-01
-5.086532e-01
-5.082551e-01
-5.077920e-01
-5.072586e-01
-5.066530e-01
-5.059758e-01
-5.052306e-01
-5.044243e-01
-5.035678e-01
-5.026752e-01
-5.017623e-01
-5.008460e-01
-4.999448e-01
-4.990802e-01
-4.982769e-01
-4.975634e-01
-4.969699e-01
-4.965266e-01
-4.962616e-01
-4.961997e-01
-4.963608e-01
-4.967600e-01
-4.974065e-01
-4.983031e-01
-4.994464e-01
-5.008263e-01
-5.024255e-01
-5.042189e-01
-5.061736e-01
-5.082486e-01
-5.103951e-01
-5.125581e-01
-5.146773e-01
-5.166889e-01
-5.185278e-01
-5.201309e-01
-5.214408e-01
-5.224097e-01
-5.230021e-01
-5.231951e-01
-5.229780e-01
-5.223503e-01
-5.213215e-01
-5.199103e-01
-5.181438e-01
-5.160558e-01
-5.136837e-01
-5.110661e-01
-5.082410e-01
-5.052453e-01
-5.021149e-01
-4.988852e-01
-4.955917e-01
-4.922693e-01
-4.889511e-01
-4.856671e-01
-4.824437e-01
-4.793048e-01
-4.762718e-01
-4.733633e-01
-4.705935e-01
-4.679716e-01
-4.655010e-01
-4.631801e-01
-4.610036e-01
-4.589649e-01
-4.570560e-01
-4.552680e-01
-4.535904e-01
-4.520112e-01
-4.505171e-01
-4.490924e-01
-4.477182e-01
-4.463714e-01
-4.450257e-01
-4.436529e-01
-4.422254e-01
-4.407182e-01
-4.391112e-01
-4.373903e-01
-4.355475e-01
-4.335801e-01
-4.314900e-01
-4.292822e-01
-4.269636e-01
-4.245424e-01
-4.220270e-01
-4.194255e-01
-4.167456e-01
-4.139930e-01
-4.111715e-01
-4.082820e-01
-4.053225e-01
-4.022871e-01
-3.991674e-01
-3.959548e-01
-3.926437e-01
-3.892324e-01
-3.857238e-01
-3.821235e-01
-3.784372e-01
-3.746688e-01
-3.708199e-01
-3.668914e-01
-3.628850e-01
-3.588031e-01
-3.546494e-01
-3.504282e-01
-3.461458e-01
-3.418124e-01
-3.374421e-01
-3.330523e-01
-3.286607e-01
-3.242823e-01
-3.199274e-01
-3.156019e-01
-3.113077e-01
-3.070431e-01
-3.028043e-01
-2.985877e-01
-2.943919e-01
-2.902192e-01
-2.860767e-01
-2.819768e-01
-2.779379e-01
-2.739822e-01
-2.701338e-01
-2.664179e-01
-2.628602e-01
-2.594863e-01
-2.563194e-01
-2.533777e-01
-2.506732e-01
-2.482107e-01
-2.459868e-01
-2.439906e-01
-2.422053e-01
-2.406084e-01
-2.391732e-01
-2.378698e-01
-2.366672e-01
-2.355341e-01
-2.344401e-01
-2.333562e-01
-2.322557e-01
-2.311143e-01
-2.299111e-01
-2.286288e-01
-2.272551e-01
-2.257825e-01
-2.242076e-01
-2.225311e-01
-2.207581e-01
-2.188988e-01
-2.169694e-01
-2.149905e-01
-2.129859e-01
-2.109786e-01
-2.089877e-01
-2.070267e-01
-2.051032e-01
-2.032193e-01
-2.013735e-01
-1.995614e-01
-1.977762e-01
-1.960094e-01
-1.942520e-01
-1.924949e-01
-1.907292e-01
-1.889448e-01
-1.871308e-01
-1.852762e-01
-1.833709e-01
-1.814053e-01
-1.793697e-01
-1.772530e-01
-1.750429e-01
-1.727260e-01
-1.702916e-01
-1.677344e-01
-1.650550e-01
-1.622593e-01
-1.593584e-01
-1.563691e-01
-1.533136e-01
-1.502188e-01
-1.471126e-01
-1.440220e-01
-1.409712e-01
-1.379799e-01
-1.350634e-01
-1.322312e-01
-1.294865e-01
-1.268259e-01
-1.242389e-01
-1.217092e-01
-1.192164e-01
-1.167362e-01
-1.142416e-01
-1.117036e-01
-1.090935e-01
-1.063843e-01
-1.035514e-01
-1.005743e-01
-9.743660e-02
-9.412708e-02
-9.064114e-02
-8.698146e-02
-8.315741e-02
-7.918316e-02
-7.507616e-02
-7.085688e-02
-6.654948e-02
-6.218167e-02
-5.778340e-02
-5.338487e-02
-4.901445e-02
-4.469729e-02
-4.045497e-02
-3.630571e-02
-3.226397e-02
-2.833947e-02
-2.453644e-02
-2.085395e-02
-1.728695e-02
-1.382699e-02
-1.046234e-02
-7.177956e-03
-3.956134e-03
-7.769932e-04
2.381261e-03
5.541875e-03
8.728830e-03
1.196633e-02
1.527804e-02
1.868510e-02
2.220351e-02
2.584239e-02
2.960421e-02
3.348630e-02
3.748280e-02
4.158600e-02
4.578702e-02
5.007581e-02
5.444121e-02
5.887115e-02
6.335299e-02
6.787393e-02
7.242148e-02
7.698399e-02
8.155083e-02
8.611177e-02
9.065564e-02
9.516873e-02
9.963332e-02
1.040270e-01
1.083238e-01
1.124965e-01
1.165191e-01
1.203687e-01
1.240261e-01
1.274759e-01
1.307065e-01
1.337094e-01
1.364798e-01
1.390169e-01
1.413262e-01
1.434188e-01
1.453111e-01
1.470217e-01
1.485698e-01
1.499742e-01
1.512539e-01
1.524297e-01
1.535251e-01
1.545666e-01
1.555828e-01
1.566061e-01
1.576726e-01
1.588218e-01
1.600946e-01
1.615303e-01
1.631646e-01
1.650295e-01
1.671525e-01
1.695571e-01
1.722600e-01
1.752694e-01
1.785834e-01
1.821911e-01
1.860750e-01
1.902130e-01
1.945792e-01
1.991443e-01
2.038750e-01
2.087360e-01
2.136909e-01
2.187023e-01
2.237314e-01
2.287382e-01
2.336818e-01
2.385227e-01
2.432255e-01
2.477590e-01
2.520971e-01
2.562177e-01
2.601036e-01
2.637440e-01
2.671356e-01
2.702836e-01
2.732015e-01
2.759093e-01
2.784312e-01
2.807950e-01
2.830297e-01
2.851644e-01
2.872267e-01
2.892415e-01
2.912319e-01
2.932183e-01
2.952200e-01
