EVENT_NAME: EMILIA_2ND_SHOCK
EVENT_ID: IT-2012-0011
EVENT_DATE_YYYYMMDD: 20120529
EVENT_TIME_HHMMSS: 070002
EVENT_LATITUDE_DEGREE: 44.8417
EVENT_LONGITUDE_DEGREE: 11.0657
EVENT_DEPTH_KM: 8.1
HYPOCENTER_REFERENCE: INGV-CNT_Seismic_Bulletin
MAGNITUDE_W: 6.0
MAGNITUDE_W_REFERENCE: RCMT-INGV
MAGNITUDE_L: 5.8
MAGNITUDE_L_REFERENCE: INGV-CNT_Seismic_Bulletin
FOCAL_MECHANISM: TF
NETWORK: IT
STATION_CODE: MDN
STATION_NAME: MODENA
STATION_LATITUDE_DEGREE: 44.646988
STATION_LONGITUDE_DEGREE: 10.889912
STATION_ELEVATION_M: 77
LOCATION: 
SENSOR_DEPTH_M: 0.0
VS30_M/S: 213
SITE_CLASSIFICATION_EC8: C
MORPHOLOGIC_CLASSIFICATION: 
EPICENTRAL_DISTANCE_KM: 25.7
EARTHQUAKE_BACKAZIMUTH_DEGREE: 32.7
DATE_TIME_FIRST_SAMPLE_YYYYMMDD_HHMMSS: 20120529_065953.000
DATE_TIME_FIRST_SAMPLE_PRECISION: seconds
SAMPLING_INTERVAL_S: 0.005000
NDATA: 26000
DURATION_S: 130.000
STREAM: HNE
UNITS: cm
INSTRUMENT: sensor = FBA-3 [Kinemetrics] | digitizer = Etna [Kinemetrics]
INSTRUMENT_ANALOG/DIGITAL: D
INSTRUMENTAL_FREQUENCY_HZ: 210.000
INSTRUMENTAL_DAMPING: 0.700000
FULL_SCALE_G: 1.0
N_BIT_DIGITAL_CONVERTER: 18
PGD_CM: -1.229954
TIME_PGD_S: 29.565000
BASELINE_CORRECTION: BASELINE REMOVED
FILTER_TYPE: BUTTERWORTH
FILTER_ORDER: 2
LOW_CUT_FREQUENCY_HZ: 0.050
HIGH_CUT_FREQUENCY_HZ: 35.000
LATE/NORMAL_TRIGGERED: NT
DATABASE_VERSION: DYNA 1.0
HEADER_FORMAT: DYNA 1.2
DATA_TYPE: DISPLACEMENT
PROCESSING: manual (Paolucci et al., 2011)
DATA_TIMESTAMP_YYYYMMDD_HHMMSS: 20141204_103511.587
DATA_LICENSE: CC-BY3_0-IT (http://creativecommons.org/licenses/by/3.0/deed.en)
DATA_CITATION: ESM working group (2015), European Strong-Motion database, version 0.1, Network Activity 3: Networking acceleration networks and SM data users. Project NERA (www.nera-eu.org)
DATA_CREATOR: ESM working group
ORIGINAL_DATA_MEDIATOR_CITATION: Ufficio Rischio Sismico e Vulcanico del Dipartimento della Protezione Civile (http://www.protezionecivile.gov.it/)
ORIGINAL_DATA_MEDIATOR: Rete Accelerometrica Nazionale - RAN Download (http://www.mot1.it/randownload/)
ORIGINAL_DATA_CREATOR_CITATION: Italian Strong Motion Network, Italian Civil Protection Department http://www.protezionecivile.gov.it
ORIGINAL_DATA_CREATOR: network: IT (Italian Strong Motion Network); owner: Dipartimento Della Protezione Civile
USER1: /home/dyna/processing-itaca/processing.py /var/www/processing/tmp/fpacor//IT.MDN..HNE.D.20120529.070003.X.ACC.ASC /var/www/processing/tmp/fpacor//IT.MDN..HNN.D.20120529.070003.X.ACC.ASC /var/www/processing/tmp/fpacor//IT.MDN..HNZ.D.20120529.070003.X.ACC.ASC --tmp /var/www/processing/tmp/fpacor/ --le 0.05 --he 35.000 --ln 0.05 --hn 35.000 --lz 0.05 --hz 35.000 --fo 2 --ca -10 --cz 30 --ta 5 --tz 5 --mf 1 --rf 0 --tr NT
USER2: 
USER3: 
USER4: 
USER5: 
[...]
4.146419e-01
4.153118e-01
4.159767e-01
4.165862e-01
4.170879e-01
4.174307e-01
4.175685e-01
4.174648e-01
4.170964e-01
4.164542e-01
4.155398e-01
4.143607e-01
4.129252e-01
4.112405e-01
4.093148e-01
4.071611e-01
4.048009e-01
4.022651e-01
3.995918e-01
3.968242e-01
3.940075e-01
3.911875e-01
3.884105e-01
3.857236e-01
3.831751e-01
3.808135e-01
3.786847e-01
3.768292e-01
3.752791e-01
3.740548e-01
3.731624e-01
3.725915e-01
3.723176e-01
3.723052e-01
3.725139e-01
3.729024e-01
3.734323e-01
3.740672e-01
3.747711e-01
3.755060e-01
3.762319e-01
3.769099e-01
3.775053e-01
3.779914e-01
3.783522e-01
3.785844e-01
3.786984e-01
3.787163e-01
3.786702e-01
3.785988e-01
3.785455e-01
3.785553e-01
3.786715e-01
3.789320e-01
3.793660e-01
3.799900e-01
3.808059e-01
3.818016e-01
3.829518e-01
3.842215e-01
3.855715e-01
3.869643e-01
3.883682e-01
3.897599e-01
3.911230e-01
3.924460e-01
3.937198e-01
3.949376e-01
3.960945e-01
3.971885e-01
3.982217e-01
3.992034e-01
4.001508e-01
4.010890e-01
4.020470e-01
4.030536e-01
4.041309e-01
4.052905e-01
4.065324e-01
4.078459e-01
4.092127e-01
4.106098e-01
4.120114e-01
4.133875e-01
4.147017e-01
4.159088e-01
4.169537e-01
4.177739e-01
4.183045e-01
4.184845e-01
4.182621e-01
4.175979e-01
4.164664e-01
4.148540e-01
4.127555e-01
4.101719e-01
4.071104e-01
4.035863e-01
3.996260e-01
3.952683e-01
3.905643e-01
3.855744e-01
3.803620e-01
3.749845e-01
3.694847e-01
3.638859e-01
3.581920e-01
3.523923e-01
3.464658e-01
3.403858e-01
3.341235e-01
3.276492e-01
3.209338e-01
3.139482e-01
3.066629e-01
2.990473e-01
2.910696e-01
2.826994e-01
2.739114e-01
2.646911e-01
2.550382e-01
2.449675e-01
2.345056e-01
2.236866e-01
2.125471e-01
2.011233e-01
1.894501e-01
1.775627e-01
1.654990e-01
1.533002e-01
1.410101e-01
1.286740e-01
1.163351e-01
1.040332e-01
9.180420e-02
7.968122e-02
6.769635e-02
5.588255e-02
4.427508e-02
3.291195e-02
2.183252e-02
1.107430e-02
6.686268e-04
-9.362390e-03
-1.900589e-02
-2.825560e-02
-3.710821e-02
-4.556053e-02
-5.360865e-02
-6.124947e-02
-6.848396e-02
-7.531969e-02
-8.177146e-02
-8.785997e-02
-9.360862e-02
-9.903954e-02
-1.041705e-01
-1.090136e-01
-1.135763e-01
-1.178619e-01
-1.218710e-01
-1.256028e-01
-1.290559e-01
-1.322302e-01
-1.351287e-01
-1.377564e-01
-1.401181e-01
-1.422157e-01
-1.440474e-01
-1.456074e-01
-1.468871e-01
-1.478743e-01
-1.485521e-01
-1.488990e-01
-1.488903e-01
-1.484994e-01
-1.476995e-01
-1.464663e-01
-1.447810e-01
-1.426342e-01
-1.400294e-01
-1.369865e-01
-1.335428e-01
-1.297537e-01
-1.256921e-01
-1.214481e-01
-1.171283e-01
-1.128541e-01
-1.087563e-01
-1.049689e-01
-1.016201e-01
-9.882444e-02
-9.667369e-02
-9.523131e-02
-9.452883e-02
-9.456555e-02
-9.531125e-02
-9.671096e-02
-9.869066e-02
-1.011628e-01
-1.040309e-01
-1.071923e-01
-1.105394e-01
-1.139609e-01
-1.173422e-01
-1.205666e-01
-1.235198e-01
-1.260950e-01
-1.281980e-01
-1.297524e-01
-1.307014e-01
-1.310086e-01
-1.306554e-01
-1.296394e-01
-1.279718e-01
-1.256755e-01
-1.227837e-01
-1.193404e-01
-1.154027e-01
-1.110436e-01
-1.063533e-01
-1.014363e-01
-9.640534e-02
-9.137469e-02
-8.645338e-02
-8.174034e-02
-7.732121e-02
-7.326611e-02
-6.962777e-02
-6.644049e-02
-6.372014e-02
-6.146491e-02
-5.965728e-02
-5.826780e-02
-5.726009e-02
-5.659565e-02
-5.623713e-02
-5.614960e-02
-5.630124e-02
-5.666491e-02
-5.722043e-02
-5.795585e-02
-5.886680e-02
-5.995461e-02
-6.122478e-02
-6.268694e-02
-6.435613e-02
-6.625402e-02
-6.840854e-02
-7.085200e-02
-7.361789e-02
-7.673791e-02
-8.023966e-02
-8.414509e-02
-8.846925e-02
-9.321922e-02
-9.839373e-02
-1.039840e-01
-1.099749e-01
-1.163452e-01
-1.230669e-01
-1.301037e-01
-1.374112e-01
-1.449367e-01
-1.526211e-01
-1.604018e-01
-1.682163e-01
-1.760065e-01
-1.837234e-01
-1.913323e-01
-1.988149e-01
-2.061701e-01
-2.134105e-01
-2.205577e-01
-2.276365e-01
-2.346701e-01
-2.416773e-01
-2.486708e-01
-2.556545e-01
-2.626232e-01
-2.695618e-01
-2.764472e-01
-2.832493e-01
-2.899331e-01
-2.964588e-01
-3.027826e-01
-3.088578e-01
-3.146383e-01
-3.200830e-01
-3.251611e-01
-3.298558e-01
-3.341675e-01
-3.381126e-01
-3.417209e-01
-3.450307e-01
-3.480855e-01
-3.509284e-01
-3.535978e-01
-3.561236e-01
-3.585260e-01
-3.608173e-01
-3.630059e-01
-3.651012e-01
-3.671180e-01
-3.690770e-01
-3.710026e-01
-3.729205e-01
-3.748570e-01
-3.768374e-01
-3.788843e-01
-3.810144e-01
-3.832391e-01
-3.855663e-01
-3.880016e-01
-3.905520e-01
-3.932263e-01
-3.960358e-01
-3.989940e-01
-4.021176e-01
-4.054285e-01
-4.089536e-01
-4.127244e-01
-4.167764e-01
-4.211468e-01
-4.258751e-01
-4.310034e-01
-4.365771e-01
-4.426420e-01
-4.492421e-01
-4.564179e-01
-4.642045e-01
-4.726289e-01
-4.817056e-01
-4.914328e-01
-5.017900e-01
-5.127380e-01
-5.242192e-01
-5.361597e-01
-5.484708e-01
-5.610528e-01
-5.737978e-01
-5.865933e-01
-5.993254e-01
-6.118825e-01
-6.241588e-01
-6.360578e-01
-6.474955e-01
-6.584015e-01
-6.687210e-01
-6.784152e-01
-6.874613e-01
-6.958529e-01
-7.035995e-01
-7.107247e-01
-7.172646e-01
-7.232667e-01
-7.287891e-01
-7.338995e-01
-7.386693e-01
-7.431691e-01
-7.474623e-01
-7.516016e-01
-7.556250e-01
-7.595553e-01
-7.634027e-01
-7.671693e-01
-7.708534e-01
-7.744529e-01
-7.779638e-01
-7.813801e-01
-7.846932e-01
-7.878937e-01
-7.909701e-01
-7.939090e-01
-7.966983e-01
-7.993327e-01
-8.018160e-01
-8.041613e-01
-8.063917e-01
-8.085384e-01
-8.106351e-01
-8.127139e-01
-8.148044e-01
-8.169350e-01
-8.191335e-01
-8.214264e-01
-8.238390e-01
-8.263963e-01
-8.291229e-01
-8.320423e-01
-8.351751e-01
-8.385385e-01
-8.421436e-01
-8.459945e-01
-8.500880e-01
-8.544148e-01
-8.589591e-01
-8.637005e-01
-8.686160e-01
-8.736834e-01
-8.788861e-01
-8.842178e-01
-8.896855e-01
-8.953101e-01
-9.011234e-01
-9.071636e-01
-9.134674e-01
-9.200617e-01
-9.269569e-01
-9.341450e-01
-9.416008e-01
-9.492845e-01
-9.571459e-01
-9.651294e-01
-9.731787e-01
-9.812395e-01
-9.892604e-01
-9.971904e-01
-1.004977e+00
-1.012562e+00
-1.019882e+00
-1.026865e+00
-1.033442e+00
-1.039545e+00
-1.045118e+00
-1.050109e+00
-1.054481e+00
-1.058204e+00
-1.061253e+00
-1.063612e+00
-1.065272e+00
-1.066236e+00
-1.066518e+00
-1.066143e+00
-1.065151e+00
-1.063589e+00
-1.061507e+00
-1.058958e+00
-1.055989e+00
-1.052642e+00
-1.048958e+00
-1.044968e+00
-1.040694e+00
-1.036149e+00
-1.031334e+00
-1.026237e+00
-1.020838e+00
-1.015110e+00
-1.009027e+00
-1.002561e+00
-9.956847e-01
-9.883800e-01
-9.806355e-01
-9.724505e-01
-9.638365e-01
-9.548177e-01
-9.454314e-01
-9.357270e-01
-9.257634e-01
-9.156049e-01
-9.053188e-01
-8.949731e-01
-8.846353e-01
-8.743708e-01
-8.642427e-01
-8.543116e-01
-8.446325e-01
-8.352514e-01
-8.262030e-01
-8.175119e-01
-8.091949e-01
-8.012623e-01
-7.937192e-01
-7.865671e-01
-7.798059e-01
-7.734348e-01
-7.674547e-01
-7.618712e-01
-7.566975e-01
-7.519543e-01
-7.476678e-01
-7.438636e-01
-7.405636e-01
-7.377846e-01
-7.355379e-01
-7.338294e-01
-7.326605e-01
-7.320292e-01
-7.319287e-01
-7.323472e-01
-7.332695e-01
-7.346804e-01
-7.365646e-01
-7.389067e-01
-7.416881e-01
-7.448859e-01
-7.484713e-01
-7.524087e-01
-7.566527e-01
-7.611456e-01
-7.658178e-01
-7.705896e-01
-7.753738e-01
-7.800815e-01
-7.846285e-01
-7.889405e-01
-7.929603e-01
-7.966539e-01
-8.000130e-01
-8.030521e-01
-8.058041e-01
-8.083145e-01
-8.106367e-01
-8.128257e-01
-8.149331e-01
-8.170062e-01
-8.190905e-01
-8.212320e-01
-8.234764e-01
-8.258665e-01
-8.284400e-01
-8.312286e-01
-8.342585e-01
-8.375507e-01
-8.411208e-01
-8.449780e-01
-8.491244e-01
-8.535538e-01
-8.582499e-01
-8.631837e-01
-8.683142e-01
-8.735909e-01
-8.789589e-01
-8.843624e-01
-8.897476e-01
-8.950671e-01
-9.002847e-01
-9.053783e-01
-9.103387e-01
-9.151687e-01
-9.198824e-01
-9.245015e-01
-9.290495e-01
-9.335484e-01
-9.380153e-01
-9.424629e-01
-9.469002e-01
-9.513355e-01
-9.557773e-01
-9.602351e-01
-9.647189e-01
-9.692402e-01
-9.738109e-01
-9.784442e-01
-9.831531e-01
-9.879500e-01
-9.928450e-01
-9.978452e-01
-1.002953e+00
-1.008162e+00
-1.013455e+00
-1.018804e+00
-1.024172e+00
-1.029517e+00
-1.034794e+00
-1.039961e+00
-1.044980e+00
-1.049820e+00
-1.054456e+00
-1.058864e+00
-1.063029e+00
-1.066939e+00
-1.070580e+00
-1.073942e+00
-1.077012e+00
-1.079782e+00
-1.082242e+00
-1.084384e+00
-1.086199e+00
-1.087677e+00
-1.088807e+00
-1.089572e+00
-1.089959e+00
-1.089957e+00
-1.089565e+00
-1.088790e+00
-1.087649e+00
-1.086171e+00
-1.084398e+00
-1.082380e+00
-1.080181e+00
-1.077867e+00
-1.075504e+00
-1.073152e+00
-1.070863e+00
-1.068677e+00
-1.066620e+00
-1.064707e+00
-1.062936e+00
-1.061294e+00
-1.059752e+00
-1.058271e+00
-1.056807e+00
-1.055310e+00
-1.053729e+00
-1.052020e+00
-1.050149e+00
-1.048095e+00
-1.045850e+00
-1.043422e+00
-1.040832e+00
-1.038110e+00
-1.035291e+00
-1.032414e+00
-1.029517e+00
-1.026635e+00
-1.023805e+00
-1.021057e+00
-1.018422e+00
-1.015932e+00
-1.013618e+00
-1.011511e+00
-1.009641e+00
-1.008038e+00
-1.006722e+00
-1.005710e+00
-1.005010e+00
-1.004622e+00
-1.004537e+00
-1.004743e+00
-1.005221e+00
-1.005948e+00
-1.006901e+00
-1.008056e+00
-1.009391e+00
-1.010886e+00
-1.012519e+00
-1.014272e+00
-1.016129e+00
-1.018074e+00
-1.020096e+00
-1.022187e+00
-1.024337e+00
-1.026539e+00
-1.028784e+00
-1.031061e+00
-1.033358e+00
-1.035657e+00
-1.037940e+00
-1.040191e+00
-1.042398e+00
-1.044545e+00
-1.046623e+00
-1.048626e+00
-1.050554e+00
-1.052416e+00
-1.054228e+00
-1.056012e+00
-1.057790e+00
-1.059587e+00
-1.061419e+00
-1.063301e+00
-1.065242e+00
-1.067243e+00
-1.069302e+00
-1.071415e+00
-1.073582e+00
-1.075800e+00
-1.078064e+00
-1.080364e+00
-1.082682e+00
-1.084992e+00
-1.087259e+00
-1.089448e+00
-1.091520e+00
-1.093442e+00
-1.095183e+00
-1.096721e+00
-1.098044e+00
-1.099148e+00
-1.100040e+00
-1.100731e+00
-1.101231e+00
-1.101556e+00
-1.101720e+00
-1.101740e+00
-1.101641e+00
-1.101451e+00
-1.101204e+00
-1.100934e+00
-1.100682e+00
-1.100490e+00
-1.100404e+00
-1.100463e+00
-1.100707e+00
-1.101174e+00
-1.101898e+00
-1.102907e+00
-1.104219e+00
-1.105837e+00
-1.107751e+00
-1.109943e+00
-1.112377e+00
-1.115007e+00
-1.117770e+00
-1.120596e+00
-1.123410e+00
-1.126135e+00
-1.128703e+00
-1.131046e+00
-1.133104e+00
-1.134820e+00
-1.136140e+00
-1.137019e+00
-1.137420e+00
-1.137312e+00
-1.136677e+00
-1.135500e+00
-1.133775e+00
-1.131502e+00
-1.128684e+00
-1.125326e+00
-1.121436e+00
-1.117030e+00
-1.112130e+00
-1.106770e+00
-1.100993e+00
-1.094860e+00
-1.088443e+00
-1.081818e+00
-1.075064e+00
-1.068254e+00
-1.061454e+00
-1.054719e+00
-1.048088e+00
-1.041585e+00
-1.035222e+00
-1.028999e+00
-1.022910e+00
-1.016939e+00
-1.011066e+00
-1.005264e+00
-9.995043e-01
-9.937556e-01
-9.879901e-01
-9.821831e-01
-9.763159e-01
-9.703771e-01
-9.643607e-01
-9.582627e-01
-9.520795e-01
-9.458093e-01
-9.394539e-01
-9.330189e-01
-9.265136e-01
-9.199519e-01
-9.133559e-01
-9.067602e-01
-9.002126e-01
-8.937700e-01
-8.874927e-01
-8.814397e-01
-8.756657e-01
-8.702200e-01
-8.651464e-01
-8.604835e-01
-8.562650e-01
-8.525188e-01
-8.492651e-01
-8.465146e-01
-8.442687e-01
-8.425219e-01
-8.412639e-01
-8.404826e-01
-8.401665e-01
-8.403056e-01
-8.408888e-01
-8.419018e-01
-8.433256e-01
-8.451374e-01
-8.473114e-01
-8.498204e-01
-8.526363e-01
-8.557315e-01
-8.590795e-01
-8.626546e-01
-8.664328e-01
-8.703931e-01
-8.745198e-01
-8.788016e-01
-8.832305e-01
-8.878016e-01
-8.925134e-01
-8.973690e-01
-9.023757e-01
-9.075447e-01
-9.128883e-01
-9.184152e-01
-9.241275e-01
-9.300189e-01
-9.360754e-01
-9.422763e-01
-9.485959e-01
-9.550061e-01
-9.614788e-01
-9.679873e-01
-9.745069e-01
-9.810136e-01
-9.874824e-01
-9.938871e-01
-1.000200e+00
-1.006391e+00
-1.012431e+00
-1.018288e+00
-1.023930e+00
-1.029328e+00
-1.034457e+00
-1.039299e+00
-1.043842e+00
-1.048083e+00
-1.052031e+00
-1.055701e+00
-1.059120e+00
-1.062319e+00
-1.065340e+00
-1.068230e+00
-1.071049e+00
-1.073866e+00
-1.076753e+00
-1.079782e+00
-1.083018e+00
-1.086516e+00
-1.090319e+00
-1.094446e+00
-1.098900e+00
-1.103663e+00
-1.108705e+00
-1.113987e+00
-1.119465e+00
-1.125090e+00
-1.130811e+00
-1.136577e+00
-1.142335e+00
-1.148036e+00
-1.153631e+00
-1.159073e+00
-1.164321e+00
-1.169335e+00
-1.174083e+00
-1.178542e+00
-1.182697e+00
-1.186542e+00
-1.190078e+00
-1.193318e+00
-1.196283e+00
-1.199005e+00
-1.201524e+00
-1.203879e+00
-1.206114e+00
-1.208264e+00
-1.210358e+00
-1.212417e+00
-1.214451e+00
-1.216459e+00
-1.218434e+00
-1.220354e+00
-1.222192e+00
-1.223917e+00
-1.225494e+00
-1.226890e+00
-1.228068e+00
-1.228994e+00
-1.229632e+00
-1.229954e+00
-1.229933e+00
-1.229547e+00
-1.228775e+00
-1.227594e+00
-1.225978e+00
-1.223895e+00
-1.221307e+00
-1.218172e+00
-1.214450e+00
-1.210104e+00
-1.205109e+00
-1.199449e+00
-1.193124e+00
-1.186146e+00
-1.178536e+00
-1.170320e+00
-1.161529e+00
-1.152192e+00
-1.142339e+00
-1.131996e+00
-1.121187e+00
-1.109932e+00
-1.098251e+00
-1.086161e+00
-1.073686e+00
-1.060849e+00
-1.047682e+00
-1.034221e+00
-1.020509e+00
-1.006600e+00
-9.925543e-01
-9.784392e-01
-9.643264e-01
-9.502860e-01
-9.363832e-01
-9.226741e-01
-9.092048e-01
-8.960090e-01
-8.831070e-01
-8.705057e-01
-8.582007e-01
-8.461797e-01
-8.344248e-01
-8.229152e-01
-8.116292e-01
-8.005464e-01
-7.896488e-01
-7.789230e-01
-7.683617e-01
-7.579645e-01
-7.477385e-01
-7.376972e-01
-7.278585e-01
-7.182443e-01
-7.088804e-01
-6.997979e-01
-6.910328e-01
-6.826235e-01
-6.746094e-01
-6.670302e-01
-6.599260e-01
-6.533369e-01
-6.473009e-01
-6.418529e-01
-6.370235e-01
-6.328362e-01
-6.293048e-01
-6.264310e-01
-6.242033e-01
-6.225963e-01
-6.215694e-01
-6.210674e-01
-6.210210e-01
-6.213519e-01
-6.219762e-01
-6.228093e-01
-6.237695e-01
-6.247811e-01
-6.257765e-01
-6.266971e-01
-6.274946e-01
-6.281307e-01
-6.285756e-01
-6.288064e-01
-6.288058e-01
-6.285626e-01
-6.280710e-01
-6.273305e-01
-6.263447e-01
-6.251208e-01
-6.236693e-01
-6.220032e-01
-6.201370e-01
-6.180879e-01
-6.158774e-01
-6.135324e-01
-6.110850e-01
-6.085698e-01
-6.060205e-01
-6.034674e-01
-6.009348e-01
-5.984403e-01
-5.959929e-01
-5.935920e-01
-5.912262e-01
-5.888745e-01
-5.865077e-01
-5.840939e-01
-5.816029e-01
-5.790095e-01
-5.762953e-01
-5.734476e-01
-5.704595e-01
-5.673294e-01
-5.640616e-01
-5.606663e-01
-5.571586e-01
-5.535564e-01
-5.498789e-01
-5.461454e-01
-5.423738e-01
-5.385797e-01
-5.347752e-01
-5.309679e-01
-5.271600e-01
-5.233485e-01
-5.195265e-01
-5.156858e-01
-5.118213e-01
-5.079354e-01
-5.040388e-01
-5.001499e-01
-4.962924e-01
-4.924936e-01
-4.887821e-01
-4.851857e-01
-4.817284e-01
-4.784296e-01
-4.753059e-01
-4.723726e-01
-4.696454e-01
-4.671400e-01
-4.648707e-01
-4.628479e-01
-4.610767e-01
-4.595565e-01
-4.582820e-01
-4.572440e-01
-4.564304e-01
-4.558254e-01
-4.554080e-01
-4.551529e-01
-4.550318e-01
-4.550148e-01
-4.550728e-01
-4.551791e-01
-4.553115e-01
-4.554521e-01
-4.555888e-01
-4.557161e-01
-4.558358e-01
-4.559552e-01
-4.560854e-01
-4.562383e-01
-4.564255e-01
-4.566570e-01
-4.569399e-01
-4.572758e-01
-4.576612e-01
-4.580887e-01
-4.585500e-01
-4.590376e-01
-4.595444e-01
-4.600613e-01
-4.605727e-01
-4.610540e-01
-4.614721e-01
-4.617875e-01
-4.619564e-01
-4.619313e-01
-4.616625e-01
-4.610989e-01
-4.601896e-01
-4.588842e-01
-4.571359e-01
-4.549028e-01
-4.521500e-01
-4.488500e-01
-4.449845e-01
-4.405469e-01
-4.355445e-01
-4.299994e-01
-4.239488e-01
-4.174452e-01
-4.105560e-01
-4.033624e-01
-3.959573e-01
-3.884397e-01
-3.809110e-01
-3.734729e-01
-3.662251e-01
-3.592614e-01
-3.526662e-01
-3.465145e-01
-3.408710e-01
-3.357885e-01
-3.313058e-01
-3.274439e-01
-3.242044e-01
-3.215699e-01
-3.195068e-01
-3.179683e-01
-3.168978e-01
-3.162307e-01
-3.158968e-01
-3.158220e-01
-3.159315e-01
-3.161507e-01
-3.164078e-01
-3.166367e-01
-3.167807e-01
-3.167944e-01
-3.166434e-01
-3.163036e-01
-3.157600e-01
-3.150055e-01
-3.140404e-01
-3.128727e-01
-3.115175e-01
-3.099946e-01
-3.083270e-01
-3.065399e-01
-3.046616e-01
-3.027245e-01
-3.007657e-01
-2.988272e-01
-2.969554e-01
-2.952004e-01
-2.936127e-01
-2.922387e-01
-2.911160e-01
-2.902717e-01
-2.897235e-01
-2.894799e-01
-2.895424e-01
-2.899059e-01
-2.905593e-01
-2.914837e-01
-2.926536e-01
-2.940411e-01
-2.956185e-01
-2.973589e-01
-2.992386e-01
-3.012351e-01
-3.033243e-01
-3.054775e-01
-3.076622e-01
-3.098438e-01
-3.119868e-01
-3.140548e-01
-3.160135e-01
-3.178329e-01
-3.194903e-01
-3.209711e-01
-3.222675e-01
-3.233780e-01
-3.243071e-01
-3.250643e-01
-3.256607e-01
-3.261064e-01
-3.264083e-01
-3.265677e-01
-3.265785e-01
-3.264275e-01
-3.260957e-01
-3.255612e-01
-3.248024e-01
-3.238008e-01
-3.225414e-01
-3.210127e-01
-3.192068e-01
-3.171183e-01
-3.147450e-01
-3.120895e-01
-3.091609e-01
-3.059736e-01
-3.025473e-01
-2.989073e-01
-2.950801e-01
-2.910872e-01
-2.869452e-01
-2.826687e-01
-2.782735e-01
-2.737777e-01
-2.692038e-01
-2.645796e-01
-2.599365e-01
-2.553091e-01
-2.507356e-01
-2.462564e-01
-2.419087e-01
-2.377223e-01
-2.337196e-01
-2.299148e-01
-2.263126e-01
-2.229099e-01
-2.196967e-01
-2.166583e-01
-2.137764e-01
-2.110309e-01
-2.084028e-01
-2.058766e-01
-2.034431e-01
-2.010988e-01
-1.988437e-01
-1.966779e-01
-1.945988e-01
-1.925982e-01
-1.906615e-01
-1.887676e-01
-1.868876e-01
-1.849833e-01
-1.830092e-01
-1.809172e-01
-1.786618e-01
-1.762005e-01
-1.734937e-01
-1.705055e-01
-1.672057e-01
-1.635737e-01
-1.596004e-01
-1.552876e-01
-1.506467e-01
-1.456987e-01
-1.404724e-01
-1.350037e-01
-1.293349e-01
-1.235107e-01
-1.175751e-01
-1.115688e-01
-1.055283e-01
-9.948736e-02
-9.347732e-02
-8.752826e-02
-8.166854e-02
-7.592319e-02
-7.031122e-02
-6.484397e-02
-5.952556e-02
-5.435431e-02
-4.932387e-02
-4.442289e-02
-3.963341e-02
-3.493120e-02
-3.028763e-02
-2.567047e-02
-2.104399e-02
-1.637132e-02
-1.161907e-02
-6.760562e-03
-1.775397e-03
3.351285e-03
8.627062e-03
1.405076e-02
1.961369e-02
2.530193e-02
3.109764e-02
3.697930e-02
4.292227e-02
4.889868e-02
