EVENT_NAME: EMILIA_2ND_SHOCK
EVENT_ID: IT-2012-0011
EVENT_DATE_YYYYMMDD: 20120529
EVENT_TIME_HHMMSS: 070002
EVENT_LATITUDE_DEGREE: 44.8417
EVENT_LONGITUDE_DEGREE: 11.0657
EVENT_DEPTH_KM: 8.1
HYPOCENTER_REFERENCE: INGV-CNT_Seismic_Bulletin
MAGNITUDE_W: 6.0
MAGNITUDE_W_REFERENCE: RCMT-INGV
MAGNITUDE_L: 5.8
MAGNITUDE_L_REFERENCE: INGV-CNT_Seismic_Bulletin
FOCAL_MECHANISM: TF
NETWORK: IT
STATION_CODE: MDN
STATION_NAME: MODENA
STATION_LATITUDE_DEGREE: 44.646988
STATION_LONGITUDE_DEGREE: 10.889912
STATION_ELEVATION_M: 77
LOCATION: 
SENSOR_DEPTH_M: 0.0
VS30_M/S: 213
SITE_CLASSIFICATION_EC8: C
MORPHOLOGIC_CLASSIFICATION: 
EPICENTRAL_DISTANCE_KM: 25.7
EARTHQUAKE_BACKAZIMUTH_DEGREE: 32.7
DATE_TIME_FIRST_SAMPLE_YYYYMMDD_HHMMSS: 20120529_065953.000
DATE_TIME_FIRST_SAMPLE_PRECISION: seconds
SAMPLING_INTERVAL_S: 0.005000
NDATA: 26000
DURATION_S: 130.000
STREAM: HNZ
UNITS: cm/s^2
INSTRUMENT: sensor = FBA-3 [Kinemetrics] | digitizer = Etna [Kinemetrics]
INSTRUMENT_ANALOG/DIGITAL: D
INSTRUMENTAL_FREQUENCY_HZ: 198.000
INSTRUMENTAL_DAMPING: 0.700000
FULL_SCALE_G: 1.0
N_BIT_DIGITAL_CONVERTER: 18
PGA_CM/S^2: 35.143514
TIME_PGA_S: 21.365000
BASELINE_CORRECTION: BASELINE REMOVED
FILTER_TYPE: BUTTERWORTH
FILTER_ORDER: 2
LOW_CUT_FREQUENCY_HZ: 0.050
HIGH_CUT_FREQUENCY_HZ: 35.000
LATE/NORMAL_TRIGGERED: NT
DATABASE_VERSION: DYNA 1.0
HEADER_FORMAT: DYNA 1.2
DATA_TYPE: ACCELERATION
PROCESSING: manual (Paolucci et al., 2011)
DATA_TIMESTAMP_YYYYMMDD_HHMMSS: 20141204_103511.587
DATA_LICENSE: CC-BY3_0-IT (http://creativecommons.org/licenses/by/3.0/deed.en)
DATA_CITATION: ESM working group (2015), European Strong-Motion database, version 0.1, Network Activity 3: Networking acceleration networks and SM data users. Project NERA (www.nera-eu.org)
DATA_CREATOR: ESM working group
ORIGINAL_DATA_MEDIATOR_CITATION: Ufficio Rischio Sismico e Vulcanico del Dipartimento della Protezione Civile (http://www.protezionecivile.gov.it/)
ORIGINAL_DATA_MEDIATOR: Rete Accelerometrica Nazionale - RAN Download (http://www.mot1.it/randownload/)
ORIGINAL_DATA_CREATOR_CITATION: Italian Strong Motion Network, Italian Civil Protection Department http://www.protezionecivile.gov.it
ORIGINAL_DATA_CREATOR: network: IT (Italian Strong Motion Network); owner: Dipartimento Della Protezione Civile
USER1: /home/dyna/processing-itaca/processing.py /var/www/processing/tmp/fpacor//IT.MDN..HNE.D.20120529.070003.X.ACC.ASC /var/www/processing/tmp/fpacor//IT.MDN..HNN.D.20120529.070003.X.ACC.ASC /var/www/processing/tmp/fpacor//IT.MDN..HNZ.D.20120529.070003.X.ACC.ASC --tmp /var/www/processing/tmp/fpacor/ --le 0.05 --he 35.000 --ln 0.05 --hn 35.000 --lz 0.05 --hz 35.000 --fo 2 --ca -10 --cz 30 --ta 5 --tz 5 --mf 1 --rf 0 --tr NT
USER2: 
USER3: 
USER4: 
USER5: 
[...]
0.026856
0.022119
0.018355
0.012073
0.000999
-0.009658
-0.016108
-0.022158
-0.028982
-0.029286
-0.019925
-0.008676
-0.000862
0.007856
0.018887
0.024745
0.021846
0.016942
0.015337
0.013782
0.010537
0.011090
0.017292
0.021733
0.019441
0.014716
0.010838
0.004092
-0.006318
-0.013826
-0.016071
-0.019283
-0.025851
-0.029760
-0.028482
-0.027589
-0.028866
-0.024764
-0.011753
0.001874
0.009432
0.014869
0.021372
0.023867
0.019653
0.014426
0.011313
0.005665
-0.003349
-0.007945
-0.004350
0.001127
0.004088
0.008551
0.015302
0.016327
0.008333
-0.000141
-0.002480
-0.004024
-0.010301
-0.015979
-0.015128
-0.011870
-0.011842
-0.013153
-0.013459
-0.015860
-0.019989
-0.017895
-0.006725
0.004815
0.009529
0.011450
0.015964
0.019636
0.018017
0.014735
0.013414
0.009961
0.001641
-0.006395
-0.010313
-0.012942
-0.014812
-0.010651
-0.000301
0.007565
0.007986
0.005549
0.003154
-0.003427
-0.014170
-0.020282
-0.017702
-0.012861
-0.009752
-0.004390
0.003432
0.005932
-0.000127
-0.008070
-0.013617
-0.021977
-0.036943
-0.053040
-0.065559
-0.079481
-0.101057
-0.129543
-0.163918
-0.207497
-0.259923
-0.315063
-0.371750
-0.435133
-0.500906
-0.549485
-0.564004
-0.544509
-0.498137
-0.425933
-0.326174
-0.203303
-0.070682
0.045998
0.106847
0.075901
-0.048711
-0.230910
-0.427525
-0.613822
-0.776530
-0.897893
-0.958268
-0.946572
-0.860784
-0.708827
-0.523142
-0.371344
-0.338190
-0.485537
-0.813675
-1.239576
-1.611270
-1.770034
-1.626349
-1.191049
-0.546590
0.197908
0.928645
1.537878
1.944084
2.106601
2.020240
1.711318
1.250759
0.755150
0.348209
0.106793
0.033911
0.069433
0.122757
0.110077
-0.021513
-0.296552
-0.724023
-1.285583
-1.903590
-2.440047
-2.750413
-2.747944
-2.424755
-1.829287
-1.033717
-0.112337
0.863486
1.813740
2.637967
3.229848
3.513513
3.459411
3.064576
2.339051
1.332838
0.176143
-0.920316
-1.719895
-2.040665
-1.824813
-1.162342
-0.248415
0.694815
1.465614
1.888461
1.840734
1.322583
0.494005
-0.384293
-1.062084
-1.380286
-1.295721
-0.869347
-0.233906
0.444912
0.996733
1.275882
1.220773
0.913473
0.555691
0.348477
0.381457
0.624337
0.985792
1.352827
1.601666
1.627346
1.390582
0.937010
0.376401
-0.161454
-0.585554
-0.890700
-1.140445
-1.389077
-1.627881
-1.806454
-1.874044
-1.780376
-1.463085
-0.872186
-0.017050
1.007917
2.027617
2.819356
3.187279
3.051999
2.484111
1.655731
0.767573
0.007635
-0.477002
-0.630151
-0.524925
-0.332941
-0.232978
-0.321293
-0.572690
-0.868637
-1.078338
-1.136007
-1.050003
-0.854422
-0.579627
-0.270078
0.003767
0.177016
0.232765
0.213579
0.200147
0.270003
0.444591
0.651443
0.745798
0.596184
0.172305
-0.430496
-1.036396
-1.465253
-1.600141
-1.415397
-0.955588
-0.304644
0.404790
0.970692
1.179837
0.945336
0.388182
-0.240636
-0.726961
-0.991216
-1.060416
-0.991820
-0.830678
-0.616285
-0.408068
-0.281861
-0.257496
-0.207911
0.116019
0.896258
2.045763
3.197148
3.906569
3.905668
3.227186
2.154542
1.046420
0.136572
-0.564102
-1.191804
-1.861471
-2.574304
-3.259182
-3.844486
-4.269048
-4.462266
-4.351871
-3.895012
-3.098270
-2.015570
-0.732235
0.653306
2.029486
3.242536
4.079276
4.320156
3.845773
2.709640
1.124111
-0.614354
-2.209388
-3.430245
-4.148622
-4.346813
-4.106787
-3.581027
-2.935108
-2.274539
-1.604307
-0.863258
-0.016621
0.867463
1.627496
2.104195
2.244652
2.124610
1.874818
1.598027
1.360814
1.229504
1.255767
1.407583
1.555178
1.568883
1.424586
1.195671
0.966744
0.780306
0.638509
0.515833
0.369108
0.160208
-0.108086
-0.371500
-0.529251
-0.509601
-0.339836
-0.170823
-0.210952
-0.586474
-1.232201
-1.909959
-2.338731
-2.336341
-1.893331
-1.154989
-0.329003
0.419236
1.011218
1.433458
1.711769
1.913534
2.127191
2.384421
2.597945
2.603399
2.280271
1.646537
0.855835
0.110909
-0.431028
-0.689927
-0.637134
-0.282298
0.295830
0.931835
1.434410
1.694296
1.727874
1.603363
1.339649
0.903628
0.300448
-0.369810
-0.966725
-1.415690
-1.753203
-2.067073
-2.389230
-2.645393
-2.714856
-2.545394
-2.211781
-1.864513
-1.624455
-1.518175
-1.487742
-1.437809
-1.278060
-0.949017
-0.430545
0.260935
1.069663
1.892074
2.591823
3.049537
3.211678
3.106398
2.829915
2.506672
2.222494
1.968155
1.651578
1.182399
0.556827
-0.133564
-0.769215
-1.275736
-1.639293
-1.867324
-1.952087
-1.883211
-1.697613
-1.506116
-1.442690
-1.559660
-1.765725
-1.873470
-1.715803
-1.233068
-0.480164
0.418367
1.312430
2.049229
2.491144
2.548572
2.228086
1.666282
1.097050
0.735068
0.646127
0.711288
0.717878
0.505244
0.062907
-0.470826
-0.898610
-1.087898
-1.049506
-0.916797
-0.849346
-0.935261
-1.146202
-1.360729
-1.444520
-1.333223
-1.038839
-0.573028
0.108603
1.049592
2.176213
3.263164
4.029725
4.275548
3.958409
3.186619
2.136236
0.943542
-0.334990
-1.661053
-2.933905
-3.982797
-4.626073
-4.736782
-4.285083
-3.354251
-2.120368
-0.801350
0.387398
1.256766
1.679811
1.644482
1.267959
0.738909
0.228473
-0.170256
-0.460670
-0.736532
-1.145775
-1.807170
-2.718800
-3.737161
-4.647594
-5.268136
-5.517431
-5.412924
-5.015956
-4.386926
-3.599283
-2.774282
-2.056506
-1.532414
-1.182309
-0.914368
-0.630532
-0.266868
0.190621
0.705615
1.221541
1.709890
2.186952
2.689610
3.250782
3.874513
4.484093
4.896486
4.906808
4.430611
3.542586
2.374932
1.023201
-0.435108
-1.877497
-3.128696
-4.008448
-4.390956
-4.260842
-3.743322
-3.066199
-2.469837
-2.137530
-2.156943
-2.462363
-2.793505
-2.789096
-2.211532
-1.115619
0.195529
1.373231
2.207681
2.686707
2.943393
3.156915
3.458065
3.868891
4.296589
4.586157
4.602141
4.289700
3.682963
2.868816
1.949360
1.030852
0.212223
-0.448318
-0.949448
-1.311814
-1.531921
-1.583863
-1.460543
-1.198748
-0.866957
-0.543206
-0.308081
-0.247841
-0.452258
-0.994181
-1.878538
-2.980949
-4.038486
-4.727769
-4.785785
-4.094600
-2.700485
-0.798494
1.304680
3.283174
4.912830
6.099845
6.781871
6.840101
6.144221
4.683428
2.661829
0.485745
-1.367004
-2.539790
-2.932764
-2.691112
-2.078145
-1.343723
-0.655371
-0.085502
0.354768
0.641171
0.688215
0.400717
-0.217892
-1.021439
-1.786321
-2.314885
-2.501154
-2.359346
-2.032058
-1.746814
-1.704534
-1.974049
-2.485979
-3.116813
-3.775617
-4.441377
-5.150573
-5.938090
-6.750414
-7.387028
-7.522014
-6.812616
-5.059791
-2.353600
0.886264
4.045045
6.588377
8.286865
9.188445
9.389917
8.886935
7.663876
5.881149
3.916115
2.190768
0.936784
0.098648
-0.555642
-1.223570
-1.929135
-2.548937
-2.960976
-3.180195
-3.364472
-3.695585
-4.228514
-4.791226
-4.997994
-4.425511
-2.887998
-0.612621
1.841803
3.880390
5.172825
5.756106
5.912135
5.958774
6.090806
6.315731
6.476427
6.324384
5.604328
4.162431
2.092070
-0.180359
-2.016469
-2.887696
-2.686032
-1.781318
-0.776478
-0.168805
-0.176678
-0.767095
-1.727268
-2.715160
-3.377385
-3.534862
-3.259363
-2.735941
-2.063273
-1.221185
-0.223529
0.753183
1.443540
1.711874
1.698213
1.729747
2.039202
2.545065
2.952129
3.097212
3.136799
3.348970
3.819941
4.396613
4.885729
5.200050
5.318419
5.165782
4.536003
3.116226
0.636604
-2.911495
-7.140227
-11.326714
-14.629037
-16.332148
-16.045786
-13.805082
-10.019877
-5.307701
-0.337866
4.261161
7.976877
10.466163
11.551952
11.214115
9.625103
7.154614
4.262651
1.355057
-1.278128
-3.449905
-5.066018
-6.119999
-6.651032
-6.684817
-6.222554
-5.283528
-3.942469
-2.337358
-0.676810
0.761142
1.696563
1.975787
1.655430
0.963412
0.180430
-0.456405
-0.779026
-0.677682
-0.123543
0.753447
1.614265
2.023455
1.739314
0.963195
0.274396
0.250792
1.085024
2.488692
3.893720
4.743099
4.681989
3.614835
1.692621
-0.725363
-3.130829
-4.963615
-5.783554
-5.480069
-4.343242
-2.883044
-1.547714
-0.573964
0.002760
0.300778
0.552636
1.020772
1.874198
3.121469
4.641787
6.247280
7.720111
8.844810
9.451062
9.448376
8.861322
7.853654
6.647563
5.326607
3.731586
1.629272
-1.001408
-3.874081
-6.536468
-8.533423
-9.475076
-9.107990
-7.449004
-4.864855
-1.998094
0.394593
1.616032
1.248270
-0.618999
-3.358141
-6.084082
-8.062864
-8.973201
-8.922208
-8.277719
-7.416916
-6.514917
-5.496133
-4.149971
-2.286349
0.142825
2.936091
5.615033
7.612009
8.587298
8.577918
7.858139
6.703149
5.283839
3.739647
2.307409
1.322865
1.021041
1.293842
1.663391
1.543081
0.586391
-1.137920
-3.235806
-5.229664
-6.761483
-7.647706
-7.823416
-7.291699
-6.128553
-4.473031
-2.450911
-0.118704
2.476809
5.176946
7.649263
9.438530
10.121313
9.515410
7.817299
5.521330
3.129957
0.872850
-1.316700
-3.528898
-5.555416
-6.845622
-6.818436
-5.279388
-2.615886
0.359406
2.790124
4.134086
4.313867
3.636602
2.584487
1.606756
0.996553
0.865461
1.183076
1.831460
2.628456
3.332415
3.702597
3.625448
3.188839
2.602947
2.025351
1.441843
0.693938
-0.372806
-1.745293
-3.183326
-4.308809
-4.768142
-4.350928
-3.028333
-0.950677
1.581119
4.187254
6.491159
8.155549
8.897328
8.558239
7.217606
5.221016
3.048565
1.119681
-0.303927
-1.086511
-1.157197
-0.484025
0.935433
3.061749
5.727245
8.502883
10.681459
11.498701
10.475305
7.620318
3.377103
-1.575124
-6.514271
-10.828107
-14.122225
-16.245586
-17.228403
-17.171885
-16.152815
-14.220545
-11.503560
-8.323662
-5.180247
-2.571422
-0.763043
0.324362
1.024128
1.704190
2.578258
3.638131
4.695238
5.486107
5.799933
5.566598
4.846072
3.752309
2.419793
1.034006
-0.172374
-0.999920
-1.348552
-1.186365
-0.470630
0.858841
2.778381
5.074917
7.360857
9.218944
10.368807
10.721202
10.283517
9.039537
6.961575
4.150184
0.924297
-2.269146
-5.033850
-7.098884
-8.266320
-8.397475
-7.528290
-5.975787
-4.249005
-2.782078
-1.710122
-0.884221
-0.107631
0.621510
1.084278
1.059527
0.573740
-0.076948
-0.555346
-0.716813
-0.637752
-0.488356
-0.404972
-0.417579
-0.432130
-0.295907
0.066597
0.561254
0.985728
1.203235
1.260093
1.337517
1.597667
2.067769
2.648923
3.220999
3.727346
4.147558
4.409494
4.376090
3.939095
3.110709
2.016471
0.811255
-0.398905
-1.579617
-2.736086
-3.861442
-4.920764
-5.890448
-6.794274
-7.666605
-8.460474
-8.992840
-8.996559
-8.263098
-6.791019
-4.839622
-2.823604
-1.083569
0.309582
1.552178
2.915522
4.536904
6.334486
8.057798
9.424217
10.263079
10.559474
10.359473
9.657374
8.415408
6.689248
4.703369
2.812030
1.402880
0.781677
1.042225
1.986123
3.192901
4.241289
4.937297
5.371143
5.754696
6.177643
6.483926
6.363709
5.586487
4.182086
2.411147
0.569088
-1.171657
-2.765116
-4.222919
-5.575461
-6.844160
-7.990303
-8.901858
-9.470686
-9.682384
-9.619359
-9.402326
-9.147081
-8.944142
-8.838476
-8.822924
-8.856829
-8.884316
-8.833535
-8.602930
-8.037939
-6.923241
-5.056184
-2.416308
0.695599
3.721137
6.103701
7.520883
7.918867
7.423019
6.268154
4.740422
3.076631
1.409337
-0.130252
-1.259175
-1.581088
-0.850506
0.787010
2.806404
4.536828
5.427438
5.184889
3.744741
1.182786
-2.281975
-6.197257
-9.889617
-12.679281
-14.120079
-14.038724
-12.415936
-9.340542
-5.122465
-0.406494
3.905497
6.951816
8.268121
7.961515
6.559837
4.641482
2.532510
0.293259
-2.044554
-4.255137
-5.952145
-6.863566
-7.095239
-7.127706
-7.505703
-8.438384
-9.631588
-10.496490
-10.546267
-9.648586
-7.985141
-5.821582
-3.276801
-0.248743
3.434280
7.740777
12.284956
16.440977
19.601814
21.354925
21.500515
20.005337
16.976238
12.655364
7.421231
1.782994
-3.673741
-8.407392
-12.038243
-14.396667
-15.533703
-15.725333
-15.394573
-14.911249
-14.427213
-13.921625
-13.358607
-12.704310
-11.779484
-10.204717
-7.624532
-4.071358
-0.147127
3.168288
4.984769
4.936090
3.294087
0.742467
-1.949937
-4.128544
-5.311552
-5.226269
-3.875405
-1.569722
1.146627
3.689870
5.693679
7.191480
8.568769
10.288926
12.594687
15.387783
18.309740
20.897047
22.701502
23.392002
22.891668
21.488878
19.763920
18.272535
17.169678
16.080549
14.344887
11.426791
7.168926
1.794086
-4.192344
-10.061297
-14.930211
-17.970221
-18.730141
-17.369144
-14.612028
-11.461993
-8.869686
-7.512184
-7.683788
-9.231546
-11.549366
-13.736740
-14.946282
-14.735572
-13.174110
-10.655390
-7.608768
-4.335511
-1.027607
2.117857
4.811005
6.709312
7.598953
7.580777
7.076493
6.631757
6.681253
7.423170
8.808047
10.591178
12.412369
13.866090
14.545530
14.093927
12.295078
9.156713
4.907545
-0.074357
-5.311682
-10.243073
-14.270575
-16.856401
-17.605268
-16.297274
-12.931195
-7.834011
-1.758377
4.196621
8.897240
11.558623
11.949900
10.312076
7.100923
2.761004
-2.339695
-7.839155
-13.301408
-18.222303
-22.113501
-24.603588
-25.498234
-24.766497
-22.470484
-18.698187
-13.554623
-7.219416
-0.018407
7.565508
14.966629
21.649830
27.199757
31.355936
34.003971
35.143513
34.839359
33.171329
30.231155
26.189882
21.364313
16.183418
11.064263
6.304432
2.056375
-1.647488
-4.866608
-7.719118
-10.331573
-12.805025
-15.223867
-17.647434
-20.023960
-22.104643
-23.477306
-23.697035
-22.421524
-19.548937
-15.365984
-10.595836
-6.233234
-3.218934
-2.121217
-2.964955
-5.271478
-8.284399
-11.244953
-13.548312
-14.752429
-14.563961
-12.879506
-9.809417
-5.607930
-0.574860
4.960723
10.588628
15.807499
20.106524
23.078955
24.495609
24.336403
22.803423
20.298817
17.336203
14.399716
11.814130
9.696770
8.025682
6.770785
5.945146
5.493044
5.145191
4.471977
3.169524
1.333213
-0.541147
-1.821586
-2.035757
-1.002704
1.201766
4.331841
8.023110
11.808778
15.160226
17.591772
18.786825
18.655254
17.283173
14.831658
11.482952
7.474216
3.157061
-1.007255
-4.532443
-7.013744
-8.221829
-8.197258
-7.315628
-6.227859
-5.641832
-6.070948
-7.721889
-10.542805
-14.303831
-18.624796
-23.001656
-26.900284
-29.883938
-31.697992
-32.295109
-31.819447
-30.541952
-28.751234
-26.664705
-24.408449
-22.025457
-19.461504
-16.567606
-13.187311
-9.287606
-4.999855
-0.522655
3.997504
8.476093
12.797100
16.716295
19.841564
21.724833
22.046556
20.783909
18.225063
14.814591
10.959086
6.927655
2.881009
-1.027450
-4.569073
-7.449488
-9.412200
-10.347018
-10.301322
-9.398451
-7.768766
-5.549841
-2.900618
0.016940
3.055776
6.070757
8.910714
11.465259
13.736768
15.835268
17.856730
19.746622
21.273895
22.120859
22.020226
20.901953
19.006945
16.864449
15.079719
14.045499
13.761191
13.846250
13.722636
12.882622
11.107457
8.508802
5.396666
2.119487
-1.002809
-3.680953
-5.687282
-6.930365
-7.502898
-7.641823
-7.610332
-7.573169
-7.546126
-7.448142
-7.206984
-6.841888
-6.482940
-6.314769
-6.452553
-6.824846
-7.170808
-7.168248
-6.592464
-5.403538
-3.734432
-1.797389
0.241372
2.314949
4.362668
6.188764
7.478441
8.013239
7.878945
7.452723
7.179347
7.326948
7.890311
8.659924
9.364491
9.789715
9.826676
9.458734
8.725707
7.688468
6.398858
4.900634
3.291631
1.808231
0.824647
0.705134
1.579480
3.193516
4.949226
6.135586
6.230307
5.102318
3.022647
0.531479
-1.728920
-3.161724
-3.355922
-2.206210
0.047993
2.879951
5.580330
7.393842
7.719897
6.332256
3.470526
-0.276197
-4.203589
-7.704306
-10.393879
-12.138744
-12.989407
-13.066060
-12.481377
-11.341246
-9.783235
-7.996961
-6.217243
-4.705287
-3.714595
-3.442374
-4.000934
-5.415332
-7.586121
-10.202850
-12.717664
-14.480965
-14.995192
-14.138124
-12.224437
-9.869447
-7.731324
-6.272315
-5.650281
-5.755585
-6.321182
-7.027517
-7.579790
-7.751285
-7.373470
-6.308710
-4.493173
-2.051623
0.636993
3.020001
4.565971
4.968085
4.262923
2.817545
1.189705
-0.075799
-0.619066
-0.340766
0.617940
1.956598
3.325981
4.432993
5.098907
5.262551
4.965086
4.339658
3.585484
2.919364
2.539342
2.613676
3.250938
4.420863
5.885149
7.233534
8.032616
7.989353
7.030262
5.278457
2.972471
0.380517
-2.246125
-4.668857
-6.652764
-8.009437
-8.678202
-8.779686
-8.599381
-8.505768
-8.837015
-9.803446
-11.449325
-13.676380
-16.270893
-18.888327
-21.035192
-22.116587
-21.566170
-19.034464
-14.572966
-8.700899
-2.283193
3.716336
8.477051
11.482458
12.586191
11.993529
10.179379
7.760680
5.341944
3.370758
2.054235
1.384263
1.261862
1.609992
2.361608
3.354897
4.280658
4.763802
4.523649
3.504451
1.900637
0.065265
-1.632562
-2.893332
-3.470800
-3.131354
-1.690389
0.885313
4.409723
8.497571
12.631598
16.227797
18.706886
19.599274
18.666815
15.988279
11.964089
7.218620
2.427303
-1.829431
-5.090115
-6.947888
-7.040330
-5.173038
-1.485774
3.489545
8.928021
13.911615
17.639242
19.561071
19.412893
17.218330
13.314454
8.341790
3.108564
-1.641323
-5.415908
-8.016780
-9.462200
-9.885307
-9.466682
-8.411453
-6.959160
-5.389472
-3.984012
-2.967893
-2.496087
-2.677416
-3.550390
-4.988137
-6.645034
-8.066040
-8.921237
-9.182765
-9.092269
-8.936111
-8.798755
-8.494531
-7.747113
-6.464160
-4.851835
-3.265158
-1.950185
-0.923521
-0.062056
0.742996
1.522435
2.252351
2.880512
3.328728
3.498528
3.307465
2.756334
1.974057
1.176662
0.560851
0.215363
0.100372
0.089632
0.042851
-0.128740
-0.431190
-0.802787
-1.163414
-1.458747
-1.666956
-1.789263
-1.861871
-1.969091
-2.211028
-2.635299
-3.186534
-3.704597
-3.967743
-3.769140
-3.002559
-1.710045
-0.066982
1.672116
3.245648
4.463237
5.248329
5.611005
5.585526
5.190988
4.426184
3.280120
1.757570
-0.076123
-2.067332
-4.016600
-5.767552
-7.246027
-8.414461
-9.212522
-9.553179
-9.364569
-8.624686
-7.359078
-5.623052
-3.511636
-1.211269
0.938409
2.435083
2.719044
1.384380
-1.620213
-5.920005
-10.788501
-15.322076
-18.676134
-20.315334
-20.173397
-18.608175
-16.168922
-13.327163
-10.300279
-7.019230
-3.250932
1.184505
6.229293
11.530924
16.513292
20.522036
22.989534
23.571810
22.221075
19.189724
14.983852
10.277036
5.783287
2.100101
-0.434651
-1.811225
-2.313957
-2.399521
-2.516237
-2.930421
-3.663749
-4.577344
-5.514159
-6.384653
-7.169154
-7.885366
-8.550578
-9.129942
-9.484514
-9.370593
-8.522525
-6.779773
-4.173855
-0.926635
2.620011
6.085342
9.088091
11.245336
12.205924
11.766480
9.998858
7.263587
4.076180
0.925420
-1.834524
-3.984765
-5.385838
-5.937784
-5.598815
-4.443641
-2.699209
-0.719274
1.083076
2.304578
2.604237
1.753357
-0.290570
-3.295933
-6.724601
-9.836037
-11.930320
