EVENT_NAME: EMILIA_2ND_SHOCK
EVENT_ID: IT-2012-0011
EVENT_DATE_YYYYMMDD: 20120529
EVENT_TIME_HHMMSS: 070002
EVENT_LATITUDE_DEGREE: 44.8417
EVENT_LONGITUDE_DEGREE: 11.0657
EVENT_DEPTH_KM: 8.1
HYPOCENTER_REFERENCE: INGV-CNT_Seismic_Bulletin
MAGNITUDE_W: 6.0
MAGNITUDE_W_REFERENCE: RCMT-INGV
MAGNITUDE_L: 5.8
MAGNITUDE_L_REFERENCE: INGV-CNT_Seismic_Bulletin
FOCAL_MECHANISM: TF
NETWORK: IT
STATION_CODE: MDN
STATION_NAME: MODENA
STATION_LATITUDE_DEGREE: 44.646988
STATION_LONGITUDE_DEGREE: 10.889912
STATION_ELEVATION_M: 77
LOCATION: 
SENSOR_DEPTH_M: 0.0
VS30_M/S: 213
SITE_CLASSIFICATION_EC8: C
MORPHOLOGIC_CLASSIFICATION: 
EPICENTRAL_DISTANCE_KM: 25.7
EARTHQUAKE_BACKAZIMUTH_DEGREE: 32.7
DATE_TIME_FIRST_SAMPLE_YYYYMMDD_HHMMSS: 20120529_065953.000
DATE_TIME_FIRST_SAMPLE_PRECISION: seconds
SAMPLING_INTERVAL_S: 0.005000
NDATA: 26000
DURATION_S: 130.000
STREAM: HNN
UNITS: cm
INSTRUMENT: sensor = FBA-3 [Kinemetrics] | digitizer = Etna [Kinemetrics]
INSTRUMENT_ANALOG/DIGITAL: D
INSTRUMENTAL_FREQUENCY_HZ: 204.000
INSTRUMENTAL_DAMPING: 0.700000
FULL_SCALE_G: 1.0
N_BIT_DIGITAL_CONVERTER: 18
PGD_CM: 1.475783
TIME_PGD_S: 47.415000
BASELINE_CORRECTION: BASELINE REMOVED
FILTER_TYPE: BUTTERWORTH
FILTER_ORDER: 2
LOW_CUT_FREQUENCY_HZ: 0.050
HIGH_CUT_FREQUENCY_HZ: 35.000
LATE/NORMAL_TRIGGERED: NT
DATABASE_VERSION: DYNA 1.0
HEADER_FORMAT: DYNA 1.2
DATA_TYPE: DISPLACEMENT
PROCESSING: manual (Paolucci et al., 2011)
DATA_TIMESTAMP_YYYYMMDD_HHMMSS: 20141204_103511.587
DATA_LICENSE: CC-BY3_0-IT (http://creativecommons.org/licenses/by/3.0/deed.en)
DATA_CITATION: ESM working group (2015), European Strong-Motion database, version 0.1, Network Activity 3: Networking acceleration networks and SM data users. Project NERA (www.nera-eu.org)
DATA_CREATOR: ESM working group
ORIGINAL_DATA_MEDIATOR_CITATION: Ufficio Rischio Sismico e Vulcanico del Dipartimento della Protezione Civile (http://www.protezionecivile.gov.it/)
ORIGINAL_DATA_MEDIATOR: Rete Accelerometrica Nazionale - RAN Download (http://www.mot1.it/randownload/)
ORIGINAL_DATA_CREATOR_CITATION: Italian Strong Motion Network, Italian Civil Protection Department http://www.protezionecivile.gov.it
ORIGINAL_DATA_CREATOR: network: IT (Italian Strong Motion Network); owner: Dipartimento Della Protezione Civile
USER1: /home/dyna/processing-itaca/processing.py /var/www/processing/tmp/fpacor//IT.MDN..HNE.D.20120529.070003.X.ACC.ASC /var/www/processing/tmp/fpacor//IT.MDN..HNN.D.20120529.070003.X.ACC.ASC /var/www/processing/tmp/fpacor//IT.MDN..HNZ.D.20120529.070003.X.ACC.ASC --tmp /var/www/processing/tmp/fpacor/ --le 0.05 --he 35.000 --ln 0.05 --hn 35.000 --lz 0.05 --hz 35.000 --fo 2 --ca -10 --cz 30 --ta 5 --tz 5 --mf 1 --rf 0 --tr NT
USER2: 
USER3: 
USER4: 
USER5: 
[...]
7.914178e-01
7.831613e-01
7.747278e-01
7.661224e-01
7.573485e-01
7.484082e-01
7.393019e-01
7.300293e-01
7.205893e-01
7.109800e-01
7.011996e-01
6.912457e-01
6.811154e-01
6.708058e-01
6.603136e-01
6.496364e-01
6.387724e-01
6.277207e-01
6.164808e-01
6.050531e-01
5.934382e-01
5.816374e-01
5.696523e-01
5.574854e-01
5.451394e-01
5.326172e-01
5.199213e-01
5.070543e-01
4.940185e-01
4.808160e-01
4.674481e-01
4.539163e-01
4.402225e-01
4.263695e-01
4.123606e-01
3.981995e-01
3.838888e-01
3.694299e-01
3.548232e-01
3.400689e-01
3.251674e-01
3.101200e-01
2.949293e-01
2.795989e-01
2.641335e-01
2.485385e-01
2.328205e-01
2.169869e-01
2.010461e-01
1.850074e-01
1.688812e-01
1.526784e-01
1.364098e-01
1.200862e-01
1.037180e-01
8.731594e-02
7.089111e-02
5.445494e-02
3.801885e-02
2.159367e-02
5.189331e-03
-1.118475e-02
-2.751909e-02
-4.380376e-02
-6.002856e-02
-7.618341e-02
-9.225859e-02
-1.082448e-01
-1.241331e-01
-1.399147e-01
-1.555810e-01
-1.711230e-01
-1.865311e-01
-2.017952e-01
-2.169045e-01
-2.318477e-01
-2.466133e-01
-2.611899e-01
-2.755663e-01
-2.897313e-01
-3.036746e-01
-3.173873e-01
-3.308623e-01
-3.440947e-01
-3.570805e-01
-3.698160e-01
-3.822974e-01
-3.945211e-01
-4.064844e-01
-4.181861e-01
-4.296265e-01
-4.408058e-01
-4.517236e-01
-4.623794e-01
-4.727730e-01
-4.829056e-01
-4.927796e-01
-5.023975e-01
-5.117607e-01
-5.208689e-01
-5.297203e-01
-5.383125e-01
-5.466435e-01
-5.547125e-01
-5.625202e-01
-5.700688e-01
-5.773613e-01
-5.844011e-01
-5.911915e-01
-5.977363e-01
-6.040405e-01
-6.101111e-01
-6.159574e-01
-6.215909e-01
-6.270241e-01
-6.322703e-01
-6.373428e-01
-6.422553e-01
-6.470207e-01
-6.516517e-01
-6.561604e-01
-6.605589e-01
-6.648591e-01
-6.690726e-01
-6.732104e-01
-6.772820e-01
-6.812943e-01
-6.852523e-01
-6.891583e-01
-6.930138e-01
-6.968191e-01
-7.005737e-01
-7.042761e-01
-7.079241e-01
-7.115146e-01
-7.150439e-01
-7.185080e-01
-7.219022e-01
-7.252218e-01
-7.284619e-01
-7.316181e-01
-7.346865e-01
-7.376642e-01
-7.405482e-01
-7.433364e-01
-7.460267e-01
-7.486180e-01
-7.511093e-01
-7.535000e-01
-7.557890e-01
-7.579754e-01
-7.600576e-01
-7.620346e-01
-7.639059e-01
-7.656707e-01
-7.673280e-01
-7.688760e-01
-7.703125e-01
-7.716355e-01
-7.728434e-01
-7.739351e-01
-7.749107e-01
-7.757705e-01
-7.765154e-01
-7.771458e-01
-7.776624e-01
-7.780655e-01
-7.783556e-01
-7.785334e-01
-7.786001e-01
-7.785579e-01
-7.784098e-01
-7.781604e-01
-7.778148e-01
-7.773797e-01
-7.768623e-01
-7.762707e-01
-7.756133e-01
-7.748984e-01
-7.741341e-01
-7.733278e-01
-7.724861e-01
-7.716156e-01
-7.707220e-01
-7.698108e-01
-7.688866e-01
-7.679531e-01
-7.670133e-01
-7.660706e-01
-7.651290e-01
-7.641934e-01
-7.632692e-01
-7.623609e-01
-7.614722e-01
-7.606061e-01
-7.597655e-01
-7.589536e-01
-7.581740e-01
-7.574309e-01
-7.567283e-01
-7.560698e-01
-7.554586e-01
-7.548963e-01
-7.543830e-01
-7.539166e-01
-7.534929e-01
-7.531057e-01
-7.527479e-01
-7.524124e-01
-7.520918e-01
-7.517789e-01
-7.514658e-01
-7.511444e-01
-7.508054e-01
-7.504392e-01
-7.500359e-01
-7.495863e-01
-7.490827e-01
-7.485190e-01
-7.478908e-01
-7.471943e-01
-7.464257e-01
-7.455809e-01
-7.446561e-01
-7.436480e-01
-7.425543e-01
-7.413741e-01
-7.401072e-01
-7.387540e-01
-7.373152e-01
-7.357910e-01
-7.341816e-01
-7.324865e-01
-7.307048e-01
-7.288350e-01
-7.268746e-01
-7.248198e-01
-7.226666e-01
-7.204112e-01
-7.180501e-01
-7.155810e-01
-7.130018e-01
-7.103102e-01
-7.075038e-01
-7.045801e-01
-7.015375e-01
-6.983747e-01
-6.950919e-01
-6.916905e-01
-6.881733e-01
-6.845446e-01
-6.808090e-01
-6.769714e-01
-6.730363e-01
-6.690080e-01
-6.648907e-01
-6.606887e-01
-6.564060e-01
-6.520467e-01
-6.476145e-01
-6.431126e-01
-6.385440e-01
-6.339111e-01
-6.292159e-01
-6.244603e-01
-6.196461e-01
-6.147750e-01
-6.098485e-01
-6.048682e-01
-5.998363e-01
-5.947558e-01
-5.896300e-01
-5.844630e-01
-5.792594e-01
-5.740250e-01
-5.687660e-01
-5.634891e-01
-5.582010e-01
-5.529076e-01
-5.476144e-01
-5.423260e-01
-5.370471e-01
-5.317819e-01
-5.265343e-01
-5.213076e-01
-5.161045e-01
-5.109267e-01
-5.057749e-01
-5.006485e-01
-4.955455e-01
-4.904625e-01
-4.853942e-01
-4.803349e-01
-4.752784e-01
-4.702191e-01
-4.651514e-01
-4.600701e-01
-4.549714e-01
-4.498530e-01
-4.447144e-01
-4.395559e-01
-4.343771e-01
-4.291777e-01
-4.239570e-01
-4.187162e-01
-4.134576e-01
-4.081856e-01
-4.029050e-01
-3.976212e-01
-3.923388e-01
-3.870618e-01
-3.817934e-01
-3.765367e-01
-3.712948e-01
-3.660711e-01
-3.608695e-01
-3.556936e-01
-3.505468e-01
-3.454317e-01
-3.403502e-01
-3.353032e-01
-3.302905e-01
-3.253108e-01
-3.203621e-01
-3.154422e-01
-3.105493e-01
-3.056816e-01
-3.008371e-01
-2.960136e-01
-2.912088e-01
-2.864204e-01
-2.816458e-01
-2.768826e-01
-2.721287e-01
-2.673825e-01
-2.626434e-01
-2.579114e-01
-2.531873e-01
-2.484719e-01
-2.437660e-01
-2.390702e-01
-2.343854e-01
-2.297139e-01
-2.250591e-01
-2.204253e-01
-2.158175e-01
-2.112407e-01
-2.067002e-01
-2.022023e-01
-1.977538e-01
-1.933610e-01
-1.890298e-01
-1.847651e-01
-1.805717e-01
-1.764549e-01
-1.724202e-01
-1.684732e-01
-1.646180e-01
-1.608575e-01
-1.571929e-01
-1.536250e-01
-1.501549e-01
-1.467834e-01
-1.435109e-01
-1.403374e-01
-1.372622e-01
-1.342841e-01
-1.314015e-01
-1.286121e-01
-1.259131e-01
-1.233020e-01
-1.207763e-01
-1.183340e-01
-1.159739e-01
-1.136951e-01
-1.114972e-01
-1.093802e-01
-1.073445e-01
-1.053917e-01
-1.035241e-01
-1.017449e-01
-1.000576e-01
-9.846527e-02
-9.697005e-02
-9.557367e-02
-9.427789e-02
-9.308488e-02
-9.199701e-02
-9.101626e-02
-9.014389e-02
-8.938056e-02
-8.872655e-02
-8.818180e-02
-8.774581e-02
-8.741746e-02
-8.719481e-02
-8.707503e-02
-8.705448e-02
-8.712889e-02
-8.729369e-02
-8.754424e-02
-8.787606e-02
-8.828493e-02
-8.876688e-02
-8.931814e-02
-8.993500e-02
-9.061392e-02
-9.135172e-02
-9.214603e-02
-9.299528e-02
-9.389846e-02
-9.485486e-02
-9.586415e-02
-9.692662e-02
-9.804311e-02
-9.921479e-02
-1.004428e-01
-1.017279e-01
-1.030711e-01
-1.044730e-01
-1.059345e-01
-1.074559e-01
-1.090362e-01
-1.106734e-01
-1.123652e-01
-1.141093e-01
-1.159044e-01
-1.177496e-01
-1.196439e-01
-1.215856e-01
-1.235734e-01
-1.256063e-01
-1.276849e-01
-1.298116e-01
-1.319905e-01
-1.342262e-01
-1.365233e-01
-1.388857e-01
-1.413171e-01
-1.438221e-01
-1.464059e-01
-1.490749e-01
-1.518362e-01
-1.546974e-01
-1.576670e-01
-1.607537e-01
-1.639659e-01
-1.673115e-01
-1.707982e-01
-1.744325e-01
-1.782199e-01
-1.821635e-01
-1.862645e-01
-1.905224e-01
-1.949354e-01
-1.995015e-01
-2.042174e-01
-2.090789e-01
-2.140802e-01
-2.192138e-01
-2.244712e-01
-2.298433e-01
-2.353206e-01
-2.408936e-01
-2.465528e-01
-2.522890e-01
-2.580937e-01
-2.639584e-01
-2.698745e-01
-2.758323e-01
-2.818217e-01
-2.878330e-01
-2.938585e-01
-2.998928e-01
-3.059323e-01
-3.119740e-01
-3.180140e-01
-3.240477e-01
-3.300703e-01
-3.360774e-01
-3.420661e-01
-3.480348e-01
-3.539826e-01
-3.599088e-01
-3.658127e-01
-3.716935e-01
-3.775502e-01
-3.833815e-01
-3.891855e-01
-3.949590e-01
-4.006979e-01
-4.063970e-01
-4.120512e-01
-4.176552e-01
-4.232039e-01
-4.286929e-01
-4.341182e-01
-4.394767e-01
-4.447664e-01
-4.499858e-01
-4.551337e-01
-4.602090e-01
-4.652095e-01
-4.701323e-01
-4.749742e-01
-4.797319e-01
-4.844021e-01
-4.889825e-01
-4.934721e-01
-4.978724e-01
-5.021869e-01
-5.064204e-01
-5.105773e-01
-5.146615e-01
-5.186759e-01
-5.226230e-01
-5.265061e-01
-5.303297e-01
-5.340999e-01
-5.378237e-01
-5.415084e-01
-5.451595e-01
-5.487804e-01
-5.523724e-01
-5.559357e-01
-5.594692e-01
-5.629704e-01
-5.664352e-01
-5.698585e-01
-5.732352e-01
-5.765606e-01
-5.798307e-01
-5.830412e-01
-5.861880e-01
-5.892671e-01
-5.922751e-01
-5.952097e-01
-5.980697e-01
-6.008544e-01
-6.035641e-01
-6.061991e-01
-6.087604e-01
-6.112496e-01
-6.136684e-01
-6.160191e-01
-6.183041e-01
-6.205258e-01
-6.226865e-01
-6.247891e-01
-6.268364e-01
-6.288310e-01
-6.307747e-01
-6.326689e-01
-6.345146e-01
-6.363133e-01
-6.380655e-01
-6.397717e-01
-6.414316e-01
-6.430453e-01
-6.446127e-01
-6.461347e-01
-6.476119e-01
-6.490459e-01
-6.504381e-01
-6.517902e-01
-6.531031e-01
-6.543764e-01
-6.556091e-01
-6.567993e-01
-6.579449e-01
-6.590438e-01
-6.600939e-01
-6.610935e-01
-6.620412e-01
-6.629357e-01
-6.637752e-01
-6.645567e-01
-6.652761e-01
-6.659280e-01
-6.665065e-01
-6.670060e-01
-6.674218e-01
-6.677496e-01
-6.679851e-01
-6.681236e-01
-6.681603e-01
-6.680901e-01
-6.679074e-01
-6.676073e-01
-6.671853e-01
-6.666378e-01
-6.659618e-01
-6.651541e-01
-6.642107e-01
-6.631271e-01
-6.618983e-01
-6.605198e-01
-6.589873e-01
-6.572964e-01
-6.554429e-01
-6.534230e-01
-6.512332e-01
-6.488706e-01
-6.463319e-01
-6.436137e-01
-6.407122e-01
-6.376244e-01
-6.343473e-01
-6.308783e-01
-6.272157e-01
-6.233583e-01
-6.193055e-01
-6.150575e-01
-6.106146e-01
-6.059773e-01
-6.011469e-01
-5.961253e-01
-5.909151e-01
-5.855194e-01
-5.799407e-01
-5.741808e-01
-5.682408e-01
-5.621211e-01
-5.558225e-01
-5.493462e-01
-5.426941e-01
-5.358678e-01
-5.288683e-01
-5.216951e-01
-5.143474e-01
-5.068240e-01
-4.991243e-01
-4.912489e-01
-4.831994e-01
-4.749789e-01
-4.665912e-01
-4.580408e-01
-4.493322e-01
-4.404696e-01
-4.314577e-01
-4.223022e-01
-4.130101e-01
-4.035892e-01
-3.940480e-01
-3.843950e-01
-3.746397e-01
-3.647932e-01
-3.548687e-01
-3.448815e-01
-3.348470e-01
-3.247792e-01
-3.146905e-01
-3.045917e-01
-2.944929e-01
-2.844044e-01
-2.743365e-01
-2.643001e-01
-2.543053e-01
-2.443608e-01
-2.344733e-01
-2.246471e-01
-2.148852e-01
-2.051902e-01
-1.955648e-01
-1.860108e-01
-1.765299e-01
-1.671229e-01
-1.577911e-01
-1.485366e-01
-1.393620e-01
-1.302690e-01
-1.212579e-01
-1.123279e-01
-1.034776e-01
-9.470586e-02
-8.601242e-02
-7.739764e-02
-6.886222e-02
-6.040659e-02
-5.203053e-02
-4.373326e-02
-3.551348e-02
-2.736927e-02
-1.929818e-02
-1.129745e-02
-3.364323e-03
4.503967e-03
1.231057e-02
2.005943e-02
2.775543e-02
3.540400e-02
4.301050e-02
5.057971e-02
5.811611e-02
6.562466e-02
7.311123e-02
8.058258e-02
8.804613e-02
9.550985e-02
1.029819e-01
1.104700e-01
1.179812e-01
1.255217e-01
1.330972e-01
1.407133e-01
1.483757e-01
1.560903e-01
1.638627e-01
1.716980e-01
1.796008e-01
1.875750e-01
1.956238e-01
2.037501e-01
2.119562e-01
2.202448e-01
2.286185e-01
2.370792e-01
2.456282e-01
2.542663e-01
2.629936e-01
2.718099e-01
2.807144e-01
2.897057e-01
2.987815e-01
3.079391e-01
3.171757e-01
3.264886e-01
3.358756e-01
3.453348e-01
3.548648e-01
3.644643e-01
3.741321e-01
3.838662e-01
3.936644e-01
4.035240e-01
4.134429e-01
4.234195e-01
4.334523e-01
4.435409e-01
4.536849e-01
4.638839e-01
4.741370e-01
4.844433e-01
4.948017e-01
5.052119e-01
5.156749e-01
5.261926e-01
5.367667e-01
5.473980e-01
5.580850e-01
5.688241e-01
5.796100e-01
5.904371e-01
6.012997e-01
6.121930e-01
6.231124e-01
6.340533e-01
6.450103e-01
6.559773e-01
6.669470e-01
6.779124e-01
6.888669e-01
6.998053e-01
7.107230e-01
7.216155e-01
7.324777e-01
7.433041e-01
7.540896e-01
7.648294e-01
7.755195e-01
7.861565e-01
7.967377e-01
8.072606e-01
8.177227e-01
8.281222e-01
8.384579e-01
8.487287e-01
8.589338e-01
8.690728e-01
8.791457e-01
8.891527e-01
8.990942e-01
9.089706e-01
9.187816e-01
9.285266e-01
9.382045e-01
9.478139e-01
9.573537e-01
9.668230e-01
9.762207e-01
9.855459e-01
9.947978e-01
1.003975e+00
1.013076e+00
1.022099e+00
1.031041e+00
1.039899e+00
1.048670e+00
1.057353e+00
1.065943e+00
1.074437e+00
1.082833e+00
1.091129e+00
1.099321e+00
1.107410e+00
1.115395e+00
1.123276e+00
1.131055e+00
1.138736e+00
1.146321e+00
1.153817e+00
1.161228e+00
1.168559e+00
1.175816e+00
1.183002e+00
1.190122e+00
1.197179e+00
1.204176e+00
1.211117e+00
1.218006e+00
1.224846e+00
1.231640e+00
1.238391e+00
1.245098e+00
1.251763e+00
1.258383e+00
1.264956e+00
1.271481e+00
1.277953e+00
1.284370e+00
1.290729e+00
1.297023e+00
1.303245e+00
1.309390e+00
1.315451e+00
1.321424e+00
1.327306e+00
1.333096e+00
1.338793e+00
1.344395e+00
1.349902e+00
1.355312e+00
1.360624e+00
1.365838e+00
1.370952e+00
1.375967e+00
1.380881e+00
1.385693e+00
1.390403e+00
1.395008e+00
1.399510e+00
1.403908e+00
1.408202e+00
1.412390e+00
1.416470e+00
1.420440e+00
1.424294e+00
1.428029e+00
1.431642e+00
1.435130e+00
1.438493e+00
1.441729e+00
1.444835e+00
1.447807e+00
1.450641e+00
1.453331e+00
1.455875e+00
1.458271e+00
1.460519e+00
1.462621e+00
1.464577e+00
1.466387e+00
1.468050e+00
1.469565e+00
1.470926e+00
1.472130e+00
1.473173e+00
1.474050e+00
1.474755e+00
1.475283e+00
1.475628e+00
1.475783e+00
1.475741e+00
1.475496e+00
1.475041e+00
1.474371e+00
1.473481e+00
1.472365e+00
1.471018e+00
1.469434e+00
1.467608e+00
1.465536e+00
1.463213e+00
1.460637e+00
1.457806e+00
1.454716e+00
1.451365e+00
1.447751e+00
1.443871e+00
1.439722e+00
1.435302e+00
1.430608e+00
1.425640e+00
1.420397e+00
1.414878e+00
1.409082e+00
1.403008e+00
1.396656e+00
1.390025e+00
1.383117e+00
1.375931e+00
1.368471e+00
1.360736e+00
1.352731e+00
1.344458e+00
1.335921e+00
1.327124e+00
1.318070e+00
1.308761e+00
1.299203e+00
1.289396e+00
1.279344e+00
1.269052e+00
1.258521e+00
1.247753e+00
1.236752e+00
1.225517e+00
1.214051e+00
1.202356e+00
1.190434e+00
1.178288e+00
1.165920e+00
1.153335e+00
1.140538e+00
1.127535e+00
1.114332e+00
1.100935e+00
1.087349e+00
1.073581e+00
1.059639e+00
1.045532e+00
1.031272e+00
1.016872e+00
1.002347e+00
9.877109e-01
9.729770e-01
9.581589e-01
9.432704e-01
9.283256e-01
9.133389e-01
8.983239e-01
8.832935e-01
8.682598e-01
8.532335e-01
8.382248e-01
8.232429e-01
8.082956e-01
7.933894e-01
7.785294e-01
7.637199e-01
7.489649e-01
7.342678e-01
7.196319e-01
7.050600e-01
6.905553e-01
6.761200e-01
6.617562e-01
6.474648e-01
6.332467e-01
6.191037e-01
6.050391e-01
5.910579e-01
5.771652e-01
5.633658e-01
5.496636e-01
5.360623e-01
5.225654e-01
5.091769e-01
4.959008e-01
4.827416e-01
4.697036e-01
4.567916e-01
4.440104e-01
4.313644e-01
4.188575e-01
4.064927e-01
3.942729e-01
3.822008e-01
3.702791e-01
3.585099e-01
3.468944e-01
3.354324e-01
3.241220e-01
3.129601e-01
3.019426e-01
2.910653e-01
2.803242e-01
2.697152e-01
2.592352e-01
2.488817e-01
2.386523e-01
2.285445e-01
2.185557e-01
2.086837e-01
1.989272e-01
1.892859e-01
1.797602e-01
1.703513e-01
1.610604e-01
1.518884e-01
1.428356e-01
1.339019e-01
1.250868e-01
1.163903e-01
1.078129e-01
9.935598e-02
9.102123e-02
8.280971e-02
7.472161e-02
6.675642e-02
5.891340e-02
5.119197e-02
4.359179e-02
3.611240e-02
2.875264e-02
2.151035e-02
1.438249e-02
7.365475e-03
4.555642e-04
-6.350833e-03
-1.305688e-02
-1.966514e-02
-2.617749e-02
-3.259489e-02
-3.891728e-02
-4.514374e-02
-5.127273e-02
-5.730229e-02
-6.323018e-02
-6.905417e-02
-7.477251e-02
-8.038397e-02
-8.588756e-02
-9.128205e-02
-9.656592e-02
-1.017376e-01
-1.067957e-01
-1.117394e-01
-1.165681e-01
-1.212818e-01
-1.258806e-01
-1.303651e-01
-1.347357e-01
-1.389928e-01
-1.431366e-01
-1.471674e-01
-1.510864e-01
-1.548956e-01
-1.585982e-01
-1.621976e-01
-1.656973e-01
-1.691009e-01
-1.724114e-01
-1.756321e-01
-1.787659e-01
-1.818150e-01
-1.847809e-01
-1.876641e-01
-1.904641e-01
-1.931805e-01
-1.958122e-01
-1.983581e-01
-2.008166e-01
-2.031856e-01
-2.054628e-01
-2.076466e-01
-2.097362e-01
-2.117324e-01
-2.136367e-01
-2.154512e-01
-2.171781e-01
-2.188193e-01
-2.203761e-01
-2.218494e-01
-2.232401e-01
-2.245493e-01
-2.257790e-01
-2.269324e-01
-2.280141e-01
-2.290298e-01
-2.299866e-01
-2.308921e-01
-2.317543e-01
-2.325813e-01
-2.333806e-01
-2.341588e-01
-2.349220e-01
-2.356760e-01
-2.364272e-01
-2.371816e-01
-2.379453e-01
-2.387231e-01
-2.395182e-01
-2.403326e-01
-2.411680e-01
-2.420262e-01
-2.429097e-01
-2.438215e-01
-2.447647e-01
-2.457424e-01
-2.467569e-01
-2.478098e-01
-2.489013e-01
-2.500308e-01
-2.511966e-01
-2.523966e-01
-2.536288e-01
-2.548922e-01
-2.561868e-01
-2.575137e-01
-2.588751e-01
-2.602739e-01
-2.617136e-01
-2.631983e-01
-2.647325e-01
-2.663210e-01
-2.679688e-01
-2.696801e-01
-2.714588e-01
-2.733074e-01
-2.752276e-01
-2.772199e-01
-2.792844e-01
-2.814210e-01
-2.836293e-01
-2.859082e-01
-2.882556e-01
-2.906681e-01
-2.931418e-01
-2.956717e-01
-2.982534e-01
-3.008829e-01
-3.035568e-01
-3.062716e-01
-3.090241e-01
-3.118111e-01
-3.146301e-01
-3.174794e-01
-3.203580e-01
-3.232645e-01
-3.261973e-01
-3.291548e-01
-3.321349e-01
-3.351353e-01
-3.381539e-01
-3.411882e-01
-3.442364e-01
-3.472961e-01
-3.503642e-01
-3.534359e-01
-3.565043e-01
-3.595611e-01
-3.625975e-01
-3.656046e-01
-3.685740e-01
-3.714977e-01
-3.743681e-01
-3.771780e-01
-3.799211e-01
-3.825911e-01
-3.851815e-01
-3.876854e-01
-3.900965e-01
-3.924093e-01
-3.946204e-01
-3.967276e-01
-3.987296e-01
-4.006259e-01
-4.024162e-01
-4.041006e-01
-4.056799e-01
-4.071563e-01
-4.085335e-01
-4.098164e-01
-4.110101e-01
-4.121187e-01
-4.131455e-01
-4.140934e-01
-4.149655e-01
-4.157647e-01
-4.164934e-01
-4.171528e-01
-4.177427e-01
-4.182624e-01
-4.187102e-01
-4.190839e-01
-4.193811e-01
-4.195997e-01
-4.197374e-01
-4.197921e-01
-4.197617e-01
-4.196439e-01
-4.194374e-01
-4.191411e-01
-4.187546e-01
-4.182771e-01
-4.177075e-01
-4.170444e-01
-4.162872e-01
-4.154364e-01
-4.144934e-01
-4.134599e-01
-4.123386e-01
-4.111319e-01
-4.098427e-01
-4.084735e-01
-4.070270e-01
-4.055061e-01
-4.039138e-01
-4.022530e-01
-4.005262e-01
-3.987350e-01
-3.968800e-01
-3.949621e-01
-3.929821e-01
-3.909419e-01
-3.888430e-01
-3.866864e-01
-3.844719e-01
-3.821980e-01
-3.798624e-01
-3.774629e-01
-3.749977e-01
-3.724654e-01
-3.698638e-01
-3.671892e-01
-3.644365e-01
-3.616000e-01
-3.586741e-01
-3.556543e-01
-3.525368e-01
-3.493185e-01
-3.459961e-01
-3.425661e-01
-3.390246e-01
-3.353676e-01
-3.315912e-01
-3.276923e-01
-3.236682e-01
-3.195166e-01
-3.152351e-01
-3.108213e-01
-3.062734e-01
-3.015903e-01
-2.967722e-01
-2.918205e-01
-2.867373e-01
-2.815254e-01
-2.761882e-01
-2.707297e-01
-2.651552e-01
-2.594711e-01
