EVENT_NAME: EMILIA_2ND_SHOCK
EVENT_ID: IT-2012-0011
EVENT_DATE_YYYYMMDD: 20120529
EVENT_TIME_HHMMSS: 070002
EVENT_LATITUDE_DEGREE: 44.8417
EVENT_LONGITUDE_DEGREE: 11.0657
EVENT_DEPTH_KM: 8.1
HYPOCENTER_REFERENCE: INGV-CNT_Seismic_Bulletin
MAGNITUDE_W: 6.0
MAGNITUDE_W_REFERENCE: RCMT-INGV
MAGNITUDE_L: 5.8
MAGNITUDE_L_REFERENCE: INGV-CNT_Seismic_Bulletin
FOCAL_MECHANISM: TF
NETWORK: IT
STATION_CODE: MRN
STATION_NAME: MIRANDOLA (NAPOLI)
STATION_LATITUDE_DEGREE: 44.878231
STATION_LONGITUDE_DEGREE: 11.061743
STATION_ELEVATION_M: 15
LOCATION: 
SENSOR_DEPTH_M: 0.0
VS30_M/S: 208
SITE_CLASSIFICATION_EC8: C
MORPHOLOGIC_CLASSIFICATION: 
EPICENTRAL_DISTANCE_KM: 4.1
EARTHQUAKE_BACKAZIMUTH_DEGREE: 175.6
DATE_TIME_FIRST_SAMPLE_YYYYMMDD_HHMMSS: 20120529_065948.000
DATE_TIME_FIRST_SAMPLE_PRECISION: seconds
SAMPLING_INTERVAL_S: 0.005000
NDATA: 105
DURATION_S: 
STREAM: HNN
UNITS: cm
INSTRUMENT: sensor = MS2007+ [Syscom] | digitizer = 130-01/3 [Reftek]
INSTRUMENT_ANALOG/DIGITAL: D
INSTRUMENTAL_FREQUENCY_HZ: 
INSTRUMENTAL_DAMPING: 
FULL_SCALE_G: 
N_BIT_DIGITAL_CONVERTER: 24
PGD_CM: 14.206279
TIME_PGD_S: 20.490000
BASELINE_CORRECTION: BASELINE REMOVED
FILTER_TYPE: BUTTERWORTH
FILTER_ORDER: 2
LOW_CUT_FREQUENCY_HZ: 0.070
HIGH_CUT_FREQUENCY_HZ: 40.000
LATE/NORMAL_TRIGGERED: NT
DATABASE_VERSION: DYNA 1.0
HEADER_FORMAT: DYNA 1.2
DATA_TYPE: DISPLACEMENT RESPONSE SPECTRUM
PROCESSING: manual (Paolucci et al., 2011)
DATA_TIMESTAMP_YYYYMMDD_HHMMSS: 20141204_104205.354
DATA_LICENSE: CC-BY3_0-IT (http://creativecommons.org/licenses/by/3.0/deed.en)
DATA_CITATION: ESM working group (2015), European Strong-Motion database, version 0.1, Network Activity 3: Networking acceleration networks and SM data users. Project NERA (www.nera-eu.org)
DATA_CREATOR: ESM working group
ORIGINAL_DATA_MEDIATOR_CITATION: Ufficio Rischio Sismico e Vulcanico del Dipartimento della Protezione Civile (http://www.protezionecivile.gov.it/)
ORIGINAL_DATA_MEDIATOR: Rete Accelerometrica Nazionale - RAN Download (http://www.mot1.it/randownload/)
ORIGINAL_DATA_CREATOR_CITATION: Italian Strong Motion Network, Italian Civil Protection Department http://www.protezionecivile.gov.it
ORIGINAL_DATA_CREATOR: network: IT (Italian Strong Motion Network); owner: Dipartimento Della Protezione Civile
USER1: /home/dyna/processing-itaca/processing.py /var/www/processing/tmp/fpacor//IT.MRN..HNE.D.20120529.070003.X.ACC.ASC /var/www/processing/tmp/fpacor//IT.MRN..HNN.D.20120529.070003.X.ACC.ASC /var/www/processing/tmp/fpacor//IT.MRN..HNZ.D.20120529.070003.X.ACC.ASC --tmp /var/www/processing/tmp/fpacor/ --le 0.070 --he 40.000 --ln 0.070 --hn 40.000 --lz 0.070 --hz 40.000 --fo 2 --ca -15 --cz 100 --ta 5 --tz 5 --mf 1 --rf 0 --tr NT
USER2: 
USER3: 
USER4: 
USER5: 
    0.010000     0.000733
    0.020000     0.002968
    0.022000     0.003605
    0.025000     0.004750
    0.029000     0.006353
    0.030000     0.007025
    0.032000     0.008109
    0.035001     0.009306
    0.036000     0.010371
    0.040000     0.013996
    0.041999     0.014948
    0.044001     0.016657
    0.045000     0.017723
    0.046000     0.018746
    0.048001     0.019756
    0.050000     0.022323
    0.054999     0.027650
    0.059999     0.036191
    0.064998     0.046533
    0.067002     0.049592
    0.069999     0.048754
    0.075002     0.057704
    0.080000     0.059533
    0.084998     0.071635
    0.090001     0.098835
    0.095003     0.110378
    0.100000     0.120763
    0.109999     0.160164
    0.120005     0.187164
    0.130005     0.242604
    0.132996     0.252134
    0.139997     0.274912
    0.149993     0.332416
    0.160000     0.466016
    0.170010     0.547917
    0.179986     0.649915
    0.190006     0.760084
    0.200000     0.903882
    0.220022     0.843341
    0.239981     1.081727
    0.250000     1.310353
    0.260010     1.570354
    0.280034     1.750277
    0.290023     1.639215
    0.300030     1.585287
    0.320000     1.769267
    0.340020     1.701418
    0.350017     1.680146
    0.359971     1.739525
    0.379939     2.130750
    0.400000     2.564045
    0.419992     2.624259
    0.439947     2.613821
    0.450045     2.596407
    0.459982     2.989575
    0.480077     3.586922
    0.500000     3.632689
    0.550055     4.969082
    0.599880     7.687526
    0.650195     8.658317
    0.667111     8.494672
    0.699790     7.902264
    0.750188     6.310168
    0.800000     5.901488
    0.850340     6.555057
    0.900090     7.501884
    0.949668     8.424689
    1.000000     9.364445
    1.100110    11.739117
    1.200480    14.756685
    1.300390    17.823008
    1.400560    20.297506
    1.499250    23.452478
    1.600000    26.603966
    1.700680    28.936277
    1.798561    30.844707
    1.901141    32.929470
    2.000000    34.043495
    2.197802    34.821884
    2.398082    37.311565
    2.500000    37.291920
    2.597403    36.481815
    2.801121    34.687206
    3.003003    33.979496
    3.205128    33.265007
    3.401361    32.167339
    3.496503    31.421261
    3.597122    30.573854
    3.802281    29.394718
    4.000000    30.064175
    4.201681    30.493889
    4.405286    30.729321
    4.608295    30.798290
    4.807692    30.697891
    5.000000    30.430582
    5.494505    29.289080
    5.988024    27.946629
    6.493506    26.546825
    6.993007    25.114758
    7.518797    23.807043
    8.000000    22.735540
    8.474576    21.892069
    9.009009    21.197803
    9.523809    20.576517
   10.000000    19.982010
