EVENT_NAME: EMILIA_2ND_SHOCK
EVENT_ID: IT-2012-0011
EVENT_DATE_YYYYMMDD: 20120529
EVENT_TIME_HHMMSS: 070002
EVENT_LATITUDE_DEGREE: 44.8417
EVENT_LONGITUDE_DEGREE: 11.0657
EVENT_DEPTH_KM: 8.1
HYPOCENTER_REFERENCE: INGV-CNT_Seismic_Bulletin
MAGNITUDE_W: 6.0
MAGNITUDE_W_REFERENCE: RCMT-INGV
MAGNITUDE_L: 5.8
MAGNITUDE_L_REFERENCE: INGV-CNT_Seismic_Bulletin
FOCAL_MECHANISM: TF
NETWORK: IT
STATION_CODE: MOG0
STATION_NAME: MOGLIA
STATION_LATITUDE_DEGREE: 44.932000
STATION_LONGITUDE_DEGREE: 10.912000
STATION_ELEVATION_M: 92
LOCATION: 
SENSOR_DEPTH_M: 0.0
VS30_M/S: 
SITE_CLASSIFICATION_EC8: C*
MORPHOLOGIC_CLASSIFICATION: 
EPICENTRAL_DISTANCE_KM: 15.8
EARTHQUAKE_BACKAZIMUTH_DEGREE: 129.5
DATE_TIME_FIRST_SAMPLE_YYYYMMDD_HHMMSS: 20120529_065953.000
DATE_TIME_FIRST_SAMPLE_PRECISION: seconds
SAMPLING_INTERVAL_S: 0.005000
NDATA: 23000
DURATION_S: 115.000
STREAM: HNZ
UNITS: cm
INSTRUMENT: sensor = Episensor FBA ES-T [Kinemetrics] | digitizer = Etna [Kinemetrics]
INSTRUMENT_ANALOG/DIGITAL: D
INSTRUMENTAL_FREQUENCY_HZ: 
INSTRUMENTAL_DAMPING: 
FULL_SCALE_G: 
N_BIT_DIGITAL_CONVERTER: 18
PGD_CM: 1.610401
TIME_PGD_S: 28.030000
BASELINE_CORRECTION: BASELINE REMOVED
FILTER_TYPE: BUTTERWORTH
FILTER_ORDER: 2
LOW_CUT_FREQUENCY_HZ: 0.080
HIGH_CUT_FREQUENCY_HZ: 40.000
LATE/NORMAL_TRIGGERED: NT
DATABASE_VERSION: DYNA 1.0
HEADER_FORMAT: DYNA 1.2
DATA_TYPE: DISPLACEMENT
PROCESSING: manual (Paolucci et al., 2011)
DATA_TIMESTAMP_YYYYMMDD_HHMMSS: 20141204_103647.358
DATA_LICENSE: CC-BY3_0-IT (http://creativecommons.org/licenses/by/3.0/deed.en)
DATA_CITATION: ESM working group (2015), European Strong-Motion database, version 0.1, Network Activity 3: Networking acceleration networks and SM data users. Project NERA (www.nera-eu.org)
DATA_CREATOR: ESM working group
ORIGINAL_DATA_MEDIATOR_CITATION: Ufficio Rischio Sismico e Vulcanico del Dipartimento della Protezione Civile (http://www.protezionecivile.gov.it/)
ORIGINAL_DATA_MEDIATOR: Rete Accelerometrica Nazionale - RAN Download (http://www.mot1.it/randownload/)
ORIGINAL_DATA_CREATOR_CITATION: Italian Strong Motion Network, Italian Civil Protection Department http://www.protezionecivile.gov.it
ORIGINAL_DATA_CREATOR: network: IT (Italian Strong Motion Network); owner: Dipartimento Della Protezione Civile
USER1: /home/dyna/processing-itaca/processing.py /var/www/processing/tmp/fpacor//IT.MOG0..HNE.D.20120529.070003.X.ACC.ASC /var/www/processing/tmp/fpacor//IT.MOG0..HNN.D.20120529.070003.X.ACC.ASC /var/www/processing/tmp/fpacor//IT.MOG0..HNZ.D.20120529.070003.X.ACC.ASC --tmp /var/www/processing/tmp/fpacor/ --le 0.080 --he 40.000 --ln 0.080 --hn 40.000 --lz 0.080 --hz 40.000 --fo 2 --ca -10 --cz 30 --ta 5 --tz 5 --mf 1 --rf 0 --tr NT
USER2: 
USER3: 
USER4: 
USER5: 
[...]
-9.876666e-02
-9.626994e-02
-9.344733e-02
-9.043701e-02
-8.736641e-02
-8.435810e-02
-8.154745e-02
-7.909711e-02
-7.718622e-02
-7.597806e-02
-7.559112e-02
-7.608655e-02
-7.747286e-02
-7.971633e-02
-8.273611e-02
-8.637868e-02
-9.039463e-02
-9.445558e-02
-9.822645e-02
-1.014592e-01
-1.040533e-01
-1.060517e-01
-1.075893e-01
-1.088438e-01
-1.100036e-01
-1.112393e-01
-1.126948e-01
-1.145074e-01
-1.168170e-01
-1.197360e-01
-1.233046e-01
-1.274799e-01
-1.321731e-01
-1.373014e-01
-1.428305e-01
-1.487877e-01
-1.552181e-01
-1.621051e-01
-1.693341e-01
-1.767349e-01
-1.841549e-01
-1.915022e-01
-1.987554e-01
-2.059622e-01
-2.132243e-01
-2.206662e-01
-2.283944e-01
-2.364686e-01
-2.448984e-01
-2.536520e-01
-2.626650e-01
-2.718579e-01
-2.811659e-01
-2.905463e-01
-2.999487e-01
-3.092832e-01
-3.184203e-01
-3.272245e-01
-3.356098e-01
-3.435734e-01
-3.511629e-01
-3.584022e-01
-3.652483e-01
-3.715979e-01
-3.773143e-01
-3.822416e-01
-3.862076e-01
-3.890385e-01
-3.905991e-01
-3.908395e-01
-3.897987e-01
-3.875506e-01
-3.841364e-01
-3.795397e-01
-3.737242e-01
-3.667039e-01
-3.585859e-01
-3.495459e-01
-3.397661e-01
-3.293971e-01
-3.185584e-01
-3.073549e-01
-2.958941e-01
-2.842944e-01
-2.726739e-01
-2.611297e-01
-2.497334e-01
-2.385550e-01
-2.276963e-01
-2.172977e-01
-2.075095e-01
-1.984471e-01
-1.901617e-01
-1.826433e-01
-1.758451e-01
-1.697166e-01
-1.642337e-01
-1.594120e-01
-1.552971e-01
-1.519401e-01
-1.493724e-01
-1.475992e-01
-1.466199e-01
-1.464583e-01
-1.471740e-01
-1.488402e-01
-1.514947e-01
-1.551008e-01
-1.595506e-01
-1.647041e-01
-1.704274e-01
-1.766074e-01
-1.831419e-01
-1.899384e-01
-1.969341e-01
-2.040963e-01
-2.113912e-01
-2.187481e-01
-2.260464e-01
-2.331383e-01
-2.398970e-01
-2.462449e-01
-2.521381e-01
-2.575330e-01
-2.623707e-01
-2.665865e-01
-2.701298e-01
-2.729722e-01
-2.751081e-01
-2.765581e-01
-2.773788e-01
-2.776618e-01
-2.775145e-01
-2.770336e-01
-2.762934e-01
-2.753553e-01
-2.742727e-01
-2.730659e-01
-2.716905e-01
-2.700555e-01
-2.680970e-01
-2.658399e-01
-2.634060e-01
-2.609703e-01
-2.586866e-01
-2.566252e-01
-2.547667e-01
-2.530425e-01
-2.513637e-01
-2.496228e-01
-2.477045e-01
-2.455270e-01
-2.430723e-01
-2.403774e-01
-2.375114e-01
-2.345628e-01
-2.316113e-01
-2.286763e-01
-2.256925e-01
-2.225528e-01
-2.191727e-01
-2.155097e-01
-2.115403e-01
-2.072530e-01
-2.026835e-01
-1.979699e-01
-1.933682e-01
-1.891770e-01
-1.856002e-01
-1.826604e-01
-1.802136e-01
-1.780148e-01
-1.757769e-01
-1.732150e-01
-1.700884e-01
-1.662464e-01
-1.616636e-01
-1.564282e-01
-1.506822e-01
-1.445642e-01
-1.382036e-01
-1.317507e-01
-1.253893e-01
-1.192958e-01
-1.135581e-01
-1.081189e-01
-1.028098e-01
-9.746558e-02
-9.202210e-02
-8.652125e-02
-8.103579e-02
-7.559577e-02
-7.018389e-02
-6.479225e-02
-5.946991e-02
-5.431519e-02
-4.944827e-02
-4.500626e-02
-4.114483e-02
-3.802486e-02
-3.578374e-02
-3.448977e-02
-3.409693e-02
-3.444096e-02
-3.529081e-02
-3.641711e-02
-3.762543e-02
-3.875814e-02
-3.972036e-02
-4.053038e-02
-4.132120e-02
-4.227006e-02
-4.352498e-02
-4.518356e-02
-4.730346e-02
-4.990371e-02
-5.295177e-02
-5.635651e-02
-5.997845e-02
-6.365176e-02
-6.720273e-02
-7.045684e-02
-7.324528e-02
-7.542094e-02
-7.687310e-02
-7.752030e-02
-7.727901e-02
-7.604141e-02
-7.369436e-02
-7.016633e-02
-6.546054e-02
-5.966033e-02
-5.292722e-02
-4.548823e-02
-3.758557e-02
-2.941284e-02
-2.109213e-02
-1.269071e-02
-4.230476e-03
4.319775e-03
1.303327e-02
2.198363e-02
3.120458e-02
4.067891e-02
5.035498e-02
6.016975e-02
7.005956e-02
7.995538e-02
8.977428e-02
9.942373e-02
1.088185e-01
1.178909e-01
1.265874e-01
1.348666e-01
1.427043e-01
1.500974e-01
1.570625e-01
1.636350e-01
1.698705e-01
1.758369e-01
1.816066e-01
1.872623e-01
1.929127e-01
1.986903e-01
2.047024e-01
2.109606e-01
2.173589e-01
2.237327e-01
2.299379e-01
2.358955e-01
2.416035e-01
2.471298e-01
2.525879e-01
2.581100e-01
2.638318e-01
2.698662e-01
2.762619e-01
2.829924e-01
2.899800e-01
2.971304e-01
3.043795e-01
3.117271e-01
3.192070e-01
3.268052e-01
3.344018e-01
3.417932e-01
3.487806e-01
3.552489e-01
3.611834e-01
3.666353e-01
3.716740e-01
3.763531e-01
3.806994e-01
3.847349e-01
3.885116e-01
3.921202e-01
3.956612e-01
3.992110e-01
4.028124e-01
4.064862e-01
4.102625e-01
4.142197e-01
4.184695e-01
4.230709e-01
4.279504e-01
4.329482e-01
4.379913e-01
4.431556e-01
4.484687e-01
4.537384e-01
4.586854e-01
4.632034e-01
4.674328e-01
4.715757e-01
4.756344e-01
4.793963e-01
4.827226e-01
4.857357e-01
4.886563e-01
4.915778e-01
4.944863e-01
4.974082e-01
5.004329e-01
5.036262e-01
5.069958e-01
5.105305e-01
5.142419e-01
5.181779e-01
5.223994e-01
5.269206e-01
5.317061e-01
5.367871e-01
5.422900e-01
5.482423e-01
5.545099e-01
5.610169e-01
5.678028e-01
5.748164e-01
5.818883e-01
5.888912e-01
5.957740e-01
6.025080e-01
6.090865e-01
6.155287e-01
6.218524e-01
6.280512e-01
6.340960e-01
6.399452e-01
6.455595e-01
6.509202e-01
6.560372e-01
6.609213e-01
6.655422e-01
6.698261e-01
6.737026e-01
6.771436e-01
6.801538e-01
6.827378e-01
6.848774e-01
6.865284e-01
6.876412e-01
6.881999e-01
6.882498e-01
6.878845e-01
6.872103e-01
6.863472e-01
6.854351e-01
6.845746e-01
6.837957e-01
6.831212e-01
6.826174e-01
6.823517e-01
6.823245e-01
6.824877e-01
6.828294e-01
6.833512e-01
6.839735e-01
6.845618e-01
6.850129e-01
6.852631e-01
6.852613e-01
6.849546e-01
6.842931e-01
6.832481e-01
6.818227e-01
6.800608e-01
6.780422e-01
6.758413e-01
6.734875e-01
6.709865e-01
6.683757e-01
6.657262e-01
6.630919e-01
6.604787e-01
6.578434e-01
6.551132e-01
6.522592e-01
6.493359e-01
6.463915e-01
6.433866e-01
6.402553e-01
6.369866e-01
6.336116e-01
6.301573e-01
6.266384e-01
6.230573e-01
6.193949e-01
6.156130e-01
6.116681e-01
6.075223e-01
6.031528e-01
5.985597e-01
5.937844e-01
5.889194e-01
5.840825e-01
5.793643e-01
5.747896e-01
5.703158e-01
5.658626e-01
5.613500e-01
5.567189e-01
5.519206e-01
5.468945e-01
5.415679e-01
5.358805e-01
5.298092e-01
5.233668e-01
5.165854e-01
5.095011e-01
5.021455e-01
4.945451e-01
4.867289e-01
4.787320e-01
4.705834e-01
4.622907e-01
4.538455e-01
4.452343e-01
4.364373e-01
4.274500e-01
4.183332e-01
4.092159e-01
4.002270e-01
3.914497e-01
3.829440e-01
3.747651e-01
3.669341e-01
3.594082e-01
3.520997e-01
3.449240e-01
3.378264e-01
3.307692e-01
3.237088e-01
3.165881e-01
3.093455e-01
3.019303e-01
2.943131e-01
2.864809e-01
2.784189e-01
2.700960e-01
2.614625e-01
2.524510e-01
2.429832e-01
2.329916e-01
2.224391e-01
2.113155e-01
1.996266e-01
1.873880e-01
1.746243e-01
1.613702e-01
1.476720e-01
1.335887e-01
1.191895e-01
1.045386e-01
8.968159e-02
7.465579e-02
5.950765e-02
4.427083e-02
2.894290e-02
1.353735e-02
-1.846321e-03
-1.703131e-02
-3.184976e-02
-4.623684e-02
-6.024354e-02
-7.396949e-02
-8.750488e-02
-1.009140e-01
-1.142339e-01
-1.274837e-01
-1.406944e-01
-1.539273e-01
-1.672431e-01
-1.806558e-01
-1.941298e-01
-2.076196e-01
-2.211086e-01
-2.346137e-01
-2.481575e-01
-2.617448e-01
-2.753593e-01
-2.889695e-01
-3.025412e-01
-3.160473e-01
-3.294653e-01
-3.427714e-01
-3.559434e-01
-3.689686e-01
-3.818490e-01
-3.946077e-01
-4.072926e-01
-4.199505e-01
-4.325715e-01
-4.450822e-01
-4.574229e-01
-4.696100e-01
-4.816974e-01
-4.936988e-01
-5.055731e-01
-5.172755e-01
-5.288013e-01
-5.401796e-01
-5.514468e-01
-5.626251e-01
-5.737113e-01
-5.846857e-01
-5.955381e-01
-6.062780e-01
-6.169213e-01
-6.274869e-01
-6.380098e-01
-6.485467e-01
-6.591594e-01
-6.698892e-01
-6.807399e-01
-6.916776e-01
-7.026426e-01
-7.135682e-01
-7.244028e-01
-7.351226e-01
-7.457361e-01
-7.562790e-01
-7.667965e-01
-7.773172e-01
-7.878405e-01
-7.983450e-01
-8.088024e-01
-8.191809e-01
-8.294404e-01
-8.395317e-01
-8.494107e-01
-8.590612e-01
-8.685207e-01
-8.778868e-01
-8.872828e-01
-8.968059e-01
-9.065032e-01
-9.163849e-01
-9.264437e-01
-9.366660e-01
-9.470332e-01
-9.575160e-01
-9.680681e-01
-9.786157e-01
-9.890487e-01
-9.992398e-01
-1.009080e+00
-1.018498e+00
-1.027462e+00
-1.035978e+00
-1.044094e+00
-1.051914e+00
-1.059577e+00
-1.067214e+00
-1.074924e+00
-1.082778e+00
-1.090826e+00
-1.099099e+00
-1.107596e+00
-1.116288e+00
-1.125121e+00
-1.134033e+00
-1.142961e+00
-1.151853e+00
-1.160685e+00
-1.169460e+00
-1.178191e+00
-1.186880e+00
-1.195515e+00
-1.204082e+00
-1.212575e+00
-1.220984e+00
-1.229292e+00
-1.237472e+00
-1.245492e+00
-1.253324e+00
-1.260945e+00
-1.268349e+00
-1.275558e+00
-1.282611e+00
-1.289550e+00
-1.296403e+00
-1.303183e+00
-1.309872e+00
-1.316421e+00
-1.322760e+00
-1.328818e+00
-1.334535e+00
-1.339867e+00
-1.344781e+00
-1.349248e+00
-1.353245e+00
-1.356765e+00
-1.359825e+00
-1.362464e+00
-1.364725e+00
-1.366642e+00
-1.368227e+00
-1.369480e+00
-1.370404e+00
-1.371022e+00
-1.371361e+00
-1.371435e+00
-1.371251e+00
-1.370825e+00
-1.370192e+00
-1.369397e+00
-1.368501e+00
-1.367561e+00
-1.366609e+00
-1.365647e+00
-1.364653e+00
-1.363594e+00
-1.362429e+00
-1.361120e+00
-1.359638e+00
-1.357963e+00
-1.356092e+00
-1.354029e+00
-1.351780e+00
-1.349355e+00
-1.346780e+00
-1.344097e+00
-1.341354e+00
-1.338596e+00
-1.335871e+00
-1.333221e+00
-1.330682e+00
-1.328270e+00
-1.325980e+00
-1.323790e+00
-1.321673e+00
-1.319607e+00
-1.317582e+00
-1.315607e+00
-1.313695e+00
-1.311837e+00
-1.310003e+00
-1.308147e+00
-1.306222e+00
-1.304176e+00
-1.301958e+00
-1.299516e+00
-1.296814e+00
-1.293825e+00
-1.290536e+00
-1.286944e+00
-1.283054e+00
-1.278872e+00
-1.274385e+00
-1.269554e+00
-1.264317e+00
-1.258603e+00
-1.252360e+00
-1.245568e+00
-1.238234e+00
-1.230369e+00
-1.221980e+00
-1.213066e+00
-1.203627e+00
-1.193652e+00
-1.183135e+00
-1.172073e+00
-1.160479e+00
-1.148378e+00
-1.135803e+00
-1.122790e+00
-1.109374e+00
-1.095582e+00
-1.081438e+00
-1.066965e+00
-1.052189e+00
-1.037129e+00
-1.021802e+00
-1.006235e+00
-9.904596e-01
-9.745153e-01
-9.584475e-01
-9.423007e-01
-9.261062e-01
-9.098778e-01
-8.936281e-01
-8.773826e-01
-8.611609e-01
-8.449648e-01
-8.288065e-01
-8.127257e-01
-7.967863e-01
-7.810569e-01
-7.655830e-01
-7.503832e-01
-7.354772e-01
-7.209022e-01
-7.066828e-01
-6.927987e-01
-6.791889e-01
-6.657605e-01
-6.524075e-01
-6.390386e-01
-6.255862e-01
-6.120021e-01
-5.982502e-01
-5.843006e-01
-5.701498e-01
-5.558383e-01
-5.414281e-01
-5.269772e-01
-5.125424e-01
-4.981850e-01
-4.839624e-01
-4.699115e-01
-4.560297e-01
-4.422684e-01
-4.285567e-01
-4.148332e-01
-4.010616e-01
-3.872226e-01
-3.732897e-01
-3.592089e-01
-3.449051e-01
-3.303141e-01
-3.154092e-01
-3.002031e-01
-2.847304e-01
-2.690349e-01
-2.531650e-01
-2.371665e-01
-2.210695e-01
-2.048756e-01
-1.885561e-01
-1.720619e-01
-1.553397e-01
-1.383473e-01
-1.210718e-01
-1.035472e-01
-8.585694e-02
-6.810946e-02
-5.040011e-02
-3.278430e-02
-1.527878e-02
2.124947e-03
1.945872e-02
3.677104e-02
5.409507e-02
7.142590e-02
8.873278e-02
1.059839e-01
1.231968e-01
1.404708e-01
1.578961e-01
1.754612e-01
1.931257e-01
2.108950e-01
2.287816e-01
2.467987e-01
2.649574e-01
2.832138e-01
3.015163e-01
3.198823e-01
3.383488e-01
3.569045e-01
3.755230e-01
3.942197e-01
4.130290e-01
4.319580e-01
4.509901e-01
4.701075e-01
4.892999e-01
5.085603e-01
5.278697e-01
5.471950e-01
5.665080e-01
5.857973e-01
6.050511e-01
6.242480e-01
6.433756e-01
6.624432e-01
6.814652e-01
7.004396e-01
7.193425e-01
7.381338e-01
7.567726e-01
7.752310e-01
7.934981e-01
8.115789e-01
8.294913e-01
8.472603e-01
8.649097e-01
8.824539e-01
8.998913e-01
9.172019e-01
9.343509e-01
9.513013e-01
9.680234e-01
9.844968e-01
1.000713e+00
1.016678e+00
1.032399e+00
1.047876e+00
1.063098e+00
1.078049e+00
1.092718e+00
1.107091e+00
1.121159e+00
1.134921e+00
1.148384e+00
1.161565e+00
1.174486e+00
1.187174e+00
1.199652e+00
1.211946e+00
1.224061e+00
1.235986e+00
1.247704e+00
1.259210e+00
1.270499e+00
1.281571e+00
1.292426e+00
1.303069e+00
1.313508e+00
1.323758e+00
1.333835e+00
1.343744e+00
1.353475e+00
1.363017e+00
1.372365e+00
1.381519e+00
1.390490e+00
1.399295e+00
1.407958e+00
1.416496e+00
1.424917e+00
1.433224e+00
1.441422e+00
1.449509e+00
1.457480e+00
1.465321e+00
1.473014e+00
1.480540e+00
1.487883e+00
1.495025e+00
1.501955e+00
1.508673e+00
1.515183e+00
1.521486e+00
1.527568e+00
1.533410e+00
1.539000e+00
1.544341e+00
1.549449e+00
1.554346e+00
1.559050e+00
1.563575e+00
1.567925e+00
1.572107e+00
1.576125e+00
1.579983e+00
1.583683e+00
1.587222e+00
1.590597e+00
1.593801e+00
1.596812e+00
1.599588e+00
1.602067e+00
1.604228e+00
1.606091e+00
1.607653e+00
1.608873e+00
1.609728e+00
1.610230e+00
1.610401e+00
1.610262e+00
1.609828e+00
1.609106e+00
1.608088e+00
1.606765e+00
1.605134e+00
1.603200e+00
1.600969e+00
1.598462e+00
1.595715e+00
1.592762e+00
1.589619e+00
1.586283e+00
1.582734e+00
1.578945e+00
1.574891e+00
1.570553e+00
1.565928e+00
1.561025e+00
1.555861e+00
1.550456e+00
1.544835e+00
1.539020e+00
1.533036e+00
1.526907e+00
1.520660e+00
1.514322e+00
1.507911e+00
1.501436e+00
1.494897e+00
1.488286e+00
1.481590e+00
1.474784e+00
1.467843e+00
1.460741e+00
1.453462e+00
1.445996e+00
1.438347e+00
1.430517e+00
1.422496e+00
1.414258e+00
1.405767e+00
1.396998e+00
1.387953e+00
1.378666e+00
1.369191e+00
1.359582e+00
1.349878e+00
1.340101e+00
1.330256e+00
1.320349e+00
1.310384e+00
1.300375e+00
1.290332e+00
1.280256e+00
1.270136e+00
1.259952e+00
1.249674e+00
1.239267e+00
1.228691e+00
1.217899e+00
1.206845e+00
1.195489e+00
1.183799e+00
1.171757e+00
1.159355e+00
1.146591e+00
1.133466e+00
1.119981e+00
1.106139e+00
1.091948e+00
1.077419e+00
1.062565e+00
1.047398e+00
1.031938e+00
1.016213e+00
1.000262e+00
9.841231e-01
9.678337e-01
9.514227e-01
9.349103e-01
9.183088e-01
9.016249e-01
8.848606e-01
8.680156e-01
8.510936e-01
8.341101e-01
8.170953e-01
8.000900e-01
7.831371e-01
7.662729e-01
7.495202e-01
7.328873e-01
7.163730e-01
6.999704e-01
6.836675e-01
6.674486e-01
6.512966e-01
6.351967e-01
6.191419e-01
6.031384e-01
5.872051e-01
5.713647e-01
5.556345e-01
5.400233e-01
5.245327e-01
5.091555e-01
4.938723e-01
4.786550e-01
4.634748e-01
4.483085e-01
4.331392e-01
4.179570e-01
4.027609e-01
3.875565e-01
3.723509e-01
3.571510e-01
3.419612e-01
3.267808e-01
3.116028e-01
2.964201e-01
2.812318e-01
2.660424e-01
2.508558e-01
2.356697e-01
2.204722e-01
2.052425e-01
1.899565e-01
1.745973e-01
1.591623e-01
1.436635e-01
1.281228e-01
1.125666e-01
9.701889e-02
8.149499e-02
6.600020e-02
5.053472e-02
3.510404e-02
1.972726e-02
4.434503e-03
-1.074485e-02
-2.579184e-02
-4.069836e-02
-5.546250e-02
-7.008689e-02
-8.457816e-02
-9.894351e-02
-1.131891e-01
-1.273232e-01
-1.413592e-01
-1.553125e-01
-1.691913e-01
-1.829879e-01
-1.966712e-01
-2.101872e-01
-2.234670e-01
-2.364433e-01
-2.490709e-01
-2.613387e-01
-2.732630e-01
-2.848684e-01
-2.961729e-01
-3.071835e-01
-3.178999e-01
-3.283199e-01
-3.384475e-01
-3.482973e-01
-3.578910e-01
-3.672515e-01
-3.763950e-01
-3.853316e-01
-3.940697e-01
-4.026230e-01
-4.110178e-01
-4.192952e-01
-4.275035e-01
-4.356866e-01
-4.438768e-01
-4.520941e-01
-4.603493e-01
-4.686419e-01
-4.769619e-01
-4.852993e-01
-4.936530e-01
-5.020292e-01
-5.104334e-01
-5.188618e-01
-5.273022e-01
-5.357367e-01
-5.441427e-01
-5.524953e-01
-5.607728e-01
-5.689627e-01
-5.770640e-01
-5.850881e-01
-5.930569e-01
-6.009960e-01
-6.089247e-01
-6.168483e-01
-6.247563e-01
-6.326308e-01
-6.404548e-01
-6.482140e-01
-6.558944e-01
-6.634799e-01
-6.709531e-01
-6.783005e-01
-6.855161e-01
-6.926006e-01
-6.995579e-01
-7.063931e-01
-7.131126e-01
-7.197231e-01
-7.262259e-01
-7.326122e-01
-7.388629e-01
-7.449545e-01
-7.508695e-01
-7.566030e-01
-7.621622e-01
-7.675608e-01
-7.728133e-01
-7.779312e-01
-7.829201e-01
-7.877781e-01
-7.924961e-01
-7.970597e-01
-8.014512e-01
-8.056496e-01
-8.096306e-01
-8.133681e-01
-8.168403e-01
-8.200333e-01
-8.229408e-01
-8.255619e-01
-8.279010e-01
-8.299668e-01
-8.317703e-01
-8.333246e-01
-8.346442e-01
-8.357417e-01
-8.366216e-01
-8.372769e-01
-8.376897e-01
-8.378377e-01
-8.377016e-01
-8.372675e-01
-8.365257e-01
-8.354687e-01
-8.340905e-01
-8.323879e-01
-8.303608e-01
-8.280115e-01
-8.253437e-01
-8.223624e-01
-8.190759e-01
-8.154957e-01
-8.116332e-01
-8.074957e-01
-8.030880e-01
-7.984165e-01
-7.934946e-01
-7.883468e-01
-7.830093e-01
-7.775274e-01
-7.719467e-01
-7.663012e-01
-7.606063e-01
-7.548595e-01
-7.490470e-01
-7.431545e-01
-7.371762e-01
-7.311188e-01
-7.249955e-01
-7.188208e-01
-7.126112e-01
-7.063890e-01
-7.001811e-01
-6.940144e-01
-6.879119e-01
-6.818898e-01
-6.759594e-01
-6.701320e-01
-6.644224e-01
-6.588463e-01
-6.534164e-01
-6.481401e-01
-6.430207e-01
-6.380559e-01
-6.332384e-01
-6.285598e-01
-6.240128e-01
-6.195904e-01
-6.152818e-01
-6.110731e-01
-6.069475e-01
-6.028838e-01
-5.988521e-01
-5.948119e-01
-5.907140e-01
-5.865043e-01
-5.821301e-01
-5.775487e-01
-5.727344e-01
-5.676795e-01
-5.623890e-01
-5.568717e-01
-5.511358e-01
-5.451906e-01
-5.390512e-01
-5.327400e-01
-5.262837e-01
-5.197067e-01
-5.130267e-01
-5.062573e-01
-4.994143e-01
-4.925183e-01
-4.855899e-01
-4.786441e-01
-4.716911e-01
-4.647382e-01
-4.577890e-01
-4.508427e-01
-4.438939e-01
-4.369373e-01
-4.299710e-01
-4.229968e-01
-4.160175e-01
-4.090337e-01
-4.020430e-01
-3.950413e-01
-3.880294e-01
-3.810199e-01
-3.740380e-01
-3.671147e-01
-3.602825e-01
-3.535740e-01
-3.470169e-01
-3.406236e-01
-3.343831e-01
-3.282636e-01
-3.222253e-01
-3.162357e-01
-3.102818e-01
-3.043709e-01
-2.985248e-01
-2.927694e-01
-2.871246e-01
-2.815996e-01
-2.761934e-01
-2.708993e-01
-2.657072e-01
-2.606042e-01
-2.555765e-01
-2.506101e-01
-2.456925e-01
-2.408148e-01
-2.359725e-01
-2.311668e-01
-2.264024e-01
-2.216841e-01
-2.170147e-01
-2.123957e-01
-2.078324e-01
-2.033411e-01
-1.989514e-01
-1.946988e-01
-1.906125e-01
-1.867050e-01
-1.829712e-01
-1.793954e-01
-1.759592e-01
-1.726441e-01
-1.694327e-01
-1.663098e-01
-1.632642e-01
-1.602893e-01
-1.573782e-01
-1.545168e-01
-1.516798e-01
