EVENT_NAME: EMILIA_2ND_SHOCK
EVENT_ID: IT-2012-0011
EVENT_DATE_YYYYMMDD: 20120529
EVENT_TIME_HHMMSS: 070002
EVENT_LATITUDE_DEGREE: 44.8417
EVENT_LONGITUDE_DEGREE: 11.0657
EVENT_DEPTH_KM: 8.1
HYPOCENTER_REFERENCE: INGV-CNT_Seismic_Bulletin
MAGNITUDE_W: 6.0
MAGNITUDE_W_REFERENCE: RCMT-INGV
MAGNITUDE_L: 5.8
MAGNITUDE_L_REFERENCE: INGV-CNT_Seismic_Bulletin
FOCAL_MECHANISM: TF
NETWORK: IT
STATION_CODE: MRN
STATION_NAME: MIRANDOLA (NAPOLI)
STATION_LATITUDE_DEGREE: 44.878231
STATION_LONGITUDE_DEGREE: 11.061743
STATION_ELEVATION_M: 15
LOCATION: 
SENSOR_DEPTH_M: 0.0
VS30_M/S: 208
SITE_CLASSIFICATION_EC8: C
MORPHOLOGIC_CLASSIFICATION: 
EPICENTRAL_DISTANCE_KM: 4.1
EARTHQUAKE_BACKAZIMUTH_DEGREE: 175.6
DATE_TIME_FIRST_SAMPLE_YYYYMMDD_HHMMSS: 20120529_070003.000
DATE_TIME_FIRST_SAMPLE_PRECISION: seconds
SAMPLING_INTERVAL_S: 0.005000
NDATA: 30713
DURATION_S: 153.565
STREAM: HNE
UNITS: cm/s^2
INSTRUMENT: sensor = MS2007+ [Syscom] | digitizer = 130-01/3 [Reftek]
INSTRUMENT_ANALOG/DIGITAL: D
INSTRUMENTAL_FREQUENCY_HZ: 
INSTRUMENTAL_DAMPING: 
FULL_SCALE_G: 
N_BIT_DIGITAL_CONVERTER: 24
PGA_CM/S^2: 219.753082
TIME_PGA_S: 5.515000
BASELINE_CORRECTION: BASELINE NOT REMOVED
FILTER_TYPE: 
FILTER_ORDER: 
LOW_CUT_FREQUENCY_HZ: 
HIGH_CUT_FREQUENCY_HZ: 
LATE/NORMAL_TRIGGERED: NT
DATABASE_VERSION: DYNA 1.0
HEADER_FORMAT: DYNA 1.2
DATA_TYPE: ACCELERATION
PROCESSING: converted to cm/s^2
DATA_TIMESTAMP_YYYYMMDD_HHMMSS: 
DATA_LICENSE: CC-BY3_0-IT (http://creativecommons.org/licenses/by/3.0/deed.en)
DATA_CITATION: ESM working group (2015), European Strong-Motion database, version 0.1, Network Activity 3: Networking acceleration networks and SM data users. Project NERA (www.nera-eu.org)
DATA_CREATOR: ESM working group
ORIGINAL_DATA_MEDIATOR_CITATION: Ufficio Rischio Sismico e Vulcanico del Dipartimento della Protezione Civile (http://www.protezionecivile.gov.it/)
ORIGINAL_DATA_MEDIATOR: Rete Accelerometrica Nazionale - RAN Download (http://www.mot1.it/randownload/)
ORIGINAL_DATA_CREATOR_CITATION: Italian Strong Motion Network, Italian Civil Protection Department http://www.protezionecivile.gov.it
ORIGINAL_DATA_CREATOR: network: IT (Italian Strong Motion Network); owner: Dipartimento Della Protezione Civile
USER1: 
USER2: 
USER3: 
USER4: 
USER5: 
-0.759951
-0.820710
-0.745004
-0.676463
-0.754982
-0.831009
-0.745021
-0.667132
-0.749391
-0.814512
-0.716996
-0.661851
-0.762493
-0.823253
-0.758139
-0.703308
-0.783074
-0.849753
-0.761895
-0.678399
-0.742897
-0.805215
-0.716422
-0.671561
-0.754754
-0.807102
-0.741054
-0.670955
-0.745113
-0.799641
-0.736709
-0.682500
-0.746999
-0.833619
-0.761963
-0.685944
-0.763217
-0.834570
-0.750763
-0.677860
-0.763546
-0.825240
-0.737071
-0.671957
-0.749542
-0.808121
-0.732415
-0.660446
-0.745820
-0.819354
-0.732119
-0.678533
-0.762038
-0.830588
-0.745845
-0.671384
-0.758628
-0.810040
-0.728102
-0.668597
-0.740574
-0.811927
-0.722823
-0.666121
-0.764269
-0.819421
-0.748700
-0.679535
-0.757432
-0.832836
-0.736253
-0.671140
-0.758071
-0.810419
-0.732843
-0.676765
-0.749053
-0.817914
-0.745323
-0.680521
-0.764025
-0.821046
-0.753129
-0.696740
-0.761861
-0.837887
-0.753768
-0.679619
-0.765617
-0.808618
-0.726990
-0.672471
-0.741331
-0.810503
-0.744455
-0.683392
-0.766585
-0.832954
-0.751950
-0.685589
-0.753827
-0.825804
-0.741995
-0.661928
-0.757895
-0.812424
-0.725811
-0.672538
-0.745138
-0.817113
-0.733306
-0.672555
-0.766340
-0.817442
-0.732700
-0.668209
-0.752960
-0.819639
-0.736455
-0.683181
-0.750172
-0.809687
-0.743950
-0.669178
-0.748944
-0.825905
-0.744589
-0.686641
-0.765162
-0.824053
-0.755824
-0.689151
-0.770163
-0.832481
-0.747116
-0.676705
-0.738711
-0.810688
-0.734670
-0.667687
-0.753373
-0.817559
-0.741853
-0.665523
-0.749338
-0.827547
-0.732835
-0.677690
-0.766491
-0.816971
-0.743444
-0.676773
-0.749684
-0.815429
-0.734737
-0.678348
-0.749701
-0.807969
-0.740050
-0.662785
-0.743175
-0.824187
-0.736952
-0.686170
-0.768429
-0.823268
-0.767813
-0.689302
-0.755047
-0.830452
-0.735427
-0.674053
-0.758181
-0.817071
-0.739807
-0.668773
-0.753212
-0.823008
-0.741381
-0.681252
-0.770365
-0.835488
-0.751057
-0.683450
-0.740783
-0.813071
-0.739545
-0.657295
-0.745162
-0.806857
-0.742365
-0.673202
-0.736766
-0.815597
-0.730854
-0.668234
-0.750803
-0.827454
-0.746138
-0.673235
-0.762348
-0.810645
-0.729019
-0.672318
-0.749591
-0.820945
-0.747106
-0.677320
-0.753347
-0.823765
-0.739334
-0.668302
-0.757415
-0.818796
-0.738417
-0.684520
-0.755249
-0.827538
-0.758997
-0.691079
-0.764925
-0.829424
-0.754964
-0.677387
-0.764319
-0.825391
-0.734728
-0.676470
-0.741903
-0.813568
-0.745650
-0.677733
-0.755316
-0.824490
-0.749406
-0.676503
-0.748791
-0.817028
-0.752538
-0.677454
-0.746627
-0.815176
-0.723891
-0.658777
-0.745709
-0.811766
-0.734812
-0.674683
-0.755073
-0.823621
-0.748227
-0.679686
-0.767864
-0.835166
-0.746374
-0.689362
-0.769438
-0.819605
-0.742963
-0.673487
-0.739856
-0.810587
-0.726778
-0.660730
-0.750467
-0.813719
-0.738635
-0.679753
-0.758272
-0.829625
-0.754854
-0.683509
-0.758601
-0.826215
-0.746770
-0.678228
-0.754879
-0.816262
-0.742113
-0.684789
-0.763931
-0.825626
-0.743688
-0.685116
-0.753044
-0.816296
-0.745262
-0.664570
-0.754617
-0.819116
-0.736867
-0.680788
-0.748404
-0.826611
-0.746854
-0.685479
-0.764310
-0.810738
-0.752478
-0.674279
-0.749684
-0.836304
-0.744082
-0.684578
-0.759982
-0.823234
-0.743789
-0.671820
-0.763736
-0.808918
-0.730097
-0.676823
-0.734777
-0.809559
-0.738525
-0.665622
-0.750373
-0.816118
-0.737295
-0.676544
-0.749768
-0.813332
-0.747283
-0.682169
-0.755392
-0.831107
-0.744807
-0.662245
-0.757278
-0.827697
-0.734231
-0.676595
-0.759476
-0.819301
-0.748891
-0.685335
-0.750769
-0.818695
-0.739872
-0.671020
-0.756394
-0.816219
-0.738332
-0.677268
-0.758592
-0.826518
-0.744891
-0.678843
-0.751754
-0.821550
-0.742103
-0.674498
-0.759560
-0.817828
-0.743991
-0.683862
-0.763004
-0.826880
-0.739956
-0.683567
-0.753363
-0.821911
-0.761472
-0.678598
-0.764596
-0.830341
-0.744351
-0.684223
-0.744360
-0.819764
-0.737514
-0.663676
-0.753413
-0.806384
-0.739711
-0.681453
-0.762465
-0.830079
-0.743467
-0.686456
-0.749708
-0.813894
-0.749716
-0.671828
-0.750971
-0.827620
-0.743189
-0.678388
-0.770927
-0.833869
-0.741025
-0.668434
-0.729818
-0.746023
-0.610807
-0.465620
-0.463444
-0.547259
-0.602411
-0.558173
-0.489632
-0.656326
-0.851684
-0.798097
-0.547289
-0.444163
-0.693424
-0.707447
-0.449474
-0.111115
0.193908
0.114453
-0.029495
-0.213637
-0.878217
-2.603065
-4.162782
-2.967609
0.020019
1.470367
0.945993
1.259737
1.460695
-1.680233
-5.426226
-5.701033
-2.132332
1.978191
2.563935
0.399464
-0.968950
-0.169157
1.197065
0.458644
-2.762356
-5.275161
-4.633958
-2.986387
-0.864297
4.494368
7.693550
2.636476
-3.650672
-5.091993
-3.915514
-2.341162
-1.468462
1.156188
6.452850
5.986116
-3.030684
-9.275459
-6.100266
0.306203
2.104573
-0.716374
-1.415538
1.760589
3.402552
0.916541
-2.256478
-2.851267
-2.615102
-2.508549
-1.176599
1.759932
4.461540
2.069312
-3.218012
-4.845028
-5.233558
-8.001226
-9.162447
-2.918615
6.091944
7.650095
3.321156
-0.226680
-0.015752
1.078785
-2.431352
-5.269123
-2.627337
2.633494
6.935941
5.712719
1.099631
-2.757905
-4.456582
-2.999380
-0.380961
3.732987
6.455781
1.656374
-6.013204
-9.588769
-8.125649
-3.757771
-2.614319
-2.378778
5.111018
12.411377
9.275435
1.287746
-4.394334
-5.501032
-2.886041
-2.794755
-3.576796
-1.438816
-1.270574
-1.868790
-0.347403
-1.294577
-4.562936
-7.054866
-7.329986
-3.668436
-0.058917
0.940279
1.013494
-0.482352
-3.085823
-6.035446
-7.180778
-1.814948
7.488799
11.442290
6.434132
-3.670979
-11.056404
-10.557900
-5.948868
-2.429082
2.315480
12.328668
19.135817
12.464816
-2.722913
-16.051825
-19.508059
-11.285142
2.213875
11.310740
11.926084
6.618820
-1.632145
-4.271446
0.315151
3.176593
3.036383
3.201199
1.955854
-3.743985
-5.036065
4.337784
9.006012
-2.376529
-13.542842
-10.009346
-2.332298
0.539738
0.892118
4.369842
7.937610
0.693636
-14.973598
-22.780888
-6.728878
16.614153
18.737179
3.925824
-7.700987
-5.194421
-5.184768
-18.522091
-24.109144
-9.448285
15.773814
31.344763
25.422775
7.683298
-3.784923
-3.534426
-1.945431
-5.141195
-6.813388
-1.857269
8.644770
18.884157
22.344124
16.815334
2.060374
-10.624211
-15.799683
-19.233173
-17.841091
-12.158081
-4.457979
-1.065001
-7.433156
-12.341301
-10.410826
-6.857079
-1.915292
3.057027
5.461710
2.155650
-7.467463
-13.687933
-13.708502
-8.815945
0.589685
8.298201
9.068705
0.236042
-7.449114
-7.557854
-8.091266
-4.534712
1.635587
-0.306113
-1.295035
-1.371996
-6.629722
-4.794275
3.059119
11.035583
18.982138
21.841400
17.923731
8.914719
0.953513
-1.484203
3.364423
12.665677
16.074547
9.760603
-3.183208
-12.314978
-3.474533
12.222914
13.992931
8.971062
7.429729
8.248838
4.635262
-7.304365
-8.780580
4.280372
15.361930
15.735186
-1.493942
-24.949144
-35.813236
-28.490444
-9.173814
5.754058
8.317951
0.086928
-6.891278
-2.373849
3.389854
3.013164
1.506726
3.637850
0.331791
-11.996049
-14.730379
-7.131848
1.066454
7.778260
10.802653
18.448542
22.359661
10.139310
-12.255936
-29.706589
-24.308353
-11.878637
-7.188599
-5.836085
-0.196073
13.895237
8.981795
-9.609510
-14.925498
-17.148855
-10.823391
5.200890
18.074591
38.916031
45.592010
19.051968
-6.785489
-16.641344
-18.361517
-15.271074
-4.570875
8.655208
27.881168
41.433777
18.692692
-8.649954
-20.703611
-24.829098
-0.066873
34.224052
39.137798
13.212792
-14.981368
-10.697616
15.316491
20.713791
3.619261
-7.224577
-9.690334
-25.860750
-34.279030
-9.334226
13.512787
32.278252
50.939648
34.255764
3.934528
-10.884616
-11.530812
3.449402
20.507780
29.450418
21.849077
12.138411
13.367857
7.358317
-1.862560
-23.929724
-33.607052
-7.906382
4.646403
25.554834
67.495087
79.668991
38.030960
-25.086611
-58.641006
-73.860512
-63.882221
-36.917206
-28.481798
-13.711890
6.023797
14.891347
24.432198
26.081326
24.024658
32.942680
15.496394
-29.625914
-57.326244
-59.234596
-36.248005
-5.727372
40.719715
79.948387
81.563858
53.956699
-10.347642
-22.195045
-9.970342
-34.605145
-16.990301
0.737324
-9.417636
-23.323257
-29.336855
-21.045702
-6.189802
29.657101
42.989113
32.269905
40.677265
54.544250
38.027679
-4.032531
-28.012102
-36.808937
-19.553022
5.623587
17.879135
49.737644
62.505722
69.247444
50.611584
-16.189358
-52.238167
-70.630066
-73.332306
-64.720551
-51.161087
-24.483339
5.349976
47.557236
63.513287
55.630913
3.827011
-10.955368
73.691902
105.879433
116.216972
94.157898
19.669004
8.764721
-9.447714
-34.646145
-30.463030
-6.510570
31.254971
37.867077
46.049484
29.698048
-14.111309
-36.801922
-33.350994
-7.858450
9.983523
11.649165
1.719469
-11.500082
-22.886049
-21.386475
-0.133447
34.626080
41.923012
-7.044674
-67.681854
-96.638420
-78.473045
-44.756649
-18.510107
14.590626
45.325310
53.477493
46.766617
38.433708
20.006603
1.457048
2.848822
29.966501
66.083847
55.738514
-10.376661
-73.634445
-119.018166
-131.509872
-105.155548
-89.356522
-81.644272
-56.016827
-20.291121
1.990394
14.533520
27.280100
26.434187
41.263603
43.195324
11.418748
8.865750
17.618958
29.521494
34.262321
50.755196
88.734161
128.671341
181.351059
103.377563
-1.417299
-19.820105
-65.014389
-69.110588
-39.928135
-1.526680
36.904995
60.289772
67.762741
65.271126
47.781528
-31.936428
-48.918175
-22.042574
-8.148175
14.036754
21.365780
74.380112
95.727234
74.438988
75.291740
86.840034
115.255707
93.488579
39.580978
6.178952
-21.766891
-29.446129
-13.801334
19.335230
48.948578
58.444565
35.577602
10.984240
27.486778
23.135410
5.926534
19.204651
18.661272
25.905859
58.113010
57.980904
37.440117
14.914014
-33.430538
-47.403770
-11.106031
18.398270
29.586069
30.831091
26.277203
-11.499250
-65.150749
-114.359283
-155.142685
-141.492538
-82.380196
-11.941079
35.058422
47.198997
59.705051
82.722168
102.895302
80.831261
29.360115
9.997991
26.201736
58.984043
72.331955
49.948238
29.805012
27.779812
27.768274
18.896669
6.668531
-2.046982
1.921152
25.530571
31.287418
10.498934
12.289515
30.304096
34.373177
52.458488
75.144722
60.433083
46.989197
29.534498
-17.297699
-49.827648
-78.462372
-107.039139
-108.012482
-101.684525
-100.819618
-89.593491
-89.991058
-119.907875
-139.912750
-133.326523
-113.859406
-89.222122
-57.553677
-30.300140
-20.696356
-12.635767
-5.976928
-13.233990
-34.767433
-55.216934
-65.317062
-74.627670
-79.208359
-70.012100
-67.426392
-87.956596
-104.086502
-105.871170
-99.690903
-87.083595
-79.651749
-70.405647
-50.411041
-18.528229
24.242350
75.321838
119.510056
142.053604
156.031189
160.814392
160.161331
161.823242
167.727463
177.217850
151.883575
101.006889
28.151859
-68.688660
-112.665009
-115.699379
-112.786217
-93.976524
-84.359650
-76.864563
-70.248093
-58.817886
-41.628651
-26.473330
8.370008
15.886597
12.850356
33.266193
43.095867
70.741348
80.143234
77.892784
85.806305
60.613792
21.599794
-39.105312
-58.683666
-40.346302
-38.312069
-10.495848
-31.417374
-74.813904
-81.298279
-101.136162
-103.814110
-110.336487
-127.225677
-117.816307
-111.905243
-129.166779
-144.132339
-141.269348
-147.983353
-145.110046
-128.378525
-124.286064
-108.329704
-90.652252
-89.661469
-87.745323
-84.813469
-76.685265
-57.461491
-43.301949
-35.635803
-45.539951
-73.941612
-76.617996
-64.959106
-61.094719
-58.349491
-76.189301
-94.295486
-93.794182
-88.372887
-79.276649
-74.593773
-74.596893
-73.910820
-78.083984
-85.279037
-84.627235
-86.854652
-97.819382
-110.761627
-132.863983
-148.972092
-145.233276
-124.668198
-96.092674
-67.750542
-31.372723
1.222026
25.639969
47.908085
56.554424
43.678223
21.941319
22.595921
43.401222
79.511703
122.613182
164.812653
206.220428
219.753082
195.690033
101.503128
-22.159393
-105.015785
-171.531311
-207.484161
-213.801834
-211.193710
-202.710953
-203.875900
-198.182602
-179.778580
-163.038300
-148.684967
-131.572678
-106.904243
-84.615562
-68.686005
-52.405300
-50.781097
-52.371346
-40.912174
-34.797012
-37.001369
-45.710648
-61.644268
-77.458565
-90.853226
-104.024475
-106.986565
-85.753166
-50.987095
-32.733849
-21.805269
4.745670
26.769205
51.095856
83.446640
109.991364
136.324203
150.904663
149.527542
130.432114
98.873009
59.286652
13.977714
-16.103619
-48.659122
-86.849960
-123.644035
-169.004074
-196.843353
-207.735504
-203.352646
-162.379807
-110.880028
-65.394760
-23.297161
3.748238
42.042198
92.483284
142.765793
183.608688
170.984543
150.733826
142.929031
119.510910
102.989967
78.040176
51.788330
38.125420
31.175882
37.821323
50.713093
62.723438
66.631752
71.177528
82.333862
72.730064
60.720341
75.757568
85.571983
89.750114
110.545128
141.332474
165.202057
172.339783
158.137863
132.492950
117.445412
108.036980
113.322739
120.952423
109.770531
102.442741
97.180969
89.610153
74.257919
52.783985
38.012825
17.332142
-5.615826
-29.147987
-57.640945
-80.099434
-92.762222
-94.295143
-87.761856
-80.419121
-82.423141
-96.344650
-107.092842
-114.627815
-128.848434
-144.496033
-147.969086
-142.438141
-132.253586
-108.854156
-87.302658
-61.785812
-38.949085
-30.283424
-1.934112
23.344381
38.736179
60.613586
73.718781
85.216286
92.265205
103.077263
116.053467
120.552208
123.082138
112.006813
91.116737
81.075813
83.484856
84.392448
91.648880
111.008202
120.540939
117.542091
113.559006
104.283592
87.859253
82.704338
90.506325
92.308434
83.405357
70.841667
63.368999
61.283661
60.542126
53.013691
34.884438
21.356438
23.541779
36.110142
42.136497
32.058491
13.825805
-1.748892
-7.050238
0.901613
17.261145
26.210325
26.138659
27.738871
35.853668
52.439087
68.600777
88.720619
112.116623
124.108582
130.135880
135.743484
133.036255
117.891212
104.159752
93.788254
85.093925
87.709854
100.702576
113.261902
105.064522
78.937935
51.356628
32.450325
25.817654
22.665197
20.910437
19.277502
18.214737
16.866575
16.751602
19.431400
18.963108
15.695061
5.575307
1.789433
16.491728
39.479259
70.077789
93.089615
100.704651
99.354317
89.589439
88.369019
92.096313
88.331001
81.440033
79.725777
88.244057
83.927895
59.250412
34.453594
20.033884
12.848797
-0.624370
-15.660675
-25.448917
-36.373772
-50.564171
-70.660660
-88.859077
-100.337265
-108.657700
-110.335197
-111.468376
-117.393166
-125.278351
-134.720749
-140.589767
-140.297516
-127.059303
-90.892731
-43.980778
-7.055538
12.918811
19.838434
22.188595
28.183168
35.789177
34.031616
22.212568
12.410302
12.364808
18.156866
23.130119
24.731579
26.733402
36.534409
59.817619
94.198586
116.391937
112.790810
99.078979
81.297142
56.940884
32.922676
13.368935
-7.477814
-29.315664
-45.437481
-58.043858
-74.585358
-97.447952
-101.008560
-77.706978
-57.787769
-41.161850
-20.131281
-2.774109
7.230355
19.377790
39.023434
54.989452
72.661308
96.646172
115.120628
117.528419
111.470901
110.715965
114.924004
111.286438
101.217468
92.948746
74.478333
67.035576
47.708969
-5.222802
-27.950800
-35.183563
-56.075802
-84.848862
-119.021706
-138.640244
-159.101578
-166.024658
-158.578796
-168.799164
-167.504608
-154.642441
-149.674789
-140.252655
-138.003754
-137.533600
-121.230461
-109.968513
-105.506241
-106.076096
-114.337959
-106.430672
-91.411507
-84.384087
-88.565956
-94.567703
-79.323914
-56.123886
-34.161423
-13.039250
0.538283
9.312674
15.797349
16.136642
15.032750
19.303730
17.866772
17.185366
11.482720
-7.507704
-17.022701
-22.185396
-28.708406
-33.213383
-37.356625
-36.668060
-42.416821
-54.902939
-59.590801
-55.493057
-47.665833
-40.543064
-32.711166
-22.024677
-10.505058
3.281852
14.723270
12.858839
1.629590
-1.268002
8.120179
22.892891
41.966492
59.185951
71.315933
83.823235
98.497795
117.469208
137.220154
152.428452
164.868149
170.772659
171.542252
167.342300
149.653915
125.894615
98.372192
63.355618
33.986526
12.252434
-9.655206
-29.039762
-48.959915
-72.483032
-92.022446
-106.908264
-120.413826
-131.611603
-139.186783
-142.688507
-140.234283
-130.334808
-119.612183
-106.587692
-86.906837
-70.367226
-55.310677
-38.223633
-30.177376
-32.007221
-38.791325
-51.646648
-65.029152
-71.525978
-75.192528
-78.715439
-83.303284
-88.798424
-92.233170
-98.182877
-105.091919
-115.402039
-127.126366
-130.509064
-131.753799
-125.600319
-111.804993
-103.445000
-96.227821
-89.472404
-84.543388
-70.834991
-40.976448
-7.602462
12.744835
29.806950
53.843533
81.427322
105.826874
119.141762
126.289154
127.593369
119.599434
110.181335
99.599838
80.898552
56.923347
41.243652
33.240070
19.569061
0.451517
-19.189774
-37.747746
-51.846851
-59.100796
-61.017567
-61.469978
-61.689320
-58.723194
-47.731678
-27.405567
-0.225569
27.833050
51.804512
72.506683
84.579338
90.621277
94.712479
90.406601
90.624069
96.012337
91.534775
78.141052
55.326752
30.512178
8.658751
-15.421768
-33.483410
-39.559315
-37.866562
-38.683502
-41.367359
-26.236031
3.345538
37.199333
67.719337
85.113289
99.517410
103.282707
98.520073
97.828072
92.858231
87.969093
86.957115
88.891327
84.268898
83.095520
94.508583
87.956924
71.129410
62.423244
63.660473
74.705261
76.530746
78.736649
83.023201
85.001350
96.343376
107.914101
115.985588
104.510818
88.308937
96.486053
101.890831
96.036446
90.226936
82.569824
74.899612
68.759537
59.321804
51.397366
45.876362
30.781172
26.473734
32.312836
17.413622
7.517573
6.448577
-4.937392
2.033019
15.834258
21.424107
20.186239
13.251653
21.687994
26.588341
37.707596
51.988647
42.376751
39.841518
49.048050
57.231712
44.285717
22.595554
26.599207
33.274559
33.548428
31.734467
25.863890
25.657001
32.738014
39.280952
37.821877
34.808372
34.147224
26.571741
15.787725
9.270951
9.443555
17.882702
24.213457
28.924372
35.706284
36.635063
26.745251
4.709553
-19.864182
-36.653374
-46.776863
-57.234047
-71.890244
-88.557922
-99.975357
-104.182785
-111.219559
-111.797821
-96.862801
-83.014206
-74.419907
-75.092888
-84.847176
-88.343605
-87.227875
-87.556900
-91.949402
-96.025040
-101.484024
-113.641129
-120.682281
-124.266869
-126.224464
-123.886467
-120.274750
-116.683304
-120.891045
-125.048309
-122.238899
-123.115036
-125.114685
-118.405685
-103.534836
-82.192078
-60.194401
-50.082130
-44.378254
-32.346096
-23.956179
-20.376883
-10.812042
9.244249
33.723881
54.197983
70.668434
79.666214
77.980324
76.690727
77.511086
71.744881
64.967323
62.149803
57.921818
49.372993
38.969398
27.497747
12.331520
-3.755084
-13.077222
-9.519734
2.364734
9.336389
8.654673
10.558353
18.368441
23.384069
