EVENT_NAME: EMILIA_2ND_SHOCK
EVENT_ID: IT-2012-0011
EVENT_DATE_YYYYMMDD: 20120529
EVENT_TIME_HHMMSS: 070002
EVENT_LATITUDE_DEGREE: 44.8417
EVENT_LONGITUDE_DEGREE: 11.0657
EVENT_DEPTH_KM: 8.1
HYPOCENTER_REFERENCE: INGV-CNT_Seismic_Bulletin
MAGNITUDE_W: 6.0
MAGNITUDE_W_REFERENCE: RCMT-INGV
MAGNITUDE_L: 5.8
MAGNITUDE_L_REFERENCE: INGV-CNT_Seismic_Bulletin
FOCAL_MECHANISM: TF
NETWORK: IT
STATION_CODE: MRN
STATION_NAME: MIRANDOLA (NAPOLI)
STATION_LATITUDE_DEGREE: 44.878231
STATION_LONGITUDE_DEGREE: 11.061743
STATION_ELEVATION_M: 15
LOCATION: 
VS30_M/S: 208
SITE_CLASSIFICATION_EC8: C
MORPHOLOGIC_CLASSIFICATION: 
EPICENTRAL_DISTANCE_KM: 4.1
EARTHQUAKE_BACKAZIMUTH_DEGREE: 175.6
DATE_TIME_FIRST_SAMPLE_YYYYMMDD_HHMMSS: 20120529_065948.000
DATE_TIME_FIRST_SAMPLE_PRECISION: seconds
SAMPLING_INTERVAL_S: 0.005000
NDATA: 105
DURATION_S: 
STREAM: HNE
UNITS: cm/s^2
INSTRUMENT: sensor = MS2007+ [Syscom] | digitizer = 130-01/3 [Reftek]
INSTRUMENT_ANALOG/DIGITAL: D
INSTRUMENTAL_FREQUENCY_HZ: 
INSTRUMENTAL_DAMPING: 
FULL_SCALE_G: 
N_BIT_DIGITAL_CONVERTER: 24
PGA_CM/S^2: 218.643309
TIME_PGA_S: 20.515000
BASELINE_CORRECTION: BASELINE REMOVED
FILTER_TYPE: BUTTERWORTH
FILTER_ORDER: 2
LOW_CUT_FREQUENCY_HZ: 0.070
HIGH_CUT_FREQUENCY_HZ: 40.000
LATE/NORMAL_TRIGGERED: NT
DATABASE_VERSION: DYNA 1.0
HEADER_FORMAT: DYNA 1.2
DATA_TYPE: ACCELERATION RESPONSE SPECTRUM
PROCESSING: manual (Paolucci et al., 2011)
DATA_TIMESTAMP_YYYYMMDD_HHMMSS: 20141204_104205.354
DATA_LICENSE: CC-BY3_0-IT (http://creativecommons.org/licenses/by/3.0/deed.en)
DATA_CITATION: ESM working group (2015), European Strong-Motion database, version 0.1, Network Activity 3: Networking acceleration networks and SM data users. Project NERA (www.nera-eu.org)
DATA_CREATOR: ESM working group
ORIGINAL_DATA_MEDIATOR_CITATION: Ufficio Rischio Sismico e Vulcanico del Dipartimento della Protezione Civile (http://www.protezionecivile.gov.it/)
ORIGINAL_DATA_MEDIATOR: Rete Accelerometrica Nazionale - RAN Download (http://www.mot1.it/randownload/)
ORIGINAL_DATA_CREATOR_CITATION: Italian Strong Motion Network, Italian Civil Protection Department http://www.protezionecivile.gov.it
ORIGINAL_DATA_CREATOR: network: IT (Italian Strong Motion Network); owner: Dipartimento Della Protezione Civile
USER1: /home/dyna/processing-itaca/processing.py /var/www/processing/tmp/fpacor//IT.MRN..HNE.D.20120529.070003.X.ACC.ASC /var/www/processing/tmp/fpacor//IT.MRN..HNN.D.20120529.070003.X.ACC.ASC /var/www/processing/tmp/fpacor//IT.MRN..HNZ.D.20120529.070003.X.ACC.ASC --tmp /var/www/processing/tmp/fpacor/ --le 0.070 --he 40.000 --ln 0.070 --hn 40.000 --lz 0.070 --hz 40.000 --fo 2 --ca -15 --cz 100 --ta 5 --tz 5 --mf 1 --rf 0 --tr NT
USER2: 
USER3: 
USER4: 
USER5: 
    0.010000   220.092484
    0.020000   235.495026
    0.022000   234.886337
    0.025000   234.858139
    0.029000   271.979614
    0.030000   280.923706
    0.032000   293.412018
    0.035001   330.213806
    0.036000   349.094757
    0.040000   416.160278
    0.041999   414.898346
    0.044001   445.524048
    0.045000   472.865417
    0.046000   504.613007
    0.048001   529.804932
    0.050000   553.481689
    0.054999   632.287476
    0.059999   685.028442
    0.064998   630.268005
    0.067002   611.974670
    0.069999   603.505676
    0.075002   518.415527
    0.080000   496.164673
    0.084998   420.829620
    0.090001   502.180450
    0.095003   593.387451
    0.100000   809.988586
    0.109999   878.748291
    0.120005   811.911926
    0.130005   573.423523
    0.132996   590.337585
    0.139997   583.837830
    0.149993   705.152527
    0.160000   772.912537
    0.170010   669.546936
    0.179986   794.851074
    0.190006   795.120483
    0.200000   664.527161
    0.220022   484.201660
    0.239981   635.293884
    0.250000   588.510620
    0.260010   513.685913
    0.280034   456.013763
    0.290023   482.609375
    0.300030   500.463562
    0.320000   462.768646
    0.340020   412.035889
    0.350017   435.262177
    0.359971   472.180725
    0.379939   473.994690
    0.400000   440.157227
    0.419992   394.161804
    0.439947   490.805450
    0.450045   506.498871
    0.459982   494.409607
    0.480077   403.905457
    0.500000   328.757721
    0.550055   343.024841
    0.599880   341.896851
    0.650195   308.819366
    0.667111   312.033936
    0.699790   305.191315
    0.750188   285.138947
    0.800000   225.110733
    0.850340   193.575577
    0.900090   181.792587
    0.949668   175.897079
    1.000000   168.735001
    1.100110   131.881119
    1.200480   135.741653
    1.300390   146.714859
    1.400560   162.971420
    1.499250   194.115021
    1.600000   219.264236
    1.700680   225.028061
    1.798561   209.045258
    1.901141   179.790268
    2.000000   173.554855
    2.197802   151.234222
    2.398082   129.810532
    2.500000   122.821274
    2.597403   114.501358
    2.801121    96.653572
    3.003003    80.160210
    3.205128    67.107613
    3.401361    58.326088
    3.496503    53.792385
    3.597122    49.298462
    3.802281    44.295712
    4.000000    40.580128
    4.201681    37.005917
    4.405286    33.684502
    4.608295    30.633337
    4.807692    27.836315
    5.000000    25.258278
    5.494505    19.837334
    5.988024    15.882051
    6.493506    12.931955
    6.993007    10.664989
    7.518797     8.964525
    8.000000     7.717156
    8.474576     6.792995
    9.009009     6.062641
    9.523809     5.449177
   10.000000     4.913101
