EVENT_NAME: EMILIA_2ND_SHOCK
EVENT_ID: IT-2012-0011
EVENT_DATE_YYYYMMDD: 20120529
EVENT_TIME_HHMMSS: 070002
EVENT_LATITUDE_DEGREE: 44.8417
EVENT_LONGITUDE_DEGREE: 11.0657
EVENT_DEPTH_KM: 8.1
HYPOCENTER_REFERENCE: INGV-CNT_Seismic_Bulletin
MAGNITUDE_W: 6.0
MAGNITUDE_W_REFERENCE: RCMT-INGV
MAGNITUDE_L: 5.8
MAGNITUDE_L_REFERENCE: INGV-CNT_Seismic_Bulletin
FOCAL_MECHANISM: TF
NETWORK: IT
STATION_CODE: MOG0
STATION_NAME: MOGLIA
STATION_LATITUDE_DEGREE: 44.932000
STATION_LONGITUDE_DEGREE: 10.912000
STATION_ELEVATION_M: 92
LOCATION: 
SENSOR_DEPTH_M: 0.0
VS30_M/S: 
SITE_CLASSIFICATION_EC8: C*
MORPHOLOGIC_CLASSIFICATION: 
EPICENTRAL_DISTANCE_KM: 15.8
EARTHQUAKE_BACKAZIMUTH_DEGREE: 129.5
DATE_TIME_FIRST_SAMPLE_YYYYMMDD_HHMMSS: 20120529_065953.000
DATE_TIME_FIRST_SAMPLE_PRECISION: seconds
SAMPLING_INTERVAL_S: 0.005000
NDATA: 23000
DURATION_S: 115.000
STREAM: HNN
UNITS: cm
INSTRUMENT: sensor = Episensor FBA ES-T [Kinemetrics] | digitizer = Etna [Kinemetrics]
INSTRUMENT_ANALOG/DIGITAL: D
INSTRUMENTAL_FREQUENCY_HZ: 
INSTRUMENTAL_DAMPING: 
FULL_SCALE_G: 
N_BIT_DIGITAL_CONVERTER: 18
PGD_CM: -6.308198
TIME_PGD_S: 20.745000
BASELINE_CORRECTION: BASELINE REMOVED
FILTER_TYPE: BUTTERWORTH
FILTER_ORDER: 2
LOW_CUT_FREQUENCY_HZ: 0.080
HIGH_CUT_FREQUENCY_HZ: 40.000
LATE/NORMAL_TRIGGERED: NT
DATABASE_VERSION: DYNA 1.0
HEADER_FORMAT: DYNA 1.2
DATA_TYPE: DISPLACEMENT
PROCESSING: manual (Paolucci et al., 2011)
DATA_TIMESTAMP_YYYYMMDD_HHMMSS: 20141204_103647.358
DATA_LICENSE: CC-BY3_0-IT (http://creativecommons.org/licenses/by/3.0/deed.en)
DATA_CITATION: ESM working group (2015), European Strong-Motion database, version 0.1, Network Activity 3: Networking acceleration networks and SM data users. Project NERA (www.nera-eu.org)
DATA_CREATOR: ESM working group
ORIGINAL_DATA_MEDIATOR_CITATION: Ufficio Rischio Sismico e Vulcanico del Dipartimento della Protezione Civile (http://www.protezionecivile.gov.it/)
ORIGINAL_DATA_MEDIATOR: Rete Accelerometrica Nazionale - RAN Download (http://www.mot1.it/randownload/)
ORIGINAL_DATA_CREATOR_CITATION: Italian Strong Motion Network, Italian Civil Protection Department http://www.protezionecivile.gov.it
ORIGINAL_DATA_CREATOR: network: IT (Italian Strong Motion Network); owner: Dipartimento Della Protezione Civile
USER1: /home/dyna/processing-itaca/processing.py /var/www/processing/tmp/fpacor//IT.MOG0..HNE.D.20120529.070003.X.ACC.ASC /var/www/processing/tmp/fpacor//IT.MOG0..HNN.D.20120529.070003.X.ACC.ASC /var/www/processing/tmp/fpacor//IT.MOG0..HNZ.D.20120529.070003.X.ACC.ASC --tmp /var/www/processing/tmp/fpacor/ --le 0.080 --he 40.000 --ln 0.080 --hn 40.000 --lz 0.080 --hz 40.000 --fo 2 --ca -10 --cz 30 --ta 5 --tz 5 --mf 1 --rf 0 --tr NT
USER2: 
USER3: 
USER4: 
USER5: 
[...]
-1.198516e-01
-1.189002e-01
-1.181670e-01
-1.176481e-01
-1.172884e-01
-1.170063e-01
-1.167131e-01
-1.163287e-01
-1.158013e-01
-1.151246e-01
-1.143381e-01
-1.135015e-01
-1.126577e-01
-1.118012e-01
-1.108760e-01
-1.098144e-01
-1.085948e-01
-1.072710e-01
-1.059504e-01
-1.047431e-01
-1.037134e-01
-1.028544e-01
-1.020990e-01
-1.013573e-01
-1.005537e-01
-9.964220e-02
-9.859716e-02
-9.740656e-02
-9.607953e-02
-9.465541e-02
-9.320167e-02
-9.180024e-02
-9.052204e-02
-8.939865e-02
-8.841359e-02
-8.751690e-02
-8.664214e-02
-8.572080e-02
-8.470542e-02
-8.358926e-02
-8.240255e-02
-8.119575e-02
-8.002708e-02
-7.894975e-02
-7.799012e-02
-7.712272e-02
-7.626190e-02
-7.529037e-02
-7.411658e-02
-7.272049e-02
-7.115718e-02
-6.952068e-02
-6.789394e-02
-6.632397e-02
-6.483826e-02
-6.346088e-02
-6.219148e-02
-6.097876e-02
-5.973496e-02
-5.838452e-02
-5.690360e-02
-5.532500e-02
-5.371650e-02
-5.214909e-02
-5.066545e-02
-4.926121e-02
-4.788567e-02
-4.645182e-02
-4.484763e-02
-4.296275e-02
-4.074219e-02
-3.823406e-02
-3.558411e-02
-3.297872e-02
-3.057166e-02
-2.842214e-02
-2.647721e-02
-2.461845e-02
-2.273839e-02
-2.079152e-02
-1.879195e-02
-1.677113e-02
-1.473896e-02
-1.268024e-02
-1.058371e-02
-8.472599e-03
-6.397083e-03
-4.387899e-03
-2.424743e-03
-4.638157e-04
1.502801e-03
3.419349e-03
5.195829e-03
6.775106e-03
8.199716e-03
9.628348e-03
1.127272e-02
1.329178e-02
1.571764e-02
1.845105e-02
2.130765e-02
2.408017e-02
2.659073e-02
2.871707e-02
3.039802e-02
3.164339e-02
3.254771e-02
3.327136e-02
3.398006e-02
3.478466e-02
3.572316e-02
3.678433e-02
3.793963e-02
3.916043e-02
4.042558e-02
4.172742e-02
4.307647e-02
4.450355e-02
4.605308e-02
4.775575e-02
4.958928e-02
5.146598e-02
5.327369e-02
5.494558e-02
5.649594e-02
5.798128e-02
5.942323e-02
6.077650e-02
6.197570e-02
6.301297e-02
6.397178e-02
6.498784e-02
6.617348e-02
6.756531e-02
6.912400e-02
7.077134e-02
7.243192e-02
7.405827e-02
7.564541e-02
7.724352e-02
7.894709e-02
8.084447e-02
8.295958e-02
8.523202e-02
8.754744e-02
8.979122e-02
9.188244e-02
9.377319e-02
9.544000e-02
9.688652e-02
9.814507e-02
9.926864e-02
1.003177e-01
1.013447e-01
1.023906e-01
1.034957e-01
1.046984e-01
1.060194e-01
1.074594e-01
1.090179e-01
1.107086e-01
1.125475e-01
1.145240e-01
1.165849e-01
1.186501e-01
1.206551e-01
1.225943e-01
1.245295e-01
1.265514e-01
1.287293e-01
1.310940e-01
1.336467e-01
1.363582e-01
1.391610e-01
1.419588e-01
1.446614e-01
1.472210e-01
1.496483e-01
1.520014e-01
1.543452e-01
1.567069e-01
1.590682e-01
1.613948e-01
1.636638e-01
1.658744e-01
1.680474e-01
1.702167e-01
1.724197e-01
1.746907e-01
1.770500e-01
1.794914e-01
1.819854e-01
1.845047e-01
1.870420e-01
1.896053e-01
1.922102e-01
1.948803e-01
1.976465e-01
2.005413e-01
2.035981e-01
2.068514e-01
2.103272e-01
2.140190e-01
2.178695e-01
2.217763e-01
2.256120e-01
2.292520e-01
2.326084e-01
2.356532e-01
2.384160e-01
2.409668e-01
2.434028e-01
2.458280e-01
2.483171e-01
2.508901e-01
2.535242e-01
2.561820e-01
2.588236e-01
2.613972e-01
2.638271e-01
2.660181e-01
2.678959e-01
2.694638e-01
2.708257e-01
2.721453e-01
2.735642e-01
2.751285e-01
2.767703e-01
2.783650e-01
2.798234e-01
2.811477e-01
2.824250e-01
2.837862e-01
2.853532e-01
2.871888e-01
2.892798e-01
2.915717e-01
2.940192e-01
2.966021e-01
2.993071e-01
3.021140e-01
3.050104e-01
3.080215e-01
3.112240e-01
3.147197e-01
3.185668e-01
3.227202e-01
3.270470e-01
3.314071e-01
3.357225e-01
3.399840e-01
3.442118e-01
3.484156e-01
3.525801e-01
3.566749e-01
3.606792e-01
3.646011e-01
3.684736e-01
3.723401e-01
3.762501e-01
3.802610e-01
3.844298e-01
3.888014e-01
3.934019e-01
3.982378e-01
4.032906e-01
4.085080e-01
4.138058e-01
4.190880e-01
4.242769e-01
4.293440e-01
4.343309e-01
4.393459e-01
4.445282e-01
4.499979e-01
4.558149e-01
4.619626e-01
4.683673e-01
4.749477e-01
4.816651e-01
4.885437e-01
4.956515e-01
5.030666e-01
5.108529e-01
5.190507e-01
5.276767e-01
5.367189e-01
5.461309e-01
5.558361e-01
5.657500e-01
5.758013e-01
5.859368e-01
5.961141e-01
6.062981e-01
6.164632e-01
6.265973e-01
6.366957e-01
6.467541e-01
6.567687e-01
6.667375e-01
6.766568e-01
6.865269e-01
6.963615e-01
7.061855e-01
7.160128e-01
7.258219e-01
7.355505e-01
7.451233e-01
7.545001e-01
7.637048e-01
7.728111e-01
7.819027e-01
7.910367e-01
8.002294e-01
8.094687e-01
8.187450e-01
8.280793e-01
8.375326e-01
8.472002e-01
8.571962e-01
8.676313e-01
8.785911e-01
8.901103e-01
9.021534e-01
9.146200e-01
9.273881e-01
9.403715e-01
9.535509e-01
9.669700e-01
9.807163e-01
9.948953e-01
1.009603e+00
1.024900e+00
1.040807e+00
1.057306e+00
1.074353e+00
1.091889e+00
1.109851e+00
1.128197e+00
1.146912e+00
1.166004e+00
1.185494e+00
1.205413e+00
1.225787e+00
1.246622e+00
1.267897e+00
1.289560e+00
1.311545e+00
1.333780e+00
1.356211e+00
1.378836e+00
1.401701e+00
1.424866e+00
1.448359e+00
1.472149e+00
1.496170e+00
1.520349e+00
1.544617e+00
1.568922e+00
1.593243e+00
1.617593e+00
1.642011e+00
1.666546e+00
1.691234e+00
1.716079e+00
1.741057e+00
1.766119e+00
1.791203e+00
1.816246e+00
1.841185e+00
1.865973e+00
1.890601e+00
1.915087e+00
1.939462e+00
1.963736e+00
1.987869e+00
2.011771e+00
2.035337e+00
2.058487e+00
2.081197e+00
2.103494e+00
2.125426e+00
2.147016e+00
2.168230e+00
2.188954e+00
2.209010e+00
2.228204e+00
2.246382e+00
2.263467e+00
2.279443e+00
2.294320e+00
2.308117e+00
2.320836e+00
2.332455e+00
2.342932e+00
2.352235e+00
2.360349e+00
2.367277e+00
2.373021e+00
2.377576e+00
2.380940e+00
2.383148e+00
2.384293e+00
2.384527e+00
2.384010e+00
2.382850e+00
2.381069e+00
2.378615e+00
2.375396e+00
2.371328e+00
2.366361e+00
2.360503e+00
2.353802e+00
2.346311e+00
2.338047e+00
2.328956e+00
2.318911e+00
2.307745e+00
2.295291e+00
2.281426e+00
2.266100e+00
2.249337e+00
2.231214e+00
2.211839e+00
2.191316e+00
2.169725e+00
2.147101e+00
2.123430e+00
2.098659e+00
2.072713e+00
2.045525e+00
2.017080e+00
1.987423e+00
1.956649e+00
1.924865e+00
1.892160e+00
1.858571e+00
1.824091e+00
1.788698e+00
1.752417e+00
1.715356e+00
1.677703e+00
1.639702e+00
1.601613e+00
1.563687e+00
1.526140e+00
1.489133e+00
1.452747e+00
1.416978e+00
1.381741e+00
1.346928e+00
1.312461e+00
1.278311e+00
1.244466e+00
1.210886e+00
1.177481e+00
1.144107e+00
1.110591e+00
1.076752e+00
1.042432e+00
1.007507e+00
9.718760e-01
9.354805e-01
8.983159e-01
8.604281e-01
8.218744e-01
7.826751e-01
7.427912e-01
7.021412e-01
6.606410e-01
6.182385e-01
5.749329e-01
5.307863e-01
4.859216e-01
4.405005e-01
3.946885e-01
3.486282e-01
3.024330e-01
2.562036e-01
2.100490e-01
1.640941e-01
1.184723e-01
7.331196e-02
2.872623e-02
-1.519744e-02
-5.839713e-02
-1.008240e-01
-1.424308e-01
-1.831750e-01
-2.230348e-01
-2.620213e-01
-3.001776e-01
-3.375655e-01
-3.742480e-01
-4.102740e-01
-4.456646e-01
-4.804049e-01
-5.144469e-01
-5.477238e-01
-5.801632e-01
-6.116904e-01
-6.422201e-01
-6.716485e-01
-6.998593e-01
-7.267417e-01
-7.522071e-01
-7.761984e-01
-7.986978e-01
-8.197370e-01
-8.394143e-01
-8.579102e-01
-8.754702e-01
-8.923400e-01
-9.086961e-01
-9.246209e-01
-9.401292e-01
-9.552150e-01
-9.698821e-01
-9.841481e-01
-9.980354e-01
-1.011570e+00
-1.024790e+00
-1.037747e+00
-1.050513e+00
-1.063172e+00
-1.075809e+00
-1.088471e+00
-1.101140e+00
-1.113714e+00
-1.126030e+00
-1.137918e+00
-1.149237e+00
-1.159900e+00
-1.169870e+00
-1.179143e+00
-1.187738e+00
-1.195708e+00
-1.203141e+00
-1.210137e+00
-1.216780e+00
-1.223108e+00
-1.229116e+00
-1.234783e+00
-1.240098e+00
-1.245059e+00
-1.249662e+00
-1.253883e+00
-1.257685e+00
-1.261023e+00
-1.263855e+00
-1.266135e+00
-1.267823e+00
-1.268884e+00
-1.269294e+00
-1.269030e+00
-1.268063e+00
-1.266359e+00
-1.263877e+00
-1.260555e+00
-1.256306e+00
-1.251038e+00
-1.244704e+00
-1.237356e+00
-1.229182e+00
-1.220504e+00
-1.211711e+00
-1.203166e+00
-1.195149e+00
-1.187836e+00
-1.181339e+00
-1.175746e+00
-1.171149e+00
-1.167649e+00
-1.165332e+00
-1.164245e+00
-1.164390e+00
-1.165714e+00
-1.168131e+00
-1.171532e+00
-1.175808e+00
-1.180846e+00
-1.186515e+00
-1.192648e+00
-1.199043e+00
-1.205480e+00
-1.211746e+00
-1.217650e+00
-1.223020e+00
-1.227680e+00
-1.231440e+00
-1.234106e+00
-1.235500e+00
-1.235474e+00
-1.233914e+00
-1.230734e+00
-1.225873e+00
-1.219287e+00
-1.210941e+00
-1.200785e+00
-1.188755e+00
-1.174807e+00
-1.159006e+00
-1.141584e+00
-1.122900e+00
-1.103297e+00
-1.083029e+00
-1.062304e+00
-1.041336e+00
-1.020325e+00
-9.993818e-01
-9.784916e-01
-9.575153e-01
-9.362433e-01
-9.144698e-01
-8.920336e-01
-8.688002e-01
-8.446212e-01
-8.193226e-01
-7.927393e-01
-7.647842e-01
-7.355184e-01
-7.051637e-01
-6.740422e-01
-6.425029e-01
-6.108989e-01
-5.795952e-01
-5.489560e-01
-5.193054e-01
-4.908886e-01
-4.638650e-01
-4.383339e-01
-4.143714e-01
-3.920250e-01
-3.712459e-01
-3.518147e-01
-3.333519e-01
-3.154184e-01
-2.976055e-01
-2.795454e-01
-2.608817e-01
-2.412615e-01
-2.203517e-01
-1.978555e-01
-1.735166e-01
-1.471110e-01
-1.184419e-01
-8.735168e-02
-5.373725e-02
-1.754804e-02
2.122951e-02
6.257970e-02
1.064475e-01
1.527207e-01
2.012209e-01
2.517133e-01
3.039398e-01
3.576701e-01
4.127485e-01
4.690944e-01
5.266477e-01
5.853096e-01
6.449245e-01
7.053097e-01
7.662988e-01
8.277520e-01
8.895511e-01
9.516256e-01
1.013989e+00
1.076726e+00
1.139923e+00
1.203613e+00
1.267752e+00
1.332263e+00
1.397087e+00
1.462212e+00
1.527663e+00
1.593451e+00
1.659542e+00
1.725850e+00
1.792255e+00
1.858623e+00
1.924799e+00
1.990597e+00
2.055786e+00
2.120107e+00
2.183294e+00
2.245098e+00
2.305286e+00
2.363643e+00
2.419969e+00
2.474083e+00
2.525815e+00
2.575017e+00
2.621577e+00
2.665417e+00
2.706488e+00
2.744757e+00
2.780194e+00
2.812758e+00
2.842405e+00
2.869151e+00
2.893210e+00
2.915119e+00
2.935694e+00
2.955767e+00
2.975946e+00
2.996635e+00
3.018174e+00
3.040878e+00
3.064933e+00
3.090275e+00
3.116577e+00
3.143357e+00
3.170162e+00
3.196698e+00
3.222817e+00
3.248429e+00
3.273437e+00
3.297725e+00
3.321148e+00
3.343516e+00
3.364597e+00
3.384136e+00
3.401893e+00
3.417675e+00
3.431357e+00
3.442878e+00
3.452234e+00
3.459455e+00
3.464599e+00
3.467720e+00
3.468853e+00
3.468005e+00
3.465168e+00
3.460312e+00
3.453383e+00
3.444292e+00
3.432918e+00
3.419121e+00
3.402767e+00
3.383740e+00
3.361945e+00
3.337290e+00
3.309682e+00
3.279030e+00
3.245245e+00
3.208234e+00
3.167894e+00
3.124123e+00
3.076844e+00
3.026020e+00
2.971663e+00
2.913826e+00
2.852580e+00
2.787996e+00
2.720130e+00
2.649023e+00
2.574727e+00
2.497336e+00
2.417005e+00
2.333957e+00
2.248470e+00
2.160828e+00
2.071274e+00
1.979985e+00
1.887102e+00
1.792787e+00
1.697266e+00
1.600832e+00
1.503822e+00
1.406566e+00
1.309369e+00
1.212509e+00
1.116228e+00
1.020729e+00
9.261790e-01
8.327237e-01
7.405068e-01
6.496765e-01
5.603762e-01
4.727327e-01
3.868483e-01
3.028009e-01
2.206544e-01
1.404775e-01
6.235514e-02
-1.361361e-02
-8.733081e-02
-1.587123e-01
-2.276803e-01
-2.941426e-01
-3.579845e-01
-4.190931e-01
-4.774127e-01
-5.330155e-01
-5.861505e-01
-6.372307e-01
-6.867489e-01
-7.351512e-01
-7.827432e-01
-8.296856e-01
-8.760537e-01
-9.218973e-01
-9.672679e-01
-1.012213e+00
-1.056757e+00
-1.100891e+00
-1.144588e+00
-1.187808e+00
-1.230502e+00
-1.272595e+00
-1.313993e+00
-1.354593e+00
-1.394299e+00
-1.433029e+00
-1.470714e+00
-1.507285e+00
-1.542657e+00
-1.576726e+00
-1.609387e+00
-1.640547e+00
-1.670157e+00
-1.698248e+00
-1.724964e+00
-1.750563e+00
-1.775375e+00
-1.799762e+00
-1.824120e+00
-1.848881e+00
-1.874495e+00
-1.901392e+00
-1.929956e+00
-1.960499e+00
-1.993252e+00
-2.028368e+00
-2.065941e+00
-2.106013e+00
-2.148581e+00
-2.193611e+00
-2.241064e+00
-2.290920e+00
-2.343191e+00
-2.397912e+00
-2.455115e+00
-2.514796e+00
-2.576903e+00
-2.641342e+00
-2.708019e+00
-2.776873e+00
-2.847893e+00
-2.921116e+00
-2.996605e+00
-3.074425e+00
-3.154630e+00
-3.237253e+00
-3.322276e+00
-3.409610e+00
-3.499097e+00
-3.590534e+00
-3.683703e+00
-3.778362e+00
-3.874236e+00
-3.971025e+00
-4.068431e+00
-4.166174e+00
-4.263996e+00
-4.361663e+00
-4.458944e+00
-4.555596e+00
-4.651368e+00
-4.746019e+00
-4.839335e+00
-4.931132e+00
-5.021233e+00
-5.109453e+00
-5.195587e+00
-5.279416e+00
-5.360695e+00
-5.439147e+00
-5.514490e+00
-5.586478e+00
-5.654929e+00
-5.719737e+00
-5.780872e+00
-5.838365e+00
-5.892290e+00
-5.942728e+00
-5.989745e+00
-6.033381e+00
-6.073654e+00
-6.110578e+00
-6.144182e+00
-6.174523e+00
-6.201684e+00
-6.225744e+00
-6.246756e+00
-6.264743e+00
-6.279697e+00
-6.291581e+00
-6.300333e+00
-6.305889e+00
-6.308198e+00
-6.307223e+00
-6.302924e+00
-6.295251e+00
-6.284149e+00
-6.269552e+00
-6.251378e+00
-6.229530e+00
-6.203936e+00
-6.174628e+00
-6.141802e+00
-6.105829e+00
-6.067157e+00
-6.026177e+00
-5.983147e+00
-5.938241e+00
-5.891637e+00
-5.843566e+00
-5.794310e+00
-5.744176e+00
-5.693486e+00
-5.642572e+00
-5.591764e+00
-5.541366e+00
-5.491621e+00
-5.442695e+00
-5.394687e+00
-5.347668e+00
-5.301710e+00
-5.256902e+00
-5.213325e+00
-5.171021e+00
-5.129979e+00
-5.090131e+00
-5.051348e+00
-5.013447e+00
-4.976220e+00
-4.939462e+00
-4.902997e+00
-4.866690e+00
-4.830450e+00
-4.794209e+00
-4.757903e+00
-4.721436e+00
-4.684660e+00
-4.647379e+00
-4.609365e+00
-4.570388e+00
-4.530250e+00
-4.488793e+00
-4.445877e+00
-4.401321e+00
-4.354895e+00
-4.306327e+00
-4.255305e+00
-4.201474e+00
-4.144424e+00
-4.083726e+00
-4.019028e+00
-3.950154e+00
-3.877152e+00
-3.800282e+00
-3.719935e+00
-3.636524e+00
-3.550391e+00
-3.461801e+00
-3.370981e+00
-3.278151e+00
-3.183549e+00
-3.087419e+00
-2.989973e+00
-2.891356e+00
-2.791658e+00
-2.691000e+00
-2.589628e+00
-2.487931e+00
-2.386337e+00
-2.285155e+00
-2.184486e+00
-2.084254e+00
-1.984315e+00
-1.884528e+00
-1.784779e+00
-1.684957e+00
-1.584944e+00
-1.484606e+00
-1.383832e+00
-1.282562e+00
-1.180801e+00
-1.078618e+00
-9.761482e-01
-8.735719e-01
-7.710561e-01
-6.687305e-01
-5.667102e-01
-4.651223e-01
-3.641029e-01
-2.637790e-01
-1.642563e-01
-6.562193e-02
3.203967e-02
1.286258e-01
2.240034e-01
3.180198e-01
4.105289e-01
5.014066e-01
5.905491e-01
6.778723e-01
7.633170e-01
8.468402e-01
9.283822e-01
1.007827e+00
1.084987e+00
1.159629e+00
1.231527e+00
1.300479e+00
1.366307e+00
1.428844e+00
1.487951e+00
1.543524e+00
1.595496e+00
1.643834e+00
1.688537e+00
1.729645e+00
1.767245e+00
1.801464e+00
1.832452e+00
1.860364e+00
1.885332e+00
1.907458e+00
1.926810e+00
1.943434e+00
1.957362e+00
1.968627e+00
1.977250e+00
1.983231e+00
1.986554e+00
1.987186e+00
1.985064e+00
1.980109e+00
1.972244e+00
1.961403e+00
1.947531e+00
1.930627e+00
1.910807e+00
1.888325e+00
1.863531e+00
1.836778e+00
1.808334e+00
1.778373e+00
1.747021e+00
1.714404e+00
1.680659e+00
1.645932e+00
1.610362e+00
1.574070e+00
1.537183e+00
1.499884e+00
1.462421e+00
1.425091e+00
1.388218e+00
1.352147e+00
1.317239e+00
1.283813e+00
1.252094e+00
1.222198e+00
1.194147e+00
1.167895e+00
1.143345e+00
1.120347e+00
1.098681e+00
1.078065e+00
1.058211e+00
1.038889e+00
1.019946e+00
1.001300e+00
9.829181e-01
9.647841e-01
9.468503e-01
9.290075e-01
9.111103e-01
8.930210e-01
8.746220e-01
8.558078e-01
8.364883e-01
8.166001e-01
7.961060e-01
7.749866e-01
7.532285e-01
7.308014e-01
7.076376e-01
6.836315e-01
6.586517e-01
6.325625e-01
6.052656e-01
5.767477e-01
5.470866e-01
5.164085e-01
4.848330e-01
4.524360e-01
4.192409e-01
3.852353e-01
3.503902e-01
3.146621e-01
2.779904e-01
2.403087e-01
2.015678e-01
1.617565e-01
1.209111e-01
7.912778e-02
3.657288e-02
-6.529311e-03
-4.992593e-02
-9.335992e-02
-1.365783e-01
-1.793264e-01
-2.213464e-01
-2.623913e-01
-3.022433e-01
-3.407211e-01
-3.776709e-01
-4.129463e-01
-4.464001e-01
-4.778967e-01
-5.073280e-01
-5.346137e-01
-5.596934e-01
-5.825222e-01
-6.030718e-01
-6.213256e-01
-6.372678e-01
-6.508708e-01
-6.620824e-01
-6.708282e-01
-6.770324e-01
-6.806544e-01
-6.817393e-01
-6.804722e-01
-6.771954e-01
-6.723435e-01
-6.663123e-01
-6.593587e-01
-6.516015e-01
-6.430817e-01
-6.338136e-01
-6.238091e-01
-6.130830e-01
-6.016464e-01
-5.894989e-01
-5.766415e-01
-5.631049e-01
-5.489694e-01
-5.343663e-01
-5.194540e-01
-5.043777e-01
-4.892449e-01
-4.741202e-01
-4.590248e-01
-4.439262e-01
-4.287307e-01
-4.132994e-01
-3.974802e-01
-3.811332e-01
-3.641495e-01
-3.464584e-01
-3.280145e-01
-3.087761e-01
-2.886950e-01
-2.677176e-01
-2.457882e-01
-2.228632e-01
-1.989436e-01
-1.741104e-01
-1.485340e-01
-1.224479e-01
-9.609940e-02
-6.970616e-02
-4.344208e-02
-1.745804e-02
8.092776e-03
3.305677e-02
5.728892e-02
8.064911e-02
1.030007e-01
1.242146e-01
1.441775e-01
1.627995e-01
1.800166e-01
1.958021e-01
2.101764e-01
2.232010e-01
2.349705e-01
2.456047e-01
2.552258e-01
2.639395e-01
2.718401e-01
2.790222e-01
2.855808e-01
2.916034e-01
2.971652e-01
3.023321e-01
3.071701e-01
3.117540e-01
3.161659e-01
3.204827e-01
3.247628e-01
3.290379e-01
3.333184e-01
3.376190e-01
3.419820e-01
3.464775e-01
3.511924e-01
3.562107e-01
3.615842e-01
3.673092e-01
3.733227e-01
3.795162e-01
3.857566e-01
3.919029e-01
3.978122e-01
4.033434e-01
4.083622e-01
4.127378e-01
4.163325e-01
4.189980e-01
4.205991e-01
4.210452e-01
4.202914e-01
4.183218e-01
4.151467e-01
4.108095e-01
4.053849e-01
3.989732e-01
3.917008e-01
3.837238e-01
3.752282e-01
3.664246e-01
3.575291e-01
3.487358e-01
3.402080e-01
3.320825e-01
3.244700e-01
3.174509e-01
3.110798e-01
3.053867e-01
3.003683e-01
2.959792e-01
2.921391e-01
2.887438e-01
2.856677e-01
2.827700e-01
2.799139e-01
2.769864e-01
2.739014e-01
2.705918e-01
2.670054e-01
2.630984e-01
2.588250e-01
2.541378e-01
2.490035e-01
2.434153e-01
2.373893e-01
2.309481e-01
2.241049e-01
2.168548e-01
2.091840e-01
2.010841e-01
1.925567e-01
1.836071e-01
1.742453e-01
1.645013e-01
1.544467e-01
1.441995e-01
1.339070e-01
1.237216e-01
1.137815e-01
1.041967e-01
9.503577e-02
8.631718e-02
7.801859e-02
7.009535e-02
6.249276e-02
5.515394e-02
4.802543e-02
4.105390e-02
3.418097e-02
