EVENT_NAME: EMILIA_2ND_SHOCK
EVENT_ID: IT-2012-0011
EVENT_DATE_YYYYMMDD: 20120529
EVENT_TIME_HHMMSS: 070002
EVENT_LATITUDE_DEGREE: 44.8417
EVENT_LONGITUDE_DEGREE: 11.0657
EVENT_DEPTH_KM: 8.1
HYPOCENTER_REFERENCE: INGV-CNT_Seismic_Bulletin
MAGNITUDE_W: 6.0
MAGNITUDE_W_REFERENCE: RCMT-INGV
MAGNITUDE_L: 5.8
MAGNITUDE_L_REFERENCE: INGV-CNT_Seismic_Bulletin
FOCAL_MECHANISM: TF
NETWORK: IT
STATION_CODE: MDN
STATION_NAME: MODENA
STATION_LATITUDE_DEGREE: 44.646988
STATION_LONGITUDE_DEGREE: 10.889912
STATION_ELEVATION_M: 77
LOCATION: 
SENSOR_DEPTH_M: 0.0
VS30_M/S: 213
SITE_CLASSIFICATION_EC8: C
MORPHOLOGIC_CLASSIFICATION: 
EPICENTRAL_DISTANCE_KM: 25.7
EARTHQUAKE_BACKAZIMUTH_DEGREE: 32.7
DATE_TIME_FIRST_SAMPLE_YYYYMMDD_HHMMSS: 20120529_065953.000
DATE_TIME_FIRST_SAMPLE_PRECISION: seconds
SAMPLING_INTERVAL_S: 0.005000
NDATA: 26000
DURATION_S: 130.000
STREAM: HNN
UNITS: cm/s
INSTRUMENT: sensor = FBA-3 [Kinemetrics] | digitizer = Etna [Kinemetrics]
INSTRUMENT_ANALOG/DIGITAL: D
INSTRUMENTAL_FREQUENCY_HZ: 204.000
INSTRUMENTAL_DAMPING: 0.700000
FULL_SCALE_G: 1.0
N_BIT_DIGITAL_CONVERTER: 18
PGV_CM/S: -3.539188
TIME_PGV_S: 26.935000
BASELINE_CORRECTION: BASELINE REMOVED
FILTER_TYPE: BUTTERWORTH
FILTER_ORDER: 2
LOW_CUT_FREQUENCY_HZ: 0.050
HIGH_CUT_FREQUENCY_HZ: 35.000
LATE/NORMAL_TRIGGERED: NT
DATABASE_VERSION: DYNA 1.0
HEADER_FORMAT: DYNA 1.2
DATA_TYPE: VELOCITY
PROCESSING: manual (Paolucci et al., 2011)
DATA_TIMESTAMP_YYYYMMDD_HHMMSS: 20141204_103511.587
DATA_LICENSE: CC-BY3_0-IT (http://creativecommons.org/licenses/by/3.0/deed.en)
DATA_CITATION: ESM working group (2015), European Strong-Motion database, version 0.1, Network Activity 3: Networking acceleration networks and SM data users. Project NERA (www.nera-eu.org)
DATA_CREATOR: ESM working group
ORIGINAL_DATA_MEDIATOR_CITATION: Ufficio Rischio Sismico e Vulcanico del Dipartimento della Protezione Civile (http://www.protezionecivile.gov.it/)
ORIGINAL_DATA_MEDIATOR: Rete Accelerometrica Nazionale - RAN Download (http://www.mot1.it/randownload/)
ORIGINAL_DATA_CREATOR_CITATION: Italian Strong Motion Network, Italian Civil Protection Department http://www.protezionecivile.gov.it
ORIGINAL_DATA_CREATOR: network: IT (Italian Strong Motion Network); owner: Dipartimento Della Protezione Civile
USER1: /home/dyna/processing-itaca/processing.py /var/www/processing/tmp/fpacor//IT.MDN..HNE.D.20120529.070003.X.ACC.ASC /var/www/processing/tmp/fpacor//IT.MDN..HNN.D.20120529.070003.X.ACC.ASC /var/www/processing/tmp/fpacor//IT.MDN..HNZ.D.20120529.070003.X.ACC.ASC --tmp /var/www/processing/tmp/fpacor/ --le 0.05 --he 35.000 --ln 0.05 --hn 35.000 --lz 0.05 --hz 35.000 --fo 2 --ca -10 --cz 30 --ta 5 --tz 5 --mf 1 --rf 0 --tr NT
USER2: 
USER3: 
USER4: 
USER5: 
[...]
0.111127
0.110902
0.110089
0.110446
0.113190
0.118446
0.125388
0.132927
0.140318
0.147175
0.153073
0.157346
0.159415
0.159238
0.157403
0.154889
0.152833
0.152404
0.154630
0.160126
0.168943
0.180680
0.194715
0.210325
0.226679
0.242840
0.257866
0.270998
0.281843
0.290436
0.297150
0.302461
0.306658
0.309546
0.310344
0.308023
0.302035
0.292912
0.282232
0.272005
0.264007
0.259470
0.259126
0.263341
0.272175
0.285298
0.301774
0.319864
0.337138
0.351079
0.359907
0.363136
0.361488
0.356287
0.348781
0.339891
0.330434
0.321430
0.314039
0.309089
0.306641
0.305997
0.306143
0.306331
0.306399
0.306650
0.307398
0.308591
0.309888
0.311071
0.312352
0.314273
0.317309
0.321584
0.326960
0.333411
0.341252
0.350879
0.362080
0.373485
0.382676
0.387020
0.384767
0.375860
0.362111
0.346653
0.332808
0.322824
0.317078
0.314130
0.311574
0.307182
0.299747
0.289343
0.277125
0.264977
0.255140
0.249745
0.250213
0.256682
0.267708
0.280514
0.291922
0.299730
0.303762
0.305856
0.308721
0.314366
0.323025
0.333050
0.341651
0.346147
0.345315
0.340319
0.334608
0.332678
0.338254
0.352787
0.374981
0.401511
0.428458
0.452579
0.471934
0.485988
0.495540
0.502452
0.509007
0.516862
0.526085
0.534905
0.540442
0.540068
0.532717
0.519456
0.503010
0.486537
0.472326
0.461055
0.451881
0.443260
0.434093
0.424587
0.416390
0.411921
0.413186
0.420631
0.432696
0.446435
0.458948
0.468783
0.476550
0.484569
0.495897
0.513192
0.537752
0.568921
0.603977
0.638603
0.667878
0.687571
0.695204
0.690441
0.674879
0.651617
0.624823
0.599160
0.578989
0.567525
0.566321
0.575196
0.592548
0.615943
0.642827
0.671067
0.699105
0.725823
0.750384
0.772204
0.790956
0.806497
0.818718
0.827419
0.832295
0.833022
0.829388
0.821419
0.809485
0.794437
0.777601
0.760393
0.743649
0.727212
0.710206
0.691805
0.671901
0.651345
0.631772
0.615098
0.602842
0.595559
0.592733
0.593069
0.594919
0.596566
0.596365
0.592805
0.584738
0.571762
0.554542
0.534674
0.513945
0.493323
0.472346
0.449394
0.422752
0.391752
0.357329
0.321689
0.287325
0.255844
0.227174
0.199489
0.169885
0.135536
0.094823
0.047913
-0.003430
-0.056556
-0.108710
-0.157612
-0.201862
-0.241263
-0.276937
-0.311015
-0.345894
-0.383469
-0.424771
-0.470079
-0.519200
-0.571507
-0.625720
-0.679760
-0.730994
-0.776810
-0.815159
-0.844769
-0.865075
-0.876099
-0.878457
-0.873464
-0.863133
-0.849932
-0.836304
-0.824114
-0.814144
-0.805771
-0.797063
-0.785359
-0.768098
-0.743505
-0.710901
-0.670621
-0.623748
-0.571784
-0.516343
-0.458902
-0.400754
-0.343186
-0.287694
-0.236035
-0.190024
-0.151102
-0.119826
-0.095546
-0.076454
-0.059899
-0.042839
-0.022371
0.003724
0.036546
0.075893
0.120301
0.167263
0.213625
0.256223
0.292691
0.322022
0.344538
0.361314
0.373444
0.381563
0.385831
0.386273
0.383149
0.377191
0.369788
0.363111
0.359909
0.362749
0.373036
0.390442
0.413152
0.438749
0.465194
0.491396
0.517188
0.542888
0.568815
0.595058
0.621608
0.648596
0.676288
0.704746
0.733455
0.761115
0.785686
0.804677
0.815686
0.817016
0.808049
0.789202
0.761644
0.727065
0.687577
0.645518
0.603011
0.561442
0.521193
0.481694
0.441687
0.399753
0.355051
0.307939
0.260060
0.213756
0.171165
0.133480
0.100743
0.072204
0.047033
0.025026
0.006938
-0.005790
-0.011729
-0.010124
-0.001151
0.014211
0.034494
0.058074
0.083384
0.108984
0.133609
0.156282
0.176385
0.193545
0.207300
0.216848
0.221193
0.219651
0.212325
0.200156
0.184456
0.166220
0.145643
0.122114
0.094616
0.062246
0.024607
-0.017961
-0.064270
-0.112271
-0.159164
-0.201731
-0.236990
-0.263051
-0.279807
-0.288996
-0.293552
-0.296521
-0.299967
-0.304441
-0.309318
-0.313781
-0.317714
-0.321883
-0.327342
-0.334518
-0.342568
-0.349424
-0.352575
-0.350167
-0.341772
-0.328428
-0.312030
-0.294427
-0.276627
-0.258453
-0.238855
-0.216746
-0.191847
-0.165030
-0.138049
-0.112949
-0.091596
-0.075480
-0.065652
-0.062532
-0.065517
-0.072637
-0.080654
-0.085841
-0.085259
-0.077865
-0.064798
-0.048622
-0.031844
-0.015540
0.001096
0.020173
0.044020
0.074278
0.111421
0.154647
0.202022
0.250913
0.298799
0.344201
0.387240
0.429415
0.472731
0.518676
0.567574
0.618542
0.669899
0.719720
0.766323
0.808544
0.845743
0.877566
0.903647
0.923465
0.936447
0.942260
0.940977
0.932908
0.918200
0.896570
0.867435
0.830423
0.785942
0.735476
0.681402
0.626440
0.572983
0.522574
0.475730
0.432216
0.391518
0.353178
0.316877
0.282464
0.250069
0.220231
0.193952
0.172668
0.158025
0.151356
0.152894
0.161145
0.172934
0.184412
0.192582
0.196441
0.197081
0.196815
0.197989
0.202257
0.210550
0.223321
0.240648
0.262114
0.286595
0.312188
0.336514
0.357425
0.373738
0.385551
0.394036
0.400850
0.407469
0.414802
0.423229
0.432943
0.444260
0.457704
0.473865
0.493260
0.516392
0.544007
0.577316
0.617997
0.667815
0.727942
0.798294
0.877218
0.961628
1.047476
1.130423
1.206595
1.273316
1.329585
1.376078
1.414580
1.447074
1.474932
1.498556
1.517478
1.530700
1.537076
1.535591
1.525453
1.505992
1.476568
1.436605
1.385783
1.324303
1.253157
1.174251
1.090329
1.004671
0.920667
0.841458
0.769688
0.707192
0.654587
0.611061
0.574599
0.542599
0.512694
0.483516
0.455061
0.428504
0.405632
0.388251
0.377833
0.375447
0.381877
0.397765
0.423672
0.460001
0.506749
0.563180
0.627600
0.697356
0.769116
0.839450
0.905624
0.966296
1.021799
1.073995
1.125708
1.179699
1.237448
1.298284
1.359340
1.416486
1.465810
1.504874
1.533054
1.550984
1.559653
1.559837
1.552281
1.538405
1.520772
1.502799
1.487927
1.478774
1.476662
1.481671
1.492979
1.509145
1.528218
1.547765
1.564907
1.576453
1.579280
1.571017
1.550706
1.518943
1.477333
1.427625
1.370990
1.307791
1.237898
1.161234
1.078164
0.989450
0.895884
0.797964
0.695935
0.590085
0.480994
0.369574
0.257037
0.144938
0.035259
-0.069594
-0.166967
-0.254342
-0.329870
-0.392793
-0.443536
-0.483526
-0.514903
-0.540234
-0.562194
-0.583102
-0.604316
-0.625853
-0.646518
-0.664559
-0.678502
-0.687753
-0.692699
-0.694409
-0.694163
-0.693010
-0.691453
-0.689422
-0.686461
-0.681945
-0.675271
-0.666037
-0.654045
-0.639123
-0.620913
-0.598770
-0.571869
-0.539400
-0.500670
-0.455136
-0.402479
-0.342696
-0.276070
-0.203004
-0.123936
-0.039527
0.048860
0.138655
0.225952
0.306095
0.374839
0.429561
0.470042
0.498459
0.518548
0.534272
0.548564
0.562655
0.576184
0.587960
0.596933
0.602937
0.607052
0.611572
0.619531
0.633841
0.656351
0.687134
0.724371
0.764959
0.805621
0.844041
0.879652
0.913835
0.949347
0.989057
1.034493
1.084879
1.137139
1.186904
1.230056
1.263997
1.288060
1.302972
1.309835
1.309310
1.301444
1.286016
1.262907
1.232222
1.194205
1.149011
1.096459
1.035966
0.966683
0.887702
0.798315
0.698422
0.588998
0.472368
0.352200
0.233199
0.120528
0.018930
-0.068271
-0.139978
-0.197418
-0.243360
-0.280768
-0.311420
-0.335041
-0.349356
-0.351148
-0.337813
-0.308607
-0.265059
-0.210496
-0.149011
-0.084369
-0.019280
0.044838
0.107635
0.169247
0.229491
0.287199
0.339964
0.384295
0.416226
0.432263
0.430291
0.410071
0.373280
0.323106
0.263484
0.198233
0.130271
0.061056
-0.009534
-0.082854
-0.160809
-0.245177
-0.337187
-0.437429
-0.546070
-0.663243
-0.789320
-0.924713
-1.069198
-1.221213
-1.377765
-1.535094
-1.689623
-1.838644
-1.980518
-2.114510
-2.240446
-2.358381
-2.468356
-2.570306
-2.664064
-2.749358
-2.825739
-2.892461
-2.948376
-2.991895
-3.021133
-3.034314
-3.030313
-3.009083
-2.971729
-2.920236
-2.857122
-2.785181
-2.707295
-2.626270
-2.544750
-2.465185
-2.389724
-2.320065
-2.257475
-2.202954
-2.157342
-2.121351
-2.095511
-2.080110
-2.075051
-2.079470
-2.091418
-2.108055
-2.126265
-2.143299
-2.156944
-2.165196
-2.165904
-2.156780
-2.135810
-2.101926
-2.055444
-1.997832
-1.930977
-1.856527
-1.775769
-1.689781
-1.599485
-1.505719
-1.409428
-1.311763
-1.213899
-1.116658
-1.020104
-0.923242
-0.824143
-0.720645
-0.611254
-0.495659
-0.374667
-0.249729
-0.122286
0.006695
0.136702
0.267340
0.398081
0.528289
0.657388
0.784892
0.910253
1.032676
1.151004
1.263647
1.368768
1.464833
1.551128
1.627856
1.695975
1.757078
1.813256
1.866839
1.920061
1.974672
2.031680
2.091450
2.154030
2.219372
2.287390
2.357980
2.430923
2.505587
2.580635
2.653964
2.722659
2.782838
2.829718
2.858197
2.863762
2.843280
2.795296
2.719864
2.618167
2.492010
2.343379
2.174233
1.986511
1.782196
1.563304
1.331897
1.090260
0.841245
0.588582
0.336834
0.090805
-0.145258
-0.368166
-0.575853
-0.767131
-0.941360
-1.098263
-1.237891
-1.360608
-1.467198
-1.559134
-1.638880
-1.709942
-1.776516
-1.842796
-1.912250
-1.987113
-2.068189
-2.154910
-2.245594
-2.337884
-2.429137
-2.516621
-2.597730
-2.670304
-2.732922
-2.785053
-2.826839
-2.858473
-2.879609
-2.889224
-2.885920
-2.868398
-2.835887
-2.788397
-2.726614
-2.651654
-2.565106
-2.469330
-2.367561
-2.263576
-2.161094
-2.063256
-1.972388
-1.890053
-1.817235
-1.754445
-1.701766
-1.658938
-1.625358
-1.599768
-1.579993
-1.563140
-1.546108
-1.526156
-1.501401
-1.470927
-1.434593
-1.392964
-1.347543
-1.301021
-1.256992
-1.219027
-1.189636
-1.169692
-1.158405
-1.153597
-1.152192
-1.151045
-1.147875
-1.141693
-1.132618
-1.121473
-1.109450
-1.097707
-1.086924
-1.077041
-1.067146
-1.055519
-1.039932
-1.018051
-0.987781
-0.947388
-0.895251
-0.829503
-0.748016
-0.649016
-0.532060
-0.398615
-0.251857
-0.095990
0.064390
0.224560
0.379617
0.524431
0.653936
0.763700
0.850458
0.912383
0.949097
0.961410
0.950955
0.919960
0.871179
0.807857
0.733585
0.652057
0.566905
0.481675
0.399769
0.324197
0.257425
0.201508
0.158169
0.128431
0.112083
0.107432
0.111363
0.119757
0.128438
0.134209
0.135263
0.130844
0.120494
0.103396
0.078233
0.043557
-0.001828
-0.058805
-0.127885
-0.208865
-0.300499
-0.400466
-0.505614
-0.612506
-0.718192
-0.820721
-0.919010
-1.012409
-1.100440
-1.182734
-1.258990
-1.329061
-1.393269
-1.452666
-1.508892
-1.563833
-1.619198
-1.676126
-1.735108
-1.796300
-1.859917
-1.926418
-1.996390
-2.070219
-2.147804
-2.228478
-2.311121
-2.394306
-2.476407
-2.555789
-2.631087
-2.701423
-2.766507
-2.826570
-2.881983
-2.932669
-2.977600
-3.014745
-3.041540
-3.055652
-3.055607
-3.041205
-3.013841
-2.976586
-2.933703
-2.889689
-2.848281
-2.811846
-2.781404
-2.757125
-2.738877
-2.726520
-2.719953
-2.718928
-2.722737
-2.729965
-2.738513
-2.745822
-2.749138
-2.745909
-2.734257
-2.713280
-2.682985
-2.643916
-2.596610
-2.541077
-2.476537
-2.401536
-2.314355
-2.213469
-2.097960
-1.967782
-1.823754
-1.667254
-1.499855
-1.323010
-1.137884
-0.945364
-0.746152
-0.540876
-0.330215
-0.115062
0.103295
0.323117
0.542381
0.759063
0.971487
1.178553
1.379646
1.574386
1.762523
1.943941
2.118609
2.286419
2.447024
2.599711
2.743166
2.875114
2.992173
3.090247
3.165351
3.214405
3.235636
3.228651
3.194343
3.134855
3.053639
2.955324
2.845154
2.728182
2.608718
2.490183
2.375203
2.265744
2.163265
2.068942
1.984023
1.910118
1.849131
1.802775
1.771987
1.756631
1.755562
1.766883
1.788212
1.816840
1.849744
1.883529
1.914458
1.938642
1.952438
1.952931
1.938305
1.907985
1.862413
1.802478
1.728907
1.642067
1.542167
1.429592
1.305127
1.169992
1.025721
0.873969
0.716263
0.553748
0.387088
0.216546
0.042147
-0.135996
-0.317116
-0.499206
-0.678825
-0.851518
-1.012700
-1.158580
-1.286649
-1.395693
-1.485641
-1.557378
-1.612522
-1.653135
-1.681380
-1.699230
-1.708491
-1.710988
-1.708568
-1.703000
-1.696021
-1.689378
-1.684796
-1.683948
-1.688562
-1.700531
-1.721805
-1.754130
-1.798850
-1.856703
-1.927662
-2.011025
-2.105661
-2.210123
-2.322484
-2.440138
-2.559907
-2.678476
-2.792826
-2.900291
-2.998324
-3.084375
-3.156039
-3.211389
-3.249312
-3.269574
-3.272573
-3.258975
-3.229546
-3.185110
-3.126364
-3.053739
-2.967681
-2.869212
-2.760343
-2.644106
-2.524258
-2.404849
-2.289694
-2.181815
-2.083167
-1.994663
-1.916167
-1.846513
-1.783881
-1.726307
-1.672095
-1.620084
-1.569698
-1.520672
-1.472537
-1.424296
-1.374602
-1.321962
-1.264692
-1.201101
-1.129925
-1.050411
-0.962201
-0.865573
-0.761829
-0.653333
-0.543165
-0.434713
-0.331356
-0.236147
-0.151623
-0.079974
-0.023398
0.015863
0.036044
0.036378
0.017255
-0.019694
-0.071860
-0.136314
-0.210202
-0.290686
-0.374809
-0.459685
-0.543009
-0.623342
-0.700091
-0.773445
-0.844078
-0.912892
-0.981180
-1.050656
-1.123152
-1.200205
-1.282650
-1.370659
-1.464206
-1.563390
-1.668392
-1.779187
-1.895414
-2.016603
-2.142349
-2.272148
-2.405118
-2.539867
-2.674556
-2.807001
-2.934830
-3.055783
-3.167804
-3.268808
-3.356618
-3.429187
-3.484713
-3.521686
-3.539188
-3.537159
-3.516006
-3.476067
-3.417743
-3.341950
-3.250137
-3.143945
-3.024998
-2.894849
-2.754989
-2.607185
-2.453959
-2.298590
-2.144743
-1.996393
-1.857900
-1.733371
-1.625542
-1.535352
-1.462242
-1.404690
-1.360764
-1.328556
-1.306346
-1.292323
-1.284365
-1.280437
-1.278850
-1.277791
-1.274865
-1.267349
-1.252820
-1.229493
-1.196368
-1.153263
-1.100324
-1.037293
-0.963632
-0.879345
-0.785287
-0.682723
-0.573099
-0.458394
-0.341310
-0.225113
-0.113540
-0.010545
0.080291
0.156106
0.214601
0.253973
0.273227
0.272417
0.252624
0.215864
0.164908
0.102776
0.032266
-0.043870
-0.122576
-0.200704
-0.275487
-0.344688
-0.406385
-0.458673
-0.499522
-0.526752
-0.538230
-0.532602
-0.510125
-0.472534
-0.422054
-0.360702
-0.290398
-0.213187
-0.131122
-0.046283
0.039113
0.123105
0.204305
0.281336
0.352235
0.414898
0.467912
0.510915
0.544500
0.570123
0.590030
0.606901
0.623538
0.642998
0.668572
0.703186
0.748905
0.807080
0.878608
0.963778
1.061961
1.171650
1.290861
1.417375
1.548686
1.682150
1.815303
1.945869
2.071477
2.189435
2.296736
2.390249
2.466983
2.524425
2.560956
2.576106
2.570536
2.545846
2.504125
2.447663
2.379208
2.301847
2.218389
2.131106
2.041868
1.952445
1.864724
1.780636
1.702142
1.631156
1.568971
1.515655
1.470083
1.430477
1.394932
1.361598
1.328581
1.293943
1.255831
1.212858
1.164663
1.111929
1.055782
0.997263
0.936979
0.874828
0.810004
0.741544
0.668842
0.591586
0.509728
0.423813
0.335093
0.245046
0.154929
0.066054
-0.019918
-0.101406
-0.177379
-0.247276
-0.310627
-0.367149
-0.417418
-0.463166
-0.506809
-0.550946
-0.598196
-0.650684
-0.709380
-0.774351
-0.845434
-0.921918
-1.001760
-1.081857
-1.159053
-1.230507
-1.293493
-1.345890
-1.387108
-1.417927
-1.439349
-1.452058
-1.456705
-1.454048
-1.444708
-1.428924
-1.406683
-1.377866
-1.342065
-1.298657
-1.247284
-1.188135
-1.121801
-1.049159
-0.971526
-0.890525
-0.807645
-0.724131
-0.640932
-0.558324
-0.475837
-0.392615
-0.307638
-0.219701
-0.127590
-0.030702
0.070546
0.174876
0.280365
0.384782
0.486031
0.582270
0.671896
0.753767
0.827436
0.893170
0.951990
1.005787
1.057071
1.108217
1.160849
1.215931
1.273925
1.334720
1.397739
1.461980
1.526097
1.588562
1.647599
1.701243
1.747754
1.785790
1.814195
1.832012
1.838797
1.834401
1.818182
1.788884
1.745413
1.687147
1.613532
1.524167
1.419307
1.299803
1.166980
1.023019
0.871102
0.714999
0.558784
0.406774
0.263320
0.132636
0.018952
-0.073450
-0.140629
-0.179501
-0.188211
-0.166395
-0.115278
-0.037442
0.063688
0.184294
0.320338
0.467478
0.621168
0.777050
0.931138
1.079657
1.219071
1.346318
1.458657
1.553534
1.629145
1.684722
1.719894
1.734457
1.728968
1.704934
1.664295
1.609150
1.542046
1.465911
1.383760
1.298937
1.215321
1.136836
1.066810
1.007826
0.961980
0.930691
0.914009
0.910541
0.918172
0.934535
0.956944
0.982336
1.007537
1.029515
1.045399
1.052853
1.050623
1.038375
1.016106
0.984214
0.943867
0.896565
0.843488
0.785560
0.723701
0.658957
0.592703
0.526649
0.462389
0.400959
0.342874
0.288173
0.236339
0.186687
0.138930
0.093410
0.051092
0.013218
-0.019186
-0.045508
-0.065604
-0.080025
-0.090128
-0.097678
-0.104404
-0.111894
-0.121293
-0.132852
-0.145964
-0.159512
-0.171866
-0.181041
-0.185541
-0.184884
-0.179242
-0.169115
-0.155288
-0.138470
-0.118968
-0.096936
-0.072673
-0.046534
-0.018609
0.011308
0.043138
0.076112
0.109100
0.141128
0.171399
0.199138
0.224035
0.246626
0.267558
0.286767
0.303774
0.318356
0.330626
0.340913
0.349784
0.357822
0.365331
0.372441
0.379174
0.385239
0.389995
0.392547
0.391807
0.386754
0.376746
0.361468
0.340678
0.314375
0.283069
0.247627
0.209081
0.168784
0.128345
0.089270
0.052896
0.020517
-0.006740
-0.028121
-0.043131
-0.051172
-0.051301
-0.042247
-0.022727
0.008009
0.049967
0.102460
0.163859
0.231688
0.303398
0.376667
0.449254
0.519215
0.585301
0.647117
0.704957
0.759471
0.811204
0.860214
0.906312
0.949530
0.990033
1.027955
1.063643
1.097707
1.130732
1.163062
1.194741
1.225531
1.254929
1.282281
1.307089
1.329251
1.349125
1.367393
1.384700
1.401415
1.417623
1.433152
1.447567
1.460055
1.469448
1.474616
1.474915
1.470255
1.460871
1.447089
1.429227
1.407569
1.382380
1.354124
1.323700
1.292240
1.260715
1.229770
1.199568
1.169748
1.139746
1.109071
1.077433
1.044872
1.011852
0.979182
0.947816
0.918943
0.894116
0.874814
0.861873
0.855335
0.854487
0.858124
0.864981
0.873890
0.883538
0.892368
0.898835
0.901786
0.900864
0.896690
0.890594
0.884141
0.878922
0.876564
0.878584
0.886048
0.899288
0.917808
0.940373
0.965163
0.989945
1.012375
1.030329
1.042119
1.046673
1.043728
1.033843
1.018092
0.997648
0.973633
0.947033
0.918465
0.888181
0.856381
0.823414
0.789846
0.756560
0.724727
0.695523
0.669864
0.648361
0.631311
0.618761
0.610728
0.607274
0.608324
0.613516
0.622181
0.633365
0.645885
0.658386
0.669412
0.677513
0.681491
0.680648
0.674693
0.663480
0.647030
0.625625
0.599810
0.570531
0.539213
0.507525
0.477112
0.449440
0.425762
0.407180
0.394623
0.388644
0.389233
0.395937
0.408287
0.426016
0.448849
0.476312
0.507760
0.542494
0.579929
0.619526
0.660454
0.701569
0.741745
0.780048
0.815775
0.848581
0.878466
0.905471
0.929567
0.950908
0.970031
0.987767
1.005236
1.023844
1.045010
1.070050
1.100239
1.136521
1.179073
1.227307
1.280101
1.335840
1.392501
1.448014
1.500503
1.548243
