EVENT_NAME: EMILIA_2ND_SHOCK
EVENT_ID: IT-2012-0011
EVENT_DATE_YYYYMMDD: 20120529
EVENT_TIME_HHMMSS: 070002
EVENT_LATITUDE_DEGREE: 44.8417
EVENT_LONGITUDE_DEGREE: 11.0657
EVENT_DEPTH_KM: 8.1
HYPOCENTER_REFERENCE: INGV-CNT_Seismic_Bulletin
MAGNITUDE_W: 6.0
MAGNITUDE_W_REFERENCE: RCMT-INGV
MAGNITUDE_L: 5.8
MAGNITUDE_L_REFERENCE: INGV-CNT_Seismic_Bulletin
FOCAL_MECHANISM: TF
NETWORK: IT
STATION_CODE: MOG0
STATION_NAME: MOGLIA
STATION_LATITUDE_DEGREE: 44.932000
STATION_LONGITUDE_DEGREE: 10.912000
STATION_ELEVATION_M: 92
LOCATION: 
SENSOR_DEPTH_M: 0.0
VS30_M/S: 
SITE_CLASSIFICATION_EC8: C*
MORPHOLOGIC_CLASSIFICATION: 
EPICENTRAL_DISTANCE_KM: 15.8
EARTHQUAKE_BACKAZIMUTH_DEGREE: 129.5
DATE_TIME_FIRST_SAMPLE_YYYYMMDD_HHMMSS: 20120529_065953.000
DATE_TIME_FIRST_SAMPLE_PRECISION: seconds
SAMPLING_INTERVAL_S: 0.005000
NDATA: 23000
DURATION_S: 115.000
STREAM: HNE
UNITS: cm/s^2
INSTRUMENT: sensor = Episensor FBA ES-T [Kinemetrics] | digitizer = Etna [Kinemetrics]
INSTRUMENT_ANALOG/DIGITAL: D
INSTRUMENTAL_FREQUENCY_HZ: 
INSTRUMENTAL_DAMPING: 
FULL_SCALE_G: 
N_BIT_DIGITAL_CONVERTER: 18
PGA_CM/S^2: 235.612876
TIME_PGA_S: 20.990000
BASELINE_CORRECTION: BASELINE REMOVED
FILTER_TYPE: BUTTERWORTH
FILTER_ORDER: 2
LOW_CUT_FREQUENCY_HZ: 0.080
HIGH_CUT_FREQUENCY_HZ: 40.000
LATE/NORMAL_TRIGGERED: NT
DATABASE_VERSION: DYNA 1.0
HEADER_FORMAT: DYNA 1.2
DATA_TYPE: ACCELERATION
PROCESSING: manual (Paolucci et al., 2011)
DATA_TIMESTAMP_YYYYMMDD_HHMMSS: 20141204_103647.358
DATA_LICENSE: CC-BY3_0-IT (http://creativecommons.org/licenses/by/3.0/deed.en)
DATA_CITATION: ESM working group (2015), European Strong-Motion database, version 0.1, Network Activity 3: Networking acceleration networks and SM data users. Project NERA (www.nera-eu.org)
DATA_CREATOR: ESM working group
ORIGINAL_DATA_MEDIATOR_CITATION: Ufficio Rischio Sismico e Vulcanico del Dipartimento della Protezione Civile (http://www.protezionecivile.gov.it/)
ORIGINAL_DATA_MEDIATOR: Rete Accelerometrica Nazionale - RAN Download (http://www.mot1.it/randownload/)
ORIGINAL_DATA_CREATOR_CITATION: Italian Strong Motion Network, Italian Civil Protection Department http://www.protezionecivile.gov.it
ORIGINAL_DATA_CREATOR: network: IT (Italian Strong Motion Network); owner: Dipartimento Della Protezione Civile
USER1: /home/dyna/processing-itaca/processing.py /var/www/processing/tmp/fpacor//IT.MOG0..HNE.D.20120529.070003.X.ACC.ASC /var/www/processing/tmp/fpacor//IT.MOG0..HNN.D.20120529.070003.X.ACC.ASC /var/www/processing/tmp/fpacor//IT.MOG0..HNZ.D.20120529.070003.X.ACC.ASC --tmp /var/www/processing/tmp/fpacor/ --le 0.080 --he 40.000 --ln 0.080 --hn 40.000 --lz 0.080 --hz 40.000 --fo 2 --ca -10 --cz 30 --ta 5 --tz 5 --mf 1 --rf 0 --tr NT
USER2: 
USER3: 
USER4: 
USER5: 
[...]
-2.647808
-3.366917
-3.113827
-1.875389
-0.032648
1.769883
2.912353
3.124675
2.566543
1.575497
0.413023
-0.709630
-1.485884
-1.586770
-0.952309
0.082682
1.002786
1.414016
1.185641
0.411657
-0.626728
-1.476063
-1.768074
-1.534339
-1.112248
-0.804080
-0.696318
-0.674836
-0.555837
-0.299602
-0.089784
-0.087412
-0.154474
0.036155
0.606010
1.280180
1.600871
1.270741
0.335821
-0.860695
-1.806736
-1.973659
-1.159533
0.217663
1.362272
1.729715
1.424077
0.968617
0.727991
0.674428
0.616345
0.500553
0.560297
1.090383
1.952756
2.493686
2.116121
0.835052
-0.867643
-2.554634
-3.835701
-4.142879
-3.104634
-0.970694
1.612247
4.006447
5.739351
6.462336
5.927360
4.144207
1.501195
-1.296178
-3.369795
-4.043578
-3.410020
-2.357695
-1.728265
-1.578842
-1.404301
-0.808973
0.093119
0.763290
0.775643
0.172439
-0.748141
-1.568085
-1.690164
-0.737650
0.947256
2.541150
3.385601
3.271993
2.201738
0.158687
-2.570868
-5.086420
-6.308824
-5.700017
-3.482797
-0.455117
2.230097
3.550637
3.391281
2.717360
2.599157
3.085124
3.310041
2.642404
1.325612
-0.069876
-1.266755
-2.177049
-2.716936
-2.825467
-2.501748
-1.885216
-1.221599
-0.731769
-0.471727
-0.235029
0.283198
1.185984
2.309070
3.343878
3.768210
2.834912
0.301651
-2.819164
-4.956028
-5.309932
-3.912799
-0.971482
2.921169
6.264026
7.344223
5.684916
2.372750
-1.022339
-3.529012
-4.919929
-5.340854
-5.108686
-4.587407
-3.880628
-2.670668
-0.727864
1.368930
2.510428
2.192086
0.993953
-0.062844
-0.306377
0.321669
1.360278
2.102635
2.089068
1.445529
0.613641
-0.081607
-0.529019
-0.842719
-1.269925
-1.750999
-1.721828
-0.750040
0.796620
1.947638
1.737287
-0.260068
-3.434558
-6.127008
-6.572252
-4.197140
0.056576
4.561583
7.776058
8.510876
6.257869
1.594560
-3.868692
-8.153130
-9.756053
-8.217637
-4.283162
0.421731
4.158422
5.883803
5.549077
3.698531
1.045167
-1.607335
-3.619533
-4.667569
-4.505218
-3.086210
-0.951700
0.925806
1.851452
1.868881
1.337394
0.277605
-1.546610
-3.991825
-6.149612
-6.773871
-5.242966
-2.102998
1.258070
3.405474
3.487904
1.545248
-1.321245
-3.387048
-3.514920
-1.790282
0.936266
3.465822
4.504220
3.304021
0.204629
-3.503063
-6.321493
-7.384746
-6.716660
-4.811247
-2.145157
0.861615
3.699071
5.870219
7.061065
7.102149
5.904485
3.723727
1.452241
0.107955
-0.015129
0.667102
1.501553
1.828151
1.378218
0.704992
0.804439
2.045792
3.663131
4.518645
4.098729
2.452536
-0.315154
-3.754800
-6.606967
-7.403377
-5.651666
-2.188471
1.579403
4.485883
5.911607
5.923620
5.011972
3.453479
1.274049
-1.281735
-3.632296
-5.017009
-4.773457
-2.912033
-0.446840
1.279697
1.685950
1.051823
-0.153990
-1.358923
-1.672617
-0.567556
1.140441
1.826311
0.936811
-0.477710
-1.401315
-1.911396
-2.297617
-2.310622
-1.739638
-0.913105
-0.214042
0.543173
1.903639
3.851158
5.454517
5.758096
4.679718
2.760250
0.494345
-1.689976
-3.249537
-3.786090
-3.165922
-1.374324
1.056601
2.538680
1.355696
-2.572532
-7.401684
-10.872929
-11.732455
-9.786989
-5.244165
1.177421
7.713989
12.220071
13.295308
10.538802
4.668413
-2.438139
-8.460353
-11.566851
-11.023930
-7.468800
-2.768044
0.881162
2.326547
1.865303
0.221908
-2.418671
-5.847356
-8.545699
-8.134124
-3.427577
4.379564
12.012400
15.767748
14.255710
9.401564
4.174029
-0.069778
-3.708166
-7.000469
-9.111963
-9.056764
-6.789092
-3.482192
-0.966054
-0.233961
-0.559836
-0.538752
0.512903
2.340244
4.154890
5.084737
4.588804
2.583133
-0.557951
-3.956580
-6.466678
-7.175766
-5.879449
-3.011235
0.985216
5.537147
9.268925
10.425092
8.192566
3.425755
-1.972770
-5.981026
-6.972453
-4.695476
-0.766312
2.679684
4.440161
4.249378
2.305149
-0.489550
-2.362521
-1.987421
0.005461
1.642443
1.717093
0.624502
-0.725039
-1.636843
-1.363108
0.613793
3.847818
6.875958
7.916813
6.081081
2.364848
-1.089028
-2.890479
-2.989697
-2.045761
-1.016086
-0.695607
-1.275256
-2.515286
-4.052970
-5.228791
-4.747592
-1.341253
4.608737
10.631200
13.784841
12.600038
7.636376
0.565880
-7.003170
-13.719135
-18.035559
-18.613792
-15.562163
-10.703261
-6.396873
-4.220119
-4.298796
-5.628187
-7.126628
-8.091595
-7.942999
-6.371652
-3.810022
-1.291232
0.277816
0.490352
-0.624774
-2.465671
-3.889918
-3.931630
-2.514259
-0.598273
0.363834
-0.273747
-1.706378
-2.778693
-3.065743
-2.569019
-1.291464
0.718507
3.595221
7.418417
11.121376
12.600392
10.540906
5.712813
0.622079
-1.955678
-0.684381
3.562025
8.236991
10.450361
8.669527
3.827793
-1.436873
-4.937083
-6.267752
-6.189120
-5.390705
-4.115933
-2.487529
-0.849128
0.296736
0.715429
0.629464
0.411500
0.123374
-0.571593
-1.904009
-3.563198
-5.023355
-6.224354
-7.598128
-9.283837
-10.591807
-10.286031
-7.312242
-1.793396
4.313317
8.108981
7.903817
4.536850
0.865817
0.005294
3.040068
7.985808
11.250240
10.188324
4.927558
-1.718898
-6.573061
-8.491584
-8.315035
-7.059662
-4.823563
-1.283350
3.151755
6.859992
7.890645
5.476199
0.603823
-4.808465
-9.074949
-11.290544
-11.328926
-9.754535
-7.807127
-7.112061
-8.601518
-11.346033
-13.022632
-11.835721
-7.803983
-2.679538
1.028542
1.607833
-0.904426
-5.232590
-9.783612
-13.093762
-14.213941
-13.088407
-10.326006
-6.600900
-2.582263
0.710968
1.975894
0.348624
-3.649495
-7.852685
-9.726293
-8.253260
-4.388369
-0.057364
2.961600
3.930184
3.471916
2.763732
2.175824
0.977717
-1.281820
-3.826176
-5.591463
-6.285984
-6.282986
-6.162649
-6.538776
-7.837424
-9.671251
-10.575442
-9.116539
-5.462863
-1.415055
1.266851
2.382062
3.137009
4.666258
6.863776
8.403755
7.611995
3.953587
-0.899193
-4.296551
-5.142148
-4.346330
-2.995640
-1.265611
0.832199
2.643361
3.295077
2.561641
0.940130
-0.868284
-2.233749
-2.750202
-2.622169
-2.623535
-3.288941
-4.411613
-5.407776
-5.828649
-5.465977
-4.244451
-2.324129
-0.286193
1.054029
1.204682
0.413595
-0.545956
-1.009555
-0.801387
-0.037269
1.271038
3.143357
5.192788
6.603077
6.634870
5.028027
2.045473
-1.614905
-4.907448
-6.672802
-6.325952
-4.427635
-2.185418
-0.642432
-0.524178
-2.090231
-4.711381
-7.001134
-7.738116
-6.743120
-4.820258
-2.948269
-1.835054
-2.163413
-4.506846
-8.560777
-12.957348
-16.250526
-17.878214
-18.195812
-17.726168
-16.307590
-13.318474
-8.932169
-4.599510
-2.146446
-2.660927
-5.823032
-9.848195
-12.335205
-11.585944
-7.541948
-1.724007
3.842054
7.777626
9.708434
10.039213
9.736279
9.953955
11.581883
15.109578
20.074080
24.734238
27.279543
26.990742
24.335787
20.736568
17.730957
15.846528
14.708549
14.055337
13.882854
14.126026
14.879935
16.255806
17.929649
19.537931
21.283339
23.636738
26.706106
30.193821
33.730507
37.033150
39.881935
42.042892
43.212547
43.216610
42.276409
40.940998
39.955597
40.192993
42.130527
45.269100
48.488602
50.894909
52.189163
52.587177
52.517925
52.208412
51.543243
50.342228
48.595699
46.270920
42.983891
38.108559
31.268585
22.700064
13.248172
3.935674
-4.498828
-11.376903
-15.662408
-16.512161
-14.274766
-10.381217
-6.200797
-2.302750
1.257105
4.309513
6.442880
7.252694
6.587432
4.869756
3.006063
1.547196
0.126131
-1.937228
-4.508494
-6.504551
-7.071012
-6.454951
-5.448332
-4.493774
-3.699978
-3.241372
-3.383916
-4.424886
-6.774555
-10.725817
-15.804440
-20.648911
-23.933872
-25.381384
-25.890627
-26.704460
-28.372257
-30.577993
-32.679165
-34.013958
-33.980431
-32.290859
-29.214937
-25.528074
-22.244722
-20.283470
-20.070427
-21.297239
-23.143829
-24.741987
-25.455931
-25.035885
-23.798647
-22.555895
-22.029434
-22.184200
-22.254740
-21.453175
-19.505951
-16.535446
-12.615244
-7.625675
-1.611298
4.931506
11.250730
16.605696
20.302399
21.736713
20.556429
16.782583
10.692530
2.644247
-6.525609
-15.050328
-21.183924
-24.600512
-25.993183
-25.709291
-23.537775
-19.295279
-13.154860
-5.722929
2.322344
10.774997
19.478798
27.422693
33.076706
35.694214
35.835285
34.556389
32.219093
28.206432
21.811644
13.302221
4.275610
-2.968430
-6.696237
-6.581996
-3.658610
0.133363
2.657751
2.524590
-0.404849
-5.309450
-10.973603
-16.218773
-20.294744
-22.975082
-23.975409
-22.492203
-17.814627
-10.241963
-1.144286
7.811293
15.498319
21.417051
25.255737
26.862226
26.447071
24.323433
20.544226
15.042185
7.932128
-0.451561
-9.551151
-18.646751
-27.234320
-35.262218
-42.766304
-49.466259
-54.940796
-58.930450
-61.327862
-62.192753
-61.844536
-60.720222
-59.080372
-56.852253
-53.817848
-50.119804
-46.550877
-44.033234
-42.647392
-41.434574
-39.431404
-36.711388
-34.083263
-32.030178
-30.459703
-29.283312
-28.732588
-29.171518
-30.908213
-34.250183
-39.412197
-45.956940
-52.509178
-57.578991
-60.781586
-62.702702
-62.726715
-57.089397
-41.334198
-16.743118
7.849531
23.959305
31.487312
36.085205
41.059334
45.093887
45.991940
43.436634
38.552246
32.881416
27.898870
24.305912
21.559776
18.506531
14.247591
8.001324
-1.247131
-13.555442
-26.441332
-36.404266
-42.473755
-46.532372
-50.392902
-54.373508
-58.210777
-61.732391
-64.777496
-66.959091
-66.931610
-61.792683
-48.392693
-26.862797
-2.586995
17.954685
33.450630
47.388607
62.319237
77.169678
89.506332
98.178177
103.503006
106.065956
106.019630
103.318954
98.332130
92.329094
87.339920
85.274849
87.070503
92.366417
99.826591
108.094330
116.543442
124.519539
128.278259
118.086174
83.528351
28.480902
-25.535543
-61.306046
-82.387154
-99.854408
-116.221931
-128.844208
-137.774918
-144.597549
-148.338745
-145.581741
-133.228928
-111.100433
-82.845306
-53.534752
-26.142530
-1.065858
21.758907
41.719730
58.193600
71.131577
80.662819
86.244110
86.497620
80.564476
69.642143
56.641041
44.437141
34.613777
27.403223
22.414907
19.236547
17.466066
16.718138
16.915987
18.295746
20.912746
24.476080
28.504005
31.920664
32.655655
28.846325
21.157024
13.164714
9.058812
10.808949
16.948011
24.461712
31.205126
35.486866
34.904423
27.391796
13.571171
-3.063208
-19.092712
-33.441730
-46.277138
-56.878334
-63.843285
-67.085175
-68.331490
-69.339874
-70.417732
-70.750648
-69.334198
-65.500992
-59.376526
-52.273472
-46.103218
-41.957005
-39.644501
-38.607277
-38.631500
-39.547909
-40.693279
-41.105026
-40.260944
-38.227570
-35.118927
-30.920298
-25.722624
-19.607117
-12.378798
-3.889828
5.269235
13.814925
20.860231
26.754080
32.455051
38.309383
43.892620
48.798065
53.150585
57.289867
61.047134
63.701157
64.973801
65.727158
67.271805
70.224464
74.178261
78.143700
81.182213
82.752525
82.674911
80.884377
76.913361
69.756874
59.160046
47.039700
36.340881
28.082338
20.522341
11.368320
-0.125493
-13.270195
-27.204369
-41.481838
-55.657806
-68.872459
-80.105453
-88.723618
-94.657700
-98.141685
-99.509682
-99.272606
-98.098328
-96.512978
-94.646004
-92.195259
-88.448334
-82.305084
-72.634460
-58.995697
-42.188866
-24.259026
-7.632162
6.245381
17.522154
27.508068
37.698612
48.686127
59.689529
69.408180
77.510239
84.728645
91.553185
97.845573
103.496239
108.406769
112.108231
114.159492
114.717705
114.218231
112.812706
110.505585
107.248253
102.636292
96.186714
88.189606
80.118439
74.050438
71.452072
72.198433
74.345917
75.081573
72.722122
67.932343
62.819099
59.124352
57.341034
57.102551
57.979862
59.894711
63.025703
67.372002
72.497223
77.740921
82.334373
85.152672
84.876480
81.142143
75.288803
69.318375
64.429131
60.920280
59.044838
59.113029
60.688866
62.452274
63.056938
61.802063
58.577263
53.376022
45.677467
34.352757
18.627897
-0.789786
-21.930210
-43.065540
-63.565804
-83.171432
-101.336365
-117.816849
-133.105011
-147.698883
-161.311966
-172.858704
-181.076431
-185.443451
-186.779221
-186.903534
-187.287888
-187.960220
-188.003448
-186.861313
-184.879044
-182.670425
-180.192017
-176.884720
-172.651703
-168.242020
-164.754990
-162.794312
-162.021271
-161.649780
-161.098389
-160.047424
-158.302231
-155.825424
-152.912552
-150.339951
-149.068161
-149.532867
-151.414917
-153.924088
-156.027878
-157.153290
-157.904007
-159.476959
-162.424149
-166.140289
-169.506821
-172.022003
-173.869949
-174.860199
-174.171463
-171.174728
-165.602570
-156.736038
-143.098068
-123.755280
-100.042725
-75.538673
-53.877106
-36.226357
-21.156763
-6.618526
8.863978
26.034800
44.779850
64.364830
83.913887
102.776344
120.796616
138.246155
155.273087
171.354385
185.552536
197.308823
206.551804
213.208817
217.327179
219.588486
220.861267
221.187912
220.020462
217.341385
213.852417
210.483765
208.494766
209.444931
213.654648
219.187042
223.555893
225.834915
226.879593
228.141830
230.467453
233.519775
235.612869
234.874710
231.144958
225.790268
219.526291
210.882889
197.471832
179.508499
159.880219
139.689636
117.103264
90.433067
60.673592
31.806639
7.587352
-12.025714
-30.259398
-49.958237
-71.529289
-94.405373
-118.111565
-141.192490
-161.228485
-175.453491
-180.505264
-173.003708
-150.593292
-112.660706
-63.105545
-13.059591
24.907089
47.903454
62.991833
77.058487
91.877846
106.306267
118.924179
129.601013
138.915329
145.453278
144.436920
130.004395
100.182426
60.526585
21.601213
-8.651546
-29.509542
-44.603817
-56.936199
-67.460800
-76.368004
-84.112648
-91.223434
-97.652679
-102.572395
-105.046143
-105.272629
-104.793610
-104.806450
-104.830528
-103.861778
-102.064636
-100.432106
-99.596893
-99.429497
-99.008797
-97.325897
-94.291603
-90.349785
-85.661476
-80.016762
-72.874481
-63.719799
-52.860100
-41.378162
-30.004158
-18.590166
-6.874500
4.740314
15.471844
24.672329
32.006359
37.667439
42.201900
45.858875
48.505627
50.549568
52.725887
54.826427
56.250221
57.067921
57.671856
57.919132
56.472282
50.554268
37.389023
17.578632
-3.815405
-21.085539
-32.498734
-40.566860
-48.464001
-57.473179
-67.130066
-76.269897
-84.039764
-90.659813
-97.210190
-103.872467
-108.729767
-109.319420
-104.352097
-93.887100
-79.805855
-65.050728
-51.089832
-37.243359
-22.166929
-5.708235
10.488298
24.746906
37.033871
48.043365
57.431828
64.112877
67.542236
67.706078
64.282166
55.905632
40.881870
19.445002
-4.966163
-27.219810
-44.020401
-55.752605
-64.528862
-71.498352
-76.657204
-80.149864
-82.531158
-84.348862
-85.943459
-86.892181
-85.834473
-81.066200
-70.714203
-53.758911
-32.673931
-12.764983
2.750214
14.832703
25.844990
36.720875
47.022732
56.433910
64.888885
71.802742
76.375725
78.402580
78.328239
76.767113
74.202774
71.194817
68.511307
66.385712
64.028465
60.597591
56.249435
52.095695
49.587006
49.574062
51.454941
53.690067
55.563171
57.846378
61.397495
65.840065
70.025597
73.145203
74.834305
74.856499
73.324760
70.714737
67.632454
64.706017
62.178707
59.572041
55.474442
47.624401
34.740368
18.867945
4.427697
-5.735210
-12.274972
-17.250992
-21.868851
-26.713879
-32.372025
-38.878330
-45.402954
-50.910595
-54.680740
-56.351257
-56.041668
-54.257889
-51.341995
-46.965275
-40.394096
-31.787527
-22.877077
-15.484137
-9.835159
-5.229220
-1.431703
1.671768
4.678014
7.848687
10.535009
12.116103
12.617325
12.010922
9.924281
6.125207
0.749666
-5.607227
-11.858406
-16.983660
-20.744534
-23.446535
-25.485802
-27.618847
-30.637884
-34.449059
-38.059578
-40.433289
-41.494057
-42.282162
-43.812969
-45.972427
-47.834164
-48.795097
-48.715080
-47.205791
-43.752827
-38.343464
-31.333071
-23.073109
-14.026081
-4.902792
3.446099
10.333725
15.517441
19.107061
21.460051
23.289042
25.625845
29.215025
33.521591
36.917065
38.275570
37.898434
37.116756
37.425251
39.545010
43.110249
47.324825
51.508476
54.976265
57.226700
58.609386
60.005737
61.652435
62.967064
63.223907
61.692486
57.206066
48.697929
36.813438
23.738995
11.405417
0.752108
-8.303670
-16.408735
-23.561909
-28.874865
-31.367275
-30.348057
-25.969526
-19.871277
-14.145674
-9.797758
-6.875049
-5.224101
-4.825753
-5.850347
-8.186413
-11.203717
-14.310262
-17.408222
-20.751511
-24.419847
-28.031483
-30.974941
-32.905479
-34.161411
-35.193874
-35.615494
-34.572941
-31.578844
-26.427517
-19.092550
-10.316096
-1.753666
5.091188
9.992017
13.812288
17.347095
20.576550
22.941635
24.132364
24.524197
24.849573
25.442360
25.884365
25.466871
23.833803
21.122442
17.705463
14.044352
10.823247
8.884977
8.750900
10.416663
13.546227
17.377871
20.934971
23.748089
25.578756
25.862133
24.588205
22.715549
20.899609
19.051819
17.111591
15.116179
12.964205
10.570585
7.648796
3.712593
-1.300009
-7.064170
-13.163613
-19.315765
-25.569616
-31.796099
-37.789562
-43.519619
-48.589321
-52.523525
-55.206642
-56.830719
-57.846569
-58.488430
-58.620247
-58.009533
-56.526794
-54.527489
-52.615891
-50.836357
-48.735149
-45.940296
-42.214546
-37.362179
-31.407770
-24.642036
-17.447765
-10.417890
-4.486775
-0.505312
1.320872
1.462987
0.339210
-2.186231
-6.064811
-10.194195
-13.041091
-14.165652
-13.924236
-11.924346
-7.781288
-2.553731
2.188617
5.941258
9.216913
12.436480
15.635891
18.627569
20.921867
22.162483
22.189512
20.808746
18.349737
15.593420
12.907337
10.092706
6.615060
2.174072
-2.629376
-6.947903
-10.535281
-13.392046
-15.360317
-16.384844
-16.909836
-17.586803
-18.560463
-19.527246
-20.285791
-20.576204
-19.553345
-16.994968
-14.563202
-13.444509
-12.754483
-11.506488
-9.498621
-7.338845
-6.198319
-6.248132
-6.737018
-7.396709
-8.748406
-11.604943
-16.176111
-21.632256
-26.729885
-30.870478
-34.693287
-39.283684
-44.779049
-50.177372
-54.339676
-57.076305
-59.156284
-61.117237
-62.440186
-61.691368
-57.164463
-48.232719
-36.721680
-26.251902
-19.443241
-16.051964
-14.089985
-11.980613
-9.236161
-6.017372
-2.833289
-0.346963
1.026834
1.495062
1.869419
3.174183
6.109204
10.659672
16.304342
22.485556
28.656618
34.341019
39.342880
43.658512
47.373127
50.617828
53.468769
55.820755
57.424736
58.266300
58.554779
58.526512
58.566521
59.105255
60.329636
61.772408
62.636135
62.833046
62.857510
63.215679
64.358978
66.259560
68.285362
69.840637
70.783333
71.285347
71.519638
71.622627
71.756943
