EVENT_NAME: EMILIA_2ND_SHOCK
EVENT_ID: IT-2012-0011
EVENT_DATE_YYYYMMDD: 20120529
EVENT_TIME_HHMMSS: 070002
EVENT_LATITUDE_DEGREE: 44.8417
EVENT_LONGITUDE_DEGREE: 11.0657
EVENT_DEPTH_KM: 8.1
HYPOCENTER_REFERENCE: INGV-CNT_Seismic_Bulletin
MAGNITUDE_W: 6.0
MAGNITUDE_W_REFERENCE: RCMT-INGV
MAGNITUDE_L: 5.8
MAGNITUDE_L_REFERENCE: INGV-CNT_Seismic_Bulletin
FOCAL_MECHANISM: TF
NETWORK: IT
STATION_CODE: MRN
STATION_NAME: MIRANDOLA (NAPOLI)
STATION_LATITUDE_DEGREE: 44.878231
STATION_LONGITUDE_DEGREE: 11.061743
STATION_ELEVATION_M: 15
LOCATION: 
SENSOR_DEPTH_M: 0.0
VS30_M/S: 208
SITE_CLASSIFICATION_EC8: C
MORPHOLOGIC_CLASSIFICATION: 
EPICENTRAL_DISTANCE_KM: 4.1
EARTHQUAKE_BACKAZIMUTH_DEGREE: 175.6
DATE_TIME_FIRST_SAMPLE_YYYYMMDD_HHMMSS: 20120529_065948.000
DATE_TIME_FIRST_SAMPLE_PRECISION: seconds
SAMPLING_INTERVAL_S: 0.005000
NDATA: 13713
DURATION_S: 68.565
STREAM: HNN
UNITS: cm/s
INSTRUMENT: sensor = MS2007+ [Syscom] | digitizer = 130-01/3 [Reftek]
INSTRUMENT_ANALOG/DIGITAL: D
INSTRUMENTAL_FREQUENCY_HZ: 
INSTRUMENTAL_DAMPING: 
FULL_SCALE_G: 
N_BIT_DIGITAL_CONVERTER: 24
PGV_CM/S: -57.510645
TIME_PGV_S: 21.230000
BASELINE_CORRECTION: BASELINE REMOVED
FILTER_TYPE: BUTTERWORTH
FILTER_ORDER: 2
LOW_CUT_FREQUENCY_HZ: 0.070
HIGH_CUT_FREQUENCY_HZ: 40.000
LATE/NORMAL_TRIGGERED: NT
DATABASE_VERSION: DYNA 1.0
HEADER_FORMAT: DYNA 1.2
DATA_TYPE: VELOCITY
PROCESSING: manual (Paolucci et al., 2011)
DATA_TIMESTAMP_YYYYMMDD_HHMMSS: 20141204_104205.354
DATA_LICENSE: CC-BY3_0-IT (http://creativecommons.org/licenses/by/3.0/deed.en)
DATA_CITATION: ESM working group (2015), European Strong-Motion database, version 0.1, Network Activity 3: Networking acceleration networks and SM data users. Project NERA (www.nera-eu.org)
DATA_CREATOR: ESM working group
ORIGINAL_DATA_MEDIATOR_CITATION: Ufficio Rischio Sismico e Vulcanico del Dipartimento della Protezione Civile (http://www.protezionecivile.gov.it/)
ORIGINAL_DATA_MEDIATOR: Rete Accelerometrica Nazionale - RAN Download (http://www.mot1.it/randownload/)
ORIGINAL_DATA_CREATOR_CITATION: Italian Strong Motion Network, Italian Civil Protection Department http://www.protezionecivile.gov.it
ORIGINAL_DATA_CREATOR: network: IT (Italian Strong Motion Network); owner: Dipartimento Della Protezione Civile
USER1: /home/dyna/processing-itaca/processing.py /var/www/processing/tmp/fpacor//IT.MRN..HNE.D.20120529.070003.X.ACC.ASC /var/www/processing/tmp/fpacor//IT.MRN..HNN.D.20120529.070003.X.ACC.ASC /var/www/processing/tmp/fpacor//IT.MRN..HNZ.D.20120529.070003.X.ACC.ASC --tmp /var/www/processing/tmp/fpacor/ --le 0.070 --he 40.000 --ln 0.070 --hn 40.000 --lz 0.070 --hz 40.000 --fo 2 --ca -15 --cz 100 --ta 5 --tz 5 --mf 1 --rf 0 --tr NT
USER2: 
USER3: 
USER4: 
USER5: 
[...]
0.134586
0.131600
0.128630
0.125576
0.122463
0.119360
0.116236
0.113033
0.109807
0.106645
0.103515
0.100351
0.097195
0.094118
0.091079
0.088021
0.084997
0.082072
0.079171
0.076195
0.073176
0.070191
0.067202
0.064138
0.061053
0.058038
0.055061
0.052041
0.049000
0.045999
0.042994
0.039917
0.036822
0.033799
0.030821
0.027819
0.024816
0.021862
0.018894
0.015825
0.012704
0.009629
0.006580
0.003499
0.000437
-0.002530
-0.005445
-0.008392
-0.011345
-0.014244
-0.017130
-0.020077
-0.023051
-0.025984
-0.028921
-0.031941
-0.035006
-0.038029
-0.041031
-0.044075
-0.047120
-0.050100
-0.053060
-0.056077
-0.059111
-0.062086
-0.065030
-0.068001
-0.070949
-0.073802
-0.076617
-0.079485
-0.082380
-0.085231
-0.088079
-0.090997
-0.093943
-0.096839
-0.099714
-0.102638
-0.105582
-0.108478
-0.111358
-0.114288
-0.117231
-0.120110
-0.122959
-0.125851
-0.128747
-0.131578
-0.134381
-0.137223
-0.140065
-0.142839
-0.145594
-0.148419
-0.151288
-0.154130
-0.156974
-0.159873
-0.162781
-0.165621
-0.168424
-0.171257
-0.174082
-0.176831
-0.179562
-0.182364
-0.185195
-0.187963
-0.190700
-0.193483
-0.196289
-0.199053
-0.201807
-0.204619
-0.207444
-0.210208
-0.212957
-0.215762
-0.218574
-0.221315
-0.224023
-0.226781
-0.229553
-0.232258
-0.234928
-0.237654
-0.240421
-0.243156
-0.245880
-0.248647
-0.251412
-0.254108
-0.256783
-0.259511
-0.262252
-0.264930
-0.267580
-0.270279
-0.273008
-0.275700
-0.278382
-0.281122
-0.283886
-0.286605
-0.289321
-0.292103
-0.294895
-0.297615
-0.300306
-0.303048
-0.305803
-0.308497
-0.311163
-0.313864
-0.316552
-0.319155
-0.321719
-0.324334
-0.326982
-0.329599
-0.332208
-0.334872
-0.337553
-0.340181
-0.342796
-0.345458
-0.348115
-0.350696
-0.353257
-0.355896
-0.358581
-0.361217
-0.363811
-0.366427
-0.369042
-0.371599
-0.374141
-0.376740
-0.379350
-0.381893
-0.384410
-0.386987
-0.389601
-0.392191
-0.394789
-0.397441
-0.400077
-0.402611
-0.405091
-0.407605
-0.410125
-0.412591
-0.415049
-0.417578
-0.420140
-0.422658
-0.425158
-0.427704
-0.430251
-0.432720
-0.435155
-0.437649
-0.440173
-0.442658
-0.445145
-0.447706
-0.450294
-0.452821
-0.455315
-0.457845
-0.460379
-0.462841
-0.465261
-0.467703
-0.470128
-0.472472
-0.474788
-0.477171
-0.479600
-0.482004
-0.484407
-0.486867
-0.489334
-0.491730
-0.494100
-0.496522
-0.498968
-0.501376
-0.503791
-0.506267
-0.508742
-0.511148
-0.513547
-0.516011
-0.518482
-0.520872
-0.523225
-0.525632
-0.528061
-0.530429
-0.532769
-0.535161
-0.537567
-0.539915
-0.542249
-0.544642
-0.547042
-0.549368
-0.551664
-0.554020
-0.556405
-0.558733
-0.561037
-0.563400
-0.565789
-0.568126
-0.570442
-0.572805
-0.575171
-0.577462
-0.579716
-0.582015
-0.584326
-0.586570
-0.588779
-0.591035
-0.593321
-0.595580
-0.597850
-0.600193
-0.602559
-0.604870
-0.607159
-0.609481
-0.611785
-0.614008
-0.616209
-0.618479
-0.620765
-0.622972
-0.625141
-0.627363
-0.629605
-0.631783
-0.633922
-0.636105
-0.638319
-0.640494
-0.642656
-0.644876
-0.647127
-0.649336
-0.651529
-0.653769
-0.656017
-0.658205
-0.660362
-0.662547
-0.664722
-0.666834
-0.668943
-0.671124
-0.673318
-0.675438
-0.677528
-0.679669
-0.681824
-0.683927
-0.686022
-0.688182
-0.690353
-0.692451
-0.694525
-0.696663
-0.698832
-0.700943
-0.703027
-0.705160
-0.707297
-0.709357
-0.711383
-0.713467
-0.715577
-0.717635
-0.719667
-0.721748
-0.723850
-0.725899
-0.727920
-0.729977
-0.732038
-0.734039
-0.736020
-0.738052
-0.740107
-0.742131
-0.744157
-0.746228
-0.748290
-0.750277
-0.752235
-0.754236
-0.756241
-0.758189
-0.760142
-0.762182
-0.764255
-0.766263
-0.768234
-0.770242
-0.772243
-0.774157
-0.776032
-0.777959
-0.779905
-0.781790
-0.783644
-0.785541
-0.787460
-0.789336
-0.791199
-0.793120
-0.795065
-0.796963
-0.798845
-0.800776
-0.802716
-0.804602
-0.806480
-0.808417
-0.810368
-0.812252
-0.814094
-0.815962
-0.817815
-0.819592
-0.821356
-0.823202
-0.825093
-0.826950
-0.828800
-0.830687
-0.832524
-0.834173
-0.835600
-0.836821
-0.837783
-0.838357
-0.838412
-0.837935
-0.837142
-0.836322
-0.835544
-0.834749
-0.834133
-0.834055
-0.834406
-0.834461
-0.833625
-0.831903
-0.829294
-0.825101
-0.818514
-0.810021
-0.801387
-0.793642
-0.786226
-0.779373
-0.775642
-0.776597
-0.779438
-0.779882
-0.776672
-0.770195
-0.759173
-0.743095
-0.726943
-0.719187
-0.723411
-0.734034
-0.741932
-0.742706
-0.738229
-0.731794
-0.724124
-0.715327
-0.709198
-0.712029
-0.727338
-0.755030
-0.792676
-0.831942
-0.858653
-0.864868
-0.858162
-0.852647
-0.853875
-0.858811
-0.867806
-0.886359
-0.912491
-0.932552
-0.935971
-0.927210
-0.917996
-0.914116
-0.914970
-0.920754
-0.933349
-0.951200
-0.968112
-0.978110
-0.979122
-0.971533
-0.956309
-0.936334
-0.916005
-0.895126
-0.866110
-0.823582
-0.773821
-0.727304
-0.686578
-0.650258
-0.623015
-0.610551
-0.607856
-0.601172
-0.581005
-0.549314
-0.514981
-0.485407
-0.464074
-0.453938
-0.457858
-0.473071
-0.488554
-0.492143
-0.479660
-0.454831
-0.422795
-0.388228
-0.357895
-0.337890
-0.327916
-0.324609
-0.330063
-0.349481
-0.378814
-0.403154
-0.413941
-0.420321
-0.434379
-0.451708
-0.455845
-0.438299
-0.407672
-0.380155
-0.366294
-0.367586
-0.379186
-0.392442
-0.399536
-0.398749
-0.394414
-0.392471
-0.397107
-0.410330
-0.431451
-0.455334
-0.473304
-0.477758
-0.466674
-0.444732
-0.419767
-0.398313
-0.385554
-0.385674
-0.397893
-0.415385
-0.432204
-0.449523
-0.472559
-0.501964
-0.531039
-0.554109
-0.574324
-0.596573
-0.614490
-0.612662
-0.584485
-0.544231
-0.518202
-0.523691
-0.555530
-0.589536
-0.598312
-0.568662
-0.507802
-0.433343
-0.361539
-0.308041
-0.288714
-0.307916
-0.352006
-0.401589
-0.441418
-0.454542
-0.425929
-0.365103
-0.308084
-0.282615
-0.284056
-0.292545
-0.298389
-0.300222
-0.288113
-0.245244
-0.171932
-0.094707
-0.037673
0.005234
0.052112
0.096605
0.113589
0.099174
0.081126
0.085037
0.105758
0.118080
0.110981
0.105803
0.134180
0.200474
0.276187
0.327923
0.338179
0.303270
0.228122
0.127325
0.022916
-0.061140
-0.100779
-0.078280
-0.000258
0.093563
0.151145
0.140473
0.062378
-0.057460
-0.181035
-0.272841
-0.316278
-0.315735
-0.284761
-0.242841
-0.218218
-0.234522
-0.291735
-0.370914
-0.455023
-0.534621
-0.599188
-0.635222
-0.630425
-0.577792
-0.484895
-0.378815
-0.291712
-0.241289
-0.225804
-0.228319
-0.225589
-0.204212
-0.168768
-0.128618
-0.080970
-0.012659
0.082606
0.191979
0.290552
0.360730
0.402197
0.423986
0.431724
0.422284
0.389599
0.341795
0.310915
0.331172
0.404773
0.500576
0.587551
0.657844
0.714262
0.751525
0.764774
0.768367
0.790210
0.847948
0.936173
1.031962
1.111030
1.163944
1.195706
1.210345
1.204803
1.176560
1.128742
1.071232
1.020736
0.993056
0.994559
1.025934
1.085219
1.156755
1.207725
1.207179
1.141426
1.011465
0.836809
0.668058
0.572120
0.585073
0.683244
0.810349
0.925997
1.014996
1.061878
1.045228
0.965332
0.860621
0.779509
0.739692
0.729746
0.740398
0.768003
0.794594
0.794941
0.765847
0.729537
0.705106
0.694003
0.704375
0.767795
0.904240
1.080794
1.226396
1.283803
1.242255
1.129821
0.988393
0.863538
0.805537
0.858022
1.036237
1.306533
1.582673
1.770849
1.841613
1.838517
1.806327
1.744106
1.649003
1.568757
1.572737
1.691574
1.902238
2.140321
2.322757
2.398189
2.383152
2.335665
2.307750
2.329984
2.410096
2.524410
2.627022
2.682129
2.683587
2.648458
2.600950
2.554948
2.506910
2.453914
2.414838
2.416281
2.458652
2.517501
2.573952
2.617210
2.633980
2.636522
2.688328
2.855840
3.125405
3.396304
3.568859
3.621003
3.593752
3.530178
3.452047
3.385123
3.374345
3.455184
3.621329
3.838151
4.081002
4.333574
4.551861
4.672769
4.670834
4.573599
4.418865
4.230317
4.034139
3.875516
3.805491
3.831177
3.885920
3.881452
3.780519
3.608765
3.430478
3.321796
3.328508
3.431444
3.568609
3.700132
3.847597
4.056457
4.322744
4.590205
4.813847
4.992473
5.156263
5.327804
5.463976
5.471200
5.341061
5.227360
5.296034
5.547997
5.899932
6.350331
6.929686
7.572824
8.147619
8.559293
8.796615
8.920320
9.006743
9.080581
9.111161
9.079431
9.030813
9.030342
9.072340
9.088244
9.040644
8.960985
8.896955
8.851768
8.785799
8.671065
8.528601
8.408345
8.338203
8.290769
8.209177
8.078692
7.940264
7.820267
7.706080
7.604074
7.563187
7.629204
7.815720
8.126173
8.567083
9.115784
9.696965
10.230943
10.706557
11.179206
11.687142
12.178092
12.542171
12.717416
12.723402
12.605466
12.400434
12.132817
11.787427
11.293140
10.574336
9.646645
8.653000
7.753506
6.975244
6.238402
5.522628
4.905089
4.419073
3.971578
3.445283
2.821847
2.152380
1.449663
0.675006
-0.180145
-1.046779
-1.824172
-2.457856
-2.958693
-3.352832
-3.638047
-3.794481
-3.818380
-3.733922
-3.564714
-3.289752
-2.850872
-2.229985
-1.506439
-0.790943
-0.095062
0.678732
1.609717
2.667886
3.745097
4.745503
5.636409
6.410540
7.034789
7.484083
7.803552
8.081194
8.351677
8.550201
8.563660
8.308125
7.761311
6.977921
6.108583
5.339893
4.754700
4.281004
3.804720
3.302350
2.849047
2.543799
2.465042
2.647590
3.032982
3.471737
3.849569
4.195511
4.608883
5.126147
5.720787
6.383252
7.133406
7.956125
8.762996
9.440963
9.929465
10.251460
10.495802
10.770392
11.142511
11.605809
12.102627
12.572740
12.968893
13.225998
13.256569
13.019200
12.571226
12.024671
11.475353
10.985692
10.587788
10.283278
10.082887
10.043736
10.209302
10.518489
10.838468
11.104622
11.384422
11.766172
12.220858
12.640608
12.988060
13.327777
13.716545
14.126556
14.483658
14.739033
14.890130
14.957188
14.957350
14.898816
14.795030
14.685154
14.632846
14.677290
14.793537
14.949656
15.172144
15.485866
15.830662
16.091206
16.173580
16.044436
15.728715
15.265603
14.678784
14.009052
13.322614
12.648646
11.953323
11.198673
10.395298
9.584049
8.783463
7.973219
7.131903
6.275845
5.450633
4.694628
4.021906
3.434981
2.939965
2.547278
2.262807
2.065597
1.889269
1.660883
1.375225
1.101228
0.912341
0.835079
0.853216
0.933647
1.045875
1.169832
1.300646
1.452969
1.650596
1.903020
2.196848
2.511750
2.839288
3.186630
3.565046
3.974365
4.397615
4.801725
5.135858
5.355203
5.474418
5.571063
5.709003
5.882989
6.044435
6.144766
6.150959
6.057971
5.908708
5.801305
5.863991
6.184680
6.747196
7.468206
8.288954
9.188889
10.143795
11.123568
12.106393
13.063088
13.947988
14.732052
15.449691
16.200756
17.073084
18.047441
19.012777
19.886917
20.681345
21.443588
22.184334
22.876770
23.500481
24.064039
24.583902
25.064096
25.513483
25.958595
26.419144
26.885128
27.316954
27.658442
27.863525
27.912125
27.791212
27.473164
26.932325
26.190844
25.337746
24.482498
23.686459
22.950947
22.264925
21.634680
21.050800
20.451365
19.757469
18.948034
18.076656
17.214634
16.392630
15.594113
14.787045
13.956219
13.114003
12.284637
11.480981
10.703778
9.960010
9.269999
8.655142
8.124752
7.677278
7.304527
6.978890
6.639377
6.210006
5.646221
4.964915
4.228461
3.501873
2.814278
2.151757
1.497931
0.877478
0.341384
-0.083665
-0.409764
-0.652300
-0.800470
-0.828062
-0.726629
-0.539289
-0.356565
-0.241696
-0.160157
-0.020114
0.215653
0.481118
0.659685
0.658925
0.451072
0.079784
-0.380452
-0.892157
-1.462796
-2.086216
-2.725048
-3.370569
-4.081511
-4.923833
-5.888950
-6.919402
-7.998925
-9.155995
-10.384109
-11.611918
-12.763608
-13.821863
-14.822746
-15.808679
-16.796286
-17.777672
-18.740059
-19.678867
-20.591404
-21.463961
-22.271181
-22.981022
-23.551180
-23.928986
-24.072752
-23.984711
-23.723200
-23.372601
-22.986391
-22.553030
-22.028168
-21.402756
-20.723076
-20.044189
-19.382130
-18.716991
-18.030771
-17.326296
-16.616903
-15.928191
-15.312528
-14.836630
-14.552459
-14.491852
-14.680299
-15.137241
-15.851983
-16.756247
-17.731262
-18.667612
-19.525515
-20.326559
-21.110226
-21.915648
-22.764284
-23.631378
-24.458456
-25.209225
-25.899679
-26.573524
-27.252733
-27.902206
-28.449253
-28.840122
-29.069258
-29.180237
-29.254410
-29.375647
-29.605892
-29.988962
-30.535419
-31.201868
-31.918987
-32.634693
-33.317371
-33.940456
-34.473484
-34.880230
-35.147854
-35.319103
-35.458782
-35.593475
-35.707951
-35.785805
-35.835415
-35.880596
-35.943085
-36.044662
-36.214554
-36.479240
-36.841305
-37.272110
-37.739525
-38.243572
-38.798801
-39.382038
-39.938114
-40.444595
-40.935265
-41.451923
-42.004009
-42.585163
-43.201851
-43.870171
-44.598995
-45.386715
-46.224838
-47.095207
-47.971584
-48.834347
-49.680302
-50.516136
-51.345936
-52.163387
-52.954086
-53.701401
-54.385979
-54.989338
-55.509121
-55.961082
-56.353989
-56.677261
-56.928825
-57.135979
-57.322983
-57.466461
-57.510647
-57.426174
-57.225479
-56.921642
-56.506054
-55.973915
-55.351021
-54.686981
-54.024406
-53.372261
-52.707718
-52.005726
-51.265865
-50.507225
-49.736893
-48.929996
-48.050041
-47.086624
-46.064690
-45.021782
-43.979103
-42.922794
-41.814892
-40.637199
-39.417984
-38.202732
-37.009998
-35.826481
-34.632442
-33.422527
-32.208260
-31.005190
-29.819511
-28.649069
-27.490948
-26.341145
-25.190508
-24.029392
-22.857265
-21.680870
-20.502859
-19.319729
-18.131252
-16.946293
-15.774610
-14.610020
-13.423589
-12.180320
-10.867459
-9.501660
-8.104289
-6.682016
-5.239629
-3.796373
-2.378276
-1.004205
0.316199
1.584307
2.819977
4.056472
5.314273
6.575529
7.782998
8.863385
9.761614
10.469724
11.027367
11.486625
11.875867
12.199060
12.456564
12.653507
12.796136
12.897704
12.985808
13.083288
13.180880
13.248189
13.271834
13.269528
13.270927
13.296540
13.355491
13.456335
13.613259
13.839896
14.138597
14.495377
14.887494
15.299091
15.724886
16.158745
16.588741
17.006056
17.411840
17.809118
18.187670
18.522135
18.786274
18.966105
19.061049
19.078438
19.030380
18.934118
18.805569
18.641422
18.410219
18.071140
17.604729
17.026882
16.377239
15.699755
15.036341
14.428531
13.916509
13.538749
13.327583
13.294726
13.419088
13.652571
13.949104
14.292828
14.686953
15.128257
15.613963
16.147331
16.719246
17.310654
17.909689
18.503096
19.066149
19.580227
20.049948
20.492464
20.913277
21.297333
21.627312
21.908407
22.167332
22.431597
22.721043
23.047766
23.403662
23.758219
24.088800
24.401688
24.706102
24.980030
25.178782
25.272993
25.269299
25.198139
25.089058
24.956387
24.805019
24.645472
24.496771
24.373974
24.277691
24.203041
24.161648
24.185923
24.305588
24.524889
24.827267
25.200562
25.649794
26.180470
26.776396
27.403320
28.035316
28.667643
29.295595
29.893845
30.434326
30.919294
31.383541
31.861668
32.355492
32.832413
33.249306
33.574532
33.793457
33.903324
33.910378
33.832787
33.697811
33.525028
33.314705
33.063602
32.784264
32.491367
32.175453
31.807297
31.367174
30.863226
30.325809
29.790379
29.284197
28.821312
28.402288
28.014759
27.631330
27.210367
26.713055
26.127090
25.465191
24.738707
23.945049
23.082989
22.166103
21.213657
20.237892
19.247313
18.252647
17.263554
16.289085
15.346108
14.460185
13.653859
12.935660
12.297491
11.717052
11.165490
10.616436
10.048812
9.447920
8.809250
8.140898
7.463747
6.809807
6.214929
5.706464
5.297986
4.997938
4.817615
4.766537
4.844129
5.036499
5.317158
5.649962
5.992569
6.302993
6.554288
6.748378
6.912041
7.074661
7.245273
7.406898
7.531718
7.602921
7.624475
7.614020
7.589480
7.558838
7.514151
7.433838
7.298775
7.110149
6.885559
6.635430
6.352486
6.028226
5.667870
5.279903
4.860019
4.396328
3.882431
3.315477
2.694207
2.034556
1.378572
0.771867
0.233130
-0.246645
-0.679040
-1.062192
-1.389763
-1.667041
-1.914460
-2.158383
-2.417238
-2.691214
-2.965923
-3.230551
-3.490177
-3.757570
-4.039870
-4.338515
-4.657527
-5.004988
-5.383982
-5.786171
-6.198226
-6.610636
-7.015538
-7.402544
-7.766244
-8.113914
-8.455323
-8.783552
-9.074010
-9.304625
-9.464439
-9.539856
-9.513670
-9.387681
-9.186232
-8.918116
-8.548353
-8.034938
-7.387216
-6.663677
-5.920285
-5.178663
-4.432504
-3.664475
-2.855286
-1.988352
-1.058194
-0.079826
0.912242
1.877522
2.779811
3.582727
4.243255
4.718334
4.977788
5.007656
4.805779
4.387865
3.804964
3.140020
2.455781
1.745436
0.971150
0.139024
-0.715229
-1.592394
-2.517133
-3.463272
-4.338206
-5.050779
-5.576270
-5.949305
-6.201928
-6.322303
-6.279198
-6.082682
-5.808378
-5.525958
-5.208260
-4.783094
-4.268576
-3.774199
-3.382098
-3.094857
-2.883036
-2.731889
-2.642678
-2.618822
-2.666914
-2.810007
-3.079557
-3.471137
-3.928367
-4.406291
-4.919822
-5.496044
-6.127017
-6.790620
-7.466352
-8.118714
-8.697048
-9.163356
-9.522011
-9.822960
-10.122876
-10.437543
-10.740270
-11.011079
-11.285144
-11.627924
-12.049442
-12.491080
-12.914417
-13.345824
-13.822089
-14.339423
-14.868479
-15.399059
-15.955705
-16.565063
-17.216837
-17.872799
-18.513060
-19.156916
-19.837759
-20.571621
-21.351624
-22.163794
-23.001276
-23.862171
-24.739563
-25.614519
-26.449402
-27.186644
-27.766758
-28.156116
-28.356363
-28.390238
-28.287979
-28.087425
-27.828045
-27.521910
-27.136383
-26.632454
-26.018051
-25.345243
-24.667856
-24.015736
-23.393356
-22.789417
-22.192343
-21.601460
-21.021284
-20.442856
-19.839468
-19.189941
-18.496986
-17.774689
-17.029491
-16.261280
-15.472685
-14.667862
-13.846084
-13.003947
-12.143566
-11.271179
-10.384230
-9.466571
-8.503891
-7.503866
-6.497937
-5.522768
-4.604232
-3.760445
-3.006547
-2.341634
-1.737017
-1.150865
-0.556627
0.042859
0.626317
1.179067
1.708922
2.238987
2.787082
3.353619
3.926023
4.488104
5.026171
5.532689
6.003571
6.431770
6.812233
7.156519
7.492099
7.838644
8.190247
8.527449
8.841082
9.136087
9.416329
9.678532
9.924597
10.168762
10.424756
10.691836
10.959445
11.221636
11.480270
11.735488
11.982650
12.221490
12.459641
12.703078
12.949494
13.195218
13.443174
13.697454
13.953964
14.204667
14.448282
14.686988
14.911460
15.096119
15.211830
15.239609
15.171708
15.006402
14.747758
14.409907
14.016670
13.591160
13.141675
12.658858
12.131445
11.564719
10.976963
10.377097
9.756134
9.104765
8.428959
7.742668
7.052446
6.356247
5.655556
