EVENT_NAME: EMILIA_2ND_SHOCK
EVENT_ID: IT-2012-0011
EVENT_DATE_YYYYMMDD: 20120529
EVENT_TIME_HHMMSS: 070002
EVENT_LATITUDE_DEGREE: 44.8417
EVENT_LONGITUDE_DEGREE: 11.0657
EVENT_DEPTH_KM: 8.1
HYPOCENTER_REFERENCE: INGV-CNT_Seismic_Bulletin
MAGNITUDE_W: 6.0
MAGNITUDE_W_REFERENCE: RCMT-INGV
MAGNITUDE_L: 5.8
MAGNITUDE_L_REFERENCE: INGV-CNT_Seismic_Bulletin
FOCAL_MECHANISM: TF
NETWORK: IT
STATION_CODE: MRN
STATION_NAME: MIRANDOLA (NAPOLI)
STATION_LATITUDE_DEGREE: 44.878231
STATION_LONGITUDE_DEGREE: 11.061743
STATION_ELEVATION_M: 15
LOCATION: 
SENSOR_DEPTH_M: 0.0
VS30_M/S: 208
SITE_CLASSIFICATION_EC8: C
MORPHOLOGIC_CLASSIFICATION: 
EPICENTRAL_DISTANCE_KM: 4.1
EARTHQUAKE_BACKAZIMUTH_DEGREE: 175.6
DATE_TIME_FIRST_SAMPLE_YYYYMMDD_HHMMSS: 20120529_065948.000
DATE_TIME_FIRST_SAMPLE_PRECISION: seconds
SAMPLING_INTERVAL_S: 0.005000
NDATA: 13713
DURATION_S: 68.565
STREAM: HNZ
UNITS: cm
INSTRUMENT: sensor = MS2007+ [Syscom] | digitizer = 130-01/3 [Reftek]
INSTRUMENT_ANALOG/DIGITAL: D
INSTRUMENTAL_FREQUENCY_HZ: 
INSTRUMENTAL_DAMPING: 
FULL_SCALE_G: 
N_BIT_DIGITAL_CONVERTER: 24
PGD_CM: 5.802346
TIME_PGD_S: 20.085000
BASELINE_CORRECTION: BASELINE REMOVED
FILTER_TYPE: BUTTERWORTH
FILTER_ORDER: 2
LOW_CUT_FREQUENCY_HZ: 0.070
HIGH_CUT_FREQUENCY_HZ: 40.000
LATE/NORMAL_TRIGGERED: NT
DATABASE_VERSION: DYNA 1.0
HEADER_FORMAT: DYNA 1.2
DATA_TYPE: DISPLACEMENT
PROCESSING: manual (Paolucci et al., 2011)
DATA_TIMESTAMP_YYYYMMDD_HHMMSS: 20141204_104205.354
DATA_LICENSE: CC-BY3_0-IT (http://creativecommons.org/licenses/by/3.0/deed.en)
DATA_CITATION: ESM working group (2015), European Strong-Motion database, version 0.1, Network Activity 3: Networking acceleration networks and SM data users. Project NERA (www.nera-eu.org)
DATA_CREATOR: ESM working group
ORIGINAL_DATA_MEDIATOR_CITATION: Ufficio Rischio Sismico e Vulcanico del Dipartimento della Protezione Civile (http://www.protezionecivile.gov.it/)
ORIGINAL_DATA_MEDIATOR: Rete Accelerometrica Nazionale - RAN Download (http://www.mot1.it/randownload/)
ORIGINAL_DATA_CREATOR_CITATION: Italian Strong Motion Network, Italian Civil Protection Department http://www.protezionecivile.gov.it
ORIGINAL_DATA_CREATOR: network: IT (Italian Strong Motion Network); owner: Dipartimento Della Protezione Civile
USER1: /home/dyna/processing-itaca/processing.py /var/www/processing/tmp/fpacor//IT.MRN..HNE.D.20120529.070003.X.ACC.ASC /var/www/processing/tmp/fpacor//IT.MRN..HNN.D.20120529.070003.X.ACC.ASC /var/www/processing/tmp/fpacor//IT.MRN..HNZ.D.20120529.070003.X.ACC.ASC --tmp /var/www/processing/tmp/fpacor/ --le 0.070 --he 40.000 --ln 0.070 --hn 40.000 --lz 0.070 --hz 40.000 --fo 2 --ca -15 --cz 100 --ta 5 --tz 5 --mf 1 --rf 0 --tr NT
USER2: 
USER3: 
USER4: 
USER5: 
[...]
-1.740703e+00
-1.747214e+00
-1.753725e+00
-1.760236e+00
-1.766747e+00
-1.773259e+00
-1.779771e+00
-1.786282e+00
-1.792793e+00
-1.799305e+00
-1.805816e+00
-1.812327e+00
-1.818839e+00
-1.825351e+00
-1.831864e+00
-1.838377e+00
-1.844892e+00
-1.851408e+00
-1.857924e+00
-1.864440e+00
-1.870956e+00
-1.877473e+00
-1.883989e+00
-1.890505e+00
-1.897022e+00
-1.903539e+00
-1.910056e+00
-1.916574e+00
-1.923093e+00
-1.929613e+00
-1.936134e+00
-1.942656e+00
-1.949179e+00
-1.955703e+00
-1.962228e+00
-1.968753e+00
-1.975279e+00
-1.981806e+00
-1.988333e+00
-1.994861e+00
-2.001390e+00
-2.007921e+00
-2.014452e+00
-2.020984e+00
-2.027517e+00
-2.034050e+00
-2.040585e+00
-2.047120e+00
-2.053658e+00
-2.060196e+00
-2.066735e+00
-2.073276e+00
-2.079817e+00
-2.086360e+00
-2.092903e+00
-2.099447e+00
-2.105993e+00
-2.112540e+00
-2.119088e+00
-2.125636e+00
-2.132185e+00
-2.138736e+00
-2.145288e+00
-2.151841e+00
-2.158395e+00
-2.164952e+00
-2.171509e+00
-2.178068e+00
-2.184629e+00
-2.191192e+00
-2.197756e+00
-2.204320e+00
-2.210885e+00
-2.217452e+00
-2.224020e+00
-2.230589e+00
-2.237158e+00
-2.243729e+00
-2.250300e+00
-2.256872e+00
-2.263445e+00
-2.270020e+00
-2.276595e+00
-2.283172e+00
-2.289751e+00
-2.296332e+00
-2.302915e+00
-2.309499e+00
-2.316085e+00
-2.322672e+00
-2.329261e+00
-2.335852e+00
-2.342444e+00
-2.349038e+00
-2.355633e+00
-2.362229e+00
-2.368827e+00
-2.375427e+00
-2.382027e+00
-2.388629e+00
-2.395233e+00
-2.401838e+00
-2.408445e+00
-2.415053e+00
-2.421663e+00
-2.428275e+00
-2.434889e+00
-2.441504e+00
-2.448120e+00
-2.454739e+00
-2.461358e+00
-2.467979e+00
-2.474601e+00
-2.481224e+00
-2.487849e+00
-2.494474e+00
-2.501102e+00
-2.507732e+00
-2.514364e+00
-2.520997e+00
-2.527632e+00
-2.534270e+00
-2.540909e+00
-2.547549e+00
-2.554192e+00
-2.560837e+00
-2.567484e+00
-2.574132e+00
-2.580783e+00
-2.587437e+00
-2.594092e+00
-2.600749e+00
-2.607409e+00
-2.614072e+00
-2.620736e+00
-2.627402e+00
-2.634071e+00
-2.640741e+00
-2.647414e+00
-2.654088e+00
-2.660766e+00
-2.667446e+00
-2.674128e+00
-2.680813e+00
-2.687499e+00
-2.694189e+00
-2.700879e+00
-2.707572e+00
-2.714266e+00
-2.720963e+00
-2.727661e+00
-2.734360e+00
-2.741061e+00
-2.747765e+00
-2.754470e+00
-2.761177e+00
-2.767887e+00
-2.774598e+00
-2.781311e+00
-2.788026e+00
-2.794743e+00
-2.801462e+00
-2.808184e+00
-2.814907e+00
-2.821633e+00
-2.828361e+00
-2.835092e+00
-2.841825e+00
-2.848561e+00
-2.855300e+00
-2.862040e+00
-2.868783e+00
-2.875528e+00
-2.882276e+00
-2.889025e+00
-2.895776e+00
-2.902530e+00
-2.909286e+00
-2.916044e+00
-2.922804e+00
-2.929566e+00
-2.936330e+00
-2.943096e+00
-2.949865e+00
-2.956636e+00
-2.963409e+00
-2.970185e+00
-2.976963e+00
-2.983743e+00
-2.990526e+00
-2.997311e+00
-3.004098e+00
-3.010888e+00
-3.017681e+00
-3.024477e+00
-3.031275e+00
-3.038077e+00
-3.044880e+00
-3.051686e+00
-3.058493e+00
-3.065303e+00
-3.072116e+00
-3.078930e+00
-3.085746e+00
-3.092565e+00
-3.099387e+00
-3.106211e+00
-3.113038e+00
-3.119867e+00
-3.126698e+00
-3.133532e+00
-3.140368e+00
-3.147207e+00
-3.154049e+00
-3.160892e+00
-3.167739e+00
-3.174588e+00
-3.181440e+00
-3.188294e+00
-3.195150e+00
-3.202009e+00
-3.208870e+00
-3.215733e+00
-3.222598e+00
-3.229465e+00
-3.236336e+00
-3.243208e+00
-3.250083e+00
-3.256961e+00
-3.263842e+00
-3.270726e+00
-3.277612e+00
-3.284501e+00
-3.291393e+00
-3.298287e+00
-3.305184e+00
-3.312084e+00
-3.318986e+00
-3.325891e+00
-3.332798e+00
-3.339708e+00
-3.346621e+00
-3.353536e+00
-3.360452e+00
-3.367372e+00
-3.374294e+00
-3.381219e+00
-3.388146e+00
-3.395076e+00
-3.402009e+00
-3.408945e+00
-3.415882e+00
-3.422817e+00
-3.429743e+00
-3.436642e+00
-3.443484e+00
-3.450225e+00
-3.456815e+00
-3.463206e+00
-3.469354e+00
-3.475217e+00
-3.480758e+00
-3.485960e+00
-3.490836e+00
-3.495399e+00
-3.499650e+00
-3.503595e+00
-3.507263e+00
-3.510680e+00
-3.513829e+00
-3.516636e+00
-3.518975e+00
-3.520693e+00
-3.521643e+00
-3.521762e+00
-3.521183e+00
-3.520266e+00
-3.519442e+00
-3.518973e+00
-3.518853e+00
-3.518909e+00
-3.518909e+00
-3.518634e+00
-3.518026e+00
-3.517330e+00
-3.517017e+00
-3.517478e+00
-3.518805e+00
-3.520851e+00
-3.523463e+00
-3.526581e+00
-3.530093e+00
-3.533631e+00
-3.536650e+00
-3.538835e+00
-3.540471e+00
-3.542397e+00
-3.545564e+00
-3.550523e+00
-3.557112e+00
-3.564601e+00
-3.572284e+00
-3.580007e+00
-3.588083e+00
-3.596829e+00
-3.606342e+00
-3.616600e+00
-3.627499e+00
-3.638710e+00
-3.649698e+00
-3.660043e+00
-3.669660e+00
-3.678585e+00
-3.686671e+00
-3.693653e+00
-3.699492e+00
-3.704517e+00
-3.709175e+00
-3.713719e+00
-3.718157e+00
-3.722461e+00
-3.726764e+00
-3.731349e+00
-3.736491e+00
-3.742282e+00
-3.748497e+00
-3.754639e+00
-3.760159e+00
-3.764698e+00
-3.768127e+00
-3.770506e+00
-3.772160e+00
-3.773691e+00
-3.775616e+00
-3.777959e+00
-3.780331e+00
-3.782364e+00
-3.783930e+00
-3.785018e+00
-3.785660e+00
-3.786076e+00
-3.786837e+00
-3.788704e+00
-3.792171e+00
-3.797134e+00
-3.803055e+00
-3.809464e+00
-3.816264e+00
-3.823578e+00
-3.831367e+00
-3.839222e+00
-3.846421e+00
-3.852203e+00
-3.856191e+00
-3.858705e+00
-3.860597e+00
-3.862662e+00
-3.865276e+00
-3.868602e+00
-3.872877e+00
-3.878249e+00
-3.884417e+00
-3.890737e+00
-3.896683e+00
-3.902094e+00
-3.907044e+00
-3.911592e+00
-3.915674e+00
-3.919170e+00
-3.922053e+00
-3.924448e+00
-3.926526e+00
-3.928326e+00
-3.929757e+00
-3.930892e+00
-3.932222e+00
-3.934510e+00
-3.938373e+00
-3.943956e+00
-3.950911e+00
-3.958626e+00
-3.966573e+00
-3.974615e+00
-3.983062e+00
-3.992391e+00
-4.002725e+00
-4.013438e+00
-4.023326e+00
-4.031398e+00
-4.037631e+00
-4.042984e+00
-4.048709e+00
-4.055684e+00
-4.064274e+00
-4.074487e+00
-4.085887e+00
-4.097403e+00
-4.107677e+00
-4.115966e+00
-4.122758e+00
-4.129475e+00
-4.137472e+00
-4.147076e+00
-4.157457e+00
-4.167410e+00
-4.176277e+00
-4.184159e+00
-4.191386e+00
-4.197888e+00
-4.203104e+00
-4.206513e+00
-4.208157e+00
-4.208732e+00
-4.209329e+00
-4.210800e+00
-4.213026e+00
-4.214998e+00
-4.215907e+00
-4.215957e+00
-4.215875e+00
-4.215917e+00
-4.215617e+00
-4.214208e+00
-4.210934e+00
-4.205233e+00
-4.197152e+00
-4.187737e+00
-4.178646e+00
-4.170908e+00
-4.164054e+00
-4.156805e+00
-4.148604e+00
-4.140099e+00
-4.132227e+00
-4.125539e+00
-4.120726e+00
-4.119214e+00
-4.122467e+00
-4.130490e+00
-4.141285e+00
-4.151974e+00
-4.160542e+00
-4.166515e+00
-4.170262e+00
-4.172218e+00
-4.172990e+00
-4.173853e+00
-4.176629e+00
-4.182723e+00
-4.192133e+00
-4.203358e+00
-4.214366e+00
-4.223743e+00
-4.231129e+00
-4.236944e+00
-4.242034e+00
-4.247464e+00
-4.254241e+00
-4.262928e+00
-4.273490e+00
-4.285416e+00
-4.297882e+00
-4.309806e+00
-4.320022e+00
-4.327595e+00
-4.332042e+00
-4.333396e+00
-4.332369e+00
-4.330462e+00
-4.329663e+00
-4.331689e+00
-4.337165e+00
-4.345237e+00
-4.353947e+00
-4.361318e+00
-4.366386e+00
-4.369472e+00
-4.371746e+00
-4.374524e+00
-4.378592e+00
-4.383879e+00
-4.389676e+00
-4.395125e+00
-4.399575e+00
-4.402761e+00
-4.404816e+00
-4.406041e+00
-4.406597e+00
-4.406381e+00
-4.405140e+00
-4.402761e+00
-4.399655e+00
-4.396975e+00
-4.396335e+00
-4.398952e+00
-4.404682e+00
-4.411818e+00
-4.418180e+00
-4.422639e+00
-4.425565e+00
-4.427930e+00
-4.430252e+00
-4.432393e+00
-4.434083e+00
-4.435269e+00
-4.435944e+00
-4.436048e+00
-4.435676e+00
-4.434913e+00
-4.433252e+00
-4.429429e+00
-4.422099e+00
-4.411035e+00
-4.397988e+00
-4.386135e+00
-4.378174e+00
-4.374665e+00
-4.374108e+00
-4.374453e+00
-4.374518e+00
-4.374116e+00
-4.373143e+00
-4.370932e+00
-4.366629e+00
-4.359896e+00
-4.351060e+00
-4.341019e+00
-4.331329e+00
-4.323922e+00
-4.320205e+00
-4.320500e+00
-4.324287e+00
-4.330447e+00
-4.337084e+00
-4.341751e+00
-4.342564e+00
-4.339393e+00
-4.333943e+00
-4.328623e+00
-4.325116e+00
-4.323703e+00
-4.323586e+00
-4.323539e+00
-4.322289e+00
-4.318825e+00
-4.313039e+00
-4.306179e+00
-4.300447e+00
-4.297965e+00
-4.299891e+00
-4.305896e+00
-4.313962e+00
-4.320870e+00
-4.323596e+00
-4.320685e+00
-4.312598e+00
-4.301348e+00
-4.290090e+00
-4.282160e+00
-4.279308e+00
-4.280309e+00
-4.281465e+00
-4.278910e+00
-4.270921e+00
-4.258522e+00
-4.244151e+00
-4.229406e+00
-4.213807e+00
-4.196174e+00
-4.177393e+00
-4.161032e+00
-4.150450e+00
-4.145590e+00
-4.143076e+00
-4.139006e+00
-4.131113e+00
-4.119233e+00
-4.105298e+00
-4.092667e+00
-4.084110e+00
-4.079983e+00
-4.078231e+00
-4.075689e+00
-4.069712e+00
-4.059560e+00
-4.046532e+00
-4.032593e+00
-4.018894e+00
-4.005293e+00
-3.990823e+00
-3.974404e+00
-3.954914e+00
-3.930562e+00
-3.898827e+00
-3.857820e+00
-3.808042e+00
-3.752710e+00
-3.696378e+00
-3.643054e+00
-3.594450e+00
-3.548619e+00
-3.500556e+00
-3.445402e+00
-3.381708e+00
-3.312077e+00
-3.241457e+00
-3.174864e+00
-3.116087e+00
-3.067746e+00
-3.031630e+00
-3.008512e+00
-2.997815e+00
-2.997433e+00
-3.003446e+00
-3.009989e+00
-3.010360e+00
-2.999706e+00
-2.977457e+00
-2.947305e+00
-2.914923e+00
-2.885364e+00
-2.861354e+00
-2.842593e+00
-2.826172e+00
-2.808493e+00
-2.787598e+00
-2.763671e+00
-2.737767e+00
-2.711170e+00
-2.685647e+00
-2.662676e+00
-2.642073e+00
-2.622295e+00
-2.602234e+00
-2.582065e+00
-2.561931e+00
-2.539932e+00
-2.511744e+00
-2.472175e+00
-2.416797e+00
-2.342440e+00
-2.247493e+00
-2.133154e+00
-2.004698e+00
-1.870826e+00
-1.741198e+00
-1.624027e+00
-1.524957e+00
-1.446777e+00
-1.388757e+00
-1.345346e+00
-1.306274e+00
-1.260166e+00
-1.199812e+00
-1.124479e+00
-1.037744e+00
-9.441476e-01
-8.479842e-01
-7.536436e-01
-6.651657e-01
-5.846634e-01
-5.111726e-01
-4.415682e-01
-3.735095e-01
-3.075802e-01
-2.459385e-01
-1.892379e-01
-1.354071e-01
-8.081505e-02
-2.226257e-02
4.153952e-02
1.095685e-01
1.788594e-01
2.455436e-01
3.066725e-01
3.619975e-01
4.143952e-01
4.687388e-01
5.301540e-01
6.019349e-01
6.830675e-01
7.673718e-01
8.463891e-01
9.138683e-01
9.678370e-01
1.009633e+00
1.041540e+00
1.064494e+00
1.077654e+00
1.080728e+00
1.077206e+00
1.075427e+00
1.085899e+00
1.116278e+00
1.167670e+00
1.234972e+00
1.310235e+00
1.386201e+00
1.458391e+00
1.525598e+00
1.588669e+00
1.648126e+00
1.702750e+00
1.750111e+00
1.787464e+00
1.812123e+00
1.822668e+00
1.821312e+00
1.814847e+00
1.811993e+00
1.818824e+00
1.835968e+00
1.859582e+00
1.884825e+00
1.908412e+00
1.928297e+00
1.942433e+00
1.949293e+00
1.949503e+00
1.946263e+00
1.944241e+00
1.948215e+00
1.962139e+00
1.988556e+00
2.027960e+00
2.077933e+00
2.133208e+00
2.187432e+00
2.235136e+00
2.272251e+00
2.296103e+00
2.306808e+00
2.309507e+00
2.314004e+00
2.329720e+00
2.359569e+00
2.398328e+00
2.436459e+00
2.465703e+00
2.482375e+00
2.487172e+00
2.483393e+00
2.475673e+00
2.469482e+00
2.470426e+00
2.482755e+00
2.507985e+00
2.544746e+00
2.589415e+00
2.636807e+00
2.681383e+00
2.719390e+00
2.750540e+00
2.777272e+00
2.802247e+00
2.827492e+00
2.856129e+00
2.893289e+00
2.943552e+00
3.007197e+00
3.079299e+00
3.152373e+00
3.219887e+00
3.278312e+00
3.327636e+00
3.370608e+00
3.410737e+00
3.450372e+00
3.490376e+00
3.530607e+00
3.569535e+00
3.603722e+00
3.628669e+00
3.640611e+00
3.638146e+00
3.623157e+00
3.600425e+00
3.575904e+00
3.554580e+00
3.539140e+00
3.530016e+00
3.526343e+00
3.527097e+00
3.532060e+00
3.542405e+00
3.560527e+00
3.588974e+00
3.628752e+00
3.677940e+00
3.731843e+00
3.785040e+00
3.833902e+00
3.877638e+00
3.917183e+00
3.953331e+00
3.986565e+00
4.018824e+00
4.054049e+00
4.095601e+00
4.143359e+00
4.194177e+00
4.245141e+00
4.295757e+00
4.346953e+00
4.398831e+00
4.450226e+00
4.500286e+00
4.549567e+00
4.599099e+00
4.648703e+00
4.696645e+00
4.741139e+00
4.781913e+00
4.819764e+00
4.854597e+00
4.884724e+00
4.908253e+00
4.924706e+00
4.935493e+00
4.943300e+00
4.951087e+00
4.961485e+00
4.976357e+00
4.995929e+00
5.018377e+00
5.040753e+00
5.060173e+00
5.074254e+00
5.081449e+00
5.082008e+00
5.078599e+00
5.074859e+00
5.072364e+00
5.069374e+00
5.062962e+00
5.051747e+00
5.036361e+00
5.018469e+00
5.000130e+00
4.983749e+00
4.972001e+00
4.967529e+00
4.972364e+00
4.987309e+00
5.011702e+00
5.043544e+00
5.079863e+00
5.117623e+00
5.154985e+00
5.191593e+00
5.227496e+00
5.262216e+00
5.295105e+00
5.325954e+00
5.354900e+00
5.382088e+00
5.407665e+00
5.431868e+00
5.454983e+00
5.477434e+00
5.499997e+00
5.523478e+00
5.547789e+00
5.571520e+00
5.592512e+00
5.608561e+00
5.617773e+00
5.619406e+00
5.615407e+00
5.610980e+00
5.612788e+00
5.625715e+00
5.650574e+00
5.684206e+00
5.721325e+00
5.756294e+00
5.783989e+00
5.800234e+00
5.802346e+00
5.789739e+00
5.764475e+00
5.731510e+00
5.697907e+00
5.670356e+00
5.651984e+00
5.641284e+00
5.634335e+00
5.627959e+00
5.621248e+00
5.615171e+00
5.611575e+00
5.612643e+00
5.620337e+00
5.635096e+00
5.654884e+00
5.675890e+00
5.694336e+00
5.708049e+00
5.716936e+00
5.722042e+00
5.723909e+00
5.721667e+00
5.713535e+00
5.698231e+00
5.676159e+00
5.649544e+00
5.621622e+00
5.595372e+00
5.572487e+00
5.553292e+00
5.537506e+00
5.524959e+00
5.515770e+00
5.510039e+00
5.507431e+00
5.507172e+00
5.508322e+00
5.509691e+00
5.509599e+00
5.506189e+00
5.498361e+00
5.486554e+00
5.472604e+00
5.458654e+00
5.445869e+00
5.434136e+00
5.423203e+00
5.414114e+00
5.409322e+00
5.411329e+00
5.421107e+00
5.437355e+00
5.456987e+00
5.476580e+00
5.493802e+00
5.507754e+00
5.518220e+00
5.524860e+00
5.527030e+00
5.524160e+00
5.516372e+00
5.504974e+00
5.492330e+00
5.480799e+00
5.471381e+00
5.463293e+00
5.454953e+00
5.445306e+00
5.434076e+00
5.421042e+00
5.405830e+00
5.388930e+00
5.372627e+00
5.360363e+00
5.354805e+00
5.356198e+00
5.362220e+00
5.369167e+00
5.373355e+00
5.371858e+00
5.362801e+00
5.345782e+00
5.322466e+00
5.296572e+00
5.272786e+00
5.255033e+00
5.244901e+00
5.240908e+00
5.239268e+00
5.235839e+00
5.227980e+00
5.215354e+00
5.199669e+00
5.183719e+00
5.170188e+00
5.160683e+00
5.155444e+00
5.153826e+00
5.155072e+00
5.158737e+00
5.164555e+00
5.171963e+00
5.179781e+00
5.186636e+00
5.191981e+00
5.196568e+00
5.201647e+00
5.207885e+00
5.215368e+00
5.224220e+00
5.234483e+00
5.245374e+00
5.255244e+00
5.262666e+00
5.267609e+00
5.271508e+00
5.276148e+00
5.282317e+00
5.289237e+00
5.295009e+00
5.297708e+00
5.296597e+00
5.292917e+00
5.289725e+00
5.290782e+00
5.299013e+00
5.315201e+00
5.337523e+00
5.362263e+00
5.385334e+00
5.403666e+00
5.415589e+00
5.420278e+00
5.417282e+00
5.406855e+00
5.390653e+00
5.371943e+00
5.354928e+00
5.343375e+00
5.339198e+00
5.341853e+00
5.348806e+00
5.356494e+00
5.361349e+00
5.360925e+00
5.354828e+00
5.344816e+00
5.333931e+00
5.325207e+00
5.320707e+00
5.321217e+00
5.326264e+00
5.334322e+00
5.343280e+00
5.350861e+00
5.354825e+00
5.353392e+00
5.345973e+00
5.333486e+00
5.317949e+00
5.301842e+00
5.287699e+00
5.277721e+00
5.273136e+00
5.273517e+00
5.276757e+00
5.279974e+00
5.280836e+00
5.278562e+00
5.274096e+00
5.269292e+00
5.265565e+00
5.262917e+00
5.260062e+00
5.255478e+00
5.248375e+00
5.238768e+00
5.226875e+00
5.212659e+00
5.196093e+00
5.177881e+00
5.159769e+00
5.143922e+00
5.131855e+00
5.123955e+00
5.119831e+00
5.118688e+00
5.119159e+00
5.119181e+00
5.116617e+00
5.110205e+00
5.099957e+00
5.086741e+00
5.071585e+00
5.055408e+00
5.039139e+00
5.023545e+00
5.008562e+00
4.993096e+00
4.975966e+00
4.957078e+00
4.937597e+00
4.919270e+00
4.903742e+00
4.892002e+00
4.883961e+00
4.878503e+00
4.874074e+00
4.869292e+00
4.863294e+00
4.855908e+00
4.847574e+00
4.838966e+00
4.830575e+00
4.822523e+00
4.814771e+00
4.807587e+00
4.801696e+00
4.797626e+00
4.794903e+00
4.792157e+00
4.787853e+00
4.780754e+00
4.770202e+00
4.756687e+00
4.742104e+00
4.728780e+00
4.717820e+00
4.708374e+00
4.698470e+00
4.686534e+00
4.672331e+00
4.656759e+00
4.640816e+00
4.624735e+00
4.608064e+00
4.590472e+00
4.572371e+00
4.554660e+00
4.537808e+00
4.521266e+00
4.503961e+00
4.485450e+00
4.466537e+00
4.448691e+00
4.432744e+00
4.418063e+00
4.403007e+00
4.386283e+00
4.367896e+00
4.348850e+00
4.330048e+00
4.311535e+00
4.292645e+00
4.272502e+00
4.250302e+00
4.225498e+00
4.198161e+00
4.169230e+00
4.140359e+00
4.113500e+00
4.090318e+00
4.071457e+00
4.056136e+00
4.042405e+00
4.027822e+00
4.010208e+00
3.988398e+00
3.962633e+00
3.934089e+00
3.903744e+00
3.871630e+00
3.837144e+00
3.799887e+00
3.760012e+00
3.717909e+00
3.673874e+00
3.628185e+00
3.581333e+00
3.534122e+00
3.487649e+00
3.443194e+00
3.401822e+00
3.363685e+00
3.327552e+00
3.291158e+00
3.252319e+00
3.210089e+00
3.165206e+00
3.119488e+00
3.074652e+00
3.031529e+00
2.990113e+00
2.949953e+00
2.910349e+00
2.870510e+00
2.829995e+00
2.789126e+00
2.748783e+00
2.709756e+00
2.672371e+00
2.636690e+00
2.602863e+00
2.571114e+00
2.541532e+00
2.514114e+00
2.488989e+00
2.466289e+00
2.445642e+00
2.425847e+00
2.405226e+00
2.382395e+00
2.356886e+00
2.329189e+00
2.300266e+00
2.271098e+00
2.242560e+00
2.215270e+00
2.189241e+00
2.163854e+00
2.138538e+00
2.113529e+00
2.089777e+00
2.068022e+00
2.048008e+00
2.028638e+00
2.008951e+00
1.988980e+00
1.969594e+00
1.951417e+00
1.934041e+00
1.916392e+00
1.897689e+00
1.877904e+00
1.857371e+00
1.836130e+00
1.813718e+00
1.789615e+00
1.763911e+00
1.737428e+00
1.711185e+00
1.685792e+00
1.661322e+00
1.637438e+00
1.613470e+00
1.588587e+00
1.562171e+00
1.534221e+00
1.505433e+00
1.476832e+00
1.449158e+00
1.422551e+00
1.396727e+00
1.371307e+00
1.346004e+00
1.320690e+00
1.295376e+00
1.270117e+00
1.244772e+00
1.218760e+00
1.191142e+00
1.161086e+00
1.128284e+00
1.093066e+00
1.056159e+00
1.018167e+00
9.791844e-01
9.390097e-01
8.976861e-01
8.556329e-01
8.132122e-01
7.703181e-01
7.264674e-01
6.811867e-01
6.342560e-01
5.856939e-01
5.357575e-01
4.851208e-01
4.349018e-01
3.862464e-01
3.397532e-01
2.953005e-01
2.525134e-01
2.114348e-01
1.726514e-01
1.366811e-01
1.033042e-01
7.166154e-02
4.100962e-02
1.122879e-02
-1.739149e-02
-4.470918e-02
-7.102017e-02
-9.697363e-02
-1.235135e-01
-1.519426e-01
-1.836549e-01
