EVENT_NAME: EMILIA_2ND_SHOCK
EVENT_ID: IT-2012-0011
EVENT_DATE_YYYYMMDD: 20120529
EVENT_TIME_HHMMSS: 070002
EVENT_LATITUDE_DEGREE: 44.8417
EVENT_LONGITUDE_DEGREE: 11.0657
EVENT_DEPTH_KM: 8.1
HYPOCENTER_REFERENCE: INGV-CNT_Seismic_Bulletin
MAGNITUDE_W: 6.0
MAGNITUDE_W_REFERENCE: RCMT-INGV
MAGNITUDE_L: 5.8
MAGNITUDE_L_REFERENCE: INGV-CNT_Seismic_Bulletin
FOCAL_MECHANISM: TF
NETWORK: IT
STATION_CODE: MRN
STATION_NAME: MIRANDOLA (NAPOLI)
STATION_LATITUDE_DEGREE: 44.878231
STATION_LONGITUDE_DEGREE: 11.061743
STATION_ELEVATION_M: 15
LOCATION: 
SENSOR_DEPTH_M: 0.0
VS30_M/S: 208
SITE_CLASSIFICATION_EC8: C
MORPHOLOGIC_CLASSIFICATION: 
EPICENTRAL_DISTANCE_KM: 4.1
EARTHQUAKE_BACKAZIMUTH_DEGREE: 175.6
DATE_TIME_FIRST_SAMPLE_YYYYMMDD_HHMMSS: 20120529_070003.000
DATE_TIME_FIRST_SAMPLE_PRECISION: seconds
SAMPLING_INTERVAL_S: 0.005000
NDATA: 30713
DURATION_S: 153.565
STREAM: HNZ
UNITS: cm/s^2
INSTRUMENT: sensor = MS2007+ [Syscom] | digitizer = 130-01/3 [Reftek]
INSTRUMENT_ANALOG/DIGITAL: D
INSTRUMENTAL_FREQUENCY_HZ: 
INSTRUMENTAL_DAMPING: 
FULL_SCALE_G: 
N_BIT_DIGITAL_CONVERTER: 24
PGA_CM/S^2: 872.310242
TIME_PGA_S: 4.160000
BASELINE_CORRECTION: BASELINE NOT REMOVED
FILTER_TYPE: 
FILTER_ORDER: 
LOW_CUT_FREQUENCY_HZ: 
HIGH_CUT_FREQUENCY_HZ: 
LATE/NORMAL_TRIGGERED: NT
DATABASE_VERSION: DYNA 1.0
HEADER_FORMAT: DYNA 1.2
DATA_TYPE: ACCELERATION
PROCESSING: converted to cm/s^2
DATA_TIMESTAMP_YYYYMMDD_HHMMSS: 
DATA_LICENSE: CC-BY3_0-IT (http://creativecommons.org/licenses/by/3.0/deed.en)
DATA_CITATION: ESM working group (2015), European Strong-Motion database, version 0.1, Network Activity 3: Networking acceleration networks and SM data users. Project NERA (www.nera-eu.org)
DATA_CREATOR: ESM working group
ORIGINAL_DATA_MEDIATOR_CITATION: Ufficio Rischio Sismico e Vulcanico del Dipartimento della Protezione Civile (http://www.protezionecivile.gov.it/)
ORIGINAL_DATA_MEDIATOR: Rete Accelerometrica Nazionale - RAN Download (http://www.mot1.it/randownload/)
ORIGINAL_DATA_CREATOR_CITATION: Italian Strong Motion Network, Italian Civil Protection Department http://www.protezionecivile.gov.it
ORIGINAL_DATA_CREATOR: network: IT (Italian Strong Motion Network); owner: Dipartimento Della Protezione Civile
USER1: 
USER2: 
USER3: 
USER4: 
USER5: 
0.717406
0.822411
0.792818
0.699667
0.726781
0.842380
0.819331
0.704680
0.740829
0.827140
0.787266
0.689753
0.709389
0.819067
0.794772
0.678875
0.696954
0.802270
0.778598
0.688874
0.729383
0.830027
0.812276
0.709775
0.725674
0.827874
0.791740
0.678024
0.702333
0.809520
0.790832
0.699861
0.735077
0.830111
0.820148
0.728243
0.738532
0.850391
0.831081
0.731698
0.747595
0.828297
0.813349
0.699945
0.706806
0.817420
0.787516
0.694987
0.725217
0.820564
0.808109
0.706233
0.723688
0.829939
0.822780
0.718411
0.736490
0.844922
0.799752
0.686660
0.707230
0.808496
0.788874
0.677963
0.714112
0.820052
0.803857
0.710706
0.722553
0.840020
0.807624
0.700764
0.735043
0.821043
0.805783
0.690508
0.704848
0.824809
0.803630
0.711723
0.729490
0.840104
0.833568
0.720787
0.736061
0.832655
0.793715
0.682181
0.708359
0.796228
0.773802
0.685948
0.713995
0.819624
0.790343
0.696880
0.720877
0.826506
0.806260
0.691922
0.731810
0.840243
0.801927
0.701609
0.729968
0.829365
0.807252
0.706933
0.732178
0.839987
0.809461
0.703533
0.719119
0.820386
0.813228
0.703251
0.721640
0.825399
0.804531
0.701720
0.712009
0.833216
0.813594
0.695828
0.731353
0.822962
0.794927
0.697726
0.712688
0.825483
0.798382
0.689964
0.723620
0.825198
0.792492
0.694977
0.729880
0.821489
0.794700
0.699678
0.716199
0.814038
0.798778
0.713103
0.735232
0.833695
0.821551
0.722168
0.740868
0.834657
0.812232
0.717210
0.728121
0.810382
0.780479
0.684211
0.720048
0.824119
0.804497
0.719758
0.745937
0.847203
0.823531
0.716047
0.745030
0.841623
0.796142
0.683984
0.716704
0.806754
0.782149
0.700524
0.719537
0.823920
0.797754
0.712391
0.736701
0.817093
0.811491
0.699645
0.715231
0.815563
0.800926
0.714005
0.723360
0.828365
0.790983
0.688172
0.718714
0.808452
0.800358
0.708141
0.731516
0.825616
0.794154
0.701002
0.731232
0.826578
0.806022
0.714117
0.725340
0.825983
0.797014
0.682364
0.714152
0.811678
0.779906
0.685819
0.721346
0.827908
0.812025
0.714512
0.726670
0.835726
0.816415
0.713604
0.756920
0.846658
0.817067
0.723913
0.722676
0.821761
0.806189
0.693720
0.711174
0.809949
0.786277
0.697176
0.725534
0.816519
0.799702
0.703434
0.726497
0.829633
0.806584
0.710006
0.735872
0.830283
0.804743
0.715329
0.729669
0.821276
0.807886
0.698533
0.714430
0.831275
0.801372
0.697937
0.748730
0.841585
0.817912
0.725695
0.743462
0.845974
0.810773
0.708898
0.721368
0.816403
0.803636
0.693971
0.726069
0.828270
0.794627
0.708642
0.722670
0.815523
0.801821
0.692780
0.717090
0.809321
0.784091
0.696546
0.714625
0.814022
0.798450
0.700625
0.721195
0.824019
0.788508
0.682893
0.714992
0.802238
0.787289
0.700992
0.724678
0.830929
0.807880
0.718468
0.745581
0.839682
0.813516
0.713510
0.738754
0.830985
0.809806
0.709799
0.734108
0.835999
0.806717
0.716369
0.730087
0.823874
0.810173
0.694900
0.714535
0.814867
0.784964
0.694305
0.715498
0.817388
0.812099
0.705237
0.725807
0.836732
0.809946
0.708692
0.732379
0.829595
0.813089
0.711524
0.736456
0.838346
0.798473
0.705008
0.727449
0.821861
0.812832
0.703479
0.727789
0.828743
0.791985
0.690733
0.707876
0.815062
0.787029
0.691695
0.739372
0.830357
0.812293
0.715403
0.732546
0.845340
0.807336
0.696112
0.727276
0.821689
0.805183
0.708914
0.724811
0.828260
0.804276
0.702712
0.722658
0.823926
0.795891
0.696508
0.731411
0.827691
0.809940
0.718033
0.748574
0.835197
0.798440
0.717127
0.738009
0.823385
0.797533
0.700018
0.716849
0.806589
0.788836
0.701605
0.728095
0.820638
0.805689
0.700696
0.719087
0.829701
0.793877
0.704151
0.742794
0.827236
0.811353
0.721627
0.724751
0.825083
0.803903
0.690498
0.718235
0.821683
0.861570
0.892424
1.231106
2.016889
3.069374
4.673336
7.022882
9.272728
10.364158
11.626329
14.148797
15.129621
13.756235
12.531464
13.220350
14.174067
12.221475
10.218096
11.264036
14.638021
19.761152
25.196163
30.485357
34.245377
31.977785
17.160835
-6.003663
-17.810238
-11.569200
-2.881414
0.001539
8.931726
19.489859
8.865062
-16.608780
-34.755154
-36.663193
-25.500925
-16.927797
-18.197433
-18.722420
-6.552543
20.836216
42.500835
28.405478
-13.049032
-49.715355
-73.186440
-74.708138
-36.853157
7.531980
6.071976
-22.357718
-32.369972
-25.877806
-23.075865
-27.244019
-20.524725
10.381642
38.249596
32.181179
18.185835
29.742544
50.380856
53.194641
34.033802
10.477350
0.939617
6.223517
10.766506
1.565581
-11.183490
-20.692556
-26.670931
-19.588654
2.405604
30.455196
43.841129
38.871307
40.388962
40.365601
10.322292
-27.399002
-24.271782
9.176054
21.021898
15.144165
16.340282
17.489666
14.478986
-6.144046
-44.944302
-71.496803
-65.478218
-33.109661
-10.018679
-12.892893
-23.397734
-22.455854
-1.440544
25.123180
53.876301
81.169716
69.521729
21.277517
-18.245579
-24.391886
-14.412648
-30.273664
-57.018085
-38.808762
4.560351
20.592121
20.940775
18.974472
12.947806
18.830542
26.623190
25.837111
23.613453
12.550592
3.338449
15.983467
21.754662
-3.950989
-40.190773
-66.326080
-70.112572
-54.681190
-30.395967
-5.422175
1.506495
-12.737793
-33.579548
-45.734768
-26.159525
32.446236
87.062973
85.651886
33.547955
-24.355820
-55.100475
-56.174751
-55.320431
-58.170029
-18.322260
58.136692
94.613602
67.285606
5.365398
-60.126629
-80.978668
-31.182518
32.885345
52.087330
41.766628
20.863493
14.918147
55.331726
86.293549
67.021790
45.355003
14.488530
-45.887547
-56.892139
16.259817
74.274834
42.497963
-16.181622
-15.371848
26.521053
50.495644
64.392860
94.416237
107.402122
70.752304
-9.499354
-83.930603
-57.656948
43.136139
70.285301
2.718534
-55.101742
-49.230846
-43.479908
-115.663795
-208.199371
-215.919418
-121.398514
23.675941
114.780479
99.985657
66.608253
69.379662
59.843796
10.073207
-72.470352
-146.829926
-147.772095
-74.283974
22.868120
79.770523
73.714890
57.863220
35.617535
-10.559421
-55.743717
-82.723999
-73.726517
-46.449608
-24.827047
15.647283
74.925713
111.058968
120.264580
121.977280
103.481010
43.792252
-44.763645
-116.142143
-143.454849
-116.550896
-26.201916
71.436218
100.225166
76.651268
36.372620
-20.560619
-62.475628
-51.813435
-11.345334
14.837342
37.663174
59.047073
47.847126
27.374582
26.953346
31.332451
37.835831
47.733746
35.744907
-8.994784
-75.940285
-135.835602
-144.666687
-70.305542
54.263962
103.238190
55.207413
10.124370
-8.909663
9.062870
39.380058
15.735125
1.521371
38.573742
35.420990
0.598214
26.873430
85.293800
134.133438
169.302368
110.008690
-52.849472
-185.236847
-196.236755
-113.231758
-15.767792
30.785551
13.910069
-0.294340
45.141098
104.403015
103.698883
64.777725
54.987007
12.309588
-101.910530
-170.688980
-152.480896
-120.341660
-102.804398
-39.751617
79.259193
171.734329
178.607239
94.185844
-16.893661
-85.743469
-88.483398
-38.746445
2.478768
33.473309
88.330887
112.921455
52.519516
-52.967018
-136.162384
-171.004456
-165.835846
-102.551888
41.677906
195.312408
237.814713
186.616226
135.758896
26.857872
-138.822159
-226.041443
-185.087585
-5.234916
182.527252
232.938110
190.571030
79.778793
-28.443628
-4.491160
116.090584
121.718468
-90.342941
-298.498199
-277.422760
-60.274990
110.245605
124.669060
151.129028
137.354889
-55.596127
-215.026428
-175.004166
-83.075211
10.750258
157.880753
204.735703
103.493347
18.179329
-11.036144
-13.811589
43.487133
103.903404
112.231972
167.408585
285.679108
393.790619
388.803009
212.015289
25.000263
-94.980133
-203.014053
-178.510727
92.157661
348.212830
353.289581
241.804398
36.546432
-198.371002
-306.315826
-393.835175
-497.755035
-525.921509
-488.123535
-408.729980
-262.426392
-55.969444
236.734009
496.357361
491.522461
307.501221
76.329163
-122.818008
-218.256454
-233.472534
-118.328293
84.250519
184.456619
87.783722
30.406813
84.087914
-18.359270
-152.536301
-120.262131
-11.068546
49.444008
19.138048
-29.552023
34.120770
258.676697
485.381897
635.571960
735.046509
805.282837
819.296814
597.473083
199.316101
-184.541153
-511.943939
-717.227783
-811.645569
-802.807312
-648.716675
-225.205475
346.361847
644.759888
611.413025
396.724457
246.243668
145.390808
-62.778477
-236.515076
-339.879211
-317.216949
-169.557373
19.885702
-34.779629
-260.652863
-198.976593
-115.279907
15.633136
207.359711
189.458542
178.992020
69.883804
-105.572006
-231.298691
-270.814606
-104.388969
86.489510
259.474579
404.363647
457.203857
176.509521
-302.083282
-482.778381
-530.247742
-510.906158
-372.144470
-306.476044
-376.367126
-439.510162
-301.106781
23.479219
504.401001
872.310242
870.725037
627.704041
290.767090
22.027349
-155.783295
-241.633865
-149.117905
-85.575653
-207.146591
-323.364197
-379.071136
-468.352264
-574.018921
-547.458923
-233.176575
184.167755
428.849121
456.184357
250.097229
-4.662442
-77.874519
-95.831779
-204.025528
-329.321594
-294.138031
-115.716057
46.566341
241.118820
413.888000
473.101990
524.607971
470.491028
215.736908
-85.300362
-270.930756
-386.792847
-510.931702
-529.631104
-423.108337
30.703232
564.820740
613.695557
382.273529
-59.592133
-424.399139
-496.214417
-465.270996
-324.751678
-161.390610
43.318401
275.873535
490.993652
528.209229
434.113983
336.314758
119.024025
-96.301994
-301.341248
-331.180511
-132.900681
-6.149274
1.730304
51.305241
322.915497
583.447693
586.154297
347.143097
-7.731994
-225.648712
-358.103699
-399.145386
-256.771576
-78.492935
9.517110
-29.828390
-6.405279
6.131314
-196.657471
-381.469086
-507.119354
-601.472595
-516.634338
-311.187592
-66.796883
155.135315
241.897186
247.352173
221.708511
171.552856
165.664825
201.274643
304.837219
414.455475
462.487305
417.791168
192.513046
-54.452442
-192.487930
-232.670944
-140.935135
-74.750801
-137.839691
-114.309723
109.200279
324.843475
298.236145
93.503464
-50.236530
-36.145828
65.404358
71.887794
-38.747723
-92.684296
-41.421276
36.614834
31.245579
-58.238796
-168.370514
-198.467102
-80.421532
-65.038132
-215.111084
-279.082031
-281.163940
-249.102905
-99.999222
17.191727
70.174294
182.715683
230.398438
112.377846
-32.789764
-111.834717
-194.900467
-272.824432
-285.971985
-213.069565
9.952506
141.095184
-27.667837
-198.380325
-199.403519
-144.505112
-94.205475
-25.683107
80.700447
182.527328
283.766541
383.697205
411.719696
369.743317
304.599915
199.214035
46.483105
-55.281120
-23.409515
13.218501
-53.177704
-97.744164
-76.180496
-65.153442
-70.924622
-71.399757
-52.887592
-31.524567
-33.355648
-18.258898
47.499538
61.618271
-29.169386
-127.717911
-190.135376
-244.165146
-311.106293
-272.958405
-31.827957
263.470551
477.177094
508.011169
336.837158
119.294708
-83.430229
-283.628021
-461.149506
-565.293518
-584.197021
-517.723206
-321.054871
-60.451366
264.343048
452.525879
291.665741
118.569763
12.633942
-37.556641
58.256954
103.933235
152.688431
267.791199
321.122101
214.241318
28.852703
-95.914017
-215.418961
-211.288788
-124.657127
-121.697845
-145.671173
-238.771332
-308.606934
-274.401703
-185.319809
-55.239590
79.301353
158.762894
132.598618
129.790451
134.483002
117.029556
155.416061
135.928070
76.514435
52.824940
21.022827
-46.893211
-134.969604
-188.612671
-172.020386
-89.552223
10.137905
71.722878
54.955200
3.429854
49.023258
180.806824
281.074554
321.358246
275.686615
137.160767
-18.775282
-113.903717
-126.313484
-124.298882
-151.405640
-177.273941
-198.028458
-203.011993
-157.805862
-59.251724
57.523891
110.740456
59.412319
-29.877939
-75.015190
-53.180458
-39.579857
-86.958527
-99.674889
6.542294
170.070663
286.812286
300.229980
184.260757
20.141365
-112.847031
-224.276459
-292.113037
-323.197906
-274.682007
-105.322296
90.431923
241.176300
324.374451
271.012115
83.885262
-87.551010
-183.336533
-198.981323
-123.316879
-8.136182
103.011887
172.838165
177.297653
134.145096
109.837135
95.318657
81.174698
77.263275
29.489220
-40.854870
-88.360970
-42.718655
55.086475
59.143730
24.962793
40.968704
71.582191
48.935215
-41.994209
-115.712898
-114.275314
-45.989433
45.276188
73.931160
32.945560
-42.351532
-125.936035
-162.577744
-117.132339
18.503147
173.696426
290.520935
337.635101
254.880585
94.877373
-77.401688
-209.979416
-251.363525
-270.291931
-303.375580
-306.008636
-241.306702
-105.700478
62.275208
228.533508
316.913391
272.596802
164.506836
38.127739
-110.511040
-224.890701
-237.972870
-160.676376
-32.352478
103.339401
167.975266
193.076477
197.126266
118.212784
22.576801
-46.682407
-131.441528
-225.104050
-254.035355
-201.574036
-113.541260
-21.596725
70.808929
165.157227
220.341599
218.008911
117.600655
-9.748664
-95.072037
-143.254242
-92.009308
-10.358065
56.727966
62.865875
-15.051202
-81.306267
-112.429787
-95.262657
-78.853889
-86.179176
-95.459862
-85.089912
-2.320141
100.951775
168.595825
167.914124
130.195007
121.923813
82.466141
-12.410866
-113.218254
-167.660828
-154.227219
-111.878807
-66.566124
-44.002636
-22.194382
31.622873
52.546585
-12.248780
-94.111565
-81.132851
-10.241322
45.827637
106.433655
158.366241
162.723526
98.253769
32.109932
-6.224219
-53.284782
-62.136440
-35.722580
-7.157651
10.970975
19.531021
16.084766
1.903104
43.117100
98.518051
66.811600
-18.194290
-69.032310
-93.565224
-135.764374
-144.295120
-58.384113
69.396103
120.937355
65.491234
-28.127348
-94.317596
-102.648323
-53.761326
3.372891
5.520541
-28.325466
-47.786346
-32.967197
19.292215
54.324379
24.105965
-39.319748
-67.080498
-25.165789
48.329205
95.185081
67.511871
-22.368500
-87.603485
-77.654472
-18.212776
26.573353
16.971127
-26.894613
-52.400551
-69.425278
-107.859444
-111.204735
-61.588684
4.285968
72.463112
148.846970
189.927917
142.169144
59.647385
-28.726242
-121.306366
-179.589005
-172.502670
-105.487694
-50.500488
-62.071835
-108.196747
-121.990517
-101.469666
-79.353897
-74.746414
-73.361168
-45.091297
-11.464934
25.301107
74.957047
122.527054
143.389999
92.564438
-12.739830
-103.758057
-148.452881
-118.592758
-23.413206
51.325569
70.599518
61.046207
46.171932
33.984001
-5.311964
-42.258389
-20.224249
27.291531
63.351246
69.854622
57.250126
69.849648
92.373886
92.248650
80.064758
81.996178
100.599640
95.296127
38.916546
-36.036266
-93.628471
-116.990196
-86.634369
-36.272095
-11.172743
13.975216
54.614674
67.082405
29.588875
-12.802211
-2.643510
55.461243
94.841652
80.221924
28.199942
-28.158140
-30.094534
29.326288
71.810852
41.581226
-24.119555
-54.280636
-44.264324
-23.880247
-17.250061
-41.637466
-75.714035
-77.477821
-29.998173
22.456593
36.754478
29.975382
25.638041
4.700634
-39.331795
-62.783867
-65.381721
-42.093204
15.155043
47.645115
41.562992
27.036427
17.813374
4.245814
-2.195548
2.794852
-4.367480
1.529898
-12.905382
-71.740120
-102.222748
-105.857811
-105.895508
-69.336975
-27.141533
-34.683670
-55.072395
-56.741467
-29.363609
0.691239
-18.895826
-40.743324
-59.852448
-70.240135
-52.494114
-58.236633
-38.799725
18.319851
64.533897
99.151665
87.452896
56.161755
58.411282
87.141037
127.656502
119.985382
59.050030
28.412560
32.987331
49.552502
64.161652
37.186047
4.184394
-13.239762
-66.728615
-129.969238
-166.705658
-151.550034
-47.984612
60.805813
98.627449
84.094337
49.369396
43.730629
72.482819
96.850288
78.534111
17.028915
-41.137821
-88.822777
-94.708923
-39.903992
-1.968634
8.910102
18.177719
-16.777782
-90.640099
-131.764359
-124.456177
-86.504326
-14.902104
61.289825
101.509293
97.646782
71.369095
29.653177
-28.581482
-77.472206
-108.614105
-116.641647
-75.826790
25.184704
142.024506
188.093689
153.455048
108.982056
84.339470
77.178078
74.193565
51.749100
17.633902
-21.762386
-53.346088
-53.390953
-28.682306
5.164024
44.626686
83.002602
101.870895
106.059631
106.562515
97.360657
75.156715
38.676094
7.328242
-3.700657
-6.450243
-11.882747
-22.792315
-30.531673
-37.159355
-50.964325
-53.459053
-27.246157
14.654538
49.889217
80.601166
92.799400
58.573280
2.728658
-47.504608
-75.070953
-55.565811
4.463500
77.189232
127.278275
133.331741
91.629837
26.956924
-21.140856
-55.364479
-84.210434
-104.180412
-101.137634
-46.770458
36.305588
83.547806
81.875000
50.302204
-20.197666
-96.188316
-119.937630
-83.028580
-9.103928
45.277889
59.811642
74.059052
109.222092
141.651718
118.619942
37.002979
-48.228168
-96.043037
-90.905571
-50.760265
-10.051637
29.632242
70.508499
80.510475
56.383858
19.052336
-22.431774
-40.340729
-10.778782
60.581036
125.369240
155.134964
160.138138
122.380081
46.029881
-35.604832
-84.870995
-94.839935
-109.237503
-132.250275
-138.059143
-105.620178
-29.525455
45.457901
80.838089
80.310921
54.540462
23.868095
-4.343815
-28.559233
-11.922086
20.263586
20.269512
11.877726
-0.045685
-26.122414
-66.562141
-115.675331
-137.456146
-96.034332
-10.751142
48.426338
61.376068
64.560944
65.476959
62.377167
64.938896
66.924522
49.842155
22.516661
10.405374
8.023439
7.321170
2.037284
-4.233962
-34.181622
-77.331062
-42.173965
14.037386
9.577287
-9.515321
-18.183153
8.386802
38.368748
4.475696
-70.201385
-122.093750
-97.140518
-35.536236
26.344732
99.400726
93.867584
61.332664
81.605820
70.850166
57.495403
62.666515
70.339844
100.473206
115.688675
104.704010
86.856117
53.718929
25.923903
30.934868
1.516252
-32.478058
-24.401880
-78.091072
-134.113907
-125.508995
-104.250351
-57.959347
-25.986790
-26.116394
-27.489782
-23.637230
-31.820570
-77.038521
-85.963089
-36.379112
18.711525
72.157387
59.423279
7.773928
18.168488
35.097572
24.776251
10.271801
4.253861
27.534275
55.060741
79.291763
104.422272
128.313980
134.735733
97.333794
43.012123
-5.138002
-37.200275
-48.788754
-68.954094
-97.482864
-97.490021
-66.880890
-47.497578
-61.790779
-80.956917
-58.599682
0.627030
49.774181
83.572838
99.869759
100.106857
96.859085
67.655457
33.168240
10.161708
1.043971
11.035674
-9.913883
-54.182484
-70.875076
-39.437168
21.014627
62.080933
83.832802
91.987488
66.276543
13.002674
-33.884346
-56.585850
-49.153378
-15.262179
4.653916
5.200416
6.805624
-1.524468
-31.526339
-86.512581
-143.701920
-179.103607
-175.348572
-134.587906
-97.362930
-59.916115
-18.835781
-12.303427
-51.193417
-109.221199
-136.909042
-108.331345
-37.553844
30.321695
60.935814
57.139355
23.190847
-15.014315
-36.910416
-45.552700
-40.157887
-35.541676
-34.838768
-26.217346
-3.611166
18.046286
1.867782
-26.839523
