EVENT_NAME: EMILIA_2ND_SHOCK
EVENT_ID: IT-2012-0011
EVENT_DATE_YYYYMMDD: 20120529
EVENT_TIME_HHMMSS: 070002
EVENT_LATITUDE_DEGREE: 44.8417
EVENT_LONGITUDE_DEGREE: 11.0657
EVENT_DEPTH_KM: 8.1
HYPOCENTER_REFERENCE: INGV-CNT_Seismic_Bulletin
MAGNITUDE_W: 6.0
MAGNITUDE_W_REFERENCE: RCMT-INGV
MAGNITUDE_L: 5.8
MAGNITUDE_L_REFERENCE: INGV-CNT_Seismic_Bulletin
FOCAL_MECHANISM: TF
NETWORK: IT
STATION_CODE: MRN
STATION_NAME: MIRANDOLA (NAPOLI)
STATION_LATITUDE_DEGREE: 44.878231
STATION_LONGITUDE_DEGREE: 11.061743
STATION_ELEVATION_M: 15
LOCATION: 
SENSOR_DEPTH_M: 0.0
VS30_M/S: 208
SITE_CLASSIFICATION_EC8: C
MORPHOLOGIC_CLASSIFICATION: 
EPICENTRAL_DISTANCE_KM: 4.1
EARTHQUAKE_BACKAZIMUTH_DEGREE: 175.6
DATE_TIME_FIRST_SAMPLE_YYYYMMDD_HHMMSS: 20120529_065948.000
DATE_TIME_FIRST_SAMPLE_PRECISION: seconds
SAMPLING_INTERVAL_S: 0.005000
NDATA: 105
DURATION_S: 
STREAM: HNE
UNITS: cm/s
INSTRUMENT: sensor = MS2007+ [Syscom] | digitizer = 130-01/3 [Reftek]
INSTRUMENT_ANALOG/DIGITAL: D
INSTRUMENTAL_FREQUENCY_HZ: 
INSTRUMENTAL_DAMPING: 
FULL_SCALE_G: 
N_BIT_DIGITAL_CONVERTER: 24
PGV_CM/S: -28.514466
TIME_PGV_S: 20.805000
BASELINE_CORRECTION: BASELINE REMOVED
FILTER_TYPE: BUTTERWORTH
FILTER_ORDER: 2
LOW_CUT_FREQUENCY_HZ: 0.070
HIGH_CUT_FREQUENCY_HZ: 40.000
LATE/NORMAL_TRIGGERED: NT
DATABASE_VERSION: DYNA 1.0
HEADER_FORMAT: DYNA 1.2
DATA_TYPE: PSEUDO-VELOCITY RESPONSE SPECTRUM
PROCESSING: manual (Paolucci et al., 2011)
DATA_TIMESTAMP_YYYYMMDD_HHMMSS: 20141204_104205.354
DATA_LICENSE: CC-BY3_0-IT (http://creativecommons.org/licenses/by/3.0/deed.en)
DATA_CITATION: ESM working group (2015), European Strong-Motion database, version 0.1, Network Activity 3: Networking acceleration networks and SM data users. Project NERA (www.nera-eu.org)
DATA_CREATOR: ESM working group
ORIGINAL_DATA_MEDIATOR_CITATION: Ufficio Rischio Sismico e Vulcanico del Dipartimento della Protezione Civile (http://www.protezionecivile.gov.it/)
ORIGINAL_DATA_MEDIATOR: Rete Accelerometrica Nazionale - RAN Download (http://www.mot1.it/randownload/)
ORIGINAL_DATA_CREATOR_CITATION: Italian Strong Motion Network, Italian Civil Protection Department http://www.protezionecivile.gov.it
ORIGINAL_DATA_CREATOR: network: IT (Italian Strong Motion Network); owner: Dipartimento Della Protezione Civile
USER1: /home/dyna/processing-itaca/processing.py /var/www/processing/tmp/fpacor//IT.MRN..HNE.D.20120529.070003.X.ACC.ASC /var/www/processing/tmp/fpacor//IT.MRN..HNN.D.20120529.070003.X.ACC.ASC /var/www/processing/tmp/fpacor//IT.MRN..HNZ.D.20120529.070003.X.ACC.ASC --tmp /var/www/processing/tmp/fpacor/ --le 0.070 --he 40.000 --ln 0.070 --hn 40.000 --lz 0.070 --hz 40.000 --fo 2 --ca -15 --cz 100 --ta 5 --tz 5 --mf 1 --rf 0 --tr NT
USER2: 
USER3: 
USER4: 
USER5: 
    0.010000     0.350215
    0.020000     0.748193
    0.022000     0.823292
    0.025000     0.934795
    0.029000     1.258466
    0.030000     1.336949
    0.032000     1.498799
    0.035001     1.836208
    0.036000     1.983904
    0.040000     2.657938
    0.041999     2.775983
    0.044001     3.091548
    0.045000     3.378800
    0.046000     3.700662
    0.048001     4.046210
    0.050000     4.320871
    0.054999     5.445828
    0.059999     6.489357
    0.064998     6.484164
    0.067002     6.442579
    0.069999     6.733848
    0.075002     6.122226
    0.080000     6.325336
    0.084998     5.686251
    0.090001     7.121100
    0.095003     8.907225
    0.100000    12.757186
    0.109999    15.404042
    0.120005    15.368330
    0.130005    11.781166
    0.132996    12.451033
    0.139997    13.018116
    0.149993    16.807940
    0.160000    19.568600
    0.170010    18.052763
    0.179986    22.719208
    0.190006    23.906292
    0.200000    21.091137
    0.220022    16.870174
    0.239981    24.165672
    0.250000    23.321991
    0.260010    21.175735
    0.280034    20.221766
    0.290023    22.154480
    0.300030    23.763378
    0.320000    23.426893
    0.340020    22.163435
    0.350017    24.156687
    0.359971    26.948238
    0.379939    28.533838
    0.400000    27.904867
    0.419992    26.242912
    0.439947    34.188183
    0.450045    36.053249
    0.459982    35.969501
    0.480077    30.665340
    0.500000    26.071432
    0.550055    29.868925
    0.599880    32.435867
    0.650195    31.767078
    0.667111    32.974304
    0.699790    33.775345
    0.750188    33.821404
    0.800000    28.516970
    0.850340    26.057955
    0.900090    25.900087
    0.949668    26.439238
    1.000000    26.679583
    1.100110    22.908518
    1.200480    25.871216
    1.300390    30.212822
    1.400560    36.118870
    1.499250    46.226635
    1.600000    55.596359
    1.700680    60.456860
    1.798561    59.413105
    1.901141    54.198883
    2.000000    54.882683
    2.197802    52.517056
    2.398082    49.216885
    2.500000    48.337505
    2.597403    46.813988
    2.801121    42.623383
    3.003003    38.074512
    3.205128    33.964153
    3.401361    31.105974
    3.496503    29.467190
    3.597122    27.788263
    3.802281    26.364861
    4.000000    25.373655
    4.201681    24.258635
    4.405286    23.105988
    4.608295    21.949697
    4.807692    20.780823
    5.000000    19.606161
    5.494505    16.891842
    5.988024    14.734364
    6.493506    12.957675
    6.993007    11.446168
    7.518797    10.235247
    8.000000     9.324643
    8.474576     8.638916
    9.009009     8.084249
    9.523809     7.593442
   10.000000     7.132909
