EVENT_NAME: EMILIA_2ND_SHOCK
EVENT_ID: IT-2012-0011
EVENT_DATE_YYYYMMDD: 20120529
EVENT_TIME_HHMMSS: 070002
EVENT_LATITUDE_DEGREE: 44.8417
EVENT_LONGITUDE_DEGREE: 11.0657
EVENT_DEPTH_KM: 8.1
HYPOCENTER_REFERENCE: INGV-CNT_Seismic_Bulletin
MAGNITUDE_W: 6.0
MAGNITUDE_W_REFERENCE: RCMT-INGV
MAGNITUDE_L: 5.8
MAGNITUDE_L_REFERENCE: INGV-CNT_Seismic_Bulletin
FOCAL_MECHANISM: TF
NETWORK: IT
STATION_CODE: MOG0
STATION_NAME: MOGLIA
STATION_LATITUDE_DEGREE: 44.932000
STATION_LONGITUDE_DEGREE: 10.912000
STATION_ELEVATION_M: 92
LOCATION: 
SENSOR_DEPTH_M: 0.0
VS30_M/S: 
SITE_CLASSIFICATION_EC8: C*
MORPHOLOGIC_CLASSIFICATION: 
EPICENTRAL_DISTANCE_KM: 15.8
EARTHQUAKE_BACKAZIMUTH_DEGREE: 129.5
DATE_TIME_FIRST_SAMPLE_YYYYMMDD_HHMMSS: 20120529_065953.000
DATE_TIME_FIRST_SAMPLE_PRECISION: seconds
SAMPLING_INTERVAL_S: 0.005000
NDATA: 23000
DURATION_S: 115.000
STREAM: HNE
UNITS: cm
INSTRUMENT: sensor = Episensor FBA ES-T [Kinemetrics] | digitizer = Etna [Kinemetrics]
INSTRUMENT_ANALOG/DIGITAL: D
INSTRUMENTAL_FREQUENCY_HZ: 
INSTRUMENTAL_DAMPING: 
FULL_SCALE_G: 
N_BIT_DIGITAL_CONVERTER: 18
PGD_CM: -3.762681
TIME_PGD_S: 20.975000
BASELINE_CORRECTION: BASELINE REMOVED
FILTER_TYPE: BUTTERWORTH
FILTER_ORDER: 2
LOW_CUT_FREQUENCY_HZ: 0.080
HIGH_CUT_FREQUENCY_HZ: 40.000
LATE/NORMAL_TRIGGERED: NT
DATABASE_VERSION: DYNA 1.0
HEADER_FORMAT: DYNA 1.2
DATA_TYPE: DISPLACEMENT
PROCESSING: manual (Paolucci et al., 2011)
DATA_TIMESTAMP_YYYYMMDD_HHMMSS: 20141204_103647.358
DATA_LICENSE: CC-BY3_0-IT (http://creativecommons.org/licenses/by/3.0/deed.en)
DATA_CITATION: ESM working group (2015), European Strong-Motion database, version 0.1, Network Activity 3: Networking acceleration networks and SM data users. Project NERA (www.nera-eu.org)
DATA_CREATOR: ESM working group
ORIGINAL_DATA_MEDIATOR_CITATION: Ufficio Rischio Sismico e Vulcanico del Dipartimento della Protezione Civile (http://www.protezionecivile.gov.it/)
ORIGINAL_DATA_MEDIATOR: Rete Accelerometrica Nazionale - RAN Download (http://www.mot1.it/randownload/)
ORIGINAL_DATA_CREATOR_CITATION: Italian Strong Motion Network, Italian Civil Protection Department http://www.protezionecivile.gov.it
ORIGINAL_DATA_CREATOR: network: IT (Italian Strong Motion Network); owner: Dipartimento Della Protezione Civile
USER1: /home/dyna/processing-itaca/processing.py /var/www/processing/tmp/fpacor//IT.MOG0..HNE.D.20120529.070003.X.ACC.ASC /var/www/processing/tmp/fpacor//IT.MOG0..HNN.D.20120529.070003.X.ACC.ASC /var/www/processing/tmp/fpacor//IT.MOG0..HNZ.D.20120529.070003.X.ACC.ASC --tmp /var/www/processing/tmp/fpacor/ --le 0.080 --he 40.000 --ln 0.080 --hn 40.000 --lz 0.080 --hz 40.000 --fo 2 --ca -10 --cz 30 --ta 5 --tz 5 --mf 1 --rf 0 --tr NT
USER2: 
USER3: 
USER4: 
USER5: 
[...]
6.458531e-01
6.458159e-01
6.454854e-01
6.449103e-01
6.442040e-01
6.435272e-01
6.430432e-01
6.428648e-01
6.430187e-01
6.434361e-01
6.439702e-01
6.444433e-01
6.447049e-01
6.446774e-01
6.443743e-01
6.438844e-01
6.433253e-01
6.427883e-01
6.423094e-01
6.418772e-01
6.414505e-01
6.409634e-01
6.403300e-01
6.394831e-01
6.384327e-01
6.372967e-01
6.362702e-01
6.355439e-01
6.352119e-01
6.352363e-01
6.354957e-01
6.358594e-01
6.362214e-01
6.364908e-01
6.365850e-01
6.364515e-01
6.360916e-01
6.355620e-01
6.349453e-01
6.343044e-01
6.336577e-01
6.329970e-01
6.323228e-01
6.316615e-01
6.310586e-01
6.305597e-01
6.301878e-01
6.299307e-01
6.297381e-01
6.295316e-01
6.292262e-01
6.287591e-01
6.281126e-01
6.273192e-01
6.264504e-01
6.256063e-01
6.249006e-01
6.244267e-01
6.242133e-01
6.242048e-01
6.242819e-01
6.243097e-01
6.241880e-01
6.238920e-01
6.234786e-01
6.230460e-01
6.226804e-01
6.224258e-01
6.222775e-01
6.221867e-01
6.220838e-01
6.219218e-01
6.217100e-01
6.214985e-01
6.213280e-01
6.212004e-01
6.210884e-01
6.209583e-01
6.207873e-01
6.205822e-01
6.203925e-01
6.202989e-01
6.203773e-01
6.206535e-01
6.210818e-01
6.215692e-01
6.220294e-01
6.224173e-01
6.227305e-01
6.229926e-01
6.232292e-01
6.234484e-01
6.236358e-01
6.237603e-01
6.237835e-01
6.236759e-01
6.234496e-01
6.231899e-01
6.230453e-01
6.231665e-01
6.236324e-01
6.244132e-01
6.253849e-01
6.263708e-01
6.271817e-01
6.276495e-01
6.276664e-01
6.272180e-01
6.263806e-01
6.252756e-01
6.240106e-01
6.226402e-01
6.211622e-01
6.195436e-01
6.177468e-01
6.157477e-01
6.135501e-01
6.111931e-01
6.087409e-01
6.062564e-01
6.037789e-01
6.013136e-01
5.988327e-01
5.962902e-01
5.936504e-01
5.909123e-01
5.881114e-01
5.852955e-01
5.824887e-01
5.796750e-01
5.768187e-01
5.738930e-01
5.708905e-01
5.678239e-01
5.647250e-01
5.616440e-01
5.586529e-01
5.558473e-01
5.533197e-01
5.511072e-01
5.491581e-01
5.473519e-01
5.455612e-01
5.437216e-01
5.418649e-01
5.400973e-01
5.385356e-01
5.372352e-01
5.361514e-01
5.351634e-01
5.341395e-01
5.329921e-01
5.316881e-01
5.302293e-01
5.286357e-01
5.269393e-01
5.251806e-01
5.234008e-01
5.216283e-01
5.198738e-01
5.181349e-01
5.164064e-01
5.146809e-01
5.129412e-01
5.111538e-01
5.092774e-01
5.072754e-01
5.051178e-01
5.027702e-01
5.001906e-01
4.973461e-01
4.942445e-01
4.909601e-01
4.876308e-01
4.844094e-01
4.813907e-01
4.785696e-01
4.758619e-01
4.731759e-01
4.704900e-01
4.678801e-01
4.654698e-01
4.633408e-01
4.614665e-01
4.597154e-01
4.579214e-01
4.559630e-01
4.537923e-01
4.514137e-01
4.488586e-01
4.461830e-01
4.434753e-01
4.408463e-01
4.383889e-01
4.361287e-01
4.340054e-01
4.318973e-01
4.296689e-01
4.272136e-01
4.244761e-01
4.214554e-01
4.181908e-01
4.147310e-01
4.110934e-01
4.072408e-01
4.031045e-01
3.986427e-01
3.938849e-01
3.889321e-01
3.839123e-01
3.789182e-01
3.739643e-01
3.689877e-01
3.638804e-01
3.585285e-01
3.528492e-01
3.468146e-01
3.404527e-01
3.338328e-01
3.270478e-01
3.201982e-01
3.133664e-01
3.065840e-01
2.998104e-01
2.929454e-01
2.858842e-01
2.785798e-01
2.710691e-01
2.634487e-01
2.558268e-01
2.482790e-01
2.408295e-01
2.334667e-01
2.261730e-01
2.189337e-01
2.117189e-01
2.044720e-01
1.971295e-01
1.896472e-01
1.820077e-01
1.742111e-01
1.662605e-01
1.581465e-01
1.498364e-01
1.412846e-01
1.324685e-01
1.234244e-01
1.142437e-01
1.050276e-01
9.584327e-02
8.671845e-02
7.767205e-02
6.874231e-02
5.998416e-02
5.143611e-02
4.307836e-02
3.481944e-02
2.653805e-02
1.814924e-02
9.631883e-03
1.005864e-03
-7.695046e-03
-1.642760e-02
-2.513934e-02
-3.378500e-02
-4.234829e-02
-5.084753e-02
-5.932327e-02
-6.782072e-02
-7.637401e-02
-8.499605e-02
-9.368365e-02
-1.024368e-01
-1.112723e-01
-1.202180e-01
-1.292988e-01
-1.385255e-01
-1.478887e-01
-1.573581e-01
-1.668856e-01
-1.764202e-01
-1.859285e-01
-1.954067e-01
-2.048745e-01
-2.143559e-01
-2.238627e-01
-2.333894e-01
-2.429171e-01
-2.524130e-01
-2.618303e-01
-2.711178e-01
-2.802402e-01
-2.891968e-01
-2.980276e-01
-3.068073e-01
-3.156274e-01
-3.245702e-01
-3.336798e-01
-3.429475e-01
-3.523260e-01
-3.617590e-01
-3.712081e-01
-3.806704e-01
-3.901849e-01
-3.998171e-01
-4.096244e-01
-4.196252e-01
-4.297945e-01
-4.400844e-01
-4.504479e-01
-4.608573e-01
-4.713208e-01
-4.818970e-01
-4.926872e-01
-5.038013e-01
-5.153217e-01
-5.272891e-01
-5.397113e-01
-5.525767e-01
-5.658498e-01
-5.794559e-01
-5.932852e-01
-6.072296e-01
-6.212276e-01
-6.352921e-01
-6.495022e-01
-6.639585e-01
-6.787232e-01
-6.937775e-01
-7.090204e-01
-7.243064e-01
-7.394963e-01
-7.544918e-01
-7.692446e-01
-7.837464e-01
-7.980048e-01
-8.120143e-01
-8.257343e-01
-8.390766e-01
-8.519170e-01
-8.641390e-01
-8.756791e-01
-8.865444e-01
-8.968013e-01
-9.065398e-01
-9.158350e-01
-9.247340e-01
-9.332654e-01
-9.414453e-01
-9.492782e-01
-9.567579e-01
-9.638657e-01
-9.705670e-01
-9.768201e-01
-9.825847e-01
-9.878173e-01
-9.924589e-01
-9.964329e-01
-9.996521e-01
-1.002028e+00
-1.003478e+00
-1.003931e+00
-1.003333e+00
-1.001655e+00
-9.988958e-01
-9.950801e-01
-9.902408e-01
-9.844027e-01
-9.775598e-01
-9.696636e-01
-9.606356e-01
-9.503955e-01
-9.388830e-01
-9.260657e-01
-9.119338e-01
-8.964889e-01
-8.797388e-01
-8.617001e-01
-8.424029e-01
-8.218908e-01
-8.002219e-01
-7.774784e-01
-7.537822e-01
-7.293043e-01
-7.042589e-01
-6.788822e-01
-6.534072e-01
-6.280447e-01
-6.029665e-01
-5.782800e-01
-5.540062e-01
-5.300893e-01
-5.064320e-01
-4.829296e-01
-4.594849e-01
-4.360087e-01
-4.124247e-01
-3.886797e-01
-3.647534e-01
-3.406624e-01
-3.164496e-01
-2.921617e-01
-2.678351e-01
-2.435054e-01
-2.192241e-01
-1.950555e-01
-1.710495e-01
-1.472203e-01
-1.235525e-01
-1.000208e-01
-7.660155e-02
-5.327477e-02
-3.002902e-02
-6.867870e-03
1.618266e-02
3.906382e-02
6.167684e-02
8.389475e-02
1.055964e-01
1.266998e-01
1.471686e-01
1.669901e-01
1.861440e-01
2.045887e-01
2.222688e-01
2.391320e-01
2.551449e-01
2.703082e-01
2.846643e-01
2.982899e-01
3.112774e-01
3.237088e-01
3.356331e-01
3.470556e-01
3.579457e-01
3.682572e-01
3.779501e-01
3.870067e-01
3.954373e-01
4.032730e-01
4.105448e-01
4.172658e-01
4.234323e-01
4.290423e-01
4.341161e-01
4.387022e-01
4.428749e-01
4.467322e-01
4.503989e-01
4.540253e-01
4.577750e-01
4.618060e-01
4.662521e-01
4.712057e-01
4.767028e-01
4.827138e-01
4.891443e-01
4.958422e-01
5.026062e-01
5.092070e-01
5.154316e-01
5.211266e-01
5.262065e-01
5.306367e-01
5.344241e-01
5.376230e-01
5.403396e-01
5.427273e-01
5.449720e-01
5.472747e-01
5.498467e-01
5.529058e-01
5.566504e-01
5.612219e-01
5.666858e-01
5.730455e-01
5.802692e-01
5.882983e-01
5.970326e-01
6.063122e-01
6.159244e-01
6.256434e-01
6.352883e-01
6.447657e-01
6.540786e-01
6.633000e-01
6.725247e-01
6.818159e-01
6.911702e-01
7.005144e-01
7.097259e-01
7.186630e-01
7.271946e-01
7.352189e-01
7.426688e-01
7.495193e-01
7.558075e-01
7.616503e-01
7.672371e-01
7.727953e-01
7.785487e-01
7.846897e-01
7.913660e-01
7.986737e-01
8.066530e-01
8.152935e-01
8.245421e-01
8.343042e-01
8.444424e-01
8.547790e-01
8.651042e-01
8.751907e-01
8.848109e-01
8.937504e-01
9.018082e-01
9.087970e-01
9.145490e-01
9.189276e-01
9.218328e-01
9.232049e-01
9.230222e-01
9.212933e-01
9.180465e-01
9.133226e-01
9.071774e-01
8.996868e-01
8.909432e-01
8.810358e-01
8.700276e-01
8.579532e-01
8.448429e-01
8.307469e-01
8.157330e-01
7.998671e-01
7.832004e-01
7.657723e-01
7.476120e-01
7.287335e-01
7.091256e-01
6.887450e-01
6.675082e-01
6.452861e-01
6.219151e-01
5.972313e-01
5.711081e-01
5.434653e-01
5.142549e-01
4.834764e-01
4.512707e-01
4.180316e-01
3.843739e-01
3.509124e-01
3.180500e-01
2.859747e-01
2.548015e-01
2.246549e-01
1.956355e-01
1.677660e-01
1.409824e-01
1.151626e-01
9.016483e-02
6.586454e-02
4.217189e-02
1.901824e-02
-3.672748e-03
-2.600755e-02
-4.814231e-02
-7.030826e-02
-9.281309e-02
-1.159789e-01
-1.400549e-01
-1.651927e-01
-1.914939e-01
-2.190548e-01
-2.479751e-01
-2.783506e-01
-3.102695e-01
-3.438078e-01
-3.790201e-01
-4.159056e-01
-4.543360e-01
-4.939762e-01
-5.342880e-01
-5.746645e-01
-6.145920e-01
-6.536833e-01
-6.915899e-01
-7.279386e-01
-7.623579e-01
-7.945397e-01
-8.242669e-01
-8.514066e-01
-8.758946e-01
-8.977322e-01
-9.169868e-01
-9.337830e-01
-9.482711e-01
-9.605756e-01
-9.707483e-01
-9.787442e-01
-9.844310e-01
-9.876221e-01
-9.881108e-01
-9.856859e-01
-9.801481e-01
-9.714033e-01
-9.597063e-01
-9.459212e-01
-9.314240e-01
-9.175652e-01
-9.052390e-01
-8.949725e-01
-8.872024e-01
-8.823379e-01
-8.806944e-01
-8.824953e-01
-8.879112e-01
-8.970355e-01
-9.097994e-01
-9.258940e-01
-9.447661e-01
-9.657093e-01
-9.879909e-01
-1.010926e+00
-1.033888e+00
-1.056306e+00
-1.077681e+00
-1.097601e+00
-1.115742e+00
-1.131867e+00
-1.145837e+00
-1.157643e+00
-1.167436e+00
-1.175487e+00
-1.182122e+00
-1.187647e+00
-1.192306e+00
-1.196280e+00
-1.199694e+00
-1.202627e+00
-1.205123e+00
-1.207201e+00
-1.208856e+00
-1.210054e+00
-1.210729e+00
-1.210792e+00
-1.210143e+00
-1.208695e+00
-1.206431e+00
-1.203446e+00
-1.199933e+00
-1.196089e+00
-1.192020e+00
-1.187680e+00
-1.182917e+00
-1.177542e+00
-1.171387e+00
-1.164344e+00
-1.156429e+00
-1.147830e+00
-1.138891e+00
-1.130028e+00
-1.121643e+00
-1.114094e+00
-1.107702e+00
-1.102732e+00
-1.099358e+00
-1.097661e+00
-1.097672e+00
-1.099417e+00
-1.102922e+00
-1.108197e+00
-1.115204e+00
-1.123849e+00
-1.133978e+00
-1.145414e+00
-1.158003e+00
-1.171641e+00
-1.186270e+00
-1.201864e+00
-1.218423e+00
-1.235972e+00
-1.254538e+00
-1.274131e+00
-1.294731e+00
-1.316287e+00
-1.338720e+00
-1.361927e+00
-1.385777e+00
-1.410116e+00
-1.434766e+00
-1.459512e+00
-1.484127e+00
-1.508397e+00
-1.532145e+00
-1.555224e+00
-1.577492e+00
-1.598802e+00
-1.619014e+00
-1.638007e+00
-1.655671e+00
-1.671903e+00
-1.686608e+00
-1.699721e+00
-1.711210e+00
-1.721055e+00
-1.729219e+00
-1.735627e+00
-1.740181e+00
-1.742781e+00
-1.743351e+00
-1.741853e+00
-1.738288e+00
-1.732701e+00
-1.725190e+00
-1.715936e+00
-1.705203e+00
-1.693294e+00
-1.680477e+00
-1.666957e+00
-1.652924e+00
-1.638607e+00
-1.624294e+00
-1.610312e+00
-1.597010e+00
-1.584745e+00
-1.573871e+00
-1.564720e+00
-1.557571e+00
-1.552640e+00
-1.550076e+00
-1.549965e+00
-1.552342e+00
-1.557200e+00
-1.564511e+00
-1.574235e+00
-1.586325e+00
-1.600720e+00
-1.617327e+00
-1.635990e+00
-1.656470e+00
-1.678425e+00
-1.701434e+00
-1.725050e+00
-1.748856e+00
-1.772507e+00
-1.795719e+00
-1.818244e+00
-1.839826e+00
-1.860191e+00
-1.879064e+00
-1.896202e+00
-1.911401e+00
-1.924483e+00
-1.935276e+00
-1.943623e+00
-1.949382e+00
-1.952431e+00
-1.952677e+00
-1.950070e+00
-1.944594e+00
-1.936263e+00
-1.925112e+00
-1.911198e+00
-1.894603e+00
-1.875442e+00
-1.853876e+00
-1.830106e+00
-1.804332e+00
-1.776708e+00
-1.747297e+00
-1.716081e+00
-1.683006e+00
-1.648054e+00
-1.611285e+00
-1.572817e+00
-1.532778e+00
-1.491262e+00
-1.448311e+00
-1.403934e+00
-1.358107e+00
-1.310782e+00
-1.261882e+00
-1.211297e+00
-1.158901e+00
-1.104560e+00
-1.048161e+00
-9.896337e-01
-9.289842e-01
-8.663061e-01
-8.017458e-01
-7.354525e-01
-6.675485e-01
-5.981216e-01
-5.272184e-01
-4.548375e-01
-3.809394e-01
-3.054799e-01
-2.284440e-01
-1.498631e-01
-6.981768e-02
1.156209e-02
9.408380e-02
1.774643e-01
2.613106e-01
3.451370e-01
4.284153e-01
5.106168e-01
5.912293e-01
6.697624e-01
7.457622e-01
8.188165e-01
8.885432e-01
9.545775e-01
1.016579e+00
1.074259e+00
1.127412e+00
1.175929e+00
1.219776e+00
1.258951e+00
1.293444e+00
1.323238e+00
1.348331e+00
1.368753e+00
1.384553e+00
1.395787e+00
1.402515e+00
1.404822e+00
1.402812e+00
1.396596e+00
1.386261e+00
1.371856e+00
1.353401e+00
1.330905e+00
1.304381e+00
1.273856e+00
1.239373e+00
1.200995e+00
1.158794e+00
1.112834e+00
1.063148e+00
1.009723e+00
9.525134e-01
8.914553e-01
8.264966e-01
7.576090e-01
6.847737e-01
6.079516e-01
5.270689e-01
4.420326e-01
3.527587e-01
2.591842e-01
1.612630e-01
5.897029e-02
-4.767672e-02
-1.586031e-01
-2.736695e-01
-3.926544e-01
-5.152167e-01
-6.408728e-01
-7.690301e-01
-8.990758e-01
-1.030468e+00
-1.162767e+00
-1.295594e+00
-1.428587e+00
-1.561358e+00
-1.693478e+00
-1.824479e+00
-1.953870e+00
-2.081164e+00
-2.205888e+00
-2.327593e+00
-2.445841e+00
-2.560207e+00
-2.670290e+00
-2.775734e+00
-2.876245e+00
-2.971592e+00
-3.061609e+00
-3.146193e+00
-3.225287e+00
-3.298860e+00
-3.366903e+00
-3.429445e+00
-3.486554e+00
-3.538316e+00
-3.584817e+00
-3.626105e+00
-3.662157e+00
-3.692868e+00
-3.718098e+00
-3.737741e+00
-3.751737e+00
-3.760061e+00
-3.762681e+00
-3.759540e+00
-3.750561e+00
-3.735692e+00
-3.714951e+00
-3.688431e+00
-3.656266e+00
-3.618613e+00
-3.575689e+00
-3.527827e+00
-3.475477e+00
-3.419131e+00
-3.359293e+00
-3.296526e+00
-3.231499e+00
-3.164955e+00
-3.097616e+00
-3.030088e+00
-2.962860e+00
-2.896388e+00
-2.831165e+00
-2.767731e+00
-2.706657e+00
-2.648535e+00
-2.593944e+00
-2.543383e+00
-2.497208e+00
-2.455546e+00
-2.418209e+00
-2.384637e+00
-2.353882e+00
-2.324704e+00
-2.295852e+00
-2.266378e+00
-2.235706e+00
-2.203460e+00
-2.169287e+00
-2.132817e+00
-2.093690e+00
-2.051589e+00
-2.006248e+00
-1.957435e+00
-1.904985e+00
-1.848924e+00
-1.789613e+00
-1.727798e+00
-1.664469e+00
-1.600600e+00
-1.536948e+00
-1.474033e+00
-1.412234e+00
-1.351858e+00
-1.293168e+00
-1.236388e+00
-1.181710e+00
-1.129313e+00
-1.079357e+00
-1.031966e+00
-9.872007e-01
-9.450673e-01
-9.055537e-01
-8.686603e-01
-8.343877e-01
-8.027115e-01
-7.735870e-01
-7.469734e-01
-7.228496e-01
-7.012115e-01
-6.820487e-01
-6.653191e-01
-6.509467e-01
-6.388331e-01
-6.288610e-01
-6.208893e-01
-6.147395e-01
-6.101826e-01
-6.069473e-01
-6.047465e-01
-6.032957e-01
-6.023097e-01
-6.014956e-01
-6.005629e-01
-5.992435e-01
-5.973072e-01
-5.945708e-01
-5.908927e-01
-5.861595e-01
-5.802799e-01
-5.731877e-01
-5.648317e-01
-5.551575e-01
-5.441127e-01
-5.316616e-01
-5.177839e-01
-5.024643e-01
-4.856968e-01
-4.675175e-01
-4.480743e-01
-4.276963e-01
-4.068789e-01
-3.861569e-01
-3.659621e-01
-3.465797e-01
-3.282114e-01
-3.110548e-01
-2.953350e-01
-2.812935e-01
-2.691587e-01
-2.591249e-01
-2.513576e-01
-2.460205e-01
-2.432803e-01
-2.432583e-01
-2.459693e-01
-2.512890e-01
-2.589560e-01
-2.686181e-01
-2.799065e-01
-2.924721e-01
-3.059688e-01
-3.200197e-01
-3.342133e-01
-3.481447e-01
-3.614574e-01
-3.738443e-01
-3.850301e-01
-3.947800e-01
-4.029272e-01
-4.093858e-01
-4.141518e-01
-4.173107e-01
-4.190719e-01
-4.198111e-01
-4.200642e-01
-4.204415e-01
-4.214992e-01
-4.236574e-01
-4.272095e-01
-4.323748e-01
-4.393275e-01
-4.481967e-01
-4.590696e-01
-4.720058e-01
-4.870507e-01
-5.042442e-01
-5.236101e-01
-5.451217e-01
-5.686601e-01
-5.939662e-01
-6.206164e-01
-6.480834e-01
-6.758695e-01
-7.035869e-01
-7.309334e-01
-7.576339e-01
-7.834163e-01
-8.080231e-01
-8.312191e-01
-8.527929e-01
-8.725716e-01
-8.904409e-01
-9.063501e-01
-9.203012e-01
-9.323330e-01
-9.425098e-01
-9.509067e-01
-9.575909e-01
-9.626154e-01
-9.660392e-01
-9.679480e-01
-9.684506e-01
-9.676508e-01
-9.656114e-01
-9.623326e-01
-9.577674e-01
-9.518599e-01
-9.445634e-01
-9.358207e-01
-9.255431e-01
-9.136195e-01
-8.999453e-01
-8.844424e-01
-8.670686e-01
-8.478235e-01
-8.267452e-01
-8.038991e-01
-7.793621e-01
-7.532075e-01
-7.254984e-01
-6.963001e-01
-6.657148e-01
-6.339390e-01
-6.012946e-01
-5.681786e-01
-5.349518e-01
-5.018685e-01
-4.690920e-01
-4.367468e-01
-4.049483e-01
-3.738176e-01
-3.434963e-01
-3.141469e-01
-2.859326e-01
-2.589910e-01
-2.334165e-01
-2.092507e-01
-1.864860e-01
-1.650778e-01
-1.449531e-01
-1.260025e-01
-1.080618e-01
-9.091572e-02
-7.434161e-02
-5.815460e-02
-4.221347e-02
-2.640307e-02
-1.062847e-02
5.187932e-03
2.112128e-02
3.725085e-02
5.364379e-02
7.033964e-02
8.735091e-02
1.046625e-01
1.222221e-01
1.399349e-01
1.576664e-01
1.752578e-01
1.925527e-01
2.094230e-01
2.257747e-01
2.415402e-01
2.566686e-01
2.711065e-01
2.847784e-01
2.975892e-01
3.094484e-01
3.202968e-01
3.301079e-01
3.388619e-01
3.465205e-01
3.530299e-01
3.583434e-01
3.624371e-01
3.653128e-01
3.670084e-01
3.676102e-01
3.672534e-01
3.661133e-01
3.643964e-01
3.623288e-01
3.601386e-01
3.580346e-01
3.561889e-01
3.547312e-01
3.537511e-01
3.533076e-01
3.534462e-01
3.542256e-01
3.557352e-01
3.580830e-01
3.613536e-01
3.655812e-01
3.707562e-01
3.768591e-01
3.838977e-01
3.919248e-01
4.010298e-01
4.113178e-01
4.228936e-01
4.358438e-01
4.502246e-01
4.660707e-01
4.834169e-01
5.023045e-01
5.227662e-01
5.448085e-01
5.683931e-01
5.934079e-01
6.196401e-01
6.467926e-01
6.745387e-01
7.025698e-01
7.306198e-01
7.584622e-01
7.858943e-01
8.127374e-01
8.388587e-01
8.641957e-01
8.887741e-01
9.127032e-01
9.361355e-01
9.592142e-01
9.820480e-01
1.004710e+00
1.027241e+00
1.049652e+00
1.071916e+00
1.093976e+00
1.115755e+00
1.137177e+00
1.158164e+00
1.178632e+00
1.198489e+00
1.217646e+00
1.236028e+00
1.253588e+00
1.270293e+00
1.286119e+00
1.301054e+00
1.315125e+00
1.328407e+00
1.341027e+00
1.353171e+00
1.365056e+00
1.376898e+00
1.388867e+00
1.401086e+00
1.413650e+00
1.426648e+00
1.440160e+00
1.454246e+00
1.468935e+00
1.484237e+00
1.500161e+00
1.516720e+00
1.533927e+00
1.551770e+00
1.570209e+00
1.589177e+00
1.608586e+00
1.628347e+00
1.648379e+00
1.668632e+00
1.689105e+00
1.709838e+00
1.730909e+00
1.752415e+00
1.774444e+00
1.797067e+00
1.820330e+00
1.844239e+00
1.868763e+00
1.893854e+00
1.919468e+00
1.945559e+00
1.972077e+00
1.998973e+00
2.026193e+00
2.053678e+00
2.081353e+00
2.109122e+00
2.136858e+00
2.164417e+00
2.191647e+00
2.218395e+00
2.244503e+00
2.269816e+00
2.294185e+00
2.317465e+00
2.339531e+00
2.360284e+00
2.379656e+00
2.397608e+00
2.414114e+00
2.429157e+00
2.442735e+00
2.454863e+00
2.465577e+00
2.474929e+00
2.482965e+00
2.489730e+00
2.495276e+00
2.499674e+00
2.503017e+00
2.505426e+00
2.507049e+00
2.508057e+00
2.508628e+00
2.508939e+00
2.509137e+00
2.509323e+00
2.509542e+00
