EVENT_NAME: EMILIA_2ND_SHOCK
EVENT_ID: IT-2012-0011
EVENT_DATE_YYYYMMDD: 20120529
EVENT_TIME_HHMMSS: 070002
EVENT_LATITUDE_DEGREE: 44.8417
EVENT_LONGITUDE_DEGREE: 11.0657
EVENT_DEPTH_KM: 8.1
HYPOCENTER_REFERENCE: INGV-CNT_Seismic_Bulletin
MAGNITUDE_W: 6.0
MAGNITUDE_W_REFERENCE: RCMT-INGV
MAGNITUDE_L: 5.8
MAGNITUDE_L_REFERENCE: INGV-CNT_Seismic_Bulletin
FOCAL_MECHANISM: TF
NETWORK: IT
STATION_CODE: MOG0
STATION_NAME: MOGLIA
STATION_LATITUDE_DEGREE: 44.932000
STATION_LONGITUDE_DEGREE: 10.912000
STATION_ELEVATION_M: 92
LOCATION: 
SENSOR_DEPTH_M: 0.0
VS30_M/S: 
SITE_CLASSIFICATION_EC8: C*
MORPHOLOGIC_CLASSIFICATION: 
EPICENTRAL_DISTANCE_KM: 15.8
EARTHQUAKE_BACKAZIMUTH_DEGREE: 129.5
DATE_TIME_FIRST_SAMPLE_YYYYMMDD_HHMMSS: 20120529_065953.000
DATE_TIME_FIRST_SAMPLE_PRECISION: seconds
SAMPLING_INTERVAL_S: 0.005000
NDATA: 23000
DURATION_S: 115.000
STREAM: HNN
UNITS: cm/s^2
INSTRUMENT: sensor = Episensor FBA ES-T [Kinemetrics] | digitizer = Etna [Kinemetrics]
INSTRUMENT_ANALOG/DIGITAL: D
INSTRUMENTAL_FREQUENCY_HZ: 
INSTRUMENTAL_DAMPING: 
FULL_SCALE_G: 
N_BIT_DIGITAL_CONVERTER: 18
PGA_CM/S^2: 167.076511
TIME_PGA_S: 21.040000
BASELINE_CORRECTION: BASELINE REMOVED
FILTER_TYPE: BUTTERWORTH
FILTER_ORDER: 2
LOW_CUT_FREQUENCY_HZ: 0.080
HIGH_CUT_FREQUENCY_HZ: 40.000
LATE/NORMAL_TRIGGERED: NT
DATABASE_VERSION: DYNA 1.0
HEADER_FORMAT: DYNA 1.2
DATA_TYPE: ACCELERATION
PROCESSING: manual (Paolucci et al., 2011)
DATA_TIMESTAMP_YYYYMMDD_HHMMSS: 20141204_103647.358
DATA_LICENSE: CC-BY3_0-IT (http://creativecommons.org/licenses/by/3.0/deed.en)
DATA_CITATION: ESM working group (2015), European Strong-Motion database, version 0.1, Network Activity 3: Networking acceleration networks and SM data users. Project NERA (www.nera-eu.org)
DATA_CREATOR: ESM working group
ORIGINAL_DATA_MEDIATOR_CITATION: Ufficio Rischio Sismico e Vulcanico del Dipartimento della Protezione Civile (http://www.protezionecivile.gov.it/)
ORIGINAL_DATA_MEDIATOR: Rete Accelerometrica Nazionale - RAN Download (http://www.mot1.it/randownload/)
ORIGINAL_DATA_CREATOR_CITATION: Italian Strong Motion Network, Italian Civil Protection Department http://www.protezionecivile.gov.it
ORIGINAL_DATA_CREATOR: network: IT (Italian Strong Motion Network); owner: Dipartimento Della Protezione Civile
USER1: /home/dyna/processing-itaca/processing.py /var/www/processing/tmp/fpacor//IT.MOG0..HNE.D.20120529.070003.X.ACC.ASC /var/www/processing/tmp/fpacor//IT.MOG0..HNN.D.20120529.070003.X.ACC.ASC /var/www/processing/tmp/fpacor//IT.MOG0..HNZ.D.20120529.070003.X.ACC.ASC --tmp /var/www/processing/tmp/fpacor/ --le 0.080 --he 40.000 --ln 0.080 --hn 40.000 --lz 0.080 --hz 40.000 --fo 2 --ca -10 --cz 30 --ta 5 --tz 5 --mf 1 --rf 0 --tr NT
USER2: 
USER3: 
USER4: 
USER5: 
[...]
-1.737486
-0.223678
0.996162
1.555571
1.502598
1.159473
0.739123
0.376101
0.361723
0.864431
1.526639
1.760932
1.310171
0.347489
-0.683627
-1.287615
-1.213690
-0.604576
0.115454
0.529006
0.502141
0.222349
-0.008720
-0.049321
0.010217
0.011121
-0.164293
-0.514497
-0.778633
-0.578565
0.194969
1.268719
2.150033
2.349952
1.691547
0.483585
-0.659431
-1.159971
-0.809067
0.073181
0.903839
1.259135
0.958903
0.053519
-1.104949
-2.180530
-3.203371
-4.077908
-4.064768
-2.484096
0.301213
3.093560
4.744416
4.645605
2.983389
0.787029
-0.910511
-2.089281
-3.195004
-3.828346
-3.234521
-1.787516
-0.527213
0.303588
0.962344
1.290471
1.208922
1.156838
1.313575
1.286257
0.704737
-0.553542
-2.275503
-3.571996
-3.327991
-1.332749
1.487245
3.857492
4.766295
3.764848
1.373998
-1.072190
-2.438486
-2.474289
-1.570554
-0.277436
0.982475
2.061599
2.868273
3.044603
2.409097
1.482602
0.908931
0.831611
1.174554
1.685684
1.643534
0.560724
-0.883431
-1.416406
-0.416687
1.651056
3.440647
3.488445
1.371642
-1.940776
-4.746448
-5.570999
-4.217921
-1.946180
-0.178104
0.541027
0.267626
-0.683902
-1.710544
-2.251947
-2.034425
-0.753489
1.812846
5.033497
7.396416
7.510575
5.004960
0.935895
-2.673028
-4.346805
-4.074974
-2.801150
-1.764107
-1.898521
-2.859227
-3.023555
-1.133399
2.431289
6.055991
7.993656
7.246221
4.134564
0.273973
-2.403374
-3.000330
-2.079133
-0.784133
0.137023
0.360722
-0.294770
-1.545735
-2.513216
-2.532434
-1.597581
0.130993
2.390254
4.430414
5.324204
4.578874
2.255024
-1.108423
-4.431483
-6.179547
-5.031478
-0.887171
4.702119
9.032567
9.552933
5.628545
-0.865693
-7.130614
-11.147156
-11.721741
-8.392489
-2.337397
3.620347
6.922120
6.797416
4.054305
0.536431
-1.532330
-1.060500
0.953657
2.510228
2.414090
0.751598
-1.636901
-3.431255
-3.318196
-1.135069
1.691307
3.201286
2.319781
-0.463614
-3.350428
-4.360628
-2.767022
0.229081
2.405987
2.463430
0.852490
-1.198974
-2.547784
-2.212402
0.158786
3.741755
7.140779
9.330088
9.552473
7.223414
2.730020
-2.304328
-5.809996
-6.300661
-3.812668
-0.037920
2.859371
3.695840
2.799970
1.395429
0.451587
0.142298
0.289127
0.973778
2.380865
4.007717
4.671602
3.607516
0.992644
-2.394534
-5.256126
-6.172532
-4.877712
-2.626052
-0.871184
-0.195188
-0.542712
-1.707707
-3.372503
-5.024372
-6.020137
-5.775762
-4.025725
-1.097283
2.094998
4.613857
6.011802
6.111361
4.672544
1.618796
-2.520956
-6.470753
-8.732487
-8.564750
-6.371584
-3.104469
0.443602
3.647652
5.724371
5.965864
4.397938
2.001375
0.287686
0.507481
2.748370
5.457274
6.317434
4.168228
-0.124938
-4.535137
-7.101832
-6.828643
-4.145890
-0.543851
2.471309
4.319504
5.340193
5.822534
5.457503
3.883031
1.185296
-2.092481
-4.929421
-6.192433
-5.533062
-3.534790
-0.877040
1.863065
3.761361
4.031650
2.821630
0.803790
-1.525208
-3.653880
-4.707524
-3.689519
-0.263342
4.428625
8.090726
8.891351
6.689326
2.927388
-0.390409
-2.270906
-3.370292
-4.333129
-4.319261
-2.267382
1.243348
4.265974
5.218600
3.907569
1.195800
-1.643584
-3.350518
-3.176411
-1.147733
2.332322
6.813788
11.227250
13.427581
11.502471
5.672806
-1.782182
-7.933490
-10.301192
-8.183965
-3.446559
0.852072
2.671935
2.108273
0.850080
0.453973
1.062160
1.511873
0.583758
-1.423985
-2.653255
-1.841144
-0.089154
0.227581
-2.002741
-5.602704
-7.888155
-6.186679
0.160883
8.629700
14.987250
16.272291
12.301792
4.927779
-3.363415
-10.478267
-15.368689
-17.815804
-17.422884
-13.642400
-7.226696
-0.597808
3.835750
5.356312
4.906810
3.764618
2.620757
1.773323
1.468079
1.888402
3.120739
4.898376
6.125356
5.234531
1.726828
-2.759395
-5.433149
-4.860851
-2.601123
-1.735364
-3.547556
-6.162436
-6.477311
-3.138598
2.290440
6.783031
8.247226
6.674711
3.546170
0.529294
-1.369072
-1.568317
0.438414
4.218942
7.751853
8.709840
6.292801
1.719000
-2.865036
-6.102821
-8.018709
-8.957808
-8.811273
-7.518931
-5.398946
-2.981490
-0.882269
0.758520
2.365682
3.902961
4.735283
4.759295
4.738863
5.286718
5.930472
5.503606
3.372491
0.175031
-2.404987
-2.637661
-0.157710
3.470752
6.235031
7.475382
7.519611
6.352410
3.648970
-0.198942
-3.806556
-5.720428
-5.291134
-2.969839
-0.371302
0.715363
-0.012249
-1.391494
-2.303394
-2.334875
-1.508767
-0.144481
1.351824
2.712839
3.536515
3.283692
2.104050
1.011294
0.718887
1.040549
1.663812
2.609617
3.841103
5.149761
6.474838
7.860012
8.903547
8.636607
6.349509
2.249886
-2.842361
-7.825195
-11.349186
-12.460264
-11.279573
-8.481717
-4.592919
-0.430892
2.554086
3.358801
2.442239
0.949190
-0.649822
-2.716118
-5.752607
-9.552958
-12.529542
-12.395551
-8.237101
-1.695214
3.971609
5.816552
3.100810
-1.886352
-5.450852
-5.361940
-1.879377
3.350886
8.234873
10.746542
10.212707
8.036764
6.223513
5.417265
4.884127
4.074525
3.582694
4.584993
7.656885
11.730927
14.052280
12.253187
6.936457
1.330559
-1.786246
-2.157053
-1.350551
-0.956630
-1.572589
-2.788967
-3.618472
-3.297446
-1.973959
-0.241005
1.741593
4.032115
6.318354
8.109917
9.160075
9.414464
8.672419
6.586692
3.218116
-0.626462
-3.729889
-4.874638
-3.206449
1.122188
6.691288
11.498664
13.892321
13.226717
10.280589
7.026095
5.485268
6.442850
9.167534
12.296469
14.842606
16.466360
17.122940
16.650625
14.790679
11.728604
8.345344
5.500724
3.364049
1.675599
0.264623
-0.753672
-1.242130
-1.425594
-1.603578
-1.748374
-1.834825
-1.977173
-1.971998
-1.415071
-0.428288
0.133790
-0.725282
-3.223127
-6.231856
-7.839129
-6.885804
-3.932171
-0.592326
1.699068
2.348463
1.858943
1.486008
2.317821
4.756433
8.578544
13.130617
17.568331
20.983892
22.379364
20.954514
16.938450
12.062913
8.610958
7.836294
9.593232
13.084948
17.309345
21.131460
23.603333
24.376249
23.689486
21.938271
19.518005
17.073229
15.365103
14.743382
15.051076
15.966913
17.157808
18.179106
18.453239
17.563831
15.571386
12.857028
9.978120
7.899200
7.718493
9.580790
12.044503
13.090005
11.897093
9.246214
6.277311
3.580300
1.522546
0.606836
1.126583
2.762413
4.697227
6.071597
6.314637
5.297639
3.349244
0.933946
-1.675886
-4.188389
-5.979580
-6.450673
-5.656961
-4.427759
-4.055811
-5.649062
-9.223978
-13.461975
-16.613901
-17.601721
-16.528532
-14.622442
-13.634794
-15.061922
-19.598854
-26.712271
-34.517784
-40.608212
-43.711258
-44.390472
-43.915661
-43.232922
-43.106960
-44.031639
-45.634476
-46.983234
-47.540291
-47.470860
-47.350098
-47.558853
-47.619518
-46.274593
-42.477943
-36.470055
-30.061300
-25.697908
-24.807219
-26.958357
-30.574450
-34.002090
-35.919453
-35.664009
-33.717583
-31.560871
-30.945740
-33.114296
-38.132202
-44.843956
-51.506153
-56.422188
-58.466667
-57.516300
-54.350452
-50.102707
-45.891060
-42.737675
-41.345356
-41.857609
-43.987537
-47.026016
-49.634544
-50.323658
-48.470512
-44.691658
-40.346153
-36.889805
-35.343151
-35.678757
-36.472710
-35.518341
-31.241659
-23.649046
-13.936191
-3.496793
6.520753
15.156757
21.561012
24.898804
24.621420
21.306124
16.960394
13.843663
12.676903
12.206526
10.617836
6.960267
1.284013
-5.725120
-12.917110
-19.199238
-24.253450
-28.193914
-30.599129
-30.763165
-28.925289
-26.640844
-25.821087
-27.384043
-30.645271
-34.005043
-36.095779
-36.121498
-33.639767
-28.723595
-22.259295
-15.632795
-9.936880
-5.391145
-1.367512
2.987659
7.993147
13.317973
18.463764
22.982279
26.482836
28.958794
30.912479
32.805019
34.499855
35.378624
34.932957
33.206303
30.737471
28.214426
26.259804
25.415682
26.015528
27.929192
30.605560
33.498325
36.486183
39.901402
44.054691
48.703506
53.132774
56.683849
58.962513
59.672882
58.411446
54.477345
47.251041
37.440952
27.604586
20.548113
17.256371
16.653740
16.902536
16.750357
16.043869
15.143641
14.093343
12.617523
10.500030
7.655905
4.242625
0.928933
-1.039718
-0.263808
3.823487
10.270603
17.158636
22.754206
26.224400
27.723921
27.902119
27.086679
25.005159
21.523993
17.426685
14.123075
12.622286
12.801175
13.621270
14.108231
14.142048
14.338872
15.248306
16.785894
18.523893
20.273544
22.059324
23.731913
25.036987
26.013103
26.984001
28.143490
29.462004
31.114315
33.604580
37.099617
40.731022
42.637398
40.591869
33.008095
20.169844
4.638973
-9.983435
-21.078024
-28.190014
-32.622227
-36.142998
-39.881386
-43.857815
-47.285915
-49.263802
-49.234222
-47.192379
-43.670746
-39.414490
-34.991150
-30.455523
-25.225973
-18.590012
-10.487998
-1.669511
6.850130
14.463492
21.377081
28.387810
35.988659
43.772900
50.890923
56.786236
61.367588
64.797302
67.255821
68.962189
70.433128
72.389198
74.977974
76.681519
74.156937
64.801399
50.509670
36.758537
26.601906
18.285072
9.670066
1.775217
-2.732166
-2.117560
3.443828
11.828636
20.059643
26.505522
31.890377
37.824692
44.781078
51.390846
54.869392
52.430859
43.552631
30.674189
16.711876
2.587923
-12.009787
-26.585911
-39.537354
-49.356712
-55.723942
-59.705376
-62.739681
-64.645264
-62.693577
-53.912888
-38.738087
-21.173279
-4.821634
9.888563
24.141605
38.261742
51.586208
63.452671
73.705482
82.671242
90.541290
96.843834
100.968040
102.990974
103.534042
102.905220
100.703926
96.218613
89.076202
79.689018
69.365463
60.150188
53.925018
50.700821
48.295982
44.341934
38.121460
30.813702
24.151340
18.567717
13.834599
11.017453
11.565794
14.913127
18.446409
19.664736
17.990049
14.879105
12.512001
12.086891
12.992797
13.481275
12.118202
8.681829
3.900752
-1.516837
-7.644975
-15.142330
-24.342613
-34.735760
-45.333157
-55.357269
-64.611641
-73.240067
-81.232452
-88.529915
-95.245895
-101.167953
-105.721375
-108.788673
-110.775215
-112.086777
-113.258087
-114.911514
-116.705269
-116.011757
-107.484367
-86.004005
-53.371178
-20.099346
4.291184
20.365498
33.999310
46.628250
54.011333
51.498531
38.393204
19.116270
1.002463
-10.773882
-16.651737
-20.301268
-24.165676
-28.786625
-34.598179
-42.196320
-51.506741
-61.658871
-71.289398
-78.996933
-84.004524
-86.393509
-86.666008
-85.344215
-83.109383
-80.919174
-79.551826
-79.175659
-79.592270
-80.756386
-82.941933
-86.469856
-91.309898
-96.900368
-102.322067
-106.888847
-110.720055
-114.402512
-118.143425
-121.758499
-125.290039
-129.059631
-133.167755
-137.203506
-140.354843
-141.807724
-141.288269
-139.220322
-136.357224
-133.504990
-131.296738
-129.638840
-127.542763
-123.804405
-117.612534
-108.674080
-97.585342
-86.152954
-76.497047
-69.416298
-63.745106
-57.279739
-48.278019
-36.466068
-23.081850
-9.819949
2.395259
13.430519
23.158539
31.304773
37.959511
43.779991
49.535038
55.464378
61.202477
66.267624
70.366432
73.479851
76.039192
78.779091
82.183846
86.143883
90.062019
93.429901
96.536629
100.230820
104.813110
109.333061
111.563721
108.666634
98.715271
82.191177
62.477356
44.639591
32.413635
25.980600
22.972441
20.980164
18.917631
17.017494
16.059410
16.372627
17.522472
19.037540
21.072809
24.016869
27.802296
31.910940
35.778301
39.051434
41.793125
44.553982
47.956665
52.085854
56.381783
60.021755
61.975674
60.763645
55.003849
44.693569
31.491446
16.974390
1.176310
-16.150331
-34.094639
-51.308311
-66.678009
-79.195572
-88.371719
-94.537689
-98.279381
-99.945755
-99.827362
-98.500824
-96.924553
-96.120506
-96.592834
-97.998405
-99.268791
-99.155365
-97.006027
-93.310516
-89.503754
-87.052460
-86.668488
-88.139816
-90.616859
-93.223663
-95.430244
-96.683929
-96.014519
-92.473610
-86.089317
-78.018959
-69.252090
-59.605320
-48.594654
-36.625286
-24.677458
-13.445892
-3.202763
6.208489
15.455078
25.158026
35.199589
44.836514
53.377972
60.791718
67.818459
75.286598
83.404549
92.180008
102.022583
113.077011
124.356689
134.219879
141.466736
145.695801
146.960464
145.656052
142.732849
139.462463
136.844925
135.260803
134.501648
133.962265
132.815750
130.482986
127.219070
124.045403
121.910622
121.028381
121.303429
122.799431
125.257782
127.852722
129.873154
131.384842
132.966721
134.926727
137.179840
139.786896
143.093185
146.968094
149.799377
148.600845
140.681549
125.909683
107.951370
92.343643
81.970764
75.043251
67.930534
58.657471
47.419788
35.115284
22.247078
8.978114
-4.264727
-16.403360
-26.115061
-32.749256
-36.761288
-39.506676
-42.457001
-46.009922
-49.229755
-50.923191
-50.499348
-47.752724
-42.575821
-35.308514
-26.946404
-18.749323
-11.717400
-6.350100
-2.643698
-0.014085
2.632129
6.472759
12.322940
20.212175
29.323118
38.487026
46.485523
52.711655
58.401340
65.578278
74.797455
85.698311
98.144302
112.378487
128.764343
145.893677
159.995911
167.076508
165.080872
154.736679
139.081024
122.584648
108.848305
98.270126
89.243484
80.355240
70.893440
61.138153
52.619171
46.857677
43.222958
38.398811
28.562820
13.010595
-4.119734
-16.497768
-20.490870
-17.504536
-11.695356
-6.123232
-1.473186
2.875334
7.700437
12.962661
17.438267
19.817175
19.670795
16.899937
11.427890
4.278248
-2.418751
-7.608634
-12.212269
-17.294376
-22.740351
-27.820610
-32.049271
-35.533066
-38.910076
-43.018494
-48.341179
-54.447620
-60.292168
-65.258072
-69.408493
-72.769035
-75.138733
-76.864075
-79.246658
-83.880455
-91.413094
-100.697739
-109.786598
-117.791481
-125.003174
-131.608963
-137.215012
-141.388870
-144.014893
-145.336060
-145.428467
-143.820663
-140.294800
-135.236191
-129.227020
-123.068733
-117.727623
-113.719444
-110.932495
-109.126427
-107.826309
-106.553986
-105.674828
-105.660332
-106.310799
-107.670906
-110.126190
-113.333817
-116.400887
-119.058952
-121.224152
-121.260216
-116.657303
-106.502563
-92.468758
-78.349609
-67.637077
-60.698902
-55.590481
-50.631500
-45.143936
-39.254017
-33.718964
-28.914616
-23.754545
-16.503202
-6.552899
5.327516
18.255592
32.120846
46.491440
59.286907
68.271797
72.905640
73.821136
71.957703
68.074417
62.086880
53.285473
41.986366
30.481180
21.279009
15.198811
11.852417
10.542447
9.932100
8.008310
3.640981
-2.174670
-7.687849
-12.384765
-16.609156
-20.212059
-22.747303
-24.238741
-25.009506
-25.547794
-26.761671
-29.465996
-33.692402
-38.948105
-44.379581
-48.302406
-48.841194
-45.729450
-40.679966
-35.898777
-32.857414
-31.920605
-32.423042
-33.582294
-35.317776
-37.741879
-40.404140
-42.364594
-42.818130
-41.362885
-37.516907
-30.863485
-21.891693
-11.776831
-1.495163
8.623836
18.810991
29.126415
39.001801
47.717422
54.967762
61.120399
66.974335
72.865761
78.284447
82.616013
85.820557
88.242180
90.037598
91.165955
91.833267
92.461914
93.569572
95.654572
98.633774
101.661728
103.292076
101.479393
94.081657
80.390785
62.999310
47.176315
36.894123
32.141209
30.508614
29.928240
29.457474
28.863756
28.421663
28.436239
28.394087
27.167686
23.956402
18.704369
12.370654
6.553596
2.267516
-0.327792
-1.174729
0.130096
3.877629
9.430055
15.518544
21.110401
25.470217
28.292221
30.111654
31.785753
33.703480
35.852264
38.081627
39.822796
39.782627
36.547131
29.724907
20.389034
10.496384
1.789455
-5.166327
-11.201390
-17.329191
-23.472902
-29.273718
-34.878284
-40.345802
-45.505898
-50.037640
-53.639828
-56.193539
-57.265743
-56.446415
-53.987888
-50.204075
-45.413677
-40.525036
-36.293861
-32.523598
-28.740255
-24.939718
-21.439577
-18.434658
-15.794716
-13.154426
-10.165468
-6.880698
-3.804605
-1.465636
-0.198929
0.211577
0.807080
2.494880
5.300187
8.777878
12.134990
14.205880
14.061192
11.542833
7.195144
1.877761
-3.761698
-9.483908
-15.119058
-20.499697
-25.728403
-31.234955
-37.166882
-42.574409
-46.203400
-47.995750
-48.629894
-48.220375
-46.486633
-43.494843
-39.483635
-34.426804
-28.185541
-20.744658
-12.316752
-3.680524
4.093138
10.614785
16.095573
20.518480
23.739149
25.914968
27.124865
26.983456
25.172798
21.964296
17.789141
12.768174
7.135221
1.663778
-2.855729
-6.300795
-8.980252
-11.074962
-12.824015
-14.655110
-16.552437
-17.885366
-18.153530
-17.516605
-16.601458
-16.085354
-16.272659
-16.828163
-17.164137
-17.104309
-16.882166
-16.491634
-15.286343
-12.423807
-7.706084
-1.809218
4.283953
9.808893
14.215022
16.953362
17.693977
16.800219
15.013765
12.825685
10.551283
8.412015
6.279744
3.943390
1.680993
-0.276141
-2.385394
-4.814418
-6.837652
-7.578909
-6.642508
-4.518734
-2.295662
-0.740129
0.019702
0.309749
0.592880
1.200721
2.300822
3.847229
5.700211
7.747149
9.710232
11.250455
12.245218
12.704418
12.515404
11.374514
9.129598
5.972964
2.181171
-1.953834
-6.070332
-9.811721
-12.656071
-13.829835
-12.960021
-10.641571
-7.821132
-5.087237
-3.066417
-2.697290
-4.502918
-8.021712
-12.207721
-16.351164
-20.428265
-24.218176
-26.611971
-26.374985
-23.100433
-17.325350
-10.066550
-2.382912
4.668645
10.429859
15.194026
19.604769
23.677078
26.915913
29.001534
30.131594
30.756889
30.932430
30.227983
28.284990
25.323874
22.159006
19.385963
16.897232
14.535981
12.348960
10.434672
9.258746
9.318176
10.518464
12.668315
15.881053
19.869135
23.749113
26.947027
29.637033
32.319115
35.279530
38.434830
41.689468
45.054317
48.426376
51.755798
54.934959
57.409077
58.976841
60.458508
62.257496
63.452801
63.497307
63.127945
63.029289
63.141323
63.091740
62.512573
61.096935
58.734848
55.937862
53.520237
51.660118
50.056828
48.714813
47.896294
47.518822
46.970341
45.463024
42.192348
36.320541
27.686417
17.665976
8.542552
1.668614
-3.374428
-7.705386
-11.830485
-15.587296
-18.891296
-22.124216
-25.761677
-29.911705
-34.300472
-38.406700
-41.552834
-43.195316
-43.284344
-42.257782
-40.780178
-39.483387
-38.682549
-38.296589
-38.199387
-38.501972
-39.145779
-39.514797
-39.048431
-37.860783
-36.363384
-34.833443
-33.496643
-32.571281
-32.078148
-31.936371
-32.323708
-33.344845
-34.624840
-35.881405
-37.259544
-38.790161
-40.175545
-41.231594
-42.044189
-42.676727
-43.130611
-43.537022
-44.078156
-44.657677
-44.906601
-44.540543
-43.337791
-40.870903
-36.657814
-30.754456
-24.271339
-18.818686
-14.997225
-11.926342
-8.466352
-4.452073
