EVENT_NAME: EMILIA_2ND_SHOCK
EVENT_ID: IT-2012-0011
EVENT_DATE_YYYYMMDD: 20120529
EVENT_TIME_HHMMSS: 070002
EVENT_LATITUDE_DEGREE: 44.8417
EVENT_LONGITUDE_DEGREE: 11.0657
EVENT_DEPTH_KM: 8.1
HYPOCENTER_REFERENCE: INGV-CNT_Seismic_Bulletin
MAGNITUDE_W: 6.0
MAGNITUDE_W_REFERENCE: RCMT-INGV
MAGNITUDE_L: 5.8
MAGNITUDE_L_REFERENCE: INGV-CNT_Seismic_Bulletin
FOCAL_MECHANISM: TF
NETWORK: IT
STATION_CODE: MOG0
STATION_NAME: MOGLIA
STATION_LATITUDE_DEGREE: 44.932000
STATION_LONGITUDE_DEGREE: 10.912000
STATION_ELEVATION_M: 92
LOCATION: 
SENSOR_DEPTH_M: 0.0
VS30_M/S: 
SITE_CLASSIFICATION_EC8: C*
MORPHOLOGIC_CLASSIFICATION: 
EPICENTRAL_DISTANCE_KM: 15.8
EARTHQUAKE_BACKAZIMUTH_DEGREE: 129.5
DATE_TIME_FIRST_SAMPLE_YYYYMMDD_HHMMSS: 20120529_065953.000
DATE_TIME_FIRST_SAMPLE_PRECISION: seconds
SAMPLING_INTERVAL_S: 0.005000
NDATA: 23000
DURATION_S: 115.000
STREAM: HNN
UNITS: cm/s
INSTRUMENT: sensor = Episensor FBA ES-T [Kinemetrics] | digitizer = Etna [Kinemetrics]
INSTRUMENT_ANALOG/DIGITAL: D
INSTRUMENTAL_FREQUENCY_HZ: 
INSTRUMENTAL_DAMPING: 
FULL_SCALE_G: 
N_BIT_DIGITAL_CONVERTER: 18
PGV_CM/S: 20.515257
TIME_PGV_S: 21.200000
BASELINE_CORRECTION: BASELINE REMOVED
FILTER_TYPE: BUTTERWORTH
FILTER_ORDER: 2
LOW_CUT_FREQUENCY_HZ: 0.080
HIGH_CUT_FREQUENCY_HZ: 40.000
LATE/NORMAL_TRIGGERED: NT
DATABASE_VERSION: DYNA 1.0
HEADER_FORMAT: DYNA 1.2
DATA_TYPE: VELOCITY
PROCESSING: manual (Paolucci et al., 2011)
DATA_TIMESTAMP_YYYYMMDD_HHMMSS: 20141204_103647.358
DATA_LICENSE: CC-BY3_0-IT (http://creativecommons.org/licenses/by/3.0/deed.en)
DATA_CITATION: ESM working group (2015), European Strong-Motion database, version 0.1, Network Activity 3: Networking acceleration networks and SM data users. Project NERA (www.nera-eu.org)
DATA_CREATOR: ESM working group
ORIGINAL_DATA_MEDIATOR_CITATION: Ufficio Rischio Sismico e Vulcanico del Dipartimento della Protezione Civile (http://www.protezionecivile.gov.it/)
ORIGINAL_DATA_MEDIATOR: Rete Accelerometrica Nazionale - RAN Download (http://www.mot1.it/randownload/)
ORIGINAL_DATA_CREATOR_CITATION: Italian Strong Motion Network, Italian Civil Protection Department http://www.protezionecivile.gov.it
ORIGINAL_DATA_CREATOR: network: IT (Italian Strong Motion Network); owner: Dipartimento Della Protezione Civile
USER1: /home/dyna/processing-itaca/processing.py /var/www/processing/tmp/fpacor//IT.MOG0..HNE.D.20120529.070003.X.ACC.ASC /var/www/processing/tmp/fpacor//IT.MOG0..HNN.D.20120529.070003.X.ACC.ASC /var/www/processing/tmp/fpacor//IT.MOG0..HNZ.D.20120529.070003.X.ACC.ASC --tmp /var/www/processing/tmp/fpacor/ --le 0.080 --he 40.000 --ln 0.080 --hn 40.000 --lz 0.080 --hz 40.000 --fo 2 --ca -10 --cz 30 --ta 5 --tz 5 --mf 1 --rf 0 --tr NT
USER2: 
USER3: 
USER4: 
USER5: 
[...]
0.012252
0.003164
-0.011396
-0.024998
-0.031477
-0.027881
-0.015545
0.000472
0.013722
0.020002
0.019227
0.013971
0.007373
0.002104
-0.000617
-0.001598
-0.002547
-0.004312
-0.006211
-0.006600
-0.004150
0.000992
0.007129
0.012114
0.014813
0.015777
0.016665
0.019263
0.024408
0.030725
0.034699
0.032657
0.022737
0.006010
-0.012633
-0.025338
-0.025374
-0.011681
0.010365
0.032016
0.045129
0.045408
0.034272
0.017796
0.002925
-0.005763
-0.006881
-0.001900
0.005877
0.013390
0.019188
0.022883
0.024764
0.026573
0.030895
0.038528
0.047333
0.053883
0.055621
0.052203
0.045765
0.039696
0.036673
0.037251
0.039896
0.042406
0.043518
0.043474
0.043228
0.043279
0.043335
0.042513
0.039941
0.036047
0.033155
0.034129
0.040473
0.051223
0.062973
0.071431
0.073849
0.070551
0.064752
0.060706
0.061072
0.065591
0.071887
0.076682
0.076949
0.071424
0.060522
0.044505
0.024115
0.003792
-0.008629
-0.007123
0.008345
0.032067
0.055295
0.070212
0.074147
0.069595
0.059148
0.043173
0.024031
0.007859
-0.001079
-0.003715
-0.002197
0.002615
0.009067
0.015112
0.020896
0.027464
0.033895
0.037419
0.034651
0.023274
0.005414
-0.011226
-0.017890
-0.010454
0.008834
0.032665
0.051489
0.058359
0.052998
0.040806
0.028434
0.020582
0.019195
0.024107
0.034415
0.048756
0.063979
0.076025
0.083438
0.087982
0.092140
0.098013
0.106442
0.114659
0.117463
0.113046
0.105964
0.103880
0.112136
0.129339
0.146781
0.153639
0.143935
0.120203
0.092348
0.071259
0.061528
0.060637
0.063342
0.064680
0.061261
0.052708
0.041448
0.031276
0.027509
0.036573
0.061741
0.098723
0.136276
0.161300
0.165980
0.152615
0.130881
0.110506
0.096500
0.087680
0.078187
0.063891
0.048773
0.043106
0.055262
0.085542
0.125511
0.161742
0.182415
0.183784
0.171768
0.156766
0.146370
0.142450
0.143135
0.144938
0.143465
0.135736
0.123170
0.110508
0.102520
0.103175
0.115126
0.137278
0.163899
0.186793
0.198068
0.192526
0.170369
0.139471
0.114314
0.109878
0.133389
0.178551
0.226316
0.254459
0.250130
0.214477
0.158741
0.100133
0.058170
0.046483
0.064585
0.099196
0.133183
0.153454
0.156136
0.148475
0.143172
0.147941
0.160492
0.172562
0.176320
0.168136
0.150979
0.134388
0.128713
0.137170
0.153176
0.164775
0.162457
0.145705
0.123902
0.110066
0.111212
0.123242
0.135559
0.139821
0.133827
0.121088
0.110026
0.110820
0.129528
0.165232
0.211883
0.259645
0.295762
0.309412
0.297891
0.268841
0.237337
0.218274
0.218084
0.232381
0.250860
0.264860
0.271837
0.274095
0.274807
0.276252
0.281121
0.293026
0.313064
0.336422
0.354460
0.359423
0.347450
0.321170
0.290307
0.265919
0.252788
0.248432
0.247456
0.244743
0.236204
0.219342
0.194220
0.164119
0.135240
0.115112
0.109625
0.120100
0.143170
0.173229
0.203785
0.227148
0.235242
0.222637
0.190284
0.146621
0.103797
0.071940
0.056417
0.058635
0.076873
0.105495
0.135325
0.157314
0.167321
0.168760
0.171297
0.185039
0.212325
0.243912
0.264754
0.264129
0.241453
0.205944
0.171801
0.151071
0.148352
0.160709
0.182306
0.209007
0.238120
0.265407
0.284822
0.290749
0.280287
0.255639
0.224677
0.197012
0.179338
0.174953
0.184268
0.203075
0.223233
0.237341
0.241360
0.233734
0.215465
0.191927
0.173480
0.172163
0.194306
0.234760
0.279216
0.312663
0.327300
0.325348
0.313993
0.297142
0.275476
0.253880
0.242543
0.248760
0.270090
0.296183
0.315721
0.321700
0.313482
0.296729
0.280847
0.275108
0.286770
0.320839
0.376975
0.444113
0.501625
0.529989
0.521079
0.481411
0.429905
0.388985
0.371752
0.376013
0.389373
0.399914
0.404164
0.406434
0.411745
0.419304
0.422223
0.415103
0.401837
0.392631
0.392185
0.393323
0.383310
0.355296
0.315855
0.284922
0.285726
0.328875
0.403811
0.485173
0.546682
0.571320
0.554503
0.502112
0.425269
0.336190
0.249075
0.180863
0.144730
0.141741
0.160919
0.187701
0.212235
0.231058
0.244162
0.253028
0.260369
0.269811
0.285415
0.309906
0.340533
0.366706
0.375340
0.361543
0.334377
0.310073
0.297067
0.288391
0.270653
0.239841
0.207454
0.191761
0.203213
0.237128
0.278365
0.311738
0.329469
0.332115
0.325270
0.317429
0.319621
0.340715
0.379475
0.423024
0.454488
0.463083
0.448758
0.418243
0.378150
0.333361
0.289305
0.251710
0.224715
0.209808
0.205396
0.209189
0.221017
0.240532
0.264209
0.288005
0.311699
0.338133
0.367785
0.395303
0.412166
0.413041
0.401016
0.387828
0.387039
0.404393
0.435568
0.472945
0.510543
0.542305
0.560550
0.559555
0.540522
0.511920
0.485465
0.470615
0.468759
0.472336
0.472275
0.465317
0.453800
0.442126
0.434582
0.433859
0.440619
0.454183
0.471865
0.488284
0.498804
0.503861
0.507455
0.512658
0.520977
0.534025
0.553230
0.578979
0.611353
0.650653
0.695171
0.738354
0.770102
0.781351
0.767139
0.728013
0.671267
0.608966
0.552568
0.510160
0.487195
0.485041
0.497811
0.514605
0.526816
0.531562
0.528313
0.514733
0.485969
0.438205
0.375557
0.313579
0.272394
0.263918
0.283776
0.312858
0.328362
0.318931
0.291676
0.264867
0.255470
0.272224
0.313399
0.367131
0.418195
0.458379
0.489496
0.516583
0.541003
0.561376
0.579289
0.602214
0.640499
0.699153
0.769415
0.830681
0.865363
0.872016
0.863085
0.852299
0.845547
0.840763
0.832900
0.818956
0.800863
0.784376
0.774506
0.773301
0.782009
0.802170
0.833762
0.874311
0.920111
0.967184
1.010546
1.043479
1.059570
1.056438
1.037788
1.013415
0.997383
1.002994
1.036450
1.093943
1.163405
1.229539
1.280942
1.316072
1.343498
1.375713
1.421550
1.483033
1.557246
1.639577
1.725192
1.808445
1.882399
1.941042
1.982768
2.010272
2.027092
2.035470
2.036793
2.033025
2.026814
2.019686
2.011669
2.002927
1.993753
1.983867
1.974007
1.966931
1.964790
1.965459
1.961832
1.945717
1.914558
1.875362
1.840933
1.821272
1.818310
1.826806
1.838548
1.847843
1.855273
1.866862
1.890644
1.933537
1.999190
2.087032
2.191951
2.303848
2.408620
2.493313
2.553627
2.596682
2.635863
2.683830
2.749254
2.835801
2.941458
3.059475
3.181356
3.299804
3.409495
3.507085
3.592451
3.669277
3.742994
3.818249
3.898084
3.983873
4.074768
4.167034
4.254854
4.332710
4.396996
4.446886
4.486382
4.524975
4.572879
4.633101
4.698551
4.758037
4.804268
4.835654
4.853556
4.861168
4.864203
4.869836
4.883648
4.907134
4.937492
4.969065
4.995553
5.012299
5.016969
5.008590
4.987648
4.957750
4.925496
4.897212
4.875073
4.854794
4.826548
4.780429
4.713119
4.630049
4.542041
4.459398
4.386286
4.318112
4.242802
4.144808
4.011247
3.838658
3.635617
3.417060
3.195108
2.975530
2.759365
2.543830
2.323672
2.095500
1.860583
1.622882
1.385528
1.148777
0.910983
0.672885
0.441512
0.229123
0.046772
-0.103534
-0.232024
-0.356060
-0.490852
-0.643724
-0.813734
-0.993332
-1.171652
-1.340239
-1.498044
-1.652773
-1.818344
-2.009005
-2.233225
-2.490756
-2.772866
-3.065200
-3.352781
-3.624534
-3.875047
-4.104502
-4.318191
-4.524918
-4.734206
-4.954143
-5.189273
-5.437446
-5.689064
-5.931417
-6.154875
-6.356606
-6.541055
-6.717771
-6.896165
-7.078528
-7.256120
-7.412328
-7.530573
-7.600254
-7.617738
-7.585135
-7.509351
-7.401546
-7.277052
-7.153945
-7.047414
-6.962612
-6.893394
-6.830009
-6.768977
-6.715887
-6.681086
-6.674666
-6.703292
-6.767877
-6.863873
-6.985141
-7.126110
-7.279106
-7.432922
-7.577548
-7.710752
-7.839858
-7.976778
-8.130004
-8.300029
-8.480508
-8.661116
-8.829315
-8.972933
-9.084229
-9.162393
-9.212077
-9.239033
-9.245871
-9.230932
-9.190967
-9.124377
-9.032058
-8.917147
-8.784732
-8.639939
-8.485376
-8.321351
-8.148852
-7.971959
-7.797294
-7.631262
-7.477575
-7.336503
-7.205204
-7.078125
-6.948048
-6.808402
-6.655374
-6.487882
-6.305452
-6.105945
-5.885671
-5.642154
-5.376490
-5.093070
-4.798258
-4.499893
-4.207836
-3.935449
-3.699194
-3.511989
-3.373967
-3.271226
-3.184944
-3.101675
-3.017163
-2.933411
-2.853192
-2.777473
-2.707007
-2.643919
-2.591419
-2.553139
-2.531926
-2.527282
-2.532480
-2.533799
-2.514682
-2.463329
-2.377536
-2.263765
-2.132643
-1.994023
-1.854512
-1.719079
-1.594053
-1.486433
-1.399300
-1.328684
-1.265573
-1.201567
-1.133461
-1.062920
-0.992209
-0.920515
-0.844274
-0.760344
-0.667725
-0.566357
-0.456060
-0.337401
-0.212216
-0.082150
0.052770
0.193487
0.340797
0.496369
0.664392
0.849890
1.053545
1.266732
1.469691
1.634732
1.735581
1.758776
1.708859
1.603469
1.462518
1.299407
1.118692
0.919285
0.699996
0.463567
0.217248
-0.028923
-0.264885
-0.483239
-0.680311
-0.855267
-1.007545
-1.133675
-1.226625
-1.279065
-1.287412
-1.253162
-1.180844
-1.073959
-0.932020
-0.752076
-0.533212
-0.278757
0.005174
0.312012
0.635998
0.972277
1.317088
1.669254
2.031200
2.406090
2.789498
3.160282
3.484289
3.736838
3.920630
4.053640
4.145065
4.193415
4.202292
4.188631
4.178043
4.195262
4.254405
4.354703
4.487231
4.646683
4.835806
5.059712
5.316666
5.591013
5.853167
6.070930
6.224301
6.307861
6.320800
6.260751
6.127822
5.930135
5.683352
5.404732
5.106205
4.792507
4.469280
4.155812
3.886248
3.692558
3.586691
3.562583
3.612026
3.732734
3.924043
4.181974
4.499237
4.867764
5.281120
5.733827
6.218046
6.722886
7.237841
7.755511
8.270038
8.773557
9.254650
9.700031
10.098476
10.445304
10.746055
11.015680
11.269184
11.510664
11.732373
11.922981
12.077049
12.197806
12.290645
12.359818
12.414905
12.472734
12.547299
12.639531
12.737855
12.827805
12.902201
12.964761
13.025195
13.090159
13.157566
13.218157
13.261566
13.281070
13.273485
13.235261
13.159549
13.037836
12.864157
12.637491
12.360705
12.037647
11.671446
11.265284
10.822635
10.346405
9.840565
9.311958
8.768015
8.214139
7.653705
7.087415
6.512857
5.929331
5.349272
4.811850
4.381830
4.114974
4.014477
4.035933
4.137761
4.307757
4.540899
4.810955
5.068448
5.260414
5.355995
5.361008
5.307138
5.223880
5.122373
5.001545
4.857612
4.684621
4.473639
4.216106
3.907811
3.551364
3.156380
2.736357
2.304389
1.871059
1.444338
1.028791
0.624195
0.226436
-0.169442
-0.567403
-0.971185
-1.385895
-1.818244
-2.274794
-2.759296
-3.270906
-3.805350
-4.358950
-4.930963
-5.521680
-6.130473
-6.756923
-7.402221
-8.068060
-8.754077
-9.455851
-10.164890
-10.871331
-11.567433
-12.249219
-12.916744
-13.573228
-14.221422
-14.859136
-15.478158
-16.066219
-16.609591
-17.097519
-17.528282
-17.910769
-18.257849
-18.576574
-18.862972
-19.104362
-19.286694
-19.402103
-19.451202
-19.439226
-19.372074
-19.256281
-19.099756
-18.909960
-18.691059
-18.443384
-18.166063
-17.860050
-17.528711
-17.176880
-16.809481
-16.429285
-16.035389
-15.624470
-15.193751
-14.743441
-14.276291
-13.793608
-13.292454
-12.768388
-12.221723
-11.663905
-11.120571
-10.626995
-10.216039
-9.903652
-9.680454
-9.518386
-9.388483
-9.273621
-9.168720
-9.074132
-8.989045
-8.908747
-8.826884
-8.739272
-8.644084
-8.538720
-8.418636
-8.279624
-8.120070
-7.941178
-7.745921
-7.536955
-7.314185
-7.074402
-6.813973
-6.532064
-6.231955
-5.922077
-5.618259
-5.343239
-5.119771
-4.962314
-4.877442
-4.871561
-4.952312
-5.122786
-5.379327
-5.712717
-6.108695
-6.550554
-7.023242
-7.514639
-8.014368
-8.513505
-9.006009
-9.490632
-9.971234
-10.454198
-10.944190
-11.440534
-11.936311
-12.421341
-12.887894
-13.335413
-13.770675
-14.204017
-14.644716
-15.097801
-15.563919
-16.041071
-16.524490
-17.004562
-17.466930
-17.897377
-18.287472
-18.633732
-18.931759
-19.174732
-19.357859
-19.481247
-19.548475
-19.564489
-19.533447
-19.456171
-19.330381
-19.154383
-18.930201
-18.663311
-18.359352
-18.020260
-17.643827
-17.226805
-16.765903
-16.255791
-15.690406
-15.068623
-14.397524
-13.690190
-12.961711
-12.226909
-11.498628
-10.784964
-10.087652
-9.403427
-8.727123
-8.054615
-7.384804
-6.720725
-6.068310
-5.432215
-4.811988
-4.202435
-3.597293
-2.990776
-2.376778
-1.750489
-1.111226
-0.461860
0.195064
0.859898
1.534531
2.220431
2.919365
3.634831
4.369671
5.118668
5.861673
6.565080
7.194629
7.734386
8.196104
8.605958
8.981174
9.320826
9.614114
9.851213
10.026789
10.138025
10.182915
10.161592
10.079575
9.948999
9.785253
9.601447
9.403913
9.191628
8.961579
8.715430
8.460814
8.208317
7.969554
7.756675
7.580132
7.445400
7.351653
7.293066
7.261316
7.248097
7.248027
7.261188
7.293551
7.355166
7.456227
7.602842
7.795278
8.027705
8.291264
8.583270
8.911162
9.285149
9.713640
10.204362
10.766254
11.410076
12.139545
12.939524
13.774907
14.600311
15.373994
16.069399
16.682323
17.226564
17.717915
18.164131
18.565908
18.920376
19.226067
19.489162
19.723452
19.939566
20.131559
20.274374
20.339428
20.318829
20.236340
20.133884
20.046362
19.987885
19.957270
19.949903
19.964279
20.002783
20.067595
20.154787
20.253874
20.352226
20.436726
20.493866
20.515257
20.503162
20.465120
20.404058
20.317587
20.203884
20.064781
19.904535
19.726870
19.532320
19.317226
19.075521
18.803284
18.501823
18.175531
17.828489
17.464645
17.088951
16.704632
16.308397
15.888995
15.431930
14.928441
14.379508
13.790550
13.165535
12.507490
11.821415
11.114470
10.394396
9.667716
8.940573
8.221470
7.519996
6.843815
6.197680
5.582336
4.993698
4.425101
3.870438
3.324806
2.785675
2.252905
1.724531
1.196229
0.664675
0.126320
-0.424311
-0.990980
-1.572984
-2.168279
-2.774400
-3.380701
-3.963987
-4.496500
-4.958844
-5.350592
-5.688777
-5.992272
-6.270224
-6.523382
-6.749101
-6.945371
-7.113966
-7.258539
-7.377312
-7.459828
-7.492592
-7.465955
-7.374677
-7.214073
-6.981615
-6.685181
-6.343822
-5.979294
-5.610188
-5.250400
-4.910027
-4.599593
-4.333166
-4.123234
-3.970828
-3.864433
-3.788439
-3.729177
-3.676465
-3.626804
-3.586762
-3.568558
-3.579431
-3.617870
-3.679794
-3.762840
-3.863900
-3.977637
-4.098830
-4.223878
-4.351617
-4.485425
-4.632755
-4.801217
-4.995958
-5.217856
-5.459368
-5.703574
-5.932221
-6.135621
-6.315115
-6.479402
-6.639005
-6.801120
-6.969031
-7.145620
-7.334330
-7.536350
-7.748173
-7.962264
-8.169078
-8.356663
-8.510980
-8.620439
-8.679323
-8.686799
-8.643680
-8.549625
-8.403993
-8.208984
-7.970396
-7.695558
-7.389956
-7.055084
-6.690755
-6.299333
-5.886253
-5.457150
-5.015939
-4.565751
-4.109921
-3.650755
-3.188445
-2.720598
-2.242325
-1.749156
-1.240847
-0.724387
-0.216990
0.253418
0.655372
0.970369
1.206250
1.390721
1.551427
1.703970
1.853611
2.000899
2.145218
2.287326
2.429507
2.571477
2.707316
2.827098
2.920620
2.982473
3.015241
3.026579
3.024940
3.019066
3.019716
3.039105
3.086255
3.163848
3.269400
3.396751
3.538212
3.688770
3.847699
4.016216
4.195478
4.385886
4.585000
4.783913
4.966648
5.115273
5.217218
5.269700
5.278647
5.252816
5.196809
5.110163
4.992798
4.846430
4.672038
4.470309
4.242780
3.992592
3.724392
3.443425
3.157096
2.874864
2.604924
2.353904
2.126836
1.924211
1.742741
1.580123
1.436422
1.311723
1.204526
1.112352
1.033379
0.967606
0.916779
0.882376
0.863353
0.856024
0.855030
0.856088
0.860123
0.872598
0.899098
0.942988
1.003663
1.074692
1.144998
1.202712
1.238688
1.248077
1.229268
1.181849
1.106254
1.003755
0.875113
0.718938
0.533104
0.320232
0.089215
-0.150764
-0.393913
-0.635015
-0.867449
-1.084923
-1.282341
-1.454475
-1.595403
-1.699126
-1.760710
-1.779112
-1.758647
-1.705573
-1.625095
-1.522502
-1.403807
-1.274232
-1.138607
-1.003690
-0.877826
-0.768005
-0.679059
-0.615218
-0.579542
-0.571223
-0.585502
-0.617006
-0.661907
-0.717282
-0.781402
-0.854677
-0.937440
-1.026867
-1.117634
-1.205217
-1.288224
-1.368651
-1.450015
-1.534155
-1.619976
-1.705498
-1.789908
-1.872367
-1.948798
-2.010917
-2.049448
-2.058494
-2.037074
-1.988030
-1.916955
-1.832188
-1.743718
-1.659717
-1.584648
-1.520519
-1.467763
-1.425703
-1.394304
-1.374587
-1.366182
-1.367563
-1.379490
-1.403562
-1.437750
-1.475645
-1.508857
-1.531451
-1.542929
-1.546630
-1.546532
-1.544983
-1.542018
-1.536015
-1.524511
-1.505275
-1.476774
-1.438038
-1.389487
-1.333234
-1.272008
-1.208486
-1.145909
-1.089037
-1.043389
-1.013524
-1.002618
-1.012387
-1.042739
-1.091797
-1.155078
-1.224227
-1.289027
-1.342235
-1.381340
-1.406777
-1.422109
-1.435595
-1.458110
-1.498218
-1.559257
-1.641013
-1.743154
-1.864245
-1.997305
-2.129180
-2.244682
-2.331309
-2.381641
-2.393556
-2.370213
-2.318063
-2.242093
-2.144069
-2.025684
-1.891105
-1.746097
-1.595439
-1.441654
-1.286992
-1.135852
-0.994427
-0.867808
-0.757013
-0.660083
-0.575597
-0.502917
-0.441172
-0.388999
-0.342705
-0.296114
-0.243522
-0.180180
-0.100775
-0.001430
0.117316
0.252051
0.400236
0.561832
0.738230
0.930404
1.138851
1.364123
1.606255
1.865034
2.139708
2.426754
2.721638
3.023930
3.335218
3.652482
3.969968
4.285608
4.600755
4.916461
5.231920
5.544483
5.849967
6.143642
6.423331
6.690932
6.949233
7.199517
7.443091
7.682572
7.920167
8.155018
8.382333
8.593295
8.774898
8.913330
9.001660
9.044373
9.052716
9.035844
8.997317
8.938164
8.860228
8.765771
8.655150
8.526342
8.376783
8.205281
8.013247
7.805483
7.589507
7.373085
7.161796
6.957895
6.760478
6.567065
6.375582
6.184586
5.992076
5.796347
5.598773
5.403531
5.214227
5.032410
4.858243
4.690759
4.527903
4.367512
4.207830
4.046212
3.879488
3.706363
3.526956
3.340659
3.146708
2.945830
2.739672
2.529451
2.316068
2.100414
1.882729
1.662339
1.439050
1.214517
0.991815
0.775126
0.570771
0.387482
0.233710
0.112353
0.018260
-0.056727
-0.116358
-0.158690
-0.180950
-0.183257
-0.166441
-0.128973
-0.068228
0.017198
0.127012
0.259220
0.410252
0.575765
0.751403
0.932670
1.114979
1.295346
1.474252
1.655670
1.845409
2.048243
2.265208
2.493479
2.728730
2.967344
3.207234
3.448155
3.691656
3.939826
4.192864
4.446900
4.692892
4.916136
5.098454
5.225776
5.294977
5.311694
5.283707
5.217845
5.118962
4.989337
4.829980
4.641564
4.423886
4.176531
3.900315
3.597457
3.270313
2.920498
2.549712
2.160181
1.753479
1.329583
0.887329
0.426620
-0.049839
-0.539569
-1.044105
-1.567236
-2.111443
-2.676717
-3.260482
-3.857047
-4.455106
-5.034848
-5.569034
-6.029342
-6.395911
-6.664355
-6.843165
-6.943514
-6.971934
-6.929953
-6.816642
-6.631124
-6.374688
-6.052280
-5.672171
-5.243408
-4.774274
-4.274510
-3.758422
