EVENT_NAME: EMILIA_2ND_SHOCK
EVENT_ID: IT-2012-0011
EVENT_DATE_YYYYMMDD: 20120529
EVENT_TIME_HHMMSS: 070002
EVENT_LATITUDE_DEGREE: 44.8417
EVENT_LONGITUDE_DEGREE: 11.0657
EVENT_DEPTH_KM: 8.1
HYPOCENTER_REFERENCE: INGV-CNT_Seismic_Bulletin
MAGNITUDE_W: 6.0
MAGNITUDE_W_REFERENCE: RCMT-INGV
MAGNITUDE_L: 5.8
MAGNITUDE_L_REFERENCE: INGV-CNT_Seismic_Bulletin
FOCAL_MECHANISM: TF
NETWORK: IT
STATION_CODE: MRN
STATION_NAME: MIRANDOLA (NAPOLI)
STATION_LATITUDE_DEGREE: 44.878231
STATION_LONGITUDE_DEGREE: 11.061743
STATION_ELEVATION_M: 15
LOCATION: 
SENSOR_DEPTH_M: 0.0
VS30_M/S: 208
SITE_CLASSIFICATION_EC8: C
MORPHOLOGIC_CLASSIFICATION: 
EPICENTRAL_DISTANCE_KM: 4.1
EARTHQUAKE_BACKAZIMUTH_DEGREE: 175.6
DATE_TIME_FIRST_SAMPLE_YYYYMMDD_HHMMSS: 20120529_065948.000
DATE_TIME_FIRST_SAMPLE_PRECISION: seconds
SAMPLING_INTERVAL_S: 0.005000
NDATA: 105
DURATION_S: 
STREAM: HNZ
UNITS: cm/s
INSTRUMENT: sensor = MS2007+ [Syscom] | digitizer = 130-01/3 [Reftek]
INSTRUMENT_ANALOG/DIGITAL: D
INSTRUMENTAL_FREQUENCY_HZ: 
INSTRUMENTAL_DAMPING: 
FULL_SCALE_G: 
N_BIT_DIGITAL_CONVERTER: 24
PGV_CM/S: 26.774378
TIME_PGV_S: 18.915000
BASELINE_CORRECTION: BASELINE REMOVED
FILTER_TYPE: BUTTERWORTH
FILTER_ORDER: 2
LOW_CUT_FREQUENCY_HZ: 0.070
HIGH_CUT_FREQUENCY_HZ: 40.000
LATE/NORMAL_TRIGGERED: NT
DATABASE_VERSION: DYNA 1.0
HEADER_FORMAT: DYNA 1.2
DATA_TYPE: PSEUDO-VELOCITY RESPONSE SPECTRUM
PROCESSING: manual (Paolucci et al., 2011)
DATA_TIMESTAMP_YYYYMMDD_HHMMSS: 20141204_104205.354
DATA_LICENSE: CC-BY3_0-IT (http://creativecommons.org/licenses/by/3.0/deed.en)
DATA_CITATION: ESM working group (2015), European Strong-Motion database, version 0.1, Network Activity 3: Networking acceleration networks and SM data users. Project NERA (www.nera-eu.org)
DATA_CREATOR: ESM working group
ORIGINAL_DATA_MEDIATOR_CITATION: Ufficio Rischio Sismico e Vulcanico del Dipartimento della Protezione Civile (http://www.protezionecivile.gov.it/)
ORIGINAL_DATA_MEDIATOR: Rete Accelerometrica Nazionale - RAN Download (http://www.mot1.it/randownload/)
ORIGINAL_DATA_CREATOR_CITATION: Italian Strong Motion Network, Italian Civil Protection Department http://www.protezionecivile.gov.it
ORIGINAL_DATA_CREATOR: network: IT (Italian Strong Motion Network); owner: Dipartimento Della Protezione Civile
USER1: /home/dyna/processing-itaca/processing.py /var/www/processing/tmp/fpacor//IT.MRN..HNE.D.20120529.070003.X.ACC.ASC /var/www/processing/tmp/fpacor//IT.MRN..HNN.D.20120529.070003.X.ACC.ASC /var/www/processing/tmp/fpacor//IT.MRN..HNZ.D.20120529.070003.X.ACC.ASC --tmp /var/www/processing/tmp/fpacor/ --le 0.070 --he 40.000 --ln 0.070 --hn 40.000 --lz 0.070 --hz 40.000 --fo 2 --ca -15 --cz 100 --ta 5 --tz 5 --mf 1 --rf 0 --tr NT
USER2: 
USER3: 
USER4: 
USER5: 
    0.010000     1.380579
    0.020000     3.256934
    0.022000     3.689682
    0.025000     4.698894
    0.029000     7.398424
    0.030000     7.670339
    0.032000     8.686160
    0.035001    10.790297
    0.036000    11.106736
    0.040000    14.686016
    0.041999    14.117070
    0.044001    15.953048
    0.045000    16.204792
    0.046000    16.263811
    0.048001    17.578793
    0.050000    20.130964
    0.054999    27.298191
    0.059999    30.729420
    0.064998    35.904358
    0.067002    33.570683
    0.069999    33.648624
    0.075002    25.177790
    0.080000    25.489637
    0.084998    28.618187
    0.090001    38.350266
    0.095003    43.641357
    0.100000    36.838650
    0.109999    29.612322
    0.120005    23.882360
    0.130005    26.124569
    0.132996    25.172176
    0.139997    25.645878
    0.149993    31.589828
    0.160000    30.584217
    0.170010    22.838169
    0.179986    21.324150
    0.190006    24.499348
    0.200000    26.339979
    0.220022    27.426434
    0.239981    23.982815
    0.250000    28.064909
    0.260010    29.491243
    0.280034    22.150555
    0.290023    18.945576
    0.300030    17.170366
    0.320000    18.423870
    0.340020    17.982201
    0.350017    18.380449
    0.359971    19.150316
    0.379939    19.053581
    0.400000    17.679930
    0.419992    14.875249
    0.439947    12.697074
    0.450045    12.656146
    0.459982    12.603027
    0.480077    12.714791
    0.500000    12.984628
    0.550055    13.775407
    0.599880    15.271559
    0.650195    14.655434
    0.667111    13.663193
    0.699790    12.893738
    0.750188    12.599673
    0.800000    12.973484
    0.850340    13.215955
    0.900090    14.066192
    0.949668    14.285060
    1.000000    14.028935
    1.100110    12.982978
    1.200480    12.153652
    1.300390    12.479932
    1.400560    12.624949
    1.499250    12.202376
    1.600000    11.304422
    1.700680    12.737453
    1.798561    15.236489
    1.901141    15.823872
    2.000000    15.344583
    2.197802    12.998365
    2.398082    13.481266
    2.500000    13.562027
    2.597403    13.735316
    2.801121    14.087822
    3.003003    13.898761
    3.205128    13.277386
    3.401361    13.175248
    3.496503    14.274556
    3.597122    15.136654
    3.802281    16.743172
    4.000000    17.817127
    4.201681    17.936460
    4.405286    17.363937
    4.608295    17.340206
    4.807692    17.291206
    5.000000    16.987104
    5.494505    16.335150
    5.988024    14.986705
    6.493506    14.211214
    6.993007    13.432017
    7.518797    12.525435
    8.000000    11.532610
    8.474576    10.392640
    9.009009     9.239692
    9.523809     8.168722
   10.000000     7.106106
