EVENT_NAME: EMILIA_2ND_SHOCK
EVENT_ID: IT-2012-0011
EVENT_DATE_YYYYMMDD: 20120529
EVENT_TIME_HHMMSS: 070002
EVENT_LATITUDE_DEGREE: 44.8417
EVENT_LONGITUDE_DEGREE: 11.0657
EVENT_DEPTH_KM: 8.1
HYPOCENTER_REFERENCE: INGV-CNT_Seismic_Bulletin
MAGNITUDE_W: 6.0
MAGNITUDE_W_REFERENCE: RCMT-INGV
MAGNITUDE_L: 5.8
MAGNITUDE_L_REFERENCE: INGV-CNT_Seismic_Bulletin
FOCAL_MECHANISM: TF
NETWORK: IT
STATION_CODE: MRN
STATION_NAME: MIRANDOLA (NAPOLI)
STATION_LATITUDE_DEGREE: 44.878231
STATION_LONGITUDE_DEGREE: 11.061743
STATION_ELEVATION_M: 15
LOCATION: 
SENSOR_DEPTH_M: 0.0
VS30_M/S: 208
SITE_CLASSIFICATION_EC8: C
MORPHOLOGIC_CLASSIFICATION: 
EPICENTRAL_DISTANCE_KM: 4.1
EARTHQUAKE_BACKAZIMUTH_DEGREE: 175.6
DATE_TIME_FIRST_SAMPLE_YYYYMMDD_HHMMSS: 20120529_065948.000
DATE_TIME_FIRST_SAMPLE_PRECISION: seconds
SAMPLING_INTERVAL_S: 0.005000
NDATA: 105
DURATION_S: 
STREAM: HNN
UNITS: cm/s
INSTRUMENT: sensor = MS2007+ [Syscom] | digitizer = 130-01/3 [Reftek]
INSTRUMENT_ANALOG/DIGITAL: D
INSTRUMENTAL_FREQUENCY_HZ: 
INSTRUMENTAL_DAMPING: 
FULL_SCALE_G: 
N_BIT_DIGITAL_CONVERTER: 24
PGV_CM/S: -57.510645
TIME_PGV_S: 21.230000
BASELINE_CORRECTION: BASELINE REMOVED
FILTER_TYPE: BUTTERWORTH
FILTER_ORDER: 2
LOW_CUT_FREQUENCY_HZ: 0.070
HIGH_CUT_FREQUENCY_HZ: 40.000
LATE/NORMAL_TRIGGERED: NT
DATABASE_VERSION: DYNA 1.0
HEADER_FORMAT: DYNA 1.2
DATA_TYPE: PSEUDO-VELOCITY RESPONSE SPECTRUM
PROCESSING: manual (Paolucci et al., 2011)
DATA_TIMESTAMP_YYYYMMDD_HHMMSS: 20141204_104205.354
DATA_LICENSE: CC-BY3_0-IT (http://creativecommons.org/licenses/by/3.0/deed.en)
DATA_CITATION: ESM working group (2015), European Strong-Motion database, version 0.1, Network Activity 3: Networking acceleration networks and SM data users. Project NERA (www.nera-eu.org)
DATA_CREATOR: ESM working group
ORIGINAL_DATA_MEDIATOR_CITATION: Ufficio Rischio Sismico e Vulcanico del Dipartimento della Protezione Civile (http://www.protezionecivile.gov.it/)
ORIGINAL_DATA_MEDIATOR: Rete Accelerometrica Nazionale - RAN Download (http://www.mot1.it/randownload/)
ORIGINAL_DATA_CREATOR_CITATION: Italian Strong Motion Network, Italian Civil Protection Department http://www.protezionecivile.gov.it
ORIGINAL_DATA_CREATOR: network: IT (Italian Strong Motion Network); owner: Dipartimento Della Protezione Civile
USER1: /home/dyna/processing-itaca/processing.py /var/www/processing/tmp/fpacor//IT.MRN..HNE.D.20120529.070003.X.ACC.ASC /var/www/processing/tmp/fpacor//IT.MRN..HNN.D.20120529.070003.X.ACC.ASC /var/www/processing/tmp/fpacor//IT.MRN..HNZ.D.20120529.070003.X.ACC.ASC --tmp /var/www/processing/tmp/fpacor/ --le 0.070 --he 40.000 --ln 0.070 --hn 40.000 --lz 0.070 --hz 40.000 --fo 2 --ca -15 --cz 100 --ta 5 --tz 5 --mf 1 --rf 0 --tr NT
USER2: 
USER3: 
USER4: 
USER5: 
    0.010000     0.460611
    0.020000     0.932553
    0.022000     1.029473
    0.025000     1.193720
    0.029000     1.376372
    0.030000     1.471308
    0.032000     1.592159
    0.035001     1.670617
    0.036000     1.810063
    0.040000     2.198478
    0.041999     2.236281
    0.044001     2.378601
    0.045000     2.474671
    0.046000     2.560501
    0.048001     2.586111
    0.050000     2.805166
    0.054999     3.158709
    0.059999     3.789881
    0.064998     4.498065
    0.067002     4.650671
    0.069999     4.376194
    0.075002     4.834209
    0.080000     4.675759
    0.084998     5.295279
    0.090001     6.899980
    0.095003     7.300299
    0.100000     7.587770
    0.109999     9.148575
    0.120005     9.799891
    0.130005    11.725592
    0.132996    11.911341
    0.139997    12.338057
    0.149993    13.924244
    0.160000    18.300461
    0.170010    20.251028
    0.179986    22.686359
    0.190006    25.135565
    0.200000    28.396343
    0.220022    24.085808
    0.239981    28.319607
    0.250000    32.932831
    0.260010    37.949425
    0.280034    39.276215
    0.290023    35.515572
    0.300030    33.202255
    0.320000    34.739567
    0.340020    31.442200
    0.350017    30.161982
    0.359971    30.360512
    0.379939    35.231392
    0.400000    40.276024
    0.419992    39.258915
    0.439947    37.325356
    0.450045    36.252766
    0.459982    40.834991
    0.480077    46.952812
    0.500000    45.649818
    0.550055    56.766796
    0.599880    80.503769
    0.650195    83.695290
    0.667111    80.020569
    0.699790    70.930725
    0.750188    52.864059
    0.800000    46.350288
    0.850340    48.454979
    0.900090    52.373154
    0.949668    55.720005
    1.000000    58.838676
    1.100110    67.053833
    1.200480    77.265999
    1.300390    86.142715
    1.400560    91.095207
    1.499250    98.237740
    1.600000   104.473770
    1.700680   106.948479
    1.798561   107.668594
    1.901141   108.896019
    2.000000   106.951042
    2.197802    99.451302
    2.398082    97.681671
    2.500000    93.725029
    2.597403    88.162521
    2.801121    77.838089
    3.003003    71.166656
    3.205128    65.315842
    3.401361    59.445240
    3.496503    56.407448
    3.597122    53.361568
    3.802281    48.603390
    4.000000    47.224804
    4.201681    45.618858
    4.405286    43.881470
    4.608295    42.067787
    4.807692    40.183537
    5.000000    38.240284
    5.494505    33.459843
    5.988024    29.265709
    6.493506    25.661386
    6.993007    22.543007
    7.518797    19.944588
    8.000000    17.856493
    8.474576    16.182617
    9.009009    14.798892
    9.523809    13.609092
   10.000000    12.555096
