EVENT_NAME: EMILIA_2ND_SHOCK
EVENT_ID: IT-2012-0011
EVENT_DATE_YYYYMMDD: 20120529
EVENT_TIME_HHMMSS: 070002
EVENT_LATITUDE_DEGREE: 44.8417
EVENT_LONGITUDE_DEGREE: 11.0657
EVENT_DEPTH_KM: 8.1
HYPOCENTER_REFERENCE: INGV-CNT_Seismic_Bulletin
MAGNITUDE_W: 6.0
MAGNITUDE_W_REFERENCE: RCMT-INGV
MAGNITUDE_L: 5.8
MAGNITUDE_L_REFERENCE: INGV-CNT_Seismic_Bulletin
FOCAL_MECHANISM: TF
NETWORK: IT
STATION_CODE: MRN
STATION_NAME: MIRANDOLA (NAPOLI)
STATION_LATITUDE_DEGREE: 44.878231
STATION_LONGITUDE_DEGREE: 11.061743
STATION_ELEVATION_M: 15
LOCATION: 
SENSOR_DEPTH_M: 0.0
VS30_M/S: 208
SITE_CLASSIFICATION_EC8: C
MORPHOLOGIC_CLASSIFICATION: 
EPICENTRAL_DISTANCE_KM: 4.1
EARTHQUAKE_BACKAZIMUTH_DEGREE: 175.6
DATE_TIME_FIRST_SAMPLE_YYYYMMDD_HHMMSS: 20120529_065948.000
DATE_TIME_FIRST_SAMPLE_PRECISION: seconds
SAMPLING_INTERVAL_S: 0.005000
NDATA: 13713
DURATION_S: 68.565
STREAM: HNN
UNITS: cm
INSTRUMENT: sensor = MS2007+ [Syscom] | digitizer = 130-01/3 [Reftek]
INSTRUMENT_ANALOG/DIGITAL: D
INSTRUMENTAL_FREQUENCY_HZ: 
INSTRUMENTAL_DAMPING: 
FULL_SCALE_G: 
N_BIT_DIGITAL_CONVERTER: 24
PGD_CM: 14.206279
TIME_PGD_S: 20.490000
BASELINE_CORRECTION: BASELINE REMOVED
FILTER_TYPE: BUTTERWORTH
FILTER_ORDER: 2
LOW_CUT_FREQUENCY_HZ: 0.070
HIGH_CUT_FREQUENCY_HZ: 40.000
LATE/NORMAL_TRIGGERED: NT
DATABASE_VERSION: DYNA 1.0
HEADER_FORMAT: DYNA 1.2
DATA_TYPE: DISPLACEMENT
PROCESSING: manual (Paolucci et al., 2011)
DATA_TIMESTAMP_YYYYMMDD_HHMMSS: 20141204_104205.354
DATA_LICENSE: CC-BY3_0-IT (http://creativecommons.org/licenses/by/3.0/deed.en)
DATA_CITATION: ESM working group (2015), European Strong-Motion database, version 0.1, Network Activity 3: Networking acceleration networks and SM data users. Project NERA (www.nera-eu.org)
DATA_CREATOR: ESM working group
ORIGINAL_DATA_MEDIATOR_CITATION: Ufficio Rischio Sismico e Vulcanico del Dipartimento della Protezione Civile (http://www.protezionecivile.gov.it/)
ORIGINAL_DATA_MEDIATOR: Rete Accelerometrica Nazionale - RAN Download (http://www.mot1.it/randownload/)
ORIGINAL_DATA_CREATOR_CITATION: Italian Strong Motion Network, Italian Civil Protection Department http://www.protezionecivile.gov.it
ORIGINAL_DATA_CREATOR: network: IT (Italian Strong Motion Network); owner: Dipartimento Della Protezione Civile
USER1: /home/dyna/processing-itaca/processing.py /var/www/processing/tmp/fpacor//IT.MRN..HNE.D.20120529.070003.X.ACC.ASC /var/www/processing/tmp/fpacor//IT.MRN..HNN.D.20120529.070003.X.ACC.ASC /var/www/processing/tmp/fpacor//IT.MRN..HNZ.D.20120529.070003.X.ACC.ASC --tmp /var/www/processing/tmp/fpacor/ --le 0.070 --he 40.000 --ln 0.070 --hn 40.000 --lz 0.070 --hz 40.000 --fo 2 --ca -15 --cz 100 --ta 5 --tz 5 --mf 1 --rf 0 --tr NT
USER2: 
USER3: 
USER4: 
USER5: 
[...]
-7.558770e-01
-7.581028e-01
-7.603413e-01
-7.625928e-01
-7.648569e-01
-7.671334e-01
-7.694227e-01
-7.717246e-01
-7.740388e-01
-7.763651e-01
-7.787036e-01
-7.810542e-01
-7.834166e-01
-7.857905e-01
-7.881764e-01
-7.905744e-01
-7.929844e-01
-7.954064e-01
-7.978408e-01
-8.002874e-01
-8.027461e-01
-8.052166e-01
-8.076992e-01
-8.101940e-01
-8.127009e-01
-8.152199e-01
-8.177512e-01
-8.202949e-01
-8.228507e-01
-8.254184e-01
-8.279984e-01
-8.305909e-01
-8.331952e-01
-8.358113e-01
-8.384395e-01
-8.410798e-01
-8.437319e-01
-8.463958e-01
-8.490716e-01
-8.517594e-01
-8.544590e-01
-8.571703e-01
-8.598935e-01
-8.626287e-01
-8.653755e-01
-8.681338e-01
-8.709039e-01
-8.736860e-01
-8.764796e-01
-8.792848e-01
-8.821018e-01
-8.849308e-01
-8.877714e-01
-8.906236e-01
-8.934876e-01
-8.963635e-01
-8.992508e-01
-9.021494e-01
-9.050595e-01
-9.079811e-01
-9.109139e-01
-9.138578e-01
-9.168130e-01
-9.197796e-01
-9.227575e-01
-9.257468e-01
-9.287477e-01
-9.317605e-01
-9.347849e-01
-9.378207e-01
-9.408681e-01
-9.439270e-01
-9.469970e-01
-9.500781e-01
-9.531705e-01
-9.562743e-01
-9.593892e-01
-9.625149e-01
-9.656517e-01
-9.687997e-01
-9.719586e-01
-9.751282e-01
-9.783088e-01
-9.815004e-01
-9.847028e-01
-9.879161e-01
-9.911405e-01
-9.943761e-01
-9.976228e-01
-1.000880e+00
-1.004149e+00
-1.007429e+00
-1.010720e+00
-1.014022e+00
-1.017335e+00
-1.020659e+00
-1.023993e+00
-1.027337e+00
-1.030693e+00
-1.034060e+00
-1.037437e+00
-1.040824e+00
-1.044223e+00
-1.047632e+00
-1.051052e+00
-1.054482e+00
-1.057923e+00
-1.061374e+00
-1.064837e+00
-1.068309e+00
-1.071793e+00
-1.075287e+00
-1.078791e+00
-1.082307e+00
-1.085832e+00
-1.089369e+00
-1.092916e+00
-1.096473e+00
-1.100040e+00
-1.103618e+00
-1.107206e+00
-1.110804e+00
-1.114413e+00
-1.118032e+00
-1.121662e+00
-1.125301e+00
-1.128951e+00
-1.132611e+00
-1.136282e+00
-1.139962e+00
-1.143652e+00
-1.147353e+00
-1.151063e+00
-1.154784e+00
-1.158515e+00
-1.162257e+00
-1.166008e+00
-1.169769e+00
-1.173540e+00
-1.177321e+00
-1.181112e+00
-1.184913e+00
-1.188724e+00
-1.192545e+00
-1.196377e+00
-1.200218e+00
-1.204069e+00
-1.207930e+00
-1.211801e+00
-1.215681e+00
-1.219571e+00
-1.223471e+00
-1.227379e+00
-1.231298e+00
-1.235225e+00
-1.239163e+00
-1.243109e+00
-1.247065e+00
-1.251031e+00
-1.255006e+00
-1.258991e+00
-1.262985e+00
-1.266989e+00
-1.271003e+00
-1.275026e+00
-1.279058e+00
-1.283100e+00
-1.287152e+00
-1.291213e+00
-1.295284e+00
-1.299364e+00
-1.303453e+00
-1.307551e+00
-1.311657e+00
-1.315773e+00
-1.319899e+00
-1.324034e+00
-1.328178e+00
-1.332331e+00
-1.336494e+00
-1.340665e+00
-1.344843e+00
-1.349027e+00
-1.353216e+00
-1.357407e+00
-1.361599e+00
-1.365789e+00
-1.369975e+00
-1.374156e+00
-1.378334e+00
-1.382508e+00
-1.386679e+00
-1.390849e+00
-1.395021e+00
-1.399193e+00
-1.403361e+00
-1.407521e+00
-1.411667e+00
-1.415793e+00
-1.419885e+00
-1.423936e+00
-1.427942e+00
-1.431911e+00
-1.435842e+00
-1.439739e+00
-1.443617e+00
-1.447500e+00
-1.451397e+00
-1.455296e+00
-1.459180e+00
-1.463031e+00
-1.466827e+00
-1.470542e+00
-1.474177e+00
-1.477773e+00
-1.481390e+00
-1.485060e+00
-1.488770e+00
-1.492483e+00
-1.496174e+00
-1.499833e+00
-1.503454e+00
-1.507031e+00
-1.510577e+00
-1.514137e+00
-1.517773e+00
-1.521549e+00
-1.525512e+00
-1.529672e+00
-1.533965e+00
-1.538289e+00
-1.542580e+00
-1.546843e+00
-1.551113e+00
-1.555407e+00
-1.559746e+00
-1.564178e+00
-1.568740e+00
-1.573403e+00
-1.578083e+00
-1.582719e+00
-1.587309e+00
-1.591879e+00
-1.596454e+00
-1.601058e+00
-1.605725e+00
-1.610481e+00
-1.615321e+00
-1.620212e+00
-1.625107e+00
-1.629965e+00
-1.634746e+00
-1.639428e+00
-1.644008e+00
-1.648484e+00
-1.652814e+00
-1.656932e+00
-1.660801e+00
-1.664438e+00
-1.667871e+00
-1.671122e+00
-1.674237e+00
-1.677290e+00
-1.680329e+00
-1.683335e+00
-1.686240e+00
-1.688987e+00
-1.691562e+00
-1.693989e+00
-1.696309e+00
-1.698579e+00
-1.700868e+00
-1.703233e+00
-1.705676e+00
-1.708137e+00
-1.710535e+00
-1.712809e+00
-1.714923e+00
-1.716864e+00
-1.718654e+00
-1.720343e+00
-1.721983e+00
-1.723606e+00
-1.725256e+00
-1.727004e+00
-1.728898e+00
-1.730913e+00
-1.732983e+00
-1.735085e+00
-1.737257e+00
-1.739515e+00
-1.741794e+00
-1.743986e+00
-1.746024e+00
-1.747925e+00
-1.749757e+00
-1.751594e+00
-1.753490e+00
-1.755453e+00
-1.757450e+00
-1.759444e+00
-1.761416e+00
-1.763378e+00
-1.765364e+00
-1.767416e+00
-1.769573e+00
-1.771850e+00
-1.774216e+00
-1.776605e+00
-1.778938e+00
-1.781162e+00
-1.783261e+00
-1.785252e+00
-1.787180e+00
-1.789108e+00
-1.791098e+00
-1.793175e+00
-1.795336e+00
-1.797583e+00
-1.799946e+00
-1.802456e+00
-1.805111e+00
-1.807882e+00
-1.810753e+00
-1.813736e+00
-1.816809e+00
-1.819872e+00
-1.822794e+00
-1.825516e+00
-1.828107e+00
-1.830725e+00
-1.833503e+00
-1.836450e+00
-1.839442e+00
-1.842285e+00
-1.844824e+00
-1.846991e+00
-1.848799e+00
-1.850339e+00
-1.851782e+00
-1.853322e+00
-1.855082e+00
-1.857090e+00
-1.859297e+00
-1.861570e+00
-1.863699e+00
-1.865525e+00
-1.867065e+00
-1.868479e+00
-1.869899e+00
-1.871362e+00
-1.872853e+00
-1.874355e+00
-1.875795e+00
-1.877021e+00
-1.877881e+00
-1.878355e+00
-1.878543e+00
-1.878517e+00
-1.878256e+00
-1.877773e+00
-1.877205e+00
-1.876709e+00
-1.876304e+00
-1.875879e+00
-1.875350e+00
-1.874759e+00
-1.874204e+00
-1.873675e+00
-1.873005e+00
-1.872002e+00
-1.870621e+00
-1.868982e+00
-1.867291e+00
-1.865774e+00
-1.864634e+00
-1.863997e+00
-1.863883e+00
-1.864188e+00
-1.864692e+00
-1.865084e+00
-1.865085e+00
-1.864617e+00
-1.863861e+00
-1.863159e+00
-1.862847e+00
-1.863134e+00
-1.864040e+00
-1.865404e+00
-1.866985e+00
-1.868564e+00
-1.869988e+00
-1.871202e+00
-1.872293e+00
-1.873465e+00
-1.874924e+00
-1.876779e+00
-1.879054e+00
-1.881727e+00
-1.884723e+00
-1.887899e+00
-1.891051e+00
-1.893940e+00
-1.896365e+00
-1.898259e+00
-1.899717e+00
-1.900924e+00
-1.902053e+00
-1.903194e+00
-1.904322e+00
-1.905343e+00
-1.906187e+00
-1.906830e+00
-1.907235e+00
-1.907298e+00
-1.906885e+00
-1.905925e+00
-1.904473e+00
-1.902669e+00
-1.900658e+00
-1.898538e+00
-1.896379e+00
-1.894268e+00
-1.892320e+00
-1.890611e+00
-1.889057e+00
-1.887401e+00
-1.885377e+00
-1.882874e+00
-1.879936e+00
-1.876647e+00
-1.873076e+00
-1.869318e+00
-1.865494e+00
-1.861652e+00
-1.857701e+00
-1.853462e+00
-1.848781e+00
-1.843621e+00
-1.838066e+00
-1.832246e+00
-1.826267e+00
-1.820216e+00
-1.814192e+00
-1.808309e+00
-1.802665e+00
-1.797309e+00
-1.792205e+00
-1.787240e+00
-1.782267e+00
-1.777138e+00
-1.771711e+00
-1.765928e+00
-1.759889e+00
-1.753853e+00
-1.748146e+00
-1.743089e+00
-1.738905e+00
-1.735564e+00
-1.732704e+00
-1.729778e+00
-1.726362e+00
-1.722310e+00
-1.717680e+00
-1.712606e+00
-1.707296e+00
-1.702070e+00
-1.697243e+00
-1.692940e+00
-1.689043e+00
-1.685344e+00
-1.681695e+00
-1.677993e+00
-1.674153e+00
-1.670180e+00
-1.666206e+00
-1.662377e+00
-1.658729e+00
-1.655203e+00
-1.651733e+00
-1.648211e+00
-1.644372e+00
-1.639851e+00
-1.634447e+00
-1.628315e+00
-1.621896e+00
-1.615685e+00
-1.610036e+00
-1.605094e+00
-1.600776e+00
-1.596749e+00
-1.592458e+00
-1.587277e+00
-1.580745e+00
-1.572831e+00
-1.563977e+00
-1.554769e+00
-1.545576e+00
-1.536545e+00
-1.527824e+00
-1.519579e+00
-1.511735e+00
-1.503872e+00
-1.495414e+00
-1.485903e+00
-1.475201e+00
-1.463587e+00
-1.451596e+00
-1.439681e+00
-1.428002e+00
-1.416463e+00
-1.404814e+00
-1.392763e+00
-1.380141e+00
-1.367006e+00
-1.353595e+00
-1.340177e+00
-1.326935e+00
-1.313930e+00
-1.301156e+00
-1.288621e+00
-1.276351e+00
-1.264277e+00
-1.252196e+00
-1.239903e+00
-1.227315e+00
-1.214445e+00
-1.201359e+00
-1.188189e+00
-1.175007e+00
-1.161565e+00
-1.147286e+00
-1.131659e+00
-1.114677e+00
-1.096833e+00
-1.078728e+00
-1.060759e+00
-1.043108e+00
-1.025848e+00
-1.008923e+00
-9.920509e-01
-9.747749e-01
-9.566683e-01
-9.374775e-01
-9.170725e-01
-8.954047e-01
-8.726454e-01
-8.492815e-01
-8.259273e-01
-8.030593e-01
-7.809650e-01
-7.598134e-01
-7.396427e-01
-7.202652e-01
-7.012377e-01
-6.820818e-01
-6.626522e-01
-6.432450e-01
-6.243424e-01
-6.062985e-01
-5.891462e-01
-5.725372e-01
-5.558946e-01
-5.387374e-01
-5.208944e-01
-5.023937e-01
-4.831557e-01
-4.628734e-01
-4.412597e-01
-4.183087e-01
-3.942395e-01
-3.692771e-01
-3.434958e-01
-3.168568e-01
-2.895369e-01
-2.621809e-01
-2.354756e-01
-2.093388e-01
-1.828586e-01
-1.551186e-01
-1.256190e-01
-9.386731e-02
-5.921889e-02
-2.135477e-02
1.938333e-02
6.217980e-02
1.061629e-01
1.507645e-01
1.957982e-01
2.412011e-01
2.867569e-01
3.321540e-01
3.773081e-01
4.224598e-01
4.678215e-01
5.132627e-01
5.584660e-01
6.032709e-01
6.477557e-01
6.920145e-01
7.359435e-01
7.792988e-01
8.219418e-01
8.639836e-01
9.056746e-01
9.471284e-01
9.881743e-01
1.028568e+00
1.068269e+00
1.107370e+00
1.145901e+00
1.183921e+00
1.221737e+00
1.259883e+00
1.298962e+00
1.339593e+00
1.382428e+00
1.428007e+00
1.476492e+00
1.527646e+00
1.581179e+00
1.637075e+00
1.695511e+00
1.756401e+00
1.819112e+00
1.882699e+00
1.946316e+00
2.009344e+00
2.071346e+00
2.132010e+00
2.190947e+00
2.247413e+00
2.300284e+00
2.348518e+00
2.391783e+00
2.430550e+00
2.465426e+00
2.496618e+00
2.524232e+00
2.548757e+00
2.570852e+00
2.590710e+00
2.607937e+00
2.622046e+00
2.632808e+00
2.640056e+00
2.643431e+00
2.642530e+00
2.637297e+00
2.628176e+00
2.615886e+00
2.601093e+00
2.584329e+00
2.566139e+00
2.547166e+00
2.528074e+00
2.509405e+00
2.491581e+00
2.475132e+00
2.460878e+00
2.449728e+00
2.442196e+00
2.438241e+00
2.437766e+00
2.441160e+00
2.449208e+00
2.462548e+00
2.481273e+00
2.505001e+00
2.533183e+00
2.565235e+00
2.600409e+00
2.637830e+00
2.676847e+00
2.717253e+00
2.759012e+00
2.801763e+00
2.844581e+00
2.886122e+00
2.924928e+00
2.959818e+00
2.990361e+00
3.017060e+00
3.040834e+00
3.062239e+00
3.081262e+00
3.097774e+00
3.112019e+00
3.124738e+00
3.137064e+00
3.150301e+00
3.165466e+00
3.182825e+00
3.202073e+00
3.223050e+00
3.246095e+00
3.271726e+00
3.300330e+00
3.332246e+00
3.367913e+00
3.407693e+00
3.451508e+00
3.498713e+00
3.548361e+00
3.599618e+00
3.652097e+00
3.705949e+00
3.761661e+00
3.819690e+00
3.880204e+00
3.943067e+00
4.007912e+00
4.074042e+00
4.140325e+00
4.205421e+00
4.268277e+00
4.328400e+00
4.385777e+00
4.440705e+00
4.493644e+00
4.545061e+00
4.595475e+00
4.645694e+00
4.696740e+00
4.749333e+00
4.803525e+00
4.859048e+00
4.915970e+00
4.974801e+00
5.035905e+00
5.099108e+00
5.164049e+00
5.230688e+00
5.299270e+00
5.369903e+00
5.442321e+00
5.516017e+00
5.590467e+00
5.665253e+00
5.740040e+00
5.814534e+00
5.888509e+00
5.961935e+00
6.035099e+00
6.108486e+00
6.182453e+00
6.257202e+00
6.333062e+00
6.410492e+00
6.489645e+00
6.570101e+00
6.650969e+00
6.731191e+00
6.809835e+00
6.886163e+00
6.959557e+00
7.029602e+00
7.096215e+00
7.159458e+00
7.219225e+00
7.275218e+00
7.327195e+00
7.375115e+00
7.419032e+00
7.458898e+00
7.494558e+00
7.525937e+00
7.553190e+00
7.576663e+00
7.596773e+00
7.613948e+00
7.628648e+00
7.641384e+00
7.652698e+00
7.663026e+00
7.672472e+00
7.680777e+00
7.687653e+00
7.693159e+00
7.697721e+00
7.701896e+00
7.706162e+00
7.710830e+00
7.716060e+00
7.721909e+00
7.728412e+00
7.735677e+00
7.743930e+00
7.753445e+00
7.764429e+00
7.776988e+00
7.791185e+00
7.807118e+00
7.824943e+00
7.844815e+00
7.866803e+00
7.890811e+00
7.916491e+00
7.943267e+00
7.970639e+00
7.998494e+00
8.027039e+00
8.056454e+00
8.086676e+00
8.117400e+00
8.148155e+00
8.178445e+00
8.207988e+00
8.236995e+00
8.266315e+00
8.297238e+00
8.330974e+00
8.368315e+00
8.409760e+00
8.455704e+00
8.506423e+00
8.562041e+00
8.622573e+00
8.687889e+00
8.757629e+00
8.831289e+00
8.908537e+00
8.989541e+00
9.074906e+00
9.165144e+00
9.260208e+00
9.359642e+00
9.463049e+00
9.570267e+00
9.681188e+00
9.795572e+00
9.913075e+00
1.003339e+01
1.015631e+01
1.028163e+01
1.040920e+01
1.053900e+01
1.067109e+01
1.080552e+01
1.094210e+01
1.108039e+01
1.121971e+01
1.135927e+01
1.149823e+01
1.163559e+01
1.177026e+01
1.190121e+01
1.202790e+01
1.215031e+01
1.226874e+01
1.238350e+01
1.249482e+01
1.260300e+01
1.270825e+01
1.281051e+01
1.290929e+01
1.300403e+01
1.309442e+01
1.318049e+01
1.326245e+01
1.334042e+01
1.341436e+01
1.348414e+01
1.354971e+01
1.361113e+01
1.366854e+01
1.372206e+01
1.377186e+01
1.381821e+01
1.386148e+01
1.390211e+01
1.394049e+01
1.397702e+01
1.401191e+01
1.404511e+01
1.407616e+01
1.410439e+01
1.412921e+01
1.415036e+01
1.416786e+01
1.418194e+01
1.419270e+01
1.420018e+01
1.420457e+01
1.420628e+01
1.420586e+01
1.420381e+01
1.420055e+01
1.419655e+01
1.419241e+01
1.418877e+01
1.418608e+01
1.418430e+01
1.418309e+01
1.418229e+01
1.418219e+01
1.418326e+01
1.418567e+01
1.418897e+01
1.419226e+01
1.419452e+01
1.419492e+01
1.419301e+01
1.418855e+01
1.418124e+01
1.417081e+01
1.415718e+01
1.414033e+01
1.411992e+01
1.409530e+01
1.406586e+01
1.403126e+01
1.399127e+01
1.394549e+01
1.389357e+01
1.383551e+01
1.377169e+01
1.370258e+01
1.362847e+01
1.354942e+01
1.346544e+01
1.337655e+01
1.328285e+01
1.318446e+01
1.308150e+01
1.297418e+01
1.286283e+01
1.274792e+01
1.263016e+01
1.251052e+01
1.239016e+01
1.227023e+01
1.215162e+01
1.203475e+01
1.191982e+01
1.180706e+01
1.169692e+01
1.158990e+01
1.148629e+01
1.138607e+01
1.128915e+01
1.119557e+01
1.110542e+01
1.101878e+01
1.093570e+01
1.085606e+01
1.077950e+01
1.070531e+01
1.063255e+01
1.056009e+01
1.048669e+01
1.041100e+01
1.033174e+01
1.024796e+01
1.015931e+01
1.006597e+01
9.968341e+00
9.866708e+00
9.761157e+00
9.651579e+00
9.537757e+00
9.419600e+00
9.297308e+00
9.171262e+00
9.041764e+00
8.908896e+00
8.772632e+00
8.633121e+00
8.490875e+00
8.346674e+00
8.201328e+00
8.055427e+00
7.909155e+00
7.762277e+00
7.614247e+00
7.464302e+00
7.311625e+00
7.155616e+00
6.996021e+00
6.832847e+00
6.666261e+00
6.496558e+00
6.324191e+00
6.149790e+00
5.974050e+00
5.797455e+00
5.620161e+00
5.442194e+00
5.263654e+00
5.084725e+00
4.905548e+00
4.726145e+00
4.546429e+00
4.366206e+00
4.185133e+00
4.002737e+00
3.818531e+00
3.632170e+00
3.443472e+00
3.252255e+00
3.058261e+00
2.861350e+00
2.661660e+00
2.459437e+00
2.254761e+00
2.047501e+00
1.837481e+00
1.624555e+00
1.408546e+00
1.189195e+00
9.661999e-01
7.392664e-01
5.081421e-01
2.726661e-01
3.280819e-02
-2.113636e-01
-4.597651e-01
-7.123457e-01
-9.690754e-01
-1.229892e+00
-1.494663e+00
-1.763170e+00
-2.035100e+00
-2.310046e+00
-2.587592e+00
-2.867397e+00
-3.149167e+00
-3.432554e+00
-3.717198e+00
-4.002878e+00
-4.289493e+00
-4.576825e+00
-4.864378e+00
-5.151509e+00
-5.437636e+00
-5.722245e+00
-6.004775e+00
-6.284644e+00
-6.561400e+00
-6.834834e+00
-7.104956e+00
-7.371818e+00
-7.635356e+00
-7.895385e+00
-8.151714e+00
-8.404250e+00
-8.652935e+00
-8.897585e+00
-9.137835e+00
-9.373268e+00
-9.603592e+00
-9.828701e+00
-1.004860e+01
-1.026321e+01
-1.047228e+01
-1.067547e+01
-1.087256e+01
-1.106357e+01
-1.124862e+01
-1.142776e+01
-1.160092e+01
-1.176803e+01
-1.192907e+01
-1.208410e+01
-1.223320e+01
-1.237644e+01
-1.251390e+01
-1.264560e+01
-1.277155e+01
-1.289170e+01
-1.300599e+01
-1.311439e+01
-1.321691e+01
-1.331351e+01
-1.340416e+01
-1.348889e+01
-1.356777e+01
-1.364082e+01
-1.370793e+01
-1.376884e+01
-1.382317e+01
-1.387068e+01
-1.391120e+01
-1.394461e+01
-1.397081e+01
-1.398979e+01
-1.400168e+01
-1.400670e+01
-1.400512e+01
-1.399720e+01
-1.398310e+01
-1.396282e+01
-1.393625e+01
-1.390337e+01
-1.386446e+01
-1.382014e+01
-1.377133e+01
-1.371898e+01
-1.366385e+01
-1.360641e+01
-1.354703e+01
-1.348604e+01
-1.342376e+01
-1.336049e+01
-1.329651e+01
-1.323202e+01
-1.316709e+01
-1.310167e+01
-1.303577e+01
-1.296953e+01
-1.290317e+01
-1.283682e+01
-1.277047e+01
-1.270398e+01
-1.263721e+01
-1.256992e+01
-1.250186e+01
-1.243266e+01
-1.236197e+01
-1.228949e+01
-1.221505e+01
-1.213856e+01
-1.205993e+01
-1.197914e+01
-1.189619e+01
-1.181116e+01
-1.172410e+01
-1.163506e+01
-1.154412e+01
-1.145151e+01
-1.135758e+01
-1.126275e+01
-1.116744e+01
-1.107205e+01
-1.097690e+01
-1.088223e+01
-1.078820e+01
-1.069499e+01
-1.060294e+01
-1.051259e+01
-1.042456e+01
-1.033943e+01
-1.025754e+01
-1.017904e+01
-1.010386e+01
-1.003172e+01
-9.962136e+00
-9.894443e+00
-9.827805e+00
-9.761331e+00
-9.694236e+00
-9.625973e+00
-9.556227e+00
-9.484763e+00
-9.411328e+00
-9.335687e+00
-9.257617e+00
-9.176881e+00
-9.093284e+00
-9.006731e+00
-8.917183e+00
-8.824667e+00
-8.729336e+00
-8.631435e+00
-8.531186e+00
-8.428723e+00
-8.324157e+00
-8.217670e+00
-8.109534e+00
-7.999992e+00
-7.889155e+00
-7.776997e+00
-7.663392e+00
-7.548153e+00
-7.431135e+00
-7.312343e+00
-7.191899e+00
-7.069891e+00
-6.946361e+00
-6.821460e+00
-6.695566e+00
-6.569201e+00
-6.442855e+00
-6.316864e+00
-6.191419e+00
-6.066637e+00
-5.942612e+00
-5.819385e+00
-5.696901e+00
-5.575031e+00
-5.453642e+00
-5.332627e+00
-5.211819e+00
-5.090889e+00
-4.969361e+00
-4.846737e+00
-4.722601e+00
-4.596598e+00
-4.468349e+00
-4.337447e+00
-4.203565e+00
-4.066548e+00
-3.926371e+00
-3.783033e+00
-3.636555e+00
-3.487086e+00
-3.334914e+00
-3.180318e+00
-3.023400e+00
-2.864092e+00
-2.702314e+00
-2.538152e+00
-2.371906e+00
-2.204033e+00
-2.035066e+00
-1.865549e+00
-1.695997e+00
-1.526833e+00
-1.358344e+00
-1.190719e+00
-1.024146e+00
-8.588276e-01
-6.949063e-01
-5.324495e-01
-3.715722e-01
-2.125358e-01
-5.569989e-02
9.861624e-02
2.502453e-01
3.991972e-01
5.456182e-01
6.897247e-01
8.317362e-01
9.718099e-01
1.109967e+00
1.246018e+00
1.379584e+00
1.510219e+00
1.637545e+00
1.761239e+00
1.880964e+00
1.996379e+00
2.107209e+00
2.213278e+00
2.314467e+00
2.410704e+00
2.501967e+00
2.588285e+00
2.669730e+00
2.746461e+00
2.818762e+00
2.887031e+00
2.951709e+00
3.013197e+00
3.071782e+00
3.127609e+00
3.180692e+00
3.230936e+00
3.278175e+00
3.322221e+00
3.362926e+00
3.400245e+00
3.434294e+00
3.465368e+00
3.493901e+00
3.520391e+00
3.545380e+00
