EVENT_NAME: EMILIA_2ND_SHOCK
EVENT_ID: IT-2012-0011
EVENT_DATE_YYYYMMDD: 20120529
EVENT_TIME_HHMMSS: 070002
EVENT_LATITUDE_DEGREE: 44.8417
EVENT_LONGITUDE_DEGREE: 11.0657
EVENT_DEPTH_KM: 8.1
HYPOCENTER_REFERENCE: INGV-CNT_Seismic_Bulletin
MAGNITUDE_W: 6.0
MAGNITUDE_W_REFERENCE: RCMT-INGV
MAGNITUDE_L: 5.8
MAGNITUDE_L_REFERENCE: INGV-CNT_Seismic_Bulletin
FOCAL_MECHANISM: TF
NETWORK: IT
STATION_CODE: MOG0
STATION_NAME: MOGLIA
STATION_LATITUDE_DEGREE: 44.932000
STATION_LONGITUDE_DEGREE: 10.912000
STATION_ELEVATION_M: 92
LOCATION: 
SENSOR_DEPTH_M: 0.0
VS30_M/S: 
SITE_CLASSIFICATION_EC8: C*
MORPHOLOGIC_CLASSIFICATION: 
EPICENTRAL_DISTANCE_KM: 15.8
EARTHQUAKE_BACKAZIMUTH_DEGREE: 129.5
DATE_TIME_FIRST_SAMPLE_YYYYMMDD_HHMMSS: 20120529_065953.000
DATE_TIME_FIRST_SAMPLE_PRECISION: seconds
SAMPLING_INTERVAL_S: 0.005000
NDATA: 23000
DURATION_S: 115.000
STREAM: HNZ
UNITS: cm/s
INSTRUMENT: sensor = Episensor FBA ES-T [Kinemetrics] | digitizer = Etna [Kinemetrics]
INSTRUMENT_ANALOG/DIGITAL: D
INSTRUMENTAL_FREQUENCY_HZ: 
INSTRUMENTAL_DAMPING: 
FULL_SCALE_G: 
N_BIT_DIGITAL_CONVERTER: 18
PGV_CM/S: -4.997663
TIME_PGV_S: 20.935000
BASELINE_CORRECTION: BASELINE REMOVED
FILTER_TYPE: BUTTERWORTH
FILTER_ORDER: 2
LOW_CUT_FREQUENCY_HZ: 0.080
HIGH_CUT_FREQUENCY_HZ: 40.000
LATE/NORMAL_TRIGGERED: NT
DATABASE_VERSION: DYNA 1.0
HEADER_FORMAT: DYNA 1.2
DATA_TYPE: VELOCITY
PROCESSING: manual (Paolucci et al., 2011)
DATA_TIMESTAMP_YYYYMMDD_HHMMSS: 20141204_103647.358
DATA_LICENSE: CC-BY3_0-IT (http://creativecommons.org/licenses/by/3.0/deed.en)
DATA_CITATION: ESM working group (2015), European Strong-Motion database, version 0.1, Network Activity 3: Networking acceleration networks and SM data users. Project NERA (www.nera-eu.org)
DATA_CREATOR: ESM working group
ORIGINAL_DATA_MEDIATOR_CITATION: Ufficio Rischio Sismico e Vulcanico del Dipartimento della Protezione Civile (http://www.protezionecivile.gov.it/)
ORIGINAL_DATA_MEDIATOR: Rete Accelerometrica Nazionale - RAN Download (http://www.mot1.it/randownload/)
ORIGINAL_DATA_CREATOR_CITATION: Italian Strong Motion Network, Italian Civil Protection Department http://www.protezionecivile.gov.it
ORIGINAL_DATA_CREATOR: network: IT (Italian Strong Motion Network); owner: Dipartimento Della Protezione Civile
USER1: /home/dyna/processing-itaca/processing.py /var/www/processing/tmp/fpacor//IT.MOG0..HNE.D.20120529.070003.X.ACC.ASC /var/www/processing/tmp/fpacor//IT.MOG0..HNN.D.20120529.070003.X.ACC.ASC /var/www/processing/tmp/fpacor//IT.MOG0..HNZ.D.20120529.070003.X.ACC.ASC --tmp /var/www/processing/tmp/fpacor/ --le 0.080 --he 40.000 --ln 0.080 --hn 40.000 --lz 0.080 --hz 40.000 --fo 2 --ca -10 --cz 30 --ta 5 --tz 5 --mf 1 --rf 0 --tr NT
USER2: 
USER3: 
USER4: 
USER5: 
[...]
0.373535
0.390373
0.389063
0.372611
0.344771
0.310089
0.274842
0.244811
0.220660
0.195692
0.158116
0.097273
0.011872
-0.086142
-0.177376
-0.245548
-0.283650
-0.293269
-0.280847
-0.254557
-0.222047
-0.187993
-0.152975
-0.115443
-0.073517
-0.023643
0.038652
0.111639
0.181971
0.230742
0.246646
0.233236
0.204717
0.175730
0.153910
0.139177
0.126822
0.110391
0.084794
0.051180
0.020376
0.009974
0.035336
0.100005
0.191373
0.284004
0.348719
0.364196
0.326979
0.252759
0.166190
0.088981
0.035483
0.011473
0.012200
0.025336
0.039158
0.047667
0.050525
0.051319
0.053666
0.056280
0.053258
0.040158
0.018439
-0.006115
-0.028289
-0.046858
-0.064373
-0.084274
-0.106795
-0.126147
-0.130903
-0.105656
-0.034835
0.087325
0.247204
0.414119
0.552277
0.632353
0.640639
0.585725
0.495551
0.402047
0.325206
0.269144
0.228027
0.193702
0.161474
0.130515
0.098490
0.059823
0.012112
-0.039600
-0.087148
-0.125464
-0.154971
-0.180598
-0.206852
-0.231139
-0.244410
-0.240616
-0.222061
-0.193853
-0.157200
-0.109736
-0.049223
0.024560
0.110145
0.204901
0.303868
0.398487
0.479694
0.543663
0.591977
0.625505
0.640041
0.627163
0.578941
0.494729
0.384487
0.264511
0.150362
0.052201
-0.028096
-0.097416
-0.166618
-0.240808
-0.311193
-0.358998
-0.371169
-0.349439
-0.301702
-0.231356
-0.141390
-0.047382
0.016077
0.005415
-0.105501
-0.301934
-0.535427
-0.756813
-0.935445
-1.049023
-1.075110
-1.004750
-0.854856
-0.659810
-0.457644
-0.282779
-0.157484
-0.088051
-0.075672
-0.122596
-0.220283
-0.344774
-0.471774
-0.584767
-0.667594
-0.706281
-0.701653
-0.670280
-0.634086
-0.610178
-0.598963
-0.576709
-0.507290
-0.365467
-0.150573
0.113861
0.388194
0.629897
0.804886
0.888074
0.861154
0.721140
0.491924
0.221712
-0.033419
-0.229864
-0.353333
-0.419988
-0.456865
-0.480353
-0.490375
-0.477809
-0.440486
-0.398521
-0.386101
-0.420098
-0.482347
-0.534607
-0.545778
-0.508291
-0.435076
-0.345121
-0.258234
-0.197153
-0.175864
-0.185188
-0.200414
-0.199087
-0.170151
-0.120410
-0.079016
-0.088357
-0.184610
-0.379901
-0.649907
-0.935425
-1.167747
-1.302069
-1.331020
-1.272342
-1.145624
-0.958972
-0.716415
-0.432377
-0.136344
0.128739
0.313763
0.387289
0.361920
0.289477
0.224531
0.193971
0.196318
0.216328
0.234502
0.234526
0.217222
0.206482
0.229167
0.288274
0.363723
0.433663
0.483518
0.501937
0.482127
0.424461
0.332273
0.209777
0.067314
-0.071273
-0.168783
-0.193977
-0.152287
-0.094951
-0.086243
-0.153107
-0.263958
-0.350977
-0.348726
-0.225520
-0.001864
0.255046
0.465686
0.574365
0.559615
0.430946
0.227744
0.003928
-0.203493
-0.386093
-0.544768
-0.673043
-0.761038
-0.801848
-0.789356
-0.721159
-0.609713
-0.481704
-0.359788
-0.245535
-0.117355
0.055068
0.285526
0.554055
0.815190
1.024179
1.155871
1.204018
1.175316
1.090261
0.979647
0.872625
0.791126
0.749557
0.746050
0.755756
0.745452
0.699809
0.636868
0.604640
0.654823
0.801520
1.004017
1.198339
1.343624
1.437340
1.496753
1.535351
1.557364
1.566387
1.568759
1.568491
1.563399
1.543252
1.490376
1.389721
1.244547
1.079140
0.918342
0.763681
0.595652
0.395645
0.156716
-0.119041
-0.420273
-0.726055
-1.010997
-1.248200
-1.410532
-1.479931
-1.461847
-1.388571
-1.303283
-1.238274
-1.206112
-1.204400
-1.222500
-1.243720
-1.245429
-1.206556
-1.124419
-1.022991
-0.938290
-0.893796
-0.889992
-0.916777
-0.970956
-1.054067
-1.155246
-1.244184
-1.283418
-1.252575
-1.166907
-1.066923
-0.982753
-0.910126
-0.819673
-0.683740
-0.497149
-0.278254
-0.051572
0.165876
0.359530
0.507711
0.582771
0.561302
0.435406
0.216434
-0.068389
-0.380187
-0.677289
-0.926329
-1.102387
-1.187524
-1.184577
-1.127270
-1.061996
-1.019070
-1.003131
-1.000185
-0.987647
-0.945637
-0.866684
-0.762547
-0.670313
-0.645432
-0.731146
-0.923405
-1.161483
-1.356579
-1.440811
-1.394179
-1.226868
-0.949340
-0.573175
-0.135252
0.293667
0.632634
0.831680
0.900388
0.898049
0.892954
0.928496
1.016554
1.141885
1.261203
1.308348
1.220372
0.970688
0.581854
0.117349
-0.330456
-0.662113
-0.813059
-0.789497
-0.662915
-0.522494
-0.420416
-0.354476
-0.298948
-0.250994
-0.249956
-0.344273
-0.532113
-0.748252
-0.919048
-1.017982
-1.062894
-1.072745
-1.036314
-0.922035
-0.719413
-0.477725
-0.305385
-0.317076
-0.564332
-1.009975
-1.559716
-2.108442
-2.569060
-2.883529
-3.020129
-2.964159
-2.717366
-2.309146
-1.800977
-1.266268
-0.755118
-0.278159
0.171061
0.580276
0.911440
1.130169
1.236066
1.259390
1.228762
1.141673
0.967342
0.684788
0.320688
-0.054881
-0.373865
-0.607212
-0.753167
-0.800562
-0.717487
-0.475867
-0.085335
0.393777
0.871344
1.266278
1.534929
1.678238
1.730476
1.734690
1.719946
1.688988
1.609946
1.422713
1.076393
0.574417
-0.014148
-0.585524
-1.051415
-1.373767
-1.558757
-1.625700
-1.590074
-1.472502
-1.312236
-1.159673
-1.050689
-0.996718
-1.001197
-1.065436
-1.169922
-1.269189
-1.318035
-1.299133
-1.224062
-1.109771
-0.952758
-0.723492
-0.387589
0.059497
0.571022
1.062884
1.455773
1.711938
1.842254
1.886533
1.885624
1.866756
1.846712
1.833131
1.813600
1.754761
1.630420
1.456373
1.294941
1.224586
1.297447
1.508464
1.799370
2.098874
2.356098
2.539429
2.629097
2.620800
2.522434
2.348235
2.124965
1.889309
1.663858
1.443691
1.209831
0.944621
0.638398
0.297301
-0.054910
-0.390035
-0.689396
-0.942141
-1.133682
-1.243607
-1.257549
-1.175127
-1.005549
-0.766585
-0.492698
-0.234107
-0.039410
0.063133
0.074318
0.020363
-0.063267
-0.148368
-0.212715
-0.226844
-0.157669
0.003161
0.215606
0.400860
0.483634
0.441744
0.324844
0.223457
0.215404
0.327783
0.523735
0.715724
0.810780
0.764518
0.602505
0.396788
0.220073
0.110849
0.072306
0.097918
0.190756
0.350621
0.542575
0.694201
0.742301
0.682567
0.566221
0.451445
0.361477
0.281411
0.185838
0.069789
-0.040911
-0.104603
-0.087497
0.024060
0.224080
0.487266
0.768656
1.014991
1.184291
1.254926
1.221216
1.091741
0.895938
0.682293
0.498654
0.372065
0.304263
0.277098
0.261268
0.229232
0.167839
0.088795
0.036888
0.077440
0.252061
0.540366
0.872586
1.176706
1.409513
1.555990
1.613443
1.576736
1.438554
1.206902
0.920783
0.645299
0.448797
0.379374
0.453863
0.659592
0.962606
1.316069
1.668551
1.976627
2.214162
2.366773
2.424678
2.390585
2.287681
2.148103
1.990026
1.804735
1.567563
1.268101
0.930183
0.593363
0.273750
-0.046189
-0.385880
-0.730651
-1.028937
-1.225021
-1.296403
-1.260587
-1.151185
-0.994917
-0.810193
-0.619894
-0.457467
-0.350653
-0.294642
-0.249311
-0.170484
-0.041267
0.126616
0.309832
0.483954
0.625521
0.714527
0.737282
0.690516
0.592237
0.488519
0.435352
0.465356
0.575184
0.741628
0.938835
1.138749
1.304348
1.391638
1.364837
1.215560
0.974215
0.708169
0.500147
0.405474
0.418094
0.483977
0.548798
0.589937
0.614957
0.644482
0.694681
0.767454
0.851985
0.931924
0.991733
1.018454
0.999736
0.926903
0.803324
0.646100
0.478879
0.325332
0.209110
0.156325
0.191290
0.321570
0.521845
0.735211
0.901689
0.995736
1.038002
1.069348
1.111702
1.149320
1.141589
1.051499
0.867235
0.607955
0.317471
0.048753
-0.156922
-0.283370
-0.338931
-0.349908
-0.352392
-0.380215
-0.452546
-0.563421
-0.678499
-0.757719
-0.791967
-0.805450
-0.821626
-0.839509
-0.837261
-0.790246
-0.696346
-0.590603
-0.526410
-0.537343
-0.614920
-0.713945
-0.777283
-0.767346
-0.686152
-0.572807
-0.484597
-0.473417
-0.564778
-0.746595
-0.975091
-1.194109
-1.355688
-1.435209
-1.437478
-1.388978
-1.320585
-1.253529
-1.195833
-1.148012
-1.111365
-1.088084
-1.070192
-1.032744
-0.947558
-0.808551
-0.644672
-0.510490
-0.461755
-0.528426
-0.700212
-0.935030
-1.181104
-1.391593
-1.527517
-1.563672
-1.501798
-1.372825
-1.215687
-1.052075
-0.884292
-0.711992
-0.545166
-0.403916
-0.306685
-0.256398
-0.241995
-0.256261
-0.305963
-0.398525
-0.521209
-0.641001
-0.726286
-0.761208
-0.739121
-0.654302
-0.506538
-0.311383
-0.104885
0.065292
0.162788
0.183174
0.153259
0.110089
0.076870
0.051405
0.013676
-0.053355
-0.147558
-0.247374
-0.320955
-0.337031
-0.276826
-0.141959
0.048169
0.265786
0.483797
0.683873
0.860704
1.014322
1.135091
1.198776
1.177298
1.055291
0.841866
0.570351
0.285425
0.027722
-0.174036
-0.303335
-0.353502
-0.325683
-0.227776
-0.074476
0.112306
0.306557
0.486256
0.638694
0.757455
0.839988
0.893589
0.938860
0.998859
1.085325
1.199060
1.337701
1.494900
1.654537
1.791549
1.879354
1.900381
1.856341
1.768191
1.662796
1.558978
1.462593
1.371215
1.287377
1.229123
1.221893
1.274843
1.362514
1.429405
1.416598
1.291374
1.061546
0.769060
0.465615
0.186138
-0.055865
-0.251131
-0.383034
-0.436230
-0.412889
-0.339782
-0.258348
-0.200801
-0.170597
-0.146218
-0.102961
-0.029489
0.071059
0.187333
0.307225
0.424286
0.535861
0.632525
0.694901
0.708972
0.684005
0.649254
0.633320
0.651452
0.708444
0.800955
0.913446
1.021943
1.109774
1.179800
1.250710
1.339410
1.442114
1.530492
1.568861
1.539193
1.453990
1.349030
1.263974
1.224973
1.236990
1.284281
1.335833
1.355869
1.319282
1.225075
1.097291
0.971998
0.880481
0.839093
0.849212
0.904823
1.000313
1.130531
1.283553
1.434258
1.547911
1.597788
1.584735
1.535951
1.480735
1.428778
1.370722
1.294085
1.196018
1.082774
0.961599
0.836993
0.712923
0.595632
0.498504
0.447190
0.470464
0.577271
0.744926
0.928942
1.082796
1.177865
1.211412
1.195243
1.141993
1.065915
0.986524
0.919000
0.860816
0.792921
0.694921
0.560386
0.402034
0.245386
0.117469
0.037274
0.009739
0.025759
0.068844
0.121076
0.163406
0.175960
0.144885
0.070380
-0.035228
-0.158816
-0.295003
-0.442554
-0.592685
-0.725447
-0.822237
-0.881881
-0.923886
-0.975004
-1.047576
-1.126860
-1.180950
-1.184687
-1.134904
-1.047303
-0.943296
-0.840587
-0.754104
-0.699302
-0.687689
-0.718981
-0.778747
-0.842275
-0.884977
-0.896352
-0.883208
-0.856983
-0.824295
-0.792173
-0.768543
-0.750288
-0.722105
-0.669454
-0.585822
-0.471132
-0.328646
-0.164868
0.004736
0.151550
0.244792
0.275670
0.268851
0.262574
0.278759
0.314724
0.353770
0.376609
0.371056
0.341101
0.307954
0.297941
0.324267
0.378111
0.438046
0.487213
0.519398
0.530559
0.509659
0.439830
0.306048
0.101039
-0.173044
-0.506240
-0.882590
-1.279386
-1.669086
-2.029284
-2.348725
-2.618869
-2.827628
-2.968927
-3.052940
-3.098298
-3.109624
-3.063507
-2.919944
-2.650421
-2.256782
-1.766312
-1.218765
-0.663970
-0.159910
0.244578
0.531465
0.716842
0.833389
0.908898
0.957029
0.982934
0.990871
0.982968
0.956960
0.912777
0.858924
0.807205
0.764623
0.734833
0.721870
0.726036
0.740057
0.754315
0.762908
0.761357
0.740474
0.684742
0.576143
0.399155
0.145936
-0.175294
-0.532601
-0.876653
-1.162579
-1.366400
-1.483096
-1.521398
-1.507468
-1.484937
-1.497848
-1.565909
-1.674547
-1.787206
-1.865937
-1.887756
-1.854558
-1.790324
-1.721798
-1.658702
-1.591062
-1.499170
-1.363599
-1.172546
-0.928572
-0.653514
-0.384951
-0.159152
0.009160
0.132171
0.237306
0.351300
0.489624
0.653945
0.836518
1.027035
1.217331
1.403298
1.585728
1.767969
1.950120
2.128035
2.297773
2.454762
2.588841
2.686542
2.739315
2.748439
2.724721
2.684923
2.645009
2.611533
2.576574
2.521240
2.426152
2.283321
2.104006
1.915839
1.746658
1.605373
1.476947
1.336477
1.167109
0.965968
0.742198
0.515663
0.310506
0.143064
0.019124
-0.061690
-0.111176
-0.157028
-0.228841
-0.339307
-0.477756
-0.613259
-0.706450
-0.733588
-0.707221
-0.672189
-0.684301
-0.788309
-0.994578
-1.265379
-1.537917
-1.771059
-1.961147
-2.112818
-2.212038
-2.235299
-2.177421
-2.063467
-1.934729
-1.829520
-1.773155
-1.768895
-1.793882
-1.815682
-1.815354
-1.788141
-1.727525
-1.620352
-1.457583
-1.246120
-1.011783
-0.788060
-0.593859
-0.418967
-0.231704
-0.001524
0.282088
0.607632
0.953593
1.299168
1.626001
1.916864
2.154573
2.319325
2.389248
2.349051
2.202311
1.978671
1.727325
1.496071
1.310158
1.167936
1.054080
0.957537
0.881738
0.840296
0.843897
0.892425
0.975631
1.076313
1.176331
1.265852
1.343339
1.403530
1.435187
1.434441
1.409349
1.367889
1.311108
1.240925
1.166050
1.096110
1.034602
0.980686
0.937189
0.914971
0.927943
0.983763
1.076698
1.187226
1.288839
1.354643
1.361809
1.297677
1.163786
0.973229
0.747638
0.516659
0.309417
0.139046
-0.003361
-0.139244
-0.285826
-0.447226
-0.623051
-0.822010
-1.058951
-1.336042
-1.629247
-1.893010
-2.080341
-2.168978
-2.177721
-2.156654
-2.154363
-2.188067
-2.242009
-2.291874
-2.326439
-2.345628
-2.345392
-2.312643
-2.238458
-2.135618
-2.040382
-1.994275
-2.020306
-2.115443
-2.268455
-2.481861
-2.769936
-3.136163
-3.558417
-3.995560
-4.400205
-4.724654
-4.929238
-4.997663
-4.945342
-4.810477
-4.632898
-4.437144
-4.233327
-4.026498
-3.817260
-3.596705
-3.346961
-3.044633
-2.664526
-2.192317
-1.636985
-1.027150
-0.406274
0.171541
0.660721
1.038172
1.301865
1.469475
1.573302
1.651731
1.744886
1.887959
2.096661
2.353332
2.612426
2.827692
2.972604
3.037082
3.022029
2.944127
2.831692
2.706650
2.570355
2.407023
2.206842
1.985735
1.775448
1.599652
1.464723
1.362998
1.277708
1.192325
1.104068
1.027059
0.975298
0.941757
0.900252
0.827779
0.715670
0.558291
0.345019
0.071241
-0.250409
-0.593553
-0.923618
-1.199676
-1.388691
-1.487686
-1.523746
-1.530066
-1.531649
-1.553827
-1.630177
-1.794330
-2.062343
-2.415183
-2.795953
-3.132707
-3.369534
-3.481081
-3.468337
-3.346988
-3.143823
-2.902047
-2.668287
-2.458087
-2.247576
-2.010677
-1.751661
-1.500119
-1.287098
-1.121589
-0.986098
-0.858282
-0.731881
-0.614651
-0.515724
-0.444647
-0.416901
-0.449397
-0.550680
-0.717404
-0.935907
-1.183194
-1.431667
-1.657658
-1.839215
-1.950915
-1.978933
-1.937240
-1.853659
-1.749520
-1.643090
-1.554130
-1.495185
-1.473606
-1.499949
-1.573424
-1.657119
-1.685828
-1.607902
-1.417265
-1.151764
-0.867733
-0.604956
-0.368024
-0.146155
0.058816
0.240881
0.414669
0.603875
0.808414
1.010155
1.204062
1.399213
1.595451
1.774856
1.917435
2.018637
2.086470
2.122953
2.113358
2.036050
1.882555
1.668925
1.427709
1.191687
0.985748
0.820657
0.687057
0.562861
0.427753
0.270137
0.088018
-0.114463
-0.332012
-0.555651
-0.771431
-0.968756
-1.144169
-1.298056
-1.434617
-1.558304
-1.665168
-1.746376
-1.800038
-1.833014
-1.855317
-1.874502
-1.894718
-1.919651
-1.946323
-1.961885
-1.964317
-1.978171
-2.035483
-2.146794
-2.293978
-2.444727
-2.572687
-2.667712
-2.733660
-2.781260
-2.818187
-2.841493
-2.844037
-2.828498
-2.807812
-2.790912
-2.774339
-2.748375
-2.703121
-2.624458
-2.493189
-2.298520
-2.052793
-1.789926
-1.545576
-1.333961
-1.143313
-0.954172
-0.758273
-0.559335
-0.363080
-0.171120
0.016542
0.195637
0.359290
0.506328
0.644717
0.786489
0.938107
1.094635
1.242142
1.365362
1.459157
1.533008
1.598094
1.653362
1.685248
1.675084
1.614045
1.514644
1.390698
1.224450
0.975177
0.623841
0.196363
-0.252141
-0.663361
-0.993529
-1.219458
-1.332859
-1.336700
-1.249306
-1.098901
-0.909594
-0.701672
-0.500997
-0.334642
-0.218216
-0.153261
-0.133993
-0.150045
-0.182001
-0.204183
-0.203636
-0.192676
-0.191084
-0.203187
-0.218691
-0.219593
-0.184674
-0.104752
0.003960
0.112900
0.209528
0.297994
0.374816
0.429814
0.464671
0.486139
0.490943
0.471922
0.428504
0.364521
0.279530
0.163303
0.003021
-0.199045
-0.415404
-0.603009
-0.725875
-0.772042
-0.754104
-0.698026
-0.628941
-0.560072
-0.489139
-0.404884
-0.301822
-0.190415
-0.091133
-0.019443
0.024502
0.052352
0.072063
0.078579
0.062669
0.026376
-0.012273
-0.030080
-0.017541
0.011410
0.032718
0.034841
0.025281
0.022246
0.046451
0.115183
0.237607
0.413591
0.632754
0.872882
1.108667
1.326759
1.523099
1.689402
1.816121
1.902389
1.952076
1.964925
1.937267
1.870458
1.777770
1.678256
1.580090
1.479234
1.377841
1.289685
1.221897
1.162379
1.093064
1.009589
0.919101
0.824050
0.718956
0.600712
0.473593
0.343996
0.216009
0.094150
-0.011555
-0.087018
-0.126219
-0.140929
-0.152343
-0.174446
-0.208945
-0.253646
-0.310111
-0.379209
-0.451735
-0.509643
-0.538953
-0.540426
-0.526161
-0.506630
-0.485013
-0.462109
-0.439352
-0.418373
-0.401569
-0.385792
-0.354038
-0.289290
-0.196383
-0.095946
-0.006825
0.061020
0.112624
0.164004
0.223784
0.284554
0.329999
0.345771
0.329314
0.293616
0.261698
0.254762
0.279512
0.327939
0.391028
0.468862
0.568111
0.688635
0.811429
0.906609
0.956530
0.968555
0.965366
0.965080
0.968813
0.960787
0.919469
0.834093
0.711988
0.569874
0.420520
0.267384
0.110890
-0.039917
-0.165247
-0.246133
-0.276243
-0.262991
-0.219416
-0.155034
-0.074621
0.013266
0.090431
0.135605
0.132055
0.066219
-0.068246
-0.254027
-0.450281
-0.622954
-0.765269
-0.879440
-0.953919
-0.972711
-0.934222
-0.850611
-0.738485
-0.612326
-0.479630
-0.339675
-0.185409
-0.009781
0.184685
0.383641
0.566163
0.709630
0.795874
0.819121
0.788559
0.722674
0.640418
0.553693
0.463844
0.366961
0.264113
0.164834
0.084027
0.037827
0.034680
0.062900
0.096060
0.122849
0.160879
0.233809
0.347185
0.483020
0.611019
0.711280
0.781272
0.821849
0.831591
0.814464
0.782259
0.746340
0.710465
0.673992
0.638339
0.607828
0.586710
0.578279
0.586468
0.614530
0.663125
0.733678
0.832377
0.969508
1.154936
1.390603
1.663478
1.944823
2.197800
2.391050
2.510729
2.561721
2.558011
2.510696
2.421487
2.285430
2.099406
1.868044
1.602517
1.315323
1.016539
0.714340
0.419407
0.147420
-0.085794
-0.270898
-0.407164
-0.501630
-0.565006
-0.604188
-0.620206
-0.616899
-0.607760
-0.608431
-0.625890
-0.660211
-0.711242
-0.777366
-0.853636
-0.936419
-1.024683
-1.114055
-1.194307
-1.254070
-1.285916
-1.288702
-1.266400
-1.221031
-1.146081
-1.031886
-0.878362
-0.695706
-0.492168
-0.271699
-0.044421
0.171918
0.361736
0.515545
0.625716
0.686068
0.698394
0.674742
0.628703
0.565192
0.481433
0.377449
0.262013
0.147697
0.043246
-0.047428
-0.118929
-0.158749
-0.151231
-0.089108
0.018961
0.151958
0.286699
0.405699
0.499344
0.564522
0.602063
0.614120
0.601662
0.562131
0.490067
0.382179
0.241632
0.077388
-0.099087
-0.277261
-0.448695
-0.603956
-0.728513
-0.803192
