EVENT_NAME: EMILIA_2ND_SHOCK
EVENT_ID: IT-2012-0011
EVENT_DATE_YYYYMMDD: 20120529
EVENT_TIME_HHMMSS: 070002
EVENT_LATITUDE_DEGREE: 44.8417
EVENT_LONGITUDE_DEGREE: 11.0657
EVENT_DEPTH_KM: 8.1
HYPOCENTER_REFERENCE: INGV-CNT_Seismic_Bulletin
MAGNITUDE_W: 6.0
MAGNITUDE_W_REFERENCE: RCMT-INGV
MAGNITUDE_L: 5.8
MAGNITUDE_L_REFERENCE: INGV-CNT_Seismic_Bulletin
FOCAL_MECHANISM: TF
NETWORK: IT
STATION_CODE: MRN
STATION_NAME: MIRANDOLA (NAPOLI)
STATION_LATITUDE_DEGREE: 44.878231
STATION_LONGITUDE_DEGREE: 11.061743
STATION_ELEVATION_M: 15
LOCATION: 
SENSOR_DEPTH_M: 0.0
VS30_M/S: 208
SITE_CLASSIFICATION_EC8: C
MORPHOLOGIC_CLASSIFICATION: 
EPICENTRAL_DISTANCE_KM: 4.1
EARTHQUAKE_BACKAZIMUTH_DEGREE: 175.6
DATE_TIME_FIRST_SAMPLE_YYYYMMDD_HHMMSS: 20120529_065948.000
DATE_TIME_FIRST_SAMPLE_PRECISION: seconds
SAMPLING_INTERVAL_S: 0.005000
NDATA: 105
DURATION_S: 
STREAM: HNE
UNITS: cm
INSTRUMENT: sensor = MS2007+ [Syscom] | digitizer = 130-01/3 [Reftek]
INSTRUMENT_ANALOG/DIGITAL: D
INSTRUMENTAL_FREQUENCY_HZ: 
INSTRUMENTAL_DAMPING: 
FULL_SCALE_G: 
N_BIT_DIGITAL_CONVERTER: 24
PGD_CM: 9.166983
TIME_PGD_S: 20.255000
BASELINE_CORRECTION: BASELINE REMOVED
FILTER_TYPE: BUTTERWORTH
FILTER_ORDER: 2
LOW_CUT_FREQUENCY_HZ: 0.070
HIGH_CUT_FREQUENCY_HZ: 40.000
LATE/NORMAL_TRIGGERED: NT
DATABASE_VERSION: DYNA 1.0
HEADER_FORMAT: DYNA 1.2
DATA_TYPE: DISPLACEMENT RESPONSE SPECTRUM
PROCESSING: manual (Paolucci et al., 2011)
DATA_TIMESTAMP_YYYYMMDD_HHMMSS: 20141204_104205.354
DATA_LICENSE: CC-BY3_0-IT (http://creativecommons.org/licenses/by/3.0/deed.en)
DATA_CITATION: ESM working group (2015), European Strong-Motion database, version 0.1, Network Activity 3: Networking acceleration networks and SM data users. Project NERA (www.nera-eu.org)
DATA_CREATOR: ESM working group
ORIGINAL_DATA_MEDIATOR_CITATION: Ufficio Rischio Sismico e Vulcanico del Dipartimento della Protezione Civile (http://www.protezionecivile.gov.it/)
ORIGINAL_DATA_MEDIATOR: Rete Accelerometrica Nazionale - RAN Download (http://www.mot1.it/randownload/)
ORIGINAL_DATA_CREATOR_CITATION: Italian Strong Motion Network, Italian Civil Protection Department http://www.protezionecivile.gov.it
ORIGINAL_DATA_CREATOR: network: IT (Italian Strong Motion Network); owner: Dipartimento Della Protezione Civile
USER1: /home/dyna/processing-itaca/processing.py /var/www/processing/tmp/fpacor//IT.MRN..HNE.D.20120529.070003.X.ACC.ASC /var/www/processing/tmp/fpacor//IT.MRN..HNN.D.20120529.070003.X.ACC.ASC /var/www/processing/tmp/fpacor//IT.MRN..HNZ.D.20120529.070003.X.ACC.ASC --tmp /var/www/processing/tmp/fpacor/ --le 0.070 --he 40.000 --ln 0.070 --hn 40.000 --lz 0.070 --hz 40.000 --fo 2 --ca -15 --cz 100 --ta 5 --tz 5 --mf 1 --rf 0 --tr NT
USER2: 
USER3: 
USER4: 
USER5: 
    0.010000     0.000557
    0.020000     0.002382
    0.022000     0.002883
    0.025000     0.003719
    0.029000     0.005808
    0.030000     0.006383
    0.032000     0.007633
    0.035001     0.010228
    0.036000     0.011367
    0.040000     0.016921
    0.041999     0.018556
    0.044001     0.021649
    0.045000     0.024199
    0.046000     0.027093
    0.048001     0.030911
    0.050000     0.034384
    0.054999     0.047670
    0.059999     0.061969
    0.064998     0.067079
    0.067002     0.068700
    0.069999     0.075021
    0.075002     0.073079
    0.080000     0.080536
    0.084998     0.076924
    0.090001     0.102002
    0.095003     0.134674
    0.100000     0.203036
    0.109999     0.269679
    0.120005     0.293513
    0.130005     0.243753
    0.132996     0.263558
    0.139997     0.290065
    0.149993     0.401259
    0.160000     0.498309
    0.170010     0.488441
    0.179986     0.650856
    0.190006     0.722911
    0.200000     0.671350
    0.220022     0.590692
    0.239981     0.923059
    0.250000     0.927950
    0.260010     0.876256
    0.280034     0.901148
    0.290023     1.022536
    0.300030     1.134615
    0.320000     1.193119
    0.340020     1.199320
    0.350017     1.345626
    0.359971     1.544017
    0.379939     1.725690
    0.400000     1.776475
    0.419992     1.754205
    0.439947     2.394130
    0.450045     2.582118
    0.459982     2.633367
    0.480077     2.342654
    0.500000     2.074694
    0.550055     2.614577
    0.599880     3.097390
    0.650195     3.286319
    0.667111     3.500423
    0.699790     3.762851
    0.750188     4.037123
    0.800000     3.630885
    0.850340     3.525156
    0.900090     3.709906
    0.949668     3.997530
    1.000000     4.246178
    1.100110     4.010595
    1.200480     4.941027
    1.300390     6.251061
    1.400560     8.047876
    1.499250    11.035770
    1.600000    14.157464
    1.700680    16.357376
    1.798561    17.020561
    1.901141    16.389400
    2.000000    17.469660
    2.197802    18.388325
    2.398082    18.799423
    2.500000    19.232838
    2.597403    19.371716
    2.801121    18.994377
    3.003003    18.179199
    3.205128    17.297762
    3.401361    16.832237
    3.496503    16.414433
    3.597122    15.921465
    3.802281    15.945135
    4.000000    16.153334
    4.201681    16.215664
    4.405286    16.180664
    4.608295    16.069616
    4.807692    15.875343
    5.000000    15.602051
    5.494505    14.786278
    5.988024    14.070249
    6.493506    13.404776
    6.993007    12.751969
    7.518797    12.217398
    8.000000    11.872477
    8.474576    11.686846
    9.009009    11.579807
    9.523809    11.481045
   10.000000    11.352351
