EVENT_NAME: EMILIA_2ND_SHOCK
EVENT_ID: IT-2012-0011
EVENT_DATE_YYYYMMDD: 20120529
EVENT_TIME_HHMMSS: 070002
EVENT_LATITUDE_DEGREE: 44.8417
EVENT_LONGITUDE_DEGREE: 11.0657
EVENT_DEPTH_KM: 8.1
HYPOCENTER_REFERENCE: INGV-CNT_Seismic_Bulletin
MAGNITUDE_W: 6.0
MAGNITUDE_W_REFERENCE: RCMT-INGV
MAGNITUDE_L: 5.8
MAGNITUDE_L_REFERENCE: INGV-CNT_Seismic_Bulletin
FOCAL_MECHANISM: TF
NETWORK: IT
STATION_CODE: MRN
STATION_NAME: MIRANDOLA (NAPOLI)
STATION_LATITUDE_DEGREE: 44.878231
STATION_LONGITUDE_DEGREE: 11.061743
STATION_ELEVATION_M: 15
LOCATION: 
SENSOR_DEPTH_M: 0.0
VS30_M/S: 208
SITE_CLASSIFICATION_EC8: C
MORPHOLOGIC_CLASSIFICATION: 
EPICENTRAL_DISTANCE_KM: 4.1
EARTHQUAKE_BACKAZIMUTH_DEGREE: 175.6
DATE_TIME_FIRST_SAMPLE_YYYYMMDD_HHMMSS: 20120529_070003.000
DATE_TIME_FIRST_SAMPLE_PRECISION: seconds
SAMPLING_INTERVAL_S: 0.005000
NDATA: 30713
DURATION_S: 153.565
STREAM: HNN
UNITS: cm/s^2
INSTRUMENT: sensor = MS2007+ [Syscom] | digitizer = 130-01/3 [Reftek]
INSTRUMENT_ANALOG/DIGITAL: D
INSTRUMENTAL_FREQUENCY_HZ: 
INSTRUMENTAL_DAMPING: 
FULL_SCALE_G: 
N_BIT_DIGITAL_CONVERTER: 24
PGA_CM/S^2: 289.369293
TIME_PGA_S: 6.490000
BASELINE_CORRECTION: BASELINE NOT REMOVED
FILTER_TYPE: 
FILTER_ORDER: 
LOW_CUT_FREQUENCY_HZ: 
HIGH_CUT_FREQUENCY_HZ: 
LATE/NORMAL_TRIGGERED: NT
DATABASE_VERSION: DYNA 1.0
HEADER_FORMAT: DYNA 1.2
DATA_TYPE: ACCELERATION
PROCESSING: converted to cm/s^2
DATA_TIMESTAMP_YYYYMMDD_HHMMSS: 
DATA_LICENSE: CC-BY3_0-IT (http://creativecommons.org/licenses/by/3.0/deed.en)
DATA_CITATION: ESM working group (2015), European Strong-Motion database, version 0.1, Network Activity 3: Networking acceleration networks and SM data users. Project NERA (www.nera-eu.org)
DATA_CREATOR: ESM working group
ORIGINAL_DATA_MEDIATOR_CITATION: Ufficio Rischio Sismico e Vulcanico del Dipartimento della Protezione Civile (http://www.protezionecivile.gov.it/)
ORIGINAL_DATA_MEDIATOR: Rete Accelerometrica Nazionale - RAN Download (http://www.mot1.it/randownload/)
ORIGINAL_DATA_CREATOR_CITATION: Italian Strong Motion Network, Italian Civil Protection Department http://www.protezionecivile.gov.it
ORIGINAL_DATA_CREATOR: network: IT (Italian Strong Motion Network); owner: Dipartimento Della Protezione Civile
USER1: 
USER2: 
USER3: 
USER4: 
USER5: 
[...]
-0.871223
-0.823562
-0.795533
-0.862218
-0.880298
-0.827030
-0.834519
-0.870671
-0.882832
-0.847636
-0.811503
-0.861987
-0.883496
-0.814961
-0.802509
-0.865144
-0.878863
-0.825907
-0.812207
-0.855838
-0.872984
-0.836852
-0.810379
-0.864290
-0.892653
-0.821937
-0.816651
-0.875236
-0.876804
-0.831637
-0.811082
-0.857828
-0.878402
-0.829807
-0.801465
-0.853819
-0.882494
-0.831406
-0.822069
-0.865388
-0.883157
-0.824904
-0.809335
-0.871347
-0.867930
-0.833356
-0.811557
-0.850202
-0.884172
-0.830905
-0.821256
-0.864574
-0.891691
-0.841228
-0.818804
-0.891098
-0.893290
-0.841268
-0.824765
-0.874937
-0.894887
-0.834765
-0.825428
-0.871550
-0.878726
-0.822655
-0.809579
-0.851027
-0.870356
-0.840766
-0.808997
-0.868516
-0.888779
-0.825539
-0.827108
-0.869803
-0.878538
-0.832746
-0.806585
-0.866104
-0.894468
-0.841822
-0.821893
-0.863342
-0.877373
-0.830959
-0.811028
-0.865251
-0.883956
-0.824455
-0.811691
-0.864980
-0.879323
-0.842256
-0.830116
-0.880911
-0.895253
-0.825161
-0.810216
-0.858206
-0.866941
-0.823643
-0.804024
-0.863855
-0.880067
-0.833965
-0.821201
-0.861092
-0.887586
-0.826841
-0.801302
-0.863314
-0.881084
-0.830309
-0.819725
-0.877998
-0.894833
-0.842811
-0.826308
-0.871496
-0.884280
-0.837244
-0.811082
-0.857204
-0.870924
-0.807685
-0.798348
-0.846652
-0.867226
-0.835455
-0.809916
-0.866322
-0.887517
-0.821164
-0.813696
-0.863869
-0.877276
-0.834290
-0.818722
-0.884161
-0.888845
-0.824983
-0.828110
-0.878906
-0.888263
-0.837488
-0.813818
-0.863991
-0.890485
-0.835347
-0.809497
-0.870886
-0.886786
-0.826041
-0.820753
-0.871239
-0.883399
-0.835429
-0.808020
-0.862866
-0.892475
-0.832976
-0.812734
-0.873811
-0.886908
-0.839871
-0.823680
-0.869490
-0.890999
-0.831187
-0.811881
-0.863611
-0.878266
-0.828113
-0.807872
-0.854304
-0.875813
-0.835320
-0.818194
-0.881764
-0.897352
-0.835360
-0.838798
-0.876195
-0.880256
-0.837894
-0.804876
-0.871563
-0.893694
-0.824536
-0.809591
-0.861945
-0.881896
-0.827693
-0.810566
-0.852638
-0.872589
-0.842377
-0.809049
-0.864519
-0.892881
-0.834629
-0.830900
-0.872036
-0.886691
-0.842770
-0.817542
-0.871766
-0.875826
-0.822246
-0.816026
-0.870561
-0.888019
-0.826650
-0.813261
-0.866238
-0.880269
-0.829805
-0.814548
-0.875938
-0.885607
-0.832651
-0.815835
-0.864450
-0.897486
-0.838299
-0.813695
-0.877577
-0.886935
-0.829303
-0.813424
-0.862039
-0.887598
-0.833707
-0.816581
-0.869868
-0.877357
-0.844341
-0.818491
-0.857758
-0.889860
-0.821014
-0.815726
-0.873066
-0.867779
-0.840371
-0.833839
-0.870302
-0.887138
-0.830442
-0.817054
-0.866603
-0.876273
-0.829236
-0.813045
-0.878172
-0.899681
-0.839871
-0.823990
-0.871358
-0.887882
-0.828071
-0.802532
-0.863298
-0.876706
-0.824061
-0.811296
-0.853057
-0.871139
-0.833448
-0.812273
-0.858395
-0.888938
-0.833179
-0.816675
-0.876506
-0.881190
-0.831973
-0.828866
-0.872497
-0.886526
-0.846344
-0.813639
-0.862566
-0.882829
-0.812735
-0.804957
-0.867905
-0.884739
-0.837703
-0.827119
-0.876668
-0.876056
-0.803159
-0.749579
-0.746784
-0.686351
-0.589464
-0.534325
-0.393194
-0.275121
-0.342741
-0.389175
-0.346189
-0.297284
-0.426905
-0.678040
-0.567754
-0.248407
-0.078613
0.003632
0.180905
0.740470
1.417500
1.434626
0.768794
0.604275
1.219613
0.835126
-1.065452
-1.817900
-0.237946
0.770281
0.399815
1.079648
2.789214
3.510798
1.571584
-2.022370
-3.416027
-1.990610
-0.255807
0.735594
0.659873
0.352033
1.238125
1.598600
-1.108942
-4.481683
-5.387733
-7.151846
-9.861257
-7.162771
-0.646636
2.417008
0.460971
-2.386777
-2.017267
-0.508661
-3.310919
-7.762933
-5.915029
0.108516
2.583918
0.878382
-0.801607
-0.565136
-0.953360
-3.013774
-4.656374
-4.312724
-2.172259
-0.443685
0.637759
2.220517
3.947221
4.430454
2.747973
3.540906
8.976833
11.340071
7.864512
5.754248
7.606514
6.652480
1.281026
-1.313728
0.507070
3.833990
6.607252
6.410642
4.721306
3.551356
2.048963
-0.766382
-4.310796
-4.680328
-1.047759
2.727819
4.562636
5.027487
6.376880
6.774744
3.018773
0.054811
0.352660
-0.409135
-3.624533
-8.213947
-7.574310
-0.628520
0.467257
-4.537167
-5.856670
-1.990738
3.896029
6.876797
4.580526
1.539605
-0.300840
-3.285055
-3.995131
-1.666787
-0.179058
0.524143
-0.287816
-1.794572
-2.750475
-4.829270
-5.954042
-4.235441
-1.685261
1.663780
4.597812
4.084024
3.082943
2.759525
-0.269866
-3.933612
-4.716281
-3.568786
-3.447284
-4.742795
-7.096085
-7.896204
-4.400413
-2.958172
-5.381252
-5.746107
-1.483548
5.849832
9.161797
5.267803
-2.078374
-7.969522
-8.413830
-3.169828
6.154787
13.289698
13.364777
12.449378
11.918766
4.494388
-6.386534
-10.966602
-8.795915
-7.288555
-6.846450
3.417856
16.279711
13.130366
1.423787
-3.308639
-1.423659
0.174678
-0.667813
-0.726087
5.711223
17.113066
18.609207
8.608779
3.165043
9.065208
13.808206
3.527990
-8.089167
-6.038122
1.382187
5.857548
3.919893
-3.642200
-6.008572
4.812195
16.281960
15.541662
8.214493
0.880780
-6.641430
-15.916216
-21.923582
-21.081734
-16.947853
-10.294623
1.936304
16.947668
20.955366
10.992327
-4.087916
-16.832331
-24.357344
-27.472107
-19.698792
-6.722590
-0.822738
3.589999
8.884474
6.876405
-4.529510
-15.149650
-16.402166
-15.398925
-17.392662
-14.547739
-6.831751
-0.544930
8.063390
19.529728
22.762243
15.657531
8.908324
3.215643
-2.979598
-1.596867
5.373848
8.007527
6.745353
7.489992
11.860978
18.708309
23.011997
19.806570
12.128886
6.504440
3.959537
0.491144
-1.816655
-4.721418
-12.093454
-10.894549
3.464705
17.363771
20.659222
14.635656
10.597093
11.949914
9.551761
0.978627
-2.853988
3.609182
11.543578
16.996639
20.237255
15.529757
7.215849
5.299069
4.097339
-2.317559
-6.984242
-9.159936
-12.882257
-12.597806
-5.298696
1.085646
3.517740
9.543155
16.317268
11.212830
-3.187258
-14.268518
-23.609667
-36.179295
-38.746624
-22.909916
3.966608
24.492115
24.453781
18.067551
16.763626
11.651086
-1.940482
-18.853683
-26.662228
-16.731611
-3.316409
-3.248186
-3.228257
6.020649
8.518173
-0.971284
-9.408884
-10.457634
-3.026732
1.609399
-3.377579
6.458633
29.603188
38.603458
29.724678
10.172802
-12.162941
-23.716539
-26.636883
-27.618643
-14.171978
10.306715
32.176952
54.014790
63.259323
38.340687
4.704662
-6.512444
-2.003744
-4.721255
-25.204098
-24.944262
4.139726
24.187288
38.113148
51.848019
40.969593
9.576860
-8.628418
-8.716291
-4.937594
0.792764
14.836088
26.327351
20.449598
8.166307
-0.461039
-8.596417
-12.505989
-8.179558
-7.517798
-12.348989
-13.035386
-1.675915
14.277632
9.958971
4.608394
12.608842
7.246737
-4.141731
1.078592
30.500944
62.632378
59.762203
29.871857
3.972391
-7.796814
-9.695212
-13.966826
-18.061163
-6.236206
16.216042
37.109825
43.864307
40.191528
49.612732
50.950287
24.795021
-8.599849
-22.164934
-25.806557
-41.608395
-37.746197
-34.558857
-24.904293
13.417078
16.835285
-5.233751
-23.297886
-34.179745
-38.315823
-28.970337
3.963704
24.462105
28.788851
25.975372
17.761168
39.421722
65.377243
49.285030
40.491928
39.913960
22.085991
29.992970
39.023464
14.215114
-37.666988
-55.073723
27.537445
80.942482
49.648830
71.124931
128.749847
135.755768
110.624321
83.359566
45.226055
13.884107
18.694717
18.755774
9.438304
-5.592090
-27.426828
1.301347
22.310720
-0.738202
-13.300034
-22.990767
-13.596670
-3.699702
-12.260683
-25.100124
-34.958164
-24.479189
-18.070545
-2.396160
-9.605867
-43.407642
-29.230972
-14.315883
-23.135155
-27.874743
-12.511618
18.229290
36.780388
58.894585
81.915756
111.666176
126.161278
101.974510
89.377167
87.147881
98.654404
113.028610
73.481194
21.677299
1.793291
-19.755117
-47.816246
-57.045235
-66.037422
-94.778084
-137.236481
-192.535889
-219.457581
-180.149170
-132.669861
-145.258194
-164.552704
-131.467224
-86.727242
-76.187820
-111.757439
-140.931168
-131.896301
-132.714493
-152.893585
-175.905441
-181.867905
-157.442490
-122.555550
-96.240784
-83.944427
-60.394840
-31.740192
-7.488944
23.492805
32.330753
47.429668
81.199020
122.883148
162.695999
142.883041
120.338867
150.774109
189.585587
215.220840
220.691360
195.356750
166.635406
159.941650
132.895294
84.874779
54.170933
50.341427
58.868423
45.160023
1.808975
-56.520737
-103.680710
-155.393951
-193.819412
-158.514938
-106.063927
-85.269226
-96.471695
-114.084366
-89.765518
-58.710854
-23.707684
30.684401
84.549309
105.717888
62.492409
49.185928
91.422165
109.518051
117.739098
125.759491
142.214676
170.613510
166.389252
133.692001
95.715179
61.640461
43.927788
50.009281
76.526253
94.943687
100.297676
89.842979
71.766998
59.529510
12.262671
-55.988316
-97.754097
-107.833038
-107.412750
-105.230225
-78.260849
-51.724247
-47.554222
-22.115591
35.831493
73.641579
70.012413
43.590145
35.839554
80.481087
110.049881
82.050438
54.825253
61.422707
83.005371
87.110588
69.209404
47.548832
28.116909
11.168189
0.828463
-12.127506
-21.002550
-23.049253
-22.943954
13.145030
38.650654
17.598572
30.471022
72.797295
73.127861
47.218426
20.528202
-30.670944
-73.416611
-84.270432
-113.811188
-147.327591
-140.664688
-127.055695
-137.208786
-154.459732
-166.339554
-165.679657
-156.790298
-159.363251
-171.387939
-175.752701
-167.203598
-150.517548
-134.062057
-119.917786
-100.393661
-78.877670
-62.925369
-40.372795
-25.344603
-46.878674
-68.065979
-57.133362
-36.901344
-15.765787
4.006971
14.692829
20.738499
24.968653
24.946522
26.364773
37.599621
51.469086
58.617081
61.639912
63.924946
66.782951
73.869881
82.436760
82.365089
77.484673
72.560944
46.936905
11.737741
12.990236
33.401398
35.969963
29.386816
19.263317
2.732723
-20.064140
-31.879766
-23.541578
0.525842
64.815834
127.244514
138.391190
154.441635
183.874588
192.166336
191.191727
193.149338
193.894287
178.722427
156.971817
139.743622
137.080017
172.574188
208.598068
197.120193
163.801666
152.245255
154.018066
149.806564
140.046036
120.867439
107.223534
106.447716
98.814270
82.658813
86.563370
94.539833
88.276978
88.849007
70.024025
35.614689
7.351976
-25.258366
-60.723923
-106.317017
-153.101562
-178.657364
-172.907990
-154.567505
-145.373138
-141.672638
-133.598022
-114.923866
-112.363113
-139.877426
-168.790695
-179.733292
-172.817429
-162.648788
-159.717224
-161.710663
-168.109344
-172.690674
-167.027924
-158.933685
-156.930313
-151.165665
-139.989716
-124.834717
-104.640717
-92.472420
-78.513214
-64.359917
-66.818825
-82.950928
-116.860809
-140.872467
-148.141068
-150.948944
-134.381592
-127.903473
-135.066132
-129.756409
-110.465630
-81.328995
-63.447456
-53.132671
-31.711411
-7.624672
14.444347
42.330044
45.618328
16.598190
4.598116
23.313099
52.753208
57.566925
32.636452
1.065188
-42.608639
-84.538628
-95.109848
-93.542358
-113.791832
-133.546234
-133.260529
-126.714806
-131.293320
-172.041824
-209.090759
-204.427231
-207.025101
-231.052948
-253.001724
-253.256607
-228.244202
-209.155045
-200.228271
-198.425568
-200.935577
-198.055435
-193.511856
-186.894745
-184.088150
-177.569534
-161.014343
-142.684464
-116.461288
-79.150330
-31.748913
18.708059
54.462105
72.361092
75.073601
77.076347
102.727165
129.868530
137.137405
134.880096
126.792984
129.694611
140.243088
139.538925
136.526047
138.083252
126.404404
92.203194
54.433594
10.452556
-37.367630
-89.637642
-144.639175
-183.329453
-205.877396
-185.245010
-164.570587
-167.139465
-156.022400
-158.601898
-170.013412
-181.609695
-169.371887
-145.446854
-140.547470
-130.446106
-136.756302
-140.556229
-108.771561
-76.563477
-52.067955
-18.236286
-11.267751
-32.904644
-44.241390
-72.191597
-114.935707
-139.646225
-142.236313
-140.928040
-141.978043
-121.731377
-107.441933
-92.756767
-48.365101
-27.769491
-33.008526
-30.250534
-26.442240
-15.495288
-7.769953
-12.365288
-14.807686
-19.981293
-34.231205
-52.682621
-74.204552
-92.964409
-94.440323
-93.120522
-112.586098
-126.607002
-114.121841
-96.120354
-95.071938
-108.661949
-114.625381
-115.129204
-123.086052
-135.033157
-148.081039
-158.009491
-167.367767
-177.671982
-177.321487
-171.817947
-170.679779
-167.122925
-167.101776
-166.377060
-158.020187
-150.162125
-139.598404
-123.677261
-101.950333
-88.266251
-84.236732
-68.788559
-48.259617
-37.243805
-38.858055
-37.736725
-11.305435
22.819107
40.299660
55.483940
80.445251
106.214767
125.431374
133.718170
131.568634
126.865181
129.391373
139.963181
149.265076
153.005753
151.619247
155.679291
175.105606
194.515686
203.567993
208.964661
208.688904
205.799103
216.624557
238.373917
247.439926
240.543030
234.885559
235.296494
237.264053
241.634430
243.777359
238.596603
234.937836
233.672546
230.955673
229.053818
227.452362
231.030396
235.558121
233.734818
233.507660
235.329407
236.622391
237.734039
233.901443
230.881378
234.122650
245.711075
264.736725
274.813782
275.585205
281.302185
289.369293
289.114105
281.399353
273.480499
264.444702
252.927567
243.859024
244.104218
250.908844
252.682617
241.991760
216.881821
179.733139
137.667633
106.622307
92.157410
79.322960
63.488094
49.293018
38.240425
30.164555
18.221495
11.675115
20.130766
23.080688
12.452449
1.464972
-2.829701
-0.562426
5.099389
11.594338
18.106422
29.684303
44.338303
58.089371
72.516853
78.114487
78.722038
84.366722
86.708138
85.518562
82.315941
78.035912
78.405426
76.267120
66.598206
51.572483
34.328083
17.895006
2.496964
-10.019069
-21.865231
-28.812908
-31.456266
-45.240700
-68.204872
-94.724045
-119.375374
-130.262222
-135.365082
-135.239853
-121.880424
-102.785950
-78.392624
-44.078957
-6.952139
24.034283
50.119110
58.161617
60.090221
82.813538
90.527649
88.439201
108.194199
117.733788
113.579018
116.947380
120.692726
113.356522
100.004242
91.371910
86.550385
84.141006
78.923775
64.752701
51.950954
50.807484
54.057755
54.963791
61.715160
74.086601
73.481842
61.082642
57.917095
61.374561
57.262470
40.160774
15.740325
-2.912676
-16.217291
-22.885180
-25.066174
-31.736868
-34.083923
-31.306917
-26.163242
-17.162350
-15.197920
-12.328070
2.661486
22.820589
45.277515
61.289948
71.209969
86.917686
105.385292
120.294449
126.672882
122.878593
121.794640
127.334938
122.049789
106.520569
93.843147
88.739639
95.041115
100.187279
95.173508
82.684891
63.063217
42.545174
21.498390
0.772525
-17.467337
-30.596224
-33.853992
-39.540134
-53.257572
-60.635845
-58.365139
-61.218189
-74.110909
-89.574371
-103.191811
-109.169250
-107.912102
-102.499542
-93.357185
-84.719269
-79.441307
-77.249741
-82.119255
-100.300850
-121.830872
-134.298630
-144.081268
-158.267624
-174.782944
-186.466156
-190.065414
-194.927750
-200.939194
-199.822510
-197.540924
-195.799271
-190.696381
-179.399857
-161.336044
-145.137299
-128.705490
-115.261635
-112.422935
-110.891571
-113.615959
-121.758820
-128.448196
-134.829437
-136.537781
-132.635406
-121.236992
-101.248306
-81.643173
-62.275150
-37.636925
-10.905596
14.123637
37.740841
55.502419
64.967247
68.515991
62.606777
48.797737
36.242138
30.160931
31.032064
34.248383
32.923889
24.495634
12.384952
2.248368
-3.253009
-6.235666
-7.697869
-8.960666
-15.215106
-27.920570
-41.485966
-47.339729
-48.645836
-55.901657
-67.305702
-75.477226
-77.651978
-82.489723
-95.281487
-105.290649
-112.207779
-123.446709
-135.155167
-135.531860
-121.790749
-106.297699
-95.657326
-88.905647
-79.342987
-66.008797
-56.183487
-49.705360
-49.136757
-52.607330
-57.215443
-58.054195
-52.062115
-51.801659
-55.178757
-58.006260
-61.506428
-63.556870
-69.825333
-77.598358
-82.628647
-83.149597
-81.918594
-83.392326
-79.701500
-72.739510
-68.996323
-68.320236
-69.425995
-60.934208
-43.665215
-32.417599
-19.613071
3.118655
27.176105
44.278095
49.370674
64.805458
103.760880
134.443222
144.209946
146.226395
146.193359
147.940308
152.899551
160.199265
171.502991
184.804764
195.626160
198.951202
190.688416
178.418823
160.508286
131.791000
94.855766
48.952049
5.371686
-39.488602
-84.032951
-118.748863
-143.400192
-135.065430
-129.603333
-160.567657
-177.963181
-169.215897
-166.759796
-185.262955
-197.934433
-179.878433
-143.256653
-100.690163
-70.953758
-55.981339
-28.224941
4.534620
38.260979
71.179131
52.301178
39.063236
89.773514
117.092453
98.089256
70.211647
53.826553
43.866943
29.262466
17.831934
1.510403
-11.654318
-26.325470
-48.933212
-85.522903
-104.677536
-83.756645
-98.202850
-126.419777
-125.402817
-130.444000
-136.789413
-134.066635
-117.624535
-95.989540
-70.955315
-54.584270
-63.225632
-66.709915
-64.886002
-58.873051
-43.179970
-64.695351
-101.553307
-91.542931
-75.889732
-85.612549
-98.027008
-108.364235
-108.563644
-104.101700
-108.391998
-123.063782
-137.161652
-133.682678
-125.265358
-128.157043
-137.251740
-148.977005
-158.731308
-162.630280
-167.263626
-173.853958
-176.075745
-174.839127
-169.162674
-150.999176
-117.879440
-76.778557
-40.054283
-8.718905
18.749910
40.541634
55.508450
56.920773
68.339439
102.669312
126.666634
132.871201
134.382919
129.498749
121.874344
119.251556
118.272285
118.724976
117.029732
111.438301
117.248116
131.410461
139.472595
142.351486
146.681992
153.298416
157.501495
159.754105
162.298676
166.999939
172.749603
174.241379
174.836777
180.860947
191.264236
200.573883
201.906769
193.123322
180.774612
169.554077
151.968811
129.907257
117.837067
115.621490
118.198174
121.084213
116.764610
108.775360
103.412941
103.769363
109.775154
113.034454
112.886131
112.229042
106.660980
98.925346
93.228302
86.541100
75.677628
65.347252
64.106255
69.761215
71.849030
66.348579
59.741146
57.142338
56.807384
52.765404
46.206871
46.471382
50.984444
53.696945
53.042961
49.786121
50.106091
51.734962
48.814930
45.366482
45.898315
48.507694
49.429928
47.520935
46.943275
50.451530
51.979454
48.678062
46.021927
46.187363
45.244545
37.169300
21.547859
3.898734
-14.497222
-33.588917
-52.499580
-69.297821
-80.658554
-86.822952
-89.710876
-95.623535
-106.577049
-116.799950
-120.064873
-118.222580
-123.737373
-132.870087
-137.215225
-138.699860
-137.469788
-139.320831
-143.106400
-139.417130
-131.868744
-124.980286
-104.400581
-64.261513
-22.669910
10.614331
38.445499
60.445030
74.113853
81.604576
86.301155
89.394707
92.152077
89.850822
82.497475
77.286179
70.219475
58.032467
45.217323
32.657360
22.450357
15.637278
9.989775
6.768457
10.882710
23.459478
