EVENT_NAME: EMILIA_2ND_SHOCK
EVENT_ID: IT-2012-0011
EVENT_DATE_YYYYMMDD: 20120529
EVENT_TIME_HHMMSS: 070002
EVENT_LATITUDE_DEGREE: 44.8417
EVENT_LONGITUDE_DEGREE: 11.0657
EVENT_DEPTH_KM: 8.1
HYPOCENTER_REFERENCE: INGV-CNT_Seismic_Bulletin
MAGNITUDE_W: 6.0
MAGNITUDE_W_REFERENCE: RCMT-INGV
MAGNITUDE_L: 5.8
MAGNITUDE_L_REFERENCE: INGV-CNT_Seismic_Bulletin
FOCAL_MECHANISM: TF
NETWORK: IT
STATION_CODE: MDN
STATION_NAME: MODENA
STATION_LATITUDE_DEGREE: 44.646988
STATION_LONGITUDE_DEGREE: 10.889912
STATION_ELEVATION_M: 77
LOCATION: 
SENSOR_DEPTH_M: 0.0
VS30_M/S: 213
SITE_CLASSIFICATION_EC8: C
MORPHOLOGIC_CLASSIFICATION: 
EPICENTRAL_DISTANCE_KM: 25.7
EARTHQUAKE_BACKAZIMUTH_DEGREE: 32.7
DATE_TIME_FIRST_SAMPLE_YYYYMMDD_HHMMSS: 20120529_065953.000
DATE_TIME_FIRST_SAMPLE_PRECISION: seconds
SAMPLING_INTERVAL_S: 0.005000
NDATA: 26000
DURATION_S: 130.000
STREAM: HNZ
UNITS: cm/s
INSTRUMENT: sensor = FBA-3 [Kinemetrics] | digitizer = Etna [Kinemetrics]
INSTRUMENT_ANALOG/DIGITAL: D
INSTRUMENTAL_FREQUENCY_HZ: 198.000
INSTRUMENTAL_DAMPING: 0.700000
FULL_SCALE_G: 1.0
N_BIT_DIGITAL_CONVERTER: 18
PGV_CM/S: 2.039922
TIME_PGV_S: 26.020000
BASELINE_CORRECTION: BASELINE REMOVED
FILTER_TYPE: BUTTERWORTH
FILTER_ORDER: 2
LOW_CUT_FREQUENCY_HZ: 0.050
HIGH_CUT_FREQUENCY_HZ: 35.000
LATE/NORMAL_TRIGGERED: NT
DATABASE_VERSION: DYNA 1.0
HEADER_FORMAT: DYNA 1.2
DATA_TYPE: VELOCITY
PROCESSING: manual (Paolucci et al., 2011)
DATA_TIMESTAMP_YYYYMMDD_HHMMSS: 20141204_103511.587
DATA_LICENSE: CC-BY3_0-IT (http://creativecommons.org/licenses/by/3.0/deed.en)
DATA_CITATION: ESM working group (2015), European Strong-Motion database, version 0.1, Network Activity 3: Networking acceleration networks and SM data users. Project NERA (www.nera-eu.org)
DATA_CREATOR: ESM working group
ORIGINAL_DATA_MEDIATOR_CITATION: Ufficio Rischio Sismico e Vulcanico del Dipartimento della Protezione Civile (http://www.protezionecivile.gov.it/)
ORIGINAL_DATA_MEDIATOR: Rete Accelerometrica Nazionale - RAN Download (http://www.mot1.it/randownload/)
ORIGINAL_DATA_CREATOR_CITATION: Italian Strong Motion Network, Italian Civil Protection Department http://www.protezionecivile.gov.it
ORIGINAL_DATA_CREATOR: network: IT (Italian Strong Motion Network); owner: Dipartimento Della Protezione Civile
USER1: /home/dyna/processing-itaca/processing.py /var/www/processing/tmp/fpacor//IT.MDN..HNE.D.20120529.070003.X.ACC.ASC /var/www/processing/tmp/fpacor//IT.MDN..HNN.D.20120529.070003.X.ACC.ASC /var/www/processing/tmp/fpacor//IT.MDN..HNZ.D.20120529.070003.X.ACC.ASC --tmp /var/www/processing/tmp/fpacor/ --le 0.05 --he 35.000 --ln 0.05 --hn 35.000 --lz 0.05 --hz 35.000 --fo 2 --ca -10 --cz 30 --ta 5 --tz 5 --mf 1 --rf 0 --tr NT
USER2: 
USER3: 
USER4: 
USER5: 
[...]
0.351339
0.270111
0.183969
0.098110
0.017346
-0.053757
-0.111275
-0.152893
-0.178794
-0.191651
-0.195467
-0.193845
-0.188724
-0.180203
-0.167312
-0.149121
-0.125645
-0.098214
-0.069215
-0.041382
-0.017151
0.001610
0.013709
0.018879
0.018017
0.013018
0.006275
0.000343
-0.002010
0.002284
0.016176
0.041551
0.078355
0.124450
0.176294
0.229900
0.281317
0.326515
0.361323
0.382074
0.386695
0.375349
0.350180
0.314686
0.273354
0.231367
0.193725
0.163846
0.142601
0.128691
0.120140
0.115719
0.115181
0.118289
0.123710
0.129008
0.131876
0.131492
0.128715
0.125131
0.121942
0.119500
0.117475
0.115388
0.113227
0.111747
0.112080
0.114887
0.119815
0.125831
0.132132
0.138819
0.146808
0.157147
0.170391
0.186496
0.205133
0.225871
0.247918
0.269799
0.289494
0.305048
0.315130
0.319186
0.317192
0.309294
0.295613
0.276306
0.251702
0.222250
0.188279
0.149946
0.107643
0.062679
0.017696
-0.023619
-0.057574
-0.081772
-0.095890
-0.101308
-0.099760
-0.091999
-0.077422
-0.054737
-0.023065
0.017224
0.064345
0.115661
0.168458
0.220255
0.268542
0.310619
0.344065
0.367582
0.381642
0.388657
0.392565
0.397776
0.407707
0.423671
0.444878
0.469564
0.496420
0.525194
0.556082
0.588501
0.620320
0.648252
0.669163
0.681219
0.684064
0.678206
0.664380
0.643266
0.615388
0.581167
0.541216
0.496707
0.449353
0.400941
0.352845
0.305833
0.260097
0.215377
0.171184
0.127070
0.082786
0.038364
-0.005804
-0.048818
-0.089008
-0.123624
-0.148905
-0.160987
-0.157509
-0.138903
-0.108384
-0.070780
-0.031186
0.005929
0.037270
0.060972
0.076355
0.083402
0.082751
0.076455
0.068550
0.064297
0.068232
0.082264
0.104948
0.132085
0.158010
0.176734
0.182648
0.171238
0.140251
0.090803
0.027407
-0.043194
-0.113387
-0.175467
-0.222170
-0.247782
-0.249814
-0.230287
-0.195528
-0.154187
-0.114380
-0.081580
-0.058373
-0.045710
-0.044244
-0.054467
-0.075743
-0.105503
-0.139821
-0.175297
-0.210936
-0.248464
-0.290656
-0.338814
-0.391297
-0.444028
-0.492271
-0.532197
-0.561305
-0.577689
-0.578932
-0.561761
-0.523057
-0.461632
-0.379427
-0.281418
-0.174644
-0.067141
0.032886
0.117767
0.181044
0.218150
0.227065
0.208696
0.166659
0.106468
0.034485
-0.043184
-0.121811
-0.198784
-0.273340
-0.345476
-0.415084
-0.481877
-0.545399
-0.604296
-0.655320
-0.693442
-0.713799
-0.714535
-0.698693
-0.673769
-0.649089
-0.632618
-0.628906
-0.638656
-0.659299
-0.685856
-0.711988
-0.731365
-0.739213
-0.733480
-0.715031
-0.686562
-0.650605
-0.607761
-0.556317
-0.493343
-0.416404
-0.324855
-0.220370
-0.106863
0.010097
0.124556
0.232000
0.330820
0.422182
0.508031
0.588433
0.660158
0.717292
0.753136
0.762107
0.741145
0.690839
0.616188
0.526337
0.432686
0.345840
0.272780
0.215470
0.171122
0.133561
0.095142
0.048984
-0.008763
-0.077447
-0.152178
-0.225856
-0.291726
-0.345003
-0.383047
-0.404725
-0.409863
-0.399273
-0.375218
-0.341672
-0.303677
-0.265773
-0.230391
-0.197232
-0.163826
-0.126710
-0.082670
-0.029714
0.032348
0.101679
0.174406
0.244876
0.306351
0.352135
0.376673
0.376301
0.349742
0.298527
0.227174
0.142892
0.054866
-0.026621
-0.091277
-0.130447
-0.139239
-0.118255
-0.073769
-0.015976
0.043773
0.095334
0.130838
0.144643
0.132945
0.093749
0.027242
-0.063869
-0.174437
-0.297455
-0.424946
-0.548779
-0.661131
-0.754622
-0.822395
-0.858492
-0.858584
-0.820757
-0.745923
-0.637674
-0.501675
-0.344896
-0.174876
0.000842
0.175038
0.340895
0.492051
0.623000
0.729822
0.810739
0.866060
0.897582
0.907864
0.899627
0.875294
0.836698
0.785040
0.721015
0.644896
0.556659
0.456539
0.346016
0.228629
0.110144
-0.001964
-0.099708
-0.176538
-0.229517
-0.260684
-0.276778
-0.287384
-0.302209
-0.328567
-0.369989
-0.426213
-0.493955
-0.567717
-0.640537
-0.704934
-0.753981
-0.782021
-0.784895
-0.760092
-0.707149
-0.628111
-0.527578
-0.412184
-0.289706
-0.168024
-0.054007
0.047488
0.134169
0.206167
0.265238
0.313722
0.353850
0.387704
0.417430
0.444895
0.470621
0.492981
0.508828
0.515494
0.512789
0.503681
0.493502
0.488489
0.494497
0.516157
0.556272
0.615316
0.691117
0.779076
0.873010
0.966286
1.052702
1.126861
1.184275
1.221646
1.237432
1.232395
1.209733
1.174664
1.133555
1.092569
1.055991
1.024852
0.996642
0.966288
0.927678
0.874964
0.803445
0.710321
0.595313
0.460811
0.311392
0.152902
-0.008574
-0.167671
-0.320381
-0.464137
-0.597461
-0.719503
-0.829630
-0.926938
-1.009776
-1.075712
-1.122150
-1.147149
-1.149763
-1.129775
-1.087395
-1.023409
-0.939828
-0.840620
-0.731996
-0.621763
-0.517843
-0.426718
-0.352645
-0.297850
-0.263211
-0.248806
-0.253944
-0.276789
-0.314036
-0.361097
-0.412833
-0.464339
-0.511331
-0.550175
-0.577924
-0.592428
-0.592343
-0.577064
-0.546710
-0.502157
-0.444830
-0.376146
-0.296970
-0.207687
-0.108953
-0.002584
0.108020
0.218122
0.322631
0.417666
0.501988
0.577387
0.647614
0.716420
0.785652
0.854265
0.918678
0.974215
1.016759
1.043742
1.054340
1.049326
1.030921
1.002485
0.967833
0.930318
0.892109
0.854058
0.816192
0.778461
0.741220
0.705185
0.670976
0.638561
0.606987
0.574725
0.540600
0.504746
0.468905
0.435943
0.408925
0.390253
0.381266
0.382473
0.394048
0.415861
0.446805
0.484197
0.524263
0.563658
0.600922
0.636818
0.673453
0.712905
0.756204
0.803027
0.851975
0.901109
0.948402
0.992031
1.030473
1.062467
1.086971
1.103429
1.112470
1.116593
1.120119
1.128016
1.143984
1.168730
1.199408
1.230559
1.256071
1.271184
1.273842
1.265197
1.249388
1.232609
1.221578
1.221818
1.236218
1.264119
1.301088
1.339688
1.371349
1.388702
1.387321
1.366303
1.327781
1.275812
1.215118
1.150171
1.084841
1.022434
0.965728
0.916812
0.876827
0.845741
0.822214
0.803641
0.786429
0.766425
0.739348
0.701417
0.650403
0.586815
0.514410
0.439434
0.368743
0.307621
0.258274
0.219617
0.188256
0.160004
0.131226
0.099620
0.064483
0.026584
-0.012172
-0.049040
-0.080583
-0.103049
-0.113307
-0.110122
-0.095022
-0.072193
-0.047352
-0.026037
-0.011950
-0.006001
-0.006380
-0.009476
-0.011179
-0.008090
0.001693
0.018323
0.040488
0.065983
0.092295
0.117121
0.138819
0.156747
0.171343
0.184040
0.197109
0.213363
0.235468
0.264893
0.301061
0.341224
0.381171
0.416322
0.442714
0.457577
0.459479
0.448249
0.424904
0.391641
0.351593
0.308202
0.264304
0.221307
0.178778
0.134593
0.085576
0.028329
-0.040053
-0.121407
-0.215849
-0.321025
-0.431608
-0.539438
-0.634611
-0.707476
-0.750980
-0.762396
-0.743814
-0.701429
-0.644017
-0.581086
-0.521118
-0.470221
-0.431418
-0.404708
-0.387854
-0.377583
-0.370662
-0.364353
-0.356303
-0.344495
-0.327720
-0.306317
-0.282498
-0.259880
-0.242357
-0.232854
-0.232528
-0.240691
-0.255157
-0.272511
-0.288168
-0.296620
-0.292193
-0.270145
-0.227657
-0.164499
-0.083360
0.010174
0.108171
0.201505
0.281446
0.341267
0.377360
0.389496
0.380349
0.354899
0.320159
0.284958
0.259092
0.251663
0.269111
0.313751
0.383309
0.471506
0.569311
0.666375
0.752467
0.819039
0.860748
0.876291
0.868084
0.841005
0.800921
0.753610
0.704183
0.656850
0.614793
0.579997
0.553050
0.533130
0.518290
0.505810
0.492423
0.474671
0.449730
0.416505
0.376175
0.331568
0.285655
0.240193
0.195513
0.151519
0.109046
0.070311
0.037990
0.013731
-0.002595
-0.012346
-0.016964
-0.017274
-0.013559
-0.005947
0.005315
0.019718
0.036361
0.053854
0.070391
0.084173
0.094043
0.099926
0.102731
0.103808
0.104309
0.104758
0.104972
0.104328
0.102172
0.098158
0.092341
0.085047
0.076713
0.067766
0.058457
0.048612
0.037556
0.024380
0.008447
-0.010076
-0.029914
-0.048760
-0.063773
-0.072323
-0.072658
-0.064298
-0.048069
-0.025753
0.000489
0.028544
0.056471
0.082426
0.104557
0.120958
0.129746
0.129365
0.119028
0.098945
0.070107
0.033877
-0.008195
-0.054258
-0.102023
-0.148846
-0.191970
-0.228765
-0.256880
-0.274439
-0.280495
-0.275803
-0.263627
-0.250032
-0.243110
-0.251211
-0.280811
-0.334754
-0.411364
-0.504745
-0.606322
-0.707189
-0.800230
-0.881074
-0.947710
-0.999211
-1.034307
-1.050562
-1.044640
-1.013493
-0.955839
-0.873272
-0.770662
-0.655714
-0.537855
-0.426750
-0.330801
-0.255882
-0.204497
-0.175580
-0.165080
-0.167253
-0.176309
-0.187879
-0.199877
-0.212458
-0.227110
-0.245429
-0.268315
-0.295886
-0.327809
-0.363655
-0.403082
-0.445835
-0.491485
-0.538907
-0.585760
-0.628373
-0.662272
-0.683141
-0.687774
-0.674674
-0.644247
-0.598807
-0.542580
-0.481551
-0.422718
-0.372724
-0.336406
-0.316025
-0.311398
-0.320571
-0.340494
-0.367424
-0.397112
-0.425107
-0.447325
-0.460821
-0.464417
-0.459002
-0.447479
-0.434458
-0.425691
-0.427144
-0.443623
-0.477246
-0.526427
-0.586078
-0.649115
-0.708450
-0.758408
-0.795087
-0.816031
-0.819783
-0.805595
-0.773352
-0.723576
-0.657352
-0.576210
-0.482216
-0.378253
-0.268043
-0.155652
-0.044839
0.061213
0.159649
0.247500
0.321322
0.377002
0.409928
0.415644
0.390856
0.334510
0.248780
0.139703
0.016973
-0.107430
-0.221400
-0.314735
-0.380334
-0.414518
-0.416791
-0.389423
-0.337047
-0.266221
-0.184619
-0.099888
-0.018589
0.054415
0.116199
0.165841
0.204351
0.234273
0.258847
0.280873
0.301821
0.321751
0.340199
0.357414
0.375015
0.395599
0.421688
0.454744
0.494718
0.540099
0.588196
0.635440
0.677696
0.710685
0.730534
0.734351
0.720607
0.689282
0.641918
0.581713
0.513453
0.442913
0.375755
0.316538
0.268437
0.233673
0.214139
0.211555
0.226956
0.259961
0.308528
0.369432
0.439064
0.513887
0.590332
0.664513
0.732282
0.789741
0.833873
0.862921
0.876369
0.874670
0.858884
0.830373
0.790629
0.741334
0.684683
0.623789
0.562847
0.506826
0.460775
0.428986
0.414171
0.416870
0.435386
0.466427
0.506166
0.551233
0.599235
0.648698
0.698596
0.747888
0.795423
0.840087
0.880816
0.916298
0.944642
0.963383
0.969944
0.962316
0.939662
0.902624
0.853297
0.794908
0.731357
0.666783
0.605144
0.549745
0.502708
0.464513
0.433784
0.407493
0.381700
0.352566
0.317217
0.274275
0.224153
0.169112
0.112856
0.059647
0.013303
-0.023370
-0.048599
-0.061454
-0.061734
-0.049944
-0.027385
0.003614
0.039527
0.075788
0.107328
0.129330
0.138076
0.131750
0.110885
0.078256
0.038423
-0.002892
-0.039650
-0.066655
-0.080695
-0.081100
-0.069543
-0.049306
-0.024291
0.001974
0.026980
0.049318
0.068395
0.084122
0.096629
0.105916
0.111522
0.112425
0.107306
0.095166
0.076041
0.051420
0.024073
-0.002622
-0.025492
-0.042240
-0.051877
-0.054864
-0.052883
-0.048323
-0.043675
-0.041008
-0.041495
-0.045052
-0.050253
-0.054630
-0.055202
-0.048994
-0.033593
-0.007812
0.027775
0.070770
0.117354
0.162984
0.203176
0.234065
0.252470
0.255646
0.241292
0.208190
0.157099
0.091041
0.014585
-0.067390
-0.150702
-0.232293
-0.310130
-0.382785
-0.449093
-0.508102
-0.559190
-0.602109
-0.636947
-0.664137
-0.684426
-0.698607
-0.707083
-0.709567
-0.705126
-0.692639
-0.671478
-0.642092
-0.606164
-0.566345
-0.525781
-0.487574
-0.454231
-0.427219
-0.406857
-0.392617
-0.383662
-0.379318
-0.379326
-0.383912
-0.393653
-0.409088
-0.430301
-0.456721
-0.487143
-0.519951
-0.553438
-0.586056
-0.616440
-0.643429
-0.666384
-0.685697
-0.703022
-0.721011
-0.742617
-0.770277
-0.805317
-0.847834
-0.896999
-0.951467
-1.009620
-1.069658
-1.129761
-1.188377
-1.244457
-1.297436
-1.347019
-1.392977
-1.435096
-1.473212
-1.507275
-1.537385
-1.563733
-1.586378
-1.605073
-1.619295
-1.628395
-1.631628
-1.628038
-1.616393
-1.595319
-1.563711
-1.521413
-1.469801
-1.411760
-1.350901
-1.290553
-1.233140
-1.180070
-1.131742
-1.087505
-1.045789
-1.004547
-0.961889
-0.916685
-0.868923
-0.819545
-0.769777
-0.720473
-0.671921
-0.624093
-0.576983
-0.530768
-0.485736
-0.442015
-0.399356
-0.357264
-0.315373
-0.273739
-0.232835
-0.193346
-0.156007
-0.121692
-0.091675
-0.067793
-0.052231
-0.046885
-0.052592
-0.068645
-0.092875
-0.122306
-0.154036
-0.185940
-0.216930
-0.246700
-0.275155
-0.301887
-0.325977
-0.346008
-0.360208
-0.366847
-0.364932
-0.354791
-0.338065
-0.317151
-0.294500
-0.272054
-0.250954
-0.231625
-0.214076
-0.197945
-0.182125
-0.164411
-0.141635
-0.110318
-0.067485
-0.011374
0.058078
0.139087
0.228251
0.321011
0.412136
0.496154
0.567820
0.622658
0.657553
0.671321
0.665088
0.642178
0.607468
0.566486
0.524650
0.486879
0.457529
0.440404
0.438614
0.454241
0.487978
0.538937
0.604727
0.681717
0.765403
0.850859
0.933253
1.008161
1.071526
1.119498
1.148568
1.156211
1.141755
1.107015
1.056333
0.996006
0.933377
0.875923
0.830466
0.802438
0.795230
0.809863
0.845113
0.898045
0.964723
1.040926
1.122761
1.207105
1.291892
1.376215
1.460094
1.543913
1.627817
1.711242
1.792561
1.868857
1.936045
1.989488
2.025019
2.039922
2.033454
2.006753
1.962270
1.903100
1.832586
1.754332
1.672278
1.590381
1.511805
1.438067
1.368716
1.301791
1.234868
1.166263
1.095845
1.025039
0.956098
0.891231
0.832127
0.779822
0.734631
0.696067
0.662883
0.633339
0.605575
0.577949
0.549372
0.519612
0.489430
0.460471
0.434925
0.415015
0.402423
0.397792
0.400503
0.408743
0.419628
0.429203
0.432390
0.423245
0.395785
0.345336
0.269933
0.171086
0.053626
-0.075131
-0.206517
-0.331808
-0.443552
-0.536541
-0.608085
-0.657713
-0.686637
-0.697281
-0.692977
-0.677721
-0.655924
-0.632030
-0.609823
-0.591588
-0.577687
-0.566824
-0.556795
-0.545390
-0.531087
-0.513299
-0.492349
-0.469415
-0.446513
-0.426414
-0.412363
-0.407586
-0.414622
-0.434635
-0.467027
-0.509592
-0.559105
-0.612040
-0.665166
-0.715936
-0.762766
-0.805265
-0.844281
-0.881644
-0.919630
-0.960260
-1.004696
-1.052965
-1.104113
-1.156578
-1.208555
-1.258233
-1.303888
-1.343833
-1.376368
-1.399870
-1.412990
-1.414842
-1.405114
-1.384055
-1.352380
-1.311202
-1.261994
-1.206531
-1.146806
-1.084922
-1.022906
-0.962467
-0.904797
-0.850518
-0.799850
-0.752988
-0.710416
-0.672788
-0.640363
-0.612443
-0.587244
-0.562291
-0.534997
-0.503095
-0.464832
-0.419010
-0.365082
-0.303439
-0.235800
-0.165402
-0.096705
-0.034652
0.016196
0.052338
0.071816
0.074501
0.062115
0.037945
0.006283
-0.028248
-0.061272
-0.088963
-0.108144
-0.116338
-0.111911
-0.094171
-0.063241
-0.019778
0.035210
0.100382
0.174060
0.254192
0.338247
0.423213
0.505944
0.583695
0.654420
0.716698
0.769506
0.812072
0.843914
0.864975
0.875744
0.877292
0.871171
0.859236
0.843460
0.825721
0.807527
0.789723
0.772404
0.755076
0.736917
0.717067
0.694968
0.670649
0.644867
0.619067
0.595104
0.574747
0.559208
0.548935
0.543662
0.542487
0.543993
0.546519
0.548552
0.549069
0.547742
0.544850
0.540948
0.536511
0.531771
0.526754
0.521437
0.515865
0.510058
0.503789
0.496452
0.487199
0.475166
0.459551
0.439624
0.414826
0.384837
0.349532
0.308908
0.263007
0.211852
0.155514
0.094357
0.029183
-0.038880
-0.108535
-0.178341
-0.246655
-0.311677
-0.371572
-0.424434
-0.468117
-0.500174
-0.518076
-0.519704
-0.503970
-0.471310
-0.423787
-0.364741
-0.298201
-0.228413
-0.159490
-0.094985
-0.037456
0.011739
0.052356
0.084918
0.110033
0.127643
0.136723
0.135648
0.122871
0.097511
0.059778
0.011169
-0.045681
-0.107409
-0.170353
-0.230906
-0.285908
-0.333128
-0.371594
-0.401565
-0.424398
-0.442458
-0.458799
-0.476502
-0.497940
-0.524261
-0.555220
-0.589370
-0.624552
-0.658422
-0.688610
-0.712605
-0.727859
-0.732281
-0.724833
-0.705927
-0.677455
-0.642347
-0.603806
-0.564622
-0.526890
-0.492008
-0.460588
-0.432294
-0.406012
-0.380386
-0.354344
-0.327368
-0.299636
-0.272132
-0.246509
-0.224617
-0.208023
-0.197635
-0.193380
-0.194120
-0.198080
-0.203518
-0.209112
-0.213918
-0.217303
-0.219062
-0.219648
-0.220208
-0.222339
-0.227662
-0.237456
-0.252491
-0.273010
-0.298728
-0.328818
-0.361957
-0.396383
-0.429921
-0.460037
-0.484057
-0.499437
-0.504024
-0.496342
-0.475854
-0.443084
-0.399499
-0.347122
-0.288052
-0.224193
-0.157179
-0.088364
-0.018816
0.050563
0.118800
0.184630
0.246473
0.302557
0.351075
0.390322
0.418854
0.435690
0.440478
0.433486
0.415413
0.387064
0.348905
0.300844
0.242526
0.173945
0.095917
0.010154
-0.080896
-0.174121
-0.265830
-0.351951
-0.428204
-0.490225
-0.533789
-0.555227
-0.551927
-0.522750
-0.468238
-0.390649
-0.293827
-0.182796
-0.063243
0.058933
0.178093
0.289455
0.389564
0.476311
0.548639
0.606265
0.649465
0.678881
0.695435
0.700362
0.695155
0.681222
0.659507
0.630387
0.593879
0.549946
0.498782
0.440972
0.377423
0.309236
0.237636
0.164009
0.089951
0.017179
-0.052631
-0.117885
-0.177116
-0.229100
-0.272895
-0.307767
-0.333143
-0.348677
-0.354306
-0.350279
-0.337356
-0.317168
-0.292292
-0.265839
-0.240809
-0.219553
-0.203477
-0.193032
-0.187971
-0.187716
-0.191647
-0.199119
-0.209298
-0.221033
-0.232955
-0.243785
-0.252640
-0.259112
-0.263149
-0.264896
-0.264674
-0.263126
-0.261317
-0.260734
-0.263167
-0.270357
-0.283426
-0.302540
-0.326942
-0.355032
-0.384467
-0.412555
-0.436885
-0.455830
-0.468679
-0.475593
-0.477527
-0.475951
-0.472421
-0.468308
-0.464783
-0.462848
-0.463376
-0.467132
-0.474667
-0.486138
-0.501218
-0.519150
-0.538831
-0.558857
-0.577537
-0.593002
-0.603486
-0.607701
-0.605169
-0.596374
-0.582831
-0.567017
-0.552084
-0.541461
-0.538380
-0.545318
-0.563500
-0.592706
-0.631448
-0.677376
-0.727721
-0.779611
-0.830321
-0.877514
-0.919393
-0.954624
-0.982128
-1.001021
-1.010758
-1.011245
-1.002926
-0.986795
-0.964076
-0.935699
-0.901993
-0.862836
-0.818042
-0.767591
-0.711601
-0.650177
-0.583322
-0.511096
-0.434042
-0.353594
-0.272169
-0.192921
-0.119267
-0.054358
-0.000601
0.040726
0.069581
0.086932
0.094415
0.094042
0.087880
0.077704
0.064895
0.050638
0.036019
0.021865
0.008662
-0.003292
-0.013694
-0.022057
-0.027610
-0.029456
-0.026952
-0.019966
-0.008829
0.005887
0.023520
0.043293
0.064199
0.084920
0.103887
0.119448
0.130070
0.134509
0.131819
0.121264
0.102405
0.075295
0.040495
-0.001003
-0.047806
-0.098281
-0.150849
-0.204141
-0.257003
-0.308538
-0.358105
-0.405050
-0.448395
-0.486844
-0.519122
-0.544344
-0.562218
-0.573039
-0.577530
-0.576499
-0.570400
-0.559106
-0.542119
-0.518916
-0.489122
-0.452796
-0.410965
-0.365823
