EVENT_NAME: EMILIA_2ND_SHOCK
EVENT_ID: IT-2012-0011
EVENT_DATE_YYYYMMDD: 20120529
EVENT_TIME_HHMMSS: 070002
EVENT_LATITUDE_DEGREE: 44.8417
EVENT_LONGITUDE_DEGREE: 11.0657
EVENT_DEPTH_KM: 8.1
HYPOCENTER_REFERENCE: INGV-CNT_Seismic_Bulletin
MAGNITUDE_W: 6.0
MAGNITUDE_W_REFERENCE: RCMT-INGV
MAGNITUDE_L: 5.8
MAGNITUDE_L_REFERENCE: INGV-CNT_Seismic_Bulletin
FOCAL_MECHANISM: TF
NETWORK: IT
STATION_CODE: MRN
STATION_NAME: MIRANDOLA (NAPOLI)
STATION_LATITUDE_DEGREE: 44.878231
STATION_LONGITUDE_DEGREE: 11.061743
STATION_ELEVATION_M: 15
LOCATION: 
SENSOR_DEPTH_M: 0.0
VS30_M/S: 208
SITE_CLASSIFICATION_EC8: C
MORPHOLOGIC_CLASSIFICATION: 
EPICENTRAL_DISTANCE_KM: 4.1
EARTHQUAKE_BACKAZIMUTH_DEGREE: 175.6
DATE_TIME_FIRST_SAMPLE_YYYYMMDD_HHMMSS: 20120529_065948.000
DATE_TIME_FIRST_SAMPLE_PRECISION: seconds
SAMPLING_INTERVAL_S: 0.005000
NDATA: 13713
DURATION_S: 68.565
STREAM: HNE
UNITS: cm/s^2
INSTRUMENT: sensor = MS2007+ [Syscom] | digitizer = 130-01/3 [Reftek]
INSTRUMENT_ANALOG/DIGITAL: D
INSTRUMENTAL_FREQUENCY_HZ: 
INSTRUMENTAL_DAMPING: 
FULL_SCALE_G: 
N_BIT_DIGITAL_CONVERTER: 24
PGA_CM/S^2: 218.643309
TIME_PGA_S: 20.515000
BASELINE_CORRECTION: BASELINE REMOVED
FILTER_TYPE: BUTTERWORTH
FILTER_ORDER: 2
LOW_CUT_FREQUENCY_HZ: 0.070
HIGH_CUT_FREQUENCY_HZ: 40.000
LATE/NORMAL_TRIGGERED: NT
DATABASE_VERSION: DYNA 1.0
HEADER_FORMAT: DYNA 1.2
DATA_TYPE: ACCELERATION
PROCESSING: manual (Paolucci et al., 2011)
DATA_TIMESTAMP_YYYYMMDD_HHMMSS: 20141204_104205.354
DATA_LICENSE: CC-BY3_0-IT (http://creativecommons.org/licenses/by/3.0/deed.en)
DATA_CITATION: ESM working group (2015), European Strong-Motion database, version 0.1, Network Activity 3: Networking acceleration networks and SM data users. Project NERA (www.nera-eu.org)
DATA_CREATOR: ESM working group
ORIGINAL_DATA_MEDIATOR_CITATION: Ufficio Rischio Sismico e Vulcanico del Dipartimento della Protezione Civile (http://www.protezionecivile.gov.it/)
ORIGINAL_DATA_MEDIATOR: Rete Accelerometrica Nazionale - RAN Download (http://www.mot1.it/randownload/)
ORIGINAL_DATA_CREATOR_CITATION: Italian Strong Motion Network, Italian Civil Protection Department http://www.protezionecivile.gov.it
ORIGINAL_DATA_CREATOR: network: IT (Italian Strong Motion Network); owner: Dipartimento Della Protezione Civile
USER1: /home/dyna/processing-itaca/processing.py /var/www/processing/tmp/fpacor//IT.MRN..HNE.D.20120529.070003.X.ACC.ASC /var/www/processing/tmp/fpacor//IT.MRN..HNN.D.20120529.070003.X.ACC.ASC /var/www/processing/tmp/fpacor//IT.MRN..HNZ.D.20120529.070003.X.ACC.ASC --tmp /var/www/processing/tmp/fpacor/ --le 0.070 --he 40.000 --ln 0.070 --hn 40.000 --lz 0.070 --hz 40.000 --fo 2 --ca -15 --cz 100 --ta 5 --tz 5 --mf 1 --rf 0 --tr NT
USER2: 
USER3: 
USER4: 
USER5: 
[...]
0.272495
0.273056
0.273617
0.274178
0.274740
0.275302
0.275865
0.276428
0.276991
0.277555
0.278119
0.278684
0.279249
0.279814
0.280380
0.280946
0.281512
0.282079
0.282646
0.283214
0.283782
0.284350
0.284919
0.285488
0.286057
0.286627
0.287197
0.287767
0.288338
0.288909
0.289481
0.290053
0.290625
0.291197
0.291770
0.292343
0.292917
0.293491
0.294065
0.294639
0.295214
0.295790
0.296365
0.296941
0.297517
0.298094
0.298670
0.299248
0.299825
0.300403
0.300981
0.301559
0.302138
0.302717
0.303296
0.303876
0.304456
0.305036
0.305617
0.306198
0.306779
0.307360
0.307942
0.308524
0.309106
0.309689
0.310272
0.310855
0.311438
0.312022
0.312606
0.313190
0.313775
0.314360
0.314945
0.315530
0.316116
0.316702
0.317288
0.317874
0.318461
0.319048
0.319635
0.320222
0.320810
0.321398
0.321985
0.322574
0.323165
0.323757
0.324339
0.324900
0.325471
0.326174
0.327069
0.327661
0.326704
0.324367
0.327293
0.347170
0.372304
0.321217
0.099521
-0.221324
-0.429870
-0.452960
-0.415438
-0.417274
-0.430428
-0.412673
-0.394059
-0.405566
-0.413756
-0.393121
-0.382631
-0.408888
-0.432428
-0.423783
-0.417062
-0.438077
-0.449689
-0.422352
-0.392917
-0.395660
-0.401749
-0.385058
-0.376600
-0.398053
-0.412964
-0.394850
-0.377530
-0.389842
-0.402469
-0.389172
-0.380292
-0.402471
-0.422469
-0.408839
-0.393445
-0.407930
-0.420206
-0.400739
-0.384132
-0.399336
-0.410437
-0.388789
-0.370453
-0.384197
-0.395147
-0.375446
-0.360773
-0.379749
-0.396350
-0.381781
-0.371732
-0.393161
-0.408026
-0.387384
-0.368448
-0.381002
-0.390478
-0.369835
-0.354092
-0.369822
-0.382007
-0.365135
-0.356012
-0.379824
-0.397386
-0.380320
-0.365675
-0.382582
-0.394819
-0.373576
-0.355820
-0.370580
-0.382552
-0.364497
-0.350948
-0.369027
-0.384896
-0.370399
-0.358024
-0.375430
-0.390604
-0.376509
-0.364815
-0.382012
-0.394847
-0.375224
-0.356598
-0.366690
-0.372742
-0.350331
-0.334603
-0.352154
-0.369525
-0.358719
-0.350927
-0.371722
-0.386314
-0.366805
-0.348618
-0.361892
-0.372620
-0.351577
-0.334243
-0.349517
-0.361274
-0.341882
-0.327541
-0.345421
-0.359999
-0.344463
-0.333881
-0.352762
-0.363323
-0.340731
-0.324739
-0.343626
-0.360004
-0.344001
-0.328902
-0.342951
-0.354489
-0.336476
-0.322154
-0.340657
-0.358371
-0.344926
-0.332488
-0.349349
-0.363386
-0.347900
-0.335792
-0.353011
-0.363931
-0.339823
-0.316435
-0.326240
-0.338209
-0.322712
-0.311145
-0.330418
-0.344922
-0.325681
-0.309438
-0.327082
-0.342746
-0.326622
-0.314169
-0.332465
-0.345220
-0.325343
-0.308246
-0.322428
-0.335016
-0.318273
-0.304190
-0.319213
-0.330410
-0.310788
-0.295110
-0.313432
-0.331575
-0.319128
-0.309018
-0.329284
-0.346330
-0.330574
-0.313242
-0.324002
-0.332383
-0.311565
-0.296238
-0.313388
-0.326231
-0.306562
-0.291031
-0.308996
-0.324916
-0.310094
-0.300082
-0.321951
-0.337340
-0.315502
-0.292410
-0.301564
-0.312027
-0.292790
-0.275836
-0.292304
-0.309503
-0.295119
-0.279392
-0.292743
-0.304985
-0.288142
-0.276167
-0.297679
-0.315971
-0.299736
-0.283415
-0.296169
-0.304662
-0.283972
-0.270611
-0.291254
-0.308971
-0.293312
-0.278113
-0.293374
-0.305533
-0.285952
-0.270255
-0.287595
-0.302504
-0.286184
-0.273137
-0.292217
-0.310081
-0.296588
-0.282715
-0.297332
-0.308889
-0.289606
-0.273447
-0.288459
-0.299045
-0.276711
-0.257587
-0.272455
-0.288532
-0.275205
-0.263154
-0.281002
-0.295779
-0.277302
-0.258954
-0.273172
-0.289075
-0.274511
-0.258193
-0.268998
-0.276275
-0.254140
-0.238767
-0.258191
-0.275465
-0.260902
-0.249153
-0.268643
-0.284709
-0.269059
-0.256785
-0.275963
-0.290657
-0.272869
-0.257984
-0.272710
-0.281878
-0.258832
-0.238727
-0.250508
-0.261104
-0.242651
-0.229630
-0.249666
-0.266803
-0.252337
-0.241132
-0.261635
-0.278714
-0.262048
-0.245389
-0.259593
-0.272214
-0.253611
-0.236508
-0.250235
-0.263307
-0.248697
-0.238165
-0.256423
-0.269021
-0.249777
-0.233247
-0.247260
-0.258484
-0.238986
-0.223205
-0.240292
-0.255247
-0.238330
-0.223859
-0.241576
-0.258293
-0.244125
-0.230159
-0.244018
-0.254528
-0.235463
-0.220604
-0.239092
-0.256168
-0.240212
-0.224686
-0.239418
-0.250966
-0.231739
-0.216138
-0.230668
-0.240557
-0.219795
-0.202987
-0.218005
-0.232313
-0.216956
-0.203811
-0.221466
-0.236515
-0.219913
-0.204919
-0.220770
-0.235877
-0.222008
-0.210550
-0.228404
-0.240556
-0.218407
-0.200433
-0.218248
-0.233713
-0.215541
-0.200582
-0.218726
-0.234780
-0.218867
-0.203017
-0.215877
-0.226462
-0.207932
-0.193540
-0.210316
-0.223691
-0.206626
-0.194338
-0.213877
-0.228845
-0.210039
-0.192804
-0.207568
-0.220968
-0.203790
-0.189390
-0.205958
-0.220026
-0.204477
-0.192692
-0.210258
-0.222110
-0.201887
-0.185688
-0.203031
-0.220097
-0.205733
-0.191483
-0.207172
-0.219842
-0.199869
-0.181008
-0.193552
-0.204931
-0.185793
-0.169399
-0.184911
-0.199704
-0.186603
-0.178045
-0.198709
-0.212982
-0.193442
-0.175100
-0.187976
-0.200556
-0.183694
-0.169067
-0.185968
-0.201187
-0.185759
-0.174677
-0.195107
-0.208493
-0.185035
-0.158877
-0.152228
-0.120847
-0.033546
0.056933
0.079935
0.044477
0.019259
0.024222
-0.005341
-0.106437
-0.190743
-0.151296
-0.037168
0.001271
-0.053883
-0.044129
0.146139
0.441541
0.677986
0.774029
0.700907
0.271839
-0.770403
-2.147457
-2.803326
-1.918899
-0.045847
1.521993
2.235929
2.163189
0.936394
-1.591417
-3.951848
-4.001558
-1.483395
1.399721
2.372944
1.474662
0.543297
0.703934
1.100891
0.241551
-1.943683
-3.937706
-4.271583
-2.474724
1.109565
4.849468
5.908609
3.062904
-1.320125
-3.939213
-3.969976
-2.478823
0.012878
3.349667
5.556471
3.713753
-1.616230
-5.595797
-4.760599
-1.148995
1.057136
0.971122
0.883313
1.936487
2.586657
1.437836
-0.685526
-2.188435
-2.508189
-1.717769
0.195875
2.577032
3.618496
2.074928
-1.050129
-3.965556
-6.231998
-7.572716
-6.210319
-1.252675
4.406310
6.601104
4.819173
2.155066
0.747761
-0.313842
-2.076510
-3.039373
-1.110723
3.025739
6.124501
5.671129
2.187294
-1.658943
-3.457604
-2.354737
0.975574
4.432010
5.059523
1.470101
-4.062713
-7.528781
-7.305413
-5.087635
-2.535656
1.143170
6.387648
10.087583
8.658530
3.042998
-2.255792
-4.231936
-3.623791
-2.585133
-1.921722
-1.354166
-0.782489
-0.288318
-0.258782
-1.477868
-3.895009
-5.900904
-5.708840
-3.233248
-0.172572
1.695522
1.691046
-0.096531
-3.063547
-5.506392
-4.772937
0.343159
7.019439
9.852809
5.967193
-1.961775
-8.321426
-9.762841
-7.000621
-1.757508
5.563858
13.372017
16.655487
10.992936
-1.645044
-13.352043
-16.597097
-9.907965
1.530704
10.199035
11.634944
6.851122
0.817358
-1.728985
-0.102990
2.825757
4.332648
3.471838
0.668344
-1.639120
-0.253127
3.674998
4.096477
-1.606846
-7.895658
-8.577567
-4.431659
0.236282
3.908969
6.536007
5.295552
-2.624160
-12.775438
-14.587321
-3.743422
10.259766
14.460074
7.658785
-0.933886
-6.044656
-11.049896
-17.294085
-17.505575
-5.263396
13.911173
26.296709
23.897724
11.739813
0.839389
-3.539220
-4.271696
-4.962183
-4.460658
0.433495
9.634548
18.578732
21.489799
15.725370
3.949591
-8.028693
-15.888673
-18.505190
-16.254782
-10.546605
-4.857352
-3.199882
-6.056457
-9.549959
-9.796728
-6.280533
-0.869647
3.839977
5.046594
1.184791
-5.973526
-11.841825
-12.441687
-7.089527
1.269127
7.456843
7.421218
1.832124
-4.559383
-7.647470
-6.654380
-3.187370
0.087176
1.137250
-0.152850
-2.697702
-4.465496
-2.732253
3.479770
12.040233
19.184952
21.480637
17.615353
9.712426
2.605832
0.901126
5.521733
12.209887
14.194572
8.155137
-1.607422
-6.160101
-1.210664
7.807492
12.802925
12.393105
10.136337
7.010701
1.488948
-4.048372
-3.307822
5.231189
13.777846
11.999725
-2.609956
-21.295580
-30.998369
-25.497896
-10.262832
3.005960
6.542839
2.222827
-2.150613
-1.771114
1.474664
3.930486
4.531285
2.791902
-2.331448
-8.747872
-11.167594
-7.221904
0.208039
7.727382
14.708757
20.080145
18.997175
7.419833
-10.176372
-22.493214
-22.898081
-15.647875
-8.243210
-2.084365
4.739602
9.239956
5.749101
-4.598761
-13.958119
-16.025030
-9.218269
5.157197
23.410967
37.574982
37.516212
21.244961
-0.486102
-15.229854
-19.249592
-14.699704
-3.321015
13.353885
29.079437
32.716576
18.715830
-4.314042
-20.026714
-16.635757
4.519376
26.714937
30.430365
14.191670
-2.846112
-3.483503
7.927749
14.501619
9.061892
-2.813767
-15.479843
-25.273813
-25.142967
-10.375412
13.821833
35.698208
43.355476
31.802120
9.546587
-7.112353
-8.140592
4.028959
18.724236
25.864893
23.704384
18.086706
13.178960
6.180807
-6.457552
-20.220610
-24.731358
-14.910200
7.102390
37.276474
64.120773
66.730591
35.034706
-14.772397
-55.022354
-69.984459
-62.115841
-43.969353
-25.894985
-9.995994
4.463647
16.047947
23.560530
28.427788
31.523062
27.265295
7.386624
-24.640831
-51.250347
-56.617336
-37.551334
-0.184835
43.360344
74.508324
75.806824
46.633244
8.076473
-16.947584
-24.738909
-22.379299
-14.235678
-7.407138
-10.218876
-20.235886
-26.131094
-19.139942
0.443592
22.741875
36.764233
42.754120
47.311867
46.826508
30.935240
1.809227
-23.821552
-31.512421
-20.502007
0.696873
25.042618
49.052315
66.353455
65.582756
38.877499
-5.653566
-46.802921
-69.588196
-74.024147
-66.219368
-49.221825
-22.360842
12.758923
45.247028
57.040611
40.369553
16.123301
19.876497
58.799896
100.679520
111.229172
84.817085
42.134701
6.061762
-17.333475
-29.086990
-24.643181
-3.124678
24.341703
42.880936
42.836575
22.397467
-8.208297
-29.299458
-28.193310
-10.674723
6.533377
11.209975
2.605582
-11.775043
-20.941547
-14.689474
7.896254
30.353703
27.401512
-9.230580
-57.527962
-85.174835
-79.258911
-50.686687
-15.415326
17.518414
42.108135
53.168648
50.066826
36.269165
17.841604
5.833569
12.499644
36.778931
56.117100
43.094879
-6.384929
-68.093178
-111.893829
-124.137444
-112.866333
-94.380966
-74.956497
-51.075054
-23.495449
0.497416
16.523254
26.676296
34.547569
38.527374
33.259560
21.263098
13.890345
16.409616
24.112398
35.395187
58.032589
97.426132
138.435226
145.927231
100.975952
28.886438
-30.907459
-61.757839
-63.241615
-39.598461
-2.059499
34.967705
61.570137
72.700890
62.729134
29.025581
-13.030734
-36.057495
-30.788130
-11.042484
11.859538
38.857689
66.687759
82.323303
83.143761
84.309624
95.078392
102.099167
86.382301
48.618961
7.341057
-20.233334
-25.848051
-9.233374
20.190903
44.900810
50.492867
38.994759
25.992619
20.530939
18.058784
14.962391
14.707183
21.364319
35.907864
51.775707
55.599758
38.951115
6.395207
-24.586494
-33.236095
-15.339100
12.327873
31.769577
35.965862
21.794495
-13.491014
-65.135712
-116.799057
-144.954285
-131.823669
-81.392998
-19.751150
26.602551
52.353050
70.132133
86.866241
91.367569
71.895164
39.593758
21.564734
30.710592
52.349964
62.515900
53.867344
38.752022
29.368174
24.468634
17.183262
7.490992
3.044471
9.163175
19.693108
23.179714
19.037802
17.661610
25.220556
39.733715
56.223198
66.959358
65.181534
50.043072
23.277559
-11.926711
-48.865292
-80.276756
-100.609711
-107.346062
-103.385689
-95.204666
-90.924026
-98.474670
-116.735352
-132.178558
-131.844299
-114.474411
-86.917694
-57.521130
-33.435158
-17.621861
-8.906405
-7.442322
-15.750456
-32.640457
-51.496170
-65.999947
-73.364021
-73.491570
-70.878777
-74.017166
-85.900932
-98.883286
-103.618355
-98.743042
-89.499992
-79.981201
-68.241173
-48.412167
-16.195984
27.421915
75.122276
116.205528
143.431168
156.757675
160.855392
162.056213
166.122864
173.091309
172.920319
150.541641
97.539299
21.079729
-55.002949
-104.424736
-119.314209
-111.484253
-96.683838
-84.287567
-75.985359
-68.443192
-57.526863
-40.841553
-19.350498
0.832709
13.492659
21.176273
31.913000
48.534821
66.566833
80.206680
86.463531
81.167442
57.162598
15.213011
-27.469578
-49.477833
-45.713871
-30.160269
-23.064463
-35.714581
-61.011940
-83.643578
-97.493637
-106.194649
-113.342026
-117.462044
-117.493187
-119.099297
-127.135429
-137.651810
-144.540543
-145.826645
-141.419235
-132.188446
-119.805222
-106.040962
-94.504959
-88.623138
-86.696266
-82.891487
-72.602837
-56.770069
-42.657402
-39.482033
-49.956898
-64.913391
-71.320198
-66.770149
-60.764481
-63.313889
-75.260368
-87.913780
-92.333694
-87.834641
-80.099564
-74.424164
-72.616463
-74.228233
-77.887550
-81.376747
-83.737450
-87.583298
-96.963531
-113.176132
-132.041351
-144.441177
-142.283875
-124.820992
-97.309357
-65.005409
-31.155174
1.332072
29.190413
47.894398
52.015167
41.708221
28.107244
26.535431
44.488918
79.096420
123.412453
170.158035
208.162277
218.643311
182.444901
98.428596
-8.071306
-103.621414
-169.563858
-204.029648
-214.208130
-211.588120
-206.339417
-201.452728
-193.580063
-180.479782
-164.407883
-147.384491
-128.302505
-106.539757
-84.673119
-66.659027
-55.352497
-50.153816
-46.391464
-40.705978
-35.821449
-36.821915
-45.493572
-59.829433
-76.608200
-92.660088
-102.948593
-100.334793
-82.472740
-57.188549
-34.506088
-15.700229
3.977741
27.177834
53.911785
83.200821
112.354279
136.742783
150.595215
149.091171
130.932358
98.980461
59.431095
19.780945
-15.867596
-49.673271
-86.158035
-126.421089
-165.843521
-195.889252
-207.935852
-196.110794
-161.203827
-113.389214
-66.321136
-27.156155
7.728144
47.690693
96.207016
143.232468
171.557770
173.800781
159.341431
140.848801
122.080177
101.124207
77.465652
54.749805
38.905830
33.885654
39.199146
50.157745
61.051052
69.371117
75.017036
76.270271
72.697433
69.915359
73.209740
81.610542
94.619614
115.263847
141.617294
163.228424
169.150620
157.416611
136.703873
119.301712
112.321762
113.757652
115.578117
112.381439
105.674461
98.063385
88.201202
74.012009
56.542656
37.857059
17.856655
-4.809543
-30.386728
-56.538982
-78.276794
-90.607414
-92.173035
-86.883926
-82.259529
-84.315117
-92.993851
-104.359482
-116.557640
-129.733902
-141.344070
-146.573166
-142.587677
-129.506195
-109.327225
-85.568176
-62.441128
-42.316330
-23.182194
-1.792715
20.978504
42.059795
59.975548
74.193886
85.048798
94.686790
105.190521
115.687012
122.330276
120.825447
110.107986
95.284012
84.374359
81.341965
85.728638
96.220779
109.307228
118.611153
119.894897
113.468590
102.295456
91.793076
87.612396
89.171555
89.368233
83.290298
73.636627
66.257370
62.843586
59.061367
49.748817
36.170902
26.570486
27.375475
34.972054
38.594658
31.081959
15.307026
0.884042
-3.673742
3.107465
14.988024
23.859186
27.430408
30.284906
37.868359
51.688026
70.188423
90.855850
110.112045
124.531532
133.105057
135.675308
131.061142
119.684738
105.372688
93.157379
87.684532
91.827988
102.472610
109.181122
101.857521
80.464531
54.900066
35.569317
25.781631
22.418552
21.195807
19.967136
18.607553
17.950815
18.678900
19.863857
18.733177
13.367866
6.624230
6.088458
18.051828
41.729675
69.345657
90.905998
100.354568
99.102577
94.001228
90.849022
89.508827
87.141113
84.705101
85.223343
85.913605
78.671455
60.796692
39.439579
22.523663
10.370290
-0.954402
-12.805387
-24.356409
-36.582676
-51.736740
-69.639076
-86.855057
-99.666916
-106.769341
-109.752762
-112.117752
-116.978531
-125.012070
-134.355484
-141.090057
-139.098938
-121.782516
-87.901924
-46.064167
-9.968738
11.947680
21.385118
25.883223
30.614193
34.001179
31.600012
23.601772
16.060215
14.329412
17.729958
21.711868
24.011927
28.086250
40.619953
64.364830
92.350418
111.514854
113.892769
101.657143
81.361092
58.113029
34.938961
13.003210
-7.733573
-26.715569
-43.542175
-60.255024
-78.361351
-92.658882
-94.040367
-80.615166
-59.730072
-38.598591
-19.850901
-4.288716
8.794816
22.127651
37.739506
55.911880
76.464104
96.998474
111.689972
116.734291
115.447891
113.929756
113.371567
110.391541
103.025574
92.715538
80.837502
64.166885
37.676121
5.382309
-21.193665
-39.572865
-58.908234
-85.243919
-114.651901
-139.718155
-155.833817
-162.918167
-165.084915
-165.663940
-163.221542
-156.470093
-148.312057
-142.215637
-137.917816
-131.625351
-121.413643
-111.219147
-106.568123
-107.678429
-108.395355
-102.942795
-93.656548
-88.283684
-88.913506
-88.026306
-77.396759
-57.161739
-33.859535
-13.508886
1.305944
10.579918
15.264458
16.903183
17.732098
19.033957
19.684845
16.875561
8.517373
-3.644716
-14.932480
-22.862427
-28.293179
-32.144188
-34.784492
-38.105705
-44.425148
-52.297565
-56.737823
-54.851776
-48.398491
-40.380951
-31.606297
-21.038326
-8.211384
4.519491
11.978840
10.786600
4.653354
2.167660
8.885320
23.700832
41.678600
58.264835
72.083321
85.173943
100.380157
118.346558
136.946701
153.206635
165.179153
172.029129
172.901657
166.175919
150.605179
126.813072
97.163406
65.553497
36.494205
12.148627
-8.770446
-28.841333
-49.716587
-70.919930
-90.370094
-106.703171
-120.151939
-131.033279
-138.611954
-141.470139
-138.685791
-130.801514
-119.114754
-104.397423
-87.460846
-69.750900
-52.749214
-38.652721
-30.758427
-31.164347
-39.005939
-50.923035
-62.433418
-70.423370
-75.102844
-78.712334
-82.741974
-87.153137
-91.791992
-97.512268
-105.480827
-115.438553
-124.886078
-130.491898
-130.020432
-123.331581
-113.025841
-103.145226
-96.051308
-90.687576
-82.474014
-65.791649
-40.066631
-11.934911
12.232394
33.466537
56.468506
81.667625
104.369720
119.994194
127.275490
127.215240
121.612907
111.946053
98.050682
79.805977
60.459370
44.519482
31.983082
18.487753
1.190618
-18.424604
-36.644608
-50.197655
-57.871494
-61.010746
-62.000614
-61.501976
-57.237038
-45.825798
-25.960514
0.075114
27.746868
52.756657
72.301552
85.186272
91.691055
93.369644
93.206764
94.084755
94.942970
90.721245
77.677254
56.887112
32.319145
7.517530
-14.495619
-30.150999
-37.827374
-40.384315
-41.049725
-37.204491
-22.596401
4.136271
36.594097
66.032501
87.222191
99.132217
102.969856
101.433594
97.577148
93.330994
89.928688
87.928665
86.766357
86.715363
88.758926
89.964401
84.869934
74.309914
66.271072
66.234459
71.641640
