EVENT_NAME: EMILIA_2ND_SHOCK
EVENT_ID: IT-2012-0011
EVENT_DATE_YYYYMMDD: 20120529
EVENT_TIME_HHMMSS: 070002
EVENT_LATITUDE_DEGREE: 44.8417
EVENT_LONGITUDE_DEGREE: 11.0657
EVENT_DEPTH_KM: 8.1
HYPOCENTER_REFERENCE: INGV-CNT_Seismic_Bulletin
MAGNITUDE_W: 6.0
MAGNITUDE_W_REFERENCE: RCMT-INGV
MAGNITUDE_L: 5.8
MAGNITUDE_L_REFERENCE: INGV-CNT_Seismic_Bulletin
FOCAL_MECHANISM: TF
NETWORK: IT
STATION_CODE: MRN
STATION_NAME: MIRANDOLA (NAPOLI)
STATION_LATITUDE_DEGREE: 44.878231
STATION_LONGITUDE_DEGREE: 11.061743
STATION_ELEVATION_M: 15
LOCATION: 
SENSOR_DEPTH_M: 0.0
VS30_M/S: 208
SITE_CLASSIFICATION_EC8: C
MORPHOLOGIC_CLASSIFICATION: 
EPICENTRAL_DISTANCE_KM: 4.1
EARTHQUAKE_BACKAZIMUTH_DEGREE: 175.6
DATE_TIME_FIRST_SAMPLE_YYYYMMDD_HHMMSS: 20120529_065948.000
DATE_TIME_FIRST_SAMPLE_PRECISION: seconds
SAMPLING_INTERVAL_S: 0.005000
NDATA: 13713
DURATION_S: 68.565
STREAM: HNE
UNITS: cm
INSTRUMENT: sensor = MS2007+ [Syscom] | digitizer = 130-01/3 [Reftek]
INSTRUMENT_ANALOG/DIGITAL: D
INSTRUMENTAL_FREQUENCY_HZ: 
INSTRUMENTAL_DAMPING: 
FULL_SCALE_G: 
N_BIT_DIGITAL_CONVERTER: 24
PGD_CM: 9.166983
TIME_PGD_S: 20.255000
BASELINE_CORRECTION: BASELINE REMOVED
FILTER_TYPE: BUTTERWORTH
FILTER_ORDER: 2
LOW_CUT_FREQUENCY_HZ: 0.070
HIGH_CUT_FREQUENCY_HZ: 40.000
LATE/NORMAL_TRIGGERED: NT
DATABASE_VERSION: DYNA 1.0
HEADER_FORMAT: DYNA 1.2
DATA_TYPE: DISPLACEMENT
PROCESSING: manual (Paolucci et al., 2011)
DATA_TIMESTAMP_YYYYMMDD_HHMMSS: 20141204_104205.354
DATA_LICENSE: CC-BY3_0-IT (http://creativecommons.org/licenses/by/3.0/deed.en)
DATA_CITATION: ESM working group (2015), European Strong-Motion database, version 0.1, Network Activity 3: Networking acceleration networks and SM data users. Project NERA (www.nera-eu.org)
DATA_CREATOR: ESM working group
ORIGINAL_DATA_MEDIATOR_CITATION: Ufficio Rischio Sismico e Vulcanico del Dipartimento della Protezione Civile (http://www.protezionecivile.gov.it/)
ORIGINAL_DATA_MEDIATOR: Rete Accelerometrica Nazionale - RAN Download (http://www.mot1.it/randownload/)
ORIGINAL_DATA_CREATOR_CITATION: Italian Strong Motion Network, Italian Civil Protection Department http://www.protezionecivile.gov.it
ORIGINAL_DATA_CREATOR: network: IT (Italian Strong Motion Network); owner: Dipartimento Della Protezione Civile
USER1: /home/dyna/processing-itaca/processing.py /var/www/processing/tmp/fpacor//IT.MRN..HNE.D.20120529.070003.X.ACC.ASC /var/www/processing/tmp/fpacor//IT.MRN..HNN.D.20120529.070003.X.ACC.ASC /var/www/processing/tmp/fpacor//IT.MRN..HNZ.D.20120529.070003.X.ACC.ASC --tmp /var/www/processing/tmp/fpacor/ --le 0.070 --he 40.000 --ln 0.070 --hn 40.000 --lz 0.070 --hz 40.000 --fo 2 --ca -15 --cz 100 --ta 5 --tz 5 --mf 1 --rf 0 --tr NT
USER2: 
USER3: 
USER4: 
USER5: 
[...]
3.725367e-02
3.827058e-02
3.927936e-02
4.028040e-02
4.127326e-02
4.225756e-02
4.323369e-02
4.420196e-02
4.516192e-02
4.611326e-02
4.705646e-02
4.799195e-02
4.891938e-02
4.983844e-02
5.074954e-02
5.165303e-02
5.254855e-02
5.343580e-02
5.431529e-02
5.518740e-02
5.605167e-02
5.690765e-02
5.775565e-02
5.859593e-02
5.942798e-02
6.025137e-02
6.106649e-02
6.187378e-02
6.267297e-02
6.346386e-02
6.424695e-02
6.502264e-02
6.579049e-02
6.655019e-02
6.730222e-02
6.804698e-02
6.878401e-02
6.951292e-02
7.023408e-02
7.094774e-02
7.165334e-02
7.235052e-02
7.303980e-02
7.372178e-02
7.439621e-02
7.506285e-02
7.572217e-02
7.637459e-02
7.701970e-02
7.765707e-02
7.828707e-02
7.891008e-02
7.952577e-02
8.013384e-02
8.073471e-02
8.132867e-02
8.191519e-02
8.249381e-02
8.306494e-02
8.362898e-02
8.418561e-02
8.473463e-02
8.527656e-02
8.581171e-02
8.633959e-02
8.685974e-02
8.737255e-02
8.787842e-02
8.837695e-02
8.886784e-02
8.935158e-02
8.982857e-02
9.029837e-02
9.076060e-02
9.121568e-02
9.166393e-02
9.210488e-02
9.253807e-02
9.296385e-02
9.338256e-02
9.379384e-02
9.419739e-02
9.459371e-02
9.498319e-02
9.536546e-02
9.574025e-02
9.610812e-02
9.646956e-02
9.682418e-02
9.717159e-02
9.751212e-02
9.784607e-02
9.817299e-02
9.849253e-02
9.880512e-02
9.911125e-02
9.941054e-02
9.970261e-02
9.998782e-02
1.002666e-01
1.005386e-01
1.008037e-01
1.010625e-01
1.013153e-01
1.015616e-01
1.018011e-01
1.020340e-01
1.022607e-01
1.024807e-01
1.026936e-01
1.028997e-01
1.030994e-01
1.032923e-01
1.034778e-01
1.036566e-01
1.038288e-01
1.039943e-01
1.041527e-01
1.043047e-01
1.044507e-01
1.045904e-01
1.047236e-01
1.048507e-01
1.049721e-01
1.050872e-01
1.051957e-01
1.052979e-01
1.053940e-01
1.054836e-01
1.055662e-01
1.056423e-01
1.057123e-01
1.057757e-01
1.058324e-01
1.058827e-01
1.059271e-01
1.059652e-01
1.059968e-01
1.060221e-01
1.060415e-01
1.060545e-01
1.060607e-01
1.060607e-01
1.060549e-01
1.060429e-01
1.060244e-01
1.060000e-01
1.059699e-01
1.059339e-01
1.058915e-01
1.058431e-01
1.057891e-01
1.057291e-01
1.056627e-01
1.055901e-01
1.055118e-01
1.054274e-01
1.053366e-01
1.052399e-01
1.051377e-01
1.050295e-01
1.049150e-01
1.047944e-01
1.046682e-01
1.045360e-01
1.043976e-01
1.042533e-01
1.041037e-01
1.039483e-01
1.037868e-01
1.036199e-01
1.034479e-01
1.032705e-01
1.030872e-01
1.028985e-01
1.027048e-01
1.025054e-01
1.023002e-01
1.020895e-01
1.018737e-01
1.016523e-01
1.014250e-01
1.011922e-01
1.009541e-01
1.007104e-01
1.004606e-01
1.002053e-01
9.994502e-02
9.967929e-02
9.940772e-02
9.913076e-02
9.884879e-02
9.856135e-02
9.826804e-02
9.796926e-02
9.766540e-02
9.735614e-02
9.704123e-02
9.672111e-02
9.639616e-02
9.606595e-02
9.573014e-02
9.538917e-02
9.504335e-02
9.469217e-02
9.433528e-02
9.397313e-02
9.360616e-02
9.323401e-02
9.285633e-02
9.247355e-02
9.208604e-02
9.169339e-02
9.129523e-02
9.089196e-02
9.048387e-02
9.007052e-02
8.965162e-02
8.922768e-02
8.879909e-02
8.836543e-02
8.792627e-02
8.748196e-02
8.703286e-02
8.657859e-02
8.611882e-02
8.565405e-02
8.518476e-02
8.471062e-02
8.423137e-02
8.374747e-02
8.325934e-02
8.276658e-02
8.226883e-02
8.176641e-02
8.125955e-02
8.074771e-02
8.023055e-02
7.970856e-02
7.918219e-02
7.865112e-02
7.811503e-02
7.757435e-02
7.702945e-02
7.647990e-02
7.592531e-02
7.536609e-02
7.480249e-02
7.423402e-02
7.366034e-02
7.308203e-02
7.249974e-02
7.191366e-02
7.132455e-02
7.073460e-02
7.014608e-02
6.955955e-02
6.897414e-02
6.838920e-02
6.780488e-02
6.722042e-02
6.663330e-02
6.604141e-02
6.544573e-02
6.484913e-02
6.425256e-02
6.365465e-02
6.305563e-02
6.246026e-02
6.187593e-02
6.130855e-02
6.076053e-02
6.023002e-02
5.970631e-02
5.916334e-02
5.856669e-02
5.789995e-02
5.718524e-02
5.646938e-02
5.579157e-02
5.516967e-02
5.460184e-02
5.405742e-02
5.347321e-02
5.279021e-02
5.200717e-02
5.118705e-02
5.040191e-02
4.967611e-02
4.898716e-02
4.831180e-02
4.765404e-02
4.702380e-02
4.639960e-02
4.572681e-02
4.495558e-02
4.407755e-02
4.313766e-02
4.222551e-02
4.143459e-02
4.079139e-02
4.022476e-02
3.962513e-02
3.892702e-02
3.812965e-02
3.727032e-02
3.641131e-02
3.563604e-02
3.499969e-02
3.445617e-02
3.387226e-02
3.314844e-02
3.230561e-02
3.143406e-02
3.058893e-02
2.976809e-02
2.896932e-02
2.821897e-02
2.753329e-02
2.688355e-02
2.621667e-02
2.549508e-02
2.471079e-02
2.388355e-02
2.306121e-02
2.230329e-02
2.163584e-02
2.102026e-02
2.037843e-02
1.963746e-02
1.874069e-02
1.765460e-02
1.641325e-02
1.514058e-02
1.397808e-02
1.298060e-02
1.210360e-02
1.128048e-02
1.047605e-02
9.663773e-03
8.799586e-03
7.859414e-03
6.891474e-03
5.999177e-03
5.259993e-03
4.662587e-03
4.119864e-03
3.535667e-03
2.865029e-03
2.135524e-03
1.430408e-03
8.360917e-04
3.682639e-04
-6.281149e-05
-5.954547e-04
-1.316317e-03
-2.219815e-03
-3.250504e-03
-4.344585e-03
-5.410086e-03
-6.315895e-03
-6.969516e-03
-7.406673e-03
-7.767755e-03
-8.185232e-03
-8.708507e-03
-9.322377e-03
-1.000088e-02
-1.072742e-02
-1.148781e-02
-1.226777e-02
-1.305494e-02
-1.384857e-02
-1.467915e-02
-1.560711e-02
-1.668259e-02
-1.790079e-02
-1.919982e-02
-2.050317e-02
-2.176413e-02
-2.298281e-02
-2.420390e-02
-2.550159e-02
-2.693693e-02
-2.849160e-02
-3.003769e-02
-3.140829e-02
-3.253257e-02
-3.350767e-02
-3.453182e-02
-3.576400e-02
-3.724026e-02
-3.889153e-02
-4.058673e-02
-4.214284e-02
-4.336465e-02
-4.417008e-02
-4.470067e-02
-4.527240e-02
-4.617793e-02
-4.749838e-02
-4.906653e-02
-5.059642e-02
-5.187133e-02
-5.285536e-02
-5.366812e-02
-5.446044e-02
-5.529599e-02
-5.613412e-02
-5.690159e-02
-5.756076e-02
-5.813312e-02
-5.868878e-02
-5.928542e-02
-5.988838e-02
-6.039947e-02
-6.080815e-02
-6.125700e-02
-6.190324e-02
-6.276392e-02
-6.373539e-02
-6.470096e-02
-6.556880e-02
-6.627323e-02
-6.684529e-02
-6.748294e-02
-6.843998e-02
-6.976170e-02
-7.117701e-02
-7.233583e-02
-7.313314e-02
-7.373899e-02
-7.436818e-02
-7.514848e-02
-7.620504e-02
-7.769395e-02
-7.962049e-02
-8.167862e-02
-8.338897e-02
-8.444191e-02
-8.489740e-02
-8.505939e-02
-8.520041e-02
-8.542990e-02
-8.576618e-02
-8.622652e-02
-8.679837e-02
-8.735939e-02
-8.767954e-02
-8.753523e-02
-8.685367e-02
-8.577898e-02
-8.460554e-02
-8.363283e-02
-8.305733e-02
-8.294446e-02
-8.323796e-02
-8.379512e-02
-8.447372e-02
-8.523232e-02
-8.614232e-02
-8.729108e-02
-8.868475e-02
-9.023544e-02
-9.180787e-02
-9.328430e-02
-9.463456e-02
-9.595521e-02
-9.742519e-02
-9.919122e-02
-1.012683e-01
-1.035226e-01
-1.057452e-01
-1.077813e-01
-1.096320e-01
-1.114368e-01
-1.133556e-01
-1.154656e-01
-1.177420e-01
-1.200980e-01
-1.224519e-01
-1.247773e-01
-1.271065e-01
-1.295032e-01
-1.320116e-01
-1.345882e-01
-1.370779e-01
-1.392665e-01
-1.409755e-01
-1.421475e-01
-1.428791e-01
-1.433679e-01
-1.437916e-01
-1.441927e-01
-1.444558e-01
-1.444136e-01
-1.440166e-01
-1.434157e-01
-1.428550e-01
-1.424483e-01
-1.420718e-01
-1.415002e-01
-1.406085e-01
-1.394069e-01
-1.379520e-01
-1.363218e-01
-1.346544e-01
-1.330881e-01
-1.316046e-01
-1.299903e-01
-1.280315e-01
-1.257728e-01
-1.235793e-01
-1.219182e-01
-1.210320e-01
-1.207833e-01
-1.207912e-01
-1.207239e-01
-1.204930e-01
-1.202066e-01
-1.199739e-01
-1.197856e-01
-1.195603e-01
-1.192368e-01
-1.188000e-01
-1.182934e-01
-1.178451e-01
-1.176155e-01
-1.176651e-01
-1.178952e-01
-1.181202e-01
-1.181519e-01
-1.178159e-01
-1.169779e-01
-1.156650e-01
-1.141666e-01
-1.129226e-01
-1.122410e-01
-1.121318e-01
-1.124137e-01
-1.129018e-01
-1.134420e-01
-1.138637e-01
-1.140544e-01
-1.141013e-01
-1.142632e-01
-1.147741e-01
-1.156856e-01
-1.168276e-01
-1.178406e-01
-1.182684e-01
-1.177568e-01
-1.163072e-01
-1.143266e-01
-1.123581e-01
-1.107704e-01
-1.096639e-01
-1.089248e-01
-1.082689e-01
-1.072790e-01
-1.055622e-01
-1.030275e-01
-1.000248e-01
-9.713005e-02
-9.473593e-02
-9.275771e-02
-9.066651e-02
-8.790743e-02
-8.438760e-02
-8.051297e-02
-7.670949e-02
-7.299311e-02
-6.907853e-02
-6.480140e-02
-6.029774e-02
-5.586441e-02
-5.181808e-02
-4.840360e-02
-4.561769e-02
-4.309117e-02
-4.021910e-02
-3.645457e-02
-3.160616e-02
-2.596270e-02
-2.008057e-02
-1.437625e-02
-8.875441e-03
-3.273911e-03
2.795724e-03
9.511982e-03
1.682085e-02
2.458188e-02
3.267239e-02
4.091742e-02
4.900101e-02
5.657909e-02
6.353888e-02
7.012592e-02
7.689051e-02
8.458702e-02
9.388655e-02
1.048543e-01
1.166980e-01
1.281723e-01
1.382711e-01
1.466203e-01
1.534166e-01
1.591137e-01
1.641633e-01
1.689631e-01
1.738745e-01
1.791870e-01
1.850886e-01
1.917009e-01
1.991012e-01
2.071832e-01
2.154499e-01
2.231005e-01
2.294699e-01
2.344238e-01
2.384389e-01
2.424495e-01
2.475440e-01
2.545013e-01
2.633537e-01
2.733719e-01
2.835921e-01
2.933886e-01
3.025666e-01
3.111851e-01
3.194477e-01
3.275251e-01
3.353471e-01
3.426632e-01
3.493260e-01
3.555103e-01
3.617057e-01
3.684696e-01
3.761527e-01
3.849046e-01
3.948392e-01
4.059446e-01
4.178233e-01
4.297473e-01
4.410757e-01
4.516164e-01
4.616444e-01
4.716899e-01
4.823615e-01
4.942593e-01
5.078160e-01
5.230123e-01
5.391805e-01
5.552074e-01
5.700642e-01
5.831812e-01
5.944477e-01
6.040587e-01
6.124392e-01
6.202606e-01
6.284010e-01
6.376726e-01
6.483702e-01
6.600770e-01
6.721870e-01
6.847938e-01
6.988706e-01
7.154644e-01
7.348390e-01
7.563340e-01
7.788823e-01
8.015822e-01
8.238487e-01
8.453881e-01
8.663114e-01
8.871566e-01
9.086103e-01
9.311360e-01
9.547327e-01
9.788893e-01
1.002841e+00
1.026060e+00
1.048574e+00
1.070821e+00
1.093231e+00
1.115922e+00
1.138678e+00
1.161140e+00
1.183078e+00
1.204648e+00
1.226417e+00
1.248944e+00
1.272156e+00
1.295137e+00
1.316680e+00
1.336094e+00
1.353526e+00
1.369691e+00
1.385471e+00
1.401688e+00
1.418959e+00
1.437558e+00
1.457410e+00
1.478168e+00
1.499372e+00
1.520722e+00
1.542384e+00
1.564966e+00
1.588950e+00
1.614013e+00
1.638915e+00
1.662115e+00
1.682518e+00
1.699817e+00
1.714295e+00
1.726413e+00
1.736658e+00
1.745625e+00
1.754005e+00
1.762398e+00
1.771203e+00
1.780676e+00
1.791012e+00
1.802311e+00
1.814442e+00
1.827104e+00
1.840114e+00
1.853534e+00
1.867557e+00
1.882464e+00
1.898823e+00
1.917617e+00
1.939871e+00
1.965775e+00
1.994202e+00
2.023352e+00
2.051729e+00
2.078562e+00
2.103814e+00
2.128076e+00
2.152286e+00
2.177371e+00
2.203995e+00
2.232437e+00
2.262446e+00
2.293182e+00
2.323591e+00
2.353100e+00
2.381838e+00
2.410301e+00
2.439059e+00
2.468790e+00
2.500187e+00
2.533643e+00
2.569177e+00
2.606819e+00
2.646838e+00
2.689409e+00
2.734140e+00
2.780087e+00
2.826217e+00
2.871841e+00
2.916819e+00
2.961566e+00
3.006818e+00
3.053192e+00
3.100829e+00
3.149440e+00
3.198702e+00
3.248476e+00
3.298703e+00
3.349303e+00
3.400271e+00
3.451773e+00
3.504172e+00
3.557866e+00
3.612950e+00
3.669008e+00
3.725226e+00
3.780829e+00
3.835601e+00
3.889990e+00
3.944687e+00
4.000178e+00
4.056568e+00
4.113503e+00
4.170101e+00
4.225070e+00
4.277120e+00
4.325546e+00
4.370676e+00
4.413771e+00
4.456372e+00
4.499639e+00
4.544214e+00
4.590543e+00
4.639043e+00
4.689827e+00
4.742409e+00
4.795981e+00
4.850092e+00
4.904970e+00
4.961158e+00
5.018908e+00
5.078005e+00
5.138070e+00
5.198870e+00
5.260282e+00
5.322123e+00
5.384152e+00
5.446256e+00
5.508590e+00
5.571416e+00
5.634821e+00
5.698703e+00
5.763026e+00
5.827979e+00
5.893926e+00
5.961278e+00
6.030305e+00
6.100961e+00
6.172868e+00
6.245357e+00
6.317547e+00
6.388517e+00
6.457479e+00
6.523926e+00
6.587689e+00
6.648868e+00
6.707666e+00
6.764192e+00
6.818256e+00
6.869401e+00
6.917242e+00
6.961786e+00
7.003469e+00
7.042979e+00
7.081051e+00
7.118287e+00
7.155082e+00
7.191655e+00
7.228041e+00
7.264034e+00
7.299211e+00
7.333101e+00
7.365340e+00
7.395746e+00
7.424314e+00
7.451110e+00
7.476056e+00
7.498854e+00
7.519180e+00
7.536916e+00
7.552183e+00
7.565212e+00
7.576242e+00
7.585566e+00
7.593680e+00
7.601389e+00
7.609783e+00
7.620056e+00
7.633233e+00
7.649996e+00
7.670679e+00
7.695382e+00
7.724137e+00
7.757046e+00
7.794281e+00
7.835839e+00
7.881161e+00
7.928922e+00
7.977209e+00
8.024122e+00
8.068423e+00
8.109742e+00
8.148274e+00
8.184389e+00
8.218396e+00
8.250504e+00
8.280901e+00
8.309860e+00
8.337797e+00
8.365251e+00
8.392726e+00
8.420538e+00
8.448879e+00
8.478018e+00
8.508371e+00
8.540387e+00
8.574409e+00
8.610593e+00
8.648805e+00
8.688447e+00
8.728469e+00
8.767804e+00
8.805903e+00
8.842858e+00
8.879060e+00
8.914685e+00
8.949417e+00
8.982624e+00
9.013739e+00
9.042418e+00
9.068441e+00
9.091631e+00
9.111884e+00
9.129200e+00
9.143539e+00
9.154699e+00
9.162418e+00
9.166523e+00
9.166983e+00
9.163907e+00
9.157526e+00
9.148151e+00
9.136124e+00
9.121735e+00
9.105130e+00
9.086358e+00
9.065513e+00
9.042853e+00
9.018775e+00
8.993629e+00
8.967497e+00
8.940116e+00
8.911111e+00
8.880324e+00
8.847868e+00
8.813892e+00
8.778334e+00
8.740894e+00
8.701256e+00
8.659310e+00
8.615169e+00
8.569024e+00
8.521019e+00
8.471199e+00
8.419523e+00
8.365899e+00
8.310242e+00
8.252490e+00
8.192550e+00
8.130185e+00
8.064990e+00
7.996495e+00
7.924389e+00
7.848726e+00
7.769942e+00
7.688725e+00
7.605883e+00
7.522262e+00
7.438675e+00
7.355817e+00
7.274157e+00
7.193797e+00
7.114480e+00
7.035866e+00
6.957915e+00
6.881076e+00
6.806214e+00
6.734438e+00
6.666916e+00
6.604598e+00
6.547746e+00
6.495455e+00
6.445624e+00
6.395592e+00
6.342970e+00
6.286108e+00
6.224146e+00
6.156828e+00
6.084221e+00
6.006455e+00
5.923653e+00
5.836011e+00
5.743858e+00
5.647594e+00
5.547646e+00
5.444490e+00
5.338670e+00
5.230734e+00
5.121131e+00
5.010145e+00
4.897904e+00
4.784504e+00
4.670086e+00
4.554773e+00
4.438539e+00
4.321168e+00
4.202301e+00
4.081518e+00
3.958420e+00
3.832747e+00
3.704566e+00
3.574324e+00
3.442651e+00
3.310116e+00
3.177189e+00
3.044361e+00
2.912212e+00
2.781411e+00
2.652691e+00
2.526779e+00
2.404285e+00
2.285557e+00
2.170556e+00
2.058828e+00
1.949574e+00
1.841807e+00
1.734534e+00
1.626864e+00
1.517952e+00
1.406887e+00
1.292661e+00
1.174288e+00
1.051019e+00
9.225512e-01
7.891806e-01
6.517799e-01
5.115445e-01
3.696511e-01
2.270788e-01
8.469966e-02
-5.648720e-02
-1.952689e-01
-3.304698e-01
-4.613817e-01
-5.879486e-01
-7.105320e-01
-8.295941e-01
-9.456043e-01
-1.059086e+00
-1.170632e+00
-1.280808e+00
-1.390012e+00
-1.498369e+00
-1.605746e+00
-1.711869e+00
-1.816466e+00
-1.919328e+00
-2.020315e+00
-2.119395e+00
-2.216658e+00
-2.312173e+00
-2.405858e+00
-2.497502e+00
-2.586781e+00
-2.673178e+00
-2.756035e+00
-2.834811e+00
-2.909359e+00
-2.979971e+00
-3.047165e+00
-3.111377e+00
-3.172781e+00
-3.231340e+00
-3.287011e+00
-3.339872e+00
-3.390091e+00
-3.437858e+00
-3.483420e+00
-3.527133e+00
-3.569431e+00
-3.610783e+00
-3.651689e+00
-3.692715e+00
-3.734500e+00
-3.777699e+00
-3.822855e+00
-3.870277e+00
-3.920002e+00
-3.971900e+00
-4.025854e+00
-4.081916e+00
-4.140302e+00
-4.201298e+00
-4.265208e+00
-4.332361e+00
-4.403048e+00
-4.477399e+00
-4.555314e+00
-4.636468e+00
-4.720354e+00
-4.806380e+00
-4.893967e+00
-4.982611e+00
-5.071836e+00
-5.161105e+00
-5.249849e+00
-5.337542e+00
-5.423736e+00
-5.508075e+00
-5.590288e+00
-5.670133e+00
-5.747349e+00
-5.821672e+00
-5.892938e+00
-5.961182e+00
-6.026674e+00
-6.089784e+00
-6.150784e+00
-6.209751e+00
-6.266575e+00
-6.320993e+00
-6.372679e+00
-6.421399e+00
-6.467122e+00
-6.510008e+00
-6.550337e+00
-6.588371e+00
-6.624214e+00
-6.657829e+00
-6.689209e+00
-6.718507e+00
-6.745964e+00
-6.771764e+00
-6.795993e+00
-6.818746e+00
-6.840256e+00
-6.860860e+00
-6.880801e+00
-6.900057e+00
-6.918439e+00
-6.935856e+00
-6.952496e+00
-6.968754e+00
-6.984989e+00
-7.001316e+00
-7.017565e+00
-7.033440e+00
-7.048718e+00
-7.063311e+00
-7.077146e+00
-7.090035e+00
-7.101631e+00
-7.111473e+00
-7.119043e+00
-7.123861e+00
-7.125565e+00
-7.123942e+00
-7.118927e+00
-7.110635e+00
-7.099351e+00
-7.085433e+00
-7.069185e+00
-7.050746e+00
-7.030011e+00
-7.006714e+00
-6.980688e+00
-6.952115e+00
-6.921531e+00
-6.889574e+00
-6.856728e+00
-6.823237e+00
-6.789186e+00
-6.754605e+00
-6.719525e+00
-6.683980e+00
-6.647985e+00
-6.611524e+00
-6.574567e+00
-6.537141e+00
-6.499380e+00
-6.461455e+00
-6.423376e+00
-6.384847e+00
-6.345275e+00
-6.303968e+00
-6.260389e+00
-6.214302e+00
-6.165736e+00
-6.114821e+00
-6.061634e+00
-6.006210e+00
-5.948607e+00
-5.888887e+00
-5.827036e+00
-5.763037e+00
-5.697071e+00
-5.629586e+00
-5.561114e+00
-5.492080e+00
-5.422786e+00
-5.353516e+00
-5.284566e+00
-5.216225e+00
-5.148798e+00
-5.082665e+00
-5.018273e+00
-4.956052e+00
-4.896323e+00
-4.839264e+00
-4.784948e+00
-4.733435e+00
-4.684846e+00
-4.639383e+00
-4.597279e+00
-4.558702e+00
-4.523602e+00
-4.491547e+00
-4.461689e+00
-4.432983e+00
-4.404527e+00
-4.375771e+00
-4.346481e+00
-4.316544e+00
-4.285842e+00
-4.254289e+00
-4.221947e+00
-4.189014e+00
-4.155680e+00
-4.121988e+00
-4.087853e+00
-4.053174e+00
-4.017896e+00
-3.981915e+00
-3.944919e+00
-3.906313e+00
-3.865399e+00
-3.821697e+00
-3.775148e+00
-3.726057e+00
-3.674932e+00
-3.622355e+00
-3.568904e+00
-3.515127e+00
-3.461545e+00
-3.408630e+00
-3.356803e+00
-3.306483e+00
-3.258122e+00
-3.212078e+00
-3.168384e+00
-3.126706e+00
-3.086521e+00
-3.047301e+00
-3.008578e+00
-2.969961e+00
-2.931125e+00
-2.891736e+00
-2.851403e+00
-2.809672e+00
-2.766030e+00
-2.719962e+00
-2.671103e+00
-2.619325e+00
-2.564661e+00
-2.507148e+00
-2.446802e+00
-2.383695e+00
-2.318013e+00
-2.250013e+00
-2.179992e+00
-2.108367e+00
-2.035800e+00
-1.963099e+00
-1.890927e+00
-1.819745e+00
-1.750035e+00
-1.682456e+00
-1.617744e+00
-1.556525e+00
-1.499201e+00
-1.445951e+00
-1.396827e+00
-1.351846e+00
-1.310944e+00
-1.273955e+00
-1.240673e+00
-1.210947e+00
-1.184668e+00
-1.161681e+00
-1.141728e+00
-1.124556e+00
-1.110049e+00
-1.098233e+00
-1.089127e+00
-1.082595e+00
-1.078404e+00
-1.076420e+00
-1.076659e+00
-1.079099e+00
-1.083473e+00
-1.089277e+00
-1.095927e+00
-1.102915e+00
-1.109870e+00
-1.116561e+00
-1.122870e+00
-1.128757e+00
