EVENT_NAME: EMILIA_2ND_SHOCK
EVENT_ID: IT-2012-0011
EVENT_DATE_YYYYMMDD: 20120529
EVENT_TIME_HHMMSS: 070002
EVENT_LATITUDE_DEGREE: 44.8417
EVENT_LONGITUDE_DEGREE: 11.0657
EVENT_DEPTH_KM: 8.1
HYPOCENTER_REFERENCE: INGV-CNT_Seismic_Bulletin
MAGNITUDE_W: 6.0
MAGNITUDE_W_REFERENCE: RCMT-INGV
MAGNITUDE_L: 5.8
MAGNITUDE_L_REFERENCE: INGV-CNT_Seismic_Bulletin
FOCAL_MECHANISM: TF
NETWORK: IT
STATION_CODE: MOG0
STATION_NAME: MOGLIA
STATION_LATITUDE_DEGREE: 44.932000
STATION_LONGITUDE_DEGREE: 10.912000
STATION_ELEVATION_M: 92
LOCATION: 
SENSOR_DEPTH_M: 0.0
VS30_M/S: 
SITE_CLASSIFICATION_EC8: C*
MORPHOLOGIC_CLASSIFICATION: 
EPICENTRAL_DISTANCE_KM: 15.8
EARTHQUAKE_BACKAZIMUTH_DEGREE: 129.5
DATE_TIME_FIRST_SAMPLE_YYYYMMDD_HHMMSS: 20120529_065953.000
DATE_TIME_FIRST_SAMPLE_PRECISION: seconds
SAMPLING_INTERVAL_S: 0.005000
NDATA: 23000
DURATION_S: 115.000
STREAM: HNZ
UNITS: cm/s^2
INSTRUMENT: sensor = Episensor FBA ES-T [Kinemetrics] | digitizer = Etna [Kinemetrics]
INSTRUMENT_ANALOG/DIGITAL: D
INSTRUMENTAL_FREQUENCY_HZ: 
INSTRUMENTAL_DAMPING: 
FULL_SCALE_G: 
N_BIT_DIGITAL_CONVERTER: 18
PGA_CM/S^2: 124.175147
TIME_PGA_S: 21.010000
BASELINE_CORRECTION: BASELINE REMOVED
FILTER_TYPE: BUTTERWORTH
FILTER_ORDER: 2
LOW_CUT_FREQUENCY_HZ: 0.080
HIGH_CUT_FREQUENCY_HZ: 40.000
LATE/NORMAL_TRIGGERED: NT
DATABASE_VERSION: DYNA 1.0
HEADER_FORMAT: DYNA 1.2
DATA_TYPE: ACCELERATION
PROCESSING: manual (Paolucci et al., 2011)
DATA_TIMESTAMP_YYYYMMDD_HHMMSS: 20141204_103647.358
DATA_LICENSE: CC-BY3_0-IT (http://creativecommons.org/licenses/by/3.0/deed.en)
DATA_CITATION: ESM working group (2015), European Strong-Motion database, version 0.1, Network Activity 3: Networking acceleration networks and SM data users. Project NERA (www.nera-eu.org)
DATA_CREATOR: ESM working group
ORIGINAL_DATA_MEDIATOR_CITATION: Ufficio Rischio Sismico e Vulcanico del Dipartimento della Protezione Civile (http://www.protezionecivile.gov.it/)
ORIGINAL_DATA_MEDIATOR: Rete Accelerometrica Nazionale - RAN Download (http://www.mot1.it/randownload/)
ORIGINAL_DATA_CREATOR_CITATION: Italian Strong Motion Network, Italian Civil Protection Department http://www.protezionecivile.gov.it
ORIGINAL_DATA_CREATOR: network: IT (Italian Strong Motion Network); owner: Dipartimento Della Protezione Civile
USER1: /home/dyna/processing-itaca/processing.py /var/www/processing/tmp/fpacor//IT.MOG0..HNE.D.20120529.070003.X.ACC.ASC /var/www/processing/tmp/fpacor//IT.MOG0..HNN.D.20120529.070003.X.ACC.ASC /var/www/processing/tmp/fpacor//IT.MOG0..HNZ.D.20120529.070003.X.ACC.ASC --tmp /var/www/processing/tmp/fpacor/ --le 0.080 --he 40.000 --ln 0.080 --hn 40.000 --lz 0.080 --hz 40.000 --fo 2 --ca -10 --cz 30 --ta 5 --tz 5 --mf 1 --rf 0 --tr NT
USER2: 
USER3: 
USER4: 
USER5: 
[...]
16.241415
12.793905
9.662658
6.705755
2.907086
-2.575633
-9.644334
-16.842472
-22.048292
-23.995245
-22.829687
-19.632359
-16.059420
-13.863971
-13.840386
-14.837935
-14.077081
-9.560857
-2.434336
4.346077
9.547378
14.069268
17.993090
18.801716
12.691683
-2.132436
-22.183151
-39.286472
-46.698620
-44.277294
-35.726433
-22.715555
-5.217445
14.072132
29.978731
39.009186
40.433159
34.972977
25.059048
13.886558
2.475927
-9.384836
-19.537464
-24.898073
-25.400192
-22.598494
-16.565413
-7.737471
0.925747
6.274512
7.238903
4.781504
2.243046
4.450803
13.883671
28.364779
42.978722
52.886852
54.866486
48.340611
34.997810
16.637623
-5.384068
-28.002653
-45.843246
-54.042522
-51.026112
-39.288967
-24.693878
-13.330849
-7.375425
-4.697661
-2.004362
2.513144
7.464702
8.392982
2.483923
-6.799315
-12.449956
-10.451900
-2.234327
7.497435
14.643023
17.991089
17.377375
12.216135
4.257840
-1.864829
-3.045149
0.265420
5.787157
9.948160
8.278919
-1.868330
-19.250467
-39.058201
-54.001377
-57.103527
-46.464424
-26.864351
-5.790236
11.735583
25.343674
37.330318
48.511436
56.807659
59.206528
53.016670
37.004761
14.705190
-5.073831
-14.488641
-12.989126
-6.112084
0.469580
4.001971
3.634727
0.004782
-3.460682
-2.148016
4.536974
11.821330
15.089928
13.987912
9.971049
3.683712
-3.962039
-11.533099
-18.437725
-24.499084
-28.492662
-27.717417
-19.501921
-5.038769
8.337974
11.467158
1.741660
-13.372864
-22.170221
-17.403742
0.450251
24.641043
44.731281
51.382053
42.127983
21.735806
-2.949944
-25.733919
-40.640308
-44.763336
-41.484089
-36.520119
-31.734842
-25.654989
-17.599176
-8.161832
2.498317
13.639410
22.289215
25.601730
24.383192
22.850578
25.636080
34.484673
46.091553
53.705826
52.227028
41.797695
26.338366
9.629446
-5.740429
-17.010872
-22.122801
-21.404585
-16.299786
-8.313739
-0.701425
1.941282
-2.060822
-9.128700
-12.588129
-6.445568
10.036509
29.339409
40.499439
38.864380
29.057041
18.743280
11.882497
7.719658
4.402647
1.804429
0.474412
-0.053614
-1.018245
-4.029495
-10.575255
-20.130978
-29.034769
-33.081448
-32.159561
-30.932199
-33.605713
-40.001537
-47.785606
-55.151451
-60.246471
-61.156364
-56.988480
-47.440598
-32.466362
-13.879799
3.616840
14.655160
17.057541
13.001983
6.432259
0.342432
-3.619998
-4.243927
-0.341795
7.774637
16.427376
20.285589
16.940165
8.898738
0.760770
-5.356876
-10.835873
-16.622145
-20.235859
-17.787663
-7.846729
6.168555
17.133732
19.996687
16.833988
14.525407
18.090643
27.186581
37.318256
43.779053
45.336277
43.489536
38.730839
29.636267
15.011909
-4.293624
-25.179260
-43.794369
-56.964611
-62.359749
-59.420292
-49.807938
-35.211594
-17.027452
0.589420
11.461357
13.054799
8.585242
3.187803
0.589242
2.507423
8.402021
15.790605
20.827497
18.446711
4.976161
-17.142626
-38.451893
-47.615589
-39.019207
-16.846334
9.326393
33.462181
55.505478
75.233032
87.584625
85.783897
67.793381
39.809219
13.741579
-0.467945
-1.018940
7.108369
17.611687
25.066259
23.863586
9.428909
-17.595150
-49.936836
-77.766716
-92.901039
-89.560944
-66.331581
-30.189182
4.712492
25.316404
28.084177
20.415621
13.188018
11.105591
9.590728
0.207715
-18.863518
-37.568012
-43.227650
-34.159195
-19.786814
-8.982571
-1.970091
7.286083
22.855932
40.524345
48.337559
34.468029
-2.338209
-49.451199
-89.128609
-109.948051
-109.745354
-92.123451
-62.893887
-27.320099
11.194165
49.358444
81.643997
101.633812
106.941849
102.230080
95.391731
89.843964
81.842964
66.232941
43.745811
21.179401
4.664639
-6.125486
-17.417728
-34.866314
-56.510811
-72.819916
-75.113838
-63.796753
-46.669445
-29.191107
-9.478924
16.614948
48.324017
78.106361
95.822517
95.513275
78.986923
53.730232
28.661686
10.447685
0.842834
-2.948763
-6.191739
-15.808337
-37.446541
-69.264114
-100.395119
-117.713142
-114.275162
-93.178070
-64.470528
-36.998028
-13.388503
7.125241
23.514296
32.053322
30.512453
21.796843
10.794294
-0.895868
-12.847846
-20.897127
-19.853487
-9.769197
3.780484
15.014084
22.858252
31.402727
45.853142
67.180656
89.417068
102.305122
98.372253
78.577873
51.233021
26.063244
8.855700
-0.181659
-3.773666
-4.008902
-2.716091
-3.906262
-11.767699
-24.868275
-34.809414
-32.286430
-14.070868
14.572152
42.203442
58.181068
59.900951
51.444656
36.666149
17.933783
-1.659564
-19.673180
-34.839809
-44.653973
-47.131218
-45.090187
-44.033268
-46.772167
-53.041901
-61.244537
-68.219460
-70.442299
-67.025017
-59.872036
-50.549145
-38.308037
-21.985153
-2.788374
16.484510
33.915596
47.792755
54.777313
51.718262
38.939377
20.508631
2.236979
-10.791036
-16.725866
-17.020350
-12.869337
-2.825768
13.834949
32.166004
42.489002
37.050793
16.554825
-8.377917
-23.380053
-20.277409
-1.610600
22.475845
39.190407
38.397701
19.011135
-9.252227
-32.402782
-41.143394
-35.342945
-21.844824
-7.708518
5.122439
18.567436
31.973185
38.390755
30.325094
9.620102
-11.946829
-23.269184
-22.955311
-17.993523
-16.013237
-19.114517
-23.209927
-22.139860
-12.738443
3.421145
22.311352
40.004192
52.637066
56.278084
49.267010
33.859867
14.127018
-6.742002
-25.895023
-39.160553
-42.729034
-36.727688
-25.317736
-13.560449
-5.432949
-3.166188
-6.407124
-12.278633
-15.808802
-10.381346
8.110369
34.924259
57.660988
66.443970
60.823986
46.561443
29.295364
11.490591
-7.341281
-27.636574
-46.330410
-57.223766
-55.096703
-39.300446
-13.884616
14.897867
41.145828
60.602814
70.692490
70.496521
61.615192
47.506847
30.522211
11.581061
-6.818522
-20.580807
-27.915619
-31.615385
-37.058289
-47.434349
-59.892460
-67.583488
-67.364105
-63.922554
-63.987778
-67.938210
-68.954178
-59.657242
-39.216850
-14.276295
7.163029
21.880476
31.253544
36.944832
38.059795
32.485390
21.362789
11.202263
9.066195
15.765341
25.843506
33.576565
36.643124
34.824383
28.313454
17.801220
4.551013
-9.353110
-19.655924
-20.743635
-10.633415
6.000846
21.965631
33.288757
39.441517
39.982689
33.119766
17.458172
-5.360304
-29.855375
-48.268967
-53.209328
-41.604271
-18.934664
2.524009
13.176555
12.964220
8.227798
5.003947
5.905004
10.039823
14.554730
16.906094
15.987752
11.961791
5.344351
-3.743745
-14.566440
-24.715923
-31.444830
-33.444145
-30.709269
-23.244585
-10.556958
6.992986
26.055969
40.055008
42.673199
33.295731
18.809361
8.453264
6.269041
8.470883
7.523575
-1.546114
-18.018051
-36.852760
-51.856133
-58.096619
-53.743706
-41.134941
-25.289625
-11.112128
-2.195427
-0.496887
-5.564565
-14.466208
-22.174908
-23.015739
-15.843863
-6.849620
-2.696763
-3.235143
-3.576547
0.449514
9.403138
18.779953
21.148623
12.838554
-2.186537
-15.515373
-19.805101
-12.667548
1.987312
16.238834
22.668909
17.642138
2.235953
-18.272104
-36.363510
-45.699261
-43.803516
-32.315887
-15.904087
-0.453843
9.699982
13.678597
13.411208
11.539223
9.564195
7.329490
4.656036
3.578433
7.489708
17.037149
27.801346
32.775852
26.836372
9.747073
-13.334248
-34.357227
-46.963596
-49.214672
-42.097977
-27.184689
-7.231080
12.374917
25.794563
31.427504
32.722431
33.556538
34.460083
33.365200
28.249935
19.446302
10.057439
2.880614
-2.853200
-9.940464
-18.512442
-24.536690
-23.958464
-17.057009
-6.984444
4.417388
16.963766
29.552856
39.030991
41.299595
34.035538
19.499126
4.077096
-5.982903
-8.633976
-6.643798
-5.092989
-7.545932
-13.406047
-18.840740
-19.963226
-14.716067
-3.215182
12.040968
26.973276
38.025715
43.523293
43.602268
40.015114
35.366329
30.723478
24.153873
12.737090
-4.295748
-24.401354
-42.685070
-54.302956
-56.985046
-51.540749
-40.351517
-25.859764
-10.033440
5.563753
19.581360
30.660049
37.356449
38.850224
35.939743
30.487534
23.752279
16.506668
10.720064
9.054188
11.999922
17.293068
22.747084
27.728113
31.439882
31.927448
27.402351
17.560888
4.205588
-8.808066
-17.629934
-21.079185
-20.763563
-19.276880
-18.275721
-16.767565
-11.650762
-1.446060
10.590075
17.534203
13.378209
-2.561384
-25.044863
-45.965618
-58.497242
-60.688869
-55.895439
-48.400684
-39.053043
-26.380634
-10.639284
4.668132
14.621411
16.286940
11.509278
6.040946
4.875676
8.651356
14.694498
20.109602
23.254789
23.978436
23.412144
22.314999
19.332903
12.475170
2.814078
-4.993387
-6.950130
-3.186822
3.626373
11.398388
18.502251
22.498116
21.699471
17.566114
14.005215
14.182178
17.739948
20.540661
17.675735
7.673823
-5.933739
-17.040533
-20.992041
-17.011234
-7.800031
2.403344
9.458208
10.310308
4.007190
-7.317299
-18.841379
-25.556862
-25.058613
-18.303471
-8.277484
2.023774
11.122268
19.097885
26.043602
30.604380
30.140999
22.730637
9.975460
-2.610538
-9.756801
-11.043239
-10.391377
-11.611274
-15.327328
-19.613472
-22.648851
-24.234915
-24.921221
-24.814054
-23.458080
-19.425652
-10.262907
4.654960
21.361227
33.531178
36.803120
30.770887
19.013704
6.709460
-3.233891
-10.649968
-15.215552
-15.878147
-13.504860
-11.636855
-13.579009
-19.599937
-26.906948
-31.670521
-31.329576
-25.583406
-16.038948
-5.507098
3.204036
8.616955
10.446477
8.465928
2.510926
-6.215113
-14.900889
-21.121601
-24.717693
-27.237436
-29.510193
-30.026217
-26.552301
-19.358032
-11.928865
-8.400949
-10.223590
-14.514317
-15.856833
-10.818119
-0.747395
9.956670
17.520224
20.801338
20.541809
17.296673
10.960462
2.322575
-6.258513
-11.953183
-12.705505
-8.540406
-2.275095
2.628834
5.244908
6.537774
6.424343
4.726034
3.650889
5.636607
10.530330
16.726345
22.937876
28.497267
32.755535
33.920929
29.362850
18.648376
6.175446
-1.363746
-1.255402
3.236997
7.193098
7.809135
4.567889
-1.110666
-5.990967
-6.629491
-2.002539
5.265240
10.768818
11.987005
9.833294
6.437017
2.232309
-4.180025
-13.965879
-26.756485
-41.001705
-54.816589
-66.639229
-75.270042
-79.359222
-77.939949
-72.039551
-63.888321
-54.028648
-41.751892
-28.259769
-16.802513
-9.071763
-2.265113
9.223330
28.712669
53.904675
78.727783
98.093872
109.509537
110.958855
100.812004
80.897614
57.377441
37.075363
23.309359
15.101874
9.626304
5.180899
1.587384
-1.580544
-5.201557
-8.836595
-10.770605
-10.343898
-8.516407
-5.958026
-2.592597
0.833268
2.804165
2.851588
1.718569
-0.310105
-4.176527
-11.146445
-21.719891
-35.397633
-50.643799
-64.245918
-71.461319
-68.810493
-57.185116
-40.764301
-23.339149
-7.660526
2.786092
4.506276
-2.582258
-13.612231
-21.727524
-22.531837
-15.746166
-4.363790
6.639468
12.846945
13.705156
12.619164
13.528074
18.378395
27.114168
38.210491
48.794956
55.011520
53.712547
45.159878
33.662460
24.602032
21.027069
22.798868
27.664648
32.864330
36.514534
38.103432
38.059280
37.193245
36.485970
36.448238
36.430305
35.582863
33.947639
31.397823
26.815844
19.540258
10.554494
1.824820
-4.743612
-7.959538
-7.982861
-6.695156
-6.991834
-11.066747
-19.017706
-28.566160
-35.862911
-37.633423
-33.836296
-28.257019
-25.685108
-28.094021
-33.873596
-40.228230
-44.754055
-45.306858
-41.031494
-33.488445
-24.788013
-16.162703
-9.897297
-9.170381
-14.362473
-22.093258
-27.689816
-27.100674
-18.638012
-5.427706
5.273461
7.006318
-2.422447
-20.801483
-41.253773
-54.160206
-54.507717
-46.628277
-38.017639
-30.334156
-19.844099
-4.652153
11.575530
22.790947
25.747559
21.041800
11.273021
0.852016
-4.997398
-4.360081
0.065510
5.442631
12.123272
21.434658
32.553635
42.292671
46.867329
44.744598
38.840355
34.978405
37.452625
46.035984
56.722294
65.108765
69.192291
69.114891
65.366768
58.172451
47.541779
32.950382
13.984750
-8.039493
-29.348047
-44.727962
-50.269131
-46.250778
-37.182564
-28.444429
-22.771257
-19.308664
-15.159758
-8.288330
0.720157
9.705592
16.641212
20.136349
20.003725
17.904171
15.497263
12.038294
6.331421
-0.149319
-5.018373
-8.291949
-11.356107
-14.036766
-14.974814
-13.988009
-12.301725
-10.783169
-8.699342
-4.443599
2.594382
11.164063
18.586929
22.105566
20.322515
13.160798
1.433238
-12.826328
-26.778145
-38.111404
-45.118298
-46.195831
-41.448387
-34.074150
-28.481344
-27.176706
-29.316257
-32.280041
-35.165031
-39.791859
-47.388187
-55.418194
-58.640892
-52.752735
-37.466217
-17.727312
-1.748537
4.213319
0.458240
-6.740800
-10.788524
-9.972924
-6.912909
-3.837915
0.047311
6.549730
14.837039
20.567865
19.047211
9.221390
-5.206066
-19.027349
-30.602488
-42.681194
-57.614925
-73.245506
-84.450890
-87.428520
-80.928909
-64.889915
-40.916779
-13.684999
10.464137
26.973160
35.515690
39.150887
40.763386
41.365864
41.847466
44.111122
49.948761
60.465561
76.021439
94.441742
111.066414
121.966949
124.175148
115.563034
97.836060
75.490105
52.738705
33.521984
20.765432
15.685676
18.631163
28.614626
41.740269
51.334145
51.818935
43.053257
28.982216
12.895682
-3.010522
-15.580527
-22.487036
-25.008339
-27.259001
-32.666332
-40.036186
-44.221474
-42.057400
-35.159096
-26.985863
-20.345016
-17.057987
-17.076586
-17.651350
-15.401974
-10.352053
-6.708278
-8.300901
-14.494772
-22.421785
-31.475790
-42.654415
-54.755573
-64.329964
-68.628738
-66.013130
-55.211479
-37.802998
-19.798956
-7.212031
-1.263951
-0.316662
-4.435552
-15.270056
-32.830627
-53.602516
-70.567993
-76.154137
-67.350708
-47.365482
-22.309454
2.548867
24.269892
40.632904
48.355244
46.751999
42.039986
42.102207
47.379761
51.803303
50.308395
42.604137
33.101734
27.098276
25.563238
25.280237
23.445869
19.785366
14.215519
5.549134
-6.499187
-20.256521
-33.344795
-43.700661
-49.457462
-49.694530
-45.198139
-36.311512
-22.339867
-5.603766
8.338700
16.716139
20.827871
21.286011
17.792009
11.788901
4.315867
-5.268629
-14.695075
-16.738829
-5.741895
15.585190
38.127361
53.100262
56.806252
52.555279
47.386501
44.373714
40.994164
36.413147
34.757481
37.841213
40.907944
40.348076
38.781513
39.030128
39.247520
35.881142
28.515736
20.240435
13.566526
7.296670
-1.919124
-15.461502
-30.699001
-42.726021
-48.243217
-47.204311
-41.187794
-33.018345
-26.719946
-24.839201
-27.021618
-31.523148
-36.423737
-40.496357
-43.509708
-44.727802
-43.156052
-39.464943
-35.082523
-30.777491
-27.312149
-24.737501
-21.372700
-16.241629
-10.732447
-6.595242
-4.460435
-3.837077
-4.043273
-4.986586
-5.334375
-3.112398
-0.486366
-2.770872
-11.462294
-22.262325
-29.436695
-30.149820
-25.592077
-19.005035
-13.189595
-9.519897
-7.385344
-4.661272
-0.508785
3.107807
4.137097
3.380164
3.314571
5.192784
9.050849
15.732425
26.253864
38.933849
49.145306
52.573463
48.870064
42.322945
38.129585
37.828125
39.179874
39.787682
39.250923
38.391994
37.532452
35.818954
32.730694
29.407581
27.677799
28.354359
30.323648
31.305502
29.501366
24.643967
18.759010
14.770221
13.017191
11.053762
6.377092
-2.032786
-12.207741
-19.880293
-24.789251
-33.249435
-49.854698
-70.267120
-85.495605
-89.700844
-82.244072
-66.033440
-45.185963
-22.680098
-0.768316
17.478930
30.080938
37.861462
41.584377
40.135006
33.270966
23.285128
12.991133
3.853543
-3.210435
-6.391206
-4.436315
0.109348
2.191983
0.318457
-2.420593
-3.100810
-0.180489
6.983930
15.984256
21.742382
21.788109
19.325590
17.693203
15.364450
10.999632
6.971306
4.293559
0.960865
-3.804293
-8.683524
-12.796669
-16.998177
-23.245319
-32.056438
-40.413128
-43.271843
-37.521069
-24.573090
-9.233428
3.587532
11.215699
13.816993
13.773780
14.186487
16.851156
20.612328
22.281399
19.856295
14.338060
8.789002
5.569966
3.942214
1.303199
-3.181993
-7.258595
-7.729774
-3.561438
2.507879
5.790244
4.261588
0.424437
-1.911875
-0.606976
4.840881
13.746446
24.484793
35.196762
43.832630
48.025646
47.157043
43.618401
39.267944
33.260632
25.343704
17.253670
9.937400
2.569716
-5.531580
-13.361643
-18.537779
-19.902781
-19.633141
-20.171162
-20.278734
-17.631041
-13.557655
-11.903509
-13.863193
-16.694937
-18.097557
-19.010260
-21.018761
-23.648781
-25.423822
-25.919340
-25.597513
-24.371735
-21.140936
-15.092585
-7.840325
-2.942027
-2.282642
-4.420622
-6.899806
-8.940346
-11.292926
-13.819551
-14.505140
-11.581709
-5.861948
-0.294718
2.853174
3.906188
4.323251
4.580824
4.551527
4.195629
3.360907
3.155431
6.350814
12.949518
18.581491
20.087273
17.824284
13.569052
10.320746
10.275895
11.956087
12.153923
9.089047
3.154366
-3.291349
-7.139508
-6.383721
-1.387259
4.950000
9.685391
12.617883
15.566843
19.849749
24.104824
24.558817
19.036074
9.984085
2.405025
-0.637722
-0.057203
0.746584
-1.605279
-8.263543
-17.075312
-24.420841
-28.422812
-29.870941
-30.627108
-31.298828
-30.161316
-25.066145
-16.177105
-6.022072
2.650369
8.714987
12.876396
16.082773
17.577311
15.432939
9.034928
-0.709972
-13.167216
-26.893118
-37.156258
-39.250763
-34.534538
-28.463032
-22.834154
-14.895765
-3.758537
7.697940
16.722130
22.425175
25.231920
26.539127
27.991005
30.853283
35.125416
38.893272
39.791248
36.504444
28.693228
17.248857
4.649465
-6.112517
-13.176929
-16.451206
-17.344921
-17.969933
-19.376505
-20.569626
-19.855696
-16.161425
-9.239983
-0.629400
5.643894
6.632041
5.357789
7.606036
14.586037
22.675070
27.167095
25.599789
20.052168
13.998374
8.115327
1.948484
-3.425485
-6.440850
-7.183779
-7.175124
-7.294519
-7.130564
-6.102313
-4.223612
-1.686101
1.637660
5.612523
9.718999
14.110573
19.739864
27.426121
37.085651
47.133366
54.575024
56.269035
50.595291
38.650009
23.935852
10.198389
-0.742056
-9.463045
-17.841618
-27.211514
-37.204704
-46.272503
-53.105450
-57.438801
-59.756634
-60.439980
-58.986507
-54.397324
-46.642796
-37.020782
-27.253220
-18.893190
-12.675254
-7.836503
-3.203530
0.661496
1.827803
-0.134312
-3.491873
-6.864199
-10.206153
-13.224672
-15.254106
-16.556608
-17.652830
-17.874262
-16.050388
-11.952780
-6.369194
-0.557209
4.460399
9.073887
14.990037
22.838926
30.704937
36.531155
40.707504
44.093884
45.455559
43.267891
37.963486
30.761927
22.034050
12.070429
2.465282
-4.730455
-9.207708
-12.702229
-16.751953
-20.796732
-23.087084
-22.863321
-20.890099
-18.134792
