EVENT_NAME: EMILIA_2ND_SHOCK
EVENT_ID: IT-2012-0011
EVENT_DATE_YYYYMMDD: 20120529
EVENT_TIME_HHMMSS: 070002
EVENT_LATITUDE_DEGREE: 44.8417
EVENT_LONGITUDE_DEGREE: 11.0657
EVENT_DEPTH_KM: 8.1
HYPOCENTER_REFERENCE: INGV-CNT_Seismic_Bulletin
MAGNITUDE_W: 6.0
MAGNITUDE_W_REFERENCE: RCMT-INGV
MAGNITUDE_L: 5.8
MAGNITUDE_L_REFERENCE: INGV-CNT_Seismic_Bulletin
FOCAL_MECHANISM: TF
NETWORK: IT
STATION_CODE: MRN
STATION_NAME: MIRANDOLA (NAPOLI)
STATION_LATITUDE_DEGREE: 44.878231
STATION_LONGITUDE_DEGREE: 11.061743
STATION_ELEVATION_M: 15
LOCATION: 
SENSOR_DEPTH_M: 0.0
VS30_M/S: 208
SITE_CLASSIFICATION_EC8: C
MORPHOLOGIC_CLASSIFICATION: 
EPICENTRAL_DISTANCE_KM: 4.1
EARTHQUAKE_BACKAZIMUTH_DEGREE: 175.6
DATE_TIME_FIRST_SAMPLE_YYYYMMDD_HHMMSS: 20120529_065948.000
DATE_TIME_FIRST_SAMPLE_PRECISION: seconds
SAMPLING_INTERVAL_S: 0.005000
NDATA: 105
DURATION_S: 
STREAM: HNZ
UNITS: cm
INSTRUMENT: sensor = MS2007+ [Syscom] | digitizer = 130-01/3 [Reftek]
INSTRUMENT_ANALOG/DIGITAL: D
INSTRUMENTAL_FREQUENCY_HZ: 
INSTRUMENTAL_DAMPING: 
FULL_SCALE_G: 
N_BIT_DIGITAL_CONVERTER: 24
PGD_CM: 5.802346
TIME_PGD_S: 20.085000
BASELINE_CORRECTION: BASELINE REMOVED
FILTER_TYPE: BUTTERWORTH
FILTER_ORDER: 2
LOW_CUT_FREQUENCY_HZ: 0.070
HIGH_CUT_FREQUENCY_HZ: 40.000
LATE/NORMAL_TRIGGERED: NT
DATABASE_VERSION: DYNA 1.0
HEADER_FORMAT: DYNA 1.2
DATA_TYPE: DISPLACEMENT RESPONSE SPECTRUM
PROCESSING: manual (Paolucci et al., 2011)
DATA_TIMESTAMP_YYYYMMDD_HHMMSS: 20141204_104205.354
DATA_LICENSE: CC-BY3_0-IT (http://creativecommons.org/licenses/by/3.0/deed.en)
DATA_CITATION: ESM working group (2015), European Strong-Motion database, version 0.1, Network Activity 3: Networking acceleration networks and SM data users. Project NERA (www.nera-eu.org)
DATA_CREATOR: ESM working group
ORIGINAL_DATA_MEDIATOR_CITATION: Ufficio Rischio Sismico e Vulcanico del Dipartimento della Protezione Civile (http://www.protezionecivile.gov.it/)
ORIGINAL_DATA_MEDIATOR: Rete Accelerometrica Nazionale - RAN Download (http://www.mot1.it/randownload/)
ORIGINAL_DATA_CREATOR_CITATION: Italian Strong Motion Network, Italian Civil Protection Department http://www.protezionecivile.gov.it
ORIGINAL_DATA_CREATOR: network: IT (Italian Strong Motion Network); owner: Dipartimento Della Protezione Civile
USER1: /home/dyna/processing-itaca/processing.py /var/www/processing/tmp/fpacor//IT.MRN..HNE.D.20120529.070003.X.ACC.ASC /var/www/processing/tmp/fpacor//IT.MRN..HNN.D.20120529.070003.X.ACC.ASC /var/www/processing/tmp/fpacor//IT.MRN..HNZ.D.20120529.070003.X.ACC.ASC --tmp /var/www/processing/tmp/fpacor/ --le 0.070 --he 40.000 --ln 0.070 --hn 40.000 --lz 0.070 --hz 40.000 --fo 2 --ca -15 --cz 100 --ta 5 --tz 5 --mf 1 --rf 0 --tr NT
USER2: 
USER3: 
USER4: 
USER5: 
    0.010000     0.002197
    0.020000     0.010367
    0.022000     0.012919
    0.025000     0.018696
    0.029000     0.034147
    0.030000     0.036623
    0.032000     0.044238
    0.035001     0.060106
    0.036000     0.063637
    0.040000     0.093494
    0.041999     0.094365
    0.044001     0.111716
    0.045000     0.116058
    0.046000     0.119069
    0.048001     0.134292
    0.050000     0.160197
    0.054999     0.238955
    0.059999     0.293444
    0.064998     0.371432
    0.067002     0.357976
    0.069999     0.374873
    0.075002     0.300537
    0.080000     0.324543
    0.084998     0.387151
    0.090001     0.549326
    0.095003     0.659844
    0.100000     0.586304
    0.109999     0.518423
    0.120005     0.456118
    0.130005     0.540520
    0.132996     0.532834
    0.139997     0.571432
    0.149993     0.754150
    0.160000     0.778819
    0.170010     0.617916
    0.179986     0.610891
    0.190006     0.740845
    0.200000     0.838426
    0.220022     0.960309
    0.239981     0.916074
    0.250000     1.116665
    0.260010     1.220353
    0.280034     0.987101
    0.290023     0.874430
    0.300030     0.819823
    0.320000     0.938318
    0.340020     0.973063
    0.350017     1.023866
    0.359971     1.097230
    0.379939     1.152337
    0.400000     1.125537
    0.419992     0.994335
    0.439947     0.889151
    0.450045     0.906428
    0.459982     0.922682
    0.480077     0.971336
    0.500000     1.033281
    0.550055     1.205830
    0.599880     1.458323
    0.650195     1.516111
    0.667111     1.450431
    0.699790     1.436468
    0.750188     1.503972
    0.800000     1.651832
    0.850340     1.787873
    0.900090     2.014829
    0.949668     2.159856
    1.000000     2.232769
    1.100110     2.272930
    1.200480     2.321171
    1.300390     2.582109
    1.400560     2.813046
    1.499250     2.913096
    1.600000     2.878641
    1.700680     3.446280
    1.798561     4.364923
    1.901141     4.785039
    2.000000     4.884321
    2.197802     4.551249
    2.398082     5.149453
    2.500000     5.396147
    2.597403     5.683700
    2.801121     6.277996
    3.003003     6.636154
    3.205128     6.762102
    3.401361     7.129464
    3.496503     7.951513
    3.597122     8.672644
    3.802281    10.126060
    4.000000    11.342710
    4.201681    11.989613
    4.405286    12.159620
    4.608295    12.694956
    4.807692    13.209478
    5.000000    13.517878
    5.494505    14.298977
    5.988024    14.311216
    6.493506    14.701569
    6.993007    14.964369
    7.518797    14.951103
    8.000000    14.683741
    8.474576    14.059308
    9.009009    13.234853
    9.523809    12.350850
   10.000000    11.309692
