EVENT_NAME: EMILIA_2ND_SHOCK
EVENT_ID: IT-2012-0011
EVENT_DATE_YYYYMMDD: 20120529
EVENT_TIME_HHMMSS: 070002
EVENT_LATITUDE_DEGREE: 44.8417
EVENT_LONGITUDE_DEGREE: 11.0657
EVENT_DEPTH_KM: 8.1
HYPOCENTER_REFERENCE: INGV-CNT_Seismic_Bulletin
MAGNITUDE_W: 6.0
MAGNITUDE_W_REFERENCE: RCMT-INGV
MAGNITUDE_L: 5.8
MAGNITUDE_L_REFERENCE: INGV-CNT_Seismic_Bulletin
FOCAL_MECHANISM: TF
NETWORK: IT
STATION_CODE: MDN
STATION_NAME: MODENA
STATION_LATITUDE_DEGREE: 44.646988
STATION_LONGITUDE_DEGREE: 10.889912
STATION_ELEVATION_M: 77
LOCATION: 
SENSOR_DEPTH_M: 0.0
VS30_M/S: 213
SITE_CLASSIFICATION_EC8: C
MORPHOLOGIC_CLASSIFICATION: 
EPICENTRAL_DISTANCE_KM: 25.7
EARTHQUAKE_BACKAZIMUTH_DEGREE: 32.7
DATE_TIME_FIRST_SAMPLE_YYYYMMDD_HHMMSS: 20120529_065953.000
DATE_TIME_FIRST_SAMPLE_PRECISION: seconds
SAMPLING_INTERVAL_S: 0.005000
NDATA: 26000
DURATION_S: 130.000
STREAM: HNN
UNITS: cm/s^2
INSTRUMENT: sensor = FBA-3 [Kinemetrics] | digitizer = Etna [Kinemetrics]
INSTRUMENT_ANALOG/DIGITAL: D
INSTRUMENTAL_FREQUENCY_HZ: 204.000
INSTRUMENTAL_DAMPING: 0.700000
FULL_SCALE_G: 1.0
N_BIT_DIGITAL_CONVERTER: 18
PGA_CM/S^2: -50.532554
TIME_PGA_S: 24.870000
BASELINE_CORRECTION: BASELINE REMOVED
FILTER_TYPE: BUTTERWORTH
FILTER_ORDER: 2
LOW_CUT_FREQUENCY_HZ: 0.050
HIGH_CUT_FREQUENCY_HZ: 35.000
LATE/NORMAL_TRIGGERED: NT
DATABASE_VERSION: DYNA 1.0
HEADER_FORMAT: DYNA 1.2
DATA_TYPE: ACCELERATION
PROCESSING: manual (Paolucci et al., 2011)
DATA_TIMESTAMP_YYYYMMDD_HHMMSS: 20141204_103511.587
DATA_LICENSE: CC-BY3_0-IT (http://creativecommons.org/licenses/by/3.0/deed.en)
DATA_CITATION: ESM working group (2015), European Strong-Motion database, version 0.1, Network Activity 3: Networking acceleration networks and SM data users. Project NERA (www.nera-eu.org)
DATA_CREATOR: ESM working group
ORIGINAL_DATA_MEDIATOR_CITATION: Ufficio Rischio Sismico e Vulcanico del Dipartimento della Protezione Civile (http://www.protezionecivile.gov.it/)
ORIGINAL_DATA_MEDIATOR: Rete Accelerometrica Nazionale - RAN Download (http://www.mot1.it/randownload/)
ORIGINAL_DATA_CREATOR_CITATION: Italian Strong Motion Network, Italian Civil Protection Department http://www.protezionecivile.gov.it
ORIGINAL_DATA_CREATOR: network: IT (Italian Strong Motion Network); owner: Dipartimento Della Protezione Civile
USER1: /home/dyna/processing-itaca/processing.py /var/www/processing/tmp/fpacor//IT.MDN..HNE.D.20120529.070003.X.ACC.ASC /var/www/processing/tmp/fpacor//IT.MDN..HNN.D.20120529.070003.X.ACC.ASC /var/www/processing/tmp/fpacor//IT.MDN..HNZ.D.20120529.070003.X.ACC.ASC --tmp /var/www/processing/tmp/fpacor/ --le 0.05 --he 35.000 --ln 0.05 --hn 35.000 --lz 0.05 --hz 35.000 --fo 2 --ca -10 --cz 30 --ta 5 --tz 5 --mf 1 --rf 0 --tr NT
USER2: 
USER3: 
USER4: 
USER5: 
[...]
-0.130743
0.765756
1.573084
2.099779
2.230635
1.972894
1.462303
0.919788
0.558699
0.477290
0.606357
0.752453
0.706025
0.357485
-0.226927
-0.821375
-1.165367
-1.117631
-0.723774
-0.171807
0.304373
0.520991
0.413610
0.051533
-0.408332
-0.786163
-0.923388
-0.719326
-0.179256
0.559758
1.270604
1.728733
1.796810
1.470739
0.885352
0.269071
-0.156057
-0.284731
-0.172493
0.025397
0.173613
0.238835
0.274297
0.335174
0.416669
0.477068
0.506311
0.549226
0.660701
0.858601
1.124825
1.422858
1.686289
1.809789
1.700489
1.357960
0.894274
0.470230
0.201242
0.098155
0.081084
0.059880
0.018860
0.020774
0.114059
0.242576
0.271684
0.117639
-0.155440
-0.373889
-0.381673
-0.131992
0.307619
0.791014
1.130634
1.154564
0.795190
0.155040
-0.522130
-0.969033
-1.015898
-0.642918
0.042940
0.865592
1.621587
2.102112
2.138927
1.686828
0.885831
0.033680
-0.540155
-0.636321
-0.289561
0.260871
0.729657
0.960075
0.983400
0.938142
0.942565
1.028528
1.155522
1.246127
1.207239
0.954725
0.451541
-0.261869
-1.062533
-1.764479
-2.162247
-2.103686
-1.575559
-0.744587
0.095513
0.645720
0.721880
0.329033
-0.329499
-0.919446
-1.106704
-0.713502
0.163273
1.155516
1.790246
1.731523
0.934014
-0.365669
-1.757592
-2.785558
-3.074034
-2.454836
-1.050923
0.743634
2.402930
3.471921
3.728814
3.217518
2.148207
0.767349
-0.698991
-2.041900
-3.089407
-3.759543
-4.085913
-4.188505
-4.213029
-4.258207
-4.297386
-4.138817
-3.504526
-2.230401
-0.448700
1.413879
2.843667
3.502765
3.377570
2.753800
2.060748
1.670920
1.743197
2.172734
2.667364
2.916942
2.768829
2.300888
1.738402
1.274906
0.933702
0.572848
0.017485
-0.792002
-1.740082
-2.593087
-3.129131
-3.256510
-3.047731
-2.673898
-2.283151
-1.899005
-1.411622
-0.685475
0.281170
1.275237
1.959813
2.085046
1.644275
0.851005
-0.011685
-0.718555
-1.129718
-1.167373
-0.812659
-0.123559
0.765815
1.672166
2.394424
2.746658
2.609049
1.990928
1.055692
0.060898
-0.760607
-1.294540
-1.556664
-1.636385
-1.626707
-1.579254
-1.485363
-1.274768
-0.840019
-0.095009
0.946848
2.119133
3.123916
3.634276
3.427018
2.477368
0.975355
-0.731362
-2.242016
-3.234596
-3.589884
-3.427416
-2.991641
-2.456015
-1.813022
-0.937609
0.260431
1.733555
3.289129
4.637411
5.465535
5.545698
4.854928
3.622178
2.237639
1.067458
0.304826
-0.044685
-0.070468
0.137870
0.514440
0.981195
1.414100
1.651510
1.541209
1.011098
0.133991
-0.875470
-1.763550
-2.369388
-2.674293
-2.741896
-2.629381
-2.354463
-1.919780
-1.340876
-0.652526
0.083007
0.757046
1.223874
1.366894
1.187856
0.838024
0.533961
0.408115
0.423869
0.425077
0.263318
-0.101965
-0.579737
-0.981509
-1.086948
-0.735569
0.074670
1.136933
2.094022
2.610003
2.559118
2.094198
1.540655
1.198223
1.188333
1.425643
1.700838
1.807122
1.639867
1.229779
0.697413
0.152970
-0.383127
-0.965980
-1.628674
-2.297081
-2.808748
-3.028479
-2.957068
-2.732243
-2.518613
-2.386979
-2.285001
-2.099451
-1.732050
-1.139715
-0.358389
0.475641
1.153316
1.498592
1.477328
1.200382
0.820464
0.432543
0.057173
-0.319462
-0.709297
-1.104359
-1.458193
-1.668149
-1.587063
-1.087691
-0.164130
1.006913
2.123028
2.902162
3.195937
2.988705
2.322041
1.243198
-0.178128
-1.800414
-3.387048
-4.640595
-5.290533
-5.199563
-4.430334
-3.228041
-1.922967
-0.799453
0.001952
0.499677
0.808699
1.049324
1.283889
1.509774
1.688174
1.767468
1.685214
1.370728
0.781016
-0.035585
-0.905549
-1.576557
-1.828680
-1.581696
-0.930214
-0.087082
0.723208
1.354627
1.772646
2.031186
2.214563
2.377055
2.513938
2.569493
2.465275
2.133972
1.548679
0.739513
-0.205859
-1.155631
-1.961154
-2.497812
-2.707142
-2.621072
-2.353987
-2.060721
-1.877685
-1.873970
-2.024729
-2.206313
-2.227852
-1.918702
-1.241589
-0.345929
0.495062
1.022836
1.114543
0.825741
0.354053
-0.045134
-0.162449
0.071267
0.548766
1.051211
1.388395
1.507853
1.478135
1.371515
1.179492
0.854688
0.413895
-0.035403
-0.367031
-0.502833
-0.411318
-0.085758
0.445219
1.099206
1.763414
2.347443
2.806953
3.121936
3.270858
3.232243
3.005177
2.626417
2.168883
1.718776
1.342782
1.062188
0.839278
0.577588
0.159688
-0.464135
-1.197662
-1.824608
-2.136039
-2.045400
-1.599581
-0.907304
-0.068929
0.843040
1.766911
2.624484
3.295129
3.617997
3.454956
2.788044
1.765681
0.645757
-0.329532
-1.040293
-1.501182
-1.777965
-1.891402
-1.800681
-1.478252
-0.990110
-0.489459
-0.128822
0.029245
0.037458
0.013611
0.050324
0.149436
0.238644
0.259455
0.236502
0.256260
0.384195
0.607304
0.854953
1.075188
1.290104
1.568259
1.925343
2.240344
2.280968
1.838079
0.868797
-0.450523
-1.781430
-2.749745
-3.091627
-2.769082
-1.996683
-1.149226
-0.589674
-0.511129
-0.878377
-1.487058
-2.080846
-2.443466
-2.429556
-1.967489
-1.079054
0.093662
1.293716
2.205211
2.561169
2.281769
1.561620
0.806230
0.418783
0.573095
1.128990
1.731777
2.004948
1.720345
0.899061
-0.166317
-0.999204
-1.142270
-0.385983
1.115214
2.906669
4.438693
5.306130
5.389363
4.824270
3.870846
2.810936
1.910246
1.382439
1.311003
1.571049
1.844520
1.764053
1.107458
-0.074809
-1.470207
-2.652232
-3.289178
-3.294670
-2.842182
-2.254131
-1.834927
-1.724144
-1.833349
-1.901213
-1.639435
-0.893765
0.252960
1.489059
2.412947
2.747852
2.502645
1.967004
1.553366
1.603780
2.265505
3.459003
4.912180
6.233667
7.011331
6.925142
5.854947
3.938698
1.526595
-0.952590
-3.112502
-4.652355
-5.358934
-5.132437
-4.034222
-2.292828
-0.240821
1.775091
3.470349
4.678964
5.376848
5.647908
5.607589
5.343586
4.912271
4.363949
3.750359
3.108210
2.444189
1.740289
0.975244
0.145303
-0.726706
-1.593908
-2.386736
-3.009516
-3.367226
-3.441652
-3.348777
-3.287480
-3.401158
-3.680189
-3.980808
-4.111162
-3.914715
-3.334689
-2.451253
-1.456469
-0.565362
0.067334
0.369830
0.329582
-0.040376
-0.711864
-1.613463
-2.595225
-3.443884
-3.973593
-4.145923
-4.124279
-4.195464
-4.590315
-5.328549
-6.199923
-6.884709
-7.127889
-6.872799
-6.296153
-5.733978
-5.537089
-5.920819
-6.869769
-8.142575
-9.381983
-10.268613
-10.625292
-10.430798
-9.780311
-8.850128
-7.880180
-7.134811
-6.815485
-6.975769
-7.515151
-8.260254
-9.061658
-9.824304
-10.461409
-10.842492
-10.807954
-10.246817
-9.163302
-7.669819
-5.922000
-4.061153
-2.204712
-0.471660
0.998696
2.066101
2.640180
2.725692
2.437998
1.994038
1.674540
1.741570
2.340763
3.452275
4.918469
6.520946
8.055936
9.374674
10.392735
11.088227
11.488200
11.629506
11.513680
11.098416
10.331742
9.202209
7.784367
6.255319
4.855995
3.818412
3.310924
3.411926
4.093716
5.218942
6.564511
7.869319
8.881522
9.392490
9.272282
8.519672
7.293582
5.866138
4.503197
3.355288
2.426071
1.623709
0.853674
0.088439
-0.624912
-1.191579
-1.480614
-1.335343
-0.640496
0.568139
2.057348
3.481144
4.542125
5.119386
5.288953
5.240447
5.158329
5.140059
5.185318
5.248596
5.309938
5.397745
5.538309
5.691713
5.741657
5.532031
4.914281
3.798210
2.201740
0.265988
-1.793482
-3.769351
-5.511528
-6.915747
-7.897737
-8.411708
-8.501437
-8.313890
-8.049620
-7.899895
-8.001438
-8.386747
-8.940495
-9.422278
-9.575907
-9.260751
-8.518150
-7.536978
-6.547525
-5.707773
-5.034143
-4.401318
-3.617684
-2.545578
-1.187888
0.320962
1.794707
3.072363
4.056533
4.716082
5.062043
5.119890
4.925093
4.534510
4.020659
3.432034
2.751033
1.909563
0.868944
-0.308357
-1.465122
-2.433961
-3.139985
-3.647099
-4.115412
-4.705838
-5.499512
-6.474099
-7.527813
-8.513495
-9.261897
-9.600260
-9.378486
-8.513500
-7.051671
-5.212256
-3.351264
-1.837690
-0.911332
-0.593717
-0.689260
-0.894670
-0.975377
-0.892690
-0.786640
-0.833771
-1.091820
-1.435245
-1.609948
-1.371158
-0.630253
0.481562
1.679053
2.668778
3.279618
3.520629
3.559951
3.634790
3.919626
4.421875
4.979834
5.363253
5.396320
5.019894
4.270593
3.223309
1.965492
0.623975
-0.596891
-1.424127
-1.603354
-1.037324
0.116394
1.478852
2.613341
3.235154
3.355646
3.260727
3.327338
3.815299
4.769526
6.051601
7.428424
8.645215
9.474964
9.778363
9.577050
9.080438
8.607815
8.434982
8.663242
9.188987
9.779599
10.193699
10.271340
9.964248
9.320571
8.444222
7.439783
6.364541
5.216307
3.963456
2.596532
1.162578
-0.256745
-1.613786
-2.941477
-4.326101
-5.826874
-7.402520
-8.896229
-10.093171
-10.814764
-10.992468
-10.691262
-10.081938
-9.368731
-8.702773
-8.139632
-7.668033
-7.260230
-6.882600
-6.478841
-5.967660
-5.255828
-4.256870
-2.928426
-1.333985
0.307690
1.650220
2.357727
2.295558
1.634158
0.771802
0.127967
-0.053190
0.234684
0.853684
1.658644
2.554088
3.465403
4.293171
4.896280
5.118629
4.865166
4.182274
3.262459
2.362584
1.697146
1.362706
1.323810
1.466567
1.685556
1.942668
2.263360
2.688844
3.232283
3.878879
4.626523
5.522915
6.661915
8.136192
9.963448
12.025399
14.070468
15.784810
16.881952
17.169659
16.589300
15.234527
13.344237
11.253781
9.298537
7.700419
6.498855
5.571554
4.724759
3.784417
2.644460
1.275084
-0.296914
-2.027703
-3.892061
-5.884826
-7.992540
-10.164583
-12.295993
-14.229133
-15.781095
-16.784567
-17.131590
-16.800663
-15.841855
-14.353953
-12.499242
-10.521097
-8.705091
-7.292386
-6.400121
-5.980912
-5.835653
-5.691061
-5.311319
-4.574449
-3.476226
-2.083573
-0.477112
1.286065
3.177519
5.181398
7.265871
9.349562
11.286170
12.883919
13.951218
14.352144
14.066746
13.234775
12.134406
11.100569
10.439187
10.342549
10.798237
11.549929
12.167046
12.211305
11.429142
9.864858
7.812767
5.636066
3.585975
1.733732
0.036817
-1.511241
-2.775064
-3.526596
-3.594763
-2.974236
-1.830661
-0.422471
1.001910
2.261605
3.233066
3.814575
3.909427
3.428473
2.309165
0.565425
-1.652619
-4.062112
-6.352706
-8.321985
-9.941560
-11.327090
-12.639732
-13.978698
-15.332716
-16.613960
-17.742741
-18.713360
-19.583841
-20.405821
-21.170156
-21.818184
-22.283941
-22.507475
-22.419767
-21.935686
-20.970617
-19.474567
-17.475021
-15.105676
-12.584542
-10.148651
-7.998036
-6.275366
-5.066085
-4.392136
-4.181474
-4.242940
-4.307307
-4.133034
-3.608265
-2.788641
-1.850022
-0.989332
-0.341997
0.049178
0.230755
0.311377
0.406232
0.592077
0.903298
1.334811
1.846813
2.398381
2.984267
3.642035
4.428641
5.380225
6.493834
7.745967
9.106839
10.531370
11.956486
13.325217
14.613197
15.813737
16.881620
17.677481
17.959108
17.459290
16.028631
13.748700
10.944489
8.096222
5.683371
4.017850
3.144704
2.858378
2.818211
2.705885
2.355245
1.794553
1.200720
0.822958
0.904162
1.591653
2.862138
4.501979
6.156655
7.447328
8.117560
8.132363
7.683964
7.122247
6.836581
7.102371
7.942074
9.087189
10.077226
10.452008
9.953076
8.630273
6.788308
4.812568
2.982283
1.372699
-0.105056
-1.573239
-3.085474
-4.621824
-6.137099
-7.603385
-9.038795
-10.510396
-12.098563
-13.856596
-15.796226
-17.877323
-19.978540
-21.884912
-23.325891
-24.033762
-23.800030
-22.534386
-20.319416
-17.440208
-14.341547
-11.487899
-9.188352
-7.481705
-6.130468
-4.724040
-2.863120
-0.358451
2.667141
5.841097
8.709617
10.912637
12.297086
12.928264
13.017859
12.823592
12.559462
12.322390
12.048698
11.541666
10.552889
8.866308
6.386143
3.207424
-0.394311
-4.043976
-7.358214
-10.034899
-11.924362
-13.050132
-13.592571
-13.842855
-14.118123
-14.664021
-15.590928
-16.873564
-18.401989
-20.048403
-21.728134
-23.434744
-25.215366
-27.078632
-28.897013
-30.402905
-31.310362
-31.465857
-30.905838
-29.804085
-28.374949
-26.798281
-25.187248
-23.587072
-21.995033
-20.389935
-18.751505
-17.058907
-15.276239
-13.344407
-11.183011
-8.703682
-5.847611
-2.636208
0.800251
4.245957
7.470846
10.298560
12.622854
14.388122
15.577149
16.205051
16.303930
15.913014
15.092300
13.931780
12.517943
10.904263
9.122335
7.198279
5.167890
3.080215
1.011795
-0.883743
-2.389619
-3.327298
-3.642037
-3.406762
-2.729178
-1.650267
-0.141662
1.824837
4.194078
6.776656
9.296546
11.522250
13.370973
14.890091
16.151611
17.197676
18.059059
18.753195
19.258320
19.532860
19.572857
19.448210
19.310768
19.372417
19.819895
20.699554
21.878082
23.119120
24.198399
24.987482
25.488668
25.796198
26.001354
26.127745
26.148153
26.041576
25.819710
25.500904
25.072136
24.484608
23.665621
22.528666
21.024212
19.212929
17.259033
15.345586
13.623855
12.220613
11.235420
10.716626
10.644505
10.922265
11.401485
11.953920
12.516079
13.068422
13.603668
14.117914
14.588628
14.932730
15.009586
14.665811
13.739117
12.035807
9.376026
5.695785
1.112858
-4.096293
-9.596757
-15.086466
-20.339464
-25.231411
-29.726229
-33.829102
-37.544449
-40.862968
-43.778301
-46.281555
-48.327271
-49.803059
-50.532555
-50.349575
-49.205906
-47.212631
-44.581566
-41.537281
-38.255756
-34.845798
-31.380486
-27.925575
-24.543566
-21.317810
-18.387232
-15.949185
-14.212578
-13.314797
-13.255867
-13.890764
-14.972594
-16.215313
-17.344164
-18.136715
-18.458109
-18.250650
-17.496674
-16.221846
-14.514911
-12.523518
-10.426132
-8.357268
-6.326853
-4.227168
-1.922909
0.660646
3.504502
6.502277
9.498003
12.356568
14.991934
17.309599
19.155249
20.353699
20.797012
20.496414
19.567560
18.173634
16.466974
14.563668
12.557923
10.535918
8.565526
6.716066
5.118025
3.954994
3.370538
3.406474
3.990242
4.951118
6.094873
7.266641
8.325792
9.084174
9.304562
8.805783
7.592925
5.878327
3.988778
2.257421
0.961490
0.280929
0.229507
0.633999
1.236295
1.815167
2.228890
2.404648
2.348615
2.156584
1.976540
1.979002
2.325530
3.117327
4.376259
6.053996
8.078564
10.427355
13.149543
16.297506
19.799911
23.391159
26.689035
29.351654
31.173454
32.075863
32.034081
31.011309
28.962873
25.901037
21.952768
17.351572
12.385123
7.342793
2.462555
-2.090958
-6.199044
-9.756185
-12.664373
-14.854516
-16.305504
-17.030432
-17.046095
-16.381216
-15.114211
-13.354540
-11.183428
-8.667728
-5.947524
-3.269665
-0.930245
0.786230
1.678722
1.736277
1.154171
0.210751
-0.883735
-2.069976
-3.419612
-5.032500
-6.935211
-9.077181
-11.395402
-13.815869
-16.196037
-18.326822
-19.993359
-21.029573
-21.378386
-21.137346
-20.505667
-19.657820
-18.679895
-17.606085
-16.458744
-15.251393
-14.014007
-12.841704
-11.879292
-11.245344
-10.988243
-11.072946
-11.385523
-11.796478
-12.238422
-12.723279
-13.300272
-13.994333
-14.765828
-15.516998
-16.134777
-16.528708
-16.637020
-16.420134
-15.876394
-15.059638
-14.067098
-13.016954
-12.012500
-11.082672
-10.137204
-8.986209
-7.428834
-5.359037
-2.822363
0.008808
2.880519
5.472848
7.450898
8.576655
8.802813
8.281587
7.286891
6.088566
4.855755
3.649624
2.471330
1.313462
0.204897
-0.761821
-1.445476
-1.709667
-1.461730
-0.663328
0.645966
2.330344
4.195294
6.059126
7.813833
9.461071
11.106594
12.908082
15.000106
17.436310
20.177082
23.101952
26.035463
28.805607
31.300003
33.479877
35.368938
37.025158
38.504082
39.842426
41.055237
42.132107
43.030651
43.671394
43.964321
43.852783
43.336525
42.484688
41.413273
40.218559
38.947945
37.627419
36.283642
34.933533
33.562042
32.121006
30.537397
28.691015
26.389685
23.411808
19.614637
15.020954
9.810678
4.246175
-1.396928
-6.861518
-11.897626
-16.243326
-19.662857
-22.034067
-23.394320
-23.892879
-23.707039
-22.996016
-21.891645
-20.495819
-18.864672
-16.983841
-14.780941
-12.197408
-9.271182
-6.157542
-3.071359
-0.213808
2.264345
4.265765
5.725619
6.580704
6.757044
6.185806
4.836883
2.759145
0.098480
-2.925072
-6.064097
-9.114249
-11.987169
-14.714089
-17.367947
-19.980118
-22.514992
-24.892941
-27.027056
-28.854227
-30.350389
-31.541159
-32.503014
-33.332024
-34.108467
-34.879726
-35.628513
-36.224106
-36.418041
-35.923805
-34.538506
-32.236408
-29.176025
-25.613689
-21.808949
-17.989529
-14.347452
-11.028779
-8.122592
-5.649026
-3.570001
-1.852071
-0.499573
0.484164
1.113466
1.395871
1.328666
0.916406
0.169455
-0.922749
-2.393883
-4.254754
-6.464960
-8.944024
-11.570615
-14.191853
-16.672544
-18.927244
-20.892399
-22.472122
-23.530788
-23.953783
-23.713835
-22.870062
-21.492918
-19.606533
-17.210365
-14.332800
-11.070002
-7.584409
-4.052484
-0.599815
2.719657
5.885746
8.887133
11.749218
14.525011
17.211666
19.693792
21.773729
23.247513
23.969603
23.881668
23.031057
21.575888
19.729612
17.700624
15.699353
13.930638
12.526421
11.514824
10.842428
10.402195
10.077232
9.805101
9.627059
9.648240
9.938728
10.527994
11.454159
12.718153
14.235090
15.902765
17.642023
19.325693
20.748730
21.699247
22.033701
21.690292
20.671366
19.041924
16.904650
14.329820
11.315343
7.852093
4.036275
0.066809
-3.824622
-7.389940
-10.433030
-12.890787
-14.777760
-16.096773
-16.824600
-16.975174
-16.664856
-16.066601
-15.349635
-14.670895
-14.126547
-13.762820
-13.657698
-13.895196
-14.499097
-15.410563
-16.489140
-17.601652
-18.709412
-19.836960
-21.000257
-22.159107
-23.245434
-24.237785
-25.149212
-25.959778
-26.593983
-26.949669
-26.937801
-26.489067
-25.565840
-24.190638
-22.404207
-20.200768
-17.561932
-14.513730
-11.105371
-7.394463
-3.500426
0.405765
4.230538
7.987929
11.664799
15.158477
18.362638
21.238394
23.789368
26.029831
27.971972
29.560810
30.645168
31.073822
30.769447
29.670067
27.698446
24.905884
21.565739
18.038017
14.622007
11.510491
8.785229
6.441600
4.441979
2.804608
1.591478
0.785593
0.317515
0.211713
0.585267
1.503079
2.905968
4.665416
6.624975
8.620860
10.587847
12.606253
14.732230
16.857286
18.811628
20.512850
21.924706
22.941015
23.416885
23.239382
22.314526
20.599092
18.167227
15.162968
11.698979
7.874388
3.850804
-0.161977
-3.958683
-7.352013
-10.191183
-12.426384
-14.101969
-15.227247
-15.741215
-15.625572
-14.956623
-13.840208
-12.339313
-10.457676
-8.169705
-5.446098
-2.295476
1.125616
4.495316
7.518174
10.096092
12.270377
14.060733
15.442190
16.413118
16.967756
17.079216
16.798269
16.240173
15.406109
14.179823
12.532615
10.602851
8.600429
6.717019
5.124586
3.981412
3.374269
3.327500
3.891917
5.114711
6.922912
9.143849
11.634876
14.305652
17.033957
19.636578
21.937820
