EVENT_NAME: EMILIA_2ND_SHOCK
EVENT_ID: IT-2012-0011
EVENT_DATE_YYYYMMDD: 20120529
EVENT_TIME_HHMMSS: 070002
EVENT_LATITUDE_DEGREE: 44.8417
EVENT_LONGITUDE_DEGREE: 11.0657
EVENT_DEPTH_KM: 8.1
HYPOCENTER_REFERENCE: INGV-CNT_Seismic_Bulletin
MAGNITUDE_W: 6.0
MAGNITUDE_W_REFERENCE: RCMT-INGV
MAGNITUDE_L: 5.8
MAGNITUDE_L_REFERENCE: INGV-CNT_Seismic_Bulletin
FOCAL_MECHANISM: TF
NETWORK: IT
STATION_CODE: MRN
STATION_NAME: MIRANDOLA (NAPOLI)
STATION_LATITUDE_DEGREE: 44.878231
STATION_LONGITUDE_DEGREE: 11.061743
STATION_ELEVATION_M: 15
LOCATION: 
SENSOR_DEPTH_M: 0.0
VS30_M/S: 208
SITE_CLASSIFICATION_EC8: C
MORPHOLOGIC_CLASSIFICATION: 
EPICENTRAL_DISTANCE_KM: 4.1
EARTHQUAKE_BACKAZIMUTH_DEGREE: 175.6
DATE_TIME_FIRST_SAMPLE_YYYYMMDD_HHMMSS: 20120529_065948.000
DATE_TIME_FIRST_SAMPLE_PRECISION: seconds
SAMPLING_INTERVAL_S: 0.005000
NDATA: 13713
DURATION_S: 68.565
STREAM: HNN
UNITS: cm/s^2
INSTRUMENT: sensor = MS2007+ [Syscom] | digitizer = 130-01/3 [Reftek]
INSTRUMENT_ANALOG/DIGITAL: D
INSTRUMENTAL_FREQUENCY_HZ: 
INSTRUMENTAL_DAMPING: 
FULL_SCALE_G: 
N_BIT_DIGITAL_CONVERTER: 24
PGA_CM/S^2: 288.651206
TIME_PGA_S: 21.495000
BASELINE_CORRECTION: BASELINE REMOVED
FILTER_TYPE: BUTTERWORTH
FILTER_ORDER: 2
LOW_CUT_FREQUENCY_HZ: 0.070
HIGH_CUT_FREQUENCY_HZ: 40.000
LATE/NORMAL_TRIGGERED: NT
DATABASE_VERSION: DYNA 1.0
HEADER_FORMAT: DYNA 1.2
DATA_TYPE: ACCELERATION
PROCESSING: manual (Paolucci et al., 2011)
DATA_TIMESTAMP_YYYYMMDD_HHMMSS: 20141204_104205.354
DATA_LICENSE: CC-BY3_0-IT (http://creativecommons.org/licenses/by/3.0/deed.en)
DATA_CITATION: ESM working group (2015), European Strong-Motion database, version 0.1, Network Activity 3: Networking acceleration networks and SM data users. Project NERA (www.nera-eu.org)
DATA_CREATOR: ESM working group
ORIGINAL_DATA_MEDIATOR_CITATION: Ufficio Rischio Sismico e Vulcanico del Dipartimento della Protezione Civile (http://www.protezionecivile.gov.it/)
ORIGINAL_DATA_MEDIATOR: Rete Accelerometrica Nazionale - RAN Download (http://www.mot1.it/randownload/)
ORIGINAL_DATA_CREATOR_CITATION: Italian Strong Motion Network, Italian Civil Protection Department http://www.protezionecivile.gov.it
ORIGINAL_DATA_CREATOR: network: IT (Italian Strong Motion Network); owner: Dipartimento Della Protezione Civile
USER1: /home/dyna/processing-itaca/processing.py /var/www/processing/tmp/fpacor//IT.MRN..HNE.D.20120529.070003.X.ACC.ASC /var/www/processing/tmp/fpacor//IT.MRN..HNN.D.20120529.070003.X.ACC.ASC /var/www/processing/tmp/fpacor//IT.MRN..HNZ.D.20120529.070003.X.ACC.ASC --tmp /var/www/processing/tmp/fpacor/ --le 0.070 --he 40.000 --ln 0.070 --hn 40.000 --lz 0.070 --hz 40.000 --fo 2 --ca -15 --cz 100 --ta 5 --tz 5 --mf 1 --rf 0 --tr NT
USER2: 
USER3: 
USER4: 
USER5: 
[...]
-0.551518
-0.554401
-0.540939
-0.534071
-0.545269
-0.553320
-0.547015
-0.544811
-0.553486
-0.553018
-0.539126
-0.534934
-0.545715
-0.548209
-0.535606
-0.529823
-0.539880
-0.545878
-0.538344
-0.536414
-0.548056
-0.552779
-0.543719
-0.543134
-0.556395
-0.558594
-0.543966
-0.538082
-0.548355
-0.551066
-0.538738
-0.533255
-0.540209
-0.537565
-0.520596
-0.512906
-0.522914
-0.529704
-0.523253
-0.521795
-0.532853
-0.536187
-0.525738
-0.522946
-0.532279
-0.531407
-0.516279
-0.512282
-0.527762
-0.537030
-0.527111
-0.518790
-0.523316
-0.522975
-0.511269
-0.508434
-0.519813
-0.522069
-0.508558
-0.503453
-0.515318
-0.522798
-0.518090
-0.519616
-0.530278
-0.527156
-0.506868
-0.496031
-0.502719
-0.504091
-0.493091
-0.491594
-0.505802
-0.512562
-0.503546
-0.499955
-0.509222
-0.509477
-0.493766
-0.487006
-0.498691
-0.504949
-0.496971
-0.497316
-0.512257
-0.517558
-0.505416
-0.498752
-0.506129
-0.506641
-0.492420
-0.483969
-0.488461
-0.485123
-0.468731
-0.463208
-0.476483
-0.485809
-0.480903
-0.480653
-0.491955
-0.493396
-0.479249
-0.473827
-0.484545
-0.489177
-0.481657
-0.482842
-0.495178
-0.495068
-0.481246
-0.479704
-0.492886
-0.494141
-0.478002
-0.470661
-0.481354
-0.485783
-0.473618
-0.468098
-0.478366
-0.481248
-0.469607
-0.466810
-0.478428
-0.480096
-0.465218
-0.459103
-0.471271
-0.476987
-0.465583
-0.460866
-0.472631
-0.477788
-0.467402
-0.463181
-0.472541
-0.473227
-0.458112
-0.450852
-0.459903
-0.462195
-0.448790
-0.441831
-0.451190
-0.457183
-0.451683
-0.453972
-0.468725
-0.473179
-0.462181
-0.457840
-0.464413
-0.460811
-0.444470
-0.440312
-0.453849
-0.457281
-0.441494
-0.433691
-0.444331
-0.448521
-0.435555
-0.427833
-0.436683
-0.442699
-0.435095
-0.432315
-0.443969
-0.450182
-0.441818
-0.438673
-0.447958
-0.449687
-0.437459
-0.431355
-0.437156
-0.435007
-0.422249
-0.421882
-0.436169
-0.438738
-0.424043
-0.417986
-0.428171
-0.431155
-0.420477
-0.419108
-0.431943
-0.434131
-0.419717
-0.414672
-0.427783
-0.433790
-0.422178
-0.416768
-0.426568
-0.427422
-0.411894
-0.405353
-0.416743
-0.422087
-0.411442
-0.406464
-0.416225
-0.420330
-0.409931
-0.404155
-0.411346
-0.412218
-0.400136
-0.396239
-0.406447
-0.410878
-0.404813
-0.405298
-0.414183
-0.412314
-0.397396
-0.391713
-0.400195
-0.400892
-0.389689
-0.390595
-0.408037
-0.414596
-0.401586
-0.394237
-0.401572
-0.400164
-0.382866
-0.375025
-0.385359
-0.389236
-0.376995
-0.370646
-0.379483
-0.383855
-0.375192
-0.372584
-0.384082
-0.389170
-0.379567
-0.376305
-0.386172
-0.388021
-0.377266
-0.375594
-0.387400
-0.390208
-0.376766
-0.368487
-0.373492
-0.370741
-0.355298
-0.352741
-0.369187
-0.378294
-0.371460
-0.369970
-0.377339
-0.367342
-0.329881
-0.285321
-0.244337
-0.192345
-0.114753
-0.011122
0.095384
0.158757
0.163979
0.155561
0.159041
0.123211
0.015494
-0.070166
-0.011050
0.167209
0.344519
0.521747
0.838621
1.317313
1.698743
1.726760
1.548955
1.483206
1.370631
0.746105
-0.190866
-0.568212
-0.088920
0.641989
1.295572
2.204306
3.215590
3.230400
1.551136
-0.844665
-2.124574
-1.579660
-0.154851
0.895331
1.287155
1.533897
1.759432
1.225799
-0.566097
-3.061884
-5.538468
-7.529109
-7.853223
-5.342138
-1.243062
1.341176
1.102922
-0.245517
-0.987232
-1.798876
-3.710668
-5.226446
-4.012076
-0.683804
1.752083
1.842888
0.775894
-0.170744
-1.156722
-2.519034
-3.570184
-3.382425
-1.999613
-0.202360
1.517779
3.044746
3.994947
4.065787
4.175790
5.803286
8.505512
9.952281
9.303317
8.145372
7.263995
5.448572
2.492648
0.539167
1.336671
4.033496
6.338122
6.866639
5.914839
4.266655
2.027118
-0.784109
-3.042526
-3.096589
-0.717757
2.496606
4.965829
6.407200
6.913294
6.066737
4.000910
1.994832
0.661363
-1.090751
-3.883643
-5.866553
-4.868119
-2.157278
-1.276079
-2.811660
-3.465651
-0.827491
3.509297
6.125308
5.503318
2.772359
-0.258433
-2.320054
-2.651272
-1.418792
0.157436
0.866992
0.388752
-0.927329
-2.644654
-4.224023
-4.776699
-3.593936
-0.890814
2.216781
4.388444
4.992961
4.290696
2.551823
-0.023986
-2.443731
-3.498339
-3.363984
-3.463702
-4.607120
-5.881015
-5.815154
-4.613928
-4.042975
-4.449873
-3.583337
0.365545
5.635370
8.050884
5.205773
-1.097771
-6.367723
-6.801215
-1.755169
5.929859
12.172016
14.891883
14.360816
10.699614
3.865290
-3.840390
-8.818040
-9.916597
-7.965760
-2.624817
5.722616
12.165246
11.403752
5.093730
-0.288014
-1.697968
-1.168796
-0.366622
2.421922
8.573842
14.662407
15.444942
11.406808
8.581438
9.375458
8.898606
3.396806
-2.882896
-3.609682
0.782299
4.144161
2.464353
-1.419832
-1.035605
5.675501
13.258768
15.142626
10.347154
2.051174
-6.981732
-15.029595
-20.159416
-20.881844
-16.811232
-7.927828
4.499793
15.604483
18.764238
11.516389
-2.134500
-15.618898
-23.967522
-24.715044
-18.361242
-8.687433
0.108572
6.194808
8.383972
4.924754
-3.260946
-11.442610
-15.835764
-16.821749
-15.919560
-12.913456
-7.206850
0.959544
10.526504
18.579489
21.215818
17.420641
10.084668
3.097027
-0.503131
0.546071
4.275362
7.088932
8.029836
9.529743
13.662080
19.052982
21.874619
19.714737
14.035612
8.293351
4.357710
1.547630
-1.887903
-6.537011
-9.560828
-6.176074
4.051447
14.720228
19.160608
17.395016
14.058472
11.283722
7.452495
2.649883
0.718503
4.368768
11.547485
17.645018
19.157818
15.813629
10.582829
6.352304
2.927789
-1.108289
-5.648767
-9.563459
-11.502025
-10.099323
-5.535836
0.300485
6.275056
11.857003
14.307244
10.194005
-0.109331
-13.150523
-25.992292
-34.931080
-33.750160
-19.187599
2.590538
19.634233
25.420897
23.129730
17.799654
9.376466
-3.329931
-15.979178
-20.942261
-16.222479
-7.963376
-1.989227
2.130540
5.520934
5.318132
0.069382
-5.818730
-7.261943
-4.886315
-2.220455
2.074232
12.684043
27.288954
35.310802
29.120487
11.481407
-8.309560
-22.486778
-28.285673
-24.970909
-11.600216
10.496934
35.642979
54.059258
55.228043
37.635044
14.152930
-0.619317
-6.437882
-12.444365
-19.020594
-16.049107
0.796035
23.767328
42.132782
47.616653
36.487209
15.086389
-3.007492
-9.497316
-5.582956
4.446768
16.022427
22.862829
20.522385
11.021264
0.291757
-7.025881
-9.501551
-9.200358
-9.607592
-10.599192
-7.815297
0.288563
8.474184
11.769792
11.290310
8.651494
3.354023
0.508519
10.361084
33.502407
53.912952
54.179947
34.510876
10.428822
-5.450216
-12.714677
-15.626298
-13.384681
-2.155727
16.167923
33.228973
43.364265
48.570179
50.514435
43.657459
24.181568
-0.386939
-19.446989
-30.946905
-37.709583
-39.235634
-31.724482
-14.004945
5.137068
10.948563
-0.893519
-20.186609
-34.350830
-35.657265
-21.736551
1.342425
20.587320
27.432846
26.304758
29.492929
41.772011
53.257423
53.492050
44.728584
35.725151
32.757931
34.308285
27.234320
1.444727
-26.027760
-22.740236
13.734825
50.392662
70.386932
90.079796
115.870995
128.627670
114.959084
82.334778
47.464283
24.741020
17.284760
14.767412
6.116054
-6.346028
-9.723485
-0.094230
8.399497
3.180855
-9.520003
-15.931823
-12.805919
-9.037464
-13.193759
-22.946718
-28.492859
-24.051268
-14.028439
-9.486807
-16.318407
-26.096972
-27.685522
-23.999464
-22.837366
-20.401218
-8.177305
13.203318
37.303204
62.090530
88.182129
109.740067
116.236244
106.795609
95.122803
94.529869
101.587112
98.190025
72.815834
35.048954
1.197195
-23.587091
-41.006390
-53.523407
-69.078018
-98.857399
-143.760834
-185.538269
-198.728851
-179.898819
-155.652420
-147.368500
-143.154648
-123.507805
-97.203278
-89.498970
-105.258949
-124.687363
-133.893356
-140.543427
-154.931274
-171.030319
-173.326660
-155.478592
-126.736816
-100.167389
-78.827919
-57.042957
-31.286903
-4.779671
16.891584
33.841545
54.992481
87.775963
124.177353
144.709229
143.099182
139.176163
154.758835
186.196930
211.633865
215.442291
200.081223
178.181198
154.826187
124.849686
89.858795
63.893784
55.528416
54.096725
39.704670
2.691791
-51.106987
-109.362770
-156.678085
-173.867432
-153.738083
-117.038681
-94.739182
-95.256721
-100.473984
-90.660645
-61.049606
-15.751318
36.509609
77.078346
87.750923
75.566505
69.188438
82.674248
103.452957
118.927948
132.493027
150.030670
164.543900
161.374100
135.593384
97.700394
64.399055
48.868500
54.918037
74.423782
92.659569
99.363510
94.022667
79.230614
51.420906
6.114281
-47.473854
-89.594696
-109.311050
-109.863548
-97.932274
-79.580841
-60.902008
-40.078182
-7.830143
33.113197
61.837341
63.995926
53.230789
55.959946
76.349953
90.937141
83.950035
69.490440
67.943481
77.753502
82.002281
71.420357
51.075069
30.219343
13.411646
0.032308
-11.706791
-20.757196
-21.975235
-10.461555
8.888707
23.249403
31.223921
44.497608
62.744431
68.959152
52.108601
16.474993
-25.828852
-63.144104
-92.622536
-117.363686
-133.946487
-137.287628
-134.793488
-139.064743
-150.929993
-160.674835
-162.249786
-160.117294
-162.048813
-168.263275
-171.211426
-165.042480
-151.200912
-134.544586
-117.384872
-99.003250
-78.537445
-56.894047
-39.442127
-35.265541
-45.677170
-57.131588
-54.799454
-37.777447
-15.452267
3.627261
16.086267
22.445534
24.791500
26.162663
30.464630
39.525536
50.484802
58.765450
62.980469
65.507668
69.468338
75.683235
81.863739
84.650085
80.821899
66.826523
43.869087
23.842981
19.328991
27.587940
34.797390
32.289116
20.066172
1.238536
-18.597433
-29.852673
-21.480553
12.537079
64.137840
112.503281
144.201950
164.149673
179.986862
190.981171
195.954620
196.564987
191.339066
176.979935
156.812881
143.527847
150.212967
174.465317
194.871628
193.067154
174.828232
158.885498
152.448486
148.149094
138.487366
124.742287
112.711769
103.972450
96.038612
89.877571
89.022438
92.109444
93.196945
86.365143
68.297516
41.016972
9.719654
-24.182114
-63.609966
-108.167549
-148.296326
-170.619812
-171.049545
-159.207703
-147.102402
-137.204315
-126.049271
-116.775581
-119.887444
-138.778717
-161.887146
-174.275818
-172.404419
-164.400757
-159.703354
-161.413559
-166.165146
-168.443329
-165.873093
-160.731323
-155.440582
-148.753632
-138.002151
-122.971329
-106.077957
-89.494888
-74.550171
-65.127426
-67.902679
-85.874107
-112.756996
-136.261276
-147.290741
-145.317688
-137.518936
-132.504150
-130.765213
-124.090607
-107.218819
-85.009857
-65.219627
-48.507275
-29.633968
-5.518505
20.286736
37.467842
36.544865
22.973761
16.307829
28.008652
47.153320
53.093086
35.713280
-0.151828
-41.570705
-74.257675
-92.047005
-102.341148
-114.127785
-124.683937
-127.766426
-129.104279
-142.188232
-168.464554
-193.023224
-206.090408
-215.904617
-231.414139
-245.622833
-245.561676
-230.337982
-211.651031
-200.176620
-197.186691
-197.521393
-196.277023
-192.477203
-187.761948
-182.507309
-174.511490
-161.443878
-141.968185
-114.031525
-75.561272
-28.753241
17.608332
52.302113
70.119637
77.241898
86.672409
104.972672
125.082207
135.935944
135.777298
132.411880
133.027679
137.243851
140.895233
141.878403
137.742661
123.132561
95.179649
56.834087
12.121490
-37.689384
-91.388428
-142.948395
-180.852753
-195.003128
-187.270157
-171.580124
-160.209167
-156.733093
-161.084625
-169.727112
-173.418900
-165.415482
-150.153915
-138.090866
-134.769196
-135.841629
-129.894592
-109.409363
-78.174042
-45.826927
-22.195765
-14.834694
-24.247360
-46.048992
-76.614250
-109.291290
-133.289825
-143.423798
-143.141418
-136.535324
-124.616913
-106.605606
-81.348862
-53.524815
-34.250549
-27.935463
-26.938231
-22.895578
-15.570611
-9.921547
-9.036844
-12.497227
-20.316145
-33.977661
-52.938103
-72.412605
-86.160866
-93.482719
-100.810188
-111.045067
-116.647987
-111.215141
-101.295692
-98.134300
-103.332024
-110.417046
-116.230919
-123.337395
-133.663376
-145.765274
-157.543976
-167.624954
-174.073792
-175.274933
-172.552902
-169.190353
-167.167465
-165.959869
-163.489822
-158.140152
-149.462814
-136.915695
-120.672020
-103.956253
-90.392242
-78.581230
-64.654549
-50.313370
-41.430180
-37.400604
-28.696335
-8.836491
16.894321
40.139011
60.767559
83.117180
106.428017
124.579109
132.807312
132.515640
130.428925
132.908295
140.398392
147.972351
151.728027
154.066437
161.379349
175.990677
192.683746
204.386673
208.581833
208.535706
211.261948
221.580460
235.538025
243.843079
243.050522
238.546585
236.704163
238.807022
241.983215
242.853439
240.614212
237.135498
234.088730
231.624115
229.960571
230.127518
232.222916
234.425278
235.279099
235.602112
236.626297
237.695312
236.991852
234.336472
232.918060
237.286163
248.653915
262.572083
273.159882
279.474121
284.454651
288.477356
288.651215
283.619446
274.814117
264.080780
253.621674
247.134079
247.299026
251.560135
252.251160
241.493790
216.077377
179.645920
141.622009
111.528473
91.851585
77.848526
64.638496
51.500862
39.388535
28.525749
20.313625
17.620871
19.496058
19.518282
13.461864
4.729073
-0.461328
0.279835
5.122597
11.790194
20.168816
31.384846
45.327370
59.740189
71.355934
78.423424
82.319374
85.159012
86.771622
85.999466
83.462776
81.157257
79.455521
75.710281
66.892662
52.827976
35.966137
18.988998
3.477663
-9.611470
-19.252516
-25.709743
-32.829342
-46.240513
-67.815781
-93.282478
-115.569244
-129.928665
-135.496826
-132.682693
-121.562057
-102.404373
-75.551964
-42.233238
-6.571348
24.872313
46.696724
59.306553
68.744812
78.824966
88.260803
97.141174
106.673782
114.382660
118.281715
119.807053
118.681213
112.610596
102.815536
93.944260
88.503540
84.162277
76.811363
65.995834
56.219044
51.784966
52.852886
57.889137
65.344826
71.179138
70.911301
66.116417
62.577465
60.883011
54.785473
39.750072
18.842718
-0.739042
-14.231823
-21.816463
-26.534445
-30.273373
-31.909414
-29.740129
-24.559692
-19.256233
-14.929915
-8.279064
4.855280
23.933073
43.860065
60.475555
74.658867
89.846680
106.135162
119.184929
125.385254
126.399216
126.465317
125.590446
119.649956
108.096169
96.993729
92.849167
95.625366
98.764679
95.384071
83.378922
65.045372
43.784637
21.973888
1.410791
-15.518932
-26.994299
-34.557121
-42.064732
-50.220257
-55.867626
-58.579617
-63.182961
-73.631226
-88.024406
-100.789665
-107.483322
-107.086060
-101.236168
-92.577278
-83.804649
-77.505775
-76.685783
-84.192360
-99.462814
-117.192909
-132.379776
-145.296936
-158.731110
-172.412262
-183.377197
-190.489059
-195.153229
-198.115738
-198.933182
-197.818634
-194.893723
-188.595505
-177.184570
-161.265274
-143.639679
-127.633820
-116.087776
-110.312408
-109.810837
-113.524773
-120.178535
-127.733833
-133.670395
-135.430313
-130.788010
-118.975502
-101.693024
-81.695580
-60.009701
-36.064484
-10.215663
15.518483
38.473904
56.131897
66.560631
68.521461
62.084724
50.259109
38.817883
32.732758
32.523941
34.122330
32.325096
24.964005
14.240500
4.310871
-2.091045
-4.907975
-6.128372
-8.937442
-16.062654
-27.012564
-37.725060
-44.918102
-50.025787
-56.588795
-64.851967
-72.071259
-77.593369
-83.976837
-92.738167
-102.779419
-113.390892
-124.253983
-131.930145
-131.196838
-121.340874
-107.747414
-95.955032
-86.479050
-76.630440
-65.514084
-55.455620
-49.483768
-48.784702
-51.771057
-54.795177
-54.941719
-52.925533
-51.925224
-53.478607
-56.460136
-59.728836
-63.802399
-69.492363
-75.798752
-80.437759
-82.410995
-82.481918
-80.980545
-77.401230
-72.739983
-69.533936
-68.281868
-65.645622
-58.091618
-46.123108
-31.962690
-15.083406
5.237160
25.197689
40.289837
53.623230
73.952568
102.683029
129.544495
144.707642
148.678421
148.324463
149.231796
153.605865
161.837753
173.386856
186.031509
195.673553
198.413712
193.055984
180.457703
160.583298
132.105576
95.015739
51.890957
5.973500
-40.375278
-83.582870
-116.580254
-132.988708
-136.847839
-142.069061
-154.857086
-166.425354
-170.850403
-175.433105
-184.947891
-189.227737
-174.986771
-142.514542
-105.098289
-74.607010
-50.524506
-24.075113
8.621015
39.303158
54.860889
56.483925
63.539589
85.033356
102.903496
98.875481
78.420212
57.448235
42.364075
30.229420
17.842279
4.771203
-9.618532
-28.618526
-53.910027
-78.316048
-91.445900
-95.584755
-102.706352
-115.244331
-126.194511
-132.720642
-135.146408
-130.472351
-115.666794
-93.261681
-71.731056
-60.189713
-59.983189
-62.933544
-60.545334
-54.161846
-54.812847
-68.556122
-84.303497
-88.327728
-84.667412
-86.281273
-95.252975
-103.466919
-105.811127
-106.115952
-111.329353
-121.871414
-130.354721
-131.192459
-128.052032
-128.771240
-136.168823
-146.772430
-156.000549
-162.434128
-167.496231
-172.179367
-175.478027
-174.991516
-166.976212
-147.448303
-116.023094
-77.871826
-40.049404
-6.774712
20.451853
40.110683
51.876007
61.227207
77.105080
100.786110
122.880249
134.561737
135.477417
130.424194
124.475883
120.787544
119.415230
118.176674
116.034744
115.685814
120.677605
129.905273
138.590927
144.459671
149.039429
153.642365
157.719009
160.964508
164.355637
168.427292
172.076294
174.477310
177.389938
183.531647
192.536041
200.005005
201.185883
195.033844
183.707153
168.757431
150.779526
132.982590
120.923378
117.230431
118.847664
119.897148
116.691643
110.550041
105.970978
106.012939
109.619087
113.307266
114.480865
112.416199
107.613312
101.303696
94.176300
85.639954
76.092590
68.857094
67.115982
69.309120
70.320564
67.440491
62.726532
59.000996
56.048393
52.440571
49.212963
48.833088
51.198757
53.416077
53.521763
52.438148
51.726887
51.043583
49.432255
47.768021
47.630245
48.687504
49.283024
49.144978
49.591106
50.855942
51.301994
50.140598
48.723072
47.741219
44.894413
36.931812
23.142235
5.555722
-13.580099
-33.061337
-51.728840
-67.570061
-78.647507
-85.101990
-89.896996
-96.563370
-105.482559
-113.345268
-117.551102
-119.973289
-124.192657
-130.273788
-135.161133
-137.258240
-138.044434
-139.239731
-140.138321
-138.837173
-133.862320
-122.103889
-98.865135
-63.975933
-24.489811
11.419531
40.004112
60.889072
74.701241
82.974831
87.969498
91.142372
92.131714
