EVENT_NAME: EMILIA_2ND_SHOCK
EVENT_ID: IT-2012-0011
EVENT_DATE_YYYYMMDD: 20120529
EVENT_TIME_HHMMSS: 070002
EVENT_LATITUDE_DEGREE: 44.8417
EVENT_LONGITUDE_DEGREE: 11.0657
EVENT_DEPTH_KM: 8.1
HYPOCENTER_REFERENCE: INGV-CNT_Seismic_Bulletin
MAGNITUDE_W: 6.0
MAGNITUDE_W_REFERENCE: RCMT-INGV
MAGNITUDE_L: 5.8
MAGNITUDE_L_REFERENCE: INGV-CNT_Seismic_Bulletin
FOCAL_MECHANISM: TF
NETWORK: IT
STATION_CODE: MRN
STATION_NAME: MIRANDOLA (NAPOLI)
STATION_LATITUDE_DEGREE: 44.878231
STATION_LONGITUDE_DEGREE: 11.061743
STATION_ELEVATION_M: 15
LOCATION: 
SENSOR_DEPTH_M: 0.0
VS30_M/S: 208
SITE_CLASSIFICATION_EC8: C
MORPHOLOGIC_CLASSIFICATION: 
EPICENTRAL_DISTANCE_KM: 4.1
EARTHQUAKE_BACKAZIMUTH_DEGREE: 175.6
DATE_TIME_FIRST_SAMPLE_YYYYMMDD_HHMMSS: 20120529_065948.000
DATE_TIME_FIRST_SAMPLE_PRECISION: seconds
SAMPLING_INTERVAL_S: 0.005000
NDATA: 13713
DURATION_S: 68.565
STREAM: HNZ
UNITS: cm/s^2
INSTRUMENT: sensor = MS2007+ [Syscom] | digitizer = 130-01/3 [Reftek]
INSTRUMENT_ANALOG/DIGITAL: D
INSTRUMENTAL_FREQUENCY_HZ: 
INSTRUMENTAL_DAMPING: 
FULL_SCALE_G: 
N_BIT_DIGITAL_CONVERTER: 24
PGA_CM/S^2: 840.558524
TIME_PGA_S: 19.165000
BASELINE_CORRECTION: BASELINE REMOVED
FILTER_TYPE: BUTTERWORTH
FILTER_ORDER: 2
LOW_CUT_FREQUENCY_HZ: 0.070
HIGH_CUT_FREQUENCY_HZ: 40.000
LATE/NORMAL_TRIGGERED: NT
DATABASE_VERSION: DYNA 1.0
HEADER_FORMAT: DYNA 1.2
DATA_TYPE: ACCELERATION
PROCESSING: manual (Paolucci et al., 2011)
DATA_TIMESTAMP_YYYYMMDD_HHMMSS: 20141204_104205.354
DATA_LICENSE: CC-BY3_0-IT (http://creativecommons.org/licenses/by/3.0/deed.en)
DATA_CITATION: ESM working group (2015), European Strong-Motion database, version 0.1, Network Activity 3: Networking acceleration networks and SM data users. Project NERA (www.nera-eu.org)
DATA_CREATOR: ESM working group
ORIGINAL_DATA_MEDIATOR_CITATION: Ufficio Rischio Sismico e Vulcanico del Dipartimento della Protezione Civile (http://www.protezionecivile.gov.it/)
ORIGINAL_DATA_MEDIATOR: Rete Accelerometrica Nazionale - RAN Download (http://www.mot1.it/randownload/)
ORIGINAL_DATA_CREATOR_CITATION: Italian Strong Motion Network, Italian Civil Protection Department http://www.protezionecivile.gov.it
ORIGINAL_DATA_CREATOR: network: IT (Italian Strong Motion Network); owner: Dipartimento Della Protezione Civile
USER1: /home/dyna/processing-itaca/processing.py /var/www/processing/tmp/fpacor//IT.MRN..HNE.D.20120529.070003.X.ACC.ASC /var/www/processing/tmp/fpacor//IT.MRN..HNN.D.20120529.070003.X.ACC.ASC /var/www/processing/tmp/fpacor//IT.MRN..HNZ.D.20120529.070003.X.ACC.ASC --tmp /var/www/processing/tmp/fpacor/ --le 0.070 --he 40.000 --ln 0.070 --hn 40.000 --lz 0.070 --hz 40.000 --fo 2 --ca -15 --cz 100 --ta 5 --tz 5 --mf 1 --rf 0 --tr NT
USER2: 
USER3: 
USER4: 
USER5: 
[...]
-0.368242
-0.369029
-0.369816
-0.370603
-0.371392
-0.372181
-0.372970
-0.373760
-0.374551
-0.375342
-0.376134
-0.376927
-0.377720
-0.378514
-0.379308
-0.380103
-0.380899
-0.381695
-0.382492
-0.383289
-0.384087
-0.384886
-0.385685
-0.386484
-0.387285
-0.388085
-0.388887
-0.389689
-0.390491
-0.391294
-0.392098
-0.392902
-0.393707
-0.394512
-0.395318
-0.396125
-0.396932
-0.397739
-0.398547
-0.399356
-0.400165
-0.400975
-0.401785
-0.402596
-0.403407
-0.404219
-0.405032
-0.405844
-0.406658
-0.407472
-0.408286
-0.409101
-0.409917
-0.410733
-0.411550
-0.412367
-0.413184
-0.414002
-0.414821
-0.415640
-0.416459
-0.417280
-0.418100
-0.418921
-0.419743
-0.420565
-0.421387
-0.422210
-0.423034
-0.423858
-0.424682
-0.425507
-0.426332
-0.427158
-0.427984
-0.428811
-0.429638
-0.430466
-0.431294
-0.432122
-0.432951
-0.433781
-0.434611
-0.435441
-0.436272
-0.437103
-0.437935
-0.438767
-0.439599
-0.440432
-0.441265
-0.442099
-0.442933
-0.443768
-0.444603
-0.445438
-0.446274
-0.447110
-0.447947
-0.448784
-0.449621
-0.450459
-0.451297
-0.452135
-0.452974
-0.453814
-0.454653
-0.455493
-0.456334
-0.457175
-0.458016
-0.458857
-0.459699
-0.460541
-0.461384
-0.462227
-0.463070
-0.463914
-0.464758
-0.465602
-0.466447
-0.467291
-0.468137
-0.468982
-0.469828
-0.470675
-0.471521
-0.472368
-0.473215
-0.474063
-0.474910
-0.475759
-0.476607
-0.477456
-0.478305
-0.479154
-0.480003
-0.480853
-0.481703
-0.482554
-0.483404
-0.484255
-0.485107
-0.485958
-0.486810
-0.487662
-0.488514
-0.489366
-0.490219
-0.491072
-0.491925
-0.492779
-0.493632
-0.494486
-0.495340
-0.496195
-0.497049
-0.497904
-0.498759
-0.499614
-0.500470
-0.501325
-0.502181
-0.503037
-0.503893
-0.504750
-0.505606
-0.506463
-0.507320
-0.508177
-0.509034
-0.509892
-0.510749
-0.511607
-0.512465
-0.513323
-0.514181
-0.515039
-0.515898
-0.516757
-0.517615
-0.518474
-0.519333
-0.520192
-0.521052
-0.521911
-0.522770
-0.523630
-0.524490
-0.525349
-0.526209
-0.527069
-0.527929
-0.528789
-0.529650
-0.530510
-0.531370
-0.532231
-0.533091
-0.533952
-0.534812
-0.535673
-0.536534
-0.537394
-0.538255
-0.539116
-0.539977
-0.540838
-0.541699
-0.542560
-0.543420
-0.544281
-0.545142
-0.546003
-0.546864
-0.547725
-0.548586
-0.549447
-0.550308
-0.551169
-0.552030
-0.552891
-0.553751
-0.554612
-0.555473
-0.556334
-0.557194
-0.558055
-0.558915
-0.559776
-0.560636
-0.561496
-0.562357
-0.563217
-0.564077
-0.564937
-0.565797
-0.566656
-0.567516
-0.568376
-0.569235
-0.570094
-0.570954
-0.571813
-0.572672
-0.573530
-0.574389
-0.575248
-0.576106
-0.576964
-0.577822
-0.578680
-0.579538
-0.580395
-0.581253
-0.582110
-0.582967
-0.583824
-0.584680
-0.585537
-0.586393
-0.587249
-0.588105
-0.588960
-0.589816
-0.590671
-0.591526
-0.592380
-0.593235
-0.594089
-0.594943
-0.595797
-0.596650
-0.597503
-0.598356
-0.599208
-0.600061
-0.600913
-0.601764
-0.602616
-0.603467
-0.604318
-0.605168
-0.606018
-0.606868
-0.607718
-0.608567
-0.609416
-0.610264
-0.611112
-0.611960
-0.612807
-0.613654
-0.614501
-0.615347
-0.616193
-0.617039
-0.617884
-0.618729
-0.619573
-0.620417
-0.621261
-0.622104
-0.622946
-0.623789
-0.624631
-0.625472
-0.626313
-0.627153
-0.627993
-0.628833
-0.629672
-0.630511
-0.631349
-0.632187
-0.633024
-0.633861
-0.634697
-0.635532
-0.636368
-0.637202
-0.638036
-0.638870
-0.639703
-0.640536
-0.641368
-0.642199
-0.643030
-0.643860
-0.644690
-0.645519
-0.646348
-0.647176
-0.648003
-0.648830
-0.649656
-0.650482
-0.651307
-0.652131
-0.652955
-0.653778
-0.654601
-0.655423
-0.656243
-0.657064
-0.657887
-0.658709
-0.659521
-0.660311
-0.661109
-0.662030
-0.663141
-0.663984
-0.663348
-0.661283
-0.664031
-0.683127
-0.708621
-0.663105
-0.451023
-0.130143
0.095742
0.133912
0.090910
0.085094
0.111330
0.110503
0.087434
0.087153
0.099778
0.084692
0.057686
0.063532
0.087061
0.078704
0.048728
0.046774
0.067137
0.066635
0.053923
0.068846
0.096998
0.093465
0.069569
0.070202
0.084889
0.069817
0.038907
0.040851
0.066083
0.068023
0.053817
0.065122
0.092018
0.091463
0.072064
0.077930
0.102087
0.099901
0.076480
0.074051
0.086539
0.072930
0.042301
0.039674
0.058178
0.054224
0.035756
0.044304
0.068695
0.064769
0.042264
0.047306
0.073072
0.073774
0.054749
0.058128
0.073144
0.056212
0.022466
0.021098
0.041203
0.035342
0.013724
0.022580
0.051075
0.051792
0.032687
0.038599
0.060398
0.053746
0.029668
0.032925
0.051811
0.040829
0.011989
0.014742
0.041304
0.042916
0.025209
0.034019
0.061982
0.061586
0.037578
0.034340
0.045209
0.028756
-0.002855
-0.005099
0.012415
0.008164
-0.007948
0.003030
0.027272
0.022361
0.001564
0.009047
0.032328
0.026607
0.005112
0.013432
0.037007
0.029233
0.004219
0.008757
0.031158
0.026407
0.005596
0.012734
0.035097
0.026119
-0.002592
-0.001946
0.020975
0.018674
-0.003764
-0.001410
0.018916
0.012433
-0.011860
-0.006822
0.018571
0.015586
-0.008134
-0.006455
0.011656
0.002775
-0.021509
-0.016642
0.005821
0.000174
-0.022503
-0.017249
0.004040
-0.002318
-0.023589
-0.017164
0.003759
-0.004033
-0.028934
-0.026602
-0.004439
-0.004226
-0.019345
-0.010178
0.014241
0.011867
-0.009483
-0.007452
0.011093
0.004744
-0.020280
-0.024934
-0.016090
-0.028829
-0.049192
-0.037362
-0.008155
-0.005769
-0.020121
-0.010118
0.012463
0.005644
-0.017923
-0.015666
-0.001841
-0.019393
-0.051555
-0.051523
-0.030932
-0.033610
-0.050636
-0.042116
-0.018481
-0.020477
-0.038913
-0.033920
-0.015008
-0.023434
-0.049989
-0.049732
-0.027750
-0.027304
-0.044544
-0.040745
-0.024991
-0.036953
-0.063324
-0.059533
-0.035244
-0.034111
-0.050081
-0.044778
-0.027658
-0.036413
-0.057486
-0.049693
-0.025874
-0.029524
-0.051314
-0.049316
-0.033406
-0.045445
-0.072742
-0.070747
-0.051470
-0.058016
-0.076662
-0.063613
-0.033244
-0.033453
-0.055341
-0.052246
-0.030151
-0.031607
-0.047892
-0.038584
-0.016991
-0.026624
-0.055987
-0.059242
-0.042846
-0.051014
-0.077639
-0.078648
-0.059825
-0.062626
-0.079639
-0.071914
-0.050106
-0.054653
-0.074544
-0.067678
-0.044508
-0.047990
-0.068478
-0.063739
-0.043363
-0.048888
-0.071034
-0.068454
-0.050152
-0.058226
-0.082778
-0.078953
-0.056272
-0.059094
-0.075928
-0.063988
-0.037741
-0.041391
-0.062617
-0.058232
-0.039929
-0.051352
-0.080971
-0.082676
-0.064156
-0.069172
-0.089594
-0.083218
-0.060929
-0.066072
-0.088573
-0.085731
-0.066453
-0.073063
-0.097120
-0.096107
-0.077852
-0.083181
-0.102984
-0.096499
-0.073415
-0.075884
-0.095272
-0.090445
-0.072460
-0.083347
-0.109949
-0.107524
-0.085745
-0.086650
-0.101530
-0.090711
-0.064933
-0.065534
-0.082478
-0.075303
-0.055299
-0.063278
-0.086959
-0.083648
-0.064043
-0.070428
-0.092102
-0.086546
-0.064642
-0.069817
-0.092597
-0.090080
-0.071267
-0.079701
-0.106593
-0.107150
-0.089020
-0.094968
-0.115426
-0.107202
-0.080335
-0.080483
-0.100153
-0.094353
-0.071259
-0.075748
-0.098602
-0.094789
-0.072783
-0.076051
-0.095964
-0.091094
-0.072775
-0.082683
-0.107452
-0.102739
-0.079491
-0.082689
-0.104091
-0.100889
-0.083430
-0.094730
-0.122130
-0.120022
-0.098570
-0.100725
-0.115306
-0.101878
-0.075300
-0.078936
-0.099754
-0.093692
-0.073491
-0.084320
-0.112433
-0.109822
-0.086616
-0.089039
-0.109582
-0.105187
-0.084407
-0.090272
-0.113445
-0.110526
-0.091027
-0.097123
-0.117327
-0.108848
-0.083022
-0.082758
-0.099342
-0.094145
-0.077642
-0.086389
-0.107423
-0.103024
-0.086119
-0.096393
-0.122346
-0.122089
-0.103366
-0.105700
-0.121086
-0.111758
-0.089290
-0.095214
-0.118338
-0.114553
-0.093273
-0.096740
-0.114103
-0.104715
-0.080921
-0.084959
-0.107599
-0.106661
-0.089872
-0.099699
-0.127116
-0.125656
-0.095063
-0.055565
0.056183
0.387192
1.085260
2.278381
4.012948
6.058595
7.987607
9.686917
11.395695
12.916643
13.509021
13.067549
12.530713
12.476091
12.209502
11.102556
10.055340
10.693681
13.715094
18.694633
24.826494
30.733610
33.248035
27.918476
13.521048
-3.740672
-14.179629
-13.984556
-7.016278
2.252530
10.952979
13.352445
3.521290
-15.299429
-31.001892
-34.632584
-28.757732
-22.605074
-20.279709
-15.752635
-1.040666
20.757627
33.386650
21.944298
-11.602313
-49.662067
-71.647659
-65.226097
-35.975723
-7.761760
-1.606240
-14.126883
-26.796312
-30.677202
-29.814190
-25.623356
-12.478203
8.909335
25.721905
29.150066
27.624916
33.589615
44.195118
45.659035
32.599312
14.671266
4.546637
4.253433
5.337447
0.044299
-11.247965
-22.322708
-25.907898
-17.006590
2.955217
24.863361
39.237812
44.384079
42.020786
28.983849
4.961146
-15.786966
-16.751684
-1.118495
13.542498
18.690224
19.102133
17.880718
8.999946
-13.787560
-44.228622
-64.021851
-59.841076
-38.311306
-19.500196
-15.669470
-20.518089
-19.042973
-2.637274
26.265070
56.667866
71.766808
58.918610
24.925892
-6.909072
-22.011015
-28.437275
-37.988125
-43.846684
-31.870831
-6.072982
14.971095
21.375755
18.466700
16.044456
18.669947
23.438364
24.517647
19.536781
12.656608
11.122121
14.776876
11.826884
-7.796936
-38.342178
-62.971352
-68.811005
-54.890823
-30.381477
-9.295965
-3.766079
-16.224852
-35.287918
-40.199783
-15.140611
32.962166
72.664749
73.577583
35.189056
-14.907591
-49.961807
-64.614326
-64.917053
-47.480415
-4.641715
49.672047
79.402031
59.888817
2.979449
-51.166836
-64.310516
-31.047325
17.097839
43.429920
39.435555
26.142365
29.048386
51.440147
72.245956
70.624908
42.739738
-0.857154
-34.942127
-30.228775
10.171975
42.498093
34.369640
5.294698
-4.973383
13.655060
44.424046
74.558052
97.065117
95.240158
53.331173
-12.954076
-54.110878
-35.367363
15.802972
38.056023
12.182823
-25.310530
-47.360558
-74.997528
-132.079926
-190.542282
-190.855621
-110.852295
4.238190
84.837723
103.830391
88.996063
71.646347
47.386200
-3.682973
-76.473183
-132.762344
-132.593781
-72.620514
8.670467
65.230255
79.650436
62.849590
29.021749
-13.660190
-53.812111
-76.466980
-74.965485
-54.551208
-21.599220
21.643145
68.374535
105.662292
125.105629
123.682983
95.233513
35.195934
-44.316807
-112.969543
-138.055557
-103.800423
-25.535482
53.571217
92.118835
79.273758
32.492046
-20.138151
-51.644489
-48.762939
-20.373150
13.922447
39.936951
50.574535
45.259090
33.171085
26.766436
30.881908
40.998493
45.524727
29.070341
-17.058493
-81.554428
-130.311646
-124.489677
-56.262135
30.930752
76.151314
61.352207
22.402864
1.731916
7.223336
18.048508
20.143190
20.473190
22.807610
19.047314
15.664856
35.903225
86.488960
140.281326
149.326782
79.376549
-47.791847
-155.685806
-178.098358
-118.045715
-36.091923
11.207297
18.671371
22.840563
49.537411
83.656235
97.216095
84.110260
48.201408
-14.048949
-91.302544
-147.609497
-160.463501
-139.712585
-94.905685
-19.083881
78.835320
154.094818
159.415497
91.139626
-5.209331
-72.479774
-83.790710
-51.833500
-2.831013
48.168587
88.517258
92.910858
42.934223
-45.080959
-130.027252
-176.319138
-163.168686
-82.406975
46.304817
167.275970
225.440842
207.106705
126.469276
0.358021
-133.136475
-203.117188
-154.117798
-6.212637
148.418564
217.399078
176.387695
78.874001
14.992327
34.127171
81.371979
45.912060
-96.778992
-231.204025
-228.845291
-93.839066
62.216003
152.961441
159.446915
82.185104
-52.130623
-162.971329
-177.176727
-95.008919
31.573009
137.434982
166.948318
115.095078
36.418007
-9.619663
-3.898917
34.778286
77.933868
122.848175
194.466202
295.330353
370.887451
350.862091
222.107346
40.036232
-120.348503
-188.788834
-110.906158
89.291023
283.594849
341.648987
237.461578
39.545853
-161.065414
-312.648712
-417.427277
-489.020050
-519.898315
-496.847504
-412.619965
-255.774109
-21.198236
246.846725
441.027344
463.821777
316.097107
89.160507
-112.847145
-222.033325
-209.924683
-93.566345
50.283039
128.629501
121.300179
79.083481
27.708878
-42.970139
-102.041626
-94.755188
-33.006336
11.354508
4.305966
-1.408354
74.599319
247.553802
455.245392
632.369507
759.146240
823.633301
775.628174
564.722595
216.621185
-169.758652
-498.278870
-724.011963
-835.638855
-806.398987
-584.322144
-173.583801
281.429413
569.855591
599.148865
456.062775
274.489380
102.666138
-72.909660
-234.509537
-319.023590
-280.460480
-155.454330
-61.829887
-85.173645
-171.507599
-197.639069
-114.796059
30.451447
158.416931
209.984573
169.075409
50.475830
-104.265274
-222.215271
-232.154297
-117.090492
77.832497
282.866119
414.628326
374.069427
126.865623
-211.478394
-461.524933
-540.420837
-486.909393
-395.549896
-358.116852
-391.785675
-403.441223
-263.793549
69.663361
490.091858
796.233398
840.558533
636.383789
318.428986
28.115694
-151.035263
-199.295837
-165.470398
-144.522629
-193.332489
-290.566498
-400.280121
-507.742371
-564.600708
-475.998840
-204.375473
144.436127
387.383301
412.535187
258.793213
65.168282
-66.240868
-148.095001
-229.919495
-291.061127
-266.034058
-137.974609
48.721066
239.869537
397.973999
499.729645
519.430054
422.816132
212.055801
-42.041180
-260.770721
-423.603699
-530.480042
-525.889465
-320.240570
71.889999
448.776703
565.326172
356.430420
-25.160295
-355.489319
-502.845184
-475.027405
-343.016907
-157.663025
61.176823
285.407623
455.364441
516.067993
461.244446
316.316101
108.886810
-112.576973
-262.827423
-274.214478
-176.772614
-70.261940
10.786997
135.701614
340.906982
524.124756
535.308472
338.217926
38.919224
-222.399200
-363.555695
-364.044067
-254.110260
-113.673462
-19.786530
14.764542
9.068333
-52.097424
-189.672256
-369.569641
-520.218994
-576.246460
-500.993439
-309.714508
-71.559341
127.873871
235.365509
252.654114
218.048508
177.033600
168.411636
215.228012
311.130554
412.987091
453.225952
376.396606
188.609253
-28.266327
-173.371796
-205.044662
-167.610657
-135.919281
-116.555862
-38.976559
118.611122
253.110535
248.209244
122.391182
5.891412
-13.953471
23.187868
27.284216
-19.306744
-53.370213
-31.213356
10.083804
2.823664
-66.428497
-137.935455
-148.790512
-116.959129
-120.676552
-188.235733
-263.962250
-283.030701
-226.621552
-119.197601
-0.819440
104.457916
178.976059
187.945480
115.081001
-2.884020
-118.227226
-213.593170
-275.439392
-265.405212
-158.741592
-13.257894
49.858234
-19.877621
-136.815613
-192.151138
-166.814545
-100.296173
-17.806873
78.246201
185.354706
291.079254
372.238342
404.383118
377.948486
297.972351
179.041763
57.681011
-15.979429
-30.084713
-28.270548
-47.276932
-73.258125
-81.586731
-76.123734
-70.310715
-64.442902
-54.964512
-43.551197
-26.539089
4.521498
36.677292
33.199448
-23.182575
-109.562462
-197.748825
-273.465668
-303.121918
-225.330185
-17.083336
249.372253
444.757141
477.302460
350.932617
139.431961
-85.950607
-290.994446
-457.991638
-565.320190
-588.763489
-506.237213
-308.074982
-25.552317
242.120590
367.170868
306.844910
150.036911
22.966034
-13.455588
25.397671
99.229614
186.573410
265.029541
282.603027
201.149384
48.728352
-102.391823
-189.346252
-193.026382
-151.230804
-129.564438
-164.363174
-235.622437
-286.851868
-270.732086
-181.682922
-52.318230
66.882225
134.607162
147.597610
136.355850
129.576126
134.299179
138.327866
124.912682
93.986458
56.326378
8.784704
-58.463348
-132.709976
-176.681442
-159.226562
-85.677116
0.009197
46.570522
42.096409
31.983099
73.769081
171.878967
271.979889
310.807892
258.832642
135.337509
-1.576417
-94.791847
-130.846680
-139.395493
-153.067902
-178.832886
-201.542084
-196.750458
-144.382523
-49.848236
44.529037
84.493294
53.209122
-10.049344
-52.318733
-63.316357
-72.148521
-87.088371
-67.566711
23.890249
161.584824
268.191681
278.092957
185.132858
37.018291
-110.404839
-227.342758
-302.449860
-318.453735
-251.893951
-103.099174
84.296303
241.362640
304.794373
245.587982
94.094032
-71.550705
-177.197540
-190.662796
-122.394585
-10.564221
96.744728
161.029694
170.650543
144.833176
114.558037
96.773491
86.136681
63.573711
16.400372
-38.513145
-60.426090
-30.297148
19.703804
46.337265
49.777592
54.779274
56.451954
25.128000
-40.857925
-97.918861
-99.167130
-41.777344
29.653898
61.196369
30.006578
-45.902405
-122.955345
-152.374329
-102.768997
19.541521
169.967575
286.923615
318.275177
245.401733
96.685753
-66.748718
-189.534561
-256.384430
-289.376862
-307.376129
-297.253662
-230.995239
-100.320457
67.787933
218.495758
295.042755
273.273926
171.920395
29.391701
-113.305977
-211.129532
-226.957443
-156.628876
-34.865219
86.399628
168.973709
200.398010
181.486099
120.436172
36.006718
-55.055138
-144.737534
-215.843704
-239.448227
-202.711304
-122.023026
-22.767612
78.527466
166.641937
215.664871
198.664185
114.403091
-0.961872
-94.227699
-125.381615
-87.702187
-13.540257
43.103394
43.158218
-8.296618
-69.139015
-100.801018
-100.120819
-91.434479
-92.935944
-93.999054
-65.861374
4.030761
90.582306
151.208176
166.674805
151.052719
119.247719
64.517448
-17.894733
-103.478432
-153.956223
-153.366623
-118.764122
-77.607330
-40.827347
-3.650387
26.953665
24.449514
-19.309179
-66.563744
-70.300613
-23.758549
46.201084
111.920219
151.539337
147.970367
103.310410
41.152767
-14.104517
-48.630856
-55.551296
-37.917175
-10.911013
8.627069
13.591565
11.975329
22.698675
51.766857
72.807503
53.920036
-0.944336
-62.340824
-111.770355
-138.128616
-118.527870
-42.702133
50.361904
94.550194
60.537041
-18.294563
-81.289146
-90.663605
-54.784077
-14.834563
-5.488823
-23.636871
-36.844189
-20.344152
15.608824
34.348392
12.397660
-30.500462
-48.265640
-16.060564
42.678589
75.958366
50.634708
-14.994354
-66.750954
-66.493698
-26.333700
9.701042
11.625653
-15.115409
-50.116127
-82.283791
-104.187668
-101.291092
-63.738632
2.361811
80.530655
147.038025
172.851471
141.573807
63.624001
-34.082321
-121.227234
-167.838379
-158.217010
-111.180870
-71.991547
-70.790359
-94.876450
-110.813263
-104.748657
-89.145340
-77.224007
-66.194283
-46.506981
-14.350286
29.509279
80.719170
123.295845
