EVENT_NAME: EMILIA_2ND_SHOCK
EVENT_ID: IT-2012-0011
EVENT_DATE_YYYYMMDD: 20120529
EVENT_TIME_HHMMSS: 070002
EVENT_LATITUDE_DEGREE: 44.8417
EVENT_LONGITUDE_DEGREE: 11.0657
EVENT_DEPTH_KM: 8.1
HYPOCENTER_REFERENCE: INGV-CNT_Seismic_Bulletin
MAGNITUDE_W: 6.0
MAGNITUDE_W_REFERENCE: RCMT-INGV
MAGNITUDE_L: 5.8
MAGNITUDE_L_REFERENCE: INGV-CNT_Seismic_Bulletin
FOCAL_MECHANISM: TF
NETWORK: IT
STATION_CODE: MOG0
STATION_NAME: MOGLIA
STATION_LATITUDE_DEGREE: 44.932000
STATION_LONGITUDE_DEGREE: 10.912000
STATION_ELEVATION_M: 92
LOCATION: 
SENSOR_DEPTH_M: 0.0
VS30_M/S: 
SITE_CLASSIFICATION_EC8: C*
MORPHOLOGIC_CLASSIFICATION: 
EPICENTRAL_DISTANCE_KM: 15.8
EARTHQUAKE_BACKAZIMUTH_DEGREE: 129.5
DATE_TIME_FIRST_SAMPLE_YYYYMMDD_HHMMSS: 20120529_065953.000
DATE_TIME_FIRST_SAMPLE_PRECISION: seconds
SAMPLING_INTERVAL_S: 0.005000
NDATA: 23000
DURATION_S: 115.000
STREAM: HNE
UNITS: cm/s
INSTRUMENT: sensor = Episensor FBA ES-T [Kinemetrics] | digitizer = Etna [Kinemetrics]
INSTRUMENT_ANALOG/DIGITAL: D
INSTRUMENTAL_FREQUENCY_HZ: 
INSTRUMENTAL_DAMPING: 
FULL_SCALE_G: 
N_BIT_DIGITAL_CONVERTER: 18
PGV_CM/S: -26.598536
TIME_PGV_S: 20.825000
BASELINE_CORRECTION: BASELINE REMOVED
FILTER_TYPE: BUTTERWORTH
FILTER_ORDER: 2
LOW_CUT_FREQUENCY_HZ: 0.080
HIGH_CUT_FREQUENCY_HZ: 40.000
LATE/NORMAL_TRIGGERED: NT
DATABASE_VERSION: DYNA 1.0
HEADER_FORMAT: DYNA 1.2
DATA_TYPE: VELOCITY
PROCESSING: manual (Paolucci et al., 2011)
DATA_TIMESTAMP_YYYYMMDD_HHMMSS: 20141204_103647.358
DATA_LICENSE: CC-BY3_0-IT (http://creativecommons.org/licenses/by/3.0/deed.en)
DATA_CITATION: ESM working group (2015), European Strong-Motion database, version 0.1, Network Activity 3: Networking acceleration networks and SM data users. Project NERA (www.nera-eu.org)
DATA_CREATOR: ESM working group
ORIGINAL_DATA_MEDIATOR_CITATION: Ufficio Rischio Sismico e Vulcanico del Dipartimento della Protezione Civile (http://www.protezionecivile.gov.it/)
ORIGINAL_DATA_MEDIATOR: Rete Accelerometrica Nazionale - RAN Download (http://www.mot1.it/randownload/)
ORIGINAL_DATA_CREATOR_CITATION: Italian Strong Motion Network, Italian Civil Protection Department http://www.protezionecivile.gov.it
ORIGINAL_DATA_CREATOR: network: IT (Italian Strong Motion Network); owner: Dipartimento Della Protezione Civile
USER1: /home/dyna/processing-itaca/processing.py /var/www/processing/tmp/fpacor//IT.MOG0..HNE.D.20120529.070003.X.ACC.ASC /var/www/processing/tmp/fpacor//IT.MOG0..HNN.D.20120529.070003.X.ACC.ASC /var/www/processing/tmp/fpacor//IT.MOG0..HNZ.D.20120529.070003.X.ACC.ASC --tmp /var/www/processing/tmp/fpacor/ --le 0.080 --he 40.000 --ln 0.080 --hn 40.000 --lz 0.080 --hz 40.000 --fo 2 --ca -10 --cz 30 --ta 5 --tz 5 --mf 1 --rf 0 --tr NT
USER2: 
USER3: 
USER4: 
USER5: 
[...]
0.176074
0.173317
0.170830
0.169506
0.170075
0.172748
0.176795
0.180584
0.182500
0.182122
0.180377
0.178538
0.177111
0.175609
0.173270
0.169883
0.165894
0.161889
0.158161
0.154816
0.152094
0.150254
0.149190
0.148464
0.147738
0.146892
0.145803
0.144406
0.143020
0.142465
0.143764
0.147601
0.153949
0.162049
0.170411
0.176963
0.179765
0.177953
0.172308
0.165196
0.159614
0.157632
0.159430
0.163610
0.168237
0.171573
0.172259
0.169587
0.164174
0.158246
0.154600
0.154744
0.157874
0.161516
0.163056
0.161029
0.155704
0.148946
0.143452
0.141565
0.144056
0.149500
0.154901
0.157327
0.155372
0.149830
0.143596
0.140563
0.143603
0.152659
0.164288
0.173365
0.175764
0.170018
0.157494
0.141961
0.128519
0.121466
0.122387
0.129899
0.140679
0.151069
0.158729
0.163324
0.165853
0.167760
0.170329
0.173888
0.177320
0.178426
0.175101
0.166856
0.155339
0.143268
0.133122
0.126453
0.123833
0.125354
0.130740
0.138909
0.148188
0.156814
0.162641
0.163126
0.156529
0.143290
0.126456
0.110887
0.101510
0.101346
0.110196
0.124758
0.140381
0.153214
0.161091
0.163156
0.159608
0.152179
0.144245
0.139483
0.139897
0.144911
0.151981
0.157909
0.159967
0.156834
0.149453
0.140613
0.132941
0.127380
0.123360
0.119878
0.116504
0.113725
0.112227
0.111778
0.111341
0.110568
0.110749
0.113779
0.120180
0.128184
0.134538
0.136217
0.131914
0.122880
0.113012
0.107214
0.108302
0.115114
0.123762
0.130883
0.135726
0.139366
0.142738
0.145820
0.148322
0.151124
0.156576
0.166340
0.178808
0.189389
0.193564
0.189226
0.176453
0.157274
0.136560
0.121036
0.116183
0.124244
0.144276
0.172973
0.205285
0.234922
0.255643
0.263149
0.256668
0.239819
0.219601
0.202551
0.190762
0.182121
0.174227
0.167205
0.163160
0.163626
0.167442
0.171321
0.172183
0.168442
0.160602
0.152151
0.148463
0.153199
0.165905
0.182833
0.199193
0.210201
0.210995
0.198140
0.172708
0.141164
0.112664
0.095250
0.092975
0.104125
0.121878
0.138835
0.152421
0.165417
0.180843
0.197393
0.210605
0.217233
0.216884
0.210550
0.199665
0.186080
0.171953
0.159444
0.150018
0.143910
0.140251
0.137892
0.136717
0.138133
0.144063
0.155609
0.172328
0.191169
0.205344
0.206852
0.192756
0.167976
0.141426
0.121862
0.117005
0.131611
0.162931
0.199652
0.228076
0.239940
0.234829
0.217183
0.192584
0.165880
0.140336
0.117399
0.097996
0.084643
0.081003
0.087848
0.100400
0.111361
0.116330
0.116016
0.114484
0.116093
0.122894
0.133407
0.143852
0.151080
0.154148
0.153740
0.151095
0.146882
0.140532
0.131777
0.123168
0.119418
0.123401
0.133139
0.141825
0.140525
0.123352
0.092717
0.059856
0.038870
0.039153
0.061961
0.100841
0.143396
0.174685
0.182658
0.163314
0.122549
0.073768
0.032680
0.011264
0.013373
0.034165
0.063584
0.091330
0.109822
0.115048
0.107011
0.088914
0.065576
0.043050
0.027619
0.022860
0.027489
0.036747
0.046091
0.052778
0.054166
0.046433
0.026474
-0.004274
-0.038144
-0.064358
-0.074873
-0.068583
-0.051556
-0.034116
-0.026390
-0.032996
-0.049931
-0.067506
-0.076457
-0.071776
-0.054447
-0.031926
-0.015406
-0.014383
-0.031898
-0.063505
-0.100429
-0.134012
-0.158069
-0.168794
-0.164486
-0.145991
-0.116640
-0.081335
-0.045824
-0.016301
0.002317
0.009578
0.010118
0.010042
0.013378
0.020886
0.030027
0.036918
0.040443
0.044465
0.054694
0.073009
0.095603
0.116096
0.128359
0.126783
0.108009
0.074974
0.037957
0.009699
-0.001243
0.006654
0.029083
0.058641
0.088259
0.113319
0.130587
0.136957
0.130548
0.112387
0.087302
0.063434
0.048874
0.046640
0.053038
0.061468
0.066727
0.065957
0.059163
0.050800
0.047962
0.053664
0.062796
0.067480
0.065091
0.058085
0.048528
0.037040
0.025486
0.016788
0.012223
0.011152
0.013868
0.023387
0.042642
0.069915
0.098705
0.122104
0.135905
0.138377
0.129927
0.113679
0.094749
0.078919
0.072048
0.077331
0.090024
0.096803
0.083940
0.046932
-0.007433
-0.066095
-0.115030
-0.141251
-0.135364
-0.096794
-0.035694
0.030783
0.083477
0.106819
0.094628
0.052326
-0.005508
-0.060628
-0.097972
-0.111812
-0.107406
-0.095773
-0.086447
-0.085337
-0.097430
-0.126667
-0.169396
-0.210066
-0.227204
-0.205306
-0.145244
-0.066406
0.004873
0.051881
0.072751
0.072402
0.053861
0.018859
-0.026701
-0.071985
-0.105930
-0.123341
-0.128172
-0.129341
-0.132141
-0.134834
-0.132270
-0.120569
-0.099794
-0.074370
-0.051426
-0.038511
-0.041301
-0.061083
-0.093417
-0.129296
-0.158693
-0.173749
-0.168823
-0.141137
-0.094793
-0.042667
-0.001704
0.015424
0.005561
-0.024345
-0.059207
-0.082684
-0.086516
-0.073117
-0.050917
-0.029670
-0.018144
-0.020592
-0.032404
-0.042341
-0.042314
-0.034102
-0.025516
-0.022394
-0.026019
-0.034203
-0.041019
-0.037950
-0.018711
0.015669
0.055253
0.085659
0.097483
0.092038
0.077585
0.062637
0.052408
0.047328
0.043849
0.037473
0.024897
0.004632
-0.021512
-0.045250
-0.051956
-0.028913
0.024243
0.093168
0.156168
0.194350
0.197179
0.162163
0.093568
0.003390
-0.089679
-0.167490
-0.221006
-0.252991
-0.274091
-0.295585
-0.323726
-0.359359
-0.399817
-0.439532
-0.471391
-0.490441
-0.496897
-0.495508
-0.493056
-0.496180
-0.508508
-0.527958
-0.547616
-0.560187
-0.563179
-0.561359
-0.562728
-0.571260
-0.585154
-0.600482
-0.613327
-0.619785
-0.616192
-0.598216
-0.561124
-0.505517
-0.442515
-0.389811
-0.361247
-0.358136
-0.367915
-0.371336
-0.353526
-0.312341
-0.260090
-0.216742
-0.197603
-0.204787
-0.229473
-0.260811
-0.291757
-0.318711
-0.339290
-0.351728
-0.355974
-0.354490
-0.350913
-0.347765
-0.345708
-0.345091
-0.347949
-0.357469
-0.375285
-0.400402
-0.431524
-0.469514
-0.515933
-0.568892
-0.620323
-0.656884
-0.665851
-0.644284
-0.603739
-0.564220
-0.541536
-0.537207
-0.537180
-0.521980
-0.482051
-0.425800
-0.374858
-0.350220
-0.358815
-0.391680
-0.434138
-0.475713
-0.511012
-0.535129
-0.541546
-0.525787
-0.491487
-0.452034
-0.424653
-0.421634
-0.445676
-0.491051
-0.547504
-0.604149
-0.652921
-0.691957
-0.727517
-0.770525
-0.827255
-0.892368
-0.951547
-0.990567
-1.003964
-0.998822
-0.990782
-0.995305
-1.021467
-1.070386
-1.135854
-1.206924
-1.272366
-1.323996
-1.357001
-1.369912
-1.366357
-1.356478
-1.354734
-1.372982
-1.412245
-1.460877
-1.502143
-1.524085
-1.524372
-1.509564
-1.489913
-1.472553
-1.458735
-1.447856
-1.442967
-1.449376
-1.468507
-1.496464
-1.527894
-1.559309
-1.590122
-1.622816
-1.662003
-1.710360
-1.763237
-1.808820
-1.836134
-1.843209
-1.836875
-1.824965
-1.809279
-1.785948
-1.751629
-1.709611
-1.671551
-1.651783
-1.656279
-1.677761
-1.703472
-1.725204
-1.740182
-1.746510
-1.742349
-1.729132
-1.712657
-1.699849
-1.695148
-1.699489
-1.710658
-1.724409
-1.737520
-1.750638
-1.767082
-1.789140
-1.816179
-1.845323
-1.872652
-1.893875
-1.905495
-1.906926
-1.901656
-1.895633
-1.893565
-1.896295
-1.901342
-1.905349
-1.905536
-1.899180
-1.883464
-1.857500
-1.824484
-1.791310
-1.766170
-1.755942
-1.764017
-1.788554
-1.821918
-1.853548
-1.875686
-1.886613
-1.889825
-1.892446
-1.902897
-1.926454
-1.961460
-2.000151
-2.033866
-2.057968
-2.072709
-2.081884
-2.092701
-2.115235
-2.158039
-2.222826
-2.304079
-2.393470
-2.484449
-2.573080
-2.654618
-2.721210
-2.765871
-2.788868
-2.799601
-2.812905
-2.842020
-2.891261
-2.952937
-3.010867
-3.048577
-3.057197
-3.037987
-2.999098
-2.950556
-2.900360
-2.851679
-2.801909
-2.744000
-2.668452
-2.568081
-2.444410
-2.308012
-2.173059
-2.051380
-1.947697
-1.859042
-1.779810
-1.706267
-1.635990
-1.566576
-1.495946
-1.421546
-1.340267
-1.250619
-1.152929
-1.046512
-0.928329
-0.794798
-0.643829
-0.475177
-0.290011
-0.090601
0.119613
0.335676
0.551759
0.763141
0.967846
1.167624
1.368589
1.579242
1.805587
2.048030
2.302505
2.563451
2.826386
3.088976
3.350018
3.607734
3.859446
4.102424
4.333779
4.548698
4.739241
4.895584
5.009084
5.075325
5.095003
5.072509
5.015625
4.937313
4.854752
4.783378
4.731472
4.700468
4.688954
4.695240
4.716787
4.749002
4.785265
4.818202
4.842551
4.857581
4.865317
4.865948
4.856262
4.833719
4.801197
4.765842
4.733567
4.706325
4.683856
4.665356
4.649150
4.632230
4.610106
4.576233
4.522604
4.443582
4.340337
4.220668
4.093761
3.964308
3.830785
3.688924
3.536034
3.372638
3.202568
3.032666
2.871212
2.725137
2.597497
2.486273
2.384856
2.284504
2.178018
2.062298
1.938588
1.811309
1.686129
1.567136
1.454357
1.344210
1.233289
1.122015
1.014749
0.917219
0.834542
0.771466
0.733337
0.725281
0.749938
0.806192
0.889221
0.990733
1.099416
1.202198
1.286111
1.339574
1.352795
1.320167
1.244915
1.138996
1.015993
0.886027
0.757481
0.639792
0.543316
0.477541
0.448927
0.460538
0.514413
0.611807
0.748921
0.914304
1.092775
1.271952
1.444734
1.605829
1.746861
1.855920
1.922431
1.943809
1.928967
1.895485
1.862575
1.844282
1.844949
1.858238
1.870861
1.868837
1.842289
1.787421
1.706328
1.604854
1.489978
1.370101
1.257640
1.168567
1.117357
1.111636
1.150692
1.228184
1.335269
1.461548
1.595859
1.728094
1.849712
1.952433
2.027644
2.067304
2.065047
2.017291
1.924057
1.787885
1.611574
1.397743
1.150412
0.875708
0.581055
0.274416
-0.036548
-0.345770
-0.649372
-0.944773
-1.229035
-1.498124
-1.748723
-1.981477
-2.201644
-2.414880
-2.622053
-2.819210
-3.002767
-3.173184
-3.333335
-3.485633
-3.632050
-3.775713
-3.921570
-4.076111
-4.247362
-4.444423
-4.674208
-4.936754
-5.224649
-5.528557
-5.842070
-6.155704
-6.441151
-6.647822
-6.731537
-6.692290
-6.572493
-6.415056
-6.234630
-6.029334
-5.803864
-5.573905
-5.356721
-5.163960
-4.999553
-4.860059
-4.738529
-4.630730
-4.538198
-4.466960
-4.426953
-4.433189
-4.500966
-4.633173
-4.815194
-5.027563
-5.260225
-5.512189
-5.784057
-6.075111
-6.383773
-6.707660
-7.042456
-7.377114
-7.686077
-7.928040
-8.062354
-8.075289
-7.985516
-7.818263
-7.581320
-7.269724
-6.883875
-6.436344
-5.945453
-5.427938
-4.897608
-4.367510
-3.850915
-3.359254
-2.897609
-2.460909
-2.034535
-1.599182
-1.137350
-0.638217
-0.097746
0.484972
1.107569
1.748961
2.339391
2.757033
2.899438
2.771760
2.465230
2.053294
1.554022
0.972912
0.328691
-0.360183
-1.083171
-1.824865
-2.552774
-3.218918
-3.774420
-4.188647
-4.456321
-4.587033
-4.592363
-4.483568
-4.274969
-3.984001
-3.628344
-3.225029
-2.793809
-2.361321
-1.958498
-1.610288
-1.327083
-1.104897
-0.931828
-0.794812
-0.682737
-0.586555
-0.499224
-0.415634
-0.331054
-0.239575
-0.135011
-0.012631
0.129889
0.289493
0.452771
0.597003
0.702788
0.768611
0.813905
0.867950
0.952690
1.074999
1.231024
1.408459
1.582981
1.719940
1.787796
1.772480
1.677016
1.509807
1.278422
0.994030
0.674814
0.339388
-0.002270
-0.348969
-0.701058
-1.054811
-1.401482
-1.728987
-2.025870
-2.287237
-2.517753
-2.727538
-2.925761
-3.118797
-3.311955
-3.509694
-3.713160
-3.918686
-4.119990
-4.311128
-4.486723
-4.641324
-4.769937
-4.867973
-4.929867
-4.949316
-4.922970
-4.853895
-4.749594
-4.615824
-4.453549
-4.262002
-4.042539
-3.798548
-3.532795
-3.246346
-2.941110
-2.622604
-2.297735
-1.969100
-1.632741
-1.281618
-0.910727
-0.520009
-0.114098
0.299665
0.713040
1.117462
1.502028
1.850813
2.146613
2.381811
2.563516
2.703928
2.806539
2.863381
2.862753
2.796402
2.660381
2.452971
2.174682
1.830320
1.429793
0.986175
0.512886
0.022178
-0.475371
-0.971734
-1.462225
-1.944790
-2.418020
-2.878997
-3.321238
-3.732764
-4.095936
-4.390914
-4.601859
-4.723154
-4.761315
-4.730088
-4.642477
-4.504937
-4.316444
-4.073013
-3.774565
-3.427524
-3.039973
-2.616330
-2.158564
-1.669336
-1.151855
-0.609821
-0.049280
0.521517
1.095106
1.666197
2.230261
2.782789
3.319030
3.832211
4.313145
4.754093
5.154685
5.524937
5.882198
6.243190
6.614919
6.990327
7.353938
7.693600
8.007695
8.303317
8.590022
8.875535
9.165434
9.464908
9.780036
10.116896
10.479382
10.868087
11.279759
11.705522
12.129904
12.535615
12.912059
13.258651
13.580797
13.885398
14.180622
14.476187
14.779632
15.091893
15.407178
15.716188
16.009073
16.275955
16.504341
16.676105
16.769245
16.765297
16.655645
16.440317
16.122488
15.706631
15.199949
14.610865
13.945340
13.206846
12.400286
11.535992
10.630610
9.703393
8.769497
7.834979
6.898540
5.958739
5.018722
4.084415
3.160020
2.246668
1.345708
0.461284
-0.401975
-1.243185
-2.066960
-2.880931
-3.691038
-4.499287
-5.304778
-6.105016
-6.896527
-7.675654
-8.440217
-9.191916
-9.937257
-10.684922
-11.441996
-12.211617
-12.991756
-13.777522
-14.567043
-15.364427
-16.176548
-17.007250
-17.854784
-18.714893
-19.584244
-20.458544
-21.329403
-22.185274
-23.013288
-23.796968
-24.512459
-25.131235
-25.631449
-26.009142
-26.278528
-26.459660
-26.565443
-26.598536
-26.554216
-26.424042
-26.200144
-25.878319
-25.458750
-24.944866
-24.340883
-23.649652
-22.873287
-22.016516
-21.088753
-20.102209
-19.069450
-18.003407
-16.916771
-15.818828
-14.714522
-13.608582
-12.508480
-11.421773
-10.352511
-9.300092
-8.257618
-7.210393
-6.142120
-5.046185
-3.928406
-2.799231
-1.664833
-0.524124
0.628213
1.795812
2.973877
4.148250
5.303975
6.432926
7.530558
8.584972
9.572331
10.469874
11.269275
11.967723
12.553240
13.005405
13.308773
13.467806
13.505743
13.445614
13.294317
13.044526
12.686880
12.214853
11.624295
10.918332
10.112190
9.234923
8.332396
7.467378
6.714411
6.151108
5.835580
5.770282
5.894818
6.134335
6.449294
6.834586
7.293976
7.825507
8.420128
9.068133
9.762710
10.489976
11.212161
11.862183
12.363095
12.665728
12.773734
12.730476
12.582928
12.359909
12.075228
11.737924
11.356084
10.935521
10.479404
9.991140
9.478278
8.953048
8.426685
7.902716
7.378684
6.854532
6.335223
5.824899
5.322739
4.824754
4.327607
3.832563
3.345933
2.874475
2.422727
1.994419
1.594335
1.229963
0.911364
0.647063
0.440173
0.290152
0.197201
0.162829
0.186530
0.263889
0.387251
0.547283
0.735620
0.946629
1.175924
1.418452
1.671200
1.934829
2.208961
2.490212
2.775552
3.063911
3.353507
3.635868
3.888640
4.075585
4.163478
4.144401
4.038973
3.876480
3.673645
3.431325
3.143959
2.808309
2.426960
2.006761
1.553462
1.067411
0.548049
0.004400
-0.542197
-1.063958
-1.533393
-1.932423
-2.257676
-2.513125
-2.699342
-2.810177
-2.838718
-2.786277
-2.662542
-2.477373
-2.237156
-1.949997
-1.629432
-1.291721
-0.953191
-0.631780
-0.352252
-0.147842
-0.050617
-0.075448
-0.211547
-0.431649
-0.710412
-1.033057
-1.390548
-1.773834
-2.174584
-2.587240
-3.008984
-3.438701
-3.873162
-4.302334
-4.707665
-5.061236
-5.330031
-5.493401
-5.557226
-5.543474
-5.469311
-5.340086
-5.156482
-4.921368
-4.639198
-4.314754
-3.955740
-3.573862
-3.181849
-2.790208
-2.406372
-2.035358
-1.679384
-1.336827
-1.004899
-0.684757
-0.381769
-0.100521
0.159957
0.407892
0.655762
0.913037
1.181487
1.459303
1.748535
2.055523
2.384723
2.734851
3.100577
3.474749
3.849031
4.215655
4.569229
4.907391
5.230921
5.541814
5.839675
6.117047
6.355169
6.528871
6.623210
6.645349
6.616673
6.555298
6.469043
6.359699
6.226129
6.064269
5.869878
5.642863
5.388310
5.114906
4.833150
4.552941
4.281652
4.024942
3.790116
3.588145
3.429208
3.314822
3.237401
3.188226
3.162080
3.154921
3.163280
3.186670
3.225913
3.278588
3.339169
3.402256
3.462310
3.511932
3.542558
3.546306
3.518270
3.458978
3.374060
3.270337
3.153104
3.025675
2.887581
2.734391
2.562146
2.371848
2.169682
1.962212
1.750801
1.531736
1.301874
1.062703
0.818727
0.575152
0.339123
0.120359
-0.071358
-0.228024
-0.343389
-0.413520
-0.438034
-0.420803
-0.369134
-0.291547
-0.196012
-0.088712
0.027733
0.155863
0.301938
0.469546
0.654131
0.845509
1.035001
1.220585
1.407711
1.605436
1.820987
2.057612
2.315154
2.590035
2.876169
3.169216
3.469244
3.777507
4.092342
4.408461
4.716924
5.002954
5.246444
5.430511
5.549206
5.606233
5.609994
5.568475
5.486432
5.368622
5.224248
5.067411
4.915671
4.785823
4.686467
4.615739
4.566750
4.532375
4.506254
4.482125
4.452874
4.411942
4.355923
4.284372
4.197331
4.093573
3.971474
3.831316
3.676442
3.511914
3.341107
3.165138
2.987060
2.814196
2.656301
2.524164
2.428701
2.377121
2.368352
2.393808
2.443768
2.512830
2.599565
2.702448
2.817156
2.937818
3.060439
3.184687
3.311899
3.441320
3.568655
3.687824
3.793436
3.881963
3.952185
4.006301
4.050726
4.094481
4.146564
4.214295
4.301185
4.405859
4.524600
4.652494
4.781804
4.904745
5.018323
5.122821
5.218080
5.303638
5.379219
5.444040
5.496893
5.535137
5.553700
5.547200
5.511879
5.446061
5.349482
5.221634
5.062654
4.873706
4.656108
4.413161
4.150543
3.874510
3.590357
3.301124
3.008682
2.715580
2.425533
2.142899
1.870261
1.607182
1.353000
1.109324
0.879623
0.668550
0.481739
0.324700
0.201490
0.114251
0.062162
0.039728
0.037201
0.043806
0.051121
0.052817
0.041886
0.011562
-0.039409
-0.104615
-0.175443
-0.245064
-0.304686
-0.343592
-0.356361
-0.345418
-0.315712
-0.269627
-0.207445
-0.129265
-0.036127
0.068482
0.179294
0.290242
0.394286
0.486034
0.564001
0.628538
0.679002
0.712077
0.722947
0.709800
0.675061
0.622384
0.555424
0.478623
0.396698
0.312149
0.224215
0.131413
0.033777
-0.067652
-0.170533
-0.268300
-0.353275
-0.426091
-0.493313
-0.557086
-0.614618
-0.662111
-0.698806
-0.729797
-0.761038
-0.794723
-0.831707
-0.875449
-0.933473
-1.014354
-1.122515
-1.256165
-1.410517
-1.583983
-1.780402
-2.004297
-2.255184
-2.526882
-2.812264
-3.108045
-3.413631
-3.725832
-4.034289
-4.320111
-4.561275
-4.744883
-4.876143
-4.973359
-5.053619
-5.124069
-5.183972
-5.230153
-5.260240
-5.274406
-5.276141
-5.271007
-5.263531
-5.254184
-5.238313
-5.207767
-5.154469
-5.072947
-4.960519
-4.817236
-4.645531
-4.448817
-4.230524
-3.993659
-3.740570
-3.473226
-3.194122
-2.906998
-2.615667
-2.322893
-2.030260
-1.737428
-1.441901
-1.140253
-0.831391
-0.518211
-0.204045
0.110242
0.426321
0.748116
1.079413
1.420840
1.770043
2.123960
2.480387
2.837985
3.196098
3.554883
3.913069
4.263355
4.588655
4.862000
5.055739
5.158580
5.181727
5.144970
5.061298
4.934835
4.766003
4.555599
4.305963
4.020569
3.703691
3.360022
2.994446
2.612449
2.219310
1.818033
1.409646
0.995811
