EVENT_NAME: EMILIA_2ND_SHOCK
EVENT_ID: IT-2012-0011
EVENT_DATE_YYYYMMDD: 20120529
EVENT_TIME_HHMMSS: 070002
EVENT_LATITUDE_DEGREE: 44.8417
EVENT_LONGITUDE_DEGREE: 11.0657
EVENT_DEPTH_KM: 8.1
HYPOCENTER_REFERENCE: INGV-CNT_Seismic_Bulletin
MAGNITUDE_W: 6.0
MAGNITUDE_W_REFERENCE: RCMT-INGV
MAGNITUDE_L: 5.8
MAGNITUDE_L_REFERENCE: INGV-CNT_Seismic_Bulletin
FOCAL_MECHANISM: TF
NETWORK: IT
STATION_CODE: MRN
STATION_NAME: MIRANDOLA (NAPOLI)
STATION_LATITUDE_DEGREE: 44.878231
STATION_LONGITUDE_DEGREE: 11.061743
STATION_ELEVATION_M: 15
LOCATION: 
SENSOR_DEPTH_M: 0.0
VS30_M/S: 208
SITE_CLASSIFICATION_EC8: C
MORPHOLOGIC_CLASSIFICATION: 
EPICENTRAL_DISTANCE_KM: 4.1
EARTHQUAKE_BACKAZIMUTH_DEGREE: 175.6
DATE_TIME_FIRST_SAMPLE_YYYYMMDD_HHMMSS: 20120529_065948.000
DATE_TIME_FIRST_SAMPLE_PRECISION: seconds
SAMPLING_INTERVAL_S: 0.005000
NDATA: 105
DURATION_S: 
STREAM: HNN
UNITS: cm/s^2
INSTRUMENT: sensor = MS2007+ [Syscom] | digitizer = 130-01/3 [Reftek]
INSTRUMENT_ANALOG/DIGITAL: D
INSTRUMENTAL_FREQUENCY_HZ: 
INSTRUMENTAL_DAMPING: 
FULL_SCALE_G: 
N_BIT_DIGITAL_CONVERTER: 24
PGA_CM/S^2: 288.651206
TIME_PGA_S: 21.495000
BASELINE_CORRECTION: BASELINE REMOVED
FILTER_TYPE: BUTTERWORTH
FILTER_ORDER: 2
LOW_CUT_FREQUENCY_HZ: 0.070
HIGH_CUT_FREQUENCY_HZ: 40.000
LATE/NORMAL_TRIGGERED: NT
DATABASE_VERSION: DYNA 1.0
HEADER_FORMAT: DYNA 1.2
DATA_TYPE: ACCELERATION RESPONSE SPECTRUM
PROCESSING: manual (Paolucci et al., 2011)
DATA_TIMESTAMP_YYYYMMDD_HHMMSS: 20141204_104205.354
DATA_LICENSE: CC-BY3_0-IT (http://creativecommons.org/licenses/by/3.0/deed.en)
DATA_CITATION: ESM working group (2015), European Strong-Motion database, version 0.1, Network Activity 3: Networking acceleration networks and SM data users. Project NERA (www.nera-eu.org)
DATA_CREATOR: ESM working group
ORIGINAL_DATA_MEDIATOR_CITATION: Ufficio Rischio Sismico e Vulcanico del Dipartimento della Protezione Civile (http://www.protezionecivile.gov.it/)
ORIGINAL_DATA_MEDIATOR: Rete Accelerometrica Nazionale - RAN Download (http://www.mot1.it/randownload/)
ORIGINAL_DATA_CREATOR_CITATION: Italian Strong Motion Network, Italian Civil Protection Department http://www.protezionecivile.gov.it
ORIGINAL_DATA_CREATOR: network: IT (Italian Strong Motion Network); owner: Dipartimento Della Protezione Civile
USER1: /home/dyna/processing-itaca/processing.py /var/www/processing/tmp/fpacor//IT.MRN..HNE.D.20120529.070003.X.ACC.ASC /var/www/processing/tmp/fpacor//IT.MRN..HNN.D.20120529.070003.X.ACC.ASC /var/www/processing/tmp/fpacor//IT.MRN..HNZ.D.20120529.070003.X.ACC.ASC --tmp /var/www/processing/tmp/fpacor/ --le 0.070 --he 40.000 --ln 0.070 --hn 40.000 --lz 0.070 --hz 40.000 --fo 2 --ca -15 --cz 100 --ta 5 --tz 5 --mf 1 --rf 0 --tr NT
USER2: 
USER3: 
USER4: 
USER5: 
    0.010000   289.394379
    0.020000   293.031708
    0.022000   293.951019
    0.025000   300.759338
    0.029000   298.759674
    0.030000   308.884125
    0.032000   313.124023
    0.035001   299.008179
    0.036000   316.233826
    0.040000   348.950653
    0.041999   334.452057
    0.044001   341.382660
    0.045000   346.425659
    0.046000   349.924225
    0.048001   340.800720
    0.050000   356.926392
    0.054999   359.683594
    0.059999   400.881104
    0.064998   436.560883
    0.067002   432.913757
    0.069999   394.890472
    0.075002   404.364868
    0.080000   368.009491
    0.084998   390.501587
    0.090001   482.645752
    0.095003   481.331299
    0.100000   476.364288
    0.109999   523.011353
    0.120005   516.239136
    0.130005   569.998474
    0.132996   566.878784
    0.139997   555.487244
    0.149993   584.971558
    0.160000   722.620850
    0.170010   750.582703
    0.179986   792.891663
    0.190006   833.537781
    0.200000   896.507812
    0.220022   690.971191
    0.239981   744.815857
    0.250000   830.341858
    0.260010   920.385620
    0.280034   884.797180
    0.290023   771.983765
    0.300030   697.959106
    0.320000   684.903564
    0.340020   584.736694
    0.350017   544.748779
    0.359971   533.215088
    0.379939   584.333191
    0.400000   634.893311
    0.419992   588.816956
    0.439947   534.250549
    0.450045   507.319122
    0.459982   560.113342
    0.480077   616.903503
    0.500000   576.104858
    0.550055   650.650818
    0.599880   845.963013
    0.650195   812.973633
    0.667111   757.543030
    0.699790   639.629822
    0.750188   444.909668
    0.800000   365.712128
    0.850340   359.940948
    0.900090   367.406982
    0.949668   370.256805
    1.000000   371.333099
    1.100110   384.535767
    1.200480   406.228363
    1.300390   418.542145
    1.400560   411.532166
    1.499250   413.283997
    1.600000   412.154999
    1.700680   398.026337
    1.798561   378.381287
    1.901141   361.842926
    2.000000   338.052673
    2.197802   285.421112
    2.398082   257.725647
    2.500000   237.634293
    2.597403   214.953720
    2.801121   176.194504
    3.003003   150.144485
    3.205128   128.968964
    3.401361   110.831970
    3.496503   102.316452
    3.597122    94.154099
    3.802281    81.960159
    4.000000    75.734329
    4.201681    69.760597
    4.405286    64.149254
    4.608295    58.924408
    4.807692    54.049839
    5.000000    49.491745
    5.494505    39.635223
    5.988024    32.032665
    6.493506    26.165228
    6.993007    21.570427
    7.518797    18.019911
    8.000000    15.314764
    8.474576    13.236177
    9.009009    11.596301
    9.523809    10.259975
   10.000000     9.140078
