EVENT_NAME: EMILIA_2ND_SHOCK
EVENT_ID: IT-2012-0011
EVENT_DATE_YYYYMMDD: 20120529
EVENT_TIME_HHMMSS: 070002
EVENT_LATITUDE_DEGREE: 44.8417
EVENT_LONGITUDE_DEGREE: 11.0657
EVENT_DEPTH_KM: 8.1
HYPOCENTER_REFERENCE: INGV-CNT_Seismic_Bulletin
MAGNITUDE_W: 6.0
MAGNITUDE_W_REFERENCE: RCMT-INGV
MAGNITUDE_L: 5.8
MAGNITUDE_L_REFERENCE: INGV-CNT_Seismic_Bulletin
FOCAL_MECHANISM: TF
NETWORK: IT
STATION_CODE: MRN
STATION_NAME: MIRANDOLA (NAPOLI)
STATION_LATITUDE_DEGREE: 44.878231
STATION_LONGITUDE_DEGREE: 11.061743
STATION_ELEVATION_M: 15
LOCATION: 
SENSOR_DEPTH_M: 0.0
VS30_M/S: 208
SITE_CLASSIFICATION_EC8: C
MORPHOLOGIC_CLASSIFICATION: 
EPICENTRAL_DISTANCE_KM: 4.1
EARTHQUAKE_BACKAZIMUTH_DEGREE: 175.6
DATE_TIME_FIRST_SAMPLE_YYYYMMDD_HHMMSS: 20120529_065948.000
DATE_TIME_FIRST_SAMPLE_PRECISION: seconds
SAMPLING_INTERVAL_S: 0.005000
NDATA: 13713
DURATION_S: 68.565
STREAM: HNZ
UNITS: cm/s
INSTRUMENT: sensor = MS2007+ [Syscom] | digitizer = 130-01/3 [Reftek]
INSTRUMENT_ANALOG/DIGITAL: D
INSTRUMENTAL_FREQUENCY_HZ: 
INSTRUMENTAL_DAMPING: 
FULL_SCALE_G: 
N_BIT_DIGITAL_CONVERTER: 24
PGV_CM/S: 26.774378
TIME_PGV_S: 18.915000
BASELINE_CORRECTION: BASELINE REMOVED
FILTER_TYPE: BUTTERWORTH
FILTER_ORDER: 2
LOW_CUT_FREQUENCY_HZ: 0.070
HIGH_CUT_FREQUENCY_HZ: 40.000
LATE/NORMAL_TRIGGERED: NT
DATABASE_VERSION: DYNA 1.0
HEADER_FORMAT: DYNA 1.2
DATA_TYPE: VELOCITY
PROCESSING: manual (Paolucci et al., 2011)
DATA_TIMESTAMP_YYYYMMDD_HHMMSS: 20141204_104205.354
DATA_LICENSE: CC-BY3_0-IT (http://creativecommons.org/licenses/by/3.0/deed.en)
DATA_CITATION: ESM working group (2015), European Strong-Motion database, version 0.1, Network Activity 3: Networking acceleration networks and SM data users. Project NERA (www.nera-eu.org)
DATA_CREATOR: ESM working group
ORIGINAL_DATA_MEDIATOR_CITATION: Ufficio Rischio Sismico e Vulcanico del Dipartimento della Protezione Civile (http://www.protezionecivile.gov.it/)
ORIGINAL_DATA_MEDIATOR: Rete Accelerometrica Nazionale - RAN Download (http://www.mot1.it/randownload/)
ORIGINAL_DATA_CREATOR_CITATION: Italian Strong Motion Network, Italian Civil Protection Department http://www.protezionecivile.gov.it
ORIGINAL_DATA_CREATOR: network: IT (Italian Strong Motion Network); owner: Dipartimento Della Protezione Civile
USER1: /home/dyna/processing-itaca/processing.py /var/www/processing/tmp/fpacor//IT.MRN..HNE.D.20120529.070003.X.ACC.ASC /var/www/processing/tmp/fpacor//IT.MRN..HNN.D.20120529.070003.X.ACC.ASC /var/www/processing/tmp/fpacor//IT.MRN..HNZ.D.20120529.070003.X.ACC.ASC --tmp /var/www/processing/tmp/fpacor/ --le 0.070 --he 40.000 --ln 0.070 --hn 40.000 --lz 0.070 --hz 40.000 --fo 2 --ca -15 --cz 100 --ta 5 --tz 5 --mf 1 --rf 0 --tr NT
USER2: 
USER3: 
USER4: 
USER5: 
[...]
-0.264496
-0.266037
-0.267582
-0.269131
-0.270683
-0.272238
-0.273798
-0.275361
-0.276928
-0.278498
-0.280072
-0.281650
-0.283232
-0.284817
-0.286406
-0.287999
-0.289595
-0.291195
-0.292799
-0.294407
-0.296018
-0.297633
-0.299252
-0.300874
-0.302500
-0.304130
-0.305764
-0.307401
-0.309043
-0.310688
-0.312336
-0.313989
-0.315645
-0.317305
-0.318969
-0.320637
-0.322308
-0.323983
-0.325662
-0.327345
-0.329032
-0.330722
-0.332416
-0.334114
-0.335816
-0.337521
-0.339231
-0.340944
-0.342661
-0.344382
-0.346107
-0.347835
-0.349568
-0.351304
-0.353044
-0.354788
-0.356536
-0.358287
-0.360043
-0.361802
-0.363566
-0.365333
-0.367104
-0.368878
-0.370657
-0.372440
-0.374226
-0.376017
-0.377811
-0.379609
-0.381411
-0.383217
-0.385027
-0.386841
-0.388658
-0.390480
-0.392306
-0.394135
-0.395968
-0.397806
-0.399647
-0.401492
-0.403341
-0.405194
-0.407051
-0.408912
-0.410777
-0.412646
-0.414518
-0.416395
-0.418276
-0.420160
-0.422049
-0.423942
-0.425838
-0.427739
-0.429643
-0.431552
-0.433464
-0.435380
-0.437301
-0.439225
-0.441154
-0.443086
-0.445023
-0.446963
-0.448907
-0.450856
-0.452808
-0.454765
-0.456725
-0.458690
-0.460658
-0.462631
-0.464608
-0.466588
-0.468573
-0.470561
-0.472554
-0.474551
-0.476552
-0.478557
-0.480566
-0.482579
-0.484596
-0.486617
-0.488642
-0.490671
-0.492704
-0.494742
-0.496783
-0.498829
-0.500878
-0.502932
-0.504990
-0.507052
-0.509117
-0.511187
-0.513262
-0.515340
-0.517422
-0.519508
-0.521599
-0.523694
-0.525792
-0.527895
-0.530002
-0.532113
-0.534228
-0.536348
-0.538471
-0.540598
-0.542730
-0.544866
-0.547006
-0.549150
-0.551298
-0.553450
-0.555607
-0.557768
-0.559932
-0.562101
-0.564274
-0.566451
-0.568633
-0.570818
-0.573008
-0.575202
-0.577400
-0.579602
-0.581808
-0.584019
-0.586233
-0.588452
-0.590675
-0.592903
-0.595134
-0.597369
-0.599609
-0.601853
-0.604101
-0.606353
-0.608610
-0.610871
-0.613136
-0.615405
-0.617678
-0.619955
-0.622237
-0.624523
-0.626813
-0.629107
-0.631406
-0.633708
-0.636015
-0.638326
-0.640642
-0.642961
-0.645285
-0.647613
-0.649945
-0.652282
-0.654623
-0.656967
-0.659317
-0.661670
-0.664028
-0.666389
-0.668756
-0.671126
-0.673500
-0.675879
-0.678262
-0.680649
-0.683041
-0.685437
-0.687837
-0.690241
-0.692650
-0.695062
-0.697479
-0.699901
-0.702326
-0.704756
-0.707190
-0.709628
-0.712071
-0.714518
-0.716969
-0.719424
-0.721884
-0.724348
-0.726816
-0.729288
-0.731765
-0.734246
-0.736731
-0.739221
-0.741715
-0.744213
-0.746715
-0.749222
-0.751732
-0.754248
-0.756767
-0.759291
-0.761819
-0.764351
-0.766888
-0.769429
-0.771974
-0.774523
-0.777077
-0.779635
-0.782197
-0.784764
-0.787335
-0.789910
-0.792490
-0.795073
-0.797662
-0.800254
-0.802851
-0.805452
-0.808057
-0.810666
-0.813280
-0.815898
-0.818521
-0.821148
-0.823779
-0.826414
-0.829054
-0.831698
-0.834346
-0.836998
-0.839655
-0.842316
-0.844982
-0.847652
-0.850326
-0.853004
-0.855687
-0.858374
-0.861065
-0.863760
-0.866460
-0.869165
-0.871873
-0.874586
-0.877303
-0.880024
-0.882750
-0.885480
-0.888214
-0.890953
-0.893696
-0.896443
-0.899195
-0.901951
-0.904711
-0.907475
-0.910244
-0.913017
-0.915794
-0.918576
-0.921362
-0.924152
-0.926947
-0.929746
-0.932549
-0.935356
-0.938168
-0.940984
-0.943805
-0.946629
-0.949458
-0.952292
-0.955129
-0.957971
-0.960817
-0.963668
-0.966522
-0.969382
-0.972245
-0.975113
-0.977984
-0.980861
-0.983741
-0.986626
-0.989515
-0.992409
-0.995306
-0.998208
-1.001114
-1.004025
-1.006940
-1.009859
-1.012782
-1.015710
-1.018642
-1.021578
-1.024519
-1.027464
-1.030413
-1.033366
-1.036324
-1.039286
-1.042252
-1.045222
-1.048197
-1.051176
-1.054159
-1.057147
-1.060138
-1.063134
-1.066135
-1.069139
-1.072148
-1.075161
-1.078179
-1.081200
-1.084226
-1.087256
-1.090290
-1.093329
-1.096372
-1.099419
-1.102470
-1.105526
-1.108586
-1.111650
-1.114718
-1.117790
-1.120867
-1.123948
-1.127033
-1.130123
-1.133216
-1.136314
-1.139416
-1.142523
-1.145633
-1.148748
-1.151867
-1.154990
-1.158117
-1.161249
-1.164385
-1.167525
-1.170669
-1.173817
-1.176970
-1.180126
-1.183287
-1.186453
-1.189622
-1.192795
-1.195973
-1.199155
-1.202341
-1.205531
-1.208725
-1.211924
-1.215127
-1.218333
-1.221544
-1.224760
-1.227979
-1.231202
-1.234430
-1.237662
-1.240898
-1.244138
-1.247382
-1.250630
-1.253882
-1.257139
-1.260400
-1.263664
-1.266933
-1.270206
-1.273483
-1.276765
-1.280050
-1.283339
-1.286633
-1.289930
-1.293232
-1.296538
-1.299848
-1.303163
-1.306483
-1.309800
-1.313107
-1.316427
-1.319842
-1.323385
-1.326701
-1.328956
-1.329607
-1.329128
-1.328458
-1.328004
-1.327578
-1.327022
-1.326469
-1.326032
-1.325596
-1.325097
-1.324674
-1.324386
-1.324068
-1.323633
-1.323239
-1.322995
-1.322762
-1.322426
-1.322093
-1.321823
-1.321479
-1.320994
-1.320527
-1.320179
-1.319828
-1.319403
-1.319054
-1.318860
-1.318655
-1.318325
-1.317985
-1.317716
-1.317390
-1.316930
-1.316473
-1.316112
-1.315723
-1.315212
-1.314713
-1.314330
-1.313960
-1.313528
-1.313163
-1.312951
-1.312753
-1.312462
-1.312191
-1.312012
-1.311791
-1.311447
-1.311123
-1.310912
-1.310676
-1.310310
-1.309941
-1.309668
-1.309377
-1.309011
-1.308730
-1.308618
-1.308512
-1.308306
-1.308130
-1.308061
-1.307948
-1.307693
-1.307434
-1.307270
-1.307077
-1.306775
-1.306507
-1.306358
-1.306194
-1.305935
-1.305730
-1.305670
-1.305597
-1.305390
-1.305176
-1.305050
-1.304880
-1.304570
-1.304262
-1.304074
-1.303902
-1.303676
-1.303532
-1.303547
-1.303572
-1.303510
-1.303469
-1.303509
-1.303494
-1.303357
-1.303246
-1.303238
-1.303193
-1.303031
-1.302898
-1.302872
-1.302805
-1.302620
-1.302474
-1.302453
-1.302409
-1.302253
-1.302121
-1.302093
-1.302030
-1.301854
-1.301723
-1.301736
-1.301746
-1.301641
-1.301548
-1.301567
-1.301574
-1.301479
-1.301417
-1.301476
-1.301510
-1.301418
-1.301340
-1.301380
-1.301413
-1.301354
-1.301340
-1.301448
-1.301531
-1.301502
-1.301501
-1.301614
-1.301700
-1.301680
-1.301691
-1.301809
-1.301895
-1.301876
-1.301897
-1.302041
-1.302174
-1.302196
-1.302218
-1.302314
-1.302365
-1.302294
-1.302235
-1.302282
-1.302319
-1.302264
-1.302240
-1.302342
-1.302466
-1.302547
-1.302691
-1.302937
-1.303124
-1.303164
-1.303193
-1.303294
-1.303344
-1.303282
-1.303254
-1.303343
-1.303422
-1.303431
-1.303528
-1.303786
-1.304043
-1.304198
-1.304366
-1.304619
-1.304830
-1.304922
-1.305025
-1.305219
-1.305389
-1.305464
-1.305581
-1.305831
-1.306080
-1.306218
-1.306355
-1.306578
-1.306781
-1.306906
-1.307091
-1.307408
-1.307705
-1.307882
-1.308052
-1.308302
-1.308526
-1.308665
-1.308847
-1.309134
-1.309383
-1.309512
-1.309660
-1.309916
-1.310163
-1.310330
-1.310557
-1.310921
-1.311274
-1.311532
-1.311822
-1.312205
-1.312523
-1.312689
-1.312857
-1.313133
-1.313395
-1.313545
-1.313703
-1.313943
-1.314136
-1.314221
-1.314354
-1.314634
-1.314930
-1.315144
-1.315399
-1.315788
-1.316181
-1.316480
-1.316793
-1.317191
-1.317551
-1.317801
-1.318075
-1.318447
-1.318786
-1.319008
-1.319248
-1.319591
-1.319909
-1.320126
-1.320371
-1.320726
-1.321068
-1.321319
-1.321610
-1.322024
-1.322419
-1.322700
-1.322995
-1.323375
-1.323695
-1.323884
-1.324091
-1.324404
-1.324695
-1.324894
-1.325151
-1.325556
-1.325969
-1.326290
-1.326636
-1.327084
-1.327500
-1.327805
-1.328135
-1.328578
-1.329007
-1.329339
-1.329704
-1.330190
-1.330670
-1.331060
-1.331476
-1.331991
-1.332473
-1.332840
-1.333220
-1.333696
-1.334148
-1.334510
-1.334927
-1.335477
-1.336014
-1.336443
-1.336876
-1.337384
-1.337838
-1.338162
-1.338490
-1.338902
-1.339279
-1.339555
-1.339872
-1.340307
-1.340725
-1.341045
-1.341397
-1.341858
-1.342290
-1.342614
-1.342963
-1.343426
-1.343876
-1.344232
-1.344631
-1.345164
-1.345700
-1.346145
-1.346620
-1.347197
-1.347733
-1.348134
-1.348537
-1.349038
-1.349509
-1.349866
-1.350244
-1.350737
-1.351211
-1.351575
-1.351956
-1.352435
-1.352891
-1.353255
-1.353668
-1.354205
-1.354719
-1.355117
-1.355530
-1.356050
-1.356555
-1.356972
-1.357446
-1.358056
-1.358656
-1.359149
-1.359653
-1.360229
-1.360739
-1.361115
-1.361510
-1.362009
-1.362477
-1.362845
-1.363266
-1.363828
-1.364378
-1.364811
-1.365256
-1.365804
-1.366330
-1.366752
-1.367203
-1.367770
-1.368323
-1.368778
-1.369264
-1.369850
-1.370395
-1.370810
-1.371223
-1.371720
-1.372191
-1.372579
-1.373011
-1.373548
-1.374063
-1.374494
-1.374976
-1.375588
-1.376198
-1.376715
-1.377243
-1.377849
-1.378408
-1.378854
-1.379330
-1.379922
-1.380495
-1.380961
-1.381445
-1.382015
-1.382539
-1.382943
-1.383368
-1.383906
-1.384439
-1.384889
-1.385387
-1.386023
-1.386651
-1.387126
-1.387404
-1.387123
-1.385187
-1.379761
-1.368369
-1.348304
-1.318011
-1.278073
-1.229639
-1.172660
-1.108077
-1.040532
-0.975194
-0.912541
-0.850160
-0.789113
-0.733600
-0.683323
-0.629855
-0.561279
-0.467806
-0.343674
-0.190006
-0.023766
0.115827
0.183432
0.164729
0.093831
0.023908
-0.011174
0.000089
0.054854
0.121616
0.139223
0.062726
-0.092284
-0.265447
-0.409236
-0.522261
-0.623659
-0.702423
-0.707626
-0.603838
-0.436905
-0.327183
-0.385195
-0.633505
-0.991743
-1.317874
-1.497752
-1.536561
-1.544592
-1.615227
-1.749208
-1.902594
-2.051665
-2.179782
-2.242173
-2.197626
-2.069017
-1.923267
-1.785142
-1.617194
-1.396218
-1.167923
-1.004927
-0.931570
-0.908837
-0.887570
-0.860883
-0.860661
-0.916901
-1.028515
-1.158054
-1.243087
-1.228311
-1.103994
-0.907805
-0.685885
-0.475781
-0.330861
-0.306056
-0.384991
-0.468749
-0.474341
-0.406629
-0.313178
-0.217667
-0.128264
-0.083264
-0.152202
-0.373345
-0.693454
-0.992659
-1.184216
-1.281717
-1.360064
-1.462655
-1.557870
-1.571056
-1.439731
-1.156391
-0.797557
-0.502964
-0.378335
-0.412880
-0.522935
-0.665122
-0.855062
-1.074296
-1.233650
-1.264015
-1.189159
-1.082280
-0.989947
-0.909725
-0.816375
-0.699183
-0.576595
-0.478911
-0.415628
-0.360017
-0.286133
-0.226998
-0.265983
-0.457694
-0.772551
-1.116606
-1.391060
-1.542967
-1.589447
-1.608277
-1.689402
-1.865841
-2.066840
-2.142543
-1.977732
-1.614409
-1.246521
-1.070576
-1.145113
-1.394923
-1.717994
-2.042579
-2.279981
-2.303190
-2.054830
-1.657820
-1.358376
-1.343478
-1.599313
-1.920865
-2.076102
-1.990613
-1.773463
-1.576285
-1.445573
-1.300331
-1.043131
-0.681901
-0.328776
-0.115078
-0.119363
-0.294074
-0.445218
-0.394358
-0.181868
-0.010019
0.016454
-0.008413
0.059862
0.281983
0.654773
1.140099
1.616299
1.882955
1.818185
1.547630
1.370794
1.449809
1.640089
1.701003
1.574450
1.337647
0.962660
0.302260
-0.650451
-1.604729
-2.158991
-2.137800
-1.713611
-1.194459
-0.749479
-0.391247
-0.154316
-0.172731
-0.555097
-1.218909
-1.881878
-2.244980
-2.201628
-1.875477
-1.477225
-1.162977
-1.017868
-1.086169
-1.355229
-1.737564
-2.112392
-2.385148
-2.493144
-2.384928
-2.043055
-1.514744
-0.889216
-0.270801
0.205367
0.381346
0.159762
-0.405085
-1.095363
-1.614365
-1.742043
-1.474187
-1.013592
-0.617224
-0.454763
-0.555454
-0.813677
-1.057491
-1.159357
-1.089745
-0.890060
-0.637187
-0.410892
-0.245037
-0.111204
0.043205
0.248198
0.475821
0.621173
0.535881
0.128108
-0.523450
-1.145898
-1.427209
-1.272555
-0.891799
-0.585037
-0.473023
-0.464364
-0.428247
-0.338004
-0.237288
-0.134922
-0.020884
0.074352
0.152676
0.332193
0.764637
1.466044
2.212678
2.609561
2.370601
1.592172
0.701681
0.111452
-0.069008
-0.012971
0.080386
0.194589
0.442276
0.860557
1.346637
1.767189
2.008196
1.937951
1.481438
0.743391
-0.058927
-0.757490
-1.232018
-1.327438
-0.933261
-0.162787
0.634291
1.089989
1.063942
0.701543
0.282590
0.023422
0.009267
0.250110
0.692696
1.157251
1.371922
1.146517
0.496381
-0.385215
-1.201059
-1.613093
-1.381569
-0.545189
0.582015
1.617548
2.249895
2.251685
1.586002
0.570416
-0.200173
-0.231236
0.510857
1.597853
2.479791
2.874161
2.949123
3.119758
3.526618
3.756179
3.272284
2.116264
0.972037
0.502842
0.813922
1.578729
2.375964
2.786889
2.526236
1.711379
0.825496
0.350451
0.508316
1.195491
2.030233
2.605708
2.787798
2.739700
2.720205
2.894097
3.283766
3.898007
4.870338
6.346990
8.201427
9.955737
11.066274
11.266455
10.664713
9.720768
9.166238
9.612693
11.030667
12.738912
13.926220
14.123949
13.318622
11.755379
9.668242
7.223142
4.623650
2.139413
0.076313
-1.202557
-1.308549
-0.074315
2.130822
4.449931
6.030416
6.476219
5.911983
4.801816
3.752193
3.284361
3.535776
4.178924
4.785425
5.180842
5.319387
5.104536
4.594328
4.120552
3.955520
4.012293
4.033823
4.026781
4.399777
5.637546
7.913773
11.075621
14.871352
18.989519
22.867659
25.691273
26.774378
25.925585
23.434191
19.814131
15.635936
11.603941
8.682331
7.814412
9.221559
12.070837
15.066581
17.346895
18.719341
19.232672
18.868124
17.695576
16.100458
14.698156
13.920885
13.611735
13.185867
12.328329
11.340134
10.766153
10.918411
11.710495
12.760418
13.605795
13.858174
13.336848
12.225772
11.065000
10.479548
10.868710
12.283041
14.356182
16.226528
16.860859
15.803466
13.495841
10.793737
8.359190
6.381440
4.590856
2.631928
0.614722
-0.704246
-0.355929
2.094530
6.075697
10.278489
13.460408
15.052553
15.193132
14.437955
13.441476
12.614124
11.891511
10.924849
9.472016
7.470616
4.931904
2.108900
-0.271094
-1.292971
-0.570790
1.366126
3.428802
4.722768
5.048609
4.717405
3.976930
2.827333
1.372027
0.041857
-0.648016
-0.404411
0.794937
2.784807
5.283455
7.880605
9.994686
11.054965
10.844759
9.540906
7.422887
4.770487
2.141040
0.539837
0.899287
3.143170
5.969801
7.751953
7.626152
5.848705
3.334479
0.959342
-0.755742
-1.544057
-1.238173
0.188865
2.465687
5.046027
7.352249
8.933830
9.478264
8.915379
7.601242
6.230170
5.346307
4.994997
5.048932
5.727440
7.431975
10.052599
12.729141
14.420231
14.614827
13.502831
11.685052
9.864832
8.594281
8.025913
7.926981
8.000803
8.046145
7.785658
6.837297
4.989449
2.388354
-0.492879
-2.997846
-4.546418
-4.904215
-4.264846
-3.088018
-1.824748
-0.734505
0.150663
0.992721
2.068861
3.624514
5.689449
7.955579
9.837562
10.780608
10.639277
9.772418
8.747194
7.909141
7.229545
6.646765
6.451883
7.044938
8.310491
9.551537
10.163493
10.192950
10.123183
10.239122
10.375543
10.279010
10.012158
9.856092
9.906511
9.920629
9.588487
8.898809
8.154857
7.570061
6.966678
6.025500
4.705688
3.290535
2.157427
1.561439
1.557342
2.079631
2.974512
3.914239
4.489644
4.475224
3.884088
2.816122
1.438925
0.111899
-0.681809
-0.748098
-0.498807
-0.598195
-1.282273
-2.243029
-3.077102
-3.578583
-3.667617
-3.276386
-2.349612
-0.894216
0.966976
2.988891
4.878633
6.368495
7.263704
7.552109
7.472212
7.321788
7.180436
6.944051
6.577760
6.169827
5.789208
5.437654
5.115440
4.840617
4.622861
4.490166
4.512773
4.696160
4.862157
4.746244
4.198432
3.209688
1.842359
0.326750
-0.799901
-0.885318
0.361544
2.585329
4.971842
6.726505
7.423665
6.993912
5.538939
3.248981
0.422380
-2.521437
-5.052623
-6.592998
-6.720760
-5.510157
-3.674303
-2.140078
-1.389894
-1.275063
-1.342341
-1.215353
-0.719205
0.213662
1.538810
2.951825
3.957572
4.201214
3.689255
2.742523
1.777391
1.021237
0.373415
-0.448401
-1.626513
-3.060772
-4.414433
-5.322847
-5.584438
-5.250027
-4.576991
-3.839003
-3.157224
-2.509344
-1.837848
-1.146208
-0.521645
-0.051713
0.229919
0.273843
-0.018474
-0.682024
-1.565431
-2.361564
-2.789949
-2.789903
-2.557051
-2.346569
-2.186653
-1.817808
-0.958413
0.401486
1.955526
3.249689
3.926377
3.918495
3.444535
2.790302
2.093324
1.327985
0.433820
-0.573890
-1.557642
-2.279555
-2.528796
-2.306151
-1.883684
-1.617639
-1.667885
-1.929479
-2.246061
-2.606804
-3.042245
-3.380079
-3.260628
-2.452704
-1.111745
0.278720
1.204384
1.389475
0.837451
-0.299263
-1.811512
-3.403781
-4.663250
-5.178746
-4.757265
-3.550451
-2.026480
-0.798540
-0.328069
-0.685823
-1.571811
-2.525125
-3.137098
-3.189919
-2.706195
-1.901047
-1.047794
-0.323628
0.249162
0.733030
1.163713
1.481582
1.563583
1.371018
1.068887
0.917401
1.015921
1.247607
1.496495
1.770391
2.052651
2.178291
1.974001
1.484407
0.988571
0.779685
0.927954
1.233936
1.383969
1.154457
0.539680
-0.222191
-0.736036
-0.638329
0.211509
1.646127
3.237503
4.464511
4.947940
4.614197
3.666524
2.384602
0.937717
-0.599163
-2.085432
-3.240408
-3.742010
-3.403070
-2.310592
-0.835378
0.530992
1.390594
1.537552
0.971022
-0.084625
-1.219412
-2.002557
-2.176883
-1.744885
-0.900016
0.101974
1.009404
1.611585
1.791619
1.516343
0.792655
-0.286563
-1.483804
-2.497361
-3.107476
-3.221314
-2.828677
-1.995467
-0.917143
0.076178
0.648194
0.643384
0.172246
-0.454662
-0.893173
-0.960874
-0.745357
-0.529566
-0.571049
-0.916744
-1.420750
-1.921354
-2.378526
-2.843206
-3.313201
-3.642508
-3.622354
-3.169443
-2.413402
-1.580028
-0.824764
-0.228525
0.094062
0.004588
-0.512804
-1.282585
-2.049418
-2.643239
-3.031276
-3.235412
-3.253664
-3.118896
-2.996648
-3.093194
-3.426013
-3.777516
-3.896309
-3.665303
-3.105702
-2.348006
-1.608154
-1.091602
-0.885838
-0.956360
-1.199515
-1.477271
-1.666857
-1.721412
-1.678277
-1.610319
-1.550442
-1.436949
-1.178115
-0.814077
-0.544477
-0.549199
-0.860903
-1.419755
-2.110398
-2.703037
-2.916548
-2.664738
-2.191987
-1.889302
-1.980775
-2.387221
-2.840539
-3.114459
-3.188632
-3.216076
-3.334260
-3.518481
-3.620202
-3.542158
-3.370416
-3.308428
-3.460930
-3.702258
-3.782561
-3.569168
-3.189376
-2.936203
-3.011174
-3.344929
-3.677398
-3.809066
-3.760561
-3.702433
-3.778010
-4.028590
-4.440009
-4.960948
-5.467403
-5.786096
-5.774287
-5.371634
-4.636444
-3.772186
-3.064317
-2.746197
-2.916609
-3.522745
-4.361937
-5.153022
-5.708926
-6.068884
-6.422836
-6.897218
-7.451285
-7.975028
-8.420755
-8.806875
-9.137846
-9.370381
-9.442132
-9.294586
-8.890990
-8.274511
-7.627472
-7.226606
-7.278637
-7.767833
-8.446072
-8.976635
-9.143505
-8.967127
-8.624655
-8.283321
-8.032015
-7.920619
-7.967886
-8.103012
-8.173780
-8.068593
-7.805336
-7.477107
-7.136221
-6.765409
-6.349736
