EVENT_NAME: EMILIA_2ND_SHOCK
EVENT_ID: IT-2012-0011
EVENT_DATE_YYYYMMDD: 20120529
EVENT_TIME_HHMMSS: 070002
EVENT_LATITUDE_DEGREE: 44.8417
EVENT_LONGITUDE_DEGREE: 11.0657
EVENT_DEPTH_KM: 8.1
HYPOCENTER_REFERENCE: INGV-CNT_Seismic_Bulletin
MAGNITUDE_W: 6.0
MAGNITUDE_W_REFERENCE: RCMT-INGV
MAGNITUDE_L: 5.8
MAGNITUDE_L_REFERENCE: INGV-CNT_Seismic_Bulletin
FOCAL_MECHANISM: TF
NETWORK: IT
STATION_CODE: MDN
STATION_NAME: MODENA
STATION_LATITUDE_DEGREE: 44.646988
STATION_LONGITUDE_DEGREE: 10.889912
STATION_ELEVATION_M: 77
LOCATION: 
SENSOR_DEPTH_M: 0.0
VS30_M/S: 213
SITE_CLASSIFICATION_EC8: C
MORPHOLOGIC_CLASSIFICATION: 
EPICENTRAL_DISTANCE_KM: 25.7
EARTHQUAKE_BACKAZIMUTH_DEGREE: 32.7
DATE_TIME_FIRST_SAMPLE_YYYYMMDD_HHMMSS: 20120529_065953.000
DATE_TIME_FIRST_SAMPLE_PRECISION: seconds
SAMPLING_INTERVAL_S: 0.005000
NDATA: 26000
DURATION_S: 130.000
STREAM: HNE
UNITS: cm/s^2
INSTRUMENT: sensor = FBA-3 [Kinemetrics] | digitizer = Etna [Kinemetrics]
INSTRUMENT_ANALOG/DIGITAL: D
INSTRUMENTAL_FREQUENCY_HZ: 210.000
INSTRUMENTAL_DAMPING: 0.700000
FULL_SCALE_G: 1.0
N_BIT_DIGITAL_CONVERTER: 18
PGA_CM/S^2: -29.595938
TIME_PGA_S: 26.170000
BASELINE_CORRECTION: BASELINE REMOVED
FILTER_TYPE: BUTTERWORTH
FILTER_ORDER: 2
LOW_CUT_FREQUENCY_HZ: 0.050
HIGH_CUT_FREQUENCY_HZ: 35.000
LATE/NORMAL_TRIGGERED: NT
DATABASE_VERSION: DYNA 1.0
HEADER_FORMAT: DYNA 1.2
DATA_TYPE: ACCELERATION
PROCESSING: manual (Paolucci et al., 2011)
DATA_TIMESTAMP_YYYYMMDD_HHMMSS: 20141204_103511.587
DATA_LICENSE: CC-BY3_0-IT (http://creativecommons.org/licenses/by/3.0/deed.en)
DATA_CITATION: ESM working group (2015), European Strong-Motion database, version 0.1, Network Activity 3: Networking acceleration networks and SM data users. Project NERA (www.nera-eu.org)
DATA_CREATOR: ESM working group
ORIGINAL_DATA_MEDIATOR_CITATION: Ufficio Rischio Sismico e Vulcanico del Dipartimento della Protezione Civile (http://www.protezionecivile.gov.it/)
ORIGINAL_DATA_MEDIATOR: Rete Accelerometrica Nazionale - RAN Download (http://www.mot1.it/randownload/)
ORIGINAL_DATA_CREATOR_CITATION: Italian Strong Motion Network, Italian Civil Protection Department http://www.protezionecivile.gov.it
ORIGINAL_DATA_CREATOR: network: IT (Italian Strong Motion Network); owner: Dipartimento Della Protezione Civile
USER1: /home/dyna/processing-itaca/processing.py /var/www/processing/tmp/fpacor//IT.MDN..HNE.D.20120529.070003.X.ACC.ASC /var/www/processing/tmp/fpacor//IT.MDN..HNN.D.20120529.070003.X.ACC.ASC /var/www/processing/tmp/fpacor//IT.MDN..HNZ.D.20120529.070003.X.ACC.ASC --tmp /var/www/processing/tmp/fpacor/ --le 0.05 --he 35.000 --ln 0.05 --hn 35.000 --lz 0.05 --hz 35.000 --fo 2 --ca -10 --cz 30 --ta 5 --tz 5 --mf 1 --rf 0 --tr NT
USER2: 
USER3: 
USER4: 
USER5: 
[...]
1.129258
0.762223
0.789338
1.388728
2.451205
3.638283
4.554598
4.915154
4.629564
3.798362
2.652421
1.467874
0.477751
-0.205507
-0.623402
-0.921430
-1.239932
-1.635707
-2.090579
-2.565586
-3.022789
-3.396473
-3.569606
-3.413897
-2.876771
-2.036834
-1.078091
-0.205905
0.434503
0.790702
0.882646
0.761536
0.488127
0.135509
-0.218473
-0.514931
-0.714200
-0.769178
-0.615207
-0.199020
0.473573
1.310321
2.148391
2.809229
3.172352
3.230233
3.082084
2.858994
2.631448
2.374517
2.011043
1.483520
0.800567
0.034951
-0.723096
-1.425600
-2.092634
-2.780574
-3.514435
-4.229127
-4.758851
-4.893953
-4.485281
-3.533150
-2.200573
-0.751339
0.533725
1.424664
1.795426
1.662873
1.192240
0.645734
0.279905
0.238318
0.492514
0.854296
1.053841
0.860541
0.199833
-0.791491
-1.802176
-2.465728
-2.511236
-1.869200
-0.688371
0.722619
2.002036
2.866839
3.221515
3.180606
2.980283
2.832613
2.820219
2.886586
2.899235
2.726776
2.289502
1.579122
0.660090
-0.337061
-1.233704
-1.851542
-2.094000
-2.014748
-1.811654
-1.735341
-1.963206
-2.505916
-3.192174
-3.738772
-3.871658
-3.446171
-2.520094
-1.342108
-0.248123
0.485681
0.755248
0.655432
0.416818
0.284011
0.393525
0.716217
1.095189
1.349904
1.375597
1.181602
0.871885
0.604216
0.536831
0.752892
1.196324
1.687719
2.031147
2.124705
1.981090
1.665435
1.234801
0.729281
0.189641
-0.344259
-0.857715
-1.361214
-1.839969
-2.201715
-2.290168
-1.966419
-1.190641
-0.041760
1.316501
2.672418
3.785650
4.415110
4.379108
3.631747
2.311248
0.717886
-0.783628
-1.881357
-2.387967
-2.263236
-1.612229
-0.657538
0.324266
1.085520
1.477825
1.489493
1.234868
0.890883
0.615455
0.502201
0.590106
0.888912
1.372779
1.952323
2.478434
2.797769
2.813864
2.504658
1.906754
1.102317
0.212335
-0.619600
-1.254231
-1.589343
-1.597332
-1.357073
-1.050556
-0.890688
-0.993090
-1.276313
-1.475392
-1.269760
-0.452859
0.947148
2.661156
4.284083
5.416403
5.768917
5.219191
3.847566
1.960340
0.056203
-1.322168
-1.822340
-1.459267
-0.609260
0.172133
0.395631
-0.180828
-1.502681
-3.275310
-5.056021
-6.350872
-6.740998
-6.039343
-4.400634
-2.291783
-0.314262
1.031457
1.526410
1.297882
0.757637
0.424192
0.683526
1.595029
2.839033
3.834102
3.987317
2.991007
1.028197
-1.254550
-3.029015
-3.664729
-2.987998
-1.305013
0.780500
2.629538
3.776362
4.023443
3.444417
2.335034
1.118202
0.193673
-0.225068
-0.190455
0.037313
0.139919
-0.115132
-0.796586
-1.800200
-2.897825
-3.830398
-4.409986
-4.588174
-4.467048
-4.258736
-4.201178
-4.437878
-4.916147
-5.385096
-5.517929
-5.092360
-4.116414
-2.824753
-1.560986
-0.623277
-0.148122
-0.065855
-0.133485
-0.047932
0.392770
1.169914
2.044748
2.679283
2.805436
2.355179
1.498983
0.575226
-0.063976
-0.200120
0.199188
1.017298
2.052090
3.069124
3.841330
4.178848
3.952356
3.118134
1.748012
0.039462
-1.730538
-3.299382
-4.498110
-5.268538
-5.628635
-5.618663
-5.260443
-4.565651
-3.594805
-2.508319
-1.542599
-0.908098
-0.671831
-0.700260
-0.713029
-0.440084
0.205797
1.064886
1.830394
2.243620
2.246550
1.999752
1.793105
1.931997
2.625536
3.883802
5.486655
7.071573
8.283560
8.885016
8.786830
8.028651
6.746857
5.152899
3.524682
2.186933
1.440729
1.445542
2.129496
3.197316
4.230165
4.832517
4.776127
4.071891
2.918060
1.560811
0.166143
-1.233118
-2.711291
-4.359900
-6.176972
-8.013271
-9.616441
-10.730519
-11.173030
-10.857015
-9.794201
-8.118205
-6.102143
-4.109693
-2.472062
-1.367222
-0.785511
-0.590090
-0.612576
-0.717072
-0.806720
-0.807979
-0.685962
-0.477644
-0.278295
-0.172438
-0.173634
-0.226122
-0.259065
-0.243044
-0.209385
-0.233217
-0.401987
-0.780834
-1.373404
-2.083271
-2.705325
-2.988856
-2.766505
-2.063359
-1.097991
-0.174458
0.458193
0.694097
0.575645
0.238196
-0.171312
-0.560001
-0.898954
-1.187031
-1.421931
-1.602534
-1.729361
-1.780578
-1.691684
-1.361586
-0.678393
0.437741
1.980008
3.814370
5.677390
7.220740
8.103047
8.107203
7.229302
5.696705
3.911940
2.336788
1.347446
1.118077
1.581749
2.479340
3.474338
4.278301
4.723198
4.769247
4.487087
4.030809
3.580775
3.263509
3.103360
3.041524
2.996070
2.912220
2.779088
2.614578
2.426969
2.181344
1.806438
1.233112
0.423424
-0.616376
-1.821403
-3.065924
-4.194273
-5.069597
-5.613955
-5.825649
-5.762752
-5.496570
-5.066776
-4.465581
-3.642945
-2.522754
-1.049584
0.729960
2.605223
4.225662
5.217397
5.322240
4.480924
2.849492
0.771984
-1.302525
-2.970124
-4.030455
-4.553712
-4.809604
-5.098599
-5.580683
-6.200600
-6.747332
-6.993081
-6.808413
-6.190931
-5.235404
-4.100504
-2.978533
-2.058884
-1.491682
-1.347748
-1.580456
-2.021250
-2.427432
-2.576352
-2.374688
-1.916534
-1.438103
-1.188517
-1.297365
-1.718696
-2.270094
-2.728073
-2.926377
-2.816994
-2.480425
-2.087723
-1.820059
-1.774363
-1.915410
-2.112030
-2.219879
-2.142949
-1.850698
-1.373650
-0.796590
-0.243753
0.152406
0.304166
0.235285
0.110436
0.169923
0.590185
1.371579
2.341409
3.266612
3.992095
4.519671
4.993652
5.604616
6.453546
7.452148
8.333571
8.774629
8.551320
7.641703
6.237448
4.669969
3.284703
2.321676
1.854596
1.791569
1.912843
1.940403
1.640369
0.925067
-0.099670
-1.165838
-1.934770
-2.119716
-1.611272
-0.563284
0.617543
1.403448
1.345112
0.246225
-1.749887
-4.195266
-6.488357
-8.067414
-8.566515
-7.906622
-6.308137
-4.209895
-2.111014
-0.392290
0.801038
1.559359
2.115956
2.728156
3.571347
4.669603
5.892835
7.016518
7.803716
8.083401
7.808151
7.053549
5.947264
4.589234
3.037487
1.360097
-0.312110
-1.789100
-2.884312
-3.496449
-3.656297
-3.504318
-3.212783
-2.894814
-2.543344
-2.040632
-1.243911
-0.092098
1.337791
2.856602
4.246892
5.345931
6.082153
6.457555
6.506413
6.273830
5.825463
5.264172
4.727104
4.353905
4.231039
4.337381
4.538736
4.643642
4.481531
3.974256
3.174403
2.238223
1.353689
0.674007
0.272700
0.121683
0.105283
0.079183
-0.043294
-0.238191
-0.406094
-0.461725
-0.388204
-0.223364
-0.018737
0.187965
0.378965
0.552366
0.722678
0.921616
1.173988
1.449971
1.642166
1.604664
1.231145
0.512654
-0.461747
-1.542760
-2.559965
-3.359008
-3.844826
-4.006540
-3.904437
-3.649432
-3.394397
-3.296353
-3.431531
-3.726528
-3.976345
-3.948669
-3.501388
-2.635183
-1.476313
-0.238214
0.820329
1.456668
1.519427
1.004055
0.060461
-1.059842
-2.101311
-2.891528
-3.370354
-3.569329
-3.572599
-3.473214
-3.335543
-3.180255
-2.998092
-2.782562
-2.560415
-2.405668
-2.441179
-2.817753
-3.652140
-4.957377
-6.618237
-8.410008
-10.045187
-11.255561
-11.886496
-11.946316
-11.581434
-10.996250
-10.359301
-9.729456
-9.026624
-8.075575
-6.718192
-4.920131
-2.798871
-0.573850
1.519455
3.308082
4.723118
5.807217
6.698902
7.597697
8.723491
10.260868
12.268846
14.601225
16.907887
18.725471
19.624039
19.355946
17.926510
15.554483
12.579798
9.375570
6.276034
3.525472
1.250275
-0.539618
-1.895246
-2.840052
-3.335768
-3.335414
-2.854359
-1.998159
-0.938444
0.145225
1.110104
1.850390
2.283710
2.365276
2.123686
1.673992
1.176634
0.765962
0.498480
0.343919
0.214109
0.006860
-0.364002
-0.950575
-1.741121
-2.634476
-3.466755
-4.090358
-4.445164
-4.567525
-4.539255
-4.437559
-4.333133
-4.308685
-4.448034
-4.790549
-5.288255
-5.807543
-6.182391
-6.285777
-6.080255
-5.625149
-5.029419
-4.373063
-3.656558
-2.811421
-1.757915
-0.477154
0.940942
2.297821
3.338057
3.840938
3.707959
2.993665
1.874367
0.578391
-0.704759
-1.893454
-3.005576
-4.085512
-5.135799
-6.092831
-6.850551
-7.317390
-7.462131
-7.325613
-7.012821
-6.667893
-6.438543
-6.442590
-6.722823
-7.200089
-7.681216
-7.937502
-7.796785
-7.202165
-6.236169
-5.102799
-4.044922
-3.217674
-2.589988
-1.934396
-0.925153
0.679954
2.864472
5.298443
7.443422
8.744511
8.807960
7.526553
5.145485
2.238161
-0.436829
-2.174297
-2.561257
-1.606156
0.288866
2.496585
4.402640
5.607086
6.029403
5.910314
5.704353
5.874221
6.656117
7.913094
9.172218
9.843511
9.506907
8.105134
5.945681
3.543616
1.410917
-0.115958
-0.963812
-1.313307
-1.502514
-1.876810
-2.640580
-3.774136
-5.061146
-6.212135
-7.005419
-7.374723
-7.417580
-7.325279
-7.273619
-7.339321
-7.479609
-7.561816
-7.412258
-6.883494
-5.939244
-4.713210
-3.490143
-2.599529
-2.273656
-2.544623
-3.205177
-3.836153
-3.936767
-3.136857
-1.363335
1.140707
3.936060
6.567463
8.711260
10.247922
11.270844
12.031993
12.811918
13.764038
14.833734
15.789505
16.325439
16.183084
15.233302
13.482625
11.034395
8.050416
4.727032
1.273028
-2.114308
-5.267333
-8.069797
-10.463274
-12.397101
-13.765221
-14.414088
-14.205552
-13.069652
-11.052610
-8.369476
-5.394810
-2.546707
-0.126609
1.777342
3.267287
4.529574
5.717642
6.866130
7.869595
8.544166
8.734460
8.396984
7.615159
6.545741
5.331996
4.039247
2.651384
1.123820
-0.546320
-2.289514
-3.993308
-5.555893
-6.922408
-8.085694
-9.061349
-9.861084
-10.477617
-10.888272
-11.075743
-11.051146
-10.865788
-10.595726
-10.285947
-9.885071
-9.242621
-8.199719
-6.709282
-4.888140
-2.973855
-1.235548
0.113036
0.980976
1.429500
1.618168
1.673645
1.609019
1.363439
0.860686
0.039205
-1.089676
-2.400218
-3.704751
-4.838411
-5.701328
-6.278511
-6.638166
-6.872644
-7.014938
-7.017764
-6.835021
-6.522679
-6.229230
-6.083259
-6.089457
-6.101867
-5.891197
-5.267330
-4.175655
-2.722924
-1.139079
0.304865
1.392576
2.033911
2.276132
2.243116
2.047348
1.750663
1.401358
1.088345
0.944374
1.101723
1.647563
2.598556
3.867491
5.236522
6.410865
7.140375
7.297410
6.880486
5.999362
4.842435
3.617395
2.507675
1.657733
1.156768
1.018989
1.180767
1.523561
1.935604
2.374618
2.860933
3.442827
4.207312
5.270185
6.679864
8.327948
9.960610
11.279531
12.088668
12.405443
12.441457
12.460564
12.626261
12.914391
13.098222
12.827395
11.771453
9.728551
6.680674
2.816858
-1.516435
-5.918773
-9.994170
-13.372567
-15.783604
-17.141819
-17.542894
-17.208954
-16.441301
-15.542030
-14.718522
-14.044429
-13.464912
-12.817180
-11.908459
-10.648556
-9.140167
-7.649426
-6.473142
-5.787126
-5.574162
-5.671894
-5.883322
-6.071248
-6.193194
-6.258074
-6.254684
-6.144005
-5.912533
-5.604877
-5.312429
-5.142217
-5.167437
-5.382783
-5.702699
-5.978885
-6.012226
-5.598622
-4.606566
-3.008171
-0.858867
1.709642
4.511056
7.364662
10.102596
12.527883
14.431653
15.646847
16.080828
15.764064
14.879407
13.686276
12.393687
11.094931
9.785435
8.420593
6.976728
5.501028
4.134508
3.081934
2.538324
2.629828
3.385924
4.702071
6.324729
7.937272
9.284877
10.220051
10.687171
10.698660
10.300255
9.534867
8.427112
7.008072
5.354549
3.570244
1.719018
-0.202078
-2.219746
-4.308763
-6.356805
-8.199605
-9.658889
-10.587363
-10.955505
-10.885847
-10.588671
-10.255989
-9.964808
-9.642005
-9.120951
-8.259508
-7.027478
-5.495588
-3.773467
-1.963858
-0.130406
1.717557
3.603940
5.538448
7.474054
9.311560
10.933220
12.215999
13.033632
13.270559
12.866428
11.875016
10.463211
8.841193
7.197255
5.649901
4.202193
2.760956
1.238817
-0.356894
-1.919966
-3.303289
-4.371433
-5.012448
-5.141635
-4.732320
-3.838883
-2.564254
-1.010052
0.725016
2.523218
4.253131
5.776623
6.938886
7.596782
7.679363
7.189907
6.179978
4.780784
3.212965
1.710112
0.447136
-0.492041
-1.140103
-1.605896
-1.968026
-2.242701
-2.431558
-2.518556
-2.429950
-2.063988
-1.367379
-0.372882
0.797361
1.940724
2.828262
3.294617
3.289458
2.864154
2.131547
1.214420
0.176680
-1.018514
-2.473595
-4.286273
-6.488334
-8.989789
-11.582533
-14.022010
-16.098589
-17.669588
-18.692236
-19.238430
-19.442097
-19.402212
-19.118565
-18.503323
-17.449234
-15.894328
-13.851478
-11.436860
-8.901482
-6.603235
-4.891161
-3.962377
-3.799186
-4.236083
-5.072844
-6.135233
-7.295609
-8.478121
-9.647578
-10.805764
-11.984807
-13.214916
-14.483531
-15.703481
-16.707989
-17.292721
-17.302660
-16.715151
-15.646158
-14.284252
-12.818063
-11.374385
-9.976998
-8.564283
-7.054590
-5.407059
-3.645044
-1.845537
-0.110525
1.480964
2.915866
4.240371
5.524692
6.842561
8.253412
9.773167
11.348350
12.848335
14.101828
14.986281
15.500600
15.751806
15.884004
16.011078
16.168667
16.291615
16.253191
15.950680
15.358057
14.530645
13.594450
12.709223
11.999499
11.509855
11.220606
11.084472
11.055140
11.095201
11.151142
11.146842
11.032522
10.833253
10.641785
10.561065
10.640519
10.864537
11.210668
11.701644
12.376964
13.234365
14.225057
15.288387
16.357225
17.333132
18.084307
18.462206
18.317184
17.527306
16.028744
13.815167
10.901823
7.298016
3.027614
-1.820364
-7.058379
-12.411613
-17.550150
-22.121080
-25.797955
-28.334866
-29.595938
-29.568161
-28.358971
-26.160551
-23.199718
-19.698744
-15.837161
-11.728642
-7.432630
-2.977183
1.613593
6.272017
10.847235
15.124035
18.883621
21.948038
24.212683
25.675589
26.412527
26.513418
26.063032
25.147738
23.821035
22.061073
19.775560
16.852968
13.249961
9.070692
4.555385
-0.011752
-4.373494
-8.330838
-11.756192
-14.561368
-16.670479
-18.042372
-18.677210
-18.604759
-17.904148
-16.725925
-15.270622
-13.731140
-12.236608
-10.839622
-9.566712
-8.481133
-7.674082
-7.196175
-7.021040
-7.074378
-7.294345
-7.679524
-8.281687
-9.147336
-10.265896
-11.557202
-12.897261
-14.165047
-15.269438
-16.147041
-16.749214
-17.032648
-16.981113
-16.629313
-16.026100
-15.178592
-14.052711
-12.608139
-10.824092
-8.718600
-6.358026
-3.853460
-1.351504
0.974010
2.927799
4.324809
5.049327
5.098279
4.589576
3.727861
2.738407
1.807230
1.052827
0.553494
0.386460
0.603691
1.201288
2.132086
3.327956
4.733467
6.323254
8.077721
9.942495
11.789658
13.429361
14.666984
15.333205
15.323333
14.660377
13.476326
11.934502
10.203691
8.474120
6.941225
5.745889
4.933576
4.443280
4.110787
3.728420
3.141167
2.314781
1.335050
0.304885
-0.739800
-1.760925
-2.654750
-3.330171
-3.787571
-4.093264
-4.331313
-4.597405
-4.959043
-5.409584
-5.943112
-6.619593
-7.492333
-8.566271
-9.830799
-11.243946
-12.740935
-14.311834
-16.002459
-17.812683
-19.650354
-21.409885
-23.026150
-24.431389
-25.510984
-26.095228
-26.018297
-25.200100
-23.630257
-21.331392
-18.367289
-14.829575
-10.833843
-6.518939
-2.019096
2.533943
7.000527
11.234128
15.088372
18.454905
21.265518
23.461529
25.012976
25.921137
26.180988
25.802912
24.852209
23.411163
21.517273
19.182003
16.486025
13.617991
10.806184
8.258324
6.157576
4.638055
3.723329
3.314256
3.235202
3.295938
3.389530
3.537367
3.789341
4.125162
4.506352
4.961435
5.501180
5.982412
6.196562
6.046962
5.518069
4.594182
3.351193
1.998015
0.715480
-0.466705
-1.604377
-2.716483
-3.775528
-4.787308
-5.788318
-6.775334
-7.707030
-8.540357
-9.220159
-9.669151
-9.831458
-9.707878
-9.325768
-8.704891
-7.883966
-6.960656
-6.077751
-5.411778
-5.158618
-5.444540
-6.272851
-7.548926
-9.075071
-10.544695
-11.617053
-12.037655
-11.717924
-10.707437
-9.116496
-7.107343
-4.884259
-2.629675
-0.462562
1.599305
3.633991
5.744548
8.043849
10.627677
13.443573
16.275532
18.918749
21.259462
23.219580
24.775593
25.992477
26.938980
27.605862
27.933851
27.856302
27.304918
26.240400
24.701014
22.812138
20.757635
18.719751
16.808989
15.066520
13.526496
12.248415
11.322310
10.837142
10.826947
11.272862
12.090473
13.119460
14.229348
15.349222
16.368530
17.149546
17.591684
17.617105
17.163212
16.192984
14.698431
12.722522
10.371893
7.792200
5.106617
2.382403
-0.316966
-2.930983
-5.456165
-7.876988
-10.083258
-11.920932
-13.307034
-14.289904
-14.964887
-15.378815
-15.576278
-15.640688
-15.636077
-15.605648
-15.639435
-15.865150
-16.386890
-17.225618
-18.263704
-19.294687
-20.168772
-20.839602
-21.291449
-21.525803
-21.587580
-21.502184
-21.232281
-20.758059
-20.155998
-19.538763
-18.938520
-18.309429
-17.575562
-16.654493
-15.506224
-14.081434
-12.259879
-9.955763
-7.177008
-3.980086
-0.494907
3.055828
6.431985
9.399716
11.686517
13.045661
13.384872
12.796931
11.486205
9.662586
7.528270
5.327075
3.263690
1.372978
-0.448278
-2.286906
-4.116297
-5.830450
-7.334207
-8.601839
-9.653384
-10.495471
-11.113211
-11.482274
-11.569121
-11.322494
-10.663870
-9.512864
-7.864941
-5.848021
-3.651665
-1.420884
0.730347
2.630948
4.073306
4.962001
5.330512
5.212789
4.650009
3.788524
2.839132
1.969132
1.274722
0.776244
0.410576
0.081210
-0.264780
-0.635132
-1.042987
-1.495220
-1.981623
-2.499794
-3.028534
-3.516565
-3.922651
-4.210973
-4.300693
-4.054187
-3.360599
-2.233068
-0.768639
0.930046
2.717658
4.410628
5.897447
7.158261
8.206241
9.063291
9.731139
10.237439
10.704690
11.205146
11.659745
12.022072
12.367477
12.734729
13.085710
13.459603
13.959928
14.567174
15.134643
15.526063
15.631114
15.341636
14.615141
13.459035
11.843555
9.751496
7.273254
4.597085
1.950811
-0.457595
-2.496657
-4.098305
-5.195387
-5.735750
-5.710923
-5.124651
-4.009669
-2.473844
-0.651486
1.342701
3.340445
5.108524
6.470710
7.336394
7.632852
7.327696
6.489545
5.273678
3.853615
2.347966
0.822686
-0.654781
-2.028272
-3.304836
-4.540749
-5.778130
-7.031378
-8.291584
-9.509375
-10.611497
-11.519850
-12.160722
-12.481681
-12.467806
-12.157371
-11.609754
-10.864204
-9.975242
-9.034270
-8.103346
-7.200076
-6.347882
-5.557665
-4.814390
-4.129329
-3.546244
-3.084263
-2.714284
-2.392633
-2.077764
-1.725532
-1.297786
-0.755356
-0.087700
0.620824
1.259683
1.820581
2.342967
2.779622
3.017191
2.979361
2.640351
2.006950
1.143983
0.188342
-0.702992
-1.444454
-2.006070
-2.333282
-2.400378
-2.303472
-2.198623
-2.140542
-2.052395
-1.841594
-1.428221
-0.715691
0.339110
1.673397
3.159865
4.652057
6.031551
7.216348
8.109272
8.619816
8.728842
8.503839
8.076415
7.567568
7.034715
6.458896
5.737111
4.779292
3.615199
2.317602
0.886674
-0.709888
-2.434180
-4.173354
-5.834912
-7.408043
-8.908935
-10.289578
-11.409146
-12.092894
-12.242249
-11.882304
-11.057931
-9.722946
-7.810652
-5.355355
-2.507074
0.514273
3.503213
6.333827
8.961597
11.411117
13.708464
15.808985
17.636705
19.142618
20.310177
