EVENT_NAME: EMILIA_2ND_SHOCK
EVENT_ID: IT-2012-0011
EVENT_DATE_YYYYMMDD: 20120529
EVENT_TIME_HHMMSS: 070002
EVENT_LATITUDE_DEGREE: 44.8417
EVENT_LONGITUDE_DEGREE: 11.0657
EVENT_DEPTH_KM: 8.1
HYPOCENTER_REFERENCE: INGV-CNT_Seismic_Bulletin
MAGNITUDE_W: 6.0
MAGNITUDE_W_REFERENCE: RCMT-INGV
MAGNITUDE_L: 5.8
MAGNITUDE_L_REFERENCE: INGV-CNT_Seismic_Bulletin
FOCAL_MECHANISM: TF
NETWORK: IT
STATION_CODE: MRN
STATION_NAME: MIRANDOLA (NAPOLI)
STATION_LATITUDE_DEGREE: 44.878231
STATION_LONGITUDE_DEGREE: 11.061743
STATION_ELEVATION_M: 15
LOCATION: 
SENSOR_DEPTH_M: 0.0
VS30_M/S: 208
SITE_CLASSIFICATION_EC8: C
MORPHOLOGIC_CLASSIFICATION: 
EPICENTRAL_DISTANCE_KM: 4.1
EARTHQUAKE_BACKAZIMUTH_DEGREE: 175.6
DATE_TIME_FIRST_SAMPLE_YYYYMMDD_HHMMSS: 20120529_065948.000
DATE_TIME_FIRST_SAMPLE_PRECISION: seconds
SAMPLING_INTERVAL_S: 0.005000
NDATA: 13713
DURATION_S: 68.565
STREAM: HNE
UNITS: cm/s
INSTRUMENT: sensor = MS2007+ [Syscom] | digitizer = 130-01/3 [Reftek]
INSTRUMENT_ANALOG/DIGITAL: D
INSTRUMENTAL_FREQUENCY_HZ: 
INSTRUMENTAL_DAMPING: 
FULL_SCALE_G: 
N_BIT_DIGITAL_CONVERTER: 24
PGV_CM/S: -28.514466
TIME_PGV_S: 20.805000
BASELINE_CORRECTION: BASELINE REMOVED
FILTER_TYPE: BUTTERWORTH
FILTER_ORDER: 2
LOW_CUT_FREQUENCY_HZ: 0.070
HIGH_CUT_FREQUENCY_HZ: 40.000
LATE/NORMAL_TRIGGERED: NT
DATABASE_VERSION: DYNA 1.0
HEADER_FORMAT: DYNA 1.2
DATA_TYPE: VELOCITY
PROCESSING: manual (Paolucci et al., 2011)
DATA_TIMESTAMP_YYYYMMDD_HHMMSS: 20141204_104205.354
DATA_LICENSE: CC-BY3_0-IT (http://creativecommons.org/licenses/by/3.0/deed.en)
DATA_CITATION: ESM working group (2015), European Strong-Motion database, version 0.1, Network Activity 3: Networking acceleration networks and SM data users. Project NERA (www.nera-eu.org)
DATA_CREATOR: ESM working group
ORIGINAL_DATA_MEDIATOR_CITATION: Ufficio Rischio Sismico e Vulcanico del Dipartimento della Protezione Civile (http://www.protezionecivile.gov.it/)
ORIGINAL_DATA_MEDIATOR: Rete Accelerometrica Nazionale - RAN Download (http://www.mot1.it/randownload/)
ORIGINAL_DATA_CREATOR_CITATION: Italian Strong Motion Network, Italian Civil Protection Department http://www.protezionecivile.gov.it
ORIGINAL_DATA_CREATOR: network: IT (Italian Strong Motion Network); owner: Dipartimento Della Protezione Civile
USER1: /home/dyna/processing-itaca/processing.py /var/www/processing/tmp/fpacor//IT.MRN..HNE.D.20120529.070003.X.ACC.ASC /var/www/processing/tmp/fpacor//IT.MRN..HNN.D.20120529.070003.X.ACC.ASC /var/www/processing/tmp/fpacor//IT.MRN..HNZ.D.20120529.070003.X.ACC.ASC --tmp /var/www/processing/tmp/fpacor/ --le 0.070 --he 40.000 --ln 0.070 --hn 40.000 --lz 0.070 --hz 40.000 --fo 2 --ca -15 --cz 100 --ta 5 --tz 5 --mf 1 --rf 0 --tr NT
USER2: 
USER3: 
USER4: 
USER5: 
[...]
0.300394
0.301728
0.303066
0.304406
0.305749
0.307094
0.308443
0.309794
0.311148
0.312505
0.313865
0.315227
0.316592
0.317961
0.319331
0.320705
0.322082
0.323461
0.324843
0.326228
0.327616
0.329006
0.330400
0.331796
0.333195
0.334597
0.336002
0.337409
0.338820
0.340233
0.341649
0.343068
0.344490
0.345914
0.347342
0.348772
0.350205
0.351641
0.353080
0.354522
0.355966
0.357414
0.358864
0.360317
0.361773
0.363232
0.364694
0.366158
0.367626
0.369096
0.370569
0.372045
0.373524
0.375006
0.376491
0.377978
0.379469
0.380962
0.382458
0.383957
0.385459
0.386964
0.388472
0.389983
0.391496
0.393013
0.394532
0.396055
0.397580
0.399108
0.400639
0.402173
0.403710
0.405249
0.406792
0.408337
0.409886
0.411437
0.412991
0.414549
0.416109
0.417672
0.419238
0.420807
0.422378
0.423953
0.425531
0.427111
0.428695
0.430281
0.431871
0.433463
0.435058
0.436656
0.438258
0.439862
0.441469
0.443078
0.444691
0.446307
0.447926
0.449548
0.451172
0.452800
0.454430
0.456066
0.457704
0.459338
0.460959
0.462596
0.464332
0.466193
0.467799
0.468297
0.467190
0.465041
0.462776
0.460699
0.458613
0.456460
0.454397
0.452427
0.450399
0.448330
0.446365
0.444451
0.442407
0.440245
0.438126
0.436041
0.433850
0.431602
0.429490
0.427525
0.425547
0.423538
0.421613
0.419730
0.417740
0.415675
0.413701
0.411813
0.409864
0.407852
0.405906
0.404004
0.401992
0.399880
0.397835
0.395868
0.393828
0.391727
0.389724
0.387803
0.385806
0.383754
0.381810
0.379958
0.378037
0.376061
0.374184
0.372380
0.370481
0.368500
0.366591
0.364732
0.362766
0.360726
0.358789
0.356947
0.355042
0.353090
0.351240
0.349470
0.347621
0.345711
0.343885
0.342105
0.340206
0.338219
0.336317
0.334489
0.332576
0.330602
0.328734
0.326955
0.325102
0.323189
0.321367
0.319612
0.317767
0.315843
0.313991
0.312201
0.310323
0.308370
0.306488
0.304664
0.302754
0.300779
0.298903
0.297120
0.295287
0.293423
0.291672
0.289998
0.288238
0.286390
0.284596
0.282842
0.280983
0.279052
0.277218
0.275475
0.273665
0.271802
0.270044
0.268373
0.266625
0.264819
0.263110
0.261472
0.259745
0.257945
0.256222
0.254553
0.252789
0.250973
0.249269
0.247645
0.245927
0.244127
0.242407
0.240763
0.239048
0.237275
0.235593
0.233982
0.232279
0.230487
0.228762
0.227100
0.225353
0.223536
0.221797
0.220118
0.218353
0.216533
0.214834
0.213252
0.211621
0.209930
0.208316
0.206760
0.205108
0.203384
0.201755
0.200208
0.198573
0.196859
0.195226
0.193655
0.191993
0.190267
0.188640
0.187099
0.185486
0.183811
0.182220
0.180699
0.179103
0.177451
0.175897
0.174421
0.172854
0.171196
0.169601
0.168056
0.166409
0.164678
0.163025
0.161459
0.159839
0.158177
0.156619
0.155138
0.153571
0.151940
0.150407
0.148952
0.147407
0.145782
0.144232
0.142731
0.141121
0.139435
0.137857
0.136395
0.134887
0.133327
0.131863
0.130484
0.129022
0.127475
0.125999
0.124602
0.123139
0.121614
0.120173
0.118792
0.117304
0.115724
0.114225
0.112808
0.111327
0.109804
0.108384
0.107031
0.105575
0.104030
0.102563
0.101173
0.099706
0.098178
0.096749
0.095397
0.093959
0.092447
0.091016
0.089650
0.088189
0.086639
0.085156
0.083742
0.082256
0.080711
0.079263
0.077896
0.076454
0.074958
0.073575
0.072287
0.070925
0.069482
0.068106
0.066790
0.065385
0.063906
0.062520
0.061225
0.059859
0.058414
0.057041
0.055750
0.054405
0.053024
0.051753
0.050559
0.049268
0.047891
0.046587
0.045341
0.043998
0.042574
0.041229
0.039945
0.038565
0.037112
0.035747
0.034457
0.033094
0.031684
0.030390
0.029197
0.027944
0.026639
0.025425
0.024277
0.023029
0.021695
0.020433
0.019227
0.017919
0.016526
0.015216
0.013989
0.012691
0.011330
0.010061
0.008879
0.007628
0.006311
0.005068
0.003877
0.002595
0.001250
0.000001
-0.001165
-0.002402
-0.003694
-0.004889
-0.006005
-0.007207
-0.008483
-0.009674
-0.010794
-0.012002
-0.013293
-0.014514
-0.015665
-0.016885
-0.018157
-0.019335
-0.020438
-0.021633
-0.022914
-0.024115
-0.025238
-0.026435
-0.027690
-0.028849
-0.029930
-0.031083
-0.032286
-0.033385
-0.034400
-0.035490
-0.036651
-0.037736
-0.038755
-0.039862
-0.041045
-0.042145
-0.043169
-0.044273
-0.045452
-0.046562
-0.047615
-0.048757
-0.049960
-0.051052
-0.052054
-0.053145
-0.054314
-0.055392
-0.056395
-0.057488
-0.058662
-0.059756
-0.060772
-0.061851
-0.062983
-0.064023
-0.064991
-0.066042
-0.067161
-0.068194
-0.069165
-0.070235
-0.071379
-0.072429
-0.073393
-0.074431
-0.075536
-0.076555
-0.077502
-0.078532
-0.079632
-0.080654
-0.081618
-0.082669
-0.083780
-0.084789
-0.085717
-0.086733
-0.087833
-0.088862
-0.089819
-0.090855
-0.091954
-0.092954
-0.093859
-0.094826
-0.095851
-0.096780
-0.097627
-0.098551
-0.099550
-0.100483
-0.101373
-0.102367
-0.103432
-0.104399
-0.105274
-0.106214
-0.107217
-0.108136
-0.108981
-0.109911
-0.110917
-0.111845
-0.112719
-0.113694
-0.114737
-0.115662
-0.116456
-0.117218
-0.117822
-0.117989
-0.117705
-0.117305
-0.117083
-0.116986
-0.116865
-0.116892
-0.117424
-0.118378
-0.119134
-0.119320
-0.119314
-0.119583
-0.119804
-0.119073
-0.116866
-0.113476
-0.109606
-0.106101
-0.104742
-0.108594
-0.119331
-0.133348
-0.142942
-0.143171
-0.135561
-0.124382
-0.113566
-0.108884
-0.116841
-0.136600
-0.156608
-0.164025
-0.157026
-0.145162
-0.137788
-0.135072
-0.131552
-0.126048
-0.124840
-0.134558
-0.154247
-0.175605
-0.187978
-0.182431
-0.158183
-0.128640
-0.113326
-0.119926
-0.139622
-0.159472
-0.171866
-0.171802
-0.155054
-0.127271
-0.108703
-0.116784
-0.144763
-0.168566
-0.174311
-0.169025
-0.164169
-0.159753
-0.150070
-0.137137
-0.129948
-0.133376
-0.144318
-0.156859
-0.165448
-0.164468
-0.151583
-0.133491
-0.123116
-0.128367
-0.148194
-0.179354
-0.217218
-0.248269
-0.254533
-0.232501
-0.199496
-0.175400
-0.164625
-0.160886
-0.162455
-0.172838
-0.188034
-0.193588
-0.178459
-0.147837
-0.119481
-0.108545
-0.116839
-0.134127
-0.145901
-0.141023
-0.118863
-0.093566
-0.086215
-0.106529
-0.144173
-0.180700
-0.206138
-0.218816
-0.213100
-0.181162
-0.130724
-0.087431
-0.072216
-0.083495
-0.104655
-0.122774
-0.135700
-0.145308
-0.152079
-0.155992
-0.157433
-0.158727
-0.166116
-0.185591
-0.215096
-0.243640
-0.259806
-0.260669
-0.252192
-0.243736
-0.244219
-0.259537
-0.287069
-0.310933
-0.309218
-0.274120
-0.224856
-0.195020
-0.204829
-0.246436
-0.295251
-0.330254
-0.339041
-0.311222
-0.244362
-0.161085
-0.106120
-0.114345
-0.181105
-0.264091
-0.313631
-0.305977
-0.254982
-0.196807
-0.162552
-0.158465
-0.167110
-0.167625
-0.153496
-0.131833
-0.114473
-0.111132
-0.119327
-0.120593
-0.102218
-0.081736
-0.089770
-0.129248
-0.172136
-0.194294
-0.193113
-0.173568
-0.140888
-0.114410
-0.127531
-0.191408
-0.264345
-0.283062
-0.231763
-0.159463
-0.121169
-0.125838
-0.156061
-0.211311
-0.297781
-0.385309
-0.411626
-0.342070
-0.210587
-0.091098
-0.032399
-0.028202
-0.045898
-0.067257
-0.092068
-0.114371
-0.112203
-0.064031
0.028863
0.136312
0.214939
0.234687
0.194543
0.115100
0.022574
-0.058700
-0.111433
-0.135720
-0.151719
-0.182001
-0.229751
-0.278735
-0.310138
-0.314486
-0.295286
-0.270053
-0.264129
-0.293997
-0.353206
-0.415414
-0.450862
-0.444516
-0.407232
-0.370126
-0.360965
-0.383762
-0.421999
-0.455271
-0.471208
-0.470772
-0.465086
-0.465850
-0.479339
-0.501666
-0.515328
-0.497929
-0.437728
-0.341803
-0.234400
-0.146323
-0.097761
-0.084732
-0.080226
-0.052617
0.008432
0.079405
0.120181
0.112144
0.081343
0.075290
0.114327
0.178342
0.240307
0.290989
0.326043
0.333487
0.313245
0.296706
0.322862
0.391751
0.451750
0.438700
0.332222
0.177231
0.049741
-0.001573
0.013457
0.046171
0.057285
0.046532
0.037676
0.045050
0.064702
0.087359
0.101318
0.089661
0.045921
-0.009916
-0.046026
-0.044986
-0.006349
0.067195
0.167596
0.262581
0.299681
0.248799
0.136333
0.021842
-0.056397
-0.097613
-0.108035
-0.084337
-0.038137
-0.009392
-0.032385
-0.102176
-0.182301
-0.228393
-0.202607
-0.085552
0.102323
0.289904
0.396129
0.393699
0.317549
0.221301
0.147803
0.131198
0.197967
0.343364
0.506947
0.600526
0.578956
0.478823
0.395644
0.418241
0.551815
0.703967
0.774926
0.760695
0.743277
0.782916
0.855424
0.900734
0.886665
0.809266
0.682897
0.557182
0.505305
0.574414
0.752905
0.969682
1.128693
1.176426
1.140864
1.100161
1.120306
1.213927
1.343252
1.461774
1.552207
1.618102
1.649006
1.616718
1.515615
1.391958
1.317407
1.352919
1.539302
1.859905
2.193558
2.368732
2.294870
2.019758
1.669836
1.359257
1.139410
1.009935
0.959955
0.982273
1.062513
1.180316
1.322455
1.480070
1.616396
1.653329
1.530125
1.273874
0.990787
0.803030
0.802106
1.018908
1.391449
1.770484
2.003650
2.044032
1.959294
1.835600
1.723703
1.652525
1.615489
1.564395
1.463215
1.332560
1.236860
1.239078
1.352787
1.536609
1.750379
1.986938
2.221071
2.375747
2.384793
2.265686
2.108123
2.005613
2.009098
2.134311
2.379573
2.711340
3.039254
3.233641
3.205373
2.971359
2.623418
2.253297
1.922200
1.676091
1.564287
1.628081
1.854316
2.139520
2.341367
2.421984
2.521366
2.815366
3.318763
3.874909
4.298995
4.509668
4.539977
4.453310
4.307875
4.184659
4.169035
4.290744
4.505149
4.719331
4.831319
4.790277
4.643780
4.502813
4.449440
4.482107
4.538157
4.551185
4.492309
4.387602
4.314154
4.353635
4.505404
4.642412
4.596259
4.308619
3.882745
3.486450
3.233017
3.155940
3.243532
3.454073
3.719916
3.970250
4.151596
4.240804
4.269972
4.332470
4.516365
4.796950
5.012425
4.980500
4.640034
4.080565
3.459878
2.895546
2.423641
2.048859
1.793483
1.676006
1.678493
1.761110
1.894491
2.067229
2.259866
2.426164
2.532479
2.601931
2.683979
2.804541
2.981517
3.271680
3.758810
4.450986
5.180623
5.685502
5.829935
5.675397
5.366608
5.050400
4.852408
4.842110
5.016949
5.324799
5.688304
6.001950
6.147077
6.081924
5.901636
5.747696
5.692483
5.751781
5.946069
6.279508
6.691125
7.106844
7.528392
8.003784
8.514279
8.946191
9.189286
9.225991
9.124824
8.995584
8.949417
9.050372
9.274876
9.527340
9.722314
9.852277
9.954932
10.045226
10.120038
10.193573
10.300395
10.479934
10.738813
11.016812
11.211567
11.243543
11.120611
10.954430
10.877735
10.939374
11.098222
11.278051
11.387024
11.319569
10.993890
10.409895
9.685124
9.026005
8.619040
8.520285
8.653297
8.915063
9.265723
9.700054
10.156892
10.516368
10.714337
10.822161
10.975714
11.237463
11.550043
11.819380
12.013140
12.159981
12.282324
12.368240
12.405695
12.420917
12.466733
12.565199
12.681097
12.776286
12.864594
12.990697
13.189366
13.470482
13.805278
14.131186
14.381402
14.497789
14.438156
14.193829
13.792446
13.289397
12.752667
12.235738
11.759715
11.305095
10.812721
10.229045
9.568152
8.908930
8.336558
7.901970
7.614364
7.447188
7.359079
7.314547
7.277335
7.198583
7.035381
6.777900
6.447900
6.081080
5.713622
5.359228
4.989143
4.559638
4.065222
3.547130
3.053415
2.605915
2.206009
1.864803
1.622742
1.541762
1.678872
2.054483
2.635511
3.352666
4.136455
4.940732
5.751013
6.581627
7.447084
8.311685
9.064394
9.552090
9.657489
9.382474
8.860350
8.263779
7.706358
7.222939
6.801501
6.421574
6.079358
5.791724
5.587516
5.490764
5.494927
5.562390
5.668272
5.827837
6.070511
6.403345
6.804379
7.236696
7.642533
7.928346
8.004411
7.867064
7.619674
7.391105
7.240304
7.124981
6.946408
6.641349
6.223131
5.735663
5.204689
4.637979
4.050669
3.463203
2.867707
2.232029
1.543770
0.821068
0.091935
-0.615162
-1.276104
-1.875130
-2.405335
-2.877860
-3.320975
-3.754457
-4.168914
-4.531928
-4.815779
-5.029066
-5.226476
-5.476260
-5.800827
-6.157428
-6.491279
-6.795101
-7.111671
-7.487973
-7.927542
-8.389210
-8.828383
-9.228881
-9.601002
-9.964084
-10.335225
-10.724663
-11.131547
-11.550234
-11.988151
-12.472968
-13.038849
-13.699056
-14.421262
-15.132681
-15.756786
-16.243334
-16.568359
-16.724136
-16.717476
-16.571524
-16.332050
-16.071976
-15.863434
-15.722898
-15.590221
-15.367776
-14.972294
-14.355232
-13.504442
-12.463630
-11.370414
-10.458189
-9.966046
-10.006403
-10.524510
-11.372329
-12.392477
-13.463518
-14.521459
-15.553156
-16.560419
-17.528320
-18.430719
-19.252758
-19.989681
-20.631193
-21.163893
-21.587257
-21.920553
-22.197315
-22.448084
-22.680042
-22.883572
-23.062679
-23.246788
-23.474257
-23.773403
-24.156445
-24.619745
-25.134487
-25.636162
-26.048525
-26.334469
-26.506998
-26.585501
-26.565611
-26.429722
-26.160164
-25.744160
-25.182386
-24.498674
-23.745697
-23.000242
-22.345579
-21.850677
-21.553522
-21.454617
-21.533955
-21.782322
-22.213112
-22.845217
-23.674435
-24.653881
-25.693560
-26.674114
-27.480133
-28.047079
-28.378685
-28.514465
-28.475824
-28.237371
-27.756336
-27.040174
-26.182386
-25.313381
-24.516676
-23.812431
-23.202030
-22.696409
-22.309080
-22.035332
-21.840801
-21.671373
-21.475378
-21.224588
-20.919334
-20.572479
-20.197393
-19.816042
-19.452555
-19.102978
-18.736929
-18.328876
-17.855780
-17.279459
-16.571373
-15.755231
-14.909478
-14.122395
-13.438875
-12.842367
-12.280758
-11.711970
-11.134079
-10.572172
-10.043800
-9.553483
-9.112477
-8.742417
-8.459703
-8.270418
-8.181135
-8.205183
-8.357116
-8.639811
-9.031195
-9.484232
-9.945097
-10.379517
-10.790815
-11.212390
-11.677359
-12.199157
-12.781945
-13.430615
-14.137335
-14.870201
-15.583139
-16.230671
-16.777306
-17.205147
-17.517353
-17.728933
-17.844845
-17.853809
-17.748917
-17.538618
-17.238741
-16.867769
-16.442526
-15.969092
-15.443140
-14.864705
-14.253053
-13.648926
-13.098386
-12.621966
-12.200094
-11.793385
-11.364741
-10.883637
-10.337101
-9.744046
-9.144571
-8.577228
-8.065751
-7.606785
-7.168724
-6.722866
-6.276025
-5.859573
-5.491390
-5.160103
-4.845885
-4.550578
-4.301834
-4.120980
-3.988127
-3.851250
-3.676390
-3.483416
-3.328007
-3.251471
-3.247051
-3.265420
-3.249883
-3.174942
-3.055647
-2.918494
-2.767070
-2.577728
-2.319288
-1.968346
-1.514067
-0.963506
-0.340849
0.324677
1.003053
1.658359
2.256782
2.783646
3.249433
3.687855
4.146995
4.659358
5.205264
5.714552
6.116874
6.391375
6.569221
6.698129
6.810222
6.916201
7.016037
7.109075
7.198829
7.292223
7.391542
7.485208
7.552048
7.585169
7.615611
7.705870
7.914519
8.261247
8.715777
9.217550
9.713063
10.183069
10.637314
11.084858
11.520564
11.944089
12.370206
12.799774
13.193131
13.497115
13.694313
13.806931
13.858782
13.854010
13.789983
13.668201
13.485288
13.226604
12.878409
12.444134
11.945799
11.411952
10.863189
10.302600
9.717707
9.092647
8.420869
7.715419
7.019924
6.411012
5.971502
5.741181
5.691338
5.751076
5.858002
5.987418
6.140489
6.310495
6.468495
6.586503
6.666805
6.738452
6.827101
6.935661
7.055720
7.196152
7.399251
7.721075
8.182828
8.740402
9.309866
9.818151
10.224957
10.515522
10.690217
10.755233
10.716565
10.582987
10.365276
10.064001
9.672194
9.208900
8.738698
8.335622
8.036972
7.843979
7.744725
7.723281
7.767255
7.877893
8.066591
8.346150
8.728471
9.213463
9.771913
10.355584
10.932824
11.502473
12.069330
12.621288
13.136416
13.599994
14.004181
14.325016
14.513396
14.540308
14.434339
14.236475
13.941934
13.515714
12.942455
12.243864
11.464695
10.650104
9.824680
8.996360
8.180252
7.397902
6.656342
5.945263
5.255674
4.597548
3.990479
3.434384
2.901543
2.363151
1.821174
1.306460
0.838177
0.396759
-0.047809
-0.487940
-0.874924
-1.160733
-1.330030
-1.397575
-1.391045
-1.338145
-1.261823
-1.177307
-1.088647
-0.993477
-0.895053
-0.810675
-0.768088
-0.786312
-0.860974
-0.975286
-1.116752
-1.277473
-1.451395
-1.641924
-1.864050
-2.125538
-2.409227
-2.683486
-2.925478
-3.127383
-3.285414
-3.390606
-3.431663
-3.409065
-3.349171
-3.295238
-3.271971
-3.261133
-3.216706
-3.098202
-2.889809
-2.598485
-2.238069
-1.812199
-1.310298
-0.718565
-0.033832
0.732201
1.558097
2.418243
3.282751
4.113631
4.866657
5.500722
5.986539
6.314307
6.496778
6.557521
6.513668
6.369462
6.120879
5.766279
5.314429
4.780913
4.180153
3.524987
2.831927
2.124576
1.431147
0.777140
0.181566
-0.340421
-0.777725
-1.126480
-1.390226
-1.583489
-1.737282
-1.893103
-2.088133
-2.342748
-2.654915
-3.007032
-3.382546
-3.776108
-4.189818
-4.625584
-5.084543
-5.572105
-6.099509
-6.676702
-7.301132
-7.953592
-8.603694
-9.220352
-9.785481
-10.301207
-10.781464
-11.234901
-11.647272
-11.976230
-12.176563
-12.236237
-12.175075
-12.007743
-11.725400
-11.317062
-10.795214
-10.195243
-9.558865
-8.922789
-8.314724
-7.754994
-7.264741
-6.865711
-6.563414
-6.340817
-6.180901
-6.088462
-6.082509
-6.174632
-6.357855
-6.608844
-6.898201
-7.203255
-7.513258
-7.820768
-8.106953
-8.336082
-8.465885
-8.465509
-8.326775
-8.062991
-7.701484
-7.275552
-6.817097
-6.350249
-5.884215
-5.413791
-4.939076
-4.485470
-4.097084
-3.812648
-3.651053
-3.613465
-3.685943
-3.836698
-4.025835
-4.227756
-4.433005
-4.619028
-4.732010
-4.711328
-4.528358
-4.198195
-3.762084
-3.266423
-2.751574
-2.244406
-1.756520
-1.289865
-0.840222
-0.400578
0.033253
0.466830
0.910625
1.360447
1.784796
2.156346
2.487701
2.818874
3.177082
3.561384
3.960656
4.374130
4.816944
5.309019
5.849415
6.402093
6.924344
7.411861
7.894006
8.385853
8.871322
9.328276
9.747070
10.127440
10.470167
10.773961
11.035528
11.251523
11.427642
11.579425
11.711205
11.808724
11.861111
11.875498
11.877213
11.902240
11.970860
12.068522
12.166719
12.258317
12.364033
12.510763
12.706939
12.932423
13.160871
13.393232
13.643904
13.896030
14.107620
14.267124
14.408172
14.562563
14.727657
14.883939
15.025710
15.169243
15.334042
15.521394
15.716464
15.903713
16.069567
16.198900
16.284931
16.342026
16.400085
16.484798
16.606499
16.764463
16.947937
17.126543
17.251127
17.277992
17.195862
17.025393
16.791264
16.498817
16.138691
15.707643
15.217224
14.685337
14.134371
13.599267
13.117208
12.699360
12.320326
11.939323
11.532182
11.103066
10.666506
10.226312
9.774300
9.297988
8.784422
8.226360
7.629440
7.009689
6.385623
5.772229
5.174232
4.582621
3.984231
3.375217
2.758972
2.138124
1.522653
0.941719
0.434888
