EVENT_NAME: EMILIA_2ND_SHOCK
EVENT_ID: IT-2012-0011
EVENT_DATE_YYYYMMDD: 20120529
EVENT_TIME_HHMMSS: 070002
EVENT_LATITUDE_DEGREE: 44.8417
EVENT_LONGITUDE_DEGREE: 11.0657
EVENT_DEPTH_KM: 8.1
HYPOCENTER_REFERENCE: INGV-CNT_Seismic_Bulletin
MAGNITUDE_W: 6.0
MAGNITUDE_W_REFERENCE: RCMT-INGV
MAGNITUDE_L: 5.8
MAGNITUDE_L_REFERENCE: INGV-CNT_Seismic_Bulletin
FOCAL_MECHANISM: TF
NETWORK: IT
STATION_CODE: MRN
STATION_NAME: MIRANDOLA (NAPOLI)
STATION_LATITUDE_DEGREE: 44.878231
STATION_LONGITUDE_DEGREE: 11.061743
STATION_ELEVATION_M: 15
LOCATION: 
SENSOR_DEPTH_M: 0.0
VS30_M/S: 208
SITE_CLASSIFICATION_EC8: C
MORPHOLOGIC_CLASSIFICATION: 
EPICENTRAL_DISTANCE_KM: 4.1
EARTHQUAKE_BACKAZIMUTH_DEGREE: 175.6
DATE_TIME_FIRST_SAMPLE_YYYYMMDD_HHMMSS: 20120529_065948.000
DATE_TIME_FIRST_SAMPLE_PRECISION: seconds
SAMPLING_INTERVAL_S: 0.005000
NDATA: 105
DURATION_S: 
STREAM: HNZ
UNITS: cm/s^2
INSTRUMENT: sensor = MS2007+ [Syscom] | digitizer = 130-01/3 [Reftek]
INSTRUMENT_ANALOG/DIGITAL: D
INSTRUMENTAL_FREQUENCY_HZ: 
INSTRUMENTAL_DAMPING: 
FULL_SCALE_G: 
N_BIT_DIGITAL_CONVERTER: 24
PGA_CM/S^2: 840.558524
TIME_PGA_S: 19.165000
BASELINE_CORRECTION: BASELINE REMOVED
FILTER_TYPE: BUTTERWORTH
FILTER_ORDER: 2
LOW_CUT_FREQUENCY_HZ: 0.070
HIGH_CUT_FREQUENCY_HZ: 40.000
LATE/NORMAL_TRIGGERED: NT
DATABASE_VERSION: DYNA 1.0
HEADER_FORMAT: DYNA 1.2
DATA_TYPE: ACCELERATION RESPONSE SPECTRUM
PROCESSING: manual (Paolucci et al., 2011)
DATA_TIMESTAMP_YYYYMMDD_HHMMSS: 20141204_104205.354
DATA_LICENSE: CC-BY3_0-IT (http://creativecommons.org/licenses/by/3.0/deed.en)
DATA_CITATION: ESM working group (2015), European Strong-Motion database, version 0.1, Network Activity 3: Networking acceleration networks and SM data users. Project NERA (www.nera-eu.org)
DATA_CREATOR: ESM working group
ORIGINAL_DATA_MEDIATOR_CITATION: Ufficio Rischio Sismico e Vulcanico del Dipartimento della Protezione Civile (http://www.protezionecivile.gov.it/)
ORIGINAL_DATA_MEDIATOR: Rete Accelerometrica Nazionale - RAN Download (http://www.mot1.it/randownload/)
ORIGINAL_DATA_CREATOR_CITATION: Italian Strong Motion Network, Italian Civil Protection Department http://www.protezionecivile.gov.it
ORIGINAL_DATA_CREATOR: network: IT (Italian Strong Motion Network); owner: Dipartimento Della Protezione Civile
USER1: /home/dyna/processing-itaca/processing.py /var/www/processing/tmp/fpacor//IT.MRN..HNE.D.20120529.070003.X.ACC.ASC /var/www/processing/tmp/fpacor//IT.MRN..HNN.D.20120529.070003.X.ACC.ASC /var/www/processing/tmp/fpacor//IT.MRN..HNZ.D.20120529.070003.X.ACC.ASC --tmp /var/www/processing/tmp/fpacor/ --le 0.070 --he 40.000 --ln 0.070 --hn 40.000 --lz 0.070 --hz 40.000 --fo 2 --ca -15 --cz 100 --ta 5 --tz 5 --mf 1 --rf 0 --tr NT
USER2: 
USER3: 
USER4: 
USER5: 
    0.010000   867.628784
    0.020000  1021.271179
    0.022000  1059.039062
    0.025000  1173.729492
    0.029000  1603.671753
    0.030000  1625.869141
    0.032000  1698.513550
    0.035001  1928.490601
    0.036000  1945.722656
    0.040000  2314.317627
    0.041999  2103.795410
    0.044001  2267.102539
    0.045000  2294.001221
    0.046000  2234.644043
    0.048001  2321.961670
    0.050000  2508.779541
    0.054999  3113.296875
    0.059999  3247.838623
    0.064998  3503.222900
    0.067002  3203.003906
    0.069999  3007.372070
    0.075002  2111.034424
    0.080000  2019.047485
    0.084998  2101.369385
    0.090001  2703.919922
    0.095003  2889.069580
    0.100000  2352.734375
    0.109999  1693.682251
    0.120005  1248.337280
    0.130005  1264.819580
    0.132996  1191.524414
    0.139997  1155.257202
    0.149993  1327.587769
    0.160000  1202.380981
    0.170010   850.601196
    0.179986   749.829224
    0.190006   815.216675
    0.200000   829.681763
    0.220022   793.114990
    0.239981   630.794250
    0.250000   709.735413
    0.260010   718.649719
    0.280034   500.469421
    0.290023   416.037415
    0.300030   364.117828
    0.320000   366.478821
    0.340020   337.227234
    0.350017   335.148193
    0.359971   339.717346
    0.379939   320.111755
    0.400000   281.136566
    0.419992   225.817413
    0.439947   183.593872
    0.450045   179.455322
    0.459982   174.897263
    0.480077   168.995087
    0.500000   165.067856
    0.550055   158.422852
    0.599880   162.440292
    0.650195   144.036255
    0.667111   130.470917
    0.699790   118.548103
    0.750188   108.433891
    0.800000   102.727768
    0.850340    99.835793
    0.900090   100.094933
    0.949668    96.851326
    1.000000    90.690598
    1.100110    76.462677
    1.200480    64.945366
    1.300390    61.591972
    1.400560    58.173141
    1.499250    52.954212
    1.600000    46.039246
    1.700680    47.516266
    1.798561    54.023464
    1.901141    52.868244
    2.000000    48.440529
    2.197802    37.663921
    2.398082    35.784157
    2.500000    34.798382
    2.597403    33.674255
    2.801121    32.314613
    3.003003    29.794590
    3.205128    26.695295
    3.401361    24.685974
    3.496503    26.111158
    3.597122    26.801935
    3.802281    27.860123
    4.000000    28.373323
    4.201681    27.478687
    4.405286    25.375172
    4.608295    23.871653
    4.807692    22.931112
    5.000000    21.520090
    5.494505    18.843683
    5.988024    15.954884
    6.493506    14.145203
    6.993007    12.462328
    7.518797    10.760015
    8.000000     9.229795
    8.474576     7.879261
    9.009009     6.589995
    9.523809     5.531445
   10.000000     4.749334
