EVENT_NAME: EMILIA_2ND_SHOCK
EVENT_ID: IT-2012-0011
EVENT_DATE_YYYYMMDD: 20120529
EVENT_TIME_HHMMSS: 070002
EVENT_LATITUDE_DEGREE: 44.8417
EVENT_LONGITUDE_DEGREE: 11.0657
EVENT_DEPTH_KM: 8.1
HYPOCENTER_REFERENCE: INGV-CNT_Seismic_Bulletin
MAGNITUDE_W: 6.0
MAGNITUDE_W_REFERENCE: RCMT-INGV
MAGNITUDE_L: 5.8
MAGNITUDE_L_REFERENCE: INGV-CNT_Seismic_Bulletin
FOCAL_MECHANISM: TF
NETWORK: IT
STATION_CODE: MDN
STATION_NAME: MODENA
STATION_LATITUDE_DEGREE: 44.646988
STATION_LONGITUDE_DEGREE: 10.889912
STATION_ELEVATION_M: 77
LOCATION: 
SENSOR_DEPTH_M: 0.0
VS30_M/S: 213
SITE_CLASSIFICATION_EC8: C
MORPHOLOGIC_CLASSIFICATION: 
EPICENTRAL_DISTANCE_KM: 25.7
EARTHQUAKE_BACKAZIMUTH_DEGREE: 32.7
DATE_TIME_FIRST_SAMPLE_YYYYMMDD_HHMMSS: 20120529_065953.000
DATE_TIME_FIRST_SAMPLE_PRECISION: seconds
SAMPLING_INTERVAL_S: 0.005000
NDATA: 26000
DURATION_S: 130.000
STREAM: HNE
UNITS: cm/s
INSTRUMENT: sensor = FBA-3 [Kinemetrics] | digitizer = Etna [Kinemetrics]
INSTRUMENT_ANALOG/DIGITAL: D
INSTRUMENTAL_FREQUENCY_HZ: 210.000
INSTRUMENTAL_DAMPING: 0.700000
FULL_SCALE_G: 1.0
N_BIT_DIGITAL_CONVERTER: 18
PGV_CM/S: 2.843750
TIME_PGV_S: 31.895000
BASELINE_CORRECTION: BASELINE REMOVED
FILTER_TYPE: BUTTERWORTH
FILTER_ORDER: 2
LOW_CUT_FREQUENCY_HZ: 0.050
HIGH_CUT_FREQUENCY_HZ: 35.000
LATE/NORMAL_TRIGGERED: NT
DATABASE_VERSION: DYNA 1.0
HEADER_FORMAT: DYNA 1.2
DATA_TYPE: VELOCITY
PROCESSING: manual (Paolucci et al., 2011)
DATA_TIMESTAMP_YYYYMMDD_HHMMSS: 20141204_103511.587
DATA_LICENSE: CC-BY3_0-IT (http://creativecommons.org/licenses/by/3.0/deed.en)
DATA_CITATION: ESM working group (2015), European Strong-Motion database, version 0.1, Network Activity 3: Networking acceleration networks and SM data users. Project NERA (www.nera-eu.org)
DATA_CREATOR: ESM working group
ORIGINAL_DATA_MEDIATOR_CITATION: Ufficio Rischio Sismico e Vulcanico del Dipartimento della Protezione Civile (http://www.protezionecivile.gov.it/)
ORIGINAL_DATA_MEDIATOR: Rete Accelerometrica Nazionale - RAN Download (http://www.mot1.it/randownload/)
ORIGINAL_DATA_CREATOR_CITATION: Italian Strong Motion Network, Italian Civil Protection Department http://www.protezionecivile.gov.it
ORIGINAL_DATA_CREATOR: network: IT (Italian Strong Motion Network); owner: Dipartimento Della Protezione Civile
USER1: /home/dyna/processing-itaca/processing.py /var/www/processing/tmp/fpacor//IT.MDN..HNE.D.20120529.070003.X.ACC.ASC /var/www/processing/tmp/fpacor//IT.MDN..HNN.D.20120529.070003.X.ACC.ASC /var/www/processing/tmp/fpacor//IT.MDN..HNZ.D.20120529.070003.X.ACC.ASC --tmp /var/www/processing/tmp/fpacor/ --le 0.05 --he 35.000 --ln 0.05 --hn 35.000 --lz 0.05 --hz 35.000 --fo 2 --ca -10 --cz 30 --ta 5 --tz 5 --mf 1 --rf 0 --tr NT
USER2: 
USER3: 
USER4: 
USER5: 
[...]
0.189490
0.187625
0.191612
0.201316
0.215457
0.231930
0.248378
0.262698
0.273356
0.279428
0.280312
0.275219
0.262851
0.241420
0.208978
0.164029
0.106116
0.036006
-0.044487
-0.132835
-0.226296
-0.322488
-0.419698
-0.516709
-0.612302
-0.704819
-0.792065
-0.871537
-0.940794
-0.997978
-1.042486
-1.075502
-1.099958
-1.119770
-1.138766
-1.159946
-1.185310
-1.215986
-1.252464
-1.294855
-1.343093
-1.397122
-1.457046
-1.523120
-1.595538
-1.674055
-1.757595
-1.844059
-1.930572
-2.014148
-2.092379
-2.163800
-2.227890
-2.284762
-2.334647
-2.377469
-2.412742
-2.439777
-2.458002
-2.467230
-2.467783
-2.460378
-2.445798
-2.424597
-2.396973
-2.362760
-2.321493
-2.272627
-2.215886
-2.151644
-2.081135
-2.006203
-1.928700
-1.849941
-1.770521
-1.690466
-1.609623
-1.528165
-1.446899
-1.367145
-1.290355
-1.217702
-1.149729
-1.086183
-1.026186
-0.968637
-0.912533
-0.857111
-0.801835
-0.746359
-0.690604
-0.634870
-0.579707
-0.525541
-0.472332
-0.419526
-0.366324
-0.312001
-0.255948
-0.197440
-0.135555
-0.069383
0.001742
0.078184
0.159970
0.246636
0.337058
0.429369
0.520955
0.608591
0.688735
0.757811
0.812320
0.848810
0.863948
0.854846
0.819554
0.757496
0.669745
0.559140
0.430150
0.288476
0.140496
-0.007345
-0.149139
-0.279942
-0.395941
-0.494435
-0.573620
-0.632264
-0.669427
-0.684313
-0.676245
-0.644885
-0.590648
-0.515028
-0.420610
-0.310870
-0.189806
-0.061429
0.070634
0.203201
0.333516
0.459255
0.578360
0.688666
0.787543
0.871808
0.938058
0.983412
1.006188
1.006130
0.984262
0.942608
0.883827
0.811020
0.727668
0.637456
0.544070
0.451046
0.361525
0.277896
0.201543
0.132887
0.071704
0.017506
-0.030328
-0.072733
-0.111104
-0.147085
-0.182190
-0.217562
-0.254034
-0.292431
-0.333840
-0.379576
-0.430906
-0.488692
-0.553178
-0.624003
-0.700350
-0.781086
-0.864832
-0.949995
-1.034901
-1.118047
-1.198178
-1.274071
-1.344334
-1.407375
-1.461495
-1.505088
-1.536878
-1.556146
-1.562903
-1.558033
-1.543394
-1.521770
-1.496524
-1.471032
-1.448084
-1.429445
-1.415753
-1.406717
-1.401453
-1.398685
-1.396753
-1.393734
-1.387728
-1.377068
-1.360428
-1.336760
-1.305144
-1.264756
-1.215043
-1.156095
-1.088948
-1.015613
-0.938947
-0.862330
-0.789028
-0.721647
-0.661974
-0.610956
-0.568585
-0.533879
-0.505150
-0.480482
-0.458265
-0.437712
-0.419069
-0.403364
-0.391790
-0.385114
-0.383590
-0.387289
-0.396094
-0.409367
-0.426018
-0.444956
-0.465422
-0.487079
-0.510066
-0.534861
-0.561909
-0.591625
-0.624723
-0.662184
-0.705016
-0.754170
-0.810389
-0.874094
-0.945653
-1.025666
-1.114729
-1.212981
-1.320030
-1.435161
-1.557318
-1.684873
-1.815349
-1.945440
-2.071441
-2.189592
-2.296249
-2.388086
-2.462233
-2.516403
-2.548997
-2.559093
-2.546423
-2.511420
-2.455250
-2.379808
-2.287533
-2.181206
-2.063898
-1.938833
-1.809228
-1.678323
-1.549308
-1.425047
-1.307991
-1.200405
-1.104495
-1.022065
-0.953975
-0.899944
-0.858652
-0.827864
-0.804674
-0.786058
-0.769486
-0.753310
-0.736831
-0.719883
-0.702196
-0.683249
-0.662624
-0.640092
-0.615285
-0.587779
-0.557867
-0.526884
-0.496649
-0.469059
-0.446088
-0.429332
-0.419342
-0.415764
-0.418098
-0.426120
-0.439702
-0.458580
-0.482516
-0.511458
-0.545335
-0.583870
-0.626572
-0.672672
-0.721018
-0.770175
-0.818715
-0.865344
-0.908868
-0.948288
-0.983091
-1.013480
-1.040539
-1.066332
-1.093555
-1.124919
-1.162663
-1.208039
-1.260762
-1.318848
-1.379036
-1.437625
-1.491163
-1.536745
-1.572282
-1.596703
-1.609852
-1.612164
-1.604168
-1.585998
-1.557275
-1.517056
-1.463917
-1.396700
-1.315322
-1.220728
-1.114431
-0.998333
-0.874455
-0.744493
-0.609798
-0.471768
-0.332099
-0.192818
-0.056293
0.074909
0.198414
0.312475
0.416263
0.509862
0.593907
0.669239
0.736872
0.798114
0.854725
0.908911
0.963046
1.019410
1.079862
1.145460
1.216606
1.293353
1.375195
1.460943
1.548901
1.636987
1.722803
1.803768
1.877260
1.940873
1.992732
2.031693
2.057226
2.069138
2.067553
2.052898
2.025618
1.986233
1.935816
1.876212
1.809677
1.738227
1.663403
1.586508
1.508627
1.430424
1.352243
1.274215
1.196018
1.116692
1.034758
0.948630
0.857311
0.760838
0.659994
0.555796
0.449339
0.341709
0.233772
0.126261
0.020099
-0.083691
-0.184471
-0.282165
-0.376857
-0.468405
-0.556282
-0.639555
-0.717086
-0.787493
-0.848793
-0.898571
-0.934456
-0.954357
-0.956831
-0.941552
-0.909392
-0.862394
-0.803961
-0.738733
-0.671808
-0.607824
-0.550393
-0.502080
-0.464438
-0.437803
-0.421485
-0.414620
-0.416861
-0.428296
-0.448877
-0.478029
-0.514700
-0.557710
-0.605977
-0.658454
-0.714020
-0.771431
-0.829277
-0.885889
-0.939209
-0.986773
-1.026098
-1.055338
-1.073596
-1.080701
-1.077049
-1.063894
-1.043528
-1.018718
-0.992065
-0.966001
-0.942751
-0.923808
-0.909613
-0.899767
-0.893394
-0.889512
-0.887459
-0.887053
-0.888377
-0.891553
-0.896768
-0.904244
-0.914152
-0.926651
-0.941794
-0.959377
-0.978990
-1.000045
-1.021548
-1.041819
-1.058622
-1.069787
-1.073631
-1.068980
-1.055392
-1.033339
-1.003852
-0.968060
-0.927029
-0.881713
-0.833057
-0.781870
-0.728346
-0.672321
-0.614022
-0.553912
-0.492074
-0.428401
-0.362972
-0.295674
-0.225874
-0.153039
-0.077365
0.000265
0.078421
0.155129
0.228204
0.295500
0.354717
0.403475
0.439841
0.462827
0.472581
0.470293
0.457809
0.437318
0.411341
0.382662
0.354108
0.328484
0.308436
0.296067
0.292809
0.299523
0.316225
0.341768
0.374121
0.410803
0.448967
0.485606
0.518054
0.544422
0.563690
0.575430
0.579543
0.576269
0.566128
0.549604
0.526900
0.498010
0.462853
0.421395
0.373848
0.320790
0.263191
0.202387
0.139979
0.077640
0.016853
-0.041196
-0.095517
-0.145393
-0.190564
-0.231081
-0.267081
-0.298821
-0.326609
-0.350681
-0.371328
-0.389059
-0.404480
-0.418052
-0.430015
-0.440404
-0.449031
-0.455520
-0.459297
-0.459735
-0.456631
-0.450333
-0.441230
-0.429515
-0.415617
-0.400531
-0.385634
-0.372432
-0.362398
-0.356678
-0.355736
-0.359251
-0.366473
-0.376504
-0.388170
-0.400172
-0.411689
-0.422682
-0.433385
-0.443647
-0.452855
-0.459996
-0.463575
-0.461879
-0.453512
-0.437713
-0.414453
-0.384295
-0.348213
-0.307667
-0.264568
-0.220923
-0.178404
-0.138022
-0.100184
-0.065011
-0.032716
-0.004031
0.019866
0.037942
0.049530
0.053963
0.050414
0.038243
0.017376
-0.011799
-0.048839
-0.093383
-0.144831
-0.201877
-0.262341
-0.323553
-0.382964
-0.438254
-0.486869
-0.525922
-0.552699
-0.565234
-0.562663
-0.545147
-0.513477
-0.468669
-0.411614
-0.343072
-0.264027
-0.175843
-0.080130
0.021421
0.127134
0.235419
0.344903
0.454556
0.563670
0.671691
0.777901
0.881179
0.979951
1.072185
1.155318
1.226519
1.283473
1.324974
1.350898
1.361996
1.359879
1.346983
1.326241
1.300602
1.272664
1.244532
1.217884
1.194139
1.174585
1.160328
1.152027
1.149741
1.153102
1.161395
1.173437
1.187766
1.203280
1.219598
1.236639
1.254039
1.271090
1.287001
1.301054
1.312342
1.319206
1.319140
1.309523
1.288519
1.255450
1.210597
1.154801
1.089144
1.014725
0.932575
0.843699
0.749241
0.650742
0.550109
0.449172
0.349353
0.251597
0.156272
0.063215
-0.027818
-0.116648
-0.202588
-0.284755
-0.362361
-0.434817
-0.501786
-0.563176
-0.619056
-0.669596
-0.715016
-0.755632
-0.792078
-0.825332
-0.856349
-0.885791
-0.914216
-0.942364
-0.971119
-1.001350
-1.033799
-1.068705
-1.105389
-1.142454
-1.178283
-1.211308
-1.240173
-1.263914
-1.282045
-1.294537
-1.301703
-1.303923
-1.301333
-1.293766
-1.280931
-1.262539
-1.238316
-1.207990
-1.171337
-1.128387
-1.079612
-1.025881
-0.968349
-0.908539
-0.848301
-0.789536
-0.734093
-0.683716
-0.639890
-0.604040
-0.577991
-0.563885
-0.563441
-0.577433
-0.605693
-0.647153
-0.699758
-0.760477
-0.825505
-0.890747
-0.952581
-1.008387
-1.056441
-1.095567
-1.125002
-1.144285
-1.153144
-1.151622
-1.140100
-1.118964
-1.088552
-1.049485
-1.002760
-0.949664
-0.891808
-0.830994
-0.768930
-0.707274
-0.647940
-0.593054
-0.544507
-0.503634
-0.471119
-0.446886
-0.430016
-0.418929
-0.411772
-0.406678
-0.401736
-0.394866
-0.384024
-0.367670
-0.344952
-0.315493
-0.279106
-0.235653
-0.185107
-0.127759
-0.064346
0.004187
0.077165
0.154402
0.236173
0.323210
0.416639
0.517633
0.626930
0.744452
0.869160
0.999152
1.131952
1.264913
1.395594
1.522085
1.643172
1.758290
1.867350
1.970597
2.068536
2.161802
2.250967
2.336352
2.417879
2.495091
2.567277
2.633451
2.692292
2.742276
2.781794
2.809184
2.823021
2.822576
2.808064
2.780574
2.741811
2.693862
2.639150
2.580400
2.520278
2.460993
2.404192
2.350979
2.301933
2.257195
2.216569
2.179517
2.145151
2.112266
2.079437
2.045198
2.008273
1.967729
1.922849
1.872782
1.816490
1.753028
1.681854
1.602813
1.515846
1.420832
1.317825
1.207210
1.089596
0.965875
0.837453
0.706288
0.574763
0.445533
0.321415
0.205365
0.100413
0.009265
-0.066168
-0.124868
-0.166624
-0.192032
-0.202325
-0.199079
-0.184121
-0.159493
-0.127217
-0.088989
-0.046151
0.000111
0.048645
0.098318
0.148100
0.197156
0.244778
0.290302
0.333229
0.373230
0.409819
0.442116
0.469001
0.489480
0.503042
0.509845
0.510631
0.506520
0.498903
0.489471
0.480188
0.473148
0.470356
0.473348
0.482755
0.498210
0.518672
0.542856
0.569535
0.597613
0.626017
0.653569
0.679059
0.701537
0.720442
0.735499
0.746700
0.754315
0.758820
0.760900
0.761470
0.761584
0.762288
0.764399
0.768152
0.772890
0.777183
0.779318
0.777781
0.771494
0.759772
0.742300
0.719281
0.691463
0.659745
0.624741
0.586658
0.545450
0.501084
0.453861
0.404555
0.354242
0.304036
0.254909
0.207599
0.162708
0.121003
0.083477
0.051022
0.024226
0.003389
-0.011588
-0.021266
-0.026468
-0.028122
-0.027339
-0.025472
-0.023932
-0.023889
-0.026034
-0.030579
-0.037438
-0.046313
-0.056567
-0.067186
-0.077077
-0.085501
-0.092260
-0.097512
-0.101365
-0.103380
-0.102284
-0.096266
-0.083618
-0.063081
-0.033766
0.005017
0.053762
0.112705
0.181874
0.261066
0.349672
0.446619
0.550562
0.660004
0.773101
0.887507
1.000476
1.109026
1.210115
1.300717
1.377852
1.438709
1.481028
1.503520
1.505743
1.487624
1.449551
1.392746
1.319033
1.230345
1.128709
1.016486
0.896550
0.772381
0.647893
0.526894
0.412632
0.307694
0.214099
0.133413
0.066795
0.014947
-0.021894
-0.043844
-0.051420
-0.045780
-0.028803
-0.002741
0.030198
0.067968
0.108728
0.150899
0.193013
0.233537
0.271052
0.304576
0.333523
0.357422
0.375660
0.387417
0.391757
0.387704
0.374348
0.351007
0.317543
0.274800
0.224544
0.168845
0.109651
0.048707
-0.012484
-0.072703
-0.130689
-0.184877
-0.233978
-0.277508
-0.315464
-0.348095
-0.375929
-0.399303
-0.417838
-0.430641
-0.436938
-0.436334
-0.428583
-0.413604
-0.391740
-0.363885
-0.331486
-0.296156
-0.259275
-0.222095
-0.185835
-0.151440
-0.119280
-0.089137
-0.060371
-0.031878
-0.002169
0.030205
0.066361
0.106904
0.151755
0.200320
0.251884
0.305733
0.361186
0.417696
0.474666
0.531092
0.585722
0.637466
0.685251
0.727998
0.765454
0.798563
0.828403
0.855296
0.879043
0.899166
0.914777
0.924841
0.928616
0.925490
0.914695
0.895832
0.869552
0.837273
0.800535
0.760976
0.720424
0.680553
0.642634
0.607672
0.576397
0.549096
0.525610
0.505237
0.486717
0.468848
0.451017
0.433160
0.415818
0.400121
0.387349
0.378782
0.376001
0.380855
0.394828
0.418385
0.451088
0.492266
0.541348
0.597646
0.659963
0.726392
0.794655
0.862576
0.928166
0.989598
1.045272
1.093729
1.133770
1.164837
1.187115
1.201271
1.208087
1.208194
1.202007
1.189812
1.171945
1.149070
1.122393
1.093449
1.063682
1.034252
1.006088
0.980196
0.957894
0.940442
0.928713
0.923432
0.925297
0.934534
0.950449
0.971702
0.997033
1.025336
1.055155
1.084741
1.112585
1.137648
1.159142
1.176333
1.188594
1.195281
1.195503
1.188277
1.172881
1.148967
1.116388
1.074991
1.024812
0.966380
0.900505
0.827792
0.748755
0.664453
0.576756
0.487974
0.400537
0.316889
0.239154
0.168878
0.107225
0.055006
0.012330
-0.021535
-0.047901
-0.068318
-0.084368
-0.097616
-0.109694
-0.122298
-0.136932
-0.154715
-0.176300
-0.201757
-0.230659
-0.262364
-0.296168
-0.331338
-0.367054
-0.402341
-0.436281
-0.468198
-0.497556
-0.523782
-0.546105
-0.563606
-0.575522
-0.581366
-0.580778
-0.573310
-0.558455
-0.536059
-0.506462
-0.470197
-0.427855
-0.380030
-0.327165
-0.269526
-0.207336
-0.140850
-0.070202
0.004896
0.085198
0.171540
0.264366
0.363642
0.469222
0.580978
0.698456
0.820718
0.946508
1.074284
1.202227
1.328426
1.451145
1.568873
1.680215
1.783936
1.879189
1.965731
2.044100
2.115597
2.181893
2.244609
2.305090
2.364205
2.422229
2.479064
2.534480
2.588101
2.639288
2.687112
2.730416
2.767951
2.798664
2.821877
2.837074
2.843750
2.841563
2.830406
2.810223
2.780878
2.742253
2.694329
2.637129
2.570802
2.495790
2.412914
2.323454
2.229269
2.132610
2.035589
1.939938
1.847137
1.758415
1.674644
1.596624
1.525546
1.462957
1.410184
1.367717
1.335060
1.311139
1.294919
1.285790
1.283325
1.286739
1.294943
1.307051
1.322454
1.340503
1.360473
1.381602
1.403009
1.423937
1.444106
1.463512
1.482081
1.499761
1.516720
1.533205
1.549379
1.565339
1.581116
1.596796
1.612857
1.630149
1.649517
1.671752
1.697771
1.728330
1.763626
1.803361
1.846959
1.893647
1.942545
1.992727
2.043034
2.091900
2.137556
2.178429
2.213289
2.241282
2.261949
2.274956
2.279774
2.275732
2.262322
2.239425
2.207347
2.166689
2.118110
2.062279
2.000066
1.932635
1.861266
1.787119
1.711086
1.633885
1.556313
1.479306
1.403703
1.330069
1.258692
1.189590
1.122396
1.056357
0.990500
0.923731
0.854839
0.782699
0.706543
0.626068
0.541422
0.453079
0.361585
0.267523
0.171669
0.075078
-0.020980
-0.115141
-0.206101
-0.292810
-0.374516
-0.450622
-0.520613
-0.584193
-0.641358
-0.692253
-0.737023
-0.775797
-0.808664
-0.835647
-0.856799
-0.872363
-0.882840
-0.888954
-0.891561
-0.891490
-0.889364
-0.885502
-0.880018
-0.873030
-0.864833
-0.855983
-0.847185
-0.839082
-0.832208
-0.827023
-0.823785
-0.822406
-0.822618
-0.824334
-0.827837
-0.833705
-0.842602
-0.855012
-0.871138
-0.891033
-0.914763
-0.942442
-0.974134
-1.009710
-1.048653
-1.090104
-1.133241
-1.177521
-1.222561
-1.267998
-1.313511
-1.358842
-1.403739
-1.448031
-1.491807
-1.535460
-1.579588
-1.624923
-1.672168
-1.721711
-1.773540
-1.827394
-1.882743
-1.938703
-1.994129
-2.047711
-2.098021
-2.143608
-2.183130
-2.215320
-2.238823
-2.252219
-2.254245
-2.243891
-2.220380
-2.183315
-2.132907
-2.069998
-1.995844
-1.911870
-1.819565
-1.720456
-1.615995
-1.507391
-1.395548
-1.281247
-1.165436
-1.049382
-0.934690
-0.823209
-0.716841
-0.617330
-0.526026
-0.443778
-0.370969
-0.307580
-0.253340
-0.207882
-0.170795
-0.141498
-0.119042
-0.102164
-0.089602
-0.080304
-0.073427
-0.068190
-0.063801
-0.059611
-0.055194
-0.050197
-0.044354
-0.037644
-0.030176
-0.021885
-0.012497
-0.001726
0.010592
0.024389
0.039357
0.055030
0.070688
0.085236
0.097452
0.106197
0.110320
0.108636
0.100197
0.084554
0.061830
0.032669
-0.001948
-0.040863
-0.082745
-0.126132
-0.169746
-0.212674
-0.254162
-0.293424
-0.329612
-0.361795
-0.389042
-0.410671
-0.426347
-0.435945
-0.439397
-0.436586
-0.427229
-0.410895
-0.387145
-0.355547
-0.315654
-0.267191
-0.210277
-0.145387
-0.073163
0.005699
0.090539
0.180785
0.275726
0.374263
0.475210
0.577847
0.681950
0.787437
0.894066
1.001405
1.109082
1.216964
1.324948
1.432722
1.539871
1.646060
1.750946
1.854016
1.954628
2.052056
2.145466
2.233993
2.316915
2.393662
2.463664
2.526257
2.580690
2.626334
2.663033
2.691079
2.710810
2.722408
2.725927
2.721285
2.708328
2.686972
2.657226
2.619164
2.572961
2.518936
2.457622
2.389806
2.316381
2.238196
2.156042
2.070593
1.982287
1.891395
1.798168
1.702875
1.605806
1.507247
1.407250
1.305442
1.201287
1.094519
0.985260
0.873978
0.761512
0.648888
0.536969
0.426371
0.317600
0.211141
0.107512
0.007247
-0.089218
-0.181557
-0.269353
-0.351989
-0.428798
-0.499273
-0.563222
-0.620866
-0.672797
-0.719635
-0.761652
-0.798885
-0.831564
-0.860099
-0.884817
-0.905990
-0.923943
-0.939031
-0.951734
-0.962723
-0.972576
-0.981445
-0.989053
-0.994854
-0.998163
-0.998365
-0.995061
-0.988046
-0.977212
-0.962513
-0.944012
-0.921964
-0.896855
-0.869425
-0.840656
-0.811711
-0.783865
-0.758442
-0.736760
-0.720013
-0.708912
-0.703375
-0.702721
-0.706159
-0.713063
-0.722992
-0.735676
-0.750924
-0.768460
-0.787975
-0.809379
-0.832821
-0.858343
-0.885585
-0.913776
-0.941928
-0.969155
-0.994986
-1.019481
-1.042917
-1.065328
-1.086454
-1.106120
-1.124480
-1.141747
-1.157753
-1.172028
-1.184299
-1.194719
-1.203759
-1.212120
-1.220573
-1.229594
-1.239135
-1.248818
-1.258261
-1.267103
-1.274835
-1.280754
-1.284197
-1.284798
-1.282500
-1.277362
-1.269387
-1.258408
-1.244118
-1.226325
-1.205183
-1.181166
-1.154916
-1.127123
-1.098449
-1.069538
-1.041194
-1.014431
-0.990250
-0.969343
-0.952047
-0.938573
-0.929179
-0.924063
-0.923302
-0.926934
-0.934815
-0.946423
-0.961001
-0.977916
-0.996782
-1.017303
-1.039082
-1.061530
-1.083928
-1.105626
-1.126182
-1.145361
-1.162963
-1.178673
-1.192172
-1.203353
-1.212365
-1.219561
-1.225412
-1.230450
-1.235184
-1.239938
-1.244628
-1.248703
-1.251366
-1.251883
-1.249734
-1.244605
-1.236312
-1.224722
-1.209759
-1.191401
-1.169644
-1.144609
-1.116679
-1.086316
-1.053753
-1.019080
-0.982574
-0.944740
-0.906014
-0.866578
-0.826525
-0.786057
-0.745441
-0.704997
-0.665230
-0.626744
-0.589834
-0.554358
-0.520043
-0.486730
-0.454377
-0.422956
-0.392321
-0.362161
-0.332159
-0.302200
-0.272452
-0.243376
-0.215647
-0.189841
-0.166121
-0.144289
-0.124080
-0.105256
-0.087558
-0.070759
-0.054755
-0.039485
-0.024803
-0.010533
0.003463
0.017307
0.031091
0.044761
0.058102
0.070733
0.082091
0.091444
0.097994
0.101086
0.100409
0.096029
0.088211
0.077175
0.063008
0.045795
0.025762
0.003259
-0.021398
-0.048003
-0.076387
-0.106469
-0.138379
-0.172392
-0.208637
-0.246881
-0.286567
-0.327149
-0.368417
-0.410462
-0.453379
-0.497004
-0.540828
-0.584051
-0.625812
-0.665445
-0.702482
-0.736457
-0.766854
-0.793274
