EVENT_NAME: CENTRAL_ITALY
EVENT_ID: EMSC-20160824_0000013
EVENT_DATE_YYYYMMDD: 20160824
EVENT_TIME_HHMMSS: 023329
EVENT_LATITUDE_DEGREE: 42.7935
EVENT_LONGITUDE_DEGREE: 13.1537
EVENT_DEPTH_KM: 8.7
HYPOCENTER_REFERENCE: INGV-webservice
MAGNITUDE_W: 5.3
MAGNITUDE_W_REFERENCE: INGV-webservice
MAGNITUDE_L: 5.4
MAGNITUDE_L_REFERENCE: INGV-webservice
FOCAL_MECHANISM: NF
NETWORK: IT
STATION_CODE: NRC
STATION_NAME: NORCIA
STATION_LATITUDE_DEGREE: 42.792543
STATION_LONGITUDE_DEGREE: 13.096475
STATION_ELEVATION_M: 616
LOCATION: 
SENSOR_DEPTH_M: 0.0
VS30_M/S: 687
SITE_CLASSIFICATION_EC8: B
MORPHOLOGIC_CLASSIFICATION: SL
EPICENTRAL_DISTANCE_KM: 4.7
EARTHQUAKE_BACKAZIMUTH_DEGREE: 88.7
DATE_TIME_FIRST_SAMPLE_YYYYMMDD_HHMMSS: 20160824_023324.704
DATE_TIME_FIRST_SAMPLE_PRECISION: milliseconds
SAMPLING_INTERVAL_S: 0.005000
NDATA: 9429
DURATION_S: 47.145
STREAM: HGZ
UNITS: cm
INSTRUMENT: sensor = Unknown [Unknown] | digitizer = Unknown [Unknown]
INSTRUMENT_ANALOG/DIGITAL: D
INSTRUMENTAL_FREQUENCY_HZ: 
INSTRUMENTAL_DAMPING: 
FULL_SCALE_G: 
N_BIT_DIGITAL_CONVERTER: 
PGD_CM: -0.719445
TIME_PGD_S: 9.160000
BASELINE_CORRECTION: BASELINE REMOVED
FILTER_TYPE: BUTTERWORTH
FILTER_ORDER: 2
LOW_CUT_FREQUENCY_HZ: 0.070
HIGH_CUT_FREQUENCY_HZ: 30.000
LATE/NORMAL_TRIGGERED: NT
DATABASE_VERSION: DYNA 1.0
HEADER_FORMAT: DYNA 1.2
DATA_TYPE: DISPLACEMENT
PROCESSING: manual (Paolucci et al., 2011)
DATA_TIMESTAMP_YYYYMMDD_HHMMSS: 20160825_170450.371
DATA_LICENSE: CC-BY3_0-IT (http://creativecommons.org/licenses/by/3.0/deed.en)
DATA_CITATION: ESM working group (2015), European Strong-Motion database, version 0.1, Network Activity 3: Networking acceleration networks and SM data users. Project NERA (www.nera-eu.org)
DATA_CREATOR: ESM working group
ORIGINAL_DATA_MEDIATOR_CITATION: Ufficio Rischio Sismico e Vulcanico del Dipartimento della Protezione Civile (http://www.protezionecivile.gov.it/)
ORIGINAL_DATA_MEDIATOR: Rete Accelerometrica Nazionale - RAN Download (http://www.mot1.it/randownload/)
ORIGINAL_DATA_CREATOR_CITATION: Italian Strong Motion Network, Italian Civil Protection Department http://www.protezionecivile.gov.it
ORIGINAL_DATA_CREATOR: network: IT (Italian Strong Motion Network); owner: Dipartimento Della Protezione Civile
USER1: /home/dyna/processing-itaca/processing.py /var/www/processing//tmp/Maria//IT.NRC..HGE.D.20160824.023329.X.ACC.ASC /var/www/processing//tmp/Maria//IT.NRC..HGN.D.20160824.023329.X.ACC.ASC /var/www/processing//tmp/Maria//IT.NRC..HGZ.D.20160824.023329.X.ACC.ASC --tmp /var/www/processing//tmp/Maria/ --le 0.070 --he 30.000 --ln 0.070 --hn 30.000 --lz 0.070 --hz 30.000 --fo 2 --ca 0 --cz 60 --ta 5 --tz 5 --mf 1 --rf 0 --tr NT
USER2: 
USER3: 
USER4: 
USER5: 
[...]
2.126277e-02
2.135252e-02
2.144464e-02
2.153947e-02
2.163699e-02
2.173686e-02
2.183851e-02
2.194113e-02
2.204368e-02
2.214503e-02
2.224438e-02
2.234157e-02
2.243714e-02
2.253210e-02
2.262752e-02
2.272421e-02
2.282256e-02
2.292261e-02
2.302409e-02
2.312651e-02
2.322930e-02
2.333198e-02
2.343432e-02
2.353651e-02
2.363891e-02
2.374173e-02
2.384481e-02
2.394759e-02
2.404943e-02
2.415013e-02
2.425021e-02
2.435078e-02
2.445304e-02
2.455764e-02
2.466439e-02
2.477248e-02
2.488079e-02
2.498829e-02
2.509432e-02
2.519881e-02
2.530213e-02
2.540481e-02
2.550731e-02
2.560984e-02
2.571241e-02
2.581495e-02
2.591762e-02
2.602070e-02
2.612422e-02
2.622783e-02
2.633105e-02
2.643366e-02
2.653586e-02
2.663815e-02
2.674113e-02
2.684514e-02
2.695011e-02
2.705567e-02
2.716145e-02
2.726741e-02
2.737380e-02
2.748092e-02
2.758885e-02
2.769748e-02
2.780664e-02
2.791628e-02
2.802648e-02
2.813737e-02
2.824898e-02
2.836109e-02
2.847331e-02
2.858524e-02
2.869665e-02
2.880757e-02
2.891812e-02
2.902837e-02
2.913830e-02
2.924802e-02
2.935787e-02
2.946837e-02
2.957992e-02
2.969258e-02
2.980600e-02
2.991968e-02
3.003330e-02
3.014681e-02
3.026027e-02
3.037373e-02
3.048713e-02
3.060033e-02
3.071328e-02
3.082621e-02
3.093970e-02
3.105439e-02
3.117055e-02
3.128793e-02
3.140578e-02
3.152319e-02
3.163950e-02
3.175451e-02
3.186857e-02
3.198219e-02
3.209573e-02
3.220920e-02
3.232249e-02
3.243578e-02
3.254958e-02
3.266456e-02
3.278108e-02
3.289886e-02
3.301710e-02
3.313496e-02
3.325204e-02
3.336843e-02
3.348458e-02
3.360097e-02
3.371778e-02
3.383493e-02
3.395217e-02
3.406951e-02
3.418730e-02
3.430615e-02
3.442666e-02
3.454913e-02
3.467347e-02
3.479920e-02
3.492556e-02
3.505173e-02
3.517708e-02
3.530121e-02
3.542400e-02
3.554567e-02
3.566677e-02
3.578800e-02
3.590987e-02
3.603251e-02
3.615557e-02
3.627850e-02
3.640082e-02
3.652235e-02
3.664315e-02
3.676346e-02
3.688356e-02
3.700368e-02
3.712388e-02
3.724426e-02
3.736512e-02
3.748679e-02
3.760943e-02
3.773290e-02
3.785692e-02
3.798136e-02
3.810635e-02
3.823216e-02
3.835891e-02
3.848639e-02
3.861417e-02
3.874183e-02
3.886932e-02
3.899708e-02
3.912583e-02
3.925612e-02
3.938785e-02
3.952026e-02
3.965237e-02
3.978348e-02
3.991341e-02
4.004249e-02
4.017119e-02
4.029987e-02
4.042864e-02
4.055737e-02
4.068596e-02
4.081452e-02
4.094336e-02
4.107281e-02
4.120290e-02
4.133334e-02
4.146359e-02
4.159331e-02
4.172266e-02
4.185227e-02
4.198281e-02
4.211468e-02
4.224790e-02
4.238225e-02
4.251749e-02
4.265347e-02
4.279009e-02
4.292719e-02
4.306438e-02
4.320109e-02
4.333695e-02
4.347205e-02
4.360698e-02
4.374242e-02
4.387891e-02
4.401666e-02
4.415574e-02
4.429617e-02
4.443801e-02
4.458128e-02
4.472590e-02
4.487145e-02
4.501712e-02
4.516186e-02
4.530479e-02
4.544553e-02
4.558436e-02
4.572200e-02
4.585935e-02
4.599712e-02
4.613565e-02
4.627488e-02
4.641461e-02
4.655459e-02
4.669463e-02
4.683456e-02
4.697429e-02
4.711382e-02
4.725313e-02
4.739215e-02
4.753078e-02
4.766901e-02
4.780708e-02
4.794550e-02
4.808482e-02
4.822542e-02
4.836732e-02
4.851002e-02
4.865267e-02
4.879433e-02
4.893455e-02
4.907364e-02
4.921251e-02
4.935216e-02
4.949307e-02
4.963501e-02
4.977733e-02
4.991941e-02
5.006108e-02
5.020270e-02
5.034491e-02
5.048797e-02
5.063156e-02
5.077507e-02
5.091809e-02
5.106079e-02
5.120383e-02
5.134791e-02
5.149333e-02
5.163989e-02
5.178714e-02
5.193490e-02
5.208353e-02
5.223371e-02
5.238590e-02
5.253989e-02
5.269495e-02
5.285031e-02
5.300561e-02
5.316090e-02
5.331633e-02
5.347192e-02
5.362736e-02
5.378215e-02
5.393591e-02
5.408861e-02
5.424061e-02
5.439234e-02
5.454412e-02
5.469614e-02
5.484853e-02
5.500159e-02
5.515569e-02
5.531117e-02
5.546807e-02
5.562593e-02
5.578381e-02
5.594057e-02
5.609533e-02
5.624800e-02
5.639929e-02
5.655039e-02
5.670225e-02
5.685531e-02
5.700957e-02
5.716492e-02
5.732138e-02
5.747900e-02
5.763765e-02
5.779686e-02
5.795591e-02
5.811408e-02
5.827092e-02
5.842637e-02
5.858084e-02
5.873505e-02
5.888976e-02
5.904545e-02
5.920228e-02
5.936017e-02
5.951901e-02
5.967874e-02
5.983931e-02
6.000055e-02
6.016224e-02
6.032424e-02
6.048633e-02
6.064819e-02
6.080938e-02
6.096952e-02
6.112858e-02
6.128706e-02
6.144578e-02
6.160562e-02
6.176708e-02
6.193011e-02
6.209420e-02
6.225864e-02
6.242298e-02
6.258713e-02
6.275142e-02
6.291635e-02
6.308235e-02
6.324957e-02
6.341772e-02
6.358615e-02
6.375411e-02
6.392090e-02
6.408612e-02
6.424966e-02
6.441173e-02
6.457283e-02
6.473362e-02
6.489470e-02
6.505645e-02
6.521907e-02
6.538277e-02
6.554770e-02
6.571388e-02
6.588100e-02
6.604847e-02
6.621557e-02
6.638176e-02
6.654679e-02
6.671074e-02
6.687404e-02
6.703738e-02
6.720159e-02
6.736731e-02
6.753474e-02
6.770366e-02
6.787350e-02
6.804363e-02
6.821351e-02
6.838281e-02
6.855147e-02
6.871959e-02
6.888734e-02
6.905489e-02
6.922231e-02
6.938965e-02
6.955690e-02
6.972414e-02
6.989157e-02
7.005934e-02
7.022742e-02
7.039567e-02
7.056399e-02
7.073252e-02
7.090145e-02
7.107097e-02
7.124113e-02
7.141194e-02
7.158345e-02
7.175580e-02
7.192916e-02
7.210358e-02
7.227886e-02
7.245444e-02
7.262967e-02
7.280402e-02
7.297737e-02
7.314999e-02
7.332236e-02
7.349493e-02
7.366798e-02
7.384177e-02
7.401667e-02
7.419319e-02
7.437180e-02
7.455264e-02
7.473495e-02
7.491648e-02
7.509316e-02
7.526003e-02
7.541405e-02
7.555727e-02
7.569703e-02
7.584068e-02
7.598646e-02
7.611539e-02
7.619131e-02
7.617439e-02
7.604436e-02
7.581863e-02
7.555101e-02
7.530985e-02
7.514754e-02
7.507845e-02
7.507861e-02
7.510768e-02
7.513975e-02
7.518343e-02
7.527768e-02
7.546528e-02
7.576379e-02
7.615586e-02
7.660343e-02
7.707062e-02
7.753973e-02
7.801438e-02
7.850917e-02
7.903056e-02
7.956126e-02
8.006172e-02
8.048897e-02
8.081984e-02
8.106301e-02
8.125255e-02
8.142750e-02
8.161064e-02
8.179798e-02
8.196196e-02
8.206569e-02
8.208263e-02
8.201144e-02
8.187707e-02
8.171877e-02
8.157317e-02
8.146082e-02
8.138453e-02
8.134353e-02
8.135284e-02
8.144774e-02
8.166916e-02
8.204474e-02
8.257535e-02
8.322826e-02
8.394281e-02
8.465045e-02
8.529234e-02
8.581644e-02
8.616386e-02
8.627027e-02
8.609168e-02
8.564021e-02
8.500238e-02
8.431589e-02
8.370931e-02
8.324106e-02
8.287924e-02
8.253933e-02
8.215938e-02
8.176241e-02
8.146153e-02
8.140435e-02
8.169531e-02
8.234332e-02
8.326106e-02
8.431465e-02
8.539664e-02
8.647842e-02
8.760828e-02
8.885804e-02
9.024931e-02
9.170068e-02
9.303647e-02
9.406848e-02
9.469984e-02
9.497016e-02
9.501045e-02
9.494739e-02
9.482335e-02
9.458202e-02
9.412567e-02
9.340328e-02
9.247157e-02
9.149245e-02
9.067321e-02
9.018692e-02
9.011235e-02
9.041859e-02
9.099652e-02
9.171045e-02
9.243717e-02
9.308533e-02
9.360670e-02
9.400338e-02
9.432263e-02
9.463459e-02
9.499866e-02
9.543119e-02
9.589278e-02
9.631810e-02
9.668682e-02
9.707833e-02
9.764682e-02
9.853414e-02
9.980200e-02
1.014242e-01
1.033067e-01
1.053029e-01
1.072391e-01
1.089691e-01
1.104246e-01
1.116148e-01
1.125886e-01
1.134085e-01
1.141567e-01
1.149479e-01
1.159281e-01
1.172591e-01
1.190816e-01
1.214418e-01
1.241996e-01
1.269985e-01
1.293597e-01
1.308515e-01
1.312229e-01
1.304590e-01
1.287892e-01
1.266448e-01
1.245345e-01
1.228688e-01
1.218298e-01
1.213522e-01
1.211861e-01
1.209843e-01
1.203925e-01
1.191646e-01
1.172819e-01
1.149952e-01
1.127351e-01
1.109419e-01
1.099183e-01
1.097507e-01
1.102873e-01
1.111777e-01
1.119857e-01
1.123443e-01
1.120808e-01
1.112523e-01
1.100785e-01
1.088037e-01
1.075422e-01
1.061903e-01
1.044741e-01
1.021257e-01
9.908634e-02
9.560253e-02
9.215657e-02
8.927754e-02
8.732696e-02
8.634275e-02
8.602092e-02
8.588035e-02
8.553493e-02
8.488526e-02
8.409266e-02
8.338494e-02
8.286910e-02
8.247494e-02
8.202106e-02
8.133417e-02
8.037481e-02
7.933874e-02
7.868852e-02
7.906050e-02
8.104513e-02
8.494581e-02
9.066061e-02
9.774052e-02
1.055558e-01
1.134647e-01
1.209293e-01
1.275705e-01
1.331596e-01
1.375656e-01
1.407254e-01
1.426713e-01
1.435849e-01
1.438193e-01
1.438656e-01
1.442553e-01
1.454150e-01
1.475479e-01
1.506267e-01
1.544998e-01
1.590117e-01
1.640393e-01
1.694274e-01
1.749090e-01
1.801230e-01
1.847445e-01
1.886128e-01
1.917459e-01
1.942601e-01
1.962790e-01
1.978815e-01
1.990964e-01
1.999442e-01
2.005054e-01
2.009622e-01
2.015603e-01
2.024998e-01
2.038440e-01
2.055277e-01
2.074463e-01
2.095336e-01
2.117823e-01
2.142488e-01
2.170784e-01
2.205095e-01
2.247984e-01
2.300852e-01
2.362816e-01
2.430538e-01
2.499237e-01
2.564532e-01
2.624215e-01
2.678919e-01
2.731389e-01
2.785006e-01
2.842420e-01
2.904899e-01
2.972485e-01
3.044496e-01
3.119778e-01
3.196518e-01
3.272014e-01
3.342912e-01
3.406114e-01
3.459843e-01
3.504152e-01
3.540568e-01
3.571244e-01
3.598045e-01
3.621908e-01
3.642733e-01
3.659903e-01
3.673011e-01
3.682099e-01
3.687281e-01
3.688309e-01
3.684582e-01
3.675396e-01
3.659958e-01
3.637123e-01
3.605430e-01
3.564020e-01
3.513966e-01
3.458755e-01
3.403328e-01
3.352178e-01
3.307301e-01
3.266836e-01
3.225381e-01
3.176108e-01
3.113397e-01
3.034599e-01
2.940402e-01
2.834071e-01
2.720150e-01
2.603286e-01
2.487603e-01
2.376479e-01
2.272244e-01
2.175803e-01
2.086642e-01
2.003288e-01
1.923997e-01
1.847517e-01
1.773631e-01
1.702942e-01
1.635916e-01
1.571984e-01
1.509426e-01
1.446000e-01
1.379834e-01
1.310269e-01
1.238472e-01
1.167340e-01
1.100511e-01
1.041332e-01
9.927159e-02
9.574164e-02
9.376979e-02
9.344376e-02
9.465533e-02
9.711866e-02
1.004373e-01
1.041953e-01
1.080613e-01
1.118655e-01
1.156072e-01
1.193919e-01
1.233380e-01
1.275047e-01
1.318657e-01
1.363248e-01
1.407519e-01
1.450020e-01
1.489059e-01
1.522591e-01
1.548486e-01
1.565371e-01
1.573699e-01
1.576164e-01
1.576738e-01
1.578776e-01
1.583616e-01
1.590668e-01
1.598762e-01
1.607682e-01
1.618934e-01
1.635310e-01
1.659311e-01
1.691197e-01
1.727967e-01
1.764271e-01
1.794838e-01
1.816720e-01
1.829882e-01
1.836103e-01
1.837237e-01
1.833861e-01
1.824935e-01
1.808857e-01
1.785397e-01
1.757192e-01
1.729679e-01
1.709322e-01
1.700920e-01
1.705399e-01
1.719346e-01
1.736583e-01
1.750854e-01
1.758296e-01
1.758727e-01
1.755273e-01
1.752437e-01
1.753504e-01
1.758687e-01
1.765034e-01
1.768098e-01
1.764299e-01
1.752597e-01
1.734554e-01
1.712835e-01
1.689291e-01
1.664038e-01
1.636089e-01
1.604822e-01
1.571121e-01
1.537518e-01
1.507243e-01
1.482646e-01
1.463854e-01
1.448510e-01
1.432733e-01
1.412632e-01
1.385493e-01
1.350146e-01
1.306616e-01
1.255612e-01
1.198339e-01
1.136481e-01
1.071867e-01
1.005863e-01
9.391149e-02
8.719926e-02
8.052865e-02
7.404616e-02
6.793518e-02
6.237926e-02
5.756195e-02
5.368879e-02
5.098185e-02
4.962325e-02
4.966640e-02
5.094397e-02
5.301308e-02
5.519850e-02
5.676277e-02
5.713779e-02
5.609088e-02
5.374099e-02
5.043707e-02
4.656932e-02
4.238759e-02
3.789150e-02
3.284459e-02
2.690717e-02
1.979805e-02
1.139586e-02
1.772153e-03
-8.823451e-03
-2.003253e-02
-3.149335e-02
-4.292292e-02
-5.414575e-02
-6.508689e-02
-7.573966e-02
-8.610607e-02
-9.613228e-02
-1.056779e-01
-1.145391e-01
-1.225091e-01
-1.294373e-01
-1.352606e-01
-1.400130e-01
-1.438234e-01
-1.469046e-01
-1.495120e-01
-1.518693e-01
-1.540998e-01
-1.562213e-01
-1.581999e-01
-1.599833e-01
-1.614712e-01
-1.624681e-01
-1.626976e-01
-1.619065e-01
-1.600072e-01
-1.571734e-01
-1.538363e-01
-1.505942e-01
-1.480733e-01
-1.467879e-01
-1.470383e-01
-1.488701e-01
-1.520910e-01
-1.563272e-01
-1.610964e-01
-1.658884e-01
-1.702446e-01
-1.738282e-01
-1.764752e-01
-1.782199e-01
-1.792711e-01
-1.799329e-01
-1.805052e-01
-1.812192e-01
-1.822283e-01
-1.836141e-01
-1.853781e-01
-1.874320e-01
-1.896052e-01
-1.916554e-01
-1.932952e-01
-1.942575e-01
-1.943782e-01
-1.936360e-01
-1.921390e-01
-1.900826e-01
-1.877035e-01
-1.852392e-01
-1.829032e-01
-1.808721e-01
-1.792649e-01
-1.781220e-01
-1.774346e-01
-1.772283e-01
-1.776287e-01
-1.788352e-01
-1.810277e-01
-1.842910e-01
-1.886072e-01
-1.938969e-01
-2.000649e-01
-2.070412e-01
-2.148284e-01
-2.235467e-01
-2.334258e-01
-2.447070e-01
-2.575072e-01
-2.717452e-01
-2.871777e-01
-3.034972e-01
-3.204071e-01
-3.376254e-01
-3.548433e-01
-3.716958e-01
-3.877818e-01
-4.027249e-01
-4.162578e-01
-4.283064e-01
-4.390339e-01
-4.488031e-01
-4.580582e-01
-4.671936e-01
-4.765053e-01
-4.862546e-01
-4.967707e-01
-5.084893e-01
-5.218998e-01
-5.374316e-01
-5.553020e-01
-5.753576e-01
-5.969886e-01
-6.191913e-01
-6.407761e-01
-6.606251e-01
-6.778853e-01
-6.920524e-01
-7.029682e-01
-7.107682e-01
-7.157993e-01
-7.185263e-01
-7.194449e-01
-7.190185e-01
-7.176479e-01
-7.156707e-01
-7.133746e-01
-7.110240e-01
-7.088955e-01
-7.072816e-01
-7.064127e-01
-7.063239e-01
-7.067665e-01
-7.072409e-01
-7.071406e-01
-7.059439e-01
-7.033806e-01
-6.994971e-01
-6.945772e-01
-6.889668e-01
-6.829126e-01
-6.765032e-01
-6.697237e-01
-6.625579e-01
-6.550284e-01
-6.471265e-01
-6.386949e-01
-6.293626e-01
-6.185932e-01
-6.058444e-01
-5.907945e-01
-5.735441e-01
-5.546995e-01
-5.352909e-01
-5.165372e-01
-4.995350e-01
-4.849911e-01
-4.731010e-01
-4.635953e-01
-4.559036e-01
-4.493523e-01
-4.433273e-01
-4.373752e-01
-4.312478e-01
-4.249001e-01
-4.184366e-01
-4.119965e-01
-4.055990e-01
-3.990334e-01
-3.919014e-01
-3.838205e-01
-3.746689e-01
-3.647266e-01
-3.546556e-01
-3.453463e-01
-3.376754e-01
-3.322378e-01
-3.291607e-01
-3.281010e-01
-3.284283e-01
-3.294612e-01
-3.306223e-01
-3.314822e-01
-3.317401e-01
-3.311751e-01
-3.295740e-01
-3.266629e-01
-3.221105e-01
-3.156370e-01
-3.071649e-01
-2.968950e-01
-2.852589e-01
-2.728151e-01
-2.601648e-01
-2.478858e-01
-2.364218e-01
-2.259278e-01
-2.161704e-01
-2.065923e-01
-1.965225e-01
-1.854109e-01
-1.729834e-01
-1.592892e-01
-1.446435e-01
-1.294834e-01
-1.141910e-01
-9.898096e-02
-8.392155e-02
-6.906450e-02
-5.458223e-02
-4.081487e-02
-2.820618e-02
-1.717806e-02
-8.009738e-03
-7.552658e-04
4.804116e-03
9.181276e-03
1.316207e-02
1.771144e-02
2.379960e-02
3.218767e-02
4.324079e-02
5.682762e-02
7.234669e-02
8.889509e-02
1.055307e-01
1.215089e-01
1.363942e-01
1.500399e-01
1.625029e-01
1.739572e-01
1.846322e-01
1.947775e-01
2.046437e-01
2.144530e-01
2.243401e-01
2.342847e-01
2.440877e-01
2.534149e-01
2.618821e-01
2.691395e-01
2.749278e-01
2.791072e-01
2.816581e-01
2.826450e-01
2.821529e-01
2.802399e-01
2.769414e-01
2.723111e-01
2.664781e-01
2.596997e-01
2.523729e-01
2.449674e-01
2.378981e-01
2.314147e-01
2.255802e-01
2.203285e-01
2.155356e-01
2.110441e-01
2.066484e-01
2.020984e-01
1.971510e-01
1.916431e-01
1.855505e-01
1.790184e-01
1.723514e-01
1.659301e-01
1.600608e-01
1.548393e-01
1.501248e-01
1.456353e-01
1.410839e-01
1.362598e-01
1.310266e-01
1.252786e-01
1.189132e-01
1.118417e-01
1.040183e-01
9.546011e-02
8.625816e-02
7.658533e-02
6.668743e-02
5.685396e-02
4.738012e-02
3.852001e-02
3.042479e-02
2.307927e-02
1.627096e-02
9.618691e-03
2.660100e-03
-5.031932e-03
-1.374751e-02
-2.357936e-02
-3.439568e-02
-4.583216e-02
-5.732050e-02
-6.817967e-02
-7.774994e-02
-8.551165e-02
-9.115817e-02
-9.462772e-02
-9.608647e-02
-9.585272e-02
-9.429502e-02
-9.176693e-02
-8.861063e-02
-8.519549e-02
-8.192849e-02
-7.921793e-02
-7.742433e-02
-7.682564e-02
-7.759198e-02
-7.976059e-02
-8.322123e-02
-8.772888e-02
-9.294492e-02
-9.848592e-02
-1.039568e-01
-1.089742e-01
-1.132154e-01
-1.165026e-01
-1.188725e-01
-1.205708e-01
-1.219838e-01
-1.235707e-01
-1.258291e-01
-1.292536e-01
-1.342591e-01
-1.410943e-01
-1.497829e-01
-1.601091e-01
-1.716526e-01
-1.838705e-01
-1.962060e-01
-2.081929e-01
-2.195212e-01
-2.300442e-01
-2.397355e-01
-2.486252e-01
-2.567416e-01
-2.640814e-01
-2.706124e-01
-2.762888e-01
-2.810433e-01
-2.847590e-01
-2.872705e-01
-2.884303e-01
-2.882166e-01
-2.868191e-01
-2.846632e-01
-2.823649e-01
-2.806345e-01
-2.801501e-01
-2.814345e-01
-2.847821e-01
-2.902643e-01
-2.977914e-01
-3.071659e-01
-3.180946e-01
-3.301898e-01
-3.430012e-01
-3.560726e-01
-3.689927e-01
-3.814332e-01
-3.931765e-01
-4.041316e-01
-4.143226e-01
-4.238460e-01
-4.328290e-01
-4.414099e-01
-4.497396e-01
-4.579833e-01
-4.663122e-01
-4.748665e-01
-4.836837e-01
-4.926346e-01
-5.014349e-01
-5.097392e-01
-5.172565e-01
-5.238343e-01
-5.294953e-01
-5.344235e-01
-5.388970e-01
-5.431963e-01
-5.475261e-01
-5.519788e-01
-5.565452e-01
-5.611546e-01
-5.657091e-01
-5.700800e-01
-5.740744e-01
-5.774114e-01
-5.797490e-01
-5.807683e-01
-5.802821e-01
-5.783108e-01
-5.750772e-01
-5.709261e-01
-5.662181e-01
-5.612468e-01
-5.561915e-01
-5.511130e-01
-5.459999e-01
-5.408483e-01
-5.357252e-01
-5.307661e-01
-5.261087e-01
-5.218180e-01
-5.178608e-01
-5.141278e-01
-5.104648e-01
-5.066929e-01
-5.026220e-01
-4.980710e-01
-4.928933e-01
-4.869971e-01
-4.803595e-01
-4.730416e-01
-4.651918e-01
-4.570088e-01
-4.486680e-01
-4.402665e-01
-4.318253e-01
-4.233358e-01
-4.148111e-01
-4.063174e-01
-3.979706e-01
-3.898978e-01
-3.821732e-01
-3.747556e-01
-3.674715e-01
-3.600719e-01
-3.523327e-01
-3.441313e-01
-3.354597e-01
-3.263888e-01
-3.170118e-01
-3.073861e-01
-2.974934e-01
-2.872399e-01
-2.764989e-01
-2.651693e-01
-2.532179e-01
-2.406923e-01
-2.277200e-01
-2.144943e-01
-2.012377e-01
-1.881415e-01
-1.753051e-01
-1.627149e-01
-1.502797e-01
-1.378975e-01
-1.255096e-01
-1.131203e-01
-1.007841e-01
-8.857164e-02
-7.651904e-02
-6.457605e-02
-5.257394e-02
-4.024032e-02
-2.727159e-02
-1.344040e-02
1.313732e-03
1.685622e-02
3.289371e-02
4.904581e-02
6.492645e-02
8.021497e-02
9.469302e-02
1.082363e-01
1.207746e-01
1.322409e-01
1.425191e-01
1.514112e-01
1.586535e-01
1.639925e-01
1.672869e-01
1.685805e-01
1.681134e-01
1.662686e-01
1.634814e-01
1.601429e-01
1.565334e-01
1.528070e-01
1.490289e-01
1.452380e-01
1.414948e-01
1.378883e-01
1.345107e-01
1.314447e-01
1.288008e-01
1.267817e-01
1.256991e-01
1.258999e-01
1.276492e-01
1.310495e-01
1.360285e-01
1.423719e-01
1.497725e-01
1.578828e-01
1.663547e-01
1.748570e-01
