EVENT_NAME: CENTRAL_ITALY
EVENT_ID: EMSC-20161026_0000095
EVENT_DATE_YYYYMMDD: 20161026
EVENT_TIME_HHMMSS: 191806
EVENT_LATITUDE_DEGREE: 42.9087
EVENT_LONGITUDE_DEGREE: 13.1288
EVENT_DEPTH_KM: 7.5
HYPOCENTER_REFERENCE: INGV-CNT_Seismic_Bulletin
MAGNITUDE_W: 5.9
MAGNITUDE_W_REFERENCE: INGV-webservice
MAGNITUDE_L: 5.9
MAGNITUDE_L_REFERENCE: INGV-CNT_Seismic_Bulletin
FOCAL_MECHANISM: NF
NETWORK: IT
STATION_CODE: NRC
STATION_NAME: NORCIA
STATION_LATITUDE_DEGREE: 42.792543
STATION_LONGITUDE_DEGREE: 13.096475
STATION_ELEVATION_M: 616
LOCATION: 
SENSOR_DEPTH_M: 0.0
VS30_M/S: 687
SITE_CLASSIFICATION_EC8: B
MORPHOLOGIC_CLASSIFICATION: SL
EPICENTRAL_DISTANCE_KM: 13.2
EARTHQUAKE_BACKAZIMUTH_DEGREE: 11.6
DATE_TIME_FIRST_SAMPLE_YYYYMMDD_HHMMSS: 20161026_191803.139
DATE_TIME_FIRST_SAMPLE_PRECISION: milliseconds
SAMPLING_INTERVAL_S: 0.005000
NDATA: 11542
DURATION_S: 57.710
STREAM: HGZ
UNITS: cm
INSTRUMENT: sensor = Unknown [Unknown] | digitizer = Unknown [Unknown]
INSTRUMENT_ANALOG/DIGITAL: D
INSTRUMENTAL_FREQUENCY_HZ: 
INSTRUMENTAL_DAMPING: 
FULL_SCALE_G: 
N_BIT_DIGITAL_CONVERTER: 
PGD_CM: 1.217835
TIME_PGD_S: 13.620000
BASELINE_CORRECTION: BASELINE REMOVED
FILTER_TYPE: BUTTERWORTH
FILTER_ORDER: 2
LOW_CUT_FREQUENCY_HZ: 0.040
HIGH_CUT_FREQUENCY_HZ: 30.000
LATE/NORMAL_TRIGGERED: NT
DATABASE_VERSION: DYNA 1.0
HEADER_FORMAT: DYNA 1.2
DATA_TYPE: DISPLACEMENT
PROCESSING: manual (Paolucci et al., 2011)
DATA_TIMESTAMP_YYYYMMDD_HHMMSS: 20161027_011428.535
DATA_LICENSE: CC-BY3_0-IT (http://creativecommons.org/licenses/by/3.0/deed.en)
DATA_CITATION: ESM working group (2015), European Strong-Motion database, version 0.1, Network Activity 3: Networking acceleration networks and SM data users. Project NERA (www.nera-eu.org)
DATA_CREATOR: ESM working group
ORIGINAL_DATA_MEDIATOR_CITATION: Ufficio Rischio Sismico e Vulcanico del Dipartimento della Protezione Civile (http://www.protezionecivile.gov.it/)
ORIGINAL_DATA_MEDIATOR: Rete Accelerometrica Nazionale - RAN Download (http://www.mot1.it/randownload/)
ORIGINAL_DATA_CREATOR_CITATION: Italian Strong Motion Network, Italian Civil Protection Department http://www.protezionecivile.gov.it
ORIGINAL_DATA_CREATOR: network: IT (Italian Strong Motion Network); owner: Dipartimento Della Protezione Civile
USER1: /home/dyna/processing-itaca/processing.py /var/www/processing//tmp/Lucia//IT.NRC..HGE.D.20161026.191806.X.ACC.ASC /var/www/processing//tmp/Lucia//IT.NRC..HGN.D.20161026.191806.X.ACC.ASC /var/www/processing//tmp/Lucia//IT.NRC..HGZ.D.20161026.191806.X.ACC.ASC --tmp /var/www/processing//tmp/Lucia/ --le 0.040 --he 30.000 --ln 0.040 --hn 30.000 --lz 0.040 --hz 30.000 --fo 2 --ca 0 --cz 100 --ta 5 --tz 5 --mf 1 --rf 0 --tr NT
USER2: 
USER3: 
USER4: 
USER5: 
[...]
-6.808491e-02
-7.064346e-02
-7.265854e-02
-7.425866e-02
-7.563142e-02
-7.696266e-02
-7.839462e-02
-8.002151e-02
-8.190948e-02
-8.410349e-02
-8.661133e-02
-8.939123e-02
-9.236139e-02
-9.541985e-02
-9.845800e-02
-1.013657e-01
-1.040324e-01
-1.063489e-01
-1.082170e-01
-1.095801e-01
-1.104601e-01
-1.109799e-01
-1.113573e-01
-1.118698e-01
-1.127909e-01
-1.143215e-01
-1.165523e-01
-1.194652e-01
-1.229525e-01
-1.268399e-01
-1.309259e-01
-1.350342e-01
-1.390402e-01
-1.428470e-01
-1.463467e-01
-1.494125e-01
-1.519218e-01
-1.537809e-01
-1.549441e-01
-1.554359e-01
-1.553806e-01
-1.550186e-01
-1.546881e-01
-1.547649e-01
-1.555653e-01
-1.572325e-01
-1.596516e-01
-1.624465e-01
-1.650888e-01
-1.670870e-01
-1.681569e-01
-1.682792e-01
-1.676309e-01
-1.664551e-01
-1.649541e-01
-1.632536e-01
-1.614339e-01
-1.595890e-01
-1.578644e-01
-1.564461e-01
-1.555026e-01
-1.551072e-01
-1.551785e-01
-1.554733e-01
-1.556406e-01
-1.553140e-01
-1.542028e-01
-1.521571e-01
-1.492070e-01
-1.455734e-01
-1.416447e-01
-1.379153e-01
-1.349034e-01
-1.330603e-01
-1.326871e-01
-1.338779e-01
-1.365173e-01
-1.403282e-01
-1.449360e-01
-1.499215e-01
-1.548657e-01
-1.593878e-01
-1.631605e-01
-1.658988e-01
-1.673479e-01
-1.673058e-01
-1.656790e-01
-1.625393e-01
-1.581575e-01
-1.529944e-01
-1.476203e-01
-1.425502e-01
-1.380322e-01
-1.338830e-01
-1.294770e-01
-1.239426e-01
-1.164895e-01
-1.066994e-01
-9.464234e-02
-8.078656e-02
-6.577352e-02
-5.018347e-02
-3.439530e-02
-1.857197e-02
-2.732983e-03
1.315824e-02
2.915411e-02
4.534290e-02
6.189567e-02
7.909601e-02
9.732055e-02
1.169610e-01
1.383151e-01
1.614914e-01
1.863593e-01
2.125619e-01
2.395981e-01
2.669451e-01
2.941690e-01
3.209816e-01
3.472232e-01
3.727836e-01
3.975251e-01
4.212797e-01
4.439247e-01
4.654679e-01
4.860766e-01
5.060347e-01
5.256587e-01
5.452127e-01
5.648607e-01
5.846808e-01
6.047268e-01
6.250844e-01
6.458840e-01
6.672760e-01
6.893757e-01
7.121827e-01
7.355013e-01
7.589156e-01
7.818492e-01
8.036971e-01
8.239802e-01
8.424661e-01
8.592100e-01
8.744962e-01
8.887020e-01
9.021544e-01
9.150467e-01
9.274442e-01
9.393555e-01
9.508064e-01
9.618543e-01
9.725322e-01
9.827590e-01
9.922642e-01
1.000569e+00
1.007056e+00
1.011149e+00
1.012518e+00
1.011230e+00
1.007713e+00
1.002601e+00
9.965267e-01
9.899573e-01
9.831042e-01
9.759189e-01
9.681900e-01
9.596981e-01
9.503442e-01
9.401729e-01
9.292711e-01
9.176086e-01
9.049299e-01
8.907625e-01
8.745323e-01
8.557379e-01
8.341448e-01
8.099396e-01
7.837658e-01
7.566044e-01
7.295365e-01
7.034794e-01
6.789777e-01
6.561045e-01
6.344968e-01
6.135171e-01
5.924752e-01
5.708118e-01
5.481764e-01
5.244143e-01
4.995285e-01
4.736537e-01
4.470328e-01
4.199797e-01
3.928437e-01
3.660012e-01
3.398686e-01
3.148928e-01
2.914843e-01
2.699098e-01
2.502098e-01
2.321901e-01
2.154823e-01
1.996292e-01
1.841423e-01
1.685105e-01
1.521882e-01
1.346228e-01
1.153636e-01
9.421828e-02
7.138492e-02
4.750184e-02
2.360079e-02
9.751631e-04
-1.901889e-02
-3.518755e-02
-4.667490e-02
-5.302729e-02
-5.415860e-02
-5.027221e-02
-4.177584e-02
-2.920775e-02
-1.319050e-02
5.598980e-03
2.647582e-02
4.882437e-02
7.218855e-02
9.633444e-02
1.212389e-01
1.469903e-01
1.736415e-01
2.010904e-01
2.290406e-01
2.570434e-01
2.845879e-01
3.112134e-01
3.366280e-01
3.607885e-01
3.838832e-01
4.062133e-01
4.280306e-01
4.494140e-01
4.702311e-01
4.901804e-01
5.088724e-01
5.259095e-01
5.409563e-01
5.537928e-01
5.643275e-01
5.725620e-01
5.785354e-01
5.822961e-01
5.839151e-01
5.835047e-01
5.812043e-01
5.771256e-01
5.712916e-01
5.636092e-01
5.538988e-01
5.419602e-01
5.276336e-01
5.108428e-01
4.916265e-01
4.701449e-01
4.466366e-01
4.213245e-01
3.943240e-01
3.656152e-01
3.350967e-01
3.026775e-01
2.683506e-01
2.322336e-01
1.945866e-01
1.558042e-01
1.163628e-01
7.672673e-02
3.726164e-02
-1.793856e-03
-4.028607e-02
-7.808506e-02
-1.150647e-01
-1.511330e-01
-1.862751e-01
-2.205649e-01
-2.541298e-01
-2.870866e-01
-3.194805e-01
-3.512496e-01
-3.822285e-01
-4.121949e-01
-4.409371e-01
-4.683002e-01
-4.941857e-01
-5.185252e-01
-5.412581e-01
-5.623180e-01
-5.816082e-01
-5.989668e-01
-6.141431e-01
-6.268028e-01
-6.365562e-01
-6.430051e-01
-6.458176e-01
-6.448266e-01
-6.401042e-01
-6.319497e-01
-6.207834e-01
-6.070051e-01
-5.908966e-01
-5.726014e-01
-5.521654e-01
-5.296090e-01
-5.050057e-01
-4.785358e-01
-4.504824e-01
-4.211612e-01
-3.908223e-01
-3.595774e-01
-3.273869e-01
-2.941118e-01
-2.596084e-01
-2.238354e-01
-1.869405e-01
-1.492874e-01
-1.114076e-01
-7.388189e-02
-3.719946e-02
-1.659648e-03
3.263797e-02
6.573118e-02
9.771244e-02
1.286660e-01
1.586325e-01
1.875918e-01
2.154612e-01
2.421135e-01
2.674073e-01
2.912134e-01
3.134183e-01
3.339137e-01
3.525865e-01
3.693236e-01
3.840337e-01
3.966704e-01
4.072444e-01
4.158247e-01
4.225313e-01
4.275180e-01
4.309365e-01
4.328931e-01
4.334179e-01
4.324683e-01
4.299675e-01
4.258604e-01
4.201633e-01
4.129936e-01
4.045726e-01
3.951972e-01
3.851844e-01
3.748016e-01
3.642108e-01
3.534516e-01
3.424655e-01
3.311357e-01
3.193256e-01
3.069159e-01
2.938322e-01
2.800453e-01
2.655491e-01
2.503471e-01
2.344625e-01
2.179546e-01
2.009145e-01
1.834402e-01
1.656096e-01
1.474698e-01
1.290407e-01
1.103243e-01
9.131956e-02
7.205083e-02
5.259794e-02
3.310388e-02
1.375078e-02
-5.277550e-03
-2.381539e-02
-4.170494e-02
-5.877585e-02
-7.484059e-02
-8.970400e-02
-1.031663e-01
-1.150146e-01
-1.250199e-01
-1.329441e-01
-1.385500e-01
-1.416125e-01
-1.419472e-01
-1.394674e-01
-1.342467e-01
-1.265465e-01
-1.167834e-01
-1.054551e-01
-9.306922e-02
-8.009812e-02
-6.694926e-02
-5.394157e-02
-4.129902e-02
-2.917597e-02
-1.769947e-02
-6.991133e-03
2.855345e-03
1.182590e-02
2.002355e-02
2.765597e-02
3.497580e-02
4.220758e-02
4.949725e-02
5.690189e-02
6.441281e-02
7.198539e-02
7.955168e-02
8.701550e-02
9.424336e-02
1.010570e-01
1.072334e-01
1.125285e-01
1.167331e-01
1.197380e-01
1.215692e-01
1.223779e-01
1.224038e-01
1.219391e-01
1.213012e-01
1.208007e-01
1.207004e-01
1.211754e-01
1.222937e-01
1.240276e-01
1.262866e-01
1.289515e-01
1.318894e-01
1.349483e-01
1.379480e-01
1.406780e-01
1.429066e-01
1.444022e-01
1.449677e-01
1.444778e-01
1.429005e-01
1.402907e-01
1.367640e-01
1.324642e-01
1.275321e-01
1.220824e-01
1.161927e-01
1.099013e-01
1.032014e-01
9.604159e-02
8.835649e-02
8.012497e-02
7.142101e-02
6.241797e-02
5.334662e-02
4.444595e-02
3.594448e-02
2.807071e-02
2.106365e-02
1.516202e-02
1.057100e-02
7.416863e-03
5.701995e-03
5.274084e-03
5.828583e-03
6.958535e-03
8.242519e-03
9.332845e-03
1.000003e-02
1.011738e-02
9.609069e-03
8.399947e-03
6.388848e-03
3.443429e-03
-5.909838e-04
-5.866845e-03
-1.248902e-02
-2.045785e-02
-2.963276e-02
-3.975693e-02
-5.055359e-02
-6.184598e-02
-7.362591e-02
-8.603471e-02
-9.928157e-02
-1.135474e-01
-1.289061e-01
-1.452811e-01
-1.624540e-01
-1.801346e-01
-1.980639e-01
-2.160919e-01
-2.341923e-01
-2.524181e-01
-2.708392e-01
-2.894929e-01
-3.083604e-01
-3.273680e-01
-3.464008e-01
-3.653153e-01
-3.839477e-01
-4.021249e-01
-4.196782e-01
-4.364546e-01
-4.523198e-01
-4.671636e-01
-4.809119e-01
-4.935383e-01
-5.050538e-01
-5.154709e-01
-5.247603e-01
-5.328298e-01
-5.395356e-01
-5.447262e-01
-5.483010e-01
-5.502581e-01
-5.507025e-01
-5.498048e-01
-5.477336e-01
-5.445986e-01
-5.404289e-01
-5.351879e-01
-5.288117e-01
-5.212464e-01
-5.124672e-01
-5.024763e-01
-4.912918e-01
-4.789449e-01
-4.654952e-01
-4.510655e-01
-4.358719e-01
-4.202224e-01
-4.044775e-01
-3.889932e-01
-3.740687e-01
-3.599125e-01
-3.466326e-01
-3.342562e-01
-3.227712e-01
-3.121644e-01
-3.024331e-01
-2.935670e-01
-2.855243e-01
-2.782244e-01
-2.715623e-01
-2.654352e-01
-2.597743e-01
-2.545711e-01
-2.498851e-01
-2.458291e-01
-2.425353e-01
-2.401226e-01
-2.386829e-01
-2.382872e-01
-2.389928e-01
-2.408284e-01
-2.437616e-01
-2.476738e-01
-2.523602e-01
-2.575592e-01
-2.630027e-01
-2.684793e-01
-2.738932e-01
-2.792887e-01
-2.848255e-01
-2.907194e-01
-2.971734e-01
-3.043223e-01
-3.122033e-01
-3.207560e-01
-3.298453e-01
-3.393018e-01
-3.489725e-01
-3.587740e-01
-3.687256e-01
-3.789395e-01
-3.895683e-01
-4.007347e-01
-4.124747e-01
-4.247149e-01
-4.372921e-01
-4.500068e-01
-4.626869e-01
-4.752352e-01
-4.876379e-01
-4.999315e-01
-5.121401e-01
-5.242193e-01
-5.360378e-01
-5.474085e-01
-5.581513e-01
-5.681508e-01
-5.773757e-01
-5.858571e-01
-5.936463e-01
-6.007736e-01
-6.072233e-01
-6.129270e-01
-6.177786e-01
-6.216736e-01
-6.245621e-01
-6.264907e-01
-6.276122e-01
-6.281588e-01
-6.283916e-01
-6.285437e-01
-6.287723e-01
-6.291371e-01
-6.296141e-01
-6.301365e-01
-6.306385e-01
-6.310819e-01
-6.314576e-01
-6.317710e-01
-6.320224e-01
-6.321952e-01
-6.322629e-01
-6.322126e-01
-6.320742e-01
-6.319348e-01
-6.319298e-01
-6.322092e-01
-6.328965e-01
-6.340591e-01
-6.357000e-01
-6.377681e-01
-6.401814e-01
-6.428553e-01
-6.457294e-01
-6.487848e-01
-6.520488e-01
-6.555887e-01
-6.594995e-01
-6.638886e-01
-6.688540e-01
-6.744513e-01
-6.806573e-01
-6.873557e-01
-6.943623e-01
-7.014852e-01
-7.085965e-01
-7.156829e-01
-7.228543e-01
-7.303083e-01
-7.382653e-01
-7.468980e-01
-7.562795e-01
-7.663655e-01
-7.770203e-01
-7.880781e-01
-7.994108e-01
-8.109693e-01
-8.227872e-01
-8.349575e-01
-8.475922e-01
-8.607726e-01
-8.745002e-01
-8.886700e-01
-9.030854e-01
-9.175071e-01
-9.317035e-01
-9.454780e-01
-9.586680e-01
-9.711325e-01
-9.827452e-01
-9.934015e-01
-1.003033e+00
-1.011613e+00
-1.019162e+00
-1.025727e+00
-1.031376e+00
-1.036173e+00
-1.040166e+00
-1.043366e+00
-1.045754e+00
-1.047282e+00
-1.047879e+00
-1.047454e+00
-1.045916e+00
-1.043200e+00
-1.039290e+00
-1.034240e+00
-1.028169e+00
-1.021255e+00
-1.013707e+00
-1.005729e+00
-9.974833e-01
-9.890490e-01
-9.804061e-01
-9.714346e-01
-9.619342e-01
-9.516581e-01
-9.403686e-01
-9.279015e-01
-9.142128e-01
-8.993808e-01
-8.835705e-01
-8.669903e-01
-8.498623e-01
-8.324159e-01
-8.149008e-01
-7.976134e-01
-7.809142e-01
-7.652136e-01
-7.509106e-01
-7.382991e-01
-7.274853e-01
-7.183562e-01
-7.106201e-01
-7.039023e-01
-6.978556e-01
-6.922436e-01
-6.869689e-01
-6.820407e-01
-6.775042e-01
-6.733768e-01
-6.696320e-01
-6.662363e-01
-6.632088e-01
-6.606599e-01
-6.587750e-01
-6.577469e-01
-6.576929e-01
-6.585951e-01
-6.602840e-01
-6.624657e-01
-6.647836e-01
-6.668919e-01
-6.685185e-01
-6.694980e-01
-6.697774e-01
-6.693946e-01
-6.684409e-01
-6.670139e-01
-6.651737e-01
-6.629185e-01
-6.601862e-01
-6.568771e-01
-6.528881e-01
-6.481470e-01
-6.426389e-01
-6.364104e-01
-6.295458e-01
-6.221305e-01
-6.142213e-01
-6.058353e-01
-5.969507e-01
-5.875134e-01
-5.774489e-01
-5.666782e-01
-5.551326e-01
-5.427649e-01
-5.295557e-01
-5.155051e-01
-5.006063e-01
-4.848205e-01
-4.680771e-01
-4.503033e-01
-4.314615e-01
-4.115757e-01
-3.907345e-01
-3.690726e-01
-3.467400e-01
-3.238726e-01
-3.005850e-01
-2.769870e-01
-2.532138e-01
-2.294381e-01
-2.058501e-01
-1.826085e-01
-1.597914e-01
-1.373757e-01
-1.152594e-01
-9.330935e-02
-7.140586e-02
-4.945936e-02
-2.740185e-02
-5.169689e-03
1.730038e-02
4.005111e-02
6.306910e-02
8.625542e-02
1.094207e-01
1.323102e-01
1.546494e-01
1.761956e-01
1.967734e-01
2.162863e-01
2.347117e-01
2.520893e-01
2.685066e-01
2.840719e-01
2.988746e-01
3.129481e-01
3.262547e-01
3.387033e-01
3.501922e-01
3.606536e-01
3.700762e-01
3.784994e-01
3.859866e-01
3.925974e-01
3.983770e-01
4.033654e-01
4.076198e-01
4.112332e-01
4.143393e-01
4.170971e-01
4.196649e-01
4.221751e-01
4.247230e-01
4.273693e-01
4.301525e-01
4.330979e-01
4.362166e-01
4.394911e-01
4.428596e-01
4.462180e-01
4.494513e-01
4.524899e-01
4.553603e-01
4.582058e-01
4.612645e-01
4.648166e-01
4.691215e-01
4.743680e-01
4.806532e-01
4.879964e-01
4.963725e-01
5.057442e-01
5.160674e-01
5.272685e-01
5.392155e-01
5.517180e-01
5.645634e-01
5.775688e-01
5.906267e-01
6.037297e-01
6.169722e-01
6.305263e-01
6.445941e-01
6.593564e-01
6.749421e-01
6.914301e-01
7.088651e-01
7.272621e-01
7.465868e-01
7.667310e-01
7.875064e-01
8.086630e-01
8.299212e-01
8.510096e-01
8.717019e-01
8.918459e-01
9.113684e-01
9.302513e-01
9.484900e-01
9.660571e-01
9.828945e-01
9.989383e-01
1.014163e+00
1.028614e+00
1.042413e+00
1.055720e+00
1.068686e+00
1.081407e+00
1.093906e+00
1.106148e+00
1.118070e+00
1.129613e+00
1.140729e+00
1.151367e+00
1.161452e+00
1.170895e+00
1.179609e+00
1.187534e+00
1.194634e+00
1.200886e+00
1.206257e+00
1.210695e+00
1.214137e+00
1.216511e+00
1.217758e+00
1.217835e+00
1.216710e+00
1.214355e+00
1.210712e+00
1.205687e+00
1.199160e+00
1.191018e+00
1.181190e+00
1.169678e+00
1.156579e+00
1.142086e+00
1.126478e+00
1.110067e+00
1.093136e+00
1.075882e+00
1.058389e+00
1.040639e+00
1.022541e+00
1.003967e+00
9.847854e-01
9.648794e-01
9.441603e-01
9.225836e-01
9.001727e-01
8.770430e-01
8.534167e-01
8.296187e-01
8.060478e-01
7.831224e-01
7.612172e-01
7.406245e-01
7.215490e-01
7.041213e-01
6.884064e-01
6.744040e-01
6.620505e-01
6.512251e-01
6.417640e-01
6.334909e-01
6.262632e-01
6.200134e-01
6.147568e-01
6.105623e-01
6.075081e-01
6.056451e-01
6.049792e-01
6.054688e-01
6.070350e-01
6.095829e-01
6.130250e-01
6.172930e-01
6.223302e-01
6.280736e-01
6.344405e-01
6.413277e-01
6.486217e-01
6.562167e-01
6.640340e-01
6.720376e-01
6.802377e-01
6.886814e-01
6.974347e-01
7.065612e-01
7.160932e-01
7.260003e-01
7.361727e-01
7.464341e-01
7.565821e-01
7.664357e-01
7.758678e-01
7.848107e-01
7.932390e-01
8.011435e-01
8.085053e-01
8.152802e-01
8.213957e-01
8.267640e-01
8.313053e-01
8.349715e-01
8.377558e-01
8.396782e-01
8.407573e-01
8.409849e-01
8.403109e-01
8.386338e-01
8.357944e-01
8.315857e-01
8.257901e-01
8.182365e-01
8.088474e-01
7.976489e-01
7.847468e-01
7.702906e-01
7.544389e-01
7.373324e-01
7.190732e-01
6.997182e-01
6.792876e-01
6.577835e-01
6.352100e-01
6.115890e-01
5.869683e-01
5.614210e-01
5.350352e-01
5.079025e-01
4.801157e-01
4.517770e-01
4.230072e-01
3.939525e-01
3.647887e-01
3.357233e-01
3.069864e-01
2.788072e-01
2.513904e-01
2.249063e-01
1.994947e-01
1.752674e-01
1.522936e-01
1.305782e-01
1.100554e-01
9.060701e-02
7.209791e-02
5.440796e-02
3.744933e-02
2.116478e-02
5.510836e-03
-9.564559e-03
-2.413603e-02
-3.829362e-02
-5.211401e-02
-6.562557e-02
-7.878926e-02
-9.150704e-02
-1.036507e-01
-1.150939e-01
-1.257348e-01
-1.355052e-01
-1.443653e-01
-1.522906e-01
-1.592576e-01
-1.652419e-01
-1.702314e-01
-1.742481e-01
-1.773618e-01
-1.796813e-01
-1.813246e-01
-1.823880e-01
-1.829329e-01
-1.829896e-01
-1.825727e-01
-1.816949e-01
-1.803768e-01
-1.786493e-01
-1.765514e-01
-1.741232e-01
-1.714003e-01
-1.684141e-01
-1.651986e-01
-1.617978e-01
-1.582629e-01
-1.546412e-01
-1.509633e-01
-1.472433e-01
-1.434901e-01
-1.397228e-01
-1.359761e-01
-1.322930e-01
-1.287091e-01
-1.252379e-01
-1.218611e-01
-1.185299e-01
-1.151802e-01
-1.117597e-01
-1.082563e-01
-1.047124e-01
-1.012183e-01
-9.788700e-02
-9.482343e-02
-9.209983e-02
-8.974387e-02
-8.774268e-02
-8.606036e-02
-8.466001e-02
-8.351898e-02
-8.263122e-02
-8.199639e-02
-8.160088e-02
-8.140217e-02
-8.132967e-02
-8.130490e-02
-8.126898e-02
-8.120116e-02
-8.112051e-02
-8.107434e-02
-8.112238e-02
-8.132305e-02
-8.172377e-02
-8.235491e-02
-8.322641e-02
-8.432523e-02
-8.561357e-02
-8.703229e-02
-8.851415e-02
-9.000515e-02
-9.148454e-02
-9.297428e-02
-9.453414e-02
-9.624468e-02
-9.818527e-02
-1.004174e-01
-1.029809e-01
-1.059032e-01
-1.092105e-01
-1.129326e-01
-1.170961e-01
-1.217176e-01
-1.268001e-01
-1.323387e-01
-1.383292e-01
-1.447673e-01
-1.516344e-01
-1.588768e-01
-1.663989e-01
-1.740790e-01
-1.818083e-01
-1.895320e-01
-1.972727e-01
-2.051220e-01
-2.132012e-01
-2.216066e-01
-2.303632e-01
-2.394074e-01
-2.486056e-01
-2.577969e-01
-2.668399e-01
-2.756392e-01
-2.841424e-01
-2.923162e-01
-3.001261e-01
-3.075325e-01
-3.145056e-01
-3.210465e-01
-3.272044e-01
-3.330821e-01
-3.388249e-01
-3.445881e-01
-3.504914e-01
-3.565795e-01
-3.628145e-01
-3.691042e-01
-3.753474e-01
-3.814682e-01
-3.874240e-01
-3.931946e-01
-3.987692e-01
-4.041365e-01
-4.092764e-01
-4.141535e-01
-4.187193e-01
-4.229215e-01
-4.267119e-01
-4.300469e-01
-4.328846e-01
-4.351843e-01
-4.369100e-01
-4.380295e-01
-4.385111e-01
-4.383276e-01
-4.374750e-01
-4.359941e-01
-4.339760e-01
-4.315398e-01
-4.287984e-01
-4.258295e-01
-4.226615e-01
-4.192721e-01
-4.155965e-01
-4.115455e-01
-4.070275e-01
-4.019648e-01
-3.963005e-01
-3.900002e-01
-3.830610e-01
-3.755230e-01
-3.674777e-01
-3.590679e-01
-3.504789e-01
-3.419258e-01
-3.336380e-01
-3.258389e-01
-3.187211e-01
-3.124214e-01
-3.069974e-01
-3.024147e-01
-2.985504e-01
-2.952180e-01
-2.922062e-01
-2.893187e-01
-2.864063e-01
-2.833894e-01
-2.802692e-01
-2.771245e-01
-2.740921e-01
-2.713352e-01
-2.690120e-01
-2.672543e-01
-2.661632e-01
-2.658111e-01
-2.662429e-01
-2.674718e-01
-2.694740e-01
-2.721899e-01
-2.755319e-01
-2.793975e-01
-2.836919e-01
-2.883575e-01
-2.933985e-01
-2.988774e-01
-3.048797e-01
-3.114705e-01
-3.186746e-01
-3.264860e-01
-3.348843e-01
-3.438371e-01
-3.532885e-01
-3.631452e-01
-3.732707e-01
-3.834913e-01
-3.936180e-01
-4.034858e-01
-4.129948e-01
-4.221326e-01
-4.309611e-01
-4.395693e-01
-4.480146e-01
-4.562811e-01
-4.642760e-01
-4.718638e-01
-4.789153e-01
-4.853481e-01
-4.911400e-01
-4.963156e-01
-5.009148e-01
-5.049616e-01
-5.084501e-01
-5.113547e-01
-5.136630e-01
-5.154116e-01
-5.167046e-01
-5.177003e-01
-5.185702e-01
-5.194471e-01
-5.203877e-01
-5.213600e-01
-5.222627e-01
-5.229653e-01
-5.233532e-01
-5.233530e-01
-5.229283e-01
-5.220504e-01
-5.206687e-01
-5.186983e-01
-5.160299e-01
-5.125554e-01
-5.082015e-01
-5.029591e-01
-4.968930e-01
-4.901227e-01
-4.827821e-01
-4.749852e-01
-4.668149e-01
-4.583335e-01
-4.495955e-01
-4.406501e-01
-4.315374e-01
-4.222831e-01
-4.128956e-01
-4.033638e-01
-3.936667e-01
-3.837968e-01
