EVENT_NAME: CENTRAL_ITALY
EVENT_ID: EMSC-20161026_0000077
EVENT_DATE_YYYYMMDD: 20161026
EVENT_TIME_HHMMSS: 171036
EVENT_LATITUDE_DEGREE: 42.8802
EVENT_LONGITUDE_DEGREE: 13.1275
EVENT_DEPTH_KM: 8.7
HYPOCENTER_REFERENCE: INGV-CNT_Seismic_Bulletin
MAGNITUDE_W: 5.4
MAGNITUDE_W_REFERENCE: INGV-webservice
MAGNITUDE_L: 5.4
MAGNITUDE_L_REFERENCE: INGV-CNT_Seismic_Bulletin
FOCAL_MECHANISM: NF
NETWORK: IT
STATION_CODE: NRC
STATION_NAME: NORCIA
STATION_LATITUDE_DEGREE: 42.792543
STATION_LONGITUDE_DEGREE: 13.096475
STATION_ELEVATION_M: 616
LOCATION: 
SENSOR_DEPTH_M: 0.0
VS30_M/S: 687
SITE_CLASSIFICATION_EC8: B
MORPHOLOGIC_CLASSIFICATION: SL
EPICENTRAL_DISTANCE_KM: 10.1
EARTHQUAKE_BACKAZIMUTH_DEGREE: 14.6
DATE_TIME_FIRST_SAMPLE_YYYYMMDD_HHMMSS: 20161026_171032.909
DATE_TIME_FIRST_SAMPLE_PRECISION: milliseconds
SAMPLING_INTERVAL_S: 0.005000
NDATA: 10588
DURATION_S: 52.940
STREAM: HGE
UNITS: cm/s
INSTRUMENT: sensor = Unknown [Unknown] | digitizer = Unknown [Unknown]
INSTRUMENT_ANALOG/DIGITAL: D
INSTRUMENTAL_FREQUENCY_HZ: 
INSTRUMENTAL_DAMPING: 
FULL_SCALE_G: 
N_BIT_DIGITAL_CONVERTER: 
PGV_CM/S: -25.762795
TIME_PGV_S: 9.105000
BASELINE_CORRECTION: BASELINE REMOVED
FILTER_TYPE: BUTTERWORTH
FILTER_ORDER: 2
LOW_CUT_FREQUENCY_HZ: 0.070
HIGH_CUT_FREQUENCY_HZ: 30.000
LATE/NORMAL_TRIGGERED: NT
DATABASE_VERSION: DYNA 1.0
HEADER_FORMAT: DYNA 1.2
DATA_TYPE: VELOCITY
PROCESSING: manual (Paolucci et al., 2011)
DATA_TIMESTAMP_YYYYMMDD_HHMMSS: 20161027_111110.997
DATA_LICENSE: CC-BY3_0-IT (http://creativecommons.org/licenses/by/3.0/deed.en)
DATA_CITATION: ESM working group (2015), European Strong-Motion database, version 0.1, Network Activity 3: Networking acceleration networks and SM data users. Project NERA (www.nera-eu.org)
DATA_CREATOR: ESM working group
ORIGINAL_DATA_MEDIATOR_CITATION: Ufficio Rischio Sismico e Vulcanico del Dipartimento della Protezione Civile (http://www.protezionecivile.gov.it/)
ORIGINAL_DATA_MEDIATOR: Rete Accelerometrica Nazionale - RAN Download (http://www.mot1.it/randownload/)
ORIGINAL_DATA_CREATOR_CITATION: Italian Strong Motion Network, Italian Civil Protection Department http://www.protezionecivile.gov.it
ORIGINAL_DATA_CREATOR: network: IT (Italian Strong Motion Network); owner: Dipartimento Della Protezione Civile
USER1: /home/dyna/processing-itaca/processing.py /var/www/processing//tmp/felicetta//IT.NRC..HGE.D.20161026.171036.X.ACC.ASC /var/www/processing//tmp/felicetta//IT.NRC..HGN.D.20161026.171036.X.ACC.ASC /var/www/processing//tmp/felicetta//IT.NRC..HGZ.D.20161026.171036.X.ACC.ASC --tmp /var/www/processing//tmp/felicetta/ --le 0.07 --he 30.000 --ln 0.07 --hn 30.000 --lz 0.07 --hz 30.000 --fo 2 --ca 0 --cz 70 --ta 5 --tz 5 --mf 1 --rf 0 --tr NT
USER2: 
USER3: 
USER4: 
USER5: 
[...]
0.003974
0.004053
0.004139
0.004211
0.004263
0.004298
0.004323
0.004340
0.004348
0.004353
0.004367
0.004405
0.004471
0.004559
0.004651
0.004728
0.004778
0.004802
0.004806
0.004797
0.004781
0.004770
0.004780
0.004824
0.004899
0.004995
0.005105
0.005224
0.005336
0.005407
0.005421
0.005392
0.005339
0.005286
0.005254
0.005253
0.005288
0.005353
0.005435
0.005514
0.005573
0.005603
0.005612
0.005610
0.005609
0.005614
0.005629
0.005657
0.005696
0.005743
0.005792
0.005840
0.005879
0.005901
0.005901
0.005882
0.005849
0.005812
0.005786
0.005784
0.005819
0.005894
0.006001
0.006118
0.006213
0.006269
0.006279
0.006251
0.006198
0.006136
0.006086
0.006072
0.006106
0.006178
0.006263
0.006339
0.006400
0.006446
0.006482
0.006508
0.006519
0.006514
0.006498
0.006487
0.006498
0.006544
0.006623
0.006717
0.006797
0.006836
0.006827
0.006778
0.006712
0.006658
0.006647
0.006692
0.006777
0.006867
0.006934
0.006969
0.006975
0.006960
0.006938
0.006931
0.006956
0.007011
0.007086
0.007164
0.007233
0.007281
0.007308
0.007320
0.007322
0.007319
0.007313
0.007311
0.007319
0.007337
0.007361
0.007380
0.007394
0.007417
0.007461
0.007520
0.007576
0.007609
0.007618
0.007619
0.007627
0.007654
0.007705
0.007780
0.007864
0.007935
0.007968
0.007958
0.007919
0.007877
0.007859
0.007882
0.007947
0.008035
0.008124
0.008198
0.008252
0.008281
0.008284
0.008263
0.008230
0.008192
0.008156
0.008136
0.008149
0.008204
0.008299
0.008411
0.008510
0.008562
0.008556
0.008510
0.008457
0.008426
0.008433
0.008480
0.008555
0.008637
0.008703
0.008741
0.008752
0.008752
0.008762
0.008796
0.008853
0.008916
0.008967
0.008995
0.008997
0.008981
0.008959
0.008944
0.008946
0.008974
0.009024
0.009087
0.009147
0.009197
0.009236
0.009269
0.009299
0.009328
0.009359
0.009397
0.009440
0.009477
0.009505
0.009520
0.009521
0.009511
0.009510
0.009542
0.009615
0.009708
0.009794
0.009853
0.009879
0.009873
0.009842
0.009807
0.009785
0.009786
0.009820
0.009886
0.009971
0.010053
0.010116
0.010159
0.010191
0.010219
0.010241
0.010253
0.010261
0.010272
0.010294
0.010322
0.010354
0.010388
0.010427
0.010470
0.010516
0.010561
0.010599
0.010624
0.010634
0.010641
0.010655
0.010680
0.010713
0.010750
0.010794
0.010848
0.010906
0.010956
0.010993
0.011023
0.011052
0.011077
0.011095
0.011104
0.011108
0.011111
0.011113
0.011118
0.011134
0.011171
0.011233
0.011315
0.011407
0.011495
0.011568
0.011627
0.011671
0.011697
0.011704
0.011696
0.011683
0.011676
0.011688
0.011724
0.011777
0.011834
0.011880
0.011907
0.011919
0.011923
0.011924
0.011927
0.011943
0.011980
0.012039
0.012109
0.012177
0.012235
0.012288
0.012342
0.012398
0.012449
0.012491
0.012524
0.012549
0.012567
0.012582
0.012602
0.012627
0.012655
0.012689
0.012732
0.012776
0.012809
0.012827
0.012840
0.012862
0.012901
0.012951
0.013004
0.013055
0.013101
0.013144
0.013183
0.013216
0.013237
0.013252
0.013271
0.013308
0.013362
0.013427
0.013493
0.013545
0.013572
0.013575
0.013564
0.013554
0.013564
0.013605
0.013678
0.013766
0.013846
0.013903
0.013937
0.013954
0.013962
0.013969
0.013985
0.014014
0.014055
0.014100
0.014141
0.014172
0.014192
0.014209
0.014230
0.014259
0.014290
0.014320
0.014349
0.014386
0.014437
0.014501
0.014567
0.014622
0.014660
0.014689
0.014721
0.014769
0.014829
0.014889
0.014932
0.014949
0.014943
0.014931
0.014925
0.014934
0.014967
0.015032
0.015122
0.015217
0.015297
0.015356
0.015398
0.015425
0.015439
0.015443
0.015445
0.015447
0.015451
0.015469
0.015512
0.015578
0.015658
0.015736
0.015800
0.015842
0.015863
0.015876
0.015897
0.015937
0.015993
0.016054
0.016109
0.016151
0.016177
0.016196
0.016223
0.016267
0.016322
0.016371
0.016398
0.016403
0.016400
0.016406
0.016429
0.016464
0.016507
0.016566
0.016647
0.016738
0.016822
0.016882
0.016916
0.016932
0.016945
0.016958
0.016970
0.016978
0.016990
0.017020
0.017081
0.017165
0.017251
0.017321
0.017370
0.017404
0.017431
0.017455
0.017473
0.017481
0.017476
0.017462
0.017448
0.017449
0.017480
0.017550
0.017653
0.017775
0.017892
0.017981
0.018024
0.018014
0.017968
0.017919
0.017900
0.017923
0.017991
0.018095
0.018219
0.018337
0.018427
0.018480
0.018499
0.018498
0.018490
0.018488
0.018496
0.018509
0.018520
0.018534
0.018564
0.018621
0.018706
0.018804
0.018895
0.018963
0.019002
0.019015
0.019009
0.018998
0.018994
0.019016
0.019078
0.019175
0.019284
0.019375
0.019433
0.019452
0.019447
0.019439
0.019447
0.019475
0.019519
0.019574
0.019638
0.019706
0.019772
0.019835
0.019897
0.019958
0.020006
0.020039
0.020061
0.020074
0.020079
0.020081
0.020098
0.020142
0.020209
0.020282
0.020349
0.020406
0.020451
0.020481
0.020500
0.020516
0.020534
0.020549
0.020561
0.020578
0.020611
0.020664
0.020732
0.020807
0.020886
0.020966
0.021033
0.021074
0.021089
0.021091
0.021097
0.021116
0.021157
0.021219
0.021289
0.021349
0.021395
0.021432
0.021461
0.021479
0.021483
0.021486
0.021500
0.021534
0.021586
0.021647
0.021709
0.021768
0.021822
0.021877
0.021941
0.022013
0.022084
0.022142
0.022183
0.022212
0.022241
0.022280
0.022328
0.022380
0.022430
0.022478
0.022521
0.022553
0.022562
0.022549
0.022523
0.022505
0.022516
0.022572
0.022671
0.022801
0.022938
0.023060
0.023151
0.023199
0.023205
0.023186
0.023161
0.023142
0.023129
0.023124
0.023132
0.023158
0.023203
0.023260
0.023329
0.023412
0.023508
0.023604
0.023678
0.023714
0.023713
0.023700
0.023701
0.023736
0.023811
0.023923
0.024054
0.024172
0.024244
0.024253
0.024208
0.024133
0.024059
0.024021
0.024047
0.024143
0.024293
0.024467
0.024634
0.024770
0.024855
0.024882
0.024858
0.024795
0.024709
0.024624
0.024575
0.024594
0.024686
0.024827
0.024988
0.025146
0.025275
0.025345
0.025345
0.025285
0.025198
0.025125
0.025099
0.025136
0.025226
0.025351
0.025491
0.025624
0.025728
0.025788
0.025817
0.025829
0.025822
0.025792
0.025743
0.025695
0.025672
0.025693
0.025769
0.025893
0.026040
0.026185
0.026314
0.026422
0.026500
0.026537
0.026529
0.026486
0.026430
0.026386
0.026372
0.026397
0.026464
0.026562
0.026674
0.026784
0.026880
0.026953
0.026993
0.026993
0.026963
0.026926
0.026913
0.026947
0.027038
0.027180
0.027350
0.027512
0.027623
0.027651
0.027589
0.027464
0.027329
0.027240
0.027229
0.027296
0.027418
0.027562
0.027699
0.027804
0.027870
0.027909
0.027943
0.027991
0.028055
0.028119
0.028162
0.028175
0.028157
0.028118
0.028077
0.028055
0.028063
0.028110
0.028205
0.028340
0.028475
0.028567
0.028592
0.028558
0.028492
0.028440
0.028443
0.028526
0.028683
0.028878
0.029065
0.029197
0.029251
0.029230
0.029158
0.029073
0.029008
0.028988
0.029016
0.029080
0.029162
0.029249
0.029336
0.029418
0.029489
0.029549
0.029606
0.029664
0.029716
0.029746
0.029754
0.029750
0.029750
0.029756
0.029776
0.029816
0.029875
0.029945
0.030021
0.030099
0.030174
0.030241
0.030297
0.030335
0.030354
0.030359
0.030360
0.030364
0.030379
0.030413
0.030470
0.030549
0.030635
0.030715
0.030775
0.030806
0.030808
0.030786
0.030760
0.030755
0.030784
0.030852
0.030960
0.031091
0.031215
0.031306
0.031350
0.031351
0.031328
0.031306
0.031305
0.031331
0.031377
0.031432
0.031488
0.031541
0.031592
0.031637
0.031683
0.031736
0.031798
0.031867
0.031937
0.031993
0.032028
0.032042
0.032048
0.032060
0.032092
0.032131
0.032131
0.032003
0.031650
0.030995
0.030003
0.028683
0.027085
0.025291
0.023413
0.021604
0.020075
0.019064
0.018777
0.019351
0.020864
0.023314
0.026606
0.030559
0.034948
0.039502
0.043909
0.047851
0.051064
0.053381
0.054731
0.055120
0.054601
0.053247
0.051140
0.048393
0.045188
0.041797
0.038543
0.035687
0.033324
0.031348
0.029532
0.027659
0.025621
0.023435
0.021225
0.019176
0.017461
0.016200
0.015478
0.015377
0.015949
0.017165
0.018897
0.020911
0.022845
0.024241
0.024692
0.023940
0.021860
0.018423
0.013741
0.008094
0.001931
-0.004111
-0.009257
-0.012824
-0.014458
-0.014171
-0.012186
-0.008788
-0.004261
0.001160
0.007346
0.014282
0.021985
0.030450
0.039640
0.049496
0.059908
0.070710
0.081706
0.092668
0.103354
0.113542
0.123005
0.131358
0.137919
0.141727
0.141723
0.137010
0.127094
0.112031
0.092432
0.069309
0.043862
0.017322
-0.009095
-0.034199
-0.056867
-0.076072
-0.090861
-0.100438
-0.104447
-0.103229
-0.097801
-0.089609
-0.080205
-0.070902
-0.062526
-0.055490
-0.050184
-0.047297
-0.047852
-0.053041
-0.063928
-0.080901
-0.103023
-0.127911
-0.152430
-0.173704
-0.189843
-0.200311
-0.206011
-0.208886
-0.211159
-0.214641
-0.220346
-0.228356
-0.237972
-0.248079
-0.257389
-0.264374
-0.267276
-0.264539
-0.255237
-0.238953
-0.215280
-0.183639
-0.143676
-0.095943
-0.042523
0.012679
0.064422
0.107794
0.140167
0.161616
0.173525
0.177149
0.173766
0.165857
0.157596
0.153929
0.159115
0.175387
0.201622
0.232680
0.260812
0.278774
0.282069
0.268915
0.239345
0.194867
0.138224
0.072765
0.002099
-0.069743
-0.138410
-0.199804
-0.250547
-0.288145
-0.310965
-0.318113
-0.309833
-0.288533
-0.259206
-0.228239
-0.201266
-0.181200
-0.167338
-0.156374
-0.145304
-0.134290
-0.126974
-0.127884
-0.139085
-0.158790
-0.182697
-0.206299
-0.226456
-0.242468
-0.256949
-0.275258
-0.302899
-0.342537
-0.392250
-0.445112
-0.490639
-0.519087
-0.526195
-0.513777
-0.486120
-0.446818
-0.398155
-0.341254
-0.276441
-0.204396
-0.126512
-0.043722
0.043319
0.131293
0.212299
0.276308
0.315942
0.329664
0.322477
0.304549
0.287188
0.277531
0.276284
0.279824
0.283004
0.280534
0.268737
0.247264
0.217759
0.181009
0.137127
0.087884
0.036753
-0.013090
-0.059213
-0.098834
-0.128781
-0.146491
-0.150152
-0.138149
-0.109394
-0.064447
-0.006148
0.060254
0.126977
0.184990
0.228115
0.256989
0.278438
0.300998
0.330796
0.369308
0.412382
0.451143
0.475197
0.476223
0.449704
0.395114
0.316231
0.221787
0.125064
0.041125
-0.017914
-0.046944
-0.048689
-0.031478
-0.005925
0.018114
0.033832
0.038902
0.035608
0.028999
0.023630
0.021041
0.019242
0.013631
-0.001505
-0.030907
-0.076056
-0.133576
-0.194913
-0.247875
-0.279958
-0.281547
-0.247569
-0.178349
-0.079913
0.037802
0.164328
0.290756
0.409955
0.516537
0.606291
0.674798
0.717773
0.734345
0.730218
0.717174
0.708584
0.713725
0.734732
0.767469
0.804158
0.836310
0.857807
0.866029
0.859653
0.836976
0.798448
0.749772
0.699792
0.655012
0.617773
0.589344
0.572487
0.571102
0.590116
0.636089
0.714966
0.827511
0.967396
1.122938
1.279217
1.419816
1.530051
1.601348
1.633715
1.634127
1.611896
1.574245
1.524880
1.465752
1.399402
1.329406
1.259056
1.189849
1.121127
1.051089
0.978114
0.901290
0.820440
0.736493
0.651807
0.569762
0.494135
0.428516
0.375450
0.336124
0.311674
0.304829
0.319598
0.359078
0.423542
0.509917
0.612319
0.723348
0.835799
0.943856
1.043322
1.131206
1.205388
1.265020
1.311555
1.349162
1.383017
1.416168
1.448086
1.476212
1.497893
1.510393
1.509908
1.491372
1.449191
1.378265
1.275358
1.140976
0.980574
0.803992
0.624167
0.456102
0.314709
0.211066
0.149716
0.128408
0.139391
0.172576
0.219971
0.277642
0.343561
0.414751
0.486966
0.556228
0.620051
0.677785
0.730632
0.780988
0.830681
0.879619
0.926759
0.971961
1.015673
1.057222
1.094660
1.125717
1.147520
1.155894
1.146749
1.118866
1.075187
1.021910
0.966218
0.913119
0.863441
0.815415
0.767954
0.721751
0.678131
0.638186
0.602889
0.573500
0.551679
0.538917
0.535892
0.542423
0.557423
0.579120
0.606656
0.641305
0.685013
0.737746
0.796444
0.855726
0.909001
0.949683
0.973154
0.978871
0.970307
0.952218
0.928038
0.899442
0.867052
0.831402
0.794001
0.757383
0.723832
0.694520
0.669999
0.651319
0.641314
0.645341
0.669719
0.718065
0.788768
0.875485
0.968866
1.057990
1.132493
1.185202
1.212778
1.214326
1.191444
1.149798
1.098003
1.043585
0.991031
0.943628
0.905495
0.881612
0.876912
0.895948
0.943375
1.023771
1.139718
1.289436
1.465325
1.653952
1.838617
2.004180
2.140895
2.244802
2.315321
2.352073
2.353111
2.316195
2.242140
2.137195
2.012772
1.883500
1.764634
1.668546
1.601365
1.562811
1.549449
1.557370
1.582281
1.619257
1.663530
1.710960
1.757792
1.800897
1.838049
1.866409
1.880187
1.870052
1.823896
1.727623
1.567263
1.333058
1.022515
0.640143
0.195603
-0.297668
-0.824171
-1.369332
-1.922041
-2.474574
-3.021211
-3.558761
-4.088371
-4.614870
-5.143089
-5.674943
-6.210290
-6.749621
-7.294739
-7.847257
-8.408100
-8.979136
-9.564996
-10.173341
-10.813582
-11.494906
-12.224569
-13.006968
-13.843256
-14.730847
-15.662663
-16.627310
-17.611704
-18.604721
-19.597698
-20.580381
-21.536573
-22.443810
-23.276714
-24.010841
-24.625679
-25.107664
-25.452782
-25.666840
-25.762794
-25.756090
-25.659542
-25.479633
-25.215599
-24.860733
-24.403942
-23.831322
-23.128942
-22.286669
-21.301271
-20.178005
-18.930687
-17.580744
-16.156069
-14.689504
-13.215794
-11.767246
-10.370072
-9.042635
-7.795060
-6.629232
-5.539253
-4.513937
-3.542846
-2.624232
-1.770071
-1.004355
-0.355425
0.152684
0.505563
0.700326
0.745917
0.662194
0.477260
0.223992
-0.062439
-0.347226
-0.601413
-0.808137
-0.963956
-1.073675
-1.142838
-1.172166
-1.155098
-1.078096
-0.923122
-0.671460
-0.308440
0.171774
0.763361
1.449057
2.202854
2.995403
3.801327
4.604136
5.395843
6.173380
6.935263
7.679651
8.403139
9.099657
9.759696
10.371163
10.922575
11.406940
11.823742
12.178017
12.477675
12.731427
12.948497
13.139121
13.314357
13.484721
13.657943
13.836543
14.016158
14.185438
14.328088
14.426690
14.466269
14.435578
14.326870
14.136420
13.866398
13.526389
13.132247
12.702039
12.251576
11.792269
11.331752
10.876063
10.432383
10.011371
9.627399
9.295129
9.023256
8.809843
8.643589
8.509731
8.395059
8.288985
8.182159
8.064570
7.924177
7.747429
7.522411
7.243089
6.912037
6.540307
6.145010
5.745780
5.360870
5.003467
4.679397
4.387644
4.123404
3.881516
3.658642
3.454182
3.270455
3.112560
2.987721
2.903800
2.867369
2.881923
2.946310
3.053772
3.192579
3.348757
3.509992
3.668863
3.824084
3.979862
4.144399
4.328090
4.541403
4.792830
5.087482
5.426268
5.805682
6.218908
6.658312
7.117739
7.592696
8.078123
8.565749
9.043441
9.496848
9.911993
10.277973
10.589266
10.846361
11.053736
11.216207
11.336128
11.412854
11.443840
11.425434
11.352234
11.216104
11.006794
10.714332
10.331923
9.858268
9.298585
8.664012
7.969782
7.232727
6.468778
5.691789
4.914378
4.149455
3.410237
2.708175
2.050243
1.437188
0.863303
0.318017
-0.210359
-0.729686
-1.240320
-1.734953
-2.201806
-2.628832
-3.007107
-3.332602
-3.605929
-3.830857
-4.012665
-4.156125
-4.263368
-4.333215
-4.362336
-4.347341
-4.287281
-4.185938
-4.052918
-3.903177
-3.755131
-3.627545
-3.536192
-3.491806
-3.500284
-3.564601
-3.686459
-3.866103
-4.100627
-4.382368
-4.698900
-5.034987
-5.375007
-5.704115
-6.008471
-6.276259
-6.499428
-6.673927
-6.797766
-6.869623
-6.889731
-6.860724
-6.786071
-6.667551
-6.504356
-6.293954
-6.033402
-5.720659
-5.355801
-4.941623
-4.483525
-3.989200
-3.468599
-2.933975
-2.399141
-1.877664
-1.381469
-0.921227
-0.507599
-0.151678
0.135699
0.345312
0.471020
0.510727
0.466398
0.342810
0.145446
-0.120678
-0.449635
-0.831742
-1.252000
-1.691028
-2.127090
-2.537879
-2.903247
-3.209973
-3.455820
-3.648715
-3.801446
-3.926742
-4.035711
-4.137812
-4.239802
-4.344081
-4.448386
-4.547053
-4.633008
-4.700350
-4.746957
-4.775427
-4.791440
-4.801031
-4.809218
-4.820545
-4.840038
-4.873670
-4.928603
-5.012987
-5.134728
-5.299179
-5.506409
-5.749192
-6.012806
-6.277087
-6.520619
-6.725927
-6.882949
-6.988411
-7.042061
-7.043454
-6.991375
-6.885076
-6.725778
-6.517566
-6.267140
-5.982370
-5.670349
-5.336262
-4.983747
-4.616068
-4.237201
-3.852722
-3.470278
-3.098949
-2.747298
-2.421327
-2.123842
-1.855357
-1.615593
-1.404815
-1.224407
-1.076217
-0.961179
-0.878454
-0.825377
-0.797519
-0.788481
-0.789627
-0.790212
-0.778747
-0.745640
-0.685388
-0.596752
-0.481814
-0.345464
-0.194979
-0.038318
0.118577
0.273623
0.428666
0.588613
0.760169
0.950047
1.163478
1.404087
1.674625
1.977217
2.312754
2.679756
3.073266
3.484592
3.902060
4.311965
4.699307
5.048831
5.346711
5.582718
5.752114
5.856075
5.900336
5.893069
5.843130
5.758889
5.646968
5.510643
5.348933
5.157824
4.933723
4.677422
4.396303
4.103658
3.816040
3.550240
3.320338
3.134899
2.995616
2.898651
2.837673
2.806035
2.797046
2.803599
2.818553
2.835609
2.849473
2.855111
2.847341
2.821262
2.772362
2.696069
2.588168
2.446528
2.272687
2.072426
1.855673
1.635781
1.427838
1.246238
1.102374
1.003439
0.952755
0.950894
0.996305
1.085310
1.212112
1.369061
1.547112
1.736891
1.930408
2.122205
2.308682
2.486259
2.650227
2.794753
2.913018
2.997294
3.039586
3.032778
2.971758
2.854303
2.681382
2.456634
2.185625
1.875586
1.535276
1.174345
0.802585
0.429765
0.065527
-0.281766
-0.606663
-0.907018
-1.182944
-1.435914
-1.668743
-1.885508
-2.090870
-2.289340
-2.484694
-2.679308
-2.873683
-3.066436
-3.254440
-3.433213
-3.598016
-3.745343
-3.874006
-3.985639
-4.084167
-4.173810
-4.256895
-4.333589
-4.403514
-4.467032
-4.524631
-4.575192
-4.615409
-4.641224
-4.649941
-4.641259
-4.616634
-4.577670
-4.525081
-4.459022
-4.379761
-4.287612
-4.182434
-4.063427
-3.929210
-3.777954
-3.607716
-3.417103
-3.205971
-2.975689
-2.728825
-2.468399
-2.197011
-1.916123
-1.625734
-1.324479
-1.010105
-0.680152
-0.332477
0.034727
0.423306
0.835328
1.272776
1.736990
2.228142
2.744862
3.283931
3.839955
4.405175
4.969822
5.523008
6.053649
6.551182
7.006396
7.412373
7.764945
8.062279
8.303808
8.488957
8.616061
8.681637
8.680244
8.605294
8.450895
8.214201
7.897262
7.507369
7.055769
6.555661
6.020613
5.463589
4.895828
4.325277
3.755681
3.187564
2.620439
2.054561
1.491627
0.935196
0.391018
-0.133531
-0.630909
-1.094457
-1.518448
-1.898236
-2.231396
-2.519042
-2.765879
-2.978827
-3.165194
-3.331253
-3.481433
-3.618234
-3.742640
-3.854377
-3.951789
-4.031954
-4.091399
-4.126878
-4.135526
-4.114611
-4.061673
-3.975200
-3.855103
-3.702749
-3.521100
-3.315087
-3.091507
