EVENT_NAME: CENTRAL_ITALY
EVENT_ID: EMSC-20161026_0000095
EVENT_DATE_YYYYMMDD: 20161026
EVENT_TIME_HHMMSS: 191806
EVENT_LATITUDE_DEGREE: 42.9087
EVENT_LONGITUDE_DEGREE: 13.1288
EVENT_DEPTH_KM: 7.5
HYPOCENTER_REFERENCE: INGV-CNT_Seismic_Bulletin
MAGNITUDE_W: 5.9
MAGNITUDE_W_REFERENCE: INGV-webservice
MAGNITUDE_L: 5.9
MAGNITUDE_L_REFERENCE: INGV-CNT_Seismic_Bulletin
FOCAL_MECHANISM: NF
NETWORK: IT
STATION_CODE: NRC
STATION_NAME: NORCIA
STATION_LATITUDE_DEGREE: 42.792543
STATION_LONGITUDE_DEGREE: 13.096475
STATION_ELEVATION_M: 616
LOCATION: 
SENSOR_DEPTH_M: 0.0
VS30_M/S: 687
SITE_CLASSIFICATION_EC8: B
MORPHOLOGIC_CLASSIFICATION: SL
EPICENTRAL_DISTANCE_KM: 13.2
EARTHQUAKE_BACKAZIMUTH_DEGREE: 11.6
DATE_TIME_FIRST_SAMPLE_YYYYMMDD_HHMMSS: 20161026_191803.139
DATE_TIME_FIRST_SAMPLE_PRECISION: milliseconds
SAMPLING_INTERVAL_S: 0.005000
NDATA: 11542
DURATION_S: 57.710
STREAM: HGZ
UNITS: cm/s^2
INSTRUMENT: sensor = Unknown [Unknown] | digitizer = Unknown [Unknown]
INSTRUMENT_ANALOG/DIGITAL: D
INSTRUMENTAL_FREQUENCY_HZ: 
INSTRUMENTAL_DAMPING: 
FULL_SCALE_G: 
N_BIT_DIGITAL_CONVERTER: 
PGA_CM/S^2: 208.843369
TIME_PGA_S: 10.260000
BASELINE_CORRECTION: BASELINE REMOVED
FILTER_TYPE: BUTTERWORTH
FILTER_ORDER: 2
LOW_CUT_FREQUENCY_HZ: 0.040
HIGH_CUT_FREQUENCY_HZ: 30.000
LATE/NORMAL_TRIGGERED: NT
DATABASE_VERSION: DYNA 1.0
HEADER_FORMAT: DYNA 1.2
DATA_TYPE: ACCELERATION
PROCESSING: manual (Paolucci et al., 2011)
DATA_TIMESTAMP_YYYYMMDD_HHMMSS: 20161027_011428.535
DATA_LICENSE: CC-BY3_0-IT (http://creativecommons.org/licenses/by/3.0/deed.en)
DATA_CITATION: ESM working group (2015), European Strong-Motion database, version 0.1, Network Activity 3: Networking acceleration networks and SM data users. Project NERA (www.nera-eu.org)
DATA_CREATOR: ESM working group
ORIGINAL_DATA_MEDIATOR_CITATION: Ufficio Rischio Sismico e Vulcanico del Dipartimento della Protezione Civile (http://www.protezionecivile.gov.it/)
ORIGINAL_DATA_MEDIATOR: Rete Accelerometrica Nazionale - RAN Download (http://www.mot1.it/randownload/)
ORIGINAL_DATA_CREATOR_CITATION: Italian Strong Motion Network, Italian Civil Protection Department http://www.protezionecivile.gov.it
ORIGINAL_DATA_CREATOR: network: IT (Italian Strong Motion Network); owner: Dipartimento Della Protezione Civile
USER1: /home/dyna/processing-itaca/processing.py /var/www/processing//tmp/Lucia//IT.NRC..HGE.D.20161026.191806.X.ACC.ASC /var/www/processing//tmp/Lucia//IT.NRC..HGN.D.20161026.191806.X.ACC.ASC /var/www/processing//tmp/Lucia//IT.NRC..HGZ.D.20161026.191806.X.ACC.ASC --tmp /var/www/processing//tmp/Lucia/ --le 0.040 --he 30.000 --ln 0.040 --hn 30.000 --lz 0.040 --hz 30.000 --fo 2 --ca 0 --cz 100 --ta 5 --tz 5 --mf 1 --rf 0 --tr NT
USER2: 
USER3: 
USER4: 
USER5: 
[...]
0.019597
-0.000335
-0.022687
-0.039641
-0.047172
-0.044094
-0.030554
-0.008189
0.019998
0.049019
0.069855
0.070677
0.045169
0.000187
-0.047591
-0.082638
-0.098288
-0.096543
-0.082348
-0.058128
-0.023752
0.019207
0.064807
0.103210
0.122024
0.110091
0.065689
0.002415
-0.055427
-0.084982
-0.077518
-0.044807
-0.011029
0.005211
0.001993
-0.009262
-0.016056
-0.014967
-0.011303
-0.011842
-0.019125
-0.028881
-0.030611
-0.013756
0.022113
0.062342
0.085899
0.081884
0.057694
0.030677
0.011992
-0.001311
-0.019295
-0.045481
-0.071387
-0.084151
-0.075764
-0.045364
0.000026
0.044750
0.069301
0.060848
0.022977
-0.025445
-0.062054
-0.071582
-0.052248
-0.018010
0.010032
0.019311
0.013117
0.003213
-0.001515
0.002172
0.013837
0.028310
0.036464
0.031001
0.011043
-0.017996
-0.046624
-0.063277
-0.058255
-0.030269
0.010030
0.045121
0.061681
0.057268
0.037609
0.011827
-0.009954
-0.020440
-0.019205
-0.011861
-0.004912
-0.001353
-0.001181
-0.004008
-0.008218
-0.009573
-0.004918
0.003427
0.009475
0.009405
0.005135
0.001583
0.001086
0.003140
0.007781
0.015248
0.022391
0.022647
0.012956
-0.001773
-0.014799
-0.024141
-0.031025
-0.036176
-0.038313
-0.034610
-0.023032
-0.004037
0.018406
0.036642
0.044055
0.039683
0.026425
0.009111
-0.006174
-0.016100
-0.022262
-0.027583
-0.032452
-0.034471
-0.031037
-0.022139
-0.010321
0.000843
0.007349
0.006745
0.001327
-0.003148
-0.003233
-0.000522
0.001515
0.000897
-0.002871
-0.009432
-0.016947
-0.022265
-0.023195
-0.019494
-0.010844
0.003127
0.019293
0.031091
0.034069
0.028918
0.018639
0.005879
-0.006385
-0.014811
-0.017687
-0.015027
-0.007513
0.001746
0.006944
0.005221
0.000993
0.001787
0.010102
0.020740
0.025972
0.021533
0.007486
-0.013142
-0.033997
-0.046744
-0.045931
-0.032023
-0.010923
0.007949
0.016010
0.011653
0.002048
-0.003451
-0.001026
0.007028
0.015455
0.018738
0.014396
0.005115
-0.003474
-0.007661
-0.008262
-0.009068
-0.013129
-0.019764
-0.024391
-0.021015
-0.006699
0.014000
0.030338
0.033524
0.023832
0.009732
0.001041
0.002609
0.011764
0.020539
0.021424
0.011164
-0.008728
-0.031788
-0.048725
-0.053566
-0.047893
-0.037801
-0.027651
-0.018335
-0.009570
-0.000929
0.007224
0.011919
0.010212
0.003951
-0.000916
0.000994
0.010098
0.021229
0.028328
0.028018
0.019537
0.005452
-0.007872
-0.013106
-0.006933
0.006921
0.019616
0.022154
0.010364
-0.011697
-0.032579
-0.039970
-0.028874
-0.004941
0.018355
0.026812
0.014637
-0.011036
-0.034586
-0.041825
-0.028939
-0.003921
0.019745
0.030416
0.023324
0.003016
-0.019236
-0.032403
-0.031538
-0.019134
-0.002475
0.010926
0.016634
0.014152
0.006421
-0.002239
-0.008820
-0.012094
-0.010568
-0.001894
0.013984
0.032252
0.045087
0.045613
0.031378
0.006555
-0.018845
-0.033796
-0.033224
-0.021959
-0.010394
-0.005830
-0.009170
-0.016564
-0.021778
-0.020164
-0.011065
0.003365
0.018379
0.027424
0.026635
0.017335
0.004169
-0.007054
-0.011601
-0.008663
-0.002072
0.002473
0.001855
-0.002272
-0.005501
-0.003910
0.003541
0.013355
0.019244
0.017009
0.006964
-0.007642
-0.022488
-0.032719
-0.034820
-0.030013
-0.023762
-0.020682
-0.020921
-0.020575
-0.014698
-0.001384
0.015355
0.026972
0.026273
0.013089
-0.004515
-0.014712
-0.010417
0.005203
0.021669
0.028756
0.022640
0.007373
-0.009260
-0.021503
-0.027410
-0.027382
-0.023154
-0.017076
-0.010725
-0.003946
0.004800
0.016072
0.027179
0.034022
0.034720
0.029548
0.018532
0.002442
-0.014081
-0.024492
-0.025518
-0.018318
-0.006571
0.005132
0.012343
0.012613
0.007989
0.003707
0.003312
0.006137
0.008408
0.006242
-0.001477
-0.012582
-0.023464
-0.031777
-0.037502
-0.040611
-0.038948
-0.030662
-0.017281
-0.002372
0.011075
0.021205
0.026888
0.027574
0.023382
0.014785
0.002826
-0.009974
-0.019883
-0.023786
-0.021536
-0.015904
-0.009239
-0.001441
0.008000
0.017119
0.021954
0.019849
0.012077
0.003739
0.001086
0.008698
0.028227
0.058038
0.093623
0.128758
0.156872
0.172264
0.171747
0.156757
0.132908
0.106615
0.082871
0.064847
0.052782
0.044418
0.040882
0.052429
0.093723
0.170420
0.270566
0.369930
0.445377
0.484476
0.488849
0.472338
0.451599
0.432317
0.402032
0.337800
0.224979
0.073803
-0.078874
-0.184446
-0.202670
-0.116721
0.057037
0.265799
0.433794
0.500004
0.461259
0.379524
0.337850
0.380725
0.483396
0.560031
0.502690
0.245666
-0.173426
-0.611290
-0.894079
-0.918156
-0.709802
-0.410052
-0.187177
-0.127676
-0.186865
-0.237440
-0.167508
0.055368
0.379633
0.690993
0.846656
0.739854
0.373824
-0.123383
-0.576284
-0.868385
-0.981933
-0.959371
-0.860867
-0.755348
-0.699713
-0.692020
-0.666836
-0.560644
-0.370413
-0.141672
0.070261
0.201307
0.169204
-0.084108
-0.522327
-0.999225
-1.321158
-1.341289
-1.037964
-0.540518
-0.073493
0.159007
0.080936
-0.206784
-0.462461
-0.438089
-0.049658
0.556517
1.103564
1.348729
1.188150
0.688205
0.066477
-0.407064
-0.569649
-0.448913
-0.184120
0.105839
0.353616
0.489735
0.435982
0.181676
-0.154030
-0.360651
-0.258994
0.179296
0.791798
1.292155
1.426818
1.140434
0.617477
0.150979
-0.054189
-0.001129
0.122612
0.095597
-0.165166
-0.550732
-0.860542
-0.945567
-0.774551
-0.418018
-0.007283
0.315592
0.467042
0.475887
0.459023
0.519430
0.662366
0.811447
0.877721
0.793028
0.523786
0.117200
-0.264371
-0.409291
-0.214960
0.208532
0.620777
0.835137
0.810591
0.617091
0.369005
0.163961
0.026135
-0.108023
-0.334219
-0.695073
-1.137524
-1.544420
-1.806646
-1.877315
-1.772432
-1.525745
-1.159198
-0.720490
-0.310995
-0.002941
0.255839
0.584458
1.011723
1.407472
1.566169
1.346077
0.757325
-0.029833
-0.748872
-1.148124
-1.089351
-0.596055
0.135078
0.778057
1.026214
0.782462
0.219759
-0.347785
-0.654758
-0.594093
-0.223567
0.284759
0.727913
0.971492
1.003830
0.912581
0.827936
0.836868
0.865670
0.673044
0.062775
-0.868905
-1.735657
-2.119811
-1.832430
-0.997566
0.009426
0.712897
0.762341
0.135571
-0.838238
-1.669914
-1.984419
-1.716934
-1.130881
-0.634665
-0.502658
-0.710869
-1.002785
-1.090674
-0.827505
-0.271400
0.350034
0.751310
0.743228
0.341149
-0.264479
-0.849136
-1.283180
-1.558435
-1.717653
-1.768256
-1.670245
-1.392721
-0.944641
-0.357984
0.315039
1.005595
1.660497
2.226689
2.584297
2.559162
2.047375
1.132279
0.086046
-0.751103
-1.139354
-1.062968
-0.730511
-0.418804
-0.252531
-0.105844
0.268603
0.984996
1.870346
2.535908
2.605570
1.941256
0.724191
-0.641373
-1.712630
-2.178943
-1.960064
-1.204736
-0.210216
0.693130
1.251719
1.367691
1.143540
0.835834
0.651400
0.531078
0.197541
-0.535676
-1.543709
-2.481564
-3.000486
-2.861363
-1.989982
-0.547926
1.076085
2.431054
3.221361
3.408303
3.164741
2.775051
2.519867
2.541150
2.765072
2.965913
2.908957
2.453180
1.605992
0.560775
-0.360498
-0.922633
-1.173120
-1.364472
-1.693266
-2.174275
-2.691044
-3.061105
-3.110009
-2.782960
-2.189099
-1.516912
-0.924417
-0.508882
-0.310135
-0.288402
-0.338429
-0.378608
-0.427293
-0.572667
-0.858089
-1.189177
-1.342195
-1.088277
-0.373751
0.595965
1.470481
1.964634
1.995688
1.692173
1.307157
1.089449
1.160128
1.451153
1.780065
2.018125
2.173453
2.320008
2.476861
2.555555
2.452272
2.240490
2.219257
2.667291
3.570181
4.658703
5.638602
6.276367
6.357487
5.773436
4.711498
3.650391
3.093304
3.288950
4.106675
5.053601
5.457888
4.811117
3.066457
0.660403
-1.731119
-3.517634
-4.467683
-4.800557
-4.966718
-5.268860
-5.685267
-6.019599
-6.144938
-6.054480
-5.731970
-5.121303
-4.255354
-3.284270
-2.339995
-1.482826
-0.801441
-0.441546
-0.466485
-0.765457
-1.151552
-1.455469
-1.477081
-0.990038
0.077546
1.461071
2.572756
2.768153
1.726611
-0.344966
-2.808471
-4.885268
-6.014742
-6.087285
-5.361836
-4.188057
-2.820022
-1.392775
0.055724
1.569311
3.168561
4.644739
5.522313
5.349286
4.014353
1.790993
-0.802560
-3.180881
-4.897424
-5.786608
-5.899998
-5.315591
-4.047899
-2.125426
0.279738
2.796855
4.933346
6.220920
6.344708
5.254525
3.197400
0.592397
-2.114163
-4.431316
-5.770756
-5.677337
-4.262080
-2.229602
-0.279657
1.437636
3.199579
5.183556
7.109575
8.249398
7.752183
5.208170
1.113458
-3.291899
-6.782224
-8.746622
-9.160669
-8.264084
-6.343060
-3.595746
-0.086639
3.986950
7.837275
10.066502
9.404039
5.620947
-0.243226
-6.498393
-11.657813
-14.939743
-16.297323
-16.139109
-14.974216
-13.193160
-11.051966
-8.715972
-6.188378
-3.225445
0.474904
4.785218
8.823407
11.381239
11.945535
11.260052
10.829067
11.961119
15.069992
19.380941
23.242132
25.225939
25.235765
24.349850
23.522905
22.676727
20.946411
17.421919
11.748732
4.470313
-3.134722
-9.826752
-15.115824
-19.174789
-22.232250
-24.175104
-24.523010
-22.726765
-18.812969
-13.810788
-9.276169
-6.355160
-5.344265
-5.771587
-6.557794
-6.473296
-5.070873
-3.272672
-2.759579
-4.641395
-8.707984
-13.710380
-17.955116
-19.733335
-17.856651
-12.310279
-4.458384
3.555173
9.846284
13.525562
14.730024
14.126810
12.324468
9.542536
5.626373
0.327216
-6.295634
-13.602960
-20.458895
-25.611473
-28.076643
-27.408106
-23.958305
-18.849871
-13.242845
-7.541855
-1.626788
4.362061
9.996905
14.957238
18.690121
20.050774
18.309765
14.504643
10.968478
9.439129
10.135445
12.316049
14.868648
16.577944
16.751318
15.778274
14.743501
14.492103
15.094414
15.815402
15.351365
12.506831
7.131887
0.339230
-6.282065
-11.403346
-14.193162
-14.602050
-13.420473
-11.549429
-9.238214
-6.216976
-2.332427
2.174655
6.799825
10.881004
13.711936
14.905094
14.674398
13.557381
11.883421
9.744101
7.418720
5.424227
4.051226
3.141303
2.386155
1.666979
1.007704
0.228933
-1.145382
-3.457799
-6.525710
-9.760456
-12.464818
-14.090494
-14.721271
-15.437333
-17.691278
-21.868959
-26.358177
-28.105892
-24.445684
-14.930107
-1.816606
10.909200
19.127768
20.294588
14.733145
5.440066
-3.702788
-9.776316
-11.433558
-8.649004
-2.627466
4.257406
9.414219
11.566889
11.442250
11.194656
13.219133
18.645052
25.992899
31.354410
30.622353
22.178596
7.885411
-8.057188
-21.110394
-28.081348
-28.070549
-22.535015
-14.536190
-7.300990
-2.660269
-0.647094
-0.546088
-1.947206
-4.702404
-8.346829
-12.087836
-15.377379
-18.058805
-19.855099
-20.224571
-18.836254
-15.539386
-9.842351
-1.404959
8.643360
17.527302
22.327726
21.738804
16.598328
9.094552
1.660661
-4.028870
-7.797255
-10.442851
-12.242171
-12.552596
-10.882560
-7.610568
-3.531827
0.812296
5.219622
9.635342
14.013730
17.931091
20.202972
19.322727
14.409462
5.692788
-5.401546
-16.341871
-24.384409
-28.005814
-27.282938
-22.976524
-16.004950
-7.942487
-0.894611
4.092590
7.969391
12.285041
17.352192
22.263353
26.005060
27.839523
26.855787
21.882139
12.266130
-1.258469
-16.289782
-28.943777
-34.675510
-30.074953
-15.028872
6.100965
25.763430
37.133194
37.903770
30.826435
21.097061
13.006680
7.984833
4.764353
1.007421
-4.809832
-12.252043
-18.994808
-21.921968
-18.667709
-8.938971
5.099230
19.754503
31.386366
37.375999
36.181004
27.336632
11.807165
-7.977310
-28.694929
-46.754074
-58.795128
-62.562428
-57.940853
-46.862705
-31.875515
-15.104900
1.648500
16.884558
29.977507
41.376549
51.566338
59.648949
63.386978
60.513988
49.688160
31.251514
8.435200
-12.154060
-22.087709
-14.750060
10.271909
45.133083
76.751198
93.480446
90.676033
71.950012
46.290005
23.080446
7.925185
1.406133
0.626309
2.089649
4.185491
7.717122
14.558895
25.902966
40.967892
56.637218
68.546051
72.887695
67.661850
53.389404
33.343590
12.432003
-4.922213
-16.451473
-22.841751
-27.248165
-32.756729
-39.474312
-44.386490
-44.070141
-37.378834
-26.023262
-13.367538
-2.798705
3.760762
6.882232
9.039071
12.461134
17.681328
23.695189
28.310061
28.288502
20.468710
3.824888
-19.229662
-43.425209
-62.591022
-71.891846
-69.674675
-58.311794
-43.215317
-30.135645
-22.405348
-19.792639
-19.445145
-18.416901
-16.119890
-14.799708
-18.046116
-28.862598
-48.030994
-72.664986
-95.825294
-108.896126
-106.333420
-89.122581
-63.807632
-38.513519
-19.788347
-11.350349
-13.287069
-21.741707
-30.521515
-34.480991
-32.697182
-29.219181
-30.423977
-40.652790
-59.545071
-82.515167
-102.565987
-111.946007
-104.489922
-78.739204
-39.505276
3.741643
40.429928
62.217808
65.137108
50.622871
25.118219
-2.487741
-24.857906
-38.883354
-45.066231
-44.947544
-39.559303
-29.844601
-17.289585
-3.314689
11.740455
28.391432
46.277103
62.690884
73.358086
74.983604
67.208733
52.476643
34.189404
14.647536
-5.793720
-27.626127
-49.718330
-67.753258
-75.446556
-67.520699
-41.988831
-0.718609
51.016747
105.263138
153.015366
187.252869
205.397980
208.843369
200.708160
184.398849
162.868896
137.966812
110.888756
83.494476
58.868435
40.625237
31.268259
30.343864
33.875027
35.995441
31.906275
20.049122
2.108716
-18.333023
-36.763058
-48.432251
-50.166065
-42.629738
-30.588528
-20.508640
-17.354946
-22.655869
-34.707539
-50.294147
-66.197784
-79.608742
-88.413902
-92.071709
-92.008179
-90.444336
-88.506042
-85.672775
-81.169899
-75.603043
-71.131104
-70.214211
-73.936035
-81.116516
-89.130051
-95.520691
-98.565651
-97.023018
-90.608284
-81.071404
-72.150581
-67.535835
-68.332085
-72.386848
-76.030739
-76.305489
-71.605858
-61.201553
-45.411057
-26.365072
-7.783285
6.838243
16.383493
22.531546
27.728657
32.775467
36.451271
37.047024
34.094044
28.998201
24.322269
22.514420
24.991348
31.609509
40.503689
48.963272
55.164749
59.104183
61.842449
64.260445
66.921204
70.787788
77.265587
87.290237
100.664879
116.251999
132.179916
145.456375
152.137985
149.258804
137.281677
120.472351
104.479095
93.209084
87.470192
85.630348
84.814659
81.879379
74.658852
63.343128
50.714317
40.703800
36.244026
37.822109
43.380489
49.138699
50.778362
44.879963
30.323938
9.072302
-14.167171
-33.729980
-45.704395
-49.687702
-48.176598
-44.478085
-41.106903
-39.483112
-40.289364
-43.592712
-48.689339
-54.333393
-59.514366
-64.045280
-68.376526
-72.909218
-77.425598
-81.079422
-82.938698
-82.505890
-79.749992
-74.942673
-68.801544
-62.725803
-58.476589
-57.271935
-58.977104
-62.045670
-64.251549
-63.601574
-58.903759
-50.053009
-38.174183
-25.498198
-14.798300
-8.322606
-6.733407
-9.074625
-13.749799
-19.212873
-23.982388
-26.960142
-28.130341
-28.370701
-28.232475
-27.300623
-24.935785
-21.286976
-17.366676
-14.252110
-12.371750
-11.567946
-11.493139
-11.534141
-10.559211
-7.366587
-1.646389
5.638178
12.990742
19.619490
25.931875
32.745453
40.247177
48.052860
56.045956
64.556267
73.723808
83.242035
92.730072
101.740883
109.108170
112.580086
109.638474
99.177765
82.516319
62.610249
42.301357
23.409271
7.109864
-5.646491
-14.605652
-20.779779
-25.862410
-30.726353
-34.474346
-35.036888
-30.916285
-22.609095
-12.503771
-3.521829
2.315768
4.598421
4.251362
2.466559
-0.252029
-4.098246
-9.438805
-16.568714
-25.489969
-35.251534
-43.618134
-47.990082
-46.949135
-40.899662
-31.311983
-19.619631
-6.933356
5.496157
16.010815
23.010799
25.733168
24.622246
21.004490
16.237633
10.917934
4.842075
-2.370978
-10.787528
-20.053959
-29.319857
-37.205833
-42.214317
-43.497475
-41.299458
-36.674847
-30.926371
-25.289766
-20.707020
-17.596861
-16.068548
-16.342884
-18.392414
-21.013369
-21.856579
-18.897793
-11.962932
-2.732569
6.827152
15.967997
25.107719
34.668774
44.217396
52.423740
57.475895
57.570557
51.478317
39.296360
23.018127
6.161308
-7.746353
-16.925749
-21.992987
-25.026880
-28.032301
-32.079071
-37.372807
-43.559723
-49.657963
-53.852386
-53.866310
-48.243290
-37.970497
-26.899347
-19.829275
-19.501732
-25.154648
-33.522465
-40.757893
-43.717644
-40.649658
-31.915304
-20.311049
-9.943229
-3.952211
-2.893197
-5.018557
-7.811839
-9.301240
-8.553949
-5.605482
-1.007381
4.733614
11.283182
18.211508
24.949598
31.079863
36.447159
40.857754
43.816280
44.878544
44.434666
43.939358
45.103611
48.800659
54.544106
60.607513
64.634636
64.708336
60.507084
53.682339
46.941498
42.550812
41.388638
42.851364
45.411266
47.560745
48.555569
48.472630
47.738331
46.499275
44.111607
39.199387
30.554346
18.237703
3.816113
-10.421397
-22.394562
-30.731758
-35.052296
-36.143051
-35.652241
-35.128365
-35.020897
-34.607689
-32.932831
-29.717039
-25.510706
-21.397991
-18.650488
-18.304689
-20.692627
-25.196405
-30.487387
-35.246704
-38.917057
-41.763798
-44.051113
-45.196796
-43.908588
-39.156681
-30.968822
-20.504602
-9.776536
-1.326931
2.506224
0.739781
-5.654886
-14.284414
-22.402552
-27.794855
-29.286974
-26.864483
-21.466421
-14.687770
-8.568902
-5.230617
-6.002126
-10.493865
-16.596449
-21.504848
-22.943417
-20.007408
-13.480185
-5.498382
1.380201
5.277244
5.818331
4.367435
3.400641
5.174049
10.427980
17.915380
25.111956
29.732313
30.987852
29.736193
27.689587
26.474722
27.104305
29.840752
34.082893
38.263542
40.262306
38.395615
32.282768
22.995523
12.552677
3.231031
-3.062840
-5.449363
-4.486580
-1.814272
0.810760
2.347906
2.708952
2.489765
2.481685
3.141932
4.207404
4.716630
3.527721
0.034648
-5.372857
-11.374480
-16.318623
-19.012030
-19.128683
-17.092291
-13.807463
-10.421909
-8.008133
-7.252823
-8.343180
-11.036117
-14.835799
-19.131834
-23.055637
-25.272161
-24.347445
-19.700001
-12.326425
-4.651376
0.464725
0.996256
-3.400600
-11.304796
-20.118446
-27.029802
-29.950438
-28.181345
-22.751902
-16.118858
-10.995389
-9.032148
-10.380562
-14.092862
-18.574356
-21.828503
-21.888187
-17.688913
-9.825385
-0.248114
9.008190
16.879000
23.379854
29.018600
34.071358
38.255932
41.012882
42.001961
41.305908
39.326714
36.659256
34.038982
32.215881
31.681391
32.482777
34.402100
37.267208
40.854988
44.507759
47.145275
47.729038
45.641026
40.808857
33.723198
25.378939
17.173487
10.735733
7.528902
8.348742
13.139407
21.160580
31.023817
40.540630
47.101658
48.862564
45.734329
39.128021
30.799192
21.911047
12.739922
2.742451
-9.104314
-23.529453
-39.946609
-55.898998
-67.664757
-71.905540
-67.386429
-55.721512
