EVENT_NAME: CENTRAL_ITALY
EVENT_ID: EMSC-20161026_0000095
EVENT_DATE_YYYYMMDD: 20161026
EVENT_TIME_HHMMSS: 191806
EVENT_LATITUDE_DEGREE: 42.9087
EVENT_LONGITUDE_DEGREE: 13.1288
EVENT_DEPTH_KM: 7.5
HYPOCENTER_REFERENCE: INGV-CNT_Seismic_Bulletin
MAGNITUDE_W: 5.9
MAGNITUDE_W_REFERENCE: INGV-webservice
MAGNITUDE_L: 5.9
MAGNITUDE_L_REFERENCE: INGV-CNT_Seismic_Bulletin
FOCAL_MECHANISM: NF
NETWORK: IT
STATION_CODE: NRC
STATION_NAME: NORCIA
STATION_LATITUDE_DEGREE: 42.792543
STATION_LONGITUDE_DEGREE: 13.096475
STATION_ELEVATION_M: 616
LOCATION: 
SENSOR_DEPTH_M: 0.0
VS30_M/S: 687
SITE_CLASSIFICATION_EC8: B
MORPHOLOGIC_CLASSIFICATION: SL
EPICENTRAL_DISTANCE_KM: 13.2
EARTHQUAKE_BACKAZIMUTH_DEGREE: 11.6
DATE_TIME_FIRST_SAMPLE_YYYYMMDD_HHMMSS: 20161026_191803.139
DATE_TIME_FIRST_SAMPLE_PRECISION: milliseconds
SAMPLING_INTERVAL_S: 0.005000
NDATA: 11542
DURATION_S: 57.710
STREAM: HGE
UNITS: cm/s^2
INSTRUMENT: sensor = Unknown [Unknown] | digitizer = Unknown [Unknown]
INSTRUMENT_ANALOG/DIGITAL: D
INSTRUMENTAL_FREQUENCY_HZ: 
INSTRUMENTAL_DAMPING: 
FULL_SCALE_G: 
N_BIT_DIGITAL_CONVERTER: 
PGA_CM/S^2: 248.283604
TIME_PGA_S: 10.340000
BASELINE_CORRECTION: BASELINE REMOVED
FILTER_TYPE: BUTTERWORTH
FILTER_ORDER: 2
LOW_CUT_FREQUENCY_HZ: 0.040
HIGH_CUT_FREQUENCY_HZ: 30.000
LATE/NORMAL_TRIGGERED: NT
DATABASE_VERSION: DYNA 1.0
HEADER_FORMAT: DYNA 1.2
DATA_TYPE: ACCELERATION
PROCESSING: manual (Paolucci et al., 2011)
DATA_TIMESTAMP_YYYYMMDD_HHMMSS: 20161027_011428.535
DATA_LICENSE: CC-BY3_0-IT (http://creativecommons.org/licenses/by/3.0/deed.en)
DATA_CITATION: ESM working group (2015), European Strong-Motion database, version 0.1, Network Activity 3: Networking acceleration networks and SM data users. Project NERA (www.nera-eu.org)
DATA_CREATOR: ESM working group
ORIGINAL_DATA_MEDIATOR_CITATION: Ufficio Rischio Sismico e Vulcanico del Dipartimento della Protezione Civile (http://www.protezionecivile.gov.it/)
ORIGINAL_DATA_MEDIATOR: Rete Accelerometrica Nazionale - RAN Download (http://www.mot1.it/randownload/)
ORIGINAL_DATA_CREATOR_CITATION: Italian Strong Motion Network, Italian Civil Protection Department http://www.protezionecivile.gov.it
ORIGINAL_DATA_CREATOR: network: IT (Italian Strong Motion Network); owner: Dipartimento Della Protezione Civile
USER1: /home/dyna/processing-itaca/processing.py /var/www/processing//tmp/Lucia//IT.NRC..HGE.D.20161026.191806.X.ACC.ASC /var/www/processing//tmp/Lucia//IT.NRC..HGN.D.20161026.191806.X.ACC.ASC /var/www/processing//tmp/Lucia//IT.NRC..HGZ.D.20161026.191806.X.ACC.ASC --tmp /var/www/processing//tmp/Lucia/ --le 0.040 --he 30.000 --ln 0.040 --hn 30.000 --lz 0.040 --hz 30.000 --fo 2 --ca 0 --cz 100 --ta 5 --tz 5 --mf 1 --rf 0 --tr NT
USER2: 
USER3: 
USER4: 
USER5: 
[...]
0.008084
-0.011109
-0.030634
-0.037483
-0.026843
-0.004653
0.020147
0.041905
0.057569
0.066176
0.070109
0.073007
0.075888
0.076748
0.072817
0.061521
0.040279
0.008793
-0.028204
-0.062954
-0.088387
-0.099988
-0.097900
-0.087322
-0.074033
-0.059535
-0.041416
-0.017388
0.011723
0.042280
0.070180
0.091642
0.101550
0.093662
0.065238
0.021954
-0.022112
-0.050414
-0.052442
-0.028857
0.010178
0.050566
0.079171
0.087259
0.073333
0.043693
0.008743
-0.021849
-0.041076
-0.044768
-0.032612
-0.010109
0.012283
0.024951
0.024456
0.013809
-0.000307
-0.010447
-0.011394
-0.002479
0.013155
0.030126
0.041271
0.039952
0.024253
-0.000191
-0.022515
-0.034316
-0.034571
-0.026989
-0.014851
0.000673
0.017590
0.031302
0.038078
0.037877
0.032564
0.023170
0.009768
-0.006445
-0.021893
-0.030954
-0.028221
-0.013039
0.008660
0.027779
0.036448
0.031134
0.014795
-0.004557
-0.019122
-0.024210
-0.017636
0.000050
0.025522
0.054008
0.079778
0.096582
0.099100
0.085226
0.058075
0.023904
-0.012160
-0.046273
-0.073944
-0.091408
-0.097942
-0.094450
-0.080866
-0.056923
-0.025222
0.007417
0.032950
0.047369
0.052475
0.052606
0.051150
0.050346
0.051581
0.054090
0.054817
0.050421
0.038938
0.020340
-0.002517
-0.023990
-0.038958
-0.045798
-0.045380
-0.038896
-0.027863
-0.014851
-0.003214
0.003658
0.003558
-0.003236
-0.013484
-0.021647
-0.022238
-0.012858
0.005389
0.030194
0.058407
0.084259
0.100704
0.103417
0.092463
0.070741
0.042112
0.010794
-0.019450
-0.046156
-0.067394
-0.080309
-0.082108
-0.073176
-0.056596
-0.035156
-0.011535
0.010005
0.024311
0.029456
0.029069
0.028136
0.029315
0.033691
0.040182
0.044710
0.043885
0.038728
0.032767
0.027972
0.023587
0.017656
0.009609
0.001344
-0.003782
-0.002124
0.007733
0.022338
0.035309
0.041331
0.037471
0.023299
0.001862
-0.020443
-0.037255
-0.045888
-0.046867
-0.041896
-0.033584
-0.025046
-0.018573
-0.014831
-0.012942
-0.011185
-0.007700
-0.001137
0.008666
0.020696
0.034313
0.050106
0.066782
0.078571
0.078863
0.065623
0.042506
0.016119
-0.007687
-0.025164
-0.033400
-0.030361
-0.016486
0.005164
0.029884
0.052257
0.067472
0.072293
0.065006
0.046113
0.019921
-0.006489
-0.026959
-0.038735
-0.042397
-0.039991
-0.032923
-0.021390
-0.005777
0.010907
0.023458
0.028485
0.025900
0.017049
0.004304
-0.008037
-0.014743
-0.012724
-0.003073
0.009538
0.019540
0.023958
0.023177
0.019109
0.014315
0.011255
0.011159
0.013910
0.018352
0.022552
0.024236
0.021547
0.013922
0.002801
-0.008764
-0.018005
-0.024217
-0.028556
-0.031906
-0.033550
-0.032351
-0.028272
-0.022210
-0.015104
-0.007674
-0.000123
0.008045
0.017727
0.029716
0.042987
0.053775
0.058250
0.055916
0.048861
0.038330
0.024473
0.008357
-0.007780
-0.021250
-0.029401
-0.030486
-0.025061
-0.015646
-0.004394
0.007611
0.019452
0.029635
0.036562
0.040705
0.044602
0.049816
0.055132
0.056798
0.050745
0.036136
0.015984
-0.005235
-0.023216
-0.035122
-0.041000
-0.042614
-0.040598
-0.034483
-0.025382
-0.016422
-0.010598
-0.009115
-0.010396
-0.010606
-0.006236
0.003837
0.018141
0.033354
0.045528
0.051687
0.051050
0.045219
0.037482
0.031058
0.027412
0.026279
0.026193
0.024635
0.019164
0.009287
-0.002839
-0.013438
-0.019413
-0.019964
-0.015945
-0.008771
-0.000308
0.007410
0.013270
0.017724
0.021748
0.025700
0.029615
0.032948
0.033445
0.028935
0.020405
0.010730
0.002043
-0.003984
-0.006043
-0.004391
-0.001092
0.001662
0.003665
0.005405
0.005302
0.000982
-0.007556
-0.017626
-0.026107
-0.030983
-0.031129
-0.026746
-0.019721
-0.011896
-0.003906
0.004508
0.014452
0.026935
0.040865
0.053424
0.062401
0.066858
0.067088
0.064513
0.060367
0.055216
0.049178
0.041330
0.030097
0.015132
-0.001557
-0.016778
-0.028244
-0.034768
-0.035324
-0.029974
-0.021296
-0.013135
-0.008054
-0.006610
-0.008122
-0.010758
-0.011918
-0.009683
-0.003591
0.005076
0.013876
0.020612
0.023478
0.021635
0.016341
0.009470
0.001798
-0.006674
-0.016477
-0.027808
-0.038750
-0.046433
-0.050073
-0.050421
-0.047191
-0.039611
-0.028062
-0.013563
0.002791
0.018804
0.030741
0.035763
0.033728
0.025003
0.009020
-0.014129
-0.042569
-0.073062
-0.102376
-0.127731
-0.145330
-0.150229
-0.138749
-0.110998
-0.071421
-0.026605
0.017413
0.055203
0.081246
0.092303
0.090751
0.082941
0.073100
0.061072
0.046433
0.030754
0.014304
-0.004612
-0.024538
-0.039435
-0.044369
-0.037953
-0.018020
0.018184
0.067769
0.122343
0.172936
0.209353
0.219660
0.198392
0.154419
0.104794
0.059556
0.016226
-0.031893
-0.087737
-0.150195
-0.215352
-0.273369
-0.304451
-0.286046
-0.213261
-0.107705
0.000212
0.088377
0.140871
0.149477
0.127628
0.107685
0.111771
0.133118
0.152442
0.160433
0.156324
0.137905
0.106363
0.074383
0.056895
0.055647
0.059193
0.053204
0.027106
-0.021910
-0.087479
-0.159426
-0.226097
-0.269104
-0.270964
-0.238597
-0.206440
-0.206421
-0.244765
-0.309171
-0.377765
-0.413742
-0.376024
-0.256957
-0.100578
0.031497
0.106457
0.126457
0.107424
0.068793
0.032508
0.016873
0.030638
0.074119
0.143566
0.228055
0.299873
0.323956
0.290838
0.229793
0.180741
0.162911
0.167785
0.166064
0.127437
0.049305
-0.034765
-0.077633
-0.050169
0.038797
0.143838
0.207821
0.194426
0.104081
-0.027626
-0.139586
-0.172162
-0.104081
0.039346
0.208863
0.347402
0.393853
0.297983
0.053500
-0.275805
-0.577968
-0.755220
-0.763860
-0.615154
-0.371705
-0.128883
0.037136
0.105992
0.099687
0.058278
0.032170
0.070752
0.201199
0.416215
0.678585
0.932746
1.115183
1.171884
1.083490
0.868780
0.560850
0.198936
-0.159800
-0.455317
-0.661552
-0.791835
-0.870768
-0.918004
-0.949649
-0.968783
-0.958389
-0.901020
-0.795340
-0.644654
-0.450580
-0.231321
-0.025725
0.134364
0.243240
0.313269
0.363578
0.412768
0.463927
0.494759
0.481679
0.434921
0.379931
0.308761
0.199061
0.076659
0.004763
0.014545
0.086012
0.184978
0.287444
0.376077
0.434459
0.448214
0.409364
0.323564
0.221719
0.166028
0.224123
0.414628
0.681127
0.922471
1.037314
0.956939
0.677990
0.274625
-0.136573
-0.449805
-0.603258
-0.590092
-0.450609
-0.249343
-0.053034
0.083810
0.131565
0.095240
0.013889
-0.053223
-0.049261
0.055967
0.245379
0.452930
0.601417
0.646805
0.572914
0.371019
0.059176
-0.302985
-0.641800
-0.895755
-1.015987
-0.969291
-0.756858
-0.424503
-0.048017
0.288238
0.504763
0.542826
0.391981
0.108468
-0.211482
-0.487284
-0.683203
-0.803125
-0.868629
-0.885854
-0.831881
-0.683024
-0.447570
-0.166787
0.104511
0.324915
0.496288
0.666340
0.878817
1.113382
1.292489
1.352036
1.281828
1.096730
0.814457
0.488450
0.216064
0.064471
0.013028
-0.006132
-0.049834
-0.162905
-0.382659
-0.703021
-1.051694
-1.331229
-1.477517
-1.466655
-1.291958
-0.976433
-0.601391
-0.277824
-0.073300
0.021225
0.060742
0.108089
0.222950
0.435262
0.696723
0.901564
0.974667
0.905258
0.723070
0.494940
0.309736
0.218051
0.206084
0.245743
0.339245
0.497166
0.699244
0.895477
1.037956
1.107052
1.108725
1.049909
0.919443
0.694600
0.372059
-0.017131
-0.438279
-0.877596
-1.316825
-1.708203
-1.993314
-2.136302
-2.138446
-2.028281
-1.838679
-1.599138
-1.342898
-1.102511
-0.897376
-0.718743
-0.516764
-0.230438
0.149949
0.575791
0.988959
1.328725
1.507021
1.453394
1.196107
0.850734
0.525216
0.267239
0.079978
-0.074110
-0.273324
-0.568501
-0.908491
-1.175167
-1.280393
-1.194189
-0.913849
-0.472185
0.045042
0.551842
1.015251
1.439550
1.847858
2.285326
2.794813
3.374439
3.954428
4.413378
4.633278
4.537239
4.084200
3.293557
2.303567
1.336802
0.554780
-0.027894
-0.477001
-0.849381
-1.200583
-1.611868
-2.151642
-2.822325
-3.529331
-4.078543
-4.253008
-3.933506
-3.159736
-2.126136
-1.113965
-0.348255
0.103637
0.308430
0.407534
0.563935
0.867971
1.255107
1.530932
1.484591
0.997932
0.088051
-1.102916
-2.332934
-3.316138
-3.812332
-3.682007
-2.891612
-1.536511
0.128724
1.747669
2.995369
3.676785
3.767433
3.414560
2.860868
2.317395
1.879319
1.515707
1.118816
0.593429
-0.067240
-0.782426
-1.432492
-1.859702
-1.877049
-1.406749
-0.598614
0.268404
0.945675
1.246927
1.074567
0.523265
-0.128071
-0.606993
-0.769844
-0.524286
0.210972
1.373625
2.689355
3.810950
4.467557
4.492857
3.855818
2.737306
1.490286
0.442123
-0.266074
-0.668217
-0.860424
-0.912134
-0.841854
-0.622965
-0.211846
0.390936
1.101697
1.803679
2.451494
3.095599
3.757228
4.283313
4.371188
3.783959
2.543167
0.878575
-0.950617
-2.716604
-4.232632
-5.429539
-6.341072
-6.977478
-7.357771
-7.663721
-8.118977
-8.645048
-8.846169
-8.384904
-7.214693
-5.522119
-3.675368
-2.136510
-1.141833
-0.457056
0.414783
1.842241
3.936269
6.573155
9.366274
11.810549
13.608160
14.716585
15.094602
14.639291
13.339863
11.282371
8.606599
5.644956
2.936836
0.878573
-0.595325
-1.869698
-3.207384
-4.514475
-5.490508
-5.878604
-5.601344
-4.848505
-4.111789
-4.012110
-4.950263
-6.870535
-9.308522
-11.609470
-13.176754
-13.663477
-13.004063
-11.306971
-8.756330
-5.571417
-1.965709
1.868495
5.681192
9.123305
11.883844
13.779933
14.647836
14.379338
13.169266
11.419677
9.311921
6.833781
4.214415
1.838369
-0.267692
-2.379012
-4.547736
-6.597391
-8.543740
-10.528691
-12.407514
-13.817170
-14.555904
-14.583926
-13.827926
-12.299805
-10.284366
-8.156792
-6.079252
-4.025228
-1.945974
0.297496
2.948627
6.033722
9.242476
12.254497
14.866556
16.778154
17.632137
17.314875
15.975374
13.802933
11.054361
8.252878
6.015166
4.565977
3.604735
2.693181
1.596443
0.248587
-1.308542
-2.813370
-3.843901
-4.139420
-3.790096
-3.129846
-2.534959
-2.284323
-2.510926
-3.208965
-4.228308
-5.311059
-6.238278
-6.881885
-7.050877
-6.488752
-5.149658
-3.292064
-1.218107
0.959467
3.286991
5.744486
8.033103
9.658044
10.224041
9.550546
7.679483
5.046351
2.454781
0.524642
-0.791745
-1.973460
-3.339176
-4.850353
-6.312882
-7.486545
-8.101906
-8.065380
-7.589631
-6.939798
-6.191100
-5.368406
-4.644998
-4.222605
-4.054854
-3.810956
-3.096533
-1.655998
0.457817
2.748903
4.413070
4.701071
3.289827
0.575879
-2.366291
-4.352285
-4.759169
-3.695193
-1.681558
0.645033
2.622750
3.753354
4.049375
4.022795
4.120302
4.371528
4.701794
5.150731
5.577112
5.521563
4.567704
2.705952
0.288026
-2.154613
-3.877813
-4.131935
-2.851341
-0.864301
0.809913
1.606273
1.455480
0.667419
-0.172953
-0.531308
-0.261216
0.487828
1.572870
2.829375
3.897766
4.425743
4.375496
3.906670
3.197683
2.634098
2.805732
3.977889
5.839587
8.022085
10.550238
13.444740
16.196079
18.087263
18.761198
18.088245
15.853763
12.001223
6.957109
1.436530
-3.910022
-8.482320
-11.663462
-13.209209
-13.614567
-13.736516
-14.099082
-14.624077
-14.776923
-14.003878
-12.262633
-10.061332
-7.931529
-5.930911
-3.593349
-0.396847
3.531602
7.186489
9.352988
9.574571
8.468775
7.253281
7.011893
8.118024
10.028105
11.560959
11.556472
9.546498
5.969316
1.812888
-1.855796
-4.130564
-4.448451
-2.784354
0.396972
4.447595
8.693620
12.270492
14.144239
13.588431
10.549768
5.566540
-0.436679
-6.266286
-10.685495
-13.078964
-14.118886
-15.263837
-17.323063
-19.785164
-21.417208
-21.244087
-19.287409
-16.681992
-14.873320
-14.536432
-15.258785
-15.981088
-15.606977
-13.530325
-9.722428
-4.295141
2.679229
10.751079
18.750870
24.992872
27.935619
26.931900
22.472115
15.780148
8.293161
1.288622
-4.376997
-8.213223
-9.865088
-9.203800
-6.554376
-2.608185
1.750335
5.550772
8.078171
9.154093
8.867067
7.236708
4.345859
0.584412
-3.350534
-6.611303
-8.442148
-8.504453
-7.154783
-5.331473
-3.973832
-3.626359
-4.613195
-7.185222
-11.268297
-16.300236
-21.462532
-25.989435
-29.248659
-30.630610
-29.499729
-25.421755
-18.557472
-9.872625
-0.888337
6.967689
12.840580
16.276508
16.910191
14.776186
10.819036
6.653465
3.703055
2.613093
3.244689
4.873019
6.495098
7.520053
8.459067
10.567375
14.336444
18.410646
20.276346
17.905346
10.617057
-1.107861
-15.898771
-31.581186
-45.686897
-56.416756
-63.342365
-67.408005
-70.297462
-73.608459
-78.375336
-84.948418
-93.015503
-101.920380
-111.276466
-121.354233
-132.789841
-145.869949
-160.160217
-174.724838
-188.374496
-199.498810
-205.842651
-204.995239
-195.526779
-177.614365
-152.682281
-122.998795
-91.737106
-62.691616
-39.077877
-22.120823
-10.586448
-1.706055
7.052293
16.448057
25.133993
30.761932
31.796637
28.805906
24.332268
21.361343
21.318214
22.984226
23.326254
19.856050
12.877623
5.743067
2.483947
4.943445
12.034252
20.927435
28.942987
35.240742
40.970242
47.971153
57.656189
70.754196
87.561073
108.126991
131.899231
157.334167
182.319733
204.916824
223.623383
237.373520
245.577774
248.283600
246.579605
242.741714
239.298691
237.483276
236.604233
234.849243
230.517365
222.603622
210.679703
194.755325
175.385803
153.646881
130.809189
107.936760
85.664520
64.319763
44.222549
25.693403
8.816759
-6.365262
-19.291922
-28.941736
-34.659309
-36.700172
-35.850346
-32.676758
-27.337324
-19.990051
-11.156904
-1.888129
6.370580
12.492260
16.332878
18.367754
18.619059
16.267345
10.469045
1.268731
-10.377525
-23.107973
-35.502071
-46.154961
-53.731789
-57.237942
-56.334820
-51.287304
-42.764294
-31.940042
-20.511753
-10.260110
-2.621613
1.339431
0.816811
-4.667819
-14.992877
-29.117147
-45.098358
-60.823311
-74.996178
-87.362274
-98.008377
-106.706940
-113.022064
-116.798035
-118.264732
-117.740746
-115.530991
-112.094215
-108.041504
-103.868507
-99.733017
-95.555618
-91.206192
-86.300346
-79.897758
-70.793266
-58.251610
-42.432716
-24.152594
-4.273207
16.693287
38.406898
60.172543
80.637688
97.946594
110.082840
115.225876
112.227379
101.167931
83.675697
62.665928
41.439754
22.611450
7.604291
-3.144351
-9.873562
-13.417104
-15.067889
-16.191082
-17.735683
-19.941360
-22.457676
-24.750471
-26.441734
-27.401821
-27.634190
-27.079481
-25.547859
-22.853939
-18.942144
-13.847328
-7.653058
-0.651907
6.445980
12.612120
16.894552
18.711275
17.860130
14.444987
8.845016
1.633694
-6.574315
-15.217077
-23.748474
-31.620150
-38.436035
-44.181732
-49.336788
-54.688759
-60.803394
-67.555038
-74.193649
-79.761398
-83.324089
-84.038216
-81.386826
-75.382874
-66.425850
-55.065868
-41.965546
-27.988636
-14.270781
-2.082811
7.569896
14.250634
18.039793
19.358095
18.833229
17.093092
14.504392
11.066755
6.568905
0.911120
-5.647528
-12.541451
-19.199291
-25.266914
-30.557039
-34.899696
-38.068611
-39.699432
-39.199368
-35.850750
-29.194059
-19.501005
-7.911470
4.059208
15.309932
25.567450
35.142010
44.327255
53.008617
60.760674
67.140221
71.775192
74.265869
74.196014
71.427994
66.452553
60.349239
54.305302
49.112152
44.968746
41.622437
38.762569
36.363808
34.564594
33.244720
31.983564
30.529228
29.109005
28.152231
27.841364
28.050367
28.615282
29.506559
30.721840
32.109169
33.388184
34.357754
35.059616
35.773075
36.856339
38.463631
40.312424
41.761047
42.180294
41.333473
39.522266
37.389153
35.432980
33.588169
31.257963
27.743177
22.633661
15.852835
7.469981
-2.361482
-13.271451
-24.609320
-35.498692
-44.867451
-51.595837
-54.934174
-54.856808
-51.985264
-47.209618
-41.374596
-35.231537
-29.502018
-24.749609
-21.143665
-18.458536
-16.302223
-14.295275
-12.082418
-9.278650
-5.527989
-0.744562
4.647312
9.760243
13.647005
15.772703
16.131718
14.930954
12.227937
7.885879
1.832457
-5.629929
-13.728054
-21.448734
-27.930346
-32.632423
-35.146370
-35.075245
-32.295322
-27.181993
-20.425650
-12.758158
-4.906308
2.444917
8.904519
14.595090
19.977200
25.390944
30.783339
35.830189
40.182629
43.503475
45.365902
45.295185
42.871822
37.648289
29.082092
16.816181
1.109583
-17.007580
-35.968594
-54.118191
-70.081253
-82.904205
-92.106461
-97.715706
-100.182655
-100.210991
-98.608871
-96.113960
-93.178307
-89.860344
-85.916641
-80.972435
-74.561264
-66.080894
-54.956451
-41.032707
-24.915348
-8.065147
7.498279
19.897095
28.073587
31.971607
32.307861
30.285221
27.292990
24.517422
22.670267
22.043671
22.696354
24.529663
27.344267
30.974327
35.339455
40.262356
45.210014
49.341568
51.966408
52.943020
52.545319
50.992870
48.212154
44.042744
38.596100
32.352745
25.904835
19.629818
13.583751
7.628893
1.623698
-4.458448
-10.470203
-16.065380
-20.780478
-24.245098
-26.352537
-27.199402
-26.909555
-25.643522
-23.728745
-21.555738
-19.265909
-16.626478
-13.264957
-9.070306
-4.465737
-0.370714
2.146183
2.342019
0.062010
-4.401617
-10.587069
-17.961622
-25.938478
-33.978073
-41.683399
-48.822933
-55.347137
-61.365273
-67.049660
-72.570023
-78.069740
-83.593239
-88.962402
-93.665756
-96.892410
-97.864120
-96.300743
-92.526810
-87.014656
-79.749809
-70.000793
-56.786060
-39.721333
-19.538458
2.035786
22.787645
40.661366
54.389774
63.820999
69.677986
72.879951
73.975098
73.069771
70.058090
64.850464
57.599651
48.922497
39.918701
31.857384
25.728552
22.012259
20.727343
21.524523
23.739279
26.525387
29.079958
30.856985
31.707952
31.875952
31.785694
31.747679
31.755136
31.433165
30.165852
27.386547
22.855850
16.767260
9.696748
2.420555
-4.363791
-10.225787
-14.981100
-18.573103
-20.972807
-22.106874
-21.800276
-19.746876
-15.588528
-9.115157
-0.392426
10.302057
22.611219
36.212811
50.852463
66.117439
81.045883
94.031754
103.219795
107.108727
105.039742
97.397346
85.441078
70.824997
55.006222
38.844654
22.638550
6.466005
-9.520639
-24.920456
-38.948444
-50.479931
-58.376991
-61.872658
-60.752449
-55.313610
-46.216820
-34.292793
-20.310408
-4.818359
11.768220
28.940502
46.042370
62.394619
77.303947
89.931946
99.318398
104.641068
105.471695
101.883957
94.445755
84.097313
71.941177
59.033901
46.206654
33.926796
22.313286
11.379306
1.307882
-7.557837
-14.996170
-21.068890
-25.972801
-29.847916
-32.745171
-34.620850
-35.294445
-34.526405
-32.241756
-28.668665
-24.226475
-19.312178
-14.229878
-9.278619
-4.851825
-1.443982
0.487439
0.758337
-0.408985
-2.478780
-4.801139
-6.778012
-7.977151
-8.210083
-7.602722
-6.649706
-6.095638
-6.530348
-7.999164
