EVENT_NAME: CENTRAL_ITALY
EVENT_ID: EMSC-20161030_0000029
EVENT_DATE_YYYYMMDD: 20161030
EVENT_TIME_HHMMSS: 064018
EVENT_LATITUDE_DEGREE: 42.8400
EVENT_LONGITUDE_DEGREE: 13.1100
EVENT_DEPTH_KM: 9.4
HYPOCENTER_REFERENCE: INGV-webservice
MAGNITUDE_W: 6.5
MAGNITUDE_W_REFERENCE: INGV-webservice
MAGNITUDE_L: 6.1
MAGNITUDE_L_REFERENCE: INGV-webservice
FOCAL_MECHANISM: NF
NETWORK: IT
STATION_CODE: NRC
STATION_NAME: NORCIA
STATION_LATITUDE_DEGREE: 42.792543
STATION_LONGITUDE_DEGREE: 13.096475
STATION_ELEVATION_M: 616
LOCATION: 
SENSOR_DEPTH_M: 0.0
VS30_M/S: 687
SITE_CLASSIFICATION_EC8: B
MORPHOLOGIC_CLASSIFICATION: SL
EPICENTRAL_DISTANCE_KM: 5.4
EARTHQUAKE_BACKAZIMUTH_DEGREE: 11.8
DATE_TIME_FIRST_SAMPLE_YYYYMMDD_HHMMSS: 20161030_064013.314
DATE_TIME_FIRST_SAMPLE_PRECISION: milliseconds
SAMPLING_INTERVAL_S: 0.005000
NDATA: 10000
DURATION_S: 50.000
STREAM: HGN
UNITS: cm
INSTRUMENT: sensor = Unknown [Unknown] | digitizer = Unknown [Unknown]
INSTRUMENT_ANALOG/DIGITAL: D
INSTRUMENTAL_FREQUENCY_HZ: 
INSTRUMENTAL_DAMPING: 
FULL_SCALE_G: 
N_BIT_DIGITAL_CONVERTER: 
PGD_CM: 8.137837
TIME_PGD_S: 16.890000
BASELINE_CORRECTION: BASELINE REMOVED
FILTER_TYPE: BUTTERWORTH
FILTER_ORDER: 2
LOW_CUT_FREQUENCY_HZ: 0.100
HIGH_CUT_FREQUENCY_HZ: 50.000
LATE/NORMAL_TRIGGERED: NT
DATABASE_VERSION: DYNA 1.0
HEADER_FORMAT: DYNA 1.2
DATA_TYPE: DISPLACEMENT
PROCESSING: manual (Paolucci et al., 2011)
DATA_TIMESTAMP_YYYYMMDD_HHMMSS: 20161030_132633.881
DATA_LICENSE: CC-BY3_0-IT (http://creativecommons.org/licenses/by/3.0/deed.en)
DATA_CITATION: ESM working group (2015), European Strong-Motion database, version 0.1, Network Activity 3: Networking acceleration networks and SM data users. Project NERA (www.nera-eu.org)
DATA_CREATOR: ESM working group
ORIGINAL_DATA_MEDIATOR_CITATION: Ufficio Rischio Sismico e Vulcanico del Dipartimento della Protezione Civile (http://www.protezionecivile.gov.it/)
ORIGINAL_DATA_MEDIATOR: Rete Accelerometrica Nazionale - RAN Download (http://www.mot1.it/randownload/)
ORIGINAL_DATA_CREATOR_CITATION: Italian Strong Motion Network, Italian Civil Protection Department http://www.protezionecivile.gov.it
ORIGINAL_DATA_CREATOR: network: IT (Italian Strong Motion Network); owner: Dipartimento Della Protezione Civile
USER1: /home/dyna/processing-itaca/processing.py /var/www/processing//tmp/Lucia//IT.NRC..HGE.D.20161030.064018.X.ACC.ASC /var/www/processing//tmp/Lucia//IT.NRC..HGN.D.20161030.064018.X.ACC.ASC /var/www/processing//tmp/Lucia//IT.NRC..HGZ.D.20161030.064018.X.ACC.ASC --tmp /var/www/processing//tmp/Lucia/ --le 0.100 --he 50.000 --ln 0.100 --hn 50.000 --lz 0.100 --hz 50.000 --fo 2 --ca 0 --cz 130 --ta 5 --tz 5 --mf 1 --rf 0 --tr NT
USER2: 
USER3: 
USER4: 
USER5: 
[...]
3.646524e+00
3.660039e+00
3.669681e+00
3.675440e+00
3.677256e+00
3.675234e+00
3.669832e+00
3.661776e+00
3.651667e+00
3.639676e+00
3.625725e+00
3.609900e+00
3.592584e+00
3.574227e+00
3.555062e+00
3.534951e+00
3.513472e+00
3.490176e+00
3.464796e+00
3.437220e+00
3.407252e+00
3.374435e+00
3.338138e+00
3.297794e+00
3.253054e+00
3.203759e+00
3.149800e+00
3.090944e+00
3.026789e+00
2.956902e+00
2.881042e+00
2.799238e+00
2.711626e+00
2.618212e+00
2.518843e+00
2.413363e+00
2.301787e+00
2.184341e+00
2.061421e+00
1.933605e+00
1.801667e+00
1.666428e+00
1.528610e+00
1.388866e+00
1.247894e+00
1.106453e+00
9.651799e-01
8.244790e-01
6.845866e-01
5.457004e-01
4.080430e-01
2.718612e-01
1.374618e-01
5.307960e-03
-1.239680e-01
-2.497283e-01
-3.715298e-01
-4.891207e-01
-6.022883e-01
-7.108905e-01
-8.151227e-01
-9.156683e-01
-1.013504e+00
-1.109562e+00
-1.204532e+00
-1.298819e+00
-1.392615e+00
-1.485986e+00
-1.578909e+00
-1.671232e+00
-1.762699e+00
-1.853040e+00
-1.942046e+00
-2.029591e+00
-2.115657e+00
-2.200350e+00
-2.283844e+00
-2.366333e+00
-2.448030e+00
-2.529130e+00
-2.609700e+00
-2.689616e+00
-2.768650e+00
-2.846584e+00
-2.923165e+00
-2.998004e+00
-3.070594e+00
-3.140462e+00
-3.207311e+00
-3.271054e+00
-3.331745e+00
-3.389512e+00
-3.444540e+00
-3.497037e+00
-3.547187e+00
-3.595133e+00
-3.641015e+00
-3.684918e+00
-3.726815e+00
-3.766632e+00
-3.804329e+00
-3.839804e+00
-3.872786e+00
-3.902940e+00
-3.929962e+00
-3.953554e+00
-3.973440e+00
-3.989437e+00
-4.001477e+00
-4.009627e+00
-4.014121e+00
-4.015299e+00
-4.013495e+00
-4.009014e+00
-4.002125e+00
-3.993035e+00
-3.981904e+00
-3.968905e+00
-3.954254e+00
-3.938265e+00
-3.921370e+00
-3.904045e+00
-3.886719e+00
-3.869763e+00
-3.853516e+00
-3.838281e+00
-3.824333e+00
-3.811952e+00
-3.801420e+00
-3.792976e+00
-3.786817e+00
-3.783189e+00
-3.782412e+00
-3.784785e+00
-3.790535e+00
-3.799837e+00
-3.812831e+00
-3.829626e+00
-3.850284e+00
-3.874776e+00
-3.902911e+00
-3.934389e+00
-3.968962e+00
-4.006494e+00
-4.046849e+00
-4.089773e+00
-4.134836e+00
-4.181431e+00
-4.228857e+00
-4.276450e+00
-4.323635e+00
-4.369903e+00
-4.414783e+00
-4.457845e+00
-4.498660e+00
-4.536793e+00
-4.571801e+00
-4.603235e+00
-4.630640e+00
-4.653557e+00
-4.671526e+00
-4.684081e+00
-4.690755e+00
-4.691103e+00
-4.684763e+00
-4.671464e+00
-4.651015e+00
-4.623290e+00
-4.588183e+00
-4.545579e+00
-4.495404e+00
-4.437724e+00
-4.372825e+00
-4.301189e+00
-4.223407e+00
-4.140127e+00
-4.052009e+00
-3.959693e+00
-3.863801e+00
-3.764932e+00
-3.663650e+00
-3.560514e+00
-3.456129e+00
-3.351162e+00
-3.246326e+00
-3.142338e+00
-3.039912e+00
-2.939803e+00
-2.842791e+00
-2.749597e+00
-2.660785e+00
-2.576755e+00
-2.497796e+00
-2.424085e+00
-2.355627e+00
-2.292241e+00
-2.233606e+00
-2.179338e+00
-2.129018e+00
-2.082188e+00
-2.038335e+00
-1.996884e+00
-1.957194e+00
-1.918602e+00
-1.880508e+00
-1.842393e+00
-1.803730e+00
-1.763915e+00
-1.722269e+00
-1.678073e+00
-1.630642e+00
-1.579397e+00
-1.523891e+00
-1.463794e+00
-1.398891e+00
-1.329031e+00
-1.254066e+00
-1.173844e+00
-1.088246e+00
-9.972113e-01
-9.007448e-01
-7.989419e-01
-6.920255e-01
-5.803695e-01
-4.645111e-01
-3.451211e-01
-2.228973e-01
-9.844516e-02
2.773153e-02
1.551308e-01
2.831791e-01
4.112568e-01
5.387692e-01
6.651912e-01
7.900514e-01
9.128634e-01
1.033046e+00
1.149899e+00
1.262700e+00
1.370860e+00
1.474039e+00
1.572102e+00
1.664983e+00
1.752600e+00
1.834916e+00
1.912065e+00
1.984422e+00
2.052545e+00
2.117022e+00
2.178335e+00
2.236814e+00
2.292677e+00
2.346170e+00
2.397637e+00
2.447451e+00
2.495977e+00
2.543661e+00
2.591080e+00
2.638836e+00
2.687421e+00
2.737197e+00
2.788491e+00
2.841638e+00
2.896961e+00
2.954665e+00
3.014681e+00
3.076622e+00
3.139913e+00
3.203978e+00
3.268306e+00
3.332419e+00
3.395827e+00
3.458069e+00
3.518792e+00
3.577769e+00
3.634876e+00
3.690115e+00
3.743605e+00
3.795514e+00
3.846005e+00
3.895267e+00
3.943563e+00
3.991194e+00
4.038392e+00
4.085270e+00
4.131870e+00
4.178202e+00
4.224231e+00
4.269842e+00
4.314844e+00
4.358961e+00
4.401803e+00
4.442895e+00
4.481783e+00
4.518097e+00
4.551480e+00
4.581538e+00
4.607864e+00
4.630103e+00
4.647999e+00
4.661391e+00
4.670199e+00
4.674472e+00
4.674428e+00
4.670453e+00
4.663081e+00
4.652948e+00
4.640726e+00
4.627061e+00
4.612563e+00
4.597818e+00
4.583417e+00
4.569964e+00
4.557994e+00
4.547884e+00
4.539839e+00
4.533940e+00
4.530195e+00
4.528583e+00
4.529045e+00
4.531411e+00
4.535360e+00
4.540495e+00
4.546468e+00
4.553000e+00
4.559767e+00
4.566282e+00
4.571945e+00
4.576217e+00
4.578685e+00
4.578970e+00
4.576583e+00
4.570887e+00
4.561213e+00
4.547002e+00
4.527840e+00
4.503437e+00
4.473623e+00
4.438370e+00
4.397785e+00
4.352115e+00
4.301783e+00
4.247377e+00
4.189600e+00
4.129212e+00
4.066996e+00
4.003750e+00
3.940327e+00
3.877617e+00
3.816453e+00
3.757534e+00
3.701404e+00
3.648439e+00
3.598863e+00
3.552751e+00
3.510060e+00
3.470716e+00
3.434696e+00
3.402042e+00
3.372840e+00
3.347169e+00
3.325054e+00
3.306424e+00
3.291090e+00
3.278789e+00
3.269258e+00
3.262288e+00
3.257680e+00
3.255188e+00
3.254520e+00
3.255427e+00
3.257764e+00
3.261441e+00
3.266314e+00
3.272123e+00
3.278504e+00
3.285028e+00
3.291250e+00
3.296764e+00
3.301182e+00
3.304050e+00
3.304849e+00
3.303145e+00
3.298727e+00
3.291564e+00
3.281641e+00
3.268861e+00
3.253090e+00
3.234317e+00
3.212800e+00
3.189035e+00
3.163587e+00
3.136948e+00
3.109498e+00
3.081565e+00
3.053515e+00
3.025771e+00
2.998718e+00
2.972644e+00
2.947768e+00
2.924298e+00
2.902438e+00
2.882363e+00
2.864181e+00
2.847919e+00
2.833588e+00
2.821221e+00
2.810846e+00
2.802398e+00
2.795658e+00
2.790258e+00
2.785709e+00
2.781421e+00
2.776757e+00
2.771099e+00
2.763869e+00
2.754523e+00
2.742558e+00
2.727535e+00
2.709078e+00
2.686866e+00
2.660613e+00
2.630065e+00
2.595065e+00
2.555678e+00
2.512244e+00
2.465222e+00
2.414998e+00
2.361869e+00
2.306191e+00
2.248485e+00
2.189449e+00
2.129867e+00
2.070445e+00
2.011706e+00
1.954055e+00
1.897935e+00
1.843892e+00
1.792534e+00
1.744406e+00
1.699936e+00
1.659477e+00
1.623438e+00
1.592349e+00
1.566740e+00
1.546922e+00
1.532866e+00
1.524285e+00
1.520838e+00
1.522236e+00
1.528124e+00
1.537858e+00
1.550416e+00
1.564577e+00
1.579219e+00
1.593454e+00
1.606489e+00
1.617387e+00
1.625015e+00
1.628282e+00
1.626428e+00
1.619171e+00
1.606590e+00
1.588866e+00
1.566075e+00
1.538256e+00
1.505660e+00
1.468881e+00
1.428701e+00
1.385783e+00
1.340506e+00
1.293005e+00
1.243401e+00
1.191980e+00
1.139177e+00
1.085395e+00
1.030870e+00
9.757376e-01
9.202050e-01
8.646031e-01
8.092494e-01
7.542468e-01
6.994544e-01
6.446465e-01
5.896538e-01
5.344001e-01
4.788666e-01
4.230028e-01
3.666947e-01
3.098496e-01
2.524603e-01
1.945894e-01
1.363570e-01
7.796029e-02
1.969944e-02
-3.801141e-02
-9.469244e-02
-1.498969e-01
-2.032477e-01
-2.543658e-01
-3.027884e-01
-3.479735e-01
-3.894429e-01
-4.269940e-01
-4.607659e-01
-4.910619e-01
-5.180989e-01
-5.419110e-01
-5.624677e-01
-5.798976e-01
-5.946020e-01
-6.070951e-01
-6.177173e-01
-6.265923e-01
-6.338748e-01
-6.399226e-01
-6.452179e-01
-6.502234e-01
-6.552855e-01
-6.605738e-01
-6.661418e-01
-6.720876e-01
-6.785967e-01
-6.858067e-01
-6.936831e-01
-7.020534e-01
-7.107771e-01
-7.198934e-01
-7.295824e-01
-7.399828e-01
-7.510654e-01
-7.626354e-01
-7.744259e-01
-7.862522e-01
-7.980783e-01
-8.098434e-01
-8.212520e-01
-8.318364e-01
-8.412004e-01
-8.491078e-01
-8.553667e-01
-8.597456e-01
-8.620151e-01
-8.620045e-01
-8.596291e-01
-8.549089e-01
-8.479172e-01
-8.386619e-01
-8.270718e-01
-8.131479e-01
-7.970881e-01
-7.792302e-01
-7.598855e-01
-7.392306e-01
-7.173437e-01
-6.943385e-01
-6.704541e-01
-6.460102e-01
-6.212463e-01
-5.961585e-01
-5.705049e-01
-5.440572e-01
-5.168739e-01
-4.892717e-01
-4.615668e-01
-4.339260e-01
-4.064430e-01
-3.792882e-01
-3.527908e-01
-3.273759e-01
-3.033924e-01
-2.810060e-01
-2.602817e-01
-2.413525e-01
-2.245003e-01
-2.100843e-01
-1.983502e-01
-1.892522e-01
-1.824640e-01
-1.775932e-01
-1.743778e-01
-1.726676e-01
-1.722854e-01
-1.729960e-01
-1.745954e-01
-1.769755e-01
-1.801193e-01
-1.840424e-01
-1.887050e-01
-1.939300e-01
-1.993413e-01
-2.044212e-01
-2.087763e-01
-2.123367e-01
-2.151633e-01
-2.171429e-01
-2.179967e-01
-2.174628e-01
-2.153714e-01
-2.116684e-01
-2.064439e-01
-1.998874e-01
-1.922208e-01
-1.837050e-01
-1.746552e-01
-1.653981e-01
-1.562197e-01
-1.473333e-01
-1.388532e-01
-1.308232e-01
-1.233479e-01
-1.167333e-01
-1.114791e-01
-1.081242e-01
-1.071042e-01
-1.087347e-01
-1.132874e-01
-1.210573e-01
-1.323579e-01
-1.474566e-01
-1.665031e-01
-1.895123e-01
-2.164355e-01
-2.472611e-01
-2.820027e-01
-3.205680e-01
-3.626973e-01
-4.080680e-01
-4.564135e-01
-5.075137e-01
-5.611142e-01
-6.168652e-01
-6.743162e-01
-7.329871e-01
-7.924894e-01
-8.525898e-01
-9.131290e-01
-9.738575e-01
-1.034382e+00
-1.094289e+00
-1.153303e+00
-1.211322e+00
-1.268358e+00
-1.324427e+00
-1.379505e+00
-1.433588e+00
-1.486784e+00
-1.539318e+00
-1.591427e+00
-1.643287e+00
-1.695044e+00
-1.746869e+00
-1.798999e+00
-1.851790e+00
-1.905693e+00
-1.961134e+00
-2.018481e+00
-2.078104e+00
-2.140370e+00
-2.205562e+00
-2.273818e+00
-2.345139e+00
-2.419391e+00
-2.496265e+00
-2.575250e+00
-2.655696e+00
-2.736893e+00
-2.818101e+00
-2.898595e+00
-2.977705e+00
-3.054801e+00
-3.129247e+00
-3.200409e+00
-3.267702e+00
-3.330622e+00
-3.388716e+00
-3.441472e+00
-3.488302e+00
-3.528746e+00
-3.562704e+00
-3.590477e+00
-3.612606e+00
-3.629638e+00
-3.642035e+00
-3.650298e+00
-3.655143e+00
-3.657604e+00
-3.658913e+00
-3.660263e+00
-3.662686e+00
-3.667165e+00
-3.674788e+00
-3.686806e+00
-3.704577e+00
-3.729359e+00
-3.762032e+00
-3.802934e+00
-3.851967e+00
-3.908950e+00
-3.973923e+00
-4.046987e+00
-4.127780e+00
-4.215304e+00
-4.308280e+00
-4.405518e+00
-4.506004e+00
-4.608796e+00
-4.712863e+00
-4.817013e+00
-4.920010e+00
-5.020854e+00
-5.118927e+00
-5.213793e+00
-5.304859e+00
-5.391314e+00
-5.472357e+00
-5.547460e+00
-5.616415e+00
-5.679154e+00
-5.735580e+00
-5.785591e+00
-5.829226e+00
-5.866749e+00
-5.898586e+00
-5.925186e+00
-5.946947e+00
-5.964247e+00
-5.977527e+00
-5.987295e+00
-5.993995e+00
-5.997878e+00
-5.999030e+00
-5.997587e+00
-5.993931e+00
-5.988629e+00
-5.982218e+00
-5.975122e+00
-5.967719e+00
-5.960414e+00
-5.953644e+00
-5.947829e+00
-5.943301e+00
-5.940282e+00
-5.938942e+00
-5.939496e+00
-5.942272e+00
-5.947680e+00
-5.956028e+00
-5.967367e+00
-5.981556e+00
-5.998499e+00
-6.018219e+00
-6.040724e+00
-6.065794e+00
-6.092876e+00
-6.121226e+00
-6.150183e+00
-6.179285e+00
-6.208171e+00
-6.236430e+00
-6.263507e+00
-6.288715e+00
-6.311368e+00
-6.330907e+00
-6.346914e+00
-6.358992e+00
-6.366624e+00
-6.369156e+00
-6.365938e+00
-6.356481e+00
-6.340447e+00
-6.317517e+00
-6.287338e+00
-6.249564e+00
-6.203962e+00
-6.150495e+00
-6.089327e+00
-6.020761e+00
-5.945209e+00
-5.863236e+00
-5.775578e+00
-5.683069e+00
-5.586514e+00
-5.486648e+00
-5.384181e+00
-5.279886e+00
-5.174658e+00
-5.069524e+00
-4.965567e+00
-4.863792e+00
-4.765001e+00
-4.669796e+00
-4.578618e+00
-4.491705e+00
-4.409044e+00
-4.330431e+00
-4.255514e+00
-4.183769e+00
-4.114585e+00
-4.047397e+00
-3.981682e+00
-3.916827e+00
-3.852092e+00
-3.786690e+00
-3.719827e+00
-3.650683e+00
-3.578435e+00
-3.502314e+00
-3.421608e+00
-3.335632e+00
-3.243744e+00
-3.145331e+00
-3.039758e+00
-2.926368e+00
-2.804575e+00
-2.673954e+00
-2.534269e+00
-2.385457e+00
-2.227642e+00
-2.061162e+00
-1.886569e+00
-1.704598e+00
-1.516116e+00
-1.322087e+00
-1.123538e+00
-9.214895e-01
-7.168794e-01
-5.105610e-01
-3.033643e-01
-9.613558e-02
1.102889e-01
3.150997e-01
5.175542e-01
7.170757e-01
9.132548e-01
1.105787e+00
1.294505e+00
1.479431e+00
1.660783e+00
1.838935e+00
2.014373e+00
2.187646e+00
2.359329e+00
2.530016e+00
2.700350e+00
2.871027e+00
3.042713e+00
3.215926e+00
3.391020e+00
3.568205e+00
3.747507e+00
3.928728e+00
4.111445e+00
4.295012e+00
4.478636e+00
4.661619e+00
4.843563e+00
5.024312e+00
5.203698e+00
5.381398e+00
5.556954e+00
5.729842e+00
5.899494e+00
6.065298e+00
6.226602e+00
6.382761e+00
6.533209e+00
6.677558e+00
6.815612e+00
6.947269e+00
7.072371e+00
7.190685e+00
7.302020e+00
7.406304e+00
7.503493e+00
7.593460e+00
7.675974e+00
7.750791e+00
7.817807e+00
7.877141e+00
7.929049e+00
7.973797e+00
8.011705e+00
8.043282e+00
8.069186e+00
8.090064e+00
8.106489e+00
8.118979e+00
8.127997e+00
8.133940e+00
8.137137e+00
8.137837e+00
8.136216e+00
8.132401e+00
8.126482e+00
8.118491e+00
8.108383e+00
8.096032e+00
8.081261e+00
8.063897e+00
8.043822e+00
8.020976e+00
7.995271e+00
7.966487e+00
7.934260e+00
7.898214e+00
7.858081e+00
7.813668e+00
7.764745e+00
7.711022e+00
7.652221e+00
7.588124e+00
7.518617e+00
7.443704e+00
7.363491e+00
7.278128e+00
7.187773e+00
7.092603e+00
6.992766e+00
6.888332e+00
6.779336e+00
6.665843e+00
6.547920e+00
6.425592e+00
6.298904e+00
6.168082e+00
6.033571e+00
5.895887e+00
5.755479e+00
5.612707e+00
5.467849e+00
5.321107e+00
5.172700e+00
5.022937e+00
4.872157e+00
4.720618e+00
4.568455e+00
4.415722e+00
4.262428e+00
4.108577e+00
3.954190e+00
3.799299e+00
3.643944e+00
3.488201e+00
3.332228e+00
3.176255e+00
3.020513e+00
2.865191e+00
2.710464e+00
2.556523e+00
2.403586e+00
2.251915e+00
2.101786e+00
1.953423e+00
1.806975e+00
1.662568e+00
1.520350e+00
1.380462e+00
1.242987e+00
1.107948e+00
9.753533e-01
8.452049e-01
7.174971e-01
5.922214e-01
4.693574e-01
3.488786e-01
2.307972e-01
1.151930e-01
2.179489e-03
-1.081514e-01
-2.157414e-01
-3.205318e-01
-4.224411e-01
-5.213689e-01
-6.171845e-01
-7.097030e-01
-7.986987e-01
-8.839448e-01
-9.652254e-01
-1.042335e+00
-1.115121e+00
-1.183529e+00
-1.247589e+00
-1.307340e+00
-1.362801e+00
-1.413974e+00
-1.460864e+00
-1.503474e+00
-1.541823e+00
-1.575944e+00
-1.605885e+00
-1.631684e+00
-1.653361e+00
-1.670929e+00
-1.684399e+00
-1.693766e+00
-1.699026e+00
-1.700233e+00
-1.697529e+00
-1.691126e+00
-1.681263e+00
-1.668168e+00
-1.652033e+00
-1.633053e+00
-1.611497e+00
-1.587710e+00
-1.562022e+00
-1.534664e+00
-1.505781e+00
-1.475511e+00
-1.444061e+00
-1.411707e+00
-1.378740e+00
-1.345422e+00
-1.311970e+00
-1.278598e+00
-1.245574e+00
-1.213220e+00
-1.181856e+00
-1.151779e+00
-1.123266e+00
-1.096578e+00
-1.071944e+00
-1.049542e+00
-1.029479e+00
-1.011745e+00
-9.961881e-01
-9.825382e-01
-9.704660e-01
-9.596583e-01
-9.498425e-01
-9.407554e-01
-9.321194e-01
-9.236725e-01
-9.151888e-01
-9.064558e-01
-8.972774e-01
-8.875149e-01
-8.770904e-01
-8.659448e-01
-8.540068e-01
-8.411945e-01
-8.274263e-01
-8.126418e-01
-7.968342e-01
-7.800688e-01
-7.624553e-01
-7.440899e-01
-7.250300e-01
-7.053300e-01
-6.850667e-01
-6.643144e-01
-6.431370e-01
-6.216238e-01
-5.998890e-01
-5.780310e-01
-5.561256e-01
-5.342571e-01
-5.125209e-01
-4.909832e-01
-4.696902e-01
-4.487790e-01
-4.285265e-01
-4.091893e-01
-3.908502e-01
-3.735213e-01
-3.573035e-01
-3.423378e-01
-3.287197e-01
-3.165583e-01
-3.059974e-01
-2.970898e-01
-2.897156e-01
-2.836940e-01
-2.789659e-01
-2.755856e-01
-2.735253e-01
-2.726189e-01
-2.727161e-01
-2.737669e-01
-2.757718e-01
-2.787710e-01
-2.828859e-01
-2.882990e-01
-2.951689e-01
-3.035663e-01
-3.134486e-01
-3.246423e-01
-3.368569e-01
-3.497739e-01
-3.631161e-01
-3.766018e-01
-3.899175e-01
-4.027890e-01
-4.149990e-01
-4.263373e-01
-4.366374e-01
-4.458528e-01
-4.540473e-01
-4.613510e-01
-4.679428e-01
-4.739988e-01
-4.796336e-01
-4.849147e-01
-4.899071e-01
-4.946920e-01
-4.993991e-01
-5.042407e-01
-5.094682e-01
-5.152706e-01
-5.217470e-01
-5.290024e-01
-5.372533e-01
-5.468256e-01
-5.580682e-01
-5.712808e-01
-5.866955e-01
-6.044831e-01
-6.247437e-01
-6.474756e-01
-6.725439e-01
-6.996653e-01
-7.284238e-01
-7.583506e-01
-7.890257e-01
-8.200729e-01
-8.510704e-01
-8.815637e-01
-9.111975e-01
-9.397667e-01
-9.671433e-01
-9.932342e-01
-1.018001e+00
-1.041481e+00
-1.063819e+00
-1.085263e+00
-1.106059e+00
-1.126358e+00
-1.146269e+00
-1.165961e+00
-1.185640e+00
-1.205484e+00
-1.225670e+00
-1.246400e+00
-1.267860e+00
-1.290227e+00
-1.313741e+00
-1.338696e+00
-1.365330e+00
-1.393747e+00
-1.423928e+00
-1.455750e+00
-1.488976e+00
-1.523276e+00
-1.558262e+00
-1.593483e+00
-1.628426e+00
-1.662573e+00
-1.695455e+00
-1.726635e+00
-1.755722e+00
-1.782422e+00
-1.806527e+00
-1.827874e+00
-1.846338e+00
-1.861846e+00
-1.874348e+00
-1.883792e+00
-1.890135e+00
-1.893377e+00
-1.893575e+00
-1.890842e+00
-1.885349e+00
-1.877333e+00
-1.867095e+00
-1.854985e+00
-1.841384e+00
-1.826691e+00
-1.811289e+00
-1.795508e+00
-1.779590e+00
-1.763713e+00
-1.748039e+00
-1.732733e+00
-1.717911e+00
-1.703596e+00
-1.689718e+00
-1.676124e+00
-1.662661e+00
-1.649268e+00
-1.635963e+00
-1.622758e+00
-1.609601e+00
-1.596416e+00
-1.583153e+00
-1.569816e+00
-1.556453e+00
-1.543135e+00
-1.529918e+00
-1.516840e+00
-1.503950e+00
-1.491313e+00
-1.478988e+00
-1.466975e+00
-1.455207e+00
-1.443584e+00
-1.431985e+00
-1.420247e+00
-1.408196e+00
-1.395693e+00
-1.382616e+00
-1.368825e+00
-1.354192e+00
-1.338604e+00
-1.321918e+00
-1.303956e+00
-1.284580e+00
-1.263705e+00
-1.241262e+00
-1.217213e+00
-1.191576e+00
-1.164356e+00
-1.135498e+00
-1.104935e+00
-1.072657e+00
-1.038705e+00
-1.003137e+00
-9.660468e-01
-9.275960e-01
-8.880025e-01
-8.475289e-01
-8.064500e-01
-7.649722e-01
-7.231922e-01
-6.811491e-01
-6.388964e-01
-5.965353e-01
-5.541867e-01
-5.119157e-01
-4.696915e-01
-4.274159e-01
-3.849576e-01
-3.421753e-01
-2.989307e-01
-2.550807e-01
-2.104973e-01
-1.651173e-01
-1.189260e-01
-7.189223e-02
-2.396142e-02
2.491012e-02
7.472993e-02
1.254558e-01
1.770154e-01
2.293465e-01
2.823911e-01
3.360549e-01
3.902180e-01
4.447756e-01
4.996269e-01
5.546463e-01
6.097073e-01
6.647127e-01
7.195633e-01
7.741138e-01
8.282012e-01
8.817155e-01
9.346177e-01
9.868972e-01
