EVENT_NAME: EMILIA_2ND_SHOCK
EVENT_ID: IT-2012-0011
EVENT_DATE_YYYYMMDD: 20120529
EVENT_TIME_HHMMSS: 070002
EVENT_LATITUDE_DEGREE: 44.8417
EVENT_LONGITUDE_DEGREE: 11.0657
EVENT_DEPTH_KM: 8.1
HYPOCENTER_REFERENCE: INGV-CNT_Seismic_Bulletin
MAGNITUDE_W: 6.0
MAGNITUDE_W_REFERENCE: RCMT-INGV
MAGNITUDE_L: 5.8
MAGNITUDE_L_REFERENCE: INGV-CNT_Seismic_Bulletin
FOCAL_MECHANISM: TF
NETWORK: IT
STATION_CODE: NVL
STATION_NAME: NOVELLARA
STATION_LATITUDE_DEGREE: 44.843001
STATION_LONGITUDE_DEGREE: 10.731506
STATION_ELEVATION_M: 22
LOCATION: 
SENSOR_DEPTH_M: 0.0
VS30_M/S: 190
SITE_CLASSIFICATION_EC8: C
MORPHOLOGIC_CLASSIFICATION: 
EPICENTRAL_DISTANCE_KM: 26.4
EARTHQUAKE_BACKAZIMUTH_DEGREE: 90.2
DATE_TIME_FIRST_SAMPLE_YYYYMMDD_HHMMSS: 20120529_065933.000
DATE_TIME_FIRST_SAMPLE_PRECISION: seconds
SAMPLING_INTERVAL_S: 0.005000
NDATA: 28001
DURATION_S: 140.005
STREAM: HNE
UNITS: cm/s
INSTRUMENT: sensor = MS2007+ [Syscom] | digitizer = 130-01/3 [Reftek]
INSTRUMENT_ANALOG/DIGITAL: D
INSTRUMENTAL_FREQUENCY_HZ: 
INSTRUMENTAL_DAMPING: 
FULL_SCALE_G: 
N_BIT_DIGITAL_CONVERTER: 24
PGV_CM/S: 2.569056
TIME_PGV_S: 45.135000
BASELINE_CORRECTION: BASELINE REMOVED
FILTER_TYPE: BUTTERWORTH
FILTER_ORDER: 2
LOW_CUT_FREQUENCY_HZ: 0.060
HIGH_CUT_FREQUENCY_HZ: 30.000
LATE/NORMAL_TRIGGERED: NT
DATABASE_VERSION: DYNA 1.0
HEADER_FORMAT: DYNA 1.2
DATA_TYPE: VELOCITY
PROCESSING: manual (Paolucci et al., 2011)
DATA_TIMESTAMP_YYYYMMDD_HHMMSS: 
DATA_LICENSE: CC-BY3_0-IT (http://creativecommons.org/licenses/by/3.0/deed.en)
DATA_CITATION: ESM working group (2015), European Strong-Motion database, version 0.1, Network Activity 3: Networking acceleration networks and SM data users. Project NERA (www.nera-eu.org)
DATA_CREATOR: ESM working group
ORIGINAL_DATA_MEDIATOR_CITATION: Ufficio Rischio Sismico e Vulcanico del Dipartimento della Protezione Civile (http://www.protezionecivile.gov.it/)
ORIGINAL_DATA_MEDIATOR: Rete Accelerometrica Nazionale - RAN Download (http://www.mot1.it/randownload/)
ORIGINAL_DATA_CREATOR_CITATION: Italian Strong Motion Network, Italian Civil Protection Department http://www.protezionecivile.gov.it
ORIGINAL_DATA_CREATOR: network: IT (Italian Strong Motion Network); owner: Dipartimento Della Protezione Civile
USER1: 
USER2: 
USER3: 
USER4: 
USER5: 
[...]
0.045690
0.046786
0.044203
0.038086
0.030079
0.022990
0.019552
0.020801
0.024716
0.027149
0.025663
0.022385
0.021687
0.024973
0.029014
0.029670
0.026106
0.021120
0.018361
0.019370
0.022557
0.025105
0.026282
0.028130
0.032351
0.037655
0.041050
0.040779
0.037365
0.033138
0.031445
0.034364
0.039737
0.042259
0.039230
0.033777
0.030870
0.031778
0.034071
0.035300
0.034418
0.030840
0.024707
0.017797
0.012227
0.008354
0.005472
0.004194
0.006168
0.011030
0.015266
0.015334
0.011545
0.008186
0.009905
0.017971
0.029010
0.036741
0.036269
0.028300
0.018856
0.013928
0.014790
0.018852
0.023535
0.027686
0.030244
0.029742
0.025419
0.017869
0.009055
0.002554
0.002417
0.009554
0.019550
0.026022
0.026300
0.022631
0.018401
0.014936
0.011837
0.008703
0.006013
0.005188
0.007983
0.014862
0.023461
0.029545
0.030703
0.028951
0.028670
0.032014
0.037164
0.040838
0.041349
0.039177
0.035608
0.031354
0.026182
0.019760
0.012977
0.008057
0.006917
0.009315
0.012622
0.013693
0.011459
0.007575
0.004040
0.000680
-0.003909
-0.009000
-0.010802
-0.005982
0.004410
0.015568
0.023306
0.026795
0.027446
0.027032
0.027479
0.030530
0.035908
0.040399
0.040163
0.034194
0.025036
0.016272
0.009853
0.005665
0.002676
-0.000088
-0.003023
-0.005481
-0.005995
-0.003706
0.000641
0.005814
0.011779
0.019143
0.026942
0.032438
0.034016
0.033418
0.034040
0.037305
0.041476
0.043771
0.042924
0.040048
0.037961
0.039486
0.045219
0.052443
0.056565
0.054206
0.045573
0.034236
0.024400
0.018330
0.016318
0.017834
0.021264
0.023470
0.021872
0.017238
0.012946
0.011112
0.010584
0.009307
0.007664
0.008437
0.013783
0.023035
0.033013
0.039518
0.039282
0.032484
0.023710
0.018760
0.019864
0.025243
0.033205
0.044082
0.056890
0.066565
0.067737
0.061090
0.053323
0.050095
0.051229
0.053507
0.055305
0.056723
0.057400
0.056380
0.053248
0.048064
0.040606
0.030515
0.018486
0.007235
0.000709
0.001388
0.008171
0.017341
0.025519
0.031180
0.033662
0.031974
0.025490
0.015650
0.006290
0.001704
0.003672
0.009917
0.016048
0.019752
0.022508
0.026320
0.030028
0.030949
0.029706
0.030697
0.036690
0.044625
0.048419
0.045397
0.038936
0.035249
0.038487
0.048198
0.059866
0.067729
0.068400
0.062615
0.053500
0.043477
0.033335
0.023841
0.017143
0.015727
0.019621
0.024911
0.026254
0.021767
0.015083
0.012006
0.015363
0.023228
0.031429
0.037102
0.039900
0.040562
0.039346
0.036275
0.031915
0.026872
0.021397
0.016885
0.016633
0.022576
0.031344
0.035953
0.032147
0.021700
0.009490
-0.000788
-0.007573
-0.010158
-0.008017
-0.000973
0.010509
0.024710
0.038063
0.046246
0.047206
0.042968
0.037533
0.033211
0.030013
0.027843
0.027065
0.026714
0.024434
0.019367
0.013759
0.010745
0.011575
0.015882
0.023559
0.034790
0.048309
0.060994
0.069748
0.073250
0.071742
0.066188
0.058414
0.051474
0.048650
0.051361
0.057927
0.064645
0.068612
0.069849
0.070501
0.072091
0.074313
0.076609
0.079366
0.082075
0.081239
0.072201
0.053411
0.028050
0.002076
-0.017979
-0.026576
-0.021824
-0.007644
0.008402
0.020386
0.026523
0.026969
0.021202
0.008591
-0.009223
-0.027338
-0.039334
-0.041032
-0.033602
-0.022670
-0.013303
-0.006005
0.001342
0.008167
0.010109
0.004038
-0.007705
-0.019273
-0.026211
-0.027516
-0.024651
-0.020388
-0.017834
-0.018623
-0.021734
-0.024786
-0.026417
-0.026771
-0.025951
-0.022914
-0.016287
-0.006117
0.005368
0.015240
0.023008
0.032414
0.048904
0.074178
0.103556
0.129618
0.148322
0.160820
0.169477
0.173384
0.168765
0.153726
0.131878
0.110848
0.097344
0.093348
0.095866
0.099578
0.100408
0.097464
0.091996
0.085204
0.077501
0.069057
0.060000
0.049920
0.037221
0.019131
-0.006629
-0.039083
-0.072928
-0.101001
-0.118432
-0.124986
-0.124086
-0.119920
-0.115022
-0.109740
-0.103313
-0.095104
-0.084786
-0.072057
-0.057330
-0.042931
-0.032353
-0.026999
-0.023864
-0.017461
-0.004464
0.013886
0.034014
0.054066
0.074853
0.096455
0.115080
0.125012
0.123827
0.114433
0.101575
0.087371
0.071145
0.053221
0.037706
0.030483
0.034159
0.045319
0.056785
0.062097
0.058356
0.046804
0.031946
0.018811
0.008991
-0.000651
-0.013877
-0.029577
-0.041786
-0.045601
-0.042096
-0.037047
-0.035666
-0.038741
-0.042539
-0.041448
-0.031735
-0.014429
0.005447
0.023255
0.037756
0.049066
0.055204
0.053172
0.043431
0.031238
0.022808
0.021068
0.024789
0.030106
0.032701
0.030295
0.024247
0.018612
0.017230
0.021174
0.028451
0.036180
0.043232
0.050398
0.057795
0.063110
0.063444
0.058356
0.049744
0.038872
0.025235
0.009239
-0.005126
-0.011933
-0.007910
0.005553
0.025050
0.048124
0.072435
0.093369
0.105135
0.105266
0.097475
0.089374
0.086849
0.090015
0.094651
0.097833
0.101536
0.109987
0.123870
0.137776
0.143101
0.133496
0.108772
0.074743
0.039564
0.009737
-0.011482
-0.023596
-0.028105
-0.027866
-0.025925
-0.024145
-0.022680
-0.020407
-0.015569
-0.006425
0.007875
0.026731
0.048347
0.070461
0.091061
0.108967
0.123933
0.135961
0.144569
0.149040
0.149455
0.147429
0.145993
0.148793
0.158633
0.175412
0.194941
0.210782
0.218779
0.220239
0.220542
0.224819
0.234805
0.248386
0.261138
0.269229
0.271924
0.270701
0.265570
0.253990
0.235028
0.213345
0.196757
0.189720
0.190409
0.193794
0.196188
0.197216
0.199138
0.204517
0.213284
0.222000
0.227397
0.230644
0.236528
0.248037
0.263302
0.278270
0.290605
0.300115
0.307128
0.312123
0.316177
0.320249
0.323999
0.326190
0.326500
0.326486
0.328259
0.332150
0.336327
0.339237
0.341753
0.345959
0.352424
0.360202
0.369949
0.385960
0.413620
0.453797
0.499909
0.541761
0.573260
0.596431
0.617909
0.642143
0.668121
0.691743
0.710627
0.726814
0.744946
0.767121
0.789395
0.804710
0.810349
0.811705
0.817347
0.830447
0.846161
0.857530
0.862736
0.865667
0.870226
0.875418
0.876043
0.867108
0.847267
0.819075
0.786927
0.754319
0.722109
0.689497
0.657413
0.630714
0.615962
0.616494
0.629705
0.648602
0.665020
0.672197
0.667323
0.653391
0.636686
0.620624
0.603598
0.584295
0.566190
0.553207
0.542361
0.524697
0.493923
0.451239
0.401316
0.346826
0.288622
0.228669
0.170013
0.114751
0.064140
0.020194
-0.015064
-0.042411
-0.066091
-0.090826
-0.118494
-0.147703
-0.175927
-0.201984
-0.226945
-0.252647
-0.279245
-0.304578
-0.325844
-0.341073
-0.349135
-0.349800
-0.344458
-0.336150
-0.328370
-0.323841
-0.323748
-0.327090
-0.330603
-0.330143
-0.322888
-0.308675
-0.289580
-0.268309
-0.246764
-0.225937
-0.206816
-0.191044
-0.180862
-0.178822
-0.187202
-0.207011
-0.237762
-0.278796
-0.330016
-0.389937
-0.453598
-0.514319
-0.568144
-0.616099
-0.662440
-0.711254
-0.764001
-0.819163
-0.874054
-0.927349
-0.979922
-1.032996
-1.085127
-1.131202
-1.165569
-1.187310
-1.202110
-1.217367
-1.234472
-1.246376
-1.243678
-1.223119
-1.189344
-1.148468
-1.101476
-1.045072
-0.977661
-0.902136
-0.822395
-0.738864
-0.648535
-0.549035
-0.442460
-0.335647
-0.236336
-0.148103
-0.068987
0.004366
0.071160
0.125170
0.158609
0.166985
0.150539
0.111836
0.052868
-0.025505
-0.122152
-0.234359
-0.357675
-0.486677
-0.616186
-0.742265
-0.861812
-0.970719
-1.062929
-1.132558
-1.177484
-1.200395
-1.205959
-1.196923
-1.172888
-1.132764
-1.077883
-1.011746
-0.936573
-0.851187
-0.753099
-0.642330
-0.523102
-0.402372
-0.286459
-0.177548
-0.072608
0.033399
0.142259
0.250637
0.353435
0.447803
0.533255
0.609344
0.675172
0.731034
0.779026
0.821525
0.859507
0.891902
0.914940
0.921357
0.901774
0.849087
0.762166
0.644929
0.502143
0.336938
0.152254
-0.046320
-0.250041
-0.449696
-0.638955
-0.815122
-0.976741
-1.120577
-1.240791
-1.330909
-1.386948
-1.409214
-1.401662
-1.369903
-1.319727
-1.256963
-1.188135
-1.120877
-1.063098
-1.020687
-0.995586
-0.986627
-0.991657
-1.006713
-1.022920
-1.027641
-1.011925
-0.976823
-0.931483
-0.886210
-0.848759
-0.825483
-0.821919
-0.840145
-0.876767
-0.924801
-0.977273
-1.029381
-1.079237
-1.128149
-1.179797
-1.237546
-1.301121
-1.365335
-1.422561
-1.467386
-1.499263
-1.520419
-1.530948
-1.526181
-1.499289
-1.446557
-1.369917
-1.274232
-1.162514
-1.034796
-0.892493
-0.743236
-0.599654
-0.472196
-0.363346
-0.269239
-0.186638
-0.117868
-0.069025
-0.043659
-0.038334
-0.044330
-0.053597
-0.063360
-0.075792
-0.093708
-0.115956
-0.136157
-0.145928
-0.139855
-0.117665
-0.081899
-0.034241
0.025249
0.095629
0.172900
0.250973
0.324719
0.391905
0.452467
0.506591
0.553773
0.593378
0.625660
0.651929
0.673254
0.688563
0.694577
0.688858
0.673350
0.654089
0.636768
0.622878
0.610434
0.597695
0.585431
0.576227
0.573096
0.579424
0.599347
0.636686
0.692764
0.765145
0.847939
0.932550
1.008744
1.066680
1.099049
1.101737
1.072999
1.012283
0.919768
0.797157
0.649184
0.484138
0.312137
0.142108
-0.019973
-0.170361
-0.305970
-0.423889
-0.521376
-0.594877
-0.639024
-0.647855
-0.618098
-0.551572
-0.454309
-0.333471
-0.195117
-0.044240
0.114124
0.274172
0.429253
0.572467
0.698467
0.805792
0.897097
0.976432
1.046564
1.109450
1.168797
1.230599
1.299330
1.373161
1.443993
1.502891
1.545065
1.569921
1.578147
1.570039
1.546119
1.508704
1.462935
1.416157
1.375069
1.342211
1.315015
1.289025
1.262467
1.237308
1.215846
1.197465
1.179759
1.162168
1.147072
1.137227
1.133615
1.136301
1.145798
1.162682
1.187676
1.223320
1.273210
1.337003
1.407402
1.474554
1.532775
1.581053
1.617965
1.638907
1.638951
1.617126
1.577733
1.528510
1.477547
1.430281
1.387614
1.346318
1.301628
1.249896
1.189008
1.116883
1.030928
0.930178
0.817694
0.699209
0.578384
0.454333
0.325117
0.192962
0.064515
-0.053697
-0.158632
-0.250092
-0.328827
-0.395777
-0.451302
-0.493791
-0.519842
-0.526910
-0.515152
-0.485719
-0.438300
-0.372126
-0.289028
-0.193558
-0.089788
0.020263
0.134320
0.247689
0.354834
0.452039
0.536893
0.606184
0.656760
0.688209
0.702138
0.698330
0.673992
0.627831
0.562746
0.482863
0.389542
0.282205
0.161863
0.031549
-0.106293
-0.250475
-0.398636
-0.545984
-0.687577
-0.821076
-0.946636
-1.064860
-1.175231
-1.275615
-1.362555
-1.432235
-1.481341
-1.507084
-1.507133
-1.480642
-1.429491
-1.358035
-1.272030
-1.178446
-1.085125
-0.998363
-0.920121
-0.848400
-0.780458
-0.714993
-0.651397
-0.588428
-0.524981
-0.462339
-0.404957
-0.358570
-0.327530
-0.313614
-0.316182
-0.332917
-0.361283
-0.400446
-0.451651
-0.515848
-0.590571
-0.669474
-0.745259
-0.813218
-0.872200
-0.922546
-0.963701
-0.994271
-1.014056
-1.025177
-1.030806
-1.033383
-1.034457
-1.035318
-1.036608
-1.037692
-1.037776
-1.037941
-1.041373
-1.051529
-1.070942
-1.102118
-1.148209
-1.210884
-1.287151
-1.369445
-1.449807
-1.523883
-1.590722
-1.649401
-1.696803
-1.728865
-1.743439
-1.741892
-1.728577
-1.708902
-1.687026
-1.664679
-1.642470
-1.622505
-1.608994
-1.605578
-1.612273
-1.625646
-1.641852
-1.658678
-1.674512
-1.686878
-1.693963
-1.697665
-1.703459
-1.716322
-1.737478
-1.765372
-1.798117
-1.833325
-1.866271
-1.890422
-1.900689
-1.895455
-1.875147
-1.840003
-1.790225
-1.727374
-1.653979
-1.571733
-1.481183
-1.383576
-1.282455
-1.183031
-1.090031
-1.006055
-0.931599
-0.866467
-0.811145
-0.766461
-0.731264
-0.700740
-0.668363
-0.630631
-0.590375
-0.555731
-0.535954
-0.537401
-0.562071
-0.608738
-0.674762
-0.756459
-0.847813
-0.939434
-1.019744
-1.078194
-1.108242
-1.108024
-1.078756
-1.022653
-0.942072
-0.840272
-0.722652
-0.596285
-0.466973
-0.336664
-0.204671
-0.071730
0.057778
0.177753
0.283792
0.374327
0.449260
0.508647
0.552680
0.581884
0.596843
0.598170
0.586877
0.564161
0.530568
0.486282
0.432868
0.373841
0.312320
0.248540
0.180638
0.107387
0.029023
-0.054001
-0.141432
-0.232109
-0.323177
-0.410371
-0.488501
-0.552034
-0.596022
-0.616710
-0.611396
-0.578529
-0.518699
-0.435354
-0.334068
-0.220902
-0.101070
0.021628
0.144854
0.267392
0.388334
0.506247
0.619322
0.726574
0.828433
0.925407
1.015870
1.095158
1.156765
1.194509
1.204300
1.184969
1.138179
1.067792
0.979366
0.880070
0.778201
0.681669
0.596327
0.525186
0.468067
0.421251
0.378018
0.330610
0.272290
0.198247
0.105656
-0.006172
-0.135788
-0.280487
-0.437563
-0.604496
-0.778036
-0.954030
-1.129122
-1.302555
-1.475370
-1.646976
-1.812621
-1.964846
-2.097425
-2.207400
-2.293417
-2.352906
-2.381558
-2.375935
-2.336709
-2.269218
-2.180770
-2.077464
-1.963095
-1.839953
-1.710242
-1.577261
-1.445334
-1.318056
-1.196533
-1.080143
-0.969600
-0.868909
-0.783545
-0.716676
-0.667787
-0.635080
-0.618434
-0.619536
-0.639883
-0.679825
-0.739552
-0.819745
-0.920171
-1.037636
-1.165815
-1.297419
-1.426454
-1.547987
-1.655609
-1.739909
-1.790781
-1.801920
-1.772962
-1.707765
-1.611780
-1.490894
-1.350662
-1.195008
-1.026080
-0.846225
-0.659783
-0.472206
-0.287474
-0.107272
0.066804
0.230942
0.379541
0.507384
0.611290
0.690846
0.748764
0.790067
0.819708
0.840769
0.855529
0.868414
0.887454
0.922290
0.980054
1.062140
1.164130
1.279367
1.403783
1.537423
1.680953
1.831462
1.982596
2.127950
2.262625
2.381414
2.477074
2.541585
2.569056
2.557348
2.507399
2.421583
2.302541
2.152882
1.975414
1.773588
1.551865
1.315453
1.069111
0.815827
0.556847
0.293454
0.028677
-0.233061
-0.487311
-0.729436
-0.953538
-1.153640
-1.326850
-1.474076
-1.596617
-1.692923
-1.759352
-1.793033
-1.793146
-1.760674
-1.698523
-1.611691
-1.506141
-1.387017
-1.257764
-1.120644
-0.978009
-0.832963
-0.688070
-0.542943
-0.393588
-0.234678
-0.062406
0.124599
0.325673
0.537767
0.754455
0.966318
1.163167
1.336300
1.479341
1.588034
1.660050
1.695165
1.695422
1.664889
1.609081
1.534298
1.446744
1.350943
1.247800
1.133720
1.001816
0.844831
0.658561
0.444239
0.208174
-0.041596
-0.298814
-0.559280
-0.818472
-1.070427
-1.309469
-1.532100
-1.736573
-1.921167
-2.083013
-2.217799
-2.320258
-2.385738
-2.412214
-2.401152
-2.356769
-2.284899
-2.192485
-2.087138
-1.976027
-1.864838
-1.758028
-1.659853
-1.574205
-1.502695
-1.442950
-1.389287
-1.335555
-1.277688
-1.213937
-1.143388
-1.064989
-0.978162
-0.883990
-0.785275
-0.684827
-0.583172
-0.477609
-0.363587
-0.237252
-0.096919
0.057481
0.225651
0.407029
0.599449
0.797775
0.994092
1.179744
1.347688
1.493247
1.613355
1.706128
1.771257
1.810133
1.825666
1.822627
1.807650
1.787477
1.766641
1.747318
1.731422
1.721928
1.721434
1.729769
1.743860
1.760439
1.778412
1.797846
1.816952
1.831084
1.834976
1.825892
1.805323
1.778333
1.750785
1.726314
1.705490
1.687508
1.672326
1.661135
1.654874
1.652419
1.650358
1.644480
1.631191
1.607631
1.571559
1.522421
1.462474
1.395840
1.326144
1.255581
1.186305
1.121552
1.064248
1.014575
0.969655
0.925931
0.881657
0.837230
0.793892
0.752600
0.713428
0.674857
0.633363
0.584637
0.525836
0.456215
0.375565
0.283174
0.179086
0.065805
-0.052195
-0.170840
-0.287601
-0.399658
-0.501373
-0.584675
-0.642438
-0.671117
-0.669853
-0.637679
-0.572749
-0.474855
-0.347968
-0.199468
-0.037317
0.131365
0.299901
0.462029
0.613096
0.750951
0.874885
0.983365
1.073251
1.141517
1.187274
1.211846
1.217507
1.206898
1.183654
1.152655
1.118817
1.085675
1.055471
1.030385
1.013102
1.006154
1.011155
1.028645
1.058063
1.097502
1.143741
1.192925
1.241303
1.285486
1.322760
1.351469
1.370455
1.378065
1.372565
1.353763
1.323304
1.282664
1.230861
1.164422
1.079993
0.977332
0.859933
0.733035
0.601478
0.469465
0.341372
0.221576
0.113291
0.017950
-0.064574
-0.135817
-0.198547
-0.255723
-0.308967
-0.357988
-0.401555
-0.438896
-0.470062
-0.494859
-0.511271
-0.515024
-0.501241
-0.467043
-0.412699
-0.340267
-0.251391
-0.146787
-0.027843
0.101927
0.237659
0.375580
0.514633
0.655692
0.799214
0.943456
1.084358
1.216826
1.336568
1.441165
1.529193
1.598226
1.644411
1.664697
1.659260
1.631107
1.583309
1.517227
1.433482
1.333898
1.222279
1.103926
0.984538
0.868832
0.759718
0.658991
0.568967
0.493246
0.435670
0.398521
0.381660
0.383374
0.402242
0.438536
0.493884
0.569387
0.663882
0.773659
0.893530
1.018337
1.143721
1.265267
1.376859
1.470686
1.540054
1.582458
1.599412
1.593259
1.564773
1.514030
1.442673
1.354260
1.252435
1.139464
1.016279
0.882713
0.737413
0.578908
0.408010
0.228688
0.045620
-0.138792
-0.323790
-0.506441
-0.679613
-0.834646
-0.965557
-1.070165
-1.148106
-1.199199
-1.223704
-1.223008
-1.199578
-1.156496
-1.096855
-1.022732
-0.934066
-0.828662
-0.703968
-0.559569
-0.398560
-0.226765
-0.050575
0.124510
0.293184
0.448557
0.581973
0.685503
0.755306
0.793022
0.804069
0.794694
0.770526
0.737139
0.700745
0.667362
0.640901
0.622141
0.609817
0.602814
0.601289
0.605685
0.614616
0.623972
0.628714
0.626126
0.617525
0.606900
0.598006
0.592709
0.591564
0.595144
0.604441
0.620390
0.643533
0.674003
0.711235
0.753444
0.797714
0.840899
0.880523
0.915075
0.944037
0.968173
0.989715
1.011596
1.035587
1.060787
1.084091
1.102231
1.113431
1.117499
1.114719
1.104612
1.085561
1.055607
1.013706
0.960255
0.896381
0.822796
0.739506
0.646533
0.544543
0.434640
0.317880
0.195156
0.067362
-0.064461
-0.199060
-0.334881
-0.469748
-0.600472
-0.722925
-0.832936
-0.927270
-1.003655
-1.060146
-1.095200
-1.108761
-1.102836
-1.080348
-1.043279
-0.992386
-0.928939
-0.856356
-0.779671
-0.703361
-0.629553
-0.557944
-0.486982
-0.414996
-0.340624
-0.262907
-0.181368
-0.095890
-0.006605
0.085648
0.178701
0.269170
0.353077
0.426260
0.484817
0.526013
0.549109
0.555220
0.546364
0.524834
0.493507
0.456416
0.418764
0.386372
0.365036
0.359844
0.374308
0.409795
0.465750
0.540241
0.630307
0.732616
0.844503
0.964022
1.088418
1.212806
1.330962
1.437445
1.528318
1.599798
1.647553
1.668222
1.660771
1.625557
1.563005
1.474346
1.363161
1.235176
1.096800
0.954480
0.814619
0.682254
0.558730
0.441267
0.325901
0.210905
0.096790
-0.016493
-0.130957
-0.248868
-0.370664
-0.495027
-0.620023
-0.743210
-0.861080
-0.969578
-1.065479
-1.146792
-1.211654
-1.257169
-1.279580
-1.275436
-1.242534
-1.180222
-1.089735
-0.974592
-0.840306
-0.693282
-0.539909
-0.386430
-0.238859
-0.102214
0.020493
0.128495
0.222643
0.304921
0.378500
0.447263
0.514076
0.579060
0.639792
0.693625
0.740141
0.781712
0.821953
0.863747
0.908684
0.957851
1.012442
1.073128
1.138671
1.205030
1.265821
1.313710
1.341845
1.344974
1.320226
1.267187
1.187309
1.083461
0.960191
0.824023
0.682484
0.541774
0.404845
0.271500
0.140067
0.008892
-0.123315
-0.257843
-0.396096
-0.538987
-0.686120
-0.835602
-0.984515
-1.129189
-1.264984
-1.386320
-1.487656
-1.564848
-1.615831
-1.640502
-1.640359
-1.618101
-1.577143
-1.521224
-1.454453
-1.381690
-1.308106
-1.236982
-1.167743
