EVENT_NAME: CENTRAL_ITALY
EVENT_ID: EMSC-20160824_0000013
EVENT_DATE_YYYYMMDD: 20160824
EVENT_TIME_HHMMSS: 023329
EVENT_LATITUDE_DEGREE: 42.7935
EVENT_LONGITUDE_DEGREE: 13.1537
EVENT_DEPTH_KM: 8.7
HYPOCENTER_REFERENCE: INGV-webservice
MAGNITUDE_W: 5.3
MAGNITUDE_W_REFERENCE: INGV-webservice
MAGNITUDE_L: 5.4
MAGNITUDE_L_REFERENCE: INGV-webservice
FOCAL_MECHANISM: NF
NETWORK: IT
STATION_CODE: NRC
STATION_NAME: NORCIA
STATION_LATITUDE_DEGREE: 42.792543
STATION_LONGITUDE_DEGREE: 13.096475
STATION_ELEVATION_M: 616
LOCATION: 
SENSOR_DEPTH_M: 0.0
VS30_M/S: 687
SITE_CLASSIFICATION_EC8: B
MORPHOLOGIC_CLASSIFICATION: SL
EPICENTRAL_DISTANCE_KM: 4.7
EARTHQUAKE_BACKAZIMUTH_DEGREE: 88.7
DATE_TIME_FIRST_SAMPLE_YYYYMMDD_HHMMSS: 20160824_023324.704
DATE_TIME_FIRST_SAMPLE_PRECISION: milliseconds
SAMPLING_INTERVAL_S: 0.005000
NDATA: 9429
DURATION_S: 47.145
STREAM: HGZ
UNITS: cm/s
INSTRUMENT: sensor = Unknown [Unknown] | digitizer = Unknown [Unknown]
INSTRUMENT_ANALOG/DIGITAL: D
INSTRUMENTAL_FREQUENCY_HZ: 
INSTRUMENTAL_DAMPING: 
FULL_SCALE_G: 
N_BIT_DIGITAL_CONVERTER: 
PGV_CM/S: -4.440539
TIME_PGV_S: 9.115000
BASELINE_CORRECTION: BASELINE REMOVED
FILTER_TYPE: BUTTERWORTH
FILTER_ORDER: 2
LOW_CUT_FREQUENCY_HZ: 0.070
HIGH_CUT_FREQUENCY_HZ: 30.000
LATE/NORMAL_TRIGGERED: NT
DATABASE_VERSION: DYNA 1.0
HEADER_FORMAT: DYNA 1.2
DATA_TYPE: VELOCITY
PROCESSING: manual (Paolucci et al., 2011)
DATA_TIMESTAMP_YYYYMMDD_HHMMSS: 20160825_170450.371
DATA_LICENSE: CC-BY3_0-IT (http://creativecommons.org/licenses/by/3.0/deed.en)
DATA_CITATION: ESM working group (2015), European Strong-Motion database, version 0.1, Network Activity 3: Networking acceleration networks and SM data users. Project NERA (www.nera-eu.org)
DATA_CREATOR: ESM working group
ORIGINAL_DATA_MEDIATOR_CITATION: Ufficio Rischio Sismico e Vulcanico del Dipartimento della Protezione Civile (http://www.protezionecivile.gov.it/)
ORIGINAL_DATA_MEDIATOR: Rete Accelerometrica Nazionale - RAN Download (http://www.mot1.it/randownload/)
ORIGINAL_DATA_CREATOR_CITATION: Italian Strong Motion Network, Italian Civil Protection Department http://www.protezionecivile.gov.it
ORIGINAL_DATA_CREATOR: network: IT (Italian Strong Motion Network); owner: Dipartimento Della Protezione Civile
USER1: /home/dyna/processing-itaca/processing.py /var/www/processing//tmp/Maria//IT.NRC..HGE.D.20160824.023329.X.ACC.ASC /var/www/processing//tmp/Maria//IT.NRC..HGN.D.20160824.023329.X.ACC.ASC /var/www/processing//tmp/Maria//IT.NRC..HGZ.D.20160824.023329.X.ACC.ASC --tmp /var/www/processing//tmp/Maria/ --le 0.070 --he 30.000 --ln 0.070 --hn 30.000 --lz 0.070 --hz 30.000 --fo 2 --ca 0 --cz 60 --ta 5 --tz 5 --mf 1 --rf 0 --tr NT
USER2: 
USER3: 
USER4: 
USER5: 
[...]
0.003888
0.003518
0.003538
0.003814
0.004242
0.004795
0.005484
0.006270
0.007028
0.007587
0.007837
0.007801
0.007603
0.007371
0.007166
0.006977
0.006769
0.006534
0.006317
0.006200
0.006252
0.006471
0.006759
0.006974
0.007033
0.006971
0.006899
0.006916
0.007045
0.007226
0.007350
0.007329
0.007183
0.007045
0.007076
0.007342
0.007759
0.008129
0.008253
0.008053
0.007613
0.007107
0.006698
0.006472
0.006436
0.006541
0.006713
0.006858
0.006886
0.006764
0.006576
0.006476
0.006583
0.006884
0.007233
0.007429
0.007332
0.006968
0.006530
0.006256
0.006285
0.006592
0.007020
0.007384
0.007576
0.007608
0.007581
0.007615
0.007780
0.008045
0.008271
0.008301
0.008077
0.007696
0.007346
0.007185
0.007261
0.007525
0.007880
0.008233
0.008517
0.008690
0.008734
0.008649
0.008444
0.008145
0.007827
0.007622
0.007661
0.007995
0.008567
0.009222
0.009781
0.010141
0.010318
0.010382
0.010366
0.010259
0.010046
0.009729
0.009322
0.008864
0.008433
0.008131
0.008013
0.008043
0.008122
0.008177
0.008195
0.008186
0.008147
0.008076
0.007997
0.007959
0.008015
0.008205
0.008525
0.008929
0.009341
0.009702
0.009983
0.010183
0.010294
0.010285
0.010112
0.009763
0.009290
0.008799
0.008408
0.008196
0.008177
0.008320
0.008597
0.009003
0.009518
0.010038
0.010392
0.010449
0.010219
0.009856
0.009572
0.009506
0.009640
0.009830
0.009908
0.009802
0.009577
0.009374
0.009306
0.009405
0.009629
0.009894
0.010099
0.010175
0.010134
0.010078
0.010119
0.010298
0.010565
0.010826
0.011003
0.011077
0.011084
0.011066
0.011023
0.010908
0.010686
0.010402
0.010171
0.010105
0.010238
0.010523
0.010878
0.011210
0.011453
0.011593
0.011647
0.011628
0.011542
0.011408
0.011240
0.011051
0.010882
0.010792
0.010822
0.010948
0.011094
0.011173
0.011134
0.010980
0.010787
0.010672
0.010708
0.010860
0.011001
0.010988
0.010765
0.010414
0.010116
0.010029
0.010211
0.010632
0.011213
0.011851
0.012452
0.012943
0.013267
0.013356
0.013146
0.012632
0.011934
0.011269
0.010859
0.010813
0.011090
0.011549
0.012054
0.012541
0.013018
0.013498
0.013930
0.014210
0.014253
0.014054
0.013688
0.013251
0.012813
0.012414
0.012101
0.011930
0.011933
0.012070
0.012264
0.012457
0.012647
0.012851
0.013054
0.013206
0.013251
0.013159
0.012956
0.012733
0.012594
0.012585
0.012678
0.012799
0.012884
0.012907
0.012881
0.012840
0.012826
0.012868
0.012976
0.013141
0.013329
0.013499
0.013614
0.013648
0.013602
0.013508
0.013416
0.013362
0.013358
0.013420
0.013600
0.013953
0.014462
0.014988
0.015330
0.015368
0.015146
0.014843
0.014682
0.014842
0.015349
0.016030
0.016599
0.016854
0.016781
0.016515
0.016234
0.016057
0.015993
0.015946
0.015807
0.015546
0.015220
0.014926
0.014744
0.014709
0.014800
0.014957
0.015107
0.015192
0.015190
0.015136
0.015102
0.015133
0.015218
0.015323
0.015441
0.015593
0.015784
0.015962
0.016020
0.015869
0.015514
0.015048
0.014597
0.014274
0.014149
0.014219
0.014400
0.014575
0.014660
0.014652
0.014625
0.014669
0.014824
0.015060
0.015292
0.015430
0.015442
0.015382
0.015357
0.015453
0.015682
0.015985
0.016272
0.016486
0.016623
0.016724
0.016822
0.016895
0.016890
0.016762
0.016512
0.016185
0.015854
0.015592
0.015459
0.015483
0.015664
0.015973
0.016369
0.016791
0.017160
0.017404
0.017479
0.017388
0.017165
0.016884
0.016658
0.016605
0.016793
0.017190
0.017665
0.018057
0.018247
0.018206
0.017989
0.017698
0.017443
0.017281
0.017188
0.017120
0.017083
0.017143
0.017357
0.017718
0.018137
0.018480
0.018628
0.018559
0.018349
0.018111
0.017928
0.017826
0.017784
0.017738
0.017629
0.017442
0.017228
0.017093
0.017154
0.017477
0.018023
0.018648
0.019169
0.019457
0.019495
0.019363
0.019165
0.018967
0.018789
0.018626
0.018460
0.018266
0.018026
0.017764
0.017557
0.017492
0.017624
0.017950
0.018423
0.018967
0.019504
0.019974
0.020329
0.020524
0.020510
0.020271
0.019870
0.019438
0.019115
0.018992
0.019083
0.019337
0.019672
0.020010
0.020294
0.020484
0.020559
0.020535
0.020470
0.020438
0.020478
0.020565
0.020617
0.020555
0.020368
0.020140
0.020015
0.020114
0.020452
0.020919
0.021351
0.021617
0.021662
0.021500
0.021207
0.020898
0.020664
0.020536
0.020499
0.020507
0.020513
0.020508
0.020535
0.020616
0.020703
0.020721
0.020645
0.020522
0.020439
0.020459
0.020596
0.020802
0.020994
0.021111
0.021156
0.021192
0.021279
0.021423
0.021586
0.021726
0.021833
0.021928
0.022039
0.022178
0.022321
0.022423
0.022445
0.022385
0.022282
0.022184
0.022110
0.022049
0.021986
0.021944
0.021971
0.022100
0.022311
0.022532
0.022683
0.022736
0.022724
0.022702
0.022693
0.022692
0.022680
0.022641
0.022590
0.022587
0.022698
0.022936
0.023233
0.023476
0.023570
0.023483
0.023261
0.023003
0.022810
0.022725
0.022708
0.022693
0.022659
0.022658
0.022761
0.022996
0.023303
0.023556
0.023648
0.023573
0.023415
0.023279
0.023231
0.023276
0.023364
0.023429
0.023449
0.023467
0.023558
0.023771
0.024101
0.024493
0.024868
0.025146
0.025271
0.025235
0.025070
0.024825
0.024557
0.024334
0.024221
0.024245
0.024375
0.024527
0.024612
0.024585
0.024465
0.024306
0.024160
0.024061
0.024021
0.024023
0.024040
0.024077
0.024171
0.024334
0.024529
0.024694
0.024804
0.024887
0.024998
0.025163
0.025350
0.025496
0.025555
0.025532
0.025498
0.025552
0.025751
0.026058
0.026345
0.026482
0.026423
0.026222
0.025988
0.025815
0.025740
0.025737
0.025753
0.025746
0.025718
0.025712
0.025769
0.025889
0.026019
0.026087
0.026051
0.025944
0.025870
0.025922
0.026110
0.026374
0.026643
0.026870
0.027049
0.027195
0.027324
0.027421
0.027437
0.027343
0.027172
0.027021
0.026984
0.027089
0.027297
0.027550
0.027816
0.028087
0.028367
0.028655
0.028923
0.029110
0.029135
0.028949
0.028585
0.028149
0.027765
0.027527
0.027470
0.027556
0.027705
0.027846
0.027945
0.027997
0.028008
0.027986
0.027947
0.027905
0.027862
0.027805
0.027726
0.027646
0.027615
0.027683
0.027864
0.028121
0.028379
0.028541
0.028529
0.028333
0.028044
0.027817
0.027775
0.027930
0.028181
0.028388
0.028465
0.028416
0.028332
0.028326
0.028441
0.028612
0.028719
0.028701
0.028604
0.028541
0.028608
0.028815
0.029084
0.029311
0.029451
0.029553
0.029725
0.030036
0.030438
0.030799
0.031011
0.031072
0.031061
0.031057
0.031087
0.031118
0.031088
0.030958
0.030751
0.030541
0.030399
0.030346
0.030357
0.030402
0.030479
0.030611
0.030820
0.031096
0.031379
0.031572
0.031577
0.031351
0.030953
0.030533
0.030259
0.030219
0.030373
0.030613
0.030851
0.031070
0.031292
0.031524
0.031729
0.031842
0.031810
0.031635
0.031368
0.031090
0.030894
0.030843
0.030942
0.031138
0.031366
0.031578
0.031767
0.031946
0.032114
0.032248
0.032340
0.032398
0.032419
0.032373
0.032237
0.032027
0.031813
0.031695
0.031746
0.031967
0.032291
0.032607
0.032817
0.032890
0.032867
0.032831
0.032857
0.032985
0.033201
0.033444
0.033629
0.033687
0.033591
0.033359
0.033044
0.032708
0.032414
0.032220
0.032159
0.032216
0.032349
0.032525
0.032739
0.032987
0.033236
0.033425
0.033493
0.033420
0.033238
0.033006
0.032791
0.032659
0.032668
0.032842
0.033143
0.033487
0.033783
0.033969
0.034026
0.033976
0.033861
0.033731
0.033624
0.033551
0.033509
0.033485
0.033467
0.033449
0.033449
0.033487
0.033554
0.033616
0.033648
0.033666
0.033705
0.033787
0.033904
0.034032
0.034161
0.034302
0.034470
0.034672
0.034885
0.035055
0.035117
0.035045
0.034871
0.034670
0.034523
0.034475
0.034514
0.034610
0.034757
0.034980
0.035304
0.035723
0.036167
0.036461
0.036306
0.035336
0.033374
0.030803
0.028645
0.027952
0.028730
0.029156
0.025787
0.015184
-0.003385
-0.026006
-0.045146
-0.053524
-0.048231
-0.032463
-0.013818
0.000033
0.005814
0.006413
0.008738
0.018849
0.037521
0.059701
0.078415
0.089514
0.093437
0.093823
0.094930
0.098958
0.104277
0.106142
0.100091
0.085450
0.066174
0.048633
0.037909
0.034991
0.036627
0.037468
0.032796
0.020746
0.003387
-0.014238
-0.026874
-0.031659
-0.029121
-0.022470
-0.015258
-0.008200
0.001863
0.018979
0.044284
0.075116
0.106121
0.130583
0.142910
0.141528
0.128377
0.104820
0.069485
0.021281
-0.035718
-0.090293
-0.127567
-0.137297
-0.121316
-0.093650
-0.072365
-0.067982
-0.075989
-0.079393
-0.060177
-0.011435
0.058193
0.129601
0.183549
0.210717
0.216399
0.216355
0.225973
0.249952
0.278254
0.290275
0.267157
0.206402
0.126273
0.054062
0.008058
-0.012611
-0.024808
-0.048266
-0.091270
-0.144478
-0.186342
-0.195823
-0.163848
-0.097258
-0.014915
0.061247
0.115587
0.142785
0.145345
0.129632
0.104274
0.079336
0.063850
0.062391
0.072815
0.086507
0.092316
0.085065
0.073744
0.078302
0.113697
0.177466
0.253572
0.324432
0.376509
0.399248
0.387228
0.346002
0.291105
0.238043
0.194744
0.163989
0.149647
0.158232
0.196047
0.266191
0.364495
0.472042
0.551558
0.559780
0.472243
0.298366
0.074275
-0.152777
-0.333962
-0.428879
-0.422055
-0.333152
-0.207783
-0.095536
-0.033214
-0.040363
-0.118352
-0.245578
-0.376555
-0.457335
-0.452012
-0.358649
-0.204708
-0.033523
0.107313
0.178081
0.161595
0.071719
-0.052684
-0.165718
-0.234752
-0.254958
-0.252310
-0.270373
-0.343238
-0.469674
-0.607878
-0.696762
-0.689193
-0.575805
-0.390116
-0.196843
-0.064365
-0.028115
-0.069084
-0.129934
-0.158520
-0.141543
-0.103169
-0.078831
-0.090777
-0.137378
-0.191872
-0.207214
-0.130043
0.074395
0.396927
0.780135
1.142959
1.415982
1.563062
1.581783
1.492907
1.328252
1.117804
0.881202
0.631956
0.389195
0.182708
0.046880
0.009272
0.077924
0.231949
0.426583
0.615754
0.774614
0.902397
1.005514
1.077615
1.096330
1.042785
0.924298
0.773670
0.626623
0.502827
0.403783
0.320499
0.242987
0.169569
0.112233
0.091355
0.119618
0.187901
0.268839
0.336742
0.383724
0.417459
0.449740
0.493299
0.565928
0.686205
0.857782
1.057371
1.239269
1.354439
1.373980
1.305900
1.193677
1.094074
1.049399
1.072345
1.148280
1.249574
1.351717
1.440230
1.505623
1.534813
1.509918
1.417965
1.264025
1.074595
0.886167
0.728329
0.613520
0.536019
0.477254
0.416500
0.343413
0.262155
0.181763
0.103632
0.020560
-0.074535
-0.183731
-0.308754
-0.456695
-0.633858
-0.828205
-1.001087
-1.104207
-1.108549
-1.023005
-0.897525
-0.809304
-0.829097
-0.985465
-1.254215
-1.575965
-1.883944
-2.126618
-2.278416
-2.337282
-2.313660
-2.222476
-2.084706
-1.928820
-1.783223
-1.667070
-1.585832
-1.529599
-1.477706
-1.413783
-1.340525
-1.278636
-1.251156
-1.268520
-1.323330
-1.391290
-1.435940
-1.422644
-1.336589
-1.183576
-0.972322
-0.705992
-0.394370
-0.065205
0.242314
0.492665
0.663719
0.751610
0.773204
0.760834
0.748347
0.756930
0.789216
0.833349
0.872190
0.891837
0.885420
0.850011
0.780784
0.670631
0.517903
0.337697
0.166558
0.049307
0.011475
0.040772
0.096796
0.141032
0.161883
0.178405
0.225044
0.327505
0.480032
0.637722
0.735391
0.726091
0.611335
0.437630
0.263246
0.124414
0.022698
-0.067529
-0.178513
-0.321559
-0.469210
-0.564102
-0.550249
-0.407152
-0.168039
0.089578
0.278941
0.344740
0.285425
0.148843
0.008621
-0.069074
-0.056735
0.021350
0.103663
0.126930
0.061276
-0.075977
-0.234036
-0.360865
-0.434366
-0.470881
-0.505069
-0.558973
-0.625345
-0.674014
-0.672072
-0.605498
-0.491930
-0.375842
-0.306889
-0.315542
-0.402017
-0.542782
-0.706933
-0.870597
-1.020089
-1.145456
-1.237155
-1.292287
-1.320081
-1.334955
-1.342447
-1.334122
-1.296498
-1.222196
-1.111183
-0.963463
-0.774631
-0.541388
-0.271720
0.008629
0.255515
0.413823
0.437084
0.312854
0.075003
-0.209382
-0.469977
-0.660784
-0.773550
-0.836345
-0.899218
-1.009382
-1.187485
-1.421824
-1.680438
-1.924741
-2.119121
-2.241815
-2.292165
-2.285915
-2.244565
-2.188229
-2.130553
-2.073281
-2.005243
-1.909124
-1.772241
-1.594007
-1.385626
-1.164675
-0.950464
-0.762087
-0.616238
-0.521487
-0.471465
-0.446089
-0.424311
-0.395711
-0.356678
-0.297581
-0.199375
-0.045912
0.158226
0.379854
0.566768
0.667418
0.648426
0.504167
0.257093
-0.050082
-0.366365
-0.644185
-0.847232
-0.953846
-0.958387
-0.871252
-0.716710
-0.529406
-0.348944
-0.210239
-0.132366
-0.114443
-0.142805
-0.201814
-0.277172
-0.352796
-0.410791
-0.434628
-0.410048
-0.327948
-0.192472
-0.024128
0.148434
0.299401
0.411279
0.475822
0.492863
0.467199
0.406207
0.321456
0.228572
0.137486
0.041251
-0.080078
-0.241297
-0.438503
-0.652655
-0.863253
-1.057932
-1.233600
-1.395258
-1.557433
-1.743675
-1.975817
-2.256232
-2.560039
-2.847603
-3.086496
-3.263914
-3.381969
-3.443663
-3.443576
-3.370512
-3.217193
-2.988624
-2.706585
-2.409707
-2.145498
-1.953856
-1.851010
-1.827076
-1.862336
-1.949860
-2.103220
-2.343720
-2.682110
-3.106366
-3.574064
-4.011123
-4.326201
-4.440539
-4.316972
-3.969792
-3.452039
-2.833431
-2.183161
-1.559983
-1.006226
-0.545401
-0.183723
0.085286
0.274118
0.395440
0.459210
0.470125
0.425702
0.322781
0.173777
0.017756
-0.088517
-0.094875
0.020061
0.239338
0.512656
0.776698
0.983980
1.122091
1.210832
1.281888
1.355893
1.433155
1.505916
1.580367
1.686330
1.866454
2.153888
2.549755
3.009973
3.450093
3.768916
3.881718
3.750739
3.400450
2.908772
2.378017
1.901143
1.538342
1.310261
1.204990
1.190430
1.225485
1.269532
1.292701
1.288017
1.279500
1.313112
1.426413
1.616184
1.830304
1.988468
2.014203
1.861849
1.534192
1.087506
0.615436
0.211940
-0.065467
-0.206586
-0.232223
-0.171981
-0.051575
0.112996
0.320229
0.582215
0.910477
1.294714
1.694410
2.053984
2.327210
2.488770
2.530055
2.455809
2.292787
2.098814
1.951475
1.915611
2.013970
2.222327
2.485483
2.738855
2.929139
3.032016
3.058486
3.042000
3.011881
2.971410
2.896453
2.753472
2.521740
2.205623
1.833665
1.450894
1.111876
0.875432
0.796158
0.909875
1.217632
1.677614
2.210623
2.717366
3.103814
3.309680
3.327114
3.195655
2.977062
2.729129
2.492598
2.290857
2.134999
2.029069
1.973230
1.961860
1.977430
1.988917
1.960599
1.865442
1.693448
1.451465
1.157669
0.835877
0.510174
0.197396
-0.098431
-0.382588
-0.659705
-0.926069
-1.166602
-1.355683
-1.465356
-1.481085
-1.413878
-1.296669
-1.166908
-1.050344
-0.958566
-0.898311
-0.879143
-0.909986
-0.989486
-1.101569
-1.218525
-1.306428
-1.333398
-1.284251
-1.173867
-1.044292
-0.942901
-0.897910
-0.910286
-0.964812
-1.046643
-1.149600
-1.273083
-1.414301
-1.564670
-1.711640
-1.840390
-1.934566
-1.979581
-1.966692
-1.894770
-1.772022
-1.619044
-1.469104
-1.361662
-1.330454
-1.391718
-1.538406
-1.743116
-1.966369
-2.163264
-2.287297
-2.297667
-2.171834
-1.914055
-1.552342
-1.129304
-0.693910
-0.291751
0.046751
0.311541
0.505616
0.631260
0.683029
0.653400
0.542112
0.358721
0.119736
-0.153266
-0.433722
-0.692128
-0.901530
-1.043209
-1.108199
-1.094173
-1.003488
-0.848243
-0.657440
-0.473966
-0.339671
-0.282587
-0.317387
-0.451684
-0.684889
-1.001107
-1.367049
-1.737716
-2.065238
-2.308703
-2.443573
-2.467107
-2.397384
-2.265657
-2.104594
-1.938266
-1.777926
-1.623288
-1.467958
-1.306208
-1.135283
-0.950887
-0.743141
-0.502302
-0.231967
0.042756
0.279483
0.431179
0.459671
0.346086
0.096878
-0.256896
-0.669508
-1.096434
-1.505420
-1.874907
-2.185738
-2.419036
-2.562293
-2.614270
-2.584033
-2.488097
-2.348648
-2.191033
-2.038182
-1.904696
-1.796584
-1.716186
-1.665947
-1.648740
-1.665772
-1.710865
-1.763437
-1.790184
-1.760067
-1.660853
-1.503464
-1.315549
-1.132213
-0.985635
-0.894704
-0.859863
-0.865957
-0.890538
-0.913268
-0.921883
-0.910900
-0.874191
-0.798872
-0.667396
-0.467535
-0.203859
0.097244
0.394270
0.646711
0.830231
0.941596
0.994262
1.011060
1.015696
1.022622
1.030311
1.024621
0.991816
0.931486
0.858141
0.791436
0.746608
0.732594
0.754387
0.814175
0.910195
1.035552
1.179240
1.327506
1.463582
1.569955
1.636610
1.668155
1.680300
1.688241
1.697908
1.704927
1.698752
1.669365
1.614548
1.544925
1.483526
1.456807
1.479921
1.547840
1.640278
1.734318
1.814180
1.875399
1.925148
1.978539
2.050694
2.148216
2.265902
2.390296
2.505122
2.594451
2.645144
2.651318
2.619242
2.567282
2.518033
2.487032
2.476456
2.477580
2.477861
2.467222
2.442501
2.410521
2.388597
2.400423
2.466724
2.593746
2.766238
2.950826
3.108497
3.207499
3.230419
3.176127
3.057704
2.895611
2.708649
2.507671
2.293254
2.055637
1.778417
1.448459
1.067816
0.658876
0.258726
-0.093434
-0.368947
-0.557441
-0.667704
-0.721904
-0.745278
-0.755625
-0.758180
-0.748633
-0.721312
-0.675522
-0.613187
-0.528781
-0.403821
-0.216527
0.040169
0.349864
0.680056
0.995801
1.268670
1.480123
1.622060
1.694386
1.700452
1.644232
1.530397
1.364903
1.155119
0.910332
0.642017
0.363070
0.087106
-0.172269
-0.404604
-0.607491
-0.788059
-0.958480
-1.129447
-1.307408
-1.496610
-1.701185
-1.922998
-2.157567
-2.393390
-2.615129
-2.806606
-2.952432
-3.041386
-3.072504
-3.059437
-3.028470
-3.011247
-3.036544
-3.122756
-3.270537
-3.458581
-3.648433
-3.798781
-3.881492
-3.890484
-3.840083
-3.755177
-3.657793
-3.555620
-3.438633
-3.286520
-3.082363
-2.824767
-2.533286
-2.244272
-1.996465
-1.812344
-1.686655
-1.588668
-1.474771
-1.304283
-1.053233
-0.722344
-0.336808
0.062027
0.430325
0.735323
0.962227
1.112625
1.199437
1.242763
1.265509
1.287146
1.317861
1.357756
1.403701
1.458692
1.534103
1.643091
1.792454
1.977789
2.181143
2.372160
2.516990
2.593610
2.601905
2.558999
2.485823
2.397429
2.301029
2.199720
2.099332
2.012638
1.955135
1.935049
1.945952
1.967373
1.972894
1.941086
1.863191
1.743777
1.594611
1.425541
1.238414
1.027753
0.786898
0.515769
0.225625
-0.062523
-0.324364
-0.539603
-0.697745
-0.800733
-0.860566
-0.892618
-0.908765
-0.914149
-0.907591
-0.883823
-0.836844
-0.763505
-0.665185
-0.547004
-0.416261
-0.280882
-0.148092
-0.024879
0.080769
0.161985
0.218517
0.259688
0.300895
0.356205
0.431554
0.520509
0.603779
0.654613
0.650096
0.583810
0.472279
0.349360
0.250395
0.195965
0.185068
0.199942
0.218321
0.227056
0.230855
0.250823
0.311868
0.426089
0.583795
0.757951
0.917831
1.043615
1.134504
1.206448
1.281632
1.375224
1.484683
1.588019
1.654666
1.662899
1.611972
1.522299
1.425267
1.348952
1.306597
1.292461
1.286462
1.265325
1.214444
