EVENT_NAME: CENTRAL_ITALY
EVENT_ID: EMSC-20161030_0000029
EVENT_DATE_YYYYMMDD: 20161030
EVENT_TIME_HHMMSS: 064018
EVENT_LATITUDE_DEGREE: 42.8400
EVENT_LONGITUDE_DEGREE: 13.1100
EVENT_DEPTH_KM: 9.4
HYPOCENTER_REFERENCE: INGV-webservice
MAGNITUDE_W: 6.5
MAGNITUDE_W_REFERENCE: INGV-webservice
MAGNITUDE_L: 6.1
MAGNITUDE_L_REFERENCE: INGV-webservice
FOCAL_MECHANISM: NF
NETWORK: IT
STATION_CODE: NRC
STATION_NAME: NORCIA
STATION_LATITUDE_DEGREE: 42.792543
STATION_LONGITUDE_DEGREE: 13.096475
STATION_ELEVATION_M: 616
LOCATION: 
SENSOR_DEPTH_M: 0.0
VS30_M/S: 687
SITE_CLASSIFICATION_EC8: B
MORPHOLOGIC_CLASSIFICATION: SL
EPICENTRAL_DISTANCE_KM: 5.4
EARTHQUAKE_BACKAZIMUTH_DEGREE: 11.8
DATE_TIME_FIRST_SAMPLE_YYYYMMDD_HHMMSS: 20161030_064013.314
DATE_TIME_FIRST_SAMPLE_PRECISION: milliseconds
SAMPLING_INTERVAL_S: 0.005000
NDATA: 10000
DURATION_S: 50.000
STREAM: HGN
UNITS: cm/s^2
INSTRUMENT: sensor = Unknown [Unknown] | digitizer = Unknown [Unknown]
INSTRUMENT_ANALOG/DIGITAL: D
INSTRUMENTAL_FREQUENCY_HZ: 
INSTRUMENTAL_DAMPING: 
FULL_SCALE_G: 
N_BIT_DIGITAL_CONVERTER: 
PGA_CM/S^2: 365.050888
TIME_PGA_S: 16.520000
BASELINE_CORRECTION: BASELINE REMOVED
FILTER_TYPE: BUTTERWORTH
FILTER_ORDER: 2
LOW_CUT_FREQUENCY_HZ: 0.100
HIGH_CUT_FREQUENCY_HZ: 50.000
LATE/NORMAL_TRIGGERED: NT
DATABASE_VERSION: DYNA 1.0
HEADER_FORMAT: DYNA 1.2
DATA_TYPE: ACCELERATION
PROCESSING: manual (Paolucci et al., 2011)
DATA_TIMESTAMP_YYYYMMDD_HHMMSS: 20161030_132633.881
DATA_LICENSE: CC-BY3_0-IT (http://creativecommons.org/licenses/by/3.0/deed.en)
DATA_CITATION: ESM working group (2015), European Strong-Motion database, version 0.1, Network Activity 3: Networking acceleration networks and SM data users. Project NERA (www.nera-eu.org)
DATA_CREATOR: ESM working group
ORIGINAL_DATA_MEDIATOR_CITATION: Ufficio Rischio Sismico e Vulcanico del Dipartimento della Protezione Civile (http://www.protezionecivile.gov.it/)
ORIGINAL_DATA_MEDIATOR: Rete Accelerometrica Nazionale - RAN Download (http://www.mot1.it/randownload/)
ORIGINAL_DATA_CREATOR_CITATION: Italian Strong Motion Network, Italian Civil Protection Department http://www.protezionecivile.gov.it
ORIGINAL_DATA_CREATOR: network: IT (Italian Strong Motion Network); owner: Dipartimento Della Protezione Civile
USER1: /home/dyna/processing-itaca/processing.py /var/www/processing//tmp/Lucia//IT.NRC..HGE.D.20161030.064018.X.ACC.ASC /var/www/processing//tmp/Lucia//IT.NRC..HGN.D.20161030.064018.X.ACC.ASC /var/www/processing//tmp/Lucia//IT.NRC..HGZ.D.20161030.064018.X.ACC.ASC --tmp /var/www/processing//tmp/Lucia/ --le 0.100 --he 50.000 --ln 0.100 --hn 50.000 --lz 0.100 --hz 50.000 --fo 2 --ca 0 --cz 130 --ta 5 --tz 5 --mf 1 --rf 0 --tr NT
USER2: 
USER3: 
USER4: 
USER5: 
[...]
304.553009
315.911285
315.215057
303.799652
284.554626
259.008972
227.779419
192.890182
157.402725
124.805603
99.099464
81.594635
67.661858
49.174637
21.920303
-7.927774
-28.471733
-35.674995
-36.516098
-37.230515
-33.997795
-18.010391
11.434061
44.098408
71.202171
92.633514
110.102631
124.086266
138.376511
156.811005
175.314438
185.009369
182.651917
173.592850
165.020203
158.236038
148.628738
133.333771
115.287834
97.789566
80.194984
60.632996
38.416725
13.487656
-14.544931
-45.139713
-73.781311
-94.849579
-108.429062
-119.466232
-131.640915
-145.069427
-157.961823
-167.712219
-171.491806
-170.024628
-168.293961
-168.380402
-165.138535
-151.493713
-128.326431
-105.255241
-87.179527
-69.332748
-49.677650
-33.560120
-24.936058
-22.832479
-24.607330
-27.259531
-28.619884
-29.999126
-34.694668
-43.166328
-53.708763
-66.399078
-81.111450
-94.575539
-103.556152
-107.937187
-109.698433
-112.362572
-119.084000
-127.500755
-131.569611
-129.991623
-127.981384
-132.375565
-145.123566
-159.243134
-165.183670
-160.921219
-152.242630
-145.882309
-143.979965
-143.006775
-136.913910
-123.232956
-107.726364
-99.143692
-98.103508
-95.439919
-81.662163
-56.618046
-30.309919
-13.138030
-5.893506
-1.273532
6.303712
14.621158
17.169489
11.613573
3.863123
3.564518
15.340458
34.502193
51.665611
60.265663
59.901928
56.721741
59.527622
68.665031
73.360062
67.336617
57.240429
49.989941
44.205502
37.653107
30.775995
21.309193
6.114820
-12.855765
-31.070520
-46.706127
-61.490677
-77.913895
-94.883507
-108.239212
-117.522804
-128.316559
-145.369522
-166.297363
-184.753540
-198.048691
-207.579910
-213.093826
-212.508835
-206.389893
-196.417374
-181.307083
-159.145035
-130.598419
-97.207405
-60.529922
-24.741037
4.313103
26.707859
50.607712
81.017395
112.674530
138.240585
155.042923
164.071381
170.011063
179.418640
194.360458
207.355225
204.985687
182.588547
153.141068
134.582596
131.632187
133.851959
127.079803
104.975204
73.065170
42.515385
18.561537
-3.153930
-28.119061
-55.362907
-80.092400
-99.709137
-114.016647
-122.385651
-125.124947
-124.396675
-119.720703
-107.914146
-89.436668
-67.760529
-44.325623
-21.378223
-3.334126
10.976120
28.898354
53.106922
77.893150
97.469955
111.444885
121.493050
128.850937
136.269943
146.818253
159.615921
170.383392
176.819016
181.925293
189.760376
198.389160
201.970749
198.764816
191.867615
183.883163
174.936462
165.065033
154.628204
142.324280
127.415367
112.979507
102.132278
92.695320
79.055962
57.910339
31.590223
6.897481
-11.942780
-29.021160
-50.506184
-75.899521
-99.657349
-116.615692
-126.258095
-134.378143
-147.627228
-167.577118
-190.219482
-208.835449
-219.734207
-225.917236
-233.776123
-245.388245
-252.986603
-245.562439
-224.787109
-205.477142
-196.123978
-190.449936
-177.435287
-149.719940
-108.474831
-65.327995
-32.952198
-12.634754
3.464621
21.059811
42.298721
67.519936
91.645119
108.598984
120.419502
133.601059
148.838013
161.361816
168.944550
173.686951
178.644623
185.677780
193.980789
200.362579
201.167252
194.378922
180.415283
160.394241
136.763016
113.854546
93.089363
71.644356
46.814869
18.095236
-12.955814
-43.555267
-70.430534
-89.360664
-99.509750
-108.377396
-123.207939
-140.924744
-154.132202
-159.445084
-157.992218
-154.885605
-155.316864
-157.726196
-153.540924
-135.177429
-106.158287
-82.152161
-75.256752
-78.410004
-74.918533
-59.692924
-41.628239
-32.315243
-37.827896
-54.727520
-72.679276
-83.345131
-87.856682
-95.693626
-113.960571
-139.182526
-161.851395
-175.898376
-182.175995
-186.553909
-195.851791
-212.006271
-229.275925
-238.908051
-237.748917
-232.357300
-232.032730
-238.229965
-244.421204
-243.850998
-234.799591
-218.971527
-195.805603
-164.915894
-132.040833
-103.122696
-77.090454
-49.065178
-18.818518
6.758440
22.875723
32.339188
40.249763
49.152367
59.023811
71.293961
89.823540
115.115059
140.627579
158.349762
168.424469
176.933609
182.614655
174.801392
147.461700
108.396851
71.090263
43.565063
27.276016
19.672476
16.960878
17.976923
23.962023
34.231148
45.056602
53.399166
58.432571
59.158878
54.955692
47.908897
40.215309
31.712399
23.820236
21.232401
26.200033
35.213676
44.050976
54.098083
69.661354
89.987946
108.878822
120.724899
124.272385
122.084229
116.929939
109.601974
101.184883
93.939674
88.109344
82.580009
79.172791
80.254280
83.176407
84.781853
88.919075
99.675545
113.144798
125.276520
137.194717
148.258591
155.538345
158.292709
155.623566
146.194580
132.663239
119.285995
107.070656
96.294563
88.096664
81.576492
74.746857
66.103897
53.506195
36.215450
17.220228
0.051501
-14.828689
-28.337053
-40.464764
-51.506199
-62.673038
-73.984634
-83.500031
-91.369774
-101.279846
-114.035583
-126.002022
-135.072449
-142.048248
-147.728973
-152.016388
-154.517258
-153.353104
-145.740570
-133.707916
-123.831932
-118.339325
-112.909737
-102.754250
-85.561462
-61.296299
-33.254280
-6.641628
16.285860
36.734112
55.466251
72.755577
89.833206
107.319397
124.994469
142.933990
161.178864
179.537964
197.921402
216.504211
235.308472
252.992554
267.532715
278.391846
285.972870
291.003479
295.322266
299.888672
302.817810
300.190704
288.777588
269.506165
245.820023
219.910477
193.517593
167.931686
143.025391
119.077148
96.539810
74.143974
49.980515
23.256741
-5.246017
-33.874683
-62.516201
-92.672775
-123.912804
-152.679047
-175.264984
-191.301407
-202.862656
-209.906586
-210.120438
-202.845062
-190.086914
-174.641449
-157.942429
-139.609238
-119.064980
-96.066139
-70.469177
-43.926018
-19.901857
0.855112
21.892679
46.089840
73.260391
101.965889
129.427841
152.536835
170.475906
183.604660
192.255005
198.285110
204.188385
210.279831
215.036774
217.470215
217.278183
213.451019
204.543533
189.582748
168.097977
141.263504
113.347961
89.137276
68.981110
48.901463
25.964375
1.173240
-22.609081
-43.615864
-62.476620
-81.924355
-105.187706
-133.142044
-162.129456
-185.627747
-199.243011
-204.598984
-207.328690
-210.561417
-212.003723
-206.708572
-191.671707
-169.333023
-145.891129
-126.504211
-113.397751
-104.655853
-94.762878
-81.031464
-66.168991
-51.497959
-33.653481
-10.629436
13.509917
33.115032
47.682922
60.675137
74.145050
87.057961
95.203278
92.505646
76.986618
54.041363
30.914425
10.522705
-8.597793
-28.197720
-46.636551
-60.733250
-69.888306
-74.768364
-74.720940
-69.964027
-63.252411
-56.716663
-49.160408
-38.632961
-26.607771
-17.313932
-12.778146
-11.156856
-10.692657
-12.151461
-16.697664
-24.354773
-35.409969
-50.991711
-70.023544
-88.125725
-103.009216
-117.194832
-132.999619
-149.308228
-163.465088
-173.700668
-180.213867
-183.322159
-181.389038
-172.693619
-157.240402
-135.903046
-110.397148
-83.580276
-57.713375
-33.323521
-9.908813
13.774999
37.930756
59.352814
74.349785
82.600372
85.869858
86.166451
85.289383
82.958389
76.189400
63.300522
47.433632
33.508549
22.392611
9.409206
-10.125978
-34.053989
-55.654579
-72.143089
-87.314888
-106.889000
-132.359131
-159.118332
-181.496780
-197.991165
-209.676987
-216.451996
-217.562515
-213.265793
-203.366577
-186.537186
-162.937653
-134.840302
-104.415649
-73.140793
-41.191158
-7.098985
28.524832
61.835171
89.849838
111.516487
126.609253
135.547745
138.558151
136.846954
133.897797
132.922592
134.676712
138.067245
141.232468
142.243057
139.387421
131.879822
121.271561
110.853401
102.403290
94.478363
84.634460
72.998329
62.973564
57.189075
53.633034
47.822426
37.416691
22.905327
5.714929
-12.074285
-28.318951
-43.841606
-62.008430
-82.751709
-100.121628
-108.579384
-109.804039
-110.363022
-114.287086
-119.668083
-120.052567
-109.753532
-89.928337
-67.338577
-47.651638
-32.386868
-19.343798
-4.688603
12.215158
27.687906
39.136917
47.924995
56.234962
64.407661
71.406960
75.673500
76.863121
77.190758
78.573013
79.687347
77.094040
68.317123
53.584106
34.035690
10.459143
-15.046602
-39.765007
-62.864273
-84.665222
-104.740746
-122.338760
-137.349335
-150.196854
-161.631165
-171.808304
-178.116898
-175.437408
-161.897522
-143.484665
-128.110794
-116.187714
-101.976357
-81.123131
-53.201344
-21.803329
6.387876
27.272564
43.572769
61.203953
83.133057
107.332306
129.268250
146.283768
160.425232
176.825897
197.974182
219.209106
231.656677
230.454926
219.035126
205.357819
193.745010
179.640976
153.849411
112.936760
64.145538
19.240362
-16.303137
-47.994564
-85.506386
-130.735062
-174.496506
-204.804977
-216.166046
-212.909973
-205.756088
-202.650986
-201.106796
-191.122147
-167.288940
-136.080704
-109.463776
-94.425629
-88.890289
-84.161797
-72.685432
-55.242355
-39.190933
-29.740515
-24.252113
-16.025923
-2.769263
9.926377
14.043694
8.409601
-0.618787
-7.393855
-10.443152
-11.188790
-13.212703
-17.771284
-21.478767
-21.769114
-19.267710
-14.456688
-6.570645
5.432826
21.999586
41.193146
59.061462
74.149971
89.303459
107.822800
129.499878
148.626923
156.733459
151.165543
139.036774
130.360443
129.000153
130.210159
125.072586
109.023132
88.448906
74.837013
69.889671
63.699196
49.388119
30.099300
11.590878
-2.260988
-9.050603
-11.188486
-15.112048
-22.529259
-28.038076
-26.655622
-19.754854
-14.136447
-15.703864
-22.908806
-28.457424
-27.283287
-19.498772
-8.820157
-1.435356
0.013079
2.437854
14.259776
32.968796
48.815434
58.264378
65.938812
75.201530
84.377487
91.201263
94.592346
93.791313
90.861542
90.546898
93.387993
93.350777
85.437820
71.926254
59.468185
52.411793
49.275620
44.735886
35.164600
22.382969
12.799988
12.952391
22.637981
31.757025
29.429192
16.754181
4.109955
-2.568919
-6.307984
-13.130582
-26.290575
-43.303848
-57.255985
-63.885006
-66.484505
-71.800850
-83.083138
-97.447334
-107.275322
-105.443054
-92.391281
-76.697594
-66.216446
-60.208588
-53.117786
-43.714451
-35.549351
-31.227409
-30.549715
-31.174850
-29.577854
-22.492628
-7.456440
13.257795
28.992781
31.788021
29.348730
33.883564
45.031979
55.505711
62.299263
64.466484
60.859203
53.279945
44.403912
33.967766
21.362230
8.291945
-3.152835
-11.674608
-16.253607
-18.006191
-22.184593
-34.429817
-54.418530
-75.967651
-93.398216
-106.020325
-116.888016
-128.687881
-141.226486
-151.923828
-157.915329
-158.502487
-156.564941
-156.095215
-156.637451
-152.950134
-142.559586
-129.657242
-118.988174
-110.194351
-100.006889
-86.019608
-68.002754
-48.796932
-33.252186
-23.926798
-17.550196
-7.571601
8.170943
24.669218
35.756809
39.751652
39.362358
38.690411
39.602127
39.818043
35.489109
26.455103
16.989283
9.995343
4.116077
-2.720857
-12.195462
-26.467857
-44.464241
-61.525043
-76.234688
-91.029892
-105.747948
-117.007805
-122.573471
-122.594261
-117.240242
-104.879738
-84.468369
-58.427582
-30.003880
-0.488110
28.584402
55.352451
80.571121
106.005325
131.335434
154.792953
174.899384
193.013931
213.564301
237.019119
255.427872
259.485199
247.363937
225.751480
203.910217
185.358505
165.421234
136.652313
95.398201
46.073277
-1.609320
-42.952930
-82.243851
-125.747269
-175.831909
-230.078644
-280.454468
-315.646271
-329.136475
-325.258453
-317.996460
-319.623047
-323.623138
-309.167969
-269.225586
-218.054718
-170.507568
-129.955811
-92.188446
-51.014671
-3.327618
46.118114
86.149963
110.805382
128.307022
151.959473
184.476028
216.480362
237.565842
245.957123
248.636703
252.488266
256.633362
255.036133
244.448441
227.493927
209.444153
193.545883
178.479980
160.763077
140.488586
122.737587
112.669624
109.250526
103.805473
88.490166
65.851517
44.368740
27.401554
12.267862
-3.909214
-21.412724
-38.189098
-51.476711
-60.381916
-67.157959
-75.735779
-88.911987
-105.233498
-117.644386
-119.599167
-114.051651
-110.118195
-111.086540
-111.415985
-102.595886
-80.457283
-50.723755
-24.300949
-5.793485
8.645233
25.055511
47.306549
74.753662
102.207359
124.530396
141.314484
157.167191
177.792282
204.039459
230.005264
249.507156
263.137756
275.819916
289.972961
303.766937
313.140198
314.612335
308.021637
295.904968
279.451996
256.882965
227.335129
194.082748
161.825806
132.436478
104.035286
73.141762
37.298000
-3.723174
-47.128464
-87.264915
-119.357880
-143.420074
-161.115067
-170.580551
-170.057571
-161.964462
-147.816345
-126.881821
-102.411987
-79.886749
-58.893559
-34.395836
-4.843493
26.719955
58.450031
91.200691
124.189751
154.919449
183.389954
210.780319
236.508942
260.994019
286.426025
312.639374
336.123718
353.141541
362.552521
365.050873
360.152740
346.604889
324.486755
295.134338
260.447021
221.888931
180.787872
139.988419
102.455482
68.336060
35.128593
1.281483
-32.168804
-64.549255
-94.248505
-117.322739
-133.695251
-145.864594
-152.596710
-151.658615
-142.974762
-127.964981
-108.590279
-86.613564
-63.576717
-39.829700
-14.149956
13.744382
40.364578
61.075249
75.212387
83.654327
84.698685
76.745064
59.841194
33.993637
2.307153
-25.691339
-41.523037
-47.810394
-54.508266
-67.458115
-85.739197
-106.734100
-129.423141
-153.938660
-179.972275
-205.849594
-228.389832
-243.999802
-251.782944
-255.875702
-262.190033
-271.558655
-279.124420
-282.066864
-283.768097
-288.880676
-298.144958
-307.877472
-312.040375
-307.272614
-297.026825
-286.416016
-273.586884
-253.250488
-226.927887
-201.030045
-178.124832
-157.394211
-138.878174
-123.000282
-109.860077
-99.858734
-92.845444
-87.759041
-84.165268
-82.853760
-84.707565
-89.721558
-96.778610
-103.746315
-108.430565
-110.846344
-114.351067
-123.173401
-137.689331
-152.767563
-163.483826
-171.215866
-180.413025
-191.941406
-203.186905
-211.793533
-216.425644
-216.232239
-211.980316
-206.037033
-199.632507
-192.633331
-186.678986
-183.855865
-182.506607
-179.902756
-177.135895
-176.245285
-174.399704
-165.348389
-147.555817
-126.902588
-108.992950
-94.545090
-83.466225
-75.339859
-66.581390
-54.256012
-40.682182
-30.381641
-24.916712
-22.837919
-22.413292
-22.280670
-21.463699
-20.127470
-18.568710
-15.539204
-9.202625
0.028651
9.237415
16.777950
23.805170
31.450401
40.165924
50.601791
61.707226
70.659058
76.585854
81.626167
87.553741
93.230621
96.490715
97.458923
97.762283
97.853638
97.628082
97.280701
96.469566
95.407433
95.897102
99.084785
103.630463
107.305122
109.634514
111.984100
115.245232
119.257927
124.490211
131.882645
140.911118
149.985519
158.617294
166.828751
172.976685
175.089157
173.954346
172.325333
171.625549
171.473526
171.379425
171.150452
170.489853
169.096313
167.190277
165.658768
164.910873
164.370895
163.918488
164.113876
164.253845
162.133041
156.439301
147.969116
138.397263
129.295654
121.574974
113.816444
103.047531
89.214394
76.054108
66.785538
61.028080
55.469719
47.184292
36.192272
24.488249
14.033337
5.378245
-3.195490
-13.944440
-26.751724
-39.632435
-51.487431
-62.568123
-72.973114
-82.144730
-89.339432
-93.517052
-93.137505
-87.133507
-76.259476
-63.112637
-50.574059
-39.678856
-29.147903
-18.044495
-7.564196
1.473963
9.972622
17.811569
23.369383
26.476646
28.845161
31.694162
34.974174
38.234035
40.654400
40.922798
38.312714
33.920719
30.080673
27.775736
25.606682
22.532187
19.559065
17.003057
13.434797
8.860427
4.931962
1.892236
-1.475787
-5.288475
-7.942762
-9.785162
-15.274521
-26.347818
-36.611889
-39.925255
-40.405067
-44.445301
-50.084469
-53.905735
-58.266056
-64.018860
-66.132980
-61.335148
-54.105759
-51.741123
-53.910267
-52.798218
-46.156796
-40.145542
-38.143482
-38.163921
-39.771023
-44.631168
-51.923050
-58.277020
-61.097786
-59.393303
-52.461655
-40.833172
-28.092941
-17.010811
-5.740326
6.799735
17.766687
26.464081
34.865204
41.530602
43.382744
40.841640
35.628468
28.478468
21.431627
16.845345
14.148112
11.550306
8.300084
3.112069
-5.382394
-15.432966
-22.996859
-26.960058
-31.160500
-39.822498
-52.854214
-66.810905
-78.798683
-88.087891
-94.911072
-98.922516
-98.854698
-93.453102
-82.125023
-65.481071
-46.734280
-29.933208
-14.882194
1.987564
20.166698
34.380043
42.585590
47.701633
51.431549
52.965843
51.456715
45.688431
35.767437
25.905409
19.912971
15.505758
8.734051
0.544174
-6.610951
-13.693461
-21.727432
-29.202772
-36.310223
-45.861729
-57.635574
-67.161880
-71.315605
-70.573601
-65.634392
-56.154091
-42.953930
-27.462194
-9.404895
11.170513
31.780968
50.622303
68.109543
83.676628
95.491562
103.793205
110.347618
115.313446
118.236038
120.218597
122.336472
124.021126
124.063148
121.769234
117.204979
110.425430
100.944618
88.835663
74.900711
59.639797
43.676456
28.326532
15.202319
5.462490
-1.600572
-8.169119
-14.720990
-19.316034
-20.336634
-17.431854
-11.372669
-5.264043
-2.751646
-3.558389
-3.982779
-1.951105
1.143470
3.107109
3.007574
0.997859
-1.811325
-4.011637
-5.569623
-7.508701
-10.153504
-12.452567
-12.505548
-9.781137
-5.791269
-0.957466
5.558622
12.516636
18.048550
23.001089
28.554411
33.673122
38.164871
43.978874
51.011414
56.535797
59.982635
62.751835
64.188766
63.561630
63.302055
65.500214
68.226082
68.601425
66.935883
64.660683
60.886566
54.420650
45.707233
35.207161
24.205725
15.959158
12.090280
10.523270
8.379514
4.340321
-0.500164
-3.106574
-1.871242
2.060495
7.301334
12.962516
18.494005
24.213951
29.337610
31.861183
32.455082
33.697708
35.881424
37.629368
37.930336
36.242790
33.347561
30.863697
28.537012
24.767286
19.974810
15.780459
11.744809
6.724290
1.664720
-2.222927
-6.190546
-12.006938
-18.525650
-22.917707
-24.491245
-24.902178
-25.762260
-27.693024
-30.021338
-30.924347
-29.491520
-26.988260
-25.273010
-24.731800
-23.819439
-21.005194
-17.636316
-17.417622
-22.257589
-30.424536
-39.382828
-48.006611
-55.662369
-62.101929
-68.007874
-72.869415
-74.168343
-71.316254
-67.477478
-65.462517
-64.922867
-64.281761
-62.623447
-60.133572
-58.082901
-57.441326
-58.012535
-59.230354
-60.305092
-60.615200
