EVENT_NAME: CENTRAL_ITALY
EVENT_ID: EMSC-20161026_0000077
EVENT_DATE_YYYYMMDD: 20161026
EVENT_TIME_HHMMSS: 171036
EVENT_LATITUDE_DEGREE: 42.8802
EVENT_LONGITUDE_DEGREE: 13.1275
EVENT_DEPTH_KM: 8.7
HYPOCENTER_REFERENCE: INGV-CNT_Seismic_Bulletin
MAGNITUDE_W: 5.4
MAGNITUDE_W_REFERENCE: INGV-webservice
MAGNITUDE_L: 5.4
MAGNITUDE_L_REFERENCE: INGV-CNT_Seismic_Bulletin
FOCAL_MECHANISM: NF
NETWORK: IT
STATION_CODE: NRC
STATION_NAME: NORCIA
STATION_LATITUDE_DEGREE: 42.792543
STATION_LONGITUDE_DEGREE: 13.096475
STATION_ELEVATION_M: 616
LOCATION: 
SENSOR_DEPTH_M: 0.0
VS30_M/S: 687
SITE_CLASSIFICATION_EC8: B
MORPHOLOGIC_CLASSIFICATION: SL
EPICENTRAL_DISTANCE_KM: 10.1
EARTHQUAKE_BACKAZIMUTH_DEGREE: 14.6
DATE_TIME_FIRST_SAMPLE_YYYYMMDD_HHMMSS: 20161026_171032.909
DATE_TIME_FIRST_SAMPLE_PRECISION: milliseconds
SAMPLING_INTERVAL_S: 0.005000
NDATA: 10588
DURATION_S: 52.940
STREAM: HGN
UNITS: cm/s^2
INSTRUMENT: sensor = Unknown [Unknown] | digitizer = Unknown [Unknown]
INSTRUMENT_ANALOG/DIGITAL: D
INSTRUMENTAL_FREQUENCY_HZ: 
INSTRUMENTAL_DAMPING: 
FULL_SCALE_G: 
N_BIT_DIGITAL_CONVERTER: 
PGA_CM/S^2: -258.184685
TIME_PGA_S: 9.125000
BASELINE_CORRECTION: BASELINE REMOVED
FILTER_TYPE: BUTTERWORTH
FILTER_ORDER: 2
LOW_CUT_FREQUENCY_HZ: 0.070
HIGH_CUT_FREQUENCY_HZ: 30.000
LATE/NORMAL_TRIGGERED: NT
DATABASE_VERSION: DYNA 1.0
HEADER_FORMAT: DYNA 1.2
DATA_TYPE: ACCELERATION
PROCESSING: manual (Paolucci et al., 2011)
DATA_TIMESTAMP_YYYYMMDD_HHMMSS: 20161027_111110.997
DATA_LICENSE: CC-BY3_0-IT (http://creativecommons.org/licenses/by/3.0/deed.en)
DATA_CITATION: ESM working group (2015), European Strong-Motion database, version 0.1, Network Activity 3: Networking acceleration networks and SM data users. Project NERA (www.nera-eu.org)
DATA_CREATOR: ESM working group
ORIGINAL_DATA_MEDIATOR_CITATION: Ufficio Rischio Sismico e Vulcanico del Dipartimento della Protezione Civile (http://www.protezionecivile.gov.it/)
ORIGINAL_DATA_MEDIATOR: Rete Accelerometrica Nazionale - RAN Download (http://www.mot1.it/randownload/)
ORIGINAL_DATA_CREATOR_CITATION: Italian Strong Motion Network, Italian Civil Protection Department http://www.protezionecivile.gov.it
ORIGINAL_DATA_CREATOR: network: IT (Italian Strong Motion Network); owner: Dipartimento Della Protezione Civile
USER1: /home/dyna/processing-itaca/processing.py /var/www/processing//tmp/felicetta//IT.NRC..HGE.D.20161026.171036.X.ACC.ASC /var/www/processing//tmp/felicetta//IT.NRC..HGN.D.20161026.171036.X.ACC.ASC /var/www/processing//tmp/felicetta//IT.NRC..HGZ.D.20161026.171036.X.ACC.ASC --tmp /var/www/processing//tmp/felicetta/ --le 0.07 --he 30.000 --ln 0.07 --hn 30.000 --lz 0.07 --hz 30.000 --fo 2 --ca 0 --cz 70 --ta 5 --tz 5 --mf 1 --rf 0 --tr NT
USER2: 
USER3: 
USER4: 
USER5: 
[...]
-0.007453
-0.004253
0.004057
0.012731
0.017487
0.017789
0.016031
0.014149
0.012195
0.008967
0.004074
-0.000142
-0.000914
0.001381
0.004062
0.005315
0.005934
0.007893
0.011325
0.013941
0.013167
0.009007
0.004935
0.004387
0.006972
0.009489
0.009360
0.006387
0.002592
0.000735
0.002013
0.005419
0.009318
0.012419
0.014004
0.013784
0.010952
0.005415
-0.000060
-0.001855
0.001160
0.006983
0.011891
0.013408
0.012176
0.010266
0.008595
0.006612
0.003847
0.001314
0.001617
0.006268
0.012274
0.014429
0.011211
0.005620
0.001247
-0.000159
0.001890
0.007024
0.013341
0.018268
0.020103
0.017887
0.011329
0.001782
-0.007240
-0.011106
-0.007225
0.001915
0.010361
0.014153
0.013880
0.012143
0.010660
0.009626
0.008710
0.008416
0.009142
0.009248
0.006705
0.002298
-0.000642
0.000842
0.006779
0.013742
0.017362
0.015670
0.010005
0.003299
-0.001947
-0.004047
-0.002348
0.002208
0.007926
0.012896
0.014565
0.011392
0.005444
0.001679
0.003694
0.010107
0.015429
0.015386
0.010938
0.005850
0.002209
0.000049
-0.000584
0.001060
0.005326
0.011112
0.016040
0.017647
0.015012
0.009266
0.002874
-0.001295
-0.001348
0.002439
0.007888
0.012548
0.015139
0.015266
0.012723
0.008036
0.003001
0.000156
0.001104
0.004924
0.009220
0.012421
0.013604
0.011758
0.007112
0.001549
-0.003035
-0.005094
-0.003204
0.002505
0.009574
0.014898
0.016710
0.015304
0.012199
0.008492
0.004874
0.002544
0.002579
0.005079
0.009277
0.013846
0.016896
0.016576
0.012881
0.007564
0.001772
-0.003915
-0.007417
-0.005947
0.000698
0.009243
0.015163
0.015380
0.010416
0.004081
0.000731
0.002997
0.009977
0.017176
0.020269
0.018576
0.014178
0.009049
0.004138
0.000254
-0.001568
-0.000392
0.003623
0.008026
0.009653
0.008003
0.005424
0.004153
0.004351
0.005111
0.006355
0.008522
0.011349
0.013961
0.015039
0.012801
0.006702
-0.000233
-0.002711
0.001928
0.010839
0.018287
0.020767
0.018338
0.012161
0.003985
-0.003624
-0.008825
-0.010208
-0.006208
0.002497
0.012310
0.019088
0.020330
0.016666
0.011025
0.006115
0.003343
0.002781
0.004021
0.007259
0.011811
0.014430
0.011990
0.005694
0.000271
-0.000831
0.002104
0.006129
0.007855
0.006287
0.004097
0.004438
0.007199
0.010003
0.010919
0.009222
0.005899
0.003553
0.003950
0.006097
0.008196
0.010297
0.012859
0.014113
0.011592
0.005514
-0.000892
-0.003799
-0.001376
0.004885
0.011075
0.013817
0.013037
0.011298
0.010526
0.010349
0.008931
0.005135
0.000531
-0.001762
-0.000980
0.000788
0.002615
0.005576
0.009688
0.013623
0.016118
0.015751
0.011583
0.005282
0.000848
0.000890
0.004094
0.007088
0.007959
0.007416
0.006968
0.006884
0.006281
0.004429
0.001956
0.001123
0.003519
0.007373
0.009299
0.008537
0.007716
0.009183
0.011675
0.012258
0.010187
0.006584
0.002866
0.001341
0.003795
0.008531
0.011713
0.011103
0.007044
0.001590
-0.002685
-0.004368
-0.003752
-0.001268
0.003655
0.010974
0.017908
0.020295
0.016534
0.009374
0.003456
0.001103
0.001245
0.002478
0.004743
0.007332
0.008243
0.006730
0.004575
0.004234
0.006710
0.010910
0.014696
0.016501
0.015424
0.011125
0.004792
-0.000895
-0.003621
-0.003175
-0.000665
0.003551
0.009404
0.014925
0.016571
0.012665
0.005766
0.000148
-0.002283
-0.001936
0.000461
0.003957
0.007071
0.008448
0.007992
0.007317
0.007991
0.009611
0.010569
0.009931
0.007972
0.005849
0.005108
0.005972
0.006576
0.005840
0.004893
0.004646
0.004978
0.005392
0.005150
0.004728
0.005687
0.008146
0.010785
0.012261
0.011403
0.008032
0.003551
-0.000304
-0.002384
-0.001885
0.001384
0.006665
0.012434
0.016577
0.017358
0.014407
0.008803
0.002986
-0.000326
0.000009
0.002891
0.005866
0.006870
0.005843
0.004828
0.005531
0.007414
0.009313
0.010887
0.011595
0.010323
0.006806
0.002164
-0.002311
-0.005261
-0.004875
-0.000443
0.006668
0.013576
0.016686
0.014277
0.008715
0.003903
0.001288
0.000294
0.000892
0.002910
0.004852
0.005607
0.005158
0.003943
0.003316
0.004306
0.005996
0.007572
0.009252
0.010160
0.009003
0.006224
0.003627
0.003076
0.005042
0.007815
0.008705
0.006309
0.001953
-0.001681
-0.002934
-0.001300
0.002485
0.005825
0.006347
0.004797
0.004297
0.006318
0.008504
0.007986
0.005878
0.005497
0.006866
0.007048
0.004927
0.001735
-0.001464
-0.003442
-0.001960
0.003545
0.009924
0.013384
0.013115
0.010400
0.006599
0.003444
0.002801
0.004650
0.006845
0.007770
0.007746
0.007176
0.005107
0.000841
-0.003781
-0.005176
-0.001980
0.003103
0.006487
0.007152
0.006228
0.005313
0.005456
0.006190
0.006391
0.006065
0.005811
0.005909
0.006608
0.007684
0.007858
0.005911
0.002275
-0.001555
-0.004609
-0.006066
-0.004761
-0.000504
0.005707
0.012887
0.019279
0.021606
0.018012
0.010585
0.002853
-0.003522
-0.008271
-0.010605
-0.009253
-0.004401
0.001772
0.007251
0.011290
0.013697
0.014062
0.011429
0.005957
0.000065
-0.003933
-0.005583
-0.005198
-0.003081
0.000102
0.003863
0.008714
0.014754
0.019744
0.020131
0.014247
0.004387
-0.004865
-0.010378
-0.011464
-0.008638
-0.003341
0.002608
0.007921
0.011545
0.012916
0.012313
0.009792
0.005306
0.000278
-0.002682
-0.001921
0.001261
0.002836
0.000132
-0.003946
-0.003163
0.004865
0.015660
0.022347
0.021355
0.013498
0.001584
-0.011085
-0.020701
-0.023983
-0.019418
-0.007325
0.008232
0.018918
0.019780
0.014812
0.009767
0.005234
0.000106
-0.003558
-0.001940
0.004170
0.007081
0.001620
-0.006788
-0.010167
-0.007807
-0.002491
0.004879
0.012430
0.015585
0.011888
0.004448
-0.001841
-0.005305
-0.006902
-0.006777
-0.003812
0.001433
0.006058
0.008777
0.011029
0.012732
0.011298
0.005892
-0.000661
-0.005241
-0.007775
-0.009802
-0.011070
-0.009533
-0.004388
0.002319
0.007642
0.010324
0.010744
0.009630
0.007705
0.005571
0.003401
0.001343
-0.000014
-0.000444
-0.000608
-0.001297
-0.002896
-0.005058
-0.006888
-0.007453
-0.005619
-0.000958
0.005149
0.010621
0.013958
0.013835
0.008812
-0.001046
-0.012019
-0.017599
-0.012921
0.001023
0.017097
0.026596
0.025339
0.015144
0.000409
-0.014832
-0.027221
-0.033015
-0.028399
-0.012671
0.008930
0.026645
0.032141
0.024391
0.008657
-0.008969
-0.022583
-0.025694
-0.016098
0.000110
0.013738
0.019829
0.018149
0.010221
-0.001186
-0.011516
-0.016340
-0.014240
-0.007343
0.000024
0.003654
0.002496
-0.000593
-0.002205
-0.001926
-0.001206
-0.000346
0.001078
0.002826
0.004687
0.006707
0.008033
0.007059
0.003260
-0.002520
-0.009315
-0.015675
-0.018692
-0.015663
-0.007433
0.001617
0.008032
0.011503
0.012327
0.009973
0.004614
-0.001625
-0.006051
-0.008015
-0.008270
-0.007046
-0.005042
-0.003558
-0.002503
-0.000987
0.000443
0.000656
-0.000113
-0.001009
-0.001697
-0.002093
-0.002024
-0.001647
-0.001808
-0.002858
-0.003809
-0.003737
-0.002974
-0.002318
-0.001748
-0.001018
-0.000977
-0.002407
-0.004131
-0.004211
-0.002362
0.000421
0.003154
0.004153
0.001808
-0.002643
-0.005947
-0.006131
-0.003487
-0.000290
0.000463
-0.003040
-0.011456
-0.025364
-0.045893
-0.074698
-0.112571
-0.157451
-0.203538
-0.241799
-0.261835
-0.256590
-0.227405
-0.181606
-0.122861
-0.046150
0.054900
0.178010
0.311469
0.435301
0.519114
0.532701
0.472006
0.369473
0.268757
0.191324
0.131239
0.072306
0.002352
-0.078908
-0.154013
-0.193870
-0.182437
-0.139103
-0.110666
-0.138228
-0.228485
-0.347124
-0.438374
-0.462496
-0.423003
-0.359662
-0.315791
-0.307781
-0.315147
-0.294303
-0.212154
-0.078297
0.057895
0.144432
0.157362
0.101752
-0.002038
-0.126865
-0.245658
-0.345908
-0.432686
-0.508190
-0.561930
-0.587238
-0.586478
-0.555635
-0.484884
-0.372362
-0.217340
-0.012413
0.230426
0.456769
0.599452
0.629848
0.569372
0.465076
0.375648
0.363151
0.458053
0.633213
0.833830
1.019732
1.160205
1.209702
1.125236
0.909839
0.616081
0.302561
-0.004526
-0.309933
-0.616669
-0.903298
-1.140762
-1.324757
-1.484923
-1.665056
-1.889102
-2.136347
-2.346287
-2.441134
-2.343798
-2.009285
-1.485616
-0.938753
-0.568485
-0.477043
-0.620667
-0.866361
-1.071724
-1.139232
-1.062979
-0.947070
-0.930472
-1.061529
-1.265761
-1.432266
-1.491499
-1.422231
-1.253708
-1.073864
-0.967078
-0.920879
-0.847590
-0.701415
-0.518640
-0.366098
-0.335586
-0.568606
-1.176914
-2.119756
-3.215754
-4.263690
-5.112097
-5.646129
-5.774287
-5.442280
-4.643682
-3.448834
-2.051271
-0.727720
0.295316
0.909135
1.083595
0.873815
0.496603
0.255820
0.245687
0.184809
-0.294569
-1.173782
-1.942758
-1.946522
-0.807448
1.341082
3.810249
5.549399
5.693080
4.163707
1.658350
-1.055269
-3.713981
-6.423065
-9.204126
-11.841923
-13.983844
-15.147233
-14.800983
-12.843035
-10.033774
-7.636786
-6.483955
-6.442446
-6.654050
-6.119981
-4.250863
-1.246280
1.898850
3.972255
4.453406
3.920607
3.430514
3.486516
3.695010
3.365749
2.294543
0.946475
0.010376
-0.172768
0.102283
0.004138
-1.391556
-4.442869
-8.451479
-11.850234
-13.068578
-11.439204
-7.583914
-3.160050
-0.069599
0.570086
-0.844655
-2.573714
-2.760029
-0.760836
2.701421
6.402593
9.351210
11.071489
11.660439
11.470267
10.564211
8.711732
6.001418
3.073607
0.567166
-1.304961
-2.457207
-2.651186
-1.841266
-0.410875
1.298530
3.321672
5.642841
7.831741
9.287496
9.469965
7.939217
4.758696
0.919368
-2.139543
-3.517650
-3.164924
-1.510105
0.789462
2.972677
4.621050
5.929996
7.075169
7.423228
5.854893
1.838083
-4.059669
-10.432113
-15.422697
-17.193974
-14.743619
-8.493327
0.025139
8.892681
16.316240
21.124058
23.086191
22.586609
20.023890
15.583798
9.465560
2.302635
-4.684831
-10.063372
-12.753344
-12.428508
-9.707955
-6.059292
-3.229253
-2.405212
-3.818418
-7.053121
-11.420970
-15.998868
-19.698090
-21.614458
-21.407372
-19.307844
-15.671507
-10.633870
-4.381524
2.344374
8.292232
12.429384
14.617877
15.556248
16.153187
16.862808
17.442808
17.316202
16.026861
13.284181
8.931161
3.203163
-3.129389
-9.103161
-13.916565
-16.854900
-17.236338
-14.801246
-10.088737
-4.257254
1.487933
6.304020
9.707447
11.528287
12.013966
11.533867
9.988245
6.989716
2.676686
-2.177474
-6.808248
-10.721108
-13.411682
-14.353710
-13.418313
-10.996999
-7.490954
-3.028295
1.893505
5.965511
8.025393
8.122192
6.990868
5.025414
2.470522
0.019453
-1.578717
-2.258510
-2.418300
-2.000172
-0.291027
3.170243
7.803796
12.171241
14.629028
13.835969
9.188907
1.343245
-7.672452
-15.330969
-19.982916
-21.600300
-21.419241
-20.817554
-20.181549
-18.730047
-15.546017
-10.653907
-4.995862
0.304989
4.455428
7.106459
8.352527
8.711794
8.885355
9.261034
9.646578
9.538500
8.559436
6.650843
4.051928
1.277969
-0.945409
-2.015007
-1.873944
-1.007577
0.023505
0.942770
1.676795
2.191584
2.630135
3.367005
4.521045
5.546523
5.686707
4.790327
3.446337
2.329898
1.629531
1.138429
0.527078
-0.684404
-2.939751
-5.949564
-8.480860
-9.264965
-8.006438
-5.512123
-3.019419
-1.169070
0.526635
3.091391
7.070014
12.124576
17.334427
21.680309
24.283342
24.524796
22.420927
18.876276
15.140045
11.984849
9.564501
7.602008
5.375932
2.161151
-1.843208
-5.451904
-7.620386
-8.349097
-8.339889
-8.019969
-7.181886
-5.438428
-2.671284
0.937887
5.013991
8.980664
11.982058
13.025441
11.558494
8.141893
4.489532
2.499128
2.832078
4.373463
5.254519
4.264433
1.206197
-3.483099
-9.049095
-14.775653
-20.220364
-24.898001
-27.884918
-28.034191
-24.715687
-18.401140
-10.341358
-1.654176
6.817394
13.905929
18.280455
19.383352
17.769283
14.553362
10.674308
6.520240
2.189646
-1.939600
-5.099900
-6.540288
-5.918102
-3.502198
-0.084053
3.542456
7.070773
10.612842
14.305887
18.061331
21.581619
24.545519
26.641874
27.385910
26.286505
23.349707
19.061991
13.981687
8.782748
4.331890
1.030983
-1.796098
-5.275977
-9.533565
-13.239077
-14.974733
-14.613417
-13.024198
-11.276741
-10.536395
-11.793313
-15.168195
-19.736912
-23.962008
-26.326651
-26.200365
-24.517118
-23.463293
-25.200754
-30.529081
-38.462177
-46.993984
-54.356789
-59.761253
-63.157837
-64.441116
-63.003819
-58.024979
-48.986851
-35.870396
-19.066486
0.653035
21.974802
43.026798
61.881847
77.324272
89.228874
98.340752
105.717026
112.198128
118.202515
123.649597
127.759659
129.211624
126.865120
120.314774
109.863976
96.215103
80.260315
63.260380
47.130280
34.157776
26.276649
24.575254
29.239019
39.678513
54.594151
72.100685
90.150116
106.946945
121.023865
131.333725
137.662018
140.861465
142.308167
142.840240
142.084000
138.758133
131.702591
120.812347
107.183426
92.359322
77.233658
61.650276
45.096031
27.344070
8.119698
-13.301807
-37.643246
-64.884697
-94.041992
-123.652435
-152.538055
-179.928085
-204.785431
-225.471863
-240.514160
-249.761978
-254.657379
-257.137817
-258.184692
-257.565399
-254.754440
-249.495026
-241.429688
-229.785950
-213.762863
-193.200577
-168.805740
-141.632446
-112.422066
-81.678001
-50.303841
-19.743980
8.657434
34.148045
56.311920
74.528587
87.760490
94.831001
94.946739
88.098473
75.180687
57.823532
38.079384
18.202293
0.352375
-14.041077
-24.825598
-33.041969
-40.284279
-47.947945
-56.774437
-66.499580
-75.552055
-81.703529
-83.563316
-81.315681
-76.119881
-69.015602
-60.117638
-48.510155
-33.060120
-13.622515
8.464658
30.811901
50.791370
66.465004
77.070541
82.594398
83.296532
79.965286
74.174309
67.774307
61.950684
56.591427
50.414333
41.887444
30.451794
17.037928
3.423885
-8.696306
-18.041632
-23.678013
-25.126642
-22.659019
-17.347820
-10.682414
-3.976922
2.127099
7.746681
13.347721
19.283062
25.612291
32.013538
37.737946
41.926846
44.208630
45.011955
45.431503
46.839653
50.364487
56.538502
65.314545
76.151802
87.969406
99.171776
107.853722
112.085716
110.308472
101.896034
87.702301
70.027023
51.587605
34.258118
18.688471
4.658761
-8.477182
-21.252514
-33.482872
-44.200325
-52.375957
-57.750458
-61.016491
-63.256008
-65.085823
-66.153282
-65.343269
-61.489849
-54.005795
-43.168007
-30.282158
-17.532057
-7.127827
-0.278542
3.179684
4.369702
4.572663
4.628187
4.843744
5.172697
5.449562
5.673061
6.112515
7.055562
8.439104
9.725380
10.184281
9.447431
7.863526
6.305568
5.698863
6.666399
9.348080
13.527613
19.091215
26.236242
35.080170
45.193329
55.626965
65.357185
73.609734
79.695679
82.629951
81.181076
74.553680
63.021435
47.802544
30.442835
12.307957
-5.621819
-22.657675
-38.248016
-52.047878
-64.003914
-74.138199
-82.294693
-88.293945
-92.310547
-94.899635
-96.500687
-96.878342
-95.156120
-90.506882
-82.830475
-72.847542
-61.661400
-50.163544
-38.679745
-27.162827
-15.839406
-5.701658
1.773263
5.567122
5.829278
3.595671
-0.204327
-5.376785
-12.089786
-20.122993
-28.719589
-37.059052
-44.680698
-51.470402
-57.320831
-61.890720
-64.773369
-65.778923
-64.898170
-62.108097
-57.374630
-50.774227
-42.529285
-32.972057
-22.399256
-10.854456
1.838615
15.786383
30.867861
46.779030
63.033924
78.838280
93.016869
104.229645
111.458832
114.433105
113.630898
109.844902
103.710594
95.625542
85.996407
75.268837
63.503345
50.198483
34.944923
18.124767
0.699951
-16.487219
-32.979477
-48.478085
-62.623840
-74.997261
-85.284561
-93.480354
-99.845413
-104.570602
-107.483459
-107.999603
-105.356033
-99.164253
-89.895424
-78.645378
-66.357277
-53.419521
-39.939835
-26.185333
-12.687950
0.018832
11.635987
22.098272
31.510513
40.034981
47.688229
54.268517
59.585388
63.823536
67.538696
70.985092
73.469810
73.756737
71.231987
66.462250
60.529057
54.043934
47.102818
40.078453
33.952126
29.656660
27.346666
26.440157
26.181982
26.152578
26.458399
27.508682
29.551750
32.367176
35.378922
38.100983
40.399075
42.216427
43.143044
42.387402
39.252075
33.686745
26.339024
18.085199
9.544119
0.924745
-7.790420
-16.525869
-24.944597
-32.684727
-39.778805
-46.550838
-52.974472
-58.320122
-61.441360
-61.360958
-57.748425
-51.016079
-42.073006
-31.978931
-21.657152
-11.771309
-2.791300
4.875185
10.881612
15.152828
18.053278
20.213545
22.175961
24.211447
26.347073
28.466339
30.401035
31.963989
32.963295
33.299908
33.031563
32.227142
30.828066
28.719025
25.757639
21.739742
16.626448
10.833869
5.132197
0.301522
-3.109543
-4.903856
-5.280663
-4.795280
-4.188173
-4.072061
-4.746325
-6.323796
-8.887004
-12.493947
-17.167368
-22.860144
-29.387253
-36.467892
-43.768200
-50.769958
-56.771549
-61.247707
-64.094933
-65.432060
-65.328850
-63.766918
-60.795822
-56.784397
-52.458984
-48.503620
-45.079521
-41.799694
-38.214886
-34.298489
-30.377499
-26.612253
-22.677923
-18.037149
-12.506579
-6.479734
-0.565297
4.867338
9.630756
13.310235
15.210275
14.793681
12.056375
7.537662
2.146821
-3.014093
-6.859856
-8.663796
-8.400753
-6.695546
-4.238253
-1.212044
2.620803
7.378818
12.753029
18.086700
22.627260
25.856438
27.711052
28.493258
28.644712
28.614100
28.727152
29.020887
29.242949
29.057163
28.288330
27.060396
25.705973
24.486767
23.413214
22.352579
21.243158
20.108955
18.919683
17.637697
16.449675
15.755353
15.844149
16.722748
18.258265
20.334917
22.901575
25.964594
29.504976
33.448090
37.788681
42.593437
47.713711
52.597309
56.544319
59.108414
60.147995
59.582382
57.334496
53.563538
48.749504
43.430710
37.954884
32.509018
27.253084
22.337984
17.801769
13.458383
8.917704
3.786860
-2.127997
-8.872601
-16.524487
-25.131752
-34.489059
-44.091656
-53.206448
-60.964153
-66.648064
-70.008842
-71.181305
-70.323853
-67.461075
-62.669998
-56.359863
-49.277073
-42.110722
-35.092438
-28.034126
-20.738956
-13.423062
-6.755715
-1.364273
2.692778
5.885977
8.770911
11.641181
14.468181
17.079517
19.391975
21.467342
23.359549
24.960068
26.040710
26.452541
26.257763
25.682222
24.994747
24.409491
24.033697
23.917997
24.126007
24.659445
25.335842
25.813501
25.757093
25.014265
23.684685
22.016321
20.200853
18.276035
16.210608
13.995258
11.604660
8.927256
5.786972
2.004357
-2.581192
-8.097370
-14.621880
-22.142509
-30.454828
-39.111420
-47.521187
-55.102600
-61.413193
-66.238823
-69.615326
-71.817406
-73.263359
-74.217087
-74.486534
-73.474854
-70.606003
-65.785568
-59.474998
-52.338261
-44.930523
