EVENT_NAME: CENTRAL_ITALY
EVENT_ID: EMSC-20160824_0000006
EVENT_DATE_YYYYMMDD: 20160824
EVENT_TIME_HHMMSS: 013632
EVENT_LATITUDE_DEGREE: 42.6983
EVENT_LONGITUDE_DEGREE: 13.2335
EVENT_DEPTH_KM: 8.1
HYPOCENTER_REFERENCE: INGV-CNT_Seismic_Bulletin
MAGNITUDE_W: 6.0
MAGNITUDE_W_REFERENCE: INGV-webservice
MAGNITUDE_L: 6.0
MAGNITUDE_L_REFERENCE: INGV-CNT_Seismic_Bulletin
FOCAL_MECHANISM: NF
NETWORK: IT
STATION_CODE: NRC
STATION_NAME: NORCIA
STATION_LATITUDE_DEGREE: 42.792543
STATION_LONGITUDE_DEGREE: 13.096475
STATION_ELEVATION_M: 616
LOCATION: 
SENSOR_DEPTH_M: 0.0
VS30_M/S: 687
SITE_CLASSIFICATION_EC8: B
MORPHOLOGIC_CLASSIFICATION: SL
EPICENTRAL_DISTANCE_KM: 15.3
EARTHQUAKE_BACKAZIMUTH_DEGREE: 133.0
DATE_TIME_FIRST_SAMPLE_YYYYMMDD_HHMMSS: 20160824_013629.849
DATE_TIME_FIRST_SAMPLE_PRECISION: milliseconds
SAMPLING_INTERVAL_S: 0.005000
NDATA: 8000
DURATION_S: 40.000
STREAM: HGN
UNITS: cm
INSTRUMENT: sensor = Unknown [Unknown] | digitizer = Unknown [Unknown]
INSTRUMENT_ANALOG/DIGITAL: D
INSTRUMENTAL_FREQUENCY_HZ: 
INSTRUMENTAL_DAMPING: 
FULL_SCALE_G: 
N_BIT_DIGITAL_CONVERTER: 
PGD_CM: -6.624073
TIME_PGD_S: 10.935000
BASELINE_CORRECTION: BASELINE REMOVED
FILTER_TYPE: BUTTERWORTH
FILTER_ORDER: 2
LOW_CUT_FREQUENCY_HZ: 0.080
HIGH_CUT_FREQUENCY_HZ: 40.000
LATE/NORMAL_TRIGGERED: NT
DATABASE_VERSION: DYNA 1.0
HEADER_FORMAT: DYNA 1.2
DATA_TYPE: DISPLACEMENT
PROCESSING: manual (Paolucci et al., 2011)
DATA_TIMESTAMP_YYYYMMDD_HHMMSS: 20160825_132942.360
DATA_LICENSE: CC-BY3_0-IT (http://creativecommons.org/licenses/by/3.0/deed.en)
DATA_CITATION: ESM working group (2015), European Strong-Motion database, version 0.1, Network Activity 3: Networking acceleration networks and SM data users. Project NERA (www.nera-eu.org)
DATA_CREATOR: ESM working group
ORIGINAL_DATA_MEDIATOR_CITATION: Ufficio Rischio Sismico e Vulcanico del Dipartimento della Protezione Civile (http://www.protezionecivile.gov.it/)
ORIGINAL_DATA_MEDIATOR: Rete Accelerometrica Nazionale - RAN Download (http://www.mot1.it/randownload/)
ORIGINAL_DATA_CREATOR_CITATION: Italian Strong Motion Network, Italian Civil Protection Department http://www.protezionecivile.gov.it
ORIGINAL_DATA_CREATOR: network: IT (Italian Strong Motion Network); owner: Dipartimento Della Protezione Civile
USER1: /home/dyna/processing-itaca/processing.py /var/www/processing//tmp/Maria//IT.NRC..HGE.D.20160824.013632.X.ACC.ASC /var/www/processing//tmp/Maria//IT.NRC..HGN.D.20160824.013632.X.ACC.ASC /var/www/processing//tmp/Maria//IT.NRC..HGZ.D.20160824.013632.X.ACC.ASC --tmp /var/www/processing//tmp/Maria/ --le 0.08 --he 40.000 --ln 0.08 --hn 40.000 --lz 0.08 --hz 40.000 --fo 2 --ca 0 --cz 140 --ta 5 --tz 5 --mf 1 --rf 0 --tr NT
USER2: 
USER3: 
USER4: 
USER5: 
[...]
-1.655412e-02
-1.600570e-02
-1.546854e-02
-1.494473e-02
-1.442728e-02
-1.390343e-02
-1.336237e-02
-1.280196e-02
-1.222924e-02
-1.165368e-02
-1.107938e-02
-1.050307e-02
-9.918586e-03
-9.322577e-03
-8.717521e-03
-8.111012e-03
-7.510589e-03
-6.916292e-03
-6.318079e-03
-5.701960e-03
-5.059308e-03
-4.391488e-03
-3.707880e-03
-3.019540e-03
-2.331864e-03
-1.641474e-03
-9.408984e-04
-2.266244e-04
4.980606e-04
1.227373e-03
1.959091e-03
2.697791e-03
3.453960e-03
4.238714e-03
5.056802e-03
5.904042e-03
6.771712e-03
7.652463e-03
8.542089e-03
9.438444e-03
1.034072e-02
1.124839e-02
1.215902e-02
1.306798e-02
1.397093e-02
1.486635e-02
1.575558e-02
1.664212e-02
1.753205e-02
1.843434e-02
1.935942e-02
2.031744e-02
2.131871e-02
2.237522e-02
2.349819e-02
2.469191e-02
2.594977e-02
2.725668e-02
2.859510e-02
2.995088e-02
3.131705e-02
3.269427e-02
3.408628e-02
3.549274e-02
3.690577e-02
3.831277e-02
3.970213e-02
4.106794e-02
4.241299e-02
4.374847e-02
4.508868e-02
4.644538e-02
4.782753e-02
4.924267e-02
5.069362e-02
5.217421e-02
5.367199e-02
5.517663e-02
5.668613e-02
5.820817e-02
5.975792e-02
6.135230e-02
6.300249e-02
6.471128e-02
6.647676e-02
6.829526e-02
7.016007e-02
7.206088e-02
7.398706e-02
7.592918e-02
7.787633e-02
7.981631e-02
8.174186e-02
8.365421e-02
8.555703e-02
8.744687e-02
8.931097e-02
9.113605e-02
9.292184e-02
9.468918e-02
9.647501e-02
9.831651e-02
1.002376e-01
1.022474e-01
1.043446e-01
1.065193e-01
1.087520e-01
1.110193e-01
1.133020e-01
1.155900e-01
1.178843e-01
1.201980e-01
1.225575e-01
1.249909e-01
1.275045e-01
1.300674e-01
1.326222e-01
1.351110e-01
1.374955e-01
1.397646e-01
1.419330e-01
1.440358e-01
1.461241e-01
1.482623e-01
1.505157e-01
1.529252e-01
1.554861e-01
1.581512e-01
1.608529e-01
1.635262e-01
1.661235e-01
1.686261e-01
1.710498e-01
1.734405e-01
1.758579e-01
1.783579e-01
1.809768e-01
1.837186e-01
1.865505e-01
1.894157e-01
1.922538e-01
1.950156e-01
1.976686e-01
2.002030e-01
2.026383e-01
2.050214e-01
2.074079e-01
2.098380e-01
2.123226e-01
2.148460e-01
2.173756e-01
2.198794e-01
2.223409e-01
2.247600e-01
2.271417e-01
2.294921e-01
2.318212e-01
2.341438e-01
2.364807e-01
2.388669e-01
2.413499e-01
2.439598e-01
2.466803e-01
2.494567e-01
2.522272e-01
2.549478e-01
2.576039e-01
2.602195e-01
2.628489e-01
2.655448e-01
2.683327e-01
2.712178e-01
2.742024e-01
2.772855e-01
2.804595e-01
2.837063e-01
2.869739e-01
2.901508e-01
2.930991e-01
2.957452e-01
2.981399e-01
3.004241e-01
3.027421e-01
3.051716e-01
3.077024e-01
3.102711e-01
3.128342e-01
3.154136e-01
3.180683e-01
3.208341e-01
3.237063e-01
3.266617e-01
3.296853e-01
3.327867e-01
3.360069e-01
3.393959e-01
3.429585e-01
3.466171e-01
3.502396e-01
3.537095e-01
3.569820e-01
3.600942e-01
3.631304e-01
3.661672e-01
3.692366e-01
3.723234e-01
3.753887e-01
3.784005e-01
3.813494e-01
3.842384e-01
3.870665e-01
3.898295e-01
3.925293e-01
3.951755e-01
3.977878e-01
4.004028e-01
4.030689e-01
4.058200e-01
4.086559e-01
4.115487e-01
4.144639e-01
4.173806e-01
4.203071e-01
4.232764e-01
4.263079e-01
4.293663e-01
4.323711e-01
4.352604e-01
4.380505e-01
4.408413e-01
4.437683e-01
4.469337e-01
4.503556e-01
4.539719e-01
4.576885e-01
4.614218e-01
4.650951e-01
4.686126e-01
4.718680e-01
4.747973e-01
4.774211e-01
4.798382e-01
4.821929e-01
4.846520e-01
4.873730e-01
4.904413e-01
4.938210e-01
4.973695e-01
5.009017e-01
5.042613e-01
5.073831e-01
5.103177e-01
5.131989e-01
5.161842e-01
5.194076e-01
5.229578e-01
5.268814e-01
5.312009e-01
5.359170e-01
5.409733e-01
5.462240e-01
5.514698e-01
5.565447e-01
5.613783e-01
5.659983e-01
5.704865e-01
5.749184e-01
5.793214e-01
5.836820e-01
5.879795e-01
5.922059e-01
5.963659e-01
6.004689e-01
6.045165e-01
6.084994e-01
6.124208e-01
6.163184e-01
6.202504e-01
6.242552e-01
6.283299e-01
6.324402e-01
6.365340e-01
6.405481e-01
6.444341e-01
6.481968e-01
6.518968e-01
6.556090e-01
6.593842e-01
6.632547e-01
6.672639e-01
6.714693e-01
6.759106e-01
6.805660e-01
6.853259e-01
6.900181e-01
6.944932e-01
6.987043e-01
7.027096e-01
7.066060e-01
7.104678e-01
7.143198e-01
7.181333e-01
7.218455e-01
7.253983e-01
7.287676e-01
7.319448e-01
7.348977e-01
7.375791e-01
7.399971e-01
7.422688e-01
7.445874e-01
7.471198e-01
7.499249e-01
7.529529e-01
7.561093e-01
7.593146e-01
7.625188e-01
7.656867e-01
7.687963e-01
7.718470e-01
7.748563e-01
7.778411e-01
7.808114e-01
7.837765e-01
7.867448e-01
7.897115e-01
7.926525e-01
7.955256e-01
7.982794e-01
8.008669e-01
8.032583e-01
8.054504e-01
8.074716e-01
8.093831e-01
8.112823e-01
8.133025e-01
8.155808e-01
8.181983e-01
8.211439e-01
8.243271e-01
8.276068e-01
8.308004e-01
8.337160e-01
8.362261e-01
8.383143e-01
8.400557e-01
8.415833e-01
8.430711e-01
8.447036e-01
8.466261e-01
8.489193e-01
8.515992e-01
8.546003e-01
8.577683e-01
8.609207e-01
8.639363e-01
8.667788e-01
8.694422e-01
8.718967e-01
8.740864e-01
8.759614e-01
8.775072e-01
8.787656e-01
8.798599e-01
8.809907e-01
8.823514e-01
8.840256e-01
8.859777e-01
8.881268e-01
8.904064e-01
8.927880e-01
8.952990e-01
8.980086e-01
9.009580e-01
9.041102e-01
9.073958e-01
9.107950e-01
9.143583e-01
9.181631e-01
9.222551e-01
9.265872e-01
9.309948e-01
9.352676e-01
9.392754e-01
9.430300e-01
9.466619e-01
9.503650e-01
9.543270e-01
9.586478e-01
9.632960e-01
9.681539e-01
9.731099e-01
9.780966e-01
9.830671e-01
9.879879e-01
9.928593e-01
9.977111e-01
1.002576e+00
1.007489e+00
1.012513e+00
1.017747e+00
1.023277e+00
1.029118e+00
1.035221e+00
1.041519e+00
1.047962e+00
1.054517e+00
1.061176e+00
1.067962e+00
1.074916e+00
1.082072e+00
1.089443e+00
1.097009e+00
1.104703e+00
1.112420e+00
1.120064e+00
1.127579e+00
1.134922e+00
1.142065e+00
1.149008e+00
1.155769e+00
1.162345e+00
1.168730e+00
1.174962e+00
1.181117e+00
1.187249e+00
1.193356e+00
1.199410e+00
1.205413e+00
1.211425e+00
1.217538e+00
1.223813e+00
1.230250e+00
1.236771e+00
1.243286e+00
1.249776e+00
1.256323e+00
1.263024e+00
1.269883e+00
1.276807e+00
1.283684e+00
1.290432e+00
1.297023e+00
1.303507e+00
1.310003e+00
1.316603e+00
1.323291e+00
1.329993e+00
1.336686e+00
1.343427e+00
1.350303e+00
1.357385e+00
1.364649e+00
1.371941e+00
1.379031e+00
1.385740e+00
1.392006e+00
1.397845e+00
1.403304e+00
1.408469e+00
1.413468e+00
1.418466e+00
1.423645e+00
1.429203e+00
1.435267e+00
1.441780e+00
1.448488e+00
1.455102e+00
1.461463e+00
1.467557e+00
1.473431e+00
1.479126e+00
1.484660e+00
1.489996e+00
1.495058e+00
1.499824e+00
1.504406e+00
1.508975e+00
1.513620e+00
1.518328e+00
1.523072e+00
1.527877e+00
1.532846e+00
1.538185e+00
1.544136e+00
1.550837e+00
1.558224e+00
1.566105e+00
1.574267e+00
1.582518e+00
1.590728e+00
1.598886e+00
1.607058e+00
1.615247e+00
1.623354e+00
1.631286e+00
1.639024e+00
1.646604e+00
1.654091e+00
1.661555e+00
1.669016e+00
1.676405e+00
1.683642e+00
1.690754e+00
1.697876e+00
1.705142e+00
1.712577e+00
1.720061e+00
1.727347e+00
1.734143e+00
1.740241e+00
1.745638e+00
1.750553e+00
1.755314e+00
1.760207e+00
1.765398e+00
1.770966e+00
1.776961e+00
1.783387e+00
1.790140e+00
1.796984e+00
1.803596e+00
1.809655e+00
1.814919e+00
1.819286e+00
1.822806e+00
1.825635e+00
1.827957e+00
1.829977e+00
1.831922e+00
1.833972e+00
1.836186e+00
1.838516e+00
1.840865e+00
1.843103e+00
1.845110e+00
1.846871e+00
1.848492e+00
1.850090e+00
1.851730e+00
1.853480e+00
1.855439e+00
1.857665e+00
1.860103e+00
1.862591e+00
1.864910e+00
1.866873e+00
1.868438e+00
1.869739e+00
1.870907e+00
1.871874e+00
1.872420e+00
1.872371e+00
1.871688e+00
1.870458e+00
1.868884e+00
1.867233e+00
1.865686e+00
1.864240e+00
1.862788e+00
1.861273e+00
1.859715e+00
1.858109e+00
1.856370e+00
1.854371e+00
1.852002e+00
1.849210e+00
1.846045e+00
1.842657e+00
1.839244e+00
1.836006e+00
1.833130e+00
1.830756e+00
1.828890e+00
1.827393e+00
1.826134e+00
1.825144e+00
1.824572e+00
1.824487e+00
1.824809e+00
1.825447e+00
1.826440e+00
1.827953e+00
1.830201e+00
1.833369e+00
1.837563e+00
1.842743e+00
1.848679e+00
1.855024e+00
1.861465e+00
1.867828e+00
1.874050e+00
1.880066e+00
1.885757e+00
1.890952e+00
1.895483e+00
1.899217e+00
1.902098e+00
1.904156e+00
1.905475e+00
1.906077e+00
1.905824e+00
1.904523e+00
1.902145e+00
1.898887e+00
1.895036e+00
1.890848e+00
1.886494e+00
1.882036e+00
1.877390e+00
1.872422e+00
1.867142e+00
1.861765e+00
1.856501e+00
1.851385e+00
1.846327e+00
1.841194e+00
1.835780e+00
1.829832e+00
1.823192e+00
1.815885e+00
1.808021e+00
1.799649e+00
1.790722e+00
1.781142e+00
1.770772e+00
1.759465e+00
1.747157e+00
1.733850e+00
1.719480e+00
1.703824e+00
1.686553e+00
1.667380e+00
1.646214e+00
1.623225e+00
1.598767e+00
1.573250e+00
1.547008e+00
1.520233e+00
1.492996e+00
1.465306e+00
1.437172e+00
1.408668e+00
1.379982e+00
1.351357e+00
1.322977e+00
1.294960e+00
1.267470e+00
1.240767e+00
1.215141e+00
1.190814e+00
1.167903e+00
1.146453e+00
1.126470e+00
1.107875e+00
1.090458e+00
1.073913e+00
1.057981e+00
1.042500e+00
1.027351e+00
1.012431e+00
9.976849e-01
9.831062e-01
9.686552e-01
9.541916e-01
9.395080e-01
9.244346e-01
9.089195e-01
8.930381e-01
8.769691e-01
8.609717e-01
8.453134e-01
8.301340e-01
8.153611e-01
8.007333e-01
7.858645e-01
7.702978e-01
7.535747e-01
7.353244e-01
7.153058e-01
6.933781e-01
6.694751e-01
6.436020e-01
6.158026e-01
5.861125e-01
5.545857e-01
5.214098e-01
4.870223e-01
4.521137e-01
4.174871e-01
3.838636e-01
3.517906e-01
3.217232e-01
2.941839e-01
2.698661e-01
2.496203e-01
2.343481e-01
2.248562e-01
2.217256e-01
2.252461e-01
2.354259e-01
2.520363e-01
2.746420e-01
3.026196e-01
3.351810e-01
3.713889e-01
4.101972e-01
4.505563e-01
4.915061e-01
5.321506e-01
5.715685e-01
6.088321e-01
6.431664e-01
6.740333e-01
7.009951e-01
7.235431e-01
7.411292e-01
7.533411e-01
7.599961e-01
7.610966e-01
7.567436e-01
7.470744e-01
7.322081e-01
7.122038e-01
6.870659e-01
6.568178e-01
6.216020e-01
5.817284e-01
5.376557e-01
4.899675e-01
4.393769e-01
3.867600e-01
3.332277e-01
2.801762e-01
2.292066e-01
1.819121e-01
1.396714e-01
1.035554e-01
7.435188e-02
5.264795e-02
3.890016e-02
3.348298e-02
3.673516e-02
4.896381e-02
7.034864e-02
1.007858e-01
1.397934e-01
1.865557e-01
2.400616e-01
2.992087e-01
3.627917e-01
4.294057e-01
4.974013e-01
5.650054e-01
6.305558e-01
6.926707e-01
7.502501e-01
8.023553e-01
8.480781e-01
8.865038e-01
9.168211e-01
9.384960e-01
9.513191e-01
9.552640e-01
9.503121e-01
9.364151e-01
9.135952e-01
8.820599e-01
8.422414e-01
7.947530e-01
7.402967e-01
6.795947e-01
6.134297e-01
5.427586e-01
4.687233e-01
3.924774e-01
3.150102e-01
2.371531e-01
1.597069e-01
8.350009e-02
9.305581e-03
-6.232041e-02
-1.311519e-01
-1.972512e-01
-2.607858e-01
-3.218589e-01
-3.804761e-01
-4.365968e-01
-4.902116e-01
-5.415030e-01
-5.910407e-01
-6.397809e-01
-6.888042e-01
-7.390319e-01
-7.911244e-01
-8.455049e-01
-9.023923e-01
-9.618190e-01
-1.023643e+00
-1.087574e+00
-1.153220e+00
-1.220111e+00
-1.287707e+00
-1.355480e+00
-1.423027e+00
-1.490113e+00
-1.556603e+00
-1.622388e+00
-1.687356e+00
-1.751389e+00
-1.814384e+00
-1.876286e+00
-1.937122e+00
-1.997006e+00
-2.056125e+00
-2.114713e+00
-2.173052e+00
-2.231510e+00
-2.290608e+00
-2.351051e+00
-2.413698e+00
-2.479468e+00
-2.549241e+00
-2.623767e+00
-2.703591e+00
-2.789046e+00
-2.880290e+00
-2.977312e+00
-3.079878e+00
-3.187489e+00
-3.299384e+00
-3.414602e+00
-3.532055e+00
-3.650543e+00
-3.768732e+00
-3.885234e+00
-3.998751e+00
-4.108186e+00
-4.212657e+00
-4.311470e+00
-4.404097e+00
-4.490140e+00
-4.569297e+00
-4.641431e+00
-4.706691e+00
-4.765540e+00
-4.818688e+00
-4.867010e+00
-4.911490e+00
-4.953208e+00
-4.993329e+00
-5.033040e+00
-5.073401e+00
-5.115224e+00
-5.159062e+00
-5.205310e+00
-5.254281e+00
-5.306159e+00
-5.360913e+00
-5.418294e+00
-5.477946e+00
-5.539467e+00
-5.602356e+00
-5.665949e+00
-5.729434e+00
-5.791915e+00
-5.852455e+00
-5.910140e+00
-5.964173e+00
-6.013948e+00
-6.059085e+00
-6.099432e+00
-6.135067e+00
-6.166264e+00
-6.193450e+00
-6.217170e+00
-6.238054e+00
-6.256770e+00
-6.273949e+00
-6.290077e+00
-6.305463e+00
-6.320346e+00
-6.335012e+00
-6.349768e+00
-6.364785e+00
-6.380008e+00
-6.395197e+00
-6.410018e+00
-6.424092e+00
-6.437008e+00
-6.448375e+00
-6.457921e+00
-6.465578e+00
-6.471480e+00
-6.475885e+00
-6.479056e+00
-6.481174e+00
-6.482305e+00
-6.482500e+00
-6.481990e+00
-6.481321e+00
-6.481280e+00
-6.482660e+00
-6.486038e+00
-6.491693e+00
-6.499652e+00
-6.509758e+00
-6.521717e+00
-6.535136e+00
-6.549544e+00
-6.564386e+00
-6.579024e+00
-6.592781e+00
-6.604944e+00
-6.614740e+00
-6.621366e+00
-6.624073e+00
-6.622261e+00
-6.615487e+00
-6.603426e+00
-6.585818e+00
-6.562451e+00
-6.533211e+00
-6.498191e+00
-6.457763e+00
-6.412547e+00
-6.363313e+00
-6.310920e+00
-6.256296e+00
-6.200418e+00
-6.144272e+00
-6.088824e+00
-6.035021e+00
-5.983747e+00
-5.935757e+00
-5.891620e+00
-5.851716e+00
-5.816214e+00
-5.785002e+00
-5.757629e+00
-5.733394e+00
-5.711544e+00
-5.691433e+00
-5.672525e+00
-5.654346e+00
-5.636483e+00
-5.618601e+00
-5.600389e+00
-5.581457e+00
-5.561277e+00
-5.539238e+00
-5.514719e+00
-5.487138e+00
-5.456036e+00
-5.421231e+00
-5.382907e+00
-5.341529e+00
-5.297684e+00
-5.252001e+00
-5.205176e+00
-5.157987e+00
-5.111246e+00
-5.065702e+00
-5.021987e+00
-4.980646e+00
-4.942177e+00
-4.907028e+00
-4.875525e+00
-4.847838e+00
-4.823981e+00
-4.803837e+00
-4.787162e+00
-4.773601e+00
-4.762714e+00
-4.753996e+00
-4.746918e+00
-4.740963e+00
-4.735675e+00
-4.730654e+00
-4.725517e+00
-4.719860e+00
-4.713258e+00
-4.705311e+00
-4.695699e+00
-4.684187e+00
-4.670620e+00
-4.654923e+00
-4.637096e+00
-4.617215e+00
-4.595437e+00
-4.571986e+00
-4.547123e+00
-4.521091e+00
-4.494083e+00
-4.466252e+00
-4.437722e+00
-4.408573e+00
-4.378767e+00
-4.348080e+00
-4.316109e+00
-4.282340e+00
-4.246243e+00
-4.207325e+00
-4.165160e+00
-4.119427e+00
-4.069956e+00
-4.016719e+00
-3.959768e+00
-3.899157e+00
-3.834920e+00
-3.767108e+00
-3.695814e+00
-3.621185e+00
-3.543415e+00
-3.462753e+00
-3.379476e+00
-3.293868e+00
-3.206228e+00
-3.116887e+00
-3.026191e+00
-2.934471e+00
-2.842042e+00
-2.749238e+00
-2.656448e+00
-2.564100e+00
-2.472599e+00
-2.382256e+00
-2.293279e+00
-2.205806e+00
-2.119943e+00
-2.035761e+00
-1.953265e+00
-1.872364e+00
-1.792867e+00
-1.714474e+00
-1.636766e+00
-1.559202e+00
-1.481176e+00
-1.402076e+00
-1.321339e+00
-1.238488e+00
-1.153178e+00
-1.065221e+00
-9.746112e-01
-8.815167e-01
-7.862258e-01
-6.890882e-01
-5.904873e-01
-4.908343e-01
-3.905594e-01
-2.901025e-01
-1.899167e-01
-9.047265e-02
7.742193e-03
1.042309e-01
1.985263e-01
2.902545e-01
3.791582e-01
4.650521e-01
5.477754e-01
6.272018e-01
7.032865e-01
7.760933e-01
8.457872e-01
9.126046e-01
9.768183e-01
1.038721e+00
1.098638e+00
1.156936e+00
1.214024e+00
1.270331e+00
1.326288e+00
1.382295e+00
1.438692e+00
1.495751e+00
1.553665e+00
1.612529e+00
1.672295e+00
1.732773e+00
1.793704e+00
1.854867e+00
1.916126e+00
1.977411e+00
2.038661e+00
2.099744e+00
2.160439e+00
2.220460e+00
2.279480e+00
2.337133e+00
2.393016e+00
2.446724e+00
2.497886e+00
2.546180e+00
2.591327e+00
2.633065e+00
2.671152e+00
2.705405e+00
2.735757e+00
2.762278e+00
2.785149e+00
2.804618e+00
2.820960e+00
2.834486e+00
2.845556e+00
2.854574e+00
2.861946e+00
2.868050e+00
2.873235e+00
2.877832e+00
2.882149e+00
2.886429e+00
2.890806e+00
2.895297e+00
2.899807e+00
2.904126e+00
2.907915e+00
2.910739e+00
2.912135e+00
2.911688e+00
2.909076e+00
2.904077e+00
2.896554e+00
2.886457e+00
2.873825e+00
2.858804e+00
2.841668e+00
2.822817e+00
2.802750e+00
2.782001e+00
2.761092e+00
2.740508e+00
2.720690e+00
2.702008e+00
2.684733e+00
2.669032e+00
2.654973e+00
2.642533e+00
2.631599e+00
2.621969e+00
2.613355e+00
2.605406e+00
2.597736e+00
2.589949e+00
2.581642e+00
2.572396e+00
2.561782e+00
2.549398e+00
2.534908e+00
2.518039e+00
2.498553e+00
2.476235e+00
2.450925e+00
2.422530e+00
2.391018e+00
2.356419e+00
2.318867e+00
2.278621e+00
2.236023e+00
2.191437e+00
2.145246e+00
2.097872e+00
2.049761e+00
2.001305e+00
1.952776e+00
1.904312e+00
1.855932e+00
1.807564e+00
1.759062e+00
1.710249e+00
1.660954e+00
1.611027e+00
1.560323e+00
1.508707e+00
1.456090e+00
1.402459e+00
1.347860e+00
1.292358e+00
1.236022e+00
1.178953e+00
1.121302e+00
1.063264e+00
1.005079e+00
9.470455e-01
8.895182e-01
8.329023e-01
7.776263e-01
7.241098e-01
6.727314e-01
6.238070e-01
5.775882e-01
5.342819e-01
4.940698e-01
4.570896e-01
4.233846e-01
3.928817e-01
3.654140e-01
3.407454e-01
3.185719e-01
2.985205e-01
2.801701e-01
2.630894e-01
2.468662e-01
2.311085e-01
2.154394e-01
1.995027e-01
1.829715e-01
1.655503e-01
1.469843e-01
1.270786e-01
1.057066e-01
8.280295e-02
5.836082e-02
3.244966e-02
5.239750e-03
-2.299191e-02
-5.189711e-02
-8.111549e-02
-1.103077e-01
-1.391492e-01
-1.673162e-01
-1.944887e-01
-2.203740e-01
-2.447448e-01
-2.674657e-01
-2.884796e-01
-3.077628e-01
-3.252908e-01
-3.410433e-01
-3.550271e-01
-3.672899e-01
-3.779231e-01
-3.870502e-01
-3.948015e-01
-4.012940e-01
-4.066292e-01
-4.108865e-01
-4.141003e-01
-4.162438e-01
-4.172401e-01
-4.169920e-01
-4.154103e-01
-4.124351e-01
-4.080383e-01
-4.022090e-01
-3.949438e-01
-3.862533e-01
-3.761729e-01
-3.647605e-01
-3.520714e-01
-3.381240e-01
-3.228878e-01
-3.063113e-01
-2.883678e-01
-2.690821e-01
-2.485274e-01
-2.268138e-01
-2.040799e-01
-1.804866e-01
-1.562147e-01
-1.314638e-01
-1.064320e-01
-8.128071e-02
-5.612001e-02
-3.102684e-02
-6.069403e-03
1.868648e-02
4.318998e-02
6.741854e-02
9.137060e-02
1.150429e-01
1.384175e-01
1.614706e-01
1.841872e-01
2.065664e-01
2.286165e-01
2.503573e-01
2.718322e-01
2.931169e-01
3.143147e-01
3.355495e-01
3.569611e-01
3.786919e-01
4.008646e-01
4.235717e-01
4.468863e-01
4.708733e-01
4.955909e-01
5.210955e-01
5.474546e-01
5.747413e-01
6.030134e-01
6.323125e-01
6.626958e-01
6.942699e-01
7.271846e-01
7.615850e-01
7.975580e-01
8.351086e-01
8.741641e-01
9.145811e-01
9.561532e-01
