EVENT_NAME: CENTRAL_ITALY
EVENT_ID: EMSC-20160824_0000013
EVENT_DATE_YYYYMMDD: 20160824
EVENT_TIME_HHMMSS: 023329
EVENT_LATITUDE_DEGREE: 42.7935
EVENT_LONGITUDE_DEGREE: 13.1537
EVENT_DEPTH_KM: 8.7
HYPOCENTER_REFERENCE: INGV-webservice
MAGNITUDE_W: 5.3
MAGNITUDE_W_REFERENCE: INGV-webservice
MAGNITUDE_L: 5.4
MAGNITUDE_L_REFERENCE: INGV-webservice
FOCAL_MECHANISM: NF
NETWORK: IT
STATION_CODE: NRC
STATION_NAME: NORCIA
STATION_LATITUDE_DEGREE: 42.792543
STATION_LONGITUDE_DEGREE: 13.096475
STATION_ELEVATION_M: 616
LOCATION: 
SENSOR_DEPTH_M: 0.0
VS30_M/S: 687
SITE_CLASSIFICATION_EC8: B
MORPHOLOGIC_CLASSIFICATION: SL
EPICENTRAL_DISTANCE_KM: 4.7
EARTHQUAKE_BACKAZIMUTH_DEGREE: 88.7
DATE_TIME_FIRST_SAMPLE_YYYYMMDD_HHMMSS: 20160824_023324.704
DATE_TIME_FIRST_SAMPLE_PRECISION: milliseconds
SAMPLING_INTERVAL_S: 0.005000
NDATA: 9429
DURATION_S: 47.145
STREAM: HGE
UNITS: cm/s
INSTRUMENT: sensor = Unknown [Unknown] | digitizer = Unknown [Unknown]
INSTRUMENT_ANALOG/DIGITAL: D
INSTRUMENTAL_FREQUENCY_HZ: 
INSTRUMENTAL_DAMPING: 
FULL_SCALE_G: 
N_BIT_DIGITAL_CONVERTER: 
PGV_CM/S: -9.802020
TIME_PGV_S: 8.795000
BASELINE_CORRECTION: BASELINE REMOVED
FILTER_TYPE: BUTTERWORTH
FILTER_ORDER: 2
LOW_CUT_FREQUENCY_HZ: 0.070
HIGH_CUT_FREQUENCY_HZ: 30.000
LATE/NORMAL_TRIGGERED: NT
DATABASE_VERSION: DYNA 1.0
HEADER_FORMAT: DYNA 1.2
DATA_TYPE: VELOCITY
PROCESSING: manual (Paolucci et al., 2011)
DATA_TIMESTAMP_YYYYMMDD_HHMMSS: 20160825_170450.371
DATA_LICENSE: CC-BY3_0-IT (http://creativecommons.org/licenses/by/3.0/deed.en)
DATA_CITATION: ESM working group (2015), European Strong-Motion database, version 0.1, Network Activity 3: Networking acceleration networks and SM data users. Project NERA (www.nera-eu.org)
DATA_CREATOR: ESM working group
ORIGINAL_DATA_MEDIATOR_CITATION: Ufficio Rischio Sismico e Vulcanico del Dipartimento della Protezione Civile (http://www.protezionecivile.gov.it/)
ORIGINAL_DATA_MEDIATOR: Rete Accelerometrica Nazionale - RAN Download (http://www.mot1.it/randownload/)
ORIGINAL_DATA_CREATOR_CITATION: Italian Strong Motion Network, Italian Civil Protection Department http://www.protezionecivile.gov.it
ORIGINAL_DATA_CREATOR: network: IT (Italian Strong Motion Network); owner: Dipartimento Della Protezione Civile
USER1: /home/dyna/processing-itaca/processing.py /var/www/processing//tmp/Maria//IT.NRC..HGE.D.20160824.023329.X.ACC.ASC /var/www/processing//tmp/Maria//IT.NRC..HGN.D.20160824.023329.X.ACC.ASC /var/www/processing//tmp/Maria//IT.NRC..HGZ.D.20160824.023329.X.ACC.ASC --tmp /var/www/processing//tmp/Maria/ --le 0.070 --he 30.000 --ln 0.070 --hn 30.000 --lz 0.070 --hz 30.000 --fo 2 --ca 0 --cz 60 --ta 5 --tz 5 --mf 1 --rf 0 --tr NT
USER2: 
USER3: 
USER4: 
USER5: 
[...]
-0.013373
-0.013517
-0.013816
-0.014277
-0.014858
-0.015486
-0.016071
-0.016514
-0.016730
-0.016667
-0.016341
-0.015847
-0.015314
-0.014851
-0.014524
-0.014353
-0.014332
-0.014436
-0.014616
-0.014806
-0.014932
-0.014909
-0.014661
-0.014158
-0.013422
-0.012526
-0.011583
-0.010723
-0.010051
-0.009625
-0.009457
-0.009526
-0.009798
-0.010239
-0.010822
-0.011529
-0.012347
-0.013252
-0.014182
-0.015057
-0.015802
-0.016371
-0.016739
-0.016889
-0.016812
-0.016515
-0.016017
-0.015365
-0.014652
-0.013996
-0.013479
-0.013136
-0.012965
-0.012940
-0.013024
-0.013176
-0.013362
-0.013543
-0.013672
-0.013720
-0.013691
-0.013606
-0.013493
-0.013385
-0.013308
-0.013261
-0.013219
-0.013155
-0.013059
-0.012938
-0.012804
-0.012679
-0.012593
-0.012596
-0.012741
-0.013045
-0.013478
-0.013994
-0.014556
-0.015147
-0.015748
-0.016315
-0.016771
-0.017046
-0.017126
-0.017061
-0.016925
-0.016775
-0.016648
-0.016556
-0.016469
-0.016333
-0.016116
-0.015835
-0.015535
-0.015258
-0.015034
-0.014879
-0.014790
-0.014748
-0.014713
-0.014644
-0.014533
-0.014425
-0.014399
-0.014523
-0.014812
-0.015237
-0.015753
-0.016314
-0.016870
-0.017370
-0.017762
-0.017986
-0.017981
-0.017716
-0.017218
-0.016566
-0.015871
-0.015251
-0.014813
-0.014627
-0.014698
-0.014981
-0.015401
-0.015885
-0.016389
-0.016904
-0.017428
-0.017945
-0.018426
-0.018846
-0.019182
-0.019394
-0.019432
-0.019261
-0.018887
-0.018374
-0.017848
-0.017448
-0.017268
-0.017307
-0.017483
-0.017693
-0.017869
-0.017982
-0.018028
-0.018005
-0.017906
-0.017716
-0.017425
-0.017045
-0.016633
-0.016286
-0.016104
-0.016141
-0.016381
-0.016754
-0.017173
-0.017567
-0.017894
-0.018143
-0.018329
-0.018469
-0.018565
-0.018601
-0.018555
-0.018420
-0.018204
-0.017929
-0.017634
-0.017370
-0.017191
-0.017140
-0.017226
-0.017420
-0.017684
-0.017991
-0.018316
-0.018625
-0.018885
-0.019069
-0.019158
-0.019146
-0.019048
-0.018900
-0.018738
-0.018592
-0.018493
-0.018458
-0.018463
-0.018467
-0.018430
-0.018322
-0.018129
-0.017863
-0.017568
-0.017298
-0.017096
-0.016983
-0.016990
-0.017150
-0.017485
-0.017985
-0.018612
-0.019307
-0.019991
-0.020581
-0.021017
-0.021275
-0.021354
-0.021262
-0.021012
-0.020621
-0.020125
-0.019579
-0.019048
-0.018589
-0.018233
-0.017982
-0.017837
-0.017811
-0.017923
-0.018166
-0.018515
-0.018931
-0.019355
-0.019715
-0.019958
-0.020071
-0.020076
-0.020009
-0.019920
-0.019855
-0.019838
-0.019877
-0.019981
-0.020171
-0.020450
-0.020780
-0.021080
-0.021260
-0.021269
-0.021126
-0.020898
-0.020652
-0.020426
-0.020238
-0.020098
-0.020014
-0.019986
-0.019987
-0.019971
-0.019892
-0.019727
-0.019501
-0.019283
-0.019156
-0.019175
-0.019348
-0.019628
-0.019919
-0.020128
-0.020223
-0.020248
-0.020279
-0.020372
-0.020556
-0.020829
-0.021134
-0.021378
-0.021469
-0.021362
-0.021066
-0.020647
-0.020216
-0.019896
-0.019759
-0.019804
-0.019988
-0.020256
-0.020543
-0.020778
-0.020915
-0.020955
-0.020943
-0.020950
-0.021047
-0.021279
-0.021637
-0.022056
-0.022442
-0.022732
-0.022903
-0.022956
-0.022907
-0.022799
-0.022682
-0.022602
-0.022587
-0.022637
-0.022725
-0.022797
-0.022801
-0.022715
-0.022565
-0.022397
-0.022238
-0.022102
-0.022006
-0.021975
-0.022015
-0.022102
-0.022203
-0.022303
-0.022398
-0.022500
-0.022637
-0.022854
-0.023182
-0.023603
-0.024046
-0.024419
-0.024651
-0.024709
-0.024598
-0.024339
-0.023967
-0.023522
-0.023054
-0.022616
-0.022258
-0.022025
-0.021937
-0.021986
-0.022139
-0.022358
-0.022614
-0.022880
-0.023121
-0.023289
-0.023357
-0.023336
-0.023255
-0.023147
-0.023049
-0.023002
-0.023034
-0.023138
-0.023273
-0.023376
-0.023402
-0.023338
-0.023208
-0.023038
-0.022847
-0.022651
-0.022476
-0.022340
-0.022247
-0.022190
-0.022165
-0.022177
-0.022235
-0.022351
-0.022529
-0.022757
-0.023022
-0.023316
-0.023617
-0.023889
-0.024092
-0.024208
-0.024246
-0.024228
-0.024176
-0.024102
-0.024010
-0.023917
-0.023849
-0.023827
-0.023854
-0.023916
-0.023989
-0.024052
-0.024092
-0.024122
-0.024156
-0.024202
-0.024264
-0.024354
-0.024472
-0.024612
-0.024765
-0.024919
-0.025060
-0.025161
-0.025190
-0.025121
-0.024943
-0.024657
-0.024278
-0.023839
-0.023394
-0.023008
-0.022746
-0.022664
-0.022782
-0.023081
-0.023517
-0.024044
-0.024614
-0.025185
-0.025720
-0.026181
-0.026526
-0.026725
-0.026777
-0.026715
-0.026582
-0.026405
-0.026188
-0.025933
-0.025654
-0.025387
-0.025171
-0.025044
-0.025008
-0.025009
-0.024970
-0.024849
-0.024652
-0.024416
-0.024188
-0.024010
-0.023898
-0.023843
-0.023815
-0.023775
-0.023697
-0.023579
-0.023441
-0.023314
-0.023232
-0.023220
-0.023304
-0.023509
-0.023836
-0.024248
-0.024673
-0.025044
-0.025319
-0.025492
-0.025570
-0.025576
-0.025540
-0.025495
-0.025462
-0.025439
-0.025408
-0.025347
-0.025251
-0.025126
-0.024986
-0.024850
-0.024743
-0.024692
-0.024713
-0.024802
-0.024939
-0.025106
-0.025288
-0.025485
-0.025687
-0.025868
-0.025997
-0.026070
-0.026107
-0.026148
-0.026239
-0.026417
-0.026684
-0.027009
-0.027362
-0.027733
-0.028114
-0.028479
-0.028797
-0.029042
-0.029195
-0.029224
-0.029100
-0.028826
-0.028427
-0.027927
-0.027340
-0.026692
-0.026037
-0.025435
-0.024928
-0.024537
-0.024264
-0.024103
-0.024044
-0.024074
-0.024176
-0.024344
-0.024589
-0.024914
-0.025303
-0.025731
-0.026184
-0.026660
-0.027165
-0.027694
-0.028219
-0.028686
-0.029039
-0.029246
-0.029311
-0.029265
-0.029136
-0.028934
-0.028666
-0.028352
-0.028030
-0.027739
-0.027510
-0.027354
-0.027269
-0.027245
-0.027267
-0.027318
-0.027386
-0.027460
-0.027528
-0.027564
-0.027556
-0.027524
-0.027521
-0.027593
-0.027754
-0.027971
-0.028192
-0.028367
-0.028467
-0.028472
-0.028392
-0.028276
-0.028185
-0.028153
-0.028191
-0.028283
-0.028400
-0.028499
-0.028531
-0.028457
-0.028255
-0.027936
-0.027542
-0.027137
-0.026790
-0.026547
-0.026419
-0.026388
-0.026435
-0.026544
-0.026701
-0.026882
-0.027052
-0.027182
-0.027258
-0.027295
-0.027322
-0.027363
-0.027430
-0.027518
-0.027608
-0.027683
-0.027748
-0.027831
-0.027957
-0.028124
-0.028304
-0.028467
-0.028594
-0.028673
-0.028695
-0.028669
-0.028624
-0.028592
-0.028585
-0.028591
-0.028587
-0.028545
-0.028448
-0.028294
-0.028099
-0.027888
-0.027685
-0.027505
-0.027350
-0.027226
-0.027140
-0.027102
-0.027121
-0.027212
-0.027384
-0.027619
-0.027878
-0.028116
-0.028301
-0.028418
-0.028472
-0.028478
-0.028443
-0.028366
-0.028246
-0.028086
-0.027903
-0.027731
-0.027618
-0.027600
-0.027697
-0.027912
-0.028233
-0.028633
-0.029071
-0.029500
-0.029877
-0.030175
-0.030367
-0.030425
-0.030332
-0.030100
-0.029767
-0.029382
-0.028989
-0.028622
-0.028296
-0.028012
-0.027774
-0.027597
-0.027498
-0.027476
-0.027523
-0.027629
-0.027775
-0.027927
-0.028045
-0.028092
-0.028063
-0.027987
-0.027903
-0.027841
-0.027817
-0.027821
-0.027825
-0.027803
-0.027745
-0.027666
-0.027591
-0.027538
-0.027510
-0.027504
-0.027518
-0.027549
-0.027588
-0.027633
-0.027693
-0.027780
-0.027899
-0.028035
-0.028171
-0.028300
-0.028436
-0.028601
-0.028805
-0.029029
-0.029229
-0.029363
-0.029419
-0.029424
-0.029421
-0.029438
-0.029481
-0.029536
-0.029573
-0.029571
-0.029528
-0.029457
-0.029372
-0.029289
-0.029216
-0.029138
-0.029028
-0.028873
-0.028676
-0.028454
-0.028238
-0.028073
-0.027995
-0.028019
-0.028138
-0.028327
-0.028551
-0.028764
-0.028915
-0.028969
-0.028926
-0.028807
-0.028646
-0.028483
-0.028357
-0.028298
-0.028308
-0.028348
-0.028358
-0.028283
-0.028102
-0.027832
-0.027524
-0.027226
-0.026968
-0.026769
-0.026657
-0.026663
-0.026789
-0.026994
-0.027220
-0.027426
-0.027601
-0.027757
-0.027903
-0.028041
-0.028161
-0.028262
-0.028351
-0.028422
-0.028456
-0.028438
-0.028370
-0.028274
-0.028177
-0.028102
-0.028044
-0.027977
-0.027880
-0.027747
-0.027579
-0.027376
-0.027140
-0.026890
-0.026668
-0.026519
-0.026473
-0.026540
-0.026701
-0.026909
-0.027110
-0.027278
-0.027418
-0.027540
-0.027642
-0.027713
-0.027751
-0.027763
-0.027765
-0.027764
-0.027751
-0.027716
-0.027668
-0.027630
-0.027615
-0.027632
-0.027692
-0.027819
-0.028035
-0.028340
-0.028693
-0.029034
-0.029302
-0.029464
-0.029533
-0.029565
-0.029630
-0.029764
-0.029919
-0.029971
-0.029797
-0.029393
-0.028903
-0.028509
-0.028299
-0.028155
-0.027679
-0.026336
-0.023807
-0.020163
-0.015675
-0.010707
-0.005821
-0.001799
0.000555
0.000722
-0.001287
-0.004999
-0.009837
-0.015312
-0.020967
-0.026560
-0.032337
-0.038801
-0.046198
-0.054419
-0.063139
-0.071635
-0.078601
-0.082644
-0.083055
-0.080015
-0.074200
-0.066344
-0.056976
-0.046534
-0.035820
-0.026060
-0.018223
-0.012352
-0.007511
-0.002265
0.004578
0.013383
0.023699
0.034487
0.043835
0.048971
0.047801
0.040641
0.029743
0.017255
0.004237
-0.008930
-0.022026
-0.034623
-0.045668
-0.053726
-0.057947
-0.058366
-0.055278
-0.048909
-0.039651
-0.028361
-0.016428
-0.005170
0.004971
0.014205
0.022443
0.028966
0.032762
0.032856
0.028557
0.019673
0.006332
-0.011409
-0.033202
-0.057451
-0.081201
-0.101239
-0.114946
-0.120469
-0.117558
-0.108392
-0.096186
-0.082657
-0.067289
-0.048670
-0.026386
-0.002057
0.021668
0.043295
0.063569
0.084388
0.106319
0.126905
0.141392
0.144899
0.134417
0.110371
0.077221
0.042186
0.012775
-0.005625
-0.011778
-0.009241
-0.004280
-0.001794
-0.002422
-0.003898
-0.004901
-0.006154
-0.008447
-0.012190
-0.018978
-0.031205
-0.049310
-0.070748
-0.092212
-0.111448
-0.126248
-0.133529
-0.130873
-0.118054
-0.096368
-0.067739
-0.035439
-0.004602
0.019720
0.036024
0.047345
0.057717
0.068845
0.082395
0.103577
0.138377
0.187651
0.246183
0.305840
0.357227
0.389898
0.395004
0.370730
0.325593
0.275111
0.233941
0.210624
0.207622
0.222092
0.244708
0.260707
0.255710
0.222154
0.161859
0.084909
0.006473
-0.058113
-0.097938
-0.107244
-0.083434
-0.027508
0.052317
0.139310
0.213926
0.264289
0.292001
0.305523
0.308070
0.296498
0.272870
0.250422
0.243660
0.256634
0.284454
0.322280
0.367624
0.413976
0.446486
0.447893
0.410751
0.345531
0.276860
0.229370
0.214850
0.229144
0.255754
0.271640
0.255215
0.195407
0.096928
-0.021341
-0.132220
-0.208168
-0.231466
-0.201084
-0.128083
-0.023574
0.106899
0.259041
0.425419
0.595558
0.755981
0.890712
0.986784
1.041293
1.062516
1.064227
1.057593
1.046026
1.027519
1.002098
0.974939
0.951994
0.935258
0.923039
0.912949
0.904059
0.897249
0.894450
0.898282
0.911722
0.935376
0.963632
0.985495
0.991053
0.976326
0.941804
0.889510
0.823060
0.747759
0.668427
0.588620
0.512859
0.447290
0.397448
0.367919
0.363380
0.385871
0.430607
0.486569
0.541316
0.584988
0.611986
0.622352
0.623382
0.628635
0.652478
0.703600
0.782585
0.883438
0.995754
1.107049
1.205825
1.283512
1.333885
1.352601
1.339880
1.304252
1.261780
1.229892
1.221486
1.243539
1.298574
1.385025
1.494900
1.612513
1.719621
1.803187
1.856520
1.875593
1.859483
1.813358
1.748184
1.679403
1.625683
1.603382
1.618119
1.660833
1.711375
1.745808
1.743161
1.692304
1.598003
1.480018
1.364834
1.276970
1.232366
1.233034
1.267083
1.316563
1.365844
1.403231
1.419508
1.409865
1.376979
1.328937
1.274018
1.220566
1.180091
1.164430
1.179699
1.226164
1.301015
1.396691
1.499004
1.591915
1.664114
1.709663
1.726122
1.716821
1.694369
1.678382
1.687242
1.730032
1.803467
1.893939
1.983252
2.055977
2.104188
2.127294
2.129448
2.117579
2.100816
2.090667
2.099647
2.136119
2.197837
2.270840
2.335912
2.376613
2.382913
2.351820
2.288043
2.203091
2.111188
2.024967
1.953945
1.904759
1.880849
1.881594
1.902830
1.938386
1.979858
2.016336
2.038851
2.046354
2.045259
2.043147
2.043488
2.043644
2.034869
2.005670
1.948849
1.867080
1.772627
1.682272
1.610461
1.563522
1.537520
1.521861
1.508351
1.499519
1.508927
1.553826
1.645769
1.783318
1.950177
2.122020
2.278704
2.411311
2.519057
2.602665
2.661526
2.694232
2.699295
2.676463
2.630194
2.572426
2.520344
2.489307
2.485319
2.501719
2.522143
2.528152
2.507154
2.455573
2.376202
2.274178
2.155611
2.027458
1.895273
1.759776
1.616610
1.459313
1.281311
1.076631
0.841346
0.574036
0.274133
-0.058059
-0.417425
-0.790709
-1.159452
-1.508082
-1.829916
-2.126464
-2.403761
-2.670718
-2.936569
-3.204855
-3.471476
-3.730952
-3.981622
-4.224224
-4.460471
-4.694657
-4.933130
-5.180979
-5.440459
-5.712041
-5.995986
-6.293018
-6.603674
-6.927922
-7.265740
-7.616376
-7.975842
-8.334994
-8.679137
-8.989554
-9.247490
-9.438096
-9.552100
-9.587520
-9.552471
-9.465345
-9.350527
-9.231978
-9.128137
-9.051308
-9.010866
-9.014901
-9.067762
-9.166420
-9.298809
-9.445385
-9.583813
-9.694944
-9.767615
-9.800683
-9.802020
-9.784969
-9.763000
-9.744524
-9.731016
-9.718653
-9.700338
-9.667300
-9.612176
-9.533205
-9.435768
-9.328244
-9.215329
-9.096395
-8.969602
-8.834645
-8.691690
-8.539885
-8.376325
-8.195577
-7.992222
-7.765818
-7.523003
-7.274697
-7.032717
-6.807984
-6.606985
-6.426496
-6.252328
-6.064704
-5.845560
-5.581669
-5.263440
-4.884726
-4.446793
-3.963028
-3.458715
-2.964366
-2.507210
-2.106911
-1.775946
-1.519649
-1.333771
-1.203089
-1.104458
-1.013874
-0.913702
-0.795665
-0.659248
-0.509272
-0.354774
-0.207745
-0.080826
0.015077
0.072430
0.087870
0.062851
0.004609
-0.074942
-0.164269
-0.256553
-0.347812
-0.431821
-0.498394
-0.535351
-0.529985
-0.468747
-0.338158
-0.129169
0.158025
0.513911
0.924404
1.375428
1.854351
2.349136
2.847012
3.334840
3.802176
4.243917
4.659308
5.048871
5.412009
5.745331
6.041772
6.292280
6.489972
6.633307
6.725835
6.774537
6.789255
6.782084
6.765027
6.746884
6.731478
6.718431
6.705178
6.687096
6.655784
6.599430
6.506262
6.367104
6.175224
5.926366
5.620707
5.265244
4.874736
4.469727
4.071307
3.695680
3.352420
3.046581
2.782042
2.563843
2.398117
2.289933
2.241576
2.253633
2.328416
2.471778
2.689898
2.984023
3.349855
3.782035
4.276699
4.827984
5.422416
6.036633
6.638716
7.189836
7.646305
7.966505
8.122647
8.108455
7.935906
7.625737
7.200403
6.680912
6.084083
5.420059
4.693586
3.910783
3.087497
2.252451
1.443713
0.703271
0.072246
-0.415009
-0.737124
-0.887925
-0.873385
-0.707153
-0.408398
-0.001745
0.483728
1.018008
1.574365
2.131764
2.675734
3.199396
3.704044
4.195997
4.678866
5.146393
5.581614
5.961560
6.262820
6.465956
6.559915
6.546372
6.440842
6.267763
6.051815
5.811284
5.556933
5.295615
5.035639
4.789970
4.575154
4.408060
4.302934
4.268750
4.307278
4.413135
4.574982
4.776013
4.994157
5.205059
5.389046
5.537389
5.651912
5.738624
5.801613
5.841617
5.858473
5.853792
5.831771
5.799047
5.764036
5.733806
5.709291
5.684031
5.648218
5.593164
5.512531
5.402538
5.263189
5.097684
4.907554
4.687796
4.428536
4.121977
3.767353
3.370155
2.937190
2.472397
1.978526
1.463035
0.940891
0.431809
-0.043413
-0.464567
-0.814053
-1.080899
-1.263930
-1.370813
-1.413586
-1.404107
-1.352620
-1.269916
-1.169557
-1.066752
-0.975924
-0.910364
-0.882403
-0.901881
-0.974607
-1.102346
-1.283487
-1.514563
-1.793475
-2.122223
-2.505828
-2.948449
-3.449596
-4.001278
-4.587463
-5.187800
-5.782907
-6.355883
-6.890060
-7.368317
-7.776017
-8.103962
-8.348839
-8.512147
-8.598735
-8.615244
-8.568623
-8.465845
-8.316190
-8.133382
-7.932555
-7.723428
-7.506967
-7.279052
-7.037368
-6.785351
-6.530498
-6.279426
-6.034815
-5.797120
-5.567817
-5.349284
-5.142715
-4.949401
-4.775214
-4.632508
-4.536772
-4.501032
-4.530832
-4.620480
-4.752061
-4.898989
-5.032463
-5.127225
-5.164985
-5.135662
-5.037490
-4.877694
-4.673753
-4.452734
-4.246718
-4.085344
-3.988848
-3.965203
-4.012389
-4.122648
-4.284229
-4.480142
-4.688178
-4.885016
-5.051970
-5.177833
-5.257100
-5.286457
-5.263604
-5.188186
-5.060556
-4.877612
-4.631212
-4.313264
-3.923144
-3.469972
-2.968614
-2.434399
-1.880495
-1.318198
-0.758587
-0.214456
0.298248
0.760923
1.154851
1.463341
1.672573
1.773145
1.762322
1.643720
1.423942
1.110822
0.716200
0.259450
-0.232901
-0.730931
-1.205344
-1.629925
-1.982307
-2.244063
-2.401031
-2.443800
-2.367879
-2.173760
-1.867554
-1.462273
-0.979011
-0.446473
0.102976
0.639785
1.141625
1.592855
1.981446
2.297561
2.534902
2.692828
2.777428
2.801238
2.781455
2.736650
2.682661
2.629041
2.578429
2.530126
2.484358
2.442816
2.406411
2.374241
2.345255
2.320934
2.305846
2.305172
2.322223
2.357589
2.407643
2.462456
2.507177
2.527705
2.515994
2.471559
2.400159
2.311231
2.214648
2.117381
2.020836
1.920551
1.810038
1.686424
1.552225
1.411791
1.267114
1.116871
0.957996
0.787839
0.605845
0.414070
0.216147
0.015035
-0.188493
-0.394321
-0.599391
-0.796121
-0.974997
-1.128779
-1.254342
-1.351323
-1.419975
-1.460654
-1.475078
-1.467382
-1.443398
-1.408268
-1.364019
-1.309456
-1.243064
-1.166349
-1.084503
-1.004460
-0.932951
-0.875220
-0.833212
-0.803832
-0.778620
-0.744618
-0.686701
-0.592525
-0.458241
-0.290375
-0.102464
0.089960
0.272701
0.434722
0.569882
0.678503
0.767235
0.845858
0.921832
0.995584
1.059330
1.099546
1.100951
1.050067
0.937749
0.760939
0.523115
0.231868
-0.105470
-0.483919
-0.898355
-1.338801
-1.787285
-2.218279
-2.602826
-2.914936
-3.137439
-3.264187
-3.297852
-3.245839
-3.117144
-2.921014
-2.667115
-2.366560
-2.032466
-1.678603
-1.316445
-0.953005
-0.590937
-0.230069
0.130848
0.492393
0.852886
1.208091
1.553169
1.885323
2.203877
2.507394
2.791349
3.048760
3.271993
3.453145
3.583646
3.655187
3.662059
3.602766
3.479483
3.296386
3.058445
2.770654
2.437311
2.062362
1.651117
1.211497
0.753364
0.287009
-0.177297
-0.628142
-1.051434
-1.430117
-1.745698
-1.981089
-2.123824
-2.168423
-2.116662
-1.975864
-1.756646
-1.470985
-1.130862
-0.748638
-0.339975
0.072594
0.458986
0.785775
1.023871
1.155385
1.175982
1.092986
0.922358
0.685990
0.408242
0.111746
-0.185796
-0.472444
-0.740191
-0.982216
-1.191989
-1.364176
-1.495043
-1.582303
-1.626079
-1.630745
-1.605227
-1.560485
-1.506215
-1.449344
-1.393932
-1.341089
-1.289351
-1.235896
-1.177699
-1.112390
-1.039056
-0.958306
-0.871333
-0.778904
-0.681177
-0.578462
-0.472176
-0.364758
-0.258328
