EVENT_NAME: CENTRAL_ITALY
EVENT_ID: EMSC-20160824_0000006
EVENT_DATE_YYYYMMDD: 20160824
EVENT_TIME_HHMMSS: 013632
EVENT_LATITUDE_DEGREE: 42.6983
EVENT_LONGITUDE_DEGREE: 13.2335
EVENT_DEPTH_KM: 8.1
HYPOCENTER_REFERENCE: INGV-CNT_Seismic_Bulletin
MAGNITUDE_W: 6.0
MAGNITUDE_W_REFERENCE: INGV-webservice
MAGNITUDE_L: 6.0
MAGNITUDE_L_REFERENCE: INGV-CNT_Seismic_Bulletin
FOCAL_MECHANISM: NF
NETWORK: IT
STATION_CODE: NRC
STATION_NAME: NORCIA
STATION_LATITUDE_DEGREE: 42.792543
STATION_LONGITUDE_DEGREE: 13.096475
STATION_ELEVATION_M: 616
LOCATION: 
SENSOR_DEPTH_M: 0.0
VS30_M/S: 687
SITE_CLASSIFICATION_EC8: B
MORPHOLOGIC_CLASSIFICATION: SL
EPICENTRAL_DISTANCE_KM: 15.3
EARTHQUAKE_BACKAZIMUTH_DEGREE: 133.0
DATE_TIME_FIRST_SAMPLE_YYYYMMDD_HHMMSS: 20160824_013629.849
DATE_TIME_FIRST_SAMPLE_PRECISION: milliseconds
SAMPLING_INTERVAL_S: 0.005000
NDATA: 8000
DURATION_S: 40.000
STREAM: HGE
UNITS: cm
INSTRUMENT: sensor = Unknown [Unknown] | digitizer = Unknown [Unknown]
INSTRUMENT_ANALOG/DIGITAL: D
INSTRUMENTAL_FREQUENCY_HZ: 
INSTRUMENTAL_DAMPING: 
FULL_SCALE_G: 
N_BIT_DIGITAL_CONVERTER: 
PGD_CM: -5.325213
TIME_PGD_S: 11.035000
BASELINE_CORRECTION: BASELINE REMOVED
FILTER_TYPE: BUTTERWORTH
FILTER_ORDER: 2
LOW_CUT_FREQUENCY_HZ: 0.080
HIGH_CUT_FREQUENCY_HZ: 40.000
LATE/NORMAL_TRIGGERED: NT
DATABASE_VERSION: DYNA 1.0
HEADER_FORMAT: DYNA 1.2
DATA_TYPE: DISPLACEMENT
PROCESSING: manual (Paolucci et al., 2011)
DATA_TIMESTAMP_YYYYMMDD_HHMMSS: 20160825_132942.360
DATA_LICENSE: CC-BY3_0-IT (http://creativecommons.org/licenses/by/3.0/deed.en)
DATA_CITATION: ESM working group (2015), European Strong-Motion database, version 0.1, Network Activity 3: Networking acceleration networks and SM data users. Project NERA (www.nera-eu.org)
DATA_CREATOR: ESM working group
ORIGINAL_DATA_MEDIATOR_CITATION: Ufficio Rischio Sismico e Vulcanico del Dipartimento della Protezione Civile (http://www.protezionecivile.gov.it/)
ORIGINAL_DATA_MEDIATOR: Rete Accelerometrica Nazionale - RAN Download (http://www.mot1.it/randownload/)
ORIGINAL_DATA_CREATOR_CITATION: Italian Strong Motion Network, Italian Civil Protection Department http://www.protezionecivile.gov.it
ORIGINAL_DATA_CREATOR: network: IT (Italian Strong Motion Network); owner: Dipartimento Della Protezione Civile
USER1: /home/dyna/processing-itaca/processing.py /var/www/processing//tmp/Maria//IT.NRC..HGE.D.20160824.013632.X.ACC.ASC /var/www/processing//tmp/Maria//IT.NRC..HGN.D.20160824.013632.X.ACC.ASC /var/www/processing//tmp/Maria//IT.NRC..HGZ.D.20160824.013632.X.ACC.ASC --tmp /var/www/processing//tmp/Maria/ --le 0.08 --he 40.000 --ln 0.08 --hn 40.000 --lz 0.08 --hz 40.000 --fo 2 --ca 0 --cz 140 --ta 5 --tz 5 --mf 1 --rf 0 --tr NT
USER2: 
USER3: 
USER4: 
USER5: 
[...]
2.264090e-02
2.309371e-02
2.355313e-02
2.401940e-02
2.449277e-02
2.497471e-02
2.546787e-02
2.597466e-02
2.649571e-02
2.703009e-02
2.757693e-02
2.813716e-02
2.871362e-02
2.930883e-02
2.992179e-02
3.054603e-02
3.117095e-02
3.178539e-02
3.238077e-02
3.295292e-02
3.350304e-02
3.403839e-02
3.457110e-02
3.511535e-02
3.568439e-02
3.628850e-02
3.693334e-02
3.761859e-02
3.833747e-02
3.907774e-02
3.982380e-02
4.055871e-02
4.126484e-02
4.192462e-02
4.252274e-02
4.304812e-02
4.349331e-02
4.385293e-02
4.412449e-02
4.431089e-02
4.442156e-02
4.447111e-02
4.447745e-02
4.445984e-02
4.443655e-02
4.442289e-02
4.443050e-02
4.446716e-02
4.453611e-02
4.463632e-02
4.476351e-02
4.491080e-02
4.507059e-02
4.523899e-02
4.541879e-02
4.561712e-02
4.584024e-02
4.609037e-02
4.636547e-02
4.666130e-02
4.697469e-02
4.730581e-02
4.765662e-02
4.802754e-02
4.841686e-02
4.882265e-02
4.924323e-02
4.967434e-02
5.010693e-02
5.053003e-02
5.093679e-02
5.132799e-02
5.171221e-02
5.210609e-02
5.253379e-02
5.302113e-02
5.358479e-02
5.422279e-02
5.491316e-02
5.562181e-02
5.631383e-02
5.696043e-02
5.753931e-02
5.803331e-02
5.843242e-02
5.873689e-02
5.895495e-02
5.909422e-02
5.915390e-02
5.912545e-02
5.899992e-02
5.877438e-02
5.845613e-02
5.806774e-02
5.764916e-02
5.725079e-02
5.692079e-02
5.669432e-02
5.658747e-02
5.659628e-02
5.670120e-02
5.687447e-02
5.708710e-02
5.731691e-02
5.755721e-02
5.781846e-02
5.811764e-02
5.846329e-02
5.884931e-02
5.925927e-02
5.967309e-02
6.007126e-02
6.043831e-02
6.076740e-02
6.106483e-02
6.135090e-02
6.165461e-02
6.200381e-02
6.241597e-02
6.289247e-02
6.341635e-02
6.395442e-02
6.446467e-02
6.490769e-02
6.525885e-02
6.551763e-02
6.570994e-02
6.588239e-02
6.609092e-02
6.638588e-02
6.679550e-02
6.731553e-02
6.791362e-02
6.854454e-02
6.916473e-02
6.974297e-02
7.026924e-02
7.075752e-02
7.123964e-02
7.176035e-02
7.238130e-02
7.317955e-02
7.422207e-02
7.552813e-02
7.705184e-02
7.869652e-02
8.034331e-02
8.187750e-02
8.321001e-02
8.429150e-02
8.511584e-02
8.571846e-02
8.617332e-02
8.657949e-02
8.703511e-02
8.761476e-02
8.835985e-02
8.927429e-02
9.032512e-02
9.146121e-02
9.264906e-02
9.390048e-02
9.527157e-02
9.683672e-02
9.865212e-02
1.007251e-01
1.030112e-01
1.054425e-01
1.079547e-01
1.104834e-01
1.129524e-01
1.152868e-01
1.174440e-01
1.194355e-01
1.213218e-01
1.231867e-01
1.251004e-01
1.270864e-01
1.291092e-01
1.310912e-01
1.329494e-01
1.346306e-01
1.361258e-01
1.374611e-01
1.386723e-01
1.397832e-01
1.408018e-01
1.417293e-01
1.425668e-01
1.433137e-01
1.439657e-01
1.445202e-01
1.449893e-01
1.454074e-01
1.458324e-01
1.463426e-01
1.470316e-01
1.479914e-01
1.492886e-01
1.509510e-01
1.529747e-01
1.553368e-01
1.580022e-01
1.609275e-01
1.640654e-01
1.673611e-01
1.707414e-01
1.741171e-01
1.774092e-01
1.805848e-01
1.836740e-01
1.867513e-01
1.898927e-01
1.931412e-01
1.965019e-01
1.999592e-01
2.034975e-01
2.071081e-01
2.107754e-01
2.144634e-01
2.181277e-01
2.217443e-01
2.253254e-01
2.289093e-01
2.325463e-01
2.362881e-01
2.401727e-01
2.442100e-01
2.483777e-01
2.526306e-01
2.569191e-01
2.612056e-01
2.654580e-01
2.696359e-01
2.737046e-01
2.776728e-01
2.816047e-01
2.855909e-01
2.897082e-01
2.939958e-01
2.984452e-01
3.029921e-01
3.075144e-01
3.118542e-01
3.158695e-01
3.194924e-01
3.227515e-01
3.257457e-01
3.285982e-01
3.314297e-01
3.343453e-01
3.374095e-01
3.406171e-01
3.438907e-01
3.471113e-01
3.501703e-01
3.530284e-01
3.557532e-01
3.585036e-01
3.614637e-01
3.647708e-01
3.684858e-01
3.726030e-01
3.770670e-01
3.817850e-01
3.866434e-01
3.915329e-01
3.963716e-01
4.011174e-01
4.057726e-01
4.103769e-01
4.149899e-01
4.196642e-01
4.244131e-01
4.291960e-01
4.339335e-01
4.385483e-01
4.429969e-01
4.472610e-01
4.513225e-01
4.551646e-01
4.587948e-01
4.622522e-01
4.655966e-01
4.688983e-01
4.722349e-01
4.756786e-01
4.792716e-01
4.830144e-01
4.868894e-01
4.909011e-01
4.950904e-01
4.995076e-01
5.041751e-01
5.090738e-01
5.141654e-01
5.194222e-01
5.248304e-01
5.303577e-01
5.359171e-01
5.413757e-01
5.466162e-01
5.516021e-01
5.563966e-01
5.611251e-01
5.659156e-01
5.708611e-01
5.760229e-01
5.814427e-01
5.871341e-01
5.930586e-01
5.991187e-01
6.051791e-01
6.110958e-01
6.167352e-01
6.219923e-01
6.268188e-01
6.312423e-01
6.353448e-01
6.392162e-01
6.429275e-01
6.465381e-01
6.501005e-01
6.536471e-01
6.571818e-01
6.606932e-01
6.641750e-01
6.676371e-01
6.710995e-01
6.745826e-01
6.781127e-01
6.817316e-01
6.854828e-01
6.893693e-01
6.933320e-01
6.972933e-01
7.012384e-01
7.052463e-01
7.094435e-01
7.139370e-01
7.187958e-01
7.240749e-01
7.298218e-01
7.360490e-01
7.427147e-01
7.497360e-01
7.570134e-01
7.644540e-01
7.719952e-01
7.796154e-01
7.873254e-01
7.951567e-01
8.031536e-01
8.113505e-01
8.197372e-01
8.282461e-01
8.367818e-01
8.452608e-01
8.536155e-01
8.617761e-01
8.696633e-01
8.771930e-01
8.842886e-01
8.909179e-01
8.971248e-01
9.030082e-01
9.086704e-01
9.141993e-01
9.196877e-01
9.252426e-01
9.309677e-01
9.369499e-01
9.432580e-01
9.499276e-01
9.569243e-01
9.641269e-01
9.713608e-01
9.784626e-01
9.853312e-01
9.919392e-01
9.983115e-01
1.004509e+00
1.010622e+00
1.016754e+00
1.022989e+00
1.029379e+00
1.035934e+00
1.042619e+00
1.049370e+00
1.056120e+00
1.062817e+00
1.069440e+00
1.075997e+00
1.082517e+00
1.089025e+00
1.095534e+00
1.102051e+00
1.108556e+00
1.114982e+00
1.121239e+00
1.127274e+00
1.133100e+00
1.138784e+00
1.144417e+00
1.150099e+00
1.155925e+00
1.161965e+00
1.168247e+00
1.174741e+00
1.181373e+00
1.188062e+00
1.194739e+00
1.201351e+00
1.207848e+00
1.214164e+00
1.220240e+00
1.226058e+00
1.231671e+00
1.237170e+00
1.242635e+00
1.248124e+00
1.253703e+00
1.259450e+00
1.265424e+00
1.271632e+00
1.278017e+00
1.284461e+00
1.290818e+00
1.296972e+00
1.302904e+00
1.308687e+00
1.314465e+00
1.320388e+00
1.326555e+00
1.332985e+00
1.339648e+00
1.346527e+00
1.353627e+00
1.360928e+00
1.368361e+00
1.375842e+00
1.383342e+00
1.390925e+00
1.398732e+00
1.406926e+00
1.415631e+00
1.424871e+00
1.434563e+00
1.444590e+00
1.454878e+00
1.465415e+00
1.476235e+00
1.487427e+00
1.499163e+00
1.511661e+00
1.525123e+00
1.539700e+00
1.555454e+00
1.572255e+00
1.589715e+00
1.607264e+00
1.624315e+00
1.640389e+00
1.655187e+00
1.668640e+00
1.680864e+00
1.692038e+00
1.702317e+00
1.711839e+00
1.720742e+00
1.729156e+00
1.737182e+00
1.744903e+00
1.752354e+00
1.759525e+00
1.766414e+00
1.773104e+00
1.779744e+00
1.786481e+00
1.793393e+00
1.800471e+00
1.807620e+00
1.814711e+00
1.821656e+00
1.828477e+00
1.835325e+00
1.842435e+00
1.850047e+00
1.858359e+00
1.867519e+00
1.877631e+00
1.888735e+00
1.900769e+00
1.913566e+00
1.926867e+00
1.940352e+00
1.953714e+00
1.966751e+00
1.979415e+00
1.991768e+00
2.003909e+00
2.015921e+00
2.027867e+00
2.039814e+00
2.051840e+00
2.064050e+00
2.076572e+00
2.089485e+00
2.102745e+00
2.116205e+00
2.129685e+00
2.143029e+00
2.156127e+00
2.168929e+00
2.181424e+00
2.193582e+00
2.205335e+00
2.216637e+00
2.227524e+00
2.238110e+00
2.248570e+00
2.259104e+00
2.269861e+00
2.280904e+00
2.292280e+00
2.304110e+00
2.316544e+00
2.329670e+00
2.343504e+00
2.358068e+00
2.373384e+00
2.389416e+00
2.406075e+00
2.423298e+00
2.441075e+00
2.459431e+00
2.478415e+00
2.498107e+00
2.518574e+00
2.539839e+00
2.561907e+00
2.584789e+00
2.608450e+00
2.632754e+00
2.657445e+00
2.682171e+00
2.706514e+00
2.730055e+00
2.752469e+00
2.773559e+00
2.793201e+00
2.811289e+00
2.827764e+00
2.842683e+00
2.856190e+00
2.868398e+00
2.879294e+00
2.888772e+00
2.896709e+00
2.902972e+00
2.907397e+00
2.909809e+00
2.910079e+00
2.908158e+00
2.904088e+00
2.897951e+00
2.889824e+00
2.879766e+00
2.867838e+00
2.854121e+00
2.838698e+00
2.821643e+00
2.803016e+00
2.782863e+00
2.761229e+00
2.738167e+00
2.713776e+00
2.688211e+00
2.661646e+00
2.634220e+00
2.606031e+00
2.577187e+00
2.547814e+00
2.518068e+00
2.488146e+00
2.458267e+00
2.428621e+00
2.399344e+00
2.370537e+00
2.342273e+00
2.314551e+00
2.287284e+00
2.260387e+00
2.233857e+00
2.207710e+00
2.181873e+00
2.156169e+00
2.130393e+00
2.104387e+00
2.078064e+00
2.051352e+00
2.024109e+00
1.996132e+00
1.967255e+00
1.937435e+00
1.906724e+00
1.875184e+00
1.842851e+00
1.809776e+00
1.776042e+00
1.741708e+00
1.706765e+00
1.671144e+00
1.634768e+00
1.597618e+00
1.559777e+00
1.521413e+00
1.482779e+00
1.444192e+00
1.406013e+00
1.368631e+00
1.332443e+00
1.297815e+00
1.265027e+00
1.234295e+00
1.205806e+00
1.179740e+00
1.156272e+00
1.135614e+00
1.118045e+00
1.103883e+00
1.093410e+00
1.086805e+00
1.084103e+00
1.085192e+00
1.089821e+00
1.097566e+00
1.107844e+00
1.119994e+00
1.133384e+00
1.147408e+00
1.161442e+00
1.174853e+00
1.187070e+00
1.197623e+00
1.206161e+00
1.212453e+00
1.216351e+00
1.217706e+00
1.216328e+00
1.212035e+00
1.204749e+00
1.194546e+00
1.181635e+00
1.166316e+00
1.148958e+00
1.129993e+00
1.109908e+00
1.089207e+00
1.068343e+00
1.047651e+00
1.027302e+00
1.007324e+00
9.877020e-01
9.684640e-01
9.496930e-01
9.314706e-01
9.138448e-01
8.968450e-01
8.805076e-01
8.648809e-01
8.499989e-01
8.358225e-01
8.221865e-01
8.088075e-01
7.953400e-01
7.814181e-01
7.666507e-01
7.506096e-01
7.328623e-01
7.130588e-01
6.910150e-01
6.667200e-01
6.402613e-01
6.117508e-01
5.813090e-01
5.490632e-01
5.151244e-01
4.796002e-01
4.426677e-01
4.046107e-01
3.657501e-01
3.263697e-01
2.867529e-01
2.472726e-01
2.084131e-01
1.707236e-01
1.347546e-01
1.009964e-01
6.984657e-02
4.163236e-02
1.666918e-02
-4.703404e-03
-2.213106e-02
-3.527599e-02
-4.385024e-02
-4.765998e-02
-4.666565e-02
-4.102847e-02
-3.109335e-02
-1.730806e-02
-1.685707e-04
1.974861e-02
4.174975e-02
6.507284e-02
8.896998e-02
1.127241e-01
1.355908e-01
1.567382e-01
1.752610e-01
1.902589e-01
2.008985e-01
2.064218e-01
2.061374e-01
1.994431e-01
1.858736e-01
1.651252e-01
1.370199e-01
1.014448e-01
5.832636e-02
7.657332e-03
-5.044648e-02
-1.156887e-01
-1.875654e-01
-2.653806e-01
-3.482860e-01
-4.353142e-01
-5.253964e-01
-6.173830e-01
-7.101004e-01
-8.024521e-01
-8.934955e-01
-9.824114e-01
-1.068397e+00
-1.150615e+00
-1.228256e+00
-1.300659e+00
-1.367363e+00
-1.428084e+00
-1.482646e+00
-1.530882e+00
-1.572622e+00
-1.607775e+00
-1.636440e+00
-1.658927e+00
-1.675714e+00
-1.687462e+00
-1.695100e+00
-1.699875e+00
-1.703278e+00
-1.706877e+00
-1.712172e+00
-1.720530e+00
-1.733215e+00
-1.751387e+00
-1.776035e+00
-1.807901e+00
-1.847485e+00
-1.895065e+00
-1.950697e+00
-2.014189e+00
-2.085130e+00
-2.162931e+00
-2.246873e+00
-2.336144e+00
-2.429885e+00
-2.527188e+00
-2.627046e+00
-2.728341e+00
-2.829879e+00
-2.930482e+00
-3.029077e+00
-3.124709e+00
-3.216504e+00
-3.303642e+00
-3.385389e+00
-3.461113e+00
-3.530261e+00
-3.592334e+00
-3.646876e+00
-3.693479e+00
-3.731796e+00
-3.761548e+00
-3.782551e+00
-3.794738e+00
-3.798203e+00
-3.793197e+00
-3.780118e+00
-3.759526e+00
-3.732174e+00
-3.699013e+00
-3.661116e+00
-3.619579e+00
-3.575456e+00
-3.529731e+00
-3.483292e+00
-3.436922e+00
-3.391350e+00
-3.347286e+00
-3.305419e+00
-3.266360e+00
-3.230594e+00
-3.198465e+00
-3.170222e+00
-3.146035e+00
-3.125956e+00
-3.109867e+00
-3.097507e+00
-3.088541e+00
-3.082624e+00
-3.079461e+00
-3.078858e+00
-3.080718e+00
-3.084992e+00
-3.091640e+00
-3.100619e+00
-3.111853e+00
-3.125193e+00
-3.140399e+00
-3.157158e+00
-3.175102e+00
-3.193824e+00
-3.212902e+00
-3.231911e+00
-3.250392e+00
-3.267832e+00
-3.283691e+00
-3.297478e+00
-3.308797e+00
-3.317322e+00
-3.322742e+00
-3.324773e+00
-3.323187e+00
-3.317840e+00
-3.308681e+00
-3.295783e+00
-3.279371e+00
-3.259806e+00
-3.237540e+00
-3.213077e+00
-3.186934e+00
-3.159620e+00
-3.131661e+00
-3.103652e+00
-3.076287e+00
-3.050362e+00
-3.026745e+00
-3.006283e+00
-2.989672e+00
-2.977320e+00
-2.969244e+00
-2.965060e+00
-2.964101e+00
-2.965604e+00
-2.968889e+00
-2.973480e+00
-2.979135e+00
-2.985792e+00
-2.993497e+00
-3.002375e+00
-3.012647e+00
-3.024634e+00
-3.038728e+00
-3.055348e+00
-3.074916e+00
-3.097854e+00
-3.124577e+00
-3.155463e+00
-3.190836e+00
-3.230997e+00
-3.276251e+00
-3.326880e+00
-3.383060e+00
-3.444768e+00
-3.511749e+00
-3.583566e+00
-3.659726e+00
-3.739781e+00
-3.823335e+00
-3.909968e+00
-3.999140e+00
-4.090132e+00
-4.182060e+00
-4.273988e+00
-4.365042e+00
-4.454470e+00
-4.541611e+00
-4.625852e+00
-4.706613e+00
-4.783365e+00
-4.855638e+00
-4.923003e+00
-4.985051e+00
-5.041445e+00
-5.092037e+00
-5.136929e+00
-5.176396e+00
-5.210750e+00
-5.240268e+00
-5.265163e+00
-5.285582e+00
-5.301616e+00
-5.313359e+00
-5.320982e+00
-5.324787e+00
-5.325213e+00
-5.322814e+00
-5.318227e+00
-5.312095e+00
-5.304907e+00
-5.296840e+00
-5.287678e+00
-5.276850e+00
-5.263568e+00
-5.246989e+00
-5.226372e+00
-5.201157e+00
-5.170990e+00
-5.135732e+00
-5.095435e+00
-5.050330e+00
-5.000815e+00
-4.947420e+00
-4.890717e+00
-4.831246e+00
-4.769540e+00
-4.706145e+00
-4.641561e+00
-4.576120e+00
-4.509956e+00
-4.443072e+00
-4.375442e+00
-4.307070e+00
-4.237992e+00
-4.168235e+00
-4.097781e+00
-4.026538e+00
-3.954362e+00
-3.881054e+00
-3.806362e+00
-3.729963e+00
-3.651472e+00
-3.570465e+00
-3.486504e+00
-3.399167e+00
-3.308045e+00
-3.212724e+00
-3.112799e+00
-3.007923e+00
-2.897865e+00
-2.782535e+00
-2.661969e+00
-2.536318e+00
-2.405851e+00
-2.270967e+00
-2.132174e+00
-1.990049e+00
-1.845231e+00
-1.698406e+00
-1.550277e+00
-1.401515e+00
-1.252744e+00
-1.104545e+00
-9.574837e-01
-8.121161e-01
-6.690017e-01
-5.287300e-01
-3.919321e-01
-2.592441e-01
-1.312230e-01
-8.257270e-03
1.094926e-01
2.221144e-01
3.299335e-01
4.334737e-01
5.333788e-01
6.302972e-01
7.247713e-01
8.171942e-01
9.078391e-01
9.969124e-01
1.084592e+00
1.171053e+00
1.256497e+00
1.341144e+00
1.425213e+00
1.508915e+00
1.592473e+00
1.676129e+00
1.760114e+00
1.844618e+00
1.929813e+00
2.015891e+00
2.103086e+00
2.191633e+00
2.281728e+00
2.373518e+00
2.467136e+00
2.562716e+00
2.660390e+00
2.760248e+00
2.862300e+00
2.966424e+00
3.072322e+00
3.179495e+00
3.287245e+00
3.394728e+00
3.500997e+00
3.605039e+00
3.705822e+00
3.802351e+00
3.893749e+00
3.979296e+00
4.058433e+00
4.130739e+00
4.195893e+00
4.253665e+00
4.303922e+00
4.346624e+00
4.381816e+00
4.409612e+00
4.430192e+00
4.443805e+00
4.450769e+00
4.451454e+00
4.446258e+00
4.435609e+00
4.419979e+00
4.399894e+00
4.375905e+00
4.348553e+00
4.318341e+00
4.285743e+00
4.251215e+00
4.215218e+00
4.178228e+00
4.140730e+00
4.103206e+00
4.066100e+00
4.029789e+00
3.994568e+00
3.960656e+00
3.928225e+00
3.897430e+00
3.868412e+00
3.841302e+00
3.816240e+00
3.793399e+00
3.772956e+00
3.755051e+00
3.739740e+00
3.726949e+00
3.716461e+00
3.707944e+00
3.700979e+00
3.695065e+00
3.689628e+00
3.684048e+00
3.677720e+00
3.670085e+00
3.660639e+00
3.648918e+00
3.634514e+00
3.617114e+00
3.596519e+00
3.572649e+00
3.545525e+00
3.515238e+00
3.481941e+00
3.445839e+00
3.407181e+00
3.366237e+00
3.323270e+00
3.278519e+00
3.232195e+00
3.184483e+00
3.135548e+00
3.085547e+00
3.034642e+00
2.983020e+00
2.930909e+00
2.878564e+00
2.826222e+00
2.774060e+00
2.722187e+00
2.670666e+00
2.619535e+00
2.568828e+00
2.518576e+00
2.468810e+00
2.419566e+00
2.370877e+00
2.322774e+00
2.275295e+00
2.228484e+00
2.182370e+00
2.136954e+00
2.092202e+00
2.048056e+00
2.004434e+00
1.961229e+00
1.918318e+00
1.875574e+00
1.832873e+00
1.790081e+00
1.747058e+00
1.703639e+00
1.659629e+00
1.614811e+00
1.568945e+00
1.521780e+00
1.473044e+00
1.422445e+00
1.369683e+00
1.314487e+00
1.256631e+00
1.195923e+00
1.132198e+00
1.065327e+00
9.952179e-01
9.217975e-01
8.449961e-01
7.647673e-01
6.811152e-01
5.940993e-01
5.038193e-01
4.104090e-01
3.140469e-01
2.149638e-01
1.134359e-01
9.775507e-03
-9.567260e-02
-2.025420e-01
-3.104595e-01
-4.190562e-01
-5.279633e-01
-6.367963e-01
-7.451495e-01
-8.526238e-01
-9.588648e-01
-1.063584e+00
-1.166566e+00
-1.267668e+00
-1.366824e+00
-1.464019e+00
-1.559255e+00
-1.652521e+00
-1.743796e+00
-1.833057e+00
-1.920257e+00
-2.005312e+00
-2.088107e+00
-2.168520e+00
-2.246451e+00
-2.321862e+00
-2.394782e+00
-2.465313e+00
-2.533608e+00
-2.599861e+00
-2.664299e+00
-2.727196e+00
-2.788843e+00
-2.849510e+00
-2.909415e+00
-2.968735e+00
-3.027618e+00
-3.086170e+00
-3.144438e+00
-3.202403e+00
-3.260002e+00
-3.317138e+00
-3.373692e+00
-3.429529e+00
-3.484504e+00
-3.538468e+00
-3.591266e+00
-3.642741e+00
-3.692754e+00
-3.741186e+00
-3.787939e+00
-3.832925e+00
-3.876077e+00
-3.917370e+00
-3.956832e+00
-3.994519e+00
-4.030483e+00
-4.064743e+00
-4.097288e+00
-4.128092e+00
-4.157116e+00
-4.184293e+00
-4.209527e+00
-4.232697e+00
-4.253675e+00
-4.272350e+00
-4.288640e+00
-4.302489e+00
-4.313854e+00
-4.322700e+00
-4.329018e+00
-4.332815e+00
-4.334115e+00
-4.332945e+00
-4.329330e+00
-4.323288e+00
-4.314833e+00
-4.303991e+00
-4.290797e+00
-4.275299e+00
-4.257540e+00
-4.237554e+00
-4.215369e+00
-4.191021e+00
-4.164563e+00
-4.136062e+00
-4.105578e+00
-4.073162e+00
-4.038862e+00
-4.002740e+00
-3.964895e+00
-3.925455e+00
-3.884566e+00
-3.842386e+00
-3.799089e+00
-3.754868e+00
-3.709910e+00
-3.664384e+00
-3.618428e+00
-3.572143e+00
-3.525608e+00
-3.478888e+00
-3.432044e+00
-3.385139e+00
-3.338229e+00
-3.291382e+00
-3.244691e+00
-3.198295e+00
-3.152365e+00
-3.107080e+00
-3.062608e+00
-3.019109e+00
-2.976744e+00
-2.935670e+00
-2.896035e+00
-2.857961e+00
-2.821541e+00
-2.786823e+00
-2.753804e+00
-2.722432e+00
-2.692623e+00
-2.664272e+00
-2.637258e+00
-2.611457e+00
-2.586754e+00
-2.563050e+00
-2.540251e+00
-2.518250e+00
-2.496934e+00
-2.476189e+00
-2.455894e+00
-2.435912e+00
-2.416105e+00
-2.396378e+00
-2.376686e+00
-2.357015e+00
-2.337356e+00
-2.317693e+00
-2.298005e+00
-2.278250e+00
-2.258348e+00
-2.238180e+00
-2.217608e+00
-2.196509e+00
-2.174798e+00
-2.152444e+00
-2.129466e+00
-2.105901e+00
-2.081761e+00
-2.057024e+00
-2.031644e+00
-2.005573e+00
-1.978776e+00
-1.951231e+00
-1.922925e+00
-1.893859e+00
-1.864052e+00
-1.833530e+00
