EVENT_NAME: CENTRAL_ITALY
EVENT_ID: EMSC-20161026_0000095
EVENT_DATE_YYYYMMDD: 20161026
EVENT_TIME_HHMMSS: 191806
EVENT_LATITUDE_DEGREE: 42.9087
EVENT_LONGITUDE_DEGREE: 13.1288
EVENT_DEPTH_KM: 7.5
HYPOCENTER_REFERENCE: INGV-CNT_Seismic_Bulletin
MAGNITUDE_W: 5.9
MAGNITUDE_W_REFERENCE: INGV-webservice
MAGNITUDE_L: 5.9
MAGNITUDE_L_REFERENCE: INGV-CNT_Seismic_Bulletin
FOCAL_MECHANISM: NF
NETWORK: IT
STATION_CODE: NRC
STATION_NAME: NORCIA
STATION_LATITUDE_DEGREE: 42.792543
STATION_LONGITUDE_DEGREE: 13.096475
STATION_ELEVATION_M: 616
LOCATION: 
SENSOR_DEPTH_M: 0.0
VS30_M/S: 687
SITE_CLASSIFICATION_EC8: B
MORPHOLOGIC_CLASSIFICATION: SL
EPICENTRAL_DISTANCE_KM: 13.2
EARTHQUAKE_BACKAZIMUTH_DEGREE: 11.6
DATE_TIME_FIRST_SAMPLE_YYYYMMDD_HHMMSS: 20161026_191803.139
DATE_TIME_FIRST_SAMPLE_PRECISION: milliseconds
SAMPLING_INTERVAL_S: 0.005000
NDATA: 11542
DURATION_S: 57.710
STREAM: HGE
UNITS: cm
INSTRUMENT: sensor = Unknown [Unknown] | digitizer = Unknown [Unknown]
INSTRUMENT_ANALOG/DIGITAL: D
INSTRUMENTAL_FREQUENCY_HZ: 
INSTRUMENTAL_DAMPING: 
FULL_SCALE_G: 
N_BIT_DIGITAL_CONVERTER: 
PGD_CM: -2.749320
TIME_PGD_S: 10.355000
BASELINE_CORRECTION: BASELINE REMOVED
FILTER_TYPE: BUTTERWORTH
FILTER_ORDER: 2
LOW_CUT_FREQUENCY_HZ: 0.040
HIGH_CUT_FREQUENCY_HZ: 30.000
LATE/NORMAL_TRIGGERED: NT
DATABASE_VERSION: DYNA 1.0
HEADER_FORMAT: DYNA 1.2
DATA_TYPE: DISPLACEMENT
PROCESSING: manual (Paolucci et al., 2011)
DATA_TIMESTAMP_YYYYMMDD_HHMMSS: 20161027_011428.535
DATA_LICENSE: CC-BY3_0-IT (http://creativecommons.org/licenses/by/3.0/deed.en)
DATA_CITATION: ESM working group (2015), European Strong-Motion database, version 0.1, Network Activity 3: Networking acceleration networks and SM data users. Project NERA (www.nera-eu.org)
DATA_CREATOR: ESM working group
ORIGINAL_DATA_MEDIATOR_CITATION: Ufficio Rischio Sismico e Vulcanico del Dipartimento della Protezione Civile (http://www.protezionecivile.gov.it/)
ORIGINAL_DATA_MEDIATOR: Rete Accelerometrica Nazionale - RAN Download (http://www.mot1.it/randownload/)
ORIGINAL_DATA_CREATOR_CITATION: Italian Strong Motion Network, Italian Civil Protection Department http://www.protezionecivile.gov.it
ORIGINAL_DATA_CREATOR: network: IT (Italian Strong Motion Network); owner: Dipartimento Della Protezione Civile
USER1: /home/dyna/processing-itaca/processing.py /var/www/processing//tmp/Lucia//IT.NRC..HGE.D.20161026.191806.X.ACC.ASC /var/www/processing//tmp/Lucia//IT.NRC..HGN.D.20161026.191806.X.ACC.ASC /var/www/processing//tmp/Lucia//IT.NRC..HGZ.D.20161026.191806.X.ACC.ASC --tmp /var/www/processing//tmp/Lucia/ --le 0.040 --he 30.000 --ln 0.040 --hn 30.000 --lz 0.040 --hz 30.000 --fo 2 --ca 0 --cz 100 --ta 5 --tz 5 --mf 1 --rf 0 --tr NT
USER2: 
USER3: 
USER4: 
USER5: 
[...]
6.865195e-02
6.883155e-02
6.901179e-02
6.919278e-02
6.937459e-02
6.955723e-02
6.974060e-02
6.992447e-02
7.010862e-02
7.029281e-02
7.047691e-02
7.066086e-02
7.084469e-02
7.102850e-02
7.121235e-02
7.139629e-02
7.158037e-02
7.176458e-02
7.194881e-02
7.213286e-02
7.231646e-02
7.249941e-02
7.268159e-02
7.286299e-02
7.304372e-02
7.322396e-02
7.340390e-02
7.358374e-02
7.376369e-02
7.394401e-02
7.412500e-02
7.430701e-02
7.449036e-02
7.467526e-02
7.486184e-02
7.505010e-02
7.523997e-02
7.543134e-02
7.562410e-02
7.581809e-02
7.601311e-02
7.620888e-02
7.640503e-02
7.660115e-02
7.679684e-02
7.699183e-02
7.718594e-02
7.737918e-02
7.757166e-02
7.776362e-02
7.795524e-02
7.814666e-02
7.833792e-02
7.852898e-02
7.871976e-02
7.891025e-02
7.910050e-02
7.929065e-02
7.948093e-02
7.967156e-02
7.986271e-02
8.005444e-02
8.024671e-02
8.043940e-02
8.063231e-02
8.082528e-02
8.101807e-02
8.121046e-02
8.140215e-02
8.159287e-02
8.178243e-02
8.197073e-02
8.215778e-02
8.234365e-02
8.252853e-02
8.271270e-02
8.289654e-02
8.308045e-02
8.326482e-02
8.344997e-02
8.363601e-02
8.382289e-02
8.401040e-02
8.419813e-02
8.438551e-02
8.457182e-02
8.475631e-02
8.493824e-02
8.511698e-02
8.529208e-02
8.546343e-02
8.563131e-02
8.579641e-02
8.595973e-02
8.612238e-02
8.628547e-02
8.644994e-02
8.661644e-02
8.678524e-02
8.695632e-02
8.712947e-02
8.730445e-02
8.748095e-02
8.765861e-02
8.783705e-02
8.801584e-02
8.819451e-02
8.837258e-02
8.854965e-02
8.872562e-02
8.890064e-02
8.907520e-02
8.925023e-02
8.942694e-02
8.960672e-02
8.979082e-02
8.998015e-02
9.017497e-02
9.037476e-02
9.057840e-02
9.078466e-02
9.099242e-02
9.120058e-02
9.140794e-02
9.161310e-02
9.181452e-02
9.201055e-02
9.219974e-02
9.238132e-02
9.255576e-02
9.272486e-02
9.289127e-02
9.305768e-02
9.322630e-02
9.339845e-02
9.357433e-02
9.375340e-02
9.393517e-02
9.411973e-02
9.430761e-02
9.449931e-02
9.469502e-02
9.489464e-02
9.509770e-02
9.530342e-02
9.551101e-02
9.572001e-02
9.593041e-02
9.614228e-02
9.635549e-02
9.656937e-02
9.678271e-02
9.699386e-02
9.720102e-02
9.740254e-02
9.759732e-02
9.778533e-02
9.796737e-02
9.814426e-02
9.831598e-02
9.848158e-02
9.863946e-02
9.878789e-02
9.892598e-02
9.905466e-02
9.917693e-02
9.929667e-02
9.941721e-02
9.954041e-02
9.966677e-02
9.979581e-02
9.992657e-02
1.000581e-01
1.001901e-01
1.003229e-01
1.004575e-01
1.005957e-01
1.007396e-01
1.008910e-01
1.010506e-01
1.012173e-01
1.013898e-01
1.015669e-01
1.017480e-01
1.019333e-01
1.021228e-01
1.023154e-01
1.025093e-01
1.027023e-01
1.028933e-01
1.030832e-01
1.032739e-01
1.034683e-01
1.036679e-01
1.038723e-01
1.040794e-01
1.042857e-01
1.044886e-01
1.046871e-01
1.048831e-01
1.050800e-01
1.052821e-01
1.054930e-01
1.057137e-01
1.059418e-01
1.061713e-01
1.063939e-01
1.066020e-01
1.067912e-01
1.069614e-01
1.071162e-01
1.072616e-01
1.074039e-01
1.075471e-01
1.076929e-01
1.078412e-01
1.079910e-01
1.081416e-01
1.082940e-01
1.084514e-01
1.086192e-01
1.088039e-01
1.090120e-01
1.092479e-01
1.095132e-01
1.098055e-01
1.101196e-01
1.104477e-01
1.107807e-01
1.111098e-01
1.114275e-01
1.117286e-01
1.120100e-01
1.122695e-01
1.125061e-01
1.127190e-01
1.129077e-01
1.130724e-01
1.132146e-01
1.133369e-01
1.134430e-01
1.135380e-01
1.136271e-01
1.137156e-01
1.138074e-01
1.139053e-01
1.140111e-01
1.141259e-01
1.142511e-01
1.143879e-01
1.145370e-01
1.146982e-01
1.148702e-01
1.150518e-01
1.152411e-01
1.154353e-01
1.156315e-01
1.158277e-01
1.160244e-01
1.162232e-01
1.164266e-01
1.166372e-01
1.168572e-01
1.170881e-01
1.173301e-01
1.175824e-01
1.178428e-01
1.181088e-01
1.183789e-01
1.186545e-01
1.189406e-01
1.192437e-01
1.195698e-01
1.199219e-01
1.202979e-01
1.206909e-01
1.210907e-01
1.214871e-01
1.218723e-01
1.222423e-01
1.225977e-01
1.229417e-01
1.232795e-01
1.236160e-01
1.239546e-01
1.242965e-01
1.246408e-01
1.249854e-01
1.253287e-01
1.256707e-01
1.260142e-01
1.263638e-01
1.267247e-01
1.271006e-01
1.274927e-01
1.278992e-01
1.283149e-01
1.287321e-01
1.291417e-01
1.295353e-01
1.299065e-01
1.302522e-01
1.305738e-01
1.308764e-01
1.311684e-01
1.314592e-01
1.317572e-01
1.320679e-01
1.323921e-01
1.327261e-01
1.330628e-01
1.333942e-01
1.337135e-01
1.340157e-01
1.342978e-01
1.345581e-01
1.347964e-01
1.350138e-01
1.352142e-01
1.354033e-01
1.355883e-01
1.357759e-01
1.359717e-01
1.361798e-01
1.364046e-01
1.366514e-01
1.369260e-01
1.372329e-01
1.375736e-01
1.379464e-01
1.383466e-01
1.387671e-01
1.391998e-01
1.396380e-01
1.400778e-01
1.405179e-01
1.409578e-01
1.413965e-01
1.418311e-01
1.422562e-01
1.426637e-01
1.430448e-01
1.433927e-01
1.437037e-01
1.439780e-01
1.442200e-01
1.444376e-01
1.446402e-01
1.448358e-01
1.450296e-01
1.452239e-01
1.454197e-01
1.456182e-01
1.458223e-01
1.460373e-01
1.462697e-01
1.465247e-01
1.468040e-01
1.471059e-01
1.474259e-01
1.477583e-01
1.480985e-01
1.484440e-01
1.487948e-01
1.491517e-01
1.495170e-01
1.498948e-01
1.502901e-01
1.507077e-01
1.511514e-01
1.516226e-01
1.521216e-01
1.526469e-01
1.531951e-01
1.537607e-01
1.543356e-01
1.549101e-01
1.554736e-01
1.560152e-01
1.565239e-01
1.569898e-01
1.574059e-01
1.577687e-01
1.580779e-01
1.583364e-01
1.585490e-01
1.587216e-01
1.588607e-01
1.589721e-01
1.590611e-01
1.591322e-01
1.591903e-01
1.592427e-01
1.592989e-01
1.593694e-01
1.594646e-01
1.595931e-01
1.597592e-01
1.599617e-01
1.601941e-01
1.604477e-01
1.607145e-01
1.609880e-01
1.612634e-01
1.615370e-01
1.618038e-01
1.620564e-01
1.622862e-01
1.624867e-01
1.626551e-01
1.627937e-01
1.629095e-01
1.630135e-01
1.631185e-01
1.632374e-01
1.633817e-01
1.635619e-01
1.637884e-01
1.640719e-01
1.644254e-01
1.648632e-01
1.653998e-01
1.660468e-01
1.668097e-01
1.676859e-01
1.686643e-01
1.697250e-01
1.708433e-01
1.719950e-01
1.731606e-01
1.743255e-01
1.754785e-01
1.766102e-01
1.777119e-01
1.787733e-01
1.797810e-01
1.807180e-01
1.815669e-01
1.823137e-01
1.829543e-01
1.834965e-01
1.839597e-01
1.843698e-01
1.847520e-01
1.851255e-01
1.855016e-01
1.858854e-01
1.862794e-01
1.866875e-01
1.871173e-01
1.875785e-01
1.880779e-01
1.886145e-01
1.891760e-01
1.897397e-01
1.902758e-01
1.907537e-01
1.911486e-01
1.914482e-01
1.916557e-01
1.917910e-01
1.918878e-01
1.919879e-01
1.921317e-01
1.923503e-01
1.926609e-01
1.930656e-01
1.935557e-01
1.941174e-01
1.947369e-01
1.954035e-01
1.961079e-01
1.968403e-01
1.975876e-01
1.983332e-01
1.990592e-01
1.997494e-01
2.003931e-01
2.009898e-01
2.015515e-01
2.020981e-01
2.026515e-01
2.032284e-01
2.038366e-01
2.044717e-01
2.051198e-01
2.057647e-01
2.063944e-01
2.070049e-01
2.076023e-01
2.082050e-01
2.088420e-01
2.095462e-01
2.103457e-01
2.112569e-01
2.122804e-01
2.134003e-01
2.145887e-01
2.158143e-01
2.170509e-01
2.182809e-01
2.194942e-01
2.206860e-01
2.218550e-01
2.230029e-01
2.241353e-01
2.252624e-01
2.263992e-01
2.275636e-01
2.287731e-01
2.300438e-01
2.313920e-01
2.328341e-01
2.343833e-01
2.360417e-01
2.377947e-01
2.396114e-01
2.414500e-01
2.432648e-01
2.450117e-01
2.466528e-01
2.481581e-01
2.495050e-01
2.506774e-01
2.516658e-01
2.524627e-01
2.530565e-01
2.534343e-01
2.535909e-01
2.535379e-01
2.533045e-01
2.529330e-01
2.524697e-01
2.519530e-01
2.514077e-01
2.508510e-01
2.503046e-01
2.498043e-01
2.494025e-01
2.491649e-01
2.491615e-01
2.494534e-01
2.500854e-01
2.510854e-01
2.524628e-01
2.542061e-01
2.562830e-01
2.586418e-01
2.612159e-01
2.639311e-01
2.667197e-01
2.695302e-01
2.723259e-01
2.750749e-01
2.777436e-01
2.802995e-01
2.827181e-01
2.849898e-01
2.871214e-01
2.891318e-01
2.910395e-01
2.928468e-01
2.945304e-01
2.960422e-01
2.973212e-01
2.983101e-01
2.989695e-01
2.992874e-01
2.992801e-01
2.989902e-01
2.984813e-01
2.978332e-01
2.971360e-01
2.964854e-01
2.959769e-01
2.956964e-01
2.957131e-01
2.960742e-01
2.968016e-01
2.978884e-01
2.993045e-01
3.010060e-01
3.029404e-01
3.050456e-01
3.072562e-01
3.095127e-01
3.117625e-01
3.139528e-01
3.160295e-01
3.179412e-01
3.196393e-01
3.210743e-01
3.221990e-01
3.229783e-01
3.233937e-01
3.234445e-01
3.231496e-01
3.225472e-01
3.216877e-01
3.206242e-01
3.194088e-01
3.180928e-01
3.167281e-01
3.153709e-01
3.140873e-01
3.129546e-01
3.120530e-01
3.114578e-01
3.112342e-01
3.114300e-01
3.120667e-01
3.131362e-01
3.146051e-01
3.164191e-01
3.185094e-01
3.208061e-01
3.232531e-01
3.258143e-01
3.284657e-01
3.311843e-01
3.339428e-01
3.367076e-01
3.394397e-01
3.421014e-01
3.446670e-01
3.471292e-01
3.494965e-01
3.517857e-01
3.540114e-01
3.561801e-01
3.582860e-01
3.603116e-01
3.622316e-01
3.640188e-01
3.656500e-01
3.671092e-01
3.683921e-01
3.695127e-01
3.705047e-01
3.714143e-01
3.722935e-01
3.731967e-01
3.741820e-01
3.753110e-01
3.766408e-01
3.782120e-01
3.800389e-01
3.821045e-01
3.843620e-01
3.867458e-01
3.891909e-01
3.916491e-01
3.940876e-01
3.964767e-01
3.987823e-01
4.009667e-01
4.029932e-01
4.048326e-01
4.064694e-01
4.079046e-01
4.091501e-01
4.102220e-01
4.111392e-01
4.119222e-01
4.125891e-01
4.131503e-01
4.136103e-01
4.139749e-01
4.142621e-01
4.145079e-01
4.147652e-01
4.150912e-01
4.155275e-01
4.160814e-01
4.167175e-01
4.173680e-01
4.179593e-01
4.184418e-01
4.188054e-01
4.190765e-01
4.193057e-01
4.195509e-01
4.198617e-01
4.202664e-01
4.207723e-01
4.213787e-01
4.220882e-01
4.229070e-01
4.238433e-01
4.249083e-01
4.261128e-01
4.274554e-01
4.289121e-01
4.304365e-01
4.319680e-01
4.334458e-01
4.348265e-01
4.361040e-01
4.373102e-01
4.384948e-01
4.396996e-01
4.409446e-01
4.422259e-01
4.435240e-01
4.448177e-01
4.460982e-01
4.473721e-01
4.486582e-01
4.499836e-01
4.513798e-01
4.528734e-01
4.544777e-01
4.561913e-01
4.580026e-01
4.598939e-01
4.618510e-01
4.638782e-01
4.660049e-01
4.682776e-01
4.707509e-01
4.734879e-01
4.765610e-01
4.800390e-01
4.839692e-01
4.883684e-01
4.932198e-01
4.984676e-01
5.040154e-01
5.097372e-01
5.154948e-01
5.211547e-01
5.266025e-01
5.317588e-01
5.365848e-01
5.410705e-01
5.452127e-01
5.490025e-01
5.524267e-01
5.554814e-01
5.581860e-01
5.605841e-01
5.627307e-01
5.646789e-01
5.664789e-01
5.681891e-01
5.698893e-01
5.716778e-01
5.736460e-01
5.758480e-01
5.782894e-01
5.809425e-01
5.837769e-01
5.867866e-01
5.899993e-01
5.934627e-01
5.972151e-01
6.012564e-01
6.055364e-01
6.099656e-01
6.144401e-01
6.188682e-01
6.231931e-01
6.274068e-01
6.315508e-01
6.357048e-01
6.399699e-01
6.444524e-01
6.492417e-01
6.543846e-01
6.598672e-01
6.656135e-01
6.714990e-01
6.773736e-01
6.830915e-01
6.885423e-01
6.936661e-01
6.984369e-01
7.028261e-01
7.067823e-01
7.102438e-01
7.131699e-01
7.155649e-01
7.174777e-01
7.189735e-01
7.200974e-01
7.208580e-01
7.212370e-01
7.212165e-01
7.208059e-01
7.200570e-01
7.190650e-01
7.179656e-01
7.169333e-01
7.161697e-01
7.158749e-01
7.162049e-01
7.172333e-01
7.189350e-01
7.211984e-01
7.238564e-01
7.267218e-01
7.296193e-01
7.324074e-01
7.349902e-01
7.373264e-01
7.394324e-01
7.413746e-01
7.432516e-01
7.451724e-01
7.472319e-01
7.494934e-01
7.519837e-01
7.546958e-01
7.575887e-01
7.605903e-01
7.636065e-01
7.665389e-01
7.693060e-01
7.718621e-01
7.742056e-01
7.763702e-01
7.784015e-01
7.803335e-01
7.821748e-01
7.839008e-01
7.854471e-01
7.867118e-01
7.875689e-01
7.878895e-01
7.875603e-01
7.864999e-01
7.846738e-01
7.821102e-01
7.789110e-01
7.752479e-01
7.713379e-01
7.674058e-01
7.636479e-01
7.602109e-01
7.571809e-01
7.545736e-01
7.523358e-01
7.503684e-01
7.485674e-01
7.468589e-01
7.452157e-01
7.436537e-01
7.422135e-01
7.409357e-01
7.398459e-01
7.389675e-01
7.383534e-01
7.380976e-01
7.383021e-01
7.390135e-01
7.401726e-01
7.415971e-01
7.429939e-01
7.439932e-01
7.442030e-01
7.432706e-01
7.409278e-01
7.370014e-01
7.313899e-01
7.240209e-01
7.148117e-01
7.036431e-01
6.903508e-01
6.747331e-01
6.565674e-01
6.356198e-01
6.116383e-01
5.843371e-01
5.533891e-01
5.184372e-01
4.791171e-01
4.350876e-01
3.860707e-01
3.319077e-01
2.726198e-01
2.084438e-01
1.398274e-01
6.739394e-02
-8.114482e-03
-8.591633e-02
-1.652855e-01
-2.456316e-01
-3.265307e-01
-4.076944e-01
-4.889009e-01
-5.699310e-01
-6.505499e-01
-7.305405e-01
-8.097620e-01
-8.881886e-01
-9.658950e-01
-1.042993e+00
-1.119557e+00
-1.195588e+00
-1.271045e+00
-1.345918e+00
-1.420295e+00
-1.494350e+00
-1.568262e+00
-1.642111e+00
-1.715837e+00
-1.789262e+00
-1.862164e+00
-1.934342e+00
-2.005639e+00
-2.075912e+00
-2.144986e+00
-2.212618e+00
-2.278481e+00
-2.342156e+00
-2.403127e+00
-2.460800e+00
-2.514541e+00
-2.563723e+00
-2.607782e+00
-2.646251e+00
-2.678786e+00
-2.705181e+00
-2.725369e+00
-2.739392e+00
-2.747347e+00
-2.749320e+00
-2.745355e+00
-2.735475e+00
-2.719724e+00
-2.698210e+00
-2.671131e+00
-2.638785e+00
-2.601571e+00
-2.559971e+00
-2.514530e+00
-2.465819e+00
-2.414410e+00
-2.360859e+00
-2.305700e+00
-2.249436e+00
-2.192529e+00
-2.135402e+00
-2.078433e+00
-2.021948e+00
-1.966185e+00
-1.911290e+00
-1.857311e+00
-1.804229e+00
-1.751964e+00
-1.700382e+00
-1.649301e+00
-1.598497e+00
-1.547742e+00
-1.496827e+00
-1.445599e+00
-1.393964e+00
-1.341869e+00
-1.289308e+00
-1.236341e+00
-1.183112e+00
-1.129852e+00
-1.076851e+00
-1.024428e+00
-9.728917e-01
-9.225098e-01
-8.734711e-01
-8.258634e-01
-7.796641e-01
-7.347470e-01
-6.908989e-01
-6.478494e-01
-6.053127e-01
-5.630324e-01
-5.208177e-01
-4.785695e-01
-4.363009e-01
-3.941490e-01
-3.523720e-01
-3.113228e-01
-2.714011e-01
-2.330000e-01
-1.964738e-01
-1.621316e-01
-1.302397e-01
-1.010154e-01
-7.461670e-02
-5.113794e-02
-3.061579e-02
-1.303716e-02
1.653198e-03
1.354120e-02
2.272816e-02
2.931841e-02
3.341533e-02
3.512337e-02
3.455124e-02
3.182161e-02
2.709454e-02
2.059763e-02
1.264444e-02
3.630425e-03
-5.987403e-03
-1.571206e-02
-2.501939e-02
-3.336654e-02
-4.020938e-02
-4.503628e-02
-4.741451e-02
-4.704068e-02
-4.378619e-02
-3.772602e-02
-2.913666e-02
-1.845540e-02
-6.207490e-03
7.076412e-03
2.092560e-02
3.496489e-02
4.892558e-02
6.263943e-02
7.601785e-02
8.901957e-02
1.016165e-01
1.137701e-01
1.254251e-01
1.365187e-01
1.469935e-01
1.568073e-01
1.659360e-01
1.743739e-01
1.821347e-01
1.892569e-01
1.958078e-01
2.018850e-01
2.076162e-01
2.131559e-01
2.186794e-01
2.243640e-01
2.303640e-01
2.367863e-01
2.436763e-01
2.510129e-01
2.587106e-01
2.666295e-01
2.745891e-01
2.823844e-01
2.897993e-01
2.966205e-01
3.026512e-01
3.077210e-01
3.116862e-01
3.144180e-01
3.157826e-01
3.156271e-01
3.137827e-01
3.100835e-01
3.043903e-01
2.966139e-01
2.867366e-01
2.748246e-01
2.610281e-01
2.455709e-01
2.287370e-01
2.108541e-01
1.922714e-01
1.733319e-01
1.543404e-01
1.355381e-01
1.170921e-01
9.909703e-02
8.158595e-02
6.454571e-02
4.793279e-02
3.168249e-02
1.570885e-02
-1.005650e-04
-1.588720e-02
-3.181503e-02
-4.805639e-02
-6.477773e-02
-8.213075e-02
-1.002477e-01
-1.192371e-01
-1.391783e-01
-1.601119e-01
-1.820255e-01
-2.048354e-01
-2.283752e-01
-2.524024e-01
-2.766275e-01
-3.007511e-01
-3.244919e-01
-3.475935e-01
-3.698166e-01
-3.909315e-01
-4.107212e-01
-4.289919e-01
-4.455840e-01
-4.603818e-01
-4.733230e-01
-4.844092e-01
-4.937098e-01
-5.013490e-01
-5.074795e-01
-5.122523e-01
-5.157974e-01
-5.182183e-01
-5.195985e-01
-5.200098e-01
-5.195119e-01
-5.181499e-01
-5.159568e-01
-5.129641e-01
-5.092081e-01
-5.047245e-01
-4.995370e-01
-4.936535e-01
-4.870688e-01
-4.797686e-01
-4.717308e-01
-4.629250e-01
-4.533164e-01
-4.428731e-01
-4.315709e-01
-4.193922e-01
-4.063191e-01
-3.923247e-01
-3.773687e-01
-3.614048e-01
-3.443969e-01
-3.263345e-01
-3.072388e-01
-2.871550e-01
-2.661365e-01
-2.442322e-01
-2.214882e-01
-1.979627e-01
-1.737436e-01
-1.489587e-01
-1.237775e-01
-9.840950e-02
-7.310056e-02
-4.812341e-02
-2.376149e-02
-2.870343e-04
2.206573e-02
4.312860e-02
6.281812e-02
8.113622e-02
9.815468e-02
1.139929e-01
1.287968e-01
1.427198e-01
1.559054e-01
1.684721e-01
1.805103e-01
1.920871e-01
2.032562e-01
2.140680e-01
2.245777e-01
2.348555e-01
2.449951e-01
2.551160e-01
2.653531e-01
2.758343e-01
2.866566e-01
2.978732e-01
3.094931e-01
3.214863e-01
3.337852e-01
3.462813e-01
3.588231e-01
3.712242e-01
3.832821e-01
3.948038e-01
4.056272e-01
4.156348e-01
4.247638e-01
4.330159e-01
4.404606e-01
4.472257e-01
4.534802e-01
4.594158e-01
4.652287e-01
4.711027e-01
4.771993e-01
4.836608e-01
4.906217e-01
4.982174e-01
5.065827e-01
5.158438e-01
5.261094e-01
5.374626e-01
5.499499e-01
5.635696e-01
5.782612e-01
5.938939e-01
6.102537e-01
6.270338e-01
6.438418e-01
6.602245e-01
6.757080e-01
6.898386e-01
7.022171e-01
7.125230e-01
7.205263e-01
7.260867e-01
7.291425e-01
7.296930e-01
7.277783e-01
7.234608e-01
7.168138e-01
7.079203e-01
6.968789e-01
6.838131e-01
6.688834e-01
6.523016e-01
6.343459e-01
6.153644e-01
5.957600e-01
5.759540e-01
5.563354e-01
5.372142e-01
5.187949e-01
5.011749e-01
4.843626e-01
4.683074e-01
4.529346e-01
4.381746e-01
4.239815e-01
4.103394e-01
3.972647e-01
3.848033e-01
3.730255e-01
3.620220e-01
3.519021e-01
3.427886e-01
3.348055e-01
3.280558e-01
3.226054e-01
3.184785e-01
3.156652e-01
3.141268e-01
3.137937e-01
3.145616e-01
3.162944e-01
3.188361e-01
3.220254e-01
3.257054e-01
3.297250e-01
3.339353e-01
3.381863e-01
3.423258e-01
3.462035e-01
3.496795e-01
3.526361e-01
3.549866e-01
3.566782e-01
3.576898e-01
3.580287e-01
3.577266e-01
3.568312e-01
3.553969e-01
3.534809e-01
3.511493e-01
3.484861e-01
3.455961e-01
3.425945e-01
3.395836e-01
3.366263e-01
3.337276e-01
3.308305e-01
3.278233e-01
3.245514e-01
3.208305e-01
3.164612e-01
3.112424e-01
3.049815e-01
2.975000e-01
2.886348e-01
2.782356e-01
2.661600e-01
2.522703e-01
2.364287e-01
2.184974e-01
1.983420e-01
1.758449e-01
1.509256e-01
1.235596e-01
9.378611e-02
6.169946e-02
2.743744e-02
-8.818332e-03
-4.682412e-02
-8.624956e-02
-1.266680e-01
-1.675750e-01
-2.084310e-01
-2.487174e-01
-2.879872e-01
-3.258972e-01
-3.622118e-01
-3.967844e-01
-4.295350e-01
-4.604362e-01
-4.895107e-01
-5.168337e-01
-5.425354e-01
-5.667972e-01
-5.898359e-01
-6.118767e-01
-6.331210e-01
