EVENT_NAME: CENTRAL_ITALY
EVENT_ID: EMSC-20161026_0000077
EVENT_DATE_YYYYMMDD: 20161026
EVENT_TIME_HHMMSS: 171036
EVENT_LATITUDE_DEGREE: 42.8802
EVENT_LONGITUDE_DEGREE: 13.1275
EVENT_DEPTH_KM: 8.7
HYPOCENTER_REFERENCE: INGV-CNT_Seismic_Bulletin
MAGNITUDE_W: 5.4
MAGNITUDE_W_REFERENCE: INGV-webservice
MAGNITUDE_L: 5.4
MAGNITUDE_L_REFERENCE: INGV-CNT_Seismic_Bulletin
FOCAL_MECHANISM: NF
NETWORK: IT
STATION_CODE: NRC
STATION_NAME: NORCIA
STATION_LATITUDE_DEGREE: 42.792543
STATION_LONGITUDE_DEGREE: 13.096475
STATION_ELEVATION_M: 616
LOCATION: 
SENSOR_DEPTH_M: 0.0
VS30_M/S: 687
SITE_CLASSIFICATION_EC8: B
MORPHOLOGIC_CLASSIFICATION: SL
EPICENTRAL_DISTANCE_KM: 10.1
EARTHQUAKE_BACKAZIMUTH_DEGREE: 14.6
DATE_TIME_FIRST_SAMPLE_YYYYMMDD_HHMMSS: 20161026_171032.909
DATE_TIME_FIRST_SAMPLE_PRECISION: milliseconds
SAMPLING_INTERVAL_S: 0.005000
NDATA: 10588
DURATION_S: 52.940
STREAM: HGE
UNITS: cm/s^2
INSTRUMENT: sensor = Unknown [Unknown] | digitizer = Unknown [Unknown]
INSTRUMENT_ANALOG/DIGITAL: D
INSTRUMENTAL_FREQUENCY_HZ: 
INSTRUMENTAL_DAMPING: 
FULL_SCALE_G: 
N_BIT_DIGITAL_CONVERTER: 
PGA_CM/S^2: 294.742096
TIME_PGA_S: 9.185000
BASELINE_CORRECTION: BASELINE REMOVED
FILTER_TYPE: BUTTERWORTH
FILTER_ORDER: 2
LOW_CUT_FREQUENCY_HZ: 0.070
HIGH_CUT_FREQUENCY_HZ: 30.000
LATE/NORMAL_TRIGGERED: NT
DATABASE_VERSION: DYNA 1.0
HEADER_FORMAT: DYNA 1.2
DATA_TYPE: ACCELERATION
PROCESSING: manual (Paolucci et al., 2011)
DATA_TIMESTAMP_YYYYMMDD_HHMMSS: 20161027_111110.997
DATA_LICENSE: CC-BY3_0-IT (http://creativecommons.org/licenses/by/3.0/deed.en)
DATA_CITATION: ESM working group (2015), European Strong-Motion database, version 0.1, Network Activity 3: Networking acceleration networks and SM data users. Project NERA (www.nera-eu.org)
DATA_CREATOR: ESM working group
ORIGINAL_DATA_MEDIATOR_CITATION: Ufficio Rischio Sismico e Vulcanico del Dipartimento della Protezione Civile (http://www.protezionecivile.gov.it/)
ORIGINAL_DATA_MEDIATOR: Rete Accelerometrica Nazionale - RAN Download (http://www.mot1.it/randownload/)
ORIGINAL_DATA_CREATOR_CITATION: Italian Strong Motion Network, Italian Civil Protection Department http://www.protezionecivile.gov.it
ORIGINAL_DATA_CREATOR: network: IT (Italian Strong Motion Network); owner: Dipartimento Della Protezione Civile
USER1: /home/dyna/processing-itaca/processing.py /var/www/processing//tmp/felicetta//IT.NRC..HGE.D.20161026.171036.X.ACC.ASC /var/www/processing//tmp/felicetta//IT.NRC..HGN.D.20161026.171036.X.ACC.ASC /var/www/processing//tmp/felicetta//IT.NRC..HGZ.D.20161026.171036.X.ACC.ASC --tmp /var/www/processing//tmp/felicetta/ --le 0.07 --he 30.000 --ln 0.07 --hn 30.000 --lz 0.07 --hz 30.000 --fo 2 --ca 0 --cz 70 --ta 5 --tz 5 --mf 1 --rf 0 --tr NT
USER2: 
USER3: 
USER4: 
USER5: 
[...]
-0.012454
-0.010061
-0.002796
0.006902
0.014393
0.016867
0.015279
0.012098
0.009271
0.007290
0.005120
0.002119
-0.001021
-0.003022
-0.002294
0.002152
0.009161
0.015815
0.018858
0.015970
0.007857
-0.001844
-0.009665
-0.013267
-0.010779
-0.002190
0.009002
0.017015
0.018011
0.013279
0.006949
0.001308
-0.003075
-0.004436
-0.001279
0.004908
0.011038
0.014932
0.015793
0.013698
0.009650
0.005446
0.002337
0.000410
-0.000708
-0.001092
-0.000368
0.001514
0.003679
0.004652
0.003791
0.002898
0.004609
0.008722
0.011941
0.011156
0.006591
0.001856
0.000144
0.001636
0.005290
0.010264
0.014978
0.016907
0.014029
0.006666
-0.001981
-0.007800
-0.008381
-0.003636
0.004628
0.012948
0.017715
0.017781
0.014800
0.010697
0.005898
0.000517
-0.004094
-0.006694
-0.007666
-0.007165
-0.003943
0.002592
0.011078
0.018840
0.022560
0.019639
0.010401
-0.001085
-0.009184
-0.010612
-0.006160
0.001375
0.009314
0.015033
0.016379
0.013211
0.007539
0.002248
-0.000028
0.001953
0.006848
0.011347
0.012681
0.010271
0.005521
0.000477
-0.003205
-0.004433
-0.003032
0.000508
0.005409
0.010059
0.012558
0.012152
0.009885
0.007749
0.006628
0.006034
0.005748
0.006289
0.007652
0.008472
0.007561
0.005495
0.003079
0.000205
-0.001980
-0.000315
0.006444
0.014556
0.018683
0.017107
0.011853
0.005248
-0.001353
-0.006071
-0.007022
-0.004452
0.000326
0.006665
0.013202
0.017090
0.016419
0.012492
0.008591
0.006521
0.005546
0.004294
0.002522
0.001500
0.002346
0.004262
0.005723
0.006360
0.006833
0.007644
0.008619
0.009261
0.009072
0.007598
0.004863
0.002112
0.001293
0.002853
0.005110
0.006536
0.007385
0.008790
0.010779
0.011606
0.010009
0.007393
0.005990
0.005772
0.005133
0.003555
0.001830
0.000775
0.000481
0.000453
0.000988
0.003285
0.007439
0.012264
0.016449
0.018474
0.017500
0.014658
0.011684
0.008797
0.005266
0.001398
-0.001554
-0.002649
-0.001327
0.002371
0.007102
0.010697
0.011411
0.009087
0.005441
0.002503
0.000835
0.000070
0.000597
0.003182
0.007418
0.011750
0.014188
0.013595
0.011499
0.010512
0.010938
0.011204
0.010229
0.008338
0.006544
0.005006
0.003583
0.003102
0.003909
0.004963
0.005700
0.006841
0.008452
0.008861
0.006705
0.003546
0.002547
0.004522
0.007649
0.009977
0.010667
0.010168
0.009286
0.008498
0.007846
0.006537
0.004320
0.002873
0.003976
0.007260
0.010833
0.013102
0.013092
0.010339
0.005533
0.000610
-0.002312
-0.001946
0.001945
0.008320
0.014587
0.017573
0.015934
0.011440
0.006844
0.003426
0.001500
0.001420
0.003170
0.005896
0.008212
0.009015
0.008131
0.006156
0.004110
0.003320
0.004269
0.005724
0.006251
0.005861
0.005847
0.007399
0.010242
0.012765
0.013207
0.011033
0.007686
0.005643
0.006512
0.009518
0.012049
0.011921
0.008600
0.003388
-0.001046
-0.002547
-0.001162
0.001892
0.006600
0.012928
0.018103
0.018992
0.015949
0.011793
0.008362
0.005450
0.002695
0.000914
0.000429
0.000321
0.000864
0.003623
0.008483
0.013311
0.015981
0.015637
0.012729
0.008331
0.004218
0.002600
0.004294
0.007941
0.011135
0.012215
0.011117
0.008355
0.005126
0.003769
0.005473
0.008833
0.011007
0.009728
0.005446
0.001020
-0.000651
0.001288
0.004629
0.006836
0.008635
0.011929
0.016025
0.018304
0.016843
0.012022
0.006610
0.003379
0.002564
0.002610
0.002302
0.001684
0.002324
0.006111
0.012203
0.016768
0.017111
0.013998
0.009881
0.006814
0.005379
0.004719
0.003656
0.001621
-0.000954
-0.002868
-0.002806
0.000199
0.006233
0.013900
0.020689
0.024288
0.023427
0.017890
0.008541
-0.001997
-0.009232
-0.009648
-0.003901
0.004674
0.013503
0.020875
0.024730
0.023591
0.018063
0.010559
0.003843
-0.000314
-0.001522
-0.000356
0.001611
0.002482
0.002211
0.002819
0.006023
0.011508
0.016965
0.019598
0.018127
0.013564
0.007876
0.002563
-0.001105
-0.002287
-0.000713
0.004342
0.012380
0.019490
0.021620
0.018302
0.011501
0.003952
-0.001101
-0.001556
0.001633
0.005632
0.008743
0.011050
0.012774
0.013531
0.013169
0.012571
0.012545
0.012063
0.009772
0.006595
0.004279
0.002663
0.000915
0.000412
0.003374
0.008877
0.013323
0.014591
0.013441
0.011440
0.009003
0.006091
0.003802
0.003200
0.003423
0.003024
0.002392
0.003401
0.006709
0.010639
0.013422
0.015001
0.015943
0.015865
0.013410
0.008271
0.002929
0.000433
0.001148
0.003934
0.008222
0.012414
0.013864
0.012092
0.009242
0.007297
0.005874
0.003509
0.000941
0.000513
0.002898
0.006739
0.010269
0.012273
0.012507
0.011638
0.010808
0.011150
0.012797
0.014341
0.014088
0.011657
0.008239
0.005792
0.005768
0.007785
0.009750
0.010265
0.009965
0.009630
0.008732
0.006232
0.001956
-0.002647
-0.005190
-0.003670
0.002312
0.011079
0.019909
0.025974
0.027410
0.024397
0.018082
0.009646
0.001300
-0.003956
-0.004999
-0.003758
-0.002470
-0.001089
0.001521
0.005283
0.008906
0.011560
0.013807
0.016594
0.019208
0.019193
0.014787
0.007046
-0.000110
-0.002654
0.000316
0.006932
0.014960
0.022384
0.026308
0.023651
0.014248
0.001779
-0.009022
-0.014986
-0.014651
-0.007579
0.005013
0.019254
0.030117
0.034742
0.033372
0.027163
0.017092
0.005391
-0.004913
-0.012551
-0.017223
-0.017014
-0.009688
0.003786
0.018274
0.028219
0.032275
0.031626
0.025719
0.014113
-0.000120
-0.011977
-0.017391
-0.014625
-0.005096
0.007269
0.018129
0.024999
0.027890
0.026734
0.020696
0.012132
0.005739
0.002284
-0.001222
-0.006020
-0.009840
-0.009613
-0.004564
0.004218
0.015130
0.024791
0.029453
0.028952
0.025854
0.021591
0.015601
0.007398
-0.001633
-0.008603
-0.011111
-0.008833
-0.002957
0.005109
0.013425
0.019630
0.022404
0.021910
0.019161
0.014654
0.007945
0.000003
-0.006009
-0.007246
-0.002695
0.006726
0.018276
0.028440
0.034003
0.032303
0.022227
0.005656
-0.012357
-0.025000
-0.027019
-0.017921
-0.002172
0.013521
0.024296
0.028803
0.027350
0.021123
0.013226
0.007718
0.006816
0.009638
0.012815
0.012715
0.008666
0.002602
-0.003605
-0.007884
-0.008131
-0.004400
0.001623
0.009397
0.018980
0.026884
0.027129
0.018343
0.005111
-0.006897
-0.013125
-0.010572
0.000612
0.016619
0.031367
0.039175
0.037279
0.026481
0.010764
-0.004266
-0.014253
-0.017179
-0.012952
-0.003944
0.005690
0.012721
0.016337
0.017468
0.017400
0.016437
0.014240
0.011912
0.011297
0.011707
0.010339
0.006116
0.001439
-0.000618
-0.000117
0.001309
0.003951
0.008061
0.011781
0.013953
0.015156
0.015565
0.014965
0.013533
0.011139
0.007616
0.003788
0.001044
0.000135
0.000857
0.002985
0.006731
0.011540
0.015620
0.017318
0.015974
0.011931
0.006323
0.000321
-0.004372
-0.005127
-0.001100
0.005770
0.013752
0.021543
0.026150
0.024832
0.018105
0.008797
0.000226
-0.004565
-0.004284
-0.000210
0.005066
0.009188
0.011033
0.011173
0.010744
0.010020
0.009169
0.009155
0.010476
0.012415
0.013927
0.013861
0.011294
0.006938
0.002924
0.001115
0.002490
0.006242
0.007953
-0.000168
-0.025577
-0.070621
-0.130963
-0.198382
-0.264003
-0.319644
-0.358725
-0.375576
-0.361747
-0.305833
-0.202134
-0.057478
0.114861
0.302441
0.490154
0.658311
0.790622
0.877706
0.910915
0.881414
0.788302
0.642708
0.463384
0.269980
0.077859
-0.103812
-0.270905
-0.421353
-0.549433
-0.641063
-0.678033
-0.650867
-0.571183
-0.472597
-0.395194
-0.363300
-0.374549
-0.407610
-0.437119
-0.441975
-0.409946
-0.342942
-0.252185
-0.144445
-0.020184
0.114483
0.243160
0.346343
0.402924
0.386715
0.279272
0.090073
-0.150392
-0.416044
-0.687372
-0.936443
-1.129293
-1.232575
-1.208426
-1.029256
-0.713283
-0.326890
0.057410
0.397078
0.679507
0.905421
1.084202
1.237253
1.387050
1.540758
1.692929
1.838070
1.971203
2.082323
2.160439
2.199099
2.192538
2.137099
2.037555
1.892674
1.670690
1.312167
0.761488
-0.000782
-0.942523
-1.983260
-3.012507
-3.919765
-4.624662
-5.089500
-5.307932
-5.283427
-5.020837
-4.533625
-3.841003
-2.957749
-1.915352
-0.801785
0.243605
1.085511
1.638455
1.880867
1.860440
1.675242
1.407190
1.061324
0.577426
-0.111091
-1.037746
-2.177398
-3.394613
-4.424434
-4.977534
-4.903795
-4.254912
-3.227679
-2.093765
-1.139945
-0.574989
-0.454542
-0.696419
-1.141005
-1.602046
-1.923161
-2.021429
-1.861959
-1.396963
-0.580549
0.547569
1.860302
3.256789
4.734679
6.328108
7.992736
9.546472
10.683982
11.040519
10.348582
8.674442
6.474424
4.289951
2.381676
0.724890
-0.676699
-1.581737
-1.652148
-0.733383
1.037086
3.254350
5.247107
6.211506
5.626424
3.592501
0.658947
-2.630865
-5.913929
-8.895513
-11.328639
-13.091824
-14.133208
-14.368440
-13.733412
-12.278839
-10.148492
-7.519709
-4.563915
-1.429671
1.656083
4.259949
5.865431
6.193366
5.394692
4.013101
2.772358
2.192984
2.213894
2.202859
1.463131
-0.182028
-2.240113
-3.941094
-4.781411
-4.720407
-4.031399
-3.202391
-2.896190
-3.661704
-5.528232
-7.927544
-9.942630
-10.572387
-9.105474
-5.689661
-1.421510
2.483643
5.531436
7.860331
9.732545
11.380232
12.962537
14.409122
15.576844
16.557978
17.408083
17.594805
16.201153
12.801926
7.926816
2.744402
-1.437493
-3.585529
-3.472257
-1.931302
-0.249466
0.708030
0.636007
-0.494133
-2.359376
-4.294472
-5.900984
-7.350100
-8.776469
-9.848421
-10.226336
-9.968639
-9.224597
-7.924217
-5.989326
-3.541972
-0.732270
2.400564
5.751051
8.989495
11.659675
13.280405
13.344625
11.602746
8.624952
5.774718
4.289928
4.511983
5.959525
7.702403
8.614819
7.752076
4.810974
0.205168
-5.303940
-10.917855
-15.776554
-18.888887
-19.344603
-16.787777
-11.807755
-5.806050
-0.349064
3.442165
5.110618
4.807762
3.143767
1.013924
-0.658749
-1.321884
-1.073667
-0.517985
-0.359706
-1.122193
-3.027282
-5.880334
-9.029770
-11.504126
-12.267239
-10.592419
-6.416602
-0.317835
6.795646
13.843849
19.687382
23.542976
25.305172
25.285662
23.839720
21.316442
17.950768
13.701476
8.594996
3.314301
-0.825328
-2.608811
-1.718067
1.028159
4.201551
6.547255
7.337791
6.430456
4.299346
1.644356
-1.275112
-4.535360
-7.705666
-9.735163
-9.996080
-8.955956
-7.447790
-5.685699
-3.371498
-0.277016
3.802899
9.194603
15.775280
22.508959
27.977036
31.108553
31.255787
28.119701
22.046923
14.259402
6.473519
0.082459
-4.446284
-7.530151
-9.873054
-11.825549
-13.270035
-13.999138
-14.070088
-13.841413
-13.744351
-14.007689
-14.594957
-15.364748
-16.170105
-16.789310
-16.937166
-16.408958
-15.125438
-13.123760
-10.613329
-7.865142
-4.889980
-1.369045
2.953795
7.896073
12.892689
17.275126
20.480247
22.205879
22.490133
21.611391
19.893364
17.576801
14.836381
11.926307
9.307002
7.521434
6.771065
6.630031
6.383621
5.625349
4.336206
2.499862
-0.096956
-3.707265
-8.436160
-14.185230
-20.581375
-26.876272
-32.080536
-35.316376
-35.964931
-33.613022
-28.278677
-20.728643
-12.269931
-4.261540
2.196657
6.636844
9.479110
11.534189
13.183682
14.238114
14.443010
13.852386
12.764489
11.546828
10.569361
10.071286
9.938692
9.787412
9.428116
9.040425
8.742312
8.309811
7.487584
6.211400
4.360708
1.674776
-1.829011
-5.576684
-8.735821
-10.655331
-11.138320
-10.619930
-9.935459
-9.605276
-9.492194
-9.240665
-8.724029
-7.988999
-7.059355
-5.877732
-4.364170
-2.552383
-0.605168
1.306302
2.999970
4.339502
5.507038
6.929818
8.741659
10.546563
11.739601
11.856401
10.655026
8.136414
4.694254
1.143302
-1.712780
-3.617852
-4.835887
-5.719319
-6.477845
-7.129987
-7.480270
-7.323542
-6.710265
-5.862420
-4.904121
-3.736032
-2.000974
0.805276
4.875566
9.669207
14.140603
17.343527
18.676086
17.824875
14.900540
10.541934
5.515108
0.309554
-4.576371
-8.329250
-10.358839
-10.883678
-10.510735
-9.480571
-7.626648
-4.776692
-0.939909
3.807161
9.485358
16.079258
23.189457
29.943575
35.177795
37.725349
36.933071
33.112434
27.343004
20.781532
14.103852
7.350233
0.207675
-7.383274
-14.811000
-20.988869
-24.884605
-25.854435
-23.773155
-19.217564
-13.436322
-7.710850
-2.672388
1.584302
4.982221
7.395226
8.854442
9.485982
9.366457
8.621088
7.430368
5.671909
2.755588
-2.026968
-9.231173
-19.254650
-32.071842
-46.841068
-62.108562
-76.474480
-88.908035
-98.654045
-105.300613
-109.032249
-110.541824
-110.506584
-109.327461
-107.510025
-105.921844
-105.299980
-105.643616
-106.370903
-107.069305
-107.866302
-109.023499
-110.503654
-112.168617
-114.207222
-117.171989
-121.668922
-128.048172
-136.264923
-145.932587
-156.479858
-167.257462
-177.518219
-186.363297
-192.929382
-196.878601
-198.603867
-198.595062
-196.536758
-191.238342
-181.447098
-166.581238
-146.825485
-122.967430
-96.397011
-69.023262
-42.811749
-19.191179
1.340905
19.309492
35.982029
52.806667
70.973419
91.357971
114.524422
140.475784
168.454529
197.079544
224.653244
249.463745
269.988678
284.934845
293.312958
294.742096
289.709595
279.434875
265.487274
249.514999
233.165649
217.995773
205.063263
194.218079
183.722931
170.832230
153.143021
129.786057
101.621864
70.575752
38.952694
9.118125
-16.744549
-36.986790
-50.653694
-57.286163
-56.957340
-50.837440
-41.344765
-31.163782
-21.943941
-13.832543
-5.865646
3.413613
15.400478
30.994837
50.332310
72.603989
96.042885
118.317329
137.139191
150.759323
158.509933
161.184845
160.561768
158.341446
155.507294
152.376648
148.877579
144.697586
139.303574
132.007889
122.293419
110.282394
96.872925
83.360466
70.854980
59.931564
50.750336
43.414066
38.124790
35.047142
34.072906
34.644405
35.720043
35.922871
33.856014
28.529987
19.720432
7.915724
-6.138178
-21.741495
-38.090130
-54.004368
-68.001778
-78.828293
-86.041580
-90.092712
-91.861313
-92.103447
-91.137901
-88.735878
-84.202507
-76.794357
-66.453888
-54.374786
-42.682465
-33.250935
-26.771479
-22.934505
-21.214741
-21.365259
-23.517719
-28.078541
-35.349712
-45.003620
-55.864258
-66.210518
-74.346054
-79.059219
-79.846085
-76.982048
-71.480591
-64.813980
-58.350555
-52.847958
-48.377766
-44.574680
-40.892044
-36.745365
-31.579075
-24.967796
-16.784094
-7.286162
2.910658
12.877458
21.492420
27.761299
31.235691
32.247040
31.774157
31.044102
31.155621
32.907436
36.738213
42.662601
50.285480
58.930378
67.757133
75.882820
82.645279
87.880692
91.885414
94.991470
97.085411
97.525177
95.538460
90.681305
83.028946
73.196144
62.258453
51.419144
41.474930
32.494236
23.984045
15.345336
6.197197
-3.681306
-14.640017
-27.225815
-41.862072
-58.492432
-76.481804
-94.730995
-111.936516
-126.914688
-138.845963
-147.411041
-152.789764
-155.397858
-155.482147
-152.984573
-147.843689
-140.412338
-131.586411
-122.610954
-114.776962
-109.057228
-105.675331
-103.865364
-102.126656
-98.926704
-93.370522
-85.405220
-75.655090
-65.098969
-54.665359
-44.985558
-36.361759
-28.691868
-21.448658
-13.969331
-5.824155
2.998830
12.012086
20.268511
26.604082
29.948166
29.609171
25.517193
18.270594
8.877254
-1.695662
-12.863373
-24.371527
-35.928753
-46.904873
-56.348137
-63.306538
-67.217293
-68.004036
-65.821663
-60.871162
-53.557465
-44.633804
-34.899857
-24.767878
-14.371279
-4.021664
5.801380
14.930654
23.704046
32.638935
42.080338
52.110420
62.548557
72.971603
82.835564
91.619675
98.865028
104.120186
106.924767
106.966797
104.295403
99.239052
92.048454
82.725487
71.184143
57.475571
41.922501
25.141531
7.941537
-8.865871
-24.717522
-39.472935
-53.224705
-65.791328
-76.421539
-84.051613
-87.805626
-87.212349
-82.157791
-73.073639
-61.345093
-49.169350
-38.579174
-30.546139
-25.059202
-21.793716
-20.420258
-20.397928
-20.855848
-20.861013
-19.733326
-17.191147
-13.468252
-9.321403
-5.694152
-3.202623
-1.918159
-1.637386
-2.265390
-3.898613
-6.726435
-10.986504
-16.876867
-24.348070
-32.890213
-41.446098
-48.556610
-52.722828
-52.856129
-48.706470
-41.061539
-31.404459
-21.092293
-10.730096
-0.278486
10.415765
21.259823
31.859465
41.642487
50.085236
56.953945
62.404156
66.817505
70.502899
73.535919
75.773285
76.895836
76.488846
74.265762
70.330223
65.194275
59.496929
53.697067
47.952747
42.155495
36.081581
29.638145
23.007601
16.545029
10.615257
5.571646
1.807631
-0.229161
-0.117082
2.293034
6.621309
12.050541
17.727068
22.987741
27.270016
30.096876
31.332174
31.379063
31.009100
31.008686
31.989470
34.311085
37.975689
42.686100
48.121922
54.107582
60.518307
67.107521
73.400406
78.701904
82.265129
83.493713
81.980927
77.468475
69.904854
59.575844
47.201481
33.879230
20.792109
8.852271
-1.453478
-9.987650
-16.848204
-22.384247
-27.265041
-32.342007
-38.221703
-44.820328
-51.260174
-56.223759
-58.529091
-57.523602
-53.159935
-45.980473
-37.087643
-27.856638
-19.393059
-12.195668
-6.327593
-1.797726
1.310703
2.990732
3.411212
2.772829
1.127432
-1.553861
-5.215798
-9.779950
-15.258688
-21.580124
-28.328072
-34.768291
-40.052052
-43.350586
-43.978493
-41.588634
-36.320042
-28.772631
-19.787134
-10.136743
-0.372307
9.082265
17.800941
25.360542
31.389769
35.610184
37.955833
38.703327
38.359360
37.295479
35.515320
32.793633
28.905161
23.653097
16.855221
8.458327
-1.361614
-12.203963
-23.490957
-34.584171
-44.949730
-54.201733
-62.007721
-68.062141
-72.186172
-74.351982
-74.563904
-72.847717
-69.458565
-64.979332
-60.071095
-55.185131
-50.593979
-46.565842
-43.352943
-41.072384
-39.694061
-39.070908
-38.922737
-38.875027
-38.550522
-37.600845
-35.754490
-32.960781
-29.465298
-25.732695
-22.326599
-19.705622
-17.928520
-16.616928
-15.338931
-13.984880
-12.703727
-11.519627
-10.112312
-8.043377
-5.162945
-1.743459
1.736356
4.924978
7.792810
10.517772
13.211978
15.852080
18.429861
21.035641
23.801298
26.843510
30.251194
34.047489
38.122574
42.226536
46.056248
49.372864
52.085209
54.277599
56.177536
58.077869
60.251015
62.874790
65.990631
69.534943
73.440758
77.715843
82.404472
87.489578
92.842720
98.230545
103.343857
107.813828
111.204788
113.044029
112.929451
110.637199
106.128128
99.506538
91.042839
81.195541
70.514244
59.466835
48.305882
37.029785
25.420723
13.115219
-0.278656
-14.989983
-30.879751
-47.338696
-63.387920
-77.978600
-90.320030
-100.021591
-107.009560
-111.404839
-113.552086
-114.110367
-113.919014
-113.623459
-113.425041
