EVENT_NAME: CENTRAL_ITALY
EVENT_ID: EMSC-20161026_0000095
EVENT_DATE_YYYYMMDD: 20161026
EVENT_TIME_HHMMSS: 191806
EVENT_LATITUDE_DEGREE: 42.9087
EVENT_LONGITUDE_DEGREE: 13.1288
EVENT_DEPTH_KM: 7.5
HYPOCENTER_REFERENCE: INGV-CNT_Seismic_Bulletin
MAGNITUDE_W: 5.9
MAGNITUDE_W_REFERENCE: INGV-webservice
MAGNITUDE_L: 5.9
MAGNITUDE_L_REFERENCE: INGV-CNT_Seismic_Bulletin
FOCAL_MECHANISM: NF
NETWORK: IT
STATION_CODE: NRC
STATION_NAME: NORCIA
STATION_LATITUDE_DEGREE: 42.792543
STATION_LONGITUDE_DEGREE: 13.096475
STATION_ELEVATION_M: 616
LOCATION: 
SENSOR_DEPTH_M: 0.0
VS30_M/S: 687
SITE_CLASSIFICATION_EC8: B
MORPHOLOGIC_CLASSIFICATION: SL
EPICENTRAL_DISTANCE_KM: 13.2
EARTHQUAKE_BACKAZIMUTH_DEGREE: 11.6
DATE_TIME_FIRST_SAMPLE_YYYYMMDD_HHMMSS: 20161026_191803.139
DATE_TIME_FIRST_SAMPLE_PRECISION: milliseconds
SAMPLING_INTERVAL_S: 0.005000
NDATA: 11542
DURATION_S: 57.710
STREAM: HGE
UNITS: cm/s
INSTRUMENT: sensor = Unknown [Unknown] | digitizer = Unknown [Unknown]
INSTRUMENT_ANALOG/DIGITAL: D
INSTRUMENTAL_FREQUENCY_HZ: 
INSTRUMENTAL_DAMPING: 
FULL_SCALE_G: 
N_BIT_DIGITAL_CONVERTER: 
PGV_CM/S: -16.241285
TIME_PGV_S: 10.170000
BASELINE_CORRECTION: BASELINE REMOVED
FILTER_TYPE: BUTTERWORTH
FILTER_ORDER: 2
LOW_CUT_FREQUENCY_HZ: 0.040
HIGH_CUT_FREQUENCY_HZ: 30.000
LATE/NORMAL_TRIGGERED: NT
DATABASE_VERSION: DYNA 1.0
HEADER_FORMAT: DYNA 1.2
DATA_TYPE: VELOCITY
PROCESSING: manual (Paolucci et al., 2011)
DATA_TIMESTAMP_YYYYMMDD_HHMMSS: 20161027_011428.535
DATA_LICENSE: CC-BY3_0-IT (http://creativecommons.org/licenses/by/3.0/deed.en)
DATA_CITATION: ESM working group (2015), European Strong-Motion database, version 0.1, Network Activity 3: Networking acceleration networks and SM data users. Project NERA (www.nera-eu.org)
DATA_CREATOR: ESM working group
ORIGINAL_DATA_MEDIATOR_CITATION: Ufficio Rischio Sismico e Vulcanico del Dipartimento della Protezione Civile (http://www.protezionecivile.gov.it/)
ORIGINAL_DATA_MEDIATOR: Rete Accelerometrica Nazionale - RAN Download (http://www.mot1.it/randownload/)
ORIGINAL_DATA_CREATOR_CITATION: Italian Strong Motion Network, Italian Civil Protection Department http://www.protezionecivile.gov.it
ORIGINAL_DATA_CREATOR: network: IT (Italian Strong Motion Network); owner: Dipartimento Della Protezione Civile
USER1: /home/dyna/processing-itaca/processing.py /var/www/processing//tmp/Lucia//IT.NRC..HGE.D.20161026.191806.X.ACC.ASC /var/www/processing//tmp/Lucia//IT.NRC..HGN.D.20161026.191806.X.ACC.ASC /var/www/processing//tmp/Lucia//IT.NRC..HGZ.D.20161026.191806.X.ACC.ASC --tmp /var/www/processing//tmp/Lucia/ --le 0.040 --he 30.000 --ln 0.040 --hn 30.000 --lz 0.040 --hz 30.000 --fo 2 --ca 0 --cz 100 --ta 5 --tz 5 --mf 1 --rf 0 --tr NT
USER2: 
USER3: 
USER4: 
USER5: 
[...]
0.020481
0.020507
0.020523
0.020495
0.020389
0.020210
0.019993
0.019780
0.019601
0.019480
0.019428
0.019440
0.019500
0.019596
0.019709
0.019825
0.019950
0.020115
0.020349
0.020646
0.020973
0.021280
0.021512
0.021617
0.021578
0.021438
0.021260
0.021093
0.020965
0.020885
0.020842
0.020824
0.020832
0.020866
0.020912
0.020943
0.020943
0.020904
0.020828
0.020727
0.020625
0.020546
0.020512
0.020537
0.020614
0.020713
0.020791
0.020825
0.020822
0.020806
0.020801
0.020813
0.020833
0.020841
0.020812
0.020735
0.020628
0.020526
0.020480
0.020533
0.020698
0.020943
0.021198
0.021408
0.021549
0.021631
0.021672
0.021693
0.021709
0.021740
0.021808
0.021924
0.022078
0.022243
0.022396
0.022518
0.022596
0.022619
0.022588
0.022529
0.022488
0.022516
0.022643
0.022861
0.023112
0.023328
0.023453
0.023454
0.023321
0.023084
0.022803
0.022550
0.022383
0.022346
0.022456
0.022684
0.022964
0.023218
0.023385
0.023428
0.023343
0.023151
0.022899
0.022653
0.022481
0.022422
0.022461
0.022539
0.022580
0.022524
0.022371
0.022184
0.022049
0.022026
0.022127
0.022336
0.022624
0.022955
0.023306
0.023671
0.024050
0.024434
0.024798
0.025105
0.025307
0.025351
0.025210
0.024895
0.024453
0.023953
0.023464
0.023027
0.022657
0.022359
0.022152
0.022065
0.022124
0.022335
0.022686
0.023144
0.023652
0.024120
0.024447
0.024556
0.024446
0.024194
0.023931
0.023787
0.023838
0.024091
0.024487
0.024923
0.025290
0.025508
0.025552
0.025443
0.025237
0.025013
0.024850
0.024800
0.024861
0.024986
0.025108
0.025177
0.025176
0.025124
0.025067
0.025054
0.025120
0.025271
0.025477
0.025677
0.025798
0.025797
0.025684
0.025513
0.025340
0.025205
0.025131
0.025134
0.025222
0.025379
0.025569
0.025758
0.025921
0.026037
0.026086
0.026054
0.025944
0.025789
0.025648
0.025583
0.025626
0.025765
0.025948
0.026103
0.026177
0.026154
0.026059
0.025938
0.025850
0.025850
0.025978
0.026248
0.026646
0.027129
0.027625
0.028051
0.028341
0.028461
0.028400
0.028169
0.027799
0.027342
0.026852
0.026380
0.025976
0.025691
0.025565
0.025602
0.025767
0.026004
0.026266
0.026529
0.026785
0.027036
0.027294
0.027565
0.027839
0.028091
0.028286
0.028387
0.028375
0.028255
0.028060
0.027831
0.027604
0.027410
0.027270
0.027196
0.027180
0.027198
0.027216
0.027200
0.027133
0.027024
0.026913
0.026849
0.026876
0.027027
0.027319
0.027740
0.028244
0.028761
0.029223
0.029577
0.029787
0.029841
0.029744
0.029513
0.029176
0.028775
0.028364
0.027998
0.027715
0.027540
0.027482
0.027532
0.027653
0.027801
0.027946
0.028087
0.028233
0.028402
0.028603
0.028826
0.029046
0.029239
0.029403
0.029543
0.029661
0.029749
0.029797
0.029804
0.029785
0.029774
0.029813
0.029925
0.030101
0.030308
0.030495
0.030612
0.030621
0.030519
0.030333
0.030103
0.029869
0.029659
0.029492
0.029366
0.029273
0.029199
0.029135
0.029079
0.029040
0.029034
0.029078
0.029181
0.029353
0.029603
0.029937
0.030330
0.030724
0.031053
0.031265
0.031346
0.031307
0.031181
0.031014
0.030863
0.030780
0.030806
0.030955
0.031217
0.031554
0.031916
0.032241
0.032471
0.032571
0.032538
0.032403
0.032210
0.031998
0.031798
0.031633
0.031526
0.031497
0.031552
0.031669
0.031812
0.031941
0.032026
0.032048
0.032008
0.031934
0.031870
0.031855
0.031903
0.032000
0.032120
0.032236
0.032332
0.032403
0.032460
0.032515
0.032585
0.032677
0.032789
0.032911
0.033018
0.033088
0.033102
0.033058
0.032968
0.032847
0.032704
0.032545
0.032377
0.032215
0.032074
0.031963
0.031887
0.031849
0.031848
0.031888
0.031977
0.032126
0.032341
0.032610
0.032901
0.033180
0.033425
0.033616
0.033739
0.033780
0.033742
0.033635
0.033488
0.033336
0.033211
0.033132
0.033110
0.033148
0.033246
0.033394
0.033577
0.033780
0.034003
0.034252
0.034528
0.034812
0.035066
0.035246
0.035326
0.035300
0.035184
0.035008
0.034803
0.034590
0.034387
0.034215
0.034088
0.034006
0.033953
0.033907
0.033855
0.033802
0.033771
0.033790
0.033881
0.034048
0.034275
0.034534
0.034789
0.035015
0.035203
0.035358
0.035495
0.035626
0.035757
0.035881
0.035976
0.036023
0.036009
0.035941
0.035844
0.035745
0.035665
0.035621
0.035619
0.035656
0.035723
0.035811
0.035920
0.036049
0.036197
0.036361
0.036529
0.036673
0.036775
0.036829
0.036839
0.036819
0.036789
0.036767
0.036762
0.036770
0.036788
0.036815
0.036842
0.036847
0.036809
0.036721
0.036590
0.036435
0.036280
0.036146
0.036047
0.035988
0.035968
0.035991
0.036063
0.036198
0.036402
0.036669
0.036981
0.037316
0.037651
0.037974
0.038275
0.038552
0.038797
0.039004
0.039155
0.039230
0.039222
0.039139
0.038997
0.038824
0.038647
0.038497
0.038391
0.038325
0.038285
0.038252
0.038211
0.038157
0.038098
0.038049
0.038031
0.038057
0.038126
0.038229
0.038346
0.038455
0.038536
0.038584
0.038593
0.038559
0.038477
0.038338
0.038144
0.037912
0.037662
0.037409
0.037173
0.036975
0.036835
0.036767
0.036781
0.036875
0.037029
0.037208
0.037376
0.037501
0.037547
0.037476
0.037263
0.036898
0.036386
0.035747
0.035021
0.034269
0.033576
0.033021
0.032664
0.032531
0.032618
0.032894
0.033300
0.033761
0.034215
0.034630
0.034995
0.035301
0.035533
0.035687
0.035758
0.035735
0.035612
0.035415
0.035193
0.035004
0.034914
0.035004
0.035343
0.035955
0.036820
0.037866
0.038965
0.039957
0.040729
0.041253
0.041551
0.041632
0.041472
0.041034
0.040283
0.039206
0.037839
0.036317
0.034886
0.033820
0.033282
0.033283
0.033725
0.034429
0.035176
0.035814
0.036353
0.036912
0.037577
0.038340
0.039142
0.039923
0.040613
0.041145
0.041517
0.041801
0.042079
0.042375
0.042641
0.042777
0.042667
0.042230
0.041433
0.040302
0.038957
0.037602
0.036409
0.035377
0.034345
0.033121
0.031575
0.029686
0.027617
0.025737
0.024453
0.023950
0.024107
0.024639
0.025272
0.025809
0.026153
0.026315
0.026400
0.026553
0.026923
0.027641
0.028782
0.030281
0.031901
0.033355
0.034504
0.035408
0.036222
0.037061
0.037891
0.038529
0.038775
0.038601
0.038213
0.037962
0.038156
0.038875
0.039915
0.040887
0.041407
0.041269
0.040571
0.039710
0.039190
0.039387
0.040431
0.042168
0.044137
0.045627
0.045895
0.044515
0.041626
0.037850
0.034030
0.030954
0.029096
0.028452
0.028637
0.029167
0.029666
0.029957
0.030118
0.030472
0.031478
0.033559
0.036952
0.041615
0.047191
0.053051
0.058468
0.062812
0.065616
0.066611
0.065812
0.063535
0.060228
0.056268
0.051915
0.047325
0.042576
0.037732
0.032940
0.028435
0.024459
0.021235
0.018982
0.017826
0.017697
0.018369
0.019585
0.021152
0.022970
0.025033
0.027353
0.029827
0.032235
0.034410
0.036309
0.037853
0.038849
0.039232
0.039256
0.039328
0.039758
0.040683
0.042121
0.044001
0.046173
0.048414
0.050461
0.052079
0.053188
0.054018
0.055138
0.057211
0.060617
0.065229
0.070416
0.075201
0.078591
0.079964
0.079281
0.077032
0.074016
0.071065
0.068812
0.067565
0.067300
0.067719
0.068377
0.068853
0.068923
0.068657
0.068410
0.068690
0.069917
0.072182
0.075189
0.078423
0.081287
0.083142
0.083438
0.081923
0.078714
0.074236
0.069156
0.064309
0.060525
0.058402
0.058162
0.059604
0.062127
0.064842
0.066801
0.067344
0.066286
0.063850
0.060434
0.056418
0.052075
0.047646
0.043486
0.040071
0.037833
0.037000
0.037522
0.039147
0.041628
0.044960
0.049354
0.054921
0.061383
0.068143
0.074553
0.080036
0.084109
0.086551
0.087631
0.087953
0.088019
0.087988
0.087739
0.086924
0.085011
0.081496
0.076237
0.069581
0.062194
0.054860
0.048401
0.043518
0.040511
0.039122
0.038756
0.038862
0.039166
0.039706
0.040821
0.042997
0.046481
0.050989
0.055862
0.060388
0.064004
0.066478
0.068027
0.069117
0.070148
0.071376
0.073073
0.075558
0.079055
0.083532
0.088722
0.094257
0.099801
0.105050
0.109647
0.113120
0.114981
0.114895
0.112704
0.108316
0.101732
0.093191
0.083224
0.072542
0.061850
0.051709
0.042515
0.034520
0.027805
0.022293
0.017806
0.014212
0.011628
0.010476
0.011226
0.014105
0.019050
0.025693
0.033228
0.040495
0.046476
0.050729
0.053356
0.054692
0.055092
0.054721
0.053354
0.050512
0.045970
0.040094
0.033692
0.027721
0.023152
0.020791
0.021016
0.023775
0.028851
0.036049
0.045288
0.056715
0.070689
0.087561
0.107333
0.129400
0.152567
0.175253
0.195674
0.212142
0.223659
0.230343
0.233117
0.232978
0.230593
0.226346
0.220343
0.212284
0.201526
0.187414
0.169767
0.149375
0.128109
0.108442
0.092643
0.082013
0.076443
0.074701
0.075220
0.076762
0.078799
0.081619
0.085959
0.092235
0.099889
0.107312
0.112302
0.112742
0.107227
0.095563
0.078982
0.059920
0.041510
0.027052
0.019370
0.020013
0.028752
0.043729
0.062113
0.080950
0.098023
0.112327
0.123914
0.133310
0.140889
0.146483
0.149450
0.149114
0.145202
0.138039
0.128741
0.119356
0.112322
0.109329
0.110671
0.115399
0.121634
0.127007
0.129623
0.128983
0.125948
0.122098
0.119477
0.120532
0.127400
0.140847
0.159902
0.182239
0.204704
0.223983
0.237669
0.245121
0.247331
0.246001
0.242660
0.238358
0.233797
0.229588
0.226473
0.225414
0.227368
0.232877
0.241895
0.254153
0.269631
0.288417
0.309833
0.331689
0.350609
0.363325
0.367718
0.362965
0.349382
0.328219
0.301071
0.269366
0.234478
0.197689
0.159371
0.118776
0.075551
0.031320
-0.010605
-0.046678
-0.074289
-0.092666
-0.103348
-0.109057
-0.111343
-0.109269
-0.100058
-0.080376
-0.047510
-0.000679
0.058374
0.126414
0.199997
0.275470
0.348667
0.415366
0.471778
0.514811
0.543036
0.557720
0.562113
0.559136
0.549788
0.533751
0.511178
0.483726
0.454333
0.426326
0.402084
0.381525
0.361464
0.336713
0.302360
0.255818
0.197770
0.131886
0.063569
-0.001451
-0.057986
-0.101768
-0.129625
-0.139453
-0.130111
-0.101705
-0.056088
0.003331
0.072230
0.145470
0.217366
0.283213
0.340311
0.386871
0.421040
0.442112
0.451303
0.449965
0.438070
0.415331
0.382344
0.339626
0.286982
0.224945
0.155859
0.083079
0.010160
-0.058980
-0.120479
-0.171901
-0.212685
-0.243081
-0.263207
-0.272937
-0.271450
-0.256707
-0.226538
-0.180326
-0.119053
-0.044720
0.039171
0.127331
0.213906
0.293782
0.362797
0.418069
0.459333
0.489409
0.512239
0.530263
0.543729
0.551711
0.552954
0.546411
0.532344
0.513125
0.492428
0.473477
0.457828
0.445153
0.433731
0.421177
0.405132
0.383990
0.357435
0.326244
0.291834
0.256580
0.224136
0.198388
0.181928
0.175837
0.180634
0.197069
0.225792
0.265957
0.314248
0.365368
0.413120
0.451518
0.476750
0.489024
0.491647
0.487688
0.477821
0.461125
0.436873
0.405309
0.367876
0.327366
0.287040
0.249091
0.214392
0.183437
0.156595
0.133370
0.112257
0.091983
0.072928
0.057445
0.049165
0.051454
0.065199
0.087264
0.110769
0.127219
0.130098
0.118266
0.096505
0.072709
0.054233
0.045825
0.049051
0.062164
0.080931
0.101178
0.121292
0.141893
0.163751
0.187260
0.213014
0.240899
0.268507
0.291346
0.304875
0.306316
0.295542
0.276153
0.255494
0.241237
0.236916
0.240965
0.248996
0.256274
0.259611
0.258746
0.256090
0.254784
0.257223
0.265087
0.279234
0.298723
0.320851
0.342729
0.362262
0.378251
0.391421
0.405450
0.425339
0.454537
0.494648
0.547399
0.614623
0.695603
0.786039
0.879845
0.970287
1.049555
1.109561
1.144347
1.151530
1.131980
1.089568
1.031251
0.965205
0.897132
0.828449
0.757954
0.684833
0.610949
0.540929
0.479616
0.429310
0.389652
0.359997
0.342031
0.340046
0.357704
0.393637
0.440402
0.488275
0.530618
0.566885
0.601944
0.642534
0.692675
0.750480
0.808262
0.855995
0.885841
0.894906
0.885627
0.864974
0.842732
0.828810
0.830795
0.853033
0.896501
0.957853
1.028574
1.096517
1.149265
1.177098
1.174915
1.143583
1.090156
1.024761
0.954167
0.877847
0.791232
0.692306
0.585220
0.479000
0.382563
0.299153
0.224786
0.152104
0.075810
-0.004095
-0.082130
-0.149782
-0.198394
-0.219870
-0.206474
-0.152718
-0.058964
0.066001
0.205679
0.340338
0.452699
0.531599
0.573065
0.579508
0.557623
0.516557
0.467232
0.421213
0.388441
0.375400
0.384152
0.411906
0.452296
0.498067
0.542402
0.578586
0.600315
0.603237
0.586484
0.553428
0.511217
0.468695
0.432921
0.406264
0.386395
0.368263
0.345197
0.309271
0.252929
0.171428
0.064115
-0.065832
-0.212075
-0.365228
-0.512727
-0.639836
-0.732623
-0.781986
-0.786428
-0.751589
-0.687386
-0.606004
-0.521453
-0.447572
-0.393477
-0.360210
-0.341694
-0.328629
-0.312405
-0.288040
-0.255565
-0.217965
-0.175669
-0.122832
-0.051150
0.040903
0.142285
0.231812
0.284897
0.279358
0.199864
0.041958
-0.186477
-0.468560
-0.785272
-1.122312
-1.473800
-1.841842
-2.233719
-2.658461
-3.123538
-3.633140
-4.189522
-4.796294
-5.460243
-6.189593
-6.990394
-7.864018
-8.805890
-9.803384
-10.832598
-11.857574
-12.835208
-13.723280
-14.486691
-15.101685
-15.560371
-15.873829
-16.069218
-16.179823
-16.232754
-16.241285
-16.206022
-16.123783
-15.998113
-15.844303
-15.685320
-15.541290
-15.419629
-15.312822
-15.206231
-15.091310
-14.974679
-14.875399
-14.811011
-14.782295
-14.769876
-14.745158
-14.684987
-14.580350
-14.435635
-14.259431
-14.054580
-13.814724
-13.526443
-13.172672
-12.734867
-12.194232
-11.534736
-10.748065
-9.836466
-8.811882
-7.693765
-6.506898
-5.279009
-4.037591
-2.804693
-1.590984
-0.394491
0.792926
1.975947
3.150193
4.302780
5.415798
6.469196
7.442973
8.319902
9.088137
9.742182
10.281866
10.710189
11.031788
11.252900
11.381367
11.425451
11.393625
11.297165
11.152457
10.979160
10.795659
10.616408
10.453024
10.316337
10.216387
10.160602
10.151162
10.183015
10.245476
10.327140
10.418979
10.512074
10.593411
10.645756
10.652100
10.600212
10.484673
10.307162
10.076387
9.807728
9.521539
9.239865
8.983428
8.769607
8.609906
8.507348
8.456047
8.442939
8.449636
8.453720
8.430381
8.355417
8.209831
7.984339
7.680223
7.305242
6.868430
6.378389
5.844854
5.279744
4.695753
4.104430
3.515726
2.938071
2.377600
1.837392
1.318050
0.819385
0.341607
-0.114424
-0.545926
-0.945415
-1.299381
-1.590639
-1.802803
-1.923566
-1.944932
-1.861465
-1.669431
-1.368568
-0.965380
-0.475647
0.074767
0.650897
1.212034
1.717873
2.136252
2.449582
2.656780
2.769838
2.807859
2.792137
2.742769
2.675684
2.600344
2.519389
2.430711
2.331004
2.218715
2.094963
1.962754
1.825745
1.687574
1.552177
1.424438
1.310168
1.215457
1.146221
1.107955
1.104696
1.136926
1.199986
1.284459
1.378015
1.467316
1.539541
1.583766
1.591935
1.559063
1.482978
1.364235
1.206134
1.013954
0.793046
0.546362
0.272918
-0.031099
-0.368874
-0.739843
-1.138650
-1.555270
-1.975461
-2.382395
-2.759310
-3.091439
-3.366768
-3.576596
-3.716539
-3.787893
-3.798307
-3.760457
-3.689204
-3.599005
-3.502215
-3.408049
-3.322583
-3.250061
-3.194728
-3.161883
-3.157327
-3.185565
-3.248272
-3.344269
-3.470603
-3.623389
-3.797887
-3.988230
-4.186727
-4.382724
-4.561978
-4.707948
-4.805453
-4.845011
-4.824714
-4.748165
-4.620328
-4.444618
-4.222981
-3.957938
-3.654135
-3.318434
-2.959558
-2.588228
-2.217248
-1.860108
-1.527846
-1.226099
-0.954573
-0.709012
-0.484168
-0.276056
-0.082243
0.099576
0.272399
0.438622
0.598540
0.751186
0.896731
1.037492
1.176699
1.316951
1.460027
1.607560
1.761169
1.921715
2.088656
2.260445
2.435743
2.614608
2.798890
2.991208
3.192770
3.401576
3.612477
3.819144
4.016756
4.203701
4.380866
4.548807
4.705097
4.843813
4.956981
5.036245
5.073595
5.061788
4.995431
4.872384
4.694891
4.470553
4.212574
3.937903
3.663619
3.403693
3.167645
2.960772
2.784614
2.637104
2.513356
2.407638
2.315345
2.233834
2.162358
2.101945
2.055552
2.027912
2.024189
2.047426
2.096227
2.164462
2.243326
2.323984
2.398639
2.459779
2.499208
2.508371
2.480221
2.411581
2.304337
2.164685
2.001523
1.825791
1.650415
1.488938
1.353028
1.250900
1.187109
1.162578
1.174802
1.219325
1.292300
1.392186
1.519141
1.673058
1.852209
2.053122
2.270639
2.497469
2.723945
2.938304
3.126545
3.271956
3.356037
3.361585
3.276547
3.096704
2.826113
2.475707
2.061186
1.600653
1.112075
0.611161
0.110106
-0.382938
-0.863508
-1.329399
-1.778701
-2.208284
-2.613146
-2.985953
-3.316357
-3.591139
-3.796303
-3.920880
-3.961205
-3.923714
-3.824228
-3.683861
-3.524003
-3.362463
-3.211037
-3.074572
-2.951985
-2.838634
-2.728415
-2.614934
-2.492285
-2.355564
-2.200692
-2.023995
-1.822683
-1.596633
-1.349925
-1.090093
-0.825378
-0.562652
-0.307687
-0.066626
0.153587
0.346568
0.508331
0.637856
0.736005
0.803923
0.842068
0.850186
0.827894
0.775543
0.695216
0.591314
0.470088
0.338326
0.202329
0.067781
-0.060437
-0.179080
-0.286859
-0.383189
-0.466321
-0.532646
-0.577997
-0.600326
-0.602180
-0.591449
-0.579739
-0.579429
-0.601437
-0.654372
-0.744180
-0.873872
-1.043763
-1.252180
-1.496295
-1.773030
-2.079857
-2.415105
-2.777955
-3.168304
-3.586270
-4.031082
-4.499411
-4.983873
-5.473193
-5.954697
-6.417331
-6.852404
-7.251153
-7.601157
-7.885088
-8.083694
-8.181387
-8.171208
-8.057270
-7.853963
-7.582014
-7.262909
-6.914519
-6.550119
-6.180244
-5.814895
-5.464604
-5.140352
-4.852354
-4.607741
-4.408148
-4.248861
-4.120218
-4.010157
-3.906520
-3.798897
-3.680201
-3.547574
-3.402174
-3.247889
-3.089350
-2.929970
-2.771041
-2.612303
-2.453527
-2.296362
-2.145532
-2.008600
-1.894320
-1.810484
-1.762000
-1.749897
-1.771716
-1.822845
-1.897751
-1.990616
-2.095480
-2.206015
-2.315016
-2.413751
-2.491693
-2.537269
-2.539231
-2.487721
-2.374665
-2.193601
-1.939338
-1.608751
-1.203522
-0.733363
-0.217264
0.318280
0.843478
1.330465
1.757670
2.111795
2.386827
2.581050
2.694243
2.726573
2.678969
2.554367
2.359625
2.107225
1.815340
1.505977
1.202215
0.925647
0.694563
0.523099
0.421547
0.397455
0.456296
0.600998
0.831210
1.143183
1.529703
1.979363
2.475955
2.999160
3.526519
4.035938
4.508167
4.928654
5.288360
5.583529
5.814562
5.984196
6.095763
6.152659
6.159199
6.121410
6.046429
5.941084
5.811220
5.661981
5.498255
5.325151
5.148678
4.976046
4.814838
4.671494
4.550362
4.453801
4.382652
4.336259
4.311999
4.304779
4.307217
4.311008
4.308963
4.296570
4.272564
4.238674
4.198788
4.157738
4.119724
4.086475
4.055997
4.023346
3.983350
3.932965
3.871409
3.798776
3.714855
3.618894
3.510267
3.389690
3.260372
3.128319
3.001308
2.886639
2.788620
