EVENT_NAME: EMILIA_2ND_SHOCK
EVENT_ID: IT-2012-0011
EVENT_DATE_YYYYMMDD: 20120529
EVENT_TIME_HHMMSS: 070002
EVENT_LATITUDE_DEGREE: 44.8417
EVENT_LONGITUDE_DEGREE: 11.0657
EVENT_DEPTH_KM: 8.1
HYPOCENTER_REFERENCE: INGV-CNT_Seismic_Bulletin
MAGNITUDE_W: 6.0
MAGNITUDE_W_REFERENCE: RCMT-INGV
MAGNITUDE_L: 5.8
MAGNITUDE_L_REFERENCE: INGV-CNT_Seismic_Bulletin
FOCAL_MECHANISM: TF
NETWORK: IT
STATION_CODE: NVL
STATION_NAME: NOVELLARA
STATION_LATITUDE_DEGREE: 44.843001
STATION_LONGITUDE_DEGREE: 10.731506
STATION_ELEVATION_M: 22
LOCATION: 
SENSOR_DEPTH_M: 0.0
VS30_M/S: 190
SITE_CLASSIFICATION_EC8: C
MORPHOLOGIC_CLASSIFICATION: 
EPICENTRAL_DISTANCE_KM: 26.4
EARTHQUAKE_BACKAZIMUTH_DEGREE: 90.2
DATE_TIME_FIRST_SAMPLE_YYYYMMDD_HHMMSS: 20120529_065933.000
DATE_TIME_FIRST_SAMPLE_PRECISION: seconds
SAMPLING_INTERVAL_S: 0.005000
NDATA: 28001
DURATION_S: 140.005
STREAM: HNZ
UNITS: cm
INSTRUMENT: sensor = MS2007+ [Syscom] | digitizer = 130-01/3 [Reftek]
INSTRUMENT_ANALOG/DIGITAL: D
INSTRUMENTAL_FREQUENCY_HZ: 
INSTRUMENTAL_DAMPING: 
FULL_SCALE_G: 
N_BIT_DIGITAL_CONVERTER: 24
PGD_CM: -0.266903
TIME_PGD_S: 61.090000
BASELINE_CORRECTION: BASELINE REMOVED
FILTER_TYPE: BUTTERWORTH
FILTER_ORDER: 2
LOW_CUT_FREQUENCY_HZ: 0.060
HIGH_CUT_FREQUENCY_HZ: 30.000
LATE/NORMAL_TRIGGERED: NT
DATABASE_VERSION: DYNA 1.0
HEADER_FORMAT: DYNA 1.2
DATA_TYPE: DISPLACEMENT
PROCESSING: manual (Paolucci et al., 2011)
DATA_TIMESTAMP_YYYYMMDD_HHMMSS: 
DATA_LICENSE: CC-BY3_0-IT (http://creativecommons.org/licenses/by/3.0/deed.en)
DATA_CITATION: ESM working group (2015), European Strong-Motion database, version 0.1, Network Activity 3: Networking acceleration networks and SM data users. Project NERA (www.nera-eu.org)
DATA_CREATOR: ESM working group
ORIGINAL_DATA_MEDIATOR_CITATION: Ufficio Rischio Sismico e Vulcanico del Dipartimento della Protezione Civile (http://www.protezionecivile.gov.it/)
ORIGINAL_DATA_MEDIATOR: Rete Accelerometrica Nazionale - RAN Download (http://www.mot1.it/randownload/)
ORIGINAL_DATA_CREATOR_CITATION: Italian Strong Motion Network, Italian Civil Protection Department http://www.protezionecivile.gov.it
ORIGINAL_DATA_CREATOR: network: IT (Italian Strong Motion Network); owner: Dipartimento Della Protezione Civile
USER1: 
USER2: 
USER3: 
USER4: 
USER5: 
[...]
-7.114741e-02
-7.095078e-02
-7.072329e-02
-7.048777e-02
-7.026575e-02
-7.007748e-02
-6.994318e-02
-6.988394e-02
-6.992147e-02
-7.007674e-02
-7.036855e-02
-7.081253e-02
-7.142051e-02
-7.219935e-02
-7.314972e-02
-7.426576e-02
-7.553609e-02
-7.694516e-02
-7.847389e-02
-8.009912e-02
-8.179281e-02
-8.352289e-02
-8.525644e-02
-8.696369e-02
-8.862087e-02
-9.021087e-02
-9.172193e-02
-9.314556e-02
-9.447472e-02
-9.570304e-02
-9.682536e-02
-9.783876e-02
-9.874309e-02
-9.954040e-02
-1.002333e-01
-1.008238e-01
-1.013135e-01
-1.017057e-01
-1.020079e-01
-1.022328e-01
-1.023975e-01
-1.025203e-01
-1.026184e-01
-1.027058e-01
-1.027937e-01
-1.028928e-01
-1.030154e-01
-1.031762e-01
-1.033919e-01
-1.036798e-01
-1.040575e-01
-1.045415e-01
-1.051459e-01
-1.058792e-01
-1.067413e-01
-1.077226e-01
-1.088046e-01
-1.099633e-01
-1.111724e-01
-1.124070e-01
-1.136444e-01
-1.148652e-01
-1.160521e-01
-1.171887e-01
-1.182597e-01
-1.192506e-01
-1.201495e-01
-1.209481e-01
-1.216421e-01
-1.222319e-01
-1.227223e-01
-1.231222e-01
-1.234428e-01
-1.236977e-01
-1.239023e-01
-1.240756e-01
-1.242402e-01
-1.244213e-01
-1.246432e-01
-1.249265e-01
-1.252847e-01
-1.257241e-01
-1.262453e-01
-1.268461e-01
-1.275238e-01
-1.282776e-01
-1.291076e-01
-1.300141e-01
-1.309957e-01
-1.320490e-01
-1.331690e-01
-1.343486e-01
-1.355762e-01
-1.368349e-01
-1.381023e-01
-1.393533e-01
-1.405638e-01
-1.417132e-01
-1.427848e-01
-1.437650e-01
-1.446422e-01
-1.454068e-01
-1.460531e-01
-1.465798e-01
-1.469906e-01
-1.472932e-01
-1.474982e-01
-1.476183e-01
-1.476680e-01
-1.476640e-01
-1.476263e-01
-1.475779e-01
-1.475439e-01
-1.475501e-01
-1.476212e-01
-1.477801e-01
-1.480466e-01
-1.484373e-01
-1.489637e-01
-1.496311e-01
-1.504381e-01
-1.513770e-01
-1.524346e-01
-1.535940e-01
-1.548346e-01
-1.561329e-01
-1.574642e-01
-1.588034e-01
-1.601279e-01
-1.614180e-01
-1.626578e-01
-1.638346e-01
-1.649382e-01
-1.659611e-01
-1.668982e-01
-1.677480e-01
-1.685124e-01
-1.691970e-01
-1.698090e-01
-1.703554e-01
-1.708417e-01
-1.712714e-01
-1.716467e-01
-1.719707e-01
-1.722484e-01
-1.724869e-01
-1.726951e-01
-1.728824e-01
-1.730573e-01
-1.732266e-01
-1.733949e-01
-1.735650e-01
-1.737381e-01
-1.739130e-01
-1.740849e-01
-1.742443e-01
-1.743764e-01
-1.744617e-01
-1.744782e-01
-1.744038e-01
-1.742197e-01
-1.739119e-01
-1.734724e-01
-1.729001e-01
-1.722007e-01
-1.713863e-01
-1.704752e-01
-1.694910e-01
-1.684611e-01
-1.674142e-01
-1.663767e-01
-1.653707e-01
-1.644137e-01
-1.635196e-01
-1.627007e-01
-1.619691e-01
-1.613358e-01
-1.608081e-01
-1.603876e-01
-1.600697e-01
-1.598464e-01
-1.597094e-01
-1.596521e-01
-1.596692e-01
-1.597548e-01
-1.599012e-01
-1.600993e-01
-1.603409e-01
-1.606194e-01
-1.609301e-01
-1.612688e-01
-1.616290e-01
-1.619994e-01
-1.623630e-01
-1.626972e-01
-1.629758e-01
-1.631721e-01
-1.632628e-01
-1.632302e-01
-1.630638e-01
-1.627592e-01
-1.623166e-01
-1.617383e-01
-1.610283e-01
-1.601916e-01
-1.592346e-01
-1.581650e-01
-1.569923e-01
-1.557283e-01
-1.543873e-01
-1.529853e-01
-1.515380e-01
-1.500600e-01
-1.485639e-01
-1.470612e-01
-1.455622e-01
-1.440757e-01
-1.426080e-01
-1.411627e-01
-1.397417e-01
-1.383471e-01
-1.369816e-01
-1.356482e-01
-1.343486e-01
-1.330826e-01
-1.318478e-01
-1.306417e-01
-1.294644e-01
-1.283202e-01
-1.272186e-01
-1.261726e-01
-1.251956e-01
-1.242994e-01
-1.234919e-01
-1.227767e-01
-1.221524e-01
-1.216129e-01
-1.211476e-01
-1.207424e-01
-1.203807e-01
-1.200449e-01
-1.197172e-01
-1.193815e-01
-1.190238e-01
-1.186323e-01
-1.181978e-01
-1.177124e-01
-1.171696e-01
-1.165642e-01
-1.158928e-01
-1.151535e-01
-1.143466e-01
-1.134740e-01
-1.125398e-01
-1.115488e-01
-1.105060e-01
-1.094155e-01
-1.082802e-01
-1.071018e-01
-1.058813e-01
-1.046189e-01
-1.033139e-01
-1.019635e-01
-1.005624e-01
-9.910335e-02
-9.757805e-02
-9.597960e-02
-9.430441e-02
-9.255380e-02
-9.073436e-02
-8.885671e-02
-8.693347e-02
-8.497747e-02
-8.300105e-02
-8.101630e-02
-7.903557e-02
-7.707142e-02
-7.513612e-02
-7.324116e-02
-7.139746e-02
-6.961569e-02
-6.790643e-02
-6.628002e-02
-6.474604e-02
-6.331231e-02
-6.198348e-02
-6.076002e-02
-5.963842e-02
-5.861272e-02
-5.767625e-02
-5.682201e-02
-5.604135e-02
-5.532228e-02
-5.464952e-02
-5.400670e-02
-5.337947e-02
-5.275758e-02
-5.213490e-02
-5.150787e-02
-5.087376e-02
-5.022938e-02
-4.957073e-02
-4.889277e-02
-4.818914e-02
-4.745162e-02
-4.666986e-02
-4.583205e-02
-4.492704e-02
-4.394673e-02
-4.288733e-02
-4.174826e-02
-4.052932e-02
-3.922806e-02
-3.783920e-02
-3.635629e-02
-3.477445e-02
-3.309244e-02
-3.131316e-02
-2.944282e-02
-2.748952e-02
-2.546220e-02
-2.337026e-02
-2.122358e-02
-1.903268e-02
-1.680901e-02
-1.456527e-02
-1.231599e-02
-1.007785e-02
-7.869395e-03
-5.709618e-03
-3.615560e-03
-1.599898e-03
3.299477e-04
2.170734e-03
3.921125e-03
5.579627e-03
7.143782e-03
8.610961e-03
9.980124e-03
1.125326e-02
1.243565e-02
1.353517e-02
1.456152e-02
1.552611e-02
1.644257e-02
1.732730e-02
1.819892e-02
1.907628e-02
1.997614e-02
2.091201e-02
2.189500e-02
2.293568e-02
2.404514e-02
2.523379e-02
2.650819e-02
2.786817e-02
2.930624e-02
3.080969e-02
3.236396e-02
3.395551e-02
3.557280e-02
3.720551e-02
3.884309e-02
4.047418e-02
4.208787e-02
4.367619e-02
4.523632e-02
4.677077e-02
4.828538e-02
4.978637e-02
5.127808e-02
5.276246e-02
5.424013e-02
5.571224e-02
5.718207e-02
5.865584e-02
6.014245e-02
6.165221e-02
6.319504e-02
6.477869e-02
6.640759e-02
6.808227e-02
6.979921e-02
7.155121e-02
7.332852e-02
7.512008e-02
7.691435e-02
7.869914e-02
8.046092e-02
8.218439e-02
8.385296e-02
8.545032e-02
8.696241e-02
8.837933e-02
8.969697e-02
9.091775e-02
9.205020e-02
9.310741e-02
9.410514e-02
9.506021e-02
9.598957e-02
9.690999e-02
9.783797e-02
9.878904e-02
9.977646e-02
1.008099e-01
1.018945e-01
1.030315e-01
1.042193e-01
1.054553e-01
1.067370e-01
1.080632e-01
1.094343e-01
1.108523e-01
1.123200e-01
1.138395e-01
1.154110e-01
1.170320e-01
1.186979e-01
1.204019e-01
1.221351e-01
1.238851e-01
1.256368e-01
1.273732e-01
1.290772e-01
1.307334e-01
1.323300e-01
1.338593e-01
1.353175e-01
1.367050e-01
1.380255e-01
1.392847e-01
1.404901e-01
1.416487e-01
1.427659e-01
1.438445e-01
1.448848e-01
1.458864e-01
1.468490e-01
1.477747e-01
1.486668e-01
1.495295e-01
1.503659e-01
1.511777e-01
1.519660e-01
1.527328e-01
1.534816e-01
1.542174e-01
1.549463e-01
1.556742e-01
1.564074e-01
1.571521e-01
1.579144e-01
1.586991e-01
1.595083e-01
1.603399e-01
1.611869e-01
1.620383e-01
1.628817e-01
1.637068e-01
1.645072e-01
1.652805e-01
1.660272e-01
1.667486e-01
1.674465e-01
1.681229e-01
1.687812e-01
1.694273e-01
1.700682e-01
1.707108e-01
1.713594e-01
1.720152e-01
1.726778e-01
1.733479e-01
1.740292e-01
1.747289e-01
1.754548e-01
1.762132e-01
1.770071e-01
1.778372e-01
1.787031e-01
1.796048e-01
1.805421e-01
1.815130e-01
1.825120e-01
1.835290e-01
1.845505e-01
1.855615e-01
1.865464e-01
1.874902e-01
1.883770e-01
1.891907e-01
1.899158e-01
1.905405e-01
1.910592e-01
1.914727e-01
1.917867e-01
1.920081e-01
1.921431e-01
1.921970e-01
1.921760e-01
1.920890e-01
1.919483e-01
1.917684e-01
1.915645e-01
1.913507e-01
1.911385e-01
1.909364e-01
1.907488e-01
1.905749e-01
1.904097e-01
1.902462e-01
1.900779e-01
1.899017e-01
1.897179e-01
1.895298e-01
1.893416e-01
1.891573e-01
1.889799e-01
1.888113e-01
1.886512e-01
1.884969e-01
1.883426e-01
1.881808e-01
1.880054e-01
1.878138e-01
1.876075e-01
1.873908e-01
1.871693e-01
1.869486e-01
1.867349e-01
1.865368e-01
1.863657e-01
1.862352e-01
1.861579e-01
1.861430e-01
1.861943e-01
1.863111e-01
1.864908e-01
1.867304e-01
1.870273e-01
1.873774e-01
1.877740e-01
1.882076e-01
1.886674e-01
1.891432e-01
1.896254e-01
1.901051e-01
1.905727e-01
1.910167e-01
1.914242e-01
1.917813e-01
1.920743e-01
1.922910e-01
1.924218e-01
1.924607e-01
1.924054e-01
1.922572e-01
1.920195e-01
1.916971e-01
1.912967e-01
1.908269e-01
1.902986e-01
1.897240e-01
1.891149e-01
1.884812e-01
1.878301e-01
1.871660e-01
1.864915e-01
1.858086e-01
1.851188e-01
1.844225e-01
1.837188e-01
1.830050e-01
1.822778e-01
1.815344e-01
1.807732e-01
1.799939e-01
1.791976e-01
1.783879e-01
1.775702e-01
1.767510e-01
1.759363e-01
1.751301e-01
1.743335e-01
1.735466e-01
1.727693e-01
1.720043e-01
1.712576e-01
1.705379e-01
1.698549e-01
1.692164e-01
1.686275e-01
1.680897e-01
1.676028e-01
1.671647e-01
1.667708e-01
1.664126e-01
1.660774e-01
1.657494e-01
1.654123e-01
1.650525e-01
1.646606e-01
1.642319e-01
1.637646e-01
1.632572e-01
1.627061e-01
1.621058e-01
1.614499e-01
1.607331e-01
1.599530e-01
1.591103e-01
1.582079e-01
1.572492e-01
1.562370e-01
1.551725e-01
1.540558e-01
1.528881e-01
1.516726e-01
1.504149e-01
1.491228e-01
1.478049e-01
1.464707e-01
1.451306e-01
1.437962e-01
1.424789e-01
1.411893e-01
1.399369e-01
1.387295e-01
1.375727e-01
1.364681e-01
1.354128e-01
1.344000e-01
1.334209e-01
1.324667e-01
1.315298e-01
1.306034e-01
1.296813e-01
1.287587e-01
1.278323e-01
1.269023e-01
1.259730e-01
1.250525e-01
1.241502e-01
1.232742e-01
1.224282e-01
1.216115e-01
1.208197e-01
1.200482e-01
1.192936e-01
1.185551e-01
1.178338e-01
1.171321e-01
1.164529e-01
1.157991e-01
1.151736e-01
1.145785e-01
1.140143e-01
1.134786e-01
1.129658e-01
1.124673e-01
1.119729e-01
1.114723e-01
1.109561e-01
1.104156e-01
1.098440e-01
1.092362e-01
1.085901e-01
1.079060e-01
1.071854e-01
1.064304e-01
1.056431e-01
1.048264e-01
1.039849e-01
1.031241e-01
1.022488e-01
1.013624e-01
1.004662e-01
9.956101e-02
9.864887e-02
9.773377e-02
9.682180e-02
9.591998e-02
9.503498e-02
9.417212e-02
9.333503e-02
9.252580e-02
9.174541e-02
9.099393e-02
9.027001e-02
8.956995e-02
8.888692e-02
8.821066e-02
8.752813e-02
8.682501e-02
8.608774e-02
8.530545e-02
8.447118e-02
8.358202e-02
8.263825e-02
8.164228e-02
8.059765e-02
7.950885e-02
7.838140e-02
7.722195e-02
7.603753e-02
7.483403e-02
7.361472e-02
7.237999e-02
7.112870e-02
6.986028e-02
6.857629e-02
6.728079e-02
6.597955e-02
6.467935e-02
6.338805e-02
6.211479e-02
6.086976e-02
5.966289e-02
5.850243e-02
5.739380e-02
5.633949e-02
5.533960e-02
5.439228e-02
5.349382e-02
5.263860e-02
5.181912e-02
5.102592e-02
5.024735e-02
4.946956e-02
4.867738e-02
4.785633e-02
4.699491e-02
4.608597e-02
4.512642e-02
4.411591e-02
4.305540e-02
4.194642e-02
4.079090e-02
3.959113e-02
3.834989e-02
3.707046e-02
3.575644e-02
3.441130e-02
3.303768e-02
3.163711e-02
3.021008e-02
2.875645e-02
2.727608e-02
2.576918e-02
2.423622e-02
2.267763e-02
2.109349e-02
1.948284e-02
1.784287e-02
1.616847e-02
1.445295e-02
1.269025e-02
1.087782e-02
9.018568e-03
7.120588e-03
5.194807e-03
3.252454e-03
1.303870e-03
-6.410226e-04
-2.571523e-03
-4.475665e-03
-6.341365e-03
-8.158816e-03
-9.922887e-03
-1.163444e-02
-1.330041e-02
-1.493302e-02
-1.654833e-02
-1.816424e-02
-1.979833e-02
-2.146615e-02
-2.318015e-02
-2.494958e-02
-2.678079e-02
-2.867766e-02
-3.064203e-02
-3.267401e-02
-3.477185e-02
-3.693164e-02
-3.914709e-02
-4.140964e-02
-4.370885e-02
-4.603293e-02
-4.836966e-02
-5.070744e-02
-5.303640e-02
-5.534895e-02
-5.763980e-02
-5.990547e-02
-6.214386e-02
-6.435391e-02
-6.653538e-02
-6.868873e-02
-7.081460e-02
-7.291286e-02
-7.498174e-02
-7.701812e-02
-7.901926e-02
-8.098505e-02
-8.291927e-02
-8.482907e-02
-8.672253e-02
-8.860596e-02
-9.048239e-02
-9.235187e-02
-9.421285e-02
-9.606364e-02
-9.790307e-02
-9.973058e-02
-1.015464e-01
-1.033519e-01
-1.051509e-01
-1.069492e-01
-1.087534e-01
-1.105689e-01
-1.123973e-01
-1.142367e-01
-1.160840e-01
-1.179379e-01
-1.198023e-01
-1.216864e-01
-1.236028e-01
-1.255641e-01
-1.275791e-01
-1.296518e-01
-1.317821e-01
-1.339675e-01
-1.362046e-01
-1.384899e-01
-1.408192e-01
-1.431869e-01
-1.455871e-01
-1.480132e-01
-1.504593e-01
-1.529184e-01
-1.553823e-01
-1.578403e-01
-1.602802e-01
-1.626906e-01
-1.650617e-01
-1.673867e-01
-1.696604e-01
-1.718785e-01
-1.740368e-01
-1.761326e-01
-1.781651e-01
-1.801375e-01
-1.820567e-01
-1.839320e-01
-1.857732e-01
-1.875893e-01
-1.893882e-01
-1.911771e-01
-1.929641e-01
-1.947583e-01
-1.965690e-01
-1.984037e-01
-2.002665e-01
-2.021575e-01
-2.040735e-01
-2.060094e-01
-2.079593e-01
-2.099175e-01
-2.118780e-01
-2.138344e-01
-2.157793e-01
-2.177053e-01
-2.196056e-01
-2.214752e-01
-2.233100e-01
-2.251065e-01
-2.268604e-01
-2.285660e-01
-2.302163e-01
-2.318042e-01
-2.333247e-01
-2.347767e-01
-2.361631e-01
-2.374902e-01
-2.387663e-01
-2.399999e-01
-2.411992e-01
-2.423719e-01
-2.435249e-01
-2.446643e-01
-2.457946e-01
-2.469188e-01
-2.480384e-01
-2.491537e-01
-2.502645e-01
-2.513696e-01
-2.524668e-01
-2.535526e-01
-2.546229e-01
-2.556744e-01
-2.567056e-01
-2.577179e-01
-2.587133e-01
-2.596928e-01
-2.606540e-01
-2.615899e-01
-2.624895e-01
-2.633389e-01
-2.641227e-01
-2.648256e-01
-2.654344e-01
-2.659396e-01
-2.663364e-01
-2.666254e-01
-2.668110e-01
-2.669006e-01
-2.669029e-01
-2.668267e-01
-2.666808e-01
-2.664744e-01
-2.662172e-01
-2.659197e-01
-2.655917e-01
-2.652425e-01
-2.648798e-01
-2.645100e-01
-2.641386e-01
-2.637705e-01
-2.634108e-01
-2.630641e-01
-2.627347e-01
-2.624257e-01
-2.621391e-01
-2.618755e-01
-2.616350e-01
-2.614178e-01
-2.612251e-01
-2.610592e-01
-2.609234e-01
-2.608204e-01
-2.607519e-01
-2.607168e-01
-2.607124e-01
-2.607353e-01
-2.607823e-01
-2.608513e-01
-2.609413e-01
-2.610520e-01
-2.611827e-01
-2.613318e-01
-2.614959e-01
-2.616703e-01
-2.618489e-01
-2.620255e-01
-2.621946e-01
-2.623510e-01
-2.624900e-01
-2.626074e-01
-2.626984e-01
-2.627587e-01
-2.627845e-01
-2.627720e-01
-2.627174e-01
-2.626153e-01
-2.624594e-01
-2.622432e-01
-2.619619e-01
-2.616144e-01
-2.612040e-01
-2.607377e-01
-2.602240e-01
-2.596715e-01
-2.590882e-01
-2.584816e-01
-2.578590e-01
-2.572275e-01
-2.565923e-01
-2.559562e-01
-2.553203e-01
-2.546851e-01
-2.540520e-01
-2.534232e-01
-2.528010e-01
-2.521867e-01
-2.515802e-01
-2.509804e-01
-2.503849e-01
-2.497908e-01
-2.491934e-01
-2.485872e-01
-2.479654e-01
-2.473209e-01
-2.466462e-01
-2.459331e-01
-2.451722e-01
-2.443534e-01
-2.434667e-01
-2.425042e-01
-2.414615e-01
-2.403383e-01
-2.391387e-01
-2.378692e-01
-2.365377e-01
-2.351520e-01
-2.337189e-01
-2.322447e-01
-2.307357e-01
-2.291987e-01
-2.276413e-01
-2.260705e-01
-2.244919e-01
-2.229091e-01
-2.213243e-01
-2.197392e-01
-2.181557e-01
-2.165753e-01
-2.149990e-01
-2.134269e-01
-2.118577e-01
-2.102889e-01
-2.087169e-01
-2.071368e-01
-2.055430e-01
-2.039280e-01
-2.022820e-01
-2.005924e-01
-1.988455e-01
-1.970278e-01
-1.951286e-01
-1.931412e-01
-1.910641e-01
-1.889012e-01
-1.866617e-01
-1.843607e-01
-1.820171e-01
-1.796524e-01
-1.772886e-01
-1.749461e-01
-1.726432e-01
-1.703957e-01
-1.682170e-01
-1.661174e-01
-1.641045e-01
-1.621818e-01
-1.603490e-01
-1.586002e-01
-1.569255e-01
-1.553115e-01
-1.537426e-01
-1.522025e-01
-1.506747e-01
-1.491428e-01
-1.475919e-01
-1.460085e-01
-1.443818e-01
-1.427030e-01
-1.409652e-01
-1.391634e-01
-1.372946e-01
-1.353583e-01
-1.333557e-01
-1.312891e-01
-1.291612e-01
-1.269743e-01
-1.247302e-01
-1.224297e-01
-1.200725e-01
-1.176569e-01
-1.151811e-01
-1.126438e-01
-1.100457e-01
-1.073902e-01
-1.046819e-01
-1.019261e-01
-9.912863e-02
-9.629597e-02
-9.343707e-02
-9.056389e-02
-8.769136e-02
-8.483622e-02
-8.201512e-02
-7.924252e-02
-7.652875e-02
-7.387885e-02
-7.129256e-02
-6.876611e-02
-6.629496e-02
-6.387618e-02
-6.150898e-02
-5.919348e-02
-5.692860e-02
-5.471076e-02
-5.253417e-02
-5.039223e-02
-4.827878e-02
-4.618863e-02
-4.411741e-02
-4.206084e-02
-4.001398e-02
-3.797087e-02
-3.592480e-02
-3.386948e-02
-3.180088e-02
-2.971861e-02
-2.762603e-02
-2.552859e-02
-2.343159e-02
-2.133868e-02
-1.925181e-02
-1.717215e-02
-1.510102e-02
-1.304015e-02
-1.099102e-02
-8.954218e-03
-6.929155e-03
-4.914506e-03
-2.909228e-03
-9.137612e-04
1.069416e-03
3.036593e-03
4.984756e-03
6.913294e-03
8.824225e-03
1.072087e-02
1.260615e-02
1.448185e-02
1.634913e-02
1.820919e-02
2.006312e-02
2.191123e-02
2.375224e-02
2.558347e-02
2.740203e-02
2.920618e-02
3.099593e-02
3.277260e-02
3.453771e-02
3.629207e-02
3.803558e-02
3.976754e-02
4.148660e-02
4.319045e-02
4.487562e-02
4.653819e-02
4.817516e-02
4.978578e-02
5.137172e-02
5.293604e-02
5.448137e-02
5.600838e-02
5.751562e-02
5.900082e-02
6.046316e-02
6.190496e-02
6.333192e-02
6.475174e-02
6.617189e-02
6.759790e-02
6.903257e-02
7.047630e-02
7.192801e-02
7.338622e-02
7.484985e-02
7.631851e-02
7.779236e-02
7.927165e-02
8.075611e-02
8.224460e-02
8.373528e-02
8.522654e-02
8.671829e-02
8.821293e-02
8.971558e-02
9.123367e-02
9.277598e-02
9.435186e-02
9.597036e-02
9.763941e-02
9.936469e-02
1.011487e-01
1.029904e-01
1.048859e-01
1.068293e-01
1.088144e-01
1.108353e-01
1.128853e-01
1.149561e-01
1.170374e-01
1.191173e-01
1.211842e-01
1.232280e-01
1.252415e-01
1.272206e-01
1.291625e-01
1.310655e-01
1.329277e-01
1.347479e-01
1.365254e-01
1.382618e-01
1.399607e-01
1.416281e-01
1.432719e-01
1.449017e-01
1.465277e-01
1.481596e-01
1.498039e-01
1.514630e-01
1.531340e-01
1.548098e-01
1.564808e-01
1.581373e-01
1.597698e-01
1.613712e-01
1.629365e-01
1.644633e-01
1.659524e-01
1.674064e-01
1.688299e-01
1.702279e-01
1.716047e-01
1.729633e-01
1.743053e-01
1.756314e-01
1.769418e-01
1.782359e-01
1.795117e-01
1.807661e-01
1.819947e-01
1.831934e-01
1.843586e-01
1.854884e-01
1.865827e-01
1.876428e-01
1.886719e-01
1.896738e-01
1.906519e-01
1.916081e-01
1.925427e-01
1.934552e-01
1.943462e-01
1.952192e-01
1.960810e-01
1.969406e-01
1.978075e-01
1.986906e-01
1.995981e-01
2.005381e-01
2.015188e-01
2.025464e-01
2.036239e-01
2.047490e-01
2.059142e-01
2.071091e-01
2.083226e-01
2.095448e-01
2.107670e-01
2.119811e-01
2.131785e-01
2.143504e-01
2.154889e-01
2.165881e-01
2.176448e-01
2.186572e-01
2.196240e-01
2.205442e-01
2.214163e-01
2.222393e-01
2.230135e-01
2.237411e-01
2.244262e-01
2.250736e-01
2.256875e-01
2.262704e-01
2.268246e-01
2.273529e-01
2.278608e-01
2.283566e-01
2.288504e-01
2.293528e-01
2.298727e-01
2.304161e-01
2.309863e-01
2.315850e-01
2.322150e-01
2.328803e-01
2.335865e-01
2.343385e-01
2.351393e-01
2.359877e-01
2.368790e-01
2.378046e-01
2.387536e-01
2.397132e-01
2.406688e-01
2.416041e-01
2.425029e-01
2.433501e-01
2.441330e-01
2.448418e-01
2.454699e-01
2.460135e-01
2.464720e-01
2.468486e-01
2.471506e-01
2.473889e-01
2.475759e-01
2.477244e-01
2.478453e-01
2.479482e-01
2.480404e-01
