EVENT_NAME: CENTRAL_ITALY
EVENT_ID: EMSC-20160824_0000013
EVENT_DATE_YYYYMMDD: 20160824
EVENT_TIME_HHMMSS: 023329
EVENT_LATITUDE_DEGREE: 42.7935
EVENT_LONGITUDE_DEGREE: 13.1537
EVENT_DEPTH_KM: 8.7
HYPOCENTER_REFERENCE: INGV-webservice
MAGNITUDE_W: 5.3
MAGNITUDE_W_REFERENCE: INGV-webservice
MAGNITUDE_L: 5.4
MAGNITUDE_L_REFERENCE: INGV-webservice
FOCAL_MECHANISM: NF
NETWORK: IT
STATION_CODE: NRC
STATION_NAME: NORCIA
STATION_LATITUDE_DEGREE: 42.792543
STATION_LONGITUDE_DEGREE: 13.096475
STATION_ELEVATION_M: 616
LOCATION: 
SENSOR_DEPTH_M: 0.0
VS30_M/S: 687
SITE_CLASSIFICATION_EC8: B
MORPHOLOGIC_CLASSIFICATION: SL
EPICENTRAL_DISTANCE_KM: 4.7
EARTHQUAKE_BACKAZIMUTH_DEGREE: 88.7
DATE_TIME_FIRST_SAMPLE_YYYYMMDD_HHMMSS: 20160824_023324.704
DATE_TIME_FIRST_SAMPLE_PRECISION: milliseconds
SAMPLING_INTERVAL_S: 0.005000
NDATA: 9429
DURATION_S: 47.145
STREAM: HGZ
UNITS: cm/s^2
INSTRUMENT: sensor = Unknown [Unknown] | digitizer = Unknown [Unknown]
INSTRUMENT_ANALOG/DIGITAL: D
INSTRUMENTAL_FREQUENCY_HZ: 
INSTRUMENTAL_DAMPING: 
FULL_SCALE_G: 
N_BIT_DIGITAL_CONVERTER: 
PGA_CM/S^2: 130.053939
TIME_PGA_S: 9.140000
BASELINE_CORRECTION: BASELINE REMOVED
FILTER_TYPE: BUTTERWORTH
FILTER_ORDER: 2
LOW_CUT_FREQUENCY_HZ: 0.070
HIGH_CUT_FREQUENCY_HZ: 30.000
LATE/NORMAL_TRIGGERED: NT
DATABASE_VERSION: DYNA 1.0
HEADER_FORMAT: DYNA 1.2
DATA_TYPE: ACCELERATION
PROCESSING: manual (Paolucci et al., 2011)
DATA_TIMESTAMP_YYYYMMDD_HHMMSS: 20160825_170450.371
DATA_LICENSE: CC-BY3_0-IT (http://creativecommons.org/licenses/by/3.0/deed.en)
DATA_CITATION: ESM working group (2015), European Strong-Motion database, version 0.1, Network Activity 3: Networking acceleration networks and SM data users. Project NERA (www.nera-eu.org)
DATA_CREATOR: ESM working group
ORIGINAL_DATA_MEDIATOR_CITATION: Ufficio Rischio Sismico e Vulcanico del Dipartimento della Protezione Civile (http://www.protezionecivile.gov.it/)
ORIGINAL_DATA_MEDIATOR: Rete Accelerometrica Nazionale - RAN Download (http://www.mot1.it/randownload/)
ORIGINAL_DATA_CREATOR_CITATION: Italian Strong Motion Network, Italian Civil Protection Department http://www.protezionecivile.gov.it
ORIGINAL_DATA_CREATOR: network: IT (Italian Strong Motion Network); owner: Dipartimento Della Protezione Civile
USER1: /home/dyna/processing-itaca/processing.py /var/www/processing//tmp/Maria//IT.NRC..HGE.D.20160824.023329.X.ACC.ASC /var/www/processing//tmp/Maria//IT.NRC..HGN.D.20160824.023329.X.ACC.ASC /var/www/processing//tmp/Maria//IT.NRC..HGZ.D.20160824.023329.X.ACC.ASC --tmp /var/www/processing//tmp/Maria/ --le 0.070 --he 30.000 --ln 0.070 --hn 30.000 --lz 0.070 --hz 30.000 --fo 2 --ca 0 --cz 60 --ta 5 --tz 5 --mf 1 --rf 0 --tr NT
USER2: 
USER3: 
USER4: 
USER5: 
[...]
0.015226
0.052689
0.070987
0.070620
0.056777
0.034663
0.008805
-0.016948
-0.040947
-0.059925
-0.063612
-0.040890
0.007660
0.066870
0.114444
0.131053
0.111738
0.071932
0.035411
0.012778
-0.003112
-0.021450
-0.042673
-0.063419
-0.081326
-0.091658
-0.086110
-0.060474
-0.023565
0.005978
0.015881
0.010931
0.003560
-0.001727
-0.007779
-0.014202
-0.015757
-0.007707
0.011292
0.037908
0.064109
0.080653
0.082545
0.072084
0.056200
0.039963
0.022318
-0.001836
-0.034636
-0.069774
-0.094575
-0.098116
-0.078218
-0.042529
-0.003766
0.028691
0.055281
0.081298
0.102962
0.103916
0.070862
0.011510
-0.046107
-0.072554
-0.056762
-0.013355
0.026893
0.037994
0.015668
-0.021195
-0.045083
-0.040656
-0.013555
0.019738
0.044902
0.053027
0.040998
0.015108
-0.008065
-0.011315
0.008126
0.035803
0.053469
0.052199
0.035453
0.014838
0.001274
-0.003611
-0.008563
-0.023050
-0.044364
-0.056835
-0.046086
-0.013195
0.026480
0.057138
0.070916
0.066401
0.048659
0.027974
0.010812
-0.003877
-0.017062
-0.026901
-0.033659
-0.037628
-0.033970
-0.017969
0.006000
0.025322
0.029119
0.015878
-0.007883
-0.030791
-0.038525
-0.023013
0.007093
0.030441
0.028243
-0.002537
-0.044777
-0.070107
-0.059536
-0.017522
0.036364
0.084356
0.116161
0.127647
0.120159
0.098196
0.064683
0.017937
-0.042092
-0.102694
-0.139700
-0.132984
-0.082077
-0.009100
0.055388
0.091895
0.100905
0.097315
0.095449
0.095953
0.086447
0.056027
0.008517
-0.039741
-0.073206
-0.087371
-0.087679
-0.079732
-0.062654
-0.034054
0.000440
0.027573
0.038764
0.038628
0.037993
0.040655
0.040588
0.030538
0.009036
-0.018549
-0.040564
-0.044531
-0.027911
-0.001726
0.018507
0.024207
0.017083
0.004702
-0.005308
-0.008171
-0.002845
0.008373
0.021735
0.032919
0.037622
0.033977
0.022959
0.006908
-0.009321
-0.018821
-0.018274
-0.010802
-0.000921
0.012501
0.035975
0.070595
0.101773
0.105156
0.068493
0.007594
-0.044325
-0.060631
-0.032163
0.031841
0.101498
0.136109
0.113855
0.050990
-0.014634
-0.053157
-0.056246
-0.035261
-0.012908
-0.009419
-0.027721
-0.052309
-0.065131
-0.058810
-0.036427
-0.007055
0.018249
0.031383
0.030059
0.016989
-0.000444
-0.010821
-0.006809
0.006306
0.017010
0.021033
0.023551
0.030280
0.038360
0.035625
0.011435
-0.030134
-0.070918
-0.093222
-0.090255
-0.064620
-0.025007
0.013963
0.036348
0.034997
0.016864
-0.001590
-0.005379
0.008739
0.031143
0.047243
0.046323
0.027617
0.002431
-0.011979
-0.005036
0.019173
0.045832
0.060449
0.057559
0.042639
0.027416
0.020364
0.019448
0.014759
-0.001080
-0.025695
-0.049984
-0.065245
-0.066342
-0.052385
-0.026659
0.004979
0.036089
0.061827
0.079140
0.084381
0.073976
0.048685
0.015080
-0.018361
-0.044587
-0.056128
-0.045251
-0.010537
0.037621
0.079302
0.095163
0.078304
0.037982
-0.008070
-0.043552
-0.058160
-0.050903
-0.032565
-0.018552
-0.013663
-0.007362
0.011994
0.042914
0.072141
0.083894
0.068448
0.029720
-0.013884
-0.042020
-0.047487
-0.036710
-0.020313
-0.008541
-0.009118
-0.021868
-0.037398
-0.042652
-0.027025
0.012092
0.064574
0.109295
0.125044
0.104130
0.057567
0.007654
-0.026430
-0.039651
-0.039515
-0.035529
-0.032725
-0.033179
-0.038743
-0.048011
-0.052336
-0.041449
-0.012952
0.026286
0.065301
0.094510
0.108733
0.107532
0.093952
0.071107
0.038934
-0.002921
-0.047688
-0.080187
-0.086507
-0.064578
-0.024564
0.018255
0.050792
0.066930
0.067634
0.056815
0.037981
0.015041
-0.004880
-0.012994
-0.006348
0.008026
0.017270
0.010509
-0.012364
-0.037439
-0.045525
-0.025002
0.019716
0.067581
0.093468
0.086303
0.053312
0.009027
-0.032595
-0.058566
-0.061715
-0.046810
-0.025545
-0.007476
0.001645
0.001125
-0.000887
0.005297
0.016178
0.017542
0.003600
-0.015357
-0.024453
-0.016741
0.004073
0.027386
0.041173
0.038514
0.023375
0.008995
0.007105
0.017376
0.028939
0.032509
0.028014
0.021458
0.018890
0.022276
0.027822
0.028649
0.020264
0.004361
-0.011828
-0.020596
-0.019769
-0.014640
-0.012279
-0.012649
-0.008448
0.005496
0.025792
0.042170
0.044201
0.030245
0.010524
-0.002265
-0.004565
-0.001778
-0.000124
-0.002456
-0.007842
-0.010151
-0.000643
0.022322
0.047638
0.059303
0.048603
0.018801
-0.017365
-0.044400
-0.051607
-0.038535
-0.017030
-0.003384
-0.003146
-0.006670
-0.000313
0.020611
0.047095
0.061430
0.050448
0.018402
-0.014975
-0.031552
-0.027214
-0.009576
0.009026
0.017508
0.013010
0.004063
0.003658
0.018121
0.042649
0.066018
0.078404
0.074998
0.055568
0.025030
-0.007226
-0.032991
-0.048958
-0.053579
-0.044662
-0.022731
0.004942
0.026002
0.030405
0.017040
-0.005400
-0.024167
-0.031794
-0.029092
-0.019742
-0.007999
0.000310
0.003320
0.007460
0.018735
0.032698
0.038907
0.033136
0.021979
0.016587
0.022208
0.032929
0.037383
0.029248
0.011753
-0.004489
-0.006833
0.010700
0.039952
0.061268
0.057364
0.027499
-0.011866
-0.040233
-0.046800
-0.034544
-0.015050
-0.000430
0.003185
-0.001523
-0.005638
-0.001204
0.011534
0.023908
0.026015
0.013676
-0.007298
-0.021403
-0.014765
0.010354
0.037586
0.052903
0.053743
0.045517
0.035637
0.029218
0.025875
0.019318
0.003340
-0.018911
-0.034184
-0.030156
-0.007334
0.020991
0.041460
0.050703
0.053130
0.054161
0.056134
0.057526
0.053606
0.037407
0.004931
-0.037174
-0.072718
-0.087234
-0.076784
-0.047523
-0.011546
0.017221
0.029881
0.028127
0.019820
0.010494
0.002033
-0.004413
-0.007757
-0.008363
-0.008686
-0.011341
-0.015676
-0.016096
-0.006271
0.013636
0.036151
0.051507
0.051590
0.032455
-0.002424
-0.039240
-0.057831
-0.045441
-0.008337
0.031102
0.050131
0.041425
0.015294
-0.009685
-0.016815
-0.001332
0.023121
0.034117
0.021468
-0.003575
-0.019511
-0.012565
0.013490
0.041394
0.053751
0.045498
0.027862
0.020353
0.034504
0.062179
0.080469
0.072118
0.042348
0.012287
-0.002177
-0.000840
0.005948
0.006249
-0.005963
-0.026022
-0.041404
-0.041976
-0.028416
-0.010644
0.002200
0.009114
0.015411
0.026351
0.041810
0.055154
0.056610
0.038542
0.000966
-0.045034
-0.079622
-0.084114
-0.054746
-0.008078
0.030862
0.047948
0.047725
0.043780
0.044288
0.046419
0.041123
0.022446
-0.006306
-0.034973
-0.053547
-0.055571
-0.039166
-0.010081
0.019625
0.039349
0.045537
0.042356
0.037806
0.035933
0.033479
0.026771
0.018381
0.011726
0.004090
-0.009146
-0.027148
-0.042042
-0.042793
-0.023571
0.010079
0.044321
0.064794
0.063139
0.042017
0.014528
-0.004487
-0.007208
0.005276
0.025571
0.043185
0.048453
0.037021
0.011715
-0.019275
-0.046372
-0.063036
-0.067174
-0.058783
-0.038808
-0.012242
0.011507
0.026461
0.035198
0.042901
0.049620
0.049777
0.037689
0.013654
-0.014509
-0.036516
-0.046359
-0.042994
-0.026449
0.001898
0.034833
0.060230
0.068777
0.059146
0.037088
0.011497
-0.010045
-0.023006
-0.025928
-0.021440
-0.014538
-0.008505
-0.004662
-0.003663
-0.003569
-0.000063
0.007528
0.013492
0.012403
0.006487
0.003462
0.007798
0.016468
0.023312
0.025603
0.025881
0.028149
0.033680
0.040351
0.042700
0.033885
0.012391
-0.014370
-0.034815
-0.040191
-0.029311
-0.009730
0.007847
0.019266
0.029425
0.044486
0.064766
0.083875
0.088772
0.058899
-0.031017
-0.193999
-0.392450
-0.514169
-0.431581
-0.138748
0.155606
0.085244
-0.673847
-2.120588
-3.713714
-4.524262
-3.827929
-1.675556
1.058476
3.153630
3.729080
2.770143
1.156148
0.119803
0.464956
2.022281
3.734459
4.435909
3.742744
2.219958
0.784463
0.077364
0.221227
0.805690
1.063820
0.372903
-1.210094
-2.928217
-3.855179
-3.508249
-2.144887
-0.583505
0.327268
0.168225
-0.934459
-2.410086
-3.471670
-3.525091
-2.527160
-0.957031
0.507551
1.330287
1.442399
1.411638
2.012478
3.423286
5.060963
6.166424
6.200985
4.892408
2.465440
-0.276438
-2.630216
-4.711398
-7.066987
-9.640716
-11.399955
-10.914933
-7.454847
-1.945970
3.196148
5.533349
4.256936
0.876488
-1.601404
-0.680758
3.843194
9.748393
13.925580
14.281669
10.789675
5.433640
1.136277
-0.008845
1.923622
4.795789
5.660364
2.404363
-4.623623
-12.151143
-16.025627
-14.442178
-9.200852
-4.133846
-2.439466
-4.691588
-8.600748
-10.641668
-8.372784
-1.896175
6.395129
13.317915
16.468620
15.232411
10.867994
5.439531
0.512054
-3.142687
-5.071529
-4.987522
-3.097332
-0.291708
2.084755
2.738317
1.161915
-1.450325
-2.264112
0.911691
7.078943
12.753720
15.221275
14.171882
10.415527
4.547777
-2.403949
-8.245180
-10.979395
-10.612518
-8.659869
-6.151000
-2.868287
1.717047
7.562915
14.028853
19.660835
21.509254
15.903269
1.644430
-17.507435
-34.775455
-44.818222
-45.410385
-36.236874
-18.983521
1.364977
17.780479
25.073877
22.449272
12.464518
-1.429864
-15.597739
-25.445210
-26.195339
-16.156036
1.064484
18.672747
30.788095
34.237076
28.167135
14.153696
-3.297368
-17.975185
-24.880564
-22.606682
-13.806807
-4.041370
0.529688
-3.612565
-14.572954
-25.287195
-27.640978
-17.776737
1.513875
22.677553
37.137707
38.654682
26.495577
7.250081
-8.193830
-12.170040
-5.717213
3.395468
7.674819
4.867505
-2.389159
-9.320142
-10.898847
-3.068356
15.434108
40.887638
64.506378
76.641678
72.564728
54.604702
29.415920
3.744258
-17.775234
-32.930981
-42.089596
-47.320484
-49.849079
-48.552315
-41.297359
-27.165527
-7.521703
13.730510
30.804972
38.926708
37.834316
31.771967
25.556482
20.623478
14.420240
3.742892
-10.708991
-23.697309
-30.125694
-29.409260
-24.759254
-19.808929
-16.656704
-15.502415
-14.683582
-11.467263
-4.175534
5.652659
13.656604
16.187544
13.580624
9.396272
6.747165
6.456112
8.711813
14.525792
24.055334
34.315491
39.917767
36.379547
23.034014
3.908202
-13.615967
-22.444683
-19.920584
-8.934937
4.589151
15.187088
20.258789
20.428532
17.702677
13.078601
5.838039
-4.979052
-18.390505
-30.788172
-37.885925
-37.685631
-31.567648
-22.961678
-15.500270
-11.752910
-12.150943
-14.617404
-16.251572
-16.078436
-15.626050
-16.614389
-19.019079
-21.839218
-25.004553
-29.588276
-35.432549
-38.869316
-34.576527
-20.624027
-0.868225
17.108772
25.095882
17.644182
-3.958604
-31.273525
-53.750015
-64.349998
-61.595818
-48.534691
-30.359703
-11.773171
4.724309
18.236916
27.553883
31.177252
29.119387
23.230587
16.247652
11.246641
10.378598
12.784555
14.651689
12.377690
5.496081
-3.472824
-10.961936
-13.592024
-8.930061
2.659238
17.211000
30.602493
42.250931
53.266006
62.324360
65.833015
61.503822
50.070187
34.210701
17.578142
4.318942
-2.474016
-2.497463
1.716571
6.457213
8.826677
7.768137
3.929445
-1.283344
-7.081869
-13.845425
-22.030581
-30.545626
-36.041183
-34.227795
-23.450144
-7.566521
5.859439
11.204817
8.847276
4.170240
3.304222
9.327859
20.492222
30.505463
31.537859
19.533958
-1.859979
-22.951244
-34.741150
-34.876720
-27.766300
-20.343315
-18.045439
-22.196709
-28.609283
-29.530190
-18.978361
2.770592
28.619383
47.822594
51.523376
37.872574
13.159968
-11.863087
-27.316418
-28.044319
-15.538948
2.467636
15.617072
16.462519
4.653428
-13.130843
-27.450603
-31.611624
-25.365913
-14.700242
-7.303001
-6.837564
-10.780826
-13.274324
-9.733905
0.388481
13.314853
22.713467
23.217690
13.790615
-1.730700
-17.294971
-28.152893
-32.830250
-32.732887
-29.898211
-25.073418
-18.339903
-11.026309
-5.558849
-2.974901
-1.498330
1.664989
7.524823
14.860409
22.202612
29.543976
37.766430
46.648525
53.933655
56.069706
49.377220
31.661596
4.652214
-24.845909
-47.570145
-56.877186
-52.118980
-38.161270
-22.553244
-12.559060
-12.574611
-22.032738
-35.620560
-46.867916
-51.722652
-48.860657
-38.875977
-24.538904
-10.069883
1.250016
8.269952
11.267227
11.535102
11.454386
13.607629
19.223772
27.376740
35.646732
41.676281
44.190212
42.842079
37.675507
29.169727
18.950272
10.004277
5.075305
4.355469
5.720124
7.806622
11.819271
19.641306
30.692640
40.827591
44.325481
37.382755
20.130136
-3.798412
-28.851896
-49.414738
-61.434998
-63.256641
-55.563965
-40.609447
-21.322733
-0.908200
17.427015
30.908339
37.460831
36.092384
27.740986
15.574541
3.584602
-5.672395
-11.801786
-15.071539
-15.124814
-11.599028
-4.767301
4.916006
16.419994
27.095228
33.668720
34.512321
30.193529
22.375534
12.908542
3.408302
-5.132913
-12.198406
-16.950035
-18.576815
-18.217199
-19.247046
-24.265766
-32.243847
-39.441124
-42.830395
-42.119732
-38.935837
-35.133438
-32.331673
-32.435097
-37.248238
-46.428543
-56.082855
-60.761395
-57.512959
-47.778450
-35.483673
-23.611053
-12.338783
0.017343
14.612916
30.663845
45.713680
56.407810
59.375557
52.841808
38.328541
20.569206
4.786798
-7.052039
-17.504902
-30.671869
-48.100109
-67.677902
-84.851265
-93.539505
-87.411980
-63.015591
-22.867466
24.713434
69.435905
103.550514
123.721687
130.053940
124.635628
110.751427
92.165016
72.335541
53.801910
37.766319
24.264429
12.753978
2.183073
-8.884625
-20.584183
-29.800917
-31.204187
-21.254539
-1.271582
22.987089
43.855400
54.663597
52.808563
41.456238
27.622349
17.748161
14.211212
14.801021
15.452269
14.552332
14.890204
21.192484
36.024765
57.486862
79.173508
92.043488
88.024048
63.764530
22.560402
-26.195646
-70.057899
-98.335625
-106.150871
-95.374840
-72.560196
-45.616158
-21.054193
-2.912134
7.011037
8.809417
4.633764
-0.936813
-1.703369
6.722407
22.660158
37.954334
42.823875
31.632748
5.147131
-30.470898
-65.531281
-89.337219
-94.414024
-80.699173
-55.481457
-28.223742
-5.127366
12.048368
24.081146
32.914257
41.446445
52.397270
65.652397
76.847435
79.939270
71.914757
54.645168
32.312096
8.256878
-14.849169
-32.604477
-38.794510
-29.467768
-7.172875
19.671747
41.671387
52.631317
50.674389
38.056847
20.575380
5.293972
-3.297235
-6.023746
-8.094159
-14.991413
-28.596342
-46.346386
-63.223419
-74.391533
-76.554085
-67.803642
-47.288837
-15.854737
22.743385
61.551235
91.996559
106.601646
101.348740
77.289589
41.173260
3.486624
-26.291716
-43.718571
-49.586578
-47.306229
-40.348228
-31.171602
-21.186062
-11.167680
-2.274103
3.114134
2.297261
-5.663493
-19.031462
-34.398884
-48.396553
-58.759132
-64.358330
-65.140694
-62.555672
-59.165337
-56.831390
-55.423500
-53.272697
-48.106537
-37.816277
-21.934549
-3.145762
13.441231
23.441862
25.952175
23.312895
18.355534
12.050967
3.833723
-6.168763
-15.899970
-22.416492
-23.391294
-17.580521
-5.394044
9.829497
22.076620
25.915186
20.278095
8.998277
-2.475342
-10.905067
-16.366261
-20.591394
-24.696613
-28.243603
-30.073757
-29.394005
-25.750015
-18.835127
-9.003005
2.577648
14.384533
24.549551
30.595621
29.988050
21.488407
6.241573
-12.252884
-29.337662
-40.941864
-44.650734
-39.378979
-24.806440
-2.074026
25.166586
51.555782
72.342552
84.607704
87.078758
80.431717
67.700378
52.957977
38.815105
25.128809
10.353760
-5.925709
-22.257793
-36.678188
-47.796867
-54.600483
-56.091167
-51.681194
-41.880489
-28.335711
-12.997915
2.805024
18.137026
31.049080
38.160515
36.694962
26.859003
11.416702
-6.960099
-26.859274
-46.641117
-63.243584
-73.188248
-74.133408
-65.504395
-48.693081
-26.973944
-4.706840
13.944493
26.345476
32.212559
33.265610
32.067951
30.927612
31.066061
32.349968
34.185055
36.879158
41.549301
48.167683
54.067066
54.944569
47.345352
30.339373
5.698308
-22.716948
-49.841713
-70.754669
-82.522552
-85.385208
-81.797096
-73.897408
-62.166283
-46.659622
-28.651361
-10.395267
6.047379
19.187046
27.889915
31.522991
30.570145
26.697205
21.622480
16.079536
10.047924
3.441356
-3.406406
-9.018614
-10.514445
-5.349303
6.023300
19.842726
31.477892
37.582943
36.667244
29.315542
18.186289
6.968262
-1.218914
-4.916254
-4.546012
-1.722900
2.196609
7.341739
15.063940
26.295164
39.972210
52.735130
60.220608
59.405281
50.488041
36.704121
22.273003
10.533051
3.359754
0.927049
1.385313
1.537822
-1.138033
-6.561057
-12.065884
-14.669111
-13.340873
-8.965748
-2.802651
4.358494
11.957709
19.203926
25.071440
28.737606
29.653229
27.215170
21.274628
13.330893
6.309045
2.428917
1.588175
1.933577
1.403800
-1.235090
-5.877436
-10.963327
-13.924721
-12.279690
-5.343752
4.622814
13.583663
18.487738
18.807873
15.972408
12.243782
9.949822
10.678195
14.431111
19.504255
23.537298
24.878691
22.965200
17.865961
10.138488
1.234919
-6.415323
-10.392046
-9.849682
-6.200187
-2.115215
0.224840
0.056039
-2.127698
-4.944250
-6.395981
-4.384733
2.365144
13.260125
25.404572
34.498211
36.917717
31.534176
19.800474
4.583954
-10.858393
-23.684547
-32.418621
-37.392540
-40.195564
-42.883316
-47.523399
-55.443981
-65.991669
-76.128609
-81.788002
-80.030014
-70.431984
-55.102531
-37.698925
-22.052504
-10.839975
-4.674919
-2.069276
-0.511082
1.909485
5.464242
9.157951
12.466984
16.881172
24.991899
37.458954
51.339184
61.938877
66.038414
63.149044
54.573910
42.290417
28.387547
14.465150
1.213191
-11.244010
-22.766903
-33.098862
-41.956902
-48.957386
-53.662945
-55.789299
-55.192978
-51.874947
-46.466862
-40.577572
-36.113476
-34.084209
-34.193455
-35.592163
-37.840504
-40.914856
-44.362579
-46.913807
-47.164639
-44.347893
-38.295322
-29.165325
-17.790796
-6.223477
2.613442
6.193322
3.444633
-5.059339
-17.242447
-29.556265
-37.608749
-37.970348
-30.069679
-16.542204
-1.798399
10.080160
16.981283
19.476795
20.434483
23.397507
30.422642
40.831429
51.519142
58.296146
57.802830
49.561317
36.824287
25.137774
19.597383
22.779476
34.097500
50.210022
66.177887
77.107063
79.766991
73.659706
60.999607
45.380661
30.079670
17.362371
8.665279
4.549176
4.327481
6.142849
7.978988
9.189172
10.998166
15.082221
21.797520
29.872568
37.066998
40.670902
38.203423
28.965918
15.324072
1.658969
-8.581315
-14.635045
-17.678930
-19.279873
-20.261909
-20.077478
-17.338865
-11.500571
-4.017349
2.180661
4.284271
1.104178
-6.361600
-15.579102
-23.882723
-29.833206
-33.813961
-37.425331
-42.132320
-48.171070
-54.225632
-58.028908
-57.629482
-52.368382
-43.047745
-31.628447
-20.597408
-11.966665
-6.410451
-3.229391
-1.076767
1.311668
4.753569
9.395742
14.667846
19.663916
23.636248
26.148499
27.075958
26.557833
24.642611
21.129730
16.243237
11.306273
8.234188
8.241554
