EVENT_NAME: EMILIA_2ND_SHOCK
EVENT_ID: IT-2012-0011
EVENT_DATE_YYYYMMDD: 20120529
EVENT_TIME_HHMMSS: 070002
EVENT_LATITUDE_DEGREE: 44.8417
EVENT_LONGITUDE_DEGREE: 11.0657
EVENT_DEPTH_KM: 8.1
HYPOCENTER_REFERENCE: INGV-CNT_Seismic_Bulletin
MAGNITUDE_W: 6.0
MAGNITUDE_W_REFERENCE: RCMT-INGV
MAGNITUDE_L: 5.8
MAGNITUDE_L_REFERENCE: INGV-CNT_Seismic_Bulletin
FOCAL_MECHANISM: TF
NETWORK: IT
STATION_CODE: NVL
STATION_NAME: NOVELLARA
STATION_LATITUDE_DEGREE: 44.843001
STATION_LONGITUDE_DEGREE: 10.731506
STATION_ELEVATION_M: 22
LOCATION: 
SENSOR_DEPTH_M: 0.0
VS30_M/S: 190
SITE_CLASSIFICATION_EC8: C
MORPHOLOGIC_CLASSIFICATION: 
EPICENTRAL_DISTANCE_KM: 26.4
EARTHQUAKE_BACKAZIMUTH_DEGREE: 90.2
DATE_TIME_FIRST_SAMPLE_YYYYMMDD_HHMMSS: 20120529_065933.000
DATE_TIME_FIRST_SAMPLE_PRECISION: seconds
SAMPLING_INTERVAL_S: 0.005000
NDATA: 28001
DURATION_S: 140.005
STREAM: HNE
UNITS: cm/s^2
INSTRUMENT: sensor = MS2007+ [Syscom] | digitizer = 130-01/3 [Reftek]
INSTRUMENT_ANALOG/DIGITAL: D
INSTRUMENTAL_FREQUENCY_HZ: 
INSTRUMENTAL_DAMPING: 
FULL_SCALE_G: 
N_BIT_DIGITAL_CONVERTER: 24
PGA_CM/S^2: -52.955355
TIME_PGA_S: 45.205000
BASELINE_CORRECTION: BASELINE REMOVED
FILTER_TYPE: BUTTERWORTH
FILTER_ORDER: 2
LOW_CUT_FREQUENCY_HZ: 0.060
HIGH_CUT_FREQUENCY_HZ: 30.000
LATE/NORMAL_TRIGGERED: NT
DATABASE_VERSION: DYNA 1.0
HEADER_FORMAT: DYNA 1.2
DATA_TYPE: ACCELERATION
PROCESSING: manual (Paolucci et al., 2011)
DATA_TIMESTAMP_YYYYMMDD_HHMMSS: 
DATA_LICENSE: CC-BY3_0-IT (http://creativecommons.org/licenses/by/3.0/deed.en)
DATA_CITATION: ESM working group (2015), European Strong-Motion database, version 0.1, Network Activity 3: Networking acceleration networks and SM data users. Project NERA (www.nera-eu.org)
DATA_CREATOR: ESM working group
ORIGINAL_DATA_MEDIATOR_CITATION: Ufficio Rischio Sismico e Vulcanico del Dipartimento della Protezione Civile (http://www.protezionecivile.gov.it/)
ORIGINAL_DATA_MEDIATOR: Rete Accelerometrica Nazionale - RAN Download (http://www.mot1.it/randownload/)
ORIGINAL_DATA_CREATOR_CITATION: Italian Strong Motion Network, Italian Civil Protection Department http://www.protezionecivile.gov.it
ORIGINAL_DATA_CREATOR: network: IT (Italian Strong Motion Network); owner: Dipartimento Della Protezione Civile
USER1: 
USER2: 
USER3: 
USER4: 
USER5: 
[...]
-0.864658
-1.510102
-1.762701
-1.300141
-0.027431
1.427380
1.999147
1.294458
0.055605
-0.733921
-0.846021
-0.692935
-0.619817
-0.626704
-0.537991
-0.165077
0.558963
1.375919
1.719702
1.216746
0.231741
-0.350443
-0.056201
0.668695
1.030186
0.734621
0.102224
-0.434271
-0.713899
-0.850758
-1.034382
-1.284365
-1.356618
-0.984031
-0.227960
0.479560
0.661432
0.214175
-0.446859
-0.776840
-0.706951
-0.672018
-0.917760
-1.018103
-0.360587
0.964138
2.078393
2.231653
1.547450
0.697872
0.130164
-0.082733
0.089279
0.610249
1.075729
0.898111
-0.047237
-1.193824
-1.831604
-1.752789
-1.283735
-0.837575
-0.597918
-0.552682
-0.587137
-0.491598
-0.102660
0.457657
0.869544
1.034638
1.192834
1.472885
1.559752
1.099162
0.315654
-0.119551
0.124383
0.652937
0.834185
0.459011
-0.169320
-0.575289
-0.417348
0.305006
1.146681
1.444738
0.824412
-0.471861
-1.726587
-2.267458
-1.967209
-1.213992
-0.402339
0.303189
0.685947
0.441221
-0.319622
-0.926801
-0.858397
-0.366756
-0.105460
-0.255529
-0.328537
0.154624
1.069078
1.850421
1.995569
1.301028
-0.047137
-1.359618
-1.754723
-0.990069
0.220719
1.075932
1.592281
2.175434
2.561648
1.935065
0.234307
-1.329447
-1.553436
-0.645435
0.226787
0.455576
0.359647
0.283576
0.135251
-0.203936
-0.626403
-1.036674
-1.491760
-2.018093
-2.405808
-2.250163
-1.305200
0.135796
1.356510
1.834098
1.635481
1.132158
0.496582
-0.337661
-1.296757
-1.968039
-1.872049
-0.917094
0.393482
1.249059
1.226114
0.740863
0.551198
0.762416
0.741479
0.184314
-0.248712
0.198367
1.198507
1.586937
0.758832
-0.604274
-1.292320
-0.737450
0.647643
1.942193
2.333598
1.572656
0.134238
-1.156949
-1.823103
-2.004646
-2.028413
-1.898642
-1.339744
-0.283054
0.778737
1.058019
0.268594
-0.897438
-1.336843
-0.615366
0.671466
1.572860
1.640351
1.134548
0.559656
0.132385
-0.243245
-0.614219
-0.871960
-1.008558
-1.094984
-0.902404
-0.050550
1.188631
1.753590
0.921797
-0.761225
-2.089254
-2.442083
-2.055683
-1.356870
-0.517113
0.428262
1.408825
2.296386
2.840300
2.670473
1.636655
0.191891
-0.847560
-1.086905
-0.864364
-0.639677
-0.434011
-0.155506
-0.070332
-0.456047
-1.013377
-1.121519
-0.602786
0.166000
0.861322
1.535434
2.246115
2.703950
2.536875
1.750925
0.700310
-0.301564
-1.110749
-1.554838
-1.388027
-0.564821
0.542166
1.313328
1.343569
0.793439
0.247256
0.130410
0.318147
0.444322
0.459283
0.551418
0.541673
-0.167135
-1.807554
-3.758082
-5.072293
-5.194688
-4.011030
-1.719437
0.950491
2.835971
3.209104
2.396819
1.227481
0.089214
-1.153482
-2.522082
-3.562968
-3.622896
-2.399159
-0.339584
1.485928
2.186373
1.873490
1.459479
1.469440
1.364950
0.388567
-1.214350
-2.348630
-2.313561
-1.387483
-0.261144
0.573156
0.852481
0.510813
-0.157833
-0.622098
-0.610498
-0.326138
-0.070753
0.164042
0.607372
1.325286
2.033988
2.297063
1.974403
1.553539
1.881239
3.298059
5.054733
5.875544
5.212418
3.740925
2.499538
1.731428
0.781388
-0.923875
-3.007809
-4.369601
-4.205919
-2.700879
-0.799198
0.503708
0.742418
0.165949
-0.588834
-1.093623
-1.358343
-1.540538
-1.688881
-1.811415
-2.015929
-2.539782
-3.617996
-5.152079
-6.490733
-6.769130
-5.614554
-3.486098
-1.310824
0.179924
0.833280
0.979509
1.056431
1.285462
1.641807
2.063543
2.545715
2.945449
2.879742
2.115782
1.070693
0.627084
1.280471
2.599403
3.670042
4.025616
4.010406
4.157401
4.320491
3.724861
1.986342
-0.236838
-1.878774
-2.571783
-2.840644
-3.245170
-3.584879
-3.103030
-1.444510
0.735147
2.231970
2.293225
1.062395
-0.748179
-2.310391
-2.971658
-2.626970
-1.963979
-1.928431
-2.645161
-3.140096
-2.441832
-0.762998
0.701014
1.009929
0.276205
-0.614996
-0.759591
0.218183
1.942445
3.461196
3.975392
3.561459
2.900246
2.261945
1.227599
-0.406407
-1.948151
-2.438646
-1.685857
-0.348071
0.744096
1.063520
0.519066
-0.481212
-1.209744
-1.126977
-0.276350
0.788731
1.455437
1.545761
1.410542
1.433065
1.479396
1.063147
0.066790
-1.017661
-1.722511
-2.174328
-2.727329
-3.199306
-2.872896
-1.361357
0.804424
2.692753
3.899271
4.614940
4.862101
4.186867
2.353098
0.026354
-1.558359
-1.620140
-0.504952
0.633091
0.927338
0.636299
0.740691
1.690240
2.776439
2.781202
1.064950
-1.920875
-4.944897
-6.805773
-7.035738
-5.965454
-4.243764
-2.422710
-0.901866
0.047712
0.388188
0.356126
0.293053
0.454403
0.967763
1.828697
2.860091
3.771222
4.323109
4.422858
4.119983
3.581216
2.993161
2.405555
1.721675
0.894117
0.082988
-0.405085
-0.287328
0.560162
1.967963
3.355827
3.905628
3.168378
1.599241
0.292148
0.060592
0.855377
1.997131
2.716232
2.550481
1.618163
0.538891
-0.244452
-1.026232
-2.316109
-3.792385
-4.336574
-3.317608
-1.407340
0.137863
0.676942
0.478769
0.205629
0.384301
1.075951
1.753225
1.743342
1.079272
0.649529
1.176792
2.301726
3.053041
2.993573
2.467017
1.902084
1.402571
0.998885
0.810829
0.814393
0.749977
0.438284
0.061984
-0.002881
0.354607
0.778275
0.835299
0.582040
0.503270
0.841261
1.292968
1.555643
1.949324
3.202274
5.531953
8.035273
9.222583
8.370246
6.299796
4.634263
4.295594
4.846854
5.195463
4.724419
3.776784
3.237422
3.626483
4.434941
4.454876
3.062990
1.127690
0.271333
1.128295
2.620111
3.142670
2.273960
1.040996
0.586316
0.911864
1.038350
0.124988
-1.786974
-3.968262
-5.638362
-6.429605
-6.521595
-6.441905
-6.522419
-6.416804
-5.339863
-2.950399
0.106359
2.642329
3.779237
3.283593
1.435382
-0.974668
-2.786555
-3.340849
-3.212389
-3.405368
-3.860506
-3.621032
-2.596502
-2.169269
-3.532829
-6.154817
-8.536665
-9.984572
-10.898103
-11.640758
-11.990559
-11.731206
-11.052541
-10.122092
-8.789286
-7.051576
-5.469467
-4.736012
-4.946885
-5.533547
-5.841854
-5.644803
-5.211512
-4.991997
-5.140424
-5.319625
-5.066570
-4.253286
-3.045715
-1.612592
-0.132838
1.068258
1.661771
1.555878
0.905782
0.018592
-0.668271
-0.702650
0.092074
1.450960
2.842659
3.818874
4.254156
4.309017
4.165555
3.823999
3.154410
2.036481
0.408027
-1.676129
-3.961760
-6.150130
-8.206905
-10.243963
-11.984217
-12.732219
-12.144083
-10.765020
-9.591093
-9.268207
-9.762685
-10.549460
-11.032303
-10.978353
-10.658934
-10.514557
-10.614745
-10.426180
-9.215162
-6.873417
-4.348135
-2.959911
-3.051386
-3.421123
-2.380790
0.539540
4.111931
6.754961
8.175263
9.398266
11.280927
13.482095
15.105139
15.948184
16.706074
18.065798
19.900131
21.314863
21.362583
19.862371
17.646456
15.823335
14.670491
13.358779
10.802163
6.687667
1.675325
-3.289253
-7.740608
-11.793603
-15.674652
-19.329359
-22.441355
-24.663267
-25.800304
-25.901922
-25.215767
-23.909323
-21.781464
-18.441977
-13.925901
-8.985194
-4.582141
-1.112805
1.807288
4.806910
8.024752
10.976328
13.227220
15.034754
17.077150
19.617584
22.153889
23.845604
24.145885
23.182598
21.782122
20.988157
21.201433
21.771841
21.675756
20.559504
18.873634
17.090405
15.217781
13.165608
11.172298
9.598526
8.499844
7.596271
6.478985
4.607711
1.283262
-3.916590
-10.537420
-17.384069
-23.447523
-28.557140
-33.040897
-36.936798
-39.714958
-40.744015
-39.931019
-37.851784
-35.233536
-32.323742
-28.767221
-24.042709
-18.023685
-11.207802
-4.453146
1.510320
6.351805
10.035292
12.552804
13.765537
13.451623
11.555672
8.482247
5.020178
1.791920
-1.005999
-3.011224
-3.241469
-0.944238
3.143211
7.020414
9.068121
9.054564
7.490188
4.655199
0.712745
-3.645162
-7.324371
-9.606781
-10.494461
-10.421630
-9.971081
-9.782403
-10.329658
-11.549789
-12.715122
-12.842787
-11.445139
-8.964905
-6.375428
-4.231263
-2.105779
0.953353
5.378375
10.546374
15.328119
19.137054
22.343550
25.543472
28.460716
29.851309
28.716524
25.491488
21.770067
18.821304
16.520193
13.754081
9.768615
5.073237
1.064969
-1.199209
-1.853458
-1.952576
-2.486338
-3.583151
-4.449661
-4.040269
-1.954178
1.214619
4.438057
7.153075
9.531644
11.897934
14.076072
15.454204
15.614523
14.749358
13.437115
12.112476
10.824852
9.436194
7.921151
6.456372
5.253789
4.264977
3.061774
1.202747
-1.143695
-3.101666
-3.852133
-3.464206
-2.778031
-2.488769
-2.547769
-2.452776
-1.840900
-0.626245
1.265639
3.984566
7.467946
11.215468
14.476163
16.558865
16.922291
15.238723
11.587267
6.473662
0.537651
-5.747556
-12.143291
-18.502882
-24.522205
-29.594646
-33.009129
-34.400257
-34.005745
-32.416157
-30.077719
-27.121712
-23.583773
-19.497507
-14.700180
-8.829486
-1.766074
5.951372
13.305242
19.452501
24.167570
27.670813
30.175489
31.672800
32.009533
31.016291
28.642700
25.200159
21.464964
18.261015
15.866839
14.026518
12.577088
11.869560
12.360373
13.746099
14.766181
14.166459
11.779600
8.434889
4.971060
1.645338
-1.621780
-4.783837
-7.483137
-9.153637
-9.355707
-8.217592
-6.571595
-5.439163
-5.197954
-5.311678
-5.031860
-4.292371
-3.676180
-3.541217
-3.518090
-3.019314
-1.968944
-0.722476
0.537331
1.899300
3.376750
4.998959
7.128733
9.978011
12.758570
14.079755
13.430385
11.644314
9.655589
7.382279
4.188556
0.008757
-4.365045
-7.878601
-9.844539
-10.192597
-9.453220
-8.533376
-8.259250
-8.937941
-10.346484
-12.177652
-14.424891
-17.191010
-20.150047
-22.496771
-23.696934
-24.165174
-24.810116
-25.843103
-26.431034
-25.689444
-23.642336
-20.987144
-18.291910
-15.747039
-13.389930
-11.105024
-8.497923
-5.210034
-1.413623
2.351497
5.886564
9.483868
13.234792
16.619633
19.094028
20.753992
22.010130
22.811440
22.673809
21.429024
19.441011
16.970682
13.858381
10.115093
6.289709
2.785834
-0.761580
-4.867659
-9.232195
-13.016948
-15.976531
-18.664135
-21.467537
-24.068356
-26.062796
-27.568436
-28.836344
-29.632231
-29.469551
-28.318636
-26.699764
-25.112055
-23.644812
-22.074224
-20.076818
-17.388031
-13.935851
-9.821291
-5.148508
-0.009795
5.298069
10.230188
14.291297
17.201006
18.716867
18.664028
17.352383
15.648406
14.344276
13.588365
13.093142
12.719065
12.593862
12.689397
12.528496
11.476221
9.277567
6.207871
2.783343
-0.513776
-3.346845
-5.673250
-7.832578
-10.241108
-12.839428
-14.944438
-15.780751
-15.156882
-13.591750
-11.796547
-10.069184
-8.231069
-6.113803
-3.957133
-2.224263
-1.125739
-0.515373
-0.214728
-0.172311
-0.257942
-0.216828
-0.016857
-0.032920
-0.686400
-2.031172
-3.882609
-6.235272
-9.218173
-12.535022
-15.253284
-16.458820
-16.072412
-14.815144
-13.367986
-11.735642
-9.480488
-6.412449
-2.914675
0.309373
2.663014
3.934923
4.375232
4.469407
4.441792
3.993097
2.702083
0.683190
-1.338952
-2.674693
-3.241121
-3.365152
-3.166853
-2.473220
-1.416921
-0.740423
-1.158883
-2.572453
-4.231290
-5.578763
-6.549047
-7.041651
-6.589127
-4.830136
-2.053386
1.046675
4.061577
7.028911
9.955463
12.570244
14.679127
16.449070
18.110039
19.521416
20.224117
19.884926
18.599861
16.795271
14.891172
13.026513
11.064254
8.936803
7.039553
6.104649
6.475533
7.546323
8.051123
6.928862
3.955337
-0.289414
-4.933842
-9.333463
-13.204742
-16.339390
-18.270830
-18.324186
-16.062105
-11.690025
-6.009493
0.043515
5.853606
11.220669
16.116201
20.360004
23.523909
25.273445
25.862343
26.061983
26.398598
26.588167
25.901558
23.995018
21.207769
18.107031
14.986537
11.877414
8.806573
5.840763
2.991942
0.265258
-2.258523
-4.543284
-6.718517
-8.857211
-10.682738
-11.805519
-12.304089
-12.756069
-13.580308
-14.650158
-15.672882
-16.604790
-17.486347
-18.135237
-18.213684
-17.438776
-15.626079
-12.706603
-8.797514
-4.137651
1.062907
6.573444
11.965834
16.669024
20.257257
22.633284
23.966331
24.539511
24.645327
24.507629
24.188351
23.582500
22.615078
21.450447
20.371658
19.394835
18.092583
15.857724
12.321331
7.548724
1.958347
-3.866356
-9.357946
-14.077348
-17.685219
-19.859184
-20.373817
-19.306498
-17.068247
-14.228200
-11.423752
-9.363359
-8.646450
-9.481763
-11.663835
-14.808669
-18.518229
-22.365540
-25.923191
-28.939852
-31.415142
-33.386642
-34.707924
-35.198986
-35.018238
-34.686634
-34.563103
-34.321136
-33.128937
-30.445074
-26.515898
-21.994915
-17.203466
-11.897691
-5.730359
1.124545
7.845146
13.498162
17.689676
20.661184
22.873829
24.628473
25.942089
26.596285
26.385399
25.455589
24.304476
23.278172
22.108515
20.138086
17.072945
13.373765
9.777767
6.541393
3.329176
-0.220355
-4.069394
-7.988335
-11.945466
-16.038584
-20.085209
-23.492985
-25.635750
-26.320841
-25.806940
-24.306704
-21.524485
-16.859812
-10.174457
-2.227893
5.791617
13.039516
19.196970
24.177168
28.046312
31.130888
33.785580
35.970970
37.288544
37.515381
36.946400
36.040394
34.815048
32.827744
29.719627
25.568787
20.781162
15.911093
11.583603
8.260606
5.928226
4.212286
2.951996
2.576849
3.808123
6.967179
11.552836
16.417149
20.397985
23.047510
24.883202
26.727884
28.705994
30.101837
30.226830
29.070724
26.935125
23.757654
19.132069
12.902124
5.494344
-2.341763
-9.989655
-17.163277
-23.808481
-29.931665
-35.493656
-40.365257
-44.344456
-47.282436
-49.268360
-50.656792
-51.796158
-52.678570
-52.955357
-52.347603
-50.850056
-48.424973
-44.820400
-40.020359
-34.642086
-29.445078
-24.508198
-19.261200
-13.285835
-6.736156
-0.022691
6.494464
12.430169
17.366459
21.109926
23.824789
25.850571
27.424141
28.526962
29.009090
28.978640
29.025461
29.870930
31.782017
34.454372
37.400936
40.214951
42.418777
43.337570
42.372681
39.369743
34.626575
28.608295
21.738543
14.403148
7.023049
0.051337
-6.106485
-11.161637
-14.956732
-17.510803
-19.160089
-20.628624
-22.815939
-26.380766
-31.397148
-37.254028
-42.864319
-47.212902
-49.954071
-51.443710
-52.093155
-51.838425
-50.390850
-47.808475
-44.526169
-40.894676
-36.918736
-32.369228
-26.957209
-20.491732
-13.096051
-5.295158
2.212311
8.876638
14.373916
18.482788
21.069529
22.222189
22.237768
21.361988
19.634966
17.129717
14.301972
11.948963
10.732687
10.746365
11.573370
12.750229
14.109693
15.679756
17.365559
18.834293
19.743128
20.089544
20.331011
21.112593
22.804384
25.266953
28.066605
30.879986
33.634121
36.275566
38.483898
39.665199
39.263466
37.130322
33.588867
29.111748
24.021612
18.554655
13.025831
7.775157
3.106628
-0.607788
-2.995393
-4.034740
-4.167184
-3.864522
-3.179132
-1.898963
-0.098649
1.667001
2.818148
3.315755
3.594568
3.886869
3.821248
2.826301
0.778440
-1.816814
-4.113777
-5.397950
-5.509596
-4.894248
-4.164803
-3.596421
-3.036354
-2.238177
-1.252236
-0.491075
-0.412131
-1.175585
-2.657734
-4.712101
-7.214449
-9.827454
-11.989520
-13.326663
-13.939244
-14.112644
-13.855151
-12.950677
-11.460790
-9.934499
-8.984007
-8.744951
-8.854699
-8.885409
-8.667590
-8.258505
-7.834397
-7.714184
-8.298705
-9.745211
-11.760284
-13.924158
-16.130075
-18.478039
-20.817614
-22.656290
-23.599945
-23.728951
-23.352337
-22.411430
-20.342867
-16.660433
-11.552713
-5.735665
0.252753
6.434788
12.986021
19.578856
25.377323
29.700094
32.430214
33.736252
33.707287
32.425579
30.213394
27.571051
24.786673
21.695984
17.977219
13.653260
9.151413
4.914473
1.132119
-2.121727
-4.648788
-6.199878
-6.767605
-6.628451
-6.040752
-5.017195
-3.456658
-1.389592
1.000338
3.497990
5.883497
7.887883
9.247663
9.836791
9.675693
8.836527
7.454893
5.741709
3.797271
1.521946
-1.099913
-3.760415
-6.091813
-8.128003
-10.360659
-13.287713
-16.885769
-20.532328
-23.479708
-25.379593
-26.311440
-26.402618
-25.618652
-23.959192
-21.657030
-19.068153
-16.504681
-14.248618
-12.546050
-11.435248
-10.648704
-9.804277
-8.713356
-7.468268
-6.233245
-4.959230
-3.282395
-0.750715
2.756686
6.839515
10.868917
14.486315
17.775126
20.920902
23.788832
25.953920
27.146482
27.584124
27.810625
28.211784
28.704485
28.848307
28.180355
26.493711
23.948341
20.919394
17.605663
13.806550
9.236953
4.057165
-1.087359
-5.630588
-9.559559
-13.216306
-16.749147
-19.916777
-22.323723
-23.670689
-23.877537
-23.141199
-21.822792
-20.145393
-18.004774
-15.144362
-11.515072
-7.429835
-3.372193
0.342880
3.773556
7.258744
11.069540
15.100672
18.899052
21.955402
23.974102
24.961473
25.076702
24.309269
22.318310
18.765402
13.873722
8.480780
3.390773
-1.230598
-5.697118
-10.148604
-14.271432
-17.682730
-20.364906
-22.594114
-24.637146
-26.713133
-29.060047
-31.700949
-34.179539
-35.864388
-36.613663
-36.882408
-36.999554
-36.530201
-34.634556
-31.006470
-26.182161
-20.921761
-15.588186
-10.218597
-4.900975
0.139161
4.686018
8.616475
11.928246
14.824458
17.733200
21.080803
24.938883
28.879822
32.201889
34.358986
35.237957
35.016979
33.734745
31.074699
26.683218
20.705885
13.960704
7.543111
2.209440
-1.874941
-4.833706
-6.677311
-7.278787
-6.676679
-5.292141
-3.752154
-2.464670
-1.400650
-0.305027
0.879251
1.786264
1.871044
0.948515
-0.517613
-1.720319
-2.124976
-1.778742
-1.059454
-0.228991
0.716050
1.859347
3.189893
4.628630
6.093942
7.446306
8.441912
8.854030
8.636886
7.924887
6.910290
5.792547
4.827136
4.308369
4.376223
4.798180
5.040050
4.660841
3.627900
2.239999
0.813688
-0.556084
-2.021412
-3.810084
-5.990768
-8.380254
-10.690251
-12.774837
-14.716932
-16.658087
-18.594543
-20.397955
-21.980679
-23.352039
-24.544769
-25.558807
-26.364479
-26.919952
-27.164061
-26.973478
-26.144758
-24.490587
-22.002131
-18.866827
-15.277145
-11.298201
-7.010789
-2.712056
1.184905
4.497618
7.413758
10.178737
12.689217
14.516737
15.336937
15.262009
14.761524
14.321776
14.192534
14.397221
14.874285
15.543406
16.307810
17.095558
17.857067
18.450644
18.610533
18.093887
16.781408
14.636538
11.711367
8.239256
4.619155
1.222313
-1.771248
-4.306021
-6.265416
-7.418111
-7.530449
-6.478474
-4.267099
-1.038391
2.892795
7.097354
11.190926
14.898197
18.013262
20.461737
22.377451
23.903845
24.879210
24.877579
23.631207
21.296587
18.174498
14.295997
9.551004
4.133871
-1.490223
-7.042817
-12.510361
-17.731695
-22.237011
-25.597111
-27.675148
-28.464102
-27.972033
-26.473005
-24.704914
-23.492586
-23.073139
-22.999292
-22.822866
-22.656628
-22.892906
-23.582235
-24.359198
-24.872524
-24.999292
-24.637360
-23.573988
-21.699518
-19.180202
-16.262653
-12.972325
-9.103157
-4.482047
0.828666
6.580524
12.462310
18.097425
23.028652
26.857140
29.404751
30.674597
30.695858
29.514219
27.329081
24.541414
21.600389
18.829624
16.455568
14.715744
13.752541
13.362699
12.996651
12.146489
10.766636
9.303083
8.314281
8.048123
8.358840
8.987359
9.833550
10.918065
12.137320
13.108612
13.271821
12.158010
9.577881
5.626940
0.625905
-4.949537
-10.607942
-15.975617
-20.769514
-24.654106
-27.233528
