EVENT_NAME: EMILIA_2ND_SHOCK
EVENT_ID: IT-2012-0011
EVENT_DATE_YYYYMMDD: 20120529
EVENT_TIME_HHMMSS: 070002
EVENT_LATITUDE_DEGREE: 44.8417
EVENT_LONGITUDE_DEGREE: 11.0657
EVENT_DEPTH_KM: 8.1
HYPOCENTER_REFERENCE: INGV-CNT_Seismic_Bulletin
MAGNITUDE_W: 6.0
MAGNITUDE_W_REFERENCE: RCMT-INGV
MAGNITUDE_L: 5.8
MAGNITUDE_L_REFERENCE: INGV-CNT_Seismic_Bulletin
FOCAL_MECHANISM: TF
NETWORK: IT
STATION_CODE: NVL
STATION_NAME: NOVELLARA
STATION_LATITUDE_DEGREE: 44.843001
STATION_LONGITUDE_DEGREE: 10.731506
STATION_ELEVATION_M: 22
LOCATION: 
SENSOR_DEPTH_M: 0.0
VS30_M/S: 190
SITE_CLASSIFICATION_EC8: C
MORPHOLOGIC_CLASSIFICATION: 
EPICENTRAL_DISTANCE_KM: 26.4
EARTHQUAKE_BACKAZIMUTH_DEGREE: 90.2
DATE_TIME_FIRST_SAMPLE_YYYYMMDD_HHMMSS: 20120529_065933.000
DATE_TIME_FIRST_SAMPLE_PRECISION: seconds
SAMPLING_INTERVAL_S: 0.005000
NDATA: 28001
DURATION_S: 140.005
STREAM: HNN
UNITS: cm/s
INSTRUMENT: sensor = MS2007+ [Syscom] | digitizer = 130-01/3 [Reftek]
INSTRUMENT_ANALOG/DIGITAL: D
INSTRUMENTAL_FREQUENCY_HZ: 
INSTRUMENTAL_DAMPING: 
FULL_SCALE_G: 
N_BIT_DIGITAL_CONVERTER: 24
PGV_CM/S: -2.946425
TIME_PGV_S: 47.100000
BASELINE_CORRECTION: BASELINE REMOVED
FILTER_TYPE: BUTTERWORTH
FILTER_ORDER: 2
LOW_CUT_FREQUENCY_HZ: 0.060
HIGH_CUT_FREQUENCY_HZ: 30.000
LATE/NORMAL_TRIGGERED: NT
DATABASE_VERSION: DYNA 1.0
HEADER_FORMAT: DYNA 1.2
DATA_TYPE: VELOCITY
PROCESSING: manual (Paolucci et al., 2011)
DATA_TIMESTAMP_YYYYMMDD_HHMMSS: 
DATA_LICENSE: CC-BY3_0-IT (http://creativecommons.org/licenses/by/3.0/deed.en)
DATA_CITATION: ESM working group (2015), European Strong-Motion database, version 0.1, Network Activity 3: Networking acceleration networks and SM data users. Project NERA (www.nera-eu.org)
DATA_CREATOR: ESM working group
ORIGINAL_DATA_MEDIATOR_CITATION: Ufficio Rischio Sismico e Vulcanico del Dipartimento della Protezione Civile (http://www.protezionecivile.gov.it/)
ORIGINAL_DATA_MEDIATOR: Rete Accelerometrica Nazionale - RAN Download (http://www.mot1.it/randownload/)
ORIGINAL_DATA_CREATOR_CITATION: Italian Strong Motion Network, Italian Civil Protection Department http://www.protezionecivile.gov.it
ORIGINAL_DATA_CREATOR: network: IT (Italian Strong Motion Network); owner: Dipartimento Della Protezione Civile
USER1: 
USER2: 
USER3: 
USER4: 
USER5: 
[...]
-0.017819
-0.025316
-0.031996
-0.038311
-0.047161
-0.061365
-0.081196
-0.103777
-0.124802
-0.141316
-0.153005
-0.160764
-0.164562
-0.163399
-0.157087
-0.147330
-0.136992
-0.128318
-0.120994
-0.111380
-0.094913
-0.071008
-0.045691
-0.027810
-0.021611
-0.023581
-0.027080
-0.029186
-0.032230
-0.039769
-0.052526
-0.067652
-0.080399
-0.086811
-0.086802
-0.085243
-0.088547
-0.098933
-0.112270
-0.121750
-0.123228
-0.117224
-0.107043
-0.095750
-0.084504
-0.073153
-0.062183
-0.053566
-0.048999
-0.047390
-0.045163
-0.039859
-0.033219
-0.030063
-0.033828
-0.043292
-0.053557
-0.059751
-0.059849
-0.055081
-0.048853
-0.045178
-0.046822
-0.053640
-0.062304
-0.068355
-0.069703
-0.068635
-0.069882
-0.076209
-0.086092
-0.095779
-0.102981
-0.107928
-0.111318
-0.112238
-0.108569
-0.099238
-0.085884
-0.072252
-0.061730
-0.055085
-0.050222
-0.044276
-0.036700
-0.030749
-0.031316
-0.040347
-0.054224
-0.066164
-0.071771
-0.072893
-0.076583
-0.090045
-0.115441
-0.148414
-0.181189
-0.207570
-0.225857
-0.237964
-0.246438
-0.252467
-0.256065
-0.257208
-0.256424
-0.254735
-0.253451
-0.253730
-0.255663
-0.257728
-0.257862
-0.255595
-0.252658
-0.250822
-0.249492
-0.246578
-0.242170
-0.240278
-0.245589
-0.258355
-0.273185
-0.283027
-0.284005
-0.277139
-0.267264
-0.260650
-0.261195
-0.266737
-0.270012
-0.265252
-0.253747
-0.241639
-0.232732
-0.225234
-0.215500
-0.202928
-0.190332
-0.180994
-0.176359
-0.175402
-0.174895
-0.170974
-0.161812
-0.148742
-0.134162
-0.118803
-0.101809
-0.083083
-0.064753
-0.050393
-0.042896
-0.042316
-0.045118
-0.046317
-0.043499
-0.038676
-0.035467
-0.034670
-0.033524
-0.029423
-0.023015
-0.016490
-0.009437
0.001913
0.020802
0.046292
0.073957
0.099426
0.120782
0.138116
0.151524
0.159687
0.160390
0.152536
0.137681
0.119504
0.101410
0.083961
0.064222
0.038387
0.006249
-0.026909
-0.054110
-0.073088
-0.087916
-0.103069
-0.116505
-0.120611
-0.110494
-0.089831
-0.067656
-0.050540
-0.038880
-0.029462
-0.019452
-0.008174
0.002678
0.009657
0.010161
0.005885
0.002610
0.004774
0.010642
0.014729
0.015170
0.016763
0.025754
0.042982
0.063373
0.081259
0.095193
0.108749
0.128288
0.159111
0.201513
0.250169
0.298514
0.343781
0.386945
0.428512
0.466083
0.495871
0.514679
0.520162
0.511393
0.490499
0.462161
0.429722
0.392497
0.348333
0.297767
0.243588
0.186830
0.125917
0.060851
-0.003486
-0.059689
-0.103095
-0.134140
-0.156237
-0.172353
-0.183519
-0.189421
-0.189196
-0.181361
-0.163944
-0.136168
-0.100628
-0.063062
-0.028973
-0.000199
0.025179
0.050296
0.077738
0.109638
0.147248
0.188885
0.229373
0.263569
0.290635
0.313508
0.333987
0.349628
0.355982
0.351024
0.336769
0.317202
0.295314
0.271626
0.244707
0.213053
0.177178
0.140434
0.107568
0.081604
0.061444
0.042903
0.023172
0.004769
-0.005318
-0.001027
0.018051
0.047477
0.083443
0.126674
0.180048
0.242699
0.307788
0.366660
0.414387
0.450651
0.476081
0.489206
0.487301
0.469147
0.436089
0.390995
0.337153
0.277522
0.213144
0.141782
0.059836
-0.033102
-0.132521
-0.232979
-0.333076
-0.434882
-0.538615
-0.639634
-0.731543
-0.811240
-0.879469
-0.936522
-0.979030
-1.002126
-1.004300
-0.989497
-0.964993
-0.937826
-0.912276
-0.889056
-0.866462
-0.843109
-0.820002
-0.799563
-0.782293
-0.764780
-0.741730
-0.710254
-0.671960
-0.630825
-0.589623
-0.549110
-0.510399
-0.476907
-0.453316
-0.443096
-0.447390
-0.465728
-0.497192
-0.541111
-0.596960
-0.663238
-0.736040
-0.809062
-0.875765
-0.931877
-0.975724
-1.006348
-1.021641
-1.018316
-0.993641
-0.947658
-0.884295
-0.810050
-0.730888
-0.650441
-0.571586
-0.499375
-0.441101
-0.402792
-0.386125
-0.389305
-0.410363
-0.448846
-0.504528
-0.575068
-0.654940
-0.736477
-0.812329
-0.877580
-0.929537
-0.964886
-0.976930
-0.956559
-0.897206
-0.799429
-0.670610
-0.520352
-0.356178
-0.182913
-0.004902
0.171966
0.340333
0.493036
0.624312
0.729324
0.803328
0.842695
0.846895
0.818169
0.759009
0.671598
0.560711
0.435922
0.309593
0.192993
0.094761
0.021292
-0.024308
-0.044253
-0.045068
-0.033001
-0.010978
0.019427
0.054431
0.088403
0.117870
0.143536
0.167022
0.185930
0.193374
0.183183
0.155694
0.118147
0.079035
0.041718
0.003125
-0.041591
-0.092987
-0.145386
-0.190717
-0.224599
-0.249324
-0.271451
-0.296394
-0.324630
-0.352372
-0.375626
-0.393770
-0.409408
-0.424737
-0.437889
-0.442579
-0.431449
-0.400366
-0.349989
-0.283415
-0.202574
-0.107379
0.001457
0.119044
0.236196
0.343174
0.433897
0.506649
0.561136
0.595771
0.608417
0.599161
0.571171
0.528299
0.472154
0.401867
0.316650
0.218486
0.112699
0.006611
-0.091999
-0.175741
-0.238327
-0.275535
-0.286062
-0.271737
-0.236876
-0.186812
-0.126017
-0.056692
0.021022
0.106566
0.195667
0.279285
0.346442
0.388787
0.402566
0.386387
0.338291
0.256445
0.142430
0.002235
-0.156570
-0.327627
-0.505040
-0.680937
-0.845717
-0.991555
-1.114845
-1.214486
-1.288674
-1.334572
-1.350488
-1.336585
-1.293147
-1.219956
-1.119103
-0.998117
-0.868784
-0.742022
-0.623734
-0.514813
-0.413646
-0.318034
-0.225965
-0.136543
-0.051075
0.027648
0.098617
0.165391
0.234364
0.309221
0.387271
0.461543
0.526023
0.577969
0.615073
0.631662
0.619253
0.571296
0.487247
0.372614
0.235923
0.085528
-0.071374
-0.227170
-0.372045
-0.495116
-0.588420
-0.650049
-0.683204
-0.691860
-0.676753
-0.634986
-0.563647
-0.464429
-0.345338
-0.218279
-0.094875
0.016394
0.110621
0.185016
0.237053
0.264233
0.266418
0.248032
0.216010
0.174062
0.119492
0.046862
-0.045260
-0.151840
-0.265101
-0.379303
-0.491423
-0.598401
-0.695187
-0.775857
-0.836023
-0.873829
-0.889402
-0.884380
-0.861582
-0.823371
-0.769360
-0.696567
-0.602821
-0.489540
-0.360597
-0.219598
-0.069869
0.083477
0.233890
0.377059
0.513556
0.647204
0.781353
0.916726
1.051371
1.181337
1.301695
1.407747
1.495312
1.559735
1.595602
1.598899
1.569763
1.512328
1.431438
1.330080
1.210366
1.076208
0.934152
0.791884
0.656677
0.534847
0.431401
0.349789
0.292535
0.261946
0.259376
0.283862
0.332326
0.401165
0.486982
0.585967
0.693596
0.805326
0.916829
1.023390
1.120330
1.205085
1.278051
1.340057
1.389366
1.422565
1.438290
1.438836
1.428269
1.410421
1.388622
1.365300
1.340584
1.311989
1.276051
1.229895
1.171462
1.099690
1.015373
0.921323
0.821193
0.718584
0.617671
0.523754
0.441595
0.372452
0.313283
0.259517
0.208587
0.160703
0.117060
0.078378
0.044944
0.016783
-0.006583
-0.025804
-0.040906
-0.051458
-0.058011
-0.062975
-0.069312
-0.077979
-0.086629
-0.090904
-0.087147
-0.074067
-0.052009
-0.021118
0.019254
0.069219
0.126773
0.187845
0.248155
0.305316
0.359443
0.411983
0.464015
0.515621
0.566770
0.618613
0.673558
0.733585
0.798280
0.864774
0.929736
0.990914
1.046259
1.092107
1.123561
1.137454
1.134803
1.120111
1.098442
1.073158
1.045536
1.015430
0.982021
0.944342
0.901339
0.851397
0.792064
0.720896
0.637157
0.543043
0.443436
0.344398
0.251455
0.168434
0.097149
0.038324
-0.006403
-0.033331
-0.038390
-0.020444
0.017332
0.068933
0.126983
0.182292
0.223742
0.241017
0.228329
0.185155
0.113661
0.016772
-0.100697
-0.230490
-0.362434
-0.488136
-0.602990
-0.705096
-0.793296
-0.866279
-0.922397
-0.959579
-0.975980
-0.971534
-0.948954
-0.913201
-0.870389
-0.827127
-0.789852
-0.763392
-0.749421
-0.746138
-0.749504
-0.755154
-0.759887
-0.762200
-0.761820
-0.758364
-0.749979
-0.733430
-0.706118
-0.668214
-0.622469
-0.571669
-0.516485
-0.456030
-0.390395
-0.322069
-0.254404
-0.189030
-0.125650
-0.064451
-0.007638
0.042127
0.084255
0.120530
0.153479
0.185301
0.217569
0.250100
0.279597
0.300702
0.309281
0.304274
0.286126
0.254451
0.208072
0.146316
0.068678
-0.026621
-0.142156
-0.278671
-0.433381
-0.600966
-0.775792
-0.953139
-1.128921
-1.298643
-1.456702
-1.596892
-1.713908
-1.804410
-1.866578
-1.898990
-1.900425
-1.870683
-1.810946
-1.722906
-1.607803
-1.466779
-1.302452
-1.120290
-0.928901
-0.739417
-0.564016
-0.413512
-0.295155
-0.212277
-0.165489
-0.153530
-0.172946
-0.217696
-0.279687
-0.350005
-0.420219
-0.483511
-0.535115
-0.571356
-0.587989
-0.579911
-0.543014
-0.476346
-0.382434
-0.265877
-0.132165
0.012065
0.158343
0.297027
0.419141
0.517512
0.586352
0.620639
0.617030
0.576074
0.503338
0.407524
0.296917
0.177675
0.055398
-0.062458
-0.166662
-0.249007
-0.305006
-0.334100
-0.337784
-0.317813
-0.275811
-0.213611
-0.133189
-0.036546
0.073372
0.191603
0.312100
0.430444
0.544904
0.653941
0.753627
0.839317
0.910072
0.970139
1.025593
1.080303
1.135370
1.191036
1.247541
1.304340
1.360036
1.413684
1.464972
1.512052
1.549818
1.571596
1.572847
1.553079
1.514613
1.460049
1.390680
1.306700
1.208611
1.098461
0.979815
0.856728
0.732708
0.610259
0.491234
0.378308
0.276789
0.194493
0.138528
0.111394
0.110054
0.128577
0.161613
0.205992
0.260289
0.323704
0.394620
0.468630
0.537772
0.593302
0.630475
0.650286
0.656200
0.650000
0.631807
0.603730
0.572214
0.546096
0.532337
0.533117
0.545802
0.565008
0.585291
0.602703
0.614086
0.615161
0.599881
0.562014
0.497667
0.406897
0.293377
0.162370
0.018508
-0.134787
-0.293847
-0.452964
-0.604330
-0.740184
-0.855338
-0.947736
-1.016678
-1.060943
-1.078949
-1.070320
-1.036384
-0.979025
-0.900031
-0.802318
-0.691140
-0.573011
-0.453680
-0.337965
-0.231048
-0.138276
-0.062985
-0.005364
0.036015
0.062356
0.074902
0.076202
0.070263
0.061795
0.055856
0.057517
0.070579
0.096192
0.133151
0.179770
0.235343
0.299860
0.372822
0.452487
0.535738
0.618113
0.694450
0.760958
0.817519
0.867523
0.914792
0.960814
1.004880
1.045737
1.082086
1.111983
1.132985
1.143343
1.142856
1.132742
1.115399
1.094447
1.074003
1.056745
1.042409
1.028662
1.013697
0.997756
0.981800
0.964700
0.941992
0.907520
0.856216
0.785716
0.696672
0.592902
0.481178
0.369423
0.263849
0.167680
0.082685
0.011331
-0.043168
-0.078669
-0.095442
-0.095576
-0.081360
-0.054465
-0.016453
0.030364
0.082498
0.135260
0.183145
0.220957
0.245357
0.255494
0.251853
0.234598
0.203659
0.160743
0.110644
0.059757
0.012875
-0.028570
-0.065227
-0.097094
-0.122009
-0.136102
-0.135084
-0.115465
-0.075624
-0.016541
0.058562
0.145921
0.243077
0.349000
0.462204
0.579074
0.694666
0.805097
0.908234
1.001509
1.079802
1.136482
1.166496
1.167656
1.139075
1.079883
0.990816
0.876739
0.746193
0.607608
0.466122
0.324119
0.184053
0.049797
-0.074440
-0.185326
-0.280208
-0.356908
-0.414758
-0.455411
-0.481825
-0.496773
-0.503221
-0.505975
-0.511600
-0.525425
-0.548372
-0.577002
-0.606677
-0.634569
-0.660221
-0.684466
-0.708562
-0.733832
-0.760983
-0.789192
-0.815792
-0.836618
-0.846385
-0.838992
-0.808205
-0.748859
-0.658110
-0.536043
-0.385199
-0.209351
-0.012424
0.201886
0.429899
0.667358
0.908666
1.146765
1.374319
1.585129
1.773974
1.935346
2.063672
2.155730
2.212493
2.237799
2.234946
2.204729
2.146450
2.059883
1.945796
1.805388
1.640591
1.455354
1.256037
1.049918
0.843249
0.640927
0.447805
0.269550
0.111534
-0.023132
-0.134092
-0.222101
-0.287329
-0.329988
-0.352718
-0.361562
-0.364044
-0.366603
-0.374123
-0.390931
-0.420733
-0.465026
-0.522231
-0.589067
-0.662428
-0.739252
-0.815079
-0.884127
-0.941386
-0.984247
-1.012065
-1.025017
-1.024058
-1.011415
-0.989855
-0.960657
-0.922267
-0.871220
-0.804741
-0.723082
-0.629902
-0.530615
-0.430260
-0.332405
-0.239130
-0.151298
-0.068626
0.010448
0.088848
0.170376
0.258477
0.354921
0.459183
0.568609
0.679229
0.787362
0.891530
0.993053
1.094339
1.196487
1.298754
1.399983
1.499455
1.595494
1.683482
1.756316
1.807698
1.835130
1.839802
1.824219
1.790525
1.740573
1.676386
1.599997
1.513339
1.418832
1.319866
1.220069
1.121759
1.025555
0.932147
0.844071
0.764492
0.693745
0.628032
0.562695
0.496549
0.431957
0.370632
0.310654
0.248489
0.183163
0.117283
0.054239
-0.004323
-0.058156
-0.106836
-0.149192
-0.183394
-0.206721
-0.215571
-0.206548
-0.177926
-0.129902
-0.063512
0.020041
0.118409
0.226666
0.337812
0.445576
0.547000
0.642418
0.733228
0.819653
0.899976
0.971485
1.032486
1.083797
1.128139
1.167726
1.202494
1.230836
1.251867
1.266603
1.276913
1.283576
1.285439
1.280256
1.266139
1.242415
1.209592
1.168786
1.120950
1.066515
1.006236
0.942883
0.881755
0.828684
0.787278
0.758481
0.742703
0.741440
0.756175
0.786122
0.827673
0.875750
0.925203
0.971543
1.011687
1.044292
1.068552
1.082156
1.080904
1.060780
1.020149
0.959618
0.880052
0.781443
0.664048
0.530509
0.386618
0.239866
0.097072
-0.036982
-0.159117
-0.266377
-0.355369
-0.423265
-0.469684
-0.497598
-0.512134
-0.518015
-0.517567
-0.510746
-0.496863
-0.476333
-0.451209
-0.424585
-0.399702
-0.379256
-0.364816
-0.356332
-0.352136
-0.349622
-0.346141
-0.339516
-0.328285
-0.312161
-0.292742
-0.273856
-0.261120
-0.261012
-0.280054
-0.324311
-0.398762
-0.506111
-0.645522
-0.812584
-1.001029
-1.204971
-1.419777
-1.641154
-1.863980
-2.082410
-2.290806
-2.483773
-2.654852
-2.795403
-2.895424
-2.946425
-2.944742
-2.893219
-2.800406
-2.678123
-2.538989
-2.394885
-2.256146
-2.130883
-2.024369
-1.939129
-1.875884
-1.834363
-1.813007
-1.808146
-1.814183
-1.825254
-1.836732
-1.844854
-1.845258
-1.832906
-1.803952
-1.757099
-1.692626
-1.610705
-1.511697
-1.397909
-1.273886
-1.144308
-1.011880
-0.877393
-0.741150
-0.603666
-0.465334
-0.326485
-0.188353
-0.053701
0.073851
0.191058
0.295441
0.384619
0.455887
0.506964
0.536961
0.546033
0.534007
0.499825
0.442556
0.362918
0.264046
0.151212
0.030805
-0.090754
-0.207341
-0.312503
-0.398912
-0.459012
-0.486605
-0.478027
-0.432034
-0.349038
-0.230933
-0.081458
0.094135
0.290365
0.502436
0.725794
0.954688
1.180843
1.393342
1.580083
1.729931
1.834326
1.888014
1.889254
1.839929
1.745537
1.614289
1.455308
1.277367
1.088796
0.897275
0.708771
0.527178
0.356094
0.201237
0.070279
-0.030534
-0.099427
-0.138110
-0.148107
-0.129297
-0.082387
-0.011562
0.076191
0.173718
0.274871
0.373941
0.465761
0.547397
0.619136
0.682723
0.738617
0.785793
0.824153
0.855816
0.883355
0.907604
0.927980
0.944266
0.956889
0.965430
0.968015
0.962927
0.950360
0.931881
0.908429
0.879567
0.844700
0.804201
0.758911
0.709059
0.654404
0.595431
0.533828
0.471589
0.409986
0.349598
0.290796
0.233346
0.175170
0.112022
0.039155
-0.046189
-0.143675
-0.250776
-0.364343
-0.481312
-0.598628
-0.713297
-0.822634
-0.924022
-1.014395
-1.090303
-1.148612
-1.186822
-1.202482
-1.192816
-1.155768
-1.091771
-1.004252
-0.898190
-0.778041
-0.646659
-0.505681
-0.356764
-0.202627
-0.047264
0.104472
0.247335
0.376060
0.485920
0.573346
0.636044
0.672488
0.681505
0.662623
0.617008
0.548158
0.461644
0.363985
0.261597
0.160606
0.067177
-0.012617
-0.073442
-0.111247
-0.123434
-0.108965
-0.068652
-0.005203
0.077576
0.176052
0.287185
0.407480
0.532005
0.655498
0.774987
0.890790
1.004371
1.115475
1.221747
1.320562
1.410123
1.488510
1.552746
1.600043
1.630037
1.645132
1.648624
1.643118
1.630805
1.614414
1.597001
1.580716
1.566182
1.553290
1.542314
1.533994
1.528875
1.527195
1.529457
1.536464
1.548260
1.563141
1.578142
1.590690
1.599619
1.604543
1.604559
1.597900
1.582788
1.558283
1.524103
1.479887
1.425056
1.359396
1.283352
1.197532
1.102300
0.998397
0.887902
0.773994
0.659428
0.545502
0.432643
0.321422
0.212394
0.105176
-0.001582
-0.109111
-0.217715
-0.327189
-0.437636
-0.549264
-0.661317
-0.771726
-0.878156
-0.979109
-1.073719
-1.160736
-1.238137
-1.303778
-1.356338
-1.395866
-1.423616
-1.441134
-1.449129
-1.447292
-1.435475
-1.414898
-1.387835
-1.356113
-1.320377
-1.281008
-1.239481
-1.198544
-1.161100
-1.129095
-1.103300
-1.083661
-1.069500
-1.059512
-1.052045
-1.045708
-1.039810
-1.034298
-1.029494
-1.026003
-1.024761
-1.027047
-1.034264
-1.047436
-1.066735
-1.091511
-1.120680
-1.152849
-1.186131
-1.218260
-1.247025
-1.270440
-1.286500
-1.293259
-1.289703
-1.276722
-1.256988
-1.233638
-1.209130
-1.185502
-1.165496
-1.152984
-1.152055
-1.165692
-1.195203
-1.240489
-1.300556
-1.373987
-1.459294
-1.554909
-1.658727
-1.767718
-1.878134
-1.986081
-2.087778
-2.179382
-2.256970
-2.317006
-2.356747
-2.374116
-2.367554
-2.336507
-2.282042
-2.206483
-2.112214
-2.000944
-1.874082
-1.733456
-1.581534
-1.421224
-1.255618
-1.087757
-0.920275
-0.755073
-0.593283
-0.435489
-0.281833
-0.131809
0.015692
0.161731
0.306574
0.449572
0.589508
0.724678
0.852582
0.970031
1.074166
1.163528
1.238042
1.297977
1.343153
1.373186
1.388344
1.390073
1.380786
1.363217
1.339947
1.313502
1.286723
1.262730
1.244319
1.233332
1.230408
1.235092
1.246201
1.262241
1.281420
1.301195
1.318148
1.328848
1.331022
1.323715
1.306364
1.278018
1.237532
1.184223
1.118311
1.041078
0.954716
0.861562
0.762935
0.658584
0.547505
0.429579
0.306421
0.180625
0.054435
-0.070418
-0.191777
-0.306646
-0.412125
-0.506562
-0.589620
-0.661456
-0.722069
-0.771145
-0.808124
-0.832502
-0.844328
-0.844357
-0.833490
-0.812072
-0.779966
-0.737405
-0.685692
-0.627019
-0.563530
-0.496373
-0.425463
-0.350050
-0.269551
-0.184011
-0.094127
-0.001083
0.093475
0.187196
0.276840
0.358744
0.429870
0.488356
0.532881
0.561588
0.571854
0.561053
0.527350
0.469873
0.388475
0.283567
0.156095
0.007492
-0.160213
-0.343875
-0.538823
-0.739394
-0.940073
-1.135858
-1.321510
-1.491137
-1.639231
-1.762230
-1.858899
-1.929349
-1.973972
-1.993239
-1.987984
-1.959730
-1.911143
-1.846296
-1.769968
-1.686195
-1.597432
-1.504941
-1.409563
-1.312061
-1.213183
-1.113749
-1.014516
-0.915852
-0.817728
-0.720181
-0.623652
-0.528819
-0.436330
-0.346832
-0.261164
-0.180390
-0.105515
-0.037034
0.025206
0.081564
0.132173
0.177110
0.216783
0.251845
0.282833
0.310149
0.334192
0.355079
0.372435
0.385979
0.396248
0.404193
0.410045
0.413126
0.412999
0.410396
0.406794
0.403390
0.400619
0.398300
0.395897
0.392823
0.388745
0.383506
0.376556
0.366677
0.352495
0.333280
0.309056
0.280064
0.246533
0.209157
0.169338
0.128457
0.087040
0.045024
0.002763
-0.038608
-0.077864
-0.114358
-0.147666
-0.176589
-0.198925
-0.212329
-0.215069
-0.205769
-0.183000
-0.145744
-0.094060
-0.028637
0.050403
0.143798
0.252061
0.374356
0.508543
0.652056
0.802464
0.957241
1.113305
1.267110
1.415312
1.555430
1.686019
1.806277
1.915382
2.011939
2.093773
2.158060
2.201741
2.222153
2.217748
2.188494
2.135495
2.059976
1.962644
1.844135
1.705896
1.550381
1.380600
1.199875
1.011971
0.820943
0.630543
0.443865
0.263671
0.092848
-0.065883
-0.211035
-0.343084
-0.463880
-0.575143
-0.677454
-0.770650
