EVENT_NAME: CENTRAL_ITALY
EVENT_ID: EMSC-20161030_0000029
EVENT_DATE_YYYYMMDD: 20161030
EVENT_TIME_HHMMSS: 064018
EVENT_LATITUDE_DEGREE: 42.8400
EVENT_LONGITUDE_DEGREE: 13.1100
EVENT_DEPTH_KM: 9.4
HYPOCENTER_REFERENCE: INGV-webservice
MAGNITUDE_W: 6.5
MAGNITUDE_W_REFERENCE: INGV-webservice
MAGNITUDE_L: 6.1
MAGNITUDE_L_REFERENCE: INGV-webservice
FOCAL_MECHANISM: NF
NETWORK: IT
STATION_CODE: NRC
STATION_NAME: NORCIA
STATION_LATITUDE_DEGREE: 42.792543
STATION_LONGITUDE_DEGREE: 13.096475
STATION_ELEVATION_M: 616
LOCATION: 
SENSOR_DEPTH_M: 0.0
VS30_M/S: 687
SITE_CLASSIFICATION_EC8: B
MORPHOLOGIC_CLASSIFICATION: SL
EPICENTRAL_DISTANCE_KM: 5.4
EARTHQUAKE_BACKAZIMUTH_DEGREE: 11.8
DATE_TIME_FIRST_SAMPLE_YYYYMMDD_HHMMSS: 20161030_064013.314
DATE_TIME_FIRST_SAMPLE_PRECISION: milliseconds
SAMPLING_INTERVAL_S: 0.005000
NDATA: 10000
DURATION_S: 50.000
STREAM: HGE
UNITS: cm
INSTRUMENT: sensor = Unknown [Unknown] | digitizer = Unknown [Unknown]
INSTRUMENT_ANALOG/DIGITAL: D
INSTRUMENTAL_FREQUENCY_HZ: 
INSTRUMENTAL_DAMPING: 
FULL_SCALE_G: 
N_BIT_DIGITAL_CONVERTER: 
PGD_CM: -17.977680
TIME_PGD_S: 11.540000
BASELINE_CORRECTION: BASELINE REMOVED
FILTER_TYPE: BUTTERWORTH
FILTER_ORDER: 2
LOW_CUT_FREQUENCY_HZ: 0.100
HIGH_CUT_FREQUENCY_HZ: 50.000
LATE/NORMAL_TRIGGERED: NT
DATABASE_VERSION: DYNA 1.0
HEADER_FORMAT: DYNA 1.2
DATA_TYPE: DISPLACEMENT
PROCESSING: manual (Paolucci et al., 2011)
DATA_TIMESTAMP_YYYYMMDD_HHMMSS: 20161030_132633.881
DATA_LICENSE: CC-BY3_0-IT (http://creativecommons.org/licenses/by/3.0/deed.en)
DATA_CITATION: ESM working group (2015), European Strong-Motion database, version 0.1, Network Activity 3: Networking acceleration networks and SM data users. Project NERA (www.nera-eu.org)
DATA_CREATOR: ESM working group
ORIGINAL_DATA_MEDIATOR_CITATION: Ufficio Rischio Sismico e Vulcanico del Dipartimento della Protezione Civile (http://www.protezionecivile.gov.it/)
ORIGINAL_DATA_MEDIATOR: Rete Accelerometrica Nazionale - RAN Download (http://www.mot1.it/randownload/)
ORIGINAL_DATA_CREATOR_CITATION: Italian Strong Motion Network, Italian Civil Protection Department http://www.protezionecivile.gov.it
ORIGINAL_DATA_CREATOR: network: IT (Italian Strong Motion Network); owner: Dipartimento Della Protezione Civile
USER1: /home/dyna/processing-itaca/processing.py /var/www/processing//tmp/Lucia//IT.NRC..HGE.D.20161030.064018.X.ACC.ASC /var/www/processing//tmp/Lucia//IT.NRC..HGN.D.20161030.064018.X.ACC.ASC /var/www/processing//tmp/Lucia//IT.NRC..HGZ.D.20161030.064018.X.ACC.ASC --tmp /var/www/processing//tmp/Lucia/ --le 0.100 --he 50.000 --ln 0.100 --hn 50.000 --lz 0.100 --hz 50.000 --fo 2 --ca 0 --cz 130 --ta 5 --tz 5 --mf 1 --rf 0 --tr NT
USER2: 
USER3: 
USER4: 
USER5: 
[...]
2.741054e+00
2.759835e+00
2.778552e+00
2.797178e+00
2.815718e+00
2.834199e+00
2.852662e+00
2.871147e+00
2.889691e+00
2.908308e+00
2.926979e+00
2.945675e+00
2.964386e+00
2.983101e+00
3.001802e+00
3.020481e+00
3.039135e+00
3.057737e+00
3.076272e+00
3.094765e+00
3.113250e+00
3.131724e+00
3.150153e+00
3.168509e+00
3.186782e+00
3.204958e+00
3.223029e+00
3.241019e+00
3.258975e+00
3.276941e+00
3.294963e+00
3.313114e+00
3.331476e+00
3.350118e+00
3.369083e+00
3.388381e+00
3.407980e+00
3.427827e+00
3.447872e+00
3.468077e+00
3.488421e+00
3.508901e+00
3.529527e+00
3.550285e+00
3.571107e+00
3.591909e+00
3.612642e+00
3.633285e+00
3.653805e+00
3.674175e+00
3.694395e+00
3.714466e+00
3.734368e+00
3.754088e+00
3.773667e+00
3.793195e+00
3.812762e+00
3.832422e+00
3.852201e+00
3.872120e+00
3.892222e+00
3.912563e+00
3.933222e+00
3.954290e+00
3.975836e+00
3.997874e+00
4.020374e+00
4.043306e+00
4.066660e+00
4.090419e+00
4.114540e+00
4.138937e+00
4.163502e+00
4.188127e+00
4.212716e+00
4.237201e+00
4.261567e+00
4.285830e+00
4.310002e+00
4.334079e+00
4.358021e+00
4.381724e+00
4.405057e+00
4.427929e+00
4.450306e+00
4.472195e+00
4.493663e+00
4.514822e+00
4.535802e+00
4.556709e+00
4.577611e+00
4.598529e+00
4.619441e+00
4.640270e+00
4.660920e+00
4.681355e+00
4.701631e+00
4.721854e+00
4.742154e+00
4.762678e+00
4.783519e+00
4.804684e+00
4.826152e+00
4.847918e+00
4.869993e+00
4.892419e+00
4.915264e+00
4.938582e+00
4.962421e+00
4.986820e+00
5.011765e+00
5.037153e+00
5.062831e+00
5.088621e+00
5.114346e+00
5.139872e+00
5.165167e+00
5.190319e+00
5.215467e+00
5.240732e+00
5.266167e+00
5.291740e+00
5.317372e+00
5.343042e+00
5.368794e+00
5.394670e+00
5.420708e+00
5.447001e+00
5.473700e+00
5.500953e+00
5.528832e+00
5.557311e+00
5.586295e+00
5.615640e+00
5.645167e+00
5.674732e+00
5.704292e+00
5.733890e+00
5.763577e+00
5.793347e+00
5.823110e+00
5.852685e+00
5.881879e+00
5.910611e+00
5.938974e+00
5.967140e+00
5.995227e+00
6.023309e+00
6.051482e+00
6.079838e+00
6.108373e+00
6.137010e+00
6.165680e+00
6.194341e+00
6.222955e+00
6.251522e+00
6.280136e+00
6.308985e+00
6.338284e+00
6.368177e+00
6.398704e+00
6.429866e+00
6.461683e+00
6.494193e+00
6.527425e+00
6.561401e+00
6.596128e+00
6.631546e+00
6.667498e+00
6.703796e+00
6.740281e+00
6.776815e+00
6.813289e+00
6.849654e+00
6.885870e+00
6.921841e+00
6.957467e+00
6.992753e+00
7.027777e+00
7.062627e+00
7.097393e+00
7.132176e+00
7.167016e+00
7.201840e+00
7.236525e+00
7.271007e+00
7.305251e+00
7.339134e+00
7.372421e+00
7.404879e+00
7.436370e+00
7.466900e+00
7.496671e+00
7.526065e+00
7.555494e+00
7.585233e+00
7.615367e+00
7.645847e+00
7.676563e+00
7.707412e+00
7.738381e+00
7.769619e+00
7.801359e+00
7.833761e+00
7.866865e+00
7.900685e+00
7.935230e+00
7.970431e+00
8.006149e+00
8.042291e+00
8.078831e+00
8.115700e+00
8.152767e+00
8.189937e+00
8.227193e+00
8.264537e+00
8.301964e+00
8.339461e+00
8.376957e+00
8.414298e+00
8.451379e+00
8.488299e+00
8.525304e+00
8.562595e+00
8.600239e+00
8.638245e+00
8.676648e+00
8.715530e+00
8.755022e+00
8.795343e+00
8.836731e+00
8.879289e+00
8.922944e+00
8.967560e+00
9.013028e+00
9.059290e+00
9.106363e+00
9.154287e+00
9.203022e+00
9.252393e+00
9.302130e+00
9.351932e+00
9.401534e+00
9.450753e+00
9.499487e+00
9.547647e+00
9.595076e+00
9.641547e+00
9.686817e+00
9.730634e+00
9.772726e+00
9.812862e+00
9.850917e+00
9.886862e+00
9.920709e+00
9.952522e+00
9.982420e+00
1.001054e+01
1.003698e+01
1.006178e+01
1.008488e+01
1.010617e+01
1.012546e+01
1.014257e+01
1.015736e+01
1.016979e+01
1.017995e+01
1.018792e+01
1.019384e+01
1.019788e+01
1.020025e+01
1.020106e+01
1.020036e+01
1.019815e+01
1.019444e+01
1.018926e+01
1.018254e+01
1.017419e+01
1.016416e+01
1.015246e+01
1.013923e+01
1.012471e+01
1.010916e+01
1.009284e+01
1.007601e+01
1.005901e+01
1.004219e+01
1.002585e+01
1.001026e+01
9.995648e+00
9.982085e+00
9.969490e+00
9.957702e+00
9.946538e+00
9.935820e+00
9.925426e+00
9.915280e+00
9.905283e+00
9.895269e+00
9.885020e+00
9.874283e+00
9.862791e+00
9.850286e+00
9.836503e+00
9.821128e+00
9.803812e+00
9.784260e+00
9.762287e+00
9.737853e+00
9.711039e+00
9.681987e+00
9.650831e+00
9.617686e+00
9.582677e+00
9.545979e+00
9.507809e+00
9.468395e+00
9.427955e+00
9.386723e+00
9.344957e+00
9.302900e+00
9.260717e+00
9.218442e+00
9.175948e+00
9.132959e+00
9.089157e+00
9.044274e+00
8.998100e+00
8.950466e+00
8.901243e+00
8.850330e+00
8.797627e+00
8.743027e+00
8.686395e+00
8.627578e+00
8.566454e+00
8.502988e+00
8.437231e+00
8.369244e+00
8.299047e+00
8.226630e+00
8.152019e+00
8.075275e+00
7.996459e+00
7.915568e+00
7.832520e+00
7.747161e+00
7.659327e+00
7.568911e+00
7.475879e+00
7.380192e+00
7.281770e+00
7.180525e+00
7.076410e+00
6.969425e+00
6.859624e+00
6.747199e+00
6.632530e+00
6.516169e+00
6.398813e+00
6.281296e+00
6.164555e+00
6.049544e+00
5.937123e+00
5.827968e+00
5.722555e+00
5.621210e+00
5.524174e+00
5.431653e+00
5.343824e+00
5.260828e+00
5.182764e+00
5.109709e+00
5.041749e+00
4.978988e+00
4.921549e+00
4.869560e+00
4.823091e+00
4.782121e+00
4.746566e+00
4.716302e+00
4.691125e+00
4.670721e+00
4.654711e+00
4.642754e+00
4.634608e+00
4.630111e+00
4.629122e+00
4.631480e+00
4.637058e+00
4.645808e+00
4.657735e+00
4.672849e+00
4.691142e+00
4.712579e+00
4.737063e+00
4.764450e+00
4.794632e+00
4.827603e+00
4.863421e+00
4.902133e+00
4.943747e+00
4.988261e+00
5.035690e+00
5.086042e+00
5.139312e+00
5.195509e+00
5.254731e+00
5.317221e+00
5.383328e+00
5.453367e+00
5.527546e+00
5.605981e+00
5.688697e+00
5.775532e+00
5.866093e+00
5.959829e+00
6.056151e+00
6.154502e+00
6.254381e+00
6.355343e+00
6.456988e+00
6.558969e+00
6.661021e+00
6.762907e+00
6.864321e+00
6.964858e+00
7.064056e+00
7.161399e+00
7.256244e+00
7.347780e+00
7.435096e+00
7.517359e+00
7.594005e+00
7.664824e+00
7.729849e+00
7.789164e+00
7.842831e+00
7.890978e+00
7.933873e+00
7.971857e+00
8.005200e+00
8.034020e+00
8.058354e+00
8.078280e+00
8.093954e+00
8.105478e+00
8.112755e+00
8.115564e+00
8.113892e+00
8.108156e+00
8.099065e+00
8.087357e+00
8.073682e+00
8.058570e+00
8.042396e+00
8.025378e+00
8.007612e+00
7.989087e+00
7.969804e+00
7.949950e+00
7.929858e+00
7.909729e+00
7.889463e+00
7.868776e+00
7.847499e+00
7.825756e+00
7.803846e+00
7.782111e+00
7.761030e+00
7.741301e+00
7.723630e+00
7.708494e+00
7.696171e+00
7.686873e+00
7.680715e+00
7.677547e+00
7.676814e+00
7.677601e+00
7.678822e+00
7.679431e+00
7.678546e+00
7.675555e+00
7.670164e+00
7.662337e+00
7.652141e+00
7.639664e+00
7.625099e+00
7.608826e+00
7.591350e+00
7.573151e+00
7.554622e+00
7.536072e+00
7.517767e+00
7.499955e+00
7.482833e+00
7.466444e+00
7.450692e+00
7.435470e+00
7.420770e+00
7.406701e+00
7.393479e+00
7.381364e+00
7.370601e+00
7.361377e+00
7.353749e+00
7.347593e+00
7.342658e+00
7.338619e+00
7.335030e+00
7.331310e+00
7.326779e+00
7.320734e+00
7.312577e+00
7.301913e+00
7.288534e+00
7.272373e+00
7.253578e+00
7.232577e+00
7.209978e+00
7.186298e+00
7.161825e+00
7.136728e+00
7.111270e+00
7.085930e+00
7.061365e+00
7.038166e+00
7.016588e+00
6.996545e+00
6.977898e+00
6.960672e+00
6.945036e+00
6.931093e+00
6.918640e+00
6.907128e+00
6.895854e+00
6.884179e+00
6.871513e+00
6.857168e+00
6.840348e+00
6.820344e+00
6.796673e+00
6.769067e+00
6.737426e+00
6.701806e+00
6.662419e+00
6.619652e+00
6.574026e+00
6.526133e+00
6.476592e+00
6.425995e+00
6.374835e+00
6.323492e+00
6.272300e+00
6.221568e+00
6.171541e+00
6.122325e+00
6.073860e+00
6.026083e+00
5.979180e+00
5.933557e+00
5.889587e+00
5.847527e+00
5.807645e+00
5.770269e+00
5.735668e+00
5.703950e+00
5.675021e+00
5.648559e+00
5.623988e+00
5.600640e+00
5.577998e+00
5.555749e+00
5.533555e+00
5.510938e+00
5.487480e+00
5.463049e+00
5.437738e+00
5.411586e+00
5.384436e+00
5.356060e+00
5.326349e+00
5.295279e+00
5.262696e+00
5.228257e+00
5.191594e+00
5.152481e+00
5.110834e+00
5.066672e+00
5.020079e+00
4.971178e+00
4.920109e+00
4.867007e+00
4.811939e+00
4.754824e+00
4.695490e+00
4.633803e+00
4.569690e+00
4.502984e+00
4.433313e+00
4.360203e+00
4.283280e+00
4.202256e+00
4.116801e+00
4.026575e+00
3.931412e+00
3.831359e+00
3.726534e+00
3.617032e+00
3.502890e+00
3.384048e+00
3.260357e+00
3.131693e+00
2.998005e+00
2.859249e+00
2.715354e+00
2.566235e+00
2.411758e+00
2.251709e+00
2.085898e+00
1.914286e+00
1.736965e+00
1.554052e+00
1.365705e+00
1.172195e+00
9.738936e-01
7.711635e-01
5.642540e-01
3.533111e-01
1.385148e-01
-7.981361e-02
-3.012453e-01
-5.253306e-01
-7.516532e-01
-9.798814e-01
-1.209835e+00
-1.441483e+00
-1.674845e+00
-1.909918e+00
-2.146696e+00
-2.385139e+00
-2.625056e+00
-2.866034e+00
-3.107501e+00
-3.348882e+00
-3.589774e+00
-3.830013e+00
-4.069558e+00
-4.308325e+00
-4.546081e+00
-4.782434e+00
-5.016915e+00
-5.249129e+00
-5.478846e+00
-5.705948e+00
-5.930304e+00
-6.151773e+00
-6.370271e+00
-6.585743e+00
-6.798107e+00
-7.007312e+00
-7.213427e+00
-7.416564e+00
-7.616689e+00
-7.813559e+00
-8.006873e+00
-8.196449e+00
-8.382308e+00
-8.564642e+00
-8.743740e+00
-8.919928e+00
-9.093576e+00
-9.265131e+00
-9.435009e+00
-9.603387e+00
-9.770173e+00
-9.935186e+00
-1.009835e+01
-1.025968e+01
-1.041909e+01
-1.057623e+01
-1.073063e+01
-1.088188e+01
-1.102978e+01
-1.117410e+01
-1.131449e+01
-1.145047e+01
-1.158144e+01
-1.170679e+01
-1.182605e+01
-1.193887e+01
-1.204500e+01
-1.214419e+01
-1.223622e+01
-1.232089e+01
-1.239809e+01
-1.246770e+01
-1.252958e+01
-1.258353e+01
-1.262929e+01
-1.266662e+01
-1.269539e+01
-1.271550e+01
-1.272685e+01
-1.272940e+01
-1.272333e+01
-1.270911e+01
-1.268755e+01
-1.265974e+01
-1.262690e+01
-1.259026e+01
-1.255093e+01
-1.250983e+01
-1.246773e+01
-1.242547e+01
-1.238401e+01
-1.234435e+01
-1.230741e+01
-1.227405e+01
-1.224502e+01
-1.222090e+01
-1.220212e+01
-1.218882e+01
-1.218091e+01
-1.217815e+01
-1.218035e+01
-1.218737e+01
-1.219885e+01
-1.221410e+01
-1.223212e+01
-1.225191e+01
-1.227255e+01
-1.229323e+01
-1.231323e+01
-1.233200e+01
-1.234905e+01
-1.236390e+01
-1.237618e+01
-1.238570e+01
-1.239251e+01
-1.239676e+01
-1.239854e+01
-1.239788e+01
-1.239478e+01
-1.238929e+01
-1.238138e+01
-1.237086e+01
-1.235734e+01
-1.234038e+01
-1.231961e+01
-1.229477e+01
-1.226565e+01
-1.223208e+01
-1.219383e+01
-1.215070e+01
-1.210265e+01
-1.204995e+01
-1.199307e+01
-1.193257e+01
-1.186890e+01
-1.180239e+01
-1.173324e+01
-1.166160e+01
-1.158763e+01
-1.151145e+01
-1.143324e+01
-1.135327e+01
-1.127184e+01
-1.118935e+01
-1.110619e+01
-1.102264e+01
-1.093882e+01
-1.085472e+01
-1.077041e+01
-1.068596e+01
-1.060144e+01
-1.051675e+01
-1.043169e+01
-1.034596e+01
-1.025920e+01
-1.017121e+01
-1.008193e+01
-9.991349e+00
-9.899477e+00
-9.806366e+00
-9.712191e+00
-9.617205e+00
-9.521617e+00
-9.425534e+00
-9.328959e+00
-9.231824e+00
-9.134064e+00
-9.035741e+00
-8.937082e+00
-8.838304e+00
-8.739431e+00
-8.640333e+00
-8.540906e+00
-8.441157e+00
-8.341147e+00
-8.240938e+00
-8.140669e+00
-8.040651e+00
-7.941399e+00
-7.843590e+00
-7.747980e+00
-7.655307e+00
-7.566196e+00
-7.481126e+00
-7.400467e+00
-7.324553e+00
-7.253701e+00
-7.188163e+00
-7.128034e+00
-7.073249e+00
-7.023653e+00
-6.979082e+00
-6.939331e+00
-6.904090e+00
-6.872981e+00
-6.845760e+00
-6.822451e+00
-6.803241e+00
-6.788277e+00
-6.777608e+00
-6.771253e+00
-6.769228e+00
-6.771580e+00
-6.778455e+00
-6.790126e+00
-6.806961e+00
-6.829406e+00
-6.858012e+00
-6.893415e+00
-6.936238e+00
-6.986949e+00
-7.045767e+00
-7.112688e+00
-7.187573e+00
-7.270246e+00
-7.360543e+00
-7.458299e+00
-7.563345e+00
-7.675502e+00
-7.794543e+00
-7.920203e+00
-8.052214e+00
-8.190332e+00
-8.334337e+00
-8.483997e+00
-8.639051e+00
-8.799261e+00
-8.964478e+00
-9.134670e+00
-9.309890e+00
-9.490207e+00
-9.675677e+00
-9.866415e+00
-1.006267e+01
-1.026475e+01
-1.047281e+01
-1.068674e+01
-1.090619e+01
-1.113070e+01
-1.135960e+01
-1.159206e+01
-1.182708e+01
-1.206360e+01
-1.230062e+01
-1.253724e+01
-1.277273e+01
-1.300652e+01
-1.323819e+01
-1.346746e+01
-1.369413e+01
-1.391797e+01
-1.413861e+01
-1.435570e+01
-1.456892e+01
-1.477804e+01
-1.498290e+01
-1.518329e+01
-1.537888e+01
-1.556928e+01
-1.575420e+01
-1.593344e+01
-1.610684e+01
-1.627408e+01
-1.643463e+01
-1.658798e+01
-1.673375e+01
-1.687171e+01
-1.700168e+01
-1.712347e+01
-1.723689e+01
-1.734182e+01
-1.743829e+01
-1.752644e+01
-1.760636e+01
-1.767796e+01
-1.774109e+01
-1.779571e+01
-1.784209e+01
-1.788070e+01
-1.791204e+01
-1.793656e+01
-1.795475e+01
-1.796723e+01
-1.797468e+01
-1.797768e+01
-1.797655e+01
-1.797144e+01
-1.796245e+01
-1.794981e+01
-1.793378e+01
-1.791466e+01
-1.789261e+01
-1.786770e+01
-1.783986e+01
-1.780910e+01
-1.777546e+01
-1.773897e+01
-1.769948e+01
-1.765671e+01
-1.761041e+01
-1.756033e+01
-1.750609e+01
-1.744721e+01
-1.738327e+01
-1.731385e+01
-1.723852e+01
-1.715692e+01
-1.706882e+01
-1.697410e+01
-1.687268e+01
-1.676448e+01
-1.664948e+01
-1.652788e+01
-1.640000e+01
-1.626614e+01
-1.612653e+01
-1.598145e+01
-1.583134e+01
-1.567665e+01
-1.551775e+01
-1.535495e+01
-1.518849e+01
-1.501857e+01
-1.484529e+01
-1.466870e+01
-1.448897e+01
-1.430645e+01
-1.412181e+01
-1.393583e+01
-1.374932e+01
-1.356313e+01
-1.337818e+01
-1.319546e+01
-1.301578e+01
-1.283966e+01
-1.266736e+01
-1.249900e+01
-1.233471e+01
-1.217465e+01
-1.201900e+01
-1.186776e+01
-1.172058e+01
-1.157674e+01
-1.143550e+01
-1.129632e+01
-1.115894e+01
-1.102327e+01
-1.088919e+01
-1.075650e+01
-1.062502e+01
-1.049473e+01
-1.036580e+01
-1.023837e+01
-1.011241e+01
-9.987822e+00
-9.864620e+00
-9.743015e+00
-9.623381e+00
-9.506186e+00
-9.391910e+00
-9.280929e+00
-9.173443e+00
-9.069501e+00
-8.969063e+00
-8.872039e+00
-8.778298e+00
-8.687645e+00
-8.599787e+00
-8.514358e+00
-8.431013e+00
-8.349468e+00
-8.269451e+00
-8.190639e+00
-8.112674e+00
-8.035214e+00
-7.957968e+00
-7.880717e+00
-7.803333e+00
-7.725740e+00
-7.647797e+00
-7.569264e+00
-7.489883e+00
-7.409461e+00
-7.327869e+00
-7.244994e+00
-7.160734e+00
-7.075041e+00
-6.987975e+00
-6.899710e+00
-6.810518e+00
-6.720775e+00
-6.630902e+00
-6.541307e+00
-6.452407e+00
-6.364722e+00
-6.278898e+00
-6.195661e+00
-6.115844e+00
-6.040503e+00
-5.970938e+00
-5.908525e+00
-5.854433e+00
-5.809470e+00
-5.774124e+00
-5.748704e+00
-5.733460e+00
-5.728596e+00
-5.734173e+00
-5.750013e+00
-5.775731e+00
-5.810865e+00
-5.854994e+00
-5.907745e+00
-5.968620e+00
-6.036758e+00
-6.110929e+00
-6.189822e+00
-6.272276e+00
-6.357209e+00
-6.443363e+00
-6.529194e+00
-6.613036e+00
-6.693348e+00
-6.768808e+00
-6.838252e+00
-6.900632e+00
-6.955003e+00
-7.000573e+00
-7.036760e+00
-7.063164e+00
-7.079496e+00
-7.085556e+00
-7.081159e+00
-7.066047e+00
-7.039928e+00
-7.002592e+00
-6.953957e+00
-6.893968e+00
-6.822499e+00
-6.739353e+00
-6.644361e+00
-6.537459e+00
-6.418666e+00
-6.288056e+00
-6.145798e+00
-5.992270e+00
-5.828171e+00
-5.654454e+00
-5.472134e+00
-5.282226e+00
-5.085808e+00
-4.884050e+00
-4.678103e+00
-4.468973e+00
-4.257508e+00
-4.044454e+00
-3.830539e+00
-3.616608e+00
-3.403722e+00
-3.193056e+00
-2.985700e+00
-2.782573e+00
-2.584502e+00
-2.392310e+00
-2.206778e+00
-2.028521e+00
-1.857940e+00
-1.695272e+00
-1.540740e+00
-1.394655e+00
-1.257300e+00
-1.128573e+00
-1.007717e+00
-8.934931e-01
-7.846567e-01
-6.802297e-01
-5.794193e-01
-4.814185e-01
-3.853507e-01
-2.904078e-01
-1.960101e-01
-1.018134e-01
-7.583056e-03
8.694715e-02
1.821327e-01
2.783378e-01
3.757539e-01
4.742824e-01
5.736132e-01
6.734273e-01
7.735715e-01
8.741036e-01
9.751835e-01
1.076895e+00
1.179173e+00
1.281919e+00
1.385133e+00
1.488888e+00
1.593158e+00
1.697720e+00
1.802204e+00
1.906141e+00
2.008855e+00
2.109403e+00
2.206684e+00
2.299633e+00
2.387339e+00
2.469008e+00
2.543904e+00
2.611434e+00
2.671258e+00
2.723208e+00
2.767115e+00
2.802774e+00
2.830075e+00
2.849043e+00
2.859738e+00
2.862206e+00
2.856542e+00
2.842967e+00
2.821823e+00
2.793502e+00
2.758405e+00
2.717009e+00
2.669946e+00
2.618008e+00
2.562082e+00
2.503180e+00
2.442478e+00
2.381295e+00
2.320999e+00
2.262899e+00
2.208104e+00
2.157447e+00
2.111515e+00
2.070704e+00
2.035229e+00
2.005176e+00
1.980587e+00
1.961441e+00
1.947620e+00
1.938950e+00
1.935216e+00
1.936071e+00
1.940977e+00
1.949296e+00
1.960413e+00
1.973763e+00
1.988756e+00
2.004705e+00
2.020833e+00
2.036333e+00
2.050418e+00
2.062310e+00
2.071228e+00
2.076411e+00
2.077165e+00
2.072896e+00
2.063138e+00
2.047532e+00
2.025765e+00
1.997511e+00
1.962425e+00
1.920178e+00
1.870475e+00
1.813060e+00
1.747755e+00
1.674504e+00
1.593376e+00
1.504516e+00
1.408103e+00
1.304359e+00
1.193588e+00
1.076215e+00
9.527915e-01
8.239642e-01
6.904704e-01
5.531326e-01
4.128062e-01
2.703406e-01
1.265917e-01
-1.758121e-02
-1.613600e-01
-3.040030e-01
-4.448678e-01
-5.834409e-01
-7.193486e-01
-8.523355e-01
-9.822565e-01
-1.109095e+00
-1.232980e+00
-1.354198e+00
-1.473211e+00
-1.590573e+00
-1.706791e+00
-1.822273e+00
-1.937339e+00
-2.052244e+00
-2.167159e+00
-2.282119e+00
-2.397000e+00
-2.511558e+00
-2.625489e+00
-2.738473e+00
-2.850204e+00
-2.960362e+00
-3.068591e+00
-3.174514e+00
-3.277759e+00
-3.377975e+00
-3.474864e+00
-3.568187e+00
-3.657722e+00
-3.743219e+00
-3.824381e+00
-3.900863e+00
-3.972288e+00
-4.038268e+00
-4.098436e+00
-4.152472e+00
-4.200125e+00
-4.241208e+00
-4.275592e+00
-4.303187e+00
-4.323956e+00
-4.337942e+00
-4.345263e+00
-4.346078e+00
-4.340560e+00
-4.328877e+00
-4.311172e+00
-4.287566e+00
-4.258169e+00
-4.223174e+00
-4.182973e+00
-4.138172e+00
-4.089495e+00
-4.037689e+00
-3.983453e+00
-3.927421e+00
-3.870145e+00
-3.812067e+00
-3.753507e+00
-3.694705e+00
-3.635858e+00
-3.577124e+00
-3.518618e+00
-3.460469e+00
-3.402845e+00
-3.345927e+00
-3.289851e+00
-3.234711e+00
-3.180611e+00
-3.127705e+00
-3.076178e+00
-3.026191e+00
-2.977866e+00
-2.931266e+00
-2.886376e+00
-2.843072e+00
-2.801144e+00
-2.760335e+00
