EVENT_NAME: CENTRAL_ITALY
EVENT_ID: EMSC-20161030_0000029
EVENT_DATE_YYYYMMDD: 20161030
EVENT_TIME_HHMMSS: 064018
EVENT_LATITUDE_DEGREE: 42.8400
EVENT_LONGITUDE_DEGREE: 13.1100
EVENT_DEPTH_KM: 9.4
HYPOCENTER_REFERENCE: INGV-webservice
MAGNITUDE_W: 6.5
MAGNITUDE_W_REFERENCE: INGV-webservice
MAGNITUDE_L: 6.1
MAGNITUDE_L_REFERENCE: INGV-webservice
FOCAL_MECHANISM: NF
NETWORK: IT
STATION_CODE: NRC
STATION_NAME: NORCIA
STATION_LATITUDE_DEGREE: 42.792543
STATION_LONGITUDE_DEGREE: 13.096475
STATION_ELEVATION_M: 616
LOCATION: 
SENSOR_DEPTH_M: 0.0
VS30_M/S: 687
SITE_CLASSIFICATION_EC8: B
MORPHOLOGIC_CLASSIFICATION: SL
EPICENTRAL_DISTANCE_KM: 5.4
EARTHQUAKE_BACKAZIMUTH_DEGREE: 11.8
DATE_TIME_FIRST_SAMPLE_YYYYMMDD_HHMMSS: 20161030_064013.314
DATE_TIME_FIRST_SAMPLE_PRECISION: milliseconds
SAMPLING_INTERVAL_S: 0.005000
NDATA: 10000
DURATION_S: 50.000
STREAM: HGZ
UNITS: cm/s^2
INSTRUMENT: sensor = Unknown [Unknown] | digitizer = Unknown [Unknown]
INSTRUMENT_ANALOG/DIGITAL: D
INSTRUMENTAL_FREQUENCY_HZ: 
INSTRUMENTAL_DAMPING: 
FULL_SCALE_G: 
N_BIT_DIGITAL_CONVERTER: 
PGA_CM/S^2: -367.528593
TIME_PGA_S: 12.575000
BASELINE_CORRECTION: BASELINE REMOVED
FILTER_TYPE: BUTTERWORTH
FILTER_ORDER: 2
LOW_CUT_FREQUENCY_HZ: 0.100
HIGH_CUT_FREQUENCY_HZ: 50.000
LATE/NORMAL_TRIGGERED: NT
DATABASE_VERSION: DYNA 1.0
HEADER_FORMAT: DYNA 1.2
DATA_TYPE: ACCELERATION
PROCESSING: manual (Paolucci et al., 2011)
DATA_TIMESTAMP_YYYYMMDD_HHMMSS: 20161030_132633.881
DATA_LICENSE: CC-BY3_0-IT (http://creativecommons.org/licenses/by/3.0/deed.en)
DATA_CITATION: ESM working group (2015), European Strong-Motion database, version 0.1, Network Activity 3: Networking acceleration networks and SM data users. Project NERA (www.nera-eu.org)
DATA_CREATOR: ESM working group
ORIGINAL_DATA_MEDIATOR_CITATION: Ufficio Rischio Sismico e Vulcanico del Dipartimento della Protezione Civile (http://www.protezionecivile.gov.it/)
ORIGINAL_DATA_MEDIATOR: Rete Accelerometrica Nazionale - RAN Download (http://www.mot1.it/randownload/)
ORIGINAL_DATA_CREATOR_CITATION: Italian Strong Motion Network, Italian Civil Protection Department http://www.protezionecivile.gov.it
ORIGINAL_DATA_CREATOR: network: IT (Italian Strong Motion Network); owner: Dipartimento Della Protezione Civile
USER1: /home/dyna/processing-itaca/processing.py /var/www/processing//tmp/Lucia//IT.NRC..HGE.D.20161030.064018.X.ACC.ASC /var/www/processing//tmp/Lucia//IT.NRC..HGN.D.20161030.064018.X.ACC.ASC /var/www/processing//tmp/Lucia//IT.NRC..HGZ.D.20161030.064018.X.ACC.ASC --tmp /var/www/processing//tmp/Lucia/ --le 0.100 --he 50.000 --ln 0.100 --hn 50.000 --lz 0.100 --hz 50.000 --fo 2 --ca 0 --cz 130 --ta 5 --tz 5 --mf 1 --rf 0 --tr NT
USER2: 
USER3: 
USER4: 
USER5: 
[...]
-0.724291
2.209431
4.295093
3.672864
0.236815
-2.774995
-2.222591
0.817929
2.777342
2.046469
-0.796484
-4.929182
-8.985274
-10.425107
-7.056856
-0.093580
5.120818
4.015083
-2.111704
-8.011751
-9.993749
-7.898042
-3.643448
0.594555
3.457144
4.303853
3.704968
4.266178
7.699275
12.125009
15.272179
16.332771
14.020192
9.208444
6.997843
9.970304
14.185178
15.576863
14.968018
14.818447
14.503331
11.267082
5.587695
1.427712
-0.013490
-1.352142
-4.051359
-7.234391
-9.484815
-9.858986
-9.222492
-9.482450
-10.381627
-9.624003
-6.428664
-2.037082
2.862842
8.337889
13.819348
18.345783
21.703583
24.574509
26.097193
22.784790
13.587133
3.225320
-3.520140
-7.023992
-8.830206
-7.238754
-1.845566
1.483336
-3.811310
-16.449615
-28.553560
-33.839401
-31.795515
-25.182529
-17.131029
-11.278199
-11.275871
-17.734106
-26.355146
-31.013416
-29.254164
-23.379587
-16.648697
-10.593986
-5.966912
-4.437004
-7.216230
-12.310547
-16.249468
-17.656063
-16.081509
-10.872330
-3.619963
3.164796
9.199778
13.672160
13.407287
7.114542
-2.902748
-13.355583
-20.713305
-21.520920
-13.990361
1.199344
19.332190
32.636700
37.239021
35.441547
29.584896
20.677048
12.107936
6.595830
2.401305
-2.029014
-6.225195
-12.119469
-22.044882
-34.375446
-45.585629
-50.643837
-43.151062
-22.237625
5.352690
31.133287
47.950603
52.363754
46.371986
33.170872
14.655101
-6.086242
-24.251322
-34.876141
-34.668755
-24.249422
-8.719288
3.129796
2.568360
-10.057389
-22.857794
-24.258020
-12.726067
5.244838
19.878809
23.335447
14.208625
-3.200389
-20.277393
-26.901339
-20.013582
-6.473005
6.044806
15.835419
23.674871
28.925795
31.476494
32.063309
29.086021
21.369413
14.286337
16.228624
27.645119
37.414593
33.503895
16.089577
-5.152555
-23.200674
-34.947712
-35.803925
-22.397833
-0.333119
15.172120
11.182776
-9.783680
-33.109680
-47.670109
-52.335060
-49.437359
-39.952660
-25.917681
-11.664695
0.201546
10.429169
18.347696
20.830383
17.407602
9.536845
-2.401130
-13.753871
-15.497379
-7.458679
-1.333694
-5.036133
-14.215225
-21.116100
-21.932886
-13.800999
7.256335
40.077065
72.878380
90.001068
84.647400
61.348969
29.451157
1.101880
-10.244714
-0.003457
21.335533
37.468960
38.635872
24.697147
2.247495
-18.863550
-28.650448
-21.525599
-1.557447
20.594423
38.195038
49.434326
50.318882
37.964409
19.260340
5.463838
-0.562178
-2.525514
0.249811
10.570034
23.506046
30.249971
29.990782
29.618191
34.044769
42.763653
50.829193
47.640690
22.748766
-20.525949
-62.802982
-83.925209
-78.997063
-58.457272
-34.771095
-15.377272
-6.754187
-11.598314
-21.129629
-23.321617
-15.541511
-0.525671
18.504347
34.009289
38.977825
35.276131
28.950853
23.002346
18.223469
14.546197
10.784797
6.642579
4.288201
6.215190
10.836503
13.020389
12.480942
15.166448
21.642656
23.967644
16.943167
2.452633
-16.041374
-34.360889
-45.878765
-46.157848
-37.922272
-27.023691
-14.982301
0.598936
19.187679
34.939228
42.311497
41.654572
37.430328
32.227768
25.398443
18.741026
19.225113
29.574018
39.328754
34.875435
16.819065
-0.727493
-6.232067
0.014347
10.311548
17.364006
18.612211
15.799537
9.282969
-4.891441
-27.067047
-46.547241
-50.299736
-36.842422
-13.109354
16.106262
44.056351
57.597214
48.989517
23.324907
-8.580884
-35.004547
-45.692139
-39.772034
-27.515858
-19.602100
-18.816151
-21.281443
-19.591120
-7.920340
11.031296
28.185186
37.640305
39.002949
33.681896
25.281555
19.588137
18.187243
14.433489
0.219293
-23.411102
-45.879204
-57.826851
-58.365376
-51.502045
-40.970997
-30.405548
-23.060444
-17.753473
-10.044431
-0.934117
1.328558
-9.381596
-30.745983
-54.404682
-71.179146
-75.921463
-68.635628
-51.784424
-30.220341
-12.709839
-7.576957
-14.825939
-25.439928
-30.289751
-28.079372
-23.386894
-18.414320
-9.280706
8.183376
31.593973
53.185390
65.407013
64.405319
51.291229
31.734007
11.776954
-7.002724
-25.236620
-40.120728
-47.797421
-49.716812
-49.361599
-43.438606
-24.564209
6.483043
38.054401
57.499344
60.103935
50.296909
36.428566
24.265160
15.518350
9.256764
2.285133
-8.019517
-19.715479
-27.039183
-24.127495
-8.345284
17.809362
48.853886
80.441246
109.036285
129.447495
137.946671
136.875259
131.600357
124.194885
112.713135
95.777847
76.567375
61.083897
52.470524
47.209755
37.654118
20.719557
1.224529
-14.503225
-21.038445
-11.815783
15.874610
54.015331
85.918739
96.342354
80.586861
44.376255
-2.605079
-50.522095
-90.290543
-115.327385
-122.614532
-113.832565
-96.564430
-78.386375
-58.846672
-35.006268
-12.827125
-1.415642
3.012247
13.469316
31.470798
42.955330
35.084015
7.756591
-28.931250
-62.448593
-84.775948
-93.305534
-85.242905
-56.901775
-13.157124
29.105940
55.216515
67.564888
80.636024
102.600830
124.974129
128.765427
98.845322
36.572796
-37.873703
-98.307915
-129.132797
-127.575172
-93.902229
-29.923912
51.089958
124.938065
172.922226
192.998306
198.472778
211.112854
246.166245
293.813141
317.745117
283.235565
190.449692
72.155853
-36.468700
-111.643127
-134.413620
-93.416061
0.807465
113.561272
203.096375
242.008286
228.640656
182.394455
125.645241
69.867485
20.550411
-11.370169
-16.504557
-7.476603
-11.126116
-31.722406
-46.144711
-39.222927
-18.755733
3.352675
22.586208
35.843582
39.351135
31.065170
11.392460
-14.073986
-38.253624
-63.603428
-100.604797
-152.755234
-209.508865
-254.729630
-277.173126
-272.017883
-240.124329
-190.765030
-138.738220
-96.582535
-72.783455
-68.503021
-72.587944
-74.726944
-80.561272
-98.757927
-124.916534
-149.367661
-166.959290
-173.916229
-164.862000
-136.625610
-96.049614
-61.989044
-50.457691
-59.202923
-73.648361
-79.777451
-69.774269
-48.976524
-32.650242
-24.338081
-12.434088
1.942354
-4.035589
-42.892136
-94.872482
-131.252914
-144.409119
-144.648422
-142.995697
-143.795349
-141.519211
-126.063637
-97.641335
-66.342262
-35.504845
2.620983
53.457783
107.103516
142.297272
144.810410
120.023468
90.299461
77.551933
81.487984
83.815117
76.590073
69.951546
71.554245
75.306252
71.207031
57.531807
45.711700
52.784538
83.018639
123.496727
160.414856
186.549606
194.488586
177.616318
137.431931
87.525719
50.520794
38.906273
41.188126
43.426308
50.563656
69.359940
92.024223
111.516502
132.760529
157.503021
173.821518
171.900742
156.953751
133.403412
92.013657
30.628294
-27.689787
-57.981178
-64.528191
-70.180977
-82.573463
-91.149086
-94.184296
-107.971039
-145.203278
-194.364395
-226.448517
-223.865265
-197.434662
-168.996231
-146.179260
-123.766739
-100.630280
-84.048370
-81.450500
-92.694206
-107.681740
-114.131615
-112.807594
-119.685387
-144.109741
-168.553192
-163.597565
-123.300934
-69.636848
-21.564474
17.421492
37.725235
19.089483
-40.338764
-113.359009
-170.902481
-199.188904
-188.104218
-130.893005
-42.633732
43.767506
102.894867
123.079010
100.595215
49.744003
5.776287
-0.965332
35.852955
109.350632
207.859665
303.663757
353.385559
327.612579
238.707687
133.183151
55.136581
18.024456
11.861682
25.068283
46.223019
57.399879
43.589108
7.086161
-34.234482
-64.762199
-83.115501
-95.201187
-105.627144
-118.437416
-136.932343
-161.096161
-187.297852
-207.630219
-210.460236
-186.679489
-136.340164
-69.212341
-1.242419
52.914536
90.294739
119.392494
146.029449
166.772263
176.422913
169.424347
134.615204
64.882034
-25.408932
-107.189629
-164.276108
-203.028961
-234.078262
-254.428513
-249.680801
-211.720154
-153.216141
-100.057816
-69.601982
-61.580521
-65.754082
-72.326233
-76.992805
-75.875092
-58.234032
-15.195951
40.400974
73.417374
58.720062
11.874006
-27.540829
-42.439884
-48.326103
-57.224354
-58.941677
-44.623779
-23.909792
-11.980635
-15.784614
-33.270840
-57.513229
-83.192795
-110.424461
-141.006805
-171.959473
-194.369797
-199.776703
-185.864380
-154.759613
-110.869247
-62.599525
-20.088169
11.221705
31.998028
46.338509
60.545509
81.820053
115.055389
159.087234
204.564301
237.643478
251.114929
251.149307
247.535583
241.194565
227.583282
206.147049
181.303513
159.398209
144.236496
132.315903
119.935928
114.558426
127.396317
157.037704
186.825699
196.384155
178.006699
141.899841
103.204788
72.198166
57.425274
62.721100
78.320801
87.599152
84.129745
72.280876
52.284683
16.153992
-39.976406
-106.798721
-167.475479
-208.839966
-226.005005
-219.523285
-190.643051
-140.675674
-75.508286
-6.416001
56.236393
105.498238
135.612228
145.019821
138.482895
121.478973
96.589813
66.147820
34.923378
9.275744
-5.947870
-10.526123
-10.040703
-12.552128
-23.716322
-46.033630
-78.143448
-110.907028
-131.263870
-135.389999
-129.648621
-114.947922
-82.568985
-30.479856
29.124094
84.113594
130.351562
161.660538
169.765778
156.933167
132.453995
98.083923
50.899212
-2.877963
-50.113632
-85.520370
-112.993889
-133.062332
-141.597931
-140.735779
-136.822388
-128.346176
-109.273308
-82.474892
-57.924644
-39.098469
-22.901777
-12.216478
-15.468237
-31.903269
-48.124523
-51.520992
-39.215519
-13.653753
21.376850
56.560085
75.483192
64.776558
26.563986
-22.333412
-63.511681
-86.359131
-86.932732
-64.401825
-21.434641
32.538158
80.690208
105.671677
101.213448
77.787186
53.201088
35.709007
20.287462
1.071052
-21.885687
-49.997963
-88.210258
-133.921295
-172.995804
-192.243240
-189.408951
-168.772217
-134.785416
-93.671562
-57.541035
-41.049995
-49.381584
-74.109901
-104.748749
-135.768219
-160.017273
-165.830032
-147.393829
-114.671303
-84.374405
-62.497314
-45.872879
-36.018902
-39.816422
-59.202785
-85.998505
-105.649384
-104.948944
-79.397690
-35.846256
13.435966
58.782486
94.439018
114.717430
112.084114
86.230530
54.833984
41.011585
49.600647
68.269615
87.050484
104.817818
120.818382
130.283218
129.780487
121.842270
113.236290
109.785866
110.496986
109.362923
105.597397
105.264168
110.906197
115.658501
107.739891
78.466484
31.225719
-15.244088
-39.013496
-30.601599
3.339123
45.982231
82.955269
110.096123
124.695709
118.031609
84.199730
30.709980
-24.298862
-63.257507
-75.102425
-56.979279
-17.238163
29.657038
74.294655
112.170395
134.802231
129.260956
89.672775
28.083216
-30.815084
-69.392639
-88.722755
-98.928833
-102.970497
-94.444214
-69.166916
-33.156075
2.871214
33.453259
58.437614
73.672028
69.492027
43.516136
6.641743
-29.529467
-59.283531
-73.492905
-62.556461
-33.309669
-4.973079
14.062629
28.385569
35.929523
24.440720
-11.626317
-62.276096
-111.107803
-147.091705
-164.844879
-159.135696
-129.457428
-91.562920
-72.795990
-87.830200
-126.284874
-168.905884
-204.138824
-222.503906
-209.133133
-156.251022
-79.492676
-11.754737
20.708393
14.714046
-12.802547
-39.841072
-52.108032
-44.318092
-14.235915
39.047230
108.326416
172.360199
203.878387
188.330444
133.884552
63.613186
0.814614
-38.771946
-46.714272
-24.193710
13.833099
46.167488
59.922752
55.618042
41.986774
28.763866
22.038757
23.041945
29.345949
36.519810
39.151699
35.871288
37.720734
62.942280
114.929840
172.748337
212.098297
228.442596
230.686096
222.252380
201.717499
174.517227
152.039886
141.495819
138.847610
130.486725
107.237877
76.733376
54.577763
45.642689
40.963009
30.461678
11.479254
-15.305385
-49.286125
-84.943817
-111.384384
-122.421989
-122.251457
-117.415237
-109.217796
-99.652771
-97.298172
-109.667870
-134.925323
-164.820023
-192.476807
-215.605530
-232.985107
-242.285843
-242.786728
-234.760635
-216.448013
-186.812790
-149.643158
-110.469582
-70.405731
-26.546478
20.290968
58.767586
72.648415
56.875427
22.695919
-13.362262
-40.443722
-57.982765
-71.393051
-81.376808
-82.287361
-70.392120
-49.338894
-28.323868
-15.020956
-7.641134
8.330207
51.094086
121.995903
197.301270
250.349121
276.978760
288.681732
290.624695
279.968414
258.336639
234.410324
215.306488
200.588562
183.838379
159.217148
128.802139
99.585701
74.131432
51.768559
33.531822
19.553415
7.248678
-4.446910
-11.664496
-9.325618
2.171687
16.784519
29.474871
40.110596
48.929680
51.532883
40.979591
14.742841
-18.796865
-45.179363
-58.181019
-64.352867
-75.229767
-97.023865
-124.755173
-147.382843
-155.818787
-144.796326
-115.840866
-77.010345
-32.652496
18.344753
71.797264
116.753990
143.938629
151.223923
145.258224
138.716324
142.531555
156.488785
164.486038
145.480576
96.454185
38.224262
-7.566444
-37.095963
-56.454369
-68.276283
-69.776855
-58.956764
-41.393612
-28.067511
-28.155525
-45.525253
-76.440025
-111.775177
-145.973755
-180.889526
-220.076996
-263.310120
-306.674469
-344.131836
-367.528595
-367.405670
-337.935974
-281.963257
-208.410431
-127.403938
-50.210938
12.226219
53.772366
77.020393
91.318497
99.665695
94.715500
75.253593
54.323833
44.985519
44.457565
41.940041
39.371315
45.346424
54.197239
52.363667
37.972317
18.676180
-2.678083
-29.003914
-61.484634
-94.922455
-116.181808
-112.491684
-84.297005
-43.598553
0.422534
46.936592
94.838394
137.904678
168.311417
180.769302
178.683029
174.015701
174.299881
175.060181
169.206192
157.125015
141.559860
119.129166
85.024582
40.796787
-6.935568
-48.349239
-70.013733
-63.197495
-35.258068
-5.372737
12.999554
21.445780
27.630283
32.603661
31.329069
22.731409
14.583256
14.893996
19.662407
16.175329
-0.990314
-24.205433
-43.048622
-52.694950
-52.328163
-43.453327
-29.907837
-13.736645
5.804021
24.314306
32.167198
27.257387
16.999392
7.894324
2.218188
-0.525735
-3.125704
-6.234814
-7.417903
-8.467423
-15.273264
-26.982260
-34.537685
-30.563164
-13.779259
11.917437
38.713661
60.599270
77.284103
88.287483
88.869522
77.016891
57.508774
35.986118
15.231781
-2.220127
-12.574610
-13.897563
-6.681482
9.602755
33.932026
60.271267
80.741821
89.151352
84.284790
72.563156
66.330170
77.275414
107.867783
150.398346
194.171844
230.176956
251.944107
256.923065
247.405441
229.263641
209.982391
195.781586
186.997864
177.960571
163.628036
143.346436
118.392487
89.044502
53.826492
12.063267
-32.329819
-71.751274
-100.175331
-116.741745
-124.781876
-128.032272
-128.841217
-129.840057
-133.281372
-138.444595
-142.286499
-141.357040
-134.929443
-126.614403
-120.540230
-119.607117
-125.579041
-137.109756
-151.088242
-164.149231
-172.156677
-172.761795
-166.662903
-154.722839
-136.621704
-112.447426
-85.232880
-61.060905
-44.029545
-32.434872
-22.339952
-13.762274
-10.631305
-13.022958
-13.902014
-6.990361
7.308877
24.038977
36.284626
37.211304
22.230093
-10.026850
-55.850544
-106.955132
-156.235504
-199.794693
-232.043320
-245.755280
-238.410812
-212.311493
-170.137207
-115.127609
-52.475452
10.849323
66.428284
108.009079
135.718857
153.592575
163.548569
164.945663
159.494629
151.576447
142.496506
129.069031
108.332993
80.873665
51.268192
26.678574
11.451184
1.807042
-9.762866
-24.047623
-34.025944
-34.387794
-27.516041
-19.752266
-15.298093
-14.378899
-14.141518
-9.769349
3.357063
25.745020
50.851624
68.521271
72.570297
63.729935
47.489429
30.826857
19.009754
14.810326
19.391163
31.766508
49.596725
71.894646
98.533211
128.870331
163.874466
205.124741
246.204636
269.457214
260.340546
223.381348
176.440796
132.767899
94.874458
61.729610
36.128948
23.890396
26.277994
36.161278
44.059456
46.529453
48.470062
57.541454
74.228195
89.936920
98.503624
103.719505
110.691437
116.572540
115.506287
107.654419
97.615227
86.478767
70.507271
47.384705
19.821423
-7.987178
-34.466904
-60.094597
-85.482063
-111.476593
-138.070587
-160.867676
-171.707062
-164.713379
-138.853958
-94.833382
-33.554878
41.545010
122.059799
195.686157
251.325531
283.713470
293.900330
286.371918
264.399292
228.144424
178.497147
120.005554
58.202595
-2.584351
-57.866638
-103.549973
-138.312881
-162.311920
-174.086517
-170.868866
-151.419083
-117.345093
-73.487404
-28.469072
9.578440
39.402245
62.073509
69.296677
47.354836
-2.940124
-61.589741
-109.062881
-141.161774
-163.538376
-179.794815
-187.918411
-187.256531
-185.218918
-191.139069
-204.517670
-216.061111
-219.089005
-212.791656
-196.948074
-171.945663
-141.776047
-111.509659
-85.932411
-71.514595
-72.154022
-83.921783
-99.020706
-111.670532
-119.831886
-124.070709
-124.853004
-123.829590
-125.737961
-133.183899
-142.387878
-146.963150
-143.098953
-130.025223
-107.114807
-74.196144
-35.849640
-0.343739
27.074326
45.475563
53.679852
48.376644
27.292561
-5.678440
-40.289101
-68.499565
-91.121346
-113.151070
-136.043655
-157.165939
-173.544342
-182.820526
-183.235291
-175.397079
-160.691269
-136.847885
-100.097237
-54.138290
-12.211534
13.305476
20.459564
17.861740
19.326969
35.419636
67.176765
108.616364
152.586380
191.374710
215.068436
214.058868
185.744797
140.615982
98.523117
74.232834
68.340431
72.889748
80.111809
84.522446
82.341515
70.982803
48.893261
17.355530
-18.572302
-52.096924
-78.739746
-99.632225
-118.501503
-135.425186
-146.953934
-150.712265
-146.671555
-135.729874
-119.367119
-100.171066
-81.561913
-65.705933
-50.611584
-29.663004
3.539766
46.995701
88.886475
118.361984
134.940369
143.981995
147.285782
140.759079
118.554199
79.355400
29.624743
-20.673262
-65.169983
-101.926109
-128.443054
-139.870651
-132.616409
-106.611183
-64.574944
-12.616189
38.053299
73.396431
84.732353
76.575745
63.466915
55.493393
51.068768
47.663197
51.619987
71.979515
110.154869
156.557739
193.688293
206.698029
195.182922
171.666641
148.779434
131.268768
117.607750
105.184502
93.587738
83.179657
71.673447
54.092434
26.954802
-7.347939
-39.533329
-56.590420
-49.597679
-21.136862
16.707165
51.180740
74.741875
84.880112
80.494209
60.586563
27.976473
-6.971248
-29.076653
-28.603764
-9.662644
13.411358
26.221184
20.857691
-2.492577
-38.512562
-80.530724
-119.088882
-140.380569
-132.683945
-96.242897
-45.635963
-1.534734
22.240774
26.927595
24.170279
23.009375
21.658684
10.217129
-17.625505
-55.766438
-91.405296
-117.030762
-133.374695
-143.550110
-149.030380
