EVENT_NAME: CENTRAL_ITALY
EVENT_ID: EMSC-20161030_0000029
EVENT_DATE_YYYYMMDD: 20161030
EVENT_TIME_HHMMSS: 064018
EVENT_LATITUDE_DEGREE: 42.8400
EVENT_LONGITUDE_DEGREE: 13.1100
EVENT_DEPTH_KM: 9.4
HYPOCENTER_REFERENCE: INGV-webservice
MAGNITUDE_W: 6.5
MAGNITUDE_W_REFERENCE: INGV-webservice
MAGNITUDE_L: 6.1
MAGNITUDE_L_REFERENCE: INGV-webservice
FOCAL_MECHANISM: NF
NETWORK: IT
STATION_CODE: NRC
STATION_NAME: NORCIA
STATION_LATITUDE_DEGREE: 42.792543
STATION_LONGITUDE_DEGREE: 13.096475
STATION_ELEVATION_M: 616
LOCATION: 
SENSOR_DEPTH_M: 0.0
VS30_M/S: 687
SITE_CLASSIFICATION_EC8: B
MORPHOLOGIC_CLASSIFICATION: SL
EPICENTRAL_DISTANCE_KM: 5.4
EARTHQUAKE_BACKAZIMUTH_DEGREE: 11.8
DATE_TIME_FIRST_SAMPLE_YYYYMMDD_HHMMSS: 20161030_064013.314
DATE_TIME_FIRST_SAMPLE_PRECISION: milliseconds
SAMPLING_INTERVAL_S: 0.005000
NDATA: 10000
DURATION_S: 50.000
STREAM: HGE
UNITS: cm/s
INSTRUMENT: sensor = Unknown [Unknown] | digitizer = Unknown [Unknown]
INSTRUMENT_ANALOG/DIGITAL: D
INSTRUMENTAL_FREQUENCY_HZ: 
INSTRUMENTAL_DAMPING: 
FULL_SCALE_G: 
N_BIT_DIGITAL_CONVERTER: 
PGV_CM/S: -48.293394
TIME_PGV_S: 10.210000
BASELINE_CORRECTION: BASELINE REMOVED
FILTER_TYPE: BUTTERWORTH
FILTER_ORDER: 2
LOW_CUT_FREQUENCY_HZ: 0.100
HIGH_CUT_FREQUENCY_HZ: 50.000
LATE/NORMAL_TRIGGERED: NT
DATABASE_VERSION: DYNA 1.0
HEADER_FORMAT: DYNA 1.2
DATA_TYPE: VELOCITY
PROCESSING: manual (Paolucci et al., 2011)
DATA_TIMESTAMP_YYYYMMDD_HHMMSS: 20161030_132633.881
DATA_LICENSE: CC-BY3_0-IT (http://creativecommons.org/licenses/by/3.0/deed.en)
DATA_CITATION: ESM working group (2015), European Strong-Motion database, version 0.1, Network Activity 3: Networking acceleration networks and SM data users. Project NERA (www.nera-eu.org)
DATA_CREATOR: ESM working group
ORIGINAL_DATA_MEDIATOR_CITATION: Ufficio Rischio Sismico e Vulcanico del Dipartimento della Protezione Civile (http://www.protezionecivile.gov.it/)
ORIGINAL_DATA_MEDIATOR: Rete Accelerometrica Nazionale - RAN Download (http://www.mot1.it/randownload/)
ORIGINAL_DATA_CREATOR_CITATION: Italian Strong Motion Network, Italian Civil Protection Department http://www.protezionecivile.gov.it
ORIGINAL_DATA_CREATOR: network: IT (Italian Strong Motion Network); owner: Dipartimento Della Protezione Civile
USER1: /home/dyna/processing-itaca/processing.py /var/www/processing//tmp/Lucia//IT.NRC..HGE.D.20161030.064018.X.ACC.ASC /var/www/processing//tmp/Lucia//IT.NRC..HGN.D.20161030.064018.X.ACC.ASC /var/www/processing//tmp/Lucia//IT.NRC..HGZ.D.20161030.064018.X.ACC.ASC --tmp /var/www/processing//tmp/Lucia/ --le 0.100 --he 50.000 --ln 0.100 --hn 50.000 --lz 0.100 --hz 50.000 --fo 2 --ca 0 --cz 130 --ta 5 --tz 5 --mf 1 --rf 0 --tr NT
USER2: 
USER3: 
USER4: 
USER5: 
[...]
-0.182146
-0.180409
-0.178660
-0.176913
-0.175160
-0.173395
-0.171625
-0.169848
-0.168056
-0.166254
-0.164454
-0.162646
-0.160817
-0.158971
-0.157116
-0.155249
-0.153373
-0.151488
-0.149593
-0.147691
-0.145785
-0.143871
-0.141944
-0.140007
-0.138069
-0.136127
-0.134172
-0.132205
-0.130227
-0.128239
-0.126238
-0.124225
-0.122202
-0.120166
-0.118122
-0.116066
-0.113994
-0.111926
-0.109868
-0.107790
-0.105685
-0.103578
-0.101461
-0.099315
-0.097163
-0.095014
-0.092846
-0.090667
-0.088491
-0.086308
-0.084115
-0.081916
-0.079705
-0.077483
-0.075251
-0.072999
-0.070729
-0.068452
-0.066169
-0.063876
-0.061574
-0.059264
-0.056938
-0.054601
-0.052261
-0.049908
-0.047534
-0.045150
-0.042760
-0.040360
-0.037947
-0.035529
-0.033099
-0.030646
-0.028183
-0.025725
-0.023260
-0.020774
-0.018278
-0.015786
-0.013279
-0.010744
-0.008192
-0.005635
-0.003073
-0.000498
0.002094
0.004702
0.007315
0.009932
0.012565
0.015221
0.017883
0.020540
0.023209
0.025901
0.028598
0.031295
0.034013
0.036751
0.039485
0.042234
0.045012
0.047797
0.050584
0.053384
0.056196
0.059023
0.061864
0.064718
0.067583
0.070461
0.073353
0.076255
0.079162
0.082074
0.084993
0.087926
0.090884
0.093857
0.096829
0.099811
0.102823
0.105854
0.108885
0.111923
0.114981
0.118054
0.121131
0.124217
0.127315
0.130417
0.133533
0.136674
0.139836
0.143006
0.146176
0.149355
0.152558
0.155774
0.158989
0.162206
0.165438
0.168699
0.171986
0.175282
0.178581
0.181900
0.185248
0.188607
0.191971
0.195345
0.198725
0.202113
0.205517
0.208933
0.212360
0.215800
0.219247
0.222709
0.226192
0.229684
0.233187
0.236712
0.240263
0.243831
0.247396
0.250955
0.254535
0.258147
0.261766
0.265379
0.269002
0.272648
0.276314
0.280001
0.283703
0.287408
0.291123
0.294865
0.298621
0.302382
0.306146
0.309922
0.313719
0.317534
0.321364
0.325213
0.329078
0.332955
0.336841
0.340745
0.344672
0.348608
0.352547
0.356503
0.360473
0.364451
0.368447
0.372455
0.376460
0.380477
0.384525
0.388591
0.392665
0.396753
0.400855
0.404978
0.409124
0.413279
0.417450
0.421640
0.425838
0.430047
0.434282
0.438538
0.442801
0.447073
0.451368
0.455677
0.459985
0.464298
0.468634
0.472990
0.477361
0.481744
0.486128
0.490529
0.494961
0.499406
0.503858
0.508327
0.512805
0.517294
0.521805
0.526339
0.530892
0.535458
0.540037
0.544633
0.549244
0.553871
0.558512
0.563173
0.567852
0.572539
0.577235
0.581945
0.586674
0.591416
0.596173
0.600953
0.605752
0.610562
0.615380
0.620215
0.625067
0.629932
0.634815
0.639720
0.644634
0.649558
0.654504
0.659468
0.664444
0.669433
0.674438
0.679466
0.684511
0.689569
0.694641
0.699722
0.704830
0.709967
0.715107
0.720254
0.725423
0.730605
0.735795
0.741002
0.746228
0.751465
0.756714
0.761977
0.767264
0.772575
0.777897
0.783238
0.788604
0.793982
0.799373
0.804783
0.810203
0.815634
0.821081
0.826550
0.832037
0.837534
0.843036
0.848563
0.854119
0.859687
0.865267
0.870873
0.876500
0.882134
0.887777
0.893438
0.899119
0.904817
0.910538
0.916274
0.922022
0.927792
0.933582
0.939383
0.945192
0.951016
0.956862
0.962726
0.968604
0.974498
0.980412
0.986342
0.992298
0.998281
1.004264
1.010247
1.016262
1.022308
1.028354
1.034396
1.040462
1.046568
1.052690
1.058810
1.064947
1.071116
1.077309
1.083511
1.089721
1.095954
1.102203
1.108456
1.114733
1.121036
1.127342
1.133659
1.140003
1.146371
1.152750
1.159145
1.165571
1.172012
1.178456
1.184925
1.191431
1.197953
1.204474
1.211012
1.217577
1.224158
1.230737
1.237332
1.243958
1.250600
1.257243
1.263902
1.270585
1.277287
1.284005
1.290741
1.297500
1.304274
1.311059
1.317864
1.324687
1.331529
1.338399
1.345288
1.352189
1.359109
1.366056
1.373016
1.379982
1.386966
1.393968
1.400988
1.408030
1.415086
1.422158
1.429257
1.436377
1.443512
1.450661
1.457823
1.464999
1.472196
1.479416
1.486647
1.493891
1.501157
1.508434
1.515720
1.523028
1.530362
1.537722
1.545096
1.552481
1.559892
1.567329
1.574772
1.582222
1.589697
1.597198
1.604714
1.612244
1.619801
1.627387
1.634983
1.642582
1.650209
1.657866
1.665530
1.673196
1.680884
1.688599
1.696326
1.704070
1.711833
1.719604
1.727395
1.735218
1.743054
1.750892
1.758748
1.766630
1.774526
1.782436
1.790371
1.798325
1.806293
1.814289
1.822306
1.830329
1.838368
1.846431
1.854516
1.862617
1.870736
1.878878
1.887039
1.895206
1.903384
1.911587
1.919818
1.928061
1.936306
1.944572
1.952871
1.961184
1.969509
1.977853
1.986210
1.994586
2.002994
2.011425
2.019865
2.028314
2.036784
2.045277
2.053786
2.062309
2.070847
2.079391
2.087951
2.096542
2.105152
2.113769
2.122409
2.131076
2.139759
2.148455
2.157173
2.165909
2.174657
2.183420
2.192199
2.200998
2.209826
2.218670
2.227517
2.236386
2.245284
2.254193
2.263113
2.272053
2.281009
2.289978
2.298961
2.307964
2.316995
2.326045
2.335109
2.344189
2.353288
2.362410
2.371552
2.380697
2.389849
2.399028
2.408235
2.417463
2.426719
2.435999
2.445290
2.454594
2.463891
2.473095
2.482189
2.491279
2.500411
2.509569
2.518841
2.528251
2.537711
2.547318
2.557233
2.567306
2.577286
2.587173
2.596871
2.605721
2.613162
2.619768
2.626475
2.633058
2.639111
2.645775
2.654276
2.664187
2.675155
2.687846
2.701894
2.715933
2.729661
2.743369
2.756772
2.769740
2.782536
2.794813
2.805638
2.815047
2.824263
2.833508
2.841820
2.849416
2.857157
2.864793
2.872709
2.882583
2.894256
2.905801
2.917158
2.929543
2.942527
2.955072
2.967150
2.978943
2.990845
3.003521
3.016652
3.029555
3.042825
3.056568
3.068231
3.075792
3.081182
3.086528
3.090338
3.091312
3.091129
3.090731
3.089467
3.088969
3.091967
3.097307
3.102383
3.109669
3.124029
3.144485
3.164598
3.180003
3.191086
3.199183
3.205299
3.212949
3.225670
3.240941
3.252748
3.258941
3.261534
3.262368
3.261164
3.257378
3.252767
3.249572
3.247587
3.246057
3.244850
3.242292
3.237187
3.232149
3.230347
3.232192
3.239129
3.255856
3.283804
3.317933
3.354812
3.395619
3.437922
3.475786
3.509931
3.546682
3.587228
3.627563
3.666509
3.704981
3.739734
3.764925
3.779031
3.784891
3.783356
3.773526
3.758946
3.746594
3.741181
3.743539
3.750529
3.757025
3.760701
3.761275
3.756262
3.743384
3.725260
3.707868
3.696243
3.692607
3.697097
3.708727
3.723388
3.734222
3.739206
3.742100
3.743154
3.740198
3.735765
3.730663
3.720490
3.706935
3.698586
3.697122
3.694829
3.685722
3.671221
3.654568
3.635297
3.614171
3.597878
3.591273
3.593137
3.604417
3.630215
3.672485
3.728341
3.792997
3.859528
3.919795
3.969421
4.009047
4.041097
4.068714
4.096026
4.125257
4.151467
4.164360
4.160427
4.146691
4.128472
4.104057
4.074073
4.043886
4.014229
3.980494
3.944055
3.915768
3.905528
3.913387
3.932104
3.955649
3.983927
4.020324
4.068307
4.131777
4.213489
4.309238
4.407626
4.499949
4.586514
4.670717
4.751887
4.824143
4.879374
4.912963
4.925092
4.917719
4.896932
4.873253
4.852707
4.834312
4.815363
4.788476
4.740631
4.666530
4.574453
4.475271
4.377919
4.293545
4.231919
4.195850
4.181481
4.180411
4.183602
4.182335
4.165921
4.130008
4.086921
4.055202
4.044507
4.060062
4.104837
4.168246
4.232967
4.293594
4.353200
4.414914
4.485238
4.568949
4.663626
4.767753
4.879941
4.988864
5.077729
5.135487
5.157975
5.145188
5.105197
5.058930
5.030316
5.029713
5.052887
5.087147
5.114569
5.126420
5.133935
5.150429
5.175251
5.207562
5.258473
5.339864
5.450633
5.575714
5.695834
5.796922
5.868904
5.905351
5.912982
5.912029
5.919600
5.937354
5.954135
5.952493
5.915128
5.838777
5.746346
5.672693
5.633084
5.617414
5.616399
5.634671
5.671079
5.707081
5.727454
5.734013
5.732037
5.722804
5.713578
5.722680
5.769780
5.859920
5.978470
6.105365
6.232414
6.363486
6.502041
6.646359
6.795143
6.945501
7.083522
7.190340
7.259677
7.297084
7.306789
7.294738
7.272924
7.243302
7.194089
7.125354
7.057061
7.004857
6.969956
6.953240
6.956596
6.968110
6.964772
6.936986
6.896260
6.848860
6.776629
6.657454
6.491531
6.298228
6.106088
5.954125
5.878723
5.885892
5.947759
6.026803
6.096050
6.143209
6.169667
6.193971
6.247517
6.347938
6.480456
6.620891
6.763831
6.909059
7.040273
7.143487
7.228496
7.308009
7.373726
7.413396
7.434092
7.451163
7.468860
7.485313
7.499366
7.499267
7.468089
7.416184
7.384142
7.401021
7.458071
7.528894
7.601090
7.680627
7.776377
7.898532
8.064132
8.277568
8.511624
8.730985
8.923167
9.093562
9.252572
9.414458
9.584833
9.747101
9.874195
9.947289
9.960507
9.920377
9.843667
9.746870
9.632072
9.485695
9.294220
9.054102
8.763371
8.418411
8.027058
7.611043
7.188972
6.769575
6.362477
5.979630
5.624213
5.288322
4.959003
4.620666
4.257457
3.858472
3.421635
2.957470
2.487634
2.031133
1.594745
1.183228
0.807972
0.473257
0.163726
-0.140448
-0.443429
-0.740565
-1.036505
-1.343887
-1.669130
-2.006581
-2.339969
-2.645748
-2.904029
-3.109741
-3.265571
-3.365800
-3.399108
-3.364281
-3.268672
-3.117461
-2.922371
-2.712565
-2.519134
-2.357601
-2.232788
-2.143452
-2.078917
-2.029216
-1.999280
-2.002813
-2.049916
-2.147311
-2.298412
-2.501062
-2.756526
-3.075121
-3.463063
-3.910492
-4.394540
-4.886878
-5.362695
-5.810385
-6.231209
-6.629081
-7.001711
-7.339668
-7.633923
-7.882825
-8.087986
-8.246420
-8.353165
-8.411427
-8.436744
-8.454858
-8.498873
-8.597818
-8.760298
-8.976576
-9.234865
-9.526802
-9.844558
-10.182738
-10.540463
-10.920059
-11.326401
-11.763347
-12.224890
-12.693161
-13.151419
-13.597328
-14.039559
-14.483207
-14.922391
-15.348660
-15.763295
-16.178202
-16.609631
-17.071674
-17.566935
-18.083107
-18.606489
-19.137266
-19.684399
-20.249081
-20.822884
-21.397179
-21.960062
-22.484945
-22.933945
-23.272200
-23.471140
-23.503498
-23.348211
-23.002075
-22.484257
-21.831009
-21.082521
-20.269045
-19.407101
-18.504316
-17.565788
-16.599108
-15.612919
-14.610997
-13.591907
-12.552315
-11.487792
-10.397810
-9.293707
-8.193944
-7.111062
-6.052904
-5.035263
-4.080807
-3.202027
-2.391370
-1.629263
-0.899317
-0.197918
0.471677
1.115550
1.749942
2.385506
3.022664
3.658669
4.287429
4.896722
5.477392
6.036553
6.594070
7.163604
7.742532
8.322674
8.902911
9.485801
10.070365
10.653935
11.239490
11.844313
12.498059
13.221323
14.007884
14.835742
15.687078
16.543123
17.367077
18.112144
18.747126
19.264456
19.670193
19.975758
20.192539
20.328897
20.396154
20.410412
20.377337
20.282797
20.107306
19.839640
19.468512
18.969017
18.307266
17.463242
16.452541
15.329268
14.163745
13.004973
11.863039
10.733474
9.629366
8.578925
7.596924
6.668522
5.764008
4.866798
3.985259
3.134703
2.304873
1.455285
0.561770
-0.334332
-1.147254
-1.818172
-2.341582
-2.735054
-3.022239
-3.234965
-3.403611
-3.553108
-3.705004
-3.856674
-3.970690
-4.018474
-4.025701
-4.053218
-4.137522
-4.255227
-4.348614
-4.382017
-4.346998
-4.216165
-3.945901
-3.534237
-3.027172
-2.464611
-1.859671
-1.231420
-0.633624
-0.146627
0.157306
0.244356
0.121630
-0.176905
-0.598201
-1.078235
-1.565373
-2.039254
-2.495307
-2.912998
-3.254553
-3.495317
-3.639705
-3.705903
-3.709917
-3.661142
-3.562377
-3.424370
-3.277667
-3.150568
-3.044261
-2.940056
-2.813902
-2.644410
-2.422878
-2.152652
-1.844738
-1.525566
-1.231364
-0.986872
-0.807820
-0.717761
-0.744071
-0.906210
-1.208874
-1.631436
-2.132799
-2.675939
-3.232079
-3.759132
-4.200086
-4.519859
-4.735944
-4.894654
-5.019375
-5.091551
-5.067988
-4.913136
-4.639673
-4.315696
-4.008465
-3.729465
-3.445289
-3.127053
-2.788641
-2.490609
-2.302461
-2.254671
-2.335074
-2.533137
-2.869024
-3.363994
-4.000842
-4.734212
-5.521240
-6.328123
-7.124117
-7.877269
-8.553479
-9.125201
-9.578522
-9.908273
-10.119323
-10.232061
-10.268581
-10.238387
-10.146455
-10.005477
-9.843082
-9.693096
-9.555394
-9.380491
-9.124632
-8.794072
-8.411942
-7.976320
-7.475326
-6.920051
-6.343749
-5.785720
-5.292491
-4.914042
-4.669737
-4.528259
-4.449814
-4.438833
-4.523357
-4.691726
-4.886213
-5.062256
-5.230246
-5.429968
-5.675385
-5.942198
-6.213916
-6.516504
-6.887957
-7.332433
-7.822705
-8.329395
-8.832443
-9.318511
-9.780146
-10.213882
-10.620336
-11.013760
-11.422876
-11.866784
-12.337449
-12.822680
-13.341058
-13.934319
-14.621872
-15.384720
-16.204765
-17.090919
-18.045189
-19.032654
-20.010727
-20.964815
-21.900442
-22.828413
-23.768408
-24.738163
-25.732864
-26.737665
-27.751215
-28.778969
-29.823671
-30.895473
-32.009773
-33.162193
-34.322388
-35.464291
-36.582466
-37.669426
-38.702068
-39.660286
-40.546013
-41.381901
-42.188583
-42.959259
-43.665680
-44.286331
-44.817070
-45.264519
-45.645641
-45.990650
-46.329605
-46.672417
-47.014660
-47.355579
-47.688618
-47.983334
-48.195587
-48.293392
-48.276199
-48.178532
-48.047676
-47.909027
-47.753441
-47.551128
-47.270592
-46.896339
-46.442650
-45.943439
-45.420376
-44.871262
-44.293842
-43.699482
-43.094406
-42.472862
-41.841034
-41.223053
-40.627426
-40.024826
-39.374119
-38.662701
-37.915226
-37.171856
-36.466705
-35.819588
-35.237637
-34.729630
-34.311131
-33.975529
-33.675549
-33.357166
-33.002632
-32.632240
-32.265797
-31.882250
-31.429169
-30.878475
-30.251711
-29.579714
-28.862986
-28.078320
-27.196451
-26.193995
-25.070471
-23.850670
-22.563950
-21.225954
-19.838877
-18.405128
-16.935057
-15.439389
-13.921681
-12.376471
-10.790086
-9.151597
-7.466851
-5.753577
-4.021559
-2.269985
-0.510806
1.214433
2.843739
4.311584
5.563118
6.568370
7.327236
7.864919
8.220609
8.419751
8.452107
8.292137
7.933165
7.387294
6.671346
5.807269
4.823219
3.756386
2.659062
1.583249
0.552239
-0.441540
-1.402915
-2.296161
-3.049289
-3.605407
-3.957851
-4.127946
-4.135233
-4.001498
-3.753780
-3.408349
-2.970258
-2.456021
-1.905130
-1.362179
-0.848786
-0.356456
0.131956
0.619282
1.099018
1.581520
2.103879
2.703984
3.391756
4.153606
4.969882
5.823807
6.713208
7.649217
8.627214
9.609002
10.540016
11.376048
12.101453
12.733190
13.302304
13.830332
14.326378
14.795255
15.236601
15.640973
15.994739
16.284842
16.498363
16.632385
16.708979
16.764862
16.819254
16.863626
16.888296
16.904922
16.937777
17.011255
17.147223
17.350788
17.598158
17.857244
18.115608
18.374269
18.622303
18.834917
18.997288
19.117575
19.216579
19.314951
19.427004
19.552008
19.664581
19.731958
19.755550
19.774517
19.819647
19.885422
19.949718
20.002131
20.041723
20.053881
20.003618
19.850340
19.561848
19.121895
18.534636
17.822239
17.013971
16.131701
15.182949
14.170250
13.107695
12.025696
10.957078
9.919130
8.914372
7.950158
7.048219
6.221736
5.444248
4.661758
3.841929
2.992871
2.133718
1.271173
0.404978
-0.470521
-1.374942
-2.334185
-3.366946
-4.489115
-5.721162
-7.080504
-8.564676
-10.142162
-11.763720
-13.384202
-14.976883
-16.534733
-18.059399
-19.551109
-21.009300
-22.431213
-23.808233
-25.132099
-26.402138
-27.623636
-28.801054
-29.931889
-31.010792
-32.041996
-33.043369
-34.038414
-35.044064
-36.063377
-37.094097
-38.147591
-39.250835
-40.416164
-41.612934
-42.785271
-43.890362
-44.900654
-45.781418
-46.491726
-47.003162
-47.305183
-47.403831
-47.323772
-47.098537
-46.757954
-46.332645
-45.853882
-45.335396
-44.766491
-44.129364
-43.418034
-42.642986
-41.824112
-40.972897
-40.078022
-39.117104
-38.081017
-36.983421
-35.848415
-34.680058
-33.446568
-32.110764
-30.669952
-29.153589
-27.591600
-25.994623
-24.359098
-22.684084
-20.985312
-19.293633
-17.630207
-15.983330
-14.320368
-12.625279
-10.924851
-9.275935
-7.721622
-6.267499
-4.904204
-3.638693
-2.495876
-1.490414
-0.599753
0.225599
1.023289
1.796823
2.528754
3.204764
3.825362
4.408462
4.982925
5.567223
6.153588
6.726773
7.297523
7.899572
8.554019
9.258409
10.016058
10.849794
11.775184
12.787846
13.884040
15.065289
16.319763
17.620544
18.944403
20.284132
21.640505
22.998508
24.320196
25.576380
26.772394
27.922560
29.014771
30.022570
30.938873
31.778996
32.560146
33.291965
33.984867
34.656021
35.316055
35.947723
36.502975
36.928745
37.196201
37.300838
37.238216
36.989765
36.545319
35.936062
35.223412
34.459965
33.671425
32.859062
32.012100
31.129890
30.247036
29.436619
28.766848
28.248627
27.836859
27.475256
27.133671
26.815931
26.538456
26.296936
26.057064
25.785629
25.486624
25.192038
24.917395
24.640390
24.320986
23.926723
23.438940
22.855261
22.196234
21.497227
20.788433
20.087526
19.404728
18.748175
18.130632
17.571749
17.085697
16.668928
16.308996
16.003483
15.762323
15.593082
15.492069
15.449145
15.450261
15.476730
15.518678
15.588532
15.706518
15.876221
16.084412
16.318483
16.574898
16.852058
17.138687
17.413094
17.653086
17.838285
17.948704
17.974504
17.919037
17.780056
17.536949
17.164804
16.647470
15.963257
15.068281
13.912976
12.482637
10.818279
8.992606
7.069289
5.083986
3.048833
0.972767
-1.115377
-3.168003
-5.143678
-7.026791
-8.825750
-10.550221
-12.175054
-13.627558
-14.834243
-15.778507
-16.490774
-16.986561
-17.230843
-17.166279
-16.768288
-16.062412
-15.091964
-13.888924
-12.475885
-10.874268
-9.114017
-7.237469
-5.280742
-3.266352
-1.211952
0.879376
3.022307
5.223898
7.467065
9.727073
11.997710
14.293839
16.629330
18.998247
21.380386
23.758663
26.121946
28.451742
30.705622
32.819641
34.743477
36.463951
37.981667
39.283504
40.351612
41.189465
41.825916
42.293060
42.610786
42.782982
42.786205
42.577229
42.133171
41.471317
40.625385
39.614204
38.438362
37.106441
35.651264
34.116341
32.533546
30.906347
29.216940
27.471022
25.745447
24.171286
22.844713
21.767277
20.885399
20.162088
19.600149
19.213560
18.988586
18.879547
18.839325
18.846077
18.906042
19.037100
19.241037
19.483206
19.705709
19.866158
19.962811
20.028849
20.106419
20.215975
20.342291
20.455704
20.549137
20.642874
20.750858
20.853975
20.912371
20.896908
20.787321
20.542856
20.109550
19.456303
18.589817
17.541044
16.333952
14.979246
13.505953
11.964806
10.390041
8.781275
7.131891
5.460162
3.793482
2.139079
0.493668
-1.132794
-2.715092
-4.228749
-5.664174
-7.019352
-8.279371
-9.412427
-10.387761
-11.185096
-11.780525
-12.140329
-12.236639
-12.059189
