EVENT_NAME: CENTRAL_ITALY
EVENT_ID: EMSC-20160824_0000006
EVENT_DATE_YYYYMMDD: 20160824
EVENT_TIME_HHMMSS: 013632
EVENT_LATITUDE_DEGREE: 42.6983
EVENT_LONGITUDE_DEGREE: 13.2335
EVENT_DEPTH_KM: 8.1
HYPOCENTER_REFERENCE: INGV-CNT_Seismic_Bulletin
MAGNITUDE_W: 6.0
MAGNITUDE_W_REFERENCE: INGV-webservice
MAGNITUDE_L: 6.0
MAGNITUDE_L_REFERENCE: INGV-CNT_Seismic_Bulletin
FOCAL_MECHANISM: NF
NETWORK: IT
STATION_CODE: NRC
STATION_NAME: NORCIA
STATION_LATITUDE_DEGREE: 42.792543
STATION_LONGITUDE_DEGREE: 13.096475
STATION_ELEVATION_M: 616
LOCATION: 
SENSOR_DEPTH_M: 0.0
VS30_M/S: 687
SITE_CLASSIFICATION_EC8: B
MORPHOLOGIC_CLASSIFICATION: SL
EPICENTRAL_DISTANCE_KM: 15.3
EARTHQUAKE_BACKAZIMUTH_DEGREE: 133.0
DATE_TIME_FIRST_SAMPLE_YYYYMMDD_HHMMSS: 20160824_013629.849
DATE_TIME_FIRST_SAMPLE_PRECISION: milliseconds
SAMPLING_INTERVAL_S: 0.005000
NDATA: 8000
DURATION_S: 40.000
STREAM: HGE
UNITS: cm/s
INSTRUMENT: sensor = Unknown [Unknown] | digitizer = Unknown [Unknown]
INSTRUMENT_ANALOG/DIGITAL: D
INSTRUMENTAL_FREQUENCY_HZ: 
INSTRUMENTAL_DAMPING: 
FULL_SCALE_G: 
N_BIT_DIGITAL_CONVERTER: 
PGV_CM/S: 29.754372
TIME_PGV_S: 11.315000
BASELINE_CORRECTION: BASELINE REMOVED
FILTER_TYPE: BUTTERWORTH
FILTER_ORDER: 2
LOW_CUT_FREQUENCY_HZ: 0.080
HIGH_CUT_FREQUENCY_HZ: 40.000
LATE/NORMAL_TRIGGERED: NT
DATABASE_VERSION: DYNA 1.0
HEADER_FORMAT: DYNA 1.2
DATA_TYPE: VELOCITY
PROCESSING: manual (Paolucci et al., 2011)
DATA_TIMESTAMP_YYYYMMDD_HHMMSS: 20160825_132942.360
DATA_LICENSE: CC-BY3_0-IT (http://creativecommons.org/licenses/by/3.0/deed.en)
DATA_CITATION: ESM working group (2015), European Strong-Motion database, version 0.1, Network Activity 3: Networking acceleration networks and SM data users. Project NERA (www.nera-eu.org)
DATA_CREATOR: ESM working group
ORIGINAL_DATA_MEDIATOR_CITATION: Ufficio Rischio Sismico e Vulcanico del Dipartimento della Protezione Civile (http://www.protezionecivile.gov.it/)
ORIGINAL_DATA_MEDIATOR: Rete Accelerometrica Nazionale - RAN Download (http://www.mot1.it/randownload/)
ORIGINAL_DATA_CREATOR_CITATION: Italian Strong Motion Network, Italian Civil Protection Department http://www.protezionecivile.gov.it
ORIGINAL_DATA_CREATOR: network: IT (Italian Strong Motion Network); owner: Dipartimento Della Protezione Civile
USER1: /home/dyna/processing-itaca/processing.py /var/www/processing//tmp/Maria//IT.NRC..HGE.D.20160824.013632.X.ACC.ASC /var/www/processing//tmp/Maria//IT.NRC..HGN.D.20160824.013632.X.ACC.ASC /var/www/processing//tmp/Maria//IT.NRC..HGZ.D.20160824.013632.X.ACC.ASC --tmp /var/www/processing//tmp/Maria/ --le 0.08 --he 40.000 --ln 0.08 --hn 40.000 --lz 0.08 --hz 40.000 --fo 2 --ca 0 --cz 140 --ta 5 --tz 5 --mf 1 --rf 0 --tr NT
USER2: 
USER3: 
USER4: 
USER5: 
[...]
0.033268
0.033495
0.033721
0.033949
0.034183
0.034417
0.034645
0.034867
0.035087
0.035314
0.035553
0.035797
0.036039
0.036284
0.036533
0.036778
0.037018
0.037258
0.037501
0.037745
0.037987
0.038224
0.038460
0.038703
0.038949
0.039195
0.039439
0.039678
0.039914
0.040155
0.040399
0.040642
0.040883
0.041123
0.041368
0.041626
0.041886
0.042140
0.042391
0.042645
0.042901
0.043151
0.043395
0.043641
0.043887
0.044134
0.044383
0.044636
0.044890
0.045140
0.045391
0.045648
0.045914
0.046179
0.046438
0.046697
0.046961
0.047227
0.047490
0.047753
0.048020
0.048291
0.048563
0.048835
0.049107
0.049376
0.049640
0.049898
0.050158
0.050421
0.050682
0.050943
0.051208
0.051477
0.051750
0.052026
0.052305
0.052583
0.052860
0.053143
0.053429
0.053710
0.053988
0.054275
0.054566
0.054848
0.055126
0.055409
0.055698
0.055987
0.056271
0.056552
0.056832
0.057114
0.057399
0.057690
0.057983
0.058272
0.058558
0.058848
0.059143
0.059436
0.059730
0.060026
0.060322
0.060616
0.060913
0.061212
0.061510
0.061805
0.062101
0.062400
0.062705
0.063009
0.063309
0.063609
0.063911
0.064213
0.064515
0.064822
0.065129
0.065431
0.065727
0.066022
0.066319
0.066623
0.066935
0.067248
0.067565
0.067889
0.068213
0.068529
0.068842
0.069158
0.069471
0.069781
0.070094
0.070412
0.070727
0.071037
0.071349
0.071666
0.071984
0.072301
0.072620
0.072940
0.073258
0.073581
0.073911
0.074242
0.074571
0.074902
0.075235
0.075563
0.075883
0.076207
0.076537
0.076863
0.077189
0.077521
0.077854
0.078181
0.078508
0.078846
0.079194
0.079541
0.079880
0.080219
0.080566
0.080916
0.081260
0.081596
0.081932
0.082271
0.082609
0.082942
0.083271
0.083601
0.083940
0.084289
0.084639
0.084985
0.085332
0.085680
0.086027
0.086374
0.086721
0.087071
0.087424
0.087778
0.088128
0.088478
0.088828
0.089181
0.089541
0.089899
0.090252
0.090607
0.090966
0.091322
0.091675
0.092032
0.092397
0.092763
0.093126
0.093487
0.093851
0.094216
0.094577
0.094924
0.095246
0.095524
0.095744
0.095900
0.095975
0.095953
0.095831
0.095624
0.095371
0.095131
0.094974
0.094973
0.095200
0.095709
0.096516
0.097604
0.098924
0.100411
0.101985
0.103551
0.105003
0.106239
0.107178
0.107759
0.107936
0.107699
0.107097
0.106220
0.105192
0.104181
0.103383
0.102975
0.103066
0.103684
0.104780
0.106243
0.107924
0.109658
0.111277
0.112629
0.113568
0.113982
0.113838
0.113203
0.112215
0.111040
0.109833
0.108712
0.107770
0.107086
0.106741
0.106792
0.107269
0.108174
0.109472
0.111066
0.112808
0.114557
0.116208
0.117664
0.118833
0.119648
0.120090
0.120176
0.119944
0.119425
0.118619
0.117486
0.116018
0.114312
0.112550
0.110890
0.109415
0.108183
0.107277
0.106806
0.106889
0.107616
0.108981
0.110811
0.112843
0.114925
0.117107
0.119526
0.122217
0.124994
0.127415
0.128927
0.129228
0.128558
0.127561
0.126762
0.126203
0.125627
0.124896
0.124122
0.123492
0.123092
0.122806
0.122282
0.121042
0.118802
0.115793
0.112760
0.110539
0.109437
0.108926
0.108093
0.106452
0.104242
0.102004
0.100050
0.098347
0.096663
0.094753
0.092615
0.090683
0.089587
0.089630
0.090563
0.091883
0.093254
0.094674
0.096388
0.098633
0.101356
0.104211
0.106875
0.109367
0.112047
0.115291
0.119043
0.122592
0.124848
0.124984
0.122887
0.119078
0.114428
0.110026
0.107070
0.106541
0.108849
0.113810
0.120822
0.128967
0.137050
0.143777
0.148052
0.149212
0.146982
0.141227
0.131957
0.119624
0.105075
0.089037
0.071925
0.054311
0.037281
0.022134
0.009910
0.001267
-0.003522
-0.004657
-0.002733
0.001523
0.007332
0.013789
0.020041
0.025438
0.029458
0.031958
0.033680
0.035961
0.039664
0.044625
0.050026
0.055021
0.059166
0.062679
0.066224
0.070161
0.074185
0.077863
0.081158
0.084116
0.086222
0.086518
0.084619
0.081352
0.078240
0.076843
0.078777
0.085539
0.097468
0.112733
0.127601
0.138074
0.141730
0.138403
0.129320
0.115776
0.098800
0.079823
0.060892
0.043612
0.027854
0.011936
-0.005690
-0.025106
-0.045108
-0.063650
-0.077677
-0.083716
-0.079674
-0.066000
-0.045294
-0.021369
0.001761
0.020985
0.034654
0.042525
0.045962
0.048060
0.052250
0.059837
0.069130
0.077203
0.081992
0.082764
0.079635
0.073410
0.065817
0.059486
0.057215
0.060742
0.069840
0.082431
0.095300
0.104777
0.107613
0.102051
0.088604
0.070232
0.051756
0.038461
0.034490
0.041706
0.058991
0.081924
0.104006
0.119618
0.126185
0.124038
0.115647
0.105254
0.097656
0.096423
0.104142
0.124191
0.159649
0.208505
0.261212
0.304742
0.328936
0.329357
0.306840
0.266502
0.216297
0.164869
0.120523
0.090971
0.081235
0.091123
0.115931
0.149018
0.182886
0.210166
0.227219
0.237569
0.250284
0.274218
0.313031
0.363081
0.414598
0.457208
0.486264
0.502440
0.505742
0.493810
0.466868
0.431454
0.398294
0.377254
0.372984
0.382738
0.397195
0.404562
0.396401
0.371651
0.336229
0.299036
0.267065
0.242247
0.222180
0.203722
0.185503
0.167492
0.149378
0.130391
0.110919
0.093809
0.083620
0.084994
0.102050
0.137794
0.191955
0.259443
0.332496
0.404732
0.472421
0.533079
0.585055
0.627592
0.659138
0.676059
0.675136
0.658416
0.635122
0.617842
0.615456
0.628281
0.649710
0.672140
0.691452
0.707665
0.722118
0.733456
0.737605
0.732847
0.723335
0.716214
0.716780
0.727407
0.748347
0.776927
0.807462
0.833543
0.850574
0.857705
0.857291
0.850488
0.835576
0.813748
0.793641
0.786379
0.797238
0.823447
0.857517
0.889893
0.909378
0.904461
0.867963
0.803064
0.724566
0.651831
0.598841
0.570498
0.566303
0.583122
0.612830
0.641516
0.654726
0.644124
0.611799
0.571616
0.544949
0.550090
0.592021
0.661423
0.742998
0.823429
0.892808
0.943598
0.971675
0.977917
0.967725
0.949171
0.931044
0.920841
0.922615
0.934845
0.949789
0.956584
0.947495
0.922962
0.889714
0.852826
0.812294
0.768425
0.726037
0.691488
0.668871
0.660335
0.667327
0.688748
0.718589
0.748560
0.775009
0.802341
0.837847
0.883457
0.933484
0.979741
1.018326
1.051357
1.081640
1.105460
1.111882
1.091722
1.048094
0.997190
0.958893
0.945709
0.958097
0.989104
1.032346
1.083971
1.138282
1.184892
1.212023
1.212081
1.183341
1.127885
1.051407
0.965311
0.884693
0.820502
0.774279
0.742267
0.722111
0.712476
0.709317
0.706958
0.702268
0.696355
0.692433
0.692470
0.696621
0.706017
0.723789
0.750239
0.777305
0.792523
0.792273
0.789008
0.801588
0.839446
0.898693
0.971764
1.055810
1.149379
1.245441
1.333138
1.404271
1.455480
1.488109
1.508243
1.524050
1.541993
1.566271
1.599374
1.639373
1.677343
1.701773
1.707153
1.695801
1.670944
1.632111
1.577444
1.505928
1.419127
1.325861
1.241372
1.176681
1.132452
1.105778
1.097679
1.110973
1.145032
1.196429
1.261618
1.333921
1.399338
1.440522
1.446794
1.420349
1.373721
1.321593
1.274473
1.239424
1.222592
1.226387
1.247081
1.277935
1.310986
1.337147
1.350231
1.349880
1.339477
1.324469
1.311418
1.304133
1.301576
1.301721
1.303352
1.301122
1.285245
1.251342
1.206882
1.165244
1.136804
1.126667
1.136467
1.165119
1.208064
1.256402
1.298677
1.326419
1.337782
1.335452
1.322488
1.299221
1.263303
1.215133
1.163601
1.122577
1.099837
1.092980
1.097856
1.115844
1.149438
1.194766
1.241535
1.276986
1.288906
1.271259
1.230959
1.186222
1.156767
1.155549
1.184558
1.233482
1.285952
1.332530
1.375803
1.420015
1.460308
1.486620
1.496175
1.499931
1.516661
1.561407
1.638817
1.740947
1.847937
1.938487
2.005381
2.057573
2.107468
2.163897
2.238452
2.347229
2.499628
2.692304
2.915363
3.150780
3.360301
3.491980
3.509759
3.410283
3.214735
2.959662
2.690642
2.444785
2.234747
2.055811
1.904266
1.780741
1.682695
1.605292
1.544100
1.490350
1.434086
1.377890
1.337987
1.328046
1.347264
1.382538
1.415554
1.429765
1.418217
1.389059
1.364173
1.369562
1.421979
1.522484
1.662293
1.831944
2.022560
2.220705
2.406766
2.559475
2.660222
2.696989
2.672280
2.607439
2.532774
2.470723
2.428213
2.402236
2.389344
2.389423
2.405085
2.442076
2.504442
2.582475
2.652096
2.692007
2.696005
2.668806
2.619601
2.560323
2.498987
2.431625
2.350539
2.260491
2.177455
2.117159
2.091918
2.106748
2.151463
2.208580
2.275292
2.365868
2.486897
2.625099
2.766864
2.912785
3.063282
3.206386
3.331807
3.444533
3.555496
3.671062
3.796882
3.938460
4.093310
4.252926
4.413776
4.576338
4.732270
4.860768
4.938200
4.945211
4.868543
4.708198
4.482843
4.218032
3.928337
3.617485
3.295113
2.983717
2.701419
2.441607
2.179221
1.895710
1.587395
1.252539
0.884964
0.482493
0.053831
-0.384056
-0.814067
-1.227394
-1.625336
-2.011715
-2.385581
-2.743414
-3.084512
-3.410974
-3.725517
-4.030522
-4.326910
-4.612305
-4.878270
-5.113026
-5.312834
-5.485349
-5.637669
-5.768882
-5.874645
-5.949217
-5.984380
-5.975736
-5.929177
-5.855467
-5.761362
-5.652763
-5.544349
-5.453394
-5.379473
-5.306084
-5.229258
-5.167446
-5.140864
-5.155180
-5.201212
-5.264596
-5.342468
-5.448504
-5.595329
-5.775394
-5.964170
-6.142128
-6.307911
-6.466647
-6.614985
-6.746893
-6.866814
-6.988515
-7.124179
-7.275304
-7.429839
-7.568395
-7.672667
-7.726841
-7.717452
-7.635735
-7.476478
-7.237462
-6.925677
-6.557497
-6.146580
-5.697785
-5.213204
-4.693510
-4.131591
-3.513840
-2.832411
-2.094481
-1.321049
-0.540527
0.217977
0.925654
1.549076
2.055516
2.430090
2.677942
2.804855
2.806754
2.682202
2.443357
2.110730
1.707543
1.258309
0.779616
0.271142
-0.275686
-0.858688
-1.457081
-2.040577
-2.582297
-3.063720
-3.471606
-3.793114
-4.016967
-4.140216
-4.172764
-4.138297
-4.069823
-3.995549
-3.924486
-3.847601
-3.754206
-3.644473
-3.525176
-3.399957
-3.267475
-3.125345
-2.976390
-2.835280
-2.727198
-2.675814
-2.693494
-2.784385
-2.953474
-3.208228
-3.549453
-3.960694
-4.408760
-4.858998
-5.291747
-5.702106
-6.088346
-6.449165
-6.787769
-7.104839
-7.386487
-7.611414
-7.772118
-7.876078
-7.923350
-7.896067
-7.771901
-7.537893
-7.193813
-6.751628
-6.229973
-5.642841
-4.992635
-4.274518
-3.485531
-2.628986
-1.714850
-0.761948
0.198866
1.127436
1.987023
2.757060
3.427897
3.983437
4.400227
4.664618
4.779428
4.750828
4.573336
4.229483
3.704562
2.999570
2.127935
1.104648
-0.056869
-1.338865
-2.713904
-4.149681
-5.621055
-7.115031
-8.623681
-10.133805
-11.620763
-13.048440
-14.375336
-15.563053
-16.581079
-17.405630
-18.016451
-18.397320
-18.543476
-18.470343
-18.208675
-17.783194
-17.197208
-16.443474
-15.528319
-14.480601
-13.340612
-12.144355
-10.912305
-9.647272
-8.348004
-7.030541
-5.732947
-4.497420
-3.357515
-2.349543
-1.527513
-0.955092
-0.680615
-0.719853
-1.058845
-1.671730
-2.537004
-3.634418
-4.929553
-6.373269
-7.916635
-9.516138
-11.126347
-12.698456
-14.188098
-15.560294
-16.788315
-17.854191
-18.748318
-19.460449
-19.971701
-20.259064
-20.307581
-20.120569
-19.718876
-19.126532
-18.358961
-17.427637
-16.349396
-15.144660
-13.829644
-12.414700
-10.908391
-9.320599
-7.663267
-5.950561
-4.200435
-2.437581
-0.693002
1.001333
2.615714
4.118357
5.470402
6.632370
7.579386
8.307316
8.824569
9.144970
9.287957
9.273902
9.114469
8.812743
8.373494
7.811742
7.153253
6.425684
5.648634
4.837330
4.015834
3.217800
2.472036
1.793192
1.183348
0.632575
0.120650
-0.371969
-0.854740
-1.329604
-1.795777
-2.246890
-2.667995
-3.041157
-3.351828
-3.588833
-3.744366
-3.815692
-3.801728
-3.696194
-3.487966
-3.171789
-2.757408
-2.263895
-1.704843
-1.084125
-0.406118
0.317120
1.069330
1.831880
2.579665
3.282358
3.913046
4.453227
4.892554
5.228599
5.462836
5.591672
5.601771
5.473125
5.184934
4.723372
4.092403
3.322203
2.470420
1.615288
0.836826
0.191785
-0.300644
-0.657069
-0.918208
-1.130926
-1.331362
-1.540995
-1.775732
-2.054395
-2.397271
-2.818785
-3.324131
-3.913591
-4.587567
-5.344625
-6.177123
-7.074634
-8.032280
-9.050832
-10.125763
-11.235902
-12.341734
-13.396184
-14.363333
-15.231970
-16.011024
-16.710770
-17.326578
-17.834513
-18.198299
-18.385693
-18.385485
-18.210831
-17.885616
-17.428274
-16.848112
-16.152180
-15.350464
-14.454641
-13.472910
-12.409568
-11.278807
-10.118474
-8.978452
-7.893241
-6.870908
-5.903564
-4.978965
-4.083753
-3.206980
-2.348601
-1.524493
-0.761055
-0.085251
0.479885
0.917309
1.226440
1.437582
1.613435
1.832508
2.165438
2.656535
3.315789
4.123379
5.043090
6.033277
7.051718
8.059367
9.021000
9.902955
10.678889
11.340685
11.894117
12.341330
12.678943
12.916909
13.088128
13.232799
13.376817
13.525931
13.674335
13.815772
13.951257
14.090898
14.248478
14.435384
14.661419
14.938405
15.279875
15.698140
16.201525
16.792187
17.467291
18.224457
19.064289
19.985001
20.975067
22.011559
23.066149
24.113123
25.130230
26.093456
26.976759
27.758675
28.424839
28.963619
29.365023
29.625877
29.752274
29.754372
29.639763
29.412201
29.073519
28.622883
28.054346
27.359571
26.537603
25.604218
24.593145
23.549967
22.524357
21.563829
20.708033
19.981033
19.383682
18.894815
18.484568
18.128986
17.814665
17.535818
17.292355
17.088776
16.929344
16.813793
16.740450
16.711643
16.731176
16.796886
16.900888
17.038891
17.215691
17.438988
17.709440
18.018927
18.358128
18.723551
19.116076
19.534637
19.971592
20.410410
20.824827
21.179718
21.434471
21.550112
21.496569
21.253702
20.808531
20.156452
19.305908
18.279598
17.109320
15.827537
14.461121
13.030718
11.554473
10.051322
8.540429
7.038460
5.559222
4.115961
2.722653
1.392852
0.136918
-1.039146
-2.129836
-3.125987
-4.017100
-4.797728
-5.470419
-6.042307
-6.519709
-6.905566
-7.199336
-7.398130
-7.499507
-7.504822
-7.421274
-7.262106
-7.044147
-6.782519
-6.486218
-6.158976
-5.803541
-5.422098
-5.012238
-4.568217
-4.088654
-3.580954
-3.062198
-2.558317
-2.097593
-1.703267
-1.393005
-1.182808
-1.087576
-1.115892
-1.265655
-1.526928
-1.889237
-2.344244
-2.880701
-3.480112
-4.119000
-4.773875
-5.424944
-6.057356
-6.659420
-7.220407
-7.731552
-8.188814
-8.593458
-8.950205
-9.264796
-9.542368
-9.786862
-10.000183
-10.181065
-10.324378
-10.422169
-10.469017
-10.468424
-10.432393
-10.374567
-10.304373
-10.226123
-10.141353
-10.050535
-9.953184
-9.848764
-9.737782
-9.620540
-9.495742
-9.362333
-9.222769
-9.083258
-8.950402
-8.829173
-8.724377
-8.641035
-8.582227
-8.548627
-8.540353
-8.558251
-8.604631
-8.683938
-8.801891
-8.963685
-9.173132
-9.433094
-9.747155
-10.119835
-10.552380
-11.039198
-11.571244
-12.141583
-12.744964
-13.374218
-14.021762
-14.684083
-15.360277
-16.045759
-16.730412
-17.403179
-18.056002
-18.682072
-19.272421
-19.816605
-20.305597
-20.732069
-21.089621
-21.373877
-21.583513
-21.719334
-21.781425
-21.766584
-21.670650
-21.494858
-21.248199
-20.943933
-20.596331
-20.220411
-19.831095
-19.439070
-19.047182
-18.653143
-18.255157
-17.852125
-17.439905
-17.011084
-16.559095
-16.082438
-15.586364
-15.082093
-14.584046
-14.106147
-13.659079
-13.250460
-12.887758
-12.579304
-12.329397
-12.133375
-11.981045
-11.864025
-11.776535
-11.710448
-11.653535
-11.593126
-11.519720
-11.427120
-11.310815
-11.167415
-10.995083
-10.792824
-10.559490
-10.295072
-10.002530
-9.686536
-9.350608
-8.997115
-8.630363
-8.258704
-7.892324
-7.537478
-7.192795
-6.851900
-6.509001
-6.160915
-5.804678
-5.435367
-5.046811
-4.634017
-4.195630
-3.734956
-3.258046
-2.769873
-2.272872
-1.769364
-1.263465
-0.759495
-0.260022
0.234021
0.723034
1.208457
1.690882
2.168567
2.638688
3.099586
3.551769
3.997222
4.437068
4.869621
5.291458
5.700343
6.096823
6.483142
6.860084
7.224281
7.569001
7.887983
8.177805
8.436099
8.659310
8.844308
8.991511
9.105136
9.191365
9.256849
9.306958
9.344142
9.368716
9.381080
9.381893
9.369558
9.338169
9.279147
9.185928
9.057067
8.894489
8.699734
8.472972
8.214710
7.927180
7.614723
7.283936
6.943604
6.603900
6.274343
5.961741
5.670261
5.402734
5.160234
4.940710
4.740782
4.559818
4.400153
4.263242
4.148933
4.058911
3.996586
3.961350
3.945409
3.938407
3.934165
3.931868
3.932533
3.937539
3.950954
3.980438
4.033739
4.114319
4.219754
4.342290
4.470817
4.595491
4.713096
4.827951
4.947335
5.076004
5.214187
5.359407
5.509117
5.661230
5.813083
5.961463
6.104335
6.241884
6.375064
6.503945
6.628883
6.752529
6.879078
7.011896
7.152811
7.302940
7.462540
7.628750
7.793738
7.947093
8.080484
8.188527
8.266635
8.310925
8.319415
8.292002
8.230314
8.137519
8.016237
7.866297
7.685687
7.472605
7.224189
6.934440
6.596938
6.210284
5.779769
5.314456
4.823583
4.314786
3.794131
3.267266
2.740999
2.224126
1.726620
1.257776
0.825081
0.434776
0.092504
-0.197850
-0.434786
-0.616115
-0.735868
-0.787052
-0.767696
-0.682667
-0.540144
-0.348054
-0.113929
0.153131
0.441010
0.733758
1.011391
1.253460
1.445459
1.580546
1.654901
1.664520
1.608025
1.490371
1.321702
1.113166
0.874419
0.614535
0.344519
0.077033
-0.177733
-0.415433
-0.637097
-0.846061
-1.044439
-1.230985
-1.401134
-1.547987
-1.663373
-1.740114
-1.775390
-1.771775
-1.734137
-1.665858
-1.568314
-1.442983
-1.292755
-1.120864
-0.929025
-0.716907
-0.483179
-0.226737
0.052713
0.353984
0.673199
1.003061
1.333628
1.654677
1.958622
2.241937
2.504284
2.746620
2.969392
3.172358
3.357422
3.531116
3.701726
3.873582
4.045826
4.216695
4.387026
4.558351
4.728410
4.889890
5.033630
5.153248
5.247922
5.321749
5.381134
5.433193
5.485936
5.547728
5.624301
5.716524
5.822554
5.941125
6.070607
6.206195
6.341185
6.470576
6.590979
6.697992
6.786903
6.856315
6.908921
6.947863
6.973135
6.982232
6.973743
6.949020
6.910769
6.862276
6.808499
6.755880
6.710071
6.673838
6.646267
6.623664
6.602524
6.582513
6.566415
6.557303
6.556072
6.560784
6.566761
6.567101
6.554296
6.521984
6.465276
6.380684
6.267264
6.127772
5.967609
5.792066
5.604414
5.406036
5.197616
4.979726
4.752502
4.514903
4.263674
3.993137
3.697091
3.371421
3.015702
2.634086
2.234636
1.826070
1.414932
1.006496
0.607083
0.223589
-0.139037
-0.477741
-0.788620
-1.067367
-1.313227
-1.529314
-1.718286
-1.880025
-2.013185
-2.116845
-2.191619
-2.241635
-2.274768
-2.298657
-2.317012
-2.331145
-2.342562
-2.351460
-2.355198
-2.350624
-2.335849
-2.309139
-2.268660
-2.213304
-2.141840
-2.051988
-1.942129
-1.814047
