EVENT_NAME: CENTRAL_ITALY
EVENT_ID: EMSC-20160824_0000013
EVENT_DATE_YYYYMMDD: 20160824
EVENT_TIME_HHMMSS: 023329
EVENT_LATITUDE_DEGREE: 42.7935
EVENT_LONGITUDE_DEGREE: 13.1537
EVENT_DEPTH_KM: 8.7
HYPOCENTER_REFERENCE: INGV-webservice
MAGNITUDE_W: 5.3
MAGNITUDE_W_REFERENCE: INGV-webservice
MAGNITUDE_L: 5.4
MAGNITUDE_L_REFERENCE: INGV-webservice
FOCAL_MECHANISM: NF
NETWORK: IT
STATION_CODE: NRC
STATION_NAME: NORCIA
STATION_LATITUDE_DEGREE: 42.792543
STATION_LONGITUDE_DEGREE: 13.096475
STATION_ELEVATION_M: 616
LOCATION: 
SENSOR_DEPTH_M: 0.0
VS30_M/S: 687
SITE_CLASSIFICATION_EC8: B
MORPHOLOGIC_CLASSIFICATION: SL
EPICENTRAL_DISTANCE_KM: 4.7
EARTHQUAKE_BACKAZIMUTH_DEGREE: 88.7
DATE_TIME_FIRST_SAMPLE_YYYYMMDD_HHMMSS: 20160824_023324.704
DATE_TIME_FIRST_SAMPLE_PRECISION: milliseconds
SAMPLING_INTERVAL_S: 0.005000
NDATA: 9429
DURATION_S: 47.145
STREAM: HGN
UNITS: cm/s
INSTRUMENT: sensor = Unknown [Unknown] | digitizer = Unknown [Unknown]
INSTRUMENT_ANALOG/DIGITAL: D
INSTRUMENTAL_FREQUENCY_HZ: 
INSTRUMENTAL_DAMPING: 
FULL_SCALE_G: 
N_BIT_DIGITAL_CONVERTER: 
PGV_CM/S: -5.648964
TIME_PGV_S: 9.815000
BASELINE_CORRECTION: BASELINE REMOVED
FILTER_TYPE: BUTTERWORTH
FILTER_ORDER: 2
LOW_CUT_FREQUENCY_HZ: 0.070
HIGH_CUT_FREQUENCY_HZ: 30.000
LATE/NORMAL_TRIGGERED: NT
DATABASE_VERSION: DYNA 1.0
HEADER_FORMAT: DYNA 1.2
DATA_TYPE: VELOCITY
PROCESSING: manual (Paolucci et al., 2011)
DATA_TIMESTAMP_YYYYMMDD_HHMMSS: 20160825_170450.371
DATA_LICENSE: CC-BY3_0-IT (http://creativecommons.org/licenses/by/3.0/deed.en)
DATA_CITATION: ESM working group (2015), European Strong-Motion database, version 0.1, Network Activity 3: Networking acceleration networks and SM data users. Project NERA (www.nera-eu.org)
DATA_CREATOR: ESM working group
ORIGINAL_DATA_MEDIATOR_CITATION: Ufficio Rischio Sismico e Vulcanico del Dipartimento della Protezione Civile (http://www.protezionecivile.gov.it/)
ORIGINAL_DATA_MEDIATOR: Rete Accelerometrica Nazionale - RAN Download (http://www.mot1.it/randownload/)
ORIGINAL_DATA_CREATOR_CITATION: Italian Strong Motion Network, Italian Civil Protection Department http://www.protezionecivile.gov.it
ORIGINAL_DATA_CREATOR: network: IT (Italian Strong Motion Network); owner: Dipartimento Della Protezione Civile
USER1: /home/dyna/processing-itaca/processing.py /var/www/processing//tmp/Maria//IT.NRC..HGE.D.20160824.023329.X.ACC.ASC /var/www/processing//tmp/Maria//IT.NRC..HGN.D.20160824.023329.X.ACC.ASC /var/www/processing//tmp/Maria//IT.NRC..HGZ.D.20160824.023329.X.ACC.ASC --tmp /var/www/processing//tmp/Maria/ --le 0.070 --he 30.000 --ln 0.070 --hn 30.000 --lz 0.070 --hz 30.000 --fo 2 --ca 0 --cz 60 --ta 5 --tz 5 --mf 1 --rf 0 --tr NT
USER2: 
USER3: 
USER4: 
USER5: 
[...]
0.003856
0.003915
0.004066
0.004285
0.004485
0.004589
0.004588
0.004529
0.004467
0.004437
0.004437
0.004441
0.004432
0.004425
0.004459
0.004561
0.004729
0.004944
0.005175
0.005397
0.005607
0.005820
0.006044
0.006270
0.006466
0.006575
0.006532
0.006296
0.005868
0.005292
0.004643
0.004021
0.003522
0.003210
0.003097
0.003145
0.003281
0.003430
0.003531
0.003568
0.003586
0.003652
0.003807
0.004059
0.004380
0.004725
0.005050
0.005316
0.005494
0.005576
0.005587
0.005583
0.005600
0.005614
0.005560
0.005392
0.005125
0.004816
0.004547
0.004387
0.004343
0.004384
0.004500
0.004710
0.005001
0.005324
0.005642
0.005929
0.006144
0.006237
0.006188
0.006028
0.005809
0.005580
0.005383
0.005231
0.005108
0.004987
0.004874
0.004803
0.004799
0.004868
0.004990
0.005139
0.005301
0.005472
0.005632
0.005732
0.005721
0.005592
0.005387
0.005186
0.005066
0.005078
0.005226
0.005475
0.005763
0.006030
0.006245
0.006411
0.006542
0.006653
0.006757
0.006870
0.007018
0.007227
0.007505
0.007801
0.008007
0.008012
0.007774
0.007316
0.006697
0.005989
0.005270
0.004601
0.004028
0.003610
0.003410
0.003447
0.003674
0.004027
0.004467
0.004975
0.005520
0.006054
0.006518
0.006867
0.007089
0.007204
0.007242
0.007232
0.007198
0.007170
0.007171
0.007187
0.007143
0.006964
0.006636
0.006213
0.005775
0.005386
0.005072
0.004822
0.004635
0.004559
0.004659
0.004924
0.005239
0.005468
0.005552
0.005519
0.005436
0.005373
0.005382
0.005470
0.005599
0.005703
0.005722
0.005627
0.005449
0.005296
0.005300
0.005515
0.005863
0.006172
0.006287
0.006156
0.005836
0.005420
0.004983
0.004583
0.004274
0.004098
0.004089
0.004256
0.004570
0.004966
0.005372
0.005745
0.006073
0.006357
0.006596
0.006808
0.007022
0.007250
0.007462
0.007604
0.007622
0.007481
0.007188
0.006805
0.006431
0.006133
0.005920
0.005779
0.005718
0.005766
0.005935
0.006187
0.006429
0.006555
0.006505
0.006316
0.006115
0.006051
0.006199
0.006519
0.006883
0.007137
0.007159
0.006912
0.006458
0.005922
0.005431
0.005073
0.004891
0.004894
0.005063
0.005349
0.005702
0.006094
0.006526
0.007001
0.007480
0.007882
0.008128
0.008184
0.008069
0.007834
0.007538
0.007218
0.006876
0.006518
0.006188
0.005969
0.005911
0.005978
0.006084
0.006160
0.006184
0.006185
0.006224
0.006346
0.006537
0.006748
0.006950
0.007136
0.007299
0.007418
0.007460
0.007394
0.007209
0.006934
0.006634
0.006385
0.006252
0.006267
0.006422
0.006672
0.006958
0.007218
0.007411
0.007525
0.007574
0.007584
0.007572
0.007548
0.007528
0.007522
0.007522
0.007517
0.007509
0.007516
0.007549
0.007596
0.007637
0.007664
0.007671
0.007655
0.007614
0.007552
0.007472
0.007380
0.007284
0.007200
0.007153
0.007168
0.007251
0.007383
0.007520
0.007635
0.007730
0.007832
0.007959
0.008102
0.008254
0.008425
0.008627
0.008853
0.009070
0.009223
0.009267
0.009200
0.009084
0.009011
0.009043
0.009166
0.009311
0.009394
0.009353
0.009157
0.008822
0.008417
0.008042
0.007786
0.007695
0.007768
0.007968
0.008243
0.008547
0.008846
0.009103
0.009289
0.009393
0.009432
0.009443
0.009453
0.009464
0.009454
0.009402
0.009305
0.009184
0.009068
0.008988
0.008964
0.008987
0.009015
0.008997
0.008899
0.008705
0.008429
0.008115
0.007829
0.007618
0.007499
0.007458
0.007476
0.007525
0.007582
0.007630
0.007669
0.007702
0.007740
0.007798
0.007888
0.008010
0.008161
0.008331
0.008495
0.008611
0.008662
0.008673
0.008688
0.008725
0.008765
0.008778
0.008742
0.008647
0.008506
0.008341
0.008162
0.007973
0.007799
0.007689
0.007694
0.007833
0.008082
0.008384
0.008682
0.008940
0.009170
0.009402
0.009644
0.009868
0.010040
0.010135
0.010153
0.010122
0.010087
0.010091
0.010146
0.010226
0.010292
0.010324
0.010328
0.010326
0.010334
0.010359
0.010382
0.010373
0.010316
0.010211
0.010062
0.009874
0.009660
0.009418
0.009141
0.008841
0.008555
0.008327
0.008187
0.008153
0.008226
0.008378
0.008579
0.008819
0.009099
0.009393
0.009640
0.009787
0.009822
0.009787
0.009727
0.009658
0.009561
0.009408
0.009196
0.008955
0.008735
0.008565
0.008433
0.008314
0.008202
0.008127
0.008121
0.008188
0.008307
0.008458
0.008637
0.008864
0.009162
0.009554
0.010040
0.010582
0.011109
0.011563
0.011919
0.012170
0.012308
0.012340
0.012280
0.012137
0.011910
0.011607
0.011253
0.010887
0.010535
0.010214
0.009938
0.009710
0.009528
0.009398
0.009327
0.009311
0.009328
0.009361
0.009409
0.009477
0.009569
0.009686
0.009820
0.009956
0.010070
0.010137
0.010156
0.010163
0.010210
0.010320
0.010477
0.010652
0.010811
0.010918
0.010961
0.010961
0.010954
0.010966
0.010995
0.011026
0.011041
0.011046
0.011066
0.011121
0.011206
0.011310
0.011424
0.011541
0.011651
0.011743
0.011806
0.011827
0.011797
0.011718
0.011603
0.011464
0.011292
0.011068
0.010790
0.010481
0.010175
0.009905
0.009679
0.009476
0.009270
0.009066
0.008926
0.008946
0.009189
0.009624
0.010146
0.010638
0.011018
0.011271
0.011437
0.011574
0.011726
0.011895
0.012053
0.012176
0.012266
0.012339
0.012400
0.012439
0.012432
0.012352
0.012180
0.011910
0.011571
0.011212
0.010880
0.010608
0.010419
0.010334
0.010369
0.010525
0.010777
0.011073
0.011357
0.011604
0.011838
0.012093
0.012374
0.012655
0.012895
0.013073
0.013191
0.013249
0.013219
0.013064
0.012776
0.012398
0.011985
0.011579
0.011208
0.010899
0.010677
0.010564
0.010569
0.010674
0.010851
0.011077
0.011351
0.011668
0.012010
0.012355
0.012686
0.012982
0.013216
0.013379
0.013477
0.013517
0.013512
0.013489
0.013478
0.013493
0.013531
0.013582
0.013636
0.013684
0.013714
0.013702
0.013613
0.013413
0.013094
0.012684
0.012237
0.011811
0.011449
0.011174
0.010984
0.010859
0.010779
0.010750
0.010792
0.010929
0.011172
0.011499
0.011863
0.012213
0.012511
0.012739
0.012881
0.012930
0.012883
0.012756
0.012584
0.012402
0.012234
0.012099
0.012005
0.011947
0.011917
0.011905
0.011893
0.011844
0.011728
0.011553
0.011357
0.011175
0.011038
0.010980
0.011030
0.011174
0.011366
0.011574
0.011795
0.012034
0.012293
0.012574
0.012881
0.013215
0.013557
0.013866
0.014087
0.014195
0.014198
0.014127
0.014000
0.013816
0.013580
0.013317
0.013055
0.012807
0.012579
0.012382
0.012228
0.012122
0.012082
0.012129
0.012283
0.012540
0.012854
0.013131
0.013300
0.013380
0.013455
0.013604
0.013916
0.014475
0.015255
0.016102
0.016791
0.016930
0.015944
0.013538
0.010308
0.007696
0.007053
0.008538
0.010974
0.012878
0.013553
0.013295
0.012964
0.013333
0.014289
0.014532
0.012586
0.008559
0.004733
0.003945
0.007214
0.013044
0.018591
0.021084
0.018844
0.012191
0.003640
-0.003298
-0.006048
-0.004202
0.000684
0.006374
0.011304
0.015316
0.019366
0.024185
0.028843
0.030920
0.028638
0.022746
0.015904
0.010769
0.009250
0.012675
0.021129
0.032289
0.041743
0.045135
0.040305
0.028405
0.013857
0.002224
-0.003652
-0.005679
-0.007938
-0.011894
-0.014959
-0.013665
-0.007012
0.002811
0.011400
0.014477
0.011012
0.004442
0.000456
0.003074
0.012176
0.024183
0.034629
0.040516
0.041888
0.041770
0.043186
0.045689
0.045616
0.039375
0.025836
0.006922
-0.012551
-0.026033
-0.028208
-0.018840
-0.003799
0.008765
0.013475
0.010359
0.004941
0.004964
0.014106
0.028286
0.039175
0.041709
0.038489
0.037411
0.044795
0.059886
0.075058
0.081241
0.073898
0.054372
0.027435
-0.000002
-0.020115
-0.029116
-0.030763
-0.031886
-0.035354
-0.039874
-0.044692
-0.049816
-0.051613
-0.043723
-0.024511
0.000587
0.025590
0.048565
0.068454
0.082063
0.087631
0.088868
0.091334
0.095502
0.097793
0.098420
0.101962
0.107790
0.106449
0.089842
0.060854
0.029776
0.004342
-0.013155
-0.019911
-0.009607
0.020723
0.064661
0.111290
0.152179
0.179618
0.183522
0.157670
0.108688
0.054943
0.015536
0.001121
0.014363
0.054137
0.113426
0.174213
0.211946
0.209346
0.164735
0.088502
-0.002971
-0.089594
-0.151244
-0.175819
-0.163370
-0.119528
-0.047409
0.049203
0.156819
0.252742
0.315823
0.334967
0.309459
0.246556
0.162087
0.079840
0.022315
-0.001404
0.002707
0.022788
0.049663
0.077368
0.098780
0.104774
0.089210
0.053787
0.007433
-0.038189
-0.071282
-0.080508
-0.059320
-0.011687
0.049690
0.111133
0.161550
0.190652
0.190232
0.160479
0.113226
0.067158
0.039072
0.036445
0.053148
0.070972
0.070161
0.044262
0.006470
-0.020263
-0.021374
0.000255
0.032004
0.065640
0.103439
0.152463
0.213696
0.276450
0.322607
0.334879
0.302729
0.226845
0.122019
0.012898
-0.076903
-0.132536
-0.147409
-0.121351
-0.063363
0.006920
0.066968
0.104429
0.121866
0.127841
0.125996
0.113058
0.083915
0.039252
-0.008364
-0.037034
-0.027804
0.023234
0.103391
0.192608
0.273980
0.337524
0.379153
0.399014
0.398039
0.374717
0.328189
0.264734
0.197622
0.139236
0.095307
0.068102
0.062942
0.087572
0.144013
0.223366
0.309630
0.387460
0.446640
0.481879
0.492043
0.481535
0.459588
0.434231
0.409286
0.390447
0.388992
0.414324
0.465010
0.526991
0.577350
0.592267
0.557256
0.475282
0.368319
0.268603
0.204705
0.193530
0.238652
0.330819
0.452845
0.586628
0.714627
0.816481
0.869069
0.853869
0.766068
0.617832
0.435246
0.252234
0.101128
0.002247
-0.039004
-0.028911
0.015023
0.067264
0.107567
0.131373
0.143512
0.145505
0.135213
0.117381
0.107136
0.119847
0.159945
0.219496
0.282552
0.329569
0.344998
0.326685
0.284952
0.230115
0.164738
0.088556
0.005724
-0.075134
-0.145892
-0.202425
-0.244607
-0.275648
-0.302208
-0.332085
-0.367991
-0.402593
-0.421639
-0.414960
-0.385711
-0.348554
-0.319532
-0.307830
-0.314235
-0.334692
-0.366365
-0.412183
-0.478568
-0.566619
-0.665951
-0.759132
-0.831255
-0.874391
-0.888240
-0.881684
-0.870520
-0.868937
-0.882540
-0.908656
-0.941079
-0.974194
-1.004905
-1.033190
-1.061306
-1.090651
-1.117886
-1.135931
-1.140036
-1.130305
-1.109189
-1.081131
-1.053767
-1.035166
-1.029210
-1.033793
-1.041843
-1.045032
-1.041098
-1.039317
-1.055187
-1.095610
-1.148989
-1.192361
-1.209045
-1.198885
-1.175210
-1.156514
-1.158138
-1.184907
-1.228445
-1.272154
-1.300189
-1.303088
-1.277020
-1.219403
-1.125260
-0.988128
-0.806545
-0.591002
-0.363542
-0.149008
0.033306
0.170970
0.257870
0.297074
0.301766
0.290266
0.280464
0.286698
0.315297
0.358642
0.395344
0.401404
0.364775
0.289712
0.188145
0.070815
-0.052798
-0.172872
-0.281374
-0.371943
-0.438156
-0.477546
-0.496476
-0.506217
-0.514861
-0.525230
-0.538425
-0.556106
-0.577836
-0.597868
-0.609234
-0.612189
-0.615107
-0.627902
-0.658583
-0.714183
-0.799714
-0.914450
-1.048761
-1.184961
-1.304718
-1.397551
-1.461234
-1.496119
-1.501702
-1.476856
-1.421012
-1.333867
-1.212789
-1.053116
-0.855025
-0.630117
-0.400533
-0.191586
-0.022041
0.103047
0.192446
0.261900
0.325384
0.389822
0.454608
0.513786
0.559564
0.585926
0.588471
0.560054
0.488562
0.361659
0.175870
-0.058428
-0.322924
-0.602257
-0.886696
-1.166706
-1.430431
-1.666545
-1.867022
-2.027905
-2.149374
-2.235447
-2.293304
-2.332990
-2.367082
-2.407438
-2.459016
-2.516393
-2.566232
-2.591780
-2.575194
-2.500594
-2.362062
-2.171568
-1.956625
-1.747427
-1.565213
-1.421015
-1.321016
-1.268202
-1.257398
-1.272052
-1.289508
-1.290167
-1.262582
-1.202565
-1.109113
-0.981291
-0.819329
-0.628201
-0.418185
-0.201082
0.014055
0.222363
0.421177
0.606643
0.771582
0.904307
0.988236
1.006123
0.948933
0.820478
0.633112
0.401327
0.140114
-0.132992
-0.397275
-0.632681
-0.824925
-0.965798
-1.050290
-1.077742
-1.056256
-1.002552
-0.934762
-0.862592
-0.781763
-0.678012
-0.537167
-0.351925
-0.122079
0.148577
0.456569
0.801801
1.185631
1.605213
2.049770
2.501785
2.941498
3.351917
3.722154
4.047091
4.323692
4.548306
4.717521
4.829666
4.886036
4.894157
4.868804
4.824148
4.763375
4.677932
4.556021
4.391938
4.191502
3.970098
3.742492
3.512777
3.273799
3.014782
2.730359
2.426089
2.116941
1.819937
1.547959
1.308785
1.106844
0.944329
0.821407
0.737866
0.697280
0.708749
0.780363
0.909306
1.080541
1.276137
1.485204
1.705759
1.939215
2.183901
2.432603
2.673483
2.891900
3.073124
3.204794
3.275439
3.269947
3.169235
2.960026
2.650271
2.275340
1.884620
1.518090
1.194895
0.922499
0.710251
0.568279
0.495447
0.475792
0.490113
0.529095
0.594181
0.689051
0.814898
0.974584
1.176915
1.432235
1.741701
2.089002
2.440180
2.751329
2.980863
3.101486
3.105191
2.998531
2.793632
2.503044
2.141349
1.729457
1.294654
0.864711
0.461222
0.097046
-0.221265
-0.488197
-0.695606
-0.833134
-0.890161
-0.857679
-0.731629
-0.515975
-0.221676
0.137312
0.546090
0.986565
1.434159
1.858717
2.228928
2.514394
2.685134
2.714496
2.586061
2.298099
1.861245
1.291976
0.608999
-0.164248
-0.996879
-1.852994
-2.695573
-3.488117
-4.196132
-4.789154
-5.241424
-5.532418
-5.648964
-5.587085
-5.350797
-4.948333
-4.390252
-3.691890
-2.876575
-1.976148
-1.028769
-0.074760
0.846675
1.696474
2.432909
3.013425
3.402032
3.576780
3.532931
3.281396
2.844177
2.249402
1.528089
0.713125
-0.160999
-1.058726
-1.944126
-2.783106
-3.547301
-4.215057
-4.767820
-5.187854
-5.461441
-5.584610
-5.566245
-5.425466
-5.184432
-4.862694
-4.478580
-4.054624
-3.618247
-3.196182
-2.810536
-2.480345
-2.223065
-2.052432
-1.977061
-2.002279
-2.130657
-2.358644
-2.672747
-3.049148
-3.457733
-3.868426
-4.256946
-4.608468
-4.916297
-5.174064
-5.368999
-5.484901
-5.510552
-5.442603
-5.281483
-5.028112
-4.685657
-4.263195
-3.776797
-3.246354
-2.690980
-2.128362
-1.578314
-1.063971
-0.606725
-0.219982
0.091514
0.327350
0.487591
0.571778
0.579650
0.512561
0.374067
0.168577
-0.099389
-0.422822
-0.788825
-1.176832
-1.558689
-1.901441
-2.173138
-2.349039
-2.416246
-2.376354
-2.244085
-2.040766
-1.786711
-1.497872
-1.187197
-0.867335
-0.552523
-0.259807
-0.009633
0.175782
0.278212
0.291409
0.224495
0.096563
-0.072539
-0.266393
-0.469551
-0.665312
-0.838800
-0.982330
-1.097158
-1.189641
-1.265233
-1.325684
-1.370031
-1.396136
-1.402798
-1.392681
-1.371859
-1.344414
-1.307678
-1.253034
-1.170036
-1.049177
-0.882722
-0.665666
-0.397270
-0.081486
0.275210
0.665946
1.080921
1.502617
1.906470
2.267559
2.566912
2.794375
2.949252
3.038882
3.074697
3.067891
3.027611
2.961821
2.878628
2.786764
2.695847
2.616057
2.555451
2.516458
2.495771
2.487943
2.489465
2.501098
2.527574
2.575493
2.651217
2.758156
2.892974
3.044650
3.199060
3.345419
3.478899
3.597157
3.694770
3.763084
3.796392
3.796580
3.771187
3.728352
3.672880
3.603522
3.511817
3.384460
3.208554
2.976625
2.688400
2.348055
1.960365
1.531808
1.075486
0.612277
0.166989
-0.235146
-0.570685
-0.821508
-0.977808
-1.037255
-1.001733
-0.875063
-0.663604
-0.378524
-0.036521
0.341686
0.732724
1.111685
1.455471
1.748015
1.983087
2.161777
2.287068
2.361075
2.387875
2.378307
2.350433
2.323950
2.312481
2.319512
2.340736
2.369880
2.402523
2.435761
2.466800
2.493230
2.513630
2.527910
2.538974
2.553810
2.580128
2.620316
2.669033
2.716352
2.752101
2.767371
2.753880
2.704707
2.617234
2.493962
2.338400
2.151097
1.931684
1.684118
1.417957
1.144771
0.874388
0.613486
0.366529
0.138492
-0.063660
-0.233184
-0.366907
-0.466543
-0.537946
-0.589187
-0.627864
-0.658882
-0.684990
-0.710539
-0.744302
-0.797136
-0.877035
-0.987080
-1.127086
-1.296116
-1.493632
-1.718321
-1.965178
-2.223582
-2.478489
-2.713450
-2.913370
-3.066673
-3.166572
-3.210862
-3.200938
-3.140792
-3.036301
-2.895304
-2.727629
-2.543117
-2.348815
-2.148840
-1.946899
-1.747612
-1.555101
-1.371935
-1.201043
-1.048596
-0.923938
-0.836093
-0.790440
-0.788365
-0.828715
-0.908688
-1.024349
-1.171483
-1.345546
-1.539290
-1.739359
-1.925732
-2.076355
-2.174014
-2.210102
-2.183964
-2.100995
-1.972218
-1.814583
-1.649233
-1.496428
-1.369742
-1.274570
-1.212160
-1.184242
-1.193356
-1.239433
-1.316984
-1.417019
-1.533172
-1.665934
-1.820416
-2.000480
-2.204623
-2.425169
-2.650190
-2.867382
-3.067142
-3.242816
-3.389127
-3.499369
-3.562742
-3.566267
-3.501664
-3.370917
-3.186107
-2.965179
-2.727565
-2.491767
-2.273842
-2.085709
-1.934453
-1.822844
-1.749455
-1.708742
-1.692233
-1.690292
-1.694146
-1.697946
-1.699143
-1.696899
-1.690446
-1.677961
-1.656007
-1.620901
-1.571265
-1.508452
-1.434341
-1.349243
-1.251657
-1.139532
-1.011805
-0.869497
-0.716034
-0.556163
-0.394334
-0.234809
-0.083483
0.051433
0.161360
0.239861
0.283331
0.290250
0.260783
0.197383
0.105829
-0.003887
-0.117688
-0.219769
-0.296442
-0.339002
-0.344733
-0.315724
-0.255096
-0.163127
-0.036974
0.125994
0.324684
0.553334
0.803420
1.066702
1.336590
1.606792
1.869985
2.118706
2.346351
2.546146
2.710544
2.833678
2.914053
2.953553
2.954245
2.917503
2.846233
2.746494
2.625958
2.491470
2.348065
2.198366
2.041663
1.874443
1.693199
1.498492
1.297799
1.104252
0.932016
0.792516
0.693110
0.636910
0.623281
0.648788
0.707854
0.793377
0.897376
1.010732
1.122453
1.220253
1.292769
1.331821
1.333230
1.296205
1.222151
1.113518
0.973209
0.805006
0.614702
0.410975
0.205586
0.012636
-0.153488
-0.280283
-0.357768
-0.378569
-0.339195
-0.241321
-0.090806
0.105290
0.341382
0.613881
0.919862
1.255759
1.617009
1.997545
2.388609
2.778558
3.154850
3.506356
3.824225
4.102521
4.339356
4.536211
4.694892
4.815807
4.900143
4.953043
4.983388
5.000443
5.011498
5.022286
5.037792
5.061308
5.093122
5.130791
5.170094
5.205626
5.231933
5.245009
5.242611
5.223014
5.183224
5.118688
5.025877
4.905671
4.764048
4.609523
4.449657
4.288735
4.127052
3.961271
3.785372
3.591971
3.374148
3.127824
2.853829
2.558353
2.251354
1.944057
1.647407
1.372188
1.129380
0.929451
0.780847
0.687766
0.647580
0.650186
0.680971
0.725546
0.772591
0.813398
0.840011
0.844504
0.819734
0.760020
0.661079
0.519988
0.335231
0.106139
-0.167212
-0.482557
-0.834180
-1.213392
-1.609343
-2.009052
-2.397593
-2.759314
-3.080075
-3.349627
-3.562593
-3.717649
-3.816017
-3.860059
-3.852842
-3.799246
-3.706896
-3.585027
-3.442561
-3.287547
-3.127980
-2.972464
-2.829434
-2.705463
-2.604608
-2.529012
-2.479223
-2.453996
-2.450905
-2.467526
-2.501589
-2.549964
-2.607710
-2.668002
-2.723316
-2.766950
-2.792748
-2.793945
-2.764514
-2.701945
-2.607357
-2.483491
