EVENT_NAME: CENTRAL_ITALY
EVENT_ID: EMSC-20161026_0000077
EVENT_DATE_YYYYMMDD: 20161026
EVENT_TIME_HHMMSS: 171036
EVENT_LATITUDE_DEGREE: 42.8802
EVENT_LONGITUDE_DEGREE: 13.1275
EVENT_DEPTH_KM: 8.7
HYPOCENTER_REFERENCE: INGV-CNT_Seismic_Bulletin
MAGNITUDE_W: 5.4
MAGNITUDE_W_REFERENCE: INGV-webservice
MAGNITUDE_L: 5.4
MAGNITUDE_L_REFERENCE: INGV-CNT_Seismic_Bulletin
FOCAL_MECHANISM: NF
NETWORK: IT
STATION_CODE: NRC
STATION_NAME: NORCIA
STATION_LATITUDE_DEGREE: 42.792543
STATION_LONGITUDE_DEGREE: 13.096475
STATION_ELEVATION_M: 616
LOCATION: 
SENSOR_DEPTH_M: 0.0
VS30_M/S: 687
SITE_CLASSIFICATION_EC8: B
MORPHOLOGIC_CLASSIFICATION: SL
EPICENTRAL_DISTANCE_KM: 10.1
EARTHQUAKE_BACKAZIMUTH_DEGREE: 14.6
DATE_TIME_FIRST_SAMPLE_YYYYMMDD_HHMMSS: 20161026_171032.909
DATE_TIME_FIRST_SAMPLE_PRECISION: milliseconds
SAMPLING_INTERVAL_S: 0.005000
NDATA: 10588
DURATION_S: 52.940
STREAM: HGZ
UNITS: cm
INSTRUMENT: sensor = Unknown [Unknown] | digitizer = Unknown [Unknown]
INSTRUMENT_ANALOG/DIGITAL: D
INSTRUMENTAL_FREQUENCY_HZ: 
INSTRUMENTAL_DAMPING: 
FULL_SCALE_G: 
N_BIT_DIGITAL_CONVERTER: 
PGD_CM: 0.762540
TIME_PGD_S: 8.965000
BASELINE_CORRECTION: BASELINE REMOVED
FILTER_TYPE: BUTTERWORTH
FILTER_ORDER: 2
LOW_CUT_FREQUENCY_HZ: 0.070
HIGH_CUT_FREQUENCY_HZ: 30.000
LATE/NORMAL_TRIGGERED: NT
DATABASE_VERSION: DYNA 1.0
HEADER_FORMAT: DYNA 1.2
DATA_TYPE: DISPLACEMENT
PROCESSING: manual (Paolucci et al., 2011)
DATA_TIMESTAMP_YYYYMMDD_HHMMSS: 20161027_111110.997
DATA_LICENSE: CC-BY3_0-IT (http://creativecommons.org/licenses/by/3.0/deed.en)
DATA_CITATION: ESM working group (2015), European Strong-Motion database, version 0.1, Network Activity 3: Networking acceleration networks and SM data users. Project NERA (www.nera-eu.org)
DATA_CREATOR: ESM working group
ORIGINAL_DATA_MEDIATOR_CITATION: Ufficio Rischio Sismico e Vulcanico del Dipartimento della Protezione Civile (http://www.protezionecivile.gov.it/)
ORIGINAL_DATA_MEDIATOR: Rete Accelerometrica Nazionale - RAN Download (http://www.mot1.it/randownload/)
ORIGINAL_DATA_CREATOR_CITATION: Italian Strong Motion Network, Italian Civil Protection Department http://www.protezionecivile.gov.it
ORIGINAL_DATA_CREATOR: network: IT (Italian Strong Motion Network); owner: Dipartimento Della Protezione Civile
USER1: /home/dyna/processing-itaca/processing.py /var/www/processing//tmp/felicetta//IT.NRC..HGE.D.20161026.171036.X.ACC.ASC /var/www/processing//tmp/felicetta//IT.NRC..HGN.D.20161026.171036.X.ACC.ASC /var/www/processing//tmp/felicetta//IT.NRC..HGZ.D.20161026.171036.X.ACC.ASC --tmp /var/www/processing//tmp/felicetta/ --le 0.07 --he 30.000 --ln 0.07 --hn 30.000 --lz 0.07 --hz 30.000 --fo 2 --ca 0 --cz 70 --ta 5 --tz 5 --mf 1 --rf 0 --tr NT
USER2: 
USER3: 
USER4: 
USER5: 
[...]
-2.850814e-02
-2.857072e-02
-2.863344e-02
-2.869618e-02
-2.875883e-02
-2.882128e-02
-2.888353e-02
-2.894564e-02
-2.900770e-02
-2.906982e-02
-2.913217e-02
-2.919487e-02
-2.925795e-02
-2.932136e-02
-2.938493e-02
-2.944851e-02
-2.951201e-02
-2.957538e-02
-2.963861e-02
-2.970171e-02
-2.976476e-02
-2.982791e-02
-2.989128e-02
-2.995494e-02
-3.001880e-02
-3.008269e-02
-3.014646e-02
-3.021015e-02
-3.027387e-02
-3.033776e-02
-3.040184e-02
-3.046603e-02
-3.053029e-02
-3.059464e-02
-3.065907e-02
-3.072357e-02
-3.078805e-02
-3.085245e-02
-3.091673e-02
-3.098093e-02
-3.104515e-02
-3.110948e-02
-3.117400e-02
-3.123874e-02
-3.130365e-02
-3.136866e-02
-3.143374e-02
-3.149892e-02
-3.156420e-02
-3.162955e-02
-3.169491e-02
-3.176025e-02
-3.182558e-02
-3.189091e-02
-3.195624e-02
-3.202158e-02
-3.208692e-02
-3.215221e-02
-3.221746e-02
-3.228274e-02
-3.234814e-02
-3.241373e-02
-3.247950e-02
-3.254547e-02
-3.261165e-02
-3.267798e-02
-3.274430e-02
-3.281045e-02
-3.287639e-02
-3.294221e-02
-3.300805e-02
-3.307397e-02
-3.314004e-02
-3.320634e-02
-3.327289e-02
-3.333965e-02
-3.340653e-02
-3.347344e-02
-3.354036e-02
-3.360725e-02
-3.367405e-02
-3.374068e-02
-3.380717e-02
-3.387354e-02
-3.393986e-02
-3.400617e-02
-3.407258e-02
-3.413918e-02
-3.420604e-02
-3.427317e-02
-3.434052e-02
-3.440805e-02
-3.447565e-02
-3.454323e-02
-3.461073e-02
-3.467811e-02
-3.474538e-02
-3.481256e-02
-3.487963e-02
-3.494667e-02
-3.501378e-02
-3.508105e-02
-3.514850e-02
-3.521609e-02
-3.528379e-02
-3.535161e-02
-3.541954e-02
-3.548753e-02
-3.555544e-02
-3.562319e-02
-3.569081e-02
-3.575842e-02
-3.582610e-02
-3.589387e-02
-3.596165e-02
-3.602941e-02
-3.609711e-02
-3.616473e-02
-3.623230e-02
-3.629992e-02
-3.636771e-02
-3.643573e-02
-3.650403e-02
-3.657261e-02
-3.664144e-02
-3.671039e-02
-3.677924e-02
-3.684788e-02
-3.691630e-02
-3.698459e-02
-3.705282e-02
-3.712105e-02
-3.718928e-02
-3.725752e-02
-3.732585e-02
-3.739436e-02
-3.746316e-02
-3.753227e-02
-3.760162e-02
-3.767107e-02
-3.774052e-02
-3.780992e-02
-3.787927e-02
-3.794853e-02
-3.801768e-02
-3.808673e-02
-3.815578e-02
-3.822491e-02
-3.829418e-02
-3.836362e-02
-3.843321e-02
-3.850283e-02
-3.857228e-02
-3.864144e-02
-3.871034e-02
-3.877915e-02
-3.884802e-02
-3.891709e-02
-3.898647e-02
-3.905626e-02
-3.912646e-02
-3.919694e-02
-3.926750e-02
-3.933795e-02
-3.940812e-02
-3.947792e-02
-3.954726e-02
-3.961625e-02
-3.968516e-02
-3.975427e-02
-3.982371e-02
-3.989347e-02
-3.996346e-02
-4.003363e-02
-4.010402e-02
-4.017461e-02
-4.024538e-02
-4.031622e-02
-4.038700e-02
-4.045762e-02
-4.052802e-02
-4.059816e-02
-4.066800e-02
-4.073758e-02
-4.080698e-02
-4.087634e-02
-4.094578e-02
-4.101548e-02
-4.108559e-02
-4.115622e-02
-4.122740e-02
-4.129905e-02
-4.137109e-02
-4.144336e-02
-4.151561e-02
-4.158744e-02
-4.165840e-02
-4.172823e-02
-4.179709e-02
-4.186557e-02
-4.193452e-02
-4.200469e-02
-4.207637e-02
-4.214940e-02
-4.222313e-02
-4.229669e-02
-4.236919e-02
-4.244007e-02
-4.250929e-02
-4.257728e-02
-4.264470e-02
-4.271237e-02
-4.278124e-02
-4.285209e-02
-4.292508e-02
-4.299954e-02
-4.307439e-02
-4.314870e-02
-4.322199e-02
-4.329406e-02
-4.336484e-02
-4.343447e-02
-4.350337e-02
-4.357221e-02
-4.364149e-02
-4.371149e-02
-4.378221e-02
-4.385356e-02
-4.392538e-02
-4.399751e-02
-4.406976e-02
-4.414197e-02
-4.421396e-02
-4.428556e-02
-4.435665e-02
-4.442732e-02
-4.449780e-02
-4.456838e-02
-4.463927e-02
-4.471053e-02
-4.478210e-02
-4.485383e-02
-4.492555e-02
-4.499716e-02
-4.506865e-02
-4.514005e-02
-4.521143e-02
-4.528280e-02
-4.535411e-02
-4.542539e-02
-4.549672e-02
-4.556830e-02
-4.564026e-02
-4.571260e-02
-4.578519e-02
-4.585782e-02
-4.593027e-02
-4.600243e-02
-4.607422e-02
-4.614570e-02
-4.621699e-02
-4.628822e-02
-4.635947e-02
-4.643071e-02
-4.650187e-02
-4.657298e-02
-4.664414e-02
-4.671553e-02
-4.678724e-02
-4.685927e-02
-4.693162e-02
-4.700436e-02
-4.707750e-02
-4.715086e-02
-4.722401e-02
-4.729648e-02
-4.736799e-02
-4.743862e-02
-4.750886e-02
-4.757939e-02
-4.765088e-02
-4.772369e-02
-4.779775e-02
-4.787244e-02
-4.794676e-02
-4.801972e-02
-4.809081e-02
-4.816029e-02
-4.822898e-02
-4.829783e-02
-4.836767e-02
-4.843913e-02
-4.851254e-02
-4.858764e-02
-4.866354e-02
-4.873908e-02
-4.881333e-02
-4.888586e-02
-4.895671e-02
-4.902633e-02
-4.909551e-02
-4.916505e-02
-4.923554e-02
-4.930707e-02
-4.937942e-02
-4.945220e-02
-4.952511e-02
-4.959790e-02
-4.967043e-02
-4.974264e-02
-4.981458e-02
-4.988637e-02
-4.995810e-02
-5.002978e-02
-5.010135e-02
-5.017276e-02
-5.024400e-02
-5.031504e-02
-5.038587e-02
-5.045658e-02
-5.052729e-02
-5.059818e-02
-5.066939e-02
-5.074097e-02
-5.081286e-02
-5.088492e-02
-5.095698e-02
-5.102888e-02
-5.110053e-02
-5.117192e-02
-5.124308e-02
-5.131409e-02
-5.138507e-02
-5.145608e-02
-5.152718e-02
-5.159838e-02
-5.166964e-02
-5.174090e-02
-5.181212e-02
-5.188330e-02
-5.195449e-02
-5.202570e-02
-5.209692e-02
-5.216805e-02
-5.223900e-02
-5.230974e-02
-5.238036e-02
-5.245099e-02
-5.252176e-02
-5.259273e-02
-5.266384e-02
-5.273500e-02
-5.280609e-02
-5.287703e-02
-5.294775e-02
-5.301821e-02
-5.308848e-02
-5.315861e-02
-5.322866e-02
-5.329866e-02
-5.336864e-02
-5.343869e-02
-5.350889e-02
-5.357922e-02
-5.364963e-02
-5.372004e-02
-5.379036e-02
-5.386050e-02
-5.393032e-02
-5.399971e-02
-5.406853e-02
-5.413653e-02
-5.420300e-02
-5.426624e-02
-5.432297e-02
-5.436799e-02
-5.439480e-02
-5.439709e-02
-5.437045e-02
-5.431359e-02
-5.422835e-02
-5.411863e-02
-5.398929e-02
-5.384597e-02
-5.369667e-02
-5.355366e-02
-5.343371e-02
-5.335502e-02
-5.333219e-02
-5.337184e-02
-5.347108e-02
-5.361936e-02
-5.380264e-02
-5.400758e-02
-5.422354e-02
-5.444164e-02
-5.465268e-02
-5.484660e-02
-5.501462e-02
-5.515260e-02
-5.526331e-02
-5.535583e-02
-5.544249e-02
-5.553500e-02
-5.564163e-02
-5.576596e-02
-5.590719e-02
-5.606091e-02
-5.621988e-02
-5.637459e-02
-5.651437e-02
-5.662956e-02
-5.671424e-02
-5.676799e-02
-5.679528e-02
-5.680325e-02
-5.679963e-02
-5.679169e-02
-5.678596e-02
-5.678767e-02
-5.679899e-02
-5.681645e-02
-5.682878e-02
-5.681742e-02
-5.675951e-02
-5.663201e-02
-5.641513e-02
-5.609465e-02
-5.566281e-02
-5.511785e-02
-5.446368e-02
-5.371079e-02
-5.287761e-02
-5.199104e-02
-5.108476e-02
-5.019466e-02
-4.935148e-02
-4.857361e-02
-4.786412e-02
-4.721442e-02
-4.661277e-02
-4.605340e-02
-4.554244e-02
-4.509872e-02
-4.474892e-02
-4.451861e-02
-4.442306e-02
-4.446278e-02
-4.462637e-02
-4.489874e-02
-4.526999e-02
-4.574012e-02
-4.631659e-02
-4.700513e-02
-4.779823e-02
-4.866766e-02
-4.956636e-02
-5.043973e-02
-5.124083e-02
-5.194063e-02
-5.252801e-02
-5.300099e-02
-5.335599e-02
-5.358206e-02
-5.366283e-02
-5.358522e-02
-5.335061e-02
-5.298276e-02
-5.252629e-02
-5.203398e-02
-5.154887e-02
-5.109100e-02
-5.065445e-02
-5.021282e-02
-4.972805e-02
-4.915918e-02
-4.846825e-02
-4.762053e-02
-4.657897e-02
-4.529634e-02
-4.371104e-02
-4.175128e-02
-3.934950e-02
-3.646256e-02
-3.308862e-02
-2.927204e-02
-2.509533e-02
-2.066203e-02
-1.607436e-02
-1.140925e-02
-6.699447e-03
-1.927800e-03
2.963522e-03
8.054578e-03
1.342875e-02
1.916067e-02
2.531385e-02
3.194391e-02
3.909754e-02
4.679826e-02
5.501871e-02
6.365105e-02
7.249480e-02
8.128101e-02
8.973430e-02
9.764714e-02
1.049263e-01
1.115872e-01
1.177075e-01
1.233760e-01
1.286709e-01
1.336749e-01
1.385105e-01
1.433573e-01
1.484152e-01
1.538112e-01
1.595019e-01
1.652424e-01
1.706499e-01
1.753206e-01
1.789346e-01
1.813075e-01
1.823959e-01
1.822799e-01
1.811483e-01
1.792923e-01
1.770916e-01
1.749583e-01
1.732441e-01
1.721545e-01
1.717293e-01
1.718921e-01
1.725263e-01
1.735231e-01
1.747725e-01
1.761101e-01
1.772639e-01
1.778605e-01
1.775146e-01
1.759691e-01
1.732090e-01
1.694795e-01
1.651930e-01
1.607743e-01
1.565206e-01
1.525371e-01
1.487606e-01
1.450443e-01
1.412536e-01
1.373241e-01
1.332689e-01
1.291547e-01
1.250771e-01
1.211508e-01
1.175088e-01
1.143025e-01
1.116919e-01
1.098244e-01
1.087995e-01
1.086305e-01
1.092251e-01
1.103988e-01
1.119119e-01
1.135097e-01
1.149558e-01
1.160557e-01
1.166730e-01
1.167439e-01
1.163033e-01
1.155029e-01
1.145814e-01
1.137739e-01
1.132167e-01
1.129097e-01
1.127505e-01
1.126054e-01
1.123653e-01
1.119527e-01
1.112842e-01
1.102425e-01
1.087086e-01
1.066411e-01
1.041324e-01
1.014001e-01
9.872148e-02
9.634838e-02
9.443508e-02
9.300862e-02
9.199455e-02
9.127360e-02
9.073022e-02
9.027759e-02
8.986183e-02
8.944973e-02
8.901517e-02
8.854837e-02
8.808069e-02
8.768276e-02
8.741720e-02
8.728148e-02
8.718442e-02
8.696396e-02
8.643382e-02
8.545137e-02
8.398866e-02
8.216659e-02
8.022134e-02
7.841639e-02
7.694649e-02
7.587391e-02
7.511474e-02
7.447374e-02
7.370435e-02
7.255758e-02
7.080367e-02
6.824301e-02
6.472798e-02
6.020161e-02
5.474420e-02
4.860810e-02
4.221194e-02
3.607103e-02
3.067569e-02
2.636830e-02
2.327061e-02
2.127831e-02
2.011001e-02
1.938846e-02
1.873266e-02
1.783753e-02
1.651716e-02
1.470190e-02
1.240671e-02
9.704477e-03
6.724515e-03
3.664400e-03
7.882453e-04
-1.599130e-03
-3.194191e-03
-3.745304e-03
-3.107271e-03
-1.286263e-03
1.545670e-03
5.076744e-03
8.911316e-03
1.263485e-02
1.587624e-02
1.836887e-02
2.000867e-02
2.088400e-02
2.124449e-02
2.141691e-02
2.172553e-02
2.246031e-02
2.387446e-02
2.616753e-02
2.944413e-02
3.367109e-02
3.865843e-02
4.407994e-02
4.953431e-02
5.462436e-02
5.902371e-02
6.251818e-02
6.503519e-02
6.667654e-02
6.773788e-02
6.867348e-02
6.999140e-02
7.211550e-02
7.526913e-02
7.942465e-02
8.434961e-02
8.974274e-02
9.537921e-02
1.011531e-01
1.069876e-01
1.127098e-01
1.180103e-01
1.225129e-01
1.258980e-01
1.280186e-01
1.289599e-01
1.289996e-01
1.284778e-01
1.276612e-01
1.266836e-01
1.255763e-01
1.243311e-01
1.229507e-01
1.214736e-01
1.199760e-01
1.185427e-01
1.172102e-01
1.159249e-01
1.145625e-01
1.130116e-01
1.112647e-01
1.094463e-01
1.077633e-01
1.064232e-01
1.055720e-01
1.052705e-01
1.054942e-01
1.061486e-01
1.070974e-01
1.081988e-01
1.093272e-01
1.103654e-01
1.111904e-01
1.116847e-01
1.117785e-01
1.114840e-01
1.108922e-01
1.101316e-01
1.093146e-01
1.084977e-01
1.076704e-01
1.067753e-01
1.057444e-01
1.045301e-01
1.031098e-01
1.014524e-01
9.946835e-02
9.698899e-02
9.381165e-02
8.979689e-02
8.496140e-02
7.950787e-02
7.376729e-02
6.807935e-02
6.267875e-02
5.765184e-02
5.297196e-02
4.857309e-02
4.442068e-02
4.055494e-02
3.708799e-02
3.415233e-02
3.183577e-02
3.015474e-02
2.908361e-02
2.860578e-02
2.873980e-02
2.952537e-02
3.098412e-02
3.307872e-02
3.568929e-02
3.861663e-02
4.161563e-02
4.445855e-02
4.700411e-02
4.922268e-02
5.115472e-02
5.284541e-02
5.431983e-02
5.561482e-02
5.682486e-02
5.811146e-02
5.966182e-02
6.161349e-02
6.397363e-02
6.657381e-02
6.910239e-02
7.121307e-02
7.264746e-02
7.329888e-02
7.319619e-02
7.243743e-02
7.112121e-02
6.931624e-02
6.708348e-02
6.452856e-02
6.184063e-02
5.928434e-02
5.714048e-02
5.561845e-02
5.478611e-02
5.456215e-02
5.477326e-02
5.523352e-02
5.580308e-02
5.641110e-02
5.704074e-02
5.768010e-02
5.826226e-02
5.863528e-02
5.858841e-02
5.791708e-02
5.648121e-02
5.423485e-02
5.124342e-02
4.769974e-02
4.391560e-02
4.026635e-02
3.710780e-02
3.471434e-02
3.326668e-02
3.287176e-02
3.358105e-02
3.539244e-02
3.823823e-02
4.197226e-02
4.637707e-02
5.119437e-02
5.615357e-02
6.098293e-02
6.542066e-02
6.925198e-02
7.237539e-02
7.486713e-02
7.698772e-02
7.909588e-02
8.150578e-02
8.437476e-02
8.768470e-02
9.131495e-02
9.515597e-02
9.919773e-02
1.035461e-01
1.083716e-01
1.138402e-01
1.200666e-01
1.270996e-01
1.349401e-01
1.435978e-01
1.531555e-01
1.637749e-01
1.756199e-01
1.887552e-01
2.030825e-01
2.183276e-01
2.340693e-01
2.498157e-01
2.651144e-01
2.796492e-01
2.932687e-01
3.059343e-01
3.176423e-01
3.283826e-01
3.381584e-01
3.470428e-01
3.552304e-01
3.630458e-01
3.708913e-01
3.791502e-01
3.880775e-01
3.977254e-01
4.079365e-01
4.184059e-01
4.287731e-01
4.386914e-01
4.478562e-01
4.560081e-01
4.629424e-01
4.685457e-01
4.728599e-01
4.761345e-01
4.788061e-01
4.813865e-01
4.843181e-01
4.878745e-01
4.921401e-01
4.970598e-01
5.025400e-01
5.085638e-01
5.152608e-01
5.228860e-01
5.317210e-01
5.419578e-01
5.536216e-01
5.665651e-01
5.805174e-01
5.951361e-01
6.100354e-01
6.248161e-01
6.391222e-01
6.527052e-01
6.654512e-01
6.773648e-01
6.885339e-01
6.990897e-01
7.091552e-01
7.187904e-01
7.279615e-01
7.365455e-01
7.443530e-01
7.511479e-01
7.566566e-01
7.605699e-01
7.625397e-01
7.621729e-01
7.590434e-01
7.527450e-01
7.429888e-01
7.297077e-01
7.131154e-01
6.936834e-01
6.720385e-01
6.488192e-01
6.245391e-01
5.995000e-01
5.737702e-01
5.472219e-01
5.196122e-01
4.906936e-01
4.603201e-01
4.284981e-01
3.953650e-01
3.611432e-01
3.261217e-01
2.906629e-01
2.551907e-01
2.201397e-01
1.858924e-01
1.527336e-01
1.208152e-01
9.011567e-02
6.040308e-02
3.124745e-02
2.119482e-03
-2.743501e-02
-5.761511e-02
-8.826019e-02
-1.188552e-01
-1.486286e-01
-1.767090e-01
-2.023116e-01
-2.249169e-01
-2.443794e-01
-2.609105e-01
-2.749301e-01
-2.868714e-01
-2.970446e-01
-3.056142e-01
-3.126651e-01
-3.183003e-01
-3.227201e-01
-3.262548e-01
-3.293366e-01
-3.324053e-01
-3.357631e-01
-3.394273e-01
-3.430520e-01
-3.459754e-01
-3.473890e-01
-3.465567e-01
-3.430040e-01
-3.366310e-01
-3.277217e-01
-3.168347e-01
-3.046031e-01
-2.915396e-01
-2.779513e-01
-2.639889e-01
-2.497637e-01
-2.354634e-01
-2.214289e-01
-2.081686e-01
-1.962838e-01
-1.863272e-01
-1.786471e-01
-1.732820e-01
-1.699448e-01
-1.681052e-01
-1.671426e-01
-1.665074e-01
-1.658261e-01
-1.649121e-01
-1.636909e-01
-1.620963e-01
-1.600004e-01
-1.572114e-01
-1.535315e-01
-1.488451e-01
-1.431922e-01
-1.367884e-01
-1.299839e-01
-1.231827e-01
-1.167634e-01
-1.110322e-01
-1.062114e-01
-1.024463e-01
-9.981323e-02
-9.832039e-02
-9.791732e-02
-9.852796e-02
-1.000992e-01
-1.026358e-01
-1.062048e-01
-1.109178e-01
-1.169128e-01
-1.243422e-01
-1.333593e-01
-1.440950e-01
-1.566271e-01
-1.709545e-01
-1.869734e-01
-2.044507e-01
-2.230049e-01
-2.421297e-01
-2.612732e-01
-2.799570e-01
-2.978871e-01
-3.150113e-01
-3.315071e-01
-3.477110e-01
-3.640131e-01
-3.807440e-01
-3.980823e-01
-4.160048e-01
-4.343018e-01
-4.526493e-01
-4.707025e-01
-4.881686e-01
-5.048350e-01
-5.205451e-01
-5.351368e-01
-5.483816e-01
-5.599706e-01
-5.695579e-01
-5.768385e-01
-5.816228e-01
-5.838800e-01
-5.837334e-01
-5.814140e-01
-5.771973e-01
-5.713541e-01
-5.641248e-01
-5.557036e-01
-5.462186e-01
-5.357079e-01
-5.241131e-01
-5.113110e-01
-4.971786e-01
-4.816661e-01
-4.648414e-01
-4.468878e-01
-4.280576e-01
-4.086029e-01
-3.887145e-01
-3.685034e-01
-3.480343e-01
-3.273879e-01
-3.067076e-01
-2.861998e-01
-2.660890e-01
-2.465558e-01
-2.276904e-01
-2.094787e-01
-1.918214e-01
-1.745740e-01
-1.575875e-01
-1.407370e-01
-1.239317e-01
-1.071145e-01
-9.025023e-02
-7.330807e-02
-5.625564e-02
-3.907787e-02
-2.180975e-02
-4.553535e-03
1.253421e-02
2.927077e-02
4.546916e-02
6.095204e-02
7.556842e-02
8.921162e-02
1.018253e-01
1.133980e-01
1.239622e-01
1.336023e-01
1.424528e-01
1.506630e-01
1.583362e-01
1.654852e-01
1.720411e-01
1.779187e-01
1.830988e-01
1.876791e-01
1.918644e-01
1.959001e-01
1.999824e-01
2.041855e-01
2.084326e-01
2.125241e-01
2.162131e-01
2.192937e-01
2.216629e-01
2.233373e-01
2.244250e-01
2.250685e-01
2.253764e-01
2.253710e-01
2.249836e-01
2.241015e-01
2.226389e-01
2.205915e-01
2.180566e-01
2.152224e-01
2.123305e-01
2.096117e-01
2.072080e-01
2.051158e-01
2.031795e-01
2.011396e-01
1.987047e-01
1.956084e-01
1.916306e-01
1.865967e-01
1.803726e-01
1.728616e-01
1.640077e-01
1.538084e-01
1.423386e-01
1.297809e-01
1.164401e-01
1.027178e-01
8.904324e-02
7.579490e-02
6.325561e-02
5.161925e-02
4.102897e-02
3.160692e-02
2.345342e-02
1.662320e-02
1.110120e-02
6.792423e-03
3.527399e-03
1.083458e-03
-7.711432e-04
-2.211827e-03
-3.303856e-03
-4.009228e-03
-4.262697e-03
-4.058875e-03
-3.485005e-03
-2.695138e-03
-1.866336e-03
-1.163418e-03
-7.137126e-04
-5.948518e-04
-8.451676e-04
-1.497332e-03
-2.621637e-03
-4.357197e-03
-6.912532e-03
-1.053171e-02
-1.543766e-02
-2.177247e-02
-2.955721e-02
-3.868838e-02
-4.896960e-02
-6.015897e-02
-7.201271e-02
-8.431461e-02
-9.688718e-02
-1.095863e-01
-1.222894e-01
-1.348922e-01
-1.473153e-01
-1.595079e-01
-1.714344e-01
-1.830597e-01
-1.943606e-01
-2.053643e-01
-2.161793e-01
-2.269777e-01
-2.379319e-01
-2.491408e-01
-2.605762e-01
-2.720594e-01
-2.832814e-01
-2.938771e-01
-3.035339e-01
-3.120759e-01
-3.194767e-01
-3.258074e-01
-3.311625e-01
-3.356047e-01
-3.391459e-01
-3.417668e-01
-3.434652e-01
-3.443037e-01
-3.444248e-01
-3.440231e-01
-3.432951e-01
-3.423985e-01
-3.414423e-01
-3.405079e-01
-3.396825e-01
-3.390831e-01
-3.388532e-01
-3.391357e-01
-3.400403e-01
-3.416241e-01
-3.438925e-01
-3.468170e-01
-3.503605e-01
-3.545025e-01
-3.592499e-01
-3.646207e-01
-3.706097e-01
-3.771567e-01
-3.841388e-01
-3.913869e-01
-3.987224e-01
-4.060002e-01
-4.131399e-01
-4.201279e-01
-4.269907e-01
-4.337612e-01
-4.404592e-01
-4.470931e-01
-4.536753e-01
-4.602419e-01
-4.668667e-01
-4.736588e-01
-4.807432e-01
-4.882330e-01
-4.962036e-01
-5.046734e-01
-5.135926e-01
-5.228452e-01
-5.322636e-01
-5.416469e-01
-5.507748e-01
-5.594226e-01
-5.673837e-01
-5.744992e-01
-5.806862e-01
-5.859528e-01
-5.903884e-01
-5.941272e-01
-5.972972e-01
-5.999760e-01
-6.021689e-01
-6.038196e-01
-6.048471e-01
-6.051811e-01
-6.047720e-01
-6.035759e-01
-6.015390e-01
-5.985950e-01
-5.946740e-01
-5.897137e-01
-5.836802e-01
-5.765943e-01
-5.685476e-01
-5.596977e-01
-5.502527e-01
-5.404530e-01
-5.305487e-01
-5.207618e-01
-5.112333e-01
-5.019754e-01
-4.928577e-01
-4.836456e-01
-4.740790e-01
-4.639612e-01
-4.532204e-01
-4.419228e-01
-4.302422e-01
-4.184011e-01
-4.066045e-01
-3.949832e-01
-3.835658e-01
-3.722885e-01
