EVENT_NAME: CENTRAL_ITALY
EVENT_ID: EMSC-20161026_0000077
EVENT_DATE_YYYYMMDD: 20161026
EVENT_TIME_HHMMSS: 171036
EVENT_LATITUDE_DEGREE: 42.8802
EVENT_LONGITUDE_DEGREE: 13.1275
EVENT_DEPTH_KM: 8.7
HYPOCENTER_REFERENCE: INGV-CNT_Seismic_Bulletin
MAGNITUDE_W: 5.4
MAGNITUDE_W_REFERENCE: INGV-webservice
MAGNITUDE_L: 5.4
MAGNITUDE_L_REFERENCE: INGV-CNT_Seismic_Bulletin
FOCAL_MECHANISM: NF
NETWORK: IT
STATION_CODE: NRC
STATION_NAME: NORCIA
STATION_LATITUDE_DEGREE: 42.792543
STATION_LONGITUDE_DEGREE: 13.096475
STATION_ELEVATION_M: 616
LOCATION: 
SENSOR_DEPTH_M: 0.0
VS30_M/S: 687
SITE_CLASSIFICATION_EC8: B
MORPHOLOGIC_CLASSIFICATION: SL
EPICENTRAL_DISTANCE_KM: 10.1
EARTHQUAKE_BACKAZIMUTH_DEGREE: 14.6
DATE_TIME_FIRST_SAMPLE_YYYYMMDD_HHMMSS: 20161026_171032.909
DATE_TIME_FIRST_SAMPLE_PRECISION: milliseconds
SAMPLING_INTERVAL_S: 0.005000
NDATA: 10588
DURATION_S: 52.940
STREAM: HGE
UNITS: cm
INSTRUMENT: sensor = Unknown [Unknown] | digitizer = Unknown [Unknown]
INSTRUMENT_ANALOG/DIGITAL: D
INSTRUMENTAL_FREQUENCY_HZ: 
INSTRUMENTAL_DAMPING: 
FULL_SCALE_G: 
N_BIT_DIGITAL_CONVERTER: 
PGD_CM: -3.405158
TIME_PGD_S: 9.345000
BASELINE_CORRECTION: BASELINE REMOVED
FILTER_TYPE: BUTTERWORTH
FILTER_ORDER: 2
LOW_CUT_FREQUENCY_HZ: 0.070
HIGH_CUT_FREQUENCY_HZ: 30.000
LATE/NORMAL_TRIGGERED: NT
DATABASE_VERSION: DYNA 1.0
HEADER_FORMAT: DYNA 1.2
DATA_TYPE: DISPLACEMENT
PROCESSING: manual (Paolucci et al., 2011)
DATA_TIMESTAMP_YYYYMMDD_HHMMSS: 20161027_111110.997
DATA_LICENSE: CC-BY3_0-IT (http://creativecommons.org/licenses/by/3.0/deed.en)
DATA_CITATION: ESM working group (2015), European Strong-Motion database, version 0.1, Network Activity 3: Networking acceleration networks and SM data users. Project NERA (www.nera-eu.org)
DATA_CREATOR: ESM working group
ORIGINAL_DATA_MEDIATOR_CITATION: Ufficio Rischio Sismico e Vulcanico del Dipartimento della Protezione Civile (http://www.protezionecivile.gov.it/)
ORIGINAL_DATA_MEDIATOR: Rete Accelerometrica Nazionale - RAN Download (http://www.mot1.it/randownload/)
ORIGINAL_DATA_CREATOR_CITATION: Italian Strong Motion Network, Italian Civil Protection Department http://www.protezionecivile.gov.it
ORIGINAL_DATA_CREATOR: network: IT (Italian Strong Motion Network); owner: Dipartimento Della Protezione Civile
USER1: /home/dyna/processing-itaca/processing.py /var/www/processing//tmp/felicetta//IT.NRC..HGE.D.20161026.171036.X.ACC.ASC /var/www/processing//tmp/felicetta//IT.NRC..HGN.D.20161026.171036.X.ACC.ASC /var/www/processing//tmp/felicetta//IT.NRC..HGZ.D.20161026.171036.X.ACC.ASC --tmp /var/www/processing//tmp/felicetta/ --le 0.07 --he 30.000 --ln 0.07 --hn 30.000 --lz 0.07 --hz 30.000 --fo 2 --ca 0 --cz 70 --ta 5 --tz 5 --mf 1 --rf 0 --tr NT
USER2: 
USER3: 
USER4: 
USER5: 
[...]
1.870495e-02
1.879735e-02
1.888985e-02
1.898233e-02
1.907478e-02
1.916722e-02
1.925971e-02
1.935225e-02
1.944485e-02
1.953752e-02
1.963034e-02
1.972344e-02
1.981697e-02
1.991099e-02
2.000547e-02
2.010028e-02
2.019529e-02
2.029037e-02
2.038541e-02
2.048040e-02
2.057538e-02
2.067046e-02
2.076585e-02
2.086172e-02
2.095814e-02
2.105502e-02
2.115218e-02
2.124944e-02
2.134667e-02
2.144387e-02
2.154110e-02
2.163848e-02
2.173608e-02
2.183395e-02
2.193214e-02
2.203067e-02
2.212953e-02
2.222870e-02
2.232819e-02
2.242797e-02
2.252801e-02
2.262820e-02
2.272851e-02
2.282888e-02
2.292927e-02
2.302967e-02
2.313016e-02
2.323087e-02
2.333192e-02
2.343332e-02
2.353507e-02
2.363710e-02
2.373935e-02
2.384176e-02
2.394426e-02
2.404684e-02
2.414951e-02
2.425226e-02
2.435506e-02
2.445795e-02
2.456100e-02
2.466432e-02
2.476798e-02
2.487201e-02
2.497645e-02
2.508127e-02
2.518644e-02
2.529181e-02
2.539725e-02
2.550270e-02
2.560819e-02
2.571377e-02
2.581955e-02
2.592565e-02
2.603209e-02
2.613884e-02
2.624582e-02
2.635297e-02
2.646028e-02
2.656767e-02
2.667509e-02
2.678252e-02
2.689002e-02
2.699769e-02
2.710562e-02
2.721386e-02
2.732240e-02
2.743124e-02
2.754035e-02
2.764974e-02
2.775944e-02
2.786951e-02
2.797993e-02
2.809064e-02
2.820155e-02
2.831261e-02
2.842382e-02
2.853522e-02
2.864686e-02
2.875876e-02
2.887090e-02
2.898329e-02
2.909590e-02
2.920866e-02
2.932148e-02
2.943422e-02
2.954684e-02
2.965936e-02
2.977194e-02
2.988480e-02
2.999816e-02
3.011217e-02
3.022686e-02
3.034216e-02
3.045791e-02
3.057391e-02
3.068993e-02
3.080586e-02
3.092167e-02
3.103737e-02
3.115302e-02
3.126864e-02
3.138430e-02
3.150009e-02
3.161610e-02
3.173241e-02
3.184905e-02
3.196611e-02
3.208366e-02
3.220168e-02
3.232007e-02
3.243864e-02
3.255720e-02
3.267570e-02
3.279421e-02
3.291289e-02
3.303194e-02
3.315156e-02
3.327183e-02
3.339269e-02
3.351391e-02
3.363517e-02
3.375621e-02
3.387687e-02
3.399717e-02
3.411728e-02
3.423751e-02
3.435822e-02
3.447969e-02
3.460202e-02
3.472519e-02
3.484904e-02
3.497332e-02
3.509773e-02
3.522202e-02
3.534599e-02
3.546954e-02
3.559265e-02
3.571553e-02
3.583850e-02
3.596193e-02
3.608606e-02
3.621100e-02
3.633673e-02
3.646310e-02
3.658983e-02
3.671655e-02
3.684298e-02
3.696897e-02
3.709459e-02
3.722009e-02
3.734577e-02
3.747190e-02
3.759865e-02
3.772611e-02
3.785423e-02
3.798287e-02
3.811181e-02
3.824089e-02
3.837004e-02
3.849915e-02
3.862811e-02
3.875683e-02
3.888530e-02
3.901366e-02
3.914213e-02
3.927098e-02
3.940044e-02
3.953064e-02
3.966157e-02
3.979314e-02
3.992525e-02
4.005775e-02
4.019044e-02
4.032308e-02
4.045551e-02
4.058767e-02
4.071960e-02
4.085145e-02
4.098344e-02
4.111576e-02
4.124857e-02
4.138195e-02
4.151587e-02
4.165026e-02
4.178503e-02
4.191999e-02
4.205496e-02
4.218977e-02
4.232440e-02
4.245897e-02
4.259370e-02
4.272889e-02
4.286479e-02
4.300154e-02
4.313910e-02
4.327722e-02
4.341547e-02
4.355342e-02
4.369074e-02
4.382739e-02
4.396358e-02
4.409973e-02
4.423621e-02
4.437330e-02
4.451111e-02
4.464960e-02
4.478862e-02
4.492798e-02
4.506752e-02
4.520724e-02
4.534719e-02
4.548747e-02
4.562806e-02
4.576888e-02
4.590975e-02
4.605054e-02
4.619113e-02
4.633151e-02
4.647179e-02
4.661210e-02
4.675266e-02
4.689368e-02
4.703538e-02
4.717776e-02
4.732059e-02
4.746355e-02
4.760634e-02
4.774880e-02
4.789100e-02
4.803322e-02
4.817584e-02
4.831926e-02
4.846365e-02
4.860897e-02
4.875496e-02
4.890121e-02
4.904736e-02
4.919315e-02
4.933852e-02
4.948355e-02
4.962849e-02
4.977358e-02
4.991898e-02
5.006479e-02
5.021103e-02
5.035771e-02
5.050480e-02
5.065225e-02
5.080000e-02
5.094802e-02
5.109635e-02
5.124492e-02
5.139366e-02
5.154242e-02
5.169118e-02
5.183993e-02
5.198871e-02
5.213759e-02
5.228667e-02
5.243605e-02
5.258577e-02
5.273588e-02
5.288637e-02
5.303724e-02
5.318845e-02
5.333993e-02
5.349161e-02
5.364338e-02
5.379517e-02
5.394697e-02
5.409879e-02
5.425069e-02
5.440275e-02
5.455510e-02
5.470785e-02
5.486102e-02
5.501460e-02
5.516847e-02
5.532250e-02
5.547654e-02
5.563047e-02
5.578427e-02
5.593805e-02
5.609196e-02
5.624623e-02
5.640103e-02
5.655648e-02
5.671256e-02
5.686909e-02
5.702583e-02
5.718259e-02
5.733923e-02
5.749576e-02
5.765229e-02
5.780894e-02
5.796582e-02
5.812298e-02
5.828042e-02
5.843813e-02
5.859609e-02
5.875427e-02
5.891269e-02
5.907137e-02
5.923036e-02
5.938969e-02
5.954938e-02
5.970934e-02
5.986948e-02
6.002969e-02
6.018993e-02
6.035023e-02
6.051069e-02
6.067135e-02
6.083200e-02
6.099201e-02
6.115026e-02
6.130523e-02
6.145525e-02
6.159866e-02
6.173408e-02
6.186054e-02
6.197760e-02
6.208563e-02
6.218600e-02
6.228132e-02
6.237521e-02
6.247197e-02
6.257628e-02
6.269286e-02
6.282589e-02
6.297868e-02
6.315342e-02
6.335093e-02
6.357048e-02
6.380973e-02
6.406505e-02
6.433196e-02
6.460561e-02
6.488121e-02
6.515422e-02
6.542046e-02
6.567616e-02
6.591812e-02
6.614406e-02
6.635304e-02
6.654576e-02
6.672420e-02
6.689082e-02
6.704756e-02
6.719522e-02
6.733351e-02
6.746161e-02
6.757879e-02
6.768492e-02
6.778080e-02
6.786810e-02
6.794910e-02
6.802649e-02
6.810338e-02
6.818312e-02
6.826895e-02
6.836343e-02
6.846799e-02
6.858221e-02
6.870342e-02
6.882688e-02
6.894658e-02
6.905588e-02
6.914799e-02
6.921669e-02
6.925716e-02
6.926682e-02
6.924627e-02
6.919998e-02
6.913586e-02
6.906357e-02
6.899272e-02
6.893179e-02
6.888785e-02
6.886654e-02
6.887234e-02
6.890907e-02
6.898048e-02
6.909041e-02
6.924266e-02
6.944086e-02
6.968834e-02
6.998788e-02
7.034143e-02
7.074996e-02
7.121330e-02
7.173007e-02
7.229778e-02
7.291280e-02
7.356959e-02
7.425919e-02
7.496782e-02
7.567644e-02
7.636149e-02
7.699696e-02
7.755711e-02
7.801927e-02
7.836582e-02
7.858513e-02
7.867174e-02
7.862626e-02
7.845527e-02
7.817093e-02
7.779057e-02
7.733626e-02
7.683407e-02
7.631184e-02
7.579569e-02
7.530669e-02
7.485864e-02
7.445762e-02
7.410311e-02
7.379047e-02
7.351302e-02
7.326210e-02
7.302562e-02
7.278636e-02
7.252116e-02
7.220152e-02
7.179701e-02
7.128190e-02
7.064235e-02
6.988020e-02
6.901168e-02
6.806246e-02
6.706091e-02
6.603085e-02
6.498642e-02
6.393063e-02
6.285742e-02
6.175569e-02
6.061391e-02
5.942405e-02
5.818366e-02
5.689671e-02
5.557484e-02
5.423846e-02
5.291577e-02
5.163958e-02
5.044482e-02
4.936842e-02
4.845022e-02
4.773184e-02
4.725213e-02
4.703951e-02
4.710291e-02
4.742502e-02
4.796399e-02
4.866483e-02
4.947291e-02
5.034053e-02
5.122628e-02
5.209510e-02
5.292439e-02
5.371237e-02
5.448202e-02
5.527759e-02
5.615452e-02
5.716263e-02
5.832603e-02
5.963009e-02
6.102396e-02
6.243431e-02
6.377888e-02
6.497560e-02
6.594994e-02
6.664106e-02
6.700489e-02
6.701538e-02
6.666667e-02
6.597462e-02
6.497560e-02
6.372286e-02
6.228213e-02
6.072731e-02
5.913674e-02
5.758758e-02
5.614491e-02
5.484888e-02
5.370769e-02
5.270136e-02
5.179536e-02
5.095866e-02
5.017680e-02
4.945028e-02
4.877883e-02
4.814396e-02
4.750454e-02
4.680911e-02
4.601516e-02
4.510167e-02
4.407018e-02
4.293790e-02
4.172555e-02
4.044081e-02
3.906452e-02
3.755002e-02
3.583734e-02
3.387609e-02
3.165053e-02
2.919734e-02
2.660190e-02
2.397093e-02
2.140204e-02
1.897144e-02
1.673735e-02
1.474658e-02
1.304031e-02
1.165810e-02
1.063612e-02
1.000357e-02
9.784957e-03
1.000155e-02
1.065801e-02
1.171951e-02
1.310105e-02
1.468076e-02
1.632908e-02
1.794147e-02
1.946421e-02
2.090015e-02
2.228781e-02
2.366923e-02
2.506835e-02
2.648337e-02
2.788604e-02
2.922972e-02
3.046604e-02
3.155484e-02
3.245988e-02
3.314552e-02
3.358494e-02
3.376870e-02
3.370325e-02
3.340718e-02
3.291301e-02
3.226911e-02
3.153665e-02
3.078589e-02
3.009514e-02
2.954817e-02
2.922594e-02
2.919520e-02
2.949646e-02
3.013135e-02
3.105630e-02
3.219688e-02
3.348182e-02
3.487401e-02
3.637901e-02
3.803299e-02
3.987953e-02
4.194144e-02
4.419715e-02
4.657314e-02
4.895425e-02
5.120277e-02
5.317834e-02
5.475950e-02
5.586843e-02
5.649375e-02
5.669938e-02
5.660981e-02
5.637509e-02
5.613165e-02
5.597425e-02
5.594463e-02
5.603520e-02
5.620436e-02
5.639887e-02
5.657691e-02
5.672190e-02
5.684006e-02
5.694526e-02
5.704147e-02
5.710962e-02
5.710210e-02
5.694756e-02
5.656728e-02
5.589940e-02
5.492484e-02
5.368546e-02
5.228567e-02
5.087794e-02
4.964009e-02
4.874835e-02
4.834878e-02
4.853780e-02
4.935944e-02
5.081322e-02
5.286299e-02
5.544568e-02
5.847714e-02
6.185113e-02
6.544000e-02
6.911172e-02
7.276281e-02
7.634868e-02
7.989160e-02
8.346023e-02
8.713389e-02
9.097123e-02
9.499202e-02
9.917357e-02
1.034626e-01
1.077927e-01
1.120910e-01
1.162759e-01
1.202681e-01
1.240170e-01
1.275160e-01
1.307910e-01
1.338799e-01
1.368266e-01
1.396890e-01
1.425445e-01
1.454951e-01
1.486756e-01
1.522504e-01
1.563880e-01
1.612249e-01
1.668396e-01
1.732357e-01
1.803348e-01
1.879850e-01
1.959918e-01
2.041604e-01
2.123310e-01
2.203905e-01
2.282617e-01
2.358861e-01
2.432149e-01
2.502119e-01
2.568589e-01
2.631542e-01
2.691034e-01
2.747091e-01
2.799645e-01
2.848551e-01
2.893615e-01
2.934637e-01
2.971462e-01
3.004052e-01
3.032540e-01
3.057247e-01
3.078673e-01
3.097445e-01
3.114252e-01
3.129835e-01
3.145077e-01
3.161057e-01
3.179011e-01
3.200188e-01
3.225684e-01
3.256299e-01
3.292467e-01
3.334257e-01
3.381450e-01
3.433616e-01
3.490176e-01
3.550445e-01
3.613696e-01
3.679274e-01
3.746732e-01
3.815883e-01
3.886692e-01
3.959096e-01
4.032906e-01
4.107801e-01
4.183321e-01
4.258816e-01
4.333385e-01
4.405844e-01
4.474758e-01
4.538525e-01
4.595574e-01
4.644603e-01
4.684803e-01
4.716011e-01
4.738816e-01
4.754551e-01
4.765105e-01
4.772591e-01
4.779011e-01
4.785980e-01
4.794609e-01
4.805608e-01
4.819490e-01
4.836668e-01
4.857406e-01
4.881754e-01
4.909565e-01
4.940568e-01
4.974457e-01
5.010989e-01
5.050038e-01
5.091572e-01
5.135553e-01
5.181891e-01
5.230489e-01
5.281273e-01
5.334134e-01
5.388867e-01
5.445153e-01
5.502529e-01
5.560323e-01
5.617661e-01
5.673604e-01
5.727363e-01
5.778459e-01
5.826770e-01
5.872426e-01
5.915598e-01
5.956369e-01
5.994766e-01
6.030854e-01
6.064760e-01
6.096670e-01
6.126814e-01
6.155489e-01
6.183073e-01
6.210019e-01
6.236813e-01
6.263935e-01
6.291806e-01
6.320762e-01
6.351095e-01
6.383160e-01
6.417410e-01
6.454298e-01
6.494120e-01
6.536906e-01
6.582356e-01
6.629840e-01
6.678498e-01
6.727442e-01
6.775957e-01
6.823568e-01
6.869970e-01
6.914942e-01
6.958294e-01
6.999865e-01
7.039565e-01
7.077434e-01
7.113625e-01
7.148351e-01
7.181851e-01
7.214417e-01
7.246483e-01
7.278750e-01
7.312236e-01
7.348139e-01
7.387578e-01
7.431352e-01
7.479795e-01
7.532695e-01
7.589319e-01
7.648579e-01
7.709218e-01
7.769935e-01
7.829507e-01
7.886997e-01
7.941897e-01
7.994076e-01
8.043628e-01
8.090809e-01
8.136084e-01
8.180164e-01
8.224010e-01
8.268807e-01
8.315976e-01
8.367165e-01
8.424151e-01
8.488622e-01
8.561889e-01
8.644586e-01
8.736517e-01
8.836726e-01
8.943771e-01
9.056011e-01
9.171777e-01
9.289381e-01
9.407036e-01
9.522846e-01
9.634953e-01
9.741813e-01
9.842451e-01
9.936626e-01
1.002486e+00
1.010829e+00
1.018835e+00
1.026649e+00
1.034397e+00
1.042184e+00
1.050095e+00
1.058191e+00
1.066509e+00
1.075064e+00
1.083853e+00
1.092857e+00
1.102047e+00
1.111379e+00
1.120780e+00
1.130131e+00
1.139250e+00
1.147888e+00
1.155724e+00
1.162390e+00
1.167502e+00
1.170703e+00
1.171681e+00
1.170193e+00
1.166072e+00
1.159225e+00
1.149615e+00
1.137242e+00
1.122136e+00
1.104342e+00
1.083900e+00
1.060826e+00
1.035111e+00
1.006736e+00
9.756845e-01
9.419364e-01
9.054627e-01
8.662264e-01
8.241859e-01
7.792902e-01
7.314652e-01
6.805985e-01
6.265306e-01
5.690561e-01
5.079333e-01
4.428984e-01
3.736821e-01
3.000279e-01
2.217146e-01
1.385780e-01
5.051952e-02
-4.250409e-02
-1.404926e-01
-2.433945e-01
-3.510774e-01
-4.632964e-01
-5.796800e-01
-6.997342e-01
-8.228626e-01
-9.484009e-01
-1.075665e+00
-1.203999e+00
-1.332813e+00
-1.461593e+00
-1.589891e+00
-1.717289e+00
-1.843367e+00
-1.967671e+00
-2.089691e+00
-2.208847e+00
-2.324492e+00
-2.435925e+00
-2.542432e+00
-2.643322e+00
-2.737975e+00
-2.825879e+00
-2.906659e+00
-2.980107e+00
-3.046186e+00
-3.105022e+00
-3.156872e+00
-3.202085e+00
-3.241061e+00
-3.274207e+00
-3.301903e+00
-3.324473e+00
-3.342187e+00
-3.355308e+00
-3.364159e+00
-3.369180e+00
-3.370958e+00
-3.370194e+00
-3.367666e+00
-3.364165e+00
-3.360435e+00
-3.357124e+00
-3.354738e+00
-3.353618e+00
-3.353930e+00
-3.355666e+00
-3.358673e+00
-3.362714e+00
-3.367534e+00
-3.372902e+00
-3.378616e+00
-3.384477e+00
-3.390253e+00
-3.395643e+00
-3.400259e+00
-3.403616e+00
-3.405158e+00
-3.404299e+00
-3.400483e+00
-3.393237e+00
-3.382223e+00
-3.367246e+00
-3.348239e+00
-3.325219e+00
-3.298239e+00
-3.267373e+00
-3.232696e+00
-3.194298e+00
-3.152282e+00
-3.106784e+00
-3.057985e+00
-3.006130e+00
-2.951517e+00
-2.894482e+00
-2.835363e+00
-2.774473e+00
-2.712085e+00
-2.648428e+00
-2.583685e+00
-2.517990e+00
-2.451418e+00
-2.383994e+00
-2.315705e+00
-2.246522e+00
-2.176441e+00
-2.105514e+00
-2.033873e+00
-1.961740e+00
-1.889409e+00
-1.817231e+00
-1.745596e+00
-1.674914e+00
-1.605582e+00
-1.537950e+00
-1.472289e+00
-1.408779e+00
-1.347521e+00
-1.288560e+00
-1.231901e+00
-1.177521e+00
-1.125359e+00
-1.075302e+00
-1.027165e+00
-9.806892e-01
-9.355730e-01
-8.915237e-01
-8.483058e-01
-8.057572e-01
-7.637819e-01
-7.223369e-01
-6.814261e-01
-6.411033e-01
-6.014824e-01
-5.627453e-01
-5.251332e-01
-4.889178e-01
-4.543576e-01
-4.216560e-01
-3.909310e-01
-3.622021e-01
-3.353977e-01
-3.103804e-01
-2.869834e-01
-2.650452e-01
-2.444282e-01
-2.250206e-01
-2.067274e-01
-1.894565e-01
-1.731042e-01
-1.575414e-01
-1.426028e-01
-1.280838e-01
-1.137470e-01
-9.933734e-02
-8.460579e-02
-6.933693e-02
-5.337404e-02
-3.663025e-02
-1.908029e-02
-7.359748e-04
1.838444e-02
3.828375e-02
5.900575e-02
8.064620e-02
1.033532e-01
1.273174e-01
1.527548e-01
1.798861e-01
2.089145e-01
2.400091e-01
2.733006e-01
3.088893e-01
3.468528e-01
3.872434e-01
4.300722e-01
4.752894e-01
5.227736e-01
5.723336e-01
6.237234e-01
6.766698e-01
7.309016e-01
7.861703e-01
8.422513e-01
8.989319e-01
9.559962e-01
1.013215e+00
1.070343e+00
1.127104e+00
1.183184e+00
1.238218e+00
1.291790e+00
1.343450e+00
1.392741e+00
1.439234e+00
1.482554e+00
1.522403e+00
1.558566e+00
1.590910e+00
1.619369e+00
1.643941e+00
1.664688e+00
1.681740e+00
1.695280e+00
1.705532e+00
1.712718e+00
1.717034e+00
1.718624e+00
1.717572e+00
1.713924e+00
1.707722e+00
1.699048e+00
1.688039e+00
1.674894e+00
1.659859e+00
1.643196e+00
1.625166e+00
1.606012e+00
1.585949e+00
1.565168e+00
1.543851e+00
1.522185e+00
1.500373e+00
1.478637e+00
1.457200e+00
1.436271e+00
1.416006e+00
1.396490e+00
1.377714e+00
1.359577e+00
1.341896e+00
1.324437e+00
1.306935e+00
1.289112e+00
1.270680e+00
1.251350e+00
1.230846e+00
1.208935e+00
1.185440e+00
1.160265e+00
1.133390e+00
1.104869e+00
1.074827e+00
1.043446e+00
1.010949e+00
9.775791e-01
9.435902e-01
9.092421e-01
8.747935e-01
8.404898e-01
8.065595e-01
7.732217e-01
7.407000e-01
7.092302e-01
6.790632e-01
6.504599e-01
6.236809e-01
5.989728e-01
5.765551e-01
5.566091e-01
5.392661e-01
5.245963e-01
5.126006e-01
5.032122e-01
4.963049e-01
4.916988e-01
4.891608e-01
4.884024e-01
4.890809e-01
4.908074e-01
4.931625e-01
4.957162e-01
4.980482e-01
4.997622e-01
5.004894e-01
4.998860e-01
4.976379e-01
4.934792e-01
4.872192e-01
4.787640e-01
4.681286e-01
4.554392e-01
4.409229e-01
4.248731e-01
4.075940e-01
3.893504e-01
3.703432e-01
3.507095e-01
3.305309e-01
3.098418e-01
2.886428e-01
2.669224e-01
2.446805e-01
2.219452e-01
1.987802e-01
1.752784e-01
1.515437e-01
1.276665e-01
1.037093e-01
7.970417e-02
5.565808e-02
3.155536e-02
7.355164e-03
-1.701319e-02
-4.165620e-02
-6.672114e-02
-9.239478e-02
-1.188907e-01
-1.464227e-01
-1.751687e-01
-2.052327e-01
-2.366181e-01
-2.692212e-01
-3.028509e-01
-3.372656e-01
-3.722077e-01
-4.074180e-01
-4.426352e-01
-4.775921e-01
-5.120175e-01
-5.456464e-01
-5.782342e-01
-6.095699e-01
-6.394818e-01
-6.678335e-01
-6.945148e-01
-7.194336e-01
-7.425139e-01
-7.636999e-01
-7.829635e-01
-8.003149e-01
-8.158097e-01
-8.295461e-01
-8.416528e-01
-8.522720e-01
-8.615488e-01
-8.696267e-01
-8.766508e-01
-8.827728e-01
-8.881539e-01
-8.929598e-01
-8.973521e-01
-9.014790e-01
-9.054666e-01
-9.094090e-01
-9.133571e-01
-9.173082e-01
-9.212019e-01
-9.249301e-01
-9.283570e-01
-9.313408e-01
-9.337499e-01
-9.354772e-01
-9.364521e-01
-9.366437e-01
-9.360508e-01
-9.346827e-01
-9.325394e-01
-9.295963e-01
-9.257954e-01
-9.210452e-01
-9.152278e-01
-9.082074e-01
-8.998343e-01
-8.899482e-01
-8.783844e-01
-8.649856e-01
-8.496193e-01
-8.321963e-01
-8.126860e-01
-7.911262e-01
-7.676297e-01
-7.423855e-01
-7.156520e-01
-6.877384e-01
-6.589778e-01
-6.296974e-01
-6.001958e-01
-5.707304e-01
-5.415148e-01
-5.127203e-01
-4.844855e-01
-4.569323e-01
-4.301876e-01
-4.043985e-01
-3.797299e-01
-3.563427e-01
-3.343612e-01
-3.138429e-01
-2.947627e-01
-2.770115e-01
-2.604099e-01
-2.447354e-01
-2.297573e-01
-2.152640e-01
-2.010757e-01
-1.870455e-01
-1.730603e-01
-1.590423e-01
-1.449495e-01
-1.307714e-01
-1.165241e-01
-1.022485e-01
-8.801182e-02
-7.390551e-02
-6.004370e-02
-4.656335e-02
-3.362251e-02
-2.138987e-02
-1.002644e-02
3.356949e-04
9.614062e-03
1.779297e-02
2.493216e-02
3.116334e-02
3.667522e-02
4.169241e-02
4.645619e-02
5.121065e-02
5.619218e-02
6.161872e-02
6.767929e-02
7.452459e-02
8.226015e-02
9.094461e-02
1.005966e-01
1.112077e-01
1.227511e-01
1.351824e-01
1.484335e-01
1.624073e-01
1.769724e-01
1.919588e-01
2.071568e-01
2.223206e-01
2.371794e-01
2.514510e-01
2.648579e-01
2.771410e-01
2.880692e-01
2.974471e-01
3.051235e-01
3.109952e-01
3.150081e-01
3.171569e-01
3.174846e-01
3.160757e-01
3.130424e-01
3.085073e-01
3.025926e-01
2.954131e-01
2.870693e-01
2.776418e-01
2.671875e-01
2.557408e-01
2.433173e-01
2.299207e-01
2.155523e-01
2.002201e-01
1.839479e-01
1.667819e-01
