EVENT_NAME: CENTRAL_ITALY
EVENT_ID: EMSC-20160824_0000006
EVENT_DATE_YYYYMMDD: 20160824
EVENT_TIME_HHMMSS: 013632
EVENT_LATITUDE_DEGREE: 42.6983
EVENT_LONGITUDE_DEGREE: 13.2335
EVENT_DEPTH_KM: 8.1
HYPOCENTER_REFERENCE: INGV-CNT_Seismic_Bulletin
MAGNITUDE_W: 6.0
MAGNITUDE_W_REFERENCE: INGV-webservice
MAGNITUDE_L: 6.0
MAGNITUDE_L_REFERENCE: INGV-CNT_Seismic_Bulletin
FOCAL_MECHANISM: NF
NETWORK: IT
STATION_CODE: NRC
STATION_NAME: NORCIA
STATION_LATITUDE_DEGREE: 42.792543
STATION_LONGITUDE_DEGREE: 13.096475
STATION_ELEVATION_M: 616
LOCATION: 
SENSOR_DEPTH_M: 0.0
VS30_M/S: 687
SITE_CLASSIFICATION_EC8: B
MORPHOLOGIC_CLASSIFICATION: SL
EPICENTRAL_DISTANCE_KM: 15.3
EARTHQUAKE_BACKAZIMUTH_DEGREE: 133.0
DATE_TIME_FIRST_SAMPLE_YYYYMMDD_HHMMSS: 20160824_013629.849
DATE_TIME_FIRST_SAMPLE_PRECISION: milliseconds
SAMPLING_INTERVAL_S: 0.005000
NDATA: 8000
DURATION_S: 40.000
STREAM: HGN
UNITS: cm/s
INSTRUMENT: sensor = Unknown [Unknown] | digitizer = Unknown [Unknown]
INSTRUMENT_ANALOG/DIGITAL: D
INSTRUMENTAL_FREQUENCY_HZ: 
INSTRUMENTAL_DAMPING: 
FULL_SCALE_G: 
N_BIT_DIGITAL_CONVERTER: 
PGV_CM/S: -23.697533
TIME_PGV_S: 10.520000
BASELINE_CORRECTION: BASELINE REMOVED
FILTER_TYPE: BUTTERWORTH
FILTER_ORDER: 2
LOW_CUT_FREQUENCY_HZ: 0.080
HIGH_CUT_FREQUENCY_HZ: 40.000
LATE/NORMAL_TRIGGERED: NT
DATABASE_VERSION: DYNA 1.0
HEADER_FORMAT: DYNA 1.2
DATA_TYPE: VELOCITY
PROCESSING: manual (Paolucci et al., 2011)
DATA_TIMESTAMP_YYYYMMDD_HHMMSS: 20160825_132942.360
DATA_LICENSE: CC-BY3_0-IT (http://creativecommons.org/licenses/by/3.0/deed.en)
DATA_CITATION: ESM working group (2015), European Strong-Motion database, version 0.1, Network Activity 3: Networking acceleration networks and SM data users. Project NERA (www.nera-eu.org)
DATA_CREATOR: ESM working group
ORIGINAL_DATA_MEDIATOR_CITATION: Ufficio Rischio Sismico e Vulcanico del Dipartimento della Protezione Civile (http://www.protezionecivile.gov.it/)
ORIGINAL_DATA_MEDIATOR: Rete Accelerometrica Nazionale - RAN Download (http://www.mot1.it/randownload/)
ORIGINAL_DATA_CREATOR_CITATION: Italian Strong Motion Network, Italian Civil Protection Department http://www.protezionecivile.gov.it
ORIGINAL_DATA_CREATOR: network: IT (Italian Strong Motion Network); owner: Dipartimento Della Protezione Civile
USER1: /home/dyna/processing-itaca/processing.py /var/www/processing//tmp/Maria//IT.NRC..HGE.D.20160824.013632.X.ACC.ASC /var/www/processing//tmp/Maria//IT.NRC..HGN.D.20160824.013632.X.ACC.ASC /var/www/processing//tmp/Maria//IT.NRC..HGZ.D.20160824.013632.X.ACC.ASC --tmp /var/www/processing//tmp/Maria/ --le 0.08 --he 40.000 --ln 0.08 --hn 40.000 --lz 0.08 --hz 40.000 --fo 2 --ca 0 --cz 140 --ta 5 --tz 5 --mf 1 --rf 0 --tr NT
USER2: 
USER3: 
USER4: 
USER5: 
[...]
-0.013469
-0.013375
-0.013285
-0.013187
-0.013083
-0.012982
-0.012880
-0.012772
-0.012664
-0.012563
-0.012463
-0.012361
-0.012261
-0.012170
-0.012081
-0.011987
-0.011892
-0.011800
-0.011707
-0.011610
-0.011513
-0.011415
-0.011309
-0.011197
-0.011086
-0.010976
-0.010865
-0.010753
-0.010641
-0.010532
-0.010423
-0.010311
-0.010198
-0.010089
-0.009986
-0.009884
-0.009780
-0.009673
-0.009565
-0.009461
-0.009361
-0.009259
-0.009151
-0.009038
-0.008925
-0.008814
-0.008697
-0.008575
-0.008456
-0.008340
-0.008220
-0.008097
-0.007983
-0.007879
-0.007773
-0.007662
-0.007549
-0.007440
-0.007327
-0.007204
-0.007073
-0.006944
-0.006823
-0.006701
-0.006577
-0.006455
-0.006336
-0.006216
-0.006099
-0.005983
-0.005862
-0.005735
-0.005606
-0.005481
-0.005359
-0.005235
-0.005106
-0.004976
-0.004849
-0.004720
-0.004587
-0.004455
-0.004325
-0.004192
-0.004060
-0.003932
-0.003801
-0.003666
-0.003534
-0.003406
-0.003272
-0.003130
-0.002991
-0.002862
-0.002736
-0.002601
-0.002458
-0.002317
-0.002179
-0.002040
-0.001900
-0.001762
-0.001622
-0.001476
-0.001330
-0.001190
-0.001048
-0.000901
-0.000752
-0.000607
-0.000466
-0.000328
-0.000194
-0.000062
0.000071
0.000208
0.000348
0.000491
0.000636
0.000784
0.000934
0.001082
0.001230
0.001381
0.001535
0.001685
0.001831
0.001982
0.002134
0.002283
0.002430
0.002581
0.002730
0.002875
0.003024
0.003182
0.003341
0.003496
0.003651
0.003810
0.003963
0.004112
0.004269
0.004434
0.004595
0.004750
0.004910
0.005073
0.005234
0.005393
0.005552
0.005713
0.005875
0.006035
0.006196
0.006362
0.006528
0.006688
0.006848
0.007013
0.007181
0.007347
0.007514
0.007681
0.007844
0.008003
0.008167
0.008337
0.008510
0.008684
0.008860
0.009039
0.009216
0.009392
0.009566
0.009736
0.009910
0.010089
0.010266
0.010439
0.010613
0.010785
0.010954
0.011123
0.011301
0.011484
0.011669
0.011854
0.012037
0.012217
0.012395
0.012573
0.012754
0.012937
0.013120
0.013300
0.013479
0.013658
0.013836
0.014021
0.014217
0.014412
0.014598
0.014785
0.014977
0.015171
0.015366
0.015564
0.015759
0.015950
0.016141
0.016333
0.016519
0.016700
0.016889
0.017088
0.017284
0.017473
0.017665
0.017862
0.018059
0.018249
0.018440
0.018638
0.018841
0.019040
0.019237
0.019435
0.019629
0.019822
0.020022
0.020226
0.020434
0.020640
0.020842
0.021046
0.021258
0.021470
0.021679
0.021890
0.022100
0.022306
0.022507
0.022709
0.022913
0.023118
0.023327
0.023538
0.023747
0.023955
0.024170
0.024397
0.024626
0.024851
0.025071
0.025291
0.025512
0.025732
0.025948
0.026165
0.026383
0.026601
0.026821
0.027044
0.027267
0.027487
0.027707
0.027931
0.028159
0.028388
0.028613
0.028838
0.029068
0.029297
0.029524
0.029753
0.029986
0.030220
0.030448
0.030675
0.030905
0.031139
0.031373
0.031609
0.031845
0.032077
0.032307
0.032541
0.032776
0.033009
0.033245
0.033487
0.033728
0.033961
0.034195
0.034436
0.034680
0.034922
0.035165
0.035407
0.035644
0.035879
0.036118
0.036362
0.036607
0.036852
0.037103
0.037357
0.037610
0.037854
0.038094
0.038340
0.038589
0.038834
0.039076
0.039325
0.039581
0.039833
0.040080
0.040325
0.040577
0.040831
0.041084
0.041335
0.041590
0.041849
0.042112
0.042381
0.042649
0.042913
0.043174
0.043432
0.043687
0.043944
0.044209
0.044476
0.044739
0.045001
0.045268
0.045537
0.045805
0.046069
0.046332
0.046598
0.046864
0.047132
0.047404
0.047681
0.047955
0.048224
0.048496
0.048772
0.049047
0.049320
0.049590
0.049860
0.050137
0.050418
0.050698
0.050978
0.051257
0.051538
0.051821
0.052106
0.052385
0.052661
0.052947
0.053251
0.053577
0.053932
0.054323
0.054763
0.055259
0.055796
0.056347
0.056887
0.057377
0.057762
0.057994
0.058048
0.057920
0.057641
0.057279
0.056922
0.056657
0.056560
0.056692
0.057089
0.057742
0.058608
0.059648
0.060808
0.061995
0.063105
0.064086
0.064941
0.065657
0.066180
0.066459
0.066484
0.066267
0.065844
0.065308
0.064794
0.064411
0.064214
0.064261
0.064633
0.065387
0.066507
0.067892
0.069367
0.070702
0.071704
0.072320
0.072644
0.072820
0.072951
0.073082
0.073224
0.073357
0.073487
0.073712
0.074184
0.074939
0.075842
0.076700
0.077354
0.077712
0.077806
0.077826
0.077995
0.078423
0.079123
0.080132
0.081493
0.083157
0.084985
0.086791
0.088328
0.089326
0.089668
0.089471
0.088907
0.088022
0.086826
0.085487
0.084356
0.083805
0.084015
0.084794
0.085586
0.085846
0.085661
0.085895
0.087486
0.090555
0.094338
0.097910
0.100804
0.103071
0.105065
0.107120
0.109104
0.110244
0.109683
0.107434
0.104761
0.103491
0.104769
0.108213
0.112081
0.114544
0.115111
0.114860
0.115262
0.116897
0.119202
0.121011
0.121302
0.120085
0.118859
0.119643
0.123224
0.128530
0.133564
0.136722
0.137668
0.137535
0.138078
0.140115
0.142855
0.144937
0.145863
0.146344
0.147740
0.151234
0.156951
0.163618
0.169448
0.173534
0.176150
0.177925
0.179271
0.180456
0.181532
0.182127
0.181792
0.180590
0.179084
0.177845
0.177308
0.177987
0.180458
0.185016
0.191603
0.200256
0.211301
0.224594
0.238744
0.251573
0.261381
0.267685
0.271156
0.273234
0.275445
0.278401
0.281292
0.282607
0.281399
0.277871
0.273163
0.269009
0.267096
0.268043
0.271340
0.276429
0.283028
0.290190
0.296117
0.299557
0.300928
0.301900
0.304407
0.309950
0.318877
0.330038
0.341758
0.353095
0.363701
0.372961
0.380161
0.385236
0.388425
0.389430
0.387996
0.385111
0.382470
0.380564
0.377967
0.372821
0.365016
0.357157
0.353468
0.357166
0.368301
0.384222
0.401953
0.419450
0.434925
0.446548
0.453470
0.456522
0.457604
0.458857
0.462746
0.471894
0.486683
0.502720
0.512577
0.510959
0.497760
0.476907
0.453824
0.433680
0.420554
0.417668
0.427641
0.450674
0.481894
0.512187
0.533022
0.540346
0.534650
0.519463
0.500513
0.484751
0.478134
0.483474
0.499998
0.523797
0.548349
0.566380
0.573041
0.567628
0.552358
0.530602
0.506868
0.487062
0.476622
0.477310
0.486006
0.496933
0.504670
0.505921
0.500752
0.492310
0.483821
0.476347
0.470065
0.465821
0.464532
0.467367
0.477250
0.496606
0.521967
0.544106
0.555272
0.554115
0.544109
0.531213
0.523120
0.525889
0.539184
0.557572
0.577033
0.596913
0.616626
0.634797
0.649356
0.653509
0.635385
0.589666
0.529229
0.478931
0.456847
0.463597
0.485887
0.506163
0.513750
0.512609
0.515894
0.530926
0.553175
0.574425
0.591084
0.604729
0.620274
0.644038
0.677812
0.712507
0.731724
0.724510
0.693972
0.654495
0.622452
0.607233
0.607357
0.613884
0.617366
0.613052
0.602356
0.589786
0.577792
0.565618
0.552614
0.539959
0.529242
0.522445
0.523014
0.533219
0.550204
0.567179
0.578572
0.583037
0.583332
0.585305
0.593868
0.606297
0.611675
0.600968
0.577860
0.558016
0.558152
0.585411
0.633071
0.684386
0.723260
0.743322
0.746654
0.734657
0.703506
0.651087
0.585845
0.524764
0.483425
0.470945
0.491817
0.544188
0.613669
0.675930
0.709715
0.706440
0.671913
0.624364
0.586911
0.576243
0.597067
0.644671
0.710044
0.784724
0.863888
0.943223
1.011257
1.050147
1.049170
1.014969
0.966720
0.923998
0.897653
0.886371
0.880609
0.872117
0.859490
0.845291
0.832002
0.820599
0.809504
0.796580
0.784285
0.779532
0.786385
0.800959
0.814949
0.822067
0.818756
0.802810
0.777211
0.752539
0.739998
0.742446
0.755031
0.774100
0.801839
0.841085
0.888257
0.931080
0.951971
0.938453
0.895010
0.842230
0.801047
0.779280
0.772371
0.770391
0.762714
0.742429
0.710565
0.673854
0.635447
0.590580
0.536285
0.483589
0.454350
0.463721
0.506481
0.561002
0.605604
0.631276
0.641074
0.640827
0.633593
0.621909
0.610151
0.601854
0.596971
0.594051
0.593026
0.593648
0.593354
0.588193
0.574609
0.550762
0.517504
0.478280
0.438416
0.404242
0.382299
0.379854
0.404039
0.455643
0.523518
0.589102
0.636656
0.655937
0.638709
0.583131
0.502025
0.417623
0.348283
0.305519
0.297568
0.326508
0.384485
0.458649
0.535989
0.600206
0.633597
0.630477
0.603131
0.568499
0.532674
0.490904
0.437941
0.374992
0.309163
0.251685
0.218867
0.226144
0.272148
0.334842
0.390409
0.429823
0.455931
0.476318
0.502198
0.541927
0.589870
0.630449
0.657112
0.679843
0.712663
0.760958
0.818391
0.866427
0.881517
0.854571
0.801560
0.750919
0.726375
0.740610
0.792403
0.864173
0.929624
0.971583
0.991214
0.997327
0.994099
0.984173
0.974263
0.970369
0.973046
0.982546
1.004823
1.046806
1.105890
1.168305
1.220549
1.259519
1.288651
1.311115
1.331670
1.357159
1.390925
1.431229
1.474123
1.513255
1.538798
1.543295
1.528946
1.502960
1.468632
1.428452
1.388700
1.352272
1.315141
1.276902
1.246434
1.231043
1.226363
1.221397
1.210754
1.200591
1.202563
1.222435
1.255166
1.287319
1.304279
1.302871
1.297985
1.309514
1.340232
1.371793
1.384804
1.375270
1.349715
1.318228
1.296744
1.299236
1.320008
1.337440
1.340387
1.338783
1.348068
1.375323
1.416286
1.452857
1.458392
1.417960
1.341896
1.253220
1.167630
1.091858
1.032963
0.999938
0.999442
1.035977
1.111515
1.212835
1.302596
1.341621
1.322829
1.272158
1.218781
1.174681
1.139110
1.106762
1.067220
1.012301
0.953215
0.916495
0.913811
0.929006
0.941643
0.948807
0.960842
0.993911
1.067753
1.190295
1.340056
1.477520
1.576220
1.632269
1.650292
1.642039
1.631578
1.634419
1.637752
1.621471
1.586371
1.547563
1.516011
1.497296
1.492809
1.492177
1.477830
1.447491
1.422352
1.424425
1.453180
1.486978
1.496767
1.457290
1.359128
1.219574
1.079505
0.982942
0.952220
0.978652
1.038093
1.113596
1.199040
1.285211
1.350687
1.368796
1.322365
1.211751
1.052891
0.873258
0.704074
0.565783
0.464361
0.403993
0.389087
0.410046
0.442657
0.465961
0.469807
0.447691
0.401448
0.352218
0.324189
0.319540
0.327974
0.350012
0.391777
0.445173
0.487608
0.497558
0.463972
0.392580
0.312997
0.260227
0.233610
0.193386
0.109171
-0.009934
-0.136487
-0.245938
-0.314807
-0.330222
-0.309400
-0.289251
-0.290358
-0.302969
-0.311757
-0.321165
-0.347767
-0.399810
-0.473831
-0.558301
-0.633115
-0.677590
-0.682463
-0.647729
-0.575188
-0.474743
-0.373276
-0.299359
-0.251842
-0.197913
-0.114387
-0.017132
0.064395
0.127704
0.198512
0.302767
0.449499
0.633546
0.838954
1.035934
1.187137
1.269003
1.288198
1.272683
1.244304
1.203335
1.138024
1.039169
0.906031
0.746906
0.576261
0.411463
0.263786
0.120518
-0.050540
-0.260257
-0.475607
-0.651680
-0.770058
-0.837797
-0.870640
-0.891567
-0.929215
-0.993744
-1.055886
-1.075504
-1.052787
-1.023219
-1.011576
-1.026571
-1.082764
-1.189606
-1.327924
-1.461535
-1.572834
-1.674366
-1.785359
-1.915925
-2.074095
-2.261287
-2.461688
-2.661442
-2.874052
-3.131152
-3.454091
-3.834636
-4.233166
-4.597940
-4.891482
-5.103379
-5.248503
-5.355016
-5.447407
-5.537875
-5.626802
-5.700841
-5.737168
-5.724959
-5.676168
-5.603349
-5.497939
-5.340665
-5.125236
-4.865389
-4.582194
-4.289876
-3.996765
-3.718841
-3.483533
-3.308960
-3.186395
-3.096184
-3.029723
-2.984062
-2.949231
-2.915742
-2.890204
-2.892726
-2.936711
-3.014687
-3.103029
-3.176267
-3.213804
-3.199470
-3.131665
-3.035879
-2.954589
-2.925556
-2.973753
-3.113341
-3.344631
-3.650049
-4.003720
-4.385550
-4.780606
-5.174604
-5.559895
-5.938005
-6.305366
-6.635181
-6.877502
-6.981720
-6.925311
-6.724701
-6.414595
-6.013495
-5.507844
-4.863560
-4.049169
-3.054434
-1.898393
-0.626111
0.704106
2.035945
3.322080
4.521141
5.595519
6.512279
7.241587
7.761665
8.071813
8.189953
8.128919
7.883578
7.452708
6.866869
6.173385
5.392356
4.509587
3.517239
2.442363
1.331005
0.220092
-0.870584
-1.933850
-2.973263
-4.000859
-5.027581
-6.049617
-7.043154
-7.974732
-8.814533
-9.537627
-10.118139
-10.523368
-10.706472
-10.610294
-10.193915
-9.458907
-8.448137
-7.223199
-5.840702
-4.340786
-2.749558
-1.083437
0.650436
2.445730
4.276966
6.087441
7.801504
9.352472
10.701172
11.829418
12.716600
13.322804
13.599113
13.520827
13.110082
12.422979
11.515878
10.421042
9.144571
7.685133
6.063450
4.334978
2.564630
0.788971
-0.990382
-2.779385
-4.563990
-6.307061
-7.963694
-9.497680
-10.891252
-12.140401
-13.233017
-14.134205
-14.807076
-15.249176
-15.493441
-15.571408
-15.489242
-15.241366
-14.838902
-14.325197
-13.766302
-13.219866
-12.706910
-12.214629
-11.723437
-11.224130
-10.722966
-10.258275
-9.907536
-9.748054
-9.804648
-10.045536
-10.418506
-10.876102
-11.377473
-11.885343
-12.364813
-12.786227
-13.129231
-13.378088
-13.519221
-13.554532
-13.509537
-13.417244
-13.297879
-13.156948
-12.993650
-12.806705
-12.598875
-12.380358
-12.167242
-11.976902
-11.823733
-11.717555
-11.667774
-11.691710
-11.819521
-12.088639
-12.529401
-13.153971
-13.954671
-14.905179
-15.964779
-17.090988
-18.248863
-19.404301
-20.513248
-21.522305
-22.378973
-23.043491
-23.490702
-23.697533
-23.637901
-23.300289
-22.703350
-21.887114
-20.894224
-19.762463
-18.525490
-17.208639
-15.831276
-14.426833
-13.052094
-11.769789
-10.629619
-9.664358
-8.896011
-8.343594
-8.024260
-7.942027
-8.072335
-8.364638
-8.767504
-9.249636
-9.794112
-10.375599
-10.950764
-11.476363
-11.930408
-12.304131
-12.577820
-12.718499
-12.697101
-12.496218
-12.107908
-11.536961
-10.806606
-9.955178
-9.027253
-8.069368
-7.127034
-6.239378
-5.437205
-4.744106
-4.176782
-3.743256
-3.435770
-3.225515
-3.077212
-2.976571
-2.933352
-2.951092
-3.003326
-3.044680
-3.037833
-2.964193
-2.814777
-2.583228
-2.273379
-1.909201
-1.531325
-1.180527
-0.880993
-0.634241
-0.423426
-0.226199
-0.039055
0.101987
0.133831
0.008185
-0.276044
-0.675586
-1.131059
-1.591827
-2.021139
-2.391692
-2.683797
-2.881749
-2.968252
-2.927593
-2.751398
-2.432599
-1.959366
-1.325050
-0.541484
0.362492
1.354789
2.412125
3.521632
4.673457
5.847873
7.003983
8.085584
9.043201
9.846798
10.478722
10.924764
11.175490
11.229345
11.089462
10.760664
10.254805
9.598024
8.827311
7.980933
7.100448
6.242382
5.474427
4.847139
4.370022
4.022131
3.781555
3.635903
3.572631
3.576390
3.642238
3.786448
4.036006
4.407833
4.903735
5.516198
6.220467
6.961042
7.664832
8.275600
8.769003
9.136448
9.365111
9.437799
9.348102
9.108851
8.742988
8.268304
7.693636
7.029911
6.300536
5.537457
4.771291
4.028876
3.335100
2.712103
2.177461
1.743466
1.415738
1.190859
1.057593
1.004345
1.027353
1.131333
1.320545
1.589294
1.922400
2.302440
2.713324
3.139421
3.565397
3.976142
4.355790
4.690145
4.972511
5.206415
5.401539
5.566373
5.706012
5.829776
5.961207
6.137254
6.394306
6.753783
7.219357
7.783615
8.433075
9.146526
9.894277
10.647321
11.390144
12.122301
12.847331
13.562450
14.258692
14.925935
15.553878
16.132387
16.655466
17.121628
17.527950
17.868223
18.139193
18.343983
18.485895
18.560818
18.557989
18.469519
18.300314
18.068539
17.795328
17.494555
17.172695
16.836477
16.499197
16.180067
15.899470
15.678518
15.541710
15.512719
15.605227
15.819958
16.147537
16.570114
17.062063
17.591415
18.121885
18.618900
19.058189
19.427504
19.720196
19.930599
20.054981
20.091377
20.037149
19.888817
19.642969
19.297743
18.859081
18.345646
17.780741
17.178782
16.544643
15.885288
15.216948
14.561352
13.938771
13.363488
12.842745
12.380593
11.983281
11.659681
11.417604
11.261471
11.191365
11.201299
11.279475
11.411739
11.582882
11.772792
11.953224
12.095479
12.186245
12.232633
12.251688
12.257140
12.249894
12.216574
12.139002
12.004230
11.804126
11.530510
11.176598
10.741678
10.232266
9.658812
9.029462
8.347607
7.617291
6.850701
6.070472
5.304049
4.574219
3.893773
3.268523
2.705169
2.214077
1.803576
1.474344
1.220798
1.036947
0.919414
0.863415
0.855979
0.875451
0.898173
0.902102
0.863729
0.757839
0.564846
0.279134
-0.089445
-0.522294
-0.999941
-1.504626
-2.019377
-2.526326
-3.004149
-3.427307
-3.770104
-4.013460
-4.149790
-4.181854
-4.116769
-3.963587
-3.736418
-3.454941
-3.140237
-2.811854
-2.488007
-2.186707
-1.926078
-1.722847
-1.589765
-1.533890
-1.557430
-1.661500
-1.849196
-2.122727
-2.476798
-2.898106
-3.373729
-3.897184
-4.463511
-5.062102
-5.678937
-6.302358
-6.919803
-7.510462
-8.049240
-8.519673
-8.917148
-9.238252
-9.474667
-9.622190
-9.691293
-9.705740
-9.692878
-9.675999
-9.673633
-9.700225
-9.762609
-9.859004
-9.985442
-10.140828
-10.323204
-10.523369
-10.726197
-10.919745
-11.100475
-11.267249
-11.413776
-11.530227
-11.607626
-11.636866
-11.606770
-11.505448
-11.323183
-11.055197
-10.703300
-10.275688
-9.784869
-9.243758
-8.661270
-8.042417
-7.396043
-6.740991
-6.100580
-5.493545
-4.933727
-4.434703
-4.010268
-3.670090
-3.416132
-3.244650
-3.151526
-3.133822
-3.187343
-3.306236
-3.484244
-3.713203
-3.981142
-4.274386
-4.580740
-4.888426
-5.182231
-5.441982
-5.646333
-5.781039
-5.843677
-5.838443
-5.768290
-5.633400
-5.434502
-5.177066
-4.874165
-4.544170
-4.202781
-3.856634
-3.505607
-3.150506
-2.796750
-2.452570
-2.126636
-1.825415
-1.550262
-1.298511
-1.067030
-0.851455
-0.642772
-0.428691
-0.199269
0.049633
0.316340
0.595028
0.879360
1.165858
1.453041
1.738114
2.016077
2.282470
2.537819
2.789490
3.047240
3.315295
3.588696
3.857150
4.110934
4.342726
4.546781
4.718656
4.854373
4.950185
5.006360
5.030256
5.032140
5.018632
4.991488
4.951177
4.900701
4.845711
4.790412
4.734454
4.674930
4.610610
4.543328
4.475843
4.410021
4.348150
4.294991
4.256935
4.239547
4.246965
4.282331
4.346161
4.434531
4.541420
4.662916
4.797415
4.943503
5.100922
5.271828
5.457340
5.654425
5.859810
6.076661
6.314816
6.582943
6.880084
7.194592
7.510124
7.811102
8.083412
8.314418
8.495504
8.623753
8.700163
8.726920
8.705969
8.638373
8.524085
8.362950
8.156988
7.911698
7.633116
7.321738
6.970262
6.569119
6.114479
5.610328
5.063296
4.478093
3.859703
3.217311
2.563410
1.910433
1.269720
0.652526
0.069997
-0.468848
-0.957852
-1.390343
-1.756620
-2.048043
-2.261992
-2.400856
-2.468804
-2.469909
-2.406842
-2.282039
-2.100851
-1.871560
-1.602267
-1.300338
-0.975190
-0.638882
-0.302831
0.024472
0.336470
0.627622
0.894854
1.139403
1.365660
1.576368
1.768173
1.931772
2.056083
2.132454
2.156077
2.125779
2.044089
1.915939
1.746804
1.544530
1.321321
1.089232
0.853774
0.614452
0.369910
0.118857
-0.143504
-0.425847
-0.735267
