EVENT_NAME: CENTRAL_ITALY
EVENT_ID: EMSC-20161026_0000077
EVENT_DATE_YYYYMMDD: 20161026
EVENT_TIME_HHMMSS: 171036
EVENT_LATITUDE_DEGREE: 42.8802
EVENT_LONGITUDE_DEGREE: 13.1275
EVENT_DEPTH_KM: 8.7
HYPOCENTER_REFERENCE: INGV-CNT_Seismic_Bulletin
MAGNITUDE_W: 5.4
MAGNITUDE_W_REFERENCE: INGV-webservice
MAGNITUDE_L: 5.4
MAGNITUDE_L_REFERENCE: INGV-CNT_Seismic_Bulletin
FOCAL_MECHANISM: NF
NETWORK: IT
STATION_CODE: NRC
STATION_NAME: NORCIA
STATION_LATITUDE_DEGREE: 42.792543
STATION_LONGITUDE_DEGREE: 13.096475
STATION_ELEVATION_M: 616
LOCATION: 
SENSOR_DEPTH_M: 0.0
VS30_M/S: 687
SITE_CLASSIFICATION_EC8: B
MORPHOLOGIC_CLASSIFICATION: SL
EPICENTRAL_DISTANCE_KM: 10.1
EARTHQUAKE_BACKAZIMUTH_DEGREE: 14.6
DATE_TIME_FIRST_SAMPLE_YYYYMMDD_HHMMSS: 20161026_171032.909
DATE_TIME_FIRST_SAMPLE_PRECISION: milliseconds
SAMPLING_INTERVAL_S: 0.005000
NDATA: 10588
DURATION_S: 52.940
STREAM: HGN
UNITS: cm
INSTRUMENT: sensor = Unknown [Unknown] | digitizer = Unknown [Unknown]
INSTRUMENT_ANALOG/DIGITAL: D
INSTRUMENTAL_FREQUENCY_HZ: 
INSTRUMENTAL_DAMPING: 
FULL_SCALE_G: 
N_BIT_DIGITAL_CONVERTER: 
PGD_CM: 1.590722
TIME_PGD_S: 9.140000
BASELINE_CORRECTION: BASELINE REMOVED
FILTER_TYPE: BUTTERWORTH
FILTER_ORDER: 2
LOW_CUT_FREQUENCY_HZ: 0.070
HIGH_CUT_FREQUENCY_HZ: 30.000
LATE/NORMAL_TRIGGERED: NT
DATABASE_VERSION: DYNA 1.0
HEADER_FORMAT: DYNA 1.2
DATA_TYPE: DISPLACEMENT
PROCESSING: manual (Paolucci et al., 2011)
DATA_TIMESTAMP_YYYYMMDD_HHMMSS: 20161027_111110.997
DATA_LICENSE: CC-BY3_0-IT (http://creativecommons.org/licenses/by/3.0/deed.en)
DATA_CITATION: ESM working group (2015), European Strong-Motion database, version 0.1, Network Activity 3: Networking acceleration networks and SM data users. Project NERA (www.nera-eu.org)
DATA_CREATOR: ESM working group
ORIGINAL_DATA_MEDIATOR_CITATION: Ufficio Rischio Sismico e Vulcanico del Dipartimento della Protezione Civile (http://www.protezionecivile.gov.it/)
ORIGINAL_DATA_MEDIATOR: Rete Accelerometrica Nazionale - RAN Download (http://www.mot1.it/randownload/)
ORIGINAL_DATA_CREATOR_CITATION: Italian Strong Motion Network, Italian Civil Protection Department http://www.protezionecivile.gov.it
ORIGINAL_DATA_CREATOR: network: IT (Italian Strong Motion Network); owner: Dipartimento Della Protezione Civile
USER1: /home/dyna/processing-itaca/processing.py /var/www/processing//tmp/felicetta//IT.NRC..HGE.D.20161026.171036.X.ACC.ASC /var/www/processing//tmp/felicetta//IT.NRC..HGN.D.20161026.171036.X.ACC.ASC /var/www/processing//tmp/felicetta//IT.NRC..HGZ.D.20161026.171036.X.ACC.ASC --tmp /var/www/processing//tmp/felicetta/ --le 0.07 --he 30.000 --ln 0.07 --hn 30.000 --lz 0.07 --hz 30.000 --fo 2 --ca 0 --cz 70 --ta 5 --tz 5 --mf 1 --rf 0 --tr NT
USER2: 
USER3: 
USER4: 
USER5: 
[...]
6.729144e-02
6.744483e-02
6.759817e-02
6.775154e-02
6.790509e-02
6.805894e-02
6.821320e-02
6.836791e-02
6.852297e-02
6.867825e-02
6.883360e-02
6.898895e-02
6.914430e-02
6.929972e-02
6.945529e-02
6.961102e-02
6.976691e-02
6.992291e-02
7.007906e-02
7.023539e-02
7.039195e-02
7.054878e-02
7.070591e-02
7.086329e-02
7.102084e-02
7.117845e-02
7.133600e-02
7.149341e-02
7.165071e-02
7.180799e-02
7.196544e-02
7.212323e-02
7.228144e-02
7.244000e-02
7.259878e-02
7.275766e-02
7.291658e-02
7.307549e-02
7.323444e-02
7.339345e-02
7.355259e-02
7.371186e-02
7.387127e-02
7.403077e-02
7.419035e-02
7.435005e-02
7.450989e-02
7.466992e-02
7.483019e-02
7.499071e-02
7.515145e-02
7.531235e-02
7.547334e-02
7.563440e-02
7.579560e-02
7.595699e-02
7.611859e-02
7.628035e-02
7.644217e-02
7.660394e-02
7.676563e-02
7.692730e-02
7.708902e-02
7.725089e-02
7.741293e-02
7.757508e-02
7.773733e-02
7.789975e-02
7.806238e-02
7.822521e-02
7.838818e-02
7.855129e-02
7.871458e-02
7.887804e-02
7.904162e-02
7.920525e-02
7.936884e-02
7.953234e-02
7.969580e-02
7.985934e-02
8.002313e-02
8.018726e-02
8.035171e-02
8.051643e-02
8.068131e-02
8.084627e-02
8.101131e-02
8.117646e-02
8.134178e-02
8.150730e-02
8.167301e-02
8.183890e-02
8.200492e-02
8.217096e-02
8.233690e-02
8.250272e-02
8.266848e-02
8.283433e-02
8.300033e-02
8.316651e-02
8.333285e-02
8.349933e-02
8.366594e-02
8.383270e-02
8.399962e-02
8.416670e-02
8.433392e-02
8.450129e-02
8.466882e-02
8.483654e-02
8.500447e-02
8.517254e-02
8.534066e-02
8.550875e-02
8.567672e-02
8.584454e-02
8.601224e-02
8.617993e-02
8.634776e-02
8.651592e-02
8.668455e-02
8.685373e-02
8.702336e-02
8.719325e-02
8.736321e-02
8.753308e-02
8.770275e-02
8.787215e-02
8.804132e-02
8.821039e-02
8.837949e-02
8.854878e-02
8.871835e-02
8.888826e-02
8.905852e-02
8.922907e-02
8.939977e-02
8.957047e-02
8.974107e-02
8.991153e-02
9.008186e-02
9.025211e-02
9.042237e-02
9.059272e-02
9.076329e-02
9.093423e-02
9.110567e-02
9.127760e-02
9.144990e-02
9.162230e-02
9.179458e-02
9.196660e-02
9.213834e-02
9.230986e-02
9.248129e-02
9.265279e-02
9.282449e-02
9.299648e-02
9.316879e-02
9.334141e-02
9.351427e-02
9.368727e-02
9.386027e-02
9.403320e-02
9.420609e-02
9.437901e-02
9.455200e-02
9.472499e-02
9.489789e-02
9.507070e-02
9.524364e-02
9.541697e-02
9.559086e-02
9.576528e-02
9.594004e-02
9.611484e-02
9.628936e-02
9.646336e-02
9.663676e-02
9.680968e-02
9.698242e-02
9.715536e-02
9.732877e-02
9.750268e-02
9.767696e-02
9.785149e-02
9.802614e-02
9.820080e-02
9.837536e-02
9.854988e-02
9.872451e-02
9.889931e-02
9.907415e-02
9.924882e-02
9.942324e-02
9.959746e-02
9.977162e-02
9.994590e-02
1.001205e-01
1.002955e-01
1.004708e-01
1.006461e-01
1.008215e-01
1.009967e-01
1.011717e-01
1.013466e-01
1.015214e-01
1.016962e-01
1.018712e-01
1.020463e-01
1.022218e-01
1.023976e-01
1.025736e-01
1.027498e-01
1.029260e-01
1.031021e-01
1.032779e-01
1.034536e-01
1.036289e-01
1.038040e-01
1.039790e-01
1.041540e-01
1.043293e-01
1.045048e-01
1.046806e-01
1.048566e-01
1.050328e-01
1.052091e-01
1.053855e-01
1.055620e-01
1.057385e-01
1.059149e-01
1.060913e-01
1.062677e-01
1.064441e-01
1.066203e-01
1.067963e-01
1.069721e-01
1.071478e-01
1.073235e-01
1.074993e-01
1.076754e-01
1.078518e-01
1.080286e-01
1.082056e-01
1.083826e-01
1.085592e-01
1.087354e-01
1.089113e-01
1.090873e-01
1.092636e-01
1.094406e-01
1.096183e-01
1.097963e-01
1.099743e-01
1.101520e-01
1.103290e-01
1.105052e-01
1.106806e-01
1.108558e-01
1.110311e-01
1.112071e-01
1.113840e-01
1.115614e-01
1.117391e-01
1.119165e-01
1.120934e-01
1.122696e-01
1.124454e-01
1.126212e-01
1.127974e-01
1.129741e-01
1.131512e-01
1.133285e-01
1.135059e-01
1.136829e-01
1.138596e-01
1.140359e-01
1.142120e-01
1.143881e-01
1.145643e-01
1.147406e-01
1.149168e-01
1.150930e-01
1.152691e-01
1.154452e-01
1.156214e-01
1.157975e-01
1.159737e-01
1.161500e-01
1.163265e-01
1.165032e-01
1.166800e-01
1.168570e-01
1.170339e-01
1.172105e-01
1.173868e-01
1.175626e-01
1.177380e-01
1.179132e-01
1.180884e-01
1.182639e-01
1.184396e-01
1.186157e-01
1.187920e-01
1.189684e-01
1.191448e-01
1.193210e-01
1.194970e-01
1.196728e-01
1.198485e-01
1.200240e-01
1.201994e-01
1.203748e-01
1.205501e-01
1.207255e-01
1.209008e-01
1.210762e-01
1.212515e-01
1.214268e-01
1.216021e-01
1.217772e-01
1.219524e-01
1.221275e-01
1.223025e-01
1.224775e-01
1.226523e-01
1.228271e-01
1.230018e-01
1.231765e-01
1.233511e-01
1.235257e-01
1.237003e-01
1.238747e-01
1.240491e-01
1.242234e-01
1.243977e-01
1.245721e-01
1.247466e-01
1.249211e-01
1.250956e-01
1.252699e-01
1.254440e-01
1.256181e-01
1.257922e-01
1.259662e-01
1.261403e-01
1.263140e-01
1.264870e-01
1.266590e-01
1.268291e-01
1.269963e-01
1.271596e-01
1.273179e-01
1.274700e-01
1.276157e-01
1.277549e-01
1.278884e-01
1.280174e-01
1.281434e-01
1.282681e-01
1.283943e-01
1.285249e-01
1.286633e-01
1.288125e-01
1.289748e-01
1.291503e-01
1.293377e-01
1.295343e-01
1.297376e-01
1.299457e-01
1.301571e-01
1.303703e-01
1.305835e-01
1.307948e-01
1.310022e-01
1.312048e-01
1.314028e-01
1.315973e-01
1.317891e-01
1.319774e-01
1.321600e-01
1.323339e-01
1.324969e-01
1.326483e-01
1.327891e-01
1.329210e-01
1.330449e-01
1.331612e-01
1.332695e-01
1.333705e-01
1.334663e-01
1.335600e-01
1.336552e-01
1.337540e-01
1.338568e-01
1.339620e-01
1.340673e-01
1.341693e-01
1.342653e-01
1.343525e-01
1.344290e-01
1.344927e-01
1.345424e-01
1.345775e-01
1.345978e-01
1.346043e-01
1.345987e-01
1.345837e-01
1.345633e-01
1.345426e-01
1.345276e-01
1.345241e-01
1.345356e-01
1.345628e-01
1.346042e-01
1.346573e-01
1.347198e-01
1.347913e-01
1.348743e-01
1.349731e-01
1.350928e-01
1.352379e-01
1.354121e-01
1.356165e-01
1.358491e-01
1.361043e-01
1.363750e-01
1.366533e-01
1.369314e-01
1.372018e-01
1.374568e-01
1.376892e-01
1.378930e-01
1.380638e-01
1.381974e-01
1.382894e-01
1.383342e-01
1.383256e-01
1.382583e-01
1.381299e-01
1.379430e-01
1.377059e-01
1.374316e-01
1.371338e-01
1.368219e-01
1.364980e-01
1.361586e-01
1.357975e-01
1.354096e-01
1.349933e-01
1.345504e-01
1.340838e-01
1.335939e-01
1.330775e-01
1.325295e-01
1.319456e-01
1.313245e-01
1.306678e-01
1.299798e-01
1.292649e-01
1.285259e-01
1.277638e-01
1.269805e-01
1.261797e-01
1.253659e-01
1.245430e-01
1.237117e-01
1.228662e-01
1.219912e-01
1.210633e-01
1.200550e-01
1.189400e-01
1.176973e-01
1.163134e-01
1.147852e-01
1.131209e-01
1.113405e-01
1.094739e-01
1.075560e-01
1.056199e-01
1.036912e-01
1.017852e-01
9.990634e-02
9.804930e-02
9.620467e-02
9.436644e-02
9.253436e-02
9.070689e-02
8.887206e-02
8.700789e-02
8.509514e-02
8.313374e-02
8.115214e-02
7.920408e-02
7.735127e-02
7.563719e-02
7.406544e-02
7.259779e-02
7.117159e-02
6.971901e-02
6.817359e-02
6.646758e-02
6.453147e-02
6.229932e-02
5.971757e-02
5.675713e-02
5.342668e-02
4.977514e-02
4.587277e-02
4.177947e-02
3.752407e-02
3.310762e-02
2.852481e-02
2.378900e-02
1.894692e-02
1.407369e-02
9.247921e-03
4.521462e-03
-9.366150e-05
-4.610770e-03
-9.042115e-03
-1.338630e-02
-1.763811e-02
-2.180577e-02
-2.591607e-02
-3.000271e-02
-3.408909e-02
-3.817978e-02
-4.226793e-02
-4.635596e-02
-5.047879e-02
-5.471269e-02
-5.915787e-02
-6.389931e-02
-6.896747e-02
-7.432160e-02
-7.986534e-02
-8.548807e-02
-9.111255e-02
-9.672277e-02
-1.023541e-01
-1.080498e-01
-1.138145e-01
-1.195982e-01
-1.253143e-01
-1.308704e-01
-1.361928e-01
-1.412383e-01
-1.459923e-01
-1.504596e-01
-1.546628e-01
-1.586481e-01
-1.624835e-01
-1.662420e-01
-1.699863e-01
-1.737632e-01
-1.776016e-01
-1.815062e-01
-1.854569e-01
-1.894179e-01
-1.933463e-01
-1.971918e-01
-2.008962e-01
-2.044047e-01
-2.076811e-01
-2.107208e-01
-2.135620e-01
-2.162842e-01
-2.189834e-01
-2.217361e-01
-2.245767e-01
-2.274965e-01
-2.304540e-01
-2.333918e-01
-2.362552e-01
-2.390032e-01
-2.416029e-01
-2.440257e-01
-2.462629e-01
-2.483538e-01
-2.503987e-01
-2.525451e-01
-2.549523e-01
-2.577450e-01
-2.609677e-01
-2.645589e-01
-2.683624e-01
-2.721653e-01
-2.757459e-01
-2.789186e-01
-2.815632e-01
-2.836306e-01
-2.851334e-01
-2.861356e-01
-2.867481e-01
-2.871241e-01
-2.874424e-01
-2.878779e-01
-2.885650e-01
-2.895709e-01
-2.908875e-01
-2.924469e-01
-2.941577e-01
-2.959492e-01
-2.978009e-01
-2.997480e-01
-3.018714e-01
-3.042804e-01
-3.070894e-01
-3.103908e-01
-3.142325e-01
-3.186095e-01
-3.234691e-01
-3.287205e-01
-3.342378e-01
-3.398646e-01
-3.454328e-01
-3.507937e-01
-3.558439e-01
-3.605286e-01
-3.648244e-01
-3.687164e-01
-3.721868e-01
-3.752212e-01
-3.778226e-01
-3.800234e-01
-3.818920e-01
-3.835374e-01
-3.851027e-01
-3.867463e-01
-3.886174e-01
-3.908364e-01
-3.934768e-01
-3.965481e-01
-3.999895e-01
-4.036830e-01
-4.074830e-01
-4.112458e-01
-4.148510e-01
-4.182135e-01
-4.212878e-01
-4.240618e-01
-4.265474e-01
-4.287833e-01
-4.308444e-01
-4.328387e-01
-4.348874e-01
-4.371062e-01
-4.395931e-01
-4.424153e-01
-4.455964e-01
-4.491129e-01
-4.529043e-01
-4.568830e-01
-4.609374e-01
-4.649445e-01
-4.688024e-01
-4.724597e-01
-4.759140e-01
-4.791934e-01
-4.823473e-01
-4.854394e-01
-4.885309e-01
-4.916620e-01
-4.948495e-01
-4.980975e-01
-5.013955e-01
-5.047007e-01
-5.079267e-01
-5.109576e-01
-5.136842e-01
-5.160451e-01
-5.180601e-01
-5.198454e-01
-5.215971e-01
-5.235406e-01
-5.258674e-01
-5.286938e-01
-5.320601e-01
-5.359620e-01
-5.403842e-01
-5.453111e-01
-5.507061e-01
-5.564898e-01
-5.625399e-01
-5.687149e-01
-5.748822e-01
-5.809382e-01
-5.868165e-01
-5.924859e-01
-5.979376e-01
-6.031672e-01
-6.081652e-01
-6.129221e-01
-6.174405e-01
-6.217449e-01
-6.258830e-01
-6.299199e-01
-6.339248e-01
-6.379533e-01
-6.420322e-01
-6.461579e-01
-6.503089e-01
-6.544592e-01
-6.585860e-01
-6.626709e-01
-6.667010e-01
-6.706653e-01
-6.745454e-01
-6.783126e-01
-6.819410e-01
-6.854273e-01
-6.887938e-01
-6.920742e-01
-6.952963e-01
-6.984777e-01
-7.016307e-01
-7.047704e-01
-7.079273e-01
-7.111576e-01
-7.145367e-01
-7.181278e-01
-7.219506e-01
-7.259735e-01
-7.301342e-01
-7.343704e-01
-7.386358e-01
-7.428880e-01
-7.470630e-01
-7.510612e-01
-7.547563e-01
-7.580180e-01
-7.607378e-01
-7.628504e-01
-7.643499e-01
-7.652890e-01
-7.657560e-01
-7.658446e-01
-7.656336e-01
-7.651835e-01
-7.645433e-01
-7.637687e-01
-7.629401e-01
-7.621576e-01
-7.615113e-01
-7.610556e-01
-7.608086e-01
-7.607701e-01
-7.609321e-01
-7.612736e-01
-7.617511e-01
-7.622954e-01
-7.628163e-01
-7.632118e-01
-7.633827e-01
-7.632542e-01
-7.627999e-01
-7.620568e-01
-7.611100e-01
-7.600511e-01
-7.589296e-01
-7.577374e-01
-7.564358e-01
-7.550029e-01
-7.534633e-01
-7.518936e-01
-7.504110e-01
-7.491546e-01
-7.482676e-01
-7.478861e-01
-7.481270e-01
-7.490651e-01
-7.507040e-01
-7.529608e-01
-7.556777e-01
-7.586531e-01
-7.616698e-01
-7.645161e-01
-7.670148e-01
-7.690564e-01
-7.706134e-01
-7.717263e-01
-7.724753e-01
-7.729574e-01
-7.732765e-01
-7.735409e-01
-7.738538e-01
-7.742942e-01
-7.748980e-01
-7.756499e-01
-7.764893e-01
-7.773307e-01
-7.780837e-01
-7.786598e-01
-7.789707e-01
-7.789239e-01
-7.784255e-01
-7.773876e-01
-7.757361e-01
-7.734185e-01
-7.704163e-01
-7.667569e-01
-7.625138e-01
-7.577942e-01
-7.527249e-01
-7.474362e-01
-7.420391e-01
-7.366162e-01
-7.312383e-01
-7.259922e-01
-7.209845e-01
-7.163078e-01
-7.120054e-01
-7.080684e-01
-7.044569e-01
-7.011274e-01
-6.980613e-01
-6.952901e-01
-6.928980e-01
-6.909994e-01
-6.896998e-01
-6.890584e-01
-6.890720e-01
-6.896985e-01
-6.909116e-01
-6.927547e-01
-6.953610e-01
-6.989289e-01
-7.036717e-01
-7.097733e-01
-7.173690e-01
-7.265437e-01
-7.373294e-01
-7.496901e-01
-7.635015e-01
-7.785376e-01
-7.944704e-01
-8.108799e-01
-8.272730e-01
-8.431168e-01
-8.578850e-01
-8.711060e-01
-8.823940e-01
-8.914512e-01
-8.980500e-01
-9.020058e-01
-9.031566e-01
-9.013524e-01
-8.964569e-01
-8.883675e-01
-8.770478e-01
-8.625564e-01
-8.450572e-01
-8.248113e-01
-8.021601e-01
-7.775024e-01
-7.512632e-01
-7.238457e-01
-6.955742e-01
-6.666459e-01
-6.371032e-01
-6.068295e-01
-5.755638e-01
-5.429333e-01
-5.085002e-01
-4.718134e-01
-4.324530e-01
-3.900669e-01
-3.443975e-01
-2.952866e-01
-2.426541e-01
-1.864639e-01
-1.267027e-01
-6.338938e-02
3.392875e-03
7.346769e-02
1.465628e-01
2.223375e-01
3.004212e-01
3.804358e-01
4.619916e-01
5.446748e-01
6.280416e-01
7.116113e-01
7.948486e-01
8.771448e-01
9.578188e-01
1.036142e+00
1.111373e+00
1.182792e+00
1.249712e+00
1.311512e+00
1.367676e+00
1.417826e+00
1.461733e+00
1.499273e+00
1.530385e+00
1.555042e+00
1.573261e+00
1.585110e+00
1.590722e+00
1.590298e+00
1.584129e+00
1.572616e+00
1.556274e+00
1.535711e+00
1.511607e+00
1.484693e+00
1.455737e+00
1.425523e+00
1.394816e+00
1.364325e+00
1.334688e+00
1.306459e+00
1.280093e+00
1.255920e+00
1.234119e+00
1.214691e+00
1.197466e+00
1.182120e+00
1.168220e+00
1.155272e+00
1.142779e+00
1.130295e+00
1.117459e+00
1.104004e+00
1.089722e+00
1.074432e+00
1.057945e+00
1.040037e+00
1.020468e+00
9.990094e-01
9.755084e-01
9.499182e-01
9.222952e-01
8.927692e-01
8.615178e-01
8.287635e-01
7.947964e-01
7.600028e-01
7.248686e-01
6.899461e-01
6.557938e-01
6.229114e-01
5.916905e-01
5.623964e-01
5.351672e-01
5.100204e-01
4.868728e-01
4.655794e-01
4.459805e-01
4.279303e-01
4.112949e-01
3.959199e-01
3.815920e-01
3.680254e-01
3.548848e-01
3.418298e-01
3.285574e-01
3.148339e-01
3.005185e-01
2.855749e-01
2.700649e-01
2.541211e-01
2.379103e-01
2.216001e-01
2.053430e-01
1.892796e-01
1.735499e-01
1.583023e-01
1.436950e-01
1.298880e-01
1.170245e-01
1.052091e-01
9.449899e-02
8.491415e-02
7.646509e-02
6.918703e-02
6.316808e-02
5.856259e-02
5.558996e-02
5.452114e-02
5.565154e-02
5.926124e-02
6.556728e-02
7.467547e-02
8.654137e-02
1.009547e-01
1.175605e-01
1.359171e-01
1.555633e-01
1.760660e-01
1.970358e-01
2.181222e-01
2.389966e-01
2.593397e-01
2.788458e-01
2.972468e-01
3.143384e-01
3.299863e-01
3.441088e-01
3.566498e-01
3.675638e-01
3.768238e-01
3.844503e-01
3.905396e-01
3.952787e-01
3.989386e-01
4.018415e-01
4.043060e-01
4.065924e-01
4.088718e-01
4.112307e-01
4.136988e-01
4.162812e-01
4.189794e-01
4.217986e-01
4.247472e-01
4.278320e-01
4.310586e-01
4.344381e-01
4.379939e-01
4.417607e-01
4.457706e-01
4.500352e-01
4.545359e-01
4.592333e-01
4.640882e-01
4.690856e-01
4.742497e-01
4.796475e-01
4.853835e-01
4.915968e-01
4.984660e-01
5.062121e-01
5.150881e-01
5.253548e-01
5.372554e-01
5.509963e-01
5.667295e-01
5.845285e-01
6.043571e-01
6.260494e-01
6.493173e-01
6.737803e-01
6.990043e-01
7.245361e-01
7.499273e-01
7.747520e-01
7.986206e-01
8.211879e-01
8.421552e-01
8.612690e-01
8.783254e-01
8.931745e-01
9.057158e-01
9.158846e-01
9.236409e-01
9.289753e-01
9.319307e-01
9.326235e-01
9.312455e-01
9.280464e-01
9.233056e-01
9.173108e-01
9.103491e-01
9.027082e-01
8.946714e-01
8.864920e-01
8.783569e-01
8.703610e-01
8.625109e-01
8.547506e-01
8.469853e-01
8.390855e-01
8.308835e-01
8.221784e-01
8.127553e-01
8.024057e-01
7.909391e-01
7.781858e-01
7.639994e-01
7.482658e-01
7.309128e-01
7.119154e-01
6.912955e-01
6.691229e-01
6.455159e-01
6.206396e-01
5.947000e-01
5.679362e-01
5.406123e-01
5.130171e-01
4.854679e-01
4.583133e-01
4.319305e-01
4.067171e-01
3.830795e-01
3.614129e-01
3.420717e-01
3.253363e-01
3.113874e-01
3.002992e-01
2.920519e-01
2.865506e-01
2.836422e-01
2.831243e-01
2.847564e-01
2.882702e-01
2.933716e-01
2.997279e-01
3.069579e-01
3.146410e-01
3.223416e-01
3.296300e-01
3.360939e-01
3.413458e-01
3.450322e-01
3.468436e-01
3.465230e-01
3.438653e-01
3.387115e-01
3.309434e-01
3.204882e-01
3.073330e-01
2.915440e-01
2.732758e-01
2.527602e-01
2.302786e-01
2.061379e-01
1.806618e-01
1.541872e-01
1.270580e-01
9.961154e-02
7.216557e-02
4.501050e-02
1.840789e-02
-7.406960e-03
-3.222093e-02
-5.584270e-02
-7.810776e-02
-9.888318e-02
-1.180630e-01
-1.355544e-01
-1.512711e-01
-1.651511e-01
-1.771872e-01
-1.874425e-01
-1.960362e-01
-2.031167e-01
-2.088461e-01
-2.133979e-01
-2.169477e-01
-2.196488e-01
-2.216084e-01
-2.228844e-01
-2.234994e-01
-2.234598e-01
-2.227664e-01
-2.214116e-01
-2.193690e-01
-2.165876e-01
-2.129971e-01
-2.085221e-01
-2.030945e-01
-1.966570e-01
-1.891641e-01
-1.805926e-01
-1.709614e-01
-1.603489e-01
-1.488942e-01
-1.367811e-01
-1.242158e-01
-1.114120e-01
-9.858498e-02
-8.595275e-02
-7.373367e-02
-6.213821e-02
-5.135986e-02
-4.157598e-02
-3.295588e-02
-2.566013e-02
-1.982239e-02
-1.552069e-02
-1.275300e-02
-1.142903e-02
-1.138046e-02
-1.238371e-02
-1.418644e-02
-1.653060e-02
-1.916904e-02
-2.187726e-02
-2.446360e-02
-2.677791e-02
-2.871339e-02
-3.019754e-02
-3.117635e-02
-3.160076e-02
-3.141989e-02
-3.058033e-02
-2.902913e-02
-2.671789e-02
-2.360755e-02
-1.967314e-02
-1.490622e-02
-9.313517e-03
-2.915134e-03
4.253951e-03
1.214101e-02
2.067201e-02
2.974651e-02
3.923666e-02
4.899767e-02
5.888697e-02
6.878382e-02
7.860293e-02
8.829944e-02
9.786393e-02
1.073085e-01
1.166485e-01
1.258866e-01
1.350060e-01
1.439674e-01
1.527065e-01
1.611334e-01
1.691310e-01
1.765572e-01
1.832486e-01
1.890284e-01
1.937139e-01
1.971302e-01
1.991273e-01
1.995931e-01
1.984565e-01
1.956842e-01
1.912786e-01
1.852789e-01
1.777593e-01
1.688200e-01
1.585693e-01
1.471060e-01
1.345157e-01
1.208804e-01
1.062897e-01
9.084159e-02
7.463402e-02
5.776115e-02
4.032134e-02
2.243059e-02
4.227176e-03
-1.413823e-02
-3.251777e-02
-5.077562e-02
-6.879271e-02
-8.647704e-02
-1.037811e-01
-1.207153e-01
-1.373482e-01
-1.537925e-01
-1.701832e-01
-1.866493e-01
-2.032869e-01
-2.201410e-01
-2.372052e-01
-2.544368e-01
-2.717743e-01
-2.891421e-01
-3.064444e-01
-3.235622e-01
-3.403612e-01
-3.567080e-01
-3.724892e-01
-3.876239e-01
-4.020659e-01
-4.157955e-01
-4.288091e-01
-4.411072e-01
-4.526872e-01
-4.635417e-01
-4.736651e-01
-4.830620e-01
-4.917518e-01
-4.997650e-01
-5.071356e-01
-5.138940e-01
-5.200671e-01
-5.256814e-01
-5.307646e-01
-5.353451e-01
-5.394525e-01
-5.431191e-01
