EVENT_NAME: CENTRAL_ITALY
EVENT_ID: EMSC-20160824_0000013
EVENT_DATE_YYYYMMDD: 20160824
EVENT_TIME_HHMMSS: 023329
EVENT_LATITUDE_DEGREE: 42.7935
EVENT_LONGITUDE_DEGREE: 13.1537
EVENT_DEPTH_KM: 8.7
HYPOCENTER_REFERENCE: INGV-webservice
MAGNITUDE_W: 5.3
MAGNITUDE_W_REFERENCE: INGV-webservice
MAGNITUDE_L: 5.4
MAGNITUDE_L_REFERENCE: INGV-webservice
FOCAL_MECHANISM: NF
NETWORK: IT
STATION_CODE: NRC
STATION_NAME: NORCIA
STATION_LATITUDE_DEGREE: 42.792543
STATION_LONGITUDE_DEGREE: 13.096475
STATION_ELEVATION_M: 616
LOCATION: 
SENSOR_DEPTH_M: 0.0
VS30_M/S: 687
SITE_CLASSIFICATION_EC8: B
MORPHOLOGIC_CLASSIFICATION: SL
EPICENTRAL_DISTANCE_KM: 4.7
EARTHQUAKE_BACKAZIMUTH_DEGREE: 88.7
DATE_TIME_FIRST_SAMPLE_YYYYMMDD_HHMMSS: 20160824_023324.704
DATE_TIME_FIRST_SAMPLE_PRECISION: milliseconds
SAMPLING_INTERVAL_S: 0.005000
NDATA: 9429
DURATION_S: 47.145
STREAM: HGN
UNITS: cm
INSTRUMENT: sensor = Unknown [Unknown] | digitizer = Unknown [Unknown]
INSTRUMENT_ANALOG/DIGITAL: D
INSTRUMENTAL_FREQUENCY_HZ: 
INSTRUMENTAL_DAMPING: 
FULL_SCALE_G: 
N_BIT_DIGITAL_CONVERTER: 
PGD_CM: 0.854126
TIME_PGD_S: 12.325000
BASELINE_CORRECTION: BASELINE REMOVED
FILTER_TYPE: BUTTERWORTH
FILTER_ORDER: 2
LOW_CUT_FREQUENCY_HZ: 0.070
HIGH_CUT_FREQUENCY_HZ: 30.000
LATE/NORMAL_TRIGGERED: NT
DATABASE_VERSION: DYNA 1.0
HEADER_FORMAT: DYNA 1.2
DATA_TYPE: DISPLACEMENT
PROCESSING: manual (Paolucci et al., 2011)
DATA_TIMESTAMP_YYYYMMDD_HHMMSS: 20160825_170450.371
DATA_LICENSE: CC-BY3_0-IT (http://creativecommons.org/licenses/by/3.0/deed.en)
DATA_CITATION: ESM working group (2015), European Strong-Motion database, version 0.1, Network Activity 3: Networking acceleration networks and SM data users. Project NERA (www.nera-eu.org)
DATA_CREATOR: ESM working group
ORIGINAL_DATA_MEDIATOR_CITATION: Ufficio Rischio Sismico e Vulcanico del Dipartimento della Protezione Civile (http://www.protezionecivile.gov.it/)
ORIGINAL_DATA_MEDIATOR: Rete Accelerometrica Nazionale - RAN Download (http://www.mot1.it/randownload/)
ORIGINAL_DATA_CREATOR_CITATION: Italian Strong Motion Network, Italian Civil Protection Department http://www.protezionecivile.gov.it
ORIGINAL_DATA_CREATOR: network: IT (Italian Strong Motion Network); owner: Dipartimento Della Protezione Civile
USER1: /home/dyna/processing-itaca/processing.py /var/www/processing//tmp/Maria//IT.NRC..HGE.D.20160824.023329.X.ACC.ASC /var/www/processing//tmp/Maria//IT.NRC..HGN.D.20160824.023329.X.ACC.ASC /var/www/processing//tmp/Maria//IT.NRC..HGZ.D.20160824.023329.X.ACC.ASC --tmp /var/www/processing//tmp/Maria/ --le 0.070 --he 30.000 --ln 0.070 --hn 30.000 --lz 0.070 --hz 30.000 --fo 2 --ca 0 --cz 60 --ta 5 --tz 5 --mf 1 --rf 0 --tr NT
USER2: 
USER3: 
USER4: 
USER5: 
[...]
1.163406e-01
1.186385e-01
1.208097e-01
1.228561e-01
1.248083e-01
1.267533e-01
1.288249e-01
1.311500e-01
1.337849e-01
1.366717e-01
1.396330e-01
1.424193e-01
1.447957e-01
1.466373e-01
1.479803e-01
1.490038e-01
1.499715e-01
1.511648e-01
1.528189e-01
1.550831e-01
1.580162e-01
1.615894e-01
1.656718e-01
1.700171e-01
1.742865e-01
1.781168e-01
1.812059e-01
1.833822e-01
1.846434e-01
1.851490e-01
1.851602e-01
1.849652e-01
1.848207e-01
1.848958e-01
1.852321e-01
1.857699e-01
1.864268e-01
1.871443e-01
1.878719e-01
1.885479e-01
1.891348e-01
1.896705e-01
1.902698e-01
1.910695e-01
1.921670e-01
1.935797e-01
1.952276e-01
1.969526e-01
1.985860e-01
2.000107e-01
2.011613e-01
2.019850e-01
2.024278e-01
2.024564e-01
2.020807e-01
2.013513e-01
2.003392e-01
1.991161e-01
1.977379e-01
1.962268e-01
1.945664e-01
1.927265e-01
1.907135e-01
1.886053e-01
1.865305e-01
1.846020e-01
1.828592e-01
1.812615e-01
1.797224e-01
1.781512e-01
1.764777e-01
1.746459e-01
1.725850e-01
1.701922e-01
1.673591e-01
1.640293e-01
1.602336e-01
1.560774e-01
1.517054e-01
1.472642e-01
1.428558e-01
1.385032e-01
1.341585e-01
1.297458e-01
1.252025e-01
1.204971e-01
1.156262e-01
1.106016e-01
1.054357e-01
1.001292e-01
9.467591e-02
8.908648e-02
8.340683e-02
7.770665e-02
7.205512e-02
6.650918e-02
6.110352e-02
5.583468e-02
5.065885e-02
4.551280e-02
4.034384e-02
3.513463e-02
2.990947e-02
2.470398e-02
1.950740e-02
1.423146e-02
8.753412e-03
3.008465e-03
-2.953342e-03
-8.998568e-03
-1.499299e-02
-2.086904e-02
-2.665161e-02
-3.244230e-02
-3.836684e-02
-4.450906e-02
-5.086983e-02
-5.737077e-02
-6.388621e-02
-7.027131e-02
-7.636833e-02
-8.199462e-02
-8.693526e-02
-9.096799e-02
-9.392300e-02
-9.574071e-02
-9.648575e-02
-9.631922e-02
-9.546437e-02
-9.417502e-02
-9.268965e-02
-9.118082e-02
-8.972949e-02
-8.832717e-02
-8.689368e-02
-8.531720e-02
-8.352399e-02
-8.154727e-02
-7.954025e-02
-7.771637e-02
-7.626782e-02
-7.532709e-02
-7.497301e-02
-7.523700e-02
-7.610136e-02
-7.750823e-02
-7.936795e-02
-8.155873e-02
-8.394646e-02
-8.642884e-02
-8.895993e-02
-9.153423e-02
-9.416038e-02
-9.685250e-02
-9.963303e-02
-1.025222e-01
-1.055116e-01
-1.085577e-01
-1.116187e-01
-1.146942e-01
-1.178337e-01
-1.211266e-01
-1.246975e-01
-1.286961e-01
-1.332684e-01
-1.385122e-01
-1.444370e-01
-1.509606e-01
-1.579483e-01
-1.652545e-01
-1.727351e-01
-1.802436e-01
-1.876279e-01
-1.947329e-01
-2.014023e-01
-2.074662e-01
-2.127318e-01
-2.170069e-01
-2.201575e-01
-2.221602e-01
-2.231181e-01
-2.232283e-01
-2.227131e-01
-2.217508e-01
-2.204413e-01
-2.188144e-01
-2.168653e-01
-2.145923e-01
-2.120233e-01
-2.092255e-01
-2.062959e-01
-2.033535e-01
-2.005533e-01
-1.981105e-01
-1.963022e-01
-1.954228e-01
-1.957149e-01
-1.973296e-01
-2.003408e-01
-2.047743e-01
-2.106079e-01
-2.177600e-01
-2.260927e-01
-2.354278e-01
-2.455674e-01
-2.563142e-01
-2.674915e-01
-2.789580e-01
-2.906229e-01
-3.024584e-01
-3.144955e-01
-3.267906e-01
-3.393726e-01
-3.522038e-01
-3.651627e-01
-3.780386e-01
-3.905416e-01
-4.023519e-01
-4.132097e-01
-4.229929e-01
-4.317300e-01
-4.395561e-01
-4.466611e-01
-4.532662e-01
-4.596072e-01
-4.658942e-01
-4.722545e-01
-4.787020e-01
-4.851529e-01
-4.914658e-01
-4.974786e-01
-5.030242e-01
-5.079306e-01
-5.120273e-01
-5.151683e-01
-5.172592e-01
-5.182646e-01
-5.181943e-01
-5.170825e-01
-5.149766e-01
-5.119434e-01
-5.080855e-01
-5.035640e-01
-4.986228e-01
-4.935922e-01
-4.888475e-01
-4.847451e-01
-4.815795e-01
-4.795729e-01
-4.788723e-01
-4.795373e-01
-4.815237e-01
-4.846871e-01
-4.888117e-01
-4.936407e-01
-4.988921e-01
-5.042809e-01
-5.095621e-01
-5.145749e-01
-5.192487e-01
-5.235617e-01
-5.274705e-01
-5.308605e-01
-5.335464e-01
-5.353060e-01
-5.359164e-01
-5.351735e-01
-5.328907e-01
-5.288817e-01
-5.229535e-01
-5.149274e-01
-5.046786e-01
-4.921697e-01
-4.774622e-01
-4.607026e-01
-4.420918e-01
-4.218564e-01
-4.002379e-01
-3.774964e-01
-3.539088e-01
-3.297604e-01
-3.053303e-01
-2.808595e-01
-2.565155e-01
-2.323947e-01
-2.085779e-01
-1.851882e-01
-1.624081e-01
-1.404484e-01
-1.194909e-01
-9.964039e-02
-8.092793e-02
-6.336405e-02
-4.699505e-02
-3.192114e-02
-1.826934e-02
-6.138897e-03
4.445809e-03
1.354549e-02
2.128529e-02
2.782921e-02
3.336343e-02
3.808508e-02
4.219211e-02
4.588144e-02
4.936784e-02
5.291159e-02
5.681340e-02
6.135994e-02
6.676264e-02
7.314332e-02
8.056934e-02
8.909814e-02
9.879421e-02
1.097137e-01
1.218767e-01
1.352441e-01
1.497036e-01
1.650693e-01
1.810932e-01
1.974704e-01
2.138202e-01
2.296663e-01
2.444665e-01
2.577178e-01
2.690945e-01
2.785176e-01
2.861081e-01
2.920826e-01
2.966950e-01
3.002463e-01
3.030877e-01
3.055649e-01
3.079439e-01
3.103945e-01
3.130399e-01
3.160108e-01
3.194561e-01
3.235306e-01
3.284035e-01
3.342881e-01
3.414492e-01
3.501578e-01
3.606028e-01
3.728037e-01
3.865603e-01
4.014646e-01
4.169721e-01
4.324980e-01
4.474907e-01
4.614588e-01
4.739740e-01
4.846808e-01
4.933281e-01
4.998013e-01
5.041249e-01
5.064310e-01
5.069162e-01
5.058099e-01
5.033689e-01
4.998909e-01
4.957252e-01
4.912744e-01
4.869860e-01
4.833279e-01
4.807480e-01
4.796396e-01
4.803262e-01
4.830566e-01
4.879895e-01
4.951603e-01
5.044538e-01
5.155985e-01
5.281705e-01
5.415961e-01
5.551686e-01
5.680989e-01
5.795894e-01
5.888956e-01
5.953555e-01
5.984005e-01
5.975793e-01
5.925949e-01
5.833299e-01
5.698520e-01
5.524115e-01
5.314308e-01
5.074850e-01
4.812779e-01
4.536158e-01
4.253710e-01
3.974356e-01
3.706816e-01
3.459399e-01
3.239887e-01
3.055292e-01
2.911463e-01
2.812656e-01
2.761218e-01
2.757480e-01
2.799813e-01
2.884637e-01
3.006282e-01
3.156954e-01
3.327055e-01
3.505894e-01
3.682541e-01
3.846611e-01
3.988819e-01
4.101290e-01
4.177694e-01
4.213350e-01
4.205300e-01
4.152364e-01
4.055158e-01
3.916002e-01
3.738637e-01
3.527885e-01
3.289494e-01
3.030101e-01
2.757029e-01
2.477798e-01
2.199486e-01
1.928213e-01
1.668991e-01
1.425856e-01
1.201927e-01
9.991963e-02
8.182840e-02
6.584749e-02
5.179480e-02
3.939308e-02
2.827775e-02
1.801559e-02
8.130291e-03
-1.881104e-03
-1.253439e-02
-2.432761e-02
-3.769134e-02
-5.293708e-02
-7.022575e-02
-8.956788e-02
-1.108526e-01
-1.338949e-01
-1.584764e-01
-1.843468e-01
-2.111917e-01
-2.386162e-01
-2.661690e-01
-2.933820e-01
-3.197894e-01
-3.449300e-01
-3.683583e-01
-3.896743e-01
-4.085582e-01
-4.247900e-01
-4.382449e-01
-4.488867e-01
-4.567783e-01
-4.620982e-01
-4.651318e-01
-4.662317e-01
-4.657741e-01
-4.641374e-01
-4.616994e-01
-4.588405e-01
-4.559423e-01
-4.533795e-01
-4.515091e-01
-4.506662e-01
-4.511632e-01
-4.532773e-01
-4.572214e-01
-4.631056e-01
-4.708990e-01
-4.804062e-01
-4.912719e-01
-5.030171e-01
-5.150984e-01
-5.269801e-01
-5.382005e-01
-5.484044e-01
-5.573379e-01
-5.648273e-01
-5.707633e-01
-5.751000e-01
-5.778626e-01
-5.791616e-01
-5.792098e-01
-5.783309e-01
-5.769398e-01
-5.754828e-01
-5.743603e-01
-5.738775e-01
-5.742402e-01
-5.755721e-01
-5.779199e-01
-5.812464e-01
-5.854404e-01
-5.903521e-01
-5.958379e-01
-6.017861e-01
-6.081123e-01
-6.147407e-01
-6.215908e-01
-6.285715e-01
-6.355855e-01
-6.425489e-01
-6.494082e-01
-6.561303e-01
-6.626687e-01
-6.689338e-01
-6.747840e-01
-6.800299e-01
-6.844435e-01
-6.877718e-01
-6.897582e-01
-6.901656e-01
-6.887896e-01
-6.854598e-01
-6.800552e-01
-6.725421e-01
-6.630098e-01
-6.516720e-01
-6.388374e-01
-6.248656e-01
-6.101193e-01
-5.949249e-01
-5.795514e-01
-5.642119e-01
-5.490739e-01
-5.342648e-01
-5.198716e-01
-5.059378e-01
-4.924586e-01
-4.793783e-01
-4.666010e-01
-4.540188e-01
-4.415399e-01
-4.291002e-01
-4.166529e-01
-4.041474e-01
-3.915095e-01
-3.786320e-01
-3.653759e-01
-3.515852e-01
-3.371203e-01
-3.218970e-01
-3.059017e-01
-2.891746e-01
-2.717802e-01
-2.537944e-01
-2.353205e-01
-2.165051e-01
-1.975231e-01
-1.785402e-01
-1.596843e-01
-1.410425e-01
-1.226781e-01
-1.046605e-01
-8.710145e-02
-7.017915e-02
-5.413638e-02
-3.925325e-02
-2.581125e-02
-1.407098e-02
-4.269153e-03
3.389888e-03
8.767316e-03
1.182870e-02
1.266365e-02
1.148792e-02
8.634494e-03
4.526953e-03
-3.620854e-04
-5.548361e-03
-1.055702e-02
-1.493234e-02
-1.825036e-02
-2.014298e-02
-2.032558e-02
-1.861715e-02
-1.495353e-02
-9.395108e-03
-2.117755e-03
6.622318e-03
1.653776e-02
2.734664e-02
3.878198e-02
5.058735e-02
6.252673e-02
7.441826e-02
8.617043e-02
9.779018e-02
1.093526e-01
1.209501e-01
1.326538e-01
1.445032e-01
1.565158e-01
1.686946e-01
1.810286e-01
1.934948e-01
2.060629e-01
2.187025e-01
2.313974e-01
2.441664e-01
2.570671e-01
2.701686e-01
2.835138e-01
2.970956e-01
3.108561e-01
3.246929e-01
3.384623e-01
3.519859e-01
3.650720e-01
3.775418e-01
3.892338e-01
3.999893e-01
4.096477e-01
4.180683e-01
4.251581e-01
4.308820e-01
4.352539e-01
4.383213e-01
4.401540e-01
4.408464e-01
4.405281e-01
4.393622e-01
4.375277e-01
4.351950e-01
4.325052e-01
4.295593e-01
4.264200e-01
4.231256e-01
4.197006e-01
4.161479e-01
4.124264e-01
4.084407e-01
4.040556e-01
3.991202e-01
3.934847e-01
3.870042e-01
3.795360e-01
3.709444e-01
3.611185e-01
3.500006e-01
3.376082e-01
3.240409e-01
3.094741e-01
2.941407e-01
2.783078e-01
2.622535e-01
2.462488e-01
2.305449e-01
2.153634e-01
2.008869e-01
1.872487e-01
1.745331e-01
1.627890e-01
1.520448e-01
1.423103e-01
1.335723e-01
1.257968e-01
1.189371e-01
1.129319e-01
1.076889e-01
1.030692e-01
9.888876e-02
9.493656e-02
9.099473e-02
8.685115e-02
8.230771e-02
7.718597e-02
7.132855e-02
6.460082e-02
5.690438e-02
4.820758e-02
3.857892e-02
2.819715e-02
1.732708e-02
6.276572e-03
-4.643250e-03
-1.514822e-02
-2.500931e-02
-3.408222e-02
-4.232839e-02
-4.981053e-02
-5.665924e-02
-6.303209e-02
-6.909289e-02
-7.501410e-02
-8.098088e-02
-8.717805e-02
-9.376297e-02
-1.008481e-01
-1.085139e-01
-1.168436e-01
-1.259457e-01
-1.359481e-01
-1.469712e-01
-1.590970e-01
-1.723480e-01
-1.866849e-01
-2.020206e-01
-2.182347e-01
-2.351803e-01
-2.526772e-01
-2.704909e-01
-2.883222e-01
-3.058305e-01
-3.226851e-01
-3.386156e-01
-3.534415e-01
-3.670794e-01
-3.795382e-01
-3.909074e-01
-4.013360e-01
-4.110082e-01
-4.201224e-01
-4.288697e-01
-4.374134e-01
-4.458746e-01
-4.543261e-01
-4.627968e-01
-4.712865e-01
-4.797822e-01
-4.882667e-01
-4.967190e-01
-5.051088e-01
-5.133888e-01
-5.214933e-01
-5.293496e-01
-5.368919e-01
-5.440636e-01
-5.508098e-01
-5.570681e-01
-5.627658e-01
-5.678248e-01
-5.721723e-01
-5.757524e-01
-5.785333e-01
-5.805049e-01
-5.816790e-01
-5.820964e-01
-5.818392e-01
-5.810324e-01
-5.798331e-01
-5.784165e-01
-5.769652e-01
-5.756613e-01
-5.746744e-01
-5.741452e-01
-5.741647e-01
-5.747531e-01
-5.758519e-01
-5.773342e-01
-5.790292e-01
-5.807528e-01
-5.823314e-01
-5.836069e-01
-5.844226e-01
-5.846074e-01
-5.839775e-01
-5.823540e-01
-5.795874e-01
-5.755703e-01
-5.702368e-01
-5.635538e-01
-5.555199e-01
-5.461699e-01
-5.355764e-01
-5.238446e-01
-5.111139e-01
-4.975612e-01
-4.833928e-01
-4.688225e-01
-4.540548e-01
-4.392836e-01
-4.246960e-01
-4.104649e-01
-3.967324e-01
-3.836026e-01
-3.711453e-01
-3.594049e-01
-3.484131e-01
-3.382048e-01
-3.288326e-01
-3.203666e-01
-3.128741e-01
-3.063851e-01
-3.008639e-01
-2.962038e-01
-2.922412e-01
-2.887757e-01
-2.855911e-01
-2.824747e-01
-2.792308e-01
-2.756915e-01
-2.717246e-01
-2.672377e-01
-2.621841e-01
-2.565718e-01
-2.504705e-01
-2.440067e-01
-2.373476e-01
-2.306814e-01
-2.242004e-01
-2.180897e-01
-2.125221e-01
-2.076560e-01
-2.036310e-01
-2.005575e-01
-1.985026e-01
-1.974747e-01
-1.974115e-01
-1.981789e-01
-1.995803e-01
-2.013692e-01
-2.032620e-01
-2.049580e-01
-2.061646e-01
-2.066186e-01
-2.060922e-01
-2.043853e-01
-2.013159e-01
-1.967166e-01
-1.904378e-01
-1.823527e-01
-1.723650e-01
-1.604219e-01
-1.465291e-01
-1.307549e-01
-1.132231e-01
-9.410199e-02
-7.358939e-02
-5.189261e-02
-2.921155e-02
-5.737094e-03
1.834194e-02
4.284266e-02
6.760787e-02
9.252481e-02
1.175270e-01
1.425845e-01
1.676959e-01
1.928849e-01
2.181914e-01
2.436570e-01
2.693110e-01
2.951615e-01
3.211896e-01
3.473493e-01
3.735743e-01
3.997874e-01
4.259024e-01
4.518185e-01
4.774120e-01
5.025414e-01
5.270697e-01
5.508900e-01
5.739376e-01
5.961859e-01
6.176295e-01
6.382648e-01
6.580712e-01
6.769980e-01
6.949579e-01
7.118286e-01
7.274677e-01
7.417369e-01
7.545286e-01
7.657854e-01
7.755057e-01
7.837427e-01
7.906037e-01
7.962506e-01
8.008978e-01
8.048021e-01
8.082409e-01
8.114788e-01
8.147297e-01
8.181346e-01
8.217623e-01
8.256253e-01
8.296923e-01
8.338923e-01
8.381148e-01
8.422135e-01
8.460136e-01
8.493190e-01
8.519189e-01
8.535951e-01
8.541258e-01
8.532897e-01
8.508769e-01
8.467060e-01
8.406391e-01
8.325924e-01
8.225471e-01
8.105592e-01
7.967626e-01
7.813622e-01
7.646141e-01
7.468011e-01
7.282129e-01
7.091328e-01
6.898325e-01
6.705683e-01
6.515720e-01
6.330376e-01
6.151124e-01
5.978996e-01
5.814619e-01
5.658220e-01
5.509597e-01
5.368125e-01
5.232852e-01
5.102621e-01
4.976171e-01
4.852210e-01
4.729510e-01
4.606965e-01
4.483588e-01
4.358509e-01
4.231011e-01
4.100625e-01
3.967225e-01
3.831059e-01
3.692712e-01
3.553074e-01
3.413377e-01
3.275151e-01
3.140054e-01
3.009686e-01
2.885512e-01
2.768780e-01
2.660325e-01
2.560283e-01
2.467942e-01
2.381841e-01
2.300049e-01
2.220448e-01
2.141005e-01
2.060031e-01
1.976394e-01
1.889575e-01
1.799579e-01
1.706747e-01
1.611507e-01
1.514159e-01
1.414718e-01
1.312892e-01
1.208196e-01
1.100160e-01
9.885259e-02
8.733958e-02
7.552845e-02
6.350343e-02
5.136354e-02
3.920868e-02
2.713766e-02
1.525290e-02
3.661960e-03
-7.528202e-03
-1.821971e-02
-2.832886e-02
-3.778979e-02
-4.656127e-02
-5.463333e-02
-6.202643e-02
-6.877772e-02
-7.491575e-02
-8.043793e-02
-8.530980e-02
-8.948957e-02
-9.296016e-02
-9.574634e-02
-9.790873e-02
-9.952451e-02
-1.006717e-01
-1.014279e-01
-1.018819e-01
-1.021437e-01
-1.023363e-01
-1.025680e-01
-1.029053e-01
-1.033643e-01
-1.039264e-01
-1.045621e-01
-1.052491e-01
-1.059740e-01
-1.067267e-01
-1.074903e-01
-1.082369e-01
-1.089350e-01
-1.095607e-01
-1.100922e-01
-1.104923e-01
-1.106980e-01
-1.106241e-01
-1.101668e-01
-1.092051e-01
-1.076195e-01
-1.053244e-01
-1.022877e-01
-9.851976e-02
-9.405270e-02
-8.893008e-02
-8.320328e-02
-7.692513e-02
-7.014799e-02
-6.293177e-02
-5.534980e-02
-4.747974e-02
-3.938733e-02
-3.112341e-02
-2.274107e-02
-1.431947e-02
-5.979550e-03
2.115915e-03
9.781413e-03
1.684026e-02
2.314992e-02
2.860876e-02
3.315112e-02
3.674183e-02
3.936969e-02
4.103876e-02
4.176634e-02
4.159428e-02
4.060210e-02
3.890255e-02
3.662196e-02
3.388886e-02
3.083818e-02
2.761162e-02
2.434318e-02
2.114428e-02
1.810262e-02
1.529128e-02
1.277647e-02
1.061934e-02
8.874777e-03
7.587650e-03
6.780717e-03
6.434593e-03
6.474803e-03
6.781695e-03
7.221467e-03
7.679055e-03
8.072053e-03
8.339830e-03
8.422278e-03
8.250196e-03
7.753293e-03
6.871278e-03
5.558041e-03
3.786015e-03
1.555045e-03
-1.104593e-03
-4.142781e-03
-7.504411e-03
-1.113310e-02
-1.496084e-02
-1.889599e-02
-2.282464e-02
-2.662757e-02
-3.019855e-02
-3.345099e-02
-3.631662e-02
-3.874653e-02
-4.071395e-02
-4.221259e-02
-4.325410e-02
-4.387447e-02
-4.414851e-02
-4.419725e-02
-4.417434e-02
-4.423640e-02
-4.451669e-02
-4.511267e-02
-4.608069e-02
-4.743293e-02
-4.914458e-02
-5.117605e-02
-5.349736e-02
-5.609692e-02
-5.897229e-02
-6.211529e-02
-6.550224e-02
-6.909333e-02
-7.283991e-02
-7.669558e-02
-8.062722e-02
-8.462251e-02
-8.868875e-02
-9.284084e-02
-9.708624e-02
-1.014180e-01
-1.058185e-01
-1.102668e-01
-1.147423e-01
-1.192202e-01
-1.236695e-01
-1.280557e-01
-1.323479e-01
-1.365275e-01
-1.406009e-01
-1.446082e-01
-1.486152e-01
-1.526912e-01
-1.568917e-01
-1.612575e-01
-1.658221e-01
-1.706074e-01
-1.756116e-01
-1.808043e-01
-1.861379e-01
-1.915633e-01
-1.970407e-01
-2.025420e-01
-2.080502e-01
-2.135577e-01
-2.190674e-01
-2.245993e-01
-2.301984e-01
-2.359319e-01
-2.418739e-01
-2.480857e-01
-2.546015e-01
-2.614259e-01
-2.685396e-01
-2.759071e-01
-2.834812e-01
-2.912058e-01
-2.990185e-01
-3.068551e-01
-3.146547e-01
-3.223592e-01
-3.299094e-01
-3.372454e-01
-3.443137e-01
-3.510750e-01
-3.575061e-01
-3.635979e-01
-3.693522e-01
-3.747814e-01
-3.799031e-01
-3.847316e-01
-3.892710e-01
-3.935153e-01
-3.974575e-01
-4.010969e-01
-4.044411e-01
-4.074974e-01
-4.102589e-01
-4.126934e-01
-4.147459e-01
-4.163532e-01
-4.174575e-01
-4.180115e-01
-4.179773e-01
-4.173289e-01
-4.160597e-01
-4.141884e-01
-4.117582e-01
-4.088285e-01
-4.054667e-01
-4.017415e-01
-3.977144e-01
-3.934324e-01
-3.889302e-01
-3.842450e-01
-3.794289e-01
-3.745545e-01
-3.697118e-01
-3.649988e-01
-3.605068e-01
-3.563046e-01
-3.524235e-01
-3.488468e-01
-3.455067e-01
-3.422881e-01
-3.390367e-01
-3.355722e-01
-3.317079e-01
-3.272744e-01
-3.221402e-01
-3.162242e-01
-3.094947e-01
-3.019585e-01
-2.936492e-01
-2.846200e-01
-2.749389e-01
-2.646850e-01
-2.539445e-01
-2.428079e-01
-2.313685e-01
-2.197168e-01
-2.079322e-01
-1.960743e-01
-1.841760e-01
-1.722395e-01
-1.602360e-01
-1.481103e-01
-1.357907e-01
-1.232021e-01
-1.102784e-01
-9.697134e-02
-8.325248e-02
-6.911473e-02
-5.457473e-02
-3.967457e-02
-2.447775e-02
-9.058633e-03
6.508187e-03
2.215163e-02
3.780269e-02
5.339639e-02
6.888161e-02
8.423272e-02
9.945282e-02
1.145652e-01
1.296005e-01
1.445890e-01
1.595577e-01
1.745271e-01
1.895038e-01
2.044765e-01
2.194200e-01
2.343025e-01
2.490879e-01
2.637340e-01
2.781950e-01
2.924302e-01
3.064079e-01
3.200999e-01
3.334707e-01
3.464766e-01
3.590710e-01
3.712109e-01
3.828581e-01
3.939817e-01
4.045689e-01
4.146349e-01
4.242223e-01
4.333880e-01
4.421902e-01
4.506842e-01
4.589230e-01
4.669520e-01
4.747965e-01
4.824552e-01
4.899080e-01
4.971302e-01
5.041009e-01
5.108025e-01
5.172211e-01
5.233483e-01
5.291800e-01
5.347123e-01
5.399370e-01
5.448414e-01
5.494029e-01
5.535775e-01
5.572911e-01
5.604425e-01
5.629189e-01
5.646151e-01
5.654500e-01
5.653765e-01
5.643852e-01
5.625041e-01
5.597998e-01
5.563761e-01
5.523660e-01
