EVENT_NAME: CENTRAL_ITALY
EVENT_ID: EMSC-20161026_0000077
EVENT_DATE_YYYYMMDD: 20161026
EVENT_TIME_HHMMSS: 171036
EVENT_LATITUDE_DEGREE: 42.8802
EVENT_LONGITUDE_DEGREE: 13.1275
EVENT_DEPTH_KM: 8.7
HYPOCENTER_REFERENCE: INGV-CNT_Seismic_Bulletin
MAGNITUDE_W: 5.4
MAGNITUDE_W_REFERENCE: INGV-webservice
MAGNITUDE_L: 5.4
MAGNITUDE_L_REFERENCE: INGV-CNT_Seismic_Bulletin
FOCAL_MECHANISM: NF
NETWORK: IT
STATION_CODE: NRC
STATION_NAME: NORCIA
STATION_LATITUDE_DEGREE: 42.792543
STATION_LONGITUDE_DEGREE: 13.096475
STATION_ELEVATION_M: 616
LOCATION: 
SENSOR_DEPTH_M: 0.0
VS30_M/S: 687
SITE_CLASSIFICATION_EC8: B
MORPHOLOGIC_CLASSIFICATION: SL
EPICENTRAL_DISTANCE_KM: 10.1
EARTHQUAKE_BACKAZIMUTH_DEGREE: 14.6
DATE_TIME_FIRST_SAMPLE_YYYYMMDD_HHMMSS: 20161026_171032.909
DATE_TIME_FIRST_SAMPLE_PRECISION: milliseconds
SAMPLING_INTERVAL_S: 0.005000
NDATA: 10588
DURATION_S: 52.940
STREAM: HGN
UNITS: cm/s
INSTRUMENT: sensor = Unknown [Unknown] | digitizer = Unknown [Unknown]
INSTRUMENT_ANALOG/DIGITAL: D
INSTRUMENTAL_FREQUENCY_HZ: 
INSTRUMENTAL_DAMPING: 
FULL_SCALE_G: 
N_BIT_DIGITAL_CONVERTER: 
PGV_CM/S: 16.713958
TIME_PGV_S: 9.055000
BASELINE_CORRECTION: BASELINE REMOVED
FILTER_TYPE: BUTTERWORTH
FILTER_ORDER: 2
LOW_CUT_FREQUENCY_HZ: 0.070
HIGH_CUT_FREQUENCY_HZ: 30.000
LATE/NORMAL_TRIGGERED: NT
DATABASE_VERSION: DYNA 1.0
HEADER_FORMAT: DYNA 1.2
DATA_TYPE: VELOCITY
PROCESSING: manual (Paolucci et al., 2011)
DATA_TIMESTAMP_YYYYMMDD_HHMMSS: 20161027_111110.997
DATA_LICENSE: CC-BY3_0-IT (http://creativecommons.org/licenses/by/3.0/deed.en)
DATA_CITATION: ESM working group (2015), European Strong-Motion database, version 0.1, Network Activity 3: Networking acceleration networks and SM data users. Project NERA (www.nera-eu.org)
DATA_CREATOR: ESM working group
ORIGINAL_DATA_MEDIATOR_CITATION: Ufficio Rischio Sismico e Vulcanico del Dipartimento della Protezione Civile (http://www.protezionecivile.gov.it/)
ORIGINAL_DATA_MEDIATOR: Rete Accelerometrica Nazionale - RAN Download (http://www.mot1.it/randownload/)
ORIGINAL_DATA_CREATOR_CITATION: Italian Strong Motion Network, Italian Civil Protection Department http://www.protezionecivile.gov.it
ORIGINAL_DATA_CREATOR: network: IT (Italian Strong Motion Network); owner: Dipartimento Della Protezione Civile
USER1: /home/dyna/processing-itaca/processing.py /var/www/processing//tmp/felicetta//IT.NRC..HGE.D.20161026.171036.X.ACC.ASC /var/www/processing//tmp/felicetta//IT.NRC..HGN.D.20161026.171036.X.ACC.ASC /var/www/processing//tmp/felicetta//IT.NRC..HGZ.D.20161026.171036.X.ACC.ASC --tmp /var/www/processing//tmp/felicetta/ --le 0.07 --he 30.000 --ln 0.07 --hn 30.000 --lz 0.07 --hz 30.000 --fo 2 --ca 0 --cz 70 --ta 5 --tz 5 --mf 1 --rf 0 --tr NT
USER2: 
USER3: 
USER4: 
USER5: 
[...]
0.017162
0.017115
0.017076
0.017063
0.017073
0.017088
0.017093
0.017086
0.017071
0.017048
0.017007
0.016940
0.016857
0.016778
0.016724
0.016695
0.016682
0.016676
0.016712
0.016790
0.016864
0.016921
0.016951
0.016958
0.016960
0.016979
0.017015
0.017051
0.017074
0.017091
0.017118
0.017164
0.017224
0.017289
0.017362
0.017442
0.017519
0.017579
0.017608
0.017607
0.017590
0.017578
0.017586
0.017621
0.017686
0.017771
0.017858
0.017922
0.017943
0.017924
0.017887
0.017866
0.017886
0.017950
0.018037
0.018126
0.018206
0.018277
0.018338
0.018383
0.018403
0.018402
0.018398
0.018405
0.018425
0.018452
0.018481
0.018521
0.018577
0.018647
0.018713
0.018758
0.018783
0.018804
0.018839
0.018887
0.018934
0.018966
0.018978
0.018982
0.018992
0.019019
0.019066
0.019128
0.019198
0.019267
0.019322
0.019349
0.019348
0.019339
0.019345
0.019380
0.019439
0.019506
0.019567
0.019619
0.019662
0.019695
0.019714
0.019720
0.019729
0.019760
0.019821
0.019893
0.019949
0.019978
0.019984
0.019983
0.019992
0.020028
0.020094
0.020186
0.020286
0.020376
0.020432
0.020441
0.020405
0.020349
0.020313
0.020323
0.020375
0.020445
0.020515
0.020576
0.020629
0.020677
0.020720
0.020763
0.020808
0.020855
0.020888
0.020900
0.020896
0.020901
0.020934
0.021003
0.021090
0.021168
0.021218
0.021235
0.021225
0.021205
0.021193
0.021204
0.021244
0.021308
0.021381
0.021438
0.021465
0.021474
0.021492
0.021543
0.021620
0.021697
0.021751
0.021781
0.021792
0.021792
0.021789
0.021794
0.021821
0.021877
0.021957
0.022045
0.022120
0.022166
0.022181
0.022174
0.022168
0.022180
0.022219
0.022282
0.022358
0.022434
0.022498
0.022538
0.022553
0.022554
0.022559
0.022584
0.022630
0.022692
0.022760
0.022819
0.022854
0.022862
0.022847
0.022821
0.022805
0.022818
0.022866
0.022940
0.023024
0.023100
0.023161
0.023204
0.023228
0.023241
0.023254
0.023279
0.023325
0.023395
0.023479
0.023562
0.023626
0.023664
0.023673
0.023654
0.023616
0.023587
0.023590
0.023636
0.023712
0.023789
0.023841
0.023862
0.023865
0.023880
0.023930
0.024016
0.024117
0.024210
0.024281
0.024326
0.024347
0.024348
0.024341
0.024339
0.024357
0.024397
0.024445
0.024485
0.024512
0.024533
0.024555
0.024580
0.024612
0.024655
0.024711
0.024781
0.024856
0.024920
0.024954
0.024953
0.024939
0.024949
0.025003
0.025094
0.025198
0.025290
0.025351
0.025371
0.025353
0.025309
0.025257
0.025226
0.025239
0.025300
0.025396
0.025498
0.025581
0.025636
0.025667
0.025683
0.025697
0.025717
0.025754
0.025813
0.025885
0.025945
0.025973
0.025975
0.025970
0.025981
0.026012
0.026051
0.026082
0.026103
0.026125
0.026161
0.026211
0.026266
0.026312
0.026341
0.026359
0.026379
0.026409
0.026450
0.026502
0.026566
0.026637
0.026694
0.026722
0.026718
0.026699
0.026692
0.026716
0.026771
0.026841
0.026906
0.026962
0.027015
0.027067
0.027111
0.027137
0.027140
0.027131
0.027126
0.027130
0.027143
0.027171
0.027219
0.027287
0.027368
0.027447
0.027505
0.027531
0.027535
0.027540
0.027560
0.027596
0.027635
0.027673
0.027707
0.027742
0.027773
0.027795
0.027805
0.027811
0.027828
0.027865
0.027912
0.027954
0.027993
0.028039
0.028097
0.028159
0.028209
0.028242
0.028257
0.028263
0.028282
0.028325
0.028384
0.028439
0.028474
0.028482
0.028469
0.028447
0.028428
0.028422
0.028440
0.028495
0.028585
0.028686
0.028769
0.028816
0.028833
0.028838
0.028845
0.028857
0.028881
0.028917
0.028959
0.028992
0.029015
0.029036
0.029070
0.029124
0.029198
0.029280
0.029358
0.029413
0.029437
0.029433
0.029415
0.029399
0.029395
0.029413
0.029460
0.029535
0.029618
0.029681
0.029710
0.029710
0.029699
0.029689
0.029692
0.029711
0.029747
0.029789
0.029829
0.029866
0.029906
0.029954
0.030006
0.030056
0.030096
0.030125
0.030151
0.030181
0.030213
0.030243
0.030267
0.030290
0.030315
0.030342
0.030368
0.030392
0.030420
0.030461
0.030515
0.030576
0.030633
0.030673
0.030691
0.030689
0.030678
0.030668
0.030675
0.030708
0.030771
0.030853
0.030940
0.031012
0.031056
0.031071
0.031070
0.031070
0.031084
0.031113
0.031148
0.031177
0.031201
0.031229
0.031266
0.031312
0.031367
0.031425
0.031476
0.031510
0.031521
0.031510
0.031483
0.031459
0.031457
0.031490
0.031558
0.031641
0.031713
0.031756
0.031776
0.031782
0.031784
0.031788
0.031803
0.031827
0.031855
0.031881
0.031901
0.031917
0.031939
0.031969
0.032007
0.032053
0.032104
0.032149
0.032180
0.032198
0.032213
0.032238
0.032278
0.032321
0.032353
0.032362
0.032354
0.032339
0.032333
0.032345
0.032374
0.032406
0.032430
0.032452
0.032483
0.032526
0.032566
0.032595
0.032622
0.032657
0.032692
0.032717
0.032725
0.032718
0.032701
0.032691
0.032709
0.032758
0.032825
0.032891
0.032943
0.032976
0.032993
0.033007
0.033030
0.033065
0.033103
0.033142
0.033178
0.033204
0.033208
0.033189
0.033163
0.033153
0.033169
0.033201
0.033237
0.033268
0.033294
0.033322
0.033353
0.033385
0.033415
0.033444
0.033474
0.033507
0.033545
0.033584
0.033614
0.033625
0.033618
0.033594
0.033564
0.033540
0.033538
0.033566
0.033631
0.033727
0.033835
0.033925
0.033978
0.033992
0.033975
0.033933
0.033880
0.033834
0.033812
0.033821
0.033857
0.033914
0.033982
0.034053
0.034110
0.034139
0.034140
0.034120
0.034092
0.034066
0.034051
0.034051
0.034071
0.034114
0.034188
0.034287
0.034387
0.034459
0.034481
0.034456
0.034404
0.034347
0.034304
0.034287
0.034300
0.034340
0.034397
0.034462
0.034524
0.034573
0.034599
0.034601
0.034587
0.034578
0.034584
0.034598
0.034599
0.034579
0.034563
0.034587
0.034666
0.034777
0.034884
0.034952
0.034960
0.034904
0.034801
0.034681
0.034584
0.034547
0.034588
0.034683
0.034782
0.034856
0.034905
0.034931
0.034931
0.034914
0.034904
0.034925
0.034960
0.034968
0.034934
0.034883
0.034844
0.034832
0.034856
0.034918
0.034996
0.035056
0.035078
0.035069
0.035042
0.035008
0.034974
0.034955
0.034962
0.034992
0.035036
0.035091
0.035155
0.035212
0.035241
0.035238
0.035211
0.035173
0.035124
0.035068
0.035021
0.034999
0.035010
0.035048
0.035100
0.035154
0.035202
0.035240
0.035268
0.035285
0.035292
0.035292
0.035290
0.035287
0.035280
0.035266
0.035240
0.035206
0.035169
0.035141
0.035136
0.035162
0.035215
0.035284
0.035354
0.035398
0.035393
0.035332
0.035244
0.035180
0.035185
0.035270
0.035403
0.035530
0.035606
0.035608
0.035534
0.035398
0.035233
0.035091
0.035027
0.035072
0.035205
0.035366
0.035488
0.035531
0.035486
0.035373
0.035245
0.035164
0.035165
0.035233
0.035333
0.035423
0.035474
0.035469
0.035411
0.035329
0.035258
0.035221
0.035221
0.035240
0.035252
0.035249
0.035238
0.035229
0.035223
0.035221
0.035226
0.035240
0.035264
0.035297
0.035338
0.035373
0.035389
0.035377
0.035330
0.035252
0.035158
0.035080
0.035043
0.035051
0.035091
0.035148
0.035210
0.035260
0.035283
0.035275
0.035245
0.035204
0.035163
0.035128
0.035103
0.035085
0.035072
0.035067
0.035070
0.035073
0.035072
0.035067
0.035059
0.035048
0.035038
0.035030
0.035021
0.035007
0.034988
0.034969
0.034954
0.034943
0.034934
0.034929
0.034924
0.034912
0.034891
0.034870
0.034858
0.034860
0.034876
0.034897
0.034906
0.034893
0.034863
0.034832
0.034815
0.034813
0.034816
0.034801
0.034743
0.034616
0.034387
0.034014
0.033451
0.032663
0.031646
0.030437
0.029128
0.027845
0.026708
0.025800
0.025185
0.024954
0.025229
0.026119
0.027676
0.029853
0.032448
0.035112
0.037472
0.039319
0.040663
0.041620
0.042276
0.042637
0.042649
0.042255
0.041485
0.040515
0.039603
0.038908
0.038354
0.037663
0.036521
0.034785
0.032593
0.030281
0.028166
0.026367
0.024788
0.023250
0.021674
0.020202
0.019142
0.018750
0.019040
0.019762
0.020548
0.021057
0.021047
0.020413
0.019184
0.017455
0.015291
0.012751
0.009941
0.007005
0.004072
0.001294
-0.001130
-0.002992
-0.004079
-0.004141
-0.002989
-0.000705
0.002292
0.005442
0.008288
0.010614
0.012492
0.014308
0.016598
0.019764
0.023933
0.029032
0.034833
0.040881
0.046508
0.051057
0.054137
0.055650
0.055627
0.054078
0.050994
0.046478
0.040774
0.034150
0.026726
0.018400
0.008955
-0.001727
-0.013458
-0.025664
-0.037383
-0.047429
-0.054857
-0.059551
-0.062394
-0.064779
-0.067882
-0.072214
-0.077573
-0.083269
-0.088584
-0.093319
-0.097971
-0.103279
-0.109608
-0.116769
-0.124227
-0.131338
-0.137606
-0.142976
-0.147811
-0.152415
-0.156653
-0.160160
-0.162754
-0.164584
-0.166262
-0.169105
-0.174990
-0.185588
-0.201667
-0.222986
-0.248546
-0.276777
-0.305648
-0.332860
-0.356078
-0.373322
-0.383579
-0.387217
-0.385741
-0.381195
-0.375777
-0.371408
-0.368925
-0.367646
-0.366417
-0.365493
-0.366966
-0.372835
-0.382549
-0.392281
-0.396319
-0.389613
-0.370562
-0.342815
-0.314350
-0.293531
-0.285239
-0.290516
-0.309086
-0.341201
-0.387221
-0.446431
-0.516350
-0.592086
-0.666091
-0.730307
-0.780475
-0.818659
-0.851079
-0.883291
-0.916562
-0.947162
-0.968416
-0.974647
-0.965153
-0.945292
-0.923025
-0.903422
-0.886269
-0.868837
-0.850361
-0.833533
-0.822060
-0.817328
-0.817276
-0.818140
-0.817628
-0.817607
-0.824565
-0.846780
-0.889037
-0.948288
-1.013631
-1.070827
-1.108747
-1.124547
-1.124895
-1.122044
-1.126268
-1.139136
-1.152936
-1.156741
-1.143234
-1.111221
-1.064465
-1.009107
-0.950805
-0.893454
-0.840633
-0.797074
-0.767067
-0.751699
-0.748863
-0.755388
-0.767674
-0.780930
-0.790136
-0.792190
-0.785698
-0.769089
-0.740875
-0.701716
-0.655279
-0.607929
-0.568233
-0.544440
-0.539843
-0.550540
-0.568129
-0.583953
-0.591504
-0.587557
-0.572693
-0.549588
-0.519938
-0.484562
-0.447446
-0.418171
-0.408981
-0.429279
-0.481440
-0.558553
-0.644523
-0.718241
-0.760708
-0.760582
-0.716119
-0.634538
-0.528917
-0.413486
-0.300553
-0.200434
-0.122515
-0.075187
-0.063674
-0.087098
-0.137415
-0.201182
-0.263324
-0.311864
-0.342161
-0.358307
-0.370333
-0.389425
-0.424691
-0.481795
-0.561790
-0.660280
-0.768352
-0.875389
-0.971929
-1.050286
-1.103455
-1.125363
-1.113641
-1.072180
-1.010033
-0.936944
-0.859163
-0.778397
-0.694083
-0.606868
-0.520287
-0.440153
-0.373732
-0.329076
-0.313061
-0.328708
-0.374223
-0.443806
-0.528081
-0.614262
-0.688269
-0.738712
-0.759999
-0.752559
-0.721039
-0.672502
-0.614860
-0.554790
-0.497121
-0.447180
-0.412231
-0.398848
-0.409735
-0.443776
-0.497382
-0.564440
-0.636209
-0.703300
-0.758285
-0.795740
-0.810882
-0.801414
-0.771587
-0.731460
-0.690849
-0.655894
-0.630767
-0.618415
-0.618317
-0.626211
-0.637504
-0.649595
-0.659596
-0.661051
-0.645200
-0.606181
-0.545325
-0.472179
-0.403000
-0.357055
-0.350339
-0.388701
-0.465356
-0.565271
-0.673272
-0.780368
-0.884456
-0.985364
-1.079014
-1.156744
-1.210014
-1.234993
-1.233468
-1.211191
-1.175659
-1.133896
-1.090337
-1.045910
-0.999605
-0.951372
-0.903680
-0.860882
-0.827628
-0.807369
-0.800979
-0.805706
-0.815781
-0.825151
-0.830188
-0.830071
-0.825357
-0.816973
-0.806015
-0.792864
-0.776029
-0.753424
-0.725692
-0.697258
-0.673306
-0.656075
-0.644425
-0.636278
-0.630585
-0.627950
-0.631372
-0.646071
-0.675819
-0.718223
-0.764548
-0.804580
-0.832141
-0.847238
-0.853083
-0.850450
-0.834993
-0.799643
-0.739020
-0.652348
-0.543946
-0.422530
-0.299906
-0.187801
-0.093420
-0.017719
0.042205
0.090027
0.128037
0.154917
0.165723
0.156507
0.129247
0.091145
0.049400
0.007700
-0.032399
-0.068309
-0.095501
-0.108857
-0.104168
-0.079098
-0.034195
0.025716
0.090843
0.148635
0.189345
0.211792
0.224288
0.238448
0.260316
0.286588
0.307910
0.313941
0.296526
0.251280
0.177402
0.076300
-0.048190
-0.187614
-0.327785
-0.451364
-0.543369
-0.595076
-0.603347
-0.569260
-0.499730
-0.408328
-0.311411
-0.222565
-0.149798
-0.096427
-0.063825
-0.052877
-0.062575
-0.088075
-0.120776
-0.150367
-0.167878
-0.168298
-0.150586
-0.115232
-0.062167
0.009362
0.099669
0.207577
0.330304
0.463514
0.600443
0.731876
0.848624
0.943934
1.013843
1.057756
1.079416
1.084571
1.075590
1.049210
1.001543
0.935347
0.860474
0.787406
0.722285
0.665902
0.613220
0.554253
0.478412
0.379728
0.259918
0.128284
-0.002717
-0.125303
-0.242619
-0.368623
-0.521269
-0.713580
-0.948549
-1.220333
-1.519140
-1.834929
-2.157134
-2.472154
-2.762278
-3.007213
-3.186565
-3.281897
-3.278632
-3.168758
-2.953624
-2.644215
-2.257593
-1.811449
-1.319745
-0.791160
-0.230169
0.360843
0.979091
1.617889
2.263948
2.898273
3.499847
4.049167
4.530242
4.931544
5.247846
5.483497
5.654286
5.785669
5.908546
6.054741
6.253133
6.526104
6.886608
7.337358
7.872093
8.477212
9.133881
9.822191
10.526498
11.238039
11.952240
12.662660
13.356451
14.014964
14.619026
15.154943
15.616739
16.002909
16.311159
16.536638
16.673359
16.713959
16.647449
16.459232
16.134809
15.664599
15.046337
14.283647
13.384006
12.360079
11.232720
10.030149
8.781339
7.508052
6.222363
4.931440
3.643613
2.369841
1.122365
-0.084783
-1.233713
-2.302527
-3.268530
-4.112559
-4.820721
-5.382831
-5.791221
-6.042740
-6.141460
-6.098173
-5.927433
-5.645873
-5.273230
-4.834428
-4.360273
-3.885539
-3.445047
-3.069143
-2.780026
-2.589629
-2.498617
-2.496855
-2.567061
-2.691189
-2.856399
-3.057820
-3.297560
-3.581432
-3.913930
-4.291690
-4.700208
-5.118024
-5.524603
-5.905202
-6.250280
-6.550868
-6.793419
-6.958720
-7.026832
-6.984509
-6.830449
-6.576493
-6.244168
-5.858815
-5.445843
-5.029360
-4.629534
-4.258662
-3.919791
-3.610037
-3.327080
-3.075009
-2.865571
-2.713312
-2.628123
-2.611003
-2.654485
-2.744693
-2.863083
-2.988716
-3.102011
-3.188750
-3.242163
-3.262047
-3.251412
-3.212678
-3.145940
-3.049524
-2.921463
-2.761395
-2.572705
-2.363071
-2.142028
-1.916968
-1.689811
-1.455613
-1.203790
-0.921098
-0.594525
-0.213766
0.226081
0.721940
1.261209
1.821637
2.373180
2.882660
3.321171
3.671306
3.929244
4.100535
4.193977
4.217271
4.174885
4.068623
3.901208
3.680207
3.418327
3.129575
2.824492
2.508212
2.182783
1.852017
1.525300
1.217851
0.947822
0.731982
0.580571
0.492911
0.457272
0.455879
0.471777
0.493626
0.516489
0.539630
0.563849
0.589712
0.616960
0.645326
0.675888
0.711166
0.753361
0.801988
0.852910
0.900147
0.939465
0.970992
0.999487
1.032819
1.079559
1.147197
1.242653
1.373834
1.549235
1.775202
2.053337
2.380123
2.748171
3.146650
3.559800
3.965705
4.338473
4.653580
4.892593
5.044807
5.106347
5.078238
4.964950
4.773710
4.513470
4.193451
3.822760
3.411286
2.969816
2.508264
2.033766
1.551262
1.066870
0.591090
0.138555
-0.275597
-0.639835
-0.948142
-1.198959
-1.392358
-1.528172
-1.607369
-1.635878
-1.627011
-1.599176
-1.570029
-1.552051
-1.553073
-1.579956
-1.640405
-1.741020
-1.884618
-2.069914
-2.293317
-2.550669
-2.837273
-3.146727
-3.470594
-3.799488
-4.123979
-4.434520
-4.721393
-4.975264
-5.187910
-5.352771
-5.464767
-5.519039
-5.509846
-5.430914
-5.276575
-5.042680
-4.727510
-4.333319
-3.868234
-3.347086
-2.789792
-2.217627
-1.649472
-1.100248
-0.581695
-0.103567
0.326415
0.702759
1.020276
1.271269
1.445993
1.536617
1.540117
1.457681
1.292783
1.050393
0.737274
0.362287
-0.064135
-0.531537
-1.030764
-1.553617
-2.091035
-2.631033
-3.157813
-3.653634
-4.103111
-4.496338
-4.828124
-5.095222
-5.294921
-5.425848
-5.489288
-5.489194
-5.431014
-5.320522
-5.162970
-4.962795
-4.724354
-4.453011
-4.155084
-3.835966
-3.498273
-3.143347
-2.775998
-2.407215
-2.051055
-1.718744
-1.416098
-1.145879
-0.910365
-0.709972
-0.540212
-0.391928
-0.255195
-0.122994
0.007916
0.138679
0.270971
0.408514
0.556273
0.718109
0.895003
1.085508
1.287504
1.498586
1.714301
1.926238
2.122498
2.290932
2.422627
2.513053
2.560774
2.565397
2.526445
2.443816
2.319093
2.155669
1.956775
1.724021
1.459149
1.167548
0.860341
0.553537
0.264794
0.009714
-0.200651
-0.360546
-0.468831
-0.527688
-0.541644
-0.517268
-0.462860
-0.387096
-0.296830
-0.195762
-0.084882
0.036175
0.167910
0.310242
0.462247
0.622067
0.786884
0.953383
1.118541
1.279677
1.433817
1.577412
1.706200
1.814899
1.898031
1.952201
1.977862
1.979369
1.963821
1.939302
1.912899
1.888922
1.867982
1.847621
1.823890
1.792271
1.747836
1.685366
1.599529
1.485228
1.338292
1.155953
0.937112
0.683262
0.399404
0.093166
-0.227309
-0.554469
-0.881114
-1.199948
-1.503927
-1.787849
-2.050144
-2.292662
-2.518060
-2.727058
-2.918133
-3.089625
-3.241513
-3.374574
-3.487964
-3.578149
-3.640682
-3.673081
-3.675908
-3.651571
-3.603417
-3.536866
-3.460815
-3.386846
-3.326564
-3.288876
-3.278142
-3.293212
-3.327512
-3.370831
-3.412834
-3.446312
-3.467503
-3.473564
-3.460460
-3.423565
-3.359800
-3.269367
-3.156230
-3.026948
-2.888393
-2.745927
-2.602703
-2.459633
-2.315997
-2.170892
-2.024678
-1.879392
-1.737950
-1.602648
-1.474118
-1.351685
-1.234619
-1.122856
-1.016640
-0.916095
-0.821497
-0.733308
-0.651060
-0.572283
-0.493062
-0.409449
-0.318157
-0.216483
-0.101975
0.027848
0.175373
0.342614
0.531557
0.744524
0.983093
1.246079
1.528801
1.824343
2.125083
2.422995
2.709667
2.977485
3.221232
3.438386
3.628160
3.790706
3.926971
4.038661
4.127670
4.194962
4.239550
4.258484
4.247844
4.203481
4.120859
3.995200
3.822755
3.602297
3.336264
3.031444
2.698203
2.348159
1.992253
1.640633
1.303328
0.989978
0.708179
0.461793
0.251240
0.075777
-0.064393
-0.168088
-0.235203
-0.268982
-0.275803
-0.262339
-0.232909
-0.189055
-0.130849
-0.058508
0.026890
0.123849
0.231186
0.347984
0.472784
0.602988
0.735250
0.866539
0.994950
1.119924
1.241972
1.362140
1.481730
1.602360
1.725657
1.852337
1.981404
2.110190
2.235261
2.353684
2.463766
2.564770
2.656150
2.737203
2.807180
2.865203
2.909839
2.938774
2.948796
2.935890
2.895403
2.822294
2.711581
2.559307
2.363750
2.126144
1.850631
1.543565
1.212371
0.864294
0.505207
0.138890
-0.232195
-0.604628
-0.972002
-1.325032
-1.653960
-1.951335
-2.213026
-2.437679
-2.626346
-2.782730
-2.913029
-3.025178
-3.128436
-3.233345
-3.350826
-3.490175
-3.657402
-3.854838
-4.081382
-4.332467
-4.599997
-4.873223
-5.140425
-5.390049
-5.610706
-5.790869
-5.919339
-5.986768
-5.987530
-5.920629
-5.788797
-5.596394
-5.347733
-5.047116
-4.700236
