EVENT_NAME: CENTRAL_ITALY
EVENT_ID: EMSC-20160824_0000006
EVENT_DATE_YYYYMMDD: 20160824
EVENT_TIME_HHMMSS: 013632
EVENT_LATITUDE_DEGREE: 42.6983
EVENT_LONGITUDE_DEGREE: 13.2335
EVENT_DEPTH_KM: 8.1
HYPOCENTER_REFERENCE: INGV-CNT_Seismic_Bulletin
MAGNITUDE_W: 6.0
MAGNITUDE_W_REFERENCE: INGV-webservice
MAGNITUDE_L: 6.0
MAGNITUDE_L_REFERENCE: INGV-CNT_Seismic_Bulletin
FOCAL_MECHANISM: NF
NETWORK: IT
STATION_CODE: NRC
STATION_NAME: NORCIA
STATION_LATITUDE_DEGREE: 42.792543
STATION_LONGITUDE_DEGREE: 13.096475
STATION_ELEVATION_M: 616
LOCATION: 
SENSOR_DEPTH_M: 0.0
VS30_M/S: 687
SITE_CLASSIFICATION_EC8: B
MORPHOLOGIC_CLASSIFICATION: SL
EPICENTRAL_DISTANCE_KM: 15.3
EARTHQUAKE_BACKAZIMUTH_DEGREE: 133.0
DATE_TIME_FIRST_SAMPLE_YYYYMMDD_HHMMSS: 20160824_013629.849
DATE_TIME_FIRST_SAMPLE_PRECISION: milliseconds
SAMPLING_INTERVAL_S: 0.005000
NDATA: 8000
DURATION_S: 40.000
STREAM: HGZ
UNITS: cm/s
INSTRUMENT: sensor = Unknown [Unknown] | digitizer = Unknown [Unknown]
INSTRUMENT_ANALOG/DIGITAL: D
INSTRUMENTAL_FREQUENCY_HZ: 
INSTRUMENTAL_DAMPING: 
FULL_SCALE_G: 
N_BIT_DIGITAL_CONVERTER: 
PGV_CM/S: -11.585439
TIME_PGV_S: 10.545000
BASELINE_CORRECTION: BASELINE REMOVED
FILTER_TYPE: BUTTERWORTH
FILTER_ORDER: 2
LOW_CUT_FREQUENCY_HZ: 0.080
HIGH_CUT_FREQUENCY_HZ: 40.000
LATE/NORMAL_TRIGGERED: NT
DATABASE_VERSION: DYNA 1.0
HEADER_FORMAT: DYNA 1.2
DATA_TYPE: VELOCITY
PROCESSING: manual (Paolucci et al., 2011)
DATA_TIMESTAMP_YYYYMMDD_HHMMSS: 20160825_132942.360
DATA_LICENSE: CC-BY3_0-IT (http://creativecommons.org/licenses/by/3.0/deed.en)
DATA_CITATION: ESM working group (2015), European Strong-Motion database, version 0.1, Network Activity 3: Networking acceleration networks and SM data users. Project NERA (www.nera-eu.org)
DATA_CREATOR: ESM working group
ORIGINAL_DATA_MEDIATOR_CITATION: Ufficio Rischio Sismico e Vulcanico del Dipartimento della Protezione Civile (http://www.protezionecivile.gov.it/)
ORIGINAL_DATA_MEDIATOR: Rete Accelerometrica Nazionale - RAN Download (http://www.mot1.it/randownload/)
ORIGINAL_DATA_CREATOR_CITATION: Italian Strong Motion Network, Italian Civil Protection Department http://www.protezionecivile.gov.it
ORIGINAL_DATA_CREATOR: network: IT (Italian Strong Motion Network); owner: Dipartimento Della Protezione Civile
USER1: /home/dyna/processing-itaca/processing.py /var/www/processing//tmp/Maria//IT.NRC..HGE.D.20160824.013632.X.ACC.ASC /var/www/processing//tmp/Maria//IT.NRC..HGN.D.20160824.013632.X.ACC.ASC /var/www/processing//tmp/Maria//IT.NRC..HGZ.D.20160824.013632.X.ACC.ASC --tmp /var/www/processing//tmp/Maria/ --le 0.08 --he 40.000 --ln 0.08 --hn 40.000 --lz 0.08 --hz 40.000 --fo 2 --ca 0 --cz 140 --ta 5 --tz 5 --mf 1 --rf 0 --tr NT
USER2: 
USER3: 
USER4: 
USER5: 
[...]
-0.022989
-0.022969
-0.022953
-0.022934
-0.022911
-0.022890
-0.022876
-0.022864
-0.022850
-0.022838
-0.022824
-0.022803
-0.022780
-0.022756
-0.022731
-0.022705
-0.022679
-0.022657
-0.022636
-0.022611
-0.022587
-0.022564
-0.022541
-0.022514
-0.022489
-0.022466
-0.022447
-0.022424
-0.022395
-0.022367
-0.022342
-0.022312
-0.022277
-0.022241
-0.022210
-0.022184
-0.022157
-0.022127
-0.022099
-0.022071
-0.022044
-0.022018
-0.021995
-0.021972
-0.021948
-0.021920
-0.021889
-0.021857
-0.021823
-0.021786
-0.021754
-0.021724
-0.021693
-0.021658
-0.021622
-0.021587
-0.021556
-0.021528
-0.021501
-0.021471
-0.021440
-0.021409
-0.021382
-0.021352
-0.021315
-0.021279
-0.021249
-0.021218
-0.021178
-0.021134
-0.021095
-0.021061
-0.021028
-0.020997
-0.020963
-0.020926
-0.020892
-0.020862
-0.020833
-0.020802
-0.020768
-0.020735
-0.020708
-0.020679
-0.020642
-0.020600
-0.020561
-0.020524
-0.020485
-0.020440
-0.020397
-0.020364
-0.020334
-0.020298
-0.020262
-0.020235
-0.020206
-0.020166
-0.020121
-0.020082
-0.020045
-0.020006
-0.019966
-0.019926
-0.019887
-0.019851
-0.019816
-0.019777
-0.019733
-0.019687
-0.019644
-0.019601
-0.019553
-0.019504
-0.019457
-0.019410
-0.019367
-0.019323
-0.019277
-0.019233
-0.019190
-0.019144
-0.019095
-0.019047
-0.019000
-0.018954
-0.018909
-0.018859
-0.018807
-0.018755
-0.018706
-0.018656
-0.018602
-0.018546
-0.018491
-0.018438
-0.018388
-0.018337
-0.018284
-0.018229
-0.018174
-0.018126
-0.018085
-0.018043
-0.017995
-0.017945
-0.017891
-0.017830
-0.017767
-0.017708
-0.017654
-0.017600
-0.017542
-0.017485
-0.017432
-0.017376
-0.017317
-0.017255
-0.017191
-0.017126
-0.017063
-0.017001
-0.016940
-0.016878
-0.016813
-0.016748
-0.016686
-0.016626
-0.016569
-0.016512
-0.016453
-0.016391
-0.016330
-0.016270
-0.016209
-0.016148
-0.016088
-0.016027
-0.015972
-0.015922
-0.015867
-0.015806
-0.015746
-0.015688
-0.015626
-0.015564
-0.015503
-0.015437
-0.015366
-0.015299
-0.015240
-0.015183
-0.015121
-0.015049
-0.014974
-0.014899
-0.014826
-0.014750
-0.014676
-0.014604
-0.014528
-0.014444
-0.014368
-0.014301
-0.014234
-0.014163
-0.014092
-0.014024
-0.013953
-0.013879
-0.013802
-0.013721
-0.013640
-0.013564
-0.013490
-0.013412
-0.013329
-0.013254
-0.013189
-0.013124
-0.013049
-0.012974
-0.012904
-0.012832
-0.012753
-0.012669
-0.012590
-0.012513
-0.012436
-0.012357
-0.012276
-0.012191
-0.012107
-0.012027
-0.011948
-0.011866
-0.011776
-0.011686
-0.011607
-0.011534
-0.011454
-0.011368
-0.011289
-0.011213
-0.011133
-0.011047
-0.010960
-0.010875
-0.010788
-0.010696
-0.010605
-0.010519
-0.010438
-0.010357
-0.010268
-0.010175
-0.010086
-0.009998
-0.009910
-0.009821
-0.009728
-0.009629
-0.009532
-0.009443
-0.009361
-0.009275
-0.009185
-0.009091
-0.008993
-0.008891
-0.008792
-0.008700
-0.008607
-0.008509
-0.008411
-0.008313
-0.008212
-0.008108
-0.008005
-0.007903
-0.007801
-0.007702
-0.007605
-0.007508
-0.007413
-0.007319
-0.007224
-0.007124
-0.007020
-0.006919
-0.006818
-0.006712
-0.006605
-0.006500
-0.006394
-0.006292
-0.006189
-0.006084
-0.005981
-0.005876
-0.005767
-0.005655
-0.005545
-0.005432
-0.005314
-0.005199
-0.005090
-0.004979
-0.004862
-0.004750
-0.004645
-0.004537
-0.004420
-0.004303
-0.004192
-0.004085
-0.003978
-0.003866
-0.003751
-0.003641
-0.003532
-0.003417
-0.003297
-0.003177
-0.003058
-0.002941
-0.002824
-0.002706
-0.002580
-0.002439
-0.002277
-0.002078
-0.001817
-0.001454
-0.000945
-0.000247
0.000677
0.001846
0.003260
0.004882
0.006628
0.008367
0.009921
0.011076
0.011628
0.011433
0.010462
0.008830
0.006764
0.004540
0.002431
0.000671
-0.000554
-0.001095
-0.000843
0.000232
0.002030
0.004337
0.006896
0.009457
0.011787
0.013662
0.014870
0.015228
0.014615
0.013054
0.010783
0.008224
0.005809
0.003830
0.002427
0.001658
0.001564
0.002201
0.003643
0.005902
0.008772
0.011777
0.014322
0.015950
0.016538
0.016308
0.015665
0.014976
0.014382
0.013813
0.013203
0.012688
0.012553
0.013025
0.014089
0.015430
0.016549
0.017014
0.016689
0.015756
0.014607
0.013749
0.013757
0.015172
0.018323
0.023168
0.029213
0.035592
0.041383
0.046060
0.049707
0.052681
0.054994
0.056070
0.055189
0.052264
0.048298
0.045093
0.044124
0.045268
0.046586
0.045685
0.041682
0.036063
0.031707
0.030889
0.033697
0.037964
0.040903
0.041384
0.041030
0.043009
0.049330
0.058977
0.068576
0.074972
0.077547
0.078616
0.081709
0.088757
0.098276
0.106414
0.110232
0.110250
0.110008
0.113079
0.120057
0.128160
0.133825
0.135891
0.136535
0.139491
0.147378
0.160034
0.174657
0.187606
0.196713
0.202245
0.205630
0.207442
0.206887
0.203140
0.196858
0.190391
0.186578
0.186998
0.190912
0.195857
0.199586
0.201762
0.203876
0.207509
0.212557
0.216859
0.217355
0.211729
0.199310
0.180909
0.158286
0.133889
0.110693
0.091687
0.079090
0.073799
0.075363
0.082468
0.093714
0.108196
0.125498
0.145241
0.166620
0.188250
0.208475
0.225941
0.239969
0.250408
0.257420
0.261621
0.264092
0.265944
0.268183
0.271953
0.278080
0.286145
0.294754
0.302745
0.309254
0.312683
0.310599
0.301193
0.285102
0.266266
0.250803
0.243867
0.246390
0.254561
0.262630
0.266595
0.266219
0.264472
0.264780
0.267867
0.270748
0.268699
0.258303
0.238869
0.211508
0.177338
0.136395
0.088251
0.034736
-0.017340
-0.057494
-0.077601
-0.077454
-0.064384
-0.047487
-0.031821
-0.017054
-0.000576
0.018835
0.040464
0.064089
0.092172
0.128747
0.174853
0.224427
0.265474
0.285800
0.278010
0.241715
0.184116
0.118084
0.057160
0.011029
-0.015328
-0.020184
-0.004238
0.028900
0.072346
0.117105
0.154559
0.179154
0.190045
0.190249
0.183569
0.172420
0.158887
0.146891
0.141916
0.148646
0.169170
0.201894
0.240513
0.274574
0.292834
0.287997
0.260015
0.215996
0.166734
0.121921
0.087001
0.063182
0.049763
0.046600
0.054852
0.075797
0.108231
0.145335
0.174898
0.186322
0.179256
0.164347
0.154995
0.157837
0.167931
0.170227
0.149154
0.103867
0.055876
0.037217
0.067118
0.138407
0.223845
0.293773
0.331650
0.339942
0.332616
0.317403
0.284618
0.217828
0.116736
0.007465
-0.069796
-0.085143
-0.039415
0.032119
0.079145
0.068257
0.002400
-0.087373
-0.167528
-0.223104
-0.261147
-0.297555
-0.339124
-0.376658
-0.394658
-0.385737
-0.355094
-0.314167
-0.272641
-0.234373
-0.196646
-0.152676
-0.098763
-0.042135
0.000720
0.019301
0.025476
0.052371
0.132789
0.274514
0.451974
0.619038
0.732942
0.773554
0.747969
0.682393
0.608321
0.548428
0.508567
0.481375
0.458893
0.443730
0.447817
0.477173
0.518354
0.545321
0.541249
0.512623
0.485161
0.486260
0.524392
0.581060
0.625380
0.638821
0.626431
0.607936
0.600519
0.606791
0.614786
0.606541
0.568193
0.499716
0.419791
0.357412
0.333716
0.348235
0.377607
0.386257
0.345269
0.250066
0.123557
-0.000053
-0.099069
-0.176187
-0.246902
-0.313591
-0.353737
-0.339682
-0.269058
-0.171487
-0.087243
-0.042049
-0.036333
-0.048609
-0.048231
-0.012887
0.059142
0.149943
0.234242
0.294316
0.326888
0.337664
0.331832
0.311755
0.282692
0.256556
0.245480
0.249975
0.253275
0.227471
0.148997
0.016427
-0.139387
-0.264617
-0.313730
-0.281109
-0.203172
-0.129233
-0.088081
-0.074414
-0.059446
-0.016139
0.056308
0.127220
0.157565
0.133793
0.078861
0.028578
-0.001083
-0.021713
-0.049221
-0.074467
-0.060429
0.024648
0.168920
0.314319
0.392622
0.366267
0.243920
0.069415
-0.100632
-0.218510
-0.260682
-0.233322
-0.164383
-0.083339
-0.003921
0.074465
0.152144
0.220446
0.268032
0.293212
0.307181
0.323399
0.343115
0.350853
0.323062
0.243451
0.117213
-0.024346
-0.135064
-0.177399
-0.141564
-0.042741
0.098784
0.270126
0.461951
0.661681
0.850461
1.003356
1.101329
1.151747
1.188784
1.242067
1.308506
1.362958
1.392523
1.414288
1.463765
1.569549
1.734625
1.936285
2.139054
2.307711
2.418571
2.469190
2.476052
2.455895
2.406925
2.309305
2.147087
1.937730
1.743530
1.642698
1.675171
1.812386
1.976307
2.083403
2.083036
1.979938
1.830078
1.702435
1.629230
1.585100
1.513033
1.374789
1.184182
0.998638
0.880015
0.857090
0.913146
0.999803
1.065381
1.082104
1.056070
1.012222
0.966697
0.915016
0.849109
0.779309
0.730595
0.717561
0.729582
0.741475
0.732381
0.693394
0.628652
0.557728
0.509364
0.501796
0.527619
0.560652
0.577543
0.571709
0.548268
0.511275
0.463008
0.413480
0.378635
0.366737
0.373922
0.392496
0.418534
0.451755
0.490704
0.531055
0.569329
0.603607
0.627278
0.626779
0.591930
0.528666
0.459276
0.410043
0.396098
0.413029
0.442177
0.467584
0.491183
0.531257
0.602347
0.694586
0.775515
0.819713
0.842473
0.901119
1.056210
1.324539
1.660327
1.977877
2.202521
2.316299
2.363037
2.407672
2.488893
2.609621
2.763963
2.961989
3.226471
3.569759
3.971477
4.372049
4.692831
4.876672
4.916553
4.848255
4.720199
4.568251
4.409879
4.259051
4.149813
4.138756
4.268833
4.522815
4.813465
5.027672
5.096020
5.030072
4.895915
4.755335
4.622715
4.456490
4.188261
3.779741
3.265953
2.741967
2.307591
2.024073
1.902631
1.907886
1.979120
2.076866
2.210847
2.402563
2.627104
2.815406
2.905502
2.872888
2.731517
2.534227
2.356257
2.243163
2.172574
2.083931
1.942309
1.767795
1.622558
1.578750
1.672847
1.869354
2.076648
2.211419
2.252004
2.237191
2.222788
2.230319
2.218916
2.105847
1.828091
1.394056
0.883187
0.401905
0.033054
-0.191209
-0.283215
-0.274793
-0.199370
-0.085532
0.049403
0.197624
0.342300
0.447825
0.480950
0.437423
0.336234
0.190600
-0.000117
-0.226906
-0.453413
-0.623117
-0.669246
-0.525967
-0.164983
0.363329
0.937461
1.421986
1.724681
1.825224
1.780454
1.700481
1.690796
1.799743
2.009586
2.258144
2.475918
2.636146
2.779042
2.968668
3.218586
3.468916
3.629286
3.629342
3.448010
3.128979
2.761216
2.414275
2.094927
1.782909
1.487879
1.245327
1.075962
0.973413
0.915609
0.867552
0.786778
0.651729
0.488543
0.359132
0.319089
0.382270
0.505544
0.596622
0.561049
0.373099
0.103496
-0.138509
-0.299063
-0.415776
-0.566889
-0.798742
-1.099808
-1.410560
-1.634772
-1.673233
-1.492389
-1.163664
-0.818625
-0.559869
-0.407596
-0.314473
-0.223885
-0.120864
-0.031972
0.018249
0.040367
0.079146
0.198021
0.452658
0.850629
1.325458
1.759575
2.052730
2.179941
2.179655
2.088566
1.896712
1.556007
1.019348
0.287870
-0.556257
-1.369633
-2.020705
-2.453140
-2.686835
-2.782019
-2.821097
-2.896327
-3.061207
-3.289142
-3.509099
-3.677413
-3.803357
-3.925317
-4.077349
-4.266403
-4.462806
-4.606528
-4.632491
-4.501635
-4.218937
-3.836106
-3.431505
-3.059854
-2.714423
-2.356533
-1.982892
-1.650228
-1.440247
-1.415346
-1.602071
-1.990431
-2.524097
-3.094210
-3.572414
-3.873212
-3.989910
-3.984973
-3.965163
-4.045372
-4.290745
-4.680257
-5.132095
-5.555926
-5.883437
-6.078796
-6.145000
-6.121675
-6.073009
-6.067384
-6.138801
-6.254587
-6.339294
-6.333659
-6.221762
-6.026391
-5.809995
-5.663111
-5.653460
-5.782619
-5.998705
-6.230483
-6.405785
-6.476686
-6.456980
-6.428392
-6.493679
-6.713121
-7.068830
-7.469778
-7.799107
-7.982409
-8.022394
-7.979809
-7.929974
-7.915664
-7.913279
-7.845579
-7.646603
-7.328210
-6.990831
-6.770542
-6.759294
-6.950906
-7.246618
-7.504226
-7.591691
-7.424784
-6.982588
-6.297961
-5.431074
-4.444597
-3.394694
-2.337286
-1.337614
-0.471627
0.186503
0.587804
0.723354
0.619975
0.338759
-0.020176
-0.345606
-0.576821
-0.728030
-0.833095
-0.877342
-0.803399
-0.570956
-0.192236
0.270153
0.710704
0.998903
1.030188
0.784584
0.336893
-0.195620
-0.724382
-1.224805
-1.713622
-2.196516
-2.638859
-2.979314
-3.162670
-3.164985
-2.996644
-2.683599
-2.252191
-1.736395
-1.185352
-0.647832
-0.149798
0.303907
0.701431
1.008333
1.195700
1.278229
1.306890
1.320632
1.308771
1.216445
0.983354
0.586834
0.066679
-0.481131
-0.942019
-1.227112
-1.293831
-1.145522
-0.833935
-0.461209
-0.155164
-0.018705
-0.086460
-0.315068
-0.612279
-0.892563
-1.123166
-1.322798
-1.523862
-1.749503
-2.020384
-2.354388
-2.747502
-3.165733
-3.556660
-3.867456
-4.071786
-4.200666
-4.341908
-4.589276
-4.982948
-5.493823
-6.046062
-6.540891
-6.873559
-6.958002
-6.758744
-6.310107
-5.706012
-5.058700
-4.442219
-3.857424
-3.249501
-2.562681
-1.781059
-0.922248
-0.004797
0.963343
1.966131
2.960531
3.876372
4.632398
5.161773
5.440232
5.499646
5.406147
5.216593
4.956440
4.627485
4.216599
3.701487
3.072981
2.363465
1.647043
1.002860
0.470425
0.033442
-0.356670
-0.740786
-1.126912
-1.490353
-1.792121
-2.003666
-2.125601
-2.192545
-2.260300
-2.380863
-2.587085
-2.898754
-3.330704
-3.888883
-4.568140
-5.358238
-6.246453
-7.211176
-8.208388
-9.163410
-9.990729
-10.634193
-11.085971
-11.371120
-11.525643
-11.585439
-11.575450
-11.493299
-11.307051
-10.978031
-10.492560
-9.886144
-9.239715
-8.636513
-8.116350
-7.668977
-7.255281
-6.823761
-6.323100
-5.729497
-5.071728
-4.417738
-3.828573
-3.324191
-2.889416
-2.502427
-2.150535
-1.828378
-1.540414
-1.312880
-1.194068
-1.231802
-1.448934
-1.838977
-2.373594
-3.005633
-3.672408
-4.304894
-4.834195
-5.195469
-5.336993
-5.233314
-4.900937
-4.409003
-3.866882
-3.387727
-3.055121
-2.912980
-2.966123
-3.177441
-3.477458
-3.804693
-4.154423
-4.580733
-5.137123
-5.819350
-6.567357
-7.299416
-7.930260
-8.378365
-8.587466
-8.552208
-8.315495
-7.933191
-7.440003
-6.841931
-6.129117
-5.297721
-4.374706
-3.432796
-2.579330
-1.915632
-1.488835
-1.272697
-1.191234
-1.157856
-1.100027
-0.968227
-0.734015
-0.378405
0.114879
0.749812
1.504672
2.329553
3.152082
3.886845
4.454624
4.812194
4.971648
4.987135
4.916978
4.790057
4.599211
4.324302
3.962164
3.534745
3.075676
2.621934
2.223448
1.948641
1.858925
1.963892
2.200702
2.458832
2.626950
2.629429
2.438884
2.067866
1.553427
0.944792
0.291564
-0.368033
-1.011349
-1.625515
-2.199652
-2.721502
-3.171375
-3.509621
-3.675140
-3.607582
-3.273625
-2.674698
-1.846288
-0.865818
0.144642
1.046511
1.735445
2.172218
2.370700
2.366094
2.195651
1.896599
1.505197
1.047443
0.531782
-0.041352
-0.658212
-1.279218
-1.844428
-2.289259
-2.561721
-2.637554
-2.528410
-2.275693
-1.932346
-1.546907
-1.160042
-0.808722
-0.524696
-0.325231
-0.210828
-0.176646
-0.222342
-0.347404
-0.543359
-0.797065
-1.097299
-1.430555
-1.768887
-2.065812
-2.267888
-2.329508
-2.216832
-1.906317
-1.391754
-0.697032
0.122545
0.995186
1.850481
2.628921
3.284333
3.787841
4.134919
4.342428
4.431481
4.416367
4.312763
4.150020
3.970166
3.819376
3.746630
3.804146
4.030052
4.420667
4.928156
5.490398
6.055504
6.578862
7.014721
7.324343
7.489831
7.514022
7.409834
7.197287
6.911736
6.605735
6.332583
6.124721
5.987634
5.913720
5.902952
5.969952
6.131043
6.388296
6.724063
7.100768
7.464074
7.756349
7.936990
7.997129
7.962519
7.883874
7.814828
7.787660
7.806248
7.859252
7.932786
8.011268
8.078214
8.123616
8.148375
8.159238
8.156374
8.121490
8.020020
7.820303
7.511823
7.106953
6.634283
6.137182
5.671469
5.291051
5.028544
4.884283
4.828481
4.815016
4.799543
4.750956
4.652420
4.499318
4.301033
4.082414
3.875768
3.705067
3.576645
3.482139
3.404386
3.322286
3.215137
3.064719
2.861013
2.610972
2.335391
2.051405
1.759320
1.447742
1.110008
0.755444
0.405790
0.083438
-0.193616
-0.409504
-0.550268
-0.606229
-0.573169
-0.452188
-0.249552
0.023069
0.347828
0.699443
1.047262
1.365047
1.643712
1.893715
2.130147
2.351905
2.534100
2.640274
2.642425
2.531563
2.315817
2.016012
1.663369
1.295771
0.949070
0.645586
0.389899
0.177046
0.001545
-0.143308
-0.267885
-0.379740
-0.473481
-0.530619
-0.533119
-0.479765
-0.393337
-0.316805
-0.300241
-0.380820
-0.567167
-0.840375
-1.169677
-1.530118
-1.911299
-2.313506
-2.735523
-3.162562
-3.563685
-3.903987
-4.162125
-4.336158
-4.437526
-4.488250
-4.523515
-4.584074
-4.695331
-4.856104
-5.052181
-5.274529
-5.517627
-5.767518
-6.004193
-6.215875
-6.401634
-6.558950
-6.676910
-6.741836
-6.741337
-6.663207
-6.499596
-6.257722
-5.966049
-5.665550
-5.388915
-5.145314
-4.922811
-4.700740
-4.459812
-4.188742
-3.890872
-3.586995
-3.305016
-3.058936
-2.838394
-2.621572
-2.394118
-2.153071
-1.899583
-1.635014
-1.362941
-1.089857
-0.821973
-0.561960
-0.307547
-0.050318
0.224480
0.532091
0.877760
1.254388
1.651348
2.059615
2.467766
2.861015
3.228032
3.565130
3.870356
4.134317
4.340294
4.475531
4.541168
4.551432
4.527767
4.494392
4.472994
4.475105
4.496820
4.520671
4.524258
4.490513
4.413032
4.294444
4.144067
3.978429
3.819363
3.687766
3.597419
3.550680
3.536015
3.529753
3.504019
3.437880
3.325070
3.175833
3.015363
2.876582
2.784848
2.745008
2.741986
2.749609
2.737916
2.679795
2.559329
2.377022
2.147718
1.893757
1.638631
1.404686
1.213263
1.081801
1.017824
1.016097
1.061123
1.132435
1.211619
1.288862
1.364070
1.441677
1.524806
1.613117
1.702727
1.787305
1.862871
1.933539
2.010007
2.101556
2.211878
2.341361
2.488676
2.649154
2.814502
2.976380
3.129454
3.268472
3.383824
3.465663
3.513911
3.540499
3.561254
3.589512
3.638175
3.722507
3.855154
4.037566
4.258865
4.503253
4.754959
4.995872
5.205146
5.366476
5.474060
5.531339
5.551662
5.563805
5.605435
5.697912
5.827125
5.953107
6.035941
6.051077
5.988450
5.848493
5.641814
5.386907
5.102960
4.804583
4.503284
4.210292
3.935056
3.682602
3.454240
3.249443
3.065950
2.899938
2.748140
2.609677
2.484040
2.365338
2.239096
2.088419
1.905945
1.699712
1.487121
1.284300
1.102328
0.950345
0.834523
0.751339
0.687129
0.628051
0.569155
0.513564
0.466945
0.436960
0.436614
0.480744
0.573846
0.702646
0.841643
0.963969
1.049259
1.088493
1.086649
1.060888
1.033214
1.021119
1.031221
1.060126
1.105347
1.178738
1.305390
1.505222
1.775883
2.091239
2.410576
2.689333
2.890235
2.994489
3.006243
2.945788
2.837813
2.704195
2.563330
2.430285
2.313335
2.211875
2.120256
2.030322
1.928515
1.798124
1.631810
1.440922
1.249536
1.080242
0.945840
0.849147
0.782742
0.727360
0.657683
0.554953
0.412887
0.233879
0.026142
-0.196725
-0.422225
-0.648016
-0.879111
-1.113475
-1.334310
-1.519970
-1.660629
-1.762846
-1.839144
-1.897928
-1.943128
-1.976460
-1.996027
-1.995146
