EVENT_NAME: CENTRAL_ITALY
EVENT_ID: EMSC-20161026_0000095
EVENT_DATE_YYYYMMDD: 20161026
EVENT_TIME_HHMMSS: 191806
EVENT_LATITUDE_DEGREE: 42.9087
EVENT_LONGITUDE_DEGREE: 13.1288
EVENT_DEPTH_KM: 7.5
HYPOCENTER_REFERENCE: INGV-CNT_Seismic_Bulletin
MAGNITUDE_W: 5.9
MAGNITUDE_W_REFERENCE: INGV-webservice
MAGNITUDE_L: 5.9
MAGNITUDE_L_REFERENCE: INGV-CNT_Seismic_Bulletin
FOCAL_MECHANISM: NF
NETWORK: IT
STATION_CODE: NRC
STATION_NAME: NORCIA
STATION_LATITUDE_DEGREE: 42.792543
STATION_LONGITUDE_DEGREE: 13.096475
STATION_ELEVATION_M: 616
LOCATION: 
SENSOR_DEPTH_M: 0.0
VS30_M/S: 687
SITE_CLASSIFICATION_EC8: B
MORPHOLOGIC_CLASSIFICATION: SL
EPICENTRAL_DISTANCE_KM: 13.2
EARTHQUAKE_BACKAZIMUTH_DEGREE: 11.6
DATE_TIME_FIRST_SAMPLE_YYYYMMDD_HHMMSS: 20161026_191803.139
DATE_TIME_FIRST_SAMPLE_PRECISION: milliseconds
SAMPLING_INTERVAL_S: 0.005000
NDATA: 11542
DURATION_S: 57.710
STREAM: HGN
UNITS: cm/s^2
INSTRUMENT: sensor = Unknown [Unknown] | digitizer = Unknown [Unknown]
INSTRUMENT_ANALOG/DIGITAL: D
INSTRUMENTAL_FREQUENCY_HZ: 
INSTRUMENTAL_DAMPING: 
FULL_SCALE_G: 
N_BIT_DIGITAL_CONVERTER: 
PGA_CM/S^2: -366.358581
TIME_PGA_S: 10.180000
BASELINE_CORRECTION: BASELINE REMOVED
FILTER_TYPE: BUTTERWORTH
FILTER_ORDER: 2
LOW_CUT_FREQUENCY_HZ: 0.040
HIGH_CUT_FREQUENCY_HZ: 30.000
LATE/NORMAL_TRIGGERED: NT
DATABASE_VERSION: DYNA 1.0
HEADER_FORMAT: DYNA 1.2
DATA_TYPE: ACCELERATION
PROCESSING: manual (Paolucci et al., 2011)
DATA_TIMESTAMP_YYYYMMDD_HHMMSS: 20161027_011428.535
DATA_LICENSE: CC-BY3_0-IT (http://creativecommons.org/licenses/by/3.0/deed.en)
DATA_CITATION: ESM working group (2015), European Strong-Motion database, version 0.1, Network Activity 3: Networking acceleration networks and SM data users. Project NERA (www.nera-eu.org)
DATA_CREATOR: ESM working group
ORIGINAL_DATA_MEDIATOR_CITATION: Ufficio Rischio Sismico e Vulcanico del Dipartimento della Protezione Civile (http://www.protezionecivile.gov.it/)
ORIGINAL_DATA_MEDIATOR: Rete Accelerometrica Nazionale - RAN Download (http://www.mot1.it/randownload/)
ORIGINAL_DATA_CREATOR_CITATION: Italian Strong Motion Network, Italian Civil Protection Department http://www.protezionecivile.gov.it
ORIGINAL_DATA_CREATOR: network: IT (Italian Strong Motion Network); owner: Dipartimento Della Protezione Civile
USER1: /home/dyna/processing-itaca/processing.py /var/www/processing//tmp/Lucia//IT.NRC..HGE.D.20161026.191806.X.ACC.ASC /var/www/processing//tmp/Lucia//IT.NRC..HGN.D.20161026.191806.X.ACC.ASC /var/www/processing//tmp/Lucia//IT.NRC..HGZ.D.20161026.191806.X.ACC.ASC --tmp /var/www/processing//tmp/Lucia/ --le 0.040 --he 30.000 --ln 0.040 --hn 30.000 --lz 0.040 --hz 30.000 --fo 2 --ca 0 --cz 100 --ta 5 --tz 5 --mf 1 --rf 0 --tr NT
USER2: 
USER3: 
USER4: 
USER5: 
[...]
-0.027828
-0.018676
-0.009799
-0.001607
0.002611
-0.002000
-0.014207
-0.026535
-0.032458
-0.030078
-0.020219
-0.004815
0.012193
0.025649
0.032875
0.035936
0.039522
0.045529
0.050284
0.048918
0.041303
0.032117
0.026901
0.029515
0.041522
0.060103
0.075408
0.074778
0.052419
0.013093
-0.032149
-0.071271
-0.094812
-0.099025
-0.086618
-0.062131
-0.028079
0.012215
0.051674
0.082411
0.099449
0.100202
0.083879
0.054376
0.021428
-0.004794
-0.020451
-0.028298
-0.033388
-0.039316
-0.045299
-0.046138
-0.036830
-0.018159
0.002669
0.018122
0.025574
0.026650
0.024874
0.023128
0.021666
0.018605
0.011149
-0.001777
-0.015561
-0.020541
-0.008687
0.019001
0.051100
0.073765
0.080967
0.075827
0.064204
0.050191
0.035304
0.018008
-0.003782
-0.027543
-0.046322
-0.054268
-0.049997
-0.036692
-0.021098
-0.010221
-0.006373
-0.005593
-0.001683
0.008515
0.023543
0.039291
0.051972
0.060061
0.063188
0.060621
0.052956
0.042728
0.031704
0.019670
0.005651
-0.009709
-0.022111
-0.026741
-0.024377
-0.021163
-0.021960
-0.026096
-0.028831
-0.024457
-0.009326
0.014394
0.038177
0.052340
0.051699
0.037494
0.015839
-0.005360
-0.018687
-0.019840
-0.010779
0.001374
0.011089
0.019687
0.031288
0.045587
0.058648
0.067307
0.069024
0.060817
0.042235
0.018288
-0.003665
-0.019451
-0.028664
-0.030929
-0.024930
-0.012573
-0.001037
0.002432
-0.003191
-0.013561
-0.024148
-0.031539
-0.031987
-0.022431
-0.003690
0.018588
0.037772
0.049211
0.049835
0.040181
0.026250
0.014851
0.007673
0.002722
0.000387
0.003942
0.014560
0.029626
0.045025
0.056200
0.057854
0.046214
0.023289
-0.003144
-0.025039
-0.038192
-0.041249
-0.034515
-0.021133
-0.006076
0.007319
0.017928
0.024447
0.025801
0.023968
0.022301
0.021161
0.017805
0.009836
-0.001876
-0.013674
-0.022029
-0.024696
-0.020936
-0.012585
-0.002806
0.006787
0.016106
0.024476
0.030594
0.034545
0.037994
0.041993
0.046365
0.051568
0.058530
0.065457
0.067440
0.060247
0.043090
0.018599
-0.008389
-0.032305
-0.048444
-0.054462
-0.050880
-0.040075
-0.024495
-0.006112
0.012431
0.027655
0.036218
0.036125
0.029178
0.021052
0.016134
0.013284
0.007902
-0.003036
-0.018760
-0.036125
-0.051430
-0.061350
-0.064460
-0.061451
-0.051755
-0.032028
-0.000712
0.037321
0.073196
0.100961
0.119637
0.128937
0.126621
0.110873
0.083392
0.049074
0.013892
-0.016395
-0.037855
-0.050184
-0.055717
-0.056139
-0.051461
-0.041882
-0.028946
-0.015463
-0.004159
0.004191
0.010070
0.014102
0.017716
0.022575
0.028936
0.035001
0.038266
0.038757
0.039121
0.040615
0.041412
0.038549
0.030365
0.017402
0.001609
-0.013558
-0.023776
-0.027795
-0.028819
-0.030469
-0.033220
-0.034264
-0.029881
-0.018191
0.000062
0.022063
0.043547
0.059882
0.067697
0.066557
0.059319
0.049611
0.038492
0.024051
0.003929
-0.021192
-0.045679
-0.061372
-0.062433
-0.048070
-0.022739
0.005112
0.027419
0.041674
0.050788
0.058641
0.066455
0.072362
0.073679
0.068161
0.054205
0.032935
0.009001
-0.012377
-0.028388
-0.038568
-0.042934
-0.041851
-0.037102
-0.030477
-0.021527
-0.008623
0.007448
0.022483
0.032699
0.038369
0.042801
0.048182
0.053072
0.053982
0.047847
0.033265
0.012046
-0.010241
-0.027446
-0.037273
-0.041126
-0.040413
-0.035866
-0.029201
-0.022338
-0.015377
-0.006913
0.003860
0.016386
0.029211
0.039476
0.043736
0.041410
0.036029
0.031441
0.028245
0.025671
0.023877
0.021989
0.017467
0.009805
0.002611
0.000638
0.005199
0.012740
0.018514
0.020174
0.016976
0.009481
0.000872
-0.004866
-0.006624
-0.006467
-0.006110
-0.005246
-0.003555
-0.001489
0.000467
0.001056
-0.001732
-0.007933
-0.013870
-0.014157
-0.005357
0.011885
0.033688
0.054558
0.068179
0.070290
0.062171
0.048826
0.034320
0.020417
0.007895
-0.002645
-0.010787
-0.016207
-0.018529
-0.017871
-0.016024
-0.015661
-0.017360
-0.019173
-0.018807
-0.014290
-0.004259
0.010181
0.025026
0.035818
0.040103
0.037923
0.030753
0.020104
0.007447
-0.005331
-0.016174
-0.022424
-0.021381
-0.013527
-0.003000
0.006433
0.013507
0.018391
0.021691
0.023798
0.025275
0.027522
0.031091
0.034407
0.035364
0.032475
0.024685
0.012326
-0.001998
-0.015286
-0.026091
-0.034250
-0.040371
-0.044915
-0.047101
-0.045604
-0.039637
-0.029294
-0.015754
-0.001506
0.010322
0.017848
0.020874
0.019311
0.012390
-0.000171
-0.016909
-0.035649
-0.054609
-0.071246
-0.082512
-0.087855
-0.090195
-0.092678
-0.095213
-0.095003
-0.089224
-0.076086
-0.054957
-0.027484
0.000299
0.018335
0.018660
0.002590
-0.018657
-0.032576
-0.036433
-0.037359
-0.042324
-0.054034
-0.074836
-0.105142
-0.135569
-0.147973
-0.130187
-0.087960
-0.040482
-0.008039
-0.003142
-0.023661
-0.051258
-0.064372
-0.057395
-0.045161
-0.049783
-0.086078
-0.153944
-0.233236
-0.286122
-0.279983
-0.218672
-0.145372
-0.107442
-0.120637
-0.167279
-0.216171
-0.233750
-0.191103
-0.088423
0.023797
0.071806
0.023299
-0.082278
-0.172242
-0.195158
-0.138160
-0.021909
0.100646
0.161200
0.124932
0.023713
-0.076785
-0.137750
-0.161689
-0.163654
-0.154960
-0.149847
-0.164240
-0.201649
-0.247915
-0.281808
-0.289532
-0.271500
-0.237160
-0.193898
-0.145441
-0.104098
-0.093154
-0.121486
-0.161532
-0.170492
-0.131861
-0.064299
-0.001428
0.020288
-0.026394
-0.126891
-0.207935
-0.182428
-0.025273
0.201993
0.402515
0.506029
0.483828
0.340256
0.116615
-0.111854
-0.266892
-0.302366
-0.216081
-0.039840
0.174578
0.361595
0.451858
0.404086
0.239209
0.037745
-0.098999
-0.097597
0.042159
0.232717
0.348457
0.306332
0.107356
-0.172181
-0.416179
-0.528869
-0.494764
-0.383636
-0.292825
-0.273590
-0.298220
-0.300023
-0.239114
-0.115609
0.047584
0.196618
0.261051
0.222612
0.146618
0.123885
0.196903
0.337822
0.475950
0.542299
0.495557
0.327678
0.069839
-0.213117
-0.441858
-0.533249
-0.435087
-0.194479
0.042025
0.138488
0.068474
-0.098960
-0.275517
-0.400634
-0.455849
-0.475917
-0.531943
-0.671626
-0.873840
-1.065979
-1.170331
-1.135117
-0.958063
-0.694910
-0.423462
-0.194182
-0.021056
0.095048
0.153717
0.163904
0.147268
0.124675
0.103257
0.067962
-0.010199
-0.123777
-0.195773
-0.143898
0.031325
0.248260
0.407892
0.439916
0.321140
0.095384
-0.116153
-0.167262
0.004336
0.320175
0.626641
0.795888
0.762774
0.530102
0.173519
-0.201585
-0.535434
-0.831627
-1.110034
-1.365305
-1.551131
-1.575865
-1.333327
-0.784397
-0.031240
0.702772
1.193932
1.341931
1.205490
0.953111
0.773587
0.776052
0.927085
1.074702
1.044501
0.744981
0.216568
-0.401993
-0.941193
-1.259155
-1.300545
-1.124406
-0.856844
-0.606786
-0.410212
-0.241696
-0.076453
0.082871
0.238274
0.407404
0.594202
0.780305
0.939723
1.038833
1.047058
0.978087
0.891213
0.827750
0.770097
0.660238
0.440360
0.102584
-0.283983
-0.610001
-0.788761
-0.786384
-0.625661
-0.392887
-0.220616
-0.196984
-0.264264
-0.255016
-0.062541
0.259776
0.583459
0.824196
0.948512
0.950814
0.891446
0.896446
1.042234
1.255523
1.371417
1.270883
0.926999
0.366070
-0.338994
-1.058106
-1.665094
-2.112376
-2.403906
-2.521775
-2.434571
-2.163866
-1.784302
-1.337259
-0.792571
-0.132153
0.579762
1.231173
1.705633
1.906792
1.823343
1.577804
1.367763
1.335690
1.494232
1.753449
1.967237
1.964238
1.618019
0.934665
0.051232
-0.863012
-1.675418
-2.289357
-2.665632
-2.851612
-2.932573
-2.954480
-2.900423
-2.711663
-2.341434
-1.823204
-1.284948
-0.882708
-0.694086
-0.652158
-0.610741
-0.490115
-0.328665
-0.199056
-0.111124
-0.006408
0.164031
0.378355
0.567704
0.667133
0.611306
0.321445
-0.231652
-0.949011
-1.630662
-2.095991
-2.261443
-2.120398
-1.737242
-1.287987
-0.995947
-0.951147
-1.040294
-1.079152
-0.947113
-0.586074
0.015481
0.785957
1.588753
2.292051
2.779706
2.930350
2.661588
2.010918
1.138215
0.226897
-0.585943
-1.180961
-1.469463
-1.505183
-1.493154
-1.617970
-1.915355
-2.313084
-2.702834
-2.946412
-2.907679
-2.566997
-2.073673
-1.629080
-1.351051
-1.269448
-1.383601
-1.658661
-1.971281
-2.153340
-2.152642
-2.064648
-1.978932
-1.914444
-1.891629
-1.948865
-2.117735
-2.425436
-2.849798
-3.252058
-3.393823
-3.042835
-2.130426
-0.847711
0.466472
1.530049
2.169524
2.260581
1.756421
0.783905
-0.371378
-1.422331
-2.244600
-2.922677
-3.627867
-4.425779
-5.192394
-5.674198
-5.638558
-5.039621
-4.045120
-2.891406
-1.753056
-0.765976
-0.088886
0.195061
0.222888
0.257732
0.454477
0.798406
1.195745
1.518724
1.633036
1.498981
1.218924
0.900807
0.514723
-0.015912
-0.628160
-1.148105
-1.463365
-1.553779
-1.416789
-1.111080
-0.852268
-0.912786
-1.372168
-2.015357
-2.455366
-2.292207
-1.250708
0.609359
2.766028
4.482632
5.285332
5.193094
4.536516
3.662532
2.820085
2.152306
1.637563
1.077037
0.230711
-0.998989
-2.521101
-4.202510
-5.968405
-7.702876
-9.208712
-10.347841
-11.054733
-11.147810
-10.333480
-8.535326
-6.119418
-3.724471
-1.931665
-1.035841
-0.917969
-1.067485
-0.877727
-0.056126
1.242924
2.667922
3.950847
4.968797
5.742349
6.445424
7.269806
8.188263
8.865962
8.823731
7.759888
5.844368
3.726706
2.139519
1.396339
1.244998
1.167216
0.782635
0.014677
-0.942111
-1.677245
-1.778635
-1.244881
-0.599032
-0.438776
-0.956675
-1.957103
-3.166512
-4.387816
-5.482545
-6.361504
-6.931893
-6.968919
-6.081078
-3.885862
-0.348264
3.957468
7.975210
10.667377
11.498431
10.591554
8.605719
6.482497
5.056100
4.661803
5.082366
5.790867
6.125795
5.460421
3.654494
1.388324
-0.291298
-0.860669
-0.604432
-0.109349
0.162702
-0.231256
-1.703404
-4.193598
-7.069463
-9.697367
-11.847597
-13.419810
-14.184763
-14.056023
-13.238054
-11.841104
-9.700602
-6.763055
-3.291290
0.362261
3.846880
6.819217
9.149457
10.949572
12.287096
13.029196
12.981070
12.059564
10.333143
8.053559
5.751678
4.124858
3.580638
3.921881
4.591159
5.045485
4.802408
3.564117
1.618584
-0.221292
-1.306254
-1.573529
-1.353862
-1.051028
-0.997568
-1.411245
-2.302003
-3.369417
-4.134326
-4.265974
-3.728703
-2.701825
-1.533946
-0.632818
-0.153677
0.115315
0.420528
0.682172
0.523482
-0.296264
-1.368639
-1.726774
-0.719575
1.350305
3.571680
5.116570
5.555203
4.855247
3.269377
1.178219
-1.065351
-3.245134
-5.207781
-6.690091
-7.416282
-7.314948
-6.356345
-4.305588
-1.029473
2.960099
6.596030
8.983066
9.821577
9.193553
7.430678
5.271201
3.692227
3.316000
3.961580
4.791300
4.894604
3.760556
1.436693
-1.475583
-3.965255
-5.038190
-4.461819
-3.262286
-3.154303
-5.171577
-8.896276
-12.972183
-15.971505
-16.794823
-14.950497
-10.832892
-5.598457
-0.646121
2.974491
4.776831
4.665603
2.991483
0.665857
-1.279939
-2.252771
-2.208942
-1.546928
-0.918450
-0.817450
-1.166991
-1.402971
-1.113320
-0.497378
-0.060948
-0.062326
-0.408157
-0.871149
-1.281140
-1.635722
-2.009003
-2.250325
-1.974791
-1.076249
-0.116468
0.028170
-1.087934
-3.226773
-5.787508
-8.025575
-9.235758
-9.264754
-8.648067
-7.821027
-6.406091
-3.712221
0.146295
4.117577
7.317875
9.851482
12.308702
14.728431
16.228979
15.572416
12.160431
6.581225
0.310589
-4.946373
-7.911788
-8.183283
-6.168477
-2.689171
1.403177
5.416263
8.724717
10.684942
10.838874
9.230828
6.458373
3.384642
0.860465
-0.346894
0.345530
2.965583
6.571723
9.422116
9.996373
8.165523
5.379673
3.609691
3.983714
6.206552
8.906113
10.356632
9.327669
5.728612
0.377140
-5.790132
-12.124302
-18.110641
-23.019819
-26.052145
-27.068338
-26.660597
-25.293209
-22.940334
-19.596849
-15.676608
-11.882219
-8.829936
-6.720706
-5.316224
-4.217155
-3.072798
-1.681012
-0.158925
1.074703
1.504571
0.637972
-1.686633
-4.988804
-8.561012
-12.141683
-15.997529
-20.685181
-26.666655
-33.615555
-40.200729
-44.890766
-46.871880
-46.426380
-44.957745
-44.444073
-46.348118
-50.906940
-57.067490
-62.653072
-65.056488
-62.411522
-54.211262
-41.263599
-25.554539
-9.663330
4.369812
15.847447
25.454390
34.655403
44.756886
56.338474
69.373894
83.658806
99.190598
116.166183
134.455521
153.118820
170.588882
185.382324
196.721954
204.554703
208.918518
209.294708
204.796326
195.191772
181.741974
166.890182
152.962479
141.094009
131.160919
122.184937
112.753677
101.694885
88.630859
73.716064
56.989990
38.262890
17.460686
-5.325341
-30.193302
-57.330143
-85.858238
-112.630669
-132.735718
-141.881805
-138.881897
-126.344414
-108.969345
-90.711243
-73.213158
-56.469444
-40.218288
-24.509291
-9.546637
4.568867
18.082314
31.669430
46.023968
61.304810
77.284210
93.869507
110.810959
126.728706
138.783524
143.583542
138.665146
123.337372
98.157883
63.724773
20.370266
-30.788994
-86.848747
-143.455734
-196.157104
-241.679337
-278.467468
-306.593689
-327.487457
-343.278168
-355.458832
-363.765503
-366.358582
-361.200592
-347.644867
-327.165192
-302.765747
-277.468903
-252.637039
-226.914276
-196.587570
-157.578384
-108.061569
-49.928329
12.423325
75.016548
135.253799
190.394409
237.180908
272.504700
292.626678
292.967590
270.605469
226.925156
167.505402
99.870728
31.469095
-31.493328
-85.100822
-128.244812
-161.736969
-186.528854
-202.428223
-208.130798
-202.353638
-185.131516
-158.013687
-122.976974
-81.543434
-35.035404
14.738430
65.257736
113.821404
158.414230
197.970795
231.900238
259.851044
281.938110
298.475769
309.138458
312.615234
307.265778
292.291534
268.492340
237.880417
202.445038
163.388489
121.641663
78.761002
36.996284
-1.412229
-35.044567
-63.675053
-87.794800
-107.593033
-122.600060
-132.499573
-137.792587
-139.158035
-136.466034
-128.966141
-116.497047
-100.223877
-82.185257
-64.391472
-48.281261
-34.682381
-24.012156
-16.325329
-11.330956
-8.793275
-8.890852
-11.853282
-17.301672
-24.075758
-30.585888
-35.385681
-37.672085
-37.389412
-34.974682
-31.132839
-26.538237
-21.217123
-14.319132
-4.909759
6.972041
20.100464
32.735065
43.411953
51.334087
56.371506
58.903721
59.691326
59.733009
60.001762
61.222801
63.907501
68.372368
74.344063
80.566032
85.192146
86.783051
84.949753
80.228355
73.531944
65.607277
56.793705
47.172157
36.753269
25.443430
13.087160
-0.242296
-14.027484
-27.456757
-39.897106
-51.263775
-61.850559
-71.921524
-81.620399
-90.931969
-99.290253
-105.297905
-107.077156
-103.062271
-92.802773
-77.293320
-58.384022
-37.711262
-16.289843
5.073808
25.423815
43.706970
58.966869
70.457169
77.579247
79.813972
76.929565
69.401321
58.576008
46.215286
33.729706
21.764112
10.327842
-0.849656
-12.043442
-23.389364
-34.817677
-46.023403
-56.438320
-65.257637
-71.621574
-74.809242
-74.270195
-69.791443
-61.930260
-52.028584
-41.518864
-31.382780
-22.301943
-14.918027
-9.762826
-7.077321
-6.620626
-7.585736
-8.875332
-9.441117
-8.381833
-5.181976
-0.141360
5.679808
11.098843
15.279587
17.684034
17.891296
15.665170
11.255160
5.474394
-0.820331
-7.329336
-14.187575
-21.354231
-28.371582
-34.556038
-39.035282
-40.620529
-38.043068
-30.610731
-18.718433
-3.680196
13.006911
30.172565
46.780884
61.596012
73.357368
81.291565
85.392479
86.170570
84.141991
79.666519
73.282394
66.018776
59.157894
53.467373
48.587059
43.304832
36.554234
28.222441
19.148375
10.412826
2.529314
-4.706941
-11.511742
-17.382290
-21.307634
-22.707710
-22.055746
-20.646099
-19.823648
-20.271400
-21.831640
-23.926243
-26.075401
-28.009510
-29.484207
-30.205503
-29.970308
-28.861982
-27.330357
-26.052896
-25.683865
-26.681408
-29.187832
-32.994286
-37.743828
-43.160706
-49.007572
-54.953770
-60.594856
-65.527115
-69.397842
-71.986160
-73.294136
-73.556664
-73.098282
-72.165215
-70.990341
-69.908195
-69.092773
-68.199867
-66.529678
-63.563271
-59.309750
-54.204594
-48.601589
-42.385895
-35.318867
-27.689739
-20.291203
-13.689337
-7.657944
-1.417541
5.512104
12.702150
19.105587
23.939720
27.251093
29.679432
31.801266
33.745399
35.357468
36.656181
38.037708
39.917267
42.190594
44.143940
44.959454
44.333172
42.492252
39.663338
35.893105
31.405645
26.651798
21.776369
16.220551
9.020584
-0.421596
-11.774098
-23.891655
-35.445595
-45.484943
-53.575478
-59.617580
-63.499130
-64.729134
-62.507931
-56.402142
-46.867268
-35.017677
-22.115786
-9.324559
2.393830
12.423504
20.636660
27.394024
33.265041
38.611500
43.406841
47.308582
49.747009
50.101147
48.076771
44.039860
38.970268
33.998260
29.880808
26.735708
24.004673
20.726006
16.194036
10.508761
4.536885
-0.564906
-3.926911
-5.351310
-5.233567
-4.141096
-2.514484
-0.679928
1.041923
2.314453
2.810556
2.265583
0.653187
-1.619460
-3.775154
-5.023864
-4.947747
-3.556764
-0.963474
2.809967
7.572647
12.766601
17.798208
22.551741
27.513412
33.366047
40.377117
48.097687
55.593090
61.926868
66.495735
69.078056
69.705849
68.475624
65.377815
60.272366
53.052929
43.844513
33.019451
21.031420
8.352932
-4.392033
-16.444731
-27.215624
-36.546406
-44.701851
-52.106213
-58.915405
-64.702454
-68.561508
-69.625526
-67.580940
-62.654514
-55.164650
-45.288727
-33.261211
-19.670652
-5.620778
7.375240
17.872684
25.048578
28.784576
29.248100
26.502447
20.511169
11.454770
0.021475
-12.693138
-25.634012
-38.110573
-49.754601
-60.285568
-69.295830
-76.186600
-80.274109
-80.962875
-77.956490
-71.449699
-62.089352
-50.713017
-38.142460
-25.150837
-12.478452
-0.715673
9.906592
19.512846
28.313883
36.382027
43.573566
49.457386
53.293407
54.267483
51.974987
46.802345
39.846416
32.396805
25.385670
19.201345
13.912071
9.633081
6.705964
5.583997
6.632673
10.037117
15.796169
23.747366
33.528793
44.407536
55.245220
64.905067
72.793320
78.981087
83.868034
87.710594
90.306374
91.058220
89.372391
85.037582
78.337540
69.903191
60.405857
50.281517
39.679707
28.634022
17.305311
6.103567
-4.478933
-14.150101
-22.772123
-29.996590
-35.092525
-37.172977
-35.594223
-30.302681
-21.907034
-11.409293
0.123705
11.739584
22.650917
32.228706
40.069962
46.089703
50.408749
53.122135
54.242039
53.798985
51.872448
48.498482
43.570469
36.854229
28.158634
17.524593
5.262719
-8.079108
-21.689774
-34.588760
-45.953827
-55.366096
-62.762520
-68.268562
-72.023483
-74.046379
-74.258278
-72.582016
-68.995247
-63.617241
-56.779499
