EVENT_NAME: CENTRAL_ITALY
EVENT_ID: EMSC-20160824_0000006
EVENT_DATE_YYYYMMDD: 20160824
EVENT_TIME_HHMMSS: 013632
EVENT_LATITUDE_DEGREE: 42.6983
EVENT_LONGITUDE_DEGREE: 13.2335
EVENT_DEPTH_KM: 8.1
HYPOCENTER_REFERENCE: INGV-CNT_Seismic_Bulletin
MAGNITUDE_W: 6.0
MAGNITUDE_W_REFERENCE: INGV-webservice
MAGNITUDE_L: 6.0
MAGNITUDE_L_REFERENCE: INGV-CNT_Seismic_Bulletin
FOCAL_MECHANISM: NF
NETWORK: IT
STATION_CODE: NRC
STATION_NAME: NORCIA
STATION_LATITUDE_DEGREE: 42.792543
STATION_LONGITUDE_DEGREE: 13.096475
STATION_ELEVATION_M: 616
LOCATION: 
SENSOR_DEPTH_M: 0.0
VS30_M/S: 687
SITE_CLASSIFICATION_EC8: B
MORPHOLOGIC_CLASSIFICATION: SL
EPICENTRAL_DISTANCE_KM: 15.3
EARTHQUAKE_BACKAZIMUTH_DEGREE: 133.0
DATE_TIME_FIRST_SAMPLE_YYYYMMDD_HHMMSS: 20160824_013629.849
DATE_TIME_FIRST_SAMPLE_PRECISION: milliseconds
SAMPLING_INTERVAL_S: 0.005000
NDATA: 8000
DURATION_S: 40.000
STREAM: HGZ
UNITS: cm
INSTRUMENT: sensor = Unknown [Unknown] | digitizer = Unknown [Unknown]
INSTRUMENT_ANALOG/DIGITAL: D
INSTRUMENTAL_FREQUENCY_HZ: 
INSTRUMENTAL_DAMPING: 
FULL_SCALE_G: 
N_BIT_DIGITAL_CONVERTER: 
PGD_CM: -3.036943
TIME_PGD_S: 10.915000
BASELINE_CORRECTION: BASELINE REMOVED
FILTER_TYPE: BUTTERWORTH
FILTER_ORDER: 2
LOW_CUT_FREQUENCY_HZ: 0.080
HIGH_CUT_FREQUENCY_HZ: 40.000
LATE/NORMAL_TRIGGERED: NT
DATABASE_VERSION: DYNA 1.0
HEADER_FORMAT: DYNA 1.2
DATA_TYPE: DISPLACEMENT
PROCESSING: manual (Paolucci et al., 2011)
DATA_TIMESTAMP_YYYYMMDD_HHMMSS: 20160825_132942.360
DATA_LICENSE: CC-BY3_0-IT (http://creativecommons.org/licenses/by/3.0/deed.en)
DATA_CITATION: ESM working group (2015), European Strong-Motion database, version 0.1, Network Activity 3: Networking acceleration networks and SM data users. Project NERA (www.nera-eu.org)
DATA_CREATOR: ESM working group
ORIGINAL_DATA_MEDIATOR_CITATION: Ufficio Rischio Sismico e Vulcanico del Dipartimento della Protezione Civile (http://www.protezionecivile.gov.it/)
ORIGINAL_DATA_MEDIATOR: Rete Accelerometrica Nazionale - RAN Download (http://www.mot1.it/randownload/)
ORIGINAL_DATA_CREATOR_CITATION: Italian Strong Motion Network, Italian Civil Protection Department http://www.protezionecivile.gov.it
ORIGINAL_DATA_CREATOR: network: IT (Italian Strong Motion Network); owner: Dipartimento Della Protezione Civile
USER1: /home/dyna/processing-itaca/processing.py /var/www/processing//tmp/Maria//IT.NRC..HGE.D.20160824.013632.X.ACC.ASC /var/www/processing//tmp/Maria//IT.NRC..HGN.D.20160824.013632.X.ACC.ASC /var/www/processing//tmp/Maria//IT.NRC..HGZ.D.20160824.013632.X.ACC.ASC --tmp /var/www/processing//tmp/Maria/ --le 0.08 --he 40.000 --ln 0.08 --hn 40.000 --lz 0.08 --hz 40.000 --fo 2 --ca 0 --cz 140 --ta 5 --tz 5 --mf 1 --rf 0 --tr NT
USER2: 
USER3: 
USER4: 
USER5: 
[...]
-7.888283e-02
-7.833279e-02
-7.776740e-02
-7.716711e-02
-7.652631e-02
-7.585719e-02
-7.517773e-02
-7.449506e-02
-7.379760e-02
-7.306071e-02
-7.226054e-02
-7.138725e-02
-7.044923e-02
-6.946566e-02
-6.845444e-02
-6.742628e-02
-6.638908e-02
-6.535464e-02
-6.433894e-02
-6.335465e-02
-6.240270e-02
-6.146981e-02
-6.053481e-02
-5.958025e-02
-5.860097e-02
-5.760304e-02
-5.659422e-02
-5.557484e-02
-5.453730e-02
-5.347451e-02
-5.239022e-02
-5.130344e-02
-5.024480e-02
-4.924825e-02
-4.834370e-02
-4.755227e-02
-4.688283e-02
-4.632936e-02
-4.587093e-02
-4.547548e-02
-4.510648e-02
-4.472967e-02
-4.431733e-02
-4.384876e-02
-4.330778e-02
-4.268029e-02
-4.195408e-02
-4.112099e-02
-4.017974e-02
-3.913736e-02
-3.800765e-02
-3.680781e-02
-3.555577e-02
-3.426867e-02
-3.296056e-02
-3.164010e-02
-3.031038e-02
-2.896947e-02
-2.760970e-02
-2.621930e-02
-2.478858e-02
-2.331481e-02
-2.180109e-02
-2.025482e-02
-1.869141e-02
-1.713841e-02
-1.563245e-02
-1.420694e-02
-1.287560e-02
-1.162159e-02
-1.040226e-02
-9.170307e-03
-7.897503e-03
-6.584354e-03
-5.251377e-03
-3.920284e-03
-2.597924e-03
-1.274023e-03
6.531415e-05
1.419053e-03
2.762547e-03
4.054061e-03
5.248404e-03
6.305941e-03
7.192634e-03
7.874609e-03
8.315862e-03
8.489542e-03
8.402843e-03
8.115372e-03
7.727369e-03
7.340100e-03
7.018182e-03
6.780748e-03
6.621642e-03
6.536369e-03
6.533490e-03
6.627667e-03
6.829989e-03
7.150435e-03
7.611295e-03
8.255030e-03
9.129294e-03
1.025143e-02
1.157880e-02
1.300780e-02
1.439785e-02
1.560643e-02
1.652701e-02
1.711743e-02
1.740323e-02
1.745838e-02
1.738174e-02
1.728082e-02
1.725963e-02
1.740413e-02
1.776586e-02
1.835138e-02
1.912418e-02
2.001995e-02
2.097017e-02
2.192142e-02
2.283926e-02
2.370136e-02
2.449580e-02
2.523025e-02
2.593983e-02
2.668306e-02
2.752892e-02
2.853839e-02
2.974095e-02
3.111382e-02
3.257799e-02
3.401797e-02
3.531805e-02
3.639803e-02
3.723170e-02
3.784131e-02
3.827631e-02
3.859222e-02
3.884104e-02
3.907404e-02
3.934830e-02
3.972728e-02
4.026844e-02
4.099511e-02
4.186960e-02
4.280121e-02
4.369749e-02
4.451923e-02
4.529420e-02
4.608339e-02
4.692304e-02
4.777418e-02
4.851995e-02
4.903928e-02
4.931866e-02
4.950475e-02
4.984034e-02
5.053238e-02
5.165160e-02
5.312047e-02
5.477872e-02
5.647843e-02
5.814151e-02
5.972853e-02
6.115162e-02
6.224076e-02
6.282443e-02
6.286176e-02
6.251278e-02
6.208707e-02
6.188999e-02
6.205059e-02
6.244631e-02
6.278760e-02
6.279959e-02
6.236273e-02
6.152509e-02
6.040957e-02
5.910384e-02
5.761606e-02
5.592044e-02
5.403715e-02
5.206386e-02
5.013517e-02
4.835971e-02
4.678887e-02
4.542567e-02
4.425380e-02
4.327057e-02
4.250719e-02
4.201338e-02
4.180270e-02
4.180630e-02
4.190281e-02
4.203019e-02
4.229204e-02
4.295599e-02
4.432856e-02
4.658843e-02
4.968362e-02
5.334833e-02
5.721610e-02
6.095594e-02
6.436791e-02
6.740951e-02
7.015165e-02
7.269449e-02
7.510137e-02
7.739583e-02
7.961448e-02
8.185357e-02
8.423944e-02
8.683121e-02
8.955781e-02
9.226405e-02
9.482717e-02
9.725297e-02
9.968427e-02
1.023062e-01
1.052115e-01
1.083384e-01
1.115325e-01
1.146647e-01
1.177044e-01
1.207070e-01
1.237409e-01
1.268149e-01
1.298476e-01
1.326885e-01
1.351871e-01
1.372861e-01
1.390731e-01
1.407417e-01
1.424829e-01
1.443709e-01
1.463022e-01
1.480285e-01
1.492789e-01
1.498967e-01
1.498964e-01
1.494010e-01
1.485201e-01
1.472856e-01
1.457176e-01
1.439490e-01
1.422505e-01
1.409053e-01
1.400478e-01
1.396116e-01
1.394014e-01
1.392197e-01
1.389767e-01
1.387355e-01
1.386711e-01
1.389668e-01
1.397165e-01
1.408877e-01
1.423593e-01
1.439937e-01
1.456820e-01
1.473412e-01
1.489000e-01
1.503134e-01
1.515962e-01
1.528236e-01
1.540735e-01
1.553399e-01
1.564772e-01
1.572222e-01
1.573043e-01
1.566074e-01
1.552843e-01
1.537157e-01
1.523101e-01
1.512943e-01
1.506481e-01
1.502077e-01
1.498356e-01
1.495384e-01
1.494577e-01
1.497392e-01
1.503753e-01
1.511632e-01
1.518321e-01
1.522264e-01
1.523693e-01
1.523639e-01
1.522553e-01
1.520092e-01
1.516369e-01
1.513347e-01
1.514580e-01
1.523026e-01
1.538742e-01
1.558373e-01
1.576686e-01
1.588882e-01
1.592353e-01
1.587321e-01
1.576396e-01
1.563362e-01
1.551696e-01
1.543477e-01
1.539310e-01
1.539114e-01
1.542837e-01
1.550444e-01
1.561466e-01
1.574868e-01
1.589528e-01
1.604888e-01
1.621057e-01
1.638213e-01
1.655756e-01
1.671909e-01
1.684081e-01
1.689942e-01
1.688725e-01
1.681972e-01
1.673102e-01
1.666023e-01
1.663886e-01
1.668826e-01
1.682332e-01
1.705429e-01
1.738513e-01
1.781036e-01
1.831204e-01
1.886271e-01
1.943858e-01
2.003297e-01
2.065401e-01
2.130826e-01
2.198974e-01
2.268600e-01
2.339314e-01
2.412503e-01
2.490980e-01
2.577711e-01
2.674526e-01
2.781478e-01
2.896864e-01
3.017792e-01
3.141252e-01
3.265054e-01
3.387849e-01
3.508195e-01
3.623661e-01
3.731015e-01
3.827902e-01
3.915078e-01
3.997213e-01
4.080972e-01
4.171591e-01
4.270406e-01
4.374576e-01
4.478728e-01
4.577725e-01
4.669229e-01
4.754351e-01
4.835812e-01
4.915067e-01
4.990719e-01
5.059458e-01
5.118667e-01
5.168599e-01
5.212600e-01
5.255455e-01
5.301112e-01
5.351102e-01
5.404371e-01
5.458476e-01
5.511280e-01
5.561891e-01
5.610226e-01
5.655977e-01
5.698432e-01
5.737397e-01
5.773927e-01
5.809805e-01
5.846284e-01
5.883358e-01
5.919977e-01
5.954647e-01
5.986080e-01
6.013966e-01
6.039434e-01
6.064524e-01
6.090905e-01
6.118937e-01
6.147815e-01
6.176400e-01
6.203813e-01
6.229377e-01
6.252528e-01
6.273202e-01
6.292133e-01
6.310470e-01
6.329166e-01
6.348791e-01
6.369718e-01
6.392306e-01
6.416841e-01
6.443394e-01
6.471860e-01
6.502040e-01
6.533404e-01
6.564743e-01
6.594340e-01
6.620773e-01
6.643737e-01
6.664239e-01
6.684044e-01
6.704695e-01
6.726804e-01
6.750183e-01
6.774743e-01
6.801305e-01
6.831423e-01
6.866152e-01
6.904928e-01
6.945914e-01
6.988037e-01
7.033093e-01
7.085904e-01
7.152131e-01
7.235147e-01
7.334041e-01
7.444167e-01
7.559982e-01
7.678134e-01
7.798517e-01
7.922962e-01
8.053443e-01
8.191641e-01
8.339741e-01
8.501064e-01
8.679552e-01
8.878126e-01
9.096728e-01
9.331370e-01
9.575204e-01
9.821031e-01
1.006344e+00
1.029945e+00
1.052787e+00
1.074836e+00
1.096131e+00
1.116880e+00
1.137574e+00
1.158918e+00
1.181532e+00
1.205600e+00
1.230738e+00
1.256218e+00
1.281369e+00
1.305848e+00
1.329625e+00
1.352738e+00
1.375021e+00
1.395962e+00
1.414861e+00
1.431191e+00
1.444900e+00
1.456438e+00
1.466559e+00
1.476072e+00
1.485611e+00
1.495507e+00
1.505891e+00
1.516945e+00
1.528958e+00
1.542094e+00
1.556171e+00
1.570698e+00
1.585063e+00
1.598720e+00
1.611392e+00
1.623173e+00
1.634389e+00
1.645251e+00
1.655671e+00
1.665383e+00
1.674222e+00
1.682334e+00
1.690228e+00
1.698592e+00
1.707939e+00
1.718322e+00
1.729380e+00
1.740640e+00
1.751826e+00
1.762939e+00
1.774091e+00
1.785186e+00
1.795715e+00
1.804855e+00
1.811826e+00
1.816242e+00
1.818251e+00
1.818416e+00
1.817460e+00
1.816044e+00
1.814670e+00
1.813673e+00
1.813246e+00
1.813493e+00
1.814481e+00
1.816192e+00
1.818431e+00
1.820836e+00
1.823023e+00
1.824705e+00
1.825658e+00
1.825657e+00
1.824522e+00
1.822255e+00
1.819140e+00
1.815794e+00
1.813164e+00
1.812339e+00
1.814155e+00
1.818843e+00
1.825953e+00
1.834576e+00
1.843702e+00
1.852604e+00
1.861107e+00
1.869561e+00
1.878560e+00
1.888607e+00
1.899898e+00
1.912278e+00
1.925459e+00
1.939354e+00
1.954197e+00
1.970290e+00
1.987635e+00
2.005781e+00
2.023928e+00
2.041168e+00
2.056813e+00
2.070619e+00
2.082690e+00
2.093165e+00
2.102079e+00
2.109519e+00
2.115745e+00
2.121125e+00
2.125992e+00
2.130570e+00
2.134908e+00
2.138842e+00
2.142101e+00
2.144543e+00
2.146339e+00
2.147934e+00
2.149846e+00
2.152373e+00
2.155357e+00
2.158162e+00
2.160027e+00
2.160545e+00
2.159852e+00
2.158357e+00
2.156278e+00
2.153444e+00
2.149450e+00
2.143951e+00
2.136898e+00
2.128724e+00
2.120358e+00
2.112896e+00
2.107078e+00
2.102985e+00
2.100185e+00
2.098147e+00
2.096575e+00
2.095455e+00
2.094851e+00
2.094691e+00
2.094783e+00
2.094984e+00
2.095380e+00
2.096370e+00
2.098633e+00
2.102887e+00
2.109514e+00
2.118312e+00
2.128575e+00
2.139475e+00
2.150373e+00
2.160816e+00
2.170300e+00
2.178080e+00
2.183177e+00
2.184616e+00
2.181835e+00
2.174987e+00
2.164883e+00
2.152617e+00
2.139183e+00
2.125273e+00
2.111168e+00
2.096686e+00
2.081380e+00
2.064934e+00
2.047389e+00
2.029002e+00
2.009985e+00
1.990358e+00
1.969971e+00
1.948639e+00
1.926325e+00
1.903293e+00
1.880130e+00
1.857622e+00
1.836527e+00
1.817347e+00
1.800189e+00
1.784890e+00
1.771318e+00
1.759535e+00
1.749621e+00
1.741370e+00
1.734169e+00
1.727092e+00
1.719081e+00
1.709129e+00
1.696509e+00
1.681038e+00
1.663176e+00
1.643810e+00
1.623860e+00
1.603935e+00
1.584109e+00
1.563883e+00
1.542429e+00
1.519028e+00
1.493367e+00
1.465587e+00
1.436170e+00
1.405776e+00
1.375051e+00
1.344443e+00
1.314078e+00
1.283741e+00
1.253047e+00
1.221774e+00
1.190078e+00
1.158409e+00
1.127300e+00
1.097168e+00
1.068118e+00
1.039803e+00
1.011536e+00
9.826225e-01
9.526290e-01
9.214766e-01
8.894477e-01
8.570642e-01
8.247793e-01
7.926374e-01
7.601690e-01
7.266034e-01
6.912592e-01
6.539103e-01
6.149148e-01
5.750027e-01
5.348908e-01
4.949917e-01
4.553419e-01
4.157635e-01
3.761971e-01
3.369692e-01
2.987362e-01
2.620952e-01
2.271410e-01
1.932883e-01
1.594919e-01
1.247373e-01
8.850423e-02
5.098310e-02
1.302465e-02
-2.409928e-02
-5.901222e-02
-9.050202e-02
-1.176574e-01
-1.398804e-01
-1.568538e-01
-1.685403e-01
-1.752283e-01
-1.775865e-01
-1.766540e-01
-1.737149e-01
-1.700982e-01
-1.669983e-01
-1.653045e-01
-1.654054e-01
-1.671334e-01
-1.700175e-01
-1.736577e-01
-1.778231e-01
-1.822098e-01
-1.862268e-01
-1.890816e-01
-1.900428e-01
-1.886920e-01
-1.851385e-01
-1.801440e-01
-1.749931e-01
-1.710701e-01
-1.693857e-01
-1.703638e-01
-1.739857e-01
-1.801097e-01
-1.886778e-01
-1.996604e-01
-2.128547e-01
-2.277513e-01
-2.435646e-01
-2.593895e-01
-2.743728e-01
-2.877908e-01
-2.990517e-01
-3.077337e-01
-3.136605e-01
-3.168996e-01
-3.176486e-01
-3.161291e-01
-3.126219e-01
-3.075803e-01
-3.016018e-01
-2.952106e-01
-2.886762e-01
-2.820730e-01
-2.755291e-01
-2.694469e-01
-2.645301e-01
-2.615960e-01
-2.612626e-01
-2.636682e-01
-2.683783e-01
-2.745139e-01
-2.809830e-01
-2.867107e-01
-2.908803e-01
-2.931864e-01
-2.939622e-01
-2.940557e-01
-2.944880e-01
-2.960634e-01
-2.991248e-01
-3.035876e-01
-3.092034e-01
-3.158174e-01
-3.234367e-01
-3.321842e-01
-3.422861e-01
-3.540581e-01
-3.677956e-01
-3.836243e-01
-4.014076e-01
-4.207448e-01
-4.411038e-01
-4.621071e-01
-4.838166e-01
-5.067630e-01
-5.316777e-01
-5.591469e-01
-5.893772e-01
-6.220816e-01
-6.564494e-01
-6.912394e-01
-7.250332e-01
-7.565837e-01
-7.851138e-01
-8.104073e-01
-8.326183e-01
-8.519055e-01
-8.681530e-01
-8.809664e-01
-8.898717e-01
-8.944829e-01
-8.945069e-01
-8.896902e-01
-8.798595e-01
-8.650569e-01
-8.456750e-01
-8.225130e-01
-7.967042e-01
-7.695030e-01
-7.420048e-01
-7.149740e-01
-6.888911e-01
-6.641089e-01
-6.409714e-01
-6.198884e-01
-6.013810e-01
-5.860161e-01
-5.741988e-01
-5.659636e-01
-5.609493e-01
-5.585971e-01
-5.584299e-01
-5.602133e-01
-5.639172e-01
-5.695518e-01
-5.770035e-01
-5.859641e-01
-5.959825e-01
-6.066105e-01
-6.175732e-01
-6.288747e-01
-6.407790e-01
-6.537144e-01
-6.682082e-01
-6.848617e-01
-7.043061e-01
-7.271468e-01
-7.539380e-01
-7.851703e-01
-8.212262e-01
-8.622681e-01
-9.080852e-01
-9.580388e-01
-1.011210e+00
-1.066640e+00
-1.123495e+00
-1.181123e+00
-1.239051e+00
-1.296928e+00
-1.354394e+00
-1.410930e+00
-1.465820e+00
-1.518283e+00
-1.567713e+00
-1.613912e+00
-1.657094e+00
-1.697676e+00
-1.736021e+00
-1.772297e+00
-1.806416e+00
-1.838032e+00
-1.866679e+00
-1.892038e+00
-1.914127e+00
-1.933269e+00
-1.949890e+00
-1.964338e+00
-1.976850e+00
-1.987602e+00
-1.996744e+00
-2.004446e+00
-2.011011e+00
-2.016981e+00
-2.023140e+00
-2.030385e+00
-2.039580e+00
-2.051448e+00
-2.066476e+00
-2.084838e+00
-2.106362e+00
-2.130533e+00
-2.156511e+00
-2.183196e+00
-2.209362e+00
-2.233867e+00
-2.255912e+00
-2.275246e+00
-2.292185e+00
-2.307460e+00
-2.322025e+00
-2.336856e+00
-2.352743e+00
-2.370130e+00
-2.389154e+00
-2.409926e+00
-2.432830e+00
-2.458515e+00
-2.487612e+00
-2.520449e+00
-2.556946e+00
-2.596597e+00
-2.638489e+00
-2.681426e+00
-2.724187e+00
-2.765765e+00
-2.805431e+00
-2.842631e+00
-2.876841e+00
-2.907486e+00
-2.933975e+00
-2.955848e+00
-2.973012e+00
-2.985909e+00
-2.995487e+00
-3.002931e+00
-3.009295e+00
-3.015251e+00
-3.021040e+00
-3.026540e+00
-3.031381e+00
-3.035051e+00
-3.036943e+00
-3.036369e+00
-3.032620e+00
-3.025097e+00
-3.013449e+00
-2.997689e+00
-2.978254e+00
-2.955981e+00
-2.931920e+00
-2.907062e+00
-2.882126e+00
-2.857541e+00
-2.833591e+00
-2.810595e+00
-2.788974e+00
-2.769163e+00
-2.751489e+00
-2.736111e+00
-2.723001e+00
-2.711884e+00
-2.702140e+00
-2.692846e+00
-2.683026e+00
-2.672023e+00
-2.659729e+00
-2.646594e+00
-2.633447e+00
-2.621252e+00
-2.610913e+00
-2.603146e+00
-2.598422e+00
-2.596964e+00
-2.598804e+00
-2.603861e+00
-2.611989e+00
-2.622987e+00
-2.636594e+00
-2.652451e+00
-2.669999e+00
-2.688375e+00
-2.706413e+00
-2.722781e+00
-2.736155e+00
-2.745386e+00
-2.749715e+00
-2.748992e+00
-2.743759e+00
-2.735082e+00
-2.724221e+00
-2.712368e+00
-2.700537e+00
-2.689559e+00
-2.680076e+00
-2.672550e+00
-2.667313e+00
-2.664654e+00
-2.664861e+00
-2.668152e+00
-2.674548e+00
-2.683770e+00
-2.695216e+00
-2.708025e+00
-2.721212e+00
-2.733855e+00
-2.745233e+00
-2.754895e+00
-2.762629e+00
-2.768429e+00
-2.772473e+00
-2.775097e+00
-2.776723e+00
-2.777777e+00
-2.778660e+00
-2.779772e+00
-2.781509e+00
-2.784226e+00
-2.788211e+00
-2.793697e+00
-2.800850e+00
-2.809695e+00
-2.820024e+00
-2.831363e+00
-2.843011e+00
-2.854095e+00
-2.863626e+00
-2.870585e+00
-2.874070e+00
-2.873458e+00
-2.868482e+00
-2.859229e+00
-2.846085e+00
-2.829663e+00
-2.810724e+00
-2.790049e+00
-2.768337e+00
-2.746180e+00
-2.724098e+00
-2.702534e+00
-2.681784e+00
-2.661933e+00
-2.642836e+00
-2.624103e+00
-2.605082e+00
-2.584932e+00
-2.562829e+00
-2.538188e+00
-2.510736e+00
-2.480458e+00
-2.447564e+00
-2.412491e+00
-2.375869e+00
-2.338420e+00
-2.300850e+00
-2.263800e+00
-2.227814e+00
-2.193255e+00
-2.160227e+00
-2.128564e+00
-2.097940e+00
-2.068002e+00
-2.038433e+00
-2.008919e+00
-1.979069e+00
-1.948414e+00
-1.916472e+00
-1.882852e+00
-1.847348e+00
-1.810028e+00
-1.771246e+00
-1.731561e+00
-1.691575e+00
-1.651763e+00
-1.612343e+00
-1.573269e+00
-1.534331e+00
-1.495300e+00
-1.456003e+00
-1.416339e+00
-1.376283e+00
-1.335892e+00
-1.295274e+00
-1.254532e+00
-1.213736e+00
-1.172954e+00
-1.132347e+00
-1.092246e+00
-1.053145e+00
-1.015586e+00
-9.800510e-01
-9.468796e-01
-9.161937e-01
-8.878364e-01
-8.613811e-01
-8.362384e-01
-8.118170e-01
-7.876746e-01
-7.635995e-01
-7.396018e-01
-7.158470e-01
-6.925849e-01
-6.700883e-01
-6.485831e-01
-6.281711e-01
-6.087922e-01
-5.902669e-01
-5.723837e-01
-5.549730e-01
-5.379511e-01
-5.213396e-01
-5.052639e-01
-4.899403e-01
-4.756353e-01
-4.625804e-01
-4.509035e-01
-4.406464e-01
-4.318498e-01
-4.246111e-01
-4.190611e-01
-4.152839e-01
-4.132549e-01
-4.128377e-01
-4.138058e-01
-4.158533e-01
-4.186047e-01
-4.216358e-01
-4.245017e-01
-4.267626e-01
-4.280104e-01
-4.278950e-01
-4.261559e-01
-4.226587e-01
-4.174223e-01
-4.105971e-01
-4.023785e-01
-3.929100e-01
-3.822592e-01
-3.704997e-01
-3.578292e-01
-3.446278e-01
-3.314157e-01
-3.187579e-01
-3.071788e-01
-2.970988e-01
-2.887819e-01
-2.823031e-01
-2.775577e-01
-2.743298e-01
-2.723803e-01
-2.714950e-01
-2.714873e-01
-2.722039e-01
-2.735433e-01
-2.754420e-01
-2.778094e-01
-2.804625e-01
-2.831281e-01
-2.855269e-01
-2.874936e-01
-2.890776e-01
-2.905788e-01
-2.924829e-01
-2.953188e-01
-2.995206e-01
-3.053690e-01
-3.130196e-01
-3.225761e-01
-3.341436e-01
-3.478213e-01
-3.636341e-01
-3.814525e-01
-4.009724e-01
-4.217831e-01
-4.434638e-01
-4.656515e-01
-4.880927e-01
-5.107103e-01
-5.336307e-01
-5.571073e-01
-5.813878e-01
-6.066488e-01
-6.330214e-01
-6.606095e-01
-6.894471e-01
-7.194681e-01
-7.505475e-01
-7.825556e-01
-8.153504e-01
-8.487349e-01
-8.824441e-01
-9.161508e-01
-9.494668e-01
-9.819648e-01
-1.013253e+00
-1.043084e+00
-1.071411e+00
-1.098356e+00
-1.124083e+00
-1.148697e+00
-1.172200e+00
-1.194499e+00
-1.215443e+00
-1.234897e+00
-1.252832e+00
-1.269358e+00
-1.284652e+00
-1.298844e+00
-1.311952e+00
-1.323923e+00
-1.334688e+00
-1.344186e+00
-1.352361e+00
-1.359176e+00
-1.364625e+00
-1.368735e+00
-1.371545e+00
-1.373082e+00
-1.373334e+00
-1.372212e+00
-1.369551e+00
-1.365162e+00
-1.358890e+00
-1.350634e+00
-1.340336e+00
-1.327997e+00
-1.313692e+00
-1.297551e+00
-1.279726e+00
-1.260374e+00
-1.239702e+00
-1.218001e+00
-1.195623e+00
-1.172917e+00
-1.150160e+00
-1.127521e+00
-1.105050e+00
-1.082685e+00
-1.060309e+00
-1.037825e+00
-1.015222e+00
-9.926003e-01
-9.701477e-01
-9.480825e-01
-9.266103e-01
-9.058900e-01
-8.859978e-01
-8.669010e-01
-8.484622e-01
-8.304751e-01
-8.127217e-01
-7.950416e-01
-7.773929e-01
-7.598728e-01
-7.426834e-01
-7.260580e-01
-7.101788e-01
-6.951020e-01
-6.807191e-01
-6.667949e-01
-6.530699e-01
-6.393599e-01
-6.256119e-01
-6.119223e-01
-5.985233e-01
-5.857267e-01
-5.738416e-01
-5.631030e-01
-5.536342e-01
-5.454411e-01
-5.384176e-01
-5.323513e-01
-5.269423e-01
-5.218532e-01
-5.167727e-01
-5.114671e-01
-5.058049e-01
-4.997468e-01
-4.933025e-01
-4.864822e-01
-4.792738e-01
-4.716497e-01
-4.635842e-01
-4.550705e-01
-4.461340e-01
-4.368196e-01
-4.271519e-01
-4.171019e-01
-4.065941e-01
-3.955347e-01
-3.838279e-01
-3.713846e-01
-3.581388e-01
-3.440663e-01
-3.291844e-01
-3.135371e-01
-2.971947e-01
-2.802756e-01
-2.629473e-01
-2.453778e-01
-2.276753e-01
-2.098690e-01
-1.919214e-01
-1.737306e-01
-1.551180e-01
-1.358423e-01
-1.156544e-01
-9.436010e-02
-7.184383e-02
-4.806904e-02
-2.308968e-02
2.936053e-03
2.976843e-02
