EVENT_NAME: CENTRAL_ITALY
EVENT_ID: EMSC-20160824_0000006
EVENT_DATE_YYYYMMDD: 20160824
EVENT_TIME_HHMMSS: 013632
EVENT_LATITUDE_DEGREE: 42.6983
EVENT_LONGITUDE_DEGREE: 13.2335
EVENT_DEPTH_KM: 8.1
HYPOCENTER_REFERENCE: INGV-CNT_Seismic_Bulletin
MAGNITUDE_W: 6.0
MAGNITUDE_W_REFERENCE: INGV-webservice
MAGNITUDE_L: 6.0
MAGNITUDE_L_REFERENCE: INGV-CNT_Seismic_Bulletin
FOCAL_MECHANISM: NF
NETWORK: IT
STATION_CODE: NRC
STATION_NAME: NORCIA
STATION_LATITUDE_DEGREE: 42.792543
STATION_LONGITUDE_DEGREE: 13.096475
STATION_ELEVATION_M: 616
LOCATION: 
SENSOR_DEPTH_M: 0.0
VS30_M/S: 687
SITE_CLASSIFICATION_EC8: B
MORPHOLOGIC_CLASSIFICATION: SL
EPICENTRAL_DISTANCE_KM: 15.3
EARTHQUAKE_BACKAZIMUTH_DEGREE: 133.0
DATE_TIME_FIRST_SAMPLE_YYYYMMDD_HHMMSS: 20160824_013629.849
DATE_TIME_FIRST_SAMPLE_PRECISION: milliseconds
SAMPLING_INTERVAL_S: 0.005000
NDATA: 8000
DURATION_S: 40.000
STREAM: HGN
UNITS: cm/s^2
INSTRUMENT: sensor = Unknown [Unknown] | digitizer = Unknown [Unknown]
INSTRUMENT_ANALOG/DIGITAL: D
INSTRUMENTAL_FREQUENCY_HZ: 
INSTRUMENTAL_DAMPING: 
FULL_SCALE_G: 
N_BIT_DIGITAL_CONVERTER: 
PGA_CM/S^2: 366.247118
TIME_PGA_S: 10.075000
BASELINE_CORRECTION: BASELINE REMOVED
FILTER_TYPE: BUTTERWORTH
FILTER_ORDER: 2
LOW_CUT_FREQUENCY_HZ: 0.080
HIGH_CUT_FREQUENCY_HZ: 40.000
LATE/NORMAL_TRIGGERED: NT
DATABASE_VERSION: DYNA 1.0
HEADER_FORMAT: DYNA 1.2
DATA_TYPE: ACCELERATION
PROCESSING: manual (Paolucci et al., 2011)
DATA_TIMESTAMP_YYYYMMDD_HHMMSS: 20160825_132942.360
DATA_LICENSE: CC-BY3_0-IT (http://creativecommons.org/licenses/by/3.0/deed.en)
DATA_CITATION: ESM working group (2015), European Strong-Motion database, version 0.1, Network Activity 3: Networking acceleration networks and SM data users. Project NERA (www.nera-eu.org)
DATA_CREATOR: ESM working group
ORIGINAL_DATA_MEDIATOR_CITATION: Ufficio Rischio Sismico e Vulcanico del Dipartimento della Protezione Civile (http://www.protezionecivile.gov.it/)
ORIGINAL_DATA_MEDIATOR: Rete Accelerometrica Nazionale - RAN Download (http://www.mot1.it/randownload/)
ORIGINAL_DATA_CREATOR_CITATION: Italian Strong Motion Network, Italian Civil Protection Department http://www.protezionecivile.gov.it
ORIGINAL_DATA_CREATOR: network: IT (Italian Strong Motion Network); owner: Dipartimento Della Protezione Civile
USER1: /home/dyna/processing-itaca/processing.py /var/www/processing//tmp/Maria//IT.NRC..HGE.D.20160824.013632.X.ACC.ASC /var/www/processing//tmp/Maria//IT.NRC..HGN.D.20160824.013632.X.ACC.ASC /var/www/processing//tmp/Maria//IT.NRC..HGZ.D.20160824.013632.X.ACC.ASC --tmp /var/www/processing//tmp/Maria/ --le 0.08 --he 40.000 --ln 0.08 --hn 40.000 --lz 0.08 --hz 40.000 --fo 2 --ca 0 --cz 140 --ta 5 --tz 5 --mf 1 --rf 0 --tr NT
USER2: 
USER3: 
USER4: 
USER5: 
[...]
0.015053
0.015144
0.015004
0.014883
0.014806
0.014856
0.014722
0.014518
0.014745
0.014754
0.014680
0.015355
0.015941
0.015860
0.015573
0.015219
0.015009
0.015113
0.015735
0.016507
0.015971
0.014721
0.014859
0.015649
0.015857
0.016174
0.016134
0.015291
0.015132
0.015609
0.015823
0.016485
0.017178
0.016937
0.016751
0.016980
0.017151
0.017593
0.017526
0.016624
0.016550
0.017392
0.017826
0.017462
0.016956
0.017304
0.018372
0.019330
0.019428
0.018475
0.017700
0.017806
0.018261
0.018596
0.018317
0.017949
0.018409
0.018929
0.019022
0.019415
0.019584
0.018655
0.018160
0.019549
0.020754
0.020236
0.020289
0.021603
0.021611
0.020282
0.019946
0.020451
0.019918
0.018362
0.017760
0.018674
0.019071
0.018410
0.018572
0.019372
0.019410
0.019723
0.021187
0.022325
0.022280
0.021954
0.022136
0.022525
0.022315
0.021742
0.021814
0.022456
0.022615
0.021702
0.020625
0.020416
0.020811
0.021446
0.021619
0.020746
0.020012
0.020384
0.021592
0.022689
0.022500
0.022209
0.023435
0.024425
0.023737
0.023195
0.024082
0.024519
0.022789
0.020861
0.021111
0.022344
0.022450
0.021886
0.022539
0.024676
0.026264
0.025691
0.024296
0.024233
0.024793
0.024426
0.023892
0.023884
0.023541
0.023224
0.024168
0.025440
0.025636
0.025073
0.024463
0.024709
0.025802
0.026024
0.025441
0.025800
0.026582
0.026388
0.026078
0.026503
0.026390
0.025684
0.026147
0.027003
0.026348
0.025592
0.026820
0.028457
0.027783
0.025710
0.025287
0.027000
0.028499
0.028267
0.027578
0.027780
0.028025
0.027647
0.028008
0.029262
0.029162
0.028004
0.028316
0.029525
0.029683
0.028980
0.028247
0.027569
0.026843
0.026404
0.026653
0.027317
0.027999
0.028587
0.029032
0.029553
0.029989
0.029752
0.029500
0.030193
0.030746
0.030006
0.029337
0.030037
0.030561
0.029752
0.029467
0.030163
0.029812
0.028996
0.029829
0.031462
0.031780
0.031036
0.031117
0.031673
0.030716
0.029803
0.031403
0.032979
0.032075
0.031148
0.031904
0.032581
0.032252
0.031851
0.031813
0.032099
0.032414
0.032072
0.032073
0.033205
0.033267
0.031984
0.031957
0.033061
0.033514
0.033349
0.033349
0.033322
0.032587
0.031947
0.032691
0.034022
0.034589
0.034764
0.035337
0.035683
0.035388
0.035203
0.034762
0.034077
0.034734
0.035812
0.035396
0.034655
0.034710
0.034505
0.033761
0.033929
0.035430
0.036641
0.036945
0.037016
0.036622
0.035957
0.035620
0.035606
0.036177
0.036745
0.036500
0.035976
0.035790
0.035794
0.035741
0.036945
0.039202
0.039042
0.037157
0.037320
0.038553
0.038730
0.038966
0.039558
0.039021
0.038170
0.038377
0.038324
0.037106
0.036363
0.037775
0.039714
0.039283
0.037833
0.038265
0.039512
0.039302
0.038094
0.038036
0.039676
0.040586
0.039756
0.039418
0.039568
0.038852
0.038742
0.039860
0.040921
0.041537
0.041222
0.040318
0.040808
0.042337
0.042539
0.041847
0.042029
0.042119
0.041075
0.040279
0.040417
0.040734
0.041075
0.041718
0.042244
0.041852
0.041555
0.043089
0.045292
0.045869
0.044900
0.044049
0.044050
0.044205
0.043865
0.043353
0.043360
0.043625
0.043630
0.043929
0.044557
0.044606
0.044124
0.043997
0.044657
0.045635
0.045780
0.045044
0.045080
0.045878
0.045794
0.045360
0.045844
0.046664
0.046683
0.045782
0.045343
0.046068
0.046663
0.046820
0.047255
0.047251
0.046365
0.046028
0.046758
0.046950
0.046522
0.047214
0.048485
0.048165
0.046698
0.046677
0.048162
0.048861
0.048520
0.048446
0.048402
0.047490
0.046891
0.047878
0.048862
0.048869
0.049151
0.050054
0.050873
0.050530
0.048863
0.048043
0.049123
0.049889
0.048978
0.048446
0.049794
0.051057
0.050501
0.049274
0.049192
0.050272
0.050878
0.050490
0.050360
0.050946
0.051724
0.052724
0.053700
0.053617
0.052742
0.052223
0.051706
0.050965
0.051437
0.053009
0.053352
0.052496
0.052499
0.053345
0.053871
0.053589
0.052827
0.052625
0.053097
0.053291
0.053467
0.054543
0.055385
0.054662
0.053857
0.054393
0.055137
0.055120
0.054638
0.053953
0.053999
0.055348
0.056279
0.055996
0.055861
0.055949
0.056033
0.056720
0.056931
0.055800
0.055309
0.057155
0.060718
0.065283
0.070923
0.078197
0.088057
0.099202
0.107421
0.110268
0.107867
0.098017
0.077117
0.046374
0.010665
-0.025538
-0.055826
-0.072386
-0.071364
-0.053074
-0.019411
0.026553
0.079379
0.130467
0.173355
0.207946
0.232022
0.237318
0.221961
0.196348
0.170838
0.143197
0.104706
0.055827
0.004873
-0.043404
-0.084510
-0.107177
-0.102770
-0.076674
-0.039286
0.009347
0.074353
0.150898
0.223940
0.277051
0.294937
0.267017
0.200367
0.123154
0.064818
0.035258
0.026114
0.026253
0.028352
0.026727
0.025823
0.045088
0.094376
0.150942
0.180651
0.171566
0.130942
0.071595
0.018756
0.003937
0.033920
0.085444
0.140100
0.201859
0.272017
0.332809
0.365677
0.361260
0.307317
0.199565
0.068560
-0.039391
-0.112954
-0.176884
-0.239217
-0.267927
-0.226183
-0.110082
0.041901
0.155931
0.158256
0.052064
-0.037018
0.046827
0.318195
0.613861
0.756568
0.714337
0.578763
0.453397
0.398905
0.411031
0.396649
0.228009
-0.112139
-0.449858
-0.534489
-0.254142
0.255772
0.688725
0.773640
0.492655
0.113350
-0.050244
0.080452
0.326950
0.460940
0.361919
0.058087
-0.243431
-0.245047
0.156665
0.716222
1.061323
1.006701
0.631552
0.189285
-0.026572
0.108556
0.407408
0.547951
0.416440
0.185109
0.096193
0.279286
0.698779
1.143414
1.333321
1.166117
0.817176
0.523222
0.355041
0.269151
0.237002
0.215229
0.119041
-0.067177
-0.240277
-0.301204
-0.247762
-0.107426
0.135751
0.494157
0.911712
1.317252
1.730608
2.209071
2.658582
2.829944
2.565956
1.961564
1.260691
0.694196
0.415591
0.442248
0.591172
0.578358
0.262957
-0.241570
-0.705634
-0.941730
-0.830624
-0.382738
0.189476
0.659401
1.017781
1.319868
1.432332
1.185477
0.687987
0.274138
0.194439
0.501271
1.108727
1.785372
2.232198
2.343947
2.267368
2.121255
1.852091
1.440018
1.014988
0.637676
0.200975
-0.286826
-0.576986
-0.528207
-0.381169
-0.519255
-1.029285
-1.560954
-1.571884
-0.737745
0.739564
2.226984
3.184177
3.546254
3.499373
3.095099
2.324437
1.384395
0.610455
0.216491
0.250593
0.777832
1.829424
2.957843
3.207534
1.971365
-0.323576
-2.639893
-4.170672
-4.616543
-4.028789
-2.625188
-0.577232
1.994612
4.606699
6.243936
6.058619
4.167071
1.464801
-1.139234
-3.037497
-3.790047
-3.152407
-1.323394
1.068069
3.304885
4.759805
4.910399
3.606086
1.332327
-1.082630
-3.053985
-4.351200
-4.746921
-3.961235
-2.087965
0.137603
1.739324
2.185322
1.547468
0.250061
-1.033784
-1.688239
-1.697936
-1.494735
-1.256469
-0.848741
-0.257896
0.567034
1.976564
3.871358
5.072072
4.427864
2.233188
-0.231393
-2.001307
-2.579104
-1.618636
0.553861
2.658881
3.677713
3.892247
3.976005
3.942628
3.634138
2.911694
0.830693
-3.624848
-9.143868
-12.087237
-10.059758
-4.416749
1.349954
4.458182
4.055140
1.517404
-0.228268
0.656986
3.006358
4.449828
4.250003
3.331848
2.728964
3.109001
4.752887
6.754655
6.939016
3.843548
-1.442809
-6.107615
-7.895386
-6.408561
-3.043974
0.024936
1.305375
0.696386
-0.862895
-2.139115
-2.513958
-2.398818
-2.434889
-2.600689
-2.530971
-2.143527
-1.359300
0.113695
2.040966
3.397167
3.394882
2.278722
0.892835
0.059086
0.394587
1.712682
2.485805
1.075427
-2.141225
-4.621600
-3.968956
0.027308
5.451743
9.531991
10.262970
7.774914
4.012347
0.666310
-2.399297
-6.230221
-10.483749
-13.048395
-12.216175
-8.267902
-2.496014
4.174453
10.474196
13.896224
12.452119
6.757079
-0.654983
-6.905474
-9.509733
-7.490593
-2.133653
4.164830
9.520732
13.074742
14.935957
15.832680
15.867051
13.606897
7.777898
-0.195305
-6.840237
-9.649830
-8.544403
-5.269059
-2.256316
-1.152504
-1.698318
-2.525421
-2.839705
-2.657878
-2.280601
-2.219005
-2.584780
-2.458983
-0.950584
1.370461
2.914931
2.797885
1.423684
-0.662282
-3.189182
-5.119736
-4.934407
-2.508207
0.489647
2.516978
3.813812
5.547704
7.849210
9.434481
8.564485
4.178272
-2.703532
-8.688618
-10.555989
-8.236613
-4.353420
-1.381786
-0.395960
-1.535518
-4.056960
-6.372849
-7.342166
-7.681299
-8.973545
-10.858979
-10.539143
-5.847735
1.874079
8.552109
10.904183
8.920292
5.134489
1.959517
-0.049327
-1.446916
-2.336759
-2.351629
-1.659278
-0.976606
-0.583958
-0.205010
0.124321
-0.058824
-1.032179
-2.716702
-4.769489
-6.651625
-7.844667
-7.972971
-6.834730
-4.388510
-0.489091
4.836972
10.320768
13.575136
13.116744
9.510732
3.856256
-3.445676
-11.115623
-16.221085
-16.880514
-13.867924
-8.552840
-1.590137
5.787965
11.595407
14.832769
15.467973
12.843565
6.678213
-0.624055
-5.469224
-6.926380
-7.164949
-8.354090
-10.592611
-12.589734
-13.165942
-11.495595
-6.563435
1.455395
9.200637
12.538929
11.113373
7.882866
5.221439
4.077485
5.175927
7.945833
9.588567
8.115917
5.332641
4.546045
6.564041
9.659013
11.486599
9.607307
3.017942
-5.389244
-10.602283
-10.128195
-4.908685
2.846976
10.358625
14.353990
13.090097
8.391920
3.926227
1.222587
-0.645608
-1.985206
-1.982134
-0.778607
0.535352
1.900007
4.455345
8.396694
11.816805
12.482829
10.448879
7.793979
5.826376
4.492748
4.111111
5.097869
6.753139
8.060693
8.578917
7.826391
5.108540
0.899419
-2.869703
-5.197308
-6.865540
-8.036009
-7.950328
-7.285654
-7.426217
-7.647818
-6.093664
-3.078098
-0.936049
-0.993206
-2.128581
-2.032612
0.394419
3.974326
6.546260
6.430631
3.391868
-0.281515
-0.977139
2.305713
6.143620
6.312268
2.602074
-1.906672
-5.111117
-6.297288
-4.296791
0.498442
4.154289
3.486494
0.589378
-0.320822
1.857038
5.450967
8.192465
7.314263
1.106943
-8.086321
-15.212814
-17.735132
-17.118038
-15.154431
-11.778935
-6.605112
-0.099134
7.307067
15.107493
20.264048
17.952135
7.805105
-3.758499
-10.134162
-10.675368
-8.819969
-7.114239
-6.469522
-7.908565
-10.983678
-11.817317
-7.343922
-0.536739
3.038905
2.527360
1.432784
2.407000
6.613812
14.768430
24.508360
29.952295
27.492800
19.739941
11.209848
3.604632
-1.650708
-2.092203
0.568215
0.666743
-3.256356
-7.019887
-7.761547
-6.310460
-3.743044
-0.897336
-0.126384
-2.869392
-6.067876
-5.027885
0.414749
5.750879
6.759691
1.957801
-7.895467
-19.632324
-27.910934
-28.013767
-19.312534
-6.144465
5.286510
11.888174
15.100530
17.088764
17.234200
13.095336
3.621743
-9.286118
-22.122839
-31.771967
-35.926697
-33.836864
-27.658154
-20.284344
-12.073682
-2.981229
4.191869
6.522160
4.660798
0.769198
-4.423111
-9.248629
-9.846064
-5.605749
-0.929825
1.686908
4.407622
8.352965
10.679065
8.487092
1.990001
-6.717160
-14.278539
-15.916413
-10.554143
-5.323329
-8.044846
-16.843060
-23.820848
-25.310684
-21.890274
-13.773782
-3.082949
4.164521
4.029629
-0.221290
-2.522277
-1.757620
-1.881477
-5.320445
-10.408549
-14.804274
-16.893938
-14.962831
-8.895122
-0.974543
6.946924
14.508121
20.088982
20.293447
14.783294
9.503567
10.785737
16.705196
19.450996
16.305357
12.661774
14.161600
20.851028
29.346336
36.809547
41.081493
39.396053
30.240587
16.373238
3.838994
-3.103042
-5.675836
-8.193827
-13.062221
-19.770906
-26.627588
-31.825005
-34.129013
-32.959557
-29.535360
-28.653690
-34.211594
-41.943371
-43.070072
-35.214462
-23.675636
-13.547780
-6.568605
-4.185367
-7.529791
-12.905713
-12.428397
-3.923630
4.543352
5.913766
2.328531
-2.999100
-11.238421
-21.368422
-27.663589
-26.722330
-22.259705
-20.306517
-22.198566
-26.113180
-31.634060
-37.438267
-40.080357
-39.950794
-42.521881
-51.420086
-64.587677
-76.108978
-79.706154
-72.954773
-58.708290
-42.379539
-29.024794
-21.302509
-18.478302
-18.093525
-17.785479
-14.807646
-7.265475
2.441889
9.758086
14.563758
21.082157
31.454659
43.085831
51.969345
56.639118
58.463593
58.622231
55.584679
47.061676
34.914661
24.512972
18.042213
13.292235
9.132126
6.966173
6.697735
5.107766
-0.504418
-8.796999
-15.595256
-17.668388
-14.647709
-7.507375
2.866788
13.561100
19.157234
16.257845
5.806722
-9.639444
-27.917591
-46.257915
-61.083611
-70.734322
-76.365967
-79.011177
-78.799515
-77.058365
-75.621979
-73.472229
-65.962952
-48.464115
-20.843744
11.281833
40.122028
62.021294
80.219963
101.130066
128.856857
162.878189
198.947128
231.208023
254.456543
266.043274
266.367798
257.227051
239.812149
214.875610
183.352112
145.861572
104.015564
62.029621
23.627941
-12.206750
-49.068260
-86.173973
-117.167854
-138.696793
-156.205841
-176.553757
-198.469635
-214.975021
-222.271683
-222.182510
-218.135208
-212.653290
-207.882584
-205.519302
-205.344391
-204.407196
-198.707230
-186.315674
-167.960266
-144.618835
-116.102409
-81.045738
-36.620747
19.235632
83.275711
147.001633
202.154022
244.987534
276.499512
299.983032
318.245667
333.224274
346.774536
359.058868
366.247131
362.094971
342.812592
310.193726
269.739838
225.649353
177.436295
121.240791
55.261810
-15.657109
-82.148987
-137.420700
-181.420212
-218.967239
-255.294205
-291.887512
-324.336517
-345.694397
-354.069702
-355.131714
-355.870636
-357.800690
-356.920868
-348.614197
-331.326660
-306.797180
-278.714417
-249.829742
-218.523178
-180.237610
-134.574326
-88.420021
-48.852859
-15.593387
16.433153
49.575161
80.492790
102.740952
111.779106
109.287064
102.591362
98.456100
98.238388
99.861496
100.232742
92.938148
70.147797
31.896412
-11.318765
-48.177658
-74.593933
-91.519264
-100.274239
-101.573898
-95.893997
-84.282722
-68.600922
-49.771320
-28.226645
-7.062163
8.999009
18.458643
23.872873
28.186260
32.659611
37.389038
41.565853
43.703426
42.623276
38.067894
30.633820
21.235735
9.956087
-4.787099
-25.562218
-53.823566
-88.152473
-124.914055
-160.139969
-190.101547
-211.920090
-225.242035
-231.574982
-231.087021
-221.789612
-201.811401
-171.333710
-132.903595
-89.442001
-41.366444
11.926313
67.522331
119.387787
163.247604
198.577545
226.352478
247.394547
263.370087
275.472717
280.888672
274.947784
256.460968
228.034073
193.052216
153.669449
110.483398
63.866711
16.446609
-26.061659
-58.460464
-80.573242
-96.426445
-108.895195
-116.297348
-115.033150
-105.119781
-90.808853
-74.744637
-54.737804
-28.135878
4.279743
40.176548
77.662018
114.189423
146.070892
170.285614
185.585114
191.576904
188.466812
177.531235
160.434601
138.619812
113.464745
86.705238
61.497173
42.050926
29.660601
20.128164
8.643956
-3.548080
-10.446864
-8.270816
1.369584
14.727947
29.883059
46.309879
61.969833
72.835609
75.575081
70.159714
59.906841
49.350410
42.162922
39.445362
37.428825
28.208513
6.368687
-25.129280
-56.845669
-79.908524
-91.094551
-92.153526
-85.862434
-74.110519
-58.421017
-39.590538
-17.300495
8.131775
35.239059
63.759747
94.646561
126.863197
156.713226
180.795242
198.459381
211.467255
221.901306
230.365112
234.883072
231.221939
216.320221
191.523468
160.719315
126.384949
89.208427
50.145184
10.770971
-27.976728
-65.759491
-101.171898
-131.356110
-154.142609
-169.275635
-176.096970
-171.613129
-153.591080
-125.457558
-95.423462
-69.578217
-48.115200
-29.130424
-12.654360
0.751839
13.169623
28.842039
49.911522
74.365425
99.180412
122.492500
140.853912
148.114914
140.758011
122.153503
98.680733
73.488991
45.732491
14.537587
-17.939381
-47.850052
-73.172783
-94.936783
-114.933479
-132.745041
-145.875015
-152.615707
-153.233200
-148.483154
-138.755173
-124.599297
-106.928505
-86.799011
-65.545624
-44.975765
-26.653095
-10.649703
4.601680
20.795971
37.842365
53.749752
66.621201
76.008026
82.176895
85.219368
85.195160
82.148933
75.929634
66.871010
56.473152
46.780823
39.024807
32.966789
27.927898
24.752729
26.286243
35.209415
51.410378
71.895302
93.114983
112.851547
129.891953
142.690247
149.550125
150.608765
148.564697
146.431412
145.006058
143.023758
139.248306
133.448547
125.588615
115.701843
104.616035
93.232117
81.264648
68.054344
54.194027
40.958057
28.382706
14.984070
-0.565286
-17.694500
-33.840942
-46.354801
-54.642174
-60.154716
-64.371704
-67.243889
-67.455887
-63.826088
-56.119343
-44.190483
-27.361486
-5.798286
18.501558
42.946323
65.515884
84.515305
98.389763
105.870338
106.093979
99.403366
87.857445
73.863060
58.538170
42.080860
24.876488
7.279301
-10.845755
-29.666592
-49.169472
-69.045311
-87.732262
-102.687073
-112.981064
-120.391861
-126.827667
-131.870956
-133.668030
-131.119156
-124.516327
-115.056458
-104.148705
-92.430305
-79.462364
-64.720123
-48.415257
-31.226704
-14.021156
1.986762
15.635246
26.452728
34.228550
37.982063
36.086357
28.451002
18.153208
9.277629
3.810946
1.090490
-1.449287
-6.664012
-15.514357
-26.954411
-40.020786
-54.723145
-70.782364
-86.984032
-101.882401
-114.690903
-125.869888
-136.371017
-146.063126
-153.318146
-156.045792
-153.284515
-145.966064
-136.089233
-125.049850
-112.670914
-98.218338
-82.100189
-65.846527
-50.709095
-36.770302
-23.506411
-11.199944
-1.487173
3.894447
4.544379
0.785865
-7.674713
-21.177923
-38.598701
-57.142426
-73.715782
-86.569763
-95.529297
-100.937004
-102.950333
-101.389679
-95.564651
-84.631683
-68.559334
-48.671158
-27.266006
-6.412728
13.016848
30.636463
45.433784
56.295441
62.940815
65.676476
64.769562
60.259903
52.125847
40.646198
26.616453
11.174876
-4.708040
-20.813910
-37.539268
-54.706081
-70.814178
-84.261696
-95.124535
-104.691010
-113.265404
-119.718208
-123.367012
-124.684296
-123.488815
-118.131905
-107.755623
-94.086517
-79.495087
-64.220795
-47.283012
-29.504543
-13.820596
-2.889391
2.572299
3.375936
0.473061
-5.318231
-12.476948
-19.278877
-25.287680
-31.077284
-36.475166
-40.032845
-40.565613
-38.709671
-36.145931
-33.354862
-29.305361
-23.290264
-15.479739
-5.847973
6.019101
20.264359
36.452980
53.597271
70.379471
85.522270
98.163811
108.222343
116.497581
123.770447
129.274902
131.010269
128.082352
121.406929
111.963638
99.804741
84.887123
68.035477
50.791561
34.296421
18.624880
3.540686
-10.704137
-23.778671
-35.601582
-45.791698
-53.587845
-58.648727
-61.270836
-61.537136
-58.761169
-51.950172
-40.870045
-26.941378
-12.527491
1.046767
14.030556
26.978069
39.779594
51.487156
60.580193
65.999084
68.277740
69.229317
