EVENT_NAME: CENTRAL_ITALY
EVENT_ID: EMSC-20160824_0000006
EVENT_DATE_YYYYMMDD: 20160824
EVENT_TIME_HHMMSS: 013632
EVENT_LATITUDE_DEGREE: 42.6983
EVENT_LONGITUDE_DEGREE: 13.2335
EVENT_DEPTH_KM: 8.1
HYPOCENTER_REFERENCE: INGV-CNT_Seismic_Bulletin
MAGNITUDE_W: 6.0
MAGNITUDE_W_REFERENCE: INGV-webservice
MAGNITUDE_L: 6.0
MAGNITUDE_L_REFERENCE: INGV-CNT_Seismic_Bulletin
FOCAL_MECHANISM: NF
NETWORK: IT
STATION_CODE: NRC
STATION_NAME: NORCIA
STATION_LATITUDE_DEGREE: 42.792543
STATION_LONGITUDE_DEGREE: 13.096475
STATION_ELEVATION_M: 616
LOCATION: 
SENSOR_DEPTH_M: 0.0
VS30_M/S: 687
SITE_CLASSIFICATION_EC8: B
MORPHOLOGIC_CLASSIFICATION: SL
EPICENTRAL_DISTANCE_KM: 15.3
EARTHQUAKE_BACKAZIMUTH_DEGREE: 133.0
DATE_TIME_FIRST_SAMPLE_YYYYMMDD_HHMMSS: 20160824_013629.849
DATE_TIME_FIRST_SAMPLE_PRECISION: milliseconds
SAMPLING_INTERVAL_S: 0.005000
NDATA: 8000
DURATION_S: 40.000
STREAM: HGZ
UNITS: cm/s^2
INSTRUMENT: sensor = Unknown [Unknown] | digitizer = Unknown [Unknown]
INSTRUMENT_ANALOG/DIGITAL: D
INSTRUMENTAL_FREQUENCY_HZ: 
INSTRUMENTAL_DAMPING: 
FULL_SCALE_G: 
N_BIT_DIGITAL_CONVERTER: 
PGA_CM/S^2: 211.481618
TIME_PGA_S: 9.845000
BASELINE_CORRECTION: BASELINE REMOVED
FILTER_TYPE: BUTTERWORTH
FILTER_ORDER: 2
LOW_CUT_FREQUENCY_HZ: 0.080
HIGH_CUT_FREQUENCY_HZ: 40.000
LATE/NORMAL_TRIGGERED: NT
DATABASE_VERSION: DYNA 1.0
HEADER_FORMAT: DYNA 1.2
DATA_TYPE: ACCELERATION
PROCESSING: manual (Paolucci et al., 2011)
DATA_TIMESTAMP_YYYYMMDD_HHMMSS: 20160825_132942.360
DATA_LICENSE: CC-BY3_0-IT (http://creativecommons.org/licenses/by/3.0/deed.en)
DATA_CITATION: ESM working group (2015), European Strong-Motion database, version 0.1, Network Activity 3: Networking acceleration networks and SM data users. Project NERA (www.nera-eu.org)
DATA_CREATOR: ESM working group
ORIGINAL_DATA_MEDIATOR_CITATION: Ufficio Rischio Sismico e Vulcanico del Dipartimento della Protezione Civile (http://www.protezionecivile.gov.it/)
ORIGINAL_DATA_MEDIATOR: Rete Accelerometrica Nazionale - RAN Download (http://www.mot1.it/randownload/)
ORIGINAL_DATA_CREATOR_CITATION: Italian Strong Motion Network, Italian Civil Protection Department http://www.protezionecivile.gov.it
ORIGINAL_DATA_CREATOR: network: IT (Italian Strong Motion Network); owner: Dipartimento Della Protezione Civile
USER1: /home/dyna/processing-itaca/processing.py /var/www/processing//tmp/Maria//IT.NRC..HGE.D.20160824.013632.X.ACC.ASC /var/www/processing//tmp/Maria//IT.NRC..HGN.D.20160824.013632.X.ACC.ASC /var/www/processing//tmp/Maria//IT.NRC..HGZ.D.20160824.013632.X.ACC.ASC --tmp /var/www/processing//tmp/Maria/ --le 0.08 --he 40.000 --ln 0.08 --hn 40.000 --lz 0.08 --hz 40.000 --fo 2 --ca 0 --cz 140 --ta 5 --tz 5 --mf 1 --rf 0 --tr NT
USER2: 
USER3: 
USER4: 
USER5: 
[...]
-0.001007
-0.001357
-0.000840
0.000659
0.001909
0.001828
0.000294
-0.001604
-0.002185
-0.001375
-0.000694
-0.000831
-0.001024
-0.000569
0.000380
0.001279
0.001509
0.001066
0.000805
0.001097
0.001302
0.000706
-0.000378
-0.001028
-0.001040
-0.000498
0.000515
0.001289
0.001483
0.001631
0.001772
0.001911
0.002629
0.003015
0.001954
0.000783
0.000761
0.001383
0.001501
0.000481
-0.000056
0.001203
0.002170
0.001726
0.001455
0.001627
0.001701
0.001578
0.000750
-0.000090
0.000290
0.001223
0.002043
0.002752
0.002225
0.000995
0.001373
0.002260
0.001682
0.000898
0.000813
0.000796
0.000857
0.001527
0.002560
0.002976
0.002942
0.003096
0.002721
0.001513
0.001047
0.002146
0.003014
0.002447
0.001603
0.001298
0.001187
0.001068
0.001117
0.001643
0.002623
0.003120
0.002604
0.002295
0.003050
0.004049
0.003952
0.002523
0.001491
0.001956
0.002919
0.003152
0.002955
0.003827
0.004499
0.003015
0.002112
0.003375
0.003950
0.003198
0.002742
0.002128
0.000838
0.000634
0.002156
0.003358
0.003257
0.002980
0.002994
0.002503
0.001584
0.001333
0.001555
0.001564
0.001947
0.002968
0.003858
0.004186
0.004291
0.004362
0.004145
0.003746
0.003182
0.002852
0.003510
0.003601
0.002588
0.003123
0.004405
0.003950
0.003272
0.003792
0.004558
0.004188
0.002789
0.002375
0.002745
0.002461
0.002837
0.004148
0.004726
0.004732
0.004889
0.005210
0.005247
0.004506
0.004200
0.004876
0.004914
0.004458
0.004771
0.005265
0.005136
0.004415
0.003899
0.004648
0.005716
0.005577
0.005143
0.005864
0.007099
0.007179
0.006099
0.005325
0.005428
0.005822
0.005784
0.005447
0.005376
0.005222
0.004728
0.004452
0.004846
0.005698
0.006168
0.006292
0.006929
0.007317
0.006517
0.005874
0.006302
0.006918
0.007208
0.006962
0.006197
0.005600
0.005511
0.005871
0.006324
0.006090
0.005467
0.006018
0.007338
0.007228
0.006037
0.006196
0.008020
0.008847
0.007661
0.006791
0.006603
0.006285
0.006755
0.007365
0.006916
0.006028
0.005626
0.006213
0.006936
0.006493
0.005496
0.005693
0.007382
0.008448
0.007831
0.007295
0.007903
0.008916
0.008633
0.006654
0.005929
0.007236
0.007138
0.005488
0.005794
0.008064
0.008917
0.007814
0.007384
0.007921
0.007930
0.007890
0.007880
0.007227
0.006971
0.007798
0.008911
0.009163
0.008487
0.008610
0.009601
0.009781
0.009517
0.009271
0.008685
0.008780
0.009293
0.008796
0.008492
0.009265
0.009703
0.009646
0.009477
0.009036
0.009146
0.009938
0.010511
0.010372
0.009789
0.009999
0.010842
0.011116
0.011050
0.010615
0.010000
0.010114
0.010628
0.011026
0.010869
0.009588
0.008213
0.008440
0.009578
0.010046
0.010773
0.012229
0.012710
0.011797
0.010701
0.010822
0.011671
0.011305
0.010615
0.011162
0.011884
0.012299
0.012802
0.012952
0.012733
0.012403
0.012076
0.012397
0.013087
0.012991
0.012413
0.011985
0.011486
0.011249
0.011838
0.012483
0.012218
0.011971
0.012264
0.012155
0.012042
0.012010
0.011013
0.010174
0.010993
0.012085
0.011944
0.011709
0.012281
0.012433
0.012229
0.013141
0.014200
0.013513
0.011826
0.011268
0.012517
0.014296
0.015133
0.014855
0.014643
0.015152
0.014990
0.014298
0.015303
0.016614
0.015368
0.013299
0.013342
0.014363
0.014094
0.013620
0.014232
0.014827
0.015382
0.016186
0.016124
0.015242
0.014783
0.015619
0.016531
0.015163
0.012909
0.013085
0.014831
0.015055
0.014015
0.014332
0.015961
0.016623
0.015979
0.015380
0.015362
0.015683
0.016319
0.016978
0.016803
0.015988
0.015756
0.016535
0.017858
0.018016
0.015868
0.014492
0.016088
0.017164
0.015885
0.015095
0.016054
0.017269
0.017405
0.016890
0.017362
0.018428
0.018325
0.017191
0.016096
0.016186
0.017769
0.018649
0.017922
0.017462
0.017593
0.017771
0.018690
0.019841
0.019436
0.017647
0.016557
0.017051
0.018078
0.018786
0.019623
0.020383
0.019758
0.018486
0.018605
0.019526
0.019651
0.019546
0.020119
0.020798
0.020768
0.020401
0.020312
0.019876
0.019304
0.019368
0.019148
0.018698
0.019045
0.020010
0.020677
0.020283
0.020217
0.021148
0.021360
0.021176
0.021066
0.020537
0.020595
0.020941
0.020635
0.020840
0.021922
0.022382
0.022056
0.022503
0.023556
0.023090
0.021683
0.022224
0.023503
0.022417
0.020895
0.021738
0.023365
0.023448
0.022205
0.021218
0.021432
0.022514
0.022926
0.022045
0.021806
0.022969
0.023908
0.024025
0.023794
0.023492
0.023342
0.023725
0.025203
0.028063
0.032535
0.039713
0.052146
0.072572
0.101878
0.139656
0.184669
0.233953
0.282810
0.324232
0.349181
0.347944
0.310739
0.231003
0.110340
-0.039024
-0.194078
-0.326356
-0.413257
-0.444745
-0.421777
-0.352104
-0.245007
-0.108089
0.050405
0.214830
0.359619
0.461438
0.511755
0.512291
0.465981
0.374913
0.241639
0.071576
-0.122506
-0.312262
-0.454099
-0.511849
-0.483055
-0.395798
-0.280643
-0.153653
-0.018835
0.127269
0.288535
0.451756
0.573940
0.601072
0.508968
0.325647
0.117657
-0.046155
-0.128459
-0.137813
-0.118821
-0.113928
-0.121872
-0.102998
-0.027004
0.094414
0.212810
0.268240
0.223699
0.093077
-0.065163
-0.186547
-0.229715
-0.171679
0.001588
0.282962
0.630198
0.968992
1.209051
1.275805
1.158174
0.935467
0.729313
0.594853
0.462727
0.215040
-0.176084
-0.585101
-0.793181
-0.640932
-0.193884
0.228814
0.263629
-0.180301
-0.800600
-1.123732
-0.871159
-0.163623
0.561557
0.853420
0.587823
0.096190
-0.070689
0.395777
1.264153
1.929419
1.919669
1.279290
0.515063
0.213753
0.618542
1.409621
1.903728
1.627693
0.763667
0.003510
-0.048322
0.614144
1.395574
1.620625
1.133011
0.413216
0.128790
0.591180
1.577374
2.531291
2.924630
2.589618
1.821494
1.106414
0.677050
0.362325
-0.111055
-0.749362
-1.256323
-1.293484
-0.762506
0.084019
0.782787
0.988943
0.745853
0.435236
0.422707
0.726606
1.009627
0.860417
0.099180
-1.125270
-2.483758
-3.680125
-4.524670
-4.879467
-4.639123
-3.801179
-2.519477
-1.058196
0.312836
1.420970
2.249211
2.896372
3.460376
3.948741
4.275642
4.326156
4.044983
3.493140
2.805642
2.087857
1.402279
0.840187
0.494224
0.370484
0.447718
0.753943
1.225484
1.612922
1.721812
1.598240
1.301794
0.685727
-0.416722
-1.881246
-3.218040
-3.767257
-3.092661
-1.387222
0.504596
1.634200
1.613814
0.793098
-0.075324
-0.349365
0.061693
0.617400
0.576095
-0.409816
-2.079194
-3.886845
-5.472203
-6.833807
-8.188696
-9.628893
-10.702893
-10.415185
-8.030877
-4.021269
0.029375
2.614013
3.379361
3.133100
2.953376
3.295716
3.882263
4.325783
4.724970
5.616537
7.315045
9.221136
9.914803
8.209478
4.065185
-1.557929
-7.259136
-11.519697
-13.206376
-12.184935
-9.226131
-5.271423
-0.971177
3.189242
6.627568
8.689163
8.951767
7.490852
4.919020
2.178154
0.040833
-1.336066
-2.229765
-2.706654
-2.399064
-0.995006
1.345936
4.104887
6.544643
7.723852
6.812180
3.652040
-0.967380
-5.596495
-8.803645
-9.852432
-8.962683
-6.984021
-4.763792
-2.683665
-0.632594
1.650266
4.189036
6.486859
7.420753
5.912595
2.284808
-1.413247
-2.981765
-1.870398
0.568303
2.018932
0.459239
-4.214727
-9.057366
-9.598140
-3.731794
5.980232
14.257650
17.087742
13.985560
7.575394
1.658333
-1.465081
-3.042640
-6.557077
-13.357932
-20.218531
-21.854019
-15.452229
-3.069540
9.145781
14.306711
9.405101
-2.177516
-13.171477
-17.954552
-16.030920
-11.115169
-7.608655
-7.281621
-8.313740
-7.506849
-3.600099
1.784246
6.128717
8.185295
8.305279
7.653608
7.545307
8.794073
10.782558
11.325620
8.571024
3.716245
1.234922
5.378908
16.083675
28.345055
35.491901
33.412853
22.780752
8.122454
-5.116937
-13.115230
-14.814446
-11.978580
-7.972145
-5.438432
-4.496492
-3.032506
0.817433
5.871221
8.236093
5.393359
-0.814389
-5.725144
-5.492457
0.219832
7.626468
11.333643
8.863871
2.688209
-2.477944
-3.698935
-1.483448
1.254365
1.598893
-1.648982
-7.669516
-13.695350
-15.985083
-12.475852
-4.739172
2.903780
5.874474
1.730084
-8.197617
-19.040588
-25.301882
-24.721945
-19.803278
-15.423675
-14.142971
-13.337832
-8.029048
2.810848
14.124842
19.514223
16.848866
9.038734
1.143307
-2.455214
0.075524
7.068891
14.405644
18.160355
16.859768
12.014732
6.514359
2.155214
-1.166306
-4.015398
-5.812644
-5.227193
-2.215249
0.899091
0.659870
-5.160745
-15.694802
-26.514017
-31.162783
-25.045914
-9.822689
6.524196
15.587520
14.787626
8.230486
2.733438
2.993634
8.661298
14.489346
14.182476
6.069095
-4.754578
-10.986362
-10.056616
-5.932219
-4.125895
-5.501653
-5.049255
2.807682
17.015314
28.854546
29.079794
15.660580
-5.271041
-24.469454
-34.901012
-34.009365
-23.575457
-8.434586
5.472064
13.787892
16.208748
15.883565
15.677233
15.535834
13.660334
9.517127
5.036102
2.793753
3.243587
3.943151
1.547643
-5.558168
-15.922161
-25.247700
-28.311794
-22.143433
-8.467167
7.167096
19.764528
28.305004
34.268387
38.365021
39.946033
37.756046
30.579058
19.594561
10.083599
7.407349
10.656682
13.287649
10.890477
5.912997
4.352948
9.895371
21.156832
33.015186
40.331978
40.553917
33.731354
22.172056
10.123659
1.372529
-4.031445
-9.793930
-19.524038
-32.443611
-41.871506
-38.839848
-20.166445
6.494581
27.443102
32.784168
21.419144
-0.073397
-20.619593
-29.971949
-25.528648
-14.640963
-8.826102
-14.413292
-27.648808
-38.121517
-37.108829
-23.724504
-4.584917
11.211175
17.331425
13.115538
3.344670
-5.206841
-8.769746
-9.104902
-10.336220
-13.181478
-13.959861
-9.742811
-2.606868
2.404178
2.378587
-1.818642
-7.797430
-12.948422
-14.184758
-9.672974
-1.513590
5.164628
6.606628
3.378185
-1.166769
-4.688145
-7.398631
-9.653363
-9.905612
-6.969054
-2.379536
1.437050
3.714781
5.207613
6.644125
7.789822
8.070134
7.654857
6.855569
4.734164
-0.099684
-6.969873
-12.652776
-13.877943
-9.846696
-2.789041
3.386267
5.829666
5.081255
4.719938
8.014757
14.218053
18.447771
16.185804
8.839573
4.551903
11.729278
31.018198
53.665775
67.157669
63.509846
44.928814
22.755608
9.347721
8.927033
16.244177
24.145464
30.868547
39.605156
52.896355
68.657715
80.343552
80.114403
64.156410
36.768085
7.976157
-13.659553
-25.611053
-30.389763
-31.674385
-30.165520
-21.847578
-2.211497
26.015366
50.796440
58.130112
42.841240
13.669736
-13.189577
-26.831566
-28.115862
-26.524029
-33.244984
-53.645813
-81.704056
-102.757637
-104.797035
-86.875320
-56.703548
-24.288391
1.050950
14.246885
19.549137
26.796289
38.343201
44.908081
37.660484
18.019176
-6.522903
-28.274141
-39.458057
-35.593983
-22.618654
-14.117855
-17.728582
-28.324436
-34.902817
-29.047363
-8.761666
18.819382
39.301411
41.458813
26.954329
8.116957
-2.962584
-2.880761
1.506247
-2.280615
-22.613783
-55.551128
-86.807060
-102.173683
-96.256531
-73.770172
-44.852657
-18.401138
1.684364
15.084558
22.767614
26.987080
29.644094
28.935354
21.104948
6.624966
-8.705468
-20.237766
-29.126778
-38.143440
-45.357666
-45.301476
-33.940811
-9.225860
28.655800
72.196884
105.662392
114.826439
96.905037
60.538956
20.108547
-8.953929
-15.994550
-1.936987
21.789402
41.968456
49.711624
43.554867
32.045589
28.579134
37.925301
49.983570
50.065872
32.073994
0.011299
-36.266499
-63.806137
-73.552605
-69.388252
-63.869591
-62.403564
-59.005898
-48.510380
-33.873077
-20.509842
-11.560707
-9.611509
-16.154797
-27.009666
-32.637272
-25.882288
-8.008435
12.636075
24.654774
18.215687
-7.114702
-37.589924
-53.920509
-48.401108
-32.110828
-23.342585
-30.222492
-46.370689
-60.213158
-62.150414
-44.842461
-7.692087
36.168766
65.744926
69.007767
51.751209
30.454630
18.624586
18.117596
20.604214
17.778522
10.044091
4.423679
7.755774
23.774942
50.927376
79.594223
94.965767
86.823456
58.631008
25.442207
-0.057121
-18.217859
-38.370872
-68.140884
-107.331879
-146.295654
-168.825256
-162.675201
-130.214584
-86.486916
-46.738895
-19.036945
-7.815461
-15.046093
-32.975960
-45.587051
-43.991295
-33.662827
-25.188917
-24.392012
-30.406404
-37.810673
-39.280697
-28.744402
-5.192470
26.171124
56.539516
76.566200
80.920280
74.330246
69.086197
71.577904
74.728271
66.532806
41.996220
4.980229
-37.345055
-77.672104
-106.733086
-114.022659
-95.640739
-60.159664
-23.339628
0.987353
3.962114
-16.041832
-49.074646
-77.902412
-90.367439
-84.766289
-65.502289
-39.071785
-13.240740
4.664940
9.733291
1.124959
-14.283402
-23.157122
-16.941380
1.126823
22.379597
39.074173
43.279041
29.376917
1.930139
-25.831829
-43.217045
-46.355701
-35.060471
-14.180097
3.941186
5.717579
-13.057356
-43.888481
-71.141724
-80.189613
-65.865913
-36.660400
-7.996926
8.517000
9.966941
2.862053
0.476974
13.540008
39.795341
63.678440
67.475960
44.057724
2.249664
-38.322533
-59.142429
-51.521515
-17.493008
33.381317
88.439232
136.925430
173.377396
197.295425
209.980576
211.481613
199.934448
173.197403
131.625961
80.260124
27.110155
-20.675842
-56.243187
-71.786972
-65.085991
-46.243134
-30.241671
-21.013048
-8.849417
14.788541
46.488651
75.744011
92.477707
88.110321
57.639709
6.257079
-49.120911
-89.538124
-106.502533
-105.752380
-100.084755
-97.763329
-96.578865
-88.468636
-68.090851
-36.671337
-0.462978
33.668205
62.609051
86.281616
103.159233
110.208534
107.504005
99.606720
90.741104
79.504807
61.380383
37.473373
16.505892
5.732210
2.748295
-2.372220
-18.465178
-46.618225
-79.303909
-104.031075
-109.562012
-92.177567
-57.018517
-13.343954
29.661791
62.317478
74.545120
61.209057
27.291895
-13.551065
-45.721527
-59.442314
-56.056801
-46.120544
-39.926430
-40.212700
-45.128227
-54.176258
-66.800789
-78.622810
-83.646095
-78.185555
-62.159069
-40.865978
-25.776119
-28.248323
-49.473564
-78.734436
-102.175117
-110.447762
-98.965828
-66.533546
-16.888517
39.851604
89.727333
120.818893
129.462494
123.296196
116.958900
121.584702
137.363998
156.324402
171.762207
183.490204
193.627991
200.557678
198.879868
183.168335
151.205017
105.875084
55.691822
11.882791
-18.699715
-37.910950
-52.030499
-65.791031
-82.177170
-103.022354
-125.701279
-141.903168
-143.284409
-128.836594
-106.487038
-87.396568
-78.022514
-76.823219
-77.225060
-72.688171
-60.353619
-42.308987
-24.387171
-13.388625
-13.551042
-24.112633
-41.244495
-62.333618
-86.390045
-111.635933
-135.851364
-158.019577
-177.643005
-192.944550
-199.442337
-191.004547
-165.463684
-128.692810
-90.355515
-57.029949
-30.904476
-11.959192
1.997800
16.430082
37.249577
65.804153
97.094101
121.283142
129.285934
120.640373
104.032562
89.474693
82.739151
86.303879
100.132195
118.720673
131.553802
130.798004
117.832939
100.876396
86.954994
77.397949
70.378296
64.431381
57.592850
45.506798
23.762465
-7.546873
-43.426407
-78.008514
-106.923477
-126.407822
-133.355042
-126.497238
-105.860046
-72.254959
-28.304613
20.735794
66.475266
98.386856
108.424164
95.830978
66.521294
28.428179
-10.628557
-42.263660
-60.003483
-65.446960
-69.945946
-85.262062
-111.277992
-136.445343
-149.601364
-146.411926
-126.168793
-89.620964
-41.820217
7.051592
47.342579
76.460854
98.637535
119.614418
142.562958
166.279053
184.603149
188.381866
170.693329
132.739502
85.359375
43.227688
16.292618
6.675499
11.565943
26.359961
46.842422
71.122017
98.656746
126.986526
150.972015
164.976181
164.505859
146.952576
113.555901
71.513924
31.890747
3.097374
-14.031342
-25.384083
-38.169395
-54.981728
-72.427658
-85.483650
-91.813820
-90.748482
-79.697098
-54.961449
-17.943245
20.993340
47.362171
51.625847
33.623711
0.495772
-38.109055
-74.203545
-102.887810
-121.726997
-130.645660
-131.919250
-128.663300
-122.833206
-114.827316
-104.370071
-89.974541
-67.649269
-33.103806
13.511527
66.791504
119.785439
165.682053
196.093964
202.091965
180.373718
137.786789
87.354637
39.696404
-0.921228
-34.088512
-59.810516
-78.280296
-91.550850
-103.132103
-114.626884
-123.371895
-124.201195
-113.042015
-88.966362
-54.492397
-15.166586
21.828821
50.543438
68.669434
77.087738
77.373009
70.263992
56.805202
39.893005
22.880642
6.836318
-9.139047
-25.012407
-39.191055
-50.741322
-60.046661
-66.651245
-67.666382
-59.384926
-40.415222
-12.324031
22.535194
62.103039
102.912460
138.944382
163.915451
174.528137
171.059158
155.688034
131.082275
100.701721
69.415581
41.501640
17.810642
-3.022774
-20.720806
-32.548664
-35.970711
-30.157969
-14.549326
11.503290
45.181171
78.122932
101.497932
112.448288
113.021187
104.671753
87.171806
61.924400
33.097446
4.838330
-20.837685
-42.509323
-57.110252
-61.200226
-54.630344
-41.572380
-27.417482
-14.782758
-2.153582
13.399931
32.218262
51.450584
67.153458
75.340919
72.661163
58.455082
36.128216
12.027788
-6.921988
-15.729094
-13.809090
-5.433605
3.717610
10.600678
14.706950
15.696226
13.389322
9.080392
4.951734
2.172649
-0.572824
-6.976830
-20.294044
-39.943317
-61.695950
-80.974075
-94.534065
-99.420036
-93.142754
-76.083595
-52.501354
-28.852236
-11.160319
-2.693097
-3.094563
-9.717415
-19.707045
-30.620514
-39.656971
-43.723888
-41.329201
-34.140030
-25.684530
-18.901052
-15.550788
-16.419981
-21.429796
-30.083450
-40.741219
-50.008163
-55.116398
-56.797096
-58.416920
-62.315601
-67.546921
-70.912834
-69.930679
-64.470535
-55.410809
-43.177441
-28.152826
-11.192311
6.612095
24.196276
40.527164
54.524124
64.951866
70.322914
69.563751
63.557003
55.733093
50.000507
47.286533
44.351624
36.438992
21.234783
0.430110
-22.172386
-43.149265
-59.960880
-70.528542
-73.519630
-69.340225
-60.696758
-51.137581
-42.570595
-35.100193
-28.970444
-24.915571
-22.370939
-18.748072
-11.427780
-0.499957
10.670875
17.285549
15.306394
3.312773
-16.115841
-37.269234
-54.641766
-65.860336
-72.088135
-76.236168
-80.441559
-84.403412
-85.407745
-80.224495
-68.060425
-51.627651
-34.806641
-20.273643
-10.144670
-7.052974
-12.111915
-22.251415
-32.154453
-39.215446
-44.469646
-48.619564
-49.978271
-47.334991
-42.336411
-37.151772
-31.463152
-23.591949
-12.985218
0.099775
15.625873
32.722324
48.374786
58.334522
60.099941
55.326851
48.720184
44.500767
44.414043
48.185608
54.214161
59.573864
60.775528
56.395741
49.216007
44.108288
43.364388
45.490925
48.209282
50.697746
52.913742
