EVENT_NAME: EMILIA_2ND_SHOCK
EVENT_ID: IT-2012-0011
EVENT_DATE_YYYYMMDD: 20120529
EVENT_TIME_HHMMSS: 070002
EVENT_LATITUDE_DEGREE: 44.8417
EVENT_LONGITUDE_DEGREE: 11.0657
EVENT_DEPTH_KM: 8.1
HYPOCENTER_REFERENCE: INGV-CNT_Seismic_Bulletin
MAGNITUDE_W: 6.0
MAGNITUDE_W_REFERENCE: RCMT-INGV
MAGNITUDE_L: 5.8
MAGNITUDE_L_REFERENCE: INGV-CNT_Seismic_Bulletin
FOCAL_MECHANISM: TF
NETWORK: IT
STATION_CODE: NVL
STATION_NAME: NOVELLARA
STATION_LATITUDE_DEGREE: 44.843001
STATION_LONGITUDE_DEGREE: 10.731506
STATION_ELEVATION_M: 22
LOCATION: 
SENSOR_DEPTH_M: 0.0
VS30_M/S: 190
SITE_CLASSIFICATION_EC8: C
MORPHOLOGIC_CLASSIFICATION: 
EPICENTRAL_DISTANCE_KM: 26.4
EARTHQUAKE_BACKAZIMUTH_DEGREE: 90.2
DATE_TIME_FIRST_SAMPLE_YYYYMMDD_HHMMSS: 20120529_065933.000
DATE_TIME_FIRST_SAMPLE_PRECISION: seconds
SAMPLING_INTERVAL_S: 0.005000
NDATA: 28001
DURATION_S: 140.005
STREAM: HNN
UNITS: cm/s^2
INSTRUMENT: sensor = MS2007+ [Syscom] | digitizer = 130-01/3 [Reftek]
INSTRUMENT_ANALOG/DIGITAL: D
INSTRUMENTAL_FREQUENCY_HZ: 
INSTRUMENTAL_DAMPING: 
FULL_SCALE_G: 
N_BIT_DIGITAL_CONVERTER: 24
PGA_CM/S^2: 48.261631
TIME_PGA_S: 45.975000
BASELINE_CORRECTION: BASELINE REMOVED
FILTER_TYPE: BUTTERWORTH
FILTER_ORDER: 2
LOW_CUT_FREQUENCY_HZ: 0.060
HIGH_CUT_FREQUENCY_HZ: 30.000
LATE/NORMAL_TRIGGERED: NT
DATABASE_VERSION: DYNA 1.0
HEADER_FORMAT: DYNA 1.2
DATA_TYPE: ACCELERATION
PROCESSING: manual (Paolucci et al., 2011)
DATA_TIMESTAMP_YYYYMMDD_HHMMSS: 
DATA_LICENSE: CC-BY3_0-IT (http://creativecommons.org/licenses/by/3.0/deed.en)
DATA_CITATION: ESM working group (2015), European Strong-Motion database, version 0.1, Network Activity 3: Networking acceleration networks and SM data users. Project NERA (www.nera-eu.org)
DATA_CREATOR: ESM working group
ORIGINAL_DATA_MEDIATOR_CITATION: Ufficio Rischio Sismico e Vulcanico del Dipartimento della Protezione Civile (http://www.protezionecivile.gov.it/)
ORIGINAL_DATA_MEDIATOR: Rete Accelerometrica Nazionale - RAN Download (http://www.mot1.it/randownload/)
ORIGINAL_DATA_CREATOR_CITATION: Italian Strong Motion Network, Italian Civil Protection Department http://www.protezionecivile.gov.it
ORIGINAL_DATA_CREATOR: network: IT (Italian Strong Motion Network); owner: Dipartimento Della Protezione Civile
USER1: 
USER2: 
USER3: 
USER4: 
USER5: 
[...]
0.266139
0.818769
1.560553
1.983805
1.568236
0.428409
-0.660723
-0.968492
-0.493984
0.086237
0.067661
-0.717088
-1.820581
-2.541748
-2.477426
-1.869761
-1.383546
-1.440857
-1.748218
-1.521018
-0.265069
1.618599
3.122178
3.604734
3.320117
2.902776
2.614871
2.284526
1.689018
0.732899
-0.497919
-1.575526
-1.894704
-1.386663
-0.890321
-1.371964
-2.792324
-4.085314
-4.257907
-3.204841
-1.462786
0.383405
1.828795
2.385192
1.884643
0.802266
-0.081119
-0.383647
-0.278986
-0.019469
0.373697
0.900619
1.340393
1.349960
0.739408
-0.304897
-1.210905
-1.403091
-0.852507
-0.114449
0.324464
0.553567
0.865544
1.077443
0.666323
-0.389321
-1.369790
-1.661055
-1.470513
-1.330485
-1.192673
-0.559997
0.569534
1.469602
1.563461
1.133265
0.906392
1.180800
1.614246
1.743858
1.450545
0.901440
0.234143
-0.550481
-1.407146
-2.134939
-2.578360
-2.795282
-2.778337
-2.139947
-0.540993
1.467402
2.542821
1.881105
0.175137
-1.139825
-1.417708
-1.169869
-1.037941
-0.969884
-0.593249
0.042940
0.491324
0.503201
0.252443
0.012502
-0.062793
0.193428
0.993438
2.306343
3.645809
4.323304
4.008433
3.013563
1.907676
0.840234
-0.527959
-2.269178
-3.634597
-3.668614
-2.378068
-0.937014
-0.562840
-1.360890
-2.407898
-2.811536
-2.473580
-1.884872
-1.460553
-1.188545
-0.768232
0.010627
0.950370
1.505356
1.294883
0.575876
0.059868
0.194445
0.738810
1.122794
1.085464
0.824754
0.648032
0.674215
0.808948
0.803480
0.384590
-0.421765
-1.074812
-0.885225
0.247787
1.549614
1.958082
1.075280
-0.483937
-1.748129
-2.304681
-2.419804
-2.396647
-2.171184
-1.628014
-1.021798
-0.822075
-1.172924
-1.669928
-1.738072
-1.164343
-0.193253
0.828223
1.758951
2.607463
3.320815
3.780040
3.984897
4.084358
4.132843
3.900477
3.063816
1.613459
0.005737
-1.135624
-1.499317
-1.336132
-1.262948
-1.770083
-2.840649
-3.966293
-4.516117
-4.204970
-3.302946
-2.337688
-1.551745
-0.759701
0.232704
1.262325
1.951266
2.067763
1.734682
1.464944
1.922631
3.293462
4.781073
5.063364
3.576171
1.239783
-0.393867
-0.699890
-0.421259
-0.608746
-1.507889
-2.551227
-3.025345
-2.549386
-1.282392
0.001904
0.311801
-0.660777
-2.077279
-2.667366
-1.895996
-0.295731
1.200802
2.036299
2.258524
2.249267
2.270159
2.194112
1.723306
0.913430
0.321875
0.445238
1.060790
1.328069
0.631188
-0.752912
-1.892909
-2.053010
-1.238671
-0.019662
0.953494
1.245636
0.735082
-0.328747
-1.363615
-1.732893
-1.210148
-0.269600
0.213503
-0.249304
-1.265506
-1.976464
-1.937526
-1.440233
-0.989433
-0.678022
-0.184065
0.733774
1.866246
2.670715
2.726558
2.104426
1.328807
0.972634
1.189187
1.515286
1.190190
-0.113453
-1.806164
-2.775480
-2.387945
-1.121284
-0.224431
-0.738037
-2.692310
-5.079363
-6.594489
-6.555080
-5.276088
-3.657511
-2.421372
-1.694819
-1.205797
-0.719573
-0.228510
0.156715
0.337778
0.256721
-0.055783
-0.386566
-0.412907
-0.026805
0.453420
0.587397
0.367095
0.266078
0.582821
0.881585
0.378392
-1.062202
-2.553177
-2.965974
-1.968414
-0.195699
1.373292
1.974953
1.322707
-0.108892
-1.108338
-0.655069
0.952000
2.301047
2.421566
1.781317
1.499713
1.946843
2.514355
2.519120
1.867684
0.927005
0.191319
0.101306
0.784294
1.832511
2.613819
2.915997
3.071903
3.398730
3.745283
3.665895
2.872037
1.499373
0.116070
-0.560440
-0.239862
0.563624
0.964767
0.641640
0.159500
0.229063
0.820228
1.281751
1.304870
1.410624
2.270078
3.777737
5.097995
5.532964
5.093921
4.271023
3.466849
2.681750
1.632541
0.140592
-1.570848
-2.970876
-3.635517
-3.618706
-3.489835
-3.947874
-5.166899
-6.427580
-6.631600
-5.440388
-3.795423
-2.965729
-3.030526
-2.687166
-0.821319
2.023452
4.132689
4.434838
3.423367
2.331877
1.883661
2.001909
2.255692
2.170363
1.395802
0.100845
-0.855241
-0.654952
0.432819
1.173605
0.817391
0.088053
0.318597
1.798304
3.445650
4.078079
3.577214
2.786839
2.711190
3.907869
6.164559
8.480479
9.731126
9.669050
9.053336
8.632839
8.313260
7.514243
5.957729
3.761564
1.096542
-1.753759
-4.178904
-5.667458
-6.487938
-7.444919
-8.832729
-10.113368
-10.835712
-11.351651
-12.182442
-13.013289
-12.867464
-11.240525
-8.681212
-6.209077
-4.419320
-3.223174
-2.233187
-1.180479
0.045008
1.567034
3.483429
5.555094
7.108107
7.513163
6.817830
5.754689
5.075687
5.023465
5.488328
6.380063
7.522014
8.327353
8.097477
6.839230
5.413363
4.574468
4.095909
3.128117
1.270732
-0.991496
-2.851096
-3.913260
-4.377623
-4.737611
-5.383814
-6.330805
-7.174992
-7.348907
-6.573105
-5.192737
-4.032127
-3.708150
-3.946241
-3.680572
-2.017439
0.858293
3.815553
5.885182
7.193175
8.646185
10.674883
12.530105
13.017832
11.774372
9.545416
7.252828
5.086059
2.624948
-0.380941
-3.630793
-6.611618
-9.018829
-10.768504
-11.926096
-12.875570
-14.272522
-16.389111
-18.587681
-19.883669
-20.091648
-20.019470
-20.361029
-20.746700
-20.203838
-18.381735
-15.939445
-13.645834
-11.410484
-8.501696
-4.619155
-0.434735
2.960563
4.900705
5.433538
5.109963
4.643938
4.518747
4.670636
4.621446
4.087782
3.453982
3.502590
4.609957
6.295162
7.658829
8.227041
8.240428
8.102509
7.742266
6.698525
4.718156
2.044046
-0.858956
-3.667590
-6.292697
-8.783908
-11.169663
-13.255575
-14.560529
-14.604294
-13.340732
-11.222295
-8.769348
-6.124905
-3.058517
0.664876
4.935017
9.196725
12.672407
14.849097
15.832287
16.089560
15.770840
14.442359
11.654694
7.661819
3.333519
-0.636102
-4.211688
-7.696456
-11.136391
-14.107976
-15.974466
-16.307510
-15.170325
-13.050119
-10.391467
-7.069835
-2.408744
4.074294
11.870416
19.555546
25.763699
30.051708
32.834751
34.652905
35.602367
35.373463
33.673412
30.540611
26.255182
21.002441
14.800790
7.873445
0.840048
-5.745217
-11.832137
-17.482025
-22.177429
-24.957788
-25.265808
-23.320103
-19.646288
-14.693914
-9.119899
-3.989042
-0.162975
2.413332
4.404700
6.080942
7.000803
6.794343
5.893373
5.133355
4.697099
3.781662
1.488707
-2.038178
-5.497688
-7.509483
-7.822387
-7.463509
-7.718505
-8.943169
-10.279248
-10.479728
-9.066342
-6.776391
-4.944894
-4.425414
-4.988683
-5.647221
-5.548399
-4.650650
-3.628853
-3.127549
-3.065792
-2.630538
-0.937966
2.225936
6.216765
10.075232
13.314813
16.168276
19.038956
21.767176
23.517414
23.430460
21.395617
18.144476
14.550444
10.897395
6.927144
2.529205
-1.851261
-5.597996
-8.574427
-11.229039
-14.057362
-17.043476
-19.632830
-21.157331
-21.217665
-19.721806
-16.748604
-12.517178
-7.441616
-2.105368
2.865103
6.972163
10.012908
12.158914
13.865036
15.542758
17.108807
17.820242
16.723434
13.431405
8.469053
2.755944
-3.235861
-9.619331
-16.369179
-22.802961
-28.038879
-31.761187
-34.211357
-35.482536
-35.179314
-32.956024
-29.167645
-24.657999
-19.928288
-14.837573
-9.179550
-3.183227
2.780585
8.687574
14.638199
20.170662
24.197220
25.866522
25.352428
23.657621
21.784189
20.233385
19.122387
18.413933
17.884308
17.093643
15.744628
14.193697
13.354853
13.794548
14.971487
15.609946
14.854438
12.895901
10.389201
7.420899
3.317830
-2.481791
-9.591433
-16.809935
-22.926584
-27.338223
-30.078888
-31.380386
-31.159147
-28.975098
-24.614265
-18.660683
-12.325845
-6.631058
-1.731234
3.021583
8.353234
14.267815
19.843760
23.818123
25.411877
24.680655
22.253956
18.845213
14.879177
10.407413
5.435954
0.436881
-3.677224
-6.404385
-8.389573
-10.913971
-14.525949
-18.424494
-21.315907
-22.652266
-22.840298
-22.424162
-21.395548
-19.357130
-16.134029
-12.033129
-7.561198
-3.114659
1.004308
4.559673
7.642206
10.802275
14.558497
18.749149
22.656252
25.788708
28.199793
29.945629
30.669380
30.082577
28.633812
27.299383
26.729572
26.829714
27.074715
26.928921
25.993299
24.071604
21.210333
17.513021
12.884531
7.173530
0.659286
-5.827211
-11.487019
-16.178026
-20.271421
-23.942875
-26.831635
-28.411180
-28.453535
-27.041468
-24.366035
-20.689215
-16.322390
-11.450812
-6.117670
-0.514001
4.897038
9.692893
13.767696
17.163519
19.796864
21.525894
22.345903
22.300629
21.312180
19.388096
16.950987
14.593311
12.401081
9.861902
6.639767
3.144959
0.109261
-2.113385
-3.569684
-4.359725
-4.664426
-4.943272
-5.719053
-7.187435
-9.231275
-11.686669
-14.354300
-16.863447
-18.809973
-20.026100
-20.521692
-20.182676
-18.783327
-16.431803
-13.828596
-11.833814
-10.753212
-10.186077
-9.576683
-8.728722
-7.736331
-6.686693
-5.632382
-4.673073
-3.844246
-3.020351
-2.110346
-1.310768
-0.992788
-1.267434
-1.733407
-1.729936
-0.854910
0.751268
2.616099
4.411580
6.178290
8.074220
9.992987
11.510954
12.214388
12.062005
11.432104
10.825461
10.508014
10.406356
10.321230
10.229834
10.368586
10.988888
12.005408
12.939058
13.298859
12.992385
12.235649
11.068949
9.169669
6.290791
2.778481
-0.530078
-2.938558
-4.333816
-5.056676
-5.524348
-6.021203
-6.681855
-7.535775
-8.600595
-9.988510
-11.866506
-14.233545
-16.747923
-18.822735
-19.921432
-19.807606
-18.588617
-16.604185
-14.257055
-11.764999
-8.945372
-5.385598
-1.011766
3.589257
7.555092
10.320170
11.610075
11.061731
8.290087
3.454967
-2.537561
-8.634723
-14.298930
-19.377750
-23.493816
-25.958691
-26.388771
-25.140379
-22.970739
-20.421181
-17.640038
-14.596643
-11.223627
-7.436330
-3.280239
0.889120
4.516166
7.150459
8.562544
8.652377
7.454988
5.292036
2.794065
0.656648
-0.673111
-1.130174
-0.946389
-0.462609
0.075819
0.691189
1.677115
3.309805
5.462470
7.580604
9.149041
10.160037
11.036887
12.090942
13.127036
13.665176
13.532875
13.074934
12.675928
12.239824
11.362631
9.952949
8.425547
7.255001
6.589980
6.364289
6.453583
6.506130
5.899556
4.221029
1.715783
-1.001350
-3.629774
-6.334942
-9.275885
-12.351196
-15.527540
-19.059811
-23.106888
-27.303118
-30.941916
-33.517090
-34.965107
-35.469440
-35.156395
-33.944313
-31.611826
-28.038069
-23.403254
-18.100357
-12.433593
-6.482339
-0.286972
5.948226
11.947571
17.607952
23.020590
28.204859
32.865406
36.432255
38.277786
37.896896
35.080116
30.100933
23.671366
16.575521
9.357575
2.391909
-3.883227
-8.949948
-12.398279
-14.063619
-14.042709
-12.658461
-10.320830
-7.248144
-3.326635
1.615542
7.379386
13.333614
18.782505
23.311323
26.742441
28.845957
29.255657
27.736797
24.422823
19.674213
13.767883
6.857462
-0.721726
-8.191297
-14.547203
-19.162794
-22.121292
-23.848440
-24.455479
-23.571236
-20.840721
-16.468996
-11.199844
-5.818769
-0.736758
3.994186
8.400463
12.439852
16.084560
19.328421
21.983612
23.646370
24.099215
23.668869
22.891966
21.807405
19.937195
17.137999
14.150981
12.013530
11.090681
10.941958
11.013573
11.133077
11.301048
11.359893
11.139135
10.729565
10.257674
9.415902
7.553267
4.355628
0.250057
-3.953582
-7.693117
-10.912878
-13.873671
-16.796059
-19.617777
-22.030130
-23.729156
-24.617405
-24.803949
-24.489882
-23.804964
-22.585239
-20.303802
-16.459030
-11.192993
-5.426900
-0.268012
3.704712
6.607153
8.875708
10.859367
12.683020
14.183221
14.802082
13.828273
11.106181
7.434556
3.962256
1.182696
-1.239926
-3.638694
-5.615454
-6.303110
-5.223605
-2.751879
0.156154
2.536992
3.841126
4.056510
3.482434
2.276612
0.215103
-3.056052
-7.573473
-12.869250
-18.154139
-22.704020
-26.201244
-28.772537
-30.658895
-31.812073
-31.823275
-30.273268
-27.170815
-23.030827
-18.479540
-13.788515
-8.852870
-3.601271
1.725843
6.787174
11.471682
15.798974
19.542459
22.235710
23.625813
23.866047
23.143120
21.383442
18.554340
15.058192
11.524181
8.275816
5.268294
2.509024
0.260159
-1.187782
-1.693678
-1.187768
0.332197
2.612330
5.122727
7.391644
9.323918
11.114524
12.903478
14.592345
15.932936
16.650284
16.474920
15.267542
13.301541
11.312227
10.000769
9.453785
9.204324
8.813301
8.171444
7.269670
5.979535
4.200410
2.071432
-0.097404
-2.022672
-3.468567
-4.190579
-4.088720
-3.451655
-2.867131
-2.749397
-2.993036
-3.188209
-3.191060
-3.420107
-4.541684
-6.894344
-10.260758
-14.100106
-17.808775
-20.753887
-22.344822
-22.351063
-21.114685
-19.233896
-16.998972
-14.270887
-10.899753
-7.100158
-3.354516
-0.026811
2.843205
5.378913
7.602343
9.363411
10.426927
10.552436
9.576876
7.562352
4.880052
2.027340
-0.728019
-3.451158
-6.187832
-8.583170
-10.019664
-10.177543
-9.376279
-8.289048
-7.331486
-6.373324
-4.983032
-2.818591
0.203638
3.923888
7.968161
11.816566
15.020487
17.471827
19.431290
21.184509
22.640839
23.374006
23.118378
22.086298
20.627369
18.655064
15.658505
11.336092
6.002736
0.231922
-5.716136
-11.838445
-17.813456
-22.815315
-26.109285
-27.716825
-28.297373
-28.400549
-28.013250
-26.851091
-24.847471
-22.177155
-18.976358
-15.340077
-11.570027
-8.130625
-5.282736
-2.989666
-1.289524
-0.550784
-1.124953
-2.765136
-4.589356
-5.725998
-5.934976
-5.578372
-5.130471
-4.848942
-4.819210
-5.054016
-5.430191
-5.641813
-5.319965
-4.165185
-1.953528
1.478630
6.157513
11.869244
18.149784
24.413408
30.168684
35.169544
39.385559
42.861900
45.602531
47.491898
48.261631
47.619823
45.510799
42.162056
37.768997
32.274227
25.665201
18.411654
11.352648
5.061101
-0.570559
-6.043291
-11.655925
-17.313314
-22.817486
-28.081614
-32.959377
-37.047432
-39.863350
-41.223694
-41.333790
-40.464485
-38.624363
-35.651054
-31.603155
-26.933317
-22.191950
-17.601755
-13.045554
-8.531887
-4.545923
-1.768943
-0.496288
-0.511740
-1.504093
-3.361626
-5.960440
-8.858589
-11.440917
-13.367280
-14.672181
-15.364730
-15.165499
-13.809610
-11.451691
-8.572220
-5.563613
-2.590483
0.191841
2.528665
4.311937
5.839655
7.677940
10.209468
13.295728
16.331814
18.636105
19.857384
20.070950
19.571095
18.654863
17.566395
16.534479
15.814686
15.680027
16.305765
17.620129
19.288698
20.852411
21.885170
22.124187
21.626545
20.833464
20.304613
20.257231
20.429607
20.453510
20.245783
19.894276
19.207834
17.597601
14.566891
10.276359
5.486447
0.934325
-3.116585
-6.738860
-9.990405
-12.837363
-15.277826
-17.331455
-18.901411
-19.793261
-19.959352
-19.662066
-19.240866
-18.681507
-17.615259
-15.915701
-14.149451
-13.142588
-13.067345
-13.229296
-12.918349
-12.265019
-11.995672
-12.432988
-13.065101
-13.176088
-12.608753
-11.712501
-10.766491
-9.735969
-8.471297
-6.840409
-4.665455
-1.769834
1.804583
5.724316
9.604905
13.277926
16.710623
19.673611
21.651339
22.229305
21.552715
20.284830
19.083643
18.162008
17.284950
16.064520
14.301928
12.200119
10.262175
8.868501
7.917416
6.953469
5.668505
4.206235
2.947097
2.061989
1.332544
0.372703
-1.036620
-2.823393
-4.744888
-6.564536
-8.161106
-9.567216
-10.887074
-12.055828
-12.670582
-12.225555
-10.614244
-8.281222
-5.759304
-3.155679
-0.252648
2.947023
5.989457
8.310148
9.615528
9.890473
9.268120
8.028722
6.521080
4.851987
2.720654
-0.250351
-4.024841
-8.126025
-12.106264
-15.913212
-19.721844
-23.479050
-26.707748
-28.778141
-29.350342
-28.558821
-26.810846
-24.426994
-21.452026
-17.798414
-13.579158
-9.283875
-5.582756
-2.907250
-1.176240
0.089698
1.364148
2.776687
4.105947
5.024698
5.324934
4.976664
4.089160
2.888054
1.696605
0.839192
0.502895
0.696309
1.324877
2.246152
3.224877
3.883866
3.777096
2.547117
0.021734
-3.808391
-8.851365
-14.890262
-21.469784
-27.882280
-33.412418
-37.688923
-40.788334
-42.961227
-44.275414
-44.565159
-43.686092
-41.679234
-38.593407
-34.215782
-28.110216
-20.004150
-10.200280
0.336622
10.304592
18.562586
24.456734
27.826675
28.820866
27.747770
25.052631
21.302835
17.048071
12.648880
8.304220
4.271181
0.972288
-1.207451
-2.214199
-2.295590
-1.624443
-0.080710
2.470273
5.790877
9.370514
12.894759
16.384180
19.801491
22.757584
24.804733
25.915621
26.485439
26.897461
27.248648
27.496725
27.666468
27.769777
27.626375
26.930405
25.510323
23.441526
20.876547
17.835545
14.253626
10.215406
5.999511
1.814308
-2.405232
-6.836403
-11.453771
-15.927613
-19.774292
-22.566893
-24.081352
-24.311907
-23.317408
-21.032301
-17.281870
-12.020018
-5.518558
1.715654
9.198597
16.599152
23.621115
29.894979
35.118538
39.245918
42.414246
44.671638
45.778847
45.230949
42.499695
37.348347
29.969591
20.878906
10.737684
0.247879
-9.864928
-18.878323
-26.249641
-31.796194
-35.588310
-37.714165
-38.304173
-37.700703
-36.318729
-34.216789
-30.971367
-26.191628
-20.162617
-13.778482
-7.736750
-1.999364
3.762015
9.382100
14.164864
17.550707
19.505392
20.230658
19.813885
18.364069
16.327227
14.347703
12.717475
11.178722
9.435146
7.672102
6.332686
5.507727
4.849834
4.075199
3.257140
2.524603
1.708292
0.516854
-1.017595
-2.513366
-3.695720
-4.690501
-5.772292
-6.973416
-8.099849
-9.057926
-9.970425
-10.931022
-11.794681
-12.320469
-12.447814
-12.320623
-12.077668
-11.760318
-11.490134
-11.635056
-12.629711
-14.573310
-17.068911
-19.497139
-21.420181
-22.713352
-23.393930
-23.463062
-22.933958
-21.867302
-20.277563
-18.074701
-15.181573
-11.661863
-7.641862
-3.132025
1.933202
7.409647
12.799416
17.503658
21.212349
24.029804
26.276531
28.195564
29.783375
30.827433
31.072620
30.347235
28.572603
25.744982
21.971853
17.485239
12.539659
7.288781
1.803365
-3.776427
-9.122960
-13.769968
-17.302837
-19.531679
-20.477753
-20.198082
-18.685898
-15.958795
-12.164854
-7.561117
-2.437456
2.893854
8.062576
12.689891
16.555763
19.695227
22.226534
24.059002
24.904982
24.698725
23.897757
23.160572
22.716221
22.220873
21.254280
19.762947
17.912260
15.677485
12.847196
9.459377
5.998845
3.018890
0.698444
-1.101298
-2.462533
-3.278178
-3.482650
-3.257011
-2.906661
-2.578519
-2.195257
-1.663887
-1.023821
-0.335989
0.452462
1.401335
2.359178
2.976200
3.000252
2.509589
1.785867
0.984669
0.003150
-1.331720
-3.022301
-4.901072
-6.836051
-8.843153
-10.966190
-13.132055
-15.208758
-17.163986
-19.046345
-20.780645
-22.098986
-22.781601
-22.913256
-22.785206
-22.571827
-22.244068
-21.805689
-21.443537
-21.351637
-21.505917
-21.720722
-21.894802
-22.089369
-22.325584
-22.410572
-22.081917
-21.286018
-20.190578
-18.921974
-17.403276
-15.480255
-13.128176
-10.512101
-7.905520
-5.549981
-3.503662
-1.599006
0.367354
2.363549
4.115255
5.412662
6.344371
7.147136
7.873917
8.305270
8.187577
7.488789
6.400851
5.159100
3.927808
2.832177
1.997513
1.493577
1.267395
1.179464
1.102492
0.960842
0.698181
0.248259
-0.457145
-1.443373
-2.634409
-3.859799
-4.955220
-5.833881
-6.433625
-6.656553
-6.425738
-5.752964
-4.682955
-3.212018
-1.351828
0.711212
2.596165
3.946744
4.670148
4.901526
4.725554
4.001313
2.502383
0.185726
-2.727372
