EVENT_NAME: EMILIA_2ND_SHOCK
EVENT_ID: IT-2012-0011
EVENT_DATE_YYYYMMDD: 20120529
EVENT_TIME_HHMMSS: 070002
EVENT_LATITUDE_DEGREE: 44.8417
EVENT_LONGITUDE_DEGREE: 11.0657
EVENT_DEPTH_KM: 8.1
HYPOCENTER_REFERENCE: INGV-CNT_Seismic_Bulletin
MAGNITUDE_W: 6.0
MAGNITUDE_W_REFERENCE: RCMT-INGV
MAGNITUDE_L: 5.8
MAGNITUDE_L_REFERENCE: INGV-CNT_Seismic_Bulletin
FOCAL_MECHANISM: TF
NETWORK: IT
STATION_CODE: NVL
STATION_NAME: NOVELLARA
STATION_LATITUDE_DEGREE: 44.843001
STATION_LONGITUDE_DEGREE: 10.731506
STATION_ELEVATION_M: 22
LOCATION: 
SENSOR_DEPTH_M: 0.0
VS30_M/S: 190
SITE_CLASSIFICATION_EC8: C
MORPHOLOGIC_CLASSIFICATION: 
EPICENTRAL_DISTANCE_KM: 26.4
EARTHQUAKE_BACKAZIMUTH_DEGREE: 90.2
DATE_TIME_FIRST_SAMPLE_YYYYMMDD_HHMMSS: 20120529_065933.000
DATE_TIME_FIRST_SAMPLE_PRECISION: seconds
SAMPLING_INTERVAL_S: 0.005000
NDATA: 28001
DURATION_S: 140.005
STREAM: HNZ
UNITS: cm/s
INSTRUMENT: sensor = MS2007+ [Syscom] | digitizer = 130-01/3 [Reftek]
INSTRUMENT_ANALOG/DIGITAL: D
INSTRUMENTAL_FREQUENCY_HZ: 
INSTRUMENTAL_DAMPING: 
FULL_SCALE_G: 
N_BIT_DIGITAL_CONVERTER: 24
PGV_CM/S: -1.074912
TIME_PGV_S: 44.145000
BASELINE_CORRECTION: BASELINE REMOVED
FILTER_TYPE: BUTTERWORTH
FILTER_ORDER: 2
LOW_CUT_FREQUENCY_HZ: 0.060
HIGH_CUT_FREQUENCY_HZ: 30.000
LATE/NORMAL_TRIGGERED: NT
DATABASE_VERSION: DYNA 1.0
HEADER_FORMAT: DYNA 1.2
DATA_TYPE: VELOCITY
PROCESSING: manual (Paolucci et al., 2011)
DATA_TIMESTAMP_YYYYMMDD_HHMMSS: 
DATA_LICENSE: CC-BY3_0-IT (http://creativecommons.org/licenses/by/3.0/deed.en)
DATA_CITATION: ESM working group (2015), European Strong-Motion database, version 0.1, Network Activity 3: Networking acceleration networks and SM data users. Project NERA (www.nera-eu.org)
DATA_CREATOR: ESM working group
ORIGINAL_DATA_MEDIATOR_CITATION: Ufficio Rischio Sismico e Vulcanico del Dipartimento della Protezione Civile (http://www.protezionecivile.gov.it/)
ORIGINAL_DATA_MEDIATOR: Rete Accelerometrica Nazionale - RAN Download (http://www.mot1.it/randownload/)
ORIGINAL_DATA_CREATOR_CITATION: Italian Strong Motion Network, Italian Civil Protection Department http://www.protezionecivile.gov.it
ORIGINAL_DATA_CREATOR: network: IT (Italian Strong Motion Network); owner: Dipartimento Della Protezione Civile
USER1: 
USER2: 
USER3: 
USER4: 
USER5: 
[...]
0.043129
0.031660
0.014706
-0.002162
-0.014644
-0.021482
-0.024018
-0.024500
-0.024376
-0.023579
-0.020926
-0.015319
-0.007211
0.000784
0.004979
0.002863
-0.005075
-0.015260
-0.022818
-0.024093
-0.018298
-0.007371
0.005564
0.017570
0.026173
0.029171
0.024880
0.012840
-0.005776
-0.028701
-0.053373
-0.076947
-0.095902
-0.106569
-0.106733
-0.096988
-0.080777
-0.063299
-0.049803
-0.043617
-0.044679
-0.049644
-0.053820
-0.053537
-0.047203
-0.034987
-0.018434
-0.000415
0.015287
0.025101
0.026936
0.020927
0.009427
-0.003774
-0.014967
-0.022058
-0.025105
-0.025599
-0.025077
-0.024259
-0.023509
-0.023893
-0.027556
-0.036762
-0.051798
-0.069449
-0.083951
-0.090108
-0.086009
-0.073325
-0.055613
-0.036468
-0.018700
-0.004443
0.004352
0.005998
0.000248
-0.010631
-0.022729
-0.033093
-0.041428
-0.049001
-0.056250
-0.062113
-0.065317
-0.065381
-0.062301
-0.056243
-0.048533
-0.042675
-0.043285
-0.053284
-0.071736
-0.094119
-0.114628
-0.128396
-0.132446
-0.126205
-0.112184
-0.095828
-0.083370
-0.078513
-0.080621
-0.085917
-0.090075
-0.089701
-0.082238
-0.065999
-0.041577
-0.012925
0.014247
0.035615
0.049556
0.055657
0.053273
0.042567
0.026382
0.009563
-0.004585
-0.017000
-0.031552
-0.051271
-0.075900
-0.101693
-0.122360
-0.131028
-0.123552
-0.102111
-0.076199
-0.058540
-0.057592
-0.072144
-0.092587
-0.107964
-0.112744
-0.108307
-0.099474
-0.089688
-0.078438
-0.062564
-0.039683
-0.010848
0.019097
0.043824
0.059231
0.065683
0.066919
0.066512
0.064718
0.058541
0.045171
0.025464
0.003778
-0.015928
-0.033615
-0.052593
-0.075437
-0.100374
-0.121610
-0.133407
-0.134101
-0.126585
-0.115603
-0.104908
-0.096396
-0.090550
-0.086258
-0.080097
-0.067269
-0.044483
-0.012123
0.026098
0.064721
0.097810
0.120272
0.129587
0.126552
0.113678
0.092487
0.062718
0.024547
-0.018553
-0.059494
-0.090613
-0.107838
-0.112506
-0.109284
-0.102080
-0.091522
-0.075950
-0.054580
-0.030011
-0.007827
0.007056
0.014496
0.019313
0.026395
0.035267
0.039827
0.033586
0.015145
-0.010757
-0.036472
-0.055875
-0.067291
-0.073410
-0.078539
-0.085517
-0.094406
-0.103225
-0.109420
-0.110904
-0.106624
-0.096688
-0.081921
-0.063513
-0.043007
-0.021668
0.000959
0.027498
0.060551
0.099240
0.138068
0.169744
0.189664
0.198219
0.199296
0.196676
0.191356
0.181384
0.163907
0.137944
0.105945
0.073072
0.044998
0.026089
0.018978
0.024692
0.042081
0.066968
0.092270
0.109937
0.114137
0.103653
0.081894
0.054658
0.027362
0.003589
-0.015009
-0.028721
-0.039815
-0.051586
-0.066323
-0.083537
-0.099626
-0.108922
-0.105960
-0.088540
-0.059699
-0.026558
0.003762
0.028392
0.049822
0.073144
0.102057
0.136590
0.173460
0.207921
0.235703
0.254413
0.263924
0.265432
0.260050
0.248152
0.229942
0.206835
0.181944
0.158703
0.139034
0.122638
0.107626
0.092059
0.075723
0.061264
0.053875
0.059275
0.081085
0.119190
0.169558
0.225100
0.277281
0.318601
0.345298
0.358036
0.359135
0.348813
0.324285
0.282330
0.222696
0.149793
0.071965
-0.000574
-0.058132
-0.094330
-0.108776
-0.107292
-0.098465
-0.088895
-0.080733
-0.072724
-0.063082
-0.051868
-0.041404
-0.034365
-0.030829
-0.026924
-0.017124
0.000817
0.022565
0.039295
0.043959
0.036607
0.024580
0.017539
0.021070
0.033239
0.046067
0.050487
0.041418
0.020095
-0.007567
-0.035444
-0.060890
-0.084436
-0.106206
-0.122637
-0.126473
-0.110534
-0.073191
-0.021441
0.031631
0.073892
0.100559
0.115246
0.125366
0.135589
0.143890
0.142490
0.122422
0.078762
0.013823
-0.063324
-0.140348
-0.205559
-0.250797
-0.273334
-0.275956
-0.264243
-0.242640
-0.212931
-0.176560
-0.138028
-0.104786
-0.082569
-0.070845
-0.063384
-0.052951
-0.035145
-0.009094
0.023473
0.059497
0.096588
0.134833
0.176205
0.221523
0.267801
0.309078
0.340559
0.361718
0.374711
0.380023
0.374054
0.350469
0.303658
0.232212
0.141331
0.043057
-0.046921
-0.115371
-0.157000
-0.175062
-0.176588
-0.166359
-0.144213
-0.107113
-0.054244
0.008445
0.068087
0.110194
0.126034
0.116907
0.092712
0.066305
0.047947
0.042918
0.051564
0.069757
0.089502
0.100841
0.095403
0.070046
0.028083
-0.022699
-0.073546
-0.117518
-0.150707
-0.172302
-0.183889
-0.188154
-0.187429
-0.182620
-0.172960
-0.156854
-0.133480
-0.104261
-0.073222
-0.045687
-0.025961
-0.015365
-0.011672
-0.009987
-0.004304
0.010388
0.035220
0.065590
0.093106
0.110783
0.117154
0.115663
0.110612
0.104462
0.098961
0.097955
0.108241
0.136860
0.186375
0.251405
0.318906
0.372620
0.399762
0.396198
0.366793
0.320701
0.265157
0.202444
0.131740
0.053510
-0.027514
-0.103056
-0.164554
-0.205859
-0.223654
-0.216650
-0.185604
-0.134542
-0.071908
-0.010387
0.035110
0.051244
0.030813
-0.024038
-0.102372
-0.189017
-0.270181
-0.336767
-0.384753
-0.414228
-0.428097
-0.430082
-0.422102
-0.402725
-0.368547
-0.318177
-0.255844
-0.191227
-0.135217
-0.094974
-0.071905
-0.063095
-0.063911
-0.069749
-0.076772
-0.081833
-0.081543
-0.072147
-0.052327
-0.027400
-0.009687
-0.012395
-0.041266
-0.091099
-0.149848
-0.206306
-0.254960
-0.295095
-0.326588
-0.346712
-0.350115
-0.331342
-0.287966
-0.222541
-0.142357
-0.056928
0.025505
0.100033
0.164035
0.214075
0.244113
0.247451
0.221016
0.168822
0.102410
0.037762
-0.009942
-0.031337
-0.025489
0.001027
0.037975
0.075909
0.108698
0.132971
0.145768
0.143167
0.121742
0.081897
0.029820
-0.024373
-0.071350
-0.106737
-0.132080
-0.152451
-0.172511
-0.193198
-0.210589
-0.217471
-0.207084
-0.177302
-0.132550
-0.081815
-0.034218
0.004520
0.032692
0.050683
0.058525
0.054792
0.037058
0.002865
-0.049066
-0.116949
-0.193972
-0.268071
-0.324191
-0.348260
-0.331926
-0.276593
-0.194202
-0.103252
-0.021363
0.041728
0.086306
0.119015
0.147057
0.174719
0.203323
0.232270
0.259130
0.279476
0.288169
0.281978
0.261108
0.227796
0.183591
0.128635
0.063770
-0.007154
-0.077719
-0.142286
-0.199094
-0.249665
-0.294465
-0.328741
-0.342645
-0.326288
-0.276356
-0.199373
-0.108954
-0.019306
0.060037
0.125148
0.175037
0.208171
0.221043
0.210126
0.176018
0.126290
0.073819
0.031165
0.005436
-0.002344
0.006157
0.029864
0.068416
0.120130
0.180718
0.244120
0.304733
0.359482
0.408168
0.451485
0.487912
0.512166
0.517345
0.499712
0.462335
0.414597
0.367714
0.329434
0.301895
0.283687
0.273550
0.272415
0.282633
0.305672
0.340135
0.381155
0.421200
0.451775
0.465405
0.457466
0.427626
0.380241
0.322814
0.262989
0.205964
0.153753
0.106374
0.064175
0.030134
0.010613
0.012835
0.039341
0.083496
0.131022
0.167783
0.187777
0.194445
0.194671
0.191782
0.184315
0.170953
0.155661
0.147182
0.152903
0.172618
0.197555
0.214981
0.214309
0.190925
0.146746
0.088452
0.024946
-0.034394
-0.080294
-0.104011
-0.098650
-0.061557
0.003118
0.083955
0.165659
0.235311
0.287501
0.324348
0.350639
0.368579
0.376415
0.371074
0.351687
0.320791
0.282473
0.239245
0.190448
0.133909
0.069954
0.004657
-0.050720
-0.084425
-0.089607
-0.066180
-0.018393
0.048723
0.130405
0.220477
0.310372
0.391271
0.457401
0.506958
0.539858
0.554661
0.547648
0.514969
0.456578
0.379404
0.296646
0.222192
0.163977
0.121854
0.091441
0.069713
0.056780
0.052823
0.054315
0.053756
0.043523
0.021211
-0.007645
-0.032101
-0.042084
-0.034042
-0.012300
0.014244
0.037402
0.053658
0.064675
0.074100
0.083164
0.088880
0.086412
0.073579
0.053809
0.035275
0.027091
0.035327
0.060906
0.099565
0.143052
0.181457
0.206905
0.217023
0.215344
0.208054
0.200013
0.193343
0.188933
0.188343
0.193554
0.204822
0.219382
0.232782
0.241564
0.244742
0.243047
0.236914
0.224918
0.204043
0.171930
0.129460
0.081189
0.032837
-0.011902
-0.052047
-0.087471
-0.117693
-0.143296
-0.167769
-0.196705
-0.234398
-0.280763
-0.330924
-0.377158
-0.411410
-0.427696
-0.424489
-0.405754
-0.378604
-0.348362
-0.315131
-0.275188
-0.225668
-0.167737
-0.105825
-0.044948
0.010664
0.056830
0.088505
0.100738
0.091584
0.064985
0.030507
-0.001376
-0.025345
-0.043483
-0.061902
-0.085150
-0.112751
-0.139397
-0.157942
-0.163263
-0.154704
-0.135445
-0.109167
-0.077045
-0.038402
0.005554
0.049211
0.084463
0.105495
0.112043
0.108637
0.101155
0.093903
0.089040
0.087475
0.089460
0.094772
0.103339
0.115987
0.133993
0.157567
0.184988
0.212806
0.235959
0.247725
0.241023
0.211548
0.160748
0.096133
0.028525
-0.031835
-0.078182
-0.108369
-0.124620
-0.132207
-0.137024
-0.142847
-0.150247
-0.158445
-0.168441
-0.184205
-0.210536
-0.249158
-0.296395
-0.344600
-0.386175
-0.416877
-0.436078
-0.444383
-0.441400
-0.426001
-0.398904
-0.365602
-0.336843
-0.324423
-0.333551
-0.357514
-0.379835
-0.383326
-0.359944
-0.314508
-0.259981
-0.208861
-0.167404
-0.135157
-0.107818
-0.080737
-0.051946
-0.024383
-0.005814
-0.004951
-0.025631
-0.063799
-0.109979
-0.154966
-0.194026
-0.227257
-0.257394
-0.287259
-0.317994
-0.348600
-0.376866
-0.400859
-0.419721
-0.433329
-0.441863
-0.446365
-0.449492
-0.454992
-0.465913
-0.482786
-0.503161
-0.522483
-0.535205
-0.536062
-0.522034
-0.494132
-0.457049
-0.416173
-0.374180
-0.330181
-0.281920
-0.228893
-0.174103
-0.123825
-0.085922
-0.067093
-0.069642
-0.089468
-0.117107
-0.141796
-0.156116
-0.158250
-0.151398
-0.141793
-0.136343
-0.140297
-0.155463
-0.179440
-0.206172
-0.227619
-0.235975
-0.225859
-0.195678
-0.147712
-0.087186
-0.020609
0.046347
0.110544
0.171558
0.230188
0.286609
0.339713
0.387566
0.427715
0.456791
0.470172
0.462770
0.430892
0.374187
0.296590
0.205652
0.110477
0.019777
-0.058716
-0.117994
-0.151955
-0.156413
-0.130150
-0.075235
0.003505
0.099549
0.205688
0.314585
0.419189
0.513489
0.593521
0.657861
0.706713
0.739808
0.754965
0.748802
0.718911
0.665677
0.593147
0.509207
0.424284
0.347497
0.281842
0.222799
0.162629
0.096965
0.028372
-0.035072
-0.084040
-0.111604
-0.114644
-0.093821
-0.053059
0.001363
0.061829
0.120329
0.169664
0.205109
0.226327
0.238343
0.249625
0.267444
0.293945
0.326247
0.360239
0.394345
0.429763
0.467307
0.504117
0.533309
0.546726
0.538350
0.505479
0.447209
0.362675
0.251311
0.114883
-0.040613
-0.205123
-0.367183
-0.517295
-0.649960
-0.763433
-0.857739
-0.932477
-0.985517
-1.013129
-1.011962
-0.981697
-0.926074
-0.851547
-0.764760
-0.670417
-0.570865
-0.467545
-0.362876
-0.261006
-0.166842
-0.083777
-0.011670
0.053078
0.114986
0.176089
0.233905
0.281992
0.312340
0.317905
0.294531
0.242442
0.167100
0.078613
-0.011064
-0.092365
-0.161160
-0.218529
-0.267881
-0.311932
-0.351534
-0.386416
-0.416303
-0.441233
-0.461044
-0.474533
-0.479035
-0.470778
-0.445655
-0.400557
-0.335328
-0.254130
-0.164970
-0.077607
-0.000635
0.061117
0.107221
0.140113
0.162759
0.176579
0.180498
0.172016
0.149635
0.114792
0.071836
0.026156
-0.017948
-0.058029
-0.093138
-0.123558
-0.150472
-0.174828
-0.195620
-0.208676
-0.207342
-0.185428
-0.140857
-0.077953
-0.007251
0.057434
0.103629
0.123934
0.116763
0.084403
0.030877
-0.038471
-0.116559
-0.195442
-0.268896
-0.334908
-0.395836
-0.456108
-0.519595
-0.588380
-0.662514
-0.739882
-0.815970
-0.883547
-0.932782
-0.952943
-0.935760
-0.878644
-0.785694
-0.665916
-0.529961
-0.387764
-0.248216
-0.120026
-0.012417
0.065556
0.107230
0.110725
0.079995
0.023842
-0.047006
-0.123653
-0.201167
-0.277318
-0.349496
-0.413131
-0.462783
-0.494547
-0.507857
-0.505630
-0.492821
-0.474395
-0.453842
-0.432567
-0.410357
-0.387030
-0.364097
-0.344580
-0.330666
-0.321304
-0.311880
-0.295931
-0.267614
-0.224021
-0.166699
-0.101702
-0.037994
0.015058
0.049949
0.062438
0.052173
0.022648
-0.019715
-0.067171
-0.112053
-0.147600
-0.168607
-0.172192
-0.158584
-0.131505
-0.097544
-0.064195
-0.036907
-0.016525
0.001175
0.023361
0.056841
0.105657
0.170405
0.248658
0.335852
0.426525
0.515441
0.597598
0.667179
0.717200
0.741061
0.734962
0.699297
0.638303
0.558780
0.468554
0.374291
0.279315
0.183427
0.085398
-0.013950
-0.110538
-0.198006
-0.269258
-0.317581
-0.337897
-0.328422
-0.291716
-0.234339
-0.165264
-0.093374
-0.024876
0.037943
0.096139
0.152872
0.212544
0.279543
0.355927
0.439396
0.523253
0.598795
0.658825
0.700265
0.725305
0.741017
0.756688
0.779459
0.810357
0.842974
0.866259
0.870096
0.849933
0.807806
0.749825
0.681950
0.606665
0.522376
0.425555
0.313861
0.188081
0.052184
-0.087738
-0.224504
-0.350037
-0.454932
-0.528800
-0.562283
-0.550153
-0.493703
-0.400915
-0.284290
-0.157192
-0.030113
0.091193
0.204672
0.309171
0.402203
0.479696
0.537538
0.573559
0.588466
0.585316
0.567949
0.539026
0.498720
0.445041
0.375758
0.290545
0.191485
0.081583
-0.036942
-0.162653
-0.293204
-0.423651
-0.546286
-0.652037
-0.732595
-0.782611
-0.801257
-0.792413
-0.763218
-0.721406
-0.672586
-0.618801
-0.558841
-0.489662
-0.407995
-0.311437
-0.198951
-0.071315
0.068158
0.213284
0.356399
0.491344
0.615387
0.727791
0.826236
0.904453
0.953159
0.963324
0.929242
0.849754
0.727699
0.568522
0.378904
0.166097
-0.061426
-0.292584
-0.513318
-0.708428
-0.865189
-0.977020
-1.044839
-1.074912
-1.074482
-1.047968
-0.995842
-0.916349
-0.808524
-0.674631
-0.521083
-0.357840
-0.196386
-0.046882
0.084156
0.194586
0.285523
0.358995
0.415684
0.454204
0.472323
0.469175
0.446882
0.410488
0.366289
0.319805
0.274814
0.233615
0.197598
0.167464
0.143061
0.123098
0.105267
0.086832
0.065003
0.037007
0.000707
-0.044174
-0.095499
-0.149727
-0.203500
-0.253936
-0.297481
-0.329139
-0.343390
-0.336061
-0.305488
-0.252374
-0.178998
-0.088411
0.016247
0.131806
0.254063
0.376526
0.490281
0.585112
0.651042
0.680079
0.668369
0.617925
0.536480
0.435223
0.325550
0.216345
0.112961
0.018115
-0.066342
-0.138297
-0.195751
-0.238103
-0.266839
-0.285059
-0.296481
-0.304427
-0.311104
-0.317360
-0.322874
-0.326675
-0.327527
-0.323613
-0.312012
-0.288878
-0.250508
-0.195002
-0.123834
-0.042266
0.041993
0.121562
0.192081
0.252867
0.305153
0.349488
0.384252
0.406416
0.413839
0.407179
0.389915
0.366307
0.338817
0.307212
0.269850
0.225810
0.176476
0.125517
0.077056
0.033535
-0.004687
-0.037494
-0.062584
-0.075132
-0.070580
-0.048191
-0.012164
0.030508
0.073572
0.113932
0.151557
0.187569
0.222393
0.255097
0.283695
0.305795
0.318980
0.320871
0.309453
0.283862
0.245405
0.198384
0.149713
0.106816
0.074997
0.056497
0.051810
0.061431
0.086180
0.125926
0.177873
0.235752
0.290478
0.332147
0.353021
0.350506
0.327841
0.291119
0.244937
0.190673
0.128844
0.063081
0.001614
-0.045476
-0.071131
-0.074486
-0.059996
-0.033473
0.001604
0.045057
0.098281
0.161278
0.230404
0.298870
0.360238
0.412207
0.457430
0.500411
0.542774
0.580640
0.606044
0.611185
0.592559
0.552278
0.496014
0.429018
0.352975
0.266580
0.169647
0.066764
-0.032779
-0.118613
-0.183708
-0.226566
-0.250313
-0.260021
-0.260353
-0.254785
-0.245918
-0.235817
-0.225587
-0.214538
-0.200287
-0.180234
-0.153052
-0.119099
-0.079817
-0.036642
0.009844
0.059919
0.113910
0.171114
0.229285
0.285247
0.336357
0.381745
0.422076
0.457834
0.487666
0.508278
0.516107
0.509462
0.489341
0.458422
0.419093
0.371951
0.316081
0.251263
0.180403
0.109887
0.047421
-0.000724
-0.031380
-0.044990
-0.045197
-0.037361
-0.026438
-0.015147
-0.003260
0.011653
0.032285
0.059391
0.090649
0.121426
0.146981
0.164726
0.175554
0.183628
0.194207
0.210559
0.232137
0.255219
0.275337
0.289885
0.299281
0.305756
0.310585
0.312120
0.306212
0.288632
0.257809
0.216112
0.168970
0.122306
0.079751
0.041429
0.005121
-0.031214
-0.067857
-0.103987
-0.139609
-0.176422
-0.216142
-0.257222
-0.292844
-0.312371
-0.305684
-0.267649
-0.200144
-0.110807
-0.009280
0.096721
0.202972
0.307292
0.406681
0.495524
0.566324
0.612427
0.630929
0.623671
0.595396
0.550587
0.491306
0.417163
0.327023
0.221049
0.101533
-0.027926
-0.163746
-0.302597
-0.440263
-0.570528
-0.685548
-0.777623
-0.840959
-0.872131
-0.869611
-0.833722
-0.767329
-0.676367
-0.569075
-0.453584
-0.335313
-0.216132
-0.095532
0.027320
0.151882
0.275613
0.394250
0.502501
0.594748
0.665466
0.709505
0.722568
0.701918
0.647212
0.561379
0.450799
0.323882
0.188653
0.050851
-0.086869
-0.224437
-0.362236
-0.498103
-0.625563
-0.734881
-0.816204
-0.862571
-0.871151
-0.842511
-0.779145
-0.684685
-0.563979
-0.423335
-0.270335
-0.113175
0.040466
0.184956
0.317672
0.438460
0.548003
0.645919
0.729559
0.794434
0.836211
0.852840
0.845137
0.815345
0.764882
0.693401
0.600495
0.489095
0.367509
0.247713
0.140755
0.052590
-0.017035
-0.072503
-0.118899
-0.159509
-0.195222
-0.225284
-0.248542
-0.264689
-0.274897
-0.281282
-0.285572
-0.288132
-0.287830
-0.282509
-0.269857
-0.248612
-0.219503
-0.184984
-0.147597
-0.108245
-0.065769
-0.018094
0.036021
0.096188
0.160924
0.228196
0.295363
0.359192
0.416296
0.463360
0.496675
0.511933
0.505570
0.477290
0.431671
0.376875
0.321060
0.269327
0.223005
0.180818
0.140432
0.099228
0.054726
0.005594
-0.047102
-0.099639
-0.146576
-0.181993
-0.200659
-0.199171
-0.176842
-0.135995
-0.081225
-0.017795
0.049663
0.117605
0.183342
0.244497
0.298755
0.343627
0.376029
0.392347
0.389266
0.365300
0.322190
0.264645
0.198304
0.127517
0.054719
-0.018439
-0.090094
-0.158405
-0.222248
-0.281548
-0.336712
-0.387310
-0.431201
-0.464945
-0.484899
-0.488230
-0.473802
-0.442661
-0.397479
-0.341052
-0.275050
-0.200426
-0.119371
-0.036841
0.039984
0.103936
0.149928
0.175481
0.180229
0.165766
0.136229
0.098789
0.062648
0.036213
0.024134
0.026209
0.038568
0.055777
0.072242
0.082828
0.083551
0.072359
0.049472
0.016956
-0.022431
-0.066543
-0.114381
-0.165665
-0.220016
-0.276296
-0.332637
-0.387258
-0.439145
-0.487829
-0.532708
-0.572795
-0.607055
-0.634975
-0.656766
-0.672819
-0.682788
-0.685082
-0.677077
-0.656034
-0.620412
-0.570684
-0.508897
-0.437125
-0.355854
-0.263789
-0.159536
-0.043831
0.079503
0.204548
0.325397
0.437769
0.539037
0.626960
0.698443
0.749488
0.776457
0.777372
0.751995
0.700969
0.625080
0.525230
0.403181
0.262563
0.109235
-0.049342
-0.205115
-0.350317
-0.478224
-0.583874
-0.664596
-0.720260
-0.752995
-0.765908
-0.761125
-0.738817
-0.698139
-0.639161
-0.564137
-0.477113
-0.382348
-0.283001
-0.181127
-0.078877
0.019991
0.109628
0.183655
0.237987
0.272684
0.291228
0.297582
0.293227
0.276222
0.242748
0.190117
0.119224
0.034768
-0.056438
-0.147696
-0.234104
-0.313332
-0.385502
-0.452374
-0.516049
-0.577554
-0.635895
-0.688141
-0.730451
-0.759533
-0.773754
-0.773244
-0.758889
-0.731122
-0.689924
-0.635977
-0.571560
-0.500516
-0.427327
-0.355527
-0.286372
-0.218671
-0.149949
-0.078434
-0.004637
0.068601
0.137476
