EVENT_NAME: CENTRAL_ITALY
EVENT_ID: EMSC-20161026_0000077
EVENT_DATE_YYYYMMDD: 20161026
EVENT_TIME_HHMMSS: 171036
EVENT_LATITUDE_DEGREE: 42.8802
EVENT_LONGITUDE_DEGREE: 13.1275
EVENT_DEPTH_KM: 8.7
HYPOCENTER_REFERENCE: INGV-CNT_Seismic_Bulletin
MAGNITUDE_W: 5.4
MAGNITUDE_W_REFERENCE: INGV-webservice
MAGNITUDE_L: 5.4
MAGNITUDE_L_REFERENCE: INGV-CNT_Seismic_Bulletin
FOCAL_MECHANISM: NF
NETWORK: IT
STATION_CODE: NRC
STATION_NAME: NORCIA
STATION_LATITUDE_DEGREE: 42.792543
STATION_LONGITUDE_DEGREE: 13.096475
STATION_ELEVATION_M: 616
LOCATION: 
SENSOR_DEPTH_M: 0.0
VS30_M/S: 687
SITE_CLASSIFICATION_EC8: B
MORPHOLOGIC_CLASSIFICATION: SL
EPICENTRAL_DISTANCE_KM: 10.1
EARTHQUAKE_BACKAZIMUTH_DEGREE: 14.6
DATE_TIME_FIRST_SAMPLE_YYYYMMDD_HHMMSS: 20161026_171032.909
DATE_TIME_FIRST_SAMPLE_PRECISION: milliseconds
SAMPLING_INTERVAL_S: 0.005000
NDATA: 10588
DURATION_S: 52.940
STREAM: HGZ
UNITS: cm/s
INSTRUMENT: sensor = Unknown [Unknown] | digitizer = Unknown [Unknown]
INSTRUMENT_ANALOG/DIGITAL: D
INSTRUMENTAL_FREQUENCY_HZ: 
INSTRUMENTAL_DAMPING: 
FULL_SCALE_G: 
N_BIT_DIGITAL_CONVERTER: 
PGV_CM/S: -7.094444
TIME_PGV_S: 9.075000
BASELINE_CORRECTION: BASELINE REMOVED
FILTER_TYPE: BUTTERWORTH
FILTER_ORDER: 2
LOW_CUT_FREQUENCY_HZ: 0.070
HIGH_CUT_FREQUENCY_HZ: 30.000
LATE/NORMAL_TRIGGERED: NT
DATABASE_VERSION: DYNA 1.0
HEADER_FORMAT: DYNA 1.2
DATA_TYPE: VELOCITY
PROCESSING: manual (Paolucci et al., 2011)
DATA_TIMESTAMP_YYYYMMDD_HHMMSS: 20161027_111110.997
DATA_LICENSE: CC-BY3_0-IT (http://creativecommons.org/licenses/by/3.0/deed.en)
DATA_CITATION: ESM working group (2015), European Strong-Motion database, version 0.1, Network Activity 3: Networking acceleration networks and SM data users. Project NERA (www.nera-eu.org)
DATA_CREATOR: ESM working group
ORIGINAL_DATA_MEDIATOR_CITATION: Ufficio Rischio Sismico e Vulcanico del Dipartimento della Protezione Civile (http://www.protezionecivile.gov.it/)
ORIGINAL_DATA_MEDIATOR: Rete Accelerometrica Nazionale - RAN Download (http://www.mot1.it/randownload/)
ORIGINAL_DATA_CREATOR_CITATION: Italian Strong Motion Network, Italian Civil Protection Department http://www.protezionecivile.gov.it
ORIGINAL_DATA_CREATOR: network: IT (Italian Strong Motion Network); owner: Dipartimento Della Protezione Civile
USER1: /home/dyna/processing-itaca/processing.py /var/www/processing//tmp/felicetta//IT.NRC..HGE.D.20161026.171036.X.ACC.ASC /var/www/processing//tmp/felicetta//IT.NRC..HGN.D.20161026.171036.X.ACC.ASC /var/www/processing//tmp/felicetta//IT.NRC..HGZ.D.20161026.171036.X.ACC.ASC --tmp /var/www/processing//tmp/felicetta/ --le 0.07 --he 30.000 --ln 0.07 --hn 30.000 --lz 0.07 --hz 30.000 --fo 2 --ca 0 --cz 70 --ta 5 --tz 5 --mf 1 --rf 0 --tr NT
USER2: 
USER3: 
USER4: 
USER5: 
[...]
-0.007859
-0.007872
-0.007900
-0.007944
-0.007997
-0.008048
-0.008083
-0.008094
-0.008079
-0.008042
-0.008001
-0.007975
-0.007978
-0.008014
-0.008075
-0.008146
-0.008211
-0.008256
-0.008274
-0.008268
-0.008252
-0.008239
-0.008232
-0.008231
-0.008236
-0.008253
-0.008290
-0.008345
-0.008401
-0.008431
-0.008427
-0.008402
-0.008376
-0.008353
-0.008335
-0.008326
-0.008338
-0.008377
-0.008435
-0.008492
-0.008536
-0.008558
-0.008561
-0.008551
-0.008538
-0.008530
-0.008533
-0.008555
-0.008592
-0.008634
-0.008674
-0.008707
-0.008726
-0.008733
-0.008737
-0.008743
-0.008744
-0.008733
-0.008718
-0.008714
-0.008732
-0.008767
-0.008809
-0.008852
-0.008891
-0.008916
-0.008918
-0.008901
-0.008880
-0.008869
-0.008880
-0.008919
-0.008979
-0.009036
-0.009060
-0.009045
-0.009008
-0.008967
-0.008939
-0.008934
-0.008954
-0.008996
-0.009052
-0.009114
-0.009178
-0.009236
-0.009273
-0.009280
-0.009263
-0.009238
-0.009222
-0.009225
-0.009239
-0.009252
-0.009252
-0.009249
-0.009262
-0.009305
-0.009370
-0.009427
-0.009457
-0.009458
-0.009444
-0.009425
-0.009410
-0.009409
-0.009426
-0.009457
-0.009493
-0.009531
-0.009567
-0.009590
-0.009597
-0.009596
-0.009595
-0.009592
-0.009580
-0.009568
-0.009574
-0.009605
-0.009657
-0.009714
-0.009754
-0.009762
-0.009741
-0.009714
-0.009698
-0.009696
-0.009704
-0.009716
-0.009735
-0.009760
-0.009783
-0.009799
-0.009803
-0.009798
-0.009795
-0.009811
-0.009848
-0.009896
-0.009940
-0.009978
-0.010007
-0.010023
-0.010026
-0.010016
-0.009999
-0.009984
-0.009986
-0.010006
-0.010036
-0.010060
-0.010074
-0.010085
-0.010105
-0.010133
-0.010164
-0.010190
-0.010210
-0.010225
-0.010229
-0.010222
-0.010211
-0.010216
-0.010247
-0.010293
-0.010329
-0.010342
-0.010336
-0.010327
-0.010332
-0.010353
-0.010377
-0.010390
-0.010397
-0.010411
-0.010437
-0.010462
-0.010473
-0.010467
-0.010457
-0.010456
-0.010468
-0.010487
-0.010511
-0.010540
-0.010575
-0.010613
-0.010650
-0.010678
-0.010686
-0.010671
-0.010643
-0.010619
-0.010610
-0.010620
-0.010649
-0.010695
-0.010748
-0.010794
-0.010821
-0.010816
-0.010782
-0.010742
-0.010725
-0.010743
-0.010784
-0.010829
-0.010868
-0.010905
-0.010945
-0.010983
-0.011001
-0.010989
-0.010960
-0.010940
-0.010943
-0.010964
-0.010993
-0.011027
-0.011065
-0.011100
-0.011120
-0.011116
-0.011091
-0.011068
-0.011066
-0.011085
-0.011109
-0.011124
-0.011135
-0.011159
-0.011205
-0.011261
-0.011305
-0.011323
-0.011312
-0.011290
-0.011276
-0.011279
-0.011290
-0.011295
-0.011293
-0.011296
-0.011312
-0.011339
-0.011370
-0.011399
-0.011426
-0.011456
-0.011484
-0.011496
-0.011480
-0.011444
-0.011406
-0.011388
-0.011397
-0.011422
-0.011444
-0.011457
-0.011471
-0.011500
-0.011536
-0.011568
-0.011585
-0.011588
-0.011581
-0.011575
-0.011574
-0.011574
-0.011577
-0.011596
-0.011641
-0.011705
-0.011761
-0.011787
-0.011785
-0.011775
-0.011780
-0.011806
-0.011846
-0.011886
-0.011911
-0.011911
-0.011892
-0.011867
-0.011850
-0.011850
-0.011868
-0.011897
-0.011930
-0.011960
-0.011988
-0.012017
-0.012046
-0.012063
-0.012056
-0.012026
-0.011992
-0.011978
-0.011996
-0.012039
-0.012092
-0.012139
-0.012167
-0.012172
-0.012162
-0.012149
-0.012144
-0.012154
-0.012181
-0.012223
-0.012268
-0.012297
-0.012299
-0.012285
-0.012269
-0.012261
-0.012262
-0.012275
-0.012304
-0.012347
-0.012396
-0.012441
-0.012481
-0.012516
-0.012543
-0.012549
-0.012529
-0.012490
-0.012451
-0.012422
-0.012411
-0.012425
-0.012469
-0.012539
-0.012617
-0.012681
-0.012714
-0.012717
-0.012700
-0.012674
-0.012645
-0.012620
-0.012610
-0.012629
-0.012675
-0.012732
-0.012772
-0.012777
-0.012756
-0.012737
-0.012745
-0.012778
-0.012814
-0.012838
-0.012853
-0.012869
-0.012887
-0.012899
-0.012897
-0.012879
-0.012856
-0.012841
-0.012844
-0.012866
-0.012904
-0.012947
-0.012982
-0.013002
-0.013017
-0.013035
-0.013057
-0.013070
-0.013072
-0.013068
-0.013066
-0.013066
-0.013066
-0.013068
-0.013067
-0.013059
-0.013050
-0.013056
-0.013081
-0.013117
-0.013155
-0.013194
-0.013236
-0.013266
-0.013264
-0.013230
-0.013188
-0.013165
-0.013166
-0.013184
-0.013215
-0.013259
-0.013310
-0.013353
-0.013375
-0.013382
-0.013383
-0.013379
-0.013359
-0.013328
-0.013297
-0.013275
-0.013263
-0.013263
-0.013281
-0.013320
-0.013373
-0.013426
-0.013470
-0.013504
-0.013521
-0.013517
-0.013499
-0.013476
-0.013455
-0.013435
-0.013416
-0.013407
-0.013421
-0.013454
-0.013490
-0.013518
-0.013540
-0.013563
-0.013586
-0.013598
-0.013583
-0.013550
-0.013524
-0.013522
-0.013537
-0.013552
-0.013557
-0.013552
-0.013539
-0.013523
-0.013514
-0.013524
-0.013558
-0.013606
-0.013659
-0.013716
-0.013766
-0.013789
-0.013771
-0.013728
-0.013685
-0.013657
-0.013647
-0.013645
-0.013646
-0.013649
-0.013665
-0.013703
-0.013760
-0.013822
-0.013869
-0.013890
-0.013890
-0.013881
-0.013870
-0.013852
-0.013829
-0.013811
-0.013810
-0.013825
-0.013853
-0.013889
-0.013919
-0.013923
-0.013890
-0.013832
-0.013781
-0.013761
-0.013774
-0.013814
-0.013877
-0.013958
-0.014040
-0.014096
-0.014112
-0.014089
-0.014036
-0.013959
-0.013869
-0.013798
-0.013781
-0.013822
-0.013889
-0.013951
-0.013997
-0.014036
-0.014076
-0.014119
-0.014154
-0.014168
-0.014156
-0.014124
-0.014080
-0.014027
-0.013969
-0.013915
-0.013880
-0.013871
-0.013889
-0.013939
-0.014022
-0.014127
-0.014235
-0.014331
-0.014407
-0.014454
-0.014451
-0.014367
-0.014192
-0.013966
-0.013771
-0.013696
-0.013791
-0.014033
-0.014337
-0.014604
-0.014747
-0.014712
-0.014499
-0.014176
-0.013846
-0.013598
-0.013483
-0.013534
-0.013775
-0.014171
-0.014597
-0.014892
-0.014970
-0.014862
-0.014658
-0.014415
-0.014157
-0.013924
-0.013782
-0.013767
-0.013857
-0.013999
-0.014144
-0.014269
-0.014364
-0.014426
-0.014451
-0.014442
-0.014398
-0.014319
-0.014219
-0.014134
-0.014096
-0.014117
-0.014178
-0.014252
-0.014313
-0.014345
-0.014345
-0.014323
-0.014296
-0.014281
-0.014277
-0.014273
-0.014263
-0.014255
-0.014268
-0.014315
-0.014391
-0.014469
-0.014518
-0.014525
-0.014491
-0.014430
-0.014359
-0.014296
-0.014258
-0.014247
-0.014250
-0.014247
-0.014233
-0.014221
-0.014233
-0.014278
-0.014341
-0.014406
-0.014471
-0.014548
-0.014628
-0.014671
-0.014631
-0.014494
-0.014301
-0.014126
-0.014047
-0.014107
-0.014297
-0.014563
-0.014811
-0.014938
-0.014864
-0.014591
-0.014219
-0.013897
-0.013738
-0.013770
-0.013967
-0.014292
-0.014682
-0.015020
-0.015180
-0.015108
-0.014850
-0.014506
-0.014170
-0.013926
-0.013835
-0.013910
-0.014097
-0.014307
-0.014469
-0.014557
-0.014581
-0.014559
-0.014506
-0.014441
-0.014387
-0.014358
-0.014347
-0.014335
-0.014314
-0.014283
-0.014247
-0.014207
-0.014167
-0.014141
-0.014142
-0.014178
-0.014242
-0.014317
-0.014379
-0.014412
-0.014411
-0.014380
-0.014331
-0.014277
-0.014232
-0.014204
-0.014195
-0.014202
-0.014220
-0.014240
-0.014251
-0.014252
-0.014244
-0.014237
-0.014237
-0.014243
-0.014243
-0.014226
-0.014190
-0.014149
-0.014123
-0.014126
-0.014155
-0.014193
-0.014222
-0.014231
-0.014219
-0.014188
-0.014143
-0.014093
-0.014053
-0.014027
-0.014011
-0.013999
-0.013996
-0.014010
-0.014039
-0.014067
-0.014082
-0.014082
-0.014065
-0.014026
-0.013964
-0.013878
-0.013765
-0.013599
-0.013293
-0.012650
-0.011345
-0.009004
-0.005363
-0.000457
0.005328
0.011370
0.017049
0.021944
0.025869
0.028662
0.029861
0.028601
0.023989
0.015738
0.004567
-0.007929
-0.019849
-0.029657
-0.036655
-0.040988
-0.043193
-0.043620
-0.042207
-0.038785
-0.033603
-0.027596
-0.022143
-0.018505
-0.017331
-0.018503
-0.021325
-0.024866
-0.028245
-0.030745
-0.031794
-0.030941
-0.027957
-0.023038
-0.016937
-0.010750
-0.005458
-0.001595
0.000724
0.001588
0.001145
-0.000340
-0.002265
-0.003491
-0.002467
0.002273
0.011581
0.025500
0.043377
0.064095
0.086368
0.108993
0.130833
0.150578
0.166636
0.177315
0.181255
0.178021
0.168637
0.155574
0.141897
0.129940
0.120330
0.111874
0.102192
0.088744
0.069960
0.046062
0.019110
-0.007945
-0.032718
-0.054473
-0.074250
-0.094026
-0.115293
-0.137709
-0.158620
-0.173887
-0.179738
-0.174675
-0.160221
-0.139959
-0.117475
-0.094596
-0.071002
-0.045213
-0.016155
0.015522
0.046922
0.073570
0.091295
0.098461
0.097021
0.091575
0.087310
0.088327
0.096954
0.113773
0.138187
0.169544
0.208312
0.256525
0.317061
0.391951
0.480357
0.577387
0.674789
0.763316
0.835342
0.886660
0.917532
0.933023
0.941961
0.954329
0.978264
1.018211
1.074835
1.146385
1.230636
1.326011
1.430726
1.540143
1.644092
1.726466
1.768750
1.757244
1.690656
1.582569
1.455838
1.332182
1.224044
1.133707
1.058991
1.000800
0.967102
0.969358
1.011588
1.079201
1.138134
1.148109
1.081489
0.934150
0.722795
0.474582
0.217677
-0.023187
-0.226334
-0.371185
-0.440158
-0.426645
-0.342851
-0.217907
-0.085040
0.032549
0.126844
0.199351
0.249889
0.267521
0.230762
0.119311
-0.069178
-0.309087
-0.552021
-0.745910
-0.857290
-0.883753
-0.850740
-0.796687
-0.755303
-0.743258
-0.758152
-0.785903
-0.811036
-0.822842
-0.815507
-0.785272
-0.728387
-0.641260
-0.522123
-0.373509
-0.204985
-0.033800
0.118918
0.234740
0.302621
0.319572
0.289209
0.219985
0.123457
0.014194
-0.088131
-0.160072
-0.184306
-0.161493
-0.111438
-0.061419
-0.031832
-0.029017
-0.048021
-0.082521
-0.133697
-0.208350
-0.306764
-0.413512
-0.501733
-0.546456
-0.535731
-0.474621
-0.382659
-0.285294
-0.202813
-0.144190
-0.108676
-0.090527
-0.083151
-0.082421
-0.086912
-0.093359
-0.093536
-0.079586
-0.053111
-0.027144
-0.019412
-0.044092
-0.106028
-0.196490
-0.292542
-0.364414
-0.389051
-0.360990
-0.293980
-0.214516
-0.151835
-0.128200
-0.153877
-0.229355
-0.350781
-0.512132
-0.703007
-0.905274
-1.091483
-1.227219
-1.279232
-1.228183
-1.079068
-0.861478
-0.619538
-0.398459
-0.233661
-0.144311
-0.131159
-0.179026
-0.264075
-0.363052
-0.459038
-0.540447
-0.595992
-0.612023
-0.575231
-0.477475
-0.319012
-0.110222
0.127607
0.364202
0.566386
0.706215
0.766914
0.744706
0.648278
0.498526
0.327960
0.175067
0.072097
0.034485
0.061724
0.146956
0.282829
0.458614
0.655319
0.845393
0.997468
1.084303
1.090873
1.018010
0.879871
0.698893
0.503402
0.328270
0.212269
0.187120
0.263584
0.424820
0.630726
0.831103
0.984992
1.078627
1.127293
1.154779
1.166906
1.144443
1.060092
0.900512
0.677019
0.424128
0.188265
0.007926
-0.104342
-0.163337
-0.195516
-0.221461
-0.249026
-0.276079
-0.295433
-0.299514
-0.286669
-0.266498
-0.257053
-0.272482
-0.310175
-0.349381
-0.363686
-0.336597
-0.268028
-0.170224
-0.060313
0.044736
0.130882
0.189766
0.220283
0.225666
0.207658
0.164984
0.098859
0.018764
-0.058886
-0.118366
-0.152130
-0.163388
-0.163382
-0.165460
-0.179015
-0.206187
-0.242857
-0.284067
-0.331476
-0.396810
-0.495873
-0.635467
-0.802953
-0.967098
-1.090705
-1.148116
-1.137589
-1.080120
-1.005382
-0.935975
-0.879773
-0.830484
-0.773146
-0.693390
-0.587133
-0.463312
-0.336207
-0.214224
-0.095567
0.026803
0.157115
0.291751
0.418918
0.522114
0.585469
0.599801
0.568583
0.509113
0.443713
0.386409
0.338139
0.294883
0.258998
0.242009
0.257320
0.310072
0.390334
0.472027
0.520037
0.505714
0.422138
0.286877
0.130284
-0.020538
-0.151752
-0.263244
-0.360993
-0.446553
-0.510984
-0.537585
-0.511259
-0.428771
-0.304407
-0.166468
-0.044793
0.042224
0.092051
0.113912
0.121605
0.125928
0.127872
0.116432
0.074603
-0.009373
-0.134267
-0.287173
-0.449273
-0.598286
-0.708735
-0.756828
-0.729851
-0.631710
-0.478692
-0.289532
-0.078984
0.141857
0.362279
0.569159
0.746804
0.880963
0.963459
0.991841
0.965873
0.887546
0.766264
0.624682
0.498347
0.424119
0.421631
0.481980
0.573797
0.661988
0.726050
0.768204
0.808351
0.869667
0.965108
1.093712
1.245278
1.406611
1.568106
1.731524
1.911540
2.123888
2.369010
2.627051
2.865461
3.049012
3.148349
3.149287
3.059727
2.906969
2.723896
2.533126
2.341588
2.148062
1.955167
1.776872
1.637530
1.563075
1.569109
1.651763
1.785460
1.929583
2.042215
2.093899
2.073436
1.983659
1.832963
1.630379
1.386848
1.120664
0.862848
0.654915
0.534310
0.516090
0.586325
0.711273
0.853113
0.983953
1.096039
1.204754
1.339406
1.525029
1.767007
2.047357
2.332758
2.588707
2.790459
2.923731
2.979873
2.956126
2.861229
2.716605
2.549198
2.382714
2.233824
2.111163
2.013095
1.927033
1.834224
1.716808
1.561498
1.358969
1.101738
0.782677
0.393949
-0.073359
-0.625906
-1.259676
-1.951238
-2.656217
-3.318454
-3.886405
-4.328978
-4.643873
-4.856009
-5.007818
-5.145973
-5.309657
-5.521927
-5.783733
-6.074698
-6.364392
-6.626623
-6.844371
-7.004296
-7.091753
-7.094444
-7.010205
-6.849452
-6.631766
-6.383668
-6.139912
-5.942518
-5.831126
-5.825594
-5.910898
-6.036020
-6.129016
-6.119003
-5.954673
-5.616077
-5.120538
-4.521042
-3.892512
-3.306214
-2.803922
-2.388258
-2.034644
-1.713916
-1.410181
-1.127038
-0.883958
-0.706951
-0.616364
-0.613727
-0.671564
-0.732851
-0.724924
-0.584679
-0.282727
0.166463
0.710534
1.274605
1.781856
2.177394
2.446320
2.612713
2.717652
2.792482
2.845031
2.860079
2.806881
2.652078
2.376947
1.991319
1.536031
1.073015
0.667443
0.367926
0.192519
0.127037
0.136254
0.182799
0.244236
0.318933
0.419168
0.557801
0.735988
0.937273
1.130590
1.280750
1.360897
1.360258
1.283860
1.146223
0.964176
0.753014
0.526611
0.298568
0.080615
-0.122128
-0.314248
-0.507329
-0.713782
-0.942602
-1.199017
-1.485871
-1.803424
-2.147143
-2.506421
-2.865466
-3.203795
-3.495443
-3.710857
-3.824960
-3.828685
-3.736764
-3.586028
-3.424836
-3.299160
-3.240785
-3.260404
-3.346197
-3.467657
-3.584501
-3.659393
-3.669495
-3.610642
-3.493229
-3.333274
-3.142025
-2.918329
-2.648970
-2.317800
-1.917454
-1.456111
-0.956872
-0.451438
0.029312
0.463881
0.843353
1.168636
1.445858
1.684231
1.897000
2.102153
2.318952
2.560430
2.826480
3.102497
3.364932
3.590719
3.766037
3.890949
3.977673
4.042223
4.093826
4.129275
4.136053
4.101568
4.022166
3.906627
3.773080
3.642350
3.531451
3.449497
3.397287
3.370108
3.361058
3.363433
3.372857
3.388433
3.410486
3.435554
3.453624
3.451243
3.417549
3.347311
3.239678
3.096576
2.923277
2.728638
2.522732
2.314544
2.112840
1.928026
1.770098
1.642030
1.534656
1.429793
1.311173
1.175521
1.036021
0.916065
0.837061
0.807130
0.816469
0.840622
0.849410
0.818304
0.737809
0.616103
0.473845
0.334878
0.217535
0.128714
0.061581
-0.001076
-0.077489
-0.176419
-0.292513
-0.409487
-0.506989
-0.566841
-0.578371
-0.543766
-0.480738
-0.418441
-0.387246
-0.407982
-0.486980
-0.619269
-0.795564
-1.006771
-1.244830
-1.502201
-1.770770
-2.039868
-2.293954
-2.511542
-2.668152
-2.744462
-2.734915
-2.649667
-2.507860
-2.327270
-2.118057
-1.884409
-1.630700
-1.366045
-1.104400
-0.861755
-0.653005
-0.488788
-0.370920
-0.288137
-0.218406
-0.141074
-0.050694
0.040764
0.114774
0.157973
0.165760
0.140584
0.089941
0.023772
-0.050063
-0.130433
-0.224861
-0.347112
-0.511067
-0.723835
-0.981190
-1.266964
-1.556948
-1.826234
-2.056244
-2.237874
-2.370747
-2.460381
-2.514513
-2.539817
-2.540636
-2.520551
-2.484619
-2.438519
-2.385300
-2.325071
-2.260173
-2.200746
-2.162997
-2.159678
-2.190836
-2.241787
-2.287076
-2.296640
-2.244395
-2.119146
-1.931360
-1.708387
-1.480174
-1.266145
-1.071007
-0.888442
-0.708250
-0.524180
-0.339672
-0.167699
-0.024217
0.080336
0.145599
0.179329
0.191226
0.186880
0.165079
0.119884
0.045987
-0.056503
-0.180931
-0.316755
-0.453681
-0.584890
-0.708697
-0.828416
-0.949470
-1.074169
-1.197791
-1.309404
-1.396410
-1.449623
-1.467103
-1.455560
-1.427939
-1.397593
-1.372566
-1.354098
-1.339597
-1.326780
-1.316438
-1.313332
-1.324964
-1.358417
-1.416878
-1.497952
-1.594117
-1.693965
-1.783849
-1.850515
-1.883678
-1.876658
-1.825586
-1.729556
-1.592218
-1.423107
-1.237397
-1.053317
-0.887132
-0.747748
-0.634000
-0.535771
-0.438575
-0.330141
-0.205502
-0.066800
0.081833
0.239205
0.407389
0.588794
0.784204
0.992052
1.206700
1.417180
1.609353
1.769973
1.889001
1.959939
1.980855
1.957382
1.905700
1.851587
1.823533
1.842431
1.913318
2.023546
2.148169
2.259513
2.336125
2.368214
2.359320
2.324272
2.283475
2.255467
2.252081
2.279677
2.344598
2.456927
2.628524
2.866487
3.166660
3.511450
3.872652
4.217059
4.513452
4.741098
4.896761
4.993647
5.050677
5.080469
5.086341
5.069532
5.038250
5.009952
5.005890
5.042999
5.127577
5.251999
5.395671
5.531824
5.637590
5.701052
5.721541
5.704595
5.655650
5.576237
5.464186
5.316500
5.132318
4.914484
4.669483
4.405998
4.132249
3.852459
3.564181
3.259065
2.927632
2.564843
2.172190
1.755521
1.321833
0.877843
0.429577
-0.018427
-0.463109
-0.900755
-1.324610
-1.725016
-2.092280
-2.420262
-2.708135
-2.959139
-3.177944
-3.369422
-3.539213
-3.693788
-3.838864
-3.977900
-4.112150
-4.240709
-4.359190
-4.459614
-4.534311
-4.581213
-4.605357
-4.615561
-4.619742
-4.621823
-4.620918
-4.612586
-4.591283
-4.552471
-4.493679
-4.414654
-4.316323
-4.199131
-4.062271
-3.904016
-3.722201
-3.515296
-3.284537
-3.035208
-2.775076
-2.511031
-2.246986
-1.984652
-1.725590
-1.471786
-1.224428
-0.983023
-0.746186
-0.513202
-0.284626
-0.061157
0.157488
0.371742
0.580641
0.782075
0.974369
1.156434
1.325995
1.478757
1.610806
1.722162
1.817261
1.901342
1.975726
2.035469
2.070692
2.070250
2.025439
1.932546
1.794194
1.619218
1.420686
1.212320
1.004665
0.802827
0.606924
0.414677
0.224196
0.035403
-0.150292
-0.331776
-0.510471
-0.691067
-0.879528
-1.079592
-1.290461
-1.506910
-1.721000
-1.923917
-2.107223
-2.263984
-2.390056
-2.484595
-2.549146
-2.586114
-2.597836
-2.586539
-2.554430
-2.502978
-2.431847
-2.339166
-2.223798
-2.087697
-1.935481
-1.771152
-1.595592
-1.407442
-1.205391
-0.988732
-0.756874
-0.510403
-0.252948
0.009304
0.270370
0.526026
0.773025
1.008639
1.232344
1.447537
1.660669
1.878315
2.104414
2.338646
2.576149
2.808694
3.026226
3.217296
3.369295
3.470805
3.515876
3.507086
3.455089
3.375475
3.284750
3.195921
3.114281
3.035944
2.950943
2.848906
