EVENT_NAME: CENTRAL_ITALY
EVENT_ID: EMSC-20161026_0000095
EVENT_DATE_YYYYMMDD: 20161026
EVENT_TIME_HHMMSS: 191806
EVENT_LATITUDE_DEGREE: 42.9087
EVENT_LONGITUDE_DEGREE: 13.1288
EVENT_DEPTH_KM: 7.5
HYPOCENTER_REFERENCE: INGV-CNT_Seismic_Bulletin
MAGNITUDE_W: 5.9
MAGNITUDE_W_REFERENCE: INGV-webservice
MAGNITUDE_L: 5.9
MAGNITUDE_L_REFERENCE: INGV-CNT_Seismic_Bulletin
FOCAL_MECHANISM: NF
NETWORK: IT
STATION_CODE: NRC
STATION_NAME: NORCIA
STATION_LATITUDE_DEGREE: 42.792543
STATION_LONGITUDE_DEGREE: 13.096475
STATION_ELEVATION_M: 616
LOCATION: 
SENSOR_DEPTH_M: 0.0
VS30_M/S: 687
SITE_CLASSIFICATION_EC8: B
MORPHOLOGIC_CLASSIFICATION: SL
EPICENTRAL_DISTANCE_KM: 13.2
EARTHQUAKE_BACKAZIMUTH_DEGREE: 11.6
DATE_TIME_FIRST_SAMPLE_YYYYMMDD_HHMMSS: 20161026_191803.139
DATE_TIME_FIRST_SAMPLE_PRECISION: milliseconds
SAMPLING_INTERVAL_S: 0.005000
NDATA: 11542
DURATION_S: 57.710
STREAM: HGN
UNITS: cm
INSTRUMENT: sensor = Unknown [Unknown] | digitizer = Unknown [Unknown]
INSTRUMENT_ANALOG/DIGITAL: D
INSTRUMENTAL_FREQUENCY_HZ: 
INSTRUMENTAL_DAMPING: 
FULL_SCALE_G: 
N_BIT_DIGITAL_CONVERTER: 
PGD_CM: -2.137198
TIME_PGD_S: 12.380000
BASELINE_CORRECTION: BASELINE REMOVED
FILTER_TYPE: BUTTERWORTH
FILTER_ORDER: 2
LOW_CUT_FREQUENCY_HZ: 0.040
HIGH_CUT_FREQUENCY_HZ: 30.000
LATE/NORMAL_TRIGGERED: NT
DATABASE_VERSION: DYNA 1.0
HEADER_FORMAT: DYNA 1.2
DATA_TYPE: DISPLACEMENT
PROCESSING: manual (Paolucci et al., 2011)
DATA_TIMESTAMP_YYYYMMDD_HHMMSS: 20161027_011428.535
DATA_LICENSE: CC-BY3_0-IT (http://creativecommons.org/licenses/by/3.0/deed.en)
DATA_CITATION: ESM working group (2015), European Strong-Motion database, version 0.1, Network Activity 3: Networking acceleration networks and SM data users. Project NERA (www.nera-eu.org)
DATA_CREATOR: ESM working group
ORIGINAL_DATA_MEDIATOR_CITATION: Ufficio Rischio Sismico e Vulcanico del Dipartimento della Protezione Civile (http://www.protezionecivile.gov.it/)
ORIGINAL_DATA_MEDIATOR: Rete Accelerometrica Nazionale - RAN Download (http://www.mot1.it/randownload/)
ORIGINAL_DATA_CREATOR_CITATION: Italian Strong Motion Network, Italian Civil Protection Department http://www.protezionecivile.gov.it
ORIGINAL_DATA_CREATOR: network: IT (Italian Strong Motion Network); owner: Dipartimento Della Protezione Civile
USER1: /home/dyna/processing-itaca/processing.py /var/www/processing//tmp/Lucia//IT.NRC..HGE.D.20161026.191806.X.ACC.ASC /var/www/processing//tmp/Lucia//IT.NRC..HGN.D.20161026.191806.X.ACC.ASC /var/www/processing//tmp/Lucia//IT.NRC..HGZ.D.20161026.191806.X.ACC.ASC --tmp /var/www/processing//tmp/Lucia/ --le 0.040 --he 30.000 --ln 0.040 --hn 30.000 --lz 0.040 --hz 30.000 --fo 2 --ca 0 --cz 100 --ta 5 --tz 5 --mf 1 --rf 0 --tr NT
USER2: 
USER3: 
USER4: 
USER5: 
[...]
2.025606e-01
2.008425e-01
1.990531e-01
1.971825e-01
1.952270e-01
1.931954e-01
1.911106e-01
1.890045e-01
1.869102e-01
1.848541e-01
1.828522e-01
1.809068e-01
1.790054e-01
1.771235e-01
1.752324e-01
1.733057e-01
1.713229e-01
1.692670e-01
1.671205e-01
1.648632e-01
1.624762e-01
1.599473e-01
1.572775e-01
1.544816e-01
1.515847e-01
1.486154e-01
1.456024e-01
1.425701e-01
1.395357e-01
1.365061e-01
1.334821e-01
1.304646e-01
1.274584e-01
1.244721e-01
1.215158e-01
1.185974e-01
1.157199e-01
1.128798e-01
1.100702e-01
1.072831e-01
1.045089e-01
1.017343e-01
9.894402e-02
9.612501e-02
9.326941e-02
9.037497e-02
8.744510e-02
8.448747e-02
8.150852e-02
7.850676e-02
7.547069e-02
7.238423e-02
6.923640e-02
6.603125e-02
6.279484e-02
5.957367e-02
5.642164e-02
5.338168e-02
5.047386e-02
4.769586e-02
4.503127e-02
4.245825e-02
3.995573e-02
3.750701e-02
3.509924e-02
3.271839e-02
3.034331e-02
2.794326e-02
2.548017e-02
2.291203e-02
2.019467e-02
1.728475e-02
1.414460e-02
1.074576e-02
7.070550e-03
3.116646e-03
-1.095596e-03
-5.521221e-03
-1.009983e-02
-1.477155e-02
-1.949157e-02
-2.423748e-02
-2.900634e-02
-3.380188e-02
-3.861937e-02
-4.343826e-02
-4.822608e-02
-5.294720e-02
-5.756955e-02
-6.206768e-02
-6.642226e-02
-7.061569e-02
-7.462738e-02
-7.843437e-02
-8.201970e-02
-8.538444e-02
-8.855519e-02
-9.157982e-02
-9.451129e-02
-9.738927e-02
-1.002323e-01
-1.030443e-01
-1.058271e-01
-1.085903e-01
-1.113531e-01
-1.141395e-01
-1.169678e-01
-1.198406e-01
-1.227445e-01
-1.256634e-01
-1.285932e-01
-1.315470e-01
-1.345497e-01
-1.376315e-01
-1.408231e-01
-1.441517e-01
-1.476394e-01
-1.513003e-01
-1.551355e-01
-1.591227e-01
-1.632070e-01
-1.673001e-01
-1.712942e-01
-1.750889e-01
-1.786170e-01
-1.818576e-01
-1.848334e-01
-1.875940e-01
-1.901926e-01
-1.926648e-01
-1.950205e-01
-1.972491e-01
-1.993329e-01
-2.012636e-01
-2.030577e-01
-2.047605e-01
-2.064286e-01
-2.081040e-01
-2.098009e-01
-2.115129e-01
-2.132276e-01
-2.149383e-01
-2.166548e-01
-2.184138e-01
-2.202777e-01
-2.223183e-01
-2.246013e-01
-2.271806e-01
-2.300953e-01
-2.333647e-01
-2.369854e-01
-2.409371e-01
-2.451848e-01
-2.496751e-01
-2.543344e-01
-2.590760e-01
-2.638086e-01
-2.684449e-01
-2.729108e-01
-2.771480e-01
-2.811114e-01
-2.847677e-01
-2.880982e-01
-2.911042e-01
-2.938087e-01
-2.962548e-01
-2.984997e-01
-3.006007e-01
-3.025986e-01
-3.045070e-01
-3.063174e-01
-3.080129e-01
-3.095824e-01
-3.110317e-01
-3.123920e-01
-3.137118e-01
-3.150372e-01
-3.163952e-01
-3.177925e-01
-3.192237e-01
-3.206811e-01
-3.221635e-01
-3.236812e-01
-3.252565e-01
-3.269159e-01
-3.286787e-01
-3.305482e-01
-3.325109e-01
-3.345411e-01
-3.366097e-01
-3.386941e-01
-3.407824e-01
-3.428677e-01
-3.449426e-01
-3.470004e-01
-3.490451e-01
-3.510972e-01
-3.531835e-01
-3.553130e-01
-3.574605e-01
-3.595742e-01
-3.615987e-01
-3.634952e-01
-3.652529e-01
-3.668891e-01
-3.684437e-01
-3.699687e-01
-3.715204e-01
-3.731533e-01
-3.749163e-01
-3.768466e-01
-3.789623e-01
-3.812608e-01
-3.837183e-01
-3.862834e-01
-3.888743e-01
-3.913911e-01
-3.937431e-01
-3.958704e-01
-3.977523e-01
-3.994043e-01
-4.008705e-01
-4.022049e-01
-4.034471e-01
-4.046063e-01
-4.056665e-01
-4.066069e-01
-4.074250e-01
-4.081490e-01
-4.088371e-01
-4.095621e-01
-4.103863e-01
-4.113364e-01
-4.123980e-01
-4.135412e-01
-4.147633e-01
-4.161146e-01
-4.176884e-01
-4.195864e-01
-4.218838e-01
-4.246010e-01
-4.276920e-01
-4.310538e-01
-4.345555e-01
-4.380734e-01
-4.415170e-01
-4.448411e-01
-4.480486e-01
-4.511813e-01
-4.542974e-01
-4.574454e-01
-4.606498e-01
-4.639094e-01
-4.672077e-01
-4.705289e-01
-4.738706e-01
-4.772414e-01
-4.806474e-01
-4.840811e-01
-4.875273e-01
-4.909750e-01
-4.944243e-01
-4.978837e-01
-5.013650e-01
-5.048783e-01
-5.084324e-01
-5.120368e-01
-5.156975e-01
-5.194075e-01
-5.231445e-01
-5.268843e-01
-5.306234e-01
-5.343898e-01
-5.382368e-01
-5.422285e-01
-5.464208e-01
-5.508440e-01
-5.554989e-01
-5.603699e-01
-5.654365e-01
-5.706632e-01
-5.759828e-01
-5.812986e-01
-5.865116e-01
-5.915416e-01
-5.963253e-01
-6.008013e-01
-6.049090e-01
-6.086111e-01
-6.119238e-01
-6.149325e-01
-6.177767e-01
-6.206132e-01
-6.235733e-01
-6.267311e-01
-6.300936e-01
-6.336103e-01
-6.371942e-01
-6.407430e-01
-6.441565e-01
-6.473518e-01
-6.502799e-01
-6.529371e-01
-6.553636e-01
-6.576286e-01
-6.598089e-01
-6.619678e-01
-6.641353e-01
-6.662942e-01
-6.683789e-01
-6.702994e-01
-6.719843e-01
-6.734193e-01
-6.746501e-01
-6.757465e-01
-6.767526e-01
-6.776591e-01
-6.784105e-01
-6.789392e-01
-6.792090e-01
-6.792456e-01
-6.791390e-01
-6.790230e-01
-6.790517e-01
-6.793835e-01
-6.801681e-01
-6.815282e-01
-6.835395e-01
-6.862276e-01
-6.895822e-01
-6.935692e-01
-6.981296e-01
-7.031800e-01
-7.086223e-01
-7.143616e-01
-7.203217e-01
-7.264498e-01
-7.327108e-01
-7.390772e-01
-7.455205e-01
-7.520058e-01
-7.584950e-01
-7.649574e-01
-7.713822e-01
-7.777910e-01
-7.842420e-01
-7.908177e-01
-7.976075e-01
-8.047008e-01
-8.121940e-01
-8.202043e-01
-8.288813e-01
-8.383987e-01
-8.489212e-01
-8.605658e-01
-8.733823e-01
-8.873595e-01
-9.024606e-01
-9.186728e-01
-9.360437e-01
-9.546872e-01
-9.747575e-01
-9.963941e-01
-1.019657e+00
-1.044480e+00
-1.070659e+00
-1.097869e+00
-1.125718e+00
-1.153809e+00
-1.181790e+00
-1.209375e+00
-1.236324e+00
-1.262406e+00
-1.287370e+00
-1.310925e+00
-1.332746e+00
-1.352475e+00
-1.369724e+00
-1.384070e+00
-1.395054e+00
-1.402210e+00
-1.405101e+00
-1.403357e+00
-1.396696e+00
-1.384921e+00
-1.367923e+00
-1.345692e+00
-1.318341e+00
-1.286111e+00
-1.249337e+00
-1.208391e+00
-1.163621e+00
-1.115324e+00
-1.063747e+00
-1.009116e+00
-9.516660e-01
-8.916736e-01
-8.294655e-01
-7.654144e-01
-6.999386e-01
-6.335063e-01
-5.666374e-01
-4.999017e-01
-4.339208e-01
-3.693731e-01
-3.069719e-01
-2.473865e-01
-1.911195e-01
-1.383995e-01
-8.915151e-02
-4.306218e-02
3.029243e-04
4.140024e-02
8.066724e-02
1.185225e-01
1.553723e-01
1.916094e-01
2.276078e-01
2.637204e-01
3.002851e-01
3.376415e-01
3.761485e-01
4.161881e-01
4.581599e-01
5.024783e-01
5.495671e-01
5.998241e-01
6.535506e-01
7.108668e-01
7.716495e-01
8.355157e-01
9.018359e-01
9.697492e-01
1.038172e+00
1.105825e+00
1.171306e+00
1.233201e+00
1.290193e+00
1.341142e+00
1.385129e+00
1.421452e+00
1.449588e+00
1.469141e+00
1.479809e+00
1.481382e+00
1.473796e+00
1.457180e+00
1.431873e+00
1.398386e+00
1.357331e+00
1.309339e+00
1.255031e+00
1.195050e+00
1.130154e+00
1.061319e+00
9.897828e-01
9.169980e-01
8.445238e-01
7.739251e-01
7.067076e-01
6.442501e-01
5.877220e-01
5.380066e-01
4.956068e-01
4.605313e-01
4.322208e-01
4.095835e-01
3.911339e-01
3.751810e-01
3.600148e-01
3.440613e-01
3.259803e-01
3.046931e-01
2.793625e-01
2.493688e-01
2.143143e-01
1.740565e-01
1.287399e-01
7.879498e-02
2.489974e-02
-3.206992e-02
-9.107817e-02
-1.509623e-01
-2.104780e-01
-2.683622e-01
-3.234009e-01
-3.744792e-01
-4.206083e-01
-4.609399e-01
-4.947752e-01
-5.215620e-01
-5.408869e-01
-5.524834e-01
-5.562645e-01
-5.523640e-01
-5.411561e-01
-5.232360e-01
-4.993688e-01
-4.704406e-01
-4.374276e-01
-4.013735e-01
-3.633505e-01
-3.244025e-01
-2.854899e-01
-2.474533e-01
-2.110087e-01
-1.767589e-01
-1.451989e-01
-1.167039e-01
-9.152143e-02
-6.978376e-02
-5.152505e-02
-3.667798e-02
-2.505507e-02
-1.634458e-02
-1.013969e-02
-5.989437e-03
-3.448966e-03
-2.115527e-03
-1.649148e-03
-1.783072e-03
-2.325130e-03
-3.150461e-03
-4.195625e-03
-5.463060e-03
-7.026826e-03
-9.023135e-03
-1.162134e-02
-1.498419e-02
-1.923168e-02
-2.442097e-02
-3.054500e-02
-3.754340e-02
-4.532011e-02
-5.376029e-02
-6.273089e-02
-7.205947e-02
-8.151079e-02
-9.078781e-02
-9.956233e-02
-1.075185e-01
-1.143893e-01
-1.199768e-01
-1.241550e-01
-1.268606e-01
-1.280739e-01
-1.277939e-01
-1.260138e-01
-1.227032e-01
-1.177949e-01
-1.111773e-01
-1.027011e-01
-9.221071e-02
-7.959053e-02
-6.480079e-02
-4.788729e-02
-2.896809e-02
-8.210592e-03
1.418709e-02
3.800461e-02
6.300144e-02
8.891710e-02
1.154688e-01
1.423478e-01
1.692206e-01
1.957428e-01
2.215786e-01
2.464169e-01
2.699737e-01
2.919841e-01
3.121966e-01
3.303685e-01
3.462671e-01
3.596835e-01
3.704674e-01
3.785744e-01
3.841049e-01
3.873152e-01
3.885933e-01
3.884117e-01
3.872874e-01
3.857558e-01
3.843510e-01
3.835819e-01
3.839054e-01
3.857031e-01
3.892622e-01
3.947608e-01
4.022548e-01
4.116720e-01
4.228242e-01
4.354408e-01
4.492128e-01
4.638281e-01
4.789874e-01
4.944050e-01
5.098013e-01
5.248965e-01
5.394070e-01
5.530470e-01
5.655365e-01
5.766150e-01
5.860621e-01
5.937186e-01
5.995049e-01
6.034344e-01
6.056192e-01
6.062557e-01
6.055915e-01
6.038893e-01
6.014025e-01
5.983582e-01
5.949409e-01
5.912796e-01
5.874413e-01
5.834376e-01
5.792441e-01
5.748288e-01
5.701775e-01
5.653166e-01
5.603262e-01
5.553322e-01
5.504803e-01
5.459058e-01
5.417133e-01
5.379629e-01
5.346597e-01
5.317482e-01
5.291181e-01
5.266249e-01
5.241111e-01
5.214141e-01
5.183624e-01
5.147769e-01
5.104820e-01
5.053233e-01
4.991887e-01
4.920386e-01
4.839374e-01
4.750709e-01
4.657365e-01
4.563100e-01
4.472088e-01
4.388618e-01
4.316844e-01
4.260468e-01
4.222432e-01
4.204719e-01
4.208354e-01
4.233532e-01
4.279745e-01
4.345875e-01
4.430326e-01
4.531281e-01
4.647025e-01
4.776137e-01
4.917395e-01
5.069479e-01
5.230702e-01
5.398981e-01
5.572047e-01
5.747716e-01
5.924017e-01
6.099141e-01
6.271388e-01
6.439289e-01
6.601863e-01
6.758760e-01
6.910143e-01
7.056365e-01
7.197631e-01
7.333828e-01
7.464568e-01
7.589327e-01
7.707566e-01
7.818804e-01
7.922670e-01
8.018985e-01
8.107807e-01
8.189414e-01
8.264188e-01
8.332449e-01
8.394288e-01
8.449458e-01
8.497331e-01
8.536955e-01
8.567143e-01
8.586541e-01
8.593687e-01
8.587094e-01
8.565353e-01
8.527230e-01
8.471758e-01
8.398289e-01
8.306497e-01
8.196315e-01
8.067859e-01
7.921361e-01
7.757116e-01
7.575394e-01
7.376399e-01
7.160353e-01
6.927676e-01
6.679107e-01
6.415711e-01
6.138764e-01
5.849667e-01
5.549973e-01
5.241449e-01
4.926003e-01
4.605484e-01
4.281543e-01
3.955687e-01
3.629477e-01
3.304645e-01
2.982988e-01
2.666108e-01
2.355213e-01
2.051130e-01
1.754468e-01
1.465755e-01
1.185479e-01
9.140428e-02
6.517702e-02
3.990071e-02
1.562233e-02
-7.601281e-03
-2.972130e-02
-5.071733e-02
-7.060503e-02
-8.943042e-02
-1.072642e-01
-1.242007e-01
-1.403521e-01
-1.558371e-01
-1.707777e-01
-1.853129e-01
-1.996225e-01
-2.139426e-01
-2.285571e-01
-2.437689e-01
-2.598668e-01
-2.771019e-01
-2.956763e-01
-3.157412e-01
-3.373936e-01
-3.606642e-01
-3.854975e-01
-4.117408e-01
-4.391558e-01
-4.674463e-01
-4.962897e-01
-5.253661e-01
-5.543828e-01
-5.830888e-01
-6.112789e-01
-6.387842e-01
-6.654578e-01
-6.911662e-01
-7.157894e-01
-7.392299e-01
-7.614267e-01
-7.823709e-01
-8.021133e-01
-8.207546e-01
-8.384217e-01
-8.552389e-01
-8.713090e-01
-8.867107e-01
-9.015123e-01
-9.157958e-01
-9.296744e-01
-9.432903e-01
-9.567928e-01
-9.703094e-01
-9.839241e-01
-9.976727e-01
-1.011552e+00
-1.025535e+00
-1.039581e+00
-1.053644e+00
-1.067680e+00
-1.081659e+00
-1.095568e+00
-1.109420e+00
-1.123255e+00
-1.137131e+00
-1.151102e+00
-1.165198e+00
-1.179418e+00
-1.193727e+00
-1.208059e+00
-1.222322e+00
-1.236395e+00
-1.250149e+00
-1.263458e+00
-1.276204e+00
-1.288261e+00
-1.299484e+00
-1.309698e+00
-1.318710e+00
-1.326331e+00
-1.332405e+00
-1.336816e+00
-1.339500e+00
-1.340441e+00
-1.339671e+00
-1.337266e+00
-1.333354e+00
-1.328116e+00
-1.321782e+00
-1.314623e+00
-1.306937e+00
-1.299043e+00
-1.291259e+00
-1.283885e+00
-1.277193e+00
-1.271413e+00
-1.266752e+00
-1.263393e+00
-1.261506e+00
-1.261238e+00
-1.262683e+00
-1.265869e+00
-1.270745e+00
-1.277187e+00
-1.285008e+00
-1.293961e+00
-1.303746e+00
-1.314023e+00
-1.324440e+00
-1.334673e+00
-1.344459e+00
-1.353618e+00
-1.362058e+00
-1.369767e+00
-1.376814e+00
-1.383347e+00
-1.389594e+00
-1.395841e+00
-1.402405e+00
-1.409610e+00
-1.417767e+00
-1.427169e+00
-1.438077e+00
-1.450718e+00
-1.465264e+00
-1.481817e+00
-1.500393e+00
-1.520919e+00
-1.543230e+00
-1.567094e+00
-1.592226e+00
-1.618311e+00
-1.645026e+00
-1.672052e+00
-1.699096e+00
-1.725892e+00
-1.752200e+00
-1.777801e+00
-1.802492e+00
-1.826094e+00
-1.848459e+00
-1.869492e+00
-1.889169e+00
-1.907546e+00
-1.924752e+00
-1.940963e+00
-1.956364e+00
-1.971130e+00
-1.985416e+00
-1.999354e+00
-2.013052e+00
-2.026582e+00
-2.039972e+00
-2.053196e+00
-2.066170e+00
-2.078748e+00
-2.090733e+00
-2.101880e+00
-2.111917e+00
-2.120572e+00
-2.127605e+00
-2.132818e+00
-2.136056e+00
-2.137198e+00
-2.136146e+00
-2.132838e+00
-2.127253e+00
-2.119433e+00
-2.109488e+00
-2.097584e+00
-2.083932e+00
-2.068771e+00
-2.052352e+00
-2.034941e+00
-2.016815e+00
-1.998256e+00
-1.979544e+00
-1.960944e+00
-1.942698e+00
-1.925021e+00
-1.908095e+00
-1.892045e+00
-1.876925e+00
-1.862695e+00
-1.849222e+00
-1.836297e+00
-1.823657e+00
-1.811014e+00
-1.798078e+00
-1.784575e+00
-1.770267e+00
-1.754957e+00
-1.738494e+00
-1.720772e+00
-1.701721e+00
-1.681314e+00
-1.659563e+00
-1.636514e+00
-1.612253e+00
-1.586903e+00
-1.560631e+00
-1.533656e+00
-1.506242e+00
-1.478697e+00
-1.451354e+00
-1.424553e+00
-1.398617e+00
-1.373829e+00
-1.350426e+00
-1.328592e+00
-1.308464e+00
-1.290137e+00
-1.273661e+00
-1.259042e+00
-1.246237e+00
-1.235158e+00
-1.225668e+00
-1.217598e+00
-1.210750e+00
-1.204902e+00
-1.199810e+00
-1.195204e+00
-1.190800e+00
-1.186314e+00
-1.181469e+00
-1.176010e+00
-1.169717e+00
-1.162424e+00
-1.154029e+00
-1.144498e+00
-1.133863e+00
-1.122213e+00
-1.109693e+00
-1.096483e+00
-1.082777e+00
-1.068762e+00
-1.054596e+00
-1.040407e+00
-1.026290e+00
-1.012298e+00
-9.984448e-01
-9.847079e-01
-9.710457e-01
-9.574194e-01
-9.438114e-01
-9.302342e-01
-9.167244e-01
-9.033262e-01
-8.900749e-01
-8.769838e-01
-8.640385e-01
-8.512061e-01
-8.384565e-01
-8.257864e-01
-8.132298e-01
-8.008529e-01
-7.887378e-01
-7.769676e-01
-7.656191e-01
-7.547620e-01
-7.444600e-01
-7.347697e-01
-7.257406e-01
-7.174138e-01
-7.098233e-01
-7.030016e-01
-6.969877e-01
-6.918288e-01
-6.875762e-01
-6.842807e-01
-6.819862e-01
-6.807161e-01
-6.804540e-01
-6.811274e-01
-6.826058e-01
-6.847153e-01
-6.872610e-01
-6.900439e-01
-6.928713e-01
-6.955587e-01
-6.979315e-01
-6.998320e-01
-7.011259e-01
-7.017034e-01
-7.014789e-01
-7.003978e-01
-6.984521e-01
-6.956949e-01
-6.922421e-01
-6.882552e-01
-6.839140e-01
-6.793916e-01
-6.748360e-01
-6.703570e-01
-6.660185e-01
-6.618368e-01
-6.577824e-01
-6.537865e-01
-6.497526e-01
-6.455709e-01
-6.411274e-01
-6.363079e-01
-6.309930e-01
-6.250524e-01
-6.183406e-01
-6.107003e-01
-6.019704e-01
-5.919976e-01
-5.806463e-01
-5.678052e-01
-5.533891e-01
-5.373429e-01
-5.196476e-01
-5.003256e-01
-4.794421e-01
-4.570985e-01
-4.334219e-01
-4.085505e-01
-3.826216e-01
-3.557628e-01
-3.280874e-01
-2.996909e-01
-2.706489e-01
-2.410173e-01
-2.108410e-01
-1.801738e-01
-1.491046e-01
-1.177781e-01
-8.639835e-02
-5.521431e-02
-2.449475e-02
5.498989e-03
3.453412e-02
6.241669e-02
8.899367e-02
1.141533e-01
1.378289e-01
1.600064e-01
1.807265e-01
2.000751e-01
2.181639e-01
2.351090e-01
2.510162e-01
2.659766e-01
2.800685e-01
2.933628e-01
3.059321e-01
3.178595e-01
3.292450e-01
3.402053e-01
3.508616e-01
3.613247e-01
3.716820e-01
3.819960e-01
3.923084e-01
4.026426e-01
4.129985e-01
4.233447e-01
4.336183e-01
4.437306e-01
4.535759e-01
4.630376e-01
4.719941e-01
4.803229e-01
4.879004e-01
4.945977e-01
5.002796e-01
5.048148e-01
5.080953e-01
5.100564e-01
5.106869e-01
5.100305e-01
5.081851e-01
5.053026e-01
5.015856e-01
4.972773e-01
4.926496e-01
4.879981e-01
4.836389e-01
4.798979e-01
4.770895e-01
4.754918e-01
4.753261e-01
4.767426e-01
4.798150e-01
4.845419e-01
4.908571e-01
4.986486e-01
5.077838e-01
5.181323e-01
5.295802e-01
5.420314e-01
5.554027e-01
5.696234e-01
5.846405e-01
6.004297e-01
6.170021e-01
6.344030e-01
6.527025e-01
6.719837e-01
6.923311e-01
7.138228e-01
7.365263e-01
7.604916e-01
7.857425e-01
8.122667e-01
8.400144e-01
8.689048e-01
8.988373e-01
9.296983e-01
9.613614e-01
9.936857e-01
1.026518e+00
1.059702e+00
1.093082e+00
1.126509e+00
1.159837e+00
1.192936e+00
1.225690e+00
1.258011e+00
1.289826e+00
1.321079e+00
1.351720e+00
1.381716e+00
1.411051e+00
1.439722e+00
1.467731e+00
1.495073e+00
1.521731e+00
1.547669e+00
1.572834e+00
1.597147e+00
1.620500e+00
1.642752e+00
1.663739e+00
1.683282e+00
1.701204e+00
1.717332e+00
1.731505e+00
1.743566e+00
1.753377e+00
1.760818e+00
1.765800e+00
1.768277e+00
1.768243e+00
1.765730e+00
1.760796e+00
1.753528e+00
1.744050e+00
1.732517e+00
1.719109e+00
1.704021e+00
1.687467e+00
1.669675e+00
1.650886e+00
1.631342e+00
1.611287e+00
1.590961e+00
1.570601e+00
1.550428e+00
1.530633e+00
1.511372e+00
1.492756e+00
1.474853e+00
1.457682e+00
1.441226e+00
1.425436e+00
1.410245e+00
1.395571e+00
1.381325e+00
1.367400e+00
1.353678e+00
1.340017e+00
1.326264e+00
1.312257e+00
1.297844e+00
1.282890e+00
1.267278e+00
1.250920e+00
1.233769e+00
1.215835e+00
1.197185e+00
1.177943e+00
1.158278e+00
1.138391e+00
1.118508e+00
1.098876e+00
1.079752e+00
1.061385e+00
1.044005e+00
1.027805e+00
1.012932e+00
9.994747e-01
9.874413e-01
9.767545e-01
9.672523e-01
9.587072e-01
9.508492e-01
9.433854e-01
9.360177e-01
9.284582e-01
9.204430e-01
9.117358e-01
9.021281e-01
8.914421e-01
8.795420e-01
8.663506e-01
8.518636e-01
8.361549e-01
8.193692e-01
8.017032e-01
7.833839e-01
7.646487e-01
7.457307e-01
7.268449e-01
7.081758e-01
6.898698e-01
6.720381e-01
6.547694e-01
6.381375e-01
6.221975e-01
6.069731e-01
5.924485e-01
5.785722e-01
5.652703e-01
5.524590e-01
5.400508e-01
5.279565e-01
5.160859e-01
5.043533e-01
4.926863e-01
4.810410e-01
4.694158e-01
4.578521e-01
4.464212e-01
4.352056e-01
4.242844e-01
4.137262e-01
4.035848e-01
3.938946e-01
3.846661e-01
3.758872e-01
3.675277e-01
3.595476e-01
3.519040e-01
3.445582e-01
3.374832e-01
3.306699e-01
3.241280e-01
