EVENT_NAME: CENTRAL_ITALY
EVENT_ID: EMSC-20160824_0000013
EVENT_DATE_YYYYMMDD: 20160824
EVENT_TIME_HHMMSS: 023329
EVENT_LATITUDE_DEGREE: 42.7935
EVENT_LONGITUDE_DEGREE: 13.1537
EVENT_DEPTH_KM: 8.7
HYPOCENTER_REFERENCE: INGV-webservice
MAGNITUDE_W: 5.3
MAGNITUDE_W_REFERENCE: INGV-webservice
MAGNITUDE_L: 5.4
MAGNITUDE_L_REFERENCE: INGV-webservice
FOCAL_MECHANISM: NF
NETWORK: IT
STATION_CODE: NRC
STATION_NAME: NORCIA
STATION_LATITUDE_DEGREE: 42.792543
STATION_LONGITUDE_DEGREE: 13.096475
STATION_ELEVATION_M: 616
LOCATION: 
SENSOR_DEPTH_M: 0.0
VS30_M/S: 687
SITE_CLASSIFICATION_EC8: B
MORPHOLOGIC_CLASSIFICATION: SL
EPICENTRAL_DISTANCE_KM: 4.7
EARTHQUAKE_BACKAZIMUTH_DEGREE: 88.7
DATE_TIME_FIRST_SAMPLE_YYYYMMDD_HHMMSS: 20160824_023324.704
DATE_TIME_FIRST_SAMPLE_PRECISION: milliseconds
SAMPLING_INTERVAL_S: 0.005000
NDATA: 9429
DURATION_S: 47.145
STREAM: HGE
UNITS: cm/s^2
INSTRUMENT: sensor = Unknown [Unknown] | digitizer = Unknown [Unknown]
INSTRUMENT_ANALOG/DIGITAL: D
INSTRUMENTAL_FREQUENCY_HZ: 
INSTRUMENTAL_DAMPING: 
FULL_SCALE_G: 
N_BIT_DIGITAL_CONVERTER: 
PGA_CM/S^2: -167.009257
TIME_PGA_S: 9.505000
BASELINE_CORRECTION: BASELINE REMOVED
FILTER_TYPE: BUTTERWORTH
FILTER_ORDER: 2
LOW_CUT_FREQUENCY_HZ: 0.070
HIGH_CUT_FREQUENCY_HZ: 30.000
LATE/NORMAL_TRIGGERED: NT
DATABASE_VERSION: DYNA 1.0
HEADER_FORMAT: DYNA 1.2
DATA_TYPE: ACCELERATION
PROCESSING: manual (Paolucci et al., 2011)
DATA_TIMESTAMP_YYYYMMDD_HHMMSS: 20160825_170450.371
DATA_LICENSE: CC-BY3_0-IT (http://creativecommons.org/licenses/by/3.0/deed.en)
DATA_CITATION: ESM working group (2015), European Strong-Motion database, version 0.1, Network Activity 3: Networking acceleration networks and SM data users. Project NERA (www.nera-eu.org)
DATA_CREATOR: ESM working group
ORIGINAL_DATA_MEDIATOR_CITATION: Ufficio Rischio Sismico e Vulcanico del Dipartimento della Protezione Civile (http://www.protezionecivile.gov.it/)
ORIGINAL_DATA_MEDIATOR: Rete Accelerometrica Nazionale - RAN Download (http://www.mot1.it/randownload/)
ORIGINAL_DATA_CREATOR_CITATION: Italian Strong Motion Network, Italian Civil Protection Department http://www.protezionecivile.gov.it
ORIGINAL_DATA_CREATOR: network: IT (Italian Strong Motion Network); owner: Dipartimento Della Protezione Civile
USER1: /home/dyna/processing-itaca/processing.py /var/www/processing//tmp/Maria//IT.NRC..HGE.D.20160824.023329.X.ACC.ASC /var/www/processing//tmp/Maria//IT.NRC..HGN.D.20160824.023329.X.ACC.ASC /var/www/processing//tmp/Maria//IT.NRC..HGZ.D.20160824.023329.X.ACC.ASC --tmp /var/www/processing//tmp/Maria/ --le 0.070 --he 30.000 --ln 0.070 --hn 30.000 --lz 0.070 --hz 30.000 --fo 2 --ca 0 --cz 60 --ta 5 --tz 5 --mf 1 --rf 0 --tr NT
USER2: 
USER3: 
USER4: 
USER5: 
[...]
0.035935
-0.007804
-0.035129
-0.042074
-0.035132
-0.022623
-0.009116
0.004595
0.019770
0.037935
0.058347
0.075996
0.082296
0.069364
0.036418
-0.007416
-0.048016
-0.074551
-0.083803
-0.078793
-0.065387
-0.049890
-0.037074
-0.027965
-0.019323
-0.007118
0.009148
0.026948
0.043336
0.055038
0.058878
0.052809
0.035881
0.010174
-0.017271
-0.038848
-0.052796
-0.061406
-0.064900
-0.061749
-0.051992
-0.036879
-0.017851
0.002481
0.019575
0.029574
0.032401
0.029182
0.019757
0.007169
-0.001171
-0.000772
0.007467
0.021560
0.038661
0.053172
0.059015
0.053891
0.040583
0.022426
-0.001296
-0.032119
-0.066995
-0.099827
-0.125418
-0.139138
-0.136758
-0.117875
-0.087268
-0.051604
-0.015735
0.018321
0.050029
0.078101
0.099192
0.109226
0.106185
0.091789
0.071294
0.050139
0.029095
0.005084
-0.022256
-0.048628
-0.069810
-0.083156
-0.084852
-0.072116
-0.048568
-0.022640
-0.000935
0.013326
0.017862
0.013034
0.003353
-0.007670
-0.020967
-0.037982
-0.055736
-0.066023
-0.060076
-0.035896
-0.001751
0.028543
0.045558
0.049272
0.045089
0.037615
0.028122
0.016658
0.005628
-0.000157
0.003178
0.015820
0.032984
0.045263
0.043553
0.025471
-0.003828
-0.034722
-0.055863
-0.058216
-0.041817
-0.018935
-0.005082
-0.006147
-0.018558
-0.036966
-0.054515
-0.061089
-0.048733
-0.018278
0.021428
0.059188
0.083957
0.086131
0.063919
0.027433
-0.008911
-0.036777
-0.053666
-0.057356
-0.046972
-0.027409
-0.008069
0.002318
-0.001331
-0.019353
-0.046374
-0.071733
-0.083640
-0.077262
-0.058049
-0.034231
-0.010448
0.009624
0.021638
0.023392
0.015995
0.003087
-0.010049
-0.017525
-0.014533
-0.000746
0.017230
0.029977
0.033674
0.031668
0.027262
0.019200
0.006150
-0.007979
-0.017305
-0.020333
-0.019855
-0.019068
-0.020434
-0.027437
-0.043350
-0.065556
-0.084170
-0.088586
-0.074682
-0.046367
-0.011663
0.022331
0.051665
0.074464
0.089008
0.093589
0.087597
0.071497
0.046773
0.017544
-0.009872
-0.030634
-0.043757
-0.051066
-0.053339
-0.048094
-0.033575
-0.013694
0.004279
0.016162
0.021577
0.019678
0.009374
-0.006461
-0.020881
-0.026821
-0.020747
-0.005111
0.012670
0.026055
0.033955
0.038284
0.039125
0.035114
0.027175
0.018602
0.011434
0.004984
-0.002344
-0.011687
-0.023269
-0.035447
-0.045602
-0.053132
-0.058688
-0.060283
-0.054327
-0.040599
-0.023311
-0.007609
0.003576
0.010395
0.014952
0.018290
0.018580
0.013611
0.004354
-0.005379
-0.012270
-0.014719
-0.012454
-0.008106
-0.005963
-0.006872
-0.009068
-0.012571
-0.017855
-0.023590
-0.028085
-0.030577
-0.030876
-0.028090
-0.020169
-0.005797
0.013743
0.035579
0.057196
0.075886
0.087711
0.088938
0.077369
0.052344
0.016345
-0.023639
-0.059662
-0.087302
-0.105398
-0.114064
-0.114198
-0.106926
-0.092161
-0.069101
-0.039781
-0.010435
0.012431
0.026676
0.035445
0.043325
0.051117
0.055617
0.053551
0.043168
0.025333
0.007216
-0.000124
0.007692
0.024214
0.039497
0.047222
0.045467
0.035714
0.022376
0.010955
0.005681
0.008001
0.015582
0.023541
0.027572
0.025337
0.016551
0.002393
-0.016829
-0.040951
-0.065541
-0.082319
-0.085068
-0.074066
-0.055125
-0.034489
-0.015716
-0.001110
0.007225
0.008965
0.006640
0.004544
0.006241
0.012057
0.019308
0.025070
0.027897
0.027134
0.021502
0.010247
-0.004253
-0.017750
-0.027527
-0.033257
-0.036571
-0.039357
-0.040388
-0.036071
-0.025979
-0.014574
-0.007389
-0.008162
-0.018283
-0.035538
-0.053298
-0.065005
-0.070608
-0.074217
-0.076206
-0.073075
-0.063465
-0.049142
-0.030552
-0.005734
0.024667
0.054891
0.079782
0.099953
0.117490
0.129591
0.130945
0.120370
0.101400
0.078340
0.054541
0.032156
0.011784
-0.005980
-0.020403
-0.033653
-0.048931
-0.064984
-0.077750
-0.085691
-0.090569
-0.095218
-0.100987
-0.105876
-0.104914
-0.093406
-0.070701
-0.041359
-0.013001
0.009169
0.025907
0.040456
0.053588
0.062719
0.064496
0.058112
0.045808
0.031120
0.017037
0.004929
-0.004435
-0.010333
-0.013474
-0.014923
-0.013458
-0.007233
0.001608
0.006271
0.000755
-0.014432
-0.032170
-0.043568
-0.044019
-0.035118
-0.019952
-0.000934
0.015990
0.023044
0.018331
0.006277
-0.007498
-0.018516
-0.023378
-0.019702
-0.006530
0.014880
0.040393
0.063803
0.078814
0.080909
0.069414
0.048629
0.025735
0.006124
-0.009333
-0.021906
-0.031427
-0.036049
-0.034104
-0.025959
-0.015272
-0.007409
-0.005329
-0.008202
-0.013418
-0.017673
-0.017994
-0.014871
-0.013001
-0.016699
-0.025239
-0.033319
-0.035950
-0.032592
-0.025514
-0.015793
-0.004348
0.005226
0.008906
0.006388
0.001444
-0.001262
0.000970
0.008415
0.019376
0.030688
0.039022
0.042282
0.040560
0.036076
0.030893
0.024900
0.017156
0.007654
-0.003814
-0.018250
-0.034372
-0.047114
-0.051742
-0.047577
-0.036941
-0.023433
-0.010931
-0.001152
0.007105
0.015344
0.023925
0.032014
0.036736
0.034235
0.022703
0.003602
-0.019469
-0.042946
-0.064143
-0.080054
-0.087636
-0.085705
-0.075569
-0.059561
-0.038382
-0.011565
0.018585
0.046384
0.066594
0.077078
0.078525
0.073417
0.065214
0.056714
0.047614
0.035377
0.019957
0.004364
-0.009498
-0.021172
-0.029057
-0.030490
-0.023539
-0.009475
0.005719
0.015267
0.016893
0.012282
0.004854
-0.000744
-0.000875
0.004441
0.011552
0.015779
0.014941
0.010630
0.005707
0.001249
-0.002966
-0.006223
-0.007737
-0.008881
-0.011993
-0.017574
-0.023638
-0.027271
-0.027249
-0.025808
-0.027113
-0.033058
-0.040806
-0.044697
-0.040084
-0.026890
-0.011171
-0.000993
0.000635
-0.003401
-0.008651
-0.010946
-0.007463
0.000478
0.008545
0.014217
0.017056
0.016556
0.014551
0.015692
0.021966
0.030951
0.039422
0.044542
0.043099
0.033064
0.015646
-0.004932
-0.023762
-0.037721
-0.044849
-0.042613
-0.030123
-0.010980
0.008610
0.023815
0.032228
0.032661
0.025121
0.011782
-0.001885
-0.008115
-0.001992
0.014985
0.036350
0.053872
0.061670
0.059566
0.051578
0.039901
0.022420
-0.001323
-0.025252
-0.041004
-0.045125
-0.041096
-0.035102
-0.031104
-0.029373
-0.027553
-0.023994
-0.020197
-0.017664
-0.014201
-0.006829
0.003611
0.013440
0.019282
0.019330
0.015078
0.011691
0.013353
0.019385
0.026632
0.033547
0.040589
0.047225
0.049895
0.044428
0.029907
0.009160
-0.013406
-0.032292
-0.041588
-0.040091
-0.033548
-0.028080
-0.024460
-0.020319
-0.014327
-0.007496
-0.002350
-0.000436
0.000127
0.002685
0.007038
0.009430
0.007699
0.002994
-0.003303
-0.012010
-0.025394
-0.043388
-0.060878
-0.070658
-0.068184
-0.053626
-0.032374
-0.013716
-0.006435
-0.013126
-0.026657
-0.031098
-0.010431
0.034913
0.080764
0.097992
0.078774
0.042034
0.028900
0.095089
0.268659
0.505713
0.728925
0.897470
0.993622
0.977263
0.804280
0.470880
0.033482
-0.401966
-0.742375
-0.967500
-1.094950
-1.131131
-1.118506
-1.155426
-1.292849
-1.479363
-1.644177
-1.744060
-1.699101
-1.393358
-0.808459
-0.082321
0.608120
1.162988
1.571070
1.873698
2.088380
2.142733
1.952166
1.567248
1.174256
0.968285
1.049105
1.368639
1.760909
2.063354
2.157507
1.869516
1.027376
-0.234135
-1.431897
-2.179688
-2.497625
-2.603619
-2.633341
-2.619160
-2.519366
-2.208975
-1.611723
-0.844119
-0.083804
0.617513
1.273876
1.851540
2.257990
2.386708
2.251451
2.028294
1.846772
1.647610
1.304591
0.759182
0.018840
-0.859893
-1.776653
-2.668231
-3.548228
-4.358624
-4.849714
-4.749974
-4.007731
-2.741295
-1.104702
0.582165
1.833333
2.441099
2.705918
3.073517
3.723843
4.456740
4.865810
4.744997
4.325345
4.054791
4.163829
4.386278
4.117245
2.897291
0.701455
-2.096341
-4.809367
-6.629856
-7.006971
-5.882315
-3.679959
-1.230553
0.507408
0.992157
0.497264
-0.125694
-0.295224
-0.200476
-0.250606
-0.458657
-0.748580
-1.357622
-2.445380
-3.620956
-4.287648
-4.292888
-3.847106
-2.960064
-1.456210
0.531312
2.563621
4.337397
5.725745
6.459970
6.167331
4.864390
3.260871
2.264128
2.074452
2.225607
2.709994
4.236397
6.960033
9.854752
11.706341
11.931441
10.277472
6.534100
1.021374
-4.854996
-9.027206
-10.096590
-8.233811
-4.663443
-0.600392
2.893906
4.523164
3.199958
-0.999393
-6.711244
-12.059135
-15.389927
-15.687157
-12.917311
-7.964825
-1.861303
4.761926
11.185236
15.965050
17.398651
14.923206
10.072503
5.542338
2.704420
0.509555
-2.314535
-4.725616
-4.489556
-1.352464
2.594874
5.563931
7.565221
9.068816
9.270547
6.501813
0.281449
-7.428424
-13.043887
-13.734211
-9.497986
-2.903984
2.858815
5.321850
3.177309
-3.285047
-11.961536
-19.695833
-23.653791
-22.175734
-15.189657
-4.659575
6.076412
14.600102
20.901823
26.094673
30.428293
33.275665
34.027859
32.084442
26.946310
19.214443
10.901637
4.244770
0.342020
-1.326659
-2.313550
-3.701273
-5.084175
-5.431844
-4.589083
-3.347087
-2.443827
-2.018083
-1.777916
-1.362093
-0.559784
0.766381
2.688173
4.730637
5.651270
4.372559
1.111708
-2.945453
-6.904485
-10.458757
-13.289932
-15.060325
-15.866232
-15.961546
-15.152226
-13.113679
-9.968352
-5.905791
-0.907986
4.498350
8.947139
11.192458
10.949371
8.734388
5.399561
2.073317
0.205915
1.050589
4.768702
10.224275
15.796962
20.170584
22.463364
22.258854
19.755358
15.537306
10.074686
3.743076
-2.544108
-7.125577
-8.494550
-6.377430
-1.681203
4.410533
11.006976
17.290293
21.974810
23.522772
21.421574
16.713106
10.666599
3.814729
-3.222133
-9.224984
-13.034697
-13.756271
-10.743930
-4.460312
2.947485
8.542700
10.108555
6.886425
-0.529388
-10.171312
-18.860256
-23.597019
-23.036751
-17.572721
-8.920963
0.133777
6.809695
9.895996
9.856311
7.477410
3.255374
-1.928748
-6.577039
-9.608428
-10.983933
-10.690319
-8.095045
-3.132252
3.053945
9.293046
14.970004
19.135294
20.462519
18.582243
14.439801
9.109786
3.291782
-1.860180
-4.490247
-3.197440
1.771945
8.558022
14.687064
18.094351
17.862597
14.545018
9.642177
4.621083
0.430979
-2.373914
-3.352537
-2.029782
1.795895
7.294357
12.343764
14.600469
13.014522
8.140057
1.260042
-6.218541
-12.755519
-16.990355
-18.380602
-17.244162
-14.204303
-9.837242
-4.782118
0.148998
4.247210
7.111350
8.294370
7.295459
4.503027
1.500600
-0.218924
-0.422484
0.068223
0.031161
-1.754944
-5.839737
-11.364240
-16.353809
-18.890547
-18.071121
-14.362130
-9.387772
-5.200438
-3.131803
-2.701999
-1.766435
1.881631
8.979776
18.388580
27.509914
33.371780
34.368492
31.336792
26.521524
21.549107
16.721737
11.772109
6.541277
1.012532
-4.566293
-9.253963
-11.553481
-10.416376
-6.207479
-0.797695
3.280125
4.084716
1.201836
-4.199657
-10.316123
-15.874229
-20.404753
-23.713491
-25.630508
-26.436998
-27.099516
-28.633017
-31.459488
-35.600403
-40.936035
-47.057026
-53.461922
-59.980656
-66.438309
-71.873230
-74.656891
-73.748550
-69.726044
-64.366776
-59.309460
-55.459518
-53.391300
-53.170269
-53.657154
-53.324162
-51.895218
-50.134121
-48.520351
-47.249313
-46.837250
-47.694725
-49.569630
-51.896107
-54.316448
-56.788975
-59.406307
-62.131302
-64.849640
-67.563576
-70.127190
-71.893188
-71.830376
-68.828575
-62.083450
-51.587147
-38.121258
-22.800690
-7.084059
7.009822
17.425121
22.963604
23.709816
20.768242
15.365697
8.088437
-0.807044
-10.572058
-19.731632
-26.477852
-29.315224
-27.685514
-22.226294
-14.534198
-6.613525
-0.267328
3.410062
4.393895
3.695215
2.701495
2.472697
3.662892
6.607709
11.024785
15.794199
19.487406
21.504734
22.582977
23.786892
25.358580
26.991396
28.590988
30.361017
32.711922
36.149559
40.671043
45.280849
48.562969
49.661259
48.395916
44.946571
40.199924
36.097725
34.833595
37.524849
43.828762
52.778141
63.645931
75.742699
87.586617
96.752953
100.862656
98.869850
91.431221
80.059845
66.192825
51.259445
37.175598
26.136518
19.726204
18.116640
20.034454
23.607496
27.283428
29.995028
30.899649
29.405735
25.383818
19.180616
11.470664
3.087965
-5.003844
-11.648241
-15.910252
-17.865412
-18.456827
-18.251854
-16.801664
-13.314606
-7.391522
1.073323
12.247587
26.117790
41.797806
57.438709
71.177231
82.098511
90.204994
95.784576
98.956970
99.575180
97.565598
93.467110
88.348221
83.078346
77.912575
72.627525
66.664360
59.288303
50.101509
39.538391
28.667007
18.505636
9.740426
2.943547
-1.434247
-3.411292
-3.628587
-3.081310
-2.609407
-2.650619
-3.616383
-6.262356
-11.270730
-18.633581
-27.831724
-38.376019
-49.771603
-61.131626
-71.092636
-78.101585
-81.001907
-79.683945
-75.125450
-68.651962
-61.167767
-52.907772
-43.639790
-33.145359
-21.636757
-9.671318
2.411398
14.956594
28.672318
43.624088
58.824883
73.166451
86.436119
98.932709
110.257042
118.886330
122.843483
120.416595
110.223953
91.293732
64.039970
31.228470
-2.838466
-34.509811
-62.033642
-85.066872
-103.898117
-119.365784
-132.804947
-145.294586
-156.560501
-164.657272
-167.009262
-161.747528
-148.088318
-126.205055
-97.450943
-64.422989
-30.160212
2.907827
33.246574
59.750881
81.330711
97.094490
106.856003
111.271423
111.479759
108.794052
104.732452
100.929459
98.390640
96.573807
93.505486
87.044067
75.989273
60.252033
40.627258
18.791679
-2.708661
-21.105980
-34.615738
-43.189579
-48.106266
-50.870190
-52.263512
-51.995167
-49.133858
-42.963150
-33.418896
-21.025108
-6.836834
7.705544
21.171440
32.369404
40.206116
43.628841
42.180363
36.797367
29.668602
22.904600
17.342522
12.597770
8.000864
3.371073
-0.936079
-4.404224
-6.544774
-7.002180
-6.046183
-4.902894
-5.051908
-7.162746
-11.010704
-16.126745
-21.998518
-27.869707
-33.101158
-38.025955
-43.951626
-51.851856
-61.311859
-70.924873
-79.439461
-86.593086
-92.958626
-98.774193
-103.098175
-104.428841
-101.816299
-95.044479
-84.230751
-69.897331
-53.369171
-36.606060
-21.376667
-8.554654
1.895919
10.297298
16.540752
20.071905
20.561020
18.165464
13.112084
5.592101
-3.895498
-14.545138
-25.547806
-36.228245
-46.215191
-55.782505
-65.749428
-76.721169
-88.524033
-100.229446
-110.336449
-117.236969
-120.067474
-119.021332
-114.595230
-106.835335
-95.651520
-81.540016
-65.588867
-48.975540
-32.661449
-17.317585
-3.301902
9.324223
20.555532
29.930984
36.561630
40.165508
41.825275
43.292198
45.583126
48.336796
50.403355
50.970654
50.214401
48.922180
47.538971
45.860561
43.706696
41.313782
38.662804
34.837273
28.541348
19.147221
7.148000
-5.960137
-17.929583
-26.316193
-29.385641
-26.694717
-18.952494
-7.552029
5.864678
19.634443
31.959221
40.788094
44.203796
41.203171
32.274807
19.299358
4.728994
-9.437178
-22.051916
-32.316078
-39.182640
-41.607250
-39.367527
-33.390900
-25.172497
-15.853578
-5.871227
4.570516
15.083545
25.526007
36.588902
49.279900
63.589634
78.023933
90.634583
100.271477
106.843063
110.780777
112.459351
111.922256
108.826180
102.540726
92.535080
78.785675
61.698025
41.846226
20.114422
-2.164603
-23.720407
-43.955551
-62.623913
-78.924393
-91.350136
-98.470192
-99.606026
-94.882561
-84.916084
-70.476570
-52.351116
-31.393644
-8.553777
15.184331
38.823692
61.241199
81.056198
96.652313
106.507652
109.889870
107.361725
100.368141
90.245941
77.718102
63.222977
47.468319
31.585262
16.920013
4.761837
-3.956501
-8.961072
-10.797667
-10.724093
-10.122313
-9.660712
-9.153499
-8.308457
-7.281029
-6.434035
-5.797229
-4.864173
-3.017549
-0.134852
3.410269
7.073128
10.010895
10.962634
8.944031
4.105722
-2.342246
-8.886991
-14.280031
-17.785620
-19.316612
-19.453260
-19.309040
-20.056980
-22.102554
-24.722864
-26.839828
-28.086880
-28.935383
-30.048622
-31.774975
-34.031322
-36.398811
-38.354927
-39.584618
-40.222500
-40.705635
-41.165497
-41.014027
-39.346046
-35.775124
-30.756441
-25.112503
-19.396353
-13.730437
-8.135791
-2.884731
1.539188
4.796816
7.025916
8.849959
10.912561
13.278429
15.342866
16.369246
16.008699
14.301745
11.546138
8.401738
5.875986
5.042252
6.800534
11.583402
18.835154
26.856806
33.573116
37.582195
38.484947
36.548065
32.404331
27.031927
21.724205
17.746326
15.724650
15.194908
14.750228
12.749304
8.043244
0.280845
-10.176666
-22.463587
-35.362103
-47.564835
-58.249336
-67.467499
-75.689835
-82.887169
-88.089264
-89.696770
-86.198814
-76.909416
-62.421917
-44.500744
-25.349609
-6.732869
10.402486
25.739016
39.226116
50.779701
60.111076
66.818726
70.772690
72.431534
72.687958
72.413666
72.173500
72.183434
72.309021
72.098671
71.041016
69.015556
66.430794
63.710781
60.703491
56.790840
51.482365
44.646431
36.230465
26.100304
14.308029
1.374388
-11.858468
-24.656605
-36.619480
-47.588100
-57.558357
-66.668427
-74.989799
-82.249084
-87.924088
-91.626488
-93.270958
-92.861252
-90.169052
-84.658432
-75.736504
-63.116302
-47.078098
-28.546984
-8.919882
10.352167
28.159615
43.843647
57.132141
68.024605
76.444817
81.732605
82.513947
77.278221
65.357841
47.619324
26.302774
4.119382
-16.599314
-34.125507
-47.273560
-55.549671
-59.299145
-59.508396
-57.329594
-53.549377
-48.404976
-41.954754
-34.437260
-26.173473
-17.452074
-8.755134
-0.933291
5.103727
8.948407
10.853886
11.374350
11.082380
10.568461
10.347703
10.691010
11.639460
13.061715
14.666784
16.150007
17.394562
18.485815
19.545341
20.543116
21.257101
21.483644
21.285969
20.989532
21.040901
21.894884
23.817038
26.656204
29.815374
32.452919
33.781467
33.307217
30.980095
27.282909
23.098032
19.289207
16.337236
14.379444
13.554937
14.190532
16.574200
20.598993
25.595825
30.340443
33.273766
33.104424
29.515696
23.334572
16.049429
9.108762
3.284243
-1.626536
-6.409894
-11.637790
-17.255405
-22.849993
-28.138365
-33.155750
-38.065636
-42.838787
-47.145813
-50.526474
-52.461220
-52.216038
-48.948475
-42.323086
-33.044285
-22.646280
-12.743059
-4.459968
1.710429
5.922990
8.913087
11.563099
14.311128
17.063456
19.610249
21.939205
24.237974
26.689690
29.188702
31.331299
32.758690
33.376534
33.286682
32.727703
32.033100
31.467487
31.090488
30.727419
29.955553
28.207733
25.084314
20.637817
15.350435
9.864789
4.762899
0.491217
-2.696002
-4.795482
-6.062341
-6.978643
-8.096211
-9.694110
-11.567387
-13.245268
-14.356857
-14.778738
-14.645058
-14.270744
-13.889452
-13.483133
-13.001979
-12.648050
-12.768286
-13.526160
-14.885384
-16.973957
-20.286871
-25.407114
