EVENT_NAME: CENTRAL_ITALY
EVENT_ID: EMSC-20161030_0000029
EVENT_DATE_YYYYMMDD: 20161030
EVENT_TIME_HHMMSS: 064018
EVENT_LATITUDE_DEGREE: 42.8400
EVENT_LONGITUDE_DEGREE: 13.1100
EVENT_DEPTH_KM: 9.4
HYPOCENTER_REFERENCE: INGV-webservice
MAGNITUDE_W: 6.5
MAGNITUDE_W_REFERENCE: INGV-webservice
MAGNITUDE_L: 6.1
MAGNITUDE_L_REFERENCE: INGV-webservice
FOCAL_MECHANISM: NF
NETWORK: IT
STATION_CODE: NRC
STATION_NAME: NORCIA
STATION_LATITUDE_DEGREE: 42.792543
STATION_LONGITUDE_DEGREE: 13.096475
STATION_ELEVATION_M: 616
LOCATION: 
SENSOR_DEPTH_M: 0.0
VS30_M/S: 687
SITE_CLASSIFICATION_EC8: B
MORPHOLOGIC_CLASSIFICATION: SL
EPICENTRAL_DISTANCE_KM: 5.4
EARTHQUAKE_BACKAZIMUTH_DEGREE: 11.8
DATE_TIME_FIRST_SAMPLE_YYYYMMDD_HHMMSS: 20161030_064013.314
DATE_TIME_FIRST_SAMPLE_PRECISION: milliseconds
SAMPLING_INTERVAL_S: 0.005000
NDATA: 10000
DURATION_S: 50.000
STREAM: HGN
UNITS: cm/s
INSTRUMENT: sensor = Unknown [Unknown] | digitizer = Unknown [Unknown]
INSTRUMENT_ANALOG/DIGITAL: D
INSTRUMENTAL_FREQUENCY_HZ: 
INSTRUMENTAL_DAMPING: 
FULL_SCALE_G: 
N_BIT_DIGITAL_CONVERTER: 
PGV_CM/S: 41.445741
TIME_PGV_S: 16.580000
BASELINE_CORRECTION: BASELINE REMOVED
FILTER_TYPE: BUTTERWORTH
FILTER_ORDER: 2
LOW_CUT_FREQUENCY_HZ: 0.100
HIGH_CUT_FREQUENCY_HZ: 50.000
LATE/NORMAL_TRIGGERED: NT
DATABASE_VERSION: DYNA 1.0
HEADER_FORMAT: DYNA 1.2
DATA_TYPE: VELOCITY
PROCESSING: manual (Paolucci et al., 2011)
DATA_TIMESTAMP_YYYYMMDD_HHMMSS: 20161030_132633.881
DATA_LICENSE: CC-BY3_0-IT (http://creativecommons.org/licenses/by/3.0/deed.en)
DATA_CITATION: ESM working group (2015), European Strong-Motion database, version 0.1, Network Activity 3: Networking acceleration networks and SM data users. Project NERA (www.nera-eu.org)
DATA_CREATOR: ESM working group
ORIGINAL_DATA_MEDIATOR_CITATION: Ufficio Rischio Sismico e Vulcanico del Dipartimento della Protezione Civile (http://www.protezionecivile.gov.it/)
ORIGINAL_DATA_MEDIATOR: Rete Accelerometrica Nazionale - RAN Download (http://www.mot1.it/randownload/)
ORIGINAL_DATA_CREATOR_CITATION: Italian Strong Motion Network, Italian Civil Protection Department http://www.protezionecivile.gov.it
ORIGINAL_DATA_CREATOR: network: IT (Italian Strong Motion Network); owner: Dipartimento Della Protezione Civile
USER1: /home/dyna/processing-itaca/processing.py /var/www/processing//tmp/Lucia//IT.NRC..HGE.D.20161030.064018.X.ACC.ASC /var/www/processing//tmp/Lucia//IT.NRC..HGN.D.20161030.064018.X.ACC.ASC /var/www/processing//tmp/Lucia//IT.NRC..HGZ.D.20161030.064018.X.ACC.ASC --tmp /var/www/processing//tmp/Lucia/ --le 0.100 --he 50.000 --ln 0.100 --hn 50.000 --lz 0.100 --hz 50.000 --fo 2 --ca 0 --cz 130 --ta 5 --tz 5 --mf 1 --rf 0 --tr NT
USER2: 
USER3: 
USER4: 
USER5: 
[...]
8.194272
8.396553
8.499735
8.513915
8.458774
8.337769
8.137179
7.845013
7.464272
7.016378
6.533314
6.039471
5.538592
5.016945
4.458768
3.869737
3.295589
2.804273
2.439137
2.200380
2.065863
2.014940
2.048271
2.190782
2.450841
2.788053
3.149122
3.515114
3.898566
4.309624
4.723205
5.079997
5.327114
5.443856
5.432793
5.307868
5.075304
4.709727
4.172487
3.465670
2.649740
1.802021
0.967475
0.144730
-0.691475
-1.550075
-2.397581
-3.178050
-3.869527
-4.510688
-5.154726
-5.810371
-6.439346
-6.980999
-7.371205
-7.570973
-7.578984
-7.401296
-7.021125
-6.409514
-5.561781
-4.517362
-3.341868
-2.091237
-0.794646
0.522530
1.804931
2.978596
3.995205
4.846553
5.551016
6.146544
6.668708
7.110754
7.428974
7.594750
7.607247
7.452270
7.090746
6.496000
5.668989
4.627724
3.423857
2.151817
0.904267
-0.265564
-1.327014
-2.250140
-3.016329
-3.628281
-4.089030
-4.384487
-4.506662
-4.468942
-4.268250
-3.862921
-3.225595
-2.388101
-1.399268
-0.271927
1.002391
2.416894
3.939659
5.519216
7.095291
8.614289
10.037063
11.332107
12.471005
13.435456
14.222469
14.846497
15.341994
15.749968
16.088278
16.334150
16.443752
16.404114
16.261753
16.083380
15.900799
15.714646
15.544657
15.454605
15.511775
15.732267
16.088278
16.551447
17.101959
17.722389
18.414272
19.198328
20.074900
20.999947
21.913206
22.781172
23.606272
24.397451
25.140596
25.807264
26.383703
26.872650
27.273626
27.576792
27.768875
27.836313
27.763590
27.537889
27.168983
26.694736
26.152590
25.555260
24.897055
24.171707
23.381899
22.543337
21.685879
20.835754
19.994286
19.152384
18.326691
17.569221
16.927589
16.401314
15.965416
15.618752
15.370364
15.202563
15.077883
14.963721
14.840684
14.704386
14.561287
14.411291
14.237818
14.021986
13.753442
13.421447
13.015890
12.543012
12.025231
11.485545
10.937053
10.375240
9.779820
9.142317
8.484469
7.834511
7.194604
6.532726
5.807108
5.010892
4.184974
3.380368
2.619155
1.889743
1.169843
0.454810
-0.229760
-0.845925
-1.384557
-1.880275
-2.370793
-2.847992
-3.256303
-3.539393
-3.690943
-3.756633
-3.786100
-3.792468
-3.760950
-3.687844
-3.601996
-3.543928
-3.524613
-3.506790
-3.430088
-3.257577
-2.999249
-2.697921
-2.398411
-2.114802
-1.817164
-1.473839
-1.107039
-0.770356
-0.484153
-0.234204
-0.013176
0.175089
0.328969
0.435515
0.466089
0.401810
0.246458
0.012927
-0.294526
-0.684096
-1.158513
-1.699709
-2.287323
-2.928906
-3.655754
-4.487240
-5.411008
-6.401252
-7.439151
-8.504620
-9.567165
-10.599114
-11.581201
-12.487736
-13.283461
-13.936453
-14.422490
-14.725140
-14.848845
-14.827280
-14.693740
-14.440702
-14.035615
-13.472242
-12.781039
-12.005825
-11.185468
-10.335413
-9.438319
-8.466517
-7.429741
-6.404813
-5.491870
-4.726165
-4.053252
-3.395091
-2.725831
-2.090432
-1.565556
-1.200230
-0.987653
-0.894845
-0.910615
-1.051210
-1.328025
-1.728487
-2.227032
-2.797116
-3.409044
-4.034669
-4.656652
-5.255256
-5.794826
-6.242010
-6.580812
-6.802440
-6.909332
-6.926002
-6.871122
-6.726630
-6.461095
-6.071629
-5.584280
-5.027055
-4.419590
-3.775335
-3.093985
-2.359894
-1.561815
-0.709898
0.174197
1.083824
2.032626
3.024572
4.034425
5.028249
5.987587
6.907003
7.781685
8.607011
9.380152
10.091773
10.728850
11.293747
11.804409
12.267885
12.663165
12.952717
13.110668
13.145155
13.085441
12.940336
12.687805
12.308307
11.810020
11.226942
10.595651
9.923761
9.185625
8.347739
7.396642
6.352464
5.253793
4.124207
2.955326
1.728385
0.463452
-0.764360
-1.888295
-2.915681
-3.896301
-4.848551
-5.735727
-6.484327
-7.026701
-7.353341
-7.518102
-7.581276
-7.563953
-7.458654
-7.247160
-6.909560
-6.451335
-5.908340
-5.306242
-4.638237
-3.894047
-3.087238
-2.242515
-1.374080
-0.480857
0.447532
1.417435
2.419248
3.425085
4.396979
5.299056
6.101027
6.784842
7.354115
7.819562
8.177783
8.411858
8.502334
8.437555
8.219778
7.867626
7.420822
6.923274
6.381387
5.765347
5.060723
4.290062
3.492837
2.702876
1.928448
1.151863
0.363232
-0.404472
-1.080359
-1.611151
-2.021912
-2.398195
-2.790245
-3.164838
-3.463303
-3.671444
-3.833020
-4.022160
-4.295797
-4.659194
-5.075919
-5.515203
-5.993671
-6.563474
-7.259386
-8.068643
-8.948135
-9.859015
-10.791785
-11.771044
-12.831075
-13.977454
-15.171995
-16.360739
-17.522526
-18.682690
-19.873838
-21.095945
-22.315201
-23.489199
-24.584057
-25.563084
-26.387663
-27.047869
-27.563480
-27.948933
-28.194260
-28.288351
-28.254560
-28.140181
-27.978485
-27.777237
-27.531473
-27.236355
-26.879885
-26.430767
-25.855192
-25.152056
-24.360306
-23.518183
-22.633514
-21.720442
-20.846436
-20.109127
-19.567142
-19.211691
-18.993866
-18.857487
-18.759123
-18.674318
-18.584435
-18.464624
-18.293468
-18.068186
-17.801189
-17.509027
-17.213232
-16.938454
-16.698910
-16.497833
-16.339272
-16.220169
-16.114008
-15.983007
-15.806939
-15.586684
-15.316194
-14.967887
-14.517947
-13.973553
-13.369929
-12.748567
-12.138146
-11.553496
-11.005486
-10.499562
-10.029863
-9.589317
-9.176416
-8.780553
-8.379281
-7.963399
-7.539490
-7.094894
-6.596517
-6.030793
-5.404410
-4.718437
-3.977144
-3.199452
-2.407988
-1.629870
-0.898898
-0.235581
0.360849
0.896202
1.377675
1.818158
2.226041
2.599775
2.930294
3.197825
3.378903
3.465004
3.465261
3.391118
3.249432
3.047109
2.789578
2.476212
2.106289
1.688789
1.231940
0.725541
0.155363
-0.474647
-1.150009
-1.860251
-2.598895
-3.358977
-4.131564
-4.898329
-5.627032
-6.295572
-6.914731
-7.506428
-8.070977
-8.584748
-9.012555
-9.319037
-9.485308
-9.518516
-9.437087
-9.253416
-8.976085
-8.612307
-8.163141
-7.626544
-7.001572
-6.286902
-5.481008
-4.583318
-3.593711
-2.511190
-1.334647
-0.069685
1.267979
2.659938
4.089803
5.544820
7.021432
8.520875
10.034964
11.535917
12.979805
14.327336
15.556436
16.655989
17.623577
18.463236
19.178362
19.773748
20.256447
20.627167
20.877069
20.993353
20.967123
20.797749
20.485168
20.021805
19.402241
18.638845
17.762520
16.806013
15.791700
14.742167
13.691565
12.677340
11.726905
10.853698
10.063986
9.365940
8.770615
8.290284
7.937938
7.718308
7.618799
7.623074
7.732538
7.962987
8.329289
8.839118
9.486257
10.248942
11.101321
12.019344
12.980619
13.972045
14.992987
16.044386
17.119570
18.206921
19.293312
20.360567
21.383286
22.331200
23.171688
23.878006
24.444746
24.890432
25.235338
25.479845
25.609667
25.615534
25.502487
25.284409
24.972025
24.562405
24.036465
23.370754
22.560108
21.631969
20.635754
19.612759
18.576115
17.523308
16.463289
15.429747
14.471388
13.624723
12.895268
12.262746
11.695758
11.172478
10.698664
10.293507
9.962662
9.705172
9.536904
9.483757
9.551307
9.716882
9.955297
10.258672
10.629398
11.064687
11.540704
12.003232
12.388165
12.658372
12.812944
12.865558
12.822569
12.681580
12.448397
12.144731
11.795289
11.421448
11.047843
10.698023
10.381761
10.098177
9.852375
9.659211
9.526172
9.439602
9.375711
9.319927
9.266464
9.205706
9.122218
9.000444
8.823394
8.568436
8.218318
7.777690
7.262643
6.676669
6.011671
5.265130
4.447805
3.579301
2.678232
1.761621
0.854676
-0.008792
-0.794994
-1.474509
-2.026495
-2.444396
-2.732963
-2.899581
-2.949125
-2.880250
-2.690596
-2.393832
-2.022083
-1.609081
-1.179732
-0.748900
-0.322453
0.092339
0.473286
0.789789
1.026957
1.194500
1.306463
1.353509
1.302879
1.132609
0.854336
0.493620
0.057046
-0.477399
-1.139195
-1.934786
-2.842270
-3.832226
-4.880611
-5.962871
-7.050683
-8.117012
-9.133845
-10.066531
-10.881220
-11.555421
-12.077499
-12.443203
-12.649159
-12.684654
-12.542030
-12.232854
-11.783605
-11.226022
-10.592976
-9.915237
-9.222447
-8.538212
-7.868723
-7.204110
-6.530726
-5.840390
-5.134228
-4.423012
-3.726075
-3.066676
-2.460318
-1.906051
-1.394035
-0.921643
-0.498471
-0.133479
0.181389
0.467334
0.735499
0.974611
1.161695
1.276221
1.304796
1.244425
1.102830
0.883622
0.573580
0.159821
-0.340787
-0.883684
-1.432704
-1.984519
-2.555955
-3.154295
-3.754558
-4.303326
-4.752967
-5.089660
-5.327918
-5.489853
-5.586572
-5.610015
-5.548939
-5.410499
-5.214815
-4.975190
-4.694015
-4.371977
-4.014942
-3.636574
-3.252259
-2.866305
-2.473440
-2.075003
-1.689533
-1.347947
-1.080027
-0.909848
-0.857553
-0.932786
-1.131611
-1.445932
-1.869258
-2.392962
-3.004656
-3.691402
-4.442387
-5.250542
-6.109584
-7.000168
-7.877356
-8.686843
-9.404266
-10.044820
-10.625759
-11.135641
-11.541256
-11.807263
-11.916280
-11.884340
-11.747978
-11.530114
-11.224094
-10.808429
-10.271767
-9.625426
-8.894007
-8.091881
-7.207751
-6.217881
-5.121835
-3.963552
-2.811277
-1.716101
-0.689312
0.279413
1.177618
1.946865
2.511548
2.832276
2.928478
2.846962
2.606989
2.179457
1.525782
0.653300
-0.370725
-1.451556
-2.516105
-3.544886
-4.558141
-5.563675
-6.519286
-7.355730
-8.036134
-8.583453
-9.055581
-9.500032
-9.920841
-10.284268
-10.560480
-10.756435
-10.905137
-11.026398
-11.106528
-11.120374
-11.070742
-11.000523
-10.958475
-10.961569
-10.998539
-11.050754
-11.106698
-11.172762
-11.261618
-11.369012
-11.477858
-11.574196
-11.646480
-11.679333
-11.652169
-11.542171
-11.336205
-11.040898
-10.670148
-10.223631
-9.684517
-9.037017
-8.293883
-7.510215
-6.754388
-6.059204
-5.407402
-4.762401
-4.111350
-3.485987
-2.940871
-2.498627
-2.124442
-1.774994
-1.456498
-1.209557
-1.059060
-1.001106
-1.012411
-1.057664
-1.113606
-1.189167
-1.301813
-1.442003
-1.575281
-1.674056
-1.744738
-1.823257
-1.937801
-2.080088
-2.216505
-2.313999
-2.358099
-2.365276
-2.365211
-2.353022
-2.281723
-2.116879
-1.872802
-1.581480
-1.251786
-0.875778
-0.453891
0.002116
0.475077
0.944034
1.398342
1.851076
2.318016
2.784770
3.211959
3.571590
3.868931
4.130990
4.377368
4.601048
4.776871
4.888786
4.952786
5.017548
5.130738
5.289523
5.436669
5.520439
5.540989
5.528145
5.496605
5.430952
5.299499
5.082980
4.796700
4.477275
4.144852
3.785848
3.370432
2.883196
2.346819
1.819604
1.357647
0.974159
0.643077
0.342034
0.076445
-0.142127
-0.319874
-0.476011
-0.628759
-0.784634
-0.932523
-1.044986
-1.082268
-1.015979
-0.871015
-0.712075
-0.565332
-0.395914
-0.170754
0.106775
0.418271
0.740603
1.044899
1.311299
1.533319
1.703158
1.809969
1.851428
1.835664
1.777291
1.696023
1.605992
1.495069
1.322920
1.050828
0.670989
0.203998
-0.326103
-0.910544
-1.553983
-2.260115
-3.019734
-3.809311
-4.601824
-5.384648
-6.165124
-6.948312
-7.713062
-8.425860
-9.074146
-9.669087
-10.220059
-10.720093
-11.150191
-11.490205
-11.734190
-11.900451
-12.020085
-12.107836
-12.145694
-12.104839
-11.981493
-11.802709
-11.603951
-11.407139
-11.213687
-11.015676
-10.816586
-10.639140
-10.506865
-10.421919
-10.371942
-10.351361
-10.364966
-10.425943
-10.558282
-10.780604
-11.088229
-11.469402
-11.924552
-12.453291
-13.038330
-13.651198
-14.264169
-14.850370
-15.374769
-15.797111
-16.089249
-16.239267
-16.241709
-16.098787
-15.822024
-15.419169
-14.889142
-14.232465
-13.458500
-12.584003
-11.618934
-10.551112
-9.366017
-8.088877
-6.791451
-5.554632
-4.425874
-3.406323
-2.479531
-1.652424
-0.969163
-0.492172
-0.261805
-0.269852
-0.484617
-0.895836
-1.524572
-2.403732
-3.554125
-4.956397
-6.534629
-8.180311
-9.806603
-11.396586
-12.994701
-14.612817
-16.158657
-17.504784
-18.595058
-19.447596
-20.097376
-20.558317
-20.813391
-20.830029
-20.599438
-20.168688
-19.614660
-18.973125
-18.213329
-17.290949
-16.208548
-15.020718
-13.790932
-12.547748
-11.285307
-10.002140
-8.726960
-7.504717
-6.367248
-5.320027
-4.352298
-3.459898
-2.656082
-1.953639
-1.339952
-0.776603
-0.230351
0.288677
0.731127
1.060385
1.282229
1.419236
1.480576
1.461030
1.353966
1.163021
0.905637
0.603727
0.267938
-0.110741
-0.555301
-1.081469
-1.669691
-2.267686
-2.837945
-3.388536
-3.943968
-4.501048
-5.014028
-5.416314
-5.669933
-5.791438
-5.820405
-5.777179
-5.651901
-5.415369
-5.041600
-4.530563
-3.907912
-3.201339
-2.415503
-1.526542
-0.506344
0.643682
1.891218
3.206907
4.586006
6.035871
7.554706
9.120407
10.693468
12.233576
13.713101
15.110361
16.394775
17.531452
18.501865
19.310995
19.973177
20.493353
20.859062
21.045551
21.026936
20.791294
20.354969
19.758181
19.041080
18.235504
17.382603
16.532314
15.722491
14.983410
14.349001
13.836941
13.437507
13.143039
12.971060
12.946843
13.080442
13.372692
13.828696
14.449645
15.224242
16.141191
17.195093
18.377638
19.682608
21.114738
22.677935
24.358555
26.124262
27.937023
29.762278
31.563042
33.296066
34.918499
36.394173
37.696407
38.805851
39.709789
40.409733
40.922009
41.263691
41.439335
41.445740
41.284897
40.962151
40.490910
39.904297
39.235817
38.506496
37.743511
36.985218
36.270344
35.630520
35.087570
34.654503
34.336617
34.137470
34.066719
34.135441
34.337265
34.642639
35.018703
35.436974
35.860466
36.244190
36.543400
36.713367
36.724903
36.596447
36.388828
36.149776
35.877235
35.539948
35.111252
34.577579
33.930466
33.160770
32.260910
31.231663
30.089712
28.869713
27.610800
26.331421
25.020470
23.662678
22.267056
20.856720
19.437880
17.993477
16.502752
14.963364
13.403162
11.866799
10.381665
8.949585
7.581651
6.315398
5.180759
4.175609
3.284985
2.498013
1.803623
1.188621
0.639321
0.140027
-0.324200
-0.762995
-1.183822
-1.598090
-2.021628
-2.470236
-2.954129
-3.472861
-4.015014
-4.569245
-5.141001
-5.756868
-6.445314
-7.209152
-8.026571
-8.882650
-9.784716
-10.744423
-11.760357
-12.819325
-13.901453
-14.982614
-16.042517
-17.072701
-18.070864
-19.034031
-19.967424
-20.886703
-21.799236
-22.698751
-23.584431
-24.465656
-25.337654
-26.164396
-26.902176
-27.536690
-28.081654
-28.554380
-28.971710
-29.348410
-29.681316
-29.952597
-30.156008
-30.307917
-30.432501
-30.546688
-30.658756
-30.770159
-30.877478
-30.978115
-31.070959
-31.148655
-31.194668
-31.194525
-31.148336
-31.064447
-30.945421
-30.788170
-30.587339
-30.334332
-30.025795
-29.672501
-29.289572
-28.881439
-28.443670
-27.977518
-27.495064
-27.007771
-26.518957
-26.029690
-25.541550
-25.055145
-24.572798
-24.095760
-23.616276
-23.120852
-22.602699
-22.066174
-21.518002
-20.958080
-20.381855
-19.785564
-19.163115
-18.503700
-17.799145
-17.049217
-16.256130
-15.421987
-14.557104
-13.681658
-12.811886
-11.950260
-11.092132
-10.234764
-9.377867
-8.522115
-7.669666
-6.824184
-5.988233
-5.159939
-4.335385
-3.513530
-2.693938
-1.873368
-1.052099
-0.241434
0.540763
1.280608
1.972594
2.619073
3.226948
3.796030
4.311267
4.757339
5.137610
5.471538
5.776678
6.054027
6.289948
6.470910
6.593351
6.663517
6.690409
6.674431
6.604709
6.470950
6.272788
6.015351
5.702510
5.337645
4.926921
4.480224
4.012639
3.546951
3.111284
2.729986
2.414423
2.161553
1.963159
1.817419
1.727197
1.689376
1.696746
1.746609
1.835666
1.952513
2.084897
2.229122
2.387593
2.562464
2.753634
2.956906
3.161520
3.353084
3.522687
3.673091
3.811969
3.940003
4.052664
4.150459
4.235474
4.302648
4.346951
4.371610
4.381072
4.373693
4.347250
4.307536
4.258611
4.182238
4.050499
3.867439
3.667813
3.465788
3.243561
2.993139
2.723610
2.432280
2.112186
1.781521
1.474845
1.204316
0.945611
0.676059
0.412068
0.181284
-0.019443
-0.210161
-0.400980
-0.599836
-0.822991
-1.082607
-1.373992
-1.679481
-1.976447
-2.238755
-2.442921
-2.583386
-2.668440
-2.697142
-2.663143
-2.574310
-2.441989
-2.267663
-2.060010
-1.843096
-1.638888
-1.460746
-1.318354
-1.211195
-1.126969
-1.056228
-0.998477
-0.956976
-0.941416
-0.968328
-1.045493
-1.160477
-1.295277
-1.451080
-1.650192
-1.914463
-2.248518
-2.642511
-3.082951
-3.557506
-4.052119
-4.546392
-5.013658
-5.424283
-5.751688
-5.985359
-6.135026
-6.209437
-6.199499
-6.098665
-5.926765
-5.713837
-5.475329
-5.218171
-4.953342
-4.696058
-4.467616
-4.288779
-4.159252
-4.059687
-3.982158
-3.938488
-3.935767
-3.968822
-4.037289
-4.145926
-4.291940
-4.473491
-4.702800
-4.990978
-5.326787
-5.683365
-6.036233
-6.364405
-6.645176
-6.859945
-6.997256
-7.044281
-6.988428
-6.829523
-6.576412
-6.235864
-5.817481
-5.340023
-4.821057
-4.269319
-3.692752
-3.101572
-2.500479
-1.888796
-1.268691
-0.648375
-0.039529
0.546496
1.098623
1.603346
2.047525
2.422028
2.720227
2.938610
3.080242
3.156254
3.183566
3.175563
3.134718
3.061113
2.964533
2.862850
2.775690
2.718827
2.692507
2.678748
2.660956
2.641043
2.631287
2.637004
2.652540
2.667578
2.672567
2.663511
2.643452
2.615604
2.578061
2.527293
2.465030
2.402503
2.353597
2.324641
2.319853
2.347646
2.410230
2.500472
2.615478
2.758250
2.926615
3.117440
3.337334
3.592391
3.875070
4.174983
4.488743
4.809686
5.127495
5.444005
5.771506
6.112636
6.455643
6.790323
7.113626
7.418059
7.690162
7.918698
8.094734
8.215763
8.295559
8.356010
8.408626
8.450524
8.472226
8.469725
8.454192
8.444836
8.455138
8.491645
8.556457
8.648927
8.769997
8.916685
9.075991
9.238267
9.406755
9.586162
9.774309
9.963961
10.145175
10.311913
10.466231
10.608916
10.732753
10.832627
10.911529
10.970253
11.003874
11.012198
11.001083
10.970131
10.910096
10.817468
10.702879
10.580423
10.455912
10.327101
10.188636
10.038529
9.883907
9.736450
9.601508
9.475143
9.351484
9.232387
9.127361
9.039179
8.952091
8.840803
8.688681
8.491767
8.251734
7.973422
7.662912
7.322873
6.958526
6.587684
6.231103
5.893715
5.566403
5.241788
4.920380
4.607262
4.306594
4.016180
3.728973
3.438911
3.142759
2.841233
2.538157
2.233600
1.921922
1.597695
1.257271
0.897391
0.517360
0.119293
-0.294662
-0.724183
-1.173286
-1.650529
-2.162784
-2.711171
-3.294529
-3.911468
-4.560524
-5.243101
-5.960744
-6.708348
-7.476276
-8.254178
-9.027683
-9.778648
-10.491128
-11.153489
-11.757022
-12.293929
-12.755765
-13.138255
-13.448013
-13.698386
-13.898338
-14.046701
-14.135897
-14.163282
-14.138578
-14.076422
-13.984568
-13.863149
-13.711957
-13.535016
-13.339463
-13.132770
-12.921574
-12.711563
-12.509241
-12.324367
-12.168060
-12.050527
-11.983500
-11.977591
-12.032192
-12.134242
-12.268684
-12.425492
-12.597504
