EVENT_NAME: EMILIA_2ND_SHOCK
EVENT_ID: IT-2012-0011
EVENT_DATE_YYYYMMDD: 20120529
EVENT_TIME_HHMMSS: 070002
EVENT_LATITUDE_DEGREE: 44.8417
EVENT_LONGITUDE_DEGREE: 11.0657
EVENT_DEPTH_KM: 8.1
HYPOCENTER_REFERENCE: INGV-CNT_Seismic_Bulletin
MAGNITUDE_W: 6.0
MAGNITUDE_W_REFERENCE: RCMT-INGV
MAGNITUDE_L: 5.8
MAGNITUDE_L_REFERENCE: INGV-CNT_Seismic_Bulletin
FOCAL_MECHANISM: TF
NETWORK: IT
STATION_CODE: NVL
STATION_NAME: NOVELLARA
STATION_LATITUDE_DEGREE: 44.843001
STATION_LONGITUDE_DEGREE: 10.731506
STATION_ELEVATION_M: 22
LOCATION: 
SENSOR_DEPTH_M: 0.0
VS30_M/S: 190
SITE_CLASSIFICATION_EC8: C
MORPHOLOGIC_CLASSIFICATION: 
EPICENTRAL_DISTANCE_KM: 26.4
EARTHQUAKE_BACKAZIMUTH_DEGREE: 90.2
DATE_TIME_FIRST_SAMPLE_YYYYMMDD_HHMMSS: 20120529_065933.000
DATE_TIME_FIRST_SAMPLE_PRECISION: seconds
SAMPLING_INTERVAL_S: 0.005000
NDATA: 28001
DURATION_S: 140.005
STREAM: HNZ
UNITS: cm/s^2
INSTRUMENT: sensor = MS2007+ [Syscom] | digitizer = 130-01/3 [Reftek]
INSTRUMENT_ANALOG/DIGITAL: D
INSTRUMENTAL_FREQUENCY_HZ: 
INSTRUMENTAL_DAMPING: 
FULL_SCALE_G: 
N_BIT_DIGITAL_CONVERTER: 24
PGA_CM/S^2: -46.231523
TIME_PGA_S: 44.115000
BASELINE_CORRECTION: BASELINE REMOVED
FILTER_TYPE: BUTTERWORTH
FILTER_ORDER: 2
LOW_CUT_FREQUENCY_HZ: 0.060
HIGH_CUT_FREQUENCY_HZ: 30.000
LATE/NORMAL_TRIGGERED: NT
DATABASE_VERSION: DYNA 1.0
HEADER_FORMAT: DYNA 1.2
DATA_TYPE: ACCELERATION
PROCESSING: manual (Paolucci et al., 2011)
DATA_TIMESTAMP_YYYYMMDD_HHMMSS: 
DATA_LICENSE: CC-BY3_0-IT (http://creativecommons.org/licenses/by/3.0/deed.en)
DATA_CITATION: ESM working group (2015), European Strong-Motion database, version 0.1, Network Activity 3: Networking acceleration networks and SM data users. Project NERA (www.nera-eu.org)
DATA_CREATOR: ESM working group
ORIGINAL_DATA_MEDIATOR_CITATION: Ufficio Rischio Sismico e Vulcanico del Dipartimento della Protezione Civile (http://www.protezionecivile.gov.it/)
ORIGINAL_DATA_MEDIATOR: Rete Accelerometrica Nazionale - RAN Download (http://www.mot1.it/randownload/)
ORIGINAL_DATA_CREATOR_CITATION: Italian Strong Motion Network, Italian Civil Protection Department http://www.protezionecivile.gov.it
ORIGINAL_DATA_CREATOR: network: IT (Italian Strong Motion Network); owner: Dipartimento Della Protezione Civile
USER1: 
USER2: 
USER3: 
USER4: 
USER5: 
[...]
-0.858304
-2.407852
-3.723221
-4.584962
-4.934461
-4.714791
-3.790990
-2.133352
-0.032924
1.948948
3.242365
3.495581
2.699196
1.237163
-0.212456
-0.993047
-0.835073
0.056572
1.266851
2.443154
3.310618
3.603743
3.140496
1.962749
0.366995
-1.201767
-2.299981
-2.640280
-2.238643
-1.418186
-0.609406
-0.098821
0.104418
0.163618
0.150038
-0.076707
-0.732746
-1.841124
-3.007310
-3.530071
-2.900422
-1.231517
0.819947
2.536697
3.542517
3.829000
3.553599
2.851288
1.759140
0.329186
-1.150165
-2.175655
-2.419712
-2.072777
-1.667026
-1.514513
-1.449735
-1.172762
-0.640740
-0.012848
0.615979
1.211656
1.541988
1.171629
-0.122007
-1.999882
-3.690305
-4.476660
-4.101827
-2.753441
-0.810122
1.248239
2.804303
3.271193
2.491510
0.971420
-0.421565
-1.059328
-0.831531
0.074764
1.492563
3.247917
4.884310
5.730463
5.434307
4.273711
2.788088
1.220229
-0.476669
-2.141371
-3.236898
-3.363824
-2.829575
-2.482974
-2.910375
-3.943832
-4.925777
-5.158723
-4.133331
-1.733494
1.495194
4.288158
5.182429
3.531686
0.189613
-2.910284
-4.088706
-3.075309
-0.956093
0.887495
1.766498
1.957203
2.249960
3.174958
4.576197
5.766847
5.989071
4.945417
3.081465
1.290386
0.247098
-0.081324
-0.358859
-1.235374
-2.674119
-3.941237
-4.337340
-3.941106
-3.537475
-3.795511
-4.568797
-4.987509
-4.247100
-2.359387
-0.138885
1.503304
2.196287
2.139021
1.702438
1.169097
0.858571
1.232134
2.565522
4.557171
6.472002
7.644248
7.724648
6.617733
4.492415
1.863138
-0.607171
-2.574785
-4.238046
-5.953810
-7.634242
-8.620116
-8.188089
-6.223761
-3.445076
-0.933554
0.644301
1.440916
2.111463
3.114390
4.274187
4.913681
4.436797
2.976546
1.488150
0.963368
1.416309
1.774413
0.912106
-1.248233
-3.688217
-5.180418
-5.142909
-3.880586
-2.283306
-1.223748
-1.025929
-1.395487
-1.777744
-1.763850
-1.239030
-0.296746
0.855947
1.987214
2.953421
3.681599
4.101171
4.267761
4.525374
5.307923
6.610610
7.737780
7.765556
6.335174
3.984040
1.711059
0.215296
-0.523928
-1.064111
-1.994342
-3.495376
-5.192603
-6.399719
-6.574774
-5.614652
-3.781880
-1.422132
1.142682
3.477821
4.977425
5.060466
3.533411
0.839886
-2.096688
-4.351932
-5.447209
-5.459158
-4.754662
-3.719581
-2.742393
-2.218766
-2.354231
-2.947271
-3.442887
-3.217792
-1.859135
0.592434
3.483996
5.768129
6.628251
6.064009
4.926012
4.285946
4.664447
5.782444
6.906770
7.373834
6.892343
5.556436
3.741810
1.902372
0.301479
-1.076376
-2.379524
-3.642013
-4.621388
-4.978247
-4.648208
-3.933841
-3.279114
-3.002443
-3.113436
-3.267166
-2.891738
-1.477874
1.080049
4.362016
7.620849
10.073767
11.108347
10.436162
8.263927
5.339500
2.547607
0.219845
-2.064505
-4.905505
-8.391112
-11.926643
-14.580727
-15.565592
-14.507833
-11.511573
-7.239479
-2.889209
0.296716
1.765350
1.914111
1.632247
1.601797
1.928506
2.242725
2.092925
1.407712
0.707199
0.780953
1.960036
3.588230
4.349642
3.346036
0.932811
-1.470392
-2.405531
-1.408153
0.706168
2.433728
2.565657
0.884001
-1.813706
-4.264654
-5.532426
-5.575314
-5.089197
-4.709365
-4.353818
-3.286336
-0.767209
3.187947
7.468616
10.349948
10.614415
8.452148
5.333375
2.937468
2.023945
2.044516
1.660358
-0.280157
-4.013438
-8.732130
-12.987721
-15.429339
-15.404903
-13.042146
-9.047691
-4.507415
-0.524402
2.342623
4.320550
5.941986
7.274077
7.706354
6.648523
4.443380
2.344788
1.492111
2.086712
3.561104
5.210324
6.513363
7.204745
7.418325
7.648977
8.274311
9.063536
9.255628
8.255351
6.296231
4.231900
2.598518
1.062444
-1.193763
-4.716989
-9.362197
-14.289250
-18.176218
-19.654852
-17.995546
-13.689917
-8.325840
-3.612353
-0.305229
2.045717
4.429299
7.419963
10.573691
12.537956
11.928233
8.421530
3.167912
-1.825307
-4.838947
-5.281483
-3.671528
-1.005965
1.729375
3.638565
3.948998
2.267700
-1.087599
-5.071339
-8.392556
-10.156529
-10.169336
-8.794338
-6.637817
-4.319050
-2.317491
-0.852856
0.145044
0.961726
1.932079
3.221153
4.674825
5.843775
6.207770
5.506889
3.945263
2.119311
0.738494
0.337095
1.136618
2.938279
4.966479
6.073957
5.503223
3.535406
1.274064
-0.298187
-1.010052
-1.230094
-1.100107
-0.201199
2.057158
5.723855
9.902912
13.006065
13.500244
10.742709
5.428390
-0.712809
-5.880928
-9.218495
-11.108836
-12.542438
-14.140920
-15.646038
-16.204687
-15.108451
-12.299652
-8.261033
-3.558958
1.400799
6.209289
10.212358
12.526903
12.304042
9.099405
3.226878
-4.086212
-10.970301
-15.666706
-17.329004
-16.232878
-13.317038
-9.597256
-5.895031
-2.773726
-0.397131
1.596046
3.875375
6.835600
10.073985
12.466633
12.923488
11.202047
8.048486
4.613842
1.762043
-0.163371
-1.167458
-1.404681
-1.012109
0.057970
1.879087
3.963994
4.985435
3.542689
-0.541671
-5.774172
-9.966595
-11.749847
-11.291536
-9.730736
-8.027100
-6.298609
-4.024761
-0.680579
3.754601
8.675091
13.085167
16.036720
17.085712
16.486778
14.905408
12.800569
10.007935
6.007648
0.667648
-5.287085
-10.438870
-13.282380
-12.929479
-9.540893
-4.278921
1.169502
5.303153
7.389598
7.586898
6.557704
4.854672
2.559450
-0.520329
-4.284977
-7.968932
-10.415325
-10.838667
-9.395475
-7.077433
-5.068537
-4.074249
-4.011987
-4.137348
-3.478150
-1.376393
2.077316
5.956419
8.950303
10.147048
9.519421
7.747717
5.634361
3.598260
1.568266
-0.746487
-3.546947
-6.838530
-10.386159
-13.576556
-15.404737
-14.819718
-11.224009
-4.813798
3.266801
11.066497
16.478233
18.190031
16.377859
12.618074
8.915647
6.541930
5.608360
5.532323
5.720810
5.789382
5.372112
4.069210
1.738584
-1.238212
-4.174085
-6.662394
-8.841052
-10.991077
-12.973152
-14.184706
-14.112983
-12.913396
-11.361695
-10.114078
-8.960117
-6.855167
-2.780793
3.271508
9.986277
15.396659
18.083792
17.929651
15.868509
13.022237
9.977721
6.626869
2.574376
-2.183406
-6.821555
-9.945625
-10.494134
-8.530913
-5.145759
-1.556001
1.700136
4.741506
7.710397
10.342738
12.117661
12.680319
12.122703
10.949838
9.737110
8.663481
7.285422
4.850706
1.035832
-3.526529
-7.475532
-9.547510
-9.376617
-7.655965
-5.507857
-3.641672
-2.027324
-0.227126
2.043660
4.607796
6.892581
8.204030
8.008940
6.115018
2.726110
-1.587846
-5.967968
-9.476946
-11.485520
-11.965011
-11.404885
-10.442350
-9.475791
-8.439741
-6.808128
-3.904251
0.444323
5.301279
8.831076
9.505175
7.352257
3.998635
1.333640
0.045267
-0.577915
-1.493334
-2.672467
-3.058401
-1.695752
1.144331
3.942821
4.987417
3.485210
-0.134337
-4.676887
-8.835792
-11.658668
-12.701197
-11.868157
-9.179856
-4.743457
1.072287
7.418428
12.935005
16.167459
16.340731
13.930563
10.437822
7.369529
5.258069
3.588062
1.567226
-1.068118
-3.877362
-6.179282
-7.663696
-8.645569
-9.759419
-11.307716
-12.791118
-13.059400
-11.075323
-6.740920
-1.036468
4.685388
9.557440
13.423159
16.336308
18.014540
17.979055
16.179787
13.225842
9.911567
6.579920
2.960542
-1.402491
-6.535852
-11.678219
-15.434671
-16.551739
-14.890667
-11.643049
-8.424732
-6.082491
-4.345715
-2.586590
-0.791396
0.298404
-0.111693
-2.046606
-4.462411
-5.771312
-4.891181
-1.996629
1.608403
4.348452
5.308858
4.631620
3.251153
2.203360
1.885083
1.812729
1.143218
-0.493634
-2.566621
-3.953849
-3.706810
-1.636835
1.647145
5.115770
7.731826
8.697358
7.681043
5.089597
2.023565
-0.335802
-1.457898
-1.608202
-1.334014
-0.881997
-0.118096
1.042226
2.253663
2.911918
2.680011
1.756455
0.635529
-0.338963
-1.226631
-2.399132
-4.174912
-6.422602
-8.494136
-9.654184
-9.670445
-8.947631
-8.029168
-7.084639
-6.044484
-5.120643
-4.894630
-5.787020
-7.538646
-9.273007
-10.032295
-9.246705
-6.850384
-3.257210
0.641408
3.746943
5.430005
6.048432
6.646109
7.988671
9.904016
11.586125
12.382360
12.175412
11.122480
9.233129
6.334986
2.446688
-1.830776
-5.319820
-6.895714
-6.376430
-4.793850
-3.627666
-3.683674
-4.649649
-5.520274
-5.329110
-3.708980
-1.064374
1.711942
3.851745
5.255651
6.424289
7.728640
8.791275
8.731348
7.050473
4.206400
1.309530
-0.681249
-1.496245
-1.450589
-0.972508
-0.313046
0.397049
1.062436
1.713261
2.529741
3.601142
4.714787
5.484195
5.563671
4.630564
2.353134
-1.340349
-5.895075
-10.159871
-12.922955
-13.521708
-12.071981
-9.269445
-6.037315
-3.250296
-1.517336
-0.963363
-1.164591
-1.479998
-1.639586
-1.999177
-3.152873
-5.266181
-7.724474
-9.447329
-9.641127
-8.314876
-6.140490
-3.840255
-1.660877
0.596559
3.079860
5.419293
6.660466
5.751758
2.484059
-1.825700
-4.792592
-4.464158
-0.698248
4.676532
9.087176
10.905297
10.224089
8.291455
6.449248
5.467879
5.416274
5.758103
5.512602
3.713745
0.172730
-4.136066
-7.633657
-9.235938
-8.997284
-7.812029
-6.646243
-6.027323
-5.972995
-6.147056
-6.121300
-5.653246
-4.798457
-3.772447
-2.721678
-1.706673
-0.900534
-0.625234
-1.100071
-2.184304
-3.374500
-4.075028
-3.864404
-2.544439
-0.171251
2.805577
5.580366
7.416536
8.175225
8.398582
8.799859
9.652136
10.605363
10.958122
10.055532
7.580603
3.765836
-0.509790
-3.965276
-5.527700
-4.937920
-2.863863
-0.426943
1.370528
1.921029
1.089951
-0.790813
-3.033215
-4.795374
-5.346393
-4.289488
-1.671248
2.023277
6.036193
9.593274
12.105164
13.315383
13.391200
12.839352
12.202951
11.725941
11.284170
10.620850
9.570476
8.029943
5.815045
2.676282
-1.480389
-6.375537
-11.341169
-15.519310
-18.187626
-19.035059
-18.139919
-15.698632
-11.855484
-6.792224
-0.891686
5.252593
10.982935
15.748007
19.208841
21.227880
21.779396
20.920710
18.860126
16.006325
12.867923
9.770456
6.619107
3.031377
-1.232548
-5.978342
-10.646766
-14.505980
-16.787966
-16.984558
-15.357573
-13.131000
-11.808498
-12.033950
-13.132830
-13.718738
-12.688712
-9.793675
-5.512777
-0.607877
4.164510
8.152507
10.884341
12.093184
11.700098
9.866940
7.088999
4.243554
2.403137
2.256450
3.563812
5.300160
6.460464
6.798453
6.821023
7.083791
7.508755
7.362049
5.838263
2.683357
-1.675156
-6.574209
-11.653943
-16.906860
-22.272667
-27.285578
-31.099293
-32.901985
-32.411934
-30.022535
-26.532906
-22.694551
-18.861275
-14.947679
-10.607882
-5.522534
0.233510
6.053003
11.124530
14.905501
17.357405
18.868549
19.910393
20.663898
20.933832
20.374069
18.832798
16.612911
14.421487
12.949660
12.381548
12.220598
11.563259
9.617263
6.069581
1.113040
-4.674765
-10.417889
-15.068229
-17.697412
-17.935535
-16.260046
-13.759135
-11.473816
-9.870360
-8.810196
-7.920444
-6.976268
-5.977374
-4.986019
-3.962218
-2.697816
-0.900544
1.651582
5.024506
9.019644
13.045800
16.239483
17.832132
17.472647
15.394297
12.350474
9.220824
6.578213
4.529411
2.763831
0.783845
-1.696454
-4.476148
-6.968655
-8.591221
-9.135882
-8.820804
-8.016178
-7.021851
-6.084045
-5.382775
-4.871111
-4.158420
-2.611210
0.266794
4.382702
8.914291
12.580790
14.140301
12.937169
9.238973
4.061048
-1.434290
-6.472032
-10.705155
-13.869697
-15.617615
-15.776542
-14.690830
-13.202237
-12.185716
-12.054362
-12.697454
-13.756976
-14.826823
-15.473546
-15.217537
-13.515518
-9.847016
-4.032116
3.436474
11.423335
18.590050
23.955482
27.190943
28.439392
27.909750
25.637917
21.521730
15.594771
8.334737
0.698939
-6.146048
-11.230486
-14.169664
-15.329292
-15.502888
-15.230178
-14.435548
-12.726990
-9.930392
-6.352869
-2.662060
0.445424
2.561908
3.685120
4.110575
4.255027
4.441931
4.665520
4.586511
3.903410
2.782877
1.872329
1.884717
3.189947
5.663408
8.718513
11.464392
12.999348
12.741619
10.610485
6.978263
2.497831
-2.053071
-5.905005
-8.472718
-9.491126
-8.976346
-7.109474
-4.201436
-0.716919
2.721574
5.415817
6.792227
6.669792
5.457496
4.076431
3.540059
4.437235
6.696022
9.763233
12.949566
15.650485
17.438812
18.134626
17.783148
16.431414
13.916180
10.004353
4.772209
-1.219891
-7.132887
-12.198903
-15.904497
-18.045357
-18.852543
-18.995266
-19.177500
-19.605919
-19.869602
-19.317453
-17.493576
-14.250533
-9.664637
-4.063126
1.895039
7.341237
11.475343
13.814958
14.378129
13.699484
12.563748
11.639358
11.346526
11.934316
13.399814
15.276802
16.693808
16.771410
15.108469
12.005996
8.287871
5.008159
3.142348
3.134190
4.554306
6.179490
6.523461
4.656907
0.767491
-4.032562
-8.425376
-11.596304
-13.574933
-15.057150
-16.857832
-19.364052
-22.338766
-25.156052
-27.179520
-27.984249
-27.353271
-25.106474
-20.979097
-14.773599
-6.696567
2.426008
11.289927
18.557604
23.325029
25.419668
25.415771
24.261190
22.695728
20.899851
18.606352
15.498565
11.568517
7.204164
2.981465
-0.630010
-3.473544
-5.784507
-8.061204
-10.735844
-13.856492
-17.042692
-19.811909
-21.980446
-23.704988
-25.142260
-26.110271
-26.089243
-24.527061
-21.150183
-16.111567
-10.003170
-3.729199
1.768646
5.839028
8.362393
9.764027
10.756947
11.992102
13.835749
16.333364
19.311623
22.497141
25.527302
27.894594
29.025274
28.622948
26.989056
24.808514
22.480799
19.688969
15.643464
9.741207
2.033035
-6.816480
-15.897550
-24.411102
-31.835281
-37.923672
-42.561474
-45.504585
-46.231522
-44.146873
-39.021938
-31.352266
-22.366169
-13.563783
-6.014594
0.085977
5.302814
10.425223
15.898699
21.564888
26.778704
30.709604
32.648430
32.290859
29.900772
26.207680
22.085922
18.187487
14.694274
11.337866
7.704069
3.623696
-0.629504
-4.458588
-7.278941
-8.839803
-9.296695
-8.998265
-8.239858
-7.203389
-6.026756
-4.880633
-3.992507
-3.566153
-3.687031
-4.365827
-5.599157
-7.260030
-8.976285
-10.264952
-10.845651
-10.754528
-10.087163
-8.709099
-6.331483
-2.850177
1.465770
6.114491
10.622930
14.675212
18.117313
20.931541
23.111952
24.451374
24.492550
22.751032
18.966125
13.185945
5.807509
-2.341937
-10.088949
-16.288853
-20.251406
-21.934704
-21.840977
-20.676828
-18.969177
-16.891373
-14.391022
-11.490682
-8.470487
-5.747216
-3.643968
-2.284370
-1.589327
-1.335315
-1.251210
-1.102892
-0.760191
-0.170286
0.782721
2.320215
4.626798
7.674052
11.101201
14.233518
16.313576
16.851847
15.913742
14.103929
12.157066
10.457277
8.867048
6.952771
4.432708
1.484670
-1.331910
-3.452824
-4.721694
-5.498041
-6.320912
-7.472360
-8.808003
-9.866881
-10.191714
-9.692187
-8.704348
-7.644264
-6.561445
-5.017983
-2.509694
0.910551
4.477753
7.205432
8.534301
8.612826
8.071994
7.525112
7.202343
6.964792
6.540779
5.719491
4.420031
2.637100
0.378109
-2.283462
-5.118265
-7.691460
-9.404200
-9.734140
-8.579455
-6.363731
-3.699977
-0.937425
1.924209
4.949815
7.949208
10.389413
11.575674
10.945166
8.333885
4.174830
-0.503103
-4.532996
-7.344384
-9.236415
-10.852730
-12.365726
-13.152630
-12.293352
-9.418151
-5.130903
-0.671124
2.898129
5.304613
7.015317
8.690721
10.644784
12.599324
13.825168
13.693200
12.273577
10.393939
9.044522
8.596212
8.472632
7.573241
5.080662
1.028318
-3.725343
-8.056169
-11.252792
-13.399158
-15.208616
-17.278933
-19.386656
-20.576591
-19.908508
-17.166855
-13.019017
-8.571561
-4.749516
-1.941546
-0.066487
1.113764
1.773247
2.020337
2.045848
2.209822
2.850201
4.010593
5.436518
6.790620
7.856330
8.635067
9.297141
10.014983
10.798265
11.440672
11.634232
11.192461
10.221950
9.077578
8.066215
7.151604
5.966368
4.122409
1.565855
-1.328997
-4.024168
-6.183873
-7.865684
-9.428495
-11.174054
-12.963466
-14.172061
-14.103273
-12.493076
-9.629119
-6.131084
-2.722142
-0.041312
1.567195
2.184654
2.258257
2.377355
2.982552
4.126371
5.421275
6.251575
6.155321
5.111095
3.548990
2.165651
1.614763
2.115813
3.270335
4.315600
4.616421
4.023595
2.909488
1.879326
1.294963
0.965731
0.307041
-1.181658
-3.515818
-6.164726
-8.339444
-9.428272
-9.332847
-8.510938
-7.664456
-7.261516
-7.267068
-7.328577
-7.226122
-7.124398
-7.362556
-7.943980
-8.215973
-7.124488
-3.905309
1.337420
7.607007
13.500911
17.867535
20.305315
21.200123
21.250328
20.864021
19.877747
17.768614
14.159928
9.220530
3.700573
-1.451734
-5.654987
-8.961837
-11.856181
-14.828553
-18.027979
-21.194752
-23.903278
-25.891819
-27.163979
-27.770222
-27.533171
-26.053051
-23.003864
-18.415003
-12.667290
-6.234397
0.504003
7.177813
13.278581
18.192450
21.458422
23.098093
23.654205
23.836254
24.120033
24.570402
24.912334
24.746145
23.727505
21.650145
18.449383
14.143741
8.807667
2.612608
-4.129998
-10.941150
-17.166615
-22.116093
-25.383284
-27.045729
-27.560450
-27.544090
-27.513634
-27.559774
-27.173429
-25.491936
-21.863560
-16.264656
-9.273400
-1.716016
5.727998
12.673165
18.892056
24.141298
28.128778
30.599911
31.432028
30.728153
28.898087
26.543085
24.157770
21.908516
19.583296
16.727962
12.974932
8.355417
3.325757
-1.540476
-5.958539
-10.092609
-14.296204
-18.581226
-22.279877
-24.317196
-23.959244
-21.391582
-17.633030
-13.924956
-11.093585
-9.279293
-8.121862
-7.142591
-6.012383
-4.651630
-3.229426
-2.041738
-1.276805
-0.858048
-0.511982
0.060249
1.064313
2.530439
4.248988
5.821830
6.903781
7.477282
7.870447
8.495124
9.535147
10.822973
12.033329
12.947203
13.454380
13.433389
12.765882
11.420850
9.412697
6.663010
3.051672
-1.272650
-5.655997
-9.123795
-10.959296
-11.162913
-10.346501
-9.264584
-8.437226
-8.077231
-8.240782
-8.900429
-9.826445
-10.539127
-10.507508
-9.387365
-7.083405
-3.733187
0.297493
4.465942
8.169318
10.953952
12.686113
13.491474
13.588421
13.147469
12.230978
10.851694
8.974331
6.480318
3.263671
-0.616173
-4.793203
-8.621908
-11.509119
-13.268194
-14.157369
-14.559546
-14.631612
-14.331137
-13.662204
-12.768629
-11.859872
-11.032846
-10.119587
-8.778268
-6.748766
-3.990737
-0.666327
2.885679
6.228280
9.036392
11.285340
13.200451
14.924837
16.210852
16.506018
15.365147
12.790348
9.198387
5.110508
0.949670
-2.892573
-5.907535
-7.487960
-7.228099
-5.287013
-2.415774
0.415045
2.471752
3.441801
3.292877
2.117303
0.144570
-2.238311
-4.577451
-6.503324
-7.877344
-8.822424
-9.567590
-10.256800
-10.870241
-11.255850
-11.268298
-10.924162
-10.377343
-9.736771
-8.975838
-8.017365
-6.852188
-5.583883
-4.358191
-3.210691
-1.993825
-0.458805
1.601055
4.208620
7.124354
9.945701
12.357317
14.354427
16.254206
18.413012
20.850649
23.140900
24.666801
25.009104
24.169790
22.474440
20.253435
17.584730
14.296628
10.208841
5.393812
0.183113
-5.075458
-10.205290
-15.177708
-19.969971
-24.409876
-28.123432
-30.665731
-31.715450
-31.154484
-29.040361
-25.581560
-21.129833
-16.144426
-11.132781
-6.547141
-2.582503
0.956627
4.461593
8.135616
11.795528
15.004815
17.404734
18.953123
19.869419
20.374641
20.450121
19.773602
17.927299
14.805500
10.866375
6.939463
3.708728
1.270854
