EVENT_NAME: EMILIA_2ND_SHOCK
EVENT_ID: IT-2012-0011
EVENT_DATE_YYYYMMDD: 20120529
EVENT_TIME_HHMMSS: 070002
EVENT_LATITUDE_DEGREE: 44.8417
EVENT_LONGITUDE_DEGREE: 11.0657
EVENT_DEPTH_KM: 8.1
HYPOCENTER_REFERENCE: INGV-CNT_Seismic_Bulletin
MAGNITUDE_W: 6.0
MAGNITUDE_W_REFERENCE: RCMT-INGV
MAGNITUDE_L: 5.8
MAGNITUDE_L_REFERENCE: INGV-CNT_Seismic_Bulletin
FOCAL_MECHANISM: TF
NETWORK: IT
STATION_CODE: NVL
STATION_NAME: NOVELLARA
STATION_LATITUDE_DEGREE: 44.843001
STATION_LONGITUDE_DEGREE: 10.731506
STATION_ELEVATION_M: 22
LOCATION: 
SENSOR_DEPTH_M: 0.0
VS30_M/S: 190
SITE_CLASSIFICATION_EC8: C
MORPHOLOGIC_CLASSIFICATION: 
EPICENTRAL_DISTANCE_KM: 26.4
EARTHQUAKE_BACKAZIMUTH_DEGREE: 90.2
DATE_TIME_FIRST_SAMPLE_YYYYMMDD_HHMMSS: 20120529_065933.000
DATE_TIME_FIRST_SAMPLE_PRECISION: seconds
SAMPLING_INTERVAL_S: 0.005000
NDATA: 28001
DURATION_S: 140.005
STREAM: HNE
UNITS: cm
INSTRUMENT: sensor = MS2007+ [Syscom] | digitizer = 130-01/3 [Reftek]
INSTRUMENT_ANALOG/DIGITAL: D
INSTRUMENTAL_FREQUENCY_HZ: 
INSTRUMENTAL_DAMPING: 
FULL_SCALE_G: 
N_BIT_DIGITAL_CONVERTER: 24
PGD_CM: -0.768167
TIME_PGD_S: 45.660000
BASELINE_CORRECTION: BASELINE REMOVED
FILTER_TYPE: BUTTERWORTH
FILTER_ORDER: 2
LOW_CUT_FREQUENCY_HZ: 0.060
HIGH_CUT_FREQUENCY_HZ: 30.000
LATE/NORMAL_TRIGGERED: NT
DATABASE_VERSION: DYNA 1.0
HEADER_FORMAT: DYNA 1.2
DATA_TYPE: DISPLACEMENT
PROCESSING: manual (Paolucci et al., 2011)
DATA_TIMESTAMP_YYYYMMDD_HHMMSS: 
DATA_LICENSE: CC-BY3_0-IT (http://creativecommons.org/licenses/by/3.0/deed.en)
DATA_CITATION: ESM working group (2015), European Strong-Motion database, version 0.1, Network Activity 3: Networking acceleration networks and SM data users. Project NERA (www.nera-eu.org)
DATA_CREATOR: ESM working group
ORIGINAL_DATA_MEDIATOR_CITATION: Ufficio Rischio Sismico e Vulcanico del Dipartimento della Protezione Civile (http://www.protezionecivile.gov.it/)
ORIGINAL_DATA_MEDIATOR: Rete Accelerometrica Nazionale - RAN Download (http://www.mot1.it/randownload/)
ORIGINAL_DATA_CREATOR_CITATION: Italian Strong Motion Network, Italian Civil Protection Department http://www.protezionecivile.gov.it
ORIGINAL_DATA_CREATOR: network: IT (Italian Strong Motion Network); owner: Dipartimento Della Protezione Civile
USER1: 
USER2: 
USER3: 
USER4: 
USER5: 
[...]
8.545990e-02
8.542777e-02
8.546715e-02
8.560080e-02
8.584254e-02
8.619484e-02
8.665015e-02
8.719499e-02
8.781465e-02
8.849445e-02
8.921730e-02
8.996250e-02
9.070977e-02
9.144692e-02
9.217688e-02
9.292085e-02
9.371402e-02
9.459108e-02
9.556578e-02
9.661969e-02
9.771358e-02
9.881478e-02
9.991749e-02
1.010416e-01
1.022156e-01
1.034575e-01
1.047632e-01
1.061094e-01
1.074690e-01
1.088225e-01
1.101504e-01
1.114203e-01
1.125954e-01
1.136622e-01
1.146460e-01
1.155946e-01
1.165466e-01
1.175156e-01
1.184965e-01
1.194826e-01
1.204783e-01
1.215009e-01
1.225673e-01
1.236773e-01
1.248143e-01
1.259675e-01
1.271501e-01
1.283903e-01
1.297068e-01
1.310982e-01
1.325512e-01
1.340518e-01
1.355874e-01
1.371480e-01
1.387289e-01
1.403302e-01
1.419502e-01
1.435811e-01
1.452136e-01
1.468460e-01
1.484873e-01
1.501481e-01
1.518297e-01
1.535259e-01
1.552347e-01
1.569645e-01
1.587266e-01
1.605276e-01
1.623773e-01
1.643071e-01
1.663753e-01
1.686442e-01
1.711438e-01
1.738526e-01
1.767189e-01
1.797010e-01
1.827906e-01
1.860013e-01
1.893419e-01
1.928006e-01
1.963538e-01
1.999878e-01
2.037125e-01
2.075482e-01
2.114951e-01
2.155187e-01
2.195704e-01
2.236290e-01
2.277157e-01
2.318679e-01
2.360987e-01
2.403864e-01
2.447001e-01
2.490284e-01
2.533795e-01
2.577566e-01
2.621368e-01
2.664724e-01
2.707087e-01
2.748041e-01
2.787387e-01
2.825103e-01
2.861209e-01
2.895683e-01
2.928554e-01
2.960090e-01
2.990888e-01
3.021713e-01
3.053198e-01
3.085628e-01
3.118879e-01
3.152489e-01
3.185855e-01
3.218524e-01
3.250359e-01
3.281390e-01
3.311570e-01
3.340785e-01
3.369094e-01
3.396754e-01
3.423873e-01
3.450107e-01
3.474803e-01
3.497365e-01
3.517431e-01
3.534773e-01
3.549204e-01
3.560637e-01
3.569138e-01
3.574875e-01
3.578082e-01
3.579092e-01
3.578339e-01
3.576218e-01
3.572914e-01
3.568372e-01
3.562448e-01
3.555063e-01
3.546266e-01
3.536167e-01
3.524820e-01
3.512187e-01
3.498225e-01
3.482996e-01
3.466704e-01
3.449651e-01
3.432194e-01
3.414704e-01
3.397481e-01
3.380673e-01
3.364255e-01
3.348063e-01
3.331875e-01
3.315521e-01
3.298991e-01
3.282484e-01
3.266339e-01
3.250906e-01
3.236426e-01
3.223011e-01
3.210673e-01
3.199376e-01
3.189035e-01
3.179483e-01
3.170440e-01
3.161499e-01
3.152139e-01
3.141788e-01
3.129900e-01
3.115960e-01
3.099459e-01
3.079962e-01
3.057283e-01
3.031567e-01
3.003159e-01
2.972354e-01
2.939232e-01
2.903670e-01
2.865470e-01
2.824512e-01
2.780809e-01
2.734441e-01
2.685445e-01
2.633795e-01
2.579539e-01
2.522979e-01
2.464701e-01
2.405335e-01
2.345230e-01
2.284361e-01
2.222638e-01
2.160319e-01
2.098135e-01
2.036979e-01
1.977512e-01
1.920088e-01
1.865014e-01
1.812761e-01
1.763878e-01
1.718771e-01
1.677651e-01
1.640708e-01
1.608281e-01
1.580830e-01
1.558707e-01
1.541924e-01
1.530107e-01
1.522702e-01
1.519253e-01
1.519471e-01
1.523029e-01
1.529288e-01
1.537218e-01
1.545567e-01
1.553094e-01
1.558686e-01
1.561330e-01
1.560054e-01
1.553947e-01
1.542229e-01
1.524345e-01
1.500011e-01
1.469202e-01
1.432089e-01
1.388998e-01
1.340462e-01
1.287316e-01
1.230688e-01
1.171814e-01
1.111794e-01
1.051496e-01
9.916498e-02
9.330054e-02
8.763672e-02
8.224731e-02
7.718858e-02
7.250571e-02
6.824978e-02
6.448428e-02
6.127264e-02
5.865713e-02
5.664527e-02
5.521297e-02
5.432523e-02
5.396219e-02
5.412919e-02
5.484048e-02
5.609367e-02
5.786084e-02
6.009986e-02
6.276613e-02
6.581285e-02
6.918871e-02
7.284388e-02
7.673901e-02
8.084664e-02
8.514417e-02
8.960368e-02
9.417838e-02
9.878517e-02
1.032940e-01
1.075395e-01
1.113503e-01
1.145749e-01
1.170857e-01
1.187703e-01
1.195316e-01
1.193000e-01
1.180498e-01
1.158013e-01
1.126066e-01
1.085310e-01
1.036472e-01
9.804436e-02
9.184041e-02
8.518587e-02
7.825113e-02
7.120506e-02
6.419675e-02
5.734723e-02
5.074860e-02
4.446378e-02
3.852311e-02
3.291873e-02
2.760323e-02
2.249980e-02
1.752187e-02
1.258873e-02
7.630449e-03
2.596885e-03
-2.517716e-03
-7.655922e-03
-1.271555e-02
-1.759967e-02
-2.225708e-02
-2.668813e-02
-3.093192e-02
-3.505934e-02
-3.916893e-02
-4.336966e-02
-4.775349e-02
-5.237749e-02
-5.726386e-02
-6.241077e-02
-6.780695e-02
-7.344769e-02
-7.934668e-02
-8.553440e-02
-9.204001e-02
-9.886669e-02
-1.059795e-01
-1.133164e-01
-1.208127e-01
-1.284148e-01
-1.360696e-01
-1.437005e-01
-1.511969e-01
-1.584297e-01
-1.652793e-01
-1.716505e-01
-1.774630e-01
-1.826370e-01
-1.870995e-01
-1.908156e-01
-1.938139e-01
-1.961749e-01
-1.979916e-01
-1.993378e-01
-2.002710e-01
-2.008604e-01
-2.012055e-01
-2.014238e-01
-2.016154e-01
-2.018371e-01
-2.021051e-01
-2.024219e-01
-2.028008e-01
-2.032694e-01
-2.038492e-01
-2.045299e-01
-2.052596e-01
-2.059589e-01
-2.065472e-01
-2.069567e-01
-2.071279e-01
-2.070016e-01
-2.065235e-01
-2.056590e-01
-2.044041e-01
-2.027805e-01
-2.008210e-01
-1.985587e-01
-1.960257e-01
-1.932569e-01
-1.902900e-01
-1.871617e-01
-1.839020e-01
-1.805358e-01
-1.770929e-01
-1.736201e-01
-1.701758e-01
-1.668090e-01
-1.635386e-01
-1.603547e-01
-1.572403e-01
-1.541882e-01
-1.511997e-01
-1.482725e-01
-1.453914e-01
-1.425259e-01
-1.396288e-01
-1.366321e-01
-1.334486e-01
-1.299848e-01
-1.261591e-01
-1.219194e-01
-1.172567e-01
-1.122129e-01
-1.068795e-01
-1.013843e-01
-9.587561e-02
-9.051062e-02
-8.544920e-02
-8.085036e-02
-7.686458e-02
-7.361866e-02
-7.119797e-02
-6.963728e-02
-6.892674e-02
-6.902660e-02
-6.987841e-02
-7.140826e-02
-7.352770e-02
-7.613458e-02
-7.910897e-02
-8.230409e-02
-8.554336e-02
-8.863385e-02
-9.139171e-02
-9.366326e-02
-9.533061e-02
-9.630620e-02
-9.652740e-02
-9.595678e-02
-9.458592e-02
-9.243965e-02
-8.957732e-02
-8.608498e-02
-8.205602e-02
-7.757053e-02
-7.268838e-02
-6.745555e-02
-6.190831e-02
-5.606432e-02
-4.991132e-02
-4.341467e-02
-3.654887e-02
-2.932890e-02
-2.181445e-02
-1.408912e-02
-6.239519e-03
1.651219e-03
9.501411e-03
1.723201e-02
2.477553e-02
3.209020e-02
3.917099e-02
4.604633e-02
5.275739e-02
5.933247e-02
6.577759e-02
7.208993e-02
7.827647e-02
8.435570e-02
9.034302e-02
9.624182e-02
1.020527e-01
1.077880e-01
1.134742e-01
1.191422e-01
1.248237e-01
1.305527e-01
1.363661e-01
1.423045e-01
1.484211e-01
1.547872e-01
1.614722e-01
1.685092e-01
1.758820e-01
1.835458e-01
1.914511e-01
1.995409e-01
2.077355e-01
2.159302e-01
2.240158e-01
2.319045e-01
2.395471e-01
2.469348e-01
2.540862e-01
2.610243e-01
2.677559e-01
2.742640e-01
2.805135e-01
2.864585e-01
2.920429e-01
2.971976e-01
3.018485e-01
3.059369e-01
3.094330e-01
3.123249e-01
3.145966e-01
3.162222e-01
3.171870e-01
3.175096e-01
3.172411e-01
3.164479e-01
3.151974e-01
3.135533e-01
3.115744e-01
3.093179e-01
3.068490e-01
3.042498e-01
3.016152e-01
2.990394e-01
2.966108e-01
2.944193e-01
2.925587e-01
2.911136e-01
2.901458e-01
2.896968e-01
2.897982e-01
2.904698e-01
2.917082e-01
2.934824e-01
2.957426e-01
2.984270e-01
3.014580e-01
3.047418e-01
3.081828e-01
3.116935e-01
3.151851e-01
3.185551e-01
3.216943e-01
3.245080e-01
3.269223e-01
3.288700e-01
3.302810e-01
3.310903e-01
3.312481e-01
3.307166e-01
3.294643e-01
3.274711e-01
3.247412e-01
3.213033e-01
3.171979e-01
3.124647e-01
3.071404e-01
3.012643e-01
2.948862e-01
2.880734e-01
2.809122e-01
2.735055e-01
2.659701e-01
2.584344e-01
2.510312e-01
2.438838e-01
2.370936e-01
2.307334e-01
2.248412e-01
2.194156e-01
2.144238e-01
2.098232e-01
2.055812e-01
2.016789e-01
1.981039e-01
1.948469e-01
1.919048e-01
1.892799e-01
1.869682e-01
1.849434e-01
1.831506e-01
1.815129e-01
1.799448e-01
1.783639e-01
1.766993e-01
1.748929e-01
1.728907e-01
1.706324e-01
1.680532e-01
1.651003e-01
1.617530e-01
1.580267e-01
1.539606e-01
1.495996e-01
1.449869e-01
1.401684e-01
1.351970e-01
1.301267e-01
1.250008e-01
1.198468e-01
1.146799e-01
1.095076e-01
1.043310e-01
9.914797e-02
9.395951e-02
8.877063e-02
8.358093e-02
7.837406e-02
7.311642e-02
6.776171e-02
6.225112e-02
5.651007e-02
5.045565e-02
4.401990e-02
3.717267e-02
2.992364e-02
2.230423e-02
1.435062e-02
6.103612e-03
-2.380403e-03
-1.102473e-02
-1.974192e-02
-2.845138e-02
-3.709427e-02
-4.563878e-02
-5.407391e-02
-6.239730e-02
-7.060965e-02
-7.872218e-02
-8.676715e-02
-9.479504e-02
-1.028564e-01
-1.109846e-01
-1.191939e-01
-1.274873e-01
-1.358598e-01
-1.442942e-01
-1.527640e-01
-1.612524e-01
-1.697697e-01
-1.783513e-01
-1.870387e-01
-1.958655e-01
-2.048561e-01
-2.140227e-01
-2.233541e-01
-2.328062e-01
-2.423096e-01
-2.517869e-01
-2.611627e-01
-2.703627e-01
-2.793138e-01
-2.879507e-01
-2.962206e-01
-3.040792e-01
-3.114851e-01
-3.184030e-01
-3.248153e-01
-3.307304e-01
-3.361806e-01
-3.412109e-01
-3.458689e-01
-3.502012e-01
-3.542569e-01
-3.580892e-01
-3.617456e-01
-3.652493e-01
-3.685911e-01
-3.717442e-01
-3.746961e-01
-3.774748e-01
-3.801545e-01
-3.828415e-01
-3.856519e-01
-3.886956e-01
-3.920694e-01
-3.958517e-01
-4.000908e-01
-4.047879e-01
-4.098866e-01
-4.152776e-01
-4.208188e-01
-4.263589e-01
-4.317527e-01
-4.368660e-01
-4.415764e-01
-4.457777e-01
-4.493910e-01
-4.523724e-01
-4.547073e-01
-4.563906e-01
-4.574139e-01
-4.577726e-01
-4.574837e-01
-4.565949e-01
-4.551760e-01
-4.533043e-01
-4.510580e-01
-4.485148e-01
-4.457514e-01
-4.428420e-01
-4.398578e-01
-4.368669e-01
-4.339325e-01
-4.311117e-01
-4.284589e-01
-4.260275e-01
-4.238631e-01
-4.219939e-01
-4.204323e-01
-4.191896e-01
-4.182864e-01
-4.177495e-01
-4.176044e-01
-4.178744e-01
-4.185816e-01
-4.197421e-01
-4.213580e-01
-4.234098e-01
-4.258523e-01
-4.286125e-01
-4.315926e-01
-4.346762e-01
-4.377332e-01
-4.406258e-01
-4.432193e-01
-4.453961e-01
-4.470664e-01
-4.481709e-01
-4.486763e-01
-4.485681e-01
-4.478439e-01
-4.465069e-01
-4.445652e-01
-4.420340e-01
-4.389374e-01
-4.353045e-01
-4.311623e-01
-4.265353e-01
-4.214560e-01
-4.159802e-01
-4.101963e-01
-4.042238e-01
-3.982023e-01
-3.922775e-01
-3.865866e-01
-3.812476e-01
-3.763508e-01
-3.719504e-01
-3.680594e-01
-3.646511e-01
-3.616694e-01
-3.590435e-01
-3.567032e-01
-3.545969e-01
-3.527068e-01
-3.510538e-01
-3.496923e-01
-3.487011e-01
-3.481728e-01
-3.482037e-01
-3.488826e-01
-3.502850e-01
-3.524728e-01
-3.554953e-01
-3.593855e-01
-3.641557e-01
-3.698013e-01
-3.763140e-01
-3.836909e-01
-3.919258e-01
-4.009889e-01
-4.108131e-01
-4.213002e-01
-4.323372e-01
-4.438043e-01
-4.555688e-01
-4.674766e-01
-4.793563e-01
-4.910399e-01
-5.023859e-01
-5.132898e-01
-5.236771e-01
-5.334926e-01
-5.426924e-01
-5.512436e-01
-5.591299e-01
-5.663565e-01
-5.729468e-01
-5.789295e-01
-5.843302e-01
-5.891782e-01
-5.935227e-01
-5.974405e-01
-6.010238e-01
-6.043628e-01
-6.075382e-01
-6.106303e-01
-6.137280e-01
-6.169274e-01
-6.203266e-01
-6.240243e-01
-6.281231e-01
-6.327239e-01
-6.379121e-01
-6.437412e-01
-6.502283e-01
-6.573605e-01
-6.651005e-01
-6.733785e-01
-6.820780e-01
-6.910320e-01
-7.000416e-01
-7.089064e-01
-7.174452e-01
-7.255041e-01
-7.329586e-01
-7.397119e-01
-7.456869e-01
-7.508173e-01
-7.550484e-01
-7.583473e-01
-7.607084e-01
-7.621457e-01
-7.626821e-01
-7.623481e-01
-7.611934e-01
-7.592957e-01
-7.567587e-01
-7.537023e-01
-7.502481e-01
-7.465042e-01
-7.425539e-01
-7.384554e-01
-7.342515e-01
-7.299739e-01
-7.256318e-01
-7.211945e-01
-7.165831e-01
-7.116828e-01
-7.063721e-01
-7.005515e-01
-6.941546e-01
-6.871357e-01
-6.794486e-01
-6.710438e-01
-6.618865e-01
-6.519735e-01
-6.413338e-01
-6.300207e-01
-6.181136e-01
-6.057282e-01
-5.930203e-01
-5.801750e-01
-5.673883e-01
-5.548513e-01
-5.427434e-01
-5.312307e-01
-5.204663e-01
-5.105892e-01
-5.017213e-01
-4.939619e-01
-4.873847e-01
-4.820391e-01
-4.779600e-01
-4.751757e-01
-4.737085e-01
-4.735651e-01
-4.747304e-01
-4.771669e-01
-4.808141e-01
-4.855818e-01
-4.913500e-01
-4.979843e-01
-5.053546e-01
-5.133377e-01
-5.218023e-01
-5.305991e-01
-5.395643e-01
-5.485300e-01
-5.573334e-01
-5.658260e-01
-5.738844e-01
-5.814151e-01
-5.883502e-01
-5.946390e-01
-6.002423e-01
-6.051323e-01
-6.092971e-01
-6.127375e-01
-6.154522e-01
-6.174201e-01
-6.185935e-01
-6.189055e-01
-6.182826e-01
-6.166542e-01
-6.139653e-01
-6.101931e-01
-6.053615e-01
-5.995456e-01
-5.928641e-01
-5.854674e-01
-5.775273e-01
-5.692270e-01
-5.607512e-01
-5.522741e-01
-5.439496e-01
-5.359042e-01
-5.282327e-01
-5.209990e-01
-5.142443e-01
-5.080053e-01
-5.023367e-01
-4.973276e-01
-4.931035e-01
-4.898107e-01
-4.875895e-01
-4.865486e-01
-4.867566e-01
-4.882506e-01
-4.910471e-01
-4.951394e-01
-5.004915e-01
-5.070389e-01
-5.146994e-01
-5.233823e-01
-5.329881e-01
-5.434032e-01
-5.544921e-01
-5.660934e-01
-5.780221e-01
-5.900832e-01
-6.020890e-01
-6.138728e-01
-6.252973e-01
-6.362597e-01
-6.466954e-01
-6.565755e-01
-6.658997e-01
-6.746899e-01
-6.829891e-01
-6.908602e-01
-6.983736e-01
-7.055884e-01
-7.125348e-01
-7.192126e-01
-7.256010e-01
-7.316707e-01
-7.373877e-01
-7.427126e-01
-7.476034e-01
-7.520234e-01
-7.559497e-01
-7.593739e-01
-7.622897e-01
-7.646778e-01
-7.664957e-01
-7.676820e-01
-7.681666e-01
-7.678792e-01
-7.667509e-01
-7.647158e-01
-7.617185e-01
-7.577296e-01
-7.527592e-01
-7.468605e-01
-7.401220e-01
-7.326558e-01
-7.245890e-01
-7.160584e-01
-7.072021e-01
-6.981514e-01
-6.890231e-01
-6.799100e-01
-6.708717e-01
-6.619343e-01
-6.531011e-01
-6.443645e-01
-6.357074e-01
-6.270978e-01
-6.184906e-01
-6.098418e-01
-6.011225e-01
-5.923203e-01
-5.834282e-01
-5.744390e-01
-5.653542e-01
-5.561988e-01
-5.470239e-01
-5.378945e-01
-5.288679e-01
-5.199762e-01
-5.112223e-01
-5.025907e-01
-4.940632e-01
-4.856257e-01
-4.772641e-01
-4.689584e-01
-4.606840e-01
-4.524219e-01
-4.441701e-01
-4.359477e-01
-4.277918e-01
-4.197536e-01
-4.118958e-01
-4.042837e-01
-3.969714e-01
-3.899922e-01
-3.833614e-01
-3.770835e-01
-3.711520e-01
-3.655442e-01
-3.602230e-01
-3.551501e-01
-3.503018e-01
-3.456722e-01
-3.412639e-01
-3.370778e-01
-3.331083e-01
-3.293453e-01
-3.257782e-01
-3.224039e-01
-3.192371e-01
-3.163139e-01
-3.136847e-01
-3.114036e-01
-3.095258e-01
-3.081099e-01
-3.072145e-01
-3.068855e-01
-3.071464e-01
-3.080006e-01
-3.094387e-01
-3.114369e-01
-3.139438e-01
-3.168672e-01
-3.200794e-01
-3.234350e-01
-3.267842e-01
-3.299726e-01
-3.328364e-01
-3.352106e-01
-3.369505e-01
-3.379478e-01
-3.381344e-01
-3.374776e-01
-3.359781e-01
-3.336679e-01
-3.306024e-01
-3.268477e-01
-3.224733e-01
-3.175564e-01
-3.121902e-01
-3.064826e-01
-3.005462e-01
-2.944870e-01
-2.883995e-01
-2.823650e-01
-2.764467e-01
-2.706834e-01
-2.650893e-01
-2.596610e-01
-2.543836e-01
-2.492317e-01
-2.441662e-01
-2.391354e-01
-2.340796e-01
-2.289364e-01
-2.236461e-01
-2.181586e-01
-2.124399e-01
-2.064753e-01
-2.002687e-01
-1.938413e-01
-1.872275e-01
-1.804702e-01
-1.736179e-01
-1.667276e-01
-1.598648e-01
-1.530959e-01
-1.464794e-01
-1.400661e-01
-1.339118e-01
-1.280897e-01
-1.226897e-01
-1.178031e-01
-1.135034e-01
-1.098382e-01
-1.068308e-01
-1.044835e-01
-1.027766e-01
-1.016688e-01
-1.011023e-01
-1.010126e-01
-1.013354e-01
-1.020145e-01
-1.030073e-01
-1.042859e-01
-1.058307e-01
-1.076206e-01
-1.096284e-01
-1.118229e-01
-1.141732e-01
-1.166475e-01
-1.192039e-01
-1.217790e-01
-1.242852e-01
-1.266204e-01
-1.286839e-01
-1.303852e-01
-1.316422e-01
-1.323761e-01
-1.325153e-01
-1.320057e-01
-1.308174e-01
-1.289395e-01
-1.263663e-01
-1.230879e-01
-1.190918e-01
-1.143745e-01
-1.089527e-01
-1.028686e-01
-9.618577e-02
-8.897995e-02
-8.133398e-02
-7.334285e-02
-6.512080e-02
-5.679731e-02
-4.850102e-02
-4.034548e-02
-3.242894e-02
-2.484280e-02
-1.767539e-02
-1.100590e-02
-4.894505e-03
6.251242e-04
5.547815e-03
9.891976e-03
1.369057e-02
1.698552e-02
1.983036e-02
2.229659e-02
2.447494e-02
2.646754e-02
2.837584e-02
3.029272e-02
3.230393e-02
3.449661e-02
3.696602e-02
3.981296e-02
4.313237e-02
4.700067e-02
5.146832e-02
5.656000e-02
6.227860e-02
6.860494e-02
7.548923e-02
8.284266e-02
9.054293e-02
9.845522e-02
1.064523e-01
1.144186e-01
1.222424e-01
1.298126e-01
1.370260e-01
1.437973e-01
1.500594e-01
1.557568e-01
1.608381e-01
1.652517e-01
1.689388e-01
1.718333e-01
1.738734e-01
1.750168e-01
1.752449e-01
1.745510e-01
1.729320e-01
1.703998e-01
1.670017e-01
1.628285e-01
1.580007e-01
1.526499e-01
1.469094e-01
1.409134e-01
1.347948e-01
1.286798e-01
1.226819e-01
1.168994e-01
1.114152e-01
1.063015e-01
1.016312e-01
9.748785e-02
9.396801e-02
9.117016e-02
8.917737e-02
8.804354e-02
8.779067e-02
8.841322e-02
8.987914e-02
9.212193e-02
9.503179e-02
9.845931e-02
1.022358e-01
1.062009e-01
1.102213e-01
1.141948e-01
1.180474e-01
1.217331e-01
1.252368e-01
1.285736e-01
1.317781e-01
1.348888e-01
1.379379e-01
1.409520e-01
1.439584e-01
1.469869e-01
1.500599e-01
1.531798e-01
1.563234e-01
1.594540e-01
1.625416e-01
1.655761e-01
1.685662e-01
1.715297e-01
1.744875e-01
1.774632e-01
1.804854e-01
1.835874e-01
1.868051e-01
1.901751e-01
1.937312e-01
1.974985e-01
2.014870e-01
2.056915e-01
2.100941e-01
2.146695e-01
2.193897e-01
2.242306e-01
2.291791e-01
2.342371e-01
2.394151e-01
2.447190e-01
2.501395e-01
2.556506e-01
2.612178e-01
2.668053e-01
2.723789e-01
2.779019e-01
2.833297e-01
2.886078e-01
2.936763e-01
2.984776e-01
3.029595e-01
3.070734e-01
3.107710e-01
3.140036e-01
3.167264e-01
3.188996e-01
3.204890e-01
3.214647e-01
3.218015e-01
3.214792e-01
3.204839e-01
3.188095e-01
3.164608e-01
3.134584e-01
3.098438e-01
3.056791e-01
3.010428e-01
2.960245e-01
2.907238e-01
2.852478e-01
2.797040e-01
2.741898e-01
2.687880e-01
2.635717e-01
2.586097e-01
2.539650e-01
2.496832e-01
2.457849e-01
2.422681e-01
2.391203e-01
2.363306e-01
2.338957e-01
2.318207e-01
2.301176e-01
2.288031e-01
2.278962e-01
2.274168e-01
2.273837e-01
2.278120e-01
2.287055e-01
2.300513e-01
2.318167e-01
2.339480e-01
2.363721e-01
2.390022e-01
2.417477e-01
2.445238e-01
2.472556e-01
2.498798e-01
2.523473e-01
2.546294e-01
2.567232e-01
2.586551e-01
2.604803e-01
2.622795e-01
2.641510e-01
2.662000e-01
2.685288e-01
2.712300e-01
2.743815e-01
2.780446e-01
2.822671e-01
2.870872e-01
2.925293e-01
2.985933e-01
3.052481e-01
3.124354e-01
3.200770e-01
3.280759e-01
3.363137e-01
3.446548e-01
3.529587e-01
3.610865e-01
3.689015e-01
3.762732e-01
3.830890e-01
3.892649e-01
3.947489e-01
3.995213e-01
4.035944e-01
4.070057e-01
4.097993e-01
4.120057e-01
4.136352e-01
4.146897e-01
4.151736e-01
4.150912e-01
4.144364e-01
4.131920e-01
4.113387e-01
4.088636e-01
4.057635e-01
4.020474e-01
3.977420e-01
3.928941e-01
3.875667e-01
3.818328e-01
3.757745e-01
3.694887e-01
3.630908e-01
3.567136e-01
3.505009e-01
