EVENT_NAME: CENTRAL_ITALY
EVENT_ID: EMSC-20161026_0000077
EVENT_DATE_YYYYMMDD: 20161026
EVENT_TIME_HHMMSS: 171036
EVENT_LATITUDE_DEGREE: 42.8802
EVENT_LONGITUDE_DEGREE: 13.1275
EVENT_DEPTH_KM: 8.7
HYPOCENTER_REFERENCE: INGV-CNT_Seismic_Bulletin
MAGNITUDE_W: 5.4
MAGNITUDE_W_REFERENCE: INGV-webservice
MAGNITUDE_L: 5.4
MAGNITUDE_L_REFERENCE: INGV-CNT_Seismic_Bulletin
FOCAL_MECHANISM: NF
NETWORK: IT
STATION_CODE: NRC
STATION_NAME: NORCIA
STATION_LATITUDE_DEGREE: 42.792543
STATION_LONGITUDE_DEGREE: 13.096475
STATION_ELEVATION_M: 616
LOCATION: 
SENSOR_DEPTH_M: 0.0
VS30_M/S: 687
SITE_CLASSIFICATION_EC8: B
MORPHOLOGIC_CLASSIFICATION: SL
EPICENTRAL_DISTANCE_KM: 10.1
EARTHQUAKE_BACKAZIMUTH_DEGREE: 14.6
DATE_TIME_FIRST_SAMPLE_YYYYMMDD_HHMMSS: 20161026_171032.909
DATE_TIME_FIRST_SAMPLE_PRECISION: milliseconds
SAMPLING_INTERVAL_S: 0.005000
NDATA: 10588
DURATION_S: 52.940
STREAM: HGZ
UNITS: cm/s^2
INSTRUMENT: sensor = Unknown [Unknown] | digitizer = Unknown [Unknown]
INSTRUMENT_ANALOG/DIGITAL: D
INSTRUMENTAL_FREQUENCY_HZ: 
INSTRUMENTAL_DAMPING: 
FULL_SCALE_G: 
N_BIT_DIGITAL_CONVERTER: 
PGA_CM/S^2: -140.995842
TIME_PGA_S: 8.990000
BASELINE_CORRECTION: BASELINE REMOVED
FILTER_TYPE: BUTTERWORTH
FILTER_ORDER: 2
LOW_CUT_FREQUENCY_HZ: 0.070
HIGH_CUT_FREQUENCY_HZ: 30.000
LATE/NORMAL_TRIGGERED: NT
DATABASE_VERSION: DYNA 1.0
HEADER_FORMAT: DYNA 1.2
DATA_TYPE: ACCELERATION
PROCESSING: manual (Paolucci et al., 2011)
DATA_TIMESTAMP_YYYYMMDD_HHMMSS: 20161027_111110.997
DATA_LICENSE: CC-BY3_0-IT (http://creativecommons.org/licenses/by/3.0/deed.en)
DATA_CITATION: ESM working group (2015), European Strong-Motion database, version 0.1, Network Activity 3: Networking acceleration networks and SM data users. Project NERA (www.nera-eu.org)
DATA_CREATOR: ESM working group
ORIGINAL_DATA_MEDIATOR_CITATION: Ufficio Rischio Sismico e Vulcanico del Dipartimento della Protezione Civile (http://www.protezionecivile.gov.it/)
ORIGINAL_DATA_MEDIATOR: Rete Accelerometrica Nazionale - RAN Download (http://www.mot1.it/randownload/)
ORIGINAL_DATA_CREATOR_CITATION: Italian Strong Motion Network, Italian Civil Protection Department http://www.protezionecivile.gov.it
ORIGINAL_DATA_CREATOR: network: IT (Italian Strong Motion Network); owner: Dipartimento Della Protezione Civile
USER1: /home/dyna/processing-itaca/processing.py /var/www/processing//tmp/felicetta//IT.NRC..HGE.D.20161026.171036.X.ACC.ASC /var/www/processing//tmp/felicetta//IT.NRC..HGN.D.20161026.171036.X.ACC.ASC /var/www/processing//tmp/felicetta//IT.NRC..HGZ.D.20161026.171036.X.ACC.ASC --tmp /var/www/processing//tmp/felicetta/ --le 0.07 --he 30.000 --ln 0.07 --hn 30.000 --lz 0.07 --hz 30.000 --fo 2 --ca 0 --cz 70 --ta 5 --tz 5 --mf 1 --rf 0 --tr NT
USER2: 
USER3: 
USER4: 
USER5: 
[...]
0.002896
0.000356
-0.003419
-0.006556
-0.008218
-0.008817
-0.008361
-0.006202
-0.002351
0.001616
0.003711
0.003665
0.002604
0.001309
-0.000267
-0.002543
-0.005594
-0.008746
-0.010697
-0.010187
-0.007063
-0.002207
0.003155
0.007234
0.008171
0.005249
-0.000612
-0.007147
-0.012142
-0.014255
-0.012997
-0.008973
-0.003582
0.001128
0.003222
0.002695
0.001278
0.000222
-0.000941
-0.003403
-0.007349
-0.011059
-0.011191
-0.006128
0.000834
0.004957
0.005386
0.004457
0.003643
0.001867
-0.002366
-0.007904
-0.011530
-0.011526
-0.008699
-0.004519
-0.000508
0.001938
0.002586
0.001741
-0.000762
-0.004354
-0.007271
-0.008444
-0.008106
-0.006483
-0.003840
-0.001489
-0.000780
-0.001050
-0.000216
0.002030
0.003120
0.000833
-0.003605
-0.007117
-0.008423
-0.008520
-0.007792
-0.005019
-0.000367
0.003446
0.004230
0.002080
-0.002191
-0.007739
-0.012044
-0.011307
-0.004871
0.002900
0.007531
0.008145
0.005585
0.001011
-0.004052
-0.008385
-0.011146
-0.012397
-0.012818
-0.011570
-0.007372
-0.001471
0.003328
0.005010
0.003194
-0.000416
-0.002923
-0.002493
-0.000130
0.000697
-0.002609
-0.008692
-0.012899
-0.011530
-0.005871
-0.000333
0.002801
0.003886
0.003071
0.000226
-0.003512
-0.006223
-0.007256
-0.007534
-0.007084
-0.004720
-0.001363
0.000251
0.000085
0.000716
0.002399
0.002336
-0.001092
-0.006267
-0.010403
-0.011405
-0.008066
-0.001537
0.004091
0.005492
0.003249
0.000286
-0.001463
-0.002471
-0.003795
-0.004916
-0.004721
-0.003149
-0.000816
0.001053
0.000493
-0.003112
-0.007435
-0.009514
-0.008984
-0.007482
-0.005738
-0.003375
-0.000581
0.002010
0.003549
0.002820
-0.000342
-0.004060
-0.005817
-0.004826
-0.002838
-0.002296
-0.003839
-0.005787
-0.006193
-0.005143
-0.003990
-0.002894
-0.000958
0.001482
0.002160
-0.000896
-0.006199
-0.009226
-0.007346
-0.002555
0.001287
0.001759
-0.001002
-0.004243
-0.004740
-0.002632
-0.001357
-0.002870
-0.005117
-0.005013
-0.002152
0.001103
0.002014
0.000120
-0.002359
-0.003777
-0.004747
-0.005906
-0.006950
-0.007578
-0.007399
-0.005558
-0.001648
0.002952
0.005605
0.004871
0.001737
-0.002032
-0.005773
-0.009062
-0.010584
-0.009369
-0.005360
0.000943
0.006888
0.008098
0.003306
-0.003677
-0.008200
-0.008957
-0.007853
-0.007356
-0.007972
-0.007525
-0.003657
0.002328
0.005786
0.004038
-0.000588
-0.004198
-0.005820
-0.006817
-0.007582
-0.006974
-0.004012
0.000872
0.004919
0.004688
0.000409
-0.003831
-0.004814
-0.003107
-0.002193
-0.004766
-0.009153
-0.011196
-0.008875
-0.003432
0.002056
0.004473
0.002821
-0.000610
-0.002185
-0.000993
0.000355
-0.000526
-0.003185
-0.005531
-0.006250
-0.005756
-0.005431
-0.005901
-0.005573
-0.002359
0.003027
0.007297
0.007584
0.003656
-0.001823
-0.005060
-0.004420
-0.002482
-0.002946
-0.005644
-0.007346
-0.006334
-0.003480
-0.000475
0.001260
0.001234
0.000350
-0.000085
-0.000657
-0.003670
-0.009086
-0.012848
-0.011206
-0.005170
0.000505
0.001930
-0.000953
-0.005255
-0.008050
-0.007961
-0.004893
-0.000130
0.003828
0.005032
0.003371
0.000009
-0.003545
-0.005942
-0.006570
-0.005995
-0.005551
-0.005850
-0.005705
-0.003383
0.001280
0.005955
0.006925
0.002771
-0.003669
-0.008609
-0.010531
-0.009367
-0.005577
-0.000983
0.002034
0.002556
0.000990
-0.001943
-0.005469
-0.008501
-0.009013
-0.005683
-0.000525
0.002867
0.003137
0.001610
-0.000212
-0.002508
-0.005749
-0.008669
-0.009691
-0.009038
-0.007980
-0.007087
-0.005354
-0.001313
0.004128
0.007747
0.007889
0.005688
0.002186
-0.002813
-0.008834
-0.013905
-0.015672
-0.012819
-0.006600
-0.000417
0.003372
0.005079
0.005768
0.005128
0.001924
-0.003742
-0.009299
-0.011302
-0.008001
-0.001081
0.004353
0.003770
-0.001702
-0.006591
-0.007250
-0.004821
-0.002897
-0.003135
-0.003697
-0.002439
0.000519
0.003551
0.004650
0.002915
-0.000591
-0.004423
-0.007567
-0.008648
-0.006929
-0.004077
-0.002841
-0.003697
-0.004308
-0.002782
-0.000253
0.000844
0.000376
-0.000026
-0.000143
-0.000371
0.000226
0.001738
0.001765
-0.001231
-0.005098
-0.007131
-0.007539
-0.007926
-0.008264
-0.006028
0.000307
0.006940
0.008351
0.004514
-0.000224
-0.003519
-0.006212
-0.008873
-0.010198
-0.008529
-0.004486
-0.001258
-0.000301
0.000896
0.003880
0.006316
0.006180
0.004394
0.002392
-0.000010
-0.003624
-0.007828
-0.010533
-0.010552
-0.008961
-0.006748
-0.003329
0.000796
0.003651
0.004514
0.004226
0.004019
0.003825
0.001684
-0.002777
-0.006594
-0.007223
-0.005606
-0.004391
-0.004569
-0.004683
-0.002277
0.002929
0.006732
0.005181
0.000345
-0.003013
-0.003049
-0.001016
0.001092
0.002526
0.003154
0.001850
-0.002018
-0.006658
-0.009590
-0.010766
-0.011385
-0.010039
-0.004416
0.003535
0.008666
0.008612
0.005435
0.002129
0.000289
-0.000078
-0.000637
-0.003246
-0.007613
-0.011433
-0.012331
-0.009412
-0.004230
0.000054
0.001743
0.002267
0.003533
0.004668
0.003527
0.000281
-0.003104
-0.005632
-0.007064
-0.006005
-0.000892
0.006666
0.011630
0.010228
0.003973
-0.002716
-0.007929
-0.012578
-0.016269
-0.016333
-0.011266
-0.003104
0.004620
0.010553
0.015431
0.017961
0.014159
0.003419
-0.008105
-0.013560
-0.012386
-0.009170
-0.007722
-0.008137
-0.008497
-0.006999
-0.002894
0.002404
0.006482
0.008842
0.010534
0.011645
0.010739
0.007000
0.001798
-0.003655
-0.009911
-0.016535
-0.021037
-0.021717
-0.019211
-0.015077
-0.009378
0.000611
0.016835
0.034926
0.045173
0.039042
0.014948
-0.019007
-0.048293
-0.060950
-0.053410
-0.028561
0.007034
0.042543
0.064744
0.066014
0.049554
0.023035
-0.010267
-0.048137
-0.079191
-0.085270
-0.059105
-0.015444
0.021506
0.040810
0.048668
0.051647
0.046460
0.028517
0.003018
-0.018181
-0.028309
-0.029086
-0.025007
-0.019010
-0.012213
-0.005132
0.001822
0.008865
0.015830
0.019897
0.017105
0.007464
-0.004058
-0.012237
-0.014850
-0.012244
-0.006379
0.000022
0.004449
0.005293
0.003084
0.000829
0.000834
0.001990
0.001522
-0.002527
-0.009487
-0.015265
-0.015556
-0.009845
-0.001242
0.006705
0.012145
0.014270
0.012579
0.007693
0.002178
-0.000598
0.000477
0.002876
0.002468
-0.002500
-0.008979
-0.012586
-0.012907
-0.013147
-0.015279
-0.015985
-0.008767
0.008015
0.027384
0.038733
0.034859
0.015793
-0.011835
-0.038101
-0.053125
-0.049721
-0.025323
0.014727
0.054623
0.074538
0.064412
0.031746
-0.006431
-0.039385
-0.065036
-0.078035
-0.067650
-0.031913
0.014473
0.051505
0.068920
0.067111
0.048897
0.018200
-0.015022
-0.037415
-0.042025
-0.032437
-0.017670
-0.004734
0.004445
0.010513
0.012984
0.010786
0.005785
0.002277
0.002340
0.004365
0.006103
0.007134
0.008020
0.008007
0.005302
-0.000313
-0.007103
-0.012791
-0.014985
-0.012443
-0.006550
0.000174
0.006057
0.009902
0.010823
0.009046
0.005622
0.001784
-0.001520
-0.003642
-0.003892
-0.002325
-0.000067
0.001539
0.001436
-0.000090
-0.001127
0.000038
0.003425
0.007120
0.008249
0.005203
-0.000648
-0.005823
-0.007629
-0.005791
-0.001819
0.002466
0.006215
0.009043
0.009873
0.008120
0.005221
0.003225
0.002296
0.000583
-0.002840
-0.005758
-0.005598
-0.002970
0.000101
0.003384
0.007638
0.012492
0.017178
0.022569
0.033201
0.061192
0.128711
0.260910
0.468316
0.728109
0.981277
1.156883
1.208513
1.135799
0.978900
0.784947
0.558775
0.239790
-0.251985
-0.922405
-1.650349
-2.234194
-2.499230
-2.383853
-1.961659
-1.399514
-0.866680
-0.441109
-0.085294
0.282644
0.684398
1.036296
1.201428
1.090679
0.727642
0.234789
-0.234503
-0.564457
-0.708155
-0.675754
-0.500032
-0.209762
0.170507
0.596968
0.983699
1.220248
1.237436
1.058410
0.772527
0.463854
0.172776
-0.088582
-0.297080
-0.384968
-0.245231
0.204729
0.947988
1.861727
2.783823
3.575373
4.143628
4.454574
4.524943
4.367962
3.949151
3.211519
2.135734
0.788015
-0.646796
-1.876852
-2.612523
-2.735315
-2.391399
-1.922011
-1.691235
-1.936477
-2.689462
-3.756857
-4.779610
-5.390469
-5.411021
-4.954561
-4.350995
-3.955340
-3.955270
-4.253382
-4.483172
-4.182202
-3.053317
-1.170357
1.012619
2.890934
4.052311
4.496742
4.575910
4.718822
5.157803
5.811613
6.335256
6.280016
5.329725
3.544884
1.433285
-0.288005
-1.089270
-0.852975
0.203350
1.725433
3.363758
4.882907
6.271310
7.753669
9.642501
12.107313
14.978033
17.681091
19.405941
19.480448
17.705526
14.405110
10.263608
6.174472
3.098074
1.787611
2.473730
4.786997
7.989346
11.324699
14.309976
16.850216
19.075108
20.943052
21.883417
20.789616
16.474911
8.456751
-2.301230
-13.317475
-21.617525
-25.346104
-24.731195
-21.627724
-18.067423
-14.943068
-11.638178
-6.739672
0.451282
8.445874
13.522610
11.786695
1.994897
-13.323953
-29.467751
-42.270988
-49.642666
-51.380939
-48.172741
-40.629478
-28.970272
-13.794479
2.702477
16.758867
24.988876
26.573229
23.517803
18.859150
14.501312
10.107578
3.526402
-7.351853
-22.290161
-37.697655
-47.981899
-48.586769
-38.777786
-22.276114
-5.292620
6.602655
10.810703
8.276703
2.408992
-2.978693
-5.550235
-5.026609
-2.361137
1.467011
6.046936
11.377054
17.425219
23.827541
29.722803
33.704769
34.237072
30.543524
23.164448
13.576201
3.390079
-6.072629
-13.844768
-19.305622
-21.852440
-20.465046
-14.388246
-4.846868
4.562671
10.011014
10.003852
5.917280
0.563010
-3.800740
-6.900005
-10.235183
-14.930677
-19.682819
-21.349602
-17.644041
-8.944604
2.145015
12.221968
18.392357
19.473051
16.496227
11.724534
7.102777
3.629694
1.475332
0.145946
-0.898234
-1.289440
-0.035228
2.789933
5.294944
5.193350
1.546545
-4.936126
-12.387207
-18.092295
-19.210329
-14.374426
-4.927508
5.612164
13.402124
15.892739
12.536294
4.726968
-5.135351
-15.095702
-24.285227
-32.270115
-38.175045
-40.453312
-37.241913
-27.147137
-10.402665
10.209798
29.822996
43.518044
48.387917
44.215958
32.959511
17.870050
2.630400
-9.573401
-17.009800
-19.795395
-19.197201
-16.281898
-11.109041
-3.206129
7.358413
19.551189
31.692537
41.757973
47.565815
47.319012
40.436954
27.965687
12.139922
-4.441599
-19.285788
-29.950222
-34.113274
-30.578697
-20.593815
-7.522558
5.447912
17.046391
27.174482
35.157154
39.340958
38.014729
30.414997
17.367060
1.314030
-14.572692
-27.627794
-36.195545
-39.098198
-35.026428
-23.200275
-5.029659
15.292841
32.247059
41.181252
40.075329
30.777958
18.726931
9.733213
5.497232
2.425285
-4.492583
-16.870260
-31.915997
-44.698544
-50.578178
-47.172565
-36.067883
-22.453579
-11.798960
-6.435763
-5.188952
-5.513157
-5.410599
-3.870755
-0.816076
2.568975
4.034061
1.889140
-3.085791
-7.538682
-7.841199
-2.861049
5.417748
13.713937
19.560726
21.982237
21.009756
17.229328
11.776788
6.103399
1.076496
-3.601600
-8.534700
-13.224976
-16.019157
-15.530002
-11.895990
-6.752689
-2.251701
0.001168
-0.415606
-2.711011
-5.434214
-7.334183
-8.241915
-9.481843
-13.066678
-19.812580
-27.918966
-33.497047
-32.829010
-24.721485
-11.482182
2.105356
11.493835
14.947516
13.881410
11.240531
9.857799
11.467468
15.951190
21.251591
24.764174
25.420916
24.396605
23.731411
24.474054
26.062338
26.927162
25.433540
20.639069
12.670977
2.866364
-6.243424
-11.894146
-13.079977
-11.460820
-9.653991
-8.651233
-7.176921
-3.397799
3.062303
10.550279
16.052490
16.338625
9.601882
-2.864560
-16.715254
-27.052231
-31.318542
-30.164303
-26.242939
-22.298302
-19.549824
-17.112095
-12.886157
-5.320115
5.265196
16.497461
24.872957
27.587820
24.334938
17.403307
9.965428
4.372330
1.538421
0.864660
0.388796
-2.288015
-8.365728
-16.795279
-24.978647
-30.581285
-32.419952
-29.802612
-22.089880
-9.618648
5.395526
19.628128
30.603567
37.832134
42.109585
44.168201
44.084267
41.376060
35.529099
26.831743
16.499149
5.676370
-5.193609
-15.665374
-24.256327
-28.316456
-25.266966
-14.845636
-0.497587
12.069736
18.363522
17.638231
12.812242
8.430865
8.029449
12.263140
19.088245
25.720814
30.313232
32.266533
32.299049
32.683498
36.003159
42.469604
49.024521
51.608143
47.682087
36.710041
19.867504
0.187503
-17.912006
-30.551521
-36.614536
-38.154030
-38.307587
-38.705276
-38.578922
-35.659069
-27.868393
-14.890879
1.206699
16.530767
26.739403
28.824610
22.526516
10.336728
-4.092545
-17.955400
-30.139254
-40.516781
-48.706291
-53.236729
-51.563190
-41.586643
-24.121078
-3.643842
14.046936
24.989508
28.367998
26.168049
22.417341
21.742964
26.930416
37.124577
48.395657
56.069939
57.080250
51.189758
40.350288
26.654545
11.228281
-4.749266
-18.979540
-28.924665
-33.481499
-33.296715
-29.778051
-24.532301
-19.613518
-17.212461
-18.561823
-23.483204
-31.061941
-40.505772
-51.446217
-63.812210
-77.745514
-93.461609
-110.509468
-126.754059
-138.312256
-140.995850
-132.447403
-113.590195
-88.514595
-62.978977
-42.427197
-30.361919
-27.630960
-32.736805
-42.453964
-52.361210
-58.193096
-57.938808
-52.446167
-43.549553
-31.985044
-17.491268
-0.538220
16.847828
32.150555
43.537132
49.619556
48.751194
39.478783
22.278543
1.106307
-17.060694
-25.024412
-18.599346
2.002678
32.865929
67.719254
99.107773
119.899246
125.706001
117.259644
100.458359
83.132812
70.722816
64.145653
60.747025
56.628536
48.616009
35.401375
18.117302
0.527550
-11.567388
-12.257435
1.585456
28.048904
60.390423
89.837883
108.814293
112.814301
101.450157
79.107521
53.785305
33.278519
20.987713
14.966012
10.509791
3.009646
-10.639504
-30.960695
-55.026203
-77.125603
-91.057602
-92.603226
-81.114326
-59.903427
-35.081402
-13.096426
1.843386
9.309077
12.287463
14.939333
20.047028
27.726587
35.637390
40.256985
38.663460
30.031874
16.029421
-0.127715
-15.279678
-27.527334
-36.409496
-42.232273
-45.280617
-45.608665
-43.590572
-40.548512
-38.424133
-38.616219
-41.290611
-45.763828
-51.282993
-57.370796
-63.510628
-68.743866
-71.855621
-71.808884
-67.665916
-58.329597
-43.082844
-22.820440
-0.745163
18.384268
30.147154
32.238358
25.135328
11.674993
-3.923857
-17.158611
-24.292061
-23.368717
-14.978453
-2.020373
11.770544
23.482639
31.991066
38.249790
44.739151
53.871799
66.234077
80.069176
92.268547
99.847878
101.086723
96.150078
86.913872
75.894394
65.056534
55.444405
47.674534
42.553829
41.030617
43.359833
48.295666
53.209900
55.203457
52.486870
45.157570
35.063450
24.982534
17.344706
12.909932
10.320596
7.089920
1.355594
-6.897080
-15.880371
-23.107788
-26.709347
-26.146072
-22.179689
-16.390875
-10.441901
-5.435998
-1.809892
0.475046
1.884840
3.115099
4.410615
5.013646
3.613865
-0.476214
-6.738625
-14.047652
-21.526579
-28.620352
-34.659962
-38.927662
-41.181290
-41.637688
-40.340630
-36.962807
-31.585718
-25.613640
-21.474737
-20.972492
-23.724035
-27.130398
-27.900074
-23.991238
-15.800716
-5.986145
1.867738
4.830652
1.757599
-6.221166
-16.099035
-24.341238
-28.451546
-27.793514
-23.468513
-17.764301
-13.426495
-12.531484
-15.282514
-19.785999
-23.218952
-23.394609
-19.500591
-11.970308
-2.305955
6.920897
12.605587
12.459415
6.238997
-4.147117
-15.799571
-26.457897
-35.259026
-42.241390
-47.611805
-51.474064
-53.713795
-53.819637
-50.817329
-43.517502
-31.322060
-15.261905
1.909310
17.049738
28.361341
36.117950
41.842529
46.729656
50.741741
52.931175
52.328964
48.528969
41.750031
32.843315
23.573586
16.556692
13.946197
15.466287
18.076132
18.291624
14.801910
8.639894
1.557415
-5.035377
-10.128497
-13.233791
-14.767061
-16.073938
-18.885651
-24.450153
-32.791046
-42.553577
-51.470917
-57.154835
-57.996876
-53.857159
-46.001999
-36.325928
-26.574680
-17.926846
-10.826338
-5.060907
-0.163661
4.016874
7.186495
9.219984
10.643744
12.045939
12.979429
11.885530
7.549675
0.663792
-6.231490
-10.190169
-9.057811
-1.912824
10.448893
25.049854
37.557198
44.594532
45.642769
42.805813
39.027588
36.512844
36.038563
36.813828
36.901791
34.394573
28.696280
20.910561
13.052751
6.745969
2.379351
-0.869281
-4.360128
-9.039018
-14.779370
-20.497923
-24.885609
-27.164946
-27.385120
-26.241825
-24.761454
-23.943708
-24.210869
-24.939714
-24.724426
-22.322645
-17.401245
-10.642566
-3.495836
2.308557
5.524052
6.069364
5.005340
3.693649
2.900114
2.563464
2.068339
0.621194
-2.326358
-6.690629
-11.692198
-16.214752
-19.232956
-19.969624
-17.976784
-13.333174
-6.632684
1.404054
10.214400
19.205833
27.467653
33.822163
37.142178
36.815884
33.237064
27.876715
22.749643
19.645720
19.439259
21.686890
24.927761
27.740339
29.726572
31.474466
33.636757
36.281094
39.081985
41.569542
42.929554
42.096001
38.434685
32.124069
23.805416
14.187751
4.183042
-4.694491
-10.336337
-10.822710
-5.610730
3.779609
14.177413
22.045582
24.924564
22.268845
15.322376
6.417701
-1.778733
-7.009649
-8.159367
-5.601534
-0.677221
5.519117
12.984231
22.465803
34.319462
47.592487
60.034626
68.958153
72.240395
68.881264
59.278667
45.529221
31.132614
19.377184
11.405944
5.958494
1.174384
-3.361823
-6.256465
-5.659544
-0.812398
7.421772
16.915672
24.884356
28.734442
27.230589
21.153069
12.692555
4.097719
-3.389279
-9.788839
-15.882743
-22.410048
-29.537380
-36.836361
-43.566689
-49.000347
-52.696838
-54.749908
-55.957981
-57.655499
-61.023289
-66.286613
-72.557785
-78.530647
-83.333794
-86.737473
-88.798157
-89.653191
-89.600739
-88.936462
-87.529129
-84.771065
-80.081093
-73.452866
-65.596382
-57.574539
-50.200874
-43.760929
-38.295662
-33.958122
-30.915012
-29.015150
-27.807201
-26.850124
-25.711828
-23.696066
-20.084936
-14.939318
-9.380510
-4.828714
-2.040815
-0.836100
-0.416204
0.180890
1.666389
4.260554
7.762530
11.758280
15.805167
19.666048
23.438494
27.372011
31.650928
36.363087
41.381001
46.151749
49.865730
52.026417
52.809147
52.808907
52.466759
51.812469
50.760742
49.471729
48.280811
47.367424
46.596794
45.715343
44.693821
43.728870
42.850899
41.779667
40.286938
38.458763
36.413033
33.912197
30.552244
26.409843
22.271240
19.019741
16.816305
14.876767
11.948640
7.044518
-0.088281
-8.962237
-18.578613
-27.670481
-34.995087
-39.706474
-41.673199
-41.530918
-40.367695
-39.180649
-38.449329
-38.096195
-37.758671
-37.138840
-36.296913
