EVENT_NAME: CENTRAL_ITALY
EVENT_ID: EMSC-20161030_0000029
EVENT_DATE_YYYYMMDD: 20161030
EVENT_TIME_HHMMSS: 064018
EVENT_LATITUDE_DEGREE: 42.8400
EVENT_LONGITUDE_DEGREE: 13.1100
EVENT_DEPTH_KM: 9.4
HYPOCENTER_REFERENCE: INGV-webservice
MAGNITUDE_W: 6.5
MAGNITUDE_W_REFERENCE: INGV-webservice
MAGNITUDE_L: 6.1
MAGNITUDE_L_REFERENCE: INGV-webservice
FOCAL_MECHANISM: NF
NETWORK: IT
STATION_CODE: NRC
STATION_NAME: NORCIA
STATION_LATITUDE_DEGREE: 42.792543
STATION_LONGITUDE_DEGREE: 13.096475
STATION_ELEVATION_M: 616
LOCATION: 
SENSOR_DEPTH_M: 0.0
VS30_M/S: 687
SITE_CLASSIFICATION_EC8: B
MORPHOLOGIC_CLASSIFICATION: SL
EPICENTRAL_DISTANCE_KM: 5.4
EARTHQUAKE_BACKAZIMUTH_DEGREE: 11.8
DATE_TIME_FIRST_SAMPLE_YYYYMMDD_HHMMSS: 20161030_064013.314
DATE_TIME_FIRST_SAMPLE_PRECISION: milliseconds
SAMPLING_INTERVAL_S: 0.005000
NDATA: 10000
DURATION_S: 50.000
STREAM: HGZ
UNITS: cm/s
INSTRUMENT: sensor = Unknown [Unknown] | digitizer = Unknown [Unknown]
INSTRUMENT_ANALOG/DIGITAL: D
INSTRUMENTAL_FREQUENCY_HZ: 
INSTRUMENTAL_DAMPING: 
FULL_SCALE_G: 
N_BIT_DIGITAL_CONVERTER: 
PGV_CM/S: 25.596858
TIME_PGV_S: 13.975000
BASELINE_CORRECTION: BASELINE REMOVED
FILTER_TYPE: BUTTERWORTH
FILTER_ORDER: 2
LOW_CUT_FREQUENCY_HZ: 0.100
HIGH_CUT_FREQUENCY_HZ: 50.000
LATE/NORMAL_TRIGGERED: NT
DATABASE_VERSION: DYNA 1.0
HEADER_FORMAT: DYNA 1.2
DATA_TYPE: VELOCITY
PROCESSING: manual (Paolucci et al., 2011)
DATA_TIMESTAMP_YYYYMMDD_HHMMSS: 20161030_132633.881
DATA_LICENSE: CC-BY3_0-IT (http://creativecommons.org/licenses/by/3.0/deed.en)
DATA_CITATION: ESM working group (2015), European Strong-Motion database, version 0.1, Network Activity 3: Networking acceleration networks and SM data users. Project NERA (www.nera-eu.org)
DATA_CREATOR: ESM working group
ORIGINAL_DATA_MEDIATOR_CITATION: Ufficio Rischio Sismico e Vulcanico del Dipartimento della Protezione Civile (http://www.protezionecivile.gov.it/)
ORIGINAL_DATA_MEDIATOR: Rete Accelerometrica Nazionale - RAN Download (http://www.mot1.it/randownload/)
ORIGINAL_DATA_CREATOR_CITATION: Italian Strong Motion Network, Italian Civil Protection Department http://www.protezionecivile.gov.it
ORIGINAL_DATA_CREATOR: network: IT (Italian Strong Motion Network); owner: Dipartimento Della Protezione Civile
USER1: /home/dyna/processing-itaca/processing.py /var/www/processing//tmp/Lucia//IT.NRC..HGE.D.20161030.064018.X.ACC.ASC /var/www/processing//tmp/Lucia//IT.NRC..HGN.D.20161030.064018.X.ACC.ASC /var/www/processing//tmp/Lucia//IT.NRC..HGZ.D.20161030.064018.X.ACC.ASC --tmp /var/www/processing//tmp/Lucia/ --le 0.100 --he 50.000 --ln 0.100 --hn 50.000 --lz 0.100 --hz 50.000 --fo 2 --ca 0 --cz 130 --ta 5 --tz 5 --mf 1 --rf 0 --tr NT
USER2: 
USER3: 
USER4: 
USER5: 
[...]
-0.408682
-0.241163
-0.160715
-0.186477
-0.302481
-0.477219
-0.656239
-0.768228
-0.769894
-0.694033
-0.638119
-0.687038
-0.852586
-1.090937
-1.352612
-1.599799
-1.799562
-1.929150
-1.987474
-1.986466
-1.934320
-1.842582
-1.738430
-1.651392
-1.603708
-1.615713
-1.684483
-1.761970
-1.799263
-1.805931
-1.831112
-1.902188
-2.007769
-2.117433
-2.186438
-2.150156
-1.949771
-1.585379
-1.135374
-0.712137
-0.405392
-0.258136
-0.252627
-0.303851
-0.303868
-0.197190
-0.009845
0.183334
0.306820
0.318057
0.223739
0.080487
-0.027141
-0.034928
0.068044
0.259019
0.506191
0.757785
0.947607
1.043909
1.071228
1.068417
1.055790
1.057039
1.109889
1.227419
1.378669
1.528623
1.676714
1.846938
2.060756
2.314902
2.553106
2.666849
2.564220
2.250205
1.830579
1.435593
1.143307
0.969452
0.892565
0.858794
0.800803
0.695155
0.578546
0.500839
0.498211
0.590732
0.760779
0.955668
1.132048
1.276803
1.391814
1.482932
1.555663
1.609587
1.642800
1.664241
1.695317
1.749499
1.814601
1.877006
1.952838
2.061051
2.180890
2.265605
2.277869
2.197662
2.025857
1.796463
1.565674
1.376063
1.240944
1.166033
1.169028
1.264966
1.439662
1.651220
1.859492
2.046644
2.207783
2.334775
2.428480
2.524606
2.672476
2.869120
3.043497
3.127592
3.123955
3.092794
3.092866
3.144424
3.231244
3.324305
3.403303
3.449717
3.425260
3.289925
3.057189
2.805690
2.621478
2.555931
2.636463
2.856744
3.144730
3.389678
3.506302
3.463398
3.288375
3.059915
2.861054
2.723475
2.625465
2.531384
2.424977
2.327021
2.287419
2.342576
2.483502
2.671703
2.866718
3.035128
3.161535
3.259476
3.350412
3.422580
3.423676
3.306621
3.077225
2.788090
2.496264
2.238753
2.033898
1.881871
1.766568
1.677801
1.627579
1.622908
1.629551
1.582643
1.428913
1.156890
0.800994
0.421387
0.078209
-0.180714
-0.331815
-0.395364
-0.433249
-0.507379
-0.634579
-0.786027
-0.926424
-1.043359
-1.135430
-1.181834
-1.140917
-0.982947
-0.717020
-0.389985
-0.067958
0.188498
0.347168
0.406052
0.371039
0.244856
0.044252
-0.194735
-0.443319
-0.690127
-0.907320
-1.030141
-0.997726
-0.807454
-0.519957
-0.219437
0.032047
0.214190
0.335516
0.413107
0.459391
0.470817
0.430719
0.332142
0.196946
0.076309
0.034582
0.123629
0.367898
0.770105
1.315286
1.962524
2.652257
3.336633
3.994635
4.615609
5.179175
5.658064
6.040901
6.346321
6.608673
6.844722
7.032993
7.136590
7.142713
7.070197
6.965005
6.905926
6.985299
7.255376
7.684969
8.166681
8.569615
8.791497
8.778471
8.525861
8.074408
7.497771
6.884698
6.315536
5.832713
5.440782
5.146548
4.971517
4.907381
4.900303
4.915364
4.982711
5.140065
5.354841
5.530262
5.569045
5.424388
5.112145
4.688266
4.221738
3.795523
3.511015
3.445229
3.590759
3.866841
4.204666
4.607846
5.120850
5.745721
6.389548
6.883774
7.066638
6.877270
6.385730
5.740066
5.102190
4.632679
4.483060
4.738509
5.363200
6.227811
7.192802
8.185166
9.240730
10.471562
11.940627
13.529353
14.945531
15.897779
16.258558
16.076216
15.517999
14.845931
14.378851
14.382888
14.950695
15.966177
17.176218
18.319422
19.231394
19.859619
20.208958
20.311708
20.254858
20.172337
20.134953
20.079323
19.920710
19.689985
19.493872
19.400093
19.416857
19.529787
19.709005
19.905762
20.061087
20.118050
20.047680
19.856411
19.538395
19.035370
18.271593
17.224051
15.950401
14.564536
13.204446
12.003825
11.050000
10.356309
9.873396
9.509479
9.166963
8.804024
8.430389
8.027583
7.533793
6.909210
6.162372
5.327576
4.457995
3.633685
2.950557
2.470308
2.160363
1.908075
1.612060
1.243818
0.844931
0.496060
0.251177
0.087926
-0.033765
-0.095935
-0.086223
-0.106401
-0.320862
-0.795224
-1.451489
-2.173534
-2.896777
-3.611755
-4.330732
-5.038328
-5.668646
-6.156853
-6.488564
-6.666088
-6.652983
-6.385694
-5.850177
-5.138690
-4.414638
-3.814521
-3.363024
-2.975264
-2.567824
-2.148749
-1.765798
-1.416041
-1.058269
-0.681738
-0.325703
-0.038044
0.190515
0.454437
0.869531
1.487014
2.289088
3.221836
4.194279
5.082361
5.769521
6.207149
6.459753
6.654285
6.860225
7.077357
7.330175
7.676975
8.137096
8.694678
9.358481
10.145996
11.015104
11.874607
12.659376
13.326393
13.786461
13.939603
13.801154
13.511248
13.188607
12.837702
12.424835
11.969089
11.498168
10.958313
10.232296
9.260474
8.128232
7.008906
6.021732
5.176751
4.445855
3.827021
3.323870
2.903628
2.496375
2.032904
1.494496
0.923837
0.359799
-0.238627
-0.959176
-1.801942
-2.619930
-3.236435
-3.584619
-3.692441
-3.605334
-3.416708
-3.321260
-3.522954
-4.089749
-4.944261
-5.940206
-6.880727
-7.535192
-7.748361
-7.529523
-7.015049
-6.399654
-5.896678
-5.647958
-5.619076
-5.623903
-5.444638
-4.897885
-3.858587
-2.340268
-0.573340
1.064723
2.258261
2.924177
3.199860
3.289982
3.349291
3.474632
3.705747
3.992747
4.210692
4.246123
4.074951
3.751140
3.335562
2.859556
2.331420
1.739233
1.054572
0.249091
-0.687398
-1.725550
-2.777851
-3.711248
-4.392949
-4.739011
-4.745223
-4.480650
-4.029177
-3.432214
-2.702067
-1.868205
-0.986091
-0.138969
0.534107
0.858517
0.731472
0.195524
-0.625856
-1.641001
-2.811392
-4.083535
-5.331939
-6.390540
-7.156620
-7.656910
-8.004919
-8.312822
-8.641593
-9.003224
-9.388188
-9.767563
-10.058733
-10.134713
-9.932708
-9.565621
-9.272021
-9.212651
-9.350355
-9.562555
-9.804185
-10.090307
-10.385015
-10.608134
-10.727683
-10.787586
-10.866509
-11.032864
-11.320430
-11.736394
-12.288516
-12.993550
-13.853347
-14.825196
-15.824080
-16.753403
-17.527201
-18.081547
-18.394545
-18.494984
-18.438875
-18.278887
-18.047194
-17.744467
-17.335365
-16.760090
-15.964652
-14.941831
-13.753613
-12.498039
-11.242292
-10.004614
-8.798642
-7.660725
-6.629990
-5.723472
-4.926481
-4.205299
-3.543719
-2.944040
-2.371248
-1.734266
-0.949077
-0.014949
0.966972
1.857005
2.566504
3.082528
3.443519
3.730646
4.044251
4.435855
4.873851
5.294500
5.655904
5.917327
5.998097
5.798215
5.264222
4.426844
3.382644
2.252619
1.155003
0.201788
-0.501591
-0.879132
-0.911212
-0.630030
-0.102539
0.575522
1.300621
1.993036
2.600431
3.083380
3.414119
3.588736
3.635114
3.605375
3.552744
3.502541
3.439780
3.321199
3.091031
2.700313
2.145778
1.489459
0.812509
0.164266
-0.410474
-0.823319
-0.975718
-0.830098
-0.409530
0.242228
1.050531
1.899360
2.684025
3.346295
3.836715
4.091211
4.076821
3.826253
3.398651
2.833682
2.168370
1.460380
0.756702
0.072590
-0.569141
-1.115508
-1.527882
-1.817505
-2.012998
-2.127507
-2.188589
-2.265930
-2.425447
-2.666069
-2.923674
-3.119752
-3.188021
-3.081136
-2.798336
-2.420920
-2.097037
-1.964217
-2.075884
-2.393443
-2.825238
-3.259902
-3.581911
-3.689084
-3.526394
-3.122942
-2.594584
-2.088517
-1.699581
-1.433575
-1.255030
-1.153593
-1.148238
-1.257666
-1.507656
-1.948707
-2.618314
-3.483293
-4.444509
-5.391554
-6.235415
-6.909342
-7.377700
-7.665405
-7.870655
-8.117563
-8.488112
-9.011856
-9.690697
-10.490784
-11.319934
-12.056903
-12.630259
-13.052131
-13.364618
-13.593982
-13.774077
-13.973159
-14.269173
-14.699166
-15.227412
-15.752157
-16.149145
-16.328377
-16.261196
-15.967285
-15.495090
-14.921502
-14.361082
-13.929929
-13.655759
-13.450701
-13.202698
-12.861350
-12.426098
-11.902008
-11.297917
-10.646500
-9.997598
-9.388387
-8.822205
-8.273276
-7.720791
-7.173976
-6.645989
-6.119669
-5.565138
-4.986845
-4.448146
-4.055813
-3.899685
-3.975905
-4.170973
-4.323981
-4.307285
-4.077374
-3.662597
-3.112117
-2.488638
-1.898480
-1.477482
-1.323932
-1.445426
-1.761714
-2.137226
-2.422122
-2.508313
-2.360028
-1.988554
-1.427702
-0.753691
-0.107387
0.340977
0.481393
0.327318
-0.019645
-0.463259
-0.957903
-1.472756
-1.944977
-2.290811
-2.456592
-2.442236
-2.274969
-1.982781
-1.614421
-1.266961
-1.049380
-1.016172
-1.163819
-1.460237
-1.827701
-2.140483
-2.307032
-2.331897
-2.261584
-2.119656
-1.940008
-1.817805
-1.875936
-2.187317
-2.742856
-3.478314
-4.302539
-5.098217
-5.745504
-6.203319
-6.567299
-7.006450
-7.637874
-8.482404
-9.503098
-10.615617
-11.661283
-12.442538
-12.840002
-12.898775
-12.795233
-12.721663
-12.785676
-12.984881
-13.245421
-13.467012
-13.538191
-13.342955
-12.801323
-11.939522
-10.920130
-9.978478
-9.309055
-8.990989
-8.986916
-9.180776
-9.414347
-9.535316
-9.466150
-9.235313
-8.935699
-8.657609
-8.447675
-8.303856
-8.193662
-8.078452
-7.931723
-7.749123
-7.553365
-7.374009
-7.185405
-6.870693
-6.296044
-5.432303
-4.371811
-3.229598
-2.076168
-0.964906
0.043682
0.916268
1.676467
2.383946
3.078185
3.730618
4.266808
4.650474
4.923363
5.151577
5.356392
5.508700
5.566096
5.489570
5.243139
4.818420
4.261498
3.649388
3.038131
2.451054
1.904965
1.406702
0.920211
0.371871
-0.302755
-1.126855
-2.089239
-3.167267
-4.332193
-5.543622
-6.757556
-7.931359
-9.013599
-9.947663
-10.695878
-11.248226
-11.600255
-11.732987
-11.631533
-11.337695
-10.974453
-10.690075
-10.576596
-10.643407
-10.845626
-11.135540
-11.492505
-11.899389
-12.310826
-12.662786
-12.909481
-13.051100
-13.126205
-13.164411
-13.122759
-12.867289
-12.257310
-11.270803
-10.019058
-8.634164
-7.190755
-5.737632
-4.337790
-3.046107
-1.874055
-0.797522
0.205420
1.124612
1.920698
2.564709
3.062637
3.433294
3.692137
3.859796
3.957563
3.993807
3.971572
3.913250
3.866622
3.877480
3.961403
4.108777
4.309330
4.553978
4.811643
5.016541
5.090255
4.996271
4.770374
4.479469
4.157704
3.781556
3.296436
2.672660
1.935746
1.156652
0.432671
-0.146534
-0.531585
-0.694848
-0.603124
-0.244138
0.339632
1.059325
1.815445
2.541736
3.235318
3.947975
4.730419
5.552850
6.280252
6.762523
6.953645
6.915812
6.730333
6.448061
6.106679
5.757795
5.463011
5.256043
5.115706
4.974928
4.747302
4.365102
3.806226
3.076357
2.171909
1.071524
-0.245026
-1.778399
-3.499058
-5.336701
-7.173729
-8.863409
-10.273225
-11.315277
-11.952297
-12.203352
-12.142221
-11.873359
-11.488257
-11.031664
-10.533336
-10.059758
-9.683490
-9.411871
-9.186944
-8.964656
-8.754956
-8.558099
-8.331367
-8.060381
-7.798562
-7.608701
-7.515320
-7.528710
-7.673730
-7.981153
-8.455765
-9.036674
-9.599133
-10.020618
-10.238611
-10.236498
-10.001815
-9.527623
-8.838100
-7.996542
-7.092696
-6.199281
-5.329202
-4.457703
-3.582402
-2.736371
-1.950746
-1.242947
-0.647301
-0.222178
-0.018194
-0.052872
-0.294618
-0.644687
-0.960674
-1.136965
-1.163828
-1.098830
-0.991602
-0.853450
-0.690432
-0.533786
-0.420129
-0.347213
-0.272743
-0.174431
-0.093555
-0.098506
-0.219533
-0.434776
-0.698251
-0.959892
-1.177159
-1.326698
-1.395381
-1.366361
-1.244789
-1.083953
-0.947666
-0.862669
-0.823198
-0.812107
-0.814736
-0.830364
-0.861538
-0.898628
-0.940965
-1.017331
-1.152242
-1.324931
-1.477747
-1.546643
-1.487056
-1.293487
-0.990491
-0.604071
-0.162633
0.281714
0.666799
0.954343
1.134273
1.210432
1.199332
1.136459
1.066971
1.033563
1.081577
1.251237
1.552594
1.956303
2.402059
2.823483
3.186299
3.517950
3.904327
4.443666
5.195658
6.166517
7.317402
8.577122
9.861738
11.098765
12.245083
13.294995
14.273903
15.208892
16.098696
16.916836
17.633568
18.225531
18.670752
18.939884
19.000200
18.838552
18.479795
17.978918
17.395210
16.771301
16.131140
15.486934
14.837733
14.171326
13.479103
12.767671
12.060886
11.386238
10.753166
10.150465
9.552430
8.924534
8.238986
7.483544
6.662798
5.802015
4.938206
4.104891
3.331277
2.648169
2.085932
1.659767
1.354463
1.134315
0.972141
0.860441
0.791629
0.738473
0.673358
0.603848
0.568896
0.605441
0.725636
0.907059
1.093115
1.204266
1.154131
0.874879
0.340103
-0.441075
-1.440048
-2.600265
-3.829041
-5.021095
-6.082652
-6.933339
-7.508977
-7.771354
-7.717107
-7.384966
-6.844920
-6.166326
-5.398363
-4.580620
-3.755892
-2.958419
-2.200537
-1.488054
-0.842709
-0.301044
0.103324
0.359665
0.493058
0.550314
0.559349
0.510535
0.390297
0.220167
0.048228
-0.089352
-0.188114
-0.264604
-0.336498
-0.407206
-0.456053
-0.439267
-0.310542
-0.056284
0.286322
0.649174
0.967823
1.205270
1.359405
1.454453
1.528505
1.625461
1.784293
2.032277
2.391750
2.884416
3.528768
4.348140
5.373764
6.604787
7.952073
9.253776
10.370683
11.252887
11.916726
12.391098
12.699747
12.880391
12.999843
13.131233
13.312040
13.532337
13.764984
14.007334
14.295042
14.666183
15.115867
15.608385
16.126984
16.680441
17.263304
17.840834
18.379107
18.867182
19.299576
19.652113
19.889036
19.988144
19.948208
19.775873
19.475401
19.047991
18.490606
17.800255
16.995914
16.137381
15.313813
14.619543
14.145376
13.977602
14.185327
14.795626
15.774057
17.030684
18.449251
19.918753
21.350613
22.672609
23.813332
24.705816
25.305845
25.596857
25.583937
25.294603
24.776854
24.085289
23.273729
22.403297
21.548952
20.791857
20.205132
19.837694
19.695349
19.743240
19.940252
20.250620
20.597103
20.833878
20.819178
20.511229
19.965914
19.260105
18.442413
17.543440
16.603848
15.667564
14.741470
13.785774
12.763186
11.682880
10.587435
9.523477
8.538737
7.679008
6.970128
6.412580
5.982918
5.625345
5.264575
4.844966
4.349862
3.791510
3.192350
2.571997
1.947732
1.328584
0.699894
0.033974
-0.677965
-1.412781
-2.128276
-2.778402
-3.313976
-3.684956
-3.864205
-3.865923
-3.730552
-3.503174
-3.234775
-2.992891
-2.856429
-2.884821
-3.086266
-3.428764
-3.884371
-4.450126
-5.130344
-5.916174
-6.783896
-7.697998
-8.614175
-9.491160
-10.294617
-10.978856
-11.479342
-11.750034
-11.811091
-11.744564
-11.642266
-11.552957
-11.456322
-11.279224
-10.943340
-10.400259
-9.637327
-8.680453
-7.605111
-6.534817
-5.606093
-4.903013
-4.410397
-4.039233
-3.697531
-3.333082
-2.932523
-2.509911
-2.098203
-1.743289
-1.498823
-1.412045
-1.504907
-1.765391
-2.159090
-2.657251
-3.249759
-3.926885
-4.661654
-5.415216
-6.148574
-6.827223
-7.424059
-7.924914
-8.332723
-8.661253
-8.914311
-9.062626
-9.044927
-8.809949
-8.365516
-7.773706
-7.099005
-6.379095
-5.642666
-4.938870
-4.346099
-3.949322
-3.801199
-3.904565
-4.230415
-4.740045
-5.382261
-6.081614
-6.744696
-7.277752
-7.600627
-7.663708
-7.473441
-7.106459
-6.682797
-6.299918
-5.982584
-5.705117
-5.449773
-5.211457
-4.953357
-4.593460
-4.042685
-3.259897
-2.291455
-1.257965
-0.282050
0.576283
1.320180
1.976524
2.564563
3.090485
3.558424
3.974322
4.332689
4.603152
4.737926
4.701186
4.503519
4.220567
3.972579
3.866894
3.950430
4.206334
4.580043
5.004444
5.406915
5.709848
5.849730
5.814874
5.669491
5.526472
5.478159
5.545215
5.676321
5.780610
5.768147
5.575584
5.172930
4.577486
3.875583
3.212163
2.730949
2.502769
2.495095
2.606299
2.740937
2.861789
2.976836
3.085129
3.136215
3.048087
2.769255
2.312228
1.727075
1.060201
0.342451
-0.402701
-1.149976
-1.860126
-2.485339
-3.006234
-3.445859
-3.825847
-4.128767
-4.321876
-4.398922
-4.388270
-4.338564
-4.296068
-4.278871
-4.275408
-4.269673
-4.259443
-4.253556
-4.257459
-4.257959
-4.222774
-4.117554
-3.919410
-3.625197
-3.262774
-2.875003
-2.474818
-2.038770
-1.551722
-1.022363
-0.445731
0.204611
0.917744
1.605646
2.152920
2.497463
2.654072
2.683979
2.655970
2.617434
2.585205
2.562451
2.562250
2.611464
2.729725
2.901749
3.074641
3.188420
3.204374
3.108266
2.908284
2.632616
2.311019
1.961696
1.601378
1.243886
0.878415
0.470726
-0.001563
-0.513619
-0.986367
-1.315114
-1.418661
-1.272240
-0.907484
-0.405323
0.110387
0.506323
0.691267
0.643167
0.407593
0.090213
-0.170889
-0.277195
-0.234328
-0.132456
-0.071667
-0.117214
-0.294095
-0.576397
-0.865608
-1.013293
-0.922921
-0.641673
-0.318634
-0.085773
-0.021861
-0.180969
-0.563461
-1.072724
-1.561714
-1.922275
-2.129286
-2.246287
-2.407722
-2.754123
-3.351221
-4.165872
-5.092002
-5.976063
-6.658283
-7.049050
-7.180520
-7.179888
-7.191798
-7.310545
-7.559059
-7.908964
-8.307294
-8.693348
-9.020739
-9.287406
-9.545910
-9.873100
-10.311456
-10.820937
-11.282744
-11.559458
-11.559850
-11.255925
-10.668482
-9.863719
-8.950937
-8.049973
-7.242634
-6.551692
-5.956040
-5.410125
-4.859974
-4.275986
-3.682219
-3.140936
-2.703699
-2.377046
-2.126431
-1.901837
-1.660589
-1.377772
-1.043683
-0.662240
-0.259709
0.120835
0.449414
0.724221
0.956067
1.155616
1.326115
1.447749
1.487513
1.440453
1.341292
1.227144
1.108120
0.989273
0.907762
0.917341
1.030546
1.195559
1.327190
1.347754
1.215016
0.929585
0.512897
-0.018462
-0.650690
-1.348983
-2.036265
-2.611178
-3.018299
-3.300142
-3.565189
-3.915750
-4.404715
-5.033495
-5.779859
-6.631301
-7.590279
-8.639031
-9.692350
-10.598119
-11.198218
-11.389684
-11.148745
-10.527722
-9.628913
-8.560133
-7.399760
-6.200741
-5.033641
-4.014738
-3.247776
-2.718827
-2.295642
-1.864731
-1.433129
-1.068771
-0.780296
-0.497721
-0.159167
0.223339
0.587834
0.884074
1.113096
1.321819
1.553806
1.808590
2.062076
2.318688
2.622310
3.008118
3.458390
3.919791
4.354389
4.758752
5.132277
5.434334
5.579357
5.476434
5.079946
4.415961
3.573570
2.672879
1.817482
1.050137
0.355785
-0.296285
-0.939331
-1.627890
-2.425807
-3.358593
-4.386439
-5.429023
-6.414236
-7.304949
-8.093748
-8.787478
-9.395590
-9.918299
-10.341579
-10.661808
-10.919580
-11.183363
-11.491232
-11.819225
-12.097317
-12.253222
-12.256976
-12.126653
-11.901460
-11.629828
-11.370275
-11.176982
-11.082494
-11.095901
-11.210042
-11.407074
-11.660067
-11.940270
-12.233579
-12.544183
-12.872410
-13.197680
-13.496964
-13.769513
-14.023689
-14.244629
-14.390581
-14.418854
-14.308025
-14.068257
-13.746328
-13.405763
-13.080927
-12.757075
-12.401658
-11.997392
-11.534833
-10.997166
-10.375433
-9.687344
-8.969228
-8.264215
-7.619682
-7.066780
-6.600850
-6.205480
-5.877741
-5.612737
-5.398358
-5.239223
-5.151168
-5.121955
-5.100964
-5.028217
-4.850508
-4.509916
-3.951484
-3.163184
-2.190735
-1.107097
0.014623
1.111747
2.148710
3.123745
4.046216
4.909026
5.687170
6.355466
6.891807
7.270376
7.477806
7.534134
7.484020
7.366540
7.192566
6.956973
6.670935
6.368657
6.088195
5.858247
5.700982
5.629356
5.630760
5.671643
5.715007
5.723597
5.677176
5.589068
5.490737
5.414366
5.387118
