EVENT_NAME: CENTRAL_ITALY
EVENT_ID: EMSC-20161030_0000029
EVENT_DATE_YYYYMMDD: 20161030
EVENT_TIME_HHMMSS: 064018
EVENT_LATITUDE_DEGREE: 42.8400
EVENT_LONGITUDE_DEGREE: 13.1100
EVENT_DEPTH_KM: 9.4
HYPOCENTER_REFERENCE: INGV-webservice
MAGNITUDE_W: 6.5
MAGNITUDE_W_REFERENCE: INGV-webservice
MAGNITUDE_L: 6.1
MAGNITUDE_L_REFERENCE: INGV-webservice
FOCAL_MECHANISM: NF
NETWORK: IT
STATION_CODE: NRC
STATION_NAME: NORCIA
STATION_LATITUDE_DEGREE: 42.792543
STATION_LONGITUDE_DEGREE: 13.096475
STATION_ELEVATION_M: 616
LOCATION: 
SENSOR_DEPTH_M: 0.0
VS30_M/S: 687
SITE_CLASSIFICATION_EC8: B
MORPHOLOGIC_CLASSIFICATION: SL
EPICENTRAL_DISTANCE_KM: 5.4
EARTHQUAKE_BACKAZIMUTH_DEGREE: 11.8
DATE_TIME_FIRST_SAMPLE_YYYYMMDD_HHMMSS: 20161030_064013.314
DATE_TIME_FIRST_SAMPLE_PRECISION: milliseconds
SAMPLING_INTERVAL_S: 0.005000
NDATA: 10000
DURATION_S: 50.000
STREAM: HGE
UNITS: cm/s^2
INSTRUMENT: sensor = Unknown [Unknown] | digitizer = Unknown [Unknown]
INSTRUMENT_ANALOG/DIGITAL: D
INSTRUMENTAL_FREQUENCY_HZ: 
INSTRUMENTAL_DAMPING: 
FULL_SCALE_G: 
N_BIT_DIGITAL_CONVERTER: 
PGA_CM/S^2: 476.427926
TIME_PGA_S: 12.325000
BASELINE_CORRECTION: BASELINE REMOVED
FILTER_TYPE: BUTTERWORTH
FILTER_ORDER: 2
LOW_CUT_FREQUENCY_HZ: 0.100
HIGH_CUT_FREQUENCY_HZ: 50.000
LATE/NORMAL_TRIGGERED: NT
DATABASE_VERSION: DYNA 1.0
HEADER_FORMAT: DYNA 1.2
DATA_TYPE: ACCELERATION
PROCESSING: manual (Paolucci et al., 2011)
DATA_TIMESTAMP_YYYYMMDD_HHMMSS: 20161030_132633.881
DATA_LICENSE: CC-BY3_0-IT (http://creativecommons.org/licenses/by/3.0/deed.en)
DATA_CITATION: ESM working group (2015), European Strong-Motion database, version 0.1, Network Activity 3: Networking acceleration networks and SM data users. Project NERA (www.nera-eu.org)
DATA_CREATOR: ESM working group
ORIGINAL_DATA_MEDIATOR_CITATION: Ufficio Rischio Sismico e Vulcanico del Dipartimento della Protezione Civile (http://www.protezionecivile.gov.it/)
ORIGINAL_DATA_MEDIATOR: Rete Accelerometrica Nazionale - RAN Download (http://www.mot1.it/randownload/)
ORIGINAL_DATA_CREATOR_CITATION: Italian Strong Motion Network, Italian Civil Protection Department http://www.protezionecivile.gov.it
ORIGINAL_DATA_CREATOR: network: IT (Italian Strong Motion Network); owner: Dipartimento Della Protezione Civile
USER1: /home/dyna/processing-itaca/processing.py /var/www/processing//tmp/Lucia//IT.NRC..HGE.D.20161030.064018.X.ACC.ASC /var/www/processing//tmp/Lucia//IT.NRC..HGN.D.20161030.064018.X.ACC.ASC /var/www/processing//tmp/Lucia//IT.NRC..HGZ.D.20161030.064018.X.ACC.ASC --tmp /var/www/processing//tmp/Lucia/ --le 0.100 --he 50.000 --ln 0.100 --hn 50.000 --lz 0.100 --hz 50.000 --fo 2 --ca 0 --cz 130 --ta 5 --tz 5 --mf 1 --rf 0 --tr NT
USER2: 
USER3: 
USER4: 
USER5: 
[...]
2.535266
2.626279
2.580493
2.654015
2.748729
2.332586
1.512114
1.078016
1.069221
0.761939
0.194921
-0.036589
-0.079648
-0.252879
-0.099566
0.599667
1.067968
1.015098
1.457313
2.871884
4.091203
4.022758
3.080877
2.216722
1.619246
1.223306
1.529917
2.544186
3.054183
2.361485
1.238624
0.518524
0.166742
-0.240723
-0.757107
-0.922288
-0.638894
-0.397179
-0.305837
-0.241434
-0.511725
-1.020936
-1.007557
-0.360424
0.369078
1.387256
3.345405
5.589652
6.825898
7.375622
8.161527
8.460545
7.572885
6.828973
7.350089
8.109202
8.067077
7.789174
7.694429
6.950586
5.038294
2.821177
1.171850
-0.306915
-1.965985
-2.916113
-2.470309
-1.082673
0.471762
1.397849
1.299304
0.735230
0.114692
-1.002609
-2.575569
-3.624708
-3.478499
-2.324917
-0.727284
0.898033
2.325889
2.932334
2.166842
0.996670
0.578791
0.210870
-0.591219
-0.886533
-1.020514
-2.034567
-2.710905
-1.669959
-0.292710
-0.458561
-1.821429
-2.900193
-3.330686
-3.854052
-4.225270
-3.258565
-1.321063
0.372807
2.256094
5.159440
8.454165
11.171151
12.931148
13.306173
12.053525
9.925145
7.925259
6.409900
5.523481
5.462327
5.846216
5.241966
2.578714
-0.786736
-2.747125
-3.643835
-4.882911
-5.996831
-6.037536
-5.931242
-6.747173
-7.287776
-5.657416
-2.047857
1.571684
3.743545
4.708874
5.655697
7.279249
9.596772
12.693906
16.342392
19.149727
19.677746
18.464460
17.313002
16.840630
16.234154
14.451025
11.046306
6.717811
2.425761
-1.474507
-4.157563
-4.735630
-4.109317
-3.679001
-3.789773
-5.377447
-9.569046
-14.820067
-18.415468
-19.836344
-19.470463
-16.874844
-12.325203
-7.213799
-2.873784
-0.213877
0.638216
-0.253501
-3.282762
-7.182697
-8.617349
-6.343695
-2.139106
3.111053
8.955045
12.681749
12.944174
12.125465
11.921164
12.342680
14.064848
16.742311
18.935301
20.825464
22.437611
21.784616
17.772884
11.551691
4.497564
-2.557320
-7.998362
-9.253361
-5.722699
-0.120641
4.634873
6.851885
5.484373
2.370348
1.502936
3.298794
4.964404
6.462258
10.182149
16.278107
22.153870
25.016144
24.023987
20.217592
14.396407
7.289395
1.526243
-0.190654
1.514266
3.550862
3.356140
-0.328344
-7.473004
-15.270204
-18.486315
-14.730451
-7.921931
-3.134039
-0.202906
3.654383
7.281556
7.200406
4.074658
1.311839
-0.395230
-1.846536
-1.845281
1.820485
9.419881
18.028122
23.709898
25.379072
25.409779
26.214441
27.711016
28.863598
29.756632
30.071651
27.604284
21.363495
13.867425
7.481483
1.940926
-2.410177
-4.362811
-5.924286
-9.842617
-13.747089
-13.658623
-10.440841
-6.980203
-3.343126
0.671105
2.302816
-0.667591
-5.557208
-8.145063
-9.480137
-14.446094
-23.834984
-33.184731
-38.660454
-38.427994
-30.392715
-15.080263
1.433743
12.373408
15.808704
13.849391
9.431770
5.291654
4.860859
10.709087
20.084236
26.503630
28.086967
28.588121
29.045589
26.242840
20.642719
17.001724
15.902748
13.143272
7.934121
4.139081
3.414178
3.539527
3.290498
2.810656
-0.019827
-6.235646
-10.381002
-6.408265
3.375689
11.410025
14.164648
14.439213
15.907376
19.149979
24.431093
33.119884
42.687191
46.811317
43.872166
38.436401
34.078999
31.801916
32.377243
34.075069
32.453499
25.418783
14.618940
2.643463
-8.025886
-15.342110
-19.359318
-22.959593
-29.275480
-38.294941
-48.023720
-58.146065
-68.992065
-78.270531
-83.203041
-84.414139
-83.879555
-81.419502
-76.569466
-71.083260
-67.178375
-65.863693
-67.667526
-72.641663
-79.797081
-87.367310
-92.833138
-93.967201
-91.300095
-87.277611
-82.303429
-75.051140
-66.942993
-61.906330
-60.834702
-60.596165
-59.427265
-59.187965
-61.476330
-65.048691
-67.490196
-66.677544
-61.155766
-51.656258
-41.142403
-31.166058
-20.045816
-6.661529
6.965446
19.121649
30.242250
39.018047
41.961094
38.686260
32.306618
24.962530
17.867310
12.907036
9.940200
5.987227
-0.706705
-9.420656
-19.478899
-30.220156
-40.530048
-51.092854
-63.719032
-77.588303
-89.485802
-96.809532
-98.467606
-95.163551
-89.537956
-84.164879
-79.574295
-74.526093
-67.591331
-58.850979
-49.780331
-41.032257
-31.686886
-21.348932
-11.652393
-5.063479
-3.622689
-8.803110
-19.788910
-32.496067
-43.255531
-51.657753
-58.387501
-63.551132
-67.636063
-71.544952
-75.919250
-81.268318
-87.389252
-92.308640
-93.654167
-91.651573
-89.181847
-88.446205
-88.729553
-87.836754
-85.253944
-82.926842
-82.981339
-86.285782
-92.408920
-99.051788
-103.234680
-104.676460
-106.155357
-109.426254
-112.936630
-114.760727
-114.858780
-112.576843
-104.976654
-89.799736
-67.650925
-39.788155
-6.471678
31.057478
69.226997
103.563713
130.649734
149.697433
162.695496
172.388489
180.557190
187.705383
193.336288
197.237732
200.384216
203.818100
207.918427
212.904495
217.996368
220.820679
219.952591
216.576462
211.631485
203.528336
190.891144
175.756042
162.131363
152.421295
145.989365
140.279709
133.919052
128.774475
126.878456
127.112885
127.431526
127.201004
125.751953
121.858681
116.133949
111.832176
111.503441
113.906860
115.785576
116.028404
116.047279
116.578041
116.912811
116.714096
117.111023
120.964622
130.749191
144.652664
157.312241
165.571609
170.267166
171.208984
164.790634
149.013702
126.996178
103.466217
81.147346
61.112995
43.356339
27.271589
13.451232
2.851622
-6.615002
-18.907995
-35.098358
-53.533218
-74.225525
-99.898865
-132.350082
-168.805099
-202.139847
-224.654770
-233.104721
-231.754318
-228.386902
-225.912979
-220.821609
-210.088104
-196.400238
-185.680313
-180.902878
-179.441895
-176.307816
-170.111237
-165.966034
-169.917664
-178.703003
-179.220276
-162.584518
-134.183624
-104.681908
-78.694389
-57.437065
-42.545135
-33.729275
-29.899405
-30.379148
-30.333937
-22.803205
-9.556857
-1.445460
-5.503413
-16.860689
-23.541058
-18.677366
-6.680598
7.003733
26.166548
54.052921
82.332817
101.413048
112.512169
120.987877
125.650322
119.559135
97.399445
60.786533
17.409952
-24.545057
-59.707123
-84.259247
-96.006668
-97.427673
-94.776108
-91.210663
-83.538277
-68.310928
-48.152805
-28.877537
-13.239627
-0.802795
9.755019
19.752962
27.601366
29.340588
25.419937
21.261341
20.840929
25.230885
33.898415
44.306255
54.045231
61.582897
63.834370
58.840427
48.898445
35.810341
18.011763
-5.261899
-32.427940
-60.532745
-84.512321
-100.272682
-108.628075
-111.227989
-105.410477
-88.190880
-63.954502
-43.217056
-31.742022
-24.944244
-14.435146
4.712512
30.970411
54.692642
64.795395
61.446144
55.800049
56.835175
63.647240
67.682411
59.606495
37.629475
9.558130
-16.080709
-39.612476
-67.177467
-98.993958
-127.369675
-146.673981
-157.405609
-161.376511
-159.198883
-150.630402
-135.241959
-114.344536
-90.664085
-65.950226
-42.210068
-22.547558
-7.304025
6.038757
18.386440
28.195698
32.478985
29.997139
27.540325
34.980598
51.171898
66.112083
76.425850
87.124542
100.198639
111.055168
115.260315
111.605820
98.645821
75.689674
48.861012
28.295721
15.688886
2.196178
-16.904776
-33.673836
-38.897221
-35.208595
-33.598034
-39.944454
-49.083317
-53.362701
-54.343533
-60.517742
-74.290611
-88.895142
-98.054306
-101.337997
-100.609741
-97.213470
-92.326958
-86.747208
-81.290939
-78.684677
-81.823196
-88.781731
-94.132866
-97.046227
-103.675552
-118.652367
-137.510574
-152.569626
-164.009033
-177.230667
-190.853989
-197.492813
-195.614609
-190.817719
-187.125534
-185.594101
-187.999146
-193.950974
-198.940414
-200.960129
-202.709869
-205.550583
-208.940781
-214.360153
-222.860092
-230.483902
-232.039246
-228.379913
-223.635254
-217.392151
-206.528229
-191.643951
-177.145294
-167.177689
-161.336472
-154.134842
-141.284531
-124.129906
-106.148079
-89.489525
-76.224907
-69.001907
-67.790886
-68.562080
-68.448273
-68.183990
-66.608139
-58.942928
-42.450420
-19.561510
3.438932
19.533342
26.171501
27.729446
31.117674
40.462418
56.107086
74.850807
90.737999
99.841827
104.612854
109.822418
115.483856
118.871918
121.015251
124.308952
126.365601
123.596222
119.125458
120.520096
130.141678
142.283585
149.494827
148.674042
141.030212
129.423492
116.389542
101.602020
83.699234
67.120827
59.996304
63.675835
70.907135
74.078262
73.288651
76.709442
90.616348
110.138596
125.352951
134.399536
143.345535
156.933228
176.373398
200.491409
224.705078
243.960007
257.344177
267.598694
277.415802
286.749695
294.014282
299.133484
303.541626
309.041931
317.277130
327.697723
336.949127
342.654907
346.403534
350.314850
351.835785
345.047729
325.861237
293.568970
250.306854
201.050430
151.773148
107.536560
71.138100
39.828465
6.471181
-31.994007
-71.794548
-109.174187
-143.189514
-172.815384
-196.810043
-213.366638
-219.464676
-215.162735
-206.201828
-198.755829
-192.275085
-178.649124
-150.625595
-111.223640
-70.488853
-34.018974
-1.457328
26.746941
49.543564
69.086212
87.618309
102.847404
110.178207
108.590012
102.678719
98.465881
97.682419
97.465187
95.947380
96.500229
104.471931
120.020973
137.554367
152.369949
163.255325
170.784943
177.880249
187.201813
195.599365
196.357651
186.202698
167.206406
145.081024
126.347404
113.822792
105.605530
99.209229
93.775452
88.269234
80.874428
70.753036
58.020435
42.704586
26.804380
15.318733
11.176536
10.878370
8.874670
4.933789
3.325228
6.570943
14.695556
27.193483
40.713181
49.473835
51.817291
51.672794
51.732460
49.606567
42.523094
32.474045
24.057035
19.801138
19.674274
22.410679
25.000639
22.515018
13.475184
4.718333
3.793413
9.026018
13.154839
12.859341
10.482295
7.918642
2.431636
-10.052340
-30.656059
-57.698219
-87.990623
-117.451981
-142.479385
-161.653336
-176.454208
-189.750320
-202.539688
-212.511093
-216.399750
-213.723557
-207.589722
-200.951416
-192.842926
-180.387772
-165.296631
-155.497574
-156.498001
-163.965775
-169.811691
-171.830460
-172.509064
-173.238937
-175.099792
-180.884308
-191.848495
-206.552292
-224.433777
-246.409485
-271.868408
-296.834259
-315.497253
-324.311646
-324.096283
-318.536316
-311.569977
-304.932953
-298.342468
-291.638092
-284.382416
-275.404053
-264.773254
-254.007675
-244.299881
-235.483414
-226.166779
-215.780563
-206.241043
-200.274384
-199.009140
-201.130310
-203.862778
-206.143524
-210.698517
-220.649078
-233.065994
-239.353806
-234.466995
-221.018570
-202.058029
-176.153473
-142.061172
-102.287117
-60.404736
-19.729069
16.011335
45.047127
68.117065
85.060997
95.752991
103.697296
113.781021
127.425064
142.265976
155.009872
163.774994
170.242905
178.974731
192.183426
207.217819
219.518616
227.001404
233.671600
246.698425
267.160797
288.161835
303.272858
312.397736
319.395111
327.104980
335.003235
339.754211
338.335846
332.685028
329.375580
332.592468
339.017731
340.085663
329.783142
310.862579
290.824493
272.659058
253.102310
228.563278
201.092422
178.132294
165.070312
159.538055
154.706802
146.386078
135.202103
124.119553
116.619987
114.892647
116.859589
117.273071
114.636856
114.149979
120.409973
130.889206
140.878128
151.529724
166.747208
185.078064
202.532394
219.238693
236.249878
250.894775
260.156494
264.771454
267.945923
271.274384
271.600739
264.337677
251.236801
239.203003
230.033020
218.442123
201.559738
183.260864
168.024368
156.230362
146.363312
138.580872
134.230728
132.007034
126.332947
111.050751
85.153893
53.491562
20.927073
-12.524483
-49.690186
-88.889214
-121.851860
-142.529770
-152.688965
-157.708496
-162.471863
-169.393082
-176.441589
-176.570969
-162.083389
-133.954361
-103.643974
-82.353661
-72.320557
-68.317329
-63.547607
-55.495102
-48.303986
-47.974205
-54.286961
-59.801441
-58.916943
-54.928940
-55.400562
-63.881084
-78.852608
-97.556572
-116.736008
-131.805130
-139.801651
-141.758484
-140.181427
-136.559631
-131.310654
-123.508583
-111.776794
-97.210007
-83.353691
-71.986717
-61.102711
-48.231812
-33.848320
-20.202463
-8.584930
0.223224
5.293919
8.389563
13.970759
23.597176
33.940605
41.638332
46.814362
51.282543
55.432339
57.325722
54.881420
47.998035
37.040165
22.083570
5.160357
-11.093831
-27.796043
-48.621368
-74.428993
-103.466644
-136.842728
-178.995270
-231.060867
-286.067932
-332.871429
-365.134583
-384.663391
-397.060669
-407.030701
-415.213135
-417.628723
-410.525208
-395.134949
-376.622711
-359.791840
-344.894073
-324.966644
-290.500763
-241.337112
-188.852798
-142.453430
-99.157143
-48.856609
12.913045
79.598183
141.174942
194.089630
240.607971
282.607788
320.323456
352.050171
375.309753
391.345367
402.877899
410.880096
418.265625
428.586121
440.318298
448.633331
452.001678
454.127228
459.225983
467.098145
473.783447
476.427917
475.655365
472.656433
465.959381
450.775604
422.804077
384.767059
344.095123
303.542908
260.367676
213.621613
167.570221
127.290436
93.428787
63.545422
34.438950
0.645012
-41.795628
-88.811455
-132.370590
-169.186981
-202.235901
-235.168823
-266.383911
-291.035339
-306.984528
-316.559357
-325.439514
-337.881744
-349.183502
-345.114899
-314.832062
-265.314667
-215.487305
-176.375473
-144.662033
-112.387817
-77.317879
-44.994663
-21.807972
-8.044611
1.350505
11.993037
26.211609
40.787388
48.433880
44.500549
32.089718
19.330719
13.207354
15.514288
21.910898
25.263466
22.682486
18.686682
18.747282
21.597084
20.623320
11.678945
-3.092348
-21.917418
-48.892815
-86.661491
-130.649643
-173.296951
-209.754501
-241.418488
-270.941162
-294.658630
-308.229340
-314.952942
-321.753357
-329.876648
-334.345947
-333.335968
-330.880493
-329.082184
-325.292480
-316.459564
-302.731506
-287.084930
-271.035553
-252.003876
-226.611084
-195.066956
-159.466919
-119.085861
-71.960800
-19.261850
35.489857
87.832481
132.234360
165.472260
189.013412
204.873077
213.399506
216.886383
218.549332
217.759781
212.989960
206.024216
197.439880
183.539948
162.074829
136.501343
111.927353
89.333153
65.704819
38.247272
7.137249
-25.094080
-56.610126
-87.725029
-118.955795
-149.373947
-177.200272
-200.895020
-219.587418
-233.903183
-246.414734
-259.504974
-273.274689
-286.446533
-298.262482
-308.442108
-315.615601
-317.837128
-315.069305
-309.294159
-302.106140
-293.247681
-281.098602
-264.054626
-242.031448
-216.149826
-186.660110
-153.762772
-119.538246
-85.571121
-51.331841
-16.960875
15.766951
45.430328
71.127701
91.665306
106.620476
116.829933
122.638237
123.279388
118.174416
106.649429
88.224281
66.057091
45.700760
29.475454
16.634872
6.460607
-0.411931
-1.823703
3.174705
12.914133
25.118717
37.830154
50.136307
62.938744
77.154900
92.212334
107.147995
121.144455
133.064774
142.657776
151.532852
161.530975
173.383499
187.160583
202.330994
217.792648
232.465042
245.270325
255.367722
262.745544
267.988708
271.559265
273.020782
271.332855
266.610596
260.233612
253.293716
246.630325
240.864380
236.078949
231.604919
223.928802
208.232803
184.002655
155.006775
125.224854
97.165962
71.829292
49.762341
32.101597
19.270243
9.693688
1.756992
-4.461305
-9.180244
-14.253449
-20.991827
-28.226723
-33.716377
-37.404839
-41.605339
-47.800323
-55.109097
-61.651432
-66.414223
-69.045204
-68.393135
-63.453022
-55.002232
-44.789967
-34.309471
-24.413462
-15.202955
-6.619436
1.570540
10.301882
19.721893
28.297911
34.740810
38.876850
41.061413
41.625954
39.000526
29.852869
12.933768
-10.019468
-36.984089
-66.188484
-94.932510
-119.915031
-138.967239
-152.240524
-161.487961
-168.125854
-171.602219
-169.335098
-159.110382
-142.129089
-122.389015
-102.404716
-81.183266
-57.147106
-31.218376
-6.082944
15.803534
33.166435
46.735355
58.657280
70.075012
80.241463
87.883438
92.569557
95.331276
98.235336
102.831261
108.756119
113.707779
115.287498
112.954102
107.106773
97.285378
82.927971
64.158363
40.962276
14.160040
-12.858424
-36.827354
-58.902817
-82.785316
-108.687630
-132.224838
-149.388565
-160.121262
-166.618210
-170.176086
-170.078400
-164.149567
-150.694992
-130.919327
-108.251297
-84.392754
-57.914177
-27.594027
4.692967
35.321388
62.258244
85.977852
107.289116
126.228287
143.131790
158.541000
172.141495
183.111115
191.535843
198.966125
206.703369
214.314514
220.981735
226.658661
231.045380
233.003601
232.069977
229.648941
226.745361
221.727310
212.642838
199.533661
182.743744
160.891602
131.404449
92.700813
45.744022
-6.573076
-60.723003
-112.587631
-158.196442
-196.344421
-228.243057
-253.358612
-269.011627
-274.565430
-272.609436
-266.128967
-256.515717
-243.726929
-227.448898
-208.422546
-188.981537
-171.769012
-157.661606
-145.749466
-134.588623
-123.166359
-112.502235
-105.508354
-103.405357
-103.495270
-102.456688
-100.793411
-101.658142
-106.742935
-114.455368
-120.051010
-119.222008
-113.067558
-105.684029
-97.872963
-88.121132
-76.791588
-65.558624
-55.636578
-48.159969
-44.530010
-45.219982
-48.342579
-50.667500
-50.380333
-47.931107
-44.544907
-40.898174
-37.411964
-34.457260
-31.494968
-27.582033
-22.070908
-13.971901
-2.557502
11.591480
26.549183
39.661980
49.372139
56.337677
62.051186
67.416443
73.607338
82.266495
93.000618
103.261505
112.043625
120.988541
131.092789
140.493515
146.525284
148.906113
150.046707
152.614059
157.553619
164.099594
170.028946
172.495178
170.543167
165.437943
157.289612
143.569489
122.415764
95.938072
69.212372
47.037304
31.044886
18.341978
4.596488
-11.083534
-26.339355
-38.927498
-48.501308
-56.944714
-65.972511
-73.211128
-73.613083
-65.311729
-50.784527
-33.221767
-14.787749
3.615695
22.729982
43.785572
66.650719
89.340004
109.766045
127.541687
142.550064
153.431549
159.385345
161.523041
161.740433
161.611053
161.957489
162.491745
161.836304
158.060150
149.801361
137.464432
122.881355
107.557602
91.245674
72.089767
49.111889
24.718821
3.189711
-13.499646
-27.257202
-41.471783
-57.874638
-75.538689
-92.186852
-106.578323
-120.096146
-135.850204
-155.705978
-177.604584
-196.182068
-207.536423
-213.045074
-216.903030
-220.367233
-219.477554
-208.860168
-187.418427
-159.569366
-132.314163
-111.145157
