EVENT_NAME: CENTRAL_ITALY
EVENT_ID: EMSC-20161026_0000095
EVENT_DATE_YYYYMMDD: 20161026
EVENT_TIME_HHMMSS: 191806
EVENT_LATITUDE_DEGREE: 42.9087
EVENT_LONGITUDE_DEGREE: 13.1288
EVENT_DEPTH_KM: 7.5
HYPOCENTER_REFERENCE: INGV-CNT_Seismic_Bulletin
MAGNITUDE_W: 5.9
MAGNITUDE_W_REFERENCE: INGV-webservice
MAGNITUDE_L: 5.9
MAGNITUDE_L_REFERENCE: INGV-CNT_Seismic_Bulletin
FOCAL_MECHANISM: NF
NETWORK: IT
STATION_CODE: NRC
STATION_NAME: NORCIA
STATION_LATITUDE_DEGREE: 42.792543
STATION_LONGITUDE_DEGREE: 13.096475
STATION_ELEVATION_M: 616
LOCATION: 
SENSOR_DEPTH_M: 0.0
VS30_M/S: 687
SITE_CLASSIFICATION_EC8: B
MORPHOLOGIC_CLASSIFICATION: SL
EPICENTRAL_DISTANCE_KM: 13.2
EARTHQUAKE_BACKAZIMUTH_DEGREE: 11.6
DATE_TIME_FIRST_SAMPLE_YYYYMMDD_HHMMSS: 20161026_191803.139
DATE_TIME_FIRST_SAMPLE_PRECISION: milliseconds
SAMPLING_INTERVAL_S: 0.005000
NDATA: 11542
DURATION_S: 57.710
STREAM: HGZ
UNITS: cm/s
INSTRUMENT: sensor = Unknown [Unknown] | digitizer = Unknown [Unknown]
INSTRUMENT_ANALOG/DIGITAL: D
INSTRUMENTAL_FREQUENCY_HZ: 
INSTRUMENTAL_DAMPING: 
FULL_SCALE_G: 
N_BIT_DIGITAL_CONVERTER: 
PGV_CM/S: -7.927208
TIME_PGV_S: 10.545000
BASELINE_CORRECTION: BASELINE REMOVED
FILTER_TYPE: BUTTERWORTH
FILTER_ORDER: 2
LOW_CUT_FREQUENCY_HZ: 0.040
HIGH_CUT_FREQUENCY_HZ: 30.000
LATE/NORMAL_TRIGGERED: NT
DATABASE_VERSION: DYNA 1.0
HEADER_FORMAT: DYNA 1.2
DATA_TYPE: VELOCITY
PROCESSING: manual (Paolucci et al., 2011)
DATA_TIMESTAMP_YYYYMMDD_HHMMSS: 20161027_011428.535
DATA_LICENSE: CC-BY3_0-IT (http://creativecommons.org/licenses/by/3.0/deed.en)
DATA_CITATION: ESM working group (2015), European Strong-Motion database, version 0.1, Network Activity 3: Networking acceleration networks and SM data users. Project NERA (www.nera-eu.org)
DATA_CREATOR: ESM working group
ORIGINAL_DATA_MEDIATOR_CITATION: Ufficio Rischio Sismico e Vulcanico del Dipartimento della Protezione Civile (http://www.protezionecivile.gov.it/)
ORIGINAL_DATA_MEDIATOR: Rete Accelerometrica Nazionale - RAN Download (http://www.mot1.it/randownload/)
ORIGINAL_DATA_CREATOR_CITATION: Italian Strong Motion Network, Italian Civil Protection Department http://www.protezionecivile.gov.it
ORIGINAL_DATA_CREATOR: network: IT (Italian Strong Motion Network); owner: Dipartimento Della Protezione Civile
USER1: /home/dyna/processing-itaca/processing.py /var/www/processing//tmp/Lucia//IT.NRC..HGE.D.20161026.191806.X.ACC.ASC /var/www/processing//tmp/Lucia//IT.NRC..HGN.D.20161026.191806.X.ACC.ASC /var/www/processing//tmp/Lucia//IT.NRC..HGZ.D.20161026.191806.X.ACC.ASC --tmp /var/www/processing//tmp/Lucia/ --le 0.040 --he 30.000 --ln 0.040 --hn 30.000 --lz 0.040 --hz 30.000 --fo 2 --ca 0 --cz 100 --ta 5 --tz 5 --mf 1 --rf 0 --tr NT
USER2: 
USER3: 
USER4: 
USER5: 
[...]
-0.006615
-0.006327
-0.006173
-0.006113
-0.006120
-0.006216
-0.006444
-0.006801
-0.007221
-0.007600
-0.007827
-0.007827
-0.007603
-0.007257
-0.006952
-0.006837
-0.006965
-0.007275
-0.007633
-0.007894
-0.007984
-0.007934
-0.007837
-0.007772
-0.007756
-0.007763
-0.007753
-0.007683
-0.007542
-0.007359
-0.007204
-0.007149
-0.007239
-0.007472
-0.007789
-0.008080
-0.008231
-0.008181
-0.007956
-0.007647
-0.007361
-0.007173
-0.007114
-0.007163
-0.007266
-0.007362
-0.007421
-0.007446
-0.007452
-0.007458
-0.007478
-0.007519
-0.007567
-0.007592
-0.007575
-0.007527
-0.007480
-0.007455
-0.007447
-0.007441
-0.007426
-0.007387
-0.007310
-0.007198
-0.007085
-0.007020
-0.007029
-0.007103
-0.007224
-0.007379
-0.007560
-0.007752
-0.007925
-0.008040
-0.008060
-0.007968
-0.007785
-0.007564
-0.007366
-0.007234
-0.007188
-0.007219
-0.007300
-0.007411
-0.007549
-0.007711
-0.007884
-0.008039
-0.008149
-0.008201
-0.008197
-0.008160
-0.008126
-0.008120
-0.008135
-0.008152
-0.008154
-0.008147
-0.008142
-0.008157
-0.008204
-0.008288
-0.008400
-0.008516
-0.008613
-0.008667
-0.008652
-0.008555
-0.008400
-0.008230
-0.008085
-0.007992
-0.007962
-0.007994
-0.008068
-0.008157
-0.008232
-0.008269
-0.008261
-0.008226
-0.008200
-0.008195
-0.008186
-0.008135
-0.008032
-0.007902
-0.007794
-0.007757
-0.007823
-0.007993
-0.008226
-0.008456
-0.008616
-0.008671
-0.008631
-0.008551
-0.008493
-0.008482
-0.008500
-0.008505
-0.008470
-0.008392
-0.008299
-0.008227
-0.008201
-0.008218
-0.008257
-0.008298
-0.008343
-0.008409
-0.008508
-0.008630
-0.008735
-0.008768
-0.008698
-0.008547
-0.008379
-0.008260
-0.008211
-0.008206
-0.008193
-0.008134
-0.008031
-0.007924
-0.007869
-0.007912
-0.008071
-0.008315
-0.008583
-0.008822
-0.009011
-0.009149
-0.009241
-0.009289
-0.009293
-0.009257
-0.009198
-0.009147
-0.009127
-0.009132
-0.009127
-0.009076
-0.008970
-0.008828
-0.008688
-0.008591
-0.008563
-0.008603
-0.008668
-0.008703
-0.008668
-0.008570
-0.008459
-0.008408
-0.008466
-0.008629
-0.008829
-0.008973
-0.008998
-0.008906
-0.008772
-0.008699
-0.008754
-0.008927
-0.009136
-0.009281
-0.009300
-0.009202
-0.009050
-0.008933
-0.008918
-0.009014
-0.009176
-0.009334
-0.009429
-0.009442
-0.009387
-0.009304
-0.009233
-0.009201
-0.009212
-0.009256
-0.009317
-0.009370
-0.009379
-0.009309
-0.009148
-0.008923
-0.008695
-0.008538
-0.008505
-0.008599
-0.008768
-0.008934
-0.009044
-0.009096
-0.009125
-0.009171
-0.009254
-0.009363
-0.009463
-0.009519
-0.009502
-0.009410
-0.009273
-0.009140
-0.009053
-0.009032
-0.009068
-0.009126
-0.009169
-0.009179
-0.009167
-0.009158
-0.009169
-0.009196
-0.009216
-0.009198
-0.009131
-0.009035
-0.008950
-0.008915
-0.008954
-0.009066
-0.009230
-0.009404
-0.009554
-0.009673
-0.009776
-0.009881
-0.009984
-0.010057
-0.010064
-0.009987
-0.009852
-0.009721
-0.009655
-0.009678
-0.009752
-0.009804
-0.009778
-0.009669
-0.009526
-0.009412
-0.009375
-0.009422
-0.009529
-0.009666
-0.009803
-0.009919
-0.010004
-0.010058
-0.010078
-0.010054
-0.009973
-0.009838
-0.009667
-0.009494
-0.009346
-0.009253
-0.009241
-0.009312
-0.009434
-0.009562
-0.009653
-0.009686
-0.009660
-0.009599
-0.009536
-0.009496
-0.009477
-0.009461
-0.009430
-0.009388
-0.009357
-0.009364
-0.009427
-0.009544
-0.009703
-0.009891
-0.010094
-0.010288
-0.010442
-0.010528
-0.010540
-0.010485
-0.010379
-0.010244
-0.010106
-0.009989
-0.009916
-0.009901
-0.009951
-0.010051
-0.010170
-0.010277
-0.010357
-0.010403
-0.010410
-0.010370
-0.010285
-0.010175
-0.010076
-0.010015
-0.009997
-0.009991
-0.009948
-0.009806
-0.009516
-0.009048
-0.008404
-0.007620
-0.006759
-0.005900
-0.005116
-0.004452
-0.003919
-0.003504
-0.003180
-0.002916
-0.002694
-0.002490
-0.002227
-0.001759
-0.000907
0.000446
0.002296
0.004523
0.006945
0.009389
0.011751
0.014009
0.016171
0.018181
0.019870
0.020995
0.021364
0.020969
0.020047
0.019034
0.018450
0.018735
0.020064
0.022233
0.024733
0.027040
0.028937
0.030626
0.032530
0.034947
0.037747
0.040261
0.041489
0.040622
0.037565
0.033095
0.028504
0.024955
0.022905
0.021969
0.021331
0.020396
0.019209
0.018372
0.018648
0.020547
0.024002
0.028235
0.031934
0.033803
0.033186
0.030305
0.025963
0.021053
0.016256
0.011952
0.008175
0.004677
0.001217
-0.002117
-0.004921
-0.006773
-0.007481
-0.007130
-0.006123
-0.005277
-0.005698
-0.008309
-0.013306
-0.019911
-0.026618
-0.031808
-0.034510
-0.034878
-0.034083
-0.033678
-0.034712
-0.037024
-0.039215
-0.039463
-0.036680
-0.031162
-0.024419
-0.018478
-0.015037
-0.014705
-0.016740
-0.019588
-0.021833
-0.022753
-0.022224
-0.020456
-0.018007
-0.015828
-0.014919
-0.015689
-0.017493
-0.018788
-0.017891
-0.013932
-0.007471
-0.000337
0.005365
0.008452
0.009207
0.008936
0.008931
0.009544
0.010022
0.009196
0.006442
0.002140
-0.002588
-0.006461
-0.008551
-0.008588
-0.007010
-0.004674
-0.002295
0.000000
0.002597
0.005909
0.009966
0.014355
0.018320
0.020939
0.021525
0.020203
0.018157
0.017082
0.018125
0.021228
0.025404
0.029457
0.032543
0.034388
0.035207
0.035338
0.034798
0.033127
0.029651
0.023964
0.016242
0.007209
-0.002178
-0.011040
-0.018669
-0.024465
-0.028067
-0.029622
-0.029637
-0.028358
-0.025436
-0.020377
-0.013340
-0.005509
0.001222
0.005008
0.004859
0.001115
-0.004626
-0.010073
-0.013053
-0.012378
-0.008487
-0.003356
0.000556
0.001655
-0.000084
-0.003358
-0.006328
-0.007446
-0.006022
-0.002383
0.002475
0.007494
0.012057
0.016196
0.020381
0.024709
0.028074
0.028388
0.024044
0.015365
0.004766
-0.004396
-0.009384
-0.009336
-0.005772
-0.001960
-0.001282
-0.005474
-0.013823
-0.023745
-0.032330
-0.037984
-0.041158
-0.043671
-0.047225
-0.052239
-0.057693
-0.061830
-0.063187
-0.061437
-0.057680
-0.053964
-0.052259
-0.053581
-0.057827
-0.064242
-0.072035
-0.080623
-0.089464
-0.097815
-0.104779
-0.109502
-0.111292
-0.109717
-0.104689
-0.096387
-0.085253
-0.072332
-0.059536
-0.049299
-0.043638
-0.043207
-0.046963
-0.052660
-0.057974
-0.061627
-0.063721
-0.064984
-0.065513
-0.064170
-0.059245
-0.049893
-0.037214
-0.024186
-0.014479
-0.010859
-0.014065
-0.022629
-0.033523
-0.043324
-0.049347
-0.050398
-0.046933
-0.040674
-0.033836
-0.028118
-0.023939
-0.020682
-0.018026
-0.017039
-0.019717
-0.027436
-0.039843
-0.054846
-0.069153
-0.079103
-0.081842
-0.076462
-0.064306
-0.048200
-0.031158
-0.015334
-0.001459
0.011140
0.023846
0.037671
0.052501
0.067046
0.079312
0.087341
0.090145
0.088343
0.083730
0.077864
0.071042
0.062575
0.051704
0.038249
0.022943
0.007393
-0.006522
-0.017467
-0.025052
-0.029674
-0.032218
-0.033769
-0.035211
-0.036903
-0.038796
-0.040932
-0.043796
-0.048086
-0.054032
-0.060743
-0.066184
-0.068053
-0.065073
-0.057721
-0.047898
-0.037919
-0.029459
-0.022923
-0.017475
-0.011675
-0.004419
0.004481
0.014572
0.025439
0.037039
0.049423
0.062201
0.074463
0.085665
0.096761
0.110098
0.127949
0.151242
0.179435
0.210817
0.242604
0.271472
0.295029
0.313281
0.328748
0.345192
0.365726
0.390994
0.418283
0.442339
0.457671
0.460973
0.452317
0.434729
0.412391
0.388388
0.363555
0.337210
0.308784
0.278686
0.247961
0.217689
0.189029
0.163422
0.142146
0.125724
0.114024
0.106610
0.102603
0.100395
0.098063
0.094236
0.088478
0.081200
0.073815
0.068865
0.069253
0.076558
0.089422
0.103263
0.111896
0.110171
0.096128
0.071702
0.041628
0.011192
-0.015617
-0.036558
-0.050658
-0.057622
-0.057343
-0.049496
-0.033654
-0.010430
0.017182
0.043928
0.064000
0.072955
0.068942
0.053038
0.028551
-0.000383
-0.029883
-0.056460
-0.076700
-0.087327
-0.085928
-0.071944
-0.047277
-0.016173
0.015551
0.041823
0.057810
0.060772
0.050202
0.028045
-0.000809
-0.029195
-0.050506
-0.061654
-0.063052
-0.055864
-0.039866
-0.013948
0.021600
0.062847
0.101607
0.127648
0.133216
0.116756
0.082845
0.039112
-0.006691
-0.048012
-0.079727
-0.097706
-0.098139
-0.078204
-0.039018
0.011314
0.058335
0.086439
0.085223
0.052731
-0.005558
-0.080256
-0.161743
-0.242439
-0.317310
-0.383276
-0.438535
-0.482115
-0.513057
-0.529184
-0.526810
-0.502884
-0.458767
-0.401860
-0.342133
-0.285833
-0.231687
-0.171882
-0.096532
0.000373
0.116584
0.242713
0.368892
0.490641
0.608256
0.721640
0.826372
0.913481
0.972225
0.994577
0.978903
0.929769
0.854190
0.758316
0.647155
0.526279
0.403664
0.290030
0.195966
0.126912
0.080531
0.048755
0.022034
-0.006824
-0.039613
-0.071980
-0.097334
-0.113697
-0.127495
-0.150702
-0.194242
-0.262794
-0.352570
-0.451236
-0.540520
-0.602071
-0.624363
-0.606587
-0.557356
-0.489728
-0.416078
-0.345444
-0.283821
-0.236109
-0.207977
-0.206341
-0.237819
-0.305834
-0.408128
-0.536186
-0.676569
-0.813609
-0.933401
-1.027650
-1.093864
-1.131574
-1.139708
-1.117897
-1.067913
-0.993127
-0.899676
-0.799422
-0.707873
-0.635350
-0.580508
-0.533312
-0.482635
-0.421055
-0.346711
-0.263822
-0.180065
-0.101174
-0.027456
0.045004
0.120476
0.199553
0.276310
0.338844
0.374504
0.376200
0.344790
0.287773
0.216807
0.143797
0.076695
0.018947
-0.027244
-0.058329
-0.069991
-0.059117
-0.025118
0.029287
0.097846
0.172372
0.245744
0.313531
0.372948
0.421668
0.458762
0.485883
0.506139
0.521846
0.533777
0.542111
0.547150
0.548295
0.542568
0.525279
0.492650
0.443848
0.381524
0.311071
0.237465
0.160278
0.071822
-0.037523
-0.169314
-0.309843
-0.432072
-0.506722
-0.515805
-0.461259
-0.365620
-0.264147
-0.190482
-0.163281
-0.181795
-0.230677
-0.287845
-0.331090
-0.344227
-0.322940
-0.275869
-0.218034
-0.160823
-0.104850
-0.038754
0.054471
0.184435
0.341208
0.494319
0.605212
0.644639
0.604353
0.498801
0.358395
0.218042
0.105367
0.032686
-0.003819
-0.017120
-0.020356
-0.023086
-0.032822
-0.056334
-0.098069
-0.158508
-0.235395
-0.325689
-0.424964
-0.526087
-0.620268
-0.697965
-0.747177
-0.754202
-0.710985
-0.623348
-0.511710
-0.403016
-0.320024
-0.274551
-0.266248
-0.286392
-0.325379
-0.377593
-0.438804
-0.501567
-0.555980
-0.594032
-0.611692
-0.607630
-0.581532
-0.533355
-0.463287
-0.373631
-0.272616
-0.176003
-0.103955
-0.075491
-0.102499
-0.184208
-0.306131
-0.446160
-0.582574
-0.697457
-0.777482
-0.817194
-0.821667
-0.801204
-0.761357
-0.699932
-0.613171
-0.501854
-0.371829
-0.232631
-0.098352
0.011058
0.072389
0.066097
-0.015352
-0.160071
-0.333449
-0.483824
-0.558968
-0.528463
-0.399646
-0.213980
-0.024461
0.129671
0.235156
0.300190
0.340114
0.363936
0.368973
0.344924
0.283663
0.188689
0.079080
-0.014259
-0.058954
-0.033458
0.065315
0.222247
0.409127
0.590032
0.726715
0.785751
0.745864
0.602389
0.368619
0.074643
-0.238169
-0.527873
-0.762186
-0.921564
-0.997089
-0.988846
-0.904423
-0.754536
-0.547653
-0.289821
0.008423
0.325358
0.627928
0.876369
1.032627
1.074803
1.014032
0.903594
0.829844
0.881203
1.106868
1.490624
1.958027
2.411407
2.771157
3.002607
3.118009
3.157635
3.164666
3.167797
3.178246
3.199173
3.237759
3.310553
3.440068
3.644907
3.928094
4.270824
4.635262
4.973571
5.240518
5.407236
5.469396
5.444785
5.362528
5.248319
5.112078
4.948295
4.750923
4.528991
4.308640
4.121746
3.991630
3.924792
3.910798
3.929602
3.964013
4.009209
4.071514
4.159921
4.278397
4.419947
4.561390
4.663733
4.682858
4.586709
4.369583
4.056628
3.697169
3.348796
3.057237
2.841160
2.690482
2.578455
2.479492
2.382266
2.290182
2.209582
2.135584
2.045353
1.901040
1.660885
1.297560
0.818434
0.273953
-0.257714
-0.703327
-1.022365
-1.214933
-1.313874
-1.370626
-1.437061
-1.545770
-1.698377
-1.870782
-2.034268
-2.180364
-2.332484
-2.535748
-2.833473
-3.246049
-3.758879
-4.318609
-4.841059
-5.234755
-5.432281
-5.413573
-5.211423
-4.900334
-4.574649
-4.321534
-4.195943
-4.208382
-4.332672
-4.527088
-4.752419
-4.977157
-5.174954
-5.324177
-5.410625
-5.427198
-5.368496
-5.226539
-4.995153
-4.681699
-4.314908
-3.939990
-3.603947
-3.341563
-3.170616
-3.097379
-3.126347
-3.264478
-3.513070
-3.851836
-4.229069
-4.566672
-4.776616
-4.780209
-4.525126
-3.998810
-3.233733
-2.297469
-1.270479
-0.226262
0.777279
1.699273
2.513618
3.203452
3.757895
4.175368
4.469710
4.672836
4.829177
4.980897
5.150272
5.330249
5.489780
5.590026
5.600570
5.508904
5.325089
5.082928
4.832098
4.618949
4.466006
4.363463
4.276688
4.163409
3.989871
3.738401
3.407412
3.009368
2.567298
2.106940
1.646899
1.194677
0.752147
0.323783
-0.082066
-0.460081
-0.815737
-1.166808
-1.536488
-1.942071
-2.387721
-2.865325
-3.358153
-3.843268
-4.296309
-4.701666
-5.062419
-5.400098
-5.741759
-6.103693
-6.483847
-6.865374
-7.223404
-7.529411
-7.756467
-7.888292
-7.927208
-7.893017
-7.811100
-7.698442
-7.559799
-7.395921
-7.213665
-7.028430
-6.857960
-6.712969
-6.591357
-6.478785
-6.353828
-6.195781
-5.993262
-5.748446
-5.472622
-5.177101
-4.867889
-4.546587
-4.211981
-3.858042
-3.471714
-3.035263
-2.531939
-1.950679
-1.289779
-0.562497
0.198193
0.944487
1.630895
2.233257
2.755652
3.221698
3.659049
4.087200
4.511274
4.920671
5.293965
5.610681
5.864252
6.067771
6.248991
6.438102
6.655004
6.900698
7.154590
7.378989
7.530609
7.575971
7.505135
7.336485
7.107963
6.859524
6.618641
6.396251
6.190716
5.993301
5.791854
5.573890
5.330444
5.058777
4.761205
4.440979
4.099096
3.734550
3.347422
2.942025
2.527331
2.114802
1.716052
1.341339
0.997331
0.683702
0.391319
0.104959
-0.189926
-0.500155
-0.821412
-1.139420
-1.433939
-1.684204
-1.875075
-2.002566
-2.076558
-2.118171
-2.151838
-2.197211
-2.265960
-2.362024
-2.481936
-2.616737
-2.757388
-2.899242
-3.040404
-3.176907
-3.301586
-3.408021
-3.494855
-3.566115
-3.627974
-3.685814
-3.743279
-3.800950
-3.853746
-3.890579
-3.898811
-3.870620
-3.805666
-3.707569
-3.577910
-3.414182
-3.212946
-2.972682
-2.692452
-2.369671
-2.001052
-1.584842
-1.121191
-0.612487
-0.066946
0.495954
1.044147
1.540035
1.952617
2.265668
2.477175
2.594221
2.629771
2.601538
2.528510
2.424611
2.295299
2.141667
1.969296
1.794111
1.639530
1.526484
1.463965
1.446356
1.457935
1.480927
1.502184
1.514517
1.513257
1.492765
1.445571
1.362728
1.235278
1.059020
0.840930
0.600979
0.366234
0.161735
0.005175
-0.092923
-0.127590
-0.100109
-0.020055
0.094999
0.223665
0.346776
0.451799
0.532987
0.587577
0.611787
0.599932
0.545994
0.445725
0.299125
0.113096
-0.097975
-0.315463
-0.521960
-0.705334
-0.859966
-0.986415
-1.089950
-1.177934
-1.258277
-1.339992
-1.431954
-1.537020
-1.646303
-1.740792
-1.800607
-1.814270
-1.780134
-1.700294
-1.574755
-1.401412
-1.180325
-0.918206
-0.630826
-0.342974
-0.085582
0.110900
0.225990
0.256797
0.218065
0.133436
0.023471
-0.101663
-0.241824
-0.402220
-0.589084
-0.806882
-1.055172
-1.324434
-1.593766
-1.834982
-2.024835
-2.159331
-2.258478
-2.355986
-2.481760
-2.649372
-2.853162
-3.071750
-3.274998
-3.434575
-3.536130
-3.585846
-3.605607
-3.620073
-3.645166
-3.684225
-3.730731
-3.773501
-3.801528
-3.806565
-3.782897
-3.726481
-3.635424
-3.510676
-3.355276
-3.173041
-2.968752
-2.749670
-2.525278
-2.303104
-2.083408
-1.857890
-1.613886
-1.341166
-1.038128
-0.714955
-0.391413
-0.088878
0.179534
0.414241
0.626995
0.833938
1.048195
1.275252
1.513055
1.755833
1.998196
2.236888
2.469384
2.689942
2.885939
3.038711
3.129900
3.148980
3.096873
2.984900
2.831242
2.655980
2.475265
2.297004
2.121362
1.946257
1.773219
1.608555
1.459970
1.332416
1.225426
1.132174
1.040650
0.937187
0.811205
0.658768
0.482535
0.287949
0.079130
-0.141125
-0.367109
-0.586652
-0.782436
-0.937280
-1.039803
-1.088685
-1.095320
-1.082789
-1.079090
-1.107364
-1.178787
-1.290799
-1.429774
-1.576208
-1.710531
-1.817863
-1.891302
-1.934146
-1.960299
-1.990310
-2.042779
-2.125762
-2.233286
-2.348003
-2.448040
-2.515441
-2.542933
-2.536032
-2.509646
-2.480554
-2.458717
-2.441714
-2.415843
-2.363703
-2.274127
-2.148567
-1.999905
-1.844966
-1.696285
-1.557837
-1.425463
-1.289942
-1.140738
-0.970324
-0.779006
-0.577694
-0.385716
-0.224302
-0.109325
-0.046561
-0.030406
-0.045721
-0.072967
-0.095400
-0.104472
-0.100418
-0.088678
-0.075134
-0.062685
-0.050276
-0.034567
-0.013530
0.010054
0.027692
0.027865
0.001001
-0.055871
-0.137464
-0.232525
-0.328168
-0.413629
-0.482667
-0.534776
-0.574817
-0.611081
-0.652797
-0.707978
-0.782157
-0.877816
-0.993094
-1.119455
-1.241192
-1.339692
-1.401324
-1.424581
-1.422257
-1.417276
-1.434279
-1.490803
-1.591395
-1.726544
-1.876296
-2.017203
-2.130963
-2.211557
-2.266534
-2.311695
-2.363597
-2.434062
-2.526934
-2.636076
-2.745517
-2.833962
-2.883088
-2.884329
-2.839288
-2.754893
-2.637994
-2.492901
-2.322544
-2.131264
-1.926200
-1.716190
-1.509661
-1.313027
-1.129731
-0.959536
-0.798456
-0.640050
-0.477636
-0.305625
-0.119289
0.084986
0.307525
0.543251
0.781896
1.010101
1.214146
1.382762
1.509656
1.595524
1.649202
1.686847
1.728591
1.794288
1.900091
2.055210
2.257913
2.493421
2.737734
2.966406
3.162046
3.316042
3.425597
3.489296
3.503009
3.457487
3.339840
3.140107
2.860612
2.522288
2.162760
1.825828
1.547221
1.343558
1.209343
1.122409
1.054940
0.985630
0.907300
0.825477
0.748956
0.679156
0.605492
0.509770
0.376987
0.205620
0.010800
-0.180441
-0.337776
-0.436350
-0.463565
-0.421675
-0.325304
-0.195915
-0.055867
0.076561
0.190731
0.285411
0.368037
0.451028
0.546473
0.661816
0.797803
0.948221
1.101610
1.245709
1.372921
1.483063
1.581826
1.677198
1.776931
1.887459
2.012893
2.154137
2.309127
2.473545
2.641839
2.810119
2.979751
3.157167
3.348672
3.554770
3.768360
3.977163
4.168243
4.332364
4.466535
4.573464
4.657538
4.719587
4.754646
4.755136
4.717611
4.648319
4.563420
4.483124
4.423273
4.390004
4.380699
4.389299
4.411502
4.446433
4.494014
4.550145
4.603600
4.637263
4.633064
4.577885
4.467852
4.309244
4.115543
3.902586
3.685076
3.475527
3.283466
3.113049
2.960540
2.814710
2.661315
2.489711
2.297793
2.092275
1.884512
1.684639
1.497440
1.322172
1.155913
0.997692
0.850868
0.722679
0.621217
0.551578
0.513553
0.502044
0.509573
0.529270
0.556629
0.589080
