EVENT_NAME: EMILIA_2ND_SHOCK
EVENT_ID: IT-2012-0011
EVENT_DATE_YYYYMMDD: 20120529
EVENT_TIME_HHMMSS: 070002
EVENT_LATITUDE_DEGREE: 44.8417
EVENT_LONGITUDE_DEGREE: 11.0657
EVENT_DEPTH_KM: 8.1
HYPOCENTER_REFERENCE: INGV-CNT_Seismic_Bulletin
MAGNITUDE_W: 6.0
MAGNITUDE_W_REFERENCE: RCMT-INGV
MAGNITUDE_L: 5.8
MAGNITUDE_L_REFERENCE: INGV-CNT_Seismic_Bulletin
FOCAL_MECHANISM: TF
NETWORK: IT
STATION_CODE: NVL
STATION_NAME: NOVELLARA
STATION_LATITUDE_DEGREE: 44.843001
STATION_LONGITUDE_DEGREE: 10.731506
STATION_ELEVATION_M: 22
LOCATION: 
SENSOR_DEPTH_M: 0.0
VS30_M/S: 190
SITE_CLASSIFICATION_EC8: C
MORPHOLOGIC_CLASSIFICATION: 
EPICENTRAL_DISTANCE_KM: 26.4
EARTHQUAKE_BACKAZIMUTH_DEGREE: 90.2
DATE_TIME_FIRST_SAMPLE_YYYYMMDD_HHMMSS: 20120529_065933.000
DATE_TIME_FIRST_SAMPLE_PRECISION: seconds
SAMPLING_INTERVAL_S: 0.005000
NDATA: 28001
DURATION_S: 140.005
STREAM: HNN
UNITS: cm
INSTRUMENT: sensor = MS2007+ [Syscom] | digitizer = 130-01/3 [Reftek]
INSTRUMENT_ANALOG/DIGITAL: D
INSTRUMENTAL_FREQUENCY_HZ: 
INSTRUMENTAL_DAMPING: 
FULL_SCALE_G: 
N_BIT_DIGITAL_CONVERTER: 24
PGD_CM: -0.963623
TIME_PGD_S: 52.345000
BASELINE_CORRECTION: BASELINE REMOVED
FILTER_TYPE: BUTTERWORTH
FILTER_ORDER: 2
LOW_CUT_FREQUENCY_HZ: 0.060
HIGH_CUT_FREQUENCY_HZ: 30.000
LATE/NORMAL_TRIGGERED: NT
DATABASE_VERSION: DYNA 1.0
HEADER_FORMAT: DYNA 1.2
DATA_TYPE: DISPLACEMENT
PROCESSING: manual (Paolucci et al., 2011)
DATA_TIMESTAMP_YYYYMMDD_HHMMSS: 
DATA_LICENSE: CC-BY3_0-IT (http://creativecommons.org/licenses/by/3.0/deed.en)
DATA_CITATION: ESM working group (2015), European Strong-Motion database, version 0.1, Network Activity 3: Networking acceleration networks and SM data users. Project NERA (www.nera-eu.org)
DATA_CREATOR: ESM working group
ORIGINAL_DATA_MEDIATOR_CITATION: Ufficio Rischio Sismico e Vulcanico del Dipartimento della Protezione Civile (http://www.protezionecivile.gov.it/)
ORIGINAL_DATA_MEDIATOR: Rete Accelerometrica Nazionale - RAN Download (http://www.mot1.it/randownload/)
ORIGINAL_DATA_CREATOR_CITATION: Italian Strong Motion Network, Italian Civil Protection Department http://www.protezionecivile.gov.it
ORIGINAL_DATA_CREATOR: network: IT (Italian Strong Motion Network); owner: Dipartimento Della Protezione Civile
USER1: 
USER2: 
USER3: 
USER4: 
USER5: 
[...]
4.041406e-01
4.061905e-01
4.079385e-01
4.093925e-01
4.105592e-01
4.114351e-01
4.119952e-01
4.121910e-01
4.119600e-01
4.112416e-01
4.099878e-01
4.081661e-01
4.057595e-01
4.027664e-01
3.991999e-01
3.950867e-01
3.904666e-01
3.853946e-01
3.799431e-01
3.742000e-01
3.682659e-01
3.622535e-01
3.562894e-01
3.505106e-01
3.450517e-01
3.400305e-01
3.355395e-01
3.316493e-01
3.284160e-01
3.258876e-01
3.241038e-01
3.230907e-01
3.228543e-01
3.233767e-01
3.246134e-01
3.264937e-01
3.289233e-01
3.317900e-01
3.349702e-01
3.383327e-01
3.417402e-01
3.450533e-01
3.481383e-01
3.508791e-01
3.531874e-01
3.550073e-01
3.563153e-01
3.571183e-01
3.574542e-01
3.573911e-01
3.570239e-01
3.564676e-01
3.558505e-01
3.553057e-01
3.549624e-01
3.549364e-01
3.553243e-01
3.562045e-01
3.576404e-01
3.596778e-01
3.623379e-01
3.656154e-01
3.694903e-01
3.739442e-01
3.789661e-01
3.845435e-01
3.906522e-01
3.972550e-01
4.043056e-01
4.117482e-01
4.195119e-01
4.275121e-01
4.356623e-01
4.438880e-01
4.521311e-01
4.603467e-01
4.685007e-01
4.765728e-01
4.845578e-01
4.924614e-01
5.002923e-01
5.080587e-01
5.157703e-01
5.234403e-01
5.310846e-01
5.387206e-01
5.463679e-01
5.540502e-01
5.617915e-01
5.696072e-01
5.774979e-01
5.854514e-01
5.934495e-01
6.014722e-01
6.094950e-01
6.174845e-01
6.253984e-01
6.331898e-01
6.408104e-01
6.482098e-01
6.553351e-01
6.621320e-01
6.685488e-01
6.745365e-01
6.800480e-01
6.850400e-01
6.894795e-01
6.933494e-01
6.966466e-01
6.993741e-01
7.015373e-01
7.031444e-01
7.042064e-01
7.047323e-01
7.047244e-01
7.041788e-01
7.030902e-01
7.014543e-01
6.992661e-01
6.965198e-01
6.932132e-01
6.893546e-01
6.849638e-01
6.800682e-01
6.746996e-01
6.688960e-01
6.627053e-01
6.561864e-01
6.494047e-01
6.424254e-01
6.353073e-01
6.281016e-01
6.208560e-01
6.136195e-01
6.064421e-01
5.993677e-01
5.924285e-01
5.856479e-01
5.790460e-01
5.726410e-01
5.664436e-01
5.604509e-01
5.546454e-01
5.489999e-01
5.434834e-01
5.380651e-01
5.327176e-01
5.274200e-01
5.221598e-01
5.169313e-01
5.117322e-01
5.065607e-01
5.014133e-01
4.962832e-01
4.911594e-01
4.860242e-01
4.808529e-01
4.756157e-01
4.702820e-01
4.648245e-01
4.592211e-01
4.534568e-01
4.475262e-01
4.414349e-01
4.351997e-01
4.288475e-01
4.224150e-01
4.159487e-01
4.095002e-01
4.031166e-01
3.968317e-01
3.906635e-01
3.846178e-01
3.786903e-01
3.728629e-01
3.670979e-01
3.613377e-01
3.555092e-01
3.495332e-01
3.433307e-01
3.368280e-01
3.299580e-01
3.226616e-01
3.148870e-01
3.065934e-01
2.977548e-01
2.883641e-01
2.784337e-01
2.679948e-01
2.570979e-01
2.458131e-01
2.342280e-01
2.224443e-01
2.105737e-01
1.987360e-01
1.870534e-01
1.756432e-01
1.646108e-01
1.540497e-01
1.440450e-01
1.346746e-01
1.260073e-01
1.180996e-01
1.109935e-01
1.047154e-01
9.927665e-02
9.467528e-02
9.089991e-02
8.793350e-02
8.575605e-02
8.434689e-02
8.368784e-02
8.376630e-02
8.457495e-02
8.610782e-02
8.835568e-02
9.130322e-02
9.492661e-02
9.918952e-02
1.040397e-01
1.094105e-01
1.152281e-01
1.214184e-01
1.279082e-01
1.346240e-01
1.414899e-01
1.484317e-01
1.553820e-01
1.622860e-01
1.691020e-01
1.758018e-01
1.823693e-01
1.888029e-01
1.951165e-01
2.013381e-01
2.075048e-01
2.136568e-01
2.198323e-01
2.260633e-01
2.323745e-01
2.387816e-01
2.452876e-01
2.518783e-01
2.585226e-01
2.651777e-01
2.717962e-01
2.783281e-01
2.847182e-01
2.909058e-01
2.968269e-01
3.024185e-01
3.076239e-01
3.123975e-01
3.167053e-01
3.205199e-01
3.238129e-01
3.265504e-01
3.286983e-01
3.302304e-01
3.311335e-01
3.314057e-01
3.310536e-01
3.300947e-01
3.285615e-01
3.265009e-01
3.239680e-01
3.210199e-01
3.177127e-01
3.141023e-01
3.102466e-01
3.062060e-01
3.020435e-01
2.978218e-01
2.936000e-01
2.894326e-01
2.853722e-01
2.814724e-01
2.777854e-01
2.743569e-01
2.712218e-01
2.684042e-01
2.659223e-01
2.637950e-01
2.620447e-01
2.606970e-01
2.597769e-01
2.593063e-01
2.593009e-01
2.597683e-01
2.607042e-01
2.620884e-01
2.638822e-01
2.660315e-01
2.684733e-01
2.711377e-01
2.739456e-01
2.768049e-01
2.796102e-01
2.822469e-01
2.845963e-01
2.865387e-01
2.879565e-01
2.887370e-01
2.887744e-01
2.879734e-01
2.862540e-01
2.835599e-01
2.798629e-01
2.751626e-01
2.694833e-01
2.628757e-01
2.554200e-01
2.472239e-01
2.384127e-01
2.291182e-01
2.194715e-01
2.096016e-01
1.996354e-01
1.896955e-01
1.798969e-01
1.703411e-01
1.611097e-01
1.522598e-01
1.438288e-01
1.358417e-01
1.283170e-01
1.212692e-01
1.147089e-01
1.086429e-01
1.030742e-01
9.800162e-02
9.342236e-02
8.933372e-02
8.573282e-02
8.261456e-02
7.997046e-02
7.778881e-02
7.605465e-02
7.474883e-02
7.384688e-02
7.331931e-02
7.313414e-02
7.326017e-02
7.366799e-02
7.432885e-02
7.521440e-02
7.629832e-02
7.755754e-02
7.897171e-02
8.052245e-02
8.219341e-02
8.396881e-02
8.583099e-02
8.776088e-02
8.974212e-02
9.176309e-02
9.381331e-02
9.587894e-02
9.794394e-02
9.999592e-02
1.020299e-01
1.040468e-01
1.060499e-01
1.080414e-01
1.100209e-01
1.119850e-01
1.139288e-01
1.158463e-01
1.177291e-01
1.195624e-01
1.213249e-01
1.229913e-01
1.245366e-01
1.259369e-01
1.271696e-01
1.282154e-01
1.290621e-01
1.297043e-01
1.301395e-01
1.303647e-01
1.303785e-01
1.301854e-01
1.297961e-01
1.292243e-01
1.284860e-01
1.276031e-01
1.266084e-01
1.255468e-01
1.244714e-01
1.234426e-01
1.225276e-01
1.217989e-01
1.213286e-01
1.211854e-01
1.214374e-01
1.221564e-01
1.234167e-01
1.252885e-01
1.278312e-01
1.310915e-01
1.351038e-01
1.398900e-01
1.454565e-01
1.517921e-01
1.588686e-01
1.666458e-01
1.750759e-01
1.841073e-01
1.936842e-01
2.037439e-01
2.142127e-01
2.250030e-01
2.360117e-01
2.471225e-01
2.582112e-01
2.691537e-01
2.798312e-01
2.901311e-01
2.999443e-01
3.091650e-01
3.176944e-01
3.254464e-01
3.323494e-01
3.383487e-01
3.434086e-01
3.475133e-01
3.506660e-01
3.528853e-01
3.542037e-01
3.546679e-01
3.543385e-01
3.532833e-01
3.515679e-01
3.492485e-01
3.463728e-01
3.429855e-01
3.391323e-01
3.348563e-01
3.301907e-01
3.251536e-01
3.197501e-01
3.139787e-01
3.078356e-01
3.013174e-01
2.944230e-01
2.871582e-01
2.795390e-01
2.715947e-01
2.633704e-01
2.549278e-01
2.463419e-01
2.376921e-01
2.290562e-01
2.205098e-01
2.121314e-01
2.040046e-01
1.962166e-01
1.888527e-01
1.819907e-01
1.756983e-01
1.700326e-01
1.650403e-01
1.607567e-01
1.572014e-01
1.543768e-01
1.522684e-01
1.508484e-01
1.500768e-01
1.499007e-01
1.502543e-01
1.510609e-01
1.522378e-01
1.537017e-01
1.553720e-01
1.571729e-01
1.590333e-01
1.608873e-01
1.626736e-01
1.643387e-01
1.658378e-01
1.671362e-01
1.682068e-01
1.690283e-01
1.695835e-01
1.698597e-01
1.698486e-01
1.695444e-01
1.689392e-01
1.680193e-01
1.667643e-01
1.651506e-01
1.631558e-01
1.607615e-01
1.579533e-01
1.547205e-01
1.510594e-01
1.469770e-01
1.424952e-01
1.376527e-01
1.325041e-01
1.271157e-01
1.215598e-01
1.159095e-01
1.102390e-01
1.046239e-01
9.914035e-02
9.385736e-02
8.883050e-02
8.410075e-02
7.969992e-02
7.565545e-02
7.198909e-02
6.871201e-02
6.582364e-02
6.331663e-02
6.118222e-02
5.940942e-02
5.797878e-02
5.685767e-02
5.600174e-02
5.536008e-02
5.487918e-02
5.450478e-02
5.418372e-02
5.386600e-02
5.350497e-02
5.305567e-02
5.247374e-02
5.171677e-02
5.074637e-02
4.952856e-02
4.803257e-02
4.622961e-02
4.409283e-02
4.159841e-02
3.872764e-02
3.547061e-02
3.183027e-02
2.782339e-02
2.347673e-02
1.882178e-02
1.389382e-02
8.736536e-03
3.406969e-03
-2.024183e-03
-7.476713e-03
-1.286595e-02
-1.810614e-02
-2.311240e-02
-2.780262e-02
-3.210019e-02
-3.593743e-02
-3.925959e-02
-4.202789e-02
-4.421936e-02
-4.582286e-02
-4.683553e-02
-4.726455e-02
-4.713358e-02
-4.648717e-02
-4.538764e-02
-4.390745e-02
-4.212474e-02
-4.012507e-02
-3.800393e-02
-3.586442e-02
-3.381024e-02
-3.193857e-02
-3.033568e-02
-2.907451e-02
-2.821357e-02
-2.779906e-02
-2.786895e-02
-2.845419e-02
-2.957374e-02
-3.122870e-02
-3.340217e-02
-3.606453e-02
-3.917772e-02
-4.269597e-02
-4.656677e-02
-5.073622e-02
-5.515669e-02
-5.979142e-02
-6.461355e-02
-6.960229e-02
-7.474029e-02
-8.001395e-02
-8.541548e-02
-9.094433e-02
-9.660619e-02
-1.024103e-01
-1.083661e-01
-1.144792e-01
-1.207460e-01
-1.271489e-01
-1.336564e-01
-1.402261e-01
-1.468088e-01
-1.533494e-01
-1.597881e-01
-1.660633e-01
-1.721158e-01
-1.778921e-01
-1.833469e-01
-1.884482e-01
-1.931799e-01
-1.975419e-01
-2.015428e-01
-2.051955e-01
-2.085187e-01
-2.115408e-01
-2.143000e-01
-2.168373e-01
-2.191894e-01
-2.213855e-01
-2.234493e-01
-2.254006e-01
-2.272562e-01
-2.290282e-01
-2.307220e-01
-2.323354e-01
-2.338614e-01
-2.352914e-01
-2.366171e-01
-2.378282e-01
-2.389083e-01
-2.398343e-01
-2.405800e-01
-2.411215e-01
-2.414389e-01
-2.415145e-01
-2.413308e-01
-2.408716e-01
-2.401243e-01
-2.390809e-01
-2.377374e-01
-2.360930e-01
-2.341481e-01
-2.319016e-01
-2.293483e-01
-2.264807e-01
-2.232937e-01
-2.197889e-01
-2.159734e-01
-2.118587e-01
-2.074598e-01
-2.027966e-01
-1.978931e-01
-1.927752e-01
-1.874694e-01
-1.820030e-01
-1.764069e-01
-1.707183e-01
-1.649830e-01
-1.592545e-01
-1.535915e-01
-1.480538e-01
-1.426966e-01
-1.375663e-01
-1.326999e-01
-1.281244e-01
-1.238564e-01
-1.199019e-01
-1.162600e-01
-1.129288e-01
-1.099074e-01
-1.071942e-01
-1.047836e-01
-1.026657e-01
-1.008291e-01
-9.926240e-02
-9.795623e-02
-9.690443e-02
-9.610422e-02
-9.555424e-02
-9.525239e-02
-9.519624e-02
-9.538677e-02
-9.583162e-02
-9.654277e-02
-9.752914e-02
-9.879112e-02
-1.003228e-01
-1.021195e-01
-1.041828e-01
-1.065216e-01
-1.091499e-01
-1.120844e-01
-1.153416e-01
-1.189348e-01
-1.228706e-01
-1.271485e-01
-1.317599e-01
-1.366871e-01
-1.419006e-01
-1.473600e-01
-1.530187e-01
-1.588294e-01
-1.647479e-01
-1.707325e-01
-1.767447e-01
-1.827510e-01
-1.887276e-01
-1.946634e-01
-2.005611e-01
-2.064342e-01
-2.123036e-01
-2.181926e-01
-2.241256e-01
-2.301282e-01
-2.362286e-01
-2.424567e-01
-2.488418e-01
-2.554087e-01
-2.621745e-01
-2.691465e-01
-2.763207e-01
-2.836843e-01
-2.912197e-01
-2.989062e-01
-3.067201e-01
-3.146328e-01
-3.226109e-01
-3.306201e-01
-3.386296e-01
-3.466139e-01
-3.545512e-01
-3.624207e-01
-3.702010e-01
-3.778723e-01
-3.854182e-01
-3.928261e-01
-4.000833e-01
-4.071748e-01
-4.140816e-01
-4.207848e-01
-4.272688e-01
-4.335234e-01
-4.395416e-01
-4.453157e-01
-4.508370e-01
-4.560987e-01
-4.611022e-01
-4.658602e-01
-4.703964e-01
-4.747413e-01
-4.789269e-01
-4.829822e-01
-4.869329e-01
-4.908048e-01
-4.946270e-01
-4.984324e-01
-5.022556e-01
-5.061299e-01
-5.100857e-01
-5.141499e-01
-5.183450e-01
-5.226883e-01
-5.271907e-01
-5.318572e-01
-5.366876e-01
-5.416796e-01
-5.468302e-01
-5.521368e-01
-5.575947e-01
-5.631934e-01
-5.689149e-01
-5.747354e-01
-5.806299e-01
-5.865757e-01
-5.925529e-01
-5.985422e-01
-6.045249e-01
-6.104826e-01
-6.164004e-01
-6.222676e-01
-6.280781e-01
-6.338281e-01
-6.395135e-01
-6.451288e-01
-6.506676e-01
-6.561220e-01
-6.614798e-01
-6.667215e-01
-6.718191e-01
-6.767390e-01
-6.814444e-01
-6.858979e-01
-6.900607e-01
-6.938935e-01
-6.973558e-01
-7.004069e-01
-7.030081e-01
-7.051245e-01
-7.067277e-01
-7.077954e-01
-7.083122e-01
-7.082703e-01
-7.076739e-01
-7.065443e-01
-7.049232e-01
-7.028709e-01
-7.004594e-01
-6.977665e-01
-6.948711e-01
-6.918512e-01
-6.887833e-01
-6.857393e-01
-6.827830e-01
-6.799674e-01
-6.773338e-01
-6.749123e-01
-6.727204e-01
-6.707625e-01
-6.690302e-01
-6.675056e-01
-6.661648e-01
-6.649812e-01
-6.639256e-01
-6.629673e-01
-6.620739e-01
-6.612127e-01
-6.603530e-01
-6.594701e-01
-6.585479e-01
-6.575792e-01
-6.565623e-01
-6.554973e-01
-6.543837e-01
-6.532196e-01
-6.520033e-01
-6.507331e-01
-6.494079e-01
-6.480262e-01
-6.465867e-01
-6.450906e-01
-6.435424e-01
-6.419503e-01
-6.403245e-01
-6.386771e-01
-6.370229e-01
-6.353805e-01
-6.337720e-01
-6.322216e-01
-6.307562e-01
-6.294053e-01
-6.282007e-01
-6.271742e-01
-6.263560e-01
-6.257757e-01
-6.254620e-01
-6.254415e-01
-6.257358e-01
-6.263589e-01
-6.273175e-01
-6.286133e-01
-6.302458e-01
-6.322130e-01
-6.345110e-01
-6.371338e-01
-6.400760e-01
-6.433331e-01
-6.469007e-01
-6.507723e-01
-6.549411e-01
-6.594013e-01
-6.641496e-01
-6.691836e-01
-6.745006e-01
-6.800966e-01
-6.859646e-01
-6.920934e-01
-6.984672e-01
-7.050682e-01
-7.118796e-01
-7.188844e-01
-7.260649e-01
-7.334007e-01
-7.408699e-01
-7.484482e-01
-7.561090e-01
-7.638238e-01
-7.715637e-01
-7.793019e-01
-7.870151e-01
-7.946830e-01
-8.022879e-01
-8.098133e-01
-8.172444e-01
-8.245690e-01
-8.317777e-01
-8.388623e-01
-8.458152e-01
-8.526282e-01
-8.592938e-01
-8.658060e-01
-8.721616e-01
-8.783600e-01
-8.843998e-01
-8.902769e-01
-8.959823e-01
-9.015037e-01
-9.068272e-01
-9.119397e-01
-9.168284e-01
-9.214797e-01
-9.258792e-01
-9.300155e-01
-9.338845e-01
-9.374929e-01
-9.408554e-01
-9.439892e-01
-9.469083e-01
-9.496208e-01
-9.521291e-01
-9.544304e-01
-9.565163e-01
-9.583725e-01
-9.599803e-01
-9.613186e-01
-9.623674e-01
-9.631098e-01
-9.635324e-01
-9.636227e-01
-9.633669e-01
-9.627502e-01
-9.617612e-01
-9.603944e-01
-9.586479e-01
-9.565185e-01
-9.539982e-01
-9.510768e-01
-9.477454e-01
-9.439983e-01
-9.398309e-01
-9.352374e-01
-9.302093e-01
-9.247381e-01
-9.188186e-01
-9.124518e-01
-9.056434e-01
-8.984020e-01
-8.907398e-01
-8.826751e-01
-8.742339e-01
-8.654469e-01
-8.563434e-01
-8.469471e-01
-8.372761e-01
-8.273474e-01
-8.171803e-01
-8.067977e-01
-7.962228e-01
-7.854752e-01
-7.745699e-01
-7.635208e-01
-7.523453e-01
-7.410658e-01
-7.297068e-01
-7.182901e-01
-7.068328e-01
-6.953498e-01
-6.838556e-01
-6.723641e-01
-6.608862e-01
-6.494284e-01
-6.379950e-01
-6.265887e-01
-6.152125e-01
-6.038696e-01
-5.925632e-01
-5.812963e-01
-5.700708e-01
-5.588877e-01
-5.477469e-01
-5.366471e-01
-5.255845e-01
-5.145498e-01
-5.035279e-01
-4.924994e-01
-4.814447e-01
-4.703469e-01
-4.591916e-01
-4.479650e-01
-4.366527e-01
-4.252386e-01
-4.137056e-01
-4.020368e-01
-3.902168e-01
-3.782341e-01
-3.660843e-01
-3.537718e-01
-3.413087e-01
-3.287131e-01
-3.160062e-01
-3.032111e-01
-2.903518e-01
-2.774528e-01
-2.645393e-01
-2.516356e-01
-2.387637e-01
-2.259415e-01
-2.131851e-01
-2.005122e-01
-1.879464e-01
-1.755177e-01
-1.632598e-01
-1.512044e-01
-1.393796e-01
-1.278091e-01
-1.165143e-01
-1.055158e-01
-9.483483e-02
-8.449220e-02
-7.450624e-02
-6.489140e-02
-5.565848e-02
-4.681613e-02
-3.837192e-02
-3.033200e-02
-2.269963e-02
-1.547418e-02
-8.651632e-03
-2.226360e-03
3.807581e-03
9.457375e-03
1.473411e-02
1.965430e-02
2.423830e-02
2.850712e-02
3.248098e-02
3.618077e-02
3.963037e-02
4.285741e-02
4.589110e-02
4.875750e-02
5.147463e-02
5.405088e-02
5.648882e-02
5.879160e-02
6.096641e-02
6.302191e-02
6.496283e-02
6.678719e-02
6.848884e-02
7.006282e-02
7.150945e-02
7.283487e-02
7.404958e-02
7.516689e-02
7.620219e-02
7.717226e-02
7.809447e-02
7.898616e-02
7.986432e-02
8.074517e-02
8.164429e-02
8.257774e-02
8.356311e-02
8.461854e-02
8.575939e-02
8.699452e-02
8.832405e-02
8.973867e-02
9.121959e-02
9.273901e-02
9.426122e-02
9.574503e-02
9.714731e-02
9.842717e-02
9.954912e-02
1.004842e-01
1.012098e-01
1.017108e-01
1.019822e-01
1.020298e-01
1.018691e-01
1.015213e-01
1.010115e-01
1.003707e-01
9.963809e-02
9.886233e-02
9.809950e-02
9.740814e-02
9.684373e-02
9.645454e-02
9.628069e-02
9.635542e-02
9.670620e-02
9.735272e-02
9.830205e-02
9.954502e-02
1.010579e-01
1.028076e-01
1.047563e-01
1.068603e-01
1.090688e-01
1.113230e-01
1.135613e-01
1.157238e-01
1.177580e-01
1.196212e-01
1.212821e-01
1.227199e-01
1.239234e-01
1.248909e-01
1.256317e-01
1.261680e-01
1.265353e-01
1.267797e-01
1.269530e-01
1.271097e-01
1.273054e-01
1.275958e-01
1.280337e-01
1.286664e-01
1.295334e-01
1.306660e-01
1.320867e-01
1.338098e-01
1.358428e-01
1.381882e-01
1.408436e-01
1.437996e-01
1.470392e-01
1.505398e-01
1.542767e-01
1.582252e-01
1.623615e-01
1.666607e-01
1.710956e-01
1.756373e-01
1.802561e-01
1.849246e-01
1.896192e-01
1.943182e-01
1.989997e-01
2.036376e-01
2.082030e-01
2.126683e-01
2.170129e-01
2.212251e-01
2.252994e-01
2.292325e-01
2.330227e-01
2.366713e-01
2.401841e-01
2.435700e-01
2.468386e-01
2.499977e-01
2.530540e-01
2.560131e-01
2.588803e-01
2.616603e-01
2.643574e-01
2.669744e-01
2.695121e-01
2.719678e-01
2.743368e-01
2.766153e-01
2.788016e-01
2.808956e-01
2.828983e-01
2.848117e-01
2.866389e-01
2.883843e-01
2.900538e-01
2.916533e-01
2.931873e-01
2.946574e-01
2.960642e-01
2.974100e-01
2.987010e-01
2.999457e-01
3.011521e-01
3.023243e-01
3.034600e-01
3.045495e-01
3.055760e-01
3.065174e-01
3.073489e-01
3.080433e-01
3.085701e-01
3.088931e-01
3.089712e-01
3.087596e-01
3.082134e-01
3.072903e-01
3.059523e-01
3.041675e-01
3.019116e-01
2.991705e-01
2.959421e-01
2.922343e-01
2.880624e-01
2.834476e-01
2.784185e-01
2.730118e-01
2.672718e-01
2.612453e-01
2.549787e-01
2.485165e-01
2.419014e-01
2.351728e-01
2.283640e-01
2.215006e-01
2.146011e-01
2.076794e-01
2.007453e-01
1.938049e-01
1.868600e-01
1.799108e-01
1.729591e-01
1.660106e-01
1.590745e-01
1.521622e-01
1.452853e-01
1.384539e-01
1.316746e-01
1.249502e-01
1.182799e-01
1.116625e-01
1.050962e-01
9.857724e-02
9.209853e-02
8.565084e-02
7.922752e-02
7.282916e-02
6.646495e-02
6.015035e-02
5.390372e-02
4.774358e-02
4.168680e-02
3.574743e-02
2.993650e-02
2.426280e-02
1.873394e-02
1.335670e-02
8.136724e-03
3.078499e-03
-1.813790e-03
-6.535624e-03
-1.108317e-02
-1.545567e-02
-1.965722e-02
-2.369646e-02
-2.758532e-02
-3.133816e-02
-3.497119e-02
-3.850058e-02
-4.193991e-02
-4.529885e-02
-4.858432e-02
-5.180234e-02
-5.495862e-02
-5.805828e-02
-6.110641e-02
-6.410918e-02
-6.707360e-02
-7.000589e-02
-7.291027e-02
-7.578911e-02
-7.864327e-02
-8.147185e-02
-8.427211e-02
-8.704086e-02
-8.977650e-02
-9.247941e-02
-9.514946e-02
-9.778281e-02
-1.003712e-01
-1.029043e-01
-1.053725e-01
-1.077664e-01
-1.100753e-01
-1.122855e-01
-1.143810e-01
-1.163446e-01
-1.181587e-01
-1.198060e-01
-1.212703e-01
-1.225383e-01
-1.235999e-01
-1.244471e-01
-1.250742e-01
-1.254789e-01
-1.256650e-01
-1.256436e-01
-1.254313e-01
-1.250471e-01
-1.245110e-01
-1.238450e-01
-1.230739e-01
-1.222252e-01
-1.213271e-01
-1.204066e-01
-1.194894e-01
-1.185988e-01
-1.177534e-01
-1.169645e-01
-1.162343e-01
-1.155564e-01
-1.149174e-01
-1.143005e-01
-1.136881e-01
-1.130633e-01
-1.124082e-01
-1.117016e-01
-1.109180e-01
-1.100286e-01
-1.090024e-01
-1.078091e-01
-1.064201e-01
-1.048115e-01
-1.029646e-01
-1.008653e-01
-9.850135e-02
-9.586187e-02
-9.293681e-02
