EVENT_NAME: CENTRAL_ITALY
EVENT_ID: EMSC-20160824_0000013
EVENT_DATE_YYYYMMDD: 20160824
EVENT_TIME_HHMMSS: 023329
EVENT_LATITUDE_DEGREE: 42.7935
EVENT_LONGITUDE_DEGREE: 13.1537
EVENT_DEPTH_KM: 8.7
HYPOCENTER_REFERENCE: INGV-webservice
MAGNITUDE_W: 5.3
MAGNITUDE_W_REFERENCE: INGV-webservice
MAGNITUDE_L: 5.4
MAGNITUDE_L_REFERENCE: INGV-webservice
FOCAL_MECHANISM: NF
NETWORK: IT
STATION_CODE: NRC
STATION_NAME: NORCIA
STATION_LATITUDE_DEGREE: 42.792543
STATION_LONGITUDE_DEGREE: 13.096475
STATION_ELEVATION_M: 616
LOCATION: 
SENSOR_DEPTH_M: 0.0
VS30_M/S: 687
SITE_CLASSIFICATION_EC8: B
MORPHOLOGIC_CLASSIFICATION: SL
EPICENTRAL_DISTANCE_KM: 4.7
EARTHQUAKE_BACKAZIMUTH_DEGREE: 88.7
DATE_TIME_FIRST_SAMPLE_YYYYMMDD_HHMMSS: 20160824_023324.704
DATE_TIME_FIRST_SAMPLE_PRECISION: milliseconds
SAMPLING_INTERVAL_S: 0.005000
NDATA: 9429
DURATION_S: 47.145
STREAM: HGN
UNITS: cm/s^2
INSTRUMENT: sensor = Unknown [Unknown] | digitizer = Unknown [Unknown]
INSTRUMENT_ANALOG/DIGITAL: D
INSTRUMENTAL_FREQUENCY_HZ: 
INSTRUMENTAL_DAMPING: 
FULL_SCALE_G: 
N_BIT_DIGITAL_CONVERTER: 
PGA_CM/S^2: 190.801722
TIME_PGA_S: 9.860000
BASELINE_CORRECTION: BASELINE REMOVED
FILTER_TYPE: BUTTERWORTH
FILTER_ORDER: 2
LOW_CUT_FREQUENCY_HZ: 0.070
HIGH_CUT_FREQUENCY_HZ: 30.000
LATE/NORMAL_TRIGGERED: NT
DATABASE_VERSION: DYNA 1.0
HEADER_FORMAT: DYNA 1.2
DATA_TYPE: ACCELERATION
PROCESSING: manual (Paolucci et al., 2011)
DATA_TIMESTAMP_YYYYMMDD_HHMMSS: 20160825_170450.371
DATA_LICENSE: CC-BY3_0-IT (http://creativecommons.org/licenses/by/3.0/deed.en)
DATA_CITATION: ESM working group (2015), European Strong-Motion database, version 0.1, Network Activity 3: Networking acceleration networks and SM data users. Project NERA (www.nera-eu.org)
DATA_CREATOR: ESM working group
ORIGINAL_DATA_MEDIATOR_CITATION: Ufficio Rischio Sismico e Vulcanico del Dipartimento della Protezione Civile (http://www.protezionecivile.gov.it/)
ORIGINAL_DATA_MEDIATOR: Rete Accelerometrica Nazionale - RAN Download (http://www.mot1.it/randownload/)
ORIGINAL_DATA_CREATOR_CITATION: Italian Strong Motion Network, Italian Civil Protection Department http://www.protezionecivile.gov.it
ORIGINAL_DATA_CREATOR: network: IT (Italian Strong Motion Network); owner: Dipartimento Della Protezione Civile
USER1: /home/dyna/processing-itaca/processing.py /var/www/processing//tmp/Maria//IT.NRC..HGE.D.20160824.023329.X.ACC.ASC /var/www/processing//tmp/Maria//IT.NRC..HGN.D.20160824.023329.X.ACC.ASC /var/www/processing//tmp/Maria//IT.NRC..HGZ.D.20160824.023329.X.ACC.ASC --tmp /var/www/processing//tmp/Maria/ --le 0.070 --he 30.000 --ln 0.070 --hn 30.000 --lz 0.070 --hz 30.000 --fo 2 --ca 0 --cz 60 --ta 5 --tz 5 --mf 1 --rf 0 --tr NT
USER2: 
USER3: 
USER4: 
USER5: 
[...]
0.029835
0.032353
0.034183
0.032042
0.019981
-0.002111
-0.025949
-0.040877
-0.040252
-0.023910
0.002304
0.029638
0.049817
0.057565
0.053364
0.043119
0.033153
0.026196
0.022143
0.020747
0.022743
0.029557
0.041828
0.055493
0.059236
0.041147
0.001110
-0.047736
-0.091550
-0.123768
-0.141497
-0.143823
-0.133930
-0.114629
-0.083551
-0.039944
0.007298
0.045519
0.070635
0.087957
0.101550
0.109107
0.106684
0.092817
0.069879
0.044383
0.022913
0.007720
-0.002034
-0.006838
-0.005690
0.000379
0.003047
-0.008779
-0.035790
-0.065547
-0.084590
-0.087723
-0.077749
-0.062762
-0.049985
-0.037371
-0.015151
0.019824
0.053016
0.063122
0.045746
0.016798
-0.006521
-0.016618
-0.012583
0.001700
0.017662
0.025736
0.020837
0.003883
-0.019116
-0.035665
-0.030551
0.000768
0.043097
0.069647
0.061806
0.022856
-0.026149
-0.064011
-0.083267
-0.087346
-0.079868
-0.061932
-0.035080
-0.001872
0.033296
0.062860
0.079297
0.081185
0.074478
0.065762
0.056679
0.047744
0.042401
0.042897
0.045507
0.042525
0.028441
0.003451
-0.028152
-0.058611
-0.076516
-0.074858
-0.059565
-0.042570
-0.028272
-0.012185
0.009632
0.033787
0.050315
0.048480
0.025188
-0.009950
-0.037844
-0.040177
-0.012758
0.029581
0.063882
0.072908
0.050827
0.004319
-0.049470
-0.090744
-0.107106
-0.098176
-0.071700
-0.036451
0.000728
0.033669
0.057245
0.070594
0.078366
0.086477
0.094959
0.095834
0.080469
0.049116
0.011135
-0.023007
-0.046929
-0.059197
-0.064094
-0.068211
-0.071792
-0.066000
-0.043645
-0.011609
0.013344
0.021164
0.015186
0.004890
0.000129
0.007759
0.024465
0.038176
0.042198
0.040386
0.037330
0.032582
0.023703
0.008484
-0.013289
-0.037043
-0.054881
-0.060063
-0.049802
-0.026527
0.003035
0.030858
0.050150
0.057149
0.052036
0.038548
0.022709
0.009925
0.001994
-0.002533
-0.004740
-0.003948
-0.001226
0.000038
-0.001083
-0.001599
0.001433
0.006603
0.009402
0.008303
0.005310
0.001433
-0.003310
-0.008105
-0.012378
-0.015989
-0.018508
-0.019250
-0.016754
-0.009308
0.002952
0.016710
0.026204
0.027519
0.022941
0.019085
0.020444
0.025216
0.028703
0.030486
0.034122
0.040375
0.045262
0.043322
0.030671
0.008664
-0.013407
-0.023092
-0.014527
0.006233
0.024752
0.028918
0.016526
-0.008154
-0.039087
-0.067075
-0.081031
-0.074890
-0.051224
-0.018242
0.014665
0.040000
0.054858
0.060852
0.059729
0.051454
0.037168
0.020846
0.007913
0.002069
0.001984
0.002219
-0.001898
-0.010456
-0.019351
-0.024251
-0.023227
-0.016029
-0.004762
0.004599
0.005569
-0.003555
-0.019701
-0.038631
-0.055226
-0.062768
-0.057365
-0.042085
-0.023918
-0.008037
0.003511
0.009857
0.011268
0.009773
0.007695
0.006550
0.007591
0.011661
0.017936
0.024463
0.030185
0.034069
0.032698
0.023309
0.010146
0.002217
0.003027
0.007301
0.008038
0.002713
-0.007328
-0.018998
-0.028150
-0.033003
-0.035883
-0.037749
-0.034744
-0.021992
0.000939
0.027821
0.049711
0.060590
0.059477
0.051606
0.045939
0.046451
0.048339
0.044974
0.034392
0.018984
0.003571
-0.006302
-0.006981
0.000785
0.011009
0.016027
0.013157
0.006384
0.000988
-0.000520
0.001725
0.004930
0.004507
-0.001751
-0.011325
-0.020970
-0.029948
-0.037495
-0.042914
-0.048354
-0.055292
-0.060040
-0.057226
-0.045702
-0.027969
-0.006664
0.014497
0.030419
0.040127
0.048072
0.056070
0.058698
0.049528
0.029281
0.007077
-0.007146
-0.011904
-0.013746
-0.019436
-0.030535
-0.042489
-0.048109
-0.043997
-0.034127
-0.026292
-0.023911
-0.022349
-0.015003
-0.001292
0.013411
0.023955
0.030073
0.035889
0.045359
0.059688
0.078241
0.097184
0.108393
0.105537
0.090813
0.071209
0.050051
0.027699
0.006363
-0.012000
-0.028611
-0.045324
-0.060720
-0.070650
-0.073287
-0.070471
-0.064092
-0.055261
-0.045647
-0.036302
-0.026097
-0.014176
-0.003241
0.003436
0.006684
0.009608
0.013624
0.018430
0.023294
0.026853
0.027196
0.022699
0.013423
0.003789
0.001502
0.009446
0.021846
0.031429
0.035099
0.031724
0.021457
0.008605
-0.000048
-0.001324
0.002256
0.005922
0.006138
0.002974
0.000945
0.004134
0.010926
0.017034
0.020756
0.022778
0.023441
0.022069
0.018416
0.012588
0.004200
-0.006060
-0.015814
-0.022888
-0.027821
-0.034443
-0.044830
-0.055559
-0.061835
-0.061159
-0.054071
-0.045266
-0.040592
-0.041157
-0.040760
-0.028095
0.004105
0.048627
0.087020
0.104443
0.098224
0.076050
0.050683
0.033147
0.027455
0.030266
0.033795
0.031698
0.024676
0.017998
0.014424
0.012237
0.007819
-0.001434
-0.015910
-0.034499
-0.053843
-0.067835
-0.071849
-0.066345
-0.054415
-0.037872
-0.017043
0.007010
0.031200
0.050424
0.059251
0.056706
0.049497
0.046770
0.050941
0.056351
0.056107
0.048043
0.035597
0.023566
0.011602
-0.005912
-0.031173
-0.057500
-0.075644
-0.082623
-0.081220
-0.074065
-0.061834
-0.044511
-0.022574
0.000996
0.021144
0.035231
0.045329
0.054747
0.063390
0.068435
0.069019
0.066226
0.059123
0.046857
0.032589
0.019599
0.008056
-0.001002
-0.004587
-0.002238
0.002902
0.007564
0.010278
0.010830
0.009578
0.006014
-0.002357
-0.017934
-0.039956
-0.063687
-0.082029
-0.089455
-0.085249
-0.072370
-0.054975
-0.037953
-0.025131
-0.015878
-0.005899
0.008367
0.027479
0.048517
0.065481
0.072879
0.069871
0.059684
0.045484
0.028567
0.009692
-0.009448
-0.025332
-0.034402
-0.036448
-0.033525
-0.027072
-0.018814
-0.011439
-0.006090
-0.002363
-0.002329
-0.009807
-0.023299
-0.035021
-0.039191
-0.036281
-0.027579
-0.011585
0.010062
0.028888
0.038372
0.041469
0.044175
0.047912
0.051806
0.056179
0.061491
0.066723
0.068454
0.061646
0.044387
0.021458
0.000635
-0.014233
-0.025458
-0.036723
-0.047163
-0.052668
-0.052426
-0.049590
-0.045567
-0.039276
-0.030972
-0.021108
-0.008092
0.009483
0.030746
0.051496
0.062730
0.055494
0.033807
0.015973
0.014864
0.029865
0.062414
0.111807
0.156045
0.169435
0.137823
0.027787
-0.197370
-0.481204
-0.645898
-0.522362
-0.128617
0.296925
0.487251
0.380856
0.134891
-0.051549
-0.066113
0.073716
0.191227
0.048527
-0.389099
-0.805476
-0.765253
-0.157623
0.653963
1.165978
1.109384
0.498462
-0.447896
-1.330625
-1.710196
-1.387599
-0.549886
0.369025
0.977323
1.137900
0.986065
0.802443
0.810028
0.963677
0.931682
0.415285
-0.456329
-1.178435
-1.368400
-1.026927
-0.303743
0.684897
1.690760
2.232043
1.890902
0.678260
-0.965881
-2.380085
-2.909585
-2.326616
-1.175106
-0.405505
-0.451755
-0.791279
-0.613001
0.258918
1.330542
1.964534
1.717924
0.615396
-0.692996
-1.313974
-0.797233
0.523622
1.820359
2.401391
2.089233
1.177261
0.274423
-0.023523
0.283230
0.500533
-0.014493
-1.248314
-2.707839
-3.782665
-3.894640
-2.696461
-0.434931
1.873657
3.008199
2.512722
0.941942
-0.623063
-1.083662
0.004499
1.828402
2.835983
2.177782
0.506822
-0.643870
-0.215597
1.476726
3.018263
3.034339
1.236706
-1.468721
-3.905199
-5.387364
-5.487318
-4.022616
-1.800256
-0.329442
-0.224515
-0.693681
-0.904077
-0.963451
-1.024802
-0.359487
1.578049
3.842478
5.019599
5.000571
4.595005
3.977634
2.721812
1.113675
0.247452
0.493126
0.833652
0.458107
0.125553
0.708364
1.165647
-0.268280
-3.321390
-5.797695
-6.215523
-5.086812
-3.499431
-1.351087
2.060662
6.066015
8.787658
9.325796
8.177774
5.487810
0.780867
-5.170524
-9.796291
-10.749018
-7.881493
-2.882833
2.648343
7.954686
11.857961
12.157406
7.546424
-0.519857
-8.922354
-15.246590
-18.294542
-17.324669
-12.329881
-4.915024
2.489884
8.768387
14.423640
19.322557
21.523165
19.184660
12.616139
3.828807
-5.101666
-12.580479
-16.893967
-16.449350
-11.504972
-4.743863
0.822227
4.016207
5.375091
5.540862
4.282387
1.198883
-3.112818
-7.084647
-9.270655
-9.124536
-6.618564
-1.845136
4.237647
9.526495
12.275368
12.288658
10.083469
5.820325
-0.084052
-5.950605
-9.450467
-9.213600
-5.617367
-0.525297
3.340607
3.564767
-0.162182
-5.179793
-7.558409
-5.346530
-0.222254
4.325722
6.349861
6.727118
7.559934
9.804780
12.246470
12.550900
9.231304
2.454589
-6.430178
-15.176744
-20.965193
-21.824238
-17.960060
-11.126635
-2.974611
5.211491
11.597703
14.056556
12.009523
7.492258
3.487336
1.195035
-0.368953
-2.587633
-5.828505
-8.932674
-9.523186
-5.733891
1.845946
10.207541
16.031378
17.843344
16.274448
12.708906
8.325788
3.972123
-0.194987
-4.664342
-9.305615
-12.691040
-13.422311
-11.677316
-8.785777
-5.440986
-1.031921
4.925909
11.288139
15.870751
17.252703
15.566108
11.835887
7.047785
2.032764
-2.101426
-4.389441
-5.071457
-4.988901
-3.767892
-0.290981
5.066370
10.137196
12.396208
10.071783
2.983355
-7.002121
-16.394779
-21.392597
-19.943266
-12.779528
-2.234995
9.024397
18.433384
24.405203
26.756592
25.599792
20.370783
10.517609
-3.039977
-17.560278
-29.647152
-36.517223
-36.602322
-30.221273
-19.776152
-8.250138
2.018575
8.786834
10.448141
8.060480
4.761315
2.427671
0.398733
-2.058437
-3.566457
-2.048888
2.542207
8.019441
11.910282
12.611298
9.403241
3.085853
-3.662540
-8.346657
-10.967327
-13.075420
-15.236404
-16.566397
-16.171728
-14.151452
-11.306661
-8.436330
-6.208227
-5.312041
-5.975352
-7.181193
-6.920400
-3.809201
1.335797
5.849840
7.431389
5.804389
2.340333
-1.281004
-4.091374
-6.334702
-9.163507
-13.277038
-17.610245
-19.866306
-18.636204
-14.424655
-8.627189
-2.769730
1.311188
2.232745
0.316557
-2.720493
-5.223158
-6.484605
-6.623143
-6.142119
-5.657071
-5.623081
-5.868963
-5.447135
-3.608982
-0.820913
1.946060
4.223372
5.611436
5.472768
3.720277
1.191282
-0.916649
-1.609926
-0.637809
0.786778
0.356123
-3.173896
-8.084689
-10.675858
-8.674428
-3.336772
2.032123
4.734947
3.739102
-0.324649
-5.353852
-8.707563
-8.741764
-5.607026
-0.579934
5.213740
11.523406
18.828613
27.426310
36.316662
43.108635
45.491821
42.906864
36.462902
27.532734
17.379934
7.840929
0.938285
-2.300003
-1.960396
1.246771
5.719931
8.668929
7.340350
1.212002
-7.325682
-15.012755
-20.313229
-23.465990
-24.722708
-24.014771
-21.700386
-18.113874
-13.242550
-7.878068
-3.786001
-1.948039
-1.728914
-2.073673
-2.639130
-3.536108
-4.346077
-4.006359
-2.273193
-0.590957
-0.583726
-2.559035
-6.136135
-11.119914
-17.106354
-22.947092
-26.862139
-27.240019
-23.951492
-18.566496
-12.736641
-6.976999
-1.116680
4.969165
11.168845
17.429020
24.215521
31.934649
39.618156
44.981697
45.916710
41.789513
33.908974
25.017609
17.879766
13.890899
12.696783
12.887561
12.957279
11.835479
9.155603
5.272347
0.509107
-5.683362
-14.298440
-25.380566
-37.157825
-46.859570
-52.899231
-55.866581
-56.887878
-56.002064
-52.744850
-47.222965
-40.095226
-32.176598
-24.293783
-17.214642
-11.571549
-7.937071
-6.818477
-8.071093
-10.315744
-11.475253
-9.967891
-5.109592
3.317204
14.919977
27.706406
38.098869
42.988487
41.839767
36.442749
28.839594
19.999846
10.562814
2.160696
-2.930873
-3.491141
-0.131822
5.516966
12.003474
18.690355
25.564390
32.392414
38.225601
42.003334
43.420593
43.027363
41.661648
39.762615
37.093342
32.987778
26.544947
16.785740
3.577569
-11.438073
-25.691057
-37.473114
-46.357086
-52.242611
-54.621166
-52.856522
-47.081295
-38.448734
-28.174673
-16.898312
-5.490400
4.297078
10.740970
13.557808
14.434168
16.165710
20.750265
28.168924
37.048374
45.969318
54.131180
61.598282
69.046432
76.766052
83.916328
88.911522
90.402885
87.942589
82.083923
74.047287
64.987503
55.320236
44.922699
33.843029
22.429022
11.273879
1.624253
-5.070551
-8.931236
-12.154631
-17.088554
-24.382177
-32.816521
-40.087284
-44.280807
-45.521133
-45.943081
-47.795631
-51.803257
-56.884628
-60.853973
-61.829651
-59.400913
-54.395508
-47.834763
-40.388256
-32.502979
-24.584484
-16.708117
-8.117188
2.293787
14.322736
25.788717
34.246849
39.119297
41.813351
44.111111
46.691086
48.937267
49.740299
48.176010
43.683369
36.244980
26.333986
14.128929
-1.098403
-20.142366
-41.841774
-61.950962
-74.986366
-78.143951
-73.306076
-64.638931
-54.479244
-42.449478
-28.394453
-14.566480
-3.930962
2.864297
7.796305
13.017207
18.974060
25.169348
31.937172
40.466293
51.063869
61.893391
69.460075
70.235634
62.229744
45.906929
24.124458
0.741149
-21.332008
-40.979786
-58.117695
-72.338974
-82.378426
-86.960609
-85.988510
-80.697906
-72.835098
-63.662285
-53.386463
-41.481655
-27.505600
-11.405448
6.496332
25.210075
43.130844
58.859699
71.797707
81.755508
88.094948
89.518822
84.911575
74.042313
57.093227
34.147919
5.872334
-25.686890
-57.592346
-87.370888
-113.853691
-136.595581
-154.649216
-166.526367
-171.222977
-168.515732
-158.508789
-141.603088
-118.604401
-90.453896
-58.198761
-23.309246
12.375749
47.257519
80.492851
111.616287
139.672272
163.063171
180.085342
189.475800
190.801727
184.287094
169.959702
147.287003
116.103134
77.721558
34.949627
-8.769892
-50.307064
-87.443665
-118.954987
-144.262650
-162.992859
-174.824677
-179.545532
-177.080032
-167.795883
-152.839050
-133.551117
-110.552681
-84.006798
-54.717354
-24.633741
3.672844
28.155865
48.206806
64.347588
76.822723
84.791336
87.275436
84.412949
77.129082
66.038277
51.455929
34.126698
15.074260
-5.043726
-25.675600
-45.597363
-62.820553
-75.280220
-81.716995
-82.138626
-77.704025
-70.304436
-61.565651
-51.553417
-38.987026
-23.180424
-5.130170
13.589750
32.224033
50.674164
68.490944
84.492363
97.279663
106.088692
111.074677
112.523750
110.009422
102.868660
91.449158
77.348648
62.299305
47.167145
32.048149
16.837486
1.574354
-13.417833
-27.698702
-41.097996
-53.593361
-64.686623
-73.200562
-77.601372
-76.371292
-68.550568
-54.339355
-35.180084
-13.441399
7.978278
26.453838
40.663895
50.810905
57.767872
62.134941
63.972305
62.962440
58.543247
50.034828
37.082890
20.486109
2.639316
-13.382762
-25.586451
-33.820408
-38.770641
-40.631748
-39.152027
-34.697655
-28.706078
-22.965502
-18.496681
-15.118434
-12.090198
-8.869290
-5.220991
-1.332456
2.023443
4.164401
5.488952
7.347157
10.928854
16.599554
24.171749
33.291012
43.411274
53.679234
63.156830
71.339066
78.147331
82.994965
84.339096
80.770638
72.217850
59.870682
45.492489
30.975454
17.926020
7.163030
-1.361278
-8.056056
-13.157957
-16.638538
-18.372826
-18.183474
-15.957893
-12.121216
-7.798689
-4.137329
-1.565578
0.304441
2.326584
5.295187
9.583685
15.144932
21.387691
26.963585
30.335320
30.882023
29.271719
26.695969
23.651663
19.522535
13.662782
6.661650
0.037575
-5.078566
-8.566965
-11.094377
-13.871742
-18.340931
-25.471457
-35.181107
-46.385910
-57.644947
-68.068893
-77.538177
-85.711296
-91.264503
-92.641663
-89.057564
-80.427147
-67.107666
-50.164726
-31.259871
-11.889492
7.104508
25.333847
42.291908
57.016022
68.400574
75.641396
78.207481
75.792267
68.757149
58.508797
47.014568
35.737862
25.058178
14.801428
5.360068
-1.913599
-5.574822
-5.296587
-2.293827
1.406195
4.244757
5.828857
6.528655
6.647607
6.207814
5.285999
4.079841
2.856049
2.212807
2.967151
5.263603
8.037729
9.743424
9.463772
7.149653
3.054032
-2.698096
-9.834666
-17.494495
-24.654516
-31.112333
-37.460564
-43.882679
-49.513222
-53.232147
-54.637215
-54.076626
-52.180321
-49.391537
-45.607304
-40.430435
-33.904732
-26.744730
-19.927162
-14.280537
-10.248168
-7.735431
-6.203703
-5.221427
-5.109799
-6.752738
-10.566746
-15.979851
-22.008957
-28.001194
-33.805981
-39.503136
-44.937923
-49.371433
-51.680748
-50.981396
-46.992237
-39.983856
-30.660618
-19.979786
-8.858170
1.984885
12.029164
20.898315
28.199306
33.535007
36.902363
38.860420
39.995068
40.388058
39.857559
38.502148
36.633129
34.178547
30.489248
24.931616
17.568945
9.130644
0.414952
-8.069847
-15.994751
-23.132147
-29.426695
-34.812592
-38.748783
-40.013855
-37.274532
-30.124701
-19.531719
-7.217675
5.227536
16.593958
25.755327
31.527058
33.069984
30.560974
25.337074
19.034512
12.481972
5.583502
-1.822792
-9.215362
-15.510197
-20.006979
-23.230640
-26.552334
-30.896355
-36.012756
-40.828667
-44.109303
-45.004143
-43.438354
-39.952061
-35.134689
-29.262209
-22.048382
-12.674664
-0.705043
12.920625
26.149385
36.961933
44.185673
47.522778
47.159679
43.584877
37.626747
30.251064
22.321781
14.677817
8.142672
3.301808
0.388134
-0.770730
-0.759938
-0.239535
0.448757
1.290762
2.496864
4.390786
7.021209
9.927208
12.562747
14.822026
17.019663
19.517223
22.424923
25.545547
28.461567
30.692633
31.974152
32.365810
31.905052
30.265066
26.983307
21.985420
15.700044
8.694005
1.383918
-5.893421
-12.680043
-18.310696
-21.943281
-22.760115
-20.416363
-15.334472
-8.511961
-1.146385
5.801916
12.125612
18.393833
25.230549
32.593548
39.738014
45.729977
50.017166
52.656517
53.977489
54.040428
52.638676
49.744244
45.528988
39.958866
32.879684
24.626728
16.075060
7.899911
0.138566
-7.348437
-14.253962
-19.947966
-24.107071
-26.897694
-28.680862
-29.939917
-31.340612
-33.443886
-36.248802
-38.941509
-40.138474
-38.709541
-34.447147
-27.899977
-19.881285
-11.239958
-2.725737
5.101399
11.813158
17.104607
20.799875
22.671085
22.344160
19.560102
14.503216
7.810308
0.281802
-7.404933
-14.810894
-21.726448
-28.061815
-33.640667
-38.060753
-40.745441
-41.077789
-38.590019
-33.224773
-25.358944
-15.497053
-4.160163
7.874809
19.574720
30.102968
39.219311
47.218338
54.499840
61.196102
67.179482
72.250061
76.107201
78.212700
77.989822
75.258377
70.301254
63.573658
55.659279
47.367058
39.370975
31.736118
24.183132
16.867058
10.580001
6.069030
3.410986
2.211004
2.157552
3.101225
4.703300
6.362682
7.533843
7.860709
7.106266
5.261387
2.615264
-0.479649
-3.919327
-7.958021
-12.907154
-18.562168
-24.041302
-28.324551
-30.904913
-31.973385
-32.184242
-32.336597
-33.156319
-35.179825
-38.680191
-43.564445
-49.264915
-54.798954
-59.095119
-61.399883
-61.459499
-59.329910
-55.043743
-48.561703
-39.985756
-29.720715
-18.616379
-8.037151
0.521325
6.157000
8.914952
9.409022
8.161406
5.322555
0.898655
-4.954074
-11.942703
-19.788378
-28.218157
-36.951363
-45.818398
-54.670254
-63.068943
-70.324570
-75.842377
-79.190224
-79.941765
-77.708199
-72.344353
-64.152161
-53.910419
-42.593079
