EVENT_NAME: CENTRAL_ITALY
EVENT_ID: EMSC-20160824_0000013
EVENT_DATE_YYYYMMDD: 20160824
EVENT_TIME_HHMMSS: 023329
EVENT_LATITUDE_DEGREE: 42.7935
EVENT_LONGITUDE_DEGREE: 13.1537
EVENT_DEPTH_KM: 8.7
HYPOCENTER_REFERENCE: INGV-webservice
MAGNITUDE_W: 5.3
MAGNITUDE_W_REFERENCE: INGV-webservice
MAGNITUDE_L: 5.4
MAGNITUDE_L_REFERENCE: INGV-webservice
FOCAL_MECHANISM: NF
NETWORK: IT
STATION_CODE: NRC
STATION_NAME: NORCIA
STATION_LATITUDE_DEGREE: 42.792543
STATION_LONGITUDE_DEGREE: 13.096475
STATION_ELEVATION_M: 616
LOCATION: 
SENSOR_DEPTH_M: 0.0
VS30_M/S: 687
SITE_CLASSIFICATION_EC8: B
MORPHOLOGIC_CLASSIFICATION: SL
EPICENTRAL_DISTANCE_KM: 4.7
EARTHQUAKE_BACKAZIMUTH_DEGREE: 88.7
DATE_TIME_FIRST_SAMPLE_YYYYMMDD_HHMMSS: 20160824_023324.704
DATE_TIME_FIRST_SAMPLE_PRECISION: milliseconds
SAMPLING_INTERVAL_S: 0.005000
NDATA: 9429
DURATION_S: 47.145
STREAM: HGE
UNITS: cm
INSTRUMENT: sensor = Unknown [Unknown] | digitizer = Unknown [Unknown]
INSTRUMENT_ANALOG/DIGITAL: D
INSTRUMENTAL_FREQUENCY_HZ: 
INSTRUMENTAL_DAMPING: 
FULL_SCALE_G: 
N_BIT_DIGITAL_CONVERTER: 
PGD_CM: -1.719795
TIME_PGD_S: 9.135000
BASELINE_CORRECTION: BASELINE REMOVED
FILTER_TYPE: BUTTERWORTH
FILTER_ORDER: 2
LOW_CUT_FREQUENCY_HZ: 0.070
HIGH_CUT_FREQUENCY_HZ: 30.000
LATE/NORMAL_TRIGGERED: NT
DATABASE_VERSION: DYNA 1.0
HEADER_FORMAT: DYNA 1.2
DATA_TYPE: DISPLACEMENT
PROCESSING: manual (Paolucci et al., 2011)
DATA_TIMESTAMP_YYYYMMDD_HHMMSS: 20160825_170450.371
DATA_LICENSE: CC-BY3_0-IT (http://creativecommons.org/licenses/by/3.0/deed.en)
DATA_CITATION: ESM working group (2015), European Strong-Motion database, version 0.1, Network Activity 3: Networking acceleration networks and SM data users. Project NERA (www.nera-eu.org)
DATA_CREATOR: ESM working group
ORIGINAL_DATA_MEDIATOR_CITATION: Ufficio Rischio Sismico e Vulcanico del Dipartimento della Protezione Civile (http://www.protezionecivile.gov.it/)
ORIGINAL_DATA_MEDIATOR: Rete Accelerometrica Nazionale - RAN Download (http://www.mot1.it/randownload/)
ORIGINAL_DATA_CREATOR_CITATION: Italian Strong Motion Network, Italian Civil Protection Department http://www.protezionecivile.gov.it
ORIGINAL_DATA_CREATOR: network: IT (Italian Strong Motion Network); owner: Dipartimento Della Protezione Civile
USER1: /home/dyna/processing-itaca/processing.py /var/www/processing//tmp/Maria//IT.NRC..HGE.D.20160824.023329.X.ACC.ASC /var/www/processing//tmp/Maria//IT.NRC..HGN.D.20160824.023329.X.ACC.ASC /var/www/processing//tmp/Maria//IT.NRC..HGZ.D.20160824.023329.X.ACC.ASC --tmp /var/www/processing//tmp/Maria/ --le 0.070 --he 30.000 --ln 0.070 --hn 30.000 --lz 0.070 --hz 30.000 --fo 2 --ca 0 --cz 60 --ta 5 --tz 5 --mf 1 --rf 0 --tr NT
USER2: 
USER3: 
USER4: 
USER5: 
[...]
-5.360762e-02
-5.373266e-02
-5.385770e-02
-5.398255e-02
-5.410680e-02
-5.423006e-02
-5.435213e-02
-5.447308e-02
-5.459312e-02
-5.471261e-02
-5.483183e-02
-5.495090e-02
-5.506977e-02
-5.518826e-02
-5.530615e-02
-5.542336e-02
-5.553993e-02
-5.565609e-02
-5.577219e-02
-5.588871e-02
-5.600625e-02
-5.612543e-02
-5.624667e-02
-5.637004e-02
-5.649526e-02
-5.662185e-02
-5.674931e-02
-5.687716e-02
-5.700504e-02
-5.713274e-02
-5.726021e-02
-5.738752e-02
-5.751472e-02
-5.764176e-02
-5.776849e-02
-5.789475e-02
-5.802037e-02
-5.814531e-02
-5.826956e-02
-5.839327e-02
-5.851673e-02
-5.864029e-02
-5.876430e-02
-5.888900e-02
-5.901453e-02
-5.914097e-02
-5.926840e-02
-5.939683e-02
-5.952617e-02
-5.965616e-02
-5.978651e-02
-5.991704e-02
-6.004778e-02
-6.017898e-02
-6.031107e-02
-6.044449e-02
-6.057953e-02
-6.071634e-02
-6.085500e-02
-6.099557e-02
-6.113797e-02
-6.128195e-02
-6.142716e-02
-6.157313e-02
-6.171925e-02
-6.186475e-02
-6.200888e-02
-6.215102e-02
-6.229065e-02
-6.242735e-02
-6.256081e-02
-6.269100e-02
-6.281817e-02
-6.294281e-02
-6.306550e-02
-6.318682e-02
-6.330733e-02
-6.342755e-02
-6.354792e-02
-6.366880e-02
-6.379052e-02
-6.391347e-02
-6.403804e-02
-6.416455e-02
-6.429321e-02
-6.442412e-02
-6.455742e-02
-6.469325e-02
-6.483172e-02
-6.497282e-02
-6.511624e-02
-6.526144e-02
-6.540767e-02
-6.555423e-02
-6.570056e-02
-6.584623e-02
-6.599090e-02
-6.613423e-02
-6.627599e-02
-6.641614e-02
-6.655483e-02
-6.669238e-02
-6.682915e-02
-6.696550e-02
-6.710172e-02
-6.723806e-02
-6.737465e-02
-6.751158e-02
-6.764888e-02
-6.778652e-02
-6.792434e-02
-6.806211e-02
-6.819974e-02
-6.833734e-02
-6.847530e-02
-6.861407e-02
-6.875393e-02
-6.889489e-02
-6.903672e-02
-6.917906e-02
-6.932142e-02
-6.946337e-02
-6.960476e-02
-6.974568e-02
-6.988645e-02
-7.002740e-02
-7.016882e-02
-7.031082e-02
-7.045331e-02
-7.059597e-02
-7.073826e-02
-7.087953e-02
-7.101921e-02
-7.115692e-02
-7.129261e-02
-7.142656e-02
-7.155930e-02
-7.169139e-02
-7.182333e-02
-7.195551e-02
-7.208823e-02
-7.222173e-02
-7.235614e-02
-7.249140e-02
-7.262731e-02
-7.276360e-02
-7.290008e-02
-7.303669e-02
-7.317350e-02
-7.331065e-02
-7.344824e-02
-7.358629e-02
-7.372470e-02
-7.386344e-02
-7.400260e-02
-7.414238e-02
-7.428300e-02
-7.442452e-02
-7.456685e-02
-7.470983e-02
-7.485319e-02
-7.499667e-02
-7.514001e-02
-7.528313e-02
-7.542610e-02
-7.556902e-02
-7.571198e-02
-7.585491e-02
-7.599764e-02
-7.613987e-02
-7.628134e-02
-7.642184e-02
-7.656128e-02
-7.669970e-02
-7.683723e-02
-7.697398e-02
-7.711010e-02
-7.724580e-02
-7.738131e-02
-7.751691e-02
-7.765297e-02
-7.778989e-02
-7.792799e-02
-7.806738e-02
-7.820796e-02
-7.834946e-02
-7.849155e-02
-7.863391e-02
-7.877630e-02
-7.891852e-02
-7.906034e-02
-7.920158e-02
-7.934201e-02
-7.948152e-02
-7.962018e-02
-7.975827e-02
-7.989627e-02
-8.003475e-02
-8.017431e-02
-8.031547e-02
-8.045864e-02
-8.060399e-02
-8.075149e-02
-8.090088e-02
-8.105176e-02
-8.120359e-02
-8.135572e-02
-8.150738e-02
-8.165788e-02
-8.180671e-02
-8.195362e-02
-8.209857e-02
-8.224168e-02
-8.238316e-02
-8.252322e-02
-8.266209e-02
-8.280008e-02
-8.293757e-02
-8.307495e-02
-8.321256e-02
-8.335071e-02
-8.348958e-02
-8.362922e-02
-8.376944e-02
-8.390990e-02
-8.405022e-02
-8.419015e-02
-8.432967e-02
-8.446887e-02
-8.460796e-02
-8.474706e-02
-8.488619e-02
-8.502520e-02
-8.516393e-02
-8.530226e-02
-8.544021e-02
-8.557791e-02
-8.571545e-02
-8.585297e-02
-8.599056e-02
-8.612831e-02
-8.626625e-02
-8.640442e-02
-8.654288e-02
-8.668178e-02
-8.682127e-02
-8.696145e-02
-8.710230e-02
-8.724381e-02
-8.738599e-02
-8.752899e-02
-8.767302e-02
-8.781816e-02
-8.796430e-02
-8.811112e-02
-8.825822e-02
-8.840534e-02
-8.855245e-02
-8.869964e-02
-8.884704e-02
-8.899472e-02
-8.914259e-02
-8.929045e-02
-8.943809e-02
-8.958538e-02
-8.973224e-02
-8.987868e-02
-9.002476e-02
-9.017045e-02
-9.031559e-02
-9.045996e-02
-9.060334e-02
-9.074561e-02
-9.088680e-02
-9.102716e-02
-9.116714e-02
-9.130723e-02
-9.144792e-02
-9.158956e-02
-9.173231e-02
-9.187613e-02
-9.202070e-02
-9.216555e-02
-9.231018e-02
-9.245422e-02
-9.259745e-02
-9.273986e-02
-9.288165e-02
-9.302314e-02
-9.316468e-02
-9.330642e-02
-9.344821e-02
-9.358963e-02
-9.373014e-02
-9.386930e-02
-9.400692e-02
-9.414305e-02
-9.427789e-02
-9.441173e-02
-9.454502e-02
-9.467833e-02
-9.481228e-02
-9.494725e-02
-9.508335e-02
-9.522048e-02
-9.535849e-02
-9.549727e-02
-9.563679e-02
-9.577699e-02
-9.591780e-02
-9.605911e-02
-9.620086e-02
-9.634297e-02
-9.648525e-02
-9.662744e-02
-9.676929e-02
-9.691066e-02
-9.705155e-02
-9.719206e-02
-9.733227e-02
-9.747216e-02
-9.761156e-02
-9.775029e-02
-9.788818e-02
-9.802506e-02
-9.816076e-02
-9.829522e-02
-9.842856e-02
-9.856115e-02
-9.869351e-02
-9.882621e-02
-9.895972e-02
-9.909427e-02
-9.922982e-02
-9.936620e-02
-9.950329e-02
-9.964100e-02
-9.977920e-02
-9.991777e-02
-1.000565e-01
-1.001953e-01
-1.003342e-01
-1.004730e-01
-1.006117e-01
-1.007503e-01
-1.008887e-01
-1.010268e-01
-1.011649e-01
-1.013030e-01
-1.014415e-01
-1.015806e-01
-1.017208e-01
-1.018625e-01
-1.020059e-01
-1.021511e-01
-1.022976e-01
-1.024449e-01
-1.025926e-01
-1.027404e-01
-1.028886e-01
-1.030374e-01
-1.031870e-01
-1.033369e-01
-1.034858e-01
-1.036328e-01
-1.037773e-01
-1.039199e-01
-1.040614e-01
-1.042021e-01
-1.043405e-01
-1.044722e-01
-1.045912e-01
-1.046921e-01
-1.047704e-01
-1.048240e-01
-1.048531e-01
-1.048621e-01
-1.048593e-01
-1.048557e-01
-1.048621e-01
-1.048871e-01
-1.049363e-01
-1.050129e-01
-1.051177e-01
-1.052505e-01
-1.054122e-01
-1.056062e-01
-1.058372e-01
-1.061093e-01
-1.064250e-01
-1.067831e-01
-1.071761e-01
-1.075894e-01
-1.080046e-01
-1.084047e-01
-1.087757e-01
-1.091074e-01
-1.093923e-01
-1.096250e-01
-1.098041e-01
-1.099344e-01
-1.100255e-01
-1.100873e-01
-1.101248e-01
-1.101361e-01
-1.101132e-01
-1.100463e-01
-1.099278e-01
-1.097554e-01
-1.095362e-01
-1.092914e-01
-1.090524e-01
-1.088492e-01
-1.087004e-01
-1.086142e-01
-1.085930e-01
-1.086376e-01
-1.087478e-01
-1.089209e-01
-1.091492e-01
-1.094179e-01
-1.097076e-01
-1.099994e-01
-1.102758e-01
-1.105204e-01
-1.107186e-01
-1.108604e-01
-1.109426e-01
-1.109684e-01
-1.109436e-01
-1.108725e-01
-1.107603e-01
-1.106155e-01
-1.104517e-01
-1.102874e-01
-1.101446e-01
-1.100462e-01
-1.100146e-01
-1.100716e-01
-1.102376e-01
-1.105249e-01
-1.109309e-01
-1.114371e-01
-1.120118e-01
-1.126142e-01
-1.132020e-01
-1.137439e-01
-1.142249e-01
-1.146381e-01
-1.149746e-01
-1.152179e-01
-1.153499e-01
-1.153601e-01
-1.152518e-01
-1.150353e-01
-1.147175e-01
-1.142956e-01
-1.137640e-01
-1.131294e-01
-1.124225e-01
-1.116980e-01
-1.110259e-01
-1.104740e-01
-1.100879e-01
-1.098770e-01
-1.098131e-01
-1.098412e-01
-1.099001e-01
-1.099463e-01
-1.099677e-01
-1.099767e-01
-1.099888e-01
-1.100083e-01
-1.100328e-01
-1.100636e-01
-1.101058e-01
-1.101668e-01
-1.102617e-01
-1.104177e-01
-1.106642e-01
-1.110180e-01
-1.114790e-01
-1.120363e-01
-1.126675e-01
-1.133352e-01
-1.139895e-01
-1.145798e-01
-1.150616e-01
-1.154003e-01
-1.155775e-01
-1.156005e-01
-1.155019e-01
-1.153218e-01
-1.150851e-01
-1.147965e-01
-1.144523e-01
-1.140403e-01
-1.135224e-01
-1.128305e-01
-1.118923e-01
-1.106614e-01
-1.091322e-01
-1.073460e-01
-1.053965e-01
-1.034215e-01
-1.015679e-01
-9.993990e-02
-9.856435e-02
-9.739464e-02
-9.634152e-02
-9.530341e-02
-9.419295e-02
-9.296941e-02
-9.166588e-02
-9.038732e-02
-8.927655e-02
-8.846726e-02
-8.804271e-02
-8.801035e-02
-8.830092e-02
-8.879060e-02
-8.932682e-02
-8.974400e-02
-8.988154e-02
-8.961995e-02
-8.892340e-02
-8.785377e-02
-8.653232e-02
-8.507232e-02
-8.354471e-02
-8.200436e-02
-8.052187e-02
-7.915752e-02
-7.790541e-02
-7.668711e-02
-7.540394e-02
-7.398168e-02
-7.237028e-02
-7.053216e-02
-6.846228e-02
-6.622985e-02
-6.399038e-02
-6.193663e-02
-6.020897e-02
-5.882467e-02
-5.767782e-02
-5.660357e-02
-5.545785e-02
-5.417908e-02
-5.282088e-02
-5.154480e-02
-5.056777e-02
-5.008313e-02
-5.018983e-02
-5.085093e-02
-5.189177e-02
-5.304910e-02
-5.405451e-02
-5.469493e-02
-5.481280e-02
-5.427830e-02
-5.298310e-02
-5.085600e-02
-4.787821e-02
-4.409831e-02
-3.964475e-02
-3.471082e-02
-2.950436e-02
-2.419178e-02
-1.887064e-02
-1.358268e-02
-8.352550e-03
-3.214954e-03
1.795538e-03
6.670233e-03
1.143020e-02
1.610649e-02
2.072169e-02
2.528643e-02
2.980673e-02
3.429297e-02
3.876522e-02
4.325663e-02
4.781524e-02
5.249212e-02
5.731028e-02
6.223775e-02
6.719302e-02
7.207465e-02
7.678367e-02
8.123122e-02
8.534652e-02
8.908531e-02
9.242745e-02
9.537055e-02
9.793484e-02
1.001713e-01
1.021585e-01
1.039981e-01
1.058150e-01
1.077444e-01
1.098974e-01
1.123303e-01
1.150368e-01
1.179618e-01
1.210217e-01
1.241335e-01
1.272504e-01
1.303936e-01
1.336560e-01
1.371740e-01
1.410869e-01
1.455041e-01
1.504828e-01
1.560181e-01
1.620472e-01
1.684648e-01
1.751342e-01
1.818972e-01
1.885966e-01
1.951179e-01
2.014268e-01
2.075762e-01
2.136837e-01
2.199013e-01
2.263942e-01
2.333193e-01
2.407938e-01
2.488564e-01
2.574545e-01
2.664705e-01
2.757530e-01
2.851310e-01
2.944284e-01
3.034952e-01
3.122361e-01
3.206332e-01
3.287616e-01
3.367785e-01
3.448691e-01
3.531732e-01
3.617301e-01
3.704592e-01
3.791750e-01
3.876365e-01
3.956265e-01
4.030266e-01
4.098508e-01
4.162356e-01
4.223974e-01
4.285626e-01
4.348980e-01
4.414808e-01
4.483101e-01
4.553262e-01
4.624238e-01
4.694731e-01
4.763580e-01
4.830027e-01
4.893727e-01
4.954756e-01
5.013760e-01
5.071982e-01
5.130967e-01
5.192275e-01
5.257326e-01
5.327160e-01
5.402110e-01
5.481706e-01
5.564912e-01
5.650395e-01
5.736701e-01
5.822542e-01
5.907261e-01
5.991180e-01
6.075542e-01
6.162043e-01
6.252217e-01
6.346914e-01
6.446076e-01
6.548875e-01
6.654085e-01
6.760449e-01
6.866922e-01
6.972801e-01
7.077841e-01
7.182375e-01
7.287357e-01
7.394163e-01
7.504055e-01
7.617597e-01
7.734393e-01
7.853223e-01
7.972369e-01
8.089960e-01
8.204362e-01
8.314517e-01
8.420076e-01
8.521324e-01
8.619022e-01
8.714260e-01
8.808302e-01
8.902382e-01
8.997523e-01
9.094442e-01
9.193435e-01
9.294252e-01
9.396195e-01
9.498512e-01
9.600775e-01
9.702933e-01
9.805107e-01
9.907289e-01
1.000903e+00
1.010932e+00
1.020676e+00
1.030011e+00
1.038874e+00
1.047286e+00
1.055338e+00
1.063156e+00
1.070843e+00
1.078453e+00
1.085994e+00
1.093492e+00
1.101037e+00
1.108806e+00
1.117035e+00
1.125951e+00
1.135702e+00
1.146312e+00
1.157706e+00
1.169762e+00
1.182357e+00
1.195371e+00
1.208678e+00
1.222150e+00
1.235646e+00
1.249028e+00
1.262179e+00
1.275041e+00
1.287643e+00
1.300090e+00
1.312516e+00
1.325025e+00
1.337636e+00
1.350276e+00
1.362812e+00
1.375090e+00
1.386971e+00
1.398342e+00
1.409120e+00
1.419257e+00
1.428734e+00
1.437533e+00
1.445616e+00
1.452912e+00
1.459319e+00
1.464702e+00
1.468909e+00
1.471779e+00
1.473149e+00
1.472859e+00
1.470772e+00
1.466818e+00
1.461021e+00
1.453481e+00
1.444331e+00
1.433699e+00
1.421680e+00
1.408326e+00
1.393644e+00
1.377619e+00
1.360262e+00
1.341607e+00
1.321699e+00
1.300578e+00
1.278276e+00
1.254802e+00
1.230137e+00
1.204232e+00
1.177030e+00
1.148469e+00
1.118489e+00
1.087024e+00
1.054006e+00
1.019366e+00
9.830376e-01
9.449557e-01
9.050765e-01
8.634015e-01
8.200059e-01
7.750581e-01
7.288206e-01
6.816302e-01
6.338697e-01
5.859321e-01
5.381697e-01
4.908430e-01
4.440903e-01
3.979304e-01
3.522898e-01
3.070332e-01
2.619789e-01
2.169044e-01
1.715656e-01
1.257335e-01
7.923943e-02
3.201250e-02
-1.590656e-02
-6.438128e-02
-1.132194e-01
-1.622228e-01
-2.112329e-01
-2.601577e-01
-3.089727e-01
-3.576953e-01
-4.063504e-01
-4.549437e-01
-5.034454e-01
-5.517819e-01
-5.998428e-01
-6.475088e-01
-6.946876e-01
-7.413288e-01
-7.874055e-01
-8.328875e-01
-8.777355e-01
-9.219087e-01
-9.653671e-01
-1.008067e+00
-1.049948e+00
-1.090926e+00
-1.130887e+00
-1.169716e+00
-1.207331e+00
-1.243705e+00
-1.278868e+00
-1.312908e+00
-1.345943e+00
-1.378076e+00
-1.409337e+00
-1.439661e+00
-1.468889e+00
-1.496797e+00
-1.523114e+00
-1.547538e+00
-1.569772e+00
-1.589587e+00
-1.606881e+00
-1.621702e+00
-1.634238e+00
-1.644773e+00
-1.653653e+00
-1.661251e+00
-1.667920e+00
-1.673935e+00
-1.679458e+00
-1.684527e+00
-1.689095e+00
-1.693074e+00
-1.696370e+00
-1.698916e+00
-1.700690e+00
-1.701729e+00
-1.702133e+00
-1.702058e+00
-1.701696e+00
-1.701256e+00
-1.700942e+00
-1.700919e+00
-1.701294e+00
-1.702115e+00
-1.703398e+00
-1.705137e+00
-1.707296e+00
-1.709788e+00
-1.712465e+00
-1.715114e+00
-1.717458e+00
-1.719149e+00
-1.719795e+00
-1.719005e+00
-1.716435e+00
-1.711813e+00
-1.704936e+00
-1.695664e+00
-1.683919e+00
-1.669684e+00
-1.653009e+00
-1.633998e+00
-1.612779e+00
-1.589482e+00
-1.564238e+00
-1.537178e+00
-1.508451e+00
-1.478242e+00
-1.446781e+00
-1.414331e+00
-1.381165e+00
-1.347535e+00
-1.313663e+00
-1.279716e+00
-1.245806e+00
-1.211981e+00
-1.178246e+00
-1.144589e+00
-1.110997e+00
-1.077471e+00
-1.044036e+00
-1.010757e+00
-9.777595e-01
-9.452282e-01
-9.133927e-01
-8.825166e-01
-8.528847e-01
-8.247812e-01
-7.984550e-01
-7.740813e-01
-7.517327e-01
-7.313761e-01
-7.128977e-01
-6.961356e-01
-6.809027e-01
-6.669925e-01
-6.541733e-01
-6.421827e-01
-6.307330e-01
-6.195252e-01
-6.082570e-01
-5.966149e-01
-5.842560e-01
-5.708065e-01
-5.558864e-01
-5.391372e-01
-5.202270e-01
-4.988435e-01
-4.747036e-01
-4.475915e-01
-4.174083e-01
-3.842147e-01
-3.482656e-01
-3.100340e-01
-2.702015e-01
-2.295883e-01
-1.890460e-01
-1.493665e-01
-1.112378e-01
-7.523577e-02
-4.183121e-02
-1.141079e-02
1.568950e-02
3.915743e-02
5.871135e-02
7.414883e-02
8.541109e-02
9.262965e-02
9.614601e-02
9.650724e-02
9.443220e-02
9.074658e-02
8.630695e-02
8.194003e-02
7.840426e-02
7.636227e-02
7.635355e-02
7.877219e-02
8.386223e-02
9.173405e-02
1.023929e-01
1.157715e-01
1.317685e-01
1.502887e-01
1.712687e-01
1.946631e-01
2.203950e-01
2.483031e-01
2.781109e-01
3.094250e-01
3.417548e-01
3.745543e-01
4.072862e-01
4.394904e-01
4.708292e-01
5.010883e-01
5.301447e-01
5.579294e-01
5.844075e-01
6.095857e-01
6.335355e-01
6.564113e-01
6.784516e-01
6.999662e-01
7.213100e-01
7.428464e-01
7.649121e-01
7.877870e-01
8.116670e-01
8.366378e-01
8.626631e-01
8.896083e-01
9.172953e-01
9.455548e-01
9.742480e-01
1.003256e+00
1.032464e+00
1.061756e+00
1.091025e+00
1.120184e+00
1.149180e+00
1.178000e+00
1.206669e+00
1.235215e+00
1.263635e+00
1.291876e+00
1.319842e+00
1.347405e+00
1.374418e+00
1.400734e+00
1.426222e+00
1.450760e+00
1.474199e+00
1.496341e+00
1.516951e+00
1.535788e+00
1.552639e+00
1.567325e+00
1.579687e+00
1.589579e+00
1.596895e+00
1.601599e+00
1.603758e+00
1.603541e+00
1.601218e+00
1.597148e+00
1.591743e+00
1.585424e+00
1.578570e+00
1.571502e+00
1.564481e+00
1.557718e+00
1.551369e+00
1.545521e+00
1.540187e+00
1.535307e+00
1.530756e+00
1.526344e+00
1.521834e+00
1.516961e+00
1.511449e+00
1.505032e+00
1.497459e+00
1.488492e+00
1.477881e+00
1.465352e+00
1.450609e+00
1.433361e+00
1.413355e+00
1.390418e+00
1.364479e+00
1.335564e+00
1.303785e+00
1.269334e+00
1.232493e+00
1.193613e+00
1.153093e+00
1.111349e+00
1.068788e+00
1.025794e+00
9.827180e-01
9.398749e-01
8.975457e-01
8.559647e-01
8.152978e-01
7.756350e-01
7.370179e-01
6.994831e-01
6.630878e-01
6.279010e-01
5.939742e-01
5.613217e-01
5.299246e-01
4.997505e-01
4.707649e-01
4.429258e-01
4.161794e-01
3.904658e-01
3.657188e-01
3.418428e-01
3.186802e-01
2.959964e-01
2.734912e-01
2.508371e-01
2.277347e-01
2.039744e-01
1.794794e-01
1.543171e-01
1.286810e-01
1.028560e-01
7.717773e-02
5.199028e-02
2.760181e-02
4.233041e-03
-1.803063e-02
-3.926422e-02
-5.969095e-02
-7.963518e-02
-9.946120e-02
-1.195231e-01
-1.401364e-01
-1.615575e-01
-1.839582e-01
-2.073991e-01
-2.318242e-01
-2.570841e-01
-2.829732e-01
-3.092587e-01
-3.356910e-01
-3.620090e-01
-3.879500e-01
-4.132527e-01
-4.376408e-01
-4.607969e-01
-4.823632e-01
-5.019789e-01
-5.193288e-01
-5.341718e-01
-5.463438e-01
-5.557463e-01
-5.623373e-01
-5.661302e-01
-5.672025e-01
-5.657113e-01
-5.619066e-01
-5.561324e-01
-5.488157e-01
-5.404528e-01
-5.315871e-01
-5.227755e-01
-5.145569e-01
-5.074372e-01
-5.018831e-01
-4.983021e-01
-4.970048e-01
-4.981693e-01
-5.018240e-01
-5.078507e-01
-5.160003e-01
-5.259119e-01
-5.371322e-01
-5.491373e-01
-5.613563e-01
-5.731957e-01
-5.840645e-01
-5.934023e-01
-6.007137e-01
-6.056087e-01
-6.078411e-01
-6.073262e-01
-6.041273e-01
-5.984192e-01
-5.904549e-01
-5.805476e-01
-5.690598e-01
-5.563853e-01
-5.429212e-01
-5.290341e-01
-5.150279e-01
-5.011206e-01
-4.874373e-01
-4.740240e-01
-4.608788e-01
-4.479867e-01
-4.353360e-01
-4.229143e-01
-4.107002e-01
-3.986681e-01
-3.867969e-01
-3.750706e-01
-3.634660e-01
-3.519367e-01
-3.404109e-01
-3.287998e-01
-3.170118e-01
-3.049736e-01
-2.926613e-01
-2.801254e-01
-2.674869e-01
-2.549070e-01
-2.425492e-01
-2.305484e-01
-2.189922e-01
-2.079190e-01
-1.973321e-01
-1.872279e-01
-1.776251e-01
-1.685749e-01
-1.601428e-01
-1.523817e-01
-1.453227e-01
-1.389872e-01
-1.334028e-01
-1.286128e-01
-1.246736e-01
-1.216444e-01
-1.195741e-01
-1.184933e-01
-1.184182e-01
-1.193606e-01
-1.213322e-01
-1.243292e-01
-1.283098e-01
-1.331848e-01
-1.388287e-01
-1.451004e-01
-1.518570e-01
-1.589569e-01
-1.662601e-01
-1.736355e-01
-1.809724e-01
-1.881894e-01
-1.952308e-01
-2.020509e-01
-2.085981e-01
-2.148135e-01
-2.206452e-01
-2.260677e-01
-2.310900e-01
-2.357548e-01
-2.401309e-01
-2.442969e-01
-2.483161e-01
-2.522092e-01
-2.559323e-01
-2.593658e-01
-2.623284e-01
-2.646196e-01
-2.660715e-01
-2.665838e-01
-2.661340e-01
-2.647705e-01
-2.625969e-01
-2.597475e-01
-2.563550e-01
-2.525188e-01
-2.482895e-01
-2.436804e-01
-2.387024e-01
-2.334058e-01
-2.279081e-01
-2.224033e-01
-2.171530e-01
-2.124642e-01
-2.086595e-01
-2.060439e-01
-2.048846e-01
-2.054120e-01
-2.078316e-01
-2.123233e-01
-2.190173e-01
-2.279538e-01
-2.390451e-01
-2.520593e-01
