EVENT_NAME: CENTRAL_ITALY
EVENT_ID: EMSC-20160824_0000006
EVENT_DATE_YYYYMMDD: 20160824
EVENT_TIME_HHMMSS: 013632
EVENT_LATITUDE_DEGREE: 42.6983
EVENT_LONGITUDE_DEGREE: 13.2335
EVENT_DEPTH_KM: 8.1
HYPOCENTER_REFERENCE: INGV-CNT_Seismic_Bulletin
MAGNITUDE_W: 6.0
MAGNITUDE_W_REFERENCE: INGV-webservice
MAGNITUDE_L: 6.0
MAGNITUDE_L_REFERENCE: INGV-CNT_Seismic_Bulletin
FOCAL_MECHANISM: NF
NETWORK: IT
STATION_CODE: NRC
STATION_NAME: NORCIA
STATION_LATITUDE_DEGREE: 42.792543
STATION_LONGITUDE_DEGREE: 13.096475
STATION_ELEVATION_M: 616
LOCATION: 
SENSOR_DEPTH_M: 0.0
VS30_M/S: 687
SITE_CLASSIFICATION_EC8: B
MORPHOLOGIC_CLASSIFICATION: SL
EPICENTRAL_DISTANCE_KM: 15.3
EARTHQUAKE_BACKAZIMUTH_DEGREE: 133.0
DATE_TIME_FIRST_SAMPLE_YYYYMMDD_HHMMSS: 20160824_013629.849
DATE_TIME_FIRST_SAMPLE_PRECISION: milliseconds
SAMPLING_INTERVAL_S: 0.005000
NDATA: 8000
DURATION_S: 40.000
STREAM: HGE
UNITS: cm/s^2
INSTRUMENT: sensor = Unknown [Unknown] | digitizer = Unknown [Unknown]
INSTRUMENT_ANALOG/DIGITAL: D
INSTRUMENTAL_FREQUENCY_HZ: 
INSTRUMENTAL_DAMPING: 
FULL_SCALE_G: 
N_BIT_DIGITAL_CONVERTER: 
PGA_CM/S^2: 352.570810
TIME_PGA_S: 10.430000
BASELINE_CORRECTION: BASELINE REMOVED
FILTER_TYPE: BUTTERWORTH
FILTER_ORDER: 2
LOW_CUT_FREQUENCY_HZ: 0.080
HIGH_CUT_FREQUENCY_HZ: 40.000
LATE/NORMAL_TRIGGERED: NT
DATABASE_VERSION: DYNA 1.0
HEADER_FORMAT: DYNA 1.2
DATA_TYPE: ACCELERATION
PROCESSING: manual (Paolucci et al., 2011)
DATA_TIMESTAMP_YYYYMMDD_HHMMSS: 20160825_132942.360
DATA_LICENSE: CC-BY3_0-IT (http://creativecommons.org/licenses/by/3.0/deed.en)
DATA_CITATION: ESM working group (2015), European Strong-Motion database, version 0.1, Network Activity 3: Networking acceleration networks and SM data users. Project NERA (www.nera-eu.org)
DATA_CREATOR: ESM working group
ORIGINAL_DATA_MEDIATOR_CITATION: Ufficio Rischio Sismico e Vulcanico del Dipartimento della Protezione Civile (http://www.protezionecivile.gov.it/)
ORIGINAL_DATA_MEDIATOR: Rete Accelerometrica Nazionale - RAN Download (http://www.mot1.it/randownload/)
ORIGINAL_DATA_CREATOR_CITATION: Italian Strong Motion Network, Italian Civil Protection Department http://www.protezionecivile.gov.it
ORIGINAL_DATA_CREATOR: network: IT (Italian Strong Motion Network); owner: Dipartimento Della Protezione Civile
USER1: /home/dyna/processing-itaca/processing.py /var/www/processing//tmp/Maria//IT.NRC..HGE.D.20160824.013632.X.ACC.ASC /var/www/processing//tmp/Maria//IT.NRC..HGN.D.20160824.013632.X.ACC.ASC /var/www/processing//tmp/Maria//IT.NRC..HGZ.D.20160824.013632.X.ACC.ASC --tmp /var/www/processing//tmp/Maria/ --le 0.08 --he 40.000 --ln 0.08 --hn 40.000 --lz 0.08 --hz 40.000 --fo 2 --ca 0 --cz 140 --ta 5 --tz 5 --mf 1 --rf 0 --tr NT
USER2: 
USER3: 
USER4: 
USER5: 
[...]
0.032099
0.032894
0.033422
0.032992
0.032566
0.032473
0.032765
0.033575
0.034343
0.034145
0.033471
0.033916
0.034636
0.033893
0.033156
0.033682
0.033911
0.033461
0.033674
0.034485
0.035009
0.035585
0.036385
0.036345
0.035554
0.035312
0.035646
0.035565
0.034785
0.034175
0.034591
0.035758
0.036530
0.036368
0.036038
0.036320
0.037256
0.037794
0.037025
0.036475
0.037229
0.037738
0.037025
0.035650
0.034793
0.035474
0.036724
0.036894
0.036402
0.036499
0.037273
0.038187
0.038382
0.037329
0.036784
0.037958
0.038832
0.038754
0.039004
0.039113
0.038796
0.039110
0.039987
0.040240
0.039387
0.038257
0.037761
0.037547
0.037409
0.038223
0.039583
0.040291
0.040351
0.040105
0.040338
0.041601
0.042754
0.042660
0.041522
0.040415
0.040232
0.040555
0.040723
0.041120
0.041630
0.041593
0.041587
0.041722
0.041714
0.042106
0.041980
0.041266
0.041686
0.042499
0.042609
0.042480
0.042048
0.041940
0.042915
0.043619
0.043129
0.043075
0.044394
0.045534
0.045639
0.045316
0.044264
0.042565
0.041946
0.042573
0.042943
0.043146
0.044102
0.045650
0.046683
0.046298
0.045358
0.044904
0.044829
0.045353
0.046095
0.046061
0.045505
0.045199
0.045661
0.046641
0.046833
0.045723
0.044363
0.044007
0.045405
0.047787
0.048808
0.048416
0.048917
0.049762
0.049065
0.047949
0.047973
0.048650
0.048895
0.048265
0.047362
0.047359
0.048460
0.049300
0.049230
0.048775
0.047764
0.047211
0.048162
0.048840
0.048569
0.048175
0.047950
0.049197
0.051481
0.052053
0.050840
0.050163
0.050804
0.051117
0.049990
0.048928
0.049041
0.049371
0.049403
0.049786
0.050579
0.050723
0.050066
0.050092
0.051553
0.053093
0.052967
0.051827
0.051783
0.052796
0.053191
0.052674
0.052581
0.053420
0.054136
0.054383
0.054497
0.054359
0.053847
0.052686
0.051650
0.052034
0.052566
0.052153
0.052197
0.053061
0.053860
0.054489
0.055236
0.055829
0.055591
0.055432
0.056595
0.057261
0.056049
0.055656
0.057418
0.058154
0.056531
0.055502
0.056563
0.057850
0.057807
0.056855
0.056116
0.056031
0.056379
0.057067
0.058084
0.058598
0.057835
0.057194
0.058069
0.058935
0.058659
0.058698
0.059345
0.059201
0.058796
0.059342
0.059850
0.059514
0.059092
0.059120
0.059890
0.060894
0.060792
0.060029
0.060002
0.060357
0.060367
0.060572
0.061260
0.061383
0.060419
0.059318
0.058873
0.059378
0.060904
0.062306
0.062644
0.063357
0.064856
0.064751
0.063162
0.062731
0.063181
0.062684
0.061975
0.062566
0.063462
0.063008
0.062035
0.062371
0.063450
0.063554
0.063379
0.063867
0.063953
0.063771
0.064591
0.065899
0.066219
0.065814
0.066197
0.066686
0.065480
0.064075
0.064794
0.065878
0.065302
0.065141
0.066450
0.066577
0.065330
0.065545
0.067558
0.069497
0.069517
0.067847
0.067673
0.069453
0.070053
0.068728
0.067298
0.067129
0.067734
0.067614
0.066672
0.065797
0.065892
0.067796
0.069966
0.069980
0.069150
0.069389
0.069607
0.069354
0.069403
0.069477
0.069856
0.070719
0.070671
0.070048
0.070040
0.070029
0.070602
0.071905
0.071699
0.070627
0.070954
0.071702
0.071324
0.070664
0.071396
0.072926
0.073197
0.072533
0.072353
0.072732
0.072980
0.072091
0.069525
0.064392
0.055519
0.044081
0.031137
0.015066
-0.004419
-0.024485
-0.041321
-0.050628
-0.048065
-0.031344
-0.000116
0.045394
0.101724
0.161504
0.217492
0.264074
0.297402
0.314791
0.313189
0.290374
0.247245
0.187831
0.116111
0.035331
-0.047254
-0.120463
-0.175452
-0.205564
-0.202244
-0.159568
-0.081652
0.018189
0.123609
0.219248
0.292670
0.336270
0.346647
0.323903
0.270315
0.187758
0.082783
-0.028656
-0.127067
-0.197627
-0.234881
-0.241543
-0.224081
-0.188513
-0.136651
-0.069078
0.010192
0.095408
0.181013
0.259528
0.318804
0.348468
0.349846
0.330083
0.291309
0.233784
0.163024
0.088338
0.017276
-0.046497
-0.103750
-0.161279
-0.226497
-0.293586
-0.341192
-0.352427
-0.332020
-0.294980
-0.246396
-0.181305
-0.094202
0.016554
0.145426
0.272979
0.366184
0.406401
0.416227
0.436507
0.483691
0.538227
0.555545
0.484097
0.302364
0.060235
-0.134011
-0.199470
-0.159771
-0.111726
-0.115182
-0.146155
-0.154892
-0.125905
-0.080078
-0.057265
-0.104769
-0.248002
-0.447973
-0.601804
-0.606675
-0.444008
-0.220463
-0.102304
-0.166537
-0.328251
-0.441972
-0.447652
-0.390758
-0.340648
-0.336800
-0.381972
-0.427506
-0.386533
-0.219112
0.008611
0.186500
0.264131
0.274190
0.283890
0.342962
0.448958
0.544622
0.571011
0.532807
0.498391
0.536026
0.648664
0.750483
0.709828
0.451062
0.027309
-0.419522
-0.761778
-0.929895
-0.880538
-0.591068
-0.105792
0.461584
0.992104
1.402471
1.628916
1.616661
1.345501
0.854951
0.231999
-0.446000
-1.151107
-1.853995
-2.466512
-2.909726
-3.207636
-3.422422
-3.522863
-3.406020
-3.029343
-2.444724
-1.728701
-0.957831
-0.226947
0.384753
0.851337
1.161630
1.291516
1.250455
1.079393
0.803941
0.499933
0.344526
0.456085
0.740673
0.992131
1.080123
0.999020
0.829078
0.702520
0.708989
0.787536
0.804829
0.735596
0.659026
0.591535
0.421137
0.059226
-0.379845
-0.653319
-0.622368
-0.279413
0.386705
1.352436
2.385820
3.052916
2.973683
2.094593
0.731168
-0.665292
-1.816648
-2.708878
-3.395124
-3.795506
-3.786032
-3.456060
-3.151611
-3.183544
-3.525238
-3.883306
-4.000374
-3.708309
-2.805493
-1.207825
0.808403
2.734878
4.141137
4.785027
4.625966
3.844865
2.733793
1.574141
0.687513
0.419543
0.838030
1.517373
1.858611
1.614653
0.957691
0.154348
-0.625688
-1.245032
-1.518522
-1.266355
-0.454118
0.705497
1.819486
2.518320
2.573714
1.895326
0.567186
-1.112220
-2.689449
-3.674405
-3.695284
-2.658917
-0.794299
1.443324
3.457009
4.586455
4.416478
3.122443
1.313390
-0.429377
-1.678280
-2.078548
-1.519661
-0.246479
1.543652
4.009898
7.091594
9.771176
10.541365
8.705952
4.838814
0.084231
-4.503459
-8.067512
-10.041030
-10.285521
-8.869182
-5.910497
-1.947155
1.977668
4.961486
6.617466
6.773646
5.455892
3.410709
2.070010
2.542803
4.786913
7.762498
10.009997
10.303390
8.522197
5.811103
3.235120
0.660501
-2.386431
-5.388295
-7.082954
-6.631989
-4.208012
-0.853934
1.950797
2.891331
1.473539
-1.632373
-4.949912
-7.084336
-7.438555
-6.394201
-4.963716
-4.013292
-3.691766
-3.643727
-3.602201
-3.622795
-3.797423
-3.894338
-3.422022
-2.037825
0.274724
3.411291
7.148786
10.832155
13.497646
14.610541
14.447234
13.537860
12.131511
10.395209
8.507488
6.309122
3.384245
-0.184674
-3.343974
-4.658829
-3.455920
-0.477203
2.565067
4.285652
4.486111
3.862347
3.242662
2.890615
2.267626
0.829623
-0.951525
-1.902414
-1.424148
0.113143
2.125397
4.188050
5.716064
6.107023
5.216106
3.406194
1.426184
-0.082769
-1.360712
-2.982334
-4.365480
-4.021444
-1.452438
2.171705
5.241896
6.813993
6.475205
3.896931
-0.983411
-7.299621
-12.979742
-15.699583
-14.546939
-10.597965
-5.668676
-0.838963
3.363770
5.941594
5.737268
2.641983
-2.120357
-6.465130
-8.036623
-5.333246
1.028092
8.386295
13.880342
16.314964
16.086117
13.875930
10.157945
5.615445
1.248329
-2.038388
-3.710857
-3.625234
-2.040637
0.354801
2.445899
2.988917
1.358925
-1.817802
-4.906675
-6.649580
-7.377540
-8.106398
-8.773699
-8.477642
-6.909849
-4.523381
-1.707192
1.398372
4.284273
5.968175
5.994108
5.289752
5.466484
7.101114
9.122085
10.005431
9.251361
7.716998
6.606318
6.056489
4.764046
1.284277
-4.031854
-8.725604
-10.180847
-7.659451
-2.636677
2.477552
6.201458
8.648240
10.325125
10.862068
9.322161
5.426072
0.011727
-5.748124
-11.091191
-15.295502
-17.219315
-16.123589
-12.838178
-9.244636
-6.402380
-4.031135
-1.927095
-0.631684
-0.471834
-0.937959
-1.182714
-0.784297
0.007430
0.830082
1.879337
3.554342
5.290024
5.413106
3.043558
-0.049832
-0.653146
2.516133
7.571510
11.849434
14.614233
16.809200
18.713779
19.212416
17.539398
14.226459
10.241791
6.525963
4.026692
3.161372
3.588661
4.855558
6.620712
7.999748
7.594070
4.885828
1.076018
-2.270330
-4.971328
-7.766724
-10.933280
-14.303276
-17.360193
-18.653111
-16.897854
-12.938181
-8.845896
-5.334849
-1.619669
2.658713
6.811791
10.279362
13.037882
14.460548
13.083521
8.236838
1.254276
-5.289038
-9.325434
-10.425598
-9.424040
-7.009937
-3.366399
0.759093
4.138691
6.170920
6.610229
5.232133
2.616903
-0.070228
-2.080682
-3.001562
-2.610245
-1.456909
-0.511370
0.028999
0.326048
-0.445879
-3.175456
-6.780642
-8.891896
-8.327710
-5.687888
-2.027566
1.960073
5.730335
8.589117
9.667649
8.454917
5.548469
2.272443
-0.465924
-2.592684
-4.653436
-7.183638
-9.634004
-10.306333
-8.204803
-4.548019
-1.371446
0.975229
3.597510
6.718776
9.065623
9.353828
7.090236
2.384057
-3.529486
-8.060069
-8.947362
-5.890927
-0.243571
5.801738
9.784746
10.493969
9.315742
8.654575
8.842272
8.058754
5.262303
1.911062
0.751227
3.346003
8.949190
15.481861
20.426136
21.397905
18.110008
13.378916
10.438273
9.979006
11.285761
14.911067
21.755503
30.479736
38.535141
44.611862
47.083408
41.904217
26.335829
3.555694
-19.895077
-39.109638
-51.014755
-53.803951
-49.171295
-42.007729
-35.787128
-30.308987
-24.704988
-19.609173
-15.480550
-12.238538
-10.750000
-11.252671
-11.239322
-7.980523
-1.988334
3.843714
7.054742
6.603271
2.842181
-2.309693
-5.831456
-4.977346
1.077949
10.483228
20.101002
27.961946
33.930122
38.123318
39.628868
37.212288
30.541714
20.149405
7.353535
-4.941903
-12.968282
-14.932979
-12.410207
-8.501905
-5.195481
-2.578253
0.015778
3.132402
7.398128
12.473130
15.606681
13.924193
7.982101
0.799650
-5.439775
-9.841019
-11.855652
-12.267059
-13.472356
-16.217211
-18.009649
-16.607225
-12.059246
-5.048257
2.966167
8.942833
11.423571
13.342237
18.115286
24.205734
27.640377
28.353127
29.184086
30.099522
28.620745
25.084196
22.545273
22.192451
23.113388
25.163900
28.315586
30.969982
31.923197
32.169952
32.512451
31.186417
25.699709
15.486225
1.402327
-15.333619
-32.068943
-45.071056
-52.962124
-57.939060
-62.170425
-64.474449
-62.279148
-56.459587
-51.962414
-52.477314
-56.702057
-61.663010
-66.971291
-73.514900
-80.494278
-85.732315
-87.577545
-86.002144
-82.665321
-79.588394
-77.275932
-74.773209
-71.566528
-68.219559
-65.292404
-62.908585
-61.001007
-59.277676
-57.079041
-53.192852
-46.951279
-39.961525
-34.503040
-30.463924
-26.242659
-21.152712
-14.914401
-7.032504
1.728880
9.311713
14.741993
18.821081
21.719761
21.682701
18.191046
14.784236
14.677744
15.365241
12.362435
5.316303
-2.863218
-9.206326
-12.676697
-15.574483
-21.207245
-29.364988
-36.012924
-37.755283
-35.591621
-33.156624
-31.747229
-29.667421
-26.381641
-23.984236
-24.340212
-27.132750
-30.225119
-30.906967
-27.711250
-20.854259
-10.834941
1.877863
16.343349
31.851448
47.803318
62.356979
73.635963
82.183350
89.758972
96.916298
103.938828
112.383629
123.550331
136.285721
147.586136
154.686356
156.104340
151.700775
141.535400
124.684349
101.288025
74.914917
49.570274
25.382660
0.379779
-24.910282
-47.769096
-66.525322
-80.637421
-89.846916
-95.738464
-101.694794
-109.365616
-116.600456
-119.678612
-116.699234
-108.343948
-96.284653
-81.577217
-64.301491
-44.770645
-24.649830
-6.509475
6.893262
13.694764
14.854964
14.212469
15.377094
18.678980
21.946508
23.859459
25.043783
26.496458
28.425966
29.791021
28.221907
21.616508
10.276820
-3.536122
-18.178082
-33.817898
-50.950726
-68.245018
-82.248169
-89.613281
-90.047562
-86.549843
-82.071793
-77.247932
-72.163864
-67.720757
-63.414116
-56.329422
-44.985455
-32.140892
-20.792025
-9.454368
5.456632
24.833261
46.801643
68.815971
88.437035
104.331009
117.426208
130.041229
143.623535
157.797379
171.309006
182.827148
190.580475
192.162643
185.714096
171.917328
154.007401
134.167419
111.107956
83.358070
52.878166
22.962120
-5.720129
-35.498440
-68.770592
-104.984093
-140.998413
-174.327118
-204.657364
-232.303345
-256.399170
-275.007874
-287.155365
-294.274750
-298.795166
-301.730072
-302.024811
-297.391541
-285.535522
-265.379089
-237.543396
-203.605209
-164.910278
-122.164032
-76.173943
-29.231281
14.626823
52.333485
85.096169
117.197243
150.746887
183.030899
209.543472
227.997849
239.251434
246.410049
253.006454
259.853699
263.492523
259.518921
247.105423
227.980881
201.594467
164.406052
114.484123
54.895370
-7.847658
-67.798386
-122.576843
-173.054871
-219.482773
-259.026978
-288.743317
-308.673157
-319.900513
-322.041809
-314.421844
-297.928406
-274.439178
-245.604263
-213.175278
-178.825134
-142.426636
-102.250069
-57.472595
-9.703264
37.402153
80.338768
118.468620
153.514160
186.264862
215.648209
240.947189
263.003143
282.988953
301.261749
317.558411
331.466339
342.541260
350.025208
352.570801
348.915680
338.867035
322.876312
300.528595
270.408905
232.393692
189.403183
145.586029
103.450516
64.080139
28.597420
-2.810843
-31.886665
-60.345165
-87.849953
-112.350250
-131.697800
-145.513794
-155.410126
-162.260757
-164.299179
-159.606766
-149.152847
-135.768707
-121.968925
-110.154556
-102.385002
-98.523735
-96.554314
-94.972694
-93.234711
-90.222595
-84.220940
-74.632401
-62.134155
-47.401100
-31.106627
-14.265168
2.792808
21.106939
41.645542
63.235409
82.876106
98.702583
111.810387
124.143753
135.601303
144.647644
150.442032
152.510056
149.556885
140.538712
126.137466
108.036201
87.865425
67.209084
46.847305
25.767153
2.019865
-25.729181
-57.638210
-92.312325
-126.193871
-154.040054
-170.356461
-171.026428
-155.692459
-129.008240
-98.485825
-71.284950
-52.227798
-42.543663
-40.087059
-41.926632
-46.947334
-55.732693
-68.575111
-84.302818
-101.069351
-117.891861
-134.795166
-151.411652
-166.499710
-179.502106
-191.529266
-203.710266
-214.986359
-222.027786
-221.166306
-210.890060
-193.429825
-173.727295
-155.811035
-139.948975
-123.161835
-101.586525
-72.757721
-37.478485
0.041592
34.930931
65.042511
91.468552
116.032425
139.186493
160.343185
179.164536
196.346252
212.668503
226.152222
232.066467
228.004425
217.042328
204.466431
193.468918
184.919769
179.042450
175.354492
171.675797
164.821579
152.687729
135.160767
113.027214
87.484779
61.826233
42.228451
35.170528
43.814606
66.585907
98.219498
131.850693
161.517975
183.942352
198.037399
203.688202
201.529800
192.326645
176.390884
155.186844
132.359070
110.686539
89.442528
67.522636
47.593105
34.243862
28.934233
28.803684
29.822775
29.680695
28.287386
27.096989
27.928316
31.515917
37.381229
45.206921
55.397263
68.293945
83.653145
100.676994
118.132401
135.020447
151.433517
167.966370
184.142227
198.013519
207.298141
210.917953
209.394745
203.421402
192.645325
176.660751
156.382874
133.233139
107.756165
80.280380
52.171127
25.279324
0.419507
-22.921850
-45.512432
-67.736267
-90.127182
-113.707336
-138.954926
-164.393555
-186.677292
-202.214478
-208.635605
-205.122040
-192.105347
-171.159729
-145.399536
-119.470245
-97.773605
-82.049583
-71.116127
-62.864170
-55.769352
-48.692924
-40.715851
-31.886137
-23.110128
-14.668608
-5.761456
3.906563
13.142097
20.800383
27.600475
35.360046
44.659321
54.090744
61.896908
67.840179
73.084694
78.505074
83.712418
87.390671
87.763611
82.883636
70.978195
50.950760
23.127787
-10.708614
-48.573029
-89.034264
-130.415680
-170.108826
-205.261871
-234.055786
-256.356720
-273.283203
-286.080627
-295.248993
-300.630096
-302.178711
-300.393738
-295.847626
-288.652130
-278.661591
-265.960114
-251.186829
-235.212769
-218.138062
-199.230270
-178.222519
-156.125610
-134.538315
-114.377502
-95.480492
-77.171349
-58.753983
-39.758854
-20.275335
-1.063015
16.709522
31.833654
43.591900
52.325485
59.260178
65.448463
71.087067
76.288544
81.972023
88.804131
95.912590
101.540024
103.751152
100.776230
92.144852
78.865295
62.052345
42.039268
19.046474
-5.663214
-29.952633
-52.254520
-72.461754
-91.001427
-107.291504
-119.882149
-127.777512
-130.975098
-130.213806
-126.482353
-120.412819
-112.197403
-102.229034
-91.452316
-80.928772
-71.349419
-62.918171
-55.514469
-48.898865
-42.664223
-36.176373
-28.662479
-19.558228
-9.369708
0.118700
7.206267
11.565175
14.038706
15.650044
16.954004
18.163513
19.470217
20.884129
22.196333
23.448479
24.959555
26.681725
27.912806
27.902197
26.571154
24.245872
20.959255
16.668352
11.761664
6.719992
1.654731
-3.579613
-9.276000
-15.861477
-23.590530
-32.358742
-41.889519
-51.992340
-62.812145
-74.535942
-86.508987
-97.363609
-106.409203
-114.067909
-120.676186
-125.850700
-129.508942
-132.464142
-135.238785
-137.096664
-136.930130
-134.553619
-130.564377
-125.214142
-118.069878
-108.836884
-97.798561
-85.294075
-71.510483
-56.850975
-41.927364
-27.164209
-12.418435
2.968411
19.186615
35.158764
49.331497
60.853352
69.520462
75.183693
77.863457
78.405006
78.377487
78.807823
79.597092
80.606628
82.443985
85.764313
90.397514
95.331734
99.214607
100.854149
99.609337
95.579933
89.413490
81.723747
72.540459
61.690815
49.981468
39.204399
30.465908
23.404058
17.498056
13.217354
11.382556
12.081733
14.681236
18.520020
23.261023
28.679922
34.466465
40.451855
46.666851
52.883595
58.508278
63.198746
67.185783
70.698441
73.350418
74.331757
73.276123
70.969254
68.936554
68.179039
68.579727
69.617149
71.247482
73.862183
77.711105
82.558784
87.677437
92.134781
95.382088
97.634636
99.400146
100.701599
101.179779
100.794067
99.894669
98.808479
97.802567
97.084732
96.485001
95.536873
94.024284
92.179482
90.436684
89.090630
87.969101
86.510597
84.367447
81.776939
79.296036
77.263855
75.388306
72.839424
68.944084
63.796322
57.964539
51.658817
44.642147
36.999634
29.440557
22.724949
17.245871
13.096747
10.021742
7.436949
4.914629
2.472830
0.162598
-2.467007
-6.277783
-11.804427
-18.643633
-25.772322
-32.515541
-38.950993
-45.352486
-51.652302
-57.505981
-62.491398
-66.157562
-68.066338
-67.940697
-65.911385
-62.520439
-58.296146
-53.505268
-48.500046
-43.904842
-39.985630
-36.192715
-31.933081
-27.382130
-22.861700
-18.004557
-12.464919
-7.047182
-3.188180
-1.400500
-0.848292
-0.459417
0.132915
1.001166
