EVENT_NAME: CENTRAL_ITALY
EVENT_ID: EMSC-20161030_0000029
EVENT_DATE_YYYYMMDD: 20161030
EVENT_TIME_HHMMSS: 064018
EVENT_LATITUDE_DEGREE: 42.8400
EVENT_LONGITUDE_DEGREE: 13.1100
EVENT_DEPTH_KM: 9.4
HYPOCENTER_REFERENCE: INGV-webservice
MAGNITUDE_W: 6.5
MAGNITUDE_W_REFERENCE: INGV-webservice
MAGNITUDE_L: 6.1
MAGNITUDE_L_REFERENCE: INGV-webservice
FOCAL_MECHANISM: NF
NETWORK: IT
STATION_CODE: NRC
STATION_NAME: NORCIA
STATION_LATITUDE_DEGREE: 42.792543
STATION_LONGITUDE_DEGREE: 13.096475
STATION_ELEVATION_M: 616
LOCATION: 
SENSOR_DEPTH_M: 0.0
VS30_M/S: 687
SITE_CLASSIFICATION_EC8: B
MORPHOLOGIC_CLASSIFICATION: SL
EPICENTRAL_DISTANCE_KM: 5.4
EARTHQUAKE_BACKAZIMUTH_DEGREE: 11.8
DATE_TIME_FIRST_SAMPLE_YYYYMMDD_HHMMSS: 20161030_064013.314
DATE_TIME_FIRST_SAMPLE_PRECISION: milliseconds
SAMPLING_INTERVAL_S: 0.005000
NDATA: 10000
DURATION_S: 50.000
STREAM: HGZ
UNITS: cm
INSTRUMENT: sensor = Unknown [Unknown] | digitizer = Unknown [Unknown]
INSTRUMENT_ANALOG/DIGITAL: D
INSTRUMENTAL_FREQUENCY_HZ: 
INSTRUMENTAL_DAMPING: 
FULL_SCALE_G: 
N_BIT_DIGITAL_CONVERTER: 
PGD_CM: 6.414431
TIME_PGD_S: 9.960000
BASELINE_CORRECTION: BASELINE REMOVED
FILTER_TYPE: BUTTERWORTH
FILTER_ORDER: 2
LOW_CUT_FREQUENCY_HZ: 0.100
HIGH_CUT_FREQUENCY_HZ: 50.000
LATE/NORMAL_TRIGGERED: NT
DATABASE_VERSION: DYNA 1.0
HEADER_FORMAT: DYNA 1.2
DATA_TYPE: DISPLACEMENT
PROCESSING: manual (Paolucci et al., 2011)
DATA_TIMESTAMP_YYYYMMDD_HHMMSS: 20161030_132633.881
DATA_LICENSE: CC-BY3_0-IT (http://creativecommons.org/licenses/by/3.0/deed.en)
DATA_CITATION: ESM working group (2015), European Strong-Motion database, version 0.1, Network Activity 3: Networking acceleration networks and SM data users. Project NERA (www.nera-eu.org)
DATA_CREATOR: ESM working group
ORIGINAL_DATA_MEDIATOR_CITATION: Ufficio Rischio Sismico e Vulcanico del Dipartimento della Protezione Civile (http://www.protezionecivile.gov.it/)
ORIGINAL_DATA_MEDIATOR: Rete Accelerometrica Nazionale - RAN Download (http://www.mot1.it/randownload/)
ORIGINAL_DATA_CREATOR_CITATION: Italian Strong Motion Network, Italian Civil Protection Department http://www.protezionecivile.gov.it
ORIGINAL_DATA_CREATOR: network: IT (Italian Strong Motion Network); owner: Dipartimento Della Protezione Civile
USER1: /home/dyna/processing-itaca/processing.py /var/www/processing//tmp/Lucia//IT.NRC..HGE.D.20161030.064018.X.ACC.ASC /var/www/processing//tmp/Lucia//IT.NRC..HGN.D.20161030.064018.X.ACC.ASC /var/www/processing//tmp/Lucia//IT.NRC..HGZ.D.20161030.064018.X.ACC.ASC --tmp /var/www/processing//tmp/Lucia/ --le 0.100 --he 50.000 --ln 0.100 --hn 50.000 --lz 0.100 --hz 50.000 --fo 2 --ca 0 --cz 130 --ta 5 --tz 5 --mf 1 --rf 0 --tr NT
USER2: 
USER3: 
USER4: 
USER5: 
[...]
-4.720458e-01
-4.755325e-01
-4.790305e-01
-4.825398e-01
-4.860603e-01
-4.895921e-01
-4.931352e-01
-4.966897e-01
-5.002556e-01
-5.038329e-01
-5.074216e-01
-5.110217e-01
-5.146333e-01
-5.182562e-01
-5.218906e-01
-5.255365e-01
-5.291938e-01
-5.328626e-01
-5.365430e-01
-5.402350e-01
-5.439385e-01
-5.476536e-01
-5.513802e-01
-5.551184e-01
-5.588682e-01
-5.626296e-01
-5.664027e-01
-5.701874e-01
-5.739838e-01
-5.777918e-01
-5.816115e-01
-5.854429e-01
-5.892860e-01
-5.931408e-01
-5.970074e-01
-6.008856e-01
-6.047757e-01
-6.086774e-01
-6.125910e-01
-6.165163e-01
-6.204536e-01
-6.244027e-01
-6.283636e-01
-6.323364e-01
-6.363211e-01
-6.403176e-01
-6.443261e-01
-6.483465e-01
-6.523788e-01
-6.564231e-01
-6.604792e-01
-6.645474e-01
-6.686275e-01
-6.727197e-01
-6.768240e-01
-6.809404e-01
-6.850688e-01
-6.892092e-01
-6.933616e-01
-6.975261e-01
-7.017027e-01
-7.058914e-01
-7.100923e-01
-7.143052e-01
-7.185303e-01
-7.227675e-01
-7.270168e-01
-7.312783e-01
-7.355520e-01
-7.398379e-01
-7.441361e-01
-7.484464e-01
-7.527690e-01
-7.571038e-01
-7.614509e-01
-7.658102e-01
-7.701818e-01
-7.745657e-01
-7.789618e-01
-7.833702e-01
-7.877909e-01
-7.922239e-01
-7.966693e-01
-8.011269e-01
-8.055970e-01
-8.100794e-01
-8.145742e-01
-8.190814e-01
-8.236009e-01
-8.281328e-01
-8.326771e-01
-8.372338e-01
-8.418029e-01
-8.463845e-01
-8.509785e-01
-8.555850e-01
-8.602040e-01
-8.648354e-01
-8.694794e-01
-8.741359e-01
-8.788048e-01
-8.834862e-01
-8.881801e-01
-8.928865e-01
-8.976055e-01
-9.023370e-01
-9.070812e-01
-9.118378e-01
-9.166071e-01
-9.213890e-01
-9.261834e-01
-9.309905e-01
-9.358101e-01
-9.406424e-01
-9.454873e-01
-9.503447e-01
-9.552147e-01
-9.600973e-01
-9.649926e-01
-9.699005e-01
-9.748211e-01
-9.797543e-01
-9.847002e-01
-9.896588e-01
-9.946300e-01
-9.996140e-01
-1.004611e+00
-1.009620e+00
-1.014642e+00
-1.019677e+00
-1.024724e+00
-1.029784e+00
-1.034857e+00
-1.039943e+00
-1.045042e+00
-1.050153e+00
-1.055277e+00
-1.060414e+00
-1.065563e+00
-1.070725e+00
-1.075900e+00
-1.081088e+00
-1.086289e+00
-1.091502e+00
-1.096728e+00
-1.101967e+00
-1.107219e+00
-1.112484e+00
-1.117762e+00
-1.123052e+00
-1.128355e+00
-1.133671e+00
-1.139000e+00
-1.144342e+00
-1.149696e+00
-1.155060e+00
-1.160435e+00
-1.165817e+00
-1.171206e+00
-1.176602e+00
-1.182009e+00
-1.187430e+00
-1.192870e+00
-1.198330e+00
-1.203808e+00
-1.209302e+00
-1.214808e+00
-1.220326e+00
-1.225850e+00
-1.231371e+00
-1.236876e+00
-1.242345e+00
-1.247755e+00
-1.253092e+00
-1.258371e+00
-1.263633e+00
-1.268918e+00
-1.274254e+00
-1.279659e+00
-1.285138e+00
-1.290686e+00
-1.296285e+00
-1.301928e+00
-1.307614e+00
-1.313346e+00
-1.319112e+00
-1.324885e+00
-1.330633e+00
-1.336341e+00
-1.342004e+00
-1.347632e+00
-1.353248e+00
-1.358874e+00
-1.364539e+00
-1.370254e+00
-1.376014e+00
-1.381797e+00
-1.387588e+00
-1.393401e+00
-1.399276e+00
-1.405251e+00
-1.411319e+00
-1.417427e+00
-1.423515e+00
-1.429552e+00
-1.435559e+00
-1.441597e+00
-1.447744e+00
-1.454071e+00
-1.460604e+00
-1.467293e+00
-1.474014e+00
-1.480637e+00
-1.487094e+00
-1.493394e+00
-1.499584e+00
-1.505722e+00
-1.511850e+00
-1.517961e+00
-1.523979e+00
-1.529815e+00
-1.535438e+00
-1.540921e+00
-1.546410e+00
-1.552063e+00
-1.557959e+00
-1.564044e+00
-1.570161e+00
-1.576172e+00
-1.582037e+00
-1.587793e+00
-1.593471e+00
-1.599070e+00
-1.604564e+00
-1.609905e+00
-1.615021e+00
-1.619874e+00
-1.624518e+00
-1.629058e+00
-1.633569e+00
-1.638039e+00
-1.642392e+00
-1.646516e+00
-1.650294e+00
-1.653625e+00
-1.656466e+00
-1.658846e+00
-1.660827e+00
-1.662457e+00
-1.663752e+00
-1.664733e+00
-1.665495e+00
-1.666214e+00
-1.667073e+00
-1.668182e+00
-1.669562e+00
-1.671166e+00
-1.672908e+00
-1.674713e+00
-1.676572e+00
-1.678541e+00
-1.680671e+00
-1.682949e+00
-1.685317e+00
-1.687703e+00
-1.690034e+00
-1.692257e+00
-1.694389e+00
-1.696514e+00
-1.698709e+00
-1.700960e+00
-1.703190e+00
-1.705350e+00
-1.707460e+00
-1.709589e+00
-1.711842e+00
-1.714319e+00
-1.717057e+00
-1.719971e+00
-1.722887e+00
-1.725676e+00
-1.728364e+00
-1.731105e+00
-1.734047e+00
-1.737238e+00
-1.740626e+00
-1.744106e+00
-1.747571e+00
-1.750949e+00
-1.754220e+00
-1.757398e+00
-1.760470e+00
-1.763349e+00
-1.765925e+00
-1.768119e+00
-1.769904e+00
-1.771340e+00
-1.772545e+00
-1.773575e+00
-1.774356e+00
-1.774782e+00
-1.774819e+00
-1.774481e+00
-1.773774e+00
-1.772703e+00
-1.771351e+00
-1.769859e+00
-1.768332e+00
-1.766804e+00
-1.765311e+00
-1.763919e+00
-1.762708e+00
-1.761734e+00
-1.761006e+00
-1.760509e+00
-1.760249e+00
-1.760249e+00
-1.760489e+00
-1.760890e+00
-1.761341e+00
-1.761722e+00
-1.761893e+00
-1.761720e+00
-1.761087e+00
-1.759912e+00
-1.758123e+00
-1.755681e+00
-1.752670e+00
-1.749319e+00
-1.745887e+00
-1.742544e+00
-1.739375e+00
-1.736428e+00
-1.733662e+00
-1.730942e+00
-1.728184e+00
-1.725522e+00
-1.723272e+00
-1.721735e+00
-1.721044e+00
-1.721148e+00
-1.721881e+00
-1.723043e+00
-1.724487e+00
-1.726212e+00
-1.728381e+00
-1.731209e+00
-1.734812e+00
-1.739147e+00
-1.744066e+00
-1.749401e+00
-1.755001e+00
-1.760751e+00
-1.766611e+00
-1.772651e+00
-1.779000e+00
-1.785754e+00
-1.792950e+00
-1.800548e+00
-1.808418e+00
-1.816379e+00
-1.824260e+00
-1.831911e+00
-1.839221e+00
-1.846195e+00
-1.852991e+00
-1.859860e+00
-1.867063e+00
-1.874784e+00
-1.883043e+00
-1.891651e+00
-1.900230e+00
-1.908325e+00
-1.915604e+00
-1.921952e+00
-1.927415e+00
-1.932137e+00
-1.936343e+00
-1.940246e+00
-1.943984e+00
-1.947662e+00
-1.951391e+00
-1.955275e+00
-1.959463e+00
-1.964201e+00
-1.969799e+00
-1.976537e+00
-1.984540e+00
-1.993623e+00
-2.003261e+00
-2.012766e+00
-2.021492e+00
-2.029019e+00
-2.035238e+00
-2.040297e+00
-2.044527e+00
-2.048390e+00
-2.052406e+00
-2.057028e+00
-2.062521e+00
-2.068882e+00
-2.075849e+00
-2.083033e+00
-2.090140e+00
-2.097182e+00
-2.104476e+00
-2.112341e+00
-2.120812e+00
-2.129602e+00
-2.138261e+00
-2.146422e+00
-2.154001e+00
-2.161224e+00
-2.168527e+00
-2.176337e+00
-2.184819e+00
-2.193802e+00
-2.202947e+00
-2.211940e+00
-2.220538e+00
-2.228544e+00
-2.235826e+00
-2.242322e+00
-2.248016e+00
-2.252983e+00
-2.257416e+00
-2.261492e+00
-2.265162e+00
-2.268140e+00
-2.270184e+00
-2.271390e+00
-2.272193e+00
-2.273126e+00
-2.274638e+00
-2.277024e+00
-2.280305e+00
-2.284146e+00
-2.287996e+00
-2.291466e+00
-2.294657e+00
-2.298092e+00
-2.302355e+00
-2.307809e+00
-2.314573e+00
-2.322571e+00
-2.331569e+00
-2.341215e+00
-2.351152e+00
-2.361085e+00
-2.370756e+00
-2.379969e+00
-2.388661e+00
-2.396918e+00
-2.404937e+00
-2.413015e+00
-2.421438e+00
-2.430248e+00
-2.439244e+00
-2.448274e+00
-2.457429e+00
-2.466940e+00
-2.476979e+00
-2.487566e+00
-2.498498e+00
-2.509249e+00
-2.518998e+00
-2.526925e+00
-2.532602e+00
-2.536163e+00
-2.538189e+00
-2.539480e+00
-2.540743e+00
-2.542263e+00
-2.543782e+00
-2.544768e+00
-2.544817e+00
-2.543900e+00
-2.542366e+00
-2.540776e+00
-2.539657e+00
-2.539255e+00
-2.539391e+00
-2.539565e+00
-2.539225e+00
-2.537930e+00
-2.535399e+00
-2.531610e+00
-2.526872e+00
-2.521652e+00
-2.516296e+00
-2.510954e+00
-2.505675e+00
-2.500390e+00
-2.494841e+00
-2.488704e+00
-2.481810e+00
-2.474167e+00
-2.465783e+00
-2.456549e+00
-2.446245e+00
-2.434671e+00
-2.421905e+00
-2.408571e+00
-2.395750e+00
-2.384499e+00
-2.375346e+00
-2.368168e+00
-2.362451e+00
-2.357604e+00
-2.353141e+00
-2.348847e+00
-2.344843e+00
-2.341367e+00
-2.338475e+00
-2.335970e+00
-2.333479e+00
-2.330526e+00
-2.326722e+00
-2.321943e+00
-2.316283e+00
-2.309899e+00
-2.302940e+00
-2.295526e+00
-2.287747e+00
-2.279699e+00
-2.271485e+00
-2.263164e+00
-2.254687e+00
-2.245940e+00
-2.236867e+00
-2.227482e+00
-2.217718e+00
-2.207413e+00
-2.196508e+00
-2.185180e+00
-2.173791e+00
-2.162802e+00
-2.152673e+00
-2.143691e+00
-2.135862e+00
-2.128982e+00
-2.122777e+00
-2.116947e+00
-2.111102e+00
-2.104777e+00
-2.097579e+00
-2.089323e+00
-2.080025e+00
-2.069792e+00
-2.058753e+00
-2.047079e+00
-2.034937e+00
-2.022314e+00
-2.008952e+00
-1.994606e+00
-1.979388e+00
-1.963750e+00
-1.948131e+00
-1.932667e+00
-1.917202e+00
-1.901480e+00
-1.885324e+00
-1.868703e+00
-1.851686e+00
-1.834437e+00
-1.817311e+00
-1.800862e+00
-1.785576e+00
-1.771547e+00
-1.758440e+00
-1.745660e+00
-1.732478e+00
-1.718194e+00
-1.702470e+00
-1.685522e+00
-1.667991e+00
-1.650674e+00
-1.634232e+00
-1.618932e+00
-1.604627e+00
-1.591009e+00
-1.577882e+00
-1.565225e+00
-1.553100e+00
-1.541465e+00
-1.530028e+00
-1.518315e+00
-1.505898e+00
-1.492539e+00
-1.478206e+00
-1.463030e+00
-1.447222e+00
-1.430925e+00
-1.414173e+00
-1.397060e+00
-1.379942e+00
-1.363408e+00
-1.348022e+00
-1.334082e+00
-1.321601e+00
-1.310407e+00
-1.300237e+00
-1.290828e+00
-1.281995e+00
-1.273606e+00
-1.265468e+00
-1.257354e+00
-1.249206e+00
-1.241293e+00
-1.234148e+00
-1.228364e+00
-1.224359e+00
-1.222252e+00
-1.221861e+00
-1.222764e+00
-1.224423e+00
-1.226400e+00
-1.228566e+00
-1.231103e+00
-1.234276e+00
-1.238206e+00
-1.242838e+00
-1.248055e+00
-1.253732e+00
-1.259642e+00
-1.265346e+00
-1.270261e+00
-1.273846e+00
-1.275796e+00
-1.276136e+00
-1.275193e+00
-1.273457e+00
-1.271427e+00
-1.269572e+00
-1.268348e+00
-1.268126e+00
-1.269100e+00
-1.271317e+00
-1.274767e+00
-1.279304e+00
-1.284455e+00
-1.289443e+00
-1.293481e+00
-1.296080e+00
-1.297178e+00
-1.297017e+00
-1.295946e+00
-1.294269e+00
-1.292203e+00
-1.289906e+00
-1.287552e+00
-1.285399e+00
-1.283738e+00
-1.282753e+00
-1.282372e+00
-1.282199e+00
-1.281581e+00
-1.279741e+00
-1.275891e+00
-1.269314e+00
-1.259501e+00
-1.246240e+00
-1.229557e+00
-1.209584e+00
-1.186506e+00
-1.160610e+00
-1.132320e+00
-1.102115e+00
-1.070383e+00
-1.037340e+00
-1.003117e+00
-9.679515e-01
-9.322686e-01
-8.965550e-01
-8.612040e-01
-8.263790e-01
-7.918494e-01
-7.569229e-01
-7.206460e-01
-6.822212e-01
-6.413878e-01
-5.985397e-01
-5.545822e-01
-5.106899e-01
-4.680605e-01
-4.276885e-01
-3.901997e-01
-3.557762e-01
-3.241985e-01
-2.950349e-01
-2.678310e-01
-2.420983e-01
-2.172407e-01
-1.927038e-01
-1.682023e-01
-1.436254e-01
-1.187119e-01
-9.301156e-02
-6.623735e-02
-3.858604e-02
-1.074082e-02
1.638112e-02
4.194185e-02
6.538317e-02
8.649186e-02
1.054695e-01
1.230246e-01
1.402507e-01
1.582045e-01
1.775387e-01
1.985620e-01
2.216013e-01
2.472055e-01
2.759341e-01
3.078818e-01
3.423007e-01
3.776339e-01
4.120203e-01
4.439489e-01
4.726492e-01
4.981602e-01
5.213236e-01
5.437389e-01
5.674314e-01
5.942474e-01
6.253865e-01
6.613505e-01
7.022763e-01
7.484800e-01
8.008378e-01
8.605409e-01
9.281877e-01
1.002915e+00
1.082404e+00
1.163697e+00
1.244078e+00
1.321668e+00
1.395898e+00
1.467792e+00
1.539706e+00
1.614460e+00
1.694291e+00
1.780172e+00
1.871769e+00
1.967926e+00
2.067224e+00
2.168269e+00
2.269827e+00
2.371102e+00
2.471963e+00
2.572638e+00
2.673035e+00
2.772638e+00
2.871088e+00
2.968558e+00
3.065558e+00
3.162642e+00
3.260291e+00
3.358836e+00
3.458365e+00
3.558671e+00
3.659261e+00
3.759499e+00
3.858781e+00
3.956473e+00
4.051650e+00
4.143008e+00
4.229128e+00
4.308880e+00
4.381703e+00
4.447725e+00
4.507744e+00
4.562994e+00
4.614776e+00
4.664143e+00
4.711690e+00
4.757525e+00
4.801545e+00
4.843697e+00
4.883835e+00
4.921504e+00
4.956050e+00
4.986862e+00
5.013500e+00
5.035790e+00
5.053958e+00
5.068711e+00
5.081063e+00
5.091864e+00
5.101405e+00
5.109465e+00
5.115684e+00
5.119909e+00
5.122389e+00
5.123645e+00
5.124085e+00
5.123916e+00
5.123436e+00
5.123005e+00
5.122473e+00
5.120869e+00
5.116893e+00
5.109635e+00
5.098767e+00
5.084284e+00
5.066225e+00
5.044571e+00
5.019379e+00
4.991036e+00
4.960252e+00
4.927809e+00
4.894479e+00
4.861214e+00
4.829285e+00
4.800034e+00
4.774341e+00
4.752268e+00
4.733195e+00
4.716380e+00
4.701504e+00
4.688665e+00
4.677921e+00
4.669092e+00
4.662012e+00
4.656720e+00
4.653312e+00
4.651683e+00
4.651493e+00
4.652445e+00
4.654718e+00
4.659065e+00
4.666500e+00
4.677946e+00
4.694055e+00
4.715026e+00
4.740438e+00
4.769286e+00
4.800322e+00
4.832620e+00
4.865892e+00
4.900193e+00
4.935580e+00
4.972231e+00
5.010615e+00
5.051301e+00
5.094774e+00
5.141567e+00
5.192297e+00
5.247372e+00
5.306745e+00
5.370042e+00
5.436674e+00
5.505606e+00
5.575304e+00
5.644310e+00
5.711866e+00
5.777809e+00
5.841998e+00
5.904122e+00
5.963968e+00
6.021458e+00
6.076250e+00
6.127411e+00
6.173714e+00
6.214355e+00
6.249399e+00
6.279508e+00
6.305392e+00
6.327621e+00
6.346756e+00
6.363376e+00
6.377894e+00
6.390376e+00
6.400540e+00
6.408013e+00
6.412632e+00
6.414431e+00
6.413238e+00
6.408442e+00
6.399432e+00
6.386332e+00
6.370150e+00
6.352227e+00
6.333765e+00
6.315738e+00
6.298655e+00
6.282048e+00
6.264434e+00
6.243985e+00
6.219264e+00
6.189563e+00
6.155159e+00
6.117483e+00
6.078741e+00
6.041094e+00
6.006018e+00
5.974020e+00
5.944537e+00
5.916297e+00
5.888202e+00
5.860082e+00
5.832859e+00
5.808369e+00
5.789076e+00
5.777375e+00
5.774508e+00
5.779832e+00
5.791123e+00
5.805744e+00
5.821744e+00
5.838193e+00
5.854940e+00
5.872313e+00
5.890842e+00
5.910806e+00
5.931859e+00
5.953090e+00
5.973464e+00
5.992220e+00
6.008898e+00
6.023196e+00
6.034853e+00
6.043549e+00
6.048822e+00
6.050067e+00
6.046630e+00
6.038003e+00
6.024113e+00
6.005557e+00
5.983592e+00
5.959897e+00
5.936171e+00
5.913768e+00
5.893622e+00
5.876461e+00
5.862951e+00
5.853610e+00
5.848679e+00
5.847984e+00
5.850655e+00
5.854947e+00
5.858605e+00
5.859582e+00
5.856453e+00
5.848248e+00
5.834191e+00
5.813773e+00
5.787114e+00
5.755161e+00
5.719378e+00
5.681093e+00
5.641069e+00
5.599505e+00
5.556297e+00
5.511281e+00
5.464340e+00
5.415502e+00
5.365208e+00
5.314535e+00
5.264871e+00
5.217043e+00
5.170683e+00
5.124620e+00
5.077868e+00
5.030055e+00
4.981034e+00
4.930583e+00
4.878657e+00
4.825617e+00
4.771978e+00
4.718040e+00
4.663708e+00
4.608544e+00
4.551941e+00
4.493259e+00
4.431817e+00
4.366849e+00
4.297582e+00
4.223456e+00
4.144336e+00
4.060569e+00
3.972933e+00
3.882525e+00
3.790553e+00
3.698078e+00
3.605883e+00
3.514489e+00
3.424253e+00
3.335531e+00
3.248854e+00
3.165053e+00
3.085230e+00
3.010521e+00
2.941753e+00
2.879263e+00
2.823051e+00
2.773028e+00
2.729035e+00
2.690731e+00
2.657581e+00
2.628964e+00
2.604332e+00
2.583305e+00
2.565586e+00
2.550866e+00
2.539010e+00
2.530339e+00
2.525593e+00
2.525519e+00
2.530353e+00
2.539638e+00
2.552471e+00
2.567884e+00
2.585101e+00
2.603754e+00
2.623976e+00
2.646155e+00
2.670524e+00
2.696997e+00
2.725276e+00
2.754863e+00
2.784853e+00
2.813844e+00
2.840166e+00
2.862300e+00
2.879213e+00
2.890476e+00
2.896251e+00
2.897260e+00
2.894752e+00
2.890356e+00
2.885800e+00
2.882650e+00
2.882137e+00
2.885015e+00
2.891518e+00
2.901483e+00
2.914486e+00
2.929902e+00
2.946973e+00
2.964917e+00
2.983092e+00
3.001119e+00
3.018883e+00
3.036396e+00
3.053594e+00
3.070200e+00
3.085656e+00
3.099157e+00
3.109886e+00
3.117333e+00
3.121396e+00
3.122217e+00
3.120165e+00
3.116048e+00
3.111170e+00
3.107019e+00
3.104972e+00
3.106183e+00
3.111435e+00
3.120932e+00
3.134352e+00
3.151084e+00
3.170267e+00
3.190723e+00
3.211108e+00
3.230239e+00
3.247232e+00
3.261400e+00
3.272242e+00
3.279544e+00
3.283328e+00
3.283691e+00
3.280845e+00
3.275267e+00
3.267628e+00
3.258540e+00
3.248475e+00
3.237838e+00
3.226895e+00
3.215565e+00
3.203438e+00
3.190108e+00
3.175489e+00
3.159891e+00
3.143951e+00
3.128545e+00
3.114553e+00
3.102449e+00
3.091963e+00
3.082142e+00
3.071763e+00
3.059796e+00
3.045669e+00
3.029370e+00
3.011460e+00
2.993015e+00
2.975383e+00
2.959768e+00
2.946795e+00
2.936353e+00
2.927855e+00
2.920687e+00
2.914412e+00
2.908644e+00
2.902903e+00
2.896614e+00
2.889076e+00
2.879333e+00
2.866241e+00
2.848825e+00
2.826602e+00
2.799644e+00
2.768467e+00
2.733920e+00
2.697032e+00
2.658705e+00
2.619352e+00
2.578764e+00
2.536323e+00
2.491264e+00
2.442810e+00
2.390357e+00
2.333757e+00
2.273472e+00
2.210321e+00
2.145060e+00
2.078237e+00
2.010267e+00
1.941397e+00
1.871531e+00
1.800185e+00
1.726690e+00
1.650552e+00
1.571792e+00
1.491046e+00
1.409404e+00
1.328098e+00
1.248262e+00
1.170786e+00
1.096179e+00
1.024373e+00
9.547237e-01
8.864449e-01
8.191914e-01
7.531779e-01
6.888711e-01
6.267406e-01
5.672306e-01
5.107410e-01
4.575085e-01
4.075205e-01
3.605786e-01
3.164676e-01
2.751012e-01
2.364972e-01
2.006273e-01
1.673974e-01
1.367991e-01
1.089734e-01
8.403914e-02
6.179842e-02
4.151935e-02
2.202093e-02
2.141402e-03
-1.871346e-02
-4.033336e-02
-6.186979e-02
-8.225666e-02
-1.005696e-01
-1.161302e-01
-1.285734e-01
-1.380658e-01
-1.454532e-01
-1.520729e-01
-1.593000e-01
-1.681086e-01
-1.787947e-01
-1.909053e-01
-2.034469e-01
-2.152470e-01
-2.251898e-01
-2.323283e-01
-2.360968e-01
-2.366337e-01
-2.349288e-01
-2.325218e-01
-2.308853e-01
-2.309835e-01
-2.332998e-01
-2.380893e-01
-2.454531e-01
-2.551780e-01
-2.666320e-01
-2.789150e-01
-2.911261e-01
-3.025010e-01
-3.124149e-01
-3.204870e-01
-3.268218e-01
-3.320687e-01
-3.371496e-01
-3.429687e-01
-3.502698e-01
-3.594083e-01
-3.701108e-01
-3.816459e-01
-3.933054e-01
-4.046133e-01
-4.152116e-01
-4.249117e-01
-4.340007e-01
-4.433804e-01
-4.543169e-01
-4.680312e-01
-4.854228e-01
-5.069355e-01
-5.324266e-01
-5.611541e-01
-5.921707e-01
-6.250072e-01
-6.600394e-01
-6.982288e-01
-7.406408e-01
-7.881563e-01
-8.412344e-01
-8.995408e-01
-9.617535e-01
-1.025954e+00
-1.090447e+00
-1.154424e+00
-1.218032e+00
-1.281960e+00
-1.346885e+00
-1.413112e+00
-1.480447e+00
-1.548138e+00
-1.614853e+00
-1.678859e+00
-1.738557e+00
-1.793157e+00
-1.843050e+00
-1.889595e+00
-1.934550e+00
-1.979485e+00
-2.025389e+00
-2.072460e+00
-2.120137e+00
-2.167468e+00
-2.213644e+00
-2.258323e+00
-2.301611e+00
-2.343849e+00
-2.385368e+00
-2.426337e+00
-2.466729e+00
-2.506388e+00
-2.545133e+00
-2.582900e+00
-2.619770e+00
-2.655697e+00
-2.690051e+00
-2.721531e+00
-2.748692e+00
-2.770551e+00
-2.786699e+00
-2.797080e+00
-2.801905e+00
