EVENT_NAME: CENTRAL_ITALY
EVENT_ID: EMSC-20161026_0000095
EVENT_DATE_YYYYMMDD: 20161026
EVENT_TIME_HHMMSS: 191806
EVENT_LATITUDE_DEGREE: 42.9087
EVENT_LONGITUDE_DEGREE: 13.1288
EVENT_DEPTH_KM: 7.5
HYPOCENTER_REFERENCE: INGV-CNT_Seismic_Bulletin
MAGNITUDE_W: 5.9
MAGNITUDE_W_REFERENCE: INGV-webservice
MAGNITUDE_L: 5.9
MAGNITUDE_L_REFERENCE: INGV-CNT_Seismic_Bulletin
FOCAL_MECHANISM: NF
NETWORK: IT
STATION_CODE: NRC
STATION_NAME: NORCIA
STATION_LATITUDE_DEGREE: 42.792543
STATION_LONGITUDE_DEGREE: 13.096475
STATION_ELEVATION_M: 616
LOCATION: 
SENSOR_DEPTH_M: 0.0
VS30_M/S: 687
SITE_CLASSIFICATION_EC8: B
MORPHOLOGIC_CLASSIFICATION: SL
EPICENTRAL_DISTANCE_KM: 13.2
EARTHQUAKE_BACKAZIMUTH_DEGREE: 11.6
DATE_TIME_FIRST_SAMPLE_YYYYMMDD_HHMMSS: 20161026_191803.139
DATE_TIME_FIRST_SAMPLE_PRECISION: milliseconds
SAMPLING_INTERVAL_S: 0.005000
NDATA: 11542
DURATION_S: 57.710
STREAM: HGN
UNITS: cm/s
INSTRUMENT: sensor = Unknown [Unknown] | digitizer = Unknown [Unknown]
INSTRUMENT_ANALOG/DIGITAL: D
INSTRUMENTAL_FREQUENCY_HZ: 
INSTRUMENTAL_DAMPING: 
FULL_SCALE_G: 
N_BIT_DIGITAL_CONVERTER: 
PGV_CM/S: -14.556954
TIME_PGV_S: 10.235000
BASELINE_CORRECTION: BASELINE REMOVED
FILTER_TYPE: BUTTERWORTH
FILTER_ORDER: 2
LOW_CUT_FREQUENCY_HZ: 0.040
HIGH_CUT_FREQUENCY_HZ: 30.000
LATE/NORMAL_TRIGGERED: NT
DATABASE_VERSION: DYNA 1.0
HEADER_FORMAT: DYNA 1.2
DATA_TYPE: VELOCITY
PROCESSING: manual (Paolucci et al., 2011)
DATA_TIMESTAMP_YYYYMMDD_HHMMSS: 20161027_011428.535
DATA_LICENSE: CC-BY3_0-IT (http://creativecommons.org/licenses/by/3.0/deed.en)
DATA_CITATION: ESM working group (2015), European Strong-Motion database, version 0.1, Network Activity 3: Networking acceleration networks and SM data users. Project NERA (www.nera-eu.org)
DATA_CREATOR: ESM working group
ORIGINAL_DATA_MEDIATOR_CITATION: Ufficio Rischio Sismico e Vulcanico del Dipartimento della Protezione Civile (http://www.protezionecivile.gov.it/)
ORIGINAL_DATA_MEDIATOR: Rete Accelerometrica Nazionale - RAN Download (http://www.mot1.it/randownload/)
ORIGINAL_DATA_CREATOR_CITATION: Italian Strong Motion Network, Italian Civil Protection Department http://www.protezionecivile.gov.it
ORIGINAL_DATA_CREATOR: network: IT (Italian Strong Motion Network); owner: Dipartimento Della Protezione Civile
USER1: /home/dyna/processing-itaca/processing.py /var/www/processing//tmp/Lucia//IT.NRC..HGE.D.20161026.191806.X.ACC.ASC /var/www/processing//tmp/Lucia//IT.NRC..HGN.D.20161026.191806.X.ACC.ASC /var/www/processing//tmp/Lucia//IT.NRC..HGZ.D.20161026.191806.X.ACC.ASC --tmp /var/www/processing//tmp/Lucia/ --le 0.040 --he 30.000 --ln 0.040 --hn 30.000 --lz 0.040 --hz 30.000 --fo 2 --ca 0 --cz 100 --ta 5 --tz 5 --mf 1 --rf 0 --tr NT
USER2: 
USER3: 
USER4: 
USER5: 
[...]
0.038846
0.039342
0.039987
0.040683
0.041320
0.041825
0.042186
0.042415
0.042534
0.042578
0.042585
0.042586
0.042596
0.042618
0.042640
0.042646
0.042610
0.042508
0.042351
0.042181
0.042042
0.041949
0.041900
0.041892
0.041905
0.041895
0.041824
0.041691
0.041529
0.041378
0.041277
0.041253
0.041314
0.041442
0.041607
0.041786
0.041984
0.042212
0.042463
0.042708
0.042914
0.043075
0.043209
0.043357
0.043564
0.043865
0.044242
0.044616
0.044878
0.044943
0.044783
0.044426
0.043952
0.043457
0.043024
0.042713
0.042573
0.042634
0.042892
0.043305
0.043802
0.044303
0.044722
0.044994
0.045101
0.045077
0.044975
0.044833
0.044667
0.044470
0.044243
0.044013
0.043829
0.043738
0.043751
0.043842
0.043970
0.044103
0.044227
0.044343
0.044451
0.044544
0.044600
0.044591
0.044513
0.044411
0.044367
0.044462
0.044718
0.045087
0.045491
0.045870
0.046192
0.046442
0.046619
0.046709
0.046690
0.046552
0.046321
0.046049
0.045799
0.045616
0.045511
0.045459
0.045428
0.045400
0.045391
0.045434
0.045551
0.045748
0.046008
0.046308
0.046624
0.046927
0.047192
0.047406
0.047564
0.047662
0.047691
0.047642
0.047532
0.047398
0.047276
0.047170
0.047060
0.046930
0.046786
0.046663
0.046617
0.046689
0.046880
0.047141
0.047400
0.047587
0.047667
0.047640
0.047546
0.047447
0.047393
0.047400
0.047455
0.047554
0.047710
0.047938
0.048232
0.048568
0.048913
0.049217
0.049428
0.049520
0.049502
0.049404
0.049261
0.049106
0.048982
0.048919
0.048914
0.048926
0.048910
0.048842
0.048721
0.048564
0.048404
0.048292
0.048273
0.048366
0.048555
0.048801
0.049050
0.049251
0.049382
0.049457
0.049495
0.049508
0.049510
0.049530
0.049603
0.049751
0.049976
0.050257
0.050546
0.050778
0.050894
0.050878
0.050753
0.050562
0.050356
0.050183
0.050078
0.050047
0.050084
0.050173
0.050296
0.050425
0.050545
0.050656
0.050762
0.050851
0.050900
0.050891
0.050822
0.050712
0.050589
0.050484
0.050421
0.050407
0.050441
0.050522
0.050644
0.050797
0.050970
0.051160
0.051370
0.051601
0.051859
0.052152
0.052479
0.052816
0.053118
0.053333
0.053426
0.053384
0.053223
0.052980
0.052708
0.052454
0.052253
0.052131
0.052100
0.052162
0.052301
0.052482
0.052662
0.052808
0.052913
0.052994
0.053061
0.053100
0.053085
0.052991
0.052810
0.052553
0.052247
0.051924
0.051617
0.051358
0.051198
0.051195
0.051381
0.051747
0.052252
0.052850
0.053495
0.054128
0.054682
0.055099
0.055345
0.055414
0.055332
0.055143
0.054892
0.054613
0.054333
0.054075
0.053866
0.053721
0.053644
0.053623
0.053644
0.053694
0.053765
0.053853
0.053966
0.054111
0.054286
0.054477
0.054671
0.054867
0.055070
0.055277
0.055470
0.055621
0.055708
0.055717
0.055649
0.055530
0.055391
0.055247
0.055094
0.054928
0.054757
0.054608
0.054517
0.054517
0.054627
0.054845
0.055144
0.055483
0.055816
0.056112
0.056360
0.056553
0.056673
0.056693
0.056587
0.056358
0.056051
0.055739
0.055499
0.055385
0.055411
0.055548
0.055756
0.056010
0.056303
0.056636
0.056998
0.057366
0.057707
0.057978
0.058142
0.058187
0.058126
0.057984
0.057791
0.057576
0.057367
0.057181
0.057029
0.056921
0.056878
0.056915
0.057028
0.057191
0.057383
0.057597
0.057838
0.058103
0.058373
0.058613
0.058779
0.058839
0.058788
0.058651
0.058464
0.058259
0.058057
0.057877
0.057731
0.057620
0.057543
0.057508
0.057527
0.057609
0.057755
0.057953
0.058172
0.058379
0.058559
0.058716
0.058857
0.058986
0.059105
0.059215
0.059302
0.059351
0.059364
0.059367
0.059393
0.059457
0.059550
0.059651
0.059735
0.059783
0.059787
0.059763
0.059730
0.059697
0.059667
0.059641
0.059623
0.059615
0.059618
0.059623
0.059614
0.059575
0.059505
0.059435
0.059408
0.059467
0.059636
0.059908
0.060249
0.060601
0.060912
0.061156
0.061327
0.061429
0.061469
0.061456
0.061402
0.061321
0.061228
0.061139
0.061059
0.060980
0.060894
0.060798
0.060704
0.060632
0.060611
0.060662
0.060787
0.060966
0.061167
0.061356
0.061510
0.061610
0.061648
0.061621
0.061540
0.061428
0.061321
0.061253
0.061238
0.061271
0.061338
0.061430
0.061539
0.061658
0.061784
0.061922
0.062077
0.062249
0.062426
0.062588
0.062712
0.062773
0.062763
0.062687
0.062556
0.062385
0.062183
0.061959
0.061723
0.061495
0.061297
0.061151
0.061072
0.061064
0.061116
0.061205
0.061309
0.061406
0.061468
0.061467
0.061383
0.061204
0.060931
0.060575
0.060163
0.059723
0.059272
0.058809
0.058333
0.057858
0.057412
0.057031
0.056756
0.056619
0.056621
0.056712
0.056806
0.056818
0.056725
0.056562
0.056380
0.056193
0.055982
0.055712
0.055337
0.054812
0.054134
0.053394
0.052743
0.052303
0.052101
0.052061
0.052045
0.051927
0.051670
0.051348
0.051061
0.050836
0.050587
0.050156
0.049387
0.048220
0.046790
0.045390
0.044297
0.043570
0.043032
0.042429
0.041593
0.040512
0.039343
0.038388
0.037946
0.038065
0.038424
0.038540
0.038129
0.037268
0.036292
0.035601
0.035491
0.035995
0.036801
0.037425
0.037544
0.037160
0.036471
0.035663
0.034845
0.034070
0.033320
0.032499
0.031491
0.030251
0.028842
0.027395
0.026037
0.024851
0.023882
0.023155
0.022634
0.022169
0.021561
0.020753
0.019901
0.019242
0.018920
0.018913
0.019014
0.018882
0.018248
0.017208
0.016296
0.016170
0.017180
0.019192
0.021723
0.024142
0.025843
0.026426
0.025867
0.024532
0.023020
0.021940
0.021741
0.022614
0.024422
0.026681
0.028701
0.029897
0.030086
0.029591
0.029103
0.029314
0.030478
0.032220
0.033752
0.034288
0.033427
0.031347
0.028702
0.026228
0.024310
0.022846
0.021478
0.019987
0.018487
0.017291
0.016713
0.016951
0.017934
0.019240
0.020353
0.021086
0.021705
0.022690
0.024379
0.026758
0.029470
0.031948
0.033586
0.033935
0.032870
0.030660
0.027994
0.025819
0.024846
0.025057
0.025749
0.026091
0.025597
0.024219
0.022216
0.019937
0.017557
0.014897
0.011539
0.007170
0.001840
-0.004012
-0.009687
-0.014478
-0.017952
-0.020069
-0.021040
-0.021146
-0.020670
-0.019902
-0.019082
-0.018346
-0.017723
-0.017206
-0.016866
-0.016917
-0.017536
-0.018515
-0.019235
-0.019078
-0.017837
-0.015797
-0.013598
-0.011992
-0.011515
-0.012096
-0.012932
-0.012910
-0.011310
-0.008176
-0.004197
-0.000383
0.002267
0.003135
0.002127
-0.000550
-0.004708
-0.010258
-0.017085
-0.024841
-0.032720
-0.039386
-0.043308
-0.043465
-0.039951
-0.033981
-0.027272
-0.021244
-0.016478
-0.012611
-0.008730
-0.004095
0.001279
0.006501
0.010226
0.011309
0.009299
0.004593
-0.001703
-0.008206
-0.013828
-0.018112
-0.021146
-0.023197
-0.024405
-0.024788
-0.024373
-0.023182
-0.021145
-0.018174
-0.014272
-0.009574
-0.004379
0.000856
0.005746
0.010202
0.014341
0.018192
0.021493
0.023695
0.024207
0.022788
0.019738
0.015794
0.011862
0.008734
0.006769
0.005666
0.004681
0.003360
0.002085
0.001772
0.003071
0.005988
0.010109
0.014852
0.019606
0.024063
0.028545
0.033756
0.040034
0.046891
0.053245
0.057880
0.059711
0.058016
0.052725
0.044400
0.033838
0.021818
0.009210
-0.002963
-0.013783
-0.022704
-0.029390
-0.033353
-0.034014
-0.031115
-0.024959
-0.016431
-0.006897
0.002219
0.010108
0.016947
0.023626
0.031097
0.039864
0.049700
0.059522
0.067612
0.072285
0.072541
0.068226
0.059849
0.048402
0.035074
0.020816
0.006153
-0.008619
-0.023121
-0.036680
-0.048387
-0.057503
-0.063928
-0.068341
-0.071812
-0.075072
-0.078126
-0.080577
-0.082220
-0.083215
-0.083771
-0.083803
-0.082983
-0.081091
-0.078253
-0.074917
-0.071860
-0.070253
-0.071411
-0.076156
-0.084310
-0.094790
-0.106097
-0.116699
-0.125385
-0.131825
-0.136805
-0.141560
-0.146762
-0.152158
-0.156893
-0.159824
-0.159746
-0.155816
-0.147873
-0.136412
-0.122514
-0.107862
-0.094554
-0.084500
-0.078809
-0.077674
-0.080604
-0.086509
-0.093856
-0.101382
-0.108848
-0.116937
-0.126514
-0.138080
-0.151594
-0.166326
-0.180864
-0.193699
-0.204068
-0.212213
-0.218968
-0.225316
-0.232234
-0.240527
-0.250383
-0.261150
-0.271913
-0.282236
-0.292131
-0.301703
-0.311161
-0.320906
-0.331494
-0.343622
-0.357871
-0.374131
-0.391100
-0.406314
-0.416966
-0.421205
-0.418872
-0.411222
-0.400375
-0.389072
-0.380290
-0.376370
-0.378227
-0.385339
-0.396562
-0.411175
-0.429314
-0.451443
-0.477405
-0.505776
-0.533969
-0.559167
-0.579393
-0.593850
-0.602615
-0.606445
-0.606889
-0.605914
-0.604800
-0.603511
-0.601239
-0.597246
-0.591268
-0.583674
-0.575509
-0.568014
-0.561919
-0.557415
-0.554842
-0.554921
-0.558062
-0.563803
-0.571119
-0.578888
-0.585972
-0.591528
-0.595789
-0.600353
-0.607214
-0.617291
-0.629567
-0.641028
-0.647282
-0.644235
-0.630405
-0.607992
-0.581565
-0.555600
-0.532917
-0.514605
-0.500504
-0.489743
-0.481555
-0.476170
-0.475016
-0.480011
-0.492617
-0.513629
-0.543471
-0.581985
-0.628029
-0.679768
-0.735042
-0.790781
-0.842448
-0.885125
-0.915722
-0.934344
-0.944003
-0.949182
-0.953772
-0.959109
-0.963498
-0.963778
-0.957564
-0.944224
-0.924470
-0.899626
-0.870914
-0.838687
-0.802338
-0.761397
-0.717067
-0.672948
-0.634149
-0.604927
-0.586294
-0.575596
-0.568614
-0.562389
-0.556553
-0.552640
-0.552567
-0.557277
-0.565663
-0.574557
-0.580781
-0.583776
-0.585970
-0.590753
-0.600539
-0.616371
-0.638311
-0.665723
-0.697531
-0.732190
-0.767035
-0.797440
-0.816870
-0.818611
-0.798824
-0.758947
-0.705611
-0.648118
-0.595161
-0.552132
-0.519720
-0.494439
-0.471130
-0.445718
-0.416764
-0.386135
-0.358833
-0.340560
-0.333619
-0.335075
-0.339379
-0.342401
-0.342948
-0.342134
-0.343290
-0.351807
-0.372775
-0.408123
-0.456609
-0.515847
-0.582946
-0.653870
-0.724150
-0.790341
-0.849546
-0.898049
-0.931864
-0.948321
-0.946510
-0.927275
-0.893179
-0.847432
-0.792684
-0.731249
-0.666103
-0.601197
-0.540899
-0.489234
-0.448966
-0.420207
-0.399583
-0.381680
-0.362071
-0.339115
-0.313887
-0.289875
-0.272055
-0.263962
-0.265068
-0.271600
-0.279467
-0.286236
-0.291492
-0.296479
-0.303536
-0.315046
-0.331893
-0.352564
-0.373894
-0.392538
-0.406047
-0.413717
-0.416881
-0.417649
-0.417073
-0.414970
-0.411559
-0.408942
-0.410423
-0.417266
-0.425900
-0.429498
-0.422746
-0.404888
-0.379305
-0.351529
-0.327253
-0.310906
-0.305015
-0.310342
-0.326567
-0.352606
-0.386057
-0.423138
-0.459713
-0.491495
-0.513023
-0.518170
-0.503369
-0.470389
-0.425474
-0.376366
-0.330398
-0.293245
-0.266889
-0.248428
-0.231848
-0.212040
-0.188083
-0.163610
-0.144808
-0.137624
-0.145002
-0.164828
-0.190019
-0.212328
-0.228640
-0.244411
-0.270269
-0.314751
-0.379611
-0.459469
-0.543443
-0.618196
-0.672360
-0.700352
-0.703583
-0.688710
-0.664826
-0.641498
-0.626541
-0.623212
-0.629611
-0.640875
-0.651920
-0.659654
-0.664247
-0.668334
-0.674169
-0.681184
-0.686750
-0.689237
-0.689542
-0.689854
-0.691894
-0.696250
-0.702656
-0.710834
-0.720880
-0.732131
-0.742005
-0.747386
-0.747969
-0.747828
-0.753267
-0.769401
-0.798339
-0.838467
-0.884646
-0.930969
-0.974210
-1.013315
-1.045345
-1.063906
-1.063175
-1.042587
-1.005998
-0.956740
-0.895197
-0.821555
-0.740410
-0.662548
-0.601745
-0.568839
-0.567286
-0.592018
-0.631577
-0.672494
-0.703336
-0.716782
-0.709766
-0.682685
-0.639061
-0.585636
-0.531442
-0.485288
-0.452996
-0.436073
-0.431770
-0.433505
-0.431777
-0.416949
-0.384091
-0.336980
-0.286998
-0.246171
-0.219272
-0.201224
-0.181305
-0.150272
-0.105742
-0.053959
-0.007320
0.021323
0.023208
-0.005742
-0.066364
-0.156917
-0.272016
-0.402277
-0.537619
-0.670922
-0.797388
-0.912089
-1.010073
-1.088457
-1.147868
-1.192017
-1.225621
-1.252202
-1.273288
-1.288652
-1.297057
-1.297851
-1.292478
-1.284955
-1.281765
-1.290198
-1.315142
-1.357947
-1.418656
-1.498643
-1.602069
-1.735403
-1.903480
-2.104484
-2.328938
-2.563297
-2.795429
-3.020218
-3.242438
-3.474179
-3.728714
-4.014051
-4.327316
-4.652599
-4.964656
-5.235713
-5.442031
-5.569803
-5.618120
-5.596271
-5.517034
-5.389762
-5.216485
-4.992700
-4.711008
-4.364139
-3.945845
-3.449892
-2.869061
-2.196783
-1.431189
-0.578245
0.348667
1.332277
2.355050
3.399643
4.446116
5.470098
6.446057
7.354767
8.189218
8.954030
9.659500
10.315305
10.926229
11.489998
11.998472
12.441626
12.810207
13.095157
13.286471
13.373775
13.347148
13.196181
12.909531
12.480239
11.917086
11.253408
10.543999
9.849589
9.217867
8.673020
8.219464
7.853398
7.571051
7.369960
7.247413
7.199680
7.222524
7.312936
7.471283
7.701403
8.007927
8.394348
8.863696
9.417750
10.051394
10.745312
11.463229
12.156555
12.773242
13.264031
13.582655
13.684506
13.530561
13.096318
12.379039
11.398253
10.189857
8.797520
7.264551
5.627114
3.910723
2.133429
0.314601
-1.517192
-3.323195
-5.061419
-6.697245
-8.211073
-9.598418
-10.861603
-11.996175
-12.979112
-13.767004
-14.307312
-14.556954
-14.494837
-14.119754
-13.443485
-12.491513
-11.305609
-9.943085
-8.479952
-7.015114
-5.662087
-4.527461
-3.689934
-3.190580
-3.033235
-3.190701
-3.616205
-4.257429
-5.066114
-5.998759
-7.010900
-8.051554
-9.063322
-9.988979
-10.779048
-11.393933
-11.801650
-11.976827
-11.903135
-11.576846
-11.007739
-10.215668
-9.225814
-8.066313
-6.767058
-5.357367
-3.864988
-2.319296
-0.756220
0.780109
2.241567
3.584028
4.773431
5.785656
6.602598
7.210806
7.604611
7.789593
7.782532
7.607309
7.288934
6.849960
6.311995
5.698994
5.036496
4.347533
3.651743
2.969413
2.324582
1.742097
1.240978
0.830051
0.508094
0.266688
0.093276
-0.026785
-0.108412
-0.165066
-0.209033
-0.253487
-0.312753
-0.399262
-0.519641
-0.672570
-0.849498
-1.037859
-1.224806
-1.399679
-1.555343
-1.688035
-1.794120
-1.865716
-1.890265
-1.855404
-1.754902
-1.591227
-1.374167
-1.117497
-0.835639
-0.541121
-0.242664
0.056001
0.356010
0.662124
0.981662
1.323523
1.695244
2.098074
2.524035
2.957950
3.382699
3.783840
4.151500
4.479536
4.763505
4.999366
5.183132
5.310349
5.375785
5.374574
5.304436
5.167152
4.967667
4.711348
4.402095
4.042487
3.634386
3.179726
2.683274
2.156785
1.621399
1.106088
0.642074
0.255607
-0.036313
-0.224869
-0.306318
-0.280949
-0.153830
0.064705
0.359539
0.711825
1.099721
1.498791
1.883439
2.230445
2.523325
2.754402
2.923050
3.031871
3.083510
3.079262
3.019045
2.902098
2.728009
2.497892
2.215701
1.889413
1.531305
1.157259
0.785908
0.436950
0.127299
-0.132844
-0.340438
-0.497352
-0.608862
-0.683452
-0.732266
-0.767653
-0.800756
-0.838684
-0.883061
-0.930267
-0.972176
-0.998086
-0.998793
-0.970394
-0.914899
-0.838501
-0.750081
-0.660625
-0.582299
-0.526023
-0.498651
-0.502753
-0.539399
-0.610337
-0.717108
-0.858966
-1.031747
-1.226923
-1.430026
-1.620241
-1.773295
-1.866887
-1.885288
-1.820253
-1.669390
-1.435486
-1.127506
-0.760719
-0.354261
0.072701
0.503554
0.924264
1.322597
1.689009
2.019102
2.314892
2.582229
2.825164
3.041688
3.224459
3.365572
3.461314
3.513378
3.526024
3.502489
3.444931
3.358019
3.251481
3.137943
3.027664
2.924433
2.825315
2.723958
2.614800
2.495169
2.364792
2.224744
2.077323
1.926296
1.776444
1.632134
1.495482
1.365218
1.236799
1.103392
0.957452
0.792481
0.603762
0.387958
0.142920
-0.131848
-0.434823
-0.762458
-1.109447
-1.469378
-1.835849
-2.203632
-2.569124
-2.929950
-3.284901
-3.634442
-3.979906
-4.320906
-4.653554
-4.971370
-5.267919
-5.538942
-5.781950
-5.993880
-6.170474
-6.308923
-6.410379
-6.478825
-6.517115
-6.524203
-6.496642
-6.433131
-6.337603
-6.217905
-6.081649
-5.933252
-5.774246
-5.605519
-5.428732
-5.245451
-5.055262
-4.855676
-4.644723
-4.424003
-4.199206
-3.977540
-3.765079
-3.566762
-3.387297
-3.230268
-3.097009
-2.988127
-2.907025
-2.861922
-2.864030
-2.922900
-3.042359
-3.219587
-3.447011
-3.714889
-4.012977
-4.330472
-4.654118
-4.966658
-5.248668
-5.483005
-5.658093
-5.768672
-5.815295
-5.803326
-5.741208
-5.638025
-5.501055
-5.334729
-5.141672
-4.924638
-4.688095
-4.439360
-4.188854
-3.948470
-3.728271
-3.533419
-3.363428
-3.214024
-3.080346
-2.960322
-2.856692
-2.775722
-2.723178
-2.700494
-2.703318
-2.722953
-2.749709
-2.775877
-2.796583
-2.809155
-2.812555
-2.807345
-2.795773
-2.781720
-2.770392
-2.767126
-2.775224
-2.794099
-2.819219
-2.843957
-2.861741
-2.866559
-2.852509
-2.814646
-2.750813
-2.661821
-2.549063
-2.411496
-2.244665
-2.042780
-1.802291
-1.524326
-1.214692
-0.882213
-0.536823
-0.188294
0.154085
0.480974
0.782336
1.047600
1.266823
1.431920
1.537077
1.578842
1.556882
1.474658
1.338580
1.155848
0.932339
0.671807
0.377230
0.053718
-0.289089
-0.637217
-0.975122
-1.288394
-1.564218
-1.790661
-1.956967
-2.055320
-2.083424
-2.046548
-1.957185
-1.831942
-1.688019
-1.541778
-1.409266
-1.306710
-1.249437
-1.249329
-1.312795
-1.440965
-1.631518
-1.880291
-2.181719
-2.528198
-2.909131
-3.310501
-3.715316
-4.105098
-4.462347
-4.772793
-5.026358
-5.217071
-5.342825
-5.405217
-5.408796
-5.359263
-5.261698
-5.120129
-4.938219
-4.720351
-4.473064
-4.206597
-3.935260
-3.675385
-3.441373
-3.242141
-3.080157
-2.953229
-2.857222
-2.787661
-2.739496
-2.705966
-2.678046
-2.644883
-2.594697
-2.515716
-2.396980
-2.229336
-2.007298
-1.731072
-1.406547
-1.042580
-0.647675
-0.228334
0.210219
0.661750
1.117042
1.563903
1.989091
2.380779
2.730295
3.032324
3.283732
3.482130
3.625301
3.711827
3.742345
3.719950
3.649200
3.535339
3.385356
3.209894
3.024029
2.846058
2.694544
2.585009
2.527963
2.528581
2.587279
2.700534
2.861677
3.062027
3.292475
3.544519
3.810130
4.081340
4.350335
4.609697
4.852190
5.070042
5.254313
5.395106
5.482729
5.509043
5.468647
5.360198
5.187255
4.957485
4.680655
4.366842
4.025500
3.665382
3.295150
2.923859
2.560949
2.215973
1.897886
1.613989
1.369672
1.169537
1.018482
0.921208
0.880667
0.897235
0.969011
1.091846
1.258560
1.458595
1.679014
1.906194
2.127116
2.329866
2.504038
2.642073
2.741061
2.803046
2.833193
2.837742
2.823527
2.798371
2.770631
2.747387
2.732428
2.725262
2.721600
2.715432
2.701967
2.679635
2.650258
2.618237
2.589042
2.566478
2.549921
2.534033
2.511315
2.475386
2.423012
2.354033
2.269717
2.171416
2.060407
1.938052
1.805819
1.665354
1.518107
1.364336
1.202776
1.031782
0.850519
0.659100
0.458909
0.254018
0.052414
-0.134677
-0.295669
-0.421916
