EVENT_NAME: EMILIA_2ND_SHOCK
EVENT_ID: IT-2012-0011
EVENT_DATE_YYYYMMDD: 20120529
EVENT_TIME_HHMMSS: 070002
EVENT_LATITUDE_DEGREE: 44.8417
EVENT_LONGITUDE_DEGREE: 11.0657
EVENT_DEPTH_KM: 8.1
HYPOCENTER_REFERENCE: INGV-CNT_Seismic_Bulletin
MAGNITUDE_W: 6.0
MAGNITUDE_W_REFERENCE: RCMT-INGV
MAGNITUDE_L: 5.8
MAGNITUDE_L_REFERENCE: INGV-CNT_Seismic_Bulletin
FOCAL_MECHANISM: TF
NETWORK: IT
STATION_CODE: RAV0
STATION_NAME: RAVARINO
STATION_LATITUDE_DEGREE: 44.715700
STATION_LONGITUDE_DEGREE: 11.142800
STATION_ELEVATION_M: 87
LOCATION: 
SENSOR_DEPTH_M: 0.0
VS30_M/S: 
SITE_CLASSIFICATION_EC8: C*
MORPHOLOGIC_CLASSIFICATION: 
EPICENTRAL_DISTANCE_KM: 15.3
EARTHQUAKE_BACKAZIMUTH_DEGREE: 336.5
DATE_TIME_FIRST_SAMPLE_YYYYMMDD_HHMMSS: 20120529_065933.000
DATE_TIME_FIRST_SAMPLE_PRECISION: seconds
SAMPLING_INTERVAL_S: 0.005000
NDATA: 24001
DURATION_S: 120.005
STREAM: HNN
UNITS: cm/s
INSTRUMENT: sensor = Episensor FBA ES-T [Kinemetrics] | digitizer = Etna [Kinemetrics]
INSTRUMENT_ANALOG/DIGITAL: D
INSTRUMENTAL_FREQUENCY_HZ: 
INSTRUMENTAL_DAMPING: 
FULL_SCALE_G: 
N_BIT_DIGITAL_CONVERTER: 18
PGV_CM/S: -9.762760
TIME_PGV_S: 41.355000
BASELINE_CORRECTION: BASELINE REMOVED
FILTER_TYPE: BUTTERWORTH
FILTER_ORDER: 2
LOW_CUT_FREQUENCY_HZ: 0.050
HIGH_CUT_FREQUENCY_HZ: 30.000
LATE/NORMAL_TRIGGERED: NT
DATABASE_VERSION: DYNA 1.0
HEADER_FORMAT: DYNA 1.2
DATA_TYPE: VELOCITY
PROCESSING: manual (Paolucci et al., 2011)
DATA_TIMESTAMP_YYYYMMDD_HHMMSS: 
DATA_LICENSE: CC-BY3_0-IT (http://creativecommons.org/licenses/by/3.0/deed.en)
DATA_CITATION: ESM working group (2015), European Strong-Motion database, version 0.1, Network Activity 3: Networking acceleration networks and SM data users. Project NERA (www.nera-eu.org)
DATA_CREATOR: ESM working group
ORIGINAL_DATA_MEDIATOR_CITATION: Ufficio Rischio Sismico e Vulcanico del Dipartimento della Protezione Civile (http://www.protezionecivile.gov.it/)
ORIGINAL_DATA_MEDIATOR: Rete Accelerometrica Nazionale - RAN Download (http://www.mot1.it/randownload/)
ORIGINAL_DATA_CREATOR_CITATION: Italian Strong Motion Network, Italian Civil Protection Department http://www.protezionecivile.gov.it
ORIGINAL_DATA_CREATOR: network: IT (Italian Strong Motion Network); owner: Dipartimento Della Protezione Civile
USER1: 
USER2: 
USER3: 
USER4: 
USER5: 
[...]
-0.142264
-0.131815
-0.120722
-0.108422
-0.094929
-0.081794
-0.071768
-0.067425
-0.069635
-0.077171
-0.087995
-0.100860
-0.115231
-0.129609
-0.140608
-0.144296
-0.138964
-0.127072
-0.114603
-0.107798
-0.109674
-0.119136
-0.132953
-0.148149
-0.162770
-0.175382
-0.184704
-0.189882
-0.190863
-0.188425
-0.183739
-0.177548
-0.169630
-0.159465
-0.147894
-0.137918
-0.133066
-0.134494
-0.139713
-0.144184
-0.144231
-0.139033
-0.130621
-0.122349
-0.117111
-0.116305
-0.119849
-0.126699
-0.134964
-0.141872
-0.144653
-0.142146
-0.135570
-0.127796
-0.121891
-0.119940
-0.122452
-0.128533
-0.136656
-0.145305
-0.153133
-0.159164
-0.163130
-0.165392
-0.166358
-0.166158
-0.164744
-0.161841
-0.156651
-0.147917
-0.134773
-0.117993
-0.100551
-0.086715
-0.080133
-0.081881
-0.089505
-0.098048
-0.102789
-0.101745
-0.095990
-0.088104
-0.080469
-0.074298
-0.069269
-0.063895
-0.056664
-0.047347
-0.037586
-0.030352
-0.028546
-0.033426
-0.043622
-0.055635
-0.065954
-0.073282
-0.078839
-0.084548
-0.090954
-0.096583
-0.098920
-0.096211
-0.088905
-0.079516
-0.070759
-0.063630
-0.057276
-0.050767
-0.044903
-0.042018
-0.043902
-0.050042
-0.058015
-0.065474
-0.071622
-0.077061
-0.082756
-0.089162
-0.095917
-0.102296
-0.108115
-0.113974
-0.120337
-0.126438
-0.130313
-0.130081
-0.125362
-0.117631
-0.109405
-0.103067
-0.099991
-0.099983
-0.101168
-0.100856
-0.097134
-0.089904
-0.080703
-0.071673
-0.064472
-0.059818
-0.057700
-0.057762
-0.059575
-0.062870
-0.067543
-0.073243
-0.078822
-0.082423
-0.082611
-0.079832
-0.076771
-0.076744
-0.081089
-0.087656
-0.091904
-0.090182
-0.082901
-0.074735
-0.071065
-0.073445
-0.078255
-0.079824
-0.075165
-0.066069
-0.057100
-0.051746
-0.050059
-0.049405
-0.047319
-0.043923
-0.041907
-0.044246
-0.051786
-0.062798
-0.074323
-0.083544
-0.088190
-0.086619
-0.078411
-0.065323
-0.051414
-0.041469
-0.038357
-0.041390
-0.047329
-0.053170
-0.057980
-0.062172
-0.065503
-0.066165
-0.062042
-0.053171
-0.042944
-0.036187
-0.035421
-0.038970
-0.042725
-0.043491
-0.040761
-0.036030
-0.030928
-0.025764
-0.019412
-0.010499
0.001195
0.014440
0.027376
0.038119
0.044668
0.045213
0.039479
0.029832
0.020523
0.015342
0.015534
0.019247
0.022519
0.021304
0.013771
0.001561
-0.011148
-0.020171
-0.023265
-0.020447
-0.013408
-0.004778
0.003008
0.009016
0.013983
0.018868
0.023424
0.026411
0.026810
0.024329
0.018984
0.010858
0.000647
-0.009592
-0.016558
-0.017157
-0.010145
0.003616
0.022229
0.043677
0.065768
0.085755
0.100642
0.108471
0.109791
0.107757
0.106215
0.107258
0.110503
0.114291
0.116838
0.116252
0.110668
0.099566
0.085296
0.072934
0.068099
0.074127
0.090146
0.110823
0.128307
0.136328
0.134421
0.128580
0.126518
0.130900
0.136972
0.137266
0.129010
0.117004
0.109152
0.109246
0.114315
0.118925
0.121402
0.125159
0.134018
0.146779
0.157006
0.158810
0.153205
0.148615
0.154606
0.174202
0.201130
0.223978
0.234042
0.231145
0.222837
0.217446
0.217302
0.218528
0.216699
0.211589
0.206157
0.202094
0.197745
0.190498
0.180234
0.169674
0.161408
0.155231
0.148961
0.141704
0.135687
0.134591
0.140059
0.149720
0.158840
0.164362
0.167147
0.169589
0.171237
0.167884
0.155528
0.135238
0.114281
0.102288
0.104860
0.119208
0.135693
0.144778
0.144011
0.139140
0.138835
0.147959
0.164469
0.181462
0.192474
0.196076
0.196415
0.199558
0.208912
0.223439
0.239558
0.254053
0.264901
0.270059
0.267117
0.255421
0.238326
0.222097
0.211818
0.208420
0.209274
0.210997
0.211649
0.210892
0.208705
0.204236
0.195950
0.183361
0.169130
0.158388
0.154363
0.154804
0.154057
0.148900
0.141579
0.137272
0.139432
0.147147
0.155373
0.157415
0.149240
0.133679
0.120487
0.120480
0.137915
0.167252
0.196213
0.212739
0.211984
0.199133
0.185862
0.183035
0.195156
0.220214
0.253283
0.289298
0.323217
0.350094
0.366980
0.374591
0.376269
0.375674
0.375787
0.379148
0.387645
0.401457
0.418564
0.435888
0.451265
0.464518
0.477021
0.490580
0.505920
0.520802
0.529580
0.526407
0.510282
0.486803
0.464844
0.451887
0.451481
0.462645
0.480554
0.498795
0.511988
0.516644
0.510660
0.493431
0.466625
0.434072
0.400405
0.369884
0.346352
0.333236
0.332375
0.342581
0.359594
0.377481
0.390828
0.396689
0.394640
0.385082
0.368183
0.344729
0.317546
0.291544
0.272301
0.264181
0.268358
0.281733
0.297917
0.309916
0.313171
0.307518
0.296662
0.285256
0.276215
0.270624
0.269243
0.273216
0.283658
0.300769
0.322614
0.344794
0.362449
0.373395
0.379658
0.386142
0.397394
0.414927
0.437143
0.461593
0.487374
0.515503
0.547168
0.582042
0.618164
0.652758
0.683280
0.708573
0.729440
0.748092
0.766950
0.787532
0.809889
0.832987
0.855895
0.878681
0.901779
0.924036
0.941657
0.949940
0.946939
0.935939
0.924556
0.920905
0.929096
0.947182
0.969510
0.991314
1.011335
1.031229
1.053706
1.080535
1.110441
1.138167
1.156226
1.159019
1.146831
1.126323
1.106301
1.091918
1.082073
1.071595
1.055264
1.029561
0.991294
0.936459
0.862256
0.770557
0.668908
0.567654
0.475387
0.395826
0.327605
0.266435
0.207865
0.148892
0.088409
0.027268
-0.032409
-0.088610
-0.139933
-0.184775
-0.221139
-0.248311
-0.268298
-0.284094
-0.295609
-0.297820
-0.283540
-0.248330
-0.193871
-0.127953
-0.060722
0.000970
0.056780
0.110773
0.165729
0.218689
0.262005
0.289422
0.301280
0.303321
0.299957
0.288890
0.263297
0.220210
0.166616
0.116474
0.081023
0.061109
0.047900
0.031054
0.007469
-0.016833
-0.033246
-0.038803
-0.037429
-0.033532
-0.025805
-0.008003
0.024890
0.071752
0.125556
0.177562
0.222401
0.260957
0.298694
0.340016
0.383303
0.421555
0.448100
0.461935
0.468433
0.475784
0.490541
0.514806
0.545611
0.576707
0.602192
0.619504
0.629876
0.636897
0.644321
0.653283
0.659982
0.656322
0.634282
0.591216
0.531740
0.464669
0.398078
0.336475
0.280943
0.231222
0.188884
0.159117
0.147687
0.154636
0.171844
0.188303
0.197839
0.201662
0.205247
0.214164
0.230920
0.252750
0.272131
0.281499
0.279209
0.271413
0.267806
0.274301
0.288135
0.299541
0.299282
0.286418
0.270178
0.264008
0.275470
0.299302
0.319696
0.321378
0.300928
0.268579
0.239241
0.221208
0.212082
0.203757
0.190237
0.171293
0.150249
0.128952
0.104475
0.070454
0.022007
-0.040651
-0.113740
-0.193703
-0.277389
-0.359046
-0.429882
-0.482163
-0.514062
-0.530980
-0.541832
-0.552026
-0.557753
-0.546572
-0.505151
-0.428441
-0.322265
-0.197621
-0.062969
0.079176
0.230079
0.389805
0.553700
0.712919
0.858033
0.983003
1.087422
1.176004
1.255381
1.329641
1.397496
1.452640
1.485940
1.487830
1.450791
1.372183
1.256106
1.111538
0.947223
0.767784
0.573989
0.366171
0.148041
-0.071782
-0.282295
-0.475781
-0.651992
-0.816297
-0.972920
-1.119584
-1.248682
-1.353517
-1.433003
-1.490631
-1.529866
-1.550776
-1.550706
-1.528376
-1.488336
-1.442053
-1.403291
-1.380460
-1.372914
-1.374151
-1.377578
-1.379348
-1.376856
-1.365931
-1.340518
-1.295483
-1.230146
-1.148831
-1.057041
-0.957000
-0.847350
-0.727026
-0.599134
-0.471317
-0.352227
-0.246377
-0.150870
-0.056436
0.048032
0.170684
0.314484
0.477886
0.656806
0.846053
1.039492
1.229530
1.407569
1.565918
1.699441
1.805751
1.884881
1.939278
1.973985
1.996555
2.016093
2.040894
2.075089
2.116687
2.159378
2.196638
2.224412
2.241307
2.247487
2.242668
2.224381
2.189003
2.135071
2.065752
1.988910
1.915564
1.857627
1.824167
1.816467
1.826026
1.839130
1.844929
1.840170
1.827795
1.812230
1.795865
1.778926
1.761547
1.745111
1.731689
1.723004
1.719709
1.720503
1.721447
1.716674
1.700969
1.671858
1.628415
1.568922
1.492183
1.401923
1.308324
1.223661
1.155846
1.105767
1.069909
1.045102
1.031267
1.030517
1.044136
1.070252
1.103977
1.139769
1.174552
1.209717
1.249805
1.297827
1.351165
1.402456
1.444983
1.477434
1.503481
1.527229
1.549413
1.567172
1.576726
1.576770
1.570029
1.561906
1.557644
1.560036
1.568417
1.578700
1.584635
1.580563
1.564168
1.536527
1.499311
1.452408
1.395144
1.329687
1.262002
1.198993
1.145699
1.105531
1.081567
1.075947
1.088268
1.115601
1.154187
1.200889
1.253698
1.311695
1.374537
1.441313
1.509128
1.572467
1.624337
1.659135
1.675664
1.677990
1.673423
1.669510
1.671955
1.683735
1.704976
1.733444
1.765712
1.798907
1.832608
1.869596
1.914161
1.968771
2.031688
2.097306
2.158920
2.211898
2.254926
2.289200
2.317318
2.342785
2.369551
2.400879
2.437678
2.477481
2.515314
2.546250
2.568187
2.583252
2.596557
2.612913
2.634416
2.660367
2.687886
2.712017
2.726390
2.725483
2.707751
2.677484
2.643396
2.613992
2.592965
2.578295
2.565171
2.549845
2.531992
2.514889
2.503496
2.501011
2.506346
2.515115
2.522858
2.527010
2.526702
2.521852
2.512751
2.500344
2.486687
2.474931
2.468803
2.471547
2.484132
2.503905
2.525962
2.546917
2.567153
2.588771
2.611698
2.632358
2.645632
2.648031
2.640247
2.627392
2.616370
2.612328
2.616753
2.627837
2.641845
2.654167
2.660180
2.656615
2.643459
2.625277
2.610192
2.606225
2.617888
2.645659
2.687211
2.737953
2.791032
2.838742
2.875576
2.900737
2.918321
2.935166
2.957153
2.985428
3.015493
3.040921
3.059028
3.073368
3.090951
3.116698
3.149564
3.183372
3.211003
3.227753
3.231693
3.222461
3.201091
3.171552
3.141807
3.121739
3.118141
3.130444
3.150921
3.169026
3.176190
3.168216
3.144805
3.107125
3.055297
2.988255
2.906093
2.812077
2.712283
2.613425
2.520668
2.437052
2.364515
2.304610
2.257582
2.220968
2.189815
2.158733
2.123978
2.084061
2.038716
1.987444
1.929190
1.863447
1.791601
1.717117
1.644114
1.575534
1.512831
1.457518
1.412352
1.379999
1.360493
1.350668
1.345882
1.341895
1.335566
1.324659
1.307935
1.286060
1.262177
1.240759
1.224926
1.214295
1.205801
1.197698
1.193386
1.200752
1.226451
1.269952
1.322957
1.374734
1.418819
1.455758
1.490135
1.525035
1.559039
1.588111
1.609963
1.626684
1.643992
1.668810
1.707290
1.763788
1.840539
1.938080
2.056243
2.194899
2.353802
2.531935
2.727387
2.938068
3.162293
3.398359
3.643608
3.894409
4.147499
4.401186
4.654954
4.908305
5.160309
5.409888
5.656257
5.899583
6.141837
6.386586
6.636568
6.890158
7.139641
7.373179
7.579459
7.751808
7.888877
7.991994
8.061706
8.096070
8.091552
8.045688
7.959652
7.838835
7.691287
7.525531
7.348610
7.164415
6.973412
6.774564
6.567423
6.351996
6.127296
5.891301
5.642884
5.383770
5.118418
4.851654
4.585787
4.319654
4.050944
3.780246
3.513247
3.259022
3.026038
2.818780
2.636629
2.475609
2.332092
2.205322
2.096276
2.004097
1.923567
1.845869
1.762058
1.666922
1.561086
1.450369
1.342693
1.243988
1.155329
1.073513
0.994986
0.919685
0.851162
0.792988
0.744834
0.701601
0.655934
0.601662
0.535454
0.455812
0.361077
0.249089
0.118826
-0.028174
-0.188223
-0.357295
-0.532839
-0.714372
-0.902412
-1.096811
-1.296301
-1.499874
-1.708580
-1.925566
-2.153686
-2.392653
-2.638567
-2.886371
-3.133020
-3.378778
-3.625959
-3.876685
-4.131746
-4.391094
-4.654650
-4.922151
-5.192575
-5.464461
-5.737082
-6.010974
-6.286796
-6.563397
-6.836845
-7.101240
-7.350900
-7.582806
-7.797878
-8.000062
-8.193249
-8.377777
-8.549241
-8.700687
-8.826441
-8.924761
-8.997539
-9.047321
-9.073877
-9.073096
-9.038978
-8.966791
-8.854899
-8.704198
-8.516166
-8.291375
-8.029632
-7.731662
-7.401149
-7.045222
-6.672451
-6.289683
-5.900157
-5.504143
-5.101362
-4.693144
-4.282768
-3.874215
-3.470904
-3.075483
-2.690070
-2.315894
-1.952724
-1.599191
-1.254200
-0.918301
-0.593797
-0.283363
0.011888
0.293716
0.566673
0.836484
1.107609
1.381056
1.653616
1.919174
2.171387
2.405981
2.621349
2.817578
2.995336
3.155655
3.300026
3.429931
3.546288
3.649855
3.742393
3.827119
3.907705
3.986849
4.065892
4.145697
4.227849
4.315229
4.411407
4.518834
4.636774
4.760752
4.884302
5.001758
5.109844
5.207240
5.293350
5.367461
5.428534
5.475318
5.506203
5.518747
5.509910
5.477663
5.422902
5.349836
5.264377
5.172058
5.077214
4.983373
4.893947
4.812796
4.744166
4.691423
4.655090
4.631944
4.616492
4.603802
4.591109
4.576998
4.559356
4.533996
4.494740
4.434431
4.346272
4.225275
4.069515
3.880619
3.662933
3.421818
3.162358
2.888885
2.604873
2.313075
2.016074
1.716927
1.419186
1.125964
0.838830
0.557617
0.281317
0.009457
-0.256917
-0.515329
-0.763011
-0.998135
-1.220176
-1.429423
-1.626148
-1.809921
-1.979869
-2.136178
-2.281490
-2.420493
-2.557821
-2.696091
-2.835739
-2.976365
-3.117941
-3.260963
-3.405902
-3.552531
-3.699625
-3.845341
-3.987921
-4.126104
-4.259129
-4.386805
-4.509801
-4.629591
-4.747617
-4.864104
-4.977706
-5.086634
-5.190484
-5.291215
-5.392209
-5.495887
-5.601808
-5.706506
-5.804987
-5.893206
-5.970090
-6.037898
-6.100818
-6.162736
-6.225709
-6.290177
-6.356486
-6.426451
-6.503759
-6.592688
-6.695966
-6.813354
-6.941879
-7.077261
-7.215591
-7.354458
-7.493109
-7.631556
-7.769457
-7.906122
-8.041604
-8.177256
-8.314844
-8.455074
-8.596972
-8.738593
-8.878346
-9.015758
-9.151011
-9.283466
-9.410041
-9.524843
-9.620892
-9.693084
-9.739966
-9.762760
-9.762638
-9.738571
-9.687418
-9.606004
-9.493037
-9.349139
-9.175552
-8.973251
-8.743215
-8.487312
-8.208825
-7.912162
-7.602047
-7.282802
-6.958154
-6.631398
-6.305547
-5.983331
-5.666951
-5.357595
-5.054967
-4.757305
-4.462148
-4.167654
-3.874131
-3.585109
-3.307042
-3.047652
-2.813854
-2.610250
-2.438630
-2.298761
-2.189806
-2.110914
-2.060673
-2.036566
-2.035222
-2.053374
-2.088903
-2.140767
-2.207352
-2.284757
-2.367154
-2.449294
-2.528931
-2.607205
-2.687157
-2.772078
-2.864596
-2.965880
-3.074821
-3.188228
-3.302526
-3.415774
-3.528501
-3.643324
-3.763971
-3.893942
-4.035537
-4.189763
-4.356665
-4.535813
-4.726684
-4.928562
-5.140472
-5.361404
-5.590279
-5.825292
-6.062783
-6.296256
-6.516387
-6.712377
-6.874496
-6.996953
-7.079191
-7.124396
-7.136735
-7.119772
-7.076799
-7.012084
-6.931572
-6.842189
-6.750315
-6.660626
-6.575674
-6.495836
-6.419898
-6.346619
-6.276439
-6.212261
-6.158750
-6.120401
-6.099669
-6.096473
-6.109160
-6.135944
-6.175693
-6.227745
-6.291278
-6.364744
-6.445710
-6.531350
-6.619369
-6.708429
-6.797079
-6.881621
-6.954584
-7.005393
-7.023676
-7.003314
-6.944014
-6.849443
-6.724390
-6.573704
-6.402785
-6.217813
-6.025260
-5.831361
-5.641737
-5.461097
-5.293011
-5.139756
-5.002265
-4.879964
-4.770399
-4.669129
-4.570241
-4.467432
-4.355429
-4.231224
-4.094379
-3.946182
-3.788388
-3.622502
-3.449761
-3.271677
-3.090959
-2.912038
-2.740707
-2.583106
-2.444380
-2.327405
-2.232374
-2.157887
-2.102659
-2.066099
-2.047187
-2.042747
-2.046511
-2.049777
-2.043651
-2.021918
-1.982806
-1.928317
-1.861548
-1.784363
-1.697508
-1.602766
-1.504841
-1.411099
-1.329292
-1.265145
-1.221393
-1.198172
-1.194177
-1.207971
-1.238468
-1.284372
-1.343575
-1.413391
-1.491129
-1.574311
-1.660541
-1.747459
-1.832985
-1.915577
-1.994085
-2.067238
-2.133386
-2.190851
-2.238375
-2.275149
-2.300522
-2.313671
-2.313364
-2.297905
-2.265376
-2.214389
-2.144966
-2.058691
-1.958048
-1.845622
-1.723736
-1.594778
-1.462125
-1.330992
-1.208340
-1.101509
-1.016138
-0.954644
-0.916238
-0.898174
-0.896956
-0.908772
-0.929603
-0.955627
-0.983884
-1.012608
-1.040894
-1.068127
-1.093941
-1.118638
-1.143233
-1.168806
-1.195717
-1.223321
-1.250478
-1.276686
-1.302953
-1.331323
-1.363311
-1.398613
-1.434925
-1.469093
-1.499168
-1.526046
-1.553480
-1.586461
-1.629016
-1.682600
-1.745697
-1.814517
-1.884166
-1.949783
-2.007405
-2.054286
-2.088637
-2.109399
-2.116503
-2.111161
-2.095734
-2.073241
-2.046755
-2.018991
-1.992090
-1.967577
-1.946560
-1.929845
-1.917461
-1.907774
-1.896981
-1.879981
-1.852307
-1.811602
-1.757686
-1.691543
-1.614123
-1.525778
-1.426680
-1.317885
-1.201950
-1.082266
-0.961455
-0.839990
-0.716066
-0.586724
-0.449444
-0.303306
-0.149136
0.011193
0.175704
0.343035
0.512675
0.684600
0.858599
1.033849
1.209023
1.382790
1.554335
1.723519
1.890536
2.055417
2.217733
2.376585
2.530762
2.678816
2.818880
2.948377
3.064026
3.162364
3.240594
3.297372
3.333207
3.350272
3.351529
3.339519
3.315545
3.279702
3.231563
3.170970
3.098429
3.014905
2.921157
2.817102
2.701850
2.574654
2.436186
2.289072
2.137276
1.984963
1.835796
1.692945
1.559498
1.438415
1.331531
1.238572
1.157200
1.083939
1.015308
0.948469
0.881208
0.811721
0.738386
0.659557
0.573523
0.478569
0.373310
0.257268
0.131182
-0.003116
-0.142997
-0.285292
-0.426427
-0.562628
-0.690371
-0.806813
-0.909858
-0.997991
-1.070114
-1.125442
-1.163390
-1.183491
-1.185542
-1.170048
-1.138545
-1.093357
-1.037008
-0.971691
-0.899107
-0.820926
-0.739553
-0.658306
-0.580862
-0.510496
-0.449748
-0.400792
-0.366006
-0.347818
-0.347767
-0.365596
-0.399164
-0.445455
-0.502022
-0.567822
-0.642876
-0.727108
-0.819298
-0.916930
-1.016994
-1.117062
-1.215776
-1.312269
-1.404822
-1.489885
-1.562452
-1.617805
-1.653586
-1.670565
-1.671515
-1.659533
-1.637357
-1.607824
-1.574453
-1.541336
-1.512250
-1.489620
-1.473995
-1.464184
-1.457639
-1.450863
-1.439857
-1.420666
-1.389997
-1.345767
-1.287363
-1.215375
-1.130999
-1.035594
-0.930588
-0.817521
-0.698128
-0.574406
-0.448493
-0.322352
-0.197520
-0.074964
0.044920
0.162092
0.276395
0.387080
0.492737
0.591721
0.682678
0.764922
0.838664
0.904942
0.965160
1.020502
1.071579
1.118510
1.161370
1.200646
1.237253
1.272027
1.305063
1.335368
1.361185
1.380876
1.393591
1.399088
1.397079
1.386928
1.367831
1.339152
1.300651
1.252550
1.195480
1.130266
1.057700
0.978446
0.892950
0.801379
0.703764
0.600365
0.492103
0.380703
0.268377
0.157235
0.048749
-0.056474
-0.158489
-0.257506
-0.353273
-0.444679
-0.529842
-0.606479
-0.672195
-0.724782
-0.762664
-0.785218
-0.792746
-0.786238
-0.767198
-0.737542
-0.699485
-0.655456
-0.607992
-0.559612
-0.512649
-0.468882
-0.429123
-0.393143
-0.360043
-0.328829
-0.298805
-0.269543
-0.240540
-0.210992
-0.179928
-0.146578
-0.110665
-0.072445
-0.032450
0.008909
0.051616
0.096075
0.142942
0.192785
0.245739
0.301461
0.359528
0.419986
0.483431
0.550316
0.619909
0.689840
0.756740
0.817554
0.870574
0.915681
0.953916
0.986722
1.015286
1.040375
1.062676
1.083191
1.103312
1.124488
1.147709
1.173178
1.200492
1.229316
1.259984
1.293379
1.330316
1.371033
1.415061
1.461451
1.509118
1.556910
1.603374
1.646592
1.684402
1.715043
1.737821
1.753358
1.763381
1.770198
1.776029
1.782325
1.789333
1.796126
1.801109
1.802730
1.800023
1.792847
1.781864
1.768219
1.752927
1.736283
1.717774
1.696599
1.672357
1.645465
1.617170
1.589131
1.562643
1.537989
