EVENT_NAME: EMILIA_2ND_SHOCK
EVENT_ID: IT-2012-0011
EVENT_DATE_YYYYMMDD: 20120529
EVENT_TIME_HHMMSS: 070002
EVENT_LATITUDE_DEGREE: 44.8417
EVENT_LONGITUDE_DEGREE: 11.0657
EVENT_DEPTH_KM: 8.1
HYPOCENTER_REFERENCE: INGV-CNT_Seismic_Bulletin
MAGNITUDE_W: 6.0
MAGNITUDE_W_REFERENCE: RCMT-INGV
MAGNITUDE_L: 5.8
MAGNITUDE_L_REFERENCE: INGV-CNT_Seismic_Bulletin
FOCAL_MECHANISM: TF
NETWORK: IT
STATION_CODE: RAV0
STATION_NAME: RAVARINO
STATION_LATITUDE_DEGREE: 44.715700
STATION_LONGITUDE_DEGREE: 11.142800
STATION_ELEVATION_M: 87
LOCATION: 
SENSOR_DEPTH_M: 0.0
VS30_M/S: 
SITE_CLASSIFICATION_EC8: C*
MORPHOLOGIC_CLASSIFICATION: 
EPICENTRAL_DISTANCE_KM: 15.3
EARTHQUAKE_BACKAZIMUTH_DEGREE: 336.5
DATE_TIME_FIRST_SAMPLE_YYYYMMDD_HHMMSS: 20120529_065933.000
DATE_TIME_FIRST_SAMPLE_PRECISION: seconds
SAMPLING_INTERVAL_S: 0.005000
NDATA: 24001
DURATION_S: 120.005
STREAM: HNE
UNITS: cm/s
INSTRUMENT: sensor = Episensor FBA ES-T [Kinemetrics] | digitizer = Etna [Kinemetrics]
INSTRUMENT_ANALOG/DIGITAL: D
INSTRUMENTAL_FREQUENCY_HZ: 
INSTRUMENTAL_DAMPING: 
FULL_SCALE_G: 
N_BIT_DIGITAL_CONVERTER: 18
PGV_CM/S: 6.144174
TIME_PGV_S: 40.420000
BASELINE_CORRECTION: BASELINE REMOVED
FILTER_TYPE: BUTTERWORTH
FILTER_ORDER: 2
LOW_CUT_FREQUENCY_HZ: 0.050
HIGH_CUT_FREQUENCY_HZ: 30.000
LATE/NORMAL_TRIGGERED: NT
DATABASE_VERSION: DYNA 1.0
HEADER_FORMAT: DYNA 1.2
DATA_TYPE: VELOCITY
PROCESSING: manual (Paolucci et al., 2011)
DATA_TIMESTAMP_YYYYMMDD_HHMMSS: 
DATA_LICENSE: CC-BY3_0-IT (http://creativecommons.org/licenses/by/3.0/deed.en)
DATA_CITATION: ESM working group (2015), European Strong-Motion database, version 0.1, Network Activity 3: Networking acceleration networks and SM data users. Project NERA (www.nera-eu.org)
DATA_CREATOR: ESM working group
ORIGINAL_DATA_MEDIATOR_CITATION: Ufficio Rischio Sismico e Vulcanico del Dipartimento della Protezione Civile (http://www.protezionecivile.gov.it/)
ORIGINAL_DATA_MEDIATOR: Rete Accelerometrica Nazionale - RAN Download (http://www.mot1.it/randownload/)
ORIGINAL_DATA_CREATOR_CITATION: Italian Strong Motion Network, Italian Civil Protection Department http://www.protezionecivile.gov.it
ORIGINAL_DATA_CREATOR: network: IT (Italian Strong Motion Network); owner: Dipartimento Della Protezione Civile
USER1: 
USER2: 
USER3: 
USER4: 
USER5: 
[...]
0.009474
0.010244
0.010782
0.010802
0.010474
0.010188
0.009741
0.008086
0.004394
-0.000569
-0.004566
-0.005768
-0.004501
-0.002966
-0.003189
-0.005295
-0.007684
-0.008649
-0.007732
-0.005715
-0.003676
-0.002236
-0.001394
-0.000763
0.000246
0.002384
0.006145
0.010825
0.014259
0.014255
0.010608
0.005424
0.001268
-0.000936
-0.002190
-0.003822
-0.005877
-0.007176
-0.006800
-0.005329
-0.004567
-0.005965
-0.009066
-0.011383
-0.010022
-0.003884
0.005087
0.012673
0.014722
0.009211
-0.002911
-0.017854
-0.030289
-0.035909
-0.033871
-0.027047
-0.019441
-0.013074
-0.007190
0.000062
0.009325
0.019085
0.026722
0.030220
0.028979
0.023601
0.015249
0.005273
-0.004762
-0.013309
-0.019527
-0.023595
-0.025692
-0.024480
-0.017850
-0.006122
0.006257
0.013144
0.011112
0.001779
-0.009561
-0.017498
-0.019762
-0.018054
-0.015757
-0.014473
-0.012904
-0.009082
-0.003034
0.003023
0.006815
0.007974
0.007957
0.008307
0.008993
0.008311
0.004474
-0.002588
-0.011010
-0.018252
-0.022451
-0.023219
-0.021659
-0.019373
-0.017197
-0.014979
-0.012412
-0.009792
-0.008040
-0.008327
-0.011535
-0.017518
-0.024596
-0.030041
-0.031534
-0.028570
-0.022704
-0.016421
-0.011463
-0.007835
-0.004294
0.000059
0.004590
0.007670
0.008413
0.007629
0.006774
0.006172
0.004807
0.001880
-0.001913
-0.004798
-0.005433
-0.004033
-0.002232
-0.001867
-0.003801
-0.007777
-0.013228
-0.019989
-0.027969
-0.036206
-0.042627
-0.045024
-0.042513
-0.036247
-0.028765
-0.022442
-0.018159
-0.015217
-0.012471
-0.009519
-0.006911
-0.005524
-0.005800
-0.007460
-0.009780
-0.012041
-0.013637
-0.013907
-0.012127
-0.008028
-0.002564
0.002058
0.003532
0.000955
-0.004674
-0.011280
-0.017007
-0.020998
-0.023270
-0.024097
-0.023708
-0.022486
-0.021188
-0.020698
-0.021360
-0.022564
-0.023194
-0.022473
-0.020363
-0.017259
-0.013585
-0.009818
-0.006754
-0.005457
-0.006808
-0.010942
-0.017020
-0.023549
-0.029062
-0.032696
-0.034347
-0.034474
-0.033854
-0.033298
-0.033235
-0.033337
-0.032673
-0.030488
-0.027038
-0.023668
-0.022013
-0.022856
-0.025428
-0.027845
-0.028498
-0.027149
-0.024814
-0.022800
-0.021923
-0.022341
-0.023618
-0.024921
-0.025469
-0.024975
-0.023787
-0.022739
-0.022788
-0.024467
-0.027397
-0.030420
-0.032464
-0.033458
-0.034281
-0.035753
-0.037762
-0.039311
-0.039253
-0.037149
-0.033689
-0.030308
-0.028188
-0.027545
-0.027802
-0.028357
-0.029100
-0.030173
-0.031328
-0.031682
-0.030246
-0.026790
-0.022193
-0.017931
-0.015198
-0.014375
-0.015061
-0.016639
-0.019013
-0.022721
-0.028134
-0.034654
-0.040773
-0.044957
-0.046523
-0.045855
-0.043952
-0.041843
-0.040247
-0.039374
-0.038840
-0.037968
-0.036395
-0.034388
-0.032652
-0.031870
-0.032317
-0.033771
-0.035747
-0.037862
-0.040029
-0.042341
-0.044812
-0.047215
-0.049012
-0.049473
-0.048109
-0.045223
-0.042074
-0.040285
-0.040727
-0.042688
-0.044169
-0.043380
-0.040354
-0.037216
-0.036642
-0.039687
-0.044950
-0.049906
-0.053126
-0.055266
-0.057971
-0.061991
-0.066304
-0.068901
-0.068383
-0.065045
-0.060586
-0.056858
-0.054810
-0.054424
-0.055267
-0.056812
-0.058285
-0.058542
-0.056523
-0.052091
-0.046439
-0.041542
-0.038931
-0.038782
-0.040114
-0.041903
-0.043882
-0.046231
-0.048721
-0.050434
-0.050430
-0.048890
-0.047511
-0.048303
-0.051790
-0.056534
-0.060466
-0.062571
-0.063324
-0.063777
-0.064463
-0.065143
-0.065364
-0.065078
-0.064678
-0.064466
-0.064201
-0.063419
-0.062171
-0.061134
-0.060882
-0.061181
-0.061058
-0.059525
-0.056299
-0.052028
-0.048079
-0.046035
-0.046959
-0.050788
-0.056416
-0.062331
-0.067159
-0.069955
-0.070492
-0.069407
-0.067795
-0.066407
-0.065293
-0.064272
-0.063503
-0.063416
-0.064212
-0.065734
-0.067840
-0.070636
-0.074202
-0.078198
-0.081818
-0.084169
-0.084820
-0.084033
-0.082355
-0.080090
-0.077369
-0.074706
-0.073266
-0.074208
-0.077588
-0.082019
-0.085612
-0.087332
-0.087441
-0.086755
-0.085918
-0.085573
-0.086803
-0.090758
-0.097507
-0.105334
-0.111434
-0.113640
-0.111892
-0.108466
-0.106699
-0.108850
-0.114404
-0.120238
-0.122969
-0.121711
-0.118780
-0.117533
-0.119235
-0.121875
-0.122271
-0.119502
-0.116138
-0.115794
-0.119400
-0.124199
-0.126790
-0.126932
-0.127877
-0.132897
-0.141764
-0.150648
-0.155347
-0.154734
-0.151419
-0.149340
-0.150532
-0.153714
-0.155750
-0.154695
-0.151659
-0.149635
-0.150509
-0.153417
-0.156034
-0.157140
-0.157577
-0.158835
-0.161111
-0.162942
-0.162618
-0.159678
-0.154816
-0.148486
-0.140050
-0.128677
-0.114985
-0.101466
-0.090984
-0.084536
-0.080593
-0.077218
-0.074766
-0.075908
-0.082946
-0.095268
-0.109119
-0.119806
-0.124721
-0.124894
-0.123880
-0.124935
-0.128639
-0.132832
-0.134724
-0.133208
-0.129617
-0.126613
-0.126192
-0.128407
-0.131707
-0.134337
-0.135597
-0.136088
-0.136778
-0.137886
-0.138987
-0.140283
-0.143185
-0.149082
-0.157716
-0.167187
-0.175601
-0.182489
-0.188638
-0.194869
-0.201006
-0.205896
-0.208510
-0.209125
-0.209266
-0.210133
-0.210982
-0.209630
-0.205017
-0.198943
-0.194560
-0.193022
-0.192153
-0.188514
-0.180330
-0.168588
-0.156192
-0.146480
-0.141667
-0.141512
-0.143281
-0.143550
-0.140449
-0.134697
-0.129182
-0.127347
-0.130836
-0.138109
-0.145560
-0.150242
-0.151521
-0.150201
-0.146712
-0.140838
-0.132961
-0.124844
-0.118895
-0.116841
-0.119072
-0.124706
-0.131874
-0.138258
-0.142145
-0.143388
-0.143295
-0.143482
-0.144812
-0.147216
-0.150011
-0.152249
-0.153534
-0.155087
-0.159483
-0.168673
-0.182199
-0.197367
-0.211134
-0.221623
-0.228054
-0.230286
-0.228923
-0.225336
-0.221419
-0.219390
-0.221198
-0.227475
-0.237010
-0.247369
-0.256210
-0.262214
-0.264976
-0.264401
-0.260718
-0.254887
-0.248315
-0.242012
-0.236295
-0.231245
-0.227297
-0.225492
-0.227161
-0.232985
-0.242100
-0.252310
-0.261286
-0.267660
-0.271247
-0.272579
-0.272557
-0.272295
-0.272569
-0.273139
-0.272880
-0.270843
-0.267140
-0.262665
-0.258077
-0.253276
-0.247633
-0.240623
-0.232580
-0.224986
-0.219799
-0.218166
-0.219555
-0.222232
-0.224827
-0.227451
-0.231202
-0.236622
-0.242805
-0.248035
-0.251204
-0.252592
-0.253530
-0.255523
-0.259430
-0.264952
-0.270682
-0.274780
-0.275976
-0.274366
-0.271515
-0.269530
-0.269636
-0.271537
-0.274211
-0.277310
-0.281889
-0.289767
-0.301918
-0.317240
-0.332768
-0.345261
-0.353158
-0.357355
-0.359948
-0.362271
-0.364261
-0.365240
-0.364657
-0.362263
-0.358202
-0.353290
-0.349111
-0.347282
-0.348107
-0.350098
-0.351215
-0.350597
-0.349013
-0.347623
-0.346337
-0.343645
-0.338377
-0.331462
-0.325226
-0.320750
-0.316378
-0.308816
-0.295460
-0.275997
-0.252289
-0.226819
-0.201112
-0.175377
-0.149108
-0.121663
-0.092356
-0.060361
-0.024715
0.015573
0.060965
0.110483
0.161382
0.210223
0.254960
0.296208
0.336280
0.376984
0.418043
0.456950
0.490367
0.516321
0.535369
0.549617
0.560565
0.567621
0.568783
0.563096
0.552284
0.539432
0.525705
0.508303
0.482075
0.443885
0.395712
0.343346
0.291892
0.242261
0.191770
0.138200
0.083580
0.034056
-0.004476
-0.030747
-0.047758
-0.058346
-0.061870
-0.055427
-0.037742
-0.011496
0.017681
0.044158
0.065077
0.081207
0.095295
0.109236
0.122417
0.132436
0.137308
0.137194
0.134516
0.132752
0.134992
0.142765
0.155212
0.169106
0.180173
0.184958
0.181922
0.171304
0.154274
0.131860
0.104233
0.070980
0.032470
-0.008737
-0.048248
-0.082189
-0.109255
-0.130488
-0.147535
-0.161308
-0.171725
-0.178026
-0.179827
-0.178604
-0.177537
-0.178808
-0.180991
-0.179486
-0.169211
-0.146835
-0.111820
-0.066745
-0.016357
0.034789
0.084710
0.134755
0.187748
0.244470
0.301315
0.351390
0.388444
0.410638
0.421240
0.425558
0.426168
0.420323
0.402265
0.368771
0.322743
0.271372
0.220777
0.172095
0.122361
0.068800
0.012111
-0.043787
-0.094269
-0.136352
-0.169449
-0.194351
-0.211450
-0.219933
-0.219050
-0.209962
-0.195693
-0.179114
-0.161298
-0.141872
-0.120559
-0.098129
-0.075710
-0.052968
-0.026938
0.006896
0.051592
0.106343
0.166920
0.228231
0.286565
0.340144
0.388319
0.430417
0.465120
0.490718
0.505972
0.510991
0.507575
0.498705
0.487197
0.474105
0.457867
0.434637
0.399299
0.346918
0.274700
0.183683
0.078898
-0.032578
-0.144496
-0.253271
-0.357910
-0.458212
-0.552473
-0.637084
-0.708772
-0.767162
-0.815050
-0.856047
-0.891519
-0.919327
-0.935442
-0.936754
-0.922253
-0.891903
-0.844997
-0.779592
-0.693645
-0.587481
-0.466095
-0.339356
-0.218739
-0.112107
-0.021157
0.056227
0.121706
0.174515
0.213131
0.238194
0.253398
0.263698
0.272736
0.281760
0.290763
0.300393
0.312311
0.327538
0.344604
0.359404
0.367093
0.364689
0.352272
0.332078
0.306913
0.279339
0.251611
0.225625
0.202751
0.183780
0.168932
0.157742
0.149107
0.141577
0.133275
0.121541
0.103208
0.075648
0.038077
-0.007603
-0.057573
-0.108401
-0.158880
-0.210013
-0.263726
-0.321360
-0.382882
-0.447432
-0.514622
-0.585249
-0.660770
-0.742025
-0.828154
-0.916108
-1.000952
-1.076764
-1.137957
-1.181121
-1.206699
-1.219091
-1.224112
-1.225328
-1.222766
-1.215003
-1.202121
-1.186644
-1.172017
-1.160392
-1.151654
-1.144108
-1.135786
-1.125493
-1.113168
-1.099310
-1.084148
-1.067578
-1.050068
-1.033661
-1.021609
-1.016178
-1.016476
-1.018484
-1.017468
-1.010740
-0.998347
-0.981278
-0.959138
-0.929704
-0.890800
-0.842603
-0.788375
-0.733139
-0.681353
-0.635117
-0.593820
-0.555469
-0.518928
-0.485366
-0.457455
-0.436963
-0.422994
-0.412468
-0.402207
-0.390711
-0.378610
-0.367881
-0.360560
-0.357965
-0.360865
-0.370025
-0.386264
-0.409957
-0.440637
-0.476962
-0.516734
-0.556858
-0.593818
-0.625072
-0.650338
-0.671173
-0.689134
-0.704641
-0.717582
-0.728267
-0.737219
-0.744386
-0.749099
-0.750753
-0.749179
-0.744464
-0.736813
-0.726651
-0.714580
-0.701107
-0.686621
-0.671806
-0.657919
-0.646377
-0.637752
-0.631027
-0.623959
-0.614268
-0.600435
-0.581719
-0.558064
-0.530354
-0.500648
-0.471890
-0.446928
-0.427399
-0.413378
-0.404127
-0.399237
-0.399215
-0.405037
-0.416947
-0.433634
-0.452875
-0.472839
-0.492341
-0.509916
-0.523243
-0.529847
-0.528468
-0.519971
-0.507219
-0.494202
-0.484851
-0.481869
-0.486237
-0.497596
-0.514675
-0.535319
-0.556830
-0.577158
-0.596002
-0.614530
-0.633826
-0.653489
-0.671663
-0.686523
-0.697926
-0.707605
-0.717757
-0.729392
-0.741781
-0.753244
-0.762505
-0.769580
-0.775409
-0.780451
-0.783681
-0.783074
-0.776851
-0.764100
-0.744560
-0.718283
-0.685683
-0.647689
-0.605560
-0.560687
-0.514957
-0.471247
-0.432817
-0.401310
-0.375418
-0.352163
-0.329622
-0.308432
-0.291128
-0.280151
-0.276059
-0.277295
-0.281449
-0.286731
-0.292556
-0.299201
-0.307326
-0.318033
-0.332991
-0.353818
-0.380638
-0.410924
-0.440198
-0.464466
-0.482309
-0.494994
-0.505099
-0.515095
-0.526738
-0.541056
-0.558250
-0.577331
-0.595895
-0.610578
-0.618635
-0.620036
-0.618087
-0.617260
-0.619808
-0.624282
-0.627167
-0.626023
-0.621295
-0.615327
-0.610079
-0.606106
-0.603364
-0.602302
-0.603630
-0.606853
-0.609331
-0.607289
-0.598342
-0.583463
-0.566473
-0.551426
-0.540207
-0.531951
-0.524277
-0.515252
-0.504591
-0.493161
-0.481471
-0.468807
-0.453607
-0.434325
-0.409896
-0.379523
-0.342203
-0.296739
-0.242565
-0.180669
-0.113484
-0.043740
0.026382
0.095059
0.160177
0.219288
0.270599
0.314203
0.352269
0.387841
0.423120
0.458616
0.493823
0.528639
0.563989
0.600968
0.639501
0.678057
0.714430
0.746490
0.772284
0.789681
0.796331
0.790482
0.772003
0.742536
0.704609
0.660582
0.612415
0.562555
0.514963
0.474576
0.444919
0.425756
0.412860
0.400180
0.382814
0.358667
0.327742
0.289997
0.243991
0.187703
0.120462
0.043771
-0.039561
-0.126747
-0.215621
-0.304457
-0.391646
-0.475561
-0.554629
-0.627454
-0.692887
-0.750008
-0.798011
-0.836135
-0.863793
-0.880840
-0.887588
-0.884374
-0.871041
-0.847086
-0.812469
-0.768080
-0.715413
-0.655948
-0.590860
-0.521134
-0.448046
-0.374112
-0.304332
-0.246805
-0.211575
-0.207611
-0.239605
-0.306851
-0.404881
-0.528283
-0.672634
-0.834538
-1.010329
-1.194738
-1.380660
-1.560346
-1.727386
-1.877951
-2.010166
-2.122283
-2.211676
-2.275447
-2.311830
-2.321461
-2.307673
-2.275044
-2.226735
-2.162609
-2.079799
-1.975400
-1.849622
-1.707404
-1.556723
-1.404665
-1.254883
-1.107906
-0.962803
-0.818782
-0.676303
-0.537288
-0.404328
-0.279542
-0.163949
-0.057711
0.039194
0.126771
0.205477
0.276929
0.344331
0.412071
0.484529
0.564700
0.653336
0.749092
0.849808
0.954093
1.061769
1.172767
1.285825
1.398669
1.509672
1.619318
1.730080
1.844872
1.965374
2.091668
2.223124
2.359196
2.499445
2.643159
2.788973
2.934838
3.078630
3.218953
3.355348
3.487810
3.616281
3.740667
3.861291
3.979280
4.096295
4.213605
4.331402
4.449042
4.565847
4.681582
4.796169
4.909088
5.019166
5.124990
5.225384
5.319491
5.406524
5.485652
5.556367
5.619104
5.675559
5.728452
5.780680
5.834061
5.888349
5.941377
5.990376
6.033476
6.070141
6.100395
6.123779
6.138935
6.144174
6.138586
6.122911
6.099529
6.071420
6.040859
6.008905
5.975852
5.942004
5.908084
5.874887
5.842290
5.808240
5.768672
5.718596
5.653552
5.570560
5.468348
5.347070
5.207816
5.052173
4.881860
4.698298
4.502278
4.294089
4.074009
3.842639
3.600873
3.349685
3.090008
2.822761
2.548910
2.269500
1.985719
1.698993
1.410962
1.123214
0.836834
0.552143
0.268922
-0.012921
-0.292641
-0.568412
-0.837694
-1.097796
-1.346206
-1.580569
-1.798561
-1.997864
-2.176314
-2.332111
-2.464088
-2.571962
-2.656344
-2.718402
-2.759403
-2.780357
-2.781865
-2.764381
-2.728903
-2.677708
-2.614439
-2.543213
-2.467377
-2.389133
-2.310462
-2.234284
-2.164701
-2.106257
-2.062810
-2.036723
-2.028711
-2.037977
-2.062277
-2.098256
-2.142285
-2.191296
-2.242965
-2.295131
-2.345125
-2.389720
-2.425509
-2.449381
-2.458968
-2.453007
-2.431471
-2.395405
-2.346327
-2.285386
-2.212786
-2.127923
-2.030165
-1.919739
-1.798152
-1.667877
-1.531532
-1.391076
-1.247551
-1.101504
-0.953753
-0.805855
-0.659896
-0.517848
-0.381231
-0.251252
-0.128996
-0.015336
0.089368
0.185635
0.275092
0.360370
0.444740
0.531790
0.625208
0.728304
0.843265
0.970641
1.109203
1.256145
1.407719
1.560077
1.709683
1.853140
1.986966
2.107947
2.213866
2.303812
2.377775
2.436131
2.479600
2.509513
2.528029
2.537975
2.542214
2.542980
2.541617
2.538689
2.534222
2.527925
2.519304
2.507899
2.493751
2.477811
2.461813
2.447572
2.436274
2.428462
2.424693
2.426166
2.434711
2.452061
2.478763
2.513449
2.553021
2.593564
2.631347
2.663389
2.687418
2.701441
2.703364
2.691013
2.662695
2.617924
2.557717
2.484167
2.399554
2.305514
2.202674
2.090812
1.969404
1.838286
1.697976
1.549498
1.394123
1.233353
1.069124
0.903896
0.740343
0.580812
0.427129
0.281167
0.145929
0.026198
-0.072062
-0.143399
-0.184622
-0.195517
-0.178094
-0.135093
-0.068849
0.018879
0.126284
0.250853
0.389419
0.538817
0.696388
0.860003
1.027784
1.197727
1.367394
1.533947
1.694375
1.845610
1.984628
2.108673
2.215459
2.303281
2.371267
2.419677
2.449905
2.463939
2.463504
2.449401
2.421404
2.378701
2.320680
2.247524
2.160236
2.060338
1.949694
1.830431
1.704957
1.576014
1.446345
1.317750
1.190162
1.061583
0.929096
0.790535
0.645814
0.497217
0.348979
0.206803
0.077353
-0.032591
-0.117293
-0.173007
-0.198339
-0.194159
-0.163236
-0.109733
-0.038676
0.044275
0.132465
0.217853
0.291445
0.344730
0.371480
0.369160
0.339122
0.285401
0.213090
0.127191
0.032233
-0.067540
-0.168022
-0.265365
-0.355957
-0.435998
-0.501195
-0.547523
-0.572856
-0.577815
-0.564984
-0.537453
-0.497889
-0.448290
-0.390129
-0.324581
-0.252508
-0.174186
-0.089331
0.002215
0.099610
0.200488
0.300851
0.395551
0.479325
0.547986
0.599442
0.634187
0.654776
0.664591
0.666605
0.662577
0.652811
0.636412
0.611832
0.577493
0.532058
0.474259
0.402779
0.316471
0.214878
0.099120
-0.027247
-0.158226
-0.286114
-0.402290
-0.498147
-0.566736
-0.604796
-0.613881
-0.599689
-0.570088
-0.532956
-0.494817
-0.460639
-0.434413
-0.419655
-0.419381
-0.435624
-0.468796
-0.517275
-0.577637
-0.645658
-0.717605
-0.791200
-0.865796
-0.941665
-1.019180
-1.098671
-1.180768
-1.266761
-1.358660
-1.458632
-1.567869
-1.685435
-1.807646
-1.928579
-2.041890
-2.142942
-2.229734
-2.302313
-2.361571
-2.408157
-2.441719
-2.460826
-2.463671
-2.449136
-2.417473
-2.370134
-2.308794
-2.234318
-2.146653
-2.045763
-1.932502
-1.808494
-1.675372
-1.534245
-1.385742
-1.230379
-1.068994
-0.903018
-0.734359
-0.565025
-0.397024
-0.232792
-0.075553
0.070963
0.203280
0.318778
0.415973
0.494671
0.556011
0.602225
0.636181
0.660854
0.678963
0.692810
0.704162
0.714082
0.722906
0.730509
0.736764
0.741876
0.746374
0.751043
0.757117
0.766357
0.780661
0.801294
0.827992
0.858163
0.886711
0.906882
0.911995
0.897060
0.859382
0.798299
0.714885
0.611671
0.492174
0.360494
0.221149
0.078943
-0.061133
-0.194047
-0.315281
-0.421701
-0.512055
-0.586631
-0.646382
-0.692272
-0.725245
-0.746578
-0.758183
-0.762400
-0.761378
-0.756606
-0.748863
-0.738511
-0.725892
-0.711667
-0.697014
-0.683631
-0.673578
-0.669095
-0.672455
-0.685714
-0.710262
-0.746359
-0.792874
-0.847400
-0.906845
-0.968272
-1.029544
-1.089507
-1.147801
-1.204576
-1.260337
-1.315909
-1.372273
-1.430444
-1.491594
-1.557131
-1.628420
-1.706305
-1.790680
-1.880397
-1.973579
-2.068119
-2.161978
-2.252993
-2.338462
-2.415065
-2.479281
-2.528169
-2.560216
-2.575740
-2.576567
-2.565290
-2.544673
-2.517390
-2.486101
-2.453720
-2.423390
-2.397980
-2.379460
-2.368543
-2.364781
-2.366948
-2.373267
-2.381467
-2.388957
-2.393106
-2.391480
-2.382056
-2.363433
-2.334803
-2.295716
-2.245963
-2.185746
-2.116056
-2.038962
-1.957514
-1.875229
-1.795433
-1.720657
-1.652194
-1.589983
-1.532871
-1.479087
-1.426743
-1.374255
-1.320505
-1.264635
-1.205705
-1.142624
-1.074526
-1.001373
-0.924251
-0.844989
-0.765331
-0.686329
-0.608319
-0.531244
-0.454959
-0.379350
-0.304228
-0.229153
-0.153426
-0.076305
0.002832
0.084523
0.169242
0.257286
0.348639
0.442891
0.539225
0.636464
0.733189
0.827896
0.919107
1.005455
1.085793
1.159194
1.224865
1.282195
1.330855
1.370728
1.401660
1.423269
1.434964
1.436133
1.426359
1.405579
1.374218
1.333219
1.284060
1.228763
1.169722
1.109358
1.049704
0.992066
0.936834
0.883421
0.830381
0.775762
0.717659
0.654796
0.586910
0.514664
0.439101
0.360990
0.280589
0.197966
0.113520
0.028072
-0.057595
-0.143263
-0.229398
-0.316699
-0.405406
-0.494895
-0.583786
-0.670344
-0.752865
-0.829739
-0.899114
