EVENT_NAME: EMILIA_2ND_SHOCK
EVENT_ID: IT-2012-0011
EVENT_DATE_YYYYMMDD: 20120529
EVENT_TIME_HHMMSS: 070002
EVENT_LATITUDE_DEGREE: 44.8417
EVENT_LONGITUDE_DEGREE: 11.0657
EVENT_DEPTH_KM: 8.1
HYPOCENTER_REFERENCE: INGV-CNT_Seismic_Bulletin
MAGNITUDE_W: 6.0
MAGNITUDE_W_REFERENCE: RCMT-INGV
MAGNITUDE_L: 5.8
MAGNITUDE_L_REFERENCE: INGV-CNT_Seismic_Bulletin
FOCAL_MECHANISM: TF
NETWORK: IT
STATION_CODE: RAV0
STATION_NAME: RAVARINO
STATION_LATITUDE_DEGREE: 44.715700
STATION_LONGITUDE_DEGREE: 11.142800
STATION_ELEVATION_M: 87
LOCATION: 
SENSOR_DEPTH_M: 0.0
VS30_M/S: 
SITE_CLASSIFICATION_EC8: C*
MORPHOLOGIC_CLASSIFICATION: 
EPICENTRAL_DISTANCE_KM: 15.3
EARTHQUAKE_BACKAZIMUTH_DEGREE: 336.5
DATE_TIME_FIRST_SAMPLE_YYYYMMDD_HHMMSS: 20120529_065933.000
DATE_TIME_FIRST_SAMPLE_PRECISION: seconds
SAMPLING_INTERVAL_S: 0.005000
NDATA: 24001
DURATION_S: 120.005
STREAM: HNE
UNITS: cm
INSTRUMENT: sensor = Episensor FBA ES-T [Kinemetrics] | digitizer = Etna [Kinemetrics]
INSTRUMENT_ANALOG/DIGITAL: D
INSTRUMENTAL_FREQUENCY_HZ: 
INSTRUMENTAL_DAMPING: 
FULL_SCALE_G: 
N_BIT_DIGITAL_CONVERTER: 18
PGD_CM: 1.215318
TIME_PGD_S: 41.890000
BASELINE_CORRECTION: BASELINE REMOVED
FILTER_TYPE: BUTTERWORTH
FILTER_ORDER: 2
LOW_CUT_FREQUENCY_HZ: 0.050
HIGH_CUT_FREQUENCY_HZ: 30.000
LATE/NORMAL_TRIGGERED: NT
DATABASE_VERSION: DYNA 1.0
HEADER_FORMAT: DYNA 1.2
DATA_TYPE: DISPLACEMENT
PROCESSING: manual (Paolucci et al., 2011)
DATA_TIMESTAMP_YYYYMMDD_HHMMSS: 
DATA_LICENSE: CC-BY3_0-IT (http://creativecommons.org/licenses/by/3.0/deed.en)
DATA_CITATION: ESM working group (2015), European Strong-Motion database, version 0.1, Network Activity 3: Networking acceleration networks and SM data users. Project NERA (www.nera-eu.org)
DATA_CREATOR: ESM working group
ORIGINAL_DATA_MEDIATOR_CITATION: Ufficio Rischio Sismico e Vulcanico del Dipartimento della Protezione Civile (http://www.protezionecivile.gov.it/)
ORIGINAL_DATA_MEDIATOR: Rete Accelerometrica Nazionale - RAN Download (http://www.mot1.it/randownload/)
ORIGINAL_DATA_CREATOR_CITATION: Italian Strong Motion Network, Italian Civil Protection Department http://www.protezionecivile.gov.it
ORIGINAL_DATA_CREATOR: network: IT (Italian Strong Motion Network); owner: Dipartimento Della Protezione Civile
USER1: 
USER2: 
USER3: 
USER4: 
USER5: 
[...]
-2.571484e-01
-2.550582e-01
-2.527735e-01
-2.503216e-01
-2.477400e-01
-2.450632e-01
-2.423151e-01
-2.395123e-01
-2.366742e-01
-2.338303e-01
-2.310148e-01
-2.282534e-01
-2.255562e-01
-2.229277e-01
-2.203862e-01
-2.179758e-01
-2.157564e-01
-2.137778e-01
-2.120611e-01
-2.106016e-01
-2.093903e-01
-2.084315e-01
-2.077405e-01
-2.073226e-01
-2.071523e-01
-2.071747e-01
-2.073284e-01
-2.075672e-01
-2.078589e-01
-2.081683e-01
-2.084454e-01
-2.086341e-01
-2.086916e-01
-2.086032e-01
-2.083824e-01
-2.080570e-01
-2.076510e-01
-2.071745e-01
-2.066283e-01
-2.060162e-01
-2.053541e-01
-2.046675e-01
-2.039815e-01
-2.033090e-01
-2.026452e-01
-2.019702e-01
-2.012564e-01
-2.004804e-01
-1.996348e-01
-1.987340e-01
-1.978092e-01
-1.968996e-01
-1.960430e-01
-1.952717e-01
-1.946124e-01
-1.940912e-01
-1.937363e-01
-1.935740e-01
-1.936176e-01
-1.938589e-01
-1.942698e-01
-1.948161e-01
-1.954685e-01
-1.962062e-01
-1.970128e-01
-1.978714e-01
-1.987615e-01
-1.996607e-01
-2.005537e-01
-2.014414e-01
-2.023354e-01
-2.032404e-01
-2.041378e-01
-2.049838e-01
-2.057180e-01
-2.062771e-01
-2.066108e-01
-2.066926e-01
-2.065187e-01
-2.060951e-01
-2.054213e-01
-2.044826e-01
-2.032603e-01
-2.017537e-01
-1.999967e-01
-1.980545e-01
-1.960013e-01
-1.938951e-01
-1.917673e-01
-1.896365e-01
-1.875349e-01
-1.855236e-01
-1.836797e-01
-1.820660e-01
-1.807091e-01
-1.796052e-01
-1.787448e-01
-1.781330e-01
-1.777890e-01
-1.777284e-01
-1.779473e-01
-1.784187e-01
-1.791004e-01
-1.799477e-01
-1.809194e-01
-1.819767e-01
-1.830764e-01
-1.841716e-01
-1.852214e-01
-1.861999e-01
-1.870955e-01
-1.879019e-01
-1.886113e-01
-1.892141e-01
-1.897048e-01
-1.900833e-01
-1.903481e-01
-1.904828e-01
-1.904483e-01
-1.901904e-01
-1.896587e-01
-1.888241e-01
-1.876829e-01
-1.862501e-01
-1.845494e-01
-1.826078e-01
-1.804557e-01
-1.781301e-01
-1.756765e-01
-1.731467e-01
-1.705917e-01
-1.680538e-01
-1.655603e-01
-1.631243e-01
-1.607538e-01
-1.584645e-01
-1.562913e-01
-1.542948e-01
-1.525602e-01
-1.511867e-01
-1.502683e-01
-1.498738e-01
-1.500367e-01
-1.507591e-01
-1.520255e-01
-1.538151e-01
-1.561061e-01
-1.588685e-01
-1.620539e-01
-1.655978e-01
-1.694336e-01
-1.735088e-01
-1.777890e-01
-1.822466e-01
-1.868433e-01
-1.915205e-01
-1.962043e-01
-2.008155e-01
-2.052750e-01
-2.095000e-01
-2.133980e-01
-2.168662e-01
-2.198036e-01
-2.221341e-01
-2.238309e-01
-2.249246e-01
-2.254851e-01
-2.255909e-01
-2.253097e-01
-2.247012e-01
-2.238286e-01
-2.227630e-01
-2.215720e-01
-2.203050e-01
-2.189865e-01
-2.176228e-01
-2.162140e-01
-2.147602e-01
-2.132583e-01
-2.116967e-01
-2.100590e-01
-2.083360e-01
-2.065390e-01
-2.047035e-01
-2.028801e-01
-2.011187e-01
-1.994583e-01
-1.979238e-01
-1.965271e-01
-1.952690e-01
-1.941409e-01
-1.931271e-01
-1.922082e-01
-1.913636e-01
-1.905749e-01
-1.898293e-01
-1.891214e-01
-1.884551e-01
-1.878474e-01
-1.873313e-01
-1.869531e-01
-1.867627e-01
-1.868007e-01
-1.870886e-01
-1.876306e-01
-1.884250e-01
-1.894750e-01
-1.907937e-01
-1.924005e-01
-1.943149e-01
-1.965520e-01
-1.991251e-01
-2.020514e-01
-2.053552e-01
-2.090654e-01
-2.132061e-01
-2.177867e-01
-2.227914e-01
-2.281753e-01
-2.338650e-01
-2.397706e-01
-2.458041e-01
-2.518996e-01
-2.580202e-01
-2.641468e-01
-2.702606e-01
-2.763356e-01
-2.823462e-01
-2.882795e-01
-2.941396e-01
-2.999415e-01
-3.056998e-01
-3.114203e-01
-3.170993e-01
-3.227267e-01
-3.282926e-01
-3.337891e-01
-3.392099e-01
-3.445477e-01
-3.497981e-01
-3.549664e-01
-3.600744e-01
-3.651553e-01
-3.702377e-01
-3.753301e-01
-3.804175e-01
-3.854712e-01
-3.904629e-01
-3.953693e-01
-4.001650e-01
-4.048135e-01
-4.092675e-01
-4.134805e-01
-4.174224e-01
-4.210881e-01
-4.244949e-01
-4.276704e-01
-4.306395e-01
-4.334169e-01
-4.360115e-01
-4.384384e-01
-4.407256e-01
-4.429104e-01
-4.450254e-01
-4.470878e-01
-4.490988e-01
-4.510523e-01
-4.529454e-01
-4.547848e-01
-4.565876e-01
-4.583774e-01
-4.601817e-01
-4.620319e-01
-4.639632e-01
-4.660130e-01
-4.682162e-01
-4.706010e-01
-4.731846e-01
-4.759689e-01
-4.789380e-01
-4.820634e-01
-4.853151e-01
-4.886709e-01
-4.921166e-01
-4.956398e-01
-4.992277e-01
-5.028691e-01
-5.065552e-01
-5.102771e-01
-5.140226e-01
-5.177763e-01
-5.215222e-01
-5.252446e-01
-5.289286e-01
-5.325619e-01
-5.361348e-01
-5.396403e-01
-5.430734e-01
-5.464325e-01
-5.497221e-01
-5.529539e-01
-5.561427e-01
-5.592978e-01
-5.624176e-01
-5.654890e-01
-5.684911e-01
-5.713997e-01
-5.741901e-01
-5.768418e-01
-5.793451e-01
-5.817045e-01
-5.839392e-01
-5.860762e-01
-5.881430e-01
-5.901637e-01
-5.921599e-01
-5.941559e-01
-5.961811e-01
-5.982659e-01
-6.004340e-01
-6.026984e-01
-6.050626e-01
-6.075243e-01
-6.100739e-01
-6.126901e-01
-6.153393e-01
-6.179817e-01
-6.205815e-01
-6.231176e-01
-6.255886e-01
-6.280129e-01
-6.304222e-01
-6.328534e-01
-6.353414e-01
-6.379148e-01
-6.405914e-01
-6.433755e-01
-6.462613e-01
-6.492413e-01
-6.523140e-01
-6.554831e-01
-6.587505e-01
-6.621089e-01
-6.655415e-01
-6.690311e-01
-6.725691e-01
-6.761579e-01
-6.798049e-01
-6.835138e-01
-6.872800e-01
-6.910925e-01
-6.949404e-01
-6.988175e-01
-7.027197e-01
-7.066381e-01
-7.105535e-01
-7.144377e-01
-7.182582e-01
-7.219810e-01
-7.255725e-01
-7.290009e-01
-7.322393e-01
-7.352671e-01
-7.380706e-01
-7.406453e-01
-7.430016e-01
-7.451657e-01
-7.471722e-01
-7.490493e-01
-7.508101e-01
-7.524582e-01
-7.540004e-01
-7.554560e-01
-7.568568e-01
-7.582371e-01
-7.596235e-01
-7.610308e-01
-7.624644e-01
-7.639272e-01
-7.654232e-01
-7.669599e-01
-7.685500e-01
-7.702150e-01
-7.719841e-01
-7.738873e-01
-7.759419e-01
-7.781429e-01
-7.804652e-01
-7.828767e-01
-7.853517e-01
-7.878772e-01
-7.904527e-01
-7.930864e-01
-7.957917e-01
-7.985829e-01
-8.014696e-01
-8.044490e-01
-8.075019e-01
-8.105951e-01
-8.136953e-01
-8.167857e-01
-8.198720e-01
-8.229711e-01
-8.260925e-01
-8.292283e-01
-8.323584e-01
-8.354649e-01
-8.385415e-01
-8.415919e-01
-8.446225e-01
-8.476393e-01
-8.506508e-01
-8.536689e-01
-8.567032e-01
-8.597499e-01
-8.627863e-01
-8.657780e-01
-8.686953e-01
-8.715277e-01
-8.742848e-01
-8.769859e-01
-8.796456e-01
-8.822670e-01
-8.848433e-01
-8.873662e-01
-8.898320e-01
-8.922394e-01
-8.945834e-01
-8.968514e-01
-8.990231e-01
-9.010725e-01
-9.029702e-01
-9.046812e-01
-9.061649e-01
-9.073777e-01
-9.082810e-01
-9.088485e-01
-9.090672e-01
-9.089352e-01
-9.084599e-01
-9.076591e-01
-9.065626e-01
-9.052096e-01
-9.036386e-01
-9.018773e-01
-8.999381e-01
-8.978225e-01
-8.955294e-01
-8.930603e-01
-8.904171e-01
-8.875971e-01
-8.845923e-01
-8.813948e-01
-8.780045e-01
-8.744323e-01
-8.706999e-01
-8.668385e-01
-8.628901e-01
-8.589084e-01
-8.549560e-01
-8.510960e-01
-8.473833e-01
-8.438603e-01
-8.405574e-01
-8.374953e-01
-8.346825e-01
-8.321077e-01
-8.297348e-01
-8.275102e-01
-8.253814e-01
-8.233171e-01
-8.213162e-01
-8.194022e-01
-8.176088e-01
-8.159701e-01
-8.145201e-01
-8.133002e-01
-8.123617e-01
-8.117594e-01
-8.115405e-01
-8.117383e-01
-8.123720e-01
-8.134501e-01
-8.149724e-01
-8.169307e-01
-8.193085e-01
-8.220816e-01
-8.252189e-01
-8.286833e-01
-8.324334e-01
-8.364234e-01
-8.406041e-01
-8.449231e-01
-8.493273e-01
-8.537652e-01
-8.581871e-01
-8.625423e-01
-8.667777e-01
-8.708400e-01
-8.746804e-01
-8.782575e-01
-8.815372e-01
-8.844915e-01
-8.870972e-01
-8.893374e-01
-8.912080e-01
-8.927297e-01
-8.939637e-01
-8.950216e-01
-8.960596e-01
-8.972576e-01
-8.987919e-01
-9.008163e-01
-9.034577e-01
-9.068209e-01
-9.109936e-01
-9.160452e-01
-9.220189e-01
-9.289222e-01
-9.367239e-01
-9.453609e-01
-9.547506e-01
-9.648015e-01
-9.754129e-01
-9.864713e-01
-9.978485e-01
-1.009408e+00
-1.021015e+00
-1.032553e+00
-1.043929e+00
-1.055062e+00
-1.065875e+00
-1.076274e+00
-1.086151e+00
-1.095399e+00
-1.103936e+00
-1.111720e+00
-1.118743e+00
-1.125018e+00
-1.130557e+00
-1.135371e+00
-1.139465e+00
-1.142847e+00
-1.145533e+00
-1.147555e+00
-1.148952e+00
-1.149772e+00
-1.150061e+00
-1.149865e+00
-1.149231e+00
-1.148204e+00
-1.146819e+00
-1.145097e+00
-1.143037e+00
-1.140614e+00
-1.137791e+00
-1.134524e+00
-1.130779e+00
-1.126530e+00
-1.121759e+00
-1.116450e+00
-1.110586e+00
-1.104157e+00
-1.097164e+00
-1.089616e+00
-1.081519e+00
-1.072869e+00
-1.063644e+00
-1.053817e+00
-1.043359e+00
-1.032243e+00
-1.020447e+00
-1.007950e+00
-9.947345e-01
-9.807896e-01
-9.661154e-01
-9.507223e-01
-9.346275e-01
-9.178507e-01
-9.004117e-01
-8.823303e-01
-8.636270e-01
-8.443205e-01
-8.244241e-01
-8.039426e-01
-7.828746e-01
-7.612176e-01
-7.389724e-01
-7.161432e-01
-6.927352e-01
-6.687544e-01
-6.442090e-01
-6.191131e-01
-5.934882e-01
-5.673613e-01
-5.407638e-01
-5.137312e-01
-4.863029e-01
-4.585211e-01
-4.304256e-01
-4.020478e-01
-3.734055e-01
-3.445021e-01
-3.153318e-01
-2.858901e-01
-2.561832e-01
-2.262313e-01
-1.960639e-01
-1.657132e-01
-1.352112e-01
-1.045923e-01
-7.389766e-02
-4.317679e-02
-1.248386e-02
1.813070e-02
4.862834e-02
7.898544e-02
1.091897e-01
1.392343e-01
1.691135e-01
1.988235e-01
2.283640e-01
2.577384e-01
2.869498e-01
3.159910e-01
3.448344e-01
3.734274e-01
4.016951e-01
4.295479e-01
4.568897e-01
4.836250e-01
5.096641e-01
5.349250e-01
5.593343e-01
5.828258e-01
6.053372e-01
6.268076e-01
6.471776e-01
6.663908e-01
6.843952e-01
7.011436e-01
7.165937e-01
7.307075e-01
7.434520e-01
7.547995e-01
7.647281e-01
7.732231e-01
7.802779e-01
7.858940e-01
7.900781e-01
7.928389e-01
7.941835e-01
7.941189e-01
7.926557e-01
7.898136e-01
7.856251e-01
7.801361e-01
7.734051e-01
7.655023e-01
7.565095e-01
7.465201e-01
7.356386e-01
7.239780e-01
7.116576e-01
6.987978e-01
6.855160e-01
6.719240e-01
6.581270e-01
6.442252e-01
6.303159e-01
6.164940e-01
6.028495e-01
5.894610e-01
5.763888e-01
5.636727e-01
5.513358e-01
5.393901e-01
5.278378e-01
5.166664e-01
5.058429e-01
4.953116e-01
4.849976e-01
4.748140e-01
4.646704e-01
4.544805e-01
4.441691e-01
4.336779e-01
4.229664e-01
4.120100e-01
4.007951e-01
3.893195e-01
3.775939e-01
3.656453e-01
3.535177e-01
3.412708e-01
3.289760e-01
3.167109e-01
3.045536e-01
2.925766e-01
2.808449e-01
2.694180e-01
2.583541e-01
2.477144e-01
2.375636e-01
2.279649e-01
2.189742e-01
2.106348e-01
2.029771e-01
1.960217e-01
1.897840e-01
1.842765e-01
1.795077e-01
1.754784e-01
1.721789e-01
1.695897e-01
1.676835e-01
1.664273e-01
1.657823e-01
1.657056e-01
1.661525e-01
1.670806e-01
1.684561e-01
1.702580e-01
1.724817e-01
1.751406e-01
1.782666e-01
1.819082e-01
1.861245e-01
1.909777e-01
1.965237e-01
2.028044e-01
2.098430e-01
2.176434e-01
2.261918e-01
2.354575e-01
2.453924e-01
2.559321e-01
2.670014e-01
2.785205e-01
2.904094e-01
3.025900e-01
3.149880e-01
3.275356e-01
3.401757e-01
3.528656e-01
3.655767e-01
3.782916e-01
3.909997e-01
4.036931e-01
4.163642e-01
4.290038e-01
4.416004e-01
4.541398e-01
4.666086e-01
4.789977e-01
4.913067e-01
5.035446e-01
5.157260e-01
5.278683e-01
5.399917e-01
5.521226e-01
5.642961e-01
5.765564e-01
5.889502e-01
6.015175e-01
6.142826e-01
6.272504e-01
6.404071e-01
6.537241e-01
6.671612e-01
6.806684e-01
6.941852e-01
7.076403e-01
7.209537e-01
7.340434e-01
7.468319e-01
7.592528e-01
7.712505e-01
7.827781e-01
7.937915e-01
8.042455e-01
8.140926e-01
8.232840e-01
8.317739e-01
8.395214e-01
8.464920e-01
8.526587e-01
8.580044e-01
8.625238e-01
8.662256e-01
8.691296e-01
8.712653e-01
8.726711e-01
8.734007e-01
8.735317e-01
8.731714e-01
8.724544e-01
8.715313e-01
8.705537e-01
8.696633e-01
8.689878e-01
8.686435e-01
8.687379e-01
8.693694e-01
8.706236e-01
8.725707e-01
8.752648e-01
8.787468e-01
8.830468e-01
8.881857e-01
8.941743e-01
9.010113e-01
9.086810e-01
9.171529e-01
9.263810e-01
9.363041e-01
9.468475e-01
9.579248e-01
9.694412e-01
9.812975e-01
9.933959e-01
1.005645e+00
1.017965e+00
1.030283e+00
1.042530e+00
1.054637e+00
1.066530e+00
1.078134e+00
1.089371e+00
1.100172e+00
1.110474e+00
1.120223e+00
1.129375e+00
1.137899e+00
1.145780e+00
1.153011e+00
1.159600e+00
1.165551e+00
1.170859e+00
1.175504e+00
1.179457e+00
1.182686e+00
1.185172e+00
1.186917e+00
1.187951e+00
1.188338e+00
1.188175e+00
1.187588e+00
1.186723e+00
1.185732e+00
1.184761e+00
1.183945e+00
1.183396e+00
1.183203e+00
1.183424e+00
1.184086e+00
1.185176e+00
1.186633e+00
1.188356e+00
1.190214e+00
1.192060e+00
1.193755e+00
1.195182e+00
1.196248e+00
1.196884e+00
1.197045e+00
1.196707e+00
1.195867e+00
1.194540e+00
1.192760e+00
1.190580e+00
1.188074e+00
1.185337e+00
1.182472e+00
1.179583e+00
1.176758e+00
1.174071e+00
1.171582e+00
1.169340e+00
1.167390e+00
1.165767e+00
1.164504e+00
1.163633e+00
1.163187e+00
1.163198e+00
1.163696e+00
1.164698e+00
1.166202e+00
1.168180e+00
1.170577e+00
1.173317e+00
1.176314e+00
1.179485e+00
1.182759e+00
1.186082e+00
1.189415e+00
1.192728e+00
1.195992e+00
1.199174e+00
1.202233e+00
1.205120e+00
1.207781e+00
1.210152e+00
1.212166e+00
1.213748e+00
1.214823e+00
1.215318e+00
1.215182e+00
1.214391e+00
1.212960e+00
1.210949e+00
1.208458e+00
1.205624e+00
1.202600e+00
1.199531e+00
1.196533e+00
1.193682e+00
1.191017e+00
1.188543e+00
1.186240e+00
1.184068e+00
1.181970e+00
1.179873e+00
1.177695e+00
1.175351e+00
1.172764e+00
1.169876e+00
1.166648e+00
1.163060e+00
1.159104e+00
1.154775e+00
1.150067e+00
1.144971e+00
1.139477e+00
1.133573e+00
1.127240e+00
1.120446e+00
1.113153e+00
1.105314e+00
1.096887e+00
1.087848e+00
1.078206e+00
1.067996e+00
1.057281e+00
1.046133e+00
1.034621e+00
1.022813e+00
1.010773e+00
9.985639e-01
9.862598e-01
9.739415e-01
9.616958e-01
9.496084e-01
9.377577e-01
9.262138e-01
9.150422e-01
9.043089e-01
8.940801e-01
8.844176e-01
8.753751e-01
8.669983e-01
8.593270e-01
8.523983e-01
8.462464e-01
8.409015e-01
8.363864e-01
8.327146e-01
8.298895e-01
8.279043e-01
8.267404e-01
8.263626e-01
8.267174e-01
8.277338e-01
8.293277e-01
8.314076e-01
8.338809e-01
8.366610e-01
8.396721e-01
8.428530e-01
8.461573e-01
8.495521e-01
8.530162e-01
8.565370e-01
8.601074e-01
8.637219e-01
8.673745e-01
8.710583e-01
8.747677e-01
8.784995e-01
8.822547e-01
8.860403e-01
8.898721e-01
8.937754e-01
8.977819e-01
9.019218e-01
9.062127e-01
9.106462e-01
9.151806e-01
9.197406e-01
9.242259e-01
9.285228e-01
9.325143e-01
9.360887e-01
9.391471e-01
9.416080e-01
9.434104e-01
9.445162e-01
9.449109e-01
9.446052e-01
9.436350e-01
9.420586e-01
9.399501e-01
9.373898e-01
9.344566e-01
9.312247e-01
9.277634e-01
9.241371e-01
9.204043e-01
9.166133e-01
9.128013e-01
9.089944e-01
9.052114e-01
9.014671e-01
8.977745e-01
8.941451e-01
8.905867e-01
8.871017e-01
8.836835e-01
8.803156e-01
8.769702e-01
8.736079e-01
8.701793e-01
8.666280e-01
8.628962e-01
8.589318e-01
8.546948e-01
8.501606e-01
8.453193e-01
8.401715e-01
8.347240e-01
8.289850e-01
8.229621e-01
8.166604e-01
8.100809e-01
8.032195e-01
7.960673e-01
7.886093e-01
7.808237e-01
7.726816e-01
7.641500e-01
7.551966e-01
7.457947e-01
7.359268e-01
7.255862e-01
7.147763e-01
7.035113e-01
6.918190e-01
6.797437e-01
6.673473e-01
6.547064e-01
6.419054e-01
6.290267e-01
6.161438e-01
6.033174e-01
5.905940e-01
5.780070e-01
5.655765e-01
5.533079e-01
5.411910e-01
5.292011e-01
5.173038e-01
5.054611e-01
4.936372e-01
4.818024e-01
4.699361e-01
4.580288e-01
4.460840e-01
4.341184e-01
4.221610e-01
4.102508e-01
3.984336e-01
3.867596e-01
3.752810e-01
3.640512e-01
3.531225e-01
3.425422e-01
3.323474e-01
3.225598e-01
3.131837e-01
3.042065e-01
2.956032e-01
2.873422e-01
2.793923e-01
2.717280e-01
2.643325e-01
2.571988e-01
2.503275e-01
2.437250e-01
2.374018e-01
2.313733e-01
2.256602e-01
2.202876e-01
2.152807e-01
2.106594e-01
2.064345e-01
2.026078e-01
1.991762e-01
1.961346e-01
1.934784e-01
1.912036e-01
1.893068e-01
1.877857e-01
1.866399e-01
1.858728e-01
1.854913e-01
1.855054e-01
1.859281e-01
1.867743e-01
1.880607e-01
1.898039e-01
1.920184e-01
1.947145e-01
1.978968e-01
2.015627e-01
2.057022e-01
2.102978e-01
2.153250e-01
2.207540e-01
2.265500e-01
2.326743e-01
2.390853e-01
2.457395e-01
2.525932e-01
2.596015e-01
2.667178e-01
2.738926e-01
2.810733e-01
2.882051e-01
2.952330e-01
3.021041e-01
3.087702e-01
3.151905e-01
3.213343e-01
3.271829e-01
3.327297e-01
3.379782e-01
3.429386e-01
3.476227e-01
3.520398e-01
3.561917e-01
3.600705e-01
3.636588e-01
3.669328e-01
3.698674e-01
3.724407e-01
3.746362e-01
3.764411e-01
3.778441e-01
3.788339e-01
3.794015e-01
3.795419e-01
3.792539e-01
3.785376e-01
3.773906e-01
3.758071e-01
3.737801e-01
3.713056e-01
3.683867e-01
3.650349e-01
3.612706e-01
3.571219e-01
3.526263e-01
3.478343e-01
3.428128e-01
3.376452e-01
3.324259e-01
3.272510e-01
3.222102e-01
3.173818e-01
3.128313e-01
3.086113e-01
3.047592e-01
3.012945e-01
2.982148e-01
2.954953e-01
2.930925e-01
2.909512e-01
2.890127e-01
2.872211e-01
2.855281e-01
2.838953e-01
2.822947e-01
2.807062e-01
2.791147e-01
2.775046e-01
2.758576e-01
2.741512e-01
2.723593e-01
2.704546e-01
2.684110e-01
2.662068e-01
2.638255e-01
2.612553e-01
2.584868e-01
2.555117e-01
2.523211e-01
2.489066e-01
2.452611e-01
2.413821e-01
2.372731e-01
2.329462e-01
2.284245e-01
2.237417e-01
2.189400e-01
2.140667e-01
2.091720e-01
2.043067e-01
1.995193e-01
1.948526e-01
1.903418e-01
1.860137e-01
1.818875e-01
1.779743e-01
1.742768e-01
1.707876e-01
1.674902e-01
1.643620e-01
1.613790e-01
1.585225e-01
1.557851e-01
1.531738e-01
1.507103e-01
1.484293e-01
1.463747e-01
1.445956e-01
1.431413e-01
1.420581e-01
1.413859e-01
1.411559e-01
1.413888e-01
1.420911e-01
1.432525e-01
1.448423e-01
1.468085e-01
1.490798e-01
1.515720e-01
1.541941e-01
1.568556e-01
1.594709e-01
1.619645e-01
1.642736e-01
1.663500e-01
1.681608e-01
1.696880e-01
1.709296e-01
1.718998e-01
1.726300e-01
1.731675e-01
1.735717e-01
1.739058e-01
1.742289e-01
1.745898e-01
1.750256e-01
1.755625e-01
1.762180e-01
1.770036e-01
1.779255e-01
1.789859e-01
1.801837e-01
1.815162e-01
1.829806e-01
1.845748e-01
1.862958e-01
1.881386e-01
1.900928e-01
1.921429e-01
1.942694e-01
1.964526e-01
1.986780e-01
2.009389e-01
2.032371e-01
2.055810e-01
2.079838e-01
2.104619e-01
2.130323e-01
2.157097e-01
2.185042e-01
2.214208e-01
2.244597e-01
2.276178e-01
2.308893e-01
2.342693e-01
2.377551e-01
2.413481e-01
2.450513e-01
2.488667e-01
2.527935e-01
2.568277e-01
2.609637e-01
2.651956e-01
2.695170e-01
2.739197e-01
2.783922e-01
2.829179e-01
2.874753e-01
2.920401e-01
2.965885e-01
3.011007e-01
3.055632e-01
3.099693e-01
3.143172e-01
3.186085e-01
3.228458e-01
3.270308e-01
3.311628e-01
