EVENT_NAME: EMILIA_2ND_SHOCK
EVENT_ID: IT-2012-0011
EVENT_DATE_YYYYMMDD: 20120529
EVENT_TIME_HHMMSS: 070002
EVENT_LATITUDE_DEGREE: 44.8417
EVENT_LONGITUDE_DEGREE: 11.0657
EVENT_DEPTH_KM: 8.1
HYPOCENTER_REFERENCE: INGV-CNT_Seismic_Bulletin
MAGNITUDE_W: 6.0
MAGNITUDE_W_REFERENCE: RCMT-INGV
MAGNITUDE_L: 5.8
MAGNITUDE_L_REFERENCE: INGV-CNT_Seismic_Bulletin
FOCAL_MECHANISM: TF
NETWORK: IT
STATION_CODE: RAV0
STATION_NAME: RAVARINO
STATION_LATITUDE_DEGREE: 44.715700
STATION_LONGITUDE_DEGREE: 11.142800
STATION_ELEVATION_M: 87
LOCATION: 
SENSOR_DEPTH_M: 0.0
VS30_M/S: 
SITE_CLASSIFICATION_EC8: C*
MORPHOLOGIC_CLASSIFICATION: 
EPICENTRAL_DISTANCE_KM: 15.3
EARTHQUAKE_BACKAZIMUTH_DEGREE: 336.5
DATE_TIME_FIRST_SAMPLE_YYYYMMDD_HHMMSS: 20120529_065933.000
DATE_TIME_FIRST_SAMPLE_PRECISION: seconds
SAMPLING_INTERVAL_S: 0.005000
NDATA: 24001
DURATION_S: 120.005
STREAM: HNZ
UNITS: cm/s^2
INSTRUMENT: sensor = Episensor FBA ES-T [Kinemetrics] | digitizer = Etna [Kinemetrics]
INSTRUMENT_ANALOG/DIGITAL: D
INSTRUMENTAL_FREQUENCY_HZ: 
INSTRUMENTAL_DAMPING: 
FULL_SCALE_G: 
N_BIT_DIGITAL_CONVERTER: 18
PGA_CM/S^2: 61.769626
TIME_PGA_S: 34.320000
BASELINE_CORRECTION: BASELINE REMOVED
FILTER_TYPE: BUTTERWORTH
FILTER_ORDER: 2
LOW_CUT_FREQUENCY_HZ: 0.050
HIGH_CUT_FREQUENCY_HZ: 30.000
LATE/NORMAL_TRIGGERED: NT
DATABASE_VERSION: DYNA 1.0
HEADER_FORMAT: DYNA 1.2
DATA_TYPE: ACCELERATION
PROCESSING: manual (Paolucci et al., 2011)
DATA_TIMESTAMP_YYYYMMDD_HHMMSS: 
DATA_LICENSE: CC-BY3_0-IT (http://creativecommons.org/licenses/by/3.0/deed.en)
DATA_CITATION: ESM working group (2015), European Strong-Motion database, version 0.1, Network Activity 3: Networking acceleration networks and SM data users. Project NERA (www.nera-eu.org)
DATA_CREATOR: ESM working group
ORIGINAL_DATA_MEDIATOR_CITATION: Ufficio Rischio Sismico e Vulcanico del Dipartimento della Protezione Civile (http://www.protezionecivile.gov.it/)
ORIGINAL_DATA_MEDIATOR: Rete Accelerometrica Nazionale - RAN Download (http://www.mot1.it/randownload/)
ORIGINAL_DATA_CREATOR_CITATION: Italian Strong Motion Network, Italian Civil Protection Department http://www.protezionecivile.gov.it
ORIGINAL_DATA_CREATOR: network: IT (Italian Strong Motion Network); owner: Dipartimento Della Protezione Civile
USER1: 
USER2: 
USER3: 
USER4: 
USER5: 
[...]
0.003500
0.003504
0.003508
0.003511
0.003515
0.003519
0.003522
0.003526
0.003530
0.003533
0.003537
0.003541
0.003545
0.003548
0.003552
0.003556
0.003559
0.003563
0.003567
0.003570
0.003574
0.003578
0.003582
0.003585
0.003589
0.003593
0.003596
0.003600
0.003604
0.003607
0.003611
0.003615
0.003618
0.003622
0.003626
0.003629
0.003633
0.003637
0.003641
0.003644
0.003648
0.003652
0.003655
0.003659
0.003663
0.003666
0.003670
0.003674
0.003677
0.003681
0.003685
0.003688
0.003692
0.003696
0.003699
0.003703
0.003707
0.003710
0.003714
0.003718
0.003721
0.003725
0.003729
0.003732
0.003736
0.003740
0.003743
0.003747
0.003751
0.003754
0.003758
0.003762
0.003765
0.003769
0.003772
0.003776
0.003780
0.003783
0.003787
0.003791
0.003794
0.003798
0.003802
0.003805
0.003809
0.003812
0.003816
0.003820
0.003823
0.003827
0.003831
0.003834
0.003838
0.003841
0.003845
0.003849
0.003852
0.003856
0.003860
0.003863
0.003867
0.003870
0.003874
0.003878
0.003881
0.003885
0.003888
0.003892
0.003896
0.003899
0.003903
0.003906
0.003910
0.003913
0.003917
0.003921
0.003924
0.003928
0.003931
0.003935
0.003939
0.003942
0.003946
0.003949
0.003953
0.003956
0.003960
0.003964
0.003967
0.003971
0.003974
0.003978
0.003981
0.003985
0.003988
0.003992
0.003996
0.003999
0.004003
0.004006
0.004010
0.004013
0.004017
0.004020
0.004024
0.004027
0.004031
0.004034
0.004038
0.004041
0.004045
0.004048
0.004052
0.004055
0.004059
0.004062
0.004066
0.004069
0.004073
0.004076
0.004080
0.004083
0.004087
0.004090
0.004094
0.004097
0.004101
0.004104
0.004108
0.004111
0.004115
0.004118
0.004122
0.004125
0.004129
0.004132
0.004135
0.004139
0.004142
0.004146
0.004149
0.004153
0.004156
0.004160
0.004163
0.004166
0.004170
0.004173
0.004177
0.004180
0.004184
0.004187
0.004190
0.004194
0.004197
0.004201
0.004204
0.004207
0.004211
0.004214
0.004218
0.004221
0.004224
0.004228
0.004231
0.004234
0.004238
0.004241
0.004245
0.004248
0.004251
0.004255
0.004258
0.004261
0.004265
0.004268
0.004271
0.004275
0.004278
0.004281
0.004285
0.004288
0.004291
0.004295
0.004298
0.004301
0.004305
0.004308
0.004311
0.004315
0.004318
0.004321
0.004324
0.004328
0.004331
0.004334
0.004337
0.004341
0.004344
0.004347
0.004351
0.004354
0.004357
0.004360
0.004364
0.004367
0.004370
0.004373
0.004376
0.004380
0.004383
0.004386
0.004389
0.004393
0.004396
0.004399
0.004402
0.004405
0.004409
0.004412
0.004415
0.004418
0.004421
0.004425
0.004428
0.004431
0.004434
0.004437
0.004440
0.004443
0.004447
0.004450
0.004453
0.004456
0.004459
0.004462
0.004465
0.004469
0.004472
0.004475
0.004478
0.004481
0.004484
0.004487
0.004490
0.004493
0.004496
0.004499
0.004503
0.004506
0.004509
0.004512
0.004515
0.004518
0.004521
0.004524
0.004527
0.004530
0.004533
0.004536
0.004539
0.004542
0.004545
0.004548
0.004551
0.004554
0.004557
0.004560
0.004563
0.004566
0.004569
0.004572
0.004575
0.004578
0.004581
0.004584
0.004587
0.004590
0.004593
0.004596
0.004598
0.004601
0.004604
0.004607
0.004610
0.004613
0.004616
0.004619
0.004622
0.004625
0.004627
0.004630
0.004633
0.004636
0.004639
0.004642
0.004645
0.004647
0.004650
0.004653
0.004656
0.004659
0.004662
0.004664
0.004667
0.004670
0.004673
0.004676
0.004678
0.004681
0.004684
0.004687
0.004689
0.004692
0.004695
0.004698
0.004700
0.004703
0.004706
0.004709
0.004711
0.004714
0.004717
0.004719
0.004722
0.004725
0.004727
0.004730
0.004733
0.004735
0.004738
0.004741
0.004743
0.004746
0.004749
0.004751
0.004754
0.004757
0.004759
0.004762
0.004764
0.004767
0.004770
0.004772
0.004775
0.004777
0.004780
0.004782
0.004785
0.004787
0.004790
0.004793
0.004795
0.004798
0.004800
0.004803
0.004805
0.004808
0.004810
0.004813
0.004815
0.004818
0.004820
0.004822
0.004825
0.004827
0.004830
0.004832
0.004835
0.004837
0.004839
0.004842
0.004844
0.004847
0.004849
0.004851
0.004854
0.004856
0.004858
0.004861
0.004863
0.004866
0.004868
0.004870
0.004872
0.004875
0.004877
0.004879
0.004882
0.004884
0.004886
0.004888
0.004891
0.004893
0.004895
0.004897
0.004900
0.004902
0.004904
0.004906
0.004909
0.004911
0.004913
0.004915
0.004917
0.004919
0.004922
0.004924
0.004926
0.004928
0.004930
0.004932
0.004934
0.004935
0.004937
0.004941
0.004949
0.004961
0.004969
0.004949
0.004872
0.004734
0.004645
0.004908
0.005956
0.007878
0.009314
0.006230
-0.007083
-0.032501
-0.062345
-0.081265
-0.075956
-0.045032
-0.000886
0.038270
0.059323
0.060208
0.048790
0.036505
0.031086
0.033272
0.037402
0.033835
0.014972
-0.017639
-0.053550
-0.080807
-0.091308
-0.081605
-0.053597
-0.015343
0.021445
0.047604
0.061694
0.068058
0.069846
0.066228
0.055826
0.039434
0.018734
-0.004313
-0.024980
-0.036369
-0.036027
-0.028449
-0.018145
-0.005425
0.008364
0.018082
0.020913
0.020001
0.019247
0.018690
0.016969
0.014781
0.013193
0.010347
0.003248
-0.007773
-0.019368
-0.029271
-0.037433
-0.042765
-0.040736
-0.026651
-0.001223
0.028759
0.054279
0.067232
0.062212
0.038980
0.004313
-0.029995
-0.052355
-0.055480
-0.038114
-0.006367
0.026982
0.048372
0.051315
0.039230
0.021375
0.006878
0.002146
0.010583
0.030653
0.053959
0.068294
0.064841
0.042719
0.007517
-0.032076
-0.066066
-0.085290
-0.085245
-0.068142
-0.040565
-0.009967
0.016630
0.033874
0.041251
0.043745
0.047236
0.053967
0.062458
0.069059
0.068158
0.053649
0.023532
-0.017146
-0.058948
-0.091944
-0.106576
-0.095934
-0.061219
-0.013512
0.031861
0.063730
0.078494
0.076608
0.059608
0.032219
0.003044
-0.020492
-0.035759
-0.042298
-0.039566
-0.029348
-0.017057
-0.007416
0.000214
0.010298
0.025472
0.043357
0.058536
0.066365
0.064205
0.051783
0.032747
0.013378
-0.002395
-0.015772
-0.029851
-0.044469
-0.055410
-0.056810
-0.043142
-0.012458
0.029258
0.067987
0.088108
0.080821
0.048494
0.003136
-0.038834
-0.062811
-0.060941
-0.033930
0.010114
0.058033
0.094216
0.103809
0.077704
0.019394
-0.052359
-0.111617
-0.137939
-0.122130
-0.066206
0.015953
0.100156
0.159662
0.175121
0.141227
0.068276
-0.021092
-0.098624
-0.139323
-0.131180
-0.080864
-0.009521
0.057561
0.098267
0.098840
0.061479
0.005997
-0.041894
-0.064510
-0.056071
-0.020182
0.031173
0.078420
0.100901
0.087103
0.040227
-0.023695
-0.082016
-0.113696
-0.107353
-0.066089
-0.006318
0.050848
0.090429
0.107053
0.101135
0.076317
0.040098
0.002315
-0.029394
-0.051773
-0.063641
-0.063688
-0.051772
-0.031369
-0.009304
0.008044
0.017692
0.019615
0.016250
0.012379
0.012517
0.017831
0.026944
0.038354
0.049339
0.054568
0.048994
0.031404
0.005214
-0.022428
-0.042938
-0.049656
-0.040712
-0.020420
0.002295
0.019219
0.027582
0.028682
0.023741
0.014569
0.006358
0.004679
0.009501
0.015823
0.019846
0.020783
0.017461
0.007916
-0.006733
-0.021441
-0.031235
-0.032941
-0.023234
-0.000706
0.029157
0.055242
0.067049
0.059381
0.034362
-0.000903
-0.038001
-0.065427
-0.069804
-0.047647
-0.010685
0.025005
0.048736
0.055341
0.045216
0.025470
0.006368
-0.004178
-0.002072
0.012621
0.033854
0.051220
0.055198
0.041958
0.014740
-0.019440
-0.052221
-0.073078
-0.073273
-0.053529
-0.022977
0.009637
0.039179
0.060513
0.068407
0.061824
0.044543
0.022751
0.003982
-0.004893
-0.001777
0.008060
0.014063
0.007090
-0.014101
-0.042073
-0.064714
-0.070285
-0.052519
-0.014444
0.031497
0.068272
0.083085
0.074902
0.053129
0.028314
0.006443
-0.008623
-0.013721
-0.009761
-0.002193
0.003416
0.003794
-0.002955
-0.016451
-0.030489
-0.033987
-0.020754
0.003239
0.026434
0.041712
0.046631
0.039805
0.022931
0.004085
-0.006181
-0.002803
0.010861
0.026745
0.037138
0.036455
0.021807
-0.003546
-0.028605
-0.041010
-0.035925
-0.018047
0.003074
0.018379
0.022908
0.017594
0.008063
0.000535
-0.002142
-0.001296
0.000444
0.002240
0.004370
0.006191
0.006956
0.007009
0.006702
0.006141
0.007257
0.013883
0.027355
0.042396
0.049625
0.043182
0.024989
0.002352
-0.016650
-0.026794
-0.027414
-0.021581
-0.013543
-0.005667
0.002316
0.010385
0.015966
0.016027
0.011085
0.006060
0.006598
0.014484
0.025829
0.032197
0.024195
-0.002041
-0.039218
-0.071579
-0.085130
-0.074509
-0.041759
0.006360
0.057894
0.096479
0.108498
0.091504
0.054470
0.011008
-0.025870
-0.045554
-0.042504
-0.020291
0.008195
0.027303
0.027341
0.009503
-0.014949
-0.031432
-0.031323
-0.016599
0.003942
0.022398
0.035591
0.043230
0.044156
0.035142
0.014818
-0.012112
-0.036768
-0.051280
-0.052044
-0.040407
-0.021261
0.000141
0.020769
0.038213
0.047477
0.043482
0.027651
0.008820
-0.003852
-0.007009
-0.002094
0.007585
0.017141
0.021555
0.019242
0.012646
0.004944
-0.002433
-0.008557
-0.010438
-0.004344
0.009037
0.023162
0.031282
0.031214
0.023674
0.010037
-0.006393
-0.020323
-0.028075
-0.029726
-0.026358
-0.017658
-0.004968
0.006311
0.011627
0.012926
0.015990
0.023265
0.032269
0.040040
0.045217
0.045666
0.038249
0.022714
0.003253
-0.015234
-0.030176
-0.039639
-0.040516
-0.030922
-0.013522
0.005361
0.020037
0.027989
0.029079
0.024708
0.017921
0.012156
0.009077
0.008246
0.008497
0.008374
0.005824
-0.000033
-0.006321
-0.007630
-0.001439
0.007691
0.011459
0.006572
-0.002003
-0.006784
-0.003989
0.005080
0.015647
0.022258
0.022016
0.016309
0.008779
0.001327
-0.006606
-0.014740
-0.019447
-0.015881
-0.003151
0.013435
0.025768
0.027851
0.018628
0.003078
-0.009360
-0.010600
0.000226
0.017126
0.031916
0.037422
0.029537
0.009529
-0.015744
-0.036726
-0.045463
-0.038859
-0.019000
0.007833
0.032239
0.045063
0.042361
0.028147
0.011691
0.000534
-0.003699
-0.003280
-0.000815
0.001943
0.003784
0.003931
0.002386
-0.000284
-0.003536
-0.005729
-0.003286
0.006083
0.020375
0.035065
0.045095
0.044849
0.030828
0.006392
-0.018171
-0.031602
-0.028552
-0.012464
0.006780
0.018336
0.015919
0.000959
-0.018320
-0.031762
-0.033152
-0.022554
-0.003699
0.018489
0.036763
0.043010
0.035163
0.019698
0.005154
-0.004095
-0.007298
-0.004374
0.004056
0.014914
0.023246
0.025347
0.021126
0.013309
0.004648
-0.002918
-0.007137
-0.006587
-0.002741
0.001430
0.004791
0.008175
0.010938
0.010736
0.007704
0.004893
0.004202
0.005162
0.006551
0.006631
0.003751
-0.001413
-0.005732
-0.006451
-0.003949
-0.001643
-0.002207
-0.004587
-0.006359
-0.006775
-0.005093
0.000691
0.010156
0.018443
0.020909
0.017834
0.012790
0.008208
0.004110
0.000285
-0.002215
-0.002806
-0.003109
-0.004400
-0.004717
-0.001749
0.003062
0.006562
0.008451
0.010795
0.014350
0.017880
0.020342
0.022243
0.024157
0.024398
0.020540
0.012850
0.003363
-0.006967
-0.017143
-0.024497
-0.026998
-0.024680
-0.017594
-0.005466
0.009744
0.023293
0.031054
0.032722
0.030768
0.026946
0.021085
0.013213
0.005495
0.000751
-0.000290
0.001287
0.004307
0.007483
0.009516
0.010306
0.010568
0.009905
0.006840
0.001145
-0.004736
-0.007323
-0.005240
0.000488
0.008721
0.017740
0.023103
0.019834
0.007044
-0.011823
-0.032787
-0.053050
-0.070239
-0.084384
-0.101578
-0.131347
-0.174470
-0.211651
-0.211491
-0.163474
-0.112250
-0.147541
-0.328218
-0.596570
-0.793520
-0.819283
-0.799331
-1.022497
-1.633146
-2.385064
-2.782726
-2.561384
-2.024302
-1.789524
-2.136895
-2.676178
-2.741480
-2.108838
-1.286326
-1.051893
-1.669638
-2.595410
-3.007184
-2.627585
-2.004555
-1.941607
-2.649990
-3.546268
-3.892130
-3.499621
-2.728230
-1.899449
-0.884757
0.713806
3.047788
5.664718
7.691955
8.551819
8.509960
8.265614
7.931285
6.751992
4.065861
0.311280
-3.181488
-5.296350
-5.875962
-5.528146
-4.942038
-4.352166
-3.460930
-1.865167
0.323665
2.330722
3.346152
3.320235
3.022021
3.235823
3.931657
4.298706
3.623394
2.122865
0.877757
0.896234
2.222301
3.935454
4.959812
4.860764
3.946979
2.726712
1.354543
-0.350909
-2.383534
-4.195034
-5.026453
-4.635179
-3.620460
-2.941337
-3.092705
-3.779299
-4.342593
-4.381016
-3.939229
-3.247463
-2.424779
-1.438023
-0.286822
0.807837
1.464284
1.492348
1.198700
1.211881
1.886914
2.925479
3.653832
3.615209
2.831041
1.584367
0.160152
-1.101723
-1.738619
-1.555008
-1.106976
-1.361890
-2.590856
-3.821423
-3.666621
-1.643523
1.389206
3.877813
4.530463
2.997607
0.089368
-2.641503
-3.849690
-3.234943
-1.617819
-0.210579
0.296741
0.058998
-0.333225
-0.388622
0.113877
1.151760
2.434711
3.485685
3.905256
3.572073
2.727579
2.072877
2.615226
4.945193
8.474690
11.602951
12.802045
11.573761
8.509647
4.613957
0.574027
-3.416527
-7.240874
-10.422513
-12.269016
-12.498038
-11.563252
-10.175413
-8.558137
-6.442284
-3.949568
-2.232240
-2.689768
-5.281825
-7.914949
-7.906202
-4.174942
1.991105
8.118401
12.188361
13.273573
11.337790
7.089116
1.969357
-2.298496
-4.678687
-5.471375
-5.843639
-6.558807
-7.085964
-6.043017
-2.783256
1.440447
4.248402
4.194710
1.788294
-1.529823
-4.883582
-8.105880
-10.814917
-12.024947
-10.956362
-8.171376
-5.770153
-6.270909
-10.976230
-18.901442
-26.758097
-29.994366
-24.659452
-9.562310
12.412463
35.259193
52.895939
61.769627
61.193920
52.530804
38.552635
22.508787
6.894314
-6.831834
-17.453180
-23.443092
-23.402014
-17.120750
-6.423695
5.165023
13.934707
17.467836
15.207092
8.238234
-1.138383
-9.810946
-14.717217
-14.317071
-9.657740
-3.789146
0.344783
1.676268
0.865389
-1.135508
-3.916660
-7.034418
-9.178404
-8.573897
-4.479740
1.791922
7.483028
10.070682
8.623155
4.016538
-1.835936
-6.979989
-10.115608
-10.836854
-9.240142
-5.360324
0.576100
7.328068
12.672122
14.686136
13.010587
8.793107
3.600842
-1.378109
-5.357654
-7.789057
-8.410753
-7.334513
-4.994497
-2.051111
0.752354
2.889448
4.242379
4.846516
4.565916
3.331928
1.613621
0.207436
-0.578431
-1.299715
-2.757211
-4.979309
-6.898453
-7.141962
-5.265686
-2.338658
-0.232876
-0.095895
-1.491568
-3.192011
-4.667357
-6.333379
-8.306634
-9.563423
-8.749728
-5.562858
-1.092790
3.012024
5.578288
6.379839
5.941600
4.915431
3.499596
1.483388
-1.094011
-3.451039
-4.298945
-2.606000
1.610850
7.007183
11.558436
13.820151
13.702076
12.039275
9.626474
6.877127
4.173382
2.085026
1.067821
0.979640
0.920479
-0.327149
-3.362917
-7.344042
-10.187009
-10.036898
-6.825758
-2.384311
1.024702
2.301847
1.823242
0.586480
-0.634820
-1.449564
-1.650573
-1.222684
-0.522637
-0.190096
-0.714900
-2.014482
-3.420240
-4.221516
-4.309060
-4.165948
-4.184215
-4.164804
-3.585267
-2.184135
-0.153652
2.072815
4.045105
5.361276
5.666609
4.755203
2.815109
0.570463
-1.029857
-1.502613
-1.244950
-1.186426
-1.994836
-3.548977
-5.075083
-5.737158
-5.136568
-3.434807
-1.176426
1.052463
2.925548
4.378432
5.353037
5.651093
5.070695
3.557412
1.177643
-1.827253
-4.800740
-6.674386
-6.480663
-4.021525
-0.171718
3.412975
5.107991
4.280042
1.734678
-0.813865
-1.920998
-1.286770
0.301697
1.705027
2.175483
1.679313
0.733618
-0.075160
-0.553557
-0.943318
-1.511498
-2.187193
-2.670145
-2.826011
-2.814647
-2.758720
-2.425165
-1.443098
0.106033
1.483665
1.886318
1.232700
0.264979
-0.039202
0.874277
2.739578
4.507971
4.984410
3.662318
1.014848
-1.930719
-4.249267
-5.486046
-5.653642
-5.094806
-4.341613
-3.878094
-3.814771
-3.792094
-3.299928
-2.099017
-0.386618
1.310498
2.435659
2.781325
2.675900
2.807235
3.794406
5.709784
7.786769
8.644033
7.157892
3.443484
-0.992766
-4.233681
-5.293508
-4.702231
-3.886912
-3.895299
-4.514059
-4.564819
-3.184437
-0.879097
0.766198
0.472169
-1.670757
-4.455081
-6.664721
-7.815708
-7.995803
-7.343709
-5.840057
-3.480767
-0.524921
2.481951
5.001381
6.836909
8.113783
8.882525
8.773647
7.195732
4.074075
0.433587
-1.962051
-1.866910
0.369931
2.963722
4.018369
2.905103
0.550388
-1.549347
-2.645241
-3.142244
-3.771233
-4.543662
-4.655842
-3.405775
-1.152713
0.773701
1.225943
0.187248
-1.470114
-2.907121
-3.777886
-4.005505
-3.533984
-2.404353
-0.897044
0.525614
1.422805
1.580939
1.178075
0.694586
0.420827
0.057602
-1.013427
-3.008147
-5.306016
-6.682409
-5.927641
-2.466610
3.161490
9.222242
13.489796
14.503509
12.319192
8.058441
2.936399
-2.171982
-6.632708
-10.038668
-12.283361
-13.309495
-12.804155
-10.506115
-6.830663
-2.851173
0.456638
2.796731
4.326526
5.082358
4.945377
4.208448
3.839532
4.763858
6.752585
8.227592
7.361908
3.431644
-2.756000
-9.540701
-15.496817
-19.981497
-22.747656
-23.381905
-21.556156
-17.757362
-13.259273
-9.087456
-5.263481
-1.399114
2.151758
4.174321
3.712473
1.115667
-2.038603
-3.826917
-2.880838
0.838370
5.529641
8.158776
6.537016
1.362673
-4.013047
-6.350307
-5.231655
-2.939746
-1.771520
-1.773533
-1.244716
0.739674
2.826195
2.791492
0.224453
-2.773473
-3.820028
-2.964787
-2.839554
-5.974067
-12.043185
-17.823162
-19.797144
-16.885387
-11.064918
-5.837489
-4.008596
-6.066785
-9.908257
-12.290227
-11.236630
-7.274423
-2.181583
3.191084
9.270613
16.121399
22.427031
26.675146
28.907667
30.569229
32.499382
33.425350
30.765696
23.116526
12.052763
1.516558
-4.730033
-5.472067
-2.344191
1.959521
5.774403
8.938067
11.606778
13.252898
13.030204
10.712015
7.129083
3.993426
3.155633
5.324753
9.152658
11.872887
11.179512
6.623441
-0.495485
-8.205769
-14.915342
-19.827763
-22.674526
-23.228113
-21.133221
-16.256699
-9.316424
-2.096721
3.396160
6.332121
7.417380
7.634279
6.962464
4.858935
1.931540
0.419634
2.416472
7.752941
13.941576
18.033684
18.458752
15.586276
11.078959
6.678979
3.263476
0.974296
0.200131
1.903502
6.323181
11.399537
13.386222
9.781461
1.514103
-7.952208
-15.065546
-17.572092
-14.898232
-8.669012
-2.551780
-0.074542
-1.804600
-4.947225
-5.817113
-2.603416
3.641350
9.856583
12.867599
11.235802
5.848574
-1.173350
-8.128107
-14.223896
-18.793858
-21.004549
-20.826113
-19.582739
-18.689716
-17.982866
-16.004700
-12.076728
-7.609489
-5.127016
-6.223422
-10.539328
-16.194954
-20.637108
-21.313931
-16.484146
-6.206128
7.207262
19.931616
28.195841
29.622297
23.910730
12.967529
0.265964
-10.528947
-16.736610
-16.903002
-10.624116
1.249235
16.310606
31.108397
42.537117
49.133266
51.313400
50.387466
47.204430
41.682259
33.460690
22.888144
11.603279
2.084388
-3.890774
-6.516691
-7.661234
-9.439274
-12.885790
-17.426201
-21.292013
-22.628336
-20.589100
-15.718370
-9.573370
-3.943553
-0.006826
2.079149
2.829979
2.730685
1.852238
0.023035
-2.685780
-5.619575
-7.770295
-8.545308
-8.310187
-7.961252
-7.999302
-8.195319
-8.049081
-7.448871
-6.861907
-6.802872
-7.214879
-7.504558
-7.096744
-6.016664
-5.123421
-5.605773
-7.892921
-10.997839
-13.072896
-12.676766
-9.545711
-4.377387
1.683514
