EVENT_NAME: EMILIA_2ND_SHOCK
EVENT_ID: IT-2012-0011
EVENT_DATE_YYYYMMDD: 20120529
EVENT_TIME_HHMMSS: 070002
EVENT_LATITUDE_DEGREE: 44.8417
EVENT_LONGITUDE_DEGREE: 11.0657
EVENT_DEPTH_KM: 8.1
HYPOCENTER_REFERENCE: INGV-CNT_Seismic_Bulletin
MAGNITUDE_W: 6.0
MAGNITUDE_W_REFERENCE: RCMT-INGV
MAGNITUDE_L: 5.8
MAGNITUDE_L_REFERENCE: INGV-CNT_Seismic_Bulletin
FOCAL_MECHANISM: TF
NETWORK: IT
STATION_CODE: RAV0
STATION_NAME: RAVARINO
STATION_LATITUDE_DEGREE: 44.715700
STATION_LONGITUDE_DEGREE: 11.142800
STATION_ELEVATION_M: 87
LOCATION: 
SENSOR_DEPTH_M: 0.0
VS30_M/S: 
SITE_CLASSIFICATION_EC8: C*
MORPHOLOGIC_CLASSIFICATION: 
EPICENTRAL_DISTANCE_KM: 15.3
EARTHQUAKE_BACKAZIMUTH_DEGREE: 336.5
DATE_TIME_FIRST_SAMPLE_YYYYMMDD_HHMMSS: 20120529_065933.000
DATE_TIME_FIRST_SAMPLE_PRECISION: seconds
SAMPLING_INTERVAL_S: 0.005000
NDATA: 24001
DURATION_S: 120.005
STREAM: HNN
UNITS: cm/s^2
INSTRUMENT: sensor = Episensor FBA ES-T [Kinemetrics] | digitizer = Etna [Kinemetrics]
INSTRUMENT_ANALOG/DIGITAL: D
INSTRUMENTAL_FREQUENCY_HZ: 
INSTRUMENTAL_DAMPING: 
FULL_SCALE_G: 
N_BIT_DIGITAL_CONVERTER: 18
PGA_CM/S^2: 82.075268
TIME_PGA_S: 40.520000
BASELINE_CORRECTION: BASELINE REMOVED
FILTER_TYPE: BUTTERWORTH
FILTER_ORDER: 2
LOW_CUT_FREQUENCY_HZ: 0.050
HIGH_CUT_FREQUENCY_HZ: 30.000
LATE/NORMAL_TRIGGERED: NT
DATABASE_VERSION: DYNA 1.0
HEADER_FORMAT: DYNA 1.2
DATA_TYPE: ACCELERATION
PROCESSING: manual (Paolucci et al., 2011)
DATA_TIMESTAMP_YYYYMMDD_HHMMSS: 
DATA_LICENSE: CC-BY3_0-IT (http://creativecommons.org/licenses/by/3.0/deed.en)
DATA_CITATION: ESM working group (2015), European Strong-Motion database, version 0.1, Network Activity 3: Networking acceleration networks and SM data users. Project NERA (www.nera-eu.org)
DATA_CREATOR: ESM working group
ORIGINAL_DATA_MEDIATOR_CITATION: Ufficio Rischio Sismico e Vulcanico del Dipartimento della Protezione Civile (http://www.protezionecivile.gov.it/)
ORIGINAL_DATA_MEDIATOR: Rete Accelerometrica Nazionale - RAN Download (http://www.mot1.it/randownload/)
ORIGINAL_DATA_CREATOR_CITATION: Italian Strong Motion Network, Italian Civil Protection Department http://www.protezionecivile.gov.it
ORIGINAL_DATA_CREATOR: network: IT (Italian Strong Motion Network); owner: Dipartimento Della Protezione Civile
USER1: 
USER2: 
USER3: 
USER4: 
USER5: 
[...]
1.186293
0.261404
-0.428863
-0.652528
-0.597612
-0.519050
-0.523984
-0.598385
-0.631740
-0.433570
0.161320
1.152472
2.226051
2.737218
2.112569
0.468620
-1.308016
-2.261232
-2.126310
-1.381401
-0.645300
-0.103857
0.506456
1.433332
2.475548
3.035808
2.629510
1.399292
0.182276
-0.020505
1.145461
2.934354
3.857972
2.747929
-0.272886
-3.843216
-6.352101
-6.839812
-5.295265
-2.603944
-0.191153
0.829979
0.508925
-0.078885
0.115832
1.319900
2.977169
4.241093
4.400359
3.096900
0.511961
-2.564530
-5.060478
-6.213034
-5.882213
-4.354093
-2.118970
0.191220
2.168566
3.970672
5.795861
7.031435
6.415760
3.299265
-1.316859
-5.196374
-6.457159
-4.876194
-1.883269
0.670344
1.917407
2.269642
2.497677
2.786065
2.634793
1.448013
-0.748882
-3.079954
-4.379143
-4.044564
-2.404346
-0.369211
1.232949
2.055445
2.144223
1.715079
1.079952
0.540033
0.213617
0.061820
0.055868
0.206672
0.463721
0.646797
0.459845
-0.353636
-1.699471
-2.985817
-3.465885
-2.822666
-1.418164
0.009434
0.875707
1.075686
0.937233
0.876759
1.024372
1.124293
0.802878
0.021157
-0.713702
-0.737660
0.073410
1.145273
1.844499
2.089784
2.218639
2.459907
2.698647
2.626958
2.005294
0.868563
-0.441944
-1.507293
-2.164662
-2.573046
-2.874224
-2.875689
-2.199620
-0.737786
1.066583
2.378244
2.493885
1.361030
-0.375236
-1.892406
-2.763439
-3.039147
-2.924275
-2.522343
-1.864475
-1.035614
-0.196153
0.487523
0.937298
1.238272
1.583487
2.033053
2.314127
1.995263
0.970382
-0.285612
-1.043754
-0.894190
-0.009451
1.039602
1.682481
1.654403
1.047499
0.161216
-0.708837
-1.370009
-1.653024
-1.381433
-0.556332
0.501525
1.315107
1.554917
1.180847
0.390266
-0.502357
-1.216185
-1.624720
-1.729659
-1.565749
-1.206089
-0.793285
-0.452312
-0.193230
0.039923
0.282773
0.580715
1.038060
1.746616
2.628969
3.355903
3.488368
2.767317
1.316302
-0.349492
-1.524959
-1.708507
-0.948170
0.208844
1.150940
1.577258
1.526847
1.234362
1.005779
1.074757
1.446156
1.863413
1.952157
1.446838
0.361134
-0.975831
-2.039286
-2.402699
-2.063722
-1.465578
-1.111343
-1.141805
-1.281343
-1.125720
-0.467383
0.541801
1.461135
1.877892
1.751297
1.425804
1.270911
1.301695
1.172841
0.577018
-0.376783
-1.228014
-1.594677
-1.491772
-1.229519
-1.087896
-1.139019
-1.281204
-1.351015
-1.275703
-1.163836
-1.171862
-1.272391
-1.220215
-0.774997
0.046398
0.943674
1.546173
1.645316
1.267552
0.615194
0.001552
-0.236919
0.062393
0.744466
1.445905
1.840181
1.806051
1.440077
0.930981
0.423580
-0.012445
-0.362683
-0.658850
-0.934667
-1.140057
-1.115730
-0.720294
-0.037528
0.555753
0.612320
0.005238
-0.868886
-1.313354
-0.849734
0.344375
1.456349
1.633027
0.734065
-0.476050
-0.961873
-0.313874
0.931811
1.819270
1.793746
1.070885
0.337376
0.130771
0.417120
0.679187
0.403165
-0.467641
-1.508084
-2.202302
-2.305090
-1.844093
-0.929291
0.314234
1.641483
2.617653
2.781834
1.988906
0.622498
-0.606668
-1.187786
-1.168178
-0.961958
-0.838478
-0.666107
-0.132410
0.824543
1.774295
2.045298
1.351398
0.153288
-0.709821
-0.751002
-0.153194
0.546044
0.946168
1.020370
1.032846
1.270308
1.782582
2.338774
2.649058
2.587291
2.148563
1.309696
0.109101
-1.146750
-1.929392
-1.861824
-1.036225
0.038411
0.742539
0.654351
-0.242924
-1.506672
-2.441852
-2.541915
-1.804525
-0.618945
0.563693
1.407784
1.725996
1.557218
1.201662
0.993351
0.976954
0.911142
0.597413
0.079779
-0.496072
-1.069091
-1.625108
-2.042180
-2.047752
-1.393296
-0.119868
1.402493
2.752257
3.722599
4.289543
4.418084
3.997512
2.977348
1.565831
0.264088
-0.406988
-0.308401
0.208792
0.648881
0.757668
0.509299
-0.117123
-1.116884
-2.220293
-2.853996
-2.472513
-0.966973
1.205730
3.203754
4.135314
3.496769
1.604251
-0.381315
-1.168198
-0.412478
0.876465
1.214329
0.058845
-1.651187
-2.401332
-1.570300
0.018859
1.013697
0.922138
0.495353
0.751278
1.771809
2.552350
2.045390
0.360809
-1.121000
-0.918078
1.198247
3.919186
5.385584
4.569481
2.012838
-0.579435
-1.661526
-1.078205
-0.028767
0.245236
-0.365765
-1.022147
-1.086334
-0.812607
-0.869899
-1.449336
-2.052706
-2.111979
-1.653270
-1.235493
-1.253970
-1.451311
-1.203473
-0.219187
1.093644
1.932266
1.823978
1.104288
0.557061
0.488313
0.329725
-0.670736
-2.471134
-4.057998
-4.191351
-2.398626
0.514344
2.869696
3.296883
1.817159
-0.153447
-0.974258
-0.061039
1.824918
3.301903
3.398574
2.202420
0.720522
0.067638
0.628608
1.870793
2.905577
3.223637
2.899055
2.169681
1.031603
-0.588433
-2.339340
-3.418827
-3.245947
-2.055645
-0.679764
0.170962
0.344603
0.130258
-0.151315
-0.437507
-0.893661
-1.657264
-2.517796
-2.846273
-2.148280
-0.804983
0.088197
-0.149387
-1.031548
-1.464022
-0.861471
0.431898
1.543123
1.645141
0.408470
-1.635020
-3.112187
-2.638433
-0.001512
3.487026
5.867403
5.792199
3.305263
-0.150928
-2.570248
-2.654108
-0.565568
2.424204
5.011555
6.613892
7.202954
6.783912
5.375241
3.377313
1.522157
0.335560
-0.118833
0.022507
0.672218
1.699420
2.762290
3.421539
3.464679
3.075403
2.650662
2.500568
2.711820
3.068070
2.976307
1.755675
-0.634737
-3.224983
-4.695665
-4.391976
-2.591322
-0.081139
2.232777
3.581745
3.648234
2.638533
0.931234
-1.196667
-3.445949
-5.361169
-6.510480
-6.733509
-6.104160
-4.706391
-2.623211
-0.172227
2.041264
3.402517
3.577469
2.669282
1.172353
-0.409789
-1.911732
-3.379674
-4.690853
-5.436595
-5.200498
-3.848450
-1.624058
0.835403
2.675046
3.236722
2.399800
0.650979
-1.130549
-2.171253
-2.281167
-1.808135
-1.118247
-0.276206
0.794567
2.088382
3.422181
4.369044
4.436094
3.530988
2.189139
1.252660
1.296770
2.250318
3.506594
4.443329
4.889916
5.156142
5.625811
6.333088
6.974722
7.224354
6.918845
6.104415
5.058590
4.173433
3.730301
3.771686
4.116429
4.471348
4.619727
4.581401
4.557270
4.619558
4.451393
3.524296
1.656628
-0.600249
-2.199942
-2.276723
-0.730049
1.638169
3.617116
4.465561
4.360924
4.004212
3.978753
4.495473
5.365795
5.981217
5.545116
3.611833
0.558616
-2.437629
-4.101709
-4.004283
-2.876715
-1.968944
-2.095600
-3.266152
-5.140587
-7.653479
-10.966869
-14.840722
-18.339840
-20.329737
-20.250731
-18.453510
-15.912127
-13.644265
-12.234040
-11.713933
-11.794648
-12.096480
-12.228275
-11.935440
-11.240068
-10.264751
-8.968300
-7.272822
-5.434300
-3.997566
-3.159119
-2.302961
-0.442251
2.856015
7.042012
10.891813
13.183599
13.446167
12.338380
11.161978
10.798662
10.991253
10.591846
8.663302
5.483419
2.371640
0.408113
-0.672860
-2.213333
-5.118528
-8.617395
-10.718909
-10.028321
-7.090184
-3.982916
-2.641792
-3.369148
-4.717013
-4.860362
-3.282577
-1.111446
0.274703
0.779385
1.545429
3.560491
6.578569
9.372380
10.760785
10.401286
8.967812
7.711196
7.547415
8.264236
8.657458
7.650452
5.308993
2.767084
1.299536
1.470138
2.951352
4.853089
6.160934
6.219162
5.097034
3.462414
2.074509
1.404095
1.484862
1.792398
1.339717
-0.731980
-4.407871
-8.613225
-11.895314
-13.414203
-13.318088
-12.320630
-11.106398
-9.944201
-8.467705
-5.953324
-2.285915
1.389745
3.441546
3.291863
1.907237
0.764457
0.717085
1.783348
3.351329
4.365927
3.876104
1.873739
-0.458028
-1.559252
-0.721444
1.299010
2.766953
2.281100
-0.051791
-2.572910
-3.247897
-1.234026
2.292503
4.766273
4.078880
0.336292
-4.089957
-6.469763
-5.867660
-3.606523
-1.825187
-1.664961
-2.704132
-3.788726
-4.208800
-4.259465
-4.895330
-6.804258
-9.689409
-12.531581
-14.617681
-15.992674
-16.737293
-16.331390
-14.167207
-10.456148
-6.379852
-3.383539
-2.170340
-2.038887
-1.145332
2.236100
8.284201
15.342003
21.235348
24.928713
26.930359
28.428980
30.180620
31.945255
32.778934
31.843924
29.022703
24.994099
20.883749
17.716330
15.875420
14.852115
13.570998
11.028791
6.659939
0.378069
-7.407938
-15.721487
-23.215403
-28.913670
-32.862865
-35.887821
-38.759026
-41.563709
-43.625874
-43.964588
-42.102745
-38.697174
-35.242188
-32.860954
-31.324579
-29.332766
-25.819656
-20.966988
-15.897277
-11.525656
-7.846952
-4.181895
0.014034
4.465843
8.008083
9.256672
7.752293
4.566223
1.509110
-0.247373
-0.685306
-0.354091
0.498540
2.184888
5.082638
9.007080
13.067256
16.263084
18.357990
20.008099
21.929972
24.064913
25.578442
25.563425
23.817905
21.170042
19.101328
18.886927
20.893473
24.530403
28.760071
32.680481
35.783833
37.849548
38.687737
38.007645
35.607719
31.669748
26.704603
21.261971
15.826068
10.879465
6.941393
4.514062
3.907468
4.960148
6.839002
8.319598
8.538274
7.451957
5.554956
3.378917
1.236053
-0.963783
-3.657500
-7.075507
-10.786469
-13.863823
-15.368410
-14.669234
-11.587319
-6.691963
-1.540010
1.911824
2.620791
1.159715
-0.951783
-2.475094
-3.112872
-3.273055
-3.387776
-3.475761
-3.287288
-2.684443
-1.736856
-0.658968
0.158796
0.188628
-0.954430
-3.141149
-5.822207
-8.688463
-11.898752
-15.347613
-18.052130
-18.719730
-16.932619
-13.562969
-10.015839
-7.171620
-4.961483
-2.766842
-0.150061
2.723772
5.223294
6.745011
7.158279
6.956728
7.032892
8.017689
9.604359
10.667654
10.258134
8.505385
6.490130
5.209540
4.749623
4.436696
3.551883
1.910794
0.008650
-1.348099
-1.624632
-0.852473
0.478489
1.676169
2.056723
1.186866
-0.814261
-3.279186
-5.528136
-7.443271
-9.380550
-11.452737
-13.091411
-13.537061
-12.601728
-10.658796
-8.033540
-4.792978
-1.123847
2.464133
5.466594
7.717249
9.340345
10.561899
11.599364
12.568293
13.355340
13.563001
12.667746
10.374064
6.959447
3.305914
0.465111
-0.913302
-0.782595
0.488846
2.356075
4.248137
5.693750
6.453508
6.638929
6.740349
7.397548
8.913078
10.921977
12.583261
13.123586
12.322944
10.595607
8.605594
6.854713
5.623621
5.093504
5.353159
6.265567
7.359835
7.960506
7.566580
6.187216
4.387395
3.013065
2.660976
3.271237
4.300555
5.190206
5.503869
4.826211
2.874511
-0.181328
-3.546545
-6.053303
-6.817607
-5.880774
-4.205382
-2.934069
-2.624834
-3.065102
-3.570722
-3.420588
-2.278440
-0.496986
1.066967
1.753835
1.548429
0.830481
-0.061543
-0.970104
-1.820198
-2.481301
-2.731541
-2.351114
-1.225605
0.548881
2.516921
3.954545
4.411491
4.190881
4.047226
4.323731
4.585379
4.131981
2.654775
0.479864
-1.556900
-2.570991
-2.204379
-0.808322
0.884958
2.216769
2.801516
2.464560
1.202428
-0.712849
-2.631317
-3.636366
-3.016915
-0.793412
2.332574
5.554223
8.310419
10.148356
10.615708
9.542096
7.366688
5.032333
3.516730
3.369084
4.397257
5.655106
6.013035
5.085444
3.621454
2.867947
3.516766
5.149337
6.573175
6.761684
5.526095
3.349969
0.788112
-1.846431
-4.274093
-5.907801
-5.948922
-4.013551
-0.719658
2.460697
4.095353
3.620860
1.432961
-1.594954
-4.682013
-7.536001
-10.365729
-13.408345
-16.432331
-18.803213
-19.958893
-19.771564
-18.551317
-16.723211
-14.507525
-11.980991
-9.405494
-7.322952
-6.230430
-6.216534
-6.950909
-7.983421
-9.069076
-10.254357
-11.650854
-13.148625
-14.369073
-14.896832
-14.600574
-13.716045
-12.540509
-11.062617
-9.033215
-6.470615
-3.901175
-1.965032
-0.957257
-0.797442
-1.265708
-2.181482
-3.344782
-4.374902
-4.776588
-4.283687
-3.166493
-2.126318
-1.698740
-1.620568
-0.862456
1.473204
5.139711
8.700352
10.600917
10.355421
8.817049
7.387642
6.875551
6.980016
6.800810
5.814273
4.370392
3.344317
3.461541
4.963652
7.695982
11.299531
15.350267
19.508080
23.632605
27.731312
31.780661
35.626518
39.090427
42.136234
44.844955
47.213097
49.049915
50.160061
50.618088
50.737358
50.753586
50.670223
50.400787
49.915943
49.273628
48.665295
48.450756
48.949749
49.996552
50.717861
49.896725
46.707462
41.256145
34.469707
27.413795
20.623425
13.942337
6.872859
-0.903685
-9.172634
-17.207193
-24.163525
-29.509567
-33.151203
-35.384247
-36.838993
-38.200523
-39.769699
-41.428097
-43.085396
-44.940014
-47.199005
-49.683338
-51.822926
-53.070293
-53.352783
-53.173477
-53.226498
-53.742142
-54.139503
-53.399868
-50.844971
-46.596729
-41.451752
-36.430168
-32.203934
-28.703379
-25.354031
-21.809206
-18.435844
-16.105860
-15.539733
-16.762232
-19.027048
-21.167221
-22.143492
-21.535223
-19.740929
-17.731808
-16.363300
-15.705354
-15.060266
-13.704541
-11.634704
-9.630761
-8.646632
-9.133505
-10.854382
-13.241530
-15.928547
-18.946909
-22.397533
-26.052738
-29.399822
-32.009911
-33.814411
-35.108665
-36.306641
-37.608070
-38.879711
-39.898014
-40.714699
-41.741192
-43.397217
-45.623909
-47.793354
-49.182987
-49.560730
-49.329720
-49.151711
-49.436188
-50.145103
-51.012226
-51.869625
-52.711121
-53.500217
-54.084820
-54.377159
-54.524258
-54.778469
-55.164417
-55.320141
-54.689632
-52.878937
-49.932060
-46.381149
-43.014347
-40.436859
-38.637440
-36.905487
-34.292889
-30.289236
-25.150766
-19.664015
-14.555623
-9.956410
-5.311146
0.156218
6.823661
14.437292
22.378450
30.140076
37.606590
44.958199
52.348553
59.593971
66.102646
71.185326
74.554222
76.553589
77.905266
79.202736
80.556152
81.643654
82.075272
81.710556
80.662201
79.084091
77.082733
74.835075
72.634071
70.706612
68.998245
67.179695
64.900887
62.086853
59.050034
56.365757
54.591316
53.962200
54.224907
54.689510
54.512054
53.111519
50.442585
46.918766
43.073589
39.245918
35.551544
32.063751
28.874269
25.980936
23.271345
20.713581
18.507580
16.945160
16.117138
15.828745
15.808759
15.960854
16.430471
17.476051
19.235579
21.485285
23.588051
24.795549
24.710028
23.491270
21.617172
19.479292
17.221842
14.822317
12.214651
9.356749
6.176946
2.508766
-1.767352
-6.449379
-10.952295
-14.613112
-17.091843
-18.463840
-18.968779
-18.768150
-17.885105
-16.230297
-13.726077
-10.548488
-7.266638
-4.629214
-3.090282
-2.538015
-2.538743
-2.822215
-3.528289
-5.072043
-7.851283
-12.061723
-17.631748
-24.199417
-31.152065
-37.779243
-43.537102
-48.222946
-51.892082
-54.694473
-56.802570
-58.359444
-59.400188
-59.829594
-59.548092
-58.644329
-57.426815
-56.242680
-55.259922
-54.372036
-53.274796
-51.682377
-49.536518
-47.024712
-44.408215
-41.849464
-39.344852
-36.754684
-33.989647
-31.261787
-29.062344
-27.800585
-27.465597
-27.654146
-27.929567
-28.125223
-28.315123
-28.604307
-28.987879
-29.325722
-29.418825
-29.143221
-28.516117
-27.636604
-26.604885
-25.535236
-24.599167
-23.958031
-23.605192
-23.297438
-22.720448
-21.785608
-20.769892
-20.146294
-20.198816
-20.735563
-21.184200
-20.939451
-19.696306
-17.643730
-15.376913
-13.561559
-12.583986
-12.383590
-12.594540
-12.893693
-13.261818
-13.993059
-15.461510
-17.785847
-20.655483
-23.477728
-25.704861
-27.076571
-27.666000
-27.773344
-27.730188
-27.689381
-27.580233
-27.333006
-27.096352
-27.130449
-27.517473
-28.046150
-28.379597
-28.324045
-27.950768
-27.482273
-27.050714
-26.490959
-25.314945
-22.960331
-19.209938
-14.438429
-9.376388
-4.558781
0.024480
4.813324
10.230555
16.282961
22.593288
28.779720
34.717384
40.460129
46.007252
51.180534
55.697510
59.332592
62.022896
63.848988
64.929588
65.351219
65.170235
64.443153
63.275955
61.871300
60.525600
59.532368
59.031410
58.898895
58.704468
57.804501
55.613289
51.878082
46.759495
40.720963
34.323849
27.973783
21.791174
15.778257
10.048275
4.821418
0.268692
-3.630338
-7.105743
-10.372892
-13.316922
-15.480948
-16.479483
-16.428095
-15.927342
-15.654684
-15.990476
-16.984280
-18.503595
-20.256840
-21.788115
-22.681301
-22.859753
-22.649609
-22.545277
-22.964678
-24.129290
-25.994326
-28.318966
-30.845112
-33.380394
-35.829685
-38.174168
-40.375584
-42.382015
-44.186432
-45.774940
-47.002689
-47.498196
-46.694592
-44.026123
-39.198006
-32.423782
-24.491465
-16.447611
-9.040982
-2.467792
3.392477
8.594773
12.942904
16.102371
17.876587
18.374767
17.937910
16.990318
15.967678
15.187578
14.655779
14.035973
12.835687
10.702227
7.669669
4.146394
0.639211
-2.537425
-5.356750
-7.949768
-10.410392
-12.706505
-14.693232
-16.193356
-17.127930
-17.603830
-17.812021
-17.730000
-16.908363
-14.592495
-10.161821
-3.656665
4.072500
11.859981
18.914204
25.010532
30.137297
34.183689
36.994415
38.510674
38.779697
37.924812
36.128105
33.617077
30.650980
27.498262
24.460199
21.913055
20.254034
19.777456
20.561827
22.400587
24.841040
27.369024
29.639452
31.558716
33.177143
34.548351
35.616669
36.143734
35.784168
34.266045
31.520348
27.745079
23.395128
19.006182
14.897369
11.045540
7.312025
3.782373
0.888103
-0.752793
-0.653257
1.225147
4.346697
7.822314
10.897861
13.353832
15.437032
17.370935
18.948359
19.585094
18.748232
16.361521
12.829388
8.750288
4.644260
0.798941
-2.758632
-6.099547
-9.180702
-11.840708
-13.963092
-15.547549
-16.636404
-17.245998
-17.383682
-17.105106
-16.518391
-15.701764
-14.630520
-13.229628
-11.493031
-9.504718
-7.354835
-5.074649
-2.629715
0.061263
3.091956
6.505806
10.197255
13.884773
17.254972
20.128475
22.485296
24.377264
25.791491
26.530695
26.226593
24.530294
21.366301
17.074085
12.298753
7.681187
3.612818
0.243732
-2.363279
-4.166082
-5.204852
-5.651440
-5.744890
-5.657103
-5.446573
-5.162890
-4.939358
-4.918959
-5.114648
-5.382141
-5.520788
-5.431356
-5.241638
-5.253469
-5.674004
-6.397639
-7.060297
-7.262351
-6.833645
-6.015128
-5.375489
-5.486811
-6.596305
-8.510831
-10.716863
-12.619520
-13.763847
-13.929854
-13.123351
-11.524357
-9.376341
-6.870147
-4.152454
-1.420713
1.068433
3.085251
4.498702
5.297113
5.552911
5.380079
4.902690
4.203395
3.343031
2.476680
1.937544
2.158563
3.400045
5.534661
8.140991
10.783286
13.228670
15.483880
17.669094
19.819613
21.758839
23.187090
23.936705
24.162270
24.293062
24.784697
25.868465
27.455950
29.227631
30.834051
32.065804
32.902153
33.466232
33.928024
34.384949
34.799770
35.050026
35.034897
34.753342
34.309074
33.836704
33.403397
32.976177
32.463226
31.770420
30.835278
29.610840
28.012793
25.899462
23.129900
19.667459
15.646072
11.355632
7.166945
3.412978
0.251415
-2.401972
-4.794747
-7.168635
-9.627792
-12.118630
-14.508308
-16.704798
-18.749603
-20.810966
-23.050364
-25.439125
-27.693686
-29.422752
-30.359241
-30.462511
-29.833515
-28.570063
-26.689404
-24.216785
-21.376617
-18.591892
-16.274387
-14.652209
-13.726248
-13.367787
-13.452245
-13.897362
-14.667000
-15.765710
-17.206781
-18.990814
-21.051821
-23.208401
-25.217289
-26.859459
-27.976194
-28.459162
-28.226994
-27.240166
-25.548647
-23.288298
-20.609108
-17.626535
-14.424656
-11.065551
-7.589553
-4.020285
-0.410065
3.098765
6.300556
9.037564
11.269885
13.063268
