EVENT_NAME: EMILIA_2ND_SHOCK
EVENT_ID: IT-2012-0011
EVENT_DATE_YYYYMMDD: 20120529
EVENT_TIME_HHMMSS: 070002
EVENT_LATITUDE_DEGREE: 44.8417
EVENT_LONGITUDE_DEGREE: 11.0657
EVENT_DEPTH_KM: 8.1
HYPOCENTER_REFERENCE: INGV-CNT_Seismic_Bulletin
MAGNITUDE_W: 6.0
MAGNITUDE_W_REFERENCE: RCMT-INGV
MAGNITUDE_L: 5.8
MAGNITUDE_L_REFERENCE: INGV-CNT_Seismic_Bulletin
FOCAL_MECHANISM: TF
NETWORK: IT
STATION_CODE: RAV0
STATION_NAME: RAVARINO
STATION_LATITUDE_DEGREE: 44.715700
STATION_LONGITUDE_DEGREE: 11.142800
STATION_ELEVATION_M: 87
LOCATION: 
SENSOR_DEPTH_M: 0.0
VS30_M/S: 
SITE_CLASSIFICATION_EC8: C*
MORPHOLOGIC_CLASSIFICATION: 
EPICENTRAL_DISTANCE_KM: 15.3
EARTHQUAKE_BACKAZIMUTH_DEGREE: 336.5
DATE_TIME_FIRST_SAMPLE_YYYYMMDD_HHMMSS: 20120529_065933.000
DATE_TIME_FIRST_SAMPLE_PRECISION: seconds
SAMPLING_INTERVAL_S: 0.005000
NDATA: 24001
DURATION_S: 120.005
STREAM: HNZ
UNITS: cm/s
INSTRUMENT: sensor = Episensor FBA ES-T [Kinemetrics] | digitizer = Etna [Kinemetrics]
INSTRUMENT_ANALOG/DIGITAL: D
INSTRUMENTAL_FREQUENCY_HZ: 
INSTRUMENTAL_DAMPING: 
FULL_SCALE_G: 
N_BIT_DIGITAL_CONVERTER: 18
PGV_CM/S: -1.648797
TIME_PGV_S: 36.190000
BASELINE_CORRECTION: BASELINE REMOVED
FILTER_TYPE: BUTTERWORTH
FILTER_ORDER: 2
LOW_CUT_FREQUENCY_HZ: 0.050
HIGH_CUT_FREQUENCY_HZ: 30.000
LATE/NORMAL_TRIGGERED: NT
DATABASE_VERSION: DYNA 1.0
HEADER_FORMAT: DYNA 1.2
DATA_TYPE: VELOCITY
PROCESSING: manual (Paolucci et al., 2011)
DATA_TIMESTAMP_YYYYMMDD_HHMMSS: 
DATA_LICENSE: CC-BY3_0-IT (http://creativecommons.org/licenses/by/3.0/deed.en)
DATA_CITATION: ESM working group (2015), European Strong-Motion database, version 0.1, Network Activity 3: Networking acceleration networks and SM data users. Project NERA (www.nera-eu.org)
DATA_CREATOR: ESM working group
ORIGINAL_DATA_MEDIATOR_CITATION: Ufficio Rischio Sismico e Vulcanico del Dipartimento della Protezione Civile (http://www.protezionecivile.gov.it/)
ORIGINAL_DATA_MEDIATOR: Rete Accelerometrica Nazionale - RAN Download (http://www.mot1.it/randownload/)
ORIGINAL_DATA_CREATOR_CITATION: Italian Strong Motion Network, Italian Civil Protection Department http://www.protezionecivile.gov.it
ORIGINAL_DATA_CREATOR: network: IT (Italian Strong Motion Network); owner: Dipartimento Della Protezione Civile
USER1: 
USER2: 
USER3: 
USER4: 
USER5: 
[...]
0.015778
0.015802
0.015826
0.015849
0.015873
0.015897
0.015920
0.015944
0.015968
0.015992
0.016015
0.016039
0.016063
0.016087
0.016111
0.016135
0.016158
0.016182
0.016206
0.016230
0.016254
0.016278
0.016302
0.016326
0.016350
0.016374
0.016398
0.016422
0.016446
0.016470
0.016494
0.016518
0.016542
0.016566
0.016590
0.016614
0.016638
0.016662
0.016687
0.016711
0.016735
0.016759
0.016783
0.016807
0.016832
0.016856
0.016880
0.016904
0.016929
0.016953
0.016977
0.017001
0.017026
0.017050
0.017074
0.017099
0.017123
0.017147
0.017172
0.017196
0.017221
0.017245
0.017269
0.017294
0.017318
0.017343
0.017367
0.017392
0.017416
0.017441
0.017465
0.017490
0.017514
0.017539
0.017563
0.017588
0.017612
0.017637
0.017662
0.017686
0.017711
0.017735
0.017760
0.017785
0.017809
0.017834
0.017859
0.017883
0.017908
0.017933
0.017958
0.017983
0.018007
0.018032
0.018055
0.018079
0.018103
0.018133
0.018172
0.018219
0.018250
0.018215
0.018052
0.017740
0.017334
0.016954
0.016729
0.016725
0.016916
0.017213
0.017514
0.017758
0.017940
0.018096
0.018262
0.018449
0.018618
0.018693
0.018605
0.018337
0.017933
0.017476
0.017068
0.016800
0.016724
0.016831
0.017069
0.017377
0.017718
0.018067
0.018398
0.018677
0.018874
0.018968
0.018946
0.018822
0.018640
0.018460
0.018317
0.018227
0.018200
0.018241
0.018332
0.018436
0.018536
0.018633
0.018726
0.018811
0.018885
0.018951
0.019002
0.019019
0.018980
0.018883
0.018737
0.018549
0.018336
0.018132
0.017999
0.017993
0.018136
0.018408
0.018744
0.019055
0.019250
0.019271
0.019121
0.018860
0.018582
0.018392
0.018360
0.018495
0.018737
0.018993
0.019189
0.019296
0.019331
0.019341
0.019394
0.019548
0.019817
0.020159
0.020483
0.020697
0.020734
0.020574
0.020244
0.019817
0.019391
0.019050
0.018847
0.018797
0.018881
0.019050
0.019256
0.019475
0.019711
0.019981
0.020293
0.020639
0.020979
0.021248
0.021365
0.021280
0.020985
0.020525
0.019992
0.019513
0.019206
0.019139
0.019298
0.019617
0.020009
0.020392
0.020690
0.020851
0.020867
0.020764
0.020585
0.020374
0.020176
0.020029
0.019944
0.019907
0.019908
0.019960
0.020087
0.020304
0.020596
0.020928
0.021249
0.021508
0.021672
0.021739
0.021727
0.021648
0.021499
0.021276
0.020999
0.020715
0.020500
0.020437
0.020584
0.020923
0.021364
0.021768
0.022011
0.022026
0.021832
0.021518
0.021213
0.021044
0.021094
0.021384
0.021856
0.022375
0.022763
0.022860
0.022598
0.022040
0.021350
0.020740
0.020409
0.020489
0.020989
0.021788
0.022663
0.023369
0.023711
0.023605
0.023112
0.022416
0.021760
0.021355
0.021308
0.021596
0.022087
0.022581
0.022888
0.022918
0.022709
0.022386
0.022106
0.022005
0.022161
0.022553
0.023058
0.023493
0.023694
0.023576
0.023166
0.022597
0.022061
0.021730
0.021698
0.021953
0.022405
0.022940
0.023446
0.023827
0.024028
0.024039
0.023892
0.023634
0.023315
0.022997
0.022738
0.022581
0.022535
0.022575
0.022663
0.022761
0.022843
0.022905
0.022967
0.023056
0.023191
0.023383
0.023630
0.023902
0.024147
0.024304
0.024330
0.024218
0.024004
0.023755
0.023552
0.023450
0.023461
0.023557
0.023695
0.023839
0.023957
0.024030
0.024062
0.024085
0.024133
0.024212
0.024311
0.024415
0.024502
0.024542
0.024508
0.024401
0.024245
0.024080
0.023964
0.023961
0.024106
0.024383
0.024718
0.025015
0.025186
0.025182
0.024992
0.024665
0.024316
0.024078
0.024024
0.024149
0.024393
0.024670
0.024896
0.025023
0.025055
0.025034
0.025024
0.025087
0.025256
0.025512
0.025788
0.025998
0.026072
0.025974
0.025713
0.025348
0.024981
0.024714
0.024599
0.024647
0.024843
0.025146
0.025488
0.025797
0.026019
0.026133
0.026153
0.026129
0.026120
0.026160
0.026230
0.026266
0.026195
0.025985
0.025661
0.025310
0.025047
0.024975
0.025133
0.025474
0.025889
0.026264
0.026530
0.026671
0.026703
0.026660
0.026592
0.026543
0.026532
0.026549
0.026568
0.026553
0.026471
0.026318
0.026148
0.026045
0.026061
0.026193
0.026402
0.026635
0.026834
0.026948
0.026969
0.026938
0.026924
0.026978
0.027112
0.027298
0.027480
0.027589
0.027571
0.027428
0.027223
0.027044
0.026953
0.026969
0.027061
0.027175
0.027263
0.027303
0.027306
0.027295
0.027289
0.027291
0.027302
0.027324
0.027355
0.027390
0.027425
0.027458
0.027489
0.027525
0.027595
0.027732
0.027944
0.028192
0.028408
0.028533
0.028544
0.028461
0.028327
0.028190
0.028082
0.028014
0.027986
0.027998
0.028050
0.028129
0.028210
0.028265
0.028295
0.028328
0.028401
0.028530
0.028691
0.028812
0.028802
0.028606
0.028248
0.027822
0.027449
0.027241
0.027272
0.027562
0.028044
0.028587
0.029044
0.029317
0.029372
0.029242
0.029015
0.028802
0.028701
0.028742
0.028878
0.029015
0.029062
0.028988
0.028830
0.028674
0.028591
0.028611
0.028723
0.028901
0.029117
0.029337
0.029513
0.029587
0.029527
0.029343
0.029086
0.028826
0.028624
0.028518
0.028519
0.028622
0.028813
0.029051
0.029268
0.029407
0.029451
0.029431
0.029396
0.029386
0.029424
0.029509
0.029617
0.029713
0.029777
0.029801
0.029789
0.029746
0.029694
0.029673
0.029718
0.029834
0.029990
0.030146
0.030264
0.030315
0.030283
0.030181
0.030041
0.029892
0.029760
0.029672
0.029647
0.029679
0.029737
0.029801
0.029881
0.029998
0.030159
0.030359
0.030585
0.030814
0.031005
0.031118
0.031135
0.031059
0.030908
0.030709
0.030507
0.030352
0.030285
0.030312
0.030412
0.030552
0.030697
0.030821
0.030910
0.030971
0.031016
0.031058
0.031100
0.031142
0.031171
0.031171
0.031139
0.031101
0.031094
0.031132
0.031190
0.031223
0.031213
0.031179
0.031159
0.031184
0.031262
0.031374
0.031484
0.031565
0.031609
0.031616
0.031583
0.031509
0.031412
0.031332
0.031317
0.031384
0.031513
0.031652
0.031745
0.031760
0.031714
0.031661
0.031662
0.031747
0.031907
0.032094
0.032242
0.032289
0.032211
0.032027
0.031800
0.031605
0.031510
0.031550
0.031711
0.031936
0.032148
0.032289
0.032347
0.032350
0.032331
0.032315
0.032311
0.032321
0.032339
0.032359
0.032371
0.032370
0.032352
0.032323
0.032307
0.032337
0.032439
0.032614
0.032840
0.033064
0.033218
0.033250
0.033159
0.033001
0.032859
0.032796
0.032830
0.032922
0.033002
0.033006
0.032915
0.032756
0.032590
0.032477
0.032459
0.032551
0.032735
0.032950
0.033126
0.033224
0.033250
0.033230
0.033193
0.033171
0.033192
0.033266
0.033382
0.033509
0.033615
0.033681
0.033705
0.033690
0.033654
0.033621
0.033608
0.033615
0.033639
0.033680
0.033734
0.033788
0.033827
0.033851
0.033872
0.033898
0.033931
0.033964
0.033983
0.033975
0.033947
0.033915
0.033895
0.033887
0.033876
0.033853
0.033821
0.033787
0.033761
0.033765
0.033816
0.033908
0.034012
0.034102
0.034166
0.034207
0.034227
0.034229
0.034218
0.034204
0.034188
0.034166
0.034142
0.034134
0.034149
0.034182
0.034224
0.034278
0.034350
0.034439
0.034541
0.034652
0.034773
0.034895
0.034998
0.035062
0.035079
0.035044
0.034958
0.034836
0.034701
0.034577
0.034489
0.034462
0.034511
0.034627
0.034782
0.034946
0.035100
0.035235
0.035340
0.035406
0.035433
0.035437
0.035436
0.035442
0.035464
0.035501
0.035549
0.035600
0.035653
0.035703
0.035737
0.035743
0.035719
0.035682
0.035656
0.035659
0.035702
0.035791
0.035906
0.036006
0.036041
0.035982
0.035818
0.035552
0.035201
0.034779
0.034271
0.033615
0.032742
0.031684
0.030627
0.029809
0.029248
0.028510
0.026869
0.023886
0.019919
0.015822
0.011826
0.006713
-0.001453
-0.013378
-0.027291
-0.040098
-0.050220
-0.059168
-0.069852
-0.083233
-0.096940
-0.107484
-0.113916
-0.119176
-0.127524
-0.140501
-0.155537
-0.168675
-0.178697
-0.188405
-0.201655
-0.219387
-0.238847
-0.256346
-0.269987
-0.279484
-0.283908
-0.280339
-0.265100
-0.236776
-0.198316
-0.155557
-0.113007
-0.071679
-0.032023
0.001737
0.022066
0.023623
0.007715
-0.018766
-0.048146
-0.075787
-0.100497
-0.122258
-0.139563
-0.148888
-0.147270
-0.135617
-0.118886
-0.102285
-0.087175
-0.070995
-0.051337
-0.029844
-0.011727
-0.001112
0.003276
0.007758
0.018869
0.038546
0.063345
0.087649
0.107384
0.121018
0.127790
0.126036
0.114118
0.093143
0.068011
0.044835
0.026733
0.012026
-0.003438
-0.022334
-0.044047
-0.065952
-0.085648
-0.101886
-0.114009
-0.121200
-0.122634
-0.118594
-0.111273
-0.103811
-0.097818
-0.091758
-0.082324
-0.067696
-0.049427
-0.031351
-0.017196
-0.009274
-0.008473
-0.013982
-0.022675
-0.030450
-0.035985
-0.042795
-0.055749
-0.074856
-0.093189
-0.101407
-0.094461
-0.075072
-0.052419
-0.037431
-0.036984
-0.050192
-0.069440
-0.085615
-0.093704
-0.094757
-0.093273
-0.092978
-0.094644
-0.096588
-0.096018
-0.090259
-0.078086
-0.060657
-0.041131
-0.023271
-0.009633
0.000731
0.013808
0.038534
0.080907
0.138922
0.202932
0.260801
0.303349
0.326419
0.329289
0.312206
0.276002
0.223889
0.162544
0.100054
0.042238
-0.008639
-0.051430
-0.083641
-0.103389
-0.114550
-0.127999
-0.154408
-0.193983
-0.233514
-0.254389
-0.244433
-0.203841
-0.142899
-0.076532
-0.019843
0.015603
0.025450
0.013957
-0.009436
-0.036793
-0.066011
-0.098805
-0.134235
-0.164450
-0.178366
-0.171164
-0.149922
-0.128949
-0.120007
-0.127656
-0.152074
-0.192604
-0.246678
-0.306803
-0.361585
-0.402442
-0.431292
-0.462647
-0.517528
-0.612035
-0.745826
-0.895798
-1.019095
-1.066906
-1.004844
-0.828548
-0.564068
-0.255220
0.050749
0.313403
0.506167
0.618710
0.653182
0.619023
0.531757
0.414542
0.297531
0.211928
0.179809
0.205634
0.275308
0.362647
0.438682
0.479874
0.474182
0.425127
0.351541
0.279956
0.231667
0.212721
0.214445
0.222826
0.227153
0.221476
0.201892
0.166720
0.120828
0.077959
0.055560
0.064520
0.101935
0.152288
0.195404
0.215487
0.206307
0.171407
0.120829
0.066645
0.020444
-0.006357
-0.003477
0.033163
0.096524
0.169955
0.235008
0.278973
0.296977
0.290087
0.263299
0.224353
0.182299
0.145627
0.120655
0.110399
0.114161
0.128608
0.149820
0.174052
0.196882
0.213542
0.221610
0.222647
0.219755
0.213256
0.199470
0.174574
0.140081
0.104372
0.078043
0.066350
0.065185
0.064706
0.057248
0.041288
0.017951
-0.013716
-0.055249
-0.103066
-0.146815
-0.174629
-0.180093
-0.165033
-0.137141
-0.105242
-0.075534
-0.050957
-0.033459
-0.026042
-0.031512
-0.048767
-0.070262
-0.083292
-0.075238
-0.040202
0.017590
0.086691
0.155201
0.215398
0.263530
0.297916
0.318783
0.329208
0.334547
0.339445
0.344048
0.342412
0.325597
0.288877
0.237942
0.187758
0.153629
0.141707
0.146831
0.158340
0.167456
0.170389
0.167214
0.159967
0.151714
0.145600
0.142987
0.142037
0.138462
0.128390
0.111289
0.090181
0.068636
0.047806
0.026885
0.006061
-0.011865
-0.022786
-0.023554
-0.013190
0.007035
0.033842
0.062175
0.085951
0.100026
0.102879
0.097729
0.090216
0.083991
0.078059
0.068085
0.050340
0.024965
-0.003721
-0.029404
-0.046578
-0.052460
-0.047198
-0.032570
-0.010678
0.016087
0.044343
0.069696
0.087483
0.093372
0.084235
0.060232
0.026860
-0.005544
-0.025651
-0.026510
-0.009445
0.016095
0.037495
0.046169
0.042099
0.032494
0.026060
0.027569
0.036094
0.046971
0.055368
0.059036
0.058660
0.055893
0.051176
0.043618
0.032683
0.019332
0.005202
-0.008872
-0.022665
-0.034791
-0.042006
-0.041476
-0.034058
-0.024626
-0.018463
-0.017138
-0.017334
-0.012963
0.000735
0.023275
0.048197
0.066509
0.071583
0.061929
0.040683
0.013253
-0.015015
-0.040489
-0.062197
-0.081588
-0.100662
-0.119622
-0.136122
-0.146617
-0.148550
-0.141998
-0.129819
-0.115913
-0.102533
-0.088497
-0.069525
-0.040976
-0.002042
0.041178
0.076967
0.094185
0.089221
0.068053
0.041585
0.018074
-0.001361
-0.020837
-0.043407
-0.066231
-0.082154
-0.086549
-0.082718
-0.080357
-0.088711
-0.110987
-0.144310
-0.183389
-0.223368
-0.260086
-0.289286
-0.306690
-0.309315
-0.296905
-0.271898
-0.237714
-0.197145
-0.152732
-0.108864
-0.072885
-0.052515
-0.050347
-0.060157
-0.069492
-0.067642
-0.052824
-0.032732
-0.018206
-0.015454
-0.023201
-0.036427
-0.052138
-0.070995
-0.093713
-0.116992
-0.134021
-0.139785
-0.135916
-0.129786
-0.128850
-0.136201
-0.150736
-0.169626
-0.189653
-0.207323
-0.219345
-0.223830
-0.221202
-0.214088
-0.206183
-0.200293
-0.196820
-0.194716
-0.194428
-0.199495
-0.214536
-0.241066
-0.274478
-0.304116
-0.316449
-0.300642
-0.254530
-0.187082
-0.114564
-0.052968
-0.012676
0.002006
-0.008854
-0.042017
-0.092211
-0.153627
-0.220175
-0.284196
-0.336726
-0.370880
-0.385135
-0.382852
-0.368868
-0.347236
-0.321824
-0.297097
-0.276055
-0.256857
-0.233038
-0.199275
-0.158137
-0.121328
-0.104169
-0.117949
-0.165653
-0.243137
-0.343044
-0.456783
-0.573692
-0.681473
-0.770260
-0.836556
-0.881993
-0.908311
-0.915307
-0.904548
-0.883676
-0.865114
-0.859535
-0.869728
-0.888863
-0.903267
-0.899075
-0.871427
-0.830633
-0.797948
-0.791135
-0.811200
-0.842951
-0.869110
-0.883809
-0.892666
-0.901534
-0.907757
-0.904059
-0.889928
-0.875971
-0.874848
-0.888716
-0.907816
-0.922640
-0.936837
-0.966708
-1.026924
-1.116040
-1.215025
-1.299452
-1.354777
-1.383964
-1.404007
-1.434341
-1.483882
-1.545334
-1.601517
-1.637889
-1.648797
-1.632841
-1.586488
-1.505881
-1.393746
-1.260370
-1.115832
-0.962986
-0.800489
-0.633362
-0.479534
-0.363951
-0.303687
-0.296105
-0.319755
-0.347115
-0.358836
-0.349038
-0.320166
-0.275476
-0.217442
-0.151178
-0.086027
-0.032467
0.003179
0.023146
0.038924
0.065548
0.111311
0.170676
0.226573
0.259690
0.257213
0.216184
0.141607
0.042469
-0.070904
-0.187045
-0.292711
-0.373994
-0.420576
-0.431060
-0.414079
-0.382419
-0.345332
-0.307160
-0.272348
-0.248053
-0.238395
-0.236297
-0.224215
-0.185450
-0.115742
-0.025574
0.066720
0.144651
0.200046
0.233441
0.249758
0.254630
0.255630
0.265148
0.296764
0.353761
0.420693
0.469600
0.477170
0.437409
0.362082
0.274221
0.199730
0.156385
0.143626
0.143253
0.134230
0.109494
0.080409
0.067392
0.085598
0.134881
0.199219
0.255398
0.284641
0.278774
0.238134
0.167014
0.073045
-0.031978
-0.136108
-0.234022
-0.327471
-0.417385
-0.497408
-0.557792
-0.595840
-0.621475
-0.652592
-0.705288
-0.786263
-0.889449
-0.996018
-1.078439
-1.109470
-1.073433
-0.973775
-0.832796
-0.684685
-0.565131
-0.500293
-0.498963
-0.551608
-0.635291
-0.719806
-0.772927
-0.766681
-0.685128
-0.529586
-0.316900
-0.071234
0.185333
0.437271
0.673293
0.881704
1.049008
1.163448
1.221465
1.231887
1.212433
1.179849
1.141543
1.094347
1.029918
0.942787
0.836327
0.723185
0.620239
0.541648
0.493781
0.474063
0.474029
0.484425
0.498575
0.512228
0.521489
0.521604
0.508175
0.480078
0.441226
0.398500
0.356949
0.317142
0.277146
0.236169
0.195924
0.158680
0.124370
0.090356
0.054281
0.016758
-0.018725
-0.048809
-0.074426
-0.102455
-0.141919
-0.196908
-0.262273
-0.325657
-0.373385
-0.395272
-0.386855
-0.350926
-0.298177
-0.244297
-0.203945
-0.186075
-0.193418
-0.224186
-0.272843
-0.329304
-0.377966
-0.398923
-0.373684
-0.294332
-0.170156
-0.025800
0.108873
0.210809
0.270880
0.293690
0.292206
0.281116
0.271656
0.268320
0.267426
0.258759
0.230940
0.177589
0.099982
0.004701
-0.100938
-0.210725
-0.316268
-0.403001
-0.452613
-0.452150
-0.401521
-0.312525
-0.202222
-0.088867
0.007119
0.063575
0.064140
0.008608
-0.084315
-0.185919
-0.271233
-0.327700
-0.354994
-0.359676
-0.350434
-0.335580
-0.321163
-0.310176
-0.305194
-0.312174
-0.338779
-0.386726
-0.447496
-0.508294
-0.562459
-0.613153
-0.667312
-0.726829
-0.784773
-0.828502
-0.846806
-0.836107
-0.800086
-0.741926
-0.656981
-0.534860
-0.370928
-0.177192
0.019140
0.190623
0.325437
0.429771
0.515223
0.584688
0.631747
0.653955
0.664492
0.687518
0.740101
0.817953
0.897928
0.954040
0.972838
0.955971
0.909563
0.832808
0.718878
0.567088
0.391945
0.218144
0.065833
-0.060750
-0.173286
-0.289418
-0.419034
-0.554200
-0.669542
-0.734855
-0.732420
-0.666268
-0.557567
-0.432745
-0.314514
-0.218420
-0.151467
-0.111948
-0.092420
-0.084389
-0.080960
-0.076679
-0.065218
-0.035689
0.027393
0.134871
0.279593
0.432901
0.557051
0.623813
0.625503
0.574548
0.496498
0.420693
0.369991
0.353072
0.364592
0.392682
0.426480
0.458943
0.487422
0.514388
0.545958
0.588028
0.645308
0.724334
0.832967
0.971733
1.124197
1.257966
1.339081
1.350038
1.297580
1.204398
1.092244
0.970837
0.840974
0.706874
0.584237
0.494590
0.449649
0.439227
0.434370
0.405106
0.339102
0.246025
0.145697
0.052953
-0.027383
-0.095479
-0.151949
-0.199315
-0.244709
-0.297806
-0.364525
-0.441157
-0.513219
-0.561662
-0.574263
-0.552626
-0.506841
-0.443006
-0.356355
-0.235748
-0.075479
0.113493
0.300848
0.447127
0.522305
0.520063
0.457064
0.359087
0.247056
0.133156
0.025355
-0.067516
-0.134588
-0.164485
-0.147598
-0.080373
0.028471
0.155035
0.265540
0.328027
0.323739
0.252660
0.132174
-0.009820
-0.145428
-0.257338
-0.344373
-0.418548
-0.495330
-0.583775
-0.682483
-0.782520
-0.873910
-0.950368
-1.008781
-1.045344
-1.054362
-1.032474
-0.983354
-0.917006
-0.844773
-0.775873
-0.718828
-0.685193
-0.690031
-0.746342
-0.855844
-1.002606
-1.155154
-1.277211
-1.342603
-1.346605
-1.304434
-1.236353
-1.152993
-1.054624
-0.942753
-0.829605
-0.734240
-0.669657
-0.634960
-0.619916
-0.615499
-0.618020
-0.622172
-0.612072
-0.563120
-0.455834
-0.289524
-0.083877
0.131713
0.330656
0.493969
0.607891
0.661352
0.647561
0.568099
0.435902
0.275588
0.120306
0.003654
-0.051199
-0.037169
0.041437
0.177348
0.362081
0.579993
0.802859
0.993328
1.117626
1.158979
1.122600
1.030226
0.909600
0.785817
0.676952
0.592174
0.531006
0.485056
0.443609
0.400023
0.352494
0.298120
0.227563
0.127901
-0.006286
-0.161529
-0.304598
-0.396704
-0.413787
-0.356950
-0.247081
-0.111916
0.024186
0.144131
0.237129
0.296658
0.320031
0.308016
0.263264
0.190054
0.096326
-0.004939
-0.097788
-0.167893
-0.206160
-0.210551
-0.187989
-0.154713
-0.130799
-0.129792
-0.150980
-0.181014
-0.204114
-0.212830
-0.210721
-0.205825
-0.202640
-0.200324
-0.196826
-0.192928
-0.192125
-0.197405
-0.207440
-0.214023
-0.203613
-0.164078
-0.091578
0.008555
0.126651
0.253179
0.378257
0.488737
0.568965
0.606417
0.597497
0.548872
0.473857
0.387140
0.301170
0.224472
0.160222
0.104957
0.050144
-0.011292
-0.077462
-0.137070
-0.177873
-0.195543
-0.194100
-0.180360
-0.161767
-0.149426
-0.158555
-0.201722
-0.280588
-0.384326
-0.495853
-0.600491
-0.691452
-0.769412
-0.836706
-0.890223
-0.918272
-0.904045
-0.833913
-0.705382
-0.529810
-0.328913
-0.127990
0.050672
0.192763
0.294796
0.363293
0.409397
0.441072
0.457232
0.447537
0.399149
0.307400
0.183539
0.053657
-0.051116
-0.106617
-0.102280
-0.040460
0.067327
0.203192
0.345538
0.473911
0.574647
