EVENT_NAME: EMILIA_2ND_SHOCK
EVENT_ID: IT-2012-0011
EVENT_DATE_YYYYMMDD: 20120529
EVENT_TIME_HHMMSS: 070002
EVENT_LATITUDE_DEGREE: 44.8417
EVENT_LONGITUDE_DEGREE: 11.0657
EVENT_DEPTH_KM: 8.1
HYPOCENTER_REFERENCE: INGV-CNT_Seismic_Bulletin
MAGNITUDE_W: 6.0
MAGNITUDE_W_REFERENCE: RCMT-INGV
MAGNITUDE_L: 5.8
MAGNITUDE_L_REFERENCE: INGV-CNT_Seismic_Bulletin
FOCAL_MECHANISM: TF
NETWORK: IT
STATION_CODE: RAV0
STATION_NAME: RAVARINO
STATION_LATITUDE_DEGREE: 44.715700
STATION_LONGITUDE_DEGREE: 11.142800
STATION_ELEVATION_M: 87
LOCATION: 
SENSOR_DEPTH_M: 0.0
VS30_M/S: 
SITE_CLASSIFICATION_EC8: C*
MORPHOLOGIC_CLASSIFICATION: 
EPICENTRAL_DISTANCE_KM: 15.3
EARTHQUAKE_BACKAZIMUTH_DEGREE: 336.5
DATE_TIME_FIRST_SAMPLE_YYYYMMDD_HHMMSS: 20120529_065933.000
DATE_TIME_FIRST_SAMPLE_PRECISION: seconds
SAMPLING_INTERVAL_S: 0.005000
NDATA: 24001
DURATION_S: 120.005
STREAM: HNZ
UNITS: cm
INSTRUMENT: sensor = Episensor FBA ES-T [Kinemetrics] | digitizer = Etna [Kinemetrics]
INSTRUMENT_ANALOG/DIGITAL: D
INSTRUMENTAL_FREQUENCY_HZ: 
INSTRUMENTAL_DAMPING: 
FULL_SCALE_G: 
N_BIT_DIGITAL_CONVERTER: 18
PGD_CM: -1.192236
TIME_PGD_S: 45.700000
BASELINE_CORRECTION: BASELINE REMOVED
FILTER_TYPE: BUTTERWORTH
FILTER_ORDER: 2
LOW_CUT_FREQUENCY_HZ: 0.050
HIGH_CUT_FREQUENCY_HZ: 30.000
LATE/NORMAL_TRIGGERED: NT
DATABASE_VERSION: DYNA 1.0
HEADER_FORMAT: DYNA 1.2
DATA_TYPE: DISPLACEMENT
PROCESSING: manual (Paolucci et al., 2011)
DATA_TIMESTAMP_YYYYMMDD_HHMMSS: 
DATA_LICENSE: CC-BY3_0-IT (http://creativecommons.org/licenses/by/3.0/deed.en)
DATA_CITATION: ESM working group (2015), European Strong-Motion database, version 0.1, Network Activity 3: Networking acceleration networks and SM data users. Project NERA (www.nera-eu.org)
DATA_CREATOR: ESM working group
ORIGINAL_DATA_MEDIATOR_CITATION: Ufficio Rischio Sismico e Vulcanico del Dipartimento della Protezione Civile (http://www.protezionecivile.gov.it/)
ORIGINAL_DATA_MEDIATOR: Rete Accelerometrica Nazionale - RAN Download (http://www.mot1.it/randownload/)
ORIGINAL_DATA_CREATOR_CITATION: Italian Strong Motion Network, Italian Civil Protection Department http://www.protezionecivile.gov.it
ORIGINAL_DATA_CREATOR: network: IT (Italian Strong Motion Network); owner: Dipartimento Della Protezione Civile
USER1: 
USER2: 
USER3: 
USER4: 
USER5: 
[...]
-4.882092e-02
-4.774689e-02
-4.665136e-02
-4.546633e-02
-4.412916e-02
-4.259079e-02
-4.082060e-02
-3.880836e-02
-3.656390e-02
-3.411384e-02
-3.149514e-02
-2.874788e-02
-2.591174e-02
-2.302666e-02
-2.013065e-02
-1.724782e-02
-1.437087e-02
-1.145085e-02
-8.405530e-03
-5.146765e-03
-1.615558e-03
2.191823e-03
6.219990e-03
1.037530e-02
1.456026e-02
1.870283e-02
2.276696e-02
2.674310e-02
3.062888e-02
3.441476e-02
3.808450e-02
4.162831e-02
4.505535e-02
4.839270e-02
5.167015e-02
5.490236e-02
5.808041e-02
6.117619e-02
6.415506e-02
6.698926e-02
6.966562e-02
7.218554e-02
7.456014e-02
7.680646e-02
7.894713e-02
8.100921e-02
8.301786e-02
8.498919e-02
8.692929e-02
8.884166e-02
9.073766e-02
9.264222e-02
9.459094e-02
9.662033e-02
9.875712e-02
1.010111e-01
1.033732e-01
1.058177e-01
1.083070e-01
1.107971e-01
1.132402e-01
1.155884e-01
1.178031e-01
1.198684e-01
1.217977e-01
1.236201e-01
1.253526e-01
1.269759e-01
1.284291e-01
1.296264e-01
1.304815e-01
1.309307e-01
1.309479e-01
1.305518e-01
1.298085e-01
1.288264e-01
1.277448e-01
1.267150e-01
1.258785e-01
1.253441e-01
1.251706e-01
1.253600e-01
1.258619e-01
1.265909e-01
1.274491e-01
1.283492e-01
1.292317e-01
1.300738e-01
1.308906e-01
1.317316e-01
1.326763e-01
1.338274e-01
1.352973e-01
1.371827e-01
1.395321e-01
1.423268e-01
1.454889e-01
1.489096e-01
1.524783e-01
1.561017e-01
1.597169e-01
1.633059e-01
1.669095e-01
1.706269e-01
1.745875e-01
1.788994e-01
1.836024e-01
1.886566e-01
1.939703e-01
1.994411e-01
2.049825e-01
2.105316e-01
2.160440e-01
2.214850e-01
2.268219e-01
2.320214e-01
2.370516e-01
2.418803e-01
2.464686e-01
2.507660e-01
2.547109e-01
2.582375e-01
2.612898e-01
2.638389e-01
2.658970e-01
2.675236e-01
2.688195e-01
2.699069e-01
2.709047e-01
2.719058e-01
2.729618e-01
2.740819e-01
2.752440e-01
2.764141e-01
2.775660e-01
2.786956e-01
2.798298e-01
2.810290e-01
2.823744e-01
2.839422e-01
2.857776e-01
2.878856e-01
2.902388e-01
2.927952e-01
2.955142e-01
2.983658e-01
3.013327e-01
3.044102e-01
3.076065e-01
3.109415e-01
3.144373e-01
3.180983e-01
3.218951e-01
3.257666e-01
3.296406e-01
3.334567e-01
3.371758e-01
3.407716e-01
3.442186e-01
3.474901e-01
3.505653e-01
3.534414e-01
3.561406e-01
3.587056e-01
3.611817e-01
3.635936e-01
3.659293e-01
3.681388e-01
3.701486e-01
3.718849e-01
3.732991e-01
3.743858e-01
3.751917e-01
3.758140e-01
3.763882e-01
3.770614e-01
3.779587e-01
3.791571e-01
3.806790e-01
3.825056e-01
3.845992e-01
3.869230e-01
3.894493e-01
3.921577e-01
3.950274e-01
3.980271e-01
4.011097e-01
4.042164e-01
4.072931e-01
4.103073e-01
4.132499e-01
4.161220e-01
4.189198e-01
4.216309e-01
4.242430e-01
4.267593e-01
4.292105e-01
4.316548e-01
4.341619e-01
4.367858e-01
4.395423e-01
4.424053e-01
4.453266e-01
4.482667e-01
4.512177e-01
4.542059e-01
4.572764e-01
4.604701e-01
4.638045e-01
4.672690e-01
4.708354e-01
4.744793e-01
4.781999e-01
4.820289e-01
4.860232e-01
4.902454e-01
4.947438e-01
4.995396e-01
5.046264e-01
5.099764e-01
5.155508e-01
5.213078e-01
5.272082e-01
5.332173e-01
5.393026e-01
5.454285e-01
5.515528e-01
5.576296e-01
5.636211e-01
5.695100e-01
5.753002e-01
5.810046e-01
5.866295e-01
5.921648e-01
5.975875e-01
6.028700e-01
6.079903e-01
6.129338e-01
6.176899e-01
6.222486e-01
6.266024e-01
6.307518e-01
6.347081e-01
6.384951e-01
6.421498e-01
6.457234e-01
6.492807e-01
6.528976e-01
6.566577e-01
6.606477e-01
6.649473e-01
6.696169e-01
6.746895e-01
6.801705e-01
6.860383e-01
6.922431e-01
6.987089e-01
7.053439e-01
7.120565e-01
7.187684e-01
7.254186e-01
7.319574e-01
7.383376e-01
7.445096e-01
7.504273e-01
7.560575e-01
7.613847e-01
7.664057e-01
7.711230e-01
7.755415e-01
7.796732e-01
7.835416e-01
7.871803e-01
7.906239e-01
7.938945e-01
7.969924e-01
7.998977e-01
8.025840e-01
8.050347e-01
8.072506e-01
8.092445e-01
8.110324e-01
8.126267e-01
8.140368e-01
8.152722e-01
8.163491e-01
8.172959e-01
8.181558e-01
8.189822e-01
8.198302e-01
8.207529e-01
8.218031e-01
8.230357e-01
8.245053e-01
8.262586e-01
8.283252e-01
8.307116e-01
8.333983e-01
8.363436e-01
8.394921e-01
8.427820e-01
8.461481e-01
8.495199e-01
8.528217e-01
8.559828e-01
8.589532e-01
8.617192e-01
8.643069e-01
8.667723e-01
8.691793e-01
8.715808e-01
8.740080e-01
8.764739e-01
8.789791e-01
8.815161e-01
8.840675e-01
8.866044e-01
8.890902e-01
8.914925e-01
8.937974e-01
8.960155e-01
8.981772e-01
9.003156e-01
9.024473e-01
9.045585e-01
9.066028e-01
9.085157e-01
9.102361e-01
9.117242e-01
9.129710e-01
9.139991e-01
9.148609e-01
9.156310e-01
9.163955e-01
9.172387e-01
9.182306e-01
9.194186e-01
9.208250e-01
9.224489e-01
9.242694e-01
9.262534e-01
9.283628e-01
9.305628e-01
9.328272e-01
9.351424e-01
9.375081e-01
9.399373e-01
9.424549e-01
9.450918e-01
9.478749e-01
9.508131e-01
9.538877e-01
9.570526e-01
9.602461e-01
9.634058e-01
9.664829e-01
9.694477e-01
9.722861e-01
9.749900e-01
9.775466e-01
9.799333e-01
9.821218e-01
9.840886e-01
9.858265e-01
9.873483e-01
9.886797e-01
9.898490e-01
9.908794e-01
9.917900e-01
9.926002e-01
9.933326e-01
9.940092e-01
9.946448e-01
9.952447e-01
9.958071e-01
9.963306e-01
9.968180e-01
9.972752e-01
9.977044e-01
9.980975e-01
9.984317e-01
9.986746e-01
9.987934e-01
9.987661e-01
9.985893e-01
9.982794e-01
9.978683e-01
9.973974e-01
9.969126e-01
9.964620e-01
9.960921e-01
9.958408e-01
9.957283e-01
9.957499e-01
9.958766e-01
9.960634e-01
9.962628e-01
9.964359e-01
9.965562e-01
9.966052e-01
9.965658e-01
9.964176e-01
9.961390e-01
9.957124e-01
9.951296e-01
9.943941e-01
9.935216e-01
9.925389e-01
9.914829e-01
9.903990e-01
9.893359e-01
9.883370e-01
9.874273e-01
9.866065e-01
9.858521e-01
9.851328e-01
9.844241e-01
9.837147e-01
9.829999e-01
9.822711e-01
9.815141e-01
9.807181e-01
9.798894e-01
9.790550e-01
9.782551e-01
9.775252e-01
9.768805e-01
9.763105e-01
9.757856e-01
9.752683e-01
9.747222e-01
9.741146e-01
9.734121e-01
9.725765e-01
9.715643e-01
9.703325e-01
9.688489e-01
9.671005e-01
9.650968e-01
9.628690e-01
9.604648e-01
9.579406e-01
9.553501e-01
9.527322e-01
9.501064e-01
9.474772e-01
9.448459e-01
9.422186e-01
9.396066e-01
9.370208e-01
9.344668e-01
9.319446e-01
9.294541e-01
9.270029e-01
9.246099e-01
9.223023e-01
9.201050e-01
9.180283e-01
9.160615e-01
9.141744e-01
9.123275e-01
9.104852e-01
9.086250e-01
9.067398e-01
9.048344e-01
9.029219e-01
9.010202e-01
8.991473e-01
8.973196e-01
8.955520e-01
8.938579e-01
8.922472e-01
8.907241e-01
8.892865e-01
8.879251e-01
8.866246e-01
8.853661e-01
8.841322e-01
8.829134e-01
8.817118e-01
8.805415e-01
8.794252e-01
8.783866e-01
8.774465e-01
8.766211e-01
8.759231e-01
8.753607e-01
8.749330e-01
8.746261e-01
8.744105e-01
8.742436e-01
8.740744e-01
8.738493e-01
8.735159e-01
8.730253e-01
8.723323e-01
8.713948e-01
8.701760e-01
8.686465e-01
8.667878e-01
8.645953e-01
8.620826e-01
8.592836e-01
8.562509e-01
8.530482e-01
8.497404e-01
8.463842e-01
8.430243e-01
8.396929e-01
8.364126e-01
8.331990e-01
8.300596e-01
8.269911e-01
8.239750e-01
8.209778e-01
8.179566e-01
8.148659e-01
8.116632e-01
8.083131e-01
8.047907e-01
8.010837e-01
7.971926e-01
7.931284e-01
7.889092e-01
7.845581e-01
7.801015e-01
7.755695e-01
7.709957e-01
7.664163e-01
7.618646e-01
7.573631e-01
7.529161e-01
7.485089e-01
7.441113e-01
7.396843e-01
7.351867e-01
7.305796e-01
7.258282e-01
7.209048e-01
7.157930e-01
7.104930e-01
7.050230e-01
6.994150e-01
6.937046e-01
6.879193e-01
6.820703e-01
6.761513e-01
6.701438e-01
6.640279e-01
6.577905e-01
6.514285e-01
6.449463e-01
6.383520e-01
6.316609e-01
6.249017e-01
6.181217e-01
6.113823e-01
6.047465e-01
5.982644e-01
5.919643e-01
5.858523e-01
5.799174e-01
5.741380e-01
5.684852e-01
5.629230e-01
5.574085e-01
5.518929e-01
5.463230e-01
5.406428e-01
5.347971e-01
5.287370e-01
5.224274e-01
5.158543e-01
5.090287e-01
5.019860e-01
4.947794e-01
4.874694e-01
4.801135e-01
4.727584e-01
4.654375e-01
4.581720e-01
4.509747e-01
4.438533e-01
4.368099e-01
4.298406e-01
4.229339e-01
4.160712e-01
4.092285e-01
4.023787e-01
3.954970e-01
3.885667e-01
3.815860e-01
3.745703e-01
3.675494e-01
3.605598e-01
3.536350e-01
3.467997e-01
3.400689e-01
3.334517e-01
3.269554e-01
3.205874e-01
3.143521e-01
3.082443e-01
3.022446e-01
2.963198e-01
2.904312e-01
2.845458e-01
2.786453e-01
2.727263e-01
2.667932e-01
2.608475e-01
2.548810e-01
2.488755e-01
2.428086e-01
2.366617e-01
2.304266e-01
2.241071e-01
2.177173e-01
2.112780e-01
2.048136e-01
1.983502e-01
1.919139e-01
1.855284e-01
1.792120e-01
1.729736e-01
1.668087e-01
1.606979e-01
1.546075e-01
1.484941e-01
1.423111e-01
1.360183e-01
1.295906e-01
1.230237e-01
1.163333e-01
1.095512e-01
1.027201e-01
9.589136e-02
8.911997e-02
8.245841e-02
7.594812e-02
6.961352e-02
6.346036e-02
5.747845e-02
5.164643e-02
4.593648e-02
4.031756e-02
3.475800e-02
2.922799e-02
2.370205e-02
1.816107e-02
1.259317e-02
6.992992e-03
1.359765e-03
-4.304886e-03
-9.998944e-03
-1.572124e-02
-2.147143e-02
-2.724858e-02
-3.304900e-02
-3.886505e-02
-4.468610e-02
-5.050124e-02
-5.630227e-02
-6.208508e-02
-6.784909e-02
-7.359679e-02
-7.933449e-02
-8.507298e-02
-9.082567e-02
-9.660509e-02
-1.024208e-01
-1.082796e-01
-1.141873e-01
-1.201485e-01
-1.261628e-01
-1.322212e-01
-1.383028e-01
-1.443779e-01
-1.504162e-01
-1.563968e-01
-1.623137e-01
-1.681751e-01
-1.739955e-01
-1.797900e-01
-1.855729e-01
-1.913585e-01
-1.971593e-01
-2.029811e-01
-2.088194e-01
-2.146636e-01
-2.205040e-01
-2.263395e-01
-2.321795e-01
-2.380416e-01
-2.439459e-01
-2.499090e-01
-2.559412e-01
-2.620468e-01
-2.682251e-01
-2.744706e-01
-2.807712e-01
-2.871056e-01
-2.934446e-01
-2.997563e-01
-3.060155e-01
-3.122121e-01
-3.183553e-01
-3.244694e-01
-3.305831e-01
-3.367192e-01
-3.428887e-01
-3.490924e-01
-3.553257e-01
-3.615836e-01
-3.678622e-01
-3.741597e-01
-3.804762e-01
-3.868150e-01
-3.931821e-01
-3.995846e-01
-4.060249e-01
-4.124968e-01
-4.189830e-01
-4.254580e-01
-4.318923e-01
-4.382559e-01
-4.445196e-01
-4.506535e-01
-4.566264e-01
-4.624102e-01
-4.679890e-01
-4.733679e-01
-4.785752e-01
-4.836557e-01
-4.886595e-01
-4.936342e-01
-4.986212e-01
-5.036565e-01
-5.087706e-01
-5.139850e-01
-5.193070e-01
-5.247275e-01
-5.302255e-01
-5.357768e-01
-5.413616e-01
-5.469672e-01
-5.525860e-01
-5.582102e-01
-5.638278e-01
-5.694207e-01
-5.749700e-01
-5.804620e-01
-5.858925e-01
-5.912673e-01
-5.965985e-01
-6.019006e-01
-6.071864e-01
-6.124644e-01
-6.177387e-01
-6.230089e-01
-6.282712e-01
-6.335194e-01
-6.387466e-01
-6.439471e-01
-6.491176e-01
-6.542569e-01
-6.593641e-01
-6.644385e-01
-6.694828e-01
-6.745074e-01
-6.795346e-01
-6.845971e-01
-6.897312e-01
-6.949696e-01
-7.003369e-01
-7.058495e-01
-7.115178e-01
-7.173460e-01
-7.233301e-01
-7.294554e-01
-7.356975e-01
-7.420257e-01
-7.484077e-01
-7.548127e-01
-7.612141e-01
-7.675911e-01
-7.739300e-01
-7.802225e-01
-7.864633e-01
-7.926459e-01
-7.987615e-01
-8.047994e-01
-8.107493e-01
-8.166029e-01
-8.223548e-01
-8.279997e-01
-8.335285e-01
-8.389246e-01
-8.441648e-01
-8.492237e-01
-8.540800e-01
-8.587212e-01
-8.631462e-01
-8.673638e-01
-8.713881e-01
-8.752341e-01
-8.789126e-01
-8.824295e-01
-8.857885e-01
-8.889956e-01
-8.920622e-01
-8.950062e-01
-8.978486e-01
-9.006113e-01
-9.033148e-01
-9.059788e-01
-9.086235e-01
-9.112704e-01
-9.139402e-01
-9.166491e-01
-9.194059e-01
-9.222129e-01
-9.250692e-01
-9.279749e-01
-9.309319e-01
-9.339420e-01
-9.370040e-01
-9.401120e-01
-9.432545e-01
-9.464165e-01
-9.495817e-01
-9.527359e-01
-9.558701e-01
-9.589835e-01
-9.620854e-01
-9.651952e-01
-9.683390e-01
-9.715430e-01
-9.748289e-01
-9.782121e-01
-9.817033e-01
-9.853104e-01
-9.890390e-01
-9.928903e-01
-9.968576e-01
-1.000924e+00
-1.005062e+00
-1.009240e+00
-1.013425e+00
-1.017585e+00
-1.021697e+00
-1.025737e+00
-1.029687e+00
-1.033534e+00
-1.037274e+00
-1.040911e+00
-1.044462e+00
-1.047947e+00
-1.051388e+00
-1.054799e+00
-1.058181e+00
-1.061523e+00
-1.064805e+00
-1.068006e+00
-1.071109e+00
-1.074104e+00
-1.076991e+00
-1.079775e+00
-1.082472e+00
-1.085104e+00
-1.087696e+00
-1.090278e+00
-1.092873e+00
-1.095500e+00
-1.098167e+00
-1.100874e+00
-1.103615e+00
-1.106374e+00
-1.109128e+00
-1.111849e+00
-1.114508e+00
-1.117080e+00
-1.119543e+00
-1.121886e+00
-1.124104e+00
-1.126202e+00
-1.128192e+00
-1.130092e+00
-1.131922e+00
-1.133701e+00
-1.135447e+00
-1.137170e+00
-1.138879e+00
-1.140575e+00
-1.142254e+00
-1.143911e+00
-1.145542e+00
-1.147148e+00
-1.148734e+00
-1.150304e+00
-1.151859e+00
-1.153398e+00
-1.154917e+00
-1.156416e+00
-1.157897e+00
-1.159370e+00
-1.160846e+00
-1.162337e+00
-1.163848e+00
-1.165382e+00
-1.166940e+00
-1.168518e+00
-1.170115e+00
-1.171730e+00
-1.173357e+00
-1.174991e+00
-1.176621e+00
-1.178239e+00
-1.179835e+00
-1.181403e+00
-1.182935e+00
-1.184424e+00
-1.185858e+00
-1.187217e+00
-1.188475e+00
-1.189600e+00
-1.190558e+00
-1.191317e+00
-1.191853e+00
-1.192158e+00
-1.192236e+00
-1.192104e+00
-1.191786e+00
-1.191311e+00
-1.190704e+00
-1.189989e+00
-1.189180e+00
-1.188286e+00
-1.187303e+00
-1.186224e+00
-1.185038e+00
-1.183741e+00
-1.182336e+00
-1.180830e+00
-1.179242e+00
-1.177586e+00
-1.175877e+00
-1.174120e+00
-1.172313e+00
-1.170451e+00
-1.168528e+00
-1.166545e+00
-1.164507e+00
-1.162427e+00
-1.160324e+00
-1.158222e+00
-1.156154e+00
-1.154158e+00
-1.152274e+00
-1.150540e+00
-1.148988e+00
-1.147643e+00
-1.146517e+00
-1.145606e+00
-1.144894e+00
-1.144349e+00
-1.143933e+00
-1.143603e+00
-1.143316e+00
-1.143032e+00
-1.142717e+00
-1.142342e+00
-1.141887e+00
-1.141335e+00
-1.140676e+00
-1.139894e+00
-1.138979e+00
-1.137917e+00
-1.136702e+00
-1.135339e+00
-1.133841e+00
-1.132226e+00
-1.130513e+00
-1.128711e+00
-1.126817e+00
-1.124815e+00
-1.122682e+00
-1.120396e+00
-1.117937e+00
-1.115292e+00
-1.112456e+00
-1.109427e+00
-1.106210e+00
-1.102816e+00
-1.099257e+00
-1.095554e+00
-1.091730e+00
-1.087808e+00
-1.083815e+00
-1.079771e+00
-1.075697e+00
-1.071602e+00
-1.067492e+00
-1.063369e+00
-1.059231e+00
-1.055078e+00
-1.050914e+00
-1.046745e+00
-1.042580e+00
-1.038432e+00
-1.034315e+00
-1.030245e+00
-1.026239e+00
-1.022313e+00
-1.018478e+00
-1.014739e+00
-1.011092e+00
-1.007527e+00
-1.004025e+00
-1.000569e+00
-9.971470e-01
-9.937541e-01
-9.903905e-01
-9.870583e-01
-9.837569e-01
-9.804819e-01
-9.772260e-01
-9.739810e-01
-9.707410e-01
-9.675025e-01
-9.642634e-01
-9.610211e-01
-9.577733e-01
-9.545190e-01
-9.512602e-01
-9.479999e-01
-9.447415e-01
-9.414873e-01
-9.382378e-01
-9.349900e-01
-9.317352e-01
-9.284576e-01
-9.251355e-01
-9.217473e-01
-9.182783e-01
-9.147257e-01
-9.110985e-01
-9.074137e-01
-9.036911e-01
-8.999496e-01
-8.962051e-01
-8.924692e-01
-8.887482e-01
-8.850413e-01
-8.813392e-01
-8.776240e-01
-8.738707e-01
-8.700492e-01
-8.661265e-01
-8.620697e-01
-8.578493e-01
-8.534432e-01
-8.488409e-01
-8.440459e-01
-8.390764e-01
-8.339640e-01
-8.287507e-01
-8.234839e-01
-8.182099e-01
-8.129673e-01
-8.077815e-01
-8.026618e-01
-7.976013e-01
-7.925826e-01
-7.875849e-01
-7.825923e-01
-7.775968e-01
-7.725994e-01
-7.676080e-01
-7.626342e-01
-7.576910e-01
-7.527894e-01
-7.479365e-01
-7.431331e-01
-7.383726e-01
-7.336407e-01
-7.289174e-01
-7.241794e-01
-7.194030e-01
-7.145651e-01
-7.096462e-01
-7.046323e-01
-6.995163e-01
-6.942993e-01
-6.889899e-01
-6.836029e-01
-6.781558e-01
-6.726648e-01
-6.671412e-01
-6.615891e-01
-6.560057e-01
-6.503832e-01
-6.447119e-01
-6.389827e-01
-6.331878e-01
-6.273212e-01
-6.213785e-01
-6.153578e-01
-6.092605e-01
-6.030922e-01
-5.968618e-01
-5.905802e-01
-5.842583e-01
-5.779060e-01
-5.715318e-01
-5.651413e-01
-5.587374e-01
-5.523203e-01
-5.458872e-01
-5.394321e-01
-5.329472e-01
-5.264244e-01
-5.198585e-01
-5.132474e-01
-5.065911e-01
-4.998891e-01
-4.931385e-01
-4.863341e-01
-4.794693e-01
-4.725379e-01
-4.655337e-01
-4.584515e-01
-4.512866e-01
-4.440354e-01
-4.366963e-01
-4.292694e-01
-4.217565e-01
-4.141589e-01
-4.064767e-01
-3.987097e-01
-3.908612e-01
-3.829400e-01
-3.749620e-01
-3.669495e-01
-3.589286e-01
-3.509254e-01
-3.429620e-01
-3.350549e-01
-3.272140e-01
-3.194443e-01
-3.117467e-01
-3.041188e-01
-2.965574e-01
-2.890614e-01
-2.816341e-01
-2.742833e-01
-2.670181e-01
-2.598450e-01
-2.527643e-01
-2.457682e-01
-2.388423e-01
-2.319672e-01
-2.251201e-01
-2.182759e-01
-2.114084e-01
-2.044946e-01
-1.975193e-01
-1.904795e-01
-1.833855e-01
-1.762577e-01
-1.691213e-01
-1.620019e-01
-1.549205e-01
-1.478902e-01
-1.409139e-01
-1.339855e-01
-1.270922e-01
-1.202176e-01
-1.133446e-01
-1.064579e-01
-9.954441e-02
-9.259395e-02
-8.559963e-02
-7.855890e-02
-7.147392e-02
-6.435144e-02
-5.720124e-02
-5.003371e-02
-4.285850e-02
-3.568476e-02
-2.852171e-02
-2.137848e-02
-1.426272e-02
-7.178887e-03
-1.281123e-04
6.890471e-03
1.387757e-02
2.083137e-02
2.774620e-02
3.461291e-02
4.142021e-02
4.815589e-02
5.480913e-02
6.137470e-02
6.785681e-02
7.426994e-02
8.063609e-02
8.698041e-02
9.332702e-02
9.969645e-02
1.061045e-01
1.125614e-01
1.190710e-01
1.256310e-01
1.322335e-01
1.388676e-01
1.455218e-01
1.521869e-01
1.588581e-01
1.655357e-01
1.722241e-01
1.789301e-01
1.856606e-01
1.924204e-01
1.992111e-01
2.060298e-01
2.128685e-01
2.197145e-01
2.265525e-01
2.333682e-01
2.401518e-01
2.468984e-01
2.536073e-01
2.602786e-01
2.669104e-01
2.734961e-01
2.800263e-01
2.864914e-01
2.928852e-01
2.992056e-01
3.054531e-01
3.116278e-01
3.177284e-01
3.237535e-01
3.297044e-01
3.355876e-01
3.414154e-01
3.472046e-01
3.529732e-01
3.587373e-01
3.645092e-01
3.702983e-01
3.761122e-01
3.819583e-01
3.878441e-01
3.937760e-01
3.997568e-01
4.057836e-01
4.118484e-01
4.179411e-01
4.240547e-01
4.301867e-01
4.363399e-01
4.425185e-01
4.487245e-01
4.549543e-01
4.611992e-01
4.674483e-01
4.736923e-01
4.799250e-01
4.861425e-01
4.923410e-01
4.985160e-01
5.046641e-01
5.107847e-01
5.168815e-01
5.229624e-01
5.290352e-01
5.351038e-01
5.411654e-01
5.472111e-01
5.532269e-01
5.591963e-01
5.651032e-01
5.709344e-01
5.766817e-01
5.823420e-01
5.879172e-01
5.934133e-01
5.988402e-01
6.042105e-01
6.095380e-01
6.148375e-01
6.201243e-01
6.254129e-01
6.307143e-01
6.360340e-01
6.413716e-01
6.467232e-01
6.520842e-01
6.574515e-01
6.628256e-01
6.682102e-01
6.736100e-01
6.790287e-01
6.844685e-01
6.899304e-01
6.954148e-01
7.009204e-01
7.064440e-01
7.119792e-01
7.175159e-01
7.230404e-01
7.285359e-01
7.339835e-01
7.393645e-01
7.446618e-01
7.498627e-01
7.549605e-01
