EVENT_NAME: EMILIA_2ND_SHOCK
EVENT_ID: IT-2012-0011
EVENT_DATE_YYYYMMDD: 20120529
EVENT_TIME_HHMMSS: 070002
EVENT_LATITUDE_DEGREE: 44.8417
EVENT_LONGITUDE_DEGREE: 11.0657
EVENT_DEPTH_KM: 8.1
HYPOCENTER_REFERENCE: INGV-CNT_Seismic_Bulletin
MAGNITUDE_W: 6.0
MAGNITUDE_W_REFERENCE: RCMT-INGV
MAGNITUDE_L: 5.8
MAGNITUDE_L_REFERENCE: INGV-CNT_Seismic_Bulletin
FOCAL_MECHANISM: TF
NETWORK: IT
STATION_CODE: RAV0
STATION_NAME: RAVARINO
STATION_LATITUDE_DEGREE: 44.715700
STATION_LONGITUDE_DEGREE: 11.142800
STATION_ELEVATION_M: 87
LOCATION: 
SENSOR_DEPTH_M: 0.0
VS30_M/S: 
SITE_CLASSIFICATION_EC8: C*
MORPHOLOGIC_CLASSIFICATION: 
EPICENTRAL_DISTANCE_KM: 15.3
EARTHQUAKE_BACKAZIMUTH_DEGREE: 336.5
DATE_TIME_FIRST_SAMPLE_YYYYMMDD_HHMMSS: 20120529_065933.000
DATE_TIME_FIRST_SAMPLE_PRECISION: seconds
SAMPLING_INTERVAL_S: 0.005000
NDATA: 24001
DURATION_S: 120.005
STREAM: HNN
UNITS: cm
INSTRUMENT: sensor = Episensor FBA ES-T [Kinemetrics] | digitizer = Etna [Kinemetrics]
INSTRUMENT_ANALOG/DIGITAL: D
INSTRUMENTAL_FREQUENCY_HZ: 
INSTRUMENTAL_DAMPING: 
FULL_SCALE_G: 
N_BIT_DIGITAL_CONVERTER: 18
PGD_CM: 4.444718
TIME_PGD_S: 40.210000
BASELINE_CORRECTION: BASELINE REMOVED
FILTER_TYPE: BUTTERWORTH
FILTER_ORDER: 2
LOW_CUT_FREQUENCY_HZ: 0.050
HIGH_CUT_FREQUENCY_HZ: 30.000
LATE/NORMAL_TRIGGERED: NT
DATABASE_VERSION: DYNA 1.0
HEADER_FORMAT: DYNA 1.2
DATA_TYPE: DISPLACEMENT
PROCESSING: manual (Paolucci et al., 2011)
DATA_TIMESTAMP_YYYYMMDD_HHMMSS: 
DATA_LICENSE: CC-BY3_0-IT (http://creativecommons.org/licenses/by/3.0/deed.en)
DATA_CITATION: ESM working group (2015), European Strong-Motion database, version 0.1, Network Activity 3: Networking acceleration networks and SM data users. Project NERA (www.nera-eu.org)
DATA_CREATOR: ESM working group
ORIGINAL_DATA_MEDIATOR_CITATION: Ufficio Rischio Sismico e Vulcanico del Dipartimento della Protezione Civile (http://www.protezionecivile.gov.it/)
ORIGINAL_DATA_MEDIATOR: Rete Accelerometrica Nazionale - RAN Download (http://www.mot1.it/randownload/)
ORIGINAL_DATA_CREATOR_CITATION: Italian Strong Motion Network, Italian Civil Protection Department http://www.protezionecivile.gov.it
ORIGINAL_DATA_CREATOR: network: IT (Italian Strong Motion Network); owner: Dipartimento Della Protezione Civile
USER1: 
USER2: 
USER3: 
USER4: 
USER5: 
[...]
-7.656227e-01
-7.659329e-01
-7.661988e-01
-7.664135e-01
-7.665945e-01
-7.667716e-01
-7.669664e-01
-7.671800e-01
-7.673975e-01
-7.676013e-01
-7.677814e-01
-7.679361e-01
-7.680649e-01
-7.681620e-01
-7.682145e-01
-7.682085e-01
-7.681363e-01
-7.679994e-01
-7.678088e-01
-7.675855e-01
-7.673594e-01
-7.671620e-01
-7.670128e-01
-7.669102e-01
-7.668335e-01
-7.667558e-01
-7.666596e-01
-7.665470e-01
-7.664405e-01
-7.663716e-01
-7.663638e-01
-7.664196e-01
-7.665204e-01
-7.666368e-01
-7.667390e-01
-7.668060e-01
-7.668299e-01
-7.668149e-01
-7.667698e-01
-7.666999e-01
-7.666055e-01
-7.664884e-01
-7.663564e-01
-7.662223e-01
-7.661007e-01
-7.660058e-01
-7.659515e-01
-7.659482e-01
-7.659962e-01
-7.660790e-01
-7.661648e-01
-7.662155e-01
-7.661974e-01
-7.660863e-01
-7.658679e-01
-7.655390e-01
-7.651103e-01
-7.646071e-01
-7.640647e-01
-7.635157e-01
-7.629770e-01
-7.624459e-01
-7.619096e-01
-7.613571e-01
-7.607856e-01
-7.602014e-01
-7.596202e-01
-7.590668e-01
-7.585690e-01
-7.581425e-01
-7.577779e-01
-7.574374e-01
-7.570667e-01
-7.566160e-01
-7.560619e-01
-7.554204e-01
-7.547387e-01
-7.540666e-01
-7.534237e-01
-7.527911e-01
-7.521366e-01
-7.514518e-01
-7.507654e-01
-7.501204e-01
-7.495354e-01
-7.489896e-01
-7.484434e-01
-7.478718e-01
-7.472772e-01
-7.466702e-01
-7.460444e-01
-7.453743e-01
-7.446404e-01
-7.438553e-01
-7.430613e-01
-7.422953e-01
-7.415522e-01
-7.407792e-01
-7.399081e-01
-7.389025e-01
-7.377826e-01
-7.366124e-01
-7.354567e-01
-7.343425e-01
-7.332553e-01
-7.321687e-01
-7.310761e-01
-7.299926e-01
-7.289347e-01
-7.279039e-01
-7.268934e-01
-7.259047e-01
-7.249522e-01
-7.240510e-01
-7.232027e-01
-7.223956e-01
-7.216195e-01
-7.208747e-01
-7.201661e-01
-7.194877e-01
-7.188148e-01
-7.181145e-01
-7.173659e-01
-7.165717e-01
-7.157498e-01
-7.149141e-01
-7.140662e-01
-7.132100e-01
-7.123706e-01
-7.115929e-01
-7.109167e-01
-7.103453e-01
-7.098339e-01
-7.093096e-01
-7.087135e-01
-7.080351e-01
-7.073112e-01
-7.065911e-01
-7.058954e-01
-7.052013e-01
-7.044615e-01
-7.036391e-01
-7.027318e-01
-7.017694e-01
-7.007891e-01
-6.998070e-01
-6.988092e-01
-6.977646e-01
-6.966474e-01
-6.954497e-01
-6.941794e-01
-6.928549e-01
-6.915046e-01
-6.901690e-01
-6.888919e-01
-6.877003e-01
-6.865898e-01
-6.855307e-01
-6.844886e-01
-6.834422e-01
-6.823872e-01
-6.813290e-01
-6.802745e-01
-6.792310e-01
-6.782098e-01
-6.772301e-01
-6.763133e-01
-6.754676e-01
-6.746757e-01
-6.739039e-01
-6.731299e-01
-6.723596e-01
-6.716151e-01
-6.709072e-01
-6.702208e-01
-6.695237e-01
-6.687879e-01
-6.680111e-01
-6.672240e-01
-6.664778e-01
-6.658094e-01
-6.652069e-01
-6.646045e-01
-6.639150e-01
-6.630787e-01
-6.620977e-01
-6.610340e-01
-6.599740e-01
-6.589784e-01
-6.580491e-01
-6.571339e-01
-6.561581e-01
-6.550570e-01
-6.537906e-01
-6.523441e-01
-6.507280e-01
-6.489776e-01
-6.471427e-01
-6.452697e-01
-6.433884e-01
-6.415100e-01
-6.396311e-01
-6.377353e-01
-6.357971e-01
-6.337898e-01
-6.316970e-01
-6.295176e-01
-6.272612e-01
-6.249386e-01
-6.225535e-01
-6.201006e-01
-6.175710e-01
-6.149670e-01
-6.123191e-01
-6.096871e-01
-6.071357e-01
-6.047017e-01
-6.023775e-01
-6.001180e-01
-5.978606e-01
-5.955474e-01
-5.931446e-01
-5.906506e-01
-5.880907e-01
-5.855075e-01
-5.829542e-01
-5.804870e-01
-5.781539e-01
-5.759836e-01
-5.739815e-01
-5.721321e-01
-5.704003e-01
-5.687342e-01
-5.670723e-01
-5.653594e-01
-5.635614e-01
-5.616740e-01
-5.597199e-01
-5.577364e-01
-5.557632e-01
-5.538378e-01
-5.519969e-01
-5.502732e-01
-5.486855e-01
-5.472278e-01
-5.458663e-01
-5.445454e-01
-5.432036e-01
-5.417949e-01
-5.403053e-01
-5.387558e-01
-5.371899e-01
-5.356523e-01
-5.341690e-01
-5.327427e-01
-5.313617e-01
-5.300085e-01
-5.286623e-01
-5.272962e-01
-5.258779e-01
-5.243741e-01
-5.227610e-01
-5.210371e-01
-5.192248e-01
-5.173578e-01
-5.154596e-01
-5.135288e-01
-5.115419e-01
-5.094672e-01
-5.072815e-01
-5.049736e-01
-5.025367e-01
-4.999592e-01
-4.972233e-01
-4.943131e-01
-4.912223e-01
-4.879585e-01
-4.845421e-01
-4.809993e-01
-4.773521e-01
-4.736116e-01
-4.697768e-01
-4.658392e-01
-4.617897e-01
-4.576248e-01
-4.533453e-01
-4.489519e-01
-4.444430e-01
-4.398229e-01
-4.351146e-01
-4.303649e-01
-4.256302e-01
-4.209505e-01
-4.163277e-01
-4.117232e-01
-4.070777e-01
-4.023418e-01
-3.974942e-01
-3.925377e-01
-3.874810e-01
-3.823248e-01
-3.770563e-01
-3.716536e-01
-3.661014e-01
-3.604106e-01
-3.546295e-01
-3.488344e-01
-3.431002e-01
-3.374686e-01
-3.319371e-01
-3.264775e-01
-3.210671e-01
-3.157092e-01
-3.104328e-01
-3.052850e-01
-3.003286e-01
-2.956463e-01
-2.913350e-01
-2.874822e-01
-2.841377e-01
-2.812994e-01
-2.789225e-01
-2.769433e-01
-2.753053e-01
-2.739731e-01
-2.729338e-01
-2.721894e-01
-2.717473e-01
-2.716110e-01
-2.717730e-01
-2.722161e-01
-2.729157e-01
-2.738396e-01
-2.749453e-01
-2.761868e-01
-2.775283e-01
-2.789488e-01
-2.804269e-01
-2.819160e-01
-2.833337e-01
-2.845753e-01
-2.855447e-01
-2.861844e-01
-2.864880e-01
-2.864832e-01
-2.861993e-01
-2.856454e-01
-2.848168e-01
-2.837233e-01
-2.824133e-01
-2.809662e-01
-2.794598e-01
-2.779432e-01
-2.764434e-01
-2.749989e-01
-2.736825e-01
-2.725814e-01
-2.717483e-01
-2.711660e-01
-2.707608e-01
-2.704553e-01
-2.702158e-01
-2.700605e-01
-2.700232e-01
-2.701073e-01
-2.702736e-01
-2.704676e-01
-2.706547e-01
-2.708224e-01
-2.709514e-01
-2.709914e-01
-2.708670e-01
-2.705082e-01
-2.698804e-01
-2.689926e-01
-2.678806e-01
-2.665758e-01
-2.650824e-01
-2.633823e-01
-2.614658e-01
-2.593580e-01
-2.571175e-01
-2.548078e-01
-2.524657e-01
-2.500867e-01
-2.476340e-01
-2.450600e-01
-2.423320e-01
-2.394484e-01
-2.364375e-01
-2.333399e-01
-2.301906e-01
-2.270061e-01
-2.237845e-01
-2.205181e-01
-2.172182e-01
-2.139365e-01
-2.107651e-01
-2.078091e-01
-2.051504e-01
-2.028270e-01
-2.008366e-01
-1.991542e-01
-1.977495e-01
-1.965934e-01
-1.956490e-01
-1.948534e-01
-1.941150e-01
-1.933418e-01
-1.924826e-01
-1.915411e-01
-1.905519e-01
-1.895436e-01
-1.885173e-01
-1.874465e-01
-1.862919e-01
-1.850282e-01
-1.836675e-01
-1.822600e-01
-1.808640e-01
-1.795069e-01
-1.781679e-01
-1.767964e-01
-1.753557e-01
-1.738580e-01
-1.723616e-01
-1.709295e-01
-1.695786e-01
-1.682586e-01
-1.668812e-01
-1.653847e-01
-1.637862e-01
-1.621793e-01
-1.606747e-01
-1.593318e-01
-1.581356e-01
-1.570295e-01
-1.559691e-01
-1.549503e-01
-1.539992e-01
-1.531427e-01
-1.523915e-01
-1.517467e-01
-1.512243e-01
-1.508720e-01
-1.507620e-01
-1.509653e-01
-1.515340e-01
-1.525025e-01
-1.538894e-01
-1.556847e-01
-1.578341e-01
-1.602449e-01
-1.628152e-01
-1.654701e-01
-1.681793e-01
-1.709394e-01
-1.737282e-01
-1.764610e-01
-1.789868e-01
-1.811290e-01
-1.827403e-01
-1.837284e-01
-1.840433e-01
-1.836474e-01
-1.824970e-01
-1.805480e-01
-1.777795e-01
-1.742149e-01
-1.699247e-01
-1.650097e-01
-1.595726e-01
-1.536926e-01
-1.474157e-01
-1.407674e-01
-1.337800e-01
-1.265168e-01
-1.190871e-01
-1.116479e-01
-1.043940e-01
-9.753304e-02
-9.125251e-02
-8.569482e-02
-8.095870e-02
-7.711978e-02
-7.424984e-02
-7.241898e-02
-7.167877e-02
-7.203768e-02
-7.344916e-02
-7.582806e-02
-7.908803e-02
-8.316951e-02
-8.803411e-02
-9.363203e-02
-9.987544e-02
-1.066430e-01
-1.138080e-01
-1.212612e-01
-1.289105e-01
-1.366644e-01
-1.444179e-01
-1.520598e-01
-1.595015e-01
-1.667118e-01
-1.737282e-01
-1.806305e-01
-1.874951e-01
-1.943658e-01
-2.012537e-01
-2.081505e-01
-2.150347e-01
-2.218644e-01
-2.285670e-01
-2.350444e-01
-2.411951e-01
-2.469393e-01
-2.522245e-01
-2.570095e-01
-2.612462e-01
-2.648814e-01
-2.678770e-01
-2.702336e-01
-2.719948e-01
-2.732266e-01
-2.739810e-01
-2.742632e-01
-2.740230e-01
-2.731696e-01
-2.715972e-01
-2.692077e-01
-2.659237e-01
-2.616934e-01
-2.564960e-01
-2.503483e-01
-2.433105e-01
-2.354809e-01
-2.269837e-01
-2.179549e-01
-2.085305e-01
-1.988342e-01
-1.889642e-01
-1.789814e-01
-1.689010e-01
-1.586965e-01
-1.483211e-01
-1.377376e-01
-1.269408e-01
-1.159576e-01
-1.048355e-01
-9.362897e-02
-8.239153e-02
-7.117819e-02
-6.005628e-02
-4.911127e-02
-3.843591e-02
-2.810715e-02
-1.816260e-02
-8.584782e-03
7.033534e-04
9.824190e-03
1.890653e-02
2.803666e-02
3.723231e-02
4.645695e-02
5.565780e-02
6.479678e-02
7.385793e-02
8.283725e-02
9.173188e-02
1.005396e-01
1.092652e-01
1.179236e-01
1.265386e-01
1.351372e-01
1.437397e-01
1.523469e-01
1.609303e-01
1.694351e-01
1.777944e-01
1.859365e-01
1.937811e-01
2.012420e-01
2.082517e-01
2.147933e-01
2.209116e-01
2.266908e-01
2.322196e-01
2.375692e-01
2.427947e-01
2.479510e-01
2.531036e-01
2.583243e-01
2.636756e-01
2.691954e-01
2.748943e-01
2.807671e-01
2.868156e-01
2.930647e-01
2.995538e-01
3.063096e-01
3.133219e-01
3.205468e-01
3.279340e-01
3.354514e-01
3.430875e-01
3.508346e-01
3.586705e-01
3.665541e-01
3.744380e-01
3.822881e-01
3.900976e-01
3.978858e-01
4.056860e-01
4.135281e-01
4.214216e-01
4.293448e-01
4.372476e-01
4.450684e-01
4.527511e-01
4.602476e-01
4.675097e-01
4.744854e-01
4.811338e-01
4.874438e-01
4.934388e-01
4.991673e-01
5.046949e-01
5.101028e-01
5.154825e-01
5.209239e-01
5.265019e-01
5.322728e-01
5.382772e-01
5.445457e-01
5.511042e-01
5.579769e-01
5.651835e-01
5.727291e-01
5.805914e-01
5.887131e-01
5.970088e-01
6.053871e-01
6.137771e-01
6.221442e-01
6.304917e-01
6.388515e-01
6.472702e-01
6.557951e-01
6.644623e-01
6.732908e-01
6.822854e-01
6.914484e-01
7.007964e-01
7.103672e-01
7.202111e-01
7.303695e-01
7.408560e-01
7.516506e-01
7.627101e-01
7.739847e-01
7.854307e-01
7.970173e-01
8.087313e-01
8.205790e-01
8.325834e-01
8.447718e-01
8.571592e-01
8.697358e-01
8.824670e-01
8.953080e-01
9.082242e-01
9.212070e-01
9.342716e-01
9.474437e-01
9.607455e-01
9.741849e-01
9.877450e-01
1.001377e+00
1.015004e+00
1.028543e+00
1.041931e+00
1.055148e+00
1.068217e+00
1.081182e+00
1.094074e+00
1.106900e+00
1.119649e+00
1.132309e+00
1.144883e+00
1.157401e+00
1.169906e+00
1.182438e+00
1.195013e+00
1.207627e+00
1.220262e+00
1.232896e+00
1.245505e+00
1.258069e+00
1.270571e+00
1.283004e+00
1.295379e+00
1.307723e+00
1.320081e+00
1.332501e+00
1.345021e+00
1.357651e+00
1.370385e+00
1.383221e+00
1.396165e+00
1.409223e+00
1.422385e+00
1.435613e+00
1.448853e+00
1.462055e+00
1.475192e+00
1.488273e+00
1.501335e+00
1.514419e+00
1.527558e+00
1.540767e+00
1.554038e+00
1.567339e+00
1.580622e+00
1.593839e+00
1.606966e+00
1.620017e+00
1.633048e+00
1.646137e+00
1.659366e+00
1.672802e+00
1.686491e+00
1.700446e+00
1.714640e+00
1.729018e+00
1.743522e+00
1.758113e+00
1.772789e+00
1.787575e+00
1.802502e+00
1.817580e+00
1.832784e+00
1.848079e+00
1.863446e+00
1.878901e+00
1.894484e+00
1.910232e+00
1.926149e+00
1.942204e+00
1.958343e+00
1.974501e+00
1.990614e+00
2.006619e+00
2.022477e+00
2.038186e+00
2.053795e+00
2.069385e+00
2.085037e+00
2.100792e+00
2.116637e+00
2.132518e+00
2.148359e+00
2.164083e+00
2.179619e+00
2.194895e+00
2.209837e+00
2.224367e+00
2.238428e+00
2.251989e+00
2.265056e+00
2.277659e+00
2.289845e+00
2.301667e+00
2.313190e+00
2.324478e+00
2.335583e+00
2.346532e+00
2.357326e+00
2.367946e+00
2.378366e+00
2.388560e+00
2.398497e+00
2.408143e+00
2.417460e+00
2.426418e+00
2.435004e+00
2.443224e+00
2.451102e+00
2.458666e+00
2.465954e+00
2.473015e+00
2.479915e+00
2.486718e+00
2.493471e+00
2.500201e+00
2.506910e+00
2.513588e+00
2.520211e+00
2.526751e+00
2.533181e+00
2.539492e+00
2.545696e+00
2.551820e+00
2.557892e+00
2.563921e+00
2.569909e+00
2.575876e+00
2.581880e+00
2.588012e+00
2.594362e+00
2.600977e+00
2.607851e+00
2.614945e+00
2.622223e+00
2.629674e+00
2.637299e+00
2.645094e+00
2.653035e+00
2.661085e+00
2.669218e+00
2.677438e+00
2.685782e+00
2.694319e+00
2.703138e+00
2.712340e+00
2.722031e+00
2.732312e+00
2.743286e+00
2.755055e+00
2.767715e+00
2.781352e+00
2.796042e+00
2.811854e+00
2.828846e+00
2.847064e+00
2.866536e+00
2.887273e+00
2.909279e+00
2.932554e+00
2.957095e+00
2.982897e+00
3.009946e+00
3.038228e+00
3.067726e+00
3.098435e+00
3.130368e+00
3.163551e+00
3.198001e+00
3.233700e+00
3.270566e+00
3.308463e+00
3.347222e+00
3.386666e+00
3.426626e+00
3.466935e+00
3.507415e+00
3.547873e+00
3.588101e+00
3.627900e+00
3.667094e+00
3.705550e+00
3.743178e+00
3.779921e+00
3.815743e+00
3.850610e+00
3.884483e+00
3.917320e+00
3.949080e+00
3.979716e+00
4.009173e+00
4.037387e+00
4.064306e+00
4.089898e+00
4.114157e+00
4.137085e+00
4.158684e+00
4.178938e+00
4.197840e+00
4.215406e+00
4.231701e+00
4.246831e+00
4.260925e+00
4.274108e+00
4.286486e+00
4.298147e+00
4.309173e+00
4.319655e+00
4.329675e+00
4.339293e+00
4.348522e+00
4.357333e+00
4.365667e+00
4.373473e+00
4.380725e+00
4.387438e+00
4.393658e+00
4.399435e+00
4.404802e+00
4.409777e+00
4.414376e+00
4.418631e+00
4.422596e+00
4.426320e+00
4.429828e+00
4.433108e+00
4.436116e+00
4.438794e+00
4.441073e+00
4.442878e+00
4.444124e+00
4.444718e+00
4.444577e+00
4.443636e+00
4.441849e+00
4.439185e+00
4.435613e+00
4.431101e+00
4.425617e+00
4.419136e+00
4.411636e+00
4.403093e+00
4.393466e+00
4.382697e+00
4.370734e+00
4.357541e+00
4.343109e+00
4.327444e+00
4.310550e+00
4.292420e+00
4.273037e+00
4.252378e+00
4.230423e+00
4.207149e+00
4.182539e+00
4.156576e+00
4.129254e+00
4.100568e+00
4.070513e+00
4.039079e+00
4.006262e+00
3.972078e+00
3.936572e+00
3.899817e+00
3.861903e+00
3.822914e+00
3.782914e+00
3.741947e+00
3.700059e+00
3.657312e+00
3.613809e+00
3.569677e+00
3.525053e+00
3.480065e+00
3.434829e+00
3.389459e+00
3.344094e+00
3.298899e+00
3.254065e+00
3.209790e+00
3.166269e+00
3.123689e+00
3.082232e+00
3.042084e+00
3.003425e+00
2.966419e+00
2.931193e+00
2.897831e+00
2.866383e+00
2.836882e+00
2.809361e+00
2.783854e+00
2.760389e+00
2.738975e+00
2.719604e+00
2.702249e+00
2.686872e+00
2.673421e+00
2.661842e+00
2.652078e+00
2.644082e+00
2.637811e+00
2.633220e+00
2.630251e+00
2.628834e+00
2.628894e+00
2.630362e+00
2.633196e+00
2.637378e+00
2.642916e+00
2.649821e+00
2.658089e+00
2.667685e+00
2.678542e+00
2.690572e+00
2.703679e+00
2.717767e+00
2.732743e+00
2.748522e+00
2.765022e+00
2.782171e+00
2.799903e+00
2.818152e+00
2.836864e+00
2.856000e+00
2.875538e+00
2.895472e+00
2.915802e+00
2.936530e+00
2.957670e+00
2.979246e+00
3.001303e+00
3.023897e+00
3.047081e+00
3.070885e+00
3.095306e+00
3.120315e+00
3.145864e+00
3.171900e+00
3.198367e+00
3.225204e+00
3.252347e+00
3.279724e+00
3.307255e+00
3.334848e+00
3.362398e+00
3.389786e+00
3.416901e+00
3.443650e+00
3.469972e+00
3.495832e+00
3.521218e+00
3.546135e+00
3.570605e+00
3.594669e+00
3.618390e+00
3.641847e+00
3.665122e+00
3.688282e+00
3.711364e+00
3.734383e+00
3.757339e+00
3.780224e+00
3.803021e+00
3.825691e+00
3.848164e+00
3.870337e+00
3.892068e+00
3.913194e+00
3.933542e+00
3.952945e+00
3.971260e+00
3.988369e+00
4.004180e+00
4.018625e+00
4.031649e+00
4.043215e+00
4.053295e+00
4.061880e+00
4.068976e+00
4.074605e+00
4.078800e+00
4.081588e+00
4.082994e+00
4.083041e+00
4.081757e+00
4.079180e+00
4.075365e+00
4.070375e+00
4.064274e+00
4.057127e+00
4.048996e+00
4.039946e+00
4.030047e+00
4.019366e+00
4.007959e+00
3.995856e+00
3.983067e+00
3.969586e+00
3.955408e+00
3.940526e+00
3.924936e+00
3.908631e+00
3.891602e+00
3.873839e+00
3.855341e+00
3.836114e+00
3.816175e+00
3.795544e+00
3.774249e+00
3.752315e+00
3.729766e+00
3.706618e+00
3.682880e+00
3.658559e+00
3.633671e+00
3.608237e+00
3.582285e+00
3.555829e+00
3.528868e+00
3.501388e+00
3.473379e+00
3.444847e+00
3.415822e+00
3.386356e+00
3.356505e+00
3.326316e+00
3.295812e+00
3.264998e+00
3.233870e+00
3.202419e+00
3.170636e+00
3.138504e+00
3.105985e+00
3.073022e+00
3.039542e+00
3.005475e+00
2.970766e+00
2.935380e+00
2.899302e+00
2.862529e+00
2.825064e+00
2.786906e+00
2.748059e+00
2.708528e+00
2.668320e+00
2.627434e+00
2.585860e+00
2.543584e+00
2.500599e+00
2.456906e+00
2.412515e+00
2.367436e+00
2.321681e+00
2.275263e+00
2.228213e+00
2.180589e+00
2.132485e+00
2.084019e+00
2.035319e+00
1.986505e+00
1.937692e+00
1.888999e+00
1.840562e+00
1.792532e+00
1.745067e+00
1.698321e+00
1.652444e+00
1.607577e+00
1.563861e+00
1.521425e+00
1.480381e+00
1.440820e+00
1.402810e+00
1.366396e+00
1.331605e+00
1.298448e+00
1.266920e+00
1.237003e+00
1.208669e+00
1.181881e+00
1.156606e+00
1.132819e+00
1.110509e+00
1.089670e+00
1.070300e+00
1.052374e+00
1.035839e+00
1.020601e+00
1.006531e+00
9.934802e-01
9.812870e-01
9.697932e-01
9.588442e-01
9.482896e-01
9.379863e-01
9.278034e-01
9.176273e-01
9.073604e-01
8.969159e-01
8.862121e-01
8.751753e-01
8.637516e-01
8.519158e-01
8.396693e-01
8.270247e-01
8.139886e-01
8.005529e-01
7.866925e-01
7.723695e-01
7.575401e-01
7.421660e-01
7.262248e-01
7.097122e-01
6.926333e-01
6.749908e-01
6.567742e-01
6.379544e-01
6.184846e-01
5.983070e-01
5.773581e-01
5.555748e-01
5.328958e-01
5.092623e-01
4.846195e-01
4.589172e-01
4.321101e-01
4.041588e-01
3.750323e-01
3.447184e-01
3.132371e-01
2.806552e-01
2.470933e-01
2.127208e-01
1.777360e-01
1.423401e-01
1.067181e-01
7.103443e-02
3.543556e-02
5.157160e-05
-3.500885e-02
-6.966671e-02
-1.038777e-01
-1.376292e-01
-1.709324e-01
-2.038107e-01
-2.362899e-01
-2.683894e-01
-3.001225e-01
-3.315047e-01
-3.625660e-01
-3.933597e-01
-4.239618e-01
-4.544601e-01
-4.849425e-01
-5.154883e-01
-5.461680e-01
-5.770465e-01
-6.081852e-01
-6.396416e-01
-6.714653e-01
-7.036938e-01
-7.363506e-01
-7.694474e-01
-8.029896e-01
-8.369750e-01
-8.713831e-01
-9.061560e-01
-9.411830e-01
-9.763014e-01
-1.011318e+00
-1.046038e+00
-1.080285e+00
-1.113907e+00
-1.146776e+00
-1.178790e+00
-1.209879e+00
-1.240005e+00
-1.269162e+00
-1.297370e+00
-1.324676e+00
-1.351141e+00
-1.376840e+00
-1.401851e+00
-1.426251e+00
-1.450103e+00
-1.473449e+00
-1.496300e+00
-1.518637e+00
-1.540414e+00
-1.561570e+00
-1.582042e+00
-1.601773e+00
-1.620715e+00
-1.638827e+00
-1.656076e+00
-1.672435e+00
-1.687889e+00
-1.702450e+00
-1.716153e+00
-1.729069e+00
-1.741291e+00
-1.752928e+00
-1.764089e+00
-1.774879e+00
-1.785392e+00
-1.795723e+00
-1.805959e+00
-1.816172e+00
-1.826405e+00
-1.836654e+00
-1.846872e+00
-1.856982e+00
-1.866896e+00
-1.876537e+00
-1.885845e+00
-1.894767e+00
-1.903254e+00
-1.911268e+00
-1.918792e+00
-1.925848e+00
-1.932494e+00
-1.938820e+00
-1.944927e+00
-1.950918e+00
-1.956889e+00
-1.962929e+00
-1.969121e+00
-1.975543e+00
-1.982261e+00
-1.989328e+00
-1.996783e+00
-2.004655e+00
