EVENT_NAME: EMILIA_2ND_SHOCK
EVENT_ID: IT-2012-0011
EVENT_DATE_YYYYMMDD: 20120529
EVENT_TIME_HHMMSS: 070002
EVENT_LATITUDE_DEGREE: 44.8417
EVENT_LONGITUDE_DEGREE: 11.0657
EVENT_DEPTH_KM: 8.1
HYPOCENTER_REFERENCE: INGV-CNT_Seismic_Bulletin
MAGNITUDE_W: 6.0
MAGNITUDE_W_REFERENCE: RCMT-INGV
MAGNITUDE_L: 5.8
MAGNITUDE_L_REFERENCE: INGV-CNT_Seismic_Bulletin
FOCAL_MECHANISM: TF
NETWORK: IT
STATION_CODE: RAV0
STATION_NAME: RAVARINO
STATION_LATITUDE_DEGREE: 44.715700
STATION_LONGITUDE_DEGREE: 11.142800
STATION_ELEVATION_M: 87
LOCATION: 
SENSOR_DEPTH_M: 0.0
VS30_M/S: 
SITE_CLASSIFICATION_EC8: C*
MORPHOLOGIC_CLASSIFICATION: 
EPICENTRAL_DISTANCE_KM: 15.3
EARTHQUAKE_BACKAZIMUTH_DEGREE: 336.5
DATE_TIME_FIRST_SAMPLE_YYYYMMDD_HHMMSS: 20120529_065933.000
DATE_TIME_FIRST_SAMPLE_PRECISION: seconds
SAMPLING_INTERVAL_S: 0.005000
NDATA: 24001
DURATION_S: 120.005
STREAM: HNE
UNITS: cm/s^2
INSTRUMENT: sensor = Episensor FBA ES-T [Kinemetrics] | digitizer = Etna [Kinemetrics]
INSTRUMENT_ANALOG/DIGITAL: D
INSTRUMENTAL_FREQUENCY_HZ: 
INSTRUMENTAL_DAMPING: 
FULL_SCALE_G: 
N_BIT_DIGITAL_CONVERTER: 18
PGA_CM/S^2: -57.606127
TIME_PGA_S: 40.595000
BASELINE_CORRECTION: BASELINE REMOVED
FILTER_TYPE: BUTTERWORTH
FILTER_ORDER: 2
LOW_CUT_FREQUENCY_HZ: 0.050
HIGH_CUT_FREQUENCY_HZ: 30.000
LATE/NORMAL_TRIGGERED: NT
DATABASE_VERSION: DYNA 1.0
HEADER_FORMAT: DYNA 1.2
DATA_TYPE: ACCELERATION
PROCESSING: manual (Paolucci et al., 2011)
DATA_TIMESTAMP_YYYYMMDD_HHMMSS: 
DATA_LICENSE: CC-BY3_0-IT (http://creativecommons.org/licenses/by/3.0/deed.en)
DATA_CITATION: ESM working group (2015), European Strong-Motion database, version 0.1, Network Activity 3: Networking acceleration networks and SM data users. Project NERA (www.nera-eu.org)
DATA_CREATOR: ESM working group
ORIGINAL_DATA_MEDIATOR_CITATION: Ufficio Rischio Sismico e Vulcanico del Dipartimento della Protezione Civile (http://www.protezionecivile.gov.it/)
ORIGINAL_DATA_MEDIATOR: Rete Accelerometrica Nazionale - RAN Download (http://www.mot1.it/randownload/)
ORIGINAL_DATA_CREATOR_CITATION: Italian Strong Motion Network, Italian Civil Protection Department http://www.protezionecivile.gov.it
ORIGINAL_DATA_CREATOR: network: IT (Italian Strong Motion Network); owner: Dipartimento Della Protezione Civile
USER1: 
USER2: 
USER3: 
USER4: 
USER5: 
[...]
0.288126
0.168329
0.126096
0.201829
0.427708
0.752218
0.935991
0.686673
-0.000732
-0.729359
-1.036874
-0.831068
-0.440860
-0.250873
-0.326424
-0.410957
-0.259683
0.075096
0.294175
0.152476
-0.279717
-0.620097
-0.463514
0.272302
1.227654
1.794137
1.517269
0.409636
-1.102139
-2.424326
-2.988638
-2.487087
-1.123908
0.407556
1.364844
1.521251
1.273310
1.176859
1.450275
1.852627
1.951979
1.527494
0.699682
-0.248309
-1.075558
-1.670388
-1.995273
-2.006967
-1.709363
-1.243712
-0.813620
-0.419260
0.242441
1.325877
2.345615
2.475888
1.377376
-0.406481
-1.866578
-2.267911
-1.587499
-0.452775
0.341691
0.459248
0.256851
0.313752
0.764535
1.209516
1.211338
0.758435
0.231757
-0.003414
0.070022
0.137322
-0.136464
-0.767392
-1.412388
-1.684351
-1.448420
-0.839932
-0.153465
0.311961
0.457269
0.435118
0.443580
0.513336
0.524148
0.350447
-0.057420
-0.641737
-1.196534
-1.415538
-1.089042
-0.298584
0.592679
1.173234
1.256724
0.991585
0.725454
0.708369
0.870525
0.906182
0.616089
0.148513
-0.156890
-0.170870
-0.120398
-0.273077
-0.585398
-0.758495
-0.577148
-0.126954
0.280051
0.360260
0.073011
-0.386913
-0.795191
-1.090265
-1.352219
-1.595818
-1.647576
-1.284084
-0.479369
0.502050
1.253359
1.496324
1.264595
0.856619
0.588363
0.549163
0.590515
0.521507
0.277545
-0.055368
-0.331853
-0.464090
-0.452182
-0.319177
-0.054080
0.356103
0.819692
1.092897
0.924400
0.294751
-0.515366
-1.125768
-1.321339
-1.145382
-0.798048
-0.454393
-0.165508
0.077869
0.244395
0.259648
0.097833
-0.132273
-0.240900
-0.125880
0.144176
0.422028
0.620703
0.734915
0.753320
0.612874
0.259214
-0.270203
-0.826691
-1.215566
-1.305863
-1.102507
-0.726857
-0.330252
-0.025423
0.124148
0.111009
0.012687
-0.020431
0.132838
0.436942
0.689984
0.674085
0.331064
-0.168762
-0.514293
-0.483331
-0.130754
0.269824
0.467030
0.402909
0.175250
-0.083632
-0.255300
-0.260579
-0.109570
0.098756
0.237514
0.209672
-0.009883
-0.335640
-0.586123
-0.604543
-0.408804
-0.198804
-0.164672
-0.294366
-0.401816
-0.309762
0.011527
0.420975
0.691997
0.676190
0.423896
0.128692
-0.051450
-0.111040
-0.148483
-0.214651
-0.231104
-0.070830
0.287236
0.691341
0.919251
0.852444
0.546607
0.164582
-0.137203
-0.315468
-0.474936
-0.741480
-1.082744
-1.303915
-1.223853
-0.836685
-0.313319
0.133548
0.380757
0.421820
0.319193
0.174437
0.106890
0.174424
0.314664
0.401368
0.347199
0.156355
-0.089483
-0.290763
-0.395230
-0.422922
-0.433353
-0.462383
-0.494340
-0.480563
-0.359342
-0.092271
0.272791
0.577315
0.629806
0.357808
-0.088413
-0.392200
-0.296186
0.157650
0.605256
0.627639
0.114725
-0.608905
-1.052719
-0.991204
-0.644025
-0.427881
-0.541122
-0.803815
-0.862791
-0.519246
0.103552
0.667669
0.891740
0.745581
0.409603
0.077250
-0.168594
-0.309091
-0.294598
-0.051319
0.403796
0.886445
1.130272
0.979531
0.522015
0.029813
-0.266419
-0.357679
-0.395809
-0.469806
-0.498044
-0.342472
0.000753
0.307958
0.275817
-0.158396
-0.697365
-0.948909
-0.786337
-0.420937
-0.150688
-0.090487
-0.137211
-0.136029
-0.044290
0.057240
0.080007
0.042338
0.052976
0.156524
0.249602
0.207350
0.050402
-0.059822
0.024631
0.306508
0.645192
0.854195
0.789915
0.408753
-0.184864
-0.765799
-1.125509
-1.182921
-0.965663
-0.559298
-0.107359
0.217035
0.322444
0.277638
0.222624
0.204276
0.153807
0.017462
-0.159249
-0.304418
-0.421120
-0.559168
-0.713235
-0.799226
-0.724079
-0.470065
-0.130265
0.157302
0.335618
0.452988
0.544347
0.532421
0.288058
-0.188403
-0.675915
-0.886148
-0.718603
-0.344147
-0.021789
0.137204
0.167462
0.068980
-0.246022
-0.790962
-1.349904
-1.565269
-1.220135
-0.441136
0.349636
0.685263
0.353409
-0.430247
-1.110748
-1.166982
-0.545999
0.251456
0.586256
0.249293
-0.340351
-0.527986
-0.079113
0.553740
0.672770
0.068777
-0.721069
-0.959930
-0.518122
-0.028361
-0.188963
-1.004078
-1.773341
-1.776841
-0.939883
0.122693
0.662947
0.415775
-0.238335
-0.636532
-0.407095
0.210948
0.607165
0.404961
-0.174943
-0.581493
-0.523392
-0.221252
-0.087329
-0.251613
-0.455284
-0.366218
0.064805
0.588127
0.972275
1.266074
1.687225
2.274451
2.738399
2.703952
2.096339
1.289625
0.788524
0.675042
0.490482
-0.228413
-1.407687
-2.464357
-2.770325
-2.137324
-0.983057
-0.034410
0.202757
-0.211025
-0.740769
-0.838636
-0.378525
0.303185
0.718246
0.600889
0.084182
-0.443035
-0.659912
-0.525977
-0.252174
-0.098075
-0.138002
-0.221697
-0.220187
-0.259229
-0.580292
-1.179371
-1.726886
-1.894115
-1.682919
-1.377649
-1.229670
-1.246167
-1.227479
-0.977982
-0.522838
-0.122853
-0.028373
-0.173311
-0.169836
0.270345
0.922751
1.214761
0.876629
0.307632
0.173664
0.727887
1.636680
2.348553
2.479147
1.942352
0.962706
0.030970
-0.353922
-0.053792
0.620154
1.150534
1.102997
0.366961
-0.697790
-1.454612
-1.490224
-0.936366
-0.255846
0.264142
0.697714
1.174777
1.575436
1.623288
1.189935
0.410725
-0.446269
-1.126621
-1.433600
-1.276962
-0.777345
-0.248643
0.018670
-0.037412
-0.266022
-0.480685
-0.559052
-0.447692
-0.256908
-0.310674
-0.879158
-1.838041
-2.705093
-3.033658
-2.753371
-2.097802
-1.286235
-0.446370
0.272611
0.717438
0.783238
0.405820
-0.361470
-1.255539
-1.906900
-2.071797
-1.768152
-1.200918
-0.552286
0.114835
0.736639
1.166362
1.314355
1.260530
1.143428
1.010051
0.789447
0.361021
-0.333702
-1.164821
-1.823008
-2.042023
-1.795236
-1.274753
-0.717351
-0.266476
0.004380
0.052498
-0.054874
-0.113939
0.051732
0.407454
0.740545
0.895030
0.917592
0.960159
1.128568
1.402100
1.608610
1.518758
1.037437
0.326594
-0.277736
-0.535486
-0.519013
-0.524784
-0.750114
-1.084111
-1.236515
-1.045974
-0.633869
-0.277687
-0.187607
-0.398581
-0.781264
-1.104414
-1.145965
-0.819762
-0.239097
0.321962
0.570229
0.396951
-0.021142
-0.380305
-0.534792
-0.619701
-0.915887
-1.575600
-2.430113
-3.064441
-3.105637
-2.498499
-1.579440
-0.839332
-0.518648
-0.464534
-0.398029
-0.195794
0.116499
0.478860
0.812193
0.982277
0.835824
0.365795
-0.164857
-0.398255
-0.223409
0.123643
0.316658
0.278077
0.257182
0.538455
1.053628
1.382869
1.247307
0.895142
0.874415
1.512390
2.671182
3.892717
4.741437
5.094121
5.141406
5.146959
5.253898
5.488835
5.861444
6.398941
7.129235
8.057703
9.078302
9.903588
10.179957
9.768117
8.947402
8.249571
8.014378
8.140786
8.211745
7.781587
6.683324
5.190880
3.809487
2.849656
2.189512
1.411214
0.232469
-1.137474
-2.162417
-2.570304
-2.745475
-3.480383
-5.245546
-7.637978
-9.634559
-10.473216
-10.290933
-9.926222
-10.098029
-10.714110
-10.924043
-9.904673
-7.706540
-5.254144
-3.402139
-2.117643
-0.704814
1.288584
3.537004
5.249238
5.835326
5.295509
4.183703
3.226110
2.817561
2.788221
2.636069
2.003931
0.974407
-0.022838
-0.535649
-0.352694
0.447898
1.554642
2.489307
2.778800
2.213409
0.957134
-0.607307
-2.123442
-3.406109
-4.482748
-5.525390
-6.650674
-7.701927
-8.241511
-7.902177
-6.788185
-5.413088
-4.246800
-3.409348
-2.754640
-2.083238
-1.260187
-0.360387
0.244735
0.213433
-0.254267
-0.436651
0.301099
2.055030
4.475137
7.003076
9.014835
10.077637
10.229311
9.984221
10.008884
10.598698
11.344281
11.369067
10.014939
7.410781
4.438793
2.120510
0.863618
0.121894
-1.169030
-3.611613
-6.698613
-9.205730
-10.274178
-10.119068
-9.736240
-9.946797
-10.712338
-11.337737
-11.179648
-10.096433
-8.416635
-6.619241
-4.980480
-3.419699
-1.696779
0.176634
1.817727
2.853693
3.315914
3.563143
3.885161
4.262581
4.486091
4.483822
4.548388
5.205989
6.766703
8.939158
10.950386
12.115277
12.262137
11.666817
10.715872
9.634919
8.419700
6.940612
5.119491
3.050930
1.003808
-0.683206
-1.774053
-2.301572
-2.618455
-3.247631
-4.645828
-7.067777
-10.476125
-14.443543
-18.203436
-20.956976
-22.295216
-22.383715
-21.754959
-20.927811
-20.060345
-18.852213
-16.922262
-14.337458
-11.677995
-9.577603
-8.199485
-7.094337
-5.561754
-3.222896
-0.262414
2.900207
6.070111
9.381146
13.080921
17.189533
21.232679
24.277157
25.347897
24.123310
21.326557
18.189922
15.476739
13.095880
10.561739
7.723206
5.012614
3.040870
2.060015
1.807603
1.804646
1.800723
1.925933
2.383664
3.045340
3.413093
2.960039
1.537916
-0.480745
-2.483438
-4.038791
-5.033070
-5.514722
-5.545753
-5.197169
-4.574858
-3.794175
-2.969482
-2.237985
-1.727025
-1.506027
-1.660372
-2.346886
-3.666584
-5.512013
-7.514115
-9.135981
-9.994013
-10.165569
-10.095944
-10.226579
-10.742490
-11.526973
-12.304268
-12.910101
-13.437874
-14.125459
-15.104135
-16.251057
-17.225864
-17.590691
-16.968826
-15.162409
-12.238579
-8.632762
-5.115731
-2.478404
-1.004087
-0.243253
0.512439
1.552590
2.576301
3.095391
2.925539
2.324917
1.747560
1.509270
1.664401
2.058509
2.465004
2.771628
3.032471
3.313984
3.502071
3.281274
2.410414
1.086206
-0.059515
-0.401587
0.203100
1.345654
2.478693
3.413637
4.428003
5.886842
7.780713
9.639514
10.845585
11.047287
10.357059
9.247299
8.259281
7.670256
7.308222
6.712451
5.582053
4.098383
2.793942
2.105119
2.052339
2.299213
2.420158
2.145708
1.464154
0.519111
-0.579965
-1.832054
-3.247855
-4.738645
-6.135932
-7.264976
-7.954360
-8.024849
-7.392005
-6.250805
-5.053124
-4.167005
-3.592344
-3.101362
-2.588177
-2.136941
-1.790488
-1.433358
-0.942545
-0.330808
0.314717
0.943008
1.530181
2.032348
2.414275
2.694629
2.897097
2.963068
2.777360
2.308450
1.724969
1.345133
1.413535
1.938151
2.766597
3.743344
4.730896
5.542001
5.941166
5.751690
4.992265
3.905821
2.804249
1.850264
0.977885
0.004498
-1.164513
-2.381849
-3.337385
-3.848238
-3.992849
-3.900442
-3.514971
-2.665398
-1.320710
0.275803
1.699318
2.550330
2.603397
1.870265
0.596421
-0.873642
-2.271732
-3.415943
-4.128748
-4.302180
-4.065488
-3.768794
-3.705757
-3.859095
-3.932729
-3.634667
-2.971990
-2.280671
-1.935688
-2.030470
-2.327100
-2.477754
-2.292465
-1.852278
-1.414952
-1.165794
-1.008462
-0.645941
0.121360
1.244666
2.550064
3.907934
5.255591
6.519974
7.598652
8.425970
8.974508
9.146073
8.741960
7.686032
6.301423
5.178287
4.650931
4.508300
4.237925
3.460784
2.195546
0.818338
-0.247115
-0.830931
-1.056283
-1.164961
-1.328996
-1.625158
-2.141359
-2.991562
-4.165484
-5.363935
-6.057299
-5.854659
-4.853704
-3.568631
-2.536906
-2.021104
-1.999206
-2.328483
-2.863679
-3.438695
-3.816206
-3.712887
-2.936565
-1.611374
-0.280135
0.389774
0.165299
-0.509601
-0.894688
-0.577111
0.228775
0.945649
1.193555
1.049662
0.794679
0.548406
0.212334
-0.265604
-0.644557
-0.495618
0.408276
1.789487
2.975810
3.398080
3.009296
2.243773
1.651197
1.534907
1.805050
2.132071
2.285998
2.337971
2.532891
3.039947
3.856378
4.885923
6.074498
7.464060
9.092799
10.834802
12.379146
13.437068
13.948736
14.024433
13.735324
13.023744
11.822145
10.262075
8.720911
7.613197
7.114361
7.055911
7.099016
7.041468
6.963142
7.070058
7.395892
7.706510
7.711216
7.274645
6.411890
5.158853
3.479419
1.330080
-1.169898
-3.695799
-5.893365
-7.585421
-8.805312
-9.633414
-9.972010
-9.518426
-8.077529
-5.931380
-3.832528
-2.579211
-2.536024
-3.473125
-4.829450
-6.185095
-7.548948
-9.201208
-11.257570
-13.448227
-15.338144
-16.666389
-17.437265
-17.774645
-17.767359
-17.437656
-16.783031
-15.813626
-14.564956
-13.086741
-11.424069
-9.600753
-7.624717
-5.531620
-3.409343
-1.349552
0.642699
2.666725
4.790897
6.923437
8.877803
10.533355
11.892978
13.017704
13.945080
14.617580
14.786776
13.956170
11.505410
7.045851
0.792802
-6.398646
-13.449316
-19.605940
-24.680531
-28.870043
-32.380875
-35.158119
-36.881966
-37.184383
-35.937168
-33.407902
-30.113146
-26.442905
-22.423439
-17.878502
-12.754223
-7.276695
-1.926101
2.757604
6.525675
9.661888
12.825169
16.561991
20.879879
25.155577
28.443596
30.136122
30.411554
29.956573
29.395226
29.020592
28.804310
28.495813
27.802937
26.592134
24.957108
23.118679
21.247549
19.381004
17.515432
15.741067
14.290558
13.480258
13.548063
14.491495
16.034216
17.727268
19.151197
20.143200
20.857042
21.535154
22.199549
22.611771
22.568613
22.200592
21.929241
22.152447
22.958380
24.100405
25.258728
26.291248
27.214500
28.049797
28.742809
29.162724
29.172991
28.758425
28.064594
27.278976
26.492338
25.694296
24.877277
24.124657
23.597864
23.402960
23.461954
23.559507
23.527905
23.361080
23.146912
22.917559
22.583708
22.015625
21.164749
20.078930
18.821407
17.406483
15.825570
14.143141
12.547324
11.290986
10.578572
10.445667
10.676065
10.857734
10.605559
9.799779
8.620112
7.332861
6.050923
4.676829
3.031147
1.047708
-1.117503
-3.135019
-4.676475
-5.621779
-6.112192
-6.390727
-6.610620
-6.769573
-6.784127
-6.639276
-6.519443
-6.810057
-7.913572
-10.015241
-13.008817
-16.598391
-20.442335
-24.255524
-27.850874
-31.128647
-34.062523
-36.712364
-39.204090
-41.637791
-44.016098
-46.273861
-48.353176
-50.237614
-51.935387
-53.449524
-54.770195
-55.881947
-56.756203
-57.345257
-57.606129
-57.549683
-57.275948
-56.938141
-56.644218
-56.368687
-55.943935
-55.154247
-53.856262
-52.020470
-49.682011
-46.872711
-43.598225
-39.860771
-35.689972
-31.159262
-26.395399
-21.574928
-16.876377
-12.411493
-8.200320
-4.190682
-0.301641
3.496732
7.095550
10.239021
12.653954
14.245165
15.167133
15.648837
15.734267
15.235573
13.916524
11.688832
8.689363
5.217449
1.602447
-1.853251
-4.859954
-7.195834
-8.805804
-9.802153
-10.333980
-10.433004
-9.998922
-8.918956
-7.157902
-4.774252
-1.917540
1.192223
4.307222
7.213270
9.815503
12.188294
14.519967
16.972504
19.551722
22.085190
24.317440
26.054909
27.269056
28.091169
28.705069
29.209328
29.550228
29.579561
29.191904
28.409451
27.323549
25.995731
24.451197
22.732025
20.940697
19.253473
17.891346
17.055649
16.874016
17.409927
18.683758
20.619116
22.992134
25.475214
27.712500
29.388277
30.314823
30.471535
29.921375
28.691322
26.765184
24.196304
21.183695
17.989229
14.792580
11.671261
8.693767
5.982578
3.703235
1.989077
0.847806
0.153319
-0.272534
-0.585769
-0.893247
-1.259483
-1.724185
-2.281051
-2.829552
-3.188100
-3.199539
-2.848090
-2.259595
-1.562555
-0.753829
0.294670
1.709048
3.469997
5.340444
6.937063
7.914396
8.108755
7.556488
6.408352
4.805789
2.804743
0.384507
-2.470245
-5.663537
-8.954074
-12.041533
-14.709996
-16.922533
-18.808048
-20.567938
-22.372387
-24.281755
-26.223457
-28.061954
-29.695627
-31.075035
-32.153957
-32.845936
-33.045609
-32.710514
-31.906218
-30.736677
-29.192381
-27.047604
-23.946089
-19.652065
-14.267338
-8.244749
-2.178936
3.484618
8.600231
13.248817
17.545591
21.480974
24.913792
27.713217
29.879551
31.514357
32.722824
33.556313
33.988655
33.933357
33.310539
32.085548
30.247128
27.803473
24.809069
21.357107
17.564417
13.597239
9.682089
6.045475
2.806938
-0.086989
-2.820637
-5.599541
-8.540527
-11.604255
-14.631109
-17.457676
-19.979483
-22.128933
-23.852589
-25.094774
-25.788597
-25.933699
-25.719061
-25.517601
-25.715855
-26.497318
-27.712229
-28.944118
-29.719442
-29.647697
-28.435066
-25.889996
-21.988802
-16.940489
-11.142808
-5.066455
0.836050
6.184713
10.700425
14.211481
16.590113
17.638020
17.077620
14.718461
10.656921
5.350016
-0.463886
-6.007637
-10.744223
-14.462281
-17.179789
-18.991522
-19.954662
-20.096392
-19.468515
-18.118498
-16.008204
-13.039318
-9.265725
-5.066501
-0.991846
2.566158
5.506176
7.912938
9.919803
11.632158
13.109585
14.414678
15.664380
16.970900
18.309179
19.479099
20.175529
20.072750
18.939936
16.754810
13.732088
10.291267
6.948899
4.117935
1.962905
0.402856
-0.805527
-1.953274
-3.279861
-4.915926
-6.867706
-9.087040
-11.559944
-14.295912
-17.261530
-20.318638
-23.151545
-25.273563
-26.195751
-25.577635
-23.235199
-19.171389
-13.717682
-7.611987
-1.817021
2.838252
5.920361
7.426221
7.627871
6.835692
5.245237
2.951536
0.054765
-3.248529
-6.634379
-9.695835
-12.072471
-13.604215
-14.389324
-14.719010
-14.919221
-15.173800
-15.502920
-15.898218
-16.419554
-17.198599
-18.379820
-19.994272
-21.847429
-23.513226
-24.442146
-24.186541
-22.662220
-20.210470
-17.358473
-14.515661
-11.851728
-9.317137
-6.712450
-3.821325
-0.569050
2.907111
6.332546
9.467824
12.267904
14.895161
17.533155
20.178019
22.652153
24.801479
26.624504
28.225317
29.700581
31.072662
32.277039
33.195248
33.731674
33.866848
33.600117
32.846455
31.447803
29.303295
26.463343
23.099669
19.438847
15.739773
12.267964
9.242818
6.791155
4.934650
3.621738
2.769363
2.270319
1.984012
1.764780
1.520661
1.251009
1.022464
0.899572
0.933890
1.214630
1.848106
2.860742
4.126677
5.339476
6.034335
5.709467
4.034281
1.022529
-2.986869
-7.535748
-12.216437
-16.682865
-20.642881
-23.899368
-26.335960
-27.869043
-28.441223
-28.015099
-26.582821
-24.246895
-21.283880
-18.070744
-14.915384
-11.950176
-9.178052
-6.594440
-4.266618
-2.321030
-0.843351
0.204256
0.954438
1.548582
2.070393
2.523797
2.845123
2.930643
2.676541
2.010578
0.896534
-0.672005
-2.651785
-4.909629
-7.219226
-9.303016
-10.905290
-11.888930
-12.285481
-12.254371
-11.992540
-11.658948
-11.354966
-11.152251
-11.114217
-11.272978
-11.634176
-12.229999
-13.107322
-14.257866
-15.576973
-16.874903
-17.943409
-18.636513
-18.907997
-18.771746
-18.202967
-17.093842
-15.320599
-12.843106
-9.777607
-6.409463
-3.104906
-0.165376
2.255402
4.123456
5.456606
6.257747
6.476333
6.065990
5.081925
3.703955
2.183357
0.752400
-0.433302
-1.263856
-1.639970
-1.497909
-0.829978
0.325362
1.884745
3.724559
5.726083
7.817332
9.950699
12.043355
13.937889
15.418794
16.289694
16.456928
15.959229
14.955283
13.692554
12.442286
11.422381
10.756643
10.468826
10.497714
10.749937
11.173997
11.786007
12.616200
13.619589
14.630604
15.424435
15.852417
15.931490
15.800457
15.602041
15.415047
15.256956
15.121750
15.024485
15.015035
15.145292
15.424173
15.827395
16.338263
16.943815
17.608786
18.270559
18.850327
19.266846
19.447891
19.344915
18.941433
18.242235
17.269590
16.067616
14.680072
13.134263
11.465984
9.732139
7.974595
6.186268
4.321868
2.338942
0.233928
-1.954981
-4.155988
-6.272124
-8.199853
-9.831664
-11.059454
-11.808158
-12.072781
-11.930931
-11.527559
-11.046458
-10.682621
-10.607999
-10.923769
-11.620656
-12.572424
-13.577269
-14.449207
-15.112664
-15.622031
-16.080345
-16.524660
-16.889053
-17.089609
-17.133465
-17.133654
-17.226919
-17.460283
-17.741346
-17.897865
-17.778088
-17.311651
-16.504135
-15.374897
-13.874872
