EVENT_NAME: EMILIA_2ND_SHOCK
EVENT_ID: IT-2012-0011
EVENT_DATE_YYYYMMDD: 20120529
EVENT_TIME_HHMMSS: 070002
EVENT_LATITUDE_DEGREE: 44.8417
EVENT_LONGITUDE_DEGREE: 11.0657
EVENT_DEPTH_KM: 8.1
HYPOCENTER_REFERENCE: INGV-CNT_Seismic_Bulletin
MAGNITUDE_W: 6.0
MAGNITUDE_W_REFERENCE: RCMT-INGV
MAGNITUDE_L: 5.8
MAGNITUDE_L_REFERENCE: INGV-CNT_Seismic_Bulletin
FOCAL_MECHANISM: TF
NETWORK: IT
STATION_CODE: SMS0
STATION_NAME: SAN MARTINO SPINO
STATION_LATITUDE_DEGREE: 44.934000
STATION_LONGITUDE_DEGREE: 11.235000
STATION_ELEVATION_M: 55
LOCATION: 
SENSOR_DEPTH_M: 0.0
VS30_M/S: 
SITE_CLASSIFICATION_EC8: C*
MORPHOLOGIC_CLASSIFICATION: 
EPICENTRAL_DISTANCE_KM: 16.9
EARTHQUAKE_BACKAZIMUTH_DEGREE: 232.6
DATE_TIME_FIRST_SAMPLE_YYYYMMDD_HHMMSS: 20120529_065933.000
DATE_TIME_FIRST_SAMPLE_PRECISION: seconds
SAMPLING_INTERVAL_S: 0.005000
NDATA: 32001
DURATION_S: 160.005
STREAM: HNZ
UNITS: cm/s
INSTRUMENT: sensor = Episensor FBA ES-T [Kinemetrics] | digitizer = Etna [Kinemetrics]
INSTRUMENT_ANALOG/DIGITAL: D
INSTRUMENTAL_FREQUENCY_HZ: 
INSTRUMENTAL_DAMPING: 
FULL_SCALE_G: 
N_BIT_DIGITAL_CONVERTER: 18
PGV_CM/S: 3.035774
TIME_PGV_S: 38.745000
BASELINE_CORRECTION: BASELINE REMOVED
FILTER_TYPE: BUTTERWORTH
FILTER_ORDER: 2
LOW_CUT_FREQUENCY_HZ: 0.040
HIGH_CUT_FREQUENCY_HZ: 40.000
LATE/NORMAL_TRIGGERED: NT
DATABASE_VERSION: DYNA 1.0
HEADER_FORMAT: DYNA 1.2
DATA_TYPE: VELOCITY
PROCESSING: manual (Paolucci et al., 2011)
DATA_TIMESTAMP_YYYYMMDD_HHMMSS: 
DATA_LICENSE: CC-BY3_0-IT (http://creativecommons.org/licenses/by/3.0/deed.en)
DATA_CITATION: ESM working group (2015), European Strong-Motion database, version 0.1, Network Activity 3: Networking acceleration networks and SM data users. Project NERA (www.nera-eu.org)
DATA_CREATOR: ESM working group
ORIGINAL_DATA_MEDIATOR_CITATION: Ufficio Rischio Sismico e Vulcanico del Dipartimento della Protezione Civile (http://www.protezionecivile.gov.it/)
ORIGINAL_DATA_MEDIATOR: Rete Accelerometrica Nazionale - RAN Download (http://www.mot1.it/randownload/)
ORIGINAL_DATA_CREATOR_CITATION: Italian Strong Motion Network, Italian Civil Protection Department http://www.protezionecivile.gov.it
ORIGINAL_DATA_CREATOR: network: IT (Italian Strong Motion Network); owner: Dipartimento Della Protezione Civile
USER1: 
USER2: 
USER3: 
USER4: 
USER5: 
[...]
-0.004272
-0.004284
-0.004282
-0.004295
-0.004310
-0.004290
-0.004261
-0.004270
-0.004288
-0.004264
-0.004233
-0.004257
-0.004305
-0.004313
-0.004306
-0.004340
-0.004388
-0.004403
-0.004408
-0.004439
-0.004470
-0.004476
-0.004487
-0.004521
-0.004544
-0.004540
-0.004540
-0.004557
-0.004563
-0.004548
-0.004524
-0.004478
-0.004417
-0.004395
-0.004451
-0.004571
-0.004713
-0.004823
-0.004851
-0.004798
-0.004733
-0.004708
-0.004712
-0.004722
-0.004746
-0.004774
-0.004770
-0.004738
-0.004710
-0.004669
-0.004580
-0.004485
-0.004452
-0.004459
-0.004445
-0.004420
-0.004416
-0.004398
-0.004337
-0.004297
-0.004331
-0.004399
-0.004467
-0.004569
-0.004712
-0.004833
-0.004913
-0.005002
-0.005106
-0.005174
-0.005204
-0.005241
-0.005291
-0.005323
-0.005344
-0.005366
-0.005368
-0.005341
-0.005315
-0.005298
-0.005263
-0.005212
-0.005177
-0.005159
-0.005140
-0.005132
-0.005140
-0.005140
-0.005123
-0.005134
-0.005180
-0.005201
-0.005192
-0.005202
-0.005236
-0.005243
-0.005226
-0.005242
-0.005287
-0.005314
-0.005337
-0.005387
-0.005440
-0.005460
-0.005475
-0.005519
-0.005557
-0.005557
-0.005560
-0.005594
-0.005621
-0.005618
-0.005630
-0.005661
-0.005661
-0.005629
-0.005616
-0.005620
-0.005600
-0.005573
-0.005593
-0.005641
-0.005657
-0.005646
-0.005650
-0.005669
-0.005673
-0.005673
-0.005696
-0.005731
-0.005761
-0.005792
-0.005822
-0.005828
-0.005822
-0.005843
-0.005882
-0.005905
-0.005915
-0.005930
-0.005943
-0.005937
-0.005937
-0.005966
-0.005992
-0.005979
-0.005934
-0.005870
-0.005798
-0.005762
-0.005818
-0.005955
-0.006078
-0.006122
-0.006110
-0.006091
-0.006081
-0.006082
-0.006111
-0.006151
-0.006157
-0.006129
-0.006122
-0.006151
-0.006167
-0.006143
-0.006117
-0.006118
-0.006133
-0.006150
-0.006175
-0.006200
-0.006200
-0.006178
-0.006165
-0.006166
-0.006158
-0.006127
-0.006091
-0.006073
-0.006067
-0.006069
-0.006089
-0.006123
-0.006142
-0.006134
-0.006120
-0.006125
-0.006144
-0.006158
-0.006170
-0.006190
-0.006201
-0.006198
-0.006204
-0.006228
-0.006240
-0.006220
-0.006205
-0.006231
-0.006282
-0.006325
-0.006364
-0.006412
-0.006454
-0.006461
-0.006453
-0.006468
-0.006501
-0.006521
-0.006532
-0.006548
-0.006560
-0.006552
-0.006539
-0.006542
-0.006551
-0.006550
-0.006542
-0.006539
-0.006536
-0.006526
-0.006512
-0.006505
-0.006504
-0.006503
-0.006512
-0.006545
-0.006593
-0.006625
-0.006640
-0.006659
-0.006692
-0.006721
-0.006726
-0.006721
-0.006723
-0.006733
-0.006737
-0.006730
-0.006723
-0.006716
-0.006701
-0.006692
-0.006702
-0.006713
-0.006709
-0.006707
-0.006730
-0.006761
-0.006764
-0.006741
-0.006730
-0.006735
-0.006741
-0.006750
-0.006777
-0.006797
-0.006779
-0.006735
-0.006708
-0.006721
-0.006779
-0.006883
-0.007002
-0.007086
-0.007109
-0.007107
-0.007133
-0.007187
-0.007239
-0.007286
-0.007334
-0.007365
-0.007357
-0.007320
-0.007282
-0.007251
-0.007221
-0.007207
-0.007231
-0.007281
-0.007344
-0.007450
-0.007646
-0.007949
-0.008333
-0.008783
-0.009309
-0.009891
-0.010484
-0.011096
-0.011810
-0.012725
-0.013920
-0.015452
-0.017309
-0.019361
-0.021412
-0.023359
-0.025253
-0.027214
-0.029316
-0.031607
-0.034169
-0.036986
-0.039788
-0.042244
-0.044347
-0.046373
-0.048446
-0.050443
-0.052331
-0.054299
-0.056598
-0.059436
-0.062685
-0.065532
-0.066965
-0.066842
-0.065889
-0.064260
-0.061033
-0.056011
-0.051225
-0.049895
-0.054223
-0.063429
-0.072510
-0.073977
-0.064252
-0.050423
-0.047603
-0.063851
-0.087957
-0.098034
-0.082741
-0.049955
-0.018420
-0.008185
-0.032328
-0.083637
-0.131185
-0.142367
-0.110390
-0.058047
-0.018554
-0.014013
-0.046207
-0.097061
-0.134393
-0.131794
-0.095077
-0.061223
-0.059951
-0.080324
-0.089692
-0.084134
-0.092293
-0.118612
-0.123661
-0.088565
-0.055397
-0.067276
-0.104790
-0.118811
-0.101653
-0.085077
-0.080064
-0.064518
-0.031267
-0.008468
-0.023913
-0.074469
-0.135857
-0.178428
-0.173181
-0.114579
-0.039947
-0.004691
-0.038251
-0.123382
-0.207304
-0.236022
-0.190769
-0.103988
-0.040306
-0.044673
-0.103445
-0.167135
-0.201513
-0.196486
-0.148456
-0.073549
-0.019283
-0.024297
-0.078493
-0.141259
-0.180547
-0.183640
-0.151023
-0.097586
-0.052394
-0.043163
-0.073802
-0.113631
-0.119482
-0.084076
-0.050114
-0.061825
-0.118439
-0.182208
-0.213997
-0.197598
-0.144580
-0.083960
-0.048661
-0.064148
-0.124691
-0.175279
-0.154955
-0.076969
-0.028629
-0.068597
-0.157884
-0.212103
-0.193755
-0.134021
-0.080462
-0.054020
-0.056087
-0.078047
-0.099560
-0.105691
-0.099029
-0.083853
-0.059977
-0.043035
-0.063450
-0.121965
-0.167137
-0.142983
-0.053115
0.029785
0.018986
-0.107957
-0.273131
-0.353834
-0.295433
-0.163666
-0.076505
-0.092400
-0.164841
-0.201606
-0.161115
-0.079518
-0.020929
-0.026729
-0.097126
-0.189303
-0.237570
-0.206064
-0.129075
-0.080500
-0.099621
-0.159163
-0.194332
-0.147095
-0.008698
0.159310
0.264116
0.247051
0.115816
-0.054666
-0.161447
-0.152667
-0.060707
0.047953
0.124162
0.142415
0.099288
0.021222
-0.044934
-0.066212
-0.044616
-0.000267
0.047296
0.074208
0.062917
0.033969
0.028095
0.043384
0.038138
0.005371
-0.012143
0.003034
0.013154
-0.004696
-0.019328
-0.000630
0.034910
0.051728
0.046552
0.053167
0.090593
0.135085
0.159905
0.168737
0.173596
0.167228
0.129543
0.054338
-0.024505
-0.047070
0.004369
0.075678
0.108173
0.100004
0.078988
0.057170
0.036414
0.024089
0.020948
0.018383
0.018497
0.032698
0.053694
0.047786
-0.009794
-0.092160
-0.136188
-0.113777
-0.060253
-0.021387
-0.006601
-0.001269
0.006404
0.017153
0.024287
0.027472
0.045202
0.094280
0.154244
0.181800
0.162826
0.128622
0.124270
0.164684
0.218919
0.244995
0.233506
0.207613
0.193038
0.197771
0.212685
0.223507
0.222593
0.212728
0.202810
0.200337
0.200124
0.180140
0.128712
0.073903
0.055739
0.078082
0.117689
0.159579
0.195274
0.209534
0.194445
0.165849
0.149630
0.150818
0.147106
0.122907
0.096173
0.093733
0.111474
0.113699
0.071115
-0.004672
-0.071940
-0.103985
-0.112279
-0.123711
-0.147526
-0.172096
-0.183248
-0.171863
-0.133570
-0.078910
-0.034429
-0.016883
-0.013853
-0.001215
0.024252
0.040326
0.032102
0.016970
0.024540
0.061746
0.107811
0.135119
0.130790
0.105269
0.081235
0.072758
0.076205
0.079061
0.075561
0.068955
0.063074
0.066287
0.088659
0.118500
0.127209
0.109617
0.092984
0.095174
0.096082
0.065887
0.004701
-0.063221
-0.121136
-0.167290
-0.196117
-0.190401
-0.142560
-0.075412
-0.027221
-0.017706
-0.036318
-0.056639
-0.055397
-0.026749
0.013474
0.040082
0.037376
0.009578
-0.020614
-0.030020
-0.021577
-0.025356
-0.062845
-0.117967
-0.154699
-0.154841
-0.127403
-0.093998
-0.077366
-0.091406
-0.128650
-0.160500
-0.157955
-0.118283
-0.073583
-0.063615
-0.092469
-0.124958
-0.132527
-0.124515
-0.128071
-0.151803
-0.175107
-0.175394
-0.161345
-0.157060
-0.157859
-0.138962
-0.107827
-0.105946
-0.146606
-0.187412
-0.185914
-0.152605
-0.126491
-0.122661
-0.125519
-0.118933
-0.102798
-0.085784
-0.079946
-0.097722
-0.136783
-0.175736
-0.200645
-0.222079
-0.251765
-0.282608
-0.306055
-0.329722
-0.365122
-0.408147
-0.443525
-0.468757
-0.499651
-0.550498
-0.621581
-0.697687
-0.748132
-0.743873
-0.686786
-0.613470
-0.562968
-0.546822
-0.554076
-0.571265
-0.582321
-0.566007
-0.524625
-0.497581
-0.512980
-0.552374
-0.586039
-0.604011
-0.601434
-0.576425
-0.550136
-0.558258
-0.614199
-0.689454
-0.739308
-0.749757
-0.740608
-0.728206
-0.724888
-0.757664
-0.832677
-0.899045
-0.894673
-0.819713
-0.737910
-0.710603
-0.758100
-0.878112
-1.042624
-1.171522
-1.178948
-1.058769
-0.884969
-0.746318
-0.706646
-0.778487
-0.894840
-0.951486
-0.910461
-0.827838
-0.770176
-0.743528
-0.716467
-0.682113
-0.674032
-0.722743
-0.812481
-0.899252
-0.952485
-0.953039
-0.893286
-0.804081
-0.732064
-0.684599
-0.642519
-0.615663
-0.630764
-0.672519
-0.691568
-0.666730
-0.621566
-0.592484
-0.612711
-0.701944
-0.833512
-0.935996
-0.948482
-0.864370
-0.738007
-0.659121
-0.693712
-0.826358
-0.961848
-0.996944
-0.905497
-0.771270
-0.727241
-0.824805
-0.970825
-1.026926
-0.951801
-0.823255
-0.748218
-0.767847
-0.831042
-0.855278
-0.813178
-0.748478
-0.728441
-0.799283
-0.950651
-1.108734
-1.197225
-1.205968
-1.185006
-1.182059
-1.196041
-1.187213
-1.115684
-0.970133
-0.785189
-0.631341
-0.561049
-0.558488
-0.560558
-0.528434
-0.475881
-0.430526
-0.395139
-0.357089
-0.326148
-0.335799
-0.394055
-0.461213
-0.482365
-0.426948
-0.318582
-0.237659
-0.272484
-0.443897
-0.661658
-0.780581
-0.736803
-0.606860
-0.516608
-0.533118
-0.641792
-0.771517
-0.840094
-0.804882
-0.680876
-0.536342
-0.466290
-0.516983
-0.634816
-0.724217
-0.745912
-0.736348
-0.736176
-0.725697
-0.655610
-0.525034
-0.390636
-0.307895
-0.301408
-0.370807
-0.471532
-0.518965
-0.474781
-0.396356
-0.351556
-0.335363
-0.311393
-0.283927
-0.298716
-0.396012
-0.552320
-0.654786
-0.584485
-0.358381
-0.143693
-0.104975
-0.256456
-0.464529
-0.569779
-0.492588
-0.257879
0.030007
0.247115
0.327016
0.297211
0.236781
0.195840
0.166880
0.122570
0.050258
-0.037435
-0.092013
-0.042987
0.126156
0.308559
0.348820
0.214687
0.039866
-0.015516
0.082804
0.220579
0.248891
0.126272
-0.046559
-0.126618
-0.051936
0.131934
0.346033
0.552254
0.747649
0.917510
1.026008
1.057134
1.050719
1.061922
1.089769
1.094213
1.053235
0.960316
0.828856
0.719624
0.690738
0.716333
0.713512
0.659051
0.626248
0.670884
0.740332
0.749976
0.691559
0.625122
0.614467
0.691077
0.831455
0.941472
0.920237
0.789405
0.689903
0.694631
0.715370
0.656202
0.566578
0.569429
0.685605
0.796723
0.787939
0.685106
0.618949
0.669157
0.779491
0.841885
0.833087
0.818442
0.838823
0.863229
0.861516
0.869384
0.953058
1.130567
1.352899
1.554879
1.700643
1.791864
1.852818
1.904365
1.959695
2.026695
2.079800
2.053373
1.905950
1.689021
1.508846
1.415797
1.376352
1.334970
1.253645
1.116681
0.949229
0.831531
0.837722
0.934559
1.013319
1.036070
1.046714
1.047484
0.980580
0.823629
0.626993
0.466296
0.397412
0.438521
0.546556
0.610149
0.527826
0.325425
0.154703
0.143833
0.265294
0.373020
0.352671
0.204108
0.013871
-0.114782
-0.142376
-0.116180
-0.105977
-0.138982
-0.171202
-0.104750
0.108435
0.399015
0.686650
0.964106
1.206782
1.326158
1.254813
1.005176
0.657349
0.315635
0.061610
-0.095010
-0.235437
-0.442707
-0.702080
-0.935491
-1.074291
-1.070236
-0.917086
-0.679534
-0.443202
-0.242145
-0.063659
0.101127
0.237768
0.322403
0.345375
0.331433
0.311462
0.283035
0.239042
0.192155
0.144872
0.090995
0.045800
0.021268
0.007181
0.036495
0.188023
0.454368
0.715500
0.888686
0.982026
0.991511
0.871631
0.629240
0.376435
0.253919
0.311416
0.483635
0.668070
0.789288
0.807082
0.731307
0.642236
0.635624
0.718852
0.799466
0.781703
0.641432
0.424827
0.203184
0.029190
-0.064553
-0.056484
0.035163
0.133967
0.155515
0.077921
-0.040345
-0.107211
-0.078679
0.005897
0.083453
0.141286
0.207051
0.279894
0.327891
0.364239
0.451599
0.598649
0.714669
0.711989
0.605861
0.468530
0.336654
0.216770
0.123958
0.042184
-0.086395
-0.251254
-0.332601
-0.248062
-0.061769
0.114005
0.231809
0.258877
0.123898
-0.191576
-0.582021
-0.917413
-1.145942
-1.230793
-1.096927
-0.748728
-0.343197
-0.061053
0.038144
0.018241
-0.031473
-0.089075
-0.198815
-0.390520
-0.640965
-0.918011
-1.209311
-1.482143
-1.658484
-1.662955
-1.475070
-1.154704
-0.840988
-0.674943
-0.692563
-0.804178
-0.886710
-0.900758
-0.904562
-0.947923
-0.997228
-0.992059
-0.914568
-0.783962
-0.624844
-0.442756
-0.238754
-0.044044
0.098314
0.185600
0.245836
0.284629
0.294407
0.292734
0.318776
0.386961
0.433857
0.368360
0.212446
0.121433
0.203497
0.390871
0.561287
0.684217
0.774822
0.811265
0.783364
0.755810
0.800205
0.893457
0.925230
0.804523
0.567178
0.350365
0.225034
0.134578
0.050550
0.048630
0.166108
0.330342
0.484291
0.655237
0.850685
0.991697
0.986605
0.812996
0.536933
0.277354
0.112748
0.011952
-0.115789
-0.307750
-0.501873
-0.607866
-0.609677
-0.564102
-0.519993
-0.505057
-0.553422
-0.660210
-0.745862
-0.729848
-0.612487
-0.453515
-0.307860
-0.203634
-0.151747
-0.161223
-0.219653
-0.259855
-0.207559
-0.060569
0.113791
0.234685
0.236732
0.097792
-0.093486
-0.155869
0.021401
0.357015
0.630868
0.653090
0.401288
0.024019
-0.251511
-0.243582
0.060069
0.465002
0.709565
0.693312
0.529359
0.352454
0.192487
0.069455
0.038930
0.087326
0.112913
0.051692
-0.030474
-0.000192
0.191908
0.452010
0.660144
0.813035
0.984601
1.179067
1.323719
1.368287
1.300135
1.131404
0.946574
0.860196
0.863006
0.820429
0.661653
0.451800
0.263167
0.119141
0.057247
0.076164
0.068470
-0.015420
-0.016665
0.251781
0.739171
1.192487
1.414452
1.408684
1.289941
1.139237
0.985562
0.848832
0.746317
0.679494
0.625844
0.565816
0.517789
0.527568
0.639163
0.861271
1.156059
1.478039
1.781447
2.002627
2.120514
2.206434
2.347689
2.556865
2.778560
2.949105
3.035774
3.031565
2.954652
2.853837
2.751035
2.595988
2.318594
1.899204
1.400692
0.963793
0.745091
0.823792
1.144868
1.524824
1.745496
1.708993
1.504819
1.324761
1.310392
1.463263
1.687506
1.865751
1.897926
1.748692
1.476737
1.195322
1.006741
0.970528
1.092473
1.319454
1.561242
1.729066
1.772043
1.696052
1.547983
1.385957
1.249045
1.117192
0.923888
0.650730
0.368733
0.169539
0.107054
0.198243
0.414894
0.652099
0.755664
0.638813
0.357406
0.024527
-0.297737
-0.567132
-0.722569
-0.745574
-0.698400
-0.660535
-0.631279
-0.526167
-0.286327
0.043493
0.361886
0.614247
0.810010
0.938132
0.931572
0.727662
0.326434
-0.194724
-0.688568
-0.972419
-0.940762
-0.701760
-0.519440
-0.563362
-0.775213
-0.987581
-1.115943
-1.200164
-1.282162
-1.325566
-1.273728
-1.132927
-0.984514
-0.915028
-0.920622
-0.908401
-0.812970
-0.652428
-0.455614
-0.211490
0.097605
0.443328
0.729279
0.856480
0.836081
0.795173
0.858845
1.038911
1.226836
1.301203
1.233956
1.083930
0.944000
0.919797
1.089437
1.421951
1.767089
1.973625
2.009073
1.963379
1.945673
1.987390
2.055937
2.123554
2.196318
2.281581
2.331843
2.259053
2.041879
1.804057
1.717552
1.799529
1.882665
1.812718
1.609250
1.412223
1.316447
1.300561
1.268467
1.106577
0.788708
0.469622
0.374463
0.559554
0.851812
1.039047
1.048202
0.937489
0.809568
0.742046
0.728360
0.671549
0.477175
0.153299
-0.207999
-0.526548
-0.784552
-0.993973
-1.149838
-1.243819
-1.278649
-1.234300
-1.078332
-0.830346
-0.578943
-0.416475
-0.349496
-0.290732
-0.157350
0.037600
0.206113
0.291392
0.335369
0.427586
0.597842
0.791019
0.940874
1.029070
1.072773
1.080296
1.044129
0.966127
0.839546
0.631034
0.338183
0.038040
-0.158823
-0.185440
-0.034983
0.259088
0.620150
0.951159
1.206331
1.410605
1.594134
1.736608
1.776984
1.663510
1.401202
1.063396
0.759875
0.578919
0.538904
0.578649
0.600912
0.553620
0.466888
0.403758
0.389270
0.381895
0.309158
0.148159
-0.025166
-0.090205
0.008730
0.224389
0.468742
0.697933
0.925353
1.160624
1.377811
1.532146
1.584771
1.537790
1.440808
1.340691
1.248133
1.163123
1.083237
0.985804
0.855324
0.708204
0.558410
0.394312
0.203595
-0.007033
-0.210760
-0.350026
-0.351952
-0.206053
-0.012564
0.089943
0.039242
-0.121108
-0.302208
-0.433626
-0.473530
-0.377096
-0.092142
0.365406
0.845464
1.128029
1.076301
0.739506
0.322112
0.065752
0.120473
0.435691
0.779342
0.937025
0.876462
0.698420
0.488717
0.243609
-0.091247
-0.517562
-0.927723
-1.169294
-1.167389
-0.988300
-0.783359
-0.677291
-0.717056
-0.874031
-1.066798
-1.207737
-1.214725
-1.009906
-0.595523
-0.117543
0.228667
0.363765
0.355172
0.307049
0.270808
0.245458
0.224952
0.239654
0.336729
0.511184
0.698586
0.848706
0.970655
1.113565
1.310760
1.519742
1.644811
1.638020
1.532605
1.380009
1.213349
1.065485
0.963147
0.908463
0.921227
1.066287
1.347784
1.613006
1.666964
1.468790
1.152244
0.881065
0.733482
0.688953
0.667080
0.576465
0.354350
-0.004552
-0.428727
-0.782854
-0.941025
-0.866670
-0.621349
-0.321279
-0.062290
0.155761
0.413064
0.764221
1.162239
1.500688
1.699320
1.715852
1.554654
1.339853
1.297845
1.542547
1.903563
2.083986
1.952054
1.591008
1.146276
0.717595
0.373692
0.175283
0.121893
0.127870
0.084028
-0.063701
-0.268910
-0.413877
-0.395903
-0.202363
0.073198
0.297538
0.406447
0.441435
0.460490
0.455467
0.399073
0.315187
0.251286
0.217342
0.178427
0.083864
-0.109301
-0.404214
-0.732718
-1.007216
-1.211722
-1.395785
-1.609904
-1.878037
-2.189855
-2.497076
-2.738036
-2.873457
-2.888550
-2.762335
-2.461419
-1.998069
-1.476305
-1.027234
-0.709514
-0.502973
-0.358289
-0.214709
-0.021818
0.198758
0.343711
0.318791
0.134575
-0.095449
-0.245378
-0.254551
-0.145215
-0.007492
0.062971
0.058467
0.071473
0.198747
0.451096
0.751810
1.002251
1.141796
1.150715
1.028139
0.800812
0.535619
0.311991
0.163927
0.042159
-0.136834
-0.390611
-0.640267
-0.789900
-0.829995
-0.841361
-0.899314
-0.999031
-1.086215
-1.134350
-1.148630
-1.134593
-1.104967
-1.077689
-1.065969
-1.057404
-0.981246
-0.768054
-0.451307
-0.148100
0.048430
0.143384
0.219435
0.334763
0.454560
0.497642
0.426976
0.267271
0.060864
-0.144890
-0.292915
-0.343596
-0.297552
-0.188410
-0.066282
0.018925
0.038314
0.003229
-0.036599
-0.030404
0.032854
0.131525
0.251060
0.393790
0.553032
0.709138
0.855140
1.003772
1.167517
1.334299
1.459312
1.493177
1.430994
1.331790
1.276304
1.292505
1.331943
1.325549
1.240913
1.087096
0.898477
0.719518
0.579135
0.470069
0.366416
0.258779
0.158536
0.085250
0.067150
0.130287
0.269451
0.444923
0.604498
0.689730
0.649498
0.482052
0.242772
-0.009466
-0.260067
-0.524559
-0.793059
-1.003677
-1.086816
-1.031015
-0.892211
-0.750741
-0.681068
-0.740047
-0.935402
-1.211512
-1.485912
-1.682695
-1.753862
-1.713948
-1.647614
-1.652625
-1.743211
-1.822424
-1.798035
-1.696339
-1.620302
-1.631112
-1.694125
-1.723612
-1.663632
-1.526166
-1.363533
-1.212268
-1.069069
-0.920207
-0.787893
-0.736871
-0.829889
-1.067053
-1.361785
-1.602209
-1.731608
-1.761537
-1.756615
-1.806719
-1.968208
-2.217588
-2.464410
-2.620157
-2.658821
-2.617127
-2.552472
-2.491042
-2.406311
-2.260552
-2.057902
-1.845528
-1.682960
-1.606040
-1.586980
-1.536075
-1.386592
-1.167870
-0.951043
-0.761164
-0.583564
-0.403340
-0.208721
0.005996
0.223302
0.401446
0.497583
0.491236
0.385856
0.203190
-0.013691
-0.207260
-0.320948
-0.311784
-0.177343
0.021806
0.195503
0.292724
0.327466
0.337400
0.330856
0.292410
0.234273
0.201832
0.228333
