EVENT_NAME: EMILIA_2ND_SHOCK
EVENT_ID: IT-2012-0011
EVENT_DATE_YYYYMMDD: 20120529
EVENT_TIME_HHMMSS: 070002
EVENT_LATITUDE_DEGREE: 44.8417
EVENT_LONGITUDE_DEGREE: 11.0657
EVENT_DEPTH_KM: 8.1
HYPOCENTER_REFERENCE: INGV-CNT_Seismic_Bulletin
MAGNITUDE_W: 6.0
MAGNITUDE_W_REFERENCE: RCMT-INGV
MAGNITUDE_L: 5.8
MAGNITUDE_L_REFERENCE: INGV-CNT_Seismic_Bulletin
FOCAL_MECHANISM: TF
NETWORK: IT
STATION_CODE: SAG0
STATION_NAME: SANT AGOSTINO
STATION_LATITUDE_DEGREE: 44.791000
STATION_LONGITUDE_DEGREE: 11.390400
STATION_ELEVATION_M: 66
LOCATION: 
SENSOR_DEPTH_M: 0.0
VS30_M/S: 
SITE_CLASSIFICATION_EC8: C*
MORPHOLOGIC_CLASSIFICATION: 
EPICENTRAL_DISTANCE_KM: 26.3
EARTHQUAKE_BACKAZIMUTH_DEGREE: 282.5
DATE_TIME_FIRST_SAMPLE_YYYYMMDD_HHMMSS: 20120529_065943.000
DATE_TIME_FIRST_SAMPLE_PRECISION: seconds
SAMPLING_INTERVAL_S: 0.005000
NDATA: 30001
DURATION_S: 150.005
STREAM: HNN
UNITS: cm
INSTRUMENT: sensor = Episensor FBA ES-T [Kinemetrics] | digitizer = Etna [Kinemetrics]
INSTRUMENT_ANALOG/DIGITAL: D
INSTRUMENTAL_FREQUENCY_HZ: 
INSTRUMENTAL_DAMPING: 
FULL_SCALE_G: 
N_BIT_DIGITAL_CONVERTER: 18
PGD_CM: 1.651858
TIME_PGD_S: 38.195000
BASELINE_CORRECTION: BASELINE REMOVED
FILTER_TYPE: BUTTERWORTH
FILTER_ORDER: 2
LOW_CUT_FREQUENCY_HZ: 0.050
HIGH_CUT_FREQUENCY_HZ: 35.000
LATE/NORMAL_TRIGGERED: NT
DATABASE_VERSION: DYNA 1.0
HEADER_FORMAT: DYNA 1.2
DATA_TYPE: DISPLACEMENT
PROCESSING: manual (Paolucci et al., 2011)
DATA_TIMESTAMP_YYYYMMDD_HHMMSS: 
DATA_LICENSE: CC-BY3_0-IT (http://creativecommons.org/licenses/by/3.0/deed.en)
DATA_CITATION: ESM working group (2015), European Strong-Motion database, version 0.1, Network Activity 3: Networking acceleration networks and SM data users. Project NERA (www.nera-eu.org)
DATA_CREATOR: ESM working group
ORIGINAL_DATA_MEDIATOR_CITATION: Ufficio Rischio Sismico e Vulcanico del Dipartimento della Protezione Civile (http://www.protezionecivile.gov.it/)
ORIGINAL_DATA_MEDIATOR: Rete Accelerometrica Nazionale - RAN Download (http://www.mot1.it/randownload/)
ORIGINAL_DATA_CREATOR_CITATION: Italian Strong Motion Network, Italian Civil Protection Department http://www.protezionecivile.gov.it
ORIGINAL_DATA_CREATOR: network: IT (Italian Strong Motion Network); owner: Dipartimento Della Protezione Civile
USER1: 
USER2: 
USER3: 
USER4: 
USER5: 
[...]
-6.151248e-01
-6.087975e-01
-6.022179e-01
-5.954679e-01
-5.886415e-01
-5.818408e-01
-5.751691e-01
-5.687211e-01
-5.625735e-01
-5.567764e-01
-5.513496e-01
-5.462840e-01
-5.415469e-01
-5.370903e-01
-5.328594e-01
-5.288021e-01
-5.248773e-01
-5.210610e-01
-5.173495e-01
-5.137589e-01
-5.103232e-01
-5.070918e-01
-5.041296e-01
-5.015160e-01
-4.993400e-01
-4.976918e-01
-4.966540e-01
-4.962948e-01
-4.966651e-01
-4.977980e-01
-4.997092e-01
-5.023978e-01
-5.058501e-01
-5.100427e-01
-5.149460e-01
-5.205262e-01
-5.267475e-01
-5.335723e-01
-5.409610e-01
-5.488722e-01
-5.572648e-01
-5.661000e-01
-5.753435e-01
-5.849637e-01
-5.949289e-01
-6.052039e-01
-6.157493e-01
-6.265240e-01
-6.374881e-01
-6.486050e-01
-6.598438e-01
-6.711799e-01
-6.825912e-01
-6.940541e-01
-7.055403e-01
-7.170166e-01
-7.284447e-01
-7.397822e-01
-7.509829e-01
-7.619959e-01
-7.727670e-01
-7.832413e-01
-7.933674e-01
-8.031047e-01
-8.124326e-01
-8.213620e-01
-8.299450e-01
-8.382778e-01
-8.464913e-01
-8.547321e-01
-8.631432e-01
-8.718509e-01
-8.809592e-01
-8.905503e-01
-9.006844e-01
-9.113973e-01
-9.226891e-01
-9.345031e-01
-9.467066e-01
-9.590853e-01
-9.713558e-01
-9.831967e-01
-9.942903e-01
-1.004359e+00
-1.013187e+00
-1.020621e+00
-1.026556e+00
-1.030926e+00
-1.033696e+00
-1.034865e+00
-1.034483e+00
-1.032670e+00
-1.029612e+00
-1.025545e+00
-1.020726e+00
-1.015400e+00
-1.009778e+00
-1.004034e+00
-9.982869e-01
-9.926036e-01
-9.869981e-01
-9.814427e-01
-9.758773e-01
-9.702148e-01
-9.643465e-01
-9.581516e-01
-9.515119e-01
-9.443301e-01
-9.365423e-01
-9.281271e-01
-9.191143e-01
-9.095958e-01
-8.997325e-01
-8.897484e-01
-8.799098e-01
-8.704964e-01
-8.617754e-01
-8.539874e-01
-8.473426e-01
-8.420198e-01
-8.381635e-01
-8.358754e-01
-8.352090e-01
-8.361704e-01
-8.387209e-01
-8.427798e-01
-8.482310e-01
-8.549295e-01
-8.627105e-01
-8.714027e-01
-8.808420e-01
-8.908813e-01
-9.013995e-01
-9.123029e-01
-9.235204e-01
-9.349956e-01
-9.466806e-01
-9.585323e-01
-9.705100e-01
-9.825710e-01
-9.946655e-01
-1.006733e+00
-1.018702e+00
-1.030494e+00
-1.042027e+00
-1.053218e+00
-1.063984e+00
-1.074237e+00
-1.083893e+00
-1.092868e+00
-1.101089e+00
-1.108498e+00
-1.115057e+00
-1.120752e+00
-1.125599e+00
-1.129644e+00
-1.132968e+00
-1.135683e+00
-1.137924e+00
-1.139850e+00
-1.141624e+00
-1.143397e+00
-1.145291e+00
-1.147386e+00
-1.149724e+00
-1.152315e+00
-1.155142e+00
-1.158172e+00
-1.161355e+00
-1.164624e+00
-1.167895e+00
-1.171058e+00
-1.173980e+00
-1.176514e+00
-1.178517e+00
-1.179860e+00
-1.180434e+00
-1.180156e+00
-1.178955e+00
-1.176777e+00
-1.173583e+00
-1.169345e+00
-1.164053e+00
-1.157704e+00
-1.150306e+00
-1.141873e+00
-1.132419e+00
-1.121955e+00
-1.110490e+00
-1.098035e+00
-1.084609e+00
-1.070247e+00
-1.055001e+00
-1.038934e+00
-1.022124e+00
-1.004656e+00
-9.866269e-01
-9.681340e-01
-9.492740e-01
-9.301345e-01
-9.107909e-01
-8.913059e-01
-8.717301e-01
-8.521033e-01
-8.324565e-01
-8.128153e-01
-7.932069e-01
-7.736598e-01
-7.541995e-01
-7.348447e-01
-7.156065e-01
-6.964931e-01
-6.775176e-01
-6.587058e-01
-6.401014e-01
-6.217651e-01
-6.037699e-01
-5.861960e-01
-5.691268e-01
-5.526461e-01
-5.368369e-01
-5.217829e-01
-5.075636e-01
-4.942416e-01
-4.818557e-01
-4.704224e-01
-4.599425e-01
-4.504032e-01
-4.417756e-01
-4.340128e-01
-4.270484e-01
-4.208020e-01
-4.151895e-01
-4.101367e-01
-4.055911e-01
-4.015275e-01
-3.979505e-01
-3.948935e-01
-3.924150e-01
-3.905893e-01
-3.894946e-01
-3.892012e-01
-3.897646e-01
-3.912240e-01
-3.935999e-01
-3.968950e-01
-4.010940e-01
-4.061634e-01
-4.120496e-01
-4.186805e-01
-4.259717e-01
-4.338317e-01
-4.421584e-01
-4.508358e-01
-4.597395e-01
-4.687442e-01
-4.777295e-01
-4.865844e-01
-4.952093e-01
-5.035153e-01
-5.114232e-01
-5.188648e-01
-5.257861e-01
-5.321490e-01
-5.379328e-01
-5.431366e-01
-5.477823e-01
-5.519184e-01
-5.556240e-01
-5.590081e-01
-5.621992e-01
-5.653263e-01
-5.684985e-01
-5.717896e-01
-5.752311e-01
-5.788153e-01
-5.825009e-01
-5.862195e-01
-5.898821e-01
-5.933875e-01
-5.966304e-01
-5.995083e-01
-6.019280e-01
-6.038096e-01
-6.050904e-01
-6.057262e-01
-6.056935e-01
-6.049895e-01
-6.036271e-01
-6.016307e-01
-5.990382e-01
-5.959045e-01
-5.922957e-01
-5.882819e-01
-5.839326e-01
-5.793155e-01
-5.744962e-01
-5.695360e-01
-5.644849e-01
-5.593789e-01
-5.542415e-01
-5.490882e-01
-5.439315e-01
-5.387859e-01
-5.336736e-01
-5.286284e-01
-5.236959e-01
-5.189307e-01
-5.143909e-01
-5.101348e-01
-5.062174e-01
-5.026882e-01
-4.995914e-01
-4.969661e-01
-4.948477e-01
-4.932653e-01
-4.922351e-01
-4.917499e-01
-4.917730e-01
-4.922385e-01
-4.930569e-01
-4.941271e-01
-4.953494e-01
-4.966359e-01
-4.979167e-01
-4.991407e-01
-5.002723e-01
-5.012867e-01
-5.021649e-01
-5.028913e-01
-5.034562e-01
-5.038590e-01
-5.041139e-01
-5.042519e-01
-5.043147e-01
-5.043478e-01
-5.043972e-01
-5.045083e-01
-5.047217e-01
-5.050672e-01
-5.055584e-01
-5.061908e-01
-5.069397e-01
-5.077606e-01
-5.085980e-01
-5.094045e-01
-5.101554e-01
-5.108528e-01
-5.115240e-01
-5.122181e-01
-5.130031e-01
-5.139612e-01
-5.151787e-01
-5.167321e-01
-5.186770e-01
-5.210458e-01
-5.238472e-01
-5.270674e-01
-5.306712e-01
-5.346025e-01
-5.387854e-01
-5.431259e-01
-5.475137e-01
-5.518263e-01
-5.559345e-01
-5.597092e-01
-5.630284e-01
-5.657838e-01
-5.678857e-01
-5.692670e-01
-5.698849e-01
-5.697211e-01
-5.687862e-01
-5.671226e-01
-5.648032e-01
-5.619265e-01
-5.586105e-01
-5.549861e-01
-5.511919e-01
-5.473659e-01
-5.436371e-01
-5.401178e-01
-5.368989e-01
-5.340490e-01
-5.316152e-01
-5.296255e-01
-5.280909e-01
-5.270081e-01
-5.263616e-01
-5.261282e-01
-5.262824e-01
-5.268061e-01
-5.276963e-01
-5.289684e-01
-5.306541e-01
-5.327968e-01
-5.354460e-01
-5.386525e-01
-5.424627e-01
-5.469120e-01
-5.520210e-01
-5.577923e-01
-5.642076e-01
-5.712265e-01
-5.787892e-01
-5.868195e-01
-5.952300e-01
-6.039254e-01
-6.128044e-01
-6.217614e-01
-6.306880e-01
-6.394768e-01
-6.480257e-01
-6.562432e-01
-6.640510e-01
-6.713857e-01
-6.781976e-01
-6.844495e-01
-6.901137e-01
-6.951700e-01
-6.996024e-01
-7.033966e-01
-7.065376e-01
-7.090082e-01
-7.107899e-01
-7.118652e-01
-7.122198e-01
-7.118434e-01
-7.107316e-01
-7.088865e-01
-7.063183e-01
-7.030493e-01
-6.991183e-01
-6.945815e-01
-6.895112e-01
-6.839904e-01
-6.781063e-01
-6.719422e-01
-6.655703e-01
-6.590482e-01
-6.524167e-01
-6.456996e-01
-6.389063e-01
-6.320356e-01
-6.250801e-01
-6.180295e-01
-6.108717e-01
-6.035939e-01
-5.961847e-01
-5.886362e-01
-5.809476e-01
-5.731261e-01
-5.651874e-01
-5.571550e-01
-5.490591e-01
-5.409323e-01
-5.328055e-01
-5.247022e-01
-5.166342e-01
-5.085973e-01
-5.005695e-01
-4.925117e-01
-4.843716e-01
-4.760901e-01
-4.676108e-01
-4.588873e-01
-4.498895e-01
-4.406069e-01
-4.310489e-01
-4.212452e-01
-4.112438e-01
-4.011060e-01
-3.909008e-01
-3.806985e-01
-3.705654e-01
-3.605622e-01
-3.507420e-01
-3.411478e-01
-3.318111e-01
-3.227485e-01
-3.139598e-01
-3.054289e-01
-2.971256e-01
-2.890097e-01
-2.810348e-01
-2.731516e-01
-2.653118e-01
-2.574720e-01
-2.495963e-01
-2.416593e-01
-2.336486e-01
-2.255668e-01
-2.174297e-01
-2.092615e-01
-2.010896e-01
-1.929391e-01
-1.848287e-01
-1.767693e-01
-1.687650e-01
-1.608161e-01
-1.529216e-01
-1.450821e-01
-1.373008e-01
-1.295848e-01
-1.219456e-01
-1.144003e-01
-1.069723e-01
-9.969197e-02
-9.259785e-02
-8.573724e-02
-7.916629e-02
-7.294846e-02
-6.715086e-02
-6.183903e-02
-5.707037e-02
-5.288710e-02
-4.931082e-02
-4.633895e-02
-4.394251e-02
-4.206545e-02
-4.062563e-02
-3.951845e-02
-3.862444e-02
-3.781983e-02
-3.698717e-02
-3.602385e-02
-3.484785e-02
-3.340198e-02
-3.165683e-02
-2.961239e-02
-2.729757e-02
-2.476646e-02
-2.209146e-02
-1.935563e-02
-1.664537e-02
-1.404387e-02
-1.162736e-02
-9.462575e-03
-7.604523e-03
-6.094736e-03
-4.959642e-03
-4.209817e-03
-3.841102e-03
-3.835424e-03
-4.161250e-03
-4.774589e-03
-5.619577e-03
-6.629463e-03
-7.728822e-03
-8.837229e-03
-9.875185e-03
-1.077071e-02
-1.146519e-02
-1.191852e-02
-1.211247e-02
-1.205170e-02
-1.176200e-02
-1.128545e-02
-1.067436e-02
-9.983717e-03
-9.263264e-03
-8.551579e-03
-7.873296e-03
-7.240464e-03
-6.657365e-03
-6.124650e-03
-5.639978e-03
-5.195103e-03
-4.771286e-03
-4.335863e-03
-3.841553e-03
-3.227966e-03
-2.424003e-03
-1.351009e-03
7.340687e-05
1.932162e-03
4.305452e-03
7.265926e-03
1.087255e-02
1.516383e-02
2.015180e-02
2.581870e-02
3.211733e-02
3.897511e-02
4.630146e-02
5.399636e-02
6.195820e-02
7.009001e-02
7.830450e-02
8.652793e-02
9.470203e-02
1.027836e-01
1.107417e-01
1.185515e-01
1.261893e-01
1.336270e-01
1.408311e-01
1.477616e-01
1.543736e-01
1.606178e-01
1.664437e-01
1.718029e-01
1.766509e-01
1.809482e-01
1.846619e-01
1.877677e-01
1.902548e-01
1.921310e-01
1.934256e-01
1.941897e-01
1.944893e-01
1.943956e-01
1.939755e-01
1.932852e-01
1.923675e-01
1.912523e-01
1.899590e-01
1.884990e-01
1.868800e-01
1.851099e-01
1.832001e-01
1.811691e-01
1.790442e-01
1.768624e-01
1.746678e-01
1.725093e-01
1.704373e-01
1.685019e-01
1.667507e-01
1.652252e-01
1.639568e-01
1.629648e-01
1.622582e-01
1.618396e-01
1.617085e-01
1.618638e-01
1.623064e-01
1.630398e-01
1.640712e-01
1.654108e-01
1.670705e-01
1.690620e-01
1.713949e-01
1.740742e-01
1.770996e-01
1.804657e-01
1.841650e-01
1.881908e-01
1.925401e-01
1.972143e-01
2.022182e-01
2.075575e-01
2.132355e-01
2.192514e-01
2.256001e-01
2.322746e-01
2.392685e-01
2.465788e-01
2.542074e-01
2.621595e-01
2.704416e-01
2.790575e-01
2.880047e-01
2.972720e-01
3.068395e-01
3.166787e-01
3.267559e-01
3.370353e-01
3.474816e-01
3.580625e-01
3.687510e-01
3.795262e-01
3.903731e-01
4.012814e-01
4.122446e-01
4.232582e-01
4.343195e-01
4.454266e-01
4.565773e-01
4.677665e-01
4.789849e-01
4.902171e-01
5.014414e-01
5.126315e-01
5.237587e-01
5.347954e-01
5.457178e-01
5.565069e-01
5.671500e-01
5.776403e-01
5.879757e-01
5.981577e-01
6.081895e-01
6.180742e-01
6.278136e-01
6.374068e-01
6.468486e-01
6.561281e-01
6.652270e-01
6.741197e-01
6.827732e-01
6.911500e-01
6.992098e-01
7.069127e-01
7.142216e-01
7.211048e-01
7.275388e-01
7.335113e-01
7.390221e-01
7.440824e-01
7.487142e-01
7.529480e-01
7.568205e-01
7.603710e-01
7.636383e-01
7.666572e-01
7.694559e-01
7.720571e-01
7.744790e-01
7.767371e-01
7.788471e-01
7.808266e-01
7.826985e-01
7.844939e-01
7.862543e-01
7.880330e-01
7.898942e-01
7.919093e-01
7.941519e-01
7.966932e-01
7.995980e-01
8.029219e-01
8.067101e-01
8.109954e-01
8.157985e-01
8.211274e-01
8.269789e-01
8.333397e-01
8.401876e-01
8.474917e-01
8.552129e-01
8.633026e-01
8.717042e-01
8.803534e-01
8.891802e-01
8.981115e-01
9.070736e-01
9.159951e-01
9.248087e-01
9.334535e-01
9.418755e-01
9.500282e-01
9.578733e-01
9.653809e-01
9.725290e-01
9.793029e-01
9.856949e-01
9.917034e-01
9.973339e-01
1.002601e+00
1.007528e+00
1.012150e+00
1.016515e+00
1.020679e+00
1.024706e+00
1.028660e+00
1.032600e+00
1.036583e+00
1.040660e+00
1.044874e+00
1.049262e+00
1.053857e+00
1.058678e+00
1.063740e+00
1.069049e+00
1.074600e+00
1.080383e+00
1.086378e+00
1.092557e+00
1.098886e+00
1.105328e+00
1.111843e+00
1.118401e+00
1.124972e+00
1.131537e+00
1.138076e+00
1.144572e+00
1.151006e+00
1.157356e+00
1.163597e+00
1.169704e+00
1.175650e+00
1.181408e+00
1.186954e+00
1.192262e+00
1.197313e+00
1.202091e+00
1.206582e+00
1.210784e+00
1.214699e+00
1.218344e+00
1.221746e+00
1.224942e+00
1.227978e+00
1.230904e+00
1.233769e+00
1.236616e+00
1.239479e+00
1.242378e+00
1.245316e+00
1.248285e+00
1.251261e+00
1.254213e+00
1.257108e+00
1.259911e+00
1.262594e+00
1.265138e+00
1.267532e+00
1.269775e+00
1.271872e+00
1.273836e+00
1.275680e+00
1.277417e+00
1.279058e+00
1.280609e+00
1.282070e+00
1.283434e+00
1.284685e+00
1.285808e+00
1.286784e+00
1.287599e+00
1.288245e+00
1.288721e+00
1.289035e+00
1.289202e+00
1.289242e+00
1.289180e+00
1.289042e+00
1.288852e+00
1.288641e+00
1.288436e+00
1.288272e+00
1.288186e+00
1.288219e+00
1.288418e+00
1.288834e+00
1.289519e+00
1.290524e+00
1.291897e+00
1.293673e+00
1.295882e+00
1.298537e+00
1.301643e+00
1.305196e+00
1.309185e+00
1.313595e+00
1.318408e+00
1.323607e+00
1.329174e+00
1.335090e+00
1.341336e+00
1.347895e+00
1.354750e+00
1.361884e+00
1.369281e+00
1.376927e+00
1.384805e+00
1.392898e+00
1.401187e+00
1.409653e+00
1.418275e+00
1.427027e+00
1.435883e+00
1.444811e+00
1.453777e+00
1.462742e+00
1.471664e+00
1.480502e+00
1.489215e+00
1.497765e+00
1.506123e+00
1.514271e+00
1.522206e+00
1.529938e+00
1.537489e+00
1.544890e+00
1.552171e+00
1.559364e+00
1.566489e+00
1.573556e+00
1.580557e+00
1.587470e+00
1.594257e+00
1.600871e+00
1.607255e+00
1.613354e+00
1.619113e+00
1.624481e+00
1.629415e+00
1.633879e+00
1.637847e+00
1.641304e+00
1.644246e+00
1.646682e+00
1.648624e+00
1.650092e+00
1.651106e+00
1.651688e+00
1.651858e+00
1.651640e+00
1.651057e+00
1.650131e+00
1.648885e+00
1.647337e+00
1.645512e+00
1.643435e+00
1.641138e+00
1.638657e+00
1.636031e+00
1.633298e+00
1.630499e+00
1.627667e+00
1.624835e+00
1.622025e+00
1.619255e+00
1.616535e+00
1.613864e+00
1.611234e+00
1.608628e+00
1.606022e+00
1.603393e+00
1.600716e+00
1.597970e+00
1.595142e+00
1.592226e+00
1.589228e+00
1.586162e+00
1.583054e+00
1.579939e+00
1.576855e+00
1.573839e+00
1.570922e+00
1.568123e+00
1.565450e+00
1.562895e+00
1.560439e+00
1.558051e+00
1.555690e+00
1.553305e+00
1.550841e+00
1.548237e+00
1.545434e+00
1.542374e+00
1.539008e+00
1.535292e+00
1.531197e+00
1.526703e+00
1.521805e+00
1.516505e+00
1.510818e+00
1.504766e+00
1.498376e+00
1.491682e+00
1.484725e+00
1.477550e+00
1.470206e+00
1.462748e+00
1.455235e+00
1.447730e+00
1.440298e+00
1.433007e+00
1.425922e+00
1.419107e+00
1.412616e+00
1.406501e+00
1.400805e+00
1.395559e+00
1.390789e+00
1.386504e+00
1.382704e+00
1.379368e+00
1.376464e+00
1.373942e+00
1.371739e+00
1.369785e+00
1.368008e+00
1.366339e+00
1.364718e+00
1.363094e+00
1.361425e+00
1.359679e+00
1.357833e+00
1.355869e+00
1.353775e+00
1.351541e+00
1.349157e+00
1.346614e+00
1.343906e+00
1.341029e+00
1.337985e+00
1.334782e+00
1.331430e+00
1.327945e+00
1.324342e+00
1.320635e+00
1.316841e+00
1.312977e+00
1.309062e+00
1.305119e+00
1.301172e+00
1.297246e+00
1.293367e+00
1.289556e+00
1.285829e+00
1.282198e+00
1.278664e+00
1.275219e+00
1.271846e+00
1.268522e+00
1.265217e+00
1.261896e+00
1.258522e+00
1.255058e+00
1.251463e+00
1.247700e+00
1.243732e+00
1.239527e+00
1.235054e+00
1.230290e+00
1.225216e+00
1.219820e+00
1.214099e+00
1.208060e+00
1.201720e+00
1.195108e+00
1.188262e+00
1.181230e+00
1.174066e+00
1.166832e+00
1.159588e+00
1.152399e+00
1.145331e+00
1.138450e+00
1.131827e+00
1.125536e+00
1.119650e+00
1.114243e+00
1.109388e+00
1.105153e+00
1.101600e+00
1.098785e+00
1.096754e+00
1.095538e+00
1.095159e+00
1.095630e+00
1.096955e+00
1.099132e+00
1.102154e+00
1.106004e+00
1.110660e+00
1.116091e+00
1.122259e+00
1.129120e+00
1.136622e+00
1.144713e+00
1.153336e+00
1.162432e+00
1.171941e+00
1.181799e+00
1.191940e+00
1.202294e+00
1.212789e+00
1.223349e+00
1.233902e+00
1.244373e+00
1.254693e+00
1.264797e+00
1.274624e+00
1.284119e+00
1.293234e+00
1.301928e+00
1.310174e+00
1.317955e+00
1.325266e+00
1.332112e+00
1.338511e+00
1.344489e+00
1.350079e+00
1.355318e+00
1.360246e+00
1.364901e+00
1.369322e+00
1.373549e+00
1.377621e+00
1.381575e+00
1.385451e+00
1.389284e+00
1.393107e+00
1.396944e+00
1.400816e+00
1.404733e+00
1.408697e+00
1.412695e+00
1.416703e+00
1.420683e+00
1.424587e+00
1.428361e+00
1.431945e+00
1.435282e+00
1.438322e+00
1.441026e+00
1.443368e+00
1.445333e+00
1.446914e+00
1.448112e+00
1.448928e+00
1.449369e+00
1.449443e+00
1.449158e+00
1.448527e+00
1.447561e+00
1.446271e+00
1.444668e+00
1.442765e+00
1.440574e+00
1.438112e+00
1.435397e+00
1.432450e+00
1.429296e+00
1.425965e+00
1.422488e+00
1.418898e+00
1.415225e+00
1.411492e+00
1.407718e+00
1.403915e+00
1.400090e+00
1.396247e+00
1.392382e+00
1.388493e+00
1.384573e+00
1.380618e+00
1.376620e+00
1.372576e+00
1.368484e+00
1.364345e+00
1.360161e+00
1.355938e+00
1.351685e+00
1.347411e+00
1.343130e+00
1.338855e+00
1.334600e+00
1.330375e+00
1.326189e+00
1.322047e+00
1.317946e+00
1.313877e+00
1.309827e+00
1.305774e+00
1.301693e+00
1.297553e+00
1.293322e+00
1.288968e+00
1.284460e+00
1.279769e+00
1.274869e+00
1.269733e+00
1.264339e+00
1.258667e+00
1.252694e+00
1.246402e+00
1.239771e+00
1.232778e+00
1.225399e+00
1.217603e+00
1.209356e+00
1.200617e+00
1.191345e+00
1.181497e+00
1.171030e+00
1.159909e+00
1.148098e+00
1.135573e+00
1.122314e+00
1.108308e+00
1.093549e+00
1.078038e+00
1.061779e+00
1.044782e+00
1.027061e+00
1.008634e+00
9.895206e-01
9.697474e-01
9.493436e-01
9.283436e-01
9.067869e-01
8.847183e-01
8.621880e-01
8.392500e-01
8.159607e-01
7.923771e-01
7.685545e-01
7.445467e-01
7.204048e-01
6.961780e-01
6.719142e-01
6.476605e-01
6.234635e-01
5.993692e-01
5.754224e-01
5.516656e-01
5.281378e-01
5.048730e-01
4.819003e-01
4.592435e-01
4.369217e-01
4.149502e-01
3.933414e-01
3.721061e-01
3.512547e-01
3.307967e-01
3.107410e-01
2.910957e-01
2.718673e-01
2.530599e-01
2.346746e-01
2.167085e-01
1.991544e-01
1.820002e-01
1.652304e-01
1.488266e-01
1.327706e-01
1.170456e-01
1.016371e-01
8.653316e-02
7.172338e-02
5.719858e-02
4.294977e-02
2.896727e-02
1.523964e-02
1.752066e-03
-1.151422e-02
-2.458215e-02
-3.747894e-02
-5.023540e-02
-6.288456e-02
-7.545999e-02
-8.799428e-02
-1.005185e-01
-1.130615e-01
-1.256491e-01
-1.383044e-01
-1.510464e-01
-1.638896e-01
-1.768432e-01
-1.899107e-01
-2.030909e-01
-2.163790e-01
-2.297674e-01
-2.432460e-01
-2.568014e-01
-2.704172e-01
-2.840738e-01
-2.977481e-01
-3.114137e-01
-3.250400e-01
-3.385920e-01
-3.520300e-01
-3.653094e-01
-3.783809e-01
-3.911916e-01
-4.036855e-01
-4.158051e-01
-4.274920e-01
-4.386887e-01
-4.493408e-01
-4.593997e-01
-4.688234e-01
-4.775771e-01
-4.856319e-01
-4.929647e-01
-4.995582e-01
-5.054024e-01
-5.104948e-01
-5.148418e-01
-5.184585e-01
-5.213696e-01
-5.236091e-01
-5.252206e-01
-5.262565e-01
-5.267759e-01
-5.268425e-01
-5.265220e-01
-5.258817e-01
-5.249906e-01
-5.239189e-01
-5.227373e-01
-5.215154e-01
-5.203203e-01
-5.192150e-01
-5.182574e-01
-5.174993e-01
-5.169863e-01
-5.167574e-01
-5.168440e-01
-5.172684e-01
-5.180427e-01
-5.191675e-01
-5.206316e-01
-5.224124e-01
-5.244759e-01
