EVENT_NAME: EMILIA_2ND_SHOCK
EVENT_ID: IT-2012-0011
EVENT_DATE_YYYYMMDD: 20120529
EVENT_TIME_HHMMSS: 070002
EVENT_LATITUDE_DEGREE: 44.8417
EVENT_LONGITUDE_DEGREE: 11.0657
EVENT_DEPTH_KM: 8.1
HYPOCENTER_REFERENCE: INGV-CNT_Seismic_Bulletin
MAGNITUDE_W: 6.0
MAGNITUDE_W_REFERENCE: RCMT-INGV
MAGNITUDE_L: 5.8
MAGNITUDE_L_REFERENCE: INGV-CNT_Seismic_Bulletin
FOCAL_MECHANISM: TF
NETWORK: IT
STATION_CODE: SAN0
STATION_NAME: SAN FELICE SUL PANARO
STATION_LATITUDE_DEGREE: 44.838000
STATION_LONGITUDE_DEGREE: 11.143000
STATION_ELEVATION_M: 71
LOCATION: 
SENSOR_DEPTH_M: 0.0
VS30_M/S: 
SITE_CLASSIFICATION_EC8: C*
MORPHOLOGIC_CLASSIFICATION: 
EPICENTRAL_DISTANCE_KM: 6.1
EARTHQUAKE_BACKAZIMUTH_DEGREE: 273.9
DATE_TIME_FIRST_SAMPLE_YYYYMMDD_HHMMSS: 20120529_065933.000
DATE_TIME_FIRST_SAMPLE_PRECISION: seconds
SAMPLING_INTERVAL_S: 0.005000
NDATA: 34001
DURATION_S: 170.005
STREAM: HNE
UNITS: cm
INSTRUMENT: sensor = Episensor FBA ES-T [Kinemetrics] | digitizer = Etna [Kinemetrics]
INSTRUMENT_ANALOG/DIGITAL: D
INSTRUMENTAL_FREQUENCY_HZ: 
INSTRUMENTAL_DAMPING: 
FULL_SCALE_G: 
N_BIT_DIGITAL_CONVERTER: 18
PGD_CM: 7.738426
TIME_PGD_S: 36.605000
BASELINE_CORRECTION: BASELINE REMOVED
FILTER_TYPE: BUTTERWORTH
FILTER_ORDER: 2
LOW_CUT_FREQUENCY_HZ: 0.060
HIGH_CUT_FREQUENCY_HZ: 50.000
LATE/NORMAL_TRIGGERED: NT
DATABASE_VERSION: DYNA 1.0
HEADER_FORMAT: DYNA 1.2
DATA_TYPE: DISPLACEMENT
PROCESSING: manual (Paolucci et al., 2011)
DATA_TIMESTAMP_YYYYMMDD_HHMMSS: 
DATA_LICENSE: CC-BY3_0-IT (http://creativecommons.org/licenses/by/3.0/deed.en)
DATA_CITATION: ESM working group (2015), European Strong-Motion database, version 0.1, Network Activity 3: Networking acceleration networks and SM data users. Project NERA (www.nera-eu.org)
DATA_CREATOR: ESM working group
ORIGINAL_DATA_MEDIATOR_CITATION: Ufficio Rischio Sismico e Vulcanico del Dipartimento della Protezione Civile (http://www.protezionecivile.gov.it/)
ORIGINAL_DATA_MEDIATOR: Rete Accelerometrica Nazionale - RAN Download (http://www.mot1.it/randownload/)
ORIGINAL_DATA_CREATOR_CITATION: Italian Strong Motion Network, Italian Civil Protection Department http://www.protezionecivile.gov.it
ORIGINAL_DATA_CREATOR: network: IT (Italian Strong Motion Network); owner: Dipartimento Della Protezione Civile
USER1: 
USER2: 
USER3: 
USER4: 
USER5: 
[...]
1.509646e-02
1.389272e-02
1.268430e-02
1.147115e-02
1.025335e-02
9.031000e-03
7.804060e-03
6.572460e-03
5.336293e-03
4.095660e-03
2.850481e-03
1.600646e-03
3.461595e-04
-9.129430e-04
-2.176647e-03
-3.444907e-03
-4.717650e-03
-5.994804e-03
-7.276292e-03
-8.562072e-03
-9.852057e-03
-1.114588e-02
-1.244293e-02
-1.374255e-02
-1.504415e-02
-1.634706e-02
-1.765108e-02
-1.895669e-02
-2.026457e-02
-2.157502e-02
-2.288766e-02
-2.420139e-02
-2.551468e-02
-2.682606e-02
-2.813445e-02
-2.943927e-02
-3.074046e-02
-3.203843e-02
-3.333363e-02
-3.462615e-02
-3.591588e-02
-3.720303e-02
-3.848935e-02
-3.977874e-02
-4.107427e-02
-4.237441e-02
-4.367388e-02
-4.496593e-02
-4.624421e-02
-4.750783e-02
-4.876532e-02
-5.002945e-02
-5.130973e-02
-5.261053e-02
-5.392930e-02
-5.525420e-02
-5.657109e-02
-5.787562e-02
-5.917374e-02
-6.047141e-02
-6.176914e-02
-6.306583e-02
-6.436241e-02
-6.566343e-02
-6.697806e-02
-6.831454e-02
-6.966913e-02
-7.102507e-02
-7.236582e-02
-7.368816e-02
-7.500353e-02
-7.632955e-02
-7.768017e-02
-7.906132e-02
-8.047180e-02
-8.190544e-02
-8.335316e-02
-8.480256e-02
-8.623740e-02
-8.764453e-02
-8.902373e-02
-9.038726e-02
-9.175175e-02
-9.313525e-02
-9.455550e-02
-9.601770e-02
-9.750210e-02
-9.897140e-02
-1.003962e-01
-1.017769e-01
-1.031430e-01
-1.045293e-01
-1.059503e-01
-1.073964e-01
-1.088461e-01
-1.102766e-01
-1.116733e-01
-1.130400e-01
-1.143928e-01
-1.157370e-01
-1.170609e-01
-1.183594e-01
-1.196486e-01
-1.209529e-01
-1.222829e-01
-1.236244e-01
-1.249457e-01
-1.262191e-01
-1.274417e-01
-1.286444e-01
-1.298723e-01
-1.311425e-01
-1.324211e-01
-1.336490e-01
-1.347874e-01
-1.358419e-01
-1.368552e-01
-1.378802e-01
-1.389500e-01
-1.400673e-01
-1.412142e-01
-1.423568e-01
-1.434526e-01
-1.444774e-01
-1.454448e-01
-1.463820e-01
-1.473064e-01
-1.482391e-01
-1.492101e-01
-1.502205e-01
-1.512249e-01
-1.521770e-01
-1.530715e-01
-1.539376e-01
-1.548189e-01
-1.557617e-01
-1.567927e-01
-1.578982e-01
-1.590363e-01
-1.601704e-01
-1.612813e-01
-1.623572e-01
-1.633983e-01
-1.644373e-01
-1.655186e-01
-1.666480e-01
-1.677991e-01
-1.689658e-01
-1.701598e-01
-1.713602e-01
-1.725138e-01
-1.735901e-01
-1.746022e-01
-1.755650e-01
-1.764699e-01
-1.773137e-01
-1.781168e-01
-1.788994e-01
-1.796799e-01
-1.804970e-01
-1.813825e-01
-1.823085e-01
-1.832004e-01
-1.839974e-01
-1.846777e-01
-1.852461e-01
-1.857254e-01
-1.861517e-01
-1.865626e-01
-1.869771e-01
-1.873869e-01
-1.877672e-01
-1.880977e-01
-1.883706e-01
-1.885881e-01
-1.887641e-01
-1.889261e-01
-1.891089e-01
-1.893437e-01
-1.896498e-01
-1.900204e-01
-1.904136e-01
-1.907707e-01
-1.910474e-01
-1.912258e-01
-1.912982e-01
-1.912573e-01
-1.911042e-01
-1.908598e-01
-1.905653e-01
-1.902649e-01
-1.899901e-01
-1.897634e-01
-1.896019e-01
-1.894930e-01
-1.893752e-01
-1.891654e-01
-1.888119e-01
-1.883146e-01
-1.876951e-01
-1.869697e-01
-1.861595e-01
-1.853013e-01
-1.844424e-01
-1.836412e-01
-1.829496e-01
-1.823648e-01
-1.818120e-01
-1.812137e-01
-1.805787e-01
-1.800007e-01
-1.795854e-01
-1.794092e-01
-1.795205e-01
-1.799195e-01
-1.805225e-01
-1.811784e-01
-1.817347e-01
-1.820965e-01
-1.822445e-01
-1.822194e-01
-1.820923e-01
-1.819510e-01
-1.818958e-01
-1.820051e-01
-1.822864e-01
-1.826732e-01
-1.830689e-01
-1.833998e-01
-1.836515e-01
-1.838547e-01
-1.840189e-01
-1.840878e-01
-1.839698e-01
-1.835894e-01
-1.829127e-01
-1.819607e-01
-1.808132e-01
-1.795839e-01
-1.783744e-01
-1.772400e-01
-1.761924e-01
-1.752244e-01
-1.743267e-01
-1.734799e-01
-1.726450e-01
-1.717782e-01
-1.708544e-01
-1.698649e-01
-1.688013e-01
-1.676431e-01
-1.663503e-01
-1.648765e-01
-1.632102e-01
-1.614087e-01
-1.595854e-01
-1.578592e-01
-1.562999e-01
-1.549053e-01
-1.536236e-01
-1.524099e-01
-1.512702e-01
-1.502588e-01
-1.494312e-01
-1.487879e-01
-1.482523e-01
-1.477059e-01
-1.470495e-01
-1.462404e-01
-1.453002e-01
-1.442966e-01
-1.432887e-01
-1.422773e-01
-1.412291e-01
-1.401654e-01
-1.391980e-01
-1.384469e-01
-1.379427e-01
-1.376369e-01
-1.374677e-01
-1.373785e-01
-1.372936e-01
-1.371220e-01
-1.367834e-01
-1.362133e-01
-1.353667e-01
-1.342473e-01
-1.329057e-01
-1.313841e-01
-1.296924e-01
-1.278409e-01
-1.258544e-01
-1.237387e-01
-1.214672e-01
-1.190283e-01
-1.164760e-01
-1.139163e-01
-1.114478e-01
-1.091238e-01
-1.069582e-01
-1.049409e-01
-1.030327e-01
-1.011493e-01
-9.918746e-02
-9.709909e-02
-9.494924e-02
-9.289481e-02
-9.110070e-02
-8.965747e-02
-8.855848e-02
-8.773563e-02
-8.709818e-02
-8.654750e-02
-8.599618e-02
-8.540538e-02
-8.480517e-02
-8.426239e-02
-8.381818e-02
-8.346112e-02
-8.316299e-02
-8.292404e-02
-8.276424e-02
-8.267150e-02
-8.257508e-02
-8.238276e-02
-8.204489e-02
-8.158304e-02
-8.106523e-02
-8.055028e-02
-8.003678e-02
-7.945248e-02
-7.868752e-02
-7.764009e-02
-7.625292e-02
-7.452833e-02
-7.250102e-02
-7.018532e-02
-6.756403e-02
-6.464956e-02
-6.155968e-02
-5.852144e-02
-5.578094e-02
-5.349678e-02
-5.171306e-02
-5.040047e-02
-4.948340e-02
-4.884958e-02
-4.839075e-02
-4.805115e-02
-4.783289e-02
-4.776882e-02
-4.789726e-02
-4.824395e-02
-4.880700e-02
-4.954554e-02
-5.036170e-02
-5.107934e-02
-5.146357e-02
-5.130727e-02
-5.053093e-02
-4.922497e-02
-4.762013e-02
-4.600608e-02
-4.463207e-02
-4.363444e-02
-4.301651e-02
-4.267694e-02
-4.246100e-02
-4.218980e-02
-4.165618e-02
-4.063811e-02
-3.896716e-02
-3.662020e-02
-3.376374e-02
-3.069651e-02
-2.771677e-02
-2.501669e-02
-2.266390e-02
-2.063578e-02
-1.886242e-02
-1.727579e-02
-1.585372e-02
-1.462368e-02
-1.362310e-02
-1.285904e-02
-1.230224e-02
-1.190874e-02
-1.163103e-02
-1.139771e-02
-1.109727e-02
-1.060819e-02
-9.859806e-03
-8.877788e-03
-7.776015e-03
-6.680327e-03
-5.633470e-03
-4.567083e-03
-3.359148e-03
-1.907276e-03
-1.551324e-04
1.916899e-03
4.290197e-03
6.886943e-03
9.565079e-03
1.215039e-02
1.448371e-02
1.645314e-02
1.801507e-02
1.922138e-02
2.022593e-02
2.123350e-02
2.242674e-02
2.393682e-02
2.585459e-02
2.824023e-02
3.111702e-02
3.445029e-02
3.811636e-02
4.190283e-02
4.558704e-02
4.905405e-02
5.234489e-02
5.559399e-02
5.893621e-02
6.246920e-02
6.626626e-02
7.039244e-02
7.490369e-02
7.982528e-02
8.511253e-02
9.063501e-02
9.622755e-02
1.017701e-01
1.072122e-01
1.125363e-01
1.177335e-01
1.228170e-01
1.278238e-01
1.327972e-01
1.377931e-01
1.429051e-01
1.482567e-01
1.539421e-01
1.599638e-01
1.662315e-01
1.726292e-01
1.790815e-01
1.855622e-01
1.920663e-01
1.985861e-01
2.050943e-01
2.115533e-01
2.179647e-01
2.244107e-01
2.310308e-01
2.379515e-01
2.452308e-01
2.528491e-01
2.607488e-01
2.688869e-01
2.772478e-01
2.858114e-01
2.945183e-01
3.032584e-01
3.118905e-01
3.202910e-01
3.284021e-01
3.362338e-01
3.438230e-01
3.512078e-01
3.584440e-01
3.656289e-01
3.728797e-01
3.802757e-01
3.878302e-01
3.955199e-01
4.033234e-01
4.112239e-01
4.191982e-01
4.272296e-01
4.353260e-01
4.435065e-01
4.517936e-01
4.602467e-01
4.689719e-01
4.780832e-01
4.876851e-01
4.978845e-01
5.087619e-01
5.203078e-01
5.324105e-01
5.449387e-01
5.578283e-01
5.710788e-01
5.847186e-01
5.988152e-01
6.134576e-01
6.286554e-01
6.442635e-01
6.600332e-01
6.757164e-01
6.911276e-01
7.061692e-01
7.208283e-01
7.351281e-01
7.490757e-01
7.626499e-01
7.758013e-01
7.884348e-01
8.004135e-01
8.116142e-01
8.219846e-01
8.315306e-01
8.402573e-01
8.481638e-01
8.552792e-01
8.616294e-01
8.671582e-01
8.717132e-01
8.751093e-01
8.771933e-01
8.778779e-01
8.771686e-01
8.751765e-01
8.720617e-01
8.679569e-01
8.629801e-01
8.572826e-01
8.510156e-01
8.442777e-01
8.371470e-01
8.297384e-01
8.222131e-01
8.147603e-01
8.075601e-01
8.007334e-01
7.942846e-01
7.880626e-01
7.818166e-01
7.753289e-01
7.684702e-01
7.611645e-01
7.533786e-01
7.451014e-01
7.362596e-01
7.266791e-01
7.161474e-01
7.044832e-01
6.915477e-01
6.772253e-01
6.614301e-01
6.441249e-01
6.252685e-01
6.047309e-01
5.823144e-01
5.578657e-01
5.313273e-01
5.027147e-01
4.721051e-01
4.396263e-01
4.053953e-01
3.694525e-01
3.317657e-01
2.922903e-01
2.510270e-01
2.080423e-01
1.634637e-01
1.174757e-01
7.030700e-02
2.219300e-02
-2.666844e-02
-7.616370e-02
-1.263361e-01
-1.774033e-01
-2.296011e-01
-2.829502e-01
-3.371691e-01
-3.917736e-01
-4.462383e-01
-5.001212e-01
-5.530973e-01
-6.049292e-01
-6.554671e-01
-7.046573e-01
-7.524898e-01
-7.989678e-01
-8.441712e-01
-8.882900e-01
-9.315540e-01
-9.741705e-01
-1.016326e+00
-1.058219e+00
-1.100106e+00
-1.142257e+00
-1.184853e+00
-1.228043e+00
-1.272115e+00
-1.317479e+00
-1.364430e+00
-1.412977e+00
-1.462806e+00
-1.513340e+00
-1.563879e+00
-1.613710e+00
-1.662059e+00
-1.708068e+00
-1.751023e+00
-1.790581e+00
-1.826708e+00
-1.859465e+00
-1.888916e+00
-1.915136e+00
-1.938201e+00
-1.958150e+00
-1.974964e+00
-1.988591e+00
-1.998946e+00
-2.005883e+00
-2.009210e+00
-2.008840e+00
-2.005005e+00
-1.998358e+00
-1.989809e+00
-1.980182e+00
-1.970046e+00
-1.959770e+00
-1.949551e+00
-1.939449e+00
-1.929490e+00
-1.919650e+00
-1.909701e+00
-1.899211e+00
-1.887695e+00
-1.874753e+00
-1.860117e+00
-1.843701e+00
-1.825640e+00
-1.806216e+00
-1.785664e+00
-1.764024e+00
-1.741205e+00
-1.717167e+00
-1.692013e+00
-1.665921e+00
-1.639097e+00
-1.611793e+00
-1.584297e+00
-1.556835e+00
-1.529528e+00
-1.502445e+00
-1.475649e+00
-1.449233e+00
-1.423332e+00
-1.398063e+00
-1.373480e+00
-1.349648e+00
-1.326711e+00
-1.304856e+00
-1.284263e+00
-1.265139e+00
-1.247740e+00
-1.232292e+00
-1.218956e+00
-1.207889e+00
-1.199270e+00
-1.193155e+00
-1.189381e+00
-1.187663e+00
-1.187694e+00
-1.189083e+00
-1.191303e+00
-1.193802e+00
-1.196122e+00
-1.197908e+00
-1.198844e+00
-1.198649e+00
-1.197102e+00
-1.194080e+00
-1.189546e+00
-1.183505e+00
-1.175968e+00
-1.166984e+00
-1.156692e+00
-1.145301e+00
-1.133015e+00
-1.119988e+00
-1.106271e+00
-1.091786e+00
-1.076358e+00
-1.059758e+00
-1.041756e+00
-1.022207e+00
-1.001092e+00
-9.784505e-01
-9.543102e-01
-9.287132e-01
-9.017793e-01
-8.736943e-01
-8.446282e-01
-8.146658e-01
-7.837664e-01
-7.517860e-01
-7.186004e-01
-6.841880e-01
-6.485507e-01
-6.116095e-01
-5.732159e-01
-5.332291e-01
-4.915869e-01
-4.483669e-01
-4.038052e-01
-3.582175e-01
-3.119056e-01
-2.651448e-01
-2.181682e-01
-1.711036e-01
-1.239926e-01
-7.689297e-02
-2.988094e-02
1.705834e-02
6.404786e-02
1.112057e-01
1.585714e-01
2.061157e-01
2.537155e-01
3.010945e-01
3.478587e-01
3.936177e-01
4.380550e-01
4.809429e-01
5.222069e-01
5.620335e-01
6.008836e-01
6.393396e-01
6.778754e-01
7.166841e-01
7.556523e-01
7.944980e-01
8.329610e-01
8.709078e-01
9.083422e-01
9.453835e-01
9.822206e-01
1.019016e+00
1.055786e+00
1.092348e+00
1.128393e+00
1.163662e+00
1.198076e+00
1.231698e+00
1.264603e+00
1.296805e+00
1.328274e+00
1.358990e+00
1.388970e+00
1.418249e+00
1.446888e+00
1.474986e+00
1.502670e+00
1.530096e+00
1.557556e+00
1.585474e+00
1.614167e+00
1.643669e+00
1.673857e+00
1.704696e+00
1.736298e+00
1.768785e+00
1.802206e+00
1.836605e+00
1.872091e+00
1.908830e+00
1.947012e+00
1.986849e+00
2.028538e+00
2.072150e+00
2.117589e+00
2.164684e+00
2.213319e+00
2.263442e+00
2.314964e+00
2.367684e+00
2.421339e+00
2.475687e+00
2.530550e+00
2.585786e+00
2.641264e+00
2.696850e+00
2.752451e+00
2.808043e+00
2.863707e+00
2.919652e+00
2.976105e+00
3.033137e+00
3.090669e+00
3.148580e+00
3.206722e+00
3.264911e+00
3.322925e+00
3.380538e+00
3.437603e+00
3.494097e+00
3.550044e+00
3.605369e+00
3.659921e+00
3.713651e+00
3.766619e+00
3.818802e+00
3.870030e+00
3.920097e+00
3.968851e+00
4.016226e+00
4.062245e+00
4.107008e+00
4.150709e+00
4.193628e+00
4.236026e+00
4.278019e+00
4.319612e+00
4.360854e+00
4.401886e+00
4.442872e+00
4.483987e+00
4.525440e+00
4.567390e+00
4.609827e+00
4.652606e+00
4.695536e+00
4.738402e+00
4.780975e+00
4.823048e+00
4.864520e+00
4.905473e+00
4.946135e+00
4.986761e+00
5.027491e+00
5.068250e+00
5.108775e+00
5.148739e+00
5.187923e+00
5.226296e+00
5.263898e+00
5.300678e+00
5.336546e+00
5.371590e+00
5.406149e+00
5.440627e+00
5.475269e+00
5.510103e+00
5.545028e+00
5.580011e+00
5.615217e+00
5.650923e+00
5.687319e+00
5.724450e+00
5.762352e+00
5.801082e+00
5.840573e+00
5.880639e+00
5.921194e+00
5.962359e+00
6.004321e+00
6.047150e+00
6.090791e+00
6.135196e+00
6.180404e+00
6.226533e+00
6.273696e+00
6.321877e+00
6.370844e+00
6.420223e+00
6.469688e+00
6.519122e+00
6.568553e+00
6.617987e+00
6.667335e+00
6.716452e+00
6.765179e+00
6.813378e+00
6.860949e+00
6.907796e+00
6.953789e+00
6.998810e+00
7.042760e+00
7.085547e+00
7.127128e+00
7.167551e+00
7.206935e+00
7.245390e+00
7.282940e+00
7.319460e+00
7.354724e+00
7.388536e+00
7.420816e+00
7.451593e+00
7.480974e+00
7.509059e+00
7.535870e+00
7.561359e+00
7.585453e+00
7.608084e+00
7.629211e+00
7.648815e+00
7.666876e+00
7.683322e+00
7.697985e+00
7.710623e+00
7.721002e+00
7.728984e+00
7.734537e+00
7.737675e+00
7.738426e+00
7.736857e+00
7.733065e+00
7.727115e+00
7.718993e+00
7.708592e+00
7.695764e+00
7.680424e+00
7.662578e+00
7.642216e+00
7.619274e+00
7.593685e+00
7.565357e+00
7.534124e+00
7.499770e+00
7.462082e+00
7.420912e+00
7.376203e+00
7.327965e+00
7.276283e+00
7.221360e+00
7.163465e+00
7.102759e+00
7.039171e+00
6.972439e+00
6.902287e+00
6.828575e+00
6.751298e+00
6.670501e+00
6.586230e+00
6.498605e+00
6.407909e+00
6.314610e+00
6.219295e+00
6.122586e+00
6.025042e+00
5.927086e+00
5.829005e+00
5.731021e+00
5.633343e+00
5.536158e+00
5.439584e+00
5.343652e+00
5.248343e+00
5.153652e+00
5.059569e+00
4.966018e+00
4.872857e+00
4.779945e+00
4.687165e+00
4.594361e+00
4.501303e+00
4.407764e+00
4.313638e+00
4.219010e+00
4.124190e+00
4.029666e+00
3.935944e+00
3.843394e+00
3.752255e+00
3.662766e+00
3.575192e+00
3.489692e+00
3.406143e+00
3.324107e+00
3.243030e+00
3.162532e+00
3.082512e+00
3.003080e+00
2.924444e+00
2.846816e+00
2.770328e+00
2.695038e+00
2.621013e+00
2.548356e+00
2.477164e+00
2.407505e+00
2.339450e+00
2.273104e+00
2.208569e+00
2.145921e+00
2.085202e+00
2.026385e+00
1.969314e+00
1.913690e+00
1.859135e+00
1.805308e+00
1.752002e+00
1.699143e+00
1.646682e+00
1.594537e+00
1.542630e+00
1.490908e+00
1.439323e+00
1.387810e+00
1.336286e+00
1.284673e+00
1.232951e+00
1.181181e+00
1.129493e+00
1.078079e+00
1.027222e+00
9.772905e-01
9.286825e-01
8.817536e-01
8.367852e-01
7.939980e-01
7.535941e-01
7.157839e-01
6.807610e-01
6.486446e-01
6.194258e-01
5.928924e-01
5.685195e-01
5.454688e-01
5.228218e-01
4.998436e-01
4.760186e-01
4.509507e-01
4.243105e-01
3.958083e-01
3.651810e-01
3.322299e-01
2.968205e-01
2.587798e-01
2.178451e-01
1.737425e-01
1.262340e-01
7.508077e-02
2.006087e-02
-3.896679e-02
-1.020887e-01
-1.694058e-01
-2.410044e-01
-3.168756e-01
-3.968955e-01
-4.808303e-01
-5.682752e-01
-6.585780e-01
-7.508929e-01
-8.443710e-01
-9.382805e-01
-1.031958e+00
-1.124745e+00
-1.216036e+00
-1.305386e+00
-1.392551e+00
-1.477451e+00
-1.560089e+00
-1.640556e+00
-1.719092e+00
-1.796077e+00
-1.871909e+00
-1.946901e+00
-2.021324e+00
-2.095484e+00
-2.169725e+00
-2.244345e+00
-2.319609e+00
-2.395797e+00
-2.473154e+00
-2.551796e+00
-2.631716e+00
-2.712848e+00
-2.795080e+00
-2.878212e+00
-2.961980e+00
-3.046078e+00
-3.130178e+00
-3.213964e+00
-3.297183e+00
-3.379685e+00
-3.461382e+00
-3.542152e+00
-3.621809e+00
-3.700181e+00
-3.777150e+00
-3.852572e+00
-3.926221e+00
-3.997827e+00
-4.067167e+00
-4.134094e+00
-4.198479e+00
-4.260163e+00
-4.319000e+00
-4.374931e+00
-4.428041e+00
-4.478611e+00
-4.527139e+00
-4.574278e+00
-4.620699e+00
-4.666996e+00
-4.713681e+00
-4.761171e+00
-4.809691e+00
-4.859153e+00
-4.909165e+00
-4.959209e+00
-5.008841e+00
-5.057761e+00
-5.105776e+00
-5.152770e+00
-5.198671e+00
-5.243385e+00
-5.286784e+00
-5.328742e+00
-5.369151e+00
-5.407901e+00
-5.444866e+00
-5.479915e+00
-5.512932e+00
-5.543797e+00
-5.572353e+00
-5.598407e+00
-5.621752e+00
-5.642155e+00
-5.659323e+00
-5.672915e+00
-5.682625e+00
-5.688267e+00
-5.689786e+00
-5.687224e+00
-5.680687e+00
-5.670300e+00
-5.656169e+00
-5.638405e+00
-5.617172e+00
-5.592723e+00
-5.565391e+00
-5.535543e+00
-5.503526e+00
-5.469624e+00
-5.434044e+00
-5.396936e+00
-5.358427e+00
-5.318618e+00
-5.277560e+00
-5.235249e+00
-5.191637e+00
-5.146673e+00
-5.100362e+00
-5.052800e+00
-5.004163e+00
-4.954665e+00
-4.904493e+00
-4.853773e+00
-4.802614e+00
-4.751177e+00
-4.699692e+00
-4.648404e+00
-4.597546e+00
-4.547357e+00
-4.498104e+00
-4.450067e+00
-4.403512e+00
-4.358706e+00
-4.315923e+00
-4.275432e+00
-4.237461e+00
-4.202158e+00
-4.169491e+00
-4.139133e+00
-4.110484e+00
-4.082848e+00
-4.055583e+00
-4.028140e+00
-4.000042e+00
-3.970842e+00
-3.940107e+00
-3.907431e+00
-3.872452e+00
-3.834873e+00
-3.794501e+00
-3.751301e+00
-3.705447e+00
-3.657316e+00
-3.607404e+00
-3.556221e+00
-3.504219e+00
-3.451781e+00
-3.399229e+00
-3.346830e+00
-3.294806e+00
-3.243352e+00
-3.192635e+00
-3.142793e+00
-3.093964e+00
-3.046304e+00
-2.999987e+00
-2.955202e+00
-2.912135e+00
-2.870938e+00
-2.831721e+00
-2.794571e+00
-2.759545e+00
-2.726629e+00
-2.695702e+00
-2.666520e+00
-2.638755e+00
-2.612046e+00
-2.586030e+00
-2.560345e+00
-2.534637e+00
-2.508568e+00
-2.481837e+00
-2.454213e+00
-2.425562e+00
-2.395873e+00
-2.365233e+00
-2.333771e+00
-2.301586e+00
-2.268733e+00
-2.235248e+00
-2.201172e+00
-2.166577e+00
-2.131590e+00
-2.096406e+00
-2.061263e+00
-2.026413e+00
-1.992117e+00
-1.958647e+00
-1.926271e+00
-1.895214e+00
-1.865631e+00
-1.837622e+00
-1.811243e+00
-1.786476e+00
-1.763168e+00
-1.740987e+00
-1.719430e+00
-1.697907e+00
-1.675879e+00
-1.652951e+00
-1.628866e+00
-1.603452e+00
-1.576601e+00
-1.548254e+00
-1.518373e+00
-1.486940e+00
-1.453998e+00
-1.419690e+00
-1.384222e+00
-1.347801e+00
-1.310593e+00
-1.272754e+00
-1.234479e+00
-1.196019e+00
-1.157673e+00
-1.119763e+00
-1.082571e+00
-1.046300e+00
-1.011071e+00
-9.769489e-01
-9.439577e-01
-9.121094e-01
-8.814383e-01
-8.520195e-01
-8.239456e-01
-7.972876e-01
-7.720840e-01
-7.483519e-01
-7.260931e-01
-7.053074e-01
-6.860187e-01
-6.682855e-01
-6.521812e-01
-6.377725e-01
-6.251086e-01
-6.142175e-01
-6.051062e-01
-5.977766e-01
-5.922415e-01
-5.885036e-01
-5.864965e-01
-5.860460e-01
-5.868916e-01
-5.887462e-01
-5.913418e-01
-5.944292e-01
-5.977510e-01
-6.010327e-01
-6.039994e-01
-6.064005e-01
-6.080343e-01
-6.087654e-01
-6.085268e-01
-6.073081e-01
-6.051254e-01
-6.019893e-01
