EVENT_NAME: EMILIA_2ND_SHOCK
EVENT_ID: IT-2012-0011
EVENT_DATE_YYYYMMDD: 20120529
EVENT_TIME_HHMMSS: 070002
EVENT_LATITUDE_DEGREE: 44.8417
EVENT_LONGITUDE_DEGREE: 11.0657
EVENT_DEPTH_KM: 8.1
HYPOCENTER_REFERENCE: INGV-CNT_Seismic_Bulletin
MAGNITUDE_W: 6.0
MAGNITUDE_W_REFERENCE: RCMT-INGV
MAGNITUDE_L: 5.8
MAGNITUDE_L_REFERENCE: INGV-CNT_Seismic_Bulletin
FOCAL_MECHANISM: TF
NETWORK: IT
STATION_CODE: SMS0
STATION_NAME: SAN MARTINO SPINO
STATION_LATITUDE_DEGREE: 44.934000
STATION_LONGITUDE_DEGREE: 11.235000
STATION_ELEVATION_M: 55
LOCATION: 
SENSOR_DEPTH_M: 0.0
VS30_M/S: 
SITE_CLASSIFICATION_EC8: C*
MORPHOLOGIC_CLASSIFICATION: 
EPICENTRAL_DISTANCE_KM: 16.9
EARTHQUAKE_BACKAZIMUTH_DEGREE: 232.6
DATE_TIME_FIRST_SAMPLE_YYYYMMDD_HHMMSS: 20120529_065933.000
DATE_TIME_FIRST_SAMPLE_PRECISION: seconds
SAMPLING_INTERVAL_S: 0.005000
NDATA: 32001
DURATION_S: 160.005
STREAM: HNE
UNITS: cm/s
INSTRUMENT: sensor = Episensor FBA ES-T [Kinemetrics] | digitizer = Etna [Kinemetrics]
INSTRUMENT_ANALOG/DIGITAL: D
INSTRUMENTAL_FREQUENCY_HZ: 
INSTRUMENTAL_DAMPING: 
FULL_SCALE_G: 
N_BIT_DIGITAL_CONVERTER: 18
PGV_CM/S: 13.514918
TIME_PGV_S: 41.645000
BASELINE_CORRECTION: BASELINE REMOVED
FILTER_TYPE: BUTTERWORTH
FILTER_ORDER: 2
LOW_CUT_FREQUENCY_HZ: 0.040
HIGH_CUT_FREQUENCY_HZ: 40.000
LATE/NORMAL_TRIGGERED: NT
DATABASE_VERSION: DYNA 1.0
HEADER_FORMAT: DYNA 1.2
DATA_TYPE: VELOCITY
PROCESSING: manual (Paolucci et al., 2011)
DATA_TIMESTAMP_YYYYMMDD_HHMMSS: 
DATA_LICENSE: CC-BY3_0-IT (http://creativecommons.org/licenses/by/3.0/deed.en)
DATA_CITATION: ESM working group (2015), European Strong-Motion database, version 0.1, Network Activity 3: Networking acceleration networks and SM data users. Project NERA (www.nera-eu.org)
DATA_CREATOR: ESM working group
ORIGINAL_DATA_MEDIATOR_CITATION: Ufficio Rischio Sismico e Vulcanico del Dipartimento della Protezione Civile (http://www.protezionecivile.gov.it/)
ORIGINAL_DATA_MEDIATOR: Rete Accelerometrica Nazionale - RAN Download (http://www.mot1.it/randownload/)
ORIGINAL_DATA_CREATOR_CITATION: Italian Strong Motion Network, Italian Civil Protection Department http://www.protezionecivile.gov.it
ORIGINAL_DATA_CREATOR: network: IT (Italian Strong Motion Network); owner: Dipartimento Della Protezione Civile
USER1: 
USER2: 
USER3: 
USER4: 
USER5: 
[...]
-0.054829
-0.057178
-0.062538
-0.067409
-0.069661
-0.069212
-0.067006
-0.064662
-0.064564
-0.067856
-0.072581
-0.075668
-0.076155
-0.075649
-0.076209
-0.078160
-0.080308
-0.081501
-0.080864
-0.077590
-0.071775
-0.064637
-0.057518
-0.051554
-0.047805
-0.046896
-0.048748
-0.052610
-0.057619
-0.062837
-0.066970
-0.070199
-0.074569
-0.080327
-0.084497
-0.084056
-0.078562
-0.069775
-0.060420
-0.053719
-0.052243
-0.055934
-0.062421
-0.069759
-0.077620
-0.085902
-0.093303
-0.097692
-0.098163
-0.096164
-0.093767
-0.091675
-0.089321
-0.085650
-0.079792
-0.072109
-0.064365
-0.058602
-0.056630
-0.059778
-0.067847
-0.079047
-0.091350
-0.102996
-0.111621
-0.114560
-0.111264
-0.104373
-0.097187
-0.090722
-0.084232
-0.078164
-0.075259
-0.078252
-0.087118
-0.099339
-0.112548
-0.125632
-0.137208
-0.144829
-0.146158
-0.140375
-0.129205
-0.115951
-0.102870
-0.091431
-0.084324
-0.083697
-0.088181
-0.094421
-0.101021
-0.109160
-0.119528
-0.130376
-0.138957
-0.143704
-0.144656
-0.142374
-0.137267
-0.130121
-0.121916
-0.113181
-0.105270
-0.101069
-0.101917
-0.105645
-0.110084
-0.115727
-0.122843
-0.129369
-0.133561
-0.136622
-0.141033
-0.146682
-0.150337
-0.148404
-0.138802
-0.122450
-0.104099
-0.089211
-0.079795
-0.074927
-0.074308
-0.079235
-0.090225
-0.105539
-0.123388
-0.143886
-0.165689
-0.182869
-0.189399
-0.184588
-0.171947
-0.156438
-0.143363
-0.136102
-0.134695
-0.137874
-0.145354
-0.157631
-0.173764
-0.189922
-0.202363
-0.211055
-0.216593
-0.216523
-0.209616
-0.199950
-0.192944
-0.190044
-0.189047
-0.188157
-0.186871
-0.182893
-0.173527
-0.160783
-0.149481
-0.141313
-0.135263
-0.130905
-0.128559
-0.129762
-0.138633
-0.158804
-0.188027
-0.218083
-0.240413
-0.250838
-0.248470
-0.232662
-0.204708
-0.171673
-0.145196
-0.134408
-0.141374
-0.163985
-0.196334
-0.227953
-0.252668
-0.273279
-0.292770
-0.307857
-0.313131
-0.307368
-0.292551
-0.269583
-0.239847
-0.208225
-0.180337
-0.159006
-0.145778
-0.142400
-0.149063
-0.163389
-0.181007
-0.196777
-0.206909
-0.211051
-0.212761
-0.217536
-0.228389
-0.240563
-0.243247
-0.230504
-0.207012
-0.181627
-0.160572
-0.147318
-0.143422
-0.148321
-0.161157
-0.181185
-0.205687
-0.231260
-0.255908
-0.277562
-0.293812
-0.303430
-0.306056
-0.302250
-0.293639
-0.281754
-0.268292
-0.255910
-0.248553
-0.250981
-0.265117
-0.286418
-0.306134
-0.318094
-0.321978
-0.320602
-0.316885
-0.312884
-0.309585
-0.306701
-0.302037
-0.293063
-0.280223
-0.265976
-0.252525
-0.242385
-0.236346
-0.231264
-0.223387
-0.212880
-0.204801
-0.204694
-0.212022
-0.220705
-0.225957
-0.225970
-0.219286
-0.206828
-0.193578
-0.185094
-0.184844
-0.191926
-0.200635
-0.207378
-0.215378
-0.230019
-0.253133
-0.281626
-0.310947
-0.339290
-0.365273
-0.383893
-0.390009
-0.384522
-0.373478
-0.362794
-0.357294
-0.361056
-0.373040
-0.385997
-0.394432
-0.399510
-0.403371
-0.404162
-0.398905
-0.387574
-0.374414
-0.366820
-0.369450
-0.377997
-0.383268
-0.381223
-0.375933
-0.375089
-0.383819
-0.401092
-0.420587
-0.434056
-0.435237
-0.422471
-0.399662
-0.374785
-0.355191
-0.345507
-0.348249
-0.360932
-0.376020
-0.388130
-0.397027
-0.403883
-0.408444
-0.408657
-0.404350
-0.400299
-0.401709
-0.408500
-0.414898
-0.413416
-0.400520
-0.380290
-0.361677
-0.351157
-0.349394
-0.353796
-0.361932
-0.372294
-0.383027
-0.391269
-0.395861
-0.401737
-0.415392
-0.434762
-0.452327
-0.464187
-0.468041
-0.462063
-0.448954
-0.432891
-0.415673
-0.399158
-0.388633
-0.391485
-0.409154
-0.433540
-0.457324
-0.482073
-0.511040
-0.540515
-0.562729
-0.573886
-0.575642
-0.571138
-0.564154
-0.558815
-0.554280
-0.544616
-0.529010
-0.515611
-0.511537
-0.513656
-0.512918
-0.505808
-0.497608
-0.495654
-0.501973
-0.510746
-0.512907
-0.505786
-0.495161
-0.486077
-0.476563
-0.461487
-0.440513
-0.421735
-0.416092
-0.427435
-0.449529
-0.472497
-0.491653
-0.509987
-0.530481
-0.549393
-0.559159
-0.555258
-0.540917
-0.525083
-0.516096
-0.517612
-0.527922
-0.542126
-0.556472
-0.571784
-0.590493
-0.612307
-0.637075
-0.663814
-0.682972
-0.683449
-0.668913
-0.651678
-0.634622
-0.612930
-0.586060
-0.560669
-0.546361
-0.548642
-0.565177
-0.588953
-0.613461
-0.635964
-0.657299
-0.678370
-0.696333
-0.705657
-0.704665
-0.697911
-0.690021
-0.681121
-0.670454
-0.660119
-0.653065
-0.650709
-0.652133
-0.654747
-0.657102
-0.657427
-0.651529
-0.639723
-0.629579
-0.625711
-0.623902
-0.615409
-0.595617
-0.573063
-0.562612
-0.567898
-0.579756
-0.587030
-0.585785
-0.582598
-0.585563
-0.595003
-0.609968
-0.633890
-0.667839
-0.708994
-0.754931
-0.800578
-0.835155
-0.850601
-0.850481
-0.845196
-0.841736
-0.839832
-0.836507
-0.831759
-0.827503
-0.824522
-0.822500
-0.822365
-0.826375
-0.835594
-0.852544
-0.880885
-0.914107
-0.935544
-0.936546
-0.920744
-0.891887
-0.853549
-0.813593
-0.777865
-0.745055
-0.710227
-0.670259
-0.626513
-0.583766
-0.547771
-0.526243
-0.529238
-0.561559
-0.615933
-0.679494
-0.744104
-0.805791
-0.859590
-0.899312
-0.920634
-0.925634
-0.923774
-0.923382
-0.923046
-0.914706
-0.891893
-0.855807
-0.816434
-0.782950
-0.755492
-0.729621
-0.701506
-0.668788
-0.630108
-0.585201
-0.538476
-0.498976
-0.472280
-0.455947
-0.446599
-0.445036
-0.450437
-0.458076
-0.466668
-0.482026
-0.509194
-0.545791
-0.587220
-0.632486
-0.679479
-0.718560
-0.739319
-0.740407
-0.724963
-0.695846
-0.661291
-0.630602
-0.602608
-0.572492
-0.543986
-0.523540
-0.510044
-0.495696
-0.473099
-0.443056
-0.416488
-0.403929
-0.404489
-0.409023
-0.410496
-0.407503
-0.401662
-0.394592
-0.387106
-0.382567
-0.387570
-0.407327
-0.441019
-0.480871
-0.516739
-0.542452
-0.559276
-0.569143
-0.566861
-0.547275
-0.513270
-0.472282
-0.428787
-0.383413
-0.338410
-0.300724
-0.281544
-0.290658
-0.329795
-0.390807
-0.458188
-0.517241
-0.561182
-0.588220
-0.592425
-0.565428
-0.506904
-0.424481
-0.329636
-0.238835
-0.171167
-0.137646
-0.136337
-0.163873
-0.220939
-0.301115
-0.385895
-0.456146
-0.503304
-0.527007
-0.527232
-0.502289
-0.453122
-0.388585
-0.324235
-0.270335
-0.227595
-0.198640
-0.187831
-0.191429
-0.199016
-0.201780
-0.197781
-0.186518
-0.163606
-0.128120
-0.087119
-0.051479
-0.030618
-0.025250
-0.027132
-0.027735
-0.023277
-0.016462
-0.013983
-0.019026
-0.030475
-0.047604
-0.068829
-0.091150
-0.116790
-0.152587
-0.200440
-0.254019
-0.304658
-0.346895
-0.377587
-0.395048
-0.402241
-0.410087
-0.435231
-0.490341
-0.577667
-0.690786
-0.818169
-0.944474
-1.052447
-1.130634
-1.176021
-1.187666
-1.165533
-1.113969
-1.043509
-0.967375
-0.895630
-0.836379
-0.795249
-0.770959
-0.757504
-0.749615
-0.748834
-0.761409
-0.780881
-0.786083
-0.767239
-0.733951
-0.693537
-0.643324
-0.583554
-0.523252
-0.474811
-0.448725
-0.451321
-0.486771
-0.557667
-0.654271
-0.751006
-0.823273
-0.858761
-0.853430
-0.813064
-0.761669
-0.731590
-0.738816
-0.779380
-0.845114
-0.929232
-1.020621
-1.105996
-1.179150
-1.236558
-1.270340
-1.277841
-1.265231
-1.229403
-1.149916
-1.012869
-0.831348
-0.635733
-0.452527
-0.294991
-0.167495
-0.067677
0.008688
0.059576
0.081034
0.071570
0.033118
-0.028402
-0.108730
-0.204226
-0.303423
-0.386095
-0.434320
-0.444685
-0.429826
-0.411554
-0.405609
-0.410109
-0.417256
-0.430805
-0.463540
-0.522257
-0.601893
-0.690953
-0.775272
-0.843333
-0.890509
-0.913232
-0.908361
-0.880357
-0.838194
-0.785096
-0.717423
-0.626837
-0.502204
-0.345132
-0.180057
-0.036060
0.075720
0.161761
0.228261
0.270526
0.280164
0.258064
0.220603
0.193698
0.198031
0.238966
0.311009
0.406200
0.513775
0.618296
0.700966
0.740354
0.720358
0.643509
0.528491
0.399347
0.282558
0.199271
0.158403
0.161039
0.203236
0.273568
0.350037
0.406245
0.424913
0.399992
0.329595
0.215628
0.071544
-0.077724
-0.207260
-0.296489
-0.328357
-0.295209
-0.200430
-0.059452
0.091729
0.208564
0.265197
0.256688
0.191601
0.088530
-0.035108
-0.155305
-0.233128
-0.243373
-0.189443
-0.088973
0.034977
0.166925
0.305284
0.445481
0.562420
0.615306
0.580099
0.468025
0.307801
0.130830
-0.040755
-0.206931
-0.369743
-0.508603
-0.595879
-0.615538
-0.554941
-0.408109
-0.191846
0.062009
0.323933
0.574093
0.805719
1.015950
1.192634
1.320139
1.390886
1.408889
1.390683
1.355527
1.311310
1.260297
1.213868
1.191438
1.209128
1.274250
1.382356
1.511541
1.629503
1.715646
1.770693
1.800603
1.801437
1.767889
1.701698
1.607106
1.494239
1.381876
1.287418
1.223058
1.201083
1.234105
1.329674
1.483858
1.678181
1.887086
2.089035
2.270804
2.429484
2.570792
2.701110
2.819791
2.920269
3.005286
3.089430
3.172608
3.231370
3.243521
3.199571
3.100395
2.962120
2.806845
2.645666
2.484103
2.332263
2.201285
2.098546
2.024895
1.974882
1.944120
1.930632
1.924060
1.906161
1.866752
1.806394
1.729541
1.648225
1.584427
1.566560
1.625183
1.776049
2.002555
2.265044
2.524193
2.753775
2.942832
3.092965
3.209431
3.290902
3.331749
3.332617
3.304657
3.268051
3.242482
3.232893
3.229467
3.221959
3.209570
3.198271
3.195576
3.208945
3.242242
3.291605
3.347618
3.403029
3.456655
3.509439
3.559119
3.599257
3.623041
3.627082
3.614725
3.598800
3.596672
3.620050
3.670140
3.743550
3.842829
3.976452
4.148399
4.352933
4.578875
4.813694
5.044619
5.260942
5.449169
5.587045
5.657775
5.668454
5.648087
5.633840
5.656173
5.725085
5.828909
5.949260
6.074954
6.202707
6.331312
6.458522
6.576957
6.672883
6.736939
6.769984
6.774085
6.745940
6.679028
6.567772
6.412504
6.222855
6.019188
5.830262
5.678909
5.571513
5.504580
5.467265
5.441569
5.413879
5.376188
5.316117
5.223010
5.098674
4.951394
4.787052
4.608935
4.421303
4.231515
4.047487
3.874831
3.715921
3.569654
3.433161
3.299123
3.154507
2.990178
2.804071
2.594437
2.360107
2.111751
1.886114
1.736902
1.699154
1.775037
1.954324
2.226671
2.577525
2.990209
3.445273
3.914214
4.367263
4.785792
5.155847
5.450784
5.630022
5.659462
5.531742
5.269183
4.910279
4.492274
4.044589
3.591738
3.157463
2.768649
2.453271
2.231344
2.112332
2.104435
2.219843
2.464609
2.828607
3.287915
3.810764
4.364986
4.926517
5.477360
5.995254
6.451886
6.822874
7.093395
7.252364
7.288785
7.199598
6.998717
6.713221
6.371265
5.992017
5.583853
5.150586
4.695596
4.224778
3.745527
3.264087
2.794525
2.360508
1.982652
1.671243
1.423656
1.229941
1.089908
1.016755
1.019726
1.091838
1.211895
1.357154
1.521308
1.714111
1.948079
2.234758
2.569985
2.912408
3.196326
3.369751
3.420173
3.369263
3.250554
3.097515
2.936152
2.779906
2.633579
2.494941
2.357909
2.219606
2.080335
1.943441
1.816921
1.700456
1.574423
1.415590
1.212654
0.962030
0.662143
0.311356
-0.095288
-0.559992
-1.068761
-1.593978
-2.112874
-2.613055
-3.070346
-3.430408
-3.633964
-3.658831
-3.525911
-3.277301
-2.958867
-2.607418
-2.243052
-1.873288
-1.498826
-1.120974
-0.747916
-0.388097
-0.046226
0.272719
0.564470
0.825270
1.046629
1.216858
1.333949
1.413079
1.476920
1.542034
1.613708
1.688732
1.761737
1.829503
1.889195
1.932591
1.946481
1.922997
1.864805
1.779967
1.678040
1.566561
1.445930
1.310050
1.156305
0.996697
0.856558
0.759500
0.713692
0.716602
0.765763
0.852341
0.953303
1.041079
1.094040
1.096684
1.040483
0.925356
0.757062
0.546695
0.309814
0.060378
-0.194724
-0.456265
-0.732303
-1.036211
-1.374014
-1.736685
-2.110146
-2.478884
-2.825416
-3.141783
-3.431786
-3.697411
-3.934297
-4.139756
-4.317620
-4.477678
-4.633264
-4.793324
-4.953136
-5.096122
-5.203777
-5.264835
-5.280673
-5.261255
-5.213295
-5.133617
-5.013034
-4.839898
-4.600549
-4.284700
-3.891705
-3.430468
-2.917726
-2.380976
-1.857745
-1.383525
-0.978590
-0.643342
-0.358762
-0.091599
0.188703
0.495001
0.830809
1.204273
1.624881
2.097617
2.622826
3.191304
3.780325
4.356143
4.877522
5.302288
5.599362
5.761569
5.806868
5.763746
5.657914
5.507835
5.323009
5.107072
4.866077
4.612384
4.355796
4.093220
3.812045
3.501478
3.161525
2.803122
2.437121
2.061725
1.660880
1.216437
0.720972
0.176732
-0.411481
-1.038285
-1.697315
-2.379336
-3.070584
-3.753571
-4.408034
-5.011835
-5.543901
-5.993529
-6.369733
-6.695455
-6.991739
-7.269788
-7.530306
-7.765627
-7.963695
-8.106805
-8.176315
-8.164265
-8.073307
-7.913861
-7.703026
-7.458765
-7.196691
-6.929522
-6.671875
-6.450411
-6.300150
-6.245781
-6.290917
-6.421747
-6.615580
-6.848582
-7.097900
-7.337442
-7.533230
-7.647501
-7.652954
-7.543706
-7.333065
-7.040946
-6.684793
-6.282311
-5.851012
-5.399773
-4.931848
-4.456385
-3.988333
-3.543533
-3.135202
-2.765061
-2.421104
-2.087201
-1.752172
-1.411823
-1.064801
-0.711205
-0.356073
-0.009521
0.317698
0.619788
0.896615
1.149357
1.382658
1.608757
1.841703
2.091774
2.367353
2.677927
3.033177
3.436256
3.875756
4.327562
4.771464
5.203322
5.629143
6.059208
6.506686
6.979364
7.476153
7.993126
8.525398
9.067478
9.617174
10.174360
10.734410
11.288700
11.829230
12.344500
12.810460
13.186790
13.429500
13.514920
13.447790
13.248760
12.943630
12.560560
12.124660
11.651720
11.148920
10.620170
10.071440
9.512170
8.953433
8.405101
7.867760
7.327409
6.767270
6.182518
5.581061
4.979968
4.401178
3.864346
3.384422
2.968332
2.606683
2.275205
1.947672
1.602478
1.219318
0.779022
0.267899
-0.317981
-0.968514
-1.659741
-2.361161
-3.043825
-3.685248
-4.277082
-4.828343
-5.353984
-5.865146
-6.368153
-6.860902
-7.332276
-7.769288
-8.158862
-8.486050
-8.741438
-8.925573
-9.040507
-9.085906
-9.064578
-8.985244
-8.861333
-8.707308
-8.531098
-8.328259
-8.088528
-7.814180
-7.529590
-7.269038
-7.057360
-6.898078
-6.770975
-6.642810
-6.484588
-6.278640
-6.015894
-5.692487
-5.308012
-4.867608
-4.385880
-3.888402
-3.409524
-2.982781
-2.629958
-2.361990
-2.187550
-2.114922
-2.145554
-2.269419
-2.466200
-2.710051
-2.978317
-3.256440
-3.533278
-3.798451
-4.045592
-4.272113
-4.476236
-4.657937
-4.819850
-4.960599
-5.067880
-5.122699
-5.108938
-5.018015
-4.849650
-4.611748
-4.318181
-3.982480
-3.612220
-3.214760
-2.807024
-2.413024
-2.056553
-1.759230
-1.538507
-1.404045
-1.354632
-1.377048
-1.450296
-1.553420
-1.671083
-1.796532
-1.932018
-2.082047
-2.245395
-2.418867
-2.605337
-2.810098
-3.035243
-3.284890
-3.563704
-3.866842
-4.184372
-4.510829
-4.845371
-5.189431
-5.544591
-5.910838
-6.284121
-6.659146
-7.037115
-7.422205
-7.813746
-8.206268
-8.584387
-8.913947
-9.148485
-9.249401
-9.202384
-9.016492
-8.709347
-8.297323
-7.795341
-7.214593
-6.559327
-5.832206
-5.042190
-4.204837
-3.339271
-2.467001
-1.606804
-0.767096
0.051749
0.850390
1.630933
2.396287
3.145439
3.875191
4.584735
5.276144
5.953628
6.621618
7.283162
7.942945
8.609163
9.287086
9.970330
10.634860
11.238340
11.732960
12.083540
12.273980
12.306010
12.198510
11.982060
11.687460
11.339210
10.951690
10.524970
10.052360
9.534714
8.983970
8.417483
7.851490
7.293754
6.738037
6.171574
5.588766
4.991128
4.379416
3.750137
3.095500
2.407237
1.681107
0.918245
0.124798
-0.689374
-1.513841
-2.340773
-3.162887
-3.970127
-4.752168
-5.501877
-6.215882
-6.894495
-7.539147
-8.146193
-8.705588
-9.210595
-9.663745
-10.070170
-10.434640
-10.763130
-11.058670
-11.320950
-11.551370
-11.750810
-11.916480
-12.045910
-12.136250
-12.179710
-12.166660
-12.086930
-11.926960
-11.674420
-11.322620
-10.868790
-10.316560
-9.679116
-8.974016
-8.219239
-7.435880
-6.646643
-5.868528
-5.111613
-4.383447
-3.690781
-3.040916
-2.443603
-1.907657
-1.435749
-1.024909
-0.668405
-0.355572
-0.073200
0.193112
0.458796
0.739254
1.048193
1.395555
1.783394
2.203393
2.641721
3.085326
3.524226
3.948325
4.337454
4.656840
4.869876
4.956836
4.917369
4.759669
4.495700
4.142418
3.719820
3.245366
2.730484
2.182329
1.607149
1.011651
0.403944
-0.206793
-0.815553
-1.424696
-2.041261
-2.672021
-3.317811
-3.974206
-4.638291
-5.311617
-5.996072
-6.688789
-7.383736
-8.075474
-8.753846
-9.394639
-9.966670
-10.451510
-10.848250
-11.162220
-11.396660
-11.550870
-11.622760
-11.614280
-11.532340
-11.385120
-11.180850
-10.928110
-10.634940
-10.310200
-9.966484
-9.617083
-9.269962
-8.924971
-8.573715
-8.204903
-7.808808
-7.376499
-6.907772
-6.420831
-5.942972
-5.494733
-5.085449
-4.713789
-4.369411
-4.040044
-3.717620
-3.397730
-3.078015
-2.757052
-2.432707
-2.102161
-1.761293
-1.403614
-1.023554
-0.620135
-0.195131
0.249084
0.708332
1.178843
1.661757
2.160708
2.675850
3.201040
3.724294
4.233059
4.717899
5.166242
5.557134
5.869627
6.095210
6.239061
6.312114
6.326525
6.299189
6.254375
6.216644
6.200076
6.205472
6.226066
6.253919
6.282549
6.305545
6.313355
6.293191
6.232138
6.118802
5.943419
5.699507
5.386219
5.008689
4.576443
4.100393
3.589051
3.047384
2.479574
1.892396
1.296782
0.705240
0.126899
-0.431343
-0.959563
-1.445129
-1.876919
-2.248135
-2.557861
-2.810545
-3.013884
-3.180359
-3.330232
-3.488305
-3.677241
-3.912791
-4.200064
-4.533377
-4.902150
-5.296084
-5.705874
-6.124817
-6.548209
-6.965813
-7.361305
-7.723888
-8.052473
-8.347743
-8.607217
-8.826442
-9.001092
-9.129879
-9.217859
-9.276844
-9.322301
-9.367660
-9.417064
-9.463373
-9.494846
-9.501230
-9.472878
-9.399430
-9.274795
-9.101073
-8.883672
-8.626841
-8.335336
-8.016390
-7.679381
-7.333583
-6.986261
-6.641669
-6.300971
-5.962845
-5.621741
-5.268151
-4.892506
-4.486758
-4.046521
-3.575080
-3.081930
-2.575265
-2.056763
-1.524759
-0.981888
-0.437384
0.098129
0.618312
1.122944
1.613769
2.085152
2.518721
2.888647
3.174671
3.373048
3.498267
3.573941
3.617431
3.634910
3.627288
3.591428
3.521245
3.412591
3.264143
3.075963
2.848472
2.581202
2.273653
1.927289
1.545355
1.132673
0.695846
0.240868
-0.229210
-0.712997
-1.207490
-1.705882
-2.197604
-2.670507
-3.114835
-3.525352
-3.900473
-4.241859
-4.553320
-4.838342
-5.100241
-5.344411
-5.576528
-5.796165
-5.996551
-6.172133
-6.322450
-6.451194
-6.563677
-6.663503
-6.752396
-6.831336
-6.900332
-6.957962
-6.999601
-7.015673
-6.993087
-6.918853
-6.783431
-6.584209
-6.327470
-6.026114
-5.695755
-5.350035
-4.996681
-4.639191
-4.280942
-3.926920
-3.583957
-3.260480
-2.965452
-2.705359
-2.481624
-2.291465
-2.127792
-1.977693
-1.826690
-1.665539
-1.491995
-1.309089
-1.122660
-0.939382
-0.766152
-0.610264
-0.480428
-0.388047
-0.346161
-0.364811
-0.446543
-0.587373
-0.780393
-1.017241
-1.290833
-1.597140
-1.932014
-2.289243
-2.661727
-3.043102
-3.429355
-3.818634
-4.210021
-4.603823
-5.001349
-5.402344
-5.804225
-6.205173
-6.605504
-7.003402
-7.389736
