EVENT_NAME: EMILIA_2ND_SHOCK
EVENT_ID: IT-2012-0011
EVENT_DATE_YYYYMMDD: 20120529
EVENT_TIME_HHMMSS: 070002
EVENT_LATITUDE_DEGREE: 44.8417
EVENT_LONGITUDE_DEGREE: 11.0657
EVENT_DEPTH_KM: 8.1
HYPOCENTER_REFERENCE: INGV-CNT_Seismic_Bulletin
MAGNITUDE_W: 6.0
MAGNITUDE_W_REFERENCE: RCMT-INGV
MAGNITUDE_L: 5.8
MAGNITUDE_L_REFERENCE: INGV-CNT_Seismic_Bulletin
FOCAL_MECHANISM: TF
NETWORK: IT
STATION_CODE: SAG0
STATION_NAME: SANT AGOSTINO
STATION_LATITUDE_DEGREE: 44.791000
STATION_LONGITUDE_DEGREE: 11.390400
STATION_ELEVATION_M: 66
LOCATION: 
SENSOR_DEPTH_M: 0.0
VS30_M/S: 
SITE_CLASSIFICATION_EC8: C*
MORPHOLOGIC_CLASSIFICATION: 
EPICENTRAL_DISTANCE_KM: 26.3
EARTHQUAKE_BACKAZIMUTH_DEGREE: 282.5
DATE_TIME_FIRST_SAMPLE_YYYYMMDD_HHMMSS: 20120529_065943.000
DATE_TIME_FIRST_SAMPLE_PRECISION: seconds
SAMPLING_INTERVAL_S: 0.005000
NDATA: 30001
DURATION_S: 150.005
STREAM: HNE
UNITS: cm/s^2
INSTRUMENT: sensor = Episensor FBA ES-T [Kinemetrics] | digitizer = Etna [Kinemetrics]
INSTRUMENT_ANALOG/DIGITAL: D
INSTRUMENTAL_FREQUENCY_HZ: 
INSTRUMENTAL_DAMPING: 
FULL_SCALE_G: 
N_BIT_DIGITAL_CONVERTER: 18
PGA_CM/S^2: -79.145438
TIME_PGA_S: 34.995000
BASELINE_CORRECTION: BASELINE REMOVED
FILTER_TYPE: BUTTERWORTH
FILTER_ORDER: 2
LOW_CUT_FREQUENCY_HZ: 0.050
HIGH_CUT_FREQUENCY_HZ: 35.000
LATE/NORMAL_TRIGGERED: NT
DATABASE_VERSION: DYNA 1.0
HEADER_FORMAT: DYNA 1.2
DATA_TYPE: ACCELERATION
PROCESSING: manual (Paolucci et al., 2011)
DATA_TIMESTAMP_YYYYMMDD_HHMMSS: 
DATA_LICENSE: CC-BY3_0-IT (http://creativecommons.org/licenses/by/3.0/deed.en)
DATA_CITATION: ESM working group (2015), European Strong-Motion database, version 0.1, Network Activity 3: Networking acceleration networks and SM data users. Project NERA (www.nera-eu.org)
DATA_CREATOR: ESM working group
ORIGINAL_DATA_MEDIATOR_CITATION: Ufficio Rischio Sismico e Vulcanico del Dipartimento della Protezione Civile (http://www.protezionecivile.gov.it/)
ORIGINAL_DATA_MEDIATOR: Rete Accelerometrica Nazionale - RAN Download (http://www.mot1.it/randownload/)
ORIGINAL_DATA_CREATOR_CITATION: Italian Strong Motion Network, Italian Civil Protection Department http://www.protezionecivile.gov.it
ORIGINAL_DATA_CREATOR: network: IT (Italian Strong Motion Network); owner: Dipartimento Della Protezione Civile
USER1: 
USER2: 
USER3: 
USER4: 
USER5: 
[...]
-0.155014
-0.266124
-0.234235
-0.109699
0.027504
0.104244
0.083682
-0.029401
-0.205493
-0.405455
-0.579628
-0.663599
-0.602925
-0.392641
-0.086941
0.215873
0.402767
0.399718
0.225744
0.000411
-0.123480
-0.068302
0.124918
0.359596
0.555036
0.652589
0.601105
0.373895
0.002902
-0.417680
-0.776526
-0.999323
-1.065771
-0.995244
-0.829156
-0.611536
-0.368175
-0.106698
0.160217
0.396624
0.556342
0.625910
0.642270
0.645284
0.626932
0.546446
0.387709
0.193134
0.039578
-0.011387
0.064051
0.247587
0.469644
0.627013
0.648583
0.555393
0.438107
0.364508
0.321287
0.245361
0.089578
-0.146039
-0.422449
-0.678070
-0.844201
-0.874360
-0.772866
-0.588460
-0.381163
-0.193516
-0.044319
0.064173
0.153255
0.266530
0.425143
0.584587
0.648902
0.538798
0.265613
-0.061015
-0.305328
-0.390975
-0.339983
-0.248241
-0.220904
-0.307189
-0.468887
-0.609993
-0.641849
-0.523568
-0.263106
0.097803
0.487991
0.804088
0.947432
0.895943
0.729419
0.576354
0.534612
0.619867
0.761797
0.840504
0.744695
0.434038
-0.028649
-0.510489
-0.882363
-1.064208
-1.026180
-0.790077
-0.434047
-0.061390
0.248392
0.446998
0.494059
0.367828
0.106213
-0.194535
-0.442080
-0.596903
-0.650850
-0.582399
-0.371011
-0.064919
0.200365
0.294651
0.211289
0.077480
0.041271
0.146777
0.313461
0.425726
0.433166
0.370190
0.293004
0.212632
0.096576
-0.080670
-0.295973
-0.477345
-0.557133
-0.523670
-0.408822
-0.251251
-0.082290
0.078935
0.227820
0.371082
0.515831
0.652989
0.755044
0.795933
0.772127
0.692347
0.549320
0.335826
0.089490
-0.116180
-0.229186
-0.255165
-0.250590
-0.281066
-0.358544
-0.416976
-0.378815
-0.252473
-0.141769
-0.145372
-0.253059
-0.355606
-0.357714
-0.253219
-0.083312
0.122968
0.332498
0.478163
0.493377
0.376501
0.193287
-0.003491
-0.222850
-0.465035
-0.637170
-0.605202
-0.349558
-0.026228
0.180676
0.252548
0.324155
0.478368
0.620830
0.599553
0.399807
0.143835
-0.083085
-0.312423
-0.584625
-0.844080
-0.986875
-0.963486
-0.791866
-0.521616
-0.234829
-0.035093
0.023941
-0.006619
-0.027289
-0.009969
-0.018821
-0.101583
-0.213455
-0.269362
-0.233037
-0.132833
-0.012114
0.115279
0.255407
0.384848
0.448296
0.423149
0.340747
0.228170
0.072442
-0.137443
-0.352067
-0.481763
-0.501848
-0.504520
-0.592739
-0.735519
-0.770688
-0.554285
-0.100195
0.420528
0.806775
0.951045
0.873073
0.674690
0.466358
0.335742
0.360855
0.571434
0.858715
0.982858
0.739053
0.139918
-0.568186
-1.079446
-1.225135
-1.016923
-0.569045
-0.044373
0.358209
0.463215
0.239372
-0.143762
-0.443257
-0.531470
-0.417855
-0.140456
0.276844
0.752311
1.069152
0.965251
0.381212
-0.433488
-1.118705
-1.473133
-1.519062
-1.364557
-1.067651
-0.647036
-0.170837
0.236173
0.486385
0.596494
0.654126
0.734699
0.853401
0.988166
1.114888
1.198197
1.189906
1.057864
0.792668
0.410321
-0.032868
-0.455733
-0.771852
-0.895610
-0.779471
-0.449826
0.004286
0.463783
0.822898
1.031227
1.107053
1.124478
1.167746
1.259164
1.322108
1.221511
0.855185
0.225938
-0.550502
-1.278471
-1.738695
-1.775956
-1.380846
-0.711948
-0.030052
0.441947
0.631920
0.607381
0.483956
0.356536
0.289060
0.339974
0.563383
0.937627
1.295550
1.387218
1.051776
0.348035
-0.454887
-1.033644
-1.201425
-0.969344
-0.483971
0.045562
0.418250
0.528832
0.429872
0.302742
0.326613
0.558422
0.935487
1.349767
1.682592
1.806598
1.638606
1.219383
0.704906
0.259115
-0.046868
-0.246041
-0.414558
-0.620821
-0.906283
-1.273625
-1.693451
-2.104417
-2.382428
-2.362997
-1.958983
-1.263541
-0.523912
0.009197
0.219042
0.119026
-0.220565
-0.685877
-1.107477
-1.310285
-1.209868
-0.861990
-0.411331
-0.024011
0.126138
-0.078400
-0.572016
-1.109387
-1.438253
-1.447127
-1.153248
-0.593312
0.213653
1.170092
2.028715
2.509695
2.507644
2.154602
1.697456
1.326445
1.082821
0.902805
0.711626
0.445153
0.055424
-0.430800
-0.892863
-1.188618
-1.253690
-1.149912
-1.001531
-0.880876
-0.788586
-0.708012
-0.615491
-0.454126
-0.137770
0.404558
1.168870
2.036622
2.786258
3.173565
3.056513
2.467852
1.570361
0.551117
-0.457736
-1.385206
-2.159512
-2.681029
-2.915916
-2.974279
-3.003945
-3.018612
-2.879972
-2.443612
-1.710738
-0.828282
0.037339
0.767706
1.264972
1.452587
1.315818
0.905407
0.299807
-0.425396
-1.193639
-1.914373
-2.496546
-2.873034
-3.008572
-2.899435
-2.586881
-2.167708
-1.743690
-1.335644
-0.880614
-0.328194
0.278416
0.824600
1.207277
1.353892
1.182923
0.633986
-0.241637
-1.258152
-2.192423
-2.913402
-3.388966
-3.563201
-3.297353
-2.499101
-1.309634
-0.104684
0.749485
1.145346
1.230557
1.186876
1.050231
0.761229
0.360049
0.060160
0.084446
0.452307
0.974180
1.451305
1.837553
2.190671
2.523041
2.776272
2.920055
2.986431
2.994937
2.905680
2.655557
2.196950
1.500491
0.576819
-0.455393
-1.347720
-1.840897
-1.833096
-1.424048
-0.810742
-0.161629
0.410693
0.814522
1.005206
1.035448
0.987445
0.844024
0.495098
-0.114324
-0.884800
-1.635060
-2.254711
-2.752285
-3.162892
-3.445876
-3.497039
-3.270690
-2.870625
-2.490093
-2.248820
-2.092434
-1.870931
-1.513802
-1.093654
-0.722756
-0.440576
-0.232992
-0.127787
-0.202511
-0.487517
-0.917234
-1.400745
-1.912566
-2.487757
-3.136411
-3.798321
-4.378182
-4.787080
-4.964777
-4.900785
-4.624784
-4.155531
-3.466577
-2.540082
-1.471452
-0.462707
0.331764
0.914803
1.384736
1.828000
2.318416
2.964632
3.867438
5.002554
6.177665
7.142982
7.746131
7.980751
7.931075
7.705597
7.391102
6.998233
6.410709
5.420264
3.882783
1.875844
-0.298153
-2.242969
-3.595010
-4.108440
-3.749372
-2.769808
-1.639149
-0.789322
-0.367547
-0.257487
-0.309643
-0.463614
-0.652349
-0.698696
-0.413566
0.187519
0.851115
1.318033
1.525506
1.554514
1.477062
1.341666
1.265598
1.428004
1.924364
2.675566
3.503990
4.249957
4.810686
5.127536
5.155089
4.842792
4.167120
3.184158
2.059724
1.026040
0.234766
-0.345654
-0.842172
-1.312345
-1.701317
-1.942332
-2.045461
-2.067127
-2.044249
-2.000304
-1.977449
-1.998653
-1.993437
-1.796267
-1.240098
-0.279762
0.955435
2.223348
3.250083
3.785959
3.700240
3.053174
2.054527
0.979298
0.110214
-0.315000
-0.184194
0.410374
1.210557
1.974321
2.633849
3.270497
3.952487
4.637202
5.230745
5.678382
5.960279
6.017609
5.713653
4.883172
3.425564
1.383214
-1.032046
-3.475149
-5.548477
-6.940995
-7.583331
-7.665799
-7.485333
-7.257974
-7.008453
-6.584473
-5.774563
-4.417017
-2.456471
-0.000834
2.656525
5.094934
6.848997
7.521251
6.951316
5.327671
3.114709
0.805925
-1.297719
-3.062212
-4.341122
-4.930163
-4.714556
-3.809312
-2.502126
-1.060984
0.353864
1.639695
2.734158
3.662898
4.518073
5.305636
5.836008
5.849153
5.228654
4.036751
2.389390
0.407600
-1.663663
-3.402463
-4.426681
-4.662200
-4.332199
-3.697646
-2.868858
-1.880702
-0.841801
0.115865
0.999064
1.948148
3.069307
4.339382
5.648252
6.843944
7.722704
8.046014
7.642490
6.530052
4.930418
3.146968
1.447190
0.060458
-0.809053
-1.056398
-0.750960
-0.118346
0.537079
0.893012
0.670371
-0.233362
-1.626475
-3.105404
-4.314521
-5.128926
-5.582486
-5.689579
-5.417883
-4.789432
-3.916283
-2.932060
-1.932739
-1.002631
-0.239857
0.312361
0.713143
1.031045
1.222025
1.129419
0.603615
-0.373430
-1.669146
-3.072432
-4.365384
-5.378059
-6.042199
-6.398163
-6.541017
-6.568438
-6.558858
-6.558746
-6.559809
-6.477951
-6.192662
-5.634056
-4.813868
-3.802360
-2.721820
-1.731976
-0.960921
-0.409823
0.060588
0.593027
1.179937
1.680496
1.983359
2.100544
2.079747
1.902971
1.535026
1.022338
0.459070
-0.181901
-1.112211
-2.538922
-4.447608
-6.603847
-8.718196
-10.554936
-11.900518
-12.556000
-12.439338
-11.627421
-10.237197
-8.290495
-5.752250
-2.709231
0.541290
3.591440
6.089476
7.835237
8.780301
9.002768
8.684658
8.054568
7.314864
6.615022
6.077909
5.807065
5.824422
6.027878
6.264820
6.453901
6.611930
6.759478
6.848788
6.807995
6.608523
6.248933
5.682578
4.821198
3.638505
2.220288
0.694998
-0.868742
-2.488830
-4.164382
-5.755447
-7.012466
-7.712946
-7.762893
-7.198037
-6.122200
-4.696194
-3.179908
-1.900068
-1.111564
-0.857118
-0.962518
-1.180521
-1.340553
-1.384422
-1.310407
-1.141392
-0.932599
-0.736764
-0.539815
-0.248862
0.247903
1.033411
2.166742
3.656712
5.375229
6.987399
8.007615
8.017377
6.896801
4.874384
2.367882
-0.195271
-2.407223
-3.877698
-4.359409
-3.888351
-2.766880
-1.375222
0.026612
1.307125
2.335431
2.934551
2.961025
2.391196
1.326931
-0.046274
-1.468402
-2.618544
-3.236734
-3.263303
-2.835804
-2.187054
-1.533991
-1.011028
-0.673818
-0.502568
-0.405380
-0.272859
-0.057321
0.152288
0.141008
-0.286062
-1.165471
-2.387600
-3.813691
-5.353235
-6.926517
-8.371453
-9.439068
-9.937192
-9.865824
-9.396733
-8.744183
-8.040482
-7.308197
-6.519682
-5.649692
-4.693173
-3.653807
-2.511831
-1.230755
0.205483
1.789587
3.492394
5.242027
6.920341
8.393371
9.562101
10.386276
10.850145
10.915209
10.520034
9.642483
8.354433
6.777883
5.002137
3.083276
1.091057
-0.895715
-2.848197
-4.828013
-6.944482
-9.264286
-11.760444
-14.301196
-16.652903
-18.529510
-19.692841
-20.048019
-19.670015
-18.732965
-17.422806
-15.954102
-14.628604
-13.755519
-13.466806
-13.639634
-14.003539
-14.306202
-14.382634
-14.136690
-13.555961
-12.746753
-11.868676
-10.989681
-10.019812
-8.811346
-7.315553
-5.605299
-3.773747
-1.895702
-0.107148
1.336025
2.143071
2.156066
1.430367
0.172899
-1.350135
-2.838235
-3.957124
-4.392687
-3.936988
-2.548720
-0.370151
2.302602
5.087451
7.615029
9.637238
11.088758
12.087797
12.890770
13.768084
14.841512
16.037764
17.196220
18.192839
18.985218
19.588924
20.028454
20.340832
20.619059
20.960945
21.337370
21.538231
21.253122
20.228971
18.377975
15.753163
12.483282
8.768632
4.886640
1.127621
-2.322037
-5.467585
-8.469488
-11.485154
-14.526948
-17.439695
-19.986637
-21.950066
-23.163366
-23.495623
-22.841831
-21.148653
-18.457977
-14.904204
-10.677578
-6.023210
-1.280642
3.086224
6.562807
8.765721
9.556080
8.986933
7.170209
4.223344
0.379475
-3.891632
-7.932359
-11.121552
-13.122684
-13.911187
-13.577860
-12.204074
-9.968449
-7.334938
-5.031704
-3.731367
-3.719720
-4.842452
-6.715235
-8.958488
-11.238889
-13.178267
-14.349418
-14.417057
-13.234182
-10.747453
-6.900621
-1.729723
4.479504
11.172198
17.672960
23.392450
27.944279
31.101938
32.708969
32.696705
31.158886
28.382286
24.802345
20.833946
16.701490
12.484788
8.278963
4.215789
0.357360
-3.359584
-7.019873
-10.483117
-13.236682
-14.589149
-14.019598
-11.362179
-6.790167
-0.727986
6.165774
12.995960
18.846548
23.137220
25.782362
27.062656
27.378395
27.107025
26.606045
26.203547
26.165543
26.691082
27.882919
29.716034
32.023865
34.503338
36.818779
38.755749
40.234253
41.154530
41.259975
40.154350
37.389294
32.555809
25.510958
16.649719
6.871059
-2.790709
-11.563542
-19.105803
-25.366518
-30.353733
-34.149101
-37.063431
-39.523731
-41.690754
-43.226067
-43.557610
-42.437378
-40.144012
-37.177235
-33.916126
-30.564520
-27.260456
-23.998297
-20.415915
-15.953023
-10.364526
-4.046455
2.105333
7.241986
11.086993
13.936259
16.276485
18.433416
20.385008
21.871948
22.683748
22.706640
21.741205
19.480907
15.825917
11.199744
6.408485
2.146919
-1.296094
-3.852046
-5.306874
-5.254397
-3.465683
-0.255419
3.544335
6.936416
9.196783
10.231950
10.596015
10.970397
11.469029
11.495184
10.284789
7.500080
3.337918
-1.790970
-7.563636
-13.630822
-19.314419
-23.669235
-25.850670
-25.373692
-22.113010
-16.152111
-7.809008
2.132620
12.443004
21.875647
29.664255
35.667442
40.051208
42.909946
44.235085
44.097923
42.687626
40.133305
36.344364
31.126034
24.514364
16.964376
9.188059
1.830558
-4.736445
-10.387548
-15.034117
-18.451797
-20.360197
-20.665255
-19.557123
-17.321936
-14.108564
-9.967805
-5.070022
0.159179
5.066276
9.062777
11.972539
13.881996
14.703955
14.136943
12.002576
8.551871
4.440018
0.364402
-3.212403
-5.950818
-7.421196
-7.301845
-5.861683
-4.002414
-2.681270
-2.359041
-3.092059
-5.044311
-8.523036
-13.446259
-19.123432
-24.665329
-29.631739
-34.255108
-38.824821
-43.064785
-46.414997
-48.658195
-50.034447
-50.840828
-50.941936
-49.775784
-47.010052
-42.994221
-38.406281
-33.575630
-28.282984
-22.330126
-16.102783
-10.305364
-5.282489
-0.773642
3.679783
8.199470
12.564187
16.639174
20.629330
24.890923
29.570292
34.498222
39.403576
44.099583
48.491695
52.550468
56.207752
59.237728
61.445042
62.947430
64.093620
65.191933
66.366020
67.486183
68.187172
68.132248
67.323326
66.029900
64.444885
62.571823
60.402241
58.050549
55.720421
53.567532
51.546669
49.402637
46.853130
43.761181
40.113369
35.889725
31.016502
25.430019
19.149744
12.313412
5.237337
-1.564986
-7.662708
-13.074827
-18.145887
-23.153770
-28.226837
-33.397923
-38.627403
-43.936844
-49.411217
-54.972935
-60.331444
-65.208649
-69.482750
-73.090874
-75.928673
-77.898026
-78.960152
-79.145439
-78.565674
-77.338531
-75.470940
-72.964668
-70.087433
-67.347740
-65.132271
-63.511871
-62.361511
-61.506310
-60.783775
-60.071339
-59.255356
-58.162182
-56.569992
-54.285049
-51.138191
-46.947807
-41.598339
-35.117115
-27.615801
-19.347658
-10.929254
-3.121550
3.880462
10.541657
17.144411
23.254091
28.165628
31.648220
34.176456
36.401112
38.435120
39.811226
40.052616
39.077141
37.044415
33.933060
29.417707
23.272188
15.835882
7.946734
0.423456
-6.283010
-12.014174
-16.697165
-20.269491
-22.767405
-24.388205
-25.307434
-25.468262
-24.702145
-23.023991
-20.723063
-18.199490
-15.743108
-13.468692
-11.437901
-9.693993
-8.098075
-6.309383
-3.987959
-0.865579
3.271394
8.463019
14.551818
21.296837
28.341681
35.205448
41.503662
47.102097
52.006191
56.080303
58.846405
59.836296
59.346222
58.463207
58.012302
57.700985
56.496014
53.686371
49.472881
44.611603
39.662891
34.790916
30.198689
26.365709
23.723900
22.223310
21.248241
19.981676
17.901083
14.918250
11.115510
6.486381
0.954217
-5.414918
-12.285184
-19.222357
-25.999559
-32.674919
-39.364723
-45.952763
-52.034897
-57.177773
-61.173836
-63.961716
-65.413116
-65.382576
-63.940342
-61.427444
-58.253242
-54.711315
-51.037312
-47.539478
-44.556957
-42.313511
-40.825214
-39.867626
-38.989330
-37.632385
-35.323956
-31.811853
-27.162649
-21.787594
-16.210835
-10.773096
-5.634830
-0.957690
3.061383
6.348587
9.064533
11.481056
13.783404
16.005947
18.074375
19.891708
21.397003
22.541605
23.285666
23.644194
23.703804
23.603523
23.474483
23.410225
23.532476
24.007294
24.942547
26.303953
27.926920
29.577379
30.991337
31.879398
31.931913
30.850063
28.418737
24.612408
19.699490
14.254803
8.979146
4.431977
0.899063
-1.539455
-2.830024
-2.844300
-1.478415
1.195400
4.893629
9.175528
13.522822
17.388472
20.258518
21.806833
22.010368
21.114311
19.485485
17.453411
15.282549
13.202805
11.350803
9.729141
8.270757
6.920170
5.681691
4.627542
3.855951
3.438028
3.397565
3.707792
4.257139
4.854415
5.314192
5.437933
4.934817
3.515357
1.020081
-2.576898
-7.177133
-12.522583
-18.177652
-23.658545
-28.660128
-33.072918
-36.801880
-39.646225
-41.282902
-41.379459
-39.791737
-36.667732
-32.444618
-27.757732
-23.264759
-19.493023
-16.746735
-15.064059
-14.263479
-14.065008
-14.184001
-14.337289
-14.254909
-13.757113
-12.809266
-11.520249
-10.089333
-8.704496
-7.500440
-6.584784
-6.004733
-5.692399
-5.474610
-5.116736
-4.397406
-3.180246
-1.416858
0.860600
3.524807
6.369320
9.134488
11.546296
13.392047
14.558587
15.025910
14.868358
14.235752
13.312070
12.278774
11.283835
10.446538
9.896507
9.768290
10.124998
10.891203
11.857715
12.747285
13.309045
13.372422
12.817432
11.550071
9.547045
6.911791
3.884970
0.776301
-2.130949
-4.605877
-6.480694
-7.677936
-8.179190
-7.994600
-7.172326
-5.766546
-3.821688
-1.426510
1.275475
4.137819
7.055135
9.976636
12.851046
15.554919
17.920204
19.798891
21.057400
21.558241
21.188070
19.890047
17.670956
14.595228
10.772753
6.360192
1.598194
-3.185553
-7.652333
-11.532129
-14.676114
-17.058266
-18.716299
-19.728069
-20.222059
-20.334703
-20.148165
-19.695320
-19.041565
-18.352037
-17.840549
-17.639332
-17.747183
-18.095901
-18.600616
-19.146049
-19.596239
-19.814384
-19.647331
-18.913137
-17.391249
-14.846487
-11.139680
-6.345245
-0.768122
5.174596
11.095106
16.606464
21.232349
24.551310
26.481359
27.336809
27.578691
27.504154
27.160051
26.554026
25.874256
25.400110
25.239723
25.275772
25.364161
25.488569
25.696373
25.934713
25.982391
25.511162
24.172899
21.671759
17.857162
12.834746
7.009786
0.961506
-4.807768
-10.032670
-14.620142
-18.496244
-21.550819
-23.691364
-24.900785
-25.217733
-24.699049
-23.443644
-21.632006
-19.506968
-17.286747
-15.093994
-12.961828
-10.876188
-8.827631
-6.849022
-5.018656
-3.468869
-2.392819
-1.987993
-2.340785
-3.350178
-4.770463
-6.300431
-7.647739
-8.605035
-9.103183
-9.208821
-9.094120
-8.946884
-8.885215
-8.953859
-9.119104
-9.277370
-9.334591
-9.290517
-9.277175
-9.505392
-10.142005
-11.237652
-12.729463
-14.468330
-16.234968
-17.739010
-18.672625
-18.844177
-18.272966
-17.166761
-15.817930
-14.469009
-13.226831
-12.082170
-10.994998
-9.978411
-9.109017
-8.440748
-7.932976
-7.493498
-7.068525
-6.665639
-6.317881
-6.037139
-5.792133
-5.563261
-5.406611
-5.424932
-5.695324
-6.216152
-6.916370
-7.735274
-8.622064
-9.441488
-9.979802
-10.046348
-9.554737
-8.528336
-7.007058
-5.000067
-2.576249
0.063911
2.664572
5.068783
7.266003
9.290939
11.130053
12.728161
14.076466
15.296982
16.592506
18.099218
19.818195
21.664398
23.550701
25.431892
27.270430
28.979406
30.423517
31.467232
32.030331
32.112213
31.750761
30.970835
29.793455
28.285030
26.576971
24.814682
23.083376
21.379644
19.626545
17.702084
15.483839
12.907682
9.990435
6.819580
3.550512
0.379077
-2.511871
-4.994035
-7.011730
-8.562019
-9.671503
-10.399422
-10.843003
-11.142342
-11.458411
-11.915618
-12.578297
-13.480857
-14.666007
-16.176783
-17.994127
-20.007280
-22.061771
-24.038704
-25.905119
-27.678457
-29.361134
-30.939625
-32.395565
-33.696911
-34.805679
-35.667526
-36.209503
-36.386475
-36.180500
-35.538445
-34.346401
-32.472813
-29.853409
-26.558680
-22.789753
-18.799168
-14.796663
-10.911550
-7.200768
-3.684958
-0.392023
2.671419
5.576617
8.443084
11.368732
14.377625
17.391155
20.262608
22.836868
24.988014
26.632828
27.698004
28.102268
27.810440
26.893148
25.519098
23.895712
