EVENT_NAME: EMILIA_2ND_SHOCK
EVENT_ID: IT-2012-0011
EVENT_DATE_YYYYMMDD: 20120529
EVENT_TIME_HHMMSS: 070002
EVENT_LATITUDE_DEGREE: 44.8417
EVENT_LONGITUDE_DEGREE: 11.0657
EVENT_DEPTH_KM: 8.1
HYPOCENTER_REFERENCE: INGV-CNT_Seismic_Bulletin
MAGNITUDE_W: 6.0
MAGNITUDE_W_REFERENCE: RCMT-INGV
MAGNITUDE_L: 5.8
MAGNITUDE_L_REFERENCE: INGV-CNT_Seismic_Bulletin
FOCAL_MECHANISM: TF
NETWORK: IT
STATION_CODE: SAN0
STATION_NAME: SAN FELICE SUL PANARO
STATION_LATITUDE_DEGREE: 44.838000
STATION_LONGITUDE_DEGREE: 11.143000
STATION_ELEVATION_M: 71
LOCATION: 
SENSOR_DEPTH_M: 0.0
VS30_M/S: 
SITE_CLASSIFICATION_EC8: C*
MORPHOLOGIC_CLASSIFICATION: 
EPICENTRAL_DISTANCE_KM: 6.1
EARTHQUAKE_BACKAZIMUTH_DEGREE: 273.9
DATE_TIME_FIRST_SAMPLE_YYYYMMDD_HHMMSS: 20120529_065933.000
DATE_TIME_FIRST_SAMPLE_PRECISION: seconds
SAMPLING_INTERVAL_S: 0.005000
NDATA: 34001
DURATION_S: 170.005
STREAM: HNE
UNITS: cm/s^2
INSTRUMENT: sensor = Episensor FBA ES-T [Kinemetrics] | digitizer = Etna [Kinemetrics]
INSTRUMENT_ANALOG/DIGITAL: D
INSTRUMENTAL_FREQUENCY_HZ: 
INSTRUMENTAL_DAMPING: 
FULL_SCALE_G: 
N_BIT_DIGITAL_CONVERTER: 18
PGA_CM/S^2: -171.264429
TIME_PGA_S: 37.270000
BASELINE_CORRECTION: BASELINE REMOVED
FILTER_TYPE: BUTTERWORTH
FILTER_ORDER: 2
LOW_CUT_FREQUENCY_HZ: 0.060
HIGH_CUT_FREQUENCY_HZ: 50.000
LATE/NORMAL_TRIGGERED: NT
DATABASE_VERSION: DYNA 1.0
HEADER_FORMAT: DYNA 1.2
DATA_TYPE: ACCELERATION
PROCESSING: manual (Paolucci et al., 2011)
DATA_TIMESTAMP_YYYYMMDD_HHMMSS: 
DATA_LICENSE: CC-BY3_0-IT (http://creativecommons.org/licenses/by/3.0/deed.en)
DATA_CITATION: ESM working group (2015), European Strong-Motion database, version 0.1, Network Activity 3: Networking acceleration networks and SM data users. Project NERA (www.nera-eu.org)
DATA_CREATOR: ESM working group
ORIGINAL_DATA_MEDIATOR_CITATION: Ufficio Rischio Sismico e Vulcanico del Dipartimento della Protezione Civile (http://www.protezionecivile.gov.it/)
ORIGINAL_DATA_MEDIATOR: Rete Accelerometrica Nazionale - RAN Download (http://www.mot1.it/randownload/)
ORIGINAL_DATA_CREATOR_CITATION: Italian Strong Motion Network, Italian Civil Protection Department http://www.protezionecivile.gov.it
ORIGINAL_DATA_CREATOR: network: IT (Italian Strong Motion Network); owner: Dipartimento Della Protezione Civile
USER1: 
USER2: 
USER3: 
USER4: 
USER5: 
[...]
-0.202319
-0.201406
-0.198257
-0.195455
-0.195233
-0.196832
-0.196779
-0.194333
-0.193252
-0.194078
-0.193617
-0.191940
-0.192067
-0.194429
-0.196021
-0.195005
-0.193296
-0.193542
-0.195796
-0.198390
-0.200399
-0.200867
-0.198861
-0.197101
-0.198146
-0.198686
-0.196550
-0.195335
-0.196734
-0.199066
-0.201368
-0.202306
-0.203026
-0.205729
-0.206978
-0.204110
-0.200019
-0.197031
-0.194406
-0.191974
-0.191626
-0.192652
-0.192843
-0.193950
-0.197048
-0.198193
-0.194997
-0.191386
-0.191835
-0.195791
-0.199833
-0.201504
-0.200466
-0.197285
-0.193781
-0.194740
-0.200596
-0.202987
-0.198177
-0.192038
-0.189257
-0.189130
-0.188579
-0.187936
-0.189166
-0.188776
-0.185381
-0.185130
-0.190522
-0.194457
-0.191042
-0.186907
-0.189777
-0.193524
-0.191336
-0.188241
-0.189792
-0.193439
-0.193623
-0.190446
-0.189600
-0.191281
-0.190846
-0.189596
-0.191242
-0.194546
-0.196036
-0.194707
-0.192840
-0.192420
-0.192837
-0.193120
-0.194525
-0.198686
-0.202295
-0.201075
-0.197601
-0.194636
-0.192057
-0.192876
-0.196468
-0.197398
-0.195902
-0.195067
-0.194911
-0.195303
-0.197099
-0.198695
-0.197383
-0.194262
-0.190828
-0.188497
-0.191062
-0.195152
-0.194145
-0.192806
-0.196478
-0.199443
-0.196489
-0.191800
-0.191546
-0.193873
-0.192923
-0.189339
-0.187422
-0.186340
-0.184014
-0.183984
-0.188478
-0.193438
-0.195756
-0.196035
-0.195594
-0.193712
-0.188744
-0.185556
-0.189453
-0.194186
-0.194079
-0.194078
-0.196873
-0.198065
-0.195503
-0.192059
-0.190805
-0.190827
-0.188955
-0.187085
-0.189946
-0.194447
-0.193734
-0.189135
-0.187363
-0.189139
-0.188877
-0.185124
-0.183290
-0.186574
-0.190550
-0.190236
-0.187351
-0.184643
-0.181806
-0.181718
-0.187323
-0.193335
-0.193497
-0.191255
-0.193179
-0.196258
-0.193171
-0.186023
-0.183999
-0.188926
-0.192550
-0.191731
-0.191157
-0.189145
-0.183545
-0.183287
-0.191479
-0.196308
-0.192116
-0.186639
-0.186264
-0.188767
-0.188747
-0.186777
-0.187358
-0.188816
-0.186143
-0.182132
-0.183526
-0.186355
-0.182739
-0.178619
-0.181824
-0.186265
-0.186039
-0.184645
-0.184066
-0.182229
-0.179340
-0.176420
-0.173380
-0.171656
-0.168222
-0.153669
-0.128553
-0.103495
-0.078543
-0.052878
-0.044349
-0.063453
-0.090928
-0.102617
-0.087557
-0.043845
0.017532
0.076648
0.119679
0.142599
0.144988
0.129078
0.110952
0.107023
0.111354
0.103442
0.033536
-0.123470
-0.245164
-0.184449
0.026979
0.296475
0.550858
0.586250
0.245697
-0.266041
-0.645933
-0.820614
-0.719025
-0.244957
0.320252
0.494447
0.256019
0.018689
-0.003119
0.042161
0.004286
-0.177659
-0.544686
-0.873742
-0.724365
-0.053905
0.607458
0.736483
0.278788
-0.426112
-0.983838
-1.221519
-1.172809
-0.926649
-0.563122
-0.067125
0.582157
1.108638
1.117264
0.626520
-0.038213
-0.760446
-1.470064
-1.677720
-0.888071
0.603743
1.781408
1.762691
0.582061
-0.803412
-1.391038
-1.004782
-0.141467
0.763439
1.354997
1.203752
0.548877
0.348936
0.811701
1.014952
0.373380
-0.605754
-1.030789
-0.454754
0.806293
1.916353
2.029553
0.798558
-1.008335
-1.692958
-0.336147
2.029840
3.576495
3.359018
1.648547
-0.471204
-1.789421
-1.901497
-1.180955
0.167324
1.876436
2.835644
2.301857
1.203351
0.512059
-0.330024
-1.533885
-1.572586
0.236776
2.093326
2.303593
1.135334
-0.608290
-2.458709
-3.530077
-2.977620
-1.304048
0.160930
0.925411
1.401945
1.388025
0.086842
-1.691529
-1.923481
-0.868281
-0.626153
-1.088753
-0.257430
1.871073
3.093032
2.569316
1.966660
2.322369
2.441838
1.625662
0.822049
0.083913
-1.464805
-2.735982
-1.619072
1.365510
3.793851
4.668591
4.474497
3.567718
2.115155
0.621080
-0.149824
0.191708
1.178914
1.993495
2.305550
2.212685
1.661147
0.556526
-0.825627
-2.082801
-2.855064
-2.575561
-0.907758
1.448805
3.210614
3.936824
4.237361
4.529798
4.491541
3.649789
2.006446
0.234389
-1.021724
-1.928678
-2.604657
-2.102707
0.351384
3.682668
5.749272
5.749923
4.890756
4.235696
3.388417
1.924207
0.022538
-2.304525
-4.384362
-4.271693
-1.279191
1.818108
1.470306
-2.280000
-6.510989
-9.562708
-11.500400
-11.504729
-8.164326
-2.112505
3.980127
7.782937
8.551356
6.922896
4.082359
0.567729
-3.447585
-6.575800
-6.881648
-4.222228
-0.353454
2.592191
3.170063
1.934508
1.563355
3.811339
7.475168
10.496616
11.854123
11.011564
7.819036
3.268584
-0.787617
-3.004971
-3.471276
-3.187927
-2.807023
-2.037993
-0.476353
1.274257
2.284110
2.626258
2.963363
3.784928
5.383851
7.239032
7.697572
5.413070
0.869391
-3.882156
-6.679943
-6.584333
-4.517799
-2.717387
-2.963859
-5.130183
-7.351790
-7.372484
-4.305996
0.428641
4.400903
6.110337
5.240460
2.541347
0.168591
0.138161
1.473878
0.622021
-3.857491
-8.646575
-9.879874
-7.931473
-5.467697
-3.196889
-0.176335
3.469342
6.680408
9.260828
11.062615
10.909264
8.887764
7.198036
6.808525
6.388437
5.399867
5.171650
6.228086
6.695896
4.537662
0.296371
-3.647498
-5.782646
-6.331504
-5.937170
-4.359654
-0.996397
3.141691
5.059560
2.459219
-3.816976
-10.412288
-14.035622
-13.769693
-11.045444
-7.415882
-3.471154
0.025821
1.579457
0.376033
-2.297141
-3.942753
-3.485756
-2.357558
-2.367175
-3.165728
-2.682866
0.147507
3.836261
5.821627
4.959249
2.238468
-0.114357
-0.058171
2.832194
7.226466
11.298336
13.590134
13.496666
12.108434
11.536075
12.223278
11.727170
7.016649
-2.065449
-11.910077
-18.253254
-20.017563
-18.845634
-15.820440
-11.330221
-6.999414
-4.769018
-4.853858
-6.167517
-7.700612
-8.729758
-8.654682
-7.019002
-3.105499
3.941206
13.336467
21.620857
24.801949
21.184498
11.955308
0.368236
-9.601249
-15.055247
-15.188057
-11.134625
-4.945071
2.210344
10.497024
19.377874
26.115189
27.040358
20.380175
8.430786
-3.500016
-11.185775
-13.892247
-12.986394
-10.190478
-7.469019
-6.582566
-7.681323
-9.178323
-9.460819
-8.290532
-6.531520
-4.632051
-1.775565
2.685259
7.544945
10.372598
9.345218
4.790228
-0.243452
-1.953178
0.781154
5.661951
9.757491
12.010825
12.795531
12.050675
8.937910
3.255580
-3.713004
-10.079458
-14.556039
-16.299389
-14.225480
-8.069890
0.120542
7.427152
12.673152
16.307964
18.714512
19.645927
18.259483
13.312004
4.815732
-4.090195
-8.687835
-7.047271
-1.669254
3.724873
7.630383
10.563189
13.164581
15.402947
16.413754
14.626049
9.409509
2.801988
-1.999545
-4.016209
-4.723352
-5.074413
-4.546041
-3.070482
-1.335931
0.900204
4.645672
9.582935
13.351889
13.451987
9.838677
5.200077
2.187628
1.130661
0.938840
0.628732
-0.462053
-1.970066
-1.907996
1.388620
6.961686
12.026111
14.344796
13.557404
11.255953
9.539011
8.909644
8.107393
5.730275
1.330637
-4.317689
-9.265322
-11.577508
-11.178747
-9.695545
-8.178663
-5.942530
-2.051851
2.635727
5.810732
6.338176
5.406945
4.550972
3.879702
2.954081
2.284184
2.597955
3.364957
4.267347
6.635778
10.885510
15.442220
19.625666
23.898680
27.123285
26.737759
22.271877
17.021408
14.454705
14.435226
15.574283
18.268810
21.833956
22.214649
16.414015
6.464218
-3.461840
-10.878992
-14.783092
-15.304381
-14.367010
-14.090409
-14.936265
-16.909746
-20.717236
-26.190540
-31.122248
-33.212757
-32.973240
-32.775803
-32.805355
-31.643045
-30.607155
-32.860191
-38.947372
-46.360996
-52.480450
-55.976921
-55.754135
-51.314342
-44.910290
-39.595783
-34.883110
-28.826094
-22.778181
-18.840574
-15.707218
-11.118908
-4.666892
2.900328
10.103281
14.938212
15.119925
9.068753
-0.959518
-9.667552
-14.840727
-17.877617
-19.210419
-19.652802
-22.582731
-29.547565
-38.047268
-45.301170
-50.851696
-55.475822
-58.910004
-60.404907
-62.041649
-67.254227
-75.151886
-81.288048
-83.592255
-82.964867
-79.878860
-74.768684
-70.090195
-68.469978
-69.762276
-71.540962
-71.515831
-68.859314
-63.752178
-56.379780
-47.225906
-37.812229
-29.897785
-25.352776
-27.086357
-35.789246
-45.225677
-46.053787
-34.790421
-15.422022
5.588387
23.271544
36.277576
45.764339
51.757507
53.911648
54.307781
54.179928
50.982918
43.384033
34.189938
25.902910
18.455044
10.454443
0.267672
-10.531009
-17.843115
-23.740072
-35.283733
-51.661476
-63.508011
-63.822334
-51.294189
-28.190458
-0.201468
28.291140
59.331532
93.587219
122.130669
135.886566
137.270020
134.772308
132.258820
129.232773
126.163124
124.702950
125.370758
127.472588
130.872253
136.745987
144.388611
147.870377
138.614517
112.467407
76.099503
43.123215
20.330351
5.630131
-2.287066
-4.696342
-5.732382
-4.703952
4.300108
21.689850
41.013386
57.036705
67.765625
71.190765
65.795006
54.531433
45.149269
43.492416
47.157234
48.739296
44.684635
37.477192
29.327950
19.167484
7.667631
-1.314484
-6.232080
-8.971640
-11.462585
-15.198565
-20.588383
-25.275503
-27.495443
-29.994211
-35.796932
-43.298100
-50.451313
-58.791645
-68.992233
-78.056030
-84.426979
-90.815750
-97.900337
-100.160500
-93.646988
-82.227058
-69.948395
-54.331089
-33.266453
-11.112426
7.101212
21.398190
33.992638
45.276344
54.022392
59.040020
60.470585
60.246109
59.867203
57.902161
52.270729
43.985394
35.795914
29.671104
27.575785
30.695259
37.748238
46.871956
56.084644
61.896229
62.625687
61.045193
59.963276
58.270763
53.471287
46.047611
39.242958
35.851048
37.478558
43.241135
48.210514
49.069363
48.996841
52.157059
58.095341
63.725426
66.220268
63.108925
53.668648
41.041122
28.966496
17.955402
8.634631
3.516835
1.857939
-0.454320
-3.504696
-2.909813
2.009208
6.733530
8.315548
7.139791
2.224422
-8.833995
-24.593666
-40.207088
-52.867092
-61.972618
-64.960342
-57.496437
-39.056000
-15.769896
3.197126
10.914470
6.378539
-4.897701
-15.310909
-20.645317
-20.496202
-15.724189
-8.170713
-1.674416
-0.987226
-8.346990
-20.683893
-31.016068
-34.229168
-31.669790
-28.642982
-28.171648
-29.314457
-30.066923
-29.502972
-27.995173
-25.626999
-21.621269
-16.601156
-10.286532
1.380591
18.281610
31.014233
32.364765
27.430222
26.051010
30.488815
35.419807
37.391708
39.065220
43.513744
50.131886
57.690598
66.213127
74.071167
76.958321
73.030487
66.246391
61.628723
59.517601
55.923752
47.950920
37.365795
27.768040
20.555304
14.961953
9.661224
4.334330
0.554659
-0.319565
2.868225
11.234763
20.326136
23.153784
20.028366
15.112773
9.277023
1.869585
-7.013719
-16.000526
-21.943848
-22.844482
-21.906063
-24.853800
-30.894087
-32.903679
-30.484617
-31.395329
-38.204987
-46.431328
-52.518631
-55.176060
-54.236973
-50.212955
-42.520981
-31.263779
-20.822203
-16.212477
-15.987080
-14.072039
-8.398433
-1.808862
5.134124
13.553003
19.838196
19.495951
13.722616
5.978176
-2.537179
-11.695867
-20.041779
-24.028368
-20.761656
-11.628006
-1.431488
4.145072
1.184531
-9.396513
-22.422432
-31.202866
-32.446949
-30.841892
-32.868088
-36.481804
-32.964600
-19.369152
-3.275678
6.577710
7.655643
3.659067
2.327277
8.879281
20.035488
27.610498
29.386000
30.843302
33.105602
30.441071
23.018854
19.523556
24.418390
31.919579
34.644497
32.479240
30.541611
32.147762
36.827965
41.377472
40.694256
31.480591
16.424608
3.475596
-1.247053
-0.092937
0.088341
-3.454865
-9.206377
-15.598845
-21.160225
-25.069599
-29.011215
-34.114998
-38.892712
-42.849579
-46.517578
-48.262985
-46.278500
-41.601894
-37.118347
-36.209431
-41.206654
-50.245243
-58.065208
-61.323360
-60.064701
-55.867485
-51.852043
-50.926689
-52.886612
-55.826675
-58.478214
-60.185230
-60.922688
-61.724052
-64.608353
-71.288437
-81.012230
-90.359680
-95.882751
-97.161499
-96.595749
-95.484230
-92.813278
-88.904449
-86.317589
-86.909920
-91.115341
-97.112236
-100.461739
-100.236145
-100.669067
-103.170380
-105.871925
-109.611076
-116.161079
-124.817711
-133.390167
-139.302383
-141.524338
-141.157516
-137.793198
-129.611252
-118.889664
-112.444588
-115.292061
-125.744827
-136.780411
-142.428329
-142.570847
-140.832840
-138.916885
-134.190826
-122.839943
-104.145958
-80.597984
-55.757217
-33.420471
-16.496225
-4.972976
3.864289
12.242791
19.732903
24.458313
25.637678
24.949570
24.695658
24.330456
21.292105
15.579471
9.973437
5.277226
-0.989490
-10.130498
-19.211988
-23.537573
-20.046574
-7.670364
11.819388
32.108532
46.825500
56.472492
66.002281
76.592728
82.977524
78.049187
60.472336
38.399948
23.127987
19.141968
23.502422
31.860929
40.313225
45.599140
47.943623
50.558002
54.732655
58.629425
61.275806
64.198128
68.331413
72.457474
75.477585
77.158066
76.073097
69.831711
57.885536
42.773239
29.106876
20.871862
17.844759
15.924328
12.670620
9.471787
7.414899
5.499355
2.869197
-0.440722
-3.535282
-4.409441
-1.885098
3.287165
10.942594
22.254919
37.055511
52.931541
67.160744
78.426125
87.243690
95.330879
103.752098
111.487846
116.262291
115.903908
107.415260
86.419701
52.888443
16.149755
-13.248613
-33.875320
-49.710457
-62.896622
-74.479347
-85.003548
-92.951202
-98.333099
-105.250610
-115.761574
-126.714546
-136.234573
-145.791992
-154.665924
-160.310394
-163.769821
-167.806549
-171.264435
-170.899216
-165.950485
-156.592865
-140.408127
-114.313026
-80.487259
-46.523876
-17.257168
9.262756
35.645302
59.831829
77.658890
87.355759
90.653229
90.451561
86.835983
77.240784
62.028042
46.151356
33.553616
22.824965
10.457661
-3.195226
-15.179852
-25.758600
-36.942535
-46.783325
-51.418861
-51.069061
-48.529007
-43.955887
-36.036793
-25.398544
-13.226431
-0.088266
12.583813
22.633038
28.707691
32.212341
37.077484
44.531849
51.372593
56.149040
61.846363
70.933426
81.733688
90.620392
96.511871
101.725029
108.011002
113.865028
116.274475
112.820030
101.587639
81.689026
55.577816
28.703768
4.945713
-15.496306
-32.202515
-41.194553
-37.706585
-21.998203
-1.233092
16.432756
28.479881
36.237598
40.791756
43.763020
47.481113
52.551537
57.668262
61.993286
66.317154
71.416916
76.635796
81.264824
86.091934
92.365685
100.071762
108.384377
117.663948
129.373154
143.067810
155.282242
162.712616
164.931793
163.222626
158.979630
154.035309
149.758545
145.332336
138.730286
128.641724
115.325111
100.633606
86.779419
75.375618
67.135132
61.137699
56.026123
52.008221
49.940285
50.104362
52.067799
54.092758
53.844189
50.055004
43.000599
34.439953
26.980314
21.909527
17.556776
11.082671
1.954272
-7.870974
-17.183592
-26.795588
-37.460548
-48.577000
-59.337711
-69.943764
-80.907654
-91.651947
-100.837379
-106.724998
-105.428482
-92.350067
-68.381226
-40.513027
-14.825387
7.089900
26.210075
44.097298
61.405907
77.625381
92.108154
104.000816
111.738251
113.116829
106.154037
91.092957
71.221298
50.853382
32.741695
17.438206
4.573010
-6.098543
-15.024538
-22.811428
-29.456543
-35.010056
-40.500893
-46.769878
-53.739872
-61.269482
-68.721405
-74.781242
-79.207840
-82.706177
-84.940475
-84.405533
-79.539116
-69.826401
-56.663212
-42.244671
-27.715200
-13.269305
0.938210
14.459793
26.451733
35.740219
41.056183
41.571774
37.990952
32.897217
28.922564
26.712599
25.291349
23.606262
20.774225
15.690692
7.895389
-1.656545
-11.734484
-22.128103
-33.051216
-43.777199
-52.735542
-58.987785
-62.962250
-65.170547
-64.472076
-58.390457
-45.078457
-24.936068
-1.371673
20.197390
35.983624
46.291321
53.158775
57.488892
59.847404
61.350189
62.079479
60.330803
54.698967
46.348320
38.141602
31.497305
25.220507
17.439556
7.409270
-4.592404
-17.393154
-28.746630
-36.833260
-41.698719
-44.252674
-45.242970
-45.712975
-47.090778
-50.091648
-53.795429
-56.638607
-58.175697
-58.856842
-58.935413
-58.918552
-59.883831
-62.220600
-65.157433
-67.818054
-69.797722
-70.910339
-71.192528
-71.264526
-71.782959
-71.888344
-69.229294
-62.266075
-51.845779
-40.356567
-29.642214
-19.672306
-9.375449
1.605130
12.599772
22.622866
30.691957
36.110477
38.784012
39.207436
38.557789
38.137512
37.758766
35.700104
30.871649
23.901964
16.664989
11.502121
9.090684
7.298009
4.050147
-0.135287
-3.681618
-6.191947
-8.378269
-10.764492
-12.848107
-13.292719
-11.050192
-6.415324
-0.587710
5.897979
13.214524
20.585840
26.575151
31.005447
34.450161
36.744274
37.832008
38.122856
37.105221
34.413418
31.793678
30.894402
31.067225
31.850014
34.261715
38.600899
44.273548
50.789745
56.913258
60.902355
62.692047
63.944984
64.683113
61.679214
52.562031
40.068047
29.614677
24.239817
23.617514
25.678764
27.972635
28.558821
25.902037
19.222851
10.145334
2.238217
-2.131096
-3.653551
-4.867558
-7.367205
-10.472139
-12.684443
-13.099622
-11.142508
-6.466852
0.399562
7.866677
13.908982
17.035929
17.043940
14.798007
11.043861
5.888462
-0.265507
-6.315820
-11.612425
-16.486506
-21.579184
-27.508629
-34.168285
-40.101860
-43.930550
-45.732430
-46.438473
-46.952724
-47.828289
-48.910297
-49.165676
-47.453869
-43.498703
-37.630817
-30.388643
-22.799026
-15.736151
-9.167044
-2.888869
2.916382
7.849496
11.293265
12.943002
13.161612
12.108404
9.483471
5.400332
0.557090
-4.032922
-7.185369
-8.132716
-6.792092
-3.488817
1.396707
7.867739
15.670373
23.157648
28.263206
30.353998
30.122759
28.558002
26.634130
25.272114
25.271637
26.987009
29.931419
33.303688
36.837002
40.748169
45.234852
50.051247
54.212734
56.542423
56.684490
55.011456
51.839916
47.184528
40.905216
32.983181
23.718996
13.742347
3.878957
-5.482333
-14.670864
-23.665756
-31.523144
-37.443527
-41.581623
-44.733746
-47.743923
-51.101002
-54.808739
-58.577644
-62.240566
-65.919075
-69.910217
-74.580856
-79.997185
-85.728539
-91.308678
-96.482841
-101.171333
-105.592377
-109.966164
-114.087021
-117.395668
-119.231400
-119.049522
-116.506821
-111.896370
-106.716606
-102.765877
-100.661194
-100.056900
-100.969803
-104.126419
-109.754631
-116.545464
-122.297089
-124.933662
-122.483566
-113.654182
-99.871803
-85.277611
-73.047806
-63.067051
-54.140820
-46.201481
-39.631866
-34.611012
-30.758371
-26.499641
-20.773722
-14.616675
-8.575198
-1.180649
7.604490
14.700604
17.614548
17.193357
15.663203
14.142913
12.740805
11.331303
9.762024
7.947728
5.379846
1.026958
-5.267329
-12.282570
-18.700825
-23.635363
-26.182060
-25.627600
-22.039349
-16.227867
-9.240756
-2.025452
4.748897
10.911968
16.657217
22.027918
26.912857
31.516104
36.103252
40.297363
43.564568
46.118229
48.050003
47.935238
43.332569
32.933578
18.468290
3.903373
-7.619344
-15.263691
-19.436407
-20.698996
-19.808388
-17.716396
-15.087103
-12.423407
-10.372883
-9.280671
-8.910742
-8.694572
-7.990189
-6.338960
-3.593605
0.018581
3.805010
6.843594
8.326643
7.568077
4.055286
-2.139902
-10.004050
