EVENT_NAME: EMILIA_2ND_SHOCK
EVENT_ID: IT-2012-0011
EVENT_DATE_YYYYMMDD: 20120529
EVENT_TIME_HHMMSS: 070002
EVENT_LATITUDE_DEGREE: 44.8417
EVENT_LONGITUDE_DEGREE: 11.0657
EVENT_DEPTH_KM: 8.1
HYPOCENTER_REFERENCE: INGV-CNT_Seismic_Bulletin
MAGNITUDE_W: 6.0
MAGNITUDE_W_REFERENCE: RCMT-INGV
MAGNITUDE_L: 5.8
MAGNITUDE_L_REFERENCE: INGV-CNT_Seismic_Bulletin
FOCAL_MECHANISM: TF
NETWORK: IT
STATION_CODE: SAN0
STATION_NAME: SAN FELICE SUL PANARO
STATION_LATITUDE_DEGREE: 44.838000
STATION_LONGITUDE_DEGREE: 11.143000
STATION_ELEVATION_M: 71
LOCATION: 
SENSOR_DEPTH_M: 0.0
VS30_M/S: 
SITE_CLASSIFICATION_EC8: C*
MORPHOLOGIC_CLASSIFICATION: 
EPICENTRAL_DISTANCE_KM: 6.1
EARTHQUAKE_BACKAZIMUTH_DEGREE: 273.9
DATE_TIME_FIRST_SAMPLE_YYYYMMDD_HHMMSS: 20120529_065933.000
DATE_TIME_FIRST_SAMPLE_PRECISION: seconds
SAMPLING_INTERVAL_S: 0.005000
NDATA: 34001
DURATION_S: 170.005
STREAM: HNZ
UNITS: cm/s
INSTRUMENT: sensor = Episensor FBA ES-T [Kinemetrics] | digitizer = Etna [Kinemetrics]
INSTRUMENT_ANALOG/DIGITAL: D
INSTRUMENTAL_FREQUENCY_HZ: 
INSTRUMENTAL_DAMPING: 
FULL_SCALE_G: 
N_BIT_DIGITAL_CONVERTER: 18
PGV_CM/S: 8.692957
TIME_PGV_S: 36.190000
BASELINE_CORRECTION: BASELINE REMOVED
FILTER_TYPE: BUTTERWORTH
FILTER_ORDER: 2
LOW_CUT_FREQUENCY_HZ: 0.060
HIGH_CUT_FREQUENCY_HZ: 50.000
LATE/NORMAL_TRIGGERED: NT
DATABASE_VERSION: DYNA 1.0
HEADER_FORMAT: DYNA 1.2
DATA_TYPE: VELOCITY
PROCESSING: manual (Paolucci et al., 2011)
DATA_TIMESTAMP_YYYYMMDD_HHMMSS: 
DATA_LICENSE: CC-BY3_0-IT (http://creativecommons.org/licenses/by/3.0/deed.en)
DATA_CITATION: ESM working group (2015), European Strong-Motion database, version 0.1, Network Activity 3: Networking acceleration networks and SM data users. Project NERA (www.nera-eu.org)
DATA_CREATOR: ESM working group
ORIGINAL_DATA_MEDIATOR_CITATION: Ufficio Rischio Sismico e Vulcanico del Dipartimento della Protezione Civile (http://www.protezionecivile.gov.it/)
ORIGINAL_DATA_MEDIATOR: Rete Accelerometrica Nazionale - RAN Download (http://www.mot1.it/randownload/)
ORIGINAL_DATA_CREATOR_CITATION: Italian Strong Motion Network, Italian Civil Protection Department http://www.protezionecivile.gov.it
ORIGINAL_DATA_CREATOR: network: IT (Italian Strong Motion Network); owner: Dipartimento Della Protezione Civile
USER1: 
USER2: 
USER3: 
USER4: 
USER5: 
[...]
-0.166374
-0.166705
-0.167036
-0.167368
-0.167700
-0.168032
-0.168364
-0.168697
-0.169030
-0.169363
-0.169697
-0.170031
-0.170365
-0.170699
-0.171034
-0.171369
-0.171704
-0.172040
-0.172375
-0.172712
-0.173048
-0.173385
-0.173722
-0.174059
-0.174396
-0.174734
-0.175072
-0.175410
-0.175749
-0.176088
-0.176427
-0.176767
-0.177106
-0.177446
-0.177787
-0.178127
-0.178468
-0.178809
-0.179151
-0.179492
-0.179834
-0.180176
-0.180519
-0.180862
-0.181205
-0.181547
-0.181887
-0.182238
-0.182620
-0.183014
-0.183372
-0.183695
-0.184031
-0.184381
-0.184710
-0.185016
-0.185331
-0.185672
-0.186032
-0.186398
-0.186740
-0.187036
-0.187319
-0.187629
-0.187944
-0.188220
-0.188468
-0.188730
-0.189036
-0.189375
-0.189700
-0.189975
-0.190230
-0.190510
-0.190828
-0.191166
-0.191494
-0.191803
-0.192110
-0.192437
-0.192785
-0.193141
-0.193490
-0.193828
-0.194175
-0.194552
-0.194945
-0.195340
-0.195746
-0.196152
-0.196523
-0.196855
-0.197173
-0.197490
-0.197810
-0.198140
-0.198472
-0.198790
-0.199124
-0.199511
-0.199923
-0.200300
-0.200644
-0.201004
-0.201400
-0.201794
-0.202142
-0.202451
-0.202770
-0.203117
-0.203458
-0.203770
-0.204057
-0.204324
-0.204585
-0.204865
-0.205173
-0.205495
-0.205825
-0.206167
-0.206521
-0.206885
-0.207251
-0.207603
-0.207945
-0.208300
-0.208672
-0.209049
-0.209423
-0.209794
-0.210162
-0.210514
-0.210847
-0.211197
-0.211587
-0.211980
-0.212337
-0.212672
-0.213032
-0.213422
-0.213800
-0.214156
-0.214523
-0.214913
-0.215303
-0.215678
-0.216039
-0.216385
-0.216715
-0.217038
-0.217364
-0.217687
-0.217990
-0.218276
-0.218584
-0.218941
-0.219303
-0.219628
-0.219946
-0.220314
-0.220733
-0.221142
-0.221493
-0.221800
-0.222114
-0.222453
-0.222787
-0.223096
-0.223392
-0.223707
-0.224061
-0.224450
-0.224835
-0.225187
-0.225523
-0.225873
-0.226242
-0.226618
-0.226991
-0.227351
-0.227690
-0.228022
-0.228369
-0.228732
-0.229082
-0.229418
-0.229768
-0.230141
-0.230515
-0.230880
-0.231238
-0.231599
-0.231969
-0.232328
-0.232660
-0.232985
-0.233353
-0.233770
-0.234177
-0.234520
-0.234818
-0.235126
-0.235470
-0.235851
-0.236250
-0.236643
-0.237045
-0.237482
-0.237929
-0.238331
-0.238692
-0.239070
-0.239488
-0.239910
-0.240295
-0.240636
-0.240953
-0.241262
-0.241578
-0.241907
-0.242247
-0.242599
-0.242963
-0.243337
-0.243707
-0.244060
-0.244404
-0.244760
-0.245125
-0.245493
-0.245871
-0.246261
-0.246661
-0.247058
-0.247440
-0.247810
-0.248172
-0.248524
-0.248864
-0.249186
-0.249498
-0.249823
-0.250185
-0.250591
-0.251005
-0.251369
-0.251676
-0.251979
-0.252317
-0.252675
-0.253038
-0.253413
-0.253798
-0.254179
-0.254535
-0.254862
-0.255192
-0.255551
-0.255920
-0.256272
-0.256612
-0.256958
-0.257328
-0.257742
-0.258182
-0.258601
-0.258977
-0.259333
-0.259684
-0.260030
-0.260372
-0.260713
-0.261047
-0.261373
-0.261710
-0.262071
-0.262445
-0.262811
-0.263177
-0.263561
-0.263951
-0.264325
-0.264677
-0.265018
-0.265356
-0.265680
-0.265981
-0.266286
-0.266629
-0.267016
-0.267416
-0.267791
-0.268139
-0.268496
-0.268899
-0.269335
-0.269751
-0.270126
-0.270505
-0.270921
-0.271345
-0.271739
-0.272110
-0.272480
-0.272866
-0.273267
-0.273670
-0.274069
-0.274474
-0.274881
-0.275270
-0.275644
-0.276015
-0.276372
-0.276703
-0.277020
-0.277343
-0.277681
-0.278042
-0.278412
-0.278767
-0.279109
-0.279459
-0.279814
-0.280160
-0.280505
-0.280870
-0.281266
-0.281684
-0.282112
-0.282540
-0.282969
-0.283407
-0.283846
-0.284259
-0.284625
-0.284956
-0.285283
-0.285638
-0.286021
-0.286408
-0.286765
-0.287097
-0.287444
-0.287831
-0.288220
-0.288560
-0.288858
-0.289173
-0.289546
-0.289964
-0.290380
-0.290756
-0.291116
-0.291514
-0.291956
-0.292379
-0.292736
-0.293049
-0.293371
-0.293718
-0.294065
-0.294389
-0.294714
-0.295087
-0.295506
-0.295929
-0.296344
-0.296759
-0.297175
-0.297571
-0.297938
-0.298307
-0.298709
-0.299124
-0.299511
-0.299859
-0.300193
-0.300535
-0.300886
-0.301245
-0.301619
-0.301996
-0.302367
-0.302745
-0.303148
-0.303584
-0.304039
-0.304458
-0.304813
-0.305151
-0.305541
-0.305995
-0.306468
-0.306903
-0.307284
-0.307634
-0.307984
-0.308332
-0.308663
-0.308993
-0.309356
-0.309742
-0.310105
-0.310429
-0.310741
-0.311077
-0.311448
-0.311808
-0.312123
-0.312426
-0.312765
-0.313145
-0.313536
-0.313911
-0.314277
-0.314656
-0.315040
-0.315406
-0.315755
-0.316093
-0.316423
-0.316768
-0.317146
-0.317542
-0.317932
-0.318311
-0.318690
-0.319083
-0.319505
-0.319936
-0.320325
-0.320661
-0.320985
-0.321349
-0.321762
-0.322179
-0.322557
-0.322913
-0.323290
-0.323696
-0.324110
-0.324490
-0.324826
-0.325165
-0.325543
-0.325922
-0.326252
-0.326551
-0.326875
-0.327239
-0.327607
-0.327950
-0.328285
-0.328646
-0.329038
-0.329430
-0.329790
-0.330138
-0.330509
-0.330890
-0.331237
-0.331546
-0.331862
-0.332210
-0.332560
-0.332889
-0.333207
-0.333519
-0.333785
-0.333883
-0.333622
-0.332893
-0.331764
-0.330262
-0.328155
-0.325224
-0.321428
-0.316302
-0.308553
-0.296772
-0.280373
-0.259834
-0.236491
-0.212214
-0.188830
-0.167298
-0.146980
-0.125936
-0.102585
-0.076378
-0.046220
-0.010551
0.029508
0.070483
0.111651
0.154811
0.196867
0.227471
0.235559
0.217072
0.178833
0.134980
0.097815
0.075204
0.073606
0.090554
0.105060
0.091090
0.040889
-0.033772
-0.115708
-0.191321
-0.256443
-0.316832
-0.372542
-0.402603
-0.380572
-0.308461
-0.223172
-0.167004
-0.156715
-0.175746
-0.190722
-0.180051
-0.148131
-0.109508
-0.069537
-0.033034
-0.022031
-0.063528
-0.154719
-0.255605
-0.327841
-0.369002
-0.392591
-0.386856
-0.321429
-0.197696
-0.069240
0.000161
-0.008543
-0.059686
-0.101371
-0.109648
-0.098487
-0.099932
-0.142336
-0.231903
-0.339868
-0.423624
-0.471836
-0.507598
-0.544533
-0.564340
-0.534823
-0.434617
-0.273016
-0.097488
0.031676
0.086258
0.090184
0.095350
0.136152
0.204721
0.265541
0.284562
0.251182
0.195791
0.185559
0.280534
0.482816
0.722595
0.891239
0.911674
0.797480
0.622921
0.431758
0.225121
0.035871
-0.069766
-0.083435
-0.071797
-0.083216
-0.093480
-0.046278
0.092915
0.305651
0.518175
0.658443
0.715781
0.705942
0.603047
0.370134
0.043670
-0.277264
-0.534346
-0.750685
-0.943731
-1.051565
-1.001390
-0.811780
-0.571295
-0.351126
-0.182035
-0.075336
-0.016951
0.029197
0.074274
0.096853
0.100727
0.119263
0.141785
0.096724
-0.068301
-0.325386
-0.592382
-0.786362
-0.851586
-0.773901
-0.575127
-0.289556
0.040662
0.368400
0.667652
0.940389
1.186127
1.382212
1.500192
1.528902
1.480562
1.387715
1.295610
1.246168
1.258455
1.309078
1.325205
1.221668
0.967233
0.605812
0.214019
-0.143739
-0.431816
-0.638442
-0.749923
-0.744932
-0.642545
-0.531338
-0.511460
-0.615056
-0.801809
-1.011383
-1.194193
-1.320983
-1.400993
-1.462639
-1.485896
-1.404544
-1.219331
-1.048049
-1.007879
-1.092272
-1.192763
-1.200571
-1.074699
-0.847481
-0.592783
-0.398614
-0.353162
-0.507686
-0.817905
-1.139466
-1.322986
-1.327445
-1.223861
-1.100678
-1.006624
-0.966785
-0.998225
-1.108170
-1.284079
-1.471664
-1.591048
-1.596513
-1.486384
-1.267585
-0.973121
-0.687959
-0.484993
-0.355402
-0.246583
-0.135432
-0.034062
0.040975
0.084028
0.112332
0.161178
0.236659
0.288999
0.260831
0.145327
-0.015167
-0.176003
-0.328080
-0.479215
-0.607890
-0.667905
-0.638137
-0.548653
-0.460265
-0.421932
-0.442986
-0.497212
-0.546848
-0.574130
-0.599284
-0.655988
-0.742669
-0.817226
-0.855384
-0.886565
-0.937882
-0.973951
-0.947622
-0.887701
-0.869773
-0.907669
-0.937191
-0.906580
-0.821818
-0.707959
-0.599681
-0.562378
-0.638996
-0.774804
-0.858190
-0.835383
-0.744110
-0.641844
-0.540093
-0.413551
-0.244455
-0.048251
0.130292
0.247186
0.292299
0.288068
0.264899
0.250991
0.264619
0.290437
0.284826
0.229385
0.150912
0.067561
-0.050710
-0.246877
-0.522493
-0.824312
-1.072965
-1.212550
-1.243586
-1.207382
-1.146501
-1.085646
-1.037159
-1.006736
-0.983042
-0.932391
-0.828769
-0.693151
-0.585981
-0.554901
-0.599166
-0.686154
-0.786023
-0.877833
-0.935534
-0.931341
-0.857665
-0.738855
-0.618493
-0.534186
-0.501577
-0.511599
-0.533248
-0.529516
-0.483026
-0.398239
-0.280470
-0.138927
-0.013717
0.032186
-0.033636
-0.175764
-0.311667
-0.368943
-0.331359
-0.234521
-0.119126
-0.003511
0.101587
0.178610
0.203941
0.152029
0.017983
-0.153484
-0.290393
-0.358448
-0.379998
-0.388643
-0.399027
-0.422605
-0.474519
-0.548716
-0.608300
-0.616501
-0.566651
-0.472387
-0.346297
-0.209300
-0.104653
-0.074414
-0.127822
-0.242749
-0.383585
-0.513419
-0.602318
-0.632322
-0.601725
-0.527048
-0.431904
-0.327700
-0.207682
-0.063012
0.098032
0.249176
0.363283
0.433055
0.471946
0.486466
0.457865
0.363889
0.208533
0.028481
-0.117789
-0.180271
-0.154284
-0.078602
0.005507
0.081733
0.151243
0.214040
0.258448
0.263557
0.219735
0.152304
0.110045
0.120273
0.165496
0.209097
0.235689
0.260224
0.299626
0.345128
0.369480
0.350921
0.275883
0.133861
-0.060966
-0.253392
-0.380905
-0.410488
-0.331004
-0.152881
0.064498
0.232865
0.308564
0.318770
0.302133
0.248660
0.121162
-0.076493
-0.276326
-0.383169
-0.331706
-0.141870
0.079222
0.228463
0.298148
0.357278
0.464254
0.615051
0.758623
0.848205
0.873497
0.842938
0.760032
0.646280
0.565323
0.576950
0.670634
0.785391
0.892410
1.016099
1.175474
1.339209
1.439872
1.424446
1.293812
1.094339
0.891889
0.762564
0.763080
0.880208
1.042173
1.197008
1.344537
1.483878
1.578540
1.594236
1.535865
1.440957
1.370182
1.392935
1.539928
1.761265
1.940699
1.958936
1.751635
1.322246
0.736116
0.125370
-0.338151
-0.545202
-0.542530
-0.468539
-0.388505
-0.276046
-0.145812
-0.074399
-0.081065
-0.092096
-0.017211
0.204472
0.600582
1.137259
1.687576
2.069446
2.161415
1.990232
1.676681
1.301343
0.870352
0.410365
0.038106
-0.107690
-0.007859
0.204360
0.392348
0.559098
0.789252
1.086582
1.335112
1.420824
1.338687
1.149375
0.875490
0.494573
0.016202
-0.461295
-0.770612
-0.780109
-0.501914
-0.081771
0.314731
0.594158
0.742992
0.792220
0.804124
0.874851
1.075504
1.359295
1.595437
1.713666
1.738741
1.699618
1.593548
1.424666
1.231424
1.069506
0.959765
0.879162
0.806902
0.728743
0.623617
0.496046
0.371838
0.250566
0.140143
0.121789
0.281704
0.592159
0.947114
1.289398
1.624389
1.949271
2.246370
2.511017
2.724326
2.824280
2.746413
2.483010
2.090756
1.652424
1.231542
0.844931
0.463974
0.051360
-0.378420
-0.720202
-0.827193
-0.638778
-0.233019
0.280484
0.860497
1.475530
2.002120
2.258625
2.154415
1.793566
1.410448
1.170734
1.042891
0.875862
0.560557
0.109172
-0.371974
-0.780409
-1.113950
-1.428588
-1.658847
-1.567745
-0.986970
-0.099786
0.612528
0.796175
0.561212
0.296667
0.201064
0.135275
-0.087390
-0.438125
-0.722303
-0.759163
-0.513534
-0.138154
0.171779
0.381013
0.540789
0.610404
0.578555
0.623820
0.919096
1.404400
1.903936
2.332236
2.701879
3.037879
3.308454
3.378842
3.069374
2.332858
1.383189
0.594865
0.232501
0.293605
0.574300
0.827286
0.941642
1.011689
1.143207
1.275831
1.334064
1.401177
1.574243
1.777175
1.854892
1.762988
1.571814
1.348406
1.106010
0.825353
0.458807
-0.073432
-0.808362
-1.610821
-2.203999
-2.418724
-2.349295
-2.220779
-2.190822
-2.280670
-2.389252
-2.382027
-2.222482
-1.953746
-1.558645
-0.997759
-0.384457
0.064311
0.249351
0.210453
0.013852
-0.204867
-0.214586
0.100031
0.605636
1.138450
1.716343
2.376106
2.949021
3.201710
3.104776
2.793354
2.348353
1.771494
1.115136
0.519698
0.150219
0.112985
0.392037
0.885806
1.505581
2.196746
2.903426
3.587698
4.288567
5.104942
6.062182
6.986212
7.554193
7.543802
7.051792
6.377290
5.688336
4.951641
4.147945
3.374077
2.795281
2.575298
2.713742
2.954145
3.027649
2.949488
2.914732
3.002159
3.152733
3.312908
3.459717
3.590211
3.737472
3.922303
4.118391
4.326560
4.597819
4.904624
5.100581
5.114626
5.080063
5.147660
5.276798
5.335271
5.249686
4.918124
4.165813
2.949608
1.495418
0.149477
-0.861371
-1.521437
-1.924794
-2.098434
-1.943305
-1.410001
-0.715335
-0.220640
-0.064859
-0.081603
-0.059780
0.079104
0.320615
0.621817
0.919367
1.140019
1.249606
1.300681
1.408871
1.663386
2.054434
2.486923
2.851391
3.045598
2.966308
2.589068
2.063700
1.651284
1.540576
1.755114
2.247691
3.015748
4.019079
5.014831
5.657312
5.829276
5.736608
5.617795
5.503222
5.317575
5.057840
4.787610
4.589024
4.576640
4.810887
5.139048
5.246591
4.904713
4.126254
3.142648
2.279180
1.788811
1.740519
2.054636
2.643712
3.470628
4.409720
5.124700
5.237307
4.620417
3.463459
2.116543
0.899042
-0.053853
-0.795941
-1.368986
-1.666039
-1.564893
-1.110433
-0.508690
0.085370
0.745647
1.585781
2.465212
3.105071
3.419705
3.577647
3.786737
4.091039
4.359797
4.455171
4.391272
4.301526
4.273788
4.266470
4.181891
3.958552
3.571785
3.027253
2.398942
1.809305
1.359649
1.139035
1.248028
1.697480
2.325137
2.924715
3.420292
3.826084
4.118008
4.297805
4.537106
5.086557
6.021394
7.152102
8.151441
8.692957
8.532270
7.626712
6.218493
4.679675
3.234970
1.881883
0.551708
-0.693336
-1.623896
-2.025130
-1.953845
-1.772001
-1.844338
-2.279765
-2.980008
-3.751407
-4.375169
-4.707378
-4.722309
-4.504270
-4.219754
-3.972920
-3.671005
-3.161887
-2.480253
-1.848374
-1.489152
-1.491008
-1.776006
-2.165657
-2.509668
-2.754360
-2.906339
-2.967034
-2.898152
-2.647321
-2.229527
-1.771361
-1.418710
-1.197296
-1.035179
-0.895890
-0.791483
-0.729157
-0.738322
-0.855665
-1.012724
-1.049089
-0.895794
-0.644534
-0.405942
-0.197120
0.008857
0.198683
0.321717
0.356941
0.375159
0.526780
0.911918
1.471732
2.065379
2.593696
2.999897
3.264173
3.440078
3.590057
3.703359
3.763652
3.798272
3.774646
3.579403
3.185238
2.749543
2.504036
2.561979
2.792076
2.896548
2.676323
2.155522
1.421141
0.509477
-0.493216
-1.414649
-2.135498
-2.633385
-2.861719
-2.734930
-2.247185
-1.483455
-0.553038
0.382503
1.096477
1.437444
1.441250
1.244319
0.967232
0.698869
0.446044
0.081629
-0.486968
-1.078877
-1.345100
-1.161190
-0.776111
-0.521013
-0.498443
-0.612460
-0.751900
-0.849711
-0.890742
-0.948189
-1.129412
-1.441205
-1.756492
-1.937226
-1.970313
-1.964468
-2.022261
-2.143792
-2.272279
-2.406630
-2.598881
-2.815257
-2.886671
-2.675104
-2.234687
-1.730382
-1.243394
-0.744834
-0.215658
0.310979
0.780863
1.121869
1.305117
1.445268
1.725913
2.180716
2.623942
2.840478
2.815736
2.747258
2.850419
3.181146
3.620753
3.990536
4.177479
4.176650
4.051095
3.857496
3.589422
3.210099
2.759516
2.382479
2.200574
2.188646
2.244713
2.338722
2.487132
2.628021
2.638195
2.450892
2.108296
1.730077
1.448545
1.369720
1.570776
2.058211
2.697825
3.253886
3.549638
3.566167
3.385647
3.106979
2.827393
2.617725
2.479540
2.381857
2.341674
2.420220
2.662163
3.077227
3.653989
4.343994
5.024710
5.538457
5.812805
5.881526
5.768804
5.450474
4.937890
4.312339
3.687275
3.182609
2.872081
2.706741
2.558227
2.362156
2.153568
1.963305
1.744571
1.416827
0.973366
0.549262
0.353154
0.487015
0.831309
1.130710
1.200944
1.040882
0.757978
0.437554
0.084210
-0.358689
-0.926104
-1.551185
-2.102911
-2.496751
-2.713426
-2.745286
-2.614636
-2.415474
-2.240442
-2.069779
-1.802857
-1.396665
-0.893293
-0.315142
0.337378
0.960888
1.363510
1.442248
1.258274
0.952677
0.661518
0.480318
0.436774
0.487596
0.562505
0.597211
0.517293
0.257111
-0.160676
-0.613478
-0.981175
-1.243010
-1.460379
-1.673220
-1.841560
-1.890611
-1.782495
-1.543543
-1.248999
-0.993596
-0.851565
-0.825424
-0.848684
-0.864370
-0.855419
-0.791518
-0.623830
-0.338909
0.025009
0.394554
0.688559
0.867755
0.954121
0.974633
0.902420
0.698525
0.413370
0.190557
0.147362
0.282435
0.496706
0.672962
0.757537
0.806145
0.930338
1.167250
1.424096
1.571765
1.571456
1.482017
1.352796
1.175719
0.974148
0.850608
0.892874
1.106202
1.456489
1.906881
2.405216
2.883228
3.270194
3.495130
3.498328
3.266843
2.872785
2.468162
2.187741
2.033747
1.900295
1.707147
1.454814
1.169059
0.866636
0.578207
0.333196
0.106183
-0.154689
-0.434291
-0.645069
-0.706218
-0.581362
-0.287585
0.072519
0.341600
0.431600
0.398691
0.365837
0.379523
0.379669
0.318655
0.251586
0.270767
0.392076
0.543567
0.644813
0.664650
0.594658
0.403730
0.075232
-0.328760
-0.704003
-0.995535
-1.209165
-1.340871
-1.333509
-1.126672
-0.741177
-0.295728
0.067271
0.283691
0.400801
0.502511
0.620303
0.732632
0.816303
0.868001
0.891806
0.883475
0.828191
0.717034
0.568444
0.432460
0.366231
0.383351
0.420861
0.385516
0.243555
0.045626
-0.133310
-0.267109
-0.386955
-0.503788
-0.554803
-0.479188
-0.308850
-0.126676
0.024305
0.147437
0.257813
0.363592
0.424953
0.345457
0.077948
-0.286706
-0.595613
-0.771419
-0.848662
-0.917719
-1.056542
-1.274750
-1.501289
-1.653000
-1.722360
-1.782211
-1.903993
-2.084360
-2.264506
-2.407980
-2.528276
-2.646504
-2.759145
-2.854016
-2.933375
-3.008387
-3.079810
-3.140171
-3.201591
-3.301733
-3.455174
-3.613369
-3.707158
-3.722183
-3.711857
-3.745334
-3.859655
-4.065346
-4.371759
-4.766057
-5.181422
-5.530047
-5.755670
-5.839077
-5.789614
-5.643229
-5.443647
-5.226172
-5.021706
-4.848929
-4.686581
-4.474681
-4.170183
-3.797375
-3.426218
-3.102730
-2.812246
-2.517977
-2.231756
-2.035907
-2.025758
-2.224553
-2.564422
-2.955259
-3.353602
-3.770194
-4.236585
-4.756205
-5.274390
-5.712812
-6.035374
-6.252303
-6.362066
-6.336724
-6.181094
-5.958657
-5.723841
-5.464103
-5.149729
-4.813869
-4.532770
-4.328000
-4.136505
-3.904978
-3.677478
-3.549815
-3.564913
-3.692751
-3.891772
-4.145264
-4.428948
-4.673678
-4.804566
-4.830235
-4.858232
-4.999334
-5.279163
-5.649413
-6.049780
-6.441261
-6.798383
-7.083612
-7.236385
-7.209042
-7.021340
-6.758565
-6.508075
-6.307029
-6.147002
-6.009899
-5.887963
-5.782150
-5.701905
-5.663518
-5.668319
-5.678822
-5.638206
-5.526615
-5.388123
-5.298820
-5.310003
-5.413641
-5.561781
-5.717967
-5.881457
-6.068825
-6.279076
-6.467894
-6.560660
-6.515107
-6.375135
-6.238367
-6.167881
-6.157696
-6.170722
-6.172939
-6.141633
-6.074318
-5.984915
-5.886091
-5.793660
-5.742681
-5.775890
-5.916849
-6.167248
-6.524164
-6.974705
-7.462516
-7.887281
-8.164914
-8.279822
-8.277234
-8.222101
-8.155064
-8.067971
-7.922910
-7.694077
-7.389951
-7.044499
-6.688053
-6.322857
-5.934128
-5.530247
-5.157524
-4.864441
-4.671417
-4.583221
-4.595458
-4.671329
-4.747176
-4.792844
-4.847056
-4.962130
-5.130179
-5.291580
-5.398214
-5.444151
-5.450068
-5.438112
-5.413911
-5.365102
-5.284495
-5.187453
