EVENT_NAME: EMILIA_2ND_SHOCK
EVENT_ID: IT-2012-0011
EVENT_DATE_YYYYMMDD: 20120529
EVENT_TIME_HHMMSS: 070002
EVENT_LATITUDE_DEGREE: 44.8417
EVENT_LONGITUDE_DEGREE: 11.0657
EVENT_DEPTH_KM: 8.1
HYPOCENTER_REFERENCE: INGV-CNT_Seismic_Bulletin
MAGNITUDE_W: 6.0
MAGNITUDE_W_REFERENCE: RCMT-INGV
MAGNITUDE_L: 5.8
MAGNITUDE_L_REFERENCE: INGV-CNT_Seismic_Bulletin
FOCAL_MECHANISM: TF
NETWORK: IT
STATION_CODE: SMS0
STATION_NAME: SAN MARTINO SPINO
STATION_LATITUDE_DEGREE: 44.934000
STATION_LONGITUDE_DEGREE: 11.235000
STATION_ELEVATION_M: 55
LOCATION: 
SENSOR_DEPTH_M: 0.0
VS30_M/S: 
SITE_CLASSIFICATION_EC8: C*
MORPHOLOGIC_CLASSIFICATION: 
EPICENTRAL_DISTANCE_KM: 16.9
EARTHQUAKE_BACKAZIMUTH_DEGREE: 232.6
DATE_TIME_FIRST_SAMPLE_YYYYMMDD_HHMMSS: 20120529_065933.000
DATE_TIME_FIRST_SAMPLE_PRECISION: seconds
SAMPLING_INTERVAL_S: 0.005000
NDATA: 32001
DURATION_S: 160.005
STREAM: HNN
UNITS: cm
INSTRUMENT: sensor = Episensor FBA ES-T [Kinemetrics] | digitizer = Etna [Kinemetrics]
INSTRUMENT_ANALOG/DIGITAL: D
INSTRUMENTAL_FREQUENCY_HZ: 
INSTRUMENTAL_DAMPING: 
FULL_SCALE_G: 
N_BIT_DIGITAL_CONVERTER: 18
PGD_CM: -4.232781
TIME_PGD_S: 48.910000
BASELINE_CORRECTION: BASELINE REMOVED
FILTER_TYPE: BUTTERWORTH
FILTER_ORDER: 2
LOW_CUT_FREQUENCY_HZ: 0.040
HIGH_CUT_FREQUENCY_HZ: 40.000
LATE/NORMAL_TRIGGERED: NT
DATABASE_VERSION: DYNA 1.0
HEADER_FORMAT: DYNA 1.2
DATA_TYPE: DISPLACEMENT
PROCESSING: manual (Paolucci et al., 2011)
DATA_TIMESTAMP_YYYYMMDD_HHMMSS: 
DATA_LICENSE: CC-BY3_0-IT (http://creativecommons.org/licenses/by/3.0/deed.en)
DATA_CITATION: ESM working group (2015), European Strong-Motion database, version 0.1, Network Activity 3: Networking acceleration networks and SM data users. Project NERA (www.nera-eu.org)
DATA_CREATOR: ESM working group
ORIGINAL_DATA_MEDIATOR_CITATION: Ufficio Rischio Sismico e Vulcanico del Dipartimento della Protezione Civile (http://www.protezionecivile.gov.it/)
ORIGINAL_DATA_MEDIATOR: Rete Accelerometrica Nazionale - RAN Download (http://www.mot1.it/randownload/)
ORIGINAL_DATA_CREATOR_CITATION: Italian Strong Motion Network, Italian Civil Protection Department http://www.protezionecivile.gov.it
ORIGINAL_DATA_CREATOR: network: IT (Italian Strong Motion Network); owner: Dipartimento Della Protezione Civile
USER1: 
USER2: 
USER3: 
USER4: 
USER5: 
[...]
-3.464277e+00
-3.467931e+00
-3.472690e+00
-3.478654e+00
-3.485916e+00
-3.494541e+00
-3.504564e+00
-3.516010e+00
-3.528902e+00
-3.543262e+00
-3.559062e+00
-3.576147e+00
-3.594209e+00
-3.612856e+00
-3.631705e+00
-3.650403e+00
-3.668631e+00
-3.686142e+00
-3.702796e+00
-3.718545e+00
-3.733377e+00
-3.747282e+00
-3.760288e+00
-3.772531e+00
-3.784254e+00
-3.795739e+00
-3.807242e+00
-3.818976e+00
-3.831132e+00
-3.843855e+00
-3.857205e+00
-3.871133e+00
-3.885519e+00
-3.900225e+00
-3.915113e+00
-3.930033e+00
-3.944828e+00
-3.959349e+00
-3.973455e+00
-3.987000e+00
-3.999837e+00
-4.011840e+00
-4.022914e+00
-4.032968e+00
-4.041891e+00
-4.049560e+00
-4.055853e+00
-4.060664e+00
-4.063914e+00
-4.065547e+00
-4.065519e+00
-4.063789e+00
-4.060316e+00
-4.055061e+00
-4.047987e+00
-4.039048e+00
-4.028186e+00
-4.015336e+00
-4.000446e+00
-3.983477e+00
-3.964399e+00
-3.943179e+00
-3.919791e+00
-3.894247e+00
-3.866625e+00
-3.837106e+00
-3.805998e+00
-3.773713e+00
-3.740685e+00
-3.707303e+00
-3.673867e+00
-3.640589e+00
-3.607581e+00
-3.574856e+00
-3.542350e+00
-3.509947e+00
-3.477496e+00
-3.444820e+00
-3.411761e+00
-3.378220e+00
-3.344150e+00
-3.309526e+00
-3.274361e+00
-3.238786e+00
-3.203055e+00
-3.167462e+00
-3.132246e+00
-3.097571e+00
-3.063578e+00
-3.030451e+00
-2.998389e+00
-2.967512e+00
-2.937830e+00
-2.909309e+00
-2.881919e+00
-2.855634e+00
-2.830413e+00
-2.806230e+00
-2.783103e+00
-2.761090e+00
-2.740263e+00
-2.720680e+00
-2.702378e+00
-2.685381e+00
-2.669702e+00
-2.655323e+00
-2.642187e+00
-2.630195e+00
-2.619217e+00
-2.609102e+00
-2.599695e+00
-2.590821e+00
-2.582243e+00
-2.573669e+00
-2.564810e+00
-2.555448e+00
-2.545431e+00
-2.534618e+00
-2.522850e+00
-2.509972e+00
-2.495879e+00
-2.480538e+00
-2.463954e+00
-2.446149e+00
-2.427153e+00
-2.407033e+00
-2.385917e+00
-2.364005e+00
-2.341546e+00
-2.318795e+00
-2.295979e+00
-2.273294e+00
-2.250891e+00
-2.228839e+00
-2.207127e+00
-2.185703e+00
-2.164519e+00
-2.143557e+00
-2.122807e+00
-2.102244e+00
-2.081822e+00
-2.061482e+00
-2.041157e+00
-2.020766e+00
-2.000225e+00
-1.979472e+00
-1.958486e+00
-1.937276e+00
-1.915855e+00
-1.894208e+00
-1.872278e+00
-1.849964e+00
-1.827129e+00
-1.803619e+00
-1.779277e+00
-1.753960e+00
-1.727562e+00
-1.700027e+00
-1.671355e+00
-1.641571e+00
-1.610705e+00
-1.578772e+00
-1.545768e+00
-1.511676e+00
-1.476482e+00
-1.440180e+00
-1.402779e+00
-1.364294e+00
-1.324764e+00
-1.284262e+00
-1.242903e+00
-1.200821e+00
-1.158144e+00
-1.114966e+00
-1.071328e+00
-1.027218e+00
-9.825944e-01
-9.374185e-01
-8.916585e-01
-8.452831e-01
-7.982554e-01
-7.505423e-01
-7.021167e-01
-6.529486e-01
-6.030044e-01
-5.522601e-01
-5.007110e-01
-4.483727e-01
-3.952787e-01
-3.414846e-01
-2.870794e-01
-2.321893e-01
-1.769626e-01
-1.215479e-01
-6.607841e-02
-1.066755e-02
4.458447e-02
9.957867e-02
1.542161e-01
2.084080e-01
2.620764e-01
3.151393e-01
3.675074e-01
4.190940e-01
4.698265e-01
5.196485e-01
5.685201e-01
6.164194e-01
6.633449e-01
7.093130e-01
7.543493e-01
7.984755e-01
8.417059e-01
8.840601e-01
9.255725e-01
9.662800e-01
1.006200e+00
1.045327e+00
1.083646e+00
1.121155e+00
1.157870e+00
1.193832e+00
1.229110e+00
1.263803e+00
1.298022e+00
1.331863e+00
1.365409e+00
1.398738e+00
1.431925e+00
1.465042e+00
1.498152e+00
1.531319e+00
1.564615e+00
1.598124e+00
1.631930e+00
1.666110e+00
1.700725e+00
1.735831e+00
1.771476e+00
1.807694e+00
1.844497e+00
1.881880e+00
1.919832e+00
1.958325e+00
1.997313e+00
2.036728e+00
2.076502e+00
2.116576e+00
2.156909e+00
2.197475e+00
2.238256e+00
2.279230e+00
2.320369e+00
2.361625e+00
2.402924e+00
2.444166e+00
2.485227e+00
2.525985e+00
2.566331e+00
2.606171e+00
2.645422e+00
2.683996e+00
2.721796e+00
2.758723e+00
2.794693e+00
2.829625e+00
2.863443e+00
2.896081e+00
2.927504e+00
2.957708e+00
2.986704e+00
3.014502e+00
3.041107e+00
3.066526e+00
3.090760e+00
3.113801e+00
3.135629e+00
3.156220e+00
3.175550e+00
3.193594e+00
3.210329e+00
3.225745e+00
3.239863e+00
3.252739e+00
3.264468e+00
3.275170e+00
3.284975e+00
3.294015e+00
3.302416e+00
3.310286e+00
3.317703e+00
3.324726e+00
3.331401e+00
3.337770e+00
3.343879e+00
3.349785e+00
3.355566e+00
3.361313e+00
3.367114e+00
3.373050e+00
3.379197e+00
3.385641e+00
3.392475e+00
3.399779e+00
3.407618e+00
3.416043e+00
3.425106e+00
3.434862e+00
3.445355e+00
3.456610e+00
3.468628e+00
3.481382e+00
3.494796e+00
3.508725e+00
3.522957e+00
3.537237e+00
3.551319e+00
3.564993e+00
3.578091e+00
3.590482e+00
3.602072e+00
3.612797e+00
3.622626e+00
3.631548e+00
3.639565e+00
3.646684e+00
3.652921e+00
3.658315e+00
3.662934e+00
3.666863e+00
3.670185e+00
3.672959e+00
3.675241e+00
3.677100e+00
3.678621e+00
3.679885e+00
3.680960e+00
3.681914e+00
3.682820e+00
3.683753e+00
3.684774e+00
3.685938e+00
3.687298e+00
3.688907e+00
3.690814e+00
3.693067e+00
3.695715e+00
3.698800e+00
3.702353e+00
3.706383e+00
3.710874e+00
3.715794e+00
3.721102e+00
3.726745e+00
3.732661e+00
3.738790e+00
3.745076e+00
3.751468e+00
3.757927e+00
3.764428e+00
3.770969e+00
3.777567e+00
3.784254e+00
3.791069e+00
3.798061e+00
3.805289e+00
3.812818e+00
3.820721e+00
3.829075e+00
3.837956e+00
3.847435e+00
3.857571e+00
3.868397e+00
3.879917e+00
3.892124e+00
3.904996e+00
3.918473e+00
3.932440e+00
3.946730e+00
3.961152e+00
3.975522e+00
3.989679e+00
4.003475e+00
4.016771e+00
4.029442e+00
4.041391e+00
4.052545e+00
4.062835e+00
4.072194e+00
4.080560e+00
4.087890e+00
4.094150e+00
4.099313e+00
4.103362e+00
4.106286e+00
4.108076e+00
4.108713e+00
4.108183e+00
4.106483e+00
4.103625e+00
4.099629e+00
4.094521e+00
4.088340e+00
4.081142e+00
4.072998e+00
4.063987e+00
4.054196e+00
4.043712e+00
4.032623e+00
4.021004e+00
4.008917e+00
3.996423e+00
3.983589e+00
3.970489e+00
3.957197e+00
3.943774e+00
3.930269e+00
3.916721e+00
3.903169e+00
3.889647e+00
3.876181e+00
3.862782e+00
3.849440e+00
3.836123e+00
3.822776e+00
3.809337e+00
3.795747e+00
3.781959e+00
3.767928e+00
3.753601e+00
3.738919e+00
3.723832e+00
3.708302e+00
3.692305e+00
3.675832e+00
3.658897e+00
3.641544e+00
3.623846e+00
3.605906e+00
3.587856e+00
3.569841e+00
3.552010e+00
3.534497e+00
3.517432e+00
3.500934e+00
3.485109e+00
3.470038e+00
3.455789e+00
3.442433e+00
3.430054e+00
3.418734e+00
3.408542e+00
3.399532e+00
3.391763e+00
3.385304e+00
3.380239e+00
3.376650e+00
3.374617e+00
3.374218e+00
3.375541e+00
3.378670e+00
3.383679e+00
3.390626e+00
3.399537e+00
3.410390e+00
3.423104e+00
3.437533e+00
3.453470e+00
3.470658e+00
3.488807e+00
3.507623e+00
3.526817e+00
3.546122e+00
3.565307e+00
3.584194e+00
3.602673e+00
3.620677e+00
3.638149e+00
3.655019e+00
3.671206e+00
3.686624e+00
3.701189e+00
3.714809e+00
3.727386e+00
3.738838e+00
3.749110e+00
3.758167e+00
3.765976e+00
3.772513e+00
3.777769e+00
3.781734e+00
3.784397e+00
3.785744e+00
3.785769e+00
3.784464e+00
3.781821e+00
3.777840e+00
3.772528e+00
3.765906e+00
3.757999e+00
3.748833e+00
3.738443e+00
3.726871e+00
3.714160e+00
3.700346e+00
3.685463e+00
3.669534e+00
3.652579e+00
3.634622e+00
3.615683e+00
3.595780e+00
3.574925e+00
3.553131e+00
3.530412e+00
3.506785e+00
3.482274e+00
3.456917e+00
3.430782e+00
3.403963e+00
3.376577e+00
3.348745e+00
3.320577e+00
3.292176e+00
3.263634e+00
3.235031e+00
3.206437e+00
3.177912e+00
3.149513e+00
3.121285e+00
3.093268e+00
3.065502e+00
3.038023e+00
3.010869e+00
2.984069e+00
2.957651e+00
2.931639e+00
2.906062e+00
2.880943e+00
2.856301e+00
2.832141e+00
2.808453e+00
2.785211e+00
2.762380e+00
2.739926e+00
2.717824e+00
2.696069e+00
2.674666e+00
2.653639e+00
2.633028e+00
2.612888e+00
2.593278e+00
2.574252e+00
2.555860e+00
2.538150e+00
2.521163e+00
2.504928e+00
2.489444e+00
2.474694e+00
2.460673e+00
2.447401e+00
2.434908e+00
2.423218e+00
2.412342e+00
2.402290e+00
2.393078e+00
2.384722e+00
2.377238e+00
2.370639e+00
2.364936e+00
2.360126e+00
2.356193e+00
2.353108e+00
2.350823e+00
2.349275e+00
2.348378e+00
2.348029e+00
2.348108e+00
2.348483e+00
2.349022e+00
2.349597e+00
2.350094e+00
2.350417e+00
2.350497e+00
2.350297e+00
2.349803e+00
2.349021e+00
2.347974e+00
2.346696e+00
2.345217e+00
2.343559e+00
2.341738e+00
2.339766e+00
2.337653e+00
2.335396e+00
2.332980e+00
2.330372e+00
2.327522e+00
2.324365e+00
2.320818e+00
2.316802e+00
2.312246e+00
2.307094e+00
2.301302e+00
2.294838e+00
2.287681e+00
2.279815e+00
2.271240e+00
2.261973e+00
2.252044e+00
2.241495e+00
2.230382e+00
2.218784e+00
2.206788e+00
2.194487e+00
2.181972e+00
2.169339e+00
2.156673e+00
2.144038e+00
2.131477e+00
2.119015e+00
2.106665e+00
2.094432e+00
2.082322e+00
2.070350e+00
2.058546e+00
2.046942e+00
2.035564e+00
2.024425e+00
2.013533e+00
2.002884e+00
1.992444e+00
1.982160e+00
1.971963e+00
1.961770e+00
1.951482e+00
1.940994e+00
1.930203e+00
1.919014e+00
1.907341e+00
1.895104e+00
1.882224e+00
1.868629e+00
1.854262e+00
1.839088e+00
1.823087e+00
1.806241e+00
1.788530e+00
1.769938e+00
1.750457e+00
1.730091e+00
1.708850e+00
1.686736e+00
1.663744e+00
1.639860e+00
1.615065e+00
1.589347e+00
1.562703e+00
1.535127e+00
1.506610e+00
1.477149e+00
1.446762e+00
1.415484e+00
1.383360e+00
1.350459e+00
1.316872e+00
1.282719e+00
1.248127e+00
1.213229e+00
1.178148e+00
1.142998e+00
1.107879e+00
1.072870e+00
1.038024e+00
1.003374e+00
9.689425e-01
9.347391e-01
9.007651e-01
8.670109e-01
8.334611e-01
8.001019e-01
7.669264e-01
7.339368e-01
7.011460e-01
6.685763e-01
6.362540e-01
6.042007e-01
5.724340e-01
5.409701e-01
5.098171e-01
4.789671e-01
4.483988e-01
4.180818e-01
3.879735e-01
3.580163e-01
3.281403e-01
2.982721e-01
2.683436e-01
2.382985e-01
2.080919e-01
1.776904e-01
1.470759e-01
1.162522e-01
8.524498e-02
5.409553e-02
2.285694e-02
-8.408609e-03
-3.963326e-02
-7.074736e-02
-1.016824e-01
-1.323732e-01
-1.627598e-01
-1.927885e-01
-2.224141e-01
-2.516000e-01
-2.803165e-01
-3.085385e-01
-3.362417e-01
-3.633988e-01
-3.899762e-01
-4.159336e-01
-4.412290e-01
-4.658232e-01
-4.896813e-01
-5.127713e-01
-5.350654e-01
-5.565439e-01
-5.772024e-01
-5.970575e-01
-6.161467e-01
-6.345229e-01
-6.522495e-01
-6.693946e-01
-6.860265e-01
-7.022086e-01
-7.179990e-01
-7.334485e-01
-7.485960e-01
-7.634622e-01
-7.780479e-01
-7.923395e-01
-8.063162e-01
-8.199530e-01
-8.332241e-01
-8.461113e-01
-8.586151e-01
-8.707625e-01
-8.826099e-01
-8.942456e-01
-9.057887e-01
-9.173840e-01
-9.291934e-01
-9.413797e-01
-9.540868e-01
-9.674247e-01
-9.814721e-01
-9.962857e-01
-1.011908e+00
-1.028368e+00
-1.045684e+00
-1.063861e+00
-1.082893e+00
-1.102767e+00
-1.123468e+00
-1.144975e+00
-1.167251e+00
-1.190248e+00
-1.213911e+00
-1.238194e+00
-1.263054e+00
-1.288449e+00
-1.314341e+00
-1.340699e+00
-1.367504e+00
-1.394741e+00
-1.422398e+00
-1.450463e+00
-1.478928e+00
-1.507797e+00
-1.537085e+00
-1.566820e+00
-1.597039e+00
-1.627785e+00
-1.659113e+00
-1.691084e+00
-1.723761e+00
-1.757204e+00
-1.791460e+00
-1.826567e+00
-1.862549e+00
-1.899417e+00
-1.937167e+00
-1.975776e+00
-2.015212e+00
-2.055433e+00
-2.096387e+00
-2.138019e+00
-2.180274e+00
-2.223095e+00
-2.266417e+00
-2.310172e+00
-2.354276e+00
-2.398638e+00
-2.443165e+00
-2.487763e+00
-2.532337e+00
-2.576793e+00
-2.621040e+00
-2.664996e+00
-2.708587e+00
-2.751751e+00
-2.794438e+00
-2.836605e+00
-2.878219e+00
-2.919253e+00
-2.959685e+00
-2.999491e+00
-3.038646e+00
-3.077115e+00
-3.114856e+00
-3.151827e+00
-3.187981e+00
-3.223258e+00
-3.257589e+00
-3.290894e+00
-3.323108e+00
-3.354180e+00
-3.384074e+00
-3.412754e+00
-3.440187e+00
-3.466353e+00
-3.491250e+00
-3.514885e+00
-3.537272e+00
-3.558431e+00
-3.578386e+00
-3.597173e+00
-3.614836e+00
-3.631430e+00
-3.647019e+00
-3.661661e+00
-3.675400e+00
-3.688267e+00
-3.700292e+00
-3.711504e+00
-3.721931e+00
-3.731603e+00
-3.740560e+00
-3.748855e+00
-3.756551e+00
-3.763721e+00
-3.770455e+00
-3.776856e+00
-3.783031e+00
-3.789082e+00
-3.795099e+00
-3.801157e+00
-3.807318e+00
-3.813629e+00
-3.820133e+00
-3.826875e+00
-3.833902e+00
-3.841252e+00
-3.848958e+00
-3.857048e+00
-3.865556e+00
-3.874517e+00
-3.883961e+00
-3.893911e+00
-3.904378e+00
-3.915367e+00
-3.926873e+00
-3.938876e+00
-3.951342e+00
-3.964225e+00
-3.977463e+00
-3.990973e+00
-4.004653e+00
-4.018396e+00
-4.032101e+00
-4.045678e+00
-4.059036e+00
-4.072083e+00
-4.084734e+00
-4.096912e+00
-4.108550e+00
-4.119589e+00
-4.129977e+00
-4.139668e+00
-4.148629e+00
-4.156836e+00
-4.164274e+00
-4.170939e+00
-4.176833e+00
-4.181971e+00
-4.186377e+00
-4.190094e+00
-4.193181e+00
-4.195714e+00
-4.197783e+00
-4.199484e+00
-4.200915e+00
-4.202162e+00
-4.203303e+00
-4.204409e+00
-4.205541e+00
-4.206751e+00
-4.208079e+00
-4.209552e+00
-4.211183e+00
-4.212969e+00
-4.214890e+00
-4.216914e+00
-4.219001e+00
-4.221107e+00
-4.223186e+00
-4.225190e+00
-4.227072e+00
-4.228784e+00
-4.230272e+00
-4.231476e+00
-4.232334e+00
-4.232781e+00
-4.232755e+00
-4.232196e+00
-4.231047e+00
-4.229262e+00
-4.226807e+00
-4.223661e+00
-4.219812e+00
-4.215250e+00
-4.209969e+00
-4.203975e+00
-4.197280e+00
-4.189906e+00
-4.181880e+00
-4.173230e+00
-4.163986e+00
-4.154175e+00
-4.143814e+00
-4.132916e+00
-4.121490e+00
-4.109543e+00
-4.097087e+00
-4.084130e+00
-4.070685e+00
-4.056766e+00
-4.042389e+00
-4.027564e+00
-4.012294e+00
-3.996580e+00
-3.980415e+00
-3.963790e+00
-3.946691e+00
-3.929103e+00
-3.911015e+00
-3.892425e+00
-3.873339e+00
-3.853772e+00
-3.833753e+00
-3.813326e+00
-3.792547e+00
-3.771484e+00
-3.750216e+00
-3.728832e+00
-3.707422e+00
-3.686069e+00
-3.664849e+00
-3.643825e+00
-3.623041e+00
-3.602524e+00
-3.582283e+00
-3.562321e+00
-3.542636e+00
-3.523228e+00
-3.504100e+00
-3.485263e+00
-3.466736e+00
-3.448544e+00
-3.430713e+00
-3.413266e+00
-3.396224e+00
-3.379595e+00
-3.363381e+00
-3.347575e+00
-3.332159e+00
-3.317106e+00
-3.302382e+00
-3.287940e+00
-3.273723e+00
-3.259666e+00
-3.245709e+00
-3.231802e+00
-3.217906e+00
-3.203988e+00
-3.190018e+00
-3.175973e+00
-3.161826e+00
-3.147556e+00
-3.133141e+00
-3.118559e+00
-3.103795e+00
-3.088835e+00
-3.073665e+00
-3.058273e+00
-3.042635e+00
-3.026728e+00
-3.010520e+00
-2.993981e+00
-2.977076e+00
-2.959767e+00
-2.942014e+00
-2.923789e+00
-2.905075e+00
-2.885857e+00
-2.866119e+00
-2.845857e+00
-2.825069e+00
-2.803756e+00
-2.781926e+00
-2.759596e+00
-2.736798e+00
-2.713568e+00
-2.689945e+00
-2.665972e+00
-2.641699e+00
-2.617189e+00
-2.592507e+00
-2.567717e+00
-2.542875e+00
-2.518026e+00
-2.493205e+00
-2.468432e+00
-2.443716e+00
-2.419062e+00
-2.394466e+00
-2.369924e+00
-2.345429e+00
-2.320977e+00
-2.296564e+00
-2.272183e+00
-2.247833e+00
-2.223516e+00
-2.199239e+00
-2.175003e+00
-2.150803e+00
-2.126619e+00
-2.102425e+00
-2.078186e+00
-2.053864e+00
-2.029425e+00
-2.004843e+00
-1.980107e+00
-1.955221e+00
-1.930214e+00
-1.905134e+00
-1.880038e+00
-1.854992e+00
-1.830073e+00
-1.805361e+00
-1.780929e+00
-1.756841e+00
-1.733147e+00
-1.709879e+00
-1.687057e+00
-1.664689e+00
-1.642773e+00
-1.621300e+00
-1.600260e+00
-1.579634e+00
-1.559400e+00
-1.539523e+00
-1.519967e+00
-1.500695e+00
-1.481668e+00
-1.462852e+00
-1.444220e+00
-1.425747e+00
-1.407419e+00
-1.389219e+00
-1.371135e+00
-1.353153e+00
-1.335255e+00
-1.317422e+00
-1.299634e+00
-1.281871e+00
-1.264116e+00
-1.246358e+00
-1.228591e+00
-1.210819e+00
-1.193051e+00
-1.175305e+00
-1.157604e+00
-1.139973e+00
-1.122437e+00
-1.105019e+00
-1.087735e+00
-1.070596e+00
-1.053604e+00
-1.036750e+00
-1.020016e+00
-1.003379e+00
-9.868063e-01
-9.702610e-01
-9.537031e-01
-9.370931e-01
-9.203957e-01
-9.035816e-01
-8.866264e-01
-8.695077e-01
-8.521997e-01
-8.346709e-01
-8.168838e-01
-7.987944e-01
-7.803547e-01
-7.615154e-01
-7.422303e-01
-7.224604e-01
-7.021788e-01
-6.813738e-01
-6.600499e-01
-6.382277e-01
-6.159430e-01
-5.932424e-01
-5.701793e-01
-5.468106e-01
-5.231943e-01
-4.993827e-01
-4.754141e-01
-4.513110e-01
-4.270822e-01
-4.027268e-01
-3.782382e-01
-3.536075e-01
-3.288260e-01
-3.038854e-01
-2.787775e-01
-2.534944e-01
-2.280312e-01
-2.023899e-01
-1.765831e-01
-1.506370e-01
-1.245931e-01
-9.850799e-02
-7.245124e-02
-4.649961e-02
-2.072837e-02
4.795475e-03
3.001542e-02
5.488604e-02
7.937388e-02
1.034579e-01
1.271287e-01
1.503863e-01
1.732390e-01
1.957018e-01
2.177947e-01
2.395403e-01
2.609624e-01
2.820864e-01
3.029410e-01
3.235582e-01
3.439707e-01
3.642121e-01
3.843160e-01
4.043138e-01
4.242311e-01
4.440862e-01
4.638906e-01
4.836512e-01
5.033712e-01
5.230505e-01
5.426849e-01
5.622656e-01
5.817803e-01
6.012120e-01
6.205380e-01
6.397310e-01
6.587620e-01
6.776022e-01
6.962236e-01
7.145980e-01
7.326978e-01
7.504987e-01
7.679814e-01
7.851335e-01
8.019493e-01
8.184305e-01
8.345872e-01
8.504357e-01
8.659983e-01
8.813041e-01
8.963895e-01
9.112959e-01
9.260678e-01
9.407535e-01
9.554069e-01
9.700878e-01
9.848596e-01
9.997867e-01
1.014931e+00
1.030348e+00
1.046086e+00
1.062184e+00
1.078671e+00
1.095572e+00
1.112903e+00
1.130674e+00
1.148885e+00
1.167525e+00
1.186572e+00
1.205991e+00
1.225732e+00
1.245730e+00
1.265913e+00
1.286204e+00
1.306528e+00
1.326820e+00
1.347022e+00
1.367085e+00
1.386963e+00
1.406613e+00
1.425996e+00
1.445076e+00
1.463825e+00
1.482224e+00
1.500263e+00
1.517941e+00
1.535262e+00
1.552232e+00
1.568857e+00
1.585148e+00
1.601117e+00
1.616776e+00
1.632135e+00
1.647211e+00
1.662020e+00
1.676577e+00
1.690888e+00
1.704960e+00
1.718793e+00
1.732385e+00
1.745730e+00
1.758820e+00
1.771655e+00
1.784239e+00
1.796583e+00
1.808703e+00
1.820619e+00
1.832361e+00
1.843959e+00
1.855441e+00
1.866829e+00
1.878135e+00
1.889363e+00
1.900501e+00
1.911537e+00
1.922454e+00
1.933232e+00
1.943848e+00
1.954284e+00
1.964529e+00
1.974580e+00
1.984436e+00
1.994103e+00
2.003586e+00
2.012889e+00
2.022014e+00
2.030951e+00
2.039687e+00
2.048203e+00
2.056481e+00
2.064504e+00
2.072259e+00
2.079741e+00
2.086953e+00
2.093898e+00
2.100580e+00
2.107007e+00
2.113190e+00
2.119139e+00
2.124865e+00
2.130374e+00
2.135670e+00
2.140744e+00
2.145580e+00
2.150153e+00
2.154435e+00
2.158401e+00
2.162028e+00
2.165296e+00
2.168199e+00
2.170736e+00
2.172922e+00
2.174774e+00
2.176322e+00
2.177598e+00
2.178643e+00
2.179496e+00
2.180197e+00
2.180783e+00
2.181288e+00
2.181740e+00
2.182159e+00
2.182559e+00
2.182948e+00
2.183329e+00
2.183699e+00
2.184054e+00
2.184390e+00
2.184700e+00
2.184979e+00
2.185225e+00
2.185439e+00
