EVENT_NAME: EMILIA_2ND_SHOCK
EVENT_ID: IT-2012-0011
EVENT_DATE_YYYYMMDD: 20120529
EVENT_TIME_HHMMSS: 070002
EVENT_LATITUDE_DEGREE: 44.8417
EVENT_LONGITUDE_DEGREE: 11.0657
EVENT_DEPTH_KM: 8.1
HYPOCENTER_REFERENCE: INGV-CNT_Seismic_Bulletin
MAGNITUDE_W: 6.0
MAGNITUDE_W_REFERENCE: RCMT-INGV
MAGNITUDE_L: 5.8
MAGNITUDE_L_REFERENCE: INGV-CNT_Seismic_Bulletin
FOCAL_MECHANISM: TF
NETWORK: IT
STATION_CODE: SMS0
STATION_NAME: SAN MARTINO SPINO
STATION_LATITUDE_DEGREE: 44.934000
STATION_LONGITUDE_DEGREE: 11.235000
STATION_ELEVATION_M: 55
LOCATION: 
SENSOR_DEPTH_M: 0.0
VS30_M/S: 
SITE_CLASSIFICATION_EC8: C*
MORPHOLOGIC_CLASSIFICATION: 
EPICENTRAL_DISTANCE_KM: 16.9
EARTHQUAKE_BACKAZIMUTH_DEGREE: 232.6
DATE_TIME_FIRST_SAMPLE_YYYYMMDD_HHMMSS: 20120529_065933.000
DATE_TIME_FIRST_SAMPLE_PRECISION: seconds
SAMPLING_INTERVAL_S: 0.005000
NDATA: 32001
DURATION_S: 160.005
STREAM: HNN
UNITS: cm/s
INSTRUMENT: sensor = Episensor FBA ES-T [Kinemetrics] | digitizer = Etna [Kinemetrics]
INSTRUMENT_ANALOG/DIGITAL: D
INSTRUMENTAL_FREQUENCY_HZ: 
INSTRUMENTAL_DAMPING: 
FULL_SCALE_G: 
N_BIT_DIGITAL_CONVERTER: 18
PGV_CM/S: 14.258587
TIME_PGV_S: 42.030000
BASELINE_CORRECTION: BASELINE REMOVED
FILTER_TYPE: BUTTERWORTH
FILTER_ORDER: 2
LOW_CUT_FREQUENCY_HZ: 0.040
HIGH_CUT_FREQUENCY_HZ: 40.000
LATE/NORMAL_TRIGGERED: NT
DATABASE_VERSION: DYNA 1.0
HEADER_FORMAT: DYNA 1.2
DATA_TYPE: VELOCITY
PROCESSING: manual (Paolucci et al., 2011)
DATA_TIMESTAMP_YYYYMMDD_HHMMSS: 
DATA_LICENSE: CC-BY3_0-IT (http://creativecommons.org/licenses/by/3.0/deed.en)
DATA_CITATION: ESM working group (2015), European Strong-Motion database, version 0.1, Network Activity 3: Networking acceleration networks and SM data users. Project NERA (www.nera-eu.org)
DATA_CREATOR: ESM working group
ORIGINAL_DATA_MEDIATOR_CITATION: Ufficio Rischio Sismico e Vulcanico del Dipartimento della Protezione Civile (http://www.protezionecivile.gov.it/)
ORIGINAL_DATA_MEDIATOR: Rete Accelerometrica Nazionale - RAN Download (http://www.mot1.it/randownload/)
ORIGINAL_DATA_CREATOR_CITATION: Italian Strong Motion Network, Italian Civil Protection Department http://www.protezionecivile.gov.it
ORIGINAL_DATA_CREATOR: network: IT (Italian Strong Motion Network); owner: Dipartimento Della Protezione Civile
USER1: 
USER2: 
USER3: 
USER4: 
USER5: 
[...]
-0.009508
-0.014202
-0.027214
-0.046952
-0.069398
-0.088363
-0.098034
-0.096362
-0.085506
-0.069715
-0.052927
-0.037213
-0.023838
-0.015796
-0.016548
-0.025429
-0.036934
-0.045676
-0.050927
-0.055906
-0.063016
-0.070564
-0.075253
-0.076897
-0.077712
-0.076959
-0.070964
-0.060049
-0.050061
-0.044680
-0.040990
-0.034057
-0.022447
-0.009119
0.000836
0.003737
0.000023
-0.007105
-0.015927
-0.027541
-0.042100
-0.055386
-0.061688
-0.059893
-0.053823
-0.046623
-0.038469
-0.030663
-0.027643
-0.031877
-0.040415
-0.049719
-0.060036
-0.072598
-0.086061
-0.097074
-0.101920
-0.097875
-0.085808
-0.071466
-0.061884
-0.059786
-0.062927
-0.069263
-0.079087
-0.090512
-0.098694
-0.102414
-0.105743
-0.111421
-0.117683
-0.121421
-0.120136
-0.112391
-0.100077
-0.088792
-0.083645
-0.085040
-0.089485
-0.094157
-0.098385
-0.100018
-0.094752
-0.082694
-0.072489
-0.073583
-0.085701
-0.101640
-0.117706
-0.133524
-0.145577
-0.150076
-0.147837
-0.139929
-0.124939
-0.104692
-0.085527
-0.071953
-0.066445
-0.074399
-0.099385
-0.133590
-0.161470
-0.174213
-0.176174
-0.177446
-0.183218
-0.189519
-0.188426
-0.176778
-0.157443
-0.135929
-0.119332
-0.112059
-0.110259
-0.107418
-0.105147
-0.110138
-0.121654
-0.132496
-0.140999
-0.150560
-0.159505
-0.163623
-0.165835
-0.171376
-0.177344
-0.176686
-0.168042
-0.155285
-0.140823
-0.123544
-0.101917
-0.078447
-0.062396
-0.064521
-0.086448
-0.118035
-0.144693
-0.156791
-0.157050
-0.159753
-0.176797
-0.203829
-0.224564
-0.226797
-0.210802
-0.186145
-0.164294
-0.153187
-0.155392
-0.167720
-0.182869
-0.194744
-0.202538
-0.208072
-0.209925
-0.203867
-0.189700
-0.172487
-0.157060
-0.146724
-0.144485
-0.149549
-0.155668
-0.157928
-0.157937
-0.158539
-0.157838
-0.151930
-0.140337
-0.127388
-0.119340
-0.118962
-0.123658
-0.130864
-0.142659
-0.162023
-0.186868
-0.211202
-0.229954
-0.239798
-0.240450
-0.238385
-0.241601
-0.248216
-0.247999
-0.235068
-0.213088
-0.190847
-0.176435
-0.172529
-0.175396
-0.178330
-0.175637
-0.166589
-0.157994
-0.160240
-0.178760
-0.208908
-0.238017
-0.253108
-0.249088
-0.230887
-0.207599
-0.185562
-0.167181
-0.152220
-0.139266
-0.130057
-0.129383
-0.136382
-0.143643
-0.150335
-0.166552
-0.199528
-0.245181
-0.294831
-0.339253
-0.368447
-0.378347
-0.373452
-0.357256
-0.327945
-0.287433
-0.246714
-0.217284
-0.202848
-0.201628
-0.209030
-0.217676
-0.223347
-0.231183
-0.251563
-0.289500
-0.336860
-0.372769
-0.374529
-0.334155
-0.267127
-0.203910
-0.168906
-0.165486
-0.182386
-0.209713
-0.244873
-0.289596
-0.344798
-0.405428
-0.459968
-0.496536
-0.512994
-0.521474
-0.535087
-0.547669
-0.536650
-0.490557
-0.424722
-0.365751
-0.328594
-0.312822
-0.314588
-0.331955
-0.356490
-0.372491
-0.372678
-0.365613
-0.363881
-0.372253
-0.387097
-0.400004
-0.399681
-0.376885
-0.333922
-0.283925
-0.238189
-0.203436
-0.186919
-0.190708
-0.206195
-0.223992
-0.243897
-0.266537
-0.280896
-0.274155
-0.252878
-0.238737
-0.239276
-0.237655
-0.218042
-0.187352
-0.164471
-0.159000
-0.168447
-0.190148
-0.227411
-0.284553
-0.358403
-0.432878
-0.486456
-0.509722
-0.509014
-0.492284
-0.461788
-0.420755
-0.376692
-0.334802
-0.294151
-0.254596
-0.223734
-0.212526
-0.225129
-0.254126
-0.285850
-0.311347
-0.331278
-0.347852
-0.354989
-0.343490
-0.314058
-0.279219
-0.253419
-0.241223
-0.233716
-0.218831
-0.195985
-0.180147
-0.190180
-0.228544
-0.275401
-0.310742
-0.334127
-0.352389
-0.360436
-0.346317
-0.307221
-0.252825
-0.197202
-0.150506
-0.114077
-0.081376
-0.046656
-0.011485
0.017588
0.032429
0.028893
0.016335
0.014961
0.039252
0.086270
0.138337
0.177047
0.196732
0.205400
0.215624
0.232163
0.242267
0.222610
0.162979
0.077491
-0.011475
-0.092875
-0.169052
-0.244778
-0.316154
-0.369857
-0.398579
-0.418870
-0.459449
-0.523930
-0.580590
-0.599216
-0.585518
-0.567136
-0.558246
-0.555753
-0.555546
-0.550149
-0.527175
-0.489850
-0.461811
-0.457952
-0.463123
-0.451481
-0.422022
-0.399386
-0.399834
-0.413602
-0.420643
-0.409658
-0.380910
-0.338648
-0.284682
-0.219925
-0.152461
-0.101710
-0.086157
-0.101811
-0.123983
-0.137551
-0.150023
-0.168466
-0.183678
-0.186341
-0.182208
-0.180508
-0.175355
-0.149686
-0.098224
-0.036250
0.017723
0.055885
0.075752
0.077115
0.067038
0.055328
0.045527
0.036346
0.026268
0.013327
-0.002274
-0.013138
-0.008573
0.015528
0.052901
0.091650
0.123416
0.149451
0.176238
0.207774
0.246278
0.292529
0.338462
0.367263
0.365358
0.331742
0.275516
0.206919
0.136265
0.078991
0.050374
0.053118
0.076932
0.112056
0.157963
0.218287
0.292207
0.371895
0.447118
0.512204
0.567981
0.613941
0.639788
0.637656
0.624606
0.629496
0.651980
0.662875
0.647424
0.618219
0.588869
0.561230
0.531319
0.490957
0.432820
0.363478
0.302387
0.258293
0.217136
0.169110
0.132571
0.127884
0.143422
0.150027
0.138286
0.126082
0.132185
0.152274
0.166469
0.168602
0.180593
0.226772
0.294916
0.342611
0.348911
0.337314
0.338521
0.352649
0.356989
0.338040
0.307151
0.282611
0.266240
0.250215
0.237690
0.239490
0.256765
0.280214
0.298850
0.302143
0.280392
0.228156
0.148555
0.055967
-0.027622
-0.086931
-0.125152
-0.154094
-0.174963
-0.180285
-0.171279
-0.157224
-0.145911
-0.148930
-0.177895
-0.227727
-0.281589
-0.330558
-0.378636
-0.431517
-0.481616
-0.507594
-0.493534
-0.444523
-0.381350
-0.320974
-0.267004
-0.224947
-0.211638
-0.236787
-0.289425
-0.347600
-0.392174
-0.415139
-0.421890
-0.424220
-0.426174
-0.417604
-0.390708
-0.357829
-0.337218
-0.330114
-0.329537
-0.339665
-0.368893
-0.414165
-0.468141
-0.534841
-0.621943
-0.721755
-0.814323
-0.888352
-0.951304
-1.016162
-1.083754
-1.144245
-1.186279
-1.195329
-1.152663
-1.048555
-0.893617
-0.708410
-0.509055
-0.310324
-0.133999
-0.005149
0.064315
0.085253
0.077203
0.048219
-0.006661
-0.091261
-0.197640
-0.306430
-0.390589
-0.424111
-0.402459
-0.357539
-0.337561
-0.364410
-0.422435
-0.489567
-0.559088
-0.627991
-0.688411
-0.742348
-0.807892
-0.893288
-0.971690
-1.003273
-0.983169
-0.943559
-0.905170
-0.854362
-0.776303
-0.688482
-0.631494
-0.633733
-0.685500
-0.744150
-0.767211
-0.742531
-0.675530
-0.553554
-0.360718
-0.123009
0.111205
0.326412
0.525685
0.677414
0.727343
0.662395
0.535499
0.420416
0.356703
0.349555
0.395550
0.485156
0.602601
0.738069
0.883956
1.016196
1.101417
1.132677
1.143118
1.173334
1.230551
1.287041
1.315661
1.318572
1.315423
1.302732
1.239780
1.093295
0.883984
0.665187
0.473828
0.329681
0.252885
0.247844
0.291692
0.357519
0.435843
0.530164
0.640838
0.757794
0.870431
0.980257
1.094528
1.207377
1.298794
1.358789
1.402920
1.455194
1.522377
1.591084
1.647993
1.695236
1.735350
1.746338
1.688746
1.544490
1.343839
1.147009
1.003292
0.933562
0.936860
0.997738
1.092291
1.190776
1.254916
1.245946
1.144956
0.965312
0.745366
0.528697
0.348601
0.222630
0.154622
0.143655
0.192104
0.306273
0.490524
0.733077
0.990763
1.193333
1.273664
1.204410
1.012890
0.760707
0.503596
0.260110
0.020051
-0.201255
-0.337054
-0.327811
-0.180473
0.049692
0.311802
0.589838
0.890025
1.200638
1.479896
1.690327
1.831796
1.928737
1.991772
2.012939
1.994884
1.959494
1.926210
1.896196
1.857693
1.799837
1.720514
1.621482
1.503021
1.364890
1.200389
1.004862
0.800009
0.617786
0.464794
0.329397
0.209837
0.124431
0.099117
0.145632
0.256712
0.419126
0.618796
0.833759
1.031026
1.177492
1.260190
1.289555
1.278279
1.232620
1.165714
1.100409
1.056208
1.041852
1.064808
1.149114
1.325465
1.584336
1.865508
2.118464
2.342691
2.549606
2.717336
2.805844
2.799070
2.715766
2.587272
2.435986
2.275292
2.121073
1.995714
1.920866
1.905766
1.946890
2.040905
2.185420
2.368311
2.571201
2.782763
3.000493
3.215990
3.405683
3.546172
3.628135
3.646374
3.595503
3.485336
3.337672
3.159197
2.941478
2.691197
2.434573
2.184488
1.919882
1.613430
1.276123
0.955453
0.692581
0.501624
0.380826
0.321987
0.313944
0.348424
0.423210
0.538347
0.687523
0.850890
0.998077
1.103975
1.165805
1.201835
1.230667
1.260121
1.300668
1.371100
1.472696
1.572702
1.634657
1.650668
1.625746
1.550972
1.418245
1.249699
1.084147
0.937564
0.800342
0.665114
0.531112
0.390231
0.234028
0.069264
-0.092697
-0.257427
-0.438703
-0.630105
-0.806705
-0.954604
-1.078651
-1.180668
-1.245119
-1.251534
-1.196081
-1.094151
-0.964754
-0.825424
-0.702369
-0.625595
-0.603956
-0.613864
-0.616241
-0.583569
-0.517240
-0.438593
-0.356321
-0.255722
-0.132398
-0.013545
0.070279
0.114934
0.137168
0.157425
0.191682
0.244070
0.303502
0.356497
0.400393
0.439150
0.471442
0.485270
0.464118
0.399371
0.296579
0.170936
0.037328
-0.096720
-0.231545
-0.377949
-0.559907
-0.796085
-1.075750
-1.372229
-1.673058
-1.976259
-2.270662
-2.535387
-2.748310
-2.894077
-2.974311
-3.012046
-3.043245
-3.097919
-3.187292
-3.311866
-3.475989
-3.685974
-3.933094
-4.187631
-4.424974
-4.654088
-4.903695
-5.187398
-5.496594
-5.818146
-6.141136
-6.441774
-6.676195
-6.803367
-6.810290
-6.710247
-6.526194
-6.279891
-5.992631
-5.688794
-5.386442
-5.080873
-4.748618
-4.378864
-4.002624
-3.687223
-3.496239
-3.446446
-3.497743
-3.583892
-3.651765
-3.671582
-3.624584
-3.499830
-3.298064
-3.023748
-2.677983
-2.269710
-1.827259
-1.388692
-0.984868
-0.634918
-0.350991
-0.143730
-0.022869
0.008206
-0.039814
-0.137368
-0.243119
-0.320499
-0.347985
-0.317546
-0.229426
-0.093935
0.059623
0.183187
0.230858
0.186089
0.068132
-0.089853
-0.268907
-0.476315
-0.734933
-1.054432
-1.415142
-1.790116
-2.177954
-2.604197
-3.087536
-3.602270
-4.077441
-4.439685
-4.651584
-4.713207
-4.648999
-4.490760
-4.264694
-4.000856
-3.741300
-3.527398
-3.384099
-3.311346
-3.286662
-3.275754
-3.241340
-3.157361
-3.025429
-2.866002
-2.688144
-2.482646
-2.246709
-1.999884
-1.778788
-1.627230
-1.583374
-1.662409
-1.846511
-2.098220
-2.386650
-2.692720
-2.995841
-3.271158
-3.499627
-3.677697
-3.816327
-3.922860
-3.982304
-3.968094
-3.874659
-3.727387
-3.561328
-3.404744
-3.278791
-3.194315
-3.143515
-3.101268
-3.038974
-2.937361
-2.790196
-2.603847
-2.395133
-2.187252
-2.007700
-1.882853
-1.821090
-1.800136
-1.775430
-1.700461
-1.548646
-1.326636
-1.060626
-0.765136
-0.435182
-0.069307
0.320008
0.722623
1.138854
1.569901
2.009700
2.441670
2.838784
3.172499
3.422947
3.579449
3.643815
3.641613
3.614342
3.590019
3.575012
3.574739
3.598290
3.642722
3.698912
3.774240
3.889601
4.050915
4.234541
4.401873
4.518854
4.562682
4.522482
4.396175
4.180061
3.866991
3.464678
3.001993
2.509718
2.013173
1.533426
1.082203
0.673048
0.320775
0.019709
-0.235515
-0.416494
-0.490519
-0.464716
-0.377465
-0.262184
-0.131177
0.010861
0.149447
0.263918
0.343300
0.394294
0.437106
0.495771
0.588104
0.715931
0.864037
1.011201
1.137512
1.224321
1.257998
1.234977
1.161716
1.052406
0.927103
0.808347
0.717419
0.676021
0.707376
0.826553
1.031816
1.311377
1.651165
2.028611
2.412924
2.785147
3.147297
3.503485
3.839736
4.126067
4.336544
4.466631
4.533946
4.570035
4.611831
4.690689
4.824582
5.020016
5.274891
5.579200
5.920336
6.287176
6.668033
7.052015
7.432026
7.796799
8.122568
8.383512
8.569136
8.685112
8.740113
8.738266
8.683609
8.585621
8.457603
8.312748
8.165154
8.029313
7.913522
7.819922
7.747802
7.687863
7.622542
7.537424
7.427554
7.300102
7.174478
7.073428
7.013197
6.993517
6.989095
6.962692
6.891833
6.779514
6.644699
6.503440
6.356049
6.193679
6.014331
5.827421
5.642153
5.454799
5.252356
5.025069
4.770158
4.494402
4.217009
3.955532
3.706752
3.447700
3.153846
2.814883
2.435848
2.034521
1.647810
1.329867
1.127105
1.055469
1.106250
1.263095
1.503322
1.791010
2.081863
2.338540
2.540613
2.681947
2.764027
2.793600
2.780682
2.733801
2.656770
2.547851
2.401997
2.216313
1.991577
1.726405
1.411615
1.036087
0.601362
0.124272
-0.376725
-0.892314
-1.422186
-1.968588
-2.526292
-3.079082
-3.609445
-4.106053
-4.561698
-4.974336
-5.348884
-5.694692
-6.026688
-6.360739
-6.698106
-7.023324
-7.320056
-7.580355
-7.801688
-7.983192
-8.124340
-8.224810
-8.282895
-8.293777
-8.253051
-8.157322
-7.998847
-7.775957
-7.516411
-7.276769
-7.111061
-7.040617
-7.052882
-7.128121
-7.263015
-7.461557
-7.706509
-7.958111
-8.184868
-8.375870
-8.520507
-8.591619
-8.549519
-8.359576
-8.011117
-7.526103
-6.951940
-6.335972
-5.696496
-5.019907
-4.287290
-3.502020
-2.693479
-1.897246
-1.135211
-0.416491
0.249761
0.851630
1.381878
1.840914
2.229471
2.538742
2.754061
2.873324
2.917943
2.922911
2.921222
2.940521
3.004091
3.126467
3.312522
3.559508
3.855667
4.185307
4.543666
4.940905
5.385017
5.869267
6.380742
6.909280
7.443446
7.965919
8.457406
8.904709
9.305906
9.668550
9.999936
10.297010
10.549850
10.755560
10.921480
11.060470
11.196200
11.360660
11.571440
11.820820
12.088650
12.355650
12.610120
12.852240
13.090050
13.325300
13.546020
13.736900
13.893900
14.024900
14.137510
14.224130
14.258590
14.212300
14.071930
13.838570
13.521040
13.132690
12.679650
12.153080
11.542590
10.848870
10.081650
9.257793
8.399576
7.526802
6.652125
5.784291
4.934269
4.119220
3.358946
2.664654
2.031636
1.449239
0.916912
0.435524
-0.017233
-0.485617
-1.010054
-1.608741
-2.275085
-2.983035
-3.694557
-4.370870
-4.988292
-5.544460
-6.045115
-6.488428
-6.869534
-7.196250
-7.483464
-7.730552
-7.922143
-8.052884
-8.140219
-8.213484
-8.294574
-8.390665
-8.505018
-8.646300
-8.822070
-9.031622
-9.273776
-9.553935
-9.871182
-10.207020
-10.539530
-10.857880
-11.157480
-11.431730
-11.663600
-11.822300
-11.882270
-11.844860
-11.735190
-11.583260
-11.407980
-11.212290
-10.990640
-10.739920
-10.463850
-10.169030
-9.856308
-9.517228
-9.140956
-8.723302
-8.269935
-7.794943
-7.313925
-6.834293
-6.354503
-5.871412
-5.383132
-4.887787
-4.383574
-3.867674
-3.335850
-2.786115
-2.221256
-1.648078
-1.078315
-0.529222
-0.018184
0.444760
0.859016
1.227972
1.551538
1.826457
2.052276
2.233167
2.377595
2.498479
2.608680
2.716344
2.828022
2.950270
3.082189
3.214004
3.341618
3.477900
3.641034
3.834582
4.044894
4.254083
4.452312
4.638177
4.808417
4.954484
5.072849
5.170719
5.258143
5.342259
5.431000
5.534935
5.663002
5.818676
6.002030
6.213463
6.451046
6.707109
6.969394
7.220789
7.440968
7.613739
7.728927
7.775366
7.737295
7.601234
7.367167
7.049308
6.661288
6.207298
5.694269
5.139244
4.554228
3.937247
3.285543
2.606100
1.910972
1.211687
0.521730
-0.140254
-0.758485
-1.331547
-1.865331
-2.356394
-2.795736
-3.187881
-3.554783
-3.920706
-4.299705
-4.695623
-5.108365
-5.537772
-5.980119
-6.424955
-6.858956
-7.267903
-7.635299
-7.945463
-8.187195
-8.355040
-8.451658
-8.486097
-8.465146
-8.389754
-8.264524
-8.107169
-7.942640
-7.787679
-7.644291
-7.509704
-7.387066
-7.284053
-7.208789
-7.168902
-7.168359
-7.202612
-7.258967
-7.323636
-7.387877
-7.448210
-7.501693
-7.540996
-7.557234
-7.548122
-7.516550
-7.456399
-7.347268
-7.172928
-6.938753
-6.663891
-6.363891
-6.043172
-5.698628
-5.330784
-4.950938
-4.575330
-4.214052
-3.865817
-3.521992
-3.176657
-2.832581
-2.496629
-2.176248
-1.887740
-1.662932
-1.539200
-1.539972
-1.662730
-1.884199
-2.177055
-2.521195
-2.901193
-3.300796
-3.707815
-4.121141
-4.545169
-4.980740
-5.423930
-5.867709
-6.303328
-6.717171
-7.084610
-7.378683
-7.589420
-7.726784
-7.807173
-7.844014
-7.847729
-7.826961
-7.785976
-7.719849
-7.614300
-7.457015
-7.251267
-7.015363
-6.771163
-6.533427
-6.303998
-6.075348
-5.841065
-5.600435
-5.354512
-5.101411
-4.837102
-4.562855
-4.291196
-4.045478
-3.854665
-3.740484
-3.704336
-3.729631
-3.793513
-3.869487
-3.925311
-3.931764
-3.874252
-3.753996
-3.582554
-3.371313
-3.121687
-2.830198
-2.500447
-2.142919
-1.766273
-1.373531
-0.964827
-0.543805
-0.123797
0.274209
0.631438
0.936941
1.183635
1.364622
1.477687
1.531763
1.545642
1.536213
1.507360
1.454504
1.377714
1.286071
1.191853
1.101958
1.016011
0.935746
0.870177
0.823138
0.779397
0.708128
0.579925
0.383054
0.124346
-0.186034
-0.546179
-0.956750
-1.408553
-1.880808
-2.352306
-2.810711
-3.247953
-3.650882
-4.002854
-4.293007
-4.520594
-4.692329
-4.819260
-4.917979
-5.012427
-5.127419
-5.275920
-5.456379
-5.663625
-5.895962
-6.150950
-6.421406
-6.696141
-6.956627
-7.174780
-7.326248
-7.407795
-7.435263
-7.423362
-7.372883
-7.282784
-7.168293
-7.054752
-6.954800
-6.862241
-6.767915
-6.672413
-6.582242
-6.500894
-6.426288
-6.351847
-6.270531
-6.181925
-6.090248
-5.994218
-5.887748
-5.769788
-5.647868
-5.536088
-5.449353
-5.392773
-5.359347
-5.341884
-5.341972
-5.365136
-5.410763
-5.467584
-5.518945
-5.551966
-5.557469
-5.523491
-5.440007
-5.307541
-5.132241
-4.921629
-4.689824
-4.453995
-4.222690
-3.994694
-3.769728
-3.556007
-3.364818
-3.199885
-3.057381
-2.936058
-2.840052
-2.771663
-2.728241
-2.706079
-2.703294
-2.717670
-2.744419
-2.780428
-2.828793
-2.894859
-2.979762
-3.079704
-3.186763
-3.287005
-3.363384
-3.405577
-3.413002
-3.386137
-3.320137
-3.209178
-3.054973
-2.869961
-2.670555
-2.464910
-2.248489
-2.013553
-1.759534
-1.491446
-1.212557
-0.921802
-0.615901
-0.292427
0.048170
0.402480
0.764629
1.125497
1.471324
1.783831
2.043895
2.238002
2.363251
2.427769
2.446406
2.434385
2.403634
2.363193
2.319195
2.271839
2.214257
2.138064
2.040063
1.921853
1.786709
1.640919
1.493336
1.349348
1.208675
1.070747
0.939795
0.822986
0.723998
0.640560
0.568403
0.505295
0.450963
0.405211
0.367030
0.334388
0.303319
0.267552
0.221676
0.164798
0.097682
0.017285
-0.082413
-0.206156
-0.355990
-0.531608
-0.730871
-0.951639
-1.192914
-1.452440
-1.724879
-2.004654
-2.289164
-2.578522
-2.872002
-3.159886
-3.416976
-3.612378
-3.729464
-3.769715
-3.739617
-3.645777
-3.502154
-3.330660
-3.149893
-2.966469
-2.780854
-2.601329
-2.448617
-2.344434
-2.297028
-2.300610
-2.346941
-2.431078
-2.544678
-2.670005
-2.785526
-2.877136
-2.941235
-2.977568
-2.984024
-2.959055
-2.904162
-2.821178
-2.709123
-2.567398
-2.400570
-2.214773
-2.010747
-1.784676
-1.533756
-1.258544
-0.962340
-0.650025
-0.326444
0.005621
0.345938
0.694639
1.050934
1.414727
1.787802
2.172561
2.569880
2.978056
3.393847
3.815567
4.243941
4.677572
5.108934
5.524379
5.903696
6.221542
6.457178
6.605453
6.676528
6.687151
6.655575
6.601590
6.544938
6.501282
6.480628
6.490227
6.535097
6.611887
6.708250
6.813823
6.924983
7.032943
7.114909
7.146178
7.118650
7.043149
6.935120
6.798629
6.625356
6.412331
6.175356
5.936383
