EVENT_NAME: EMILIA_2ND_SHOCK
EVENT_ID: IT-2012-0011
EVENT_DATE_YYYYMMDD: 20120529
EVENT_TIME_HHMMSS: 070002
EVENT_LATITUDE_DEGREE: 44.8417
EVENT_LONGITUDE_DEGREE: 11.0657
EVENT_DEPTH_KM: 8.1
HYPOCENTER_REFERENCE: INGV-CNT_Seismic_Bulletin
MAGNITUDE_W: 6.0
MAGNITUDE_W_REFERENCE: RCMT-INGV
MAGNITUDE_L: 5.8
MAGNITUDE_L_REFERENCE: INGV-CNT_Seismic_Bulletin
FOCAL_MECHANISM: TF
NETWORK: IT
STATION_CODE: SAG0
STATION_NAME: SANT AGOSTINO
STATION_LATITUDE_DEGREE: 44.791000
STATION_LONGITUDE_DEGREE: 11.390400
STATION_ELEVATION_M: 66
LOCATION: 
SENSOR_DEPTH_M: 0.0
VS30_M/S: 
SITE_CLASSIFICATION_EC8: C*
MORPHOLOGIC_CLASSIFICATION: 
EPICENTRAL_DISTANCE_KM: 26.3
EARTHQUAKE_BACKAZIMUTH_DEGREE: 282.5
DATE_TIME_FIRST_SAMPLE_YYYYMMDD_HHMMSS: 20120529_065943.000
DATE_TIME_FIRST_SAMPLE_PRECISION: seconds
SAMPLING_INTERVAL_S: 0.005000
NDATA: 30001
DURATION_S: 150.005
STREAM: HNZ
UNITS: cm/s^2
INSTRUMENT: sensor = Episensor FBA ES-T [Kinemetrics] | digitizer = Etna [Kinemetrics]
INSTRUMENT_ANALOG/DIGITAL: D
INSTRUMENTAL_FREQUENCY_HZ: 
INSTRUMENTAL_DAMPING: 
FULL_SCALE_G: 
N_BIT_DIGITAL_CONVERTER: 18
PGA_CM/S^2: 65.534160
TIME_PGA_S: 32.795000
BASELINE_CORRECTION: BASELINE REMOVED
FILTER_TYPE: BUTTERWORTH
FILTER_ORDER: 2
LOW_CUT_FREQUENCY_HZ: 0.050
HIGH_CUT_FREQUENCY_HZ: 35.000
LATE/NORMAL_TRIGGERED: NT
DATABASE_VERSION: DYNA 1.0
HEADER_FORMAT: DYNA 1.2
DATA_TYPE: ACCELERATION
PROCESSING: manual (Paolucci et al., 2011)
DATA_TIMESTAMP_YYYYMMDD_HHMMSS: 
DATA_LICENSE: CC-BY3_0-IT (http://creativecommons.org/licenses/by/3.0/deed.en)
DATA_CITATION: ESM working group (2015), European Strong-Motion database, version 0.1, Network Activity 3: Networking acceleration networks and SM data users. Project NERA (www.nera-eu.org)
DATA_CREATOR: ESM working group
ORIGINAL_DATA_MEDIATOR_CITATION: Ufficio Rischio Sismico e Vulcanico del Dipartimento della Protezione Civile (http://www.protezionecivile.gov.it/)
ORIGINAL_DATA_MEDIATOR: Rete Accelerometrica Nazionale - RAN Download (http://www.mot1.it/randownload/)
ORIGINAL_DATA_CREATOR_CITATION: Italian Strong Motion Network, Italian Civil Protection Department http://www.protezionecivile.gov.it
ORIGINAL_DATA_CREATOR: network: IT (Italian Strong Motion Network); owner: Dipartimento Della Protezione Civile
USER1: 
USER2: 
USER3: 
USER4: 
USER5: 
[...]
0.887086
0.802977
0.670139
0.404614
-0.010007
-0.493552
-0.916097
-1.176247
-1.252791
-1.173089
-0.938989
-0.514420
0.107819
0.847703
1.563321
2.105518
2.323084
2.084277
1.376060
0.379033
-0.586730
-1.222109
-1.408379
-1.250373
-0.974902
-0.763184
-0.657868
-0.612053
-0.564523
-0.440556
-0.159145
0.292495
0.828568
1.331021
1.690926
1.785885
1.507163
0.870168
0.051120
-0.712375
-1.193437
-1.212851
-0.764772
-0.107887
0.380602
0.484242
0.263616
-0.052641
-0.241150
-0.230765
-0.144975
-0.159160
-0.321201
-0.558044
-0.799399
-1.002308
-1.087494
-0.950595
-0.559494
-0.012246
0.499262
0.779305
0.732262
0.430114
0.073564
-0.124978
-0.035020
0.326430
0.762009
1.006757
0.921764
0.536191
-0.022434
-0.552716
-0.853931
-0.857414
-0.606784
-0.150232
0.433518
0.978573
1.305548
1.295956
0.892095
0.155028
-0.676341
-1.317276
-1.638138
-1.679663
-1.519416
-1.174131
-0.625503
0.060177
0.675724
1.004030
1.003010
0.818354
0.634134
0.536889
0.475603
0.328397
0.040461
-0.319745
-0.645626
-0.859906
-0.892511
-0.694659
-0.328442
0.018672
0.175868
0.117213
-0.076922
-0.303876
-0.447506
-0.395036
-0.109245
0.322892
0.726881
0.946733
0.930434
0.722515
0.406790
0.080292
-0.141205
-0.141107
0.141646
0.648680
1.180593
1.482750
1.399049
0.931589
0.187859
-0.657211
-1.392924
-1.855421
-1.989316
-1.829970
-1.439094
-0.852171
-0.085352
0.809415
1.696736
2.358506
2.556885
2.136195
1.112768
-0.299950
-1.760132
-2.908404
-3.452115
-3.251597
-2.405265
-1.219014
-0.035490
0.935565
1.652732
2.162992
2.512461
2.684603
2.574053
2.055109
1.123342
-0.028307
-1.080008
-1.743000
-1.881958
-1.535700
-0.871482
-0.124283
0.481432
0.826668
0.930929
0.876260
0.722257
0.485879
0.143986
-0.339640
-0.946468
-1.558472
-1.979625
-2.001739
-1.501004
-0.552360
0.531041
1.335252
1.578156
1.247863
0.586194
-0.043729
-0.346769
-0.237549
0.144295
0.548891
0.780158
0.771023
0.553564
0.229125
-0.047154
-0.120963
0.077559
0.484752
0.946072
1.313264
1.496305
1.466602
1.259035
0.957439
0.651784
0.391878
0.153788
-0.163206
-0.665127
-1.320768
-1.891522
-2.063262
-1.687218
-0.911374
-0.080667
0.504179
0.753173
0.776282
0.748770
0.746613
0.674045
0.352963
-0.302341
-1.160249
-1.900780
-2.193887
-1.880331
-1.039135
0.047234
0.992609
1.452015
1.281898
0.622177
-0.196821
-0.840242
-1.079153
-0.813681
-0.089997
0.893261
1.857193
2.571767
2.920226
2.862370
2.379424
1.467881
0.192893
-1.253230
-2.564709
-3.422222
-3.642573
-3.279362
-2.561934
-1.729625
-0.935768
-0.268466
0.211427
0.469318
0.479521
0.187632
-0.464709
-1.432193
-2.445754
-3.005312
-2.598252
-1.040885
1.338939
3.837873
5.752869
6.705009
6.639054
5.617023
3.742613
1.280626
-1.257752
-3.255642
-4.286258
-4.320378
-3.682136
-2.792309
-1.932501
-1.221614
-0.689173
-0.269687
0.213278
0.959151
2.031900
3.241216
4.177935
4.428152
3.832110
2.608721
1.265131
0.329422
0.046573
0.253712
0.548170
0.587597
0.271145
-0.282590
-0.893940
-1.456876
-1.923241
-2.230924
-2.346404
-2.382476
-2.592509
-3.181601
-4.119472
-5.119500
-5.759913
-5.681108
-4.782879
-3.294508
-1.663164
-0.327192
0.500146
0.917175
1.250402
1.833229
2.769951
3.880476
4.847473
5.383353
5.317614
4.652593
3.621077
2.649264
2.109262
2.018064
2.013168
1.643842
0.690919
-0.718821
-2.218094
-3.418133
-4.083391
-4.138610
-3.601391
-2.613122
-1.467780
-0.470584
0.240945
0.724216
1.127307
1.551713
1.956209
2.150492
1.891406
1.039114
-0.330042
-1.925578
-3.351673
-4.282219
-4.609740
-4.454925
-4.027052
-3.445993
-2.665972
-1.570710
-0.182707
1.182523
2.003385
1.887263
0.914083
-0.278595
-0.786265
-0.008890
1.883083
4.023667
5.444195
5.666841
4.855567
3.564412
2.379401
1.634522
1.274026
0.936216
0.254623
-0.805232
-1.860496
-2.396289
-2.197486
-1.562614
-1.103336
-1.263368
-1.975772
-2.788859
-3.313490
-3.509629
-3.575536
-3.688442
-3.889736
-4.104136
-4.182963
-3.936710
-3.169214
-1.768334
0.180341
2.399922
4.537632
6.241781
7.194285
7.195414
6.270378
4.662700
2.706325
0.711601
-1.083341
-2.537471
-3.583657
-4.143387
-4.091112
-3.343907
-1.960280
-0.127117
1.873822
3.615476
4.523945
4.099584
2.285963
-0.295254
-2.485745
-3.103431
-1.567445
1.733565
5.616636
8.730324
10.123538
9.394498
6.589612
2.173042
-2.943088
-7.545593
-10.502563
-11.181961
-9.692255
-6.808319
-3.554878
-0.691426
1.512411
3.102527
4.144949
4.588242
4.267222
2.969715
0.632597
-2.427112
-5.560794
-8.102733
-9.567843
-9.623044
-8.087687
-5.084492
-1.151139
2.890142
6.231906
8.319666
8.960154
8.342782
6.888182
4.933284
2.568852
-0.203659
-3.240251
-6.166357
-8.417027
-9.389135
-8.702457
-6.419858
-3.039734
0.692316
3.978454
6.173222
7.017656
6.727967
5.815308
4.760920
3.774956
2.770400
1.519075
-0.116237
-1.962584
-3.454792
-3.839522
-2.650173
-0.140656
2.722157
4.759158
5.227961
4.242564
2.716970
1.787688
2.053732
3.186327
4.171650
3.943437
1.963199
-1.495989
-5.430185
-8.547116
-9.846443
-9.009068
-6.492314
-3.358485
-0.817007
0.391580
0.385028
-0.033298
-0.007935
0.774215
1.966966
2.944524
3.288924
2.983307
2.266518
1.352470
0.279505
-0.947602
-2.127505
-2.874278
-2.862079
-2.066504
-0.816147
0.404050
1.231872
1.527856
1.276336
0.491288
-0.762296
-2.292313
-3.731368
-4.601550
-4.561285
-3.685300
-2.475470
-1.547400
-1.260970
-1.557143
-2.025862
-2.082991
-1.205711
0.777595
3.507068
6.244470
8.270545
9.148970
8.719340
7.064914
4.545622
1.673439
-1.160905
-3.767970
-5.940432
-7.237454
-7.061472
-5.001308
-1.180642
3.666467
8.522771
12.641896
15.844387
18.224930
19.593796
19.359451
17.049349
12.846088
7.554171
2.128805
-2.796706
-7.059717
-10.658833
-13.305586
-14.386278
-13.357049
-10.124820
-5.210620
0.260445
4.854705
7.411612
7.486325
5.320769
1.560467
-2.936696
-7.231168
-10.561204
-12.635493
-13.669380
-14.052501
-13.894015
-12.861853
-10.445639
-6.456364
-1.522105
2.874900
5.233023
5.177473
3.729115
2.458813
2.434926
3.773343
5.871088
7.937841
9.438592
10.280671
10.682213
10.824551
10.585126
9.506716
7.026217
2.970813
-2.041457
-6.870045
-10.665379
-13.292879
-14.812045
-14.735206
-12.181655
-6.835578
0.475660
8.201114
14.849186
19.320902
20.865828
19.208059
14.843804
8.972981
2.876697
-2.720206
-7.734630
-12.366398
-16.680515
-20.293976
-22.396454
-22.316322
-20.201216
-17.048950
-14.051274
-11.930179
-10.655286
-9.468059
-7.233707
-3.148439
2.584295
8.719368
13.679001
16.301622
16.050201
13.007023
7.989094
2.415630
-2.211951
-4.800586
-4.987687
-3.348240
-1.214442
0.035670
-0.208007
-1.474347
-2.596049
-2.482604
-0.792969
1.899635
4.565064
6.366951
6.929533
6.210234
4.395497
2.000824
-0.060879
-0.782532
0.282458
2.589245
4.899429
6.033059
5.451861
3.439690
0.920524
-1.024765
-1.723928
-1.198359
0.009805
1.266344
2.202053
2.790833
3.050780
2.670249
1.164231
-1.563467
-5.040828
-8.531156
-11.252325
-12.389366
-11.241452
-7.628273
-2.309383
3.040968
6.628910
7.665086
6.758999
5.184953
3.820260
2.729962
1.543231
0.029731
-1.707697
-3.458785
-5.139937
-6.668959
-7.691405
-7.728378
-6.628540
-4.673196
-2.334572
-0.101805
1.628970
2.717568
3.373192
4.024509
4.966871
6.048234
6.674942
6.096991
3.776024
-0.326009
-5.603402
-10.743692
-13.891409
-13.348489
-8.545738
-0.515844
8.466301
15.763044
19.350962
18.542646
14.069064
7.476331
0.433196
-5.551271
-9.270273
-10.139062
-8.406260
-4.994436
-1.129215
2.105958
4.188309
5.233178
5.624226
5.531820
4.677642
2.539987
-1.090249
-5.669867
-9.947863
-12.502500
-12.511021
-10.157895
-6.340633
-2.151240
1.404357
3.629411
4.384817
4.048197
3.219319
2.552193
2.667616
3.895925
6.047649
8.514594
10.554695
11.435934
10.496705
7.429885
2.688815
-2.479972
-6.514865
-8.160911
-6.932399
-3.354432
1.123055
4.705415
6.129535
5.158582
2.354733
-1.355167
-4.841679
-6.914170
-6.786789
-4.640848
-1.673749
0.633878
1.488810
1.191712
0.805262
1.479445
3.840685
7.690104
12.129668
16.050287
18.588348
19.101242
16.916740
11.601689
3.640694
-5.499441
-14.211849
-21.583973
-27.479645
-31.974066
-34.654087
-34.392540
-29.887123
-20.627314
-7.608398
6.841956
20.099266
30.203722
36.096462
37.548359
35.134762
29.978445
23.262098
15.873240
8.307396
0.805875
-6.387890
-12.932274
-18.520187
-23.010836
-26.431677
-28.880447
-30.319489
-30.356749
-28.299986
-23.571659
-16.144140
-6.650455
3.798191
13.907208
22.475651
28.499952
31.169306
30.040298
25.302986
17.832695
9.059502
0.624260
-6.311988
-11.615760
-15.945525
-19.940908
-23.572115
-26.090569
-26.469332
-23.924320
-18.281067
-10.157454
-0.879971
7.865190
14.440026
17.628777
17.065899
13.531737
8.690986
4.266457
1.201221
-0.559420
-1.528010
-1.991386
-1.882904
-1.093355
0.363174
2.447224
5.138699
8.295405
11.553720
14.419551
16.318707
16.503139
14.123208
8.622577
0.199308
-9.964697
-19.874121
-27.351141
-30.805132
-29.528608
-23.462997
-13.101031
0.138962
13.667412
24.311581
29.540482
28.424175
21.700762
11.109294
-1.372350
-13.888067
-24.743475
-32.539825
-36.483887
-36.515968
-33.018543
-26.424093
-17.266413
-6.582765
4.039431
12.944422
18.898724
21.337322
20.416100
16.797832
11.272522
4.617400
-2.171915
-7.765883
-10.977245
-11.457526
-9.819231
-7.115425
-4.242567
-1.595854
0.928461
3.544239
6.174149
8.532940
10.527969
12.420940
14.584176
17.059013
19.287495
20.427376
20.086720
18.620674
16.609056
14.268414
11.535019
8.464288
5.301760
2.376967
0.216004
-0.356876
1.470712
5.912657
12.179910
18.569273
23.076260
24.279808
21.953674
16.897453
10.265987
3.198396
-3.227717
-8.247491
-11.731107
-14.132413
-16.076651
-17.779137
-18.612898
-17.355888
-13.121805
-6.144599
2.269620
10.359993
16.416445
19.106564
18.016813
14.099743
9.216852
5.018170
2.256433
0.840516
0.160784
-0.571252
-2.018585
-4.512326
-7.976143
-12.001754
-15.984797
-19.193232
-20.882248
-20.542521
-18.073076
-13.806289
-8.498473
-3.213660
0.954535
3.173556
3.047776
0.629608
-3.690659
-9.267221
-15.245522
-20.694874
-24.770836
-26.784391
-26.249121
-23.006365
-17.378937
-10.182716
-2.467695
4.756820
10.484837
13.672855
13.667207
10.811682
6.495205
2.456924
-0.054397
-0.717014
-0.157284
0.426512
0.059194
-1.348824
-3.094530
-4.183240
-3.589854
-0.445162
5.491225
13.350747
21.192202
26.712490
28.285784
25.693195
20.112331
13.484163
7.670579
3.757464
1.762763
0.851529
-0.113479
-2.050821
-5.369404
-9.803630
-14.426371
-17.994749
-19.365946
-17.745520
-12.940128
-5.618677
2.636970
9.564674
12.848253
11.127743
4.792836
-4.100087
-12.698453
-18.408781
-19.681459
-16.396505
-9.787507
-1.839334
5.607454
11.546287
15.906253
19.060854
21.172119
21.905165
20.695969
17.341843
12.441613
7.241870
2.993911
0.494639
0.092050
1.708252
4.729105
8.174365
11.125278
12.898167
12.903153
10.560908
5.454903
-2.337427
-11.910485
-21.486118
-28.841038
-32.035545
-30.038464
-23.020527
-12.392451
-0.604599
9.480776
15.607999
16.959141
14.184154
8.680375
1.711220
-6.067619
-14.463984
-23.232807
-31.622555
-38.257057
-41.454803
-39.867813
-33.071316
-21.801727
-7.682666
7.524027
22.555252
36.511787
48.235088
56.144428
58.843433
55.815929
47.540615
35.192108
20.478979
5.665745
-6.642791
-14.139566
-15.508163
-10.718572
-0.917062
11.861311
25.122595
36.522480
44.387245
47.786804
46.314198
40.018623
29.508022
16.007006
1.345761
-12.260758
-22.878611
-29.654959
-33.003799
-33.965790
-33.361530
-31.400274
-27.855301
-22.565928
-15.896199
-8.778205
-2.334670
2.534325
5.294024
5.765915
4.189913
1.179869
-2.557118
-6.402337
-9.786446
-12.230906
-13.524372
-13.756235
-13.041917
-11.152188
-7.550511
-1.942433
5.280523
13.122762
20.319960
25.648489
28.207237
27.621700
24.055054
17.998283
9.959436
0.325904
-10.482373
-21.792868
-32.564617
-41.387779
-46.708549
-47.356167
-43.155445
-35.197044
-25.513807
-16.332018
-9.320803
-5.172184
-3.585428
-3.606195
-4.212382
-4.835520
-5.411314
-5.976285
-6.334624
-6.121026
-5.037649
-2.932872
0.258286
4.450087
9.176171
13.457124
16.055183
16.075966
13.418717
8.671098
2.680085
-3.722701
-9.747294
-14.649898
-17.859074
-19.131735
-18.565769
-16.483324
-13.335523
-9.635242
-5.883807
-2.592449
-0.403517
-0.096862
-2.310081
-7.087254
-13.550591
-19.925142
-24.048334
-24.278683
-20.278940
-13.097225
-4.555772
3.610420
10.432454
15.877411
20.474760
24.734674
28.717676
31.861404
33.071674
31.169090
25.644201
17.301474
8.209316
0.813431
-3.155734
-3.215182
-0.008937
5.052916
10.121712
13.271625
13.014856
8.821382
1.386223
-7.457081
-15.279039
-20.021627
-20.920744
-18.829475
-15.727506
-13.681415
-13.754919
-15.318217
-16.317299
-14.561299
-9.100887
-0.844121
7.707668
13.380807
13.593003
7.469086
-3.723721
-17.018202
-28.847948
-36.311855
-38.010532
-34.080254
-25.556511
-13.616960
0.776327
16.727968
33.053612
48.053509
59.590118
65.534157
64.430191
56.121387
42.157001
25.621349
10.114404
-1.530697
-7.986716
-9.518935
-7.581973
-4.069794
-0.572817
2.037290
3.669214
4.731694
5.650108
6.604605
7.493485
7.875418
7.131587
4.898055
1.363676
-2.808326
-6.866262
-10.316984
-12.966025
-14.702959
-15.223100
-14.018341
-10.756491
-5.676587
0.314350
5.889855
9.800269
11.295659
10.196401
6.646312
0.876470
-6.703972
-15.253948
-23.525427
-30.272470
-34.731556
-36.784954
-36.698975
-34.750565
-31.159651
-26.271286
-20.595982
-14.729934
-9.339270
-4.989106
-1.774627
0.864118
3.926313
8.331448
14.355744
21.352280
27.951180
32.596786
34.054775
31.695564
25.625372
16.703411
6.390717
-3.523923
-11.224301
-15.195491
-14.621599
-9.745292
-1.865586
7.213019
15.906873
23.212257
28.670855
32.197098
33.807514
33.327812
30.369370
24.637379
16.288216
6.089508
-4.654049
-14.305210
-21.205313
-24.177452
-23.015812
-18.531652
-12.093875
-4.987985
2.034768
8.743547
15.019316
20.472712
24.378040
25.857313
24.164776
19.038572
11.009020
1.407011
-7.986412
-15.463888
-19.881842
-20.918673
-19.001158
-14.968769
-9.686221
-3.842587
2.014600
7.306450
11.238622
12.775743
10.913811
5.221863
-3.724209
-14.414001
-24.845537
-32.986782
-37.145287
-36.238056
-30.014215
-19.291609
-5.987740
7.317291
18.123268
24.678307
26.329350
23.499428
17.444529
9.950915
2.921380
-2.167217
-4.666456
-4.714305
-2.827513
0.417251
4.363727
8.167396
10.872164
11.650137
10.043628
6.099234
0.390916
-6.125134
-12.438121
-17.738098
-21.437729
-23.090441
-22.360180
-19.136780
-13.739126
-7.018520
-0.267128
5.058215
7.748911
7.263734
3.895884
-1.455375
-7.694203
-13.857495
-19.261366
-23.408812
-25.798834
-25.901583
-23.333185
-18.080711
-10.658156
-2.054501
6.569442
14.163593
19.866484
23.070101
23.630411
22.069845
19.485315
17.088316
15.605461
14.936874
14.334771
12.930140
10.222573
6.245814
1.410691
-3.712565
-8.574129
-12.844005
-16.487431
-19.512228
-21.589863
-22.050928
-20.306984
-16.215090
-10.125873
-2.771095
4.818407
11.309006
15.254543
15.689413
12.631801
7.033216
0.332840
-6.052717
-11.058739
-14.129027
-15.255507
-14.760817
-12.987020
-10.182404
-6.540895
-2.335628
1.960736
5.746382
8.450398
9.630267
9.067049
6.944577
3.997215
1.386830
0.250509
1.155922
3.863958
7.542798
11.167668
13.883918
15.258281
15.320079
14.437956
13.202672
12.307869
12.304127
13.340966
15.097795
16.791832
17.247999
15.334426
10.592402
3.541577
-4.394614
-11.216424
-15.057959
-15.186897
-12.421463
-8.358032
-4.263406
-0.690772
2.285919
4.799973
7.039644
9.074690
10.682588
11.396465
10.831926
9.052586
6.660247
4.492542
3.210294
3.103323
4.039775
5.418327
6.291835
5.758545
3.307457
-1.038745
-6.623384
-12.275121
-16.829782
-19.707779
-21.125422
-21.783899
-22.268286
-22.683308
-22.784452
-22.310431
-21.035397
-18.650446
-14.937989
-10.023135
-4.347974
1.384610
6.212859
9.177780
9.798451
8.332952
5.621490
2.627272
0.085000
-1.430980
-1.396978
0.478106
4.006695
8.526343
13.292550
17.890373
22.147915
25.712334
27.904877
28.071405
25.990744
21.978586
16.818224
11.575863
7.230585
4.395584
3.228658
3.308837
3.686120
3.319753
1.631442
-1.198270
-4.458726
-7.546749
-10.437857
-13.618282
-17.666639
-22.833260
-28.818317
-34.807457
-39.718178
-42.538090
-42.571842
-39.536213
-33.595005
-25.346096
-15.742825
-5.931617
3.014007
10.257195
15.129651
17.122192
16.096178
12.505943
7.435894
2.415529
-0.985824
-1.738813
0.229805
4.143590
8.860530
13.271100
16.400898
17.517651
16.535229
14.228389
11.682333
9.587594
8.113312
7.069459
6.130977
5.313467
5.341133
7.189012
11.098105
16.202770
21.115002
24.647896
25.944143
24.409389
20.023109
13.590687
6.330264
-0.849568
-7.519619
-13.351213
-18.022814
-21.593674
-24.541668
-27.147896
-29.073940
-29.707914
-28.782040
-26.597300
-23.718918
-20.495821
-16.865198
-12.531065
-7.261999
-1.190669
5.046232
10.600125
14.856458
17.550983
18.555017
17.754311
15.304621
11.758380
7.698049
3.447373
-0.819532
-4.939734
-8.772546
-12.131219
-14.656809
-15.992300
-16.097237
-15.192568
-13.449007
-10.921047
-7.758225
-4.269732
-0.777280
2.380035
4.727265
5.773756
5.305712
3.507315
0.833741
-2.204136
-5.199939
-7.877417
-10.059017
-11.657189
-12.589956
-12.679644
-11.713485
-9.598860
-6.460839
-2.634606
1.409513
5.178198
8.305973
10.620215
12.106895
12.942828
13.490807
14.080732
14.763242
15.346437
15.651104
15.606858
15.140116
14.158310
12.679817
10.864154
8.851677
6.601916
3.911276
0.558642
-3.583964
-8.463414
-13.670562
-18.369310
-21.532227
-22.262569
-20.066822
-15.112726
-8.260722
-0.736505
6.362586
12.381831
17.072289
20.396873
22.371475
22.983707
22.187946
19.955772
16.371935
11.704059
6.426874
1.212277
-3.177525
-6.063362
-7.028183
-6.111997
-3.918193
-1.418930
0.470923
1.164551
0.413725
-1.709524
-4.846769
-8.451487
-11.890446
-14.638409
-16.455450
-17.292658
-17.084278
-15.685619
-12.978199
-9.049846
-4.284539
0.764815
5.606462
9.917834
13.534742
16.418331
18.530968
19.667450
19.449970
17.524954
13.852194
8.881225
3.418269
-1.722987
-5.963968
-8.922758
-10.274621
-9.790157
-7.564071
-4.112593
-0.146096
3.648329
6.573417
7.950960
7.352460
4.766939
0.668157
-4.046282
-8.379580
-11.535520
-12.968468
-12.396002
-9.841775
-5.585833
-0.086373
5.904118
11.108110
13.961749
13.482916
9.846634
4.018848
-2.900579
-9.885645
-15.950920
-20.266823
-22.249125
-21.532001
-18.048100
-12.148820
-4.616911
3.397694
10.577453
