EVENT_NAME: EMILIA_2ND_SHOCK
EVENT_ID: IT-2012-0011
EVENT_DATE_YYYYMMDD: 20120529
EVENT_TIME_HHMMSS: 070002
EVENT_LATITUDE_DEGREE: 44.8417
EVENT_LONGITUDE_DEGREE: 11.0657
EVENT_DEPTH_KM: 8.1
HYPOCENTER_REFERENCE: INGV-CNT_Seismic_Bulletin
MAGNITUDE_W: 6.0
MAGNITUDE_W_REFERENCE: RCMT-INGV
MAGNITUDE_L: 5.8
MAGNITUDE_L_REFERENCE: INGV-CNT_Seismic_Bulletin
FOCAL_MECHANISM: TF
NETWORK: IT
STATION_CODE: SMS0
STATION_NAME: SAN MARTINO SPINO
STATION_LATITUDE_DEGREE: 44.934000
STATION_LONGITUDE_DEGREE: 11.235000
STATION_ELEVATION_M: 55
LOCATION: 
SENSOR_DEPTH_M: 0.0
VS30_M/S: 
SITE_CLASSIFICATION_EC8: C*
MORPHOLOGIC_CLASSIFICATION: 
EPICENTRAL_DISTANCE_KM: 16.9
EARTHQUAKE_BACKAZIMUTH_DEGREE: 232.6
DATE_TIME_FIRST_SAMPLE_YYYYMMDD_HHMMSS: 20120529_065933.000
DATE_TIME_FIRST_SAMPLE_PRECISION: seconds
SAMPLING_INTERVAL_S: 0.005000
NDATA: 32001
DURATION_S: 160.005
STREAM: HNN
UNITS: cm/s^2
INSTRUMENT: sensor = Episensor FBA ES-T [Kinemetrics] | digitizer = Etna [Kinemetrics]
INSTRUMENT_ANALOG/DIGITAL: D
INSTRUMENTAL_FREQUENCY_HZ: 
INSTRUMENTAL_DAMPING: 
FULL_SCALE_G: 
N_BIT_DIGITAL_CONVERTER: 18
PGA_CM/S^2: -174.935348
TIME_PGA_S: 42.100000
BASELINE_CORRECTION: BASELINE REMOVED
FILTER_TYPE: BUTTERWORTH
FILTER_ORDER: 2
LOW_CUT_FREQUENCY_HZ: 0.040
HIGH_CUT_FREQUENCY_HZ: 40.000
LATE/NORMAL_TRIGGERED: NT
DATABASE_VERSION: DYNA 1.0
HEADER_FORMAT: DYNA 1.2
DATA_TYPE: ACCELERATION
PROCESSING: manual (Paolucci et al., 2011)
DATA_TIMESTAMP_YYYYMMDD_HHMMSS: 
DATA_LICENSE: CC-BY3_0-IT (http://creativecommons.org/licenses/by/3.0/deed.en)
DATA_CITATION: ESM working group (2015), European Strong-Motion database, version 0.1, Network Activity 3: Networking acceleration networks and SM data users. Project NERA (www.nera-eu.org)
DATA_CREATOR: ESM working group
ORIGINAL_DATA_MEDIATOR_CITATION: Ufficio Rischio Sismico e Vulcanico del Dipartimento della Protezione Civile (http://www.protezionecivile.gov.it/)
ORIGINAL_DATA_MEDIATOR: Rete Accelerometrica Nazionale - RAN Download (http://www.mot1.it/randownload/)
ORIGINAL_DATA_CREATOR_CITATION: Italian Strong Motion Network, Italian Civil Protection Department http://www.protezionecivile.gov.it
ORIGINAL_DATA_CREATOR: network: IT (Italian Strong Motion Network); owner: Dipartimento Della Protezione Civile
USER1: 
USER2: 
USER3: 
USER4: 
USER5: 
[...]
-0.279045
-0.889014
-0.934487
-0.845523
-0.326601
1.053189
2.411692
2.040863
-0.218731
-2.423663
-3.187813
-3.213141
-3.163524
-2.410695
-0.899795
0.447795
1.581582
2.998125
4.049265
3.832993
2.714912
1.101535
-1.590743
-4.997196
-6.841067
-5.575931
-2.548554
-0.392226
-0.254369
-1.154457
-1.260177
0.218460
2.329670
3.867036
4.302819
3.319268
1.454765
0.359995
0.568135
0.454175
-0.998218
-2.303142
-2.168360
-1.700588
-1.912352
-1.788859
-0.823641
-0.442447
-1.108211
-1.193607
0.131657
1.728763
2.551506
2.892273
3.455808
4.325398
4.694019
3.210182
-0.424887
-4.385552
-6.317288
-5.331600
-2.419740
-0.051670
-0.540519
-3.408999
-5.406257
-4.147003
-0.446573
3.198970
4.931440
4.370119
2.221362
-0.441025
-2.465566
-3.029687
-2.375031
-1.558840
-1.106779
-0.370697
1.211629
2.833460
3.442617
3.085343
2.067236
0.447802
-1.012924
-1.223776
-0.451937
-0.001823
-0.120381
0.140302
1.181569
2.318568
2.589761
1.609701
0.075522
-0.939293
-1.441087
-2.359088
-3.872824
-4.968936
-4.866809
-3.750302
-1.968830
-0.130526
0.413105
-0.643239
-1.323005
0.043346
2.586229
4.396125
4.448135
2.882450
0.781085
-0.573420
-0.586694
0.538536
1.809633
1.718915
-0.449088
-3.703914
-6.029688
-5.821895
-3.018091
0.803929
3.640244
4.657605
4.407475
3.676033
2.992347
2.590718
1.841800
0.134862
-1.399850
-1.452272
-1.338360
-3.243430
-6.595123
-9.130574
-9.930092
-8.884417
-5.838652
-1.980003
0.978902
3.239251
5.862259
8.102224
8.143863
5.885938
2.887375
0.243832
-1.480406
-1.729168
-1.134190
-1.567090
-4.076059
-7.587340
-9.472144
-7.181799
-0.351938
8.074745
13.405737
12.643343
7.000724
0.684091
-3.379944
-5.465437
-7.032088
-8.944618
-11.040270
-12.126108
-10.907998
-7.313639
-3.291580
-1.696049
-2.722549
-2.516377
2.203836
9.218692
13.166987
11.794085
7.431365
3.154375
-0.353054
-3.473425
-4.907004
-3.200237
-0.037439
1.413141
0.346199
-1.674215
-2.968870
-2.581362
0.064620
4.559149
8.592616
9.999372
9.147120
6.950761
3.303228
-0.757761
-3.097340
-3.559404
-3.981083
-4.527996
-2.871645
1.348138
4.255439
2.828042
-0.107748
0.324185
3.922602
6.137986
4.576227
1.094313
-1.889514
-4.340086
-7.452687
-11.428283
-14.770176
-14.894973
-10.715462
-4.653286
0.141634
3.346013
6.099107
8.206682
8.812562
8.377947
8.130351
7.910859
6.172350
2.241650
-2.520561
-5.799463
-6.344683
-5.099457
-3.986177
-3.314758
-1.427482
2.299852
5.886318
6.967871
5.159883
2.439343
1.501292
2.976983
4.569270
3.167554
-2.006485
-7.672885
-9.371413
-7.068104
-4.676954
-3.652550
-1.609317
2.823789
7.819165
10.879113
11.124754
9.339171
7.285873
6.540184
6.943896
7.034160
5.814762
2.968028
-0.707167
-2.511581
-0.274680
4.858076
9.403657
10.413461
7.741905
3.936924
1.733603
2.044824
3.307875
2.020737
-3.931317
-11.926319
-17.097549
-17.793081
-16.280100
-15.235362
-15.145216
-14.275293
-10.740567
-5.744367
-4.058240
-8.115669
-12.896219
-11.332037
-3.725285
2.739713
3.676416
1.777888
0.498567
0.041481
1.079357
4.594872
7.465049
5.607786
0.771690
-1.034172
2.328426
5.891895
4.526992
-0.089542
-2.753609
-1.408083
2.196923
5.749550
8.452433
10.793309
12.951326
13.492717
10.150308
3.110513
-3.130808
-4.434342
-2.713546
-2.494433
-3.688677
-3.042408
-0.532554
0.826571
0.339998
1.030698
5.133715
10.292364
12.394796
10.794625
7.632528
3.973425
0.272427
-2.015304
-2.342112
-1.960199
-1.836146
-2.015600
-2.588158
-3.120219
-2.172807
0.912963
4.820223
7.474649
7.749727
6.353224
5.207060
5.357365
6.307181
7.700754
9.250326
9.186635
5.760031
-0.380906
-6.723288
-11.245158
-13.719314
-14.130957
-11.454656
-5.723398
0.548792
4.762830
7.024714
9.181497
12.064708
14.784041
15.937643
15.044609
13.017188
11.155445
9.191879
5.169391
-0.426389
-2.610068
0.978055
4.496885
2.178960
-3.090159
-5.840957
-5.870070
-5.527776
-5.982247
-8.072342
-11.627508
-13.868382
-12.218155
-8.818747
-8.231480
-9.605201
-7.307847
-0.937351
3.107536
1.321112
-2.348226
-2.440784
1.220470
4.017791
2.839124
0.426531
2.398313
9.235816
13.628764
9.538982
1.260039
-2.319380
0.241297
2.825694
0.867949
-3.789763
-6.177925
-4.907843
-3.274312
-3.204963
-2.504973
0.360033
3.454883
4.689764
3.727298
0.658560
-4.350242
-10.447060
-15.920284
-18.517664
-16.717760
-11.861704
-7.644328
-5.788257
-4.173804
-1.064507
1.801248
2.810969
2.262505
-0.603693
-5.793067
-9.966367
-10.772345
-9.793900
-9.615478
-10.576211
-10.019755
-5.195744
2.812038
9.802240
12.634672
12.075073
10.794050
8.411393
2.661868
-5.029968
-10.527523
-11.634971
-8.914839
-4.592876
-1.350359
-0.465994
-0.390637
1.713871
5.379286
6.575727
4.122227
1.420866
0.115303
-2.025620
-5.845570
-9.054331
-10.795305
-13.339988
-17.420349
-19.962467
-18.513544
-14.805837
-12.590445
-12.971559
-13.518293
-12.098238
-8.406780
-1.810101
8.533327
20.821442
30.987741
37.041378
39.870903
39.746319
35.264912
25.769936
13.892886
4.187699
-1.610121
-5.796778
-10.976040
-16.919983
-21.275808
-21.758047
-16.831673
-6.704462
4.330379
8.983948
3.995579
-5.369614
-11.604980
-13.426467
-13.904163
-13.780697
-12.083924
-10.787455
-13.108802
-17.079174
-15.680393
-6.316635
4.020753
7.922102
7.677784
10.161511
15.611933
17.564110
11.397577
-0.447808
-10.353314
-11.729938
-4.612270
4.935871
13.400296
24.395283
38.567047
47.541908
46.842705
43.041534
39.854477
30.345772
9.985969
-12.989690
-25.379246
-23.016476
-12.742621
-1.429604
9.198989
17.921167
23.489019
27.093571
29.177389
26.447943
17.044323
6.251958
2.088219
6.043085
11.443430
11.298043
5.723913
0.582391
-0.629840
-2.538190
-12.590387
-29.296989
-41.862347
-43.759262
-38.271961
-28.829269
-15.359282
-1.008177
8.769665
13.165407
15.664678
18.864283
22.134823
23.391203
22.527409
21.965063
22.854282
22.569786
18.283424
11.999053
8.826176
10.454729
13.436639
13.741385
11.381766
9.448706
8.022679
2.197672
-11.518465
-28.851109
-40.130325
-39.365990
-28.743349
-13.946072
0.659774
12.175601
18.910433
19.697037
12.828072
-1.794080
-20.198004
-35.928810
-43.989155
-43.333809
-36.019253
-25.194221
-13.601515
-2.193385
9.689852
22.833736
36.850243
48.510639
51.537041
40.514160
16.066078
-13.850734
-38.303982
-50.436634
-51.422169
-48.697243
-48.011749
-44.261292
-27.159752
1.848686
29.467533
46.032902
52.422112
55.607124
60.037430
62.122662
55.851559
42.086262
28.293787
19.388229
12.606910
4.233497
-3.611074
-7.078009
-6.656784
-6.002867
-7.700483
-11.571239
-15.864650
-19.806437
-23.692125
-27.626129
-32.900337
-39.105339
-40.970699
-36.444576
-30.598242
-27.079531
-23.911911
-17.081272
-5.062778
9.303055
22.215942
32.482811
39.934036
42.992638
39.453411
29.293003
16.539782
5.873001
-2.255332
-9.131751
-13.381168
-13.060954
-8.840335
-2.871136
4.591153
16.861216
35.270233
51.774250
56.234272
50.591324
44.845295
41.383076
33.546043
17.701614
-1.354863
-16.660841
-25.698803
-30.257219
-32.138695
-30.843821
-25.071857
-14.969617
-3.019922
8.224822
18.802891
28.903084
36.578117
40.578072
42.312294
43.546093
43.099304
37.938614
28.097794
16.392645
3.647822
-10.174122
-22.033562
-29.532667
-35.695076
-43.543819
-50.056087
-51.324776
-50.017147
-52.921131
-61.290424
-67.461456
-64.133904
-52.574306
-38.191437
-24.159657
-11.767842
-1.608530
6.896017
14.957136
23.027494
29.835049
32.673473
29.437449
21.179621
12.365985
7.206020
5.766224
5.890858
8.109354
14.086460
20.319298
20.001070
12.391115
3.202173
-4.984398
-14.954900
-26.545300
-33.709316
-33.110352
-29.316629
-27.444387
-27.045597
-26.800312
-28.176159
-31.240793
-32.952751
-32.392200
-32.945835
-36.255238
-38.280453
-35.320042
-29.579767
-24.809366
-20.403402
-12.890186
-1.283133
11.090779
20.385864
25.879539
27.865801
24.611130
15.354832
4.327777
-1.981547
-0.475482
6.534318
13.265979
15.729379
16.454288
20.119852
24.664772
23.770630
16.764732
8.931140
4.446690
4.051406
6.851314
10.477742
11.886401
10.598926
8.779149
7.751427
6.458397
2.765721
-4.230391
-12.949454
-20.558399
-25.128578
-26.721560
-26.809721
-26.964937
-29.280813
-36.391644
-47.235584
-55.932941
-59.295872
-60.165821
-60.640141
-58.880573
-52.944942
-42.584728
-29.153429
-16.046841
-7.546826
-6.239819
-10.934912
-17.874456
-24.914940
-32.824581
-41.996891
-49.424023
-50.907368
-47.468586
-45.822834
-49.921440
-56.740654
-61.839088
-64.310493
-64.598076
-60.127422
-46.884228
-25.434469
-1.384517
20.008482
36.810608
49.260700
57.451973
60.767319
60.470493
61.113766
66.450920
73.950798
75.248009
63.080208
38.196793
9.958658
-10.259331
-17.229868
-13.574555
-3.963538
9.399784
24.950760
40.353073
54.863281
69.153046
81.654602
88.490234
87.713318
80.764755
69.989967
56.785503
41.452164
24.172226
6.214905
-9.603993
-19.510708
-21.150150
-15.476030
-5.497251
6.087850
17.623957
27.098200
30.711592
24.712894
9.534157
-8.953853
-23.591446
-31.596918
-35.810833
-41.481594
-51.723610
-63.899792
-72.142021
-74.994736
-77.567558
-85.248596
-96.667809
-102.946922
-95.034233
-72.448769
-42.379784
-12.324581
12.841565
31.647913
45.213051
52.767735
51.911068
42.780426
28.659830
14.550704
4.936690
2.181579
6.882835
16.795851
26.386320
31.885452
35.571587
41.099625
47.187469
49.364841
44.219337
30.311596
8.771203
-15.807142
-36.820370
-50.341717
-57.685989
-61.214066
-60.624191
-55.063446
-45.693771
-35.614056
-27.726000
-21.306519
-11.888732
2.842021
18.686934
29.454376
33.211807
31.316830
25.190607
16.895113
10.160037
8.449355
12.458852
20.322577
29.432953
37.269882
41.742779
41.576199
35.910324
24.969515
12.352589
4.190739
4.941192
14.993857
30.363062
44.402020
53.201931
59.097927
65.990906
73.174988
77.862846
80.523125
83.246140
86.209358
87.959930
86.393921
79.422859
66.742958
50.089699
31.300255
12.873199
-0.440299
-5.454331
-4.864571
-3.001410
-0.054621
4.710382
8.886386
11.237835
15.065703
23.072090
32.262836
36.725197
33.466438
23.396204
8.765570
-8.039975
-25.261414
-43.222683
-62.613998
-80.462624
-92.537109
-98.454918
-99.308990
-95.949348
-90.244629
-81.831116
-70.454582
-60.213158
-51.044861
-36.195702
-14.804980
5.160468
17.450333
23.056189
26.201227
28.407660
27.717230
22.894213
15.876302
10.198866
8.562334
11.733091
18.466690
25.565340
29.621189
29.432770
25.262125
17.361856
6.735534
-4.604368
-14.652172
-21.861898
-25.060610
-23.751219
-18.185707
-8.279626
6.271088
23.835445
41.052601
55.912163
67.957588
75.489273
76.862556
74.444565
72.430016
71.237579
67.250214
57.266239
42.095482
26.017315
13.462919
7.217833
8.359270
15.771553
26.778576
39.086926
50.974983
60.861767
68.227234
73.367989
76.171249
76.796410
76.002274
72.954613
65.153877
52.188629
37.124855
23.195316
11.000083
-0.369376
-10.931376
-19.597569
-25.603624
-28.970945
-29.518970
-27.168030
-23.158337
-18.719967
-14.424021
-11.987762
-13.064127
-17.023693
-21.974001
-25.490410
-25.124758
-20.209980
-12.046281
-3.936030
-0.884343
-5.280674
-14.171740
-22.463831
-26.963020
-28.251638
-29.478224
-32.474018
-35.869602
-37.382080
-37.053532
-37.470898
-40.488525
-45.457352
-50.982143
-55.151398
-55.478512
-52.295422
-49.755878
-51.810417
-58.770779
-67.792770
-75.806839
-80.265450
-77.342316
-63.588558
-40.552376
-14.327238
10.156254
31.369085
48.045311
57.537682
58.170567
51.335346
40.414589
28.266911
16.415825
5.914753
-2.583693
-9.376213
-15.406204
-21.783680
-29.170908
-37.136848
-44.947144
-53.034378
-62.958031
-75.105530
-86.944992
-95.418037
-100.199295
-103.117889
-105.974373
-109.280518
-111.540802
-110.558014
-106.072502
-99.321693
-91.128830
-82.527733
-74.909515
-69.161598
-66.399216
-66.810173
-67.473450
-65.043556
-59.346546
-52.059715
-44.266613
-36.300671
-28.229752
-20.093876
-11.617058
-2.176343
8.145048
19.145889
31.694895
44.578102
51.909290
47.928349
33.141521
14.088828
-2.452945
-15.047817
-26.978836
-39.708382
-48.990376
-50.320473
-45.351433
-38.200291
-28.927452
-14.222350
8.419993
37.988525
69.691856
97.002884
114.832443
123.193573
127.895325
135.317810
146.523407
157.053879
161.708282
159.246658
152.406891
143.744049
133.250366
120.373833
106.049614
91.807251
77.711235
61.854343
43.063667
23.852667
8.923841
0.993485
-0.337620
3.859808
12.713987
24.475176
37.210999
49.397217
59.231750
65.927963
71.671761
79.447952
88.822243
96.850075
102.295013
105.707489
106.833382
104.494499
98.297356
89.460732
80.239304
72.528763
66.277290
59.415768
50.567448
41.141109
33.184093
27.798306
27.146072
32.891953
42.156029
49.876663
53.564342
53.401836
50.892357
48.424721
47.561363
47.051483
44.142914
38.177242
31.398508
26.201160
22.522095
17.323906
6.890830
-9.257182
-28.073511
-46.672703
-63.506046
-77.669403
-90.608627
-105.314789
-122.096291
-138.743881
-153.445862
-164.770538
-171.643494
-174.554733
-174.935349
-173.566803
-170.004440
-163.009705
-152.054932
-138.858444
-126.603569
-116.479393
-106.465355
-96.277527
-90.551544
-93.676819
-104.887215
-119.737503
-133.268692
-141.589996
-142.304459
-135.262589
-123.484367
-111.233612
-100.130943
-88.662735
-76.221176
-65.343178
-57.442886
-49.417545
-38.318268
-26.148046
-17.467009
-14.653096
-16.217960
-19.218216
-22.870537
-28.256477
-35.154041
-41.910236
-48.430805
-56.031910
-63.449459
-67.168182
-66.501968
-63.668556
-59.919918
-54.851746
-46.373463
-31.739723
-11.993505
7.480827
21.935516
30.385868
35.054596
39.138653
44.330212
50.144035
55.213169
58.964798
62.544197
67.816093
75.254440
83.530685
90.673553
94.998283
96.203598
95.926521
95.957962
96.618111
97.656059
99.069077
100.842575
103.179909
106.364761
109.947014
112.971863
114.635666
113.952446
109.818710
102.207481
92.588791
82.851212
73.791229
64.713326
54.983765
45.163673
36.178219
28.885658
24.176798
22.040163
21.532745
22.335590
24.449745
26.383703
26.363045
25.522718
27.256582
32.626652
38.709694
42.062325
41.837814
39.645802
37.173004
34.047928
29.213495
23.672941
19.574142
17.484772
16.823099
17.748219
20.786917
25.613461
31.134865
36.670689
42.286736
47.516479
51.212696
52.456928
50.279110
44.035690
34.554203
23.037636
9.287900
-7.614257
-27.212299
-46.813293
-63.571808
-77.603996
-90.797989
-102.605873
-111.005005
-117.003120
-123.396301
-130.340759
-135.888596
-139.025620
-139.857010
-137.991318
-132.396835
-123.646301
-114.612213
-106.756935
-98.212532
-87.868431
-78.429077
-73.380257
-73.184631
-75.799736
-79.183701
-82.548477
-85.881241
-88.469513
-88.967056
-86.800339
-81.789421
-73.479141
-62.032734
-48.346363
-33.569103
-19.323534
-6.887772
4.190137
15.078422
25.045935
31.471081
32.905762
30.992270
28.677414
26.917498
24.527554
20.602619
15.052747
7.977482
0.108625
-6.850612
-11.270944
-12.933794
-12.848249
-12.066698
-10.696533
-7.860551
-3.247726
1.822555
6.314345
12.030169
21.826180
34.868122
46.834805
54.972569
59.999981
64.143700
68.908813
73.568787
75.969276
75.121567
72.255630
69.646965
68.765022
69.067055
68.815071
67.190369
64.076248
57.701561
44.961643
24.746426
-0.154397
-24.551497
-44.293961
-58.571186
-68.827858
-75.999664
-79.920723
-81.403778
-82.665192
-84.805534
-87.114113
-88.637978
-88.755875
-87.123871
-82.768509
-73.487801
-58.814674
-42.147415
-27.472805
-16.077707
-7.368244
-0.742955
4.153553
8.196923
13.225473
21.109844
31.456985
41.149551
47.180820
48.840073
47.547165
45.885803
45.729984
46.856655
48.125996
49.184547
50.620243
52.861759
54.849304
54.331902
49.143654
38.162552
22.836191
7.229503
-5.058920
-12.776324
-15.194911
-11.164688
-1.290621
11.502281
24.051243
34.288353
42.248226
49.925224
58.297829
65.950233
71.505531
75.329300
78.548393
81.740700
84.204391
84.001724
79.601051
71.445816
61.100685
49.338696
36.197418
22.612972
10.815269
2.775881
-1.885794
-5.770697
-10.571188
-15.358029
-18.328606
-18.843456
-17.979151
-17.189413
-16.052975
-13.113723
-9.407750
-8.748193
-14.253807
-25.640656
-39.374237
-51.741543
-62.075958
-72.029060
-82.114296
-90.360474
-94.451118
-94.299606
-91.680969
-87.448441
-80.585625
-70.394539
-58.030586
-45.517414
-34.346905
-25.386326
-19.743649
-18.889771
-22.998320
-29.700127
-36.091942
-41.449066
-46.467472
-50.997547
-54.091167
-54.947117
-52.097118
-43.630676
-30.293526
-16.309366
-5.493700
2.380301
10.095666
18.019861
22.898245
22.708075
19.990484
18.511715
18.865376
19.100311
18.034277
16.269482
14.921304
14.888220
16.263145
17.721275
18.335205
19.206093
21.294010
23.592072
24.383900
22.356028
17.347076
11.315983
6.685124
3.492641
-0.017606
-4.632845
-9.125283
-11.364319
-10.272131
-6.604266
-1.100548
6.795489
16.696932
26.493053
35.060158
42.122314
46.361042
47.165741
46.260956
45.599323
44.993156
42.744205
38.237816
32.986530
28.500948
24.264517
19.201096
13.677950
8.684292
4.432523
0.556962
-2.875222
-5.349834
-7.201839
-9.672921
-13.213281
-16.980471
-19.988451
-21.411901
-20.048298
-15.275915
-8.438507
-1.484900
5.372835
13.200125
22.191708
30.841003
37.002419
39.881245
41.129025
43.284100
46.987274
50.803860
53.617458
55.777817
58.151005
61.180161
64.694954
68.119278
70.862099
72.429718
72.173637
69.165413
62.501305
52.012894
38.821327
25.049946
12.903562
3.727423
-2.404339
-6.150103
-8.088308
-8.799504
-9.471171
-11.516468
-15.238587
-19.600206
-23.641985
-27.028782
-29.158054
-29.516520
-28.797621
-28.134558
-27.585678
-26.190298
-23.361919
-19.797518
-16.687654
-14.431335
-12.621721
-10.866300
-9.150441
-7.636281
-6.528368
-6.213801
-7.153357
-9.175136
-11.375680
-13.423234
-16.079294
-19.939598
-24.748720
-29.966728
-35.123569
-39.852703
-44.153584
-48.254982
-51.905132
-54.487774
-55.955120
-56.902039
-57.871532
-58.695908
-57.576900
-51.418034
-39.080307
-23.417253
-8.050082
6.019509
18.768101
28.724415
34.298855
36.153408
36.684753
37.123138
35.904892
30.542480
20.836626
9.481098
-0.716401
-9.266193
-16.827372
-22.720055
-25.065388
-23.104136
-18.322039
-12.819809
-7.266513
-1.291233
4.993803
10.978620
16.596804
22.410879
28.345068
33.365601
37.159393
40.805256
45.214142
50.184040
55.042377
59.240707
62.463051
64.716240
66.412971
68.063507
69.740128
71.259056
72.758492
74.615059
76.951698
79.463860
81.635300
83.158058
84.344032
85.674866
86.726143
86.272369
83.089020
75.863373
63.569172
47.127277
29.654947
