EVENT_NAME: EMILIA_2ND_SHOCK
EVENT_ID: IT-2012-0011
EVENT_DATE_YYYYMMDD: 20120529
EVENT_TIME_HHMMSS: 070002
EVENT_LATITUDE_DEGREE: 44.8417
EVENT_LONGITUDE_DEGREE: 11.0657
EVENT_DEPTH_KM: 8.1
HYPOCENTER_REFERENCE: INGV-CNT_Seismic_Bulletin
MAGNITUDE_W: 6.0
MAGNITUDE_W_REFERENCE: RCMT-INGV
MAGNITUDE_L: 5.8
MAGNITUDE_L_REFERENCE: INGV-CNT_Seismic_Bulletin
FOCAL_MECHANISM: TF
NETWORK: IT
STATION_CODE: SAG0
STATION_NAME: SANT AGOSTINO
STATION_LATITUDE_DEGREE: 44.791000
STATION_LONGITUDE_DEGREE: 11.390400
STATION_ELEVATION_M: 66
LOCATION: 
SENSOR_DEPTH_M: 0.0
VS30_M/S: 
SITE_CLASSIFICATION_EC8: C*
MORPHOLOGIC_CLASSIFICATION: 
EPICENTRAL_DISTANCE_KM: 26.3
EARTHQUAKE_BACKAZIMUTH_DEGREE: 282.5
DATE_TIME_FIRST_SAMPLE_YYYYMMDD_HHMMSS: 20120529_065943.000
DATE_TIME_FIRST_SAMPLE_PRECISION: seconds
SAMPLING_INTERVAL_S: 0.005000
NDATA: 30001
DURATION_S: 150.005
STREAM: HNE
UNITS: cm/s
INSTRUMENT: sensor = Episensor FBA ES-T [Kinemetrics] | digitizer = Etna [Kinemetrics]
INSTRUMENT_ANALOG/DIGITAL: D
INSTRUMENTAL_FREQUENCY_HZ: 
INSTRUMENTAL_DAMPING: 
FULL_SCALE_G: 
N_BIT_DIGITAL_CONVERTER: 18
PGV_CM/S: 7.734860
TIME_PGV_S: 34.900000
BASELINE_CORRECTION: BASELINE REMOVED
FILTER_TYPE: BUTTERWORTH
FILTER_ORDER: 2
LOW_CUT_FREQUENCY_HZ: 0.050
HIGH_CUT_FREQUENCY_HZ: 35.000
LATE/NORMAL_TRIGGERED: NT
DATABASE_VERSION: DYNA 1.0
HEADER_FORMAT: DYNA 1.2
DATA_TYPE: VELOCITY
PROCESSING: manual (Paolucci et al., 2011)
DATA_TIMESTAMP_YYYYMMDD_HHMMSS: 
DATA_LICENSE: CC-BY3_0-IT (http://creativecommons.org/licenses/by/3.0/deed.en)
DATA_CITATION: ESM working group (2015), European Strong-Motion database, version 0.1, Network Activity 3: Networking acceleration networks and SM data users. Project NERA (www.nera-eu.org)
DATA_CREATOR: ESM working group
ORIGINAL_DATA_MEDIATOR_CITATION: Ufficio Rischio Sismico e Vulcanico del Dipartimento della Protezione Civile (http://www.protezionecivile.gov.it/)
ORIGINAL_DATA_MEDIATOR: Rete Accelerometrica Nazionale - RAN Download (http://www.mot1.it/randownload/)
ORIGINAL_DATA_CREATOR_CITATION: Italian Strong Motion Network, Italian Civil Protection Department http://www.protezionecivile.gov.it
ORIGINAL_DATA_CREATOR: network: IT (Italian Strong Motion Network); owner: Dipartimento Della Protezione Civile
USER1: 
USER2: 
USER3: 
USER4: 
USER5: 
[...]
-0.000881
-0.000534
-0.000767
-0.001847
-0.003556
-0.005385
-0.006888
-0.007855
-0.008281
-0.008282
-0.008081
-0.007964
-0.008119
-0.008461
-0.008661
-0.008355
-0.007332
-0.005587
-0.003297
-0.000855
0.001151
0.002176
0.002014
0.000829
-0.001079
-0.003487
-0.006236
-0.009106
-0.011830
-0.014200
-0.016078
-0.017340
-0.017903
-0.017855
-0.017465
-0.017011
-0.016644
-0.016409
-0.016265
-0.016030
-0.015378
-0.014055
-0.012132
-0.009969
-0.007870
-0.005776
-0.003388
-0.000645
0.001979
0.003729
0.004142
0.003367
0.002036
0.000865
0.000316
0.000454
0.000975
0.001393
0.001246
0.000219
-0.001808
-0.004707
-0.008025
-0.011039
-0.013002
-0.013437
-0.012358
-0.010344
-0.008345
-0.007217
-0.007214
-0.007832
-0.008173
-0.007549
-0.005751
-0.002976
0.000287
0.003293
0.005162
0.005177
0.003088
-0.000794
-0.005791
-0.011120
-0.016096
-0.020242
-0.023299
-0.025140
-0.025674
-0.024873
-0.022890
-0.020108
-0.016978
-0.013767
-0.010541
-0.007406
-0.004674
-0.002735
-0.001769
-0.001572
-0.001628
-0.001308
-0.000070
0.002278
0.005413
0.008656
0.011433
0.013623
0.015446
0.017052
0.018279
0.018727
0.017997
0.015885
0.012494
0.008273
0.003902
0.000037
-0.002905
-0.004811
-0.005778
-0.006000
-0.005679
-0.004913
-0.003580
-0.001455
0.001468
0.004713
0.007407
0.008735
0.008430
0.006903
0.004948
0.003248
0.002007
0.000903
-0.000633
-0.002978
-0.006028
-0.009237
-0.011855
-0.013170
-0.012681
-0.010241
-0.006221
-0.001484
0.002996
0.006643
0.009525
0.012198
0.015297
0.019106
0.023309
0.027032
0.029202
0.029059
0.026507
0.022095
0.016774
0.011643
0.007693
0.005522
0.005215
0.006457
0.008692
0.011163
0.013002
0.013533
0.012560
0.010350
0.007365
0.004111
0.001199
-0.000656
-0.000981
0.000021
0.001494
0.002551
0.002938
0.003145
0.003879
0.005446
0.007574
0.009740
0.011591
0.013056
0.014119
0.014602
0.014199
0.012719
0.010332
0.007547
0.004928
0.002884
0.001628
0.001217
0.001611
0.002750
0.004606
0.007185
0.010450
0.014225
0.018205
0.022065
0.025527
0.028274
0.029953
0.030400
0.029819
0.028673
0.027398
0.026145
0.024739
0.022947
0.020862
0.018968
0.017705
0.016996
0.016270
0.015004
0.013226
0.011438
0.010172
0.009755
0.010370
0.012032
0.014423
0.016890
0.018773
0.019739
0.019722
0.018607
0.016282
0.013096
0.010070
0.008322
0.008191
0.009095
0.010357
0.011978
0.014370
0.017474
0.020472
0.022471
0.023190
0.022775
0.021213
0.018290
0.014069
0.009135
0.004317
0.000358
-0.002250
-0.003424
-0.003600
-0.003480
-0.003513
-0.003650
-0.003699
-0.003793
-0.004301
-0.005369
-0.006715
-0.007881
-0.008545
-0.008605
-0.008029
-0.006752
-0.004828
-0.002586
-0.000471
0.001233
0.002374
0.002736
0.002049
0.000289
-0.002120
-0.004629
-0.007152
-0.010116
-0.013793
-0.017647
-0.020418
-0.020919
-0.018816
-0.014783
-0.010027
-0.005662
-0.002288
0.000043
0.001722
0.003526
0.006383
0.010677
0.015591
0.019287
0.019986
0.017145
0.011748
0.005622
0.000538
-0.002307
-0.002529
-0.000738
0.001578
0.002775
0.002056
-0.000160
-0.002818
-0.004907
-0.005609
-0.004225
-0.000464
0.004882
0.009708
0.011614
0.009447
0.003854
-0.003512
-0.011107
-0.017930
-0.023269
-0.026504
-0.027358
-0.026177
-0.023745
-0.020763
-0.017492
-0.013818
-0.009551
-0.004611
0.000964
0.006955
0.012904
0.018194
0.022157
0.024209
0.024044
0.021766
0.017906
0.013428
0.009531
0.007282
0.007303
0.009622
0.013737
0.018893
0.024428
0.030050
0.035889
0.042185
0.048795
0.054903
0.059179
0.060309
0.057556
0.051164
0.042470
0.033591
0.026686
0.023127
0.022976
0.025186
0.028346
0.031383
0.033802
0.035585
0.037030
0.038730
0.041547
0.046235
0.052713
0.059649
0.064908
0.066648
0.064374
0.059205
0.053198
0.048352
0.045932
0.046160
0.048251
0.050895
0.053044
0.054558
0.056191
0.058983
0.063661
0.070409
0.078822
0.087855
0.096048
0.102145
0.105670
0.106965
0.106731
0.105501
0.103428
0.100324
0.095793
0.089424
0.080957
0.070435
0.058523
0.046708
0.036913
0.030595
0.027976
0.028022
0.029117
0.029712
0.028609
0.025180
0.019643
0.013091
0.007042
0.002732
0.000675
0.000555
0.001186
0.000794
-0.002066
-0.007613
-0.014804
-0.022040
-0.027806
-0.030773
-0.029705
-0.023854
-0.013711
-0.001162
0.011376
0.022149
0.030636
0.037269
0.042683
0.047197
0.050755
0.052981
0.053258
0.051104
0.046639
0.040696
0.034428
0.028678
0.023671
0.019266
0.015323
0.011783
0.008706
0.006435
0.005746
0.007769
0.013614
0.023797
0.037728
0.053596
0.068878
0.081218
0.089069
0.091825
0.089536
0.082610
0.071813
0.058408
0.043828
0.028957
0.013937
-0.001156
-0.015556
-0.027774
-0.036328
-0.040469
-0.040282
-0.036444
-0.030119
-0.022856
-0.016277
-0.011750
-0.010251
-0.012378
-0.018346
-0.027918
-0.040401
-0.054766
-0.069809
-0.084306
-0.097240
-0.108079
-0.116797
-0.123476
-0.127879
-0.129520
-0.128128
-0.124004
-0.117968
-0.111199
-0.105284
-0.102114
-0.103322
-0.109613
-0.120575
-0.135142
-0.152087
-0.169903
-0.186390
-0.198885
-0.205434
-0.205957
-0.202210
-0.196483
-0.190330
-0.184396
-0.179144
-0.175338
-0.173538
-0.173237
-0.172815
-0.170554
-0.165683
-0.158426
-0.149238
-0.138285
-0.125670
-0.111788
-0.097188
-0.082256
-0.067281
-0.052753
-0.039475
-0.028490
-0.020988
-0.018104
-0.020381
-0.027119
-0.036324
-0.045489
-0.052610
-0.056663
-0.057471
-0.055418
-0.051345
-0.046319
-0.041142
-0.036205
-0.031985
-0.029509
-0.030081
-0.034505
-0.042680
-0.053954
-0.067715
-0.083530
-0.100759
-0.118244
-0.134598
-0.148951
-0.161401
-0.172645
-0.183107
-0.192462
-0.200031
-0.205499
-0.209113
-0.211316
-0.212481
-0.213120
-0.214133
-0.216570
-0.221156
-0.228160
-0.237723
-0.250162
-0.265844
-0.284835
-0.306726
-0.330662
-0.355485
-0.379989
-0.403113
-0.423891
-0.441224
-0.453924
-0.461282
-0.463595
-0.461936
-0.457362
-0.450438
-0.441299
-0.429707
-0.414883
-0.395546
-0.370533
-0.339645
-0.303930
-0.265200
-0.225296
-0.185640
-0.147112
-0.110157
-0.075166
-0.043112
-0.016011
0.003403
0.012782
0.011292
0.000077
-0.017898
-0.038441
-0.057187
-0.071036
-0.079232
-0.083179
-0.085017
-0.086304
-0.087852
-0.090170
-0.093432
-0.096925
-0.098993
-0.098056
-0.093800
-0.087210
-0.079582
-0.071810
-0.064425
-0.057716
-0.051388
-0.044248
-0.034626
-0.021249
-0.003729
0.017521
0.041575
0.067212
0.092988
0.117202
0.138037
0.153958
0.164257
0.169387
0.170561
0.168832
0.164622
0.158060
0.149553
0.139842
0.129614
0.119279
0.109058
0.099056
0.089169
0.079175
0.069208
0.060227
0.054026
0.052628
0.057405
0.068522
0.084772
0.103702
0.122203
0.137469
0.147741
0.152638
0.153189
0.151614
0.150693
0.152745
0.158798
0.168669
0.181838
0.198191
0.217954
0.241140
0.267293
0.295685
0.325487
0.355574
0.384143
0.408559
0.425687
0.432603
0.427442
0.410067
0.382324
0.347619
0.309703
0.271374
0.233947
0.197657
0.162615
0.129692
0.100820
0.078735
0.066452
0.066448
0.079731
0.105205
0.139450
0.177057
0.211813
0.238451
0.254025
0.258055
0.251566
0.236255
0.214549
0.189899
0.166326
0.147279
0.134769
0.129464
0.131233
0.139432
0.153102
0.171417
0.194007
0.220535
0.249715
0.278961
0.305104
0.325288
0.337235
0.339273
0.330955
0.313942
0.291809
0.268498
0.246837
0.228349
0.214005
0.204601
0.200392
0.200971
0.205967
0.215707
0.231054
0.252751
0.280992
0.315212
0.353825
0.394055
0.432268
0.464918
0.489570
0.505305
0.512541
0.512843
0.508798
0.503516
0.499761
0.499169
0.501855
0.506320
0.509672
0.508505
0.500373
0.484846
0.463273
0.437628
0.409716
0.381268
0.354179
0.330231
0.310650
0.295990
0.286326
0.281313
0.280114
0.281675
0.285241
0.290396
0.296506
0.302154
0.305172
0.303304
0.294959
0.279597
0.257770
0.230879
0.200668
0.168678
0.135972
0.103130
0.070336
0.037542
0.004743
-0.027646
-0.058610
-0.086780
-0.110849
-0.129861
-0.143470
-0.152130
-0.156935
-0.158984
-0.158681
-0.155716
-0.149816
-0.141414
-0.131497
-0.120994
-0.110595
-0.101081
-0.093405
-0.088294
-0.085998
-0.086908
-0.092469
-0.105164
-0.127402
-0.160421
-0.204012
-0.256786
-0.316289
-0.379069
-0.441266
-0.499403
-0.550589
-0.592041
-0.620803
-0.634349
-0.631642
-0.613685
-0.583238
-0.544061
-0.500160
-0.455146
-0.411723
-0.371450
-0.334876
-0.301801
-0.271411
-0.242376
-0.213254
-0.183114
-0.151790
-0.119521
-0.086461
-0.052664
-0.018420
0.015620
0.048663
0.079908
0.108320
0.132426
0.150619
0.161720
0.165195
0.160852
0.148408
0.127586
0.098808
0.063746
0.025181
-0.013633
-0.049623
-0.080234
-0.103715
-0.119615
-0.129115
-0.134673
-0.138959
-0.143771
-0.149674
-0.156376
-0.163299
-0.169851
-0.175558
-0.180221
-0.183904
-0.186604
-0.187848
-0.186608
-0.181441
-0.170608
-0.152324
-0.125448
-0.090511
-0.050473
-0.010386
0.024098
0.048470
0.060309
0.059333
0.047297
0.027908
0.006111
-0.013330
-0.027165
-0.034041
-0.033908
-0.027372
-0.015695
-0.001022
0.013783
0.025739
0.032374
0.032142
0.024800
0.011707
-0.004476
-0.020793
-0.034972
-0.045907
-0.053577
-0.058632
-0.062001
-0.064514
-0.066541
-0.067905
-0.068192
-0.067430
-0.066725
-0.068156
-0.073983
-0.085921
-0.104989
-0.131756
-0.166388
-0.208246
-0.255441
-0.305127
-0.354456
-0.401440
-0.445161
-0.485363
-0.521904
-0.554502
-0.582751
-0.606217
-0.624486
-0.637045
-0.643199
-0.642171
-0.633223
-0.615761
-0.589551
-0.554950
-0.512983
-0.465172
-0.413241
-0.358990
-0.304414
-0.251814
-0.203601
-0.161829
-0.127940
-0.102929
-0.087513
-0.082057
-0.086536
-0.100777
-0.124917
-0.159639
-0.205961
-0.264763
-0.336269
-0.419534
-0.512181
-0.610645
-0.710886
-0.809236
-0.902900
-0.990014
-1.069785
-1.142928
-1.211706
-1.279040
-1.347238
-1.417255
-1.488786
-1.560700
-1.631383
-1.699163
-1.762897
-1.822240
-1.877188
-1.927288
-1.971344
-2.007922
-2.035949
-2.054817
-2.064296
-2.064831
-2.058151
-2.047436
-2.036656
-2.029504
-2.028639
-2.035390
-2.049581
-2.069367
-2.091330
-2.111015
-2.123759
-2.125610
-2.114097
-2.088659
-2.050584
-2.002398
-1.946954
-1.886515
-1.822061
-1.753221
-1.679013
-1.598825
-1.512843
-1.421879
-1.326953
-1.229009
-1.128866
-1.027162
-0.924067
-0.819262
-0.712575
-0.604884
-0.498619
-0.397474
-0.305584
-0.226818
-0.164402
-0.120558
-0.096125
-0.090487
-0.102097
-0.129435
-0.171783
-0.229208
-0.301843
-0.389042
-0.488975
-0.598725
-0.714542
-0.832020
-0.946229
-1.051972
-1.144262
-1.218783
-1.272171
-1.302287
-1.308691
-1.293259
-1.260445
-1.216617
-1.168836
-1.123902
-1.088051
-1.066934
-1.065037
-1.084495
-1.124157
-1.179764
-1.245378
-1.314934
-1.382823
-1.443843
-1.493686
-1.530360
-1.555519
-1.574176
-1.592774
-1.616986
-1.650563
-1.695355
-1.751549
-1.817441
-1.889188
-1.961273
-2.027444
-2.081181
-2.115684
-2.124333
-2.101936
-2.046075
-1.957710
-1.840748
-1.701026
-1.545516
-1.381972
-1.218488
-1.062694
-0.920782
-0.796771
-0.692601
-0.609093
-0.546669
-0.505275
-0.484196
-0.482409
-0.499207
-0.534306
-0.586722
-0.652905
-0.725851
-0.795949
-0.852760
-0.886711
-0.890351
-0.859522
-0.794542
-0.700309
-0.584623
-0.455711
-0.320398
-0.183506
-0.047971
0.085059
0.216077
0.346905
0.480360
0.619775
0.768355
0.928474
1.100991
1.285085
1.478864
1.680035
1.885808
2.092107
2.292879
2.479826
2.642605
2.770160
2.853408
2.887763
2.873810
2.815992
2.720463
2.593631
2.441862
2.271116
2.085799
1.888181
1.679727
1.463596
1.245808
1.033622
0.832901
0.647015
0.477435
0.324612
0.188310
0.068318
-0.033761
-0.113526
-0.165349
-0.185581
-0.175055
-0.138845
-0.083410
-0.013728
0.067654
0.159821
0.261746
0.371106
0.484525
0.598058
0.706764
0.804168
0.883298
0.939297
0.971339
0.982074
0.975593
0.956333
0.929799
0.903527
0.886198
0.884921
0.902643
0.937325
0.983309
1.034469
1.087449
1.142301
1.199646
1.257122
1.308546
1.346046
1.362736
1.353781
1.315963
1.247808
1.151236
1.032890
0.903637
0.776768
0.666203
0.585443
0.546398
0.557061
0.619276
0.728654
0.876975
1.055313
1.255569
1.470118
1.691294
1.911783
2.125222
2.325888
2.507610
2.663240
2.785812
2.870634
2.916574
2.925727
2.902045
2.850107
2.774936
2.682677
2.580876
2.477550
2.379764
2.293155
2.222612
2.172773
2.147423
2.148219
2.173550
2.218864
2.278727
2.348137
2.421656
2.492341
2.552354
2.595113
2.617313
2.619135
2.603073
2.573319
2.536213
2.499704
2.470396
2.450384
2.436977
2.425182
2.409722
2.384500
2.341885
2.274654
2.179037
2.055710
1.907551
1.736276
1.542152
1.326828
1.094753
0.851462
0.601290
0.347085
0.092376
-0.156503
-0.391553
-0.606525
-0.798556
-0.966434
-1.107849
-1.219500
-1.300014
-1.351540
-1.377953
-1.381821
-1.363422
-1.322425
-1.259604
-1.176408
-1.073261
-0.948807
-0.800955
-0.628464
-0.431446
-0.210948
0.031510
0.294262
0.575301
0.871490
1.178715
1.493452
1.813920
2.139880
2.471710
2.809141
3.150077
3.490738
3.827355
4.157504
4.479729
4.792588
5.094599
5.384852
5.663454
5.931291
6.189025
6.436038
6.670304
6.889110
7.089676
7.269125
7.424208
7.551358
7.647106
7.708673
7.734860
7.727035
7.688722
7.623348
7.532618
7.416849
7.275715
7.108725
6.915588
6.695904
6.448848
6.173983
5.872326
5.546283
5.198869
4.833415
4.453771
4.064281
3.669481
3.273753
2.880925
2.494232
2.116878
1.752054
1.401617
1.064879
0.739217
0.421658
0.109850
-0.197681
-0.501600
-0.801957
-1.098234
-1.389045
-1.671895
-1.943320
-2.199011
-2.433750
-2.641741
-2.817327
-2.955406
-3.052144
-3.106791
-3.122398
-3.102996
-3.050288
-2.964566
-2.848295
-2.707467
-2.549226
-2.378344
-2.196338
-2.004163
-1.805106
-1.604843
-1.409458
-1.224236
-1.054570
-0.907482
-0.791121
-0.711941
-0.672208
-0.670090
-0.701505
-0.761576
-0.845062
-0.946410
-1.060247
-1.182188
-1.308725
-1.436066
-1.559577
-1.674697
-1.778312
-1.869310
-1.948025
-2.015369
-2.072558
-2.121028
-2.161518
-2.193065
-2.213005
-2.217333
-2.200976
-2.158661
-2.085902
-1.979418
-1.837709
-1.661682
-1.454164
-1.218653
-0.958622
-0.678221
-0.383989
-0.084807
0.211924
0.504240
0.794301
1.082806
1.365286
1.633718
1.881083
2.104141
2.302455
2.476410
2.627403
2.759232
2.877851
2.988968
3.095209
3.195117
3.284623
3.359214
3.414791
3.447223
3.451994
3.424920
3.363494
3.267382
3.137384
2.974010
2.777186
2.547422
2.287248
2.001359
1.695490
1.375681
1.048616
0.721703
0.402001
0.094864
-0.196402
-0.469959
-0.725146
-0.962843
-1.185628
-1.397195
-1.601321
-1.800659
-1.995606
-2.183768
-2.360388
-2.519447
-2.655260
-2.764198
-2.845252
-2.899118
-2.927292
-2.932081
-2.916774
-2.885031
-2.839708
-2.782303
-2.713386
-2.633356
-2.542984
-2.443526
-2.336541
-2.223832
-2.107404
-1.989183
-1.870664
-1.752647
-1.635274
-1.518223
-1.400561
-1.280524
-1.155811
-1.024292
-0.884657
-0.736770
-0.581814
-0.422417
-0.262757
-0.108507
0.033587
0.156649
0.255147
0.326421
0.371316
0.393476
0.397972
0.390274
0.376124
0.361903
0.354510
0.360487
0.384956
0.430833
0.498447
0.585390
0.686682
0.795717
0.905768
1.011340
1.108767
1.196034
1.272447
1.338461
1.395215
1.443861
1.485215
1.519816
1.548224
1.571362
1.590641
1.607832
1.624819
1.643358
1.664644
1.688916
1.715487
1.742677
1.767351
1.784928
1.790028
1.777144
1.741258
1.678645
1.587757
1.469464
1.326163
1.160799
0.976789
0.778558
0.572144
0.365247
0.166288
-0.017051
-0.179274
-0.318063
-0.434386
-0.531852
-0.615585
-0.690906
-0.762223
-0.832548
-0.903468
-0.975154
-1.046429
-1.115215
-1.179261
-1.236862
-1.287309
-1.330831
-1.368333
-1.401257
-1.431281
-1.459743
-1.487116
-1.512700
-1.534687
-1.550588
-1.557672
-1.553369
-1.535745
-1.503899
-1.458226
-1.400495
-1.333534
-1.260742
-1.185612
-1.111270
-1.040091
-0.973531
-0.912137
-0.855718
-0.803485
-0.754003
-0.705161
-0.654536
-0.600080
-0.540792
-0.477055
-0.410510
-0.343648
-0.279561
-0.221811
-0.174075
-0.139516
-0.120091
-0.116210
-0.126865
-0.149894
-0.182298
-0.220687
-0.261583
-0.301556
-0.337418
-0.366251
-0.385359
-0.392492
-0.386114
-0.365425
-0.330149
-0.280266
-0.216011
-0.138236
-0.048635
0.050359
0.155646
0.263437
0.369378
0.468828
0.557183
0.630159
0.684022
0.715823
0.723814
0.707887
0.669625
0.611964
0.538584
0.453292
0.359711
0.261071
0.159960
0.058287
-0.042454
-0.140931
-0.236138
-0.327899
-0.417101
-0.505298
-0.594034
-0.684513
-0.777516
-0.873247
-0.971228
-1.070300
-1.168537
-1.263102
-1.350058
-1.424291
-1.479989
-1.511716
-1.515556
-1.489683
-1.434208
-1.351175
-1.245014
-1.122257
-0.989850
-0.853166
-0.715273
-0.577752
-0.441952
-0.309182
-0.179810
-0.052810
0.073389
0.199768
0.326589
0.454031
0.582513
0.712187
0.842099
0.969655
1.090519
1.198878
1.288164
1.352337
1.387386
1.392194
1.368155
1.317992
1.244891
1.152410
1.044656
0.926199
0.801695
0.675606
0.552111
0.434893
0.326733
0.229198
0.142764
0.067294
0.002485
-0.051896
-0.096034
-0.130279
-0.155372
-0.172717
-0.184681
-0.194621
-0.206325
-0.223076
-0.246928
-0.278430
-0.316669
-0.359694
-0.405210
-0.451254
-0.496724
-0.541459
-0.585885
-0.630654
-0.676250
-0.722637
-0.769310
-0.815762
-0.862148
-0.909675
-0.960385
-1.016573
-1.080221
-1.152562
-1.233737
-1.322432
-1.415795
-1.510016
-1.601381
-1.687215
-1.766305
-1.838650
-1.904784
-1.965195
-2.020170
-2.070062
-2.115607
-2.157810
-2.197475
-2.234943
-2.270285
-2.303614
-2.335203
-2.365389
-2.394349
-2.422166
-2.449199
-2.476323
-2.504800
-2.535881
-2.570463
-2.609139
-2.652249
-2.699457
-2.749356
-2.799588
-2.847361
-2.890003
-2.925038
-2.950039
-2.962920
-2.962600
-2.949277
-2.923933
-2.887603
-2.841149
-2.785498
-2.721858
-2.651475
-2.574990
-2.492028
-2.401532
-2.302441
-2.194119
-2.076365
-1.949206
-1.812854
-1.667957
-1.515839
-1.358503
-1.198351
-1.037790
-0.879036
-0.724182
-0.575215
-0.433790
-0.300905
-0.176831
-0.061415
0.045484
0.143616
0.232127
0.309546
0.374084
0.424037
0.458134
0.475887
0.477782
0.465223
0.440253
0.405194
0.362384
0.314027
0.262029
0.207814
0.152103
0.094811
0.035233
-0.027659
-0.095063
-0.168393
-0.249277
-0.339248
-0.439284
-0.549593
-0.669787
-0.799312
-0.937704
-1.084510
-1.239208
-1.401186
-1.569671
-1.743699
-1.922037
-2.103084
-2.285016
-2.465919
-2.643611
-2.815343
-2.977707
-3.126974
-3.259768
-3.373716
-3.467712
-3.541696
-3.596253
-3.632257
-3.650682
-3.652642
-3.639285
-3.611402
-3.569187
-3.512343
-3.440455
-3.353499
-3.252186
-3.138002
-3.013062
-2.879897
-2.741407
-2.600896
-2.461844
-2.327378
-2.199783
-2.080304
-1.969131
-1.865442
-1.767684
-1.674039
-1.582930
-1.493302
-1.404452
-1.315549
-1.225403
-1.132717
-1.036425
