EVENT_NAME: EMILIA_2ND_SHOCK
EVENT_ID: IT-2012-0011
EVENT_DATE_YYYYMMDD: 20120529
EVENT_TIME_HHMMSS: 070002
EVENT_LATITUDE_DEGREE: 44.8417
EVENT_LONGITUDE_DEGREE: 11.0657
EVENT_DEPTH_KM: 8.1
HYPOCENTER_REFERENCE: INGV-CNT_Seismic_Bulletin
MAGNITUDE_W: 6.0
MAGNITUDE_W_REFERENCE: RCMT-INGV
MAGNITUDE_L: 5.8
MAGNITUDE_L_REFERENCE: INGV-CNT_Seismic_Bulletin
FOCAL_MECHANISM: TF
NETWORK: IT
STATION_CODE: SMS0
STATION_NAME: SAN MARTINO SPINO
STATION_LATITUDE_DEGREE: 44.934000
STATION_LONGITUDE_DEGREE: 11.235000
STATION_ELEVATION_M: 55
LOCATION: 
SENSOR_DEPTH_M: 0.0
VS30_M/S: 
SITE_CLASSIFICATION_EC8: C*
MORPHOLOGIC_CLASSIFICATION: 
EPICENTRAL_DISTANCE_KM: 16.9
EARTHQUAKE_BACKAZIMUTH_DEGREE: 232.6
DATE_TIME_FIRST_SAMPLE_YYYYMMDD_HHMMSS: 20120529_065933.000
DATE_TIME_FIRST_SAMPLE_PRECISION: seconds
SAMPLING_INTERVAL_S: 0.005000
NDATA: 32001
DURATION_S: 160.005
STREAM: HNZ
UNITS: cm
INSTRUMENT: sensor = Episensor FBA ES-T [Kinemetrics] | digitizer = Etna [Kinemetrics]
INSTRUMENT_ANALOG/DIGITAL: D
INSTRUMENTAL_FREQUENCY_HZ: 
INSTRUMENTAL_DAMPING: 
FULL_SCALE_G: 
N_BIT_DIGITAL_CONVERTER: 18
PGD_CM: 1.061766
TIME_PGD_S: 40.510000
BASELINE_CORRECTION: BASELINE REMOVED
FILTER_TYPE: BUTTERWORTH
FILTER_ORDER: 2
LOW_CUT_FREQUENCY_HZ: 0.040
HIGH_CUT_FREQUENCY_HZ: 40.000
LATE/NORMAL_TRIGGERED: NT
DATABASE_VERSION: DYNA 1.0
HEADER_FORMAT: DYNA 1.2
DATA_TYPE: DISPLACEMENT
PROCESSING: manual (Paolucci et al., 2011)
DATA_TIMESTAMP_YYYYMMDD_HHMMSS: 
DATA_LICENSE: CC-BY3_0-IT (http://creativecommons.org/licenses/by/3.0/deed.en)
DATA_CITATION: ESM working group (2015), European Strong-Motion database, version 0.1, Network Activity 3: Networking acceleration networks and SM data users. Project NERA (www.nera-eu.org)
DATA_CREATOR: ESM working group
ORIGINAL_DATA_MEDIATOR_CITATION: Ufficio Rischio Sismico e Vulcanico del Dipartimento della Protezione Civile (http://www.protezionecivile.gov.it/)
ORIGINAL_DATA_MEDIATOR: Rete Accelerometrica Nazionale - RAN Download (http://www.mot1.it/randownload/)
ORIGINAL_DATA_CREATOR_CITATION: Italian Strong Motion Network, Italian Civil Protection Department http://www.protezionecivile.gov.it
ORIGINAL_DATA_CREATOR: network: IT (Italian Strong Motion Network); owner: Dipartimento Della Protezione Civile
USER1: 
USER2: 
USER3: 
USER4: 
USER5: 
[...]
-1.862645e-01
-1.898889e-01
-1.936773e-01
-1.978406e-01
-2.023359e-01
-2.068092e-01
-2.109078e-01
-2.145973e-01
-2.181504e-01
-2.219409e-01
-2.263314e-01
-2.315445e-01
-2.374021e-01
-2.432969e-01
-2.485907e-01
-2.530156e-01
-2.567472e-01
-2.602804e-01
-2.641728e-01
-2.686470e-01
-2.734045e-01
-2.779568e-01
-2.820959e-01
-2.859468e-01
-2.896645e-01
-2.932468e-01
-2.966574e-01
-3.000275e-01
-3.036412e-01
-3.077036e-01
-3.121999e-01
-3.169623e-01
-3.217275e-01
-3.261940e-01
-3.302144e-01
-3.338747e-01
-3.372977e-01
-3.405103e-01
-3.435886e-01
-3.467424e-01
-3.501050e-01
-3.535628e-01
-3.568965e-01
-3.600043e-01
-3.629667e-01
-3.660303e-01
-3.695400e-01
-3.737076e-01
-3.783876e-01
-3.831300e-01
-3.874518e-01
-3.911419e-01
-3.944375e-01
-3.979060e-01
-4.020378e-01
-4.068470e-01
-4.118318e-01
-4.163593e-01
-4.202156e-01
-4.238518e-01
-4.279758e-01
-4.328300e-01
-4.379646e-01
-4.427236e-01
-4.468399e-01
-4.505810e-01
-4.544202e-01
-4.585754e-01
-4.628518e-01
-4.669177e-01
-4.706601e-01
-4.743023e-01
-4.782987e-01
-4.830519e-01
-4.885956e-01
-4.945817e-01
-5.006116e-01
-5.065366e-01
-5.124469e-01
-5.184271e-01
-5.243632e-01
-5.299416e-01
-5.347922e-01
-5.387182e-01
-5.418749e-01
-5.446801e-01
-5.474726e-01
-5.502754e-01
-5.529175e-01
-5.552970e-01
-5.574496e-01
-5.594253e-01
-5.612107e-01
-5.628415e-01
-5.645205e-01
-5.664907e-01
-5.687968e-01
-5.712086e-01
-5.733434e-01
-5.749363e-01
-5.761246e-01
-5.774870e-01
-5.797065e-01
-5.830148e-01
-5.869177e-01
-5.906017e-01
-5.936360e-01
-5.962190e-01
-5.988846e-01
-6.020936e-01
-6.059512e-01
-6.101516e-01
-6.141760e-01
-6.175804e-01
-6.202621e-01
-6.225936e-01
-6.251785e-01
-6.283526e-01
-6.319737e-01
-6.357032e-01
-6.393850e-01
-6.430658e-01
-6.466943e-01
-6.499724e-01
-6.525975e-01
-6.545507e-01
-6.560902e-01
-6.575972e-01
-6.594513e-01
-6.618089e-01
-6.644038e-01
-6.667777e-01
-6.687594e-01
-6.705172e-01
-6.721940e-01
-6.737510e-01
-6.751706e-01
-6.766642e-01
-6.786443e-01
-6.814059e-01
-6.846798e-01
-6.876022e-01
-6.893941e-01
-6.901126e-01
-6.906375e-01
-6.919198e-01
-6.942424e-01
-6.970913e-01
-6.995542e-01
-7.008436e-01
-7.006936e-01
-6.994580e-01
-6.978229e-01
-6.963369e-01
-6.951530e-01
-6.941738e-01
-6.933394e-01
-6.927265e-01
-6.924752e-01
-6.926624e-01
-6.931225e-01
-6.933374e-01
-6.927066e-01
-6.911638e-01
-6.894197e-01
-6.883463e-01
-6.881470e-01
-6.882246e-01
-6.878105e-01
-6.867077e-01
-6.854632e-01
-6.848318e-01
-6.850646e-01
-6.856977e-01
-6.859574e-01
-6.852977e-01
-6.835676e-01
-6.808063e-01
-6.770681e-01
-6.724805e-01
-6.673505e-01
-6.620648e-01
-6.568112e-01
-6.515016e-01
-6.460527e-01
-6.405817e-01
-6.353155e-01
-6.305139e-01
-6.263696e-01
-6.227715e-01
-6.193178e-01
-6.157362e-01
-6.121686e-01
-6.088733e-01
-6.057421e-01
-6.023877e-01
-5.986860e-01
-5.949362e-01
-5.914784e-01
-5.883527e-01
-5.852804e-01
-5.818250e-01
-5.776678e-01
-5.729604e-01
-5.683592e-01
-5.644122e-01
-5.609627e-01
-5.574895e-01
-5.539127e-01
-5.506316e-01
-5.477988e-01
-5.449516e-01
-5.415236e-01
-5.375400e-01
-5.336003e-01
-5.301747e-01
-5.270800e-01
-5.237342e-01
-5.198368e-01
-5.156273e-01
-5.114619e-01
-5.073697e-01
-5.031756e-01
-4.988594e-01
-4.945518e-01
-4.902049e-01
-4.854396e-01
-4.797868e-01
-4.730223e-01
-4.652479e-01
-4.567447e-01
-4.477854e-01
-4.385213e-01
-4.289995e-01
-4.192010e-01
-4.090675e-01
-3.986685e-01
-3.884017e-01
-3.788719e-01
-3.704268e-01
-3.628826e-01
-3.558036e-01
-3.489218e-01
-3.422470e-01
-3.359788e-01
-3.303953e-01
-3.256492e-01
-3.214915e-01
-3.173029e-01
-3.126301e-01
-3.075635e-01
-3.023832e-01
-2.971496e-01
-2.919122e-01
-2.870093e-01
-2.828912e-01
-2.797562e-01
-2.774247e-01
-2.754377e-01
-2.732451e-01
-2.705123e-01
-2.674615e-01
-2.648224e-01
-2.631953e-01
-2.624218e-01
-2.617026e-01
-2.603761e-01
-2.585110e-01
-2.567477e-01
-2.557271e-01
-2.556578e-01
-2.562317e-01
-2.569436e-01
-2.575245e-01
-2.580543e-01
-2.587493e-01
-2.596053e-01
-2.601290e-01
-2.595868e-01
-2.575918e-01
-2.541585e-01
-2.493380e-01
-2.433041e-01
-2.366733e-01
-2.303992e-01
-2.253733e-01
-2.220866e-01
-2.205084e-01
-2.202004e-01
-2.206754e-01
-2.218526e-01
-2.240661e-01
-2.275765e-01
-2.322540e-01
-2.376255e-01
-2.429766e-01
-2.475621e-01
-2.509597e-01
-2.531757e-01
-2.543865e-01
-2.547048e-01
-2.541991e-01
-2.530103e-01
-2.513983e-01
-2.496714e-01
-2.480142e-01
-2.464569e-01
-2.450417e-01
-2.438465e-01
-2.428858e-01
-2.421614e-01
-2.417064e-01
-2.414774e-01
-2.413711e-01
-2.413352e-01
-2.411527e-01
-2.402126e-01
-2.379408e-01
-2.343633e-01
-2.299198e-01
-2.250097e-01
-2.200521e-01
-2.156940e-01
-2.125478e-01
-2.106656e-01
-2.093960e-01
-2.078389e-01
-2.054208e-01
-2.020804e-01
-1.981340e-01
-1.940986e-01
-1.904420e-01
-1.872309e-01
-1.840527e-01
-1.804585e-01
-1.764611e-01
-1.725526e-01
-1.693455e-01
-1.672213e-01
-1.662054e-01
-1.660595e-01
-1.663822e-01
-1.666646e-01
-1.664888e-01
-1.658190e-01
-1.650414e-01
-1.646518e-01
-1.648535e-01
-1.653896e-01
-1.657830e-01
-1.657535e-01
-1.653362e-01
-1.646298e-01
-1.635945e-01
-1.621951e-01
-1.605556e-01
-1.587344e-01
-1.564764e-01
-1.534832e-01
-1.499098e-01
-1.463499e-01
-1.433206e-01
-1.409779e-01
-1.392947e-01
-1.382108e-01
-1.375910e-01
-1.373801e-01
-1.378121e-01
-1.390684e-01
-1.407314e-01
-1.419717e-01
-1.422805e-01
-1.417105e-01
-1.405514e-01
-1.392571e-01
-1.386376e-01
-1.395955e-01
-1.425056e-01
-1.470926e-01
-1.528223e-01
-1.589763e-01
-1.644609e-01
-1.682046e-01
-1.699206e-01
-1.702258e-01
-1.700351e-01
-1.699439e-01
-1.701013e-01
-1.705466e-01
-1.715407e-01
-1.734933e-01
-1.766981e-01
-1.812882e-01
-1.873347e-01
-1.947455e-01
-2.030379e-01
-2.113527e-01
-2.187280e-01
-2.245015e-01
-2.287065e-01
-2.320812e-01
-2.355440e-01
-2.395649e-01
-2.439984e-01
-2.485022e-01
-2.530250e-01
-2.577647e-01
-2.627508e-01
-2.677111e-01
-2.722839e-01
-2.762037e-01
-2.793280e-01
-2.815417e-01
-2.827355e-01
-2.829557e-01
-2.824642e-01
-2.815362e-01
-2.803070e-01
-2.788838e-01
-2.774118e-01
-2.759481e-01
-2.743542e-01
-2.724194e-01
-2.702502e-01
-2.684084e-01
-2.673461e-01
-2.667390e-01
-2.657215e-01
-2.637671e-01
-2.609607e-01
-2.575396e-01
-2.536655e-01
-2.496092e-01
-2.456923e-01
-2.419133e-01
-2.379123e-01
-2.334450e-01
-2.288188e-01
-2.247962e-01
-2.219603e-01
-2.202085e-01
-2.190833e-01
-2.184104e-01
-2.181577e-01
-2.179145e-01
-2.170840e-01
-2.154323e-01
-2.130108e-01
-2.097347e-01
-2.054812e-01
-2.005227e-01
-1.955897e-01
-1.915247e-01
-1.888401e-01
-1.874533e-01
-1.868896e-01
-1.868298e-01
-1.874087e-01
-1.889475e-01
-1.914569e-01
-1.944962e-01
-1.975446e-01
-2.003651e-01
-2.029651e-01
-2.054903e-01
-2.082575e-01
-2.115585e-01
-2.152878e-01
-2.189371e-01
-2.219995e-01
-2.242671e-01
-2.258064e-01
-2.268245e-01
-2.275833e-01
-2.283894e-01
-2.294876e-01
-2.307869e-01
-2.318247e-01
-2.321276e-01
-2.315586e-01
-2.303852e-01
-2.292015e-01
-2.287126e-01
-2.291800e-01
-2.299593e-01
-2.298523e-01
-2.280673e-01
-2.249129e-01
-2.216475e-01
-2.196410e-01
-2.195209e-01
-2.207785e-01
-2.219964e-01
-2.216960e-01
-2.193710e-01
-2.158232e-01
-2.123566e-01
-2.097099e-01
-2.079476e-01
-2.069851e-01
-2.066379e-01
-2.064432e-01
-2.060066e-01
-2.054420e-01
-2.051836e-01
-2.053359e-01
-2.053369e-01
-2.043774e-01
-2.021173e-01
-1.988166e-01
-1.947514e-01
-1.898284e-01
-1.839331e-01
-1.773145e-01
-1.704730e-01
-1.639724e-01
-1.583153e-01
-1.535825e-01
-1.492815e-01
-1.449665e-01
-1.408643e-01
-1.375561e-01
-1.352971e-01
-1.339812e-01
-1.333855e-01
-1.330993e-01
-1.327185e-01
-1.323761e-01
-1.324532e-01
-1.325365e-01
-1.312776e-01
-1.275818e-01
-1.216193e-01
-1.145471e-01
-1.075037e-01
-1.010540e-01
-9.535777e-02
-9.042996e-02
-8.618580e-02
-8.245422e-02
-7.905674e-02
-7.592753e-02
-7.309844e-02
-7.050950e-02
-6.787166e-02
-6.467585e-02
-6.036949e-02
-5.458920e-02
-4.719900e-02
-3.829177e-02
-2.827863e-02
-1.767606e-02
-6.643895e-03
5.094552e-03
1.787888e-02
3.177168e-02
4.651720e-02
6.169607e-02
7.685390e-02
9.162716e-02
1.058963e-01
1.196515e-01
1.326315e-01
1.442244e-01
1.537204e-01
1.607239e-01
1.655429e-01
1.692683e-01
1.733873e-01
1.791116e-01
1.867357e-01
1.954632e-01
2.040082e-01
2.115323e-01
2.181561e-01
2.247080e-01
2.320244e-01
2.404619e-01
2.497906e-01
2.592803e-01
2.680237e-01
2.754074e-01
2.813840e-01
2.864177e-01
2.912704e-01
2.967327e-01
3.033300e-01
3.111362e-01
3.197815e-01
3.286418e-01
3.371220e-01
3.448619e-01
3.517917e-01
3.580369e-01
3.636229e-01
3.682423e-01
3.714960e-01
3.733397e-01
3.741874e-01
3.747226e-01
3.757138e-01
3.777883e-01
3.810488e-01
3.848271e-01
3.880212e-01
3.898082e-01
3.899309e-01
3.884422e-01
3.856065e-01
3.819937e-01
3.782658e-01
3.747738e-01
3.714711e-01
3.683147e-01
3.656839e-01
3.642523e-01
3.644697e-01
3.662792e-01
3.693504e-01
3.734004e-01
3.780911e-01
3.827490e-01
3.863873e-01
3.880194e-01
3.870458e-01
3.836030e-01
3.787409e-01
3.740371e-01
3.705283e-01
3.679311e-01
3.651143e-01
3.612382e-01
3.563003e-01
3.507206e-01
3.447198e-01
3.383090e-01
3.316811e-01
3.253125e-01
3.196478e-01
3.147253e-01
3.101501e-01
3.055470e-01
3.010050e-01
2.969402e-01
2.936780e-01
2.914000e-01
2.903425e-01
2.908305e-01
2.930472e-01
2.966936e-01
3.009760e-01
3.051564e-01
3.091322e-01
3.134265e-01
3.186210e-01
3.247552e-01
3.312612e-01
3.374310e-01
3.428507e-01
3.475706e-01
3.521696e-01
3.576168e-01
3.647266e-01
3.735620e-01
3.834301e-01
3.934755e-01
4.032924e-01
4.130208e-01
4.229577e-01
4.332374e-01
4.438552e-01
4.548368e-01
4.662447e-01
4.779039e-01
4.891991e-01
4.994085e-01
5.084288e-01
5.170166e-01
5.260142e-01
5.354276e-01
5.444911e-01
5.525374e-01
5.595985e-01
5.661807e-01
5.726835e-01
5.790259e-01
5.845588e-01
5.885023e-01
5.908504e-01
5.927227e-01
5.955205e-01
5.997796e-01
6.049748e-01
6.102158e-01
6.149032e-01
6.189511e-01
6.226613e-01
6.263031e-01
6.296609e-01
6.320467e-01
6.328132e-01
6.317732e-01
6.291405e-01
6.252177e-01
6.202479e-01
6.144987e-01
6.082796e-01
6.018863e-01
5.957148e-01
5.903232e-01
5.861715e-01
5.832767e-01
5.811944e-01
5.794469e-01
5.779932e-01
5.772065e-01
5.773945e-01
5.784250e-01
5.798820e-01
5.815588e-01
5.836968e-01
5.866860e-01
5.906411e-01
5.953454e-01
6.004908e-01
6.058547e-01
6.112561e-01
6.164768e-01
6.213074e-01
6.255052e-01
6.286603e-01
6.303512e-01
6.305414e-01
6.297473e-01
6.288201e-01
6.286452e-01
6.299406e-01
6.330414e-01
6.377972e-01
6.438288e-01
6.508819e-01
6.588525e-01
6.675356e-01
6.764205e-01
6.847381e-01
6.917441e-01
6.970610e-01
7.008604e-01
7.037550e-01
7.064495e-01
7.093428e-01
7.123473e-01
7.151154e-01
7.174499e-01
7.194687e-01
7.214150e-01
7.233245e-01
7.248703e-01
7.256111e-01
7.254852e-01
7.250342e-01
7.250779e-01
7.261998e-01
7.285435e-01
7.320332e-01
7.366599e-01
7.424631e-01
7.493521e-01
7.570128e-01
7.649367e-01
7.726257e-01
7.798297e-01
7.865331e-01
7.927738e-01
7.985894e-01
8.040056e-01
8.089346e-01
8.132113e-01
8.167523e-01
8.195443e-01
8.215159e-01
8.225339e-01
8.224987e-01
8.214449e-01
8.196948e-01
8.179350e-01
8.169047e-01
8.168419e-01
8.172916e-01
8.174878e-01
8.168823e-01
8.153713e-01
8.132031e-01
8.108355e-01
8.089500e-01
8.084893e-01
8.103163e-01
8.145437e-01
8.201838e-01
8.255653e-01
8.292628e-01
8.308734e-01
8.312021e-01
8.318045e-01
8.339830e-01
8.378797e-01
8.425648e-01
8.469471e-01
8.504392e-01
8.528828e-01
8.541009e-01
8.536446e-01
8.510568e-01
8.464182e-01
8.405717e-01
8.347348e-01
8.297933e-01
8.258765e-01
8.224900e-01
8.189047e-01
8.145346e-01
8.092006e-01
8.031619e-01
7.970883e-01
7.920388e-01
7.890612e-01
7.884734e-01
7.896168e-01
7.914356e-01
7.932115e-01
7.947467e-01
7.961007e-01
7.973280e-01
7.984528e-01
7.996511e-01
8.013347e-01
8.038906e-01
8.073836e-01
8.116271e-01
8.164804e-01
8.220482e-01
8.286020e-01
8.362007e-01
8.444248e-01
8.526149e-01
8.602779e-01
8.671779e-01
8.732447e-01
8.785721e-01
8.833878e-01
8.879302e-01
8.925363e-01
8.978677e-01
9.046066e-01
9.126717e-01
9.210065e-01
9.283504e-01
9.341117e-01
9.385170e-01
9.421844e-01
9.456292e-01
9.489646e-01
9.518469e-01
9.536186e-01
9.535959e-01
9.514522e-01
9.475380e-01
9.428329e-01
9.384995e-01
9.353928e-01
9.337864e-01
9.334749e-01
9.342537e-01
9.363190e-01
9.401401e-01
9.459513e-01
9.534548e-01
9.619514e-01
9.705306e-01
9.783039e-01
9.850032e-01
9.914924e-01
9.992051e-01
1.008723e+00
1.019143e+00
1.028903e+00
1.036858e+00
1.042590e+00
1.046178e+00
1.048046e+00
1.048922e+00
1.049532e+00
1.050171e+00
1.050591e+00
1.050273e+00
1.048928e+00
1.046859e+00
1.044879e+00
1.043868e+00
1.044234e+00
1.045721e+00
1.047754e+00
1.049961e+00
1.052263e+00
1.054540e+00
1.056536e+00
1.058112e+00
1.059368e+00
1.060455e+00
1.061347e+00
1.061766e+00
1.061220e+00
1.059199e+00
1.055535e+00
1.050499e+00
1.044441e+00
1.037462e+00
1.029412e+00
1.020022e+00
1.009073e+00
9.965872e-01
9.828970e-01
9.685298e-01
9.540870e-01
9.402753e-01
9.279682e-01
9.179779e-01
9.105964e-01
9.054602e-01
9.019126e-01
8.993977e-01
8.976063e-01
8.965328e-01
8.964237e-01
8.974175e-01
8.991360e-01
9.007300e-01
9.014028e-01
9.009256e-01
8.996987e-01
8.984260e-01
8.976999e-01
8.976624e-01
8.979773e-01
8.982696e-01
8.986270e-01
8.996207e-01
9.018762e-01
9.056352e-01
9.106465e-01
9.163555e-01
9.221090e-01
9.272497e-01
9.312538e-01
9.339319e-01
9.354918e-01
9.363115e-01
9.365223e-01
9.358381e-01
9.338850e-01
9.306837e-01
9.267342e-01
9.225842e-01
9.183774e-01
9.138809e-01
9.088857e-01
9.034546e-01
8.977829e-01
8.920397e-01
8.863668e-01
8.808419e-01
8.754535e-01
8.701237e-01
8.648366e-01
8.599304e-01
8.560901e-01
8.538336e-01
8.530931e-01
8.533352e-01
8.540522e-01
8.551493e-01
8.568232e-01
8.590960e-01
8.615842e-01
8.637190e-01
8.650554e-01
8.653597e-01
8.646353e-01
8.631707e-01
8.614527e-01
8.599650e-01
8.590229e-01
8.586915e-01
8.587861e-01
8.589777e-01
8.589938e-01
8.588108e-01
8.586588e-01
8.588231e-01
8.594807e-01
8.607360e-01
8.627050e-01
8.654701e-01
8.690158e-01
8.732915e-01
8.783104e-01
8.841480e-01
8.908195e-01
8.981160e-01
9.055819e-01
9.127369e-01
9.193958e-01
9.257773e-01
9.322399e-01
9.388996e-01
9.455273e-01
9.517319e-01
9.571674e-01
9.616598e-01
9.652573e-01
9.681530e-01
9.705034e-01
9.723354e-01
9.736293e-01
9.744220e-01
9.748483e-01
9.751840e-01
9.758355e-01
9.771827e-01
9.794073e-01
9.824298e-01
9.858785e-01
9.891260e-01
9.915362e-01
9.927501e-01
9.927027e-01
9.914024e-01
9.887796e-01
9.848143e-01
9.797959e-01
9.743618e-01
9.692068e-01
9.647457e-01
9.609920e-01
9.575867e-01
9.538864e-01
9.492094e-01
9.431519e-01
9.357223e-01
9.273088e-01
9.185395e-01
9.099698e-01
9.017317e-01
8.934686e-01
8.847525e-01
8.756404e-01
8.666502e-01
8.581685e-01
8.500670e-01
8.419115e-01
8.334408e-01
8.248228e-01
8.165046e-01
8.088738e-01
8.020561e-01
7.959948e-01
7.906494e-01
7.860484e-01
7.821089e-01
7.784246e-01
7.742751e-01
7.689399e-01
7.621310e-01
7.541199e-01
7.454619e-01
7.366542e-01
7.278711e-01
7.188375e-01
7.089965e-01
6.979085e-01
6.855865e-01
6.724857e-01
6.591916e-01
6.461060e-01
6.333436e-01
6.208884e-01
6.088568e-01
5.975541e-01
5.872646e-01
5.780369e-01
5.696221e-01
5.615919e-01
5.536570e-01
5.459766e-01
5.390437e-01
5.332043e-01
5.284491e-01
5.246433e-01
5.217255e-01
5.197088e-01
5.186652e-01
5.186952e-01
5.198117e-01
5.218189e-01
5.243068e-01
5.267630e-01
5.286923e-01
5.297082e-01
5.296398e-01
5.286035e-01
5.269987e-01
5.254398e-01
5.245531e-01
5.246621e-01
5.256396e-01
5.271033e-01
5.287406e-01
5.304276e-01
5.320819e-01
5.335439e-01
5.347153e-01
5.357244e-01
5.368661e-01
5.384995e-01
5.410411e-01
5.448666e-01
5.501129e-01
5.565838e-01
5.638060e-01
5.711883e-01
5.782360e-01
5.846977e-01
5.905695e-01
5.959786e-01
6.010569e-01
6.059442e-01
6.108344e-01
6.159070e-01
6.211958e-01
6.265107e-01
6.315036e-01
6.358285e-01
6.392405e-01
6.416293e-01
6.430653e-01
6.437962e-01
6.440800e-01
6.439350e-01
6.430923e-01
6.412510e-01
6.383916e-01
6.348719e-01
6.312607e-01
6.280612e-01
6.255489e-01
6.238236e-01
6.229520e-01
6.230330e-01
6.241132e-01
6.260326e-01
6.283723e-01
6.305779e-01
6.321734e-01
6.329171e-01
6.328113e-01
6.320120e-01
6.307263e-01
6.291052e-01
6.271770e-01
6.248927e-01
6.222239e-01
6.192260e-01
6.160306e-01
6.127570e-01
6.093969e-01
6.057815e-01
6.017185e-01
5.972047e-01
5.925213e-01
5.881042e-01
5.842209e-01
5.807619e-01
5.774176e-01
5.740402e-01
5.708042e-01
5.680434e-01
5.659638e-01
5.644904e-01
5.633253e-01
5.621325e-01
5.607164e-01
5.590917e-01
5.574241e-01
5.559113e-01
5.547093e-01
5.539295e-01
5.536073e-01
5.536042e-01
5.536059e-01
5.532649e-01
5.523313e-01
5.507084e-01
5.484507e-01
5.456464e-01
5.422836e-01
5.382791e-01
5.336143e-01
5.284190e-01
5.229580e-01
5.175312e-01
5.123112e-01
5.072373e-01
5.021108e-01
4.968307e-01
4.915264e-01
4.863937e-01
4.813882e-01
4.761512e-01
4.702634e-01
4.635489e-01
4.561579e-01
4.484312e-01
4.407512e-01
4.334551e-01
4.267125e-01
4.204224e-01
4.142899e-01
4.080364e-01
4.015225e-01
3.946914e-01
3.875075e-01
3.800296e-01
3.724528e-01
3.650082e-01
3.578667e-01
3.510973e-01
3.446124e-01
3.381862e-01
3.316037e-01
3.248251e-01
3.180031e-01
3.113295e-01
3.048736e-01
2.985659e-01
2.923197e-01
2.861711e-01
2.802872e-01
2.748178e-01
2.697596e-01
2.649847e-01
2.604093e-01
2.561072e-01
2.522156e-01
2.487250e-01
2.453736e-01
2.417653e-01
2.376172e-01
2.328700e-01
2.276220e-01
2.221098e-01
2.167039e-01
2.117403e-01
2.072736e-01
2.030236e-01
1.986292e-01
1.939043e-01
1.888075e-01
1.833274e-01
1.775172e-01
1.715469e-01
1.656398e-01
1.599317e-01
1.543971e-01
1.489277e-01
1.434150e-01
1.376956e-01
1.314911e-01
1.245050e-01
1.166114e-01
1.079819e-01
9.906724e-02
9.044542e-02
8.260774e-02
7.579642e-02
6.999062e-02
6.500285e-02
6.058983e-02
5.654722e-02
5.276613e-02
4.923248e-02
4.597987e-02
4.301400e-02
4.027578e-02
3.769115e-02
3.524154e-02
3.298643e-02
3.103208e-02
2.944573e-02
2.816653e-02
2.704543e-02
2.600459e-02
2.509965e-02
2.441719e-02
2.399003e-02
2.383080e-02
2.396019e-02
2.433308e-02
2.477981e-02
2.510525e-02
2.527937e-02
2.549315e-02
2.600319e-02
2.694132e-02
2.824171e-02
2.970409e-02
3.112623e-02
3.237425e-02
3.335787e-02
3.403799e-02
