EVENT_NAME: EMILIA_2ND_SHOCK
EVENT_ID: IT-2012-0011
EVENT_DATE_YYYYMMDD: 20120529
EVENT_TIME_HHMMSS: 070002
EVENT_LATITUDE_DEGREE: 44.8417
EVENT_LONGITUDE_DEGREE: 11.0657
EVENT_DEPTH_KM: 8.1
HYPOCENTER_REFERENCE: INGV-CNT_Seismic_Bulletin
MAGNITUDE_W: 6.0
MAGNITUDE_W_REFERENCE: RCMT-INGV
MAGNITUDE_L: 5.8
MAGNITUDE_L_REFERENCE: INGV-CNT_Seismic_Bulletin
FOCAL_MECHANISM: TF
NETWORK: IT
STATION_CODE: SAN0
STATION_NAME: SAN FELICE SUL PANARO
STATION_LATITUDE_DEGREE: 44.838000
STATION_LONGITUDE_DEGREE: 11.143000
STATION_ELEVATION_M: 71
LOCATION: 
SENSOR_DEPTH_M: 0.0
VS30_M/S: 
SITE_CLASSIFICATION_EC8: C*
MORPHOLOGIC_CLASSIFICATION: 
EPICENTRAL_DISTANCE_KM: 6.1
EARTHQUAKE_BACKAZIMUTH_DEGREE: 273.9
DATE_TIME_FIRST_SAMPLE_YYYYMMDD_HHMMSS: 20120529_065933.000
DATE_TIME_FIRST_SAMPLE_PRECISION: seconds
SAMPLING_INTERVAL_S: 0.005000
NDATA: 34001
DURATION_S: 170.005
STREAM: HNN
UNITS: cm/s
INSTRUMENT: sensor = Episensor FBA ES-T [Kinemetrics] | digitizer = Etna [Kinemetrics]
INSTRUMENT_ANALOG/DIGITAL: D
INSTRUMENTAL_FREQUENCY_HZ: 
INSTRUMENTAL_DAMPING: 
FULL_SCALE_G: 
N_BIT_DIGITAL_CONVERTER: 18
PGV_CM/S: 35.255364
TIME_PGV_S: 37.335000
BASELINE_CORRECTION: BASELINE REMOVED
FILTER_TYPE: BUTTERWORTH
FILTER_ORDER: 2
LOW_CUT_FREQUENCY_HZ: 0.060
HIGH_CUT_FREQUENCY_HZ: 50.000
LATE/NORMAL_TRIGGERED: NT
DATABASE_VERSION: DYNA 1.0
HEADER_FORMAT: DYNA 1.2
DATA_TYPE: VELOCITY
PROCESSING: manual (Paolucci et al., 2011)
DATA_TIMESTAMP_YYYYMMDD_HHMMSS: 
DATA_LICENSE: CC-BY3_0-IT (http://creativecommons.org/licenses/by/3.0/deed.en)
DATA_CITATION: ESM working group (2015), European Strong-Motion database, version 0.1, Network Activity 3: Networking acceleration networks and SM data users. Project NERA (www.nera-eu.org)
DATA_CREATOR: ESM working group
ORIGINAL_DATA_MEDIATOR_CITATION: Ufficio Rischio Sismico e Vulcanico del Dipartimento della Protezione Civile (http://www.protezionecivile.gov.it/)
ORIGINAL_DATA_MEDIATOR: Rete Accelerometrica Nazionale - RAN Download (http://www.mot1.it/randownload/)
ORIGINAL_DATA_CREATOR_CITATION: Italian Strong Motion Network, Italian Civil Protection Department http://www.protezionecivile.gov.it
ORIGINAL_DATA_CREATOR: network: IT (Italian Strong Motion Network); owner: Dipartimento Della Protezione Civile
USER1: 
USER2: 
USER3: 
USER4: 
USER5: 
[...]
0.035363
0.035413
0.035465
0.035486
0.035488
0.035499
0.035509
0.035513
0.035535
0.035577
0.035601
0.035600
0.035605
0.035622
0.035632
0.035638
0.035649
0.035657
0.035647
0.035623
0.035624
0.035664
0.035695
0.035676
0.035640
0.035629
0.035629
0.035623
0.035628
0.035651
0.035661
0.035645
0.035625
0.035617
0.035608
0.035588
0.035585
0.035615
0.035642
0.035633
0.035613
0.035614
0.035628
0.035645
0.035677
0.035722
0.035753
0.035762
0.035769
0.035788
0.035806
0.035808
0.035809
0.035815
0.035802
0.035766
0.035741
0.035747
0.035755
0.035737
0.035719
0.035729
0.035753
0.035758
0.035750
0.035750
0.035756
0.035750
0.035740
0.035742
0.035745
0.035739
0.035733
0.035735
0.035726
0.035694
0.035661
0.035642
0.035619
0.035579
0.035546
0.035542
0.035544
0.035522
0.035482
0.035448
0.035417
0.035376
0.035343
0.035333
0.035318
0.035280
0.035244
0.035229
0.035225
0.035220
0.035222
0.035232
0.035237
0.035238
0.035256
0.035297
0.035342
0.035370
0.035394
0.035420
0.035429
0.035415
0.035404
0.035417
0.035434
0.035432
0.035426
0.035437
0.035446
0.035428
0.035394
0.035363
0.035335
0.035310
0.035297
0.035293
0.035269
0.035223
0.035185
0.035160
0.035129
0.035097
0.035086
0.035095
0.035093
0.035067
0.035044
0.035040
0.035031
0.034998
0.034965
0.034938
0.034906
0.034876
0.034869
0.034880
0.034875
0.034833
0.034772
0.034732
0.034722
0.034717
0.034704
0.034691
0.034661
0.034602
0.034546
0.034518
0.034492
0.034452
0.034422
0.034411
0.034392
0.034356
0.034332
0.034332
0.034321
0.034281
0.034244
0.034234
0.034219
0.034180
0.034158
0.034165
0.034157
0.034115
0.034066
0.034017
0.033959
0.033904
0.033871
0.033855
0.033820
0.033747
0.033662
0.033605
0.033578
0.033547
0.033498
0.033449
0.033409
0.033367
0.033328
0.033303
0.033289
0.033273
0.033244
0.033209
0.033180
0.033157
0.033144
0.033140
0.033122
0.033079
0.033037
0.033011
0.032975
0.032908
0.032845
0.032818
0.032803
0.032764
0.032719
0.032695
0.032674
0.032630
0.032566
0.032498
0.032426
0.032358
0.032311
0.032275
0.032225
0.032160
0.032104
0.032067
0.032031
0.031984
0.031947
0.031933
0.031910
0.031850
0.031776
0.031712
0.031656
0.031602
0.031568
0.031547
0.031511
0.031447
0.031383
0.031332
0.031268
0.031182
0.031108
0.031068
0.031040
0.030998
0.030951
0.030910
0.030859
0.030795
0.030743
0.030705
0.030664
0.030614
0.030564
0.030509
0.030437
0.030357
0.030289
0.030231
0.030171
0.030113
0.030069
0.030036
0.030005
0.029965
0.029895
0.029785
0.029661
0.029583
0.029618
0.029767
0.029920
0.029910
0.029615
0.029010
0.028203
0.027385
0.026651
0.026046
0.025753
0.025794
0.025675
0.024981
0.024063
0.023483
0.023226
0.022845
0.021761
0.019376
0.015798
0.012197
0.009775
0.009075
0.010452
0.013587
0.016519
0.016928
0.014185
0.009489
0.005125
0.003550
0.005415
0.008376
0.009454
0.008708
0.009091
0.012736
0.018550
0.023139
0.023459
0.019301
0.013756
0.010776
0.011973
0.016014
0.020743
0.024793
0.027032
0.026139
0.022312
0.018503
0.017771
0.019603
0.021071
0.021440
0.022917
0.026665
0.030487
0.030657
0.025087
0.015503
0.006931
0.003977
0.007093
0.012197
0.013697
0.009237
0.002338
-0.001095
0.001009
0.005735
0.008951
0.008034
0.003020
-0.002464
-0.003566
0.000399
0.004213
0.001881
-0.006505
-0.014124
-0.014418
-0.007115
0.002777
0.008541
0.005179
-0.005806
-0.015504
-0.014770
-0.001801
0.016738
0.029359
0.027264
0.011828
-0.007424
-0.022468
-0.031038
-0.033086
-0.028588
-0.019679
-0.011729
-0.010991
-0.020424
-0.035510
-0.045730
-0.044418
-0.035876
-0.029753
-0.031519
-0.040999
-0.056303
-0.074851
-0.090848
-0.095927
-0.086545
-0.068976
-0.051929
-0.037073
-0.021116
-0.001144
0.024363
0.052117
0.071877
0.075270
0.066380
0.057453
0.054115
0.051595
0.046770
0.044601
0.048123
0.051528
0.048921
0.041786
0.034761
0.031347
0.033353
0.039789
0.047373
0.051750
0.049579
0.042653
0.035651
0.028934
0.019901
0.008929
-0.002554
-0.016881
-0.037329
-0.061452
-0.081116
-0.089514
-0.085894
-0.074306
-0.061386
-0.054211
-0.055277
-0.059812
-0.060194
-0.051613
-0.034529
-0.013653
0.006570
0.024228
0.037015
0.041539
0.036491
0.022797
0.002299
-0.019504
-0.032162
-0.027883
-0.010996
0.005480
0.014489
0.019564
0.022910
0.018616
0.000138
-0.033328
-0.076330
-0.117654
-0.144420
-0.148284
-0.129822
-0.100183
-0.073754
-0.055295
-0.038936
-0.019130
0.002672
0.020026
0.026447
0.017546
-0.010051
-0.054184
-0.101656
-0.137776
-0.157862
-0.162111
-0.152116
-0.137364
-0.128557
-0.122995
-0.108385
-0.077827
-0.034504
0.012484
0.050136
0.063784
0.045509
-0.000536
-0.063026
-0.128123
-0.181212
-0.214605
-0.233505
-0.247307
-0.256064
-0.249631
-0.220321
-0.173637
-0.122542
-0.074105
-0.029311
0.007971
0.030594
0.034381
0.020192
-0.008787
-0.048727
-0.093150
-0.132862
-0.161404
-0.178311
-0.186207
-0.188928
-0.192689
-0.203870
-0.222371
-0.239945
-0.249338
-0.251656
-0.250163
-0.243719
-0.232422
-0.221452
-0.212451
-0.199136
-0.178436
-0.158080
-0.145513
-0.136262
-0.120135
-0.094000
-0.063672
-0.035960
-0.013375
0.004649
0.021565
0.043498
0.072130
0.099753
0.116789
0.120631
0.114339
0.101988
0.086161
0.064753
0.030286
-0.023940
-0.096393
-0.177122
-0.254981
-0.323427
-0.379135
-0.417832
-0.433870
-0.425030
-0.398873
-0.372947
-0.365051
-0.381286
-0.413130
-0.444495
-0.460566
-0.453688
-0.426415
-0.390031
-0.358512
-0.341035
-0.336335
-0.334965
-0.329676
-0.319729
-0.303482
-0.274836
-0.231484
-0.181895
-0.141180
-0.122152
-0.130460
-0.163954
-0.214134
-0.270784
-0.327216
-0.380353
-0.427146
-0.463549
-0.487711
-0.504244
-0.523424
-0.552558
-0.588247
-0.618803
-0.633388
-0.630109
-0.618626
-0.613909
-0.623402
-0.639543
-0.646769
-0.634846
-0.602762
-0.553589
-0.493612
-0.436292
-0.399293
-0.392550
-0.409286
-0.430357
-0.437351
-0.421731
-0.384941
-0.333446
-0.275284
-0.221270
-0.186221
-0.183379
-0.212835
-0.256278
-0.288935
-0.298496
-0.289788
-0.273224
-0.254470
-0.235369
-0.218477
-0.204708
-0.188776
-0.165496
-0.142264
-0.137558
-0.161702
-0.203006
-0.238941
-0.258207
-0.266470
-0.274851
-0.288463
-0.303271
-0.310118
-0.301015
-0.272908
-0.229775
-0.182891
-0.146005
-0.128287
-0.130696
-0.146479
-0.164991
-0.177423
-0.179973
-0.172037
-0.153147
-0.123401
-0.086306
-0.048757
-0.017652
0.001546
0.004106
-0.011662
-0.041521
-0.077909
-0.114798
-0.148136
-0.171404
-0.172584
-0.141308
-0.081528
-0.010368
0.056798
0.111416
0.144288
0.146960
0.123130
0.089843
0.064414
0.054008
0.057585
0.071334
0.090834
0.115508
0.152093
0.206183
0.270233
0.325975
0.359713
0.372630
0.374733
0.371228
0.359007
0.335247
0.304400
0.275124
0.253415
0.243049
0.251640
0.289409
0.358689
0.446487
0.527685
0.576648
0.582538
0.556348
0.518205
0.478654
0.436128
0.387257
0.334686
0.287295
0.253781
0.235808
0.228792
0.228120
0.232921
0.245178
0.266618
0.295774
0.326555
0.349784
0.358820
0.355554
0.348949
0.346824
0.351496
0.362099
0.375473
0.385624
0.391508
0.407583
0.456761
0.546778
0.658822
0.764611
0.849859
0.916135
0.967840
1.006821
1.035626
1.058265
1.078284
1.099636
1.127557
1.163036
1.197035
1.217747
1.225535
1.235557
1.264588
1.318759
1.392807
1.475781
1.559046
1.644867
1.744309
1.863299
1.998586
2.148268
2.313231
2.486738
2.655700
2.814624
2.969395
3.126336
3.285007
3.444385
3.609577
3.787725
3.982205
4.195224
4.431538
4.690212
4.952520
5.193821
5.410618
5.617716
5.821096
6.010787
6.169379
6.272492
6.294677
6.224252
6.061268
5.804995
5.459161
5.043284
4.585996
4.110996
3.637129
3.188231
2.788249
2.441027
2.127710
1.828224
1.533406
1.241270
0.961296
0.719615
0.542545
0.434585
0.380269
0.362551
0.369784
0.389307
0.406761
0.412975
0.405408
0.384483
0.355582
0.333930
0.338615
0.377905
0.444334
0.525711
0.616372
0.715421
0.822065
0.941693
1.092514
1.297847
1.571835
1.915440
2.322908
2.776693
3.218274
3.536535
3.624788
3.459895
3.103126
2.630836
2.092581
1.519353
0.931125
0.334568
-0.267457
-0.866408
-1.456616
-2.040483
-2.613763
-3.165528
-3.704654
-4.268324
-4.895240
-5.584317
-6.265439
-6.822721
-7.176892
-7.344850
-7.399712
-7.390275
-7.317377
-7.159500
-6.911241
-6.611997
-6.318296
-6.046252
-5.777446
-5.510597
-5.266170
-5.056547
-4.885612
-4.763264
-4.704349
-4.721736
-4.815541
-4.957698
-5.096961
-5.191681
-5.231554
-5.223009
-5.163871
-5.037374
-4.825835
-4.528295
-4.168291
-3.785678
-3.414057
-3.059787
-2.706709
-2.339218
-1.951640
-1.548499
-1.158027
-0.836811
-0.639311
-0.583170
-0.650118
-0.809987
-1.034724
-1.299161
-1.590292
-1.923443
-2.327297
-2.802159
-3.315420
-3.841072
-4.376435
-4.920226
-5.463399
-6.004116
-6.547280
-7.088311
-7.614791
-8.118727
-8.598954
-9.064864
-9.537706
-10.031630
-10.540190
-11.050700
-11.547900
-11.993450
-12.334740
-12.552360
-12.678570
-12.760620
-12.824500
-12.881560
-12.946110
-13.025740
-13.107210
-13.170360
-13.208410
-13.221190
-13.199870
-13.133070
-13.016040
-12.841040
-12.592180
-12.262010
-11.861530
-11.408640
-10.917670
-10.397790
-9.851128
-9.274440
-8.669956
-8.054888
-7.457634
-6.906875
-6.419735
-5.996594
-5.631489
-5.314253
-5.018786
-4.716728
-4.399319
-4.068164
-3.730836
-3.412343
-3.139490
-2.919142
-2.745995
-2.611130
-2.499645
-2.398661
-2.307115
-2.231726
-2.178441
-2.149823
-2.142194
-2.136325
-2.100258
-2.021465
-1.929926
-1.866403
-1.842024
-1.850482
-1.891670
-1.961615
-2.047150
-2.146964
-2.278474
-2.457117
-2.679316
-2.920417
-3.146217
-3.335352
-3.487957
-3.614445
-3.726132
-3.834136
-3.948882
-4.075485
-4.211222
-4.351151
-4.490520
-4.621678
-4.739459
-4.848836
-4.958578
-5.068756
-5.169219
-5.247868
-5.296603
-5.314815
-5.311690
-5.298365
-5.282135
-5.276733
-5.305368
-5.382630
-5.499077
-5.628952
-5.751804
-5.863981
-5.972245
-6.084608
-6.209018
-6.351655
-6.508945
-6.665694
-6.805611
-6.914070
-6.970064
-6.956401
-6.883479
-6.790898
-6.720180
-6.681760
-6.652649
-6.614858
-6.581906
-6.580485
-6.626628
-6.720902
-6.849756
-6.993359
-7.142636
-7.307849
-7.504698
-7.736627
-7.996135
-8.273834
-8.557883
-8.833060
-9.085659
-9.295990
-9.431491
-9.471849
-9.432811
-9.351772
-9.261667
-9.180063
-9.112686
-9.055688
-8.991349
-8.900550
-8.787606
-8.675825
-8.577037
-8.486179
-8.405624
-8.349906
-8.327037
-8.337613
-8.387463
-8.484653
-8.627249
-8.797905
-8.969326
-9.118255
-9.234683
-9.317325
-9.361297
-9.354416
-9.291118
-9.180252
-9.030256
-8.839141
-8.606596
-8.347147
-8.085411
-7.839664
-7.611251
-7.391712
-7.178501
-6.972189
-6.759241
-6.517836
-6.245770
-5.969605
-5.722403
-5.520407
-5.360854
-5.226162
-5.087392
-4.919386
-4.715676
-4.489077
-4.263533
-4.058558
-3.877709
-3.711748
-3.541775
-3.342271
-3.106608
-2.875139
-2.706549
-2.616310
-2.577754
-2.572550
-2.603582
-2.675702
-2.790096
-2.949980
-3.154046
-3.376821
-3.581225
-3.765803
-3.971663
-4.239268
-4.578753
-4.975710
-5.406565
-5.844193
-6.267435
-6.678417
-7.094912
-7.517215
-7.915314
-8.251812
-8.508596
-8.692341
-8.822512
-8.909889
-8.943294
-8.909476
-8.819634
-8.692380
-8.522138
-8.291184
-7.999237
-7.661413
-7.290515
-6.890755
-6.459272
-5.993974
-5.507457
-5.027023
-4.570444
-4.126570
-3.665788
-3.163301
-2.612717
-2.026612
-1.426291
-0.826794
-0.228120
0.381330
1.013735
1.672243
2.348836
3.030956
3.710002
4.381093
5.040509
5.694622
6.366043
7.074950
7.812448
8.544013
9.244034
9.917557
10.585760
11.261530
11.941060
12.613780
13.282050
13.964900
14.672950
15.391970
16.102461
16.798000
17.472071
18.103180
18.663719
19.130131
19.480270
19.696011
19.772881
19.722191
19.563190
19.310101
18.977060
18.612869
18.315599
18.185169
18.254641
18.470160
18.738701
18.989470
19.189159
19.320480
19.369070
19.331169
19.220850
19.060711
18.866350
18.643021
18.391649
18.112591
17.802340
17.447689
17.030149
16.537491
15.966920
15.321870
14.608560
13.832520
12.995080
12.089510
11.107440
10.059620
8.979660
7.898662
6.831672
5.795954
4.831461
3.994304
3.323726
2.817051
2.441442
2.161195
1.949158
1.780583
1.623279
1.444036
1.231927
1.005147
0.788140
0.589634
0.402509
0.215915
0.028230
-0.147229
-0.292330
-0.399804
-0.470304
-0.495512
-0.458080
-0.348635
-0.170296
0.071615
0.372956
0.725385
1.116747
1.541113
2.007560
2.533386
3.124573
3.767202
4.440270
5.130773
5.834317
6.551586
7.291733
8.069912
8.896005
9.773546
10.705070
11.685410
12.694810
13.710420
14.721320
15.725210
16.714109
17.671221
18.581240
19.438990
20.247850
21.012770
21.741110
22.453550
23.184250
23.956310
24.748079
25.489510
26.112040
26.601471
26.986750
27.295839
27.547010
27.759930
27.946510
28.101490
28.216499
28.298100
28.366880
28.439430
28.515841
28.587740
28.655960
28.738621
28.863970
29.059870
29.351200
29.758650
30.293190
30.950480
31.697990
32.457722
33.132679
33.679211
34.126919
34.514172
34.837292
35.071030
35.206760
35.255360
35.228748
35.128700
34.947090
34.672550
34.299389
33.835911
33.308960
32.755241
32.198051
31.637609
31.073950
30.524719
30.003611
29.493019
28.957899
28.379030
27.757040
27.095221
26.391390
25.641220
24.845310
24.011990
23.152941
22.279961
21.405899
20.548071
19.729839
18.969669
18.270081
17.624889
17.027491
16.468651
15.937030
15.424340
14.925500
14.430120
13.917050
13.362710
12.748090
12.053490
11.257090
10.349200
9.351636
8.316452
7.295435
6.320207
5.424926
4.668814
4.108997
3.752511
3.554659
3.469108
3.478030
3.571566
3.731729
3.943853
4.201297
4.496877
4.820338
5.164024
5.525323
5.903734
6.301012
6.721254
7.163542
7.617949
8.073027
8.523977
8.972166
9.416908
9.849665
10.261070
10.648470
11.008290
11.328790
11.598950
11.814880
11.970590
12.055190
12.064260
12.003000
11.878620
11.695890
11.458400
11.170940
10.839650
10.473120
10.084990
9.685732
9.267434
8.808267
8.296428
7.740401
7.151568
6.525610
5.847425
5.106834
4.304174
3.448292
2.552596
1.629023
0.684608
-0.279506
-1.268291
-2.286749
-3.331020
-4.388044
-5.443734
-6.491322
-7.532549
-8.567849
-9.581354
-10.534370
-11.378080
-12.080630
-12.642960
-13.085430
-13.423630
-13.662860
-13.809700
-13.881630
-13.907940
-13.922060
-13.949470
-14.001690
-14.077720
-14.165570
-14.247130
-14.309800
-14.355990
-14.401620
-14.463870
-14.549780
-14.656310
-14.774150
-14.888070
-14.983410
-15.054440
-15.100350
-15.118110
-15.106500
-15.072580
-15.029470
-14.987590
-14.945420
-14.889410
-14.807620
-14.700350
-14.571040
-14.411150
-14.202360
-13.933150
-13.609320
-13.249570
-12.875550
-12.508040
-12.165340
-11.858690
-11.597970
-11.409600
-11.334790
-11.397080
-11.581100
-11.849940
-12.172030
-12.527330
-12.901700
-13.284600
-13.672780
-14.074160
-14.502630
-14.965240
-15.454270
-15.948040
-16.416170
-16.828320
-17.164869
-17.426210
-17.636530
-17.832529
-18.039770
-18.256941
-18.460390
-18.621550
-18.725800
-18.779970
-18.799299
-18.789841
-18.749809
-18.681810
-18.593361
-18.488220
-18.366131
-18.230370
-18.087021
-17.936970
-17.775789
-17.603291
-17.434290
-17.302490
-17.247841
-17.288891
-17.403700
-17.543880
-17.671049
-17.776279
-17.866791
-17.944380
-18.000811
-18.029869
-18.036909
-18.031981
-18.016520
-17.982040
-17.921110
-17.836929
-17.740721
-17.643089
-17.553539
-17.485590
-17.453011
-17.460831
-17.505779
-17.586639
-17.710489
-17.886820
-18.116961
-18.391850
-18.700159
-19.035379
-19.395321
-19.777781
-20.175920
-20.576170
-20.961781
-21.318680
-21.639860
-21.929029
-22.202190
-22.479710
-22.769730
-23.056789
-23.306860
-23.486910
-23.584629
-23.608999
-23.574030
-23.488920
-23.363371
-23.212379
-23.050020
-22.881420
-22.702940
-22.506720
-22.285540
-22.038980
-21.776340
-21.510241
-21.246889
-20.984779
-20.718660
-20.439680
-20.136471
-19.803659
-19.447229
-19.077160
-18.695721
-18.294970
-17.863920
-17.395639
-16.889681
-16.349630
-15.777530
-15.171130
-14.527710
-13.850220
-13.150500
-12.446220
-11.753080
-11.080660
-10.436070
-9.827084
-9.260599
-8.744022
-8.292579
-7.930951
-7.679613
-7.536955
-7.479111
-7.478721
-7.517409
-7.579913
-7.646855
-7.696779
-7.710570
-7.674921
-7.584161
-7.437610
-7.236097
-6.981976
-6.680244
-6.339805
-5.974348
-5.597859
-5.216652
-4.827680
-4.426268
-4.015751
-3.609399
-3.223800
-2.869952
-2.547579
-2.248273
-1.966091
-1.703944
-1.469327
-1.265945
-1.092296
-0.947025
-0.829145
-0.731938
-0.642361
-0.548007
-0.440948
-0.314337
-0.158963
0.035160
0.275549
0.567144
0.913756
1.316983
1.773684
2.274667
2.805345
3.349499
3.894553
4.433199
4.961489
5.477895
5.982961
6.478759
6.969020
7.457536
7.945541
8.432900
8.921041
9.411817
9.905225
10.401360
10.903280
11.417130
11.950460
12.507250
13.079940
13.645950
14.175170
14.643680
15.041150
15.367600
15.627360
15.825870
15.970430
16.071400
16.140249
16.187531
16.222940
16.254761
16.288630
16.326731
16.367510
16.407049
16.440340
16.461349
16.464560
16.448521
16.416870
16.374281
16.321659
16.256081
16.175230
16.081591
15.982980
15.890240
15.813630
15.759450
15.728380
15.717100
15.721040
15.735430
15.755390
15.776790
15.796790
15.814080
15.828430
15.839040
15.843950
15.841170
15.828810
15.805820
15.774830
15.741360
15.707980
15.672500
15.631070
15.578540
15.507740
15.412520
15.290110
15.141250
14.970990
14.788130
14.601060
14.414680
14.231650
14.056530
13.898260
13.767360
13.666330
13.579050
13.474360
13.327980
13.140660
12.931810
12.717970
12.500250
12.270720
12.025410
11.766650
11.496450
11.213200
10.913600
10.595380
10.260300
9.915998
9.575548
9.257890
8.986235
8.779082
8.639318
8.552232
8.494309
8.444897
8.392270
8.332752
8.266815
8.196112
8.122879
8.049553
7.977354
7.906670
7.839462
7.779559
7.729907
7.690464
7.659510
7.636763
7.624425
7.624947
7.638610
7.663311
7.694253
7.723214
7.741046
7.741311
7.720286
7.675697
7.606884
7.513440
7.392606
7.241623
7.065464
6.879427
6.698914
6.526025
6.349697
6.158986
5.953101
5.739608
5.526804
5.318522
5.114755
4.915298
4.720415
4.527814
4.331424
4.123888
3.899241
3.653609
3.384646
3.091335
2.774549
2.436468
2.078926
1.704642
1.321764
0.945614
0.593208
0.273880
-0.016248
-0.290991
-0.564655
-0.844447
-1.129079
-1.408811
-1.663999
-1.870178
-2.012120
-2.092501
-2.126761
-2.134313
-2.134080
-2.141711
-2.167563
-2.217391
-2.293810
-2.395844
-2.518210
-2.652271
-2.788301
-2.918939
-3.042551
-3.163504
-3.288827
-3.423757
-3.568667
-3.718982
-3.867521
