EVENT_NAME: EMILIA_2ND_SHOCK
EVENT_ID: IT-2012-0011
EVENT_DATE_YYYYMMDD: 20120529
EVENT_TIME_HHMMSS: 070002
EVENT_LATITUDE_DEGREE: 44.8417
EVENT_LONGITUDE_DEGREE: 11.0657
EVENT_DEPTH_KM: 8.1
HYPOCENTER_REFERENCE: INGV-CNT_Seismic_Bulletin
MAGNITUDE_W: 6.0
MAGNITUDE_W_REFERENCE: RCMT-INGV
MAGNITUDE_L: 5.8
MAGNITUDE_L_REFERENCE: INGV-CNT_Seismic_Bulletin
FOCAL_MECHANISM: TF
NETWORK: IT
STATION_CODE: SAN0
STATION_NAME: SAN FELICE SUL PANARO
STATION_LATITUDE_DEGREE: 44.838000
STATION_LONGITUDE_DEGREE: 11.143000
STATION_ELEVATION_M: 71
LOCATION: 
SENSOR_DEPTH_M: 0.0
VS30_M/S: 
SITE_CLASSIFICATION_EC8: C*
MORPHOLOGIC_CLASSIFICATION: 
EPICENTRAL_DISTANCE_KM: 6.1
EARTHQUAKE_BACKAZIMUTH_DEGREE: 273.9
DATE_TIME_FIRST_SAMPLE_YYYYMMDD_HHMMSS: 20120529_065933.000
DATE_TIME_FIRST_SAMPLE_PRECISION: seconds
SAMPLING_INTERVAL_S: 0.005000
NDATA: 34001
DURATION_S: 170.005
STREAM: HNN
UNITS: cm/s^2
INSTRUMENT: sensor = Episensor FBA ES-T [Kinemetrics] | digitizer = Etna [Kinemetrics]
INSTRUMENT_ANALOG/DIGITAL: D
INSTRUMENTAL_FREQUENCY_HZ: 
INSTRUMENTAL_DAMPING: 
FULL_SCALE_G: 
N_BIT_DIGITAL_CONVERTER: 18
PGA_CM/S^2: -216.199539
TIME_PGA_S: 36.865000
BASELINE_CORRECTION: BASELINE REMOVED
FILTER_TYPE: BUTTERWORTH
FILTER_ORDER: 2
LOW_CUT_FREQUENCY_HZ: 0.060
HIGH_CUT_FREQUENCY_HZ: 50.000
LATE/NORMAL_TRIGGERED: NT
DATABASE_VERSION: DYNA 1.0
HEADER_FORMAT: DYNA 1.2
DATA_TYPE: ACCELERATION
PROCESSING: manual (Paolucci et al., 2011)
DATA_TIMESTAMP_YYYYMMDD_HHMMSS: 
DATA_LICENSE: CC-BY3_0-IT (http://creativecommons.org/licenses/by/3.0/deed.en)
DATA_CITATION: ESM working group (2015), European Strong-Motion database, version 0.1, Network Activity 3: Networking acceleration networks and SM data users. Project NERA (www.nera-eu.org)
DATA_CREATOR: ESM working group
ORIGINAL_DATA_MEDIATOR_CITATION: Ufficio Rischio Sismico e Vulcanico del Dipartimento della Protezione Civile (http://www.protezionecivile.gov.it/)
ORIGINAL_DATA_MEDIATOR: Rete Accelerometrica Nazionale - RAN Download (http://www.mot1.it/randownload/)
ORIGINAL_DATA_CREATOR_CITATION: Italian Strong Motion Network, Italian Civil Protection Department http://www.protezionecivile.gov.it
ORIGINAL_DATA_CREATOR: network: IT (Italian Strong Motion Network); owner: Dipartimento Della Protezione Civile
USER1: 
USER2: 
USER3: 
USER4: 
USER5: 
[...]
0.008631
0.007954
0.003035
-0.001271
-0.000353
0.003290
0.003458
0.000336
0.000794
0.005872
0.006398
0.000607
-0.000402
0.005236
0.007879
0.005833
0.004132
0.002983
0.000293
-0.002541
-0.002775
-0.001294
-0.001949
-0.003641
-0.001431
0.001903
0.000909
-0.000545
0.002779
0.007146
0.007046
0.004428
0.003374
0.002941
0.000623
-0.002433
-0.001592
0.003876
0.006913
0.004896
0.005261
0.009936
0.010351
0.004210
0.000443
0.002128
0.002125
0.000621
0.004430
0.008536
0.004763
-0.000242
0.001077
0.003285
0.002071
0.001218
0.002068
0.001602
-0.001921
-0.004687
0.000051
0.008011
0.006169
-0.003748
-0.007124
-0.002337
0.000007
-0.001145
0.001050
0.004477
0.002178
-0.003202
-0.004106
-0.001547
-0.001890
-0.003917
-0.000608
0.005966
0.005402
-0.001740
-0.004001
0.000126
0.002787
0.003510
0.006412
0.008828
0.006280
0.001808
0.001323
0.003871
0.003595
0.000489
0.000168
0.001180
-0.002587
-0.007325
-0.004991
0.001259
0.001536
-0.003530
-0.003684
0.002092
0.004709
0.001174
-0.001761
0.000097
0.001274
-0.001220
-0.001975
0.000246
0.000658
-0.001200
-0.001180
0.000362
-0.001824
-0.006444
-0.006585
-0.003686
-0.004656
-0.007988
-0.006500
-0.000888
0.000483
-0.004396
-0.008061
-0.006765
-0.006171
-0.008287
-0.006585
-0.001984
-0.002999
-0.007608
-0.007229
-0.002919
-0.000950
-0.000966
0.000483
0.001962
0.000953
0.000233
0.003506
0.008295
0.008909
0.005752
0.004712
0.005268
0.001850
-0.002942
-0.002138
0.002635
0.003404
-0.000498
-0.001175
0.002223
0.001723
-0.003594
-0.006744
-0.006117
-0.005600
-0.005155
-0.002472
-0.000904
-0.004832
-0.009140
-0.007603
-0.005002
-0.006156
-0.006411
-0.002134
0.001756
-0.000367
-0.005158
-0.004717
-0.000738
-0.001905
-0.006445
-0.006727
-0.005272
-0.006470
-0.006062
-0.001345
0.002165
-0.000923
-0.008429
-0.012226
-0.007965
-0.001932
-0.001126
-0.002504
-0.002662
-0.005992
-0.011788
-0.011218
-0.005699
-0.005166
-0.007906
-0.006022
-0.002306
-0.003714
-0.007108
-0.004844
-0.000086
-0.002061
-0.008131
-0.007403
-0.001894
-0.003087
-0.007731
-0.004431
0.001360
-0.001679
-0.008269
-0.009780
-0.009795
-0.011597
-0.011092
-0.006573
-0.003256
-0.006912
-0.014674
-0.017003
-0.011274
-0.005437
-0.006191
-0.009872
-0.009782
-0.008017
-0.008390
-0.007812
-0.005059
-0.002807
-0.003047
-0.005787
-0.007100
-0.005770
-0.004541
-0.002659
-0.000872
-0.003548
-0.008490
-0.008468
-0.005144
-0.007271
-0.013395
-0.012700
-0.005239
-0.003072
-0.007818
-0.008893
-0.004836
-0.004190
-0.008949
-0.012801
-0.013558
-0.014373
-0.013628
-0.009454
-0.007202
-0.009936
-0.012870
-0.011299
-0.007428
-0.007123
-0.009426
-0.007476
-0.002806
-0.004537
-0.011926
-0.014970
-0.012616
-0.011361
-0.010642
-0.006963
-0.004064
-0.007311
-0.012826
-0.012721
-0.010140
-0.012936
-0.017211
-0.014718
-0.007925
-0.005633
-0.008474
-0.009440
-0.008219
-0.010135
-0.012680
-0.010541
-0.007515
-0.008303
-0.009930
-0.009947
-0.011085
-0.014449
-0.015974
-0.013588
-0.011525
-0.012005
-0.011568
-0.008900
-0.006622
-0.006069
-0.008056
-0.014085
-0.021908
-0.024812
-0.015601
0.006950
0.029830
0.030568
-0.001938
-0.058954
-0.121099
-0.161400
-0.163634
-0.146801
-0.121012
-0.058508
0.008227
-0.023915
-0.138767
-0.183636
-0.115864
-0.051498
-0.076131
-0.216901
-0.476827
-0.715719
-0.720210
-0.484309
-0.140083
0.275350
0.627056
0.586499
0.081694
-0.548649
-0.939180
-0.872770
-0.315061
0.373082
0.592118
0.215626
-0.149237
0.076685
0.728978
1.162837
0.917841
0.063869
-0.831573
-1.108910
-0.596048
0.239469
0.808158
0.945768
0.810107
0.447719
-0.178599
-0.765304
-0.761967
-0.146301
0.366439
0.293487
0.073912
0.295275
0.749672
0.764355
0.034080
-1.114016
-1.916861
-1.714322
-0.590889
0.623295
1.020808
0.299862
-0.891855
-1.379906
-0.686590
0.420806
0.945197
0.643279
-0.183381
-1.002848
-1.096863
-0.220285
0.792934
0.762870
-0.466466
-1.677272
-1.523685
-0.058771
1.460545
1.978340
1.152888
-0.672439
-2.197087
-1.939507
0.146684
2.593840
3.707831
2.524306
-0.419173
-3.087028
-3.850451
-3.008852
-1.713903
-0.409763
0.899735
1.781691
1.590026
0.147653
-1.886654
-3.017261
-2.043856
0.262308
1.708483
1.224561
-0.353166
-1.895969
-3.060868
-3.709665
-3.199314
-1.015838
1.876347
3.513894
3.409463
2.971152
3.191431
3.994367
5.101293
5.550899
3.951976
0.678576
-1.778053
-1.785402
-0.667467
-0.504076
-0.965049
-0.433731
0.704409
0.681071
-0.521580
-1.426877
-1.404953
-0.682875
0.401106
1.287299
1.516692
0.875573
-0.434306
-1.385210
-1.400440
-1.343308
-1.806605
-2.194333
-2.296702
-2.865393
-4.089562
-4.824557
-3.932865
-1.679538
0.723942
2.317546
2.584075
1.435070
-0.213267
-0.907034
-0.076327
1.716114
3.416899
4.175047
4.044621
3.531717
2.557286
0.904924
-1.009740
-2.738816
-4.099472
-4.360712
-2.531438
0.855623
3.377438
3.295210
1.801926
1.014944
0.669165
-0.858767
-3.695692
-6.693072
-8.600524
-8.264813
-5.353126
-0.772803
3.692423
5.927755
5.285796
3.691733
3.271819
3.961276
4.360432
3.470734
1.284264
-1.780293
-5.519398
-8.826579
-9.494420
-7.223965
-4.017160
-0.849725
1.998844
2.950437
1.761383
1.112532
2.921863
6.111621
8.664672
9.397527
7.530420
2.729641
-3.655013
-9.209084
-12.498027
-13.019389
-10.617810
-6.678494
-3.779917
-2.760525
-1.751419
1.286694
5.861946
9.336841
10.219010
9.687460
8.958727
7.456313
4.524565
0.757490
-2.837758
-5.795778
-7.988021
-8.884678
-7.942323
-5.708496
-3.381278
-1.579194
-0.544267
-0.752263
-2.236123
-3.700266
-3.514785
-1.878597
-0.463589
0.298612
1.288848
2.259292
2.194136
1.800064
2.663095
4.140013
4.071076
2.513526
1.850191
3.225293
5.227032
6.065592
5.542518
4.517024
3.604762
3.383112
4.386605
5.726464
5.524629
3.407134
0.768406
-1.258409
-2.470209
-3.165411
-4.281585
-6.893302
-10.845252
-14.490546
-16.145920
-15.571669
-13.689220
-11.141751
-7.739254
-3.207607
1.767988
5.231430
5.185209
1.579136
-3.247038
-6.368742
-6.273134
-3.214151
1.375555
5.454692
7.276793
6.303863
3.495282
0.940053
0.274036
1.057854
1.989269
3.249440
5.729222
8.670408
9.917716
8.143074
3.805683
-1.661597
-6.698875
-10.035922
-11.330040
-11.286485
-10.627438
-9.358487
-7.280639
-4.832415
-3.306529
-3.836134
-5.826633
-7.137806
-6.111241
-2.917042
0.655827
2.296498
0.943504
-1.898558
-3.228275
-1.445176
2.384613
6.416753
9.834575
11.995503
11.463975
7.399660
1.348710
-3.347334
-4.214146
-1.398830
3.124167
7.357946
10.298965
11.632483
10.802763
7.009667
0.568578
-5.891231
-8.688596
-6.531408
-1.912281
1.741653
3.312710
3.750873
3.820268
3.378254
2.753791
3.186464
4.655950
4.646474
0.941281
-4.828933
-8.260838
-7.186941
-3.853230
-1.652508
-1.676168
-2.722436
-2.961617
-1.369501
1.820775
5.621384
8.626596
9.376799
7.377180
3.543570
-0.481840
-3.156479
-3.702466
-2.486494
-0.509855
1.587181
3.777884
5.949298
7.419048
7.509696
6.220968
3.839569
0.512150
-3.153591
-5.971830
-7.277611
-7.377887
-6.667522
-4.653655
-0.235901
6.255131
11.956012
14.232056
13.433097
10.923584
6.574497
0.534288
-4.765948
-6.657389
-5.085847
-2.081193
0.715444
2.749870
3.899923
4.934797
7.317061
10.817986
12.810016
11.148348
6.747599
2.583429
0.420586
-0.700988
-2.444245
-4.751979
-6.169336
-5.855243
-4.341935
-2.073190
1.718248
7.553765
13.856161
17.559507
16.239553
9.792747
1.177994
-5.238181
-7.628424
-7.910239
-8.505262
-9.774176
-10.514288
-9.478106
-6.702882
-3.594613
-1.403190
-0.134437
0.960410
2.451381
4.288019
5.831100
6.156298
4.645741
1.807121
-0.653073
-1.320982
-0.425033
0.934415
2.120553
2.674696
2.030209
1.176957
3.214858
9.835666
18.003284
22.408815
21.157970
17.049427
13.255260
10.341091
7.796199
5.761000
4.527629
4.003984
4.270301
5.584270
7.095746
6.799814
4.142389
1.557669
2.004303
5.806176
10.834290
14.809634
16.594736
16.652925
17.164225
19.888353
23.798059
27.057451
29.936331
32.992611
34.701454
33.792454
31.784666
30.954292
31.388208
31.734118
31.875708
33.038258
35.629665
38.896057
42.603703
47.262779
51.734791
52.461712
48.260067
43.359478
41.419586
40.675961
37.938263
31.718344
20.622602
4.437030
-14.084964
-32.596832
-51.254551
-69.166939
-83.175369
-91.457565
-95.000000
-94.773361
-89.779541
-79.996368
-69.444427
-62.663406
-59.897232
-58.963615
-58.427284
-55.994694
-48.336258
-35.414036
-21.591858
-10.863203
-3.543748
1.446740
3.904553
3.490797
1.242795
-1.513399
-4.185057
-5.780213
-4.330322
0.936920
7.858094
13.285716
16.275351
18.132353
19.809835
21.328775
23.925501
30.164225
41.066536
54.797611
68.721077
81.493553
90.757133
88.316109
63.652279
17.650503
-32.978672
-71.353722
-94.457916
-107.651024
-114.645676
-117.645653
-119.311371
-120.404961
-119.790108
-118.041687
-116.773460
-114.655899
-110.353035
-107.825233
-112.734032
-125.383224
-137.815323
-136.224442
-111.456322
-70.834305
-33.591545
-10.972289
1.887338
14.579622
31.575443
49.651661
59.848869
58.740215
54.408707
53.761230
53.369820
48.885406
41.924530
34.187157
24.469406
11.783148
-3.477476
-18.760881
-28.431488
-27.852541
-18.943975
-7.974602
1.708844
11.827639
25.299383
42.307892
59.507950
72.000740
76.522690
74.324211
70.853897
70.615685
73.498268
77.515457
80.628281
78.094460
64.243027
39.500004
11.228397
-13.389772
-31.973692
-44.947445
-52.887341
-58.226189
-66.630310
-80.770782
-94.972321
-102.652176
-105.130394
-107.072731
-108.758133
-108.634521
-108.143425
-108.632858
-108.206284
-105.295868
-100.787323
-96.045250
-93.182137
-94.568298
-98.784004
-101.713821
-102.100243
-99.441612
-89.108215
-68.258408
-43.524361
-25.241192
-16.411415
-12.775709
-11.410954
-12.910648
-15.926348
-16.293762
-12.629860
-7.610515
-2.555729
4.264414
13.359142
23.405922
35.001068
49.772034
66.032715
80.095970
90.579025
98.193588
103.976936
109.331589
115.337463
120.896858
123.013611
119.450874
110.151634
97.428017
84.628372
73.020844
63.447289
59.093456
60.411446
63.481945
66.231003
67.465546
63.698521
54.570629
44.069550
34.629559
26.972937
22.296900
20.196857
18.309307
15.077703
10.657028
5.723573
1.525852
1.173735
7.213461
15.758646
18.307743
12.704495
4.875839
-1.691546
-8.237536
-13.989105
-17.106926
-19.962763
-26.302111
-35.728596
-44.439838
-48.220173
-45.159962
-37.826958
-30.521132
-25.297537
-22.337366
-21.600897
-22.949202
-25.320589
-27.147390
-27.985697
-27.873915
-26.231628
-23.556133
-21.875324
-21.948387
-22.035728
-20.092464
-15.729878
-9.746939
-3.642452
0.624959
2.665067
3.245886
1.080502
-5.727000
-15.452488
-23.289371
-25.974857
-24.570417
-22.435530
-21.652803
-22.472460
-24.882025
-28.527533
-31.457975
-31.349771
-27.983421
-21.691690
-11.198883
2.732635
14.584290
18.516359
14.143505
7.683969
5.822272
7.558176
6.590398
0.284117
-9.228517
-18.854803
-25.770737
-28.720745
-29.855242
-33.042633
-39.369808
-46.385857
-51.901501
-55.539902
-56.809818
-55.035301
-50.519760
-42.066193
-27.100195
-8.071611
7.807509
16.207727
18.021172
16.320612
13.475591
11.399469
12.867843
18.159855
22.588800
22.356178
19.757484
18.171762
16.110823
11.143747
4.573791
-2.115281
-9.970032
-19.438005
-28.519133
-34.131256
-34.284180
-29.785671
-23.285770
-16.528322
-8.794496
1.376321
12.659625
22.173100
29.999155
38.223061
46.509033
51.889713
52.347290
49.149422
45.682564
43.907768
42.642330
41.262333
42.589611
48.280918
54.413227
55.233032
49.440464
40.399220
31.910419
26.938578
27.753895
33.601170
40.741982
45.319946
45.108768
40.994980
36.169819
33.192154
33.994675
39.900726
47.132568
46.293755
33.717987
18.047926
7.711168
1.040794
-6.206368
-14.424072
-22.878769
-31.976774
-40.813274
-44.554893
-40.880886
-36.915588
-41.172028
-53.520985
-67.897049
-79.391243
-86.171051
-87.525551
-84.648453
-82.196495
-83.298950
-84.460625
-79.619766
-67.299507
-51.356930
-36.748894
-26.034300
-17.475401
-6.680951
6.763654
17.968363
25.450720
34.048481
46.190891
58.389362
67.564651
74.179771
79.951942
86.296547
93.059563
97.303520
96.086807
91.315720
88.774712
92.156433
100.497498
110.116707
117.221153
120.064049
119.899467
119.734825
121.889992
126.480957
131.701645
135.318512
136.424118
135.809113
134.218323
131.883118
130.822632
134.284088
141.781509
147.499664
146.312836
140.004242
134.704590
133.640060
135.154755
135.906097
134.544205
133.654221
136.569275
141.609573
143.804520
142.097763
139.108383
134.812881
126.222473
112.108635
93.280869
70.028252
43.149551
15.372691
-10.138441
-31.798687
-50.617748
-66.609055
-72.837578
-59.454571
-26.085409
13.893685
43.103424
53.708252
50.155262
39.937782
26.262827
9.719564
-7.581738
-22.063618
-32.028210
-38.871948
-44.664997
-50.274059
-55.812107
-62.049923
-70.929611
-83.507835
-98.532906
-114.112946
-129.011841
-142.661606
-155.206818
-167.488403
-181.115189
-196.413803
-209.563309
-215.992126
-216.199539
-213.397964
-207.143509
-192.898758
-167.431381
-134.115631
-101.334953
-75.121780
-56.049343
-42.407459
-33.715069
-31.460716
-35.848690
-42.421719
-45.355927
-43.401367
-39.701195
-37.425148
-37.318703
-37.537106
-35.091747
-29.020145
-21.494892
-14.100029
-5.041425
7.486226
21.889050
35.667915
48.382103
60.268127
70.485985
78.272377
84.873032
93.289413
105.165268
118.237465
128.525681
134.613693
138.100510
140.708954
143.453674
148.029404
155.635742
165.218719
175.508240
186.304520
196.068130
201.880508
203.120819
202.180374
200.777954
197.780762
191.421631
182.003860
171.550583
161.770767
152.984436
145.669220
142.487518
146.140213
154.412155
158.352982
148.285721
124.505829
97.886856
77.055115
61.818058
50.234394
42.584961
37.315205
30.996164
23.001616
16.321081
13.754510
14.511136
15.282174
14.379681
13.644242
16.532400
25.069799
39.178925
58.265587
81.491074
106.907043
131.457764
149.503082
151.944916
134.992218
109.306618
89.542458
77.450356
64.623749
46.747692
27.145742
9.720841
-5.323546
-20.008982
-36.321289
-54.908169
-74.632614
-92.696465
-105.389915
-110.743790
-111.438782
-112.086182
-112.733185
-109.844795
-104.222328
-102.119316
-107.022430
-115.775612
-124.398232
-132.363464
-140.765442
-150.034119
-159.182419
-166.663818
-171.810150
-174.595947
-174.811264
-171.565521
-163.647675
-152.032410
-139.917969
-129.039841
-119.479004
-111.768829
-106.322525
-102.538391
-99.768990
-99.075729
-102.613991
-110.868065
-122.924294
-138.918472
-159.281235
-181.577759
-199.512497
-207.036804
-204.203476
-195.045456
-179.056244
-151.222534
-111.963303
-71.297272
-39.570408
-17.110180
1.784502
18.707151
32.032688
42.424789
51.488640
59.116028
64.692284
68.737083
72.259842
75.682152
79.455688
84.048347
88.457649
90.881371
91.015602
90.190002
89.637817
88.948448
86.551338
82.281570
77.480209
71.963951
64.098701
54.032356
43.187195
31.140230
16.920698
1.813621
-12.251234
-24.876278
-36.545589
-47.498634
-57.492390
-66.256416
-73.306427
-77.625671
-79.852554
-83.659523
-91.833382
-102.367760
-111.205505
-117.766571
-125.191582
-135.637054
-148.118103
-160.532120
-171.176422
-179.139069
-184.714706
-188.882980
-192.822739
-197.756989
-203.691605
-208.854294
-211.404785
-211.137894
-209.517715
-208.245316
-207.060043
-202.700943
-190.602798
-168.743225
-140.508331
-112.466537
-88.495102
-67.640007
-47.845463
-29.366926
-14.386910
-5.261790
-2.824136
-5.481598
-10.444568
-15.206506
-17.569750
-16.310612
-12.534946
-9.238856
-9.124639
-12.451356
-17.180653
-21.306948
-23.567829
-22.783819
-19.067387
-14.206924
-9.182169
-3.550537
2.320911
6.783625
8.622749
8.375264
8.433967
11.202185
16.357513
21.454479
25.862913
31.977419
41.757805
53.842491
64.765648
71.950340
74.803215
73.503464
68.539383
61.329189
52.144676
37.673401
14.963369
-12.459902
-36.802982
-53.768723
-64.418144
-71.059883
-74.872467
-76.580063
-77.637184
-80.276512
-85.693649
-92.521515
-97.805725
-98.754890
-93.624786
-82.430473
-67.309059
-52.269260
-42.064228
-39.200420
-41.446304
-43.433937
-40.690536
-32.231812
-20.850433
-10.834115
-3.865613
1.891927
8.005468
13.600805
17.689585
21.027905
24.417789
27.152344
28.670517
30.009518
32.235107
34.500893
33.799366
26.359997
10.931167
-8.210012
-22.962063
-28.035885
-25.435114
-21.045265
-18.102200
-15.518307
-11.286450
-5.811740
-1.407887
0.987010
3.090683
6.897260
12.185570
16.835814
19.240955
19.527084
17.909283
13.591304
6.514285
-1.563726
-8.988981
-16.172398
-24.769527
-35.266712
-46.027538
-54.977955
-61.662357
-67.043785
-71.987511
-76.493057
-79.626877
-80.051262
-77.122276
-71.379028
-64.235847
-57.835098
-54.630558
-55.504547
-58.003471
-57.413452
-50.013950
-36.008808
-19.543825
-4.875411
6.994738
17.022125
25.110043
30.197395
32.473228
33.719383
35.695446
39.245007
44.235413
49.312244
52.527847
53.220730
52.668678
52.422523
53.223461
55.797070
60.641563
66.561356
71.286690
74.014076
76.287827
80.149986
86.211105
93.654861
101.191757
108.010872
114.420296
121.278481
128.685349
135.497375
139.943787
140.856186
138.628372
134.482941
128.918365
121.797592
113.297005
103.315399
90.288620
72.325577
50.267609
28.531576
11.568726
0.078134
-7.737576
-12.500825
-13.388559
-9.984747
-2.758097
7.129701
18.152098
29.310158
40.302586
50.824200
60.346329
68.087769
73.091545
75.297737
76.241455
77.794334
80.282425
82.103416
81.270393
77.119865
70.769608
64.474594
59.861031
56.436436
52.429482
46.923298
40.676468
34.729885
29.054131
23.575905
19.441568
17.915300
18.870899
21.411715
25.322247
31.074814
38.824486
48.077919
58.318996
69.322273
80.645477
91.340279
100.196609
106.135590
108.830765
109.010834
107.729050
105.658089
103.281242
101.013100
99.159592
98.052292
97.703247
97.600998
97.471771
97.628128
98.155205
98.681656
99.226799
100.384552
102.769547
106.665237
111.358978
114.537758
113.203041
105.843117
93.701149
79.494141
65.291435
51.951042
39.703102
28.911329
20.192883
13.770362
9.456202
7.082823
6.364078
6.773661
7.619495
8.155823
7.907886
6.659251
4.200801
0.641559
-3.206506
-6.331286
-8.517636
-10.523239
-13.116944
-16.168848
-18.728775
-19.721966
-18.547487
-15.321700
-10.837229
-6.212984
-2.256611
0.788476
2.876890
3.992585
4.280393
3.999587
3.457396
2.870460
2.121792
0.983242
-0.556242
-2.473183
-4.597869
-6.197353
-6.694962
-6.674716
-7.096570
-8.285652
-10.505907
-14.160369
-19.044884
