EVENT_NAME: EMILIA_2ND_SHOCK
EVENT_ID: IT-2012-0011
EVENT_DATE_YYYYMMDD: 20120529
EVENT_TIME_HHMMSS: 070002
EVENT_LATITUDE_DEGREE: 44.8417
EVENT_LONGITUDE_DEGREE: 11.0657
EVENT_DEPTH_KM: 8.1
HYPOCENTER_REFERENCE: INGV-CNT_Seismic_Bulletin
MAGNITUDE_W: 6.0
MAGNITUDE_W_REFERENCE: RCMT-INGV
MAGNITUDE_L: 5.8
MAGNITUDE_L_REFERENCE: INGV-CNT_Seismic_Bulletin
FOCAL_MECHANISM: TF
NETWORK: IT
STATION_CODE: SAG0
STATION_NAME: SANT AGOSTINO
STATION_LATITUDE_DEGREE: 44.791000
STATION_LONGITUDE_DEGREE: 11.390400
STATION_ELEVATION_M: 66
LOCATION: 
SENSOR_DEPTH_M: 0.0
VS30_M/S: 
SITE_CLASSIFICATION_EC8: C*
MORPHOLOGIC_CLASSIFICATION: 
EPICENTRAL_DISTANCE_KM: 26.3
EARTHQUAKE_BACKAZIMUTH_DEGREE: 282.5
DATE_TIME_FIRST_SAMPLE_YYYYMMDD_HHMMSS: 20120529_065943.000
DATE_TIME_FIRST_SAMPLE_PRECISION: seconds
SAMPLING_INTERVAL_S: 0.005000
NDATA: 30001
DURATION_S: 150.005
STREAM: HNZ
UNITS: cm
INSTRUMENT: sensor = Episensor FBA ES-T [Kinemetrics] | digitizer = Etna [Kinemetrics]
INSTRUMENT_ANALOG/DIGITAL: D
INSTRUMENTAL_FREQUENCY_HZ: 
INSTRUMENTAL_DAMPING: 
FULL_SCALE_G: 
N_BIT_DIGITAL_CONVERTER: 18
PGD_CM: -0.602119
TIME_PGD_S: 41.485000
BASELINE_CORRECTION: BASELINE REMOVED
FILTER_TYPE: BUTTERWORTH
FILTER_ORDER: 2
LOW_CUT_FREQUENCY_HZ: 0.050
HIGH_CUT_FREQUENCY_HZ: 35.000
LATE/NORMAL_TRIGGERED: NT
DATABASE_VERSION: DYNA 1.0
HEADER_FORMAT: DYNA 1.2
DATA_TYPE: DISPLACEMENT
PROCESSING: manual (Paolucci et al., 2011)
DATA_TIMESTAMP_YYYYMMDD_HHMMSS: 
DATA_LICENSE: CC-BY3_0-IT (http://creativecommons.org/licenses/by/3.0/deed.en)
DATA_CITATION: ESM working group (2015), European Strong-Motion database, version 0.1, Network Activity 3: Networking acceleration networks and SM data users. Project NERA (www.nera-eu.org)
DATA_CREATOR: ESM working group
ORIGINAL_DATA_MEDIATOR_CITATION: Ufficio Rischio Sismico e Vulcanico del Dipartimento della Protezione Civile (http://www.protezionecivile.gov.it/)
ORIGINAL_DATA_MEDIATOR: Rete Accelerometrica Nazionale - RAN Download (http://www.mot1.it/randownload/)
ORIGINAL_DATA_CREATOR_CITATION: Italian Strong Motion Network, Italian Civil Protection Department http://www.protezionecivile.gov.it
ORIGINAL_DATA_CREATOR: network: IT (Italian Strong Motion Network); owner: Dipartimento Della Protezione Civile
USER1: 
USER2: 
USER3: 
USER4: 
USER5: 
[...]
-5.772166e-02
-6.162062e-02
-6.562886e-02
-6.973350e-02
-7.392285e-02
-7.817863e-02
-8.247189e-02
-8.676297e-02
-9.100297e-02
-9.513612e-02
-9.910453e-02
-1.028562e-01
-1.063544e-01
-1.095843e-01
-1.125539e-01
-1.152874e-01
-1.178141e-01
-1.201536e-01
-1.223027e-01
-1.242294e-01
-1.258739e-01
-1.271554e-01
-1.279837e-01
-1.282721e-01
-1.279493e-01
-1.269702e-01
-1.253270e-01
-1.230575e-01
-1.202448e-01
-1.170102e-01
-1.134996e-01
-1.098674e-01
-1.062584e-01
-1.027889e-01
-9.953351e-02
-9.651968e-02
-9.372847e-02
-9.110173e-02
-8.855295e-02
-8.597971e-02
-8.327613e-02
-8.034515e-02
-7.711117e-02
-7.353147e-02
-6.960250e-02
-6.535810e-02
-6.086064e-02
-5.618760e-02
-5.141789e-02
-4.662364e-02
-4.186921e-02
-3.721360e-02
-3.271177e-02
-2.841253e-02
-2.435367e-02
-2.055694e-02
-1.702680e-02
-1.375431e-02
-1.072443e-02
-7.924786e-03
-5.354437e-03
-3.030674e-03
-9.910202e-04
7.123456e-04
2.025840e-03
2.910455e-03
3.352937e-03
3.367095e-03
2.985680e-03
2.247851e-03
1.188812e-03
-1.634483e-04
-1.784189e-03
-3.644931e-03
-5.707619e-03
-7.922722e-03
-1.023315e-02
-1.258262e-02
-1.492467e-02
-1.722933e-02
-1.948509e-02
-2.169509e-02
-2.386966e-02
-2.601801e-02
-2.814184e-02
-3.023166e-02
-3.226571e-02
-3.421141e-02
-3.602934e-02
-3.767882e-02
-3.912446e-02
-4.034266e-02
-4.132653e-02
-4.208844e-02
-4.266050e-02
-4.309365e-02
-4.345460e-02
-4.381937e-02
-4.426417e-02
-4.485605e-02
-4.564521e-02
-4.666004e-02
-4.790470e-02
-4.935967e-02
-5.098687e-02
-5.273734e-02
-5.455842e-02
-5.639860e-02
-5.820981e-02
-5.994661e-02
-6.156255e-02
-6.300709e-02
-6.422597e-02
-6.516580e-02
-6.578192e-02
-6.604764e-02
-6.596085e-02
-6.554553e-02
-6.484777e-02
-6.392780e-02
-6.285104e-02
-6.168082e-02
-6.047466e-02
-5.928557e-02
-5.816616e-02
-5.716943e-02
-5.634338e-02
-5.572160e-02
-5.531477e-02
-5.510702e-02
-5.505669e-02
-5.510018e-02
-5.515846e-02
-5.514577e-02
-5.497854e-02
-5.458436e-02
-5.390950e-02
-5.292172e-02
-5.160724e-02
-4.996609e-02
-4.801014e-02
-4.576243e-02
-4.325774e-02
-4.054446e-02
-3.768413e-02
-3.474430e-02
-3.178655e-02
-2.885576e-02
-2.597485e-02
-2.314539e-02
-2.035198e-02
-1.756762e-02
-1.475957e-02
-1.189609e-02
-8.953831e-03
-5.925019e-03
-2.821817e-03
3.261356e-04
3.479637e-03
6.598009e-03
9.644660e-03
1.259028e-02
1.541389e-02
1.810145e-02
2.064242e-02
2.302667e-02
2.524493e-02
2.729320e-02
2.917823e-02
3.091969e-02
3.254715e-02
3.409348e-02
3.558788e-02
3.705129e-02
3.849499e-02
3.992128e-02
4.132341e-02
4.268405e-02
4.397470e-02
4.515808e-02
4.619316e-02
4.704153e-02
4.767428e-02
4.807801e-02
4.825680e-02
4.822910e-02
4.802177e-02
4.766525e-02
4.719186e-02
4.663529e-02
4.602941e-02
4.540733e-02
4.480255e-02
4.425235e-02
4.380065e-02
4.349662e-02
4.338829e-02
4.351299e-02
4.388831e-02
4.450875e-02
4.534973e-02
4.637601e-02
4.754937e-02
4.883298e-02
5.019350e-02
5.160283e-02
5.303916e-02
5.448629e-02
5.593223e-02
5.736898e-02
5.879311e-02
6.020452e-02
6.160210e-02
6.297772e-02
6.431121e-02
6.556945e-02
6.671162e-02
6.769912e-02
6.850545e-02
6.912186e-02
6.955739e-02
6.983456e-02
6.998356e-02
7.003794e-02
7.003304e-02
7.000590e-02
6.999490e-02
7.003836e-02
7.017208e-02
7.042688e-02
7.082788e-02
7.139623e-02
7.215190e-02
7.311658e-02
7.431553e-02
7.577775e-02
7.753429e-02
7.961756e-02
8.206322e-02
8.491060e-02
8.819641e-02
9.194328e-02
9.614933e-02
1.007838e-01
1.057898e-01
1.110940e-01
1.166208e-01
1.223076e-01
1.281139e-01
1.340216e-01
1.400299e-01
1.461460e-01
1.523763e-01
1.587190e-01
1.651615e-01
1.716800e-01
1.782396e-01
1.847919e-01
1.912720e-01
1.975968e-01
2.036678e-01
2.093806e-01
2.146388e-01
2.193659e-01
2.235123e-01
2.270557e-01
2.299966e-01
2.323502e-01
2.341399e-01
2.353940e-01
2.361453e-01
2.364312e-01
2.362912e-01
2.357620e-01
2.348773e-01
2.336725e-01
2.321869e-01
2.304630e-01
2.285439e-01
2.264672e-01
2.242582e-01
2.219280e-01
2.194770e-01
2.169022e-01
2.142040e-01
2.113924e-01
2.084905e-01
2.055366e-01
2.025820e-01
1.996866e-01
1.969134e-01
1.943257e-01
1.919847e-01
1.899453e-01
1.882473e-01
1.869060e-01
1.859054e-01
1.851975e-01
1.847090e-01
1.843547e-01
1.840536e-01
1.837439e-01
1.833937e-01
1.830044e-01
1.826066e-01
1.822526e-01
1.820071e-01
1.819379e-01
1.821106e-01
1.825853e-01
1.834152e-01
1.846421e-01
1.862911e-01
1.883669e-01
1.908517e-01
1.937066e-01
1.968745e-01
2.002867e-01
2.038710e-01
2.075622e-01
2.113116e-01
2.150943e-01
2.189120e-01
2.227883e-01
2.267606e-01
2.308680e-01
2.351418e-01
2.395975e-01
2.442315e-01
2.490227e-01
2.539370e-01
2.589317e-01
2.639606e-01
2.689777e-01
2.739422e-01
2.788224e-01
2.835981e-01
2.882623e-01
2.928201e-01
2.972854e-01
3.016749e-01
3.060013e-01
3.102683e-01
3.144696e-01
3.185922e-01
3.226230e-01
3.265563e-01
3.303991e-01
3.341709e-01
3.378980e-01
3.416050e-01
3.453075e-01
3.490066e-01
3.526860e-01
3.563132e-01
3.598419e-01
3.632166e-01
3.663775e-01
3.692665e-01
3.718324e-01
3.740352e-01
3.758470e-01
3.772518e-01
3.782430e-01
3.788215e-01
3.789926e-01
3.787651e-01
3.781501e-01
3.771614e-01
3.758158e-01
3.741337e-01
3.721378e-01
3.698515e-01
3.672989e-01
3.645056e-01
3.615010e-01
3.583204e-01
3.550090e-01
3.516242e-01
3.482342e-01
3.449132e-01
3.417333e-01
3.387561e-01
3.360236e-01
3.335536e-01
3.313416e-01
3.293655e-01
3.275910e-01
3.259782e-01
3.244859e-01
3.230753e-01
3.217122e-01
3.203677e-01
3.190185e-01
3.176486e-01
3.162520e-01
3.148345e-01
3.134109e-01
3.119988e-01
3.106132e-01
3.092621e-01
3.079450e-01
3.066544e-01
3.053803e-01
3.041148e-01
3.028561e-01
3.016092e-01
3.003840e-01
2.991896e-01
2.980283e-01
2.968924e-01
2.957657e-01
2.946275e-01
2.934570e-01
2.922358e-01
2.909489e-01
2.895850e-01
2.881350e-01
2.865927e-01
2.849560e-01
2.832282e-01
2.814192e-01
2.795444e-01
2.776236e-01
2.756791e-01
2.737340e-01
2.718111e-01
2.699326e-01
2.681216e-01
2.664036e-01
2.648095e-01
2.633773e-01
2.621520e-01
2.611831e-01
2.605187e-01
2.601964e-01
2.602355e-01
2.606325e-01
2.613619e-01
2.623820e-01
2.636443e-01
2.651001e-01
2.667027e-01
2.684082e-01
2.701776e-01
2.719779e-01
2.737820e-01
2.755680e-01
2.773189e-01
2.790234e-01
2.806758e-01
2.822739e-01
2.838149e-01
2.852924e-01
2.866943e-01
2.880035e-01
2.892024e-01
2.902789e-01
2.912327e-01
2.920784e-01
2.928445e-01
2.935684e-01
2.942920e-01
2.950571e-01
2.959012e-01
2.968531e-01
2.979318e-01
2.991469e-01
3.005004e-01
3.019879e-01
3.035985e-01
3.053138e-01
3.071080e-01
3.089494e-01
3.108006e-01
3.126197e-01
3.143610e-01
3.159785e-01
3.174314e-01
3.186922e-01
3.197528e-01
3.206270e-01
3.213466e-01
3.219524e-01
3.224823e-01
3.229595e-01
3.233852e-01
3.237366e-01
3.239696e-01
3.240282e-01
3.238552e-01
3.234040e-01
3.226469e-01
3.215780e-01
3.202115e-01
3.185755e-01
3.167048e-01
3.146341e-01
3.123936e-01
3.100050e-01
3.074812e-01
3.048289e-01
3.020514e-01
2.991519e-01
2.961374e-01
2.930228e-01
2.898341e-01
2.866087e-01
2.833933e-01
2.802402e-01
2.772032e-01
2.743332e-01
2.716759e-01
2.692698e-01
2.671461e-01
2.653279e-01
2.638290e-01
2.626521e-01
2.617881e-01
2.612169e-01
2.609094e-01
2.608291e-01
2.609318e-01
2.611652e-01
2.614711e-01
2.617904e-01
2.620693e-01
2.622652e-01
2.623501e-01
2.623117e-01
2.621507e-01
2.618776e-01
2.615088e-01
2.610629e-01
2.605570e-01
2.600042e-01
2.594106e-01
2.587733e-01
2.580789e-01
2.573035e-01
2.564160e-01
2.553836e-01
2.541795e-01
2.527890e-01
2.512145e-01
2.494760e-01
2.476090e-01
2.456590e-01
2.436749e-01
2.417023e-01
2.397775e-01
2.379252e-01
2.361587e-01
2.344811e-01
2.328869e-01
2.313638e-01
2.298959e-01
2.284648e-01
2.270517e-01
2.256392e-01
2.242127e-01
2.227610e-01
2.212764e-01
2.197531e-01
2.181859e-01
2.165687e-01
2.148939e-01
2.131525e-01
2.113333e-01
2.094241e-01
2.074128e-01
2.052912e-01
2.030582e-01
2.007238e-01
1.983085e-01
1.958410e-01
1.933531e-01
1.908746e-01
1.884295e-01
1.860352e-01
1.837022e-01
1.814343e-01
1.792284e-01
1.770749e-01
1.749570e-01
1.728535e-01
1.707422e-01
1.686051e-01
1.664322e-01
1.642249e-01
1.619966e-01
1.597720e-01
1.575861e-01
1.554832e-01
1.535135e-01
1.517292e-01
1.501786e-01
1.488997e-01
1.479150e-01
1.472267e-01
1.468165e-01
1.466485e-01
1.466736e-01
1.468328e-01
1.470599e-01
1.472841e-01
1.474344e-01
1.474457e-01
1.472653e-01
1.468569e-01
1.462015e-01
1.452931e-01
1.441342e-01
1.427335e-01
1.411060e-01
1.392748e-01
1.372729e-01
1.351397e-01
1.329155e-01
1.306340e-01
1.283192e-01
1.259846e-01
1.236363e-01
1.212754e-01
1.189012e-01
1.165134e-01
1.141138e-01
1.117058e-01
1.092934e-01
1.068807e-01
1.044716e-01
1.020700e-01
9.967905e-02
9.730121e-02
9.493889e-02
9.259302e-02
9.026216e-02
8.794346e-02
8.563456e-02
8.333490e-02
8.104560e-02
7.876768e-02
7.649978e-02
7.423690e-02
7.197031e-02
6.968861e-02
6.737925e-02
6.502959e-02
6.262731e-02
6.016107e-02
5.762181e-02
5.500452e-02
5.230979e-02
4.954377e-02
4.671627e-02
4.383796e-02
4.091887e-02
3.796995e-02
3.500708e-02
3.205486e-02
2.914780e-02
2.632779e-02
2.363789e-02
2.111328e-02
1.877352e-02
1.661994e-02
1.463837e-02
1.280475e-02
1.109119e-02
9.470861e-03
7.920959e-03
6.423553e-03
4.965441e-03
3.536770e-03
2.127601e-03
7.231053e-04
-7.010846e-04
-2.181624e-03
-3.766518e-03
-5.509474e-03
-7.460468e-03
-9.656249e-03
-1.211408e-02
-1.482939e-02
-1.777683e-02
-2.091409e-02
-2.418757e-02
-2.753961e-02
-3.091563e-02
-3.426972e-02
-3.756853e-02
-4.079364e-02
-4.394202e-02
-4.702368e-02
-5.005753e-02
-5.306656e-02
-5.607264e-02
-5.909262e-02
-6.213755e-02
-6.521455e-02
-6.832976e-02
-7.149138e-02
-7.471235e-02
-7.801082e-02
-8.140604e-02
-8.491255e-02
-8.853676e-02
-9.227638e-02
-9.612221e-02
-1.000616e-01
-1.040826e-01
-1.081776e-01
-1.123456e-01
-1.165900e-01
-1.209137e-01
-1.253142e-01
-1.297802e-01
-1.342914e-01
-1.388180e-01
-1.433235e-01
-1.477674e-01
-1.521082e-01
-1.563087e-01
-1.603394e-01
-1.641814e-01
-1.678268e-01
-1.712809e-01
-1.745627e-01
-1.777033e-01
-1.807414e-01
-1.837169e-01
-1.866652e-01
-1.896127e-01
-1.925758e-01
-1.955605e-01
-1.985639e-01
-2.015774e-01
-2.045880e-01
-2.075801e-01
-2.105344e-01
-2.134285e-01
-2.162384e-01
-2.189414e-01
-2.215202e-01
-2.239673e-01
-2.262889e-01
-2.285067e-01
-2.306545e-01
-2.327737e-01
-2.349052e-01
-2.370832e-01
-2.393308e-01
-2.416589e-01
-2.440663e-01
-2.465405e-01
-2.490594e-01
-2.515937e-01
-2.541091e-01
-2.565709e-01
-2.589481e-01
-2.612191e-01
-2.633755e-01
-2.654260e-01
-2.673975e-01
-2.693344e-01
-2.712928e-01
-2.733322e-01
-2.755038e-01
-2.778398e-01
-2.803462e-01
-2.830022e-01
-2.857640e-01
-2.885749e-01
-2.913762e-01
-2.941195e-01
-2.967740e-01
-2.993300e-01
-3.017995e-01
-3.042150e-01
-3.066254e-01
-3.090899e-01
-3.116710e-01
-3.144266e-01
-3.174028e-01
-3.206274e-01
-3.241074e-01
-3.278290e-01
-3.317629e-01
-3.358726e-01
-3.401215e-01
-3.444781e-01
-3.489178e-01
-3.534206e-01
-3.579698e-01
-3.625505e-01
-3.671478e-01
-3.717453e-01
-3.763247e-01
-3.808669e-01
-3.853533e-01
-3.897671e-01
-3.940948e-01
-3.983254e-01
-4.024511e-01
-4.064685e-01
-4.103794e-01
-4.141919e-01
-4.179208e-01
-4.215855e-01
-4.252048e-01
-4.287911e-01
-4.323460e-01
-4.358611e-01
-4.393228e-01
-4.427189e-01
-4.460439e-01
-4.493019e-01
-4.525066e-01
-4.556794e-01
-4.588452e-01
-4.620297e-01
-4.652566e-01
-4.685452e-01
-4.719108e-01
-4.753647e-01
-4.789124e-01
-4.825505e-01
-4.862633e-01
-4.900199e-01
-4.937752e-01
-4.974743e-01
-5.010600e-01
-5.044812e-01
-5.076980e-01
-5.106815e-01
-5.134135e-01
-5.158855e-01
-5.180982e-01
-5.200619e-01
-5.217977e-01
-5.233367e-01
-5.247188e-01
-5.259879e-01
-5.271881e-01
-5.283586e-01
-5.295300e-01
-5.307223e-01
-5.319456e-01
-5.332008e-01
-5.344827e-01
-5.357828e-01
-5.370919e-01
-5.383999e-01
-5.396958e-01
-5.409711e-01
-5.422243e-01
-5.434628e-01
-5.447009e-01
-5.459554e-01
-5.472398e-01
-5.485601e-01
-5.499117e-01
-5.512794e-01
-5.526399e-01
-5.539667e-01
-5.552346e-01
-5.564234e-01
-5.575211e-01
-5.585259e-01
-5.594465e-01
-5.603011e-01
-5.611143e-01
-5.619130e-01
-5.627224e-01
-5.635645e-01
-5.644568e-01
-5.654121e-01
-5.664366e-01
-5.675296e-01
-5.686823e-01
-5.698785e-01
-5.710952e-01
-5.723065e-01
-5.734885e-01
-5.746243e-01
-5.757083e-01
-5.767474e-01
-5.777571e-01
-5.787565e-01
-5.797628e-01
-5.807875e-01
-5.818338e-01
-5.828935e-01
-5.839481e-01
-5.849726e-01
-5.859404e-01
-5.868295e-01
-5.876263e-01
-5.883284e-01
-5.889439e-01
-5.894906e-01
-5.899914e-01
-5.904705e-01
-5.909496e-01
-5.914462e-01
-5.919704e-01
-5.925249e-01
-5.931064e-01
-5.937091e-01
-5.943280e-01
-5.949621e-01
-5.956152e-01
-5.962946e-01
-5.970071e-01
-5.977543e-01
-5.985280e-01
-5.993074e-01
-6.000606e-01
-6.007478e-01
-6.013278e-01
-6.017647e-01
-6.020327e-01
-6.021195e-01
-6.020276e-01
-6.017747e-01
-6.013930e-01
-6.009272e-01
-6.004284e-01
-5.999452e-01
-5.995149e-01
-5.991574e-01
-5.988726e-01
-5.986414e-01
-5.984284e-01
-5.981871e-01
-5.978673e-01
-5.974217e-01
-5.968099e-01
-5.960020e-01
-5.949812e-01
-5.937457e-01
-5.923078e-01
-5.906902e-01
-5.889200e-01
-5.870246e-01
-5.850285e-01
-5.829511e-01
-5.808058e-01
-5.786008e-01
-5.763399e-01
-5.740243e-01
-5.716532e-01
-5.692246e-01
-5.667362e-01
-5.641880e-01
-5.615859e-01
-5.589450e-01
-5.562912e-01
-5.536607e-01
-5.510979e-01
-5.486499e-01
-5.463596e-01
-5.442613e-01
-5.423765e-01
-5.407126e-01
-5.392620e-01
-5.380044e-01
-5.369109e-01
-5.359479e-01
-5.350821e-01
-5.342828e-01
-5.335243e-01
-5.327872e-01
-5.320613e-01
-5.313468e-01
-5.306543e-01
-5.300017e-01
-5.294098e-01
-5.288985e-01
-5.284819e-01
-5.281656e-01
-5.279449e-01
-5.278045e-01
-5.277204e-01
-5.276626e-01
-5.275980e-01
-5.274927e-01
-5.273127e-01
-5.270262e-01
-5.266073e-01
-5.260397e-01
-5.253173e-01
-5.244435e-01
-5.234280e-01
-5.222853e-01
-5.210325e-01
-5.196874e-01
-5.182662e-01
-5.167831e-01
-5.152499e-01
-5.136776e-01
-5.120774e-01
-5.104599e-01
-5.088318e-01
-5.071927e-01
-5.055334e-01
-5.038377e-01
-5.020857e-01
-5.002594e-01
-4.983463e-01
-4.963415e-01
-4.942467e-01
-4.920665e-01
-4.898044e-01
-4.874612e-01
-4.850348e-01
-4.825211e-01
-4.799162e-01
-4.772179e-01
-4.744272e-01
-4.715501e-01
-4.685998e-01
-4.655962e-01
-4.625623e-01
-4.595205e-01
-4.564891e-01
-4.534809e-01
-4.505016e-01
-4.475510e-01
-4.446219e-01
-4.417014e-01
-4.387714e-01
-4.358119e-01
-4.328043e-01
-4.297362e-01
-4.266046e-01
-4.234173e-01
-4.201921e-01
-4.169537e-01
-4.137304e-01
-4.105481e-01
-4.074260e-01
-4.043748e-01
-4.013955e-01
-3.984803e-01
-3.956134e-01
-3.927720e-01
-3.899282e-01
-3.870522e-01
-3.841168e-01
-3.811012e-01
-3.779944e-01
-3.747953e-01
-3.715105e-01
-3.681504e-01
-3.647240e-01
-3.612344e-01
-3.576772e-01
-3.540410e-01
-3.503098e-01
-3.464642e-01
-3.424837e-01
-3.383513e-01
-3.340585e-01
-3.296094e-01
-3.250221e-01
-3.203265e-01
-3.155603e-01
-3.107629e-01
-3.059700e-01
-3.012079e-01
-2.964924e-01
-2.918302e-01
-2.872214e-01
-2.826629e-01
-2.781500e-01
-2.736795e-01
-2.692508e-01
-2.648662e-01
-2.605297e-01
-2.562447e-01
-2.520131e-01
-2.478344e-01
-2.437068e-01
-2.396259e-01
-2.355849e-01
-2.315724e-01
-2.275721e-01
-2.235649e-01
-2.195326e-01
-2.154630e-01
-2.113527e-01
-2.072086e-01
-2.030461e-01
-1.988846e-01
-1.947422e-01
-1.906325e-01
-1.865623e-01
-1.825317e-01
-1.785356e-01
-1.745671e-01
-1.706199e-01
-1.666902e-01
-1.627778e-01
-1.588868e-01
-1.550259e-01
-1.512090e-01
-1.474539e-01
-1.437805e-01
-1.402081e-01
-1.367516e-01
-1.334184e-01
-1.302063e-01
-1.271037e-01
-1.240922e-01
-1.211498e-01
-1.182553e-01
-1.153919e-01
-1.125495e-01
-1.097240e-01
-1.069166e-01
-1.041318e-01
-1.013755e-01
-9.865380e-02
-9.597081e-02
-9.332861e-02
-9.072588e-02
-8.815692e-02
-8.561178e-02
-8.307727e-02
-8.053786e-02
-7.797679e-02
-7.537771e-02
-7.272643e-02
-7.001276e-02
-6.723173e-02
-6.438354e-02
-6.147200e-02
-5.850229e-02
-5.547879e-02
-5.240339e-02
-4.927538e-02
-4.609283e-02
-4.285456e-02
-3.956248e-02
-3.622305e-02
-3.284710e-02
-2.944871e-02
-2.604423e-02
-2.265172e-02
-1.929076e-02
-1.598214e-02
-1.274731e-02
-9.606642e-03
-6.576622e-03
-3.667133e-03
-8.804246e-04
1.788719e-03
4.352954e-03
6.832136e-03
9.252045e-03
1.164247e-02
1.403486e-02
1.645944e-02
1.894197e-02
2.150092e-02
2.414564e-02
2.687658e-02
2.968775e-02
3.257062e-02
3.551758e-02
3.852484e-02
4.159438e-02
4.473462e-02
4.796010e-02
5.129027e-02
5.474672e-02
5.834893e-02
6.210995e-02
6.603394e-02
7.011605e-02
7.434415e-02
7.870134e-02
8.316845e-02
8.772584e-02
9.235474e-02
9.703779e-02
1.017586e-01
1.065010e-01
1.112495e-01
1.159895e-01
1.207090e-01
1.253996e-01
1.300578e-01
1.346855e-01
1.392892e-01
1.438795e-01
1.484695e-01
1.530729e-01
1.577024e-01
1.623666e-01
1.670666e-01
1.717919e-01
1.765207e-01
1.812230e-01
1.858652e-01
1.904162e-01
1.948532e-01
1.991653e-01
2.033547e-01
2.074344e-01
2.114244e-01
2.153464e-01
2.192190e-01
2.230537e-01
2.268535e-01
2.306127e-01
2.343177e-01
2.379480e-01
2.414782e-01
2.448811e-01
2.481313e-01
2.512096e-01
2.541069e-01
2.568274e-01
2.593893e-01
2.618220e-01
2.641607e-01
2.664401e-01
2.686896e-01
2.709298e-01
2.731724e-01
2.754215e-01
2.776757e-01
2.799296e-01
2.821765e-01
2.844103e-01
2.866271e-01
2.888264e-01
2.910117e-01
2.931894e-01
2.953667e-01
2.975492e-01
2.997378e-01
3.019279e-01
3.041089e-01
3.062677e-01
3.083907e-01
3.104669e-01
3.124889e-01
3.144533e-01
3.163612e-01
3.182169e-01
3.200262e-01
3.217944e-01
3.235254e-01
3.252214e-01
3.268831e-01
3.285094e-01
3.300969e-01
3.316400e-01
3.331330e-01
3.345731e-01
3.359637e-01
3.373146e-01
3.386409e-01
3.399592e-01
3.412849e-01
3.426291e-01
3.439990e-01
3.453972e-01
3.468224e-01
3.482691e-01
3.497261e-01
3.511775e-01
3.526040e-01
3.539859e-01
3.553051e-01
3.565474e-01
3.577042e-01
3.587736e-01
3.597595e-01
3.606707e-01
3.615192e-01
3.623209e-01
3.630958e-01
3.638684e-01
3.646651e-01
3.655120e-01
3.664318e-01
3.674426e-01
3.685562e-01
3.697769e-01
3.711015e-01
3.725227e-01
3.740329e-01
3.756269e-01
3.773015e-01
3.790533e-01
3.808766e-01
3.827647e-01
3.847116e-01
3.867140e-01
3.887731e-01
3.908948e-01
3.930885e-01
3.953648e-01
3.977321e-01
4.001940e-01
4.027482e-01
4.053858e-01
4.080917e-01
4.108461e-01
