EVENT_NAME: EMILIA_2ND_SHOCK
EVENT_ID: IT-2012-0011
EVENT_DATE_YYYYMMDD: 20120529
EVENT_TIME_HHMMSS: 070002
EVENT_LATITUDE_DEGREE: 44.8417
EVENT_LONGITUDE_DEGREE: 11.0657
EVENT_DEPTH_KM: 8.1
HYPOCENTER_REFERENCE: INGV-CNT_Seismic_Bulletin
MAGNITUDE_W: 6.0
MAGNITUDE_W_REFERENCE: RCMT-INGV
MAGNITUDE_L: 5.8
MAGNITUDE_L_REFERENCE: INGV-CNT_Seismic_Bulletin
FOCAL_MECHANISM: TF
NETWORK: IT
STATION_CODE: SAG0
STATION_NAME: SANT AGOSTINO
STATION_LATITUDE_DEGREE: 44.791000
STATION_LONGITUDE_DEGREE: 11.390400
STATION_ELEVATION_M: 66
LOCATION: 
SENSOR_DEPTH_M: 0.0
VS30_M/S: 
SITE_CLASSIFICATION_EC8: C*
MORPHOLOGIC_CLASSIFICATION: 
EPICENTRAL_DISTANCE_KM: 26.3
EARTHQUAKE_BACKAZIMUTH_DEGREE: 282.5
DATE_TIME_FIRST_SAMPLE_YYYYMMDD_HHMMSS: 20120529_065943.000
DATE_TIME_FIRST_SAMPLE_PRECISION: seconds
SAMPLING_INTERVAL_S: 0.005000
NDATA: 30001
DURATION_S: 150.005
STREAM: HNN
UNITS: cm/s
INSTRUMENT: sensor = Episensor FBA ES-T [Kinemetrics] | digitizer = Etna [Kinemetrics]
INSTRUMENT_ANALOG/DIGITAL: D
INSTRUMENTAL_FREQUENCY_HZ: 
INSTRUMENTAL_DAMPING: 
FULL_SCALE_G: 
N_BIT_DIGITAL_CONVERTER: 18
PGV_CM/S: -6.104229
TIME_PGV_S: 40.915000
BASELINE_CORRECTION: BASELINE REMOVED
FILTER_TYPE: BUTTERWORTH
FILTER_ORDER: 2
LOW_CUT_FREQUENCY_HZ: 0.050
HIGH_CUT_FREQUENCY_HZ: 35.000
LATE/NORMAL_TRIGGERED: NT
DATABASE_VERSION: DYNA 1.0
HEADER_FORMAT: DYNA 1.2
DATA_TYPE: VELOCITY
PROCESSING: manual (Paolucci et al., 2011)
DATA_TIMESTAMP_YYYYMMDD_HHMMSS: 
DATA_LICENSE: CC-BY3_0-IT (http://creativecommons.org/licenses/by/3.0/deed.en)
DATA_CITATION: ESM working group (2015), European Strong-Motion database, version 0.1, Network Activity 3: Networking acceleration networks and SM data users. Project NERA (www.nera-eu.org)
DATA_CREATOR: ESM working group
ORIGINAL_DATA_MEDIATOR_CITATION: Ufficio Rischio Sismico e Vulcanico del Dipartimento della Protezione Civile (http://www.protezionecivile.gov.it/)
ORIGINAL_DATA_MEDIATOR: Rete Accelerometrica Nazionale - RAN Download (http://www.mot1.it/randownload/)
ORIGINAL_DATA_CREATOR_CITATION: Italian Strong Motion Network, Italian Civil Protection Department http://www.protezionecivile.gov.it
ORIGINAL_DATA_CREATOR: network: IT (Italian Strong Motion Network); owner: Dipartimento Della Protezione Civile
USER1: 
USER2: 
USER3: 
USER4: 
USER5: 
[...]
-2.418896
-2.413482
-2.393768
-2.358355
-2.306614
-2.238281
-2.153105
-2.050733
-1.931135
-1.795035
-1.644218
-1.481793
-1.311805
-1.139026
-0.969277
-0.809064
-0.664891
-0.542865
-0.448302
-0.385185
-0.354809
-0.354610
-0.378657
-0.419035
-0.467693
-0.518120
-0.565487
-0.606028
-0.636548
-0.653869
-0.654164
-0.632559
-0.584309
-0.506861
-0.400616
-0.268515
-0.114968
0.055738
0.240180
0.435500
0.638917
0.847492
1.058499
1.269768
1.479547
1.686653
1.890865
2.092758
2.292965
2.491098
2.685183
2.872282
3.049278
3.213325
3.362073
3.493484
3.605907
3.698581
3.771990
3.827893
3.868724
3.897000
3.915162
3.925358
3.929374
3.928225
3.921692
3.909420
3.892053
3.870965
3.847634
3.822688
3.795102
3.762342
3.720884
3.667258
3.599041
3.514796
3.413825
3.296144
3.161848
3.010790
2.843873
2.664389
2.477188
2.286657
2.095971
1.907872
1.725505
1.552574
1.392874
1.249278
1.122510
1.010553
0.909127
0.812717
0.715402
0.611390
0.495708
0.365132
0.218933
0.058700
-0.112696
-0.291873
-0.475188
-0.659004
-0.839799
-1.013885
-1.177249
-1.326172
-1.458243
-1.572002
-1.665336
-1.735491
-1.780737
-1.800934
-1.797058
-1.770982
-1.724989
-1.661198
-1.581567
-1.488321
-1.384258
-1.272583
-1.156763
-1.040761
-0.929143
-0.827220
-0.741119
-0.676820
-0.638211
-0.625421
-0.634453
-0.658208
-0.688311
-0.716839
-0.737121
-0.743710
-0.732519
-0.701086
-0.648573
-0.575590
-0.483930
-0.376331
-0.256156
-0.127157
0.006535
0.140809
0.272485
0.399280
0.518481
0.626756
0.721757
0.802762
0.869864
0.923419
0.963843
0.992054
1.010220
1.021201
1.027468
1.030658
1.031355
1.029108
1.022457
1.009057
0.986489
0.953049
0.907948
0.851216
0.783498
0.705828
0.619360
0.525056
0.423694
0.316473
0.206047
0.097043
-0.004635
-0.093091
-0.163679
-0.214049
-0.244461
-0.257294
-0.256155
-0.244798
-0.226330
-0.202886
-0.175622
-0.145289
-0.112975
-0.080560
-0.050989
-0.027588
-0.012562
-0.006625
-0.009887
-0.022215
-0.042687
-0.069094
-0.098233
-0.126477
-0.149797
-0.164171
-0.167487
-0.161302
-0.150171
-0.139488
-0.134241
-0.138820
-0.156997
-0.191612
-0.243512
-0.310674
-0.388986
-0.473746
-0.560280
-0.644050
-0.720757
-0.786258
-0.836581
-0.868090
-0.877564
-0.862522
-0.821645
-0.754942
-0.663839
-0.551075
-0.420384
-0.276266
-0.123564
0.032744
0.186981
0.332731
0.463875
0.575336
0.663217
0.724862
0.758848
0.765209
0.745759
0.703855
0.643772
0.569994
0.486760
0.397938
0.306912
0.216568
0.129289
0.046691
-0.030850
-0.104742
-0.178045
-0.254417
-0.337135
-0.428539
-0.529844
-0.641304
-0.762033
-0.889860
-1.021798
-1.154264
-1.283048
-1.403795
-1.512536
-1.606056
-1.682102
-1.739086
-1.775802
-1.791392
-1.785328
-1.757744
-1.709789
-1.643499
-1.561561
-1.466930
-1.362387
-1.250376
-1.132854
-1.011248
-0.886479
-0.758847
-0.628186
-0.494121
-0.356349
-0.215065
-0.070913
0.075274
0.222362
0.369025
0.513645
0.653785
0.786202
0.907361
1.014073
1.104155
1.176812
1.232830
1.274378
1.304412
1.326299
1.343425
1.358670
1.374139
1.391084
1.410118
1.431573
1.455551
1.481843
1.509698
1.537725
1.564293
1.587752
1.606465
1.619187
1.625366
1.625363
1.620648
1.613611
1.607385
1.605559
1.611548
1.628030
1.656293
1.695853
1.744698
1.799566
1.856528
1.911594
1.960734
2.000287
2.027563
2.041033
2.040467
2.026616
2.000632
1.964048
1.918830
1.867347
1.812531
1.757724
1.706191
1.660665
1.623163
1.594980
1.576651
1.567951
1.567966
1.575144
1.587403
1.602132
1.616356
1.627428
1.633646
1.634380
1.630093
1.622081
1.611884
1.600846
1.589791
1.578901
1.567903
1.556253
1.543202
1.527841
1.509064
1.485602
1.456057
1.418824
1.372123
1.314189
1.243566
1.159520
1.062366
0.953732
0.836653
0.715257
0.594374
0.479288
0.375412
0.287963
0.221436
0.178802
0.160923
0.166531
0.192665
0.235200
0.289175
0.349030
0.408887
0.462964
0.506222
0.535001
0.547165
0.542053
0.520298
0.483303
0.432957
0.371610
0.301957
0.227019
0.149965
0.073743
0.001136
-0.065165
-0.122668
-0.168998
-0.201977
-0.219872
-0.221681
-0.207591
-0.179104
-0.138896
-0.090667
-0.038789
0.012153
0.057941
0.095309
0.122218
0.138128
0.144091
0.142337
0.135657
0.126566
0.116620
0.106543
0.096935
0.088975
0.084764
0.087084
0.098862
0.122718
0.160792
0.214599
0.284883
0.371751
0.474658
0.592095
0.721324
0.858256
0.997594
1.133381
1.259724
1.371556
1.465271
1.538980
1.592368
1.626362
1.642898
1.644686
1.634819
1.616320
1.591604
1.561977
1.527543
1.487548
1.440813
1.386118
1.322391
1.248833
1.165188
1.071842
0.969592
0.859463
0.742733
0.621168
0.497429
0.375225
0.258935
0.152818
0.059916
-0.018732
-0.084020
-0.138075
-0.183543
-0.223022
-0.258667
-0.292001
-0.323799
-0.354026
-0.381951
-0.406211
-0.424966
-0.436362
-0.438921
-0.431712
-0.414400
-0.387073
-0.350242
-0.305106
-0.253679
-0.198397
-0.141314
-0.083711
-0.026236
0.031062
0.088527
0.146684
0.206271
0.267928
0.331937
0.398296
0.466574
0.535868
0.605075
0.673225
0.739856
0.805167
0.869863
0.934843
1.000779
1.067846
1.135609
1.203183
1.269740
1.334890
1.398775
1.462075
1.525713
1.590418
1.656420
1.723182
1.789432
1.853477
1.913488
1.967837
2.015452
2.055883
2.089246
2.116178
2.137709
2.155048
2.169369
2.181663
2.192640
2.202726
2.212247
2.221427
2.230133
2.237846
2.243687
2.246437
2.244864
2.238011
2.225434
2.207352
2.184468
2.157819
2.128631
2.098057
2.067081
2.036401
2.006348
1.976943
1.947887
1.918631
1.888371
1.855900
1.819781
1.778527
1.730717
1.675343
1.611960
1.540591
1.461781
1.376629
1.286803
1.194506
1.102155
1.012066
0.926355
0.846767
0.774490
0.710099
0.653473
0.603769
0.559745
0.520242
0.484376
0.451631
0.421985
0.395902
0.374388
0.359075
0.352077
0.355748
0.372245
0.403009
0.448518
0.508263
0.580950
0.664792
0.757630
0.857073
0.960620
1.065781
1.170297
1.272167
1.369570
1.460829
1.544223
1.617953
1.680320
1.729832
1.765357
1.786262
1.792432
1.784289
1.762726
1.728957
1.684395
1.630548
1.569024
1.501514
1.429615
1.354795
1.278396
1.201689
1.126110
1.053353
0.985384
0.924479
0.872977
0.832878
0.805388
0.790667
0.788094
0.796687
0.815301
0.842753
0.877752
0.918803
0.964266
1.012460
1.061703
1.110303
1.156593
1.198964
1.235826
1.265833
1.288256
1.303171
1.311451
1.314352
1.312936
1.307839
1.299218
1.286754
1.269907
1.248216
1.221369
1.189195
1.151708
1.109081
1.061696
1.010232
0.955487
0.898381
0.840274
0.783060
0.728966
0.680319
0.639228
0.607255
0.585205
0.572991
0.569487
0.572613
0.579691
0.587710
0.593691
0.595180
0.590507
0.578906
0.560598
0.536657
0.508752
0.478798
0.448571
0.419541
0.392754
0.368703
0.347353
0.328192
0.310260
0.292250
0.272701
0.250369
0.224545
0.195198
0.162988
0.129130
0.095187
0.062809
0.033426
0.008121
-0.012399
-0.027783
-0.037836
-0.042324
-0.040852
-0.032796
-0.017321
0.006562
0.039806
0.083157
0.137014
0.201129
0.274475
0.355373
0.441649
0.530981
0.621239
0.710621
0.797816
0.881992
0.962700
1.039810
1.113299
1.183125
1.249291
1.311854
1.370948
1.426779
1.479480
1.529101
1.575568
1.618597
1.657894
1.693243
1.724278
1.750461
1.771161
1.785657
1.793183
1.792976
1.784474
1.767572
1.742544
1.710050
1.671583
1.629585
1.586943
1.546429
1.510298
1.480056
1.456293
1.438495
1.425036
1.413353
1.400285
1.382610
1.357476
1.322676
1.276916
1.219811
1.151736
1.073625
0.986763
0.892771
0.793581
0.691392
0.588545
0.487078
0.388448
0.293573
0.202850
0.116335
0.034089
-0.043644
-0.116653
-0.185098
-0.249339
-0.309469
-0.365107
-0.415394
-0.459350
-0.496197
-0.525311
-0.546450
-0.559893
-0.566266
-0.566540
-0.561956
-0.553913
-0.544050
-0.534166
-0.526053
-0.521303
-0.521036
-0.525808
-0.535494
-0.549223
-0.565634
-0.583091
-0.599685
-0.613240
-0.621574
-0.623010
-0.616778
-0.603147
-0.583415
-0.559718
-0.534685
-0.511001
-0.491159
-0.477523
-0.472237
-0.476978
-0.492935
-0.520792
-0.560625
-0.611874
-0.673306
-0.743087
-0.819028
-0.898738
-0.979788
-1.059964
-1.137377
-1.210462
-1.277946
-1.338662
-1.391422
-1.435125
-1.468814
-1.491591
-1.502593
-1.501033
-1.486313
-1.458200
-1.416920
-1.363172
-1.298068
-1.222955
-1.139361
-1.049062
-0.954104
-0.856883
-0.760173
-0.667052
-0.580760
-0.504420
-0.440594
-0.390839
-0.355494
-0.333797
-0.324193
-0.324799
-0.333735
-0.349151
-0.369302
-0.392798
-0.418768
-0.446825
-0.476812
-0.508543
-0.541641
-0.575390
-0.608773
-0.640703
-0.670276
-0.696982
-0.720680
-0.741338
-0.758814
-0.772811
-0.782932
-0.788665
-0.789485
-0.785147
-0.775850
-0.762211
-0.745239
-0.726257
-0.706887
-0.689018
-0.674490
-0.664805
-0.661101
-0.664208
-0.674697
-0.692916
-0.718946
-0.752608
-0.793527
-0.841097
-0.894493
-0.952784
-1.014845
-1.079215
-1.144182
-1.207795
-1.267931
-1.322453
-1.369263
-1.406470
-1.432661
-1.446913
-1.448702
-1.437747
-1.413729
-1.376174
-1.324536
-1.258308
-1.177217
-1.081326
-0.971022
-0.847053
-0.710510
-0.562916
-0.406343
-0.243181
-0.075726
0.094145
0.264987
0.435502
0.604342
0.770077
0.931183
1.086171
1.233608
1.372094
1.500501
1.618138
1.724556
1.819288
1.901804
1.971601
2.028154
2.070812
2.098943
2.112148
2.110439
2.094203
2.064052
2.020826
1.965472
1.899002
1.822829
1.738850
1.649221
1.556224
1.462152
1.369281
1.279794
1.195550
1.117951
1.047842
0.985532
0.931044
0.884332
0.845392
0.814249
0.790899
0.775194
0.766662
0.764447
0.767439
0.774343
0.783516
0.792790
0.799641
0.801519
0.795985
0.780906
0.754735
0.716761
0.667370
0.608006
0.540843
0.468403
0.392984
0.316281
0.239465
0.163293
0.088218
0.014678
-0.056873
-0.126201
-0.193248
-0.258033
-0.320562
-0.380674
-0.438071
-0.492376
-0.543055
-0.589447
-0.630782
-0.666255
-0.695324
-0.717938
-0.734665
-0.746564
-0.754821
-0.760588
-0.764931
-0.768758
-0.772871
-0.777844
-0.783922
-0.791172
-0.799529
-0.808734
-0.818372
-0.827906
-0.836789
-0.844556
-0.850709
-0.854716
-0.856193
-0.854983
-0.851129
-0.844943
-0.837076
-0.828467
-0.820260
-0.813702
-0.810044
-0.810534
-0.816274
-0.828030
-0.846197
-0.870789
-0.901559
-0.938164
-0.980165
-1.027128
-1.078701
-1.134563
-1.194494
-1.258381
-1.326257
-1.398513
-1.475860
-1.559191
-1.649514
-1.747720
-1.854385
-1.969672
-2.093244
-2.224373
-2.362058
-2.505038
-2.651890
-2.801219
-2.951732
-3.102257
-3.251766
-3.399349
-3.544176
-3.685510
-3.822604
-3.954639
-4.080754
-4.199999
-4.311340
-4.413710
-4.506073
-4.587604
-4.657843
-4.716733
-4.764509
-4.801565
-4.828382
-4.845366
-4.852758
-4.850737
-4.839407
-4.818856
-4.789354
-4.751361
-4.705569
-4.652943
-4.594540
-4.531372
-4.464361
-4.394297
-4.321761
-4.247048
-4.170283
-4.091605
-4.011146
-3.929059
-3.845673
-3.761476
-3.677065
-3.593216
-3.510836
-3.430827
-3.353972
-3.280748
-3.211195
-3.145007
-3.081696
-3.020794
-2.961956
-2.904959
-2.849763
-2.796499
-2.745526
-2.697514
-2.653258
-2.613585
-2.579359
-2.551292
-2.529832
-2.515086
-2.506858
-2.504843
-2.508591
-2.517528
-2.531056
-2.548407
-2.568642
-2.590718
-2.613503
-2.636038
-2.657619
-2.677681
-2.695712
-2.711090
-2.723158
-2.731313
-2.734871
-2.733110
-2.725258
-2.710401
-2.687599
-2.655881
-2.614308
-2.562134
-2.498787
-2.423909
-2.337385
-2.239345
-2.130423
-2.011769
-1.884750
-1.750738
-1.610963
-1.466546
-1.318706
-1.168831
-1.018489
-0.869394
-0.723348
-0.582215
-0.447904
-0.322307
-0.207173
-0.103885
-0.013308
0.064102
0.128046
0.178220
0.214345
0.236328
0.244376
0.239014
0.221056
0.191533
0.151618
0.102587
0.045784
-0.017306
-0.084890
-0.154863
-0.224951
-0.292827
-0.356156
-0.412692
-0.460532
-0.498319
-0.525187
-0.540738
-0.545036
-0.538434
-0.521382
-0.494323
-0.457610
-0.411572
-0.356541
-0.292812
-0.220769
-0.140898
-0.053696
0.040254
0.140306
0.245801
0.356034
0.470241
0.587517
0.706789
0.826849
0.946342
1.063908
1.178274
1.288121
1.392143
1.489087
1.577559
1.656098
1.723751
1.780708
1.828048
1.866785
1.897589
1.921137
1.938287
1.950018
1.957297
1.961074
1.962384
1.962252
1.961581
1.961151
1.961621
1.963746
1.968577
1.977259
1.990708
2.009548
2.034240
2.065078
2.102023
2.144679
2.192493
2.244960
2.301499
2.361213
2.423118
2.486435
2.550411
2.614204
2.677091
2.738691
2.798988
2.858185
2.916647
2.974954
3.033853
3.094163
3.156653
3.221890
3.290153
3.361393
3.435274
3.511333
3.589033
3.667807
3.747087
3.826180
3.904195
3.980103
4.052658
4.120338
4.181395
4.233874
4.275716
4.305003
4.320131
4.319896
4.303552
4.270729
4.221235
4.154935
4.071642
3.971009
3.852587
3.716012
3.561192
3.388326
3.197734
2.989734
2.764775
2.523597
2.267203
1.996781
1.713775
1.419834
1.116434
0.804800
0.486461
0.163282
-0.163285
-0.492424
-0.823449
-1.155485
-1.487554
-1.818496
-2.146768
-2.470660
-2.788577
-3.099011
-3.400576
-3.692016
-3.972121
-4.239703
-4.493371
-4.731583
-4.953050
-5.156682
-5.341353
-5.506101
-5.650351
-5.773890
-5.876679
-5.958912
-6.021377
-6.065419
-6.092552
-6.104229
-6.101743
-6.086280
-6.058828
-6.020036
-5.970425
-5.910480
-5.840702
-5.761829
-5.674746
-5.580358
-5.479481
-5.372594
-5.259905
-5.141449
-5.017089
-4.886757
-4.750553
-4.608848
-4.462469
-4.312368
-4.159339
-4.004287
-3.848360
-3.692724
-3.538348
-3.385956
-3.235970
-3.088338
-2.942696
-2.798697
-2.656110
-2.514889
-2.375240
-2.237493
-2.101892
-1.968443
-1.836993
-1.707421
-1.579613
-1.453554
-1.329744
-1.209083
-1.092226
-0.979685
-0.872385
-0.771452
-0.677616
-0.591139
-0.512122
-0.440580
-0.376267
-0.318646
-0.266940
-0.220177
-0.177418
-0.137784
-0.100385
-0.064560
-0.029907
0.003896
0.037069
0.069805
0.102295
0.134597
0.166709
0.198742
0.230954
0.263695
0.297366
0.332448
0.369403
0.408574
0.450188
0.494310
0.540838
0.589492
0.639627
0.690222
0.739937
0.787191
0.830381
0.867953
0.898418
0.920512
0.933251
0.936011
0.928588
0.911130
0.884128
0.848302
0.804401
0.753223
0.695615
0.632366
0.564182
0.491674
0.415403
0.335905
0.253748
0.169699
0.084736
-0.000159
-0.084044
-0.165848
-0.244300
-0.318146
-0.386405
-0.448419
-0.503772
-0.552306
-0.594147
-0.629663
-0.659395
-0.683951
-0.703909
-0.720026
-0.733522
-0.745691
-0.757348
-0.769029
-0.781611
-0.796291
-0.814035
-0.835500
-0.861414
-0.892642
-0.929967
-0.973949
-1.024900
-1.082961
-1.148148
-1.220285
-1.299011
-1.383802
-1.473975
-1.568735
-1.667245
-1.768590
-1.871669
-1.975219
-2.077893
-2.178196
-2.274447
-2.364726
-2.446794
-2.518230
-2.576734
-2.620374
-2.647667
-2.657590
-2.649654
-2.623998
-2.581260
-2.522351
-2.448395
-2.360725
-2.260788
-2.150009
-2.029793
-1.901694
-1.767413
-1.628691
-1.487377
-1.345316
-1.204047
-1.064845
-0.928824
-0.796797
-0.669246
-0.546390
-0.428239
-0.314669
-0.205483
-0.100489
0.000473
0.097476
0.190331
0.278628
0.361824
0.439197
0.509921
0.573152
0.628177
0.674608
0.712392
0.741786
0.763310
0.777656
0.785588
0.787717
0.784359
0.775496
0.760727
0.739359
0.710498
0.673218
0.626833
0.570925
0.505356
0.430296
0.346136
0.253529
0.153382
0.046714
-0.065378
-0.181708
-0.300980
-0.421858
-0.543019
-0.663090
-0.780659
-0.894293
-1.002490
-1.103772
-1.196683
-1.279914
-1.352512
-1.413901
-1.463985
-1.503136
-1.531909
-1.550816
-1.560154
-1.559889
-1.549815
-1.529836
-1.500103
-1.460856
-1.412324
-1.354811
-1.288724
-1.214628
-1.133342
-1.045896
-0.953508
-0.857673
-0.760170
-0.662990
-0.568218
-0.477834
-0.393496
-0.316382
-0.247060
-0.185456
-0.131063
-0.083217
-0.041276
-0.004745
0.026712
0.053311
0.075143
0.092297
0.104886
0.112973
0.116694
0.116359
0.112346
0.105004
0.094562
0.081136
0.064898
0.046256
0.025865
0.004450
-0.017328
-0.038750
-0.058966
-0.076983
-0.091615
-0.101582
-0.105637
-0.102592
-0.091414
-0.071387
-0.042117
-0.003481
0.044412
0.101225
0.166331
0.238822
0.317526
0.400975
0.487435
0.574969
0.661519
0.745046
0.823654
0.895687
0.959851
1.015371
1.062109
1.100471
1.131251
1.155500
1.174384
1.189131
1.200972
1.210989
1.220097
1.229015
1.238213
1.247988
1.258445
1.269436
1.280565
1.291169
1.300382
1.307279
1.311007
1.310856
1.306251
1.296704
1.281750
1.260944
1.233916
1.200342
1.159976
1.112761
1.058804
0.998362
0.931866
0.859906
0.783202
0.702556
0.618745
0.532461
0.444328
0.354921
0.264785
0.174544
0.084928
-0.003329
-0.089458
-0.172629
-0.252042
-0.327031
-0.397138
-0.462109
-0.521892
-0.576675
-0.626762
-0.672482
-0.714180
-0.752187
-0.786759
-0.817947
-0.845529
-0.869096
-0.888103
-0.901927
-0.910005
-0.912005
-0.907834
-0.897643
-0.881842
-0.860955
-0.835520
-0.806095
-0.773199
-0.737372
-0.699213
-0.659255
-0.618028
-0.576194
-0.534523
-0.493805
-0.454751
-0.417987
-0.383996
-0.352956
-0.324722
-0.298930
-0.275117
-0.252806
-0.231481
-0.210631
-0.189807
-0.168568
-0.146528
-0.123461
-0.099388
-0.074598
-0.049500
-0.024574
-0.000431
0.022306
0.043163
0.061874
0.078397
0.092948
0.106091
0.118724
0.131864
0.146503
0.163568
0.183878
0.208015
0.236205
0.268310
0.303943
0.342576
0.383540
0.425994
0.469006
0.511615
0.552866
0.591965
0.628344
0.661586
0.691400
0.717635
0.740280
0.759479
0.775521
0.788846
0.800047
0.809788
0.818702
0.827353
0.836164
0.845321
0.854772
0.864245
0.873268
0.881183
0.887214
0.890648
0.890801
0.887011
0.878895
0.866394
0.849645
0.828989
0.804816
0.777419
0.746964
0.713410
0.676569
0.636223
0.592190
0.544375
0.492846
0.437950
0.380319
0.320678
0.259827
0.198765
0.138596
0.080371
0.025096
-0.026300
-0.073048
-0.114551
-0.150413
-0.180393
-0.204318
-0.222106
-0.233707
-0.239101
-0.238443
-0.232012
-0.220097
-0.202995
-0.181039
-0.154704
-0.124508
-0.090854
-0.054102
-0.014571
0.027521
0.072059
0.119069
0.168671
0.220963
0.275990
0.333686
0.393883
0.456346
0.520757
0.586691
0.653633
0.721114
0.788778
0.856221
0.922963
0.988639
1.053012
1.115784
1.176540
1.234949
1.290877
1.344290
1.395153
1.443443
1.489224
1.532598
1.573593
1.612117
1.647948
1.680783
1.710271
1.736061
1.757969
1.775990
1.790294
1.801309
1.809628
1.815960
1.821151
1.826024
1.831262
1.837342
1.844471
1.852664
1.861776
1.871511
1.881542
1.891482
1.900827
1.908994
1.915335
1.919209
1.920038
1.917362
1.910901
1.900530
1.886255
1.868183
1.846407
1.820969
1.791877
1.759090
1.722532
1.682088
1.637601
1.588914
1.535870
1.478304
1.416118
1.349386
1.278416
1.203742
1.126130
1.046594
0.966311
0.886563
0.808707
0.734074
0.663940
0.599459
0.541570
0.491007
0.448309
0.413850
0.387905
0.370625
0.361973
0.361730
0.369571
0.385131
0.408004
