EVENT_NAME: EMILIA_2ND_SHOCK
EVENT_ID: IT-2012-0011
EVENT_DATE_YYYYMMDD: 20120529
EVENT_TIME_HHMMSS: 070002
EVENT_LATITUDE_DEGREE: 44.8417
EVENT_LONGITUDE_DEGREE: 11.0657
EVENT_DEPTH_KM: 8.1
HYPOCENTER_REFERENCE: INGV-CNT_Seismic_Bulletin
MAGNITUDE_W: 6.0
MAGNITUDE_W_REFERENCE: RCMT-INGV
MAGNITUDE_L: 5.8
MAGNITUDE_L_REFERENCE: INGV-CNT_Seismic_Bulletin
FOCAL_MECHANISM: TF
NETWORK: IT
STATION_CODE: SAN0
STATION_NAME: SAN FELICE SUL PANARO
STATION_LATITUDE_DEGREE: 44.838000
STATION_LONGITUDE_DEGREE: 11.143000
STATION_ELEVATION_M: 71
LOCATION: 
SENSOR_DEPTH_M: 0.0
VS30_M/S: 
SITE_CLASSIFICATION_EC8: C*
MORPHOLOGIC_CLASSIFICATION: 
EPICENTRAL_DISTANCE_KM: 6.1
EARTHQUAKE_BACKAZIMUTH_DEGREE: 273.9
DATE_TIME_FIRST_SAMPLE_YYYYMMDD_HHMMSS: 20120529_065933.000
DATE_TIME_FIRST_SAMPLE_PRECISION: seconds
SAMPLING_INTERVAL_S: 0.005000
NDATA: 34001
DURATION_S: 170.005
STREAM: HNZ
UNITS: cm
INSTRUMENT: sensor = Episensor FBA ES-T [Kinemetrics] | digitizer = Etna [Kinemetrics]
INSTRUMENT_ANALOG/DIGITAL: D
INSTRUMENTAL_FREQUENCY_HZ: 
INSTRUMENTAL_DAMPING: 
FULL_SCALE_G: 
N_BIT_DIGITAL_CONVERTER: 18
PGD_CM: 2.955565
TIME_PGD_S: 37.995000
BASELINE_CORRECTION: BASELINE REMOVED
FILTER_TYPE: BUTTERWORTH
FILTER_ORDER: 2
LOW_CUT_FREQUENCY_HZ: 0.060
HIGH_CUT_FREQUENCY_HZ: 50.000
LATE/NORMAL_TRIGGERED: NT
DATABASE_VERSION: DYNA 1.0
HEADER_FORMAT: DYNA 1.2
DATA_TYPE: DISPLACEMENT
PROCESSING: manual (Paolucci et al., 2011)
DATA_TIMESTAMP_YYYYMMDD_HHMMSS: 
DATA_LICENSE: CC-BY3_0-IT (http://creativecommons.org/licenses/by/3.0/deed.en)
DATA_CITATION: ESM working group (2015), European Strong-Motion database, version 0.1, Network Activity 3: Networking acceleration networks and SM data users. Project NERA (www.nera-eu.org)
DATA_CREATOR: ESM working group
ORIGINAL_DATA_MEDIATOR_CITATION: Ufficio Rischio Sismico e Vulcanico del Dipartimento della Protezione Civile (http://www.protezionecivile.gov.it/)
ORIGINAL_DATA_MEDIATOR: Rete Accelerometrica Nazionale - RAN Download (http://www.mot1.it/randownload/)
ORIGINAL_DATA_CREATOR_CITATION: Italian Strong Motion Network, Italian Civil Protection Department http://www.protezionecivile.gov.it
ORIGINAL_DATA_CREATOR: network: IT (Italian Strong Motion Network); owner: Dipartimento Della Protezione Civile
USER1: 
USER2: 
USER3: 
USER4: 
USER5: 
[...]
-1.029964e+00
-1.034650e+00
-1.039183e+00
-1.043292e+00
-1.046832e+00
-1.049830e+00
-1.052642e+00
-1.055837e+00
-1.059711e+00
-1.064002e+00
-1.068179e+00
-1.071900e+00
-1.075109e+00
-1.077809e+00
-1.079877e+00
-1.081099e+00
-1.081341e+00
-1.080689e+00
-1.079453e+00
-1.077992e+00
-1.076551e+00
-1.075227e+00
-1.073972e+00
-1.072649e+00
-1.071197e+00
-1.069773e+00
-1.068626e+00
-1.067871e+00
-1.067533e+00
-1.067787e+00
-1.069021e+00
-1.071634e+00
-1.075755e+00
-1.081120e+00
-1.087183e+00
-1.093401e+00
-1.099438e+00
-1.105170e+00
-1.110598e+00
-1.115784e+00
-1.120818e+00
-1.125733e+00
-1.130395e+00
-1.134539e+00
-1.138005e+00
-1.140935e+00
-1.143709e+00
-1.146705e+00
-1.150136e+00
-1.154066e+00
-1.158455e+00
-1.163133e+00
-1.167789e+00
-1.172078e+00
-1.175772e+00
-1.178864e+00
-1.181535e+00
-1.184043e+00
-1.186601e+00
-1.189267e+00
-1.191915e+00
-1.194330e+00
-1.196321e+00
-1.197724e+00
-1.198418e+00
-1.198487e+00
-1.198326e+00
-1.198494e+00
-1.199373e+00
-1.200931e+00
-1.202776e+00
-1.204433e+00
-1.205605e+00
-1.206201e+00
-1.206219e+00
-1.205711e+00
-1.204818e+00
-1.203798e+00
-1.203038e+00
-1.202948e+00
-1.203715e+00
-1.205167e+00
-1.206959e+00
-1.208859e+00
-1.210803e+00
-1.212798e+00
-1.214911e+00
-1.217283e+00
-1.220027e+00
-1.223069e+00
-1.226151e+00
-1.228984e+00
-1.231346e+00
-1.233078e+00
-1.234124e+00
-1.234647e+00
-1.235020e+00
-1.235659e+00
-1.236872e+00
-1.238790e+00
-1.241357e+00
-1.244369e+00
-1.247531e+00
-1.250539e+00
-1.253174e+00
-1.255334e+00
-1.256972e+00
-1.258011e+00
-1.258326e+00
-1.257836e+00
-1.256590e+00
-1.254773e+00
-1.252608e+00
-1.250248e+00
-1.247816e+00
-1.245527e+00
-1.243707e+00
-1.242665e+00
-1.242522e+00
-1.243111e+00
-1.244013e+00
-1.244784e+00
-1.245177e+00
-1.245150e+00
-1.244741e+00
-1.243985e+00
-1.242914e+00
-1.241622e+00
-1.240304e+00
-1.239206e+00
-1.238444e+00
-1.237894e+00
-1.237293e+00
-1.236465e+00
-1.235420e+00
-1.234241e+00
-1.232940e+00
-1.231442e+00
-1.229716e+00
-1.227869e+00
-1.226114e+00
-1.224735e+00
-1.224066e+00
-1.224370e+00
-1.225637e+00
-1.227542e+00
-1.229594e+00
-1.231249e+00
-1.232014e+00
-1.231691e+00
-1.230527e+00
-1.228984e+00
-1.227390e+00
-1.225880e+00
-1.224636e+00
-1.224031e+00
-1.224413e+00
-1.225795e+00
-1.227710e+00
-1.229369e+00
-1.230078e+00
-1.229682e+00
-1.228540e+00
-1.227049e+00
-1.225263e+00
-1.222942e+00
-1.219866e+00
-1.216073e+00
-1.211832e+00
-1.207465e+00
-1.203250e+00
-1.199450e+00
-1.196218e+00
-1.193392e+00
-1.190507e+00
-1.187154e+00
-1.183227e+00
-1.178765e+00
-1.173684e+00
-1.167807e+00
-1.161111e+00
-1.153912e+00
-1.146789e+00
-1.140320e+00
-1.134849e+00
-1.130389e+00
-1.126576e+00
-1.122761e+00
-1.118360e+00
-1.113149e+00
-1.107164e+00
-1.100441e+00
-1.093022e+00
-1.085129e+00
-1.077158e+00
-1.069479e+00
-1.062274e+00
-1.055423e+00
-1.048458e+00
-1.040759e+00
-1.031952e+00
-1.022249e+00
-1.012454e+00
-1.003696e+00
-9.970848e-01
-9.934042e-01
-9.927774e-01
-9.944681e-01
-9.971941e-01
-9.999068e-01
-1.002249e+00
-1.004192e+00
-1.005572e+00
-1.006301e+00
-1.006673e+00
-1.007079e+00
-1.007539e+00
-1.007625e+00
-1.006603e+00
-1.003600e+00
-9.979136e-01
-9.894757e-01
-9.791285e-01
-9.683214e-01
-9.583702e-01
-9.499868e-01
-9.434801e-01
-9.391284e-01
-9.370765e-01
-9.368860e-01
-9.374245e-01
-9.374638e-01
-9.364420e-01
-9.344802e-01
-9.316847e-01
-9.277385e-01
-9.223056e-01
-9.156300e-01
-9.085259e-01
-9.018324e-01
-8.960856e-01
-8.917081e-01
-8.892352e-01
-8.891542e-01
-8.914607e-01
-8.953138e-01
-8.992143e-01
-9.017239e-01
-9.021327e-01
-9.005591e-01
-8.975883e-01
-8.938733e-01
-8.899122e-01
-8.858916e-01
-8.815174e-01
-8.761398e-01
-8.693434e-01
-8.613662e-01
-8.527979e-01
-8.441042e-01
-8.356061e-01
-8.276383e-01
-8.205150e-01
-8.143579e-01
-8.090103e-01
-8.042115e-01
-7.998157e-01
-7.957812e-01
-7.921375e-01
-7.890194e-01
-7.865392e-01
-7.846800e-01
-7.834272e-01
-7.827264e-01
-7.821175e-01
-7.807090e-01
-7.777482e-01
-7.730126e-01
-7.665656e-01
-7.584437e-01
-7.486973e-01
-7.374655e-01
-7.249104e-01
-7.112887e-01
-6.971673e-01
-6.834353e-01
-6.710202e-01
-6.605664e-01
-6.523043e-01
-6.461466e-01
-6.419220e-01
-6.396021e-01
-6.393453e-01
-6.412374e-01
-6.448384e-01
-6.489744e-01
-6.521683e-01
-6.533334e-01
-6.519309e-01
-6.476284e-01
-6.402508e-01
-6.302402e-01
-6.189471e-01
-6.081750e-01
-5.992072e-01
-5.921549e-01
-5.863013e-01
-5.810868e-01
-5.767075e-01
-5.739047e-01
-5.733589e-01
-5.752187e-01
-5.791208e-01
-5.846905e-01
-5.918335e-01
-6.001277e-01
-6.079664e-01
-6.129013e-01
-6.134002e-01
-6.103376e-01
-6.063567e-01
-6.035506e-01
-6.020673e-01
-6.010620e-01
-6.003856e-01
-6.008225e-01
-6.030132e-01
-6.066247e-01
-6.104205e-01
-6.129882e-01
-6.136789e-01
-6.128200e-01
-6.109150e-01
-6.082110e-01
-6.051590e-01
-6.022662e-01
-5.991471e-01
-5.945517e-01
-5.875296e-01
-5.780100e-01
-5.663488e-01
-5.528394e-01
-5.376500e-01
-5.211077e-01
-5.042135e-01
-4.888667e-01
-4.772024e-01
-4.702864e-01
-4.673121e-01
-4.661496e-01
-4.646816e-01
-4.618101e-01
-4.576736e-01
-4.529654e-01
-4.479070e-01
-4.421909e-01
-4.358118e-01
-4.291415e-01
-4.221356e-01
-4.142644e-01
-4.053785e-01
-3.961040e-01
-3.872891e-01
-3.794300e-01
-3.726880e-01
-3.671579e-01
-3.630312e-01
-3.607371e-01
-3.611043e-01
-3.651461e-01
-3.732002e-01
-3.842202e-01
-3.963138e-01
-4.080603e-01
-4.191642e-01
-4.301183e-01
-4.415217e-01
-4.534679e-01
-4.653780e-01
-4.764905e-01
-4.862592e-01
-4.940524e-01
-4.990412e-01
-5.009635e-01
-5.006419e-01
-4.993952e-01
-4.983429e-01
-4.982737e-01
-4.992980e-01
-5.003709e-01
-4.998708e-01
-4.968426e-01
-4.911503e-01
-4.825686e-01
-4.706881e-01
-4.559430e-01
-4.399344e-01
-4.244106e-01
-4.104438e-01
-3.987020e-01
-3.898446e-01
-3.842689e-01
-3.816704e-01
-3.809193e-01
-3.803544e-01
-3.783942e-01
-3.739652e-01
-3.664373e-01
-3.554535e-01
-3.409364e-01
-3.229979e-01
-3.015551e-01
-2.760304e-01
-2.457194e-01
-2.107884e-01
-1.730174e-01
-1.352984e-01
-1.000395e-01
-6.815300e-02
-3.971132e-02
-1.495311e-02
5.786609e-03
2.265700e-02
3.663340e-02
4.950989e-02
6.307860e-02
7.784932e-02
9.298757e-02
1.077350e-01
1.223087e-01
1.373195e-01
1.530831e-01
1.696477e-01
1.869462e-01
2.048973e-01
2.235847e-01
2.431962e-01
2.637881e-01
2.854209e-01
3.084100e-01
3.329332e-01
3.584361e-01
3.840092e-01
4.094095e-01
4.351478e-01
4.615318e-01
4.882081e-01
5.144566e-01
5.390472e-01
5.598763e-01
5.746243e-01
5.821014e-01
5.828488e-01
5.785419e-01
5.709347e-01
5.613108e-01
5.508186e-01
5.411021e-01
5.340521e-01
5.304754e-01
5.293722e-01
5.290479e-01
5.286399e-01
5.283410e-01
5.287365e-01
5.303396e-01
5.334487e-01
5.380455e-01
5.437456e-01
5.499936e-01
5.564970e-01
5.635414e-01
5.718583e-01
5.821305e-01
5.945651e-01
6.088220e-01
6.240500e-01
6.388816e-01
6.518269e-01
6.621454e-01
6.704018e-01
6.781047e-01
6.868803e-01
6.981187e-01
7.131975e-01
7.332929e-01
7.583670e-01
7.866536e-01
8.158000e-01
8.444830e-01
8.725720e-01
9.000881e-01
9.266760e-01
9.519652e-01
9.759032e-01
9.988483e-01
1.021732e+00
1.045786e+00
1.071481e+00
1.097714e+00
1.122238e+00
1.142869e+00
1.158582e+00
1.169978e+00
1.178922e+00
1.187625e+00
1.197898e+00
1.211117e+00
1.228470e+00
1.250518e+00
1.276142e+00
1.302328e+00
1.325430e+00
1.342748e+00
1.353330e+00
1.357826e+00
1.357556e+00
1.353577e+00
1.346732e+00
1.338402e+00
1.330577e+00
1.325025e+00
1.322481e+00
1.322908e+00
1.326637e+00
1.334565e+00
1.346891e+00
1.362417e+00
1.379515e+00
1.397404e+00
1.416337e+00
1.436792e+00
1.458591e+00
1.480867e+00
1.502824e+00
1.524331e+00
1.545700e+00
1.567033e+00
1.587942e+00
1.607735e+00
1.625594e+00
1.640730e+00
1.652725e+00
1.661771e+00
1.668569e+00
1.674265e+00
1.680505e+00
1.688992e+00
1.700618e+00
1.715241e+00
1.732343e+00
1.751473e+00
1.772063e+00
1.793552e+00
1.816238e+00
1.841671e+00
1.871778e+00
1.907538e+00
1.948295e+00
1.991760e+00
2.034422e+00
2.072555e+00
2.103648e+00
2.127046e+00
2.143221e+00
2.152630e+00
2.155389e+00
2.151922e+00
2.143803e+00
2.133677e+00
2.123908e+00
2.115048e+00
2.105826e+00
2.094427e+00
2.079527e+00
2.060770e+00
2.038894e+00
2.015357e+00
1.991746e+00
1.969225e+00
1.948126e+00
1.928261e+00
1.909906e+00
1.894097e+00
1.881695e+00
1.872454e+00
1.865008e+00
1.857553e+00
1.848673e+00
1.837844e+00
1.825296e+00
1.811524e+00
1.796993e+00
1.782157e+00
1.767667e+00
1.754430e+00
1.743282e+00
1.734426e+00
1.727332e+00
1.721346e+00
1.716170e+00
1.711690e+00
1.707733e+00
1.704087e+00
1.700395e+00
1.696117e+00
1.691054e+00
1.685808e+00
1.681329e+00
1.678106e+00
1.676077e+00
1.675091e+00
1.675135e+00
1.676129e+00
1.677737e+00
1.679522e+00
1.681398e+00
1.684032e+00
1.688591e+00
1.695950e+00
1.706277e+00
1.719245e+00
1.734245e+00
1.750566e+00
1.767766e+00
1.785716e+00
1.804233e+00
1.823051e+00
1.842043e+00
1.860916e+00
1.878813e+00
1.894739e+00
1.908487e+00
1.921007e+00
1.933817e+00
1.947777e+00
1.962260e+00
1.975642e+00
1.986419e+00
1.993525e+00
1.996073e+00
1.993606e+00
1.986533e+00
1.975856e+00
1.962689e+00
1.948380e+00
1.934706e+00
1.923470e+00
1.916052e+00
1.913287e+00
1.915200e+00
1.920682e+00
1.927869e+00
1.935076e+00
1.941297e+00
1.946133e+00
1.949628e+00
1.951858e+00
1.952266e+00
1.949831e+00
1.944437e+00
1.937711e+00
1.931905e+00
1.928025e+00
1.925420e+00
1.922927e+00
1.919865e+00
1.916106e+00
1.911857e+00
1.907403e+00
1.902662e+00
1.897015e+00
1.889809e+00
1.881027e+00
1.871341e+00
1.861489e+00
1.851667e+00
1.841556e+00
1.830837e+00
1.819475e+00
1.807442e+00
1.794448e+00
1.780371e+00
1.765938e+00
1.752562e+00
1.741389e+00
1.732737e+00
1.726520e+00
1.722796e+00
1.721718e+00
1.723273e+00
1.727177e+00
1.732786e+00
1.739312e+00
1.746538e+00
1.755168e+00
1.766071e+00
1.779191e+00
1.793393e+00
1.807472e+00
1.821208e+00
1.835461e+00
1.851366e+00
1.869470e+00
1.889423e+00
1.910310e+00
1.931193e+00
1.951449e+00
1.970736e+00
1.988683e+00
2.004734e+00
2.018531e+00
2.030444e+00
2.041447e+00
2.052390e+00
2.063614e+00
2.075307e+00
2.087743e+00
2.100883e+00
2.114074e+00
2.126328e+00
2.136870e+00
2.145520e+00
2.152763e+00
2.159612e+00
2.167465e+00
2.177756e+00
2.191246e+00
2.207515e+00
2.225263e+00
2.243094e+00
2.260022e+00
2.275557e+00
2.289694e+00
2.302783e+00
2.315180e+00
2.327090e+00
2.338798e+00
2.350899e+00
2.364210e+00
2.379596e+00
2.397866e+00
2.419586e+00
2.444710e+00
2.472402e+00
2.501466e+00
2.530874e+00
2.559718e+00
2.586970e+00
2.611659e+00
2.633221e+00
2.651657e+00
2.667571e+00
2.681931e+00
2.695465e+00
2.708256e+00
2.720067e+00
2.730834e+00
2.740651e+00
2.749374e+00
2.756458e+00
2.761325e+00
2.764071e+00
2.765837e+00
2.768272e+00
2.772428e+00
2.778082e+00
2.784087e+00
2.789291e+00
2.793081e+00
2.795269e+00
2.795690e+00
2.793896e+00
2.789266e+00
2.781510e+00
2.770995e+00
2.758512e+00
2.744945e+00
2.731218e+00
2.718145e+00
2.706068e+00
2.694865e+00
2.684516e+00
2.675502e+00
2.668519e+00
2.664052e+00
2.662477e+00
2.664164e+00
2.668968e+00
2.675786e+00
2.682997e+00
2.689288e+00
2.694052e+00
2.697359e+00
2.699761e+00
2.701945e+00
2.704383e+00
2.707195e+00
2.710181e+00
2.712768e+00
2.714053e+00
2.713250e+00
2.710182e+00
2.705277e+00
2.699061e+00
2.691760e+00
2.683393e+00
2.674186e+00
2.664733e+00
2.655820e+00
2.648102e+00
2.641857e+00
2.636889e+00
2.632632e+00
2.628504e+00
2.624261e+00
2.619939e+00
2.615662e+00
2.611705e+00
2.608585e+00
2.606891e+00
2.607016e+00
2.608989e+00
2.612431e+00
2.616770e+00
2.621541e+00
2.626414e+00
2.630926e+00
2.634419e+00
2.636486e+00
2.637438e+00
2.638175e+00
2.639587e+00
2.642071e+00
2.645436e+00
2.649223e+00
2.653254e+00
2.657906e+00
2.663742e+00
2.670863e+00
2.678721e+00
2.686579e+00
2.693989e+00
2.700753e+00
2.706631e+00
2.711502e+00
2.715755e+00
2.720219e+00
2.725750e+00
2.733033e+00
2.742567e+00
2.754593e+00
2.769010e+00
2.785360e+00
2.802836e+00
2.820328e+00
2.836662e+00
2.851026e+00
2.863367e+00
2.874305e+00
2.884474e+00
2.893976e+00
2.902511e+00
2.909785e+00
2.915631e+00
2.919964e+00
2.922855e+00
2.924521e+00
2.925052e+00
2.924278e+00
2.922107e+00
2.918882e+00
2.915351e+00
2.912444e+00
2.911006e+00
2.911368e+00
2.913076e+00
2.915234e+00
2.917228e+00
2.919057e+00
2.920955e+00
2.922853e+00
2.924446e+00
2.925704e+00
2.927058e+00
2.929018e+00
2.931736e+00
2.934960e+00
2.938284e+00
2.941257e+00
2.943275e+00
2.943652e+00
2.942008e+00
2.938488e+00
2.933510e+00
2.927464e+00
2.920760e+00
2.914092e+00
2.908459e+00
2.904753e+00
2.903275e+00
2.903611e+00
2.905029e+00
2.907033e+00
2.909546e+00
2.912647e+00
2.916311e+00
2.920392e+00
2.924732e+00
2.929191e+00
2.933608e+00
2.937749e+00
2.941335e+00
2.944177e+00
2.946339e+00
2.948170e+00
2.950087e+00
2.952191e+00
2.954119e+00
2.955337e+00
2.955565e+00
2.954898e+00
2.953563e+00
2.951628e+00
2.949109e+00
2.946335e+00
2.943939e+00
2.942395e+00
2.941761e+00
2.941883e+00
2.942620e+00
2.943909e+00
2.945727e+00
2.947852e+00
2.949579e+00
2.949969e+00
2.948535e+00
2.945557e+00
2.941700e+00
2.937457e+00
2.932868e+00
2.927586e+00
2.921212e+00
2.913705e+00
2.905440e+00
2.896829e+00
2.887918e+00
2.878398e+00
2.867976e+00
2.856653e+00
2.844613e+00
2.831972e+00
2.818740e+00
2.804944e+00
2.790674e+00
2.776007e+00
2.760965e+00
2.745566e+00
2.729865e+00
2.713857e+00
2.697348e+00
2.680073e+00
2.662006e+00
2.643470e+00
2.624859e+00
2.606300e+00
2.587573e+00
2.568275e+00
2.547948e+00
2.526089e+00
2.502259e+00
2.476352e+00
2.448702e+00
2.419923e+00
2.390728e+00
2.361780e+00
2.333564e+00
2.306345e+00
2.280215e+00
2.255106e+00
2.230861e+00
2.207428e+00
2.185055e+00
2.164204e+00
2.145217e+00
2.128086e+00
2.112573e+00
2.098511e+00
2.085921e+00
2.074763e+00
2.064583e+00
2.054454e+00
2.043332e+00
2.030509e+00
2.015733e+00
1.998965e+00
1.980114e+00
1.958931e+00
1.935150e+00
1.908778e+00
1.880214e+00
1.850037e+00
1.818776e+00
1.786965e+00
1.755282e+00
1.724376e+00
1.694583e+00
1.665964e+00
1.638643e+00
1.612895e+00
1.588825e+00
1.566162e+00
1.544522e+00
1.523839e+00
1.504314e+00
1.485927e+00
1.468178e+00
1.450353e+00
1.431889e+00
1.412430e+00
1.391704e+00
1.369559e+00
1.346191e+00
1.322168e+00
1.298017e+00
1.273726e+00
1.248729e+00
1.222333e+00
1.194086e+00
1.163837e+00
1.131631e+00
1.097639e+00
1.062221e+00
1.026039e+00
9.899940e-01
9.548873e-01
9.210945e-01
8.885541e-01
8.570190e-01
8.262839e-01
7.962345e-01
7.667946e-01
7.378839e-01
7.093744e-01
6.810568e-01
6.527152e-01
6.243211e-01
5.961300e-01
5.684970e-01
5.415563e-01
5.150622e-01
4.885122e-01
4.614440e-01
4.336351e-01
4.050453e-01
3.756380e-01
3.452939e-01
3.138985e-01
2.815590e-01
2.487557e-01
2.161802e-01
1.843045e-01
1.531127e-01
1.222733e-01
9.148479e-02
6.063118e-02
2.976649e-02
-9.416758e-04
-3.131327e-02
-6.123784e-02
-9.066830e-02
-1.196366e-01
-1.483500e-01
-1.772295e-01
-2.068137e-01
-2.376499e-01
-2.702708e-01
-3.051443e-01
-3.424569e-01
-3.818933e-01
-4.227178e-01
-4.641170e-01
-5.055031e-01
-5.466136e-01
-5.873889e-01
-6.277288e-01
-6.673434e-01
-7.058137e-01
-7.427635e-01
-7.779860e-01
-8.114263e-01
-8.430405e-01
-8.727112e-01
-9.003624e-01
-9.261500e-01
-9.504722e-01
-9.738293e-01
-9.967454e-01
-1.019723e+00
-1.043079e+00
-1.066815e+00
-1.090779e+00
-1.115015e+00
-1.139825e+00
-1.165476e+00
-1.191934e+00
-1.218925e+00
-1.246146e+00
-1.273396e+00
-1.300587e+00
-1.327656e+00
-1.354482e+00
-1.380904e+00
-1.406842e+00
-1.432312e+00
-1.457351e+00
-1.481969e+00
-1.506171e+00
-1.529979e+00
-1.553446e+00
-1.576627e+00
-1.599555e+00
-1.622241e+00
-1.644664e+00
-1.666778e+00
-1.688580e+00
-1.710200e+00
-1.731858e+00
-1.753696e+00
-1.775679e+00
-1.797646e+00
-1.819394e+00
-1.840739e+00
-1.861598e+00
-1.882034e+00
-1.902190e+00
-1.922173e+00
-1.942098e+00
-1.962167e+00
-1.982605e+00
-2.003487e+00
-2.024650e+00
-2.045739e+00
-2.066348e+00
-2.086203e+00
-2.105239e+00
-2.123511e+00
-2.141020e+00
-2.157657e+00
-2.173289e+00
-2.187884e+00
-2.201560e+00
-2.214595e+00
-2.227405e+00
-2.240402e+00
-2.253874e+00
-2.267986e+00
-2.282820e+00
-2.298368e+00
-2.314502e+00
-2.331002e+00
-2.347611e+00
-2.364122e+00
-2.380493e+00
-2.396890e+00
-2.413553e+00
-2.430565e+00
-2.447764e+00
-2.464878e+00
-2.481697e+00
-2.498094e+00
-2.513945e+00
-2.529025e+00
-2.542968e+00
-2.555311e+00
-2.565625e+00
-2.573640e+00
-2.579263e+00
-2.582526e+00
-2.583565e+00
-2.582642e+00
-2.580139e+00
-2.576451e+00
-2.571901e+00
-2.566737e+00
-2.561155e+00
-2.555299e+00
-2.549288e+00
-2.543209e+00
-2.537025e+00
-2.530531e+00
-2.523493e+00
-2.515808e+00
-2.507485e+00
-2.498544e+00
-2.489013e+00
-2.478995e+00
-2.468661e+00
-2.458148e+00
-2.447514e+00
-2.436776e+00
-2.425916e+00
-2.414823e+00
-2.403250e+00
-2.390868e+00
-2.377333e+00
-2.362378e+00
-2.345881e+00
-2.327867e+00
-2.308472e+00
-2.287919e+00
-2.266501e+00
-2.244527e+00
-2.222242e+00
-2.199801e+00
-2.177271e+00
-2.154649e+00
-2.131977e+00
-2.109433e+00
-2.087282e+00
-2.065709e+00
-2.044701e+00
-2.024058e+00
-2.003527e+00
-1.982946e+00
-1.962269e+00
-1.941471e+00
-1.920477e+00
-1.899182e+00
-1.877515e+00
-1.855483e+00
-1.833157e+00
-1.810625e+00
-1.787945e+00
-1.765116e+00
-1.742093e+00
-1.718835e+00
-1.695370e+00
-1.671875e+00
-1.648704e+00
-1.626291e+00
-1.604968e+00
-1.584836e+00
-1.565750e+00
-1.547426e+00
-1.529572e+00
-1.511974e+00
-1.494500e+00
-1.477047e+00
-1.459527e+00
-1.441912e+00
-1.424299e+00
-1.406890e+00
-1.389882e+00
-1.373350e+00
-1.357267e+00
-1.341604e+00
-1.326405e+00
-1.311767e+00
-1.297744e+00
-1.284278e+00
-1.271230e+00
-1.258490e+00
-1.246002e+00
-1.233686e+00
-1.221407e+00
-1.209058e+00
-1.196599e+00
-1.184017e+00
-1.171269e+00
-1.158258e+00
-1.144832e+00
-1.130798e+00
-1.115986e+00
-1.100306e+00
-1.083735e+00
-1.066270e+00
-1.047950e+00
-1.028908e+00
-1.009370e+00
-9.895657e-01
-9.695737e-01
-9.492778e-01
-9.285070e-01
-9.072115e-01
-8.854819e-01
-8.634577e-01
-8.412862e-01
-8.191552e-01
-7.973019e-01
-7.759445e-01
-7.551961e-01
-7.350419e-01
-7.153677e-01
-6.959723e-01
-6.765669e-01
-6.568188e-01
-6.364242e-01
-6.151536e-01
-5.928901e-01
-5.696848e-01
-5.457774e-01
-5.215188e-01
-4.972232e-01
-4.730656e-01
-4.491110e-01
-4.254171e-01
-4.020791e-01
-3.792206e-01
-3.569977e-01
