EVENT_NAME: EMILIA_2ND_SHOCK
EVENT_ID: IT-2012-0011
EVENT_DATE_YYYYMMDD: 20120529
EVENT_TIME_HHMMSS: 070002
EVENT_LATITUDE_DEGREE: 44.8417
EVENT_LONGITUDE_DEGREE: 11.0657
EVENT_DEPTH_KM: 8.1
HYPOCENTER_REFERENCE: INGV-CNT_Seismic_Bulletin
MAGNITUDE_W: 6.0
MAGNITUDE_W_REFERENCE: RCMT-INGV
MAGNITUDE_L: 5.8
MAGNITUDE_L_REFERENCE: INGV-CNT_Seismic_Bulletin
FOCAL_MECHANISM: TF
NETWORK: IT
STATION_CODE: SAG0
STATION_NAME: SANT AGOSTINO
STATION_LATITUDE_DEGREE: 44.791000
STATION_LONGITUDE_DEGREE: 11.390400
STATION_ELEVATION_M: 66
LOCATION: 
SENSOR_DEPTH_M: 0.0
VS30_M/S: 
SITE_CLASSIFICATION_EC8: C*
MORPHOLOGIC_CLASSIFICATION: 
EPICENTRAL_DISTANCE_KM: 26.3
EARTHQUAKE_BACKAZIMUTH_DEGREE: 282.5
DATE_TIME_FIRST_SAMPLE_YYYYMMDD_HHMMSS: 20120529_065943.000
DATE_TIME_FIRST_SAMPLE_PRECISION: seconds
SAMPLING_INTERVAL_S: 0.005000
NDATA: 30001
DURATION_S: 150.005
STREAM: HNE
UNITS: cm
INSTRUMENT: sensor = Episensor FBA ES-T [Kinemetrics] | digitizer = Etna [Kinemetrics]
INSTRUMENT_ANALOG/DIGITAL: D
INSTRUMENTAL_FREQUENCY_HZ: 
INSTRUMENTAL_DAMPING: 
FULL_SCALE_G: 
N_BIT_DIGITAL_CONVERTER: 18
PGD_CM: 1.497775
TIME_PGD_S: 54.810000
BASELINE_CORRECTION: BASELINE REMOVED
FILTER_TYPE: BUTTERWORTH
FILTER_ORDER: 2
LOW_CUT_FREQUENCY_HZ: 0.050
HIGH_CUT_FREQUENCY_HZ: 35.000
LATE/NORMAL_TRIGGERED: NT
DATABASE_VERSION: DYNA 1.0
HEADER_FORMAT: DYNA 1.2
DATA_TYPE: DISPLACEMENT
PROCESSING: manual (Paolucci et al., 2011)
DATA_TIMESTAMP_YYYYMMDD_HHMMSS: 
DATA_LICENSE: CC-BY3_0-IT (http://creativecommons.org/licenses/by/3.0/deed.en)
DATA_CITATION: ESM working group (2015), European Strong-Motion database, version 0.1, Network Activity 3: Networking acceleration networks and SM data users. Project NERA (www.nera-eu.org)
DATA_CREATOR: ESM working group
ORIGINAL_DATA_MEDIATOR_CITATION: Ufficio Rischio Sismico e Vulcanico del Dipartimento della Protezione Civile (http://www.protezionecivile.gov.it/)
ORIGINAL_DATA_MEDIATOR: Rete Accelerometrica Nazionale - RAN Download (http://www.mot1.it/randownload/)
ORIGINAL_DATA_CREATOR_CITATION: Italian Strong Motion Network, Italian Civil Protection Department http://www.protezionecivile.gov.it
ORIGINAL_DATA_CREATOR: network: IT (Italian Strong Motion Network); owner: Dipartimento Della Protezione Civile
USER1: 
USER2: 
USER3: 
USER4: 
USER5: 
[...]
-4.948754e-02
-4.529114e-02
-4.095046e-02
-3.646673e-02
-3.184018e-02
-2.706985e-02
-2.215361e-02
-1.708826e-02
-1.186974e-02
-6.493262e-03
-9.535441e-04
4.754864e-03
1.063717e-02
1.669795e-02
2.294086e-02
2.936832e-02
3.598128e-02
4.277897e-02
4.975895e-02
5.691732e-02
6.424891e-02
7.174751e-02
7.940613e-02
8.721729e-02
9.517363e-02
1.032687e-01
1.114973e-01
1.198556e-01
1.283403e-01
1.369486e-01
1.456776e-01
1.545235e-01
1.634809e-01
1.725423e-01
1.816980e-01
1.909362e-01
2.002442e-01
2.096079e-01
2.190129e-01
2.284446e-01
2.378891e-01
2.473340e-01
2.567681e-01
2.661821e-01
2.755686e-01
2.849226e-01
2.942413e-01
3.035240e-01
3.127714e-01
3.219852e-01
3.311677e-01
3.403210e-01
3.494458e-01
3.585408e-01
3.676020e-01
3.766232e-01
3.855952e-01
3.945067e-01
4.033447e-01
4.120952e-01
4.207448e-01
4.292806e-01
4.376906e-01
4.459642e-01
4.540918e-01
4.620645e-01
4.698740e-01
4.775123e-01
4.849713e-01
4.922422e-01
4.993153e-01
5.061801e-01
5.128251e-01
5.192384e-01
5.254075e-01
5.313195e-01
5.369608e-01
5.423174e-01
5.473753e-01
5.521207e-01
5.565405e-01
5.606221e-01
5.643540e-01
5.677263e-01
5.707304e-01
5.733597e-01
5.756096e-01
5.774771e-01
5.789614e-01
5.800634e-01
5.807856e-01
5.811314e-01
5.811050e-01
5.807115e-01
5.799564e-01
5.788457e-01
5.773858e-01
5.755833e-01
5.734453e-01
5.709796e-01
5.681947e-01
5.650997e-01
5.617042e-01
5.580178e-01
5.540503e-01
5.498114e-01
5.453107e-01
5.405570e-01
5.355589e-01
5.303247e-01
5.248626e-01
5.191808e-01
5.132882e-01
5.071940e-01
5.009079e-01
4.944405e-01
4.878030e-01
4.810077e-01
4.740672e-01
4.669941e-01
4.598007e-01
4.524983e-01
4.450969e-01
4.376046e-01
4.300269e-01
4.223672e-01
4.146265e-01
4.068039e-01
3.988973e-01
3.909040e-01
3.828210e-01
3.746456e-01
3.663763e-01
3.580124e-01
3.495538e-01
3.410016e-01
3.323572e-01
3.236227e-01
3.148005e-01
3.058928e-01
2.969018e-01
2.878297e-01
2.786789e-01
2.694524e-01
2.601532e-01
2.507851e-01
2.413514e-01
2.318561e-01
2.223026e-01
2.126939e-01
2.030326e-01
1.933209e-01
1.835613e-01
1.737563e-01
1.639088e-01
1.540224e-01
1.441010e-01
1.341493e-01
1.241723e-01
1.141757e-01
1.041654e-01
9.414728e-02
8.412758e-02
7.411247e-02
6.410857e-02
5.412323e-02
4.416488e-02
3.424288e-02
2.436717e-02
1.454770e-02
4.793916e-03
-4.885844e-03
-1.448483e-02
-2.399811e-02
-3.342245e-02
-4.275613e-02
-5.199859e-02
-6.114995e-02
-7.021067e-02
-7.918134e-02
-8.806257e-02
-9.685477e-02
-1.055580e-01
-1.141721e-01
-1.226966e-01
-1.311309e-01
-1.394740e-01
-1.477252e-01
-1.558847e-01
-1.639534e-01
-1.719335e-01
-1.798280e-01
-1.876410e-01
-1.953777e-01
-2.030442e-01
-2.106468e-01
-2.181922e-01
-2.256869e-01
-2.331370e-01
-2.405484e-01
-2.479264e-01
-2.552756e-01
-2.625995e-01
-2.699011e-01
-2.771825e-01
-2.844450e-01
-2.916896e-01
-2.989174e-01
-3.061303e-01
-3.133314e-01
-3.205261e-01
-3.277218e-01
-3.349289e-01
-3.421603e-01
-3.494304e-01
-3.567540e-01
-3.641454e-01
-3.716181e-01
-3.791844e-01
-3.868547e-01
-3.946382e-01
-4.025427e-01
-4.105748e-01
-4.187402e-01
-4.270427e-01
-4.354843e-01
-4.440654e-01
-4.527850e-01
-4.616416e-01
-4.706328e-01
-4.797551e-01
-4.890041e-01
-4.983753e-01
-5.078635e-01
-5.174630e-01
-5.271667e-01
-5.369673e-01
-5.468570e-01
-5.568271e-01
-5.668672e-01
-5.769650e-01
-5.871068e-01
-5.972770e-01
-6.074584e-01
-6.176320e-01
-6.277788e-01
-6.378805e-01
-6.479205e-01
-6.578842e-01
-6.677591e-01
-6.775356e-01
-6.872072e-01
-6.967709e-01
-7.062264e-01
-7.155755e-01
-7.248213e-01
-7.339676e-01
-7.430184e-01
-7.519767e-01
-7.608446e-01
-7.696224e-01
-7.783090e-01
-7.869020e-01
-7.953983e-01
-8.037945e-01
-8.120877e-01
-8.202756e-01
-8.283572e-01
-8.363342e-01
-8.442102e-01
-8.519916e-01
-8.596862e-01
-8.673036e-01
-8.748542e-01
-8.823492e-01
-8.897990e-01
-8.972137e-01
-9.046021e-01
-9.119720e-01
-9.193293e-01
-9.266780e-01
-9.340198e-01
-9.413543e-01
-9.486799e-01
-9.559941e-01
-9.632939e-01
-9.705770e-01
-9.778417e-01
-9.850874e-01
-9.923150e-01
-9.995260e-01
-1.006722e+00
-1.013907e+00
-1.021083e+00
-1.028251e+00
-1.035414e+00
-1.042571e+00
-1.049721e+00
-1.056862e+00
-1.063989e+00
-1.071098e+00
-1.078184e+00
-1.085244e+00
-1.092272e+00
-1.099268e+00
-1.106230e+00
-1.113159e+00
-1.120056e+00
-1.126924e+00
-1.133767e+00
-1.140588e+00
-1.147394e+00
-1.154189e+00
-1.160977e+00
-1.167761e+00
-1.174541e+00
-1.181317e+00
-1.188085e+00
-1.194839e+00
-1.201570e+00
-1.208268e+00
-1.214920e+00
-1.221513e+00
-1.228033e+00
-1.234464e+00
-1.240793e+00
-1.247007e+00
-1.253094e+00
-1.259045e+00
-1.264850e+00
-1.270503e+00
-1.276000e+00
-1.281334e+00
-1.286504e+00
-1.291505e+00
-1.296334e+00
-1.300987e+00
-1.305459e+00
-1.309746e+00
-1.313841e+00
-1.317738e+00
-1.321427e+00
-1.324902e+00
-1.328151e+00
-1.331166e+00
-1.333938e+00
-1.336460e+00
-1.338723e+00
-1.340723e+00
-1.342456e+00
-1.343918e+00
-1.345107e+00
-1.346021e+00
-1.346658e+00
-1.347014e+00
-1.347087e+00
-1.346872e+00
-1.346362e+00
-1.345553e+00
-1.344435e+00
-1.343000e+00
-1.341239e+00
-1.339146e+00
-1.336711e+00
-1.333930e+00
-1.330799e+00
-1.327315e+00
-1.323479e+00
-1.319293e+00
-1.314762e+00
-1.309894e+00
-1.304698e+00
-1.299183e+00
-1.293362e+00
-1.287245e+00
-1.280846e+00
-1.274175e+00
-1.267247e+00
-1.260071e+00
-1.252659e+00
-1.245021e+00
-1.237167e+00
-1.229106e+00
-1.220846e+00
-1.212394e+00
-1.203757e+00
-1.194942e+00
-1.185954e+00
-1.176800e+00
-1.167485e+00
-1.158012e+00
-1.148383e+00
-1.138597e+00
-1.128653e+00
-1.118544e+00
-1.108266e+00
-1.097809e+00
-1.087165e+00
-1.076325e+00
-1.065281e+00
-1.054026e+00
-1.042554e+00
-1.030859e+00
-1.018938e+00
-1.006786e+00
-9.944039e-01
-9.817894e-01
-9.689436e-01
-9.558685e-01
-9.425677e-01
-9.290462e-01
-9.153105e-01
-9.013682e-01
-8.872278e-01
-8.728988e-01
-8.583916e-01
-8.437167e-01
-8.288844e-01
-8.139052e-01
-7.987895e-01
-7.835472e-01
-7.681882e-01
-7.527219e-01
-7.371574e-01
-7.215036e-01
-7.057691e-01
-6.899624e-01
-6.740915e-01
-6.581640e-01
-6.421872e-01
-6.261677e-01
-6.101118e-01
-5.940248e-01
-5.779119e-01
-5.617778e-01
-5.456280e-01
-5.294684e-01
-5.133065e-01
-4.971510e-01
-4.810127e-01
-4.649033e-01
-4.488362e-01
-4.328254e-01
-4.168859e-01
-4.010332e-01
-3.852830e-01
-3.696510e-01
-3.541525e-01
-3.388025e-01
-3.236159e-01
-3.086076e-01
-2.937920e-01
-2.791831e-01
-2.647941e-01
-2.506379e-01
-2.367264e-01
-2.230711e-01
-2.096825e-01
-1.965698e-01
-1.837413e-01
-1.712033e-01
-1.589606e-01
-1.470150e-01
-1.353658e-01
-1.240096e-01
-1.129402e-01
-1.021492e-01
-9.162623e-02
-8.135996e-02
-7.133841e-02
-6.154982e-02
-5.198346e-02
-4.263030e-02
-3.348354e-02
-2.453845e-02
-1.579212e-02
-7.243085e-03
1.108999e-03
9.263515e-03
1.721912e-02
2.497404e-02
3.252631e-02
3.987391e-02
4.701487e-02
5.394735e-02
6.066964e-02
6.718026e-02
7.347805e-02
7.956219e-02
8.543230e-02
9.108854e-02
9.653153e-02
1.017621e-01
1.067811e-01
1.115891e-01
1.161868e-01
1.205746e-01
1.247533e-01
1.287234e-01
1.324862e-01
1.360428e-01
1.393949e-01
1.425444e-01
1.454931e-01
1.482433e-01
1.507974e-01
1.531581e-01
1.553282e-01
1.573102e-01
1.591064e-01
1.607185e-01
1.621477e-01
1.633947e-01
1.644596e-01
1.653421e-01
1.660416e-01
1.665580e-01
1.668907e-01
1.670397e-01
1.670052e-01
1.667882e-01
1.663905e-01
1.658152e-01
1.650665e-01
1.641497e-01
1.630715e-01
1.618402e-01
1.604648e-01
1.589556e-01
1.573233e-01
1.555789e-01
1.537339e-01
1.517998e-01
1.497882e-01
1.477107e-01
1.455789e-01
1.434042e-01
1.411983e-01
1.389727e-01
1.367390e-01
1.345087e-01
1.322928e-01
1.301021e-01
1.279462e-01
1.258337e-01
1.237712e-01
1.217634e-01
1.198134e-01
1.179221e-01
1.160892e-01
1.143134e-01
1.125921e-01
1.109218e-01
1.092978e-01
1.077152e-01
1.061688e-01
1.046539e-01
1.031663e-01
1.017027e-01
1.002606e-01
9.883834e-02
9.743521e-02
9.605135e-02
9.468737e-02
9.334406e-02
9.202217e-02
9.072236e-02
8.944524e-02
8.819153e-02
8.696250e-02
8.576047e-02
8.458930e-02
8.345458e-02
8.236360e-02
8.132516e-02
8.034919e-02
7.944634e-02
7.862721e-02
7.790179e-02
7.727918e-02
7.676765e-02
7.637459e-02
7.610600e-02
7.596597e-02
7.595632e-02
7.607650e-02
7.632336e-02
7.669078e-02
7.716939e-02
7.774703e-02
7.840962e-02
7.914222e-02
7.992990e-02
8.075861e-02
8.161597e-02
8.249208e-02
8.337990e-02
8.427516e-02
8.517616e-02
8.608341e-02
8.699913e-02
8.792651e-02
8.886900e-02
8.982994e-02
9.081234e-02
9.181866e-02
9.285039e-02
9.390773e-02
9.498934e-02
9.609249e-02
9.721317e-02
9.834629e-02
9.948595e-02
1.006259e-01
1.017601e-01
1.028827e-01
1.039886e-01
1.050727e-01
1.061305e-01
1.071575e-01
1.081496e-01
1.091030e-01
1.100137e-01
1.108778e-01
1.116915e-01
1.124512e-01
1.131532e-01
1.137942e-01
1.143708e-01
1.148800e-01
1.153192e-01
1.156865e-01
1.159804e-01
1.162002e-01
1.163456e-01
1.164173e-01
1.164166e-01
1.163453e-01
1.162057e-01
1.160008e-01
1.157339e-01
1.154083e-01
1.150270e-01
1.145920e-01
1.141040e-01
1.135620e-01
1.129632e-01
1.123024e-01
1.115723e-01
1.107635e-01
1.098649e-01
1.088649e-01
1.077511e-01
1.065121e-01
1.051374e-01
1.036182e-01
1.019466e-01
1.001163e-01
9.812174e-02
9.595836e-02
9.362241e-02
9.111106e-02
8.842254e-02
8.555623e-02
8.251267e-02
7.929365e-02
7.590231e-02
7.234324e-02
6.862253e-02
6.474761e-02
6.072691e-02
5.656947e-02
5.228447e-02
4.788095e-02
4.336755e-02
3.875247e-02
3.404360e-02
2.924896e-02
2.437706e-02
1.943707e-02
1.443883e-02
9.392708e-03
4.309571e-03
-7.993163e-04
-5.922353e-03
-1.104775e-02
-1.616371e-02
-2.125854e-02
-2.632091e-02
-3.134012e-02
-3.630644e-02
-4.121118e-02
-4.604674e-02
-5.080656e-02
-5.548511e-02
-6.007762e-02
-6.457967e-02
-6.898654e-02
-7.329265e-02
-7.749125e-02
-8.157439e-02
-8.553306e-02
-8.935751e-02
-9.303766e-02
-9.656360e-02
-9.992592e-02
-1.031160e-01
-1.061261e-01
-1.089487e-01
-1.115773e-01
-1.140055e-01
-1.162276e-01
-1.182382e-01
-1.200322e-01
-1.216053e-01
-1.229535e-01
-1.240737e-01
-1.249638e-01
-1.256222e-01
-1.260485e-01
-1.262432e-01
-1.262079e-01
-1.259450e-01
-1.254574e-01
-1.247483e-01
-1.238209e-01
-1.226781e-01
-1.213217e-01
-1.197531e-01
-1.179725e-01
-1.159797e-01
-1.137745e-01
-1.113569e-01
-1.087280e-01
-1.058897e-01
-1.028446e-01
-9.959595e-02
-9.614751e-02
-9.250320e-02
-8.866660e-02
-8.464067e-02
-8.042770e-02
-7.602951e-02
-7.144749e-02
-6.668246e-02
-6.173457e-02
-5.660348e-02
-5.128868e-02
-4.578971e-02
-4.010635e-02
-3.423899e-02
-2.818897e-02
-2.195905e-02
-1.555357e-02
-8.978376e-03
-2.240669e-03
4.651146e-03
1.168775e-02
1.885938e-02
2.615641e-02
3.356987e-02
4.109165e-02
4.871446e-02
5.643175e-02
6.423775e-02
7.212753e-02
8.009699e-02
8.814272e-02
9.626177e-02
1.044515e-01
1.127092e-01
1.210325e-01
1.294186e-01
1.378645e-01
1.463670e-01
1.549234e-01
1.635312e-01
1.721884e-01
1.808934e-01
1.896451e-01
1.984428e-01
2.072860e-01
2.161740e-01
2.251061e-01
2.340811e-01
2.430977e-01
2.521548e-01
2.612511e-01
2.703850e-01
2.795550e-01
2.887595e-01
2.979970e-01
3.072661e-01
3.165662e-01
3.258971e-01
3.352592e-01
3.446544e-01
3.540851e-01
3.635547e-01
3.730670e-01
3.826262e-01
3.922367e-01
4.019031e-01
4.116299e-01
4.214216e-01
4.312826e-01
4.412170e-01
4.512290e-01
4.613219e-01
4.714990e-01
4.817634e-01
4.921181e-01
5.025662e-01
5.131112e-01
5.237572e-01
5.345094e-01
5.453736e-01
5.563563e-01
5.674642e-01
5.787034e-01
5.900789e-01
6.015941e-01
6.132505e-01
6.250469e-01
6.369800e-01
6.490442e-01
6.612327e-01
6.735377e-01
6.859506e-01
6.984628e-01
7.110653e-01
7.237493e-01
7.365055e-01
7.493249e-01
7.621985e-01
7.751174e-01
7.880730e-01
8.010577e-01
8.140638e-01
8.270840e-01
8.401114e-01
8.531388e-01
8.661595e-01
8.791672e-01
8.921553e-01
9.051180e-01
9.180494e-01
9.309447e-01
9.437996e-01
9.566102e-01
9.693728e-01
9.820837e-01
9.947394e-01
1.007336e+00
1.019871e+00
1.032339e+00
1.044738e+00
1.057063e+00
1.069310e+00
1.081474e+00
1.093552e+00
1.105537e+00
1.117423e+00
1.129204e+00
1.140874e+00
1.152426e+00
1.163852e+00
1.175145e+00
1.186299e+00
1.197305e+00
1.208157e+00
1.218849e+00
1.229374e+00
1.239727e+00
1.249904e+00
1.259901e+00
1.269714e+00
1.279340e+00
1.288775e+00
1.298017e+00
1.307061e+00
1.315903e+00
1.324538e+00
1.332962e+00
1.341169e+00
1.349155e+00
1.356917e+00
1.364452e+00
1.371760e+00
1.378842e+00
1.385699e+00
1.392335e+00
1.398755e+00
1.404964e+00
1.410968e+00
1.416771e+00
1.422376e+00
1.427787e+00
1.433004e+00
1.438029e+00
1.442861e+00
1.447499e+00
1.451941e+00
1.456188e+00
1.460237e+00
1.464088e+00
1.467741e+00
1.471196e+00
1.474454e+00
1.477513e+00
1.480374e+00
1.483034e+00
1.485492e+00
1.487744e+00
1.489785e+00
1.491609e+00
1.493210e+00
1.494582e+00
1.495718e+00
1.496610e+00
1.497255e+00
1.497644e+00
1.497775e+00
1.497643e+00
1.497245e+00
1.496580e+00
1.495645e+00
1.494441e+00
1.492967e+00
1.491222e+00
1.489205e+00
1.486915e+00
1.484346e+00
1.481492e+00
1.478346e+00
1.474899e+00
1.471139e+00
1.467057e+00
1.462641e+00
1.457881e+00
1.452767e+00
1.447291e+00
1.441447e+00
1.435229e+00
1.428635e+00
1.421665e+00
1.414319e+00
1.406602e+00
1.398517e+00
1.390070e+00
1.381267e+00
1.372116e+00
1.362620e+00
1.352787e+00
1.342621e+00
1.332129e+00
1.321314e+00
1.310183e+00
1.298743e+00
1.287000e+00
1.274964e+00
1.262643e+00
1.250049e+00
1.237194e+00
1.224090e+00
1.210752e+00
1.197192e+00
1.183425e+00
1.169465e+00
1.155326e+00
1.141019e+00
1.126557e+00
1.111950e+00
1.097206e+00
1.082334e+00
1.067340e+00
1.052230e+00
1.037010e+00
1.021684e+00
1.006261e+00
9.907455e-01
9.751472e-01
9.594758e-01
9.437430e-01
9.279621e-01
9.121477e-01
8.963154e-01
8.804806e-01
8.646584e-01
8.488628e-01
8.331068e-01
8.174025e-01
8.017606e-01
7.861910e-01
7.707029e-01
7.553049e-01
7.400054e-01
7.248128e-01
7.097352e-01
6.947808e-01
6.799575e-01
6.652729e-01
6.507338e-01
6.363461e-01
6.221143e-01
6.080423e-01
5.941322e-01
5.803857e-01
5.668028e-01
5.533826e-01
5.401226e-01
5.270191e-01
5.140665e-01
5.012581e-01
4.885862e-01
4.760428e-01
4.636192e-01
4.513068e-01
4.390973e-01
4.269826e-01
4.149556e-01
4.030095e-01
3.911382e-01
3.793360e-01
3.675970e-01
3.559155e-01
3.442857e-01
3.327016e-01
3.211568e-01
3.096442e-01
2.981556e-01
2.866823e-01
2.752142e-01
2.637407e-01
2.522511e-01
2.407349e-01
2.291817e-01
2.175819e-01
2.059264e-01
1.942068e-01
1.824159e-01
1.705473e-01
1.585956e-01
1.465560e-01
1.344244e-01
1.221973e-01
1.098715e-01
9.744407e-02
8.491235e-02
7.227411e-02
5.952758e-02
4.667169e-02
3.370634e-02
2.063249e-02
7.452200e-03
-5.831593e-03
-1.921519e-02
-3.269418e-02
-4.626342e-02
-5.991710e-02
-7.364886e-02
-8.745198e-02
-1.013196e-01
-1.152448e-01
-1.292208e-01
-1.432412e-01
-1.572997e-01
-1.713904e-01
-1.855073e-01
-1.996445e-01
-2.137962e-01
-2.279566e-01
-2.421201e-01
-2.562814e-01
-2.704358e-01
-2.845785e-01
-2.987050e-01
-3.128104e-01
-3.268887e-01
-3.409337e-01
-3.549382e-01
-3.688947e-01
-3.827952e-01
-3.966311e-01
-4.103938e-01
-4.240748e-01
-4.376658e-01
-4.511592e-01
-4.645479e-01
-4.778255e-01
-4.909857e-01
-5.040227e-01
-5.169307e-01
-5.297036e-01
-5.423345e-01
-5.548159e-01
-5.671396e-01
-5.792970e-01
-5.912790e-01
-6.030767e-01
-6.146808e-01
-6.260823e-01
-6.372726e-01
-6.482438e-01
-6.589889e-01
-6.695022e-01
-6.797794e-01
-6.898175e-01
-6.996151e-01
-7.091718e-01
-7.184888e-01
-7.275679e-01
-7.364122e-01
-7.450256e-01
-7.534127e-01
-7.615783e-01
-7.695278e-01
-7.772666e-01
-7.848000e-01
-7.921335e-01
-7.992723e-01
-8.062220e-01
-8.129879e-01
-8.195759e-01
-8.259917e-01
-8.322409e-01
-8.383292e-01
-8.442619e-01
-8.500440e-01
-8.556800e-01
-8.611735e-01
-8.665273e-01
-8.717431e-01
-8.768214e-01
-8.817619e-01
-8.865631e-01
-8.912232e-01
-8.957400e-01
-9.001115e-01
-9.043361e-01
-9.084134e-01
-9.123439e-01
-9.161293e-01
-9.197727e-01
-9.232782e-01
-9.266509e-01
-9.298965e-01
-9.330213e-01
-9.360316e-01
-9.389330e-01
-9.417302e-01
-9.444266e-01
-9.470242e-01
-9.495236e-01
-9.519236e-01
-9.542217e-01
-9.564138e-01
-9.584948e-01
-9.604590e-01
-9.623003e-01
-9.640132e-01
-9.655920e-01
-9.670317e-01
-9.683274e-01
-9.694746e-01
-9.704693e-01
-9.713078e-01
-9.719865e-01
-9.725025e-01
-9.728533e-01
-9.730369e-01
-9.730521e-01
-9.728982e-01
-9.725758e-01
-9.720862e-01
-9.714325e-01
-9.706183e-01
-9.696487e-01
-9.685297e-01
-9.672682e-01
-9.658714e-01
-9.643470e-01
-9.627025e-01
-9.609451e-01
-9.590817e-01
-9.571186e-01
-9.550609e-01
-9.529128e-01
-9.506777e-01
-9.483577e-01
-9.459544e-01
-9.434687e-01
-9.409013e-01
-9.382532e-01
-9.355255e-01
-9.327203e-01
-9.298400e-01
-9.268879e-01
-9.238678e-01
-9.207843e-01
-9.176422e-01
-9.144470e-01
-9.112039e-01
-9.079186e-01
-9.045964e-01
-9.012428e-01
-8.978629e-01
-8.944619e-01
-8.910451e-01
-8.876177e-01
-8.841852e-01
-8.807536e-01
-8.773289e-01
-8.739173e-01
-8.705249e-01
-8.671575e-01
-8.638208e-01
-8.605195e-01
-8.572581e-01
-8.540404e-01
-8.508698e-01
-8.477488e-01
-8.446795e-01
-8.416637e-01
-8.387027e-01
-8.357973e-01
-8.329480e-01
-8.301545e-01
-8.274162e-01
-8.247315e-01
-8.220987e-01
-8.195153e-01
-8.169785e-01
-8.144849e-01
-8.120308e-01
-8.096116e-01
-8.072220e-01
-8.048561e-01
-8.025070e-01
-8.001676e-01
-7.978306e-01
-7.954889e-01
-7.931357e-01
-7.907652e-01
-7.883720e-01
-7.859515e-01
-7.834995e-01
-7.810124e-01
-7.784871e-01
-7.759209e-01
-7.733116e-01
-7.706571e-01
-7.679558e-01
-7.652057e-01
-7.624048e-01
-7.595510e-01
-7.566421e-01
-7.536758e-01
-7.506494e-01
-7.475602e-01
-7.444052e-01
-7.411813e-01
-7.378855e-01
-7.345150e-01
-7.310675e-01
-7.275414e-01
-7.239358e-01
-7.202508e-01
-7.164868e-01
-7.126450e-01
-7.087262e-01
-7.047313e-01
-7.006607e-01
-6.965146e-01
-6.922926e-01
-6.879943e-01
-6.836189e-01
-6.791660e-01
-6.746353e-01
-6.700271e-01
-6.653424e-01
-6.605830e-01
-6.557513e-01
-6.508503e-01
-6.458836e-01
-6.408552e-01
-6.357701e-01
-6.306333e-01
-6.254501e-01
-6.202257e-01
-6.149647e-01
-6.096711e-01
-6.043471e-01
-5.989936e-01
-5.936099e-01
-5.881938e-01
-5.827417e-01
-5.772492e-01
-5.717115e-01
-5.661243e-01
-5.604835e-01
-5.547865e-01
-5.490316e-01
-5.432191e-01
-5.373504e-01
-5.314285e-01
-5.254574e-01
-5.194416e-01
-5.133860e-01
-5.072955e-01
-5.011747e-01
-4.950279e-01
