EVENT_NAME: EMILIA_2ND_SHOCK
EVENT_ID: IT-2012-0011
EVENT_DATE_YYYYMMDD: 20120529
EVENT_TIME_HHMMSS: 070002
EVENT_LATITUDE_DEGREE: 44.8417
EVENT_LONGITUDE_DEGREE: 11.0657
EVENT_DEPTH_KM: 8.1
HYPOCENTER_REFERENCE: INGV-CNT_Seismic_Bulletin
MAGNITUDE_W: 6.0
MAGNITUDE_W_REFERENCE: RCMT-INGV
MAGNITUDE_L: 5.8
MAGNITUDE_L_REFERENCE: INGV-CNT_Seismic_Bulletin
FOCAL_MECHANISM: TF
NETWORK: IT
STATION_CODE: SAG0
STATION_NAME: SANT AGOSTINO
STATION_LATITUDE_DEGREE: 44.791000
STATION_LONGITUDE_DEGREE: 11.390400
STATION_ELEVATION_M: 66
LOCATION: 
SENSOR_DEPTH_M: 0.0
VS30_M/S: 
SITE_CLASSIFICATION_EC8: C*
MORPHOLOGIC_CLASSIFICATION: 
EPICENTRAL_DISTANCE_KM: 26.3
EARTHQUAKE_BACKAZIMUTH_DEGREE: 282.5
DATE_TIME_FIRST_SAMPLE_YYYYMMDD_HHMMSS: 20120529_065943.000
DATE_TIME_FIRST_SAMPLE_PRECISION: seconds
SAMPLING_INTERVAL_S: 0.005000
NDATA: 30001
DURATION_S: 150.005
STREAM: HNN
UNITS: cm/s^2
INSTRUMENT: sensor = Episensor FBA ES-T [Kinemetrics] | digitizer = Etna [Kinemetrics]
INSTRUMENT_ANALOG/DIGITAL: D
INSTRUMENTAL_FREQUENCY_HZ: 
INSTRUMENTAL_DAMPING: 
FULL_SCALE_G: 
N_BIT_DIGITAL_CONVERTER: 18
PGA_CM/S^2: -66.413703
TIME_PGA_S: 40.800000
BASELINE_CORRECTION: BASELINE REMOVED
FILTER_TYPE: BUTTERWORTH
FILTER_ORDER: 2
LOW_CUT_FREQUENCY_HZ: 0.050
HIGH_CUT_FREQUENCY_HZ: 35.000
LATE/NORMAL_TRIGGERED: NT
DATABASE_VERSION: DYNA 1.0
HEADER_FORMAT: DYNA 1.2
DATA_TYPE: ACCELERATION
PROCESSING: manual (Paolucci et al., 2011)
DATA_TIMESTAMP_YYYYMMDD_HHMMSS: 
DATA_LICENSE: CC-BY3_0-IT (http://creativecommons.org/licenses/by/3.0/deed.en)
DATA_CITATION: ESM working group (2015), European Strong-Motion database, version 0.1, Network Activity 3: Networking acceleration networks and SM data users. Project NERA (www.nera-eu.org)
DATA_CREATOR: ESM working group
ORIGINAL_DATA_MEDIATOR_CITATION: Ufficio Rischio Sismico e Vulcanico del Dipartimento della Protezione Civile (http://www.protezionecivile.gov.it/)
ORIGINAL_DATA_MEDIATOR: Rete Accelerometrica Nazionale - RAN Download (http://www.mot1.it/randownload/)
ORIGINAL_DATA_CREATOR_CITATION: Italian Strong Motion Network, Italian Civil Protection Department http://www.protezionecivile.gov.it
ORIGINAL_DATA_CREATOR: network: IT (Italian Strong Motion Network); owner: Dipartimento Della Protezione Civile
USER1: 
USER2: 
USER3: 
USER4: 
USER5: 
[...]
29.749561
26.282118
22.484741
18.534712
14.681794
11.180633
8.166235
5.655088
3.632431
2.039250
0.803123
-0.229835
-1.306416
-2.454456
-3.473410
-4.217589
-4.666218
-4.989308
-5.517010
-6.552178
-8.291505
-10.725247
-13.643387
-16.849043
-20.194166
-23.536110
-26.859200
-30.211634
-33.383389
-35.896820
-37.440208
-38.106243
-38.137131
-37.619919
-36.473236
-34.586266
-31.940027
-28.719170
-25.353666
-22.391268
-20.285343
-19.281935
-19.462912
-20.802505
-23.136486
-26.115084
-29.239794
-32.046661
-34.279095
-35.835533
-36.663044
-36.763054
-36.158978
-34.817310
-32.672791
-29.784611
-26.414194
-22.751707
-18.666916
-14.030970
-9.049230
-4.039248
0.775140
5.215271
9.198430
12.758304
15.926194
18.649212
20.812546
22.335011
23.163919
23.200407
22.323578
20.384745
17.220140
12.859800
7.721849
2.557910
-1.806250
-4.751172
-6.020415
-5.705756
-4.056408
-1.317790
2.238246
6.286682
10.502479
14.596678
18.331926
21.519899
24.034853
25.799927
26.738344
26.854729
26.335354
25.358877
23.840340
21.654919
19.000128
16.201078
13.420322
10.711075
8.084745
5.642228
3.633292
2.196053
1.253446
0.637969
0.139447
-0.449351
-1.330311
-2.679852
-4.513747
-6.687853
-9.020256
-11.346427
-13.543538
-15.534135
-17.293550
-18.860720
-20.272421
-21.444164
-22.085375
-21.800610
-20.335600
-17.691364
-14.117517
-10.074032
-6.082451
-2.566556
0.227763
2.271452
3.693593
4.688917
5.452757
6.066500
6.462821
6.483060
5.914214
4.680064
3.005307
1.187300
-0.652377
-2.465480
-4.094432
-5.281484
-5.827760
-5.648741
-4.663958
-2.874801
-0.663167
1.236956
2.226092
2.136597
1.049522
-0.915803
-3.635441
-6.922996
-10.380065
-13.432452
-15.662392
-16.951963
-17.306843
-16.753967
-15.341290
-13.100157
-10.064788
-6.301730
-1.894828
3.008434
8.175427
13.340634
18.220551
22.552835
26.138187
28.823488
30.540380
31.261604
30.847458
29.149960
26.228931
22.292179
17.576099
12.329153
6.797055
1.272302
-3.890116
-8.380782
-12.016534
-14.755644
-16.646832
-17.764380
-18.205198
-18.068752
-17.455719
-16.519608
-15.508214
-14.778398
-14.660583
-15.274409
-16.543751
-18.280706
-20.261021
-22.291920
-24.145918
-25.565392
-26.387581
-26.493206
-25.756792
-24.149361
-21.748203
-18.703993
-15.209223
-11.396900
-7.343022
-3.118092
1.212785
5.516863
9.590954
13.258029
16.387510
18.926241
20.908623
22.402105
23.504408
24.321260
24.953905
25.526243
26.132214
26.812994
27.554544
28.256716
28.830486
29.237234
29.417656
29.332619
28.923925
28.028053
26.483459
24.231747
21.342375
18.016432
14.531453
11.203612
8.309518
6.006891
4.377435
3.425175
3.048901
3.093855
3.389016
3.806763
4.290937
4.795738
5.258378
5.570954
5.605415
5.313599
4.691794
3.742645
2.544353
1.235721
-0.000599
-0.942985
-1.407283
-1.245312
-0.365094
1.197778
3.296393
5.652632
7.911850
9.769159
10.973543
11.392406
11.013240
9.828046
7.910450
5.455222
2.693979
-0.113092
-2.770206
-5.196917
-7.316666
-9.043628
-10.296554
-10.963321
-10.961278
-10.306777
-9.105189
-7.500357
-5.636580
-3.665778
-1.739927
0.002885
1.435669
2.451691
2.945861
2.844853
2.214433
1.243465
0.146849
-0.857336
-1.602545
-2.039223
-2.207780
-2.210970
-2.177967
-2.199538
-2.330082
-2.610186
-3.072114
-3.755432
-4.692472
-5.908909
-7.446708
-9.340099
-11.586791
-14.124651
-16.809223
-19.430729
-21.726809
-23.415754
-24.279251
-24.176523
-23.017342
-20.775093
-17.489862
-13.305473
-8.526737
-3.575758
1.121553
5.226740
8.506999
10.795157
11.970836
11.971551
10.815292
8.651641
5.755791
2.432761
-1.022277
-4.351027
-7.398968
-10.069362
-12.269228
-13.930639
-14.987663
-15.410787
-15.244402
-14.521478
-13.260168
-11.500512
-9.265976
-6.595904
-3.578925
-0.361910
2.818022
5.697378
8.041724
9.645731
10.375545
10.188487
9.157668
7.473523
5.381862
3.181991
1.192484
-0.350732
-1.336108
-1.818040
-1.989287
-2.015391
-1.921669
-1.591949
-0.842255
0.464172
2.355516
4.771114
7.614977
10.761266
14.056890
17.373541
20.581446
23.487309
25.845930
27.386387
27.867502
27.157480
25.268633
22.366354
18.742977
14.741852
10.677477
6.798851
3.307219
0.357610
-1.973343
-3.699886
-4.943110
-5.925526
-6.886690
-7.999147
-9.346972
-10.938885
-12.745532
-14.711595
-16.728899
-18.669193
-20.450031
-22.025820
-23.345947
-24.313080
-24.747808
-24.440865
-23.257853
-21.223539
-18.580296
-15.729704
-13.057472
-10.811058
-9.093492
-7.895787
-7.129059
-6.666793
-6.359615
-6.045473
-5.584895
-4.852149
-3.750974
-2.279215
-0.511716
1.441718
3.462565
5.465332
7.366150
9.027160
10.285446
11.056361
11.416597
11.520591
11.495172
11.459526
11.493041
11.631366
11.917306
12.331449
12.801733
13.271858
13.655716
13.858744
13.841356
13.630019
13.326256
13.062168
12.939231
12.995837
13.187328
13.413361
13.552689
13.514723
13.311416
13.030073
12.777003
12.659973
12.727446
12.941072
13.200377
13.352394
13.249960
12.809150
12.002040
10.869814
9.523097
8.086223
6.672466
5.386478
4.306305
3.467780
2.864086
2.458774
2.195512
2.017252
1.904055
1.835971
1.741212
1.542673
1.168183
0.550031
-0.314643
-1.370509
-2.515402
-3.616375
-4.576873
-5.329789
-5.837552
-6.114880
-6.195214
-6.135919
-6.010665
-5.880926
-5.811241
-5.851223
-6.052079
-6.494113
-7.223847
-8.250700
-9.562004
-11.074775
-12.676651
-14.273829
-15.761942
-17.030403
-17.965342
-18.459341
-18.470251
-18.017830
-17.142094
-15.917550
-14.455464
-12.878203
-11.325141
-9.940931
-8.804630
-7.900625
-7.173331
-6.549021
-5.929130
-5.216517
-4.302827
-3.062679
-1.399517
0.734101
3.299442
6.152846
9.101743
11.948992
14.537530
16.768311
18.567492
19.888647
20.709522
21.032188
20.903198
20.373880
19.480597
18.251789
16.678913
14.746050
12.473252
9.902423
7.105008
4.181015
1.233938
-1.628613
-4.312476
-6.753796
-8.912378
-10.769551
-12.304670
-13.502090
-14.379837
-14.963888
-15.279805
-15.341476
-15.115721
-14.551377
-13.593781
-12.181122
-10.300233
-8.019913
-5.497909
-2.944391
-0.514571
1.718595
3.722946
5.490408
6.999841
8.210021
9.092777
9.638667
9.848539
9.720136
9.258014
8.474207
7.372405
6.001317
4.484651
2.983012
1.655876
0.580270
-0.283194
-1.019377
-1.724202
-2.492829
-3.369486
-4.338126
-5.369364
-6.434868
-7.497274
-8.525482
-9.476992
-10.292813
-10.948908
-11.421393
-11.621269
-11.442755
-10.818836
-9.729503
-8.218184
-6.394644
-4.409962
-2.442691
-0.700858
0.625269
1.415471
1.603887
1.196186
0.297885
-0.934635
-2.320304
-3.661450
-4.788336
-5.580965
-5.990726
-6.045510
-5.805903
-5.357378
-4.810384
-4.269832
-3.832267
-3.586323
-3.602034
-3.909878
-4.466332
-5.164745
-5.869561
-6.441819
-6.771679
-6.788711
-6.475554
-5.876639
-5.060869
-4.104008
-3.076868
-2.010527
-0.897627
0.294376
1.611184
3.095094
4.776505
6.648763
8.670323
10.771409
12.822910
14.669282
16.179586
17.255106
17.866507
18.051453
17.876566
17.438812
16.835228
16.141689
15.421905
14.697914
13.965217
13.233217
12.512451
11.818882
11.166190
10.540143
9.924301
9.293449
8.605681
7.859521
7.069710
6.207046
5.236537
4.139978
2.899293
1.505151
-0.041400
-1.700455
-3.380407
-5.005482
-6.498800
-7.693541
-8.399613
-8.528321
-8.102825
-7.226191
-6.048403
-4.752472
-3.559679
-2.691908
-2.336448
-2.613758
-3.534816
-5.026878
-6.959968
-9.151980
-11.421107
-13.615010
-15.622131
-17.372408
-18.798500
-19.837889
-20.437780
-20.569481
-20.293304
-19.726091
-18.974989
-18.144512
-17.303102
-16.449072
-15.546721
-14.601748
-13.689007
-12.848169
-12.026008
-11.127619
-10.057302
-8.791384
-7.369286
-5.822924
-4.227716
-2.688575
-1.274648
-0.054718
0.916808
1.608439
1.972613
1.976945
1.622519
0.950083
0.053323
-0.954431
-1.937111
-2.745757
-3.282222
-3.491463
-3.318720
-2.711150
-1.666784
-0.287203
1.246525
2.726135
3.946333
4.739448
5.006600
4.736891
3.968406
2.727079
1.057343
-0.948224
-3.191502
-5.571354
-7.966577
-10.249845
-12.286389
-13.956321
-15.188191
-15.941979
-16.210035
-16.035187
-15.482469
-14.617015
-13.496736
-12.143197
-10.552126
-8.740630
-6.737759
-4.555342
-2.200406
0.311946
2.944118
5.622509
8.255978
10.749681
13.020819
15.022480
16.718744
18.059998
18.991453
19.444319
19.341999
18.624092
17.258341
15.268169
12.765144
9.951023
7.068989
4.339411
1.920708
-0.121106
-1.787260
-3.083180
-4.030118
-4.699195
-5.194137
-5.611433
-5.997338
-6.346137
-6.619624
-6.749820
-6.676539
-6.386003
-5.914672
-5.341188
-4.739542
-4.131682
-3.495120
-2.799397
-2.024169
-1.146770
-0.163839
0.867606
1.859341
2.727751
3.394324
3.796581
3.873968
3.573654
2.905705
1.937096
0.740683
-0.621345
-2.097877
-3.643764
-5.206053
-6.732397
-8.183664
-9.514031
-10.679194
-11.658353
-12.412074
-12.874119
-12.993280
-12.722721
-12.027157
-10.904359
-9.361994
-7.441369
-5.238135
-2.850570
-0.357767
2.191035
4.803617
7.510902
10.327642
13.245622
16.218136
19.178299
22.060730
24.793871
27.308641
29.518665
31.314583
32.632423
33.491165
33.974087
34.168503
34.102890
33.768021
33.146923
32.221249
30.997576
29.487507
27.697205
25.681320
23.527405
21.283531
18.946508
16.503111
13.959477
11.310510
8.531624
5.626185
2.641142
-0.341841
-3.247298
-6.030093
-8.645134
-11.070921
-13.294070
-15.234534
-16.795771
-17.925844
-18.599415
-18.814316
-18.574163
-17.897524
-16.848755
-15.519693
-14.021937
-12.462052
-10.897583
-9.342285
-7.788119
-6.228480
-4.670099
-3.140947
-1.706357
-0.443072
0.598451
1.380840
1.834598
1.854671
1.370272
0.375541
-1.106742
-3.015730
-5.234295
-7.594701
-9.878187
-11.872948
-13.432427
-14.488155
-15.083786
-15.340557
-15.363233
-15.234338
-15.015126
-14.707860
-14.310315
-13.865543
-13.409449
-12.956834
-12.505913
-12.022427
-11.479292
-10.861039
-10.135810
-9.278420
-8.267088
-7.094619
-5.813597
-4.522944
-3.345326
-2.379796
-1.651336
-1.153419
-0.868662
-0.765511
-0.822463
-0.994707
-1.215613
-1.449910
-1.671382
-1.841128
-1.927535
-1.906694
-1.776624
-1.553377
-1.230752
-0.801272
-0.295443
0.241909
0.770822
1.237195
1.573355
1.721898
1.641371
1.311723
0.731566
-0.098043
-1.147945
-2.351246
-3.633500
-4.918372
-6.153929
-7.320962
-8.400245
-9.392665
-10.314639
-11.172252
-11.986283
-12.777465
-13.575116
-14.451273
-15.469322
-16.666172
-18.064714
-19.641052
-21.333015
-23.057377
-24.714500
-26.225758
-27.537069
-28.595873
-29.370375
-29.865801
-30.102764
-30.104898
-29.901819
-29.516516
-28.965540
-28.266848
-27.418715
-26.406967
-25.223061
-23.848995
-22.268137
-20.474087
-18.472574
-16.306101
-14.047935
-11.777830
-9.555340
-7.411210
-5.363330
-3.396801
-1.478353
0.404129
2.266083
4.110137
5.900340
7.598665
9.158351
10.525253
11.680621
12.633553
13.402151
14.012874
14.507090
14.942724
15.353029
15.735475
16.091948
16.417395
16.677092
16.839363
16.882273
16.769892
16.475849
16.001909
15.370866
14.644837
13.910713
13.237558
12.662190
12.180294
11.767590
11.399437
11.039210
10.652755
10.194622
9.602456
8.851178
7.934574
6.845337
5.613353
4.291971
2.949261
1.645580
0.402952
-0.749636
-1.787385
-2.705627
-3.470235
-4.046999
-4.415053
-4.557085
-4.506972
-4.316178
-4.012448
-3.606109
-3.075612
-2.413657
-1.631023
-0.711521
0.352096
1.570426
2.971434
4.560458
6.343507
8.314627
10.434720
12.669477
14.975541
17.304808
19.607994
21.784531
23.730825
25.403803
26.802256
27.955057
28.883390
29.568068
29.974836
30.068411
29.819004
29.209322
28.226458
26.862238
25.119473
23.026737
20.657696
18.115316
15.481941
12.788944
10.034765
7.224996
4.396614
1.609640
-1.072477
-3.591594
-5.904538
-7.983065
-9.806109
-11.360636
-12.618108
-13.516827
-13.994596
-14.017461
-13.575154
-12.666002
-11.307051
-9.568092
-7.557331
-5.373628
-3.110095
-0.859702
1.320468
3.410378
5.411730
7.342625
9.207648
11.006123
12.745746
14.408592
15.974199
17.440418
18.790152
20.010250
21.099110
22.046659
22.841238
23.455238
23.854372
24.012108
23.898514
23.513218
22.873203
21.969421
20.804485
19.388697
17.694445
15.707707
13.530628
11.391517
9.467836
7.747552
6.160670
4.709638
3.430122
2.346079
1.455776
0.755438
0.262058
-0.026445
-0.134186
-0.085925
0.093997
0.424858
0.966204
1.736470
2.689759
3.767929
4.938431
6.167572
7.389008
8.531370
9.562806
10.493242
11.307854
11.942885
12.381016
12.663330
12.795248
12.758533
12.577402
12.320003
12.059385
11.839328
11.692384
11.661473
11.779812
12.061976
12.498095
13.047272
13.652711
14.248047
14.776182
15.211661
15.540139
15.754686
15.856091
15.818461
15.602988
15.181700
14.510961
13.535974
12.211532
10.495666
8.368413
5.857521
3.025528
-0.047088
-3.268699
-6.564616
-9.898793
-13.259954
-16.658587
-20.126625
-23.684504
-27.314861
-30.964096
-34.573090
-38.118439
-41.600143
-44.991783
-48.235439
-51.278831
-54.084377
-56.601337
-58.788101
-60.680004
-62.326794
-63.667847
-64.635818
-65.313332
-65.827942
-66.204971
-66.407204
-66.413704
-66.188446
-65.654449
-64.778267
-63.583389
-62.086777
-60.313053
-58.287964
-56.021069
-53.516338
-50.733711
-47.642262
-44.293552
-40.726322
-36.934124
-32.949604
-28.850023
-24.707935
-20.557791
-16.446455
-12.493007
-8.808376
-5.426781
-2.335318
0.497158
3.092565
5.490511
7.758329
9.922313
11.989026
13.955531
15.774580
17.416550
18.877632
20.175394
21.377443
22.537701
23.691273
24.872084
26.066311
27.240879
28.341028
29.275789
30.020172
30.605761
31.010399
31.185476
31.127108
30.875154
30.478367
29.997370
29.526228
29.128437
28.799772
28.517551
28.244183
27.929667
27.549547
27.120174
26.689751
26.290058
25.914261
25.561657
25.211863
24.761866
24.132278
23.371361
22.508307
21.460009
20.186441
18.767244
17.295382
15.803502
14.308394
12.862580
11.524107
10.341302
9.352702
8.551760
7.926733
7.479810
7.165038
6.930648
6.760559
6.634604
6.547041
6.498112
6.460460
6.422402
6.406620
6.442410
6.548084
6.734299
7.016271
7.391094
7.834230
8.322775
8.824236
9.305808
9.730658
10.027041
10.118950
9.943045
9.450875
8.637960
7.514343
6.093094
4.418681
2.547932
0.551960
-1.484707
-3.491574
-5.400285
-7.165235
-8.780270
-10.235485
-11.521755
-12.649787
-13.636828
-14.501575
-15.254230
-15.899421
-16.431423
-16.809881
-16.992678
-16.978931
-16.776903
-16.360786
-15.690593
-14.769015
-13.651918
-12.402745
-11.070704
-9.706718
-8.368107
-7.103231
-5.946349
-4.911382
-3.991421
-3.223459
-2.699165
-2.433952
-2.331369
-2.336226
-2.516296
-2.936027
-3.548851
-4.292920
-5.182882
-6.245581
-7.464896
-8.796465
-10.190128
-11.612332
-13.037273
-14.427488
-15.745203
-16.958130
-18.034693
-18.952044
-19.701904
-20.269058
-20.615677
-20.710150
-20.534744
-20.060514
-19.250244
-18.055731
-16.413670
-14.287224
-11.700904
-8.727920
-5.458596
-1.984537
1.587113
5.131220
8.547647
11.781727
14.791259
17.533974
19.987364
22.155918
24.043129
25.619829
26.856232
27.744417
28.262756
28.412142
28.253880
27.840334
27.204226
26.405489
25.510136
24.571188
23.630169
22.713919
21.837366
20.998638
20.192434
19.400713
18.570936
17.659452
16.639166
15.474648
14.144815
12.646097
11.005014
9.286288
7.556703
5.878816
4.304754
2.869166
1.586524
0.425693
-0.671553
-1.772534
-2.953802
-4.273557
-5.772330
-7.455899
-9.277101
-11.181659
-13.113611
-15.012023
-16.832100
-18.521332
-20.029350
-21.333614
-22.418549
-23.265911
-23.854475
-24.175503
-24.232304
-24.014027
-23.513977
-22.726641
-21.639576
-20.256384
-18.582087
-16.646172
-14.519656
-12.277886
-10.016627
-7.830311
-5.754508
-3.781392
-1.867670
0.052890
2.014926
3.995691
5.946688
7.849432
9.706428
11.502480
13.217352
14.819370
16.257030
17.489222
18.477741
19.167019
19.500540
19.435955
18.954386
18.076820
16.867630
15.422740
13.864396
12.320847
10.878592
9.569133
8.388245
7.306146
6.291499
5.319694
4.366515
3.430824
2.517823
1.617335
0.744176
-0.067086
-0.802580
-1.468375
-2.088297
-2.685321
-3.247506
-3.728422
-4.078109
-4.283149
-4.355516
-4.284416
-4.043210
-3.603380
-2.926505
-1.993219
-0.811113
0.609095
2.235462
4.005388
5.854106
7.727079
9.578711
11.362630
13.021162
14.498149
15.740809
16.689835
17.292002
17.506811
17.309961
16.705400
15.721552
14.406725
12.832825
11.104018
9.347517
7.672379
6.155918
4.849867
3.776767
2.949532
2.368183
2.003329
1.821604
1.783557
1.839594
1.955048
2.091508
2.198167
2.225734
2.120829
1.842583
1.379417
0.745489
-0.030137
-0.920955
-1.909519
-2.990803
-4.161045
-5.405568
-6.714841
-8.073164
-9.443100
-10.791299
-12.088547
-13.299111
-14.392037
-15.340721
-16.129166
-16.762224
-17.256794
-17.626659
-17.881392
-18.027172
-18.048264
-17.923264
-17.651287
-17.225767
-16.634176
-15.882748
-14.997721
-14.021451
-12.994132
-11.956740
-10.956545
-10.017405
-9.143961
-8.339610
-7.601471
-6.914378
-6.237453
-5.516584
-4.713230
-3.801574
-2.764753
-1.615628
-0.399941
0.834201
2.038250
3.160060
4.177413
5.087088
5.884978
6.579264
7.165453
7.631797
7.991524
8.245377
8.366738
8.334177
8.143785
7.810745
7.352790
6.798138
6.208047
5.646822
5.158358
4.762626
4.462146
4.265009
4.170038
4.164759
4.247800
4.408107
4.613350
4.814580
4.958088
5.019512
4.985249
4.828649
4.547317
4.171429
3.742122
3.304612
2.910177
2.628673
2.526515
2.628131
2.927699
3.413108
4.061966
4.827432
5.637997
6.420984
7.126514
7.726638
8.192751
8.490797
8.602522
8.521716
8.250225
7.819816
7.275784
6.648369
5.962853
5.246973
4.529023
3.839723
3.208494
2.665003
2.240094
1.948273
1.782682
1.730196
1.762366
1.831400
1.890174
1.894542
1.804548
1.582993
1.206352
0.686646
0.030743
-0.758079
-1.623144
-2.500250
-3.349711
-4.131259
-4.834689
-5.479260
-6.091068
-6.710753
-7.368345
-8.069147
-8.806609
-9.562910
-10.305920
-10.979228
-11.526177
-11.928098
-12.170272
-12.212420
-12.033764
-11.645001
-11.054891
-10.279234
-9.349685
-8.300503
-7.172423
-5.996054
-4.785028
-3.557615
-2.320225
-1.078773
0.131647
1.286256
2.382897
3.420534
4.391094
5.266924
6.039274
6.730886
7.350392
7.906081
8.418507
8.907477
9.402017
9.920389
10.458537
11.005347
11.539283
12.039388
12.492563
12.882178
13.186804
13.388381
13.496236
13.532820
13.488511
13.348465
13.135106
12.874670
12.554419
12.151248
11.681791
11.185526
10.682597
10.172527
9.658019
9.156218
8.674830
8.198997
7.704817
7.166224
6.567043
5.897492
5.158127
4.381575
3.604130
2.860726
2.203018
1.663885
1.266374
1.038211
0.974576
1.047618
1.216103
1.425745
1.638658
1.822211
1.947115
2.006267
