EVENT_NAME: EMILIA_2ND_SHOCK
EVENT_ID: IT-2012-0011
EVENT_DATE_YYYYMMDD: 20120529
EVENT_TIME_HHMMSS: 070002
EVENT_LATITUDE_DEGREE: 44.8417
EVENT_LONGITUDE_DEGREE: 11.0657
EVENT_DEPTH_KM: 8.1
HYPOCENTER_REFERENCE: INGV-CNT_Seismic_Bulletin
MAGNITUDE_W: 6.0
MAGNITUDE_W_REFERENCE: RCMT-INGV
MAGNITUDE_L: 5.8
MAGNITUDE_L_REFERENCE: INGV-CNT_Seismic_Bulletin
FOCAL_MECHANISM: TF
NETWORK: IT
STATION_CODE: SAG0
STATION_NAME: SANT AGOSTINO
STATION_LATITUDE_DEGREE: 44.791000
STATION_LONGITUDE_DEGREE: 11.390400
STATION_ELEVATION_M: 66
LOCATION: 
SENSOR_DEPTH_M: 0.0
VS30_M/S: 
SITE_CLASSIFICATION_EC8: C*
MORPHOLOGIC_CLASSIFICATION: 
EPICENTRAL_DISTANCE_KM: 26.3
EARTHQUAKE_BACKAZIMUTH_DEGREE: 282.5
DATE_TIME_FIRST_SAMPLE_YYYYMMDD_HHMMSS: 20120529_065943.000
DATE_TIME_FIRST_SAMPLE_PRECISION: seconds
SAMPLING_INTERVAL_S: 0.005000
NDATA: 30001
DURATION_S: 150.005
STREAM: HNZ
UNITS: cm/s
INSTRUMENT: sensor = Episensor FBA ES-T [Kinemetrics] | digitizer = Etna [Kinemetrics]
INSTRUMENT_ANALOG/DIGITAL: D
INSTRUMENTAL_FREQUENCY_HZ: 
INSTRUMENTAL_DAMPING: 
FULL_SCALE_G: 
N_BIT_DIGITAL_CONVERTER: 18
PGV_CM/S: 2.233041
TIME_PGV_S: 32.080000
BASELINE_CORRECTION: BASELINE REMOVED
FILTER_TYPE: BUTTERWORTH
FILTER_ORDER: 2
LOW_CUT_FREQUENCY_HZ: 0.050
HIGH_CUT_FREQUENCY_HZ: 35.000
LATE/NORMAL_TRIGGERED: NT
DATABASE_VERSION: DYNA 1.0
HEADER_FORMAT: DYNA 1.2
DATA_TYPE: VELOCITY
PROCESSING: manual (Paolucci et al., 2011)
DATA_TIMESTAMP_YYYYMMDD_HHMMSS: 
DATA_LICENSE: CC-BY3_0-IT (http://creativecommons.org/licenses/by/3.0/deed.en)
DATA_CITATION: ESM working group (2015), European Strong-Motion database, version 0.1, Network Activity 3: Networking acceleration networks and SM data users. Project NERA (www.nera-eu.org)
DATA_CREATOR: ESM working group
ORIGINAL_DATA_MEDIATOR_CITATION: Ufficio Rischio Sismico e Vulcanico del Dipartimento della Protezione Civile (http://www.protezionecivile.gov.it/)
ORIGINAL_DATA_MEDIATOR: Rete Accelerometrica Nazionale - RAN Download (http://www.mot1.it/randownload/)
ORIGINAL_DATA_CREATOR_CITATION: Italian Strong Motion Network, Italian Civil Protection Department http://www.protezionecivile.gov.it
ORIGINAL_DATA_CREATOR: network: IT (Italian Strong Motion Network); owner: Dipartimento Della Protezione Civile
USER1: 
USER2: 
USER3: 
USER4: 
USER5: 
[...]
0.005097
0.004896
0.004274
0.003100
0.001457
-0.000293
-0.001689
-0.002435
-0.002567
-0.002422
-0.002434
-0.002932
-0.004000
-0.005392
-0.006635
-0.007282
-0.007095
-0.006098
-0.004563
-0.002895
-0.001476
-0.000543
-0.000131
-0.000068
-0.000026
0.000288
0.000991
0.002053
0.003362
0.004776
0.006152
0.007309
0.007983
0.007866
0.006727
0.004558
0.001631
-0.001517
-0.004202
-0.005822
-0.006120
-0.005337
-0.004146
-0.003292
-0.003164
-0.003655
-0.004359
-0.004919
-0.005272
-0.005678
-0.006552
-0.008158
-0.010354
-0.012617
-0.014317
-0.014969
-0.014299
-0.012224
-0.008865
-0.004562
0.000209
0.004986
0.009395
0.013129
0.015895
0.017456
0.017741
0.016859
0.015080
0.012815
0.010568
0.008829
0.007944
0.007971
0.008604
0.009257
0.009360
0.008731
0.007703
0.006870
0.006673
0.007107
0.007691
0.007612
0.006061
0.002682
-0.002177
-0.007599
-0.012494
-0.016045
-0.017939
-0.018275
-0.017353
-0.015557
-0.013345
-0.011235
-0.009688
-0.008924
-0.008785
-0.008856
-0.008813
-0.008644
-0.008523
-0.008511
-0.008360
-0.007548
-0.005607
-0.002498
0.001233
0.004700
0.007158
0.008345
0.008519
0.008329
0.008562
0.009788
0.012011
0.014461
0.015713
0.014266
0.009363
0.001624
-0.006964
-0.013797
-0.016763
-0.015136
-0.009791
-0.002779
0.003469
0.007060
0.007344
0.004968
0.001241
-0.002725
-0.006484
-0.010111
-0.013769
-0.017422
-0.020858
-0.023890
-0.026473
-0.028599
-0.030108
-0.030661
-0.029955
-0.027963
-0.024960
-0.021400
-0.017732
-0.014094
-0.010028
-0.004685
0.002475
0.011138
0.020207
0.028341
0.034568
0.038536
0.040144
0.039083
0.034910
0.027590
0.017971
0.007828
-0.000728
-0.006216
-0.008453
-0.008512
-0.008108
-0.008842
-0.011572
-0.016096
-0.021329
-0.025831
-0.028384
-0.028368
-0.025858
-0.021484
-0.016182
-0.010832
-0.005914
-0.001479
0.002536
0.005887
0.007910
0.007860
0.005392
0.000811
-0.005070
-0.011334
-0.017199
-0.021894
-0.024466
-0.023927
-0.019689
-0.011872
-0.001344
0.010271
0.020692
0.027573
0.029468
0.026534
0.020424
0.013382
0.007130
0.002255
-0.001561
-0.004850
-0.007910
-0.010733
-0.012936
-0.013731
-0.012269
-0.008126
-0.001471
0.006984
0.015913
0.023449
0.027800
0.028055
0.024494
0.018526
0.012462
0.008638
0.008099
0.010002
0.012423
0.013741
0.013478
0.012272
0.011118
0.010394
0.009598
0.007992
0.005202
0.001205
-0.003807
-0.009245
-0.013997
-0.016795
-0.016856
-0.014360
-0.010463
-0.006802
-0.004651
-0.004284
-0.004909
-0.005084
-0.003451
0.000359
0.005392
0.010001
0.012682
0.012570
0.009806
0.005537
0.001250
-0.001784
-0.002535
-0.000368
0.004525
0.011053
0.017533
0.021993
0.022768
0.019386
0.012800
0.004609
-0.003789
-0.011386
-0.017257
-0.020384
-0.020083
-0.016705
-0.011685
-0.006669
-0.002578
0.000593
0.003277
0.005655
0.007297
0.007500
0.005901
0.002673
-0.001627
-0.006089
-0.009563
-0.011205
-0.011111
-0.010232
-0.009646
-0.010031
-0.011550
-0.013787
-0.015763
-0.016309
-0.014694
-0.011060
-0.006326
-0.001674
0.001938
0.003972
0.004374
0.003668
0.002962
0.003670
0.006914
0.012817
0.020231
0.027226
0.031884
0.032823
0.029537
0.022572
0.013295
0.003349
-0.005801
-0.012997
-0.017257
-0.017684
-0.013637
-0.005153
0.006639
0.019423
0.030104
0.035668
0.034169
0.025368
0.010826
-0.006435
-0.022693
-0.034719
-0.040814
-0.040992
-0.036314
-0.028050
-0.017235
-0.004673
0.008750
0.021620
0.031896
0.037513
0.037371
0.031971
0.023256
0.013846
0.006168
0.001810
0.001189
0.003596
0.007730
0.012384
0.016765
0.020377
0.022806
0.023526
0.021828
0.017096
0.009303
-0.000595
-0.010604
-0.018109
-0.020870
-0.018215
-0.011539
-0.003648
0.002591
0.005522
0.005303
0.003570
0.002382
0.003103
0.005848
0.009749
0.013604
0.016372
0.017517
0.017281
0.016677
0.017064
0.019488
0.024218
0.030785
0.038266
0.045599
0.051894
0.056682
0.059941
0.061900
0.062669
0.061853
0.058527
0.051923
0.042466
0.032150
0.023713
0.019157
0.018753
0.021274
0.025040
0.028921
0.032665
0.036398
0.039769
0.041533
0.040022
0.034220
0.024716
0.013747
0.004345
-0.000850
-0.000614
0.004349
0.011609
0.018019
0.021129
0.020145
0.015944
0.010548
0.006480
0.006030
0.010496
0.019782
0.032641
0.047242
0.061554
0.073451
0.080791
0.081755
0.075489
0.062665
0.045554
0.027341
0.010945
-0.001865
-0.010513
-0.015192
-0.016534
-0.015477
-0.013131
-0.010733
-0.009795
-0.012118
-0.019279
-0.031508
-0.046535
-0.059526
-0.064730
-0.058036
-0.038846
-0.010082
0.023443
0.056638
0.084723
0.103436
0.109840
0.103551
0.087273
0.065841
0.044239
0.025829
0.011867
0.002205
-0.003903
-0.007349
-0.008698
-0.007631
-0.002836
0.007324
0.023530
0.044420
0.066560
0.085721
0.098765
0.105090
0.106737
0.106970
0.108239
0.110980
0.113918
0.115273
0.113860
0.109391
0.102106
0.092490
0.081336
0.069603
0.057691
0.044729
0.028821
0.008223
-0.017374
-0.046174
-0.074579
-0.098494
-0.114966
-0.123282
-0.124918
-0.122417
-0.117831
-0.111580
-0.102413
-0.088564
-0.069161
-0.044924
-0.018007
0.008581
0.031844
0.049949
0.063196
0.073742
0.083832
0.093898
0.102117
0.105572
0.101978
0.090887
0.073797
0.053380
0.032687
0.014680
0.001614
-0.005725
-0.008078
-0.006873
-0.003252
0.002385
0.010143
0.019924
0.030677
0.040134
0.045329
0.043679
0.034051
0.017293
-0.004118
-0.027167
-0.049442
-0.069577
-0.086807
-0.100137
-0.107990
-0.108904
-0.102991
-0.092974
-0.083538
-0.078967
-0.080360
-0.084292
-0.084336
-0.074921
-0.054802
-0.027582
0.000753
0.025031
0.042853
0.054750
0.062922
0.069292
0.073973
0.075247
0.071220
0.061918
0.049936
0.038949
0.031136
0.025619
0.019302
0.009424
-0.004521
-0.021088
-0.038636
-0.056514
-0.074956
-0.094405
-0.114926
-0.135840
-0.155524
-0.171370
-0.180212
-0.179310
-0.167310
-0.144622
-0.113413
-0.077442
-0.041465
-0.010113
0.013201
0.026732
0.030290
0.024874
0.012186
-0.005732
-0.026449
-0.046905
-0.063624
-0.073426
-0.074061
-0.064692
-0.046615
-0.023995
-0.003497
0.007933
0.006457
-0.005972
-0.021489
-0.029327
-0.020659
0.007424
0.051076
0.101694
0.148666
0.181614
0.192480
0.177764
0.140036
0.087523
0.031613
-0.016848
-0.050889
-0.068664
-0.072121
-0.064559
-0.049046
-0.028321
-0.005380
0.015956
0.030804
0.033967
0.021832
-0.005972
-0.046486
-0.094325
-0.142440
-0.182879
-0.208301
-0.214057
-0.199606
-0.168447
-0.126848
-0.082047
-0.040334
-0.005893
0.018774
0.031618
0.030600
0.014398
-0.016433
-0.058518
-0.105464
-0.148976
-0.181076
-0.196274
-0.192813
-0.172920
-0.142054
-0.106966
-0.073326
-0.044250
-0.020445
-0.001570
0.012282
0.019877
0.019296
0.009483
-0.007791
-0.026989
-0.040240
-0.040943
-0.027332
-0.003536
0.022604
0.043816
0.057401
0.066340
0.076608
0.092540
0.113398
0.133115
0.142931
0.135451
0.108300
0.065565
0.016333
-0.028713
-0.061174
-0.077967
-0.082052
-0.080094
-0.078169
-0.078335
-0.078375
-0.074504
-0.064669
-0.049946
-0.033502
-0.018585
-0.007253
-0.000490
0.000907
-0.003831
-0.014468
-0.028840
-0.043150
-0.053482
-0.057563
-0.055543
-0.049384
-0.041744
-0.035363
-0.032906
-0.036718
-0.048179
-0.066836
-0.089844
-0.112650
-0.131077
-0.143454
-0.151191
-0.157496
-0.165282
-0.175411
-0.185826
-0.191855
-0.187966
-0.170431
-0.139209
-0.097856
-0.052111
-0.008515
0.026810
0.049538
0.057905
0.052101
0.033261
0.003559
-0.032628
-0.067936
-0.092942
-0.098846
-0.080513
-0.037899
0.025310
0.104532
0.195657
0.293626
0.390423
0.475670
0.539900
0.577671
0.588315
0.574331
0.539033
0.485739
0.419211
0.347279
0.280494
0.229870
0.203817
0.205119
0.229393
0.266451
0.303882
0.330486
0.338288
0.323605
0.287449
0.234643
0.171466
0.103119
0.032856
-0.036614
-0.100923
-0.153151
-0.185433
-0.193044
-0.178669
-0.152504
-0.126617
-0.107971
-0.095677
-0.083502
-0.064636
-0.035280
0.004409
0.051602
0.103005
0.156416
0.210539
0.263465
0.310998
0.346130
0.360983
0.350776
0.316426
0.263099
0.196635
0.122575
0.048898
-0.012010
-0.046188
-0.043809
-0.002804
0.071442
0.168047
0.272376
0.368416
0.442635
0.487500
0.501884
0.488282
0.449609
0.387777
0.304375
0.202905
0.090923
-0.020659
-0.121665
-0.206910
-0.277166
-0.336817
-0.390094
-0.437434
-0.473602
-0.489345
-0.476423
-0.432826
-0.364431
-0.282923
-0.202672
-0.137637
-0.097692
-0.085613
-0.096673
-0.120676
-0.145615
-0.162356
-0.168428
-0.168250
-0.169290
-0.176661
-0.189642
-0.202055
-0.206020
-0.196521
-0.173696
-0.141861
-0.107213
-0.076162
-0.054185
-0.044181
-0.044485
-0.048398
-0.046986
-0.034039
-0.009542
0.020623
0.047882
0.065081
0.069684
0.064560
0.055940
0.049948
0.049997
0.056329
0.067339
0.081293
0.096547
0.109899
0.115720
0.107902
0.082698
0.040042
-0.016219
-0.078166
-0.134373
-0.172515
-0.184061
-0.168857
-0.135712
-0.097387
-0.063592
-0.037667
-0.018566
-0.004916
0.002800
0.002949
-0.005590
-0.022883
-0.048583
-0.081928
-0.120385
-0.159027
-0.192170
-0.215536
-0.227208
-0.227717
-0.219573
-0.205985
-0.189119
-0.168996
-0.144162
-0.113921
-0.080546
-0.050061
-0.031181
-0.032811
-0.060828
-0.114546
-0.184004
-0.250746
-0.293475
-0.296054
-0.253722
-0.174907
-0.078152
0.014561
0.084906
0.122288
0.124454
0.096698
0.050346
-0.000349
-0.042380
-0.067353
-0.072999
-0.062469
-0.041527
-0.015361
0.012760
0.040419
0.063807
0.076507
0.071056
0.042706
-0.007033
-0.069545
-0.132101
-0.182890
-0.214593
-0.225349
-0.218328
-0.200181
-0.178256
-0.158016
-0.141919
-0.129158
-0.115820
-0.096340
-0.066102
-0.023529
0.029244
0.086424
0.138908
0.176057
0.189501
0.177101
0.144527
0.103722
0.069060
0.052288
0.057904
0.081431
0.112078
0.137871
0.149645
0.142869
0.118661
0.084090
0.050156
0.026952
0.018583
0.021752
0.029196
0.035155
0.039181
0.046578
0.065782
0.104232
0.164881
0.245132
0.338074
0.433580
0.518164
0.576172
0.594376
0.566878
0.495819
0.387899
0.250501
0.090631
-0.082640
-0.254602
-0.404038
-0.507174
-0.545217
-0.511007
-0.410510
-0.259492
-0.079009
0.108732
0.284406
0.434298
0.550609
0.629975
0.671512
0.675541
0.643602
0.578941
0.486340
0.371285
0.239127
0.094725
-0.056873
-0.208656
-0.350156
-0.468015
-0.548735
-0.581988
-0.562997
-0.493461
-0.381082
-0.238583
-0.082736
0.067465
0.193980
0.283144
0.328441
0.331563
0.300003
0.241924
0.162196
0.062492
-0.055369
-0.185822
-0.318168
-0.437790
-0.529195
-0.579983
-0.584382
-0.545056
-0.472856
-0.384712
-0.299383
-0.231724
-0.188269
-0.166937
-0.160931
-0.163728
-0.171368
-0.181325
-0.190739
-0.196206
-0.194390
-0.182154
-0.156461
-0.114984
-0.057215
0.014883
0.096476
0.178992
0.249608
0.292721
0.293717
0.243894
0.144523
0.007768
-0.146258
-0.293901
-0.411216
-0.476721
-0.476027
-0.407689
-0.286132
-0.138429
0.003692
0.112196
0.167742
0.160880
0.091440
-0.032277
-0.194977
-0.377396
-0.559976
-0.725069
-0.857189
-0.943521
-0.976435
-0.956238
-0.891516
-0.797022
-0.690335
-0.588255
-0.504266
-0.447903
-0.424816
-0.435676
-0.474505
-0.529391
-0.586679
-0.635775
-0.671352
-0.692565
-0.700544
-0.695902
-0.678181
-0.647310
-0.604645
-0.552006
-0.489901
-0.416980
-0.331685
-0.235247
-0.133111
-0.032677
0.060426
0.143472
0.214814
0.272489
0.314810
0.341319
0.353204
0.354284
0.352500
0.359853
0.389416
0.450316
0.543162
0.658544
0.779943
0.889711
0.974198
1.025528
1.041520
1.025382
0.984144
0.925489
0.854827
0.774443
0.685548
0.592483
0.505704
0.440095
0.409372
0.420720
0.472520
0.554602
0.650135
0.740219
0.810718
0.856802
0.881893
0.893175
0.897377
0.898181
0.895325
0.885232
0.862670
0.822790
0.762781
0.682857
0.586891
0.482480
0.379767
0.289402
0.220370
0.177878
0.161810
0.166582
0.182450
0.197689
0.200837
0.182384
0.136048
0.059820
-0.043654
-0.167509
-0.301431
-0.432676
-0.547708
-0.634603
-0.685516
-0.697855
-0.674071
-0.621646
-0.553282
-0.484946
-0.430888
-0.398412
-0.386127
-0.386399
-0.389984
-0.390770
-0.388638
-0.388342
-0.395086
-0.410559
-0.431475
-0.449424
-0.451650
-0.424194
-0.357440
-0.251479
-0.117917
0.023512
0.151978
0.252540
0.319961
0.358314
0.377101
0.385915
0.390172
0.389605
0.379351
0.352504
0.303486
0.231354
0.141380
0.044550
-0.044177
-0.108878
-0.136971
-0.123787
-0.075963
-0.011722
0.043917
0.067881
0.047381
-0.016112
-0.108156
-0.206563
-0.288545
-0.337483
-0.346680
-0.318642
-0.260911
-0.181380
-0.086075
0.019785
0.129311
0.232791
0.319500
0.381708
0.417918
0.432887
0.435360
0.435821
0.444362
0.468007
0.508879
0.564506
0.628996
0.693512
0.746317
0.773591
0.761904
0.702352
0.594921
0.450716
0.290538
0.140346
0.025243
-0.036719
-0.039742
0.007662
0.085702
0.170498
0.241418
0.284820
0.293376
0.263038
0.190718
0.074554
-0.083559
-0.274844
-0.482118
-0.681457
-0.846813
-0.955822
-0.994236
-0.956615
-0.843839
-0.661280
-0.420105
-0.139383
0.154835
0.433914
0.671617
0.847578
0.949973
0.978302
0.945087
0.874390
0.796849
0.743256
0.738671
0.797977
0.923590
1.106203
1.328139
1.567073
1.798644
1.998737
2.146277
2.226312
2.233041
2.171737
2.057344
1.909069
1.744050
1.574221
1.407414
1.250412
1.111136
0.998306
0.918825
0.874934
0.863261
0.875933
0.902403
0.931232
0.952182
0.958081
0.945296
0.913284
0.864352
0.803197
0.735575
0.666794
0.601584
0.545824
0.508071
0.498359
0.524761
0.590375
0.691975
0.820217
0.961254
1.099362
1.219637
1.309629
1.359426
1.361056
1.308644
1.199679
1.036856
0.829917
0.596375
0.359594
0.143817
-0.032169
-0.159738
-0.241398
-0.288002
-0.313863
-0.331790
-0.349821
-0.370883
-0.395060
-0.422117
-0.451998
-0.483671
-0.514277
-0.539465
-0.554129
-0.552838
-0.530587
-0.484706
-0.417421
-0.337145
-0.256765
-0.189672
-0.146316
-0.132916
-0.151529
-0.200266
-0.273515
-0.362810
-0.458469
-0.551298
-0.633715
-0.700392
-0.748568
-0.777987
-0.790950
-0.792967
-0.793452
-0.805002
-0.840438
-0.908191
-1.007817
-1.128059
-1.249452
-1.350847
-1.416333
-1.439112
-1.421060
-1.368897
-1.289510
-1.187137
-1.063463
-0.919875
-0.760568
-0.595209
-0.439364
-0.311143
-0.224635
-0.183589
-0.179522
-0.195301
-0.211376
-0.211421
-0.186156
-0.135548
-0.069190
-0.004116
0.039991
0.046923
0.009637
-0.066758
-0.166866
-0.271470
-0.365617
-0.444255
-0.512662
-0.581437
-0.658028
-0.739614
-0.812421
-0.857925
-0.862146
-0.823607
-0.756703
-0.688738
-0.651393
-0.670011
-0.755102
-0.899342
-1.080901
-1.270954
-1.441355
-1.569138
-1.637223
-1.633341
-1.549701
-1.384433
-1.144166
-0.846215
-0.518544
-0.196393
0.084214
0.294999
0.423105
0.473677
0.466024
0.426090
0.378496
0.340586
0.320237
0.317373
0.327559
0.345905
0.369564
0.397814
0.430837
0.468305
0.507682
0.543340
0.567830
0.574648
0.560607
0.526276
0.474690
0.409860
0.336346
0.260230
0.190138
0.136356
0.107973
0.109545
0.138994
0.187995
0.244474
0.295456
0.328687
0.333070
0.299550
0.223280
0.105653
-0.045709
-0.219367
-0.403292
-0.586787
-0.760540
-0.916338
-1.047694
-1.150674
-1.224324
-1.271020
-1.295966
-1.304839
-1.300518
-1.280887
-1.239230
-1.167451
-1.060689
-0.920934
-0.757950
-0.587676
-0.429198
-0.301071
-0.217554
-0.185600
-0.203220
-0.259342
-0.335319
-0.408427
-0.457153
-0.466481
-0.430416
-0.350882
-0.234821
-0.091466
0.069519
0.238557
0.405196
0.557043
0.680229
0.761671
0.792118
0.768848
0.697322
0.591295
0.470408
0.355329
0.262671
0.202201
0.177261
0.187435
0.231153
0.306249
0.408613
0.530503
0.659790
0.780614
0.875807
0.930852
0.937887
0.897955
0.820635
0.721226
0.616633
0.521627
0.446783
0.398352
0.379139
0.389212
0.425744
0.481937
0.545816
0.600385
0.626494
0.607873
0.535803
0.411576
0.246642
0.060915
-0.120275
-0.270346
-0.366804
-0.396743
-0.360156
-0.269540
-0.146148
-0.014502
0.102995
0.190218
0.239973
0.254580
0.243743
0.220411
0.196840
0.182702
0.184788
0.206607
0.247444
0.301805
0.360056
0.410274
0.440770
0.442724
0.412099
0.349908
0.261218
0.154029
0.038577
-0.073224
-0.168908
-0.237604
-0.272696
-0.274032
-0.248741
-0.209996
-0.173678
-0.154198
-0.161475
-0.199946
-0.269233
-0.365540
-0.482584
-0.611579
-0.741086
-0.857752
-0.948156
-1.001447
-1.011719
-0.978872
-0.908054
-0.808722
-0.693371
-0.575219
-0.464870
-0.367443
-0.282002
-0.203974
-0.129290
-0.057616
0.007035
0.058147
0.089376
0.096430
0.077867
0.034996
-0.029224
-0.111661
-0.209222
-0.317171
-0.427426
-0.528961
-0.610036
-0.660666
-0.674521
-0.650429
-0.593884
-0.517611
-0.439164
-0.376005
-0.340839
-0.339175
-0.369438
-0.424732
-0.495377
-0.571655
-0.645459
-0.710394
-0.761306
-0.794011
-0.805689
-0.795885
-0.767153
-0.724901
-0.676750
-0.631415
-0.596692
-0.576706
-0.569772
-0.568519
-0.562739
-0.543419
-0.505705
-0.449867
-0.380448
-0.304156
-0.227556
-0.155366
-0.089353
-0.027813
0.033707
0.100412
0.175901
0.259860
0.346100
0.422772
0.475734
0.493442
0.471469
0.415387
0.340097
0.264163
0.202055
0.160265
0.138948
0.135495
0.146924
0.170924
0.206122
0.251496
0.304909
0.361891
0.416050
0.461313
0.494615
0.517077
0.533129
0.548645
0.568844
0.595936
0.627395
0.656188
0.672725
0.667531
0.634414
0.573039
0.488890
0.390351
0.284724
0.175804
0.064463
-0.048953
-0.162876
-0.274428
-0.379605
-0.472857
-0.547547
-0.597663
-0.619403
-0.612480
-0.581415
-0.535526
-0.486534
-0.444869
-0.416762
-0.403625
-0.403201
-0.410355
-0.417340
-0.414950
-0.394916
-0.352285
-0.285822
-0.196370
-0.085630
0.042931
0.182456
0.322813
0.452766
0.562659
0.646750
0.704630
0.740783
0.762761
0.778904
0.795448
0.813879
0.830477
0.838635
0.832643
0.810350
0.772616
0.720427
0.652335
0.564002
0.449836
0.305744
0.131707
-0.066884
-0.279575
-0.492434
-0.690115
-0.858090
-0.984820
-1.063534
-1.093192
-1.078122
-1.026836
-0.951188
-0.865577
-0.785096
-0.722567
-0.685387
-0.673310
-0.678239
-0.686933
-0.685784
-0.665066
-0.620763
-0.554408
-0.472403
-0.384815
-0.302139
-0.230997
-0.172585
-0.124647
-0.084081
-0.048733
-0.018078
0.008489
0.035195
0.071140
0.126630
0.207644
0.313219
0.436458
0.566179
0.688226
0.788342
0.856295
0.887946
0.883699
0.846101
0.779344
0.689230
0.581262
0.458554
0.322814
0.177445
0.028905
-0.115005
-0.247992
-0.366586
-0.469065
-0.553391
-0.616047
-0.652357
-0.658310
-0.633079
-0.580078
-0.505796
-0.418041
-0.325266
-0.236494
-0.159971
-0.101179
-0.062689
-0.045452
-0.049550
-0.074249
-0.118111
-0.178768
-0.252052
-0.332013
-0.412499
-0.488462
-0.555707
-0.610312
-0.649104
-0.670452
-0.674339
-0.662438
-0.638802
-0.609933
-0.583405
-0.565868
-0.561699
-0.572720
-0.598720
-0.638107
-0.688402
-0.746688
-0.809638
-0.873036
