EVENT_NAME: EMILIA_2ND_SHOCK
EVENT_ID: IT-2012-0011
EVENT_DATE_YYYYMMDD: 20120529
EVENT_TIME_HHMMSS: 070002
EVENT_LATITUDE_DEGREE: 44.8417
EVENT_LONGITUDE_DEGREE: 11.0657
EVENT_DEPTH_KM: 8.1
HYPOCENTER_REFERENCE: INGV-CNT_Seismic_Bulletin
MAGNITUDE_W: 6.0
MAGNITUDE_W_REFERENCE: RCMT-INGV
MAGNITUDE_L: 5.8
MAGNITUDE_L_REFERENCE: INGV-CNT_Seismic_Bulletin
FOCAL_MECHANISM: TF
NETWORK: IT
STATION_CODE: SMS0
STATION_NAME: SAN MARTINO SPINO
STATION_LATITUDE_DEGREE: 44.934000
STATION_LONGITUDE_DEGREE: 11.235000
STATION_ELEVATION_M: 55
LOCATION: 
SENSOR_DEPTH_M: 0.0
VS30_M/S: 
SITE_CLASSIFICATION_EC8: C*
MORPHOLOGIC_CLASSIFICATION: 
EPICENTRAL_DISTANCE_KM: 16.9
EARTHQUAKE_BACKAZIMUTH_DEGREE: 232.6
DATE_TIME_FIRST_SAMPLE_YYYYMMDD_HHMMSS: 20120529_065933.000
DATE_TIME_FIRST_SAMPLE_PRECISION: seconds
SAMPLING_INTERVAL_S: 0.005000
NDATA: 32001
DURATION_S: 160.005
STREAM: HNE
UNITS: cm/s^2
INSTRUMENT: sensor = Episensor FBA ES-T [Kinemetrics] | digitizer = Etna [Kinemetrics]
INSTRUMENT_ANALOG/DIGITAL: D
INSTRUMENTAL_FREQUENCY_HZ: 
INSTRUMENTAL_DAMPING: 
FULL_SCALE_G: 
N_BIT_DIGITAL_CONVERTER: 18
PGA_CM/S^2: 174.454003
TIME_PGA_S: 42.400000
BASELINE_CORRECTION: BASELINE REMOVED
FILTER_TYPE: BUTTERWORTH
FILTER_ORDER: 2
LOW_CUT_FREQUENCY_HZ: 0.040
HIGH_CUT_FREQUENCY_HZ: 40.000
LATE/NORMAL_TRIGGERED: NT
DATABASE_VERSION: DYNA 1.0
HEADER_FORMAT: DYNA 1.2
DATA_TYPE: ACCELERATION
PROCESSING: manual (Paolucci et al., 2011)
DATA_TIMESTAMP_YYYYMMDD_HHMMSS: 
DATA_LICENSE: CC-BY3_0-IT (http://creativecommons.org/licenses/by/3.0/deed.en)
DATA_CITATION: ESM working group (2015), European Strong-Motion database, version 0.1, Network Activity 3: Networking acceleration networks and SM data users. Project NERA (www.nera-eu.org)
DATA_CREATOR: ESM working group
ORIGINAL_DATA_MEDIATOR_CITATION: Ufficio Rischio Sismico e Vulcanico del Dipartimento della Protezione Civile (http://www.protezionecivile.gov.it/)
ORIGINAL_DATA_MEDIATOR: Rete Accelerometrica Nazionale - RAN Download (http://www.mot1.it/randownload/)
ORIGINAL_DATA_CREATOR_CITATION: Italian Strong Motion Network, Italian Civil Protection Department http://www.protezionecivile.gov.it
ORIGINAL_DATA_CREATOR: network: IT (Italian Strong Motion Network); owner: Dipartimento Della Protezione Civile
USER1: 
USER2: 
USER3: 
USER4: 
USER5: 
[...]
-0.979780
-2.567099
-4.005533
-4.900513
-5.114574
-4.929629
-4.330862
-3.249947
-1.923526
-0.525161
0.761080
1.722172
2.377113
2.692417
2.476402
1.471351
-0.485641
-2.827073
-4.260235
-3.943330
-2.391926
-0.776899
0.275362
0.743369
0.800209
0.659764
0.576750
0.932846
1.794764
2.568128
2.849389
2.690023
2.028054
1.207744
1.016579
1.575324
2.101453
1.615703
0.021323
-1.465490
-1.736594
-1.050462
-0.002538
1.336846
2.491534
2.650032
1.696842
0.050005
-1.416449
-1.741729
-1.348665
-1.600006
-2.928199
-4.622744
-5.698685
-5.864224
-5.668660
-5.196465
-3.724028
-1.223306
1.097510
2.208774
2.136766
1.099961
-0.752279
-2.396848
-2.591460
-1.686916
-1.015588
-0.772149
-0.158236
1.051393
2.266147
2.631962
1.518912
-0.526098
-1.709334
-1.054267
0.409115
1.058001
0.168675
-1.745952
-3.454673
-3.898838
-2.693843
-0.236216
2.553231
4.561769
4.975413
3.918671
1.936872
-0.548301
-2.536658
-3.017611
-2.421945
-1.779434
-1.371162
-0.912287
-0.042616
0.861457
0.810238
-0.282112
-1.358172
-1.279500
0.296284
2.579172
4.045987
3.722671
2.104060
0.352481
-0.880398
-1.627165
-2.072278
-2.146803
-1.648311
-0.918377
-1.175121
-2.731064
-3.873950
-3.512989
-2.372152
-0.770679
1.195529
2.621873
3.212450
3.443781
3.302938
2.104976
-0.570359
-3.533921
-4.877060
-4.756931
-4.949742
-5.793347
-5.895140
-4.442805
-2.231266
-0.351193
0.900705
1.396925
1.067725
0.907040
1.932739
3.121140
2.679851
0.814917
-0.423918
0.147705
1.422015
1.639853
0.390796
-1.263786
-1.754589
-0.432123
1.424270
2.124965
1.816709
1.902735
3.015307
4.194743
3.755658
1.128623
-2.268599
-4.418800
-4.593737
-3.831185
-3.666762
-4.098727
-3.782448
-1.953244
0.780176
2.868290
3.166783
1.797413
-0.303208
-2.062053
-2.840836
-2.869075
-3.062391
-3.741805
-4.362752
-4.953718
-5.347835
-3.831486
-0.095475
2.907135
3.447065
3.411297
4.338232
5.374079
5.078324
2.861567
-0.456226
-3.307007
-4.755252
-4.901608
-4.500537
-4.267072
-4.214151
-3.592588
-1.864879
0.198503
1.350720
1.578076
1.780012
2.133275
2.067119
1.410815
0.471125
-0.284878
-0.522814
-0.470929
-0.064896
1.179545
2.361166
2.028837
0.773512
0.361934
1.698428
3.958403
4.510813
2.090180
-1.057128
-2.371560
-1.454727
0.248955
0.637424
-0.593081
-1.887978
-2.992989
-4.784393
-6.789864
-8.230992
-9.187350
-9.129323
-6.915408
-3.089326
0.024113
1.056988
0.691997
0.380689
0.665109
0.949572
0.851229
0.596186
0.404336
0.026967
-0.802015
-1.843707
-3.389955
-5.668329
-6.644299
-4.287360
-0.200400
3.160401
5.771324
7.667674
7.991071
7.145757
6.561927
6.965638
7.993525
8.749290
8.549409
7.198952
4.305603
-0.599074
-6.464108
-10.874964
-12.712192
-12.921940
-12.337470
-10.759797
-7.944331
-4.264442
-0.999898
0.372052
0.078286
0.067219
1.668005
4.562629
7.217219
7.874575
6.696849
5.491599
5.174183
5.623024
6.543580
7.735979
8.981409
9.344878
7.900105
5.339165
3.266602
1.869601
0.312526
-1.080067
-1.527790
-1.718474
-3.071682
-5.433547
-7.319354
-8.285732
-9.053209
-9.398597
-7.816307
-4.151805
-0.217566
3.088757
5.823375
6.910987
6.137813
5.598938
6.023044
5.701345
4.089196
2.699220
2.869507
4.519375
6.008647
5.313594
2.511764
-0.112042
-0.906696
-0.294624
0.598700
1.168150
1.414000
1.497182
0.907822
-1.000609
-3.951505
-6.738366
-7.970302
-7.173746
-5.142566
-3.364721
-1.973414
0.456473
3.917110
6.800917
8.197684
8.699071
9.074675
9.000694
7.537222
3.835975
-1.822791
-7.827486
-12.202303
-13.476281
-11.810470
-8.788396
-5.407553
-0.840850
5.399321
11.704736
16.484594
18.969046
18.160181
13.533558
6.704340
0.261731
-5.507155
-11.413272
-16.035175
-16.956011
-14.050204
-9.431504
-4.740598
-0.045099
4.988511
9.833523
12.907299
12.870058
10.780052
8.547950
5.791003
2.161837
-0.719653
-1.517414
-0.552851
0.799860
2.252685
4.582322
7.097243
8.200267
7.127830
4.172224
1.073674
-0.376319
-0.120613
0.891512
1.362961
0.495748
-1.008447
-2.289771
-3.425969
-4.244905
-4.464281
-5.127872
-7.159545
-9.570466
-10.715902
-10.127736
-8.447328
-6.138482
-3.492144
-1.438630
-1.569266
-5.028727
-11.022056
-17.465199
-22.623831
-25.476542
-25.260960
-21.594688
-15.637333
-9.077374
-2.329029
4.426571
10.312770
14.092004
15.226807
14.349059
11.850190
8.225895
4.857999
2.691143
1.577756
0.156162
-2.514998
-3.894372
-1.040343
3.768763
6.657600
8.082688
10.042716
11.954035
12.060336
9.688266
5.217036
-0.519065
-7.090121
-14.179064
-19.320940
-19.346994
-14.453300
-7.097596
1.066092
8.073346
10.278958
6.015801
-1.445160
-8.112844
-13.146778
-16.823589
-18.277813
-17.075047
-14.630792
-11.481564
-6.756454
-1.500129
2.522025
7.165502
15.897365
27.409355
36.304195
39.123047
36.641220
31.507261
25.499090
19.963608
15.273104
10.177603
4.291553
-1.892841
-7.690252
-12.304001
-16.065626
-19.099358
-19.839361
-16.534254
-9.645130
-2.072961
2.971743
3.654543
1.188809
-0.899952
-1.429293
-2.709845
-6.547111
-11.743247
-15.927280
-17.812021
-16.863676
-13.612167
-9.435319
-4.544602
0.974193
5.600892
8.432601
10.619547
13.534601
18.117220
24.926584
31.414345
33.015076
28.799391
22.356058
17.208185
13.299966
8.452908
1.927720
-4.420044
-7.492176
-5.381072
0.866696
8.186893
14.408659
19.038214
21.514891
20.904354
16.533945
7.877642
-3.999319
-15.369823
-23.003452
-25.828918
-23.357801
-16.657307
-8.173729
0.527273
8.439424
14.066331
15.293781
11.241596
3.733628
-4.984191
-14.079422
-22.793299
-28.816925
-29.853544
-25.907104
-17.845785
-6.373694
6.629599
18.955770
28.195557
30.236233
23.367117
11.326608
-1.701891
-13.017290
-20.614374
-24.727509
-24.039305
-15.564640
-2.048971
10.786020
20.093943
24.789852
26.389677
27.671839
28.039310
23.387976
10.577030
-7.041303
-22.414858
-32.044750
-35.394173
-34.317101
-33.235085
-32.562462
-27.772085
-17.455189
-3.931795
12.119529
29.366348
43.252655
50.770908
52.384842
50.031952
46.325161
42.046192
35.336876
25.500942
14.149454
3.600614
-3.641177
-7.031300
-8.843430
-10.202569
-9.285651
-4.486149
3.538147
13.024334
21.621105
25.837006
23.592436
17.228657
11.009326
5.982057
0.166829
-6.709730
-13.238178
-18.918259
-22.573376
-22.472740
-18.891554
-12.872069
-4.394850
6.604260
19.113922
30.836779
38.864624
41.781002
40.389679
36.353848
31.735977
28.261551
26.063690
23.736126
20.095760
17.003279
16.828730
16.635653
11.752397
2.430267
-8.789963
-19.835226
-27.654985
-31.054983
-32.235939
-32.312611
-30.367903
-26.195616
-20.547762
-14.730259
-10.002580
-6.152451
-2.697630
-1.314387
-3.579797
-7.881738
-12.071550
-15.370726
-16.263054
-12.759605
-3.573417
11.724546
30.173199
45.301239
52.497715
51.829918
45.916321
37.811409
30.026676
23.293194
16.294073
8.169462
0.173594
-5.592082
-7.321019
-5.113833
-1.917910
-0.685159
-1.501613
-2.477792
-2.259779
-0.538931
2.673655
6.659376
9.872762
11.202597
11.082117
10.725201
10.556916
9.935867
8.027608
4.756849
0.808238
-2.471517
-3.185027
-0.425510
4.675622
10.017953
14.681989
19.855753
26.724592
34.389519
40.906681
45.188499
46.963772
46.184929
43.264690
37.645351
27.575184
14.146017
2.135776
-4.073302
-2.849468
4.466688
13.782260
20.764961
24.070200
25.138666
25.550627
25.721054
25.441963
23.687054
19.185150
12.811312
6.608875
0.820220
-5.628931
-13.382482
-22.251266
-31.053493
-37.929737
-40.733440
-37.785233
-30.270542
-21.479286
-13.386531
-7.462975
-5.139239
-5.538085
-7.538130
-12.014188
-18.621422
-24.867235
-29.455980
-32.868462
-35.623383
-37.526398
-37.957626
-36.805500
-34.531151
-31.782005
-29.253380
-27.298683
-26.807634
-28.923197
-32.865692
-37.221539
-41.926685
-46.866009
-49.671333
-45.127415
-29.842306
-7.549638
15.176543
35.857578
54.469330
70.170776
82.536736
91.012833
93.788246
90.609764
83.705887
74.011002
58.987411
35.847462
5.888046
-25.543924
-52.511776
-71.780884
-83.601067
-89.536896
-90.570213
-86.855080
-77.762642
-63.075706
-44.385361
-23.802519
-1.579313
23.081680
48.953098
72.799629
91.861679
104.569717
110.844307
112.306396
110.168579
103.578819
91.326385
74.197601
54.104069
31.793762
7.284386
-17.837473
-40.176136
-57.099377
-68.391022
-75.849609
-81.632927
-86.653442
-90.997864
-94.163704
-95.850121
-96.288048
-93.912376
-86.803444
-75.571106
-62.281849
-49.517292
-38.743122
-28.006630
-14.630591
0.594175
14.422435
24.011536
29.051680
32.830898
38.560616
46.793495
57.335888
67.045303
68.484665
56.783569
34.684944
10.084536
-10.182003
-23.741812
-30.607918
-32.272629
-31.249058
-29.265377
-27.727736
-27.406267
-27.660685
-27.854113
-27.378822
-25.304134
-23.292992
-25.206491
-31.766726
-40.587086
-50.124882
-59.977367
-70.157471
-81.328629
-92.940819
-101.753891
-105.043327
-103.779243
-100.036171
-91.458176
-72.012459
-40.711212
-4.973419
26.584005
49.721985
63.686787
70.289879
72.873085
73.952911
74.892410
75.570274
74.611725
71.963684
68.374367
63.788994
58.350101
52.159908
44.271881
34.045841
23.418196
15.826040
12.768086
13.022814
14.334943
15.004752
14.600961
13.553247
11.938274
8.679271
2.777956
-4.696755
-11.638444
-16.967566
-20.385416
-22.295837
-24.126148
-27.175982
-30.749054
-31.921511
-28.027884
-19.411638
-9.161507
0.581988
9.832165
17.315737
20.192341
17.555107
10.592209
0.528762
-11.240116
-23.025320
-33.658882
-42.073460
-47.376167
-49.887150
-51.020401
-52.308228
-55.207619
-60.781536
-67.560654
-72.534164
-74.692245
-73.747620
-69.306374
-63.273415
-58.000633
-53.124897
-47.377155
-41.091805
-35.572887
-32.011612
-31.117140
-32.011990
-31.962385
-28.597200
-21.531029
-12.211649
-3.167554
3.883524
9.592074
15.935539
24.116526
34.627346
47.869678
63.169941
78.599030
92.247223
102.548431
107.350044
104.646286
94.844009
80.986977
67.049614
56.915977
53.432606
56.060253
61.259628
67.161575
74.692879
84.121666
94.547089
105.041794
113.695572
117.804359
115.163589
104.275711
84.953262
59.414696
32.441483
9.059836
-8.624490
-21.166292
-30.015789
-36.965176
-43.187481
-48.199001
-50.738541
-51.317730
-52.515137
-56.234940
-62.113377
-67.990723
-71.680481
-73.200325
-75.079155
-80.169090
-88.888565
-99.092972
-108.848053
-117.642502
-125.360756
-131.806091
-136.404144
-138.249603
-136.597519
-130.892487
-120.760216
-106.413300
-89.925499
-75.240921
-65.144241
-59.256813
-55.609879
-52.103504
-47.064224
-39.613602
-28.622011
-13.902122
2.410121
18.191498
31.889313
42.167046
48.852089
52.414810
53.433773
51.529472
44.292686
30.052366
10.873788
-9.027307
-26.165977
-38.766644
-46.600266
-49.863747
-47.908409
-39.157581
-22.854187
-1.090492
21.849491
42.128223
58.423820
71.230598
80.496391
86.259781
90.247757
93.585052
95.092522
93.610527
88.959923
81.666138
74.028381
68.791328
66.780571
67.005913
68.069763
69.404442
70.719147
71.026306
69.310455
65.443733
60.417984
55.365536
50.548359
46.660126
45.219925
46.589054
50.014198
55.115963
62.114655
71.050079
80.615875
87.899986
90.361061
88.780426
86.371704
85.164124
86.012985
89.495644
94.535538
99.357925
103.394569
106.454330
108.415955
109.939301
111.436363
112.010124
110.859489
108.105621
103.053551
93.191376
75.267525
48.540714
17.084015
-13.424672
-39.807571
-61.025169
-76.614220
-87.180885
-94.586273
-100.559952
-105.750359
-109.746429
-111.854118
-111.747375
-109.666336
-107.468338
-108.070137
-112.027870
-116.950363
-120.291359
-120.218498
-115.758141
-107.366417
-95.984810
-83.217834
-72.329964
-66.295586
-65.506554
-69.038681
-76.632172
-88.059196
-102.224556
-117.175919
-130.106720
-138.245361
-140.284027
-136.532761
-128.284622
-118.366806
-110.252052
-105.128319
-102.232323
-100.601532
-98.549744
-94.274818
-87.402313
-77.914902
-65.437622
-51.077438
-36.827072
-22.986797
-9.079716
4.265567
15.866829
24.782120
30.805029
35.241951
40.567734
47.946316
54.869625
56.918011
52.110409
42.335430
31.856411
25.420731
25.632956
31.644358
41.189590
52.549198
64.681480
76.894958
88.080750
96.345688
99.495476
95.775764
85.348434
70.564697
53.593491
34.888145
14.525594
-6.126497
-24.772947
-39.356239
-48.770214
-53.653141
-55.624599
-55.367512
-53.034763
-49.428040
-45.304375
-40.824558
-36.340115
-32.382656
-28.149733
-21.456158
-10.963822
2.752130
18.184597
33.672993
47.580486
58.713390
67.140213
74.051964
79.491997
81.547165
78.800049
71.294075
59.464615
44.144672
26.892416
9.882615
-4.483210
-14.649671
-20.624739
-23.532604
-25.089760
-27.097240
-30.005920
-32.669579
-34.694420
-37.293888
-40.952160
-45.029125
-49.929356
-55.762802
-60.627594
-63.506065
-65.291374
-66.908287
-68.812157
-71.031998
-73.249420
-74.656586
-75.004967
-75.593788
-77.017876
-78.308197
-78.504509
-75.623711
-65.912071
-46.907661
-20.183126
9.403433
37.178371
61.428963
82.404900
100.396393
116.149445
131.053238
145.424316
158.003082
167.470581
173.113342
174.454010
172.039291
167.941681
163.769058
159.728119
156.108566
153.070755
149.830399
145.950455
141.908752
138.281967
135.496704
133.598038
132.308670
131.956741
133.243530
135.584686
136.648727
132.906479
120.696381
98.923920
70.114822
38.088654
6.405141
-21.498997
-43.290707
-58.919865
-69.650543
-77.502518
-85.343857
-94.522743
-103.529327
-110.148918
-113.297401
-113.198555
-111.547127
-111.143494
-113.292564
-116.561638
-119.527473
-122.342461
-125.855797
-130.927322
-137.652664
-145.226105
-152.572220
-158.689392
-162.834473
-164.893341
-165.386414
-164.422913
-161.447845
-156.408203
-149.941940
-142.800934
-135.722656
-128.930267
-121.409378
-111.878853
-101.001488
-90.629890
-81.285255
-72.894005
-65.697739
-59.107586
-52.457012
-46.082928
-39.888626
-33.134071
-25.886305
-18.068277
-8.692228
2.610078
15.946757
31.994152
50.508045
70.359520
90.767326
110.444992
127.488968
141.019882
150.955353
156.671814
157.847443
155.623032
151.382950
145.633224
138.533157
129.973007
119.462631
107.189201
94.381622
82.168030
71.300835
62.566620
56.474415
53.262238
53.136841
56.091690
61.787666
69.472511
77.567703
83.999786
87.665733
88.720879
87.780113
84.819687
77.825890
63.877220
42.607121
17.391962
-7.893341
-31.540091
-52.793777
-70.656235
-84.519669
-94.890839
-102.976479
-109.630890
-115.036003
-119.099709
-121.541222
-122.147423
-121.752090
-121.828659
-123.312820
-126.152138
-129.158035
-131.278885
-132.817062
-134.665237
-136.891052
-138.543350
-138.989273
-138.347687
-135.674316
-128.158752
-114.406097
-96.967896
-79.348129
-62.794235
-46.887047
-30.842825
-14.378463
1.695987
16.388660
29.444298
40.854610
50.546631
58.633465
64.949326
68.742844
69.880188
69.424187
68.998184
70.251274
73.762398
79.218849
86.461937
93.745338
97.388283
95.571716
89.647896
81.856789
74.331970
68.875641
65.873337
64.484734
63.977943
63.943130
64.192467
64.869148
66.109093
68.173676
71.535873
76.011810
80.683800
85.000938
88.842941
91.849541
94.102180
96.582817
99.790192
103.028488
105.037964
104.650818
101.753059
96.968056
89.668549
78.178284
62.498672
45.116657
28.770109
14.610657
2.882233
-5.467276
-8.962734
-7.546203
-3.313592
1.079143
4.118786
5.570620
5.726097
4.599166
1.561964
-4.032887
-12.210576
-22.667255
-35.076538
-48.782280
-62.657619
-75.506073
-86.449165
-95.210091
-102.268326
-108.333443
-113.562019
-117.435562
-119.122818
-118.308334
-115.668228
-111.648460
-105.644028
-97.113144
-86.358017
-74.243134
-61.945267
-50.536724
-40.667835
-33.295094
-29.974590
-31.614489
-37.787186
-47.110146
-57.454601
-66.662476
-73.754662
-78.786827
-81.957855
-83.788742
-84.678391
-83.520706
-79.098526
-72.516449
-65.717018
-59.054085
-51.894703
-43.844986
-34.930111
-25.757378
-17.595921
-11.797030
-9.091369
-9.071903
-9.880748
-9.261843
-6.294556
-1.276736
5.670284
14.689608
24.927013
34.744411
43.480221
51.366074
58.301010
63.789234
67.401863
69.159607
69.464409
68.918373
68.139603
67.625259
68.220711
70.717995
75.129074
81.149498
88.047447
94.288170
98.629967
101.333176
103.700386
106.400780
108.574150
108.900764
107.102646
104.036484
100.926567
98.165009
94.276588
86.713753
73.985168
57.204823
39.675472
25.043737
15.134819
8.697894
3.495754
-1.524354
-7.171963
-14.036526
-21.730820
-29.689695
-37.636040
-45.498035
-53.454079
-61.509701
-69.272934
-76.386711
-82.536530
-87.365349
-90.995567
-94.015541
-96.757561
-98.898590
-99.678368
-98.344345
-94.580620
-88.865486
-82.103561
-75.024178
-68.277191
-62.292202
-57.004406
-52.379799
-48.833858
-46.423470
-43.927402
-40.077278
-35.116405
-30.063250
-25.748947
-22.496584
-19.965235
-17.778584
-15.787955
-13.799268
-11.525933
-8.327764
-3.214504
4.517276
14.846874
27.084309
39.844509
51.347633
60.271263
66.071899
69.143913
70.670898
71.497841
71.649773
70.804428
68.592690
64.695328
59.005642
52.018642
44.746990
38.031830
32.734570
30.019842
30.200527
32.230228
34.708767
36.581203
37.285801
36.655525
34.646126
31.177589
25.967268
18.476141
8.377128
-3.729888
-16.346397
-28.166157
-38.603954
-47.369522
-54.718502
-61.261440
-66.974747
-71.445755
-74.496803
-76.275009
-77.250534
-77.855957
-78.277382
-78.760345
-79.505142
-80.198982
-80.376228
-80.189705
-80.066101
-79.579659
-77.266777
-71.403419
-61.067600
-47.364922
-32.850449
-19.205626
-6.757736
4.112605
12.615013
18.556095
22.732183
26.317415
29.832047
32.283241
32.259136
29.799280
26.515362
24.492599
25.122959
28.790045
35.237598
43.836086
53.707657
63.727169
72.828888
80.678932
87.625252
93.857384
99.158188
103.083618
105.101784
104.939400
102.533089
97.916214
91.325577
82.878418
72.590416
60.856686
48.332096
36.058468
25.484690
17.491035
12.184038
9.274215
8.116106
8.021016
8.745701
10.473067
13.129727
16.344122
19.836857
23.201532
25.983509
28.021254
29.380735
30.130032
30.263542
30.000839
29.852020
30.096071
30.644484
31.358282
31.865562
31.154015
28.033276
22.084824
13.994571
5.339153
-2.278803
-8.586806
-14.095210
-17.864290
-18.224529
-15.601953
-12.109308
-9.297141
-7.608111
-6.596418
-5.718977
-5.581499
-7.419008
-11.676712
-17.689030
-24.266567
-30.472073
-35.789066
-40.076836
-43.457039
-45.807896
-46.210415
-42.939701
-34.846279
-22.475636
-7.539372
7.851735
21.781885
32.843464
40.347965
44.508720
45.744678
44.241196
39.964867
32.395401
21.739029
9.918178
-1.283660
-11.087453
-18.588026
-23.159765
-25.252493
-25.736919
