EVENT_NAME: EMILIA_2ND_SHOCK
EVENT_ID: IT-2012-0011
EVENT_DATE_YYYYMMDD: 20120529
EVENT_TIME_HHMMSS: 070002
EVENT_LATITUDE_DEGREE: 44.8417
EVENT_LONGITUDE_DEGREE: 11.0657
EVENT_DEPTH_KM: 8.1
HYPOCENTER_REFERENCE: INGV-CNT_Seismic_Bulletin
MAGNITUDE_W: 6.0
MAGNITUDE_W_REFERENCE: RCMT-INGV
MAGNITUDE_L: 5.8
MAGNITUDE_L_REFERENCE: INGV-CNT_Seismic_Bulletin
FOCAL_MECHANISM: TF
NETWORK: IT
STATION_CODE: SAN0
STATION_NAME: SAN FELICE SUL PANARO
STATION_LATITUDE_DEGREE: 44.838000
STATION_LONGITUDE_DEGREE: 11.143000
STATION_ELEVATION_M: 71
LOCATION: 
SENSOR_DEPTH_M: 0.0
VS30_M/S: 
SITE_CLASSIFICATION_EC8: C*
MORPHOLOGIC_CLASSIFICATION: 
EPICENTRAL_DISTANCE_KM: 6.1
EARTHQUAKE_BACKAZIMUTH_DEGREE: 273.9
DATE_TIME_FIRST_SAMPLE_YYYYMMDD_HHMMSS: 20120529_065933.000
DATE_TIME_FIRST_SAMPLE_PRECISION: seconds
SAMPLING_INTERVAL_S: 0.005000
NDATA: 34001
DURATION_S: 170.005
STREAM: HNZ
UNITS: cm/s^2
INSTRUMENT: sensor = Episensor FBA ES-T [Kinemetrics] | digitizer = Etna [Kinemetrics]
INSTRUMENT_ANALOG/DIGITAL: D
INSTRUMENTAL_FREQUENCY_HZ: 
INSTRUMENTAL_DAMPING: 
FULL_SCALE_G: 
N_BIT_DIGITAL_CONVERTER: 18
PGA_CM/S^2: -307.763700
TIME_PGA_S: 36.210000
BASELINE_CORRECTION: BASELINE REMOVED
FILTER_TYPE: BUTTERWORTH
FILTER_ORDER: 2
LOW_CUT_FREQUENCY_HZ: 0.060
HIGH_CUT_FREQUENCY_HZ: 50.000
LATE/NORMAL_TRIGGERED: NT
DATABASE_VERSION: DYNA 1.0
HEADER_FORMAT: DYNA 1.2
DATA_TYPE: ACCELERATION
PROCESSING: manual (Paolucci et al., 2011)
DATA_TIMESTAMP_YYYYMMDD_HHMMSS: 
DATA_LICENSE: CC-BY3_0-IT (http://creativecommons.org/licenses/by/3.0/deed.en)
DATA_CITATION: ESM working group (2015), European Strong-Motion database, version 0.1, Network Activity 3: Networking acceleration networks and SM data users. Project NERA (www.nera-eu.org)
DATA_CREATOR: ESM working group
ORIGINAL_DATA_MEDIATOR_CITATION: Ufficio Rischio Sismico e Vulcanico del Dipartimento della Protezione Civile (http://www.protezionecivile.gov.it/)
ORIGINAL_DATA_MEDIATOR: Rete Accelerometrica Nazionale - RAN Download (http://www.mot1.it/randownload/)
ORIGINAL_DATA_CREATOR_CITATION: Italian Strong Motion Network, Italian Civil Protection Department http://www.protezionecivile.gov.it
ORIGINAL_DATA_CREATOR: network: IT (Italian Strong Motion Network); owner: Dipartimento Della Protezione Civile
USER1: 
USER2: 
USER3: 
USER4: 
USER5: 
[...]
-0.065724
-0.061731
-0.061517
-0.065363
-0.069519
-0.071299
-0.069788
-0.067464
-0.069488
-0.075379
-0.078590
-0.079043
-0.081184
-0.081167
-0.074269
-0.066356
-0.063566
-0.063410
-0.063932
-0.066163
-0.066349
-0.063558
-0.066725
-0.077416
-0.082355
-0.075513
-0.068809
-0.072075
-0.079080
-0.078748
-0.069659
-0.061873
-0.063818
-0.069273
-0.068236
-0.062501
-0.057351
-0.053356
-0.052214
-0.055983
-0.061583
-0.064489
-0.065946
-0.068486
-0.070753
-0.072712
-0.073335
-0.070397
-0.068356
-0.070942
-0.074384
-0.075486
-0.074769
-0.074114
-0.073684
-0.070444
-0.066599
-0.069963
-0.077917
-0.078748
-0.071346
-0.066964
-0.071957
-0.078000
-0.075667
-0.071130
-0.073467
-0.078024
-0.077999
-0.075059
-0.072171
-0.069098
-0.065968
-0.064646
-0.065145
-0.064558
-0.060705
-0.057220
-0.061679
-0.071224
-0.072509
-0.064987
-0.063537
-0.073708
-0.083766
-0.081792
-0.070109
-0.061459
-0.062869
-0.067710
-0.066921
-0.061700
-0.059258
-0.062893
-0.070904
-0.077768
-0.076998
-0.070361
-0.067139
-0.070109
-0.073778
-0.075162
-0.074679
-0.071893
-0.067903
-0.066450
-0.069409
-0.072435
-0.070186
-0.067091
-0.069959
-0.074560
-0.074957
-0.072934
-0.071595
-0.072268
-0.073861
-0.071895
-0.066286
-0.065158
-0.073510
-0.083329
-0.081432
-0.068579
-0.059714
-0.061562
-0.068724
-0.076230
-0.079816
-0.078672
-0.080274
-0.087473
-0.089499
-0.080316
-0.072175
-0.075657
-0.083551
-0.084357
-0.076966
-0.068323
-0.063276
-0.061830
-0.063257
-0.065857
-0.067957
-0.070285
-0.072969
-0.074746
-0.073955
-0.070543
-0.068966
-0.071159
-0.072982
-0.073619
-0.075472
-0.078091
-0.079972
-0.079378
-0.076510
-0.074036
-0.072273
-0.070490
-0.068017
-0.064327
-0.062304
-0.065026
-0.072465
-0.081172
-0.082851
-0.072868
-0.061271
-0.060726
-0.067557
-0.071520
-0.072713
-0.074931
-0.077018
-0.076168
-0.071171
-0.065456
-0.065927
-0.071773
-0.073894
-0.070422
-0.067921
-0.069159
-0.074119
-0.082704
-0.088118
-0.083705
-0.075285
-0.071122
-0.070199
-0.069215
-0.068488
-0.068192
-0.066733
-0.065192
-0.067325
-0.072331
-0.074696
-0.073224
-0.073283
-0.076651
-0.078038
-0.074861
-0.070352
-0.068167
-0.067767
-0.064785
-0.060125
-0.060912
-0.068686
-0.077345
-0.080019
-0.075100
-0.069507
-0.071508
-0.080617
-0.087193
-0.083145
-0.074988
-0.075757
-0.083254
-0.084768
-0.078896
-0.074061
-0.074051
-0.077184
-0.080274
-0.080552
-0.079754
-0.080988
-0.081366
-0.077963
-0.074804
-0.074076
-0.071448
-0.066193
-0.063437
-0.064549
-0.067629
-0.072108
-0.074109
-0.070967
-0.068424
-0.069992
-0.071018
-0.069232
-0.068932
-0.073093
-0.079161
-0.083601
-0.085522
-0.085616
-0.085813
-0.087606
-0.087810
-0.082480
-0.073367
-0.066050
-0.065468
-0.070990
-0.076711
-0.077229
-0.071563
-0.066326
-0.069454
-0.077321
-0.077796
-0.067989
-0.059673
-0.063044
-0.074557
-0.083639
-0.083094
-0.075265
-0.071896
-0.079693
-0.088389
-0.084610
-0.071331
-0.062682
-0.064410
-0.069415
-0.069375
-0.064697
-0.065026
-0.074709
-0.083709
-0.084718
-0.082831
-0.083061
-0.083209
-0.079123
-0.073398
-0.073883
-0.080315
-0.083064
-0.077494
-0.069576
-0.066675
-0.068448
-0.070177
-0.071931
-0.074789
-0.075392
-0.074180
-0.075611
-0.080511
-0.087344
-0.090861
-0.083776
-0.070994
-0.067735
-0.078007
-0.090726
-0.094497
-0.087174
-0.076144
-0.070050
-0.069894
-0.069698
-0.066239
-0.065894
-0.072643
-0.077236
-0.072561
-0.064853
-0.062284
-0.067291
-0.074133
-0.072008
-0.062956
-0.060595
-0.067801
-0.075969
-0.078213
-0.075025
-0.073228
-0.075824
-0.076817
-0.073250
-0.069729
-0.067555
-0.066100
-0.068948
-0.075520
-0.079235
-0.078000
-0.075814
-0.075747
-0.078728
-0.084354
-0.086109
-0.077944
-0.067134
-0.064912
-0.072714
-0.082527
-0.083375
-0.075608
-0.071360
-0.075288
-0.081319
-0.082695
-0.076029
-0.067225
-0.067836
-0.075541
-0.075720
-0.066102
-0.059837
-0.064677
-0.072821
-0.073593
-0.068614
-0.067047
-0.072119
-0.078467
-0.078344
-0.072058
-0.069527
-0.074178
-0.076217
-0.069385
-0.061836
-0.063266
-0.069498
-0.070133
-0.065819
-0.063544
-0.062426
-0.053156
-0.019509
0.052100
0.145818
0.225752
0.300423
0.421501
0.586209
0.759128
1.025186
1.549756
2.356303
3.279803
4.107801
4.668602
4.855369
4.676778
4.306411
4.063637
4.208820
4.670226
5.241265
6.031603
7.133863
8.011839
8.194876
8.233619
8.632037
8.411134
6.120784
1.617760
-3.697506
-7.647816
-8.770594
-7.432903
-4.522280
-0.319585
3.389660
2.901208
-2.794089
-10.040133
-14.932337
-16.387150
-15.122638
-13.024328
-12.077770
-11.141979
-6.012321
4.406184
14.422245
17.057903
11.233515
2.057788
-3.806090
-2.995318
2.134232
6.384055
7.724537
7.994156
7.300676
2.200650
-8.299550
-18.238167
-20.177149
-14.447216
-8.232116
-4.717866
1.146998
13.085459
24.746586
25.691219
13.880243
-1.740948
-10.228514
-8.337052
-1.655371
2.232261
-0.289072
-8.480707
-17.913532
-21.593014
-16.751064
-9.642485
-7.152381
-7.387099
-3.961376
5.903550
20.041042
32.320240
35.105560
25.832792
10.916435
0.785303
1.033157
8.160316
13.713829
12.164028
3.804294
-6.676018
-11.078360
-2.046328
18.994938
40.456581
47.955719
33.728855
4.086833
-22.838762
-34.911785
-38.232632
-41.327423
-37.849842
-21.127560
-2.733811
2.327731
-2.283889
-2.052707
9.440388
27.838556
42.547199
42.504780
28.053667
11.467532
-1.967700
-20.578976
-46.582634
-65.292839
-64.186768
-51.416409
-43.267826
-38.609287
-21.566765
10.034957
37.922134
48.096874
44.033840
33.818272
21.339731
11.676996
9.229737
9.015229
4.515787
0.774989
3.707078
4.504403
-9.012122
-33.005116
-51.416950
-53.399258
-38.795895
-13.044849
15.537070
39.754814
57.114201
66.043625
65.547546
59.850330
54.547470
49.147587
39.216942
23.596119
5.741939
-9.668028
-18.569439
-18.420918
-9.888471
2.457338
10.124712
3.225279
-20.707369
-50.886902
-72.284271
-78.358475
-71.551727
-57.615444
-41.325043
-22.296265
0.998217
20.477327
22.241373
3.975614
-20.719221
-37.350605
-41.914619
-36.562019
-25.358118
-16.001974
-12.329112
-4.651375
16.270294
37.042522
34.256512
8.034012
-16.878731
-20.098082
-1.561661
25.174395
45.443577
50.939705
38.833813
9.090420
-30.904785
-62.043922
-64.312210
-36.704025
-0.891825
20.716961
24.636465
18.810944
7.967697
-6.287995
-21.988989
-35.181774
-37.517056
-23.876675
-1.093044
22.025774
43.759773
58.892838
57.032326
40.593258
25.918201
21.763798
22.230097
20.274107
15.007292
8.610658
5.660741
9.769281
15.096278
10.468036
-5.633737
-23.100676
-32.098843
-32.167213
-30.415382
-30.227104
-25.734983
-12.003002
5.953563
17.896776
17.677748
7.666495
-4.210838
-10.845106
-9.927182
-5.456490
-5.030773
-11.340831
-17.336119
-14.911375
-7.631569
-6.236235
-10.263526
-7.213719
5.265913
11.984038
3.585651
-7.579111
-5.904472
6.122214
16.952311
22.771778
21.655638
7.460677
-15.323702
-27.161501
-16.677120
4.561345
18.254604
20.453201
20.350052
25.308456
33.819328
39.240643
35.708710
23.378839
9.022484
-0.846120
-4.633822
-2.781576
2.725587
5.163517
-1.122067
-11.088342
-15.694463
-16.670206
-23.654182
-39.233540
-55.123096
-60.363811
-49.730633
-27.916910
-6.207287
7.240724
12.176266
12.171001
9.697431
6.084630
4.738665
10.130385
20.724251
27.123623
21.434036
6.216028
-8.852953
-17.397671
-19.973799
-18.362085
-11.540036
0.838445
14.735355
23.761801
24.072443
16.861414
6.521766
-2.004208
-4.330000
0.746542
9.297960
16.957426
23.553799
28.308580
25.042040
9.180607
-13.164556
-28.425579
-27.180517
-11.455300
7.516928
19.367615
23.078964
23.123011
21.019613
15.404471
5.066216
-10.382393
-26.809210
-34.293274
-27.381899
-13.611028
-4.309863
-1.728998
-2.076889
-4.715512
-10.382936
-14.839360
-11.916695
-1.640292
9.970081
18.852739
25.217966
27.399469
20.929441
6.047683
-10.681585
-22.985481
-28.167143
-25.966772
-17.779760
-6.000800
6.119303
14.935560
19.028677
20.840954
24.003496
28.933969
32.208786
30.228836
22.821371
13.954471
7.778089
2.904174
-5.720374
-18.795092
-31.071152
-36.010513
-29.253973
-12.496346
5.197404
15.136299
16.821760
15.245366
13.901963
12.559254
8.881721
1.021843
-8.764512
-13.486206
-8.451778
2.045593
9.044625
8.720270
5.318417
4.906849
7.880445
9.100351
4.870473
-3.711860
-15.007534
-28.404402
-38.965340
-38.485344
-25.502468
-5.916691
15.896924
35.624577
43.475651
33.673523
15.139797
2.041204
-3.327434
-10.694599
-25.499582
-39.530968
-39.966709
-21.368589
10.292697
37.967049
44.218468
29.848221
13.936930
11.826116
21.395262
30.159262
28.714510
17.916370
5.058281
-6.111738
-16.581276
-22.750282
-16.191454
2.325384
18.736830
22.951506
21.403742
24.737778
31.875057
32.746861
20.132618
-3.085178
-26.126789
-39.894646
-40.489925
-25.865044
0.103162
23.425671
32.392998
30.966969
29.505772
27.868176
18.932493
3.139109
-11.674075
-18.981667
-14.154892
4.550587
29.398621
44.267223
35.886917
3.647461
-41.460381
-85.877640
-117.226036
-122.149223
-92.704094
-41.410248
0.534239
14.798355
16.006659
22.491985
26.046741
14.282601
-1.333190
-2.206250
14.977002
44.336693
79.221855
107.335526
110.063393
76.373924
18.393770
-34.236652
-62.710075
-75.067612
-86.198303
-91.997391
-74.451752
-29.159222
19.966160
42.443893
37.597618
33.349888
46.030857
59.465935
49.706161
17.142418
-16.427490
-37.862400
-54.776974
-76.183472
-95.674057
-95.499557
-61.863407
-1.899257
55.638977
84.028465
79.300400
55.885555
29.766651
9.845647
2.380723
14.145469
40.130688
56.758095
47.228378
23.645882
5.014934
-7.824596
-21.213896
-33.776447
-38.648407
-32.383530
-21.948227
-16.120583
-14.452148
-15.631650
-21.025269
-25.514112
-24.841747
-24.254351
-22.084497
-3.670823
31.982950
62.091057
70.990982
68.456833
66.998116
64.976471
59.419701
52.929401
42.661804
19.990784
-15.573436
-52.680588
-78.450684
-87.666458
-84.176361
-77.322319
-76.191322
-82.522781
-85.955971
-68.356354
-21.398365
37.683022
81.151855
102.700615
116.002663
123.006439
105.318008
51.301136
-20.842148
-72.169785
-76.623436
-47.942955
-25.568468
-33.405910
-63.060986
-90.277061
-96.229095
-81.686974
-66.708221
-62.927540
-46.051842
18.220444
116.154999
177.436813
142.462708
36.729496
-46.992634
-52.909073
-19.120560
-13.157869
-44.533009
-70.146980
-56.835651
-7.371836
49.125732
75.075897
61.986736
41.846695
31.955229
13.922987
-6.369838
9.053172
59.055107
97.060867
99.907127
85.659950
73.928581
67.200104
54.114876
14.077755
-61.893761
-147.303040
-189.933960
-157.664703
-72.472748
12.220728
56.138924
50.597359
22.871204
14.009298
26.303684
26.524736
11.646506
13.422698
34.613262
40.586239
15.543575
-18.380911
-38.234722
-44.681660
-48.479088
-56.131413
-73.309372
-106.447632
-146.986115
-160.491837
-118.635475
-42.944977
13.885646
25.703341
5.991395
-17.969687
-21.716423
1.445035
31.908937
53.747242
79.020233
112.177170
122.660378
89.753685
37.007912
-7.779513
-39.320221
-43.743782
-1.943936
62.923428
101.121078
106.562874
115.578590
131.952515
114.582954
50.537872
-19.386864
-62.284439
-89.000038
-115.371925
-131.271439
-119.087761
-73.895805
-7.446629
55.810242
98.753899
123.954872
138.233154
141.335892
136.854431
140.173782
163.275009
191.447952
184.806107
113.596123
-2.078068
-98.402153
-134.900375
-137.790680
-147.339050
-160.739319
-154.773422
-115.759308
-43.996635
27.688793
48.080559
14.700876
-15.632211
-6.951240
17.485407
30.114775
32.035130
29.361753
26.098866
29.452194
36.966106
39.217731
41.633640
54.251926
61.361031
39.191288
2.809102
-6.912622
13.519323
25.827597
11.694582
-17.116959
-66.312408
-150.462128
-243.241043
-290.838013
-269.188232
-202.169617
-132.013199
-80.671310
-34.728092
31.025736
106.660858
138.933136
98.938995
31.156321
-3.348896
4.364719
27.776783
48.302124
60.240402
59.510044
44.130356
21.917456
10.215009
21.638050
50.902962
78.209656
86.497643
72.893608
38.841434
-15.857934
-75.448059
-105.073494
-82.483292
-22.141682
42.907608
98.515518
153.611328
200.666306
199.150299
128.496155
34.392895
-18.533583
-23.762573
-22.914762
-37.129372
-51.946854
-54.046051
-39.717163
-2.476924
46.849377
65.632278
21.508635
-68.375702
-155.691681
-196.721222
-172.693558
-98.073944
-9.658432
62.823498
117.815254
165.383194
187.818405
142.995850
22.521484
-123.377998
-231.391510
-269.383270
-243.500198
-190.579117
-148.417496
-114.609062
-59.410503
20.229151
90.891930
120.348709
118.812035
132.055328
168.026810
175.886185
127.971817
62.926811
31.588352
41.818085
60.860275
53.751717
19.074793
-12.779790
-17.949251
-5.547679
-1.463518
-16.915792
-44.667850
-77.353424
-108.906303
-125.662148
-117.927437
-89.931198
-44.122902
21.798740
89.890388
125.531273
119.915688
99.115356
81.158501
58.384804
35.959389
47.860188
109.890205
186.967285
226.141708
199.867691
108.303314
-32.137421
-181.111664
-281.643738
-307.763702
-288.940979
-270.617432
-266.034882
-249.008835
-186.112045
-80.246742
14.256897
36.368916
-14.467391
-87.085381
-140.048660
-154.279861
-124.752449
-66.441757
-2.986082
43.607765
56.903095
49.366817
60.383125
101.823463
136.326859
126.375763
71.844406
-0.371206
-56.999550
-77.930153
-68.802254
-48.938404
-30.395723
-12.139014
13.776393
50.166248
83.558800
91.633202
70.530090
44.282803
32.423428
27.857883
20.881330
12.465107
-1.832885
-23.468624
-31.411879
-7.272979
30.659019
50.251926
47.718555
41.764423
41.195240
37.965160
24.606821
7.044959
3.643556
30.324154
77.027618
111.962830
118.729439
105.663353
81.240211
52.855129
35.180992
29.995789
22.660383
12.058708
6.923895
-4.725158
-39.048656
-78.832939
-87.139046
-49.101372
11.588645
46.019344
20.894423
-44.044987
-104.160233
-146.876114
-182.332840
-200.538696
-184.286621
-144.169754
-99.577408
-45.666721
25.357861
97.548820
152.746170
186.083344
187.108139
142.794922
68.193375
0.761056
-39.386063
-55.417519
-53.672550
-50.565018
-72.882919
-113.719528
-118.381706
-53.244602
36.781898
77.015831
51.019672
4.514099
-22.803534
-27.887922
-19.562235
-8.206168
-11.489455
-36.244640
-62.358532
-63.057423
-36.146835
-6.617382
1.169110
-11.558786
-24.306082
-25.697418
-26.870115
-38.450241
-43.275349
-14.282647
42.313305
88.083389
100.861130
97.397453
99.712112
105.835190
105.327316
93.976768
68.201363
36.649513
28.030300
56.128834
90.960777
88.645164
43.307087
-4.948316
-13.695541
20.632111
66.145485
87.921356
73.956612
37.388496
-0.165750
-25.111044
-38.719727
-53.614780
-75.864616
-90.116631
-75.407318
-36.381149
-2.385614
11.213436
18.801855
29.682087
28.177633
2.034866
-37.460514
-68.519348
-75.643806
-56.306389
-15.764922
40.211082
97.487114
127.922745
111.212288
59.150379
3.305813
-36.103985
-55.733559
-55.917233
-41.933598
-27.637135
-19.536522
-8.036645
15.709306
48.388481
83.012947
115.352211
138.001144
136.143082
102.749466
54.869591
13.744199
-22.544367
-63.665958
-102.516869
-125.110283
-125.012726
-100.933182
-62.105537
-33.068050
-29.702890
-39.214142
-41.717636
-38.052521
-43.746738
-65.548820
-88.692177
-84.820869
-39.221622
26.772240
68.858788
59.880089
14.046889
-32.012321
-56.580795
-64.084908
-70.668701
-88.579948
-113.482910
-125.016258
-110.345207
-78.767929
-43.334961
-6.371997
26.129831
39.832558
35.006413
34.132587
53.384361
81.238419
100.674332
115.630310
130.503998
124.701859
80.524414
15.747560
-36.794670
-61.119381
-58.231850
-36.240093
-8.708815
10.164468
14.981908
6.941105
-15.983598
-52.036362
-83.557533
-90.560257
-73.539490
-52.367012
-43.473820
-42.568165
-33.667892
-9.810183
21.623154
47.790405
58.908760
51.080509
28.406239
5.228237
-4.652093
-3.137167
1.790288
12.780170
33.537521
56.984287
72.783630
73.908905
58.801022
35.839329
17.273220
4.102311
-14.442568
-40.779053
-57.031094
-44.562439
-8.639005
27.014524
42.854305
35.251095
16.915028
9.721578
24.838640
47.382420
51.369259
29.533764
-0.061934
-17.887779
-25.844151
-35.415344
-40.314228
-24.708017
8.453170
42.665657
70.057434
90.078270
99.667152
95.602264
77.393143
44.987274
0.639542
-46.296867
-78.811615
-80.924706
-56.084045
-30.798954
-26.690416
-38.629528
-50.466610
-57.150932
-60.484699
-57.685818
-49.002193
-45.402473
-52.174461
-55.920322
-42.155762
-12.229815
24.971226
58.755550
72.020760
53.816093
18.000156
-6.581973
-6.570783
2.737202
0.029183
-12.202665
-13.413922
3.836208
24.261869
30.298155
20.249311
3.967249
-13.998307
-38.185535
-65.699715
-80.798386
-75.048584
-58.306408
-42.726063
-26.341171
1.472358
41.367489
77.099037
89.089684
72.599823
43.284065
23.422054
20.341969
23.558287
22.465900
16.734221
10.339513
4.761037
-1.666109
-11.056860
-22.231340
-29.718122
-27.196840
-13.245640
3.423912
7.502059
-7.068982
-28.392248
-39.585831
-35.787128
-26.759869
-23.969131
-23.366695
-10.202913
15.122909
34.067673
36.434856
30.196033
24.626467
22.075138
21.155952
12.272130
-15.899181
-53.501858
-72.930779
-61.781467
-35.161133
-15.448616
-13.811468
-27.764435
-43.641754
-45.307800
-30.342068
-13.872053
-11.970293
-24.356367
-36.073364
-36.029114
-28.694929
-24.059086
-23.645737
-22.528181
-18.974203
-15.871777
-15.002304
-14.284564
-12.072223
-12.283981
-20.028393
-30.688210
-31.639111
-18.757833
-3.004977
2.065315
-6.695516
-22.864140
-41.138180
-61.282711
-78.859604
-83.072945
-69.724983
-45.124535
-16.681465
9.892659
29.276987
39.916443
43.494858
40.893291
34.555386
32.469528
42.379982
60.899754
74.561432
74.231583
64.697548
58.096745
58.853867
57.244095
39.169838
2.029786
-39.758907
-67.973816
-78.167496
-79.668594
-83.318352
-93.278183
-103.923996
-103.637062
-87.684319
-64.512375
-43.385921
-21.952471
5.068393
31.125992
44.487362
46.963093
51.947735
62.874825
67.171944
56.219704
40.953972
38.299030
46.305397
45.500008
25.532707
-3.019621
-25.567556
-39.804295
-50.698376
-56.736736
-48.946064
-26.177538
-5.133803
-5.599361
-28.220449
-55.965836
-74.049934
-80.073410
-78.296242
-71.424469
-57.045795
-30.554638
5.468646
37.540394
52.555061
50.098026
40.209213
32.005356
27.420523
24.387251
21.162643
16.048922
7.677492
-0.960269
-2.100653
8.123370
22.318207
27.698257
17.860582
-2.236531
-20.727552
-29.628101
-31.237244
-32.697914
-37.473621
-42.050255
-37.763561
-18.553135
9.110620
27.994337
27.353594
14.097194
2.037062
-2.605133
-0.443492
6.261284
13.462894
