EVENT_NAME: EMILIA_2ND_SHOCK
EVENT_ID: IT-2012-0011
EVENT_DATE_YYYYMMDD: 20120529
EVENT_TIME_HHMMSS: 070002
EVENT_LATITUDE_DEGREE: 44.8417
EVENT_LONGITUDE_DEGREE: 11.0657
EVENT_DEPTH_KM: 8.1
HYPOCENTER_REFERENCE: INGV-CNT_Seismic_Bulletin
MAGNITUDE_W: 6.0
MAGNITUDE_W_REFERENCE: RCMT-INGV
MAGNITUDE_L: 5.8
MAGNITUDE_L_REFERENCE: INGV-CNT_Seismic_Bulletin
FOCAL_MECHANISM: TF
NETWORK: IT
STATION_CODE: SMS0
STATION_NAME: SAN MARTINO SPINO
STATION_LATITUDE_DEGREE: 44.934000
STATION_LONGITUDE_DEGREE: 11.235000
STATION_ELEVATION_M: 55
LOCATION: 
SENSOR_DEPTH_M: 0.0
VS30_M/S: 
SITE_CLASSIFICATION_EC8: C*
MORPHOLOGIC_CLASSIFICATION: 
EPICENTRAL_DISTANCE_KM: 16.9
EARTHQUAKE_BACKAZIMUTH_DEGREE: 232.6
DATE_TIME_FIRST_SAMPLE_YYYYMMDD_HHMMSS: 20120529_065933.000
DATE_TIME_FIRST_SAMPLE_PRECISION: seconds
SAMPLING_INTERVAL_S: 0.005000
NDATA: 32001
DURATION_S: 160.005
STREAM: HNZ
UNITS: cm/s^2
INSTRUMENT: sensor = Episensor FBA ES-T [Kinemetrics] | digitizer = Etna [Kinemetrics]
INSTRUMENT_ANALOG/DIGITAL: D
INSTRUMENTAL_FREQUENCY_HZ: 
INSTRUMENTAL_DAMPING: 
FULL_SCALE_G: 
N_BIT_DIGITAL_CONVERTER: 18
PGA_CM/S^2: 104.352943
TIME_PGA_S: 40.595000
BASELINE_CORRECTION: BASELINE REMOVED
FILTER_TYPE: BUTTERWORTH
FILTER_ORDER: 2
LOW_CUT_FREQUENCY_HZ: 0.040
HIGH_CUT_FREQUENCY_HZ: 40.000
LATE/NORMAL_TRIGGERED: NT
DATABASE_VERSION: DYNA 1.0
HEADER_FORMAT: DYNA 1.2
DATA_TYPE: ACCELERATION
PROCESSING: manual (Paolucci et al., 2011)
DATA_TIMESTAMP_YYYYMMDD_HHMMSS: 
DATA_LICENSE: CC-BY3_0-IT (http://creativecommons.org/licenses/by/3.0/deed.en)
DATA_CITATION: ESM working group (2015), European Strong-Motion database, version 0.1, Network Activity 3: Networking acceleration networks and SM data users. Project NERA (www.nera-eu.org)
DATA_CREATOR: ESM working group
ORIGINAL_DATA_MEDIATOR_CITATION: Ufficio Rischio Sismico e Vulcanico del Dipartimento della Protezione Civile (http://www.protezionecivile.gov.it/)
ORIGINAL_DATA_MEDIATOR: Rete Accelerometrica Nazionale - RAN Download (http://www.mot1.it/randownload/)
ORIGINAL_DATA_CREATOR_CITATION: Italian Strong Motion Network, Italian Civil Protection Department http://www.protezionecivile.gov.it
ORIGINAL_DATA_CREATOR: network: IT (Italian Strong Motion Network); owner: Dipartimento Della Protezione Civile
USER1: 
USER2: 
USER3: 
USER4: 
USER5: 
[...]
10.711846
5.288271
-0.413231
-4.392078
-4.302548
-1.226218
1.332377
3.035176
4.775159
3.388458
-4.082938
-11.702997
-9.034430
4.830704
17.973639
16.580057
-2.159858
-25.388577
-33.034721
-16.140694
11.680143
26.353535
17.432116
-3.178978
-14.488115
-7.353161
8.098184
16.319538
11.717762
-1.160021
-14.079323
-18.435480
-9.653464
6.301291
15.397880
9.714916
-3.824107
-11.908514
-7.033770
9.447411
27.679445
33.601425
20.961401
-3.413111
-26.246880
-34.096428
-21.356306
1.756072
18.391977
21.732018
15.241842
3.650629
-8.625527
-15.613186
-13.231145
-4.255726
4.319264
8.869784
9.512556
5.382569
-2.258198
-5.789637
-1.174887
3.057906
-1.049189
-6.553477
-3.502881
3.035504
2.024021
-3.569968
-2.926421
3.739550
7.107945
3.363576
-1.035113
1.322962
7.485234
8.898425
4.963883
1.766509
0.971845
-1.273748
-7.536847
-15.041020
-15.768584
-4.513071
10.287723
14.261827
6.498990
-1.633709
-4.203261
-4.363512
-4.151286
-2.464903
-0.628360
-0.512888
0.022851
2.840194
4.199171
-1.181561
-11.515989
-16.473373
-8.805568
4.482154
10.704872
7.773274
2.957182
1.066427
1.534557
2.149846
1.426710
0.637018
3.546057
9.815456
11.992865
5.511241
-3.794811
-6.840720
-0.870436
8.082700
10.847100
5.215099
-2.297663
-5.178718
-2.914941
0.946654
2.982709
2.164395
-0.182838
-1.972993
-1.983453
-0.494797
-0.042443
-3.996835
-10.285686
-10.961738
-3.632838
4.468722
7.921383
8.377855
7.139076
2.851920
-3.017714
-5.719258
-3.243676
0.237536
-0.742397
-4.839776
-5.346827
-0.488051
3.548175
0.445146
-8.516887
-15.157453
-13.453492
-6.409025
-1.658776
-2.286461
-4.763013
-4.914049
-2.230269
2.276994
7.658559
10.931973
8.896310
3.509053
0.606076
2.527547
5.093356
3.214858
-1.644762
-3.026456
1.514025
7.441277
9.212876
5.461730
-0.865784
-5.104207
-4.806970
-1.695372
0.689527
0.571057
-0.699918
-1.321237
-1.176165
0.642580
4.474471
5.968117
1.741731
-3.518260
-3.326595
0.437936
0.181588
-6.039028
-12.237129
-13.584406
-11.583094
-9.230677
-5.765388
1.143212
9.568099
13.429625
9.638256
1.902881
-3.722270
-4.064305
0.248385
5.729685
8.044624
5.321642
-0.541375
-5.559562
-6.038378
-1.881115
1.688560
-0.755741
-7.497780
-11.024419
-7.346450
-0.028495
5.487693
6.680953
3.326360
-2.807951
-7.448856
-6.370036
0.509134
7.934336
8.940024
1.993525
-5.770618
-6.497907
-1.513722
1.602308
-0.711123
-4.746546
-4.660788
-0.057335
2.809880
0.856945
-0.159806
3.779382
6.227099
0.376176
-8.132076
-8.161162
0.299558
6.661748
5.222920
0.765926
-0.571534
1.317228
3.226983
3.402713
1.167585
-3.555136
-7.812132
-7.790584
-4.981967
-4.286805
-5.937171
-6.168499
-4.689362
-4.733480
-7.080051
-8.604874
-7.075689
-5.046411
-6.178855
-10.169353
-14.216585
-15.221162
-10.088966
0.851751
11.417496
14.663011
10.100451
3.229200
-1.450728
-3.437916
-2.211113
3.262713
8.276552
5.408639
-3.079805
-7.878755
-6.732905
-3.594446
0.515471
5.001785
5.257678
-1.624334
-11.188137
-15.051017
-9.970957
-2.089773
1.829936
2.480424
0.663488
-6.555141
-15.002625
-13.273510
0.874403
14.991819
16.360703
5.461416
-9.499379
-24.002499
-32.902260
-25.779745
-1.485126
24.035862
34.759945
27.730125
7.934456
-14.368136
-23.270784
-11.329138
8.205000
16.524750
11.532375
5.329548
5.412212
6.870841
1.616060
-9.742121
-17.947598
-17.354223
-10.646626
-0.110745
11.950529
17.841011
14.403466
9.492961
8.416022
5.371131
-3.020259
-8.350817
-3.809854
4.967558
9.032792
5.816397
-4.045287
-17.846766
-26.313454
-20.496914
-2.497224
16.822441
25.272558
15.777377
-6.918258
-26.529181
-27.098108
-7.019181
18.289436
26.845390
8.805752
-19.512699
-29.204010
-11.220230
15.024996
25.709200
15.007359
-3.925661
-12.639165
-4.847200
8.420019
12.940115
4.007293
-14.168350
-30.273561
-31.616686
-17.698097
-1.748605
4.192370
0.589447
-2.796420
1.765575
14.305850
29.110125
36.988743
30.769600
14.058469
0.512107
-0.414038
6.424887
10.510586
9.070953
7.077583
7.609854
6.188312
-1.930220
-11.651220
-13.431696
-4.230334
11.083314
21.673220
16.184731
-6.965074
-34.282684
-43.552177
-23.784449
8.755501
25.988707
18.050278
-3.302019
-21.734758
-25.945015
-13.715366
7.042431
24.801107
28.906923
14.010291
-10.138624
-23.566555
-17.880207
-4.338955
1.912729
0.034391
2.095870
14.017427
26.115116
26.879725
16.548130
1.297403
-13.879774
-20.144941
-9.486636
8.836681
15.684968
8.960089
3.238670
4.793842
5.493362
-2.957947
-19.459196
-31.261488
-20.493277
14.060229
45.220833
42.937546
7.743615
-30.296080
-41.614769
-21.049900
15.438202
46.941692
57.577309
43.421532
15.980307
-5.961107
-12.086016
-8.188106
-5.792103
-8.861944
-14.462483
-17.538597
-10.915583
9.805302
33.828651
36.480469
8.052210
-26.826584
-34.964287
-11.076354
19.663963
27.555119
5.662370
-24.523817
-34.566200
-16.011675
14.936264
36.773941
42.819965
41.244095
39.078995
33.972210
21.699713
6.225122
-1.283104
2.240705
5.569486
0.888753
-8.195605
-18.583931
-26.291836
-21.846474
-5.777168
5.119039
-0.564199
-10.892316
-6.560598
8.927162
13.889627
1.928757
-11.683325
-13.287408
-2.130983
15.322036
28.075571
22.003464
-4.247046
-26.166428
-19.900438
0.945666
4.147826
-11.833566
-17.924889
0.570260
23.235136
22.223623
-1.756764
-20.566580
-13.231401
10.041577
22.066736
12.478747
-1.759564
-2.928950
4.076193
4.881183
-0.342605
1.573541
16.734934
35.501648
44.466526
40.395924
29.152744
18.244368
12.190690
10.309469
11.066070
13.399806
10.621102
-5.285463
-29.484531
-43.385750
-36.035130
-18.609640
-7.889084
-8.276474
-16.265005
-27.392633
-33.490433
-23.539642
1.238114
19.367414
15.752014
4.550327
2.128628
0.154132
-13.380831
-31.390169
-39.327267
-32.139385
-13.776864
8.221787
21.606981
12.718785
-16.464695
-40.480236
-34.144279
-2.174054
24.292212
21.545120
-4.069696
-29.712700
-38.047348
-25.730562
-5.518770
5.239179
2.040479
-6.600972
-6.443921
13.290435
42.636868
58.116089
57.527008
55.491192
48.535145
23.875122
-14.268978
-49.927410
-69.565392
-68.342789
-50.804924
-31.323931
-28.085438
-41.453979
-51.874748
-46.682171
-27.759939
0.810938
30.630106
47.510246
47.266563
40.211330
35.697182
32.957226
27.328260
16.926880
4.594506
-2.788474
-3.994130
-5.685516
-8.798442
-9.377515
-9.456527
-10.775395
-9.039122
-4.906234
-2.817516
5.862901
30.305456
53.269108
52.226273
34.637375
18.667986
1.896864
-23.976009
-48.478149
-50.561054
-24.503145
11.499416
34.443802
36.886967
24.243559
3.558784
-15.154875
-17.814184
-1.322496
16.645683
16.122849
-3.552593
-28.054316
-43.321056
-44.328426
-34.798893
-18.748571
1.613810
18.329372
19.760853
4.309599
-15.518848
-23.653116
-13.373180
5.706318
16.915211
15.511197
11.566483
13.153173
14.568551
9.599387
7.269513
17.472111
29.409876
23.204077
-0.535915
-21.225639
-27.466265
-26.375292
-23.976751
-18.562353
-16.354849
-25.715652
-32.971924
-16.269463
16.907940
37.258514
35.154758
23.560848
5.413583
-26.995646
-63.094913
-78.089088
-67.078308
-45.705799
-16.970165
26.773149
69.639900
81.106026
56.428982
19.839273
-3.980499
-9.942768
-11.520438
-21.947969
-38.341118
-50.089008
-55.409130
-58.259968
-54.566372
-35.268288
-0.894208
37.577057
64.073158
62.743153
33.209023
-3.524074
-22.322821
-16.506384
-2.809758
-0.760702
-8.672269
-9.861024
1.033889
15.498113
26.121284
31.823555
36.417690
40.800396
38.941841
28.471689
17.457155
12.047176
7.758740
1.955587
-0.334626
5.208256
13.637063
9.379314
-13.099491
-31.182695
-18.202715
16.412853
37.474728
34.083183
24.586063
18.120947
7.288594
-5.580163
-5.510784
8.879040
18.650454
6.354466
-24.141365
-47.468884
-43.362808
-25.066126
-18.091150
-16.805536
-0.384037
23.495556
32.846848
30.789640
34.189240
39.089733
28.202366
-1.018449
-34.721741
-55.212578
-51.915920
-32.921131
-20.159121
-25.548244
-38.392223
-38.824722
-21.198549
-0.362180
9.114995
8.821867
2.987088
-9.672910
-21.357615
-17.130466
3.202872
23.472115
31.794573
29.131008
20.845018
10.377573
-1.895279
-11.686055
-8.040351
10.459267
29.397982
34.871929
24.178802
0.409467
-27.788042
-38.255630
-12.476679
35.454010
67.122925
54.770649
4.444400
-50.360432
-75.453819
-55.106026
1.585860
60.730152
80.986633
48.912613
-3.250738
-32.790554
-35.381065
-31.993221
-24.606512
-6.105058
9.679328
5.117298
-12.244079
-16.433201
6.056364
38.420010
52.020336
41.626904
30.578197
34.313187
38.893040
28.930576
8.913587
-13.630407
-33.746307
-36.965942
-17.275579
0.561910
-8.515412
-31.755163
-41.970539
-37.726677
-28.805082
-12.378961
3.783459
-1.538712
-16.778107
-0.248937
53.689137
97.478111
90.663155
44.392963
-1.153562
-23.748634
-30.140699
-30.735069
-27.346027
-20.502972
-13.364551
-10.730119
-12.005521
-9.605459
1.955766
22.319126
44.421471
58.957718
64.395889
60.681637
44.236095
23.577332
17.184010
28.251072
41.835125
44.339066
34.108913
17.333775
-0.841699
-15.382713
-20.162966
-20.560314
-31.009556
-55.478706
-83.878021
-99.702415
-87.379868
-43.740185
15.740051
64.215286
75.991112
44.134354
-7.300525
-40.834717
-36.011597
-2.873833
30.574127
44.848598
35.648960
6.435028
-29.846802
-54.390984
-56.283054
-37.716125
-7.242536
24.388905
45.396248
48.357582
33.564873
8.595410
-15.198334
-29.613642
-32.405365
-27.382315
-26.370518
-38.660984
-54.631580
-56.399227
-39.838890
-12.497004
18.237875
43.330162
47.440884
20.713152
-23.370258
-56.281334
-66.575867
-64.452843
-53.879013
-31.087389
-4.601010
9.434896
7.572944
5.851257
21.022406
47.967873
65.964081
63.678612
50.472080
39.152630
25.624346
-1.311894
-40.782043
-80.245522
-104.231659
-98.768791
-56.770161
6.331424
47.800396
36.463863
-8.784347
-42.370178
-42.473667
-25.672331
-16.844208
-16.399675
-8.680704
10.367500
28.160379
29.682570
13.897150
-1.118838
2.444261
19.086100
32.108429
39.362919
48.824768
61.818913
69.144562
57.190331
25.440235
-4.079974
-8.181536
12.734452
36.013268
37.584969
14.873351
-13.449507
-30.005043
-27.986122
-4.840609
33.927998
66.502968
69.027405
41.307308
7.089554
-9.138776
-3.541185
8.343455
13.709367
13.523327
14.552856
17.052658
10.052358
-14.558081
-43.434769
-47.564472
-17.300951
16.395458
16.627090
-13.989350
-40.693493
-39.405502
-19.155251
-3.177192
-6.418739
-32.377953
-63.573803
-63.817265
-19.031706
37.018089
58.451599
37.446999
1.830968
-22.142492
-25.584204
-13.504329
-2.737343
-11.362159
-38.874729
-64.775291
-72.259521
-63.709770
-51.600777
-41.884247
-31.172979
-18.796288
-6.966008
8.869762
31.193645
49.597225
50.280632
32.493603
13.395786
11.752766
26.676353
38.990005
33.702625
17.055889
8.795255
18.443569
34.051094
38.635490
29.970881
17.639162
8.740776
1.504578
-7.233517
-15.600312
-25.316221
-41.702507
-58.570091
-60.028614
-39.372627
-5.323481
30.091505
58.814205
72.212372
66.201736
51.034470
40.854900
36.705795
28.494720
8.075125
-22.694704
-52.461697
-67.561195
-60.704231
-36.191151
-8.002896
7.948981
4.452555
-9.458475
-17.346357
-12.626020
-2.897586
-1.474871
-14.547547
-32.199806
-34.664906
-13.007912
19.787016
43.131962
48.870441
45.838299
45.483997
47.054218
43.437340
30.866966
10.525127
-9.396303
-19.396358
-20.023518
-18.511549
-17.001965
-15.977168
-19.486582
-26.095991
-29.424124
-29.958727
-32.819546
-38.143398
-42.125702
-40.745316
-27.853151
-0.385241
29.179808
38.697803
20.501280
-10.140107
-32.069996
-36.220009
-26.283606
-7.980737
19.286695
56.990829
91.509674
96.011467
56.512959
-10.345437
-67.359062
-83.478874
-51.271942
10.944280
63.043476
68.730324
31.536615
-12.112617
-35.608479
-41.940536
-49.021561
-66.971298
-85.262955
-82.032196
-48.314304
0.380984
35.817905
40.988216
21.213570
-7.952982
-31.395035
-38.553337
-28.187952
-1.397415
40.963757
82.876640
95.595978
69.241920
27.019608
-1.718484
-9.624657
-7.248265
-5.070063
-4.101149
2.940366
19.415155
34.890938
37.480438
30.023960
24.389683
28.582176
39.438904
41.796490
25.013662
-1.358191
-21.082914
-30.519165
-33.332027
-29.572779
-20.467646
-10.936862
2.552856
29.012039
56.299408
53.044235
10.791639
-39.634682
-63.309250
-54.235893
-29.516577
-8.905771
-4.374498
-18.123039
-44.422974
-71.780403
-84.835045
-70.825493
-31.634096
14.870920
49.064327
60.013824
51.797844
43.610180
51.460651
70.231430
79.603607
67.689728
39.726482
3.306441
-32.239586
-42.960205
-8.401675
48.940346
72.203293
36.084621
-26.386505
-72.209229
-88.946327
-85.736221
-68.780655
-39.681629
-10.678024
1.195229
-8.768310
-29.545721
-41.041866
-28.993437
3.594749
38.708111
55.112141
44.868149
21.781717
6.997563
3.810968
-1.004481
-11.278954
-16.777159
-12.780239
-6.788770
-7.783005
-18.912474
-38.633087
-58.982590
-65.700783
-54.899590
-40.901165
-36.812687
-42.823700
-53.626755
-62.363438
-61.444321
-48.191948
-27.084309
-3.018551
25.243031
60.183117
92.670013
104.352943
89.814049
63.543995
41.308201
28.936834
28.716076
38.578220
44.115177
28.990522
-4.983904
-36.843250
-46.004684
-29.985821
-1.834691
21.867165
27.544605
14.092614
-0.900857
2.601224
25.454826
50.469788
60.142803
50.088272
27.909021
1.783719
-24.515203
-45.465427
-53.038425
-44.725761
-29.612740
-24.353533
-35.798641
-50.755459
-49.931183
-29.926535
-8.019076
-2.273093
-11.590618
-19.943520
-17.436693
-9.627082
-2.855933
2.807438
5.925225
5.455517
2.343970
1.713115
15.231445
42.638359
63.349567
60.641354
39.306038
18.990711
15.210209
23.065626
23.959282
8.616479
-14.133085
-31.941120
-41.281425
-41.150814
-29.604912
-10.136128
9.208688
21.828354
24.425617
17.041451
3.877702
-7.016963
-7.965530
1.238985
12.651693
19.734180
23.906984
28.545908
31.848339
31.221313
29.200397
29.726398
32.749084
33.356396
25.002596
6.773016
-12.436737
-19.840816
-11.097228
3.240265
7.887632
-1.278806
-16.927122
-30.763430
-37.723938
-35.791756
-28.076641
-21.813097
-20.730658
-21.527275
-20.048615
-14.657217
-3.620084
12.627511
27.832682
35.094379
31.914972
17.046412
-8.046320
-33.489269
-47.856052
-50.447411
-50.120258
-52.898445
-53.699982
-42.123692
-16.627674
11.160187
27.760853
28.293863
13.934636
-11.795714
-39.071140
-55.221897
-54.880032
-39.356682
-14.233307
7.982715
13.266827
-1.002206
-18.117060
-15.842682
4.877711
20.339319
15.207461
-2.162132
-12.602500
-5.897418
11.995966
27.493113
32.526752
30.252928
28.639908
29.772303
26.462898
10.204407
-18.603701
-47.432842
-58.946312
-48.084892
-25.879688
-5.985954
0.984470
-10.020700
-32.297916
-49.876015
-49.364353
-31.149479
-7.732791
8.338796
12.931107
12.285915
16.946175
29.151943
40.529900
42.474850
32.513508
15.384007
3.812134
10.180969
29.896616
43.744362
43.365444
37.975700
35.520084
36.044647
38.923969
42.943401
43.461174
35.628849
19.227304
-1.269361
-21.075972
-36.533337
-43.376186
-38.713680
-22.737595
1.832732
26.888252
39.829700
34.739407
19.444332
6.948253
1.986857
-1.308833
-7.689246
-11.627337
-6.488265
5.300185
19.669275
36.329777
51.352825
56.832195
48.985470
30.054356
6.402655
-13.388637
-23.433813
-23.600254
-18.506901
-13.228745
-7.644740
0.116777
7.299747
8.645461
1.044752
-12.883934
-26.713968
-36.521286
-40.923611
-38.112904
-28.204922
-17.884977
-17.150927
-27.909687
-39.943138
-40.722507
-26.413185
-3.657488
16.466457
27.487329
31.477444
34.150425
38.105961
39.965088
33.568806
16.813078
-5.365176
-24.404486
-34.070732
-33.978592
-27.742645
-19.456541
-13.411810
-12.288434
-14.243505
-15.379209
-13.161174
-7.903588
-3.128313
-3.455088
-10.216328
-17.903572
-18.031523
-6.782664
10.648703
21.353138
16.975056
4.583485
-1.320555
5.655280
19.008432
27.246506
24.247160
12.335906
-1.110595
-8.931993
-8.344936
-1.717547
6.197002
12.428537
16.890779
18.299397
12.770455
0.185585
-13.702567
-23.708860
-27.570118
-25.389961
-21.865736
-22.339548
-25.669107
-26.413387
-21.217726
-10.628216
1.370782
8.266433
5.849073
-2.108441
-6.138371
-0.973273
6.865851
5.087605
-9.260602
-26.028082
-33.072208
-27.058249
-13.428945
1.867373
15.360155
22.136314
18.098944
6.307455
-4.843753
-10.412081
-12.689759
-14.112823
-11.760855
-3.952045
5.282928
12.127790
14.881016
11.384709
2.343856
-6.249413
-7.846075
-1.735537
5.937209
8.706941
5.927986
2.457615
3.908183
10.584880
16.585043
16.441526
11.333977
7.981669
10.932917
16.417587
16.039164
5.570890
-10.277614
-21.590721
-23.965977
-20.031986
-10.563869
4.247623
17.694790
19.873478
8.670319
-5.778130
-13.219988
-14.877500
-15.327056
-13.208887
-6.398629
2.522781
7.964234
6.938024
2.603940
-1.724673
-8.273658
-19.400646
-31.266712
-36.297913
-29.434610
-11.409851
11.715456
31.364958
41.054825
40.220825
32.720860
22.990358
14.816193
10.460746
9.897850
11.241482
11.469429
9.106348
6.143509
5.400418
7.780325
12.030478
14.719889
12.286041
6.323981
3.210402
5.435974
8.899143
10.211879
10.717480
11.544801
9.739834
2.953500
-4.851317
-6.053177
1.586688
11.850612
17.123241
14.490612
6.479332
-1.609468
-6.964601
-10.576401
-12.139857
-8.434684
-0.502178
3.704217
-1.756614
-13.342941
-20.500200
-16.944906
-8.823152
-6.105866
-10.324757
-16.728539
-22.411156
-26.474821
-27.350029
-24.705542
-19.993044
-14.951815
-11.644843
-11.371506
-13.947661
-18.791613
-24.613659
-28.120554
-25.217184
-14.964279
-2.667381
2.536025
-3.440991
-13.863388
-18.909876
-17.760708
-17.170443
-20.192781
-23.391560
-23.134407
-17.762144
-6.224134
8.950567
19.928366
20.354244
12.786840
5.758677
3.807697
4.660783
6.363151
10.712936
18.854248
28.066460
33.006565
30.233999
22.357130
16.097235
15.424273
17.507818
17.427689
13.771866
5.996089
-5.911595
-16.571383
-19.541237
-15.651370
-10.407045
-6.662795
-3.424117
0.758943
5.663220
10.326132
13.430561
12.126070
4.652807
-4.311231
-7.431065
-4.066780
0.990328
4.551554
6.810643
8.662347
9.864614
10.471441
10.818286
11.571999
14.484622
19.893753
25.188351
26.516644
21.980753
13.347358
3.885880
-4.100200
-9.683534
-13.714569
-17.985729
-21.884050
-21.230961
-12.613495
-0.429288
5.337456
2.106018
-2.301439
-0.229306
8.475069
18.395573
24.263945
24.051548
19.837479
16.366331
14.865008
11.980665
6.603933
0.399135
-5.048901
-7.998202
-8.820764
-9.101053
-8.163604
-5.457731
-2.427821
-0.392513
0.010748
-0.989610
-1.355768
-0.124995
0.153029
-2.401359
-5.699855
-7.617015
-10.336088
-17.481848
-27.427370
-32.665440
-27.743826
