EVENT_NAME: EMILIA_2ND_SHOCK
EVENT_ID: IT-2012-0011
EVENT_DATE_YYYYMMDD: 20120529
EVENT_TIME_HHMMSS: 070002
EVENT_LATITUDE_DEGREE: 44.8417
EVENT_LONGITUDE_DEGREE: 11.0657
EVENT_DEPTH_KM: 8.1
HYPOCENTER_REFERENCE: INGV-CNT_Seismic_Bulletin
MAGNITUDE_W: 6.0
MAGNITUDE_W_REFERENCE: RCMT-INGV
MAGNITUDE_L: 5.8
MAGNITUDE_L_REFERENCE: INGV-CNT_Seismic_Bulletin
FOCAL_MECHANISM: TF
NETWORK: IT
STATION_CODE: SAN0
STATION_NAME: SAN FELICE SUL PANARO
STATION_LATITUDE_DEGREE: 44.838000
STATION_LONGITUDE_DEGREE: 11.143000
STATION_ELEVATION_M: 71
LOCATION: 
SENSOR_DEPTH_M: 0.0
VS30_M/S: 
SITE_CLASSIFICATION_EC8: C*
MORPHOLOGIC_CLASSIFICATION: 
EPICENTRAL_DISTANCE_KM: 6.1
EARTHQUAKE_BACKAZIMUTH_DEGREE: 273.9
DATE_TIME_FIRST_SAMPLE_YYYYMMDD_HHMMSS: 20120529_065933.000
DATE_TIME_FIRST_SAMPLE_PRECISION: seconds
SAMPLING_INTERVAL_S: 0.005000
NDATA: 34001
DURATION_S: 170.005
STREAM: HNN
UNITS: cm
INSTRUMENT: sensor = Episensor FBA ES-T [Kinemetrics] | digitizer = Etna [Kinemetrics]
INSTRUMENT_ANALOG/DIGITAL: D
INSTRUMENTAL_FREQUENCY_HZ: 
INSTRUMENTAL_DAMPING: 
FULL_SCALE_G: 
N_BIT_DIGITAL_CONVERTER: 18
PGD_CM: 10.729624
TIME_PGD_S: 37.845000
BASELINE_CORRECTION: BASELINE REMOVED
FILTER_TYPE: BUTTERWORTH
FILTER_ORDER: 2
LOW_CUT_FREQUENCY_HZ: 0.060
HIGH_CUT_FREQUENCY_HZ: 50.000
LATE/NORMAL_TRIGGERED: NT
DATABASE_VERSION: DYNA 1.0
HEADER_FORMAT: DYNA 1.2
DATA_TYPE: DISPLACEMENT
PROCESSING: manual (Paolucci et al., 2011)
DATA_TIMESTAMP_YYYYMMDD_HHMMSS: 
DATA_LICENSE: CC-BY3_0-IT (http://creativecommons.org/licenses/by/3.0/deed.en)
DATA_CITATION: ESM working group (2015), European Strong-Motion database, version 0.1, Network Activity 3: Networking acceleration networks and SM data users. Project NERA (www.nera-eu.org)
DATA_CREATOR: ESM working group
ORIGINAL_DATA_MEDIATOR_CITATION: Ufficio Rischio Sismico e Vulcanico del Dipartimento della Protezione Civile (http://www.protezionecivile.gov.it/)
ORIGINAL_DATA_MEDIATOR: Rete Accelerometrica Nazionale - RAN Download (http://www.mot1.it/randownload/)
ORIGINAL_DATA_CREATOR_CITATION: Italian Strong Motion Network, Italian Civil Protection Department http://www.protezionecivile.gov.it
ORIGINAL_DATA_CREATOR: network: IT (Italian Strong Motion Network); owner: Dipartimento Della Protezione Civile
USER1: 
USER2: 
USER3: 
USER4: 
USER5: 
[...]
1.983609e-01
1.974548e-01
1.963818e-01
1.952143e-01
1.939777e-01
1.926974e-01
1.914493e-01
1.903476e-01
1.894795e-01
1.888668e-01
1.884962e-01
1.883497e-01
1.883895e-01
1.885425e-01
1.887144e-01
1.888154e-01
1.887714e-01
1.885278e-01
1.880620e-01
1.873977e-01
1.865907e-01
1.856992e-01
1.847681e-01
1.838235e-01
1.828600e-01
1.818407e-01
1.807288e-01
1.795291e-01
1.782824e-01
1.770241e-01
1.757733e-01
1.745547e-01
1.733926e-01
1.722854e-01
1.712231e-01
1.702274e-01
1.693352e-01
1.685448e-01
1.678173e-01
1.671360e-01
1.665353e-01
1.660653e-01
1.657469e-01
1.655671e-01
1.655003e-01
1.655235e-01
1.656313e-01
1.658488e-01
1.662095e-01
1.667082e-01
1.672922e-01
1.678953e-01
1.684670e-01
1.689770e-01
1.694078e-01
1.697315e-01
1.698830e-01
1.697633e-01
1.692813e-01
1.683957e-01
1.671208e-01
1.655037e-01
1.636080e-01
1.615188e-01
1.593495e-01
1.572243e-01
1.552300e-01
1.533652e-01
1.515400e-01
1.496335e-01
1.475679e-01
1.453454e-01
1.430426e-01
1.407742e-01
1.386421e-01
1.366919e-01
1.348994e-01
1.331942e-01
1.315125e-01
1.298377e-01
1.281893e-01
1.265907e-01
1.250733e-01
1.236991e-01
1.225417e-01
1.216322e-01
1.209263e-01
1.203155e-01
1.196632e-01
1.188435e-01
1.177728e-01
1.164189e-01
1.147828e-01
1.128810e-01
1.107453e-01
1.084275e-01
1.059890e-01
1.034678e-01
1.008507e-01
9.808787e-02
9.514663e-02
9.205262e-02
8.888568e-02
8.573514e-02
8.264201e-02
7.957246e-02
7.645545e-02
7.325774e-02
7.002390e-02
6.684967e-02
6.383586e-02
6.106791e-02
5.859985e-02
5.641839e-02
5.442193e-02
5.245918e-02
5.041275e-02
4.826096e-02
4.607420e-02
4.396555e-02
4.204085e-02
4.037362e-02
3.899720e-02
3.789085e-02
3.695974e-02
3.604285e-02
3.497867e-02
3.369729e-02
3.225261e-02
3.076013e-02
2.931119e-02
2.794507e-02
2.667272e-02
2.549588e-02
2.440349e-02
2.337995e-02
2.243607e-02
2.160859e-02
2.089727e-02
2.020948e-02
1.940097e-02
1.838593e-02
1.719123e-02
1.590019e-02
1.456784e-02
1.319359e-02
1.175128e-02
1.023492e-02
8.684329e-03
7.179257e-03
5.814718e-03
4.665845e-03
3.751392e-03
3.021368e-03
2.379934e-03
1.726453e-03
9.940607e-04
1.691066e-04
-7.180099e-04
-1.617873e-03
-2.478056e-03
-3.243792e-03
-3.860796e-03
-4.292324e-03
-4.536109e-03
-4.624370e-03
-4.616642e-03
-4.596110e-03
-4.654417e-03
-4.862021e-03
-5.251565e-03
-5.825556e-03
-6.566235e-03
-7.423255e-03
-8.286173e-03
-8.992713e-03
-9.400352e-03
-9.452190e-03
-9.168200e-03
-8.611121e-03
-7.889680e-03
-7.154881e-03
-6.539231e-03
-6.090016e-03
-5.767947e-03
-5.497908e-03
-5.209982e-03
-4.853310e-03
-4.399140e-03
-3.821600e-03
-3.061133e-03
-2.030217e-03
-6.790501e-04
9.508253e-04
2.749391e-03
4.612542e-03
6.486208e-03
8.342349e-03
1.013738e-02
1.181362e-02
1.333562e-02
1.471124e-02
1.597831e-02
1.719356e-02
1.845176e-02
1.989880e-02
2.169225e-02
2.392468e-02
2.656311e-02
2.944635e-02
3.235904e-02
3.514078e-02
3.773181e-02
4.012508e-02
4.230572e-02
4.424200e-02
4.591543e-02
4.735190e-02
4.862081e-02
4.979985e-02
5.094380e-02
5.208440e-02
5.324901e-02
5.447490e-02
5.580799e-02
5.728686e-02
5.891964e-02
6.066856e-02
6.246266e-02
6.424043e-02
6.598518e-02
6.771930e-02
6.947679e-02
7.128728e-02
7.316464e-02
7.509276e-02
7.705031e-02
7.908822e-02
8.137203e-02
8.410591e-02
8.740002e-02
9.122308e-02
9.547237e-02
1.000530e-01
1.048922e-01
1.099264e-01
1.151045e-01
1.203958e-01
1.257872e-01
1.312854e-01
1.369232e-01
1.427384e-01
1.487236e-01
1.548123e-01
1.609400e-01
1.671178e-01
1.734407e-01
1.800345e-01
1.869985e-01
1.943774e-01
2.021727e-01
2.103970e-01
2.191185e-01
2.284350e-01
2.384280e-01
2.491693e-01
2.607355e-01
2.731691e-01
2.864476e-01
3.005208e-01
3.153677e-01
3.309994e-01
3.474245e-01
3.646464e-01
3.826943e-01
4.016329e-01
4.215439e-01
4.425200e-01
4.646777e-01
4.881288e-01
5.128914e-01
5.388605e-01
5.659136e-01
5.940022e-01
6.231076e-01
6.531616e-01
6.840085e-01
7.153709e-01
7.468443e-01
7.779656e-01
8.082719e-01
8.372969e-01
8.645927e-01
8.898091e-01
9.127391e-01
9.332941e-01
9.514797e-01
9.674209e-01
9.813621e-01
9.935673e-01
1.004206e+00
1.013347e+00
1.021014e+00
1.027220e+00
1.032027e+00
1.035625e+00
1.038338e+00
1.040511e+00
1.042412e+00
1.044225e+00
1.046074e+00
1.048020e+00
1.050054e+00
1.052119e+00
1.054146e+00
1.056068e+00
1.057846e+00
1.059516e+00
1.061209e+00
1.063098e+00
1.065320e+00
1.067949e+00
1.071030e+00
1.074608e+00
1.078718e+00
1.083426e+00
1.088889e+00
1.095378e+00
1.103237e+00
1.112815e+00
1.124429e+00
1.138313e+00
1.154404e+00
1.172087e+00
1.190211e+00
1.207510e+00
1.223026e+00
1.236180e+00
1.246643e+00
1.254239e+00
1.258895e+00
1.260568e+00
1.259231e+00
1.254899e+00
1.247616e+00
1.237413e+00
1.224344e+00
1.208517e+00
1.189993e+00
1.168652e+00
1.144176e+00
1.116254e+00
1.084927e+00
1.050813e+00
1.014929e+00
9.782045e-01
9.412059e-01
9.042545e-01
8.676676e-01
8.318701e-01
7.973139e-01
7.642540e-01
7.326625e-01
7.024312e-01
6.735440e-01
6.459910e-01
6.196601e-01
5.943774e-01
5.699494e-01
5.461330e-01
5.226113e-01
4.990026e-01
4.749249e-01
4.501364e-01
4.246516e-01
3.986932e-01
3.725354e-01
3.464204e-01
3.206010e-01
2.954142e-01
2.712850e-01
2.486435e-01
2.278021e-01
2.088737e-01
1.918034e-01
1.765045e-01
1.629709e-01
1.512748e-01
1.415166e-01
1.337741e-01
1.279840e-01
1.237999e-01
1.206034e-01
1.176875e-01
1.144369e-01
1.103870e-01
1.052134e-01
9.871758e-02
9.076612e-02
8.114890e-02
6.951242e-02
5.550162e-02
3.892453e-02
1.971917e-02
-2.163008e-03
-2.676414e-02
-5.408113e-02
-8.410171e-02
-1.168381e-01
-1.522797e-01
-1.903536e-01
-2.309473e-01
-2.739420e-01
-3.192663e-01
-3.669549e-01
-4.171130e-01
-4.698140e-01
-5.250675e-01
-5.828070e-01
-6.427742e-01
-7.044479e-01
-7.672097e-01
-8.306025e-01
-8.944056e-01
-9.585281e-01
-1.022936e+00
-1.087666e+00
-1.152795e+00
-1.218331e+00
-1.284183e+00
-1.350225e+00
-1.416331e+00
-1.482330e+00
-1.547996e+00
-1.613076e+00
-1.677281e+00
-1.740242e+00
-1.801552e+00
-1.860860e+00
-1.917903e+00
-1.972491e+00
-2.024480e+00
-2.073736e+00
-2.120108e+00
-2.163458e+00
-2.203732e+00
-2.241020e+00
-2.275555e+00
-2.307653e+00
-2.337636e+00
-2.365794e+00
-2.392365e+00
-2.417459e+00
-2.441043e+00
-2.463039e+00
-2.483380e+00
-2.502034e+00
-2.519096e+00
-2.534793e+00
-2.549389e+00
-2.563119e+00
-2.576175e+00
-2.588673e+00
-2.600666e+00
-2.612202e+00
-2.623361e+00
-2.634253e+00
-2.645002e+00
-2.655713e+00
-2.666394e+00
-2.676896e+00
-2.687003e+00
-2.696653e+00
-2.705985e+00
-2.715195e+00
-2.724447e+00
-2.733906e+00
-2.743714e+00
-2.753949e+00
-2.764684e+00
-2.776077e+00
-2.788362e+00
-2.801759e+00
-2.816361e+00
-2.832092e+00
-2.848769e+00
-2.866208e+00
-2.884281e+00
-2.902911e+00
-2.922082e+00
-2.941826e+00
-2.962204e+00
-2.983260e+00
-3.005016e+00
-3.027468e+00
-3.050577e+00
-3.074274e+00
-3.098518e+00
-3.123311e+00
-3.148655e+00
-3.174501e+00
-3.200740e+00
-3.227223e+00
-3.253797e+00
-3.280356e+00
-3.306848e+00
-3.333258e+00
-3.359642e+00
-3.386169e+00
-3.413082e+00
-3.440577e+00
-3.468722e+00
-3.497481e+00
-3.526801e+00
-3.556662e+00
-3.587085e+00
-3.618130e+00
-3.649889e+00
-3.682433e+00
-3.715762e+00
-3.749790e+00
-3.784360e+00
-3.819211e+00
-3.853993e+00
-3.888410e+00
-3.922365e+00
-3.955965e+00
-3.989374e+00
-4.022637e+00
-4.055712e+00
-4.088621e+00
-4.121524e+00
-4.154657e+00
-4.188261e+00
-4.222510e+00
-4.257477e+00
-4.293190e+00
-4.329729e+00
-4.367253e+00
-4.405936e+00
-4.445917e+00
-4.487286e+00
-4.530075e+00
-4.574241e+00
-4.619669e+00
-4.666149e+00
-4.713306e+00
-4.760665e+00
-4.807830e+00
-4.854588e+00
-4.900897e+00
-4.946797e+00
-4.992360e+00
-5.037639e+00
-5.082596e+00
-5.127098e+00
-5.171036e+00
-5.214416e+00
-5.257301e+00
-5.299732e+00
-5.341760e+00
-5.383509e+00
-5.425144e+00
-5.466833e+00
-5.508770e+00
-5.551193e+00
-5.594329e+00
-5.638319e+00
-5.683166e+00
-5.728757e+00
-5.774930e+00
-5.821517e+00
-5.868323e+00
-5.915095e+00
-5.961551e+00
-6.007452e+00
-6.052604e+00
-6.096799e+00
-6.139832e+00
-6.181568e+00
-6.221995e+00
-6.261193e+00
-6.299250e+00
-6.336208e+00
-6.372101e+00
-6.406962e+00
-6.440758e+00
-6.473347e+00
-6.504576e+00
-6.534424e+00
-6.563036e+00
-6.590638e+00
-6.617442e+00
-6.643573e+00
-6.669010e+00
-6.693607e+00
-6.717185e+00
-6.739631e+00
-6.760948e+00
-6.781241e+00
-6.800630e+00
-6.819188e+00
-6.836897e+00
-6.853609e+00
-6.869142e+00
-6.883517e+00
-6.897050e+00
-6.910132e+00
-6.923020e+00
-6.935883e+00
-6.948901e+00
-6.962280e+00
-6.976230e+00
-6.990980e+00
-7.006750e+00
-7.023634e+00
-7.041540e+00
-7.060369e+00
-7.080228e+00
-7.101424e+00
-7.124318e+00
-7.149196e+00
-7.176229e+00
-7.205450e+00
-7.236787e+00
-7.270179e+00
-7.305654e+00
-7.343240e+00
-7.382817e+00
-7.424076e+00
-7.466619e+00
-7.510080e+00
-7.554193e+00
-7.598742e+00
-7.643459e+00
-7.688006e+00
-7.732104e+00
-7.775566e+00
-7.818177e+00
-7.859633e+00
-7.899629e+00
-7.937936e+00
-7.974389e+00
-8.008843e+00
-8.041139e+00
-8.071109e+00
-8.098646e+00
-8.123781e+00
-8.146633e+00
-8.167266e+00
-8.185595e+00
-8.201412e+00
-8.214475e+00
-8.224608e+00
-8.231740e+00
-8.235874e+00
-8.237014e+00
-8.235108e+00
-8.230039e+00
-8.221678e+00
-8.209934e+00
-8.194779e+00
-8.176229e+00
-8.154323e+00
-8.129121e+00
-8.100648e+00
-8.068818e+00
-8.033443e+00
-7.994381e+00
-7.951660e+00
-7.905440e+00
-7.855853e+00
-7.802924e+00
-7.746616e+00
-7.686911e+00
-7.623842e+00
-7.557432e+00
-7.487607e+00
-7.414242e+00
-7.337283e+00
-7.256770e+00
-7.172780e+00
-7.085420e+00
-6.994904e+00
-6.901585e+00
-6.805935e+00
-6.708533e+00
-6.610053e+00
-6.511189e+00
-6.412578e+00
-6.314762e+00
-6.218212e+00
-6.123326e+00
-6.030262e+00
-5.938684e+00
-5.847758e+00
-5.756485e+00
-5.664134e+00
-5.570441e+00
-5.475493e+00
-5.379547e+00
-5.282945e+00
-5.186100e+00
-5.089444e+00
-4.993340e+00
-4.898036e+00
-4.803704e+00
-4.710489e+00
-4.618531e+00
-4.527968e+00
-4.438956e+00
-4.351718e+00
-4.266567e+00
-4.183880e+00
-4.104045e+00
-4.027436e+00
-3.954393e+00
-3.885230e+00
-3.820255e+00
-3.759807e+00
-3.704270e+00
-3.653972e+00
-3.609074e+00
-3.569580e+00
-3.535422e+00
-3.506442e+00
-3.482285e+00
-3.462313e+00
-3.445695e+00
-3.431610e+00
-3.419402e+00
-3.408596e+00
-3.398851e+00
-3.389948e+00
-3.381831e+00
-3.374611e+00
-3.368452e+00
-3.363426e+00
-3.359485e+00
-3.356537e+00
-3.354524e+00
-3.353445e+00
-3.353304e+00
-3.354040e+00
-3.355501e+00
-3.357500e+00
-3.359852e+00
-3.362330e+00
-3.364620e+00
-3.366363e+00
-3.367215e+00
-3.366857e+00
-3.364992e+00
-3.361365e+00
-3.355781e+00
-3.348075e+00
-3.338038e+00
-3.325371e+00
-3.309748e+00
-3.290912e+00
-3.268711e+00
-3.243057e+00
-3.213885e+00
-3.181127e+00
-3.144668e+00
-3.104319e+00
-3.059839e+00
-3.010971e+00
-2.957446e+00
-2.899019e+00
-2.835545e+00
-2.766993e+00
-2.693386e+00
-2.614760e+00
-2.531189e+00
-2.442833e+00
-2.349927e+00
-2.252732e+00
-2.151493e+00
-2.046429e+00
-1.937724e+00
-1.825456e+00
-1.709535e+00
-1.589753e+00
-1.466013e+00
-1.338565e+00
-1.208005e+00
-1.074997e+00
-9.400638e-01
-8.035846e-01
-6.658495e-01
-5.270499e-01
-3.873173e-01
-2.468099e-01
-1.057274e-01
3.576313e-02
1.775975e-01
3.197947e-01
4.623739e-01
6.053126e-01
7.485924e-01
8.922855e-01
1.036605e+00
1.181905e+00
1.328661e+00
1.477454e+00
1.628920e+00
1.783672e+00
1.942162e+00
2.104451e+00
2.270114e+00
2.438510e+00
2.609145e+00
2.781716e+00
2.955902e+00
3.131257e+00
3.307291e+00
3.483568e+00
3.659712e+00
3.835355e+00
4.010091e+00
4.183453e+00
4.354950e+00
4.524130e+00
4.690675e+00
4.854451e+00
5.015441e+00
5.173629e+00
5.328999e+00
5.481623e+00
5.631641e+00
5.779106e+00
5.923895e+00
6.065790e+00
6.204576e+00
6.340052e+00
6.472009e+00
6.600215e+00
6.724441e+00
6.844501e+00
6.960266e+00
7.071666e+00
7.178695e+00
7.281436e+00
7.380085e+00
7.474933e+00
7.566284e+00
7.654408e+00
7.739545e+00
7.821889e+00
7.901574e+00
7.978695e+00
8.053323e+00
8.125474e+00
8.195059e+00
8.261872e+00
8.325613e+00
8.385880e+00
8.442166e+00
8.493912e+00
8.540670e+00
8.582252e+00
8.618729e+00
8.650330e+00
8.677455e+00
8.700799e+00
8.721344e+00
8.740107e+00
8.757880e+00
8.775225e+00
8.792616e+00
8.810473e+00
8.829132e+00
8.848851e+00
8.869858e+00
8.892342e+00
8.916444e+00
8.942264e+00
8.969891e+00
8.999409e+00
9.030914e+00
9.064521e+00
9.100338e+00
9.138428e+00
9.178793e+00
9.221413e+00
9.266274e+00
9.313358e+00
9.362607e+00
9.413912e+00
9.467154e+00
9.522196e+00
9.578840e+00
9.636835e+00
9.695909e+00
9.755762e+00
9.816038e+00
9.876359e+00
9.936374e+00
9.995767e+00
1.005425e+01
1.011154e+01
1.016739e+01
1.022159e+01
1.027396e+01
1.032438e+01
1.037281e+01
1.041915e+01
1.046319e+01
1.050467e+01
1.054337e+01
1.057913e+01
1.061176e+01
1.064100e+01
1.066653e+01
1.068805e+01
1.070529e+01
1.071806e+01
1.072620e+01
1.072962e+01
1.072823e+01
1.072189e+01
1.071045e+01
1.069380e+01
1.067186e+01
1.064464e+01
1.061218e+01
1.057452e+01
1.053168e+01
1.048377e+01
1.043110e+01
1.037421e+01
1.031381e+01
1.025059e+01
1.018516e+01
1.011805e+01
1.004973e+01
9.980684e+00
9.911276e+00
9.841736e+00
9.772126e+00
9.702378e+00
9.632370e+00
9.561981e+00
9.491153e+00
9.419918e+00
9.348369e+00
9.276589e+00
9.204581e+00
9.132261e+00
9.059513e+00
8.986231e+00
8.912360e+00
8.837920e+00
8.763003e+00
8.687731e+00
8.612229e+00
8.536638e+00
8.461106e+00
8.385743e+00
8.310596e+00
8.235658e+00
8.160930e+00
8.086483e+00
8.012445e+00
7.938944e+00
7.866088e+00
7.794033e+00
7.723021e+00
7.653355e+00
7.585308e+00
7.519061e+00
7.454683e+00
7.392143e+00
7.331316e+00
7.272022e+00
7.214033e+00
7.156985e+00
7.100311e+00
7.043325e+00
6.985420e+00
6.926170e+00
6.865310e+00
6.802673e+00
6.738165e+00
6.671742e+00
6.603378e+00
6.533007e+00
6.460494e+00
6.385668e+00
6.308396e+00
6.228656e+00
6.146575e+00
6.062434e+00
5.976609e+00
5.889478e+00
5.801296e+00
5.712133e+00
5.621934e+00
5.530649e+00
5.438347e+00
5.345240e+00
5.251611e+00
5.157711e+00
5.063714e+00
4.969765e+00
4.876016e+00
4.782607e+00
4.689640e+00
4.597199e+00
4.505369e+00
4.414217e+00
4.323782e+00
4.234097e+00
4.145218e+00
4.057201e+00
3.970030e+00
3.883517e+00
3.797278e+00
3.710834e+00
3.623815e+00
3.536096e+00
3.447741e+00
3.358859e+00
3.269525e+00
3.179803e+00
3.089799e+00
2.999650e+00
2.909465e+00
2.819306e+00
2.729223e+00
2.639313e+00
2.549707e+00
2.460523e+00
2.371819e+00
2.283604e+00
2.195836e+00
2.108408e+00
2.021143e+00
1.933839e+00
1.846310e+00
1.758377e+00
1.669824e+00
1.580390e+00
1.489805e+00
1.397846e+00
1.304345e+00
1.209168e+00
1.112192e+00
1.013303e+00
9.124232e-01
8.095423e-01
7.047334e-01
5.981400e-01
4.899407e-01
3.802955e-01
2.692846e-01
1.568860e-01
4.303739e-02
-7.224659e-02
-1.887809e-01
-3.062155e-01
-4.241386e-01
-5.421836e-01
-6.600538e-01
-7.774984e-01
-8.943152e-01
-1.010377e+00
-1.125627e+00
-1.240034e+00
-1.353549e+00
-1.466083e+00
-1.577510e+00
-1.687705e+00
-1.796587e+00
-1.904138e+00
-2.010373e+00
-2.115296e+00
-2.218890e+00
-2.321088e+00
-2.421771e+00
-2.520789e+00
-2.618025e+00
-2.713411e+00
-2.806889e+00
-2.898364e+00
-2.987684e+00
-3.074662e+00
-3.159110e+00
-3.240859e+00
-3.319746e+00
-3.395602e+00
-3.468240e+00
-3.537492e+00
-3.603244e+00
-3.665475e+00
-3.724241e+00
-3.779644e+00
-3.831824e+00
-3.880960e+00
-3.927263e+00
-3.970983e+00
-4.012446e+00
-4.052100e+00
-4.090498e+00
-4.128183e+00
-4.165579e+00
-4.202972e+00
-4.240559e+00
-4.278459e+00
-4.316693e+00
-4.355177e+00
-4.393730e+00
-4.432105e+00
-4.470025e+00
-4.507213e+00
-4.543394e+00
-4.578304e+00
-4.611705e+00
-4.643404e+00
-4.673276e+00
-4.701265e+00
-4.727348e+00
-4.751487e+00
-4.773618e+00
-4.793697e+00
-4.811744e+00
-4.827863e+00
-4.842213e+00
-4.854951e+00
-4.866192e+00
-4.876022e+00
-4.884542e+00
-4.891889e+00
-4.898218e+00
-4.903680e+00
-4.908415e+00
-4.912561e+00
-4.916220e+00
-4.919432e+00
-4.922172e+00
-4.924377e+00
-4.925949e+00
-4.926744e+00
-4.926568e+00
-4.925190e+00
-4.922354e+00
-4.917785e+00
-4.911201e+00
-4.902332e+00
-4.890959e+00
-4.876932e+00
-4.860185e+00
-4.840712e+00
-4.818546e+00
-4.793738e+00
-4.766349e+00
-4.736434e+00
-4.704040e+00
-4.669195e+00
-4.631908e+00
-4.592180e+00
-4.550015e+00
-4.505410e+00
-4.458351e+00
-4.408825e+00
-4.356818e+00
-4.302302e+00
-4.245216e+00
-4.185464e+00
-4.122927e+00
-4.057528e+00
-3.989298e+00
-3.918422e+00
-3.845204e+00
-3.769998e+00
-3.693160e+00
-3.615023e+00
-3.535894e+00
-3.456042e+00
-3.375685e+00
-3.294983e+00
-3.214046e+00
-3.132931e+00
-3.051657e+00
-2.970214e+00
-2.888581e+00
-2.806743e+00
-2.724708e+00
-2.642506e+00
-2.560199e+00
-2.477876e+00
-2.395634e+00
-2.313550e+00
-2.231678e+00
-2.150070e+00
-2.068789e+00
-1.987913e+00
-1.907505e+00
-1.827590e+00
-1.748139e+00
-1.669071e+00
-1.590274e+00
-1.511632e+00
-1.433046e+00
-1.354441e+00
-1.275764e+00
-1.196987e+00
-1.118103e+00
-1.039119e+00
-9.600489e-01
-8.809067e-01
-8.017115e-01
-7.224918e-01
-6.432859e-01
-5.641419e-01
-4.851128e-01
-4.062386e-01
-3.275318e-01
-2.489919e-01
-1.706294e-01
-9.247409e-02
-1.458138e-02
6.295731e-02
1.400199e-01
2.164705e-01
2.921767e-01
3.670316e-01
4.409723e-01
5.139776e-01
5.860510e-01
6.572092e-01
7.274919e-01
7.969832e-01
8.658200e-01
9.341516e-01
1.002047e+00
1.069419e+00
1.136059e+00
1.201762e+00
1.266421e+00
1.330011e+00
1.392512e+00
1.453866e+00
1.513993e+00
1.572826e+00
1.630308e+00
1.686374e+00
1.740942e+00
1.793919e+00
1.845221e+00
1.894801e+00
1.942678e+00
1.988968e+00
2.033899e+00
2.077794e+00
2.120991e+00
2.163752e+00
2.206224e+00
2.248448e+00
2.290409e+00
2.332073e+00
2.373407e+00
2.414388e+00
2.455002e+00
2.495250e+00
2.535137e+00
2.574670e+00
2.613867e+00
2.652765e+00
2.691415e+00
2.729867e+00
2.768165e+00
2.806348e+00
2.844471e+00
2.882595e+00
2.920788e+00
2.959105e+00
2.997576e+00
3.036192e+00
3.074898e+00
3.113604e+00
3.152205e+00
3.190584e+00
3.228618e+00
3.266186e+00
3.303149e+00
3.339357e+00
3.374684e+00
3.409081e+00
3.442576e+00
3.475206e+00
3.506954e+00
3.537749e+00
3.567515e+00
3.596213e+00
3.623847e+00
3.650439e+00
3.676013e+00
3.700590e+00
3.724192e+00
3.746831e+00
3.768488e+00
3.789107e+00
3.808604e+00
3.826872e+00
3.843795e+00
3.859252e+00
3.873124e+00
3.885307e+00
3.895701e+00
3.904225e+00
3.910833e+00
3.915561e+00
3.918527e+00
3.919897e+00
