EVENT_NAME: EMILIA_2ND_SHOCK
EVENT_ID: IT-2012-0011
EVENT_DATE_YYYYMMDD: 20120529
EVENT_TIME_HHMMSS: 070002
EVENT_LATITUDE_DEGREE: 44.8417
EVENT_LONGITUDE_DEGREE: 11.0657
EVENT_DEPTH_KM: 8.1
HYPOCENTER_REFERENCE: INGV-CNT_Seismic_Bulletin
MAGNITUDE_W: 6.0
MAGNITUDE_W_REFERENCE: RCMT-INGV
MAGNITUDE_L: 5.8
MAGNITUDE_L_REFERENCE: INGV-CNT_Seismic_Bulletin
FOCAL_MECHANISM: TF
NETWORK: IT
STATION_CODE: SAN0
STATION_NAME: SAN FELICE SUL PANARO
STATION_LATITUDE_DEGREE: 44.838000
STATION_LONGITUDE_DEGREE: 11.143000
STATION_ELEVATION_M: 71
LOCATION: 
SENSOR_DEPTH_M: 0.0
VS30_M/S: 
SITE_CLASSIFICATION_EC8: C*
MORPHOLOGIC_CLASSIFICATION: 
EPICENTRAL_DISTANCE_KM: 6.1
EARTHQUAKE_BACKAZIMUTH_DEGREE: 273.9
DATE_TIME_FIRST_SAMPLE_YYYYMMDD_HHMMSS: 20120529_065933.000
DATE_TIME_FIRST_SAMPLE_PRECISION: seconds
SAMPLING_INTERVAL_S: 0.005000
NDATA: 34001
DURATION_S: 170.005
STREAM: HNE
UNITS: cm/s
INSTRUMENT: sensor = Episensor FBA ES-T [Kinemetrics] | digitizer = Etna [Kinemetrics]
INSTRUMENT_ANALOG/DIGITAL: D
INSTRUMENTAL_FREQUENCY_HZ: 
INSTRUMENTAL_DAMPING: 
FULL_SCALE_G: 
N_BIT_DIGITAL_CONVERTER: 18
PGV_CM/S: -19.616164
TIME_PGV_S: 36.790000
BASELINE_CORRECTION: BASELINE REMOVED
FILTER_TYPE: BUTTERWORTH
FILTER_ORDER: 2
LOW_CUT_FREQUENCY_HZ: 0.060
HIGH_CUT_FREQUENCY_HZ: 50.000
LATE/NORMAL_TRIGGERED: NT
DATABASE_VERSION: DYNA 1.0
HEADER_FORMAT: DYNA 1.2
DATA_TYPE: VELOCITY
PROCESSING: manual (Paolucci et al., 2011)
DATA_TIMESTAMP_YYYYMMDD_HHMMSS: 
DATA_LICENSE: CC-BY3_0-IT (http://creativecommons.org/licenses/by/3.0/deed.en)
DATA_CITATION: ESM working group (2015), European Strong-Motion database, version 0.1, Network Activity 3: Networking acceleration networks and SM data users. Project NERA (www.nera-eu.org)
DATA_CREATOR: ESM working group
ORIGINAL_DATA_MEDIATOR_CITATION: Ufficio Rischio Sismico e Vulcanico del Dipartimento della Protezione Civile (http://www.protezionecivile.gov.it/)
ORIGINAL_DATA_MEDIATOR: Rete Accelerometrica Nazionale - RAN Download (http://www.mot1.it/randownload/)
ORIGINAL_DATA_CREATOR_CITATION: Italian Strong Motion Network, Italian Civil Protection Department http://www.protezionecivile.gov.it
ORIGINAL_DATA_CREATOR: network: IT (Italian Strong Motion Network); owner: Dipartimento Della Protezione Civile
USER1: 
USER2: 
USER3: 
USER4: 
USER5: 
[...]
0.112929
0.111850
0.110798
0.109763
0.108719
0.107665
0.106617
0.105582
0.104542
0.103484
0.102419
0.101349
0.100255
0.099142
0.098042
0.096968
0.095904
0.094841
0.093779
0.092715
0.091640
0.090560
0.089494
0.088438
0.087372
0.086296
0.085222
0.084148
0.083073
0.082004
0.080950
0.079895
0.078825
0.077747
0.076679
0.075631
0.074600
0.073582
0.072566
0.071541
0.070498
0.069444
0.068399
0.067371
0.066343
0.065306
0.064276
0.063266
0.062257
0.061235
0.060216
0.059199
0.058168
0.057123
0.056073
0.055017
0.053951
0.052883
0.051825
0.050766
0.049695
0.048634
0.047604
0.046589
0.045549
0.044483
0.043436
0.042423
0.041416
0.040397
0.039370
0.038336
0.037292
0.036248
0.035215
0.034184
0.033136
0.032079
0.031048
0.030047
0.029043
0.028027
0.027022
0.026022
0.025001
0.023957
0.022924
0.021924
0.020939
0.019941
0.018921
0.017883
0.016828
0.015763
0.014716
0.013709
0.012723
0.011722
0.010692
0.009630
0.008537
0.007442
0.006383
0.005366
0.004350
0.003322
0.002303
0.001291
0.000257
-0.000796
-0.001842
-0.002862
-0.003858
-0.004845
-0.005834
-0.006824
-0.007825
-0.008846
-0.009870
-0.010872
-0.011866
-0.012867
-0.013861
-0.014845
-0.015844
-0.016850
-0.017847
-0.018843
-0.019857
-0.020880
-0.021887
-0.022868
-0.023853
-0.024864
-0.025874
-0.026854
-0.027817
-0.028803
-0.029823
-0.030855
-0.031878
-0.032888
-0.033885
-0.034874
-0.035879
-0.036910
-0.037943
-0.038960
-0.039976
-0.040992
-0.041987
-0.042968
-0.043964
-0.044979
-0.045991
-0.046999
-0.048025
-0.049067
-0.050091
-0.051092
-0.052099
-0.053119
-0.054134
-0.055135
-0.056131
-0.057134
-0.058143
-0.059153
-0.060164
-0.061171
-0.062163
-0.063140
-0.064116
-0.065100
-0.066084
-0.067056
-0.068022
-0.068993
-0.069961
-0.070920
-0.071881
-0.072853
-0.073833
-0.074808
-0.075774
-0.076742
-0.077721
-0.078713
-0.079715
-0.080719
-0.081714
-0.082699
-0.083690
-0.084683
-0.085666
-0.086643
-0.087626
-0.088622
-0.089629
-0.090640
-0.091655
-0.092684
-0.093719
-0.094739
-0.095739
-0.096725
-0.097697
-0.098657
-0.099615
-0.100578
-0.101542
-0.102512
-0.103497
-0.104488
-0.105463
-0.106420
-0.107379
-0.108358
-0.109357
-0.110365
-0.111367
-0.112354
-0.113322
-0.114296
-0.115299
-0.116314
-0.117305
-0.118265
-0.119212
-0.120157
-0.121100
-0.122040
-0.122985
-0.123929
-0.124856
-0.125782
-0.126734
-0.127707
-0.128662
-0.129597
-0.130545
-0.131513
-0.132470
-0.133411
-0.134360
-0.135327
-0.136295
-0.137248
-0.138195
-0.139152
-0.140106
-0.141054
-0.142010
-0.142983
-0.143963
-0.144937
-0.145901
-0.146863
-0.147827
-0.148793
-0.149766
-0.150759
-0.151770
-0.152776
-0.153764
-0.154737
-0.155697
-0.156662
-0.157644
-0.158631
-0.159610
-0.160586
-0.161560
-0.162537
-0.163522
-0.164516
-0.165503
-0.166474
-0.167428
-0.168371
-0.169326
-0.170302
-0.171272
-0.172237
-0.173219
-0.174216
-0.175198
-0.176158
-0.177115
-0.178085
-0.179049
-0.179996
-0.180933
-0.181865
-0.182785
-0.183705
-0.184647
-0.185614
-0.186593
-0.187573
-0.188551
-0.189520
-0.190463
-0.191391
-0.192339
-0.193310
-0.194280
-0.195250
-0.196235
-0.197225
-0.198203
-0.199163
-0.200117
-0.201071
-0.202016
-0.202951
-0.203901
-0.204873
-0.205842
-0.206787
-0.207724
-0.208670
-0.209614
-0.210540
-0.211456
-0.212389
-0.213342
-0.214293
-0.215230
-0.216153
-0.217062
-0.217971
-0.218907
-0.219874
-0.220842
-0.221798
-0.222764
-0.223745
-0.224711
-0.225641
-0.226561
-0.227506
-0.228468
-0.229427
-0.230383
-0.231329
-0.232246
-0.233163
-0.234120
-0.235102
-0.236062
-0.236995
-0.237927
-0.238871
-0.239814
-0.240748
-0.241685
-0.242629
-0.243560
-0.244470
-0.245388
-0.246320
-0.247233
-0.248127
-0.249036
-0.249967
-0.250897
-0.251821
-0.252741
-0.253652
-0.254549
-0.255431
-0.256298
-0.257156
-0.257997
-0.258765
-0.259408
-0.259926
-0.260318
-0.260583
-0.260805
-0.261122
-0.261576
-0.262089
-0.262527
-0.262747
-0.262659
-0.262276
-0.261677
-0.260964
-0.260239
-0.259594
-0.259039
-0.258504
-0.257947
-0.257430
-0.257262
-0.257880
-0.259106
-0.260028
-0.259893
-0.258411
-0.255656
-0.252725
-0.251496
-0.252827
-0.256056
-0.260159
-0.263754
-0.264979
-0.263378
-0.260906
-0.259626
-0.259532
-0.259548
-0.259337
-0.259316
-0.260204
-0.262927
-0.267296
-0.270918
-0.271187
-0.268150
-0.264468
-0.263074
-0.265204
-0.270124
-0.276231
-0.282095
-0.286728
-0.289544
-0.289880
-0.286969
-0.281426
-0.275839
-0.272707
-0.272898
-0.276700
-0.284050
-0.292439
-0.296879
-0.293861
-0.284954
-0.276140
-0.273230
-0.277247
-0.284202
-0.289226
-0.289933
-0.286116
-0.279341
-0.273322
-0.270578
-0.268833
-0.264775
-0.259700
-0.257833
-0.260862
-0.266016
-0.268290
-0.264258
-0.254676
-0.244529
-0.240536
-0.245577
-0.254042
-0.255723
-0.245574
-0.227691
-0.210896
-0.202653
-0.205010
-0.213957
-0.223464
-0.229369
-0.228532
-0.219150
-0.204972
-0.193463
-0.187446
-0.184886
-0.186536
-0.194205
-0.202068
-0.200884
-0.190417
-0.178900
-0.173223
-0.176264
-0.188558
-0.206208
-0.221096
-0.227617
-0.226812
-0.222185
-0.215175
-0.208235
-0.207801
-0.216258
-0.225876
-0.230217
-0.233348
-0.238792
-0.240079
-0.230724
-0.215258
-0.202412
-0.192579
-0.180967
-0.168757
-0.160629
-0.156519
-0.156099
-0.163423
-0.177103
-0.185199
-0.178371
-0.159402
-0.136059
-0.113687
-0.095848
-0.085272
-0.082167
-0.082916
-0.081957
-0.076063
-0.066095
-0.054568
-0.043504
-0.035198
-0.032416
-0.036544
-0.046958
-0.061233
-0.074111
-0.078650
-0.071406
-0.055353
-0.035669
-0.014482
0.008167
0.030625
0.048874
0.058906
0.060078
0.054969
0.045326
0.032303
0.021789
0.023546
0.041959
0.070706
0.099455
0.123909
0.145088
0.162030
0.171651
0.171763
0.160241
0.138319
0.116961
0.110565
0.119655
0.127007
0.115607
0.083052
0.035238
-0.022264
-0.079787
-0.120609
-0.131171
-0.111271
-0.072356
-0.029599
0.005015
0.025427
0.028265
0.011028
-0.021851
-0.056260
-0.077371
-0.079138
-0.066177
-0.050327
-0.040654
-0.032837
-0.013781
0.023595
0.076078
0.135349
0.190407
0.229502
0.245845
0.241907
0.226882
0.209525
0.193586
0.179551
0.169361
0.166979
0.173350
0.184771
0.197902
0.212719
0.231643
0.258563
0.294758
0.333246
0.360311
0.364658
0.345247
0.311848
0.278926
0.256337
0.242750
0.227931
0.202280
0.165521
0.128658
0.107128
0.109272
0.131276
0.161828
0.188030
0.200737
0.201580
0.202271
0.209640
0.212750
0.193463
0.150230
0.100830
0.061173
0.033835
0.017850
0.016968
0.034315
0.067717
0.114021
0.169334
0.223881
0.268319
0.304310
0.338352
0.370295
0.397294
0.423152
0.454293
0.487772
0.510460
0.511942
0.493705
0.464791
0.433134
0.403448
0.381650
0.376668
0.392376
0.417674
0.429970
0.410885
0.358824
0.288646
0.219797
0.164570
0.127491
0.110135
0.110264
0.118161
0.120041
0.108556
0.088842
0.071413
0.059625
0.047789
0.031961
0.018547
0.019284
0.038465
0.067574
0.092370
0.103562
0.102990
0.102700
0.116860
0.152993
0.209484
0.277435
0.344918
0.405461
0.463141
0.524257
0.582893
0.617976
0.607649
0.548099
0.456833
0.356745
0.262517
0.183414
0.126763
0.091766
0.067921
0.043652
0.012814
-0.025689
-0.069338
-0.112611
-0.147706
-0.163234
-0.143527
-0.076845
0.031259
0.155269
0.261191
0.320968
0.322809
0.274803
0.199527
0.123586
0.067913
0.043188
0.054240
0.106725
0.203614
0.334190
0.469392
0.571293
0.613447
0.595946
0.540018
0.470556
0.405624
0.354672
0.317327
0.284414
0.246008
0.200116
0.152812
0.111359
0.078702
0.055541
0.046663
0.060090
0.097814
0.149677
0.196404
0.220355
0.219137
0.209372
0.213277
0.241587
0.290374
0.350429
0.414406
0.474660
0.519349
0.535627
0.517062
0.466665
0.393885
0.312388
0.241260
0.200911
0.201513
0.238649
0.302015
0.383555
0.477127
0.575357
0.666655
0.733214
0.757293
0.736842
0.693403
0.658167
0.649820
0.668445
0.706597
0.759413
0.825235
0.902250
0.984319
1.057449
1.104497
1.118507
1.108509
1.088428
1.064811
1.039439
1.016709
1.001357
0.994677
0.999178
1.022406
1.070321
1.137080
1.204340
1.253534
1.279534
1.290472
1.296126
1.300820
1.303963
1.301653
1.291803
1.282263
1.289206
1.324014
1.384145
1.455869
1.523656
1.579936
1.627631
1.672179
1.712716
1.741367
1.748020
1.726432
1.680105
1.622218
1.566324
1.517846
1.476953
1.447240
1.436981
1.450160
1.479213
1.510904
1.537939
1.560694
1.580092
1.594863
1.606284
1.619274
1.636098
1.657435
1.690614
1.745042
1.822253
1.920381
2.039874
2.175491
2.309180
2.420539
2.505646
2.577920
2.650096
2.727967
2.819311
2.928481
3.039554
3.121624
3.153945
3.136636
3.082241
3.008326
2.931804
2.859969
2.789517
2.714835
2.630287
2.526700
2.395748
2.240137
2.074073
1.909207
1.745328
1.581301
1.423086
1.270050
1.105749
0.911012
0.679207
0.416805
0.136920
-0.141851
-0.398422
-0.622974
-0.820953
-0.995368
-1.139499
-1.253390
-1.347592
-1.426129
-1.481723
-1.505058
-1.490556
-1.440039
-1.365348
-1.289749
-1.244405
-1.249203
-1.297540
-1.371744
-1.461132
-1.557184
-1.655448
-1.768362
-1.916100
-2.106336
-2.332842
-2.587100
-2.864479
-3.159030
-3.461054
-3.771262
-4.107533
-4.483293
-4.889733
-5.307694
-5.722519
-6.121913
-6.495756
-6.846207
-7.188557
-7.537369
-7.895073
-8.252653
-8.596949
-8.915710
-9.197609
-9.433738
-9.622800
-9.772289
-9.899052
-10.034480
-10.213430
-10.439560
-10.669830
-10.843780
-10.920890
-10.892950
-10.776590
-10.595200
-10.366380
-10.107590
-9.838035
-9.566496
-9.295596
-9.040682
-8.823762
-8.652812
-8.523297
-8.431022
-8.378750
-8.377412
-8.430067
-8.519282
-8.637983
-8.814401
-9.072709
-9.390249
-9.709360
-9.965831
-10.106780
-10.107790
-9.966335
-9.669678
-9.201741
-8.591088
-7.911655
-7.225305
-6.551444
-5.890150
-5.243986
-4.613170
-3.989655
-3.362802
-2.725439
-2.071077
-1.387347
-0.665404
0.073948
0.767020
1.329357
1.709855
1.925471
2.027122
2.055273
2.043838
2.020356
1.991694
1.968174
1.989675
2.098124
2.303191
2.588375
2.927203
3.283157
3.612132
3.884789
4.110535
4.327997
4.563783
4.807480
5.030903
5.218289
5.364929
5.460766
5.499104
5.492532
5.461371
5.416513
5.359200
5.283208
5.180266
5.053888
4.916411
4.766440
4.587455
4.370965
4.118708
3.824750
3.479789
3.089509
2.667374
2.213295
1.723793
1.222991
0.754756
0.343621
-0.006121
-0.277777
-0.444109
-0.499671
-0.464165
-0.357174
-0.187211
0.039171
0.309283
0.604483
0.906836
1.208066
1.507402
1.796913
2.058267
2.278194
2.457173
2.605529
2.743408
2.896884
3.085625
3.319985
3.600408
3.909889
4.223018
4.528244
4.828060
5.119414
5.386770
5.617008
5.813223
5.992478
6.179871
6.396077
6.637129
6.882476
7.127460
7.388246
7.678722
7.997349
8.328451
8.643995
8.912339
9.117544
9.262377
9.352154
9.395327
9.412911
9.422201
9.419929
9.402406
9.387857
9.397903
9.431570
9.473148
9.508847
9.519969
9.475799
9.352831
9.151795
8.887460
8.577597
8.252795
7.965313
7.770033
7.691183
7.707169
7.761741
7.793634
7.769146
7.692591
7.589365
7.486883
7.408263
7.367409
7.359037
7.354101
7.312366
7.208946
7.053866
6.882720
6.724371
6.581156
6.440298
6.293726
6.143391
5.995876
5.855900
5.727765
5.619659
5.536653
5.485221
5.492124
5.583532
5.738603
5.900427
6.037578
6.167833
6.320277
6.497376
6.684334
6.879661
7.097229
7.347889
7.636342
7.967407
8.337763
8.722555
9.087707
9.418939
9.727083
10.024670
10.304290
10.544040
10.730870
10.869710
10.972490
11.047300
11.095610
11.117280
11.120050
11.118450
11.132790
11.188970
11.290600
11.406370
11.506510
11.582070
11.628460
11.637810
11.602740
11.522730
11.413020
11.298790
11.189260
11.064990
10.910520
10.746010
10.593580
10.436610
10.245580
10.013420
9.750831
9.474950
9.203765
8.952701
8.740096
8.583777
8.479666
8.398603
8.318668
8.248308
8.206316
8.197271
8.222942
8.290707
8.389898
8.487378
8.555991
8.585882
8.573196
8.514716
8.414508
8.294366
8.190557
8.132417
8.125260
8.145985
8.151908
8.104925
7.992813
7.836799
7.674564
7.520355
7.356014
7.173605
7.008782
6.911937
6.895558
6.928447
6.966725
6.985020
6.996657
7.041053
7.141230
7.279283
7.426213
7.580429
7.745957
7.898163
8.013257
8.110875
8.232967
8.392565
8.565787
8.728183
8.880891
9.041630
9.225770
9.432657
9.636129
9.793532
9.875655
9.893033
9.886797
9.886333
9.886774
9.869500
9.823468
9.745474
9.639673
9.514325
9.369269
9.198694
9.004230
8.789982
8.557394
8.316080
8.084687
7.876678
7.691086
7.510039
7.304005
7.052779
6.762453
6.455836
6.155513
5.876175
5.616915
5.362282
5.097849
4.818715
4.526324
4.225398
3.920785
3.612164
3.289123
2.932680
2.527619
2.075821
1.596407
1.110600
0.627621
0.150200
-0.313867
-0.758389
-1.189977
-1.624526
-2.080103
-2.565664
-3.067973
-3.569154
-4.072499
-4.588351
-5.117711
-5.665766
-6.246571
-6.870660
-7.537611
-8.234123
-8.941744
-9.647532
-10.336500
-10.984550
-11.579000
-12.141230
-12.717690
-13.346410
-14.030310
-14.742450
-15.455310
-16.159470
-16.854059
-17.525009
-18.139210
-18.659941
-19.062929
-19.341721
-19.508820
-19.591299
-19.616159
-19.596840
-19.535629
-19.436960
-19.314671
-19.186480
-19.061741
-18.938259
-18.816610
-18.710150
-18.632250
-18.582380
-18.555990
-18.560940
-18.611589
-18.707649
-18.825340
-18.925579
-18.963930
-18.904831
-18.744289
-18.510160
-18.227800
-17.897791
-17.514820
-17.099939
-16.709690
-16.407330
-16.215330
-16.099689
-16.003981
-15.886470
-15.727160
-15.525600
-15.297600
-15.057880
-14.805090
-14.531430
-14.238280
-13.931900
-13.610910
-13.269250
-12.906970
-12.529580
-12.143790
-11.763420
-11.414260
-11.124840
-10.910970
-10.765440
-10.661080
-10.571850
-10.492230
-10.428880
-10.381520
-10.344450
-10.316950
-10.302600
-10.304810
-10.322480
-10.344530
-10.353950
-10.337520
-10.282810
-10.171530
-9.986254
-9.721596
-9.385793
-8.993662
-8.557444
-8.080789
-7.562029
-7.004589
-6.423278
-5.843758
-5.306682
-4.874584
-4.610141
-4.529393
-4.595636
-4.765012
-5.013565
-5.328048
-5.700444
-6.125462
-6.590218
-7.081884
-7.608137
-8.186945
-8.820517
-9.501690
-10.230650
-11.003980
-11.805530
-12.624380
-13.463410
-14.319740
-15.174230
-16.003981
-16.786949
-17.488991
-18.060551
-18.462990
-18.695610
-18.781900
-18.735580
-18.557360
-18.258200
-17.869900
-17.433121
-16.979860
-16.527599
-16.093420
-15.707220
-15.397080
-15.166320
-14.998550
-14.884430
-14.832140
-14.848110
-14.924010
-15.052810
-15.237520
-15.471430
-15.728530
-15.983870
-16.226521
-16.446301
-16.626480
-16.753481
-16.819611
-16.820049
-16.757130
-16.643961
-16.500429
-16.339359
-16.153980
-15.931320
-15.674460
-15.393710
-15.084480
-14.729810
-14.321140
-13.868040
-13.385480
-12.876860
-12.336800
-11.767480
-11.186100
-10.622000
-10.114070
-9.705620
-9.427731
-9.284212
-9.259484
-9.336965
-9.497978
-9.703951
-9.892483
-10.002470
-10.008640
-9.926476
-9.784077
-9.602889
-9.398930
-9.180115
-8.942709
-8.679952
-8.391610
-8.081644
-7.750058
-7.392974
-7.009795
-6.603470
-6.173011
-5.711182
-5.210824
-4.668902
-4.080582
-3.433716
-2.718377
-1.941966
-1.128403
-0.303744
0.512369
1.307267
2.077444
2.826237
3.552898
4.246550
4.889758
5.466384
5.969552
6.403449
6.780327
7.116003
7.421691
7.701822
7.961863
8.211565
8.462086
8.722425
8.992889
9.262110
9.512385
9.727388
9.899588
10.034490
10.144040
10.231820
10.287230
10.297010
10.257650
10.171730
10.037750
9.850452
9.607567
9.310879
8.961160
8.556622
8.098362
7.594175
7.060550
6.533407
6.071657
5.729751
5.527186
5.453059
5.488508
5.619559
5.840045
6.147075
6.535202
6.995743
7.515747
8.074438
8.640022
9.170792
9.626257
9.982363
10.236630
10.400340
10.487530
10.510390
10.479900
10.404780
10.290720
10.143440
9.968389
9.765885
9.532035
9.263336
8.956989
8.613382
8.239475
7.843436
7.429905
7.005203
6.583175
6.185480
5.836348
5.553032
5.341808
5.203232
5.136886
5.141577
5.213876
5.346134
5.524836
5.730116
5.937975
6.127930
6.292416
6.437029
6.570592
6.697049
6.815080
6.918951
6.997405
7.036882
7.028599
6.969926
6.859286
6.694030
6.475144
6.211466
5.916527
5.601716
5.275863
4.953503
4.661551
4.436158
4.311478
4.304620
4.405607
4.585525
4.816981
5.082775
5.370220
5.669457
5.976208
6.286605
6.588259
6.861754
7.093495
7.284203
7.441690
7.567793
7.654990
7.692037
7.669075
7.582109
7.438376
7.254209
7.045716
6.824452
6.598238
6.369673
6.134219
5.883761
5.614783
5.331590
5.040712
4.746428
4.451751
4.157158
3.857739
3.546636
3.220849
2.881758
2.532770
2.178218
1.822255
1.465933
1.107018
0.747576
0.401430
0.090099
-0.169130
-0.370912
-0.519123
-0.617485
-0.664362
-0.656337
-0.593338
-0.480224
-0.326764
-0.146211
0.047709
0.243746
0.436535
0.627222
0.816016
0.994517
1.148875
1.268385
1.351710
1.409220
1.454674
1.491164
1.511415
1.510738
1.492330
1.461370
1.419479
1.365657
1.301416
1.234952
1.179701
1.147625
1.144686
1.174176
1.240249
1.343178
1.476054
1.631081
1.803332
1.987053
2.176213
2.366828
2.552354
2.724421
2.883389
3.037861
3.193197
3.352447
3.523756
3.716760
3.938128
4.192077
4.476643
4.781155
5.094615
5.414340
5.737756
6.046152
6.308962
6.509302
6.657376
6.778575
6.896662
7.025056
7.164919
7.307713
7.437223
7.533338
7.584064
7.595255
7.584600
7.566332
7.541994
7.505158
7.452798
7.389375
7.323877
7.268165
7.235831
7.237828
7.277162
7.346707
7.431886
7.517106
7.591096
7.646315
7.675758
7.674430
7.642851
7.584789
7.502356
7.394460
7.256917
7.086076
6.885567
6.665914
6.437252
6.205059
5.970296
5.731154
5.486603
5.240774
5.003505
4.786012
4.597857
4.445914
4.331919
4.253238
4.207403
4.192959
4.207541
4.246788
4.303255
4.367970
4.433778
4.494320
4.541737
4.568739
4.571524
4.551359
4.515433
4.474769
4.440809
4.423364
4.430348
4.469687
4.548039
4.663827
4.805143
4.956913
5.107527
5.250317
5.383487
5.509848
5.636206
5.771141
5.920798
6.087317
6.271502
6.475242
6.701417
6.951673
7.222737
7.505449
7.788871
8.063928
8.323128
8.559051
8.763577
8.928493
9.047088
9.115799
9.135194
9.107783
9.034428
8.916099
8.758484
8.571266
8.363358
8.139689
7.900970
7.645465
7.371421
7.078533
6.767330
6.437735
6.088183
5.715279
5.315293
4.886651
4.430107
3.947693
3.441836
2.913874
2.364044
1.793608
1.206630
0.610473
0.015226
-0.567308
-1.126790
-1.660373
-2.174203
-2.677509
-3.177793
-3.682642
-4.203274
-4.752048
-5.334775
-5.946260
-6.570929
-7.183346
-7.751617
-8.250976
-8.677364
-9.042603
-9.357939
-9.628643
-9.859650
-10.057810
-10.230860
-10.384660
-10.517150
-10.621020
-10.694110
-10.736980
-10.742890
-10.704860
-10.631360
-10.543290
-10.457320
