EVENT_NAME: EMILIA_2ND_SHOCK
EVENT_ID: IT-2012-0011
EVENT_DATE_YYYYMMDD: 20120529
EVENT_TIME_HHMMSS: 070002
EVENT_LATITUDE_DEGREE: 44.8417
EVENT_LONGITUDE_DEGREE: 11.0657
EVENT_DEPTH_KM: 8.1
HYPOCENTER_REFERENCE: INGV-CNT_Seismic_Bulletin
MAGNITUDE_W: 6.0
MAGNITUDE_W_REFERENCE: RCMT-INGV
MAGNITUDE_L: 5.8
MAGNITUDE_L_REFERENCE: INGV-CNT_Seismic_Bulletin
FOCAL_MECHANISM: TF
NETWORK: IT
STATION_CODE: SMS0
STATION_NAME: SAN MARTINO SPINO
STATION_LATITUDE_DEGREE: 44.934000
STATION_LONGITUDE_DEGREE: 11.235000
STATION_ELEVATION_M: 55
LOCATION: 
SENSOR_DEPTH_M: 0.0
VS30_M/S: 
SITE_CLASSIFICATION_EC8: C*
MORPHOLOGIC_CLASSIFICATION: 
EPICENTRAL_DISTANCE_KM: 16.9
EARTHQUAKE_BACKAZIMUTH_DEGREE: 232.6
DATE_TIME_FIRST_SAMPLE_YYYYMMDD_HHMMSS: 20120529_065933.000
DATE_TIME_FIRST_SAMPLE_PRECISION: seconds
SAMPLING_INTERVAL_S: 0.005000
NDATA: 32001
DURATION_S: 160.005
STREAM: HNE
UNITS: cm
INSTRUMENT: sensor = Episensor FBA ES-T [Kinemetrics] | digitizer = Etna [Kinemetrics]
INSTRUMENT_ANALOG/DIGITAL: D
INSTRUMENTAL_FREQUENCY_HZ: 
INSTRUMENTAL_DAMPING: 
FULL_SCALE_G: 
N_BIT_DIGITAL_CONVERTER: 18
PGD_CM: -4.511954
TIME_PGD_S: 44.535000
BASELINE_CORRECTION: BASELINE REMOVED
FILTER_TYPE: BUTTERWORTH
FILTER_ORDER: 2
LOW_CUT_FREQUENCY_HZ: 0.040
HIGH_CUT_FREQUENCY_HZ: 40.000
LATE/NORMAL_TRIGGERED: NT
DATABASE_VERSION: DYNA 1.0
HEADER_FORMAT: DYNA 1.2
DATA_TYPE: DISPLACEMENT
PROCESSING: manual (Paolucci et al., 2011)
DATA_TIMESTAMP_YYYYMMDD_HHMMSS: 
DATA_LICENSE: CC-BY3_0-IT (http://creativecommons.org/licenses/by/3.0/deed.en)
DATA_CITATION: ESM working group (2015), European Strong-Motion database, version 0.1, Network Activity 3: Networking acceleration networks and SM data users. Project NERA (www.nera-eu.org)
DATA_CREATOR: ESM working group
ORIGINAL_DATA_MEDIATOR_CITATION: Ufficio Rischio Sismico e Vulcanico del Dipartimento della Protezione Civile (http://www.protezionecivile.gov.it/)
ORIGINAL_DATA_MEDIATOR: Rete Accelerometrica Nazionale - RAN Download (http://www.mot1.it/randownload/)
ORIGINAL_DATA_CREATOR_CITATION: Italian Strong Motion Network, Italian Civil Protection Department http://www.protezionecivile.gov.it
ORIGINAL_DATA_CREATOR: network: IT (Italian Strong Motion Network); owner: Dipartimento Della Protezione Civile
USER1: 
USER2: 
USER3: 
USER4: 
USER5: 
[...]
8.169307e-01
8.470266e-01
8.761779e-01
9.045725e-01
9.324300e-01
9.599529e-01
9.872892e-01
1.014497e+00
1.041566e+00
1.068447e+00
1.095028e+00
1.121143e+00
1.146636e+00
1.171393e+00
1.195329e+00
1.218373e+00
1.240480e+00
1.261637e+00
1.281875e+00
1.301249e+00
1.319829e+00
1.337677e+00
1.354843e+00
1.371338e+00
1.387111e+00
1.402062e+00
1.416082e+00
1.429054e+00
1.440855e+00
1.451414e+00
1.460844e+00
1.469529e+00
1.478024e+00
1.486900e+00
1.496671e+00
1.507805e+00
1.520692e+00
1.535643e+00
1.552870e+00
1.572441e+00
1.594277e+00
1.618206e+00
1.643985e+00
1.671239e+00
1.699389e+00
1.727687e+00
1.755345e+00
1.781691e+00
1.806243e+00
1.828704e+00
1.848927e+00
1.866886e+00
1.882673e+00
1.896516e+00
1.908782e+00
1.919939e+00
1.930501e+00
1.941023e+00
1.952122e+00
1.964445e+00
1.978588e+00
1.995028e+00
2.014082e+00
2.035907e+00
2.060539e+00
2.087926e+00
2.117902e+00
2.150162e+00
2.184276e+00
2.219743e+00
2.256005e+00
2.292449e+00
2.328447e+00
2.363440e+00
2.397007e+00
2.428863e+00
2.458823e+00
2.486742e+00
2.512495e+00
2.535973e+00
2.557097e+00
2.575825e+00
2.592145e+00
2.606118e+00
2.617920e+00
2.627833e+00
2.636190e+00
2.643308e+00
2.649458e+00
2.654907e+00
2.659991e+00
2.665090e+00
2.670549e+00
2.676608e+00
2.683394e+00
2.691001e+00
2.699571e+00
2.709312e+00
2.720485e+00
2.733335e+00
2.747897e+00
2.763879e+00
2.780728e+00
2.797829e+00
2.814675e+00
2.830928e+00
2.846415e+00
2.861096e+00
2.874996e+00
2.888163e+00
2.900638e+00
2.912428e+00
2.923526e+00
2.933927e+00
2.943645e+00
2.952729e+00
2.961231e+00
2.969104e+00
2.976182e+00
2.982245e+00
2.987055e+00
2.990366e+00
2.991922e+00
2.991446e+00
2.988646e+00
2.983302e+00
2.975332e+00
2.964768e+00
2.951703e+00
2.936351e+00
2.919199e+00
2.901029e+00
2.882735e+00
2.865105e+00
2.848719e+00
2.833925e+00
2.820887e+00
2.809672e+00
2.800306e+00
2.792812e+00
2.787207e+00
2.783467e+00
2.781527e+00
2.781296e+00
2.782659e+00
2.785482e+00
2.789608e+00
2.794841e+00
2.800925e+00
2.807595e+00
2.814660e+00
2.822045e+00
2.829755e+00
2.837824e+00
2.846267e+00
2.855076e+00
2.864224e+00
2.873670e+00
2.883333e+00
2.893065e+00
2.902680e+00
2.912004e+00
2.920904e+00
2.929294e+00
2.937127e+00
2.944356e+00
2.950907e+00
2.956688e+00
2.961672e+00
2.965954e+00
2.969752e+00
2.973320e+00
2.976903e+00
2.980732e+00
2.984994e+00
2.989761e+00
2.994966e+00
3.000436e+00
3.005920e+00
3.011122e+00
3.015749e+00
3.019534e+00
3.022267e+00
3.023817e+00
3.024118e+00
3.023145e+00
3.020864e+00
3.017202e+00
3.012021e+00
3.005151e+00
2.996467e+00
2.985917e+00
2.973522e+00
2.959395e+00
2.943686e+00
2.926527e+00
2.908040e+00
2.888369e+00
2.867670e+00
2.846082e+00
2.823694e+00
2.800527e+00
2.776561e+00
2.751795e+00
2.726314e+00
2.700295e+00
2.673971e+00
2.647568e+00
2.621262e+00
2.595195e+00
2.569527e+00
2.544462e+00
2.520262e+00
2.497260e+00
2.475836e+00
2.456378e+00
2.439225e+00
2.424637e+00
2.412732e+00
2.403443e+00
2.396525e+00
2.391632e+00
2.388416e+00
2.386622e+00
2.386164e+00
2.387108e+00
2.389583e+00
2.393737e+00
2.399758e+00
2.407882e+00
2.418370e+00
2.431485e+00
2.447441e+00
2.466343e+00
2.488123e+00
2.512511e+00
2.539022e+00
2.567019e+00
2.595827e+00
2.624861e+00
2.653680e+00
2.681970e+00
2.709509e+00
2.736124e+00
2.761659e+00
2.785990e+00
2.809052e+00
2.830831e+00
2.851297e+00
2.870357e+00
2.887864e+00
2.903672e+00
2.917688e+00
2.929873e+00
2.940182e+00
2.948486e+00
2.954568e+00
2.958173e+00
2.959057e+00
2.956999e+00
2.951808e+00
2.943321e+00
2.931425e+00
2.916072e+00
2.897304e+00
2.875264e+00
2.850205e+00
2.822485e+00
2.792518e+00
2.760669e+00
2.727192e+00
2.692233e+00
2.655884e+00
2.618232e+00
2.579404e+00
2.539586e+00
2.499052e+00
2.458170e+00
2.417349e+00
2.376982e+00
2.337413e+00
2.298898e+00
2.261604e+00
2.225621e+00
2.190973e+00
2.157614e+00
2.125362e+00
2.093861e+00
2.062632e+00
2.031177e+00
1.999069e+00
1.965991e+00
1.931748e+00
1.896258e+00
1.859571e+00
1.821905e+00
1.783667e+00
1.745403e+00
1.707684e+00
1.671019e+00
1.635814e+00
1.602390e+00
1.570979e+00
1.541724e+00
1.514725e+00
1.490065e+00
1.467783e+00
1.447842e+00
1.430124e+00
1.414448e+00
1.400623e+00
1.388517e+00
1.378081e+00
1.369320e+00
1.362261e+00
1.356937e+00
1.353381e+00
1.351601e+00
1.351553e+00
1.353142e+00
1.356241e+00
1.360724e+00
1.366471e+00
1.373384e+00
1.381428e+00
1.390636e+00
1.401095e+00
1.412932e+00
1.426322e+00
1.441487e+00
1.458669e+00
1.478047e+00
1.499685e+00
1.523543e+00
1.549559e+00
1.577705e+00
1.608001e+00
1.640534e+00
1.675431e+00
1.712812e+00
1.752778e+00
1.795405e+00
1.840742e+00
1.888828e+00
1.939700e+00
1.993372e+00
2.049815e+00
2.108961e+00
2.170684e+00
2.234736e+00
2.300670e+00
2.367818e+00
2.435392e+00
2.502631e+00
2.568875e+00
2.633593e+00
2.696396e+00
2.757019e+00
2.815278e+00
2.871022e+00
2.924123e+00
2.974480e+00
3.022041e+00
3.066808e+00
3.108834e+00
3.148173e+00
3.184810e+00
3.218646e+00
3.249559e+00
3.277464e+00
3.302364e+00
3.324370e+00
3.343692e+00
3.360614e+00
3.375455e+00
3.388489e+00
3.399865e+00
3.409603e+00
3.417615e+00
3.423712e+00
3.427607e+00
3.428947e+00
3.427357e+00
3.422514e+00
3.414215e+00
3.402410e+00
3.387191e+00
3.368764e+00
3.347379e+00
3.323237e+00
3.296467e+00
3.267142e+00
3.235301e+00
3.200996e+00
3.164335e+00
3.125488e+00
3.084694e+00
3.042264e+00
2.998557e+00
2.953929e+00
2.908726e+00
2.863297e+00
2.817974e+00
2.773048e+00
2.728741e+00
2.685204e+00
2.642549e+00
2.600908e+00
2.560465e+00
2.521394e+00
2.483746e+00
2.447401e+00
2.412114e+00
2.377624e+00
2.343769e+00
2.310555e+00
2.278132e+00
2.246739e+00
2.216659e+00
2.188197e+00
2.161657e+00
2.137319e+00
2.115389e+00
2.095947e+00
2.078900e+00
2.063986e+00
2.050836e+00
2.039026e+00
2.028088e+00
2.017514e+00
2.006786e+00
1.995439e+00
1.983108e+00
1.969558e+00
1.954666e+00
1.938384e+00
1.920717e+00
1.901725e+00
1.881497e+00
1.860137e+00
1.837755e+00
1.814466e+00
1.790367e+00
1.765564e+00
1.740224e+00
1.714611e+00
1.689066e+00
1.663976e+00
1.639728e+00
1.616669e+00
1.595078e+00
1.575166e+00
1.557104e+00
1.541031e+00
1.526996e+00
1.514930e+00
1.504648e+00
1.495852e+00
1.488159e+00
1.481139e+00
1.474366e+00
1.467480e+00
1.460229e+00
1.452462e+00
1.444106e+00
1.435124e+00
1.425464e+00
1.415053e+00
1.403826e+00
1.391732e+00
1.378705e+00
1.364655e+00
1.349479e+00
1.333054e+00
1.315236e+00
1.295901e+00
1.274980e+00
1.252425e+00
1.228199e+00
1.202251e+00
1.174529e+00
1.144974e+00
1.113554e+00
1.080258e+00
1.045072e+00
1.007961e+00
9.688927e-01
9.278613e-01
8.849394e-01
8.403697e-01
7.946272e-01
7.483802e-01
7.023683e-01
6.572858e-01
6.137391e-01
5.722525e-01
5.332758e-01
4.972028e-01
4.644062e-01
4.352452e-01
4.100342e-01
3.890100e-01
3.723137e-01
3.599787e-01
3.519446e-01
3.481092e-01
3.483679e-01
3.526199e-01
3.607745e-01
3.727560e-01
3.884832e-01
4.078591e-01
4.307828e-01
4.571635e-01
4.869316e-01
5.200397e-01
5.564555e-01
5.961703e-01
6.392161e-01
6.856515e-01
7.355032e-01
7.886775e-01
8.448692e-01
9.035340e-01
9.639517e-01
1.025322e+00
1.086852e+00
1.147844e+00
1.207755e+00
1.266192e+00
1.322888e+00
1.377646e+00
1.430271e+00
1.480533e+00
1.528207e+00
1.573126e+00
1.615214e+00
1.654471e+00
1.690940e+00
1.724630e+00
1.755488e+00
1.783432e+00
1.808388e+00
1.830285e+00
1.849035e+00
1.864513e+00
1.876549e+00
1.884955e+00
1.889546e+00
1.890170e+00
1.886723e+00
1.879154e+00
1.867450e+00
1.851635e+00
1.831785e+00
1.808024e+00
1.780515e+00
1.749435e+00
1.714963e+00
1.677267e+00
1.636536e+00
1.593008e+00
1.546955e+00
1.498636e+00
1.448285e+00
1.396112e+00
1.342297e+00
1.287003e+00
1.230398e+00
1.172642e+00
1.113888e+00
1.054305e+00
9.940756e-01
9.333944e-01
8.724958e-01
8.116625e-01
7.512278e-01
6.915930e-01
6.332209e-01
5.766078e-01
5.222639e-01
4.706811e-01
4.222855e-01
3.774154e-01
3.363192e-01
2.991398e-01
2.659066e-01
2.365640e-01
2.110059e-01
1.890887e-01
1.706348e-01
1.554302e-01
1.432122e-01
1.336739e-01
1.264951e-01
1.213706e-01
1.180286e-01
1.162507e-01
1.158847e-01
1.168503e-01
1.191443e-01
1.228405e-01
1.280815e-01
1.350593e-01
1.439762e-01
1.549932e-01
1.682018e-01
1.836284e-01
2.012496e-01
2.209912e-01
2.426785e-01
2.659627e-01
2.903120e-01
3.150962e-01
3.396831e-01
3.634814e-01
3.859599e-01
4.066720e-01
4.252711e-01
4.414979e-01
4.551503e-01
4.660620e-01
4.740977e-01
4.791560e-01
4.811757e-01
4.801417e-01
4.760640e-01
4.689405e-01
4.587342e-01
4.453741e-01
4.287850e-01
4.089140e-01
3.857225e-01
3.591645e-01
3.291841e-01
2.957402e-01
2.588215e-01
2.184441e-01
1.746749e-01
1.277017e-01
7.786833e-02
2.561078e-02
-2.863047e-02
-8.444158e-02
-1.414249e-01
-1.991792e-01
-2.572930e-01
-3.153644e-01
-3.730261e-01
-4.299517e-01
-4.858560e-01
-5.404965e-01
-5.936712e-01
-6.452222e-01
-6.950546e-01
-7.431401e-01
-7.894899e-01
-8.341147e-01
-8.769833e-01
-9.180078e-01
-9.570519e-01
-9.939344e-01
-1.028473e+00
-1.060577e+00
-1.090292e+00
-1.117766e+00
-1.143193e+00
-1.166762e+00
-1.188609e+00
-1.208809e+00
-1.227397e+00
-1.244386e+00
-1.259776e+00
-1.273561e+00
-1.285725e+00
-1.296236e+00
-1.305042e+00
-1.312060e+00
-1.317178e+00
-1.320279e+00
-1.321254e+00
-1.320009e+00
-1.316467e+00
-1.310573e+00
-1.302264e+00
-1.291461e+00
-1.278082e+00
-1.262076e+00
-1.243455e+00
-1.222290e+00
-1.198700e+00
-1.172869e+00
-1.145083e+00
-1.115735e+00
-1.085259e+00
-1.054064e+00
-1.022503e+00
-9.908705e-01
-9.593746e-01
-9.281027e-01
-8.970195e-01
-8.660191e-01
-8.349917e-01
-8.038614e-01
-7.725918e-01
-7.411791e-01
-7.096513e-01
-6.780846e-01
-6.466186e-01
-6.154579e-01
-5.848639e-01
-5.551468e-01
-5.266493e-01
-4.997182e-01
-4.746747e-01
-4.517925e-01
-4.312906e-01
-4.133453e-01
-3.981084e-01
-3.857105e-01
-3.762485e-01
-3.697646e-01
-3.662384e-01
-3.656039e-01
-3.677606e-01
-3.725585e-01
-3.797841e-01
-3.891687e-01
-4.004094e-01
-4.131987e-01
-4.272514e-01
-4.423208e-01
-4.582226e-01
-4.748738e-01
-4.923153e-01
-5.107015e-01
-5.302655e-01
-5.512658e-01
-5.739327e-01
-5.984434e-01
-6.249239e-01
-6.534532e-01
-6.840773e-01
-7.168184e-01
-7.516474e-01
-7.884539e-01
-8.270734e-01
-8.673357e-01
-9.090745e-01
-9.521105e-01
-9.962428e-01
-1.041248e+00
-1.086898e+00
-1.132987e+00
-1.179371e+00
-1.225983e+00
-1.272821e+00
-1.319906e+00
-1.367223e+00
-1.414697e+00
-1.462203e+00
-1.509568e+00
-1.556565e+00
-1.602939e+00
-1.648444e+00
-1.692863e+00
-1.735997e+00
-1.777674e+00
-1.817756e+00
-1.856152e+00
-1.892820e+00
-1.927752e+00
-1.960960e+00
-1.992465e+00
-2.022279e+00
-2.050388e+00
-2.076729e+00
-2.101191e+00
-2.123625e+00
-2.143858e+00
-2.161733e+00
-2.177143e+00
-2.190019e+00
-2.200303e+00
-2.207926e+00
-2.212836e+00
-2.215023e+00
-2.214532e+00
-2.211441e+00
-2.205826e+00
-2.197757e+00
-2.187331e+00
-2.174738e+00
-2.160294e+00
-2.144421e+00
-2.127556e+00
-2.110065e+00
-2.092195e+00
-2.074108e+00
-2.055933e+00
-2.037797e+00
-2.019840e+00
-2.002233e+00
-1.985170e+00
-1.968850e+00
-1.953470e+00
-1.939227e+00
-1.926321e+00
-1.914953e+00
-1.905317e+00
-1.897590e+00
-1.891927e+00
-1.888447e+00
-1.887243e+00
-1.888389e+00
-1.891954e+00
-1.897992e+00
-1.906521e+00
-1.917509e+00
-1.930862e+00
-1.946436e+00
-1.964062e+00
-1.983565e+00
-2.004774e+00
-2.027541e+00
-2.051732e+00
-2.077234e+00
-2.103956e+00
-2.131838e+00
-2.160819e+00
-2.190802e+00
-2.221663e+00
-2.253275e+00
-2.285531e+00
-2.318349e+00
-2.351667e+00
-2.385429e+00
-2.419585e+00
-2.454087e+00
-2.488877e+00
-2.523875e+00
-2.558953e+00
-2.593919e+00
-2.628513e+00
-2.662430e+00
-2.695351e+00
-2.726988e+00
-2.757119e+00
-2.785598e+00
-2.812348e+00
-2.837331e+00
-2.860527e+00
-2.881932e+00
-2.901567e+00
-2.919486e+00
-2.935789e+00
-2.950616e+00
-2.964143e+00
-2.976551e+00
-2.988008e+00
-2.998647e+00
-3.008536e+00
-3.017669e+00
-3.025997e+00
-3.033457e+00
-3.040002e+00
-3.045616e+00
-3.050313e+00
-3.054143e+00
-3.057195e+00
-3.059597e+00
-3.061537e+00
-3.063268e+00
-3.065092e+00
-3.067325e+00
-3.070261e+00
-3.074163e+00
-3.079250e+00
-3.085704e+00
-3.093689e+00
-3.103350e+00
-3.114796e+00
-3.128104e+00
-3.143320e+00
-3.160467e+00
-3.179560e+00
-3.200610e+00
-3.223629e+00
-3.248636e+00
-3.275647e+00
-3.304669e+00
-3.335694e+00
-3.368722e+00
-3.403739e+00
-3.440688e+00
-3.479421e+00
-3.519682e+00
-3.561127e+00
-3.603392e+00
-3.646138e+00
-3.689053e+00
-3.731865e+00
-3.774362e+00
-3.816395e+00
-3.857859e+00
-3.898666e+00
-3.938727e+00
-3.977981e+00
-4.016428e+00
-4.054130e+00
-4.091169e+00
-4.127596e+00
-4.163395e+00
-4.198475e+00
-4.232673e+00
-4.265775e+00
-4.297535e+00
-4.327702e+00
-4.356047e+00
-4.382376e+00
-4.406514e+00
-4.428306e+00
-4.447619e+00
-4.464355e+00
-4.478463e+00
-4.489947e+00
-4.498869e+00
-4.505342e+00
-4.509532e+00
-4.511651e+00
-4.511954e+00
-4.510737e+00
-4.508310e+00
-4.504983e+00
-4.501018e+00
-4.496616e+00
-4.491910e+00
-4.486971e+00
-4.481830e+00
-4.476488e+00
-4.470927e+00
-4.465105e+00
-4.458954e+00
-4.452395e+00
-4.445340e+00
-4.437705e+00
-4.429420e+00
-4.420435e+00
-4.410715e+00
-4.400242e+00
-4.389012e+00
-4.377033e+00
-4.364307e+00
-4.350829e+00
-4.336584e+00
-4.321556e+00
-4.305731e+00
-4.289127e+00
-4.271822e+00
-4.253965e+00
-4.235758e+00
-4.217418e+00
-4.199135e+00
-4.181066e+00
-4.163350e+00
-4.146081e+00
-4.129267e+00
-4.112843e+00
-4.096722e+00
-4.080833e+00
-4.065134e+00
-4.049601e+00
-4.034210e+00
-4.018959e+00
-4.003893e+00
-3.989119e+00
-3.974788e+00
-3.961063e+00
-3.948100e+00
-3.936032e+00
-3.924965e+00
-3.914985e+00
-3.906151e+00
-3.898471e+00
-3.891865e+00
-3.886130e+00
-3.880957e+00
-3.875973e+00
-3.870792e+00
-3.865067e+00
-3.858520e+00
-3.850965e+00
-3.842297e+00
-3.832486e+00
-3.821568e+00
-3.809652e+00
-3.796925e+00
-3.783655e+00
-3.770137e+00
-3.756651e+00
-3.743443e+00
-3.730699e+00
-3.718534e+00
-3.707000e+00
-3.696110e+00
-3.685848e+00
-3.676175e+00
-3.667036e+00
-3.658367e+00
-3.650105e+00
-3.642198e+00
-3.634623e+00
-3.627409e+00
-3.620625e+00
-3.614368e+00
-3.608737e+00
-3.603810e+00
-3.599636e+00
-3.596231e+00
-3.593582e+00
-3.591648e+00
-3.590357e+00
-3.589617e+00
-3.589320e+00
-3.589357e+00
-3.589626e+00
-3.590041e+00
-3.590533e+00
-3.591039e+00
-3.591486e+00
-3.591788e+00
-3.591843e+00
-3.591553e+00
-3.590835e+00
-3.589637e+00
-3.587947e+00
-3.585788e+00
-3.583211e+00
-3.580270e+00
-3.577006e+00
-3.573435e+00
-3.569547e+00
-3.565303e+00
-3.560630e+00
-3.555438e+00
-3.549627e+00
-3.543094e+00
-3.535737e+00
-3.527459e+00
-3.518186e+00
-3.507877e+00
-3.496521e+00
-3.484134e+00
-3.470750e+00
-3.456425e+00
-3.441247e+00
-3.425344e+00
-3.408883e+00
-3.392056e+00
-3.375055e+00
-3.358045e+00
-3.341146e+00
-3.324426e+00
-3.307896e+00
-3.291521e+00
-3.275223e+00
-3.258895e+00
-3.242400e+00
-3.225592e+00
-3.208321e+00
-3.190459e+00
-3.171902e+00
-3.152575e+00
-3.132430e+00
-3.111445e+00
-3.089627e+00
-3.067011e+00
-3.043648e+00
-3.019595e+00
-2.994908e+00
-2.969634e+00
-2.943802e+00
-2.917423e+00
-2.890489e+00
-2.862978e+00
-2.834857e+00
-2.806092e+00
-2.776655e+00
-2.746525e+00
-2.715694e+00
-2.684169e+00
-2.651976e+00
-2.619163e+00
-2.585798e+00
-2.551960e+00
-2.517741e+00
-2.483249e+00
-2.448592e+00
-2.413866e+00
-2.379138e+00
-2.344452e+00
-2.309840e+00
-2.275322e+00
-2.240893e+00
-2.206515e+00
-2.172091e+00
-2.137465e+00
-2.102428e+00
-2.066753e+00
-2.030227e+00
-1.992670e+00
-1.953943e+00
-1.913942e+00
-1.872598e+00
-1.829876e+00
-1.785768e+00
-1.740285e+00
-1.693451e+00
-1.645306e+00
-1.595909e+00
-1.545331e+00
-1.493650e+00
-1.440936e+00
-1.387241e+00
-1.332606e+00
-1.277057e+00
-1.220617e+00
-1.163307e+00
-1.105162e+00
-1.046230e+00
-9.865790e-01
-9.262975e-01
-8.654938e-01
-8.042901e-01
-7.428179e-01
-6.812150e-01
-6.196194e-01
-5.581641e-01
-4.969761e-01
-4.361741e-01
-3.758654e-01
-3.161444e-01
-2.570938e-01
-1.987884e-01
-1.412955e-01
-8.467245e-02
-2.895759e-02
2.583587e-02
7.972134e-02
1.327341e-01
1.849220e-01
2.363355e-01
2.870196e-01
3.370112e-01
3.863398e-01
4.350338e-01
4.831275e-01
5.306610e-01
5.776753e-01
6.242070e-01
6.702857e-01
7.159285e-01
7.611348e-01
8.058848e-01
8.501404e-01
8.938450e-01
9.369250e-01
9.792963e-01
1.020873e+00
1.061573e+00
1.101325e+00
1.140068e+00
1.177762e+00
1.214378e+00
1.249902e+00
1.284329e+00
1.317664e+00
1.349916e+00
1.381097e+00
1.411212e+00
1.440260e+00
1.468230e+00
1.495107e+00
1.520860e+00
1.545444e+00
1.568804e+00
1.590887e+00
1.611656e+00
1.631089e+00
1.649182e+00
1.665946e+00
1.681410e+00
1.695623e+00
1.708655e+00
1.720602e+00
1.731584e+00
1.741756e+00
1.751300e+00
1.760401e+00
1.769226e+00
1.777905e+00
1.786521e+00
1.795117e+00
1.803704e+00
1.812265e+00
1.820779e+00
1.829225e+00
1.837594e+00
1.845893e+00
1.854137e+00
1.862340e+00
1.870501e+00
1.878599e+00
1.886599e+00
1.894452e+00
1.902085e+00
1.909400e+00
1.916283e+00
1.922604e+00
1.928237e+00
1.933066e+00
1.936999e+00
1.939968e+00
1.941937e+00
1.942903e+00
1.942906e+00
1.942028e+00
1.940391e+00
1.938149e+00
1.935476e+00
1.932552e+00
1.929542e+00
1.926578e+00
1.923744e+00
1.921074e+00
1.918567e+00
1.916198e+00
1.913912e+00
1.911627e+00
1.909230e+00
1.906587e+00
1.903558e+00
1.900005e+00
1.895801e+00
1.890835e+00
1.885016e+00
1.878275e+00
1.870567e+00
1.861874e+00
1.852200e+00
1.841566e+00
1.830007e+00
1.817565e+00
1.804287e+00
1.790227e+00
1.775448e+00
1.760019e+00
1.744014e+00
1.727513e+00
1.710608e+00
1.693407e+00
1.676023e+00
1.658563e+00
1.641116e+00
1.623756e+00
1.606541e+00
1.589515e+00
1.572708e+00
1.556136e+00
1.539796e+00
1.523668e+00
1.507726e+00
1.491949e+00
1.476319e+00
1.460818e+00
1.445429e+00
1.430131e+00
1.414909e+00
1.399756e+00
1.384674e+00
1.369678e+00
1.354802e+00
1.340096e+00
1.325626e+00
1.311468e+00
1.297711e+00
1.284452e+00
1.271793e+00
1.259834e+00
1.248663e+00
1.238351e+00
1.228943e+00
1.220455e+00
1.212874e+00
1.206144e+00
1.200161e+00
1.194758e+00
1.189716e+00
1.184792e+00
1.179754e+00
1.174407e+00
1.168604e+00
1.162236e+00
1.155235e+00
1.147561e+00
1.139211e+00
1.130218e+00
1.120651e+00
1.110598e+00
1.100159e+00
1.089434e+00
1.078530e+00
1.067548e+00
1.056566e+00
1.045638e+00
1.034790e+00
1.024036e+00
1.013383e+00
1.002836e+00
9.923991e-01
9.820698e-01
9.718420e-01
9.617003e-01
