EVENT_NAME: EMILIA_2ND_SHOCK
EVENT_ID: IT-2012-0011
EVENT_DATE_YYYYMMDD: 20120529
EVENT_TIME_HHMMSS: 070002
EVENT_LATITUDE_DEGREE: 44.8417
EVENT_LONGITUDE_DEGREE: 11.0657
EVENT_DEPTH_KM: 8.1
HYPOCENTER_REFERENCE: INGV-CNT_Seismic_Bulletin
MAGNITUDE_W: 6.0
MAGNITUDE_W_REFERENCE: RCMT-INGV
MAGNITUDE_L: 5.8
MAGNITUDE_L_REFERENCE: INGV-CNT_Seismic_Bulletin
FOCAL_MECHANISM: TF
NETWORK: IV
STATION_CODE: MODE
STATION_NAME: MODENA
STATION_LATITUDE_DEGREE: 44.629700
STATION_LONGITUDE_DEGREE: 10.949200
STATION_ELEVATION_M: 41
LOCATION: 
SENSOR_DEPTH_M: 0.0
VS30_M/S: 
SITE_CLASSIFICATION_EC8: C*
MORPHOLOGIC_CLASSIFICATION: 
EPICENTRAL_DISTANCE_KM: 25.3
EARTHQUAKE_BACKAZIMUTH_DEGREE: 21.3
DATE_TIME_FIRST_SAMPLE_YYYYMMDD_HHMMSS: 20120529_065934.000
DATE_TIME_FIRST_SAMPLE_PRECISION: milliseconds
SAMPLING_INTERVAL_S: 0.005000
NDATA: 40001
DURATION_S: 200.005
STREAM: HNE
UNITS: cm/s
INSTRUMENT: sensor = Episensor FBA ES-T [Kinemetrics] | digitizer = Unknown [Unknown]
INSTRUMENT_ANALOG/DIGITAL: D
INSTRUMENTAL_FREQUENCY_HZ: 
INSTRUMENTAL_DAMPING: 
FULL_SCALE_G: 
N_BIT_DIGITAL_CONVERTER: 
PGV_CM/S: -4.038062
TIME_PGV_S: 45.770000
BASELINE_CORRECTION: BASELINE REMOVED
FILTER_TYPE: BUTTERWORTH
FILTER_ORDER: 2
LOW_CUT_FREQUENCY_HZ: 0.030
HIGH_CUT_FREQUENCY_HZ: 40.000
LATE/NORMAL_TRIGGERED: NT
DATABASE_VERSION: DYNA 1.0
HEADER_FORMAT: DYNA 1.2
DATA_TYPE: VELOCITY
PROCESSING: manual (Paolucci et al., 2011)
DATA_TIMESTAMP_YYYYMMDD_HHMMSS: 
DATA_LICENSE: CC-BY4_0 (http://creativecommons.org/licenses/by/4.0/)
DATA_CITATION: ESM working group (2015), European Strong-Motion database, version 0.1, Network Activity 3: Networking acceleration networks and SM data users. Project NERA (www.nera-eu.org)
DATA_CREATOR: ESM working group
ORIGINAL_DATA_MEDIATOR_CITATION: Orfeus - European Integrated Data Archive (EIDA) http://www.orfeus-eu.org/eida/
ORIGINAL_DATA_MEDIATOR: Orfeus - European Integrated Data Archive (EIDA)
ORIGINAL_DATA_CREATOR_CITATION: Data for this study comes from the Italian national seismic network operated by Istituto Nazionale di Geofisica e Vulcanologia and archived at the European Integrated Data Archive http://eida.rm.ingv.it/
ORIGINAL_DATA_CREATOR: network: IV (Italian National Seismic Network); owner: Istituto Nazionale di Geofisica e Vulcanologia
USER1: 
USER2: 
USER3: 
USER4: 
USER5: 
[...]
0.338715
0.343075
0.345211
0.344809
0.342050
0.337587
0.332451
0.327842
0.324796
0.323841
0.324904
0.327532
0.331181
0.335453
0.340098
0.344815
0.349042
0.351858
0.352150
0.349003
0.342082
0.331820
0.319257
0.305598
0.291931
0.279164
0.268067
0.259324
0.253549
0.251264
0.252799
0.258160
0.266950
0.278406
0.291517
0.305137
0.317960
0.328474
0.335322
0.337955
0.336930
0.333626
0.329642
0.326175
0.323899
0.323233
0.324443
0.327482
0.331991
0.337553
0.343925
0.351049
0.358739
0.366246
0.372360
0.376031
0.376884
0.375334
0.372257
0.368444
0.364399
0.360518
0.357280
0.355267
0.354979
0.356571
0.359785
0.364116
0.369064
0.374326
0.379803
0.385468
0.391266
0.397071
0.402644
0.407565
0.411297
0.413417
0.413947
0.413586
0.413487
0.414653
0.417533
0.421999
0.427583
0.433792
0.440248
0.446653
0.452786
0.458558
0.464007
0.469199
0.474196
0.479103
0.484110
0.489480
0.495492
0.502348
0.510091
0.518540
0.527222
0.535350
0.541945
0.546111
0.547343
0.545756
0.542081
0.537404
0.532794
0.528975
0.526314
0.525087
0.525663
0.528453
0.533628
0.540815
0.549178
0.557893
0.566504
0.574960
0.583330
0.591381
0.598487
0.603904
0.607080
0.607846
0.606389
0.603084
0.598353
0.592616
0.586257
0.579578
0.572675
0.565314
0.556954
0.546971
0.534936
0.520846
0.505142
0.488548
0.471942
0.456317
0.442668
0.431811
0.424199
0.419806
0.418134
0.418310
0.419188
0.419483
0.418025
0.414108
0.407728
0.399578
0.390782
0.382413
0.375065
0.368618
0.362399
0.355658
0.347992
0.339543
0.330874
0.322624
0.315301
0.309261
0.304701
0.301572
0.299485
0.297696
0.295363
0.291976
0.287594
0.282768
0.278258
0.274738
0.272749
0.272874
0.275767
0.281960
0.291619
0.304430
0.319777
0.337119
0.356115
0.376457
0.397685
0.419193
0.440446
0.461287
0.481872
0.502274
0.522204
0.541028
0.558015
0.572656
0.584782
0.594488
0.602082
0.608089
0.613126
0.617648
0.621748
0.625127
0.627302
0.627956
0.627131
0.625196
0.622649
0.619864
0.616955
0.613831
0.610374
0.606642
0.602889
0.599385
0.596231
0.593283
0.590304
0.587254
0.584481
0.582660
0.582501
0.584337
0.587993
0.593010
0.599021
0.606084
0.614632
0.625081
0.637443
0.651135
0.665040
0.677793
0.688167
0.695431
0.699475
0.700666
0.699574
0.696725
0.692568
0.687663
0.682894
0.679567
0.679239
0.683256
0.692175
0.705344
0.721119
0.737638
0.753470
0.767829
0.780396
0.790972
0.799488
0.806286
0.812061
0.817393
0.822338
0.826347
0.828596
0.828537
0.826150
0.821809
0.816048
0.809372
0.802159
0.794603
0.786635
0.777815
0.767358
0.754330
0.738007
0.718241
0.695534
0.670791
0.645034
0.619201
0.594097
0.570412
0.548584
0.528546
0.509687
0.491058
0.471648
0.450610
0.427432
0.402038
0.374831
0.346606
0.318296
0.290617
0.263876
0.238017
0.212764
0.187795
0.162888
0.137984
0.113160
0.088516
0.064127
0.040084
0.016529
-0.006333
-0.028257
-0.048994
-0.068272
-0.085783
-0.101283
-0.114777
-0.126515
-0.136809
-0.145882
-0.153847
-0.160832
-0.167166
-0.173430
-0.180358
-0.188644
-0.198727
-0.210602
-0.223728
-0.237142
-0.249734
-0.260514
-0.268767
-0.274156
-0.276791
-0.277317
-0.276958
-0.277341
-0.280051
-0.286112
-0.295556
-0.307378
-0.319877
-0.331098
-0.339201
-0.342653
-0.340313
-0.331625
-0.316883
-0.297283
-0.274656
-0.250989
-0.227874
-0.206193
-0.186084
-0.167097
-0.148455
-0.129331
-0.109125
-0.087663
-0.065284
-0.042719
-0.020799
-0.000188
0.018736
0.035820
0.050969
0.064173
0.075738
0.086410
0.097271
0.109383
0.123358
0.139269
0.156893
0.175933
0.196043
0.216773
0.237533
0.257803
0.277458
0.296816
0.316365
0.336517
0.357511
0.379432
0.402226
0.425489
0.448173
0.468605
0.484906
0.495482
0.499379
0.496341
0.486656
0.471107
0.451053
0.428389
0.405260
0.383563
0.364392
0.347805
0.332984
0.318601
0.303256
0.285808
0.265547
0.242207
0.215880
0.186935
0.155997
0.123896
0.091555
0.059805
0.029204
0.000094
-0.027173
-0.052143
-0.074383
-0.093646
-0.109936
-0.123408
-0.134172
-0.142306
-0.148070
-0.152022
-0.154958
-0.157704
-0.160882
-0.164788
-0.169420
-0.174497
-0.179466
-0.183526
-0.185715
-0.185116
-0.181117
-0.173573
-0.162790
-0.149300
-0.133555
-0.115778
-0.096059
-0.074556
-0.051651
-0.027912
-0.003904
0.019821
0.042544
0.063299
0.081025
0.094947
0.104974
0.111735
0.116250
0.119662
0.123156
0.127924
0.135020
0.145031
0.157689
0.171831
0.185789
0.197946
0.207244
0.213393
0.216799
0.218389
0.219428
0.221248
0.224900
0.230838
0.238760
0.247783
0.256862
0.265025
0.271349
0.274863
0.274566
0.269649
0.259828
0.245390
0.226899
0.204815
0.179224
0.149861
0.116374
0.078606
0.036767
-0.008474
-0.055987
-0.104227
-0.151381
-0.195668
-0.235701
-0.270688
-0.300433
-0.325303
-0.346210
-0.364528
-0.381883
-0.399716
-0.418777
-0.438918
-0.459295
-0.478761
-0.496318
-0.511425
-0.524091
-0.534776
-0.544150
-0.552901
-0.561602
-0.570586
-0.579770
-0.588479
-0.595356
-0.598582
-0.596383
-0.587483
-0.571386
-0.548416
-0.519561
-0.486237
-0.450018
-0.412371
-0.374443
-0.336925
-0.300065
-0.263778
-0.227832
-0.191981
-0.156023
-0.119836
-0.083422
-0.046967
-0.010897
0.024145
0.057405
0.088173
0.115962
0.140664
0.162607
0.182401
0.200613
0.217555
0.233280
0.247736
0.260992
0.273302
0.284981
0.296215
0.306927
0.316814
0.325557
0.333018
0.339317
0.344684
0.349199
0.352774
0.355413
0.357491
0.359867
0.363728
0.370218
0.380159
0.393968
0.411700
0.433141
0.457779
0.484633
0.512154
0.538318
0.561049
0.578852
0.591175
0.598366
0.601395
0.601481
0.599874
0.597804
0.596453
0.596912
0.600151
0.606984
0.617931
0.633033
0.651776
0.673203
0.696157
0.719578
0.742686
0.765022
0.786351
0.806484
0.825092
0.841578
0.855182
0.865269
0.871644
0.874731
0.875491
0.875106
0.874594
0.874490
0.874696
0.874539
0.872964
0.868855
0.861402
0.850422
0.836436
0.820467
0.803725
0.787305
0.772102
0.758897
0.748357
0.740904
0.736594
0.735152
0.736246
0.739920
0.746801
0.757954
0.774456
0.796815
0.824618
0.856516
0.890589
0.924949
0.958229
0.989818
1.019733
1.048267
1.075765
1.102597
1.129202
1.156081
1.183638
1.211912
1.240382
1.267967
1.293291
1.315173
1.333105
1.347523
1.359647
1.370976
1.382923
1.396687
1.413200
1.433039
1.456284
1.482462
1.510800
1.540713
1.572020
1.604805
1.639201
1.675259
1.712948
1.752232
1.792981
1.834759
1.876782
1.918096
1.957830
1.995366
2.030320
2.062345
2.090994
2.115710
2.135930
2.151228
2.161366
2.166233
2.165797
2.160112
2.149449
2.134464
2.116207
2.095914
2.074686
2.053206
2.031768
2.010582
1.989936
1.970082
1.950943
1.931821
1.911515
1.888783
1.862729
1.832967
1.799607
1.763148
1.724336
1.684007
1.642862
1.601270
1.559297
1.516962
1.474491
1.432436
1.391580
1.352671
1.316175
1.282126
1.250119
1.219429
1.189141
1.158291
1.126029
1.091834
1.055764
1.018653
0.982058
0.947938
0.918256
0.894643
0.878261
0.869839
0.869685
0.877649
0.893140
0.915248
0.942883
0.974878
1.009944
1.046536
1.082874
1.117192
1.148088
1.174846
1.197437
1.216230
1.231652
1.243993
1.253454
1.260354
1.265170
1.268366
1.270198
1.270572
1.269014
1.264721
1.256719
1.244127
1.226480
1.203979
1.177359
1.147478
1.115079
1.080886
1.045776
1.010820
0.976977
0.944589
0.913238
0.882065
0.850212
0.817153
0.782773
0.747209
0.710673
0.673345
0.635330
0.596693
0.557597
0.518510
0.480291
0.444103
0.411158
0.382366
0.358080
0.338006
0.321305
0.306863
0.293578
0.280563
0.267118
0.252514
0.235887
0.216338
0.193223
0.166458
0.136586
0.104581
0.071653
0.039106
0.008174
-0.020192
-0.045472
-0.067576
-0.086631
-0.102662
-0.115469
-0.124757
-0.130367
-0.132484
-0.131757
-0.129276
-0.126397
-0.124452
-0.124536
-0.127422
-0.133624
-0.143522
-0.157398
-0.175377
-0.197404
-0.223322
-0.252974
-0.286285
-0.323294
-0.364125
-0.408938
-0.457852
-0.510864
-0.567763
-0.628105
-0.691243
-0.756377
-0.822627
-0.889184
-0.955505
-1.021444
-1.087224
-1.153198
-1.219474
-1.285674
-1.350894
-1.413784
-1.472684
-1.525808
-1.571495
-1.608612
-1.637017
-1.657843
-1.673460
-1.687100
-1.702233
-1.721973
-1.748627
-1.783446
-1.826591
-1.877221
-1.933717
-1.993960
-2.055632
-2.116467
-2.174414
-2.227777
-2.275300
-2.316201
-2.350139
-2.377191
-2.397867
-2.413118
-2.424303
-2.433053
-2.441024
-2.449681
-2.460150
-2.473165
-2.489129
-2.508248
-2.530675
-2.556505
-2.585605
-2.617487
-2.651303
-2.686045
-2.720876
-2.755374
-2.789591
-2.823937
-2.858928
-2.894851
-2.931471
-2.967970
-3.003138
-3.035607
-3.064051
-3.087269
-3.104223
-3.114114
-3.116476
-3.111125
-3.097993
-3.077032
-3.048267
-3.011893
-2.968333
-2.918186
-2.862099
-2.800726
-2.734820
-2.665328
-2.593432
-2.520460
-2.447682
-2.376062
-2.306041
-2.237470
-2.169725
-2.101896
-2.033036
-1.962393
-1.889590
-1.814671
-1.737988
-1.659968
-1.580882
-1.500799
-1.419731
-1.337714
-1.254781
-1.170913
-1.086060
-1.000312
-0.914122
-0.828317
-0.743879
-0.661727
-0.582582
-0.506943
-0.435119
-0.367313
-0.303735
-0.244764
-0.191071
-0.143558
-0.103140
-0.070627
-0.046729
-0.032067
-0.027092
-0.031872
-0.045895
-0.068144
-0.097473
-0.132896
-0.173659
-0.219083
-0.268283
-0.320069
-0.373055
-0.425861
-0.477318
-0.526607
-0.573307
-0.617337
-0.658817
-0.697973
-0.735119
-0.770701
-0.805320
-0.839582
-0.873815
-0.907899
-0.941293
-0.973218
-1.002897
-1.029679
-1.053037
-1.072550
-1.087923
-1.098992
-1.105712
-1.108132
-1.106360
-1.100505
-1.090622
-1.076737
-1.058958
-1.037613
-1.013352
-0.987080
-0.959777
-0.932356
-0.905628
-0.880299
-0.856982
-0.836245
-0.818666
-0.804813
-0.795088
-0.789517
-0.787567
-0.788227
-0.790306
-0.792678
-0.794373
-0.794590
-0.792705
-0.788363
-0.781624
-0.773043
-0.763605
-0.754551
-0.747142
-0.742472
-0.741410
-0.744652
-0.752817
-0.766443
-0.785866
-0.811158
-0.842158
-0.878563
-0.920017
-0.966115
-1.016347
-1.070060
-1.126423
-1.184347
-1.242354
-1.298589
-1.350994
-1.397591
-1.436759
-1.467376
-1.488811
-1.500936
-1.504161
-1.499405
-1.487942
-1.471103
-1.449927
-1.424979
-1.396393
-1.364029
-1.327654
-1.287014
-1.241846
-1.191971
-1.137514
-1.079082
-1.017830
-0.955372
-0.893580
-0.834418
-0.779836
-0.731618
-0.691168
-0.659312
-0.636184
-0.621230
-0.613347
-0.611030
-0.612540
-0.616100
-0.620136
-0.623497
-0.625604
-0.626459
-0.626513
-0.626469
-0.627069
-0.628952
-0.632566
-0.638121
-0.645556
-0.654544
-0.664563
-0.675004
-0.685285
-0.694857
-0.703086
-0.709161
-0.712052
-0.710616
-0.703768
-0.690610
-0.670459
-0.642839
-0.607464
-0.564267
-0.513449
-0.455528
-0.391334
-0.321951
-0.248589
-0.172396
-0.094258
-0.014687
0.066160
0.148344
0.231946
0.316939
0.403165
0.490376
0.578287
0.666557
0.754674
0.841826
0.926800
1.008008
1.083630
1.151769
1.210603
1.258503
1.294133
1.316518
1.325060
1.319496
1.299818
1.266246
1.219248
1.159534
1.088021
1.005833
0.914329
0.815062
0.709652
0.599604
0.486156
0.370274
0.252791
0.134470
0.015968
-0.102179
-0.219521
-0.335656
-0.450191
-0.562729
-0.672843
-0.780038
-0.883714
-0.983194
-1.077793
-1.166789
-1.249334
-1.324479
-1.391368
-1.449437
-1.498511
-1.538671
-1.569971
-1.592303
-1.605483
-1.609455
-1.604485
-1.591185
-1.570360
-1.542824
-1.509267
-1.470243
-1.426247
-1.377737
-1.325068
-1.268381
-1.207506
-1.142027
-1.071494
-0.995597
-0.914305
-0.828021
-0.737759
-0.645204
-0.552593
-0.462413
-0.377059
-0.298704
-0.229315
-0.170468
-0.122951
-0.086613
-0.060575
-0.043624
-0.034579
-0.032313
-0.035561
-0.043030
-0.053831
-0.067783
-0.085376
-0.107511
-0.135158
-0.169189
-0.210379
-0.259287
-0.315998
-0.379916
-0.449727
-0.523612
-0.599607
-0.675865
-0.750772
-0.823060
-0.891917
-0.956967
-1.018082
-1.075095
-1.127563
-1.174818
-1.216246
-1.251356
-1.279609
-1.300266
-1.312421
-1.315244
-1.308324
-1.291796
-1.266195
-1.232201
-1.190387
-1.141144
-1.084786
-1.021720
-0.952609
-0.878398
-0.800248
-0.719496
-0.637695
-0.556589
-0.478031
-0.403893
-0.335941
-0.275651
-0.223991
-0.181337
-0.147594
-0.122449
-0.105639
-0.096992
-0.096299
-0.103275
-0.117653
-0.139215
-0.167732
-0.202935
-0.244575
-0.292534
-0.346913
-0.408064
-0.476520
-0.552858
-0.637469
-0.730247
-0.830346
-0.936296
-1.046423
-1.159098
-1.272679
-1.385413
-1.495440
-1.601066
-1.701159
-1.795276
-1.883470
-1.966073
-2.043582
-2.116565
-2.185540
-2.250806
-2.312277
-2.369475
-2.421696
-2.468257
-2.508742
-2.543102
-2.571616
-2.594762
-2.613072
-2.627059
-2.637206
-2.643901
-2.647317
-2.647337
-2.643566
-2.635463
-2.622558
-2.604658
-2.581984
-2.555206
-2.525351
-2.493617
-2.461144
-2.428900
-2.397698
-2.368283
-2.341425
-2.317937
-2.298623
-2.284294
-2.275847
-2.274342
-2.281001
-2.297096
-2.323731
-2.361688
-2.411362
-2.472761
-2.545542
-2.629056
-2.722401
-2.824482
-2.934063
-3.049755
-3.169927
-3.292610
-3.415413
-3.535529
-3.649820
-3.754962
-3.847624
-3.924673
-3.983393
-4.021662
-4.038062
-4.031817
-4.002609
-3.950432
-3.875541
-3.778406
-3.659687
-3.520253
-3.361298
-3.184544
-2.992445
-2.788106
-2.574955
-2.356467
-2.136009
-1.916705
-1.701250
-1.491697
-1.289328
-1.094831
-0.908708
-0.731536
-0.563989
-0.406751
-0.260442
-0.125668
-0.003162
0.106136
0.201136
0.280752
0.344119
0.390746
0.420556
0.433787
0.430827
0.412149
0.378353
0.330211
0.268639
0.194671
0.109427
0.014107
-0.090040
-0.201827
-0.320284
-0.444673
-0.574372
-0.708754
-0.847106
-0.988526
-1.131794
-1.275253
-1.416776
-1.553832
-1.683661
-1.803428
-1.910372
-2.002016
-2.076390
-2.132132
-2.168411
-2.184806
-2.181182
-2.157615
-2.114362
-2.051863
-1.970801
-1.872265
-1.757931
-1.630054
-1.491216
-1.343992
-1.190706
-1.033460
-0.874382
-0.715712
-0.559638
-0.408026
-0.262219
-0.123150
0.008296
0.131056
0.243890
0.345447
0.434299
0.508887
0.567465
0.608280
0.629954
0.631841
0.614211
0.578119
0.525018
0.456365
0.373375
0.277122
0.168913
0.050545
-0.075676
-0.207146
-0.341253
-0.475488
-0.607403
-0.734704
-0.855551
-0.968893
-1.074689
-1.173872
-1.268026
-1.358944
-1.448164
-1.536632
-1.624554
-1.711509
-1.796723
-1.879251
-1.958006
-2.031772
-2.099274
-2.159338
-2.211079
-2.253959
-2.287672
-2.312004
-2.326722
-2.331573
-2.326362
-2.310995
-2.285436
-2.249583
-2.203126
-2.145546
-2.076259
-1.994827
-1.901163
-1.795700
-1.679484
-1.554173
-1.421934
-1.285301
-1.147037
-1.010047
-0.877318
-0.751785
-0.636113
-0.532500
-0.442546
-0.367235
-0.306981
-0.261659
-0.230597
-0.212542
-0.205670
-0.207729
-0.216284
-0.228901
-0.243215
-0.256935
-0.267862
-0.273977
-0.273571
-0.265259
-0.247889
-0.220464
-0.182143
-0.132282
-0.070497
0.003321
0.089007
0.186144
0.294077
0.411920
0.538574
0.672748
0.813010
0.957888
1.105987
1.256044
1.406892
1.557415
1.706497
1.852995
1.995715
2.133438
2.264977
2.389285
2.505549
2.613187
2.711737
2.800737
2.879635
2.947796
3.004585
3.049489
3.082242
3.102851
3.111523
3.108542
3.094168
3.068674
3.032511
2.986431
2.931503
2.868994
2.800162
2.726070
2.647475
2.564757
2.477915
2.386606
2.290260
2.188280
2.080306
1.966424
1.847260
1.723906
1.597731
1.470251
1.343097
1.217995
1.096724
0.981003
0.872356
0.772009
0.680854
0.599420
0.527865
0.466043
0.413620
0.370167
0.335196
0.308164
0.288463
0.275429
0.268374
0.266610
0.269477
0.276387
0.286847
0.300391
0.316451
0.334316
0.353201
0.372370
0.391217
0.409244
0.425968
0.440901
0.453645
0.464020
0.472176
0.478599
0.484002
0.489138
0.494591
0.500650
0.507294
0.514199
0.520751
0.526089
0.529192
0.529025
0.524696
0.515519
0.500984
0.480743
0.454645
0.422761
0.385396
0.343075
0.296520
0.246662
0.194643
0.141766
0.089356
0.038606
-0.009590
-0.054718
-0.096653
-0.135571
-0.171785
-0.205579
-0.237076
-0.266156
-0.292430
-0.315238
-0.333674
-0.346663
-0.353097
-0.352009
-0.342722
-0.324916
-0.298621
-0.264224
-0.222511
-0.174666
-0.122204
-0.066837
-0.010304
0.045700
0.099555
0.149832
0.195521
0.236212
0.272166
0.304201
0.333456
0.361153
0.388416
0.416157
0.445017
0.475356
0.507225
0.540318
0.573906
0.606917
0.638152
0.666524
0.691232
0.711839
0.728262
0.740775
0.750007
0.756872
0.762402
0.767607
0.773365
0.780349
0.788971
0.799347
0.811293
0.824376
0.837985
0.851421
0.863965
0.874945
0.883823
0.890273
0.894248
0.896011
0.896128
0.895368
0.894571
0.894531
0.895946
0.899391
0.905305
0.913946
0.925329
0.939189
0.954957
0.971778
0.988555
1.004063
1.017102
1.026612
1.031731
1.031841
1.026582
1.015850
0.999746
0.978536
0.952630
0.922611
0.889265
0.853491
0.816101
0.777676
0.738522
0.698762
0.658493
0.617878
0.577125
0.536419
0.495837
0.455362
0.414976
0.374740
0.334825
0.295467
0.256870
0.219177
0.182504
0.146984
0.112772
0.079997
0.048680
0.018680
-0.010277
-0.038495
-0.066145
-0.093156
-0.119189
-0.143701
-0.166069
-0.185707
-0.202129
-0.214962
-0.223904
-0.228693
-0.229080
-0.224845
-0.215822
-0.201930
-0.183178
-0.159665
-0.131580
-0.099199
-0.062865
-0.022953
0.020172
0.066124
0.114410
0.164331
0.214937
0.265071
0.313495
0.359008
0.400540
0.437250
0.468620
0.494490
0.515000
0.530513
0.541515
0.548554
0.552186
0.552908
0.551090
0.546974
0.540726
0.532478
0.522341
0.510400
0.496745
0.481513
0.464959
0.447515
0.429826
0.412729
0.397183
0.384163
0.374535
0.368962
0.367843
0.371226
0.378720
0.389513
0.402485
0.416371
0.429915
0.441980
0.451626
0.458214
0.461535
0.461869
0.459951
0.456823
0.453619
0.451342
0.450699
0.452042
0.455414
0.460640
0.467436
0.475515
0.484658
0.494742
0.505716
0.517527
0.530044
0.543003
0.556011
0.568577
0.580192
0.590401
0.598854
0.605293
0.609470
0.611102
0.609859
0.605410
0.597489
0.585945
0.570742
0.551946
0.529694
0.504165
0.475567
0.444130
0.410105
0.373778
0.335494
0.295702
0.255005
0.214170
0.174091
0.135723
0.100002
0.067746
0.039545
0.015666
-0.003990
-0.019857
-0.032577
-0.042885
-0.051513
-0.059108
-0.066163
-0.072951
-0.079493
-0.085617
-0.091090
-0.095724
-0.099417
-0.102142
-0.103921
-0.104845
-0.105122
-0.105053
-0.104914
-0.104805
-0.104548
-0.103685
-0.101593
-0.097563
-0.090853
-0.080708
-0.066402
-0.047283
-0.022835
0.007303
0.043341
0.085330
0.133109
0.186234
0.243926
0.305101
0.368499
0.432810
0.496741
0.559032
0.618420
0.673703
0.723877
0.768261
0.806554
0.838822
0.865439
0.887049
0.904525
0.918880
0.931118
0.942110
0.952527
0.962830
0.973287
0.984003
0.994942
1.005998
1.017078
1.028145
1.039191
1.050193
1.061079
1.071719
1.081918
