EVENT_NAME: EMILIA_2ND_SHOCK
EVENT_ID: IT-2012-0011
EVENT_DATE_YYYYMMDD: 20120529
EVENT_TIME_HHMMSS: 070002
EVENT_LATITUDE_DEGREE: 44.8417
EVENT_LONGITUDE_DEGREE: 11.0657
EVENT_DEPTH_KM: 8.1
HYPOCENTER_REFERENCE: INGV-CNT_Seismic_Bulletin
MAGNITUDE_W: 6.0
MAGNITUDE_W_REFERENCE: RCMT-INGV
MAGNITUDE_L: 5.8
MAGNITUDE_L_REFERENCE: INGV-CNT_Seismic_Bulletin
FOCAL_MECHANISM: TF
NETWORK: IV
STATION_CODE: MODE
STATION_NAME: MODENA
STATION_LATITUDE_DEGREE: 44.629700
STATION_LONGITUDE_DEGREE: 10.949200
STATION_ELEVATION_M: 41
LOCATION: 
SENSOR_DEPTH_M: 0.0
VS30_M/S: 
SITE_CLASSIFICATION_EC8: C*
MORPHOLOGIC_CLASSIFICATION: 
EPICENTRAL_DISTANCE_KM: 25.3
EARTHQUAKE_BACKAZIMUTH_DEGREE: 21.3
DATE_TIME_FIRST_SAMPLE_YYYYMMDD_HHMMSS: 20120529_065934.000
DATE_TIME_FIRST_SAMPLE_PRECISION: milliseconds
SAMPLING_INTERVAL_S: 0.005000
NDATA: 40001
DURATION_S: 200.005
STREAM: HNN
UNITS: cm/s^2
INSTRUMENT: sensor = Episensor FBA ES-T [Kinemetrics] | digitizer = Unknown [Unknown]
INSTRUMENT_ANALOG/DIGITAL: D
INSTRUMENTAL_FREQUENCY_HZ: 
INSTRUMENTAL_DAMPING: 
FULL_SCALE_G: 
N_BIT_DIGITAL_CONVERTER: 
PGA_CM/S^2: 21.448474
TIME_PGA_S: 46.255000
BASELINE_CORRECTION: BASELINE REMOVED
FILTER_TYPE: BUTTERWORTH
FILTER_ORDER: 2
LOW_CUT_FREQUENCY_HZ: 0.030
HIGH_CUT_FREQUENCY_HZ: 40.000
LATE/NORMAL_TRIGGERED: NT
DATABASE_VERSION: DYNA 1.0
HEADER_FORMAT: DYNA 1.2
DATA_TYPE: ACCELERATION
PROCESSING: manual (Paolucci et al., 2011)
DATA_TIMESTAMP_YYYYMMDD_HHMMSS: 
DATA_LICENSE: CC-BY4_0 (http://creativecommons.org/licenses/by/4.0/)
DATA_CITATION: ESM working group (2015), European Strong-Motion database, version 0.1, Network Activity 3: Networking acceleration networks and SM data users. Project NERA (www.nera-eu.org)
DATA_CREATOR: ESM working group
ORIGINAL_DATA_MEDIATOR_CITATION: Orfeus - European Integrated Data Archive (EIDA) http://www.orfeus-eu.org/eida/
ORIGINAL_DATA_MEDIATOR: Orfeus - European Integrated Data Archive (EIDA)
ORIGINAL_DATA_CREATOR_CITATION: Data for this study comes from the Italian national seismic network operated by Istituto Nazionale di Geofisica e Vulcanologia and archived at the European Integrated Data Archive http://eida.rm.ingv.it/
ORIGINAL_DATA_CREATOR: network: IV (Italian National Seismic Network); owner: Istituto Nazionale di Geofisica e Vulcanologia
USER1: 
USER2: 
USER3: 
USER4: 
USER5: 
[...]
-0.169489
-0.124033
-0.048494
0.047976
0.139878
0.200736
0.212606
0.157190
0.012321
-0.223422
-0.510478
-0.789469
-1.011452
-1.148198
-1.191960
-1.151041
-1.044492
-0.892255
-0.701065
-0.451006
-0.099456
0.374440
0.932275
1.498403
2.000379
2.392339
2.656885
2.777044
2.712454
2.413750
1.851824
1.045209
0.076217
-0.921436
-1.791027
-2.396900
-2.660990
-2.566292
-2.150213
-1.498059
-0.730301
0.031426
0.698640
1.226031
1.606453
1.852370
1.981520
2.018651
1.992545
1.911158
1.747558
1.476868
1.119071
0.739437
0.422504
0.226568
0.150967
0.152150
0.175544
0.181821
0.163127
0.140646
0.151637
0.226537
0.374574
0.595993
0.891545
1.242124
1.589088
1.853480
1.974351
1.945038
1.817427
1.635369
1.376061
0.982623
0.426839
-0.252306
-0.947516
-1.542545
-1.968703
-2.201542
-2.238771
-2.090655
-1.778837
-1.335518
-0.799937
-0.212893
0.384603
0.943103
1.401420
1.706644
1.839905
1.827477
1.732130
1.609974
1.468857
1.270107
0.960599
0.532412
0.059288
-0.351580
-0.628090
-0.765239
-0.820795
-0.861751
-0.914457
-0.966414
-0.987868
-0.954036
-0.863106
-0.745608
-0.661213
-0.667531
-0.785655
-0.988240
-1.207211
-1.369671
-1.434017
-1.400144
-1.303928
-1.194198
-1.105529
-1.037595
-0.950430
-0.796634
-0.560644
-0.275730
-0.015957
0.151036
0.206994
0.176143
0.094717
-0.022979
-0.193324
-0.414615
-0.623514
-0.724803
-0.650672
-0.412273
-0.117136
0.089511
0.097636
-0.130593
-0.552280
-1.072473
-1.581383
-1.982906
-2.207773
-2.202559
-1.928109
-1.397848
-0.710638
-0.019142
0.534111
0.887489
1.093094
1.249944
1.422467
1.617800
1.796630
1.904476
1.895463
1.731836
1.386228
0.872482
0.277134
-0.248942
-0.531046
-0.449354
-0.001612
0.714102
1.547235
2.344322
2.983420
3.380065
3.492854
3.343099
3.019376
2.626128
2.228494
1.848779
1.490754
1.175745
0.958903
0.892915
0.990716
1.233662
1.589603
2.009935
2.423532
2.752132
2.935409
2.952054
2.825195
2.596387
2.303742
1.994628
1.736347
1.588139
1.571865
1.681177
1.900192
2.204376
2.552501
2.882926
3.123415
3.222868
3.170049
2.963654
2.586275
2.033625
1.348214
0.606862
-0.102021
-0.680632
-1.025197
-1.060721
-0.782622
-0.271933
0.320943
0.838680
1.162004
1.182843
0.792902
-0.027103
-1.128044
-2.255683
-3.165405
-3.711834
-3.885990
-3.759530
-3.425462
-2.998275
-2.612082
-2.359620
-2.247406
-2.256269
-2.411556
-2.763273
-3.326726
-4.032823
-4.723902
-5.238882
-5.488714
-5.429970
-5.022768
-4.253059
-3.173846
-1.912616
-0.650106
0.431860
1.195776
1.556410
1.485831
1.037842
0.356081
-0.386492
-1.058295
-1.591696
-1.974505
-2.216102
-2.323726
-2.316695
-2.239213
-2.134974
-2.019378
-1.886640
-1.725014
-1.515502
-1.225762
-0.814451
-0.242409
0.511668
1.438129
2.494124
3.607096
4.686707
5.643350
6.411802
6.960366
7.264000
7.288020
7.028093
6.547115
5.943518
5.300008
4.661338
4.043287
3.478178
3.041035
2.799608
2.759756
2.875366
3.079229
3.299176
3.465692
3.521170
3.429706
3.179476
2.777402
2.236549
1.576052
0.853388
0.185817
-0.292193
-0.490796
-0.405529
-0.128928
0.189640
0.393225
0.347965
-0.034817
-0.779453
-1.833032
-3.075365
-4.341051
-5.454862
-6.269985
-6.700660
-6.742973
-6.463116
-5.967673
-5.360002
-4.711357
-4.079163
-3.530078
-3.129713
-2.920125
-2.904159
-3.038417
-3.238272
-3.386031
-3.347195
-3.004602
-2.324144
-1.399710
-0.406263
0.476599
1.124110
1.497152
1.622156
1.559794
1.383164
1.158326
0.922102
0.672362
0.396363
0.101712
-0.184351
-0.429478
-0.610100
-0.715371
-0.734092
-0.647629
-0.451220
-0.175120
0.125176
0.389360
0.568502
0.637502
0.603143
0.504470
0.393173
0.308659
0.264656
0.256283
0.300056
0.457175
0.785599
1.285636
1.903507
2.560759
3.184871
3.725108
4.141829
4.401023
4.498001
4.470290
4.355423
4.149632
3.826555
3.372448
2.798944
2.140780
1.443937
0.754992
0.116851
-0.434902
-0.875047
-1.180881
-1.305929
-1.176611
-0.760340
-0.126742
0.583641
1.219930
1.659143
1.820531
1.654795
1.140071
0.306240
-0.750096
-1.901622
-3.028239
-4.012726
-4.735213
-5.110259
-5.129973
-4.867260
-4.450375
-4.007290
-3.617766
-3.309961
-3.071825
-2.863271
-2.634132
-2.358995
-2.062257
-1.796785
-1.608635
-1.514884
-1.499552
-1.537318
-1.615184
-1.725100
-1.848100
-1.951777
-2.005242
-2.017363
-2.061345
-2.237324
-2.611945
-3.167207
-3.781995
-4.287266
-4.535715
-4.438976
-3.978321
-3.182873
-2.105403
-0.816476
0.592428
2.004094
3.276869
4.261667
4.822877
4.859419
4.332146
3.299917
1.933696
0.460133
-0.909282
-2.012375
-2.738526
-2.998479
-2.715042
-1.884110
-0.628139
0.845811
2.320267
3.620267
4.632995
5.277190
5.478387
5.198776
4.475401
3.416176
2.168150
0.865133
-0.408667
-1.599004
-2.650362
-3.501013
-4.096547
-4.414685
-4.475938
-4.313559
-3.943537
-3.374478
-2.629742
-1.755237
-0.811512
0.151205
1.107133
2.027673
2.848514
3.471178
3.793397
3.769539
3.449420
2.931134
2.288221
1.525303
0.579175
-0.601453
-1.981055
-3.449381
-4.868791
-6.121343
-7.135828
-7.873896
-8.308260
-8.416658
-8.186497
-7.629011
-6.794300
-5.778113
-4.715480
-3.748735
-2.997027
-2.550893
-2.469922
-2.764915
-3.381647
-4.212031
-5.119427
-5.969519
-6.649251
-7.056679
-7.095132
-6.702824
-5.882975
-4.697186
-3.248444
-1.675414
-0.150780
1.133572
1.999506
2.342507
2.177365
1.616453
0.823293
-0.033192
-0.813006
-1.417139
-1.791679
-1.925895
-1.845482
-1.596707
-1.233288
-0.817874
-0.424497
-0.125921
0.028499
0.037572
-0.043141
-0.137641
-0.194193
-0.205381
-0.207681
-0.253343
-0.378500
-0.585890
-0.841051
-1.091455
-1.293282
-1.433808
-1.536259
-1.627212
-1.706825
-1.760335
-1.778618
-1.758040
-1.689512
-1.549196
-1.301699
-0.926197
-0.434037
0.152838
0.821522
1.547139
2.271647
2.925563
3.457894
3.838026
4.042159
4.040599
3.807965
3.377527
2.875120
2.458208
2.239634
2.269105
2.542912
3.021536
3.641653
4.322503
4.982884
5.581386
6.138541
6.689177
7.227469
7.707355
8.072114
8.293445
8.389528
8.389168
8.292479
8.075338
7.712764
7.200948
6.565161
5.840265
5.052028
4.224093
3.390340
2.594855
1.888788
1.332041
0.991132
0.917502
1.118536
1.538068
2.061695
2.570919
2.987735
3.252677
3.295403
3.057559
2.537758
1.821299
1.068518
0.424751
-0.055188
-0.372169
-0.521064
-0.474941
-0.198892
0.319763
1.051525
1.934235
2.880480
3.763192
4.420981
4.734954
4.701649
4.416222
4.018014
3.634898
3.351566
3.225366
3.301079
3.587030
4.033848
4.561073
5.089836
5.540846
5.823162
5.841199
5.513747
4.799285
3.713882
2.326427
0.749195
-0.870257
-2.370035
-3.627251
-4.599902
-5.303787
-5.771802
-6.034584
-6.119695
-6.066160
-5.928439
-5.747523
-5.527390
-5.257770
-4.945648
-4.619114
-4.315377
-4.061081
-3.858682
-3.692160
-3.538259
-3.376467
-3.200459
-3.032252
-2.925291
-2.935674
-3.092459
-3.397983
-3.840609
-4.405186
-5.072523
-5.801298
-6.518444
-7.144076
-7.614810
-7.868462
-7.820687
-7.368411
-6.416412
-4.928657
-2.965195
-0.657490
1.836033
4.364690
6.804120
9.049309
11.004622
12.587802
13.741914
14.451061
14.751593
14.726327
14.487931
14.149417
13.796515
13.478340
13.209876
12.986384
12.793485
12.600981
12.361058
12.033042
11.609363
11.111606
10.567160
9.975290
9.296613
8.505408
7.638929
6.774742
5.981942
5.285768
4.659461
4.062182
3.473973
2.887343
2.295320
1.712623
1.197841
0.835300
0.698256
0.812043
1.136963
1.596814
2.110749
2.594132
2.952879
3.097409
2.966679
2.550607
1.899240
1.099374
0.243370
-0.590972
-1.349043
-1.990351
-2.475617
-2.760293
-2.797170
-2.554387
-2.032153
-1.261359
-0.294680
0.801213
1.945476
3.030694
3.920435
4.484551
4.640367
4.369580
3.720352
2.795482
1.737141
0.705208
-0.154915
-0.758634
-1.108428
-1.252045
-1.228762
-1.054831
-0.735355
-0.296612
0.193317
0.645358
0.973840
1.095155
0.928613
0.430542
-0.371370
-1.386979
-2.498776
-3.613580
-4.692808
-5.718741
-6.656137
-7.461182
-8.102265
-8.558824
-8.811450
-8.841683
-8.644825
-8.256286
-7.761231
-7.251984
-6.785210
-6.389627
-6.088016
-5.900744
-5.836218
-5.877038
-5.978617
-6.098800
-6.226068
-6.374353
-6.568490
-6.838457
-7.215681
-7.720351
-8.345380
-9.045654
-9.737102
-10.316387
-10.683605
-10.753465
-10.459015
-9.749763
-8.592645
-6.985276
-4.974519
-2.670770
-0.245353
2.112815
4.246534
6.052479
7.481378
8.510593
9.118734
9.288924
9.024177
8.363547
7.390104
6.219179
4.980701
3.802536
2.795196
2.037695
1.566041
1.371675
1.407751
1.606970
1.898269
2.212966
2.492186
2.705750
2.866643
3.016982
3.200840
3.436446
3.705900
3.986670
4.284312
4.625441
5.030545
5.482512
5.915334
6.254083
6.460316
6.539622
6.526852
6.456890
6.345635
6.202123
6.039410
5.856011
5.618248
5.279536
4.812278
4.227879
3.576852
2.914930
2.272240
1.660436
1.090268
0.577744
0.144594
-0.180632
-0.362089
-0.362205
-0.150030
0.288166
0.936909
1.740286
2.598454
3.387536
3.989008
4.317803
4.335654
4.031510
3.403615
2.474620
1.311712
0.020722
-1.275676
-2.469162
-3.486613
-4.279007
-4.805497
-5.035793
-4.961050
-4.603973
-4.022417
-3.298913
-2.527087
-1.802168
-1.213991
-0.841065
-0.744469
-0.961667
-1.501236
-2.341020
-3.428683
-4.687875
-6.029531
-7.370120
-8.645109
-9.803023
-10.794962
-11.572546
-12.093103
-12.330999
-12.282945
-11.954231
-11.344494
-10.452407
-9.288755
-7.889406
-6.321004
-4.669116
-3.021882
-1.458173
-0.040604
1.184734
2.187669
2.955039
3.490351
3.806136
3.913042
3.810067
3.481841
2.913033
2.105039
1.082992
-0.101070
-1.366478
-2.606496
-3.705251
-4.560767
-5.107267
-5.327346
-5.238648
-4.875752
-4.281972
-3.504676
-2.588949
-1.573512
-0.496795
0.594891
1.645253
2.591503
3.375064
3.950848
4.287210
4.364002
4.173720
3.721347
3.018227
2.079175
0.934376
-0.356853
-1.705878
-3.006125
-4.159240
-5.097736
-5.784104
-6.199772
-6.331565
-6.164034
-5.687742
-4.913234
-3.882662
-2.672502
-1.375685
-0.079788
1.145995
2.257938
3.239202
4.100239
4.876781
5.621599
6.381929
7.177336
7.994429
8.790746
9.508119
10.089985
10.499941
10.731636
10.794207
10.693277
10.426751
9.994015
9.418330
8.756519
8.068532
7.389040
6.742075
6.162976
5.691184
5.348776
5.120888
4.952789
4.781322
4.562705
4.264200
3.856977
3.344651
2.787151
2.268414
1.844497
1.509485
1.196738
0.843574
0.447254
0.039200
-0.365284
-0.791167
-1.297854
-1.934025
-2.699842
-3.562191
-4.486724
-5.456800
-6.474473
-7.533988
-8.594342
-9.576000
-10.373746
-10.885489
-11.035959
-10.777356
-10.088442
-8.991495
-7.571938
-5.974078
-4.368709
-2.880952
-1.540178
-0.323102
0.786961
1.794181
2.713588
3.599162
4.543957
5.619079
6.823716
8.117648
9.463680
10.812903
12.076503
13.134565
13.869977
14.214741
14.170961
13.765322
13.008108
11.923076
10.585281
9.102120
7.573962
6.072288
4.643465
3.346909
2.277224
1.517493
1.085159
0.930944
0.962513
1.072719
1.157145
1.111084
0.829808
0.234368
-0.700369
-1.942479
-3.414632
-5.018650
-6.658160
-8.246296
-9.705395
-10.960537
-11.935244
-12.558726
-12.780199
-12.588581
-12.025766
-11.176009
-10.144979
-9.032844
-7.908380
-6.794325
-5.668927
-4.501211
-3.289718
-2.072885
-0.914385
0.141770
1.102048
1.993945
2.828124
3.597567
4.288725
4.882747
5.354417
5.684236
5.879482
5.994777
6.129833
6.374321
6.760202
7.280469
7.916681
8.625751
9.324664
9.919367
10.345130
10.580256
10.632803
10.498679
10.145135
9.573449
8.870505
8.153677
7.494733
6.905518
6.359048
5.825302
5.288622
4.721081
4.064543
3.271432
2.345101
1.317698
0.213314
-0.957886
-2.187974
-3.456236
-4.727055
-5.972494
-7.183306
-8.332288
-9.342178
-10.115801
-10.583476
-10.724025
-10.558734
-10.111632
-9.379000
-8.349757
-7.036532
-5.482733
-3.757096
-1.943154
-0.127394
1.614168
3.224082
4.656971
5.874246
6.855046
7.608795
8.170197
8.580189
8.855918
8.978802
8.934557
8.751604
8.485424
8.189973
7.912576
7.699039
7.592564
7.623419
7.789220
8.045226
8.326882
8.573316
8.725259
8.722320
8.522302
8.115436
7.502117
6.669062
5.600154
4.297752
2.789265
1.117698
-0.685262
-2.613223
-4.655608
-6.770891
-8.905589
-11.015026
-13.043397
-14.901851
-16.489796
-17.731964
-18.601324
-19.115135
-19.287287
-19.095037
-18.517702
-17.579632
-16.332264
-14.820958
-13.082593
-11.161853
-9.131572
-7.094648
-5.144585
-3.333388
-1.694221
-0.268644
0.909475
1.838997
2.550849
3.098009
3.551060
3.995350
4.517120
5.177082
5.972257
6.820031
7.607867
8.244258
8.652491
8.753993
8.486496
7.832978
6.831448
5.566063
4.135683
2.629451
1.133836
-0.263590
-1.505543
-2.592236
-3.557912
-4.434181
-5.236389
-5.970928
-6.663999
-7.378695
-8.185502
-9.125208
-10.200670
-11.385706
-12.643412
-13.935815
-15.210492
-16.391176
-17.400213
-18.185591
-18.724129
-19.011204
-19.044127
-18.813391
-18.314253
-17.556244
-16.550253
-15.295576
-13.789565
-12.040228
-10.061636
-7.864067
-5.453040
-2.838173
-0.053376
2.830888
5.725270
8.543465
11.205577
13.633716
15.751289
17.491022
18.818563
19.755074
20.376389
20.791763
21.094477
21.319386
21.448475
21.440046
21.267988
20.943342
20.488495
19.909288
19.203377
18.373379
17.413282
16.289320
14.944826
13.326981
11.436109
9.354398
7.203522
5.094051
3.120875
1.371787
-0.083812
-1.217844
-2.063732
-2.718682
-3.305274
-3.930540
-4.674457
-5.585955
-6.671497
-7.890671
-9.182688
-10.496251
-11.793130
-13.034947
-14.160006
-15.075556
-15.693622
-15.967096
-15.884147
-15.449903
-14.680707
-13.608601
-12.290721
-10.809541
-9.249006
-7.671979
-6.123457
-4.638942
-3.241753
-1.941450
-0.748714
0.309313
1.193248
1.866419
2.313832
2.550401
2.602781
2.494262
2.259043
1.955633
1.646591
1.370640
1.134312
0.918065
0.694836
0.441618
0.128032
-0.291513
-0.855426
-1.570541
-2.415916
-3.357503
-4.359169
-5.386116
-6.398800
-7.351903
-8.211389
-8.968289
-9.625929
-10.182607
-10.631419
-10.969391
-11.208549
-11.378767
-11.512163
-11.629958
-11.750747
-11.898793
-12.089898
-12.312457
-12.524422
-12.664556
-12.679722
-12.543655
-12.242076
-11.754788
-11.063771
-10.170562
-9.105448
-7.924158
-6.684702
-5.426360
-4.172017
-2.937878
-1.738422
-0.586841
0.507588
1.540269
2.506548
3.398238
4.209041
4.941968
5.611105
6.237410
6.835206
7.398607
7.898139
8.285764
8.512944
8.550886
8.402370
8.102476
7.698669
7.229572
6.719225
6.178658
5.610121
5.009756
4.368132
3.674098
2.927459
2.148541
1.370103
0.624710
-0.061278
-0.668181
-1.178025
-1.570859
-1.828334
-1.939181
-1.902290
-1.728031
-1.437074
-1.056722
-0.613261
-0.126349
0.387647
0.910918
1.424800
1.912660
2.362520
2.768714
3.132734
3.465083
3.787819
4.131700
4.520353
4.958123
5.440281
5.967881
6.550050
7.196946
7.904677
8.645053
9.372835
10.034689
10.568694
10.907007
10.998429
10.834055
10.456004
9.951366
9.425042
8.972211
8.666697
8.554438
8.645373
8.907324
9.273119
9.656857
9.979810
10.191074
10.264852
10.188956
9.953358
9.543896
8.946130
8.150030
7.149556
5.943350
4.543742
2.985399
1.322826
-0.377519
-2.047821
-3.628173
-5.071030
-6.343536
-7.427359
-8.316188
-9.009879
-9.511657
-9.834628
-10.005813
-10.055256
-10.004200
-9.867567
-9.662976
-9.418860
-9.174571
-8.964067
-8.802016
-8.691693
-8.638586
-8.654912
-8.756160
-8.949127
-9.222193
-9.548629
-9.894631
-10.226292
-10.513088
-10.725607
-10.834088
-10.813239
-10.646820
-10.325509
-9.844302
-9.206187
-8.427758
-7.540571
-6.585759
-5.597704
-4.591803
-3.572552
-2.545040
-1.515670
-0.489907
0.524078
1.508429
2.429543
3.237846
3.881123
4.319065
4.528596
4.506017
4.270036
3.863714
3.349586
2.800809
2.288204
1.867314
1.570286
1.403070
1.352179
1.391811
1.485001
1.585117
1.644973
1.627076
1.506997
1.271219
0.909945
0.414945
-0.207629
-0.926642
-1.695668
-2.466466
-3.191534
-3.823016
-4.316727
-4.641242
-4.790848
-4.792152
-4.690471
-4.532295
-4.357057
-4.194111
-4.064022
-3.983181
-3.973575
-4.068654
-4.303131
-4.698077
-5.250402
-5.927866
-6.673410
-7.411927
-8.057922
-8.526143
-8.746978
-8.674367
-8.271022
-7.494926
-6.313300
-4.727074
-2.789773
-0.611532
1.667567
3.907444
5.980226
7.777107
9.219566
10.269167
10.923775
11.206795
11.152940
10.798764
10.186982
9.372621
8.420229
7.396347
6.359750
5.352955
4.399722
3.508032
2.681932
1.932745
1.280058
0.747961
0.359260
0.131035
0.072790
0.182483
0.437387
0.790424
1.186808
1.584053
1.959311
2.308212
2.636370
2.953181
3.274139
3.620548
4.004954
4.416923
4.825346
5.186383
5.448959
5.557976
5.458014
5.100793
4.460646
3.549021
2.416993
1.150850
-0.141000
-1.345297
-2.364487
-3.132226
-3.611749
-3.788982
-3.668225
-3.271486
-2.641490
-1.842208
-0.949599
-0.039769
0.819404
1.573026
2.179423
2.611549
2.863145
2.952156
2.910076
2.765590
2.529933
2.191237
1.729634
1.134944
0.412529
-0.415150
-1.305924
-2.196564
-3.010034
-3.668025
-4.108160
-4.298201
-4.237480
-3.952610
-3.488662
-2.898537
-2.230877
-1.521047
-0.792540
-0.062025
0.655603
1.343479
1.981870
2.549498
3.028147
3.406527
3.678415
3.837532
3.870625
3.753871
3.459784
2.967013
2.268319
1.377339
0.333424
-0.797638
-1.934334
-2.994472
-3.910543
-4.641668
-5.175994
-5.528433
-5.732647
-5.829679
-5.853624
-5.822135
-5.742830
-5.623017
-5.471847
-5.296345
-5.092456
-4.841104
-4.520753
-4.122230
-3.652247
-3.130244
-2.581455
-2.033678
-1.523994
-1.103801
-0.828358
-0.740069
-0.853649
-1.149606
-1.586650
-2.117390
-2.695350
-3.277093
-3.822233
-4.295165
-4.670962
-4.940552
-5.109078
-5.190955
-5.203877
-5.165579
-5.097336
-5.027035
-4.984041
-4.990512
-5.053826
-5.164664
-5.306989
-5.467064
-5.628899
-5.766122
-5.840258
-5.805406
-5.621350
-5.265402
-4.733762
-4.039373
-3.210478
-2.289396
-1.328030
-0.379764
0.513143
1.328382
2.057763
2.697508
3.244250
3.697643
4.071144
4.398177
4.719353
5.066296
5.456292
5.893471
6.374137
6.890184
7.426220
7.956790
8.450680
8.878244
9.218136
9.460424
9.601166
9.635046
9.551903
9.338074
8.984525
8.492135
7.864829
7.102665
6.207232
5.190440
4.077738
2.906337
1.718548
0.558063
-0.524858
-1.471740
-2.231762
-2.778786
-3.111981
-3.248514
-3.213413
-3.032494
-2.733049
-2.345328
-1.900279
-1.428412
-0.964824
-0.552090
-0.230874
-0.028448
0.044521
-0.008397
-0.176781
-0.449345
-0.813162
-1.251757
-1.746855
-2.281234
-2.839216
-3.404460
-3.955025
-4.461910
-4.898571
-5.250873
-5.515605
-5.691705
-5.767979
-5.720134
-5.532146
-5.216108
-4.803815
-4.329359
-3.819376
-3.292243
-2.767397
-2.270101
-1.818017
-1.407747
-1.020122
-0.631435
-0.220876
0.223791
0.699574
1.183303
1.634849
2.004574
2.243439
2.310542
2.173326
