EVENT_NAME: EMILIA_2ND_SHOCK
EVENT_ID: IT-2012-0011
EVENT_DATE_YYYYMMDD: 20120529
EVENT_TIME_HHMMSS: 070002
EVENT_LATITUDE_DEGREE: 44.8417
EVENT_LONGITUDE_DEGREE: 11.0657
EVENT_DEPTH_KM: 8.1
HYPOCENTER_REFERENCE: INGV-CNT_Seismic_Bulletin
MAGNITUDE_W: 6.0
MAGNITUDE_W_REFERENCE: RCMT-INGV
MAGNITUDE_L: 5.8
MAGNITUDE_L_REFERENCE: INGV-CNT_Seismic_Bulletin
FOCAL_MECHANISM: TF
NETWORK: IV
STATION_CODE: MODE
STATION_NAME: MODENA
STATION_LATITUDE_DEGREE: 44.629700
STATION_LONGITUDE_DEGREE: 10.949200
STATION_ELEVATION_M: 41
LOCATION: 
SENSOR_DEPTH_M: 0.0
VS30_M/S: 
SITE_CLASSIFICATION_EC8: C*
MORPHOLOGIC_CLASSIFICATION: 
EPICENTRAL_DISTANCE_KM: 25.3
EARTHQUAKE_BACKAZIMUTH_DEGREE: 21.3
DATE_TIME_FIRST_SAMPLE_YYYYMMDD_HHMMSS: 20120529_065934.000
DATE_TIME_FIRST_SAMPLE_PRECISION: milliseconds
SAMPLING_INTERVAL_S: 0.005000
NDATA: 40001
DURATION_S: 200.005
STREAM: HNE
UNITS: cm
INSTRUMENT: sensor = Episensor FBA ES-T [Kinemetrics] | digitizer = Unknown [Unknown]
INSTRUMENT_ANALOG/DIGITAL: D
INSTRUMENTAL_FREQUENCY_HZ: 
INSTRUMENTAL_DAMPING: 
FULL_SCALE_G: 
N_BIT_DIGITAL_CONVERTER: 
PGD_CM: -2.160481
TIME_PGD_S: 54.575000
BASELINE_CORRECTION: BASELINE REMOVED
FILTER_TYPE: BUTTERWORTH
FILTER_ORDER: 2
LOW_CUT_FREQUENCY_HZ: 0.030
HIGH_CUT_FREQUENCY_HZ: 40.000
LATE/NORMAL_TRIGGERED: NT
DATABASE_VERSION: DYNA 1.0
HEADER_FORMAT: DYNA 1.2
DATA_TYPE: DISPLACEMENT
PROCESSING: manual (Paolucci et al., 2011)
DATA_TIMESTAMP_YYYYMMDD_HHMMSS: 
DATA_LICENSE: CC-BY4_0 (http://creativecommons.org/licenses/by/4.0/)
DATA_CITATION: ESM working group (2015), European Strong-Motion database, version 0.1, Network Activity 3: Networking acceleration networks and SM data users. Project NERA (www.nera-eu.org)
DATA_CREATOR: ESM working group
ORIGINAL_DATA_MEDIATOR_CITATION: Orfeus - European Integrated Data Archive (EIDA) http://www.orfeus-eu.org/eida/
ORIGINAL_DATA_MEDIATOR: Orfeus - European Integrated Data Archive (EIDA)
ORIGINAL_DATA_CREATOR_CITATION: Data for this study comes from the Italian national seismic network operated by Istituto Nazionale di Geofisica e Vulcanologia and archived at the European Integrated Data Archive http://eida.rm.ingv.it/
ORIGINAL_DATA_CREATOR: network: IV (Italian National Seismic Network); owner: Istituto Nazionale di Geofisica e Vulcanologia
USER1: 
USER2: 
USER3: 
USER4: 
USER5: 
[...]
6.885833e-01
6.882660e-01
6.883115e-01
6.887167e-01
6.894763e-01
6.905820e-01
6.920229e-01
6.937848e-01
6.958506e-01
6.982000e-01
7.008096e-01
7.036533e-01
7.067026e-01
7.099273e-01
7.132960e-01
7.167770e-01
7.203390e-01
7.239525e-01
7.275907e-01
7.312302e-01
7.348522e-01
7.384434e-01
7.419963e-01
7.455097e-01
7.489878e-01
7.524393e-01
7.558769e-01
7.593157e-01
7.627728e-01
7.662663e-01
7.698144e-01
7.734347e-01
7.771429e-01
7.809529e-01
7.848761e-01
7.889214e-01
7.930949e-01
7.973997e-01
8.018356e-01
8.063997e-01
8.110855e-01
8.158837e-01
8.207818e-01
8.257644e-01
8.308127e-01
8.359050e-01
8.410165e-01
8.461199e-01
8.511868e-01
8.561892e-01
8.611005e-01
8.658968e-01
8.705576e-01
8.750659e-01
8.794088e-01
8.835766e-01
8.875619e-01
8.913581e-01
8.949582e-01
8.983541e-01
9.015363e-01
9.044937e-01
9.072139e-01
9.096830e-01
9.118867e-01
9.138096e-01
9.154356e-01
9.167478e-01
9.177291e-01
9.183619e-01
9.186291e-01
9.185145e-01
9.180032e-01
9.170821e-01
9.157402e-01
9.139683e-01
9.117591e-01
9.091079e-01
9.060131e-01
9.024758e-01
8.985001e-01
8.940924e-01
8.892614e-01
8.840190e-01
8.783807e-01
8.723658e-01
8.659976e-01
8.593035e-01
8.523144e-01
8.450644e-01
8.375896e-01
8.299280e-01
8.221176e-01
8.141957e-01
8.061978e-01
7.981571e-01
7.901038e-01
7.820652e-01
7.740664e-01
7.661300e-01
7.582771e-01
7.505269e-01
7.428970e-01
7.354035e-01
7.280613e-01
7.208843e-01
7.138848e-01
7.070733e-01
7.004579e-01
6.940444e-01
6.878369e-01
6.818385e-01
6.760520e-01
6.704793e-01
6.651221e-01
6.599817e-01
6.550596e-01
6.503578e-01
6.458786e-01
6.416238e-01
6.375937e-01
6.337860e-01
6.301965e-01
6.268193e-01
6.236476e-01
6.206747e-01
6.178942e-01
6.153012e-01
6.128927e-01
6.106677e-01
6.086265e-01
6.067696e-01
6.050973e-01
6.036085e-01
6.023010e-01
6.011708e-01
6.002112e-01
5.994122e-01
5.987609e-01
5.982420e-01
5.978387e-01
5.975340e-01
5.973124e-01
5.971608e-01
5.970697e-01
5.970332e-01
5.970495e-01
5.971199e-01
5.972485e-01
5.974405e-01
5.977024e-01
5.980404e-01
5.984604e-01
5.989672e-01
5.995634e-01
6.002495e-01
6.010232e-01
6.018812e-01
6.028192e-01
6.038333e-01
6.049202e-01
6.060771e-01
6.073024e-01
6.085961e-01
6.099605e-01
6.113998e-01
6.129193e-01
6.145245e-01
6.162194e-01
6.180068e-01
6.198873e-01
6.218593e-01
6.239186e-01
6.260586e-01
6.282713e-01
6.305479e-01
6.328797e-01
6.352587e-01
6.376772e-01
6.401283e-01
6.426050e-01
6.451005e-01
6.476069e-01
6.501154e-01
6.526159e-01
6.550974e-01
6.575493e-01
6.599610e-01
6.623222e-01
6.646226e-01
6.668516e-01
6.689978e-01
6.710495e-01
6.729946e-01
6.748206e-01
6.765156e-01
6.780682e-01
6.794692e-01
6.807119e-01
6.817929e-01
6.827115e-01
6.834695e-01
6.840703e-01
6.845186e-01
6.848200e-01
6.849806e-01
6.850064e-01
6.849032e-01
6.846771e-01
6.843347e-01
6.838834e-01
6.833318e-01
6.826892e-01
6.819662e-01
6.811740e-01
6.803252e-01
6.794338e-01
6.785153e-01
6.775862e-01
6.766645e-01
6.757690e-01
6.749189e-01
6.741334e-01
6.734312e-01
6.728303e-01
6.723482e-01
6.720016e-01
6.718072e-01
6.717809e-01
6.719385e-01
6.722950e-01
6.728651e-01
6.736625e-01
6.747006e-01
6.759917e-01
6.775478e-01
6.793799e-01
6.814978e-01
6.839104e-01
6.866255e-01
6.896503e-01
6.929917e-01
6.966559e-01
7.006489e-01
7.049755e-01
7.096403e-01
7.146466e-01
7.199970e-01
7.256920e-01
7.317305e-01
7.381085e-01
7.448188e-01
7.518508e-01
7.591897e-01
7.668166e-01
7.747079e-01
7.828349e-01
7.911636e-01
7.996553e-01
8.082671e-01
8.169537e-01
8.256683e-01
8.343642e-01
8.429961e-01
8.515209e-01
8.598985e-01
8.680928e-01
8.760716e-01
8.838073e-01
8.912769e-01
8.984612e-01
9.053450e-01
9.119162e-01
9.181662e-01
9.240893e-01
9.296826e-01
9.349452e-01
9.398778e-01
9.444826e-01
9.487624e-01
9.527208e-01
9.563621e-01
9.596915e-01
9.627158e-01
9.654433e-01
9.678832e-01
9.700457e-01
9.719412e-01
9.735798e-01
9.749716e-01
9.761256e-01
9.770497e-01
9.777508e-01
9.782345e-01
9.785052e-01
9.785661e-01
9.784192e-01
9.780662e-01
9.775090e-01
9.767514e-01
9.757992e-01
9.746602e-01
9.733448e-01
9.718652e-01
9.702358e-01
9.684719e-01
9.665895e-01
9.646038e-01
9.625290e-01
9.603769e-01
9.581580e-01
9.558811e-01
9.535551e-01
9.511888e-01
9.487919e-01
9.463751e-01
9.439509e-01
9.415336e-01
9.391396e-01
9.367868e-01
9.344942e-01
9.322810e-01
9.301665e-01
9.281686e-01
9.263038e-01
9.245853e-01
9.230235e-01
9.216247e-01
9.203912e-01
9.193215e-01
9.184102e-01
9.176491e-01
9.170279e-01
9.165346e-01
9.161575e-01
9.158851e-01
9.157073e-01
9.156155e-01
9.156028e-01
9.156634e-01
9.157925e-01
9.159859e-01
9.162400e-01
9.165514e-01
9.169170e-01
9.173340e-01
9.177999e-01
9.183126e-01
9.188702e-01
9.194712e-01
9.201139e-01
9.207967e-01
9.215174e-01
9.222732e-01
9.230599e-01
9.238720e-01
9.247024e-01
9.255425e-01
9.263819e-01
9.272092e-01
9.280124e-01
9.287798e-01
9.295002e-01
9.301634e-01
9.307594e-01
9.312788e-01
9.317123e-01
9.320504e-01
9.322841e-01
9.324041e-01
9.324009e-01
9.322654e-01
9.319889e-01
9.315636e-01
9.309828e-01
9.302411e-01
9.293341e-01
9.282585e-01
9.270117e-01
9.255925e-01
9.240009e-01
9.222383e-01
9.203075e-01
9.182116e-01
9.159542e-01
9.135380e-01
9.109653e-01
9.082371e-01
9.053527e-01
9.023097e-01
8.991033e-01
8.957272e-01
8.921728e-01
8.884299e-01
8.844866e-01
8.803299e-01
8.759454e-01
8.713176e-01
8.664307e-01
8.612687e-01
8.558163e-01
8.500592e-01
8.439851e-01
8.375847e-01
8.308522e-01
8.237861e-01
8.163894e-01
8.086691e-01
8.006365e-01
7.923069e-01
7.836986e-01
7.748324e-01
7.657307e-01
7.564160e-01
7.469103e-01
7.372344e-01
7.274080e-01
7.174489e-01
7.073733e-01
6.971955e-01
6.869276e-01
6.765806e-01
6.661642e-01
6.556872e-01
6.451579e-01
6.345837e-01
6.239712e-01
6.133267e-01
6.026568e-01
5.919685e-01
5.812698e-01
5.705690e-01
5.598754e-01
5.491994e-01
5.385530e-01
5.279495e-01
5.174031e-01
5.069290e-01
4.965425e-01
4.862595e-01
4.760960e-01
4.660681e-01
4.561917e-01
4.464826e-01
4.369566e-01
4.276288e-01
4.185143e-01
4.096271e-01
4.009810e-01
3.925891e-01
3.844642e-01
3.766189e-01
3.690656e-01
3.618156e-01
3.548794e-01
3.482664e-01
3.419837e-01
3.360365e-01
3.304276e-01
3.251580e-01
3.202275e-01
3.156352e-01
3.113802e-01
3.074624e-01
3.038822e-01
3.006405e-01
2.977387e-01
2.951781e-01
2.929595e-01
2.910831e-01
2.895486e-01
2.883546e-01
2.874989e-01
2.869790e-01
2.867916e-01
2.869333e-01
2.873999e-01
2.881870e-01
2.892896e-01
2.907017e-01
2.924163e-01
2.944244e-01
2.967143e-01
2.992720e-01
3.020807e-01
3.051208e-01
3.083707e-01
3.118059e-01
3.153997e-01
3.191228e-01
3.229440e-01
3.268315e-01
3.307532e-01
3.346782e-01
3.385775e-01
3.424242e-01
3.461936e-01
3.498630e-01
3.534114e-01
3.568190e-01
3.600667e-01
3.631362e-01
3.660092e-01
3.686676e-01
3.710932e-01
3.732670e-01
3.751698e-01
3.767816e-01
3.780819e-01
3.790501e-01
3.796658e-01
3.799098e-01
3.797644e-01
3.792145e-01
3.782473e-01
3.768530e-01
3.750245e-01
3.727573e-01
3.700488e-01
3.668982e-01
3.633053e-01
3.592704e-01
3.547945e-01
3.498796e-01
3.445290e-01
3.387474e-01
3.325416e-01
3.259210e-01
3.188971e-01
3.114844e-01
3.036990e-01
2.955586e-01
2.870821e-01
2.782888e-01
2.691983e-01
2.598301e-01
2.502029e-01
2.403348e-01
2.302434e-01
2.199460e-01
2.094600e-01
1.988030e-01
1.879936e-01
1.770509e-01
1.659942e-01
1.548434e-01
1.436178e-01
1.323359e-01
1.210153e-01
1.096719e-01
9.832028e-02
8.697333e-02
7.564229e-02
6.433702e-02
5.306602e-02
4.183654e-02
3.065436e-02
1.952368e-02
8.446824e-03
-2.575789e-03
-1.354563e-02
-2.446579e-02
-3.534050e-02
-4.617472e-02
-5.697372e-02
-6.774298e-02
-7.848804e-02
-8.921448e-02
-9.992771e-02
-1.106326e-01
-1.213334e-01
-1.320329e-01
-1.427328e-01
-1.534326e-01
-1.641295e-01
-1.748185e-01
-1.854917e-01
-1.961392e-01
-2.067494e-01
-2.173102e-01
-2.278096e-01
-2.382367e-01
-2.485822e-01
-2.588390e-01
-2.690022e-01
-2.790692e-01
-2.890403e-01
-2.989180e-01
-3.087076e-01
-3.184161e-01
-3.280523e-01
-3.376259e-01
-3.471474e-01
-3.566276e-01
-3.660781e-01
-3.755109e-01
-3.849381e-01
-3.943717e-01
-4.038223e-01
-4.132993e-01
-4.228106e-01
-4.323627e-01
-4.419612e-01
-4.516107e-01
-4.613146e-01
-4.710758e-01
-4.808969e-01
-4.907806e-01
-5.007298e-01
-5.107479e-01
-5.208384e-01
-5.310051e-01
-5.412529e-01
-5.515881e-01
-5.620183e-01
-5.725526e-01
-5.832013e-01
-5.939760e-01
-6.048897e-01
-6.159565e-01
-6.271916e-01
-6.386105e-01
-6.502276e-01
-6.620562e-01
-6.741068e-01
-6.863873e-01
-6.989018e-01
-7.116502e-01
-7.246276e-01
-7.378245e-01
-7.512272e-01
-7.648179e-01
-7.785761e-01
-7.924781e-01
-8.064976e-01
-8.206062e-01
-8.347736e-01
-8.489688e-01
-8.631611e-01
-8.773206e-01
-8.914186e-01
-9.054286e-01
-9.193261e-01
-9.330890e-01
-9.466975e-01
-9.601337e-01
-9.733813e-01
-9.864254e-01
-9.992518e-01
-1.011847e+00
-1.024200e+00
-1.036296e+00
-1.048125e+00
-1.059674e+00
-1.070934e+00
-1.081895e+00
-1.092548e+00
-1.102888e+00
-1.112907e+00
-1.122602e+00
-1.131969e+00
-1.141006e+00
-1.149710e+00
-1.158080e+00
-1.166116e+00
-1.173814e+00
-1.181174e+00
-1.188193e+00
-1.194870e+00
-1.201203e+00
-1.207192e+00
-1.212838e+00
-1.218143e+00
-1.223110e+00
-1.227743e+00
-1.232043e+00
-1.236015e+00
-1.239662e+00
-1.242990e+00
-1.246003e+00
-1.248709e+00
-1.251114e+00
-1.253227e+00
-1.255055e+00
-1.256610e+00
-1.257900e+00
-1.258938e+00
-1.259735e+00
-1.260304e+00
-1.260660e+00
-1.260817e+00
-1.260793e+00
-1.260607e+00
-1.260277e+00
-1.259822e+00
-1.259259e+00
-1.258604e+00
-1.257869e+00
-1.257063e+00
-1.256193e+00
-1.255263e+00
-1.254271e+00
-1.253216e+00
-1.252095e+00
-1.250903e+00
-1.249636e+00
-1.248293e+00
-1.246872e+00
-1.245374e+00
-1.243800e+00
-1.242155e+00
-1.240445e+00
-1.238675e+00
-1.236857e+00
-1.234999e+00
-1.233114e+00
-1.231215e+00
-1.229317e+00
-1.227433e+00
-1.225580e+00
-1.223772e+00
-1.222024e+00
-1.220347e+00
-1.218752e+00
-1.217248e+00
-1.215839e+00
-1.214531e+00
-1.213324e+00
-1.212220e+00
-1.211217e+00
-1.210313e+00
-1.209507e+00
-1.208797e+00
-1.208182e+00
-1.207662e+00
-1.207235e+00
-1.206904e+00
-1.206670e+00
-1.206540e+00
-1.206518e+00
-1.206612e+00
-1.206829e+00
-1.207178e+00
-1.207667e+00
-1.208305e+00
-1.209100e+00
-1.210061e+00
-1.211195e+00
-1.212510e+00
-1.214014e+00
-1.215715e+00
-1.217622e+00
-1.219745e+00
-1.222094e+00
-1.224680e+00
-1.227516e+00
-1.230612e+00
-1.233981e+00
-1.237633e+00
-1.241574e+00
-1.245812e+00
-1.250351e+00
-1.255191e+00
-1.260335e+00
-1.265781e+00
-1.271528e+00
-1.277572e+00
-1.283908e+00
-1.290530e+00
-1.297430e+00
-1.304598e+00
-1.312023e+00
-1.319692e+00
-1.327589e+00
-1.335698e+00
-1.344003e+00
-1.352485e+00
-1.361125e+00
-1.369903e+00
-1.378800e+00
-1.387795e+00
-1.396872e+00
-1.406015e+00
-1.415209e+00
-1.424442e+00
-1.433707e+00
-1.442995e+00
-1.452302e+00
-1.461621e+00
-1.470949e+00
-1.480281e+00
-1.489611e+00
-1.498933e+00
-1.508241e+00
-1.517526e+00
-1.526781e+00
-1.536000e+00
-1.545174e+00
-1.554298e+00
-1.563365e+00
-1.572370e+00
-1.581309e+00
-1.590177e+00
-1.598970e+00
-1.607683e+00
-1.616313e+00
-1.624853e+00
-1.633299e+00
-1.641644e+00
-1.649882e+00
-1.658008e+00
-1.666020e+00
-1.673914e+00
-1.681692e+00
-1.689354e+00
-1.696905e+00
-1.704350e+00
-1.711697e+00
-1.718954e+00
-1.726131e+00
-1.733236e+00
-1.740279e+00
-1.747267e+00
-1.754206e+00
-1.761099e+00
-1.767947e+00
-1.774750e+00
-1.781506e+00
-1.788209e+00
-1.794854e+00
-1.801433e+00
-1.807934e+00
-1.814349e+00
-1.820666e+00
-1.826873e+00
-1.832960e+00
-1.838917e+00
-1.844737e+00
-1.850412e+00
-1.855935e+00
-1.861301e+00
-1.866506e+00
-1.871547e+00
-1.876421e+00
-1.881125e+00
-1.885658e+00
-1.890020e+00
-1.894210e+00
-1.898233e+00
-1.902094e+00
-1.905803e+00
-1.909369e+00
-1.912807e+00
-1.916131e+00
-1.919360e+00
-1.922511e+00
-1.925603e+00
-1.928655e+00
-1.931684e+00
-1.934706e+00
-1.937737e+00
-1.940791e+00
-1.943882e+00
-1.947020e+00
-1.950217e+00
-1.953482e+00
-1.956821e+00
-1.960241e+00
-1.963745e+00
-1.967338e+00
-1.971020e+00
-1.974790e+00
-1.978648e+00
-1.982592e+00
-1.986617e+00
-1.990720e+00
-1.994896e+00
-1.999139e+00
-2.003444e+00
-2.007804e+00
-2.012214e+00
-2.016667e+00
-2.021157e+00
-2.025678e+00
-2.030223e+00
-2.034790e+00
-2.039372e+00
-2.043967e+00
-2.048572e+00
-2.053184e+00
-2.057802e+00
-2.062423e+00
-2.067048e+00
-2.071672e+00
-2.076294e+00
-2.080908e+00
-2.085509e+00
-2.090089e+00
-2.094638e+00
-2.099145e+00
-2.103596e+00
-2.107978e+00
-2.112276e+00
-2.116473e+00
-2.120553e+00
-2.124499e+00
-2.128295e+00
-2.131926e+00
-2.135377e+00
-2.138635e+00
-2.141690e+00
-2.144532e+00
-2.147152e+00
-2.149547e+00
-2.151710e+00
-2.153640e+00
-2.155333e+00
-2.156790e+00
-2.158008e+00
-2.158986e+00
-2.159724e+00
-2.160220e+00
-2.160473e+00
-2.160481e+00
-2.160243e+00
-2.159756e+00
-2.159018e+00
-2.158028e+00
-2.156784e+00
-2.155284e+00
-2.153528e+00
-2.151513e+00
-2.149236e+00
-2.146693e+00
-2.143883e+00
-2.140800e+00
-2.137442e+00
-2.133804e+00
-2.129882e+00
-2.125671e+00
-2.121166e+00
-2.116365e+00
-2.111264e+00
-2.105861e+00
-2.100154e+00
-2.094141e+00
-2.087824e+00
-2.081203e+00
-2.074284e+00
-2.067069e+00
-2.059568e+00
-2.051789e+00
-2.043742e+00
-2.035439e+00
-2.026895e+00
-2.018123e+00
-2.009139e+00
-1.999958e+00
-1.990596e+00
-1.981072e+00
-1.971401e+00
-1.961601e+00
-1.951689e+00
-1.941683e+00
-1.931600e+00
-1.921457e+00
-1.911270e+00
-1.901053e+00
-1.890821e+00
-1.880585e+00
-1.870358e+00
-1.860147e+00
-1.849962e+00
-1.839808e+00
-1.829692e+00
-1.819618e+00
-1.809592e+00
-1.799617e+00
-1.789698e+00
-1.779840e+00
-1.770046e+00
-1.760321e+00
-1.750669e+00
-1.741094e+00
-1.731599e+00
-1.722188e+00
-1.712862e+00
-1.703624e+00
-1.694472e+00
-1.685405e+00
-1.676421e+00
-1.667515e+00
-1.658682e+00
-1.649915e+00
-1.641204e+00
-1.632539e+00
-1.623910e+00
-1.615303e+00
-1.606703e+00
-1.598096e+00
-1.589465e+00
-1.580794e+00
-1.572067e+00
-1.563268e+00
-1.554383e+00
-1.545398e+00
-1.536298e+00
-1.527073e+00
-1.517711e+00
-1.508200e+00
-1.498530e+00
-1.488691e+00
-1.478674e+00
-1.468470e+00
-1.458070e+00
-1.447466e+00
-1.436652e+00
-1.425621e+00
-1.414372e+00
-1.402900e+00
-1.391207e+00
-1.379292e+00
-1.367157e+00
-1.354805e+00
-1.342241e+00
-1.329472e+00
-1.316507e+00
-1.303355e+00
-1.290029e+00
-1.276542e+00
-1.262910e+00
-1.249147e+00
-1.235271e+00
-1.221296e+00
-1.207241e+00
-1.193124e+00
-1.178961e+00
-1.164772e+00
-1.150577e+00
-1.136395e+00
-1.122249e+00
-1.108157e+00
-1.094139e+00
-1.080212e+00
-1.066393e+00
-1.052696e+00
-1.039132e+00
-1.025713e+00
-1.012444e+00
-9.993289e-01
-9.863693e-01
-9.735630e-01
-9.609053e-01
-9.483896e-01
-9.360074e-01
-9.237496e-01
-9.116059e-01
-8.995660e-01
-8.876189e-01
-8.757537e-01
-8.639590e-01
-8.522232e-01
-8.405341e-01
-8.288795e-01
-8.172472e-01
-8.056251e-01
-7.940017e-01
-7.823661e-01
-7.707081e-01
-7.590179e-01
-7.472865e-01
-7.355058e-01
-7.236685e-01
-7.117693e-01
-6.998041e-01
-6.877702e-01
-6.756665e-01
-6.634928e-01
-6.512496e-01
-6.389375e-01
-6.265567e-01
-6.141066e-01
-6.015855e-01
-5.889901e-01
-5.763156e-01
-5.635552e-01
-5.507009e-01
-5.377436e-01
-5.246745e-01
-5.114849e-01
-4.981672e-01
-4.847149e-01
-4.711223e-01
-4.573848e-01
-4.434990e-01
-4.294638e-01
-4.152795e-01
-4.009488e-01
-3.864756e-01
-3.718648e-01
-3.571221e-01
-3.422535e-01
-3.272653e-01
-3.121633e-01
-2.969525e-01
-2.816370e-01
-2.662196e-01
-2.507018e-01
-2.350841e-01
-2.193665e-01
-2.035484e-01
-1.876285e-01
-1.716049e-01
-1.554751e-01
-1.392359e-01
-1.228841e-01
-1.064161e-01
-8.982809e-02
-7.311603e-02
-5.627586e-02
-3.930365e-02
-2.219596e-02
-4.950288e-03
1.243448e-02
2.995753e-02
4.761561e-02
6.540254e-02
8.330883e-02
1.013217e-01
1.194254e-01
1.376020e-01
1.558316e-01
1.740935e-01
1.923665e-01
2.106290e-01
2.288594e-01
2.470361e-01
2.651377e-01
2.831430e-01
3.010309e-01
3.187814e-01
3.363747e-01
3.537915e-01
3.710130e-01
3.880210e-01
4.047975e-01
4.213250e-01
4.375859e-01
4.535632e-01
4.692402e-01
4.846009e-01
4.996295e-01
5.143109e-01
5.286307e-01
5.425752e-01
5.561316e-01
5.692886e-01
5.820357e-01
5.943640e-01
6.062655e-01
6.177339e-01
6.287647e-01
6.393553e-01
6.495049e-01
6.592152e-01
6.684899e-01
6.773349e-01
6.857585e-01
6.937708e-01
7.013843e-01
7.086138e-01
7.154767e-01
7.219924e-01
7.281822e-01
7.340688e-01
7.396755e-01
7.450259e-01
7.501432e-01
7.550496e-01
7.597652e-01
7.643078e-01
7.686926e-01
7.729315e-01
7.770330e-01
7.810027e-01
7.848426e-01
7.885522e-01
7.921280e-01
7.955643e-01
7.988537e-01
8.019879e-01
8.049578e-01
8.077546e-01
8.103695e-01
8.127949e-01
8.150246e-01
8.170542e-01
8.188817e-01
8.205066e-01
8.219313e-01
8.231604e-01
8.242014e-01
8.250638e-01
8.257590e-01
8.262989e-01
8.266950e-01
8.269583e-01
8.270980e-01
8.271218e-01
8.270355e-01
8.268427e-01
8.265448e-01
8.261416e-01
8.256318e-01
8.250134e-01
8.242842e-01
8.234422e-01
8.224857e-01
8.214143e-01
8.202290e-01
8.189328e-01
8.175299e-01
8.160266e-01
8.144306e-01
8.127518e-01
8.110023e-01
8.091948e-01
8.073429e-01
8.054606e-01
8.035636e-01
8.016689e-01
7.997944e-01
7.979577e-01
7.961761e-01
7.944673e-01
7.928498e-01
7.913426e-01
7.899639e-01
7.887305e-01
7.876581e-01
7.867616e-01
7.860561e-01
7.855555e-01
7.852713e-01
7.852125e-01
7.853855e-01
7.857942e-01
7.864409e-01
7.873254e-01
7.884455e-01
7.897961e-01
7.913705e-01
7.931608e-01
7.951598e-01
7.973605e-01
7.997566e-01
8.023422e-01
8.051115e-01
8.080597e-01
8.111832e-01
8.144797e-01
8.179477e-01
8.215862e-01
8.253946e-01
8.293732e-01
8.335236e-01
8.378482e-01
8.423499e-01
8.470321e-01
8.518978e-01
8.569503e-01
8.621928e-01
8.676282e-01
8.732585e-01
8.790849e-01
8.851076e-01
8.913259e-01
8.977380e-01
9.043414e-01
9.111323e-01
9.181056e-01
9.252545e-01
9.325705e-01
9.400429e-01
9.476600e-01
9.554093e-01
9.632787e-01
9.712561e-01
9.793300e-01
9.874900e-01
9.957277e-01
1.004036e+00
1.012411e+00
1.020848e+00
1.029345e+00
1.037898e+00
1.046508e+00
1.055170e+00
1.063884e+00
1.072644e+00
1.081444e+00
1.090278e+00
1.099137e+00
1.108011e+00
1.116889e+00
1.125759e+00
1.134609e+00
1.143429e+00
1.152206e+00
1.160933e+00
1.169601e+00
1.178202e+00
1.186731e+00
1.195182e+00
1.203553e+00
1.211841e+00
