EVENT_NAME: EMILIA_2ND_SHOCK
EVENT_ID: IT-2012-0011
EVENT_DATE_YYYYMMDD: 20120529
EVENT_TIME_HHMMSS: 070002
EVENT_LATITUDE_DEGREE: 44.8417
EVENT_LONGITUDE_DEGREE: 11.0657
EVENT_DEPTH_KM: 8.1
HYPOCENTER_REFERENCE: INGV-CNT_Seismic_Bulletin
MAGNITUDE_W: 6.0
MAGNITUDE_W_REFERENCE: RCMT-INGV
MAGNITUDE_L: 5.8
MAGNITUDE_L_REFERENCE: INGV-CNT_Seismic_Bulletin
FOCAL_MECHANISM: TF
NETWORK: IV
STATION_CODE: MODE
STATION_NAME: MODENA
STATION_LATITUDE_DEGREE: 44.629700
STATION_LONGITUDE_DEGREE: 10.949200
STATION_ELEVATION_M: 41
LOCATION: 
SENSOR_DEPTH_M: 0.0
VS30_M/S: 
SITE_CLASSIFICATION_EC8: C*
MORPHOLOGIC_CLASSIFICATION: 
EPICENTRAL_DISTANCE_KM: 25.3
EARTHQUAKE_BACKAZIMUTH_DEGREE: 21.3
DATE_TIME_FIRST_SAMPLE_YYYYMMDD_HHMMSS: 20120529_065934.000
DATE_TIME_FIRST_SAMPLE_PRECISION: milliseconds
SAMPLING_INTERVAL_S: 0.005000
NDATA: 40001
DURATION_S: 200.005
STREAM: HNZ
UNITS: cm
INSTRUMENT: sensor = Episensor FBA ES-T [Kinemetrics] | digitizer = Unknown [Unknown]
INSTRUMENT_ANALOG/DIGITAL: D
INSTRUMENTAL_FREQUENCY_HZ: 
INSTRUMENTAL_DAMPING: 
FULL_SCALE_G: 
N_BIT_DIGITAL_CONVERTER: 
PGD_CM: 0.768866
TIME_PGD_S: 58.265000
BASELINE_CORRECTION: BASELINE REMOVED
FILTER_TYPE: BUTTERWORTH
FILTER_ORDER: 2
LOW_CUT_FREQUENCY_HZ: 0.030
HIGH_CUT_FREQUENCY_HZ: 40.000
LATE/NORMAL_TRIGGERED: NT
DATABASE_VERSION: DYNA 1.0
HEADER_FORMAT: DYNA 1.2
DATA_TYPE: DISPLACEMENT
PROCESSING: manual (Paolucci et al., 2011)
DATA_TIMESTAMP_YYYYMMDD_HHMMSS: 
DATA_LICENSE: CC-BY4_0 (http://creativecommons.org/licenses/by/4.0/)
DATA_CITATION: ESM working group (2015), European Strong-Motion database, version 0.1, Network Activity 3: Networking acceleration networks and SM data users. Project NERA (www.nera-eu.org)
DATA_CREATOR: ESM working group
ORIGINAL_DATA_MEDIATOR_CITATION: Orfeus - European Integrated Data Archive (EIDA) http://www.orfeus-eu.org/eida/
ORIGINAL_DATA_MEDIATOR: Orfeus - European Integrated Data Archive (EIDA)
ORIGINAL_DATA_CREATOR_CITATION: Data for this study comes from the Italian national seismic network operated by Istituto Nazionale di Geofisica e Vulcanologia and archived at the European Integrated Data Archive http://eida.rm.ingv.it/
ORIGINAL_DATA_CREATOR: network: IV (Italian National Seismic Network); owner: Istituto Nazionale di Geofisica e Vulcanologia
USER1: 
USER2: 
USER3: 
USER4: 
USER5: 
[...]
2.735097e-02
2.403309e-02
2.078454e-02
1.759398e-02
1.445170e-02
1.135052e-02
8.286400e-03
5.258957e-03
2.271677e-03
-6.683597e-04
-3.551254e-03
-6.365504e-03
-9.099573e-03
-1.174362e-02
-1.429095e-02
-1.673884e-02
-1.908879e-02
-2.134637e-02
-2.352063e-02
-2.562304e-02
-2.766621e-02
-2.966273e-02
-3.162448e-02
-3.356259e-02
-3.548753e-02
-3.740901e-02
-3.933561e-02
-4.127453e-02
-4.323123e-02
-4.520899e-02
-4.720850e-02
-4.922787e-02
-5.126327e-02
-5.331005e-02
-5.536393e-02
-5.742162e-02
-5.948114e-02
-6.154225e-02
-6.360686e-02
-6.567947e-02
-6.776717e-02
-6.987920e-02
-7.202622e-02
-7.421950e-02
-7.647013e-02
-7.878829e-02
-8.118260e-02
-8.365970e-02
-8.622407e-02
-8.887829e-02
-9.162350e-02
-9.446003e-02
-9.738769e-02
-1.004059e-01
-1.035136e-01
-1.067091e-01
-1.099904e-01
-1.133548e-01
-1.167995e-01
-1.203210e-01
-1.239149e-01
-1.275766e-01
-1.313007e-01
-1.350808e-01
-1.389098e-01
-1.427794e-01
-1.466809e-01
-1.506063e-01
-1.545485e-01
-1.585013e-01
-1.624593e-01
-1.664183e-01
-1.703752e-01
-1.743291e-01
-1.782813e-01
-1.822349e-01
-1.861943e-01
-1.901648e-01
-1.941513e-01
-1.981582e-01
-2.021888e-01
-2.062456e-01
-2.103302e-01
-2.144434e-01
-2.185851e-01
-2.227554e-01
-2.269555e-01
-2.311876e-01
-2.354554e-01
-2.397627e-01
-2.441128e-01
-2.485070e-01
-2.529445e-01
-2.574212e-01
-2.619297e-01
-2.664597e-01
-2.709981e-01
-2.755299e-01
-2.800393e-01
-2.845107e-01
-2.889308e-01
-2.932885e-01
-2.975756e-01
-3.017868e-01
-3.059192e-01
-3.099724e-01
-3.139475e-01
-3.178465e-01
-3.216707e-01
-3.254203e-01
-3.290940e-01
-3.326891e-01
-3.362022e-01
-3.396294e-01
-3.429672e-01
-3.462138e-01
-3.493685e-01
-3.524327e-01
-3.554094e-01
-3.583031e-01
-3.611189e-01
-3.638621e-01
-3.665373e-01
-3.691484e-01
-3.716984e-01
-3.741897e-01
-3.766240e-01
-3.790026e-01
-3.813263e-01
-3.835952e-01
-3.858086e-01
-3.879654e-01
-3.900641e-01
-3.921033e-01
-3.940825e-01
-3.960021e-01
-3.978638e-01
-3.996709e-01
-4.014276e-01
-4.031384e-01
-4.048079e-01
-4.064403e-01
-4.080396e-01
-4.096094e-01
-4.111528e-01
-4.126721e-01
-4.141687e-01
-4.156427e-01
-4.170935e-01
-4.185204e-01
-4.199225e-01
-4.212996e-01
-4.226528e-01
-4.239840e-01
-4.252956e-01
-4.265901e-01
-4.278691e-01
-4.291329e-01
-4.303811e-01
-4.316128e-01
-4.328273e-01
-4.340235e-01
-4.352001e-01
-4.363553e-01
-4.374862e-01
-4.385890e-01
-4.396590e-01
-4.406902e-01
-4.416756e-01
-4.426079e-01
-4.434799e-01
-4.442852e-01
-4.450187e-01
-4.456766e-01
-4.462569e-01
-4.467600e-01
-4.471890e-01
-4.475488e-01
-4.478467e-01
-4.480911e-01
-4.482917e-01
-4.484590e-01
-4.486049e-01
-4.487417e-01
-4.488827e-01
-4.490411e-01
-4.492294e-01
-4.494587e-01
-4.497386e-01
-4.500765e-01
-4.504779e-01
-4.509461e-01
-4.514828e-01
-4.520876e-01
-4.527581e-01
-4.534899e-01
-4.542769e-01
-4.551121e-01
-4.559887e-01
-4.569004e-01
-4.578426e-01
-4.588126e-01
-4.598105e-01
-4.608385e-01
-4.619012e-01
-4.630034e-01
-4.641497e-01
-4.653437e-01
-4.665876e-01
-4.678822e-01
-4.692268e-01
-4.706190e-01
-4.720547e-01
-4.735287e-01
-4.750348e-01
-4.765659e-01
-4.781146e-01
-4.796735e-01
-4.812356e-01
-4.827949e-01
-4.843462e-01
-4.858853e-01
-4.874092e-01
-4.889157e-01
-4.904035e-01
-4.918728e-01
-4.933248e-01
-4.947620e-01
-4.961881e-01
-4.976078e-01
-4.990262e-01
-5.004484e-01
-5.018786e-01
-5.033201e-01
-5.047743e-01
-5.062419e-01
-5.077227e-01
-5.092169e-01
-5.107253e-01
-5.122502e-01
-5.137948e-01
-5.153643e-01
-5.169647e-01
-5.186034e-01
-5.202884e-01
-5.220284e-01
-5.238323e-01
-5.257098e-01
-5.276706e-01
-5.297251e-01
-5.318831e-01
-5.341540e-01
-5.365452e-01
-5.390626e-01
-5.417096e-01
-5.444872e-01
-5.473942e-01
-5.504273e-01
-5.535819e-01
-5.568516e-01
-5.602284e-01
-5.637015e-01
-5.672577e-01
-5.708804e-01
-5.745499e-01
-5.782447e-01
-5.819420e-01
-5.856187e-01
-5.892525e-01
-5.928223e-01
-5.963089e-01
-5.996946e-01
-6.029638e-01
-6.061028e-01
-6.090998e-01
-6.119453e-01
-6.146315e-01
-6.171526e-01
-6.195043e-01
-6.216831e-01
-6.236858e-01
-6.255089e-01
-6.271476e-01
-6.285961e-01
-6.298480e-01
-6.308977e-01
-6.317410e-01
-6.323763e-01
-6.328048e-01
-6.330313e-01
-6.330641e-01
-6.329150e-01
-6.325991e-01
-6.321331e-01
-6.315349e-01
-6.308219e-01
-6.300111e-01
-6.291191e-01
-6.281618e-01
-6.271551e-01
-6.261148e-01
-6.250569e-01
-6.239973e-01
-6.229523e-01
-6.219378e-01
-6.209697e-01
-6.200625e-01
-6.192302e-01
-6.184861e-01
-6.178429e-01
-6.173130e-01
-6.169081e-01
-6.166387e-01
-6.165142e-01
-6.165427e-01
-6.167307e-01
-6.170830e-01
-6.176027e-01
-6.182907e-01
-6.191459e-01
-6.201656e-01
-6.213463e-01
-6.226846e-01
-6.241776e-01
-6.258228e-01
-6.276169e-01
-6.295557e-01
-6.316335e-01
-6.338433e-01
-6.361768e-01
-6.386238e-01
-6.411726e-01
-6.438103e-01
-6.465236e-01
-6.492996e-01
-6.521245e-01
-6.549835e-01
-6.578604e-01
-6.607379e-01
-6.635985e-01
-6.664255e-01
-6.692036e-01
-6.719186e-01
-6.745577e-01
-6.771082e-01
-6.795568e-01
-6.818901e-01
-6.840947e-01
-6.861579e-01
-6.880683e-01
-6.898153e-01
-6.913896e-01
-6.927832e-01
-6.939896e-01
-6.950038e-01
-6.958217e-01
-6.964401e-01
-6.968559e-01
-6.970672e-01
-6.970734e-01
-6.968758e-01
-6.964779e-01
-6.958861e-01
-6.951096e-01
-6.941591e-01
-6.930468e-01
-6.917849e-01
-6.903854e-01
-6.888590e-01
-6.872151e-01
-6.854613e-01
-6.836035e-01
-6.816465e-01
-6.795934e-01
-6.774462e-01
-6.752061e-01
-6.728741e-01
-6.704513e-01
-6.679397e-01
-6.653421e-01
-6.626625e-01
-6.599064e-01
-6.570804e-01
-6.541924e-01
-6.512512e-01
-6.482656e-01
-6.452438e-01
-6.421931e-01
-6.391192e-01
-6.360271e-01
-6.329213e-01
-6.298069e-01
-6.266893e-01
-6.235751e-01
-6.204717e-01
-6.173869e-01
-6.143285e-01
-6.113040e-01
-6.083202e-01
-6.053837e-01
-6.025000e-01
-5.996746e-01
-5.969126e-01
-5.942196e-01
-5.916020e-01
-5.890663e-01
-5.866190e-01
-5.842665e-01
-5.820150e-01
-5.798715e-01
-5.778432e-01
-5.759377e-01
-5.741626e-01
-5.725261e-01
-5.710364e-01
-5.697021e-01
-5.685311e-01
-5.675302e-01
-5.667044e-01
-5.660570e-01
-5.655894e-01
-5.653018e-01
-5.651933e-01
-5.652620e-01
-5.655052e-01
-5.659183e-01
-5.664952e-01
-5.672276e-01
-5.681058e-01
-5.691184e-01
-5.702529e-01
-5.714952e-01
-5.728297e-01
-5.742394e-01
-5.757064e-01
-5.772125e-01
-5.787402e-01
-5.802720e-01
-5.817905e-01
-5.832779e-01
-5.847170e-01
-5.860916e-01
-5.873874e-01
-5.885919e-01
-5.896936e-01
-5.906825e-01
-5.915497e-01
-5.922872e-01
-5.928881e-01
-5.933459e-01
-5.936537e-01
-5.938042e-01
-5.937898e-01
-5.936029e-01
-5.932362e-01
-5.926833e-01
-5.919390e-01
-5.910001e-01
-5.898663e-01
-5.885395e-01
-5.870240e-01
-5.853262e-01
-5.834536e-01
-5.814152e-01
-5.792213e-01
-5.768832e-01
-5.744127e-01
-5.718207e-01
-5.691155e-01
-5.663030e-01
-5.633884e-01
-5.603772e-01
-5.572765e-01
-5.540948e-01
-5.508410e-01
-5.475245e-01
-5.441549e-01
-5.407415e-01
-5.372931e-01
-5.338171e-01
-5.303208e-01
-5.268120e-01
-5.233006e-01
-5.197977e-01
-5.163159e-01
-5.128678e-01
-5.094666e-01
-5.061243e-01
-5.028519e-01
-4.996583e-01
-4.965508e-01
-4.935354e-01
-4.906176e-01
-4.878021e-01
-4.850927e-01
-4.824917e-01
-4.799995e-01
-4.776136e-01
-4.753288e-01
-4.731375e-01
-4.710296e-01
-4.689938e-01
-4.670173e-01
-4.650871e-01
-4.631899e-01
-4.613137e-01
-4.594489e-01
-4.575884e-01
-4.557281e-01
-4.538665e-01
-4.520043e-01
-4.501436e-01
-4.482869e-01
-4.464354e-01
-4.445889e-01
-4.427455e-01
-4.409025e-01
-4.390567e-01
-4.372038e-01
-4.353378e-01
-4.334511e-01
-4.315345e-01
-4.295778e-01
-4.275697e-01
-4.254987e-01
-4.233530e-01
-4.211209e-01
-4.187922e-01
-4.163594e-01
-4.138182e-01
-4.111676e-01
-4.084085e-01
-4.055429e-01
-4.025729e-01
-3.995014e-01
-3.963323e-01
-3.930717e-01
-3.897262e-01
-3.863031e-01
-3.828093e-01
-3.792511e-01
-3.756343e-01
-3.719641e-01
-3.682449e-01
-3.644801e-01
-3.606725e-01
-3.568244e-01
-3.529375e-01
-3.490129e-01
-3.450500e-01
-3.410470e-01
-3.370003e-01
-3.329056e-01
-3.287579e-01
-3.245534e-01
-3.202890e-01
-3.159640e-01
-3.115802e-01
-3.071421e-01
-3.026574e-01
-2.981363e-01
-2.935904e-01
-2.890315e-01
-2.844702e-01
-2.799148e-01
-2.753710e-01
-2.708416e-01
-2.663271e-01
-2.618271e-01
-2.573407e-01
-2.528680e-01
-2.484105e-01
-2.439703e-01
-2.395499e-01
-2.351514e-01
-2.307769e-01
-2.264289e-01
-2.221110e-01
-2.178275e-01
-2.135831e-01
-2.093829e-01
-2.052321e-01
-2.011357e-01
-1.970989e-01
-1.931261e-01
-1.892220e-01
-1.853908e-01
-1.816367e-01
-1.779635e-01
-1.743742e-01
-1.708700e-01
-1.674503e-01
-1.641119e-01
-1.608498e-01
-1.576573e-01
-1.545269e-01
-1.514507e-01
-1.484208e-01
-1.454293e-01
-1.424681e-01
-1.395286e-01
-1.366017e-01
-1.336779e-01
-1.307483e-01
-1.278053e-01
-1.248423e-01
-1.218546e-01
-1.188380e-01
-1.157892e-01
-1.127052e-01
-1.095825e-01
-1.064176e-01
-1.032059e-01
-9.994259e-02
-9.662321e-02
-9.324393e-02
-8.980130e-02
-8.629181e-02
-8.271202e-02
-7.905995e-02
-7.533628e-02
-7.154396e-02
-6.768675e-02
-6.376782e-02
-5.978908e-02
-5.575149e-02
-5.165548e-02
-4.750071e-02
-4.328612e-02
-3.901065e-02
-3.467436e-02
-3.027894e-02
-2.582764e-02
-2.132492e-02
-1.677621e-02
-1.218785e-02
-7.567255e-03
-2.923117e-03
1.734512e-03
6.394331e-03
1.104429e-02
1.567245e-02
2.026770e-02
2.481992e-02
2.932014e-02
3.376100e-02
3.813753e-02
4.244742e-02
4.669071e-02
5.086890e-02
5.498402e-02
5.903832e-02
6.303438e-02
6.697511e-02
7.086369e-02
7.470310e-02
7.849580e-02
8.224356e-02
8.594757e-02
8.960863e-02
9.322734e-02
9.680431e-02
1.003405e-01
1.038378e-01
1.072994e-01
1.107292e-01
1.141310e-01
1.175081e-01
1.208635e-01
1.241996e-01
1.275187e-01
1.308215e-01
1.341064e-01
1.373700e-01
1.406077e-01
1.438142e-01
1.469850e-01
1.501158e-01
1.532036e-01
1.562464e-01
1.592432e-01
1.621938e-01
1.650992e-01
1.679617e-01
1.707849e-01
1.735735e-01
1.763324e-01
1.790681e-01
1.817881e-01
1.845006e-01
1.872133e-01
1.899318e-01
1.926596e-01
1.953999e-01
1.981562e-01
2.009329e-01
2.037349e-01
2.065675e-01
2.094366e-01
2.123493e-01
2.153134e-01
2.183360e-01
2.214226e-01
2.245762e-01
2.277977e-01
2.310862e-01
2.344391e-01
2.378525e-01
2.413218e-01
2.448423e-01
2.484098e-01
2.520205e-01
2.556718e-01
2.593622e-01
2.630912e-01
2.668604e-01
2.706727e-01
2.745321e-01
2.784432e-01
2.824107e-01
2.864391e-01
2.905321e-01
2.946928e-01
2.989229e-01
3.032228e-01
3.075909e-01
3.120241e-01
3.165176e-01
3.210650e-01
3.256592e-01
3.302919e-01
3.349542e-01
3.396370e-01
3.443315e-01
3.490288e-01
3.537208e-01
3.584004e-01
3.630619e-01
3.677010e-01
3.723152e-01
3.769031e-01
3.814632e-01
3.859934e-01
3.904899e-01
3.949476e-01
3.993598e-01
4.037193e-01
4.080194e-01
4.122539e-01
4.164182e-01
4.205086e-01
4.245227e-01
4.284589e-01
4.323157e-01
4.360913e-01
4.397832e-01
4.433880e-01
4.469022e-01
4.503224e-01
4.536459e-01
4.568710e-01
4.599974e-01
4.630253e-01
4.659548e-01
4.687864e-01
4.715215e-01
4.741624e-01
4.767119e-01
4.791724e-01
4.815464e-01
4.838372e-01
4.860494e-01
4.881888e-01
4.902610e-01
4.922708e-01
4.942224e-01
4.961198e-01
4.979669e-01
4.997672e-01
5.015243e-01
5.032414e-01
5.049218e-01
5.065693e-01
5.081881e-01
5.097832e-01
5.113605e-01
5.129266e-01
5.144886e-01
5.160537e-01
5.176293e-01
5.192225e-01
5.208397e-01
5.224869e-01
5.241703e-01
5.258966e-01
5.276727e-01
5.295041e-01
5.313944e-01
5.333453e-01
5.353579e-01
5.374329e-01
5.395710e-01
5.417716e-01
5.440322e-01
5.463483e-01
5.487151e-01
5.511280e-01
5.535836e-01
5.560803e-01
5.586177e-01
5.611978e-01
5.638248e-01
5.665049e-01
5.692455e-01
5.720538e-01
5.749356e-01
5.778957e-01
5.809374e-01
5.840628e-01
5.872726e-01
5.905663e-01
5.939420e-01
5.973959e-01
6.009227e-01
6.045159e-01
6.081677e-01
6.118698e-01
6.156129e-01
6.193867e-01
6.231811e-01
6.269866e-01
6.307953e-01
6.346000e-01
6.383932e-01
6.421669e-01
6.459129e-01
6.496252e-01
6.532995e-01
6.569332e-01
6.605237e-01
6.640676e-01
6.675610e-01
6.709997e-01
6.743796e-01
6.776964e-01
6.809458e-01
6.841233e-01
6.872247e-01
6.902467e-01
6.931869e-01
6.960444e-01
6.988194e-01
7.015129e-01
7.041266e-01
7.066621e-01
7.091206e-01
7.115034e-01
7.138120e-01
7.160485e-01
7.182158e-01
7.203173e-01
7.223567e-01
7.243385e-01
7.262681e-01
7.281518e-01
7.299955e-01
7.318031e-01
7.335760e-01
7.353138e-01
7.370151e-01
7.386787e-01
7.403038e-01
7.418894e-01
7.434337e-01
7.449346e-01
7.463903e-01
7.478003e-01
7.491655e-01
7.504874e-01
7.517677e-01
7.530082e-01
7.542106e-01
7.553774e-01
7.565113e-01
7.576144e-01
7.586882e-01
7.597322e-01
7.607445e-01
7.617214e-01
7.626584e-01
7.635498e-01
7.643896e-01
7.651711e-01
7.658875e-01
7.665331e-01
7.671032e-01
7.675942e-01
7.680040e-01
7.683317e-01
7.685783e-01
7.687468e-01
7.688414e-01
7.688662e-01
7.688245e-01
7.687179e-01
7.685463e-01
7.683086e-01
7.680032e-01
7.676297e-01
7.671893e-01
7.666850e-01
7.661210e-01
7.655017e-01
7.648315e-01
7.641153e-01
7.633581e-01
7.625647e-01
7.617393e-01
7.608850e-01
7.600043e-01
7.590994e-01
7.581726e-01
7.572254e-01
7.562593e-01
7.552753e-01
7.542746e-01
7.532587e-01
7.522295e-01
7.511891e-01
7.501397e-01
7.490832e-01
7.480208e-01
7.469532e-01
7.458801e-01
7.448009e-01
7.437140e-01
7.426173e-01
7.415079e-01
7.403825e-01
7.392370e-01
7.380667e-01
7.368652e-01
7.356253e-01
7.343393e-01
7.330004e-01
7.316030e-01
7.301430e-01
7.286172e-01
7.270239e-01
7.253620e-01
7.236314e-01
7.218326e-01
7.199669e-01
7.180370e-01
7.160476e-01
7.140050e-01
7.119167e-01
7.097915e-01
7.076391e-01
7.054712e-01
7.033001e-01
7.011383e-01
6.989975e-01
6.968875e-01
6.948159e-01
6.927873e-01
6.908033e-01
6.888632e-01
6.869643e-01
6.851033e-01
6.832773e-01
6.814838e-01
6.797221e-01
6.779923e-01
6.762959e-01
6.746347e-01
6.730110e-01
6.714273e-01
6.698867e-01
6.683928e-01
6.669496e-01
6.655611e-01
6.642308e-01
6.629612e-01
6.617534e-01
6.606072e-01
6.595212e-01
6.584926e-01
6.575171e-01
6.565895e-01
6.557036e-01
6.548535e-01
6.540335e-01
6.532386e-01
6.524638e-01
6.517046e-01
6.509568e-01
6.502164e-01
6.494790e-01
6.487394e-01
6.479919e-01
6.472297e-01
6.464448e-01
6.456281e-01
6.447690e-01
6.438556e-01
6.428755e-01
6.418159e-01
6.406639e-01
6.394062e-01
6.380290e-01
6.365177e-01
6.348574e-01
6.330337e-01
6.310338e-01
6.288471e-01
6.264654e-01
6.238826e-01
6.210945e-01
6.180985e-01
6.148943e-01
6.114835e-01
6.078701e-01
6.040588e-01
6.000542e-01
5.958614e-01
5.914861e-01
5.869354e-01
5.822170e-01
5.773390e-01
5.723102e-01
5.671415e-01
5.618463e-01
5.564393e-01
5.509347e-01
5.453470e-01
5.396924e-01
5.339895e-01
5.282575e-01
5.225142e-01
5.167760e-01
5.110587e-01
5.053790e-01
4.997532e-01
4.941955e-01
4.887169e-01
4.833255e-01
4.780273e-01
4.728264e-01
4.677252e-01
4.627253e-01
4.578272e-01
4.530310e-01
4.483363e-01
4.437426e-01
4.392503e-01
4.348601e-01
4.305729e-01
4.263893e-01
4.223096e-01
4.183348e-01
4.144674e-01
4.107111e-01
4.070704e-01
4.035498e-01
4.001530e-01
3.968825e-01
3.937381e-01
3.907168e-01
3.878130e-01
3.850185e-01
3.823243e-01
3.797205e-01
3.771966e-01
3.747414e-01
3.723435e-01
3.699909e-01
3.676716e-01
3.653738e-01
3.630866e-01
3.608013e-01
3.585116e-01
3.562133e-01
3.539038e-01
3.515820e-01
3.492475e-01
3.469006e-01
3.445406e-01
3.421661e-01
3.397749e-01
3.373647e-01
3.349330e-01
3.324769e-01
3.299927e-01
3.274759e-01
3.249206e-01
3.223198e-01
3.196652e-01
3.169474e-01
3.141560e-01
3.112807e-01
3.083108e-01
3.052359e-01
3.020469e-01
2.987360e-01
2.952974e-01
2.917266e-01
2.880205e-01
2.841773e-01
2.801970e-01
2.760811e-01
2.718321e-01
2.674533e-01
2.629487e-01
2.583232e-01
2.535833e-01
2.487371e-01
2.437937e-01
2.387634e-01
2.336575e-01
2.284880e-01
2.232675e-01
2.180087e-01
2.127243e-01
2.074270e-01
2.021288e-01
1.968406e-01
1.915722e-01
1.863329e-01
1.811317e-01
1.759780e-01
1.708808e-01
1.658484e-01
1.608884e-01
1.560077e-01
1.512125e-01
1.465078e-01
1.418969e-01
1.373818e-01
1.329627e-01
1.286389e-01
1.244091e-01
1.202715e-01
1.162243e-01
1.122658e-01
1.083940e-01
1.046064e-01
1.008994e-01
9.726873e-02
9.370929e-02
9.021572e-02
8.678227e-02
8.340311e-02
8.007268e-02
7.678588e-02
7.353781e-02
7.032312e-02
6.713576e-02
6.396903e-02
6.081617e-02
5.767071e-02
5.452629e-02
5.137603e-02
4.821218e-02
4.502595e-02
4.180783e-02
3.854796e-02
3.523650e-02
3.186389e-02
2.842102e-02
2.489938e-02
2.129126e-02
1.758982e-02
1.378911e-02
9.883939e-03
5.869905e-03
1.743547e-03
-2.497250e-03
-6.853004e-03
-1.132280e-02
-1.590460e-02
-2.059536e-02
-2.539080e-02
-3.028518e-02
-3.527122e-02
-4.034064e-02
-4.548479e-02
-5.069510e-02
-5.596311e-02
-6.128020e-02
-6.663733e-02
-7.202507e-02
-7.743382e-02
-8.285402e-02
-8.827612e-02
-9.369016e-02
-9.908543e-02
-1.044504e-01
-1.097731e-01
-1.150413e-01
-1.202427e-01
-1.253653e-01
-1.303974e-01
-1.353278e-01
-1.401464e-01
-1.448444e-01
-1.494147e-01
-1.538513e-01
-1.581497e-01
-1.623064e-01
-1.663187e-01
-1.701843e-01
-1.739007e-01
-1.774652e-01
-1.808756e-01
-1.841300e-01
-1.872273e-01
-1.901675e-01
-1.929514e-01
-1.955815e-01
-1.980621e-01
-2.003994e-01
-2.026019e-01
-2.046795e-01
-2.066433e-01
-2.085050e-01
-2.102765e-01
-2.119694e-01
-2.135953e-01
-2.151647e-01
-2.166878e-01
-2.181743e-01
-2.196343e-01
-2.210784e-01
-2.225179e-01
-2.239641e-01
-2.254272e-01
-2.269165e-01
-2.284401e-01
-2.300052e-01
-2.316180e-01
-2.332842e-01
-2.350094e-01
-2.367984e-01
-2.386554e-01
-2.405846e-01
-2.425900e-01
-2.446757e-01
-2.468450e-01
-2.491004e-01
-2.514429e-01
-2.538728e-01
-2.563886e-01
-2.589866e-01
-2.616616e-01
-2.644088e-01
-2.672259e-01
-2.701117e-01
-2.730648e-01
-2.760817e-01
-2.791582e-01
-2.822900e-01
-2.854736e-01
-2.887042e-01
-2.919751e-01
-2.952792e-01
-2.986109e-01
-3.019666e-01
-3.053437e-01
-3.087386e-01
-3.121466e-01
-3.155629e-01
-3.189831e-01
-3.224026e-01
-3.258153e-01
-3.292143e-01
-3.325936e-01
-3.359479e-01
-3.392717e-01
-3.425581e-01
-3.457982e-01
-3.489839e-01
-3.521091e-01
-3.551696e-01
-3.581611e-01
-3.610784e-01
-3.639166e-01
-3.666727e-01
-3.693464e-01
-3.719379e-01
-3.744471e-01
-3.768737e-01
-3.792184e-01
-3.814829e-01
-3.836687e-01
-3.857763e-01
-3.878055e-01
-3.897567e-01
-3.916314e-01
-3.934317e-01
-3.951599e-01
