EVENT_NAME: EMILIA_2ND_SHOCK
EVENT_ID: IT-2012-0011
EVENT_DATE_YYYYMMDD: 20120529
EVENT_TIME_HHMMSS: 070002
EVENT_LATITUDE_DEGREE: 44.8417
EVENT_LONGITUDE_DEGREE: 11.0657
EVENT_DEPTH_KM: 8.1
HYPOCENTER_REFERENCE: INGV-CNT_Seismic_Bulletin
MAGNITUDE_W: 6.0
MAGNITUDE_W_REFERENCE: RCMT-INGV
MAGNITUDE_L: 5.8
MAGNITUDE_L_REFERENCE: INGV-CNT_Seismic_Bulletin
FOCAL_MECHANISM: TF
NETWORK: IV
STATION_CODE: MODE
STATION_NAME: MODENA
STATION_LATITUDE_DEGREE: 44.629700
STATION_LONGITUDE_DEGREE: 10.949200
STATION_ELEVATION_M: 41
LOCATION: 
SENSOR_DEPTH_M: 0.0
VS30_M/S: 
SITE_CLASSIFICATION_EC8: C*
MORPHOLOGIC_CLASSIFICATION: 
EPICENTRAL_DISTANCE_KM: 25.3
EARTHQUAKE_BACKAZIMUTH_DEGREE: 21.3
DATE_TIME_FIRST_SAMPLE_YYYYMMDD_HHMMSS: 20120529_065934.000
DATE_TIME_FIRST_SAMPLE_PRECISION: milliseconds
SAMPLING_INTERVAL_S: 0.005000
NDATA: 40001
DURATION_S: 200.005
STREAM: HNN
UNITS: cm/s
INSTRUMENT: sensor = Episensor FBA ES-T [Kinemetrics] | digitizer = Unknown [Unknown]
INSTRUMENT_ANALOG/DIGITAL: D
INSTRUMENTAL_FREQUENCY_HZ: 
INSTRUMENTAL_DAMPING: 
FULL_SCALE_G: 
N_BIT_DIGITAL_CONVERTER: 
PGV_CM/S: -3.186134
TIME_PGV_S: 70.520000
BASELINE_CORRECTION: BASELINE REMOVED
FILTER_TYPE: BUTTERWORTH
FILTER_ORDER: 2
LOW_CUT_FREQUENCY_HZ: 0.030
HIGH_CUT_FREQUENCY_HZ: 40.000
LATE/NORMAL_TRIGGERED: NT
DATABASE_VERSION: DYNA 1.0
HEADER_FORMAT: DYNA 1.2
DATA_TYPE: VELOCITY
PROCESSING: manual (Paolucci et al., 2011)
DATA_TIMESTAMP_YYYYMMDD_HHMMSS: 
DATA_LICENSE: CC-BY4_0 (http://creativecommons.org/licenses/by/4.0/)
DATA_CITATION: ESM working group (2015), European Strong-Motion database, version 0.1, Network Activity 3: Networking acceleration networks and SM data users. Project NERA (www.nera-eu.org)
DATA_CREATOR: ESM working group
ORIGINAL_DATA_MEDIATOR_CITATION: Orfeus - European Integrated Data Archive (EIDA) http://www.orfeus-eu.org/eida/
ORIGINAL_DATA_MEDIATOR: Orfeus - European Integrated Data Archive (EIDA)
ORIGINAL_DATA_CREATOR_CITATION: Data for this study comes from the Italian national seismic network operated by Istituto Nazionale di Geofisica e Vulcanologia and archived at the European Integrated Data Archive http://eida.rm.ingv.it/
ORIGINAL_DATA_CREATOR: network: IV (Italian National Seismic Network); owner: Istituto Nazionale di Geofisica e Vulcanologia
USER1: 
USER2: 
USER3: 
USER4: 
USER5: 
[...]
0.711356
0.720679
0.730377
0.740374
0.750546
0.760754
0.770870
0.780784
0.790388
0.799547
0.808119
0.815993
0.823114
0.829479
0.835111
0.840035
0.844276
0.847881
0.850920
0.853486
0.855668
0.857527
0.859084
0.860340
0.861305
0.862016
0.862518
0.862818
0.862878
0.862662
0.862176
0.861471
0.860605
0.859588
0.858385
0.856976
0.855377
0.853612
0.851676
0.849533
0.847134
0.844460
0.841537
0.838420
0.835191
0.831963
0.828865
0.826020
0.823532
0.821503
0.820033
0.819211
0.819101
0.819733
0.821112
0.823215
0.825996
0.829366
0.833219
0.837466
0.842050
0.846915
0.851994
0.857197
0.862433
0.867633
0.872748
0.877719
0.882450
0.886807
0.890641
0.893825
0.896282
0.897974
0.898881
0.898971
0.898205
0.896568
0.894083
0.890802
0.886770
0.881991
0.876432
0.870062
0.862878
0.854905
0.846175
0.836709
0.826518
0.815636
0.804117
0.792022
0.779409
0.766345
0.752915
0.739213
0.725333
0.711366
0.697423
0.683669
0.670291
0.657423
0.645113
0.633374
0.622242
0.611796
0.602115
0.593199
0.584962
0.577313
0.570217
0.563704
0.557826
0.552610
0.548051
0.544150
0.540941
0.538484
0.536837
0.536039
0.536114
0.537096
0.539030
0.541958
0.545895
0.550825
0.556702
0.563471
0.571080
0.579487
0.588652
0.598517
0.609007
0.620056
0.631642
0.643787
0.656525
0.669841
0.683664
0.697910
0.712506
0.727385
0.742464
0.757645
0.772824
0.787917
0.802857
0.817579
0.832026
0.846164
0.859978
0.873436
0.886493
0.899117
0.911298
0.923019
0.934233
0.944887
0.954949
0.964435
0.973350
0.981611
0.989080
0.995697
1.001535
1.006712
1.011284
1.015196
1.018358
1.020805
1.022686
1.024112
1.025049
1.025369
1.024959
1.023821
1.022052
1.019709
1.016747
1.013048
1.008502
1.003062
0.996734
0.989516
0.981367
0.972219
0.962031
0.950830
0.938701
0.925727
0.911962
0.897449
0.882265
0.866536
0.850411
0.834000
0.817348
0.800470
0.783381
0.766113
0.748695
0.731115
0.713318
0.695253
0.676900
0.658284
0.639449
0.620420
0.601195
0.581770
0.562149
0.542341
0.522344
0.502142
0.481707
0.461007
0.440017
0.418720
0.397091
0.375095
0.352691
0.329864
0.306646
0.283105
0.259302
0.235231
0.210841
0.186099
0.161030
0.135687
0.110116
0.084335
0.058340
0.032137
0.005762
-0.020730
-0.047271
-0.073797
-0.100282
-0.126747
-0.153214
-0.179622
-0.205833
-0.231740
-0.257322
-0.282618
-0.307631
-0.332260
-0.356351
-0.379852
-0.402843
-0.425434
-0.447683
-0.469594
-0.491185
-0.512574
-0.533957
-0.555510
-0.577333
-0.599475
-0.621978
-0.644911
-0.668357
-0.692359
-0.716896
-0.741893
-0.767263
-0.792948
-0.818915
-0.845111
-0.871442
-0.897792
-0.924058
-0.950185
-0.976155
-1.001942
-1.027505
-1.052813
-1.077867
-1.102710
-1.127401
-1.151990
-1.176515
-1.201028
-1.225594
-1.250273
-1.275093
-1.300037
-1.325045
-1.350040
-1.374944
-1.399677
-1.424151
-1.448259
-1.471885
-1.494927
-1.517313
-1.538995
-1.559930
-1.580061
-1.599323
-1.617676
-1.635095
-1.651540
-1.666934
-1.681204
-1.694315
-1.706282
-1.717112
-1.726739
-1.735052
-1.742020
-1.747736
-1.752356
-1.755997
-1.758677
-1.760373
-1.761153
-1.761202
-1.760713
-1.759802
-1.758488
-1.756741
-1.754567
-1.752013
-1.749122
-1.745892
-1.742284
-1.738260
-1.733827
-1.729052
-1.724027
-1.718834
-1.713530
-1.708171
-1.702857
-1.697726
-1.692893
-1.688401
-1.684210
-1.680243
-1.676442
-1.672771
-1.669173
-1.665553
-1.661796
-1.657812
-1.653562
-1.649036
-1.644206
-1.639004
-1.633348
-1.627180
-1.620489
-1.613292
-1.605590
-1.597355
-1.588554
-1.579182
-1.569282
-1.558922
-1.548158
-1.537032
-1.525595
-1.513922
-1.502097
-1.490180
-1.478176
-1.466036
-1.453684
-1.441035
-1.427999
-1.414474
-1.400340
-1.385465
-1.369715
-1.352971
-1.335137
-1.316164
-1.296057
-1.274857
-1.252608
-1.229353
-1.205168
-1.180207
-1.154710
-1.128919
-1.102956
-1.076809
-1.050445
-1.023897
-0.997271
-0.970655
-0.944005
-0.917171
-0.890043
-0.862620
-0.834959
-0.807081
-0.778911
-0.750334
-0.721313
-0.691930
-0.662319
-0.632581
-0.602755
-0.572854
-0.542957
-0.513236
-0.483906
-0.455154
-0.427096
-0.399790
-0.373306
-0.347739
-0.323170
-0.299612
-0.276999
-0.255216
-0.234175
-0.213836
-0.194170
-0.175131
-0.156647
-0.138646
-0.121098
-0.104021
-0.087442
-0.071368
-0.055767
-0.040590
-0.025803
-0.011385
0.002707
0.016557
0.030277
0.043964
0.057657
0.071358
0.085093
0.098931
0.112944
0.127153
0.141512
0.155935
0.170341
0.184675
0.198887
0.212921
0.226724
0.240261
0.253514
0.266492
0.279252
0.291888
0.304482
0.317075
0.329665
0.342265
0.354959
0.367884
0.381128
0.394685
0.408492
0.422488
0.436666
0.451040
0.465573
0.480149
0.494620
0.508874
0.522874
0.536632
0.550157
0.563425
0.576409
0.589110
0.601565
0.613815
0.625857
0.637643
0.649130
0.660324
0.671274
0.682037
0.692641
0.703076
0.713333
0.723426
0.733400
0.743307
0.753165
0.762951
0.772610
0.782088
0.791353
0.800379
0.809102
0.817407
0.825156
0.832229
0.838544
0.844042
0.848632
0.852188
0.854582
0.855719
0.855546
0.854040
0.851196
0.847031
0.841618
0.835082
0.827576
0.819250
0.810231
0.800630
0.790545
0.780059
0.769224
0.758058
0.746565
0.734749
0.722630
0.710244
0.697637
0.684856
0.671948
0.658953
0.645907
0.632860
0.619883
0.607068
0.594506
0.582274
0.570428
0.559010
0.548044
0.537547
0.527528
0.518005
0.509015
0.500628
0.492943
0.486078
0.480141
0.475200
0.471281
0.468376
0.466491
0.465645
0.465855
0.467097
0.469304
0.472394
0.476318
0.481092
0.486778
0.493442
0.501103
0.509746
0.519376
0.530052
0.541870
0.554911
0.569196
0.584709
0.601464
0.619524
0.638941
0.659715
0.681807
0.705176
0.729817
0.755760
0.783019
0.811573
0.841385
0.872406
0.904574
0.937810
0.972018
1.007088
1.042890
1.079284
1.116137
1.153333
1.190763
1.228315
1.265859
1.303252
1.340369
1.377093
1.413291
1.448806
1.483480
1.517188
1.549853
1.581444
1.611954
1.641376
1.669703
1.696918
1.722997
1.747912
1.771648
1.794202
1.815572
1.835756
1.854760
1.872606
1.889315
1.904897
1.919348
1.932655
1.944827
1.955890
1.965863
1.974753
1.982553
1.989243
1.994780
1.999115
2.002228
2.004127
2.004811
2.004252
2.002386
1.999171
1.994641
1.988898
1.982040
1.974137
1.965263
1.955541
1.945134
1.934211
1.922892
1.911230
1.899241
1.886927
1.874290
1.861334
1.848055
1.834439
1.820449
1.806049
1.791235
1.776036
1.760477
1.744553
1.728230
1.711481
1.694312
1.676757
1.658819
1.640460
1.621619
1.602247
1.582325
1.561853
1.540824
1.519219
1.497013
1.474195
1.450777
1.426784
1.402252
1.377217
1.351722
1.325821
1.299566
1.273000
1.246150
1.219030
1.191641
1.163977
1.136007
1.107675
1.078913
1.049654
1.019851
0.989478
0.958534
0.927041
0.895036
0.862571
0.829713
0.796542
0.763128
0.729532
0.695809
0.662007
0.628167
0.594309
0.560427
0.526502
0.492527
0.458515
0.424481
0.390447
0.356452
0.322550
0.288778
0.255145
0.221635
0.188230
0.154931
0.121745
0.088643
0.055553
0.022380
-0.010972
-0.044601
-0.078599
-0.113046
-0.148018
-0.183584
-0.219797
-0.256658
-0.294117
-0.332096
-0.370524
-0.409347
-0.448507
-0.487897
-0.527371
-0.566812
-0.606161
-0.645406
-0.684555
-0.723615
-0.762597
-0.801525
-0.840430
-0.879328
-0.918215
-0.957074
-0.995886
-1.034623
-1.073240
-1.111674
-1.149835
-1.187627
-1.224954
-1.261736
-1.297913
-1.333433
-1.368246
-1.402307
-1.435576
-1.468019
-1.499608
-1.530308
-1.560077
-1.588871
-1.616654
-1.643402
-1.669103
-1.693744
-1.717305
-1.739756
-1.761071
-1.781260
-1.800358
-1.818404
-1.835418
-1.851406
-1.866380
-1.880381
-1.893471
-1.905688
-1.917037
-1.927509
-1.937089
-1.945754
-1.953450
-1.960085
-1.965541
-1.969729
-1.972595
-1.974114
-1.974268
-1.973055
-1.970490
-1.966604
-1.961434
-1.955004
-1.947326
-1.938408
-1.928264
-1.916918
-1.904401
-1.890748
-1.875986
-1.860134
-1.843205
-1.825223
-1.806227
-1.786258
-1.765353
-1.743536
-1.720824
-1.697226
-1.672753
-1.647406
-1.621188
-1.594100
-1.566155
-1.537371
-1.507769
-1.477372
-1.446208
-1.414324
-1.381787
-1.348675
-1.315063
-1.280999
-1.246512
-1.211624
-1.176357
-1.140723
-1.104725
-1.068366
-1.031666
-0.994669
-0.957434
-0.920029
-0.882522
-0.844983
-0.807483
-0.770097
-0.732897
-0.695968
-0.659397
-0.623253
-0.587576
-0.552391
-0.517721
-0.483612
-0.450127
-0.417334
-0.385285
-0.354015
-0.323548
-0.293917
-0.265168
-0.237359
-0.210552
-0.184798
-0.160132
-0.136572
-0.114120
-0.092766
-0.072484
-0.053235
-0.034962
-0.017597
-0.001076
0.014643
0.029572
0.043709
0.057044
0.069565
0.081259
0.092106
0.102092
0.111222
0.119522
0.127018
0.133743
0.139750
0.145115
0.149919
0.154226
0.158088
0.161563
0.164751
0.167786
0.170797
0.173888
0.177140
0.180626
0.184415
0.188566
0.193120
0.198096
0.203493
0.209303
0.215508
0.222096
0.229057
0.236381
0.244046
0.252020
0.260277
0.268801
0.277570
0.286547
0.295690
0.304959
0.314335
0.323815
0.333401
0.343095
0.352901
0.362837
0.372934
0.383240
0.393807
0.404689
0.415929
0.427569
0.439640
0.452160
0.465119
0.478484
0.492216
0.506273
0.520614
0.535192
0.549951
0.564830
0.579773
0.594727
0.609647
0.624489
0.639225
0.653842
0.668339
0.682725
0.697007
0.711195
0.725295
0.739313
0.753246
0.767097
0.780876
0.794601
0.808294
0.821962
0.835570
0.849030
0.862213
0.874962
0.887123
0.898563
0.909174
0.918865
0.927556
0.935179
0.941685
0.947048
0.951267
0.954349
0.956298
0.957116
0.956811
0.955402
0.952910
0.949357
0.944770
0.939183
0.932645
0.925209
0.916934
0.907892
0.898180
0.887919
0.877229
0.866218
0.855003
0.843704
0.832433
0.821273
0.810273
0.799460
0.788859
0.778492
0.768356
0.758432
0.748716
0.739232
0.730004
0.721052
0.712395
0.704066
0.696108
0.688562
0.681445
0.674763
0.668543
0.662838
0.657698
0.653167
0.649286
0.646100
0.643646
0.641935
0.640940
0.640615
0.640911
0.641792
0.643221
0.645158
0.647566
0.650422
0.653723
0.657470
0.661659
0.666264
0.671241
0.676540
0.682122
0.687951
0.693995
0.700215
0.706564
0.712992
0.719454
0.725909
0.732329
0.738689
0.744973
0.751171
0.757281
0.763315
0.769289
0.775209
0.781056
0.786787
0.792362
0.797758
0.802977
0.808036
0.812955
0.817752
0.822432
0.826984
0.831375
0.835561
0.839511
0.843218
0.846685
0.849915
0.852898
0.855605
0.857987
0.859979
0.861505
0.862488
0.862873
0.862630
0.861740
0.860192
0.857983
0.855118
0.851590
0.847379
0.842445
0.836737
0.830200
0.822780
0.814415
0.805047
0.794637
0.783167
0.770622
0.756986
0.742253
0.726437
0.709558
0.691641
0.672706
0.652772
0.631857
0.609972
0.587115
0.563282
0.538492
0.512781
0.486175
0.458686
0.430344
0.401217
0.371406
0.341013
0.310110
0.278733
0.246901
0.214632
0.181941
0.148843
0.115364
0.081525
0.047339
0.012813
-0.022039
-0.057183
-0.092590
-0.128234
-0.164077
-0.200045
-0.236022
-0.271873
-0.307485
-0.342788
-0.377735
-0.412280
-0.446382
-0.479999
-0.513097
-0.545638
-0.577574
-0.608839
-0.639361
-0.669069
-0.697906
-0.725832
-0.752818
-0.778840
-0.803873
-0.827891
-0.850866
-0.872769
-0.893562
-0.913201
-0.931646
-0.948870
-0.964856
-0.979606
-0.993132
-1.005451
-1.016580
-1.026530
-1.035316
-1.042951
-1.049444
-1.054790
-1.058971
-1.061966
-1.063761
-1.064347
-1.063710
-1.061828
-1.058689
-1.054302
-1.048704
-1.041957
-1.034138
-1.025330
-1.015622
-1.005103
-0.993865
-0.981990
-0.969543
-0.956566
-0.943080
-0.929096
-0.914618
-0.899644
-0.884166
-0.868173
-0.851669
-0.834674
-0.817211
-0.799292
-0.780916
-0.762070
-0.742753
-0.722979
-0.702784
-0.682216
-0.661344
-0.640247
-0.619011
-0.597724
-0.576480
-0.555378
-0.534522
-0.514017
-0.493961
-0.474446
-0.455557
-0.437379
-0.419998
-0.403497
-0.387926
-0.373305
-0.359632
-0.346905
-0.335127
-0.324295
-0.314379
-0.305337
-0.297154
-0.289854
-0.283469
-0.278006
-0.273436
-0.269708
-0.266781
-0.264634
-0.263255
-0.262636
-0.262789
-0.263748
-0.265579
-0.268354
-0.272141
-0.276997
-0.282989
-0.290194
-0.298696
-0.308558
-0.319795
-0.332376
-0.346254
-0.361371
-0.377663
-0.395051
-0.413452
-0.432792
-0.453019
-0.474096
-0.495986
-0.518646
-0.542038
-0.566141
-0.590955
-0.616498
-0.642792
-0.669855
-0.697694
-0.726309
-0.755703
-0.785877
-0.816832
-0.848566
-0.881085
-0.914404
-0.948547
-0.983540
-1.019405
-1.056160
-1.093824
-1.132407
-1.171896
-1.212258
-1.253454
-1.295446
-1.338184
-1.381602
-1.425623
-1.470171
-1.515185
-1.560601
-1.606341
-1.652314
-1.698438
-1.744657
-1.790916
-1.837154
-1.883307
-1.929323
-1.975175
-2.020857
-2.066365
-2.111680
-2.156776
-2.201628
-2.246203
-2.290465
-2.334368
-2.377848
-2.420826
-2.463212
-2.504910
-2.545822
-2.585845
-2.624872
-2.662807
-2.699572
-2.735113
-2.769389
-2.802346
-2.833918
-2.864056
-2.892737
-2.919969
-2.945768
-2.970141
-2.993076
-3.014561
-3.034600
-3.053219
-3.070454
-3.086338
-3.100899
-3.114172
-3.126204
-3.137043
-3.146727
-3.155277
-3.162706
-3.169042
-3.174330
-3.178619
-3.181939
-3.184299
-3.185698
-3.186134
-3.185623
-3.184188
-3.181853
-3.178648
-3.174605
-3.169759
-3.164149
-3.157805
-3.150748
-3.142999
-3.134592
-3.125571
-3.115989
-3.105888
-3.095292
-3.084207
-3.072632
-3.060567
-3.048019
-3.034997
-3.021504
-3.007538
-2.993098
-2.978190
-2.962826
-2.947016
-2.930755
-2.914031
-2.896823
-2.879118
-2.860914
-2.842207
-2.822995
-2.803274
-2.783047
-2.762331
-2.741156
-2.719549
-2.697535
-2.675126
-2.652323
-2.629119
-2.605495
-2.581421
-2.556856
-2.531756
-2.506081
-2.479798
-2.452884
-2.425320
-2.397095
-2.368203
-2.338645
-2.308432
-2.277582
-2.246114
-2.214056
-2.181447
-2.148341
-2.114803
-2.080901
-2.046686
-2.012197
-1.977454
-1.942475
-1.907278
-1.871890
-1.836334
-1.800621
-1.764756
-1.728742
-1.692596
-1.656345
-1.620011
-1.583590
-1.547050
-1.510347
-1.473436
-1.436277
-1.398805
-1.360919
-1.322475
-1.283316
-1.243315
-1.202400
-1.160550
-1.117782
-1.074125
-1.029612
-0.984294
-0.938239
-0.891531
-0.844257
-0.796507
-0.748368
-0.699925
-0.651259
-0.602427
-0.553466
-0.504402
-0.455260
-0.406067
-0.356850
-0.307626
-0.258406
-0.209188
-0.159961
-0.110702
-0.061384
-0.011975
0.037546
0.087179
0.136892
0.186627
0.236319
0.285910
0.335358
0.384615
0.433612
0.482263
0.530477
0.578166
0.625257
0.671681
0.717376
0.762308
0.806469
0.849864
0.892503
0.934400
0.975578
1.016087
1.055999
1.095387
1.134319
1.172845
1.211006
1.248831
1.286340
1.323549
1.360475
1.397142
1.433575
1.469795
1.505812
1.541624
1.577213
1.612552
1.647601
1.682311
1.716623
1.750466
1.783758
1.816416
1.848375
1.879598
1.910082
1.939846
1.968924
1.997360
2.025205
2.052507
2.079293
2.105553
2.131243
2.156307
2.180687
2.204312
2.227091
2.248903
2.269617
2.289111
2.307289
2.324071
2.339401
2.353233
2.365545
2.376337
2.385633
2.393476
2.399917
2.405004
2.408792
2.411352
2.412769
2.413123
2.412461
2.410805
2.408171
2.404610
2.400197
2.394999
2.389047
2.382351
2.374922
2.366786
2.357963
2.348431
2.338127
2.326974
2.314909
2.301889
2.287881
2.272841
2.256710
2.239440
2.221009
2.201440
2.180795
2.159155
2.136616
2.113281
2.089265
2.064696
2.039698
2.014382
1.988840
1.963166
1.937452
1.911792
1.886259
1.860897
1.835713
1.810696
1.785830
1.761106
1.736525
1.712087
1.687796
1.663663
1.639711
1.615977
1.592506
1.569351
1.546570
1.524223
1.502359
1.481012
1.460198
1.439926
1.420211
1.401068
1.382516
1.364578
1.347281
1.330663
1.314769
1.299647
1.285349
1.271920
1.259397
1.247796
1.237114
1.227331
1.218408
1.210286
1.202888
1.196134
1.189942
1.184226
1.178897
1.173865
1.169047
1.164384
1.159844
1.155404
1.151047
1.146765
1.142563
1.138460
1.134474
1.130620
1.126904
1.123327
1.119882
1.116548
1.113292
1.110066
1.106806
1.103437
1.099876
1.096068
1.091996
1.087677
1.083145
1.078418
1.073497
1.068380
1.063063
1.057533
1.051761
1.045701
1.039298
1.032508
1.025308
1.017680
1.009613
1.001095
0.992122
0.982714
0.972912
0.962761
0.952298
0.941535
0.930472
0.919123
0.907530
0.895758
0.883879
0.871971
0.860109
0.848377
0.836853
0.825594
0.814635
0.803994
0.793688
0.783727
0.774108
0.764803
0.755763
0.746930
0.738247
0.729669
0.721158
0.712687
0.704233
0.695782
0.687332
0.678900
0.670516
0.662214
0.654018
0.645943
0.638008
0.630243
0.622692
0.615403
0.608416
0.601770
0.595495
0.589620
0.584164
0.579117
0.574439
0.570072
0.565952
0.562023
0.558233
0.554525
0.550826
0.547053
0.543121
0.538951
0.534474
0.529632
0.524374
0.518654
0.512437
0.505695
0.498419
0.490608
0.482273
0.473435
0.464131
0.454417
0.444361
0.434025
0.423461
0.412716
0.401835
0.390860
0.379830
0.368774
0.357714
0.346666
0.335632
0.324607
0.313575
0.302522
0.291433
0.280288
0.269072
0.257793
0.246481
0.235159
0.223834
0.212502
0.201170
0.189883
0.178708
0.167696
0.156865
0.146214
0.135756
0.125536
0.115636
0.106144
0.097134
0.088654
0.080744
0.073463
0.066892
0.061108
0.056154
0.052031
0.048728
0.046261
0.044682
0.044030
0.044308
0.045479
0.047497
0.050341
0.054006
0.058473
0.063695
0.069621
0.076219
0.083485
0.091421
0.100010
0.109206
0.118960
0.129225
0.139952
0.151075
0.162503
0.174131
0.185851
0.197563
0.209182
0.220636
0.231857
0.242782
0.253352
0.263519
0.273251
0.282535
0.291359
0.299716
0.307609
0.315063
0.322115
0.328806
0.335164
0.341212
0.346980
0.352513
0.357856
0.363045
0.368103
0.373044
0.377877
0.382607
0.387233
0.391748
0.396136
0.400385
0.404486
0.408443
0.412268
0.415973
0.419555
0.423000
0.426298
0.429450
0.432457
0.435313
0.438010
0.440547
0.442936
0.445197
0.447347
0.449395
0.451360
0.453270
0.455144
0.456983
0.458782
0.460536
0.462240
0.463892
0.465482
0.467005
0.468485
0.469966
0.471496
0.473102
0.474802
0.476608
0.478531
0.480576
0.482753
0.485070
0.487532
0.490139
0.492882
0.495750
0.498749
0.501891
0.505195
0.508672
0.512346
0.516241
0.520370
0.524732
0.529317
0.534117
0.539116
0.544285
0.549563
0.554876
0.560159
0.565373
0.570487
0.575473
0.580305
0.584965
0.589441
0.593724
0.597796
0.601645
0.605267
0.608671
0.611867
0.614859
0.617653
0.620264
0.622711
0.625005
0.627149
0.629141
0.630995
0.632738
0.634400
0.635998
0.637526
0.638967
0.640297
0.641497
0.642535
0.643378
0.643995
0.644367
0.644485
0.644344
0.643933
0.643238
0.642251
0.640973
0.639418
0.637611
0.635576
0.633336
0.630903
0.628285
0.625494
0.622541
0.619440
0.616203
0.612847
0.609393
0.605856
0.602247
0.598573
0.594850
0.591120
0.587442
0.583888
0.580529
0.577437
0.574681
0.572323
0.570409
0.568970
0.568015
