EVENT_NAME: EMILIA_2ND_SHOCK
EVENT_ID: IT-2012-0011
EVENT_DATE_YYYYMMDD: 20120529
EVENT_TIME_HHMMSS: 070002
EVENT_LATITUDE_DEGREE: 44.8417
EVENT_LONGITUDE_DEGREE: 11.0657
EVENT_DEPTH_KM: 8.1
HYPOCENTER_REFERENCE: INGV-CNT_Seismic_Bulletin
MAGNITUDE_W: 6.0
MAGNITUDE_W_REFERENCE: RCMT-INGV
MAGNITUDE_L: 5.8
MAGNITUDE_L_REFERENCE: INGV-CNT_Seismic_Bulletin
FOCAL_MECHANISM: TF
NETWORK: IV
STATION_CODE: MODE
STATION_NAME: MODENA
STATION_LATITUDE_DEGREE: 44.629700
STATION_LONGITUDE_DEGREE: 10.949200
STATION_ELEVATION_M: 41
LOCATION: 
SENSOR_DEPTH_M: 0.0
VS30_M/S: 
SITE_CLASSIFICATION_EC8: C*
MORPHOLOGIC_CLASSIFICATION: 
EPICENTRAL_DISTANCE_KM: 25.3
EARTHQUAKE_BACKAZIMUTH_DEGREE: 21.3
DATE_TIME_FIRST_SAMPLE_YYYYMMDD_HHMMSS: 20120529_065934.000
DATE_TIME_FIRST_SAMPLE_PRECISION: milliseconds
SAMPLING_INTERVAL_S: 0.005000
NDATA: 40001
DURATION_S: 200.005
STREAM: HNZ
UNITS: cm/s^2
INSTRUMENT: sensor = Episensor FBA ES-T [Kinemetrics] | digitizer = Unknown [Unknown]
INSTRUMENT_ANALOG/DIGITAL: D
INSTRUMENTAL_FREQUENCY_HZ: 
INSTRUMENTAL_DAMPING: 
FULL_SCALE_G: 
N_BIT_DIGITAL_CONVERTER: 
PGA_CM/S^2: 42.339717
TIME_PGA_S: 41.105000
BASELINE_CORRECTION: BASELINE REMOVED
FILTER_TYPE: BUTTERWORTH
FILTER_ORDER: 2
LOW_CUT_FREQUENCY_HZ: 0.030
HIGH_CUT_FREQUENCY_HZ: 40.000
LATE/NORMAL_TRIGGERED: NT
DATABASE_VERSION: DYNA 1.0
HEADER_FORMAT: DYNA 1.2
DATA_TYPE: ACCELERATION
PROCESSING: manual (Paolucci et al., 2011)
DATA_TIMESTAMP_YYYYMMDD_HHMMSS: 
DATA_LICENSE: CC-BY4_0 (http://creativecommons.org/licenses/by/4.0/)
DATA_CITATION: ESM working group (2015), European Strong-Motion database, version 0.1, Network Activity 3: Networking acceleration networks and SM data users. Project NERA (www.nera-eu.org)
DATA_CREATOR: ESM working group
ORIGINAL_DATA_MEDIATOR_CITATION: Orfeus - European Integrated Data Archive (EIDA) http://www.orfeus-eu.org/eida/
ORIGINAL_DATA_MEDIATOR: Orfeus - European Integrated Data Archive (EIDA)
ORIGINAL_DATA_CREATOR_CITATION: Data for this study comes from the Italian national seismic network operated by Istituto Nazionale di Geofisica e Vulcanologia and archived at the European Integrated Data Archive http://eida.rm.ingv.it/
ORIGINAL_DATA_CREATOR: network: IV (Italian National Seismic Network); owner: Istituto Nazionale di Geofisica e Vulcanologia
USER1: 
USER2: 
USER3: 
USER4: 
USER5: 
[...]
-0.737329
-0.687447
-0.651102
-0.628770
-0.610256
-0.581601
-0.530421
-0.448676
-0.332266
-0.180999
-0.001268
0.191838
0.377221
0.532100
0.636683
0.680103
0.667188
0.618682
0.554288
0.476760
0.377486
0.252135
0.116327
0.008650
-0.036205
-0.015897
0.038233
0.075817
0.054484
-0.038164
-0.186092
-0.357299
-0.521402
-0.661371
-0.767729
-0.828846
-0.828679
-0.750971
-0.590111
-0.359000
-0.083268
0.208845
0.493899
0.756448
0.984801
1.164773
1.275760
1.291427
1.190661
0.971216
0.658027
0.301904
-0.040401
-0.325126
-0.520359
-0.597874
-0.531484
-0.307801
0.046075
0.449277
0.808152
1.067628
1.228688
1.335195
1.422211
1.474087
1.442314
1.283468
0.988047
0.593393
0.168750
-0.208062
-0.473295
-0.595238
-0.580360
-0.470914
-0.328158
-0.212224
-0.165524
-0.200163
-0.294580
-0.398292
-0.451932
-0.410241
-0.257396
-0.013911
0.273670
0.551588
0.782486
0.959279
1.089050
1.170062
1.183285
1.099988
0.910552
0.644480
0.350040
0.067306
-0.174877
-0.350684
-0.431165
-0.389547
-0.226449
0.012638
0.260170
0.460569
0.588501
0.647864
0.642985
0.556060
0.364690
0.069095
-0.299891
-0.690054
-1.054671
-1.369066
-1.609315
-1.729738
-1.677011
-1.418933
-0.968614
-0.394271
0.202568
0.719139
1.080238
1.255148
1.247059
1.073932
0.754617
0.307933
-0.226292
-0.773871
-1.252419
-1.604124
-1.802663
-1.843722
-1.723045
-1.419555
-0.903636
-0.160063
0.776309
1.792066
2.706457
3.314990
3.475061
3.175030
2.515297
1.652372
0.736225
-0.128072
-0.862691
-1.396703
-1.687960
-1.754288
-1.672488
-1.546924
-1.443020
-1.341745
-1.181998
-0.926925
-0.599670
-0.284246
-0.073636
-0.014780
-0.091560
-0.227938
-0.312887
-0.242604
0.013857
0.370714
0.670003
0.759862
0.567309
0.134272
-0.430001
-1.011391
-1.518233
-1.892368
-2.117033
-2.220811
-2.262079
-2.301914
-2.366777
-2.416870
-2.348979
-2.031368
-1.386601
-0.462548
0.584494
1.558251
2.325783
2.877166
3.250455
3.440868
3.403669
3.102393
2.560809
1.878825
1.168910
0.492017
-0.135401
-0.714328
-1.256760
-1.784923
-2.312986
-2.821963
-3.245765
-3.477927
-3.419144
-3.025051
-2.314360
-1.357687
-0.254893
0.887278
1.970764
2.914688
3.650543
4.114562
4.245914
3.991805
3.327088
2.281189
0.965196
-0.418612
-1.621771
-2.419536
-2.688022
-2.454086
-1.860151
-1.091713
-0.292004
0.493598
1.283403
2.092575
2.874409
3.502755
3.842845
3.826132
3.453249
2.769120
1.845435
0.780452
-0.284731
-1.171849
-1.737543
-1.943875
-1.852887
-1.587012
-1.278338
-1.027442
-0.887471
-0.856807
-0.880078
-0.863991
-0.726722
-0.444515
-0.052893
0.377080
0.777113
1.103222
1.312802
1.349720
1.191663
0.906260
0.646083
0.585584
0.789523
1.127837
1.375329
1.353804
0.995859
0.348305
-0.481799
-1.368390
-2.150242
-2.630612
-2.672192
-2.295593
-1.668970
-1.030113
-0.553352
-0.247241
0.011277
0.375968
0.900787
1.464925
1.863680
1.940654
1.658311
1.100612
0.382931
-0.420964
-1.238946
-1.949264
-2.418702
-2.572491
-2.435268
-2.129851
-1.803503
-1.546311
-1.358261
-1.152107
-0.805409
-0.226960
0.583847
1.504639
2.326442
2.813967
2.773810
2.125552
0.963167
-0.428843
-1.684141
-2.498609
-2.733825
-2.453655
-1.830759
-1.033231
-0.178713
0.666889
1.450673
2.098694
2.524069
2.656535
2.480261
2.052338
1.469847
0.833723
0.249858
-0.163357
-0.298449
-0.103511
0.367342
0.941249
1.414821
1.652257
1.606821
1.300066
0.779224
0.095541
-0.660916
-1.331399
-1.733113
-1.735749
-1.331775
-0.664724
0.044095
0.592355
0.857149
0.819890
0.536675
0.092883
-0.438707
-1.024936
-1.661029
-2.338339
-3.000158
-3.525098
-3.789094
-3.733907
-3.370651
-2.747667
-1.905617
-0.864255
0.312062
1.454026
2.328539
2.732177
2.601485
2.072083
1.389755
0.779758
0.358411
0.107410
-0.045127
-0.141198
-0.194509
-0.220228
-0.243976
-0.289636
-0.353375
-0.398407
-0.405763
-0.417185
-0.499925
-0.688048
-0.950857
-1.194863
-1.315895
-1.248072
-0.965469
-0.475302
0.163679
0.818791
1.297271
1.400600
1.036436
0.303889
-0.559106
-1.290624
-1.735383
-1.922980
-2.001335
-2.130471
-2.411246
-2.855907
-3.416484
-4.011549
-4.511023
-4.724738
-4.457018
-3.594710
-2.195000
-0.517720
1.090992
2.351905
3.148736
3.554334
3.733179
3.817343
3.833551
3.695212
3.303644
2.648409
1.802510
0.867038
-0.090065
-1.042296
-1.905143
-2.473504
-2.559046
-2.167829
-1.545641
-1.097899
-1.141703
-1.691538
-2.496612
-3.191227
-3.481536
-3.271669
-2.621621
-1.657670
-0.512726
0.700550
1.883430
2.951213
3.858590
4.601559
5.142814
5.355457
5.097389
4.321489
3.128780
1.755084
0.457083
-0.594686
-1.321142
-1.712387
-1.828355
-1.793751
-1.739988
-1.740984
-1.799398
-1.869628
-1.918301
-1.969257
-2.075520
-2.267310
-2.514577
-2.716698
-2.746022
-2.507156
-1.985155
-1.268850
-0.515576
0.108201
0.493817
0.637373
0.619833
0.548671
0.469650
0.310541
-0.061508
-0.746301
-1.737610
-2.889646
-3.962919
-4.695932
-4.879891
-4.425249
-3.399892
-2.033127
-0.644603
0.447359
1.003035
0.918175
0.236195
-0.871195
-2.174108
-3.460365
-4.573253
-5.411625
-5.874836
-5.816898
-5.079500
-3.560927
-1.294654
1.496536
4.430776
7.055317
9.002965
10.121292
10.456976
10.172393
9.436236
8.361648
7.063991
5.713073
4.463068
3.361964
2.353141
1.337027
0.271297
-0.773241
-1.695970
-2.471487
-3.163189
-3.870276
-4.614801
-5.263999
-5.602955
-5.466446
-4.859939
-4.005641
-3.217399
-2.754462
-2.772050
-3.305536
-4.241593
-5.298116
-6.084981
-6.231584
-5.578388
-4.286569
-2.666804
-0.942396
0.854364
2.843712
5.060939
7.254614
8.974662
9.793920
9.555720
8.499222
7.064661
5.633511
4.409932
3.410602
2.572875
1.864799
1.319240
1.044334
1.228026
2.097925
3.762656
6.063811
8.595278
10.814195
12.218058
12.489671
11.516363
9.375996
6.333158
2.805826
-0.777835
-4.137450
-7.193887
-10.016638
-12.613053
-14.745201
-15.988568
-15.920078
-14.381060
-11.652933
-8.330090
-5.072080
-2.341584
-0.237135
1.422199
2.922293
4.475226
6.095069
7.615684
8.782735
9.404663
9.458226
9.024291
8.171491
6.893673
5.143337
3.020271
0.909002
-0.674374
-1.330456
-0.955839
0.198044
1.691934
3.104711
4.137344
4.642489
4.571514
3.911154
2.658109
0.829181
-1.485583
-4.089655
-6.733790
-9.185352
-11.254648
-12.807356
-13.785269
-14.216408
-14.177122
-13.742209
-12.962266
-11.876637
-10.566211
-9.156524
-7.681364
-5.983661
-3.862029
-1.283253
1.518819
4.078614
5.941952
6.896377
6.983533
6.430789
5.578691
4.803424
4.399933
4.477406
4.951972
5.600875
6.183603
6.552942
6.680104
6.635921
6.529212
6.427731
6.290452
5.977066
5.431620
4.839770
4.526829
4.744670
5.471884
6.350925
6.932174
6.931309
6.237425
4.834806
2.775646
0.209229
-2.562053
-5.102982
-7.057295
-8.330574
-9.001931
-9.152592
-8.777126
-7.795787
-6.203389
-4.190226
-2.075461
-0.191602
1.177970
1.844210
1.773303
1.117765
0.135900
-0.909618
-1.791884
-2.318789
-2.313597
-1.640948
-0.335546
1.310112
2.873430
3.983965
4.417528
4.109688
3.073791
1.332701
-1.030509
-3.770395
-6.404486
-8.254257
-8.751900
-7.768079
-5.687712
-3.275701
-1.271584
-0.040774
0.389498
0.166708
-0.505093
-1.428966
-2.439239
-3.432739
-4.411226
-5.471909
-6.657812
-7.820961
-8.668345
-8.879182
-8.222016
-6.644036
-4.295150
-1.499530
1.365665
4.005866
6.283216
8.223239
9.906153
11.348827
12.458613
13.012590
12.664555
11.034056
7.978646
3.825477
-0.719123
-4.811887
-7.769513
-9.265789
-9.254043
-7.838960
-5.252862
-1.850987
1.967839
5.836259
9.401374
12.312934
14.315959
15.344431
15.486038
14.879952
13.600859
11.620932
8.952444
5.767048
2.305055
-1.219813
-4.526344
-7.168056
-8.661195
-8.712805
-7.421360
-5.329381
-3.136447
-1.370192
-0.269369
0.221424
0.371855
0.542004
0.993801
1.739244
2.570613
3.179228
3.317797
2.904884
1.972018
0.612295
-0.942116
-2.257630
-2.850906
-2.443246
-1.198112
0.226999
1.081474
0.973317
-0.011615
-1.408943
-2.684327
-3.506421
-3.774021
-3.555442
-3.025356
-2.402468
-1.864625
-1.490071
-1.293949
-1.271498
-1.376958
-1.506228
-1.564652
-1.552750
-1.579601
-1.793776
-2.208636
-2.601731
-2.694134
-2.361736
-1.645728
-0.676104
0.400713
1.449301
2.308561
2.783435
2.755057
2.288314
1.598480
0.954027
0.563937
0.496810
0.695490
1.045847
1.489347
2.093985
2.980871
4.219082
5.777484
7.511007
9.169930
10.415015
10.869923
10.240270
8.536861
6.213211
3.952377
2.344208
1.649034
1.707094
2.121672
2.491746
2.535442
2.142434
1.353230
0.302885
-0.876060
-2.123733
-3.415799
-4.701844
-5.894892
-6.907761
-7.733617
-8.485661
-9.300394
-10.230783
-11.243861
-12.247505
-13.086758
-13.542501
-13.393179
-12.506991
-10.918566
-8.828236
-6.438862
-3.824241
-1.027523
1.799682
4.401088
6.498219
7.898332
8.551519
8.483861
7.733967
6.402364
4.706429
2.926001
1.320398
0.092058
-0.625668
-0.776023
-0.386624
0.432853
1.503900
2.610759
3.531258
4.053960
3.999543
3.262576
1.843868
-0.156924
-2.540125
-4.958890
-6.899775
-7.807736
-7.275772
-5.233062
-2.040688
1.658830
5.162261
7.882257
9.466847
9.823256
9.098050
7.596443
5.667131
3.564360
1.371553
-0.883504
-3.066730
-4.857234
-5.759729
-5.278152
-3.126899
0.616339
5.444046
10.544006
15.009469
18.090773
19.377293
18.768574
16.395264
12.591474
7.877314
2.880842
-1.771807
-5.568242
-8.182495
-9.451841
-9.344278
-7.981255
-5.663791
-2.835371
-0.015862
2.276924
3.606107
3.696424
2.515310
0.325714
-2.323516
-4.770409
-6.471041
-7.192182
-7.073106
-6.393142
-5.313467
-3.845293
-1.949859
0.285915
2.555906
4.485664
5.803979
6.346764
6.027990
4.901774
3.228301
1.405463
-0.187114
-1.387151
-2.328432
-3.194442
-3.969144
-4.506458
-4.722980
-4.734461
-4.849446
-5.307744
-6.048427
-6.798103
-7.272065
-7.327087
-7.022314
-6.528442
-6.022961
-5.665071
-5.583352
-5.810093
-6.212573
-6.507078
-6.344763
-5.489294
-3.961106
-2.004572
0.009341
1.682423
2.672980
2.764039
1.929717
0.373794
-1.503127
-3.297940
-4.797034
-5.990632
-6.993104
-7.903408
-8.694893
-9.224796
-9.296769
-8.754682
-7.570052
-5.878569
-3.957432
-2.097827
-0.486655
0.786825
1.675504
2.128690
2.088467
1.561110
0.676727
-0.354372
-1.320475
-2.063208
-2.488496
-2.507166
-1.989370
-0.822290
0.997003
3.299739
5.745082
7.943831
9.599399
10.575757
10.915629
10.793231
10.435034
10.016962
9.601835
9.198358
8.832086
8.523284
8.216867
7.722461
6.742090
5.086871
2.866139
0.411722
-1.891498
-3.737244
-4.953242
-5.434357
-5.077739
-3.827501
-1.754970
0.900180
3.744862
6.346261
8.356392
9.569745
9.931522
9.488946
8.347930
6.666067
4.616282
2.256999
-0.556347
-4.034920
-8.241857
-12.933193
-17.526667
-21.337198
-23.852037
-24.859205
-24.481409
-23.104885
-21.266796
-19.494432
-18.141495
-17.276621
-16.639971
-15.761740
-14.159376
-11.579237
-8.164574
-4.367430
-0.745317
2.283138
4.589521
6.226268
7.263577
7.740615
7.701070
7.288926
6.786576
6.475594
6.494171
6.868325
7.612707
8.801438
10.550006
12.842984
15.409217
17.865061
19.919056
21.443447
22.434406
22.858414
22.546148
21.294643
19.009371
15.741578
11.672690
7.086978
2.358532
-2.055290
-5.665012
-8.112871
-9.323561
-9.484007
-8.925324
-7.934668
-6.621862
-4.984038
-3.028573
-0.851084
1.345058
3.317157
4.859495
5.824097
6.108936
5.627878
4.301136
2.118840
-0.761885
-3.931563
-6.725635
-8.442475
-8.624728
-7.262103
-4.853254
-2.168975
0.055380
1.328529
1.497834
0.653884
-1.004896
-3.254392
-5.882322
-8.665797
-11.320729
-13.446013
-14.533764
-14.159529
-12.199264
-8.906536
-4.853880
-0.670886
3.205239
6.561676
9.349030
11.589106
13.290798
14.403877
14.832289
14.556009
13.719000
12.521932
11.062719
9.278674
7.023679
4.337543
1.621880
-0.600236
-2.005431
-2.569259
-2.526546
-2.230074
-2.030078
-2.247631
-3.144688
-4.808209
-7.051437
-9.473103
-11.579736
-12.917990
-13.190874
-12.335279
-10.568066
-8.352783
-6.304300
-4.987935
-4.704628
-5.373804
-6.544267
-7.649587
-8.282906
-8.287858
-7.741995
-6.858116
-5.909746
-5.228691
-5.142914
-5.719210
-6.561473
-6.989503
-6.362879
-4.368127
-1.157405
2.827081
7.076604
11.108472
14.536746
17.216131
19.338179
21.289331
23.444033
26.033875
29.087742
32.458778
35.858936
38.870907
40.988972
41.752377
40.856041
38.131226
33.548260
27.374866
20.282326
13.132083
6.682419
1.438282
-2.366074
-4.630247
-5.295202
-4.465388
-2.534214
-0.103541
2.141865
3.486443
3.268779
1.134307
-2.740715
-7.722035
-12.942285
-17.609730
-21.236811
-23.620642
-24.781351
-24.988461
-24.758604
-24.663147
-25.119053
-26.338840
-28.339571
-30.943077
-33.778736
-36.354542
-38.188293
-38.994438
-38.787827
-37.724213
-35.909130
-33.381245
-30.167492
-26.334600
-22.027853
-17.505697
-13.161681
-9.473745
-6.869027
-5.478540
-4.998288
-4.935136
-4.919688
-4.789323
-4.513189
-4.008880
-3.075574
-1.659058
-0.081810
1.165540
1.780821
1.881197
2.018296
2.815852
4.615625
7.481787
11.328423
15.986136
21.194586
26.545235
31.494850
35.579536
38.619236
40.676323
41.897945
42.339718
41.898029
40.502235
38.317158
35.706097
33.069710
30.646631
28.420702
26.301668
24.322685
22.615408
21.293385
20.353243
19.646381
18.972418
18.156729
16.998123
15.222842
12.595184
9.066672
4.839196
0.350562
-3.851325
-7.253421
-9.484555
-10.395765
-10.089739
-8.890185
-7.201017
-5.388258
-3.816385
-2.908433
-3.089891
-4.653776
-7.576582
-11.409394
-15.419906
-18.818535
-20.970833
-21.566502
-20.685497
-18.776915
-16.463970
-14.290018
-12.500857
-10.956724
-9.356359
-7.529391
-5.588460
-3.930144
-3.002685
-3.068041
-4.151616
-6.074397
-8.509551
-11.029938
-13.154243
-14.417306
-14.497513
-13.334113
-11.131931
-8.276960
-5.135252
-1.878096
1.496556
5.031585
8.612179
11.867111
14.370765
15.888313
16.433475
16.223763
15.573283
14.792431
14.123531
13.677841
13.374621
12.950853
12.160970
10.985527
9.658819
8.592533
8.209421
8.779122
10.334270
12.655919
15.365559
18.021700
20.151951
21.283533
21.048508
19.317039
16.282711
12.441781
8.355669
4.422717
0.874010
-2.164166
-4.663318
-6.713677
-8.519615
-10.361961
-12.511505
-15.145045
-18.307289
-21.883848
-25.575804
-28.912407
-31.373123
-32.520527
-32.066502
-29.931311
-26.331390
-21.813398
-17.088322
-12.808489
-9.417420
-7.108450
-5.963375
-6.067295
-7.416278
-9.797650
-12.825384
-16.045774
-19.037973
-21.459320
-22.988222
-23.284510
-22.087460
-19.343754
-15.253802
-10.247659
-4.869593
0.335999
4.866720
8.285708
10.271362
10.676471
9.556745
7.151722
3.779668
-0.254758
-4.636873
-8.979510
-12.795079
-15.529078
-16.712694
-16.132694
-13.915101
-10.517948
-6.561257
-2.622476
0.901037
3.847607
6.207589
8.030217
9.415750
10.524699
11.534103
12.574031
13.687301
14.823458
15.886827
16.773495
17.343418
17.400148
16.757126
15.318500
13.100228
10.217224
6.858987
3.293236
-0.079430
-2.715573
-4.095233
-3.931245
-2.283583
0.445010
3.716723
7.071488
10.164512
12.717668
14.440199
14.995390
14.095560
11.628238
7.732771
2.822009
-2.495208
-7.529461
-11.647131
-14.396171
-15.578104
-15.271781
-13.762650
-11.437050
-8.679877
-5.824328
-3.212902
-1.240088
-0.243887
-0.364781
-1.496961
-3.319787
-5.430400
-7.464737
-9.120429
-10.175748
-10.576921
-10.493499
-10.199443
-9.910256
-9.694563
-9.455491
-9.010750
-8.189461
-6.897190
-5.161963
-3.151234
-1.148702
0.552424
1.750837
2.349307
2.345835
1.855872
1.134564
0.546145
0.505098
1.383759
3.394006
6.445121
10.055664
13.473909
15.917707
16.899612
16.445864
14.959197
12.986670
11.067773
9.635144
8.945334
9.038629
9.785753
10.971987
12.379283
13.806813
14.971225
15.462202
14.942013
13.354661
10.897540
7.895014
4.680781
1.541856
-1.244090
-3.411934
-4.866540
-5.796317
-6.506877
-7.193259
-7.861582
-8.368057
-8.576303
-8.477404
-8.132981
-7.591513
-6.902373
-6.148279
-5.408783
-4.705010
-3.984750
-3.136876
-2.032369
-0.559511
1.354223
3.684592
6.183842
8.335691
9.595282
9.662392
8.536283
6.440105
3.666806
0.503171
-2.643498
-5.176052
-6.579617
-6.741520
-6.002104
-5.025009
-4.490994
-4.819527
-6.103707
-8.142496
-10.545674
-12.873717
-14.803077
-16.206455
-16.993641
-16.943617
-15.762233
-13.245919
-9.452943
-4.774394
0.229525
5.011211
9.067923
11.958308
13.430160
13.538157
12.580076
10.950103
8.985236
6.893027
4.855328
3.109471
1.825026
0.970317
0.378493
-0.113552
-0.575510
-0.981105
-1.343213
-1.822130
-2.641172
-3.951862
-5.761497
-7.895339
-9.984767
-11.497832
-11.888148
-10.780764
-8.114133
-4.185952
0.501018
5.404925
9.973596
13.648217
15.957046
16.641062
15.723699
13.491220
10.320161
6.536599
2.481173
-1.407939
-4.685804
-7.058678
-8.487492
-9.176317
-9.353928
-9.087283
-8.372735
-7.311025
-6.188541
-5.440180
-5.432917
-6.258592
-7.720064
-9.412384
-10.863425
-11.666958
-11.564825
-10.498852
-8.609477
-6.188065
-3.553047
-0.941471
1.482821
3.575762
5.166978
6.053430
6.073091
5.182931
3.476048
1.176399
-1.373553
-3.748595
-5.547774
-6.515406
-6.610533
-6.013385
-5.010740
-3.854796
-2.672029
-1.433136
-0.035579
1.586340
3.382593
5.150802
6.587278
7.380688
7.337574
6.479973
5.019097
3.245692
1.341540
-0.739754
-3.138900
-5.895581
-8.854552
-11.666994
-13.917262
-15.252447
-15.429556
-14.347772
-12.109478
-9.046968
-5.609404
-2.219782
0.803389
3.279746
5.156791
6.491824
7.426569
8.137422
8.735524
9.190923
9.376695
9.150764
8.422615
7.206835
5.659545
4.083255
2.847673
2.284337
2.600676
3.836374
5.902794
8.626367
11.737998
14.862068
17.571604
19.469358
20.268097
19.863491
18.381880
16.187483
13.785065
11.679737
10.233012
9.571722
9.634008
10.242598
11.143381
12.058787
12.817198
13.459733
14.174392
15.132850
16.277767
17.214449
17.416159
16.497980
14.355284
11.189632
7.389090
3.379930
-0.479181
-3.951913
-6.888800
-9.169515
-10.674812
-11.305934
-11.074806
-10.158614
-8.800630
-7.189484
-5.441978
-3.637296
-1.864468
-0.247156
1.083892
2.022181
2.491444
2.467204
2.047550
1.480654
1.023620
0.775271
0.632250
0.342148
-0.329346
-1.450729
-2.924047
-4.539532
-6.040865
-7.195932
-7.882171
-8.140717
-8.120682
-7.989763
-7.864538
-7.770015
-7.644113
-7.346380
-6.668681
-5.397092
-3.490866
-1.219088
0.950005
2.551673
3.300034
3.167061
2.270903
0.757629
-1.179668
-3.266123
-5.218369
-6.838496
-8.024742
-8.729776
-8.896730
-8.450409
-7.420165
-6.031600
-4.590110
-3.323222
-2.341783
-1.677574
-1.368043
-1.499117
-2.127156
-3.209267
-4.663057
-6.437753
-8.476764
-10.651107
-12.747610
-14.498964
-15.650772
-16.014103
-15.467634
-13.974420
-11.663474
