EVENT_NAME: EMILIA_2ND_SHOCK
EVENT_ID: IT-2012-0011
EVENT_DATE_YYYYMMDD: 20120529
EVENT_TIME_HHMMSS: 070002
EVENT_LATITUDE_DEGREE: 44.8417
EVENT_LONGITUDE_DEGREE: 11.0657
EVENT_DEPTH_KM: 8.1
HYPOCENTER_REFERENCE: INGV-CNT_Seismic_Bulletin
MAGNITUDE_W: 6.0
MAGNITUDE_W_REFERENCE: RCMT-INGV
MAGNITUDE_L: 5.8
MAGNITUDE_L_REFERENCE: INGV-CNT_Seismic_Bulletin
FOCAL_MECHANISM: TF
NETWORK: IV
STATION_CODE: MODE
STATION_NAME: MODENA
STATION_LATITUDE_DEGREE: 44.629700
STATION_LONGITUDE_DEGREE: 10.949200
STATION_ELEVATION_M: 41
LOCATION: 
SENSOR_DEPTH_M: 0.0
VS30_M/S: 
SITE_CLASSIFICATION_EC8: C*
MORPHOLOGIC_CLASSIFICATION: 
EPICENTRAL_DISTANCE_KM: 25.3
EARTHQUAKE_BACKAZIMUTH_DEGREE: 21.3
DATE_TIME_FIRST_SAMPLE_YYYYMMDD_HHMMSS: 20120529_065934.000
DATE_TIME_FIRST_SAMPLE_PRECISION: milliseconds
SAMPLING_INTERVAL_S: 0.005000
NDATA: 40001
DURATION_S: 200.005
STREAM: HNZ
UNITS: cm/s
INSTRUMENT: sensor = Episensor FBA ES-T [Kinemetrics] | digitizer = Unknown [Unknown]
INSTRUMENT_ANALOG/DIGITAL: D
INSTRUMENTAL_FREQUENCY_HZ: 
INSTRUMENTAL_DAMPING: 
FULL_SCALE_G: 
N_BIT_DIGITAL_CONVERTER: 
PGV_CM/S: 2.215751
TIME_PGV_S: 41.585000
BASELINE_CORRECTION: BASELINE REMOVED
FILTER_TYPE: BUTTERWORTH
FILTER_ORDER: 2
LOW_CUT_FREQUENCY_HZ: 0.030
HIGH_CUT_FREQUENCY_HZ: 40.000
LATE/NORMAL_TRIGGERED: NT
DATABASE_VERSION: DYNA 1.0
HEADER_FORMAT: DYNA 1.2
DATA_TYPE: VELOCITY
PROCESSING: manual (Paolucci et al., 2011)
DATA_TIMESTAMP_YYYYMMDD_HHMMSS: 
DATA_LICENSE: CC-BY4_0 (http://creativecommons.org/licenses/by/4.0/)
DATA_CITATION: ESM working group (2015), European Strong-Motion database, version 0.1, Network Activity 3: Networking acceleration networks and SM data users. Project NERA (www.nera-eu.org)
DATA_CREATOR: ESM working group
ORIGINAL_DATA_MEDIATOR_CITATION: Orfeus - European Integrated Data Archive (EIDA) http://www.orfeus-eu.org/eida/
ORIGINAL_DATA_MEDIATOR: Orfeus - European Integrated Data Archive (EIDA)
ORIGINAL_DATA_CREATOR_CITATION: Data for this study comes from the Italian national seismic network operated by Istituto Nazionale di Geofisica e Vulcanologia and archived at the European Integrated Data Archive http://eida.rm.ingv.it/
ORIGINAL_DATA_CREATOR: network: IV (Italian National Seismic Network); owner: Istituto Nazionale di Geofisica e Vulcanologia
USER1: 
USER2: 
USER3: 
USER4: 
USER5: 
[...]
-0.018423
-0.020682
-0.022734
-0.024021
-0.024090
-0.022722
-0.019964
-0.016051
-0.011255
-0.005810
0.000040
0.005957
0.011457
0.016010
0.019232
0.020982
0.021319
0.020444
0.018691
0.016535
0.014587
0.013455
0.013518
0.014819
0.017122
0.020065
0.023304
0.026519
0.029299
0.031123
0.031468
0.029969
0.026518
0.021245
0.014400
0.006353
-0.002296
-0.010681
-0.017775
-0.022618
-0.024590
-0.023577
-0.019981
-0.014580
-0.008304
-0.002069
0.003301
0.007074
0.008613
0.007482
0.003613
-0.002650
-0.010670
-0.019684
-0.028902
-0.037517
-0.044615
-0.049133
-0.049934
-0.046052
-0.037092
-0.023559
-0.006984
0.010391
0.026266
0.038842
0.047104
0.050785
0.050145
0.045832
0.038848
0.030408
0.021637
0.013274
0.005540
-0.001675
-0.008384
-0.014294
-0.018929
-0.021927
-0.023348
-0.023716
-0.023790
-0.024248
-0.025388
-0.026952
-0.028165
-0.028096
-0.026242
-0.022892
-0.019093
-0.016257
-0.015585
-0.017735
-0.022792
-0.030383
-0.039845
-0.050430
-0.061534
-0.072845
-0.084354
-0.096188
-0.108273
-0.120017
-0.130174
-0.137107
-0.139420
-0.136498
-0.128706
-0.117077
-0.102692
-0.086439
-0.069235
-0.052217
-0.036705
-0.023901
-0.014506
-0.008662
-0.006202
-0.006879
-0.010450
-0.016734
-0.025659
-0.037224
-0.051334
-0.067562
-0.084952
-0.102048
-0.117173
-0.128745
-0.135533
-0.136808
-0.132371
-0.122518
-0.107944
-0.089691
-0.069119
-0.047889
-0.027930
-0.011295
0.000111
0.004937
0.002844
-0.005265
-0.017362
-0.030802
-0.043073
-0.052374
-0.057832
-0.059292
-0.056824
-0.050407
-0.039944
-0.025572
-0.008058
0.011156
0.030286
0.047553
0.061398
0.070625
0.074528
0.073104
0.067245
0.058557
0.048838
0.039573
0.031638
0.025247
0.020109
0.015672
0.011388
0.006988
0.002668
-0.000966
-0.003189
-0.003453
-0.001568
0.002318
0.007834
0.014398
0.021147
0.027105
0.031636
0.034867
0.037795
0.041742
0.047381
0.054258
0.061027
0.066006
0.067748
0.065339
0.058497
0.047746
0.034593
0.021232
0.009754
0.001409
-0.003742
-0.006508
-0.007745
-0.007688
-0.005808
-0.001304
0.006020
0.015339
0.025042
0.033333
0.038836
0.040751
0.038646
0.032452
0.022705
0.010612
-0.002251
-0.014427
-0.025076
-0.034094
-0.041825
-0.048617
-0.054377
-0.058404
-0.059539
-0.056620
-0.049097
-0.037464
-0.023395
-0.009526
0.001102
0.005918
0.003774
-0.004647
-0.017140
-0.030809
-0.043077
-0.052231
-0.057397
-0.058291
-0.054956
-0.047703
-0.037210
-0.024589
-0.011307
0.001095
0.011356
0.018706
0.022874
0.024124
0.023307
0.021815
0.021297
0.023134
0.027840
0.034914
0.043175
0.051209
0.057710
0.061606
0.062084
0.058779
0.052122
0.043457
0.034778
0.028119
0.024795
0.025016
0.027978
0.032263
0.036363
0.039046
0.039511
0.037317
0.032192
0.023887
0.012195
-0.002805
-0.020431
-0.039376
-0.058046
-0.074899
-0.088637
-0.098166
-0.102487
-0.100927
-0.093656
-0.082014
-0.068353
-0.055345
-0.044985
-0.038036
-0.034137
-0.032345
-0.031808
-0.032034
-0.032740
-0.033712
-0.034814
-0.036033
-0.037482
-0.039249
-0.041241
-0.043269
-0.045355
-0.047855
-0.051295
-0.056049
-0.062024
-0.068603
-0.074844
-0.079671
-0.082047
-0.081229
-0.077135
-0.070649
-0.063646
-0.058464
-0.056944
-0.059740
-0.066193
-0.074870
-0.084485
-0.094491
-0.105144
-0.117200
-0.131479
-0.148562
-0.168619
-0.191175
-0.214798
-0.237083
-0.255057
-0.266032
-0.268621
-0.263166
-0.251406
-0.235662
-0.217891
-0.199225
-0.180138
-0.160970
-0.142494
-0.125976
-0.112734
-0.103721
-0.099386
-0.099837
-0.105048
-0.114574
-0.126941
-0.139737
-0.150576
-0.158304
-0.163793
-0.169502
-0.177960
-0.190443
-0.206399
-0.223807
-0.240165
-0.253273
-0.261561
-0.264125
-0.260622
-0.251205
-0.236449
-0.217156
-0.194148
-0.168434
-0.141657
-0.116170
-0.094563
-0.078919
-0.070143
-0.067858
-0.070831
-0.077437
-0.085999
-0.095141
-0.104109
-0.112809
-0.121514
-0.130511
-0.139859
-0.149451
-0.159297
-0.169675
-0.181011
-0.193584
-0.207168
-0.220898
-0.233434
-0.243359
-0.249704
-0.252281
-0.251740
-0.249271
-0.246084
-0.242985
-0.240242
-0.237894
-0.236341
-0.236649
-0.240380
-0.249068
-0.263516
-0.283331
-0.306811
-0.331210
-0.353336
-0.370336
-0.380501
-0.383724
-0.381488
-0.376473
-0.371882
-0.370701
-0.375057
-0.385927
-0.403229
-0.426095
-0.453153
-0.482527
-0.511612
-0.537009
-0.554814
-0.561287
-0.553805
-0.531651
-0.496374
-0.451359
-0.400753
-0.348468
-0.297606
-0.250425
-0.208617
-0.173297
-0.144731
-0.122416
-0.105606
-0.093841
-0.087155
-0.085799
-0.089665
-0.098145
-0.110502
-0.126318
-0.145670
-0.168744
-0.195064
-0.223079
-0.250411
-0.274710
-0.294739
-0.310826
-0.324598
-0.338458
-0.354986
-0.376194
-0.402684
-0.433109
-0.464267
-0.492159
-0.513592
-0.526926
-0.531638
-0.527366
-0.513148
-0.487843
-0.451570
-0.406697
-0.357727
-0.309948
-0.267452
-0.232129
-0.203961
-0.181912
-0.164859
-0.151994
-0.142670
-0.136074
-0.130853
-0.124712
-0.114223
-0.095409
-0.065090
-0.022114
0.031957
0.093047
0.155496
0.213077
0.259957
0.291623
0.305652
0.301763
0.281076
0.245107
0.195023
0.131958
0.058232
-0.021711
-0.101311
-0.173217
-0.231481
-0.273132
-0.298492
-0.310200
-0.311386
-0.304275
-0.289663
-0.267287
-0.236812
-0.198733
-0.154820
-0.107796
-0.060505
-0.015384
0.025474
0.059942
0.085659
0.100760
0.105305
0.101933
0.095281
0.090502
0.091492
0.099952
0.115475
0.136162
0.159374
0.182232
0.201788
0.215078
0.219224
0.211796
0.191348
0.157679
0.111752
0.055479
-0.008558
-0.077484
-0.148566
-0.219452
-0.288163
-0.352974
-0.412357
-0.465188
-0.510971
-0.549378
-0.579296
-0.598606
-0.605022
-0.597428
-0.577035
-0.547325
-0.512844
-0.477926
-0.445772
-0.417879
-0.393862
-0.371862
-0.349475
-0.324715
-0.296710
-0.265792
-0.233028
-0.199627
-0.166448
-0.133802
-0.101663
-0.070211
-0.040325
-0.013167
0.011032
0.033666
0.057389
0.084748
0.116503
0.151164
0.185821
0.217008
0.241182
0.255060
0.256106
0.243296
0.217781
0.182494
0.140841
0.095832
0.050069
0.006183
-0.032796
-0.063813
-0.084764
-0.095141
-0.096099
-0.090209
-0.080988
-0.072122
-0.066533
-0.065853
-0.070401
-0.079361
-0.090955
-0.102523
-0.110727
-0.112405
-0.105855
-0.091487
-0.071568
-0.049480
-0.028932
-0.013563
-0.006899
-0.012052
-0.030904
-0.062926
-0.104197
-0.147957
-0.186797
-0.215236
-0.231614
-0.237972
-0.238176
-0.236229
-0.235395
-0.237920
-0.245065
-0.257262
-0.274425
-0.296481
-0.323841
-0.357130
-0.396235
-0.439577
-0.483972
-0.525083
-0.558303
-0.579778
-0.587276
-0.580448
-0.560418
-0.529002
-0.487886
-0.438355
-0.381611
-0.319318
-0.254255
-0.190932
-0.135762
-0.095869
-0.076742
-0.080337
-0.104397
-0.143244
-0.189573
-0.235843
-0.275038
-0.301302
-0.310557
-0.300718
-0.271537
-0.224530
-0.162965
-0.091386
-0.014663
0.062767
0.137167
0.205171
0.263276
0.308038
0.336873
0.348398
0.342299
0.319667
0.283827
0.240521
0.196957
0.159850
0.133203
0.117521
0.110670
0.109323
0.110431
0.112290
0.115000
0.119969
0.128665
0.141518
0.157414
0.174003
0.188528
0.198388
0.201449
0.196739
0.185450
0.171196
0.158980
0.152989
0.154124
0.159532
0.164398
0.164340
0.157295
0.143874
0.126342
0.107472
0.089694
0.074567
0.062555
0.053232
0.045782
0.039312
0.032954
0.026070
0.018538
0.010715
0.002951
-0.004947
-0.013915
-0.024959
-0.037967
-0.051438
-0.063247
-0.071475
-0.074856
-0.072852
-0.065606
-0.054063
-0.040146
-0.026370
-0.014929
-0.006936
-0.002166
0.000653
0.003137
0.006615
0.011844
0.019291
0.029761
0.044665
0.065761
0.094648
0.132203
0.178053
0.230128
0.284477
0.335679
0.378363
0.409429
0.429191
0.440912
0.449157
0.457693
0.468301
0.480760
0.493437
0.504149
0.510915
0.512430
0.508049
0.497431
0.480352
0.456843
0.427368
0.392829
0.354161
0.311733
0.265231
0.214077
0.157858
0.096620
0.031186
-0.036526
-0.103492
-0.166027
-0.220620
-0.264761
-0.296955
-0.316077
-0.321214
-0.312216
-0.290210
-0.257719
-0.218228
-0.175470
-0.133051
-0.094381
-0.062369
-0.038837
-0.024207
-0.017605
-0.017145
-0.020273
-0.024153
-0.026086
-0.023922
-0.016402
-0.003349
0.014308
0.034577
0.054575
0.070888
0.080107
0.079323
0.066622
0.041828
0.007329
-0.031710
-0.068089
-0.094254
-0.104457
-0.096163
-0.070352
-0.030941
0.016394
0.065510
0.111000
0.148982
0.177318
0.195140
0.201998
0.197580
0.182246
0.157960
0.129162
0.102771
0.087136
0.090218
0.117438
0.170158
0.245206
0.335659
0.432546
0.526389
0.608365
0.671323
0.710709
0.725113
0.716254
0.688413
0.647501
0.600241
0.553520
0.513614
0.485295
0.471118
0.471038
0.482423
0.500454
0.518936
0.531512
0.533141
0.521523
0.497671
0.465316
0.429355
0.393990
0.362024
0.335457
0.316230
0.306481
0.307910
0.320690
0.343118
0.372138
0.403872
0.434012
0.458521
0.474662
0.481690
0.480754
0.473818
0.462176
0.446204
0.426358
0.403826
0.380211
0.356539
0.332292
0.305753
0.275511
0.241520
0.205160
0.168524
0.133413
0.100771
0.070656
0.042330
0.014414
-0.014637
-0.045700
-0.078235
-0.109959
-0.137405
-0.157211
-0.167234
-0.167187
-0.158775
-0.145410
-0.131590
-0.121941
-0.120072
-0.127588
-0.144078
-0.168063
-0.198016
-0.232982
-0.272498
-0.315973
-0.362097
-0.408581
-0.452354
-0.490205
-0.519597
-0.539384
-0.549874
-0.552307
-0.548373
-0.539995
-0.529352
-0.518909
-0.511104
-0.507720
-0.509492
-0.516095
-0.526411
-0.538853
-0.551389
-0.561336
-0.565447
-0.560462
-0.543963
-0.515238
-0.475519
-0.427522
-0.374643
-0.320065
-0.266099
-0.213924
-0.163839
-0.115830
-0.069838
-0.025677
0.016939
0.058023
0.096636
0.130346
0.155780
0.170111
0.172170
0.162712
0.144026
0.119260
0.092088
0.066699
0.047562
0.038787
0.043288
0.062012
0.093744
0.135525
0.183374
0.233032
0.280477
0.322216
0.355547
0.378628
0.389913
0.387131
0.366957
0.325747
0.261081
0.173448
0.066762
-0.052498
-0.176794
-0.299201
-0.414726
-0.521060
-0.618532
-0.709239
-0.795622
-0.878822
-0.957631
-1.028428
-1.086324
-1.127147
-1.148984
-1.152711
-1.141295
-1.118347
-1.087216
-1.050898
-1.012195
-0.973690
-0.937245
-0.903312
-0.870934
-0.838463
-0.804122
-0.766058
-0.722051
-0.669301
-0.605086
-0.528040
-0.438715
-0.339119
-0.231902
-0.119730
-0.005438
0.107293
0.213766
0.308813
0.387521
0.445884
0.481319
0.493112
0.482835
0.454510
0.413946
0.367328
0.319908
0.275281
0.235608
0.202499
0.177578
0.162436
0.158180
0.164906
0.181491
0.205789
0.234909
0.265454
0.293593
0.315099
0.325693
0.321884
0.302226
0.268598
0.226385
0.183262
0.146951
0.122685
0.111840
0.112117
0.118760
0.126249
0.129518
0.124494
0.108222
0.078810
0.035481
-0.021122
-0.088352
-0.161021
-0.231819
-0.292815
-0.337348
-0.361617
-0.364972
-0.348946
-0.316137
-0.269392
-0.211446
-0.144993
-0.072973
0.001188
0.073968
0.142563
0.205173
0.260487
0.306880
0.341998
0.363686
0.371796
0.368794
0.358767
0.345921
0.333288
0.322138
0.311987
0.300749
0.285026
0.260985
0.225727
0.178362
0.120463
0.055873
-0.010081
-0.071757
-0.124598
-0.166362
-0.197883
-0.222823
-0.246346
-0.273215
-0.305936
-0.344184
-0.385599
-0.427038
-0.465748
-0.500039
-0.529587
-0.555731
-0.581445
-0.610041
-0.642849
-0.677796
-0.709611
-0.731451
-0.737238
-0.723103
-0.687720
-0.632178
-0.559494
-0.473413
-0.376722
-0.270276
-0.153056
-0.022886
0.122553
0.284847
0.464141
0.658496
0.863441
1.072202
1.276483
1.467139
1.634880
1.771754
1.873166
1.938826
1.972239
1.979430
1.967600
1.944448
1.917972
1.895645
1.882974
1.882457
1.893166
1.910598
1.926942
1.932614
1.918910
1.880300
1.815588
1.727540
1.621356
1.503253
1.379346
1.254403
1.130610
1.007295
0.881699
0.750005
0.608307
0.453592
0.284698
0.102926
-0.088016
-0.282988
-0.476927
-0.665548
-0.845094
-1.012000
-1.162838
-1.294511
-1.404650
-1.492178
-1.557987
-1.605355
-1.639701
-1.667093
-1.692085
-1.716760
-1.741359
-1.765305
-1.787871
-1.807916
-1.823294
-1.831589
-1.831998
-1.826170
-1.817266
-1.807860
-1.797769
-1.783690
-1.760611
-1.723202
-1.666560
-1.586630
-1.480657
-1.347931
-1.190456
-1.012559
-0.819462
-0.616081
-0.406591
-0.194892
0.014598
0.217109
0.408695
0.587225
0.752574
0.905807
1.047910
1.179419
1.301032
1.414109
1.520576
1.622342
1.720574
1.815436
1.906220
1.991210
2.067325
2.130301
2.175634
2.199830
2.201583
2.182326
2.146059
2.098636
2.046657
1.996209
1.951758
1.915753
1.888811
1.869730
1.855187
1.839738
1.816469
1.778586
1.721539
1.644440
1.550347
1.445493
1.337660
1.234233
1.140348
1.058028
0.986578
0.924074
0.869290
0.822509
0.784862
0.756919
0.737269
0.722255
0.706915
0.686157
0.655785
0.613237
0.558088
0.492316
0.420230
0.347742
0.281072
0.225412
0.184027
0.158351
0.148960
0.156443
0.181601
0.224662
0.283998
0.355851
0.435293
0.517460
0.598579
0.676446
0.750408
0.821025
0.889415
0.956288
1.021042
1.081847
1.136774
1.185069
1.228031
1.269078
1.312974
1.364645
1.427925
1.504753
1.594861
1.695621
1.802039
1.907281
2.003866
2.085280
2.147489
2.189267
2.211381
2.215751
2.204930
2.181613
2.148045
2.105447
2.053637
1.991080
1.915354
1.823818
1.714399
1.586520
1.441958
1.285092
1.122489
0.962157
0.812500
0.680843
0.571776
0.486335
0.422292
0.375205
0.339663
0.309846
0.279510
0.242428
0.193440
0.129313
0.049084
-0.046106
-0.153402
-0.268344
-0.384766
-0.495203
-0.591922
-0.668191
-0.719429
-0.743777
-0.742097
-0.717764
-0.676335
-0.624978
-0.571596
-0.523812
-0.488054
-0.469155
-0.470429
-0.493614
-0.538511
-0.602486
-0.680132
-0.763695
-0.844359
-0.913934
-0.966524
-0.999330
-1.012443
-1.007938
-0.988699
-0.957662
-0.917511
-0.870432
-0.817808
-0.760138
-0.697268
-0.628831
-0.554714
-0.475280
-0.391412
-0.304695
-0.217694
-0.133909
-0.057316
0.008185
0.059271
0.093566
0.110032
0.109635
0.096057
0.075581
0.055925
0.044507
0.046732
0.065315
0.100673
0.151496
0.215084
0.287285
0.362262
0.432740
0.490881
0.529545
0.543655
0.531179
0.493531
0.435296
0.363315
0.285424
0.209065
0.140252
0.083067
0.039668
0.010546
-0.005519
-0.011719
-0.012939
-0.014762
-0.022247
-0.038846
-0.065998
-0.103322
-0.148924
-0.199803
-0.252687
-0.305155
-0.356152
-0.405703
-0.454176
-0.501454
-0.546507
-0.587455
-0.621941
-0.647750
-0.663507
-0.669250
-0.666488
-0.657734
-0.645987
-0.634258
-0.624979
-0.619306
-0.616575
-0.614050
-0.607131
-0.590161
-0.557935
-0.507657
-0.440287
-0.360699
-0.276201
-0.193971
-0.119176
-0.054242
0.001097
0.049272
0.093999
0.139192
0.188121
0.242981
0.304877
0.373911
0.448768
0.526079
0.600789
0.667562
0.722050
0.761525
0.784929
0.792638
0.786417
0.769358
0.745025
0.716043
0.683509
0.647543
0.608235
0.566395
0.523513
0.481126
0.440461
0.402504
0.367992
0.337250
0.310207
0.286681
0.266758
0.251073
0.240911
0.238114
0.244885
0.263308
0.294227
0.335906
0.383882
0.432194
0.474875
0.507076
0.525410
0.527926
0.514708
0.488828
0.455930
0.422222
0.392212
0.367087
0.344632
0.320534
0.290016
0.249303
0.196575
0.132206
0.058191
-0.022841
-0.107810
-0.192528
-0.271339
-0.337568
-0.384833
-0.408705
-0.407557
-0.382502
-0.337162
-0.277370
-0.210220
-0.142529
-0.079628
-0.024878
0.020048
0.054513
0.078790
0.094337
0.103463
0.108314
0.110207
0.109639
0.106761
0.101856
0.095140
0.086029
0.072823
0.053064
0.024256
-0.015220
-0.065144
-0.122633
-0.182074
-0.235978
-0.276549
-0.297478
-0.294973
-0.267949
-0.218081
-0.149840
-0.070054
0.013151
0.091770
0.159226
0.210827
0.243510
0.255915
0.248876
0.225447
0.190153
0.147716
0.101834
0.055065
0.009628
-0.032236
-0.068791
-0.099733
-0.126934
-0.154099
-0.185392
-0.223992
-0.271054
-0.325371
-0.383706
-0.441530
-0.494024
-0.537072
-0.568012
-0.585777
-0.590485
-0.583071
-0.565192
-0.539357
-0.509090
-0.478724
-0.452810
-0.435429
-0.429547
-0.436415
-0.455158
-0.482897
-0.515474
-0.548527
-0.578594
-0.603647
-0.622921
-0.636281
-0.643447
-0.643625
-0.635693
-0.618780
-0.593026
-0.560090
-0.523187
-0.486499
-0.454099
-0.429003
-0.412775
-0.406067
-0.409766
-0.425460
-0.454938
-0.499211
-0.557546
-0.627132
-0.703395
-0.780542
-0.852281
-0.912829
-0.958063
-0.986110
-0.997209
-0.993192
-0.976794
-0.951010
-0.918551
-0.881418
-0.840731
-0.797053
-0.751098
-0.704215
-0.658461
-0.616348
-0.580314
-0.552016
-0.531600
-0.517362
-0.505940
-0.492936
-0.473755
-0.444241
-0.401109
-0.342419
-0.268108
-0.180250
-0.082904
0.018437
0.117754
0.209664
0.290601
0.359526
0.417925
0.469090
0.516949
0.565119
0.616332
0.672049
0.732343
0.796429
0.863727
0.934599
1.010264
1.091652
1.177725
1.264805
1.347295
1.419072
1.475020
1.511965
1.528865
1.526469
1.506710
1.472266
1.426418
1.373044
1.316514
1.261140
1.210347
1.166344
1.130397
1.103187
1.085000
1.075678
1.074442
1.079862
1.089972
1.102430
1.114766
1.125003
1.132407
1.137525
1.141401
1.144562
1.146273
1.144626
1.137373
1.122753
1.100055
1.069851
1.033871
0.994460
0.953756
0.913153
0.873204
0.833881
0.795031
0.756811
0.720079
0.686736
0.659750
0.642296
0.636200
0.640950
0.653709
0.670209
0.686044
0.697399
0.701187
0.695288
0.678958
0.652866
0.618674
0.578550
0.534901
0.490417
0.448165
0.411065
0.380906
0.357956
0.341340
0.329631
0.321243
0.314403
0.306907
0.296271
0.280225
0.256910
0.224721
0.182337
0.129082
0.065344
-0.007151
-0.085405
-0.165476
-0.242814
-0.312686
-0.371003
-0.415356
-0.445354
-0.462117
-0.467500
-0.463444
-0.451797
-0.434497
-0.413637
-0.391360
-0.369877
-0.351606
-0.339036
-0.334304
-0.338808
-0.353038
-0.376649
-0.408644
-0.447335
-0.490163
-0.533917
-0.575387
-0.612045
-0.642453
-0.666114
-0.682929
-0.692893
-0.696194
-0.693513
-0.686285
-0.676569
-0.666512
-0.657758
-0.651021
-0.646090
-0.642259
-0.638888
-0.635879
-0.633723
-0.633104
-0.634359
-0.637006
-0.639708
-0.640672
-0.638255
-0.631560
-0.620768
-0.607134
-0.592687
-0.579680
-0.569945
-0.564335
-0.562560
-0.563471
-0.565513
-0.567254
-0.567937
-0.567940
-0.568874
-0.573134
-0.582928
-0.599164
-0.621282
-0.648066
-0.678545
-0.712424
-0.749742
-0.790035
-0.831950
-0.873494
-0.912460
-0.946760
-0.974553
-0.994272
-1.004877
-1.006305
-0.999707
-0.987300
-0.971820
-0.955782
-0.941083
-0.929034
-0.920553
-0.916359
-0.916970
-0.922550
-0.932764
-0.946698
-0.962820
-0.978958
-0.992331
-0.999696
-0.997689
-0.983354
-0.954724
-0.911310
-0.854260
-0.786183
-0.710721
-0.632012
-0.554217
-0.481179
-0.416223
-0.362051
-0.320604
-0.292892
-0.278881
-0.277477
-0.286620
-0.303513
-0.324975
-0.347919
-0.369851
-0.389244
-0.405559
-0.418948
-0.430029
