EVENT_NAME: EMILIA_2ND_SHOCK
EVENT_ID: IT-2012-0011
EVENT_DATE_YYYYMMDD: 20120529
EVENT_TIME_HHMMSS: 070002
EVENT_LATITUDE_DEGREE: 44.8417
EVENT_LONGITUDE_DEGREE: 11.0657
EVENT_DEPTH_KM: 8.1
HYPOCENTER_REFERENCE: INGV-CNT_Seismic_Bulletin
MAGNITUDE_W: 6.0
MAGNITUDE_W_REFERENCE: RCMT-INGV
MAGNITUDE_L: 5.8
MAGNITUDE_L_REFERENCE: INGV-CNT_Seismic_Bulletin
FOCAL_MECHANISM: TF
NETWORK: IV
STATION_CODE: MODE
STATION_NAME: MODENA
STATION_LATITUDE_DEGREE: 44.629700
STATION_LONGITUDE_DEGREE: 10.949200
STATION_ELEVATION_M: 41
LOCATION: 
SENSOR_DEPTH_M: 0.0
VS30_M/S: 
SITE_CLASSIFICATION_EC8: C*
MORPHOLOGIC_CLASSIFICATION: 
EPICENTRAL_DISTANCE_KM: 25.3
EARTHQUAKE_BACKAZIMUTH_DEGREE: 21.3
DATE_TIME_FIRST_SAMPLE_YYYYMMDD_HHMMSS: 20120529_065934.000
DATE_TIME_FIRST_SAMPLE_PRECISION: milliseconds
SAMPLING_INTERVAL_S: 0.005000
NDATA: 40001
DURATION_S: 200.005
STREAM: HNN
UNITS: cm
INSTRUMENT: sensor = Episensor FBA ES-T [Kinemetrics] | digitizer = Unknown [Unknown]
INSTRUMENT_ANALOG/DIGITAL: D
INSTRUMENTAL_FREQUENCY_HZ: 
INSTRUMENTAL_DAMPING: 
FULL_SCALE_G: 
N_BIT_DIGITAL_CONVERTER: 
PGD_CM: -1.689167
TIME_PGD_S: 71.070000
BASELINE_CORRECTION: BASELINE REMOVED
FILTER_TYPE: BUTTERWORTH
FILTER_ORDER: 2
LOW_CUT_FREQUENCY_HZ: 0.030
HIGH_CUT_FREQUENCY_HZ: 40.000
LATE/NORMAL_TRIGGERED: NT
DATABASE_VERSION: DYNA 1.0
HEADER_FORMAT: DYNA 1.2
DATA_TYPE: DISPLACEMENT
PROCESSING: manual (Paolucci et al., 2011)
DATA_TIMESTAMP_YYYYMMDD_HHMMSS: 
DATA_LICENSE: CC-BY4_0 (http://creativecommons.org/licenses/by/4.0/)
DATA_CITATION: ESM working group (2015), European Strong-Motion database, version 0.1, Network Activity 3: Networking acceleration networks and SM data users. Project NERA (www.nera-eu.org)
DATA_CREATOR: ESM working group
ORIGINAL_DATA_MEDIATOR_CITATION: Orfeus - European Integrated Data Archive (EIDA) http://www.orfeus-eu.org/eida/
ORIGINAL_DATA_MEDIATOR: Orfeus - European Integrated Data Archive (EIDA)
ORIGINAL_DATA_CREATOR_CITATION: Data for this study comes from the Italian national seismic network operated by Istituto Nazionale di Geofisica e Vulcanologia and archived at the European Integrated Data Archive http://eida.rm.ingv.it/
ORIGINAL_DATA_CREATOR: network: IV (Italian National Seismic Network); owner: Istituto Nazionale di Geofisica e Vulcanologia
USER1: 
USER2: 
USER3: 
USER4: 
USER5: 
[...]
-3.603811e-01
-3.564707e-01
-3.525139e-01
-3.485121e-01
-3.444665e-01
-3.403795e-01
-3.362537e-01
-3.320926e-01
-3.278999e-01
-3.236797e-01
-3.194365e-01
-3.151755e-01
-3.109026e-01
-3.066240e-01
-3.023463e-01
-2.980761e-01
-2.938201e-01
-2.895850e-01
-2.853769e-01
-2.812015e-01
-2.770636e-01
-2.729673e-01
-2.689162e-01
-2.649130e-01
-2.609603e-01
-2.570600e-01
-2.532139e-01
-2.494236e-01
-2.456908e-01
-2.420170e-01
-2.384039e-01
-2.348527e-01
-2.313645e-01
-2.279402e-01
-2.245805e-01
-2.212857e-01
-2.180562e-01
-2.148919e-01
-2.117925e-01
-2.087571e-01
-2.057846e-01
-2.028732e-01
-2.000211e-01
-1.972260e-01
-1.944858e-01
-1.917981e-01
-1.891604e-01
-1.865704e-01
-1.840253e-01
-1.815222e-01
-1.790575e-01
-1.766271e-01
-1.742264e-01
-1.718504e-01
-1.694940e-01
-1.671521e-01
-1.648196e-01
-1.624914e-01
-1.601621e-01
-1.578267e-01
-1.554801e-01
-1.531182e-01
-1.507366e-01
-1.483311e-01
-1.458972e-01
-1.434300e-01
-1.409245e-01
-1.383758e-01
-1.357789e-01
-1.331286e-01
-1.304193e-01
-1.276447e-01
-1.247987e-01
-1.218752e-01
-1.188679e-01
-1.157703e-01
-1.125755e-01
-1.092770e-01
-1.058679e-01
-1.023421e-01
-9.869297e-02
-9.491417e-02
-9.099908e-02
-8.694121e-02
-8.273429e-02
-7.837226e-02
-7.384939e-02
-6.916034e-02
-6.430025e-02
-5.926481e-02
-5.405036e-02
-4.865394e-02
-4.307325e-02
-3.730659e-02
-3.135278e-02
-2.521120e-02
-1.888191e-02
-1.236564e-02
-5.663798e-03
1.221668e-03
8.288124e-03
1.553215e-02
2.294955e-02
3.053549e-02
3.828476e-02
4.619198e-02
5.425175e-02
6.245863e-02
7.080714e-02
7.929173e-02
8.790672e-02
9.664628e-02
1.055045e-01
1.144755e-01
1.235534e-01
1.327322e-01
1.420060e-01
1.513690e-01
1.608156e-01
1.703400e-01
1.799368e-01
1.896001e-01
1.993242e-01
2.091036e-01
2.189330e-01
2.288067e-01
2.387195e-01
2.486657e-01
2.586396e-01
2.686352e-01
2.786463e-01
2.886670e-01
2.986910e-01
3.087123e-01
3.187242e-01
3.287201e-01
3.386933e-01
3.486378e-01
3.585480e-01
3.684186e-01
3.782450e-01
3.880227e-01
3.977483e-01
4.074194e-01
4.170338e-01
4.265900e-01
4.360862e-01
4.455208e-01
4.548923e-01
4.641989e-01
4.734392e-01
4.826114e-01
4.917137e-01
5.007439e-01
5.097001e-01
5.185803e-01
5.273827e-01
5.361054e-01
5.447466e-01
5.533040e-01
5.617755e-01
5.701593e-01
5.784534e-01
5.866557e-01
5.947638e-01
6.027750e-01
6.106867e-01
6.184959e-01
6.262001e-01
6.337961e-01
6.412812e-01
6.486522e-01
6.559061e-01
6.630400e-01
6.700513e-01
6.769373e-01
6.836959e-01
6.903251e-01
6.968229e-01
7.031879e-01
7.094186e-01
7.155138e-01
7.214720e-01
7.272919e-01
7.329719e-01
7.385103e-01
7.439048e-01
7.491531e-01
7.542524e-01
7.591998e-01
7.639924e-01
7.686276e-01
7.731028e-01
7.774157e-01
7.815642e-01
7.855470e-01
7.893626e-01
7.930103e-01
7.964893e-01
7.997993e-01
8.029402e-01
8.059117e-01
8.087138e-01
8.113464e-01
8.138090e-01
8.161016e-01
8.182240e-01
8.201762e-01
8.219585e-01
8.235712e-01
8.250151e-01
8.262908e-01
8.273990e-01
8.283401e-01
8.291148e-01
8.297235e-01
8.301667e-01
8.304445e-01
8.305564e-01
8.305015e-01
8.302785e-01
8.298855e-01
8.293203e-01
8.285802e-01
8.276623e-01
8.265633e-01
8.252800e-01
8.238094e-01
8.221490e-01
8.202963e-01
8.182496e-01
8.160071e-01
8.135676e-01
8.109307e-01
8.080967e-01
8.050659e-01
8.018388e-01
7.984161e-01
7.947980e-01
7.909850e-01
7.869774e-01
7.827752e-01
7.783786e-01
7.737875e-01
7.690021e-01
7.640227e-01
7.588496e-01
7.534834e-01
7.479250e-01
7.421758e-01
7.362377e-01
7.301129e-01
7.238043e-01
7.173147e-01
7.106475e-01
7.038063e-01
6.967948e-01
6.896169e-01
6.822768e-01
6.747787e-01
6.671272e-01
6.593268e-01
6.513825e-01
6.432992e-01
6.350822e-01
6.267367e-01
6.182680e-01
6.096814e-01
6.009827e-01
5.921773e-01
5.832710e-01
5.742692e-01
5.651772e-01
5.560001e-01
5.467431e-01
5.374112e-01
5.280093e-01
5.185419e-01
5.090135e-01
4.994283e-01
4.897907e-01
4.801053e-01
4.703765e-01
4.606093e-01
4.508088e-01
4.409811e-01
4.311325e-01
4.212695e-01
4.113989e-01
4.015276e-01
3.916623e-01
3.818099e-01
3.719769e-01
3.621697e-01
3.523947e-01
3.426580e-01
3.329660e-01
3.233247e-01
3.137401e-01
3.042181e-01
2.947643e-01
2.853844e-01
2.760837e-01
2.668677e-01
2.577416e-01
2.487105e-01
2.397792e-01
2.309524e-01
2.222347e-01
2.136306e-01
2.051445e-01
1.967807e-01
1.885437e-01
1.804378e-01
1.724673e-01
1.646365e-01
1.569496e-01
1.494108e-01
1.420239e-01
1.347929e-01
1.277213e-01
1.208123e-01
1.140690e-01
1.074936e-01
1.010886e-01
9.485608e-02
8.879796e-02
8.291618e-02
7.721256e-02
7.168894e-02
6.634711e-02
6.118878e-02
5.621544e-02
5.142827e-02
4.682812e-02
4.241551e-02
3.819060e-02
3.415318e-02
3.030270e-02
2.663822e-02
2.315838e-02
1.986139e-02
1.674513e-02
1.380725e-02
1.104529e-02
8.456684e-03
6.038626e-03
3.787990e-03
1.701319e-03
-2.251083e-04
-1.995182e-03
-3.612922e-03
-5.082507e-03
-6.408347e-03
-7.595144e-03
-8.647903e-03
-9.571892e-03
-1.037255e-02
-1.105541e-02
-1.162602e-02
-1.208984e-02
-1.245226e-02
-1.271844e-02
-1.289325e-02
-1.298123e-02
-1.298661e-02
-1.291340e-02
-1.276554e-02
-1.254699e-02
-1.226178e-02
-1.191395e-02
-1.150765e-02
-1.104712e-02
-1.053666e-02
-9.980548e-03
-9.382940e-03
-8.747851e-03
-8.079138e-03
-7.380389e-03
-6.654813e-03
-5.905220e-03
-5.134090e-03
-4.343649e-03
-3.535832e-03
-2.712076e-03
-1.873147e-03
-1.019161e-03
-1.497215e-04
7.359776e-04
1.639107e-03
2.561182e-03
3.504013e-03
4.469614e-03
5.460092e-03
6.477558e-03
7.524072e-03
8.601612e-03
9.712090e-03
1.085737e-02
1.203928e-02
1.325951e-02
1.451961e-02
1.582099e-02
1.716500e-02
1.855285e-02
1.998558e-02
2.146403e-02
2.298883e-02
2.456051e-02
2.617958e-02
2.784659e-02
2.956206e-02
3.132657e-02
3.314075e-02
3.500542e-02
3.692162e-02
3.889066e-02
4.091410e-02
4.299375e-02
4.513160e-02
4.732980e-02
4.959060e-02
5.191619e-02
5.430861e-02
5.676969e-02
5.930106e-02
6.190413e-02
6.458009e-02
6.732984e-02
7.015399e-02
7.305286e-02
7.602650e-02
7.907473e-02
8.219717e-02
8.539330e-02
8.866251e-02
9.200420e-02
9.541783e-02
9.890286e-02
1.024588e-01
1.060853e-01
1.097819e-01
1.135481e-01
1.173836e-01
1.212880e-01
1.252610e-01
1.293024e-01
1.334123e-01
1.375901e-01
1.418353e-01
1.461463e-01
1.505211e-01
1.549567e-01
1.594496e-01
1.639954e-01
1.685897e-01
1.732275e-01
1.779034e-01
1.826119e-01
1.873471e-01
1.921034e-01
1.968752e-01
2.016567e-01
2.064422e-01
2.112263e-01
2.160033e-01
2.207679e-01
2.255146e-01
2.302385e-01
2.349344e-01
2.395976e-01
2.442237e-01
2.488084e-01
2.533478e-01
2.578387e-01
2.622783e-01
2.666645e-01
2.709955e-01
2.752706e-01
2.794891e-01
2.836512e-01
2.877576e-01
2.918090e-01
2.958063e-01
2.997506e-01
3.036430e-01
3.074848e-01
3.112770e-01
3.150205e-01
3.187167e-01
3.223667e-01
3.259720e-01
3.295340e-01
3.330543e-01
3.365348e-01
3.399776e-01
3.433849e-01
3.467587e-01
3.501014e-01
3.534156e-01
3.567041e-01
3.599699e-01
3.632163e-01
3.664468e-01
3.696651e-01
3.728747e-01
3.760794e-01
3.792825e-01
3.824871e-01
3.856960e-01
3.889121e-01
3.921379e-01
3.953758e-01
3.986279e-01
4.018965e-01
4.051838e-01
4.084921e-01
4.118234e-01
4.151797e-01
4.185624e-01
4.219730e-01
4.254127e-01
4.288827e-01
4.323838e-01
4.359166e-01
4.394816e-01
4.430788e-01
4.467084e-01
4.503700e-01
4.540635e-01
4.577883e-01
4.615442e-01
4.653306e-01
4.691472e-01
4.729936e-01
4.768697e-01
4.807749e-01
4.847089e-01
4.886707e-01
4.926595e-01
4.966744e-01
5.007145e-01
5.047793e-01
5.088681e-01
5.129802e-01
5.171151e-01
5.212720e-01
5.254498e-01
5.296474e-01
5.338635e-01
5.380969e-01
5.423465e-01
5.466110e-01
5.508890e-01
5.551789e-01
5.594788e-01
5.637863e-01
5.680988e-01
5.724131e-01
5.767263e-01
5.810350e-01
5.853359e-01
5.896259e-01
5.939014e-01
5.981594e-01
6.023963e-01
6.066085e-01
6.107922e-01
6.149432e-01
6.190571e-01
6.231292e-01
6.271544e-01
6.311276e-01
6.350434e-01
6.388965e-01
6.426815e-01
6.463927e-01
6.500249e-01
6.535727e-01
6.570309e-01
6.603944e-01
6.636583e-01
6.668176e-01
6.698674e-01
6.728030e-01
6.756194e-01
6.783119e-01
6.808758e-01
6.833067e-01
6.856001e-01
6.877518e-01
6.897579e-01
6.916149e-01
6.933200e-01
6.948705e-01
6.962642e-01
6.974987e-01
6.985719e-01
6.994816e-01
7.002258e-01
7.008026e-01
7.012102e-01
7.014469e-01
7.015110e-01
7.014008e-01
7.011149e-01
7.006519e-01
7.000108e-01
6.991904e-01
6.981902e-01
6.970100e-01
6.956507e-01
6.941133e-01
6.923993e-01
6.905106e-01
6.884492e-01
6.862173e-01
6.838173e-01
6.812518e-01
6.785237e-01
6.756358e-01
6.725916e-01
6.693948e-01
6.660494e-01
6.625599e-01
6.589308e-01
6.551667e-01
6.512725e-01
6.472531e-01
6.431136e-01
6.388593e-01
6.344955e-01
6.300277e-01
6.254617e-01
6.208034e-01
6.160591e-01
6.112348e-01
6.063368e-01
6.013711e-01
5.963438e-01
5.912609e-01
5.861283e-01
5.809517e-01
5.757370e-01
5.704897e-01
5.652158e-01
5.599209e-01
5.546111e-01
5.492923e-01
5.439706e-01
5.386520e-01
5.333429e-01
5.280494e-01
5.227779e-01
5.175344e-01
5.123246e-01
5.071539e-01
5.020273e-01
4.969492e-01
4.919236e-01
4.869543e-01
4.820444e-01
4.771966e-01
4.724138e-01
4.676984e-01
4.630529e-01
4.584798e-01
4.539816e-01
4.495608e-01
4.452199e-01
4.409616e-01
4.367882e-01
4.327022e-01
4.287057e-01
4.248011e-01
4.209908e-01
4.172770e-01
4.136621e-01
4.101482e-01
4.067371e-01
4.034304e-01
4.002292e-01
3.971341e-01
3.941455e-01
3.912631e-01
3.884862e-01
3.858136e-01
3.832435e-01
3.807737e-01
3.784015e-01
3.761237e-01
3.739368e-01
3.718368e-01
3.698193e-01
3.678797e-01
3.660132e-01
3.642150e-01
3.624805e-01
3.608048e-01
3.591834e-01
3.576115e-01
3.560848e-01
3.545990e-01
3.531497e-01
3.517324e-01
3.503424e-01
3.489752e-01
3.476266e-01
3.462927e-01
3.449696e-01
3.436533e-01
3.423401e-01
3.410262e-01
3.397074e-01
3.383795e-01
3.370378e-01
3.356771e-01
3.342921e-01
3.328771e-01
3.314262e-01
3.299327e-01
3.283899e-01
3.267909e-01
3.251290e-01
3.233978e-01
3.215909e-01
3.197026e-01
3.177273e-01
3.156601e-01
3.134961e-01
3.112310e-01
3.088606e-01
3.063806e-01
3.037874e-01
3.010772e-01
2.982465e-01
2.952917e-01
2.922092e-01
2.889953e-01
2.856460e-01
2.821575e-01
2.785260e-01
2.747475e-01
2.708181e-01
2.667339e-01
2.624911e-01
2.580857e-01
2.535136e-01
2.487709e-01
2.438532e-01
2.387562e-01
2.334754e-01
2.280063e-01
2.223442e-01
2.164847e-01
2.104235e-01
2.041562e-01
1.976790e-01
1.909880e-01
1.840800e-01
1.769519e-01
1.696011e-01
1.620251e-01
1.542221e-01
1.461904e-01
1.379288e-01
1.294367e-01
1.207134e-01
1.117588e-01
1.025730e-01
9.315648e-02
8.350986e-02
7.363399e-02
6.352970e-02
5.319787e-02
4.263948e-02
3.185559e-02
2.084745e-02
9.616441e-03
-1.835886e-03
-1.350772e-02
-2.539696e-02
-3.750110e-02
-4.981716e-02
-6.234171e-02
-7.507082e-02
-8.800004e-02
-1.011244e-01
-1.144384e-01
-1.279363e-01
-1.416119e-01
-1.554588e-01
-1.694705e-01
-1.836401e-01
-1.979604e-01
-2.124241e-01
-2.270239e-01
-2.417528e-01
-2.566035e-01
-2.715689e-01
-2.866417e-01
-3.018147e-01
-3.170808e-01
-3.324330e-01
-3.478647e-01
-3.633692e-01
-3.789401e-01
-3.945711e-01
-4.102563e-01
-4.259900e-01
-4.417663e-01
-4.575799e-01
-4.734251e-01
-4.892967e-01
-5.051898e-01
-5.210995e-01
-5.370210e-01
-5.529495e-01
-5.688802e-01
-5.848083e-01
-6.007292e-01
-6.166385e-01
-6.325317e-01
-6.484048e-01
-6.642536e-01
-6.800743e-01
-6.958633e-01
-7.116171e-01
-7.273321e-01
-7.430050e-01
-7.586329e-01
-7.742128e-01
-7.897423e-01
-8.052187e-01
-8.206398e-01
-8.360029e-01
-8.513058e-01
-8.665459e-01
-8.817208e-01
-8.968284e-01
-9.118660e-01
-9.268315e-01
-9.417225e-01
-9.565366e-01
-9.712717e-01
-9.859255e-01
-1.000496e+00
-1.014980e+00
-1.029375e+00
-1.043680e+00
-1.057891e+00
-1.072006e+00
-1.086022e+00
-1.099938e+00
-1.113749e+00
-1.127455e+00
-1.141053e+00
-1.154540e+00
-1.167916e+00
-1.181178e+00
-1.194323e+00
-1.207351e+00
-1.220258e+00
-1.233042e+00
-1.245701e+00
-1.258231e+00
-1.270630e+00
-1.282895e+00
-1.295021e+00
-1.307007e+00
-1.318848e+00
-1.330541e+00
-1.342083e+00
-1.353471e+00
-1.364702e+00
-1.375772e+00
-1.386679e+00
-1.397421e+00
-1.407995e+00
-1.418399e+00
-1.428633e+00
-1.438694e+00
-1.448581e+00
-1.458293e+00
-1.467830e+00
-1.477189e+00
-1.486371e+00
-1.495374e+00
-1.504198e+00
-1.512842e+00
-1.521305e+00
-1.529586e+00
-1.537686e+00
-1.545604e+00
-1.553340e+00
-1.560891e+00
-1.568258e+00
-1.575440e+00
-1.582434e+00
-1.589238e+00
-1.595851e+00
-1.602267e+00
-1.608484e+00
-1.614496e+00
-1.620299e+00
-1.625888e+00
-1.631258e+00
-1.636406e+00
-1.641328e+00
-1.646019e+00
-1.650477e+00
-1.654698e+00
-1.658680e+00
-1.662422e+00
-1.665922e+00
-1.669178e+00
-1.672190e+00
-1.674958e+00
-1.677480e+00
-1.679756e+00
-1.681786e+00
-1.683571e+00
-1.685109e+00
-1.686401e+00
-1.687447e+00
-1.688246e+00
-1.688800e+00
-1.689107e+00
-1.689167e+00
-1.688979e+00
-1.688543e+00
-1.687859e+00
-1.686926e+00
-1.685744e+00
-1.684314e+00
-1.682638e+00
-1.680715e+00
-1.678546e+00
-1.676135e+00
-1.673483e+00
-1.670592e+00
-1.667466e+00
-1.664107e+00
-1.660520e+00
-1.656709e+00
-1.652677e+00
-1.648427e+00
-1.643965e+00
-1.639293e+00
-1.634415e+00
-1.629334e+00
-1.624054e+00
-1.618577e+00
-1.612906e+00
-1.607042e+00
-1.600987e+00
-1.594742e+00
-1.588311e+00
-1.581693e+00
-1.574891e+00
-1.567905e+00
-1.560737e+00
-1.553388e+00
-1.545859e+00
-1.538151e+00
-1.530265e+00
-1.522202e+00
-1.513964e+00
-1.505552e+00
-1.496969e+00
-1.488217e+00
-1.479298e+00
-1.470216e+00
-1.460974e+00
-1.451576e+00
-1.442026e+00
-1.432327e+00
-1.422482e+00
-1.412495e+00
-1.402369e+00
-1.392107e+00
-1.381710e+00
-1.371182e+00
-1.360526e+00
-1.349745e+00
-1.338841e+00
-1.327820e+00
-1.316684e+00
-1.305440e+00
-1.294092e+00
-1.282646e+00
-1.271110e+00
-1.259489e+00
-1.247792e+00
-1.236026e+00
-1.224198e+00
-1.212317e+00
-1.200389e+00
-1.188421e+00
-1.176422e+00
-1.164397e+00
-1.152353e+00
-1.140296e+00
-1.128232e+00
-1.116166e+00
-1.104104e+00
-1.092050e+00
-1.080009e+00
-1.067986e+00
-1.055985e+00
-1.044010e+00
-1.032065e+00
-1.020153e+00
-1.008279e+00
-9.964446e-01
-9.846548e-01
-9.729126e-01
-9.612220e-01
-9.495871e-01
-9.380126e-01
-9.265031e-01
-9.150637e-01
-9.036995e-01
-8.924160e-01
-8.812188e-01
-8.701137e-01
-8.591065e-01
-8.482026e-01
-8.374068e-01
-8.267237e-01
-8.161573e-01
-8.057110e-01
-7.953875e-01
-7.851890e-01
-7.751171e-01
-7.651729e-01
-7.553571e-01
-7.456698e-01
-7.361108e-01
-7.266796e-01
-7.173751e-01
-7.081965e-01
-6.991430e-01
-6.902139e-01
-6.814083e-01
-6.727257e-01
-6.641653e-01
-6.557263e-01
-6.474080e-01
-6.392094e-01
-6.311296e-01
-6.231670e-01
-6.153203e-01
-6.075874e-01
-5.999663e-01
-5.924545e-01
-5.850495e-01
-5.777485e-01
-5.705488e-01
-5.634478e-01
-5.564424e-01
-5.495299e-01
-5.427070e-01
-5.359706e-01
-5.293173e-01
-5.227434e-01
-5.162452e-01
-5.098184e-01
-5.034588e-01
-4.971618e-01
-4.909229e-01
-4.847373e-01
-4.786006e-01
-4.725086e-01
-4.664572e-01
-4.604427e-01
-4.544621e-01
-4.485123e-01
-4.425912e-01
-4.366967e-01
-4.308274e-01
-4.249822e-01
-4.191603e-01
-4.133610e-01
-4.075840e-01
-4.018288e-01
-3.960950e-01
-3.903821e-01
-3.846898e-01
-3.790175e-01
-3.733644e-01
-3.677298e-01
-3.621132e-01
-3.565138e-01
-3.509311e-01
-3.453646e-01
-3.398143e-01
-3.342802e-01
-3.287631e-01
-3.232637e-01
-3.177833e-01
-3.123234e-01
-3.068850e-01
-3.014692e-01
-2.960772e-01
-2.907097e-01
-2.853678e-01
-2.800525e-01
-2.747648e-01
-2.695060e-01
-2.642775e-01
-2.590810e-01
-2.539185e-01
-2.487919e-01
-2.437035e-01
-2.386554e-01
-2.336500e-01
-2.286894e-01
-2.237758e-01
-2.189112e-01
-2.140974e-01
-2.093359e-01
-2.046283e-01
-1.999759e-01
-1.953803e-01
-1.908426e-01
-1.863639e-01
-1.819445e-01
-1.775846e-01
-1.732841e-01
-1.690422e-01
-1.648579e-01
-1.607299e-01
-1.566568e-01
-1.526368e-01
-1.486684e-01
-1.447497e-01
-1.408792e-01
-1.370552e-01
-1.332763e-01
-1.295417e-01
-1.258505e-01
-1.222021e-01
-1.185963e-01
-1.150329e-01
-1.115117e-01
-1.080328e-01
-1.045962e-01
-1.012017e-01
-9.784908e-02
-9.453801e-02
-9.126793e-02
-8.803821e-02
-8.484817e-02
-8.169696e-02
-7.858350e-02
-7.550648e-02
-7.246440e-02
-6.945555e-02
-6.647808e-02
-6.352998e-02
-6.060916e-02
-5.771357e-02
-5.484138e-02
-5.199102e-02
-4.916126e-02
-4.635115e-02
-4.355998e-02
-4.078736e-02
-3.803323e-02
-3.529796e-02
-3.258236e-02
-2.988760e-02
-2.721523e-02
-2.456707e-02
-2.194520e-02
-1.935193e-02
-1.678975e-02
-1.426127e-02
-1.176918e-02
-9.316135e-03
-6.904770e-03
-4.537595e-03
-2.216939e-03
5.514814e-05
2.276954e-03
4.447078e-03
6.564382e-03
8.627960e-03
1.063713e-02
1.259143e-02
1.449058e-02
1.633445e-02
1.812302e-02
1.985635e-02
2.153451e-02
2.315755e-02
2.472542e-02
2.623803e-02
2.769520e-02
2.909663e-02
3.044199e-02
3.173096e-02
3.296337e-02
3.413916e-02
3.525834e-02
3.632084e-02
3.732669e-02
3.827611e-02
3.916964e-02
4.000812e-02
4.079245e-02
4.152352e-02
4.220230e-02
4.282998e-02
4.340816e-02
4.393888e-02
4.442455e-02
4.486782e-02
4.527154e-02
4.563886e-02
4.597331e-02
4.627885e-02
4.655962e-02
4.681978e-02
4.706342e-02
4.729473e-02
4.751813e-02
4.773828e-02
4.795982e-02
4.818721e-02
4.842470e-02
4.867640e-02
4.894643e-02
4.923880e-02
4.955727e-02
4.990538e-02
5.028648e-02
5.070390e-02
5.116101e-02
5.166106e-02
5.220709e-02
5.280189e-02
5.344801e-02
5.414777e-02
5.490314e-02
5.571566e-02
5.658632e-02
5.751557e-02
5.850339e-02
5.954930e-02
6.065248e-02
6.181176e-02
6.302567e-02
6.429243e-02
6.561003e-02
6.697628e-02
6.838896e-02
6.984575e-02
7.134433e-02
7.288238e-02
7.445769e-02
7.606827e-02
7.771230e-02
7.938812e-02
8.109417e-02
8.282907e-02
8.459164e-02
8.638092e-02
8.819614e-02
9.003665e-02
9.190187e-02
9.379126e-02
9.570429e-02
9.764046e-02
9.959920e-02
1.015799e-01
1.035818e-01
1.056042e-01
1.076465e-01
1.097078e-01
1.117877e-01
1.138854e-01
1.160004e-01
1.181319e-01
1.202792e-01
1.224415e-01
1.246180e-01
1.268081e-01
1.290108e-01
1.312255e-01
1.334515e-01
1.356882e-01
1.379352e-01
1.401920e-01
1.424583e-01
1.447341e-01
1.470190e-01
1.493129e-01
1.516156e-01
1.539268e-01
1.562462e-01
1.585736e-01
1.609087e-01
1.632511e-01
1.656009e-01
1.679584e-01
1.703239e-01
1.726979e-01
1.750810e-01
1.774736e-01
1.798765e-01
1.822903e-01
1.847156e-01
1.871533e-01
1.896040e-01
1.920684e-01
