EVENT_NAME: EMILIA_2ND_SHOCK
EVENT_ID: IT-2012-0011
EVENT_DATE_YYYYMMDD: 20120529
EVENT_TIME_HHMMSS: 070002
EVENT_LATITUDE_DEGREE: 44.8417
EVENT_LONGITUDE_DEGREE: 11.0657
EVENT_DEPTH_KM: 8.1
HYPOCENTER_REFERENCE: INGV-CNT_Seismic_Bulletin
MAGNITUDE_W: 6.0
MAGNITUDE_W_REFERENCE: RCMT-INGV
MAGNITUDE_L: 5.8
MAGNITUDE_L_REFERENCE: INGV-CNT_Seismic_Bulletin
FOCAL_MECHANISM: TF
NETWORK: IV
STATION_CODE: MODE
STATION_NAME: MODENA
STATION_LATITUDE_DEGREE: 44.629700
STATION_LONGITUDE_DEGREE: 10.949200
STATION_ELEVATION_M: 41
LOCATION: 
SENSOR_DEPTH_M: 0.0
VS30_M/S: 
SITE_CLASSIFICATION_EC8: C*
MORPHOLOGIC_CLASSIFICATION: 
EPICENTRAL_DISTANCE_KM: 25.3
EARTHQUAKE_BACKAZIMUTH_DEGREE: 21.3
DATE_TIME_FIRST_SAMPLE_YYYYMMDD_HHMMSS: 20120529_065934.000
DATE_TIME_FIRST_SAMPLE_PRECISION: milliseconds
SAMPLING_INTERVAL_S: 0.005000
NDATA: 40001
DURATION_S: 200.005
STREAM: HNE
UNITS: cm/s^2
INSTRUMENT: sensor = Episensor FBA ES-T [Kinemetrics] | digitizer = Unknown [Unknown]
INSTRUMENT_ANALOG/DIGITAL: D
INSTRUMENTAL_FREQUENCY_HZ: 
INSTRUMENTAL_DAMPING: 
FULL_SCALE_G: 
N_BIT_DIGITAL_CONVERTER: 
PGA_CM/S^2: 44.091628
TIME_PGA_S: 45.840000
BASELINE_CORRECTION: BASELINE REMOVED
FILTER_TYPE: BUTTERWORTH
FILTER_ORDER: 2
LOW_CUT_FREQUENCY_HZ: 0.030
HIGH_CUT_FREQUENCY_HZ: 40.000
LATE/NORMAL_TRIGGERED: NT
DATABASE_VERSION: DYNA 1.0
HEADER_FORMAT: DYNA 1.2
DATA_TYPE: ACCELERATION
PROCESSING: manual (Paolucci et al., 2011)
DATA_TIMESTAMP_YYYYMMDD_HHMMSS: 
DATA_LICENSE: CC-BY4_0 (http://creativecommons.org/licenses/by/4.0/)
DATA_CITATION: ESM working group (2015), European Strong-Motion database, version 0.1, Network Activity 3: Networking acceleration networks and SM data users. Project NERA (www.nera-eu.org)
DATA_CREATOR: ESM working group
ORIGINAL_DATA_MEDIATOR_CITATION: Orfeus - European Integrated Data Archive (EIDA) http://www.orfeus-eu.org/eida/
ORIGINAL_DATA_MEDIATOR: Orfeus - European Integrated Data Archive (EIDA)
ORIGINAL_DATA_CREATOR_CITATION: Data for this study comes from the Italian national seismic network operated by Istituto Nazionale di Geofisica e Vulcanologia and archived at the European Integrated Data Archive http://eida.rm.ingv.it/
ORIGINAL_DATA_CREATOR: network: IV (Italian National Seismic Network); owner: Istituto Nazionale di Geofisica e Vulcanologia
USER1: 
USER2: 
USER3: 
USER4: 
USER5: 
[...]
-0.133111
0.241984
0.607708
0.901791
1.112432
1.274335
1.424931
1.537832
1.501389
1.222850
0.734190
0.170620
-0.309937
-0.615503
-0.762519
-0.808911
-0.776194
-0.647594
-0.402693
-0.057600
0.318482
0.642617
0.866215
0.989725
1.052303
1.095366
1.133139
1.159502
1.161130
1.114539
0.984144
0.746390
0.424149
0.106002
-0.072292
-0.019855
0.233284
0.576012
0.893142
1.116709
1.241851
1.291322
1.281027
1.226427
1.154546
1.089803
1.038340
0.999340
0.981440
1.001355
1.074047
1.202406
1.371126
1.548675
1.689808
1.736423
1.625585
1.318935
0.833235
0.246417
-0.317379
-0.735063
-0.935422
-0.922033
-0.763793
-0.532148
-0.245405
0.115204
0.557926
1.035176
1.437356
1.672639
1.742940
1.722131
1.691347
1.673965
1.610123
1.421276
1.083359
0.635225
0.153087
-0.291380
-0.661023
-0.946071
-1.147501
-1.271728
-1.335839
-1.380527
-1.472338
-1.671933
-1.996586
-2.407054
-2.817978
-3.140691
-3.318966
-3.321062
-3.125076
-2.729758
-2.171351
-1.522479
-0.878594
-0.334311
0.035133
0.175620
0.059013
-0.291740
-0.783269
-1.276062
-1.630000
-1.759258
-1.673645
-1.469700
-1.289471
-1.243668
-1.348159
-1.533306
-1.689751
-1.733812
-1.650036
-1.464655
-1.207836
-0.912040
-0.625774
-0.417505
-0.357722
-0.466621
-0.677443
-0.876303
-0.965276
-0.902002
-0.704098
-0.397764
0.025027
0.578630
1.238505
1.931884
2.562194
3.069499
3.468349
3.799274
4.068214
4.245790
4.301503
4.250695
4.168135
4.116963
4.080398
3.986023
3.764859
3.397398
2.928119
2.425211
1.941213
1.518875
1.201297
1.007391
0.904475
0.819934
0.675741
0.435100
0.130734
-0.165027
-0.386978
-0.509265
-0.557151
-0.581811
-0.624688
-0.691366
-0.746392
-0.750615
-0.700768
-0.630936
-0.589526
-0.595930
-0.609901
-0.554688
-0.364054
-0.031853
0.367076
0.731305
1.003418
1.202227
1.412506
1.709729
2.089722
2.472323
2.738408
2.781042
2.550685
2.074698
1.452761
0.808963
0.238114
-0.218469
-0.569808
-0.831376
-0.980905
-0.953827
-0.665430
-0.065569
0.803332
1.783800
2.633901
3.154934
3.303862
3.166259
2.871905
2.513360
2.115233
1.703309
1.359543
1.154943
1.066312
0.989016
0.801842
0.449779
-0.011784
-0.477384
-0.868220
-1.152198
-1.335092
-1.442687
-1.511113
-1.593651
-1.763939
-2.091560
-2.605619
-3.264546
-3.953089
-4.541539
-4.948605
-5.151299
-5.166604
-5.020837
-4.736983
-4.365675
-4.007493
-3.771909
-3.725776
-3.882022
-4.207449
-4.635694
-5.078720
-5.441463
-5.645021
-5.661908
-5.535950
-5.348207
-5.171756
-5.050633
-4.993660
-4.981544
-4.980687
-4.964762
-4.928917
-4.877694
-4.808660
-4.711089
-4.572323
-4.384865
-4.147350
-3.855603
-3.502063
-3.100159
-2.698761
-2.347527
-2.058853
-1.814545
-1.592962
-1.397111
-1.266743
-1.252923
-1.385581
-1.657208
-2.016541
-2.374956
-2.625307
-2.682646
-2.518522
-2.155904
-1.650663
-1.077853
-0.526967
-0.105072
0.071655
-0.076523
-0.541969
-1.212301
-1.888866
-2.364295
-2.499812
-2.244259
-1.620575
-0.690289
0.467967
1.737557
2.948324
3.920082
4.525408
4.733432
4.622925
4.336288
4.021839
3.797284
3.728422
3.824727
4.041308
4.292428
4.475710
4.512955
4.384177
4.122084
3.784847
3.416817
3.029708
2.640942
2.312957
2.134320
2.172133
2.422391
2.795174
3.182101
3.524912
3.807833
4.022123
4.145916
4.152104
4.054035
3.930978
3.871469
3.909885
4.030430
4.198668
4.384381
4.558676
4.652688
4.536762
4.086365
3.260261
2.115213
0.779341
-0.607668
-1.937000
-3.109811
-4.010755
-4.532821
-4.625795
-4.339375
-3.834205
-3.317404
-2.964241
-2.876568
-3.068903
-3.489581
-4.052306
-4.667877
-5.265516
-5.788918
-6.187561
-6.420267
-6.468152
-6.350112
-6.120138
-5.822075
-5.453430
-4.993945
-4.448083
-3.852483
-3.258048
-2.694311
-2.152755
-1.626950
-1.152676
-0.790431
-0.587176
-0.549323
-0.635450
-0.781388
-0.926400
-1.015383
-0.993803
-0.811863
-0.437926
0.119759
0.799878
1.508738
2.156744
2.697858
3.149066
3.555502
3.943675
4.300696
4.580918
4.747801
4.801641
4.745044
4.544630
4.150867
3.545303
2.784268
2.005369
1.352326
0.903043
0.682279
0.698939
0.953597
1.419130
2.002292
2.531586
2.828291
2.791614
2.431421
1.859496
1.229976
0.681093
0.318063
0.207813
0.363951
0.730381
1.187596
1.584318
1.804625
1.815789
1.632739
1.264645
0.702878
-0.059415
-0.983432
-1.964194
-2.887443
-3.698216
-4.416887
-5.118137
-5.872745
-6.697259
-7.553658
-8.367709
-9.048375
-9.502597
-9.647835
-9.430917
-8.857427
-8.006577
-6.997330
-5.949011
-4.974091
-4.181248
-3.663689
-3.470899
-3.566684
-3.812134
-4.028311
-4.075359
-3.893110
-3.511506
-3.021379
-2.533257
-2.136891
-1.874836
-1.750127
-1.740271
-1.796764
-1.836917
-1.741822
-1.375202
-0.645282
0.439789
1.779932
3.219391
4.594044
5.770983
6.664773
7.243962
7.529190
7.585768
7.503546
7.372030
7.257401
7.189144
7.170201
7.191650
7.237410
7.282794
7.290904
7.213991
7.008456
6.652061
6.153587
5.557794
4.940315
4.388636
3.958768
3.642391
3.388560
3.144902
2.891142
2.651229
2.462080
2.335663
2.246814
2.142425
1.977505
1.748586
1.492204
1.259792
1.073348
0.902986
0.714946
0.527893
0.415484
0.475248
0.772244
1.297931
1.988360
2.761748
3.546271
4.288363
4.927511
5.370807
5.504293
5.232703
4.546135
3.560707
2.464549
1.438327
0.605809
0.017092
-0.321425
-0.413991
-0.270239
0.091789
0.647973
1.366505
2.189443
3.020372
3.748616
4.285420
4.590802
4.684054
4.621742
4.467198
4.265730
4.026700
3.721448
3.297322
2.720665
2.017517
1.275052
0.617231
0.152079
-0.076992
-0.102323
-0.020914
0.041337
-0.031413
-0.315068
-0.821853
-1.490647
-2.195945
-2.797245
-3.193740
-3.348422
-3.284014
-3.040580
-2.641006
-2.107865
-1.490689
-0.861990
-0.288480
0.218866
0.734878
1.376033
2.230682
3.300369
4.471898
5.560441
6.379610
6.814749
6.871839
6.656032
6.317770
5.982992
5.706981
5.499582
5.366320
5.320957
5.375769
5.511544
5.654801
5.694003
5.516973
5.064756
4.376452
3.586369
2.883631
2.424677
2.265813
2.389427
2.752824
3.302660
3.967660
4.649049
5.235553
5.667696
5.982687
6.261337
6.556906
6.879363
7.211439
7.537833
7.856917
8.149772
8.355586
8.404475
8.262943
7.946682
7.507209
6.990781
6.405084
5.729809
4.943155
4.043953
3.059679
2.027536
0.973505
-0.087342
-1.136981
-2.132494
-2.996968
-3.651534
-4.058626
-4.245511
-4.296079
-4.287546
-4.237182
-4.129276
-3.970641
-3.827961
-3.824315
-4.061106
-4.546475
-5.210832
-5.952431
-6.671909
-7.291948
-7.762292
-8.065803
-8.229013
-8.318393
-8.394644
-8.466966
-8.494135
-8.410971
-8.171302
-7.781836
-7.299150
-6.809843
-6.401297
-6.138120
-6.057603
-6.169917
-6.452345
-6.839001
-7.214115
-7.422242
-7.318945
-6.823990
-5.936390
-4.722671
-3.276360
-1.684310
-0.030746
1.592623
3.098270
4.421560
5.526970
6.399011
7.013214
7.318370
7.267733
6.863535
6.179291
5.351498
4.518323
3.758454
3.084353
2.468250
1.892310
1.379967
0.963117
0.639316
0.366313
0.074908
-0.311622
-0.858631
-1.600361
-2.518437
-3.529360
-4.500354
-5.323826
-5.976348
-6.479816
-6.838490
-7.021995
-6.991273
-6.768608
-6.477629
-6.270225
-6.234426
-6.370755
-6.611777
-6.875847
-7.112891
-7.307278
-7.465595
-7.602942
-7.727486
-7.819167
-7.817421
-7.643760
-7.237490
-6.588999
-5.758423
-4.857225
-4.014933
-3.340135
-2.888352
-2.657081
-2.602982
-2.688959
-2.920709
-3.325564
-3.909650
-4.623027
-5.352961
-5.974451
-6.401008
-6.585685
-6.509342
-6.186293
-5.673196
-5.056101
-4.420818
-3.811046
-3.206191
-2.561236
-1.857707
-1.121947
-0.423425
0.145383
0.496093
0.575921
0.389012
-0.016800
-0.577326
-1.240327
-1.979478
-2.775312
-3.595710
-4.405434
-5.183758
-5.930344
-6.662117
-7.401733
-8.166374
-8.962585
-9.782826
-10.602336
-11.379761
-12.068384
-12.627609
-13.026773
-13.250153
-13.311350
-13.264122
-13.187728
-13.156074
-13.194903
-13.255166
-13.239864
-13.043994
-12.578008
-11.780156
-10.624737
-9.137477
-7.423261
-5.681063
-4.165247
-3.123380
-2.727934
-3.026618
-3.948087
-5.330642
-6.963967
-8.628851
-10.126063
-11.299298
-12.048481
-12.334475
-12.166897
-11.589522
-10.672450
-9.504628
-8.180295
-6.787553
-5.410479
-4.135202
-3.050066
-2.237142
-1.749919
-1.594126
-1.731493
-2.093784
-2.603032
-3.192746
-3.823736
-4.485571
-5.165888
-5.820013
-6.376447
-6.763245
-6.948254
-6.966264
-6.899686
-6.843245
-6.869253
-6.998179
-7.184673
-7.323983
-7.299851
-7.033471
-6.493937
-5.688698
-4.643550
-3.390812
-1.978273
-0.472329
1.070078
2.626469
4.192221
5.752916
7.274880
8.712034
10.029268
11.217451
12.274539
13.181194
13.898392
14.379330
14.594449
14.555510
14.323912
14.004390
13.714097
13.549055
13.565777
13.771961
14.128639
14.560625
14.983719
15.336710
15.603923
15.817220
16.016514
16.213675
16.403383
16.586540
16.773706
16.970648
17.149611
17.237999
17.160973
16.887447
16.430515
15.828950
15.127878
14.364717
13.561295
12.715543
11.794131
10.738574
9.502769
8.083512
6.502642
4.779654
2.932264
0.995106
-0.956152
-2.804425
-4.449900
-5.865831
-7.084517
-8.152671
-9.084716
-9.840093
-10.357186
-10.597188
-10.561245
-10.291433
-9.857756
-9.340025
-8.805969
-8.296033
-7.831183
-7.429189
-7.116388
-6.923713
-6.852381
-6.846710
-6.816843
-6.678765
-6.384934
-5.935783
-5.356481
-4.671480
-3.902639
-3.074640
-2.213813
-1.343974
-0.484054
0.354389
1.171112
1.976605
2.776919
3.555830
4.268933
4.852339
5.254266
5.460612
5.484246
5.345624
5.065792
4.663333
4.147505
3.515677
2.770703
1.944952
1.114277
0.389970
-0.132010
-0.415893
-0.474366
-0.338901
-0.043377
0.376893
0.868457
1.347652
1.716267
1.887710
1.810632
1.481911
0.934050
0.212336
-0.648334
-1.633086
-2.725182
-3.884662
-5.058339
-6.199962
-7.281113
-8.290769
-9.219548
-10.046488
-10.742422
-11.272673
-11.584770
-11.601526
-11.246946
-10.481015
-9.319296
-7.833710
-6.123336
-4.287058
-2.424991
-0.644925
0.951159
2.292578
3.367731
4.235243
4.989649
5.717250
6.472686
7.275027
8.127932
9.033795
9.974928
10.891277
11.686481
12.250468
12.491541
12.358455
11.832451
10.916401
9.643559
8.090016
6.371036
4.625783
2.990715
1.576622
0.463304
-0.301965
-0.711971
-0.807256
-0.672228
-0.421374
-0.170971
-0.010820
0.008916
-0.120078
-0.376508
-0.722828
-1.111083
-1.486876
-1.797640
-2.003783
-2.088195
-2.056348
-1.914231
-1.645979
-1.214878
-0.578318
0.287289
1.369611
2.631685
4.030179
5.524003
7.074842
8.639527
10.163530
11.584196
12.838768
13.876571
14.672520
15.238634
15.627581
15.914214
16.169407
16.436750
16.720331
16.998625
17.245258
17.442169
17.582256
17.653931
17.623466
17.430384
16.994761
16.241673
15.124228
13.627811
11.766829
9.580022
7.126079
4.476981
1.708380
-1.112892
-3.935610
-6.714308
-9.399532
-11.942855
-14.302629
-16.437483
-18.300846
-19.853479
-21.082054
-22.009436
-22.689714
-23.176371
-23.496540
-23.664312
-23.700420
-23.629250
-23.468500
-23.226961
-22.907082
-22.507540
-22.022802
-21.439066
-20.735144
-19.895992
-18.919750
-17.799332
-16.508919
-15.028953
-13.377754
-11.613868
-9.814821
-8.031942
-6.259981
-4.466378
-2.636120
-0.794439
0.994054
2.660059
4.164972
5.507206
6.711418
7.804668
8.799211
9.702163
10.533713
11.337371
12.175091
13.095647
14.106725
15.179421
16.258398
17.256792
18.052401
18.510862
18.522295
18.036072
17.070728
15.671085
13.877695
11.769464
9.503410
7.267548
5.207677
3.390153
1.809044
0.453220
-0.649705
-1.493705
-2.160380
-2.790297
-3.518563
-4.427102
-5.529335
-6.806267
-8.237892
-9.781559
-11.342292
-12.783526
-13.962217
-14.777008
-15.199069
-15.251489
-14.981393
-14.457680
-13.771377
-13.010024
-12.223015
-11.402623
-10.493481
-9.451161
-8.285541
-7.022008
-5.650538
-4.131416
-2.430988
-0.564628
1.383994
3.305666
5.120113
6.798864
8.362825
9.848468
11.271649
12.613193
13.822282
14.842056
15.630158
16.150215
16.360209
16.221380
15.711456
14.827671
13.590488
12.057854
10.331966
8.530862
6.748696
5.028864
3.362043
1.729363
0.138604
-1.395173
-2.875544
-4.312521
-5.703398
-7.040441
-8.328144
-9.591716
-10.875902
-12.230123
-13.691157
-15.267636
-16.922110
-18.555708
-20.019835
-21.189905
-22.025541
-22.534864
-22.716328
-22.546797
-22.005404
-21.125019
-20.018589
-18.823561
-17.638676
-16.520620
-15.501894
-14.596633
-13.794963
-13.053096
-12.294254
-11.439617
-10.444131
-9.312329
-8.096899
-6.871980
-5.702822
-4.629202
-3.661945
-2.797488
-2.029413
-1.338880
-0.683216
-0.004046
0.754131
1.620588
2.580969
3.580134
4.534812
5.355566
5.970922
6.346912
6.494616
6.448776
6.240422
5.882999
5.371434
4.697739
3.862826
2.865774
1.689267
0.301127
-1.331914
-3.218988
-5.327021
-7.591386
-9.934758
-12.279797
-14.556235
-16.702820
-18.668913
-20.416151
-21.916294
-23.138300
-24.034431
-24.536572
-24.560720
-24.023230
-22.858179
-21.028280
-18.532360
-15.409975
-11.743881
-7.653802
-3.280040
1.248937
5.841729
10.435260
14.978324
19.427031
23.743769
27.886665
31.791105
35.350716
38.419804
40.867874
42.630131
43.697613
44.091629
43.860783
43.091000
41.910728
40.473793
38.899326
37.224644
35.434364
33.509338
31.447563
29.261787
26.954910
24.501143
21.859680
18.999956
15.923158
12.673389
9.325460
5.961941
2.646183
-0.591911
-3.735713
-6.759035
-9.628529
-12.314337
-14.793666
-17.048790
-19.063988
-20.829355
-22.357481
-23.691298
-24.877790
-25.939823
-26.876434
-27.670345
-28.284107
-28.653454
-28.691891
-28.304482
-27.411327
-25.965839
-23.953299
-21.388859
-18.328697
-14.874934
-11.148318
-7.255762
-3.278970
0.724797
4.713352
8.650613
12.499834
16.212219
19.707268
22.866835
25.575302
27.767673
29.444796
30.657299
31.449171
31.815605
31.733990
31.214727
30.322338
29.161425
27.813856
26.289242
24.552011
22.566702
20.311474
17.770489
14.917420
11.715761
8.163012
4.334594
0.377458
-3.525967
-7.218469
-10.620072
-13.730544
-16.598072
-19.250540
-21.641903
-23.673592
-25.244244
-26.293985
-26.821293
-26.846992
-26.383020
-25.460255
-24.169514
-22.668205
-21.159264
-19.836637
-18.830717
-18.183567
-17.844191
-17.693581
-17.584368
-17.390932
-17.042850
-16.505581
-15.750994
-14.753246
-13.500411
-12.012666
-10.348293
-8.575930
-6.742669
-4.866377
-2.943545
-0.970169
1.042158
3.073355
5.111810
7.170658
9.291263
11.516026
13.857383
16.286488
18.732727
21.092613
23.243162
25.062220
26.447870
27.326611
27.652800
27.398031
26.545773
25.106558
23.134327
20.722752
17.990740
15.062120
12.050858
9.064348
6.212448
3.611041
1.374380
-0.411749
-1.711013
-2.523462
-2.862682
-2.744034
-2.185491
-1.223079
0.081371
1.662366
3.473963
5.484959
7.664301
9.972038
12.357099
14.763535
17.137230
19.427488
21.586481
23.568657
25.330851
26.834736
28.052364
28.975569
29.619974
30.011339
30.169596
30.104498
29.816528
29.299524
28.544064
27.544474
26.307858
24.861612
23.252771
21.527555
19.710123
17.799927
15.779656
13.632244
11.357670
8.980885
6.550652
4.121782
1.734359
-0.596174
-2.874794
-5.098767
-7.232684
-9.216052
-10.985602
-12.501730
-13.766477
-14.818224
-15.719128
-16.543592
-17.368406
-18.261757
-19.269213
-20.396013
-21.594852
-22.776373
-23.832722
-24.670778
-25.235048
-25.495956
-25.430866
-25.020330
-24.254305
-23.144142
-21.729496
-20.069338
-18.230965
-16.286877
-14.310895
-12.364402
-10.484667
-8.690642
-6.994099
-5.406356
-3.940295
-2.606750
-1.410995
-0.352887
0.573434
1.382046
2.091938
2.708765
3.212130
3.572879
3.777067
3.833857
3.769390
3.605421
3.344746
2.986594
2.548722
2.075041
1.631224
1.284543
1.080595
1.027327
1.090506
1.211787
1.328804
1.380969
1.310464
1.067617
0.620632
-0.033376
-0.865791
-1.835456
-2.907106
-4.048114
-5.219679
-6.376793
-7.472911
-8.464295
-9.310851
-9.971627
-10.403769
-10.575549
-10.481831
-10.150137
-9.639125
-9.025577
-8.387116
-7.783593
-7.242657
-6.758855
-6.299461
-5.816014
-5.254779
-4.561659
-3.687227
-2.597654
-1.286878
0.217603
1.857494
3.561212
5.258965
6.879252
8.342655
9.569110
10.492256
11.073531
11.306511
11.200828
10.771017
10.055478
9.137701
8.138305
7.190710
6.406938
5.850982
5.539484
5.452688
5.548032
5.772136
6.067653
6.373872
6.618575
6.717662
6.602167
6.247046
5.674309
4.941650
4.121385
3.284644
2.502510
1.846532
1.372849
1.106012
1.041006
1.151672
1.396851
1.724344
2.075098
2.389402
2.616412
2.721814
2.687372
2.508685
2.195952
1.775658
1.290072
0.794870
0.352744
0.023281
-0.151875
-0.159432
-0.008013
0.282892
0.689084
1.182824
1.728087
2.276752
2.771963
3.153669
3.364095
3.355318
3.101620
2.607859
1.901917
1.023950
0.021860
-1.051760
-2.146461
-3.220748
-4.242036
-5.181217
-6.003683
-6.669118
-7.154931
-7.477880
-7.685026
-7.830818
-7.952054
-8.053759
-8.123101
-8.150472
-8.141296
-8.116418
-8.094880
-8.077260
-8.047264
-7.982871
-7.871700
-7.719439
-7.538587
-7.334471
-7.104052
-6.842534
-6.554892
-6.263392
-5.999930
-5.791490
-5.643555
-5.529964
-5.402263
-5.206687
-4.902318
-4.473631
-3.927585
-3.284490
-2.566448
-1.788428
-0.957736
-0.077511
0.847110
1.804527
2.778324
3.750455
4.702683
5.616965
6.476211
7.266733
7.982466
8.624924
9.190521
9.657209
9.984205
10.121076
10.026733
9.684865
9.102690
8.306368
7.341862
6.274128
5.173893
4.102095
3.102513
2.200482
1.407852
0.726336
0.144322
-0.363471
-0.823203
-1.249712
-1.649480
-2.027527
-2.388050
-2.730982
-3.046477
-3.310893
-3.488681
-3.537787
-3.419507
-3.109175
-2.603952
-1.925681
-1.114511
-0.223755
0.676418
1.498897
2.158597
2.594370
2.777143
2.708810
2.413046
1.929186
1.317665
0.664162
0.066853
-0.383702
-0.625532
-0.640838
-0.455436
-0.128578
0.268680
0.674409
1.045132
1.359352
1.615755
1.828471
2.016931
2.194751
2.362217
2.503294
2.591979
2.601538
2.513229
2.322949
2.041740
1.690738
1.287621
0.835436
0.326361
-0.248581
-0.889833
-1.584029
-2.308871
-3.040614
-3.759139
-4.450491
-5.105846
-5.719570
-6.287413
-6.804902
-7.265333
-7.656797
-7.958412
-8.139427
-8.167053
-8.015908
-7.673536
-7.144064
-6.451205
-5.640362
-4.775663
-3.931278
-3.173305
-2.544038
-2.061724
-1.725550
-1.519004
-1.411037
-1.357603
-1.308405
-1.224784
-1.094571
-0.926744
-0.738577
-0.545073
-0.355856
-0.184695
-0.055315
0.013669
0.027803
0.021711
0.051616
0.172447
0.418463
0.805917
1.342121
2.028870
2.861245
3.823814
4.889717
6.027564
7.207603
8.397720
9.555738
10.625117
11.538291
12.234974
12.679762
12.862052
12.786360
12.458112
11.877649
11.056560
10.034776
8.876809
7.658650
6.453544
5.323459
4.321900
3.495203
2.871091
2.447658
2.198364
2.083410
2.060476
