EVENT_NAME: EMILIA_2ND_SHOCK
EVENT_ID: IT-2012-0011
EVENT_DATE_YYYYMMDD: 20120529
EVENT_TIME_HHMMSS: 070002
EVENT_LATITUDE_DEGREE: 44.8417
EVENT_LONGITUDE_DEGREE: 11.0657
EVENT_DEPTH_KM: 8.1
HYPOCENTER_REFERENCE: INGV-CNT_Seismic_Bulletin
MAGNITUDE_W: 6.0
MAGNITUDE_W_REFERENCE: RCMT-INGV
MAGNITUDE_L: 5.8
MAGNITUDE_L_REFERENCE: INGV-CNT_Seismic_Bulletin
FOCAL_MECHANISM: TF
NETWORK: IV
STATION_CODE: SERM
STATION_NAME: SERMIDE
STATION_LATITUDE_DEGREE: 45.010000
STATION_LONGITUDE_DEGREE: 11.295800
STATION_ELEVATION_M: 7
LOCATION: 
SENSOR_DEPTH_M: 1.0
VS30_M/S: 
SITE_CLASSIFICATION_EC8: C*
MORPHOLOGIC_CLASSIFICATION: 
EPICENTRAL_DISTANCE_KM: 26.1
EARTHQUAKE_BACKAZIMUTH_DEGREE: 224.2
DATE_TIME_FIRST_SAMPLE_YYYYMMDD_HHMMSS: 20120529_065954.000
DATE_TIME_FIRST_SAMPLE_PRECISION: milliseconds
SAMPLING_INTERVAL_S: 0.005000
NDATA: 20001
DURATION_S: 100.005
STREAM: HNZ
UNITS: cm/s^2
INSTRUMENT: sensor = Episensor FBA ES-T [Kinemetrics] | digitizer = Unknown [Unknown]
INSTRUMENT_ANALOG/DIGITAL: D
INSTRUMENTAL_FREQUENCY_HZ: 
INSTRUMENTAL_DAMPING: 
FULL_SCALE_G: 
N_BIT_DIGITAL_CONVERTER: 
PGA_CM/S^2: 9.034703
TIME_PGA_S: 19.630000
BASELINE_CORRECTION: BASELINE REMOVED
FILTER_TYPE: BUTTERWORTH
FILTER_ORDER: 2
LOW_CUT_FREQUENCY_HZ: 0.100
HIGH_CUT_FREQUENCY_HZ: 40.000
LATE/NORMAL_TRIGGERED: NT
DATABASE_VERSION: DYNA 1.0
HEADER_FORMAT: DYNA 1.2
DATA_TYPE: ACCELERATION
PROCESSING: manual (Paolucci et al., 2011)
DATA_TIMESTAMP_YYYYMMDD_HHMMSS: 
DATA_LICENSE: CC-BY4_0 (http://creativecommons.org/licenses/by/4.0/)
DATA_CITATION: ESM working group (2015), European Strong-Motion database, version 0.1, Network Activity 3: Networking acceleration networks and SM data users. Project NERA (www.nera-eu.org)
DATA_CREATOR: ESM working group
ORIGINAL_DATA_MEDIATOR_CITATION: Orfeus - European Integrated Data Archive (EIDA) http://www.orfeus-eu.org/eida/
ORIGINAL_DATA_MEDIATOR: Orfeus - European Integrated Data Archive (EIDA)
ORIGINAL_DATA_CREATOR_CITATION: Data for this study comes from the Italian national seismic network operated by Istituto Nazionale di Geofisica e Vulcanologia and archived at the European Integrated Data Archive http://eida.rm.ingv.it/
ORIGINAL_DATA_CREATOR: network: IV (Italian National Seismic Network); owner: Istituto Nazionale di Geofisica e Vulcanologia
USER1: 
USER2: 
USER3: 
USER4: 
USER5: 
[...]
0.021046
0.008264
-0.004094
-0.012638
-0.014724
-0.012353
-0.010702
-0.011076
-0.007930
0.002903
0.017060
0.027065
0.028940
0.022153
0.009908
-0.002280
-0.012185
-0.020259
-0.023094
-0.016202
-0.003529
0.005222
0.005873
0.001728
-0.002961
-0.007496
-0.012560
-0.015827
-0.014287
-0.008793
-0.001119
0.009592
0.023537
0.037620
0.047807
0.051159
0.046643
0.035492
0.019038
-0.001594
-0.021564
-0.033355
-0.034735
-0.031475
-0.029870
-0.029341
-0.024589
-0.013623
-0.000970
0.006989
0.007543
0.003011
-0.001582
-0.003114
-0.002258
0.000595
0.007629
0.018585
0.027469
0.027989
0.020264
0.010066
0.002087
-0.004361
-0.011532
-0.017758
-0.019372
-0.014903
-0.004839
0.007932
0.018124
0.024047
0.028698
0.031814
0.030199
0.025217
0.018916
0.007698
-0.010149
-0.027597
-0.036998
-0.039436
-0.041189
-0.043429
-0.039375
-0.023092
0.001321
0.022402
0.032028
0.030640
0.023369
0.014494
0.005302
-0.003869
-0.009966
-0.008577
-0.000198
0.008494
0.011537
0.009157
0.005133
0.001797
-0.000636
-0.002288
-0.003063
-0.002588
0.000233
0.006740
0.017136
0.028734
0.035866
0.035042
0.028900
0.021166
0.011704
-0.000444
-0.013665
-0.024862
-0.032152
-0.036864
-0.040797
-0.039922
-0.026848
-0.002845
0.019602
0.029766
0.028200
0.021433
0.013037
0.002881
-0.007685
-0.013393
-0.009378
0.002815
0.015571
0.022216
0.022059
0.017737
0.010566
0.000689
-0.010278
-0.019220
-0.024100
-0.024696
-0.020797
-0.012223
-0.000596
0.010435
0.016529
0.015687
0.010545
0.005079
0.000488
-0.002943
-0.003641
-0.000944
0.003043
0.004106
-0.001079
-0.009663
-0.013086
-0.007616
0.000226
0.002671
-0.001114
-0.006894
-0.009916
-0.008278
-0.003531
0.002649
0.010404
0.018875
0.024531
0.025013
0.022309
0.020297
0.020144
0.018828
0.012712
0.001382
-0.012439
-0.023881
-0.026825
-0.017204
0.003313
0.027306
0.045246
0.050518
0.043039
0.028327
0.012322
-0.003724
-0.024058
-0.052319
-0.083175
-0.104648
-0.108996
-0.094189
-0.059349
-0.009665
0.039383
0.071871
0.082674
0.076844
0.062447
0.045557
0.029848
0.017778
0.009394
0.002242
-0.003834
-0.005051
-0.000421
0.004244
0.002573
-0.005219
-0.013340
-0.017017
-0.016860
-0.016303
-0.015727
-0.011450
-0.001239
0.010732
0.016247
0.011219
0.000022
-0.008944
-0.010246
-0.005705
-0.002718
-0.004705
-0.006102
-0.001653
0.005467
0.009929
0.011461
0.011422
0.009809
0.008001
0.007072
0.004395
-0.002010
-0.008944
-0.011765
-0.010387
-0.010067
-0.016376
-0.029252
-0.042277
-0.047602
-0.041904
-0.028413
-0.013348
-0.001575
0.004374
0.004775
0.003500
0.005105
0.009470
0.011423
0.007048
-0.002263
-0.013529
-0.025777
-0.038648
-0.051789
-0.064976
-0.076077
-0.082117
-0.083381
-0.081533
-0.073987
-0.057400
-0.036296
-0.019427
-0.007873
0.004677
0.020419
0.033415
0.036186
0.025594
0.004916
-0.015720
-0.024080
-0.014434
0.008847
0.033399
0.042930
0.025978
-0.012383
-0.048855
-0.058915
-0.038729
-0.006199
0.019250
0.030171
0.025443
0.003267
-0.033262
-0.065701
-0.064065
-0.017617
0.038219
0.048552
-0.005967
-0.095928
-0.172084
-0.193319
-0.148857
-0.072121
-0.013777
0.011202
0.029603
0.057430
0.066066
0.013945
-0.098691
-0.213348
-0.253613
-0.190366
-0.062021
0.077572
0.204420
0.296853
0.300351
0.168264
-0.062935
-0.271571
-0.338259
-0.228141
-0.002573
0.213114
0.279856
0.126792
-0.168253
-0.397389
-0.371352
-0.087054
0.245826
0.369105
0.190105
-0.150782
-0.403782
-0.418773
-0.266369
-0.132142
-0.091800
-0.059972
0.036593
0.136777
0.142386
0.058219
-0.028962
-0.044993
0.053143
0.257274
0.441622
0.433345
0.220553
-0.017389
-0.126889
-0.128154
-0.124451
-0.140278
-0.103899
0.013874
0.108781
0.041780
-0.201065
-0.472019
-0.570932
-0.420670
-0.151583
0.047110
0.143452
0.236119
0.363140
0.452375
0.407867
0.165526
-0.255291
-0.684238
-0.864548
-0.666831
-0.213282
0.240576
0.512167
0.556937
0.402573
0.120357
-0.173963
-0.375503
-0.403910
-0.191430
0.180909
0.401445
0.205394
-0.286299
-0.641974
-0.531253
-0.048776
0.352918
0.292189
-0.165647
-0.595151
-0.629519
-0.236103
0.322555
0.670715
0.545708
0.014252
-0.530704
-0.675971
-0.320028
0.276503
0.728819
0.825563
0.628294
0.322486
0.053964
-0.076193
0.005681
0.259256
0.485266
0.470363
0.187456
-0.173197
-0.346724
-0.187767
0.198994
0.534882
0.603558
0.389034
0.030398
-0.307671
-0.553938
-0.725619
-0.793743
-0.625630
-0.148486
0.466318
0.904310
0.988509
0.753120
0.298199
-0.271449
-0.781228
-0.982179
-0.691146
0.005155
0.709754
0.980032
0.681011
0.099310
-0.277021
-0.167050
0.256705
0.587221
0.636118
0.551280
0.512880
0.478997
0.256250
-0.269115
-0.968398
-1.501637
-1.529274
-0.921805
0.139914
1.154520
1.517761
1.006081
0.037122
-0.700228
-0.832157
-0.459310
0.090978
0.513331
0.640688
0.480281
0.145635
-0.256735
-0.632163
-0.825601
-0.669702
-0.191376
0.281533
0.375219
0.076223
-0.231063
-0.150121
0.369519
0.989598
1.237374
0.895004
0.220701
-0.232584
-0.090094
0.484980
0.907309
0.702422
-0.051017
-0.825561
-1.149095
-0.945499
-0.468846
-0.058249
0.072451
-0.035306
-0.111622
0.081974
0.451593
0.631278
0.419102
0.023811
-0.214183
-0.214243
-0.168649
-0.262291
-0.477238
-0.653968
-0.660290
-0.438401
0.009202
0.506820
0.686218
0.330091
-0.321154
-0.790598
-0.826622
-0.537942
-0.179977
0.073650
0.219334
0.387921
0.695588
1.078468
1.305423
1.201133
0.825833
0.389401
0.065276
-0.036609
0.150045
0.532555
0.783755
0.543723
-0.220517
-1.071553
-1.388364
-0.890364
0.066939
0.755258
0.686971
-0.011056
-0.765971
-1.050034
-0.770643
-0.249387
0.148547
0.320632
0.386881
0.466657
0.553100
0.525147
0.251416
-0.234668
-0.668391
-0.751728
-0.417713
0.119366
0.512030
0.489362
0.069068
-0.394951
-0.492306
-0.122287
0.423527
0.680128
0.376125
-0.284026
-0.780185
-0.792305
-0.451802
-0.108177
0.006586
-0.069689
-0.119413
-0.012931
0.163544
0.272909
0.259958
0.090578
-0.236631
-0.561495
-0.606568
-0.247072
0.303464
0.635628
0.478063
-0.102473
-0.751722
-1.046558
-0.796376
-0.228347
0.191419
0.165411
-0.227020
-0.654113
-0.785989
-0.512524
-0.028156
0.311741
0.282574
-0.054221
-0.475179
-0.791056
-0.887671
-0.698066
-0.267591
0.198047
0.464680
0.437321
0.150317
-0.316931
-0.828950
-1.183653
-1.210506
-0.883410
-0.325527
0.294569
0.831973
1.131505
1.079178
0.771705
0.488162
0.417757
0.502118
0.521487
0.276259
-0.214155
-0.661874
-0.780816
-0.584763
-0.335996
-0.287016
-0.490272
-0.750775
-0.819535
-0.691109
-0.577130
-0.602461
-0.703480
-0.776253
-0.774665
-0.697263
-0.559764
-0.374207
-0.133896
0.147442
0.338909
0.237088
-0.167761
-0.615172
-0.894279
-1.039237
-1.111528
-1.018903
-0.647026
-0.013428
0.759887
1.500489
1.991853
2.075885
1.803091
1.371717
0.884052
0.264769
-0.531169
-1.315298
-1.758351
-1.664449
-1.106208
-0.345124
0.314532
0.659142
0.634953
0.288845
-0.306702
-1.000062
-1.522973
-1.677184
-1.539803
-1.294356
-0.864525
-0.017739
1.044993
1.559065
0.991685
-0.187449
-0.867517
-0.488065
0.349653
0.602533
-0.059466
-0.989264
-1.305982
-0.737039
0.199256
0.702088
0.350321
-0.592755
-1.355437
-1.253327
-0.357674
0.514996
0.662675
0.191318
-0.316161
-0.588932
-0.829498
-1.203772
-1.498194
-1.351504
-0.659088
0.318573
1.139225
1.429067
1.086696
0.331186
-0.489067
-1.132726
-1.510468
-1.614623
-1.430679
-0.814538
0.421277
2.070606
3.283892
3.083711
1.328165
-0.942038
-2.337179
-2.253251
-1.082245
0.390990
1.481918
1.769975
1.257097
0.412204
-0.158172
-0.135956
0.373292
0.982688
1.257320
0.879873
-0.248397
-1.812487
-2.977853
-2.866372
-1.437132
0.272770
1.036932
0.511550
-0.590148
-1.185626
-0.711360
0.468391
1.483350
1.730932
1.235506
0.466502
-0.090075
-0.302963
-0.388153
-0.517242
-0.558057
-0.309700
0.143022
0.507048
0.638786
0.587197
0.306003
-0.403676
-1.528457
-2.507575
-2.515630
-1.323806
0.262767
1.094450
0.688017
-0.530020
-1.654086
-1.810089
-0.661555
1.152011
2.309187
1.992887
0.678360
-0.459306
-0.657084
0.004581
0.909259
1.445976
1.385834
0.903796
0.371125
0.154257
0.478269
1.308963
2.278450
2.789459
2.383928
1.185987
-0.059462
-0.626364
-0.526517
-0.394853
-0.728533
-1.485407
-2.274129
-2.606704
-2.113347
-0.905167
0.317508
0.856264
0.708041
0.424165
0.383497
0.501770
0.561740
0.513695
0.443533
0.427792
0.458920
0.457909
0.354762
0.208991
0.256166
0.728465
1.599652
2.583961
3.298296
3.372315
2.650281
1.407248
0.199632
-0.548250
-0.744532
-0.491195
0.066224
0.675421
0.956491
0.645330
-0.183572
-1.213599
-2.147879
-2.743841
-2.581435
-1.167876
1.345620
3.766517
4.614972
3.305608
0.572271
-1.990527
-2.804147
-1.261253
1.731617
4.213106
4.575693
2.831819
0.464746
-0.980759
-1.044183
-0.295684
0.454891
0.802132
0.810753
0.746918
0.827984
0.934834
0.544457
-0.620850
-1.880505
-2.011337
-0.500379
1.854854
3.606552
3.746575
2.333418
0.443520
-0.557998
-0.056277
1.392961
2.579992
2.425416
0.596569
-2.116537
-4.098826
-4.014305
-1.857232
1.026468
2.979507
3.167327
1.831345
-0.194048
-1.935802
-2.617480
-2.112991
-1.104521
-0.468861
-0.437062
-0.520025
-0.175144
0.671604
1.644373
2.216703
2.010046
0.976503
-0.467704
-1.425434
-1.033722
0.650928
2.468993
3.099549
2.146809
0.323075
-1.249067
-1.800035
-1.156750
0.293323
1.647527
1.985999
1.270992
0.425174
0.242449
0.599917
0.930633
1.027567
1.042976
0.959618
0.503027
-0.407409
-1.434838
-2.157926
-2.438391
-2.355046
-1.965576
-1.327608
-0.595294
0.129587
0.888041
1.602826
1.898740
1.387417
0.075304
-1.501870
-2.452193
-2.055019
-0.413147
1.512000
2.625455
2.408651
1.150120
-0.308280
-1.264275
-1.675318
-1.862473
-1.881131
-1.437535
-0.360937
0.987922
1.784778
1.264874
-0.602160
-2.787345
-3.706000
-2.431970
0.359590
2.747745
3.091438
1.376506
-0.859268
-1.872361
-1.055721
0.774460
2.190954
2.289322
1.239722
-0.046934
-0.697019
-0.418479
0.481310
1.335183
1.372066
0.230650
-1.427014
-2.240093
-1.520254
-0.002873
0.994612
0.846381
-0.042730
-0.839730
-1.020169
-0.605847
0.037972
0.420721
0.151073
-0.702051
-1.551786
-1.808581
-1.366540
-0.589372
-0.030382
-0.079355
-0.627925
-1.121788
-1.099417
-0.715897
-0.683360
-1.529377
-2.837843
-3.395584
-2.277062
0.154864
2.413165
3.191975
2.445478
1.141257
0.288723
0.374215
1.311544
2.508925
3.054318
2.226360
0.191917
-1.841624
-2.588149
-1.884402
-0.633439
0.337973
0.940075
1.398728
1.603368
1.086667
-0.382346
-2.330326
-3.849301
-4.277685
-3.566960
-2.223044
-1.058289
-0.773719
-1.456178
-2.388278
-2.522220
-1.391124
0.389506
1.667134
1.838357
1.281351
0.801216
0.888911
1.383725
1.516084
0.461046
-1.666647
-3.397006
-2.942826
0.069835
3.921228
5.965517
4.671493
0.773717
-3.358623
-5.463160
-4.810866
-2.410824
-0.083081
0.831740
0.241590
-0.851492
-1.161435
-0.046265
1.967741
3.503185
3.391240
1.581599
-0.892995
-2.670393
-2.840957
-1.429876
0.646879
2.289227
2.977014
2.753826
1.692357
-0.124689
-2.052398
-2.907679
-1.998893
0.063730
1.855993
2.270346
1.088334
-1.119952
-3.331407
-4.587313
-4.535485
-3.498525
-2.042037
-0.597645
0.556682
1.219737
1.347005
1.085327
0.571399
-0.206298
-1.210645
-2.121419
-2.518431
-2.334318
-1.905608
-1.490528
-0.927367
0.146397
1.772762
3.340778
3.878500
2.862181
0.718663
-1.508175
-2.864093
-2.904642
-1.768262
-0.095997
1.213037
1.463673
0.671834
-0.343534
-0.613642
0.104787
1.224725
2.033748
2.244905
1.971669
1.525529
1.171736
0.857072
0.286683
-0.655777
-1.652293
-2.120033
-1.723387
-0.767059
0.102123
0.546022
0.674844
0.714600
0.742816
0.564742
-0.200288
-1.655018
-3.244855
-4.112377
-3.863086
-2.781717
-1.406932
-0.220238
0.443022
0.621399
0.752447
1.195258
1.807695
2.082122
1.675237
0.796762
0.011300
-0.374976
-0.615391
-1.077296
-1.580812
-1.460087
-0.332831
1.432372
3.040861
3.792988
3.315134
1.757410
-0.035812
-0.918285
-0.269418
1.582353
3.601654
4.626291
4.078528
2.361698
0.411159
-1.057366
-1.641447
-1.037786
0.649520
2.534679
3.367696
2.440003
0.102688
-2.476884
-4.100522
-4.215193
-2.994843
-1.061137
0.823028
2.064046
2.387509
1.746801
0.264942
-1.694883
-3.446673
-4.085933
-3.056713
-0.736619
1.805994
3.589581
4.180011
3.759895
2.926260
2.218941
1.799508
1.562452
1.361757
1.077741
0.579160
-0.248226
-1.313557
-2.174041
-2.226135
-1.216283
0.319216
1.219336
0.553957
-1.574377
-4.060076
-5.563075
-5.382994
-3.850846
-1.951402
-0.538229
0.163804
0.533039
1.146878
2.183908
3.119484
3.222766
2.398535
1.307717
0.639185
0.475113
0.464390
0.494715
0.883488
1.713029
2.318616
1.936875
0.732428
-0.290821
-0.333033
0.533356
1.507848
1.592880
0.250787
-2.056858
-4.002956
-4.417157
-3.316277
-1.768856
-0.791260
-0.602324
-0.867347
-1.296053
-1.789004
-2.163647
-2.058263
-1.237652
0.104757
1.455126
2.348049
2.584295
2.193802
1.291908
-0.035066
-1.698256
-3.401809
-4.491565
-4.215066
-2.339585
0.561531
3.592953
6.173001
8.062654
9.034703
8.762145
6.992661
3.884329
0.244026
-2.731610
-4.090121
-3.579349
-1.757375
0.156027
0.811089
-0.411524
-2.829214
-4.849883
-5.123163
-3.372735
-0.358140
2.566656
4.020646
3.380005
1.250151
-0.992925
-2.145700
-1.802184
-0.430350
1.138190
2.453549
3.545357
4.364889
4.589393
4.050481
3.019613
1.987312
1.369916
1.401295
2.029112
2.875162
3.380117
2.971047
1.310681
-1.336335
-4.069736
-5.805237
-5.800795
-4.023202
-1.260227
1.269139
2.694833
2.981279
2.638044
2.049974
1.214597
0.071650
-1.096987
-1.737674
-1.614794
-1.306493
-1.817649
-3.483574
-5.376870
-5.946136
-4.282034
-0.908180
2.513525
4.310732
3.850623
1.777669
-0.547766
-1.910963
-1.820744
-0.482218
1.571281
3.679547
5.111680
5.336339
4.329910
2.538138
0.643160
-0.674843
-1.029993
-0.515111
0.413978
1.270872
1.814215
2.032597
1.953432
1.508643
0.484948
-1.299830
-3.569960
-5.535070
-6.501471
-6.377540
-5.548681
-4.526680
-3.688784
-3.144907
-2.841684
-2.712020
-2.594198
-2.160335
-1.150327
0.293210
1.557887
1.932154
1.259244
0.270378
0.089331
1.288821
3.361937
5.012264
5.058400
3.300565
0.597857
-1.862120
-3.336191
-3.763316
-3.494752
-2.851846
-1.922258
-0.778666
0.232808
0.646115
0.388244
-0.018748
0.034448
0.558629
0.971202
0.748770
-0.121048
-1.224431
-1.966766
-1.857012
-0.932603
0.127123
0.609088
0.444714
0.112861
0.045572
0.321835
0.784628
1.287401
1.839854
2.480778
3.032845
3.134841
2.527464
1.300334
-0.025752
-0.731538
-0.415387
0.691171
1.881520
2.357093
1.700445
0.361086
-0.483597
-0.020753
1.311423
2.359877
2.504490
2.088130
1.808126
1.925282
2.001454
1.362081
-0.175333
-2.110050
-3.725024
-4.545763
-4.395407
-3.299829
-1.509894
0.440396
1.825328
2.036209
0.952725
-0.939308
-2.771507
-3.667488
-3.150142
-1.447779
0.561818
1.802458
1.580767
-0.009862
-2.143714
-3.784466
-4.227722
-3.335738
-1.559384
0.246417
1.286200
1.289307
0.620408
-0.003153
-0.002160
0.692545
1.733036
2.751399
3.471017
3.553757
2.773702
1.396594
0.080941
-0.678545
-0.901088
-0.902834
-0.835535
-0.624477
-0.367128
-0.482698
-1.332883
-2.905325
-4.877694
-6.791069
-8.220266
-8.918172
-8.800089
-7.908638
-6.480902
-4.888098
-3.496603
-2.677574
-2.644942
-3.013698
-2.839747
-1.402675
1.163408
3.993691
6.040966
6.611324
5.670536
3.833916
2.112328
1.451588
2.159095
3.694752
5.161379
5.998565
6.185089
5.952067
5.435058
4.592091
3.425668
2.179256
1.233916
0.881460
1.200076
1.991197
2.815743
3.287532
3.398567
3.402831
3.353360
2.959319
1.992140
0.653936
-0.592274
-1.459867
-2.013885
-2.453351
-2.787413
-2.841933
-2.667840
-2.782453
-3.768141
-5.569520
-7.253207
-7.605246
-6.151892
-3.640225
-1.404860
-0.222699
0.172990
0.536540
1.235189
1.972811
2.224560
1.727881
0.629274
-0.540314
-1.043812
-0.434375
0.960347
2.189702
2.471616
1.835453
0.994236
0.739801
1.482063
3.073439
4.794312
5.585939
4.659315
2.151411
-0.858685
-3.085868
-3.799020
-3.087796
-1.749063
-0.853741
-1.052094
-2.114067
-3.097404
-3.017743
-1.666490
0.066383
0.885336
0.172010
-1.692101
-3.859044
-5.578182
-6.329864
-5.856410
-4.376334
-2.559619
-0.968789
0.372122
1.668477
2.764668
3.051106
2.008750
-0.107926
-2.196987
-3.084854
-2.356507
-0.386453
2.131931
4.437937
5.829964
6.001567
5.210089
3.939595
2.566784
1.420573
0.811256
0.806173
1.184250
1.695039
2.183593
2.466339
2.370175
1.992812
1.669146
1.498233
1.043862
-0.270416
-2.438576
-4.694321
-6.106465
-6.204980
-5.009172
-2.794239
-0.143294
1.970721
2.618209
1.666716
0.044238
-0.968655
-0.802747
0.136092
1.099943
1.592779
1.517776
1.118351
0.795281
0.864217
1.417002
2.264365
2.986549
3.215893
2.889630
2.146182
1.170747
0.325900
0.175999
1.081458
2.776899
4.382877
4.923324
4.119452
2.707440
1.723890
1.515870
1.609134
1.340616
0.397325
-1.079393
-2.608407
-3.562166
-3.516117
-2.636069
-1.640977
-1.209794
-1.471798
-2.122621
-2.829621
-3.392725
-3.683563
-3.618768
-3.256293
-2.959375
-3.368004
-4.900598
-7.131440
-8.837283
-8.829054
-6.834466
-3.744468
-1.050007
0.142297
-0.248912
-1.410000
-2.256420
-2.048856
-0.690471
1.342937
3.221720
4.019436
3.179038
1.014214
-1.306947
-2.367210
-1.266202
1.803834
5.510811
8.116124
8.586544
7.153120
4.846903
2.616032
0.939317
-0.018473
-0.258450
0.046225
0.558939
0.862438
0.634612
-0.190593
-1.463701
-2.948931
-4.332821
-5.194297
-5.106731
-3.948516
-2.270793
-1.154752
-1.338785
-2.511499
-3.636469
-3.849278
-2.970606
-1.455590
-0.114620
0.337096
-0.131177
-0.748259
-0.685228
0.170643
1.303864
2.143677
2.426096
2.262134
1.957545
1.721464
1.612094
1.644992
1.753038
1.753764
1.473927
0.833115
-0.108745
-1.069665
-1.647622
-1.587276
-0.890021
0.210153
1.259871
1.778877
1.614172
1.042646
0.529676
0.407437
0.643000
0.881101
0.796619
0.281192
-0.752250
-2.354769
-4.104819
-5.002336
-4.129618
-1.514237
1.638317
3.667310
3.643566
2.022197
0.152150
-0.886719
-0.957232
-0.508831
0.142689
1.022210
2.134702
3.134072
3.471393
2.840943
1.375226
-0.594612
-2.779150
-4.831882
-6.228117
-6.489350
-5.553232
-3.897614
-2.303483
-1.400713
-1.266252
-1.369323
-0.968732
0.350552
2.444805
4.715539
6.351263
6.694026
5.645451
3.799406
2.171368
1.680077
2.613668
4.411636
6.022070
6.571485
5.758695
3.822410
1.389329
-0.719837
-1.875283
-2.006337
-1.531434
-0.894565
-0.259386
0.312515
0.592854
0.326474
-0.445336
-1.386524
-2.134866
-2.471942
-2.360134
-1.986101
-1.729187
-1.947935
-2.705387
-3.639400
-4.153832
-3.879763
-2.968379
-1.924683
