EVENT_NAME: EMILIA_2ND_SHOCK
EVENT_ID: IT-2012-0011
EVENT_DATE_YYYYMMDD: 20120529
EVENT_TIME_HHMMSS: 070002
EVENT_LATITUDE_DEGREE: 44.8417
EVENT_LONGITUDE_DEGREE: 11.0657
EVENT_DEPTH_KM: 8.1
HYPOCENTER_REFERENCE: INGV-CNT_Seismic_Bulletin
MAGNITUDE_W: 6.0
MAGNITUDE_W_REFERENCE: RCMT-INGV
MAGNITUDE_L: 5.8
MAGNITUDE_L_REFERENCE: INGV-CNT_Seismic_Bulletin
FOCAL_MECHANISM: TF
NETWORK: IV
STATION_CODE: SERM
STATION_NAME: SERMIDE
STATION_LATITUDE_DEGREE: 45.010000
STATION_LONGITUDE_DEGREE: 11.295800
STATION_ELEVATION_M: 7
LOCATION: 
SENSOR_DEPTH_M: 1.0
VS30_M/S: 
SITE_CLASSIFICATION_EC8: C*
MORPHOLOGIC_CLASSIFICATION: 
EPICENTRAL_DISTANCE_KM: 26.1
EARTHQUAKE_BACKAZIMUTH_DEGREE: 224.2
DATE_TIME_FIRST_SAMPLE_YYYYMMDD_HHMMSS: 20120529_065954.000
DATE_TIME_FIRST_SAMPLE_PRECISION: milliseconds
SAMPLING_INTERVAL_S: 0.005000
NDATA: 20001
DURATION_S: 100.005
STREAM: HNN
UNITS: cm/s
INSTRUMENT: sensor = Episensor FBA ES-T [Kinemetrics] | digitizer = Unknown [Unknown]
INSTRUMENT_ANALOG/DIGITAL: D
INSTRUMENTAL_FREQUENCY_HZ: 
INSTRUMENTAL_DAMPING: 
FULL_SCALE_G: 
N_BIT_DIGITAL_CONVERTER: 
PGV_CM/S: 1.803977
TIME_PGV_S: 33.250000
BASELINE_CORRECTION: BASELINE REMOVED
FILTER_TYPE: BUTTERWORTH
FILTER_ORDER: 2
LOW_CUT_FREQUENCY_HZ: 0.100
HIGH_CUT_FREQUENCY_HZ: 40.000
LATE/NORMAL_TRIGGERED: NT
DATABASE_VERSION: DYNA 1.0
HEADER_FORMAT: DYNA 1.2
DATA_TYPE: VELOCITY
PROCESSING: manual (Paolucci et al., 2011)
DATA_TIMESTAMP_YYYYMMDD_HHMMSS: 
DATA_LICENSE: CC-BY4_0 (http://creativecommons.org/licenses/by/4.0/)
DATA_CITATION: ESM working group (2015), European Strong-Motion database, version 0.1, Network Activity 3: Networking acceleration networks and SM data users. Project NERA (www.nera-eu.org)
DATA_CREATOR: ESM working group
ORIGINAL_DATA_MEDIATOR_CITATION: Orfeus - European Integrated Data Archive (EIDA) http://www.orfeus-eu.org/eida/
ORIGINAL_DATA_MEDIATOR: Orfeus - European Integrated Data Archive (EIDA)
ORIGINAL_DATA_CREATOR_CITATION: Data for this study comes from the Italian national seismic network operated by Istituto Nazionale di Geofisica e Vulcanologia and archived at the European Integrated Data Archive http://eida.rm.ingv.it/
ORIGINAL_DATA_CREATOR: network: IV (Italian National Seismic Network); owner: Istituto Nazionale di Geofisica e Vulcanologia
USER1: 
USER2: 
USER3: 
USER4: 
USER5: 
[...]
-0.102546
-0.109512
-0.113812
-0.115452
-0.115307
-0.114690
-0.114816
-0.116352
-0.119202
-0.122596
-0.125354
-0.126164
-0.123801
-0.117324
-0.106337
-0.091213
-0.073123
-0.053749
-0.034838
-0.017848
-0.003781
0.006844
0.013944
0.017723
0.018482
0.016544
0.012389
0.006834
0.000954
-0.004271
-0.008387
-0.011728
-0.015354
-0.020646
-0.028676
-0.039720
-0.053210
-0.068022
-0.082755
-0.095839
-0.105598
-0.110453
-0.109288
-0.101886
-0.089217
-0.073342
-0.056829
-0.041858
-0.029454
-0.019184
-0.009408
0.002094
0.017299
0.037147
0.061124
0.087502
0.114133
0.139299
0.162146
0.182636
0.201227
0.218448
0.234526
0.249268
0.262237
0.273119
0.282028
0.289529
0.296379
0.303237
0.310494
0.318222
0.326190
0.334005
0.341312
0.347931
0.353902
0.359465
0.365032
0.371118
0.378154
0.386255
0.395150
0.404361
0.413467
0.422228
0.430512
0.438185
0.445064
0.450934
0.455597
0.458923
0.460903
0.461712
0.461784
0.461790
0.462460
0.464278
0.467292
0.471194
0.475635
0.480608
0.486699
0.495035
0.506853
0.522918
0.543097
0.566258
0.590500
0.613578
0.633346
0.648113
0.656883
0.659440
0.656251
0.648238
0.636499
0.622024
0.605496
0.587222
0.567210
0.545304
0.521307
0.495171
0.467236
0.438337
0.409739
0.383013
0.359787
0.341295
0.327898
0.318934
0.313068
0.308891
0.305314
0.301609
0.297258
0.291819
0.284828
0.275755
0.264025
0.249104
0.230639
0.208590
0.183288
0.155337
0.125407
0.094080
0.061903
0.029591
-0.001789
-0.030765
-0.055606
-0.074605
-0.086349
-0.089868
-0.084765
-0.071382
-0.050907
-0.025325
0.002819
0.030826
0.056283
0.077477
0.093795
0.106045
0.116388
0.127690
0.142484
0.162004
0.185687
0.211195
0.235060
0.253844
0.265324
0.269152
0.266886
0.261610
0.257209
0.257300
0.264136
0.278043
0.297687
0.320900
0.345532
0.369943
0.393032
0.413961
0.431878
0.445839
0.455050
0.459388
0.459857
0.458613
0.458454
0.462068
0.471364
0.487125
0.509011
0.535846
0.566077
0.598215
0.631089
0.663910
0.696262
0.728099
0.759707
0.791580
0.824189
0.857684
0.891624
0.924898
0.955928
0.983112
1.005331
1.022273
1.034420
1.042755
1.048377
1.052250
1.055090
1.057339
1.059167
1.060522
1.061235
1.061284
1.061071
1.061466
1.063534
1.068139
1.075620
1.085581
1.096867
1.107796
1.116602
1.121851
1.122689
1.118905
1.110861
1.099341
1.085379
1.070126
1.054733
1.040201
1.027203
1.015929
1.006054
0.996860
0.987480
0.977203
0.965803
0.953717
0.941901
0.931348
0.922575
0.915429
0.909271
0.903355
0.897167
0.890612
0.884062
0.878236
0.873961
0.871965
0.872795
0.876767
0.883855
0.893606
0.905177
0.917465
0.929260
0.939366
0.946677
0.950208
0.949146
0.943006
0.931816
0.916184
0.897093
0.875503
0.852119
0.827550
0.802682
0.778870
0.757694
0.740369
0.727190
0.717382
0.709447
0.701778
0.693211
0.683272
0.672032
0.659760
0.646652
0.632804
0.618363
0.603771
0.589951
0.578276
0.570260
0.567080
0.569147
0.575976
0.586478
0.599535
0.614466
0.631154
0.649848
0.670880
0.694475
0.720700
0.749427
0.780186
0.812026
0.843542
0.873171
0.899676
0.922552
0.942109
0.959215
0.974934
0.990206
1.005596
1.021175
1.036539
1.050907
1.063278
1.072686
1.078549
1.080959
1.080696
1.078927
1.076813
1.075350
1.075424
1.077752
1.082592
1.089493
1.097391
1.105033
1.111487
1.116473
1.120396
1.124020
1.127979
1.132385
1.136701
1.139868
1.140596
1.137738
1.130660
1.119480
1.105081
1.088903
1.072521
1.057122
1.043053
1.029704
1.015884
1.000528
0.983281
0.964620
0.945523
0.927035
0.909999
0.894948
0.882026
0.870893
0.860711
0.850329
0.838642
0.824892
0.808760
0.790275
0.769689
0.747394
0.723941
0.700178
0.677397
0.657269
0.641540
0.631654
0.628455
0.631974
0.641281
0.654463
0.668821
0.681387
0.689703
0.692533
0.690092
0.683685
0.675057
0.665846
0.657308
0.650196
0.644654
0.640158
0.635708
0.630244
0.623077
0.614114
0.603839
0.593100
0.582774
0.573425
0.565112
0.557437
0.549770
0.541428
0.531738
0.520122
0.506339
0.490798
0.474612
0.459254
0.445987
0.435420
0.427377
0.420951
0.414643
0.406626
0.395156
0.378963
0.357485
0.330984
0.300500
0.267588
0.233890
0.200691
0.168670
0.137969
0.108458
0.079907
0.052013
0.024361
-0.003513
-0.031959
-0.061029
-0.090401
-0.119494
-0.147701
-0.174626
-0.200216
-0.224768
-0.248831
-0.273051
-0.297900
-0.323312
-0.348346
-0.371154
-0.389356
-0.400758
-0.404101
-0.399544
-0.388673
-0.374090
-0.358769
-0.345423
-0.336042
-0.331691
-0.332548
-0.338152
-0.347729
-0.360469
-0.375696
-0.392908
-0.411738
-0.431867
-0.452972
-0.474749
-0.496967
-0.519484
-0.542197
-0.564902
-0.587164
-0.608268
-0.627272
-0.643122
-0.654779
-0.661385
-0.662503
-0.658383
-0.650072
-0.639245
-0.627844
-0.617627
-0.609774
-0.604622
-0.601670
-0.599845
-0.597952
-0.595060
-0.590671
-0.584678
-0.577245
-0.568744
-0.559691
-0.550623
-0.541921
-0.533667
-0.525616
-0.517356
-0.508642
-0.499683
-0.491123
-0.483693
-0.477756
-0.473057
-0.468821
-0.464089
-0.458100
-0.450482
-0.441237
-0.430591
-0.418843
-0.406259
-0.393015
-0.379217
-0.364990
-0.350560
-0.336278
-0.322542
-0.309663
-0.297736
-0.286637
-0.276149
-0.266109
-0.256443
-0.247120
-0.238119
-0.229534
-0.221777
-0.215664
-0.212203
-0.212232
-0.216251
-0.224539
-0.237287
-0.254557
-0.276164
-0.301574
-0.329860
-0.359735
-0.389654
-0.417980
-0.443161
-0.463921
-0.479413
-0.489327
-0.493900
-0.493802
-0.489995
-0.483631
-0.476010
-0.468518
-0.462435
-0.458616
-0.457211
-0.457588
-0.458540
-0.458701
-0.457012
-0.453045
-0.447153
-0.440455
-0.434620
-0.431385
-0.431907
-0.436274
-0.443420
-0.451469
-0.458371
-0.462564
-0.463400
-0.461190
-0.456907
-0.451748
-0.446771
-0.442695
-0.439859
-0.438308
-0.438007
-0.439052
-0.441710
-0.446220
-0.452561
-0.460392
-0.469193
-0.478519
-0.488172
-0.498208
-0.508758
-0.519831
-0.531189
-0.542306
-0.552335
-0.560119
-0.564327
-0.563833
-0.558179
-0.547800
-0.533864
-0.517813
-0.500924
-0.484067
-0.467694
-0.451963
-0.436895
-0.422498
-0.408776
-0.395692
-0.383166
-0.371092
-0.359309
-0.347510
-0.335221
-0.321968
-0.307571
-0.292316
-0.276889
-0.262119
-0.248757
-0.237441
-0.228733
-0.223069
-0.220621
-0.221187
-0.224174
-0.228654
-0.233496
-0.237542
-0.239792
-0.239504
-0.236181
-0.229468
-0.219146
-0.205246
-0.188166
-0.168633
-0.147512
-0.125557
-0.103233
-0.080690
-0.057887
-0.034802
-0.011581
0.011489
0.034103
0.056026
0.077090
0.097160
0.116172
0.134230
0.151642
0.168773
0.185849
0.202864
0.219614
0.235725
0.250706
0.264071
0.275478
0.284827
0.292318
0.298482
0.304111
0.310047
0.316870
0.324711
0.333306
0.342242
0.351178
0.359962
0.368626
0.377292
0.386101
0.395200
0.404743
0.414838
0.425386
0.435924
0.445576
0.453264
0.458097
0.459728
0.458491
0.455303
0.451405
0.448050
0.446226
0.446442
0.448607
0.452021
0.455483
0.457555
0.456883
0.452438
0.443626
0.430285
0.412625
0.391134
0.366522
0.339693
0.311647
0.283281
0.255194
0.227629
0.200529
0.173675
0.146826
0.119852
0.092772
0.065695
0.038750
0.012081
-0.014149
-0.039788
-0.064781
-0.089246
-0.113446
-0.137624
-0.161825
-0.185829
-0.209181
-0.231262
-0.251389
-0.268943
-0.283486
-0.294812
-0.302891
-0.307759
-0.309462
-0.308105
-0.303916
-0.297197
-0.288215
-0.277194
-0.264423
-0.250339
-0.235482
-0.220290
-0.204916
-0.189188
-0.172703
-0.154944
-0.135449
-0.114003
-0.090800
-0.066432
-0.041698
-0.017359
0.006026
0.028185
0.049151
0.069157
0.088450
0.107115
0.124983
0.141632
0.156423
0.168571
0.177320
0.182203
0.183283
0.181274
0.177520
0.173808
0.171979
0.173362
0.178335
0.186311
0.196187
0.206905
0.217736
0.228225
0.238002
0.246606
0.253460
0.258065
0.260333
0.260733
0.260112
0.259297
0.258741
0.258367
0.257637
0.255767
0.251985
0.245761
0.236976
0.225945
0.213287
0.199708
0.185767
0.171677
0.157263
0.142115
0.125863
0.108390
0.089897
0.070857
0.051863
0.033447
0.015940
-0.000567
-0.016162
-0.030999
-0.045152
-0.058516
-0.070866
-0.082107
-0.092478
-0.102535
-0.112905
-0.124021
-0.135994
-0.148681
-0.161865
-0.175407
-0.189323
-0.203723
-0.218651
-0.233865
-0.248730
-0.262299
-0.273536
-0.281545
-0.285753
-0.285988
-0.282386
-0.275186
-0.264614
-0.250964
-0.234765
-0.216794
-0.197905
-0.178743
-0.159542
-0.140094
-0.119890
-0.098374
-0.075180
-0.050240
-0.023749
0.003877
0.031971
0.059493
0.084960
0.106567
0.122597
0.131959
0.134600
0.131598
0.124852
0.116482
0.108184
0.100832
0.094469
0.088611
0.082646
0.076086
0.068580
0.059814
0.049481
0.037338
0.023259
0.007237
-0.010669
-0.030395
-0.051843
-0.074789
-0.098838
-0.123499
-0.148358
-0.173227
-0.198154
-0.223236
-0.248386
-0.273221
-0.297163
-0.319658
-0.340354
-0.359174
-0.376331
-0.392316
-0.407794
-0.423384
-0.439388
-0.455633
-0.471528
-0.486320
-0.499411
-0.510540
-0.519782
-0.527378
-0.533510
-0.538098
-0.540743
-0.540898
-0.538173
-0.532618
-0.524846
-0.515910
-0.506963
-0.498872
-0.492005
-0.486282
-0.481400
-0.477055
-0.473058
-0.469344
-0.465965
-0.463114
-0.461161
-0.460564
-0.461646
-0.464347
-0.468100
-0.471916
-0.474725
-0.475843
-0.475280
-0.473722
-0.472272
-0.472141
-0.474360
-0.479579
-0.487949
-0.499090
-0.512174
-0.526139
-0.539978
-0.553035
-0.565191
-0.576836
-0.588654
-0.601323
-0.615257
-0.630446
-0.646414
-0.662335
-0.677243
-0.690261
-0.700745
-0.708324
-0.712900
-0.714675
-0.714182
-0.712246
-0.709827
-0.707751
-0.706480
-0.706024
-0.706052
-0.706072
-0.705517
-0.703789
-0.700366
-0.694981
-0.687735
-0.679091
-0.669720
-0.660265
-0.651090
-0.642192
-0.633331
-0.624328
-0.615315
-0.606766
-0.599285
-0.593287
-0.588759
-0.585234
-0.581967
-0.578171
-0.573178
-0.566480
-0.557729
-0.546773
-0.533712
-0.518951
-0.503177
-0.487235
-0.471992
-0.458255
-0.446792
-0.438357
-0.433595
-0.432805
-0.435729
-0.441534
-0.449026
-0.456981
-0.464467
-0.471081
-0.477042
-0.483062
-0.490031
-0.498668
-0.509299
-0.521825
-0.535827
-0.550700
-0.565816
-0.580657
-0.594902
-0.608405
-0.621065
-0.632712
-0.643099
-0.651996
-0.659282
-0.664985
-0.669234
-0.672236
-0.674345
-0.676170
-0.678564
-0.682461
-0.688679
-0.697758
-0.709841
-0.724582
-0.741105
-0.758081
-0.773908
-0.786942
-0.795702
-0.799063
-0.796453
-0.788007
-0.774554
-0.757447
-0.738297
-0.718706
-0.700030
-0.683205
-0.668652
-0.656278
-0.645593
-0.635934
-0.626748
-0.617842
-0.609493
-0.602346
-0.597174
-0.594675
-0.595333
-0.599388
-0.606921
-0.617989
-0.632725
-0.651273
-0.673591
-0.699293
-0.727673
-0.757895
-0.789210
-0.821082
-0.853224
-0.885538
-0.917955
-0.950244
-0.981906
-1.012199
-1.040265
-1.065275
-1.086590
-1.103875
-1.117178
-1.126933
-1.133924
-1.139241
-1.144165
-1.149938
-1.157459
-1.167075
-1.178589
-1.191469
-1.205063
-1.218751
-1.231972
-1.244202
-1.254956
-1.263863
-1.270774
-1.275805
-1.279286
-1.281629
-1.283206
-1.284360
-1.285545
-1.287402
-1.290695
-1.296121
-1.304083
-1.314530
-1.326964
-1.340598
-1.354618
-1.368441
-1.381897
-1.395213
-1.408789
-1.422914
-1.437617
-1.452773
-1.468307
-1.484304
-1.500970
-1.518472
-1.536783
-1.555563
-1.574127
-1.591516
-1.606675
-1.618686
-1.626979
-1.631455
-1.632463
-1.630644
-1.626729
-1.621405
-1.615271
-1.608875
-1.602739
-1.597299
-1.592774
-1.589083
-1.585894
-1.582741
-1.579090
-1.574343
-1.567859
-1.559053
-1.547523
-1.533113
-1.515882
-1.496028
-1.473843
-1.449704
-1.424058
-1.397413
-1.370335
-1.343415
-1.317186
-1.292017
-1.268076
-1.245355
-1.223698
-1.202820
-1.182379
-1.162121
-1.142017
-1.122237
-1.102968
-1.084237
-1.065911
-1.047862
-1.030136
-1.013032
-0.997058
-0.982795
-0.970675
-0.960726
-0.952451
-0.944929
-0.937047
-0.927713
-0.916038
-0.901512
-0.884127
-0.864368
-0.843065
-0.821153
-0.799392
-0.778136
-0.757238
-0.736128
-0.714075
-0.690500
-0.665249
-0.638666
-0.611424
-0.584197
-0.557397
-0.531065
-0.504909
-0.478424
-0.451099
-0.422680
-0.393339
-0.363656
-0.334394
-0.306202
-0.279395
-0.253898
-0.229351
-0.205312
-0.181455
-0.157676
-0.134037
-0.110663
-0.087704
-0.065386
-0.044033
-0.024024
-0.005712
0.010700
0.025244
0.038218
0.050128
0.061595
0.073222
0.085408
0.098205
0.111314
0.124259
0.136648
0.148386
0.159777
0.171482
0.184357
0.199288
0.217081
0.238359
0.263427
0.292139
0.323900
0.357847
0.393122
0.429079
0.465340
0.501735
0.538204
0.574715
0.611194
0.647501
0.683460
0.718901
0.753675
0.787627
0.820571
0.852329
0.882841
0.912245
0.940814
0.968826
0.996487
1.023958
1.051379
1.078892
1.106614
1.134580
1.162706
1.190812
1.218710
1.246284
1.273486
1.300239
1.326368
1.351643
1.375933
1.399303
1.421961
1.444102
1.465771
1.486841
1.507096
1.526334
1.544441
1.561403
1.577236
1.591903
1.605300
1.617342
1.628053
1.637577
1.646121
1.653883
1.661000
1.667579
1.673780
1.679910
1.686410
1.693748
1.702284
1.712191
1.723460
1.735918
1.749183
1.762592
1.775245
1.786192
1.794697
1.800408
1.803384
1.803977
1.802683
1.799993
1.796284
1.791758
1.786474
1.780397
1.773466
1.765656
1.757003
1.747570
1.737400
1.726494
1.714808
1.702274
1.688863
1.674627
1.659724
1.644405
1.628991
1.613841
1.599284
1.585574
1.572846
1.561097
1.550158
1.539716
1.529388
1.518827
1.507810
1.496284
1.484378
1.472415
1.460854
1.450118
1.440384
1.431528
1.423270
1.415325
1.407433
1.399296
1.390553
1.380902
1.370310
1.359170
1.348280
1.338606
1.330911
1.325445
1.321820
1.319128
1.316254
1.312229
1.306446
1.298705
1.289138
1.278090
1.265980
1.253189
1.239970
1.226439
1.212631
1.198562
1.184274
1.169832
1.155294
1.140655
1.125790
1.110470
1.094493
1.077889
1.061029
1.044549
1.029128
1.015256
1.003087
0.992415
0.982766
0.973578
0.964400
0.955047
0.945619
0.936408
0.927743
0.919833
0.912663
0.905979
0.899320
0.892064
0.883494
0.872924
0.859902
0.844419
0.827005
0.808647
0.790489
0.773460
0.758018
0.744124
0.731405
0.719364
0.707546
0.695602
0.683272
0.670320
0.656480
0.641507
0.625289
0.607967
0.589965
0.571919
0.554493
0.538122
0.522828
0.508222
0.493678
0.478613
0.462725
0.446092
0.429086
0.412199
0.395894
0.380567
0.366588
0.354290
0.343888
0.335422
0.328795
0.323888
0.320652
0.319121
0.319358
0.321358
0.324979
0.329971
0.336110
0.343319
0.351690
0.361348
0.372267
0.384173
0.396582
0.408920
0.420645
0.431341
0.440790
0.449027
0.456335
0.463147
0.469882
0.476786
0.483841
0.490766
0.497116
0.502421
0.506308
0.508524
0.508836
0.506913
0.502333
0.494751
0.484146
0.470933
0.455877
0.439821
0.423381
0.406759
0.389769
0.372027
0.353191
0.333142
0.312028
0.290147
0.267781
0.245090
0.222090
0.198677
0.174640
0.149709
0.123650
0.096348
0.067811
0.038135
0.007493
-0.023805
-0.055247
-0.086102
-0.115523
-0.142722
-0.167151
-0.188583
-0.207089
-0.222948
-0.236551
-0.248337
-0.258764
-0.268282
-0.277287
-0.286021
-0.294469
-0.302324
-0.309019
-0.313814
-0.315957
-0.314906
-0.310524
-0.303120
-0.293276
-0.281571
-0.268428
-0.254154
-0.239064
-0.223555
-0.208074
-0.193019
-0.178610
-0.164740
-0.150899
-0.136280
-0.120069
-0.101799
-0.081572
-0.060035
-0.038157
-0.016941
0.002822
0.020712
0.036729
0.051193
0.064537
0.077101
0.089048
0.100363
0.110904
0.120459
0.128837
0.135972
0.141998
0.147241
0.152152
0.157203
0.162813
0.169285
0.176804
0.185462
0.195276
0.206170
0.217953
0.230368
0.243218
0.256450
0.270127
0.284317
0.298989
0.313997
0.329105
0.344050
0.358611
0.372632
0.385995
0.398612
0.410479
0.421705
0.432463
0.442881
0.452975
0.462687
0.471963
0.480827
0.489371
0.497689
0.505807
0.513668
0.521171
0.528254
0.534928
0.541207
0.547033
0.552270
0.556785
0.560499
0.563385
0.565411
0.566489
0.566433
0.564962
0.561730
0.556362
0.548508
0.537891
0.524361
0.507937
0.488804
0.467264
0.443700
0.418623
0.392752
0.367013
0.342419
0.319862
0.299885
0.282526
0.267312
0.253482
0.240355
0.227635
0.215477
0.204314
0.194575
0.186486
0.180054
0.175193
0.171886
0.170236
0.170425
0.172660
0.177150
0.184107
0.193767
0.206407
0.222313
0.241690
0.264518
0.290432
0.318673
0.348159
0.377647
0.405961
0.432238
0.456145
0.477895
0.498061
0.517262
0.535909
0.554097
0.571651
0.588259
0.603623
0.617568
0.630095
0.641357
0.651575
0.660915
0.669398
0.676917
0.683338
0.688633
0.692966
0.696701
0.700306
0.704173
0.708429
0.712868
0.717085
0.720697
0.723529
0.725636
0.727188
0.728313
0.728997
0.729095
0.728438
0.726956
0.724711
0.721830
0.718397
0.714417
0.709866
0.704792
0.699384
0.693963
0.688879
0.684378
0.680494
0.677043
0.673721
0.670206
0.666233
0.661624
0.656330
0.650459
0.644276
0.638146
0.632455
0.627505
0.623456
0.620312
0.617976
0.616327
0.615256
0.614630
0.614232
0.613782
0.613041
0.611881
0.610262
0.608143
0.605425
0.601946
0.597509
0.591922
0.585045
0.576823
0.567279
0.556489
0.544597
0.531838
0.518512
0.504889
0.491109
0.477156
0.462925
0.448309
0.433279
0.417915
0.402404
0.386987
0.371899
0.357319
0.343380
0.330222
0.318015
0.306919
0.296998
0.288161
0.280132
0.272453
0.264511
0.255629
0.245230
0.233033
0.219157
0.204086
0.188512
0.173168
0.158669
0.145395
0.133432
0.122644
0.112816
0.103823
0.095742
0.088850
0.083532
0.080108
0.078678
0.079045
0.080793
0.083481
0.086824
0.090751
0.095367
0.100864
0.107425
0.115136
0.123919
0.133495
0.143401
0.153040
0.161779
0.169064
0.174508
0.177966
0.179565
0.179702
0.178958
0.177977
0.177336
0.177445
0.178496
0.180475
0.183200
0.186362
0.189594
0.192519
0.194758
0.195917
0.195587
0.193405
0.189148
0.182799
0.174530
0.164623
0.153405
0.141237
0.128538
0.115807
0.103601
0.092442
0.082684
0.074405
0.067392
0.061237
0.055515
0.049968
0.044608
0.039689
0.035545
0.032340
0.029897
0.027701
0.025075
0.021389
0.016182
0.009168
0.000200
-0.010717
-0.023396
-0.037489
-0.052577
-0.068298
-0.084407
-0.100731
-0.117066
-0.133109
-0.148548
-0.163250
-0.177400
-0.191457
-0.205937
-0.221198
-0.237339
-0.254236
-0.271630
-0.289229
-0.306786
-0.324146
-0.341279
-0.358287
-0.375357
-0.392636
-0.410061
-0.427291
-0.443798
-0.459069
-0.472757
-0.484690
-0.494796
-0.503015
-0.509258
-0.513397
-0.515317
-0.515022
-0.512742
-0.508955
-0.504297
-0.499434
-0.494940
-0.491201
-0.488339
-0.486181
-0.484314
-0.482261
-0.479709
-0.476678
-0.473549
-0.470969
-0.469715
-0.470556
-0.474133
-0.480883
-0.491016
-0.504499
-0.521032
-0.540024
-0.560655
-0.582017
-0.603321
-0.624059
-0.644070
-0.663471
-0.682526
-0.701489
-0.720494
-0.739496
-0.758273
-0.776489
