EVENT_NAME: EMILIA_2ND_SHOCK
EVENT_ID: IT-2012-0011
EVENT_DATE_YYYYMMDD: 20120529
EVENT_TIME_HHMMSS: 070002
EVENT_LATITUDE_DEGREE: 44.8417
EVENT_LONGITUDE_DEGREE: 11.0657
EVENT_DEPTH_KM: 8.1
HYPOCENTER_REFERENCE: INGV-CNT_Seismic_Bulletin
MAGNITUDE_W: 6.0
MAGNITUDE_W_REFERENCE: RCMT-INGV
MAGNITUDE_L: 5.8
MAGNITUDE_L_REFERENCE: INGV-CNT_Seismic_Bulletin
FOCAL_MECHANISM: TF
NETWORK: IV
STATION_CODE: SERM
STATION_NAME: SERMIDE
STATION_LATITUDE_DEGREE: 45.010000
STATION_LONGITUDE_DEGREE: 11.295800
STATION_ELEVATION_M: 7
LOCATION: 
SENSOR_DEPTH_M: 1.0
VS30_M/S: 
SITE_CLASSIFICATION_EC8: C*
MORPHOLOGIC_CLASSIFICATION: 
EPICENTRAL_DISTANCE_KM: 26.1
EARTHQUAKE_BACKAZIMUTH_DEGREE: 224.2
DATE_TIME_FIRST_SAMPLE_YYYYMMDD_HHMMSS: 20120529_065954.000
DATE_TIME_FIRST_SAMPLE_PRECISION: milliseconds
SAMPLING_INTERVAL_S: 0.005000
NDATA: 20001
DURATION_S: 100.005
STREAM: HNN
UNITS: cm
INSTRUMENT: sensor = Episensor FBA ES-T [Kinemetrics] | digitizer = Unknown [Unknown]
INSTRUMENT_ANALOG/DIGITAL: D
INSTRUMENTAL_FREQUENCY_HZ: 
INSTRUMENTAL_DAMPING: 
FULL_SCALE_G: 
N_BIT_DIGITAL_CONVERTER: 
PGD_CM: -1.054123
TIME_PGD_S: 32.800000
BASELINE_CORRECTION: BASELINE REMOVED
FILTER_TYPE: BUTTERWORTH
FILTER_ORDER: 2
LOW_CUT_FREQUENCY_HZ: 0.100
HIGH_CUT_FREQUENCY_HZ: 40.000
LATE/NORMAL_TRIGGERED: NT
DATABASE_VERSION: DYNA 1.0
HEADER_FORMAT: DYNA 1.2
DATA_TYPE: DISPLACEMENT
PROCESSING: manual (Paolucci et al., 2011)
DATA_TIMESTAMP_YYYYMMDD_HHMMSS: 
DATA_LICENSE: CC-BY4_0 (http://creativecommons.org/licenses/by/4.0/)
DATA_CITATION: ESM working group (2015), European Strong-Motion database, version 0.1, Network Activity 3: Networking acceleration networks and SM data users. Project NERA (www.nera-eu.org)
DATA_CREATOR: ESM working group
ORIGINAL_DATA_MEDIATOR_CITATION: Orfeus - European Integrated Data Archive (EIDA) http://www.orfeus-eu.org/eida/
ORIGINAL_DATA_MEDIATOR: Orfeus - European Integrated Data Archive (EIDA)
ORIGINAL_DATA_CREATOR_CITATION: Data for this study comes from the Italian national seismic network operated by Istituto Nazionale di Geofisica e Vulcanologia and archived at the European Integrated Data Archive http://eida.rm.ingv.it/
ORIGINAL_DATA_CREATOR: network: IV (Italian National Seismic Network); owner: Istituto Nazionale di Geofisica e Vulcanologia
USER1: 
USER2: 
USER3: 
USER4: 
USER5: 
[...]
1.547659e-02
2.005751e-02
2.454297e-02
2.892049e-02
3.318109e-02
3.731884e-02
4.133224e-02
4.522659e-02
4.901506e-02
5.271690e-02
5.635285e-02
5.993976e-02
6.348700e-02
6.699589e-02
7.046194e-02
7.387830e-02
7.723846e-02
8.053726e-02
8.377052e-02
8.693454e-02
9.002635e-02
9.304520e-02
9.599496e-02
9.888634e-02
1.017376e-01
1.045730e-01
1.074188e-01
1.102987e-01
1.132310e-01
1.162287e-01
1.193011e-01
1.224568e-01
1.257061e-01
1.290605e-01
1.325328e-01
1.361363e-01
1.398835e-01
1.437844e-01
1.478445e-01
1.520622e-01
1.564281e-01
1.609265e-01
1.655392e-01
1.702498e-01
1.750459e-01
1.799205e-01
1.848716e-01
1.898995e-01
1.950054e-01
2.001881e-01
2.054426e-01
2.107590e-01
2.161225e-01
2.215152e-01
2.269200e-01
2.323235e-01
2.377181e-01
2.431022e-01
2.484789e-01
2.538561e-01
2.592448e-01
2.646578e-01
2.701052e-01
2.755922e-01
2.811174e-01
2.866748e-01
2.922572e-01
2.978591e-01
3.034792e-01
3.091191e-01
3.147811e-01
3.204646e-01
3.261639e-01
3.318669e-01
3.375556e-01
3.432089e-01
3.488063e-01
3.543317e-01
3.597762e-01
3.651388e-01
3.704244e-01
3.756397e-01
3.807882e-01
3.858676e-01
3.908703e-01
3.957867e-01
4.006098e-01
4.053374e-01
4.099726e-01
4.145226e-01
4.189973e-01
4.234074e-01
4.277619e-01
4.320654e-01
4.363171e-01
4.405103e-01
4.446348e-01
4.486786e-01
4.526299e-01
4.564784e-01
4.602154e-01
4.638351e-01
4.673359e-01
4.707229e-01
4.740093e-01
4.772170e-01
4.803752e-01
4.835175e-01
4.866774e-01
4.898838e-01
4.931561e-01
4.965002e-01
4.999072e-01
5.033557e-01
5.068183e-01
5.102688e-01
5.136872e-01
5.170625e-01
5.203917e-01
5.236783e-01
5.269293e-01
5.301525e-01
5.333533e-01
5.365319e-01
5.396831e-01
5.427985e-01
5.458690e-01
5.488882e-01
5.518537e-01
5.547676e-01
5.576347e-01
5.604603e-01
5.632475e-01
5.659963e-01
5.687035e-01
5.713622e-01
5.739628e-01
5.764945e-01
5.789484e-01
5.813215e-01
5.836178e-01
5.858477e-01
5.880248e-01
5.901617e-01
5.922664e-01
5.943397e-01
5.963728e-01
5.983486e-01
6.002434e-01
6.020308e-01
6.036857e-01
6.051882e-01
6.065262e-01
6.076956e-01
6.086991e-01
6.095424e-01
6.102323e-01
6.107746e-01
6.111741e-01
6.114342e-01
6.115560e-01
6.115384e-01
6.113786e-01
6.110735e-01
6.106215e-01
6.100240e-01
6.092855e-01
6.084124e-01
6.074113e-01
6.062874e-01
6.050433e-01
6.036780e-01
6.021885e-01
6.005720e-01
5.988302e-01
5.969745e-01
5.950277e-01
5.930239e-01
5.910034e-01
5.890057e-01
5.870623e-01
5.851919e-01
5.833980e-01
5.816709e-01
5.799907e-01
5.783322e-01
5.766695e-01
5.749787e-01
5.732401e-01
5.714377e-01
5.695593e-01
5.675947e-01
5.655360e-01
5.633767e-01
5.611118e-01
5.587381e-01
5.562533e-01
5.536558e-01
5.509448e-01
5.481203e-01
5.451845e-01
5.421432e-01
5.390068e-01
5.357912e-01
5.325173e-01
5.292104e-01
5.258979e-01
5.226060e-01
5.193556e-01
5.161594e-01
5.130202e-01
5.099320e-01
5.068832e-01
5.038600e-01
5.008517e-01
4.978525e-01
4.948627e-01
4.918874e-01
4.889340e-01
4.860107e-01
4.831244e-01
4.802807e-01
4.774823e-01
4.747291e-01
4.720195e-01
4.693512e-01
4.667231e-01
4.641363e-01
4.615931e-01
4.590947e-01
4.566391e-01
4.542206e-01
4.518319e-01
4.494666e-01
4.471225e-01
4.448020e-01
4.425115e-01
4.402591e-01
4.380529e-01
4.359000e-01
4.338058e-01
4.317745e-01
4.298094e-01
4.279133e-01
4.260883e-01
4.243355e-01
4.226542e-01
4.210414e-01
4.194931e-01
4.180044e-01
4.165713e-01
4.151905e-01
4.138600e-01
4.125778e-01
4.113422e-01
4.101516e-01
4.090039e-01
4.078950e-01
4.068167e-01
4.057557e-01
4.046945e-01
4.036133e-01
4.024906e-01
4.013041e-01
4.000313e-01
3.986505e-01
3.971426e-01
3.954933e-01
3.936947e-01
3.917464e-01
3.896565e-01
3.874407e-01
3.851211e-01
3.827240e-01
3.802774e-01
3.778079e-01
3.753389e-01
3.728889e-01
3.704708e-01
3.680907e-01
3.657481e-01
3.634359e-01
3.611429e-01
3.588568e-01
3.565689e-01
3.542762e-01
3.519827e-01
3.496976e-01
3.474324e-01
3.451966e-01
3.429943e-01
3.408212e-01
3.386643e-01
3.365048e-01
3.343234e-01
3.321063e-01
3.298490e-01
3.275571e-01
3.252443e-01
3.229273e-01
3.206213e-01
3.183368e-01
3.160781e-01
3.138442e-01
3.116307e-01
3.094314e-01
3.072399e-01
3.050499e-01
3.028546e-01
3.006460e-01
2.984149e-01
2.961521e-01
2.938502e-01
2.915042e-01
2.891116e-01
2.866708e-01
2.841797e-01
2.816359e-01
2.790368e-01
2.763808e-01
2.736693e-01
2.709076e-01
2.681070e-01
2.652854e-01
2.624662e-01
2.596753e-01
2.569363e-01
2.542670e-01
2.516780e-01
2.491733e-01
2.467530e-01
2.444145e-01
2.421547e-01
2.399702e-01
2.378578e-01
2.358139e-01
2.338354e-01
2.319196e-01
2.300641e-01
2.282676e-01
2.265300e-01
2.248539e-01
2.232441e-01
2.217062e-01
2.202447e-01
2.188602e-01
2.175496e-01
2.163058e-01
2.151186e-01
2.139750e-01
2.128596e-01
2.117565e-01
2.106506e-01
2.095297e-01
2.083864e-01
2.072190e-01
2.060312e-01
2.048323e-01
2.036348e-01
2.024539e-01
2.013065e-01
2.002108e-01
1.991846e-01
1.982437e-01
1.974006e-01
1.966630e-01
1.960352e-01
1.955191e-01
1.951156e-01
1.948262e-01
1.946522e-01
1.945943e-01
1.946517e-01
1.948222e-01
1.951024e-01
1.954878e-01
1.959736e-01
1.965545e-01
1.972256e-01
1.979838e-01
1.988277e-01
1.997569e-01
2.007713e-01
2.018693e-01
2.030479e-01
2.043015e-01
2.056218e-01
2.069992e-01
2.084234e-01
2.098849e-01
2.113774e-01
2.128979e-01
2.144481e-01
2.160325e-01
2.176560e-01
2.193226e-01
2.210338e-01
2.227897e-01
2.245895e-01
2.264326e-01
2.283191e-01
2.302496e-01
2.322256e-01
2.342493e-01
2.363235e-01
2.384504e-01
2.406300e-01
2.428579e-01
2.451242e-01
2.474147e-01
2.497134e-01
2.520058e-01
2.542823e-01
2.565394e-01
2.587796e-01
2.610107e-01
2.632429e-01
2.654860e-01
2.677461e-01
2.700235e-01
2.723113e-01
2.745957e-01
2.768579e-01
2.790760e-01
2.812274e-01
2.832906e-01
2.852462e-01
2.870788e-01
2.887773e-01
2.903355e-01
2.917519e-01
2.930279e-01
2.941660e-01
2.951687e-01
2.960371e-01
2.967712e-01
2.973705e-01
2.978343e-01
2.981628e-01
2.983565e-01
2.984169e-01
2.983462e-01
2.981473e-01
2.978234e-01
2.973771e-01
2.968099e-01
2.961218e-01
2.953127e-01
2.943835e-01
2.933376e-01
2.921813e-01
2.909243e-01
2.895796e-01
2.881622e-01
2.866881e-01
2.851737e-01
2.836349e-01
2.820876e-01
2.805471e-01
2.790275e-01
2.775415e-01
2.761004e-01
2.747145e-01
2.733923e-01
2.721407e-01
2.709632e-01
2.698618e-01
2.688372e-01
2.678913e-01
2.670278e-01
2.662530e-01
2.655758e-01
2.650058e-01
2.645518e-01
2.642196e-01
2.640111e-01
2.639243e-01
2.639545e-01
2.640954e-01
2.643412e-01
2.646869e-01
2.651292e-01
2.656648e-01
2.662897e-01
2.669978e-01
2.677800e-01
2.686228e-01
2.695094e-01
2.704204e-01
2.713368e-01
2.722432e-01
2.731308e-01
2.739998e-01
2.748597e-01
2.757266e-01
2.766182e-01
2.775498e-01
2.785307e-01
2.795652e-01
2.806539e-01
2.817950e-01
2.829851e-01
2.842181e-01
2.854854e-01
2.867757e-01
2.880774e-01
2.893810e-01
2.906816e-01
2.919781e-01
2.932718e-01
2.945636e-01
2.958518e-01
2.971306e-01
2.983906e-01
2.996194e-01
3.008043e-01
3.019340e-01
3.030004e-01
3.039989e-01
3.049278e-01
3.057862e-01
3.065725e-01
3.072831e-01
3.079124e-01
3.084543e-01
3.089038e-01
3.092581e-01
3.095174e-01
3.096846e-01
3.097643e-01
3.097615e-01
3.096807e-01
3.095257e-01
3.092999e-01
3.090074e-01
3.086530e-01
3.082425e-01
3.077801e-01
3.072674e-01
3.067029e-01
3.060828e-01
3.054028e-01
3.046594e-01
3.038501e-01
3.029731e-01
3.020265e-01
3.010078e-01
2.999146e-01
2.987453e-01
2.975016e-01
2.961901e-01
2.948224e-01
2.934147e-01
2.919860e-01
2.905560e-01
2.891441e-01
2.877682e-01
2.864451e-01
2.851903e-01
2.840164e-01
2.829325e-01
2.819429e-01
2.810492e-01
2.802515e-01
2.795510e-01
2.789516e-01
2.784597e-01
2.780838e-01
2.778326e-01
2.777139e-01
2.777333e-01
2.778931e-01
2.781906e-01
2.786154e-01
2.791482e-01
2.797612e-01
2.804210e-01
2.810940e-01
2.817520e-01
2.823763e-01
2.829587e-01
2.834996e-01
2.840037e-01
2.844761e-01
2.849191e-01
2.853324e-01
2.857128e-01
2.860557e-01
2.863548e-01
2.866022e-01
2.867889e-01
2.869052e-01
2.869414e-01
2.868880e-01
2.867360e-01
2.864768e-01
2.861029e-01
2.856087e-01
2.849912e-01
2.842494e-01
2.833833e-01
2.823925e-01
2.812763e-01
2.800344e-01
2.786683e-01
2.771825e-01
2.755842e-01
2.738824e-01
2.720865e-01
2.702049e-01
2.682433e-01
2.662043e-01
2.640874e-01
2.618905e-01
2.596123e-01
2.572547e-01
2.548231e-01
2.523260e-01
2.497733e-01
2.471744e-01
2.445375e-01
2.418700e-01
2.391795e-01
2.364757e-01
2.337713e-01
2.310804e-01
2.284173e-01
2.257931e-01
2.232135e-01
2.206787e-01
2.181843e-01
2.157243e-01
2.132929e-01
2.108859e-01
2.085006e-01
2.061353e-01
2.037886e-01
2.014588e-01
1.991432e-01
1.968374e-01
1.945346e-01
1.922264e-01
1.899046e-01
1.875641e-01
1.852045e-01
1.828309e-01
1.804517e-01
1.780753e-01
1.757067e-01
1.733453e-01
1.709846e-01
1.686128e-01
1.662149e-01
1.637752e-01
1.612797e-01
1.587189e-01
1.560882e-01
1.533883e-01
1.506231e-01
1.477972e-01
1.449130e-01
1.419697e-01
1.389631e-01
1.358868e-01
1.327346e-01
1.295025e-01
1.261908e-01
1.228046e-01
1.193533e-01
1.158496e-01
1.123080e-01
1.087435e-01
1.051701e-01
1.015992e-01
9.803795e-02
9.448881e-02
9.095006e-02
8.741766e-02
8.388754e-02
8.035728e-02
7.682692e-02
7.329933e-02
6.978039e-02
6.627855e-02
6.280365e-02
5.936498e-02
5.596952e-02
5.262092e-02
4.931960e-02
4.606415e-02
4.285319e-02
3.968653e-02
3.656489e-02
3.348832e-02
3.045449e-02
2.745806e-02
2.449163e-02
2.154783e-02
1.862166e-02
1.571183e-02
1.282097e-02
9.955080e-03
7.122680e-03
4.334033e-03
1.600169e-03
-1.068389e-03
-3.663146e-03
-6.179030e-03
-8.615207e-03
-1.097517e-02
-1.326644e-02
-1.550040e-02
-1.769219e-02
-1.986016e-02
-2.202419e-02
-2.420284e-02
-2.641050e-02
-2.865563e-02
-3.094054e-02
-3.326287e-02
-3.561828e-02
-3.800349e-02
-4.041880e-02
-4.286895e-02
-4.536229e-02
-4.790878e-02
-5.051791e-02
-5.319704e-02
-5.595054e-02
-5.877962e-02
-6.168291e-02
-6.465742e-02
-6.769945e-02
-7.080477e-02
-7.396833e-02
-7.718383e-02
-8.044381e-02
-8.374022e-02
-8.706514e-02
-9.041131e-02
-9.377249e-02
-9.714421e-02
-1.005251e-01
-1.039179e-01
-1.073302e-01
-1.107736e-01
-1.142624e-01
-1.178116e-01
-1.214345e-01
-1.251400e-01
-1.289304e-01
-1.328000e-01
-1.367347e-01
-1.407132e-01
-1.447085e-01
-1.486908e-01
-1.526308e-01
-1.565036e-01
-1.602908e-01
-1.639823e-01
-1.675758e-01
-1.710760e-01
-1.744920e-01
-1.778353e-01
-1.811166e-01
-1.843446e-01
-1.875243e-01
-1.906580e-01
-1.937472e-01
-1.967947e-01
-1.998064e-01
-2.027923e-01
-2.057657e-01
-2.087423e-01
-2.117393e-01
-2.147739e-01
-2.178638e-01
-2.210275e-01
-2.242838e-01
-2.276518e-01
-2.311482e-01
-2.347866e-01
-2.385761e-01
-2.425221e-01
-2.466275e-01
-2.508937e-01
-2.553213e-01
-2.599111e-01
-2.646623e-01
-2.695719e-01
-2.746329e-01
-2.798342e-01
-2.851606e-01
-2.905935e-01
-2.961129e-01
-3.016988e-01
-3.073334e-01
-3.130031e-01
-3.186993e-01
-3.244201e-01
-3.301698e-01
-3.359571e-01
-3.417925e-01
-3.476854e-01
-3.536427e-01
-3.596681e-01
-3.657618e-01
-3.719217e-01
-3.781427e-01
-3.844175e-01
-3.907368e-01
-3.970907e-01
-4.034697e-01
-4.098661e-01
-4.162743e-01
-4.226903e-01
-4.291121e-01
-4.355398e-01
-4.419768e-01
-4.484303e-01
-4.549109e-01
-4.614313e-01
-4.680040e-01
-4.746388e-01
-4.813418e-01
-4.881149e-01
-4.949571e-01
-5.018665e-01
-5.088426e-01
-5.158866e-01
-5.230011e-01
-5.301892e-01
-5.374531e-01
-5.447946e-01
-5.522161e-01
-5.597210e-01
-5.673133e-01
-5.749973e-01
-5.827751e-01
-5.906457e-01
-5.986033e-01
-6.066367e-01
-6.147301e-01
-6.228650e-01
-6.310223e-01
-6.391846e-01
-6.473378e-01
-6.554714e-01
-6.635785e-01
-6.716548e-01
-6.796992e-01
-6.877129e-01
-6.956994e-01
-7.036633e-01
-7.116087e-01
-7.195381e-01
-7.274518e-01
-7.353473e-01
-7.432190e-01
-7.510583e-01
-7.588536e-01
-7.665912e-01
-7.742568e-01
-7.818362e-01
-7.893163e-01
-7.966855e-01
-8.039340e-01
-8.110543e-01
-8.180414e-01
-8.248931e-01
-8.316101e-01
-8.381961e-01
-8.446562e-01
-8.509965e-01
-8.572233e-01
-8.633418e-01
-8.693559e-01
-8.752678e-01
-8.810784e-01
-8.867885e-01
-8.923997e-01
-8.979145e-01
-9.033357e-01
-9.086653e-01
-9.139046e-01
-9.190553e-01
-9.241204e-01
-9.291057e-01
-9.340197e-01
-9.388731e-01
-9.436767e-01
-9.484389e-01
-9.531636e-01
-9.578488e-01
-9.624874e-01
-9.670676e-01
-9.715751e-01
-9.759958e-01
-9.803176e-01
-9.845329e-01
-9.886387e-01
-9.926357e-01
-9.965263e-01
-1.000313e+00
-1.003993e+00
-1.007564e+00
-1.011016e+00
-1.014342e+00
-1.017536e+00
-1.020593e+00
-1.023514e+00
-1.026301e+00
-1.028956e+00
-1.031481e+00
-1.033873e+00
-1.036128e+00
-1.038242e+00
-1.040208e+00
-1.042027e+00
-1.043699e+00
-1.045230e+00
-1.046627e+00
-1.047896e+00
-1.049043e+00
-1.050069e+00
-1.050977e+00
-1.051765e+00
-1.052435e+00
-1.052988e+00
-1.053427e+00
-1.053754e+00
-1.053974e+00
-1.054094e+00
-1.054123e+00
-1.054069e+00
-1.053943e+00
-1.053752e+00
-1.053501e+00
-1.053193e+00
-1.052827e+00
-1.052400e+00
-1.051909e+00
-1.051353e+00
-1.050731e+00
-1.050048e+00
-1.049306e+00
-1.048507e+00
-1.047650e+00
-1.046728e+00
-1.045732e+00
-1.044646e+00
-1.043454e+00
-1.042137e+00
-1.040677e+00
-1.039057e+00
-1.037268e+00
-1.035302e+00
-1.033157e+00
-1.030830e+00
-1.028321e+00
-1.025630e+00
-1.022757e+00
-1.019701e+00
-1.016463e+00
-1.013046e+00
-1.009452e+00
-1.005683e+00
-1.001745e+00
-9.976422e-01
-9.933806e-01
-9.889664e-01
-9.844052e-01
-9.797011e-01
-9.748569e-01
-9.698745e-01
-9.647547e-01
-9.594978e-01
-9.541034e-01
-9.485703e-01
-9.428974e-01
-9.370839e-01
-9.311298e-01
-9.250363e-01
-9.188048e-01
-9.124374e-01
-9.059362e-01
-8.993044e-01
-8.925462e-01
-8.856665e-01
-8.786700e-01
-8.715602e-01
-8.643397e-01
-8.570108e-01
-8.495766e-01
-8.420411e-01
-8.344094e-01
-8.266872e-01
-8.188802e-01
-8.109940e-01
-8.030345e-01
-7.950080e-01
-7.869213e-01
-7.787810e-01
-7.705932e-01
-7.623626e-01
-7.540931e-01
-7.457881e-01
-7.374502e-01
-7.290813e-01
-7.206818e-01
-7.122497e-01
-7.037810e-01
-6.952696e-01
-6.867086e-01
-6.780913e-01
-6.694117e-01
-6.606658e-01
-6.518529e-01
-6.429766e-01
-6.340457e-01
-6.250722e-01
-6.160702e-01
-6.070532e-01
-5.980334e-01
-5.890199e-01
-5.800200e-01
-5.710386e-01
-5.620798e-01
-5.531474e-01
-5.442454e-01
-5.353781e-01
-5.265498e-01
-5.177648e-01
-5.090269e-01
-5.003399e-01
-4.917075e-01
-4.831334e-01
-4.746221e-01
-4.661777e-01
-4.578046e-01
-4.495060e-01
-4.412840e-01
-4.331390e-01
-4.250698e-01
-4.170734e-01
-4.091455e-01
-4.012813e-01
-3.934758e-01
-3.857250e-01
-3.780264e-01
-3.703795e-01
-3.627854e-01
-3.552463e-01
-3.477649e-01
-3.403430e-01
-3.329809e-01
-3.256766e-01
-3.184261e-01
-3.112241e-01
-3.040665e-01
-2.969502e-01
-2.898735e-01
-2.828364e-01
-2.758399e-01
-2.688871e-01
-2.619826e-01
-2.551311e-01
-2.483352e-01
-2.415938e-01
-2.349008e-01
-2.282462e-01
-2.216190e-01
-2.150099e-01
-2.084143e-01
-2.018330e-01
-1.952718e-01
-1.887396e-01
-1.822461e-01
-1.758004e-01
-1.694100e-01
-1.630801e-01
-1.568141e-01
-1.506143e-01
-1.444821e-01
-1.384189e-01
-1.324261e-01
-1.265047e-01
-1.206556e-01
-1.148791e-01
-1.091758e-01
-1.035469e-01
-9.799453e-02
-9.252206e-02
-8.713262e-02
-8.182747e-02
-7.660473e-02
-7.145909e-02
-6.638281e-02
-6.136737e-02
-5.640530e-02
-5.149147e-02
-4.662358e-02
-4.180158e-02
-3.702635e-02
-3.229825e-02
-2.761621e-02
-2.297750e-02
-1.837833e-02
-1.381502e-02
-9.285121e-03
-4.788522e-03
-3.282024e-04
4.089266e-03
8.453883e-03
1.275339e-02
1.697549e-02
2.111051e-02
2.515374e-02
2.910619e-02
3.297349e-02
3.676358e-02
4.048420e-02
4.414123e-02
4.773805e-02
5.127577e-02
5.475378e-02
5.817014e-02
6.152174e-02
6.480414e-02
6.801168e-02
7.113812e-02
7.417796e-02
7.712778e-02
7.998738e-02
8.275985e-02
8.545046e-02
8.806460e-02
9.060570e-02
9.307409e-02
9.546716e-02
9.778078e-02
1.000112e-01
1.021567e-01
1.042177e-01
1.061971e-01
1.081000e-01
1.099329e-01
1.117044e-01
1.134238e-01
1.151009e-01
1.167449e-01
1.183643e-01
1.199676e-01
1.215632e-01
1.231600e-01
1.247668e-01
1.263917e-01
1.280415e-01
1.297221e-01
1.314387e-01
1.331971e-01
1.350038e-01
1.368652e-01
1.387860e-01
1.407690e-01
1.428136e-01
1.449168e-01
1.470735e-01
1.492774e-01
1.515226e-01
1.538042e-01
1.561200e-01
1.584694e-01
1.608533e-01
1.632725e-01
1.657264e-01
1.682119e-01
1.707240e-01
1.732556e-01
1.757982e-01
1.783424e-01
1.808769e-01
1.833886e-01
1.858624e-01
1.882831e-01
1.906378e-01
1.929171e-01
1.951162e-01
1.972332e-01
1.992669e-01
2.012158e-01
2.030759e-01
2.048419e-01
2.065076e-01
2.080677e-01
2.095185e-01
2.108574e-01
2.120828e-01
2.131933e-01
2.141867e-01
2.150599e-01
2.158084e-01
2.164267e-01
2.169084e-01
2.172474e-01
2.174381e-01
2.174756e-01
2.173566e-01
2.170803e-01
2.166498e-01
2.160722e-01
2.153586e-01
2.145228e-01
2.135799e-01
2.125445e-01
2.114297e-01
2.102470e-01
2.090053e-01
2.077115e-01
2.063701e-01
2.049836e-01
2.035535e-01
2.020812e-01
2.005696e-01
1.990245e-01
1.974554e-01
1.958756e-01
1.943011e-01
1.927485e-01
1.912329e-01
1.897665e-01
1.883586e-01
1.870165e-01
1.857457e-01
1.845504e-01
1.834326e-01
1.823922e-01
1.814272e-01
1.805341e-01
1.797104e-01
1.789559e-01
1.782745e-01
1.776742e-01
1.771652e-01
1.767573e-01
1.764571e-01
1.762663e-01
1.761816e-01
1.761958e-01
1.762993e-01
1.764830e-01
1.767389e-01
1.770616e-01
1.774471e-01
1.778924e-01
1.783942e-01
1.789487e-01
1.795510e-01
1.801952e-01
1.808750e-01
1.815850e-01
1.823212e-01
1.830820e-01
1.838680e-01
1.846821e-01
1.855285e-01
1.864125e-01
1.873398e-01
1.883162e-01
1.893470e-01
1.904368e-01
1.915886e-01
1.928047e-01
1.940870e-01
1.954376e-01
1.968592e-01
1.983541e-01
1.999241e-01
2.015697e-01
2.032899e-01
2.050830e-01
2.069461e-01
2.088761e-01
2.108692e-01
2.129216e-01
2.150301e-01
2.171924e-01
2.194068e-01
2.216717e-01
2.239851e-01
2.263449e-01
2.287491e-01
2.311959e-01
2.336844e-01
2.362134e-01
2.387817e-01
2.413876e-01
2.440289e-01
2.467035e-01
2.494095e-01
2.521447e-01
2.549060e-01
2.576900e-01
2.604925e-01
2.633094e-01
2.661364e-01
2.689689e-01
2.718011e-01
2.746259e-01
2.774345e-01
2.802163e-01
2.829589e-01
2.856483e-01
2.882701e-01
2.908098e-01
2.932538e-01
2.955901e-01
2.978086e-01
2.999018e-01
3.018655e-01
3.037006e-01
3.054127e-01
3.070120e-01
3.085114e-01
3.099241e-01
3.112606e-01
3.125280e-01
3.137298e-01
