EVENT_NAME: EMILIA_2ND_SHOCK
EVENT_ID: IT-2012-0011
EVENT_DATE_YYYYMMDD: 20120529
EVENT_TIME_HHMMSS: 070002
EVENT_LATITUDE_DEGREE: 44.8417
EVENT_LONGITUDE_DEGREE: 11.0657
EVENT_DEPTH_KM: 8.1
HYPOCENTER_REFERENCE: INGV-CNT_Seismic_Bulletin
MAGNITUDE_W: 6.0
MAGNITUDE_W_REFERENCE: RCMT-INGV
MAGNITUDE_L: 5.8
MAGNITUDE_L_REFERENCE: INGV-CNT_Seismic_Bulletin
FOCAL_MECHANISM: TF
NETWORK: IV
STATION_CODE: SERM
STATION_NAME: SERMIDE
STATION_LATITUDE_DEGREE: 45.010000
STATION_LONGITUDE_DEGREE: 11.295800
STATION_ELEVATION_M: 7
LOCATION: 
SENSOR_DEPTH_M: 1.0
VS30_M/S: 
SITE_CLASSIFICATION_EC8: C*
MORPHOLOGIC_CLASSIFICATION: 
EPICENTRAL_DISTANCE_KM: 26.1
EARTHQUAKE_BACKAZIMUTH_DEGREE: 224.2
DATE_TIME_FIRST_SAMPLE_YYYYMMDD_HHMMSS: 20120529_065954.000
DATE_TIME_FIRST_SAMPLE_PRECISION: milliseconds
SAMPLING_INTERVAL_S: 0.005000
NDATA: 20001
DURATION_S: 100.005
STREAM: HNE
UNITS: cm
INSTRUMENT: sensor = Episensor FBA ES-T [Kinemetrics] | digitizer = Unknown [Unknown]
INSTRUMENT_ANALOG/DIGITAL: D
INSTRUMENTAL_FREQUENCY_HZ: 
INSTRUMENTAL_DAMPING: 
FULL_SCALE_G: 
N_BIT_DIGITAL_CONVERTER: 
PGD_CM: -0.523720
TIME_PGD_S: 41.935000
BASELINE_CORRECTION: BASELINE REMOVED
FILTER_TYPE: BUTTERWORTH
FILTER_ORDER: 2
LOW_CUT_FREQUENCY_HZ: 0.100
HIGH_CUT_FREQUENCY_HZ: 40.000
LATE/NORMAL_TRIGGERED: NT
DATABASE_VERSION: DYNA 1.0
HEADER_FORMAT: DYNA 1.2
DATA_TYPE: DISPLACEMENT
PROCESSING: manual (Paolucci et al., 2011)
DATA_TIMESTAMP_YYYYMMDD_HHMMSS: 
DATA_LICENSE: CC-BY4_0 (http://creativecommons.org/licenses/by/4.0/)
DATA_CITATION: ESM working group (2015), European Strong-Motion database, version 0.1, Network Activity 3: Networking acceleration networks and SM data users. Project NERA (www.nera-eu.org)
DATA_CREATOR: ESM working group
ORIGINAL_DATA_MEDIATOR_CITATION: Orfeus - European Integrated Data Archive (EIDA) http://www.orfeus-eu.org/eida/
ORIGINAL_DATA_MEDIATOR: Orfeus - European Integrated Data Archive (EIDA)
ORIGINAL_DATA_CREATOR_CITATION: Data for this study comes from the Italian national seismic network operated by Istituto Nazionale di Geofisica e Vulcanologia and archived at the European Integrated Data Archive http://eida.rm.ingv.it/
ORIGINAL_DATA_CREATOR: network: IV (Italian National Seismic Network); owner: Istituto Nazionale di Geofisica e Vulcanologia
USER1: 
USER2: 
USER3: 
USER4: 
USER5: 
[...]
-3.267393e-01
-3.287481e-01
-3.307419e-01
-3.327117e-01
-3.346500e-01
-3.365515e-01
-3.384132e-01
-3.402341e-01
-3.420140e-01
-3.437526e-01
-3.454480e-01
-3.470969e-01
-3.486941e-01
-3.502329e-01
-3.517058e-01
-3.531051e-01
-3.544237e-01
-3.556555e-01
-3.567958e-01
-3.578423e-01
-3.587947e-01
-3.596540e-01
-3.604214e-01
-3.610981e-01
-3.616848e-01
-3.621815e-01
-3.625884e-01
-3.629049e-01
-3.631309e-01
-3.632664e-01
-3.633115e-01
-3.632651e-01
-3.631246e-01
-3.628855e-01
-3.625419e-01
-3.620879e-01
-3.615175e-01
-3.608258e-01
-3.600096e-01
-3.590671e-01
-3.579987e-01
-3.568072e-01
-3.554970e-01
-3.540739e-01
-3.525440e-01
-3.509135e-01
-3.491876e-01
-3.473710e-01
-3.454677e-01
-3.434808e-01
-3.414125e-01
-3.392643e-01
-3.370376e-01
-3.347343e-01
-3.323565e-01
-3.299065e-01
-3.273871e-01
-3.248015e-01
-3.221536e-01
-3.194486e-01
-3.166925e-01
-3.138923e-01
-3.110555e-01
-3.081907e-01
-3.053066e-01
-3.024119e-01
-2.995143e-01
-2.966197e-01
-2.937321e-01
-2.908532e-01
-2.879831e-01
-2.851215e-01
-2.822684e-01
-2.794247e-01
-2.765925e-01
-2.737750e-01
-2.709774e-01
-2.682055e-01
-2.654655e-01
-2.627626e-01
-2.601000e-01
-2.574788e-01
-2.548974e-01
-2.523527e-01
-2.498404e-01
-2.473557e-01
-2.448936e-01
-2.424493e-01
-2.400181e-01
-2.375956e-01
-2.351780e-01
-2.327617e-01
-2.303446e-01
-2.279255e-01
-2.255045e-01
-2.230825e-01
-2.206608e-01
-2.182413e-01
-2.158259e-01
-2.134163e-01
-2.110132e-01
-2.086169e-01
-2.062271e-01
-2.038432e-01
-2.014640e-01
-1.990877e-01
-1.967113e-01
-1.943316e-01
-1.919450e-01
-1.895488e-01
-1.871418e-01
-1.847246e-01
-1.823002e-01
-1.798737e-01
-1.774520e-01
-1.750432e-01
-1.726556e-01
-1.702963e-01
-1.679706e-01
-1.656815e-01
-1.634303e-01
-1.612167e-01
-1.590391e-01
-1.568942e-01
-1.547764e-01
-1.526776e-01
-1.505880e-01
-1.484972e-01
-1.463957e-01
-1.442757e-01
-1.421322e-01
-1.399627e-01
-1.377668e-01
-1.355448e-01
-1.332970e-01
-1.310240e-01
-1.287267e-01
-1.264063e-01
-1.240640e-01
-1.217011e-01
-1.193178e-01
-1.169121e-01
-1.144796e-01
-1.120134e-01
-1.095052e-01
-1.069468e-01
-1.043313e-01
-1.016537e-01
-9.891073e-02
-9.610113e-02
-9.322491e-02
-9.028303e-02
-8.727681e-02
-8.420722e-02
-8.107452e-02
-7.787833e-02
-7.461821e-02
-7.129452e-02
-6.790913e-02
-6.446557e-02
-6.096870e-02
-5.742411e-02
-5.383760e-02
-5.021485e-02
-4.656133e-02
-4.288243e-02
-3.918358e-02
-3.547036e-02
-3.174829e-02
-2.802243e-02
-2.429654e-02
-2.057225e-02
-1.684875e-02
-1.312351e-02
-9.393507e-03
-5.656278e-03
-1.910170e-03
1.846140e-03
5.614219e-03
9.396112e-03
1.319414e-02
1.701061e-02
2.084759e-02
2.470675e-02
2.858900e-02
3.249399e-02
3.641991e-02
4.036370e-02
4.432164e-02
4.828986e-02
5.226445e-02
5.624110e-02
6.021478e-02
6.417970e-02
6.812978e-02
7.205935e-02
7.596343e-02
7.983746e-02
8.367682e-02
8.747667e-02
9.123230e-02
9.493975e-02
9.859642e-02
1.022013e-01
1.057546e-01
1.092578e-01
1.127123e-01
1.161192e-01
1.194791e-01
1.227918e-01
1.260565e-01
1.292716e-01
1.324353e-01
1.355458e-01
1.386020e-01
1.416029e-01
1.445473e-01
1.474337e-01
1.502608e-01
1.530284e-01
1.557379e-01
1.583927e-01
1.609988e-01
1.635641e-01
1.660973e-01
1.686073e-01
1.711011e-01
1.735836e-01
1.760560e-01
1.785165e-01
1.809603e-01
1.833813e-01
1.857730e-01
1.881298e-01
1.904474e-01
1.927236e-01
1.949585e-01
1.971540e-01
1.993144e-01
2.014450e-01
2.035521e-01
2.056415e-01
2.077174e-01
2.097826e-01
2.118383e-01
2.138857e-01
2.159257e-01
2.179601e-01
2.199904e-01
2.220184e-01
2.240450e-01
2.260699e-01
2.280915e-01
2.301066e-01
2.321107e-01
2.340986e-01
2.360648e-01
2.380038e-01
2.399111e-01
2.417828e-01
2.436161e-01
2.454087e-01
2.471589e-01
2.488647e-01
2.505246e-01
2.521368e-01
2.536998e-01
2.552116e-01
2.566698e-01
2.580717e-01
2.594140e-01
2.606932e-01
2.619062e-01
2.630502e-01
2.641236e-01
2.651263e-01
2.660603e-01
2.669288e-01
2.677362e-01
2.684863e-01
2.691825e-01
2.698264e-01
2.704191e-01
2.709607e-01
2.714511e-01
2.718898e-01
2.722757e-01
2.726071e-01
2.728830e-01
2.731036e-01
2.732710e-01
2.733890e-01
2.734621e-01
2.734943e-01
2.734888e-01
2.734476e-01
2.733721e-01
2.732628e-01
2.731201e-01
2.729445e-01
2.727373e-01
2.725007e-01
2.722377e-01
2.719522e-01
2.716485e-01
2.713317e-01
2.710069e-01
2.706796e-01
2.703546e-01
2.700362e-01
2.697278e-01
2.694321e-01
2.691512e-01
2.688865e-01
2.686386e-01
2.684080e-01
2.681953e-01
2.680018e-01
2.678293e-01
2.676790e-01
2.675512e-01
2.674439e-01
2.673531e-01
2.672736e-01
2.672000e-01
2.671272e-01
2.670512e-01
2.669682e-01
2.668747e-01
2.667674e-01
2.666437e-01
2.665019e-01
2.663422e-01
2.661659e-01
2.659756e-01
2.657740e-01
2.655635e-01
2.653452e-01
2.651198e-01
2.648880e-01
2.646509e-01
2.644100e-01
2.641662e-01
2.639189e-01
2.636655e-01
2.634020e-01
2.631234e-01
2.628252e-01
2.625038e-01
2.621571e-01
2.617844e-01
2.613861e-01
2.609631e-01
2.605159e-01
2.600443e-01
2.595472e-01
2.590236e-01
2.584731e-01
2.578960e-01
2.572926e-01
2.566627e-01
2.560051e-01
2.553186e-01
2.546020e-01
2.538560e-01
2.530823e-01
2.522838e-01
2.514628e-01
2.506201e-01
2.497548e-01
2.488652e-01
2.479495e-01
2.470068e-01
2.460366e-01
2.450386e-01
2.440124e-01
2.429573e-01
2.418725e-01
2.407583e-01
2.396154e-01
2.384458e-01
2.372525e-01
2.360391e-01
2.348093e-01
2.335669e-01
2.323153e-01
2.310575e-01
2.297965e-01
2.285349e-01
2.272748e-01
2.260171e-01
2.247610e-01
2.235036e-01
2.222403e-01
2.209660e-01
2.196770e-01
2.183718e-01
2.170516e-01
2.157196e-01
2.143802e-01
2.130381e-01
2.116979e-01
2.103639e-01
2.090400e-01
2.077300e-01
2.064376e-01
2.051664e-01
2.039196e-01
2.027000e-01
2.015104e-01
2.003536e-01
1.992323e-01
1.981490e-01
1.971047e-01
1.960991e-01
1.951311e-01
1.942002e-01
1.933072e-01
1.924550e-01
1.916473e-01
1.908876e-01
1.901781e-01
1.895196e-01
1.889110e-01
1.883504e-01
1.878351e-01
1.873628e-01
1.869309e-01
1.865370e-01
1.861787e-01
1.858545e-01
1.855634e-01
1.853054e-01
1.850804e-01
1.848883e-01
1.847279e-01
1.845974e-01
1.844946e-01
1.844168e-01
1.843610e-01
1.843251e-01
1.843080e-01
1.843106e-01
1.843357e-01
1.843873e-01
1.844696e-01
1.845866e-01
1.847409e-01
1.849338e-01
1.851655e-01
1.854353e-01
1.857418e-01
1.860828e-01
1.864556e-01
1.868575e-01
1.872868e-01
1.877428e-01
1.882262e-01
1.887387e-01
1.892828e-01
1.898615e-01
1.904771e-01
1.911305e-01
1.918211e-01
1.925467e-01
1.933041e-01
1.940898e-01
1.949000e-01
1.957311e-01
1.965803e-01
1.974452e-01
1.983248e-01
1.992191e-01
2.001289e-01
2.010557e-01
2.020009e-01
2.029660e-01
2.039520e-01
2.049596e-01
2.059893e-01
2.070409e-01
2.081133e-01
2.092050e-01
2.103143e-01
2.114399e-01
2.125813e-01
2.137388e-01
2.149137e-01
2.161077e-01
2.173223e-01
2.185590e-01
2.198188e-01
2.211035e-01
2.224152e-01
2.237565e-01
2.251291e-01
2.265341e-01
2.279715e-01
2.294409e-01
2.309423e-01
2.324767e-01
2.340459e-01
2.356526e-01
2.372990e-01
2.389868e-01
2.407164e-01
2.424870e-01
2.442965e-01
2.461416e-01
2.480181e-01
2.499206e-01
2.518429e-01
2.537784e-01
2.557198e-01
2.576596e-01
2.595908e-01
2.615076e-01
2.634062e-01
2.652840e-01
2.671395e-01
2.689708e-01
2.707750e-01
2.725478e-01
2.742845e-01
2.759804e-01
2.776318e-01
2.792362e-01
2.807916e-01
2.822970e-01
2.837519e-01
2.851566e-01
2.865120e-01
2.878198e-01
2.890820e-01
2.903005e-01
2.914768e-01
2.926127e-01
2.937098e-01
2.947701e-01
2.957949e-01
2.967853e-01
2.977412e-01
2.986620e-01
2.995464e-01
3.003931e-01
3.012006e-01
3.019675e-01
3.026931e-01
3.033778e-01
3.040233e-01
3.046333e-01
3.052125e-01
3.057665e-01
3.063001e-01
3.068173e-01
3.073199e-01
3.078079e-01
3.082796e-01
3.087324e-01
3.091640e-01
3.095716e-01
3.099530e-01
3.103055e-01
3.106268e-01
3.109150e-01
3.111686e-01
3.113862e-01
3.115661e-01
3.117063e-01
3.118051e-01
3.118614e-01
3.118744e-01
3.118446e-01
3.117726e-01
3.116597e-01
3.115074e-01
3.113173e-01
3.110908e-01
3.108289e-01
3.105319e-01
3.101999e-01
3.098331e-01
3.094317e-01
3.089964e-01
3.085278e-01
3.080265e-01
3.074932e-01
3.069288e-01
3.063348e-01
3.057131e-01
3.050665e-01
3.043976e-01
3.037092e-01
3.030038e-01
3.022835e-01
3.015496e-01
3.008033e-01
3.000453e-01
2.992763e-01
2.984970e-01
2.977076e-01
2.969086e-01
2.961006e-01
2.952842e-01
2.944604e-01
2.936296e-01
2.927918e-01
2.919462e-01
2.910916e-01
2.902268e-01
2.893513e-01
2.884655e-01
2.875711e-01
2.866705e-01
2.857669e-01
2.848637e-01
2.839635e-01
2.830683e-01
2.821792e-01
2.812975e-01
2.804249e-01
2.795627e-01
2.787116e-01
2.778708e-01
2.770387e-01
2.762136e-01
2.753951e-01
2.745850e-01
2.737866e-01
2.730038e-01
2.722398e-01
2.714967e-01
2.707752e-01
2.700750e-01
2.693949e-01
2.687335e-01
2.680886e-01
2.674585e-01
2.668415e-01
2.662363e-01
2.656421e-01
2.650578e-01
2.644811e-01
2.639092e-01
2.633383e-01
2.627649e-01
2.621861e-01
2.616000e-01
2.610057e-01
2.604028e-01
2.597912e-01
2.591711e-01
2.585432e-01
2.579093e-01
2.572717e-01
2.566332e-01
2.559961e-01
2.553616e-01
2.547298e-01
2.540990e-01
2.534669e-01
2.528305e-01
2.521862e-01
2.515307e-01
2.508608e-01
2.501741e-01
2.494692e-01
2.487465e-01
2.480074e-01
2.472545e-01
2.464906e-01
2.457183e-01
2.449398e-01
2.441565e-01
2.433695e-01
2.425795e-01
2.417879e-01
2.409961e-01
2.402059e-01
2.394185e-01
2.386345e-01
2.378533e-01
2.370733e-01
2.362910e-01
2.355016e-01
2.346982e-01
2.338733e-01
2.330195e-01
2.321307e-01
2.312031e-01
2.302344e-01
2.292240e-01
2.281724e-01
2.270802e-01
2.259484e-01
2.247771e-01
2.235655e-01
2.223112e-01
2.210106e-01
2.196588e-01
2.182502e-01
2.167787e-01
2.152386e-01
2.136256e-01
2.119369e-01
2.101717e-01
2.083300e-01
2.064126e-01
2.044208e-01
2.023555e-01
2.002174e-01
1.980068e-01
1.957241e-01
1.933706e-01
1.909485e-01
1.884608e-01
1.859105e-01
1.833002e-01
1.806317e-01
1.779057e-01
1.751225e-01
1.722823e-01
1.693857e-01
1.664334e-01
1.634268e-01
1.603671e-01
1.572557e-01
1.540933e-01
1.508804e-01
1.476170e-01
1.443031e-01
1.409385e-01
1.375229e-01
1.340562e-01
1.305383e-01
1.269689e-01
1.233477e-01
1.196739e-01
1.159460e-01
1.121626e-01
1.083217e-01
1.044211e-01
1.004588e-01
9.643290e-02
9.234250e-02
8.818767e-02
8.396945e-02
7.968953e-02
7.534985e-02
7.095227e-02
6.649834e-02
6.198930e-02
5.742634e-02
5.281105e-02
4.814595e-02
4.343466e-02
3.868178e-02
3.389234e-02
2.907120e-02
2.422264e-02
1.935036e-02
1.445765e-02
9.547926e-03
4.625195e-03
-3.055984e-04
-5.238513e-03
-1.016686e-02
-1.508364e-02
-1.998201e-02
-2.485581e-02
-2.969994e-02
-3.451069e-02
-3.928571e-02
-4.402378e-02
-4.872454e-02
-5.338833e-02
-5.801632e-02
-6.261071e-02
-6.717488e-02
-7.171308e-02
-7.623002e-02
-8.073017e-02
-8.521711e-02
-8.969305e-02
-9.415859e-02
-9.861282e-02
-1.030538e-01
-1.074796e-01
-1.118888e-01
-1.162815e-01
-1.206590e-01
-1.250233e-01
-1.293770e-01
-1.337221e-01
-1.380608e-01
-1.423954e-01
-1.467288e-01
-1.510647e-01
-1.554070e-01
-1.597599e-01
-1.641267e-01
-1.685096e-01
-1.729087e-01
-1.773227e-01
-1.817491e-01
-1.861842e-01
-1.906242e-01
-1.950649e-01
-1.995024e-01
-2.039330e-01
-2.083528e-01
-2.127583e-01
-2.171465e-01
-2.215153e-01
-2.258644e-01
-2.301943e-01
-2.345058e-01
-2.387987e-01
-2.430718e-01
-2.473225e-01
-2.515472e-01
-2.557421e-01
-2.599036e-01
-2.640284e-01
-2.681141e-01
-2.721595e-01
-2.761652e-01
-2.801336e-01
-2.840689e-01
-2.879762e-01
-2.918606e-01
-2.957257e-01
-2.995734e-01
-3.034029e-01
-3.072115e-01
-3.109954e-01
-3.147505e-01
-3.184730e-01
-3.221600e-01
-3.258089e-01
-3.294177e-01
-3.329842e-01
-3.365073e-01
-3.399862e-01
-3.434214e-01
-3.468142e-01
-3.501662e-01
-3.534791e-01
-3.567539e-01
-3.599919e-01
-3.631946e-01
-3.663639e-01
-3.695026e-01
-3.726134e-01
-3.756991e-01
-3.787621e-01
-3.818044e-01
-3.848277e-01
-3.878337e-01
-3.908242e-01
-3.938012e-01
-3.967668e-01
-3.997232e-01
-4.026729e-01
-4.056184e-01
-4.085624e-01
-4.115077e-01
-4.144570e-01
-4.174125e-01
-4.203754e-01
-4.233462e-01
-4.263241e-01
-4.293075e-01
-4.322941e-01
-4.352810e-01
-4.382651e-01
-4.412427e-01
-4.442099e-01
-4.471626e-01
-4.500962e-01
-4.530065e-01
-4.558892e-01
-4.587401e-01
-4.615555e-01
-4.643323e-01
-4.670683e-01
-4.697621e-01
-4.724125e-01
-4.750180e-01
-4.775768e-01
-4.800869e-01
-4.825464e-01
-4.849538e-01
-4.873078e-01
-4.896072e-01
-4.918502e-01
-4.940349e-01
-4.961588e-01
-4.982190e-01
-5.002117e-01
-5.021326e-01
-5.039769e-01
-5.057405e-01
-5.074198e-01
-5.090125e-01
-5.105176e-01
-5.119354e-01
-5.132668e-01
-5.145138e-01
-5.156781e-01
-5.167617e-01
-5.177659e-01
-5.186918e-01
-5.195398e-01
-5.203099e-01
-5.210015e-01
-5.216138e-01
-5.221460e-01
-5.225980e-01
-5.229704e-01
-5.232652e-01
-5.234849e-01
-5.236324e-01
-5.237100e-01
-5.237198e-01
-5.236627e-01
-5.235396e-01
-5.233510e-01
-5.230977e-01
-5.227808e-01
-5.224012e-01
-5.219603e-01
-5.214600e-01
-5.209032e-01
-5.202934e-01
-5.196346e-01
-5.189309e-01
-5.181862e-01
-5.174043e-01
-5.165886e-01
-5.157419e-01
-5.148665e-01
-5.139634e-01
-5.130323e-01
-5.120714e-01
-5.110780e-01
-5.100489e-01
-5.089813e-01
-5.078729e-01
-5.067227e-01
-5.055300e-01
-5.042946e-01
-5.030167e-01
-5.016956e-01
-5.003308e-01
-4.989214e-01
-4.974670e-01
-4.959684e-01
-4.944269e-01
-4.928444e-01
-4.912224e-01
-4.895621e-01
-4.878639e-01
-4.861277e-01
-4.843529e-01
-4.825394e-01
-4.806876e-01
-4.787989e-01
-4.768755e-01
-4.749202e-01
-4.729353e-01
-4.709229e-01
-4.688839e-01
-4.668191e-01
-4.647293e-01
-4.626160e-01
-4.604810e-01
-4.583269e-01
-4.561559e-01
-4.539702e-01
-4.517723e-01
-4.495644e-01
-4.473494e-01
-4.451301e-01
-4.429099e-01
-4.406919e-01
-4.384792e-01
-4.362734e-01
-4.340751e-01
-4.318833e-01
-4.296959e-01
-4.275105e-01
-4.253239e-01
-4.231324e-01
-4.209322e-01
-4.187195e-01
-4.164913e-01
-4.142463e-01
-4.119842e-01
-4.097058e-01
-4.074119e-01
-4.051032e-01
-4.027800e-01
-4.004426e-01
-3.980902e-01
-3.957213e-01
-3.933328e-01
-3.909202e-01
-3.884788e-01
-3.860045e-01
-3.834949e-01
-3.809496e-01
-3.783698e-01
-3.757580e-01
-3.731168e-01
-3.704490e-01
-3.677567e-01
-3.650415e-01
-3.623049e-01
-3.595483e-01
-3.567730e-01
-3.539805e-01
-3.511720e-01
-3.483490e-01
-3.455132e-01
-3.426662e-01
-3.398099e-01
-3.369453e-01
-3.340728e-01
-3.311917e-01
-3.283006e-01
-3.253977e-01
-3.224814e-01
-3.195506e-01
-3.166042e-01
-3.136410e-01
-3.106600e-01
-3.076601e-01
-3.046404e-01
-3.015999e-01
-2.985374e-01
-2.954514e-01
-2.923403e-01
-2.892028e-01
-2.860373e-01
-2.828426e-01
-2.796169e-01
-2.763588e-01
-2.730667e-01
-2.697397e-01
-2.663769e-01
-2.629786e-01
-2.595457e-01
-2.560799e-01
-2.525837e-01
-2.490597e-01
-2.455107e-01
-2.419395e-01
-2.383493e-01
-2.347436e-01
-2.311264e-01
-2.275011e-01
-2.238710e-01
-2.202382e-01
-2.166038e-01
-2.129681e-01
-2.093305e-01
-2.056900e-01
-2.020454e-01
-1.983963e-01
-1.947431e-01
-1.910871e-01
-1.874300e-01
-1.837738e-01
-1.801205e-01
-1.764724e-01
-1.728326e-01
-1.692046e-01
-1.655918e-01
-1.619963e-01
-1.584195e-01
-1.548614e-01
-1.513211e-01
-1.477972e-01
-1.442888e-01
-1.407951e-01
-1.373161e-01
-1.338518e-01
-1.304025e-01
-1.269678e-01
-1.235478e-01
-1.201427e-01
-1.167536e-01
-1.133820e-01
-1.100294e-01
-1.066966e-01
-1.033830e-01
-1.000866e-01
-9.680412e-02
-9.353135e-02
-9.026463e-02
-8.700170e-02
-8.374219e-02
-8.048751e-02
-7.724021e-02
-7.400325e-02
-7.077929e-02
-6.757023e-02
-6.437707e-02
-6.120009e-02
-5.803933e-02
-5.489510e-02
-5.176806e-02
-4.865909e-02
-4.556893e-02
-4.249802e-02
-3.944668e-02
-3.641548e-02
-3.340567e-02
-3.041944e-02
-2.746006e-02
-2.453176e-02
-2.163952e-02
-1.878864e-02
-1.598432e-02
-1.323124e-02
-1.053333e-02
-7.893555e-03
-5.313735e-03
-2.794380e-03
-3.346983e-04
2.067203e-03
4.413962e-03
6.708501e-03
8.953588e-03
1.115152e-02
1.330396e-02
1.541190e-02
1.747561e-02
1.949469e-02
2.146836e-02
2.339583e-02
2.527666e-02
2.711084e-02
2.889856e-02
3.064003e-02
3.233530e-02
3.398409e-02
3.558576e-02
3.713925e-02
3.864322e-02
4.009634e-02
4.149768e-02
4.284690e-02
4.414445e-02
4.539169e-02
4.659087e-02
4.774480e-02
4.885629e-02
4.992742e-02
5.095917e-02
5.195127e-02
5.290261e-02
5.381174e-02
5.467741e-02
5.549890e-02
5.627605e-02
5.700896e-02
5.769761e-02
5.834146e-02
5.893946e-02
5.949038e-02
5.999340e-02
6.044873e-02
6.085780e-02
6.122305e-02
6.154718e-02
6.183244e-02
6.208025e-02
6.229125e-02
6.246583e-02
6.260466e-02
6.270887e-02
6.277983e-02
6.281871e-02
6.282621e-02
6.280261e-02
6.274819e-02
6.266363e-02
6.255023e-02
6.240980e-02
6.224432e-02
6.205556e-02
6.184497e-02
6.161380e-02
6.136342e-02
6.109545e-02
6.081167e-02
6.051380e-02
6.020331e-02
5.988126e-02
5.954824e-02
5.920450e-02
5.885035e-02
5.848675e-02
5.811572e-02
5.774037e-02
5.736452e-02
5.699190e-02
5.662562e-02
5.626784e-02
5.591999e-02
5.558318e-02
5.525863e-02
5.494765e-02
5.465134e-02
5.437001e-02
5.410284e-02
5.384795e-02
5.360305e-02
5.336623e-02
5.313641e-02
5.291329e-02
5.269702e-02
5.248822e-02
5.228845e-02
5.210075e-02
5.192972e-02
5.178102e-02
5.166060e-02
5.157407e-02
5.152646e-02
5.152203e-02
5.156427e-02
5.165585e-02
5.179878e-02
5.199440e-02
5.224336e-02
5.254559e-02
5.290031e-02
5.330620e-02
5.376158e-02
5.426460e-02
5.481341e-02
5.540617e-02
5.604100e-02
5.671570e-02
5.742763e-02
5.817383e-02
5.895120e-02
5.975692e-02
6.058865e-02
6.144454e-02
6.232280e-02
6.322131e-02
6.413743e-02
6.506835e-02
6.601150e-02
6.696505e-02
6.792813e-02
6.890110e-02
6.988537e-02
7.088300e-02
7.189603e-02
7.292613e-02
7.397448e-02
7.504191e-02
7.612903e-02
7.723614e-02
7.836297e-02
7.950854e-02
8.067123e-02
8.184914e-02
8.304038e-02
8.424329e-02
8.545631e-02
8.667763e-02
8.790472e-02
8.913421e-02
9.036222e-02
9.158499e-02
9.279929e-02
9.400239e-02
9.519184e-02
9.636534e-02
9.752078e-02
9.865650e-02
9.977153e-02
1.008658e-01
1.019400e-01
1.029953e-01
1.040328e-01
1.050533e-01
1.060573e-01
1.070448e-01
1.080155e-01
1.089685e-01
1.099020e-01
1.108138e-01
1.117017e-01
1.125640e-01
1.134007e-01
1.142132e-01
1.150039e-01
1.157756e-01
1.165315e-01
1.172745e-01
1.180075e-01
1.187332e-01
1.194539e-01
1.201716e-01
1.208872e-01
1.216014e-01
1.223141e-01
1.230254e-01
1.237354e-01
1.244442e-01
