EVENT_NAME: EMILIA_2ND_SHOCK
EVENT_ID: IT-2012-0011
EVENT_DATE_YYYYMMDD: 20120529
EVENT_TIME_HHMMSS: 070002
EVENT_LATITUDE_DEGREE: 44.8417
EVENT_LONGITUDE_DEGREE: 11.0657
EVENT_DEPTH_KM: 8.1
HYPOCENTER_REFERENCE: INGV-CNT_Seismic_Bulletin
MAGNITUDE_W: 6.0
MAGNITUDE_W_REFERENCE: RCMT-INGV
MAGNITUDE_L: 5.8
MAGNITUDE_L_REFERENCE: INGV-CNT_Seismic_Bulletin
FOCAL_MECHANISM: TF
NETWORK: IV
STATION_CODE: SERM
STATION_NAME: SERMIDE
STATION_LATITUDE_DEGREE: 45.010000
STATION_LONGITUDE_DEGREE: 11.295800
STATION_ELEVATION_M: 7
LOCATION: 
SENSOR_DEPTH_M: 1.0
VS30_M/S: 
SITE_CLASSIFICATION_EC8: C*
MORPHOLOGIC_CLASSIFICATION: 
EPICENTRAL_DISTANCE_KM: 26.1
EARTHQUAKE_BACKAZIMUTH_DEGREE: 224.2
DATE_TIME_FIRST_SAMPLE_YYYYMMDD_HHMMSS: 20120529_065954.000
DATE_TIME_FIRST_SAMPLE_PRECISION: milliseconds
SAMPLING_INTERVAL_S: 0.005000
NDATA: 20001
DURATION_S: 100.005
STREAM: HNN
UNITS: cm/s^2
INSTRUMENT: sensor = Episensor FBA ES-T [Kinemetrics] | digitizer = Unknown [Unknown]
INSTRUMENT_ANALOG/DIGITAL: D
INSTRUMENTAL_FREQUENCY_HZ: 
INSTRUMENTAL_DAMPING: 
FULL_SCALE_G: 
N_BIT_DIGITAL_CONVERTER: 
PGA_CM/S^2: 14.713655
TIME_PGA_S: 25.000000
BASELINE_CORRECTION: BASELINE REMOVED
FILTER_TYPE: BUTTERWORTH
FILTER_ORDER: 2
LOW_CUT_FREQUENCY_HZ: 0.100
HIGH_CUT_FREQUENCY_HZ: 40.000
LATE/NORMAL_TRIGGERED: NT
DATABASE_VERSION: DYNA 1.0
HEADER_FORMAT: DYNA 1.2
DATA_TYPE: ACCELERATION
PROCESSING: manual (Paolucci et al., 2011)
DATA_TIMESTAMP_YYYYMMDD_HHMMSS: 
DATA_LICENSE: CC-BY4_0 (http://creativecommons.org/licenses/by/4.0/)
DATA_CITATION: ESM working group (2015), European Strong-Motion database, version 0.1, Network Activity 3: Networking acceleration networks and SM data users. Project NERA (www.nera-eu.org)
DATA_CREATOR: ESM working group
ORIGINAL_DATA_MEDIATOR_CITATION: Orfeus - European Integrated Data Archive (EIDA) http://www.orfeus-eu.org/eida/
ORIGINAL_DATA_MEDIATOR: Orfeus - European Integrated Data Archive (EIDA)
ORIGINAL_DATA_CREATOR_CITATION: Data for this study comes from the Italian national seismic network operated by Istituto Nazionale di Geofisica e Vulcanologia and archived at the European Integrated Data Archive http://eida.rm.ingv.it/
ORIGINAL_DATA_CREATOR: network: IV (Italian National Seismic Network); owner: Istituto Nazionale di Geofisica e Vulcanologia
USER1: 
USER2: 
USER3: 
USER4: 
USER5: 
[...]
-0.129283
0.974073
1.845757
2.309152
2.372119
2.181355
1.903251
1.586312
1.141739
0.466882
-0.406420
-1.238997
-1.658291
-1.411470
-0.609402
0.325784
0.975291
1.154108
0.868552
0.188777
-0.720008
-1.500058
-1.715754
-1.170158
-0.105721
0.921164
1.392200
1.140648
0.411614
-0.338612
-0.728627
-0.644425
-0.239508
0.229842
0.555546
0.607346
0.345604
-0.122549
-0.568547
-0.802115
-0.803733
-0.676555
-0.507580
-0.331157
-0.175317
-0.057511
0.052640
0.227538
0.511623
0.818606
0.919606
0.602678
-0.119775
-0.955659
-1.497336
-1.483069
-0.941013
-0.111877
0.718913
1.305018
1.474700
1.211946
0.693455
0.178694
-0.148226
-0.240235
-0.156951
0.000195
0.164545
0.318847
0.423073
0.387762
0.158745
-0.177843
-0.382654
-0.230931
0.245545
0.750573
0.982862
0.846151
0.440695
-0.072820
-0.601389
-1.130613
-1.621718
-1.930730
-1.859618
-1.316578
-0.421043
0.569453
1.394116
1.869047
1.936722
1.641815
1.054240
0.266035
-0.585417
-1.339820
-1.826007
-1.891350
-1.513020
-0.885782
-0.306136
0.089312
0.410304
0.809060
1.269588
1.622366
1.691199
1.404237
0.835971
0.191293
-0.284429
-0.424563
-0.199522
0.281198
0.785671
1.051342
0.925217
0.400903
-0.408930
-1.236071
-1.684986
-1.461382
-0.616893
0.439213
1.178228
1.282354
0.836444
0.215373
-0.202377
-0.217844
0.161872
0.765788
1.353346
1.719049
1.733904
1.339502
0.557256
-0.432157
-1.232248
-1.437203
-0.979988
-0.186802
0.479000
0.686780
0.396432
-0.166103
-0.696961
-0.968679
-0.880874
-0.470048
0.120287
0.689684
1.037235
1.059869
0.838753
0.608452
0.596426
0.835235
1.116472
1.160983
0.861415
0.389338
0.093288
0.247209
0.831509
1.558027
2.097604
2.260861
2.030255
1.516062
0.883294
0.270119
-0.239066
-0.580202
-0.706918
-0.640779
-0.495538
-0.409933
-0.410868
-0.368986
-0.175601
0.041209
-0.016409
-0.490724
-1.179295
-1.689161
-1.729092
-1.292608
-0.644533
-0.129139
0.077326
0.081083
0.126794
0.331927
0.621537
0.911004
1.242619
1.682070
2.116249
2.254675
1.909557
1.234766
0.604914
0.266342
0.162467
0.072712
-0.150200
-0.466682
-0.717467
-0.803227
-0.806397
-0.900708
-1.106991
-1.180659
-0.822433
0.005939
1.033693
1.906405
2.384995
2.372807
1.852121
0.847236
-0.512153
-1.894924
-2.813818
-2.852067
-1.928327
-0.414994
1.000728
1.665644
1.320423
0.239814
-0.950295
-1.647777
-1.564911
-0.789018
0.302855
1.192340
1.453393
0.986294
0.067272
-0.803567
-1.167240
-0.886418
-0.197787
0.541193
1.078650
1.278408
1.089971
0.580951
-0.059556
-0.601474
-0.860734
-0.746105
-0.309428
0.265668
0.787580
1.138507
1.255180
1.117525
0.758894
0.283514
-0.116118
-0.241001
-0.053356
0.264539
0.451462
0.378252
0.122628
-0.149037
-0.329409
-0.396143
-0.332507
-0.065139
0.446490
1.031440
1.320724
1.030960
0.224761
-0.707741
-1.316452
-1.423138
-1.256152
-1.235141
-1.610767
-2.290339
-2.929962
-3.165758
-2.821153
-1.957203
-0.764131
0.530436
1.624278
2.134335
1.773625
0.591088
-0.957086
-2.244041
-2.874605
-2.879752
-2.550181
-2.115715
-1.574835
-0.824201
0.090044
0.895213
1.244996
0.979428
0.314166
-0.255662
-0.315575
0.186630
0.961897
1.603806
1.835840
1.625239
1.089920
0.362072
-0.406238
-0.986405
-1.135507
-0.763557
-0.065581
0.534247
0.669145
0.329516
-0.134698
-0.314039
-0.061429
0.394116
0.620499
0.324671
-0.439970
-1.358071
-2.084486
-2.432373
-2.415427
-2.130774
-1.622690
-0.897919
-0.055271
0.665200
1.023157
0.982020
0.719127
0.413628
0.083832
-0.346248
-0.873447
-1.345479
-1.546349
-1.348709
-0.838938
-0.305405
-0.035433
-0.099123
-0.345334
-0.566606
-0.641509
-0.560298
-0.341216
0.045942
0.600152
1.157026
1.449666
1.321943
0.863213
0.368120
0.142801
0.279002
0.600668
0.831714
0.805413
0.557819
0.316343
0.393519
0.937093
1.700718
2.149429
1.868624
0.883497
-0.384757
-1.451784
-2.083181
-2.317607
-2.252873
-1.895459
-1.220642
-0.301397
0.667935
1.475922
2.025811
2.353860
2.496343
2.364295
1.800800
0.764584
-0.553202
-1.774642
-2.519089
-2.610011
-2.146044
-1.397190
-0.634248
-0.014759
0.419848
0.687487
0.833522
0.909739
0.927410
0.827355
0.507298
-0.093004
-0.883887
-1.598309
-1.925859
-1.729843
-1.143945
-0.461608
0.028387
0.127251
-0.222018
-0.902954
-1.677578
-2.309857
-2.681349
-2.806269
-2.722836
-2.413782
-1.879233
-1.221458
-0.601163
-0.158645
0.023803
-0.036501
-0.207225
-0.299216
-0.144767
0.332090
1.066864
1.887730
2.581493
2.910330
2.685068
1.955895
1.103141
0.644689
0.887799
1.694954
2.546767
2.883095
2.465435
1.488918
0.433593
-0.195298
-0.142974
0.439537
1.124033
1.510573
1.436648
0.993298
0.404699
-0.116320
-0.436013
-0.505595
-0.350187
-0.038876
0.342965
0.691029
0.883114
0.834358
0.566153
0.185823
-0.214360
-0.597840
-0.902276
-0.964800
-0.601740
0.194532
1.128999
1.713659
1.598592
0.847113
-0.130865
-0.908606
-1.307419
-1.394254
-1.264151
-0.855035
-0.027500
1.168710
2.385770
3.194291
3.400488
3.131009
2.625883
2.021002
1.360990
0.725366
0.268903
0.178451
0.589398
1.472471
2.581700
3.554603
4.113788
4.208166
3.975239
3.592067
3.184510
2.833805
2.577920
2.361516
2.041961
1.530547
0.918238
0.418109
0.208538
0.325808
0.629551
0.859448
0.795258
0.414597
-0.072152
-0.357086
-0.309684
-0.161185
-0.336042
-1.061536
-2.152234
-3.143851
-3.605885
-3.360759
-2.525009
-1.444435
-0.542942
-0.116957
-0.212619
-0.673972
-1.295942
-1.958821
-2.653747
-3.376945
-4.010535
-4.355977
-4.281568
-3.788888
-2.966759
-1.969922
-1.024108
-0.343019
-0.017253
-0.008824
-0.189588
-0.338956
-0.183398
0.472676
1.616925
2.999905
4.236727
4.987392
5.113707
4.732959
4.137154
3.613496
3.277337
3.048476
2.798887
2.510751
2.268577
2.154479
2.234224
2.602598
3.304215
4.162738
4.760073
4.669561
3.769531
2.336553
0.837351
-0.326628
-0.936030
-0.990819
-0.708007
-0.441489
-0.515455
-1.035440
-1.822481
-2.551111
-2.957305
-2.933441
-2.519951
-1.894321
-1.318764
-0.983218
-0.876798
-0.845930
-0.782615
-0.774715
-1.073266
-1.841338
-2.920340
-3.908762
-4.460410
-4.483316
-4.129827
-3.658430
-3.284713
-3.107860
-3.105302
-3.172976
-3.209067
-3.162899
-2.989584
-2.621755
-2.058436
-1.451145
-1.032507
-0.940303
-1.115862
-1.370794
-1.556953
-1.681562
-1.855743
-2.129541
-2.363922
-2.241631
-1.463610
-0.042764
1.598824
2.871512
3.342718
2.881708
1.651942
0.058573
-1.348037
-2.053919
-1.814914
-0.803792
0.472266
1.465336
1.890964
1.850541
1.707677
1.780071
2.058990
2.197725
1.798912
0.751673
-0.698128
-2.148622
-3.239759
-3.748323
-3.630223
-2.986785
-2.008141
-0.951740
-0.059266
0.579792
1.045042
1.456689
1.840869
2.090761
2.060054
1.713392
1.146186
0.455155
-0.336146
-1.213575
-2.092658
-2.820673
-3.250175
-3.335190
-3.197312
-3.081006
-3.157411
-3.345155
-3.391375
-3.144298
-2.706157
-2.337171
-2.235144
-2.388534
-2.634890
-2.825894
-2.881855
-2.759143
-2.474529
-2.114471
-1.755517
-1.416073
-1.075443
-0.669188
-0.071953
0.872732
2.281454
4.133410
6.182572
7.972992
9.001865
8.947592
7.826855
5.983418
3.904103
1.995116
0.482768
-0.571873
-1.247104
-1.701938
-2.057464
-2.316057
-2.393486
-2.245299
-1.987422
-1.855351
-1.986448
-2.243548
-2.310387
-2.016011
-1.551152
-1.320498
-1.581605
-2.228179
-2.906079
-3.346193
-3.581231
-3.836615
-4.282398
-4.932359
-5.673130
-6.281180
-6.462817
-5.971865
-4.715692
-2.795983
-0.536444
1.521037
2.766603
2.815644
1.740204
0.050003
-1.586228
-2.724426
-3.350705
-3.737929
-4.142700
-4.626598
-5.037000
-5.084634
-4.535071
-3.433272
-2.134601
-1.089371
-0.597948
-0.694446
-1.127198
-1.437043
-1.187006
-0.217855
1.296200
2.995374
4.498385
5.465634
5.599179
4.703840
2.842380
0.433685
-1.847800
-3.324503
-3.564304
-2.510943
-0.474650
1.972633
4.153681
5.464878
5.515806
4.201003
1.761873
-1.185071
-3.799350
-5.353059
-5.542721
-4.573999
-2.977499
-1.300368
0.089533
0.992659
1.285411
0.905220
-0.058495
-1.263818
-2.142994
-2.130082
-0.975478
1.095687
3.468145
5.381927
6.288494
6.157939
5.441278
4.706167
4.316365
4.364910
4.781352
5.478252
6.407818
7.470810
8.416679
8.909748
8.724655
7.894282
6.690110
5.439143
4.319318
3.320353
2.390013
1.585787
1.075740
1.010504
1.385746
1.996635
2.530650
2.744101
2.583985
2.170621
1.674938
1.178721
0.618247
-0.125744
-1.074292
-2.106216
-3.060521
-3.848394
-4.460637
-4.896280
-5.117718
-5.089473
-4.846925
-4.507761
-4.205566
-3.994529
-3.809317
-3.528798
-3.075267
-2.447715
-1.691402
-0.857043
0.027991
0.957619
1.907798
2.804337
3.537004
3.991692
4.072959
3.735938
3.010130
1.992984
0.850189
-0.201973
-0.981316
-1.415212
-1.544650
-1.501019
-1.466824
-1.610656
-2.038022
-2.779799
-3.790848
-4.936214
-5.993483
-6.727005
-6.993243
-6.739005
-5.879029
-4.221564
-1.561264
2.103604
6.371592
10.441013
13.398243
14.640738
14.134144
12.324790
9.857743
7.349500
5.251271
3.773170
2.934864
2.721259
3.159044
4.223282
5.731729
7.393377
8.948867
10.245118
11.209503
11.793220
11.953726
11.702070
11.158840
10.525168
9.970270
9.540207
9.168027
8.767469
8.326611
7.927702
7.687546
7.676087
7.875265
8.186904
8.458661
8.515972
8.199324
7.389616
6.009786
4.016386
1.431381
-1.554538
-4.506020
-6.849005
-8.134662
-8.248735
-7.426787
-6.131902
-4.874771
-3.987981
-3.454237
-2.960251
-2.159019
-0.923687
0.577272
1.988264
2.939959
3.169931
2.584026
1.297950
-0.376292
-2.041601
-3.356349
-4.097879
-4.132595
-3.360333
-1.712114
0.765282
3.788155
6.795452
9.072512
10.011577
9.387086
7.466215
4.865517
2.290920
0.321201
-0.755220
-1.027196
-0.892093
-0.847687
-1.254106
-2.172002
-3.353006
-4.386126
-4.898077
-4.707166
-3.903196
-2.816414
-1.852044
-1.285587
-1.163608
-1.359733
-1.715647
-2.154884
-2.698844
-3.404338
-4.299980
-5.354108
-6.464620
-7.479520
-8.230423
-8.552557
-8.338650
-7.649004
-6.755505
-6.005632
-5.607346
-5.541481
-5.655263
-5.812440
-5.968520
-6.145871
-6.373486
-6.655096
-6.956336
-7.177353
-7.147315
-6.695049
-5.752752
-4.410057
-2.896650
-1.496496
-0.415774
0.314401
0.822088
1.267002
1.692609
1.983330
1.962581
1.521629
0.664046
-0.518126
-1.877032
-3.238119
-4.406202
-5.148827
-5.226203
-4.507412
-3.114012
-1.472691
-0.182029
0.263621
-0.280729
-1.536142
-2.910562
-3.734592
-3.526842
-2.160429
0.153939
3.008786
5.931162
8.445829
10.101996
10.539688
9.638943
7.638133
5.044906
2.372067
-0.070666
-2.171411
-3.853836
-4.959719
-5.320812
-4.930860
-4.027043
-3.030612
-2.383902
-2.324670
-2.752441
-3.350832
-3.862598
-4.240715
-4.576556
-4.948742
-5.352768
-5.737294
-6.065691
-6.323365
-6.482043
-6.485296
-6.280333
-5.871068
-5.338170
-4.777586
-4.195862
-3.478654
-2.489886
-1.222288
0.133977
1.250696
1.791550
1.556661
0.596664
-0.798215
-2.270657
-3.580767
-4.632250
-5.374737
-5.729652
-5.597259
-4.916511
-3.736209
-2.239593
-0.677121
0.759988
2.022765
3.172599
4.288397
5.413637
6.550207
7.657043
8.651089
9.420428
9.856796
9.913219
9.652216
9.218632
8.723108
8.129113
7.265267
5.964727
4.212856
2.193176
0.188457
-1.599818
-3.145946
-4.532470
-5.836435
-7.081389
-8.241722
-9.256478
-10.045284
-10.522711
-10.596703
-10.159527
-9.104093
-7.378197
-5.052273
-2.344165
0.447498
3.046275
5.213215
6.678381
7.139576
6.397832
4.517556
1.863990
-1.021020
-3.613368
-5.541374
-6.627228
-6.880536
-6.451453
-5.538407
-4.313781
-2.926670
-1.535268
-0.287768
0.735723
1.550449
2.240638
2.899159
3.557835
4.143291
4.502333
4.509402
4.180733
3.680585
3.207332
2.863883
2.614234
2.344971
1.959066
1.412216
0.697004
-0.155655
-1.050733
-1.831516
-2.328189
-2.415101
-2.040118
-1.233786
-0.118259
1.109990
2.251072
3.174004
3.827215
4.212586
4.374972
4.404369
4.431221
4.608787
5.069973
5.868055
6.945698
8.151990
9.284672
10.142719
10.587755
10.580946
10.157105
9.364679
8.242244
6.847308
5.272996
3.607431
1.890866
0.136457
-1.610192
-3.233279
-4.563404
-5.452256
-5.857472
-5.857650
-5.580736
-5.119502
-4.508202
-3.765316
-2.953795
-2.200002
-1.652559
-1.423344
-1.561146
-2.061621
-2.890321
-4.007111
-5.370612
-6.887647
-8.346824
-9.448109
-9.943864
-9.765993
-9.041917
-8.021643
-6.974513
-6.082472
-5.363021
-4.684704
-3.891561
-2.949273
-1.994875
-1.259089
-0.940415
-1.133188
-1.837198
-2.987870
-4.444922
-5.968155
-7.248777
-7.980223
-7.908172
-6.884485
-4.958831
-2.419556
0.292695
2.730817
4.556274
5.585128
5.752324
5.052200
3.542640
1.394916
-1.100482
-3.585944
-5.693945
-7.110557
-7.672637
-7.437875
-6.640767
-5.566980
-4.453075
-3.448649
-2.609456
-1.899245
-1.204293
-0.380009
0.670005
1.926826
3.238421
4.335427
4.865906
4.495376
3.089491
0.839469
-1.817085
-4.385045
-6.429778
-7.632050
-7.851846
-7.159739
-5.781233
-4.002906
-2.123336
-0.433920
0.849395
1.682783
2.200768
2.606920
3.060383
3.628183
4.274089
4.875290
5.293868
5.473685
5.486989
5.499752
5.695267
6.220002
7.166852
8.544253
10.222580
11.937741
13.384139
14.333101
14.713655
14.616234
14.203684
13.583472
12.738593
11.571040
10.009588
8.077094
5.883633
3.595559
1.412446
-0.455691
-1.825768
-2.594700
-2.772481
-2.472389
-1.895621
-1.314972
-0.993156
-1.054071
-1.440714
-2.011367
-2.665760
-3.382584
-4.152496
-4.881828
-5.378153
-5.463488
-5.115267
-4.489010
-3.819922
-3.325094
-3.164123
-3.423786
-4.105847
-5.120264
-6.285336
-7.355154
-8.088527
-8.330678
-8.057165
-7.347912
-6.308012
-4.997485
-3.431290
-1.665939
0.092985
1.495710
2.223173
2.200548
1.652157
0.955616
0.428952
0.188017
0.128740
0.028538
-0.315361
-1.007777
-2.034579
-3.259423
-4.452688
-5.357871
-5.764984
-5.571937
-4.816747
-3.664198
-2.360052
-1.173196
-0.336011
-0.002757
-0.241407
-1.042380
-2.315987
-3.877408
-5.440520
-6.638716
-7.090605
-6.528285
-4.951124
-2.684573
-0.265731
1.767166
3.056060
3.509722
3.269013
2.587954
1.723273
0.877639
0.183818
-0.292210
-0.546381
-0.618662
-0.548177
-0.340278
0.008076
0.445972
0.843536
1.054414
1.026233
0.855184
0.732086
0.833707
1.234284
1.863386
2.530778
3.038458
3.316935
3.459307
3.618839
3.882339
4.227276
4.548046
4.698661
4.546464
4.027251
3.164324
2.045539
0.796281
-0.418692
-1.376587
-1.822626
-1.584411
-0.703378
0.549088
1.789803
2.673369
2.992241
2.705488
1.899562
0.722705
-0.650459
-2.023339
-3.194594
-3.999055
-4.347522
-4.248327
-3.796589
-3.117350
-2.285275
-1.292965
-0.110805
1.228157
2.614007
3.914762
5.028305
5.890485
6.455941
6.683725
6.539219
6.010177
5.137818
4.046872
2.926435
1.942410
1.150712
0.500465
-0.082422
-0.631290
-1.154891
-1.682016
-2.251935
-2.857685
-3.425505
-3.864955
-4.137906
-4.286350
-4.398928
-4.541969
-4.706013
-4.791884
-4.647452
-4.167651
-3.399126
-2.544383
-1.854247
-1.509850
-1.573245
-1.984554
-2.571253
-3.101040
-3.383543
-3.337857
-2.975891
-2.355699
-1.560957
-0.703144
0.074543
0.610114
0.765485
0.491693
-0.115142
-0.819776
-1.339573
-1.461839
-1.098112
-0.259939
0.981410
2.499929
4.109482
5.595077
6.760186
7.432752
7.436000
6.601928
4.873920
2.421741
-0.366278
-3.031018
-5.204989
-6.691081
-7.464629
-7.629402
-7.346822
-6.775717
-6.056878
-5.328665
-4.727002
-4.357125
-4.269168
-4.458180
-4.881153
-5.473818
-6.153022
-6.813471
-7.338036
-7.620746
-7.592036
-7.232055
-6.553638
-5.572037
-4.307122
-2.821265
-1.246675
0.232091
1.427933
2.199132
2.477766
2.278265
1.691622
0.870391
-0.002382
-0.759904
-1.281398
-1.485884
-1.318178
-0.749311
0.215966
1.528132
3.082177
4.729592
6.324206
7.767144
9.001512
9.965439
10.570722
10.739483
10.456350
9.790510
8.877931
7.865071
6.846861
5.860929
4.936900
4.127211
3.479835
2.978418
2.499781
1.848331
0.886272
-0.326476
-1.507989
-2.275744
-2.337482
-1.646402
-0.432235
0.905222
1.954468
2.412720
2.137154
1.138950
-0.438465
-2.342387
-4.261911
-5.895723
-6.999387
-7.428460
-7.198598
-6.506398
-5.647492
-4.875050
-4.308701
-3.943171
-3.706873
-3.495226
-3.170943
-2.589551
-1.670102
-0.448911
0.939529
2.331704
3.590220
4.612872
5.320551
5.664182
5.646585
5.323057
4.780102
4.124407
3.480236
2.965676
2.656438
2.572529
2.686974
2.936830
3.243483
3.548752
3.841762
4.151941
4.517065
4.954771
5.451878
5.959311
6.385835
6.614594
6.554223
6.189371
5.589337
4.868421
4.126322
3.414035
2.746565
2.130510
1.565676
1.030299
0.488894
-0.069218
-0.594042
-0.982770
-1.141945
-1.061719
-0.835782
-0.606214
-0.481983
-0.495241
-0.617145
-0.802389
-1.018589
-1.251547
-1.495363
-1.720876
-1.843018
-1.749201
-1.393190
-0.859917
-0.328145
0.029158
0.123408
-0.025325
-0.307111
-0.570088
-0.678785
-0.551463
-0.162102
0.472650
1.295259
2.197510
3.024839
3.617958
3.874772
3.782220
3.398054
2.813235
2.125021
1.420019
0.755894
0.151851
-0.387788
-0.830931
-1.111045
-1.175946
-1.044916
-0.823266
-0.668143
-0.725250
-1.058344
-1.606012
-2.208942
-2.697990
-2.962361
-2.946645
-2.616654
-1.951759
-0.971026
0.232920
1.480397
2.533802
3.174932
3.302719
2.994120
2.480931
2.054010
1.955109
2.300331
3.040964
3.969663
4.795493
5.275632
5.326201
5.033167
4.569317
4.098046
3.718266
3.444063
3.215717
2.948351
2.593713
2.176441
1.781884
1.500101
1.370097
1.371521
1.451503
1.545570
1.593505
1.562966
1.461382
1.323927
1.194188
1.112580
1.113480
1.217197
1.407191
1.620218
1.778998
1.842170
1.821257
1.752115
1.656837
1.534546
1.375703
1.174152
0.932636
0.665133
0.395915
0.161904
0.014266
0.001375
0.134004
0.363498
0.602729
0.780431
0.888322
0.994501
1.218302
1.667215
2.363464
3.212958
4.035901
4.632286
4.848264
4.615546
3.953746
2.953442
1.753916
0.511312
-0.637808
-1.602427
-2.347964
-2.894995
-3.305447
-3.654844
-4.002413
-4.381118
-4.799421
-5.227267
-5.586913
-5.779857
-5.719643
-5.345256
-4.645203
-3.698306
-2.679366
-1.792879
-1.173139
-0.835463
-0.715367
-0.741034
-0.870107
-1.087883
-1.398190
-1.814510
-2.346116
-2.984139
-3.692979
-4.409843
-5.060450
-5.590147
-5.986108
-6.265371
-6.435297
-6.462540
-6.275984
-5.795219
-4.968144
-3.799836
-2.348785
-0.703706
1.020657
2.676509
4.094994
5.116423
5.628845
5.601286
5.091442
4.238704
3.263730
2.450061
2.068488
2.260503
2.958631
3.904166
4.736515
5.101620
4.773034
3.756717
2.296042
0.765554
-0.453227
-1.055130
-0.880248
0.018234
1.367277
2.781386
3.928752
4.642530
4.926395
4.882328
4.617699
4.185817
3.583451
2.792135
1.842297
0.867487
0.093846
-0.248850
-0.031642
0.722790
1.859126
3.152173
4.377192
5.367041
6.046208
6.427575
6.574846
6.564150
6.470334
6.367370
6.321678
6.374629
