EVENT_NAME: EMILIA_2ND_SHOCK
EVENT_ID: IT-2012-0011
EVENT_DATE_YYYYMMDD: 20120529
EVENT_TIME_HHMMSS: 070002
EVENT_LATITUDE_DEGREE: 44.8417
EVENT_LONGITUDE_DEGREE: 11.0657
EVENT_DEPTH_KM: 8.1
HYPOCENTER_REFERENCE: INGV-CNT_Seismic_Bulletin
MAGNITUDE_W: 6.0
MAGNITUDE_W_REFERENCE: RCMT-INGV
MAGNITUDE_L: 5.8
MAGNITUDE_L_REFERENCE: INGV-CNT_Seismic_Bulletin
FOCAL_MECHANISM: TF
NETWORK: IV
STATION_CODE: SERM
STATION_NAME: SERMIDE
STATION_LATITUDE_DEGREE: 45.010000
STATION_LONGITUDE_DEGREE: 11.295800
STATION_ELEVATION_M: 7
LOCATION: 
SENSOR_DEPTH_M: 1.0
VS30_M/S: 
SITE_CLASSIFICATION_EC8: C*
MORPHOLOGIC_CLASSIFICATION: 
EPICENTRAL_DISTANCE_KM: 26.1
EARTHQUAKE_BACKAZIMUTH_DEGREE: 224.2
DATE_TIME_FIRST_SAMPLE_YYYYMMDD_HHMMSS: 20120529_065954.000
DATE_TIME_FIRST_SAMPLE_PRECISION: milliseconds
SAMPLING_INTERVAL_S: 0.005000
NDATA: 20001
DURATION_S: 100.005
STREAM: HNZ
UNITS: cm
INSTRUMENT: sensor = Episensor FBA ES-T [Kinemetrics] | digitizer = Unknown [Unknown]
INSTRUMENT_ANALOG/DIGITAL: D
INSTRUMENTAL_FREQUENCY_HZ: 
INSTRUMENTAL_DAMPING: 
FULL_SCALE_G: 
N_BIT_DIGITAL_CONVERTER: 
PGD_CM: -0.160169
TIME_PGD_S: 35.385000
BASELINE_CORRECTION: BASELINE REMOVED
FILTER_TYPE: BUTTERWORTH
FILTER_ORDER: 2
LOW_CUT_FREQUENCY_HZ: 0.100
HIGH_CUT_FREQUENCY_HZ: 40.000
LATE/NORMAL_TRIGGERED: NT
DATABASE_VERSION: DYNA 1.0
HEADER_FORMAT: DYNA 1.2
DATA_TYPE: DISPLACEMENT
PROCESSING: manual (Paolucci et al., 2011)
DATA_TIMESTAMP_YYYYMMDD_HHMMSS: 
DATA_LICENSE: CC-BY4_0 (http://creativecommons.org/licenses/by/4.0/)
DATA_CITATION: ESM working group (2015), European Strong-Motion database, version 0.1, Network Activity 3: Networking acceleration networks and SM data users. Project NERA (www.nera-eu.org)
DATA_CREATOR: ESM working group
ORIGINAL_DATA_MEDIATOR_CITATION: Orfeus - European Integrated Data Archive (EIDA) http://www.orfeus-eu.org/eida/
ORIGINAL_DATA_MEDIATOR: Orfeus - European Integrated Data Archive (EIDA)
ORIGINAL_DATA_CREATOR_CITATION: Data for this study comes from the Italian national seismic network operated by Istituto Nazionale di Geofisica e Vulcanologia and archived at the European Integrated Data Archive http://eida.rm.ingv.it/
ORIGINAL_DATA_CREATOR: network: IV (Italian National Seismic Network); owner: Istituto Nazionale di Geofisica e Vulcanologia
USER1: 
USER2: 
USER3: 
USER4: 
USER5: 
[...]
-3.379693e-02
-3.434466e-02
-3.488422e-02
-3.541532e-02
-3.594038e-02
-3.646368e-02
-3.698874e-02
-3.751535e-02
-3.803894e-02
-3.855326e-02
-3.905349e-02
-3.953679e-02
-4.000024e-02
-4.043910e-02
-4.084631e-02
-4.121322e-02
-4.153068e-02
-4.179047e-02
-4.198678e-02
-4.211731e-02
-4.218307e-02
-4.218681e-02
-4.213106e-02
-4.201790e-02
-4.185070e-02
-4.163568e-02
-4.138140e-02
-4.109551e-02
-4.078019e-02
-4.042886e-02
-4.002763e-02
-3.956186e-02
-3.902416e-02
-3.841852e-02
-3.775905e-02
-3.706550e-02
-3.635877e-02
-3.565841e-02
-3.498229e-02
-3.434764e-02
-3.377064e-02
-3.326276e-02
-3.282536e-02
-3.244729e-02
-3.210882e-02
-3.179048e-02
-3.148174e-02
-3.118497e-02
-3.091246e-02
-3.067812e-02
-3.048864e-02
-3.033976e-02
-3.021972e-02
-3.011731e-02
-3.002861e-02
-2.995795e-02
-2.991318e-02
-2.989921e-02
-2.991465e-02
-2.995363e-02
-3.001098e-02
-3.008649e-02
-3.018447e-02
-3.030905e-02
-3.045954e-02
-3.062941e-02
-3.080987e-02
-3.099517e-02
-3.118579e-02
-3.138707e-02
-3.160447e-02
-3.183951e-02
-3.208925e-02
-3.234862e-02
-3.261317e-02
-3.288008e-02
-3.314746e-02
-3.341377e-02
-3.367827e-02
-3.394139e-02
-3.420387e-02
-3.446475e-02
-3.472006e-02
-3.496340e-02
-3.518738e-02
-3.538442e-02
-3.554633e-02
-3.566373e-02
-3.572640e-02
-3.572558e-02
-3.565737e-02
-3.552543e-02
-3.534112e-02
-3.512041e-02
-3.487836e-02
-3.462294e-02
-3.435136e-02
-3.405121e-02
-3.370635e-02
-3.330419e-02
-3.284053e-02
-3.231998e-02
-3.175284e-02
-3.115110e-02
-3.052612e-02
-2.988822e-02
-2.924593e-02
-2.860341e-02
-2.795691e-02
-2.729378e-02
-2.659649e-02
-2.585032e-02
-2.505061e-02
-2.420480e-02
-2.332823e-02
-2.243638e-02
-2.153839e-02
-2.063573e-02
-1.972647e-02
-1.881155e-02
-1.789756e-02
-1.699398e-02
-1.610752e-02
-1.523844e-02
-1.438131e-02
-1.352938e-02
-1.267923e-02
-1.183261e-02
-1.099485e-02
-1.017133e-02
-9.364273e-03
-8.571737e-03
-7.788580e-03
-7.008704e-03
-6.227459e-03
-5.443379e-03
-4.658510e-03
-3.877186e-03
-3.104179e-03
-2.343439e-03
-1.598017e-03
-8.708484e-04
-1.653428e-04
5.152145e-04
1.169112e-03
1.796967e-03
2.400704e-03
2.981474e-03
3.538322e-03
4.068585e-03
4.569409e-03
5.038876e-03
5.476194e-03
5.882016e-03
6.259521e-03
6.614676e-03
6.953987e-03
7.281178e-03
7.595908e-03
7.895452e-03
8.177747e-03
8.444318e-03
8.702069e-03
8.962384e-03
9.236770e-03
9.531090e-03
9.842006e-03
1.015773e-02
1.046236e-02
1.074138e-02
1.098564e-02
1.119190e-02
1.136014e-02
1.148985e-02
1.157881e-02
1.162493e-02
1.162910e-02
1.159578e-02
1.153084e-02
1.143871e-02
1.132130e-02
1.117960e-02
1.101627e-02
1.083679e-02
1.064754e-02
1.045254e-02
1.025192e-02
1.004379e-02
9.827833e-03
9.607772e-03
9.391571e-03
9.189695e-03
9.011923e-03
8.863357e-03
8.741945e-03
8.639853e-03
8.547999e-03
8.460282e-03
8.374878e-03
8.292991e-03
8.217136e-03
8.150273e-03
8.095521e-03
8.055518e-03
8.031182e-03
8.020794e-03
8.020514e-03
8.026218e-03
8.035406e-03
8.048050e-03
8.066206e-03
8.092908e-03
8.131027e-03
8.182279e-03
8.246467e-03
8.321912e-03
8.407681e-03
8.506031e-03
8.622441e-03
8.762922e-03
8.931166e-03
9.127893e-03
9.352012e-03
9.601664e-03
9.874282e-03
1.016667e-02
1.047602e-02
1.080123e-02
1.114269e-02
1.150049e-02
1.187256e-02
1.225447e-02
1.264051e-02
1.302518e-02
1.340402e-02
1.377397e-02
1.413354e-02
1.448326e-02
1.482549e-02
1.516346e-02
1.549992e-02
1.583611e-02
1.617161e-02
1.650478e-02
1.683305e-02
1.715264e-02
1.745869e-02
1.774649e-02
1.801242e-02
1.825377e-02
1.846799e-02
1.865353e-02
1.881253e-02
1.895343e-02
1.909095e-02
1.924342e-02
1.942899e-02
1.966211e-02
1.995103e-02
2.029666e-02
2.069386e-02
2.113465e-02
2.161167e-02
2.212011e-02
2.265783e-02
2.322433e-02
2.381923e-02
2.444065e-02
2.508352e-02
2.573860e-02
2.639205e-02
2.702656e-02
2.762478e-02
2.817481e-02
2.867468e-02
2.913220e-02
2.955963e-02
2.996631e-02
3.035380e-02
3.071635e-02
3.104631e-02
3.134121e-02
3.160765e-02
3.185959e-02
3.211225e-02
3.237606e-02
3.265411e-02
3.294453e-02
3.324526e-02
3.355694e-02
3.388163e-02
3.421910e-02
3.456460e-02
3.490986e-02
3.524678e-02
3.557102e-02
3.588287e-02
3.618480e-02
3.647764e-02
3.675788e-02
3.701732e-02
3.724584e-02
3.743615e-02
3.758787e-02
3.770749e-02
3.780380e-02
3.788207e-02
3.794121e-02
3.797525e-02
3.797700e-02
3.794149e-02
3.786808e-02
3.776121e-02
3.762979e-02
3.748519e-02
3.733855e-02
3.719819e-02
3.706811e-02
3.694832e-02
3.683710e-02
3.673357e-02
3.663843e-02
3.655248e-02
3.647459e-02
3.640108e-02
3.632736e-02
3.625058e-02
3.617109e-02
3.609162e-02
3.601552e-02
3.594600e-02
3.588649e-02
3.584057e-02
3.581076e-02
3.579733e-02
3.579851e-02
3.581190e-02
3.583604e-02
3.587152e-02
3.592177e-02
3.599285e-02
3.609199e-02
3.622515e-02
3.639542e-02
3.660341e-02
3.684866e-02
3.713092e-02
3.745085e-02
3.781069e-02
3.821464e-02
3.866746e-02
3.917112e-02
3.972215e-02
4.031231e-02
4.093268e-02
4.157749e-02
4.224472e-02
4.293383e-02
4.364316e-02
4.436893e-02
4.510557e-02
4.584662e-02
4.658641e-02
4.732154e-02
4.805068e-02
4.877264e-02
4.948549e-02
5.018829e-02
5.088356e-02
5.157728e-02
5.227581e-02
5.298187e-02
5.369149e-02
5.439346e-02
5.507183e-02
5.571096e-02
5.630124e-02
5.684244e-02
5.734308e-02
5.781593e-02
5.827155e-02
5.871335e-02
5.913711e-02
5.953456e-02
5.989829e-02
6.022531e-02
6.051849e-02
6.078559e-02
6.103581e-02
6.127522e-02
6.150393e-02
6.171703e-02
6.190861e-02
6.207634e-02
6.222384e-02
6.235937e-02
6.249177e-02
6.262584e-02
6.275998e-02
6.288801e-02
6.300431e-02
6.310883e-02
6.320816e-02
6.331205e-02
6.342818e-02
6.355811e-02
6.369633e-02
6.383265e-02
6.395665e-02
6.406181e-02
6.414769e-02
6.421990e-02
6.428811e-02
6.436316e-02
6.445410e-02
6.456632e-02
6.470088e-02
6.485429e-02
6.501852e-02
6.518155e-02
6.532884e-02
6.544603e-02
6.552273e-02
6.555655e-02
6.555494e-02
6.553278e-02
6.550688e-02
6.549111e-02
6.549458e-02
6.552254e-02
6.557774e-02
6.566119e-02
6.577205e-02
6.590704e-02
6.605983e-02
6.622171e-02
6.638395e-02
6.654129e-02
6.669448e-02
6.685022e-02
6.701800e-02
6.720592e-02
6.741835e-02
6.765674e-02
6.792157e-02
6.821210e-02
6.852425e-02
6.884914e-02
6.917404e-02
6.948547e-02
6.977291e-02
7.003183e-02
7.026420e-02
7.047662e-02
7.067751e-02
7.087493e-02
7.107476e-02
7.127823e-02
7.147919e-02
7.166333e-02
7.181144e-02
7.190560e-02
7.193521e-02
7.189956e-02
7.180644e-02
7.166821e-02
7.149768e-02
7.130508e-02
7.109652e-02
7.087407e-02
7.063716e-02
7.038399e-02
7.011238e-02
6.982030e-02
6.950681e-02
6.917299e-02
6.882209e-02
6.845874e-02
6.808775e-02
6.771315e-02
6.733799e-02
6.696549e-02
6.660019e-02
6.624758e-02
6.591194e-02
6.559455e-02
6.529435e-02
6.501097e-02
6.474753e-02
6.451081e-02
6.430850e-02
6.414540e-02
6.402115e-02
6.393034e-02
6.386464e-02
6.381541e-02
6.377602e-02
6.374297e-02
6.371522e-02
6.369190e-02
6.367046e-02
6.364690e-02
6.361781e-02
6.358244e-02
6.354389e-02
6.350861e-02
6.348462e-02
6.347899e-02
6.349597e-02
6.353582e-02
6.359510e-02
6.366827e-02
6.375001e-02
6.383696e-02
6.392814e-02
6.402446e-02
6.412789e-02
6.424061e-02
6.436458e-02
6.450175e-02
6.465425e-02
6.482408e-02
6.501241e-02
6.521910e-02
6.544284e-02
6.568147e-02
6.593255e-02
6.619428e-02
6.646682e-02
6.675260e-02
6.705440e-02
6.737307e-02
6.770746e-02
6.805697e-02
6.842355e-02
6.881055e-02
6.921885e-02
6.964319e-02
7.007157e-02
7.048859e-02
7.088087e-02
7.124163e-02
7.157181e-02
7.187743e-02
7.216487e-02
7.243697e-02
7.269202e-02
7.292570e-02
7.313384e-02
7.331390e-02
7.346465e-02
7.358525e-02
7.367488e-02
7.373321e-02
7.376079e-02
7.375879e-02
7.372800e-02
7.366793e-02
7.357648e-02
7.345076e-02
7.328878e-02
7.309047e-02
7.285701e-02
7.258860e-02
7.228250e-02
7.193360e-02
7.153771e-02
7.109515e-02
7.061227e-02
7.010016e-02
6.957155e-02
6.903694e-02
6.850173e-02
6.796566e-02
6.742468e-02
6.687409e-02
6.631155e-02
6.573892e-02
6.516222e-02
6.459010e-02
6.403158e-02
6.349481e-02
6.298752e-02
6.251809e-02
6.209510e-02
6.172482e-02
6.140858e-02
6.114226e-02
6.091917e-02
6.073465e-02
6.058943e-02
6.048903e-02
6.043973e-02
6.044416e-02
6.049942e-02
6.059851e-02
6.073376e-02
6.089978e-02
6.109424e-02
6.131610e-02
6.156279e-02
6.182861e-02
6.210504e-02
6.238296e-02
6.265487e-02
6.291619e-02
6.316520e-02
6.340202e-02
6.362714e-02
6.384035e-02
6.404034e-02
6.422524e-02
6.439365e-02
6.454579e-02
6.468420e-02
6.481312e-02
6.493672e-02
6.505710e-02
6.517360e-02
6.528343e-02
6.538291e-02
6.546785e-02
6.553372e-02
6.557609e-02
6.559169e-02
6.557976e-02
6.554291e-02
6.548688e-02
6.541843e-02
6.534200e-02
6.525723e-02
6.515922e-02
6.504162e-02
6.490019e-02
6.473446e-02
6.454683e-02
6.434019e-02
6.411597e-02
6.387364e-02
6.361153e-02
6.332795e-02
6.302208e-02
6.269418e-02
6.234520e-02
6.197648e-02
6.158997e-02
6.118892e-02
6.077801e-02
6.036245e-02
5.994653e-02
5.953349e-02
5.912693e-02
5.873203e-02
5.835414e-02
5.799500e-02
5.764954e-02
5.730609e-02
5.695060e-02
5.657210e-02
5.616614e-02
5.573422e-02
5.527982e-02
5.480411e-02
5.430396e-02
5.377329e-02
5.320657e-02
5.260246e-02
5.196539e-02
5.130399e-02
5.062769e-02
4.994364e-02
4.925544e-02
4.856339e-02
4.786585e-02
4.716116e-02
4.644974e-02
4.573485e-02
4.502136e-02
4.431334e-02
4.361266e-02
4.291944e-02
4.223355e-02
4.155552e-02
4.088601e-02
4.022435e-02
3.956700e-02
3.890700e-02
3.823492e-02
3.754122e-02
3.681920e-02
3.606705e-02
3.528789e-02
3.448754e-02
3.367130e-02
3.284176e-02
3.199876e-02
3.114106e-02
3.026856e-02
2.938369e-02
2.849064e-02
2.759254e-02
2.668865e-02
2.577489e-02
2.484829e-02
2.391225e-02
2.297786e-02
2.206017e-02
2.117199e-02
2.031878e-02
1.949680e-02
1.869471e-02
1.789833e-02
1.709640e-02
1.628470e-02
1.546622e-02
1.464760e-02
1.383433e-02
1.302721e-02
1.222185e-02
1.141072e-02
1.058580e-02
9.740575e-03
8.871220e-03
7.977031e-03
7.059540e-03
6.120791e-03
5.162378e-03
4.185973e-03
3.194001e-03
2.188962e-03
1.171757e-03
1.407547e-04
-9.074290e-04
-1.975938e-03
-3.065744e-03
-4.174898e-03
-5.299485e-03
-6.435712e-03
-7.581457e-03
-8.736070e-03
-9.899006e-03
-1.106897e-02
-1.224448e-02
-1.342508e-02
-1.461155e-02
-1.580459e-02
-1.700286e-02
-1.820212e-02
-1.939585e-02
-2.057686e-02
-2.173887e-02
-2.287750e-02
-2.398998e-02
-2.507387e-02
-2.612641e-02
-2.714534e-02
-2.812997e-02
-2.908083e-02
-2.999848e-02
-3.088336e-02
-3.173675e-02
-3.256180e-02
-3.336349e-02
-3.414779e-02
-3.492015e-02
-3.568437e-02
-3.644255e-02
-3.719628e-02
-3.794800e-02
-3.870167e-02
-3.946237e-02
-4.023576e-02
-4.102771e-02
-4.184387e-02
-4.268858e-02
-4.356387e-02
-4.446898e-02
-4.540100e-02
-4.635618e-02
-4.733126e-02
-4.832441e-02
-4.933499e-02
-5.036271e-02
-5.140697e-02
-5.246687e-02
-5.354145e-02
-5.462947e-02
-5.572890e-02
-5.683631e-02
-5.794664e-02
-5.905329e-02
-6.014837e-02
-6.122352e-02
-6.227146e-02
-6.328773e-02
-6.427162e-02
-6.522585e-02
-6.615592e-02
-6.706942e-02
-6.797478e-02
-6.887916e-02
-6.978669e-02
-7.069886e-02
-7.161670e-02
-7.254323e-02
-7.348394e-02
-7.444514e-02
-7.543115e-02
-7.644252e-02
-7.747660e-02
-7.852978e-02
-7.959982e-02
-8.068686e-02
-8.179288e-02
-8.291979e-02
-8.406674e-02
-8.522820e-02
-8.639433e-02
-8.755368e-02
-8.869667e-02
-8.981774e-02
-9.091591e-02
-9.199388e-02
-9.305650e-02
-9.410828e-02
-9.515102e-02
-9.618282e-02
-9.719959e-02
-9.819821e-02
-9.917955e-02
-1.001497e-01
-1.011191e-01
-1.020997e-01
-1.031020e-01
-1.041328e-01
-1.051932e-01
-1.062791e-01
-1.073823e-01
-1.084940e-01
-1.096087e-01
-1.107248e-01
-1.118447e-01
-1.129718e-01
-1.141080e-01
-1.152515e-01
-1.163954e-01
-1.175298e-01
-1.186451e-01
-1.197361e-01
-1.208027e-01
-1.218482e-01
-1.228764e-01
-1.238893e-01
-1.248863e-01
-1.258664e-01
-1.268295e-01
-1.277779e-01
-1.287156e-01
-1.296455e-01
-1.305680e-01
-1.314812e-01
-1.323823e-01
-1.332694e-01
-1.341422e-01
-1.350024e-01
-1.358516e-01
-1.366900e-01
-1.375159e-01
-1.383257e-01
-1.391161e-01
-1.398852e-01
-1.406327e-01
-1.413596e-01
-1.420681e-01
-1.427610e-01
-1.434408e-01
-1.441099e-01
-1.447692e-01
-1.454188e-01
-1.460575e-01
-1.466835e-01
-1.472949e-01
-1.478903e-01
-1.484683e-01
-1.490274e-01
-1.495659e-01
-1.500829e-01
-1.505796e-01
-1.510595e-01
-1.515262e-01
-1.519819e-01
-1.524266e-01
-1.528587e-01
-1.532758e-01
-1.536753e-01
-1.540556e-01
-1.544172e-01
-1.547624e-01
-1.550939e-01
-1.554143e-01
-1.557252e-01
-1.560271e-01
-1.563187e-01
-1.565970e-01
-1.568596e-01
-1.571062e-01
-1.573396e-01
-1.575644e-01
-1.577856e-01
-1.580059e-01
-1.582245e-01
-1.584380e-01
-1.586413e-01
-1.588312e-01
-1.590082e-01
-1.591760e-01
-1.593389e-01
-1.594991e-01
-1.596550e-01
-1.598014e-01
-1.599306e-01
-1.600347e-01
-1.601087e-01
-1.601519e-01
-1.601685e-01
-1.601639e-01
-1.601413e-01
-1.601004e-01
-1.600384e-01
-1.599521e-01
-1.598403e-01
-1.597050e-01
-1.595512e-01
-1.593869e-01
-1.592213e-01
-1.590628e-01
-1.589167e-01
-1.587839e-01
-1.586607e-01
-1.585401e-01
-1.584150e-01
-1.582812e-01
-1.581393e-01
-1.579938e-01
-1.578507e-01
-1.577147e-01
-1.575877e-01
-1.574698e-01
-1.573596e-01
-1.572546e-01
-1.571512e-01
-1.570436e-01
-1.569244e-01
-1.567854e-01
-1.566194e-01
-1.564224e-01
-1.561947e-01
-1.559409e-01
-1.556692e-01
-1.553890e-01
-1.551084e-01
-1.548314e-01
-1.545573e-01
-1.542817e-01
-1.539982e-01
-1.537012e-01
-1.533877e-01
-1.530581e-01
-1.527162e-01
-1.523669e-01
-1.520145e-01
-1.516613e-01
-1.513076e-01
-1.509523e-01
-1.505938e-01
-1.502289e-01
-1.498530e-01
-1.494608e-01
-1.490482e-01
-1.486137e-01
-1.481592e-01
-1.476890e-01
-1.472078e-01
-1.467186e-01
-1.462215e-01
-1.457138e-01
-1.451925e-01
-1.446553e-01
-1.441018e-01
-1.435324e-01
-1.429467e-01
-1.423414e-01
-1.417099e-01
-1.410439e-01
-1.403368e-01
-1.395863e-01
-1.387952e-01
-1.379691e-01
-1.371144e-01
-1.362378e-01
-1.353468e-01
-1.344493e-01
-1.335524e-01
-1.326595e-01
-1.317697e-01
-1.308792e-01
-1.299850e-01
-1.290872e-01
-1.281884e-01
-1.272913e-01
-1.263951e-01
-1.254952e-01
-1.245852e-01
-1.236609e-01
-1.227223e-01
-1.217724e-01
-1.208139e-01
-1.198471e-01
-1.188679e-01
-1.178699e-01
-1.168463e-01
-1.157930e-01
-1.147099e-01
-1.136008e-01
-1.124726e-01
-1.113338e-01
-1.101914e-01
-1.090496e-01
-1.079076e-01
-1.067618e-01
-1.056075e-01
-1.044415e-01
-1.032626e-01
-1.020715e-01
-1.008696e-01
-9.965773e-02
-9.843487e-02
-9.719845e-02
-9.594584e-02
-9.467640e-02
-9.339242e-02
-9.209819e-02
-9.079811e-02
-8.949511e-02
-8.819000e-02
-8.688177e-02
-8.556826e-02
-8.424735e-02
-8.291862e-02
-8.158468e-02
-8.025100e-02
-7.892386e-02
-7.760716e-02
-7.630021e-02
-7.499769e-02
-7.369181e-02
-7.237597e-02
-7.104818e-02
-6.971222e-02
-6.837556e-02
-6.704545e-02
-6.572568e-02
-6.441595e-02
-6.311375e-02
-6.181728e-02
-6.052759e-02
-5.924877e-02
-5.798594e-02
-5.674239e-02
-5.551716e-02
-5.430430e-02
-5.309411e-02
-5.187574e-02
-5.064008e-02
-4.938127e-02
-4.809648e-02
-4.678473e-02
-4.544584e-02
-4.408022e-02
-4.268927e-02
-4.127551e-02
-3.984197e-02
-3.839083e-02
-3.692217e-02
-3.543376e-02
-3.392231e-02
-3.238525e-02
-3.082181e-02
-2.923290e-02
-2.762027e-02
-2.598552e-02
-2.432941e-02
-2.265232e-02
-2.095535e-02
-1.924119e-02
-1.751405e-02
-1.577876e-02
-1.403988e-02
-1.230107e-02
-1.056507e-02
-8.834071e-03
-7.110437e-03
-5.397816e-03
-3.701939e-03
-2.030475e-03
-3.915637e-04
1.208542e-03
2.767451e-03
4.286927e-03
5.771263e-03
7.224812e-03
8.650089e-03
1.004724e-02
1.141493e-02
1.275204e-02
1.405948e-02
1.534099e-02
1.660262e-02
1.785097e-02
1.909153e-02
2.032771e-02
2.156077e-02
2.278992e-02
2.401255e-02
2.522474e-02
2.642201e-02
2.759991e-02
2.875443e-02
2.988293e-02
3.098533e-02
3.206457e-02
3.312544e-02
3.417202e-02
3.520508e-02
3.622089e-02
3.721194e-02
3.816930e-02
3.908577e-02
3.995898e-02
4.079299e-02
4.159761e-02
4.238568e-02
4.316998e-02
4.396110e-02
4.476604e-02
4.558701e-02
4.642094e-02
4.726090e-02
4.809984e-02
4.893455e-02
4.976776e-02
5.060715e-02
5.146184e-02
5.233801e-02
5.323591e-02
5.414961e-02
5.506953e-02
5.598653e-02
5.689583e-02
5.779862e-02
5.870050e-02
5.960816e-02
6.052664e-02
6.145846e-02
6.240396e-02
6.336167e-02
6.432868e-02
6.530145e-02
6.627696e-02
6.725359e-02
6.823175e-02
6.921392e-02
7.020385e-02
7.120486e-02
7.221787e-02
7.324041e-02
7.426713e-02
7.529150e-02
7.630744e-02
7.731015e-02
7.829646e-02
7.926504e-02
8.021668e-02
8.115458e-02
8.208405e-02
8.301153e-02
8.394248e-02
8.487934e-02
8.582123e-02
8.676552e-02
8.771009e-02
8.865490e-02
8.960198e-02
9.055407e-02
9.151277e-02
9.247753e-02
9.344601e-02
9.441499e-02
9.538070e-02
9.633866e-02
9.728423e-02
9.821365e-02
9.912483e-02
1.000170e-01
1.008899e-01
1.017433e-01
1.025774e-01
1.033928e-01
1.041904e-01
1.049701e-01
1.057307e-01
1.064696e-01
1.071848e-01
1.078747e-01
1.085385e-01
1.091749e-01
1.097824e-01
1.103589e-01
1.109022e-01
1.114108e-01
1.118851e-01
1.123271e-01
1.127388e-01
1.131212e-01
1.134729e-01
1.137912e-01
1.140739e-01
1.143208e-01
1.145345e-01
1.147196e-01
1.148804e-01
1.150188e-01
1.151324e-01
1.152158e-01
1.152640e-01
1.152763e-01
1.152574e-01
1.152139e-01
1.151507e-01
1.150680e-01
1.149627e-01
1.148306e-01
1.146689e-01
1.144766e-01
1.142534e-01
1.139997e-01
1.137161e-01
1.134042e-01
1.130678e-01
1.127131e-01
1.123476e-01
1.119781e-01
1.116096e-01
1.112447e-01
1.108845e-01
1.105286e-01
1.101749e-01
1.098210e-01
1.094644e-01
1.091036e-01
1.087379e-01
1.083678e-01
1.079961e-01
1.076273e-01
1.072669e-01
1.069197e-01
1.065899e-01
1.062794e-01
1.059880e-01
1.057132e-01
1.054509e-01
1.051969e-01
1.049471e-01
1.046988e-01
1.044506e-01
1.042032e-01
1.039587e-01
1.037204e-01
1.034913e-01
1.032724e-01
1.030622e-01
1.028579e-01
1.026569e-01
1.024587e-01
1.022646e-01
1.020756e-01
1.018912e-01
1.017078e-01
1.015202e-01
1.013231e-01
1.011136e-01
1.008923e-01
1.006623e-01
1.004268e-01
1.001862e-01
9.993867e-02
9.968099e-02
9.941173e-02
9.913215e-02
9.884575e-02
9.855717e-02
9.827141e-02
9.799344e-02
9.772737e-02
9.747502e-02
9.723519e-02
9.700425e-02
9.677800e-02
9.655358e-02
9.633038e-02
9.610971e-02
9.589332e-02
9.568151e-02
9.547188e-02
9.525950e-02
9.503842e-02
9.480339e-02
9.455064e-02
9.427752e-02
