EVENT_NAME: EMILIA_2ND_SHOCK
EVENT_ID: IT-2012-0011
EVENT_DATE_YYYYMMDD: 20120529
EVENT_TIME_HHMMSS: 070002
EVENT_LATITUDE_DEGREE: 44.8417
EVENT_LONGITUDE_DEGREE: 11.0657
EVENT_DEPTH_KM: 8.1
HYPOCENTER_REFERENCE: INGV-CNT_Seismic_Bulletin
MAGNITUDE_W: 6.0
MAGNITUDE_W_REFERENCE: RCMT-INGV
MAGNITUDE_L: 5.8
MAGNITUDE_L_REFERENCE: INGV-CNT_Seismic_Bulletin
FOCAL_MECHANISM: TF
NETWORK: IV
STATION_CODE: SERM
STATION_NAME: SERMIDE
STATION_LATITUDE_DEGREE: 45.010000
STATION_LONGITUDE_DEGREE: 11.295800
STATION_ELEVATION_M: 7
LOCATION: 
SENSOR_DEPTH_M: 1.0
VS30_M/S: 
SITE_CLASSIFICATION_EC8: C*
MORPHOLOGIC_CLASSIFICATION: 
EPICENTRAL_DISTANCE_KM: 26.1
EARTHQUAKE_BACKAZIMUTH_DEGREE: 224.2
DATE_TIME_FIRST_SAMPLE_YYYYMMDD_HHMMSS: 20120529_065954.000
DATE_TIME_FIRST_SAMPLE_PRECISION: milliseconds
SAMPLING_INTERVAL_S: 0.005000
NDATA: 20001
DURATION_S: 100.005
STREAM: HNZ
UNITS: cm/s
INSTRUMENT: sensor = Episensor FBA ES-T [Kinemetrics] | digitizer = Unknown [Unknown]
INSTRUMENT_ANALOG/DIGITAL: D
INSTRUMENTAL_FREQUENCY_HZ: 
INSTRUMENTAL_DAMPING: 
FULL_SCALE_G: 
N_BIT_DIGITAL_CONVERTER: 
PGV_CM/S: 0.347777
TIME_PGV_S: 36.250000
BASELINE_CORRECTION: BASELINE REMOVED
FILTER_TYPE: BUTTERWORTH
FILTER_ORDER: 2
LOW_CUT_FREQUENCY_HZ: 0.100
HIGH_CUT_FREQUENCY_HZ: 40.000
LATE/NORMAL_TRIGGERED: NT
DATABASE_VERSION: DYNA 1.0
HEADER_FORMAT: DYNA 1.2
DATA_TYPE: VELOCITY
PROCESSING: manual (Paolucci et al., 2011)
DATA_TIMESTAMP_YYYYMMDD_HHMMSS: 
DATA_LICENSE: CC-BY4_0 (http://creativecommons.org/licenses/by/4.0/)
DATA_CITATION: ESM working group (2015), European Strong-Motion database, version 0.1, Network Activity 3: Networking acceleration networks and SM data users. Project NERA (www.nera-eu.org)
DATA_CREATOR: ESM working group
ORIGINAL_DATA_MEDIATOR_CITATION: Orfeus - European Integrated Data Archive (EIDA) http://www.orfeus-eu.org/eida/
ORIGINAL_DATA_MEDIATOR: Orfeus - European Integrated Data Archive (EIDA)
ORIGINAL_DATA_CREATOR_CITATION: Data for this study comes from the Italian national seismic network operated by Istituto Nazionale di Geofisica e Vulcanologia and archived at the European Integrated Data Archive http://eida.rm.ingv.it/
ORIGINAL_DATA_CREATOR: network: IV (Italian National Seismic Network); owner: Istituto Nazionale di Geofisica e Vulcanologia
USER1: 
USER2: 
USER3: 
USER4: 
USER5: 
[...]
-0.009139
-0.012952
-0.015836
-0.018596
-0.021457
-0.024084
-0.026041
-0.027203
-0.027912
-0.028951
-0.031302
-0.035704
-0.042294
-0.050582
-0.059631
-0.068210
-0.074973
-0.078911
-0.079937
-0.079072
-0.077876
-0.077480
-0.077906
-0.078213
-0.077277
-0.074548
-0.070264
-0.065214
-0.060312
-0.056091
-0.052368
-0.048501
-0.044108
-0.039564
-0.035759
-0.033379
-0.032382
-0.032118
-0.031880
-0.031378
-0.030809
-0.030597
-0.031003
-0.031853
-0.032576
-0.032562
-0.031509
-0.029409
-0.026144
-0.021206
-0.013973
-0.004431
0.006333
0.016423
0.024086
0.028570
0.030371
0.030994
0.032475
0.036595
0.043908
0.053269
0.062308
0.068526
0.070364
0.067810
0.062364
0.056310
0.051537
0.048568
0.046412
0.043323
0.037870
0.029715
0.019774
0.009710
0.001022
-0.005612
-0.010267
-0.013199
-0.014369
-0.013433
-0.010190
-0.005100
0.000634
0.005529
0.008463
0.009026
0.007508
0.004657
0.001328
-0.001900
-0.004925
-0.007952
-0.011139
-0.014419
-0.017595
-0.020569
-0.023498
-0.026703
-0.030393
-0.034442
-0.038360
-0.041390
-0.042756
-0.042083
-0.039736
-0.036707
-0.034077
-0.032491
-0.032015
-0.032297
-0.032825
-0.033213
-0.033365
-0.033271
-0.032644
-0.030911
-0.027661
-0.023138
-0.018299
-0.014355
-0.012174
-0.012010
-0.013606
-0.016391
-0.019617
-0.022585
-0.024957
-0.026889
-0.028824
-0.031163
-0.034153
-0.038056
-0.043249
-0.049884
-0.057406
-0.064576
-0.070193
-0.073873
-0.076200
-0.078141
-0.080295
-0.082544
-0.084233
-0.084566
-0.082942
-0.079239
-0.074044
-0.068555
-0.064048
-0.061298
-0.060461
-0.061362
-0.063713
-0.067171
-0.071495
-0.076716
-0.083000
-0.090310
-0.098271
-0.106398
-0.114436
-0.122498
-0.130957
-0.140147
-0.149969
-0.159614
-0.167771
-0.173450
-0.176874
-0.179534
-0.183163
-0.188416
-0.194341
-0.199021
-0.200825
-0.199419
-0.195982
-0.192519
-0.190608
-0.190344
-0.190336
-0.188734
-0.184432
-0.177647
-0.169691
-0.162250
-0.156590
-0.153111
-0.151383
-0.150468
-0.149275
-0.146859
-0.142695
-0.136919
-0.130325
-0.124000
-0.118813
-0.115161
-0.113006
-0.111968
-0.111424
-0.110736
-0.109547
-0.107911
-0.106221
-0.105012
-0.104659
-0.105012
-0.105322
-0.104718
-0.102863
-0.100047
-0.096658
-0.092692
-0.087772
-0.081442
-0.073381
-0.063492
-0.051958
-0.039264
-0.026105
-0.013152
-0.000748
0.011150
0.022631
0.033441
0.043003
0.050857
0.057178
0.063064
0.070264
0.080247
0.093154
0.107541
0.121128
0.131893
0.138711
0.141344
0.140073
0.135224
0.126931
0.115400
0.101576
0.087480
0.075614
0.067693
0.063668
0.061747
0.059354
0.054502
0.046868
0.037895
0.029777
0.024008
0.020481
0.017741
0.014132
0.008953
0.002795
-0.003088
-0.007796
-0.011471
-0.015102
-0.019594
-0.024918
-0.030096
-0.033974
-0.036092
-0.037060
-0.038125
-0.040256
-0.043479
-0.047009
-0.049948
-0.051873
-0.052911
-0.053383
-0.053475
-0.053263
-0.052899
-0.052624
-0.052496
-0.052175
-0.051062
-0.048668
-0.044796
-0.039408
-0.032383
-0.023479
-0.012535
0.000164
0.013643
0.026387
0.036862
0.044142
0.048411
0.051083
0.054317
0.060031
0.068971
0.080431
0.092732
0.104109
0.113428
0.120350
0.124995
0.127580
0.128458
0.128504
0.129301
0.132625
0.139459
0.149233
0.159942
0.169161
0.175314
0.178371
0.179598
0.180532
0.181852
0.182985
0.182798
0.180717
0.177292
0.173816
0.171426
0.170385
0.170031
0.169324
0.167551
0.164705
0.161411
0.158507
0.156631
0.155975
0.156249
0.156816
0.156974
0.156265
0.154601
0.152148
0.149084
0.145434
0.141101
0.136111
0.130780
0.125571
0.120747
0.116154
0.111370
0.106053
0.100165
0.093893
0.087464
0.081164
0.075501
0.071031
0.067862
0.065438
0.062946
0.059909
0.056459
0.053314
0.051550
0.052063
0.054877
0.058864
0.062183
0.063144
0.060926
0.055805
0.048852
0.041253
0.033647
0.025943
0.017791
0.009225
0.000835
-0.006664
-0.012988
-0.018426
-0.023481
-0.028341
-0.032665
-0.035896
-0.037850
-0.039001
-0.040124
-0.041625
-0.043192
-0.044012
-0.043240
-0.040375
-0.035554
-0.029713
-0.024282
-0.020418
-0.018371
-0.017543
-0.017081
-0.016377
-0.015171
-0.013373
-0.010950
-0.008001
-0.004867
-0.002078
-0.000056
0.001141
0.001837
0.002529
0.003631
0.005340
0.007624
0.010250
0.012838
0.015089
0.017154
0.019670
0.023282
0.028096
0.033649
0.039345
0.044824
0.049930
0.054524
0.058477
0.061871
0.065042
0.068292
0.071559
0.074415
0.076381
0.077208
0.076934
0.075770
0.073988
0.071914
0.069944
0.068446
0.067594
0.067291
0.067239
0.067100
0.066634
0.065654
0.063916
0.061211
0.057559
0.053186
0.048270
0.042845
0.037108
0.031800
0.028179
0.027504
0.030495
0.037112
0.046626
0.057783
0.069125
0.079440
0.088159
0.095404
0.101688
0.107544
0.113298
0.118982
0.124283
0.128575
0.131015
0.130691
0.126902
0.119643
0.110005
0.099973
0.091505
0.085486
0.081335
0.077499
0.072510
0.065992
0.058978
0.053289
0.050387
0.050532
0.052761
0.055610
0.058084
0.060146
0.062337
0.064936
0.067494
0.069101
0.069053
0.067383
0.064848
0.062370
0.060384
0.058569
0.056048
0.051888
0.045703
0.038062
0.030343
0.023924
0.019263
0.015653
0.011828
0.006808
0.000351
-0.007102
-0.014683
-0.021373
-0.026284
-0.028921
-0.029329
-0.028071
-0.026016
-0.023959
-0.022244
-0.020706
-0.019029
-0.017189
-0.015579
-0.014703
-0.014744
-0.015356
-0.015898
-0.015894
-0.015220
-0.013905
-0.011902
-0.009183
-0.005962
-0.002687
0.000236
0.002679
0.004827
0.007097
0.010049
0.014217
0.019828
0.026631
0.034056
0.041598
0.049050
0.056452
0.063985
0.071968
0.080791
0.090563
0.100733
0.110205
0.118032
0.124074
0.128962
0.133447
0.137822
0.141865
0.145156
0.147327
0.148210
0.147958
0.147027
0.145828
0.144392
0.142569
0.140560
0.139055
0.138743
0.139708
0.141211
0.141924
0.140395
0.135673
0.127827
0.118056
0.108239
0.100128
0.094571
0.091123
0.088360
0.084751
0.079491
0.072746
0.065404
0.058635
0.053421
0.050045
0.047881
0.045742
0.042620
0.038316
0.033547
0.029499
0.027106
0.026480
0.026813
0.026828
0.025606
0.023261
0.020905
0.019865
0.020779
0.023226
0.025986
0.027644
0.027265
0.024800
0.021031
0.017177
0.014441
0.013642
0.015010
0.018188
0.022445
0.026912
0.030682
0.032846
0.032604
0.029459
0.023439
0.015339
0.006764
-0.000322
-0.004433
-0.005179
-0.003155
0.000695
0.005591
0.011040
0.016689
0.022173
0.026997
0.030559
0.032376
0.032448
0.031467
0.030638
0.031147
0.033557
0.037585
0.042485
0.047680
0.052965
0.058105
0.062431
0.064978
0.064980
0.062284
0.057490
0.051783
0.046473
0.042484
0.040179
0.039483
0.039965
0.040695
0.040192
0.036829
0.029621
0.018833
0.005922
-0.007129
-0.018624
-0.027646
-0.034106
-0.038520
-0.041713
-0.044489
-0.047383
-0.050634
-0.054321
-0.058416
-0.062699
-0.066763
-0.070179
-0.072671
-0.074197
-0.074920
-0.075031
-0.074501
-0.073060
-0.070521
-0.067127
-0.063480
-0.060040
-0.056675
-0.052688
-0.047344
-0.040463
-0.032619
-0.024851
-0.018161
-0.013140
-0.009846
-0.007879
-0.006609
-0.005549
-0.004664
-0.004289
-0.004711
-0.005818
-0.007073
-0.007712
-0.007055
-0.004799
-0.001124
0.003395
0.007971
0.011856
0.014633
0.016348
0.017390
0.018235
0.019264
0.020687
0.022544
0.024794
0.027433
0.030500
0.033967
0.037665
0.041338
0.044747
0.047728
0.050216
0.052344
0.054510
0.057156
0.060360
0.063733
0.066878
0.069902
0.073316
0.077401
0.081661
0.084867
0.085676
0.083403
0.078457
0.072152
0.066036
0.061124
0.057489
0.054419
0.051010
0.046737
0.041628
0.036010
0.030151
0.024120
0.017926
0.011666
0.005517
-0.000401
-0.006157
-0.012014
-0.018292
-0.025142
-0.032396
-0.039664
-0.046692
-0.053681
-0.061220
-0.069780
-0.079179
-0.088511
-0.096577
-0.102421
-0.105722
-0.106922
-0.107043
-0.107214
-0.108195
-0.110118
-0.112507
-0.114528
-0.115340
-0.114424
-0.111704
-0.107355
-0.101458
-0.093885
-0.084599
-0.074055
-0.063249
-0.053262
-0.044618
-0.036904
-0.029045
-0.020080
-0.009859
0.000886
0.011052
0.019819
0.027049
0.033204
0.038893
0.044371
0.049340
0.053162
0.055287
0.055584
0.054382
0.052264
0.049802
0.047364
0.045026
0.042641
0.039998
0.036981
0.033682
0.030429
0.027681
0.025784
0.024720
0.024077
0.023298
0.021968
0.019894
0.016988
0.013175
0.008473
0.003121
-0.002385
-0.007370
-0.011207
-0.013690
-0.015284
-0.016955
-0.019602
-0.023519
-0.028286
-0.033146
-0.037526
-0.041327
-0.044844
-0.048466
-0.052424
-0.056716
-0.061172
-0.065581
-0.069797
-0.073744
-0.077301
-0.080211
-0.082182
-0.083112
-0.083183
-0.082609
-0.081312
-0.078980
-0.075579
-0.071827
-0.069093
-0.068689
-0.071098
-0.075701
-0.081191
-0.086384
-0.090879
-0.095142
-0.100030
-0.106135
-0.113345
-0.120821
-0.127414
-0.132281
-0.135260
-0.136808
-0.137641
-0.138409
-0.139508
-0.140938
-0.142285
-0.142978
-0.142698
-0.141604
-0.140136
-0.138644
-0.137176
-0.135606
-0.133902
-0.132333
-0.131470
-0.132000
-0.134417
-0.138739
-0.144404
-0.150430
-0.155831
-0.160069
-0.163248
-0.165908
-0.168601
-0.171541
-0.174498
-0.176974
-0.178610
-0.179621
-0.180777
-0.182752
-0.185319
-0.187209
-0.186879
-0.183537
-0.177637
-0.170641
-0.164397
-0.160417
-0.159277
-0.160386
-0.162339
-0.163697
-0.163723
-0.162654
-0.161424
-0.161072
-0.162226
-0.164984
-0.169045
-0.173871
-0.178838
-0.183498
-0.187750
-0.191683
-0.195281
-0.198394
-0.201008
-0.203441
-0.206200
-0.209637
-0.213702
-0.217961
-0.221831
-0.224917
-0.227245
-0.229149
-0.230923
-0.232587
-0.233993
-0.235102
-0.236119
-0.237295
-0.238608
-0.239654
-0.239850
-0.238746
-0.236202
-0.232402
-0.227726
-0.222496
-0.216779
-0.210508
-0.203786
-0.196926
-0.190171
-0.183531
-0.176976
-0.170679
-0.165008
-0.160339
-0.156860
-0.154472
-0.152843
-0.151636
-0.150746
-0.150345
-0.150733
-0.152140
-0.154678
-0.158392
-0.163230
-0.168943
-0.175057
-0.181021
-0.186405
-0.191035
-0.195017
-0.198629
-0.202116
-0.205544
-0.208851
-0.211980
-0.214915
-0.217605
-0.219886
-0.221481
-0.222067
-0.221330
-0.219015
-0.215030
-0.209588
-0.203255
-0.196777
-0.190846
-0.186014
-0.182700
-0.181073
-0.180875
-0.181507
-0.182433
-0.183569
-0.185304
-0.188142
-0.192240
-0.197202
-0.202275
-0.206816
-0.210635
-0.214007
-0.217408
-0.221205
-0.225381
-0.229389
-0.232292
-0.233225
-0.231871
-0.228596
-0.224215
-0.219633
-0.215595
-0.212523
-0.210356
-0.208548
-0.206361
-0.203354
-0.199723
-0.196268
-0.194034
-0.193873
-0.196116
-0.200472
-0.206153
-0.212089
-0.217174
-0.220632
-0.222355
-0.222925
-0.223228
-0.223978
-0.225419
-0.227248
-0.228688
-0.228782
-0.226879
-0.223073
-0.218196
-0.213311
-0.209106
-0.205650
-0.202567
-0.199410
-0.196010
-0.192615
-0.189696
-0.187535
-0.185969
-0.184501
-0.182650
-0.180225
-0.177402
-0.174567
-0.172036
-0.169841
-0.167694
-0.165166
-0.161963
-0.158091
-0.153819
-0.149488
-0.145383
-0.141704
-0.138568
-0.135979
-0.133814
-0.131867
-0.129909
-0.127733
-0.125201
-0.122291
-0.119072
-0.115596
-0.111822
-0.107700
-0.103398
-0.099352
-0.095980
-0.093342
-0.091132
-0.088936
-0.086431
-0.083424
-0.079893
-0.076060
-0.072326
-0.069032
-0.066302
-0.064071
-0.062186
-0.060387
-0.058310
-0.055670
-0.052522
-0.049319
-0.046667
-0.044975
-0.044241
-0.044048
-0.043734
-0.042683
-0.040659
-0.037987
-0.035399
-0.033554
-0.032584
-0.032041
-0.031179
-0.029277
-0.025842
-0.020832
-0.014786
-0.008658
-0.003321
0.000935
0.004519
0.008168
0.012408
0.017267
0.022353
0.027066
0.030754
0.032860
0.033121
0.031705
0.029218
0.026556
0.024646
0.024117
0.025016
0.026756
0.028390
0.029101
0.028612
0.027205
0.025386
0.023582
0.022053
0.020997
0.020686
0.021507
0.023835
0.027815
0.033203
0.039387
0.045535
0.050764
0.054356
0.056034
0.056118
0.055399
0.054818
0.055130
0.056695
0.059396
0.062708
0.065911
0.068384
0.069858
0.070477
0.070642
0.070749
0.071048
0.071707
0.072977
0.075174
0.078436
0.082528
0.086897
0.090896
0.094043
0.096241
0.097837
0.099433
0.101532
0.104271
0.107437
0.110698
0.113876
0.117147
0.121063
0.126299
0.133196
0.141423
0.150087
0.158220
0.165227
0.170938
0.175317
0.178215
0.179493
0.179377
0.178578
0.177974
0.178095
0.178826
0.179566
0.179761
0.179429
0.179234
0.179987
0.182002
0.184850
0.187714
0.189992
0.191689
0.193372
0.195824
0.199603
0.204725
0.210666
0.216626
0.221815
0.225627
0.227777
0.228463
0.228372
0.228390
0.229167
0.230858
0.233204
0.235778
0.238218
0.240375
0.242378
0.244573
0.247284
0.250522
0.253887
0.256797
0.258846
0.260015
0.260601
0.261021
0.261646
0.262702
0.264181
0.265745
0.266790
0.266735
0.265429
0.263341
0.261389
0.260504
0.261177
0.263169
0.265558
0.267193
0.267331
0.266021
0.263955
0.261947
0.260439
0.259293
0.257938
0.255765
0.252564
0.248710
0.245048
0.242571
0.242039
0.243673
0.247132
0.251763
0.256958
0.262350
0.267778
0.273124
0.278190
0.282752
0.286709
0.290228
0.293731
0.297681
0.302291
0.307412
0.312687
0.317783
0.322525
0.326951
0.331221
0.335418
0.339394
0.342831
0.345429
0.347057
0.347777
0.347763
0.347199
0.346200
0.344727
0.342524
0.339175
0.334293
0.327782
0.320021
0.311782
0.303895
0.296867
0.290710
0.285055
0.279431
0.273537
0.267423
0.261488
0.256303
0.252325
0.249671
0.248112
0.247236
0.246611
0.245830
0.244526
0.242438
0.239455
0.235579
0.230904
0.225701
0.220480
0.215848
0.212174
0.209317
0.206612
0.203162
0.198210
0.191471
0.183294
0.174642
0.166803
0.160924
0.157613
0.156861
0.158224
0.160987
0.164195
0.166785
0.167993
0.167787
0.166942
0.166642
0.167879
0.170938
0.175233
0.179580
0.182741
0.183983
0.183399
0.181861
0.180559
0.180376
0.181531
0.183695
0.186364
0.189100
0.191542
0.193402
0.194555
0.195101
0.195327
0.195632
0.196434
0.197986
0.200202
0.202603
0.204507
0.205344
0.204875
0.203187
0.200542
0.197262
0.193715
0.190330
0.187578
0.185895
0.185497
0.186189
0.187373
0.188378
0.188856
0.188914
0.188962
0.189416
0.190418
0.191740
0.192952
0.193696
0.193797
0.193141
0.191592
0.189113
0.185886
0.182236
0.178431
0.174574
0.170686
0.166821
0.163086
0.159514
0.155950
0.152107
0.147792
0.143034
0.137985
0.132745
0.127287
0.121508
0.115301
0.108652
0.101725
0.094862
0.088385
0.082351
0.076476
0.070336
0.063662
0.056540
0.049384
0.042744
0.037012
0.032163
0.027675
0.022725
0.016685
0.009641
0.002462
-0.003798
-0.008690
-0.012639
-0.016532
-0.021070
-0.026421
-0.032334
-0.038473
-0.044632
-0.050737
-0.056720
-0.062374
-0.067280
-0.070947
-0.073109
-0.073893
-0.073707
-0.072976
-0.072034
-0.071190
-0.070729
-0.070790
-0.071315
-0.072157
-0.073146
-0.074013
-0.074344
-0.073756
-0.072090
-0.069422
-0.065975
-0.062103
-0.058276
-0.054961
-0.052450
-0.050811
-0.049952
-0.049666
-0.049636
-0.049489
-0.048892
-0.047652
-0.045827
-0.043783
-0.042026
-0.040865
-0.040199
-0.039637
-0.038836
-0.037793
-0.036886
-0.036665
-0.037518
-0.039422
-0.041902
-0.044263
-0.045997
-0.047114
-0.048102
-0.049515
-0.051535
-0.053852
-0.055917
-0.057279
-0.057716
-0.057152
-0.055593
-0.053215
-0.050469
-0.047966
-0.046189
-0.045250
-0.044885
-0.044639
-0.044133
-0.043278
-0.042362
-0.041926
-0.042477
-0.044216
-0.047005
-0.050552
-0.054623
-0.059077
-0.063769
-0.068502
-0.073129
-0.077679
-0.082382
-0.087566
-0.093576
-0.100723
-0.109172
-0.118707
-0.128648
-0.138118
-0.146509
-0.153737
-0.160068
-0.165768
-0.170907
-0.175442
-0.179391
-0.182900
-0.186179
-0.189398
-0.192580
-0.195563
-0.198124
-0.200160
-0.201731
-0.202915
-0.203633
-0.203663
-0.202842
-0.201277
-0.199351
-0.197538
-0.196219
-0.195608
-0.195753
-0.196522
-0.197596
-0.198540
-0.198987
-0.198815
-0.198133
-0.197105
-0.195798
-0.194191
-0.192269
-0.190080
-0.187756
-0.185530
-0.183679
-0.182366
-0.181477
-0.180649
-0.179486
-0.177796
-0.175600
-0.172960
-0.169836
-0.166126
-0.161808
-0.157051
-0.152216
-0.147741
-0.143958
-0.140944
-0.138483
-0.136182
-0.133700
-0.130977
-0.128249
-0.125822
-0.123768
-0.121813
-0.119468
-0.116335
-0.112326
-0.107662
-0.102716
-0.097908
-0.093726
-0.090700
-0.089165
-0.088977
-0.089466
-0.089745
-0.089120
-0.087360
-0.084750
-0.081945
-0.079682
-0.078476
-0.078465
-0.079457
-0.081102
-0.083039
-0.084934
-0.086485
-0.087500
-0.088024
-0.088310
-0.088577
-0.088755
-0.088516
-0.087571
-0.085951
-0.084055
-0.082498
-0.081884
-0.082528
-0.084241
-0.086308
-0.087774
-0.087952
-0.086786
-0.084826
-0.082897
-0.081733
-0.081769
-0.083080
-0.085376
-0.088107
-0.090711
-0.092934
-0.094937
-0.097078
-0.099615
-0.102589
-0.105913
-0.109495
-0.113271
-0.117190
-0.121157
-0.125029
-0.128676
-0.132076
-0.135331
-0.138567
-0.141779
-0.144735
-0.147010
-0.148128
-0.147763
-0.145879
-0.142775
-0.139038
-0.135404
-0.132483
-0.130470
-0.129052
-0.127588
-0.125492
-0.122617
-0.119391
-0.116516
-0.114423
-0.112928
-0.111422
-0.109338
-0.106491
-0.103105
-0.099604
-0.096374
-0.093634
-0.091422
-0.089581
-0.087696
-0.085138
-0.081329
-0.076085
-0.069717
-0.062799
-0.055839
-0.049093
-0.042583
-0.036252
-0.030152
-0.024516
-0.019604
-0.015496
-0.012035
-0.008967
-0.006089
-0.003273
-0.000396
0.002692
0.006166
0.010182
0.014791
0.019858
0.025082
0.030185
0.035095
0.039928
0.044709
0.049144
0.052692
0.054893
0.055647
0.055310
0.054627
0.054530
0.055768
0.058511
0.062216
0.065856
0.068440
0.069496
0.069234
0.068332
0.067551
0.067391
0.067910
0.068788
0.069604
0.070137
0.070453
0.070771
0.071283
0.072029
0.072869
0.073545
0.073881
0.073941
0.074002
0.074321
0.074908
0.075502
0.075743
0.075365
0.074285
0.072610
0.070598
0.068538
0.066607
0.064808
0.063038
0.061195
0.059260
0.057283
0.055340
0.053507
0.051906
0.050736
0.050238
0.050573
0.051695
0.053314
0.055023
0.056463
0.057435
0.057925
0.058056
0.058040
0.058130
0.058583
0.059569
0.061085
0.062948
0.064875
0.066622
0.068117
0.069510
0.071040
0.072803
0.074638
0.076264
0.077552
0.078693
0.080110
0.082142
0.084757
0.087562
0.090117
0.092231
0.093998
0.095633
0.097351
0.099293
0.101489
0.103858
0.106291
0.108723
0.111127
0.113420
0.115409
0.116860
0.117674
0.118006
0.118209
0.118576
0.119085
0.119342
0.118838
0.117337
0.115120
0.112851
0.111175
0.110322
0.109965
0.109453
0.108245
0.106268
0.103946
0.101885
0.100431
0.099413
0.098242
0.096261
0.093133
0.089054
0.084693
0.080907
0.078341
0.077105
0.076720
0.076397
0.075469
0.073700
0.071269
0.068488
0.065518
0.062305
0.058770
0.055011
0.051313
0.048016
0.045426
0.043830
0.043497
0.044577
0.046980
0.050337
0.054108
0.057772
0.061013
0.063792
