EVENT_NAME: EMILIA_2ND_SHOCK
EVENT_ID: IT-2012-0011
EVENT_DATE_YYYYMMDD: 20120529
EVENT_TIME_HHMMSS: 070002
EVENT_LATITUDE_DEGREE: 44.8417
EVENT_LONGITUDE_DEGREE: 11.0657
EVENT_DEPTH_KM: 8.1
HYPOCENTER_REFERENCE: INGV-CNT_Seismic_Bulletin
MAGNITUDE_W: 6.0
MAGNITUDE_W_REFERENCE: RCMT-INGV
MAGNITUDE_L: 5.8
MAGNITUDE_L_REFERENCE: INGV-CNT_Seismic_Bulletin
FOCAL_MECHANISM: TF
NETWORK: IV
STATION_CODE: SERM
STATION_NAME: SERMIDE
STATION_LATITUDE_DEGREE: 45.010000
STATION_LONGITUDE_DEGREE: 11.295800
STATION_ELEVATION_M: 7
LOCATION: 
SENSOR_DEPTH_M: 1.0
VS30_M/S: 
SITE_CLASSIFICATION_EC8: C*
MORPHOLOGIC_CLASSIFICATION: 
EPICENTRAL_DISTANCE_KM: 26.1
EARTHQUAKE_BACKAZIMUTH_DEGREE: 224.2
DATE_TIME_FIRST_SAMPLE_YYYYMMDD_HHMMSS: 20120529_065954.000
DATE_TIME_FIRST_SAMPLE_PRECISION: milliseconds
SAMPLING_INTERVAL_S: 0.005000
NDATA: 20001
DURATION_S: 100.005
STREAM: HNE
UNITS: cm/s
INSTRUMENT: sensor = Episensor FBA ES-T [Kinemetrics] | digitizer = Unknown [Unknown]
INSTRUMENT_ANALOG/DIGITAL: D
INSTRUMENTAL_FREQUENCY_HZ: 
INSTRUMENTAL_DAMPING: 
FULL_SCALE_G: 
N_BIT_DIGITAL_CONVERTER: 
PGV_CM/S: -1.046404
TIME_PGV_S: 24.570000
BASELINE_CORRECTION: BASELINE REMOVED
FILTER_TYPE: BUTTERWORTH
FILTER_ORDER: 2
LOW_CUT_FREQUENCY_HZ: 0.100
HIGH_CUT_FREQUENCY_HZ: 40.000
LATE/NORMAL_TRIGGERED: NT
DATABASE_VERSION: DYNA 1.0
HEADER_FORMAT: DYNA 1.2
DATA_TYPE: VELOCITY
PROCESSING: manual (Paolucci et al., 2011)
DATA_TIMESTAMP_YYYYMMDD_HHMMSS: 
DATA_LICENSE: CC-BY4_0 (http://creativecommons.org/licenses/by/4.0/)
DATA_CITATION: ESM working group (2015), European Strong-Motion database, version 0.1, Network Activity 3: Networking acceleration networks and SM data users. Project NERA (www.nera-eu.org)
DATA_CREATOR: ESM working group
ORIGINAL_DATA_MEDIATOR_CITATION: Orfeus - European Integrated Data Archive (EIDA) http://www.orfeus-eu.org/eida/
ORIGINAL_DATA_MEDIATOR: Orfeus - European Integrated Data Archive (EIDA)
ORIGINAL_DATA_CREATOR_CITATION: Data for this study comes from the Italian national seismic network operated by Istituto Nazionale di Geofisica e Vulcanologia and archived at the European Integrated Data Archive http://eida.rm.ingv.it/
ORIGINAL_DATA_CREATOR: network: IV (Italian National Seismic Network); owner: Istituto Nazionale di Geofisica e Vulcanologia
USER1: 
USER2: 
USER3: 
USER4: 
USER5: 
[...]
-0.063349
-0.064075
-0.063865
-0.062347
-0.060395
-0.059356
-0.059507
-0.059686
-0.058615
-0.056284
-0.053835
-0.052392
-0.052269
-0.053092
-0.054310
-0.055558
-0.056748
-0.058022
-0.059765
-0.062562
-0.066905
-0.072747
-0.079301
-0.085440
-0.090401
-0.094126
-0.096859
-0.098535
-0.098841
-0.098211
-0.098476
-0.101772
-0.108391
-0.116003
-0.121427
-0.123338
-0.123251
-0.123993
-0.127451
-0.133644
-0.141142
-0.147716
-0.150985
-0.149640
-0.144671
-0.138991
-0.135283
-0.134107
-0.134170
-0.134144
-0.133717
-0.132921
-0.131145
-0.127437
-0.121773
-0.115605
-0.110919
-0.108815
-0.109014
-0.110407
-0.111790
-0.112411
-0.112377
-0.112562
-0.113713
-0.115566
-0.117054
-0.117458
-0.117197
-0.117511
-0.119412
-0.122803
-0.126347
-0.128286
-0.127903
-0.126754
-0.128263
-0.135277
-0.147282
-0.159985
-0.167956
-0.168270
-0.162266
-0.154218
-0.148225
-0.145896
-0.146318
-0.147574
-0.148289
-0.148438
-0.149250
-0.152161
-0.157386
-0.163251
-0.166943
-0.166230
-0.161048
-0.153904
-0.148581
-0.147729
-0.151134
-0.156200
-0.160083
-0.161256
-0.159408
-0.154874
-0.148819
-0.143456
-0.141039
-0.142139
-0.144997
-0.146709
-0.145197
-0.140464
-0.134440
-0.129626
-0.127497
-0.127782
-0.129053
-0.129970
-0.130129
-0.130032
-0.130500
-0.131937
-0.133739
-0.134387
-0.132470
-0.127929
-0.122327
-0.117862
-0.116009
-0.116996
-0.120368
-0.125570
-0.131666
-0.136822
-0.138800
-0.136546
-0.131415
-0.126603
-0.125077
-0.127785
-0.133563
-0.140296
-0.146072
-0.149769
-0.151350
-0.151838
-0.152700
-0.154864
-0.158113
-0.161291
-0.163146
-0.163095
-0.161353
-0.158527
-0.155084
-0.151020
-0.146114
-0.140615
-0.135538
-0.132097
-0.130909
-0.131802
-0.134253
-0.137785
-0.141922
-0.145820
-0.147990
-0.146761
-0.141541
-0.133773
-0.126434
-0.122396
-0.122904
-0.127144
-0.132999
-0.138327
-0.141970
-0.144063
-0.145576
-0.147332
-0.149243
-0.150451
-0.150303
-0.149018
-0.147209
-0.145093
-0.142704
-0.140856
-0.141258
-0.145124
-0.151687
-0.158217
-0.161613
-0.160288
-0.154993
-0.148115
-0.142271
-0.139183
-0.139125
-0.140886
-0.142495
-0.142531
-0.141000
-0.138950
-0.137364
-0.136611
-0.136861
-0.138427
-0.141147
-0.143582
-0.143524
-0.139728
-0.133130
-0.126313
-0.121741
-0.120323
-0.121285
-0.123063
-0.124311
-0.124421
-0.123294
-0.120803
-0.116823
-0.111873
-0.107429
-0.105308
-0.106514
-0.110513
-0.115551
-0.119749
-0.122104
-0.122713
-0.122233
-0.121197
-0.119792
-0.118112
-0.116412
-0.115006
-0.113908
-0.112764
-0.111293
-0.109686
-0.108346
-0.107167
-0.105170
-0.101070
-0.094447
-0.086376
-0.078736
-0.072840
-0.068705
-0.065411
-0.061957
-0.057946
-0.053826
-0.050551
-0.048754
-0.047961
-0.046745
-0.043962
-0.039914
-0.036040
-0.033448
-0.032107
-0.031524
-0.031531
-0.031865
-0.031442
-0.028865
-0.023893
-0.018047
-0.013444
-0.011086
-0.010210
-0.009043
-0.006184
-0.001661
0.002972
0.005658
0.005234
0.001972
-0.003131
-0.009289
-0.015926
-0.022063
-0.026384
-0.028249
-0.028508
-0.029020
-0.031255
-0.035291
-0.040001
-0.044030
-0.046577
-0.047400
-0.046219
-0.042397
-0.035624
-0.027046
-0.019340
-0.015214
-0.015630
-0.019378
-0.024175
-0.028049
-0.029792
-0.028528
-0.023439
-0.014382
-0.002782
0.008359
0.015784
0.017781
0.015288
0.011566
0.010533
0.014553
0.023063
0.033102
0.041275
0.045690
0.046730
0.046377
0.046709
0.048649
0.051433
0.052840
0.050334
0.042763
0.031274
0.018439
0.006402
-0.004128
-0.013375
-0.021519
-0.028419
-0.034061
-0.038882
-0.043346
-0.047324
-0.050084
-0.050723
-0.048422
-0.042522
-0.032770
-0.019695
-0.004740
0.010010
0.022400
0.030890
0.035104
0.035888
0.034810
0.033403
0.032604
0.032707
0.033694
0.035344
0.036938
0.037254
0.035458
0.032201
0.029605
0.029679
0.032359
0.035085
0.034720
0.030254
0.023748
0.018721
0.017556
0.019985
0.023528
0.025210
0.022997
0.016112
0.004841
-0.009390
-0.023942
-0.035567
-0.041747
-0.042009
-0.038307
-0.033990
-0.031826
-0.032518
-0.034873
-0.037215
-0.038623
-0.039112
-0.038866
-0.037425
-0.033771
-0.027379
-0.019220
-0.011764
-0.007821
-0.008923
-0.014409
-0.021956
-0.029106
-0.034474
-0.037945
-0.040194
-0.042216
-0.045167
-0.050136
-0.057400
-0.065631
-0.072121
-0.074385
-0.072089
-0.067697
-0.065133
-0.067299
-0.074251
-0.083334
-0.091099
-0.095545
-0.097058
-0.097606
-0.099120
-0.102424
-0.107343
-0.113368
-0.119866
-0.125785
-0.129763
-0.131068
-0.130392
-0.129430
-0.129611
-0.131295
-0.133998
-0.137148
-0.140683
-0.145120
-0.150990
-0.158059
-0.165101
-0.170582
-0.173704
-0.174777
-0.174508
-0.173077
-0.170212
-0.166177
-0.162431
-0.161009
-0.163079
-0.167982
-0.173689
-0.178274
-0.180911
-0.181534
-0.179929
-0.175523
-0.167833
-0.156891
-0.143555
-0.129800
-0.118392
-0.111518
-0.109165
-0.108849
-0.107413
-0.103556
-0.098638
-0.094951
-0.093348
-0.092658
-0.091155
-0.088339
-0.085334
-0.083763
-0.084501
-0.087449
-0.092049
-0.097581
-0.103139
-0.107745
-0.110711
-0.112018
-0.112430
-0.113175
-0.115262
-0.118792
-0.122712
-0.125250
-0.124937
-0.121612
-0.116642
-0.112190
-0.110111
-0.111172
-0.114868
-0.119697
-0.123662
-0.124955
-0.122805
-0.117810
-0.111260
-0.104052
-0.096272
-0.087605
-0.077842
-0.066969
-0.055149
-0.042973
-0.031619
-0.022237
-0.015006
-0.009064
-0.003488
0.001830
0.006284
0.009361
0.011331
0.013303
0.016739
0.022847
0.032107
0.044016
0.057278
0.070449
0.082549
0.093321
0.103280
0.113531
0.125008
0.137343
0.148322
0.154736
0.154340
0.147532
0.137410
0.128102
0.122505
0.120773
0.120421
0.118007
0.111342
0.100818
0.089010
0.078930
0.072226
0.068559
0.066266
0.063341
0.058004
0.048900
0.035310
0.017367
-0.003906
-0.026835
-0.049666
-0.071330
-0.091826
-0.111659
-0.130703
-0.147677
-0.160926
-0.169886
-0.175671
-0.180018
-0.183629
-0.185584
-0.184351
-0.179332
-0.171500
-0.162547
-0.153486
-0.144279
-0.134852
-0.126082
-0.119284
-0.114672
-0.110802
-0.105904
-0.099647
-0.093351
-0.088566
-0.085669
-0.083744
-0.081541
-0.078577
-0.075662
-0.074629
-0.077297
-0.084204
-0.094107
-0.104808
-0.114722
-0.124015
-0.134572
-0.148994
-0.169229
-0.195397
-0.225415
-0.255774
-0.283123
-0.305611
-0.323122
-0.336461
-0.346298
-0.352724
-0.355498
-0.354643
-0.351072
-0.346850
-0.344489
-0.345275
-0.347833
-0.348494
-0.343554
-0.331557
-0.313767
-0.292804
-0.270914
-0.249027
-0.226749
-0.202915
-0.176438
-0.147192
-0.116311
-0.085390
-0.055298
-0.026084
0.001790
0.026467
0.045381
0.056945
0.061607
0.061612
0.059948
0.059180
0.060725
0.064796
0.070888
0.078334
0.086501
0.094752
0.102527
0.109555
0.115883
0.121706
0.127253
0.132717
0.138042
0.142811
0.146765
0.150604
0.155916
0.163859
0.173894
0.184043
0.192439
0.198450
0.202396
0.204811
0.206340
0.207911
0.210239
0.212948
0.214463
0.213062
0.208089
0.200152
0.190331
0.179412
0.167840
0.155981
0.144149
0.132543
0.121467
0.111609
0.103865
0.098782
0.096109
0.094881
0.093903
0.092180
0.089269
0.085820
0.083943
0.086425
0.094732
0.107384
0.120510
0.130508
0.136552
0.140840
0.146718
0.156437
0.169985
0.185244
0.199208
0.209650
0.216352
0.221115
0.226601
0.234900
0.246756
0.261619
0.278001
0.293801
0.306842
0.315693
0.320325
0.322003
0.322271
0.321739
0.319801
0.315724
0.310189
0.305834
0.306189
0.313730
0.328460
0.347983
0.368740
0.387339
0.401353
0.409758
0.412993
0.412438
0.409456
0.404668
0.397926
0.388963
0.378430
0.368543
0.362545
0.363239
0.371716
0.387129
0.407454
0.430553
0.454713
0.478591
0.501123
0.521676
0.540138
0.556705
0.571517
0.584479
0.595441
0.604441
0.611457
0.615788
0.616035
0.611148
0.601568
0.589216
0.576402
0.564694
0.554509
0.545400
0.536906
0.529484
0.524624
0.523826
0.527346
0.533966
0.541930
0.550040
0.557764
0.564436
0.568790
0.569556
0.566661
0.562040
0.559278
0.562019
0.572095
0.588643
0.608569
0.627697
0.642060
0.649023
0.647821
0.639379
0.625832
0.610130
0.595739
0.586137
0.583802
0.589104
0.600136
0.613816
0.627297
0.638617
0.646578
0.650501
0.650154
0.645630
0.637163
0.625200
0.610868
0.596292
0.583990
0.575259
0.568761
0.560939
0.548451
0.530807
0.510922
0.493109
0.480542
0.474412
0.474783
0.481389
0.493493
0.509514
0.527144
0.544010
0.558512
0.570362
0.580466
0.590299
0.601397
0.615168
0.632670
0.654158
0.678674
0.704014
0.727261
0.745831
0.758603
0.766552
0.772457
0.779721
0.790680
0.805303
0.821203
0.835052
0.844291
0.847910
0.846165
0.839966
0.830591
0.819624
0.808660
0.798860
0.790834
0.784779
0.780462
0.777268
0.774834
0.773846
0.775949
0.782497
0.793124
0.805338
0.815483
0.820297
0.817968
0.808292
0.792231
0.771361
0.747600
0.723318
0.701456
0.685087
0.676328
0.675382
0.680626
0.689862
0.701661
0.715732
0.732322
0.751493
0.772910
0.796100
0.820560
0.845339
0.868579
0.887824
0.900957
0.907027
0.906819
0.903079
0.899772
0.900166
0.905012
0.912334
0.918927
0.922117
0.920347
0.912634
0.898033
0.875988
0.847192
0.813945
0.779398
0.746022
0.714231
0.682159
0.646847
0.606017
0.559218
0.507695
0.453267
0.397051
0.338958
0.278182
0.214057
0.146571
0.076348
0.004253
-0.069093
-0.143374
-0.217957
-0.291047
-0.359553
-0.419942
-0.469326
-0.505849
-0.528398
-0.536544
-0.531072
-0.514522
-0.490871
-0.464286
-0.437694
-0.412080
-0.386833
-0.360711
-0.332758
-0.302726
-0.271122
-0.239164
-0.208829
-0.182745
-0.163634
-0.153346
-0.151931
-0.157194
-0.165014
-0.170307
-0.168370
-0.156269
-0.133867
-0.104088
-0.072160
-0.044133
-0.025280
-0.018838
-0.025347
-0.042774
-0.067366
-0.094707
-0.120451
-0.140796
-0.153020
-0.156015
-0.150390
-0.137973
-0.121068
-0.101855
-0.082088
-0.063083
-0.045668
-0.029681
-0.013455
0.005796
0.030567
0.061614
0.097392
0.134586
0.169500
0.199785
0.225415
0.248045
0.269228
0.289169
0.306902
0.321215
0.331082
0.335334
0.332271
0.320002
0.297423
0.265047
0.225041
0.180481
0.134340
0.088824
0.045285
0.004402
-0.033839
-0.070312
-0.106649
-0.144679
-0.185722
-0.230065
-0.276752
-0.323712
-0.368312
-0.408214
-0.442085
-0.469629
-0.490929
-0.505806
-0.513984
-0.515995
-0.513806
-0.510332
-0.507960
-0.507009
-0.505179
-0.498520
-0.483476
-0.458761
-0.425932
-0.388525
-0.350580
-0.315453
-0.285161
-0.260012
-0.238504
-0.217809
-0.194956
-0.168158
-0.137508
-0.104746
-0.072410
-0.042968
-0.018316
0.000170
0.011212
0.013478
0.005964
-0.011638
-0.039029
-0.075580
-0.120407
-0.172307
-0.229780
-0.291158
-0.354521
-0.417328
-0.476160
-0.527178
-0.567230
-0.594866
-0.610649
-0.616669
-0.615554
-0.609431
-0.599284
-0.584929
-0.565541
-0.540423
-0.509663
-0.474313
-0.435950
-0.395923
-0.354922
-0.313239
-0.271424
-0.230599
-0.192004
-0.156229
-0.122937
-0.091251
-0.060169
-0.028639
0.004309
0.038925
0.074022
0.107009
0.134953
0.156028
0.170299
0.179426
0.185773
0.191603
0.198717
0.208452
0.221784
0.239326
0.261270
0.287343
0.316815
0.348560
0.381140
0.412865
0.441984
0.467153
0.487950
0.504890
0.518795
0.529927
0.537532
0.540202
0.536828
0.527449
0.513335
0.496215
0.477158
0.455907
0.431225
0.402028
0.368423
0.331834
0.294116
0.256310
0.218046
0.177955
0.134618
0.087323
0.036465
-0.016197
-0.067192
-0.111319
-0.142700
-0.156953
-0.153345
-0.135612
-0.110903
-0.087023
-0.069252
-0.058582
-0.052444
-0.047244
-0.040977
-0.034221
-0.029034
-0.026909
-0.027623
-0.029773
-0.032122
-0.034378
-0.036876
-0.039710
-0.042065
-0.042055
-0.037035
-0.024314
-0.002133
0.029496
0.068443
0.110792
0.151817
0.187344
0.214803
0.233169
0.241808
0.239410
0.224170
0.195106
0.153333
0.102306
0.046840
-0.008645
-0.061722
-0.112415
-0.162162
-0.212030
-0.261335
-0.307445
-0.346647
-0.375556
-0.392484
-0.398195
-0.395685
-0.389080
-0.382227
-0.377572
-0.375706
-0.375639
-0.375614
-0.373967
-0.369625
-0.362109
-0.351362
-0.337804
-0.322724
-0.308675
-0.299313
-0.298516
-0.309118
-0.331847
-0.364991
-0.404985
-0.447600
-0.489041
-0.526525
-0.558371
-0.583900
-0.603169
-0.616361
-0.623022
-0.621755
-0.610731
-0.588747
-0.556132
-0.515010
-0.468857
-0.421623
-0.376818
-0.336967
-0.303725
-0.278432
-0.262475
-0.256974
-0.262078
-0.276431
-0.297044
-0.319441
-0.338133
-0.347582
-0.343469
-0.323612
-0.288102
-0.238828
-0.178794
-0.111395
-0.039744
0.033778
0.107513
0.180068
0.249767
0.314436
0.371787
0.420264
0.459845
0.492186
0.519881
0.545225
0.569272
0.591832
0.612261
0.630275
0.646148
0.660246
0.672381
0.681553
0.686246
0.684972
0.676760
0.661387
0.639267
0.611036
0.577105
0.537545
0.492438
0.442392
0.388763
0.333492
0.278805
0.226961
0.180003
0.139440
0.105978
0.079403
0.058585
0.041518
0.025341
0.006512
-0.018687
-0.053344
-0.099042
-0.155300
-0.219691
-0.288727
-0.359084
-0.428506
-0.495956
-0.561084
-0.623483
-0.682278
-0.736276
-0.784451
-0.826350
-0.862154
-0.892546
-0.918654
-0.942022
-0.964255
-0.986257
-1.007541
-1.026235
-1.039866
-1.046404
-1.045025
-1.036322
-1.021896
-1.003497
-0.982235
-0.958393
-0.931896
-0.902942
-0.872223
-0.840651
-0.808865
-0.776867
-0.744032
-0.709669
-0.673917
-0.638349
-0.605728
-0.578943
-0.559802
-0.548412
-0.543291
-0.541776
-0.540492
-0.536053
-0.525968
-0.509302
-0.486854
-0.461012
-0.435365
-0.414019
-0.400657
-0.397594
-0.405158
-0.421671
-0.443969
-0.468139
-0.490241
-0.506944
-0.516031
-0.516626
-0.509194
-0.495467
-0.478213
-0.460582
-0.445056
-0.432583
-0.422478
-0.413038
-0.402316
-0.388543
-0.370277
-0.346702
-0.318100
-0.285974
-0.252542
-0.220045
-0.190309
-0.164480
-0.142813
-0.124666
-0.108859
-0.094350
-0.080924
-0.069488
-0.061785
-0.059609
-0.063960
-0.074587
-0.090025
-0.107830
-0.124797
-0.137459
-0.142995
-0.140074
-0.129074
-0.111765
-0.090816
-0.069254
-0.049825
-0.034448
-0.024053
-0.018824
-0.018508
-0.022503
-0.029821
-0.039206
-0.049389
-0.059317
-0.068163
-0.075160
-0.079462
-0.080288
-0.077438
-0.071728
-0.064730
-0.057746
-0.050898
-0.043237
-0.033735
-0.022161
-0.009037
0.005019
0.019753
0.035185
0.051264
0.067617
0.083458
0.097712
0.109379
0.117949
0.123501
0.126441
0.127096
0.125542
0.121838
0.116398
0.110071
0.103849
0.098584
0.095079
0.094313
0.097316
0.104654
0.115995
0.130234
0.146033
0.162253
0.177797
0.190928
0.198863
0.198420
0.187614
0.167046
0.140017
0.111277
0.085211
0.064449
0.049563
0.039833
0.034320
0.032321
0.032989
0.034725
0.035167
0.031938
0.023555
0.009866
-0.007991
-0.027879
-0.047081
-0.062909
-0.073395
-0.077717
-0.076096
-0.069306
-0.058185
-0.043445
-0.025782
-0.006061
0.014527
0.034383
0.051557
0.064109
0.070651
0.070786
0.065186
0.055262
0.042541
0.028021
0.011895
-0.006086
-0.025846
-0.046348
-0.065576
-0.081111
-0.090968
-0.094260
-0.091432
-0.084057
-0.074396
-0.064818
-0.057160
-0.052233
-0.049855
-0.049436
-0.050690
-0.053903
-0.059585
-0.067941
-0.078707
-0.091384
-0.105522
-0.120824
-0.137088
-0.154034
-0.171014
-0.186900
-0.200464
-0.211137
-0.219519
-0.227217
-0.236153
-0.247786
-0.262613
-0.280015
-0.298365
-0.315355
-0.328406
-0.334970
-0.332825
-0.320704
-0.299226
-0.271433
-0.242215
-0.216635
-0.198054
-0.187165
-0.182439
-0.181377
-0.181549
-0.180863
-0.177434
-0.169627
-0.156510
-0.138411
-0.117084
-0.095188
-0.075315
-0.059198
-0.047658
-0.041135
-0.040194
-0.045490
-0.057267
-0.074927
-0.097129
-0.122372
-0.149607
-0.178439
-0.208835
-0.240582
-0.272956
-0.304914
-0.335742
-0.365605
-0.395509
-0.426680
-0.459916
-0.495346
-0.532486
-0.570248
-0.606878
-0.640162
-0.668007
-0.689040
-0.702751
-0.709174
-0.708492
-0.700890
-0.686710
-0.666782
-0.642655
-0.616315
-0.589306
-0.561897
-0.533095
-0.501566
-0.466724
-0.429284
-0.391135
-0.354702
-0.322124
-0.294641
-0.272461
-0.255074
-0.241696
-0.231589
-0.224165
-0.218909
-0.215253
-0.212574
-0.210498
-0.209332
-0.210166
-0.214306
-0.222293
-0.233193
-0.244688
-0.253996
-0.259119
-0.259822
-0.257953
-0.256984
-0.260878
-0.272573
-0.292731
-0.319421
-0.348951
-0.377341
-0.401595
-0.420231
-0.433130
-0.441132
-0.445670
-0.448472
-0.451276
-0.455584
-0.462485
-0.472535
-0.485673
-0.501092
-0.517156
-0.531503
-0.541491
-0.544909
-0.540731
-0.529543
-0.513360
-0.494881
-0.476597
-0.460205
-0.446525
-0.435672
-0.427235
-0.420458
-0.414592
-0.409390
-0.405419
-0.403929
-0.406310
-0.413462
-0.425352
-0.440926
-0.458367
-0.475543
-0.490406
-0.501234
-0.506772
-0.506325
-0.499806
-0.487675
-0.470896
-0.450989
-0.430001
-0.410130
-0.393077
-0.379459
-0.368686
-0.359416
-0.350355
-0.340841
-0.330813
-0.320326
-0.309136
-0.296756
-0.282863
-0.267686
-0.252033
-0.237066
-0.224122
-0.214775
-0.210924
-0.214497
-0.226747
-0.247523
-0.274909
-0.305457
-0.335046
-0.360002
-0.377884
-0.387686
-0.389672
-0.385146
-0.376187
-0.365326
-0.355158
-0.347986
-0.345499
-0.348532
-0.356963
-0.369925
-0.386263
-0.404922
-0.424924
-0.445091
-0.463928
-0.479967
-0.492239
-0.500395
-0.504350
-0.503845
-0.498335
-0.487198
-0.470029
-0.446890
-0.418495
-0.386200
-0.351712
-0.316653
-0.282263
-0.249377
-0.218600
-0.190517
-0.165767
-0.144901
-0.128097
-0.114942
-0.104474
-0.095472
-0.086832
-0.077808
-0.068061
-0.057529
-0.046196
-0.033836
-0.019929
-0.003829
0.014818
0.035657
0.057502
0.078648
0.097413
0.112553
0.123398
0.129827
0.132187
0.131115
0.127212
0.120734
0.111601
0.099829
0.086036
0.071526
0.057790
0.045790
0.035527
0.026152
0.016477
0.005587
-0.006723
-0.019942
-0.033287
-0.046297
-0.059075
-0.071972
-0.085037
-0.097724
-0.109113
-0.118483
-0.125860
-0.132155
-0.138828
-0.147290
-0.158433
-0.172505
-0.189284
-0.208235
-0.228435
-0.248401
-0.266102
-0.279260
-0.285814
-0.284389
-0.274633
-0.257342
-0.234255
-0.207539
-0.179185
-0.150650
-0.122870
-0.096515
-0.072213
-0.050618
-0.032365
-0.017992
-0.007903
-0.002346
-0.001292
-0.004169
-0.009715
-0.016208
-0.022012
-0.026080
-0.028138
-0.028558
-0.028001
-0.026888
-0.024983
-0.021427
-0.015319
-0.006437
0.004423
0.015643
0.025350
0.032112
0.035541
0.036530
0.036922
0.038749
0.043411
0.051228
0.061559
0.073371
0.085861
0.098828
0.112691
0.128253
0.146225
0.166745
0.189230
0.212730
0.236449
0.260027
0.283473
0.306930
0.330379
0.353372
0.374897
0.393581
0.408228
0.418387
0.424569
0.428001
0.430012
0.431370
0.431826
0.430101
0.424292
0.412516
0.393537
0.367155
0.334257
0.296545
0.256063
0.214758
0.174283
0.136010
0.101087
0.070414
0.044543
0.023594
0.007270
-0.004963
