EVENT_NAME: EMILIA_2ND_SHOCK
EVENT_ID: IT-2012-0011
EVENT_DATE_YYYYMMDD: 20120529
EVENT_TIME_HHMMSS: 070002
EVENT_LATITUDE_DEGREE: 44.8417
EVENT_LONGITUDE_DEGREE: 11.0657
EVENT_DEPTH_KM: 8.1
HYPOCENTER_REFERENCE: INGV-CNT_Seismic_Bulletin
MAGNITUDE_W: 6.0
MAGNITUDE_W_REFERENCE: RCMT-INGV
MAGNITUDE_L: 5.8
MAGNITUDE_L_REFERENCE: INGV-CNT_Seismic_Bulletin
FOCAL_MECHANISM: TF
NETWORK: IV
STATION_CODE: SERM
STATION_NAME: SERMIDE
STATION_LATITUDE_DEGREE: 45.010000
STATION_LONGITUDE_DEGREE: 11.295800
STATION_ELEVATION_M: 7
LOCATION: 
SENSOR_DEPTH_M: 1.0
VS30_M/S: 
SITE_CLASSIFICATION_EC8: C*
MORPHOLOGIC_CLASSIFICATION: 
EPICENTRAL_DISTANCE_KM: 26.1
EARTHQUAKE_BACKAZIMUTH_DEGREE: 224.2
DATE_TIME_FIRST_SAMPLE_YYYYMMDD_HHMMSS: 20120529_065954.000
DATE_TIME_FIRST_SAMPLE_PRECISION: milliseconds
SAMPLING_INTERVAL_S: 0.005000
NDATA: 20001
DURATION_S: 100.005
STREAM: HNE
UNITS: cm/s^2
INSTRUMENT: sensor = Episensor FBA ES-T [Kinemetrics] | digitizer = Unknown [Unknown]
INSTRUMENT_ANALOG/DIGITAL: D
INSTRUMENTAL_FREQUENCY_HZ: 
INSTRUMENTAL_DAMPING: 
FULL_SCALE_G: 
N_BIT_DIGITAL_CONVERTER: 
PGA_CM/S^2: -14.916525
TIME_PGA_S: 22.705000
BASELINE_CORRECTION: BASELINE REMOVED
FILTER_TYPE: BUTTERWORTH
FILTER_ORDER: 2
LOW_CUT_FREQUENCY_HZ: 0.100
HIGH_CUT_FREQUENCY_HZ: 40.000
LATE/NORMAL_TRIGGERED: NT
DATABASE_VERSION: DYNA 1.0
HEADER_FORMAT: DYNA 1.2
DATA_TYPE: ACCELERATION
PROCESSING: manual (Paolucci et al., 2011)
DATA_TIMESTAMP_YYYYMMDD_HHMMSS: 
DATA_LICENSE: CC-BY4_0 (http://creativecommons.org/licenses/by/4.0/)
DATA_CITATION: ESM working group (2015), European Strong-Motion database, version 0.1, Network Activity 3: Networking acceleration networks and SM data users. Project NERA (www.nera-eu.org)
DATA_CREATOR: ESM working group
ORIGINAL_DATA_MEDIATOR_CITATION: Orfeus - European Integrated Data Archive (EIDA) http://www.orfeus-eu.org/eida/
ORIGINAL_DATA_MEDIATOR: Orfeus - European Integrated Data Archive (EIDA)
ORIGINAL_DATA_CREATOR_CITATION: Data for this study comes from the Italian national seismic network operated by Istituto Nazionale di Geofisica e Vulcanologia and archived at the European Integrated Data Archive http://eida.rm.ingv.it/
ORIGINAL_DATA_CREATOR: network: IV (Italian National Seismic Network); owner: Istituto Nazionale di Geofisica e Vulcanologia
USER1: 
USER2: 
USER3: 
USER4: 
USER5: 
[...]
-0.051629
-0.151589
-0.201095
-0.130277
0.045102
0.234785
0.351927
0.358759
0.247450
0.034334
-0.208613
-0.363593
-0.348859
-0.190184
0.002183
0.121767
0.125048
0.034320
-0.082741
-0.152258
-0.147139
-0.100374
-0.060109
-0.048608
-0.062845
-0.087329
-0.101730
-0.087846
-0.028365
0.086675
0.224681
0.294946
0.206148
-0.042752
-0.321905
-0.439167
-0.300777
-0.016105
0.197113
0.219899
0.116965
0.029763
0.034556
0.106985
0.175644
0.186160
0.134023
0.048448
-0.056402
-0.187992
-0.316158
-0.354793
-0.250293
-0.062880
0.085121
0.133948
0.123929
0.113018
0.097780
0.030330
-0.112553
-0.292756
-0.429714
-0.452555
-0.353473
-0.195714
-0.051300
0.067852
0.190425
0.304853
0.340971
0.241074
0.026539
-0.205696
-0.344603
-0.340560
-0.232302
-0.083885
0.097047
0.328656
0.539604
0.572520
0.363298
0.049168
-0.182273
-0.303826
-0.415839
-0.521522
-0.460380
-0.143138
0.234040
0.352356
0.144549
-0.115265
-0.141732
0.024908
0.093514
-0.102798
-0.406721
-0.520347
-0.302781
0.124901
0.482591
0.522002
0.208639
-0.230647
-0.486452
-0.437044
-0.221878
-0.041225
0.056230
0.144875
0.239359
0.230447
0.023972
-0.305071
-0.542555
-0.524238
-0.282327
0.004535
0.189924
0.260057
0.279178
0.290480
0.282713
0.213260
0.031344
-0.275571
-0.589028
-0.658572
-0.318267
0.268664
0.681358
0.622005
0.182843
-0.285911
-0.509206
-0.459135
-0.269673
-0.077101
0.040215
0.045877
-0.044626
-0.147388
-0.168231
-0.082287
0.076219
0.259503
0.382285
0.313911
-0.003438
-0.425194
-0.652432
-0.471482
0.013920
0.416464
0.388015
-0.073645
-0.632492
-0.899940
-0.720840
-0.247695
0.210405
0.428736
0.399440
0.250903
0.081452
-0.085389
-0.222960
-0.266161
-0.186006
-0.065862
-0.034808
-0.093520
-0.086141
0.075095
0.233611
0.160339
-0.132250
-0.380105
-0.373776
-0.159769
0.060527
0.118156
-0.027433
-0.262436
-0.373761
-0.219232
0.105516
0.306644
0.163519
-0.230917
-0.538243
-0.490331
-0.122742
0.290308
0.491207
0.414551
0.157117
-0.158615
-0.457457
-0.654621
-0.603939
-0.226999
0.300010
0.626762
0.566764
0.280154
0.079697
0.128302
0.349795
0.537420
0.506617
0.235226
-0.090407
-0.228171
-0.119252
0.057652
0.091056
-0.037524
-0.166962
-0.168677
-0.083377
-0.037547
-0.076700
-0.117843
-0.061233
0.069714
0.129135
0.002311
-0.271007
-0.537583
-0.655336
-0.556016
-0.236617
0.226524
0.655474
0.853549
0.749362
0.433215
0.062775
-0.232972
-0.366718
-0.284808
-0.024702
0.256820
0.413097
0.443070
0.411901
0.291301
0.009447
-0.347762
-0.507533
-0.244788
0.372781
0.984078
1.170890
0.743385
-0.104241
-0.878627
-1.108313
-0.702033
-0.038062
0.356638
0.281009
-0.008558
-0.146091
-0.031074
0.171627
0.262455
0.156705
-0.087864
-0.295225
-0.287405
-0.067410
0.145878
0.127989
-0.123865
-0.392382
-0.446350
-0.258531
-0.042262
-0.054306
-0.352095
-0.746843
-0.966982
-0.845878
-0.391289
0.232830
0.737179
0.808704
0.350175
-0.339432
-0.745222
-0.583065
-0.032004
0.486632
0.680905
0.532450
0.213556
-0.038318
-0.045075
0.185268
0.431203
0.411717
0.028969
-0.524499
-0.915598
-0.917522
-0.517674
0.111453
0.658025
0.768886
0.284450
-0.538854
-1.132717
-1.074259
-0.445188
0.301094
0.750603
0.746844
0.353565
-0.206013
-0.617213
-0.669641
-0.439108
-0.190266
-0.086154
-0.077902
-0.081836
-0.138707
-0.314180
-0.517613
-0.546507
-0.319097
0.025503
0.280870
0.363080
0.332691
0.285721
0.249257
0.165817
-0.020495
-0.262689
-0.418195
-0.353860
-0.044021
0.373388
0.620326
0.444688
-0.173477
-0.971219
-1.545061
-1.585784
-1.074094
-0.291855
0.392723
0.782508
0.905694
0.854429
0.636790
0.219839
-0.320797
-0.763506
-0.875684
-0.584577
-0.061633
0.325377
0.229017
-0.367371
-1.030150
-1.171956
-0.569120
0.389198
0.994838
0.820458
0.080887
-0.581038
-0.677993
-0.272230
0.184549
0.349313
0.251352
0.090352
-0.044427
-0.147971
-0.145118
0.041967
0.303625
0.390280
0.207937
-0.030192
-0.035944
0.214213
0.466282
0.489686
0.288629
0.024570
-0.164583
-0.243449
-0.249755
-0.237878
-0.254751
-0.348722
-0.559382
-0.868624
-1.168300
-1.310933
-1.227630
-0.992385
-0.744861
-0.546666
-0.335145
-0.061298
0.126025
-0.053011
-0.659172
-1.323776
-1.522358
-1.084785
-0.382270
0.017340
-0.148321
-0.691682
-1.238471
-1.499719
-1.314818
-0.653647
0.268915
0.993780
1.136077
0.741568
0.235231
-0.012696
0.005149
0.085442
0.159167
0.355267
0.741550
1.132865
1.233681
0.937143
0.420776
-0.039848
-0.278537
-0.276545
-0.124166
0.006705
-0.036935
-0.230322
-0.370455
-0.297683
-0.080857
0.052149
-0.062658
-0.380306
-0.678039
-0.708951
-0.387741
0.076510
0.229949
-0.301942
-1.402673
-2.401035
-2.540542
-1.594286
-0.062860
1.200928
1.609558
1.198585
0.465782
-0.084366
-0.251130
-0.142985
-0.029956
-0.162387
-0.582221
-1.045040
-1.172817
-0.738437
0.142451
1.036516
1.428750
1.064556
0.170501
-0.680968
-1.013208
-0.776581
-0.234707
0.369575
0.906911
1.210944
1.072620
0.483432
-0.220094
-0.571516
-0.342347
0.302406
0.946478
1.204879
0.962830
0.425751
-0.057097
-0.254143
-0.183391
-0.031766
0.019333
-0.093661
-0.287222
-0.360533
-0.129501
0.383385
0.908249
1.120433
0.892818
0.370672
-0.197312
-0.674488
-1.040319
-1.219206
-1.031313
-0.395618
0.450889
1.026276
0.962187
0.305401
-0.541676
-1.155587
-1.346581
-1.155172
-0.739581
-0.316046
-0.097620
-0.172387
-0.432806
-0.649803
-0.635689
-0.370893
0.010255
0.348342
0.565046
0.688796
0.812745
0.981096
1.099809
1.015447
0.688113
0.237788
-0.178640
-0.490324
-0.706332
-0.827450
-0.779558
-0.434044
0.245936
1.043955
1.553577
1.467813
0.807583
-0.101640
-0.848006
-1.171028
-1.065615
-0.728423
-0.418750
-0.302475
-0.351337
-0.382168
-0.241486
0.029416
0.257096
0.361847
0.423083
0.477947
0.369464
-0.080372
-0.773193
-1.312518
-1.306016
-0.679165
0.264872
1.059163
1.375425
1.168849
0.617676
0.011627
-0.352331
-0.321829
-0.007182
0.306295
0.409995
0.317241
0.150452
-0.049998
-0.313070
-0.543971
-0.487078
0.011627
0.759236
1.319501
1.363520
0.914352
0.283646
-0.192511
-0.355628
-0.249593
-0.021953
0.225346
0.498209
0.796016
0.989998
0.888741
0.424285
-0.241236
-0.799770
-1.007550
-0.839644
-0.470965
-0.121792
0.095948
0.207223
0.280926
0.336079
0.339908
0.281218
0.219715
0.228843
0.294179
0.321381
0.267950
0.235703
0.399466
0.820102
1.324476
1.614158
1.528119
1.179197
0.827010
0.658802
0.690783
0.802135
0.824137
0.654824
0.359545
0.158594
0.243150
0.556510
0.809629
0.774755
0.518425
0.268335
0.116492
-0.001368
-0.066868
0.084598
0.515571
0.994270
1.169327
0.920557
0.471563
0.175268
0.233310
0.571887
0.904480
0.926599
0.537319
-0.084903
-0.652391
-1.020574
-1.231657
-1.327286
-1.227491
-0.864143
-0.373023
-0.051796
-0.102425
-0.447022
-0.807150
-0.942024
-0.805730
-0.509473
-0.164574
0.236252
0.764378
1.354556
1.715516
1.541245
0.825276
-0.083264
-0.749487
-0.959443
-0.774884
-0.348601
0.252924
1.017629
1.811582
2.319852
2.228340
1.484897
0.399439
-0.498622
-0.744423
-0.206550
0.803914
1.702034
2.007814
1.634677
0.883006
0.207963
-0.070659
0.066505
0.387884
0.556832
0.281461
-0.501304
-1.514210
-2.297823
-2.566982
-2.407288
-2.105975
-1.849417
-1.628870
-1.379899
-1.128572
-0.964108
-0.892710
-0.795784
-0.551959
-0.127653
0.460130
1.180012
1.950368
2.614966
2.990968
2.950063
2.477942
1.698045
0.842819
0.156881
-0.215607
-0.281481
-0.159830
0.020708
0.197344
0.330005
0.318708
0.063275
-0.359235
-0.651348
-0.519284
0.014920
0.535997
0.545119
-0.073016
-0.893174
-1.301120
-1.005426
-0.233051
0.485862
0.708571
0.336383
-0.442522
-1.377187
-2.254167
-2.846167
-2.910301
-2.324968
-1.236028
-0.052455
0.740379
0.863349
0.432860
-0.138320
-0.471133
-0.468262
-0.281630
-0.097817
0.049211
0.288235
0.730651
1.278555
1.631696
1.491110
0.788756
-0.220515
-1.097067
-1.509511
-1.430058
-1.073419
-0.694248
-0.449931
-0.404302
-0.590130
-0.993783
-1.452972
-1.646137
-1.297897
-0.452919
0.459272
0.878419
0.512749
-0.433241
-1.390411
-1.816483
-1.553148
-0.889208
-0.302481
-0.109715
-0.302812
-0.660680
-0.983753
-1.205012
-1.299718
-1.183748
-0.795647
-0.260905
0.135221
0.192301
-0.036218
-0.336707
-0.540736
-0.630006
-0.706982
-0.887288
-1.173932
-1.413825
-1.408467
-1.096228
-0.624400
-0.214679
0.053839
0.286172
0.573168
0.806881
0.749281
0.284423
-0.414128
-0.980457
-1.141466
-0.917002
-0.527452
-0.124541
0.320891
0.881331
1.537997
2.188383
2.667175
2.751044
2.281567
1.374823
0.470554
0.063220
0.287225
0.771469
0.983430
0.737466
0.320688
0.137898
0.300678
0.563136
0.601096
0.314033
-0.147510
-0.589606
-0.920051
-1.106456
-1.111581
-0.921016
-0.593264
-0.261470
-0.082403
-0.149052
-0.417233
-0.706050
-0.784114
-0.507557
0.062671
0.664961
0.993898
0.890507
0.415822
-0.212281
-0.739056
-0.965960
-0.792824
-0.258716
0.429950
0.999083
1.310060
1.441557
1.556006
1.733356
1.952677
2.174483
2.364113
2.435118
2.270721
1.876473
1.446292
1.188265
1.115186
1.063652
0.890812
0.615403
0.393965
0.394396
0.687277
1.221666
1.851899
2.381750
2.652484
2.634127
2.419981
2.154401
1.991869
2.050218
2.295478
2.467003
2.195717
1.282824
-0.079272
-1.361548
-2.024402
-1.861574
-1.119374
-0.346426
-0.070428
-0.482885
-1.332909
-2.104901
-2.361536
-2.015912
-1.340933
-0.733253
-0.458765
-0.584904
-1.067409
-1.820895
-2.717984
-3.588443
-4.254633
-4.585957
-4.566069
-4.332780
-4.099327
-3.966439
-3.808945
-3.394737
-2.649754
-1.792115
-1.156919
-0.869423
-0.722185
-0.391068
0.246641
1.003738
1.566531
1.790659
1.812044
1.841477
1.885420
1.753845
1.359792
0.922372
0.773892
0.979701
1.251279
1.259185
0.957178
0.579269
0.384999
0.440542
0.592801
0.583119
0.206668
-0.533752
-1.381434
-1.980579
-2.140051
-1.982838
-1.858613
-2.111400
-2.884516
-4.046857
-5.233674
-6.003534
-6.071748
-5.469965
-4.497512
-3.502271
-2.667708
-1.967390
-1.285179
-0.554924
0.171120
0.714212
0.844329
0.472180
-0.157208
-0.511539
-0.132322
0.988163
2.399362
3.558029
4.192605
4.378000
4.377350
4.455570
4.766782
5.295469
5.849061
6.176190
6.184350
6.018283
5.842928
5.574794
4.935358
3.782781
2.312765
0.932355
0.001181
-0.332841
-0.153599
0.309026
0.814163
1.218426
1.489042
1.633464
1.650254
1.555067
1.405603
1.265503
1.164529
1.109362
1.092965
1.064910
0.953754
0.790853
0.767903
1.062303
1.588598
2.007034
2.029742
1.679350
1.202143
0.789189
0.482906
0.305929
0.314091
0.465543
0.541796
0.302990
-0.280079
-0.994556
-1.587388
-1.964322
-2.183666
-2.314534
-2.371824
-2.366257
-2.321314
-2.215109
-1.971684
-1.548723
-1.016592
-0.534657
-0.245623
-0.195657
-0.344406
-0.582215
-0.689896
-0.375353
0.496341
1.661434
2.530380
2.625184
1.999598
1.208790
0.857700
1.175485
1.943930
2.709449
3.051904
2.792767
2.088312
1.340484
0.952601
1.097174
1.659884
2.371112
2.972554
3.276389
3.160131
2.608213
1.770174
0.926473
0.335534
0.053616
-0.106441
-0.387667
-0.815389
-1.106961
-0.871054
0.071016
1.508221
2.946098
3.904459
4.151544
3.719654
2.802953
1.680932
0.646989
-0.110922
-0.596445
-0.957575
-1.348405
-1.792606
-2.106670
-1.977427
-1.199511
0.138667
1.695578
3.082588
4.065006
4.619687
4.831992
4.775660
4.506441
4.110558
3.692312
3.313361
2.962546
2.592440
2.192280
1.800026
1.403287
0.866087
0.049349
-0.977293
-1.916116
-2.470222
-2.562922
-2.341530
-2.037113
-1.821783
-1.698715
-1.484465
-0.971865
-0.159775
0.704105
1.324053
1.592681
1.622045
1.544789
1.334527
0.870768
0.153131
-0.578945
-0.924216
-0.552468
0.548288
2.015047
3.309703
3.985245
3.825470
2.872569
1.392685
-0.240461
-1.688333
-2.709314
-3.140472
-2.878160
-1.920383
-0.467007
1.060388
2.206315
2.735975
2.696179
2.264051
1.592281
0.784657
-0.069608
-0.904767
-1.693384
-2.392477
-2.866491
-2.915243
-2.460244
-1.746329
-1.299643
-1.564343
-2.497655
-3.528647
-3.977144
-3.562484
-2.513366
-1.226029
0.074238
1.321062
2.420931
3.204104
3.525942
3.373287
2.900331
2.370114
2.020801
1.966548
2.219540
2.754292
3.500441
4.297590
4.903115
5.067963
4.649540
3.713854
2.554469
1.589720
1.181167
1.452667
2.191772
2.924618
3.180031
2.769912
1.847753
0.723837
-0.349072
-1.239894
-1.874987
-2.193398
-2.192769
-1.959874
-1.605214
-1.211060
-0.863501
-0.638761
-0.486846
-0.197590
0.420608
1.309716
2.125378
2.442712
2.029138
0.962742
-0.465821
-1.935173
-3.212288
-4.173967
-4.752128
-4.856507
-4.372326
-3.273869
-1.751630
-0.189352
1.048844
1.847276
2.359685
2.814139
3.318197
3.834094
4.283490
4.637942
4.891983
4.955858
4.647938
3.849016
2.626580
1.214099
-0.041784
-0.747917
-0.661416
0.078897
0.969200
1.464245
1.318736
0.637936
-0.353993
-1.542671
-2.920105
-4.409091
-5.759093
-6.649425
-6.909360
-6.675179
-6.358165
-6.414402
-7.062559
-8.165964
-9.359844
-10.304499
-10.885626
-11.243187
-11.618601
-12.155233
-12.824976
-13.497305
-14.044570
-14.418958
-14.669090
-14.856345
-14.916525
-14.618028
-13.701268
-12.077699
-9.876875
-7.304450
-4.509951
-1.629067
1.094317
3.309995
4.730204
5.316997
5.318437
5.122720
5.049528
5.224283
5.590721
6.006241
6.320929
6.391583
6.066923
5.216759
3.822359
2.057428
0.283146
-1.052640
-1.564006
-1.058569
0.387309
2.420323
4.480248
5.955832
6.385694
5.605289
3.770652
1.288386
-1.301819
-3.485319
-4.918444
-5.468138
-5.148844
-4.069085
-2.444647
-0.598972
1.124956
2.483402
3.380911
3.842544
3.953582
3.800874
3.483014
3.197441
3.245249
3.850060
4.954191
6.209455
7.155653
7.438701
6.982933
6.056861
5.126104
4.525885
4.236641
3.988165
3.546769
2.862426
1.973442
0.850399
-0.612662
-2.453756
-4.515728
-6.475243
-8.001161
-8.912011
-9.228203
-9.103220
-8.707714
-8.176681
-7.648085
-7.294635
-7.267407
-7.606049
-8.208524
-8.868667
-9.337388
-9.392040
-8.919988
-7.980462
-6.774213
-5.508717
-4.260081
-2.975342
-1.635527
-0.402214
0.437687
0.694860
0.474470
0.190200
0.365950
1.331728
3.008821
4.943029
6.565738
7.481422
7.589108
7.025343
6.058457
5.029713
4.301606
4.139073
4.570598
5.359651
6.129915
6.552483
6.467180
5.888348
4.930460
3.697194
2.208349
0.453204
-1.502742
-3.520426
-5.478354
-7.310130
-8.965434
-10.379908
-11.494738
-12.275403
-12.672638
-12.561408
-11.766356
-10.203683
-8.010374
-5.527196
-3.156690
-1.204012
0.223143
1.224536
2.029370
2.870989
3.877711
5.023571
6.151968
7.069982
7.672623
8.005337
8.200223
8.336704
8.362876
8.165018
7.719008
7.154963
6.658372
6.337337
6.216275
6.306132
6.589548
6.923096
7.019546
6.597298
5.588760
4.215167
2.854184
1.825373
1.269331
1.166123
1.422719
1.947023
2.666334
3.508474
4.388820
5.214543
5.894358
6.349125
6.515959
6.345056
5.823744
5.033820
4.159303
3.388037
2.781080
2.226300
1.521075
0.533940
-0.674823
-1.875783
-2.822843
-3.424005
-3.811373
-4.250116
-4.936373
-5.839443
-6.721141
-7.317616
-7.543663
-7.561158
-7.652899
-8.018088
-8.667556
-9.458876
-10.171736
-10.532295
-10.199022
-8.825445
-6.276141
-2.850718
0.721758
3.546485
4.941893
4.775911
3.554352
2.133920
1.227594
1.039981
1.253489
1.351222
1.037321
0.425024
-0.142852
-0.429994
-0.469797
-0.451190
-0.499680
-0.566745
-0.470905
0.001837
1.004082
2.544158
4.436298
6.325803
7.789383
8.469752
8.205080
7.105386
5.491716
3.673149
1.727893
-0.479669
-3.048037
-5.812786
-8.354570
-10.205304
-11.093254
-11.096930
-10.615525
-10.138457
-9.949520
-9.973535
-9.861103
-9.221993
-7.840360
-5.781869
-3.385444
-1.142239
0.501952
1.320957
1.370696
0.930967
0.373309
0.013211
0.005190
0.329370
0.868271
1.503202
2.149452
2.711660
3.015835
2.809904
1.872482
0.159365
-2.120381
-4.545838
-6.628816
-7.998919
-8.522791
-8.288268
-7.496898
-6.369125
-5.105786
-3.853796
-2.638374
-1.332352
0.253520
2.204802
4.396775
6.522958
8.224335
9.230726
9.446880
8.960985
7.970008
6.648549
5.058570
3.191466
1.100180
-1.020772
-2.870700
-4.122495
-4.479446
-3.738423
-1.889776
0.822576
3.971341
7.102062
9.854669
12.006865
13.479795
14.330163
14.704477
14.746970
14.511069
13.939771
12.933856
11.470151
9.695387
7.916278
6.468139
5.538960
5.068764
4.809447
4.512076
4.085755
3.602723
3.174645
2.819688
2.426891
1.834490
0.938521
-0.254821
-1.642430
-3.074582
-4.423935
-5.646117
-6.786261
-7.912077
-9.021335
-10.009299
-10.725808
-11.054026
-10.937408
-10.368806
-9.391740
-8.112613
-6.692210
-5.315084
-4.163563
-3.413485
-3.235462
-3.765680
-5.039867
-6.931438
-9.139619
-11.251522
-12.878141
-13.807183
-14.071502
-13.884379
-13.489935
-13.025649
-12.479838
-11.759001
-10.799507
-9.635126
-8.379794
-7.160714
-6.078398
-5.221694
-4.673563
-4.446556
-4.400366
-4.256780
-3.738871
-2.726155
-1.307566
0.275727
1.740549
2.885291
3.679747
4.252342
4.768577
5.299361
5.790723
6.143720
6.314527
6.357091
6.399606
6.567110
6.872570
7.150339
7.113627
6.524283
5.356866
3.828214
2.278023
1.024182
0.303038
0.256878
0.887675
2.016953
3.333324
4.489554
5.168477
5.129455
4.269179
2.672264
0.612638
-1.512805
-3.302641
-4.459447
-4.834109
-4.420440
-3.340608
-1.817257
-0.119014
1.486248
2.745551
3.450817
3.526064
3.105220
2.494573
2.021153
1.887950
2.144304
2.754738
3.653222
4.714915
5.720388
6.425230
6.686406
6.499388
5.947183
5.165767
4.333352
3.629484
3.161462
2.901649
2.685302
2.287084
1.540705
0.435274
-0.870317
-2.125368
-3.087704
-3.560883
-3.393377
-2.532377
-1.107277
0.584236
2.199891
3.461815
4.189821
4.312517
3.885780
3.075285
2.079030
1.045870
0.063073
-0.798898
-1.463652
-1.876862
-2.036764
-1.985608
-1.769075
-1.399462
-0.860305
-0.165353
0.570087
1.141945
1.399604
1.396875
1.369489
1.532321
1.900282
2.314848
2.624809
2.811155
2.946882
3.086374
3.215755
3.270624
3.168317
2.850632
2.333518
1.713853
1.110455
0.588078
0.130877
-0.310738
-0.740752
-1.088106
-1.265275
-1.244481
-1.053024
-0.700945
-0.153263
0.600745
1.467461
2.268281
2.847808
3.159742
3.244148
3.108675
2.626262
1.586936
-0.088597
-2.161228
-4.113553
-5.405768
-5.747954
-5.213179
-4.152412
-2.977234
-1.945968
-1.102741
-0.399784
0.133704
0.347218
0.088285
-0.645687
-1.676731
-2.737671
-3.571434
-3.977725
-3.840338
-3.165493
-2.097366
-0.864394
0.324328
1.357942
2.224223
2.947950
3.532648
3.944111
4.117751
3.971026
3.434927
2.510427
1.308331
0.026983
-1.120059
-1.984800
-2.544083
-2.904120
-3.225077
-3.596322
-3.951956
-4.100391
-3.845520
-3.107098
-1.971349
-0.658397
0.565603
1.474916
1.932370
1.915461
1.531671
0.985401
0.475554
0.083857
