EVENT_NAME: EMILIA_2ND_SHOCK
EVENT_ID: IT-2012-0011
EVENT_DATE_YYYYMMDD: 20120529
EVENT_TIME_HHMMSS: 070002
EVENT_LATITUDE_DEGREE: 44.8417
EVENT_LONGITUDE_DEGREE: 11.0657
EVENT_DEPTH_KM: 8.1
HYPOCENTER_REFERENCE: INGV-CNT_Seismic_Bulletin
MAGNITUDE_W: 6.0
MAGNITUDE_W_REFERENCE: RCMT-INGV
MAGNITUDE_L: 5.8
MAGNITUDE_L_REFERENCE: INGV-CNT_Seismic_Bulletin
FOCAL_MECHANISM: TF
NETWORK: IV
STATION_CODE: T0800
STATION_NAME: T0800
STATION_LATITUDE_DEGREE: 44.848600
STATION_LONGITUDE_DEGREE: 11.247900
STATION_ELEVATION_M: 9
LOCATION: 
SENSOR_DEPTH_M: 1.0
VS30_M/S: 
SITE_CLASSIFICATION_EC8: C*
MORPHOLOGIC_CLASSIFICATION: 
EPICENTRAL_DISTANCE_KM: 14.4
EARTHQUAKE_BACKAZIMUTH_DEGREE: 267.0
DATE_TIME_FIRST_SAMPLE_YYYYMMDD_HHMMSS: 20120529_065949.000
DATE_TIME_FIRST_SAMPLE_PRECISION: milliseconds
SAMPLING_INTERVAL_S: 0.005000
NDATA: 20001
DURATION_S: 100.005
STREAM: HNZ
UNITS: cm
INSTRUMENT: sensor = Episensor FBA ES-T [Kinemetrics] | digitizer = Unknown [Unknown]
INSTRUMENT_ANALOG/DIGITAL: D
INSTRUMENTAL_FREQUENCY_HZ: 
INSTRUMENTAL_DAMPING: 
FULL_SCALE_G: 
N_BIT_DIGITAL_CONVERTER: 
PGD_CM: 0.812996
TIME_PGD_S: 23.320000
BASELINE_CORRECTION: BASELINE REMOVED
FILTER_TYPE: BUTTERWORTH
FILTER_ORDER: 2
LOW_CUT_FREQUENCY_HZ: 0.070
HIGH_CUT_FREQUENCY_HZ: 40.000
LATE/NORMAL_TRIGGERED: NT
DATABASE_VERSION: DYNA 1.0
HEADER_FORMAT: DYNA 1.2
DATA_TYPE: DISPLACEMENT
PROCESSING: manual (Paolucci et al., 2011)
DATA_TIMESTAMP_YYYYMMDD_HHMMSS: 
DATA_LICENSE: CC-BY4_0 (http://creativecommons.org/licenses/by/4.0/)
DATA_CITATION: ESM working group (2015), European Strong-Motion database, version 0.1, Network Activity 3: Networking acceleration networks and SM data users. Project NERA (www.nera-eu.org)
DATA_CREATOR: ESM working group
ORIGINAL_DATA_MEDIATOR_CITATION: Orfeus - European Integrated Data Archive (EIDA) http://www.orfeus-eu.org/eida/
ORIGINAL_DATA_MEDIATOR: Orfeus - European Integrated Data Archive (EIDA)
ORIGINAL_DATA_CREATOR_CITATION: Data for this study comes from the Italian national seismic network operated by Istituto Nazionale di Geofisica e Vulcanologia and archived at the European Integrated Data Archive http://eida.rm.ingv.it/
ORIGINAL_DATA_CREATOR: network: IV (Italian National Seismic Network); owner: Istituto Nazionale di Geofisica e Vulcanologia
USER1: 
USER2: 
USER3: 
USER4: 
USER5: 
[...]
-2.067365e-01
-2.059826e-01
-2.055831e-01
-2.054765e-01
-2.055038e-01
-2.055232e-01
-2.054555e-01
-2.052438e-01
-2.048226e-01
-2.041703e-01
-2.033834e-01
-2.026785e-01
-2.023022e-01
-2.023925e-01
-2.028957e-01
-2.036133e-01
-2.043311e-01
-2.049373e-01
-2.054579e-01
-2.059920e-01
-2.066272e-01
-2.074105e-01
-2.083528e-01
-2.094262e-01
-2.105604e-01
-2.116567e-01
-2.126144e-01
-2.133524e-01
-2.138234e-01
-2.140215e-01
-2.139844e-01
-2.137934e-01
-2.135675e-01
-2.134537e-01
-2.136093e-01
-2.141617e-01
-2.151219e-01
-2.162787e-01
-2.172158e-01
-2.175339e-01
-2.171028e-01
-2.161337e-01
-2.150584e-01
-2.143084e-01
-2.141472e-01
-2.146468e-01
-2.157377e-01
-2.172436e-01
-2.189222e-01
-2.205353e-01
-2.218822e-01
-2.227585e-01
-2.229509e-01
-2.223600e-01
-2.211302e-01
-2.196260e-01
-2.182541e-01
-2.172368e-01
-2.165254e-01
-2.159431e-01
-2.153689e-01
-2.147656e-01
-2.141174e-01
-2.134089e-01
-2.126541e-01
-2.119287e-01
-2.113647e-01
-2.110993e-01
-2.112221e-01
-2.117572e-01
-2.126646e-01
-2.138410e-01
-2.151377e-01
-2.164091e-01
-2.175460e-01
-2.184578e-01
-2.190569e-01
-2.192981e-01
-2.192499e-01
-2.191288e-01
-2.192308e-01
-2.197590e-01
-2.206880e-01
-2.217984e-01
-2.228390e-01
-2.236954e-01
-2.244407e-01
-2.252237e-01
-2.261220e-01
-2.270944e-01
-2.280196e-01
-2.287604e-01
-2.292267e-01
-2.294253e-01
-2.294703e-01
-2.295351e-01
-2.297619e-01
-2.301806e-01
-2.307041e-01
-2.312160e-01
-2.316409e-01
-2.319133e-01
-2.319383e-01
-2.316489e-01
-2.310920e-01
-2.304351e-01
-2.298736e-01
-2.294949e-01
-2.292214e-01
-2.288996e-01
-2.284234e-01
-2.277737e-01
-2.270054e-01
-2.262421e-01
-2.256538e-01
-2.253812e-01
-2.254550e-01
-2.257686e-01
-2.261095e-01
-2.262241e-01
-2.258889e-01
-2.249732e-01
-2.234934e-01
-2.216476e-01
-2.197782e-01
-2.182458e-01
-2.173167e-01
-2.171496e-01
-2.178140e-01
-2.192619e-01
-2.212913e-01
-2.235683e-01
-2.257051e-01
-2.273573e-01
-2.283115e-01
-2.285434e-01
-2.282401e-01
-2.277633e-01
-2.275163e-01
-2.277339e-01
-2.283538e-01
-2.291024e-01
-2.296942e-01
-2.299903e-01
-2.300492e-01
-2.300682e-01
-2.302734e-01
-2.308164e-01
-2.317154e-01
-2.328639e-01
-2.341145e-01
-2.354004e-01
-2.367842e-01
-2.383594e-01
-2.401058e-01
-2.418361e-01
-2.432658e-01
-2.441651e-01
-2.444741e-01
-2.443015e-01
-2.438697e-01
-2.434775e-01
-2.434367e-01
-2.439386e-01
-2.449227e-01
-2.460629e-01
-2.469214e-01
-2.472175e-01
-2.469882e-01
-2.464838e-01
-2.459548e-01
-2.455437e-01
-2.453064e-01
-2.452835e-01
-2.455026e-01
-2.458721e-01
-2.461153e-01
-2.458794e-01
-2.449297e-01
-2.432830e-01
-2.412190e-01
-2.391792e-01
-2.376202e-01
-2.368771e-01
-2.370346e-01
-2.378249e-01
-2.386607e-01
-2.388853e-01
-2.381224e-01
-2.365216e-01
-2.347069e-01
-2.333935e-01
-2.329932e-01
-2.335257e-01
-2.347963e-01
-2.366294e-01
-2.389357e-01
-2.415393e-01
-2.440224e-01
-2.458374e-01
-2.465873e-01
-2.462579e-01
-2.452554e-01
-2.442080e-01
-2.436634e-01
-2.438656e-01
-2.447525e-01
-2.461962e-01
-2.482515e-01
-2.511593e-01
-2.550949e-01
-2.598291e-01
-2.646353e-01
-2.686283e-01
-2.712200e-01
-2.723250e-01
-2.723041e-01
-2.717746e-01
-2.714005e-01
-2.717212e-01
-2.730276e-01
-2.752948e-01
-2.781973e-01
-2.812240e-01
-2.838488e-01
-2.857084e-01
-2.867519e-01
-2.872922e-01
-2.878265e-01
-2.886301e-01
-2.894998e-01
-2.899550e-01
-2.896491e-01
-2.886019e-01
-2.871149e-01
-2.854555e-01
-2.836381e-01
-2.815301e-01
-2.790779e-01
-2.763899e-01
-2.736914e-01
-2.712454e-01
-2.692541e-01
-2.677535e-01
-2.666120e-01
-2.657079e-01
-2.651420e-01
-2.652916e-01
-2.666458e-01
-2.694921e-01
-2.736831e-01
-2.786634e-01
-2.836593e-01
-2.878879e-01
-2.907562e-01
-2.920482e-01
-2.920051e-01
-2.912215e-01
-2.904221e-01
-2.902310e-01
-2.910140e-01
-2.928418e-01
-2.955800e-01
-2.990601e-01
-3.032031e-01
-3.079905e-01
-3.133380e-01
-3.189920e-01
-3.245667e-01
-3.297304e-01
-3.343419e-01
-3.383908e-01
-3.419097e-01
-3.450275e-01
-3.480380e-01
-3.513204e-01
-3.551758e-01
-3.597204e-01
-3.648795e-01
-3.704463e-01
-3.761026e-01
-3.813775e-01
-3.857201e-01
-3.887899e-01
-3.907043e-01
-3.919653e-01
-3.931373e-01
-3.944924e-01
-3.958149e-01
-3.964849e-01
-3.957863e-01
-3.933052e-01
-3.892034e-01
-3.841887e-01
-3.791934e-01
-3.748977e-01
-3.713718e-01
-3.680734e-01
-3.641884e-01
-3.591514e-01
-3.530399e-01
-3.465891e-01
-3.408639e-01
-3.367800e-01
-3.347608e-01
-3.347094e-01
-3.361499e-01
-3.383519e-01
-3.404637e-01
-3.417084e-01
-3.415679e-01
-3.398605e-01
-3.367356e-01
-3.326422e-01
-3.282602e-01
-3.243480e-01
-3.214774e-01
-3.197231e-01
-3.185682e-01
-3.172016e-01
-3.149825e-01
-3.117539e-01
-3.078718e-01
-3.039681e-01
-3.006310e-01
-2.981903e-01
-2.966674e-01
-2.958813e-01
-2.956272e-01
-2.958370e-01
-2.966559e-01
-2.983869e-01
-3.013209e-01
-3.055211e-01
-3.107134e-01
-3.163899e-01
-3.220317e-01
-3.272898e-01
-3.320196e-01
-3.361581e-01
-3.396090e-01
-3.422761e-01
-3.441824e-01
-3.455533e-01
-3.468063e-01
-3.484541e-01
-3.509810e-01
-3.547384e-01
-3.598319e-01
-3.659889e-01
-3.725181e-01
-3.784895e-01
-3.831300e-01
-3.862681e-01
-3.884318e-01
-3.903896e-01
-3.925673e-01
-3.948607e-01
-3.968696e-01
-3.982936e-01
-3.990934e-01
-3.992494e-01
-3.985435e-01
-3.967428e-01
-3.938927e-01
-3.903115e-01
-3.863180e-01
-3.819309e-01
-3.767791e-01
-3.703189e-01
-3.621613e-01
-3.522925e-01
-3.411615e-01
-3.296470e-01
-3.188356e-01
-3.096148e-01
-3.023417e-01
-2.968288e-01
-2.925504e-01
-2.888613e-01
-2.851107e-01
-2.806611e-01
-2.749805e-01
-2.678946e-01
-2.597564e-01
-2.512986e-01
-2.432947e-01
-2.362921e-01
-2.305897e-01
-2.264434e-01
-2.241644e-01
-2.238618e-01
-2.250983e-01
-2.268411e-01
-2.278129e-01
-2.270942e-01
-2.245445e-01
-2.207172e-01
-2.164645e-01
-2.125603e-01
-2.094937e-01
-2.074535e-01
-2.064090e-01
-2.061818e-01
-2.064570e-01
-2.067350e-01
-2.063190e-01
-2.044522e-01
-2.006505e-01
-1.951260e-01
-1.889384e-01
-1.836094e-01
-1.804679e-01
-1.801350e-01
-1.823731e-01
-1.863203e-01
-1.908708e-01
-1.949879e-01
-1.979733e-01
-1.996995e-01
-2.005849e-01
-2.011827e-01
-2.017415e-01
-2.021443e-01
-2.022141e-01
-2.021111e-01
-2.024106e-01
-2.036926e-01
-2.061081e-01
-2.093731e-01
-2.129932e-01
-2.163939e-01
-2.189780e-01
-2.202554e-01
-2.200558e-01
-2.186873e-01
-2.167994e-01
-2.148871e-01
-2.128827e-01
-2.102514e-01
-2.064202e-01
-2.011898e-01
-1.949320e-01
-1.885092e-01
-1.829984e-01
-1.793397e-01
-1.780508e-01
-1.791176e-01
-1.820723e-01
-1.862052e-01
-1.907823e-01
-1.951553e-01
-1.987633e-01
-2.010867e-01
-2.016528e-01
-2.001868e-01
-1.968750e-01
-1.925630e-01
-1.885185e-01
-1.856355e-01
-1.837213e-01
-1.815473e-01
-1.775891e-01
-1.709449e-01
-1.617254e-01
-1.505853e-01
-1.381088e-01
-1.247657e-01
-1.111908e-01
-9.825121e-02
-8.673730e-02
-7.686777e-02
-6.814589e-02
-5.986070e-02
-5.168196e-02
-4.374533e-02
-3.634225e-02
-2.959152e-02
-2.333347e-02
-1.728398e-02
-1.121764e-02
-4.989275e-03
1.502381e-03
8.284395e-03
1.531128e-02
2.260247e-02
3.038374e-02
3.906062e-02
4.902911e-02
6.042912e-02
7.299212e-02
8.607972e-02
9.885270e-02
1.104892e-01
1.204326e-01
1.286197e-01
1.355049e-01
1.417387e-01
1.476610e-01
1.529124e-01
1.564832e-01
1.573110e-01
1.549913e-01
1.500684e-01
1.437151e-01
1.369830e-01
1.303030e-01
1.237315e-01
1.175271e-01
1.124303e-01
1.094518e-01
1.093222e-01
1.120836e-01
1.171396e-01
1.234742e-01
1.297500e-01
1.345194e-01
1.367769e-01
1.364788e-01
1.345633e-01
1.324641e-01
1.314074e-01
1.319711e-01
1.341953e-01
1.379294e-01
1.430256e-01
1.493716e-01
1.569175e-01
1.658013e-01
1.765137e-01
1.897880e-01
2.059914e-01
2.243478e-01
2.425865e-01
2.575734e-01
2.669412e-01
2.705043e-01
2.702959e-01
2.694629e-01
2.707966e-01
2.756323e-01
2.835792e-01
2.930041e-01
3.019815e-01
3.092630e-01
3.147854e-01
3.194179e-01
3.240811e-01
3.291812e-01
3.350040e-01
3.422346e-01
3.516864e-01
3.636216e-01
3.774973e-01
3.925194e-01
4.087141e-01
4.272693e-01
4.493063e-01
4.741815e-01
4.988820e-01
5.190890e-01
5.314920e-01
5.356009e-01
5.335679e-01
5.284839e-01
5.224450e-01
5.157055e-01
5.074798e-01
4.972440e-01
4.852483e-01
4.722037e-01
4.586764e-01
4.447621e-01
4.303191e-01
4.154060e-01
4.004703e-01
3.861569e-01
3.728325e-01
3.601573e-01
3.470549e-01
3.322260e-01
3.150937e-01
2.965739e-01
2.790344e-01
2.653218e-01
2.572094e-01
2.543001e-01
2.542628e-01
2.541583e-01
2.520377e-01
2.477487e-01
2.423615e-01
2.370025e-01
2.321300e-01
2.275626e-01
2.230755e-01
2.189454e-01
2.159091e-01
2.146049e-01
2.149018e-01
2.157279e-01
2.157124e-01
2.140737e-01
2.110432e-01
2.076688e-01
2.051953e-01
2.044822e-01
2.058017e-01
2.089133e-01
2.132500e-01
2.182485e-01
2.237371e-01
2.298886e-01
2.365396e-01
2.427446e-01
2.473155e-01
2.497107e-01
2.503448e-01
2.501947e-01
2.501257e-01
2.506796e-01
2.525746e-01
2.569193e-01
2.643451e-01
2.739823e-01
2.834807e-01
2.900872e-01
2.921271e-01
2.899198e-01
2.854772e-01
2.813495e-01
2.793509e-01
2.798510e-01
2.819929e-01
2.844661e-01
2.862722e-01
2.871038e-01
2.871985e-01
2.869256e-01
2.864523e-01
2.856868e-01
2.845308e-01
2.831902e-01
2.822478e-01
2.824014e-01
2.840056e-01
2.868823e-01
2.906832e-01
2.953629e-01
3.012579e-01
3.088447e-01
3.184226e-01
3.298254e-01
3.422374e-01
3.543027e-01
3.646336e-01
3.724316e-01
3.778045e-01
3.815329e-01
3.843696e-01
3.865206e-01
3.877825e-01
3.878911e-01
3.865787e-01
3.835651e-01
3.788006e-01
3.727348e-01
3.662539e-01
3.603078e-01
3.554747e-01
3.518144e-01
3.491329e-01
3.472312e-01
3.458147e-01
3.444257e-01
3.427308e-01
3.407570e-01
3.386775e-01
3.365305e-01
3.343578e-01
3.326059e-01
3.323384e-01
3.348825e-01
3.409321e-01
3.499116e-01
3.602727e-01
3.703192e-01
3.788587e-01
3.853854e-01
3.898325e-01
3.922719e-01
3.928855e-01
3.921279e-01
3.908066e-01
3.898237e-01
3.896077e-01
3.898507e-01
3.899521e-01
3.895598e-01
3.885508e-01
3.867187e-01
3.836988e-01
3.792501e-01
3.736291e-01
3.674930e-01
3.611692e-01
3.542362e-01
3.461451e-01
3.370369e-01
3.277479e-01
3.192194e-01
3.119525e-01
3.058389e-01
3.003790e-01
2.949966e-01
2.892325e-01
2.829294e-01
2.764565e-01
2.706226e-01
2.660769e-01
2.627729e-01
2.600421e-01
2.569828e-01
2.527011e-01
2.464150e-01
2.376232e-01
2.264049e-01
2.137049e-01
2.012152e-01
1.906810e-01
1.832027e-01
1.791212e-01
1.783597e-01
1.808182e-01
1.864964e-01
1.952360e-01
2.063636e-01
2.185703e-01
2.301403e-01
2.394709e-01
2.456187e-01
2.486088e-01
2.494203e-01
2.496287e-01
2.507734e-01
2.536425e-01
2.579193e-01
2.625203e-01
2.663674e-01
2.690838e-01
2.711434e-01
2.733565e-01
2.763211e-01
2.803856e-01
2.857955e-01
2.925757e-01
3.002927e-01
3.080457e-01
3.148028e-01
3.199352e-01
3.234997e-01
3.259753e-01
3.278136e-01
3.292504e-01
3.304067e-01
3.315105e-01
3.330423e-01
3.356614e-01
3.399196e-01
3.459099e-01
3.531852e-01
3.611381e-01
3.694896e-01
3.784427e-01
3.884144e-01
3.995264e-01
4.112778e-01
4.226843e-01
4.326450e-01
4.402453e-01
4.450340e-01
4.473343e-01
4.483412e-01
4.497592e-01
4.531185e-01
4.591250e-01
4.674473e-01
4.770820e-01
4.867987e-01
4.952391e-01
5.009676e-01
5.028535e-01
5.005889e-01
4.949300e-01
4.874251e-01
4.796871e-01
4.727490e-01
4.669487e-01
4.621570e-01
4.580293e-01
4.542334e-01
4.506510e-01
4.473848e-01
4.444967e-01
4.418187e-01
4.391461e-01
4.365880e-01
4.346845e-01
4.341182e-01
4.351598e-01
4.374296e-01
4.403326e-01
4.436225e-01
4.474866e-01
4.522874e-01
4.583128e-01
4.656316e-01
4.740057e-01
4.828419e-01
4.912521e-01
4.983594e-01
5.038062e-01
5.079679e-01
5.115185e-01
5.147945e-01
5.175438e-01
5.191481e-01
5.191139e-01
5.174595e-01
5.147225e-01
5.116559e-01
5.088138e-01
5.062537e-01
5.035632e-01
5.002845e-01
4.965631e-01
4.933986e-01
4.920587e-01
4.931491e-01
4.960933e-01
4.994164e-01
5.017751e-01
5.029629e-01
5.041328e-01
5.071891e-01
5.136966e-01
5.239388e-01
5.366679e-01
5.496057e-01
5.604451e-01
5.677827e-01
5.715003e-01
5.726083e-01
5.727409e-01
5.734982e-01
5.758442e-01
5.798308e-01
5.848175e-01
5.899843e-01
5.948136e-01
5.992955e-01
6.037900e-01
6.087947e-01
6.148280e-01
6.222964e-01
6.312221e-01
6.410563e-01
6.508261e-01
6.595242e-01
6.665028e-01
6.716652e-01
6.753842e-01
6.783193e-01
6.812650e-01
6.848994e-01
6.893725e-01
6.941026e-01
6.981031e-01
7.005813e-01
7.013431e-01
7.007161e-01
6.990473e-01
6.964012e-01
6.929082e-01
6.892733e-01
6.867829e-01
6.867501e-01
6.897312e-01
6.951051e-01
7.013982e-01
7.070078e-01
7.108274e-01
7.125720e-01
7.127750e-01
7.125151e-01
7.129549e-01
7.148475e-01
7.182330e-01
7.225605e-01
7.272666e-01
7.323091e-01
7.381709e-01
7.454357e-01
7.542953e-01
7.643474e-01
7.748197e-01
7.848878e-01
7.937930e-01
8.009281e-01
8.060678e-01
8.094812e-01
8.116602e-01
8.128846e-01
8.129959e-01
8.115469e-01
8.082396e-01
8.032196e-01
7.969110e-01
7.896774e-01
7.816915e-01
7.730450e-01
7.639687e-01
7.550041e-01
7.469980e-01
7.408620e-01
7.371646e-01
7.358508e-01
7.363300e-01
7.377917e-01
7.394879e-01
7.408376e-01
7.413694e-01
7.407367e-01
7.389317e-01
7.364008e-01
7.337989e-01
7.316227e-01
7.300714e-01
7.291924e-01
7.291548e-01
7.303399e-01
7.330747e-01
7.372907e-01
7.424440e-01
7.477257e-01
7.524193e-01
7.561883e-01
7.591307e-01
7.616288e-01
7.640910e-01
7.667035e-01
7.692985e-01
7.714015e-01
7.724593e-01
7.721156e-01
7.703824e-01
7.676433e-01
7.644942e-01
7.615129e-01
7.590483e-01
7.570624e-01
7.550754e-01
7.523178e-01
7.481242e-01
7.423357e-01
7.354301e-01
7.282866e-01
7.216830e-01
7.158971e-01
7.107113e-01
7.056888e-01
7.004644e-01
6.948987e-01
6.890561e-01
6.830876e-01
6.771122e-01
6.711267e-01
6.649786e-01
6.584766e-01
6.516289e-01
6.447788e-01
6.384265e-01
6.328600e-01
6.278678e-01
6.227884e-01
6.169379e-01
6.099841e-01
6.018977e-01
5.926944e-01
5.823386e-01
5.708990e-01
5.588126e-01
5.468952e-01
5.359231e-01
5.262125e-01
5.176273e-01
5.098643e-01
5.026855e-01
4.959582e-01
4.895387e-01
4.832068e-01
4.767851e-01
4.702904e-01
4.639466e-01
4.581170e-01
4.532436e-01
4.497422e-01
4.478043e-01
4.472376e-01
4.475033e-01
4.479517e-01
4.481376e-01
4.479803e-01
4.476322e-01
4.472462e-01
4.468805e-01
4.465586e-01
4.463869e-01
4.465829e-01
4.473449e-01
4.486967e-01
4.504692e-01
4.524317e-01
4.544932e-01
4.568116e-01
4.597093e-01
4.634969e-01
4.683477e-01
4.742645e-01
4.811158e-01
4.886727e-01
4.966155e-01
5.045703e-01
5.122168e-01
5.193794e-01
5.260137e-01
5.321424e-01
5.378292e-01
5.432033e-01
5.484903e-01
5.539667e-01
5.598118e-01
5.659906e-01
5.722865e-01
5.784127e-01
5.840925e-01
5.890955e-01
5.932703e-01
5.966114e-01
5.993498e-01
6.019604e-01
6.050061e-01
6.089051e-01
6.137585e-01
6.193325e-01
6.252142e-01
6.310332e-01
6.366129e-01
6.419751e-01
6.471979e-01
6.522448e-01
6.569012e-01
6.608623e-01
6.639319e-01
6.661694e-01
6.678479e-01
6.692684e-01
6.705656e-01
6.716577e-01
6.723946e-01
6.727220e-01
6.726877e-01
6.723612e-01
6.718021e-01
6.711068e-01
6.704798e-01
6.702211e-01
6.705795e-01
6.716100e-01
6.731628e-01
6.749521e-01
6.766219e-01
6.778329e-01
6.784017e-01
6.784133e-01
6.781989e-01
6.781543e-01
6.784565e-01
6.788587e-01
6.787243e-01
6.772849e-01
6.740113e-01
6.688898e-01
6.624307e-01
6.553985e-01
6.483975e-01
6.416081e-01
6.348852e-01
6.280457e-01
6.210762e-01
6.141357e-01
6.073777e-01
6.007985e-01
5.942658e-01
5.876172e-01
5.806870e-01
5.733040e-01
5.653431e-01
5.567937e-01
5.477629e-01
5.383695e-01
5.285792e-01
5.181732e-01
5.069559e-01
4.949676e-01
4.824663e-01
4.697579e-01
4.570629e-01
4.445039e-01
4.321948e-01
4.203072e-01
4.090278e-01
3.984936e-01
3.888010e-01
3.800406e-01
3.722919e-01
3.656048e-01
3.599973e-01
3.554152e-01
3.516293e-01
3.482028e-01
3.446338e-01
3.405471e-01
3.357586e-01
3.301822e-01
3.236831e-01
3.160884e-01
3.074390e-01
2.981690e-01
2.889304e-01
2.802466e-01
2.723035e-01
2.649838e-01
2.580885e-01
2.515221e-01
2.452928e-01
2.394415e-01
2.340426e-01
2.292173e-01
2.250639e-01
2.215385e-01
2.183844e-01
2.151811e-01
2.115144e-01
2.071227e-01
2.019007e-01
1.958298e-01
1.889501e-01
1.814059e-01
1.735242e-01
1.658222e-01
1.588821e-01
1.531827e-01
1.490013e-01
1.464018e-01
1.452752e-01
1.453745e-01
1.463179e-01
1.476103e-01
1.487322e-01
1.492764e-01
1.490704e-01
1.482074e-01
1.469376e-01
1.454761e-01
1.438247e-01
1.417207e-01
1.387712e-01
1.346838e-01
1.294601e-01
1.234473e-01
1.172044e-01
1.112667e-01
1.059274e-01
1.011294e-01
9.651563e-02
9.159246e-02
8.592403e-02
7.926876e-02
7.161199e-02
6.314385e-02
5.422661e-02
4.530701e-02
3.673680e-02
2.859169e-02
2.062534e-02
1.243940e-02
3.825143e-03
-5.000042e-03
-1.348646e-02
-2.104108e-02
-2.727166e-02
-3.206040e-02
-3.546334e-02
-3.758426e-02
-3.854788e-02
-3.852409e-02
-3.772754e-02
-3.641174e-02
-3.488672e-02
-3.350722e-02
-3.257752e-02
-3.222120e-02
-3.230564e-02
-3.249095e-02
-3.240639e-02
-3.182560e-02
-3.072079e-02
-2.922279e-02
-2.755846e-02
-2.599810e-02
-2.481249e-02
-2.421753e-02
-2.430105e-02
-2.497671e-02
-2.601104e-02
-2.711313e-02
-2.804293e-02
-2.867286e-02
-2.896656e-02
-2.892540e-02
-2.856982e-02
-2.796900e-02
-2.728540e-02
-2.675669e-02
-2.658097e-02
-2.681006e-02
-2.736017e-02
-2.811435e-02
-2.903105e-02
-3.017634e-02
-3.164814e-02
-3.347210e-02
-3.555524e-02
-3.770187e-02
-3.966748e-02
-4.123442e-02
-4.229009e-02
-4.286500e-02
-4.310149e-02
-4.318536e-02
-4.328517e-02
-4.351356e-02
-4.391177e-02
-4.445583e-02
-4.507741e-02
-4.567846e-02
-4.612588e-02
-4.624927e-02
-4.587469e-02
-4.490516e-02
-4.342119e-02
-4.171678e-02
-4.021785e-02
-3.935783e-02
-3.949111e-02
-4.082664e-02
-4.336118e-02
-4.688011e-02
-5.107811e-02
-5.571029e-02
-6.065244e-02
-6.584204e-02
-7.115835e-02
-7.639270e-02
-8.138752e-02
-8.617497e-02
-9.094149e-02
-9.587999e-02
-1.010631e-01
-1.063967e-01
-1.116569e-01
-1.165701e-01
-1.209023e-01
-1.245492e-01
-1.276074e-01
-1.303673e-01
-1.331915e-01
-1.363643e-01
-1.400103e-01
-1.440989e-01
-1.485060e-01
-1.530742e-01
-1.576322e-01
-1.619916e-01
-1.659581e-01
-1.693759e-01
-1.721972e-01
-1.745243e-01
-1.765740e-01
-1.785700e-01
-1.806177e-01
-1.826627e-01
-1.845836e-01
-1.863046e-01
-1.877946e-01
-1.889624e-01
-1.895446e-01
-1.891416e-01
-1.874600e-01
-1.845618e-01
-1.808974e-01
-1.771260e-01
