EVENT_NAME: EMILIA_2ND_SHOCK
EVENT_ID: IT-2012-0011
EVENT_DATE_YYYYMMDD: 20120529
EVENT_TIME_HHMMSS: 070002
EVENT_LATITUDE_DEGREE: 44.8417
EVENT_LONGITUDE_DEGREE: 11.0657
EVENT_DEPTH_KM: 8.1
HYPOCENTER_REFERENCE: INGV-CNT_Seismic_Bulletin
MAGNITUDE_W: 6.0
MAGNITUDE_W_REFERENCE: RCMT-INGV
MAGNITUDE_L: 5.8
MAGNITUDE_L_REFERENCE: INGV-CNT_Seismic_Bulletin
FOCAL_MECHANISM: TF
NETWORK: IV
STATION_CODE: T0802
STATION_NAME: T0802
STATION_LATITUDE_DEGREE: 44.875000
STATION_LONGITUDE_DEGREE: 11.181600
STATION_ELEVATION_M: 9
LOCATION: 
SENSOR_DEPTH_M: 1.0
VS30_M/S: 
SITE_CLASSIFICATION_EC8: C*
MORPHOLOGIC_CLASSIFICATION: 
EPICENTRAL_DISTANCE_KM: 9.9
EARTHQUAKE_BACKAZIMUTH_DEGREE: 248.0
DATE_TIME_FIRST_SAMPLE_YYYYMMDD_HHMMSS: 20120529_065951.000
DATE_TIME_FIRST_SAMPLE_PRECISION: milliseconds
SAMPLING_INTERVAL_S: 0.005000
NDATA: 14001
DURATION_S: 70.005
STREAM: HNE
UNITS: cm/s^2
INSTRUMENT: sensor = Episensor FBA ES-T [Kinemetrics] | digitizer = Unknown [Unknown]
INSTRUMENT_ANALOG/DIGITAL: D
INSTRUMENTAL_FREQUENCY_HZ: 
INSTRUMENTAL_DAMPING: 
FULL_SCALE_G: 
N_BIT_DIGITAL_CONVERTER: 
PGA_CM/S^2: -259.002784
TIME_PGA_S: 20.805000
BASELINE_CORRECTION: BASELINE REMOVED
FILTER_TYPE: BUTTERWORTH
FILTER_ORDER: 2
LOW_CUT_FREQUENCY_HZ: 0.100
HIGH_CUT_FREQUENCY_HZ: 40.000
LATE/NORMAL_TRIGGERED: NT
DATABASE_VERSION: DYNA 1.0
HEADER_FORMAT: DYNA 1.2
DATA_TYPE: ACCELERATION
PROCESSING: manual (Paolucci et al., 2011)
DATA_TIMESTAMP_YYYYMMDD_HHMMSS: 
DATA_LICENSE: CC-BY4_0 (http://creativecommons.org/licenses/by/4.0/)
DATA_CITATION: ESM working group (2015), European Strong-Motion database, version 0.1, Network Activity 3: Networking acceleration networks and SM data users. Project NERA (www.nera-eu.org)
DATA_CREATOR: ESM working group
ORIGINAL_DATA_MEDIATOR_CITATION: Orfeus - European Integrated Data Archive (EIDA) http://www.orfeus-eu.org/eida/
ORIGINAL_DATA_MEDIATOR: Orfeus - European Integrated Data Archive (EIDA)
ORIGINAL_DATA_CREATOR_CITATION: Data for this study comes from the Italian national seismic network operated by Istituto Nazionale di Geofisica e Vulcanologia and archived at the European Integrated Data Archive http://eida.rm.ingv.it/
ORIGINAL_DATA_CREATOR: network: IV (Italian National Seismic Network); owner: Istituto Nazionale di Geofisica e Vulcanologia
USER1: 
USER2: 
USER3: 
USER4: 
USER5: 
[...]
-0.165974
-0.169369
-0.172754
-0.174991
-0.176246
-0.177202
-0.177979
-0.178088
-0.177218
-0.175742
-0.174223
-0.172676
-0.170609
-0.167849
-0.165110
-0.163340
-0.162619
-0.162099
-0.160833
-0.158196
-0.153920
-0.148493
-0.143076
-0.138132
-0.132455
-0.124482
-0.114702
-0.105796
-0.099828
-0.096428
-0.094216
-0.092554
-0.091523
-0.091092
-0.090668
-0.089588
-0.088108
-0.087492
-0.088834
-0.092305
-0.097760
-0.105669
-0.117285
-0.133371
-0.153108
-0.174760
-0.195599
-0.211646
-0.221328
-0.228744
-0.239703
-0.255523
-0.272666
-0.285956
-0.289588
-0.278381
-0.251487
-0.213085
-0.171748
-0.141914
-0.137159
-0.155962
-0.181769
-0.199803
-0.206565
-0.205184
-0.201925
-0.204909
-0.214614
-0.215801
-0.189628
-0.135248
-0.071349
-0.019820
0.001700
-0.019039
-0.080455
-0.166257
-0.254125
-0.317634
-0.334259
-0.304309
-0.249779
-0.191998
-0.140809
-0.099761
-0.072974
-0.067702
-0.087484
-0.125299
-0.169982
-0.212778
-0.245974
-0.266429
-0.280228
-0.294359
-0.301041
-0.277374
-0.212164
-0.125923
-0.049413
0.005127
0.040666
0.057305
0.044042
-0.011104
-0.096245
-0.170797
-0.196850
-0.159585
-0.062287
0.060428
0.138845
0.125769
0.040255
-0.069561
-0.164956
-0.213093
-0.199863
-0.148377
-0.092489
-0.040488
0.021316
0.096408
0.158710
0.174736
0.139986
0.077407
0.003889
-0.088540
-0.218412
-0.388245
-0.575020
-0.729141
-0.766599
-0.610741
-0.289802
0.057921
0.311953
0.445178
0.469717
0.367608
0.090319
-0.345177
-0.774045
-0.998378
-0.975096
-0.810817
-0.627180
-0.502801
-0.467599
-0.452944
-0.300693
0.057877
0.468631
0.708146
0.709274
0.554185
0.336780
0.107541
-0.099748
-0.216086
-0.132752
0.150760
0.397034
0.327849
-0.017576
-0.272195
-0.136062
0.377598
1.070219
1.598491
1.456217
0.421511
-1.052410
-2.281104
-2.923087
-2.924731
-2.340207
-1.337455
-0.132802
1.000792
1.674700
1.670294
1.203916
0.649560
0.183464
-0.198959
-0.557842
-0.979223
-1.510593
-1.986709
-2.018341
-1.394035
-0.386458
0.557218
1.201110
1.477132
1.356797
0.838522
-0.044015
-1.095786
-1.903469
-2.123086
-1.696826
-0.740804
0.445209
1.334191
1.538571
1.098977
0.266055
-0.673324
-1.371247
-1.628918
-1.595110
-1.528617
-1.447781
-1.123594
-0.385019
0.684366
1.850652
2.744910
2.833532
1.899997
0.472867
-0.701383
-1.408070
-1.904281
-2.352028
-2.520426
-2.050120
-0.915072
0.525911
1.823392
2.566397
2.469741
1.657567
0.639811
-0.220498
-1.031952
-2.039895
-3.045771
-3.360868
-2.578454
-1.136023
0.231689
1.226198
1.946941
2.521761
2.955451
3.149332
2.876387
1.811999
-0.013040
-1.811173
-2.621878
-2.256242
-1.270131
-0.246266
0.535320
0.991957
1.163670
1.164896
1.077142
0.899794
0.613522
0.309789
0.214258
0.475009
1.000579
1.580109
1.962573
1.821450
0.977010
-0.386982
-1.923467
-3.267717
-3.966643
-3.723097
-2.648864
-1.043271
0.757627
2.309781
3.254689
3.505083
3.122985
2.265100
1.192599
0.106642
-0.964237
-2.042108
-2.960346
-3.314037
-2.832844
-1.672517
-0.175737
1.326578
2.440473
2.835669
2.391493
1.134755
-0.632841
-2.250654
-3.087130
-2.809946
-1.371652
0.640617
1.940597
1.645448
0.091928
-1.832666
-3.363328
-3.797209
-2.861502
-1.172222
0.344399
1.181653
1.203584
0.583064
-0.044148
0.010326
0.757140
1.530338
1.704264
1.089813
-0.216473
-1.817061
-3.002211
-3.353591
-3.209358
-3.157042
-3.313996
-3.348497
-3.068184
-2.773150
-2.895410
-3.367490
-3.574759
-2.976789
-1.499269
0.613133
2.704332
3.667957
2.961333
1.440906
0.424082
0.363420
0.873748
1.422479
1.588578
1.130898
0.273200
-0.308469
-0.147998
0.563348
1.361607
1.964696
2.256215
2.230413
2.037644
1.878344
1.877378
2.097332
2.501774
2.879973
2.986372
2.772939
2.384204
1.985064
1.682667
1.494043
1.205973
0.396342
-1.040104
-2.471036
-3.056129
-2.581800
-1.467953
-0.278673
0.460176
0.438787
0.100912
0.607732
2.517803
4.814261
5.905779
4.996360
2.079595
-2.206916
-6.302412
-8.536910
-8.475935
-6.808346
-4.399145
-1.971399
-0.063305
1.084670
1.413775
1.017803
0.266082
-0.393160
-0.682711
-0.458829
0.203661
0.838351
0.904937
0.343050
-0.411477
-0.846600
-0.565204
0.632769
2.330570
3.434149
3.089190
1.323313
-1.353526
-4.121857
-5.754593
-5.473006
-3.684723
-1.286533
1.081171
2.948559
4.052308
4.511297
4.567554
4.240551
3.332013
1.752317
-0.246071
-2.244676
-3.746678
-4.093675
-2.942057
-0.730061
1.775289
3.894931
4.931319
4.539839
3.165315
1.534328
0.063870
-1.045254
-1.630545
-1.551214
-0.706638
0.796319
2.570101
4.097313
4.782833
4.139422
2.293152
0.001458
-2.002787
-3.364969
-3.970636
-3.880331
-3.292031
-2.418587
-1.456817
-0.577959
0.084720
0.418306
0.479768
0.664228
1.430513
2.800243
4.326644
5.483689
5.845117
5.130703
3.476232
1.459304
-0.315819
-1.430007
-1.642117
-1.068836
-0.200856
0.418963
0.349494
-0.675008
-2.385181
-3.945927
-4.658728
-4.413643
-3.378927
-1.685722
0.579122
3.278227
6.134905
8.776408
10.629345
10.830187
8.996964
5.940035
2.915256
0.756984
-0.018701
0.613975
1.785808
2.405116
2.198954
1.711356
1.681897
2.810871
5.526951
9.152840
11.806042
12.039034
9.979860
6.547135
2.844009
0.240988
-0.526181
-0.197832
-0.036886
-0.558488
-1.565027
-2.700341
-3.627823
-4.114841
-4.271765
-4.542368
-5.272043
-6.435602
-7.802673
-8.990344
-9.391284
-8.538031
-6.423427
-3.331367
0.046146
2.491570
3.164425
2.336971
0.818898
-0.535902
-0.791110
0.330731
1.707080
1.794210
0.117843
-2.702729
-5.644812
-7.438282
-6.984366
-4.327515
-0.641149
2.846542
5.362763
6.510131
6.438665
5.805612
5.267681
5.234379
5.881651
6.931777
7.641024
7.425388
6.288066
4.564345
2.823024
1.903515
2.219418
3.153414
3.718041
3.458887
2.471497
1.247189
0.780745
2.012746
4.635499
7.046845
7.907420
7.108397
5.198940
2.965459
1.443460
1.142006
1.355950
0.937385
-0.629087
-3.171045
-5.957416
-7.508709
-6.314559
-2.258356
3.327885
8.769500
12.472241
13.263049
11.410114
8.522471
5.863763
3.390809
0.604480
-2.016869
-2.825305
-0.698789
3.707232
8.903739
13.355830
15.288382
13.789631
9.947585
5.543756
1.459672
-2.115850
-4.949353
-6.497303
-6.272576
-4.776023
-3.573477
-3.774289
-4.990055
-6.192912
-6.768294
-6.526254
-5.628195
-4.730553
-4.494411
-4.670112
-4.126613
-2.224878
0.242943
1.989263
2.554826
2.288260
1.681056
1.122084
0.801502
0.410017
-0.790177
-3.004983
-5.170971
-5.796068
-4.171289
-0.375211
4.825269
9.663018
12.338850
12.779159
12.545075
12.956312
14.048779
15.070122
14.675566
10.930531
3.214554
-6.085446
-13.597600
-17.658815
-18.091206
-15.537759
-11.710450
-8.544813
-7.165436
-8.185229
-11.736750
-17.062822
-23.040905
-28.544729
-32.213543
-33.256016
-32.277267
-30.310194
-27.506605
-23.257219
-17.568516
-12.029106
-8.682457
-8.304894
-10.447832
-14.065567
-17.491037
-19.209932
-19.358896
-19.579739
-20.944523
-22.681187
-23.361053
-22.673416
-21.515211
-20.924555
-21.570961
-23.705486
-26.579872
-28.357708
-27.630857
-24.490978
-19.762506
-14.426811
-9.766380
-6.774066
-5.604794
-5.887696
-6.592844
-5.851048
-2.240972
4.192260
12.616239
21.679670
29.307957
34.023964
36.060707
36.405670
35.862625
35.155491
34.879383
35.364288
36.760498
38.896671
41.124336
42.337353
40.865269
35.165482
25.523352
14.202003
3.673571
-4.245475
-8.384745
-8.731746
-6.282459
-2.176462
2.556520
7.063261
10.704427
12.854348
13.350852
13.058678
13.112056
13.730812
14.215456
13.781911
11.969642
8.612506
4.136658
-0.413555
-4.273954
-7.579705
-10.862083
-14.349728
-17.815836
-20.534344
-21.103600
-18.166601
-12.091071
-5.165855
0.159665
2.213513
0.245753
-4.195383
-7.131468
-5.611143
-0.119791
7.126859
13.501279
15.746717
12.204608
4.956738
-2.456827
-7.555832
-8.549538
-4.752529
2.383426
10.630538
18.354259
24.122520
26.902542
26.600142
23.663237
19.190161
15.174997
13.302949
14.033697
17.031652
21.033840
23.724899
23.525879
20.985863
17.693333
15.377143
16.028473
20.411592
26.572248
31.635401
34.178665
34.088657
32.039413
29.718914
28.818567
29.196428
28.958130
26.715490
22.978094
19.033510
15.517620
12.369630
9.156557
5.064269
-0.759469
-8.541590
-17.833622
-27.680763
-36.448658
-42.139732
-42.365685
-34.044865
-16.385033
6.154186
27.392015
43.759766
53.591404
56.551121
54.469631
49.722729
43.266022
35.059830
25.604706
16.811567
10.827083
8.150318
7.899411
9.592992
14.052762
22.389435
33.662746
44.324566
50.626995
50.084278
41.341560
25.201475
4.571506
-17.935713
-41.249924
-64.793350
-85.978226
-99.291199
-100.517632
-90.181335
-71.242287
-48.169250
-27.789558
-15.406873
-11.548678
-14.201497
-20.122452
-24.525091
-24.033594
-19.122252
-12.001255
-4.332518
2.818881
9.411533
17.114634
27.861204
41.210667
54.334213
65.289925
75.119087
85.731262
96.192093
102.256287
100.371597
90.431435
74.282715
55.409733
39.370968
29.812016
25.229700
22.031210
17.954571
11.573719
1.151254
-15.731070
-41.113026
-73.268097
-105.944893
-132.540756
-148.492920
-150.846100
-138.999893
-114.399918
-79.953926
-40.848850
-2.526073
31.740999
59.845482
80.982925
96.912575
109.987434
120.254776
125.604561
124.969612
120.513351
115.185257
108.914742
98.651794
82.383881
61.770473
39.847275
18.294674
-2.240378
-21.204227
-37.888725
-51.266800
-59.256130
-58.458015
-47.456242
-29.777390
-10.559365
7.243334
21.845999
30.891256
30.929569
18.897533
-3.835493
-31.108049
-57.258541
-80.177368
-99.581635
-114.381638
-121.466492
-116.996071
-97.559746
-61.398296
-14.149882
29.900787
59.190495
72.756935
74.969124
70.961113
66.767754
66.255638
68.370193
69.985588
69.249374
65.434151
58.127373
47.176647
32.698589
16.015257
0.131815
-12.072867
-19.115669
-20.581438
-17.777264
-13.820400
-11.174212
-10.038273
-9.495584
-8.712137
-6.972466
-3.865299
0.447056
5.670107
11.964991
19.852505
29.144636
38.090160
44.567417
47.908848
48.693966
47.448780
44.147518
38.710915
32.320198
27.640871
26.221464
26.479992
25.478622
20.961470
11.307194
-3.130675
-18.274220
-29.242306
-34.883369
-37.403275
-38.696697
-38.588566
-36.028549
-30.966845
-24.560122
-17.878521
-11.155690
-4.047588
4.226880
14.721413
27.284948
39.265648
47.456242
51.316326
52.926197
54.490032
57.178745
61.159683
64.547340
63.164520
53.918003
37.334923
15.629142
-8.680931
-32.258179
-52.192532
-67.148727
-76.652641
-80.620010
-79.235687
-73.240540
-64.505562
-54.910156
-44.572350
-32.133030
-17.061361
-1.159045
12.787627
22.194086
24.131395
16.791262
1.266183
-20.042238
-44.263966
-67.427017
-86.498329
-101.230453
-112.714729
-121.849442
-129.131088
-134.268723
-135.780472
-132.090546
-123.917130
-114.430885
-106.154099
-99.029366
-91.821190
-83.926910
-75.558319
-67.321571
-60.139404
-54.917004
-51.900871
-50.688553
-50.501511
-50.108562
-48.346645
-45.141739
-41.481125
-38.435284
-36.693977
-36.575066
-37.660557
-38.821918
-39.291527
-39.360249
-39.554939
-39.166622
-36.184151
-29.701004
-21.752981
-15.389913
-12.098147
-11.987981
-14.533360
-18.469547
-22.417505
-25.666048
-27.964922
-29.338020
-30.235191
-31.283058
-33.030285
-35.959309
-39.918118
-43.506321
-45.026741
-44.030712
-41.284611
-37.842518
-34.769745
-33.102226
-34.004459
-39.009956
-48.654427
-61.095070
-73.686806
-84.863228
-93.818588
-100.265533
-104.778030
-108.124748
-110.158142
-109.628304
-105.050682
-95.230270
-79.430382
-58.699123
-36.249165
-15.452748
1.288446
12.414278
17.550941
17.136623
11.724422
2.005432
-11.100870
-25.261253
-36.160133
-40.877529
-40.619572
-38.228554
-35.172932
-31.686951
-27.853294
-24.006662
-20.557281
-17.716705
-15.534223
-13.941749
-12.685698
-11.401059
-9.503474
-6.051290
-0.423444
7.053201
15.678378
25.172506
35.881176
48.908913
66.330566
89.351433
112.914261
124.910225
117.469162
95.491158
69.413246
47.866638
38.622452
44.893044
60.458488
75.974197
87.073959
93.652702
96.785500
98.195435
99.655365
102.212273
106.238930
110.698891
112.110161
106.548386
93.183769
74.172241
52.131229
29.252724
7.178642
-13.134222
-30.902641
-45.591377
-57.357533
-66.521614
-72.681091
-74.512474
-70.799812
-61.270969
-46.484406
-29.231112
-15.112322
-8.243363
-7.962566
-11.460838
-16.551626
-21.624832
-26.143728
-31.408096
-38.778103
-45.962555
-46.772747
-37.800678
-23.494207
-11.728527
-8.988686
-20.561140
-45.752651
-72.210197
-84.438004
-76.173958
-49.242138
-8.054747
40.938030
91.096619
136.784363
171.749634
192.677872
203.441483
210.329895
215.037796
213.852493
199.995560
164.078796
98.202690
7.925368
-85.791801
-162.269287
-210.268250
-224.260666
-202.584366
-146.683777
-63.652061
28.768694
110.712608
171.657913
207.834854
220.558411
219.499954
215.867462
212.404922
204.447311
188.301224
165.678574
140.029282
111.240349
75.617699
31.311407
-17.889029
-66.238945
-110.617561
-149.855392
-183.304337
-210.842514
-232.433243
-247.804764
-256.535553
-259.002777
-257.400543
-254.295685
-250.769730
-246.767075
-242.124039
-236.870636
-230.466888
-219.453217
-197.151428
-160.651733
-116.619904
-75.096756
-41.639503
-17.982141
-2.912021
9.231302
24.956940
46.129822
70.389671
94.784180
117.129639
136.065781
151.755402
165.672806
179.119293
192.489319
205.483490
216.754471
223.733765
224.656036
220.219727
212.002258
200.441437
184.734543
163.906769
137.438980
105.024475
66.933739
24.494907
-19.486008
-59.982693
-91.733505
-112.318878
-121.379356
-119.337540
-107.803185
-88.743622
-64.573006
-39.011490
-15.371579
4.931320
22.188496
39.574959
62.830750
93.344299
122.572716
138.749527
136.452286
116.075951
81.374458
40.500538
2.038820
-30.496748
-57.306404
-78.883972
-95.164696
-105.851799
-111.259109
-112.369263
-109.653595
-102.366074
-89.171700
-69.216797
-42.220959
-8.962457
27.796513
64.578102
97.941490
123.638535
139.097473
146.093735
148.126328
147.797729
147.311035
148.282639
151.096008
155.261353
159.217560
160.412735
158.146149
155.938324
158.188141
163.907776
165.938354
156.792877
132.102524
90.554916
37.996071
-11.812127
-48.462269
-72.757011
-90.365036
-104.589844
-116.608330
-128.143784
-142.862457
-163.419388
-183.267456
-185.245117
-156.466919
-99.327332
-24.365345
52.695015
108.852119
130.047058
125.338066
112.290871
98.503395
82.471535
62.398678
40.116104
18.796341
-0.317253
-17.858490
-34.816471
-51.982731
-69.606560
-86.219063
-98.616066
-105.264664
-108.958443
-113.707245
-119.911682
-124.280655
-123.817459
-118.089539
-107.797150
-93.272408
-74.581940
-52.782253
-31.055969
-13.173734
-1.479684
2.676782
-0.512401
-7.900501
-15.244857
-18.828594
-14.730837
-1.160021
18.789019
40.139923
59.281857
73.471741
81.954803
87.840988
95.413094
106.333778
119.801598
134.146072
147.118561
156.644684
162.256027
164.876663
165.589188
165.241272
164.439209
163.598282
163.149002
163.361908
164.095200
164.804993
163.815567
157.871262
144.338638
123.006790
94.840302
61.384296
25.184799
-10.976873
-44.559975
-73.697525
-98.320526
-119.586136
-137.422562
-149.081802
-151.032242
-142.249680
-124.190186
-99.004585
-69.190254
-36.622253
-1.188281
38.266739
80.036858
116.583260
139.132217
145.365387
139.101654
125.413399
109.160683
94.025780
80.656425
67.511879
53.830975
41.183968
31.841043
26.101292
22.116655
17.636862
10.750562
0.049195
-14.600921
-32.069031
-50.541546
-67.461174
-80.345024
-88.281921
-91.731941
-91.943634
-91.222992
-92.110199
-96.482056
-105.943878
-120.798988
-138.620392
-156.121948
-171.361130
-183.181198
-190.616104
-193.034012
-189.849319
-180.362823
-163.903885
-141.429520
-117.204582
-96.241417
-80.726730
-70.657707
-65.617455
-65.056007
-68.590988
-76.191147
-87.850639
-102.637619
-117.813095
-130.269760
-138.542252
-142.397812
-142.079834
-138.450302
-132.483826
-124.855476
-116.226151
-107.322952
-98.914780
-91.682228
-85.987968
-81.976875
-79.489784
-77.791634
-76.020203
-73.817978
-71.263161
-68.621552
-66.344627
-64.874413
-64.197334
-63.769531
-62.789627
-60.247776
-55.045731
-46.098125
-32.251202
-13.667859
6.685169
24.968521
38.880424
47.219490
49.953133
49.148842
47.456650
46.298351
46.284603
47.857677
51.308537
56.789219
64.108253
72.756561
82.481621
93.658058
106.879532
122.036903
137.993591
152.862671
163.959793
168.806091
167.384399
162.109177
155.513824
149.191666
143.867142
139.118256
133.808334
128.101288
124.909393
127.134384
131.337463
126.736023
104.372589
63.515697
8.289574
-52.430405
-103.837387
-135.923187
-152.159836
-161.545059
-169.267532
-176.947525
-184.500839
-190.141083
-191.643738
-188.081909
-179.422501
-165.243408
-144.263977
-115.293198
-80.234787
-44.885178
-14.968915
6.340691
17.678560
19.927242
16.121300
9.405014
2.190874
-3.744964
-7.081908
-6.436663
-1.279779
6.897559
16.017380
25.263832
34.748837
44.080376
51.557011
55.060238
53.349819
45.903713
33.128174
17.090532
0.191907
-16.113520
-30.301516
-39.206013
-37.062366
-18.509560
13.950691
49.108345
76.283592
90.767319
91.921181
83.542168
73.671425
67.854317
64.549286
59.481255
51.818954
44.539639
40.484779
40.146072
42.701462
46.589424
49.268661
48.444782
43.014503
32.593872
17.551794
-0.914744
-21.208637
-41.342434
-59.559898
-75.497444
-89.919342
-103.456688
-116.056206
-127.455093
-138.102524
-149.279678
-161.784149
-174.971680
-187.381500
-196.796448
-199.776337
-193.869583
-179.651398
-159.132812
-134.976028
-111.099846
-90.839195
-75.392380
-64.509842
-56.070950
-45.832142
-30.522211
-10.116089
13.690240
38.340717
60.130150
76.600220
88.613663
98.357315
106.955170
114.482216
120.630478
124.887474
126.799248
126.727615
125.991547
125.914597
127.293274
130.474396
134.890198
138.816757
140.110596
136.563721
126.289566
108.964478
85.812332
58.824577
30.857883
4.700422
-18.207640
-37.251579
-52.289066
-64.023720
-73.398232
-80.971550
-87.077461
-91.989655
-95.976959
-99.160278
-100.897331
-99.382889
-92.249329
-76.937256
-51.387611
-16.724571
22.150436
59.501106
90.116745
109.985046
118.465218
117.783333
110.594193
99.378326
86.203545
72.764137
60.985317
51.869766
44.184799
35.845657
25.806681
14.125420
1.850380
-8.570762
-14.383950
-14.151970
-7.465253
5.164196
21.606722
39.172523
55.328850
67.107056
72.832565
74.000679
73.218719
71.650719
69.245728
66.060776
62.895092
60.808357
60.503155
62.419945
66.509521
71.792336
76.916840
80.408844
80.167252
