EVENT_NAME: EMILIA_2ND_SHOCK
EVENT_ID: IT-2012-0011
EVENT_DATE_YYYYMMDD: 20120529
EVENT_TIME_HHMMSS: 070002
EVENT_LATITUDE_DEGREE: 44.8417
EVENT_LONGITUDE_DEGREE: 11.0657
EVENT_DEPTH_KM: 8.1
HYPOCENTER_REFERENCE: INGV-CNT_Seismic_Bulletin
MAGNITUDE_W: 6.0
MAGNITUDE_W_REFERENCE: RCMT-INGV
MAGNITUDE_L: 5.8
MAGNITUDE_L_REFERENCE: INGV-CNT_Seismic_Bulletin
FOCAL_MECHANISM: TF
NETWORK: IV
STATION_CODE: T0813
STATION_NAME: T0813
STATION_LATITUDE_DEGREE: 44.877800
STATION_LONGITUDE_DEGREE: 11.199200
STATION_ELEVATION_M: 1
LOCATION: 
SENSOR_DEPTH_M: 1.0
VS30_M/S: 
SITE_CLASSIFICATION_EC8: C*
MORPHOLOGIC_CLASSIFICATION: 
EPICENTRAL_DISTANCE_KM: 11.3
EARTHQUAKE_BACKAZIMUTH_DEGREE: 249.2
DATE_TIME_FIRST_SAMPLE_YYYYMMDD_HHMMSS: 20120529_065942.000
DATE_TIME_FIRST_SAMPLE_PRECISION: milliseconds
SAMPLING_INTERVAL_S: 0.005000
NDATA: 30001
DURATION_S: 150.005
STREAM: HNN
UNITS: cm
INSTRUMENT: sensor = Episensor FBA ES-T [Kinemetrics] | digitizer = Unknown [Unknown]
INSTRUMENT_ANALOG/DIGITAL: D
INSTRUMENTAL_FREQUENCY_HZ: 
INSTRUMENTAL_DAMPING: 
FULL_SCALE_G: 
N_BIT_DIGITAL_CONVERTER: 
PGD_CM: 5.768494
TIME_PGD_S: 29.210000
BASELINE_CORRECTION: BASELINE REMOVED
FILTER_TYPE: BUTTERWORTH
FILTER_ORDER: 2
LOW_CUT_FREQUENCY_HZ: 0.100
HIGH_CUT_FREQUENCY_HZ: 40.000
LATE/NORMAL_TRIGGERED: NT
DATABASE_VERSION: DYNA 1.0
HEADER_FORMAT: DYNA 1.2
DATA_TYPE: DISPLACEMENT
PROCESSING: manual (Paolucci et al., 2011)
DATA_TIMESTAMP_YYYYMMDD_HHMMSS: 
DATA_LICENSE: CC-BY4_0 (http://creativecommons.org/licenses/by/4.0/)
DATA_CITATION: ESM working group (2015), European Strong-Motion database, version 0.1, Network Activity 3: Networking acceleration networks and SM data users. Project NERA (www.nera-eu.org)
DATA_CREATOR: ESM working group
ORIGINAL_DATA_MEDIATOR_CITATION: Orfeus - European Integrated Data Archive (EIDA) http://www.orfeus-eu.org/eida/
ORIGINAL_DATA_MEDIATOR: Orfeus - European Integrated Data Archive (EIDA)
ORIGINAL_DATA_CREATOR_CITATION: Data for this study comes from the Italian national seismic network operated by Istituto Nazionale di Geofisica e Vulcanologia and archived at the European Integrated Data Archive http://eida.rm.ingv.it/
ORIGINAL_DATA_CREATOR: network: IV (Italian National Seismic Network); owner: Istituto Nazionale di Geofisica e Vulcanologia
USER1: 
USER2: 
USER3: 
USER4: 
USER5: 
[...]
-2.122509e-01
-2.133165e-01
-2.143940e-01
-2.154670e-01
-2.165276e-01
-2.175777e-01
-2.186236e-01
-2.196596e-01
-2.206611e-01
-2.216048e-01
-2.224940e-01
-2.233593e-01
-2.242348e-01
-2.251419e-01
-2.260878e-01
-2.270636e-01
-2.280456e-01
-2.290167e-01
-2.299897e-01
-2.309977e-01
-2.320559e-01
-2.331416e-01
-2.342142e-01
-2.352438e-01
-2.362199e-01
-2.371487e-01
-2.380468e-01
-2.389333e-01
-2.398204e-01
-2.407132e-01
-2.416132e-01
-2.425158e-01
-2.434117e-01
-2.443031e-01
-2.452107e-01
-2.461549e-01
-2.471324e-01
-2.481195e-01
-2.490976e-01
-2.500663e-01
-2.510405e-01
-2.520434e-01
-2.530940e-01
-2.541895e-01
-2.552995e-01
-2.563827e-01
-2.574145e-01
-2.583981e-01
-2.593568e-01
-2.603156e-01
-2.612864e-01
-2.622679e-01
-2.632630e-01
-2.642922e-01
-2.653850e-01
-2.665530e-01
-2.677732e-01
-2.689980e-01
-2.701840e-01
-2.713147e-01
-2.724012e-01
-2.734615e-01
-2.744955e-01
-2.754805e-01
-2.763907e-01
-2.772294e-01
-2.780449e-01
-2.789133e-01
-2.798865e-01
-2.809449e-01
-2.819979e-01
-2.829410e-01
-2.837156e-01
-2.843294e-01
-2.848459e-01
-2.853661e-01
-2.859968e-01
-2.867996e-01
-2.877543e-01
-2.887785e-01
-2.897801e-01
-2.906955e-01
-2.915015e-01
-2.922168e-01
-2.928949e-01
-2.935953e-01
-2.943472e-01
-2.951427e-01
-2.959613e-01
-2.967912e-01
-2.976339e-01
-2.985048e-01
-2.994331e-01
-3.004419e-01
-3.015131e-01
-3.025814e-01
-3.035792e-01
-3.044908e-01
-3.053603e-01
-3.062532e-01
-3.072173e-01
-3.082711e-01
-3.094092e-01
-3.106122e-01
-3.118573e-01
-3.131257e-01
-3.143922e-01
-3.156145e-01
-3.167421e-01
-3.177335e-01
-3.185620e-01
-3.192209e-01
-3.197413e-01
-3.202013e-01
-3.206957e-01
-3.212875e-01
-3.219864e-01
-3.227589e-01
-3.235475e-01
-3.242912e-01
-3.249536e-01
-3.255431e-01
-3.261086e-01
-3.267107e-01
-3.273865e-01
-3.281306e-01
-3.289066e-01
-3.296923e-01
-3.305181e-01
-3.314584e-01
-3.325780e-01
-3.338851e-01
-3.353236e-01
-3.367936e-01
-3.381776e-01
-3.393775e-01
-3.403504e-01
-3.411162e-01
-3.417290e-01
-3.422427e-01
-3.427031e-01
-3.431644e-01
-3.437022e-01
-3.444031e-01
-3.453328e-01
-3.464983e-01
-3.478295e-01
-3.492023e-01
-3.505002e-01
-3.516613e-01
-3.526790e-01
-3.535770e-01
-3.543979e-01
-3.552063e-01
-3.560741e-01
-3.570470e-01
-3.581217e-01
-3.592512e-01
-3.603698e-01
-3.614222e-01
-3.623859e-01
-3.632805e-01
-3.641621e-01
-3.650985e-01
-3.661316e-01
-3.672485e-01
-3.683926e-01
-3.695127e-01
-3.706019e-01
-3.716917e-01
-3.728220e-01
-3.740248e-01
-3.753169e-01
-3.766792e-01
-3.780363e-01
-3.792804e-01
-3.803388e-01
-3.812334e-01
-3.820850e-01
-3.830570e-01
-3.842761e-01
-3.857775e-01
-3.874985e-01
-3.893146e-01
-3.910995e-01
-3.927798e-01
-3.943456e-01
-3.958156e-01
-3.971991e-01
-3.984947e-01
-3.997032e-01
-4.008234e-01
-4.018574e-01
-4.028407e-01
-4.038453e-01
-4.049275e-01
-4.060821e-01
-4.072661e-01
-4.084523e-01
-4.096331e-01
-4.107891e-01
-4.118915e-01
-4.129341e-01
-4.139440e-01
-4.149559e-01
-4.159934e-01
-4.170645e-01
-4.181460e-01
-4.191631e-01
-4.200192e-01
-4.206739e-01
-4.211940e-01
-4.217174e-01
-4.223755e-01
-4.232501e-01
-4.243725e-01
-4.257256e-01
-4.272461e-01
-4.288544e-01
-4.304952e-01
-4.321398e-01
-4.337522e-01
-4.352756e-01
-4.366648e-01
-4.379161e-01
-4.390536e-01
-4.401029e-01
-4.410899e-01
-4.420568e-01
-4.430664e-01
-4.441906e-01
-4.454906e-01
-4.469913e-01
-4.486543e-01
-4.503721e-01
-4.520010e-01
-4.534198e-01
-4.545828e-01
-4.555386e-01
-4.564053e-01
-4.573169e-01
-4.583676e-01
-4.595789e-01
-4.609033e-01
-4.622619e-01
-4.635909e-01
-4.648710e-01
-4.661218e-01
-4.673758e-01
-4.686577e-01
-4.699848e-01
-4.713711e-01
-4.728268e-01
-4.743665e-01
-4.760241e-01
-4.778466e-01
-4.798550e-01
-4.820140e-01
-4.842446e-01
-4.864550e-01
-4.885480e-01
-4.904143e-01
-4.919556e-01
-4.931328e-01
-4.939921e-01
-4.946431e-01
-4.952253e-01
-4.958856e-01
-4.967450e-01
-4.978581e-01
-4.992022e-01
-5.007103e-01
-5.023064e-01
-5.039102e-01
-5.054351e-01
-5.067989e-01
-5.079390e-01
-5.088189e-01
-5.094410e-01
-5.098731e-01
-5.102646e-01
-5.108177e-01
-5.117150e-01
-5.130388e-01
-5.147283e-01
-5.165991e-01
-5.184267e-01
-5.200497e-01
-5.214218e-01
-5.225834e-01
-5.235925e-01
-5.244723e-01
-5.252023e-01
-5.257527e-01
-5.261311e-01
-5.263998e-01
-5.266425e-01
-5.269170e-01
-5.272432e-01
-5.276271e-01
-5.280746e-01
-5.285866e-01
-5.291588e-01
-5.297995e-01
-5.305404e-01
-5.314246e-01
-5.324852e-01
-5.337282e-01
-5.351255e-01
-5.366224e-01
-5.381613e-01
-5.397092e-01
-5.412633e-01
-5.428347e-01
-5.444276e-01
-5.460336e-01
-5.476531e-01
-5.493294e-01
-5.511528e-01
-5.531999e-01
-5.554528e-01
-5.577872e-01
-5.600547e-01
-5.621802e-01
-5.641793e-01
-5.660907e-01
-5.678905e-01
-5.694566e-01
-5.706163e-01
-5.712537e-01
-5.714044e-01
-5.712581e-01
-5.710736e-01
-5.710841e-01
-5.714475e-01
-5.722227e-01
-5.733671e-01
-5.747762e-01
-5.763535e-01
-5.780494e-01
-5.798396e-01
-5.816865e-01
-5.835239e-01
-5.852629e-01
-5.868134e-01
-5.881290e-01
-5.892592e-01
-5.903496e-01
-5.915655e-01
-5.930000e-01
-5.946294e-01
-5.963244e-01
-5.979043e-01
-5.992222e-01
-6.002394e-01
-6.010241e-01
-6.016714e-01
-6.022412e-01
-6.027794e-01
-6.033833e-01
-6.042310e-01
-6.055238e-01
-6.073651e-01
-6.096686e-01
-6.121811e-01
-6.145937e-01
-6.166480e-01
-6.181783e-01
-6.191227e-01
-6.195363e-01
-6.195875e-01
-6.195082e-01
-6.195194e-01
-6.197757e-01
-6.203416e-01
-6.211866e-01
-6.222089e-01
-6.232842e-01
-6.242999e-01
-6.251582e-01
-6.257880e-01
-6.261919e-01
-6.264687e-01
-6.267565e-01
-6.271401e-01
-6.276188e-01
-6.281510e-01
-6.286982e-01
-6.292202e-01
-6.296597e-01
-6.299585e-01
-6.300815e-01
-6.300204e-01
-6.297935e-01
-6.294575e-01
-6.290914e-01
-6.287279e-01
-6.282975e-01
-6.276635e-01
-6.267213e-01
-6.254663e-01
-6.239810e-01
-6.223901e-01
-6.208271e-01
-6.194093e-01
-6.182053e-01
-6.172287e-01
-6.164807e-01
-6.160083e-01
-6.159000e-01
-6.162037e-01
-6.168441e-01
-6.176194e-01
-6.182653e-01
-6.185344e-01
-6.182612e-01
-6.173913e-01
-6.159658e-01
-6.140863e-01
-6.118925e-01
-6.095376e-01
-6.071323e-01
-6.047008e-01
-6.022196e-01
-5.997011e-01
-5.972137e-01
-5.948085e-01
-5.924539e-01
-5.900557e-01
-5.875140e-01
-5.847458e-01
-5.816759e-01
-5.782217e-01
-5.742910e-01
-5.698140e-01
-5.648033e-01
-5.593964e-01
-5.538292e-01
-5.483418e-01
-5.430875e-01
-5.381174e-01
-5.334357e-01
-5.290541e-01
-5.249891e-01
-5.212348e-01
-5.177730e-01
-5.146093e-01
-5.117825e-01
-5.093503e-01
-5.073677e-01
-5.058292e-01
-5.046022e-01
-5.034532e-01
-5.021808e-01
-5.007004e-01
-4.989820e-01
-4.969792e-01
-4.946709e-01
-4.920853e-01
-4.892036e-01
-4.858723e-01
-4.818790e-01
-4.770922e-01
-4.714851e-01
-4.650886e-01
-4.579932e-01
-4.503509e-01
-4.423116e-01
-4.339605e-01
-4.253231e-01
-4.163893e-01
-4.071140e-01
-3.974731e-01
-3.875790e-01
-3.776850e-01
-3.680233e-01
-3.586478e-01
-3.494452e-01
-3.402623e-01
-3.310015e-01
-3.216399e-01
-3.122110e-01
-3.027654e-01
-2.933405e-01
-2.839685e-01
-2.746933e-01
-2.655425e-01
-2.564841e-01
-2.474415e-01
-2.383616e-01
-2.292370e-01
-2.200702e-01
-2.108696e-01
-2.017028e-01
-1.927234e-01
-1.841043e-01
-1.759452e-01
-1.682369e-01
-1.608756e-01
-1.536973e-01
-1.465328e-01
-1.392640e-01
-1.318244e-01
-1.241337e-01
-1.160565e-01
-1.074652e-01
-9.836138e-02
-8.892908e-02
-7.945712e-02
-7.019471e-02
-6.124207e-02
-5.253174e-02
-4.390551e-02
-3.523959e-02
-2.653040e-02
-1.787728e-02
-9.370575e-03
-9.620377e-04
7.574718e-03
1.654108e-02
2.613925e-02
3.636402e-02
4.703028e-02
5.788989e-02
6.875330e-02
7.956217e-02
9.037194e-02
1.012410e-01
1.121157e-01
1.228084e-01
1.330597e-01
1.426076e-01
1.512250e-01
1.587471e-01
1.650906e-01
1.702524e-01
1.743052e-01
1.773954e-01
1.797133e-01
1.814352e-01
1.826778e-01
1.834859e-01
1.838342e-01
1.836212e-01
1.826715e-01
1.807944e-01
1.778912e-01
1.740148e-01
1.692787e-01
1.636783e-01
1.570284e-01
1.491092e-01
1.398474e-01
1.293574e-01
1.179072e-01
1.059178e-01
9.393176e-02
8.245537e-02
7.177902e-02
6.194994e-02
5.286839e-02
4.436654e-02
3.624393e-02
2.830854e-02
2.042196e-02
1.251170e-02
4.575538e-03
-3.276405e-03
-1.079454e-02
-1.766402e-02
-2.365356e-02
-2.872608e-02
-3.304391e-02
-3.688766e-02
-4.052205e-02
-4.403094e-02
-4.719243e-02
-4.950648e-02
-5.041944e-02
-4.964084e-02
-4.736198e-02
-4.423926e-02
-4.114538e-02
-3.883601e-02
-3.773190e-02
-3.791670e-02
-3.928092e-02
-4.165998e-02
-4.487556e-02
-4.870612e-02
-5.287055e-02
-5.706608e-02
-6.103479e-02
-6.463955e-02
-6.793892e-02
-7.118429e-02
-7.470670e-02
-7.881909e-02
-8.382692e-02
-9.005042e-02
-9.774035e-02
-1.069546e-01
-1.175371e-01
-1.291605e-01
-1.413223e-01
-1.533672e-01
-1.646676e-01
-1.748891e-01
-1.841077e-01
-1.926848e-01
-2.010544e-01
-2.095666e-01
-2.184183e-01
-2.276690e-01
-2.372998e-01
-2.472263e-01
-2.572552e-01
-2.670876e-01
-2.764178e-01
-2.850395e-01
-2.928606e-01
-2.998477e-01
-3.059561e-01
-3.110808e-01
-3.150911e-01
-3.179587e-01
-3.198676e-01
-3.211974e-01
-3.224168e-01
-3.239885e-01
-3.262730e-01
-3.293777e-01
-3.330718e-01
-3.369290e-01
-3.406127e-01
-3.440550e-01
-3.474356e-01
-3.510954e-01
-3.554727e-01
-3.610019e-01
-3.679784e-01
-3.764856e-01
-3.864279e-01
-3.976250e-01
-4.098917e-01
-4.230386e-01
-4.367717e-01
-4.505642e-01
-4.636738e-01
-4.753742e-01
-4.852413e-01
-4.932623e-01
-4.997339e-01
-5.051015e-01
-5.098369e-01
-5.143343e-01
-5.188368e-01
-5.234193e-01
-5.279916e-01
-5.323077e-01
-5.360202e-01
-5.387724e-01
-5.402638e-01
-5.402326e-01
-5.383860e-01
-5.343849e-01
-5.279527e-01
-5.190352e-01
-5.078697e-01
-4.949294e-01
-4.808254e-01
-4.662052e-01
-4.515891e-01
-4.371901e-01
-4.229107e-01
-4.085567e-01
-3.940177e-01
-3.792112e-01
-3.639648e-01
-3.481023e-01
-3.316178e-01
-3.147048e-01
-2.977169e-01
-2.812020e-01
-2.658820e-01
-2.524086e-01
-2.410977e-01
-2.319736e-01
-2.250247e-01
-2.202622e-01
-2.174541e-01
-2.158452e-01
-2.141968e-01
-2.111137e-01
-2.054186e-01
-1.963753e-01
-1.836343e-01
-1.669730e-01
-1.461266e-01
-1.208929e-01
-9.133628e-02
-5.779436e-02
-2.070337e-02
1.947447e-02
6.212700e-02
1.064066e-01
1.513720e-01
1.962125e-01
2.403275e-01
2.832784e-01
3.247357e-01
3.644461e-01
4.022278e-01
4.380539e-01
4.722197e-01
5.053979e-01
5.384481e-01
5.721592e-01
6.071461e-01
6.438578e-01
6.825453e-01
7.231650e-01
7.653143e-01
8.082668e-01
8.511184e-01
8.930203e-01
9.333949e-01
9.719860e-01
1.008695e+00
1.043336e+00
1.075494e+00
1.104573e+00
1.129980e+00
1.151350e+00
1.168625e+00
1.181938e+00
1.191401e+00
1.197057e+00
1.198980e+00
1.197393e+00
1.192743e+00
1.185790e+00
1.177628e+00
1.169408e+00
1.161918e+00
1.155426e+00
1.149961e+00
1.145684e+00
1.142966e+00
1.142138e+00
1.143216e+00
1.145817e+00
1.149336e+00
1.153257e+00
1.157458e+00
1.162327e+00
1.168593e+00
1.176990e+00
1.188003e+00
1.201902e+00
1.218970e+00
1.239626e+00
1.264334e+00
1.293463e+00
1.327256e+00
1.365781e+00
1.408865e+00
1.456157e+00
1.507334e+00
1.562211e+00
1.620625e+00
1.682325e+00
1.747009e+00
1.814315e+00
1.883629e+00
1.953914e+00
2.023842e+00
2.092165e+00
2.158043e+00
2.221090e+00
2.281190e+00
2.338295e+00
2.392346e+00
2.443285e+00
2.491063e+00
2.535679e+00
2.577293e+00
2.616272e+00
2.653041e+00
2.687865e+00
2.720783e+00
2.751718e+00
2.780523e+00
2.806920e+00
2.830502e+00
2.850883e+00
2.867836e+00
2.881230e+00
2.890891e+00
2.896629e+00
2.898486e+00
2.896988e+00
2.893179e+00
2.888377e+00
2.883804e+00
2.880333e+00
2.878537e+00
2.878933e+00
2.882151e+00
2.888832e+00
2.899358e+00
2.913734e+00
2.931740e+00
2.953123e+00
2.977611e+00
3.004860e+00
3.034445e+00
3.065872e+00
3.098534e+00
3.131729e+00
3.164810e+00
3.197283e+00
3.228776e+00
3.259061e+00
3.288209e+00
3.316630e+00
3.344841e+00
3.373216e+00
3.401987e+00
3.431398e+00
3.461746e+00
3.493291e+00
3.526166e+00
3.560356e+00
3.595723e+00
3.632115e+00
3.669461e+00
3.707739e+00
3.746791e+00
3.786189e+00
3.825293e+00
3.863456e+00
3.900212e+00
3.935347e+00
3.968863e+00
4.000977e+00
4.032152e+00
4.063057e+00
4.094408e+00
4.126776e+00
4.160472e+00
4.195564e+00
4.231991e+00
4.269724e+00
4.308881e+00
4.349687e+00
4.392322e+00
4.436806e+00
4.482989e+00
4.530599e+00
4.579300e+00
4.628794e+00
4.678942e+00
4.729822e+00
4.781703e+00
4.834943e+00
4.889793e+00
4.946161e+00
5.003486e+00
5.060802e+00
5.116970e+00
5.170967e+00
5.222059e+00
5.269831e+00
5.314101e+00
5.354822e+00
5.391993e+00
5.425629e+00
5.455808e+00
5.482762e+00
5.506910e+00
5.528787e+00
5.548945e+00
5.567885e+00
5.586024e+00
5.603684e+00
5.621112e+00
5.638474e+00
5.655772e+00
5.672762e+00
5.689025e+00
5.704149e+00
5.717848e+00
5.729957e+00
5.740412e+00
5.749226e+00
5.756444e+00
5.762063e+00
5.766022e+00
5.768220e+00
5.768494e+00
5.766616e+00
5.762415e+00
5.755914e+00
5.747334e+00
5.736982e+00
5.725148e+00
5.712040e+00
5.697734e+00
5.682203e+00
5.665442e+00
5.647546e+00
5.628616e+00
5.608630e+00
5.587427e+00
5.564777e+00
5.540389e+00
5.513891e+00
5.484871e+00
5.452971e+00
5.417962e+00
5.379824e+00
5.338900e+00
5.296009e+00
5.252257e+00
5.208656e+00
5.165852e+00
5.124164e+00
5.083773e+00
5.044835e+00
5.007485e+00
4.971846e+00
4.938063e+00
4.906281e+00
4.876559e+00
4.848823e+00
4.822862e+00
4.798308e+00
4.774602e+00
4.751041e+00
4.726921e+00
4.701654e+00
4.674775e+00
4.645926e+00
4.614871e+00
4.581538e+00
4.546015e+00
4.508525e+00
4.469415e+00
4.429137e+00
4.388194e+00
4.347082e+00
4.306284e+00
4.266276e+00
4.227468e+00
4.190084e+00
4.154090e+00
4.119194e+00
4.084874e+00
4.050440e+00
4.015156e+00
3.978394e+00
3.939723e+00
3.898918e+00
3.855916e+00
3.810794e+00
3.763718e+00
3.714846e+00
3.664265e+00
3.612001e+00
3.558103e+00
3.502727e+00
3.446172e+00
3.388879e+00
3.331376e+00
3.274175e+00
3.217622e+00
3.161785e+00
3.106425e+00
3.051086e+00
2.995267e+00
2.938534e+00
2.880544e+00
2.821020e+00
2.759723e+00
2.696430e+00
2.630947e+00
2.563267e+00
2.493818e+00
2.423573e+00
2.353810e+00
2.285693e+00
2.220040e+00
2.157384e+00
2.098066e+00
2.042169e+00
1.989406e+00
1.939068e+00
1.890036e+00
1.840908e+00
1.790268e+00
1.736992e+00
1.680418e+00
1.620242e+00
1.556324e+00
1.488564e+00
1.416901e+00
1.341323e+00
1.261842e+00
1.178465e+00
1.091185e+00
9.999922e-01
9.048947e-01
8.059065e-01
7.030122e-01
5.961559e-01
4.852505e-01
3.702247e-01
2.512034e-01
1.288365e-01
4.558796e-03
-1.195344e-01
-2.412337e-01
-3.588226e-01
-4.713163e-01
-5.782698e-01
-6.794730e-01
-7.747925e-01
-8.641540e-01
-9.475742e-01
-1.025208e+00
-1.097425e+00
-1.164915e+00
-1.228754e+00
-1.290390e+00
-1.351519e+00
-1.413905e+00
-1.479202e+00
-1.548810e+00
-1.623777e+00
-1.704761e+00
-1.792105e+00
-1.885936e+00
-1.986209e+00
-2.092585e+00
-2.204173e+00
-2.319289e+00
-2.435472e+00
-2.549858e+00
-2.659794e+00
-2.763333e+00
-2.859335e+00
-2.947240e+00
-3.026849e+00
-3.098252e+00
-3.161817e+00
-3.218119e+00
-3.267838e+00
-3.311651e+00
-3.350132e+00
-3.383702e+00
-3.412640e+00
-3.437151e+00
-3.457422e+00
-3.473615e+00
-3.485833e+00
-3.494071e+00
-3.498208e+00
-3.498098e+00
-3.493807e+00
-3.485893e+00
-3.475544e+00
-3.464410e+00
-3.454181e+00
-3.446122e+00
-3.440819e+00
-3.438212e+00
-3.437736e+00
-3.438506e+00
-3.439568e+00
-3.440149e+00
-3.439788e+00
-3.438249e+00
-3.435340e+00
-3.430790e+00
-3.424256e+00
-3.415433e+00
-3.404190e+00
-3.390654e+00
-3.375263e+00
-3.358786e+00
-3.342258e+00
-3.326786e+00
-3.313312e+00
-3.302515e+00
-3.294877e+00
-3.290773e+00
-3.290486e+00
-3.294157e+00
-3.301771e+00
-3.313219e+00
-3.328398e+00
-3.347272e+00
-3.369866e+00
-3.396169e+00
-3.425987e+00
-3.458836e+00
-3.493966e+00
-3.530512e+00
-3.567666e+00
-3.604812e+00
-3.641590e+00
-3.677847e+00
-3.713487e+00
-3.748291e+00
-3.781818e+00
-3.813428e+00
-3.842346e+00
-3.867755e+00
-3.888896e+00
-3.905154e+00
-3.916067e+00
-3.921274e+00
-3.920461e+00
-3.913387e+00
-3.900004e+00
-3.880678e+00
-3.856419e+00
-3.828959e+00
-3.800499e+00
-3.773182e+00
-3.748601e+00
-3.727679e+00
-3.710845e+00
-3.698276e+00
-3.690004e+00
-3.685888e+00
-3.685591e+00
-3.688600e+00
-3.694269e+00
-3.701781e+00
-3.710035e+00
-3.717575e+00
-3.722737e+00
-3.724018e+00
-3.720453e+00
-3.711751e+00
-3.698108e+00
-3.679869e+00
-3.657342e+00
-3.630824e+00
-3.600661e+00
-3.567224e+00
-3.530841e+00
-3.491780e+00
-3.450285e+00
-3.406618e+00
-3.361088e+00
-3.314015e+00
-3.265607e+00
-3.215840e+00
-3.164545e+00
-3.111771e+00
-3.058151e+00
-3.004952e+00
-2.953764e+00
-2.906078e+00
-2.862991e+00
-2.825162e+00
-2.792947e+00
-2.766569e+00
-2.746215e+00
-2.732085e+00
-2.724441e+00
-2.723604e+00
-2.729899e+00
-2.743551e+00
-2.764634e+00
-2.793057e+00
-2.828562e+00
-2.870755e+00
-2.919166e+00
-2.973296e+00
-3.032611e+00
-3.096492e+00
-3.164213e+00
-3.234991e+00
-3.308132e+00
-3.383181e+00
-3.459930e+00
-3.538211e+00
-3.617614e+00
-3.697419e+00
-3.776833e+00
-3.855302e+00
-3.932625e+00
-4.008824e+00
-4.083979e+00
-4.158195e+00
-4.231653e+00
-4.304639e+00
-4.377457e+00
-4.450296e+00
-4.523177e+00
-4.596010e+00
-4.668679e+00
-4.741071e+00
-4.813093e+00
-4.884669e+00
-4.955674e+00
-5.025794e+00
-5.094430e+00
-5.160791e+00
-5.224098e+00
-5.283733e+00
-5.339226e+00
-5.390189e+00
-5.436257e+00
-5.477106e+00
-5.512500e+00
-5.542326e+00
-5.566604e+00
-5.585445e+00
-5.598978e+00
-5.607285e+00
-5.610344e+00
-5.607976e+00
-5.599869e+00
-5.585707e+00
-5.565367e+00
-5.539065e+00
-5.507438e+00
-5.471589e+00
-5.433002e+00
-5.393270e+00
-5.353718e+00
-5.315195e+00
-5.278118e+00
-5.242664e+00
-5.208954e+00
-5.177102e+00
-5.147185e+00
-5.119197e+00
-5.093095e+00
-5.068952e+00
-5.047063e+00
-5.027912e+00
-5.011991e+00
-4.999594e+00
-4.990585e+00
-4.984182e+00
-4.978959e+00
-4.973222e+00
-4.965533e+00
-4.955004e+00
-4.941237e+00
-4.924108e+00
-4.903594e+00
-4.879661e+00
-4.852205e+00
-4.821051e+00
-4.786026e+00
-4.747125e+00
-4.704757e+00
-4.659943e+00
-4.614301e+00
-4.569723e+00
-4.527954e+00
-4.490331e+00
-4.457772e+00
-4.430878e+00
-4.409965e+00
-4.394911e+00
-4.384980e+00
-4.378814e+00
-4.374723e+00
-4.371092e+00
-4.366643e+00
-4.360375e+00
-4.351406e+00
-4.338921e+00
-4.322290e+00
-4.301206e+00
-4.275739e+00
-4.246268e+00
-4.213431e+00
-4.178116e+00
-4.141467e+00
