EVENT_NAME: EMILIA_2ND_SHOCK
EVENT_ID: IT-2012-0011
EVENT_DATE_YYYYMMDD: 20120529
EVENT_TIME_HHMMSS: 070002
EVENT_LATITUDE_DEGREE: 44.8417
EVENT_LONGITUDE_DEGREE: 11.0657
EVENT_DEPTH_KM: 8.1
HYPOCENTER_REFERENCE: INGV-CNT_Seismic_Bulletin
MAGNITUDE_W: 6.0
MAGNITUDE_W_REFERENCE: RCMT-INGV
MAGNITUDE_L: 5.8
MAGNITUDE_L_REFERENCE: INGV-CNT_Seismic_Bulletin
FOCAL_MECHANISM: TF
NETWORK: IV
STATION_CODE: T0811
STATION_NAME: T0811
STATION_LATITUDE_DEGREE: 44.783800
STATION_LONGITUDE_DEGREE: 11.226500
STATION_ELEVATION_M: 10
LOCATION: 
SENSOR_DEPTH_M: 1.0
VS30_M/S: 
SITE_CLASSIFICATION_EC8: C*
MORPHOLOGIC_CLASSIFICATION: 
EPICENTRAL_DISTANCE_KM: 14.3
EARTHQUAKE_BACKAZIMUTH_DEGREE: 296.9
DATE_TIME_FIRST_SAMPLE_YYYYMMDD_HHMMSS: 20120529_065952.000
DATE_TIME_FIRST_SAMPLE_PRECISION: milliseconds
SAMPLING_INTERVAL_S: 0.005000
NDATA: 30001
DURATION_S: 150.005
STREAM: HNN
UNITS: cm
INSTRUMENT: sensor = Episensor FBA ES-T [Kinemetrics] | digitizer = Unknown [Unknown]
INSTRUMENT_ANALOG/DIGITAL: D
INSTRUMENTAL_FREQUENCY_HZ: 
INSTRUMENTAL_DAMPING: 
FULL_SCALE_G: 
N_BIT_DIGITAL_CONVERTER: 
PGD_CM: 3.897513
TIME_PGD_S: 21.555000
BASELINE_CORRECTION: BASELINE REMOVED
FILTER_TYPE: BUTTERWORTH
FILTER_ORDER: 2
LOW_CUT_FREQUENCY_HZ: 0.060
HIGH_CUT_FREQUENCY_HZ: 40.000
LATE/NORMAL_TRIGGERED: NT
DATABASE_VERSION: DYNA 1.0
HEADER_FORMAT: DYNA 1.2
DATA_TYPE: DISPLACEMENT
PROCESSING: manual (Paolucci et al., 2011)
DATA_TIMESTAMP_YYYYMMDD_HHMMSS: 
DATA_LICENSE: CC-BY4_0 (http://creativecommons.org/licenses/by/4.0/)
DATA_CITATION: ESM working group (2015), European Strong-Motion database, version 0.1, Network Activity 3: Networking acceleration networks and SM data users. Project NERA (www.nera-eu.org)
DATA_CREATOR: ESM working group
ORIGINAL_DATA_MEDIATOR_CITATION: Orfeus - European Integrated Data Archive (EIDA) http://www.orfeus-eu.org/eida/
ORIGINAL_DATA_MEDIATOR: Orfeus - European Integrated Data Archive (EIDA)
ORIGINAL_DATA_CREATOR_CITATION: Data for this study comes from the Italian national seismic network operated by Istituto Nazionale di Geofisica e Vulcanologia and archived at the European Integrated Data Archive http://eida.rm.ingv.it/
ORIGINAL_DATA_CREATOR: network: IV (Italian National Seismic Network); owner: Istituto Nazionale di Geofisica e Vulcanologia
USER1: 
USER2: 
USER3: 
USER4: 
USER5: 
[...]
6.809658e-03
5.939427e-03
5.284275e-03
4.858090e-03
4.586194e-03
4.361109e-03
4.103005e-03
3.787502e-03
3.439820e-03
3.113609e-03
2.868617e-03
2.748886e-03
2.759523e-03
2.848797e-03
2.912176e-03
2.829443e-03
2.521200e-03
1.987716e-03
1.299349e-03
5.482775e-04
-1.969695e-04
-9.093917e-04
-1.598685e-03
-2.290627e-03
-2.995164e-03
-3.683717e-03
-4.302266e-03
-4.809915e-03
-5.200006e-03
-5.491739e-03
-5.720489e-03
-5.938642e-03
-6.203440e-03
-6.542531e-03
-6.932605e-03
-7.314180e-03
-7.615907e-03
-7.770189e-03
-7.740270e-03
-7.560547e-03
-7.338481e-03
-7.186611e-03
-7.146740e-03
-7.184885e-03
-7.243813e-03
-7.280792e-03
-7.266256e-03
-7.185067e-03
-7.058613e-03
-6.951713e-03
-6.944115e-03
-7.094808e-03
-7.429603e-03
-7.942615e-03
-8.589568e-03
-9.284421e-03
-9.926218e-03
-1.044745e-02
-1.083930e-02
-1.113296e-02
-1.136918e-02
-1.159056e-02
-1.184571e-02
-1.217588e-02
-1.259081e-02
-1.306961e-02
-1.359400e-02
-1.417758e-02
-1.485804e-02
-1.566458e-02
-1.659682e-02
-1.762852e-02
-1.872149e-02
-1.983321e-02
-2.091746e-02
-2.193006e-02
-2.284492e-02
-2.366454e-02
-2.440813e-02
-2.509039e-02
-2.572473e-02
-2.635521e-02
-2.706978e-02
-2.795598e-02
-2.903212e-02
-3.022679e-02
-3.142086e-02
-3.249131e-02
-3.332676e-02
-3.385226e-02
-3.407676e-02
-3.411235e-02
-3.412520e-02
-3.425512e-02
-3.456674e-02
-3.504309e-02
-3.559887e-02
-3.610757e-02
-3.644877e-02
-3.656660e-02
-3.650590e-02
-3.639440e-02
-3.637247e-02
-3.651335e-02
-3.679167e-02
-3.712390e-02
-3.744202e-02
-3.772770e-02
-3.797719e-02
-3.815672e-02
-3.822547e-02
-3.820864e-02
-3.822473e-02
-3.841945e-02
-3.887360e-02
-3.957481e-02
-4.045613e-02
-4.144271e-02
-4.247242e-02
-4.350237e-02
-4.451420e-02
-4.551192e-02
-4.651068e-02
-4.752429e-02
-4.855365e-02
-4.957421e-02
-5.052537e-02
-5.131256e-02
-5.183624e-02
-5.205200e-02
-5.203338e-02
-5.197409e-02
-5.209127e-02
-5.248832e-02
-5.309072e-02
-5.370390e-02
-5.413499e-02
-5.428685e-02
-5.419065e-02
-5.399727e-02
-5.394122e-02
-5.426667e-02
-5.513073e-02
-5.654613e-02
-5.839890e-02
-6.049838e-02
-6.260603e-02
-6.445892e-02
-6.583487e-02
-6.663974e-02
-6.695006e-02
-6.698660e-02
-6.704224e-02
-6.738877e-02
-6.817820e-02
-6.936660e-02
-7.071036e-02
-7.187226e-02
-7.259691e-02
-7.283405e-02
-7.272380e-02
-7.249080e-02
-7.236135e-02
-7.254134e-02
-7.319487e-02
-7.439002e-02
-7.606707e-02
-7.808624e-02
-8.030813e-02
-8.260449e-02
-8.479611e-02
-8.663881e-02
-8.793237e-02
-8.864540e-02
-8.891620e-02
-8.895868e-02
-8.898654e-02
-8.917516e-02
-8.960864e-02
-9.023174e-02
-9.089094e-02
-9.144592e-02
-9.182555e-02
-9.198422e-02
-9.186376e-02
-9.144358e-02
-9.079302e-02
-9.002437e-02
-8.921692e-02
-8.844041e-02
-8.785006e-02
-8.769669e-02
-8.820259e-02
-8.942662e-02
-9.123132e-02
-9.333761e-02
-9.539550e-02
-9.705795e-02
-9.808783e-02
-9.846542e-02
-9.840407e-02
-9.823196e-02
-9.821063e-02
-9.841300e-02
-9.873042e-02
-9.897607e-02
-9.899200e-02
-9.869260e-02
-9.805549e-02
-9.710937e-02
-9.593562e-02
-9.466822e-02
-9.348158e-02
-9.255670e-02
-9.202198e-02
-9.189892e-02
-9.209767e-02
-9.246087e-02
-9.280621e-02
-9.295513e-02
-9.278279e-02
-9.227501e-02
-9.152644e-02
-9.067014e-02
-8.980672e-02
-8.898129e-02
-8.817546e-02
-8.729289e-02
-8.619320e-02
-8.480272e-02
-8.320737e-02
-8.160809e-02
-8.018240e-02
-7.902549e-02
-7.822977e-02
-7.795907e-02
-7.837626e-02
-7.949714e-02
-8.114894e-02
-8.306716e-02
-8.502221e-02
-8.688778e-02
-8.865261e-02
-9.041564e-02
-9.237562e-02
-9.478489e-02
-9.783764e-02
-1.015318e-01
-1.056248e-01
-1.097632e-01
-1.136983e-01
-1.173993e-01
-1.209825e-01
-1.245683e-01
-1.282379e-01
-1.321000e-01
-1.363306e-01
-1.410753e-01
-1.462858e-01
-1.516651e-01
-1.567867e-01
-1.612824e-01
-1.649610e-01
-1.678347e-01
-1.700919e-01
-1.720195e-01
-1.738643e-01
-1.756966e-01
-1.773910e-01
-1.787446e-01
-1.796139e-01
-1.799583e-01
-1.797978e-01
-1.791659e-01
-1.780879e-01
-1.765840e-01
-1.747184e-01
-1.726815e-01
-1.708206e-01
-1.695486e-01
-1.691566e-01
-1.696425e-01
-1.706615e-01
-1.716160e-01
-1.718079e-01
-1.706047e-01
-1.676564e-01
-1.631411e-01
-1.578199e-01
-1.527172e-01
-1.486284e-01
-1.458746e-01
-1.444549e-01
-1.443119e-01
-1.453742e-01
-1.474098e-01
-1.499691e-01
-1.525231e-01
-1.546290e-01
-1.559721e-01
-1.563534e-01
-1.557333e-01
-1.542883e-01
-1.523594e-01
-1.502952e-01
-1.483391e-01
-1.466491e-01
-1.453220e-01
-1.442636e-01
-1.430441e-01
-1.410407e-01
-1.378677e-01
-1.337124e-01
-1.292606e-01
-1.253197e-01
-1.224616e-01
-1.208364e-01
-1.201249e-01
-1.196073e-01
-1.183854e-01
-1.157365e-01
-1.114179e-01
-1.057050e-01
-9.913059e-02
-9.214852e-02
-8.496942e-02
-7.762172e-02
-7.012332e-02
-6.265062e-02
-5.562641e-02
-4.962409e-02
-4.505921e-02
-4.187470e-02
-3.956001e-02
-3.755096e-02
-3.560654e-02
-3.381531e-02
-3.234907e-02
-3.129290e-02
-3.066278e-02
-3.048230e-02
-3.084262e-02
-3.195739e-02
-3.415330e-02
-3.774359e-02
-4.288569e-02
-4.957252e-02
-5.771373e-02
-6.712360e-02
-7.743396e-02
-8.814150e-02
-9.882761e-02
-1.093307e-01
-1.196848e-01
-1.299095e-01
-1.398883e-01
-1.494359e-01
-1.584314e-01
-1.668378e-01
-1.746003e-01
-1.816029e-01
-1.878020e-01
-1.933813e-01
-1.986823e-01
-2.039434e-01
-2.091762e-01
-2.143644e-01
-2.197421e-01
-2.258182e-01
-2.331539e-01
-2.421419e-01
-2.529189e-01
-2.653329e-01
-2.789414e-01
-2.931143e-01
-3.071900e-01
-3.205381e-01
-3.325100e-01
-3.424575e-01
-3.499575e-01
-3.550944e-01
-3.584765e-01
-3.608947e-01
-3.629396e-01
-3.648989e-01
-3.668952e-01
-3.690133e-01
-3.713110e-01
-3.738142e-01
-3.765871e-01
-3.798125e-01
-3.837627e-01
-3.886536e-01
-3.944861e-01
-4.009796e-01
-4.076357e-01
-4.138906e-01
-4.192661e-01
-4.234523e-01
-4.263261e-01
-4.279619e-01
-4.286537e-01
-4.288748e-01
-4.291019e-01
-4.295994e-01
-4.303873e-01
-4.314353e-01
-4.328269e-01
-4.346911e-01
-4.370460e-01
-4.398202e-01
-4.430311e-01
-4.468185e-01
-4.512256e-01
-4.559980e-01
-4.606702e-01
-4.648424e-01
-4.683430e-01
-4.711929e-01
-4.735300e-01
-4.755807e-01
-4.775829e-01
-4.796173e-01
-4.815191e-01
-4.830133e-01
-4.839491e-01
-4.843851e-01
-4.844695e-01
-4.843034e-01
-4.839607e-01
-4.836070e-01
-4.835262e-01
-4.839855e-01
-4.850762e-01
-4.867003e-01
-4.887075e-01
-4.910205e-01
-4.936390e-01
-4.965669e-01
-4.997643e-01
-5.031632e-01
-5.067055e-01
-5.103561e-01
-5.140777e-01
-5.178051e-01
-5.214687e-01
-5.250640e-01
-5.286935e-01
-5.325275e-01
-5.367240e-01
-5.413886e-01
-5.465963e-01
-5.524276e-01
-5.589631e-01
-5.662237e-01
-5.741002e-01
-5.823485e-01
-5.906920e-01
-5.989648e-01
-6.071818e-01
-6.154883e-01
-6.240432e-01
-6.329332e-01
-6.421621e-01
-6.516768e-01
-6.613710e-01
-6.710974e-01
-6.807609e-01
-6.904668e-01
-7.005531e-01
-7.114112e-01
-7.232524e-01
-7.360256e-01
-7.494935e-01
-7.633438e-01
-7.772665e-01
-7.910111e-01
-8.044032e-01
-8.173112e-01
-8.296393e-01
-8.413927e-01
-8.527108e-01
-8.637482e-01
-8.744888e-01
-8.847192e-01
-8.942111e-01
-9.028934e-01
-9.108269e-01
-9.180743e-01
-9.246755e-01
-9.307168e-01
-9.363104e-01
-9.414573e-01
-9.459911e-01
-9.497081e-01
-9.525037e-01
-9.543553e-01
-9.552649e-01
-9.553348e-01
-9.549052e-01
-9.545347e-01
-9.547866e-01
-9.560278e-01
-9.583953e-01
-9.618546e-01
-9.661818e-01
-9.708923e-01
-9.753276e-01
-9.789820e-01
-9.818131e-01
-9.842270e-01
-9.867833e-01
-9.899424e-01
-9.940355e-01
-9.993099e-01
-1.005835e+00
-1.013339e+00
-1.021258e+00
-1.029057e+00
-1.036498e+00
-1.043599e+00
-1.050420e+00
-1.056960e+00
-1.063222e+00
-1.069278e+00
-1.075214e+00
-1.081059e+00
-1.086791e+00
-1.092371e+00
-1.097726e+00
-1.102713e+00
-1.107149e+00
-1.110915e+00
-1.114018e+00
-1.116564e+00
-1.118698e+00
-1.120624e+00
-1.122658e+00
-1.125212e+00
-1.128661e+00
-1.133193e+00
-1.138753e+00
-1.145109e+00
-1.151966e+00
-1.159047e+00
-1.166124e+00
-1.173032e+00
-1.179686e+00
-1.186108e+00
-1.192445e+00
-1.198926e+00
-1.205779e+00
-1.213119e+00
-1.220882e+00
-1.228836e+00
-1.236698e+00
-1.244277e+00
-1.251529e+00
-1.258516e+00
-1.265384e+00
-1.272404e+00
-1.279973e+00
-1.288493e+00
-1.298151e+00
-1.308811e+00
-1.320068e+00
-1.331404e+00
-1.342323e+00
-1.352486e+00
-1.361869e+00
-1.370841e+00
-1.380014e+00
-1.389921e+00
-1.400777e+00
-1.412421e+00
-1.424387e+00
-1.436029e+00
-1.446727e+00
-1.456087e+00
-1.463993e+00
-1.470479e+00
-1.475617e+00
-1.479562e+00
-1.482659e+00
-1.485403e+00
-1.488208e+00
-1.491208e+00
-1.494287e+00
-1.497280e+00
-1.500137e+00
-1.502931e+00
-1.505771e+00
-1.508750e+00
-1.511929e+00
-1.515292e+00
-1.518683e+00
-1.521797e+00
-1.524298e+00
-1.525956e+00
-1.526715e+00
-1.526657e+00
-1.525986e+00
-1.525064e+00
-1.524416e+00
-1.524602e+00
-1.526040e+00
-1.528908e+00
-1.533145e+00
-1.538504e+00
-1.544620e+00
-1.551101e+00
-1.557641e+00
-1.564067e+00
-1.570297e+00
-1.576305e+00
-1.582173e+00
-1.588146e+00
-1.594533e+00
-1.601498e+00
-1.608956e+00
-1.616673e+00
-1.624445e+00
-1.632175e+00
-1.639827e+00
-1.647375e+00
-1.654787e+00
-1.662048e+00
-1.669174e+00
-1.676227e+00
-1.683304e+00
-1.690486e+00
-1.697784e+00
-1.705103e+00
-1.712263e+00
-1.719069e+00
-1.725373e+00
-1.731087e+00
-1.736167e+00
-1.740648e+00
-1.744694e+00
-1.748556e+00
-1.752403e+00
-1.756215e+00
-1.759882e+00
-1.763439e+00
-1.767179e+00
-1.771526e+00
-1.776810e+00
-1.783127e+00
-1.790313e+00
-1.798021e+00
-1.805873e+00
-1.813631e+00
-1.821256e+00
-1.828830e+00
-1.836479e+00
-1.844379e+00
-1.852784e+00
-1.861979e+00
-1.872160e+00
-1.883334e+00
-1.895306e+00
-1.907745e+00
-1.920299e+00
-1.932735e+00
-1.945070e+00
-1.957609e+00
-1.970814e+00
-1.985106e+00
-2.000707e+00
-2.017595e+00
-2.035532e+00
-2.054122e+00
-2.072940e+00
-2.091673e+00
-2.110251e+00
-2.128871e+00
-2.147902e+00
-2.167698e+00
-2.188430e+00
-2.210030e+00
-2.232232e+00
-2.254646e+00
-2.276847e+00
-2.298487e+00
-2.319392e+00
-2.339603e+00
-2.359326e+00
-2.378839e+00
-2.398378e+00
-2.418040e+00
-2.437746e+00
-2.457270e+00
-2.476340e+00
-2.494717e+00
-2.512246e+00
-2.528863e+00
-2.544598e+00
-2.559561e+00
-2.573868e+00
-2.587547e+00
-2.600522e+00
-2.612716e+00
-2.624138e+00
-2.634866e+00
-2.644978e+00
-2.654511e+00
-2.663506e+00
-2.672013e+00
-2.680019e+00
-2.687391e+00
-2.693921e+00
-2.699494e+00
-2.704218e+00
-2.708408e+00
-2.712421e+00
-2.716493e+00
-2.720665e+00
-2.724812e+00
-2.728698e+00
-2.732060e+00
-2.734744e+00
-2.736806e+00
-2.738478e+00
-2.740032e+00
-2.741694e+00
-2.743690e+00
-2.746336e+00
-2.750016e+00
-2.755059e+00
-2.761649e+00
-2.769812e+00
-2.779442e+00
-2.790304e+00
-2.802054e+00
-2.814325e+00
-2.826848e+00
-2.839545e+00
-2.852520e+00
-2.866002e+00
-2.880262e+00
-2.895533e+00
-2.911927e+00
-2.929358e+00
-2.947539e+00
-2.966081e+00
-2.984607e+00
-3.002803e+00
-3.020403e+00
-3.037190e+00
-3.053035e+00
-3.067897e+00
-3.081778e+00
-3.094607e+00
-3.106183e+00
-3.116175e+00
-3.124204e+00
-3.129910e+00
-3.132989e+00
-3.133193e+00
-3.130302e+00
-3.124104e+00
-3.114418e+00
-3.101132e+00
-3.084233e+00
-3.063819e+00
-3.040062e+00
-3.013148e+00
-2.983201e+00
-2.950234e+00
-2.914176e+00
-2.874962e+00
-2.832619e+00
-2.787250e+00
-2.738961e+00
-2.687808e+00
-2.633802e+00
-2.576945e+00
-2.517241e+00
-2.454691e+00
-2.389311e+00
-2.321139e+00
-2.250216e+00
-2.176573e+00
-2.100246e+00
-2.021310e+00
-1.939889e+00
-1.856134e+00
-1.770186e+00
-1.682167e+00
-1.592164e+00
-1.500207e+00
-1.406240e+00
-1.310141e+00
-1.211765e+00
-1.111000e+00
-1.007793e+00
-9.021637e-01
-7.942194e-01
-6.841531e-01
-5.722109e-01
-4.586174e-01
-3.435270e-01
-2.270565e-01
-1.093792e-01
9.215740e-03
1.283520e-01
2.476208e-01
3.665853e-01
4.847394e-01
6.014966e-01
7.162689e-01
8.286092e-01
9.383211e-01
1.045476e+00
1.150360e+00
1.253404e+00
1.355115e+00
1.456016e+00
1.556563e+00
1.657013e+00
1.757303e+00
1.857029e+00
1.955568e+00
2.052231e+00
2.146375e+00
2.237408e+00
2.324765e+00
2.407906e+00
2.486381e+00
2.559896e+00
2.628363e+00
2.691883e+00
2.750694e+00
2.805065e+00
2.855198e+00
2.901163e+00
2.942902e+00
2.980315e+00
3.013366e+00
3.042150e+00
3.066917e+00
3.088052e+00
3.106023e+00
3.121342e+00
3.134568e+00
3.146361e+00
3.157520e+00
3.168975e+00
3.181754e+00
3.196930e+00
3.215527e+00
3.238310e+00
3.265523e+00
3.296754e+00
3.331027e+00
3.367097e+00
3.403781e+00
3.440142e+00
3.475458e+00
3.509149e+00
3.540753e+00
3.569948e+00
3.596560e+00
3.620540e+00
3.641952e+00
3.660989e+00
3.677940e+00
3.693091e+00
3.706628e+00
3.718619e+00
3.729089e+00
3.738104e+00
3.745791e+00
3.752312e+00
3.757858e+00
3.762684e+00
3.767157e+00
3.771744e+00
3.776962e+00
3.783343e+00
3.791380e+00
3.801433e+00
3.813568e+00
3.827415e+00
3.842172e+00
3.856800e+00
3.870269e+00
3.881689e+00
3.890351e+00
3.895729e+00
3.897513e+00
3.895636e+00
3.890251e+00
3.881637e+00
3.870117e+00
3.856013e+00
3.839601e+00
3.821065e+00
3.800461e+00
3.777744e+00
3.752853e+00
3.725782e+00
3.696607e+00
3.665459e+00
3.632472e+00
3.597736e+00
3.561268e+00
3.523002e+00
3.482823e+00
3.440627e+00
3.396388e+00
3.350175e+00
3.302156e+00
3.252613e+00
3.201965e+00
3.150786e+00
3.099768e+00
3.049649e+00
3.001149e+00
2.954919e+00
2.911459e+00
2.871022e+00
2.833520e+00
2.798506e+00
2.765258e+00
2.732942e+00
2.700772e+00
2.668102e+00
2.634443e+00
2.599475e+00
2.563058e+00
2.525221e+00
2.486092e+00
2.445782e+00
2.404313e+00
2.361642e+00
2.317739e+00
2.272632e+00
2.226399e+00
2.179134e+00
2.130939e+00
2.081938e+00
2.032290e+00
1.982188e+00
1.931840e+00
1.881451e+00
1.831204e+00
1.781267e+00
1.731800e+00
1.682985e+00
1.635041e+00
1.588243e+00
1.542918e+00
1.499403e+00
1.457983e+00
1.418830e+00
1.381971e+00
1.347312e+00
1.314659e+00
1.283752e+00
1.254292e+00
1.226012e+00
1.198744e+00
1.172491e+00
1.147434e+00
1.123862e+00
1.102072e+00
1.082294e+00
1.064667e+00
1.049243e+00
1.035989e+00
1.024762e+00
1.015272e+00
1.007107e+00
9.998184e-01
9.930170e-01
9.864101e-01
9.797700e-01
9.728776e-01
9.655105e-01
9.574954e-01
9.487811e-01
9.394809e-01
9.298501e-01
9.202036e-01
9.108259e-01
9.019276e-01
8.936577e-01
8.861380e-01
8.794783e-01
8.737643e-01
8.690375e-01
8.652805e-01
8.624023e-01
8.602248e-01
8.584818e-01
8.568412e-01
8.549448e-01
8.524407e-01
8.489929e-01
8.442789e-01
8.379880e-01
8.298245e-01
8.195053e-01
8.067522e-01
7.912890e-01
7.728544e-01
7.512307e-01
7.262811e-01
6.979912e-01
6.665053e-01
6.321461e-01
5.953965e-01
5.568387e-01
5.170945e-01
4.767979e-01
4.365828e-01
3.970593e-01
3.587727e-01
3.221648e-01
2.875655e-01
2.552230e-01
2.253440e-01
1.981135e-01
1.736888e-01
1.521757e-01
1.336051e-01
1.179185e-01
1.049678e-01
9.453676e-02
8.637904e-02
8.026722e-02
7.603879e-02
7.361915e-02
7.300206e-02
7.419010e-02
7.712244e-02
8.162441e-02
8.740185e-02
9.407919e-02
1.012525e-01
1.085227e-01
1.155057e-01
1.218400e-01
1.272009e-01
1.313094e-01
1.339361e-01
1.349053e-01
1.341064e-01
1.315032e-01
1.271293e-01
1.210638e-01
1.133962e-01
1.041933e-01
9.348638e-02
8.128279e-02
6.759901e-02
5.249576e-02
3.610093e-02
1.861191e-02
2.721867e-04
-1.867315e-02
-3.802107e-02
-5.763375e-02
-7.744200e-02
-9.743834e-02
-1.176640e-01
-1.381946e-01
-1.591256e-01
-1.805520e-01
-2.025350e-01
-2.250683e-01
-2.480690e-01
-2.714009e-01
-2.949105e-01
-3.184410e-01
-3.418201e-01
-3.648487e-01
-3.873148e-01
-4.090270e-01
-4.298406e-01
-4.496598e-01
-4.684203e-01
-4.860721e-01
-5.025686e-01
-5.178581e-01
-5.318735e-01
-5.445285e-01
-5.557273e-01
-5.653774e-01
-5.734066e-01
-5.797872e-01
-5.845686e-01
-5.879037e-01
-5.900559e-01
-5.913823e-01
-5.923026e-01
-5.932684e-01
-5.947303e-01
-5.970936e-01
-6.006759e-01
-6.056841e-01
-6.122078e-01
-6.202123e-01
-6.295294e-01
-6.398601e-01
-6.508127e-01
-6.619700e-01
-6.729444e-01
-6.833999e-01
-6.930567e-01
-7.017025e-01
-7.092111e-01
-7.155473e-01
-7.207461e-01
-7.248784e-01
-7.280272e-01
-7.302817e-01
-7.317380e-01
-7.324877e-01
-7.325857e-01
-7.320078e-01
-7.306309e-01
-7.282535e-01
-7.246447e-01
-7.195944e-01
-7.129411e-01
-7.045852e-01
-6.945084e-01
-6.828015e-01
-6.696706e-01
-6.554079e-01
-6.403384e-01
-6.247680e-01
-6.089508e-01
-5.930763e-01
-5.772572e-01
-5.615092e-01
-5.457484e-01
-5.298305e-01
-5.136249e-01
-4.970800e-01
-4.802471e-01
-4.632607e-01
-4.463069e-01
-4.295976e-01
-4.133461e-01
-3.977335e-01
-3.828744e-01
-3.687898e-01
-3.553931e-01
-3.425014e-01
-3.298792e-01
-3.172938e-01
-3.045496e-01
-2.914997e-01
-2.780455e-01
-2.641388e-01
-2.497873e-01
-2.350589e-01
-2.200807e-01
-2.050306e-01
-1.901179e-01
-1.755583e-01
-1.615596e-01
-1.483244e-01
-1.360583e-01
-1.249636e-01
-1.152173e-01
-1.069458e-01
-1.002113e-01
-9.500370e-02
-9.123042e-02
-8.870662e-02
-8.715532e-02
-8.622884e-02
-8.555347e-02
-8.478314e-02
-8.365365e-02
-8.203492e-02
-7.995387e-02
-7.755985e-02
-7.505160e-02
-7.261020e-02
-7.036048e-02
-6.835718e-02
-6.658643e-02
-6.498000e-02
-6.344079e-02
-6.186515e-02
-6.014305e-02
-5.814361e-02
-5.571451e-02
-5.270640e-02
-4.901116e-02
-4.460263e-02
-3.956540e-02
-3.409294e-02
-2.844680e-02
-2.289155e-02
-1.763853e-02
-1.282549e-02
-8.524508e-03
-4.744166e-03
-1.414761e-03
1.621331e-03
4.591901e-03
7.743886e-03
1.127594e-02
1.529422e-02
1.982000e-02
2.483426e-02
3.031758e-02
3.626032e-02
4.265167e-02
4.946971e-02
5.668112e-02
6.424339e-02
7.210342e-02
8.019710e-02
8.845689e-02
9.682523e-02
1.052633e-01
1.137483e-01
1.222641e-01
1.307907e-01
1.392965e-01
1.477377e-01
1.560754e-01
1.643166e-01
1.725535e-01
1.809668e-01
1.897830e-01
1.992235e-01
2.094789e-01
2.207091e-01
2.330430e-01
2.465663e-01
2.613082e-01
2.772442e-01
2.943183e-01
3.124649e-01
3.316151e-01
3.516899e-01
3.725923e-01
3.942045e-01
4.163815e-01
4.389399e-01
4.616565e-01
4.842882e-01
5.066154e-01
5.284905e-01
5.498689e-01
5.708126e-01
5.914776e-01
6.120920e-01
6.329233e-01
6.542418e-01
6.762841e-01
6.992123e-01
7.230740e-01
7.477792e-01
7.731071e-01
7.987478e-01
8.243650e-01
8.496433e-01
8.743029e-01
8.980955e-01
9.208051e-01
9.422565e-01
9.623229e-01
9.809126e-01
9.979408e-01
1.013306e+00
1.026895e+00
1.038611e+00
1.048409e+00
1.056309e+00
1.062384e+00
1.066740e+00
1.069484e+00
1.070714e+00
1.070527e+00
1.069047e+00
1.066435e+00
1.062877e+00
1.058554e+00
