EVENT_NAME: EMILIA_2ND_SHOCK
EVENT_ID: IT-2012-0011
EVENT_DATE_YYYYMMDD: 20120529
EVENT_TIME_HHMMSS: 070002
EVENT_LATITUDE_DEGREE: 44.8417
EVENT_LONGITUDE_DEGREE: 11.0657
EVENT_DEPTH_KM: 8.1
HYPOCENTER_REFERENCE: INGV-CNT_Seismic_Bulletin
MAGNITUDE_W: 6.0
MAGNITUDE_W_REFERENCE: RCMT-INGV
MAGNITUDE_L: 5.8
MAGNITUDE_L_REFERENCE: INGV-CNT_Seismic_Bulletin
FOCAL_MECHANISM: TF
NETWORK: IV
STATION_CODE: T0818
STATION_NAME: T0818
STATION_LATITUDE_DEGREE: 44.934800
STATION_LONGITUDE_DEGREE: 11.030400
STATION_ELEVATION_M: 5
LOCATION: 
SENSOR_DEPTH_M: 1.0
VS30_M/S: 
SITE_CLASSIFICATION_EC8: C*
MORPHOLOGIC_CLASSIFICATION: 
EPICENTRAL_DISTANCE_KM: 10.7
EARTHQUAKE_BACKAZIMUTH_DEGREE: 164.9
DATE_TIME_FIRST_SAMPLE_YYYYMMDD_HHMMSS: 20120529_065952.000
DATE_TIME_FIRST_SAMPLE_PRECISION: milliseconds
SAMPLING_INTERVAL_S: 0.005000
NDATA: 20001
DURATION_S: 100.005
STREAM: HNE
UNITS: cm
INSTRUMENT: sensor = Episensor FBA ES-T [Kinemetrics] | digitizer = Unknown [Unknown]
INSTRUMENT_ANALOG/DIGITAL: D
INSTRUMENTAL_FREQUENCY_HZ: 
INSTRUMENTAL_DAMPING: 
FULL_SCALE_G: 
N_BIT_DIGITAL_CONVERTER: 
PGD_CM: -3.487010
TIME_PGD_S: 19.675000
BASELINE_CORRECTION: BASELINE REMOVED
FILTER_TYPE: BUTTERWORTH
FILTER_ORDER: 2
LOW_CUT_FREQUENCY_HZ: 0.060
HIGH_CUT_FREQUENCY_HZ: 40.000
LATE/NORMAL_TRIGGERED: NT
DATABASE_VERSION: DYNA 1.0
HEADER_FORMAT: DYNA 1.2
DATA_TYPE: DISPLACEMENT
PROCESSING: manual (Paolucci et al., 2011)
DATA_TIMESTAMP_YYYYMMDD_HHMMSS: 
DATA_LICENSE: CC-BY4_0 (http://creativecommons.org/licenses/by/4.0/)
DATA_CITATION: ESM working group (2015), European Strong-Motion database, version 0.1, Network Activity 3: Networking acceleration networks and SM data users. Project NERA (www.nera-eu.org)
DATA_CREATOR: ESM working group
ORIGINAL_DATA_MEDIATOR_CITATION: Orfeus - European Integrated Data Archive (EIDA) http://www.orfeus-eu.org/eida/
ORIGINAL_DATA_MEDIATOR: Orfeus - European Integrated Data Archive (EIDA)
ORIGINAL_DATA_CREATOR_CITATION: Data for this study comes from the Italian national seismic network operated by Istituto Nazionale di Geofisica e Vulcanologia and archived at the European Integrated Data Archive http://eida.rm.ingv.it/
ORIGINAL_DATA_CREATOR: network: IV (Italian National Seismic Network); owner: Istituto Nazionale di Geofisica e Vulcanologia
USER1: 
USER2: 
USER3: 
USER4: 
USER5: 
[...]
2.540760e-01
2.546988e-01
2.553871e-01
2.561730e-01
2.570214e-01
2.578504e-01
2.585894e-01
2.592186e-01
2.597547e-01
2.602144e-01
2.606088e-01
2.609647e-01
2.613229e-01
2.616971e-01
2.620451e-01
2.623059e-01
2.624738e-01
2.626254e-01
2.628629e-01
2.632310e-01
2.636953e-01
2.641894e-01
2.646638e-01
2.650846e-01
2.654163e-01
2.656446e-01
2.658177e-01
2.660368e-01
2.663882e-01
2.668880e-01
2.674953e-01
2.681541e-01
2.688128e-01
2.694178e-01
2.699213e-01
2.703073e-01
2.706140e-01
2.709301e-01
2.713615e-01
2.719791e-01
2.727857e-01
2.737298e-01
2.747444e-01
2.757591e-01
2.766795e-01
2.773917e-01
2.778272e-01
2.780368e-01
2.781775e-01
2.784029e-01
2.787622e-01
2.792047e-01
2.796713e-01
2.801731e-01
2.807838e-01
2.815583e-01
2.824612e-01
2.833816e-01
2.842242e-01
2.849831e-01
2.857175e-01
2.864589e-01
2.871615e-01
2.877618e-01
2.882700e-01
2.887722e-01
2.893463e-01
2.899991e-01
2.906902e-01
2.913893e-01
2.920923e-01
2.928002e-01
2.935099e-01
2.942241e-01
2.949493e-01
2.956773e-01
2.963845e-01
2.970578e-01
2.977056e-01
2.983370e-01
2.989396e-01
2.994951e-01
3.000087e-01
3.005030e-01
3.009793e-01
3.014050e-01
3.017554e-01
3.020637e-01
3.024073e-01
3.028319e-01
3.032931e-01
3.036811e-01
3.039100e-01
3.039908e-01
3.040245e-01
3.041238e-01
3.043341e-01
3.046199e-01
3.049164e-01
3.051921e-01
3.054656e-01
3.057795e-01
3.061720e-01
3.066716e-01
3.072894e-01
3.079947e-01
3.087118e-01
3.093752e-01
3.100009e-01
3.106827e-01
3.115038e-01
3.124633e-01
3.134901e-01
3.144943e-01
3.153744e-01
3.160054e-01
3.162911e-01
3.162556e-01
3.160676e-01
3.159607e-01
3.161296e-01
3.166757e-01
3.175884e-01
3.187454e-01
3.199675e-01
3.211193e-01
3.221735e-01
3.231632e-01
3.240765e-01
3.248236e-01
3.253113e-01
3.255338e-01
3.255797e-01
3.255678e-01
3.255854e-01
3.256744e-01
3.258529e-01
3.261439e-01
3.265882e-01
3.272265e-01
3.280590e-01
3.290265e-01
3.300431e-01
3.310441e-01
3.319920e-01
3.328460e-01
3.335605e-01
3.341321e-01
3.346297e-01
3.351425e-01
3.356784e-01
3.361319e-01
3.363901e-01
3.365013e-01
3.367307e-01
3.374071e-01
3.386690e-01
3.403343e-01
3.420190e-01
3.433904e-01
3.443323e-01
3.449263e-01
3.453439e-01
3.457596e-01
3.462990e-01
3.470012e-01
3.478156e-01
3.486565e-01
3.494651e-01
3.502072e-01
3.508209e-01
3.512139e-01
3.513536e-01
3.513540e-01
3.514370e-01
3.517855e-01
3.524354e-01
3.532980e-01
3.542511e-01
3.551976e-01
3.560815e-01
3.569089e-01
3.577692e-01
3.587977e-01
3.600619e-01
3.614615e-01
3.627575e-01
3.637277e-01
3.643130e-01
3.646277e-01
3.648455e-01
3.650853e-01
3.653862e-01
3.657639e-01
3.662769e-01
3.670329e-01
3.681146e-01
3.694844e-01
3.709611e-01
3.723002e-01
3.733026e-01
3.738749e-01
3.740490e-01
3.739783e-01
3.738788e-01
3.739027e-01
3.740372e-01
3.741448e-01
3.741309e-01
3.740669e-01
3.741341e-01
3.744439e-01
3.749309e-01
3.754426e-01
3.759348e-01
3.765528e-01
3.774953e-01
3.787947e-01
3.802559e-01
3.816061e-01
3.826746e-01
3.834247e-01
3.838807e-01
3.841047e-01
3.842344e-01
3.844532e-01
3.848754e-01
3.854801e-01
3.861753e-01
3.868860e-01
3.875441e-01
3.880360e-01
3.882365e-01
3.881216e-01
3.878144e-01
3.874937e-01
3.872695e-01
3.871516e-01
3.871117e-01
3.871496e-01
3.872905e-01
3.875173e-01
3.877037e-01
3.876501e-01
3.872531e-01
3.866695e-01
3.862702e-01
3.863811e-01
3.870767e-01
3.882429e-01
3.897718e-01
3.916314e-01
3.937785e-01
3.961040e-01
3.984877e-01
4.008246e-01
4.029689e-01
4.047399e-01
4.060763e-01
4.071579e-01
4.082881e-01
4.096523e-01
4.112314e-01
4.129188e-01
4.146395e-01
4.163415e-01
4.179733e-01
4.195543e-01
4.212376e-01
4.232195e-01
4.255436e-01
4.280117e-01
4.303303e-01
4.323518e-01
4.341487e-01
4.358481e-01
4.374380e-01
4.387916e-01
4.398874e-01
4.409498e-01
4.423115e-01
4.441188e-01
4.461914e-01
4.481872e-01
4.498969e-01
4.513826e-01
4.528585e-01
4.544734e-01
4.562129e-01
4.579858e-01
4.597788e-01
4.617200e-01
4.639890e-01
4.666481e-01
4.695558e-01
4.724606e-01
4.751954e-01
4.777934e-01
4.804356e-01
4.832963e-01
4.864103e-01
4.896325e-01
4.927000e-01
4.953645e-01
4.975074e-01
4.991647e-01
5.004783e-01
5.016328e-01
5.027844e-01
5.039648e-01
5.050341e-01
5.057907e-01
5.061623e-01
5.062530e-01
5.061763e-01
5.059056e-01
5.053728e-01
5.046970e-01
5.042128e-01
5.042050e-01
5.046457e-01
5.052509e-01
5.057883e-01
5.062873e-01
5.069454e-01
5.078680e-01
5.089350e-01
5.099068e-01
5.106114e-01
5.110207e-01
5.112180e-01
5.113577e-01
5.116335e-01
5.122066e-01
5.131175e-01
5.142942e-01
5.156673e-01
5.172447e-01
5.190243e-01
5.208434e-01
5.223757e-01
5.233240e-01
5.236380e-01
5.235739e-01
5.235565e-01
5.239440e-01
5.248385e-01
5.260509e-01
5.272365e-01
5.281196e-01
5.286722e-01
5.291378e-01
5.298687e-01
5.310753e-01
5.326781e-01
5.343819e-01
5.358821e-01
5.369915e-01
5.376111e-01
5.376697e-01
5.371464e-01
5.361166e-01
5.347242e-01
5.331251e-01
5.315239e-01
5.302605e-01
5.297423e-01
5.301659e-01
5.312958e-01
5.325993e-01
5.336379e-01
5.343264e-01
5.348246e-01
5.352336e-01
5.354510e-01
5.353226e-01
5.348845e-01
5.343977e-01
5.341213e-01
5.340473e-01
5.338661e-01
5.332320e-01
5.321059e-01
5.308421e-01
5.299299e-01
5.296599e-01
5.300441e-01
5.309698e-01
5.322954e-01
5.337922e-01
5.351393e-01
5.361142e-01
5.367745e-01
5.373643e-01
5.380275e-01
5.386497e-01
5.389871e-01
5.389280e-01
5.386169e-01
5.383335e-01
5.382730e-01
5.384444e-01
5.387512e-01
5.391189e-01
5.395239e-01
5.399527e-01
5.404102e-01
5.409717e-01
5.417442e-01
5.426994e-01
5.435736e-01
5.440101e-01
5.438478e-01
5.432808e-01
5.427544e-01
5.427244e-01
5.434479e-01
5.448565e-01
5.465297e-01
5.478645e-01
5.484423e-01
5.483190e-01
5.479326e-01
5.476972e-01
5.476920e-01
5.477220e-01
5.475791e-01
5.471844e-01
5.465548e-01
5.457692e-01
5.450168e-01
5.445976e-01
5.447563e-01
5.454784e-01
5.464954e-01
5.475372e-01
5.485715e-01
5.497700e-01
5.512536e-01
5.529010e-01
5.543993e-01
5.554382e-01
5.558499e-01
5.556288e-01
5.549032e-01
5.538940e-01
5.528472e-01
5.519552e-01
5.513194e-01
5.509627e-01
5.508498e-01
5.509042e-01
5.510407e-01
5.511993e-01
5.513435e-01
5.514399e-01
5.514637e-01
5.514267e-01
5.513688e-01
5.512927e-01
5.511124e-01
5.506890e-01
5.499300e-01
5.488394e-01
5.474586e-01
5.457699e-01
5.436939e-01
5.412109e-01
5.384827e-01
5.358330e-01
5.335843e-01
5.318972e-01
5.307403e-01
5.299590e-01
5.293220e-01
5.285407e-01
5.273772e-01
5.258379e-01
5.242546e-01
5.230872e-01
5.225795e-01
5.225937e-01
5.227737e-01
5.228471e-01
5.227645e-01
5.225939e-01
5.223614e-01
5.220304e-01
5.216015e-01
5.211792e-01
5.209457e-01
5.210950e-01
5.217782e-01
5.230588e-01
5.248727e-01
5.270329e-01
5.293154e-01
5.315892e-01
5.338881e-01
5.363537e-01
5.391037e-01
5.421471e-01
5.454043e-01
5.487714e-01
5.521469e-01
5.554340e-01
5.585756e-01
5.616033e-01
5.646076e-01
5.676205e-01
5.705343e-01
5.731718e-01
5.754450e-01
5.774247e-01
5.792462e-01
5.809626e-01
5.824986e-01
5.837352e-01
5.846161e-01
5.851769e-01
5.855153e-01
5.857749e-01
5.861477e-01
5.868256e-01
5.878876e-01
5.892294e-01
5.906265e-01
5.918691e-01
5.928300e-01
5.934189e-01
5.935060e-01
5.929115e-01
5.914791e-01
5.891934e-01
5.862720e-01
5.831511e-01
5.803321e-01
5.781597e-01
5.766935e-01
5.757749e-01
5.752212e-01
5.749831e-01
5.751518e-01
5.758388e-01
5.770424e-01
5.786175e-01
5.803741e-01
5.822112e-01
5.841512e-01
5.862446e-01
5.884571e-01
5.906688e-01
5.927799e-01
5.947950e-01
5.967998e-01
5.988679e-01
6.009886e-01
6.030587e-01
6.049200e-01
6.064130e-01
6.074253e-01
6.079197e-01
6.079310e-01
6.075410e-01
6.068626e-01
6.060292e-01
6.051605e-01
6.043032e-01
6.034187e-01
6.024587e-01
6.014468e-01
6.004560e-01
5.995029e-01
5.984952e-01
5.973038e-01
5.958667e-01
5.941957e-01
5.922936e-01
5.901095e-01
5.875912e-01
5.847596e-01
5.817219e-01
5.786367e-01
5.756935e-01
5.731164e-01
5.711335e-01
5.698930e-01
5.693795e-01
5.694106e-01
5.697375e-01
5.701792e-01
5.706687e-01
5.711664e-01
5.715482e-01
5.716209e-01
5.712627e-01
5.705202e-01
5.695483e-01
5.684784e-01
5.673827e-01
5.663475e-01
5.655019e-01
5.649226e-01
5.645388e-01
5.642028e-01
5.638773e-01
5.637092e-01
5.638584e-01
5.642563e-01
5.645722e-01
5.644287e-01
5.636416e-01
5.622668e-01
5.604619e-01
5.583395e-01
5.559417e-01
5.533002e-01
5.504664e-01
5.474745e-01
5.442904e-01
5.408075e-01
5.368840e-01
5.323940e-01
5.272726e-01
5.215358e-01
5.152492e-01
5.084557e-01
5.011299e-01
4.932271e-01
4.848128e-01
4.761603e-01
4.677160e-01
4.599428e-01
4.531628e-01
4.475196e-01
4.430609e-01
4.398240e-01
4.378239e-01
4.369757e-01
4.370684e-01
4.378406e-01
4.390956e-01
4.407403e-01
4.427235e-01
4.449538e-01
4.472917e-01
4.496248e-01
4.519448e-01
4.543491e-01
4.569716e-01
4.599216e-01
4.632857e-01
4.671614e-01
4.716673e-01
4.769055e-01
4.829119e-01
4.896490e-01
4.970482e-01
5.050497e-01
5.135873e-01
5.225278e-01
5.316236e-01
5.405170e-01
5.487830e-01
5.559767e-01
5.616770e-01
5.655207e-01
5.672166e-01
5.665396e-01
5.633231e-01
5.574673e-01
5.489472e-01
5.377954e-01
5.240570e-01
5.077690e-01
4.890373e-01
4.682143e-01
4.460502e-01
4.236229e-01
4.020135e-01
3.819597e-01
3.637687e-01
3.475039e-01
3.332260e-01
3.210756e-01
3.111835e-01
3.035305e-01
2.978566e-01
2.936507e-01
2.902373e-01
2.869526e-01
2.833347e-01
2.792048e-01
2.745575e-01
2.693348e-01
2.632757e-01
2.559760e-01
2.470785e-01
2.363882e-01
2.238205e-01
2.092823e-01
1.926259e-01
1.736921e-01
1.523586e-01
1.285329e-01
1.020962e-01
7.285525e-02
4.058670e-02
5.225255e-03
-3.290787e-02
-7.307473e-02
-1.144035e-01
-1.562691e-01
-1.984326e-01
-2.408527e-01
-2.833933e-01
-3.256792e-01
-3.671501e-01
-4.071934e-01
-4.452575e-01
-4.809284e-01
-5.139755e-01
-5.443408e-01
-5.720369e-01
-5.969888e-01
-6.189301e-01
-6.374449e-01
-6.521385e-01
-6.628158e-01
-6.695465e-01
-6.725915e-01
-6.722469e-01
-6.687019e-01
-6.619964e-01
-6.521027e-01
-6.390722e-01
-6.231507e-01
-6.047949e-01
-5.845830e-01
-5.630636e-01
-5.406148e-01
-5.174095e-01
-4.935223e-01
-4.690901e-01
-4.443883e-01
-4.197670e-01
-3.955288e-01
-3.718595e-01
-3.488370e-01
-3.264735e-01
-3.047580e-01
-2.837053e-01
-2.634090e-01
-2.440699e-01
-2.259758e-01
-2.094385e-01
-1.947204e-01
-1.819923e-01
-1.713445e-01
-1.628348e-01
-1.565247e-01
-1.524837e-01
-1.507821e-01
-1.515077e-01
-1.548132e-01
-1.609701e-01
-1.703852e-01
-1.835497e-01
-2.009466e-01
-2.229888e-01
-2.500123e-01
-2.821529e-01
-3.189342e-01
-3.588133e-01
-3.992785e-01
-4.376981e-01
-4.722586e-01
-5.021855e-01
-5.272408e-01
-5.471474e-01
-5.614442e-01
-5.697387e-01
-5.720350e-01
-5.689286e-01
-5.615719e-01
-5.513872e-01
-5.396752e-01
-5.273511e-01
-5.149109e-01
-5.025544e-01
-4.903445e-01
-4.783476e-01
-4.667385e-01
-4.558601e-01
-4.462205e-01
-4.384305e-01
-4.331124e-01
-4.308269e-01
-4.320270e-01
-4.370316e-01
-4.460262e-01
-4.591120e-01
-4.763835e-01
-4.979750e-01
-5.240296e-01
-5.545996e-01
-5.895298e-01
-6.283757e-01
-6.703895e-01
-7.145922e-01
-7.599041e-01
-8.053018e-01
-8.499515e-01
-8.932533e-01
-9.347656e-01
-9.740809e-01
-1.010764e+00
-1.044400e+00
-1.074695e+00
-1.101526e+00
-1.124906e+00
-1.144897e+00
-1.161577e+00
-1.175084e+00
-1.185669e+00
-1.193671e+00
-1.199421e+00
-1.203152e+00
-1.204979e+00
-1.204951e+00
-1.203123e+00
-1.199623e+00
-1.194659e+00
-1.188495e+00
-1.181409e+00
-1.173667e+00
-1.165547e+00
-1.157412e+00
-1.149800e+00
-1.143361e+00
-1.138548e+00
-1.135204e+00
-1.132442e+00
-1.129011e+00
-1.123895e+00
-1.116607e+00
-1.107069e+00
-1.095402e+00
-1.081914e+00
-1.067161e+00
-1.051903e+00
-1.036924e+00
-1.022870e+00
-1.010205e+00
-9.992749e-01
-9.903490e-01
-9.836135e-01
-9.791097e-01
-9.766899e-01
-9.760481e-01
-9.768249e-01
-9.787230e-01
-9.815663e-01
-9.852729e-01
-9.897634e-01
-9.948579e-01
-1.000229e+00
-1.005437e+00
-1.010028e+00
-1.013633e+00
-1.016039e+00
-1.017211e+00
-1.017248e+00
-1.016266e+00
-1.014311e+00
-1.011343e+00
-1.007301e+00
-1.002160e+00
-9.959711e-01
-9.888848e-01
-9.811972e-01
-9.733653e-01
-9.659695e-01
-9.596308e-01
-9.549344e-01
-9.524178e-01
-9.526209e-01
-9.561373e-01
-9.635951e-01
-9.755490e-01
-9.923447e-01
-1.014056e+00
-1.040543e+00
-1.071582e+00
-1.106983e+00
-1.146653e+00
-1.190591e+00
-1.238860e+00
-1.291544e+00
-1.348714e+00
-1.410407e+00
-1.476625e+00
-1.547353e+00
-1.622557e+00
-1.702133e+00
-1.785816e+00
-1.873108e+00
-1.963289e+00
-2.055500e+00
-2.148835e+00
-2.242416e+00
-2.335452e+00
-2.427289e+00
-2.517404e+00
-2.605328e+00
-2.690559e+00
-2.772539e+00
-2.850719e+00
-2.924678e+00
-2.994194e+00
-3.059212e+00
-3.119726e+00
-3.175677e+00
-3.226952e+00
-3.273439e+00
-3.315079e+00
-3.351876e+00
-3.383898e+00
-3.411279e+00
-3.434201e+00
-3.452849e+00
-3.467359e+00
-3.477819e+00
-3.484323e+00
-3.487010e+00
-3.486067e+00
-3.481678e+00
-3.474002e+00
-3.463165e+00
-3.449275e+00
-3.432420e+00
-3.412720e+00
-3.390417e+00
-3.365990e+00
-3.340142e+00
-3.313646e+00
-3.287187e+00
-3.261329e+00
-3.236581e+00
-3.213444e+00
-3.192394e+00
-3.173841e+00
-3.158093e+00
-3.145339e+00
-3.135615e+00
-3.128787e+00
-3.124536e+00
-3.122330e+00
-3.121446e+00
-3.121107e+00
-3.120690e+00
-3.119856e+00
-3.118503e+00
-3.116589e+00
-3.113973e+00
-3.110354e+00
-3.105335e+00
-3.098502e+00
-3.089489e+00
-3.078033e+00
-3.064030e+00
-3.047542e+00
-3.028715e+00
-3.007649e+00
-2.984299e+00
-2.958485e+00
-2.929972e+00
-2.898574e+00
-2.864223e+00
-2.826982e+00
-2.787010e+00
-2.744551e+00
-2.700015e+00
-2.654088e+00
-2.607727e+00
-2.561922e+00
-2.517401e+00
-2.474518e+00
-2.433379e+00
-2.394035e+00
-2.356598e+00
-2.321244e+00
-2.288137e+00
-2.257311e+00
-2.228550e+00
-2.201364e+00
-2.175100e+00
-2.149118e+00
-2.122925e+00
-2.096174e+00
-2.068590e+00
-2.039866e+00
-2.009622e+00
-1.977424e+00
-1.942855e+00
-1.905577e+00
-1.865369e+00
-1.822118e+00
-1.775767e+00
-1.726250e+00
-1.673462e+00
-1.617294e+00
-1.557688e+00
-1.494673e+00
-1.428406e+00
-1.359256e+00
-1.287908e+00
-1.215335e+00
-1.142592e+00
-1.070554e+00
-9.997671e-01
-9.305139e-01
-8.629963e-01
-7.974549e-01
-7.341539e-01
-6.733126e-01
-6.150843e-01
-5.595810e-01
-5.068836e-01
-4.570254e-01
-4.099962e-01
-3.658015e-01
-3.245590e-01
-2.865636e-01
-2.522546e-01
-2.220792e-01
-1.963532e-01
-1.752386e-01
-1.587343e-01
-1.464584e-01
-1.373535e-01
-1.297839e-01
-1.221685e-01
-1.136404e-01
-1.041280e-01
-9.389453e-02
-8.307887e-02
-7.160410e-02
-5.933187e-02
-4.619136e-02
-3.223499e-02
-1.766171e-02
-2.755466e-03
1.227430e-02
2.743348e-02
4.295199e-02
5.918913e-02
7.654226e-02
9.539280e-02
1.160487e-01
1.386687e-01
1.632238e-01
1.895449e-01
2.174230e-01
2.466741e-01
2.771240e-01
3.085357e-01
3.405423e-01
3.726360e-01
4.042246e-01
4.347277e-01
4.636584e-01
4.906332e-01
5.153122e-01
5.373438e-01
5.563713e-01
5.720873e-01
5.842751e-01
5.928091e-01
5.976420e-01
5.988117e-01
5.964637e-01
5.908669e-01
5.824021e-01
5.715176e-01
5.586610e-01
5.442011e-01
5.283608e-01
5.111961e-01
4.926345e-01
4.725413e-01
4.507859e-01
4.273012e-01
4.021163e-01
3.753274e-01
3.470128e-01
3.171633e-01
2.856993e-01
2.525571e-01
2.177587e-01
1.814055e-01
1.436133e-01
1.044580e-01
6.397077e-02
2.217527e-02
-2.087147e-02
-6.505658e-02
-1.102166e-01
-1.561752e-01
-2.028055e-01
-2.500949e-01
-2.981918e-01
-3.474219e-01
-3.982559e-01
-4.511961e-01
-5.065701e-01
-5.643178e-01
-6.239532e-01
-6.848012e-01
-7.463411e-01
-8.083579e-01
-8.708048e-01
-9.335828e-01
-9.964654e-01
-1.059177e+00
-1.121486e+00
-1.183218e+00
-1.244210e+00
-1.304280e+00
-1.363234e+00
-1.420889e+00
-1.477097e+00
-1.531736e+00
-1.584675e+00
-1.635746e+00
-1.684736e+00
-1.731408e+00
-1.775541e+00
-1.816943e+00
-1.855449e+00
-1.890912e+00
-1.923220e+00
-1.952298e+00
-1.978085e+00
-2.000467e+00
-2.019243e+00
-2.034158e+00
-2.045010e+00
-2.051756e+00
-2.054559e+00
-2.053758e+00
-2.049780e+00
-2.043057e+00
-2.033964e+00
-2.022775e+00
-2.009665e+00
-1.994722e+00
-1.977978e+00
-1.959448e+00
-1.939167e+00
-1.917194e+00
-1.893593e+00
-1.868409e+00
-1.841690e+00
-1.813534e+00
-1.784147e+00
-1.753847e+00
-1.723030e+00
-1.692113e+00
-1.661476e+00
-1.631452e+00
-1.602348e+00
-1.574472e+00
-1.548116e+00
-1.523508e+00
-1.500754e+00
-1.479819e+00
-1.460555e+00
-1.442767e+00
-1.426269e+00
-1.410918e+00
-1.396626e+00
-1.383341e+00
-1.371008e+00
-1.359536e+00
-1.348783e+00
-1.338578e+00
-1.328781e+00
-1.319341e+00
-1.310324e+00
-1.301887e+00
-1.294197e+00
-1.287345e+00
-1.281300e+00
-1.275936e+00
-1.271121e+00
-1.266802e+00
-1.263020e+00
-1.259844e+00
-1.257288e+00
-1.255288e+00
-1.253756e+00
-1.252664e+00
-1.252101e+00
-1.252240e+00
-1.253237e+00
-1.255149e+00
-1.257901e+00
-1.261338e+00
-1.265311e+00
-1.269748e+00
-1.274663e+00
-1.280101e+00
-1.286054e+00
-1.292410e+00
-1.298976e+00
-1.305538e+00
-1.311903e+00
-1.317899e+00
-1.323362e+00
-1.328145e+00
-1.332140e+00
-1.335278e+00
-1.337511e+00
-1.338806e+00
-1.339151e+00
-1.338563e+00
-1.337098e+00
-1.334853e+00
-1.331965e+00
-1.328599e+00
-1.324923e+00
-1.321087e+00
-1.317209e+00
-1.313366e+00
-1.309597e+00
-1.305906e+00
-1.302268e+00
-1.298618e+00
-1.294832e+00
-1.290736e+00
-1.286154e+00
-1.280987e+00
-1.275260e+00
-1.269100e+00
-1.262666e+00
-1.256098e+00
-1.249515e+00
-1.243054e+00
-1.236864e+00
-1.231069e+00
-1.225745e+00
-1.220964e+00
-1.216852e+00
-1.213571e+00
-1.211232e+00
-1.209814e+00
-1.209196e+00
-1.209234e+00
-1.209792e+00
-1.210704e+00
-1.211694e+00
-1.212367e+00
-1.212279e+00
-1.211024e+00
-1.208287e+00
-1.203864e+00
-1.197661e+00
-1.189730e+00
-1.180328e+00
-1.169986e+00
-1.159505e+00
-1.149827e+00
-1.141747e+00
-1.135676e+00
-1.131626e+00
-1.129444e+00
-1.129055e+00
-1.130522e+00
-1.133895e+00
-1.139050e+00
-1.145610e+00
-1.152977e+00
-1.160442e+00
-1.167346e+00
-1.173242e+00
-1.177985e+00
-1.181736e+00
-1.184904e+00
-1.188045e+00
-1.191727e+00
-1.196415e+00
-1.202367e+00
-1.209631e+00
-1.218122e+00
-1.227766e+00
-1.238580e+00
-1.250650e+00
-1.264032e+00
-1.278685e+00
-1.294468e+00
-1.311201e+00
-1.328700e+00
-1.346797e+00
-1.365314e+00
-1.384063e+00
-1.402844e+00
-1.421462e+00
-1.439741e+00
-1.457520e+00
-1.474631e+00
-1.490899e+00
-1.506150e+00
-1.520235e+00
-1.533026e+00
-1.544402e+00
-1.554252e+00
