EVENT_NAME: EMILIA_2ND_SHOCK
EVENT_ID: IT-2012-0011
EVENT_DATE_YYYYMMDD: 20120529
EVENT_TIME_HHMMSS: 070002
EVENT_LATITUDE_DEGREE: 44.8417
EVENT_LONGITUDE_DEGREE: 11.0657
EVENT_DEPTH_KM: 8.1
HYPOCENTER_REFERENCE: INGV-CNT_Seismic_Bulletin
MAGNITUDE_W: 6.0
MAGNITUDE_W_REFERENCE: RCMT-INGV
MAGNITUDE_L: 5.8
MAGNITUDE_L_REFERENCE: INGV-CNT_Seismic_Bulletin
FOCAL_MECHANISM: TF
NETWORK: IV
STATION_CODE: T0818
STATION_NAME: T0818
STATION_LATITUDE_DEGREE: 44.934800
STATION_LONGITUDE_DEGREE: 11.030400
STATION_ELEVATION_M: 5
LOCATION: 
SENSOR_DEPTH_M: 1.0
VS30_M/S: 
SITE_CLASSIFICATION_EC8: C*
MORPHOLOGIC_CLASSIFICATION: 
EPICENTRAL_DISTANCE_KM: 10.7
EARTHQUAKE_BACKAZIMUTH_DEGREE: 164.9
DATE_TIME_FIRST_SAMPLE_YYYYMMDD_HHMMSS: 20120529_065952.000
DATE_TIME_FIRST_SAMPLE_PRECISION: milliseconds
SAMPLING_INTERVAL_S: 0.005000
NDATA: 20001
DURATION_S: 100.005
STREAM: HNZ
UNITS: cm/s^2
INSTRUMENT: sensor = Episensor FBA ES-T [Kinemetrics] | digitizer = Unknown [Unknown]
INSTRUMENT_ANALOG/DIGITAL: D
INSTRUMENTAL_FREQUENCY_HZ: 
INSTRUMENTAL_DAMPING: 
FULL_SCALE_G: 
N_BIT_DIGITAL_CONVERTER: 
PGA_CM/S^2: -210.605749
TIME_PGA_S: 20.235000
BASELINE_CORRECTION: BASELINE REMOVED
FILTER_TYPE: BUTTERWORTH
FILTER_ORDER: 2
LOW_CUT_FREQUENCY_HZ: 0.060
HIGH_CUT_FREQUENCY_HZ: 40.000
LATE/NORMAL_TRIGGERED: NT
DATABASE_VERSION: DYNA 1.0
HEADER_FORMAT: DYNA 1.2
DATA_TYPE: ACCELERATION
PROCESSING: manual (Paolucci et al., 2011)
DATA_TIMESTAMP_YYYYMMDD_HHMMSS: 
DATA_LICENSE: CC-BY4_0 (http://creativecommons.org/licenses/by/4.0/)
DATA_CITATION: ESM working group (2015), European Strong-Motion database, version 0.1, Network Activity 3: Networking acceleration networks and SM data users. Project NERA (www.nera-eu.org)
DATA_CREATOR: ESM working group
ORIGINAL_DATA_MEDIATOR_CITATION: Orfeus - European Integrated Data Archive (EIDA) http://www.orfeus-eu.org/eida/
ORIGINAL_DATA_MEDIATOR: Orfeus - European Integrated Data Archive (EIDA)
ORIGINAL_DATA_CREATOR_CITATION: Data for this study comes from the Italian national seismic network operated by Istituto Nazionale di Geofisica e Vulcanologia and archived at the European Integrated Data Archive http://eida.rm.ingv.it/
ORIGINAL_DATA_CREATOR: network: IV (Italian National Seismic Network); owner: Istituto Nazionale di Geofisica e Vulcanologia
USER1: 
USER2: 
USER3: 
USER4: 
USER5: 
[...]
0.599327
-0.402974
-1.792180
-2.876708
-3.214200
-3.030389
-2.963342
-3.358540
-3.874249
-3.868652
-3.085143
-1.839268
-0.663588
0.133796
0.635877
1.042921
1.194437
0.562465
-0.886712
-1.926040
-1.013622
1.622365
3.506590
2.188839
-2.232601
-7.491794
-11.614235
-14.073815
-14.702498
-12.505287
-6.626298
1.073527
5.089514
-0.643746
-17.785364
-40.747162
-57.092941
-51.585789
-16.114153
36.553413
70.734779
53.071766
-11.343545
-72.309959
-73.849594
-6.215713
81.615524
123.591537
93.280846
22.079641
-35.213818
-49.733227
-33.946655
-15.068743
-2.963659
13.295234
43.013138
75.405067
87.062096
66.475288
26.486217
-8.542959
-23.960804
-22.779781
-17.692423
-19.596691
-30.654610
-43.053349
-45.749237
-35.425533
-20.513304
-13.377733
-18.241352
-27.108898
-27.981129
-17.498236
-5.400585
-4.201644
-12.777188
-14.272631
4.719438
34.860046
51.930798
46.513332
35.525402
37.259377
43.099846
27.041027
-16.366570
-57.566582
-62.538654
-30.728115
6.126130
19.445784
8.123112
-9.753132
-18.412216
-14.284667
-2.247613
10.265938
17.903866
19.727621
15.918338
3.856105
-17.075380
-34.979767
-28.819454
7.655408
49.285812
57.198376
17.400763
-42.283215
-77.557068
-67.201340
-25.763895
16.544962
37.094444
28.920849
1.442778
-23.116463
-23.625214
0.957081
28.360550
34.449970
16.685549
-4.987397
-7.895553
12.780329
39.850239
48.799908
29.540548
-3.091896
-21.963238
-14.005249
6.412839
14.379457
4.244015
-4.880513
4.573442
24.388332
29.849300
10.362032
-18.050358
-32.652653
-30.242149
-27.230158
-35.691532
-47.580349
-46.058228
-26.651577
-0.517040
20.037262
31.919010
36.554512
32.487579
18.870340
2.214966
-6.517619
-2.019814
10.151617
18.478096
14.623752
0.382387
-12.151811
-11.021945
2.484041
14.368839
14.242358
7.798764
7.440222
14.332937
18.015429
11.923243
1.568112
-5.188806
-10.467433
-23.398666
-45.561340
-63.537277
-59.517738
-29.940115
7.703673
28.219639
20.482376
-3.635613
-22.798916
-27.407022
-24.417107
-21.501598
-14.092023
3.703485
20.191429
11.861656
-25.528767
-62.585907
-65.211456
-31.182751
10.611515
32.339619
30.267790
18.210129
10.236724
13.541019
29.372551
52.276161
70.467178
74.951134
68.771812
61.788013
55.296993
38.561440
5.733415
-29.235542
-42.592258
-26.991709
-2.280528
4.563414
-11.511154
-27.928484
-18.149063
20.659737
63.518921
79.990311
61.500404
27.539595
4.711659
0.858033
1.379430
-10.637952
-35.384487
-59.437057
-71.778671
-70.219757
-55.681320
-31.318476
-10.034791
-9.564808
-30.931349
-49.141060
-36.116592
8.613867
59.892506
94.436523
104.393105
89.284813
50.282570
-1.793065
-45.121094
-64.280869
-61.938107
-46.459602
-16.490887
28.428949
67.426819
69.283340
29.279272
-17.515888
-30.742460
-7.038433
21.203436
22.925924
-3.795412
-36.692207
-51.546059
-38.575817
-7.842229
17.799589
21.918476
9.881842
1.475350
5.736209
8.425211
-9.751748
-45.143784
-69.824974
-62.252884
-32.038216
-6.977530
0.969809
6.334381
23.284327
38.027046
20.270903
-35.755127
-91.728172
-96.259537
-36.887951
43.025448
82.859428
58.320259
-6.318597
-71.198196
-107.977646
-98.074623
-33.314846
65.214424
143.005188
151.555389
92.770050
12.164980
-45.929401
-68.594948
-67.843948
-58.626595
-48.652580
-40.880890
-34.496479
-22.155561
3.563164
34.843346
46.876568
22.345413
-21.662888
-41.933674
-9.894434
58.573257
114.871468
117.234200
61.818459
-14.219827
-58.487053
-45.764317
-1.419751
23.655428
5.472726
-30.317932
-42.595673
-22.748028
1.534861
4.281444
-12.311703
-31.669704
-43.637150
-40.911514
-9.677733
56.642838
133.025833
169.981277
138.747314
67.205505
19.842144
35.175777
86.903740
114.525307
90.527954
45.150181
22.275803
25.765692
24.745543
2.956122
-21.429571
-27.752872
-23.959724
-30.224483
-45.956726
-54.702831
-53.368450
-56.803341
-72.163902
-85.763573
-83.393059
-70.300682
-62.443714
-65.102005
-68.339806
-60.653175
-40.486057
-18.322767
-9.632715
-16.913385
-18.582550
10.622410
59.771351
75.281776
15.602121
-90.343109
-159.316895
-135.457321
-40.599552
60.638691
115.790871
100.186752
18.407768
-85.321175
-141.480835
-118.752686
-65.773468
-57.309326
-104.819740
-145.500275
-123.013695
-53.282932
6.966307
35.569153
58.390381
90.113441
98.870628
49.140194
-39.311371
-99.919922
-90.615471
-39.724812
-10.292712
-27.385290
-54.333385
-38.964428
28.604036
104.081497
130.511261
93.804924
34.119179
-1.306811
-7.972798
-22.122952
-74.118439
-145.697510
-175.062531
-112.429680
23.981359
152.217529
195.672501
151.316299
86.132942
64.234741
83.088585
89.739159
51.045303
-7.731770
-29.966101
14.224732
93.810265
141.811996
120.657669
61.129066
25.967476
37.921791
67.376251
86.808372
101.325722
117.053589
110.400024
59.692112
-6.326373
-27.564228
16.491808
74.437462
74.076439
2.505008
-77.096230
-94.433144
-44.849663
17.316084
41.105309
19.645193
-20.892647
-52.577164
-63.141895
-60.270931
-67.111633
-103.381378
-159.961227
-194.622238
-166.596344
-82.542938
1.398052
36.781448
35.907681
52.388386
111.085793
172.718704
176.280975
103.937485
-6.805556
-101.157089
-142.536026
-120.122581
-46.578285
41.416901
92.897484
70.995430
-14.461750
-101.400284
-120.463242
-59.478722
29.362881
92.264496
124.124023
144.093536
143.428207
95.464630
10.603995
-57.191277
-66.490501
-33.787106
-12.735951
-34.184978
-77.624306
-103.488518
-101.174774
-93.163116
-97.564529
-99.639740
-66.590195
12.053722
102.284103
145.497543
110.894661
34.838760
-7.142119
17.772425
56.076302
28.867277
-66.963127
-149.547180
-144.684464
-60.159718
36.824661
94.816345
113.063187
111.637733
92.852219
47.939121
-7.930003
-31.875664
3.526066
71.770424
110.776581
79.738365
-8.424509
-106.440491
-169.500290
-170.798447
-104.077049
7.793222
109.757271
142.314682
91.263748
7.805514
-34.124397
-5.669755
58.267822
102.053223
93.354408
27.870392
-79.735611
-183.506256
-206.106613
-99.636299
81.330597
201.532486
172.867722
47.007439
-44.459339
-30.852678
44.167328
103.971558
125.264084
126.237946
109.068855
52.895481
-38.520546
-115.591370
-129.200073
-87.661507
-47.771912
-51.022522
-86.724533
-114.999237
-106.811356
-57.965946
13.993596
71.009338
71.621262
8.044049
-76.358437
-118.585808
-90.007027
-15.960135
55.048519
92.678673
95.545692
74.746262
41.853195
11.290774
-0.821979
9.701391
28.543095
38.538635
36.751575
28.808624
11.473162
-25.565023
-76.519524
-110.946663
-100.792320
-54.915398
-15.103940
-11.346693
-28.353251
-27.173574
3.493704
35.036152
41.576679
36.459824
47.808800
66.437157
46.499588
-32.782833
-124.752296
-155.764923
-102.128517
-10.178733
54.150360
62.451038
32.631050
-3.620954
-29.201851
-40.467323
-34.433922
-10.093166
23.419981
52.168488
71.758751
86.811424
94.244423
80.009895
39.709721
-5.470924
-24.650127
-10.948595
8.526214
3.174477
-24.369259
-42.802567
-32.155052
-6.443918
8.493673
10.095006
19.196545
46.307610
70.924751
64.556221
28.745092
-3.378739
-5.783137
10.427008
14.716758
-0.787320
-11.347596
3.381378
28.911474
37.258682
25.059736
15.235340
25.894030
48.896240
60.234409
43.534294
3.076830
-40.089520
-65.590904
-72.501114
-80.866356
-108.177742
-143.010788
-150.081390
-103.209610
-10.771092
85.426743
134.563278
111.571724
39.786354
-22.360844
-29.332415
11.432913
49.785191
43.000103
-5.087553
-52.877590
-64.375603
-40.709312
-10.605307
3.391745
4.560913
12.190024
38.589146
75.850220
99.477173
85.206108
31.664248
-32.495544
-71.980064
-76.156799
-61.807648
-45.094765
-21.083031
20.427336
64.041100
70.859482
21.942991
-51.858116
-97.726791
-95.122063
-67.439896
-39.817108
-7.883587
42.476894
100.885452
134.989700
125.274841
85.350090
45.137325
19.085012
-3.551001
-35.106377
-63.633694
-63.384548
-32.834145
-8.950298
-30.074015
-86.736450
-125.419029
-104.935875
-38.330372
25.220755
51.812332
46.654430
30.204954
6.453814
-30.765862
-66.880966
-65.537407
-10.870678
61.063370
92.668953
67.154968
26.993320
23.828499
61.725243
100.945290
105.552536
74.029190
29.410576
-5.085518
-17.864481
-10.994590
0.567041
-2.105133
-23.991579
-46.346958
-42.601135
-7.468501
34.813160
56.737782
58.512306
65.467606
94.214088
126.124252
120.293365
55.998451
-40.298622
-114.673035
-132.953018
-107.193047
-76.312340
-63.909004
-59.749969
-42.590759
-12.713776
7.513208
3.434850
-11.218164
-8.039539
23.864464
63.414639
76.723473
50.037193
3.421102
-27.295143
-21.327276
13.536344
53.804214
81.022888
89.611610
80.785454
56.895435
23.501196
-7.910956
-24.215742
-19.747919
-1.605447
14.217754
13.436415
-6.862315
-36.238102
-57.939335
-60.332710
-44.317020
-21.198408
-3.638194
3.078304
3.698730
8.123252
21.279528
33.386551
22.141054
-26.799765
-98.484711
-154.554901
-167.302795
-143.799911
-111.326164
-86.614975
-65.003700
-35.012970
2.929033
35.786716
53.388851
55.893490
44.018215
15.051234
-23.969879
-49.786098
-44.494602
-22.097076
-15.782069
-35.694763
-54.394581
-41.202564
-0.101975
38.192959
53.123783
50.067490
43.145729
35.319431
21.210358
1.850608
-12.066918
-11.225892
3.971627
28.354910
59.190990
91.948387
111.343369
96.335915
39.259277
-41.468616
-109.547440
-134.588165
-111.938782
-61.297657
-8.170675
29.993439
44.694035
35.979588
15.967400
6.401986
23.282675
61.871513
100.171532
116.949181
104.930916
69.635826
22.262020
-24.021095
-56.363468
-68.276352
-66.533661
-68.123192
-83.884056
-103.281494
-98.535759
-48.061172
40.855267
133.112625
191.968872
203.294693
176.186035
128.189484
73.621765
21.504276
-20.787491
-45.463120
-49.456161
-42.740688
-46.004345
-71.978790
-106.982956
-116.480377
-77.199051
-4.240417
59.740349
83.395370
72.128952
54.544426
47.083698
37.628216
7.056772
-41.286285
-83.223656
-98.357246
-84.300255
-50.801167
-10.627141
21.383259
29.389273
4.938391
-42.413433
-82.863007
-83.232841
-38.356949
13.657575
19.678749
-34.086941
-102.036781
-123.728378
-82.100563
-12.103885
39.165356
50.945770
32.201538
2.776558
-22.277584
-36.452957
-37.431168
-23.137369
5.266161
36.469036
50.598324
35.184544
-1.138717
-36.355133
-56.173885
-64.807625
-74.388809
-84.850151
-78.882393
-43.111679
9.093866
46.035538
50.082314
33.832355
19.732500
11.870351
-2.051846
-23.485821
-33.213242
-17.673988
7.557167
13.317839
-7.861812
-31.364241
-27.065063
9.890371
56.562237
84.930473
82.284340
52.340096
6.220047
-41.338448
-71.295135
-67.463196
-31.632336
10.460271
25.627392
1.733181
-39.437428
-60.340210
-41.005276
4.646727
43.158890
49.598400
22.995747
-19.028479
-54.454426
-68.339035
-58.073750
-31.519045
0.677687
30.896126
50.138134
43.414146
2.483390
-54.492035
-88.072067
-74.086418
-30.532734
1.459177
-1.426307
-28.293743
-52.635433
-58.460705
-47.393543
-29.001610
-11.376514
0.355479
3.480656
0.673091
1.811084
17.140137
45.599529
72.413628
81.146683
67.923195
42.055519
14.339532
-10.703927
-31.675993
-46.420986
-56.021915
-67.306412
-83.858391
-96.522354
-88.417374
-51.419086
4.003737
56.861214
91.071747
101.179878
87.241455
51.349388
0.510303
-50.541676
-81.350090
-75.449516
-35.697212
12.263134
39.657791
36.940983
13.966096
-16.780214
-48.183533
-70.279396
-66.398201
-25.986801
39.291615
95.381241
106.674950
64.305351
-1.636981
-42.697601
-34.610531
-0.002681
16.904118
-2.445563
-32.489040
-32.856129
7.478928
58.995506
82.700256
66.000290
26.434692
-10.768882
-31.849985
-35.494648
-24.452492
-2.833644
19.840755
30.149837
22.147978
3.596480
-13.085235
-23.466080
-31.773521
-40.996212
-47.075253
-43.315376
-27.383390
-3.002294
23.715302
47.391083
61.894997
59.337708
36.817799
3.620709
-23.505245
-32.628746
-24.210211
-9.845171
-4.620665
-16.170540
-35.794426
-42.559254
-22.220894
17.547302
52.761238
63.914234
51.422234
32.903358
27.797441
42.588871
66.559509
80.788094
72.620064
43.195644
3.177887
-36.476501
-68.094955
-84.895462
-81.512787
-59.584080
-29.905724
-6.055695
3.457126
-2.284825
-16.955009
-28.268373
-24.013672
-3.636466
15.325516
8.968446
-27.977898
-69.788101
-79.893906
-45.716805
9.484542
48.825546
53.909740
36.322884
21.784389
25.485180
40.755512
47.920795
33.243912
2.332178
-23.566692
-26.597082
-8.272334
14.034732
24.790611
21.765354
11.781785
2.362342
-0.824492
4.890697
15.212738
17.790728
1.313442
-31.801752
-63.806049
-73.974403
-54.774773
-19.454184
6.299349
5.180044
-15.049816
-28.897085
-21.387520
-5.143717
-5.153561
-29.195936
-59.098286
-71.454636
-59.482647
-30.836477
7.973947
52.497242
88.408379
94.914520
66.653671
25.261593
1.385917
6.352099
25.384308
35.119911
22.930922
-8.316830
-45.420506
-71.661140
-76.592545
-64.188828
-47.093208
-27.925777
8.229934
71.622757
140.427353
170.381088
139.773376
71.605354
0.884285
-61.585899
-122.408409
-178.642105
-210.605743
-200.019974
-148.874969
-78.286682
-11.195676
41.053490
77.484261
99.411804
106.396866
98.753128
82.127426
67.102303
61.992275
66.455025
71.665443
65.602440
41.375675
3.785899
-33.108723
-56.696983
-64.489479
-61.792881
-52.339920
-34.618469
-7.289839
25.046295
52.494305
65.310921
59.880753
42.215405
24.900736
17.180109
17.562935
17.822317
14.343538
12.535725
17.451941
22.592068
13.484325
-14.715772
-46.439274
-57.658390
-39.318062
-4.869165
25.931032
43.354591
47.672501
42.754387
33.734612
25.896841
20.517637
13.445255
1.956556
-7.916504
-4.318902
18.368837
51.352074
77.901161
88.329987
84.676689
69.790375
39.524170
-8.530549
-61.561935
-94.137314
-89.344490
-56.498363
-24.327780
-15.351061
-28.594172
-44.774406
-43.387836
-17.699717
20.762424
51.374496
60.564140
51.266712
36.856758
25.814465
14.061172
-6.565718
-34.487095
-56.356232
-59.065620
-41.557129
-13.401713
16.468016
45.111507
67.761093
70.894287
43.413982
-5.658699
-48.597382
-59.050613
-30.248753
21.665262
68.028511
85.431152
71.678101
44.518284
21.631886
6.214442
-6.452409
-15.495111
-13.053222
5.323429
33.262218
55.813129
57.621494
33.586311
-4.396951
-33.405350
-37.514343
-21.660234
-4.586110
1.277445
-0.404801
1.888674
13.891179
30.529861
40.587616
35.332119
16.712111
-2.863846
-12.085957
-10.529608
-5.191586
-0.532145
3.552881
5.287822
-0.326397
-14.378158
-29.552610
-34.629177
-22.261927
6.784682
41.906532
63.999203
55.716175
16.107450
-34.988636
-68.908638
-67.338188
-34.145378
7.555662
30.784197
23.211433
-4.143731
-25.615759
-21.231298
7.302909
38.183147
46.855640
24.876753
-13.471329
-41.811878
-42.737366
-22.766777
-6.259168
-11.654120
-34.350513
-54.490200
-58.560429
-48.063465
-29.026108
-4.510495
20.323593
36.297386
38.135563
30.229080
21.202862
16.393293
18.335182
28.085699
41.740570
50.266766
47.455910
36.477993
24.385862
12.543198
-2.116347
-18.060671
-27.091982
-23.692904
-13.344726
-7.508019
-10.404766
-13.707016
-6.659008
9.262227
19.788670
15.342196
6.184818
12.727618
37.627487
56.271423
44.552841
10.595428
-11.446228
-0.025422
29.518869
43.910236
29.059259
1.339869
-15.782877
-16.609741
-13.340198
-19.745489
-38.060261
-58.707142
-69.426308
-64.262589
-46.158249
-23.634918
-4.774218
8.073939
19.316570
35.276432
56.115349
72.324997
71.943428
53.236038
28.482590
12.226321
6.014416
-2.617504
-24.099443
-51.675762
-66.136223
-55.825520
-28.937174
-4.822230
3.639079
-2.745932
-15.496068
-25.463812
-23.801983
-4.237685
29.414902
60.008480
66.516739
40.330002
-6.753830
-51.071487
-74.384430
-73.126846
-53.163860
-21.394705
13.590777
37.063507
34.474155
6.445954
-26.517405
-39.431786
-24.165537
5.527496
28.284445
32.245117
20.176003
3.097851
-8.298695
-9.572356
-4.523383
-1.585081
-6.025709
-14.924178
-20.865377
-19.521233
-11.924526
-1.300874
9.545056
18.117842
22.742887
24.456785
25.522987
24.395336
15.120089
-4.179748
-24.151232
-31.253046
-21.626087
-4.004625
10.721857
17.876684
15.953132
2.571936
-21.581762
-47.921463
-64.186401
-65.128372
-56.546558
-47.272671
-39.430019
-29.365885
-15.917745
-2.767278
7.136220
15.260690
23.488688
29.363150
29.589424
28.015127
35.861313
59.904816
90.192238
103.540955
83.880165
38.264175
-9.812617
-39.947876
-46.760056
-37.787491
-23.966616
-11.788493
-2.152763
5.319358
9.132583
8.803862
9.067339
16.676706
30.855930
40.143490
33.807697
14.340564
-6.269670
-19.809357
-26.978069
-31.131624
-32.507843
-29.966043
-23.720606
-14.550098
-3.459975
5.945117
7.891093
1.217988
-6.715460
-7.242779
-0.647957
4.057689
-0.023206
-10.460533
-20.648991
-29.086393
-39.468147
-50.729336
-51.132496
-28.199924
13.788407
51.291744
62.040089
47.934792
32.502357
34.059185
46.849739
50.491882
33.304070
3.119300
-22.429869
-32.125908
-28.033932
-19.374640
-12.039057
-5.794764
-0.373023
0.853086
-4.677665
-13.938815
-21.233854
-24.485771
-24.702757
-21.102564
-12.075457
-0.467377
6.477596
4.343731
-3.629608
-10.786299
-14.294644
-16.882616
-22.081392
-28.294502
-28.641077
-18.430496
-2.471424
7.761754
5.920535
-2.570322
-7.498893
-4.332685
3.510050
9.329068
8.059557
-1.581247
-16.604666
-31.064407
-39.582027
-39.846092
-32.665371
-21.943066
-14.084845
-13.996954
-19.655148
-22.760000
-17.281008
-5.963143
2.917226
4.145828
0.682330
0.955872
10.723507
26.198442
35.242874
27.716940
6.201413
-14.328691
-18.757841
-4.653073
16.326744
28.600388
23.828382
3.861629
-23.491140
-48.542358
-61.509850
-56.490944
-38.214069
-21.510178
-18.220732
-25.521500
-30.159540
-23.516666
-10.074531
-0.937438
-1.911122
-9.277998
-15.121172
-14.014795
-5.570634
5.828034
13.304136
12.644572
7.590508
8.073786
19.765139
35.650387
40.829552
27.413870
3.309350
-15.285361
-18.574663
-8.923139
5.137253
15.207696
14.815143
2.568145
-14.123784
-22.646416
-16.328514
-0.612630
13.680724
19.587049
15.227579
1.038847
-19.781157
-39.347328
-48.081047
-40.906055
-19.936138
7.080516
30.325970
42.401447
41.766872
33.010548
23.856068
20.487123
23.665693
28.621803
29.710323
26.255060
23.334949
25.511065
29.640930
25.685555
6.691108
-22.011656
-44.963737
-49.247505
-35.382442
-15.653151
-2.283147
2.599453
5.952823
13.343200
20.741781
18.925491
5.868611
-8.880795
-14.979658
-12.998196
-11.275726
-14.302456
-18.467054
-18.364851
-13.342840
-6.640542
-1.318820
1.778127
4.220929
8.941065
17.158054
24.808975
23.273214
6.247953
-22.637068
-50.313374
-64.396790
