EVENT_NAME: EMILIA_2ND_SHOCK
EVENT_ID: IT-2012-0011
EVENT_DATE_YYYYMMDD: 20120529
EVENT_TIME_HHMMSS: 070002
EVENT_LATITUDE_DEGREE: 44.8417
EVENT_LONGITUDE_DEGREE: 11.0657
EVENT_DEPTH_KM: 8.1
HYPOCENTER_REFERENCE: INGV-CNT_Seismic_Bulletin
MAGNITUDE_W: 6.0
MAGNITUDE_W_REFERENCE: RCMT-INGV
MAGNITUDE_L: 5.8
MAGNITUDE_L_REFERENCE: INGV-CNT_Seismic_Bulletin
FOCAL_MECHANISM: TF
NETWORK: IV
STATION_CODE: T0813
STATION_NAME: T0813
STATION_LATITUDE_DEGREE: 44.877800
STATION_LONGITUDE_DEGREE: 11.199200
STATION_ELEVATION_M: 1
LOCATION: 
SENSOR_DEPTH_M: 1.0
VS30_M/S: 
SITE_CLASSIFICATION_EC8: C*
MORPHOLOGIC_CLASSIFICATION: 
EPICENTRAL_DISTANCE_KM: 11.3
EARTHQUAKE_BACKAZIMUTH_DEGREE: 249.2
DATE_TIME_FIRST_SAMPLE_YYYYMMDD_HHMMSS: 20120529_065942.000
DATE_TIME_FIRST_SAMPLE_PRECISION: milliseconds
SAMPLING_INTERVAL_S: 0.005000
NDATA: 30001
DURATION_S: 150.005
STREAM: HNN
UNITS: cm/s^2
INSTRUMENT: sensor = Episensor FBA ES-T [Kinemetrics] | digitizer = Unknown [Unknown]
INSTRUMENT_ANALOG/DIGITAL: D
INSTRUMENTAL_FREQUENCY_HZ: 
INSTRUMENTAL_DAMPING: 
FULL_SCALE_G: 
N_BIT_DIGITAL_CONVERTER: 
PGA_CM/S^2: 331.880143
TIME_PGA_S: 29.975000
BASELINE_CORRECTION: BASELINE REMOVED
FILTER_TYPE: BUTTERWORTH
FILTER_ORDER: 2
LOW_CUT_FREQUENCY_HZ: 0.100
HIGH_CUT_FREQUENCY_HZ: 40.000
LATE/NORMAL_TRIGGERED: NT
DATABASE_VERSION: DYNA 1.0
HEADER_FORMAT: DYNA 1.2
DATA_TYPE: ACCELERATION
PROCESSING: manual (Paolucci et al., 2011)
DATA_TIMESTAMP_YYYYMMDD_HHMMSS: 
DATA_LICENSE: CC-BY4_0 (http://creativecommons.org/licenses/by/4.0/)
DATA_CITATION: ESM working group (2015), European Strong-Motion database, version 0.1, Network Activity 3: Networking acceleration networks and SM data users. Project NERA (www.nera-eu.org)
DATA_CREATOR: ESM working group
ORIGINAL_DATA_MEDIATOR_CITATION: Orfeus - European Integrated Data Archive (EIDA) http://www.orfeus-eu.org/eida/
ORIGINAL_DATA_MEDIATOR: Orfeus - European Integrated Data Archive (EIDA)
ORIGINAL_DATA_CREATOR_CITATION: Data for this study comes from the Italian national seismic network operated by Istituto Nazionale di Geofisica e Vulcanologia and archived at the European Integrated Data Archive http://eida.rm.ingv.it/
ORIGINAL_DATA_CREATOR: network: IV (Italian National Seismic Network); owner: Istituto Nazionale di Geofisica e Vulcanologia
USER1: 
USER2: 
USER3: 
USER4: 
USER5: 
[...]
-0.083231
-0.083276
-0.083456
-0.083680
-0.083833
-0.083730
-0.083509
-0.083430
-0.083457
-0.083383
-0.083076
-0.082306
-0.080597
-0.077862
-0.074897
-0.072568
-0.070731
-0.068229
-0.063756
-0.056754
-0.047930
-0.039483
-0.034570
-0.035388
-0.040921
-0.046829
-0.048208
-0.042476
-0.030281
-0.015456
-0.003851
0.000366
-0.001435
-0.003613
-0.002745
-0.001579
-0.006495
-0.023345
-0.054889
-0.097990
-0.140912
-0.166572
-0.163748
-0.135195
-0.094303
-0.057978
-0.041770
-0.053917
-0.090180
-0.137491
-0.183504
-0.217124
-0.225063
-0.204414
-0.173227
-0.151448
-0.137463
-0.116912
-0.088311
-0.058015
-0.014035
0.059047
0.139848
0.176212
0.129957
-0.000039
-0.185077
-0.364433
-0.452254
-0.406799
-0.283792
-0.172237
-0.096474
-0.013990
0.104708
0.224622
0.278191
0.224662
0.070772
-0.143765
-0.356253
-0.487808
-0.480189
-0.345078
-0.163106
-0.020896
0.036986
-0.003833
-0.136905
-0.310652
-0.429498
-0.409399
-0.237101
0.020218
0.240168
0.287921
0.098847
-0.255259
-0.606449
-0.786651
-0.691110
-0.324361
0.169721
0.568252
0.724047
0.646577
0.412016
0.105705
-0.102380
0.003976
0.445233
0.918220
1.044493
0.696604
-0.012957
-0.859217
-1.462373
-1.360888
-0.407935
0.913732
1.773326
1.646809
0.645875
-0.634641
-1.458518
-1.315637
-0.205540
1.314342
2.362060
2.139919
0.383144
-2.293743
-4.505470
-4.906624
-3.140413
-0.103418
2.561068
3.414206
2.186291
0.027023
-1.393997
-1.274056
-0.148678
0.950944
1.391543
1.012817
-0.064592
-1.365186
-2.096416
-1.760696
-0.696730
0.301067
0.802317
1.007467
1.301303
1.711793
1.854640
1.360096
0.354463
-0.474791
-0.388680
0.694538
1.981311
2.434474
1.664214
0.077071
-1.704920
-3.246323
-4.155968
-4.034835
-2.941433
-1.546811
-0.472882
0.178911
0.493367
0.422278
0.167914
0.395927
1.378074
2.315965
2.175634
0.958099
-0.406363
-1.264866
-1.555991
-1.192017
-0.249321
0.436080
-0.073080
-1.403541
-2.007794
-1.097990
0.521041
1.725008
2.134904
1.894105
1.226993
0.465333
-0.024069
-0.226956
-0.292407
-0.100304
0.267952
0.181215
-0.649938
-1.467420
-1.326483
-0.387332
0.360691
0.376746
-0.220664
-1.147923
-1.906866
-1.797016
-0.576724
1.065221
2.060471
1.927155
0.998175
-0.005934
-0.479255
-0.431718
-0.540722
-1.364766
-2.541849
-3.010450
-2.086128
-0.185838
1.552111
2.212639
1.766600
1.052007
1.046851
1.964167
2.987513
2.865252
0.922641
-2.111232
-4.195574
-3.404454
0.211561
4.398796
6.739999
6.431535
3.893558
-0.148260
-4.423974
-6.878145
-6.079745
-2.780054
0.905500
3.446065
4.377140
3.629743
1.485162
-0.890518
-2.057897
-1.749775
-0.920561
-0.450708
-0.514006
-1.126257
-2.296555
-3.221280
-2.495715
0.114972
2.822276
3.448651
1.680948
-0.933973
-2.847902
-3.586789
-3.376387
-2.590799
-1.688283
-0.928796
0.075382
1.767200
3.786870
5.449403
6.513754
6.785166
5.542734
2.415227
-1.380150
-3.892596
-4.281838
-2.949556
-0.638707
1.791662
3.254651
2.916630
0.956915
-1.459555
-2.953096
-2.727954
-1.279760
-0.384230
-1.605484
-4.579725
-7.174888
-7.494166
-5.262053
-1.256769
3.438871
7.364215
9.081527
8.284969
6.117081
3.964696
2.132780
-0.037851
-3.060285
-6.522911
-9.149137
-9.436750
-6.622095
-1.668977
2.998419
5.469748
5.734964
4.793643
3.080243
0.498677
-2.374162
-4.202785
-4.074387
-2.191810
0.438991
2.646041
3.547600
2.760661
0.523534
-2.191295
-3.867125
-3.353422
-1.089354
0.961869
1.233905
-0.022117
-1.620098
-2.898174
-3.575902
-2.807140
0.209109
4.520329
7.427633
6.549739
1.722309
-4.816133
-9.884844
-11.290985
-8.784319
-3.802218
1.245499
4.186548
4.576228
3.834136
3.460538
3.514911
3.484772
3.532246
3.446842
2.026283
-0.849263
-3.103233
-2.897019
-1.176869
-0.088807
0.219539
0.988300
2.147691
2.386955
1.311948
-0.082572
-1.018836
-1.351076
-0.409361
2.571876
6.440597
8.054412
5.385630
-0.130341
-5.389281
-8.661272
-9.908262
-9.229628
-6.699885
-3.508999
-1.298235
-0.154668
1.288897
3.561445
5.366062
5.515922
4.550489
3.530922
2.491264
0.805288
-1.710480
-4.581221
-7.034352
-8.029376
-6.486915
-2.195306
3.552566
8.407823
10.232503
8.287880
3.564759
-1.798585
-5.564124
-6.419012
-4.530423
-1.364994
1.183784
1.958121
1.166950
-0.122100
-1.118756
-1.808756
-2.368564
-2.776026
-3.355180
-4.722139
-6.593165
-7.436338
-6.025188
-2.860856
0.805889
4.697703
9.062992
13.006915
14.559726
12.714160
8.337226
2.748274
-3.122476
-7.965816
-10.146144
-9.237614
-6.564312
-3.518423
-0.310526
3.160090
6.440822
8.952481
10.405372
10.310152
7.601442
1.625268
-6.467589
-13.762311
-17.065434
-14.626810
-7.249401
1.727339
8.183523
10.034806
8.420749
6.098800
5.174285
5.988356
7.187057
6.879662
4.390065
1.035239
-1.267407
-2.071957
-2.305169
-2.546712
-2.576519
-2.410339
-2.738718
-4.007470
-5.735501
-7.051211
-7.298319
-6.175113
-3.977567
-1.686947
-0.355843
-0.246995
-0.696291
-0.855975
-0.525436
-0.538261
-2.275932
-5.882505
-8.945227
-8.234821
-3.260501
2.676556
5.680921
5.056515
3.508136
4.464485
9.345734
16.258038
20.887487
19.473598
11.875712
1.531202
-7.801977
-14.114592
-16.473087
-14.765139
-10.589530
-6.730221
-4.741066
-3.773840
-2.267445
0.379281
3.933989
7.544825
9.394236
7.413166
1.595382
-5.023202
-8.742074
-7.794255
-2.626678
4.604289
10.483396
12.023711
9.303763
5.493709
3.097441
1.268486
-2.629464
-9.751603
-17.807018
-21.935766
-18.491974
-8.354123
3.991760
14.332800
20.957010
23.440578
21.230221
14.495077
5.219501
-3.617880
-9.805533
-12.382358
-11.166084
-7.089435
-2.120628
2.380307
6.302023
9.134542
9.040243
5.082383
-0.441891
-3.828781
-3.806360
-2.139930
-0.600906
1.012172
3.298349
5.626231
7.033631
7.363557
6.627889
4.367722
1.205235
-0.103524
2.673113
8.146569
12.323453
12.517378
9.208132
4.229049
-1.122421
-5.802221
-8.557975
-9.090081
-9.147014
-11.024188
-14.565154
-16.478655
-13.466869
-5.395277
5.175300
15.071595
21.691820
23.865292
22.225466
18.163040
12.571196
6.441261
2.017562
1.046953
1.991422
1.487037
-1.240664
-3.287993
-2.025386
1.744112
5.742408
9.057038
12.066534
15.377240
19.056330
21.851183
21.351595
15.844710
6.413103
-3.188427
-9.328811
-11.366620
-11.536839
-12.001859
-12.664924
-12.428386
-11.698056
-11.928409
-13.473534
-15.783467
-17.985176
-17.762934
-12.459364
-3.121998
4.939631
8.315405
9.525350
11.370189
12.222218
11.092040
11.846987
17.978186
26.483231
31.740974
32.811108
31.577230
27.954153
21.877226
15.879332
12.471212
11.451202
11.856999
13.662455
14.619668
10.132517
-0.006880
-9.290257
-11.450744
-6.912477
-0.789411
3.114387
4.031440
2.696321
0.664230
-0.825307
-2.119826
-3.867054
-4.982269
-3.692240
-0.631453
1.493745
1.786158
1.683978
1.358773
-1.358735
-7.490992
-14.411243
-18.404106
-18.031990
-13.878461
-7.318861
-0.552068
4.171778
6.831904
10.041064
15.462318
20.566387
20.497866
13.139561
1.586792
-8.381989
-12.391002
-9.692434
-3.363841
1.587594
1.730788
-2.242862
-5.856555
-3.926694
5.128734
17.184303
25.272179
25.064144
17.659615
7.733695
0.152113
-2.181313
0.035816
2.371962
0.224394
-7.280414
-17.651131
-28.140373
-37.220211
-43.812634
-47.142700
-47.264938
-44.362770
-38.506115
-30.888443
-23.840107
-19.175474
-17.378361
-18.388393
-22.458229
-29.462948
-37.100567
-41.038960
-38.931126
-34.388062
-34.568699
-41.982136
-50.774479
-53.700733
-49.128918
-38.409637
-21.565340
0.132395
20.386496
32.001980
33.890835
29.900965
23.188190
15.169234
7.489316
1.951827
-0.946571
-1.036543
3.368921
13.352509
25.945824
35.197662
36.680885
30.187729
18.963108
8.374506
5.019858
13.896071
33.897514
56.043667
67.662354
60.010220
33.754524
-1.153423
-31.380329
-48.210506
-51.556831
-47.176079
-40.594032
-33.460903
-24.599115
-13.354703
-1.244002
9.073109
14.557356
12.215967
2.160149
-11.081931
-23.599073
-35.817379
-48.627037
-58.657097
-60.973267
-54.730919
-41.634663
-21.534258
4.674875
29.779678
43.153297
40.121201
25.653988
8.305878
-5.706897
-13.581031
-15.956695
-15.208703
-11.823496
-4.099773
7.862507
20.089588
28.336510
32.024578
33.362240
35.145714
39.347279
44.578930
45.705379
38.349144
23.163450
4.418389
-14.092243
-28.515451
-32.804253
-23.579357
-6.521979
6.940235
9.652272
2.472648
-11.170002
-28.699924
-46.074238
-57.893562
-61.228344
-57.402920
-50.194057
-42.781166
-35.210941
-23.444851
-2.381021
27.321323
56.366116
73.333221
73.841110
61.977436
44.160740
25.286966
9.520479
-0.204977
-3.199855
0.411944
10.241963
24.148235
38.411224
50.431534
60.903973
72.614662
86.182373
97.243195
99.411415
89.920952
70.991859
46.545509
20.650282
-0.165131
-8.683191
-4.784477
2.987187
7.397562
10.697243
17.599047
24.644415
24.876930
17.142174
2.998675
-18.924335
-47.793415
-73.867096
-86.497963
-87.472260
-87.005371
-87.460800
-78.173546
-47.964188
1.574190
57.388668
104.484093
133.925201
147.906372
156.812714
167.407089
175.488480
172.919342
159.410660
141.963226
123.473694
98.987808
65.083656
27.430426
-4.995438
-29.020592
-46.562130
-59.747231
-69.874374
-77.147736
-78.220612
-66.416023
-39.503368
-5.120960
26.438812
51.028584
68.993942
79.031494
77.287666
61.183678
32.129391
-4.033383
-37.991653
-61.092571
-71.340584
-75.264519
-82.734383
-99.332291
-123.179924
-146.822159
-161.531555
-163.749130
-158.545013
-153.942017
-152.295624
-149.344406
-140.356308
-122.548584
-92.107559
-48.380653
-2.303085
29.180510
39.956154
41.047447
47.531116
62.348000
75.633904
76.189140
60.959736
36.708054
16.085249
11.204935
26.678312
55.922390
85.251266
104.610161
115.451630
126.753769
143.537567
162.052399
176.864609
186.527771
189.319183
182.337677
168.295319
155.444077
147.969955
141.496796
131.462112
119.343491
104.873146
80.279709
38.898872
-14.283318
-64.227303
-97.811134
-113.197914
-117.890053
-119.841690
-122.112206
-124.483864
-126.477699
-126.442200
-120.079926
-105.430511
-88.374016
-77.811302
-76.213562
-79.376122
-85.168938
-96.280937
-112.649551
-128.016068
-137.131958
-142.365112
-149.332123
-156.900421
-155.234268
-134.206543
-92.454903
-39.681816
9.130079
44.088173
67.000252
87.674591
112.869255
138.522186
153.834229
153.983841
145.197311
135.046173
124.250336
110.425972
93.431213
73.665192
49.412491
21.349657
-4.580130
-24.337671
-39.204224
-48.277565
-45.502056
-29.121561
-8.342451
6.538326
15.832096
25.622419
37.468945
47.858170
53.242458
52.555962
47.136662
40.948120
38.170921
37.296421
30.962919
13.820011
-11.756524
-37.654739
-56.230671
-64.880119
-64.757751
-56.072079
-37.568901
-10.799055
17.874498
40.644840
53.115635
55.872494
53.385014
52.226009
56.964195
65.964340
73.151894
73.952400
67.989326
57.066486
43.628494
31.737019
26.160727
29.261185
40.056839
54.377258
64.357666
60.741470
38.299110
-0.399526
-45.882053
-86.870178
-116.165657
-132.847183
-140.051254
-141.953598
-142.001633
-141.420853
-138.272446
-128.989807
-112.264748
-90.826645
-68.748878
-48.716537
-32.055721
-19.134047
-9.291073
-2.663263
-2.559539
-12.292986
-29.080412
-45.564335
-57.044411
-63.538612
-66.199188
-65.618019
-63.854240
-63.945759
-66.406982
-70.425293
-76.999329
-86.043976
-92.917793
-92.045540
-83.132004
-70.844978
-59.316311
-50.974285
-47.903969
-48.997952
-49.167286
-45.447247
-41.343918
-42.244415
-48.672298
-57.901150
-69.492668
-84.399864
-100.910309
-115.180092
-124.332695
-125.208313
-111.391014
-78.739410
-34.403126
6.046763
31.880144
44.621063
51.893402
58.117947
63.508141
68.434357
74.263069
80.025856
82.401405
79.437561
71.008118
56.274185
33.922310
5.800639
-22.354738
-45.896923
-64.435097
-78.850578
-88.235367
-91.116920
-87.588257
-78.662270
-64.814400
-46.732635
-26.591246
-6.752208
12.520357
31.640829
48.016933
56.925072
55.588936
43.926498
23.054659
-4.552728
-33.987179
-59.158882
-76.325439
-85.415413
-87.839981
-84.772453
-78.222404
-71.807617
-68.359512
-67.309387
-65.351295
-59.160866
-47.144897
-29.522070
-8.360845
12.031846
25.938883
28.646673
19.045584
0.889408
-19.232920
-36.564030
-50.267426
-61.363705
-70.895195
-79.868477
-87.576683
-87.908340
-70.745277
-31.853104
19.293312
65.838554
98.548424
119.921982
133.483032
136.816360
125.419731
96.965858
52.224434
-3.794958
-60.533325
-105.381386
-131.983780
-144.037094
-149.691544
-153.674637
-156.119858
-156.617203
-156.109070
-155.807175
-156.150650
-156.528015
-156.171753
-155.628387
-156.243622
-158.478653
-161.966507
-164.813812
-159.824844
-133.819138
-76.432838
7.378525
95.760124
164.411804
203.809021
221.607574
230.011963
235.349091
238.318878
237.653091
231.461380
216.647247
189.103210
146.026840
88.154388
20.258556
-50.310219
-116.400299
-172.452896
-214.346054
-240.728134
-254.347321
-259.516663
-257.650024
-244.116074
-208.499130
-141.139771
-42.631310
71.841835
177.991302
255.911697
301.492950
323.824341
331.880157
328.221100
313.547699
290.518799
263.294098
236.262802
213.243683
196.458527
185.302811
177.055252
169.622711
163.089890
159.013641
159.187546
164.049393
169.884064
167.262543
144.875916
97.428635
31.397425
-36.223003
-86.759071
-110.275787
-107.815506
-85.250305
-49.866920
-11.622256
19.174030
37.713596
47.145878
54.763584
65.644737
79.386841
91.515030
96.832672
91.718887
74.195564
43.448452
2.016287
-42.214695
-79.932617
-107.112526
-126.312737
-141.366196
-152.698410
-158.318863
-157.692596
-153.393448
-149.238449
-147.783524
-148.783463
-148.387772
-140.594208
-121.222633
-91.284897
-56.615585
-24.297632
0.301247
14.739675
20.811504
24.667908
33.485329
51.049385
76.701424
107.644348
140.384262
170.728104
195.324326
213.781540
228.247040
240.758453
250.490753
252.362869
237.699936
197.314819
128.067078
39.952991
-45.657822
-109.483131
-146.343643
-163.532959
-170.612473
-171.838058
-166.280487
-152.729385
-132.265656
-106.380386
-73.729385
-29.673298
28.559025
95.100662
155.259872
193.861801
205.445160
197.650681
183.840164
171.514999
159.654953
145.783722
130.957352
117.836029
107.127800
97.386856
86.848129
74.516663
61.732483
53.415470
54.353329
61.086269
59.203804
33.826271
-16.847662
-80.447716
-140.052032
-183.983704
-210.307755
-224.571259
-233.480911
-240.947479
-248.997955
-259.374481
-272.347931
-285.239380
-294.270111
-297.266632
-293.585968
-283.278809
-267.533356
-248.716370
-228.754761
-207.380783
-182.668137
-153.591385
-122.298645
-94.504921
-76.303757
-68.022797
-61.259346
-44.877422
-16.114664
15.655824
37.801571
45.848621
44.962193
41.735004
37.606689
30.277662
18.879898
6.751361
-0.846607
-1.690130
1.884634
6.605940
11.065041
14.807882
17.853113
22.805155
35.409660
59.366379
91.026291
122.107452
146.938629
165.615768
181.236481
195.792847
208.757584
218.240601
222.684769
221.909271
217.506607
212.297089
209.017242
209.968353
217.054443
229.586288
242.184265
247.115463
238.484802
212.968903
168.931931
109.469971
45.848339
-7.212972
-41.189793
-57.807037
-64.959915
-69.707169
-74.357170
-77.401497
-77.122963
-75.481361
-78.328064
-90.196632
-109.479240
-129.237427
-140.936020
-135.497238
-104.270294
-47.213806
20.595573
78.050827
113.589699
129.551498
134.466156
135.413162
136.746216
140.898834
147.944351
154.856339
155.006577
138.724442
97.794930
33.136150
-42.549591
-112.367035
-165.859711
-202.510132
-226.651413
-239.218689
-234.375595
-204.873123
-150.666595
-82.943077
-18.448971
32.775341
72.721230
108.051926
140.617844
165.884140
178.068344
175.370544
160.127213
134.664413
99.092972
53.376816
0.424900
-52.691692
-96.768181
-124.495338
-132.342682
-119.631027
-88.914017
-46.768742
-1.553413
39.196419
69.873344
88.508034
97.462845
100.581062
99.986748
95.846352
88.085411
77.402435
64.749138
51.287308
38.952045
29.657698
23.972658
21.262646
20.629637
20.609571
18.308876
10.377225
-5.200623
-27.457556
-48.648750
-53.005882
-27.352522
22.417763
70.451149
93.648994
92.266106
82.831284
76.753159
71.928986
62.227158
48.065777
34.917980
26.058941
20.634436
17.197357
15.799463
16.362061
17.269884
16.456360
13.539593
10.735295
11.372232
16.743052
23.582802
24.918327
15.060411
-4.900766
-26.798834
-41.381969
-44.439922
-37.377258
-23.918350
-7.398636
9.435668
23.234884
30.336687
29.371996
22.692751
13.958578
4.699928
-6.732059
-23.459450
-47.034428
-75.619728
-104.879372
-130.550385
-150.503159
-164.630035
-173.177933
-176.069199
-173.771576
-167.705399
-159.552734
-150.478210
-140.895187
-130.955917
-121.340637
-113.370827
-108.049011
-105.143234
-103.529701
-101.629280
-96.462120
-82.771751
-55.134583
-13.333941
34.295845
75.206924
101.773170
115.518494
122.534164
127.019539
129.293579
127.821533
122.293289
114.648933
107.278458
100.896446
94.421089
86.497818
77.061661
67.957161
62.311905
62.579823
67.956520
73.945541
75.631531
71.358414
63.244728
54.883633
48.133038
40.922184
28.100220
5.136484
-28.136784
-66.426109
-101.649666
-127.847679
-144.217865
-153.585999
-158.436066
-158.808365
-153.754150
-144.051804
-132.397385
-120.874901
-109.800621
-99.223534
-89.761009
-81.891235
-75.755714
-71.542076
-69.353851
-68.694275
-68.551781
-68.266876
-67.968338
-67.954079
-67.406433
-62.907745
-48.940636
-22.678221
10.454075
38.223240
51.315121
50.692284
44.050671
37.721428
33.098335
28.255524
21.039009
10.890798
-0.565921
-9.949100
-14.001184
-11.757205
-4.877786
4.097878
13.910248
25.376045
39.871643
56.851551
73.321854
85.963936
93.362259
96.186302
96.085365
94.212730
89.182434
75.544678
46.269310
0.605837
-50.738945
-91.736343
-112.239899
-112.260941
-98.048317
-76.332092
-51.521461
-26.421354
-3.575728
15.062313
28.919128
38.498772
44.656971
47.940159
48.046246
44.314323
36.530254
24.672270
8.562067
-11.589366
-34.387245
-57.196369
-76.537079
-87.612946
-84.860115
-66.746300
-40.516823
-18.605917
-8.122556
-5.830795
-4.562172
-0.986761
4.127484
9.589797
15.079324
19.585651
20.844313
16.778316
6.786018
-7.756429
-23.877356
-38.504112
-49.863697
-57.768837
-63.217674
-67.702484
-72.357437
-77.583626
-83.349899
-89.483528
-95.483482
-100.374283
-103.306953
-103.980873
-101.632927
-93.410889
-74.175461
-39.555691
9.074512
63.040951
110.941772
145.200043
165.149948
175.339371
180.960587
184.122314
183.477386
176.019806
159.333054
133.242706
100.233246
65.259201
34.634361
13.332943
2.991077
