EVENT_NAME: EMILIA_2ND_SHOCK
EVENT_ID: IT-2012-0011
EVENT_DATE_YYYYMMDD: 20120529
EVENT_TIME_HHMMSS: 070002
EVENT_LATITUDE_DEGREE: 44.8417
EVENT_LONGITUDE_DEGREE: 11.0657
EVENT_DEPTH_KM: 8.1
HYPOCENTER_REFERENCE: INGV-CNT_Seismic_Bulletin
MAGNITUDE_W: 6.0
MAGNITUDE_W_REFERENCE: RCMT-INGV
MAGNITUDE_L: 5.8
MAGNITUDE_L_REFERENCE: INGV-CNT_Seismic_Bulletin
FOCAL_MECHANISM: TF
NETWORK: IV
STATION_CODE: T0803
STATION_NAME: T0803
STATION_LATITUDE_DEGREE: 44.766800
STATION_LONGITUDE_DEGREE: 11.350800
STATION_ELEVATION_M: 10
LOCATION: 
SENSOR_DEPTH_M: 1.0
VS30_M/S: 
SITE_CLASSIFICATION_EC8: C*
MORPHOLOGIC_CLASSIFICATION: 
EPICENTRAL_DISTANCE_KM: 24.0
EARTHQUAKE_BACKAZIMUTH_DEGREE: 290.4
DATE_TIME_FIRST_SAMPLE_YYYYMMDD_HHMMSS: 20120529_065953.000
DATE_TIME_FIRST_SAMPLE_PRECISION: milliseconds
SAMPLING_INTERVAL_S: 0.005000
NDATA: 20001
DURATION_S: 100.005
STREAM: HNN
UNITS: cm/s^2
INSTRUMENT: sensor = Episensor FBA ES-T [Kinemetrics] | digitizer = Unknown [Unknown]
INSTRUMENT_ANALOG/DIGITAL: D
INSTRUMENTAL_FREQUENCY_HZ: 
INSTRUMENTAL_DAMPING: 
FULL_SCALE_G: 
N_BIT_DIGITAL_CONVERTER: 
PGA_CM/S^2: -68.419351
TIME_PGA_S: 23.870000
BASELINE_CORRECTION: BASELINE REMOVED
FILTER_TYPE: BUTTERWORTH
FILTER_ORDER: 2
LOW_CUT_FREQUENCY_HZ: 0.060
HIGH_CUT_FREQUENCY_HZ: 40.000
LATE/NORMAL_TRIGGERED: NT
DATABASE_VERSION: DYNA 1.0
HEADER_FORMAT: DYNA 1.2
DATA_TYPE: ACCELERATION
PROCESSING: manual (Paolucci et al., 2011)
DATA_TIMESTAMP_YYYYMMDD_HHMMSS: 
DATA_LICENSE: CC-BY4_0 (http://creativecommons.org/licenses/by/4.0/)
DATA_CITATION: ESM working group (2015), European Strong-Motion database, version 0.1, Network Activity 3: Networking acceleration networks and SM data users. Project NERA (www.nera-eu.org)
DATA_CREATOR: ESM working group
ORIGINAL_DATA_MEDIATOR_CITATION: Orfeus - European Integrated Data Archive (EIDA) http://www.orfeus-eu.org/eida/
ORIGINAL_DATA_MEDIATOR: Orfeus - European Integrated Data Archive (EIDA)
ORIGINAL_DATA_CREATOR_CITATION: Data for this study comes from the Italian national seismic network operated by Istituto Nazionale di Geofisica e Vulcanologia and archived at the European Integrated Data Archive http://eida.rm.ingv.it/
ORIGINAL_DATA_CREATOR: network: IV (Italian National Seismic Network); owner: Istituto Nazionale di Geofisica e Vulcanologia
USER1: 
USER2: 
USER3: 
USER4: 
USER5: 
[...]
0.255267
-0.088453
-0.467391
-0.804205
-0.938754
-0.797037
-0.528597
-0.361512
-0.402088
-0.633926
-0.949921
-1.122972
-0.926644
-0.375418
0.271935
0.766349
1.004833
0.975664
0.741580
0.438031
0.187473
0.048563
0.036594
0.118299
0.212309
0.248229
0.203685
0.089260
-0.042280
-0.092323
0.000512
0.194744
0.396820
0.492979
0.336383
-0.139077
-0.808734
-1.471335
-1.960438
-2.113107
-1.839469
-1.216980
-0.386342
0.541454
1.446705
2.185113
2.590132
2.528809
2.067178
1.480222
1.007372
0.705547
0.517596
0.300367
-0.165322
-0.953507
-1.807668
-2.364484
-2.469827
-2.165330
-1.579974
-0.932580
-0.436316
-0.140931
0.042527
0.199817
0.351547
0.481603
0.566919
0.585912
0.545986
0.509219
0.540323
0.606309
0.574512
0.359586
0.025645
-0.299222
-0.519394
-0.568118
-0.451246
-0.309691
-0.307156
-0.434394
-0.506963
-0.369525
-0.017915
0.469420
0.963554
1.265368
1.225109
0.844393
0.206374
-0.539817
-1.148264
-1.416915
-1.302329
-0.857878
-0.239283
0.277744
0.502467
0.487811
0.394048
0.340027
0.408257
0.620374
0.888701
1.090068
1.160044
1.081074
0.859867
0.537795
0.170815
-0.177689
-0.426482
-0.542656
-0.606001
-0.736765
-0.995667
-1.381065
-1.826767
-2.169353
-2.226699
-1.924463
-1.284642
-0.386993
0.609223
1.524106
2.211903
2.528886
2.425951
2.065614
1.678235
1.368714
1.121575
0.842917
0.342657
-0.560784
-1.793969
-2.994118
-3.783261
-3.922757
-3.289303
-1.976222
-0.314338
1.322119
2.600864
3.263121
3.236812
2.608864
1.554800
0.369689
-0.636451
-1.271101
-1.412653
-1.061387
-0.456314
0.091335
0.416139
0.477222
0.344895
0.260571
0.479811
0.971617
1.405697
1.469727
1.052403
0.183309
-0.906843
-1.755998
-2.015587
-1.707037
-1.033432
-0.234164
0.387556
0.624954
0.517398
0.217761
-0.124725
-0.346258
-0.339401
-0.129944
0.192258
0.516837
0.688865
0.577721
0.141815
-0.594170
-1.473373
-2.169384
-2.403584
-2.105682
-1.329478
-0.249837
0.814275
1.612263
2.117755
2.404722
2.498464
2.359435
1.951666
1.292497
0.432837
-0.515397
-1.354172
-1.937907
-2.284820
-2.478218
-2.536240
-2.400361
-2.008494
-1.342001
-0.415582
0.679263
1.753444
2.653978
3.360705
3.901278
4.212599
4.111857
3.461073
2.298743
0.761512
-0.905547
-2.298514
-3.120765
-3.404046
-3.325534
-3.016395
-2.564253
-2.005958
-1.302197
-0.406611
0.572271
1.341630
1.682330
1.638524
1.393517
1.187218
1.322562
1.889052
2.508151
2.657547
2.153655
1.145164
-0.098890
-1.227485
-1.932426
-2.192630
-2.234337
-2.219949
-2.080638
-1.661442
-0.962464
-0.173630
0.478836
0.808398
0.699748
0.252586
-0.209764
-0.418173
-0.334292
-0.050485
0.269211
0.390014
0.206848
-0.084318
-0.183579
0.039925
0.551726
1.229620
1.854255
2.210137
2.259546
2.114356
1.850372
1.413308
0.707445
-0.232279
-1.209175
-2.013346
-2.506621
-2.619709
-2.418451
-2.099657
-1.811853
-1.544167
-1.214342
-0.782774
-0.260638
0.321864
0.923391
1.505643
2.041104
2.488731
2.767793
2.740082
2.264810
1.334108
0.096806
-1.203986
-2.223231
-2.628896
-2.334481
-1.494551
-0.396115
0.524325
0.856354
0.559064
-0.064733
-0.713859
-1.251445
-1.649332
-1.951851
-2.240412
-2.511795
-2.593575
-2.292739
-1.680679
-1.095608
-0.751733
-0.478018
0.047479
0.958326
2.166868
3.411646
4.208526
4.064431
2.890124
0.998449
-1.172403
-3.127490
-4.435319
-4.965324
-4.830329
-4.207113
-3.312080
-2.323938
-1.260373
-0.033047
1.317619
2.463809
3.026210
2.996509
2.740951
2.599396
2.668625
2.882992
3.017579
2.690483
1.716391
0.394790
-0.804866
-1.639874
-2.051737
-2.042349
-1.673062
-1.019912
-0.153088
0.832014
1.826766
2.721039
3.421664
3.885111
4.092314
4.020394
3.644842
2.940660
1.917828
0.643114
-0.755997
-2.065743
-3.071547
-3.698464
-3.981781
-3.969700
-3.702188
-3.204650
-2.495745
-1.606465
-0.591432
0.456790
1.426928
2.168706
2.453802
2.132743
1.283856
0.087662
-1.250318
-2.447093
-3.252259
-3.547910
-3.282165
-2.446236
-1.112022
0.436654
1.549762
1.568381
0.542627
-0.748270
-1.542489
-1.497724
-0.569799
0.903449
2.182139
2.684879
2.375042
1.473388
0.202918
-1.174981
-2.365023
-3.049657
-2.980952
-2.255220
-1.315019
-0.528283
0.058959
0.529829
0.806915
0.616365
-0.190682
-1.386050
-2.567795
-3.332333
-3.232224
-2.126791
-0.547394
0.786148
1.664772
2.346205
3.071347
3.833212
4.476550
4.750916
4.302084
2.988880
1.174778
-0.575418
-1.795099
-2.041825
-1.141726
0.496007
2.244382
3.638180
4.281016
3.959191
2.852477
1.300884
-0.395714
-1.909964
-2.985839
-3.563300
-3.681154
-3.399170
-2.789507
-1.899888
-0.737430
0.669979
2.062627
2.889483
2.774743
1.883346
0.607973
-0.752421
-1.946041
-2.794623
-3.268757
-3.388178
-3.110881
-2.364143
-1.299188
-0.520335
-0.714526
-1.989655
-3.857516
-5.683909
-6.850070
-6.872812
-5.755224
-3.963242
-2.011966
-0.297109
0.912194
1.568144
1.806465
1.829883
1.900448
2.251692
2.910630
3.720572
4.534949
5.308077
6.008984
6.416507
6.065490
4.663367
2.435726
-0.135582
-2.471076
-3.826711
-3.872473
-3.242802
-2.888708
-3.180124
-3.934150
-4.805790
-5.389542
-5.346042
-4.675299
-3.674323
-2.558878
-1.258969
0.385006
2.258141
3.915347
4.985388
5.446481
5.460879
5.247159
5.073400
5.026731
4.811424
4.011754
2.503078
0.459018
-1.845623
-4.077105
-5.907695
-7.065388
-7.252622
-6.318775
-4.484316
-2.152257
0.144167
1.641447
1.875105
1.163192
0.142224
-0.748048
-1.219298
-1.192069
-0.957221
-0.893071
-1.015152
-0.979224
-0.514628
0.312907
1.256780
1.982436
2.041407
1.235804
-0.043750
-1.201034
-1.919645
-2.121722
-1.873131
-1.434734
-1.082696
-0.807239
-0.333595
0.508749
1.549525
2.473716
3.039802
3.061444
2.521134
1.733147
1.120140
0.940651
1.332568
2.291147
3.557370
4.816436
5.974444
7.112176
8.237225
9.142531
9.521354
9.097601
7.622745
5.168680
2.454449
0.346767
-0.892419
-1.538035
-1.886720
-2.046607
-1.999926
-1.679458
-1.033863
-0.219962
0.224767
-0.257668
-1.521371
-2.680165
-2.968335
-2.266628
-0.828160
0.834562
1.910027
1.875717
0.979716
-0.219583
-1.383043
-2.357005
-3.089721
-3.660213
-4.179619
-4.660222
-5.039040
-5.349211
-5.845540
-6.847490
-8.466431
-10.571550
-12.802826
-14.480097
-14.910469
-13.960540
-12.020975
-9.551756
-6.916372
-4.326875
-1.683746
1.340657
4.775364
7.966862
10.041022
10.549088
9.410793
6.826655
3.435527
-0.035304
-3.169570
-5.702044
-7.366617
-7.909180
-7.110067
-4.939643
-1.591360
2.542010
6.770223
10.322665
12.537923
12.722418
10.640076
7.099206
3.276865
-0.038360
-2.311274
-3.394363
-3.867976
-4.505875
-5.471459
-6.333514
-6.652935
-6.277682
-5.200301
-3.429882
-0.985905
2.002092
5.174493
8.066887
10.125551
10.575705
8.939064
5.549202
1.122554
-3.456723
-6.945937
-8.431859
-7.972125
-6.127193
-3.697137
-1.801636
-1.092821
-1.073564
-0.797663
0.254044
2.210474
4.967198
8.112103
11.155952
13.758560
15.592459
16.306696
15.587548
13.211174
9.369116
4.746603
0.095447
-3.974800
-7.020991
-8.905267
-9.718194
-9.660915
-9.091609
-8.333702
-7.332738
-5.694190
-3.210098
-0.224303
2.677162
4.944666
5.997648
5.635979
4.494511
3.451097
2.792615
2.262086
1.563972
0.585073
-0.627310
-1.736586
-2.107045
-1.434820
-0.257557
0.558356
0.423931
-1.025055
-3.745324
-6.940487
-9.581290
-11.033035
-10.912432
-9.091370
-5.927851
-1.945124
2.422209
6.665000
10.213036
12.498132
13.054945
11.881340
9.461767
6.468520
3.708315
1.872888
1.024068
0.673804
0.405555
0.185379
0.165669
0.416869
0.864376
1.286367
1.266721
0.402492
-1.255111
-3.182543
-4.857565
-6.009241
-6.530926
-6.452196
-5.910991
-5.065715
-4.080721
-3.108878
-2.294266
-1.811756
-1.739126
-1.918692
-2.090546
-2.017753
-1.462498
-0.370965
0.921490
1.972263
2.657509
3.166031
3.750974
4.636151
5.931632
7.309966
7.955345
7.270625
5.393261
2.807544
0.051686
-2.187389
-3.383411
-3.472426
-2.630875
-1.180419
0.344617
1.436420
1.787778
1.261610
0.033715
-1.393829
-2.577419
-3.364619
-3.756029
-3.762189
-3.369069
-2.577497
-1.455354
-0.134009
1.057787
1.522322
0.859901
-0.741583
-2.821005
-4.887110
-6.345167
-6.837053
-6.582886
-6.007397
-5.239395
-4.102257
-2.387432
0.006091
3.085919
6.609458
9.999469
12.665130
14.209732
14.356687
12.927357
9.803887
5.136921
-0.362645
-5.798001
-10.406746
-13.357891
-14.110250
-12.875128
-10.180115
-6.528687
-2.527233
1.241129
4.349136
6.503256
7.591618
7.618851
6.666745
4.963390
2.748686
0.142499
-2.762319
-5.719219
-8.199535
-9.627559
-9.777987
-8.744602
-6.815412
-4.540660
-2.487179
-0.911671
0.114951
0.467509
-0.109980
-1.861575
-4.593827
-7.564353
-9.927972
-10.971489
-10.197492
-7.742375
-4.389186
-0.968817
1.920458
3.917400
5.083939
5.845211
6.553606
7.259051
7.850820
8.211616
8.250041
8.011974
7.794662
7.894499
8.102377
7.690520
6.212126
4.072492
2.039730
0.691936
0.436276
1.206601
2.049779
1.813642
0.247959
-2.030755
-4.336806
-6.261890
-7.592784
-8.248227
-8.184173
-7.346906
-5.706633
-3.303764
-0.529584
1.782154
3.015879
3.274646
2.998749
2.606280
2.520505
2.944830
3.617229
4.108812
4.221149
3.978429
3.521427
3.119650
3.018946
3.127697
3.018435
2.389224
1.369425
0.311812
-0.339330
0.000436
1.616058
4.074279
6.684137
9.024457
10.850210
11.987424
12.374222
12.017973
11.076279
9.927031
9.016729
8.781899
9.525581
10.983894
12.272038
12.594786
11.695548
9.633018
6.696245
3.405570
0.147083
-3.076295
-6.411159
-9.765640
-12.725235
-14.871172
-15.994192
-16.048548
-15.292469
-14.325082
-13.636842
-13.312437
-13.240559
-13.355134
-13.661329
-14.163087
-14.812164
-15.490793
-15.839346
-15.176508
-13.031120
-9.583149
-5.340559
-1.017792
2.306731
3.788347
3.344471
1.266658
-2.026118
-5.910839
-9.775805
-13.164969
-15.720454
-17.068832
-16.702286
-14.375071
-10.530294
-5.877800
-1.036651
3.314333
6.665746
8.961879
10.349360
10.928534
10.756907
9.948948
8.768708
7.506077
6.343659
5.427330
4.893075
4.836796
5.298286
6.109498
6.838891
7.065354
6.557493
5.239644
3.328297
1.363209
-0.188862
-1.191040
-1.669818
-1.639118
-1.072237
0.015773
1.483157
3.139340
4.768854
6.056003
6.706133
6.564490
5.558632
3.712970
1.166898
-1.832017
-4.873803
-7.539230
-9.618723
-11.046300
-11.841496
-12.166583
-12.228864
-12.208449
-12.311086
-12.693885
-13.379961
-14.339152
-15.559801
-17.010059
-18.484781
-19.460962
-19.305288
-17.535395
-13.760150
-8.021618
-1.254547
5.322850
10.877307
14.754142
16.591284
16.660557
15.484019
13.524644
11.304689
9.289463
7.749784
6.840364
6.684129
7.433994
9.152768
11.658505
14.653789
17.719364
20.187595
21.483768
21.425343
20.043610
17.531391
14.283095
10.746366
7.364585
4.492456
2.205398
0.361274
-1.169800
-2.417269
-3.346434
-3.909809
-4.077474
-3.937170
-3.797612
-4.002347
-4.626832
-5.501181
-6.452624
-7.413998
-8.412299
-9.637949
-11.453061
-14.046642
-17.156456
-20.319859
-23.023357
-24.550266
-24.248840
-21.814180
-17.108414
-10.096818
-0.877155
10.129608
21.889400
33.215130
43.215847
51.017647
56.004005
58.257507
58.139774
55.930504
51.874104
46.218948
39.267273
31.315331
22.828293
14.700240
8.010170
3.845622
3.072435
5.492459
9.730324
14.097107
16.910410
16.813637
13.645929
8.356790
2.172678
-3.627713
-7.945874
-10.310502
-10.701588
-9.394682
-7.142585
-4.797223
-2.845602
-1.537011
-0.908736
-0.629308
-0.274930
0.246383
0.701383
0.830953
0.497630
-0.324266
-1.448392
-2.492529
-3.312557
-4.333661
-6.248220
-9.739006
-15.552549
-23.894176
-33.764603
-43.692657
-52.320339
-58.046307
-59.664661
-57.140434
-50.940231
-41.526382
-29.485691
-15.636500
-1.196845
12.571829
24.676769
34.080246
40.147427
43.284695
44.334278
44.136593
43.734173
44.012932
45.351597
47.788223
50.929569
53.866879
55.669125
55.691536
53.495876
48.911705
41.966537
32.913330
22.444735
11.367737
0.352574
-9.865098
-18.770960
-26.438791
-33.199726
-39.305725
-44.934933
-50.149937
-54.835274
-58.812801
-62.034054
-64.567375
-66.450836
-67.636063
-67.998657
-67.290909
-65.080284
-61.026115
-55.142784
-47.598568
-38.683819
-28.949789
-19.135656
-10.167567
-2.946825
1.953690
4.110130
3.386387
0.298358
-4.414246
-10.069932
-15.808387
-20.773859
-24.321785
-25.987804
-25.609735
-23.294939
-19.471584
-15.125910
-11.359206
-8.822172
-7.866307
-8.474970
-9.948310
-11.339442
-11.846480
-10.616857
-7.114852
-1.603385
5.281910
12.744456
19.643009
25.061945
28.820316
31.090630
32.057968
31.916435
30.910378
29.402670
27.780727
26.460176
26.040653
27.048664
29.673250
33.905697
39.461327
45.665600
51.689346
56.645229
59.737705
60.557770
58.946430
54.995022
49.291790
42.583443
35.552578
29.016521
23.585352
19.285015
15.856567
12.988298
10.267882
7.314779
3.887566
-0.170735
-4.958688
-10.530806
-16.755104
-23.130962
-29.055786
-34.148556
-38.148689
-40.931942
-42.660889
-43.612064
-44.095051
-44.554981
-45.428921
-47.019627
-49.512100
-52.855907
-56.742245
-60.742481
-64.328079
-66.990501
-68.419350
-68.403114
-66.885185
-64.150772
-60.563999
-56.251305
-51.155373
-45.290997
-38.910637
-32.348316
-25.895761
-19.879337
-14.521306
-9.771012
-5.452025
-1.369616
2.724812
7.026883
11.580680
16.349808
21.261700
26.195766
31.023340
35.633812
39.920856
43.724274
46.772865
48.848911
49.949566
50.146271
49.427540
47.687576
44.872963
41.119907
36.629612
31.602182
26.302460
20.978743
15.789657
10.834674
6.209876
2.068677
-1.431389
-4.196860
-6.169048
-7.342377
-7.770315
-7.571058
-6.978767
-6.238150
-5.489882
-4.829333
-4.350041
-4.138211
-4.292669
-4.986097
-6.484289
-8.863118
-11.744065
-14.551352
-16.668617
-17.287975
-15.835479
-12.417485
-7.434185
-1.299438
5.448407
12.234636
18.519472
23.856447
28.019541
30.902082
32.487259
32.955711
32.525299
31.281734
29.225258
26.424910
23.134989
19.656811
16.206402
12.976548
10.086880
7.489606
5.060160
2.675795
0.203128
-2.420292
-5.102308
-7.717035
-10.327783
-13.214019
-16.618544
-20.580275
-24.995321
-29.488686
-33.302822
-35.730309
-36.440910
-35.319145
-32.439426
-28.077879
-22.650269
-16.775389
-11.056383
-5.777729
-1.012090
3.252265
7.146269
10.819757
14.266585
17.294844
19.636166
20.997036
21.083115
19.678692
16.632524
12.079529
6.738984
1.511169
-2.917638
-5.887563
-6.969841
-6.310753
-4.284346
-1.188702
2.678671
6.992944
11.391246
15.541836
19.214182
22.189775
24.326937
25.689087
26.428574
26.733007
26.883343
27.162933
27.789749
28.908419
30.471672
32.200542
33.675667
34.341064
33.624775
31.114880
26.472502
19.678890
11.409223
2.570876
-6.087124
-13.740279
-19.679047
-23.604368
-25.436996
-25.261192
-23.336914
-20.055075
-16.014799
-11.784662
-7.558823
-3.257060
1.182459
5.682599
10.100350
14.260720
17.907736
20.822098
22.941408
24.258713
24.696945
24.078049
22.290653
19.454502
15.761257
11.337045
6.291950
0.784747
-4.926649
-10.558482
-15.812993
-20.276236
-23.614592
-25.786585
-26.883427
-27.017462
-26.336363
-24.995420
-23.163902
-20.987654
-18.573229
-16.034422
-13.458856
-10.863534
-8.205575
-5.336706
-1.982915
2.030239
6.589145
11.434100
16.198278
20.326038
23.402399
25.450520
26.704346
27.446077
28.036846
28.715322
29.425493
29.968794
30.148529
29.742283
28.596111
26.740686
24.263203
21.152903
17.297281
12.642215
7.324748
1.567235
-4.320054
-9.830612
-14.475894
-17.970062
-20.175133
-21.203489
-21.441265
-21.329319
-21.282177
-21.618643
-22.385674
-23.397907
-24.440796
-25.343981
-25.980200
-26.273779
-26.158319
-25.578859
-24.529491
-23.002110
-20.892921
-17.980522
-14.126067
-9.449273
-4.187590
1.330264
6.574725
11.025763
14.348830
16.320112
16.810663
15.763980
13.357074
10.241566
7.214574
4.916867
4.005865
4.893149
7.375028
10.988926
15.278046
19.669683
23.618067
26.752626
28.831125
29.740522
29.421932
27.855965
25.141226
21.395805
16.712200
11.231605
5.233043
-0.767935
-6.222814
-10.830521
-14.461991
-17.161318
-19.287308
-21.289001
-23.452875
-25.970310
-28.913036
-32.125385
-35.358845
-38.389076
-40.965084
-42.914505
-44.273705
-45.164471
-45.682178
-45.913261
-45.942131
-45.854198
-45.707661
-45.451511
-44.907497
-43.886074
-42.261456
-39.957832
-37.017956
-33.625385
-30.024841
-26.509310
-23.349110
-20.680336
-18.554043
-16.959787
-15.774251
-14.835446
-13.967588
-12.907839
-11.370389
-9.110237
-5.931786
-1.784490
3.232343
8.873893
14.665977
20.083965
24.734606
28.241171
30.386442
31.346640
31.447346
30.957300
30.161444
29.331793
28.679777
28.354612
28.405251
28.806280
29.484873
30.294056
31.082691
31.802528
32.489937
33.187767
33.916546
34.683067
35.481407
36.289497
37.069016
37.761135
38.302139
38.635807
38.690186
38.394371
37.708099
36.590862
34.946781
32.604424
29.470535
25.676243
21.438065
16.959665
12.494990
8.287026
4.498523
1.237901
-1.429598
-3.446627
-4.787668
-5.520711
-5.746428
-5.589763
-5.251567
-4.952384
-4.893341
-5.241285
-6.090359
-7.492201
-9.423344
-11.706183
-14.101172
-16.336172
-18.023087
-18.842978
-18.730072
-17.733322
-15.915010
-13.369804
-10.277062
-6.976087
-3.830629
-1.068650
1.148249
2.745586
3.833633
4.581261
5.073773
5.335691
5.397395
5.328535
5.197322
5.003457
4.681964
4.180126
3.505376
2.692187
1.786775
0.865824
0.027181
-0.614003
-0.953927
-0.982186
-0.794460
-0.558337
-0.525439
-0.950910
-1.974688
-3.671016
-6.073753
-9.128369
-12.759197
-16.907907
-21.492630
-26.357786
-31.221762
-35.769066
-39.714577
-42.713757
-44.518219
-45.172199
-44.844147
-43.717823
-42.036259
-40.034519
-37.896465
-35.741940
-33.582092
-31.343334
-28.955084
-26.392166
-23.646484
-20.689325
-17.458029
-13.904204
-10.039924
-5.903802
-1.553292
2.916711
7.409025
11.846949
16.181973
20.431807
24.677635
28.992029
33.398811
37.883156
42.342785
46.550434
50.268677
53.334927
55.611805
56.884991
56.785011
55.026333
51.648907
46.832569
40.838699
34.107616
27.154537
20.523561
14.693486
9.906113
6.243773
3.618079
1.621995
-0.228565
-2.203699
-4.433622
-6.965464
-9.714867
-12.547726
-15.356350
-18.028603
-20.462296
-22.598152
-24.400547
-25.843964
-26.893911
-27.512228
-27.680016
-27.389273
-26.678999
-25.652088
-24.420916
-23.085638
-21.704893
-20.207815
-18.387739
-16.084389
-13.313797
-10.191707
-6.960654
-4.061122
-1.904644
-0.695605
-0.497420
-1.156397
-2.266285
-3.395588
-4.202697
-4.448249
-4.083396
-3.207724
-1.951162
-0.457828
1.154091
2.868018
4.761248
6.935386
9.487043
12.501479
15.998067
19.914625
24.093073
28.226171
31.969133
