EVENT_NAME: EMILIA_2ND_SHOCK
EVENT_ID: IT-2012-0011
EVENT_DATE_YYYYMMDD: 20120529
EVENT_TIME_HHMMSS: 070002
EVENT_LATITUDE_DEGREE: 44.8417
EVENT_LONGITUDE_DEGREE: 11.0657
EVENT_DEPTH_KM: 8.1
HYPOCENTER_REFERENCE: INGV-CNT_Seismic_Bulletin
MAGNITUDE_W: 6.0
MAGNITUDE_W_REFERENCE: RCMT-INGV
MAGNITUDE_L: 5.8
MAGNITUDE_L_REFERENCE: INGV-CNT_Seismic_Bulletin
FOCAL_MECHANISM: TF
NETWORK: IV
STATION_CODE: T0802
STATION_NAME: T0802
STATION_LATITUDE_DEGREE: 44.875000
STATION_LONGITUDE_DEGREE: 11.181600
STATION_ELEVATION_M: 9
LOCATION: 
SENSOR_DEPTH_M: 1.0
VS30_M/S: 
SITE_CLASSIFICATION_EC8: C*
MORPHOLOGIC_CLASSIFICATION: 
EPICENTRAL_DISTANCE_KM: 9.9
EARTHQUAKE_BACKAZIMUTH_DEGREE: 248.0
DATE_TIME_FIRST_SAMPLE_YYYYMMDD_HHMMSS: 20120529_065951.000
DATE_TIME_FIRST_SAMPLE_PRECISION: milliseconds
SAMPLING_INTERVAL_S: 0.005000
NDATA: 14001
DURATION_S: 70.005
STREAM: HNE
UNITS: cm
INSTRUMENT: sensor = Episensor FBA ES-T [Kinemetrics] | digitizer = Unknown [Unknown]
INSTRUMENT_ANALOG/DIGITAL: D
INSTRUMENTAL_FREQUENCY_HZ: 
INSTRUMENTAL_DAMPING: 
FULL_SCALE_G: 
N_BIT_DIGITAL_CONVERTER: 
PGD_CM: 6.827716
TIME_PGD_S: 19.825000
BASELINE_CORRECTION: BASELINE REMOVED
FILTER_TYPE: BUTTERWORTH
FILTER_ORDER: 2
LOW_CUT_FREQUENCY_HZ: 0.100
HIGH_CUT_FREQUENCY_HZ: 40.000
LATE/NORMAL_TRIGGERED: NT
DATABASE_VERSION: DYNA 1.0
HEADER_FORMAT: DYNA 1.2
DATA_TYPE: DISPLACEMENT
PROCESSING: manual (Paolucci et al., 2011)
DATA_TIMESTAMP_YYYYMMDD_HHMMSS: 
DATA_LICENSE: CC-BY4_0 (http://creativecommons.org/licenses/by/4.0/)
DATA_CITATION: ESM working group (2015), European Strong-Motion database, version 0.1, Network Activity 3: Networking acceleration networks and SM data users. Project NERA (www.nera-eu.org)
DATA_CREATOR: ESM working group
ORIGINAL_DATA_MEDIATOR_CITATION: Orfeus - European Integrated Data Archive (EIDA) http://www.orfeus-eu.org/eida/
ORIGINAL_DATA_MEDIATOR: Orfeus - European Integrated Data Archive (EIDA)
ORIGINAL_DATA_CREATOR_CITATION: Data for this study comes from the Italian national seismic network operated by Istituto Nazionale di Geofisica e Vulcanologia and archived at the European Integrated Data Archive http://eida.rm.ingv.it/
ORIGINAL_DATA_CREATOR: network: IV (Italian National Seismic Network); owner: Istituto Nazionale di Geofisica e Vulcanologia
USER1: 
USER2: 
USER3: 
USER4: 
USER5: 
[...]
-3.262861e-01
-3.279769e-01
-3.296763e-01
-3.313951e-01
-3.331389e-01
-3.349070e-01
-3.366954e-01
-3.384995e-01
-3.403162e-01
-3.421445e-01
-3.439842e-01
-3.458314e-01
-3.476771e-01
-3.495111e-01
-3.513275e-01
-3.531260e-01
-3.549108e-01
-3.566871e-01
-3.584607e-01
-3.602368e-01
-3.620183e-01
-3.638032e-01
-3.655843e-01
-3.673554e-01
-3.691184e-01
-3.708817e-01
-3.726519e-01
-3.744255e-01
-3.761897e-01
-3.779271e-01
-3.796245e-01
-3.812855e-01
-3.829360e-01
-3.846128e-01
-3.863467e-01
-3.881536e-01
-3.900336e-01
-3.919721e-01
-3.939441e-01
-3.959194e-01
-3.978697e-01
-3.997781e-01
-4.016447e-01
-4.034812e-01
-4.053015e-01
-4.071173e-01
-4.089380e-01
-4.107726e-01
-4.126317e-01
-4.145286e-01
-4.164752e-01
-4.184722e-01
-4.205040e-01
-4.225456e-01
-4.245731e-01
-4.265707e-01
-4.285314e-01
-4.304581e-01
-4.323638e-01
-4.342707e-01
-4.362049e-01
-4.381868e-01
-4.402217e-01
-4.422990e-01
-4.443949e-01
-4.464796e-01
-4.485310e-01
-4.505439e-01
-4.525293e-01
-4.545081e-01
-4.565037e-01
-4.585336e-01
-4.606042e-01
-4.627147e-01
-4.648634e-01
-4.670483e-01
-4.692613e-01
-4.714839e-01
-4.736894e-01
-4.758487e-01
-4.779393e-01
-4.799591e-01
-4.819313e-01
-4.838918e-01
-4.858698e-01
-4.878830e-01
-4.899438e-01
-4.920634e-01
-4.942460e-01
-4.964799e-01
-4.987366e-01
-5.009802e-01
-5.031782e-01
-5.053121e-01
-5.073842e-01
-5.094149e-01
-5.114296e-01
-5.134497e-01
-5.154957e-01
-5.175927e-01
-5.197658e-01
-5.220230e-01
-5.243446e-01
-5.266946e-01
-5.290388e-01
-5.313524e-01
-5.336173e-01
-5.358191e-01
-5.379471e-01
-5.399963e-01
-5.419736e-01
-5.439057e-01
-5.458380e-01
-5.478156e-01
-5.498588e-01
-5.519584e-01
-5.540897e-01
-5.562272e-01
-5.583513e-01
-5.604506e-01
-5.625208e-01
-5.645619e-01
-5.665761e-01
-5.685677e-01
-5.705440e-01
-5.725126e-01
-5.744759e-01
-5.764272e-01
-5.783535e-01
-5.802404e-01
-5.820781e-01
-5.838704e-01
-5.856382e-01
-5.874157e-01
-5.892412e-01
-5.911485e-01
-5.931549e-01
-5.952544e-01
-5.974202e-01
-5.996120e-01
-6.017849e-01
-6.039000e-01
-6.059337e-01
-6.078799e-01
-6.097479e-01
-6.115593e-01
-6.133410e-01
-6.151199e-01
-6.169230e-01
-6.187771e-01
-6.207052e-01
-6.227161e-01
-6.247979e-01
-6.269215e-01
-6.290495e-01
-6.311444e-01
-6.331782e-01
-6.351411e-01
-6.370442e-01
-6.389190e-01
-6.408096e-01
-6.427564e-01
-6.447805e-01
-6.468748e-01
-6.490033e-01
-6.511159e-01
-6.531799e-01
-6.552028e-01
-6.572235e-01
-6.592899e-01
-6.614404e-01
-6.636858e-01
-6.660028e-01
-6.683491e-01
-6.706868e-01
-6.729949e-01
-6.752729e-01
-6.775364e-01
-6.798010e-01
-6.820653e-01
-6.843107e-01
-6.865178e-01
-6.886823e-01
-6.908196e-01
-6.929623e-01
-6.951504e-01
-6.974135e-01
-6.997605e-01
-7.021878e-01
-7.046939e-01
-7.072830e-01
-7.099557e-01
-7.127051e-01
-7.155239e-01
-7.184150e-01
-7.213904e-01
-7.244551e-01
-7.275942e-01
-7.307708e-01
-7.339321e-01
-7.370257e-01
-7.400277e-01
-7.429556e-01
-7.458475e-01
-7.487289e-01
-7.516011e-01
-7.544515e-01
-7.572663e-01
-7.600414e-01
-7.627882e-01
-7.655282e-01
-7.682759e-01
-7.710274e-01
-7.737647e-01
-7.764680e-01
-7.791221e-01
-7.817199e-01
-7.842619e-01
-7.867530e-01
-7.891971e-01
-7.915943e-01
-7.939390e-01
-7.962212e-01
-7.984314e-01
-8.005669e-01
-8.026331e-01
-8.046398e-01
-8.065967e-01
-8.085116e-01
-8.103892e-01
-8.122366e-01
-8.140741e-01
-8.159376e-01
-8.178629e-01
-8.198646e-01
-8.219308e-01
-8.240338e-01
-8.261437e-01
-8.282421e-01
-8.303295e-01
-8.324144e-01
-8.344841e-01
-8.364909e-01
-8.383773e-01
-8.401160e-01
-8.417299e-01
-8.432917e-01
-8.449088e-01
-8.466834e-01
-8.486714e-01
-8.508713e-01
-8.532414e-01
-8.557215e-01
-8.582509e-01
-8.607819e-01
-8.632858e-01
-8.657543e-01
-8.681973e-01
-8.706338e-01
-8.730800e-01
-8.755433e-01
-8.780181e-01
-8.804878e-01
-8.829365e-01
-8.853626e-01
-8.877801e-01
-8.902080e-01
-8.926570e-01
-8.951201e-01
-8.975674e-01
-8.999564e-01
-9.022596e-01
-9.044855e-01
-9.066784e-01
-9.089051e-01
-9.112348e-01
-9.137084e-01
-9.163189e-01
-9.190214e-01
-9.217562e-01
-9.244638e-01
-9.270978e-01
-9.296305e-01
-9.320504e-01
-9.343561e-01
-9.365558e-01
-9.386721e-01
-9.407447e-01
-9.428234e-01
-9.449583e-01
-9.471868e-01
-9.495176e-01
-9.519221e-01
-9.543447e-01
-9.567230e-01
-9.590039e-01
-9.611615e-01
-9.632056e-01
-9.651706e-01
-9.670972e-01
-9.690223e-01
-9.709734e-01
-9.729654e-01
-9.749961e-01
-9.770444e-01
-9.790729e-01
-9.810371e-01
-9.828989e-01
-9.846411e-01
-9.862798e-01
-9.878612e-01
-9.894426e-01
-9.910740e-01
-9.927896e-01
-9.946044e-01
-9.965162e-01
-9.985104e-01
-1.000565e+00
-1.002656e+00
-1.004761e+00
-1.006865e+00
-1.008958e+00
-1.011039e+00
-1.013103e+00
-1.015131e+00
-1.017090e+00
-1.018940e+00
-1.020654e+00
-1.022221e+00
-1.023659e+00
-1.025011e+00
-1.026327e+00
-1.027650e+00
-1.029009e+00
-1.030410e+00
-1.031836e+00
-1.033268e+00
-1.034690e+00
-1.036103e+00
-1.037532e+00
-1.039021e+00
-1.040609e+00
-1.042314e+00
-1.044128e+00
-1.046027e+00
-1.047969e+00
-1.049895e+00
-1.051740e+00
-1.053432e+00
-1.054904e+00
-1.056110e+00
-1.057046e+00
-1.057756e+00
-1.058319e+00
-1.058808e+00
-1.059278e+00
-1.059749e+00
-1.060204e+00
-1.060615e+00
-1.060966e+00
-1.061262e+00
-1.061515e+00
-1.061726e+00
-1.061866e+00
-1.061869e+00
-1.061642e+00
-1.061121e+00
-1.060298e+00
-1.059226e+00
-1.057990e+00
-1.056684e+00
-1.055371e+00
-1.054071e+00
-1.052777e+00
-1.051483e+00
-1.050203e+00
-1.048962e+00
-1.047789e+00
-1.046707e+00
-1.045727e+00
-1.044854e+00
-1.044095e+00
-1.043467e+00
-1.043001e+00
-1.042729e+00
-1.042683e+00
-1.042871e+00
-1.043272e+00
-1.043834e+00
-1.044479e+00
-1.045124e+00
-1.045706e+00
-1.046208e+00
-1.046653e+00
-1.047077e+00
-1.047514e+00
-1.047971e+00
-1.048420e+00
-1.048826e+00
-1.049187e+00
-1.049546e+00
-1.049972e+00
-1.050539e+00
-1.051291e+00
-1.052219e+00
-1.053255e+00
-1.054307e+00
-1.055287e+00
-1.056134e+00
-1.056818e+00
-1.057341e+00
-1.057718e+00
-1.057964e+00
-1.058079e+00
-1.058048e+00
-1.057842e+00
-1.057446e+00
-1.056864e+00
-1.056125e+00
-1.055272e+00
-1.054348e+00
-1.053377e+00
-1.052350e+00
-1.051245e+00
-1.050046e+00
-1.048761e+00
-1.047414e+00
-1.046036e+00
-1.044639e+00
-1.043191e+00
-1.041627e+00
-1.039887e+00
-1.037949e+00
-1.035834e+00
-1.033589e+00
-1.031269e+00
-1.028914e+00
-1.026530e+00
-1.024112e+00
-1.021671e+00
-1.019245e+00
-1.016898e+00
-1.014701e+00
-1.012691e+00
-1.010839e+00
-1.009044e+00
-1.007165e+00
-1.005068e+00
-1.002658e+00
-9.999167e-01
-9.968902e-01
-9.936506e-01
-9.902645e-01
-9.867936e-01
-9.833076e-01
-9.798720e-01
-9.765070e-01
-9.731595e-01
-9.697193e-01
-9.660565e-01
-9.620599e-01
-9.576810e-01
-9.529574e-01
-9.479851e-01
-9.428742e-01
-9.377268e-01
-9.326323e-01
-9.276615e-01
-9.228532e-01
-9.182017e-01
-9.136695e-01
-9.092268e-01
-9.048783e-01
-9.006547e-01
-8.965858e-01
-8.926862e-01
-8.889497e-01
-8.853539e-01
-8.818764e-01
-8.785113e-01
-8.752629e-01
-8.721176e-01
-8.690280e-01
-8.659323e-01
-8.627869e-01
-8.595776e-01
-8.563111e-01
-8.530026e-01
-8.496660e-01
-8.463094e-01
-8.429425e-01
-8.395954e-01
-8.363234e-01
-8.331807e-01
-8.301829e-01
-8.272894e-01
-8.244052e-01
-8.214005e-01
-8.181541e-01
-8.145993e-01
-8.107250e-01
-8.065370e-01
-8.020252e-01
-7.971621e-01
-7.919223e-01
-7.863156e-01
-7.804357e-01
-7.744753e-01
-7.686672e-01
-7.631989e-01
-7.581721e-01
-7.535976e-01
-7.494116e-01
-7.455183e-01
-7.418386e-01
-7.383381e-01
-7.350421e-01
-7.320397e-01
-7.294637e-01
-7.274638e-01
-7.261776e-01
-7.256966e-01
-7.260471e-01
-7.272045e-01
-7.291196e-01
-7.317224e-01
-7.349067e-01
-7.385301e-01
-7.424543e-01
-7.465956e-01
-7.509444e-01
-7.555545e-01
-7.605162e-01
-7.659152e-01
-7.717944e-01
-7.781576e-01
-7.850103e-01
-7.923866e-01
-8.003299e-01
-8.088573e-01
-8.179515e-01
-8.275836e-01
-8.377388e-01
-8.484332e-01
-8.597203e-01
-8.716719e-01
-8.843325e-01
-8.976838e-01
-9.116474e-01
-9.261050e-01
-9.409233e-01
-9.559858e-01
-9.712176e-01
-9.865896e-01
-1.002109e+00
-1.017793e+00
-1.033623e+00
-1.049509e+00
-1.065291e+00
-1.080757e+00
-1.095681e+00
-1.109872e+00
-1.123213e+00
-1.135652e+00
-1.147181e+00
-1.157814e+00
-1.167567e+00
-1.176449e+00
-1.184447e+00
-1.191525e+00
-1.197631e+00
-1.202709e+00
-1.206729e+00
-1.209727e+00
-1.211846e+00
-1.213326e+00
-1.214452e+00
-1.215486e+00
-1.216626e+00
-1.217976e+00
-1.219543e+00
-1.221268e+00
-1.223048e+00
-1.224763e+00
-1.226302e+00
-1.227573e+00
-1.228523e+00
-1.229139e+00
-1.229429e+00
-1.229391e+00
-1.229010e+00
-1.228273e+00
-1.227191e+00
-1.225811e+00
-1.224215e+00
-1.222516e+00
-1.220827e+00
-1.219245e+00
-1.217852e+00
-1.216731e+00
-1.215969e+00
-1.215652e+00
-1.215848e+00
-1.216572e+00
-1.217750e+00
-1.219231e+00
-1.220840e+00
-1.222446e+00
-1.223996e+00
-1.225540e+00
-1.227189e+00
-1.229017e+00
-1.230984e+00
-1.232955e+00
-1.234747e+00
-1.236202e+00
-1.237263e+00
-1.238019e+00
-1.238651e+00
-1.239345e+00
-1.240227e+00
-1.241324e+00
-1.242539e+00
-1.243694e+00
-1.244584e+00
-1.245015e+00
-1.244842e+00
-1.243998e+00
-1.242488e+00
-1.240386e+00
-1.237805e+00
-1.234845e+00
-1.231552e+00
-1.227908e+00
-1.223838e+00
-1.219242e+00
-1.214054e+00
-1.208277e+00
-1.201975e+00
-1.195232e+00
-1.188103e+00
-1.180574e+00
-1.172535e+00
-1.163832e+00
-1.154337e+00
-1.143988e+00
-1.132787e+00
-1.120785e+00
-1.108040e+00
-1.094574e+00
-1.080379e+00
-1.065460e+00
-1.049872e+00
-1.033711e+00
-1.017073e+00
-1.000047e+00
-9.827127e-01
-9.651490e-01
-9.474587e-01
-9.297874e-01
-9.123297e-01
-8.953178e-01
-8.789979e-01
-8.635892e-01
-8.492340e-01
-8.359379e-01
-8.234930e-01
-8.114577e-01
-7.992686e-01
-7.863946e-01
-7.724267e-01
-7.571189e-01
-7.403974e-01
-7.223142e-01
-7.029878e-01
-6.825799e-01
-6.612954e-01
-6.393708e-01
-6.170259e-01
-5.944104e-01
-5.715911e-01
-5.485743e-01
-5.253177e-01
-5.017097e-01
-4.775420e-01
-4.525328e-01
-4.264154e-01
-3.990324e-01
-3.703973e-01
-3.407286e-01
-3.104299e-01
-2.800169e-01
-2.500523e-01
-2.211189e-01
-1.938054e-01
-1.686413e-01
-1.459595e-01
-1.257907e-01
-1.078763e-01
-9.174308e-02
-7.681405e-02
-6.257975e-02
-4.873063e-02
-3.517023e-02
-2.196487e-02
-9.262564e-03
2.826612e-03
1.431495e-02
2.532523e-02
3.603548e-02
4.663741e-02
5.730982e-02
6.821752e-02
7.955308e-02
9.158517e-02
1.046475e-01
1.190682e-01
1.351212e-01
1.530521e-01
1.731264e-01
1.956054e-01
2.206408e-01
2.481855e-01
2.779910e-01
3.096536e-01
3.427014e-01
3.767335e-01
4.115109e-01
4.469191e-01
4.828780e-01
5.192858e-01
5.559829e-01
5.927088e-01
6.290414e-01
6.643462e-01
6.978193e-01
7.286438e-01
7.561547e-01
7.799534e-01
7.999809e-01
8.165333e-01
8.302258e-01
8.419195e-01
8.525919e-01
8.632011e-01
8.746039e-01
8.875029e-01
9.024264e-01
9.197727e-01
9.398687e-01
9.629710e-01
9.892135e-01
1.018580e+00
1.050960e+00
1.086219e+00
1.124201e+00
1.164649e+00
1.207157e+00
1.251210e+00
1.296258e+00
1.341764e+00
1.387213e+00
1.432133e+00
1.476106e+00
1.518796e+00
1.560006e+00
1.599754e+00
1.638315e+00
1.676132e+00
1.713685e+00
1.751419e+00
1.789700e+00
1.828752e+00
1.868578e+00
1.908876e+00
1.949079e+00
1.988503e+00
2.026497e+00
2.062485e+00
2.095985e+00
2.126624e+00
2.154227e+00
2.178906e+00
2.201145e+00
2.221849e+00
2.242199e+00
2.263297e+00
2.285875e+00
2.310272e+00
2.336543e+00
2.364587e+00
2.394302e+00
2.425672e+00
2.458752e+00
2.493581e+00
2.530142e+00
2.568338e+00
2.607988e+00
2.648817e+00
2.690464e+00
2.732510e+00
2.774561e+00
2.816309e+00
2.857580e+00
2.898335e+00
2.938647e+00
2.978613e+00
3.018300e+00
3.057735e+00
3.096934e+00
3.135914e+00
3.174720e+00
3.213430e+00
3.252151e+00
3.291013e+00
3.330175e+00
3.369833e+00
3.410219e+00
3.451558e+00
3.494011e+00
3.537662e+00
3.582530e+00
3.628584e+00
3.675742e+00
3.723868e+00
3.772802e+00
3.822426e+00
3.872707e+00
3.923649e+00
3.975228e+00
4.027332e+00
4.079718e+00
4.132025e+00
4.183876e+00
4.234996e+00
4.285244e+00
4.334556e+00
4.382902e+00
4.430282e+00
4.476762e+00
4.522468e+00
4.567559e+00
4.612204e+00
4.656570e+00
4.700834e+00
4.745204e+00
4.789943e+00
4.835363e+00
4.881765e+00
4.929354e+00
4.978225e+00
5.028420e+00
5.079976e+00
5.132963e+00
5.187478e+00
5.243607e+00
5.301315e+00
5.360371e+00
5.420360e+00
5.480740e+00
5.540903e+00
5.600260e+00
5.658312e+00
5.714685e+00
5.769141e+00
5.821583e+00
5.872043e+00
5.920672e+00
5.967689e+00
6.013333e+00
6.057863e+00
6.101589e+00
6.144889e+00
6.188160e+00
6.231750e+00
6.275895e+00
6.320644e+00
6.365813e+00
6.411013e+00
6.455712e+00
6.499304e+00
6.541211e+00
6.580955e+00
6.618169e+00
6.652564e+00
6.683914e+00
6.712035e+00
6.736799e+00
6.758169e+00
6.776237e+00
6.791207e+00
6.803315e+00
6.812771e+00
6.819750e+00
6.824434e+00
6.827019e+00
6.827716e+00
6.826730e+00
6.824240e+00
6.820377e+00
6.815217e+00
6.808789e+00
6.801099e+00
6.792157e+00
6.782005e+00
6.770725e+00
6.758408e+00
6.745131e+00
6.730935e+00
6.715826e+00
6.699775e+00
6.682753e+00
6.664749e+00
6.645761e+00
6.625784e+00
6.604828e+00
6.582968e+00
6.560365e+00
6.537218e+00
6.513686e+00
6.489852e+00
6.465718e+00
6.441221e+00
6.416262e+00
6.390743e+00
6.364582e+00
6.337722e+00
6.310128e+00
6.281779e+00
6.252647e+00
6.222690e+00
6.191834e+00
6.159979e+00
6.127037e+00
6.092970e+00
6.057802e+00
6.021601e+00
5.984455e+00
5.946439e+00
5.907596e+00
5.867902e+00
5.827234e+00
5.785349e+00
5.741936e+00
5.696682e+00
5.649306e+00
5.599584e+00
5.547356e+00
5.492508e+00
5.434957e+00
5.374652e+00
5.311607e+00
5.245935e+00
5.177883e+00
5.107844e+00
5.036339e+00
4.963927e+00
4.891128e+00
4.818362e+00
4.745907e+00
4.673890e+00
4.602301e+00
4.531006e+00
4.459761e+00
4.388238e+00
4.316083e+00
4.243025e+00
4.168945e+00
4.093849e+00
4.017798e+00
3.940867e+00
3.863144e+00
3.784725e+00
3.705705e+00
3.626172e+00
3.546195e+00
3.465831e+00
3.385117e+00
3.304087e+00
3.222772e+00
3.141219e+00
3.059514e+00
2.977800e+00
2.896261e+00
2.815115e+00
2.734597e+00
2.654977e+00
2.576580e+00
2.499840e+00
2.425335e+00
2.353652e+00
2.285093e+00
2.219469e+00
2.156234e+00
2.094733e+00
2.034429e+00
1.975091e+00
1.916875e+00
1.860171e+00
1.805366e+00
1.752737e+00
1.702450e+00
1.654583e+00
1.609171e+00
1.566250e+00
1.525884e+00
1.488174e+00
1.453232e+00
1.421092e+00
1.391616e+00
1.364470e+00
1.339178e+00
1.315190e+00
1.291932e+00
1.268854e+00
1.245448e+00
1.221269e+00
1.195951e+00
1.169198e+00
1.140783e+00
1.110550e+00
1.078455e+00
1.044590e+00
1.009192e+00
9.726331e-01
9.353431e-01
8.976752e-01
8.598013e-01
8.217283e-01
7.833688e-01
7.445954e-01
7.052815e-01
6.653140e-01
6.245613e-01
5.828391e-01
5.399678e-01
4.959273e-01
4.509417e-01
4.053688e-01
3.595026e-01
3.134118e-01
2.668069e-01
2.190582e-01
1.695042e-01
1.178393e-01
6.427002e-02
9.469706e-03
-4.553198e-02
-9.951021e-02
-1.512110e-01
-1.994922e-01
-2.434797e-01
-2.826502e-01
-3.167347e-01
-3.455609e-01
-3.690112e-01
-3.871152e-01
-4.002193e-01
-4.092214e-01
-4.157685e-01
-4.221174e-01
-4.306111e-01
-4.431616e-01
-4.609687e-01
-4.843824e-01
-5.128607e-01
-5.450060e-01
-5.787427e-01
-6.117602e-01
-6.420098e-01
-6.679680e-01
-6.887303e-01
-7.039787e-01
-7.137396e-01
-7.181037e-01
-7.171578e-01
-7.111007e-01
-7.003360e-01
-6.854294e-01
-6.670220e-01
-6.458337e-01
-6.227549e-01
-5.988933e-01
-5.754789e-01
-5.537205e-01
-5.347275e-01
-5.194810e-01
-5.088170e-01
-5.034241e-01
-5.038421e-01
-5.104551e-01
-5.234816e-01
-5.429831e-01
-5.689196e-01
-6.012135e-01
-6.397767e-01
-6.845090e-01
-7.352944e-01
-7.920016e-01
-8.544705e-01
-9.224257e-01
-9.953097e-01
-1.072210e+00
-1.152026e+00
-1.233719e+00
-1.316453e+00
-1.399637e+00
-1.482893e+00
-1.565919e+00
-1.648321e+00
-1.729570e+00
-1.809058e+00
-1.886178e+00
-1.960369e+00
-2.031158e+00
-2.098154e+00
-2.161007e+00
-2.219383e+00
-2.272946e+00
-2.321373e+00
-2.364380e+00
-2.401794e+00
-2.433592e+00
-2.459884e+00
-2.480877e+00
-2.496858e+00
-2.508220e+00
-2.515486e+00
-2.519315e+00
-2.520518e+00
-2.520049e+00
-2.518966e+00
-2.518371e+00
-2.519276e+00
-2.522474e+00
-2.528480e+00
-2.537520e+00
-2.549544e+00
-2.564263e+00
-2.581200e+00
-2.599752e+00
-2.619279e+00
-2.639190e+00
-2.658978e+00
-2.678212e+00
-2.696456e+00
-2.713129e+00
-2.727468e+00
-2.738744e+00
-2.746550e+00
-2.750945e+00
-2.752439e+00
-2.751898e+00
-2.750344e+00
-2.748740e+00
-2.747898e+00
-2.748488e+00
-2.751051e+00
-2.755993e+00
-2.763581e+00
-2.773950e+00
-2.787129e+00
-2.803049e+00
-2.821529e+00
-2.842237e+00
-2.864676e+00
-2.888171e+00
-2.911889e+00
-2.934913e+00
-2.956322e+00
-2.975283e+00
-2.991152e+00
-3.003545e+00
-3.012285e+00
-3.017321e+00
-3.018663e+00
-3.016322e+00
-3.010274e+00
-3.000449e+00
-2.986742e+00
-2.969055e+00
-2.947357e+00
-2.921706e+00
-2.892156e+00
-2.858651e+00
-2.821049e+00
-2.779298e+00
-2.733628e+00
-2.684655e+00
-2.633418e+00
-2.581231e+00
-2.529340e+00
-2.478660e+00
-2.429799e+00
-2.383197e+00
-2.339209e+00
-2.298138e+00
-2.260269e+00
-2.225972e+00
-2.195761e+00
-2.170131e+00
-2.149133e+00
-2.132046e+00
-2.117442e+00
-2.103448e+00
-2.088136e+00
-2.070103e+00
-2.048818e+00
-2.024401e+00
-1.997176e+00
-1.967488e+00
-1.935738e+00
-1.902429e+00
-1.868117e+00
-1.833334e+00
-1.798560e+00
-1.764232e+00
-1.730775e+00
-1.698617e+00
-1.668199e+00
-1.639937e+00
-1.614140e+00
-1.590975e+00
-1.570534e+00
-1.552935e+00
-1.538334e+00
-1.526841e+00
-1.518442e+00
-1.512996e+00
-1.510245e+00
-1.509826e+00
-1.511271e+00
-1.514036e+00
-1.517577e+00
-1.521447e+00
-1.525355e+00
-1.529195e+00
-1.533049e+00
-1.537100e+00
-1.541532e+00
-1.546434e+00
-1.551705e+00
-1.557005e+00
-1.561836e+00
-1.565662e+00
-1.568007e+00
-1.568515e+00
-1.566974e+00
-1.563237e+00
-1.557115e+00
-1.548334e+00
-1.536559e+00
-1.521429e+00
-1.502622e+00
-1.479899e+00
-1.453119e+00
-1.422217e+00
-1.387176e+00
-1.348003e+00
-1.304720e+00
-1.257346e+00
-1.205894e+00
-1.150358e+00
-1.090719e+00
-1.026961e+00
-9.591065e-01
-8.873057e-01
-8.118963e-01
-7.334118e-01
-6.525563e-01
-5.701662e-01
-4.871465e-01
-4.044012e-01
-3.227698e-01
-2.429810e-01
-1.656501e-01
-9.130890e-02
-2.040325e-02
4.677535e-02
1.101781e-01
1.700247e-01
2.267665e-01
2.810332e-01
3.335701e-01
3.851915e-01
4.367831e-01
4.893315e-01
