EVENT_NAME: EMILIA_2ND_SHOCK
EVENT_ID: IT-2012-0011
EVENT_DATE_YYYYMMDD: 20120529
EVENT_TIME_HHMMSS: 070002
EVENT_LATITUDE_DEGREE: 44.8417
EVENT_LONGITUDE_DEGREE: 11.0657
EVENT_DEPTH_KM: 8.1
HYPOCENTER_REFERENCE: INGV-CNT_Seismic_Bulletin
MAGNITUDE_W: 6.0
MAGNITUDE_W_REFERENCE: RCMT-INGV
MAGNITUDE_L: 5.8
MAGNITUDE_L_REFERENCE: INGV-CNT_Seismic_Bulletin
FOCAL_MECHANISM: TF
NETWORK: IV
STATION_CODE: T0811
STATION_NAME: T0811
STATION_LATITUDE_DEGREE: 44.783800
STATION_LONGITUDE_DEGREE: 11.226500
STATION_ELEVATION_M: 10
LOCATION: 
SENSOR_DEPTH_M: 1.0
VS30_M/S: 
SITE_CLASSIFICATION_EC8: C*
MORPHOLOGIC_CLASSIFICATION: 
EPICENTRAL_DISTANCE_KM: 14.3
EARTHQUAKE_BACKAZIMUTH_DEGREE: 296.9
DATE_TIME_FIRST_SAMPLE_YYYYMMDD_HHMMSS: 20120529_065952.000
DATE_TIME_FIRST_SAMPLE_PRECISION: milliseconds
SAMPLING_INTERVAL_S: 0.005000
NDATA: 30001
DURATION_S: 150.005
STREAM: HNN
UNITS: cm/s
INSTRUMENT: sensor = Episensor FBA ES-T [Kinemetrics] | digitizer = Unknown [Unknown]
INSTRUMENT_ANALOG/DIGITAL: D
INSTRUMENTAL_FREQUENCY_HZ: 
INSTRUMENTAL_DAMPING: 
FULL_SCALE_G: 
N_BIT_DIGITAL_CONVERTER: 
PGV_CM/S: 23.853759
TIME_PGV_S: 21.135000
BASELINE_CORRECTION: BASELINE REMOVED
FILTER_TYPE: BUTTERWORTH
FILTER_ORDER: 2
LOW_CUT_FREQUENCY_HZ: 0.060
HIGH_CUT_FREQUENCY_HZ: 40.000
LATE/NORMAL_TRIGGERED: NT
DATABASE_VERSION: DYNA 1.0
HEADER_FORMAT: DYNA 1.2
DATA_TYPE: VELOCITY
PROCESSING: manual (Paolucci et al., 2011)
DATA_TIMESTAMP_YYYYMMDD_HHMMSS: 
DATA_LICENSE: CC-BY4_0 (http://creativecommons.org/licenses/by/4.0/)
DATA_CITATION: ESM working group (2015), European Strong-Motion database, version 0.1, Network Activity 3: Networking acceleration networks and SM data users. Project NERA (www.nera-eu.org)
DATA_CREATOR: ESM working group
ORIGINAL_DATA_MEDIATOR_CITATION: Orfeus - European Integrated Data Archive (EIDA) http://www.orfeus-eu.org/eida/
ORIGINAL_DATA_MEDIATOR: Orfeus - European Integrated Data Archive (EIDA)
ORIGINAL_DATA_CREATOR_CITATION: Data for this study comes from the Italian national seismic network operated by Istituto Nazionale di Geofisica e Vulcanologia and archived at the European Integrated Data Archive http://eida.rm.ingv.it/
ORIGINAL_DATA_CREATOR: network: IV (Italian National Seismic Network); owner: Istituto Nazionale di Geofisica e Vulcanologia
USER1: 
USER2: 
USER3: 
USER4: 
USER5: 
[...]
0.001151
-0.001642
-0.003909
-0.005027
-0.005438
-0.005695
-0.005780
-0.004990
-0.002411
0.002028
0.006737
0.009152
0.007764
0.003466
-0.001230
-0.004199
-0.004955
-0.004218
-0.002609
-0.000066
0.003339
0.006256
0.006360
0.002298
-0.004784
-0.011990
-0.016795
-0.017999
-0.015028
-0.008026
0.000656
0.006739
0.007486
0.004600
0.002363
0.003056
0.005283
0.006144
0.003656
-0.002502
-0.010557
-0.016347
-0.015602
-0.008044
0.001467
0.006645
0.004497
-0.003440
-0.012922
-0.019294
-0.019820
-0.015276
-0.009013
-0.004223
-0.002270
-0.003121
-0.005836
-0.008185
-0.007418
-0.002576
0.004282
0.009353
0.009554
0.004262
-0.004355
-0.012581
-0.017704
-0.019686
-0.020005
-0.019450
-0.017581
-0.013675
-0.007553
-0.000158
0.005847
0.007069
0.002705
-0.003677
-0.007180
-0.006471
-0.004535
-0.004458
-0.005973
-0.006703
-0.005438
-0.002994
-0.000721
0.000199
-0.001355
-0.005235
-0.008520
-0.006945
0.000771
0.010575
0.016012
0.013589
0.005412
-0.002864
-0.006517
-0.004827
-0.000722
0.002114
0.001990
-0.000216
-0.002486
-0.003532
-0.003644
-0.004049
-0.005609
-0.008444
-0.012446
-0.017113
-0.020625
-0.020143
-0.014313
-0.005205
0.003267
0.008713
0.011142
0.010817
0.006957
-0.000621
-0.009950
-0.017940
-0.022260
-0.021835
-0.016671
-0.008694
-0.002464
-0.003222
-0.012670
-0.026579
-0.037455
-0.040131
-0.034607
-0.023919
-0.011349
-0.000601
0.003980
0.000242
-0.008947
-0.017792
-0.022960
-0.025656
-0.028626
-0.032254
-0.033594
-0.029316
-0.020112
-0.011607
-0.009657
-0.014510
-0.020622
-0.022355
-0.018482
-0.011439
-0.004517
-0.000642
-0.001831
-0.007503
-0.014025
-0.017903
-0.019454
-0.022467
-0.030014
-0.040776
-0.049276
-0.049597
-0.039819
-0.023926
-0.009331
-0.002282
-0.005189
-0.016371
-0.030234
-0.038372
-0.034154
-0.018805
-0.001639
0.008077
0.009565
0.009115
0.010456
0.009526
0.000298
-0.016451
-0.033344
-0.044392
-0.049069
-0.048427
-0.041679
-0.029585
-0.017847
-0.013004
-0.016203
-0.023447
-0.030949
-0.037459
-0.042352
-0.045559
-0.049405
-0.056900
-0.067192
-0.074937
-0.075429
-0.068394
-0.055966
-0.039532
-0.019931
0.000676
0.018672
0.030661
0.034723
0.030951
0.021271
0.007769
-0.008883
-0.028430
-0.048649
-0.065240
-0.074706
-0.076934
-0.075034
-0.073253
-0.074091
-0.075743
-0.072485
-0.059492
-0.038849
-0.020132
-0.013573
-0.021726
-0.036803
-0.045572
-0.038189
-0.014881
0.014033
0.034821
0.039004
0.028162
0.012153
0.001856
0.000611
0.001334
-0.006627
-0.026593
-0.050716
-0.067261
-0.070529
-0.063350
-0.052763
-0.046268
-0.050843
-0.069758
-0.097159
-0.119161
-0.124298
-0.112626
-0.092181
-0.067794
-0.037491
-0.000667
0.034016
0.052673
0.047512
0.021638
-0.016291
-0.057342
-0.090424
-0.101971
-0.085517
-0.051755
-0.023720
-0.018578
-0.034959
-0.058116
-0.074703
-0.080937
-0.079759
-0.076132
-0.076686
-0.089196
-0.116350
-0.148220
-0.164171
-0.146948
-0.096990
-0.032380
0.024328
0.058222
0.064670
0.046377
0.010982
-0.030958
-0.069020
-0.095152
-0.104093
-0.093781
-0.067151
-0.033384
-0.005028
0.008744
0.006517
-0.008066
-0.031017
-0.058116
-0.083105
-0.099144
-0.102088
-0.091223
-0.068288
-0.038143
-0.009059
0.010130
0.013129
-0.003025
-0.037294
-0.082117
-0.122633
-0.142489
-0.132910
-0.096895
-0.046456
0.002742
0.035892
0.043359
0.023677
-0.017639
-0.069914
-0.116438
-0.137258
-0.120568
-0.073725
-0.020215
0.015697
0.021391
-0.001826
-0.043568
-0.092667
-0.142507
-0.187618
-0.217023
-0.216650
-0.181976
-0.125607
-0.068699
-0.025907
-0.000726
0.006890
-0.004788
-0.034189
-0.070808
-0.098863
-0.106344
-0.090198
-0.055373
-0.011537
0.029975
0.057744
0.060950
0.034075
-0.014990
-0.065042
-0.095825
-0.103232
-0.097057
-0.085161
-0.066289
-0.038470
-0.008162
0.012332
0.013908
-0.004843
-0.037264
-0.068936
-0.082824
-0.070098
-0.036779
0.002004
0.032674
0.047069
0.042636
0.025279
0.009022
0.006224
0.016791
0.030138
0.036582
0.032462
0.016352
-0.011921
-0.045509
-0.070497
-0.078415
-0.076391
-0.079345
-0.092428
-0.106942
-0.113801
-0.113601
-0.111411
-0.108600
-0.105316
-0.105930
-0.113116
-0.117762
-0.103018
-0.062074
-0.008751
0.032293
0.044144
0.026514
-0.009169
-0.048815
-0.079987
-0.092894
-0.083448
-0.056918
-0.025365
0.000856
0.018561
0.028985
0.032257
0.026671
0.011144
-0.014962
-0.053284
-0.102769
-0.152959
-0.186944
-0.195324
-0.183561
-0.161920
-0.131099
-0.083559
-0.019119
0.046646
0.093073
0.110560
0.102831
0.078553
0.047558
0.022107
0.013074
0.021025
0.034448
0.039119
0.027330
-0.000988
-0.041046
-0.084340
-0.120807
-0.145444
-0.162598
-0.179635
-0.195125
-0.196782
-0.174046
-0.131030
-0.085237
-0.054379
-0.045017
-0.051621
-0.063101
-0.069536
-0.065242
-0.048998
-0.023946
0.002127
0.017855
0.012676
-0.016547
-0.061649
-0.106697
-0.137673
-0.150214
-0.149049
-0.142484
-0.137859
-0.138388
-0.140907
-0.137711
-0.123710
-0.101530
-0.078018
-0.058347
-0.045750
-0.043631
-0.052960
-0.067818
-0.078015
-0.076315
-0.060345
-0.030856
0.005984
0.035944
0.044413
0.030374
0.007974
-0.007629
-0.011786
-0.007396
0.002907
0.016238
0.025291
0.021380
0.001519
-0.030139
-0.066959
-0.102602
-0.129391
-0.138971
-0.128359
-0.104246
-0.078370
-0.058731
-0.047244
-0.044276
-0.051029
-0.066035
-0.082986
-0.095759
-0.104879
-0.116716
-0.136092
-0.161307
-0.186447
-0.206341
-0.218594
-0.222344
-0.216850
-0.202520
-0.182972
-0.163924
-0.148718
-0.136452
-0.126869
-0.126095
-0.142914
-0.177241
-0.215228
-0.238934
-0.238815
-0.214090
-0.167089
-0.105099
-0.044900
-0.007119
-0.002571
-0.025983
-0.062325
-0.095268
-0.111157
-0.101740
-0.068240
-0.023566
0.012140
0.022299
0.004387
-0.028176
-0.055664
-0.066446
-0.063623
-0.057137
-0.049897
-0.035907
-0.013750
0.003366
-0.003219
-0.038943
-0.090829
-0.140243
-0.176264
-0.197315
-0.205943
-0.205990
-0.202366
-0.199543
-0.199752
-0.202722
-0.205873
-0.204112
-0.190231
-0.157438
-0.104738
-0.043152
0.003724
0.011858
-0.023436
-0.079411
-0.120479
-0.122637
-0.086218
-0.030371
0.019241
0.038675
0.011211
-0.065089
-0.172812
-0.283080
-0.370554
-0.419897
-0.421530
-0.370579
-0.275189
-0.160974
-0.062064
-0.007309
-0.011128
-0.069305
-0.157886
-0.237680
-0.268753
-0.232380
-0.144930
-0.047428
0.022050
0.046601
0.025889
-0.035997
-0.130706
-0.239029
-0.335410
-0.403835
-0.444377
-0.459273
-0.438324
-0.368540
-0.258711
-0.142608
-0.054160
-0.008495
-0.005573
-0.037723
-0.086697
-0.124619
-0.131841
-0.110997
-0.075925
-0.031735
0.024093
0.084036
0.130111
0.153730
0.161489
0.155303
0.118071
0.030674
-0.101181
-0.244806
-0.360940
-0.421259
-0.411577
-0.332490
-0.205977
-0.075518
0.012271
0.034421
0.004267
-0.040476
-0.063484
-0.049130
-0.003184
0.059880
0.127422
0.189224
0.234749
0.253480
0.237328
0.184977
0.106944
0.024612
-0.039750
-0.072639
-0.069069
-0.029784
0.034468
0.101557
0.149713
0.171261
0.172682
0.165087
0.161166
0.176515
0.219938
0.278095
0.319071
0.319855
0.285139
0.231381
0.159144
0.054140
-0.083437
-0.224176
-0.330361
-0.383645
-0.391008
-0.373114
-0.352967
-0.352605
-0.391995
-0.481854
-0.610551
-0.738830
-0.818596
-0.827685
-0.787013
-0.740215
-0.716622
-0.717175
-0.733910
-0.772422
-0.846130
-0.948928
-1.042114
-1.075860
-1.024312
-0.899131
-0.735718
-0.574748
-0.451444
-0.385520
-0.368963
-0.366454
-0.338887
-0.270712
-0.173865
-0.068877
0.032106
0.126377
0.215586
0.300782
0.373120
0.407378
0.372179
0.254414
0.078397
-0.097177
-0.203806
-0.190895
-0.038381
0.240629
0.589674
0.903052
1.064237
1.020549
0.817757
0.550764
0.283945
0.028589
-0.212460
-0.407116
-0.511855
-0.510806
-0.421182
-0.268623
-0.076257
0.124023
0.289003
0.385780
0.412838
0.391219
0.337993
0.265421
0.211676
0.243902
0.400686
0.634601
0.831054
0.890373
0.788178
0.571606
0.325049
0.142295
0.103527
0.244376
0.529787
0.863706
1.142587
1.314885
1.396413
1.435820
1.469541
1.499679
1.494541
1.404842
1.200464
0.912976
0.636901
0.462938
0.401810
0.388885
0.358245
0.293249
0.211233
0.126026
0.036096
-0.072065
-0.222953
-0.439181
-0.718058
-1.028421
-1.337367
-1.628241
-1.881975
-2.062072
-2.141508
-2.137221
-2.100620
-2.070811
-2.044946
-1.995767
-1.909519
-1.799091
-1.681284
-1.552494
-1.400521
-1.239834
-1.115850
-1.060196
-1.052230
-1.046545
-1.037648
-1.075536
-1.215229
-1.467135
-1.797595
-2.155408
-2.482792
-2.721715
-2.834576
-2.815136
-2.669620
-2.394375
-1.989507
-1.499990
-1.027376
-0.676434
-0.483645
-0.408965
-0.391870
-0.399253
-0.423626
-0.459545
-0.500624
-0.554592
-0.645082
-0.790024
-0.978182
-1.166511
-1.298704
-1.331218
-1.250975
-1.075103
-0.837235
-0.574765
-0.327160
-0.138354
-0.044218
-0.045418
-0.099497
-0.157584
-0.209611
-0.278306
-0.372847
-0.470989
-0.554840
-0.642173
-0.757476
-0.881432
-0.954469
-0.934435
-0.834455
-0.700121
-0.569974
-0.467417
-0.410134
-0.400440
-0.406892
-0.380357
-0.298844
-0.187158
-0.087202
-0.016873
0.033226
0.068532
0.070740
0.016170
-0.091874
-0.218129
-0.324830
-0.401442
-0.462594
-0.523703
-0.585573
-0.639485
-0.679772
-0.708477
-0.730113
-0.744313
-0.745493
-0.732718
-0.719052
-0.725905
-0.766794
-0.839306
-0.932924
-1.041532
-1.166260
-1.307094
-1.452134
-1.575299
-1.649661
-1.668702
-1.654555
-1.643402
-1.661296
-1.710987
-1.777984
-1.845797
-1.902937
-1.938843
-1.945280
-1.932690
-1.941182
-2.017258
-2.171617
-2.368252
-2.554628
-2.693578
-2.770060
-2.784548
-2.748914
-2.678434
-2.581596
-2.465610
-2.350691
-2.263612
-2.207475
-2.148118
-2.046087
-1.898371
-1.736468
-1.586705
-1.449470
-1.320243
-1.208266
-1.118726
-1.029374
-0.906751
-0.743397
-0.559126
-0.370312
-0.181934
-0.013968
0.085916
0.074099
-0.050389
-0.248231
-0.473509
-0.691857
-0.865434
-0.942106
-0.887063
-0.730878
-0.566218
-0.482776
-0.511273
-0.631812
-0.818625
-1.054875
-1.304986
-1.500806
-1.583875
-1.559750
-1.488110
-1.420279
-1.364284
-1.307884
-1.252479
-1.211218
-1.187091
-1.169037
-1.146514
-1.115950
-1.070929
-0.997384
-0.887263
-0.753079
-0.620674
-0.509152
-0.426781
-0.385230
-0.406930
-0.510758
-0.689804
-0.906459
-1.111924
-1.271142
-1.371527
-1.416198
-1.415297
-1.381582
-1.330821
-1.284504
-1.267256
-1.296233
-1.370533
-1.468093
-1.552586
-1.590781
-1.572468
-1.515815
-1.450301
-1.397423
-1.373689
-1.403851
-1.513968
-1.703906
-1.931675
-2.131990
-2.251420
-2.267135
-2.183846
-2.032574
-1.876542
-1.794447
-1.834500
-1.981521
-2.171136
-2.328771
-2.393215
-2.328466
-2.139494
-1.872048
-1.581244
-1.297258
-1.027604
-0.788951
-0.619464
-0.548724
-0.560896
-0.600092
-0.615825
-0.598487
-0.571455
-0.558823
-0.568001
-0.595810
-0.635764
-0.672713
-0.678098
-0.622894
-0.500079
-0.331658
-0.151779
0.011620
0.134249
0.184239
0.129614
-0.037060
-0.287609
-0.573588
-0.847404
-1.071906
-1.223178
-1.296243
-1.307991
-1.285094
-1.246049
-1.201699
-1.173606
-1.194536
-1.277380
-1.393052
-1.491526
-1.543358
-1.554557
-1.545943
-1.530348
-1.509525
-1.482547
-1.452096
-1.425156
-1.410777
-1.415381
-1.436403
-1.459537
-1.463722
-1.432021
-1.361205
-1.260870
-1.142762
-1.016077
-0.896228
-0.809168
-0.772235
-0.769547
-0.762452
-0.733278
-0.711355
-0.748082
-0.869396
-1.056783
-1.263345
-1.437303
-1.541595
-1.570407
-1.551636
-1.524908
-1.514772
-1.529786
-1.579956
-1.681040
-1.839095
-2.036236
-2.234764
-2.394358
-2.487861
-2.510778
-2.487088
-2.467142
-2.507691
-2.641023
-2.858388
-3.120189
-3.377726
-3.587247
-3.718159
-3.763477
-3.746611
-3.715535
-3.724036
-3.806322
-3.959197
-4.146315
-4.319966
-4.440391
-4.482825
-4.440262
-4.327890
-4.181072
-4.042144
-3.944591
-3.902648
-3.907805
-3.932481
-3.941057
-3.904985
-3.813877
-3.675397
-3.505916
-3.323402
-3.146958
-2.992599
-2.861437
-2.735662
-2.595109
-2.438843
-2.284229
-2.145744
-2.022278
-1.906695
-1.799051
-1.701212
-1.601276
-1.474343
-1.306065
-1.114604
-0.944903
-0.837921
-0.802636
-0.814307
-0.834454
-0.829468
-0.777110
-0.672412
-0.536868
-0.412387
-0.334398
-0.310825
-0.332287
-0.399272
-0.529254
-0.735849
-1.008700
-1.318012
-1.632555
-1.925945
-2.172371
-2.350025
-2.454150
-2.504793
-2.539259
-2.595021
-2.696456
-2.851871
-3.054209
-3.278941
-3.486183
-3.636123
-3.708366
-3.705374
-3.639157
-3.519850
-3.357571
-3.168830
-2.972563
-2.776062
-2.565967
-2.315020
-1.998517
-1.605866
-1.141050
-0.615764
-0.040894
0.578244
1.239517
1.937156
2.657358
3.379703
4.082799
4.751419
5.382799
5.989378
6.593357
7.211715
7.842703
8.468686
9.073855
9.657718
10.230660
10.801160
11.371300
11.940950
12.509960
13.075880
13.634510
14.184670
14.728550
15.265350
15.787280
16.284161
16.751060
17.189510
17.603821
18.000500
18.391491
18.793381
19.219931
19.675131
20.152981
20.641460
21.125780
21.588869
22.013241
22.388460
22.718679
23.018080
23.294109
23.535440
23.719000
23.827250
23.853760
23.792910
23.630819
23.351431
22.954470
22.468050
21.942369
21.430910
20.976789
20.608850
20.342251
20.180180
20.109381
20.090120
20.057850
19.945280
19.707781
19.332680
18.828650
18.206711
17.471390
16.628269
15.694890
14.703100
13.693260
12.704140
11.762100
10.874120
10.026740
9.193016
8.347764
7.482656
6.610178
5.756752
4.953363
4.226954
3.594284
3.063741
2.645248
2.358620
2.231713
2.291106
2.555718
3.035146
3.719472
4.556587
5.442578
6.246191
6.854659
7.213930
7.336933
7.272051
7.063215
6.738228
6.320772
5.839107
5.322464
4.795819
4.282434
3.807430
3.390134
3.030309
2.707446
2.398135
2.093959
1.802961
1.537415
1.304316
1.109071
0.965217
0.894697
0.917334
1.043681
1.276083
1.607398
2.010628
2.427051
2.769364
2.951348
2.925712
2.693685
2.284140
1.732394
1.075533
0.356734
-0.375235
-1.077044
-1.722863
-2.303924
-2.820880
-3.282305
-3.707205
-4.120947
-4.543294
-4.978182
-5.414242
-5.834971
-6.229561
-6.597425
-6.947183
-7.293653
-7.653167
-8.035912
-8.439082
-8.847817
-9.242625
-9.603746
-9.908713
-10.129500
-10.235750
-10.203740
-10.023850
-9.699847
-9.246119
-8.691926
-8.087429
-7.500452
-7.002701
-6.649531
-6.463290
-6.433916
-6.534041
-6.731794
-6.993600
-7.283424
-7.567399
-7.825859
-8.062043
-8.293797
-8.534149
-8.780635
-9.021323
-9.246612
-9.453064
-9.639002
-9.800152
-9.929534
-10.020440
-10.069540
-10.077890
-10.049350
-9.987541
-9.893247
-9.763047
-9.588902
-9.359562
-9.065027
-8.702983
-8.283894
-7.830722
-7.371719
-6.931881
-6.530422
-6.181516
-5.891905
-5.656162
-5.453584
-5.250491
-5.011436
-4.714467
-4.357996
-3.955476
-3.525422
-3.084914
-2.650719
-2.245451
-1.898057
-1.633001
-1.457621
-1.360272
-1.321392
-1.328010
-1.378490
-1.473417
-1.603016
-1.742860
-1.860035
-1.926164
-1.929305
-1.875529
-1.779664
-1.653989
-1.503938
-1.331935
-1.142810
-0.945354
-0.751397
-0.575648
-0.435500
-0.348593
-0.328113
-0.379280
-0.500834
-0.689553
-0.942811
-1.258167
-1.632694
-2.063846
-2.550625
-3.092643
-3.686916
-4.324749
-4.989910
-5.657971
-6.297190
-6.871830
-7.349923
-7.711567
-7.948831
-8.059322
-8.043028
-7.904707
-7.657314
-7.321582
-6.919856
-6.468492
-5.975815
-5.446091
-4.884943
-4.302627
-3.714115
-3.137324
-2.590125
-2.086214
-1.631543
-1.222365
-0.845686
-0.483927
-0.123419
0.237608
0.586468
0.900395
1.155487
1.335468
1.434662
1.454048
1.396593
1.266867
1.072170
0.821703
0.525332
0.193853
-0.159788
-0.520647
-0.874777
-1.213087
-1.533536
-1.840563
-2.141392
-2.440719
-2.736756
-3.020650
-3.278966
-3.497804
-3.667944
-3.789067
-3.869585
-3.922535
-3.961651
-3.999268
-4.045141
-4.106108
-4.186192
-4.285290
-4.396606
-4.506661
-4.600127
-4.666390
-4.701921
-4.706094
-4.675818
-4.605720
-4.493232
-4.342439
-4.162718
-3.963832
-3.752111
-3.530352
-3.299303
-3.057905
-2.803061
-2.531019
-2.239745
-1.930026
-1.605842
-1.276114
-0.956277
-0.667027
-0.430446
-0.265273
-0.184056
-0.193168
-0.292381
-0.472660
-0.716453
-1.001652
-1.304728
-1.600895
-1.863426
-2.066136
-2.190526
-2.231453
-2.194884
-2.091110
-1.931359
-1.729161
-1.501704
-1.267241
-1.039774
-0.826463
-0.629757
-0.450901
-0.291246
-0.149947
-0.019593
0.115582
0.275365
0.475489
0.721763
1.010061
1.330646
1.671194
2.015355
2.341380
2.626181
2.852544
3.013885
3.114081
3.163450
3.174898
3.163830
3.149587
3.152162
3.183574
3.241136
3.308972
3.366581
3.397270
3.390763
3.341862
3.250314
3.122515
2.971825
2.816920
2.679327
2.578352
2.524432
2.517087
2.548825
2.609980
2.690846
2.781349
2.870301
2.945679
2.995640
3.010019
2.982541
2.911914
2.799742
2.647030
2.453233
2.218938
1.949263
1.654296
1.346898
1.041518
0.754657
0.504759
0.310261
0.185296
0.135073
0.154068
0.225898
0.323746
0.416209
0.478805
0.501651
0.488280
0.449944
0.400659
0.354151
0.321286
0.307841
0.315129
0.344419
0.399889
0.485819
0.601622
0.739047
0.881708
1.007446
1.094491
1.129230
1.111050
1.050604
0.962607
0.860196
0.756069
0.665881
0.607218
0.594114
0.630397
0.706411
0.803656
0.905156
1.002851
1.096664
1.188548
1.278270
1.363608
1.442282
1.512454
1.572006
1.618736
1.651958
1.673667
1.687605
1.697009
1.703159
1.705311
1.701166
1.688235
1.667557
1.648233
1.647376
1.682652
1.763257
1.888094
2.051080
2.246037
2.466774
2.704675
2.948380
3.187198
3.414819
3.629320
3.830046
4.014951
4.180480
4.322447
4.435394
4.511688
4.543310
4.526343
4.465434
4.375015
4.275689
4.188747
4.132994
4.122874
4.166269
4.263705
4.408455
4.585639
4.772341
4.941035
5.065571
5.128154
5.123441
5.055655
4.931912
4.758536
4.541901
4.290292
4.013268
3.717947
3.405641
3.073044
2.717706
2.343208
1.959682
1.579951
1.215059
0.871183
0.548895
0.246005
-0.037406
-0.296127
-0.522415
-0.711636
-0.864467
-0.983500
-1.068423
-1.114916
-1.117907
-1.075293
-0.988651
-0.861991
-0.701822
-0.519170
-0.331149
-0.158835
-0.021411
0.068693
0.106653
0.093790
0.035913
-0.058297
-0.179176
-0.317835
-0.466008
-0.613238
-0.745361
-0.847595
-0.909328
-0.926377
-0.899376
-0.830206
-0.720111
-0.570899
-0.386905
-0.175251
0.055572
0.297403
0.542573
0.782250
1.005036
1.197502
1.346886
1.444114
1.484802
1.469185
1.402537
1.294354
1.155252
0.993761
0.814744
0.619249
0.405494
0.171230
-0.082797
-0.349803
-0.615700
-0.860026
-1.060082
-1.197025
-1.259709
-1.245337
-1.158350
-1.007669
-0.803908
-0.558662
-0.284420
0.006487
0.302401
0.591739
0.862540
1.103718
1.308262
1.475226
1.607588
1.708199
1.778362
1.819475
1.834586
1.827798
1.802780
