EVENT_NAME: EMILIA_2ND_SHOCK
EVENT_ID: IT-2012-0011
EVENT_DATE_YYYYMMDD: 20120529
EVENT_TIME_HHMMSS: 070002
EVENT_LATITUDE_DEGREE: 44.8417
EVENT_LONGITUDE_DEGREE: 11.0657
EVENT_DEPTH_KM: 8.1
HYPOCENTER_REFERENCE: INGV-CNT_Seismic_Bulletin
MAGNITUDE_W: 6.0
MAGNITUDE_W_REFERENCE: RCMT-INGV
MAGNITUDE_L: 5.8
MAGNITUDE_L_REFERENCE: INGV-CNT_Seismic_Bulletin
FOCAL_MECHANISM: TF
NETWORK: IV
STATION_CODE: T0814
STATION_NAME: T0814
STATION_LATITUDE_DEGREE: 44.793300
STATION_LONGITUDE_DEGREE: 10.969200
STATION_ELEVATION_M: 16
LOCATION: 
SENSOR_DEPTH_M: 1.0
VS30_M/S: 
SITE_CLASSIFICATION_EC8: C*
MORPHOLOGIC_CLASSIFICATION: 
EPICENTRAL_DISTANCE_KM: 9.3
EARTHQUAKE_BACKAZIMUTH_DEGREE: 54.8
DATE_TIME_FIRST_SAMPLE_YYYYMMDD_HHMMSS: 20120529_065942.000
DATE_TIME_FIRST_SAMPLE_PRECISION: milliseconds
SAMPLING_INTERVAL_S: 0.005000
NDATA: 20001
DURATION_S: 100.005
STREAM: HNZ
UNITS: cm/s
INSTRUMENT: sensor = Episensor FBA ES-T [Kinemetrics] | digitizer = Unknown [Unknown]
INSTRUMENT_ANALOG/DIGITAL: D
INSTRUMENTAL_FREQUENCY_HZ: 
INSTRUMENTAL_DAMPING: 
FULL_SCALE_G: 
N_BIT_DIGITAL_CONVERTER: 
PGV_CM/S: 6.112096
TIME_PGV_S: 27.120000
BASELINE_CORRECTION: BASELINE REMOVED
FILTER_TYPE: BUTTERWORTH
FILTER_ORDER: 2
LOW_CUT_FREQUENCY_HZ: 0.060
HIGH_CUT_FREQUENCY_HZ: 40.000
LATE/NORMAL_TRIGGERED: NT
DATABASE_VERSION: DYNA 1.0
HEADER_FORMAT: DYNA 1.2
DATA_TYPE: VELOCITY
PROCESSING: manual (Paolucci et al., 2011)
DATA_TIMESTAMP_YYYYMMDD_HHMMSS: 
DATA_LICENSE: CC-BY4_0 (http://creativecommons.org/licenses/by/4.0/)
DATA_CITATION: ESM working group (2015), European Strong-Motion database, version 0.1, Network Activity 3: Networking acceleration networks and SM data users. Project NERA (www.nera-eu.org)
DATA_CREATOR: ESM working group
ORIGINAL_DATA_MEDIATOR_CITATION: Orfeus - European Integrated Data Archive (EIDA) http://www.orfeus-eu.org/eida/
ORIGINAL_DATA_MEDIATOR: Orfeus - European Integrated Data Archive (EIDA)
ORIGINAL_DATA_CREATOR_CITATION: Data for this study comes from the Italian national seismic network operated by Istituto Nazionale di Geofisica e Vulcanologia and archived at the European Integrated Data Archive http://eida.rm.ingv.it/
ORIGINAL_DATA_CREATOR: network: IV (Italian National Seismic Network); owner: Istituto Nazionale di Geofisica e Vulcanologia
USER1: 
USER2: 
USER3: 
USER4: 
USER5: 
[...]
0.052985
0.053043
0.053113
0.053201
0.053309
0.053435
0.053575
0.053719
0.053860
0.053987
0.054096
0.054186
0.054266
0.054345
0.054433
0.054529
0.054636
0.054753
0.054876
0.054994
0.055103
0.055205
0.055308
0.055422
0.055549
0.055680
0.055804
0.055919
0.056029
0.056138
0.056247
0.056356
0.056465
0.056577
0.056693
0.056810
0.056923
0.057028
0.057126
0.057220
0.057316
0.057419
0.057525
0.057627
0.057719
0.057805
0.057894
0.057995
0.058110
0.058235
0.058359
0.058475
0.058581
0.058682
0.058781
0.058881
0.058986
0.059103
0.059231
0.059364
0.059495
0.059623
0.059748
0.059871
0.059997
0.060127
0.060264
0.060403
0.060535
0.060655
0.060761
0.060859
0.060957
0.061062
0.061177
0.061294
0.061408
0.061514
0.061612
0.061704
0.061790
0.061876
0.061967
0.062066
0.062170
0.062278
0.062392
0.062511
0.062630
0.062740
0.062843
0.062948
0.063064
0.063188
0.063312
0.063430
0.063539
0.063636
0.063721
0.063799
0.063880
0.063971
0.064081
0.064210
0.064355
0.064503
0.064642
0.064770
0.064891
0.065013
0.065139
0.065271
0.065407
0.065539
0.065661
0.065776
0.065891
0.066012
0.066137
0.066265
0.066395
0.066526
0.066658
0.066791
0.066925
0.067059
0.067186
0.067309
0.067429
0.067547
0.067657
0.067757
0.067853
0.067954
0.068070
0.068205
0.068357
0.068518
0.068677
0.068824
0.068951
0.069056
0.069142
0.069217
0.069296
0.069390
0.069502
0.069627
0.069762
0.069899
0.070033
0.070158
0.070276
0.070395
0.070525
0.070665
0.070809
0.070947
0.071068
0.071171
0.071260
0.071348
0.071447
0.071564
0.071699
0.071841
0.071979
0.072106
0.072223
0.072328
0.072425
0.072521
0.072626
0.072745
0.072875
0.073008
0.073136
0.073256
0.073373
0.073499
0.073640
0.073797
0.073963
0.074131
0.074287
0.074419
0.074521
0.074594
0.074646
0.074688
0.074737
0.074810
0.074921
0.075070
0.075249
0.075445
0.075644
0.075828
0.075974
0.076076
0.076146
0.076206
0.076273
0.076357
0.076459
0.076577
0.076707
0.076851
0.077015
0.077195
0.077365
0.077497
0.077582
0.077644
0.077719
0.077823
0.077949
0.078084
0.078223
0.078372
0.078535
0.078710
0.078884
0.079047
0.079192
0.079317
0.079421
0.079499
0.079560
0.079624
0.079723
0.079871
0.080053
0.080232
0.080382
0.080502
0.080614
0.080744
0.080894
0.081046
0.081178
0.081290
0.081404
0.081542
0.081692
0.081821
0.081915
0.081998
0.082101
0.082224
0.082332
0.082401
0.082448
0.082520
0.082653
0.082837
0.083019
0.083159
0.083261
0.083364
0.083499
0.083657
0.083807
0.083934
0.084048
0.084165
0.084294
0.084426
0.084546
0.084649
0.084751
0.084879
0.085044
0.085217
0.085352
0.085427
0.085462
0.085501
0.085582
0.085714
0.085874
0.086033
0.086175
0.086307
0.086449
0.086617
0.086806
0.086989
0.087139
0.087248
0.087337
0.087440
0.087568
0.087717
0.087881
0.088064
0.088256
0.088417
0.088503
0.088508
0.088477
0.088491
0.088606
0.088813
0.089040
0.089215
0.089320
0.089395
0.089486
0.089615
0.089770
0.089926
0.090068
0.090192
0.090304
0.090412
0.090524
0.090645
0.090782
0.090931
0.091074
0.091193
0.091282
0.091356
0.091437
0.091542
0.091678
0.091837
0.091996
0.092129
0.092226
0.092305
0.092399
0.092525
0.092673
0.092808
0.092904
0.092971
0.093049
0.093177
0.093354
0.093544
0.093708
0.093835
0.093942
0.094049
0.094158
0.094264
0.094371
0.094491
0.094637
0.094800
0.094956
0.095088
0.095195
0.095291
0.095390
0.095501
0.095631
0.095787
0.095963
0.096138
0.096290
0.096410
0.096510
0.096608
0.096709
0.096806
0.096890
0.096964
0.097046
0.097161
0.097319
0.097513
0.097721
0.097920
0.098092
0.098221
0.098305
0.098364
0.098431
0.098531
0.098671
0.098837
0.099008
0.099166
0.099303
0.099418
0.099517
0.099610
0.099705
0.099810
0.099929
0.100064
0.100213
0.100371
0.100530
0.100680
0.100810
0.100913
0.100995
0.101075
0.101177
0.101321
0.101507
0.101715
0.101915
0.102080
0.102202
0.102296
0.102381
0.102474
0.102577
0.102689
0.102807
0.102931
0.103060
0.103191
0.103318
0.103434
0.103540
0.103645
0.103763
0.103896
0.104042
0.104193
0.104349
0.104506
0.104659
0.104797
0.104908
0.104988
0.105045
0.105099
0.105168
0.105257
0.105362
0.105482
0.105622
0.105787
0.105976
0.106175
0.106368
0.106539
0.106680
0.106791
0.106879
0.106952
0.107021
0.107098
0.107193
0.107311
0.107452
0.107606
0.107758
0.107898
0.108024
0.108151
0.108290
0.108442
0.108594
0.108727
0.108831
0.108912
0.108994
0.109093
0.109217
0.109362
0.109525
0.109704
0.109899
0.110106
0.110311
0.110500
0.110659
0.110778
0.110860
0.110914
0.110954
0.111000
0.111071
0.111188
0.111360
0.111575
0.111811
0.112038
0.112232
0.112381
0.112489
0.112570
0.112640
0.112713
0.112800
0.112905
0.113030
0.113172
0.113326
0.113486
0.113641
0.113777
0.113885
0.113964
0.114026
0.114086
0.114158
0.114254
0.114380
0.114533
0.114702
0.114871
0.115023
0.115151
0.115253
0.115336
0.115405
0.115470
0.115537
0.115612
0.115706
0.115825
0.115967
0.116123
0.116282
0.116433
0.116573
0.116703
0.116823
0.116934
0.117038
0.117138
0.117240
0.117351
0.117475
0.117611
0.117753
0.117900
0.118047
0.118188
0.118317
0.118436
0.118554
0.118676
0.118802
0.118926
0.119050
0.119177
0.119311
0.119451
0.119592
0.119730
0.119863
0.119995
0.120128
0.120259
0.120384
0.120498
0.120596
0.120683
0.120769
0.120862
0.120967
0.121079
0.121199
0.121328
0.121463
0.121598
0.121725
0.121838
0.121934
0.122014
0.122086
0.122164
0.122257
0.122364
0.122485
0.122620
0.122766
0.122913
0.123045
0.123150
0.123223
0.123272
0.123312
0.123364
0.123448
0.123571
0.123725
0.123897
0.124072
0.124235
0.124370
0.124467
0.124537
0.124597
0.124664
0.124744
0.124840
0.124954
0.125081
0.125216
0.125351
0.125479
0.125598
0.125707
0.125810
0.125917
0.126039
0.126183
0.126342
0.126502
0.126640
0.126746
0.126828
0.126904
0.126985
0.127073
0.127167
0.127269
0.127384
0.127518
0.127670
0.127832
0.127990
0.128134
0.128256
0.128353
0.128424
0.128469
0.128495
0.128528
0.128602
0.128734
0.128905
0.129080
0.129234
0.129369
0.129500
0.129633
0.129753
0.129844
0.129900
0.129948
0.130021
0.130136
0.130275
0.130410
0.130530
0.130643
0.130763
0.130890
0.131011
0.131117
0.131199
0.131176
0.130795
0.129714
0.127801
0.125329
0.122667
0.119643
0.115217
0.107879
0.096609
0.081740
0.065022
0.048789
0.034883
0.024158
0.016828
0.013412
0.015598
0.025841
0.045132
0.070378
0.094460
0.110345
0.115717
0.112686
0.102781
0.083069
0.047702
-0.006952
-0.078042
-0.155419
-0.225326
-0.277773
-0.312998
-0.339885
-0.364940
-0.382631
-0.378731
-0.343935
-0.283997
-0.216639
-0.158289
-0.112422
-0.070154
-0.024927
0.010670
0.006005
-0.061163
-0.175751
-0.289349
-0.356649
-0.363532
-0.321603
-0.245800
-0.144909
-0.032382
0.062570
0.104448
0.074327
-0.020815
-0.160117
-0.321913
-0.480245
-0.592969
-0.605854
-0.484669
-0.250793
0.021062
0.245881
0.369739
0.377287
0.279176
0.106977
-0.086635
-0.239660
-0.305110
-0.272069
-0.166910
-0.034473
0.079106
0.127344
0.067818
-0.109619
-0.352970
-0.558907
-0.629582
-0.532393
-0.317492
-0.082549
0.089359
0.171887
0.187414
0.168825
0.134657
0.093716
0.059835
0.051589
0.074231
0.105765
0.109798
0.070532
0.015926
-0.000758
0.051747
0.154707
0.260162
0.332051
0.358883
0.338175
0.268686
0.161216
0.045836
-0.041529
-0.080966
-0.077041
-0.048940
-0.014034
0.021168
0.057614
0.093250
0.117226
0.118023
0.097722
0.073015
0.059357
0.055827
0.047746
0.026298
0.006533
0.021983
0.093373
0.198790
0.281574
0.299574
0.271128
0.263797
0.325960
0.429983
0.491517
0.447848
0.312194
0.150020
0.013382
-0.089873
-0.166864
-0.202516
-0.167924
-0.060492
0.075555
0.173124
0.188473
0.128548
0.038272
-0.036083
-0.071806
-0.066603
-0.026193
0.036174
0.094967
0.118961
0.090592
0.024382
-0.033812
-0.034746
0.035435
0.140671
0.224696
0.258873
0.259131
0.257306
0.261266
0.245396
0.175583
0.040750
-0.134423
-0.300756
-0.409539
-0.436758
-0.390828
-0.297625
-0.182893
-0.074717
-0.014080
-0.040968
-0.155627
-0.299921
-0.389979
-0.375538
-0.276497
-0.165537
-0.106409
-0.098222
-0.078642
0.012219
0.170236
0.332702
0.437756
0.468049
0.440146
0.366670
0.240380
0.054825
-0.166412
-0.368321
-0.497774
-0.538228
-0.509063
-0.437303
-0.341746
-0.245452
-0.190235
-0.221886
-0.352401
-0.538468
-0.703960
-0.789459
-0.783441
-0.712001
-0.608717
-0.498666
-0.401129
-0.330523
-0.284527
-0.234127
-0.137644
0.023261
0.217075
0.375942
0.442616
0.408237
0.306397
0.176341
0.038584
-0.096588
-0.211631
-0.286970
-0.321725
-0.335957
-0.345664
-0.343537
-0.314645
-0.266857
-0.234133
-0.246156
-0.299827
-0.364792
-0.413401
-0.437622
-0.435043
-0.389535
-0.280188
-0.112927
0.063472
0.179043
0.182268
0.061860
-0.161650
-0.451179
-0.749711
-0.971921
-1.029375
-0.888083
-0.603101
-0.292160
-0.070270
0.006336
-0.045472
-0.162915
-0.278179
-0.346779
-0.360200
-0.345363
-0.343045
-0.366508
-0.374472
-0.297097
-0.101264
0.167541
0.412033
0.554404
0.582439
0.533628
0.450150
0.359679
0.291075
0.286036
0.375000
0.536834
0.695456
0.772675
0.743553
0.629519
0.448213
0.192842
-0.136188
-0.495922
-0.813254
-1.034482
-1.151009
-1.169411
-1.075419
-0.853793
-0.543868
-0.252813
-0.093882
-0.106633
-0.238092
-0.397247
-0.520338
-0.587348
-0.598443
-0.556374
-0.473748
-0.385411
-0.343901
-0.398245
-0.568056
-0.825763
-1.097945
-1.287896
-1.314306
-1.157445
-0.881925
-0.599455
-0.393538
-0.280493
-0.242317
-0.278398
-0.408981
-0.639791
-0.943205
-1.277263
-1.613947
-1.945245
-2.270152
-2.581267
-2.859264
-3.078725
-3.227172
-3.325104
-3.420847
-3.548838
-3.681751
-3.729227
-3.596743
-3.253020
-2.749610
-2.194238
-1.721767
-1.477002
-1.570524
-1.998939
-2.603763
-3.141875
-3.421494
-3.384554
-3.100374
-2.711231
-2.354223
-2.089345
-1.884707
-1.670094
-1.403280
-1.091161
-0.773726
-0.504127
-0.322285
-0.218426
-0.126107
0.016045
0.181759
0.258182
0.145684
-0.151953
-0.543936
-0.933410
-1.250428
-1.423686
-1.375521
-1.081213
-0.628317
-0.193909
0.056840
0.067005
-0.100685
-0.332870
-0.534915
-0.646850
-0.640967
-0.543205
-0.444534
-0.455125
-0.632141
-0.962501
-1.410511
-1.949559
-2.530202
-3.036637
-3.314658
-3.271079
-2.950181
-2.511704
-2.132889
-1.911451
-1.818401
-1.717958
-1.457722
-0.985634
-0.406568
0.078663
0.306844
0.245203
-0.020090
-0.370018
-0.737353
-1.125143
-1.554033
-1.996242
-2.346459
-2.438455
-2.113071
-1.321973
-0.196708
0.984806
1.925008
2.444713
2.538471
2.314084
1.884596
1.314798
0.652790
-0.004974
-0.501663
-0.716769
-0.693722
-0.630057
-0.695620
-0.853313
-0.877280
-0.561130
0.084895
0.823179
1.349995
1.476334
1.208379
0.707692
0.180783
-0.213882
-0.390230
-0.330207
-0.090978
0.208782
0.445963
0.545224
0.480279
0.258513
-0.066962
-0.398791
-0.655029
-0.833316
-0.989112
-1.135310
-1.187498
-1.045334
-0.731990
-0.416900
-0.277586
-0.352839
-0.536095
-0.690996
-0.754630
-0.738494
-0.665569
-0.542495
-0.400742
-0.338597
-0.490806
-0.945640
-1.688862
-2.600690
-3.474770
-4.059972
-4.144131
-3.649015
-2.671127
-1.431811
-0.169204
0.938061
1.760416
2.181290
2.115216
1.565369
0.665701
-0.334708
-1.172917
-1.716983
-2.023709
-2.221958
-2.328616
-2.206608
-1.719215
-0.921137
-0.093105
0.415900
0.403514
-0.067774
-0.714833
-1.210310
-1.375960
-1.251350
-0.993803
-0.725225
-0.475394
-0.238294
-0.042820
0.043307
-0.031235
-0.252222
-0.543266
-0.805763
-0.951552
-0.920845
-0.708031
-0.390056
-0.114141
-0.019156
-0.132525
-0.335538
-0.454623
-0.415241
-0.300826
-0.237141
-0.232886
-0.170606
0.042401
0.346667
0.574402
0.600858
0.431217
0.153911
-0.157412
-0.493757
-0.900237
-1.428792
-2.074654
-2.741333
-3.271322
-3.525688
-3.462070
-3.166195
-2.815602
-2.586521
-2.560906
-2.711035
-2.974661
-3.334411
-3.800439
-4.315520
-4.719149
-4.830978
-4.554147
-3.898169
-2.955146
-1.904921
-1.014503
-0.552268
-0.635957
-1.127881
-1.694028
-2.027990
-2.048752
-1.865483
-1.574534
-1.153197
-0.568409
0.070780
0.542291
0.699596
0.592172
0.380565
0.165878
-0.066359
-0.357701
-0.664214
-0.840476
-0.748188
-0.389131
0.082330
0.484545
0.731578
0.824109
0.743428
0.398530
-0.287054
-1.227761
-2.142937
-2.718972
-2.838122
-2.653461
-2.436296
-2.349267
-2.362417
-2.363693
-2.307220
-2.228920
-2.140357
-1.966103
-1.624037
-1.148209
-0.683137
-0.351329
-0.167069
-0.081295
-0.065450
-0.124040
-0.245559
-0.377798
-0.461493
-0.487371
-0.527593
-0.706311
-1.107482
-1.675923
-2.208742
-2.472636
-2.351830
-1.895567
-1.244521
-0.544201
0.068968
0.456639
0.514194
0.226515
-0.324809
-1.008868
-1.702090
-2.331443
-2.892129
-3.416150
-3.905308
-4.290227
-4.466799
-4.387213
-4.120261
-3.824687
-3.653848
-3.652812
-3.712512
-3.621212
-3.200041
-2.434559
-1.493367
-0.615151
0.044693
0.500179
0.912930
1.488271
2.339472
3.385556
4.361133
4.972751
5.110678
4.934955
4.741088
4.718441
4.831164
4.926386
4.935053
4.948967
5.110508
5.452868
5.851602
6.112096
6.098985
5.799680
5.291635
4.677577
4.058089
3.528607
3.146241
2.876109
2.599070
2.209711
1.715529
1.231314
0.868244
0.626435
0.397806
0.079768
-0.305265
-0.597477
-0.610210
-0.265603
0.365434
1.140721
1.935810
2.646188
3.148964
3.323506
3.129197
2.656359
2.090847
1.614357
1.326446
1.255897
1.424451
1.855066
2.491411
3.132656
3.497102
3.394747
2.869263
2.178315
1.620351
1.365713
1.431366
1.756546
2.251695
2.793219
3.225311
3.405739
3.267799
2.845478
2.238997
1.553529
0.862846
0.211178
-0.368563
-0.842886
-1.185775
-1.400366
-1.523777
-1.593841
-1.601463
-1.483783
-1.184279
-0.729764
-0.235973
0.171858
0.438850
0.591609
0.694772
0.806668
0.960902
1.166625
1.419899
1.719043
2.067571
2.454881
2.833135
3.124693
3.261684
3.221400
3.032372
2.750728
2.418178
2.029213
1.540646
0.923542
0.209255
-0.513963
-1.140132
-1.578235
-1.764717
-1.674577
-1.332386
-0.799284
-0.144470
0.565869
1.266411
1.896397
2.401550
2.724700
2.795593
2.544269
1.953464
1.118023
0.243218
-0.432794
-0.731924
-0.594895
-0.094460
0.597315
1.272805
1.755203
1.948686
1.857920
1.565758
1.190362
0.850281
0.632076
0.556982
0.574923
0.601907
0.565949
0.420815
0.142492
-0.261605
-0.741081
-1.203113
-1.522624
-1.574855
-1.299940
-0.762539
-0.148269
0.316244
0.473727
0.314704
-0.023534
-0.345478
-0.513581
-0.507073
-0.401370
-0.310654
-0.334774
-0.519900
-0.833478
-1.169125
-1.391285
-1.400927
-1.186181
-0.824859
-0.434675
-0.113475
0.083410
0.135976
0.059036
-0.089864
-0.223309
-0.262316
-0.167818
0.057503
0.388349
0.794877
1.244001
1.688022
2.060903
2.296670
2.363307
2.285502
2.130470
1.963914
1.817786
1.698416
1.611869
1.571467
1.587297
1.652230
1.733659
1.781832
1.757424
1.659451
1.526956
1.408351
1.322049
1.241281
1.119898
0.945618
0.775034
0.704650
0.786332
0.964134
1.109169
1.129404
1.040149
0.920641
0.818455
0.725068
0.645144
0.657630
0.871269
1.301193
1.801311
2.149494
2.215163
2.040452
1.771493
1.526967
1.322326
1.106770
0.871572
0.713904
0.777429
1.119149
1.631294
2.093399
2.308471
2.209080
1.857144
1.365404
0.829712
0.317225
-0.120866
-0.448539
-0.648847
-0.716801
-0.646954
-0.435888
-0.111707
0.232811
0.453570
0.430568
0.152839
-0.262327
-0.642491
-0.871828
-0.947775
-0.940020
-0.909944
-0.874440
-0.827448
-0.773871
-0.734452
-0.717624
-0.691340
-0.594712
-0.393228
-0.130925
0.078614
0.126540
-0.015890
-0.288198
-0.598193
-0.885393
-1.135311
-1.343081
-1.473498
-1.463032
-1.262288
-0.881537
-0.407068
0.022749
0.271991
0.254364
-0.058665
-0.640492
-1.385868
-2.098066
-2.544055
-2.565358
-2.171133
-1.540811
-0.923814
-0.508644
-0.359468
-0.444003
-0.690353
-1.010949
-1.295028
-1.414362
-1.275220
-0.894785
-0.426322
-0.077784
0.020389
-0.122459
-0.400449
-0.691891
-0.908652
-0.996819
-0.914609
-0.632467
-0.175032
0.337572
0.717499
0.808895
0.579681
0.131130
-0.374047
-0.801642
-1.087573
-1.219170
-1.200868
-1.045712
-0.789007
-0.500877
-0.278680
-0.208227
-0.317670
-0.569511
-0.889151
-1.188932
-1.377201
-1.377180
-1.160309
-0.762136
-0.261255
0.259754
0.740890
1.142108
1.421274
1.521535
1.386860
1.001460
0.427670
-0.195038
-0.705285
-0.992598
-1.031289
-0.859901
-0.537364
-0.115017
0.364222
0.859814
1.337107
1.767118
2.110206
2.309426
2.318635
2.139755
1.827605
1.459167
1.101550
0.807594
0.629238
0.622045
0.831091
1.262214
1.855886
2.493818
3.047928
3.436302
3.642810
3.701086
3.668817
3.600786
3.523422
3.424819
3.267289
3.013896
2.658346
2.256675
1.946808
1.911224
2.269566
2.973833
3.802054
4.471865
4.797974
4.774918
4.521257
4.148452
3.686208
3.120749
2.476297
1.845461
1.349153
1.072024
1.034159
1.221321
1.630932
2.270619
3.097878
3.963945
4.643994
4.950380
4.826763
4.348239
3.662340
2.939371
2.337745
1.968387
1.874423
2.033667
2.370092
2.769760
3.108643
3.293797
3.300435
3.176244
3.005377
2.863930
2.798671
2.819722
2.892479
2.947694
2.925484
2.819731
2.670943
2.516128
2.363750
2.228352
2.168434
2.249444
2.448654
2.607178
2.506774
2.032490
1.287242
0.551089
0.114771
0.121589
0.521190
1.145855
1.840853
2.533997
3.187828
3.717715
3.991489
3.915015
3.515813
2.943702
2.381682
1.942261
1.639403
1.444908
1.347231
1.343963
1.397419
1.431008
1.387583
1.290581
1.235816
1.310467
1.513073
1.751936
1.922478
1.986404
1.977957
1.938228
1.847181
1.621328
1.177040
0.502172
-0.307178
-1.058290
-1.532371
-1.592458
-1.252639
-0.648449
0.053553
0.718099
1.247861
1.567307
1.618718
1.386636
0.927985
0.360470
-0.194709
-0.664514
-1.030546
-1.298336
-1.467162
-1.531444
-1.505001
-1.430773
-1.360309
-1.326288
-1.334975
-1.382605
-1.476548
-1.633074
-1.847990
-2.074787
-2.242071
-2.299374
-2.251439
-2.150769
-2.053119
-1.970379
-1.859147
-1.660370
-1.366435
-1.060989
-0.885516
-0.943722
-1.214917
-1.549539
-1.757149
-1.721845
-1.452803
-1.035047
-0.547212
-0.032322
0.474627
0.915330
1.210116
1.295109
1.166509
0.891057
0.569416
0.284990
0.078779
-0.045196
-0.103659
-0.117471
-0.096571
-0.033930
0.082091
0.245381
0.426640
0.594873
0.741173
0.875876
1.002777
1.102715
1.147796
1.130488
1.073805
1.014122
0.982158
1.002997
1.101175
1.284920
1.516242
1.704581
1.749327
1.609256
1.341898
1.075254
0.932888
0.968919
1.150401
1.390047
1.606133
1.762324
1.854808
1.873074
1.783904
1.552372
1.179637
0.730915
0.330344
0.112050
0.150507
0.418875
0.805240
1.174598
1.434521
1.558981
1.560494
1.451900
1.243798
0.975178
0.732911
0.624252
0.716118
0.993815
1.375632
1.764465
2.090795
