EVENT_NAME: EMILIA_2ND_SHOCK
EVENT_ID: IT-2012-0011
EVENT_DATE_YYYYMMDD: 20120529
EVENT_TIME_HHMMSS: 070002
EVENT_LATITUDE_DEGREE: 44.8417
EVENT_LONGITUDE_DEGREE: 11.0657
EVENT_DEPTH_KM: 8.1
HYPOCENTER_REFERENCE: INGV-CNT_Seismic_Bulletin
MAGNITUDE_W: 6.0
MAGNITUDE_W_REFERENCE: RCMT-INGV
MAGNITUDE_L: 5.8
MAGNITUDE_L_REFERENCE: INGV-CNT_Seismic_Bulletin
FOCAL_MECHANISM: TF
NETWORK: IV
STATION_CODE: T0814
STATION_NAME: T0814
STATION_LATITUDE_DEGREE: 44.793300
STATION_LONGITUDE_DEGREE: 10.969200
STATION_ELEVATION_M: 16
LOCATION: 
SENSOR_DEPTH_M: 1.0
VS30_M/S: 
SITE_CLASSIFICATION_EC8: C*
MORPHOLOGIC_CLASSIFICATION: 
EPICENTRAL_DISTANCE_KM: 9.3
EARTHQUAKE_BACKAZIMUTH_DEGREE: 54.8
DATE_TIME_FIRST_SAMPLE_YYYYMMDD_HHMMSS: 20120529_065942.000
DATE_TIME_FIRST_SAMPLE_PRECISION: milliseconds
SAMPLING_INTERVAL_S: 0.005000
NDATA: 20001
DURATION_S: 100.005
STREAM: HNZ
UNITS: cm
INSTRUMENT: sensor = Episensor FBA ES-T [Kinemetrics] | digitizer = Unknown [Unknown]
INSTRUMENT_ANALOG/DIGITAL: D
INSTRUMENTAL_FREQUENCY_HZ: 
INSTRUMENTAL_DAMPING: 
FULL_SCALE_G: 
N_BIT_DIGITAL_CONVERTER: 
PGD_CM: -1.696462
TIME_PGD_S: 27.020000
BASELINE_CORRECTION: BASELINE REMOVED
FILTER_TYPE: BUTTERWORTH
FILTER_ORDER: 2
LOW_CUT_FREQUENCY_HZ: 0.060
HIGH_CUT_FREQUENCY_HZ: 40.000
LATE/NORMAL_TRIGGERED: NT
DATABASE_VERSION: DYNA 1.0
HEADER_FORMAT: DYNA 1.2
DATA_TYPE: DISPLACEMENT
PROCESSING: manual (Paolucci et al., 2011)
DATA_TIMESTAMP_YYYYMMDD_HHMMSS: 
DATA_LICENSE: CC-BY4_0 (http://creativecommons.org/licenses/by/4.0/)
DATA_CITATION: ESM working group (2015), European Strong-Motion database, version 0.1, Network Activity 3: Networking acceleration networks and SM data users. Project NERA (www.nera-eu.org)
DATA_CREATOR: ESM working group
ORIGINAL_DATA_MEDIATOR_CITATION: Orfeus - European Integrated Data Archive (EIDA) http://www.orfeus-eu.org/eida/
ORIGINAL_DATA_MEDIATOR: Orfeus - European Integrated Data Archive (EIDA)
ORIGINAL_DATA_CREATOR_CITATION: Data for this study comes from the Italian national seismic network operated by Istituto Nazionale di Geofisica e Vulcanologia and archived at the European Integrated Data Archive http://eida.rm.ingv.it/
ORIGINAL_DATA_CREATOR: network: IV (Italian National Seismic Network); owner: Istituto Nazionale di Geofisica e Vulcanologia
USER1: 
USER2: 
USER3: 
USER4: 
USER5: 
[...]
1.886676e-01
1.891594e-01
1.896515e-01
1.901442e-01
1.906376e-01
1.911317e-01
1.916268e-01
1.921226e-01
1.926191e-01
1.931162e-01
1.936138e-01
1.941118e-01
1.946104e-01
1.951094e-01
1.956091e-01
1.961094e-01
1.966105e-01
1.971123e-01
1.976150e-01
1.981184e-01
1.986224e-01
1.991270e-01
1.996320e-01
2.001373e-01
2.006432e-01
2.011498e-01
2.016574e-01
2.021659e-01
2.026755e-01
2.031859e-01
2.036969e-01
2.042084e-01
2.047203e-01
2.052327e-01
2.057456e-01
2.062590e-01
2.067730e-01
2.072877e-01
2.078030e-01
2.083189e-01
2.088355e-01
2.093527e-01
2.098704e-01
2.103886e-01
2.109074e-01
2.114269e-01
2.119471e-01
2.124681e-01
2.129898e-01
2.135124e-01
2.140357e-01
2.145597e-01
2.150842e-01
2.156091e-01
2.161344e-01
2.166599e-01
2.171857e-01
2.177120e-01
2.182388e-01
2.187662e-01
2.192943e-01
2.198232e-01
2.203531e-01
2.208840e-01
2.214158e-01
2.219485e-01
2.224819e-01
2.230159e-01
2.235503e-01
2.240850e-01
2.246202e-01
2.251556e-01
2.256916e-01
2.262282e-01
2.267654e-01
2.273035e-01
2.278422e-01
2.283817e-01
2.289219e-01
2.294626e-01
2.300041e-01
2.305463e-01
2.310892e-01
2.316329e-01
2.321770e-01
2.327216e-01
2.332666e-01
2.338120e-01
2.343581e-01
2.349049e-01
2.354525e-01
2.360011e-01
2.365506e-01
2.371011e-01
2.376526e-01
2.382051e-01
2.387584e-01
2.393123e-01
2.398666e-01
2.404212e-01
2.409760e-01
2.415310e-01
2.420863e-01
2.426423e-01
2.431991e-01
2.437569e-01
2.443160e-01
2.448762e-01
2.454373e-01
2.459992e-01
2.465617e-01
2.471245e-01
2.476877e-01
2.482513e-01
2.488153e-01
2.493798e-01
2.499450e-01
2.505108e-01
2.510775e-01
2.516449e-01
2.522131e-01
2.527820e-01
2.533514e-01
2.539212e-01
2.544914e-01
2.550618e-01
2.556326e-01
2.562038e-01
2.567757e-01
2.573484e-01
2.579219e-01
2.584963e-01
2.590714e-01
2.596471e-01
2.602234e-01
2.608001e-01
2.613771e-01
2.619545e-01
2.625322e-01
2.631102e-01
2.636887e-01
2.642679e-01
2.648477e-01
2.654283e-01
2.660097e-01
2.665919e-01
2.671748e-01
2.677583e-01
2.683424e-01
2.689271e-01
2.695122e-01
2.700979e-01
2.706841e-01
2.712709e-01
2.718583e-01
2.724463e-01
2.730351e-01
2.736246e-01
2.742148e-01
2.748058e-01
2.753973e-01
2.759895e-01
2.765823e-01
2.771757e-01
2.777697e-01
2.783643e-01
2.789596e-01
2.795554e-01
2.801520e-01
2.807493e-01
2.813472e-01
2.819459e-01
2.825452e-01
2.831452e-01
2.837458e-01
2.843471e-01
2.849490e-01
2.855515e-01
2.861545e-01
2.867579e-01
2.873617e-01
2.879660e-01
2.885709e-01
2.891763e-01
2.897823e-01
2.903889e-01
2.909962e-01
2.916042e-01
2.922128e-01
2.928220e-01
2.934317e-01
2.940418e-01
2.946522e-01
2.952630e-01
2.958743e-01
2.964861e-01
2.970985e-01
2.977116e-01
2.983255e-01
2.989400e-01
2.995553e-01
3.001710e-01
3.007871e-01
3.014035e-01
3.020201e-01
3.026369e-01
3.032541e-01
3.038720e-01
3.044906e-01
3.051101e-01
3.057304e-01
3.063516e-01
3.069735e-01
3.075958e-01
3.082185e-01
3.088415e-01
3.094648e-01
3.100885e-01
3.107127e-01
3.113375e-01
3.119629e-01
3.125890e-01
3.132157e-01
3.138431e-01
3.144711e-01
3.150996e-01
3.157287e-01
3.163583e-01
3.169885e-01
3.176194e-01
3.182511e-01
3.188836e-01
3.195168e-01
3.201505e-01
3.207847e-01
3.214192e-01
3.220541e-01
3.226895e-01
3.233253e-01
3.239617e-01
3.245986e-01
3.252362e-01
3.258745e-01
3.265137e-01
3.271536e-01
3.277943e-01
3.284356e-01
3.290773e-01
3.297195e-01
3.303618e-01
3.310043e-01
3.316469e-01
3.322899e-01
3.329336e-01
3.335781e-01
3.342235e-01
3.348697e-01
3.355166e-01
3.361641e-01
3.368122e-01
3.374610e-01
3.381102e-01
3.387597e-01
3.394094e-01
3.400595e-01
3.407102e-01
3.413616e-01
3.420137e-01
3.426663e-01
3.433195e-01
3.439733e-01
3.446278e-01
3.452828e-01
3.459384e-01
3.465944e-01
3.472503e-01
3.479043e-01
3.485528e-01
3.491918e-01
3.498185e-01
3.504318e-01
3.510300e-01
3.516061e-01
3.521455e-01
3.526286e-01
3.530373e-01
3.533624e-01
3.536063e-01
3.537807e-01
3.539015e-01
3.539857e-01
3.540527e-01
3.541307e-01
3.542599e-01
3.544856e-01
3.548375e-01
3.553098e-01
3.558615e-01
3.564401e-01
3.570035e-01
3.575174e-01
3.579328e-01
3.581713e-01
3.581365e-01
3.577463e-01
3.569692e-01
3.558426e-01
3.544537e-01
3.528887e-01
3.511893e-01
3.493646e-01
3.474514e-01
3.455578e-01
3.438381e-01
3.424181e-01
3.413349e-01
3.405435e-01
3.399814e-01
3.396306e-01
3.395059e-01
3.395593e-01
3.395893e-01
3.392835e-01
3.384048e-01
3.369580e-01
3.351748e-01
3.333571e-01
3.317491e-01
3.305201e-01
3.297955e-01
3.296336e-01
3.299465e-01
3.304687e-01
3.308404e-01
3.307363e-01
3.299357e-01
3.283261e-01
3.259249e-01
3.229601e-01
3.199308e-01
3.175074e-01
3.162535e-01
3.163588e-01
3.175882e-01
3.194369e-01
3.213233e-01
3.227192e-01
3.232541e-01
3.228209e-01
3.216226e-01
3.200971e-01
3.187367e-01
3.179022e-01
3.177298e-01
3.181253e-01
3.187621e-01
3.191011e-01
3.185531e-01
3.167882e-01
3.139937e-01
3.108458e-01
3.081838e-01
3.065963e-01
3.061836e-01
3.066304e-01
3.074898e-01
3.084269e-01
3.092710e-01
3.099443e-01
3.104129e-01
3.107121e-01
3.109700e-01
3.113412e-01
3.118700e-01
3.124190e-01
3.127716e-01
3.128513e-01
3.128475e-01
3.131062e-01
3.138798e-01
3.151806e-01
3.168408e-01
3.186352e-01
3.203261e-01
3.216695e-01
3.224756e-01
3.227048e-01
3.224972e-01
3.220923e-01
3.217071e-01
3.214624e-01
3.213922e-01
3.214981e-01
3.217862e-01
3.222524e-01
3.228385e-01
3.234286e-01
3.239173e-01
3.242823e-01
3.245791e-01
3.248583e-01
3.250970e-01
3.252285e-01
3.252611e-01
3.253711e-01
3.258379e-01
3.268319e-01
3.282397e-01
3.297376e-01
3.310933e-01
3.324122e-01
3.340420e-01
3.361920e-01
3.386495e-01
3.408888e-01
3.424498e-01
3.431998e-01
3.432668e-01
3.428174e-01
3.419831e-01
3.409705e-01
3.401309e-01
3.398284e-01
3.402062e-01
3.410718e-01
3.420142e-01
3.426569e-01
3.428483e-01
3.426679e-01
3.423088e-01
3.419758e-01
3.418448e-01
3.420257e-01
3.425006e-01
3.430954e-01
3.435483e-01
3.436702e-01
3.435012e-01
3.433274e-01
3.435046e-01
3.442080e-01
3.453314e-01
3.466258e-01
3.479215e-01
3.492080e-01
3.505143e-01
3.517413e-01
3.526192e-01
3.528230e-01
3.521509e-01
3.506471e-01
3.485994e-01
3.464156e-01
3.444615e-01
3.429733e-01
3.420589e-01
3.416853e-01
3.416149e-01
3.414100e-01
3.406319e-01
3.391323e-01
3.371824e-01
3.353047e-01
3.339222e-01
3.330945e-01
3.325625e-01
3.320714e-01
3.316782e-01
3.317393e-01
3.325904e-01
3.342540e-01
3.364427e-01
3.387830e-01
3.409837e-01
3.428171e-01
3.440190e-01
3.442931e-01
3.434610e-01
3.416194e-01
3.391306e-01
3.364394e-01
3.338941e-01
3.317076e-01
3.299989e-01
3.287716e-01
3.278204e-01
3.267110e-01
3.249490e-01
3.222567e-01
3.187369e-01
3.147896e-01
3.108724e-01
3.073123e-01
3.042688e-01
3.017754e-01
2.997698e-01
2.981172e-01
2.966945e-01
2.955239e-01
2.948357e-01
2.949520e-01
2.960374e-01
2.979171e-01
3.001302e-01
3.021713e-01
3.037033e-01
3.045850e-01
3.047779e-01
3.042950e-01
3.032369e-01
3.018020e-01
3.001934e-01
2.985136e-01
2.967853e-01
2.950676e-01
2.934944e-01
2.921601e-01
2.909894e-01
2.897586e-01
2.882595e-01
2.864355e-01
2.843685e-01
2.821804e-01
2.800052e-01
2.780575e-01
2.766566e-01
2.760920e-01
2.764093e-01
2.773045e-01
2.782159e-01
2.785252e-01
2.777169e-01
2.754610e-01
2.717125e-01
2.668529e-01
2.617060e-01
2.572656e-01
2.542501e-01
2.527893e-01
2.524379e-01
2.524696e-01
2.522422e-01
2.514277e-01
2.500368e-01
2.483029e-01
2.465019e-01
2.447751e-01
2.430598e-01
2.412273e-01
2.393549e-01
2.378695e-01
2.373631e-01
2.382008e-01
2.402610e-01
2.430330e-01
2.459452e-01
2.486134e-01
2.508641e-01
2.526625e-01
2.541179e-01
2.555481e-01
2.574231e-01
2.601072e-01
2.635845e-01
2.674479e-01
2.711657e-01
2.743133e-01
2.765543e-01
2.775185e-01
2.768376e-01
2.743580e-01
2.702917e-01
2.651193e-01
2.593643e-01
2.535172e-01
2.481401e-01
2.438711e-01
2.411518e-01
2.398877e-01
2.394183e-01
2.388852e-01
2.376947e-01
2.357085e-01
2.331068e-01
2.301700e-01
2.271778e-01
2.243960e-01
2.220272e-01
2.201002e-01
2.183806e-01
2.163894e-01
2.135491e-01
2.094203e-01
2.039306e-01
1.974911e-01
1.909196e-01
1.851324e-01
1.807227e-01
1.777255e-01
1.757578e-01
1.743553e-01
1.731437e-01
1.717517e-01
1.697068e-01
1.665079e-01
1.617919e-01
1.554055e-01
1.473358e-01
1.376096e-01
1.262588e-01
1.133525e-01
9.905616e-02
8.366254e-02
6.752668e-02
5.090116e-02
3.379693e-02
1.605274e-02
-2.356016e-03
-2.100215e-02
-3.898587e-02
-5.525097e-02
-6.899902e-02
-7.997021e-02
-8.857904e-02
-9.596405e-02
-1.038167e-01
-1.138114e-01
-1.268302e-01
-1.425396e-01
-1.596470e-01
-1.765698e-01
-1.920717e-01
-2.056278e-01
-2.173989e-01
-2.278457e-01
-2.372692e-01
-2.456197e-01
-2.526361e-01
-2.580919e-01
-2.619605e-01
-2.644811e-01
-2.660925e-01
-2.671847e-01
-2.678152e-01
-2.677350e-01
-2.668262e-01
-2.655353e-01
-2.648069e-01
-2.655666e-01
-2.682863e-01
-2.729534e-01
-2.792055e-01
-2.863239e-01
-2.932015e-01
-2.986076e-01
-3.017492e-01
-3.027187e-01
-3.024345e-01
-3.020995e-01
-3.026029e-01
-3.042673e-01
-3.069418e-01
-3.101761e-01
-3.133809e-01
-3.160970e-01
-3.183196e-01
-3.205953e-01
-3.237560e-01
-3.285685e-01
-3.356210e-01
-3.453688e-01
-3.580198e-01
-3.732030e-01
-3.897763e-01
-4.061317e-01
-4.208826e-01
-4.334411e-01
-4.441056e-01
-4.536628e-01
-4.627548e-01
-4.713446e-01
-4.786332e-01
-4.835614e-01
-4.855942e-01
-4.852009e-01
-4.836667e-01
-4.824407e-01
-4.825411e-01
-4.843912e-01
-4.880780e-01
-4.937037e-01
-5.014739e-01
-5.114551e-01
-5.231874e-01
-5.353797e-01
-5.459450e-01
-5.525549e-01
-5.535384e-01
-5.486144e-01
-5.389893e-01
-5.267658e-01
-5.140734e-01
-5.025030e-01
-4.930800e-01
-4.865060e-01
-4.832421e-01
-4.832670e-01
-4.857753e-01
-4.893591e-01
-4.928277e-01
-4.959780e-01
-4.994561e-01
-5.037227e-01
-5.081091e-01
-5.109147e-01
-5.104902e-01
-5.063744e-01
-4.996244e-01
-4.922427e-01
-4.862008e-01
-4.826624e-01
-4.817584e-01
-4.828279e-01
-4.847790e-01
-4.864300e-01
-4.868849e-01
-4.858410e-01
-4.836112e-01
-4.808851e-01
-4.784837e-01
-4.771911e-01
-4.775259e-01
-4.795199e-01
-4.827950e-01
-4.869616e-01
-4.919072e-01
-4.975837e-01
-5.035212e-01
-5.087479e-01
-5.124078e-01
-5.144923e-01
-5.158803e-01
-5.176445e-01
-5.203249e-01
-5.237799e-01
-5.275531e-01
-5.312455e-01
-5.345734e-01
-5.372859e-01
-5.392896e-01
-5.409826e-01
-5.434366e-01
-5.481648e-01
-5.566091e-01
-5.696125e-01
-5.869864e-01
-6.072863e-01
-6.280069e-01
-6.462520e-01
-6.596076e-01
-6.667667e-01
-6.676127e-01
-6.629224e-01
-6.541203e-01
-6.432139e-01
-6.326378e-01
-6.248109e-01
-6.214824e-01
-6.231560e-01
-6.290205e-01
-6.376055e-01
-6.477240e-01
-6.588338e-01
-6.704769e-01
-6.815099e-01
-6.901060e-01
-6.947117e-01
-6.951772e-01
-6.930977e-01
-6.910801e-01
-6.914190e-01
-6.949932e-01
-7.010447e-01
-7.079245e-01
-7.141813e-01
-7.191503e-01
-7.227764e-01
-7.251534e-01
-7.263449e-01
-7.265590e-01
-7.263424e-01
-7.264986e-01
-7.277597e-01
-7.304760e-01
-7.345048e-01
-7.392626e-01
-7.438668e-01
-7.474070e-01
-7.493573e-01
-7.499280e-01
-7.500237e-01
-7.506864e-01
-7.523641e-01
-7.546372e-01
-7.567134e-01
-7.582175e-01
-7.594032e-01
-7.605676e-01
-7.614207e-01
-7.612087e-01
-7.594753e-01
-7.566033e-01
-7.535990e-01
-7.514430e-01
-7.506734e-01
-7.514605e-01
-7.539292e-01
-7.584304e-01
-7.655744e-01
-7.759477e-01
-7.896543e-01
-8.060109e-01
-8.236394e-01
-8.409497e-01
-8.567807e-01
-8.708587e-01
-8.837913e-01
-8.965958e-01
-9.101510e-01
-9.250243e-01
-9.416964e-01
-9.606986e-01
-9.822762e-01
-1.005872e+00
-1.030027e+00
-1.052798e+00
-1.072288e+00
-1.087064e+00
-1.096589e+00
-1.101661e+00
-1.104423e+00
-1.107602e+00
-1.113242e+00
-1.121712e+00
-1.131852e+00
-1.142096e+00
-1.151423e+00
-1.159296e+00
-1.165062e+00
-1.167904e+00
-1.167550e+00
-1.164838e+00
-1.161340e+00
-1.158380e+00
-1.156477e+00
-1.155647e+00
-1.155979e+00
-1.157768e+00
-1.161089e+00
-1.165291e+00
-1.169032e+00
-1.170978e+00
-1.170566e+00
-1.168143e+00
-1.164485e+00
-1.160365e+00
-1.156648e+00
-1.154655e+00
-1.156090e+00
-1.162229e+00
-1.172944e+00
-1.186539e+00
-1.200729e+00
-1.213997e+00
-1.226178e+00
-1.237924e+00
-1.249737e+00
-1.261555e+00
-1.273091e+00
-1.284236e+00
-1.294937e+00
-1.304768e+00
-1.312888e+00
-1.318629e+00
-1.322045e+00
-1.323802e+00
-1.324637e+00
-1.325043e+00
-1.325371e+00
-1.325991e+00
-1.327219e+00
-1.329108e+00
-1.331415e+00
-1.333852e+00
-1.336490e+00
-1.340021e+00
-1.345559e+00
-1.353938e+00
-1.364982e+00
-1.377345e+00
-1.389104e+00
-1.398582e+00
-1.404805e+00
-1.407526e+00
-1.407181e+00
-1.404898e+00
-1.402327e+00
-1.401194e+00
-1.402818e+00
-1.407863e+00
-1.416373e+00
-1.428030e+00
-1.442491e+00
-1.459572e+00
-1.479098e+00
-1.500549e+00
-1.522883e+00
-1.544820e+00
-1.565421e+00
-1.584544e+00
-1.602814e+00
-1.621078e+00
-1.639640e+00
-1.657746e+00
-1.673746e+00
-1.685919e+00
-1.693386e+00
-1.696462e+00
-1.696238e+00
-1.693737e+00
-1.689173e+00
-1.681731e+00
-1.670034e+00
-1.653106e+00
-1.631301e+00
-1.606437e+00
-1.580883e+00
-1.556209e+00
-1.532503e+00
-1.508911e+00
-1.484755e+00
-1.460123e+00
-1.435448e+00
-1.410703e+00
-1.385151e+00
-1.357886e+00
-1.328628e+00
-1.298068e+00
-1.267573e+00
-1.238575e+00
-1.212116e+00
-1.188728e+00
-1.168438e+00
-1.150795e+00
-1.135064e+00
-1.120683e+00
-1.107688e+00
-1.096639e+00
-1.088062e+00
-1.081905e+00
-1.077564e+00
-1.074432e+00
-1.072443e+00
-1.072044e+00
-1.073570e+00
-1.076558e+00
-1.079609e+00
-1.080937e+00
-1.079109e+00
-1.073406e+00
-1.063727e+00
-1.050496e+00
-1.034751e+00
-1.018133e+00
-1.002488e+00
-9.892057e-01
-9.787515e-01
-9.706797e-01
-9.640475e-01
-9.577680e-01
-9.506457e-01
-9.413704e-01
-9.289133e-01
-9.132501e-01
-8.957645e-01
-8.787908e-01
-8.644445e-01
-8.535529e-01
-8.454512e-01
-8.386226e-01
-8.314658e-01
-8.226830e-01
-8.114246e-01
-7.974585e-01
-7.813319e-01
-7.643032e-01
-7.479642e-01
-7.337368e-01
-7.225419e-01
-7.147742e-01
-7.104600e-01
-7.094041e-01
-7.112469e-01
-7.154613e-01
-7.213902e-01
-7.283920e-01
-7.360109e-01
-7.439801e-01
-7.519874e-01
-7.594064e-01
-7.653278e-01
-7.689766e-01
-7.701564e-01
-7.692971e-01
-7.671029e-01
-7.641449e-01
-7.606710e-01
-7.566377e-01
-7.518331e-01
-7.460000e-01
-7.389005e-01
-7.303053e-01
-7.199675e-01
-7.076931e-01
-6.935274e-01
-6.779039e-01
-6.615955e-01
-6.454885e-01
-6.303266e-01
-6.165730e-01
-6.044821e-01
-5.943360e-01
-5.866328e-01
-5.820151e-01
-5.809688e-01
-5.835386e-01
-5.892393e-01
-5.971305e-01
-6.059541e-01
-6.143269e-01
-6.209889e-01
-6.249853e-01
-6.257077e-01
-6.228783e-01
-6.165463e-01
-6.070643e-01
-5.950565e-01
-5.814330e-01
-5.674551e-01
-5.547337e-01
-5.449664e-01
-5.393763e-01
-5.381602e-01
-5.403242e-01
-5.439838e-01
-5.469583e-01
-5.474306e-01
-5.444440e-01
-5.380800e-01
-5.293039e-01
-5.195605e-01
-5.102709e-01
-5.024421e-01
-4.964903e-01
-4.922389e-01
-4.890785e-01
-4.862936e-01
-4.834190e-01
-4.804095e-01
-4.775797e-01
-4.754756e-01
-4.747632e-01
-4.760712e-01
-4.797766e-01
-4.857922e-01
-4.934053e-01
-5.012796e-01
-5.077793e-01
-5.115920e-01
-5.123333e-01
-5.107521e-01
-5.083835e-01
-5.068099e-01
-5.069276e-01
-5.086550e-01
-5.112229e-01
-5.137583e-01
-5.157651e-01
-5.173184e-01
-5.189923e-01
-5.215918e-01
-5.257592e-01
-5.316048e-01
-5.385612e-01
-5.455658e-01
-5.514967e-01
-5.556210e-01
-5.577944e-01
-5.583618e-01
-5.579447e-01
-5.572649e-01
-5.569697e-01
-5.574190e-01
-5.585355e-01
-5.598471e-01
-5.606862e-01
-5.603987e-01
-5.584570e-01
-5.544826e-01
-5.482626e-01
-5.398225e-01
-5.295180e-01
-5.180346e-01
-5.062181e-01
-4.947906e-01
-4.841382e-01
-4.743186e-01
-4.652297e-01
-4.567376e-01
-4.486783e-01
-4.408209e-01
-4.328845e-01
-4.246233e-01
-4.159550e-01
-4.070459e-01
-3.982587e-01
-3.899615e-01
-3.823267e-01
-3.752850e-01
-3.686747e-01
-3.624683e-01
-3.568688e-01
-3.521407e-01
-3.482656e-01
-3.447423e-01
-3.408106e-01
-3.359900e-01
-3.304441e-01
-3.247971e-01
-3.195964e-01
-3.149932e-01
-3.109009e-01
-3.072756e-01
-3.040498e-01
-3.007617e-01
-2.964053e-01
-2.898994e-01
-2.808928e-01
-2.701453e-01
-2.590695e-01
-2.488673e-01
-2.400098e-01
-2.323750e-01
-2.257633e-01
-2.202295e-01
-2.158716e-01
-2.123021e-01
-2.084150e-01
-2.028192e-01
-1.946627e-01
-1.841958e-01
-1.726534e-01
-1.616080e-01
-1.523223e-01
-1.454953e-01
-1.413467e-01
-1.397606e-01
-1.403649e-01
-1.426076e-01
-1.458518e-01
-1.494358e-01
-1.526706e-01
-1.548500e-01
-1.554086e-01
-1.542445e-01
-1.519767e-01
-1.498238e-01
-1.490596e-01
-1.503713e-01
-1.535837e-01
-1.579429e-01
-1.626818e-01
-1.673819e-01
-1.719316e-01
-1.763038e-01
-1.804410e-01
-1.843104e-01
-1.879826e-01
-1.915708e-01
-1.950274e-01
-1.980010e-01
-1.999672e-01
-2.006218e-01
-2.002287e-01
-1.995960e-01
-1.996755e-01
-2.011164e-01
-2.041074e-01
-2.085344e-01
-2.142109e-01
-2.209263e-01
-2.282938e-01
-2.356090e-01
-2.419204e-01
-2.463281e-01
-2.483635e-01
-2.482497e-01
-2.468898e-01
-2.456179e-01
-2.459113e-01
-2.491137e-01
-2.560431e-01
-2.665334e-01
-2.792537e-01
-2.920805e-01
-3.029361e-01
-3.106402e-01
-3.152592e-01
-3.178025e-01
-3.195998e-01
-3.218198e-01
-3.252716e-01
-3.303263e-01
-3.368015e-01
-3.438733e-01
-3.502494e-01
-3.547233e-01
-3.568549e-01
-3.572438e-01
-3.571419e-01
-3.577542e-01
-3.597564e-01
-3.632159e-01
-3.677591e-01
-3.727432e-01
-3.773163e-01
-3.804786e-01
-3.813538e-01
-3.796659e-01
-3.760784e-01
-3.720340e-01
-3.691355e-01
-3.684799e-01
-3.703501e-01
-3.743583e-01
-3.797962e-01
-3.858921e-01
-3.918964e-01
-3.971250e-01
-4.010700e-01
-4.035744e-01
-4.049678e-01
-4.060089e-01
-4.075973e-01
-4.104448e-01
-4.148906e-01
-4.208352e-01
-4.277212e-01
-4.346071e-01
-4.404087e-01
-4.442194e-01
-4.455256e-01
-4.442269e-01
-4.405224e-01
-4.348119e-01
-4.277055e-01
-4.200978e-01
-4.131635e-01
-4.081562e-01
-4.060179e-01
-4.069931e-01
-4.105195e-01
-4.154825e-01
-4.206389e-01
-4.249384e-01
-4.276253e-01
-4.282003e-01
-4.263792e-01
-4.220802e-01
-4.153946e-01
-4.065590e-01
-3.960080e-01
-3.844609e-01
-3.728677e-01
-3.621689e-01
-3.530309e-01
-3.457351e-01
-3.402273e-01
-3.361893e-01
-3.330431e-01
-3.299329e-01
-3.257775e-01
-3.194664e-01
-3.101870e-01
-2.977179e-01
-2.824782e-01
-2.652967e-01
-2.470827e-01
-2.285772e-01
-2.102332e-01
-1.922292e-01
-1.746121e-01
-1.574880e-01
-1.411516e-01
-1.260821e-01
-1.127904e-01
