EVENT_NAME: EMILIA_2ND_SHOCK
EVENT_ID: IT-2012-0011
EVENT_DATE_YYYYMMDD: 20120529
EVENT_TIME_HHMMSS: 070002
EVENT_LATITUDE_DEGREE: 44.8417
EVENT_LONGITUDE_DEGREE: 11.0657
EVENT_DEPTH_KM: 8.1
HYPOCENTER_REFERENCE: INGV-CNT_Seismic_Bulletin
MAGNITUDE_W: 6.0
MAGNITUDE_W_REFERENCE: RCMT-INGV
MAGNITUDE_L: 5.8
MAGNITUDE_L_REFERENCE: INGV-CNT_Seismic_Bulletin
FOCAL_MECHANISM: TF
NETWORK: IV
STATION_CODE: T0800
STATION_NAME: T0800
STATION_LATITUDE_DEGREE: 44.848600
STATION_LONGITUDE_DEGREE: 11.247900
STATION_ELEVATION_M: 9
LOCATION: 
SENSOR_DEPTH_M: 1.0
VS30_M/S: 
SITE_CLASSIFICATION_EC8: C*
MORPHOLOGIC_CLASSIFICATION: 
EPICENTRAL_DISTANCE_KM: 14.4
EARTHQUAKE_BACKAZIMUTH_DEGREE: 267.0
DATE_TIME_FIRST_SAMPLE_YYYYMMDD_HHMMSS: 20120529_065949.000
DATE_TIME_FIRST_SAMPLE_PRECISION: milliseconds
SAMPLING_INTERVAL_S: 0.005000
NDATA: 20001
DURATION_S: 100.005
STREAM: HNN
UNITS: cm/s
INSTRUMENT: sensor = Episensor FBA ES-T [Kinemetrics] | digitizer = Unknown [Unknown]
INSTRUMENT_ANALOG/DIGITAL: D
INSTRUMENTAL_FREQUENCY_HZ: 
INSTRUMENTAL_DAMPING: 
FULL_SCALE_G: 
N_BIT_DIGITAL_CONVERTER: 
PGV_CM/S: -19.196118
TIME_PGV_S: 24.015000
BASELINE_CORRECTION: BASELINE REMOVED
FILTER_TYPE: BUTTERWORTH
FILTER_ORDER: 2
LOW_CUT_FREQUENCY_HZ: 0.070
HIGH_CUT_FREQUENCY_HZ: 40.000
LATE/NORMAL_TRIGGERED: NT
DATABASE_VERSION: DYNA 1.0
HEADER_FORMAT: DYNA 1.2
DATA_TYPE: VELOCITY
PROCESSING: manual (Paolucci et al., 2011)
DATA_TIMESTAMP_YYYYMMDD_HHMMSS: 
DATA_LICENSE: CC-BY4_0 (http://creativecommons.org/licenses/by/4.0/)
DATA_CITATION: ESM working group (2015), European Strong-Motion database, version 0.1, Network Activity 3: Networking acceleration networks and SM data users. Project NERA (www.nera-eu.org)
DATA_CREATOR: ESM working group
ORIGINAL_DATA_MEDIATOR_CITATION: Orfeus - European Integrated Data Archive (EIDA) http://www.orfeus-eu.org/eida/
ORIGINAL_DATA_MEDIATOR: Orfeus - European Integrated Data Archive (EIDA)
ORIGINAL_DATA_CREATOR_CITATION: Data for this study comes from the Italian national seismic network operated by Istituto Nazionale di Geofisica e Vulcanologia and archived at the European Integrated Data Archive http://eida.rm.ingv.it/
ORIGINAL_DATA_CREATOR: network: IV (Italian National Seismic Network); owner: Istituto Nazionale di Geofisica e Vulcanologia
USER1: 
USER2: 
USER3: 
USER4: 
USER5: 
[...]
0.039910
0.040054
0.040214
0.040352
0.040457
0.040551
0.040662
0.040796
0.040921
0.040988
0.040965
0.040869
0.040778
0.040783
0.040902
0.041049
0.041076
0.040915
0.040695
0.040630
0.040762
0.040891
0.040795
0.040427
0.039978
0.039718
0.039730
0.039850
0.039837
0.039609
0.039362
0.039421
0.039885
0.040464
0.040652
0.040177
0.039406
0.039071
0.039483
0.040287
0.040939
0.041224
0.041444
0.042120
0.043440
0.045090
0.046526
0.047310
0.047338
0.046951
0.046815
0.047405
0.048421
0.049066
0.048990
0.048542
0.048138
0.047733
0.046871
0.045263
0.043387
0.042147
0.041850
0.041944
0.041731
0.040960
0.039925
0.039251
0.039463
0.040474
0.041314
0.040820
0.038883
0.036668
0.035576
0.036181
0.037892
0.039724
0.041510
0.043774
0.046503
0.048900
0.050376
0.051097
0.051619
0.052324
0.053133
0.053739
0.054117
0.054571
0.055259
0.055816
0.055444
0.053633
0.050986
0.048895
0.048145
0.048096
0.047238
0.044992
0.043306
0.045117
0.050595
0.056302
0.058082
0.054255
0.046963
0.040378
0.037053
0.036407
0.036107
0.034268
0.031194
0.029546
0.032751
0.042350
0.055797
0.067665
0.073743
0.073571
0.069914
0.066130
0.063274
0.060022
0.055084
0.048626
0.041918
0.036661
0.034467
0.036043
0.040288
0.044631
0.046728
0.046145
0.044906
0.045799
0.049439
0.053567
0.054981
0.051705
0.044214
0.035307
0.028759
0.027406
0.031439
0.038471
0.045414
0.050523
0.054487
0.059486
0.066870
0.075988
0.084629
0.089915
0.089369
0.082401
0.071481
0.060913
0.053629
0.049479
0.046135
0.041605
0.036608
0.033977
0.035579
0.040608
0.046374
0.050293
0.051800
0.052503
0.054391
0.057570
0.059147
0.055485
0.046355
0.035447
0.026897
0.022640
0.022584
0.026809
0.037389
0.056011
0.079256
0.099357
0.110488
0.112591
0.110016
0.107155
0.104204
0.097662
0.084936
0.067366
0.049795
0.037890
0.034650
0.038444
0.043567
0.043623
0.036183
0.024350
0.014304
0.011146
0.015360
0.023150
0.030153
0.034348
0.036616
0.039413
0.044597
0.052283
0.060968
0.068217
0.071742
0.071052
0.068991
0.070990
0.081672
0.100886
0.121629
0.133542
0.130403
0.113883
0.091305
0.070041
0.052304
0.035964
0.020221
0.008090
0.003844
0.009272
0.021687
0.036082
0.049677
0.062847
0.075832
0.085971
0.088068
0.078553
0.060765
0.044499
0.039425
0.048625
0.066230
0.081881
0.089276
0.089615
0.088124
0.088453
0.088962
0.084938
0.074850
0.062499
0.053446
0.050191
0.049715
0.046671
0.039859
0.033683
0.033590
0.041550
0.054551
0.066811
0.074019
0.075405
0.072882
0.069162
0.065956
0.063100
0.059112
0.053371
0.048382
0.048439
0.055482
0.067765
0.082317
0.097544
0.113666
0.130020
0.141570
0.140577
0.123083
0.092996
0.060861
0.037953
0.028978
0.030283
0.034318
0.035298
0.032788
0.030582
0.032312
0.039177
0.050544
0.064483
0.077688
0.086712
0.090423
0.091003
0.092488
0.097748
0.105702
0.112004
0.112708
0.106712
0.096030
0.085214
0.079871
0.083055
0.091376
0.096554
0.091994
0.077052
0.056363
0.035747
0.017832
0.002473
-0.009242
-0.014470
-0.011757
-0.001730
0.015165
0.038780
0.066735
0.093871
0.114834
0.127030
0.131683
0.131297
0.125838
0.114034
0.098610
0.086593
0.083676
0.089670
0.098127
0.099932
0.088909
0.065209
0.035124
0.007736
-0.010023
-0.016271
-0.013736
-0.006491
0.003954
0.018657
0.037656
0.057880
0.074201
0.082186
0.080884
0.073290
0.064363
0.058535
0.058122
0.063919
0.076852
0.097223
0.121913
0.143952
0.155589
0.152564
0.137196
0.117130
0.100498
0.092179
0.092524
0.097688
0.101508
0.099284
0.091654
0.083499
0.078484
0.075967
0.072438
0.065459
0.057045
0.052098
0.053178
0.058601
0.064914
0.069424
0.071182
0.071081
0.071262
0.073366
0.076489
0.077653
0.074568
0.067226
0.057194
0.045736
0.032566
0.017558
0.003757
-0.003971
-0.003906
0.001295
0.008054
0.014770
0.022174
0.032070
0.045392
0.060507
0.072553
0.075213
0.064846
0.044390
0.024242
0.016599
0.026306
0.048918
0.076743
0.104049
0.128149
0.147697
0.160474
0.163588
0.155802
0.138843
0.116957
0.095804
0.080967
0.075706
0.078916
0.086068
0.092821
0.097436
0.100490
0.102557
0.101791
0.094924
0.081032
0.063109
0.046111
0.033760
0.026524
0.023502
0.026360
0.038734
0.061110
0.088119
0.110801
0.122116
0.122202
0.117343
0.113460
0.111799
0.109284
0.101581
0.086545
0.065034
0.039433
0.012928
-0.010066
-0.024450
-0.026557
-0.016330
0.002236
0.024268
0.048480
0.075871
0.103472
0.122423
0.123339
0.104912
0.079613
0.066875
0.077194
0.104928
0.134215
0.150379
0.149948
0.141018
0.134591
0.135956
0.141077
0.140974
0.131254
0.116869
0.108721
0.114436
0.129594
0.140984
0.139450
0.125554
0.104780
0.081404
0.055921
0.027325
-0.002148
-0.025663
-0.034630
-0.022613
0.010992
0.058458
0.104749
0.135758
0.148939
0.151630
0.148666
0.137871
0.117225
0.092662
0.078977
0.089669
0.122346
0.158287
0.176520
0.165189
0.124527
0.064764
0.001206
-0.052419
-0.090224
-0.114452
-0.129849
-0.138276
-0.136799
-0.120523
-0.087845
-0.042003
0.011143
0.064223
0.108287
0.135832
0.145762
0.142942
0.132545
0.117203
0.098621
0.079272
0.062306
0.050425
0.045055
0.047167
0.058428
0.079202
0.105283
0.130293
0.151866
0.170888
0.184614
0.186292
0.172406
0.146767
0.118050
0.094834
0.082069
0.082381
0.099015
0.131719
0.168877
0.191670
0.189526
0.168340
0.146055
0.142138
0.166635
0.215532
0.273570
0.322024
0.348199
0.350210
0.334955
0.310683
0.278578
0.232628
0.167646
0.085947
-0.001045
-0.076264
-0.124100
-0.137536
-0.122055
-0.091557
-0.058669
-0.029675
-0.005709
0.015379
0.038016
0.066445
0.100590
0.133781
0.154815
0.155411
0.138705
0.117799
0.105394
0.107632
0.125230
0.156102
0.196469
0.240442
0.279465
0.304034
0.307441
0.288594
0.252463
0.207713
0.162653
0.122615
0.089499
0.062546
0.039518
0.017614
-0.005511
-0.029923
-0.051986
-0.066626
-0.072109
-0.070980
-0.066059
-0.055799
-0.032345
0.014519
0.089371
0.186604
0.291550
0.385138
0.449418
0.470639
0.441462
0.366849
0.269658
0.182270
0.126007
0.098690
0.079093
0.046298
0.001405
-0.034578
-0.043944
-0.025274
0.011829
0.057208
0.106585
0.158137
0.203814
0.229728
0.226340
0.195966
0.152738
0.116278
0.102011
0.113928
0.142797
0.172149
0.189140
0.190490
0.180820
0.166712
0.150864
0.132794
0.114598
0.102406
0.101355
0.109502
0.116074
0.109839
0.092608
0.080305
0.089399
0.122446
0.162332
0.182995
0.170119
0.129446
0.079043
0.038255
0.019949
0.028556
0.062520
0.117284
0.187441
0.267541
0.351258
0.429096
0.487341
0.513538
0.505389
0.470651
0.418055
0.352052
0.275521
0.195824
0.128266
0.089563
0.085767
0.110945
0.156145
0.212142
0.263913
0.290005
0.272083
0.209764
0.129994
0.072836
0.060727
0.086252
0.125139
0.154978
0.167538
0.167277
0.161037
0.154191
0.153358
0.163069
0.176830
0.177391
0.148647
0.087641
0.009434
-0.060219
-0.100797
-0.107958
-0.094380
-0.080875
-0.082177
-0.097968
-0.112776
-0.103985
-0.054002
0.042247
0.176219
0.328629
0.476582
0.605952
0.722509
0.844864
0.981852
1.119936
1.230786
1.294272
1.320384
1.338651
1.361851
1.371156
1.334297
1.234371
1.089155
0.939434
0.815807
0.724541
0.658785
0.610815
0.574605
0.540760
0.491201
0.405143
0.273684
0.106038
-0.076183
-0.248246
-0.390346
-0.491644
-0.550078
-0.569063
-0.553440
-0.509430
-0.448123
-0.386409
-0.343077
-0.331506
-0.352827
-0.397006
-0.451263
-0.506789
-0.560068
-0.609213
-0.648821
-0.670752
-0.671418
-0.658385
-0.649895
-0.661276
-0.686274
-0.698234
-0.672345
-0.605155
-0.518632
-0.444345
-0.398963
-0.379203
-0.375549
-0.378194
-0.371573
-0.335763
-0.258349
-0.143484
-0.011575
0.110188
0.200011
0.243507
0.227639
0.142703
-0.006622
-0.195907
-0.386434
-0.538177
-0.626302
-0.652801
-0.645572
-0.636806
-0.633395
-0.617381
-0.575675
-0.518170
-0.469505
-0.444039
-0.421902
-0.355625
-0.203160
0.049523
0.385956
0.766137
1.140279
1.471942
1.758903
2.020372
2.257967
2.441736
2.533432
2.519836
2.430124
2.309081
2.164321
1.956502
1.642203
1.219989
0.748038
0.311586
-0.041062
-0.328598
-0.614702
-0.956906
-1.357629
-1.766764
-2.130152
-2.423912
-2.653268
-2.826310
-2.924393
-2.906016
-2.742987
-2.449830
-2.087043
-1.732531
-1.437310
-1.208511
-1.027085
-0.876746
-0.767619
-0.737853
-0.833459
-1.081544
-1.468235
-1.937750
-2.416125
-2.848695
-3.231400
-3.598721
-3.975172
-4.344599
-4.654207
-4.840561
-4.863292
-4.725295
-4.471370
-4.163945
-3.847338
-3.531720
-3.203669
-2.848235
-2.466341
-2.067571
-1.649226
-1.201832
-0.738105
-0.299530
0.065061
0.316663
0.432984
0.421944
0.337536
0.266138
0.280845
0.399209
0.571031
0.718291
0.800230
0.822442
0.791441
0.695475
0.529050
0.316634
0.111352
-0.034737
-0.110228
-0.149994
-0.202618
-0.293209
-0.402368
-0.478044
-0.473970
-0.382722
-0.245873
-0.129479
-0.077254
-0.083419
-0.097222
-0.048835
0.116019
0.414161
0.824087
1.306449
1.832920
2.391970
2.970560
3.539448
4.052542
4.457368
4.711065
4.793085
4.710760
4.493971
4.179017
3.789637
3.328089
2.796387
2.234082
1.720218
1.335452
1.127996
1.101497
1.222887
1.440056
1.692835
1.918042
2.061340
2.092967
2.008090
1.813975
1.527311
1.180814
0.815233
0.458588
0.122451
-0.181412
-0.429889
-0.595652
-0.671356
-0.693345
-0.728136
-0.828122
-1.007563
-1.250290
-1.525717
-1.801037
-2.046920
-2.239098
-2.360356
-2.405202
-2.386612
-2.337917
-2.296473
-2.276840
-2.265569
-2.240812
-2.190291
-2.113616
-2.006730
-1.844400
-1.594237
-1.251674
-0.841582
-0.386638
0.103330
0.611532
1.099914
1.516222
1.817496
1.994762
2.072336
2.085625
2.069105
2.057937
2.081939
2.150800
2.251161
2.357385
2.438481
2.458633
2.383833
2.197035
1.910775
1.568824
1.230065
0.942239
0.729980
0.599679
0.544795
0.547044
0.579608
0.614066
0.626529
0.601160
0.531568
0.420232
0.275661
0.108679
-0.068549
-0.241556
-0.395869
-0.522554
-0.620978
-0.696143
-0.751977
-0.785869
-0.793541
-0.778987
-0.750188
-0.703960
-0.626384
-0.510242
-0.364450
-0.206673
-0.047141
0.123694
0.325005
0.559376
0.803466
1.021608
1.183793
1.277827
1.310493
1.299348
1.262406
1.210825
1.150173
1.086688
1.025896
0.963540
0.882467
0.761203
0.591138
0.391688
0.202270
0.054145
-0.048963
-0.131573
-0.233055
-0.387376
-0.607944
-0.881374
-1.171855
-1.436563
-1.648480
-1.815486
-1.971891
-2.146423
-2.341482
-2.535620
-2.701691
-2.826648
-2.910536
-2.948754
-2.926556
-2.830411
-2.658311
-2.422607
-2.148552
-1.869109
-1.613440
-1.393362
-1.202652
-1.030787
-0.877467
-0.757038
-0.683507
-0.647847
-0.622111
-0.588390
-0.553407
-0.538282
-0.559804
-0.615911
-0.686623
-0.747114
-0.777493
-0.767015
-0.719442
-0.656884
-0.608873
-0.590246
-0.591891
-0.590210
-0.563897
-0.508084
-0.434354
-0.358275
-0.288029
-0.218600
-0.131706
-0.004090
0.171649
0.363979
0.508093
0.541975
0.442153
0.239497
-0.000633
-0.223049
-0.410596
-0.582171
-0.769261
-0.984967
-1.210833
-1.407115
-1.536442
-1.587654
-1.578408
-1.538944
-1.500721
-1.494197
-1.543585
-1.656803
-1.821839
-2.013826
-2.208592
-2.394404
-2.568582
-2.724239
-2.850718
-2.947434
-3.027296
-3.105333
-3.188180
-3.272062
-3.349504
-3.419020
-3.486212
-3.557094
-3.635248
-3.723569
-3.821479
-3.917765
-3.990383
-4.016461
-3.985747
-3.908449
-3.804634
-3.681893
-3.529825
-3.335804
-3.102371
-2.852849
-2.615984
-2.400228
-2.190050
-1.966824
-1.727825
-1.490894
-1.283183
-1.122579
-1.011019
-0.940834
-0.900273
-0.875373
-0.854795
-0.837632
-0.835178
-0.864296
-0.938005
-1.059593
-1.227837
-1.447636
-1.727064
-2.062630
-2.435674
-2.823470
-3.209256
-3.583995
-3.941017
-4.269955
-4.561122
-4.816826
-5.051498
-5.279097
-5.503076
-5.714925
-5.900069
-6.048393
-6.163971
-6.269217
-6.396699
-6.572223
-6.805355
-7.091577
-7.419724
-7.778104
-8.152038
-8.517532
-8.846806
-9.123517
-9.346746
-9.520311
-9.642276
-9.703569
-9.699441
-9.645774
-9.578650
-9.535648
-9.537161
-9.577488
-9.630614
-9.666365
-9.662748
-9.609666
-9.504979
-9.346207
-9.124524
-8.823434
-8.422518
-7.904600
-7.261859
-6.499087
-5.633332
-4.690481
-3.700282
-2.690028
-1.677445
-0.665505
0.354150
1.389538
2.437612
3.480801
4.496098
5.471173
6.409230
7.319979
8.208729
9.070699
9.894448
10.670600
11.394630
12.062750
12.669220
13.206660
13.665490
14.031760
14.287740
14.416880
14.412070
14.283830
14.061310
13.786880
13.511810
13.293190
13.185120
13.223230
13.410750
13.712520
14.065110
14.398690
14.653580
14.787020
14.775760
14.617060
14.327130
13.935750
13.476860
12.978470
12.460050
11.936510
11.419630
10.915220
10.421830
9.933171
9.442081
8.943667
8.434828
7.911398
7.368242
6.802686
6.216561
5.614727
5.000550
4.371219
3.718838
3.036860
2.324509
1.585943
0.824209
0.033617
-0.801110
-1.698228
-2.671256
-3.723473
-4.846755
-6.024857
-7.239373
-8.475222
-9.720085
-10.960080
-12.180610
-13.369460
-14.507830
-15.551200
-16.424721
-17.046400
-17.377630
-17.474369
-17.475090
-17.526119
-17.713120
-18.032181
-18.412260
-18.769720
-19.042379
-19.192129
-19.196119
-19.037781
-18.703220
-18.183229
-17.479851
-16.613911
-15.625020
-14.563180
-13.478730
-12.413150
-11.392390
-10.424560
-9.505616
-8.631080
-7.802673
-7.024410
-6.288687
-5.563910
-4.808881
-4.008545
-3.191431
-2.416744
-1.744032
-1.202260
-0.783912
-0.462385
-0.206762
0.013421
0.226254
0.455195
0.718285
1.028652
1.392575
1.805060
2.247506
2.689669
3.096070
3.434123
3.677798
3.807176
3.809867
3.684467
3.440796
3.097149
2.680349
2.228106
1.786061
1.398046
1.095276
0.889720
0.777727
0.751077
0.802973
0.926577
1.111966
1.343967
1.600344
1.850135
2.054466
2.172430
2.174201
2.056090
1.841889
1.569151
1.273801
0.981321
0.709674
0.477892
0.303055
0.186247
0.106615
0.030076
-0.073093
-0.211519
-0.373347
-0.543177
-0.716581
-0.903796
-1.121291
-1.377256
-1.665668
-1.971335
-2.277662
-2.571076
-2.837659
-3.056958
-3.207539
-3.283330
-3.302783
-3.303879
-3.327904
-3.400699
-3.528224
-3.705945
-3.925987
-4.177942
-4.449364
-4.728367
-5.005912
-5.275629
-5.530362
-5.758612
-5.948373
-6.096608
-6.212478
-6.311663
-6.407963
-6.506881
-6.605779
-6.699287
-6.783008
-6.853180
-6.903748
-6.923510
-6.897841
-6.814641
-6.668995
-6.463466
-6.202660
-5.885133
-5.501181
-5.037673
-4.484079
-3.836123
-3.094723
-2.262185
-1.342042
-0.343594
0.713194
1.796138
2.866985
3.893757
4.860696
5.771285
6.641618
7.486754
8.309455
9.094905
9.811807
10.417740
10.864630
11.104900
11.102130
10.844580
10.351570
9.668799
8.854578
7.964472
7.049307
6.164336
5.369777
4.717702
4.235292
3.914342
3.719159
3.608454
3.549547
3.519519
3.500997
3.477432
3.430693
3.341183
3.190516
2.967125
2.674096
2.335292
1.990507
1.680514
1.433955
1.260963
1.153962
1.093344
1.053676
1.010310
0.948482
0.872676
0.807572
0.788907
0.849905
1.008411
1.262416
1.594832
1.982594
2.406083
2.853374
3.319146
3.802328
4.304442
4.829055
5.381002
5.962947
6.570704
7.193160
7.817181
8.432458
9.034208
9.623601
10.206300
10.789620
11.379190
11.976680
12.578060
13.170420
13.728100
14.213680
14.585590
14.810280
14.874270
14.786040
14.568420
14.251010
13.864750
13.434750
12.972800
12.477710
11.943350
11.365140
10.741620
10.073070
9.360339
8.607079
7.822339
7.014717
6.181555
5.310107
4.391214
3.429092
2.441467
1.453723
0.491825
-0.420002
-1.258033
-2.001330
-2.637460
-3.164470
-3.587986
-3.918324
-4.169429
-4.358397
-4.504415
-4.626218
-4.738580
-4.849963
-4.962269
-5.072828
-5.177591
-5.272832
-5.354611
-5.417136
-5.451852
-5.449945
-5.406863
-5.322958
-5.199782
-5.037360
-4.835359
-4.598663
-4.343371
-4.093790
-3.870974
-3.683913
-3.527722
-3.388051
-3.248599
-3.095698
-2.919140
-2.712171
-2.471907
-2.199994
-1.903068
-1.592231
-1.280622
-0.978305
-0.686754
-0.399060
-0.105286
0.204139
0.538090
0.902444
1.293461
1.689213
2.045863
2.311608
2.454103
2.476762
2.415378
2.319653
2.229588
2.165259
2.131206
2.122531
2.128282
2.134423
2.127758
2.099383
2.045986
1.967441
1.862930
1.731928
1.579615
1.419304
1.270224
1.154122
1.092345
1.103281
1.199272
1.382502
1.641746
1.954988
2.297483
2.648827
2.996456
3.335339
3.664743
3.984096
4.289451
4.572971
4.825836
5.042910
5.227135
5.389905
5.546980
5.712528
5.893431
6.087310
6.285544
6.480302
6.671285
6.863529
7.058942
7.255468
7.454166
7.660410
7.875046
8.082472
8.244577
8.312820
8.252462
8.053425
7.724646
7.287891
6.774143
6.214324
5.626555
5.015146
4.381033
3.727853
3.062015
2.397662
1.765820
1.212330
0.780456
0.488593
0.317118
0.224195
0.179039
0.168832
0.180053
0.195606
0.209428
0.223485
0.230504
0.223184
0.220881
0.254608
0.319199
0.374261
0.400542
0.433698
0.535001
0.706344
0.825203
0.744320
0.487797
0.249169
0.186008
0.298838
0.480111
0.627048
0.721376
0.789280
0.800198
0.692848
0.504923
0.374369
0.395943
0.539658
0.694892
0.763895
0.734459
0.661726
0.585073
0.495046
0.366961
0.190157
-0.033379
-0.303835
-0.633182
-1.032941
-1.489075
-1.958885
-2.396096
-2.779809
-3.125092
-3.453745
-3.748232
-3.959392
-4.063407
-4.086924
-4.080642
-4.081400
-4.092298
-4.101049
-4.115670
-4.158135
-4.222828
-4.271435
-4.271992
-4.224837
-4.155121
-4.087651
-4.024496
-3.951106
-3.862918
-3.772766
-3.694994
-3.635355
-3.594935
-3.575870
-3.581459
-3.609587
-3.645033
-3.662775
-3.640950
-3.568563
-3.443929
-3.269658
-3.048746
-2.785260
-2.487061
-2.163508
-1.820856
-1.467041
-1.122718
-0.819198
-0.581774
-0.416096
-0.305622
-0.220627
-0.132896
-0.023404
0.117735
0.291158
0.488586
0.701238
0.931240
1.187157
1.467799
1.761953
2.063937
2.376800
2.698429
3.011025
3.284934
3.497736
3.655584
3.788601
3.924980
4.080063
4.263575
4.478602
4.710854
4.932408
5.120334
5.264662
5.361643
5.410104
5.417349
5.406834
5.416022
5.471895
5.561346
5.645236
5.706591
5.762826
5.833482
5.916125
5.991108
6.044521
6.088634
6.149772
6.234661
6.326101
6.409495
6.484282
6.551012
6.601169
6.620977
6.603392
6.558387
6.507963
6.469810
6.450454
6.450293
6.466430
6.489863
6.504439
6.490556
6.431357
6.318624
6.154309
5.946945
5.705480
5.434129
5.134288
4.811913
4.480737
4.159026
3.864186
3.608622
3.399540
3.240568
3.129188
3.051646
2.985060
2.907166
2.804178
2.672878
2.517472
2.343642
2.154489
1.949442
1.725036
1.476760
1.201103
0.897079
0.566069
0.210492
-0.166619
-0.561471
-0.971191
-1.396650
-1.842129
-2.311209
-2.802436
-3.307358
-3.812976
-4.306401
-4.775037
-5.202724
-5.569326
-5.855584
-6.049180
-6.148689
-6.162124
-6.101561
-5.979793
-5.809471
-5.600677
-5.357008
-5.075113
-4.748546
