EVENT_NAME: EMILIA_2ND_SHOCK
EVENT_ID: IT-2012-0011
EVENT_DATE_YYYYMMDD: 20120529
EVENT_TIME_HHMMSS: 070002
EVENT_LATITUDE_DEGREE: 44.8417
EVENT_LONGITUDE_DEGREE: 11.0657
EVENT_DEPTH_KM: 8.1
HYPOCENTER_REFERENCE: INGV-CNT_Seismic_Bulletin
MAGNITUDE_W: 6.0
MAGNITUDE_W_REFERENCE: RCMT-INGV
MAGNITUDE_L: 5.8
MAGNITUDE_L_REFERENCE: INGV-CNT_Seismic_Bulletin
FOCAL_MECHANISM: TF
NETWORK: IV
STATION_CODE: T0812
STATION_NAME: T0812
STATION_LATITUDE_DEGREE: 44.954700
STATION_LONGITUDE_DEGREE: 11.181000
STATION_ELEVATION_M: 7
LOCATION: 
SENSOR_DEPTH_M: 1.0
VS30_M/S: 
SITE_CLASSIFICATION_EC8: C*
MORPHOLOGIC_CLASSIFICATION: 
EPICENTRAL_DISTANCE_KM: 15.5
EARTHQUAKE_BACKAZIMUTH_DEGREE: 216.0
DATE_TIME_FIRST_SAMPLE_YYYYMMDD_HHMMSS: 20120529_065952.000
DATE_TIME_FIRST_SAMPLE_PRECISION: milliseconds
SAMPLING_INTERVAL_S: 0.005000
NDATA: 30001
DURATION_S: 150.005
STREAM: HNN
UNITS: cm/s^2
INSTRUMENT: sensor = Episensor FBA ES-T [Kinemetrics] | digitizer = Unknown [Unknown]
INSTRUMENT_ANALOG/DIGITAL: D
INSTRUMENTAL_FREQUENCY_HZ: 
INSTRUMENTAL_DAMPING: 
FULL_SCALE_G: 
N_BIT_DIGITAL_CONVERTER: 
PGA_CM/S^2: -184.663904
TIME_PGA_S: 22.735000
BASELINE_CORRECTION: BASELINE REMOVED
FILTER_TYPE: BUTTERWORTH
FILTER_ORDER: 2
LOW_CUT_FREQUENCY_HZ: 0.060
HIGH_CUT_FREQUENCY_HZ: 40.000
LATE/NORMAL_TRIGGERED: NT
DATABASE_VERSION: DYNA 1.0
HEADER_FORMAT: DYNA 1.2
DATA_TYPE: ACCELERATION
PROCESSING: manual (Paolucci et al., 2011)
DATA_TIMESTAMP_YYYYMMDD_HHMMSS: 
DATA_LICENSE: CC-BY4_0 (http://creativecommons.org/licenses/by/4.0/)
DATA_CITATION: ESM working group (2015), European Strong-Motion database, version 0.1, Network Activity 3: Networking acceleration networks and SM data users. Project NERA (www.nera-eu.org)
DATA_CREATOR: ESM working group
ORIGINAL_DATA_MEDIATOR_CITATION: Orfeus - European Integrated Data Archive (EIDA) http://www.orfeus-eu.org/eida/
ORIGINAL_DATA_MEDIATOR: Orfeus - European Integrated Data Archive (EIDA)
ORIGINAL_DATA_CREATOR_CITATION: Data for this study comes from the Italian national seismic network operated by Istituto Nazionale di Geofisica e Vulcanologia and archived at the European Integrated Data Archive http://eida.rm.ingv.it/
ORIGINAL_DATA_CREATOR: network: IV (Italian National Seismic Network); owner: Istituto Nazionale di Geofisica e Vulcanologia
USER1: 
USER2: 
USER3: 
USER4: 
USER5: 
[...]
-4.827906
-3.893692
-2.242591
0.075604
2.908378
5.564071
6.922744
6.181690
3.621849
0.660795
-1.072202
-1.000738
-0.006417
0.489667
-0.163116
-1.412061
-2.219708
-2.022858
-0.940931
0.686492
2.580214
4.245490
4.707803
2.879474
-1.500822
-7.070815
-11.162691
-11.428616
-7.474827
-1.124447
4.568363
6.817719
4.629543
-0.393629
-4.874256
-6.016774
-3.685133
-0.252329
1.636119
1.166394
-0.628421
-2.428447
-3.713653
-4.445389
-4.438103
-3.549879
-2.022695
-0.180620
1.927996
4.261086
6.284852
7.045299
5.679844
1.939869
-3.109387
-6.883788
-6.785845
-2.619508
2.637091
4.949996
2.348994
-3.740551
-9.580157
-11.595933
-8.776587
-3.219866
1.817854
4.585999
5.490978
5.405853
4.268264
1.725498
-1.405221
-3.038009
-1.539590
2.538745
6.722253
8.632220
7.465397
3.774124
-1.230655
-5.793778
-7.865749
-6.403834
-2.545469
1.127293
2.672998
2.202291
1.447195
1.982585
3.783121
5.441475
5.566360
3.845922
1.106880
-1.286832
-2.246439
-1.790001
-1.274051
-2.224916
-4.637252
-6.751890
-6.719510
-4.206823
-0.220408
4.019581
7.574350
9.635866
9.532916
7.143986
3.160000
-1.308790
-5.373073
-8.483177
-10.122078
-9.868451
-7.878401
-5.031430
-2.430377
-0.716151
0.141329
0.436222
0.362924
0.241987
0.610810
1.479503
1.780693
0.181527
-3.350296
-7.015689
-8.533827
-7.106944
-3.945216
-0.910269
0.993805
1.774583
1.714175
1.126323
0.796976
1.780224
3.974175
5.228584
3.097463
-2.140962
-7.020477
-7.885444
-4.148859
1.530953
5.834537
7.199675
6.246477
4.635589
3.759753
4.076138
5.049496
5.522476
4.352203
1.177035
-2.935857
-5.796882
-5.803146
-3.601438
-1.677541
-1.947918
-3.880039
-5.115461
-3.598998
0.828704
6.178986
9.263724
7.574897
1.379168
-5.958621
-10.387555
-9.936244
-5.398631
0.640191
5.054990
5.556203
2.354051
-1.524050
-2.610187
-0.047152
3.712908
5.112325
2.521394
-2.494510
-6.549892
-7.116656
-4.247589
-0.032417
3.395961
5.191938
5.428944
4.150821
1.463482
-1.690857
-3.666927
-3.265635
-0.622358
2.962089
5.890616
7.074959
6.269780
3.927702
0.849886
-2.075597
-4.128130
-5.083934
-5.191614
-4.674370
-3.477304
-1.645052
0.222177
1.086951
0.251245
-1.774434
-3.197334
-2.111997
1.770431
6.504011
9.303443
8.656371
5.167829
0.671353
-3.266484
-6.059453
-7.592827
-7.462323
-5.249717
-1.638626
1.326041
1.750885
-0.337803
-3.029023
-4.327830
-3.788238
-2.411042
-1.220207
-0.238969
1.073608
2.737709
4.027490
4.236415
3.064688
0.159734
-4.727331
-10.592980
-14.774600
-14.245879
-7.772976
2.556720
11.993343
16.168999
14.012436
7.763049
0.557125
-5.356277
-8.471137
-7.652854
-2.618965
5.506811
14.336540
21.122017
23.896315
21.960760
15.562344
5.787017
-5.023205
-13.439980
-16.302744
-12.610737
-4.712928
2.657469
5.661125
4.374893
2.315146
2.692885
5.463019
7.962558
7.775957
4.749602
0.614370
-2.682665
-4.032269
-3.241517
-1.133411
0.269854
-1.350928
-6.539592
-12.833033
-16.344753
-15.034788
-10.342718
-5.465218
-1.915875
1.994359
8.788923
18.042585
25.593891
26.585859
19.149279
5.591181
-9.428798
-21.568344
-27.864317
-26.499016
-17.451164
-3.649791
9.668714
17.319157
16.738501
9.717922
1.869788
-0.824249
3.744685
12.407416
19.321859
19.860239
12.838659
0.630400
-12.340827
-22.054882
-26.741274
-26.669067
-22.705553
-15.957240
-8.489091
-3.075014
-1.569976
-3.430277
-5.883126
-5.918564
-2.592778
2.441098
6.547573
8.140138
7.429750
5.691792
4.049770
2.725988
1.152390
-1.077376
-3.317832
-4.208434
-2.938419
0.033302
3.497703
6.456353
8.498994
9.556576
9.596214
8.606167
6.672087
3.921248
0.605938
-2.654191
-4.947329
-5.541450
-4.314958
-1.902632
0.347795
0.834040
-1.181980
-4.733333
-7.751855
-8.632580
-7.279771
-4.900804
-3.013535
-2.514725
-3.294685
-4.504865
-5.179013
-4.647084
-2.620944
0.655465
4.136824
6.207214
5.774614
3.283821
0.494595
-0.657862
0.879526
4.800578
9.725777
14.132783
17.218613
18.936722
19.436117
18.819935
17.298735
15.156028
12.584776
9.755821
7.044669
4.972716
3.745661
3.025727
2.371973
1.825033
1.928075
3.223036
5.762320
8.929905
11.521817
12.014656
9.226791
3.489063
-2.545286
-4.992879
-1.854472
4.632301
9.272067
7.880788
0.349758
-9.578677
-17.214521
-19.986189
-18.444225
-14.838365
-10.998758
-7.588723
-4.678462
-2.190449
0.107083
2.556924
5.444453
8.824377
12.352397
15.147103
15.841180
13.072793
6.236121
-3.943912
-15.084394
-23.630718
-26.750305
-24.258266
-18.332394
-11.278773
-4.161864
2.457516
7.412427
9.117008
6.874962
1.893910
-3.351189
-7.134918
-10.025607
-14.348676
-21.670153
-30.539701
-36.946270
-37.199780
-30.540199
-19.473425
-7.996026
0.940129
6.931081
11.321829
15.084284
17.854151
18.766157
17.517460
14.440665
9.990044
4.892052
0.748889
-0.472120
1.842629
5.947993
8.832373
8.323833
4.356748
-1.094977
-5.079436
-5.274116
-1.309397
5.119794
11.328289
14.844775
14.219500
9.743839
3.493938
-2.065428
-5.793840
-8.134381
-9.769474
-10.265485
-8.439485
-4.423181
-0.921667
-1.424385
-6.799261
-13.873962
-17.606764
-14.718533
-5.610701
6.225736
16.123964
20.273630
17.121782
7.812028
-4.075585
-13.372719
-15.415139
-9.143012
1.591670
10.563156
13.230717
8.952828
0.702073
-6.698436
-8.991149
-4.839042
3.442431
11.603212
15.965599
14.770777
8.276712
-1.663046
-12.234599
-20.342424
-23.181004
-19.091358
-8.856654
3.839181
13.953729
17.789215
15.159109
9.777048
6.962880
9.512690
15.145249
18.044107
13.301369
0.530141
-16.077869
-30.378052
-37.002834
-33.280052
-20.647846
-4.377156
9.310884
16.453274
16.479185
11.607295
5.605026
2.213576
3.453896
8.363369
12.999881
12.363409
3.733413
-10.521762
-23.360155
-27.410837
-19.782370
-3.142611
16.846548
34.263199
44.285507
44.434696
35.483982
20.887096
5.493805
-6.040900
-11.400592
-11.672173
-9.851673
-8.251021
-7.434685
-7.132914
-7.124552
-6.701283
-3.991163
2.766327
12.631251
21.286953
23.848516
18.897303
9.789205
1.692712
-2.638502
-3.787363
-2.923070
0.301798
6.636865
15.022953
22.332026
25.297470
22.523394
14.849459
4.264129
-6.947817
-16.115124
-20.394802
-18.112328
-10.209372
-0.333997
6.959816
9.083784
7.225744
5.311889
6.842868
12.396955
19.530247
24.519661
24.605284
19.349920
10.355123
-0.099560
-10.088489
-17.849030
-21.457294
-19.957640
-14.854800
-9.763884
-8.350649
-12.272369
-20.232286
-28.476681
-32.877605
-31.656818
-26.128214
-18.681784
-10.917956
-3.893954
0.932403
1.734554
-2.813141
-12.520221
-24.907015
-35.725803
-41.332523
-40.798382
-35.689739
-28.480738
-21.066746
-13.845524
-5.837223
4.087600
15.610999
26.527197
34.243240
37.559940
36.693462
32.139240
24.525427
15.604475
8.566574
6.852919
12.122907
22.536148
32.876015
37.201866
32.419819
20.113085
5.485439
-5.711747
-10.382566
-9.388031
-6.188326
-4.106420
-4.101840
-4.422463
-2.572613
2.128578
7.930705
12.179691
13.214618
11.202295
7.667793
4.153272
0.977883
-2.543455
-6.495139
-9.426725
-9.377728
-5.772165
-0.164541
4.782555
6.743931
4.500158
-1.731937
-10.188242
-18.098528
-22.804968
-22.323175
-15.465674
-3.082041
10.900364
21.285412
24.777584
21.271872
13.019516
3.393047
-4.304705
-8.379031
-9.478937
-9.566659
-10.479424
-13.245806
-17.688681
-22.103172
-23.911520
-21.715685
-16.679379
-11.415801
-8.217241
-8.672451
-13.710645
-22.594131
-31.932768
-36.974735
-34.622578
-25.446152
-13.232517
-2.396376
4.899023
9.414390
12.922375
16.021601
17.793697
17.228704
14.742126
12.089736
10.688789
10.219031
9.064725
6.116168
1.944721
-1.789150
-3.591644
-2.693612
0.906763
6.287918
11.580967
14.582668
13.614345
8.145614
-0.695590
-10.300489
-17.998169
-22.468836
-23.849760
-23.056889
-21.331621
-20.013170
-19.966780
-20.767292
-20.595490
-17.351357
-10.327898
-1.306747
5.988106
8.273801
5.280780
-0.021309
-3.936467
-4.453946
-1.321445
5.018895
13.649389
22.682367
29.553465
32.395615
31.114256
26.982653
21.369722
15.413431
10.633639
8.657042
9.773617
12.080997
12.546827
9.268172
3.128922
-2.367602
-3.243233
1.961924
10.512403
16.729856
15.521697
5.355912
-11.313556
-29.326494
-42.818512
-47.960739
-45.113640
-38.328960
-32.510994
-30.896431
-34.165611
-40.320404
-45.327526
-45.266499
-38.855198
-28.106480
-16.668653
-7.620250
-2.190008
0.480776
2.476997
5.466646
9.629624
13.800266
16.167152
14.949735
9.239555
0.260855
-8.344932
-12.628770
-11.133301
-5.646928
0.306992
3.378442
1.598195
-4.769216
-13.083098
-19.605621
-21.357183
-17.457504
-9.846404
-3.033679
-1.985808
-8.631056
-20.164898
-31.289501
-37.879593
-38.834007
-35.770737
-31.510731
-28.315479
-27.034304
-27.725430
-30.656139
-36.038662
-42.784721
-48.037022
-48.035065
-39.938427
-24.243237
-5.692426
9.301812
16.586258
15.837000
9.226520
-0.586257
-11.295410
-20.390762
-24.525955
-20.673786
-8.751813
7.407551
22.520126
33.391380
40.475388
46.870262
55.967628
69.217094
84.950996
98.999939
107.173058
107.784882
102.112862
93.061981
83.492294
75.048576
68.000298
61.879269
56.064018
49.949928
43.043114
35.343311
27.758366
21.848192
18.742655
18.181280
18.562283
17.559902
12.716088
2.309887
-13.608659
-32.690304
-50.431522
-61.408180
-61.980839
-52.618916
-37.379467
-21.242210
-7.765910
1.765011
7.664461
10.375313
9.706259
5.371382
-2.208953
-11.679879
-21.077648
-28.504864
-32.660172
-32.895275
-29.157913
-21.899134
-11.732016
0.500038
12.930893
22.382969
25.526012
20.656301
8.866495
-5.945366
-18.591179
-25.040529
-23.896936
-16.145725
-4.429445
7.589948
16.224297
18.706600
13.888969
3.172752
-9.492578
-19.791893
-25.461283
-26.741911
-25.418856
-23.725445
-23.282476
-24.015936
-23.894182
-20.252211
-11.875132
0.154621
13.598706
26.747589
39.059956
50.534664
60.726707
68.607048
73.486610
75.876717
77.285843
79.166573
81.853859
84.310547
84.855476
82.275314
76.595596
69.077400
61.613300
56.033268
53.407295
53.321915
53.857864
52.763294
48.850376
42.588421
35.959198
31.832029
32.543018
37.665318
42.883377
42.080833
31.485044
12.420559
-9.238566
-26.119942
-33.282616
-31.158434
-24.583584
-17.895815
-11.398860
-2.753790
8.899705
20.126106
24.522253
17.886450
2.339243
-15.092783
-27.592970
-32.589794
-32.219646
-30.549347
-30.065407
-30.418570
-29.835979
-27.060102
-22.184753
-16.296682
-10.646199
-6.087227
-2.925804
-0.910720
0.702817
2.820995
5.941549
9.827345
13.722314
16.537912
16.672897
12.350253
2.908011
-10.000552
-22.556505
-30.574497
-31.929884
-27.718449
-21.183996
-15.533200
-12.088399
-9.590087
-5.399601
1.973386
11.128447
18.183846
19.061420
12.333487
0.431041
-11.986819
-20.803411
-24.166449
-22.750319
-18.956442
-15.412513
-13.420169
-12.157614
-9.268638
-2.922316
6.200943
15.052608
20.291964
20.307413
15.834496
9.067712
2.060320
-4.360701
-10.562660
-17.102699
-23.153139
-25.771219
-21.635811
-9.806301
7.334398
25.039967
38.201553
44.026501
43.765465
41.718578
42.144836
46.625053
53.618061
59.819344
62.113728
59.313938
52.988441
46.755390
44.318195
47.521324
55.350201
63.873001
67.537308
62.255489
48.509087
31.588940
18.520487
14.205927
19.232342
29.947575
40.708359
47.170387
48.065823
44.578266
39.114967
34.512817
32.890182
34.000839
34.593006
30.151020
17.895184
-1.443598
-23.870573
-43.928074
-57.452484
-63.785240
-65.615234
-66.570236
-68.673561
-71.391602
-72.571037
-70.363121
-64.829231
-58.567631
-55.844864
-60.006115
-70.747231
-83.786644
-93.524681
-96.541824
-93.398674
-87.852051
-84.146004
-84.259521
-87.304298
-91.231918
-94.718781
-97.624008
-100.394547
-103.527641
-107.532463
-112.900681
-119.527855
-126.041611
-130.143982
-130.050156
-125.851349
-119.633934
-114.049667
-110.408356
-108.006264
-105.167007
-100.870949
-95.570198
-90.659660
-87.210014
-85.117691
-83.368385
-81.080048
-78.305023
-75.827751
-74.278809
-73.487976
-72.443993
-69.713898
-64.179436
-55.706276
-45.167236
-33.812477
-22.443729
-10.935039
1.343352
14.404518
26.890066
36.396538
40.832989
40.206776
37.198292
35.396553
36.717163
40.262924
43.334293
43.798126
41.976498
40.449387
42.145885
48.523136
59.094410
72.313316
86.708481
101.271263
115.278824
128.054581
138.745438
146.363892
150.416473
151.470551
150.916702
150.312073
150.796844
152.667953
155.298264
157.533646
158.326263
157.176376
154.215942
150.006104
145.149948
139.991379
134.585846
128.878754
123.058868
117.852234
114.298164
113.039711
113.726280
114.967552
114.918587
112.283752
107.074989
100.470451
93.997215
88.971771
86.437691
86.896744
89.784439
93.367477
95.161034
92.679443
84.548569
71.343628
55.192955
38.507908
22.917711
8.865754
-4.068812
-16.413414
-28.295708
-39.549114
-50.105965
-60.223709
-70.401978
-81.093857
-92.431206
-104.132690
-115.635078
-126.404900
-136.266632
-145.489548
-154.441833
-163.048737
-170.657333
-176.453842
-180.057144
-181.838379
-182.661987
-183.306335
-184.060303
-184.663910
-184.528992
-183.053040
-179.951721
-175.624634
-171.208023
-167.955444
-166.328491
-165.598068
-164.301392
-161.217850
-156.222931
-150.493896
-145.811310
-143.236618
-142.202759
-140.915649
-137.712418
-132.183151
-125.273903
-118.550964
-113.244560
-109.563721
-106.583176
-102.717598
-96.409668
-86.607552
-73.119919
-57.058929
-40.897915
-27.643984
-19.587791
-17.296709
-19.106882
-21.684406
-21.770987
-17.782438
-10.127827
-0.510242
9.242335
18.311089
27.140369
36.657722
47.292793
58.535934
69.274307
78.625931
86.483345
93.232880
98.958473
102.778473
102.982544
98.037910
87.724480
73.910156
60.339466
50.859112
47.252140
48.579277
52.285137
55.865654
58.051521
59.011398
59.596889
60.350300
61.082710
61.179401
60.252483
58.668320
57.500271
57.833782
60.162563
64.470268
70.561142
78.163414
86.817932
95.737450
103.971588
110.899796
116.529144
121.291786
125.672714
129.954926
134.097565
137.798813
140.727127
142.780746
144.104324
144.806885
144.788452
143.849594
141.859985
138.778320
134.510635
128.811157
121.049263
109.889946
93.788719
72.331749
47.343285
22.801140
3.005583
-10.167364
-18.291487
-24.495592
-30.964006
-38.004021
-44.589447
-49.548019
-52.514591
-54.160858
-55.675598
-57.838657
-60.455696
-62.622803
-63.551285
-63.263962
-62.591110
-62.546650
-63.736500
-66.232285
-69.759087
-73.975777
-78.710709
-84.003815
-89.980530
-96.638802
-103.662430
-110.414970
-116.079803
-119.893440
-121.547226
-121.509583
-120.798569
-120.329300
-120.426857
-120.782326
-120.690598
-119.359749
-116.255219
-111.310638
-104.806702
-97.205795
-89.223930
-81.882942
-76.262878
-73.050224
-72.159081
-72.757301
-73.707603
-73.770332
-71.168694
-63.484425
-48.982430
-28.287043
-4.590520
17.643957
34.719082
45.603355
52.097950
56.879318
61.511719
66.046448
69.871628
72.868080
75.879211
80.103279
86.140808
93.592720
101.283577
107.831429
112.330421
114.642899
115.105507
114.259064
112.878883
111.824631
111.520462
111.488159
110.463806
107.073738
100.581764
91.418098
81.127548
71.536118
63.857235
58.461662
55.137348
53.470940
53.189796
54.164604
56.046120
57.907513
58.000011
53.879780
43.563362
27.227165
7.659225
-11.171458
-26.122118
-36.090630
-42.001514
-45.695595
-48.557430
-50.897217
-52.212719
-51.951008
-50.218075
-47.904110
-46.336124
-46.788013
-49.928112
-55.480789
-62.425766
-69.486961
-75.562843
-80.103836
-83.334320
-86.084007
-89.290108
-93.497620
-98.557465
-103.615555
-107.646088
-110.369865
-112.600281
-115.451927
-119.131554
-122.396431
-123.027565
-118.944481
-109.126961
-93.933372
-75.207367
-55.885006
-38.762302
-25.524761
-16.602354
-11.007273
-6.451312
-0.659436
7.152659
16.151320
24.944597
32.551064
38.568623
42.990543
45.998260
47.704777
48.145622
47.514648
46.270096
44.984982
43.983490
42.958824
40.877151
36.461277
29.232063
20.184340
11.242497
4.121617
-0.260993
-1.592237
0.407592
6.219990
15.889411
28.302948
41.347515
52.458366
59.196259
60.273823
56.249931
48.894665
40.081799
31.035763
21.937870
12.158129
1.063998
-11.158700
-23.312513
-33.873768
-41.917469
-47.370022
-50.551193
-51.599838
-50.247734
-46.247269
-39.950878
-32.243935
-24.173063
-16.748972
-10.755378
-6.577839
-4.212313
-3.359530
-3.657015
-5.037800
-7.739533
-11.929748
-17.351088
-23.009996
-27.120951
-27.796621
-24.070145
-16.424543
-6.757308
2.250828
8.366115
10.826784
10.484375
9.312261
9.605570
12.932187
19.339226
27.526133
35.881004
43.520428
50.636494
57.988541
65.959122
73.989761
80.857872
85.467636
87.546448
87.817261
87.478905
87.387306
87.589272
87.493729
86.517807
84.653526
82.470749
80.663483
79.563705
78.911064
77.955406
75.849419
72.155579
67.090813
61.323330
55.584949
50.383221
45.909645
42.172684
39.207554
37.103477
35.843357
35.145332
34.459900
33.220348
31.198021
28.549267
25.477993
22.003456
18.102329
13.963892
10.064568
6.936715
4.737158
3.039747
1.156590
-1.306478
-4.208938
-7.157685
-10.048771
-13.339271
-17.710920
-23.499693
-30.494265
-38.112076
-45.722401
-52.948479
-59.692478
-65.871979
-71.205643
-75.220161
-77.451500
-77.818527
-76.863152
-75.588104
-75.104591
-76.262169
-79.260239
-83.591858
-88.525810
-93.580849
-98.576492
-103.432304
-107.917229
-111.536392
-113.740807
-114.216759
-112.948456
-110.222435
-106.625168
-102.897934
-99.757874
-97.698326
-96.679993
-95.980583
-94.531700
-91.529015
-86.814697
-80.874489
-74.599190
-68.885094
-64.145042
-59.960373
-55.132355
-48.195972
-38.177444
-25.285107
-11.077280
2.326007
13.561451
22.651936
30.454699
37.756237
44.780460
51.205120
56.559086
60.689293
64.002022
67.276131
71.081398
75.298782
79.153534
81.689674
82.284088
80.889435
78.109604
75.068497
72.880440
72.090401
72.576164
73.840942
75.356216
76.798073
78.148598
79.660065
81.720161
84.660751
88.594627
93.318771
98.276131
102.705406
106.034691
108.177132
109.421341
110.099968
110.325478
109.968147
108.914330
107.330917
105.665771
104.437073
103.986534
104.315697
105.111923
105.957268
106.528015
106.643036
106.199455
105.039062
102.733124
98.278572
89.953003
76.100746
56.896873
35.327457
15.954095
2.511146
-3.760558
-4.251891
-1.630112
1.941139
5.460357
8.541542
10.650275
10.742164
7.585069
0.673555
-9.187957
-20.319878
-31.155912
-41.081108
-50.647331
-60.973869
-72.734085
-85.481590
-97.827446
-108.316132
-116.202133
-121.569084
-125.119583
-127.882744
-130.716095
-133.878708
-136.951401
