EVENT_NAME: EMILIA_2ND_SHOCK
EVENT_ID: IT-2012-0011
EVENT_DATE_YYYYMMDD: 20120529
EVENT_TIME_HHMMSS: 070002
EVENT_LATITUDE_DEGREE: 44.8417
EVENT_LONGITUDE_DEGREE: 11.0657
EVENT_DEPTH_KM: 8.1
HYPOCENTER_REFERENCE: INGV-CNT_Seismic_Bulletin
MAGNITUDE_W: 6.0
MAGNITUDE_W_REFERENCE: RCMT-INGV
MAGNITUDE_L: 5.8
MAGNITUDE_L_REFERENCE: INGV-CNT_Seismic_Bulletin
FOCAL_MECHANISM: TF
NETWORK: IV
STATION_CODE: T0803
STATION_NAME: T0803
STATION_LATITUDE_DEGREE: 44.766800
STATION_LONGITUDE_DEGREE: 11.350800
STATION_ELEVATION_M: 10
LOCATION: 
SENSOR_DEPTH_M: 1.0
VS30_M/S: 
SITE_CLASSIFICATION_EC8: C*
MORPHOLOGIC_CLASSIFICATION: 
EPICENTRAL_DISTANCE_KM: 24.0
EARTHQUAKE_BACKAZIMUTH_DEGREE: 290.4
DATE_TIME_FIRST_SAMPLE_YYYYMMDD_HHMMSS: 20120529_065953.000
DATE_TIME_FIRST_SAMPLE_PRECISION: milliseconds
SAMPLING_INTERVAL_S: 0.005000
NDATA: 20001
DURATION_S: 100.005
STREAM: HNE
UNITS: cm
INSTRUMENT: sensor = Episensor FBA ES-T [Kinemetrics] | digitizer = Unknown [Unknown]
INSTRUMENT_ANALOG/DIGITAL: D
INSTRUMENTAL_FREQUENCY_HZ: 
INSTRUMENTAL_DAMPING: 
FULL_SCALE_G: 
N_BIT_DIGITAL_CONVERTER: 
PGD_CM: -1.645689
TIME_PGD_S: 22.675000
BASELINE_CORRECTION: BASELINE REMOVED
FILTER_TYPE: BUTTERWORTH
FILTER_ORDER: 2
LOW_CUT_FREQUENCY_HZ: 0.060
HIGH_CUT_FREQUENCY_HZ: 40.000
LATE/NORMAL_TRIGGERED: NT
DATABASE_VERSION: DYNA 1.0
HEADER_FORMAT: DYNA 1.2
DATA_TYPE: DISPLACEMENT
PROCESSING: manual (Paolucci et al., 2011)
DATA_TIMESTAMP_YYYYMMDD_HHMMSS: 
DATA_LICENSE: CC-BY4_0 (http://creativecommons.org/licenses/by/4.0/)
DATA_CITATION: ESM working group (2015), European Strong-Motion database, version 0.1, Network Activity 3: Networking acceleration networks and SM data users. Project NERA (www.nera-eu.org)
DATA_CREATOR: ESM working group
ORIGINAL_DATA_MEDIATOR_CITATION: Orfeus - European Integrated Data Archive (EIDA) http://www.orfeus-eu.org/eida/
ORIGINAL_DATA_MEDIATOR: Orfeus - European Integrated Data Archive (EIDA)
ORIGINAL_DATA_CREATOR_CITATION: Data for this study comes from the Italian national seismic network operated by Istituto Nazionale di Geofisica e Vulcanologia and archived at the European Integrated Data Archive http://eida.rm.ingv.it/
ORIGINAL_DATA_CREATOR: network: IV (Italian National Seismic Network); owner: Istituto Nazionale di Geofisica e Vulcanologia
USER1: 
USER2: 
USER3: 
USER4: 
USER5: 
[...]
2.740562e-02
2.761739e-02
2.777735e-02
2.788246e-02
2.792957e-02
2.791332e-02
2.782816e-02
2.767508e-02
2.746790e-02
2.723620e-02
2.702528e-02
2.688958e-02
2.687757e-02
2.701800e-02
2.731385e-02
2.774094e-02
2.825066e-02
2.877788e-02
2.925245e-02
2.961493e-02
2.983173e-02
2.990025e-02
2.984530e-02
2.971053e-02
2.954383e-02
2.938268e-02
2.924965e-02
2.915586e-02
2.910485e-02
2.909421e-02
2.911588e-02
2.915744e-02
2.920509e-02
2.924629e-02
2.927054e-02
2.926926e-02
2.923681e-02
2.917281e-02
2.908429e-02
2.898581e-02
2.889829e-02
2.884487e-02
2.884313e-02
2.889928e-02
2.900874e-02
2.915964e-02
2.933597e-02
2.952097e-02
2.970012e-02
2.986335e-02
3.000637e-02
3.013050e-02
3.024083e-02
3.034363e-02
3.044287e-02
3.053702e-02
3.061904e-02
3.067979e-02
3.071305e-02
3.072185e-02
3.072394e-02
3.075050e-02
3.083748e-02
3.101533e-02
3.129998e-02
3.168599e-02
3.214662e-02
3.264032e-02
3.311890e-02
3.353586e-02
3.385388e-02
3.405029e-02
3.412242e-02
3.408941e-02
3.398610e-02
3.385391e-02
3.373352e-02
3.365771e-02
3.364738e-02
3.371461e-02
3.386822e-02
3.411572e-02
3.446120e-02
3.490157e-02
3.542182e-02
3.599092e-02
3.656361e-02
3.708884e-02
3.751949e-02
3.782030e-02
3.797382e-02
3.798159e-02
3.786141e-02
3.764320e-02
3.736350e-02
3.706051e-02
3.677221e-02
3.653600e-02
3.638688e-02
3.635237e-02
3.644628e-02
3.666417e-02
3.698041e-02
3.735065e-02
3.772473e-02
3.806210e-02
3.833853e-02
3.854571e-02
3.868817e-02
3.877744e-02
3.882598e-02
3.884320e-02
3.883277e-02
3.879188e-02
3.871452e-02
3.859639e-02
3.843906e-02
3.825376e-02
3.806216e-02
3.789040e-02
3.776104e-02
3.768747e-02
3.766994e-02
3.769388e-02
3.773293e-02
3.775474e-02
3.772953e-02
3.764309e-02
3.750425e-02
3.733766e-02
3.717066e-02
3.702320e-02
3.690007e-02
3.678908e-02
3.667137e-02
3.653542e-02
3.638330e-02
3.622975e-02
3.609708e-02
3.600506e-02
3.596042e-02
3.595438e-02
3.596738e-02
3.597504e-02
3.595330e-02
3.588187e-02
3.574449e-02
3.552719e-02
3.521930e-02
3.482015e-02
3.434662e-02
3.383186e-02
3.331428e-02
3.282689e-02
3.239222e-02
3.202128e-02
3.171686e-02
3.148069e-02
3.131813e-02
3.123619e-02
3.123872e-02
3.132403e-02
3.148431e-02
3.170493e-02
3.196285e-02
3.222518e-02
3.245239e-02
3.260736e-02
3.266525e-02
3.262069e-02
3.249222e-02
3.231948e-02
3.215240e-02
3.203860e-02
3.201202e-02
3.208367e-02
3.223843e-02
3.243744e-02
3.262607e-02
3.275116e-02
3.277915e-02
3.270287e-02
3.253818e-02
3.231661e-02
3.207422e-02
3.184092e-02
3.163809e-02
3.148293e-02
3.139199e-02
3.138066e-02
3.146065e-02
3.163793e-02
3.191033e-02
3.226386e-02
3.266756e-02
3.306965e-02
3.340487e-02
3.361513e-02
3.366783e-02
3.356126e-02
3.332248e-02
3.299932e-02
3.264618e-02
3.231312e-02
3.204519e-02
3.188514e-02
3.186872e-02
3.201062e-02
3.229560e-02
3.268554e-02
3.313284e-02
3.358995e-02
3.401657e-02
3.438463e-02
3.467871e-02
3.489395e-02
3.503222e-02
3.509571e-02
3.508262e-02
3.498797e-02
3.480748e-02
3.454278e-02
3.420821e-02
3.383343e-02
3.345611e-02
3.311204e-02
3.283250e-02
3.264739e-02
3.258467e-02
3.266027e-02
3.286516e-02
3.316129e-02
3.348665e-02
3.376535e-02
3.392323e-02
3.390328e-02
3.367205e-02
3.321946e-02
3.255688e-02
3.171361e-02
3.073316e-02
2.966915e-02
2.857923e-02
2.751879e-02
2.653631e-02
2.566989e-02
2.494536e-02
2.437443e-02
2.395347e-02
2.366404e-02
2.347422e-02
2.334113e-02
2.321566e-02
2.304738e-02
2.278862e-02
2.239801e-02
2.184596e-02
2.112397e-02
2.025228e-02
1.928050e-02
1.828397e-02
1.735342e-02
1.657488e-02
1.601121e-02
1.569321e-02
1.561617e-02
1.574046e-02
1.599695e-02
1.630022e-02
1.657447e-02
1.678023e-02
1.691980e-02
1.702238e-02
1.712470e-02
1.725216e-02
1.740484e-02
1.756031e-02
1.769234e-02
1.778754e-02
1.784942e-02
1.789655e-02
1.795980e-02
1.807852e-02
1.829215e-02
1.862470e-02
1.906928e-02
1.958915e-02
2.013538e-02
2.066385e-02
2.114252e-02
2.155298e-02
2.188926e-02
2.215534e-02
2.236329e-02
2.253250e-02
2.268867e-02
2.285856e-02
2.305926e-02
2.329148e-02
2.354417e-02
2.380262e-02
2.404848e-02
2.425237e-02
2.437226e-02
2.436661e-02
2.421208e-02
2.390938e-02
2.347826e-02
2.294943e-02
2.235576e-02
2.172501e-02
2.107753e-02
2.042693e-02
1.977839e-02
1.912183e-02
1.842510e-02
1.763970e-02
1.672101e-02
1.564716e-02
1.442642e-02
1.309769e-02
1.172477e-02
1.038357e-02
9.148271e-03
8.079379e-03
7.214098e-03
6.560617e-03
6.094260e-03
5.757548e-03
5.468915e-03
5.135748e-03
4.672774e-03
4.030109e-03
3.212242e-03
2.270977e-03
1.286640e-03
3.490023e-04
-4.656861e-04
-1.112331e-03
-1.579885e-03
-1.887692e-03
-2.082356e-03
-2.233306e-03
-2.420367e-03
-2.706760e-03
-3.110957e-03
-3.602483e-03
-4.121128e-03
-4.599677e-03
-4.982374e-03
-5.238224e-03
-5.364928e-03
-5.386049e-03
-5.345847e-03
-5.301157e-03
-5.311314e-03
-5.422868e-03
-5.646564e-03
-5.947365e-03
-6.266279e-03
-6.552896e-03
-6.780844e-03
-6.948566e-03
-7.075119e-03
-7.191770e-03
-7.333265e-03
-7.532886e-03
-7.818984e-03
-8.210899e-03
-8.714272e-03
-9.318394e-03
-1.000388e-02
-1.076076e-02
-1.159711e-02
-1.252308e-02
-1.352678e-02
-1.456596e-02
-1.557648e-02
-1.648756e-02
-1.724276e-02
-1.781949e-02
-1.823427e-02
-1.853555e-02
-1.879334e-02
-1.908716e-02
-1.949360e-02
-2.007154e-02
-2.084208e-02
-2.178103e-02
-2.284108e-02
-2.398460e-02
-2.520245e-02
-2.652018e-02
-2.799027e-02
-2.966167e-02
-3.154447e-02
-3.359784e-02
-3.573923e-02
-3.786128e-02
-3.985446e-02
-4.162982e-02
-4.313497e-02
-4.436805e-02
-4.538312e-02
-4.627578e-02
-4.716065e-02
-4.814767e-02
-4.931195e-02
-5.067292e-02
-5.219910e-02
-5.382409e-02
-5.546124e-02
-5.702027e-02
-5.842284e-02
-5.961359e-02
-6.056702e-02
-6.128666e-02
-6.179704e-02
-6.213480e-02
-6.234135e-02
-6.245795e-02
-6.252516e-02
-6.258427e-02
-6.267391e-02
-6.281671e-02
-6.300488e-02
-6.320224e-02
-6.336437e-02
-6.346075e-02
-6.349037e-02
-6.349053e-02
-6.352978e-02
-6.368425e-02
-6.401507e-02
-6.455694e-02
-6.531328e-02
-6.625517e-02
-6.732286e-02
-6.843163e-02
-6.948633e-02
-7.039903e-02
-7.110699e-02
-7.159470e-02
-7.190515e-02
-7.212422e-02
-7.235516e-02
-7.270094e-02
-7.325099e-02
-7.407242e-02
-7.521014e-02
-7.668948e-02
-7.851174e-02
-8.064303e-02
-8.301263e-02
-8.553478e-02
-8.813746e-02
-9.077577e-02
-9.343244e-02
-9.611310e-02
-9.883592e-02
-1.016201e-01
-1.044779e-01
-1.074064e-01
-1.103810e-01
-1.133533e-01
-1.162532e-01
-1.190054e-01
-1.215625e-01
-1.239286e-01
-1.261519e-01
-1.283035e-01
-1.304570e-01
-1.326653e-01
-1.349432e-01
-1.372649e-01
-1.395705e-01
-1.417801e-01
-1.438206e-01
-1.456493e-01
-1.472663e-01
-1.487159e-01
-1.500692e-01
-1.513850e-01
-1.526798e-01
-1.539268e-01
-1.550714e-01
-1.560480e-01
-1.568025e-01
-1.573075e-01
-1.575620e-01
-1.575818e-01
-1.573916e-01
-1.570171e-01
-1.564784e-01
-1.557894e-01
-1.549611e-01
-1.540084e-01
-1.529636e-01
-1.518806e-01
-1.508221e-01
-1.498391e-01
-1.489560e-01
-1.481583e-01
-1.473891e-01
-1.465637e-01
-1.455895e-01
-1.443814e-01
-1.428779e-01
-1.410542e-01
-1.389303e-01
-1.365744e-01
-1.340969e-01
-1.316345e-01
-1.293321e-01
-1.273279e-01
-1.257398e-01
-1.246542e-01
-1.241113e-01
-1.240977e-01
-1.245566e-01
-1.254061e-01
-1.265547e-01
-1.279188e-01
-1.294306e-01
-1.310300e-01
-1.326489e-01
-1.342104e-01
-1.356403e-01
-1.368803e-01
-1.378952e-01
-1.386770e-01
-1.392515e-01
-1.396870e-01
-1.400914e-01
-1.405858e-01
-1.412679e-01
-1.421826e-01
-1.432936e-01
-1.444752e-01
-1.455464e-01
-1.463216e-01
-1.466477e-01
-1.464383e-01
-1.456951e-01
-1.445029e-01
-1.430089e-01
-1.413888e-01
-1.397931e-01
-1.383052e-01
-1.369424e-01
-1.356761e-01
-1.344566e-01
-1.332449e-01
-1.320364e-01
-1.308629e-01
-1.297844e-01
-1.288818e-01
-1.282471e-01
-1.279701e-01
-1.281174e-01
-1.287108e-01
-1.297186e-01
-1.310542e-01
-1.325812e-01
-1.341264e-01
-1.354952e-01
-1.364902e-01
-1.369394e-01
-1.367218e-01
-1.357789e-01
-1.341191e-01
-1.318168e-01
-1.290065e-01
-1.258687e-01
-1.226001e-01
-1.193806e-01
-1.163469e-01
-1.135677e-01
-1.110353e-01
-1.086911e-01
-1.064641e-01
-1.042959e-01
-1.021575e-01
-1.000606e-01
-9.805651e-02
-9.623001e-02
-9.468698e-02
-9.353297e-02
-9.284883e-02
-9.266845e-02
-9.296162e-02
-9.363437e-02
-9.454746e-02
-9.554042e-02
-9.645816e-02
-9.717542e-02
-9.761293e-02
-9.775104e-02
-9.763611e-02
-9.736957e-02
-9.709001e-02
-9.695309e-02
-9.710277e-02
-9.764410e-02
-9.862690e-02
-1.000366e-01
-1.017937e-01
-1.037627e-01
-1.057695e-01
-1.076322e-01
-1.091947e-01
-1.103485e-01
-1.110509e-01
-1.113323e-01
-1.112831e-01
-1.110309e-01
-1.107155e-01
-1.104542e-01
-1.103115e-01
-1.102852e-01
-1.103057e-01
-1.102508e-01
-1.099808e-01
-1.093757e-01
-1.083621e-01
-1.069295e-01
-1.051268e-01
-1.030376e-01
-1.007547e-01
-9.836237e-02
-9.592491e-02
-9.348642e-02
-9.107730e-02
-8.871956e-02
-8.642658e-02
-8.420141e-02
-8.204171e-02
-7.995356e-02
-7.796291e-02
-7.611721e-02
-7.448210e-02
-7.313689e-02
-7.216702e-02
-7.165336e-02
-7.165702e-02
-7.220342e-02
-7.327052e-02
-7.477963e-02
-7.659770e-02
-7.856317e-02
-8.051833e-02
-8.232735e-02
-8.388572e-02
-8.512741e-02
-8.602885e-02
-8.661140e-02
-8.694031e-02
-8.711734e-02
-8.726393e-02
-8.748903e-02
-8.785486e-02
-8.836097e-02
-8.894392e-02
-8.948951e-02
-8.986497e-02
-8.995571e-02
-8.968876e-02
-8.904937e-02
-8.808792e-02
-8.690670e-02
-8.563835e-02
-8.442186e-02
-8.336998e-02
-8.254308e-02
-8.194422e-02
-8.152612e-02
-8.120763e-02
-8.090234e-02
-8.054292e-02
-8.008890e-02
-7.952582e-02
-7.886335e-02
-7.813450e-02
-7.739613e-02
-7.673046e-02
-7.624726e-02
-7.608369e-02
-7.639875e-02
-7.735794e-02
-7.910219e-02
-8.171285e-02
-8.518828e-02
-8.942822e-02
-9.423612e-02
-9.935796e-02
-1.045324e-01
-1.095271e-01
-1.141708e-01
-1.183778e-01
-1.221491e-01
-1.255643e-01
-1.287702e-01
-1.319608e-01
-1.353504e-01
-1.391391e-01
-1.434780e-01
-1.484471e-01
-1.540407e-01
-1.601636e-01
-1.666541e-01
-1.733136e-01
-1.799254e-01
-1.862694e-01
-1.921416e-01
-1.973770e-01
-2.018747e-01
-2.056103e-01
-2.086407e-01
-2.110957e-01
-2.131461e-01
-2.149654e-01
-2.167071e-01
-2.184865e-01
-2.203672e-01
-2.223545e-01
-2.243942e-01
-2.263867e-01
-2.282203e-01
-2.298023e-01
-2.310789e-01
-2.320447e-01
-2.327414e-01
-2.332463e-01
-2.336585e-01
-2.340825e-01
-2.346133e-01
-2.353258e-01
-2.362665e-01
-2.374503e-01
-2.388719e-01
-2.405201e-01
-2.423806e-01
-2.444281e-01
-2.466230e-01
-2.489189e-01
-2.512756e-01
-2.536676e-01
-2.560891e-01
-2.585554e-01
-2.610967e-01
-2.637494e-01
-2.665496e-01
-2.695253e-01
-2.726878e-01
-2.760198e-01
-2.794684e-01
-2.829541e-01
-2.864015e-01
-2.897645e-01
-2.930318e-01
-2.962200e-01
-2.993639e-01
-3.025001e-01
-3.056562e-01
-3.088519e-01
-3.121045e-01
-3.154284e-01
-3.188302e-01
-3.223071e-01
-3.258574e-01
-3.294947e-01
-3.332542e-01
-3.371916e-01
-3.413762e-01
-3.458750e-01
-3.507355e-01
-3.559749e-01
-3.615736e-01
-3.674752e-01
-3.736003e-01
-3.798632e-01
-3.861847e-01
-3.925018e-01
-3.987744e-01
-4.049846e-01
-4.111333e-01
-4.172391e-01
-4.233394e-01
-4.294853e-01
-4.357261e-01
-4.420920e-01
-4.485858e-01
-4.551829e-01
-4.618346e-01
-4.684750e-01
-4.750292e-01
-4.814229e-01
-4.875982e-01
-4.935294e-01
-4.992323e-01
-5.047694e-01
-5.102379e-01
-5.157407e-01
-5.213595e-01
-5.271422e-01
-5.331007e-01
-5.392157e-01
-5.454487e-01
-5.517524e-01
-5.580769e-01
-5.643724e-01
-5.705929e-01
-5.767054e-01
-5.827001e-01
-5.886004e-01
-5.944702e-01
-6.004132e-01
-6.065614e-01
-6.130580e-01
-6.200347e-01
-6.275909e-01
-6.357816e-01
-6.446136e-01
-6.540457e-01
-6.640007e-01
-6.743792e-01
-6.850739e-01
-6.959869e-01
-7.070459e-01
-7.182120e-01
-7.294816e-01
-7.408783e-01
-7.524310e-01
-7.641520e-01
-7.760238e-01
-7.879908e-01
-7.999599e-01
-8.118090e-01
-8.233978e-01
-8.345810e-01
-8.452217e-01
-8.552041e-01
-8.644498e-01
-8.729293e-01
-8.806568e-01
-8.876789e-01
-8.940624e-01
-8.998805e-01
-9.051995e-01
-9.100715e-01
-9.145324e-01
-9.186079e-01
-9.223303e-01
-9.257557e-01
-9.289758e-01
-9.321246e-01
-9.353705e-01
-9.388939e-01
-9.428631e-01
-9.474186e-01
-9.526631e-01
-9.586565e-01
-9.654152e-01
-9.729164e-01
-9.811158e-01
-9.899677e-01
-9.994415e-01
-1.009538e+00
-1.020296e+00
-1.031782e+00
-1.044073e+00
-1.057244e+00
-1.071355e+00
-1.086447e+00
-1.102532e+00
-1.119588e+00
-1.137557e+00
-1.156360e+00
-1.175901e+00
-1.196088e+00
-1.216839e+00
-1.238089e+00
-1.259780e+00
-1.281849e+00
-1.304221e+00
-1.326803e+00
-1.349480e+00
-1.372111e+00
-1.394542e+00
-1.416612e+00
-1.438176e+00
-1.459110e+00
-1.479314e+00
-1.498708e+00
-1.517229e+00
-1.534815e+00
-1.551404e+00
-1.566927e+00
-1.581309e+00
-1.594465e+00
-1.606304e+00
-1.616729e+00
-1.625653e+00
-1.632997e+00
-1.638702e+00
-1.642727e+00
-1.645054e+00
-1.645689e+00
-1.644659e+00
-1.642002e+00
-1.637756e+00
-1.631954e+00
-1.624621e+00
-1.615773e+00
-1.605417e+00
-1.593548e+00
-1.580162e+00
-1.565265e+00
-1.548895e+00
-1.531127e+00
-1.512085e+00
-1.491934e+00
-1.470864e+00
-1.449075e+00
-1.426764e+00
-1.404110e+00
-1.381270e+00
-1.358369e+00
-1.335502e+00
-1.312744e+00
-1.290165e+00
-1.267850e+00
-1.245903e+00
-1.224454e+00
-1.203653e+00
-1.183656e+00
-1.164613e+00
-1.146655e+00
-1.129878e+00
-1.114332e+00
-1.100003e+00
-1.086811e+00
-1.074610e+00
-1.063192e+00
-1.052321e+00
-1.041761e+00
-1.031301e+00
-1.020781e+00
-1.010101e+00
-9.992311e-01
-9.881983e-01
-9.770838e-01
-9.660116e-01
-9.551346e-01
-9.446154e-01
-9.346058e-01
-9.252314e-01
-9.165751e-01
-9.086687e-01
-9.015032e-01
-8.950472e-01
-8.892627e-01
-8.841230e-01
-8.796206e-01
-8.757578e-01
-8.725296e-01
-8.699178e-01
-8.678976e-01
-8.664487e-01
-8.655746e-01
-8.653192e-01
-8.657691e-01
-8.670387e-01
-8.692463e-01
-8.724834e-01
-8.767831e-01
-8.820952e-01
-8.882625e-01
-8.950126e-01
-9.019844e-01
-9.087691e-01
-9.149509e-01
-9.201565e-01
-9.240943e-01
-9.265606e-01
-9.274284e-01
-9.266333e-01
-9.241528e-01
-9.199884e-01
-9.141536e-01
-9.066671e-01
-8.975498e-01
-8.868227e-01
-8.745064e-01
-8.606236e-01
-8.452023e-01
-8.282789e-01
-8.099010e-01
-7.901301e-01
-7.690440e-01
-7.467397e-01
-7.233383e-01
-6.989934e-01
-6.738918e-01
-6.482387e-01
-6.222357e-01
-5.960578e-01
-5.698232e-01
-5.435749e-01
-5.172901e-01
-4.909035e-01
-4.643319e-01
-4.375054e-01
-4.103902e-01
-3.829882e-01
-3.553249e-01
-3.274389e-01
-2.993711e-01
-2.711556e-01
-2.428164e-01
-2.143657e-01
-1.858033e-01
-1.571147e-01
-1.282746e-01
-9.925825e-02
-7.005581e-02
-4.068588e-02
-1.121037e-02
1.825626e-02
4.755337e-02
7.648681e-02
1.048409e-01
1.323927e-01
1.589232e-01
1.842218e-01
2.080867e-01
2.303282e-01
2.507774e-01
2.692954e-01
2.857789e-01
3.001633e-01
3.124188e-01
3.225407e-01
3.305385e-01
3.364271e-01
3.402211e-01
3.419361e-01
3.415966e-01
3.392462e-01
3.349567e-01
3.288386e-01
3.210528e-01
3.118301e-01
3.014785e-01
2.903665e-01
2.788956e-01
2.674765e-01
2.565041e-01
2.463390e-01
2.373062e-01
2.297024e-01
2.237969e-01
2.198285e-01
2.180004e-01
2.184796e-01
2.213981e-01
2.268525e-01
2.349042e-01
2.455813e-01
2.588872e-01
2.748107e-01
2.933304e-01
3.144169e-01
3.380315e-01
3.641235e-01
3.926250e-01
4.234442e-01
4.564556e-01
4.914937e-01
5.283587e-01
5.668253e-01
6.066496e-01
6.475736e-01
6.893262e-01
7.316190e-01
7.741399e-01
8.165477e-01
8.584708e-01
8.995127e-01
9.392707e-01
9.773600e-01
1.013432e+00
1.047191e+00
1.078409e+00
1.106911e+00
1.132567e+00
1.155286e+00
1.175032e+00
1.191829e+00
1.205758e+00
1.216950e+00
1.225567e+00
1.231776e+00
1.235730e+00
1.237546e+00
1.237300e+00
1.235026e+00
1.230726e+00
1.224383e+00
1.215978e+00
1.205504e+00
1.192978e+00
1.178441e+00
1.161966e+00
1.143661e+00
1.123670e+00
1.102166e+00
1.079343e+00
1.055407e+00
1.030562e+00
1.005011e+00
9.789500e-01
9.525749e-01
9.260841e-01
8.996845e-01
8.735971e-01
8.480572e-01
8.233069e-01
7.995814e-01
7.770869e-01
7.559792e-01
7.363619e-01
7.183066e-01
7.018751e-01
6.871399e-01
6.741981e-01
6.631674e-01
6.541662e-01
6.472917e-01
6.426085e-01
6.401419e-01
6.398741e-01
6.417409e-01
6.456302e-01
6.513869e-01
6.588192e-01
6.677049e-01
6.778009e-01
6.888545e-01
7.006161e-01
7.128516e-01
7.253444e-01
7.378902e-01
7.502911e-01
7.623505e-01
7.738699e-01
7.846514e-01
7.945072e-01
8.032680e-01
8.107884e-01
8.169490e-01
8.216562e-01
8.248377e-01
8.264380e-01
8.264143e-01
8.247322e-01
8.213686e-01
8.163185e-01
8.096034e-01
8.012757e-01
7.914221e-01
7.801691e-01
7.676918e-01
7.542176e-01
7.400168e-01
7.253877e-01
7.106443e-01
6.960999e-01
6.820507e-01
6.687613e-01
6.564523e-01
6.452890e-01
6.353681e-01
6.267136e-01
6.192929e-01
6.130414e-01
6.078808e-01
6.037370e-01
6.005513e-01
5.982787e-01
5.968786e-01
5.963025e-01
5.964760e-01
5.972855e-01
5.985763e-01
6.001590e-01
6.018199e-01
6.033410e-01
6.045198e-01
6.051836e-01
6.051999e-01
6.044834e-01
6.030038e-01
6.007879e-01
5.979119e-01
5.944890e-01
5.906630e-01
5.866037e-01
5.825024e-01
5.785647e-01
5.750019e-01
5.720170e-01
5.697787e-01
5.683999e-01
5.679335e-01
5.683760e-01
5.696769e-01
5.717530e-01
5.745029e-01
5.778181e-01
5.815893e-01
5.857116e-01
5.900887e-01
5.946387e-01
5.993019e-01
6.040469e-01
6.088751e-01
6.138241e-01
6.189649e-01
6.243908e-01
6.302030e-01
6.365054e-01
6.434059e-01
6.510164e-01
6.594506e-01
6.688181e-01
6.792140e-01
6.906988e-01
7.032839e-01
7.169339e-01
7.315769e-01
7.471193e-01
7.634679e-01
7.805508e-01
7.983266e-01
8.167871e-01
8.359515e-01
8.558502e-01
8.765087e-01
8.979361e-01
9.201177e-01
9.430118e-01
9.665503e-01
9.906417e-01
1.015176e+00
1.040031e+00
1.065074e+00
1.090161e+00
1.115137e+00
1.139838e+00
1.164094e+00
1.187740e+00
1.210628e+00
1.232638e+00
1.253678e+00
1.273676e+00
1.292570e+00
1.310299e+00
1.326799e+00
1.342001e+00
1.355848e+00
1.368292e+00
1.379301e+00
1.388858e+00
1.396956e+00
1.403588e+00
1.408743e+00
1.412403e+00
1.414540e+00
1.415118e+00
1.414092e+00
1.411411e+00
1.407019e+00
1.400861e+00
1.392881e+00
1.383033e+00
1.371284e+00
1.357625e+00
1.342077e+00
1.324706e+00
1.305624e+00
1.284998e+00
1.263043e+00
1.240020e+00
1.216204e+00
1.191869e+00
1.167264e+00
1.142604e+00
1.118052e+00
1.093719e+00
1.069655e+00
1.045854e+00
1.022268e+00
9.988284e-01
9.754716e-01
9.521700e-01
