EVENT_NAME: EMILIA_2ND_SHOCK
EVENT_ID: IT-2012-0011
EVENT_DATE_YYYYMMDD: 20120529
EVENT_TIME_HHMMSS: 070002
EVENT_LATITUDE_DEGREE: 44.8417
EVENT_LONGITUDE_DEGREE: 11.0657
EVENT_DEPTH_KM: 8.1
HYPOCENTER_REFERENCE: INGV-CNT_Seismic_Bulletin
MAGNITUDE_W: 6.0
MAGNITUDE_W_REFERENCE: RCMT-INGV
MAGNITUDE_L: 5.8
MAGNITUDE_L_REFERENCE: INGV-CNT_Seismic_Bulletin
FOCAL_MECHANISM: TF
NETWORK: IV
STATION_CODE: T0800
STATION_NAME: T0800
STATION_LATITUDE_DEGREE: 44.848600
STATION_LONGITUDE_DEGREE: 11.247900
STATION_ELEVATION_M: 9
LOCATION: 
SENSOR_DEPTH_M: 1.0
VS30_M/S: 
SITE_CLASSIFICATION_EC8: C*
MORPHOLOGIC_CLASSIFICATION: 
EPICENTRAL_DISTANCE_KM: 14.4
EARTHQUAKE_BACKAZIMUTH_DEGREE: 267.0
DATE_TIME_FIRST_SAMPLE_YYYYMMDD_HHMMSS: 20120529_065949.000
DATE_TIME_FIRST_SAMPLE_PRECISION: milliseconds
SAMPLING_INTERVAL_S: 0.005000
NDATA: 20001
DURATION_S: 100.005
STREAM: HNE
UNITS: cm/s^2
INSTRUMENT: sensor = Episensor FBA ES-T [Kinemetrics] | digitizer = Unknown [Unknown]
INSTRUMENT_ANALOG/DIGITAL: D
INSTRUMENTAL_FREQUENCY_HZ: 
INSTRUMENTAL_DAMPING: 
FULL_SCALE_G: 
N_BIT_DIGITAL_CONVERTER: 
PGA_CM/S^2: -330.915835
TIME_PGA_S: 24.460000
BASELINE_CORRECTION: BASELINE REMOVED
FILTER_TYPE: BUTTERWORTH
FILTER_ORDER: 2
LOW_CUT_FREQUENCY_HZ: 0.070
HIGH_CUT_FREQUENCY_HZ: 40.000
LATE/NORMAL_TRIGGERED: NT
DATABASE_VERSION: DYNA 1.0
HEADER_FORMAT: DYNA 1.2
DATA_TYPE: ACCELERATION
PROCESSING: manual (Paolucci et al., 2011)
DATA_TIMESTAMP_YYYYMMDD_HHMMSS: 
DATA_LICENSE: CC-BY4_0 (http://creativecommons.org/licenses/by/4.0/)
DATA_CITATION: ESM working group (2015), European Strong-Motion database, version 0.1, Network Activity 3: Networking acceleration networks and SM data users. Project NERA (www.nera-eu.org)
DATA_CREATOR: ESM working group
ORIGINAL_DATA_MEDIATOR_CITATION: Orfeus - European Integrated Data Archive (EIDA) http://www.orfeus-eu.org/eida/
ORIGINAL_DATA_MEDIATOR: Orfeus - European Integrated Data Archive (EIDA)
ORIGINAL_DATA_CREATOR_CITATION: Data for this study comes from the Italian national seismic network operated by Istituto Nazionale di Geofisica e Vulcanologia and archived at the European Integrated Data Archive http://eida.rm.ingv.it/
ORIGINAL_DATA_CREATOR: network: IV (Italian National Seismic Network); owner: Istituto Nazionale di Geofisica e Vulcanologia
USER1: 
USER2: 
USER3: 
USER4: 
USER5: 
[...]
1.980528
1.226267
1.124511
1.648238
1.787025
0.683962
-1.275080
-2.895258
-3.173320
-2.029963
-0.440354
0.500266
0.490588
-0.080622
-0.611989
-0.666190
-0.163947
0.669922
1.429607
1.681854
1.152300
-0.059097
-1.393276
-2.161232
-1.994097
-1.112139
-0.266098
-0.080434
-0.474656
-0.870768
-0.686036
0.282174
1.723813
3.117425
4.032350
4.114563
3.080195
1.010125
-1.436819
-3.384134
-4.234144
-3.881199
-2.684281
-1.160348
0.290791
1.385556
1.910917
1.809877
1.238807
0.403756
-0.593235
-1.645883
-2.474664
-2.644459
-1.785372
-0.028922
1.801743
2.817586
2.778475
2.133220
1.600042
1.417816
0.988315
-0.297310
-2.178886
-3.725056
-3.998780
-2.704730
-0.486588
1.561997
2.577913
2.336729
1.326928
0.271255
-0.411081
-0.747704
-1.026659
-1.285681
-1.090030
-0.208221
0.812392
1.208191
0.794464
0.068627
-0.169421
0.443374
1.373170
1.725254
1.030830
-0.381400
-1.479999
-1.335310
0.072650
1.793314
2.415496
1.179896
-1.269364
-3.579887
-4.705332
-4.301678
-2.725928
-0.721343
0.943567
1.771977
1.725117
1.147988
0.576513
0.458963
0.914499
1.680922
2.192870
1.884416
0.608883
-1.010188
-1.708136
-0.749907
1.143902
2.541676
2.483290
1.000569
-0.946850
-2.229641
-2.312548
-1.435701
-0.429799
-0.128676
-0.740479
-1.622418
-1.671548
-0.641933
0.175839
-0.389843
-1.750944
-2.363531
-1.327742
0.820808
2.400157
2.336761
1.392885
0.891134
1.168881
1.812539
2.400960
2.611276
2.131006
0.923146
-0.502165
-1.357475
-1.119317
-0.032698
0.861007
0.721823
-0.269156
-1.468095
-2.534203
-3.339071
-3.635666
-3.124997
-1.716287
0.291740
2.225996
3.409681
3.533051
2.689713
1.263257
-0.243399
-1.368844
-1.818701
-1.549808
-0.744697
0.284479
1.258940
2.031977
2.477469
2.368615
1.478277
-0.172133
-2.048420
-3.182625
-3.004187
-1.931527
-0.682369
0.521937
1.722679
2.685569
2.828488
1.591077
-0.826022
-3.171855
-4.210125
-3.759863
-2.367187
-0.639385
0.905379
1.872534
2.291761
2.709220
3.450716
3.975640
3.386253
1.339791
-1.431553
-3.376118
-3.635627
-3.050144
-2.831461
-3.071300
-3.148730
-2.656480
-1.577425
-0.120005
1.351479
2.345655
2.454561
1.663984
0.543457
0.018706
0.398760
0.844481
0.539533
-0.198471
-0.616541
-0.550906
-0.338470
-0.292457
-0.429220
-0.527717
-0.522457
-0.663597
-0.957061
-0.791103
0.320047
1.977564
3.285849
3.582617
2.760819
1.226651
-0.487437
-1.977283
-2.755601
-2.195368
-0.228502
2.095061
3.285147
2.497099
0.171203
-2.121182
-3.150685
-3.155623
-2.938858
-2.645295
-1.835887
-0.164340
2.034115
3.708248
4.071957
3.366377
2.214429
0.845184
-0.614882
-1.622860
-1.408267
0.417228
3.198955
5.152752
4.683357
1.747607
-2.194618
-5.088296
-5.768089
-4.845989
-3.670229
-2.942480
-2.414299
-1.305151
0.759439
3.169653
4.960612
5.563647
4.790951
2.726478
0.067696
-1.807375
-1.943149
-0.797556
0.356233
0.581056
-0.007601
-0.334864
0.262171
1.083883
1.194304
0.644977
-0.061949
-0.801947
-1.536764
-1.827361
-1.177003
0.400423
2.278173
3.442905
2.994258
0.575516
-3.486400
-7.996622
-10.720648
-9.093918
-2.772960
4.850129
9.567099
9.811562
6.828304
3.172373
0.705554
-0.523274
-1.215083
-1.577514
-1.516016
-1.095357
-0.277444
1.172126
2.737857
2.773786
0.435567
-2.725266
-4.423186
-3.977683
-2.678268
-2.659175
-4.604731
-6.588265
-6.440772
-4.164051
-1.088765
1.746536
3.784280
4.641160
4.273573
3.159008
1.829445
0.407869
-1.104645
-2.344644
-2.570291
-1.190047
1.199046
2.623810
1.852834
0.028814
-1.070666
-1.127991
-0.838611
-0.726476
-0.894277
-1.198769
-1.268619
-0.474144
1.742163
5.213121
8.379491
8.651378
5.004255
-0.240097
-3.807119
-4.399967
-2.725199
-0.360771
1.147422
0.849079
-1.265026
-4.051519
-5.529350
-3.735659
1.727757
8.767261
14.199555
15.693688
12.737544
6.815427
0.528651
-3.697845
-4.939556
-4.289194
-3.377274
-2.865627
-2.711021
-2.887118
-3.414652
-4.114034
-4.597355
-4.439988
-3.397499
-1.469523
1.296913
4.754610
7.977277
9.093324
6.923595
2.463401
-1.973980
-4.403223
-4.261856
-2.667188
-1.306914
-1.219669
-2.480000
-4.335808
-5.609015
-5.138467
-2.273478
2.628643
7.976643
11.284713
10.681434
6.297865
0.052205
-5.388449
-8.063162
-7.694657
-5.212665
-1.966693
0.612097
1.284794
-0.366483
-3.449233
-6.218062
-6.971622
-5.029284
-1.259864
2.658727
5.427473
7.001132
8.498025
10.341678
11.024024
8.992766
4.850333
0.930149
-0.479066
0.911105
2.874745
3.350184
2.656267
1.800387
0.492810
-1.725102
-3.928556
-4.700727
-3.752610
-2.279677
-2.053575
-3.295130
-3.776230
-1.713138
1.611637
3.625750
3.220124
1.192983
-0.698220
-1.313063
-0.992117
-0.493595
0.137661
1.113539
2.096583
2.304975
1.111020
-1.318550
-3.831154
-5.157174
-4.888786
-3.632621
-2.584487
-2.558765
-3.265268
-3.712741
-3.023647
-1.109432
1.131130
2.627235
3.115881
3.427846
5.035308
8.555333
12.577747
14.483883
12.202726
6.044768
-0.720862
-4.372056
-3.450732
1.044192
6.722100
11.299518
13.467660
12.328059
7.089547
-1.599306
-10.789450
-17.241524
-19.667740
-18.512751
-14.803167
-9.417196
-3.081246
2.843612
6.257496
6.194745
4.025983
1.309325
-2.131901
-6.372106
-9.307259
-8.127233
-1.968506
6.871859
13.775108
15.621300
13.500388
10.141941
6.730826
3.336953
0.359772
-1.473362
-1.665091
-0.029394
3.348494
7.777860
11.689668
13.164638
10.936872
5.459100
-0.988460
-6.310018
-10.014454
-11.541582
-8.971530
-1.535469
7.974811
15.277571
17.983604
16.978582
15.462646
15.076808
13.627097
8.893514
2.392652
-2.924573
-6.250833
-8.966036
-12.723677
-17.237577
-19.836357
-18.761391
-15.631592
-12.615262
-9.315990
-4.318730
2.150797
8.117625
11.355812
11.448140
10.382349
9.670147
8.023675
3.587080
-3.266840
-10.504125
-16.242931
-19.765783
-21.437551
-21.315845
-18.295465
-11.586751
-2.413006
6.291685
11.273830
10.829828
5.978488
-0.554751
-6.140204
-9.714611
-12.045717
-13.708805
-13.570546
-10.476720
-5.181416
0.465132
5.235105
9.291929
13.828009
19.402981
25.058058
30.058119
35.124573
40.167652
42.315811
38.258110
27.154678
10.424517
-9.471613
-29.377701
-45.435452
-53.700268
-51.306896
-37.974701
-16.753906
7.418928
29.358646
44.247257
48.975990
45.416412
41.204346
42.681335
48.623657
53.769890
54.545490
50.189896
41.708286
30.877522
19.799057
10.451322
3.267238
-5.258154
-21.869843
-48.436478
-76.769852
-97.476654
-109.286140
-115.465591
-116.984871
-111.873222
-98.359306
-78.901283
-60.844795
-49.453743
-42.102379
-32.581711
-17.452375
2.819587
25.061981
44.673450
56.945324
59.314381
53.290794
43.899643
37.505245
38.127327
44.727379
52.642300
56.794968
54.861172
48.110683
37.325626
19.630186
-7.694111
-41.856747
-73.629906
-90.730591
-86.454140
-65.925125
-41.195747
-22.949825
-15.114164
-13.523468
-11.222622
-4.486856
5.545434
14.503005
19.701595
23.611616
31.024252
44.833176
64.583794
86.768745
106.553413
119.926399
125.712608
126.219894
124.544785
121.766708
117.226379
110.257278
101.955742
95.427345
92.780174
92.513916
90.767281
83.089447
64.508354
30.939093
-15.280755
-62.917126
-101.042458
-128.328186
-150.215042
-171.480484
-191.152618
-202.775375
-203.041122
-197.232788
-190.337189
-178.420410
-154.950287
-120.141052
-81.350571
-48.699303
-29.291311
-23.615850
-27.336807
-33.835228
-34.671787
-20.838448
11.880649
58.436577
107.476967
147.296158
171.363129
180.929352
181.134735
175.945145
166.386154
151.444138
131.523926
110.347687
91.362206
74.167786
56.375748
36.751411
15.832426
-4.600985
-22.046072
-33.898911
-38.914989
-38.789829
-38.325653
-43.480576
-56.270416
-71.908173
-84.165474
-90.935104
-92.461143
-88.139061
-77.542976
-62.788273
-48.637074
-40.499310
-40.519108
-45.485733
-50.550903
-52.932453
-50.545048
-40.545193
-22.493793
-1.016056
17.898376
31.439528
39.736984
43.627861
43.125008
37.726467
29.247976
22.919325
22.432917
25.570219
27.360106
24.870234
18.248022
9.961128
3.699888
3.176898
10.420615
24.577728
42.699554
60.928059
75.118515
81.773254
80.143372
73.436440
66.144119
60.277485
53.651340
41.458302
22.778393
4.288601
-7.015296
-11.314886
-13.112523
-15.705430
-20.127262
-26.538059
-35.763103
-49.289139
-66.618195
-83.765068
-96.552803
-103.482422
-103.348717
-93.228752
-72.384491
-45.853619
-20.767244
-1.088922
13.432903
25.472942
36.536823
45.184235
50.326962
53.908314
57.652142
59.762974
57.618793
51.515442
44.305138
39.057854
36.743301
35.455494
32.726524
27.618656
19.684135
7.610774
-9.585206
-30.587391
-51.135578
-64.972008
-67.201134
-57.374550
-39.256428
-18.596306
0.464252
17.378973
32.448082
44.066605
50.379108
51.812614
50.854370
50.311279
51.246181
52.160992
51.083073
47.542831
41.778152
33.636147
23.388836
12.525853
2.475076
-6.594176
-14.664576
-20.712341
-23.864204
-24.974415
-26.385590
-30.357639
-36.630623
-41.472885
-40.942314
-34.159168
-22.629465
-8.609438
5.068471
15.067552
19.251091
18.423841
15.787050
14.795095
16.001007
15.973084
11.752725
4.759856
-1.936340
-7.584717
-13.668408
-21.702236
-30.892368
-37.765129
-39.849255
-38.547619
-36.489700
-34.449959
-32.522652
-31.849766
-33.237614
-35.487175
-36.652130
-36.040871
-34.502865
-33.290215
-31.947824
-27.909136
-20.388056
-13.007637
-9.451716
-8.908597
-8.066671
-4.656435
2.119031
12.420561
25.734373
39.856148
49.733627
48.590511
34.024597
12.359268
-6.405658
-15.479782
-13.250903
-2.652971
10.733426
20.836636
23.593493
18.957478
10.528871
3.272262
-0.708651
-4.228498
-10.267702
-17.274420
-21.303051
-20.054905
-14.271393
-7.161938
-2.224865
-1.306882
-4.221705
-8.799202
-11.076436
-6.518748
6.418525
23.709934
38.248009
43.653599
36.459198
17.177813
-9.797854
-37.272785
-58.215733
-68.680664
-68.523712
-60.697014
-49.127750
-36.975548
-26.650236
-19.771233
-15.756555
-11.263810
-3.294064
7.561293
17.623608
22.533531
20.193659
12.153993
1.254303
-10.570637
-20.945265
-25.582113
-20.401762
-4.679312
17.780500
39.822460
55.492615
63.611244
65.939873
64.253166
59.862068
53.989086
47.378036
39.712269
29.936975
17.188524
1.956138
-13.627159
-27.645369
-39.996548
-51.292183
-61.230019
-68.551353
-71.895798
-70.912117
-66.686775
-60.510757
-52.653072
-42.773712
-30.928320
-18.116610
-5.958508
4.876547
15.463648
26.611822
37.106434
45.238392
50.686523
53.768867
53.810802
48.660286
35.779514
15.362966
-7.918223
-28.331108
-42.935421
-51.483238
-55.037022
-55.363056
-54.366634
-52.491966
-47.567421
-36.316288
-16.846281
9.527207
38.239090
64.785118
87.438980
105.686630
118.327011
124.819969
126.883514
126.897163
125.267990
119.356773
104.666107
79.472702
48.275616
18.937134
-1.826582
-10.769341
-8.698498
0.765657
12.732818
22.370699
26.320873
24.211292
19.074497
14.663747
12.435491
11.017755
7.376000
-0.492389
-11.611289
-23.201075
-32.680229
-38.696960
-41.333443
-41.445595
-39.980053
-37.759914
-35.340679
-32.683071
-29.074303
-23.926203
-17.584955
-11.302262
-6.975285
-7.038456
-14.174937
-30.180597
-54.565968
-83.894287
-112.615112
-136.602707
-155.787109
-171.943314
-185.583801
-195.636459
-200.748230
-200.916992
-197.336472
-188.651840
-168.911438
-133.121536
-83.514343
-29.280807
17.246265
46.169205
53.831451
41.466984
13.218526
-23.387451
-57.519249
-79.523819
-85.871651
-79.873314
-69.485718
-62.291851
-61.484634
-66.627907
-75.730217
-86.238831
-95.532700
-101.800842
-105.035881
-107.260933
-111.707886
-120.283714
-131.592636
-142.121277
-148.426392
-148.634598
-142.981110
-132.896255
-119.998978
-105.962440
-92.585533
-81.423279
-73.253723
-67.795494
-63.767635
-59.543503
-53.830063
-45.816662
-34.973267
-20.613195
-1.796043
21.956448
50.323578
83.273651
121.607521
164.655396
207.637878
241.788620
256.837128
246.407394
212.464600
164.275970
114.898155
76.392715
55.517769
51.920597
58.732445
67.198586
71.233543
68.026665
56.886127
37.723888
10.414868
-24.068081
-62.785282
-102.165352
-139.590820
-173.320206
-201.866379
-223.882324
-238.434235
-245.495560
-246.312485
-243.086105
-237.991928
-231.339752
-220.340271
-200.590088
-168.789749
-125.679726
-77.628075
-34.314205
-4.914664
5.702192
-0.725810
-17.530567
-36.271835
-49.953873
-54.981110
-50.213036
-35.656273
-12.633310
15.835628
45.964039
74.673607
100.754120
125.245918
150.140152
176.673981
204.264862
230.287903
251.463821
265.693085
273.321960
277.252472
280.770203
285.400604
291.022095
296.908783
302.689148
308.625580
314.703888
319.975159
323.509827
325.472015
326.763489
328.099091
329.371857
329.712494
328.671814
327.006042
325.571594
324.166534
322.077118
318.924469
314.467255
308.157715
299.300415
287.389099
272.028961
252.464691
226.999237
193.405212
151.525177
105.025642
58.889774
16.294884
-21.751528
-55.645298
-86.618835
-116.537407
-147.685043
-181.937454
-218.906555
-255.040604
-286.069122
-309.578217
-324.677307
-330.915833
-328.421051
-318.578766
-304.235504
-289.079041
-275.805481
-264.830688
-255.445663
-247.317139
-240.357559
-233.822983
-225.523239
-211.872421
-189.766586
-158.591187
-120.584846
-80.002892
-40.919952
-5.292361
27.103264
57.920055
89.177460
122.362083
157.933380
194.864609
230.231140
259.445740
278.238831
284.785492
280.251099
268.184235
252.597916
236.262772
220.581482
205.956268
191.909988
177.059052
159.308502
136.382706
106.916229
71.452728
32.466473
-6.345245
-41.688446
-72.131058
-98.205872
-121.800079
-145.014389
-169.195251
-194.719711
-220.961212
-246.082977
-266.887970
-279.298309
-279.347870
-264.848907
-236.875854
-199.769150
-159.894669
-122.772934
-90.803101
-64.097748
-42.347385
-26.029369
-16.409403
-13.676208
-15.567536
-18.784475
-20.756596
-19.510056
-12.960084
0.930517
23.230558
52.616489
84.837952
114.817078
139.003723
155.801987
165.168625
168.108292
166.273987
161.496841
155.122086
147.161591
135.925644
119.216560
95.964806
67.309998
36.831165
9.091361
-12.235408
-25.662619
-32.351654
-34.982391
-36.327755
-38.452545
-42.338871
-47.972248
-54.623100
-61.381672
-67.710579
-73.728310
-80.156075
-87.673439
-96.325562
-105.609619
-114.787819
-123.081825
-129.727097
-133.889374
-134.612793
-130.957794
-122.206696
-108.097725
-89.115257
-66.824814
-43.969719
-23.755566
-8.770121
0.112175
4.276964
6.450678
9.420821
15.193588
24.531443
36.983345
51.104248
64.944954
76.754028
85.823296
92.811363
98.609428
103.147675
105.528641
104.741959
100.365616
92.817696
82.673790
69.950302
54.204010
35.018562
12.574954
-12.023420
-37.114368
-61.125526
-83.203697
-103.406578
-121.895195
-138.157898
-151.246429
-160.290924
-164.690811
-164.160980
-158.894943
-149.845703
-138.933182
-128.788925
-121.466484
-117.296562
-115.214752
-113.674866
-111.492279
-108.208565
-103.508904
-96.618568
-86.505508
-72.368767
-53.935802
-31.461426
-5.358939
23.932417
55.243694
86.027901
112.816933
132.190781
141.875000
141.506500
132.481003
117.486862
99.936539
83.299431
70.204224
61.692406
57.245827
55.235992
53.760681
51.430420
47.723419
43.118271
38.900070
36.632469
37.051067
39.131680
40.421223
38.202614
31.339607
21.348385
10.902310
1.863691
-5.339663
-11.497182
-17.768137
-24.926912
-33.165436
-42.017250
-50.258671
-56.197018
-58.889240
-58.974609
-57.657459
-55.533051
-52.818279
-49.900417
-47.137054
-44.392757
-40.953747
-35.861343
-28.680954
-19.868584
-9.932858
1.151462
12.910619
23.502735
30.912848
34.424870
34.519440
32.058666
27.521854
20.787064
11.933504
1.913979
-8.018184
-17.158661
-25.540976
-33.663437
-41.877979
-50.008488
-57.701969
-64.761192
-70.834579
-75.190659
-77.362411
-77.817596
-77.609283
-77.448151
-76.696907
-73.316727
-65.968697
-55.693260
-44.564713
-33.951759
-24.712193
-17.700541
-13.107023
-10.047730
-7.917109
-7.266069
-7.871017
-7.023563
-1.392564
10.234808
26.098553
42.280125
55.335304
64.197388
69.079224
70.398399
69.956360
71.020531
74.180344
75.284599
71.832298
67.564934
65.263931
60.673782
50.450298
40.214447
37.955498
44.263760
52.018448
53.191566
49.630219
54.805111
73.875641
90.662277
89.917549
78.084732
66.223793
49.347969
17.121998
-27.082947
-64.477592
-73.857018
-55.583611
-39.925941
-51.491749
-78.112869
-92.842819
-85.775078
-64.677765
-41.990040
-24.564110
-10.896008
1.313127
9.198299
10.134700
7.379405
5.328326
3.959127
2.045721
1.358677
3.971444
8.726354
13.225404
16.765856
19.469925
20.487906
18.380362
12.420854
3.384166
-6.483444
-14.627806
-19.103539
-18.239382
-10.696167
2.693554
17.989040
31.232212
41.603737
50.505943
59.249157
67.717552
74.332451
77.772362
78.512527
78.262512
78.405624
78.297798
74.650261
63.703781
43.909756
16.998056
-12.407820
-39.190014
-60.151619
-74.605431
-83.838699
-89.551216
-92.552963
-92.846619
-90.092033
-83.747467
-73.066231
-57.389149
-36.856915
-13.485523
8.637444
25.643034
36.131428
40.851192
41.545525
40.271633
39.001198
39.135708
41.050758
44.064491
46.718014
47.461468
45.320457
40.083855
32.132454
21.850304
9.179104
-6.023433
-23.248310
-40.706100
-55.518200
-65.643150
-71.433479
-74.639702
-76.956177
-79.783707
-84.083351
-89.242867
-92.374924
-90.087311
-80.934380
-66.662262
-51.807117
-40.536343
-33.702679
-29.232828
-24.194592
-17.451962
-10.932068
-7.120074
-5.983758
-4.541613
1.319792
12.803792
26.043661
36.303299
42.516720
46.402706
49.785915
53.357666
56.820568
60.173092
64.340538
69.710999
75.038338
79.032326
81.745193
82.832237
79.670616
68.693970
47.981033
19.143545
-12.461297
-40.748299
-62.036945
-75.445648
-82.032127
-83.504646
-81.160530
-75.509209
-66.367836
-53.624104
-37.999557
-21.176786
-5.521199
6.628565
13.657580
14.994773
11.226231
3.901640
-4.954371
-13.744231
-21.855032
-29.036936
-34.815666
-39.032429
-42.407223
-45.927685
-49.957371
-54.062714
-57.464622
-60.024494
-62.606861
-65.659088
-68.074059
-68.443436
-66.615189
-63.434200
-59.676537
-55.105831
-48.218002
-37.384384
-22.119690
-3.339097
16.944286
36.339619
52.804272
65.090820
72.913399
76.645470
77.000984
74.981377
71.743843
68.043922
63.803410
58.495148
51.740131
43.582806
34.490028
25.056679
15.761606
7.058764
-0.462370
-6.128580
-9.422070
-10.388427
-9.854372
-8.949783
-8.389430
-7.962324
-6.545370
-3.176080
1.908237
7.406813
11.678724
13.733401
13.936853
13.750407
15.000394
18.891590
25.345213
33.357082
41.609756
48.770039
53.536839
