EVENT_NAME: EMILIA_2ND_SHOCK
EVENT_ID: IT-2012-0011
EVENT_DATE_YYYYMMDD: 20120529
EVENT_TIME_HHMMSS: 070002
EVENT_LATITUDE_DEGREE: 44.8417
EVENT_LONGITUDE_DEGREE: 11.0657
EVENT_DEPTH_KM: 8.1
HYPOCENTER_REFERENCE: INGV-CNT_Seismic_Bulletin
MAGNITUDE_W: 6.0
MAGNITUDE_W_REFERENCE: RCMT-INGV
MAGNITUDE_L: 5.8
MAGNITUDE_L_REFERENCE: INGV-CNT_Seismic_Bulletin
FOCAL_MECHANISM: TF
NETWORK: IV
STATION_CODE: T0824
STATION_NAME: T0824
STATION_LATITUDE_DEGREE: 44.759400
STATION_LONGITUDE_DEGREE: 10.927600
STATION_ELEVATION_M: 72
LOCATION: 
SENSOR_DEPTH_M: 1.0
VS30_M/S: 
SITE_CLASSIFICATION_EC8: C*
MORPHOLOGIC_CLASSIFICATION: 
EPICENTRAL_DISTANCE_KM: 14.2
EARTHQUAKE_BACKAZIMUTH_DEGREE: 50.0
DATE_TIME_FIRST_SAMPLE_YYYYMMDD_HHMMSS: 20120529_065943.000
DATE_TIME_FIRST_SAMPLE_PRECISION: milliseconds
SAMPLING_INTERVAL_S: 0.005000
NDATA: 22001
DURATION_S: 110.005
STREAM: HNE
UNITS: cm/s
INSTRUMENT: sensor = Episensor FBA ES-T [Kinemetrics] | digitizer = Unknown [Unknown]
INSTRUMENT_ANALOG/DIGITAL: D
INSTRUMENTAL_FREQUENCY_HZ: 
INSTRUMENTAL_DAMPING: 
FULL_SCALE_G: 
N_BIT_DIGITAL_CONVERTER: 
PGV_CM/S: -13.579104
TIME_PGV_S: 30.065000
BASELINE_CORRECTION: BASELINE REMOVED
FILTER_TYPE: BUTTERWORTH
FILTER_ORDER: 2
LOW_CUT_FREQUENCY_HZ: 0.060
HIGH_CUT_FREQUENCY_HZ: 40.000
LATE/NORMAL_TRIGGERED: NT
DATABASE_VERSION: DYNA 1.0
HEADER_FORMAT: DYNA 1.2
DATA_TYPE: VELOCITY
PROCESSING: manual (Paolucci et al., 2011)
DATA_TIMESTAMP_YYYYMMDD_HHMMSS: 
DATA_LICENSE: CC-BY4_0 (http://creativecommons.org/licenses/by/4.0/)
DATA_CITATION: ESM working group (2015), European Strong-Motion database, version 0.1, Network Activity 3: Networking acceleration networks and SM data users. Project NERA (www.nera-eu.org)
DATA_CREATOR: ESM working group
ORIGINAL_DATA_MEDIATOR_CITATION: Orfeus - European Integrated Data Archive (EIDA) http://www.orfeus-eu.org/eida/
ORIGINAL_DATA_MEDIATOR: Orfeus - European Integrated Data Archive (EIDA)
ORIGINAL_DATA_CREATOR_CITATION: Data for this study comes from the Italian national seismic network operated by Istituto Nazionale di Geofisica e Vulcanologia and archived at the European Integrated Data Archive http://eida.rm.ingv.it/
ORIGINAL_DATA_CREATOR: network: IV (Italian National Seismic Network); owner: Istituto Nazionale di Geofisica e Vulcanologia
USER1: 
USER2: 
USER3: 
USER4: 
USER5: 
[...]
-0.144810
-0.144992
-0.145171
-0.145342
-0.145498
-0.145640
-0.145771
-0.145900
-0.146031
-0.146161
-0.146291
-0.146422
-0.146559
-0.146701
-0.146844
-0.146988
-0.147128
-0.147261
-0.147389
-0.147513
-0.147627
-0.147704
-0.147705
-0.147602
-0.147398
-0.147121
-0.146798
-0.146445
-0.146091
-0.145799
-0.145633
-0.145574
-0.145502
-0.145304
-0.145022
-0.144852
-0.144953
-0.145239
-0.145401
-0.145144
-0.144400
-0.143324
-0.142132
-0.140972
-0.139945
-0.139164
-0.138750
-0.138778
-0.139164
-0.139535
-0.139208
-0.137479
-0.134145
-0.129801
-0.125605
-0.122700
-0.121732
-0.122722
-0.125185
-0.128247
-0.130825
-0.132108
-0.132090
-0.131425
-0.130652
-0.129673
-0.128124
-0.126120
-0.124332
-0.123203
-0.122320
-0.120936
-0.119178
-0.118506
-0.120631
-0.125736
-0.131764
-0.135770
-0.136109
-0.133184
-0.128172
-0.121523
-0.113197
-0.104547
-0.099534
-0.102828
-0.115774
-0.134428
-0.152001
-0.163333
-0.167221
-0.165092
-0.158231
-0.146767
-0.131360
-0.115234
-0.103784
-0.101652
-0.109773
-0.124604
-0.139998
-0.150589
-0.154163
-0.151221
-0.143266
-0.132435
-0.122097
-0.116074
-0.116182
-0.120836
-0.126667
-0.131452
-0.135156
-0.138413
-0.140973
-0.142307
-0.143234
-0.145817
-0.151264
-0.158460
-0.164644
-0.166994
-0.163552
-0.153758
-0.139208
-0.123694
-0.111514
-0.105136
-0.104433
-0.108253
-0.116466
-0.129727
-0.146989
-0.164031
-0.175221
-0.176831
-0.169146
-0.156037
-0.142452
-0.131736
-0.124927
-0.122205
-0.124264
-0.131585
-0.142577
-0.153411
-0.160593
-0.163565
-0.163985
-0.162514
-0.157313
-0.146400
-0.131155
-0.116826
-0.109205
-0.110365
-0.117324
-0.124922
-0.130237
-0.134334
-0.139927
-0.147557
-0.154263
-0.156273
-0.152952
-0.147556
-0.143849
-0.142418
-0.140678
-0.136350
-0.130378
-0.126080
-0.125742
-0.128789
-0.133372
-0.138870
-0.145894
-0.153789
-0.159042
-0.157289
-0.147365
-0.133248
-0.121720
-0.117756
-0.121400
-0.128515
-0.134630
-0.138264
-0.140635
-0.142631
-0.142827
-0.138844
-0.130488
-0.121185
-0.115990
-0.117855
-0.125576
-0.135255
-0.143459
-0.148848
-0.151352
-0.150634
-0.145822
-0.136901
-0.126104
-0.117186
-0.112844
-0.113044
-0.116098
-0.121183
-0.129158
-0.140209
-0.150933
-0.155442
-0.150573
-0.139326
-0.128127
-0.120749
-0.115751
-0.110094
-0.104280
-0.102503
-0.107597
-0.117221
-0.125846
-0.129904
-0.130237
-0.129782
-0.129985
-0.130063
-0.129097
-0.127516
-0.126075
-0.124140
-0.119911
-0.112581
-0.103792
-0.096416
-0.091931
-0.089376
-0.086905
-0.084143
-0.082949
-0.085898
-0.093880
-0.104847
-0.114420
-0.117661
-0.111405
-0.096370
-0.077560
-0.062180
-0.056098
-0.060996
-0.073934
-0.089596
-0.103424
-0.113247
-0.118741
-0.120253
-0.118307
-0.113540
-0.106501
-0.097645
-0.087987
-0.079775
-0.075781
-0.077269
-0.082750
-0.089206
-0.094551
-0.098668
-0.102528
-0.107012
-0.112485
-0.118695
-0.124380
-0.127198
-0.124918
-0.117427
-0.107685
-0.100262
-0.098254
-0.101274
-0.106536
-0.111714
-0.116213
-0.119566
-0.119663
-0.113784
-0.101691
-0.087456
-0.077722
-0.077204
-0.085166
-0.096327
-0.105398
-0.110796
-0.114320
-0.117902
-0.121275
-0.122873
-0.122312
-0.121050
-0.120392
-0.119548
-0.116466
-0.110781
-0.105453
-0.104820
-0.110819
-0.121247
-0.131448
-0.137337
-0.137219
-0.131681
-0.122409
-0.111125
-0.099447
-0.089324
-0.082895
-0.081433
-0.084570
-0.090919
-0.099517
-0.110235
-0.122140
-0.131630
-0.133543
-0.125480
-0.110991
-0.097392
-0.089603
-0.086434
-0.083604
-0.080152
-0.080544
-0.089642
-0.106346
-0.123344
-0.133246
-0.134194
-0.129094
-0.120237
-0.106360
-0.085867
-0.062025
-0.043149
-0.036473
-0.041650
-0.050665
-0.054679
-0.051236
-0.045008
-0.042080
-0.044317
-0.049393
-0.055071
-0.061651
-0.069640
-0.076398
-0.076726
-0.067095
-0.048782
-0.026580
-0.004867
0.014574
0.031032
0.041809
0.041045
0.022462
-0.014317
-0.058445
-0.090754
-0.095043
-0.068157
-0.020574
0.031953
0.078413
0.115327
0.139849
0.142272
0.109303
0.037451
-0.056210
-0.137301
-0.171255
-0.143321
-0.066704
0.027948
0.111940
0.170015
0.198229
0.195687
0.160548
0.095119
0.014054
-0.056398
-0.090908
-0.078860
-0.029613
0.032827
0.082511
0.103535
0.093432
0.059166
0.013208
-0.028022
-0.048385
-0.039909
-0.007330
0.034653
0.067940
0.077890
0.059098
0.018112
-0.028700
-0.061293
-0.063509
-0.029737
0.032152
0.104253
0.166388
0.202742
0.205038
0.173102
0.113843
0.040071
-0.030698
-0.079827
-0.093806
-0.069385
-0.015239
0.050448
0.107482
0.143070
0.155660
0.150475
0.132833
0.106473
0.076707
0.052809
0.045339
0.058790
0.085641
0.109296
0.115516
0.102808
0.083039
0.072176
0.078569
0.097406
0.115262
0.121023
0.113630
0.099533
0.083831
0.065839
0.043959
0.023475
0.016993
0.034855
0.074208
0.118088
0.145790
0.144993
0.116906
0.074074
0.034564
0.013977
0.017738
0.039303
0.066018
0.087140
0.097457
0.096110
0.085012
0.069267
0.057335
0.057712
0.073326
0.099081
0.125844
0.147106
0.161119
0.166847
0.159972
0.135712
0.096952
0.058503
0.039890
0.050265
0.079435
0.105642
0.113688
0.105638
0.095157
0.093481
0.101263
0.112399
0.123139
0.135413
0.151670
0.169165
0.181312
0.184026
0.178879
0.169842
0.158909
0.146573
0.135963
0.133958
0.146289
0.171224
0.198917
0.218349
0.225879
0.226738
0.227495
0.227524
0.219692
0.200141
0.175181
0.156414
0.149764
0.151799
0.157320
0.168019
0.191039
0.228696
0.271446
0.303180
0.314090
0.307692
0.295159
0.283989
0.273318
0.259774
0.245442
0.238011
0.243359
0.259540
0.278565
0.293544
0.304392
0.317317
0.338440
0.366778
0.392868
0.405004
0.397504
0.373077
0.338900
0.302567
0.271456
0.253663
0.257162
0.286146
0.337328
0.400505
0.463299
0.514911
0.545808
0.546895
0.512732
0.447560
0.368247
0.299185
0.260491
0.258096
0.283629
0.322540
0.362329
0.395734
0.419546
0.432435
0.434744
0.429916
0.424516
0.425407
0.435902
0.453232
0.468714
0.471413
0.454584
0.421127
0.383211
0.355713
0.348536
0.362936
0.393210
0.431238
0.469082
0.497473
0.504651
0.481503
0.430583
0.368634
0.318235
0.295865
0.305221
0.338600
0.383375
0.427687
0.462207
0.480660
0.481978
0.471931
0.460834
0.457640
0.464045
0.472506
0.470137
0.447307
0.405473
0.357751
0.321570
0.309569
0.325032
0.363250
0.415931
0.474413
0.528530
0.563270
0.561234
0.513637
0.430614
0.340010
0.273705
0.250592
0.269286
0.316234
0.378745
0.447939
0.511444
0.549332
0.542633
0.488795
0.409838
0.343392
0.320698
0.348387
0.408890
0.477055
0.536290
0.580863
0.607064
0.607632
0.578819
0.532504
0.496036
0.494815
0.533159
0.592123
0.645223
0.676150
0.684129
0.675903
0.654989
0.620882
0.578681
0.544875
0.539105
0.569641
0.626927
0.689914
0.737897
0.757981
0.745281
0.701399
0.636115
0.568522
0.521110
0.508761
0.532068
0.580228
0.639504
0.699321
0.751522
0.786630
0.795719
0.778995
0.751005
0.734724
0.748462
0.795146
0.860501
0.920798
0.955243
0.954440
0.920125
0.861404
0.793976
0.738901
0.715292
0.730461
0.776365
0.836108
0.894988
0.945969
0.985221
1.005189
0.995916
0.954829
0.893973
0.835265
0.796682
0.782192
0.784371
0.794146
0.805716
0.813999
0.812414
0.796632
0.770152
0.744817
0.734477
0.745778
0.773768
0.807371
0.839731
0.872561
0.910237
0.950747
0.983887
0.999214
0.995807
0.983830
0.976849
0.982912
1.001564
1.026757
1.051337
1.070353
1.082351
1.088289
1.089034
1.083887
1.071859
1.054645
1.038017
1.029402
1.033462
1.049979
1.075627
1.107110
1.142312
1.178268
1.208639
1.225611
1.226351
1.217155
1.209773
1.212679
1.225429
1.241176
1.254513
1.266707
1.283354
1.307490
1.335560
1.360027
1.375630
1.383830
1.392003
1.407267
1.429114
1.447602
1.450557
1.434474
1.408358
1.385746
1.372461
1.362750
1.347749
1.326691
1.308549
1.302510
1.308162
1.316612
1.321180
1.324663
1.334315
1.351068
1.366645
1.372599
1.370659
1.371999
1.385685
1.408868
1.429718
1.440283
1.445590
1.459382
1.491483
1.540440
1.598274
1.659456
1.722508
1.783978
1.835231
1.867789
1.880574
1.880297
1.874938
1.867660
1.856966
1.841113
1.820452
1.795388
1.764282
1.725383
1.680522
1.634817
1.591549
1.548162
1.497934
1.434860
1.356111
1.260428
1.146158
1.013092
0.867010
0.721241
0.591945
0.491069
0.422999
0.385959
0.375199
0.385631
0.412432
0.449209
0.485691
0.507576
0.500155
0.454821
0.373661
0.267289
0.147206
0.019046
-0.118403
-0.268569
-0.431345
-0.601806
-0.774552
-0.948752
-1.128776
-1.320599
-1.528299
-1.753510
-1.996454
-2.255991
-2.528883
-2.810501
-3.097588
-3.390778
-3.694502
-4.014083
-4.351942
-4.705236
-5.066076
-5.423497
-5.764363
-6.071769
-6.324123
-6.498017
-6.574636
-6.547530
-6.426770
-6.234710
-5.996161
-5.729917
-5.443235
-5.129137
-4.769943
-4.346808
-3.848477
-3.273783
-2.629351
-1.927098
-1.183462
-0.419677
0.339142
1.068134
1.748340
2.370914
2.937328
3.453904
3.924062
4.344131
4.704868
4.996599
5.214467
5.361485
5.448635
5.491504
5.503781
5.491467
5.452732
5.383110
5.280399
5.144163
4.970759
4.750503
4.472203
4.132420
3.740818
3.316596
2.880107
2.448056
2.037469
1.673065
1.383377
1.183563
1.063396
0.993675
0.943228
0.891379
0.830668
0.764652
0.704351
0.662868
0.649240
0.665727
0.710336
0.780160
0.871541
0.978909
1.094612
1.209469
1.314244
1.403032
1.476682
1.542196
1.607602
1.676703
1.748173
1.819417
1.890501
1.960994
2.020409
2.045567
2.013368
1.918383
1.778398
1.623766
1.481067
1.363882
1.275094
1.214772
1.185058
1.189167
1.226586
1.288866
1.360831
1.427366
1.479988
1.518450
1.548813
1.581375
1.628312
1.699788
1.800204
1.927069
2.072374
2.223899
2.365673
2.480572
2.556783
2.593281
2.598484
2.585383
2.569266
2.564702
2.577387
2.597283
2.602293
2.571146
2.494673
2.377988
2.234856
2.079547
1.921822
1.767322
1.619713
1.480094
1.344524
1.204635
1.053639
0.893065
0.733193
0.586268
0.459456
0.354919
0.276121
0.232877
0.239448
0.306322
0.433179
0.610659
0.828020
1.076879
1.348352
1.630640
1.911809
2.183131
2.437452
2.665121
2.854547
2.998204
3.097607
3.164304
3.218308
3.282397
3.372405
3.490051
3.623027
3.750616
3.850635
3.903893
3.894874
3.812566
3.654401
3.429002
3.152830
2.842853
2.511798
2.170621
1.835907
1.532358
1.284531
1.104487
0.985046
0.903249
0.832515
0.754991
0.664666
0.561685
0.446889
0.321771
0.190301
0.058426
-0.066985
-0.176690
-0.257137
-0.293697
-0.277569
-0.208193
-0.091395
0.059922
0.223412
0.370344
0.475479
0.527278
0.530491
0.498474
0.441448
0.361163
0.256344
0.133209
0.010627
-0.086235
-0.137629
-0.134366
-0.075417
0.034332
0.183336
0.352476
0.517752
0.658591
0.766794
0.846825
0.906938
0.950683
0.976755
0.986252
0.988868
0.999976
1.030906
1.083207
1.152218
1.234572
1.330950
1.440891
1.555803
1.660274
1.742577
1.803251
1.852649
1.900703
1.949580
1.995060
2.032453
2.059519
2.075113
2.078668
2.073222
2.068269
2.077136
2.109220
2.163994
2.232617
2.304837
2.374128
2.438011
2.496070
2.548912
2.598854
2.650469
2.709166
2.778009
2.854832
2.931361
2.994996
3.032974
3.036042
2.997670
2.909939
2.761283
2.539156
2.236354
1.855954
1.410002
0.913383
0.379211
-0.180837
-0.752260
-1.313740
-1.839792
-2.310301
-2.718683
-3.072049
-3.384302
-3.668721
-3.936269
-4.198923
-4.471152
-4.766159
-5.090635
-5.442197
-5.811098
-6.185697
-6.557621
-6.922390
-7.277094
-7.619095
-7.946039
-8.254776
-8.538348
-8.783580
-8.970918
-9.075802
-9.072864
-8.942835
-8.678598
-8.288715
-7.796901
-7.233861
-6.624824
-5.983151
-5.313799
-4.621008
-3.912672
-3.198514
-2.486629
-1.784517
-1.105407
-0.474279
0.073804
0.502778
0.785812
0.913804
0.900224
0.778286
0.591811
0.386060
0.200611
0.063899
-0.011308
-0.033241
-0.032901
-0.053472
-0.131590
-0.286189
-0.519962
-0.827602
-1.204837
-1.649565
-2.149855
-2.668904
-3.142041
-3.491532
-3.654069
-3.604040
-3.356168
-2.951212
-2.439426
-1.867855
-1.273160
-0.682051
-0.114543
0.413388
0.884985
1.278430
1.570193
1.747613
1.821419
1.824815
1.799160
1.780583
1.796365
1.866128
2.001380
2.203132
2.459117
2.742742
3.016293
3.238451
3.375017
3.411076
3.357483
3.244343
3.105849
2.968508
2.847794
2.750476
2.678119
2.628212
2.594359
2.570027
2.554867
2.556908
2.588097
2.658177
2.772137
2.931137
3.134161
3.379242
3.663707
3.983042
4.329603
4.692645
5.059701
5.417614
5.751757
6.046184
6.287731
6.471994
6.607244
6.712952
6.811107
6.914951
7.024415
7.131379
7.227518
7.306475
7.360740
7.378984
7.347703
7.257346
7.108736
6.914145
6.692394
6.462316
6.238146
6.028656
5.839933
5.679162
5.556288
5.481119
5.456880
5.475969
5.522245
5.577757
5.628483
5.664995
5.678378
5.657173
5.589490
5.467213
5.287795
5.052450
4.762239
4.414553
4.002110
3.516075
2.951620
2.311132
1.603111
0.839530
0.034127
-0.798687
-1.644976
-2.492688
-3.332814
-4.159244
-4.967542
-5.752911
-6.507740
-7.221674
-7.885918
-8.498582
-9.066113
-9.599217
-10.106920
-10.594390
-11.065750
-11.527190
-11.984680
-12.435300
-12.858290
-13.215440
-13.464910
-13.579100
-13.552710
-13.398320
-13.136480
-12.786580
-12.362170
-11.871380
-11.317660
-10.698280
-10.003660
-9.220934
-8.341088
-7.366521
-6.314725
-5.214421
-4.096060
-2.986240
-1.911552
-0.904381
-0.000854
0.770399
1.400134
1.900274
2.296380
2.619408
2.899342
3.159421
3.413034
3.664491
3.911598
4.148247
4.365673
4.552715
4.698232
4.796499
4.850524
4.868450
4.856532
4.816428
4.747943
4.652590
4.535012
4.402112
4.261099
4.117890
3.977309
3.845144
3.729285
3.638400
3.579837
3.557389
3.569092
3.607158
3.660711
3.719005
3.773519
3.818563
3.850415
3.865777
3.861277
3.835983
3.794791
3.746591
3.695769
3.634486
3.544785
3.409830
3.223990
2.994122
2.734606
2.462868
2.197870
1.959903
1.768357
1.634951
1.556106
1.512136
1.473980
1.411583
1.301039
1.129048
0.892101
0.591781
0.230761
-0.187329
-0.654527
-1.154026
-1.654820
-2.107177
-2.449088
-2.630312
-2.637535
-2.495483
-2.245481
-1.925717
-1.564343
-1.179011
-0.778400
-0.369987
0.025339
0.367648
0.611657
0.726490
0.705858
0.565735
0.334959
0.047806
-0.256811
-0.536111
-0.750479
-0.872849
-0.895217
-0.829569
-0.702495
-0.549887
-0.416275
-0.349406
-0.385024
-0.534502
-0.785281
-1.110990
-1.483953
-1.883431
-2.296281
-2.713428
-3.127440
-3.532154
-3.923186
-4.298366
-4.657810
-5.005011
-5.348553
-5.700251
-6.068902
-6.455762
-6.856514
-7.266921
-7.685399
-8.109005
-8.525692
-8.909428
-9.221917
-9.421618
-9.481172
-9.404892
-9.228578
-8.998718
-8.748949
-8.490387
-8.217582
-7.921240
-7.596828
-7.243963
-6.860602
-6.440394
-5.976777
-5.469222
-4.925433
-4.358156
-3.779582
-3.197446
-2.615258
-2.036916
-1.472482
-0.937560
-0.444591
0.004733
0.418078
0.804548
1.168237
1.507577
1.818629
2.098759
2.348250
2.569243
2.763471
2.930664
3.068132
3.170896
3.232306
3.246100
3.208530
3.117367
2.968501
2.754091
2.464193
2.090153
1.626923
1.074516
0.440451
-0.258266
-0.996811
-1.746630
-2.478868
-3.167769
-3.794659
-4.350932
-4.837954
-5.263629
-5.640032
-5.984503
-6.318590
-6.661410
-7.023734
-7.408553
-7.814757
-8.238138
-8.670314
-9.099928
-9.516738
-9.914476
-10.289260
-10.636600
-10.951720
-11.231780
-11.475550
-11.679670
-11.836360
-11.936070
-11.972130
-11.943430
-11.855450
-11.721160
-11.559130
-11.387450
-11.217660
-11.053700
-10.895290
-10.740040
-10.581770
-10.409420
-10.210440
-9.975688
-9.701748
-9.391835
-9.057386
-8.716162
-8.385033
-8.073483
-7.782979
-7.510984
-7.254595
-7.009881
-6.768228
-6.515577
-6.237364
-5.925188
-5.579734
-5.207364
-4.812546
-4.393246
-3.944452
-3.465989
-2.966036
-2.457030
-1.949637
-1.452330
-0.976328
-0.539589
-0.165416
0.125117
0.322588
0.432390
0.468901
0.446623
0.375892
0.265953
0.131841
-0.002452
-0.107063
-0.152130
-0.116122
0.005531
0.199945
0.446781
0.730194
1.043281
1.383396
1.744844
2.116663
2.486649
2.846708
3.195357
3.536305
3.874258
4.211061
4.545065
4.873226
5.192645
5.499615
5.788036
6.050255
6.280872
6.480410
6.655040
6.812342
6.956702
7.087554
7.201264
7.295107
7.370214
7.431142
7.482505
7.525555
7.557401
7.573159
7.568762
7.541977
7.491644
7.416833
7.316706
7.190441
7.036256
6.850048
6.625586
6.357077
6.042570
5.685841
5.295666
4.883522
4.461650
4.041743
3.633920
3.246943
2.889033
2.567373
2.286107
2.043984
1.833793
1.645773
1.473562
1.317423
1.181294
1.066703
0.969887
0.884050
0.802910
0.721597
0.634695
0.534099
0.409819
0.253668
0.061981
-0.165037
-0.425872
-0.719293
-1.043745
-1.396193
-1.772570
-2.168932
-2.580614
-2.999412
-3.411034
-3.795005
-4.127811
-4.387789
-4.561042
-4.647263
-4.661371
-4.629093
-4.579556
-4.537830
-4.518968
-4.526628
-4.557699
-4.608926
-4.679966
-4.770953
-4.877945
-4.991656
-5.100141
-5.191148
-5.252515
-5.272628
-5.241765
-5.153161
-5.002448
-4.786562
-4.505102
-4.163678
-3.774215
-3.350764
-2.905313
-2.446632
-1.981381
-1.515690
-1.056409
-0.612373
-0.194350
0.187816
0.528917
0.830051
1.097288
1.338720
1.562651
1.778006
1.994087
2.217584
2.449271
2.683155
2.908203
3.111823
3.283645
3.417409
3.510308
3.561262
3.569810
3.536482
3.464335
3.360301
3.235972
3.107421
2.991468
2.898941
2.831084
2.782041
2.743910
2.710213
2.676897
2.642165
2.605878
2.568349
2.529065
2.487151
2.443801
2.403493
2.371603
2.350821
2.340721
2.340801
2.352727
2.379113
2.420966
2.477374
2.547584
2.632701
2.735266
2.857328
2.998428
3.154556
3.318550
3.482097
3.638254
3.782641
3.913540
4.032359
4.144063
4.255777
4.373723
4.500835
4.636708
4.779008
4.924012
5.065181
5.191781
5.290379
5.348462
5.357067
5.311609
5.211658
5.059797
4.860125
4.617324
4.336400
4.022448
3.679793
3.311159
2.918279
2.503439
2.069843
1.620281
1.155728
0.675816
0.181144
-0.324297
-0.832430
-1.333143
-1.817304
-2.277889
-2.710164
-3.113206
-3.491472
-3.854143
-4.212740
-4.579501
-4.967469
-5.390162
-5.858266
-6.375423
-6.937143
-7.529771
-8.125789
-8.683236
-9.156133
-9.509703
-9.731339
-9.831096
-9.830117
-9.746223
-9.589471
-9.369277
-9.103644
-8.821134
-8.554523
-8.333174
-8.179302
-8.106781
-8.121479
-8.223325
-8.407178
-8.661134
-8.967164
-9.306969
-9.667948
-10.043160
-10.425970
-10.806940
-11.176520
-11.528170
-11.858580
-12.166210
-12.449940
-12.707470
-12.933730
-13.120890
-13.260390
-13.344740
-13.367500
-13.322040
-13.201150
-13.000040
-12.720950
-12.373460
-11.968560
-11.512100
-11.004220
-10.444840
-9.838397
-9.191323
-8.504732
-7.770953
-6.978536
-6.120941
-5.201635
-4.232931
-3.231183
-2.213785
-1.200499
-0.213974
0.724756
1.601554
2.410408
