EVENT_NAME: EMILIA_2ND_SHOCK
EVENT_ID: IT-2012-0011
EVENT_DATE_YYYYMMDD: 20120529
EVENT_TIME_HHMMSS: 070002
EVENT_LATITUDE_DEGREE: 44.8417
EVENT_LONGITUDE_DEGREE: 11.0657
EVENT_DEPTH_KM: 8.1
HYPOCENTER_REFERENCE: INGV-CNT_Seismic_Bulletin
MAGNITUDE_W: 6.0
MAGNITUDE_W_REFERENCE: RCMT-INGV
MAGNITUDE_L: 5.8
MAGNITUDE_L_REFERENCE: INGV-CNT_Seismic_Bulletin
FOCAL_MECHANISM: TF
NETWORK: IV
STATION_CODE: T0812
STATION_NAME: T0812
STATION_LATITUDE_DEGREE: 44.954700
STATION_LONGITUDE_DEGREE: 11.181000
STATION_ELEVATION_M: 7
LOCATION: 
SENSOR_DEPTH_M: 1.0
VS30_M/S: 
SITE_CLASSIFICATION_EC8: C*
MORPHOLOGIC_CLASSIFICATION: 
EPICENTRAL_DISTANCE_KM: 15.5
EARTHQUAKE_BACKAZIMUTH_DEGREE: 216.0
DATE_TIME_FIRST_SAMPLE_YYYYMMDD_HHMMSS: 20120529_065952.000
DATE_TIME_FIRST_SAMPLE_PRECISION: milliseconds
SAMPLING_INTERVAL_S: 0.005000
NDATA: 30001
DURATION_S: 150.005
STREAM: HNE
UNITS: cm
INSTRUMENT: sensor = Episensor FBA ES-T [Kinemetrics] | digitizer = Unknown [Unknown]
INSTRUMENT_ANALOG/DIGITAL: D
INSTRUMENTAL_FREQUENCY_HZ: 
INSTRUMENTAL_DAMPING: 
FULL_SCALE_G: 
N_BIT_DIGITAL_CONVERTER: 
PGD_CM: -4.080902
TIME_PGD_S: 25.285000
BASELINE_CORRECTION: BASELINE REMOVED
FILTER_TYPE: BUTTERWORTH
FILTER_ORDER: 2
LOW_CUT_FREQUENCY_HZ: 0.060
HIGH_CUT_FREQUENCY_HZ: 40.000
LATE/NORMAL_TRIGGERED: NT
DATABASE_VERSION: DYNA 1.0
HEADER_FORMAT: DYNA 1.2
DATA_TYPE: DISPLACEMENT
PROCESSING: manual (Paolucci et al., 2011)
DATA_TIMESTAMP_YYYYMMDD_HHMMSS: 
DATA_LICENSE: CC-BY4_0 (http://creativecommons.org/licenses/by/4.0/)
DATA_CITATION: ESM working group (2015), European Strong-Motion database, version 0.1, Network Activity 3: Networking acceleration networks and SM data users. Project NERA (www.nera-eu.org)
DATA_CREATOR: ESM working group
ORIGINAL_DATA_MEDIATOR_CITATION: Orfeus - European Integrated Data Archive (EIDA) http://www.orfeus-eu.org/eida/
ORIGINAL_DATA_MEDIATOR: Orfeus - European Integrated Data Archive (EIDA)
ORIGINAL_DATA_CREATOR_CITATION: Data for this study comes from the Italian national seismic network operated by Istituto Nazionale di Geofisica e Vulcanologia and archived at the European Integrated Data Archive http://eida.rm.ingv.it/
ORIGINAL_DATA_CREATOR: network: IV (Italian National Seismic Network); owner: Istituto Nazionale di Geofisica e Vulcanologia
USER1: 
USER2: 
USER3: 
USER4: 
USER5: 
[...]
5.249432e-01
5.427512e-01
5.607321e-01
5.787301e-01
5.965837e-01
6.141624e-01
6.313893e-01
6.482490e-01
6.647801e-01
6.810525e-01
6.971425e-01
7.131267e-01
7.290983e-01
7.451911e-01
7.615868e-01
7.784914e-01
7.960958e-01
8.145417e-01
8.339020e-01
8.541777e-01
8.753027e-01
8.971523e-01
9.195630e-01
9.423702e-01
9.654527e-01
9.887628e-01
1.012327e+00
1.036218e+00
1.060511e+00
1.085261e+00
1.110500e+00
1.136242e+00
1.162477e+00
1.189174e+00
1.216298e+00
1.243841e+00
1.271840e+00
1.300348e+00
1.329375e+00
1.358843e+00
1.388584e+00
1.418389e+00
1.448070e+00
1.477499e+00
1.506622e+00
1.535457e+00
1.564073e+00
1.592559e+00
1.620995e+00
1.649413e+00
1.677770e+00
1.705950e+00
1.733792e+00
1.761153e+00
1.787952e+00
1.814180e+00
1.839882e+00
1.865113e+00
1.889915e+00
1.914310e+00
1.938312e+00
1.961941e+00
1.985238e+00
2.008280e+00
2.031202e+00
2.054195e+00
2.077494e+00
2.101341e+00
2.125950e+00
2.151471e+00
2.177981e+00
2.205481e+00
2.233899e+00
2.263098e+00
2.292906e+00
2.323150e+00
2.353678e+00
2.384345e+00
2.414985e+00
2.445387e+00
2.475313e+00
2.504555e+00
2.532990e+00
2.560599e+00
2.587428e+00
2.613540e+00
2.638955e+00
2.663621e+00
2.687408e+00
2.710156e+00
2.731729e+00
2.752049e+00
2.771102e+00
2.788898e+00
2.805449e+00
2.820771e+00
2.834919e+00
2.848010e+00
2.860229e+00
2.871795e+00
2.882904e+00
2.893681e+00
2.904147e+00
2.914205e+00
2.923659e+00
2.932257e+00
2.939768e+00
2.946051e+00
2.951090e+00
2.954990e+00
2.957925e+00
2.960084e+00
2.961640e+00
2.962734e+00
2.963465e+00
2.963879e+00
2.963955e+00
2.963616e+00
2.962751e+00
2.961250e+00
2.959020e+00
2.955988e+00
2.952088e+00
2.947263e+00
2.941465e+00
2.934677e+00
2.926926e+00
2.918296e+00
2.908923e+00
2.898982e+00
2.888666e+00
2.878161e+00
2.867622e+00
2.857144e+00
2.846743e+00
2.836352e+00
2.825846e+00
2.815088e+00
2.803997e+00
2.792568e+00
2.780867e+00
2.768984e+00
2.756979e+00
2.744858e+00
2.732581e+00
2.720107e+00
2.707441e+00
2.694648e+00
2.681826e+00
2.669077e+00
2.656470e+00
2.644052e+00
2.631850e+00
2.619894e+00
2.608206e+00
2.596788e+00
2.585595e+00
2.574532e+00
2.563477e+00
2.552322e+00
2.540998e+00
2.529485e+00
2.517798e+00
2.505987e+00
2.494143e+00
2.482399e+00
2.470900e+00
2.459758e+00
2.449007e+00
2.438600e+00
2.428440e+00
2.418423e+00
2.408471e+00
2.398554e+00
2.388699e+00
2.379001e+00
2.369608e+00
2.360699e+00
2.352457e+00
2.345051e+00
2.338649e+00
2.333425e+00
2.329538e+00
2.327094e+00
2.326078e+00
2.326290e+00
2.327313e+00
2.328551e+00
2.329367e+00
2.329259e+00
2.327951e+00
2.325392e+00
2.321658e+00
2.316864e+00
2.311120e+00
2.304554e+00
2.297350e+00
2.289787e+00
2.282219e+00
2.275025e+00
2.268530e+00
2.262946e+00
2.258340e+00
2.254662e+00
2.251809e+00
2.249687e+00
2.248239e+00
2.247444e+00
2.247294e+00
2.247784e+00
2.248896e+00
2.250593e+00
2.252831e+00
2.255575e+00
2.258814e+00
2.262578e+00
2.266928e+00
2.271955e+00
2.277766e+00
2.284485e+00
2.292227e+00
2.301056e+00
2.310946e+00
2.321772e+00
2.333339e+00
2.345446e+00
2.357949e+00
2.370796e+00
2.384018e+00
2.397685e+00
2.411823e+00
2.426325e+00
2.440916e+00
2.455203e+00
2.468777e+00
2.481311e+00
2.492591e+00
2.502502e+00
2.510986e+00
2.518021e+00
2.523617e+00
2.527840e+00
2.530823e+00
2.532763e+00
2.533884e+00
2.534389e+00
2.534414e+00
2.534008e+00
2.533146e+00
2.531772e+00
2.529831e+00
2.527269e+00
2.523999e+00
2.519871e+00
2.514681e+00
2.508220e+00
2.500327e+00
2.490935e+00
2.480072e+00
2.467855e+00
2.454461e+00
2.440091e+00
2.424940e+00
2.409154e+00
2.392820e+00
2.375993e+00
2.358764e+00
2.341312e+00
2.323913e+00
2.306896e+00
2.290553e+00
2.275071e+00
2.260516e+00
2.246873e+00
2.234119e+00
2.222267e+00
2.211357e+00
2.201418e+00
2.192422e+00
2.184258e+00
2.176750e+00
2.169725e+00
2.163082e+00
2.156827e+00
2.151054e+00
2.145909e+00
2.141540e+00
2.138090e+00
2.135699e+00
2.134516e+00
2.134699e+00
2.136404e+00
2.139774e+00
2.144924e+00
2.151937e+00
2.160843e+00
2.171602e+00
2.184100e+00
2.198172e+00
2.213623e+00
2.230241e+00
2.247789e+00
2.265995e+00
2.284558e+00
2.303176e+00
2.321588e+00
2.339596e+00
2.357063e+00
2.373895e+00
2.390014e+00
2.405362e+00
2.419896e+00
2.433586e+00
2.446417e+00
2.458392e+00
2.469529e+00
2.479861e+00
2.489418e+00
2.498203e+00
2.506175e+00
2.513249e+00
2.519297e+00
2.524159e+00
2.527658e+00
2.529616e+00
2.529861e+00
2.528228e+00
2.524561e+00
2.518705e+00
2.510517e+00
2.499863e+00
2.486638e+00
2.470782e+00
2.452282e+00
2.431160e+00
2.407442e+00
2.381141e+00
2.352254e+00
2.320785e+00
2.286752e+00
2.250194e+00
2.211169e+00
2.169769e+00
2.126134e+00
2.080475e+00
2.033075e+00
1.984262e+00
1.934370e+00
1.883709e+00
1.832539e+00
1.781075e+00
1.729506e+00
1.678000e+00
1.626709e+00
1.575763e+00
1.525268e+00
1.475302e+00
1.425928e+00
1.377201e+00
1.329188e+00
1.281975e+00
1.235680e+00
1.190449e+00
1.146447e+00
1.103848e+00
1.062812e+00
1.023469e+00
9.859223e-01
9.502515e-01
9.165340e-01
8.848574e-01
8.553273e-01
8.280658e-01
8.032025e-01
7.808560e-01
7.611133e-01
7.440148e-01
7.295560e-01
7.176978e-01
7.083805e-01
7.015382e-01
6.971101e-01
6.950467e-01
6.953125e-01
6.978837e-01
7.027429e-01
7.098666e-01
7.192098e-01
7.306968e-01
7.442248e-01
7.596814e-01
7.769660e-01
7.960038e-01
8.167501e-01
8.391886e-01
8.633253e-01
8.891752e-01
9.167472e-01
9.460321e-01
9.769944e-01
1.009564e+00
1.043632e+00
1.079052e+00
1.115648e+00
1.153224e+00
1.191576e+00
1.230502e+00
1.269816e+00
1.309367e+00
1.349049e+00
1.388794e+00
1.428562e+00
1.468326e+00
1.508061e+00
1.547732e+00
1.587289e+00
1.626656e+00
1.665736e+00
1.704422e+00
1.742601e+00
1.780166e+00
1.817026e+00
1.853106e+00
1.888347e+00
1.922679e+00
1.956004e+00
1.988179e+00
2.019024e+00
2.048348e+00
2.075965e+00
2.101696e+00
2.125367e+00
2.146804e+00
2.165837e+00
2.182304e+00
2.196058e+00
2.206965e+00
2.214911e+00
2.219797e+00
2.221544e+00
2.220082e+00
2.215347e+00
2.207268e+00
2.195773e+00
2.180809e+00
2.162391e+00
2.140654e+00
2.115885e+00
2.088508e+00
2.058978e+00
2.027670e+00
1.994795e+00
1.960406e+00
1.924447e+00
1.886827e+00
1.847473e+00
1.806359e+00
1.763500e+00
1.718959e+00
1.672841e+00
1.625297e+00
1.576500e+00
1.526624e+00
1.475805e+00
1.424140e+00
1.371690e+00
1.318504e+00
1.264646e+00
1.210204e+00
1.155312e+00
1.100156e+00
1.044973e+00
9.900357e-01
9.356248e-01
8.820033e-01
8.294115e-01
7.780790e-01
7.282388e-01
6.801289e-01
6.339749e-01
5.899653e-01
5.482358e-01
5.088686e-01
4.719083e-01
4.373856e-01
4.053378e-01
3.758147e-01
3.488717e-01
3.245551e-01
3.028901e-01
2.838742e-01
2.674810e-01
2.536717e-01
2.424092e-01
2.336694e-01
2.274432e-01
2.237348e-01
2.225544e-01
2.239097e-01
2.277940e-01
2.341707e-01
2.429601e-01
2.540358e-01
2.672309e-01
2.823543e-01
2.992153e-01
3.176512e-01
3.375488e-01
3.588524e-01
3.815551e-01
4.056760e-01
4.312309e-01
4.582106e-01
4.865732e-01
5.162454e-01
5.471284e-01
5.791071e-01
6.120674e-01
6.459170e-01
6.806074e-01
7.161376e-01
7.525336e-01
7.898144e-01
8.279662e-01
8.669379e-01
9.066517e-01
9.470201e-01
9.879611e-01
1.029404e+00
1.071283e+00
1.113516e+00
1.155968e+00
1.198423e+00
1.240568e+00
1.282017e+00
1.322360e+00
1.361217e+00
1.398277e+00
1.433311e+00
1.466167e+00
1.496754e+00
1.525021e+00
1.550938e+00
1.574479e+00
1.595603e+00
1.614254e+00
1.630356e+00
1.643818e+00
1.654551e+00
1.662479e+00
1.667555e+00
1.669764e+00
1.669124e+00
1.665676e+00
1.659462e+00
1.650514e+00
1.638841e+00
1.624434e+00
1.607279e+00
1.587370e+00
1.564725e+00
1.539378e+00
1.511370e+00
1.480736e+00
1.447493e+00
1.411646e+00
1.373206e+00
1.332203e+00
1.288691e+00
1.242748e+00
1.194502e+00
1.144164e+00
1.092045e+00
1.038512e+00
9.839101e-01
9.284757e-01
8.723261e-01
8.155144e-01
7.581076e-01
7.002292e-01
6.420511e-01
5.837520e-01
5.254772e-01
4.673192e-01
4.093270e-01
3.515321e-01
2.939786e-01
2.367435e-01
1.799448e-01
1.237353e-01
6.828125e-02
1.373715e-02
-3.977166e-02
-9.215166e-02
-1.433334e-01
-1.932565e-01
-2.418448e-01
-2.889753e-01
-3.344545e-01
-3.780144e-01
-4.193392e-01
-4.581175e-01
-4.940984e-01
-5.271235e-01
-5.571286e-01
-5.841191e-01
-6.081338e-01
-6.292122e-01
-6.473785e-01
-6.626488e-01
-6.750520e-01
-6.846625e-01
-6.916386e-01
-6.962512e-01
-6.988704e-01
-6.998963e-01
-6.996624e-01
-6.983582e-01
-6.960025e-01
-6.924780e-01
-6.876079e-01
-6.812307e-01
-6.732391e-01
-6.635831e-01
-6.522498e-01
-6.392403e-01
-6.245556e-01
-6.081962e-01
-5.901675e-01
-5.704873e-01
-5.491930e-01
-5.263470e-01
-5.020387e-01
-4.763780e-01
-4.494836e-01
-4.214725e-01
-3.924550e-01
-3.625325e-01
-3.317955e-01
-3.003173e-01
-2.681533e-01
-2.353491e-01
-2.019510e-01
-1.680076e-01
-1.335671e-01
-9.868770e-02
-6.347529e-02
-2.814211e-02
6.949261e-03
4.129656e-02
7.432494e-02
1.054827e-01
1.343287e-01
1.605772e-01
1.840886e-01
2.048358e-01
2.228721e-01
2.383113e-01
2.513191e-01
2.621106e-01
2.709365e-01
2.780574e-01
2.837148e-01
2.881118e-01
2.914075e-01
2.937154e-01
2.950974e-01
2.955560e-01
2.950334e-01
2.934202e-01
2.905687e-01
2.863066e-01
2.804529e-01
2.728427e-01
2.633583e-01
2.519523e-01
2.386508e-01
2.235317e-01
2.066870e-01
1.881845e-01
1.680494e-01
1.462737e-01
1.228448e-01
9.778297e-02
7.118299e-02
4.324711e-02
1.428976e-02
-1.529683e-02
-4.510198e-02
-7.474986e-02
-1.039172e-01
-1.323148e-01
-1.596663e-01
-1.857145e-01
-2.102574e-01
-2.331902e-01
-2.545215e-01
-2.743533e-01
-2.928409e-01
-3.101553e-01
-3.264516e-01
-3.418528e-01
-3.564509e-01
-3.703181e-01
-3.835169e-01
-3.961030e-01
-4.081224e-01
-4.196066e-01
-4.305710e-01
-4.410160e-01
-4.509291e-01
-4.602839e-01
-4.690337e-01
-4.771061e-01
-4.844050e-01
-4.908293e-01
-4.963138e-01
-5.008775e-01
-5.046586e-01
-5.079201e-01
-5.110148e-01
-5.143106e-01
-5.181123e-01
-5.226222e-01
-5.279548e-01
-5.341828e-01
-5.413850e-01
-5.496744e-01
-5.592015e-01
-5.701371e-01
-5.826480e-01
-5.968762e-01
-6.129263e-01
-6.308622e-01
-6.507120e-01
-6.724771e-01
-6.961401e-01
-7.216694e-01
-7.490210e-01
-7.781396e-01
-8.089645e-01
-8.414387e-01
-8.755137e-01
-9.111470e-01
-9.482932e-01
-9.868897e-01
-1.026845e+00
-1.068035e+00
-1.110322e+00
-1.153574e+00
-1.197689e+00
-1.242608e+00
-1.288306e+00
-1.334770e+00
-1.381961e+00
-1.429799e+00
-1.478143e+00
-1.526808e+00
-1.575571e+00
-1.624203e+00
-1.672485e+00
-1.720230e+00
-1.767293e+00
-1.813574e+00
-1.859009e+00
-1.903557e+00
-1.947179e+00
-1.989818e+00
-2.031390e+00
-2.071781e+00
-2.110862e+00
-2.148496e+00
-2.184549e+00
-2.218901e+00
-2.251448e+00
-2.282100e+00
-2.310787e+00
-2.337465e+00
-2.362116e+00
-2.384758e+00
-2.405445e+00
-2.424252e+00
-2.441271e+00
-2.456594e+00
-2.470305e+00
-2.482477e+00
-2.493167e+00
-2.502419e+00
-2.510265e+00
-2.516732e+00
-2.521842e+00
-2.525613e+00
-2.528057e+00
-2.529174e+00
-2.528956e+00
-2.527391e+00
-2.524469e+00
-2.520191e+00
-2.514569e+00
-2.507634e+00
-2.499434e+00
-2.490035e+00
-2.479513e+00
-2.467955e+00
-2.455462e+00
-2.442160e+00
-2.428208e+00
-2.413809e+00
-2.399213e+00
-2.384696e+00
-2.370536e+00
-2.356976e+00
-2.344198e+00
-2.332318e+00
-2.321395e+00
-2.311457e+00
-2.302521e+00
-2.294608e+00
-2.287741e+00
-2.281940e+00
-2.277215e+00
-2.273558e+00
-2.270947e+00
-2.269346e+00
-2.268720e+00
-2.269039e+00
-2.270291e+00
-2.272478e+00
-2.275616e+00
-2.279726e+00
-2.284835e+00
-2.290982e+00
-2.298223e+00
-2.306629e+00
-2.316277e+00
-2.327235e+00
-2.339559e+00
-2.353294e+00
-2.368479e+00
-2.385138e+00
-2.403278e+00
-2.422864e+00
-2.443807e+00
-2.465941e+00
-2.489017e+00
-2.512709e+00
-2.536643e+00
-2.560444e+00
-2.583779e+00
-2.606369e+00
-2.627994e+00
-2.648476e+00
-2.667663e+00
-2.685422e+00
-2.701638e+00
-2.716221e+00
-2.729118e+00
-2.740311e+00
-2.749833e+00
-2.757757e+00
-2.764206e+00
-2.769343e+00
-2.773375e+00
-2.776540e+00
-2.779099e+00
-2.781313e+00
-2.783427e+00
-2.785659e+00
-2.788201e+00
-2.791222e+00
-2.794878e+00
-2.799316e+00
-2.804676e+00
-2.811088e+00
-2.818671e+00
-2.827524e+00
-2.837726e+00
-2.849331e+00
-2.862370e+00
-2.876855e+00
-2.892781e+00
-2.910132e+00
-2.928882e+00
-2.948985e+00
-2.970350e+00
-2.992815e+00
-3.016156e+00
-3.040125e+00
-3.064513e+00
-3.089199e+00
-3.114166e+00
-3.139482e+00
-3.165268e+00
-3.191659e+00
-3.218779e+00
-3.246725e+00
-3.275555e+00
-3.305285e+00
-3.335894e+00
-3.367326e+00
-3.399502e+00
-3.432326e+00
-3.465691e+00
-3.499486e+00
-3.533602e+00
-3.567924e+00
-3.602340e+00
-3.636732e+00
-3.670986e+00
-3.704981e+00
-3.738595e+00
-3.771690e+00
-3.804101e+00
-3.835631e+00
-3.866056e+00
-3.895132e+00
-3.922612e+00
-3.948261e+00
-3.971871e+00
-3.993270e+00
-4.012330e+00
-4.028971e+00
-4.043161e+00
-4.054922e+00
-4.064321e+00
-4.071467e+00
-4.076497e+00
-4.079578e+00
-4.080902e+00
-4.080692e+00
-4.079206e+00
-4.076729e+00
-4.073567e+00
-4.070025e+00
-4.066373e+00
-4.062814e+00
-4.059457e+00
-4.056326e+00
-4.053380e+00
-4.050550e+00
-4.047761e+00
-4.044950e+00
-4.042063e+00
-4.039047e+00
-4.035849e+00
-4.032400e+00
-4.028619e+00
-4.024412e+00
-4.019673e+00
-4.014299e+00
-4.008202e+00
-4.001328e+00
-3.993683e+00
-3.985342e+00
-3.976450e+00
-3.967211e+00
-3.957858e+00
-3.948617e+00
-3.939677e+00
-3.931175e+00
-3.923195e+00
-3.915785e+00
-3.908978e+00
-3.902804e+00
-3.897299e+00
-3.892493e+00
-3.888406e+00
-3.885034e+00
-3.882352e+00
-3.880312e+00
-3.878844e+00
-3.877840e+00
-3.877147e+00
-3.876565e+00
-3.875861e+00
-3.874805e+00
-3.873206e+00
-3.870931e+00
-3.867911e+00
-3.864140e+00
-3.859662e+00
-3.854561e+00
-3.848949e+00
-3.842961e+00
-3.836748e+00
-3.830465e+00
-3.824259e+00
-3.818249e+00
-3.812521e+00
-3.807118e+00
-3.802037e+00
-3.797240e+00
-3.792651e+00
-3.788172e+00
-3.783688e+00
-3.779075e+00
-3.774210e+00
-3.768981e+00
-3.763296e+00
-3.757088e+00
-3.750317e+00
-3.742965e+00
-3.735039e+00
-3.726567e+00
-3.717597e+00
-3.708194e+00
-3.698431e+00
-3.688388e+00
-3.678154e+00
-3.667825e+00
-3.657508e+00
-3.647299e+00
-3.637275e+00
-3.627479e+00
-3.617921e+00
-3.608565e+00
-3.599331e+00
-3.590092e+00
-3.580689e+00
-3.570950e+00
-3.560725e+00
-3.549904e+00
-3.538433e+00
-3.526300e+00
-3.513520e+00
-3.500121e+00
-3.486144e+00
-3.471646e+00
-3.456712e+00
-3.441453e+00
-3.425985e+00
-3.410408e+00
-3.394766e+00
-3.379046e+00
-3.363179e+00
-3.347063e+00
-3.330588e+00
-3.313652e+00
-3.296180e+00
-3.278111e+00
-3.259397e+00
-3.239992e+00
-3.219850e+00
-3.198924e+00
-3.177175e+00
-3.154579e+00
-3.131132e+00
-3.106864e+00
-3.081842e+00
-3.056175e+00
-3.030021e+00
-3.003572e+00
-2.977031e+00
-2.950574e+00
-2.924317e+00
-2.898299e+00
-2.872487e+00
-2.846800e+00
-2.821145e+00
-2.795436e+00
-2.769611e+00
-2.743634e+00
-2.717490e+00
-2.691169e+00
-2.664661e+00
-2.637941e+00
-2.610975e+00
-2.583722e+00
-2.556136e+00
-2.528172e+00
-2.499794e+00
-2.470978e+00
-2.441719e+00
-2.412031e+00
-2.381944e+00
-2.351503e+00
-2.320770e+00
-2.289824e+00
-2.258765e+00
-2.227705e+00
-2.196771e+00
-2.166087e+00
-2.135771e+00
-2.105928e+00
-2.076649e+00
-2.048011e+00
-2.020084e+00
-1.992925e+00
-1.966583e+00
-1.941091e+00
-1.916465e+00
-1.892698e+00
-1.869760e+00
-1.847595e+00
-1.826116e+00
-1.805180e+00
-1.784570e+00
-1.763993e+00
-1.743120e+00
-1.721633e+00
-1.699276e+00
-1.675874e+00
-1.651334e+00
-1.625624e+00
-1.598749e+00
-1.570725e+00
-1.541553e+00
-1.511211e+00
-1.479659e+00
-1.446854e+00
-1.412770e+00
-1.377412e+00
-1.340820e+00
-1.303053e+00
-1.264180e+00
-1.224269e+00
-1.183384e+00
-1.141585e+00
-1.098934e+00
-1.055508e+00
-1.011409e+00
-9.667620e-01
-9.217112e-01
-8.764047e-01
-8.309818e-01
-7.855648e-01
-7.402592e-01
-6.951589e-01
-6.503520e-01
-6.059241e-01
-5.619570e-01
-5.185232e-01
-4.756800e-01
-4.334653e-01
-3.918986e-01
-3.509862e-01
-3.107259e-01
-2.711104e-01
-2.321277e-01
-1.937617e-01
-1.559930e-01
-1.188030e-01
-8.217717e-02
-4.610721e-02
-1.059068e-02
2.437220e-02
5.878322e-02
9.265067e-02
1.259928e-01
1.588386e-01
1.912255e-01
2.231940e-01
2.547835e-01
2.860290e-01
3.169616e-01
3.476105e-01
3.780054e-01
4.081781e-01
4.381621e-01
4.679916e-01
4.977008e-01
5.273257e-01
5.569054e-01
5.864838e-01
6.161075e-01
6.458211e-01
6.756586e-01
7.056326e-01
7.357256e-01
7.658884e-01
7.960448e-01
8.260999e-01
8.559533e-01
8.855122e-01
9.146999e-01
9.434601e-01
9.717555e-01
9.995633e-01
1.026872e+00
1.053682e+00
1.080005e+00
1.105864e+00
1.131294e+00
1.156334e+00
1.181021e+00
1.205388e+00
1.229452e+00
1.253214e+00
1.276659e+00
1.299757e+00
1.322466e+00
1.344736e+00
1.366510e+00
1.387723e+00
1.408307e+00
1.428194e+00
1.447324e+00
1.465655e+00
1.483160e+00
1.499828e+00
1.515661e+00
1.530669e+00
1.544870e+00
1.558289e+00
1.570959e+00
1.582919e+00
1.594216e+00
1.604902e+00
1.615033e+00
1.624671e+00
1.633877e+00
1.642716e+00
1.651249e+00
1.659533e+00
1.667620e+00
1.675555e+00
1.683373e+00
1.691108e+00
1.698793e+00
1.706471e+00
1.714198e+00
1.722052e+00
1.730124e+00
1.738517e+00
1.747344e+00
1.756715e+00
1.766732e+00
1.777473e+00
1.788977e+00
1.801240e+00
1.814216e+00
1.827840e+00
1.842041e+00
1.856758e+00
1.871937e+00
1.887540e+00
1.903535e+00
1.919895e+00
1.936596e+00
1.953622e+00
1.970971e+00
1.988653e+00
2.006691e+00
2.025113e+00
2.043937e+00
2.063157e+00
2.082731e+00
2.102575e+00
2.122569e+00
2.142576e+00
2.162459e+00
2.182091e+00
2.201362e+00
2.220178e+00
2.238453e+00
2.256111e+00
2.273079e+00
2.289288e+00
2.304680e+00
2.319210e+00
2.332850e+00
2.345595e+00
2.357456e+00
2.368460e+00
2.378645e+00
2.388052e+00
2.396725e+00
2.404711e+00
2.412060e+00
2.418826e+00
2.425069e+00
2.430858e+00
2.436272e+00
2.441403e+00
2.446354e+00
2.451235e+00
2.456154e+00
2.461214e+00
2.466498e+00
2.472071e+00
2.477960e+00
2.484159e+00
2.490630e+00
2.497310e+00
2.504130e+00
2.511026e+00
2.517952e+00
2.524882e+00
2.531805e+00
2.538712e+00
2.545590e+00
2.552412e+00
2.559135e+00
2.565704e+00
2.572055e+00
2.578123e+00
2.583849e+00
2.589173e+00
2.594043e+00
2.598404e+00
2.602204e+00
2.605390e+00
2.607908e+00
2.609702e+00
2.610710e+00
2.610871e+00
2.610128e+00
2.608431e+00
2.605736e+00
2.602002e+00
2.597191e+00
2.591267e+00
2.584195e+00
2.575940e+00
2.566472e+00
2.555766e+00
2.543810e+00
2.530614e+00
2.516220e+00
2.500718e+00
