EVENT_NAME: EMILIA_2ND_SHOCK
EVENT_ID: IT-2012-0011
EVENT_DATE_YYYYMMDD: 20120529
EVENT_TIME_HHMMSS: 070002
EVENT_LATITUDE_DEGREE: 44.8417
EVENT_LONGITUDE_DEGREE: 11.0657
EVENT_DEPTH_KM: 8.1
HYPOCENTER_REFERENCE: INGV-CNT_Seismic_Bulletin
MAGNITUDE_W: 6.0
MAGNITUDE_W_REFERENCE: RCMT-INGV
MAGNITUDE_L: 5.8
MAGNITUDE_L_REFERENCE: INGV-CNT_Seismic_Bulletin
FOCAL_MECHANISM: TF
NETWORK: IV
STATION_CODE: T0812
STATION_NAME: T0812
STATION_LATITUDE_DEGREE: 44.954700
STATION_LONGITUDE_DEGREE: 11.181000
STATION_ELEVATION_M: 7
LOCATION: 
SENSOR_DEPTH_M: 1.0
VS30_M/S: 
SITE_CLASSIFICATION_EC8: C*
MORPHOLOGIC_CLASSIFICATION: 
EPICENTRAL_DISTANCE_KM: 15.5
EARTHQUAKE_BACKAZIMUTH_DEGREE: 216.0
DATE_TIME_FIRST_SAMPLE_YYYYMMDD_HHMMSS: 20120529_065952.000
DATE_TIME_FIRST_SAMPLE_PRECISION: milliseconds
SAMPLING_INTERVAL_S: 0.005000
NDATA: 30001
DURATION_S: 150.005
STREAM: HNZ
UNITS: cm
INSTRUMENT: sensor = Episensor FBA ES-T [Kinemetrics] | digitizer = Unknown [Unknown]
INSTRUMENT_ANALOG/DIGITAL: D
INSTRUMENTAL_FREQUENCY_HZ: 
INSTRUMENTAL_DAMPING: 
FULL_SCALE_G: 
N_BIT_DIGITAL_CONVERTER: 
PGD_CM: 1.365805
TIME_PGD_S: 21.240000
BASELINE_CORRECTION: BASELINE REMOVED
FILTER_TYPE: BUTTERWORTH
FILTER_ORDER: 2
LOW_CUT_FREQUENCY_HZ: 0.060
HIGH_CUT_FREQUENCY_HZ: 40.000
LATE/NORMAL_TRIGGERED: NT
DATABASE_VERSION: DYNA 1.0
HEADER_FORMAT: DYNA 1.2
DATA_TYPE: DISPLACEMENT
PROCESSING: manual (Paolucci et al., 2011)
DATA_TIMESTAMP_YYYYMMDD_HHMMSS: 
DATA_LICENSE: CC-BY4_0 (http://creativecommons.org/licenses/by/4.0/)
DATA_CITATION: ESM working group (2015), European Strong-Motion database, version 0.1, Network Activity 3: Networking acceleration networks and SM data users. Project NERA (www.nera-eu.org)
DATA_CREATOR: ESM working group
ORIGINAL_DATA_MEDIATOR_CITATION: Orfeus - European Integrated Data Archive (EIDA) http://www.orfeus-eu.org/eida/
ORIGINAL_DATA_MEDIATOR: Orfeus - European Integrated Data Archive (EIDA)
ORIGINAL_DATA_CREATOR_CITATION: Data for this study comes from the Italian national seismic network operated by Istituto Nazionale di Geofisica e Vulcanologia and archived at the European Integrated Data Archive http://eida.rm.ingv.it/
ORIGINAL_DATA_CREATOR: network: IV (Italian National Seismic Network); owner: Istituto Nazionale di Geofisica e Vulcanologia
USER1: 
USER2: 
USER3: 
USER4: 
USER5: 
[...]
-2.353657e-01
-2.415095e-01
-2.479061e-01
-2.545813e-01
-2.614234e-01
-2.682444e-01
-2.748386e-01
-2.810189e-01
-2.866460e-01
-2.916568e-01
-2.960865e-01
-3.000734e-01
-3.038331e-01
-3.075914e-01
-3.115115e-01
-3.156654e-01
-3.200643e-01
-3.247138e-01
-3.296481e-01
-3.349386e-01
-3.406890e-01
-3.470162e-01
-3.540038e-01
-3.616378e-01
-3.697625e-01
-3.781066e-01
-3.863904e-01
-3.944573e-01
-4.023325e-01
-4.101529e-01
-4.180093e-01
-4.258194e-01
-4.333264e-01
-4.402212e-01
-4.462936e-01
-4.515107e-01
-4.560011e-01
-4.599997e-01
-4.638027e-01
-4.677237e-01
-4.720320e-01
-4.768861e-01
-4.822952e-01
-4.881386e-01
-4.942466e-01
-5.005039e-01
-5.069059e-01
-5.135322e-01
-5.204632e-01
-5.276949e-01
-5.350958e-01
-5.424238e-01
-5.493995e-01
-5.557971e-01
-5.614946e-01
-5.664655e-01
-5.707500e-01
-5.744443e-01
-5.777015e-01
-5.807230e-01
-5.837323e-01
-5.869377e-01
-5.904890e-01
-5.944398e-01
-5.987432e-01
-6.033004e-01
-6.080344e-01
-6.129245e-01
-6.179760e-01
-6.231632e-01
-6.284004e-01
-6.335583e-01
-6.385089e-01
-6.431662e-01
-6.474989e-01
-6.515043e-01
-6.551755e-01
-6.585057e-01
-6.615335e-01
-6.643816e-01
-6.672446e-01
-6.703195e-01
-6.737198e-01
-6.774405e-01
-6.814093e-01
-6.855883e-01
-6.900392e-01
-6.949051e-01
-7.003454e-01
-7.064825e-01
-7.133787e-01
-7.210332e-01
-7.293865e-01
-7.383200e-01
-7.476603e-01
-7.571977e-01
-7.667145e-01
-7.760077e-01
-7.849051e-01
-7.932875e-01
-8.011152e-01
-8.084384e-01
-8.153767e-01
-8.220829e-01
-8.287141e-01
-8.354051e-01
-8.422277e-01
-8.491584e-01
-8.561022e-01
-8.629655e-01
-8.697150e-01
-8.763659e-01
-8.829159e-01
-8.892910e-01
-8.953575e-01
-9.010028e-01
-9.062248e-01
-9.111486e-01
-9.159469e-01
-9.207200e-01
-9.254271e-01
-9.299113e-01
-9.339858e-01
-9.375223e-01
-9.404962e-01
-9.429762e-01
-9.450838e-01
-9.469649e-01
-9.487926e-01
-9.507812e-01
-9.531689e-01
-9.561675e-01
-9.598932e-01
-9.643008e-01
-9.691722e-01
-9.742085e-01
-9.791917e-01
-9.841058e-01
-9.891342e-01
-9.945416e-01
-1.000515e+00
-1.007036e+00
-1.013860e+00
-1.020600e+00
-1.026873e+00
-1.032411e+00
-1.037086e+00
-1.040877e+00
-1.043827e+00
-1.046031e+00
-1.047650e+00
-1.048907e+00
-1.050055e+00
-1.051310e+00
-1.052773e+00
-1.054386e+00
-1.055962e+00
-1.057264e+00
-1.058097e+00
-1.058372e+00
-1.058129e+00
-1.057512e+00
-1.056709e+00
-1.055865e+00
-1.055025e+00
-1.054097e+00
-1.052863e+00
-1.051053e+00
-1.048451e+00
-1.044983e+00
-1.040776e+00
-1.036167e+00
-1.031630e+00
-1.027661e+00
-1.024642e+00
-1.022757e+00
-1.021950e+00
-1.021958e+00
-1.022390e+00
-1.022827e+00
-1.022915e+00
-1.022429e+00
-1.021302e+00
-1.019579e+00
-1.017325e+00
-1.014521e+00
-1.011033e+00
-1.006655e+00
-1.001231e+00
-9.947798e-01
-9.875335e-01
-9.798522e-01
-9.720875e-01
-9.644860e-01
-9.571549e-01
-9.500698e-01
-9.431137e-01
-9.361498e-01
-9.291103e-01
-9.220678e-01
-9.152470e-01
-9.089487e-01
-9.034026e-01
-8.986288e-01
-8.943933e-01
-8.902632e-01
-8.857136e-01
-8.802445e-01
-8.734870e-01
-8.652877e-01
-8.557662e-01
-8.453291e-01
-8.345999e-01
-8.242659e-01
-8.148983e-01
-8.068169e-01
-8.000277e-01
-7.942499e-01
-7.890294e-01
-7.839036e-01
-7.785598e-01
-7.729341e-01
-7.672150e-01
-7.617590e-01
-7.569579e-01
-7.530882e-01
-7.501606e-01
-7.478290e-01
-7.454307e-01
-7.421636e-01
-7.373289e-01
-7.305544e-01
-7.219252e-01
-7.119728e-01
-7.015295e-01
-6.915101e-01
-6.826599e-01
-6.753132e-01
-6.692794e-01
-6.639495e-01
-6.585526e-01
-6.524106e-01
-6.450900e-01
-6.364229e-01
-6.264483e-01
-6.153697e-01
-6.035572e-01
-5.915260e-01
-5.798285e-01
-5.688900e-01
-5.588790e-01
-5.496961e-01
-5.410900e-01
-5.328189e-01
-5.247565e-01
-5.169069e-01
-5.093613e-01
-5.022416e-01
-4.956474e-01
-4.896209e-01
-4.841429e-01
-4.791604e-01
-4.746153e-01
-4.704370e-01
-4.664998e-01
-4.625999e-01
-4.585059e-01
-4.540704e-01
-4.493367e-01
-4.445586e-01
-4.400950e-01
-4.362158e-01
-4.329409e-01
-4.300149e-01
-4.270087e-01
-4.234600e-01
-4.190083e-01
-4.135260e-01
-4.071954e-01
-4.004504e-01
-3.937829e-01
-3.875082e-01
-3.816039e-01
-3.757170e-01
-3.693701e-01
-3.622659e-01
-3.544806e-01
-3.464250e-01
-3.386494e-01
-3.316462e-01
-3.257208e-01
-3.209326e-01
-3.170800e-01
-3.137123e-01
-3.101980e-01
-3.058978e-01
-3.003994e-01
-2.936718e-01
-2.860403e-01
-2.780200e-01
-2.701187e-01
-2.626991e-01
-2.559445e-01
-2.499070e-01
-2.445662e-01
-2.398450e-01
-2.356019e-01
-2.316640e-01
-2.279192e-01
-2.244029e-01
-2.212906e-01
-2.187896e-01
-2.170185e-01
-2.159617e-01
-2.155003e-01
-2.154650e-01
-2.156624e-01
-2.158670e-01
-2.158195e-01
-2.152778e-01
-2.141131e-01
-2.123878e-01
-2.103535e-01
-2.083703e-01
-2.067930e-01
-2.058816e-01
-2.057686e-01
-2.064787e-01
-2.079671e-01
-2.101560e-01
-2.129627e-01
-2.163091e-01
-2.201067e-01
-2.242231e-01
-2.284586e-01
-2.325558e-01
-2.362483e-01
-2.393260e-01
-2.416900e-01
-2.433774e-01
-2.445453e-01
-2.454224e-01
-2.462321e-01
-2.471054e-01
-2.480290e-01
-2.488873e-01
-2.495938e-01
-2.502157e-01
-2.509858e-01
-2.521937e-01
-2.540576e-01
-2.566682e-01
-2.599993e-01
-2.639303e-01
-2.682546e-01
-2.727001e-01
-2.769906e-01
-2.809241e-01
-2.844193e-01
-2.875038e-01
-2.902655e-01
-2.927916e-01
-2.951018e-01
-2.971022e-01
-2.985939e-01
-2.993397e-01
-2.991529e-01
-2.979638e-01
-2.958413e-01
-2.929583e-01
-2.895155e-01
-2.856654e-01
-2.814833e-01
-2.770015e-01
-2.722783e-01
-2.674441e-01
-2.626808e-01
-2.581455e-01
-2.539014e-01
-2.499268e-01
-2.462214e-01
-2.429377e-01
-2.404135e-01
-2.390486e-01
-2.391029e-01
-2.405546e-01
-2.430974e-01
-2.462548e-01
-2.495399e-01
-2.525765e-01
-2.551375e-01
-2.571371e-01
-2.586396e-01
-2.598729e-01
-2.611831e-01
-2.629212e-01
-2.653196e-01
-2.684170e-01
-2.720693e-01
-2.760429e-01
-2.801435e-01
-2.843062e-01
-2.886010e-01
-2.931664e-01
-2.981288e-01
-3.035669e-01
-3.095307e-01
-3.160759e-01
-3.232687e-01
-3.311547e-01
-3.397220e-01
-3.488998e-01
-3.586000e-01
-3.687565e-01
-3.793078e-01
-3.901169e-01
-4.009015e-01
-4.112563e-01
-4.207734e-01
-4.291713e-01
-4.363306e-01
-4.422225e-01
-4.468104e-01
-4.500214e-01
-4.518112e-01
-4.522488e-01
-4.515344e-01
-4.499368e-01
-4.477070e-01
-4.450322e-01
-4.420517e-01
-4.389092e-01
-4.357927e-01
-4.329282e-01
-4.305265e-01
-4.287230e-01
-4.275512e-01
-4.269539e-01
-4.268128e-01
-4.269832e-01
-4.273229e-01
-4.277014e-01
-4.279745e-01
-4.279388e-01
-4.273106e-01
-4.257647e-01
-4.230142e-01
-4.188850e-01
-4.133578e-01
-4.065742e-01
-3.988112e-01
-3.904286e-01
-3.817930e-01
-3.731996e-01
-3.648302e-01
-3.567604e-01
-3.489913e-01
-3.414859e-01
-3.342124e-01
-3.271943e-01
-3.205401e-01
-3.144233e-01
-3.090025e-01
-3.043099e-01
-3.001767e-01
-2.962632e-01
-2.921948e-01
-2.877224e-01
-2.828250e-01
-2.777292e-01
-2.728417e-01
-2.686014e-01
-2.653067e-01
-2.630010e-01
-2.614594e-01
-2.602795e-01
-2.590604e-01
-2.576013e-01
-2.559902e-01
-2.544913e-01
-2.533033e-01
-2.523653e-01
-2.513237e-01
-2.496558e-01
-2.468636e-01
-2.426383e-01
-2.369289e-01
-2.299107e-01
-2.218957e-01
-2.132125e-01
-2.040673e-01
-1.944356e-01
-1.840574e-01
-1.725631e-01
-1.597012e-01
-1.455917e-01
-1.308782e-01
-1.166351e-01
-1.040190e-01
-9.385893e-02
-8.642025e-02
-8.141820e-02
-7.822639e-02
-7.616473e-02
-7.472914e-02
-7.367231e-02
-7.293751e-02
-7.250981e-02
-7.227703e-02
-7.198797e-02
-7.133016e-02
-7.005788e-02
-6.807154e-02
-6.541935e-02
-6.227064e-02
-5.889528e-02
-5.562092e-02
-5.274010e-02
-5.040705e-02
-4.859739e-02
-4.716121e-02
-4.594168e-02
-4.489414e-02
-4.413344e-02
-4.387925e-02
-4.433512e-02
-4.557014e-02
-4.745113e-02
-4.964138e-02
-5.167530e-02
-5.310126e-02
-5.363720e-02
-5.325705e-02
-5.215156e-02
-5.056621e-02
-4.860552e-02
-4.614842e-02
-4.294732e-02
-3.883248e-02
-3.387125e-02
-2.839714e-02
-2.293144e-02
-1.804296e-02
-1.417162e-02
-1.147081e-02
-9.755226e-03
-8.588500e-03
-7.450936e-03
-5.892902e-03
-3.612859e-03
-4.567906e-04
3.612666e-03
8.528915e-03
1.412888e-02
2.019940e-02
2.655900e-02
3.312346e-02
3.990628e-02
4.694023e-02
5.416399e-02
6.136659e-02
6.825803e-02
7.463597e-02
8.053131e-02
8.623998e-02
9.224164e-02
9.904077e-02
1.069634e-01
1.159881e-01
1.257277e-01
1.356084e-01
1.451505e-01
1.541996e-01
1.630016e-01
1.720793e-01
1.819688e-01
1.929751e-01
2.050622e-01
2.178624e-01
2.307544e-01
2.430124e-01
2.540157e-01
2.634252e-01
2.712508e-01
2.778224e-01
2.836733e-01
2.893221e-01
2.950409e-01
3.007670e-01
3.062180e-01
3.111067e-01
3.152961e-01
3.188260e-01
3.218390e-01
3.244827e-01
3.268627e-01
3.290559e-01
3.311202e-01
3.330604e-01
3.347926e-01
3.361806e-01
3.371441e-01
3.377527e-01
3.382285e-01
3.388405e-01
3.397388e-01
3.408302e-01
3.417842e-01
3.421634e-01
3.416003e-01
3.399400e-01
3.372983e-01
3.340262e-01
3.306034e-01
3.275160e-01
3.251595e-01
3.237779e-01
3.234347e-01
3.240266e-01
3.253574e-01
3.272603e-01
3.296932e-01
3.327207e-01
3.363852e-01
3.405735e-01
3.449879e-01
3.492391e-01
3.529966e-01
3.561153e-01
3.586849e-01
3.609796e-01
3.633318e-01
3.660132e-01
3.691822e-01
3.728907e-01
3.771199e-01
3.818229e-01
3.869515e-01
3.924598e-01
3.983136e-01
4.045311e-01
4.112206e-01
4.185506e-01
4.266533e-01
4.355290e-01
4.450147e-01
4.548354e-01
4.647065e-01
4.744197e-01
4.838491e-01
4.928876e-01
5.013907e-01
5.091841e-01
5.161111e-01
5.220726e-01
5.270568e-01
5.311807e-01
5.347149e-01
5.380365e-01
5.415175e-01
5.453974e-01
5.496837e-01
5.541277e-01
5.583097e-01
5.617949e-01
5.642732e-01
5.656271e-01
5.659386e-01
5.654671e-01
5.645986e-01
5.637485e-01
5.632413e-01
5.632479e-01
5.638230e-01
5.649867e-01
5.667690e-01
5.691921e-01
5.722283e-01
5.757793e-01
5.796953e-01
5.838207e-01
5.880445e-01
5.923424e-01
5.967897e-01
6.015153e-01
6.066006e-01
6.119880e-01
6.174748e-01
6.227923e-01
6.277131e-01
6.321290e-01
6.360762e-01
6.397221e-01
6.433466e-01
6.473331e-01
6.521371e-01
6.581999e-01
6.658119e-01
6.749783e-01
6.853648e-01
6.963686e-01
7.072794e-01
7.174502e-01
7.264321e-01
7.340535e-01
7.404175e-01
7.458018e-01
7.505058e-01
7.547294e-01
7.585479e-01
7.619784e-01
7.650694e-01
7.679417e-01
7.707608e-01
7.736701e-01
7.767265e-01
7.798716e-01
7.829564e-01
7.858098e-01
7.883211e-01
7.905123e-01
7.925743e-01
7.948434e-01
7.977067e-01
8.014728e-01
8.062902e-01
8.121624e-01
8.190197e-01
8.267594e-01
8.352263e-01
8.441805e-01
8.532929e-01
8.621813e-01
8.704722e-01
8.778511e-01
8.840729e-01
8.889434e-01
8.923083e-01
8.940728e-01
8.942328e-01
8.928897e-01
8.902498e-01
8.866059e-01
8.822933e-01
8.776341e-01
8.729168e-01
8.684376e-01
8.645625e-01
8.617336e-01
8.603879e-01
8.608309e-01
8.631276e-01
8.670565e-01
8.721684e-01
8.779630e-01
8.841029e-01
8.905467e-01
8.975379e-01
9.054568e-01
9.145951e-01
9.249615e-01
9.362237e-01
9.478129e-01
9.591151e-01
9.696559e-01
9.792158e-01
9.878318e-01
9.956842e-01
1.002945e+00
1.009691e+00
1.015913e+00
1.021582e+00
1.026706e+00
1.031358e+00
1.035664e+00
1.039772e+00
1.043761e+00
1.047569e+00
1.050958e+00
1.053564e+00
1.055026e+00
1.055131e+00
1.053897e+00
1.051524e+00
1.048274e+00
1.044370e+00
1.039969e+00
1.035197e+00
1.030187e+00
1.025100e+00
1.020131e+00
1.015468e+00
1.011232e+00
1.007406e+00
1.003819e+00
1.000189e+00
9.962079e-01
9.916495e-01
9.864195e-01
9.805420e-01
9.741164e-01
9.673022e-01
9.603319e-01
9.535155e-01
9.472027e-01
9.417161e-01
9.372957e-01
9.340880e-01
9.321860e-01
9.316860e-01
9.327129e-01
9.353763e-01
9.396868e-01
9.454958e-01
9.525057e-01
9.603232e-01
9.685006e-01
9.765604e-01
9.840548e-01
9.906681e-01
9.963033e-01
1.001081e+00
1.005241e+00
1.008988e+00
1.012392e+00
1.015393e+00
1.017919e+00
1.020014e+00
1.021889e+00
1.023828e+00
1.026041e+00
1.028559e+00
1.031240e+00
1.033850e+00
1.036168e+00
1.038071e+00
1.039540e+00
1.040628e+00
1.041403e+00
1.041926e+00
1.042247e+00
1.042406e+00
1.042436e+00
1.042379e+00
1.042320e+00
1.042420e+00
1.042910e+00
1.044056e+00
1.046110e+00
1.049263e+00
1.053628e+00
1.059250e+00
1.066135e+00
1.074288e+00
1.083723e+00
1.094456e+00
1.106437e+00
1.119454e+00
1.133075e+00
1.146687e+00
1.159652e+00
1.171501e+00
1.182041e+00
1.191331e+00
1.199582e+00
1.207083e+00
1.214158e+00
1.221141e+00
1.228333e+00
1.235923e+00
1.243927e+00
1.252187e+00
1.260434e+00
1.268399e+00
1.275917e+00
1.282986e+00
1.289738e+00
1.296357e+00
1.302979e+00
1.309630e+00
1.316219e+00
1.322560e+00
1.328433e+00
1.333617e+00
1.337934e+00
1.341281e+00
1.343654e+00
1.345148e+00
1.345926e+00
1.346177e+00
1.346070e+00
1.345730e+00
1.345219e+00
1.344560e+00
1.343768e+00
1.342885e+00
1.341993e+00
1.341212e+00
1.340679e+00
1.340545e+00
1.340978e+00
1.342159e+00
1.344231e+00
1.347212e+00
1.350922e+00
1.354989e+00
1.358942e+00
1.362312e+00
1.364701e+00
1.365805e+00
1.365449e+00
1.363619e+00
1.360481e+00
1.356318e+00
1.351415e+00
1.345945e+00
1.339941e+00
1.333335e+00
1.326058e+00
1.318147e+00
1.309826e+00
1.301505e+00
1.293667e+00
1.286719e+00
1.280839e+00
1.275902e+00
1.271507e+00
1.267161e+00
1.262501e+00
1.257421e+00
1.252045e+00
1.246584e+00
1.241169e+00
1.235740e+00
1.230060e+00
1.223835e+00
1.216869e+00
1.209149e+00
1.200825e+00
1.192121e+00
1.183260e+00
1.174435e+00
1.165849e+00
1.157739e+00
1.150319e+00
1.143634e+00
1.137457e+00
1.131336e+00
1.124817e+00
1.117704e+00
1.110135e+00
1.102428e+00
1.094814e+00
1.087287e+00
1.079657e+00
1.071717e+00
1.063386e+00
1.054728e+00
1.045875e+00
1.036943e+00
1.028018e+00
1.019189e+00
1.010583e+00
1.002339e+00
9.945560e-01
9.872365e-01
9.802917e-01
9.736112e-01
9.671408e-01
9.608985e-01
9.549229e-01
9.492169e-01
9.437484e-01
9.385062e-01
9.335643e-01
9.290974e-01
9.253255e-01
9.224059e-01
9.203402e-01
9.189798e-01
9.181454e-01
9.177729e-01
9.179646e-01
9.189014e-01
9.206848e-01
9.232168e-01
9.261903e-01
9.291976e-01
9.319047e-01
9.341953e-01
9.362057e-01
9.382387e-01
9.406149e-01
9.435365e-01
9.470163e-01
9.509065e-01
9.550012e-01
9.591224e-01
9.631292e-01
9.668774e-01
9.702018e-01
9.729535e-01
9.750771e-01
9.766725e-01
9.779755e-01
9.792294e-01
9.805248e-01
9.817302e-01
9.825659e-01
9.827755e-01
9.822974e-01
9.813380e-01
9.803008e-01
9.796065e-01
9.795180e-01
9.800688e-01
9.811076e-01
9.824088e-01
9.837879e-01
9.851645e-01
9.865383e-01
9.878932e-01
9.890980e-01
9.898805e-01
9.898914e-01
9.888199e-01
9.865068e-01
9.830010e-01
9.785263e-01
9.733712e-01
9.677476e-01
9.616847e-01
9.550175e-01
9.474996e-01
9.389973e-01
9.296388e-01
9.198052e-01
9.099713e-01
9.005058e-01
8.915343e-01
8.829111e-01
8.742928e-01
8.652730e-01
8.555065e-01
8.447856e-01
8.330730e-01
8.204913e-01
8.072556e-01
7.935722e-01
7.795632e-01
7.652627e-01
7.506855e-01
7.359219e-01
7.211954e-01
7.068431e-01
6.932263e-01
6.806246e-01
6.691766e-01
6.588909e-01
6.497023e-01
6.415223e-01
6.342419e-01
6.276991e-01
6.216710e-01
6.159272e-01
6.103305e-01
6.049279e-01
5.999571e-01
5.957255e-01
5.924058e-01
5.898850e-01
5.877774e-01
5.855776e-01
5.828466e-01
5.793355e-01
5.750018e-01
5.699439e-01
5.643324e-01
5.583852e-01
5.523656e-01
5.465669e-01
5.412729e-01
5.367176e-01
5.330612e-01
5.303798e-01
5.286468e-01
5.277159e-01
5.273418e-01
5.272600e-01
5.272907e-01
5.274010e-01
5.276833e-01
5.282658e-01
5.292271e-01
5.305666e-01
5.322234e-01
5.341022e-01
5.360866e-01
5.380410e-01
5.398148e-01
5.412626e-01
5.422899e-01
5.428985e-01
5.431947e-01
5.433552e-01
5.435728e-01
5.440034e-01
5.447288e-01
5.457498e-01
5.470102e-01
5.484350e-01
5.499495e-01
5.514637e-01
5.528506e-01
5.539688e-01
5.547359e-01
5.551990e-01
5.555355e-01
5.559606e-01
5.565942e-01
5.573843e-01
5.581496e-01
5.587118e-01
5.590229e-01
5.592096e-01
5.595296e-01
5.602813e-01
5.617187e-01
5.640033e-01
5.671862e-01
5.711859e-01
5.757618e-01
5.805251e-01
5.850000e-01
5.887095e-01
5.912533e-01
5.923720e-01
5.919828e-01
5.901620e-01
5.870792e-01
5.829171e-01
5.778256e-01
5.719279e-01
5.653604e-01
5.583152e-01
5.510605e-01
5.439222e-01
5.372343e-01
5.312792e-01
5.262469e-01
5.222274e-01
5.192233e-01
5.171490e-01
5.158096e-01
5.148841e-01
5.139404e-01
5.124981e-01
5.101251e-01
5.065222e-01
5.015625e-01
4.952914e-01
4.878971e-01
4.796558e-01
4.708617e-01
4.617532e-01
4.524474e-01
4.429159e-01
4.330347e-01
4.226857e-01
4.118570e-01
4.006976e-01
3.895132e-01
3.787112e-01
3.687163e-01
3.598848e-01
3.524393e-01
3.464393e-01
3.418002e-01
3.383440e-01
3.358556e-01
3.341293e-01
3.330139e-01
3.324448e-01
3.324409e-01
3.330634e-01
3.343575e-01
3.363044e-01
3.388041e-01
3.416961e-01
3.448008e-01
3.479588e-01
3.510431e-01
3.539374e-01
3.564998e-01
3.585445e-01
3.598630e-01
3.602703e-01
3.596515e-01
3.579823e-01
3.553176e-01
3.517638e-01
3.474511e-01
3.425151e-01
3.370940e-01
3.313420e-01
3.254453e-01
3.196182e-01
3.140641e-01
3.089125e-01
3.041779e-01
2.997821e-01
2.956280e-01
2.916747e-01
2.879616e-01
2.845690e-01
2.815397e-01
2.788104e-01
2.761999e-01
2.734642e-01
2.703849e-01
2.668349e-01
2.627964e-01
2.583376e-01
2.535734e-01
2.486273e-01
2.436007e-01
2.385514e-01
2.334869e-01
2.283805e-01
2.232038e-01
2.179635e-01
2.127277e-01
2.076290e-01
2.028353e-01
1.984947e-01
1.946814e-01
1.913676e-01
1.884353e-01
1.857203e-01
1.830641e-01
1.803381e-01
1.774371e-01
1.742777e-01
1.708235e-01
1.671208e-01
1.633073e-01
1.595738e-01
1.560906e-01
1.529472e-01
1.501456e-01
1.476495e-01
1.454394e-01
1.435246e-01
1.419031e-01
1.405093e-01
1.391999e-01
1.377894e-01
1.361141e-01
1.340858e-01
1.317094e-01
1.290591e-01
1.262373e-01
1.233413e-01
1.204538e-01
1.176538e-01
1.150284e-01
1.126672e-01
1.106347e-01
1.089391e-01
1.075153e-01
1.062333e-01
1.049301e-01
1.034389e-01
1.016001e-01
9.925701e-02
9.625561e-02
9.246302e-02
8.779478e-02
8.222685e-02
7.578428e-02
6.852618e-02
6.054080e-02
5.194339e-02
4.286886e-02
3.346181e-02
2.386816e-02
1.422476e-02
4.641027e-03
-4.822206e-03
-1.416236e-02
-2.342683e-02
-3.269163e-02
-4.203077e-02
-5.148020e-02
-6.101245e-02
-7.053880e-02
-7.993672e-02
-8.908945e-02
-9.792738e-02
-1.064601e-01
-1.147860e-01
-1.230707e-01
-1.314982e-01
-1.402091e-01
-1.492563e-01
-1.585989e-01
-1.681379e-01
-1.777680e-01
-1.874245e-01
-1.971084e-01
-2.068825e-01
-2.168407e-01
-2.270688e-01
-2.376064e-01
-2.484155e-01
