EVENT_NAME: EMILIA_2ND_SHOCK
EVENT_ID: IT-2012-0011
EVENT_DATE_YYYYMMDD: 20120529
EVENT_TIME_HHMMSS: 070002
EVENT_LATITUDE_DEGREE: 44.8417
EVENT_LONGITUDE_DEGREE: 11.0657
EVENT_DEPTH_KM: 8.1
HYPOCENTER_REFERENCE: INGV-CNT_Seismic_Bulletin
MAGNITUDE_W: 6.0
MAGNITUDE_W_REFERENCE: RCMT-INGV
MAGNITUDE_L: 5.8
MAGNITUDE_L_REFERENCE: INGV-CNT_Seismic_Bulletin
FOCAL_MECHANISM: TF
NETWORK: IV
STATION_CODE: T0824
STATION_NAME: T0824
STATION_LATITUDE_DEGREE: 44.759400
STATION_LONGITUDE_DEGREE: 10.927600
STATION_ELEVATION_M: 72
LOCATION: 
SENSOR_DEPTH_M: 1.0
VS30_M/S: 
SITE_CLASSIFICATION_EC8: C*
MORPHOLOGIC_CLASSIFICATION: 
EPICENTRAL_DISTANCE_KM: 14.2
EARTHQUAKE_BACKAZIMUTH_DEGREE: 50.0
DATE_TIME_FIRST_SAMPLE_YYYYMMDD_HHMMSS: 20120529_065943.000
DATE_TIME_FIRST_SAMPLE_PRECISION: milliseconds
SAMPLING_INTERVAL_S: 0.005000
NDATA: 22001
DURATION_S: 110.005
STREAM: HNE
UNITS: cm
INSTRUMENT: sensor = Episensor FBA ES-T [Kinemetrics] | digitizer = Unknown [Unknown]
INSTRUMENT_ANALOG/DIGITAL: D
INSTRUMENTAL_FREQUENCY_HZ: 
INSTRUMENTAL_DAMPING: 
FULL_SCALE_G: 
N_BIT_DIGITAL_CONVERTER: 
PGD_CM: 2.853789
TIME_PGD_S: 29.950000
BASELINE_CORRECTION: BASELINE REMOVED
FILTER_TYPE: BUTTERWORTH
FILTER_ORDER: 2
LOW_CUT_FREQUENCY_HZ: 0.060
HIGH_CUT_FREQUENCY_HZ: 40.000
LATE/NORMAL_TRIGGERED: NT
DATABASE_VERSION: DYNA 1.0
HEADER_FORMAT: DYNA 1.2
DATA_TYPE: DISPLACEMENT
PROCESSING: manual (Paolucci et al., 2011)
DATA_TIMESTAMP_YYYYMMDD_HHMMSS: 
DATA_LICENSE: CC-BY4_0 (http://creativecommons.org/licenses/by/4.0/)
DATA_CITATION: ESM working group (2015), European Strong-Motion database, version 0.1, Network Activity 3: Networking acceleration networks and SM data users. Project NERA (www.nera-eu.org)
DATA_CREATOR: ESM working group
ORIGINAL_DATA_MEDIATOR_CITATION: Orfeus - European Integrated Data Archive (EIDA) http://www.orfeus-eu.org/eida/
ORIGINAL_DATA_MEDIATOR: Orfeus - European Integrated Data Archive (EIDA)
ORIGINAL_DATA_CREATOR_CITATION: Data for this study comes from the Italian national seismic network operated by Istituto Nazionale di Geofisica e Vulcanologia and archived at the European Integrated Data Archive http://eida.rm.ingv.it/
ORIGINAL_DATA_CREATOR: network: IV (Italian National Seismic Network); owner: Istituto Nazionale di Geofisica e Vulcanologia
USER1: 
USER2: 
USER3: 
USER4: 
USER5: 
[...]
-5.622072e-01
-5.619981e-01
-5.617929e-01
-5.616806e-01
-5.617522e-01
-5.620444e-01
-5.624982e-01
-5.629734e-01
-5.633142e-01
-5.634170e-01
-5.632573e-01
-5.628652e-01
-5.622886e-01
-5.615893e-01
-5.608780e-01
-5.603314e-01
-5.601442e-01
-5.604252e-01
-5.611117e-01
-5.619680e-01
-5.626846e-01
-5.630181e-01
-5.628784e-01
-5.623187e-01
-5.614686e-01
-5.604775e-01
-5.594991e-01
-5.586963e-01
-5.582207e-01
-5.581505e-01
-5.584324e-01
-5.588870e-01
-5.592813e-01
-5.594294e-01
-5.592652e-01
-5.588527e-01
-5.583350e-01
-5.578678e-01
-5.575720e-01
-5.575060e-01
-5.576461e-01
-5.578880e-01
-5.580875e-01
-5.581242e-01
-5.579509e-01
-5.576112e-01
-5.572218e-01
-5.569263e-01
-5.568357e-01
-5.569792e-01
-5.572857e-01
-5.576032e-01
-5.577519e-01
-5.575911e-01
-5.570699e-01
-5.562379e-01
-5.552242e-01
-5.541990e-01
-5.533335e-01
-5.527643e-01
-5.525640e-01
-5.527175e-01
-5.531166e-01
-5.535856e-01
-5.539325e-01
-5.540087e-01
-5.537565e-01
-5.532191e-01
-5.525037e-01
-5.517254e-01
-5.509731e-01
-5.503089e-01
-5.497765e-01
-5.493930e-01
-5.491290e-01
-5.489023e-01
-5.486083e-01
-5.481801e-01
-5.476336e-01
-5.470561e-01
-5.465420e-01
-5.461268e-01
-5.457659e-01
-5.453731e-01
-5.448861e-01
-5.443097e-01
-5.437046e-01
-5.431365e-01
-5.426388e-01
-5.422197e-01
-5.418905e-01
-5.416707e-01
-5.415533e-01
-5.414683e-01
-5.412941e-01
-5.409230e-01
-5.403326e-01
-5.396036e-01
-5.388787e-01
-5.382941e-01
-5.379238e-01
-5.377509e-01
-5.376810e-01
-5.375924e-01
-5.373958e-01
-5.370658e-01
-5.366301e-01
-5.361428e-01
-5.356622e-01
-5.352372e-01
-5.348908e-01
-5.346041e-01
-5.343156e-01
-5.339490e-01
-5.334535e-01
-5.328243e-01
-5.320888e-01
-5.312832e-01
-5.304490e-01
-5.296491e-01
-5.289705e-01
-5.284858e-01
-5.281933e-01
-5.279938e-01
-5.277425e-01
-5.273453e-01
-5.268171e-01
-5.262487e-01
-5.257205e-01
-5.252447e-01
-5.247773e-01
-5.242710e-01
-5.237090e-01
-5.230933e-01
-5.224162e-01
-5.216579e-01
-5.208120e-01
-5.199055e-01
-5.189854e-01
-5.180910e-01
-5.172417e-01
-5.164472e-01
-5.157143e-01
-5.150345e-01
-5.143647e-01
-5.136333e-01
-5.127772e-01
-5.117826e-01
-5.106908e-01
-5.095614e-01
-5.084278e-01
-5.072903e-01
-5.061527e-01
-5.050542e-01
-5.040535e-01
-5.031776e-01
-5.023955e-01
-5.016467e-01
-5.008877e-01
-5.001011e-01
-4.992610e-01
-4.983058e-01
-4.971623e-01
-4.958051e-01
-4.942892e-01
-4.927188e-01
-4.911803e-01
-4.897045e-01
-4.882846e-01
-4.869180e-01
-4.856191e-01
-4.843919e-01
-4.832018e-01
-4.819850e-01
-4.806873e-01
-4.792945e-01
-4.778268e-01
-4.763048e-01
-4.747182e-01
-4.730260e-01
-4.711922e-01
-4.692278e-01
-4.672028e-01
-4.652153e-01
-4.633499e-01
-4.616554e-01
-4.601426e-01
-4.587853e-01
-4.575170e-01
-4.562312e-01
-4.548004e-01
-4.531138e-01
-4.511113e-01
-4.487948e-01
-4.462202e-01
-4.434912e-01
-4.407567e-01
-4.381930e-01
-4.359552e-01
-4.341140e-01
-4.326181e-01
-4.313156e-01
-4.300251e-01
-4.286070e-01
-4.269943e-01
-4.251827e-01
-4.232040e-01
-4.211063e-01
-4.189441e-01
-4.167704e-01
-4.146208e-01
-4.124982e-01
-4.103712e-01
-4.081917e-01
-4.059255e-01
-4.035819e-01
-4.012249e-01
-3.989519e-01
-3.968463e-01
-3.949303e-01
-3.931517e-01
-3.914090e-01
-3.895943e-01
-3.876283e-01
-3.854721e-01
-3.831267e-01
-3.806393e-01
-3.781161e-01
-3.757086e-01
-3.735556e-01
-3.717125e-01
-3.701213e-01
-3.686420e-01
-3.671159e-01
-3.654229e-01
-3.635060e-01
-3.613675e-01
-3.590565e-01
-3.566532e-01
-3.542433e-01
-3.518837e-01
-3.495795e-01
-3.472913e-01
-3.449711e-01
-3.426086e-01
-3.402579e-01
-3.380213e-01
-3.359940e-01
-3.342052e-01
-3.325974e-01
-3.310495e-01
-3.294244e-01
-3.276081e-01
-3.255285e-01
-3.231564e-01
-3.205137e-01
-3.176974e-01
-3.148912e-01
-3.123230e-01
-3.101700e-01
-3.084699e-01
-3.071014e-01
-3.058484e-01
-3.045020e-01
-3.029208e-01
-3.010271e-01
-2.987874e-01
-2.962302e-01
-2.934835e-01
-2.907704e-01
-2.883264e-01
-2.862772e-01
-2.845602e-01
-2.829567e-01
-2.812148e-01
-2.791704e-01
-2.767851e-01
-2.741036e-01
-2.711993e-01
-2.681640e-01
-2.651258e-01
-2.622318e-01
-2.595692e-01
-2.570891e-01
-2.546150e-01
-2.519492e-01
-2.489886e-01
-2.457625e-01
-2.423817e-01
-2.389611e-01
-2.355815e-01
-2.323066e-01
-2.292022e-01
-2.263088e-01
-2.235844e-01
-2.208889e-01
-2.180407e-01
-2.149060e-01
-2.114565e-01
-2.077670e-01
-2.039771e-01
-2.002507e-01
-1.967437e-01
-1.935631e-01
-1.907205e-01
-1.881149e-01
-1.855711e-01
-1.829108e-01
-1.800097e-01
-1.768121e-01
-1.733155e-01
-1.695579e-01
-1.656248e-01
-1.616462e-01
-1.577512e-01
-1.539962e-01
-1.503226e-01
-1.465803e-01
-1.426045e-01
-1.383020e-01
-1.336980e-01
-1.289218e-01
-1.241496e-01
-1.195490e-01
-1.152420e-01
-1.112721e-01
-1.075776e-01
-1.040011e-01
-1.003488e-01
-9.646700e-02
-9.228646e-02
-8.781152e-02
-8.308167e-02
-7.815557e-02
-7.312962e-02
-6.815004e-02
-6.337590e-02
-5.890603e-02
-5.472971e-02
-5.074630e-02
-4.683534e-02
-4.291348e-02
-3.894275e-02
-3.491417e-02
-3.084417e-02
-2.678210e-02
-2.279894e-02
-1.894818e-02
-1.522409e-02
-1.155171e-02
-7.822817e-03
-3.953978e-03
8.287480e-05
4.281529e-03
8.644335e-03
1.319552e-02
1.794925e-02
2.286869e-02
2.786476e-02
3.284380e-02
3.776295e-02
4.264719e-02
4.756175e-02
5.256957e-02
5.770336e-02
6.296005e-02
6.831181e-02
7.372357e-02
7.916501e-02
8.461018e-02
9.002962e-02
9.538891e-02
1.006621e-01
1.058522e-01
1.109992e-01
1.161665e-01
1.214164e-01
1.267946e-01
1.323301e-01
1.380417e-01
1.439330e-01
1.499762e-01
1.561043e-01
1.622360e-01
1.683218e-01
1.743707e-01
1.804341e-01
1.865612e-01
1.927671e-01
1.990396e-01
2.053732e-01
2.117900e-01
2.183274e-01
2.250052e-01
2.318053e-01
2.386835e-01
2.456026e-01
2.525626e-01
2.595990e-01
2.667445e-01
2.739826e-01
2.812353e-01
2.884077e-01
2.954495e-01
3.023782e-01
3.092405e-01
3.160543e-01
3.227930e-01
3.294265e-01
3.359692e-01
3.424818e-01
3.490226e-01
3.556057e-01
3.622116e-01
3.688349e-01
3.755064e-01
3.822618e-01
3.890950e-01
3.959580e-01
4.028113e-01
4.096713e-01
4.165997e-01
4.236441e-01
4.307927e-01
4.379941e-01
4.452220e-01
4.525189e-01
4.599763e-01
4.676785e-01
4.756699e-01
4.839672e-01
4.925797e-01
5.014996e-01
5.106758e-01
5.200147e-01
5.294176e-01
5.388191e-01
5.481938e-01
5.575321e-01
5.668169e-01
5.760225e-01
5.851247e-01
5.941017e-01
6.029231e-01
6.115500e-01
6.199526e-01
6.281267e-01
6.360844e-01
6.438252e-01
6.513149e-01
6.584892e-01
6.652698e-01
6.715719e-01
6.773027e-01
6.823682e-01
6.867032e-01
6.903094e-01
6.932691e-01
6.957245e-01
6.978395e-01
6.997693e-01
7.016453e-01
7.035734e-01
7.056356e-01
7.078816e-01
7.103101e-01
7.128480e-01
7.153487e-01
7.176228e-01
7.194911e-01
7.208276e-01
7.215636e-01
7.216588e-01
7.210668e-01
7.197240e-01
7.175673e-01
7.145582e-01
7.106855e-01
7.059417e-01
7.002978e-01
6.936948e-01
6.860533e-01
6.772858e-01
6.673035e-01
6.560236e-01
6.433792e-01
6.293267e-01
6.138387e-01
5.968848e-01
5.784123e-01
5.583419e-01
5.365822e-01
5.130560e-01
4.877256e-01
4.606081e-01
4.317863e-01
4.014275e-01
3.698069e-01
3.373168e-01
3.044436e-01
2.717060e-01
2.395721e-01
2.083985e-01
1.784177e-01
1.497682e-01
1.225520e-01
9.690630e-02
7.305659e-02
5.132255e-02
3.208016e-02
1.571125e-02
2.564494e-03
-7.070996e-03
-1.298830e-02
-1.508669e-02
-1.339098e-02
-8.050315e-03
6.913833e-04
1.254595e-02
2.723259e-02
4.450211e-02
6.412242e-02
8.584308e-02
1.093674e-01
1.343504e-01
1.604227e-01
1.872302e-01
2.144733e-01
2.419309e-01
2.694498e-01
2.969071e-01
3.241708e-01
3.510863e-01
3.774883e-01
4.032091e-01
4.280629e-01
4.518154e-01
4.741765e-01
4.948386e-01
5.135426e-01
5.301256e-01
5.445262e-01
5.567664e-01
5.669538e-01
5.753191e-01
5.822360e-01
5.881538e-01
5.934708e-01
5.984392e-01
6.031553e-01
6.076122e-01
6.117655e-01
6.155888e-01
6.191106e-01
6.224249e-01
6.256711e-01
6.289997e-01
6.325514e-01
6.364522e-01
6.408099e-01
6.457045e-01
6.511775e-01
6.572249e-01
6.637961e-01
6.708113e-01
6.781947e-01
6.859056e-01
6.939437e-01
7.023272e-01
7.110680e-01
7.201651e-01
7.296176e-01
7.394226e-01
7.495246e-01
7.597525e-01
7.698193e-01
7.794112e-01
7.883032e-01
7.964221e-01
8.038274e-01
8.106468e-01
8.170223e-01
8.230961e-01
8.290214e-01
8.349673e-01
8.411002e-01
8.475445e-01
8.543487e-01
8.614855e-01
8.688854e-01
8.764777e-01
8.842218e-01
8.921286e-01
9.002702e-01
9.087691e-01
9.177702e-01
9.274055e-01
9.377674e-01
9.488869e-01
9.607152e-01
9.731181e-01
9.859020e-01
9.988684e-01
1.011861e+00
1.024788e+00
1.037634e+00
1.050458e+00
1.063345e+00
1.076331e+00
1.089342e+00
1.102198e+00
1.114671e+00
1.126561e+00
1.137736e+00
1.148133e+00
1.157743e+00
1.166579e+00
1.174678e+00
1.182078e+00
1.188801e+00
1.194824e+00
1.200092e+00
1.204558e+00
1.208223e+00
1.211155e+00
1.213452e+00
1.215227e+00
1.216607e+00
1.217772e+00
1.218969e+00
1.220501e+00
1.222666e+00
1.225720e+00
1.229860e+00
1.235244e+00
1.241986e+00
1.250139e+00
1.259698e+00
1.270614e+00
1.282801e+00
1.296127e+00
1.310399e+00
1.325390e+00
1.340879e+00
1.356700e+00
1.372792e+00
1.389204e+00
1.406066e+00
1.423516e+00
1.441631e+00
1.460384e+00
1.479637e+00
1.499157e+00
1.518631e+00
1.537694e+00
1.555966e+00
1.573111e+00
1.588875e+00
1.603089e+00
1.615648e+00
1.626501e+00
1.635681e+00
1.643343e+00
1.649765e+00
1.655288e+00
1.660213e+00
1.664729e+00
1.668892e+00
1.672667e+00
1.675990e+00
1.678799e+00
1.681033e+00
1.682642e+00
1.683593e+00
1.683886e+00
1.683551e+00
1.682667e+00
1.681381e+00
1.679913e+00
1.678525e+00
1.677484e+00
1.677027e+00
1.677327e+00
1.678444e+00
1.680296e+00
1.682673e+00
1.685309e+00
1.687962e+00
1.690454e+00
1.692661e+00
1.694467e+00
1.695749e+00
1.696415e+00
1.696468e+00
1.696037e+00
1.695349e+00
1.694677e+00
1.694300e+00
1.694472e+00
1.695388e+00
1.697151e+00
1.699739e+00
1.703032e+00
1.706866e+00
1.711100e+00
1.715635e+00
1.720389e+00
1.725272e+00
1.730204e+00
1.735148e+00
1.740148e+00
1.745302e+00
1.750718e+00
1.756479e+00
1.762652e+00
1.769307e+00
1.776512e+00
1.784291e+00
1.792592e+00
1.801305e+00
1.810321e+00
1.819584e+00
1.829088e+00
1.838836e+00
1.848811e+00
1.858973e+00
1.869271e+00
1.879646e+00
1.890040e+00
1.900406e+00
1.910747e+00
1.921133e+00
1.931679e+00
1.942499e+00
1.953662e+00
1.965186e+00
1.977057e+00
1.989247e+00
2.001727e+00
2.014472e+00
2.027466e+00
2.040718e+00
2.054264e+00
2.068154e+00
2.082429e+00
2.097085e+00
2.112060e+00
2.127225e+00
2.142405e+00
2.157394e+00
2.171943e+00
2.185750e+00
2.198446e+00
2.209627e+00
2.218907e+00
2.225957e+00
2.230524e+00
2.232420e+00
2.231516e+00
2.227755e+00
2.221186e+00
2.211987e+00
2.200435e+00
2.186842e+00
2.171482e+00
2.154560e+00
2.136217e+00
2.116535e+00
2.095541e+00
2.073185e+00
2.049354e+00
2.023901e+00
1.996690e+00
1.967635e+00
1.936706e+00
1.903918e+00
1.869306e+00
1.832921e+00
1.794825e+00
1.755095e+00
1.713821e+00
1.671129e+00
1.627211e+00
1.582357e+00
1.536978e+00
1.491613e+00
1.446899e+00
1.403506e+00
1.362063e+00
1.323078e+00
1.286909e+00
1.253785e+00
1.223869e+00
1.197300e+00
1.174195e+00
1.154632e+00
1.138639e+00
1.126206e+00
1.117283e+00
1.111756e+00
1.109385e+00
1.109754e+00
1.112268e+00
1.116197e+00
1.120766e+00
1.125267e+00
1.129158e+00
1.132117e+00
1.134048e+00
1.135051e+00
1.135370e+00
1.135314e+00
1.135148e+00
1.134983e+00
1.134716e+00
1.134058e+00
1.132627e+00
1.130027e+00
1.125889e+00
1.119865e+00
1.111617e+00
1.100868e+00
1.087523e+00
1.071813e+00
1.054355e+00
1.036085e+00
1.018065e+00
1.001284e+00
9.865279e-01
9.743308e-01
9.649915e-01
9.586257e-01
9.552154e-01
9.546427e-01
9.567096e-01
9.611346e-01
9.675267e-01
9.753777e-01
9.841158e-01
9.932228e-01
1.002347e+00
1.011343e+00
1.020246e+00
1.029227e+00
1.038558e+00
1.048565e+00
1.059581e+00
1.071876e+00
1.085590e+00
1.100671e+00
1.116864e+00
1.133739e+00
1.150794e+00
1.167582e+00
1.183803e+00
1.199333e+00
1.214175e+00
1.228414e+00
1.242166e+00
1.255557e+00
1.268698e+00
1.281670e+00
1.294520e+00
1.307294e+00
1.320079e+00
1.333019e+00
1.346310e+00
1.360171e+00
1.374827e+00
1.390497e+00
1.407394e+00
1.425712e+00
1.445627e+00
1.467275e+00
1.490739e+00
1.516037e+00
1.543125e+00
1.571884e+00
1.602115e+00
1.633554e+00
1.665914e+00
1.698950e+00
1.732514e+00
1.766570e+00
1.801145e+00
1.836267e+00
1.871924e+00
1.908061e+00
1.944594e+00
1.981397e+00
2.018292e+00
2.055031e+00
2.091318e+00
2.126861e+00
2.161432e+00
2.194894e+00
2.227206e+00
2.258396e+00
2.288540e+00
2.317739e+00
2.346135e+00
2.373916e+00
2.401322e+00
2.428606e+00
2.455986e+00
2.483598e+00
2.511486e+00
2.539629e+00
2.567954e+00
2.596346e+00
2.624631e+00
2.652579e+00
2.679915e+00
2.706354e+00
2.731616e+00
2.755427e+00
2.777500e+00
2.797511e+00
2.815091e+00
2.829849e+00
2.841405e+00
2.849420e+00
2.853618e+00
2.853789e+00
2.849795e+00
2.841570e+00
2.829107e+00
2.812443e+00
2.791647e+00
2.766809e+00
2.738044e+00
2.705506e+00
2.669397e+00
2.629968e+00
2.587475e+00
2.542144e+00
2.494148e+00
2.443614e+00
2.390642e+00
2.335313e+00
2.277677e+00
2.217753e+00
2.155577e+00
2.091286e+00
2.025208e+00
1.957884e+00
1.889988e+00
1.822225e+00
1.755233e+00
1.689551e+00
1.625618e+00
1.563807e+00
1.504450e+00
1.447862e+00
1.394370e+00
1.344352e+00
1.298247e+00
1.256542e+00
1.219709e+00
1.188136e+00
1.162064e+00
1.141583e+00
1.126652e+00
1.117094e+00
1.112572e+00
1.112568e+00
1.116420e+00
1.123421e+00
1.132922e+00
1.144404e+00
1.157501e+00
1.171998e+00
1.187795e+00
1.204860e+00
1.223183e+00
1.242741e+00
1.263482e+00
1.285310e+00
1.308074e+00
1.331565e+00
1.355547e+00
1.379800e+00
1.404142e+00
1.428425e+00
1.452507e+00
1.476247e+00
1.499510e+00
1.522185e+00
1.544195e+00
1.565501e+00
1.586090e+00
1.605977e+00
1.625203e+00
1.643849e+00
1.662041e+00
1.679940e+00
1.697727e+00
1.715573e+00
1.733608e+00
1.751912e+00
1.770507e+00
1.789375e+00
1.808467e+00
1.827719e+00
1.847048e+00
1.866355e+00
1.885535e+00
1.904509e+00
1.923242e+00
1.941720e+00
1.959893e+00
1.977617e+00
1.994666e+00
2.010786e+00
2.025756e+00
2.039429e+00
2.051744e+00
2.062733e+00
2.072533e+00
2.081374e+00
2.089549e+00
2.097330e+00
2.104890e+00
2.112260e+00
2.119318e+00
2.125823e+00
2.131469e+00
2.135929e+00
2.138888e+00
2.140042e+00
2.139105e+00
2.135833e+00
2.130062e+00
2.121788e+00
2.111252e+00
2.099007e+00
2.085855e+00
2.072668e+00
2.060190e+00
2.048963e+00
2.039334e+00
2.031513e+00
2.025618e+00
2.021726e+00
2.019876e+00
2.020002e+00
2.021841e+00
2.024899e+00
2.028531e+00
2.032061e+00
2.034889e+00
2.036564e+00
2.036803e+00
2.035519e+00
2.032839e+00
2.029086e+00
2.024722e+00
2.020246e+00
2.016098e+00
2.012585e+00
2.009836e+00
2.007755e+00
2.006008e+00
2.004083e+00
2.001410e+00
1.997484e+00
1.991929e+00
1.984509e+00
1.975092e+00
1.963610e+00
1.950043e+00
1.934406e+00
1.916745e+00
1.897129e+00
1.875637e+00
1.852348e+00
1.827323e+00
1.800581e+00
1.772079e+00
1.741735e+00
1.709456e+00
1.675173e+00
1.638839e+00
1.600412e+00
1.559867e+00
1.517238e+00
1.472691e+00
1.426582e+00
1.379474e+00
1.332068e+00
1.285043e+00
1.238900e+00
1.193907e+00
1.150162e+00
1.107710e+00
1.066622e+00
1.027016e+00
9.890318e-01
9.528120e-01
9.185090e-01
8.863070e-01
8.564232e-01
8.290770e-01
8.044499e-01
7.826591e-01
7.637612e-01
7.477740e-01
7.346977e-01
7.245131e-01
7.171507e-01
7.124629e-01
7.102399e-01
7.102636e-01
7.123540e-01
7.163767e-01
7.222179e-01
7.297558e-01
7.388489e-01
7.493427e-01
7.610840e-01
7.739302e-01
7.877475e-01
8.024009e-01
8.177415e-01
8.335960e-01
8.497575e-01
8.659880e-01
8.820307e-01
8.976175e-01
9.124600e-01
9.262305e-01
9.385514e-01
9.490022e-01
9.571368e-01
9.625094e-01
9.647117e-01
9.634203e-01
9.584363e-01
9.497031e-01
9.373088e-01
9.214699e-01
9.024966e-01
8.807420e-01
8.565522e-01
8.302341e-01
8.020339e-01
7.721114e-01
7.405184e-01
7.072114e-01
6.720927e-01
6.350500e-01
5.959762e-01
5.547855e-01
5.114339e-01
4.659343e-01
4.183506e-01
3.687782e-01
3.173319e-01
2.641489e-01
2.093903e-01
1.532314e-01
9.585360e-02
3.745525e-02
-2.172656e-02
-8.140691e-02
-1.412675e-01
-2.009847e-01
-2.602619e-01
-3.188677e-01
-3.766634e-01
-4.336007e-01
-4.896890e-01
-5.449575e-01
-5.994339e-01
-6.531341e-01
-7.060430e-01
-7.580901e-01
-8.091423e-01
-8.590207e-01
-9.075295e-01
-9.544886e-01
-9.997756e-01
-1.043356e+00
-1.085282e+00
-1.125649e+00
-1.164564e+00
-1.202119e+00
-1.238392e+00
-1.273441e+00
-1.307282e+00
-1.339860e+00
-1.371047e+00
-1.400673e+00
-1.428572e+00
-1.454608e+00
-1.478671e+00
-1.500637e+00
-1.520360e+00
-1.537690e+00
-1.552520e+00
-1.564805e+00
-1.574553e+00
-1.581815e+00
-1.586696e+00
-1.589394e+00
-1.590221e+00
-1.589596e+00
-1.587983e+00
-1.585821e+00
-1.583476e+00
-1.581243e+00
-1.579364e+00
-1.578034e+00
-1.577375e+00
-1.577387e+00
-1.577922e+00
-1.578683e+00
-1.579264e+00
-1.579236e+00
-1.578236e+00
-1.576002e+00
-1.572351e+00
-1.567135e+00
-1.560218e+00
-1.551494e+00
-1.540911e+00
-1.528477e+00
-1.514244e+00
-1.498267e+00
-1.480585e+00
-1.461214e+00
-1.440159e+00
-1.417434e+00
-1.393067e+00
-1.367104e+00
-1.339606e+00
-1.310666e+00
-1.280415e+00
-1.249010e+00
-1.216608e+00
-1.183333e+00
-1.149271e+00
-1.114488e+00
-1.079050e+00
-1.043044e+00
-1.006568e+00
-9.697171e-01
-9.325614e-01
-8.951489e-01
-8.575211e-01
-8.197341e-01
-7.818683e-01
-7.440245e-01
-7.063146e-01
-6.688564e-01
-6.317722e-01
-5.951887e-01
-5.592365e-01
-5.240552e-01
-4.898050e-01
-4.566771e-01
-4.248917e-01
-3.946788e-01
-3.662496e-01
-3.397713e-01
-3.153537e-01
-2.930454e-01
-2.728367e-01
-2.546671e-01
-2.384324e-01
-2.239872e-01
-2.111504e-01
-1.997198e-01
-1.894999e-01
-1.803310e-01
-1.721021e-01
-1.647343e-01
-1.581472e-01
-1.522407e-01
-1.469072e-01
-1.420578e-01
-1.376375e-01
-1.336230e-01
-1.300150e-01
-1.268415e-01
-1.241710e-01
-1.221219e-01
-1.208536e-01
-1.205437e-01
-1.213688e-01
-1.234982e-01
-1.270947e-01
-1.323134e-01
-1.392944e-01
-1.481572e-01
-1.590019e-01
-1.719049e-01
-1.869020e-01
-2.039572e-01
-2.229322e-01
-2.435713e-01
-2.655102e-01
-2.883154e-01
-3.115517e-01
-3.348586e-01
-3.580040e-01
-3.809018e-01
-4.035910e-01
-4.261858e-01
-4.488189e-01
-4.716074e-01
-4.946521e-01
-5.180519e-01
-5.419067e-01
-5.662964e-01
-5.912547e-01
-6.167554e-01
-6.427111e-01
-6.689737e-01
-6.953368e-01
