EVENT_NAME: EMILIA_2ND_SHOCK
EVENT_ID: IT-2012-0011
EVENT_DATE_YYYYMMDD: 20120529
EVENT_TIME_HHMMSS: 070002
EVENT_LATITUDE_DEGREE: 44.8417
EVENT_LONGITUDE_DEGREE: 11.0657
EVENT_DEPTH_KM: 8.1
HYPOCENTER_REFERENCE: INGV-CNT_Seismic_Bulletin
MAGNITUDE_W: 6.0
MAGNITUDE_W_REFERENCE: RCMT-INGV
MAGNITUDE_L: 5.8
MAGNITUDE_L_REFERENCE: INGV-CNT_Seismic_Bulletin
FOCAL_MECHANISM: TF
NETWORK: IV
STATION_CODE: T0812
STATION_NAME: T0812
STATION_LATITUDE_DEGREE: 44.954700
STATION_LONGITUDE_DEGREE: 11.181000
STATION_ELEVATION_M: 7
LOCATION: 
SENSOR_DEPTH_M: 1.0
VS30_M/S: 
SITE_CLASSIFICATION_EC8: C*
MORPHOLOGIC_CLASSIFICATION: 
EPICENTRAL_DISTANCE_KM: 15.5
EARTHQUAKE_BACKAZIMUTH_DEGREE: 216.0
DATE_TIME_FIRST_SAMPLE_YYYYMMDD_HHMMSS: 20120529_065952.000
DATE_TIME_FIRST_SAMPLE_PRECISION: milliseconds
SAMPLING_INTERVAL_S: 0.005000
NDATA: 30001
DURATION_S: 150.005
STREAM: HNN
UNITS: cm/s
INSTRUMENT: sensor = Episensor FBA ES-T [Kinemetrics] | digitizer = Unknown [Unknown]
INSTRUMENT_ANALOG/DIGITAL: D
INSTRUMENTAL_FREQUENCY_HZ: 
INSTRUMENTAL_DAMPING: 
FULL_SCALE_G: 
N_BIT_DIGITAL_CONVERTER: 
PGV_CM/S: 17.255759
TIME_PGV_S: 22.615000
BASELINE_CORRECTION: BASELINE REMOVED
FILTER_TYPE: BUTTERWORTH
FILTER_ORDER: 2
LOW_CUT_FREQUENCY_HZ: 0.060
HIGH_CUT_FREQUENCY_HZ: 40.000
LATE/NORMAL_TRIGGERED: NT
DATABASE_VERSION: DYNA 1.0
HEADER_FORMAT: DYNA 1.2
DATA_TYPE: VELOCITY
PROCESSING: manual (Paolucci et al., 2011)
DATA_TIMESTAMP_YYYYMMDD_HHMMSS: 
DATA_LICENSE: CC-BY4_0 (http://creativecommons.org/licenses/by/4.0/)
DATA_CITATION: ESM working group (2015), European Strong-Motion database, version 0.1, Network Activity 3: Networking acceleration networks and SM data users. Project NERA (www.nera-eu.org)
DATA_CREATOR: ESM working group
ORIGINAL_DATA_MEDIATOR_CITATION: Orfeus - European Integrated Data Archive (EIDA) http://www.orfeus-eu.org/eida/
ORIGINAL_DATA_MEDIATOR: Orfeus - European Integrated Data Archive (EIDA)
ORIGINAL_DATA_CREATOR_CITATION: Data for this study comes from the Italian national seismic network operated by Istituto Nazionale di Geofisica e Vulcanologia and archived at the European Integrated Data Archive http://eida.rm.ingv.it/
ORIGINAL_DATA_CREATOR: network: IV (Italian National Seismic Network); owner: Istituto Nazionale di Geofisica e Vulcanologia
USER1: 
USER2: 
USER3: 
USER4: 
USER5: 
[...]
-0.033300
-0.026657
-0.019727
-0.009959
0.002849
0.015123
0.021058
0.015809
-0.001498
-0.026617
-0.052053
-0.070817
-0.079310
-0.078045
-0.070548
-0.060965
-0.051751
-0.043144
-0.034471
-0.025725
-0.018073
-0.013192
-0.012006
-0.013629
-0.015826
-0.017308
-0.019571
-0.025557
-0.035974
-0.047292
-0.053621
-0.050313
-0.036461
-0.015642
0.004829
0.016013
0.010856
-0.011466
-0.042765
-0.068215
-0.074799
-0.060704
-0.037570
-0.022859
-0.028264
-0.052857
-0.085307
-0.112413
-0.126958
-0.129626
-0.125714
-0.121049
-0.119752
-0.122970
-0.127801
-0.128185
-0.118914
-0.100190
-0.078323
-0.061848
-0.056780
-0.063858
-0.078249
-0.091895
-0.098113
-0.095930
-0.090558
-0.089561
-0.098089
-0.116391
-0.140429
-0.164569
-0.184038
-0.195250
-0.194872
-0.180331
-0.152510
-0.117896
-0.086988
-0.068879
-0.065575
-0.070936
-0.075939
-0.075972
-0.073523
-0.074339
-0.081399
-0.092498
-0.102612
-0.107317
-0.103884
-0.090983
-0.069756
-0.046217
-0.031819
-0.039323
-0.074677
-0.130491
-0.187634
-0.225008
-0.230630
-0.207788
-0.173700
-0.150552
-0.152520
-0.176892
-0.206976
-0.225401
-0.226663
-0.218482
-0.212650
-0.215792
-0.227935
-0.246503
-0.268730
-0.290920
-0.308670
-0.318783
-0.319686
-0.310046
-0.288741
-0.257317
-0.222090
-0.193691
-0.183992
-0.199538
-0.233957
-0.267887
-0.280984
-0.267799
-0.243049
-0.231304
-0.250007
-0.297907
-0.355887
-0.399770
-0.415869
-0.406780
-0.383850
-0.356395
-0.329366
-0.308024
-0.299397
-0.306423
-0.321613
-0.329311
-0.316617
-0.283006
-0.239845
-0.202518
-0.183647
-0.189801
-0.218770
-0.258098
-0.290118
-0.302845
-0.297208
-0.283843
-0.272832
-0.265596
-0.255683
-0.236768
-0.209560
-0.181728
-0.162499
-0.156964
-0.163398
-0.174631
-0.183581
-0.189951
-0.201075
-0.224262
-0.258021
-0.291619
-0.312653
-0.313755
-0.293657
-0.255785
-0.207606
-0.159941
-0.124221
-0.108421
-0.114965
-0.141831
-0.184247
-0.234857
-0.284199
-0.323591
-0.348748
-0.360900
-0.364481
-0.363774
-0.361593
-0.359779
-0.358569
-0.355515
-0.348117
-0.339214
-0.338306
-0.355058
-0.390136
-0.432805
-0.468340
-0.488066
-0.492617
-0.487648
-0.478775
-0.470205
-0.464573
-0.460588
-0.451687
-0.431816
-0.405673
-0.390186
-0.400891
-0.435993
-0.475420
-0.496165
-0.488510
-0.459337
-0.423339
-0.392106
-0.368928
-0.350129
-0.329749
-0.304501
-0.276889
-0.255128
-0.249243
-0.263922
-0.292906
-0.321922
-0.339929
-0.348317
-0.358057
-0.377457
-0.403034
-0.421029
-0.416886
-0.385991
-0.339672
-0.301798
-0.294902
-0.324695
-0.376633
-0.426314
-0.453307
-0.450106
-0.424831
-0.397050
-0.385280
-0.392900
-0.405951
-0.406187
-0.387622
-0.362061
-0.349454
-0.361926
-0.394676
-0.430259
-0.451497
-0.451659
-0.434679
-0.408720
-0.381575
-0.360821
-0.353503
-0.361958
-0.380292
-0.396620
-0.399732
-0.384922
-0.355469
-0.320094
-0.288745
-0.269106
-0.264857
-0.275235
-0.295876
-0.321295
-0.347253
-0.370625
-0.388012
-0.396237
-0.395126
-0.389691
-0.388435
-0.397307
-0.413294
-0.423854
-0.415002
-0.382482
-0.335965
-0.292683
-0.266843
-0.263487
-0.279819
-0.310116
-0.348081
-0.385392
-0.411641
-0.419834
-0.413204
-0.404449
-0.406138
-0.421283
-0.442923
-0.461864
-0.473919
-0.480020
-0.481215
-0.475847
-0.462158
-0.442021
-0.420839
-0.405515
-0.404717
-0.428353
-0.481318
-0.555191
-0.626421
-0.665286
-0.652502
-0.592535
-0.511690
-0.441628
-0.402813
-0.400027
-0.426809
-0.469164
-0.507428
-0.520523
-0.492989
-0.421306
-0.315696
-0.196215
-0.086411
-0.008599
0.020336
-0.004780
-0.071980
-0.153494
-0.216548
-0.240112
-0.226825
-0.198519
-0.176645
-0.165069
-0.151605
-0.124289
-0.084477
-0.045597
-0.021849
-0.018777
-0.032190
-0.052352
-0.068559
-0.074226
-0.072877
-0.079632
-0.112330
-0.176495
-0.258219
-0.333393
-0.385106
-0.412432
-0.422012
-0.412040
-0.368095
-0.277882
-0.149913
-0.016984
0.078763
0.106719
0.059575
-0.048267
-0.187589
-0.320084
-0.407340
-0.425588
-0.377245
-0.290649
-0.206957
-0.158367
-0.149018
-0.153139
-0.134416
-0.072379
0.024231
0.123532
0.187725
0.190877
0.129173
0.018898
-0.114808
-0.248153
-0.361681
-0.441467
-0.483913
-0.499288
-0.507138
-0.524289
-0.553705
-0.583297
-0.596261
-0.584056
-0.551318
-0.510617
-0.473469
-0.445010
-0.424761
-0.411131
-0.405369
-0.410756
-0.427345
-0.448387
-0.463079
-0.462913
-0.445424
-0.413142
-0.370647
-0.322865
-0.274883
-0.231853
-0.198492
-0.178886
-0.175856
-0.189127
-0.213864
-0.241571
-0.263146
-0.272659
-0.270920
-0.266750
-0.272660
-0.296326
-0.335086
-0.378249
-0.414647
-0.439151
-0.454219
-0.466793
-0.483266
-0.505790
-0.531686
-0.554921
-0.568026
-0.564748
-0.544064
-0.513028
-0.484155
-0.467736
-0.465263
-0.468552
-0.464155
-0.440152
-0.391523
-0.320859
-0.234766
-0.140082
-0.042902
0.051198
0.137691
0.213472
0.276396
0.325175
0.360398
0.385262
0.403990
0.419118
0.430978
0.440104
0.449744
0.465859
0.494671
0.539320
0.596929
0.657003
0.703137
0.720582
0.707856
0.682891
0.673619
0.696780
0.743141
0.782544
0.784293
0.736400
0.650327
0.550396
0.458175
0.383983
0.328990
0.291046
0.267654
0.256701
0.257237
0.270021
0.297244
0.341366
0.403128
0.478863
0.558069
0.623433
0.654614
0.634894
0.559472
0.441319
0.307567
0.186276
0.094614
0.038220
0.017410
0.029698
0.066760
0.112345
0.146720
0.156190
0.139434
0.103759
0.053631
-0.018112
-0.126463
-0.279162
-0.463893
-0.649892
-0.802593
-0.899960
-0.939940
-0.935239
-0.900584
-0.843975
-0.768554
-0.679283
-0.585452
-0.497865
-0.425661
-0.375711
-0.351251
-0.347506
-0.349867
-0.340654
-0.310914
-0.266752
-0.225133
-0.203349
-0.208824
-0.234221
-0.260592
-0.267139
-0.241540
-0.184898
-0.110675
-0.039577
0.009142
0.026612
0.016285
-0.012684
-0.053356
-0.102204
-0.153531
-0.195729
-0.217845
-0.222453
-0.229575
-0.263571
-0.332941
-0.420975
-0.494567
-0.522621
-0.491492
-0.410872
-0.309504
-0.223895
-0.184835
-0.205213
-0.272077
-0.349152
-0.394867
-0.386909
-0.334093
-0.267940
-0.223176
-0.219665
-0.253157
-0.298113
-0.322308
-0.305096
-0.247080
-0.167252
-0.093398
-0.052015
-0.060330
-0.121503
-0.223215
-0.339120
-0.434577
-0.478860
-0.459664
-0.389896
-0.300950
-0.225154
-0.176269
-0.141454
-0.093891
-0.018165
0.072056
0.138563
0.141214
0.060824
-0.091066
-0.276080
-0.442481
-0.545720
-0.567606
-0.521051
-0.438785
-0.356389
-0.298352
-0.270327
-0.259259
-0.241990
-0.200173
-0.135174
-0.073357
-0.054690
-0.107298
-0.224099
-0.361153
-0.460065
-0.475778
-0.391546
-0.220230
0.001198
0.223372
0.400791
0.505227
0.532696
0.502491
0.445489
0.387128
0.337869
0.296614
0.259441
0.223776
0.188153
0.154647
0.134691
0.148523
0.211679
0.318114
0.437356
0.531843
0.580789
0.589252
0.576060
0.557123
0.542508
0.544017
0.577201
0.652316
0.763976
0.890463
1.003080
1.077328
1.098648
1.063909
0.983334
0.881360
0.790798
0.739751
0.738081
0.772880
0.818299
0.854428
0.880987
0.915202
0.977186
1.074838
1.197436
1.320462
1.417212
1.468988
1.468490
1.418047
1.328802
1.221516
1.121727
1.047453
0.998634
0.956881
0.895519
0.794357
0.651974
0.487586
0.329302
0.198661
0.105252
0.050662
0.031192
0.035854
0.044527
0.030462
-0.032140
-0.156675
-0.335304
-0.541966
-0.745958
-0.924407
-1.066811
-1.172144
-1.241372
-1.270558
-1.250120
-1.172065
-1.039429
-0.868213
-0.680413
-0.496946
-0.336250
-0.213622
-0.135600
-0.092767
-0.058503
0.002112
0.114793
0.279173
0.465182
0.627281
0.727847
0.755274
0.726715
0.674802
0.627862
0.596920
0.576388
0.555879
0.533767
0.520904
0.531547
0.571200
0.632099
0.698172
0.754183
0.792522
0.813289
0.818178
0.805461
0.772985
0.725851
0.678963
0.650102
0.649279
0.673192
0.706912
0.729412
0.720753
0.669811
0.579319
0.465294
0.353678
0.276350
0.260940
0.315441
0.421868
0.545756
0.652116
0.717213
0.734178
0.712655
0.670760
0.623365
0.575532
0.523135
0.456906
0.368462
0.257946
0.138389
0.029810
-0.053586
-0.110666
-0.151752
-0.195114
-0.263667
-0.376638
-0.536302
-0.721175
-0.894288
-1.021519
-1.087682
-1.099663
-1.075168
-1.028096
-0.963485
-0.883376
-0.794408
-0.708265
-0.634554
-0.574105
-0.520661
-0.469566
-0.424242
-0.393662
-0.383938
-0.392884
-0.410842
-0.424310
-0.419776
-0.388337
-0.330432
-0.257519
-0.189447
-0.148719
-0.152197
-0.203699
-0.293690
-0.406034
-0.525283
-0.640567
-0.747226
-0.847291
-0.947125
-1.050962
-1.153939
-1.240696
-1.292335
-1.298869
-1.268929
-1.227560
-1.201156
-1.201262
-1.220945
-1.243214
-1.249822
-1.224727
-1.156480
-1.043068
-0.895301
-0.733323
-0.577752
-0.442838
-0.335990
-0.258923
-0.205754
-0.162469
-0.113601
-0.053196
0.009538
0.055879
0.071523
0.059685
0.043469
0.053279
0.105841
0.189490
0.267099
0.293878
0.237310
0.090678
-0.123415
-0.363218
-0.588786
-0.780431
-0.942986
-1.097468
-1.268296
-1.469898
-1.696536
-1.922869
-2.117145
-2.257677
-2.341020
-2.379121
-2.390072
-2.387668
-2.375283
-2.347949
-2.299801
-2.230800
-2.149964
-2.075216
-2.029018
-2.027713
-2.069438
-2.132582
-2.188249
-2.216483
-2.214948
-2.198056
-2.190065
-2.213911
-2.279327
-2.377355
-2.484141
-2.571428
-2.620660
-2.635829
-2.645758
-2.688913
-2.789737
-2.946185
-3.135583
-3.329753
-3.508607
-3.666160
-3.807738
-3.942909
-4.081536
-4.234817
-4.415010
-4.628934
-4.869119
-5.109294
-5.308986
-5.430203
-5.458665
-5.412156
-5.329224
-5.250039
-5.203907
-5.206838
-5.263315
-5.365269
-5.487899
-5.591268
-5.635027
-5.597989
-5.485388
-5.318431
-5.116054
-4.881703
-4.601865
-4.255780
-3.831025
-3.336025
-2.800160
-2.261235
-1.750671
-1.285361
-0.867899
-0.492657
-0.152655
0.156741
0.437061
0.686811
0.902026
1.078743
1.217535
1.326776
1.420489
1.511396
1.604207
1.692006
1.755587
1.767136
1.699093
1.535642
1.283484
0.976443
0.666539
0.403444
0.216547
0.110336
0.071506
0.080331
0.118654
0.170530
0.219061
0.245918
0.234874
0.176474
0.071086
-0.071438
-0.234739
-0.399215
-0.545005
-0.654501
-0.713161
-0.710661
-0.646006
-0.534091
-0.406461
-0.303180
-0.258847
-0.288574
-0.381530
-0.506733
-0.626217
-0.706946
-0.729093
-0.691144
-0.610022
-0.516489
-0.447044
-0.431180
-0.478643
-0.577603
-0.704909
-0.838619
-0.965713
-1.084340
-1.200753
-1.320832
-1.440303
-1.541564
-1.600940
-1.600167
-1.532173
-1.398435
-1.203135
-0.950462
-0.646829
-0.303793
0.063640
0.443023
0.829452
1.225285
1.634555
2.056107
2.480385
2.891761
3.274739
3.620126
3.928193
4.208359
4.475396
4.742005
5.011294
5.275111
5.519363
5.732305
5.912101
6.071261
6.233976
6.422303
6.636720
6.847124
7.004549
7.066652
7.020459
6.889859
6.723446
6.567654
6.444736
6.355257
6.298263
6.284494
6.328992
6.429623
6.552234
6.641666
6.653363
6.577899
6.439934
6.276985
6.115887
5.963140
5.812813
5.660720
5.511540
5.376240
5.265316
5.183832
5.130601
5.100165
5.085536
5.080983
5.084497
5.098602
5.128310
5.177446
5.246058
5.328747
5.412112
5.473863
5.488403
5.438400
5.325618
5.172745
5.013096
4.874504
4.768584
4.690918
4.630476
4.582525
4.555527
4.565394
4.621036
4.711956
4.807263
4.868930
4.871085
4.811151
4.707134
4.586302
4.472550
4.377768
4.300706
4.233605
4.172817
4.126474
4.111862
4.142867
4.218130
4.319590
4.421127
4.500299
4.545638
4.555939
4.534136
4.481322
4.395809
4.280043
4.151187
4.043008
3.993977
4.030649
4.155848
4.346856
4.566989
4.785816
4.994409
5.205133
5.438258
5.706349
6.005445
6.316014
6.612584
6.877526
7.111303
7.332894
7.570501
7.847252
8.166617
8.504303
8.815581
9.058126
9.216071
9.308673
9.379703
9.475864
9.625602
9.829144
10.065000
10.305330
10.528220
10.723790
10.896360
11.060810
11.230810
11.403780
11.554530
11.644010
11.636790
11.517440
11.297800
11.010530
10.691610
10.363530
10.030680
9.687312
9.330354
8.967498
8.615683
8.291537
7.998698
7.719474
7.419444
7.065707
6.646774
6.179151
5.696442
5.229448
4.790188
4.369458
3.948160
3.511639
3.055479
2.581885
2.093765
1.591793
1.074154
0.536492
-0.028011
-0.625651
-1.255859
-1.906579
-2.556829
-3.186086
-3.784256
-4.354504
-4.906546
-5.446577
-5.972412
-6.476767
-6.954618
-7.407916
-7.843966
-8.269555
-8.686397
-9.091797
-9.483322
-9.862461
-10.233850
-10.601290
-10.963510
-11.312080
-11.632980
-11.911510
-12.137350
-12.306410
-12.418630
-12.473310
-12.466590
-12.394570
-12.260120
-12.078130
-11.873970
-11.672930
-11.486940
-11.309960
-11.126370
-10.925060
-10.708390
-10.489400
-10.279510
-10.077270
-9.866538
-9.623923
-9.328451
-8.966884
-8.533342
-8.026985
-7.450591
-6.810318
-6.116591
-5.384772
-4.632689
-3.875336
-3.120753
-2.369193
-1.615208
-0.851869
-0.075377
0.712291
1.503922
2.289804
3.060884
3.810914
4.536664
5.236621
5.909550
6.553944
7.169238
7.758500
8.329990
8.895189
9.463820
10.038660
10.613250
11.174670
11.710040
12.212400
12.682380
13.127240
13.559430
13.993910
14.442840
14.909670
15.385480
15.848880
16.271620
16.628340
16.904301
17.096840
17.211430
17.255760
17.235411
17.153351
17.011869
16.814119
16.563589
16.262480
15.910470
15.505000
15.042840
14.522180
13.944000
13.311980
12.630640
11.903200
11.130990
10.315740
9.462456
8.580187
7.679901
6.770709
5.857399
4.940868
4.020566
3.097247
2.174602
1.259336
0.359578
-0.518546
-1.374586
-2.214363
-3.046005
-3.873996
-4.695503
-5.501592
-6.282706
-7.035176
-7.764233
-8.480416
-9.191429
-9.896008
-10.584570
-11.245490
-11.871860
-12.464610
-13.030830
-13.578650
-14.111570
-14.625160
-15.107200
-15.540240
-15.905840
-16.191139
-16.395630
-16.533850
-16.631781
-16.718269
-16.813801
-16.922220
-17.031080
-17.119989
-17.170630
-17.173180
-17.126970
-17.035410
-16.899710
-16.716419
-16.479959
-16.187281
-15.840910
-15.447780
-15.015360
-14.549200
-14.054410
-13.540510
-13.025600
-12.535410
-12.096790
-11.727240
-11.425540
-11.171240
-10.934980
-10.692090
-10.430660
-10.151330
-9.861076
-9.566019
-9.268035
-8.966283
-8.660870
-8.354973
-8.053710
-7.760369
-7.472867
-7.183698
-6.882886
-6.560534
-6.207729
-5.816912
-5.382822
-4.904135
-4.384277
-3.829778
-3.247132
-2.640673
-2.012309
-1.362535
-0.692047
-0.003053
0.700583
1.414486
2.135008
2.859043
3.582985
4.302233
5.011533
5.705424
6.377978
7.022033
7.627280
8.176729
8.645673
9.007332
9.244048
9.358054
9.373082
9.322245
9.230787
9.108310
8.953489
8.763469
8.540522
8.292782
8.030209
7.759405
7.481027
7.191834
6.889555
6.576441
6.258685
5.942365
5.629409
5.316676
4.997993
4.666832
4.318037
3.948158
3.554604
3.134585
2.684682
2.201488
1.683176
1.131101
0.550703
-0.048765
-0.656501
-1.264049
-1.868042
-2.469688
-3.071822
-3.675734
-4.279187
-4.875986
-5.457262
-6.013815
-6.537849
-7.023878
-7.469997
-7.879412
-8.260726
-8.625977
-8.986773
-9.350559
-9.719097
-10.087950
-10.443790
-10.761210
-11.006130
-11.147560
-11.170510
-11.082290
-10.908700
-10.680680
-10.420190
-10.135800
-9.828238
-9.498005
-9.148647
-8.784307
-8.404911
-8.004394
-7.573690
-7.105727
-6.599309
-6.060152
-5.498500
-4.925285
-4.349758
-3.778462
-3.214068
-2.654945
-2.097342
-1.539902
-0.987583
-0.452214
0.050695
0.507785
0.913423
1.271104
1.590390
1.882698
2.158385
2.425740
2.691689
2.962512
3.242742
3.532280
3.822280
4.091679
4.309496
4.445631
4.483928
4.428070
4.297460
4.117007
3.906999
3.678521
3.435734
3.181248
2.920184
2.660429
2.409339
2.169818
1.938138
1.704198
1.454557
1.177153
0.865024
0.517589
0.139775
-0.260744
-0.677416
-1.107836
-1.554286
-2.021774
-2.514562
-3.032639
-3.570870
-4.122719
-4.685721
-5.262980
-5.858638
-6.470620
-7.085758
-7.680480
-8.226115
-8.695782
-9.071819
-9.351244
-9.545055
-9.672679
-9.755691
-9.810727
-9.842984
-9.846281
-9.810518
-9.729761
-9.605038
-9.442283
-9.249440
-9.034487
-8.804496
-8.565972
-8.325244
-8.087671
-7.856320
-7.631395
-7.411478
-7.196684
-6.992298
-6.809991
-6.663831
-6.562909
-6.506697
-6.486089
-6.487394
-6.495355
-6.493317
-6.462217
-6.382770
-6.241255
-6.034518
-5.772226
-5.476245
-5.174875
-4.893626
-4.649152
-4.448743
-4.293565
-4.183875
-4.123085
-4.117765
-4.173558
-4.290121
-4.459490
-4.669077
-4.905927
-5.158683
-5.416682
-5.667921
-5.899157
-6.098912
-6.260131
-6.380997
-6.464741
-6.518518
-6.551408
-6.572469
-6.589267
-6.607552
-6.632741
-6.671438
-6.731087
-6.817843
-6.932893
-7.068497
-7.207481
-7.327831
-7.409954
-7.443740
-7.432486
-7.390656
-7.336522
-7.284100
-7.237539
-7.189511
-7.124850
-7.028154
-6.890523
-6.711118
-6.493516
-6.240333
-5.950391
-5.620595
-5.250646
-4.846357
-4.419019
-3.981287
-3.542200
-3.104806
-2.667869
-2.229923
-1.792454
-1.359865
-0.936598
-0.524244
-0.120926
0.276892
0.671447
1.061224
1.440472
1.801249
2.136704
2.443320
2.721245
2.973161
3.202709
3.413573
3.609610
3.795128
3.974345
4.150071
4.322371
4.488472
4.644463
4.787209
4.914599
5.024616
5.115128
5.184947
5.235270
5.269954
5.293639
5.308838
5.314621
5.308089
5.287044
5.251256
5.201012
5.134315
5.045761
4.928262
4.775791
4.585231
4.356619
4.091876
3.793414
3.464054
3.108026
2.731925
2.344667
1.955575
1.571259
1.193319
0.817796
0.436485
0.040184
-0.377776
-0.820405
-1.288309
-1.781191
-2.298353
-2.837939
-3.395621
-3.964325
-4.535409
-5.100151
-5.651263
-6.184389
-6.698879
-7.197668
-7.686160
-8.169560
-8.649463
-9.122121
-9.579766
-10.013840
-10.418210
-10.791210
-11.135630
-11.456360
-11.756160
-12.031820
-12.272800
-12.463690
-12.590120
-12.645500
-12.633870
-12.566060
-12.452800
-12.300530
-12.111750
-11.887850
-11.631820
-11.349030
-11.045580
-10.725570
-10.389190
-10.033780
-9.657288
-9.261521
-8.853072
-8.441652
-8.037205
-7.646657
-7.271314
-6.906912
-6.546460
-6.183579
-5.814375
-5.437594
-5.053603
-4.662860
-4.264560
-3.855959
-3.432655
-2.989682
-2.523088
-2.031708
-1.518181
-0.988007
-0.447122
0.099985
0.650485
1.202112
1.751953
2.296525
2.833179
3.361508
3.883694
4.403626
4.925205
5.450764
5.980551
6.513191
7.046406
7.577403
8.102599
8.616264
9.107657
9.557422
9.937926
10.222410
10.399050
10.478820
10.491370
10.472570
10.451310
10.443160
10.452870
10.480170
10.522880
10.576130
10.629840
10.667760
10.671130
10.625190
10.523590
10.367810
10.162410
9.909170
9.604301
9.240631
8.813223
8.324085
7.782505
7.201494
6.593649
5.968051
5.328637
4.675057
4.005663
3.320906
2.625651
1.929693
1.246211
0.587645
-0.039363
-0.635850
-1.207894
-1.761848
-2.300221
-2.819699
-3.311715
-3.765068
-4.167951
-4.507174
-4.767146
-4.932097
-4.991567
-4.947042
