EVENT_NAME: EMILIA_2ND_SHOCK
EVENT_ID: IT-2012-0011
EVENT_DATE_YYYYMMDD: 20120529
EVENT_TIME_HHMMSS: 070002
EVENT_LATITUDE_DEGREE: 44.8417
EVENT_LONGITUDE_DEGREE: 11.0657
EVENT_DEPTH_KM: 8.1
HYPOCENTER_REFERENCE: INGV-CNT_Seismic_Bulletin
MAGNITUDE_W: 6.0
MAGNITUDE_W_REFERENCE: RCMT-INGV
MAGNITUDE_L: 5.8
MAGNITUDE_L_REFERENCE: INGV-CNT_Seismic_Bulletin
FOCAL_MECHANISM: TF
NETWORK: IV
STATION_CODE: T0818
STATION_NAME: T0818
STATION_LATITUDE_DEGREE: 44.934800
STATION_LONGITUDE_DEGREE: 11.030400
STATION_ELEVATION_M: 5
LOCATION: 
SENSOR_DEPTH_M: 1.0
VS30_M/S: 
SITE_CLASSIFICATION_EC8: C*
MORPHOLOGIC_CLASSIFICATION: 
EPICENTRAL_DISTANCE_KM: 10.7
EARTHQUAKE_BACKAZIMUTH_DEGREE: 164.9
DATE_TIME_FIRST_SAMPLE_YYYYMMDD_HHMMSS: 20120529_065952.000
DATE_TIME_FIRST_SAMPLE_PRECISION: milliseconds
SAMPLING_INTERVAL_S: 0.005000
NDATA: 20001
DURATION_S: 100.005
STREAM: HNZ
UNITS: cm/s
INSTRUMENT: sensor = Episensor FBA ES-T [Kinemetrics] | digitizer = Unknown [Unknown]
INSTRUMENT_ANALOG/DIGITAL: D
INSTRUMENTAL_FREQUENCY_HZ: 
INSTRUMENTAL_DAMPING: 
FULL_SCALE_G: 
N_BIT_DIGITAL_CONVERTER: 
PGV_CM/S: -6.702482
TIME_PGV_S: 20.255000
BASELINE_CORRECTION: BASELINE REMOVED
FILTER_TYPE: BUTTERWORTH
FILTER_ORDER: 2
LOW_CUT_FREQUENCY_HZ: 0.060
HIGH_CUT_FREQUENCY_HZ: 40.000
LATE/NORMAL_TRIGGERED: NT
DATABASE_VERSION: DYNA 1.0
HEADER_FORMAT: DYNA 1.2
DATA_TYPE: VELOCITY
PROCESSING: manual (Paolucci et al., 2011)
DATA_TIMESTAMP_YYYYMMDD_HHMMSS: 
DATA_LICENSE: CC-BY4_0 (http://creativecommons.org/licenses/by/4.0/)
DATA_CITATION: ESM working group (2015), European Strong-Motion database, version 0.1, Network Activity 3: Networking acceleration networks and SM data users. Project NERA (www.nera-eu.org)
DATA_CREATOR: ESM working group
ORIGINAL_DATA_MEDIATOR_CITATION: Orfeus - European Integrated Data Archive (EIDA) http://www.orfeus-eu.org/eida/
ORIGINAL_DATA_MEDIATOR: Orfeus - European Integrated Data Archive (EIDA)
ORIGINAL_DATA_CREATOR_CITATION: Data for this study comes from the Italian national seismic network operated by Istituto Nazionale di Geofisica e Vulcanologia and archived at the European Integrated Data Archive http://eida.rm.ingv.it/
ORIGINAL_DATA_CREATOR: network: IV (Italian National Seismic Network); owner: Istituto Nazionale di Geofisica e Vulcanologia
USER1: 
USER2: 
USER3: 
USER4: 
USER5: 
[...]
-0.111891
-0.112039
-0.112179
-0.112320
-0.112462
-0.112597
-0.112726
-0.112856
-0.112995
-0.113140
-0.113281
-0.113410
-0.113532
-0.113655
-0.113784
-0.113913
-0.114027
-0.114128
-0.114228
-0.114341
-0.114462
-0.114581
-0.114695
-0.114808
-0.114922
-0.115035
-0.115152
-0.115284
-0.115435
-0.115597
-0.115756
-0.115907
-0.116050
-0.116182
-0.116300
-0.116406
-0.116503
-0.116597
-0.116692
-0.116794
-0.116907
-0.117030
-0.117161
-0.117293
-0.117420
-0.117543
-0.117664
-0.117785
-0.117902
-0.118016
-0.118136
-0.118272
-0.118422
-0.118578
-0.118727
-0.118870
-0.119013
-0.119160
-0.119311
-0.119460
-0.119605
-0.119748
-0.119894
-0.120043
-0.120188
-0.120326
-0.120459
-0.120588
-0.120715
-0.120840
-0.120961
-0.121072
-0.121159
-0.121193
-0.121116
-0.120835
-0.120241
-0.119244
-0.117784
-0.115797
-0.113229
-0.110074
-0.106396
-0.102260
-0.097679
-0.092635
-0.087122
-0.081119
-0.074543
-0.067201
-0.058730
-0.048626
-0.036539
-0.022745
-0.008297
0.005460
0.017693
0.028443
0.038227
0.047416
0.055949
0.063395
0.069130
0.072627
0.073824
0.073323
0.072195
0.071620
0.072619
0.075702
0.080091
0.083087
0.081072
0.072112
0.057728
0.041657
0.026505
0.011688
-0.005104
-0.024476
-0.043819
-0.059245
-0.068441
-0.071759
-0.071090
-0.067911
-0.062696
-0.056724
-0.053911
-0.058345
-0.067975
-0.073043
-0.064931
-0.047399
-0.036454
-0.047617
-0.085076
-0.143147
-0.213517
-0.287029
-0.349555
-0.382687
-0.377319
-0.351872
-0.355090
-0.444017
-0.647753
-0.933218
-1.191147
-1.271718
-1.088950
-0.735277
-0.469918
-0.526636
-0.888185
-1.257433
-1.288512
-0.880434
-0.262476
0.203928
0.314326
0.138257
-0.110409
-0.280142
-0.355486
-0.370304
-0.303828
-0.088763
0.288263
0.723573
1.055950
1.188381
1.145666
1.025862
0.911963
0.823501
0.725517
0.572244
0.356978
0.128231
-0.048896
-0.151463
-0.218351
-0.309558
-0.445103
-0.585008
-0.672499
-0.699503
-0.720511
-0.784397
-0.855760
-0.832163
-0.657862
-0.398208
-0.165642
0.011985
0.198282
0.413781
0.548987
0.467154
0.179321
-0.133373
-0.287013
-0.256382
-0.159154
-0.118538
-0.167304
-0.259365
-0.330788
-0.342026
-0.290696
-0.201177
-0.102539
-0.022947
-0.003667
-0.089044
-0.263943
-0.408040
-0.369763
-0.123334
0.162658
0.249662
0.038246
-0.349539
-0.685546
-0.814366
-0.731641
-0.546169
-0.401564
-0.394350
-0.509933
-0.628059
-0.623273
-0.481471
-0.309221
-0.225793
-0.250730
-0.290208
-0.226306
-0.027055
0.216945
0.364647
0.349188
0.239372
0.169345
0.201410
0.273307
0.294527
0.270124
0.292992
0.414933
0.564180
0.615990
0.525738
0.362475
0.211264
0.075113
-0.103344
-0.341246
-0.571537
-0.704795
-0.707380
-0.607194
-0.447599
-0.264826
-0.102388
-0.008037
0.003038
-0.029550
-0.039649
0.011109
0.103500
0.176618
0.178530
0.117771
0.062661
0.075082
0.146926
0.218138
0.257131
0.294333
0.365997
0.456074
0.515691
0.523531
0.497587
0.445250
0.328257
0.100450
-0.217237
-0.514825
-0.664526
-0.626007
-0.484909
-0.382497
-0.400675
-0.514670
-0.651705
-0.773791
-0.881299
-0.951759
-0.933241
-0.832284
-0.772976
-0.900620
-1.213549
-1.539607
-1.695520
-1.642463
-1.480765
-1.329426
-1.238375
-1.187191
-1.119486
-0.972624
-0.711243
-0.358907
0.015849
0.359708
0.668648
0.945133
1.137940
1.166607
1.020429
0.807468
0.672510
0.661107
0.683924
0.626368
0.486726
0.395981
0.499279
0.816874
1.216825
1.524327
1.662025
1.685584
1.689874
1.696771
1.643581
1.466659
1.169473
0.810580
0.459481
0.181075
0.024482
-0.025692
-0.073516
-0.228172
-0.473878
-0.654461
-0.611391
-0.311929
0.160254
0.682219
1.128643
1.380056
1.371091
1.145485
0.824081
0.514391
0.282093
0.199638
0.341783
0.678917
1.025334
1.171730
1.084151
0.930438
0.895246
1.001263
1.115893
1.096916
0.913455
0.655725
0.462845
0.423634
0.512632
0.622225
0.671634
0.679011
0.707692
0.749818
0.701059
0.475340
0.126215
-0.185049
-0.345240
-0.380128
-0.375279
-0.343607
-0.227186
-0.037050
0.064304
-0.114471
-0.573112
-1.054410
-1.238850
-1.023722
-0.609425
-0.317824
-0.349417
-0.705408
-1.245296
-1.735669
-1.902244
-1.576171
-0.861145
-0.103368
0.360482
0.421307
0.191660
-0.151315
-0.490535
-0.783668
-1.026931
-1.231335
-1.403818
-1.514595
-1.496780
-1.322563
-1.088180
-0.976453
-1.084767
-1.294436
-1.343908
-1.051042
-0.476684
0.109487
0.418579
0.347480
0.055045
-0.173777
-0.180876
-0.062599
-0.035235
-0.186825
-0.399803
-0.513543
-0.505869
-0.484462
-0.546020
-0.704369
-0.922554
-1.127112
-1.175501
-0.892286
-0.227157
0.622749
1.316486
1.652513
1.751724
1.927603
2.362122
2.934748
3.387388
3.613139
3.724518
3.853346
3.977074
3.991855
3.884707
3.745942
3.626144
3.475021
3.245238
2.971724
2.704881
2.420865
2.060045
1.631227
1.214262
0.862759
0.550540
0.225030
-0.116669
-0.419935
-0.622365
-0.713979
-0.762143
-0.846710
-0.939622
-0.886510
-0.587654
-0.211245
-0.133234
-0.584950
-1.381534
-2.058821
-2.261819
-1.958625
-1.379671
-0.878737
-0.786698
-1.213304
-1.920708
-2.514472
-2.843339
-3.129886
-3.653984
-4.381486
-4.996554
-5.262969
-5.228137
-5.050291
-4.758340
-4.307772
-3.813419
-3.567718
-3.764275
-4.263875
-4.716952
-4.915576
-4.967040
-5.103966
-5.375633
-5.570455
-5.427435
-4.907027
-4.254471
-3.785447
-3.614851
-3.621385
-3.661249
-3.771863
-4.142456
-4.870943
-5.746256
-6.308404
-6.188497
-5.427410
-4.449047
-3.692466
-3.261801
-2.940627
-2.525184
-2.076489
-1.821262
-1.859921
-2.009752
-1.938628
-1.469577
-0.760517
-0.157228
0.148417
0.278255
0.467864
0.804745
1.238787
1.745415
2.330683
2.882683
3.181144
3.149512
3.011691
3.094150
3.466337
3.836719
3.849244
3.463763
2.991598
2.767349
2.853930
3.059456
3.157682
3.053219
2.790333
2.474624
2.173269
1.837711
1.320804
0.520998
-0.452113
-1.285095
-1.697810
-1.690820
-1.506912
-1.327374
-1.065432
-0.510003
0.353590
1.234995
1.754683
1.720655
1.214870
0.502189
-0.098424
-0.331315
-0.124230
0.340257
0.695234
0.622925
0.115924
-0.486392
-0.783786
-0.636971
-0.175649
0.444971
1.165439
1.882580
2.359903
2.412923
2.126967
1.794514
1.625579
1.561899
1.390974
1.002852
0.485410
-0.020464
-0.486280
-0.974102
-1.472301
-1.805252
-1.744983
-1.233563
-0.506075
0.048398
0.222592
0.186881
0.275743
0.556125
0.700461
0.365646
-0.382090
-1.105513
-1.406311
-1.222188
-0.748106
-0.182790
0.375398
0.839660
1.079355
1.039705
0.880327
0.897957
1.256809
1.810692
2.209384
2.167261
1.635059
0.787558
-0.066435
-0.586820
-0.547854
0.000933
0.712506
1.168825
1.207852
1.037230
1.008882
1.300221
1.810487
2.277259
2.416611
2.017933
1.100401
0.069868
-0.428313
-0.021660
0.986002
1.850341
2.085378
1.863081
1.708818
1.929655
2.449513
3.075833
3.707023
4.252367
4.516844
4.324242
3.746285
3.100284
2.661977
2.423117
2.168005
1.734382
1.159386
0.625329
0.335499
0.405467
0.760514
1.118620
1.158840
0.777048
0.184119
-0.265916
-0.345717
-0.070474
0.392920
0.870648
1.244379
1.453645
1.510099
1.505989
1.554496
1.697212
1.889905
2.073663
2.217706
2.275072
2.147247
1.764649
1.209916
0.705954
0.431377
0.355857
0.299124
0.157358
0.021490
0.038958
0.214139
0.422022
0.604321
0.843365
1.175551
1.408049
1.244135
0.620374
-0.158451
-0.669094
-0.719987
-0.449235
-0.136980
0.026175
0.008070
-0.137939
-0.340276
-0.512445
-0.562911
-0.445811
-0.184969
0.173825
0.607882
1.079104
1.479154
1.677702
1.650348
1.527097
1.472354
1.514985
1.530858
1.409011
1.194998
1.034223
1.002004
1.044472
1.094947
1.190930
1.422468
1.777091
2.099873
2.243598
2.226704
2.197789
2.249924
2.323507
2.319571
2.262833
2.279740
2.424297
2.610591
2.735889
2.812066
2.941536
3.186017
3.487189
3.704861
3.720245
3.519797
3.191843
2.829337
2.425006
1.884117
1.169063
0.418656
-0.097392
-0.151248
0.275886
0.948703
1.506561
1.705493
1.593689
1.447027
1.504191
1.753117
1.968118
1.942680
1.678292
1.356414
1.152867
1.099841
1.116800
1.139604
1.200554
1.393500
1.772751
2.270137
2.696167
2.854489
2.692011
2.332111
1.951327
1.642288
1.416815
1.311399
1.413536
1.733742
2.088039
2.197754
1.938463
1.449829
0.974219
0.637020
0.437934
0.398516
0.610901
1.115328
1.790276
2.416651
2.843401
3.069088
3.164513
3.146758
2.971226
2.653057
2.336135
2.171964
2.127212
1.976842
1.543160
0.916065
0.391386
0.199734
0.325837
0.584899
0.818171
0.969196
1.001465
0.847636
0.513231
0.185544
0.131191
0.436507
0.899852
1.235627
1.370594
1.489736
1.798362
2.303089
2.830852
3.200997
3.348050
3.322623
3.233300
3.178327
3.181163
3.170637
3.050679
2.818944
2.605939
2.568596
2.742662
3.026351
3.318912
3.646250
4.117321
4.747942
5.349409
5.629401
5.427908
4.854543
4.189778
3.653812
3.272251
2.952706
2.653956
2.441002
2.377433
2.414999
2.432174
2.376083
2.335885
2.455207
2.772281
3.155898
3.406084
3.423189
3.286714
3.180077
3.247759
3.516780
3.921894
4.369953
4.773880
5.058357
5.175863
5.136308
5.015229
4.916490
4.908463
4.979551
5.046733
5.012422
4.831231
4.541535
4.239871
4.018286
3.912294
3.894103
3.909495
3.927988
3.968605
4.075002
4.241935
4.352640
4.218641
3.726218
2.953443
2.116929
1.397930
0.841299
0.408224
0.083206
-0.091859
-0.077214
0.101719
0.368664
0.648131
0.868222
0.943479
0.823629
0.574699
0.352226
0.241740
0.162830
-0.015644
-0.287617
-0.493630
-0.494140
-0.303175
-0.037556
0.212782
0.428510
0.605107
0.711159
0.720412
0.660078
0.603948
0.623806
0.765581
1.061536
1.521278
2.077995
2.559674
2.755971
2.548627
2.000890
1.327949
0.768255
0.461767
0.420914
0.570881
0.794351
0.974249
1.054086
1.086096
1.202510
1.511867
2.012725
2.597471
3.122125
3.470304
3.581614
3.461509
3.179692
2.838310
2.505642
2.165026
1.745605
1.229198
0.736519
0.496213
0.700490
1.366053
2.325897
3.342370
4.223301
4.864248
5.232357
5.339878
5.235941
5.008625
4.761344
4.547641
4.317619
3.957725
3.422811
2.840409
2.454413
2.433211
2.731913
3.148890
3.509535
3.782257
4.017675
4.205816
4.241100
4.034669
3.618550
3.126764
2.705263
2.451257
2.398121
2.505038
2.651984
2.676676
2.464609
2.050294
1.634130
1.442345
1.510633
1.609027
1.438592
0.928408
0.309766
-0.100737
-0.161256
0.034571
0.289299
0.450307
0.464190
0.352802
0.170537
-0.016619
-0.132306
-0.105975
0.076370
0.329362
0.505285
0.499591
0.317816
0.036946
-0.287092
-0.659036
-1.083287
-1.477699
-1.693257
-1.647788
-1.417610
-1.167199
-0.998037
-0.899374
-0.840023
-0.850282
-0.967711
-1.133777
-1.222147
-1.184361
-1.117772
-1.157081
-1.313902
-1.449228
-1.399776
-1.116965
-0.692312
-0.280890
-0.019190
0.011910
-0.194782
-0.551258
-0.888574
-1.046735
-0.994434
-0.866297
-0.857631
-1.054818
-1.356519
-1.561546
-1.538312
-1.322518
-1.074526
-0.959547
-1.054689
-1.326961
-1.668657
-1.959025
-2.116621
-2.113232
-1.958751
-1.708061
-1.490990
-1.478573
-1.751033
-2.191394
-2.561826
-2.714489
-2.707194
-2.714325
-2.855794
-3.118971
-3.411274
-3.648242
-3.793250
-3.850133
-3.848355
-3.830952
-3.827587
-3.818531
-3.732831
-3.504833
-3.142765
-2.737031
-2.397415
-2.187138
-2.115440
-2.168960
-2.327340
-2.559445
-2.839554
-3.176086
-3.595378
-4.077990
-4.520077
-4.777172
-4.757154
-4.472848
-4.017489
-3.511589
-3.075382
-2.818635
-2.816084
-3.068792
-3.475543
-3.852790
-4.031276
-3.969961
-3.771672
-3.586967
-3.517136
-3.601037
-3.841955
-4.193352
-4.525343
-4.655277
-4.458819
-3.981913
-3.448538
-3.127011
-3.135196
-3.348684
-3.521737
-3.521750
-3.437230
-3.449457
-3.611903
-3.776183
-3.738789
-3.443811
-3.030310
-2.700308
-2.568135
-2.621979
-2.781229
-2.958702
-3.080965
-3.095133
-2.995929
-2.845180
-2.734440
-2.716458
-2.781884
-2.899214
-3.058082
-3.263063
-3.498439
-3.715016
-3.851933
-3.866945
-3.748368
-3.511413
-3.201938
-2.905249
-2.721160
-2.703057
-2.820583
-2.983727
-3.104778
-3.154004
-3.177107
-3.257960
-3.436932
-3.649728
-3.760832
-3.673096
-3.409290
-3.089719
-2.832607
-2.668091
-2.529103
-2.316159
-1.983362
-1.579421
-1.216321
-1.000343
-0.984453
-1.166836
-1.507310
-1.931788
-2.339352
-2.637272
-2.786801
-2.817079
-2.799793
-2.811218
-2.895993
-3.037335
-3.157403
-3.175585
-3.098958
-3.054115
-3.194005
-3.542945
-3.942415
-4.170999
-4.123576
-3.879448
-3.609900
-3.428285
-3.319363
-3.191938
-2.988160
-2.748556
-2.582336
-2.570676
-2.688509
-2.821494
-2.862856
-2.792682
-2.668729
-2.559903
-2.500994
-2.489182
-2.493304
-2.468851
-2.392787
-2.303834
-2.297266
-2.456275
-2.775305
-3.145177
-3.419051
-3.516322
-3.484825
-3.458925
-3.534174
-3.678660
-3.785597
-3.811316
-3.837084
-3.983063
-4.278555
-4.635828
-4.933241
-5.087424
-5.047554
-4.785068
-4.343026
-3.868453
-3.535185
-3.408877
-3.401947
-3.370187
-3.243265
-3.067666
-2.953011
-2.994595
-3.221698
-3.580004
-3.962966
-4.283910
-4.519376
-4.659005
-4.617856
-4.259742
-3.557605
-2.705700
-2.006833
-1.648806
-1.644385
-1.952314
-2.564356
-3.457567
-4.510595
-5.510695
-6.255070
-6.646504
-6.702482
-6.497215
-6.109793
-5.612734
-5.080750
-4.586984
-4.176347
-3.840836
-3.530874
-3.198599
-2.840272
-2.512260
-2.305381
-2.286452
-2.451995
-2.735480
-3.057928
-3.366892
-3.628592
-3.801684
-3.838133
-3.712902
-3.450430
-3.123876
-2.824472
-2.613395
-2.488891
-2.402991
-2.315176
-2.226064
-2.154347
-2.091668
-2.004408
-1.891448
-1.824026
-1.897605
-2.129802
-2.418094
-2.614684
-2.639030
-2.509375
-2.292602
-2.054239
-1.840467
-1.671794
-1.542310
-1.439722
-1.372495
-1.362713
-1.402295
-1.423890
-1.332046
-1.075285
-0.685779
-0.244129
0.179254
0.528206
0.725827
0.683174
0.375364
-0.095322
-0.542045
-0.824537
-0.946175
-1.022931
-1.165902
-1.389774
-1.606713
-1.695211
-1.591399
-1.334527
-1.031706
-0.775373
-0.591089
-0.462016
-0.391710
-0.424539
-0.596975
-0.878756
-1.174084
-1.381869
-1.448878
-1.366538
-1.140980
-0.802175
-0.447704
-0.230634
-0.258927
-0.501914
-0.797167
-0.948411
-0.840084
-0.499942
-0.072786
0.285604
0.508196
0.616355
0.647427
0.615165
0.537690
0.472424
0.499041
0.665352
0.944417
1.232525
1.400457
1.378472
1.211445
1.023873
0.915572
0.892642
0.899029
0.897005
0.906448
0.975904
1.128553
1.331491
1.508152
1.591713
1.577393
1.516964
1.464316
1.438358
1.435697
1.453461
1.479900
1.478268
1.406378
1.258615
1.085469
0.974159
1.008082
1.217615
1.537611
1.816192
1.896729
1.721786
1.377243
1.040552
0.869825
0.907603
1.061524
1.177581
1.156863
1.028784
0.922628
0.959142
1.150058
1.384336
1.508720
1.441363
1.232304
1.018617
0.904783
0.873487
0.815217
0.643464
0.371013
0.078211
-0.162106
-0.307237
-0.329789
-0.228171
-0.046684
0.143993
0.295139
0.401153
0.483119
0.574795
0.715224
0.923927
1.175261
1.412540
1.594930
1.716859
1.779575
1.768994
1.678690
1.543230
1.424766
1.358042
1.320502
1.268478
1.199943
1.166648
1.212959
1.311903
1.388614
1.419538
1.483176
1.671313
1.952670
2.175435
2.228412
2.171181
2.171054
2.318648
2.538199
2.683495
2.690195
2.611280
2.528232
2.461531
2.362803
2.172502
1.878966
1.531835
1.210522
0.979730
0.861556
0.837685
0.878054
0.974637
1.151019
1.431596
1.793221
2.152938
2.419119
2.561531
2.622663
2.652735
2.639648
2.519150
2.260772
1.930091
1.650963
1.506277
1.482166
1.500361
1.486632
1.409151
1.281832
1.162822
1.141634
1.288708
1.588751
1.921335
2.122985
2.089215
1.833858
1.461936
1.096302
0.830482
0.723509
0.791463
0.976780
1.149151
1.181381
1.048794
0.851635
0.730807
0.758444
0.899867
1.061092
1.161972
1.177462
1.135968
1.088106
1.065489
1.057564
1.027435
0.952815
0.848488
0.750881
0.691259
0.684754
0.732480
0.823069
0.936783
1.059067
1.186682
1.308659
1.384259
1.363361
1.242605
1.086339
0.978209
0.958186
1.011795
1.101178
1.180944
1.193804
1.085895
0.846288
0.525356
0.199714
-0.083019
-0.319382
-0.516532
-0.663362
-0.742951
-0.756787
-0.721106
-0.644802
-0.527359
-0.380543
-0.232596
-0.092520
0.086786
0.386310
0.837271
1.354976
1.774377
1.965698
1.916635
1.716895
1.483095
1.294158
1.174325
1.115382
1.104618
1.131215
1.176878
1.220897
1.266234
1.349618
1.503897
1.704615
1.873653
1.945356
1.914008
1.814961
1.680070
1.524412
1.361873
1.212043
1.093440
1.020689
1.003390
1.033115
1.072571
1.078661
1.045083
1.008869
1.005630
1.025918
1.025802
0.973499
0.870254
0.724822
0.527482
0.273835
0.018172
-0.122827
-0.053885
0.202574
0.512774
0.752448
0.914960
1.085256
1.319504
1.571964
1.738484
1.754081
1.641931
1.481302
1.341132
1.244259
1.184064
1.155090
1.153225
1.157490
1.134102
1.064408
0.958238
0.835810
0.712296
0.606783
0.546406
0.544069
0.576457
0.598176
0.580028
0.526096
0.454623
0.370210
0.259803
0.118330
-0.024875
-0.117028
-0.129385
-0.090576
-0.060973
-0.073825
-0.111319
-0.132983
-0.115433
-0.068787
-0.028489
-0.036396
-0.119419
-0.274741
-0.472651
-0.671882
-0.835208
-0.944924
-1.015348
-1.085333
-1.183609
-1.297409
-1.383814
-1.413629
-1.399043
-1.378314
-1.374902
-1.370123
-1.316506
-1.185513
-1.009299
-0.870714
-0.839707
-0.911351
-1.005140
-1.028405
-0.946772
-0.803770
-0.684628
-0.665320
-0.782775
-1.025487
-1.333036
-1.615491
-1.806561
-1.914112
-2.005216
-2.132823
-2.283621
-2.401204
-2.451577
-2.456264
-2.465820
-2.512210
-2.587816
-2.657890
-2.685743
-2.656603
-2.590082
-2.526859
-2.488907
-2.448538
-2.349712
-2.171460
-1.967312
-1.830243
-1.813696
-1.890123
-1.982996
-2.027612
-2.001926
-1.925887
-1.851812
-1.838971
-1.909590
-2.022822
-2.104464
-2.107528
-2.039124
-1.941189
-1.865051
-1.859857
-1.958762
-2.155499
-2.395904
-2.600435
-2.700115
-2.664713
-2.513083
-2.301076
-2.092241
-1.927188
-1.807908
-1.705473
-1.587144
-1.444035
-1.295483
-1.164208
-1.047533
-0.919978
-0.771773
-0.643346
-0.609890
-0.719948
-0.944767
-1.191005
-1.367917
-1.446183
-1.457598
-1.444601
-1.414837
-1.348121
-1.244412
-1.149785
-1.120441
-1.164845
-1.239744
-1.304735
-1.361113
-1.432626
-1.524961
-1.616785
-1.683499
-1.716702
-1.723296
-1.714406
-1.693301
-1.648596
-1.562805
-1.438760
-1.322394
-1.291155
-1.404340
-1.655907
-1.977891
-2.288868
-2.535051
-2.693235
-2.757368
-2.738321
-2.669054
-2.595018
-2.553732
-2.562191
-2.619168
-2.711948
-2.819339
-2.916591
-2.987740
-3.037334
-3.087826
-3.162068
-3.264351
-3.373500
-3.453305
-3.473881
-3.429051
-3.336740
-3.222585
-3.102475
-2.979490
-2.853331
-2.728674
-2.615462
-2.525025
-2.465674
-2.436693
-2.423008
-2.398410
-2.340284
-2.243015
-2.114363
-1.961108
-1.786670
-1.606811
-1.459777
-1.389476
-1.412772
-1.500818
-1.592809
