EVENT_NAME: EMILIA_2ND_SHOCK
EVENT_ID: IT-2012-0011
EVENT_DATE_YYYYMMDD: 20120529
EVENT_TIME_HHMMSS: 070002
EVENT_LATITUDE_DEGREE: 44.8417
EVENT_LONGITUDE_DEGREE: 11.0657
EVENT_DEPTH_KM: 8.1
HYPOCENTER_REFERENCE: INGV-CNT_Seismic_Bulletin
MAGNITUDE_W: 6.0
MAGNITUDE_W_REFERENCE: RCMT-INGV
MAGNITUDE_L: 5.8
MAGNITUDE_L_REFERENCE: INGV-CNT_Seismic_Bulletin
FOCAL_MECHANISM: TF
NETWORK: IV
STATION_CODE: T0803
STATION_NAME: T0803
STATION_LATITUDE_DEGREE: 44.766800
STATION_LONGITUDE_DEGREE: 11.350800
STATION_ELEVATION_M: 10
LOCATION: 
SENSOR_DEPTH_M: 1.0
VS30_M/S: 
SITE_CLASSIFICATION_EC8: C*
MORPHOLOGIC_CLASSIFICATION: 
EPICENTRAL_DISTANCE_KM: 24.0
EARTHQUAKE_BACKAZIMUTH_DEGREE: 290.4
DATE_TIME_FIRST_SAMPLE_YYYYMMDD_HHMMSS: 20120529_065953.000
DATE_TIME_FIRST_SAMPLE_PRECISION: milliseconds
SAMPLING_INTERVAL_S: 0.005000
NDATA: 20001
DURATION_S: 100.005
STREAM: HNE
UNITS: cm/s^2
INSTRUMENT: sensor = Episensor FBA ES-T [Kinemetrics] | digitizer = Unknown [Unknown]
INSTRUMENT_ANALOG/DIGITAL: D
INSTRUMENTAL_FREQUENCY_HZ: 
INSTRUMENTAL_DAMPING: 
FULL_SCALE_G: 
N_BIT_DIGITAL_CONVERTER: 
PGA_CM/S^2: -118.947059
TIME_PGA_S: 23.625000
BASELINE_CORRECTION: BASELINE REMOVED
FILTER_TYPE: BUTTERWORTH
FILTER_ORDER: 2
LOW_CUT_FREQUENCY_HZ: 0.060
HIGH_CUT_FREQUENCY_HZ: 40.000
LATE/NORMAL_TRIGGERED: NT
DATABASE_VERSION: DYNA 1.0
HEADER_FORMAT: DYNA 1.2
DATA_TYPE: ACCELERATION
PROCESSING: manual (Paolucci et al., 2011)
DATA_TIMESTAMP_YYYYMMDD_HHMMSS: 
DATA_LICENSE: CC-BY4_0 (http://creativecommons.org/licenses/by/4.0/)
DATA_CITATION: ESM working group (2015), European Strong-Motion database, version 0.1, Network Activity 3: Networking acceleration networks and SM data users. Project NERA (www.nera-eu.org)
DATA_CREATOR: ESM working group
ORIGINAL_DATA_MEDIATOR_CITATION: Orfeus - European Integrated Data Archive (EIDA) http://www.orfeus-eu.org/eida/
ORIGINAL_DATA_MEDIATOR: Orfeus - European Integrated Data Archive (EIDA)
ORIGINAL_DATA_CREATOR_CITATION: Data for this study comes from the Italian national seismic network operated by Istituto Nazionale di Geofisica e Vulcanologia and archived at the European Integrated Data Archive http://eida.rm.ingv.it/
ORIGINAL_DATA_CREATOR: network: IV (Italian National Seismic Network); owner: Istituto Nazionale di Geofisica e Vulcanologia
USER1: 
USER2: 
USER3: 
USER4: 
USER5: 
[...]
-1.079077
-1.180476
-1.259441
-1.263380
-1.142509
-0.856140
-0.404055
0.134522
0.648983
1.036109
1.181814
1.038550
0.712125
0.368376
0.134404
0.114188
0.327874
0.628472
0.819598
0.821631
0.660658
0.399325
0.128444
-0.060599
-0.115471
-0.014750
0.209948
0.430792
0.496114
0.340743
-0.019862
-0.512828
-0.985604
-1.274924
-1.315356
-1.125403
-0.767044
-0.358599
-0.034556
0.100108
-0.037214
-0.405854
-0.723576
-0.653413
-0.117028
0.700215
1.527668
2.059569
2.043584
1.500254
0.712348
-0.052948
-0.685153
-1.155404
-1.423283
-1.412683
-1.107107
-0.642277
-0.203288
0.104991
0.238823
0.200875
0.067461
-0.073193
-0.218246
-0.443746
-0.795424
-1.218852
-1.607696
-1.821909
-1.660062
-0.990612
0.121785
1.501971
2.848576
3.672564
3.629284
2.802969
1.477092
-0.038942
-1.352808
-2.156446
-2.389619
-2.131230
-1.564383
-0.995490
-0.649893
-0.515853
-0.462424
-0.346850
-0.015364
0.578739
1.257871
1.775204
2.023838
2.011431
1.754900
1.251837
0.507912
-0.350044
-1.034473
-1.309320
-1.148065
-0.643172
0.019336
0.536467
0.694578
0.535619
0.221541
-0.088816
-0.225707
-0.099239
0.202204
0.516793
0.723180
0.731743
0.538689
0.302780
0.212717
0.259400
0.234200
-0.033713
-0.534228
-1.162350
-1.769220
-2.138419
-2.107404
-1.675464
-0.922151
0.027605
0.969139
1.692387
2.037747
1.909602
1.388700
0.743160
0.217444
-0.091473
-0.175440
-0.086704
0.063897
0.164945
0.135090
-0.071844
-0.412123
-0.745159
-0.940403
-0.944323
-0.766315
-0.522238
-0.433778
-0.600998
-0.822498
-0.783906
-0.315992
0.598289
1.799107
2.846913
3.257894
2.898707
1.965519
0.745478
-0.440800
-1.320159
-1.827624
-2.072452
-2.193814
-2.320056
-2.534603
-2.755909
-2.717296
-2.163915
-0.980804
0.831679
3.008270
4.947769
6.097351
6.217129
5.249574
3.305144
0.700069
-2.106114
-4.483503
-5.827556
-5.930789
-4.939029
-3.192482
-1.277540
0.222350
1.124519
1.569367
1.711744
1.614657
1.292313
0.795475
0.243667
-0.257833
-0.678516
-1.020531
-1.247291
-1.261723
-0.980948
-0.398026
0.438067
1.363877
2.067371
2.315631
2.132374
1.657453
1.017565
0.346317
-0.233734
-0.636717
-0.808387
-0.755959
-0.551711
-0.301000
-0.142826
-0.203492
-0.484958
-0.850889
-1.099637
-0.978415
-0.268761
0.979159
2.416821
3.634953
4.271481
4.054928
2.984599
1.322657
-0.604735
-2.464518
-3.957922
-4.864107
-4.971431
-4.205597
-2.812025
-1.154921
0.471755
1.783091
2.619295
3.102441
3.455514
3.755314
3.918890
3.795799
3.195345
1.954251
0.143030
-1.897938
-3.783534
-5.193499
-5.891657
-5.829756
-5.117960
-3.921459
-2.459759
-0.931175
0.587408
2.083506
3.483570
4.584686
5.136740
4.958961
3.934059
2.160148
0.153619
-1.468659
-2.437401
-2.769841
-2.589257
-2.127087
-1.629446
-1.252703
-1.106099
-1.218474
-1.458800
-1.630623
-1.568365
-1.118251
-0.252495
0.794035
1.695534
2.231751
2.242016
1.658244
0.604843
-0.689765
-1.881136
-2.448729
-2.096214
-1.109871
-0.016791
0.782248
0.972715
0.485499
-0.268549
-0.729501
-0.646848
-0.057514
0.835485
1.625918
1.895471
1.543830
0.761389
-0.213247
-1.176309
-1.987571
-2.637985
-3.196656
-3.623564
-3.650601
-2.975058
-1.649500
-0.112307
1.207380
2.108524
2.549528
2.660903
2.729703
2.944603
3.224407
3.379266
3.311081
2.998687
2.413806
1.491579
0.176927
-1.405193
-2.889388
-3.883189
-4.098044
-3.356762
-1.770300
0.226202
2.131208
3.488645
3.929373
3.324727
1.769339
-0.414476
-2.542252
-3.883704
-4.170700
-3.536786
-2.274656
-0.833163
0.363553
1.219098
1.906456
2.569125
3.184164
3.652727
3.891806
3.804727
3.245381
2.006521
-0.064393
-2.674687
-4.998258
-6.302474
-6.370867
-5.288613
-3.374840
-1.199571
0.803502
2.604943
4.315625
5.744750
6.333063
5.723249
4.198091
2.294813
0.392229
-1.219646
-2.342361
-2.959607
-3.152999
-3.079237
-2.990731
-3.063725
-3.262138
-3.433326
-3.368872
-2.794519
-1.608545
-0.101524
1.330132
2.580927
3.777204
4.895983
5.532491
5.171583
3.649508
1.169405
-1.866323
-4.833001
-7.113219
-8.450926
-8.854564
-8.399687
-7.227426
-5.487548
-3.342154
-1.036452
1.179590
3.117715
4.643001
5.675276
6.143976
5.998789
5.261311
3.984437
2.269360
0.304412
-1.712129
-3.619320
-5.273786
-6.457877
-6.797629
-5.987799
-4.003691
-0.989902
2.638949
6.080590
8.594780
9.826724
9.638583
8.052925
5.288313
1.871000
-1.160780
-2.739654
-2.647559
-1.479205
-0.010751
1.005380
1.009082
0.111303
-0.937007
-1.473872
-1.332169
-0.590637
0.645463
2.218080
3.797085
4.756525
4.481077
3.011743
1.054358
-0.710719
-1.991506
-2.728424
-2.967549
-2.807995
-2.324914
-1.549723
-0.521453
0.548743
1.232350
1.260559
0.818997
0.230510
-0.503758
-1.678424
-3.360606
-5.021066
-5.955742
-5.926205
-5.136998
-3.908680
-2.593247
-1.483327
-0.669444
-0.124566
0.082382
-0.320959
-1.606479
-3.546966
-5.331737
-6.206336
-5.875359
-4.319598
-1.767754
1.268703
4.236028
6.656380
8.144432
8.471985
7.484976
5.185831
1.923091
-1.781317
-5.192275
-7.187642
-7.008092
-4.935923
-1.722867
1.867961
4.917974
6.721729
7.163677
6.389851
4.525697
1.748589
-1.444438
-3.973290
-4.712163
-3.493134
-1.084812
1.603901
3.834041
5.073889
5.165850
4.223309
2.452899
0.179538
-2.193877
-4.055868
-4.485701
-3.084166
-0.724537
1.291864
2.346763
2.409030
1.646800
0.396068
-0.993804
-2.325012
-3.459043
-4.232742
-4.458289
-4.029956
-3.254473
-2.856060
-3.178377
-3.585169
-3.108859
-1.419719
1.147095
3.977178
6.235150
7.138940
6.478026
4.539852
1.739692
-1.441260
-4.504857
-6.859647
-7.704243
-6.736336
-4.844069
-3.338855
-2.973107
-3.995223
-6.094550
-8.052226
-8.456121
-6.822456
-3.521325
0.774185
5.154482
8.712656
10.808643
10.882434
8.720800
4.896149
0.311802
-4.086182
-7.090140
-7.867608
-6.608808
-3.952046
-0.486464
3.124844
6.258351
8.472859
9.492665
9.351489
8.370736
6.904647
5.248196
3.598004
1.976116
0.323476
-1.220885
-2.126466
-1.815187
-0.367205
1.409062
2.630239
2.670166
1.178508
-1.563498
-4.609068
-7.054058
-8.441612
-8.578990
-7.422229
-5.031637
-1.643553
2.163028
5.679896
8.189990
8.809741
7.090288
3.654959
-0.474334
-4.593788
-8.170877
-10.854996
-12.651899
-13.664368
-13.717134
-12.361088
-9.532211
-6.102236
-3.221268
-1.425125
-0.734314
-0.959732
-1.686248
-2.456278
-2.942327
-2.827550
-1.846423
0.093390
2.895943
5.909372
7.802532
7.639873
5.712589
2.868097
-0.076328
-2.193388
-2.782873
-1.753520
0.646781
3.837709
6.767767
8.468468
8.467638
6.696897
3.853500
1.497615
0.844181
1.906273
4.098630
6.720339
8.886878
9.973360
10.023960
9.389551
8.395643
7.375073
6.568972
6.008154
5.577126
4.971020
3.687331
1.527196
-0.980301
-3.021811
-3.994006
-3.414341
-1.144329
2.249454
5.954992
9.351290
11.820270
12.807511
12.005164
9.282270
4.863515
-0.602880
-6.403851
-11.923451
-16.645374
-20.100908
-21.710316
-21.169064
-18.900267
-15.620661
-11.969347
-8.616695
-5.912391
-3.497489
-0.784553
2.297927
5.263715
7.593354
9.006497
9.323449
8.290440
5.563206
1.241478
-3.597087
-7.508847
-9.305214
-7.854701
-2.819630
4.414115
11.840996
17.961340
21.424257
21.348146
17.961306
12.074803
5.039266
-0.971549
-4.315852
-5.003177
-3.858382
-1.871381
-0.312716
-0.129098
-1.399284
-3.802662
-7.031970
-10.717653
-14.308769
-16.968708
-17.849743
-16.571098
-13.112445
-7.659138
-0.726827
7.057561
14.951976
21.831064
26.672197
29.010357
28.678333
25.701290
20.317556
13.100497
5.229315
-1.961477
-7.429275
-10.184443
-9.869024
-7.528247
-4.691251
-2.349990
-1.191560
-1.657544
-3.716208
-7.102435
-11.338996
-15.560540
-18.794512
-20.150961
-18.941513
-15.183427
-9.613855
-3.194441
3.008709
8.019085
11.190108
11.975942
10.121903
6.064184
0.520491
-5.705260
-11.463988
-15.666213
-17.658768
-17.074169
-13.897573
-8.477567
-1.510234
5.762934
12.010621
16.344137
18.059025
16.837919
13.224742
8.121410
2.527162
-2.167374
-4.737548
-4.660118
-1.873319
3.020039
8.601637
13.402305
16.345343
16.757133
14.803125
11.459679
7.746178
4.381593
1.803551
0.041248
-1.175151
-2.055008
-2.590562
-2.712028
-2.619215
-2.861610
-3.900229
-5.797889
-8.423974
-11.595502
-15.013961
-18.248104
-20.693060
-21.709545
-20.827932
-17.680468
-12.358268
-5.896207
0.412697
5.845343
10.026288
12.666914
13.609987
12.755635
10.145916
6.074893
1.217682
-3.140728
-5.628898
-5.611174
-3.073264
1.493906
6.805100
11.389311
14.307338
14.897278
12.882870
8.790541
3.485518
-2.074585
-6.584631
-8.998833
-9.121753
-7.230758
-3.983894
-0.528131
2.165175
3.783859
4.362600
3.975384
2.655457
0.380692
-2.907932
-7.298783
-12.785385
-19.145342
-25.764816
-31.402601
-34.656052
-34.591316
-30.580215
-22.718372
-12.557657
-2.104855
7.193011
14.035260
17.470509
17.429642
14.240102
8.372840
0.616673
-7.964429
-15.965815
-22.004004
-25.210213
-24.976290
-21.175632
-14.705010
-6.758348
1.911783
10.705021
18.878918
25.467354
29.509935
30.482548
28.207605
23.015476
16.188372
9.238958
3.109278
-1.511287
-4.055125
-4.259183
-2.095083
1.882098
6.362075
10.061515
12.215117
12.432132
10.766926
7.669730
3.707999
-0.472429
-4.270716
-7.272317
-9.124249
-9.723783
-9.512531
-9.064301
-8.489092
-7.484737
-5.892887
-4.039563
-2.434084
-1.410989
-1.180527
-1.792828
-2.999455
-4.455780
-5.896852
-7.025142
-7.467165
-6.785473
-4.659807
-1.485679
1.533694
3.373279
3.832855
3.157159
1.774987
0.310313
-0.797529
-1.585523
-2.271907
-2.855930
-3.115847
-3.004115
-2.935889
-3.477935
-4.888045
-7.118848
-9.885709
-12.567608
-14.468378
-15.156558
-14.371165
-12.119452
-8.934904
-5.515104
-2.344337
0.176425
1.779769
2.496689
2.462433
1.711524
0.222145
-1.820953
-3.800840
-5.004242
-5.113904
-4.131328
-2.184033
0.450928
3.450008
6.419168
8.732878
9.768270
9.126433
6.636228
2.744529
-1.375058
-4.636570
-6.557713
-7.032437
-6.260150
-4.715728
-2.831375
-0.834719
1.163960
2.998294
4.319896
4.710675
3.780369
1.218220
-2.930908
-8.207272
-13.931759
-19.209261
-23.176052
-25.382778
-25.648092
-24.008560
-20.912407
-16.941986
-12.647746
-8.734496
-5.838223
-4.280036
-4.144299
-5.084393
-6.236318
-6.735827
-6.030639
-3.806616
-0.085830
4.800408
10.412847
16.222080
21.700382
26.335283
29.464867
30.648445
30.079185
28.220604
25.539074
22.615438
19.967003
17.878569
16.445377
15.415234
14.123415
11.880457
8.210875
2.856346
-3.888224
-11.099242
-17.831505
-23.453671
-27.558168
-29.957907
-30.608019
-29.704645
-27.926432
-26.098787
-24.876394
-24.897055
-26.466520
-29.140549
-32.201080
-35.160889
-37.631329
-39.244728
-39.706841
-38.803398
-36.572613
-33.336964
-29.550859
-25.793358
-22.578144
-19.971951
-17.625227
-15.125640
-12.136143
-8.392626
-3.761408
1.779521
8.036960
14.421429
20.255520
25.206657
29.208746
32.351002
34.954269
37.391979
39.892738
42.612820
45.659424
49.041798
52.706993
56.495056
60.088192
63.176529
65.579529
67.185074
67.911499
67.694099
66.616196
65.074989
63.539158
62.240047
61.246548
60.602585
60.345318
60.469418
60.708706
60.424717
58.959785
55.885063
50.965221
44.375847
36.740887
28.736210
20.916451
13.715956
7.448060
2.409037
-1.349078
-4.325355
-7.213591
-10.528002
-14.706337
-19.943888
-25.927332
-32.146851
-38.152828
-43.395748
-47.267586
-49.202347
-48.699318
-45.505886
-39.598801
-31.347752
-21.862156
-12.441329
-4.035257
2.453557
6.354212
7.627107
6.505986
3.266070
-1.689648
-7.809726
-14.309486
-20.386230
-25.407785
-28.724403
-29.995443
-29.636780
-28.375614
-26.864901
-25.789087
-25.495216
-25.581926
-25.382212
-24.661228
-23.657330
-22.857655
-22.988241
-24.749016
-28.215267
-32.784420
-37.520222
-41.182091
-42.501320
-40.495438
-34.212669
-23.308722
-8.865564
7.478470
24.117939
39.049995
50.709553
58.864044
63.936802
66.517334
67.414078
67.356308
66.816765
66.067039
65.233231
64.392540
63.566753
62.662136
61.537464
60.082523
58.182823
55.720867
52.606087
48.729523
43.881535
37.742249
30.267839
22.059422
13.994153
6.999515
2.264937
0.550164
1.457589
4.071580
7.403233
10.196956
11.544196
11.474133
10.451731
8.906481
7.274713
5.906106
4.949372
4.455409
4.472387
5.047023
6.059648
7.052410
7.441673
6.699692
4.223185
-0.355223
-6.780817
-14.546815
-23.173229
-32.094578
-40.849461
-49.274673
-57.348255
-64.937355
-71.693390
-77.247452
-81.376678
-83.968506
-85.154373
-85.342636
-84.964600
-84.368774
-83.782585
-83.160980
-82.179611
-80.438782
-77.558998
-73.149544
-66.702217
-57.482162
-45.152271
-30.413631
-14.359315
2.072274
17.868855
32.289116
45.296600
57.154213
67.938057
77.482430
85.608124
92.294945
97.571426
101.439262
103.888817
105.013557
105.155663
104.702263
103.852318
102.667931
101.125534
99.095329
96.379326
92.708252
87.685692
81.071617
73.074005
64.065941
54.308926
43.984879
33.142818
21.612511
9.120207
-4.522046
-19.386770
-35.251831
-51.351498
-66.749100
-80.706169
-92.490379
-101.678284
-108.611580
-113.851639
-117.451881
-118.947060
-117.969543
-114.684174
-109.499107
-103.026222
-96.275139
-90.226479
-85.510246
-82.485603
-81.126259
-81.045326
-81.714561
-82.478653
-82.727074
-82.122185
-80.444351
-77.499428
-73.185921
-67.467918
-60.508846
-52.728916
-44.562389
-36.337151
-28.266647
-20.382256
-12.563615
-4.630887
3.647722
12.490494
21.898109
31.582809
40.993446
49.242031
55.467300
59.620533
62.476784
64.954117
67.853516
71.731697
76.449036
81.174606
85.069649
87.653969
88.663612
87.951454
85.383179
80.901672
74.695122
67.022301
58.138588
48.412891
38.298210
28.325384
18.955494
10.289420
2.121430
-5.794598
-13.661173
-21.601749
-29.511217
-37.030888
-43.800385
-49.618622
-54.386856
-58.138382
-61.030499
-63.242870
-64.965080
-66.330666
-67.263947
-67.459068
-66.599030
-64.504227
-61.036331
-55.976479
-48.973289
-39.873646
-29.065992
-17.128157
-4.574763
7.959201
19.807177
30.393688
39.216881
45.826336
49.698776
50.651993
49.354256
46.767708
43.637386
40.669197
38.325893
36.524456
34.899429
32.958176
29.987944
25.435047
19.256542
11.673641
3.128305
-5.592441
-13.692290
-20.599335
-25.900766
-29.307486
-30.529491
-29.448515
-26.406485
-21.874235
-16.125931
-9.330587
-1.680440
6.541873
15.000233
23.114357
29.862408
34.382099
36.492485
36.359486
34.334553
31.008059
26.955753
22.605713
18.244642
14.043372
10.188415
6.922466
4.524130
3.268174
3.333365
4.829394
7.676047
11.400168
15.450959
19.611771
23.921364
28.402451
32.944466
37.335892
41.134007
43.554134
44.012722
42.597576
39.721741
35.972183
32.251564
29.369764
27.714794
27.391626
28.153782
29.369753
30.392916
30.760723
30.164570
28.497107
25.781548
22.112434
17.716400
12.825997
7.521028
1.768616
-4.440486
-11.011952
-17.781813
-24.417751
-30.334637
-35.101276
-38.786087
-41.693401
-44.159248
-46.585434
-49.204250
-51.861389
-54.238403
-56.122025
-57.392864
-58.061745
-58.374680
-58.646297
-59.075607
-59.800488
-60.907455
-62.379562
-64.159180
-66.193466
-68.409737
-70.691841
-72.859558
-74.713776
-76.026955
-76.434647
-75.526146
-72.951805
-68.412636
-61.781685
-53.118496
-42.780964
-31.666166
-20.782393
-10.789189
-2.241772
4.362453
8.743084
10.752535
10.533036
8.620818
5.830550
3.317260
2.204424
2.988748
5.695661
10.089356
15.540132
21.333031
26.990505
32.132202
36.544598
40.371277
43.889675
47.232605
50.388351
53.272411
55.736473
57.626766
58.920990
59.740005
60.276554
60.800304
61.564178
62.626888
63.858036
65.036896
65.861252
66.029907
65.367897
63.763363
61.156086
57.613415
53.245216
48.182842
42.635155
36.846081
31.077896
25.556723
20.371887
15.504883
10.862201
6.237564
1.391573
-3.854909
-9.646817
-15.974322
-22.513351
-28.837420
-34.665688
-39.802444
-44.176258
-47.968849
-51.427986
-54.592442
-57.272560
-59.215050
-60.186790
-59.986080
-58.541279
-55.907825
-52.274204
-48.061432
-43.728508
-39.558414
-35.753063
-32.444210
-29.614096
-27.169352
-24.959911
-22.741884
-20.299191
-17.539276
-14.439945
-11.012239
-7.285554
-3.289324
0.943180
5.368691
9.851295
14.103616
17.833433
20.854469
23.049421
24.374674
24.834711
24.481157
23.470490
21.971819
20.083685
17.882151
15.471520
13.011821
10.662171
8.504327
6.570732
4.863080
3.328594
1.905018
0.592085
-0.542360
-1.418347
-1.977337
-2.167142
-1.920324
-1.134761
0.248950
2.162993
4.490030
7.089304
9.737988
12.177251
14.148098
15.427940
15.929339
15.671305
14.745029
13.363624
11.757627
10.062127
8.364182
6.724093
5.153580
3.629781
2.082372
0.385855
-1.537545
-3.634050
-5.796982
-7.949234
-10.029105
-11.993088
-13.836324
-15.575640
-17.244026
-18.888391
-20.517393
-22.058882
-23.397730
-24.392984
-24.853640
-24.681347
-24.016220
-23.070086
-21.897099
-20.386866
-18.390984
-15.785308
-12.492106
-8.644033
-4.642348
-0.932369
2.119853
4.243951
5.375703
5.616591
5.121564
4.106706
2.780193
1.299724
-0.153346
-1.389964
-2.251334
-2.607953
-2.386127
-1.557789
-0.204961
1.374736
2.810479
3.790678
4.000995
3.322738
2.075636
0.751443
-0.231711
-0.438910
0.401594
2.162329
4.546283
7.273461
10.022505
12.535693
14.733565
16.621078
18.158239
19.210386
19.614328
19.237701
17.965574
15.721971
12.458740
8.225145
3.284399
-2.040145
-7.484634
-12.757734
-17.614704
-21.963352
-25.781240
-29.012861
-31.534159
-33.253082
-34.214153
-34.509438
-34.217373
-33.430012
-32.261337
-30.866158
-29.370312
-27.710217
-25.603662
-22.735573
-18.871834
-13.846555
-7.660918
-0.494133
7.370304
15.514363
23.521935
31.131807
38.138557
44.398521
49.924984
54.756298
58.712067
61.329533
62.230217
61.423920
59.095448
55.497086
51.000374
45.939789
40.516979
34.819820
28.820517
22.410364
15.531913
8.271345
0.788409
-6.648095
-13.567099
-19.517441
-24.256536
-27.661331
-29.707712
-30.446444
-30.000788
-28.647291
-26.672634
-24.224697
-21.378412
-18.220106
-14.881719
-11.500381
-8.193338
-5.089814
-2.251499
0.420617
3.068283
5.665350
7.976918
9.708276
10.586114
10.380472
9.009119
6.513126
3.019387
-1.195727
-5.823722
-10.582241
-15.111166
-19.094208
-22.397667
-24.980961
-26.810118
-27.822319
-27.976646
-27.330843
-25.983324
-24.096863
-21.957857
-19.848330
-17.957861
-16.390434
-15.100418
-13.893978
-12.567462
-10.975938
-9.024192
-6.696565
-4.045572
-1.157219
1.839077
4.809245
7.645084
10.227619
12.473478
14.400631
16.056486
17.401382
18.279917
18.527178
18.048634
16.791672
14.783504
12.149796
9.081338
5.855605
2.748091
-0.075724
-2.506990
-4.510059
-6.199694
-7.726725
