EVENT_NAME: EMILIA_2ND_SHOCK
EVENT_ID: IT-2012-0011
EVENT_DATE_YYYYMMDD: 20120529
EVENT_TIME_HHMMSS: 070002
EVENT_LATITUDE_DEGREE: 44.8417
EVENT_LONGITUDE_DEGREE: 11.0657
EVENT_DEPTH_KM: 8.1
HYPOCENTER_REFERENCE: INGV-CNT_Seismic_Bulletin
MAGNITUDE_W: 6.0
MAGNITUDE_W_REFERENCE: RCMT-INGV
MAGNITUDE_L: 5.8
MAGNITUDE_L_REFERENCE: INGV-CNT_Seismic_Bulletin
FOCAL_MECHANISM: TF
NETWORK: IV
STATION_CODE: T0805
STATION_NAME: T0805
STATION_LATITUDE_DEGREE: 44.918700
STATION_LONGITUDE_DEGREE: 11.322600
STATION_ELEVATION_M: 5
LOCATION: 
SENSOR_DEPTH_M: 1.0
VS30_M/S: 
SITE_CLASSIFICATION_EC8: C*
MORPHOLOGIC_CLASSIFICATION: 
EPICENTRAL_DISTANCE_KM: 22.0
EARTHQUAKE_BACKAZIMUTH_DEGREE: 247.2
DATE_TIME_FIRST_SAMPLE_YYYYMMDD_HHMMSS: 20120529_065953.000
DATE_TIME_FIRST_SAMPLE_PRECISION: milliseconds
SAMPLING_INTERVAL_S: 0.005000
NDATA: 30001
DURATION_S: 150.005
STREAM: HNN
UNITS: cm
INSTRUMENT: sensor = Episensor FBA ES-T [Kinemetrics] | digitizer = Unknown [Unknown]
INSTRUMENT_ANALOG/DIGITAL: D
INSTRUMENTAL_FREQUENCY_HZ: 
INSTRUMENTAL_DAMPING: 
FULL_SCALE_G: 
N_BIT_DIGITAL_CONVERTER: 
PGD_CM: -2.370001
TIME_PGD_S: 22.390000
BASELINE_CORRECTION: BASELINE REMOVED
FILTER_TYPE: BUTTERWORTH
FILTER_ORDER: 2
LOW_CUT_FREQUENCY_HZ: 0.060
HIGH_CUT_FREQUENCY_HZ: 40.000
LATE/NORMAL_TRIGGERED: NT
DATABASE_VERSION: DYNA 1.0
HEADER_FORMAT: DYNA 1.2
DATA_TYPE: DISPLACEMENT
PROCESSING: manual (Paolucci et al., 2011)
DATA_TIMESTAMP_YYYYMMDD_HHMMSS: 
DATA_LICENSE: CC-BY4_0 (http://creativecommons.org/licenses/by/4.0/)
DATA_CITATION: ESM working group (2015), European Strong-Motion database, version 0.1, Network Activity 3: Networking acceleration networks and SM data users. Project NERA (www.nera-eu.org)
DATA_CREATOR: ESM working group
ORIGINAL_DATA_MEDIATOR_CITATION: Orfeus - European Integrated Data Archive (EIDA) http://www.orfeus-eu.org/eida/
ORIGINAL_DATA_MEDIATOR: Orfeus - European Integrated Data Archive (EIDA)
ORIGINAL_DATA_CREATOR_CITATION: Data for this study comes from the Italian national seismic network operated by Istituto Nazionale di Geofisica e Vulcanologia and archived at the European Integrated Data Archive http://eida.rm.ingv.it/
ORIGINAL_DATA_CREATOR: network: IV (Italian National Seismic Network); owner: Istituto Nazionale di Geofisica e Vulcanologia
USER1: 
USER2: 
USER3: 
USER4: 
USER5: 
[...]
-8.478800e-02
-8.546389e-02
-8.612790e-02
-8.676350e-02
-8.737062e-02
-8.795836e-02
-8.853242e-02
-8.908992e-02
-8.962172e-02
-9.011718e-02
-9.057040e-02
-9.098536e-02
-9.137438e-02
-9.175007e-02
-9.211856e-02
-9.247891e-02
-9.282629e-02
-9.315770e-02
-9.348054e-02
-9.381648e-02
-9.419380e-02
-9.463544e-02
-9.515087e-02
-9.573110e-02
-9.634932e-02
-9.697186e-02
-9.757173e-02
-9.813249e-02
-9.864323e-02
-9.909203e-02
-9.946069e-02
-9.972228e-02
-9.984806e-02
-9.982498e-02
-9.966887e-02
-9.942260e-02
-9.914616e-02
-9.890094e-02
-9.872657e-02
-9.862721e-02
-9.858262e-02
-9.856922e-02
-9.857452e-02
-9.860584e-02
-9.868929e-02
-9.885173e-02
-9.909878e-02
-9.941046e-02
-9.975400e-02
-1.000989e-01
-1.004277e-01
-1.007416e-01
-1.010563e-01
-1.013860e-01
-1.017329e-01
-1.020889e-01
-1.024429e-01
-1.027877e-01
-1.031252e-01
-1.034680e-01
-1.038353e-01
-1.042458e-01
-1.047106e-01
-1.052258e-01
-1.057693e-01
-1.063050e-01
-1.067931e-01
-1.072016e-01
-1.075226e-01
-1.077781e-01
-1.080054e-01
-1.082333e-01
-1.084697e-01
-1.086988e-01
-1.088877e-01
-1.090056e-01
-1.090462e-01
-1.090294e-01
-1.089858e-01
-1.089384e-01
-1.088912e-01
-1.088245e-01
-1.087039e-01
-1.085051e-01
-1.082348e-01
-1.079329e-01
-1.076656e-01
-1.075041e-01
-1.074900e-01
-1.076133e-01
-1.078256e-01
-1.080688e-01
-1.082951e-01
-1.084817e-01
-1.086321e-01
-1.087554e-01
-1.088408e-01
-1.088587e-01
-1.087893e-01
-1.086459e-01
-1.084756e-01
-1.083464e-01
-1.083271e-01
-1.084560e-01
-1.087218e-01
-1.090735e-01
-1.094425e-01
-1.097611e-01
-1.099788e-01
-1.100716e-01
-1.100373e-01
-1.098830e-01
-1.096155e-01
-1.092311e-01
-1.087161e-01
-1.080650e-01
-1.073039e-01
-1.064937e-01
-1.057122e-01
-1.050303e-01
-1.044848e-01
-1.040593e-01
-1.036921e-01
-1.033148e-01
-1.028861e-01
-1.023995e-01
-1.018778e-01
-1.013578e-01
-1.008656e-01
-1.004011e-01
-9.994485e-02
-9.947495e-02
-9.897824e-02
-9.845754e-02
-9.793177e-02
-9.742376e-02
-9.694451e-02
-9.648520e-02
-9.601657e-02
-9.549468e-02
-9.487676e-02
-9.413835e-02
-9.327834e-02
-9.231255e-02
-9.126457e-02
-9.015589e-02
-8.899826e-02
-8.779415e-02
-8.654447e-02
-8.525365e-02
-8.392654e-02
-8.256221e-02
-8.115218e-02
-7.968325e-02
-7.814120e-02
-7.651352e-02
-7.479192e-02
-7.297635e-02
-7.108171e-02
-6.914178e-02
-6.720497e-02
-6.532494e-02
-6.354442e-02
-6.187067e-02
-6.026603e-02
-5.867418e-02
-5.705828e-02
-5.541804e-02
-5.378654e-02
-5.221569e-02
-5.074813e-02
-4.938979e-02
-4.811004e-02
-4.686879e-02
-4.564190e-02
-4.442938e-02
-4.325400e-02
-4.215484e-02
-4.117505e-02
-4.034766e-02
-3.968080e-02
-3.914591e-02
-3.867948e-02
-3.820025e-02
-3.763124e-02
-3.692303e-02
-3.607108e-02
-3.510622e-02
-3.405833e-02
-3.292928e-02
-3.169796e-02
-3.034093e-02
-2.885074e-02
-2.725165e-02
-2.560042e-02
-2.395803e-02
-2.235473e-02
-2.078329e-02
-1.921916e-02
-1.763946e-02
-1.602728e-02
-1.436807e-02
-1.264661e-02
-1.084619e-02
-8.950464e-03
-6.948691e-03
-4.840070e-03
-2.628736e-03
-3.110832e-04
2.124119e-03
4.667131e-03
7.252881e-03
9.763488e-03
1.207114e-02
1.408334e-02
1.577029e-02
1.717615e-02
1.839974e-02
1.954412e-02
2.067797e-02
2.183722e-02
2.304535e-02
2.432893e-02
2.572776e-02
2.729813e-02
2.910428e-02
3.120432e-02
3.363412e-02
3.638622e-02
3.939831e-02
4.256624e-02
4.576783e-02
4.888766e-02
5.184731e-02
5.462315e-02
5.723342e-02
5.971363e-02
6.210282e-02
6.443878e-02
6.675679e-02
6.909174e-02
7.148013e-02
7.395475e-02
7.653095e-02
7.919830e-02
8.192756e-02
8.468287e-02
8.742499e-02
9.010666e-02
9.267120e-02
9.506158e-02
9.723422e-02
9.917223e-02
1.008982e-01
1.024725e-01
1.039622e-01
1.054048e-01
1.068064e-01
1.081744e-01
1.095437e-01
1.109738e-01
1.125292e-01
1.142533e-01
1.161342e-01
1.180918e-01
1.200152e-01
1.218152e-01
1.234492e-01
1.249217e-01
1.262729e-01
1.275585e-01
1.288268e-01
1.301071e-01
1.314073e-01
1.327157e-01
1.340107e-01
1.352736e-01
1.364938e-01
1.376714e-01
1.388181e-01
1.399575e-01
1.411265e-01
1.423771e-01
1.437804e-01
1.454218e-01
1.473816e-01
1.497107e-01
1.524208e-01
1.554841e-01
1.588425e-01
1.624279e-01
1.661821e-01
1.700550e-01
1.739798e-01
1.778526e-01
1.815307e-01
1.848442e-01
1.876265e-01
1.897673e-01
1.912478e-01
1.921205e-01
1.924679e-01
1.923719e-01
1.918938e-01
1.910688e-01
1.899299e-01
1.885371e-01
1.869800e-01
1.853494e-01
1.837132e-01
1.821107e-01
1.805587e-01
1.790588e-01
1.776068e-01
1.761965e-01
1.748159e-01
1.734406e-01
1.720427e-01
1.706171e-01
1.691974e-01
1.678441e-01
1.666195e-01
1.655689e-01
1.647046e-01
1.640035e-01
1.634312e-01
1.629730e-01
1.626468e-01
1.624967e-01
1.625816e-01
1.629566e-01
1.636561e-01
1.646867e-01
1.660281e-01
1.676362e-01
1.694484e-01
1.713893e-01
1.733765e-01
1.753309e-01
1.771855e-01
1.788914e-01
1.804200e-01
1.817575e-01
1.828902e-01
1.837939e-01
1.844321e-01
1.847637e-01
1.847607e-01
1.844394e-01
1.838787e-01
1.832012e-01
1.825381e-01
1.819943e-01
1.816096e-01
1.813448e-01
1.811222e-01
1.808836e-01
1.806179e-01
1.803586e-01
1.801650e-01
1.800807e-01
1.800918e-01
1.801250e-01
1.800845e-01
1.798916e-01
1.795111e-01
1.789650e-01
1.783258e-01
1.776903e-01
1.771475e-01
1.767505e-01
1.764949e-01
1.763187e-01
1.761250e-01
1.758114e-01
1.753030e-01
1.745797e-01
1.736773e-01
1.726649e-01
1.716235e-01
1.706387e-01
1.698003e-01
1.692068e-01
1.689695e-01
1.692079e-01
1.700296e-01
1.715039e-01
1.736440e-01
1.763910e-01
1.796086e-01
1.830974e-01
1.866200e-01
1.899340e-01
1.928443e-01
1.952435e-01
1.971154e-01
1.985198e-01
1.995705e-01
2.004040e-01
2.011540e-01
2.019417e-01
2.028745e-01
2.040344e-01
2.054511e-01
2.070810e-01
2.088067e-01
2.104499e-01
2.118039e-01
2.126931e-01
2.130261e-01
2.128142e-01
2.121674e-01
2.112649e-01
2.102944e-01
2.094052e-01
2.087061e-01
2.082828e-01
2.082086e-01
2.085449e-01
2.093302e-01
2.105593e-01
2.121625e-01
2.140139e-01
2.159726e-01
2.179151e-01
2.197393e-01
2.213537e-01
2.226727e-01
2.236215e-01
2.241431e-01
2.242066e-01
2.238124e-01
2.229897e-01
2.217844e-01
2.202527e-01
2.184653e-01
2.165150e-01
2.145089e-01
2.125420e-01
2.106794e-01
2.089639e-01
2.074355e-01
2.061512e-01
2.052036e-01
2.047226e-01
2.048425e-01
2.056583e-01
2.072035e-01
2.094471e-01
2.123037e-01
2.156621e-01
2.194185e-01
2.234936e-01
2.278345e-01
2.324043e-01
2.371495e-01
2.419638e-01
2.466810e-01
2.510986e-01
2.550141e-01
2.582725e-01
2.608089e-01
2.626522e-01
2.638954e-01
2.646644e-01
2.651011e-01
2.653560e-01
2.655809e-01
2.659188e-01
2.664927e-01
2.674001e-01
2.687131e-01
2.704837e-01
2.727568e-01
2.755726e-01
2.789467e-01
2.828456e-01
2.871800e-01
2.918214e-01
2.966248e-01
3.014567e-01
3.062184e-01
3.108482e-01
3.153039e-01
3.195484e-01
3.235474e-01
3.272749e-01
3.307183e-01
3.338831e-01
3.367876e-01
3.394423e-01
3.418254e-01
3.438795e-01
3.455298e-01
3.467050e-01
3.473557e-01
3.474676e-01
3.470637e-01
3.461988e-01
3.449536e-01
3.434332e-01
3.417655e-01
3.400937e-01
3.385578e-01
3.372803e-01
3.363633e-01
3.358901e-01
3.359209e-01
3.364787e-01
3.375372e-01
3.390222e-01
3.408191e-01
3.427886e-01
3.447954e-01
3.467311e-01
3.485183e-01
3.501075e-01
3.514778e-01
3.526428e-01
3.536471e-01
3.545421e-01
3.553566e-01
3.560861e-01
3.567014e-01
3.571662e-01
3.574637e-01
3.576228e-01
3.577171e-01
3.578413e-01
3.580884e-01
3.585417e-01
3.592744e-01
3.603414e-01
3.617610e-01
3.634988e-01
3.654664e-01
3.675274e-01
3.695119e-01
3.712443e-01
3.725725e-01
3.733908e-01
3.736578e-01
3.734045e-01
3.727353e-01
3.718130e-01
3.708171e-01
3.698980e-01
3.691627e-01
3.686896e-01
3.685526e-01
3.688486e-01
3.697200e-01
3.713432e-01
3.738821e-01
3.774444e-01
3.820624e-01
3.876896e-01
3.942109e-01
4.014677e-01
4.092826e-01
4.174779e-01
4.258886e-01
4.343665e-01
4.427801e-01
4.510116e-01
4.589503e-01
4.664868e-01
4.735245e-01
4.800073e-01
4.859393e-01
4.913737e-01
4.963894e-01
5.010698e-01
5.054820e-01
5.096705e-01
5.136788e-01
5.175790e-01
5.214686e-01
5.254354e-01
5.295231e-01
5.337205e-01
5.379660e-01
5.421711e-01
5.462671e-01
5.502395e-01
5.541252e-01
5.579936e-01
5.619264e-01
5.659980e-01
5.702592e-01
5.747330e-01
5.794153e-01
5.842715e-01
5.892277e-01
5.941668e-01
5.989398e-01
6.033851e-01
6.073546e-01
6.107554e-01
6.135773e-01
6.158850e-01
6.177931e-01
6.194478e-01
6.210100e-01
6.226445e-01
6.245183e-01
6.268029e-01
6.296684e-01
6.332659e-01
6.377139e-01
6.430953e-01
6.494599e-01
6.568174e-01
6.651207e-01
6.742572e-01
6.840635e-01
6.943481e-01
7.049057e-01
7.155253e-01
7.259966e-01
7.361143e-01
7.456840e-01
7.545421e-01
7.625938e-01
7.698365e-01
7.763403e-01
7.822111e-01
7.875597e-01
7.924697e-01
7.969759e-01
8.010633e-01
8.046781e-01
8.077439e-01
8.101872e-01
8.119592e-01
8.130453e-01
8.134644e-01
8.132503e-01
8.124164e-01
8.109351e-01
8.087583e-01
8.058570e-01
8.022540e-01
7.980551e-01
7.934566e-01
7.887071e-01
7.840533e-01
7.797068e-01
7.758247e-01
7.724961e-01
7.697415e-01
7.675167e-01
7.657241e-01
7.642337e-01
7.629078e-01
7.616274e-01
7.603134e-01
7.589340e-01
7.574986e-01
7.560476e-01
7.546365e-01
7.533197e-01
7.521365e-01
7.510942e-01
7.501604e-01
7.492719e-01
7.483500e-01
7.473001e-01
7.459972e-01
7.442741e-01
7.419279e-01
7.387336e-01
7.344675e-01
7.289435e-01
7.220456e-01
7.137371e-01
7.040595e-01
6.931250e-01
6.811009e-01
6.681846e-01
6.545662e-01
6.403927e-01
6.257597e-01
6.107304e-01
5.953564e-01
5.796966e-01
5.638276e-01
5.478345e-01
5.317809e-01
5.156883e-01
4.995437e-01
4.833221e-01
4.670122e-01
4.506479e-01
4.343231e-01
4.181662e-01
4.022980e-01
3.868046e-01
3.717193e-01
3.570221e-01
3.426713e-01
3.286434e-01
3.149473e-01
3.016136e-01
2.886768e-01
2.761521e-01
2.640173e-01
2.522173e-01
2.406951e-01
2.294226e-01
2.184179e-01
2.077516e-01
1.975291e-01
1.878470e-01
1.787539e-01
1.702362e-01
1.622187e-01
1.545756e-01
1.471553e-01
1.398082e-01
1.324122e-01
1.248957e-01
1.172451e-01
1.095037e-01
1.017578e-01
9.410638e-02
8.662693e-02
7.936107e-02
7.231442e-02
6.546230e-02
5.876173e-02
5.216430e-02
4.562428e-02
3.910477e-02
3.258287e-02
2.605214e-02
1.952441e-02
1.303273e-02
6.633925e-03
4.010984e-04
-5.603855e-03
-1.136218e-02
-1.690985e-02
-2.232972e-02
-2.773319e-02
-3.322982e-02
-3.889825e-02
-4.478121e-02
-5.090056e-02
-5.726685e-02
-6.387015e-02
-7.066409e-02
-7.756340e-02
-8.445673e-02
-9.122309e-02
-9.774751e-02
-1.039338e-01
-1.097116e-01
-1.150425e-01
-1.199284e-01
-1.244207e-01
-1.286286e-01
-1.327140e-01
-1.368671e-01
-1.412772e-01
-1.460991e-01
-1.514245e-01
-1.572697e-01
-1.635769e-01
-1.702212e-01
-1.770301e-01
-1.838046e-01
-1.903383e-01
-1.964441e-01
-2.019848e-01
-2.069024e-01
-2.112411e-01
-2.151420e-01
-2.188101e-01
-2.224796e-01
-2.263908e-01
-2.307750e-01
-2.358375e-01
-2.417288e-01
-2.485169e-01
-2.561741e-01
-2.645717e-01
-2.734891e-01
-2.826412e-01
-2.917126e-01
-3.003962e-01
-3.084318e-01
-3.156395e-01
-3.219574e-01
-3.274567e-01
-3.322996e-01
-3.366822e-01
-3.408111e-01
-3.449096e-01
-3.492288e-01
-3.540521e-01
-3.596934e-01
-3.664673e-01
-3.746263e-01
-3.843054e-01
-3.955072e-01
-4.081080e-01
-4.218783e-01
-4.365211e-01
-4.517193e-01
-4.671852e-01
-4.827050e-01
-4.981538e-01
-5.134861e-01
-5.287083e-01
-5.438265e-01
-5.587917e-01
-5.734754e-01
-5.876712e-01
-6.011103e-01
-6.134960e-01
-6.245427e-01
-6.340078e-01
-6.417264e-01
-6.476445e-01
-6.518340e-01
-6.544963e-01
-6.559410e-01
-6.565357e-01
-6.566621e-01
-6.566997e-01
-6.570271e-01
-6.580279e-01
-6.600989e-01
-6.636466e-01
-6.690644e-01
-6.767022e-01
-6.868383e-01
-6.996436e-01
-7.151471e-01
-7.332161e-01
-7.535488e-01
-7.757007e-01
-7.991566e-01
-8.234118e-01
-8.480440e-01
-8.727683e-01
-8.974449e-01
-9.220451e-01
-9.466053e-01
-9.711752e-01
-9.957736e-01
-1.020375e+00
-1.044921e+00
-1.069331e+00
-1.093517e+00
-1.117380e+00
-1.140821e+00
-1.163742e+00
-1.186054e+00
-1.207683e+00
-1.228578e+00
-1.248713e+00
-1.268092e+00
-1.286757e+00
-1.304791e+00
-1.322330e+00
-1.339572e+00
-1.356789e+00
-1.374329e+00
-1.392594e+00
-1.411994e+00
-1.432905e+00
-1.455571e+00
-1.480054e+00
-1.506239e+00
-1.533872e+00
-1.562598e+00
-1.591992e+00
-1.621594e+00
-1.650941e+00
-1.679606e+00
-1.707223e+00
-1.733525e+00
-1.758370e+00
-1.781728e+00
-1.803651e+00
-1.824269e+00
-1.843796e+00
-1.862530e+00
-1.880821e+00
-1.899024e+00
-1.917483e+00
-1.936523e+00
-1.956432e+00
-1.977426e+00
-1.999614e+00
-2.022962e+00
-2.047264e+00
-2.072147e+00
-2.097156e+00
-2.121841e+00
-2.145814e+00
-2.168745e+00
-2.190372e+00
-2.210498e+00
-2.228996e+00
-2.245826e+00
-2.261054e+00
-2.274853e+00
-2.287464e+00
-2.299140e+00
-2.310096e+00
-2.320463e+00
-2.330254e+00
-2.339375e+00
-2.347663e+00
-2.354909e+00
-2.360915e+00
-2.365515e+00
-2.368580e+00
-2.370001e+00
-2.369681e+00
-2.367536e+00
-2.363508e+00
-2.357575e+00
-2.349774e+00
-2.340211e+00
-2.329071e+00
-2.316620e+00
-2.303178e+00
-2.289091e+00
-2.274704e+00
-2.260341e+00
-2.246285e+00
-2.232769e+00
-2.219967e+00
-2.207983e+00
-2.196824e+00
-2.186387e+00
-2.176474e+00
-2.166824e+00
-2.157130e+00
-2.147062e+00
-2.136288e+00
-2.124510e+00
-2.111495e+00
-2.097107e+00
-2.081341e+00
-2.064350e+00
-2.046430e+00
-2.027990e+00
-2.009538e+00
-1.991651e+00
-1.974947e+00
-1.960022e+00
-1.947399e+00
-1.937475e+00
-1.930469e+00
-1.926394e+00
-1.925050e+00
-1.926058e+00
-1.928880e+00
-1.932864e+00
-1.937298e+00
-1.941465e+00
-1.944703e+00
-1.946459e+00
-1.946338e+00
-1.944152e+00
-1.939901e+00
-1.933737e+00
-1.925916e+00
-1.916726e+00
-1.906433e+00
-1.895254e+00
-1.883355e+00
-1.870847e+00
-1.857770e+00
-1.844086e+00
-1.829692e+00
-1.814438e+00
-1.798139e+00
-1.780582e+00
-1.761543e+00
-1.740806e+00
-1.718203e+00
-1.693638e+00
-1.667138e+00
-1.638878e+00
-1.609151e+00
-1.578330e+00
-1.546836e+00
-1.515129e+00
-1.483702e+00
-1.453079e+00
-1.423809e+00
-1.396441e+00
-1.371458e+00
-1.349205e+00
-1.329841e+00
-1.313296e+00
-1.299292e+00
-1.287395e+00
-1.277097e+00
-1.267881e+00
-1.259274e+00
-1.250884e+00
-1.242417e+00
-1.233688e+00
-1.224613e+00
-1.215187e+00
-1.205461e+00
-1.195497e+00
-1.185349e+00
-1.175067e+00
-1.164717e+00
-1.154405e+00
-1.144277e+00
-1.134523e+00
-1.125341e+00
-1.116893e+00
-1.109285e+00
-1.102548e+00
-1.096650e+00
-1.091546e+00
-1.087234e+00
-1.083778e+00
-1.081295e+00
-1.079935e+00
-1.079853e+00
-1.081190e+00
-1.084078e+00
-1.088656e+00
-1.095078e+00
-1.103469e+00
-1.113865e+00
-1.126179e+00
-1.140186e+00
-1.155527e+00
-1.171763e+00
-1.188443e+00
-1.205134e+00
-1.221446e+00
-1.237039e+00
-1.251620e+00
-1.264933e+00
-1.276752e+00
-1.286883e+00
-1.295170e+00
-1.301510e+00
-1.305873e+00
-1.308311e+00
-1.308949e+00
-1.307967e+00
-1.305557e+00
-1.301876e+00
-1.297032e+00
-1.291087e+00
-1.284069e+00
-1.275977e+00
-1.266783e+00
-1.256443e+00
-1.244924e+00
-1.232231e+00
-1.218444e+00
-1.203741e+00
-1.188384e+00
-1.172667e+00
-1.156851e+00
-1.141131e+00
-1.125607e+00
-1.110295e+00
-1.095148e+00
-1.080091e+00
-1.065047e+00
-1.049953e+00
-1.034758e+00
-1.019400e+00
-1.003795e+00
-9.878382e-01
-9.714255e-01
-9.544540e-01
-9.368191e-01
-9.184064e-01
-8.990871e-01
-8.787211e-01
-8.571898e-01
-8.344635e-01
-8.106419e-01
-7.859162e-01
-7.605023e-01
-7.345983e-01
-7.083640e-01
-6.819136e-01
-6.553335e-01
-6.287041e-01
-6.020998e-01
-5.755703e-01
-5.491397e-01
-5.228500e-01
-4.968155e-01
-4.712433e-01
-4.464190e-01
-4.226817e-01
-4.003922e-01
-3.799050e-01
-3.615607e-01
-3.456898e-01
-3.326041e-01
-3.225625e-01
-3.157250e-01
-3.121084e-01
-3.115323e-01
-3.135861e-01
-3.176540e-01
-3.229628e-01
-3.286374e-01
-3.337795e-01
-3.375390e-01
-3.391530e-01
-3.379658e-01
-3.334420e-01
-3.251824e-01
-3.129355e-01
-2.965867e-01
-2.761423e-01
-2.517176e-01
-2.235287e-01
-1.918878e-01
-1.572042e-01
-1.199864e-01
-8.083454e-02
-4.041636e-02
5.613439e-04
4.138089e-02
8.133953e-02
1.197804e-01
1.561435e-01
1.900177e-01
2.211757e-01
2.495942e-01
2.754440e-01
2.990470e-01
3.208216e-01
3.412245e-01
3.606972e-01
3.796251e-01
3.982919e-01
4.168490e-01
4.353218e-01
4.536356e-01
4.716445e-01
4.891742e-01
5.060583e-01
5.221582e-01
5.373705e-01
5.516256e-01
5.648822e-01
5.771216e-01
5.883467e-01
5.985848e-01
6.079025e-01
6.164340e-01
6.243960e-01
6.320669e-01
6.397527e-01
6.477566e-01
6.563455e-01
6.657194e-01
6.759923e-01
6.871820e-01
6.992061e-01
7.118888e-01
7.249812e-01
7.382078e-01
7.513159e-01
7.640945e-01
7.763680e-01
7.879837e-01
7.987951e-01
8.086484e-01
8.173800e-01
8.248273e-01
8.308493e-01
8.353558e-01
8.383401e-01
8.399075e-01
8.403040e-01
8.399204e-01
8.392417e-01
8.387778e-01
8.390020e-01
8.402810e-01
8.428157e-01
8.466211e-01
8.515290e-01
8.572145e-01
8.632559e-01
8.691962e-01
8.745959e-01
8.790691e-01
8.822880e-01
8.839614e-01
8.838178e-01
8.816042e-01
8.770925e-01
8.700852e-01
8.604236e-01
8.480088e-01
8.328427e-01
8.150746e-01
7.950291e-01
7.732167e-01
7.503141e-01
7.270849e-01
7.042889e-01
6.826328e-01
6.627494e-01
6.451865e-01
6.304108e-01
6.188154e-01
6.107157e-01
6.063288e-01
6.057498e-01
6.089348e-01
6.156864e-01
6.256392e-01
6.382472e-01
6.527932e-01
6.684495e-01
6.843537e-01
6.996718e-01
7.136681e-01
7.257580e-01
7.355140e-01
7.426503e-01
7.470106e-01
7.485596e-01
7.473737e-01
7.436268e-01
7.375769e-01
7.295570e-01
7.199629e-01
7.092325e-01
6.978110e-01
6.861128e-01
6.744934e-01
6.632243e-01
6.524874e-01
6.424119e-01
6.331248e-01
6.247832e-01
6.175926e-01
6.118093e-01
6.077142e-01
6.055760e-01
6.056138e-01
6.079486e-01
6.125608e-01
6.192748e-01
6.277603e-01
6.375562e-01
6.481250e-01
6.589057e-01
6.693473e-01
6.789288e-01
6.871683e-01
6.936335e-01
6.979562e-01
6.998514e-01
6.991358e-01
6.957336e-01
6.896738e-01
6.810847e-01
6.701876e-01
6.572911e-01
6.427862e-01
6.271355e-01
6.108536e-01
5.944719e-01
5.785005e-01
5.634005e-01
5.495575e-01
5.372646e-01
5.267325e-01
5.181087e-01
5.114886e-01
5.069183e-01
5.043879e-01
5.038135e-01
5.050180e-01
5.077300e-01
5.116073e-01
5.162658e-01
5.213132e-01
5.263777e-01
5.311186e-01
5.352249e-01
5.384153e-01
5.404410e-01
5.410910e-01
5.401993e-01
5.376541e-01
5.334023e-01
5.274409e-01
5.198054e-01
5.105666e-01
4.998377e-01
4.877819e-01
4.746159e-01
4.606101e-01
4.460747e-01
