EVENT_NAME: EMILIA_2ND_SHOCK
EVENT_ID: IT-2012-0011
EVENT_DATE_YYYYMMDD: 20120529
EVENT_TIME_HHMMSS: 070002
EVENT_LATITUDE_DEGREE: 44.8417
EVENT_LONGITUDE_DEGREE: 11.0657
EVENT_DEPTH_KM: 8.1
HYPOCENTER_REFERENCE: INGV-CNT_Seismic_Bulletin
MAGNITUDE_W: 6.0
MAGNITUDE_W_REFERENCE: RCMT-INGV
MAGNITUDE_L: 5.8
MAGNITUDE_L_REFERENCE: INGV-CNT_Seismic_Bulletin
FOCAL_MECHANISM: TF
NETWORK: IV
STATION_CODE: T0818
STATION_NAME: T0818
STATION_LATITUDE_DEGREE: 44.934800
STATION_LONGITUDE_DEGREE: 11.030400
STATION_ELEVATION_M: 5
LOCATION: 
SENSOR_DEPTH_M: 1.0
VS30_M/S: 
SITE_CLASSIFICATION_EC8: C*
MORPHOLOGIC_CLASSIFICATION: 
EPICENTRAL_DISTANCE_KM: 10.7
EARTHQUAKE_BACKAZIMUTH_DEGREE: 164.9
DATE_TIME_FIRST_SAMPLE_YYYYMMDD_HHMMSS: 20120529_065952.000
DATE_TIME_FIRST_SAMPLE_PRECISION: milliseconds
SAMPLING_INTERVAL_S: 0.005000
NDATA: 20001
DURATION_S: 100.005
STREAM: HNZ
UNITS: cm
INSTRUMENT: sensor = Episensor FBA ES-T [Kinemetrics] | digitizer = Unknown [Unknown]
INSTRUMENT_ANALOG/DIGITAL: D
INSTRUMENTAL_FREQUENCY_HZ: 
INSTRUMENTAL_DAMPING: 
FULL_SCALE_G: 
N_BIT_DIGITAL_CONVERTER: 
PGD_CM: 3.073429
TIME_PGD_S: 18.980000
BASELINE_CORRECTION: BASELINE REMOVED
FILTER_TYPE: BUTTERWORTH
FILTER_ORDER: 2
LOW_CUT_FREQUENCY_HZ: 0.060
HIGH_CUT_FREQUENCY_HZ: 40.000
LATE/NORMAL_TRIGGERED: NT
DATABASE_VERSION: DYNA 1.0
HEADER_FORMAT: DYNA 1.2
DATA_TYPE: DISPLACEMENT
PROCESSING: manual (Paolucci et al., 2011)
DATA_TIMESTAMP_YYYYMMDD_HHMMSS: 
DATA_LICENSE: CC-BY4_0 (http://creativecommons.org/licenses/by/4.0/)
DATA_CITATION: ESM working group (2015), European Strong-Motion database, version 0.1, Network Activity 3: Networking acceleration networks and SM data users. Project NERA (www.nera-eu.org)
DATA_CREATOR: ESM working group
ORIGINAL_DATA_MEDIATOR_CITATION: Orfeus - European Integrated Data Archive (EIDA) http://www.orfeus-eu.org/eida/
ORIGINAL_DATA_MEDIATOR: Orfeus - European Integrated Data Archive (EIDA)
ORIGINAL_DATA_CREATOR_CITATION: Data for this study comes from the Italian national seismic network operated by Istituto Nazionale di Geofisica e Vulcanologia and archived at the European Integrated Data Archive http://eida.rm.ingv.it/
ORIGINAL_DATA_CREATOR: network: IV (Italian National Seismic Network); owner: Istituto Nazionale di Geofisica e Vulcanologia
USER1: 
USER2: 
USER3: 
USER4: 
USER5: 
[...]
-2.852755e-01
-2.871889e-01
-2.890755e-01
-2.908349e-01
-2.926103e-01
-2.948304e-01
-2.980692e-01
-3.027353e-01
-3.086910e-01
-3.150496e-01
-3.204943e-01
-3.241707e-01
-3.265203e-01
-3.291535e-01
-3.335944e-01
-3.398816e-01
-3.463241e-01
-3.507263e-01
-3.520387e-01
-3.510191e-01
-3.494474e-01
-3.487561e-01
-3.493082e-01
-3.507089e-01
-3.524863e-01
-3.543379e-01
-3.558570e-01
-3.563008e-01
-3.548595e-01
-3.512416e-01
-3.459619e-01
-3.400200e-01
-3.342917e-01
-3.291623e-01
-3.246025e-01
-3.204850e-01
-3.168574e-01
-3.139962e-01
-3.122113e-01
-3.115702e-01
-3.118147e-01
-3.125720e-01
-3.136637e-01
-3.152115e-01
-3.174370e-01
-3.203621e-01
-3.237246e-01
-3.272221e-01
-3.308246e-01
-3.347466e-01
-3.390254e-01
-3.431862e-01
-3.464755e-01
-3.484666e-01
-3.492948e-01
-3.492349e-01
-3.482435e-01
-3.461745e-01
-3.434296e-01
-3.410938e-01
-3.401972e-01
-3.408641e-01
-3.422992e-01
-3.435811e-01
-3.443768e-01
-3.449695e-01
-3.458061e-01
-3.471029e-01
-3.487568e-01
-3.504669e-01
-3.519204e-01
-3.529263e-01
-3.534390e-01
-3.535537e-01
-3.535721e-01
-3.540173e-01
-3.553370e-01
-3.573772e-01
-3.592260e-01
-3.598427e-01
-3.590294e-01
-3.577811e-01
-3.575899e-01
-3.593376e-01
-3.627653e-01
-3.668371e-01
-3.704953e-01
-3.732262e-01
-3.752340e-01
-3.772057e-01
-3.797554e-01
-3.828957e-01
-3.860121e-01
-3.884194e-01
-3.899655e-01
-3.910945e-01
-3.923481e-01
-3.937992e-01
-3.949307e-01
-3.950660e-01
-3.939813e-01
-3.921580e-01
-3.904121e-01
-3.892152e-01
-3.883685e-01
-3.873614e-01
-3.859949e-01
-3.845223e-01
-3.831716e-01
-3.817067e-01
-3.796320e-01
-3.768111e-01
-3.737312e-01
-3.711025e-01
-3.692901e-01
-3.682338e-01
-3.678582e-01
-3.683749e-01
-3.700812e-01
-3.729389e-01
-3.764628e-01
-3.799997e-01
-3.830357e-01
-3.852737e-01
-3.865978e-01
-3.871098e-01
-3.871500e-01
-3.871348e-01
-3.872825e-01
-3.874808e-01
-3.874252e-01
-3.869077e-01
-3.860246e-01
-3.851320e-01
-3.845431e-01
-3.842298e-01
-3.838544e-01
-3.831198e-01
-3.820291e-01
-3.807434e-01
-3.792718e-01
-3.774418e-01
-3.751614e-01
-3.725830e-01
-3.699653e-01
-3.674774e-01
-3.652511e-01
-3.636098e-01
-3.631076e-01
-3.641938e-01
-3.667679e-01
-3.700905e-01
-3.732206e-01
-3.756451e-01
-3.775576e-01
-3.795610e-01
-3.821343e-01
-3.853928e-01
-3.892618e-01
-3.936683e-01
-3.984271e-01
-4.030933e-01
-4.072547e-01
-4.111196e-01
-4.156227e-01
-4.216904e-01
-4.293885e-01
-4.378661e-01
-4.460784e-01
-4.534822e-01
-4.601293e-01
-4.663212e-01
-4.722572e-01
-4.778546e-01
-4.827177e-01
-4.862739e-01
-4.880685e-01
-4.879892e-01
-4.861907e-01
-4.828474e-01
-4.781218e-01
-4.724321e-01
-4.665990e-01
-4.614969e-01
-4.574596e-01
-4.540970e-01
-4.507915e-01
-4.473718e-01
-4.442400e-01
-4.418064e-01
-4.398265e-01
-4.373301e-01
-4.332457e-01
-4.271616e-01
-4.195399e-01
-4.112298e-01
-4.028019e-01
-3.943525e-01
-3.858687e-01
-3.776508e-01
-3.703175e-01
-3.644701e-01
-3.604172e-01
-3.581198e-01
-3.572144e-01
-3.570920e-01
-3.572205e-01
-3.575881e-01
-3.587289e-01
-3.610983e-01
-3.643706e-01
-3.674276e-01
-3.689872e-01
-3.681859e-01
-3.647748e-01
-3.591316e-01
-3.522313e-01
-3.453759e-01
-3.396485e-01
-3.355281e-01
-3.329561e-01
-3.315456e-01
-3.305474e-01
-3.288385e-01
-3.254439e-01
-3.203173e-01
-3.144586e-01
-3.090379e-01
-3.043857e-01
-2.999095e-01
-2.949031e-01
-2.893237e-01
-2.838391e-01
-2.792718e-01
-2.759932e-01
-2.736790e-01
-2.715608e-01
-2.689976e-01
-2.658865e-01
-2.625283e-01
-2.591333e-01
-2.555948e-01
-2.518457e-01
-2.483405e-01
-2.459638e-01
-2.453327e-01
-2.462579e-01
-2.479841e-01
-2.498848e-01
-2.517612e-01
-2.534792e-01
-2.546151e-01
-2.548004e-01
-2.544789e-01
-2.550512e-01
-2.579168e-01
-2.631888e-01
-2.693831e-01
-2.745017e-01
-2.775488e-01
-2.791379e-01
-2.808850e-01
-2.844121e-01
-2.906385e-01
-2.993169e-01
-3.088281e-01
-3.167090e-01
-3.210147e-01
-3.215315e-01
-3.197291e-01
-3.176226e-01
-3.166643e-01
-3.174209e-01
-3.198735e-01
-3.237919e-01
-3.289265e-01
-3.350832e-01
-3.421023e-01
-3.496753e-01
-3.571592e-01
-3.637720e-01
-3.692129e-01
-3.740951e-01
-3.795190e-01
-3.859912e-01
-3.927107e-01
-3.979659e-01
-4.003493e-01
-3.998019e-01
-3.977090e-01
-3.959716e-01
-3.956964e-01
-3.965653e-01
-3.974696e-01
-3.977826e-01
-3.979588e-01
-3.988929e-01
-4.008919e-01
-4.034597e-01
-4.059890e-01
-4.084113e-01
-4.111414e-01
-4.146633e-01
-4.192760e-01
-4.249116e-01
-4.307891e-01
-4.352505e-01
-4.363863e-01
-4.332726e-01
-4.266901e-01
-4.184276e-01
-4.096690e-01
-4.000309e-01
-3.882203e-01
-3.735466e-01
-3.566096e-01
-3.385440e-01
-3.199214e-01
-3.006546e-01
-2.807693e-01
-2.608100e-01
-2.413865e-01
-2.226567e-01
-2.045260e-01
-1.871509e-01
-1.709247e-01
-1.560661e-01
-1.425417e-01
-1.304374e-01
-1.201372e-01
-1.119810e-01
-1.059097e-01
-1.015959e-01
-9.884322e-02
-9.771807e-02
-9.830142e-02
-1.004011e-01
-1.035129e-01
-1.070828e-01
-1.108935e-01
-1.151271e-01
-1.198252e-01
-1.242577e-01
-1.271960e-01
-1.282522e-01
-1.289184e-01
-1.318432e-01
-1.387508e-01
-1.490449e-01
-1.603540e-01
-1.701471e-01
-1.770455e-01
-1.814392e-01
-1.853727e-01
-1.914392e-01
-2.010427e-01
-2.136151e-01
-2.278318e-01
-2.434812e-01
-2.617511e-01
-2.836586e-01
-3.086413e-01
-3.349562e-01
-3.610969e-01
-3.863483e-01
-4.101400e-01
-4.316789e-01
-4.507460e-01
-4.685846e-01
-4.874059e-01
-5.087253e-01
-5.323101e-01
-5.568880e-01
-5.817232e-01
-6.072430e-01
-6.341211e-01
-6.619734e-01
-6.891106e-01
-7.136457e-01
-7.349181e-01
-7.538453e-01
-7.719196e-01
-7.900265e-01
-8.083327e-01
-8.271921e-01
-8.479043e-01
-8.722591e-01
-9.009903e-01
-9.325324e-01
-9.634748e-01
-9.906119e-01
-1.012857e+00
-1.031319e+00
-1.047628e+00
-1.062332e+00
-1.074958e+00
-1.085340e+00
-1.094446e+00
-1.103746e+00
-1.113795e+00
-1.123488e+00
-1.130836e+00
-1.134638e+00
-1.135424e+00
-1.134682e+00
-1.133291e+00
-1.130952e+00
-1.126928e+00
-1.120734e+00
-1.112007e+00
-1.100354e+00
-1.085940e+00
-1.070034e+00
-1.054287e+00
-1.039228e+00
-1.023758e+00
-1.006426e+00
-9.872424e-01
-9.679962e-01
-9.506773e-01
-9.357194e-01
-9.218826e-01
-9.076130e-01
-8.923157e-01
-8.765273e-01
-8.612612e-01
-8.473095e-01
-8.349364e-01
-8.240700e-01
-8.148815e-01
-8.082775e-01
-8.056725e-01
-8.079330e-01
-8.143585e-01
-8.228476e-01
-8.313017e-01
-8.388362e-01
-8.454731e-01
-8.508003e-01
-8.533503e-01
-8.515823e-01
-8.454073e-01
-8.366339e-01
-8.280307e-01
-8.219563e-01
-8.194454e-01
-8.199375e-01
-8.215941e-01
-8.222152e-01
-8.205139e-01
-8.170378e-01
-8.139231e-01
-8.133435e-01
-8.157755e-01
-8.196944e-01
-8.228793e-01
-8.237575e-01
-8.215326e-01
-8.157054e-01
-8.062926e-01
-7.944930e-01
-7.824284e-01
-7.717936e-01
-7.628210e-01
-7.546931e-01
-7.468836e-01
-7.399288e-01
-7.349145e-01
-7.324875e-01
-7.325898e-01
-7.350212e-01
-7.398917e-01
-7.472532e-01
-7.562794e-01
-7.650044e-01
-7.711722e-01
-7.737026e-01
-7.734606e-01
-7.723476e-01
-7.714132e-01
-7.700345e-01
-7.672539e-01
-7.637516e-01
-7.619233e-01
-7.638338e-01
-7.693613e-01
-7.763929e-01
-7.825038e-01
-7.862444e-01
-7.871583e-01
-7.852813e-01
-7.810830e-01
-7.756862e-01
-7.704877e-01
-7.660861e-01
-7.615963e-01
-7.553123e-01
-7.462588e-01
-7.352119e-01
-7.243756e-01
-7.162003e-01
-7.122625e-01
-7.125947e-01
-7.155288e-01
-7.182680e-01
-7.182634e-01
-7.147008e-01
-7.088567e-01
-7.028174e-01
-6.976313e-01
-6.925869e-01
-6.860858e-01
-6.770334e-01
-6.656471e-01
-6.535640e-01
-6.434743e-01
-6.379723e-01
-6.376230e-01
-6.397646e-01
-6.398729e-01
-6.349428e-01
-6.256911e-01
-6.152642e-01
-6.059488e-01
-5.974048e-01
-5.877565e-01
-5.755089e-01
-5.601298e-01
-5.415946e-01
-5.203328e-01
-4.977486e-01
-4.761274e-01
-4.573959e-01
-4.418945e-01
-4.285846e-01
-4.164691e-01
-4.056290e-01
-3.969571e-01
-3.911602e-01
-3.880336e-01
-3.863561e-01
-3.843287e-01
-3.805261e-01
-3.749330e-01
-3.691388e-01
-3.652536e-01
-3.643330e-01
-3.656626e-01
-3.673912e-01
-3.677435e-01
-3.657789e-01
-3.614257e-01
-3.552038e-01
-3.479356e-01
-3.403851e-01
-3.328551e-01
-3.250827e-01
-3.165966e-01
-3.071471e-01
-2.967788e-01
-2.856902e-01
-2.743149e-01
-2.635786e-01
-2.547554e-01
-2.487058e-01
-2.451760e-01
-2.430192e-01
-2.412399e-01
-2.397443e-01
-2.389575e-01
-2.388500e-01
-2.386552e-01
-2.375845e-01
-2.354744e-01
-2.324528e-01
-2.282360e-01
-2.223582e-01
-2.153180e-01
-2.090973e-01
-2.059954e-01
-2.067877e-01
-2.101332e-01
-2.137331e-01
-2.159793e-01
-2.166642e-01
-2.165333e-01
-2.164930e-01
-2.171827e-01
-2.188840e-01
-2.214463e-01
-2.242608e-01
-2.264899e-01
-2.274147e-01
-2.265456e-01
-2.235062e-01
-2.181107e-01
-2.107149e-01
-2.023264e-01
-1.940746e-01
-1.864392e-01
-1.790774e-01
-1.715025e-01
-1.638482e-01
-1.568031e-01
-1.508281e-01
-1.456570e-01
-1.406470e-01
-1.354246e-01
-1.299499e-01
-1.239952e-01
-1.168829e-01
-1.079974e-01
-9.749809e-02
-8.628010e-02
-7.514657e-02
-6.415763e-02
-5.290801e-02
-4.129048e-02
-2.969262e-02
-1.837846e-02
-6.979758e-03
5.141728e-03
1.819468e-02
3.187413e-02
4.593446e-02
6.064214e-02
7.657222e-02
9.400817e-02
1.125325e-01
1.311337e-01
1.487327e-01
1.646919e-01
1.788386e-01
1.909636e-01
2.003842e-01
2.062295e-01
2.083228e-01
2.078358e-01
2.070796e-01
2.084590e-01
2.132025e-01
2.207353e-01
2.292628e-01
2.372313e-01
2.444664e-01
2.519873e-01
2.607529e-01
2.705935e-01
2.803069e-01
2.886984e-01
2.954804e-01
3.012448e-01
3.067440e-01
3.123280e-01
3.180260e-01
3.240288e-01
3.309963e-01
3.398600e-01
3.512107e-01
3.646915e-01
3.789640e-01
3.924240e-01
4.040846e-01
4.138412e-01
4.220527e-01
4.291367e-01
4.356937e-01
4.427614e-01
4.514301e-01
4.618703e-01
4.728591e-01
4.825514e-01
4.898006e-01
4.946717e-01
4.978568e-01
5.000464e-01
5.020390e-01
5.050935e-01
5.106702e-01
5.196215e-01
5.317048e-01
5.459218e-01
5.612672e-01
5.770898e-01
5.928236e-01
6.076797e-01
6.209450e-01
6.326257e-01
6.434855e-01
6.541216e-01
6.640058e-01
6.717216e-01
6.763019e-01
6.782588e-01
6.792575e-01
6.808867e-01
6.838112e-01
6.879020e-01
6.927480e-01
6.977553e-01
7.019935e-01
7.045597e-01
7.054874e-01
7.061433e-01
7.083259e-01
7.128251e-01
7.190033e-01
7.258562e-01
7.333049e-01
7.422967e-01
7.538122e-01
7.679664e-01
7.839714e-01
8.007117e-01
8.173248e-01
8.334913e-01
8.493829e-01
8.652887e-01
8.811419e-01
8.963953e-01
9.104900e-01
9.235197e-01
9.363627e-01
9.500760e-01
9.652078e-01
9.818023e-01
1.000034e+00
1.020620e+00
1.044360e+00
1.071107e+00
1.099254e+00
1.126393e+00
1.150666e+00
1.171615e+00
1.189884e+00
1.206245e+00
1.221009e+00
1.234279e+00
1.246484e+00
1.258371e+00
1.270446e+00
1.282607e+00
1.294487e+00
1.306167e+00
1.318443e+00
1.332304e+00
1.348084e+00
1.365114e+00
1.382230e+00
1.398663e+00
1.414564e+00
1.430803e+00
1.448387e+00
1.467996e+00
1.489846e+00
1.513715e+00
1.539007e+00
1.564886e+00
1.590568e+00
1.615644e+00
1.640226e+00
1.664769e+00
1.689666e+00
1.714900e+00
1.739962e+00
1.764118e+00
1.786826e+00
1.808025e+00
1.828117e+00
1.847678e+00
1.867149e+00
1.886696e+00
1.906336e+00
1.926179e+00
1.946554e+00
1.967764e+00
1.989527e+00
2.010620e+00
2.029251e+00
2.044019e+00
2.054603e+00
2.061593e+00
2.065799e+00
2.067841e+00
2.068257e+00
2.067797e+00
2.067411e+00
2.067920e+00
2.069763e+00
2.073004e+00
2.077345e+00
2.082062e+00
2.086180e+00
2.089054e+00
2.090815e+00
2.092024e+00
2.092838e+00
2.092760e+00
2.091322e+00
2.088854e+00
2.086383e+00
2.084867e+00
2.084679e+00
2.085743e+00
2.087886e+00
2.090911e+00
2.094467e+00
2.098069e+00
2.101369e+00
2.104389e+00
2.107508e+00
2.111336e+00
2.116644e+00
2.124250e+00
2.134640e+00
2.147438e+00
2.161218e+00
2.173961e+00
2.183966e+00
2.190606e+00
2.194447e+00
2.196756e+00
2.198860e+00
2.201715e+00
2.205687e+00
2.210558e+00
2.215828e+00
2.221259e+00
2.227271e+00
2.234831e+00
2.244894e+00
2.257882e+00
2.273492e+00
2.290844e+00
2.308752e+00
2.326059e+00
2.341958e+00
2.356149e+00
2.368678e+00
2.379503e+00
2.388231e+00
2.394377e+00
2.398059e+00
2.400540e+00
2.404043e+00
2.410873e+00
2.422503e+00
2.439214e+00
2.460331e+00
2.484652e+00
2.510814e+00
2.537513e+00
2.563693e+00
2.588736e+00
2.612543e+00
2.635281e+00
2.656869e+00
2.676658e+00
2.693772e+00
2.707974e+00
2.720246e+00
2.732412e+00
2.746072e+00
2.761816e+00
2.779364e+00
2.798275e+00
2.818363e+00
2.839392e+00
2.860598e+00
2.880771e+00
2.898864e+00
2.914498e+00
2.928024e+00
2.940280e+00
2.952271e+00
2.964796e+00
2.978056e+00
2.991440e+00
3.003763e+00
3.014014e+00
3.022185e+00
3.029396e+00
3.036950e+00
3.044995e+00
3.052188e+00
3.056830e+00
3.058379e+00
3.057875e+00
3.057069e+00
3.057241e+00
3.058688e+00
3.060939e+00
3.063260e+00
3.065024e+00
3.065877e+00
3.065794e+00
3.065132e+00
3.064603e+00
3.064984e+00
3.066631e+00
3.069158e+00
3.071656e+00
3.073245e+00
3.073429e+00
3.071994e+00
3.068699e+00
3.063282e+00
3.055894e+00
3.047428e+00
3.039189e+00
3.032101e+00
3.026265e+00
3.021274e+00
3.016778e+00
3.012577e+00
3.008326e+00
3.003488e+00
2.997819e+00
2.991708e+00
2.985786e+00
2.980197e+00
2.974412e+00
2.967842e+00
2.960596e+00
2.953597e+00
2.948012e+00
2.944551e+00
2.943146e+00
2.943051e+00
2.943110e+00
2.942136e+00
2.939380e+00
2.934937e+00
2.929703e+00
2.924731e+00
2.920400e+00
2.916112e+00
2.910837e+00
2.904055e+00
2.896247e+00
2.888556e+00
2.881943e+00
2.876570e+00
2.871773e+00
2.866499e+00
2.859864e+00
2.851521e+00
2.841726e+00
2.831143e+00
2.820577e+00
2.810783e+00
2.802243e+00
2.794788e+00
2.787395e+00
2.778640e+00
2.767683e+00
2.754874e+00
2.741301e+00
2.727765e+00
2.714193e+00
2.699914e+00
2.684320e+00
2.667263e+00
2.649022e+00
2.630056e+00
2.610805e+00
2.591563e+00
2.572409e+00
2.553271e+00
2.534178e+00
2.515514e+00
2.497990e+00
2.482276e+00
2.468591e+00
2.456604e+00
2.445668e+00
2.435091e+00
2.424246e+00
2.412609e+00
2.399812e+00
2.385614e+00
2.369734e+00
2.351757e+00
2.331367e+00
2.308767e+00
2.284881e+00
2.261095e+00
2.238731e+00
2.218643e+00
2.201085e+00
2.185708e+00
2.171615e+00
2.157535e+00
2.142191e+00
2.124813e+00
2.105549e+00
2.085393e+00
2.065543e+00
2.046685e+00
2.028750e+00
2.011164e+00
1.993159e+00
1.973949e+00
1.952982e+00
1.930356e+00
1.907079e+00
1.884785e+00
1.864876e+00
1.847633e+00
1.831998e+00
1.816322e+00
1.799579e+00
1.781970e+00
1.764361e+00
1.747175e+00
1.729928e+00
1.711868e+00
1.692987e+00
1.674293e+00
1.657074e+00
1.641923e+00
1.628421e+00
1.615580e+00
1.602471e+00
1.588564e+00
1.573771e+00
1.558366e+00
1.542890e+00
1.527911e+00
1.513685e+00
1.500013e+00
1.486430e+00
1.472521e+00
1.458025e+00
1.442734e+00
1.426419e+00
1.408927e+00
1.390352e+00
1.371092e+00
1.351757e+00
1.333016e+00
1.315459e+00
1.299449e+00
1.284923e+00
1.271317e+00
1.257802e+00
1.243699e+00
1.228780e+00
1.213256e+00
1.197486e+00
1.181601e+00
1.165311e+00
1.148126e+00
1.129877e+00
1.111073e+00
1.092708e+00
1.075661e+00
1.060213e+00
1.046050e+00
1.032709e+00
1.020064e+00
1.008483e+00
9.985662e-01
9.906691e-01
9.845875e-01
9.795858e-01
9.746635e-01
9.688293e-01
9.612928e-01
9.516338e-01
9.399371e-01
9.267507e-01
9.128167e-01
8.987313e-01
8.847324e-01
8.706763e-01
8.561963e-01
8.410096e-01
8.252226e-01
8.093447e-01
7.938499e-01
7.785793e-01
7.626093e-01
7.448946e-01
7.251825e-01
7.043275e-01
6.837096e-01
6.643124e-01
6.462629e-01
6.291215e-01
6.125246e-01
5.965650e-01
5.816242e-01
5.678814e-01
5.549697e-01
5.421163e-01
5.286738e-01
5.145663e-01
5.002520e-01
4.862886e-01
4.729450e-01
4.601454e-01
4.476405e-01
4.351946e-01
4.227280e-01
4.103838e-01
3.984199e-01
3.869007e-01
3.754144e-01
3.631330e-01
3.492564e-01
3.335306e-01
3.164353e-01
2.988537e-01
2.814296e-01
2.641349e-01
2.464641e-01
2.280708e-01
2.091428e-01
1.900862e-01
1.709008e-01
1.509855e-01
1.295927e-01
1.064136e-01
8.174735e-02
5.631023e-02
3.107246e-02
7.147121e-03
-1.456801e-02
-3.391027e-02
-5.158620e-02
-6.863058e-02
-8.564032e-02
-1.024913e-01
-1.187076e-01
-1.340459e-01
-1.488110e-01
-1.637839e-01
-1.798924e-01
-1.977924e-01
-2.176073e-01
-2.390268e-01
-2.616237e-01
-2.849187e-01
-3.080080e-01
-3.293067e-01
-3.470948e-01
-3.606232e-01
-3.706574e-01
-3.789014e-01
-3.871234e-01
-3.968849e-01
-4.097067e-01
-4.269946e-01
-4.495475e-01
-4.771010e-01
-5.083764e-01
-5.416089e-01
-5.751213e-01
-6.076074e-01
-6.381563e-01
-6.662200e-01
-6.916237e-01
-7.145587e-01
-7.354404e-01
-7.546446e-01
-7.722989e-01
-7.882919e-01
-8.024933e-01
-8.150546e-01
-8.265815e-01
-8.380138e-01
-8.502737e-01
-8.639511e-01
-8.792408e-01
-8.960752e-01
-9.142182e-01
-9.332266e-01
-9.524173e-01
-9.709818e-01
-9.882339e-01
-1.003853e+00
-1.017976e+00
-1.031043e+00
-1.043487e+00
-1.055502e+00
-1.067078e+00
-1.078208e+00
-1.088980e+00
-1.099438e+00
-1.109460e+00
-1.118918e+00
-1.128038e+00
-1.137526e+00
-1.148175e+00
-1.160265e+00
-1.173339e+00
-1.186534e+00
-1.199081e+00
-1.210544e+00
-1.220815e+00
-1.230017e+00
-1.238376e+00
-1.246088e+00
-1.253286e+00
-1.260149e+00
-1.266962e+00
-1.273974e+00
-1.281093e+00
-1.287754e+00
-1.293130e+00
-1.296559e+00
-1.297780e+00
-1.296883e+00
-1.294242e+00
-1.290613e+00
-1.287197e+00
-1.285320e+00
-1.285797e+00
-1.288507e+00
-1.292630e+00
-1.297361e+00
-1.302475e+00
-1.308305e+00
-1.315254e+00
-1.323287e+00
-1.331763e+00
-1.339720e+00
-1.346393e+00
-1.351552e+00
-1.355428e+00
-1.358384e+00
-1.360694e+00
-1.362653e+00
-1.364775e+00
-1.367760e+00
-1.372154e+00
-1.378024e+00
-1.384934e+00
-1.392178e+00
-1.399011e+00
-1.404716e+00
-1.408727e+00
-1.410965e+00
-1.412118e+00
-1.413413e+00
-1.415922e+00
-1.419908e+00
-1.424650e+00
-1.428851e+00
-1.431350e+00
-1.431714e+00
-1.430286e+00
-1.427745e+00
-1.424664e+00
-1.421426e+00
-1.418351e+00
-1.415662e+00
-1.413300e+00
-1.410805e+00
-1.407478e+00
-1.402756e+00
-1.396593e+00
-1.389591e+00
-1.382699e+00
-1.376642e+00
-1.371522e+00
-1.366944e+00
-1.362481e+00
-1.357986e+00
-1.353501e+00
-1.348969e+00
-1.344089e+00
-1.338446e+00
-1.331789e+00
-1.324248e+00
-1.316290e+00
-1.308403e+00
-1.300818e+00
-1.293496e+00
-1.286304e+00
-1.279126e+00
-1.271859e+00
-1.264459e+00
-1.257068e+00
-1.250036e+00
-1.243743e+00
-1.238316e+00
-1.233445e+00
-1.228404e+00
-1.222316e+00
-1.214628e+00
-1.205547e+00
-1.196064e+00
-1.187455e+00
-1.180568e+00
-1.175366e+00
-1.171017e+00
