EVENT_NAME: EMILIA_2ND_SHOCK
EVENT_ID: IT-2012-0011
EVENT_DATE_YYYYMMDD: 20120529
EVENT_TIME_HHMMSS: 070002
EVENT_LATITUDE_DEGREE: 44.8417
EVENT_LONGITUDE_DEGREE: 11.0657
EVENT_DEPTH_KM: 8.1
HYPOCENTER_REFERENCE: INGV-CNT_Seismic_Bulletin
MAGNITUDE_W: 6.0
MAGNITUDE_W_REFERENCE: RCMT-INGV
MAGNITUDE_L: 5.8
MAGNITUDE_L_REFERENCE: INGV-CNT_Seismic_Bulletin
FOCAL_MECHANISM: TF
NETWORK: IV
STATION_CODE: T0813
STATION_NAME: T0813
STATION_LATITUDE_DEGREE: 44.877800
STATION_LONGITUDE_DEGREE: 11.199200
STATION_ELEVATION_M: 1
LOCATION: 
SENSOR_DEPTH_M: 1.0
VS30_M/S: 
SITE_CLASSIFICATION_EC8: C*
MORPHOLOGIC_CLASSIFICATION: 
EPICENTRAL_DISTANCE_KM: 11.3
EARTHQUAKE_BACKAZIMUTH_DEGREE: 249.2
DATE_TIME_FIRST_SAMPLE_YYYYMMDD_HHMMSS: 20120529_065942.000
DATE_TIME_FIRST_SAMPLE_PRECISION: milliseconds
SAMPLING_INTERVAL_S: 0.005000
NDATA: 30001
DURATION_S: 150.005
STREAM: HNZ
UNITS: cm
INSTRUMENT: sensor = Episensor FBA ES-T [Kinemetrics] | digitizer = Unknown [Unknown]
INSTRUMENT_ANALOG/DIGITAL: D
INSTRUMENTAL_FREQUENCY_HZ: 
INSTRUMENTAL_DAMPING: 
FULL_SCALE_G: 
N_BIT_DIGITAL_CONVERTER: 
PGD_CM: 2.118935
TIME_PGD_S: 29.925000
BASELINE_CORRECTION: BASELINE REMOVED
FILTER_TYPE: BUTTERWORTH
FILTER_ORDER: 2
LOW_CUT_FREQUENCY_HZ: 0.060
HIGH_CUT_FREQUENCY_HZ: 40.000
LATE/NORMAL_TRIGGERED: NT
DATABASE_VERSION: DYNA 1.0
HEADER_FORMAT: DYNA 1.2
DATA_TYPE: DISPLACEMENT
PROCESSING: manual (Paolucci et al., 2011)
DATA_TIMESTAMP_YYYYMMDD_HHMMSS: 
DATA_LICENSE: CC-BY4_0 (http://creativecommons.org/licenses/by/4.0/)
DATA_CITATION: ESM working group (2015), European Strong-Motion database, version 0.1, Network Activity 3: Networking acceleration networks and SM data users. Project NERA (www.nera-eu.org)
DATA_CREATOR: ESM working group
ORIGINAL_DATA_MEDIATOR_CITATION: Orfeus - European Integrated Data Archive (EIDA) http://www.orfeus-eu.org/eida/
ORIGINAL_DATA_MEDIATOR: Orfeus - European Integrated Data Archive (EIDA)
ORIGINAL_DATA_CREATOR_CITATION: Data for this study comes from the Italian national seismic network operated by Istituto Nazionale di Geofisica e Vulcanologia and archived at the European Integrated Data Archive http://eida.rm.ingv.it/
ORIGINAL_DATA_CREATOR: network: IV (Italian National Seismic Network); owner: Istituto Nazionale di Geofisica e Vulcanologia
USER1: 
USER2: 
USER3: 
USER4: 
USER5: 
[...]
-3.937820e-01
-3.914078e-01
-3.898787e-01
-3.893845e-01
-3.897319e-01
-3.905560e-01
-3.915833e-01
-3.926513e-01
-3.935647e-01
-3.940993e-01
-3.941648e-01
-3.938334e-01
-3.931608e-01
-3.920811e-01
-3.905750e-01
-3.888787e-01
-3.874073e-01
-3.864594e-01
-3.860482e-01
-3.860042e-01
-3.861562e-01
-3.863940e-01
-3.866505e-01
-3.869089e-01
-3.872519e-01
-3.878791e-01
-3.890304e-01
-3.908395e-01
-3.932302e-01
-3.959442e-01
-3.986618e-01
-4.011032e-01
-4.030796e-01
-4.045438e-01
-4.056189e-01
-4.065263e-01
-4.074262e-01
-4.082966e-01
-4.089516e-01
-4.091957e-01
-4.090234e-01
-4.087144e-01
-4.086852e-01
-4.091595e-01
-4.099708e-01
-4.107043e-01
-4.110178e-01
-4.108306e-01
-4.103017e-01
-4.097512e-01
-4.095901e-01
-4.101687e-01
-4.115695e-01
-4.135422e-01
-4.156952e-01
-4.177893e-01
-4.198560e-01
-4.220523e-01
-4.244469e-01
-4.269468e-01
-4.293501e-01
-4.314286e-01
-4.330258e-01
-4.341486e-01
-4.349398e-01
-4.355036e-01
-4.358156e-01
-4.358536e-01
-4.356914e-01
-4.353517e-01
-4.346646e-01
-4.334372e-01
-4.317403e-01
-4.298633e-01
-4.279986e-01
-4.261338e-01
-4.242505e-01
-4.224541e-01
-4.208058e-01
-4.191291e-01
-4.171156e-01
-4.146069e-01
-4.117119e-01
-4.086787e-01
-4.057331e-01
-4.030319e-01
-4.006746e-01
-3.987264e-01
-3.972786e-01
-3.965173e-01
-3.966858e-01
-3.979268e-01
-4.001583e-01
-4.030890e-01
-4.063138e-01
-4.094365e-01
-4.122263e-01
-4.147404e-01
-4.172349e-01
-4.198800e-01
-4.226083e-01
-4.252853e-01
-4.279694e-01
-4.309345e-01
-4.344581e-01
-4.386307e-01
-4.433300e-01
-4.482724e-01
-4.530659e-01
-4.573069e-01
-4.607551e-01
-4.634668e-01
-4.657350e-01
-4.678655e-01
-4.700053e-01
-4.721698e-01
-4.743662e-01
-4.766305e-01
-4.789643e-01
-4.813290e-01
-4.837315e-01
-4.862343e-01
-4.888279e-01
-4.913490e-01
-4.936084e-01
-4.955859e-01
-4.974416e-01
-4.993669e-01
-5.014793e-01
-5.038330e-01
-5.064479e-01
-5.092997e-01
-5.123127e-01
-5.153422e-01
-5.181137e-01
-5.202397e-01
-5.214503e-01
-5.218672e-01
-5.219381e-01
-5.220002e-01
-5.219873e-01
-5.216548e-01
-5.210319e-01
-5.205386e-01
-5.206276e-01
-5.213525e-01
-5.222840e-01
-5.227891e-01
-5.223673e-01
-5.207842e-01
-5.180057e-01
-5.141217e-01
-5.093777e-01
-5.042324e-01
-4.992514e-01
-4.948191e-01
-4.909289e-01
-4.872845e-01
-4.836330e-01
-4.800384e-01
-4.768718e-01
-4.745355e-01
-4.731460e-01
-4.724349e-01
-4.719386e-01
-4.712990e-01
-4.704298e-01
-4.694815e-01
-4.687016e-01
-4.682772e-01
-4.682077e-01
-4.682664e-01
-4.681052e-01
-4.674415e-01
-4.662017e-01
-4.645783e-01
-4.629791e-01
-4.618082e-01
-4.611555e-01
-4.606811e-01
-4.598954e-01
-4.586054e-01
-4.570673e-01
-4.557327e-01
-4.549117e-01
-4.546630e-01
-4.548889e-01
-4.554192e-01
-4.560278e-01
-4.565059e-01
-4.568421e-01
-4.573380e-01
-4.584331e-01
-4.603070e-01
-4.626921e-01
-4.651762e-01
-4.676697e-01
-4.704837e-01
-4.739195e-01
-4.778312e-01
-4.815986e-01
-4.844631e-01
-4.859025e-01
-4.858222e-01
-4.845193e-01
-4.824958e-01
-4.802624e-01
-4.782448e-01
-4.767292e-01
-4.757384e-01
-4.749848e-01
-4.740934e-01
-4.729158e-01
-4.715753e-01
-4.701962e-01
-4.686549e-01
-4.666154e-01
-4.637766e-01
-4.601394e-01
-4.561701e-01
-4.527312e-01
-4.507065e-01
-4.505016e-01
-4.518235e-01
-4.539166e-01
-4.559972e-01
-4.575644e-01
-4.584845e-01
-4.588643e-01
-4.587974e-01
-4.582086e-01
-4.570323e-01
-4.555914e-01
-4.547145e-01
-4.553665e-01
-4.580755e-01
-4.626304e-01
-4.682777e-01
-4.742038e-01
-4.798538e-01
-4.848683e-01
-4.888877e-01
-4.916339e-01
-4.932262e-01
-4.942145e-01
-4.951361e-01
-4.960885e-01
-4.967987e-01
-4.970069e-01
-4.966396e-01
-4.956882e-01
-4.940997e-01
-4.917767e-01
-4.886059e-01
-4.845695e-01
-4.799795e-01
-4.755411e-01
-4.719380e-01
-4.693090e-01
-4.673062e-01
-4.657130e-01
-4.648327e-01
-4.651363e-01
-4.666424e-01
-4.688078e-01
-4.710118e-01
-4.730806e-01
-4.753849e-01
-4.785078e-01
-4.827393e-01
-4.877456e-01
-4.927613e-01
-4.972190e-01
-5.011762e-01
-5.050755e-01
-5.091713e-01
-5.133259e-01
-5.172631e-01
-5.207473e-01
-5.234655e-01
-5.250191e-01
-5.253149e-01
-5.249124e-01
-5.247147e-01
-5.251890e-01
-5.259507e-01
-5.261664e-01
-5.253070e-01
-5.234636e-01
-5.210001e-01
-5.180160e-01
-5.141887e-01
-5.091028e-01
-5.027251e-01
-4.956091e-01
-4.886552e-01
-4.826190e-01
-4.777518e-01
-4.738053e-01
-4.703327e-01
-4.670580e-01
-4.640488e-01
-4.615236e-01
-4.593980e-01
-4.570260e-01
-4.534975e-01
-4.482067e-01
-4.411171e-01
-4.326173e-01
-4.232770e-01
-4.136626e-01
-4.041037e-01
-3.944721e-01
-3.843085e-01
-3.733434e-01
-3.618693e-01
-3.504450e-01
-3.392211e-01
-3.277468e-01
-3.155603e-01
-3.028358e-01
-2.902631e-01
-2.784072e-01
-2.674048e-01
-2.571904e-01
-2.477413e-01
-2.390231e-01
-2.308447e-01
-2.228816e-01
-2.148588e-01
-2.068382e-01
-1.993511e-01
-1.929418e-01
-1.874215e-01
-1.818554e-01
-1.755480e-01
-1.688549e-01
-1.627099e-01
-1.575619e-01
-1.531049e-01
-1.487646e-01
-1.440290e-01
-1.384022e-01
-1.314228e-01
-1.229006e-01
-1.130604e-01
-1.024842e-01
-9.191915e-02
-8.186270e-02
-7.214871e-02
-6.212075e-02
-5.141456e-02
-4.052395e-02
-3.046492e-02
-2.194625e-02
-1.494680e-02
-8.947174e-03
-3.485725e-03
1.380156e-03
5.109694e-03
7.278398e-03
8.183020e-03
8.737049e-03
9.758544e-03
1.154867e-02
1.408197e-02
1.717917e-02
2.033900e-02
2.275818e-02
2.390343e-02
2.396395e-02
2.343831e-02
2.233178e-02
2.000640e-02
1.587507e-02
1.013177e-02
3.767592e-03
-2.039402e-03
-6.577600e-03
-9.866643e-03
-1.244399e-02
-1.483056e-02
-1.699455e-02
-1.820548e-02
-1.750766e-02
-1.457008e-02
-1.017523e-02
-5.731688e-03
-2.093807e-03
1.208735e-03
5.528821e-03
1.189419e-02
2.023594e-02
2.968402e-02
3.942063e-02
4.917125e-02
5.903422e-02
6.909465e-02
7.932901e-02
8.978034e-02
1.005759e-01
1.116323e-01
1.225048e-01
1.327400e-01
1.423094e-01
1.515168e-01
1.604910e-01
1.689205e-01
1.763125e-01
1.823818e-01
1.871985e-01
1.911481e-01
1.948467e-01
1.989485e-01
2.038060e-01
2.092551e-01
2.148634e-01
2.205239e-01
2.267749e-01
2.344484e-01
2.440019e-01
2.551646e-01
2.670995e-01
2.788641e-01
2.899036e-01
3.003038e-01
3.104531e-01
3.203330e-01
3.293876e-01
3.372751e-01
3.444809e-01
3.518636e-01
3.597373e-01
3.677953e-01
3.757926e-01
3.837532e-01
3.914004e-01
3.978139e-01
4.020626e-01
4.042115e-01
4.056110e-01
4.082143e-01
4.135283e-01
4.219138e-01
4.325713e-01
4.441096e-01
4.552939e-01
4.655379e-01
4.749633e-01
4.841419e-01
4.937184e-01
5.040508e-01
5.149725e-01
5.257486e-01
5.352772e-01
5.425488e-01
5.471734e-01
5.495522e-01
5.504103e-01
5.500009e-01
5.477553e-01
5.428131e-01
5.349959e-01
5.253080e-01
5.154948e-01
5.071149e-01
5.009741e-01
4.972386e-01
4.957912e-01
4.963432e-01
4.982224e-01
5.001003e-01
5.001527e-01
4.969208e-01
4.902647e-01
4.814055e-01
4.719575e-01
4.630288e-01
4.552644e-01
4.493031e-01
4.457132e-01
4.446020e-01
4.457857e-01
4.494851e-01
4.564004e-01
4.667252e-01
4.791871e-01
4.913303e-01
5.009835e-01
5.076099e-01
5.122253e-01
5.160012e-01
5.190811e-01
5.207602e-01
5.205490e-01
5.188455e-01
5.167205e-01
5.153558e-01
5.155699e-01
5.174271e-01
5.201080e-01
5.223511e-01
5.232139e-01
5.224081e-01
5.200135e-01
5.161908e-01
5.112328e-01
5.056043e-01
4.997192e-01
4.937140e-01
4.875140e-01
4.810877e-01
4.747056e-01
4.691600e-01
4.656941e-01
4.653825e-01
4.683305e-01
4.735113e-01
4.795751e-01
4.859909e-01
4.935215e-01
5.035766e-01
5.168677e-01
5.324524e-01
5.481246e-01
5.618776e-01
5.729952e-01
5.817132e-01
5.880826e-01
5.915886e-01
5.919324e-01
5.898211e-01
5.866817e-01
5.835762e-01
5.805129e-01
5.768908e-01
5.726161e-01
5.687693e-01
5.671318e-01
5.689038e-01
5.736629e-01
5.795145e-01
5.844117e-01
5.874964e-01
5.892018e-01
5.901468e-01
5.902497e-01
5.890284e-01
5.863202e-01
5.823791e-01
5.775679e-01
5.723556e-01
5.674396e-01
5.633712e-01
5.600990e-01
5.571415e-01
5.539217e-01
5.497168e-01
5.438303e-01
5.365275e-01
5.296326e-01
5.253650e-01
5.244266e-01
5.256466e-01
5.273291e-01
5.284039e-01
5.283084e-01
5.265203e-01
5.227442e-01
5.173189e-01
5.111374e-01
5.052195e-01
5.004033e-01
4.972054e-01
4.957275e-01
4.957551e-01
4.970017e-01
4.991211e-01
5.016207e-01
5.041650e-01
5.070195e-01
5.108287e-01
5.157693e-01
5.212652e-01
5.267567e-01
5.323607e-01
5.384533e-01
5.448558e-01
5.508264e-01
5.557200e-01
5.592509e-01
5.612307e-01
5.615775e-01
5.607843e-01
5.600095e-01
5.602392e-01
5.613102e-01
5.620293e-01
5.615056e-01
5.604109e-01
5.606535e-01
5.634413e-01
5.677052e-01
5.707518e-01
5.705450e-01
5.672378e-01
5.625947e-01
5.583148e-01
5.550751e-01
5.528837e-01
5.520058e-01
5.534480e-01
5.585316e-01
5.678938e-01
5.807630e-01
5.951871e-01
6.090067e-01
6.207046e-01
6.297016e-01
6.363141e-01
6.414627e-01
6.459863e-01
6.498716e-01
6.522576e-01
6.524886e-01
6.512043e-01
6.502088e-01
6.511759e-01
6.545823e-01
6.598592e-01
6.662220e-01
6.730770e-01
6.799630e-01
6.867938e-01
6.942856e-01
7.036558e-01
7.156096e-01
7.297704e-01
7.451761e-01
7.610202e-01
7.767906e-01
7.921095e-01
8.067334e-01
8.205552e-01
8.334473e-01
8.452501e-01
8.560738e-01
8.664030e-01
8.766358e-01
8.866310e-01
8.960118e-01
9.050035e-01
9.147302e-01
9.263256e-01
9.396053e-01
9.528132e-01
9.639347e-01
9.722481e-01
9.784489e-01
9.834258e-01
9.873531e-01
9.899379e-01
9.910372e-01
9.908921e-01
9.900874e-01
9.894031e-01
9.893288e-01
9.894695e-01
9.888066e-01
9.868962e-01
9.845754e-01
9.830940e-01
9.826174e-01
9.819926e-01
9.800452e-01
9.768112e-01
9.734626e-01
9.713024e-01
9.709406e-01
9.721472e-01
9.742442e-01
9.767173e-01
9.794902e-01
9.825113e-01
9.852144e-01
9.868402e-01
9.875304e-01
9.887369e-01
9.921502e-01
9.983088e-01
1.006348e+00
1.014804e+00
1.022405e+00
1.028460e+00
1.033083e+00
1.037038e+00
1.041053e+00
1.045365e+00
1.049971e+00
1.055044e+00
1.060857e+00
1.067508e+00
1.074980e+00
1.083231e+00
1.091931e+00
1.100295e+00
1.107472e+00
1.113110e+00
1.117530e+00
1.121479e+00
1.125833e+00
1.131248e+00
1.137764e+00
1.144717e+00
1.151210e+00
1.156693e+00
1.160970e+00
1.163762e+00
1.164612e+00
1.163451e+00
1.161052e+00
1.158558e+00
1.156517e+00
1.154650e+00
1.152683e+00
1.151252e+00
1.151807e+00
1.155692e+00
1.163349e+00
1.174273e+00
1.187579e+00
1.202576e+00
1.218773e+00
1.235468e+00
1.251631e+00
1.266394e+00
1.279673e+00
1.292212e+00
1.305055e+00
1.318927e+00
1.333831e+00
1.349030e+00
1.363513e+00
1.376727e+00
1.388920e+00
1.400641e+00
1.411901e+00
1.421961e+00
1.430033e+00
1.436085e+00
1.440894e+00
1.445407e+00
1.450130e+00
1.454997e+00
1.459544e+00
1.463109e+00
1.465136e+00
1.465558e+00
1.464935e+00
1.464216e+00
1.464300e+00
1.465695e+00
1.468429e+00
1.472216e+00
1.476815e+00
1.482266e+00
1.488705e+00
1.496090e+00
1.504201e+00
1.512782e+00
1.521493e+00
1.529851e+00
1.537515e+00
1.544664e+00
1.551858e+00
1.559605e+00
1.568169e+00
1.577621e+00
1.587773e+00
1.598082e+00
1.607860e+00
1.616698e+00
1.624706e+00
1.632511e+00
1.641076e+00
1.651186e+00
1.662924e+00
1.675759e+00
1.689292e+00
1.703663e+00
1.718983e+00
1.734582e+00
1.749305e+00
1.762640e+00
1.775299e+00
1.788570e+00
1.803297e+00
1.819466e+00
1.836433e+00
1.853343e+00
1.869519e+00
1.884686e+00
1.898753e+00
1.911298e+00
1.921515e+00
1.928869e+00
1.933724e+00
1.937122e+00
1.939994e+00
1.942818e+00
1.945961e+00
1.950001e+00
1.955459e+00
1.962293e+00
1.969753e+00
1.976742e+00
1.982389e+00
1.986535e+00
1.989752e+00
1.992747e+00
1.995659e+00
1.997999e+00
1.999327e+00
1.999870e+00
2.000401e+00
2.001658e+00
2.004026e+00
2.007601e+00
2.012219e+00
2.017377e+00
2.022384e+00
2.026645e+00
2.029727e+00
2.031267e+00
2.031108e+00
2.029589e+00
2.027492e+00
2.025533e+00
2.024025e+00
2.023074e+00
2.022907e+00
2.023721e+00
2.025241e+00
2.026649e+00
2.027122e+00
2.026438e+00
2.025054e+00
2.023638e+00
2.022501e+00
2.021414e+00
2.019878e+00
2.017574e+00
2.014684e+00
2.011847e+00
2.009749e+00
2.008601e+00
2.007924e+00
2.006901e+00
2.005046e+00
2.002580e+00
2.000208e+00
1.998586e+00
1.998005e+00
1.998414e+00
1.999586e+00
2.001329e+00
2.003658e+00
2.006680e+00
2.010085e+00
2.012817e+00
2.013595e+00
2.011868e+00
2.008107e+00
2.003111e+00
1.997300e+00
1.990861e+00
1.984307e+00
1.978511e+00
1.974158e+00
1.971402e+00
1.970145e+00
1.970452e+00
1.972461e+00
1.975947e+00
1.980274e+00
1.984878e+00
1.989661e+00
1.994786e+00
2.000230e+00
2.005764e+00
2.011339e+00
2.017238e+00
2.023737e+00
2.030719e+00
2.037703e+00
2.044246e+00
2.050255e+00
2.055901e+00
2.061266e+00
2.066168e+00
2.070385e+00
2.074000e+00
2.077422e+00
2.081084e+00
2.085200e+00
2.089728e+00
2.094360e+00
2.098505e+00
2.101469e+00
2.102915e+00
2.103160e+00
2.102972e+00
2.103002e+00
2.103428e+00
2.104086e+00
2.104888e+00
2.106053e+00
2.107943e+00
2.110661e+00
2.113790e+00
2.116553e+00
2.118301e+00
2.118935e+00
2.118873e+00
2.118608e+00
2.118255e+00
2.117503e+00
2.115992e+00
2.113768e+00
2.111333e+00
2.109214e+00
2.107516e+00
2.106009e+00
2.104575e+00
2.103361e+00
2.102366e+00
2.101012e+00
2.098318e+00
2.093560e+00
2.086724e+00
2.078432e+00
2.069530e+00
2.060673e+00
2.052109e+00
2.043699e+00
2.035143e+00
2.026262e+00
2.017179e+00
2.008309e+00
2.000156e+00
1.993029e+00
1.986891e+00
1.981435e+00
1.976243e+00
1.970919e+00
1.965231e+00
1.959238e+00
1.953238e+00
1.947499e+00
1.942038e+00
1.936751e+00
1.931710e+00
1.927203e+00
1.923372e+00
1.919854e+00
1.915896e+00
1.910874e+00
1.904703e+00
1.897790e+00
1.890683e+00
1.883768e+00
1.877113e+00
1.870388e+00
1.862947e+00
1.854173e+00
1.843829e+00
1.832126e+00
1.819501e+00
1.806411e+00
1.793208e+00
1.780000e+00
1.766600e+00
1.752732e+00
1.738325e+00
1.723525e+00
1.708432e+00
1.693027e+00
1.677443e+00
1.662143e+00
1.647599e+00
1.633788e+00
1.620127e+00
1.605946e+00
1.590994e+00
1.575478e+00
1.559697e+00
1.543713e+00
1.527364e+00
1.510472e+00
1.492995e+00
1.474970e+00
1.456429e+00
1.437454e+00
1.418344e+00
1.399644e+00
1.381951e+00
1.365638e+00
1.350712e+00
1.336858e+00
1.323566e+00
1.310293e+00
1.296687e+00
1.282768e+00
1.268906e+00
1.255554e+00
1.242962e+00
1.231076e+00
1.219550e+00
1.207766e+00
1.194935e+00
1.180418e+00
1.164111e+00
1.146560e+00
1.128630e+00
1.111042e+00
1.094168e+00
1.078092e+00
1.062699e+00
1.047726e+00
1.032918e+00
1.018234e+00
1.003843e+00
9.898575e-01
9.761987e-01
9.627034e-01
9.492216e-01
9.355229e-01
9.212278e-01
9.059820e-01
8.896955e-01
8.725858e-01
8.550806e-01
8.377367e-01
8.211499e-01
8.057792e-01
7.917667e-01
7.789414e-01
7.670628e-01
7.561194e-01
7.464054e-01
7.382798e-01
7.318385e-01
7.268280e-01
7.228169e-01
7.193466e-01
7.159286e-01
7.120590e-01
7.073843e-01
7.018425e-01
6.955481e-01
6.885364e-01
6.806746e-01
6.718485e-01
6.622012e-01
6.521330e-01
6.420435e-01
6.321114e-01
6.223446e-01
6.127819e-01
6.035854e-01
5.949637e-01
5.870743e-01
5.799932e-01
5.737008e-01
5.680943e-01
5.630781e-01
5.586370e-01
5.547637e-01
5.513145e-01
5.480103e-01
5.445939e-01
5.409088e-01
5.368282e-01
5.322407e-01
5.271859e-01
5.219132e-01
5.166828e-01
5.115394e-01
5.063816e-01
5.012267e-01
4.962852e-01
4.917295e-01
4.874794e-01
4.832756e-01
4.789110e-01
4.743444e-01
4.696052e-01
4.646240e-01
4.591855e-01
4.530787e-01
4.463141e-01
4.391447e-01
4.318082e-01
4.242723e-01
4.162748e-01
4.075629e-01
3.980243e-01
3.876272e-01
3.763569e-01
3.642166e-01
3.511881e-01
3.371883e-01
3.221639e-01
3.062918e-01
2.900674e-01
2.741655e-01
2.591915e-01
2.454721e-01
2.329571e-01
2.213301e-01
2.103208e-01
1.999765e-01
1.906431e-01
1.827301e-01
1.765634e-01
1.723831e-01
1.702655e-01
1.699355e-01
1.707529e-01
1.720210e-01
1.732945e-01
1.743053e-01
1.746381e-01
1.736275e-01
1.706600e-01
1.655481e-01
1.585817e-01
1.502813e-01
1.411737e-01
1.317731e-01
1.226708e-01
1.145311e-01
1.079212e-01
1.030967e-01
9.990581e-02
9.785339e-02
9.625487e-02
9.441227e-02
9.176802e-02
8.799683e-02
8.301473e-02
7.693129e-02
6.999701e-02
6.256209e-02
5.499379e-02
4.753694e-02
4.023782e-02
3.304160e-02
2.596313e-02
1.910277e-02
1.247604e-02
5.897301e-03
-9.087808e-04
-8.092394e-03
-1.559715e-02
-2.324814e-02
-3.086770e-02
-3.834890e-02
-4.568865e-02
-5.294263e-02
-6.011278e-02
-6.710593e-02
-7.385880e-02
-8.047168e-02
-8.713113e-02
-9.390751e-02
-1.007100e-01
-1.074675e-01
-1.143029e-01
-1.215011e-01
-1.293463e-01
-1.379841e-01
-1.473523e-01
-1.572018e-01
-1.672332e-01
-1.772749e-01
-1.873393e-01
-1.975154e-01
-2.078530e-01
-2.183448e-01
-2.289304e-01
-2.394628e-01
-2.497225e-01
-2.595448e-01
-2.689329e-01
-2.779983e-01
-2.867978e-01
-2.952403e-01
-3.031216e-01
-3.102343e-01
-3.165074e-01
-3.221315e-01
-3.275283e-01
-3.330922e-01
-3.389129e-01
-3.447636e-01
-3.503590e-01
-3.556087e-01
-3.606492e-01
-3.657152e-01
-3.710101e-01
-3.766336e-01
-3.825285e-01
-3.884494e-01
-3.940130e-01
-3.988609e-01
-4.028804e-01
-4.063379e-01
-4.097589e-01
-4.135564e-01
-4.176865e-01
-4.216725e-01
-4.250198e-01
-4.276449e-01
-4.299066e-01
-4.322401e-01
-4.348032e-01
-4.374633e-01
-4.400115e-01
-4.423031e-01
-4.442616e-01
-4.459278e-01
-4.476265e-01
-4.500465e-01
-4.540130e-01
-4.600431e-01
-4.680534e-01
-4.774856e-01
-4.877074e-01
-4.983084e-01
-5.090814e-01
-5.198404e-01
-5.303497e-01
-5.404334e-01
-5.500735e-01
-5.593397e-01
-5.682449e-01
-5.767316e-01
-5.848166e-01
-5.926937e-01
-6.006063e-01
-6.085677e-01
-6.162107e-01
-6.229499e-01
-6.283314e-01
-6.322559e-01
-6.349354e-01
-6.367218e-01
-6.379739e-01
-6.389735e-01
-6.398561e-01
-6.406085e-01
-6.411726e-01
-6.415582e-01
-6.418573e-01
-6.421792e-01
-6.425758e-01
-6.429774e-01
-6.431554e-01
-6.427870e-01
-6.416356e-01
-6.396902e-01
-6.371157e-01
-6.340885e-01
-6.306964e-01
-6.269494e-01
-6.228110e-01
-6.182138e-01
-6.131374e-01
-6.077598e-01
-6.025306e-01
-5.980130e-01
-5.945616e-01
-5.921137e-01
-5.902982e-01
-5.887705e-01
-5.874802e-01
-5.866830e-01
-5.867383e-01
-5.878546e-01
-5.899348e-01
-5.926046e-01
-5.954067e-01
-5.980246e-01
-6.004023e-01
-6.027392e-01
-6.053802e-01
-6.086048e-01
-6.124122e-01
-6.165114e-01
-6.205976e-01
-6.246818e-01
-6.291357e-01
-6.344179e-01
-6.407559e-01
-6.480413e-01
-6.559602e-01
-6.641793e-01
-6.724050e-01
-6.803120e-01
-6.874997e-01
-6.936029e-01
-6.984764e-01
-7.022544e-01
-7.052104e-01
-7.075522e-01
-7.093331e-01
-7.105205e-01
-7.111196e-01
