EVENT_NAME: EMILIA_2ND_SHOCK
EVENT_ID: IT-2012-0011
EVENT_DATE_YYYYMMDD: 20120529
EVENT_TIME_HHMMSS: 070002
EVENT_LATITUDE_DEGREE: 44.8417
EVENT_LONGITUDE_DEGREE: 11.0657
EVENT_DEPTH_KM: 8.1
HYPOCENTER_REFERENCE: INGV-CNT_Seismic_Bulletin
MAGNITUDE_W: 6.0
MAGNITUDE_W_REFERENCE: RCMT-INGV
MAGNITUDE_L: 5.8
MAGNITUDE_L_REFERENCE: INGV-CNT_Seismic_Bulletin
FOCAL_MECHANISM: TF
NETWORK: IV
STATION_CODE: T0814
STATION_NAME: T0814
STATION_LATITUDE_DEGREE: 44.793300
STATION_LONGITUDE_DEGREE: 10.969200
STATION_ELEVATION_M: 16
LOCATION: 
SENSOR_DEPTH_M: 1.0
VS30_M/S: 
SITE_CLASSIFICATION_EC8: C*
MORPHOLOGIC_CLASSIFICATION: 
EPICENTRAL_DISTANCE_KM: 9.3
EARTHQUAKE_BACKAZIMUTH_DEGREE: 54.8
DATE_TIME_FIRST_SAMPLE_YYYYMMDD_HHMMSS: 20120529_065942.000
DATE_TIME_FIRST_SAMPLE_PRECISION: milliseconds
SAMPLING_INTERVAL_S: 0.005000
NDATA: 20001
DURATION_S: 100.005
STREAM: HNZ
UNITS: cm/s^2
INSTRUMENT: sensor = Episensor FBA ES-T [Kinemetrics] | digitizer = Unknown [Unknown]
INSTRUMENT_ANALOG/DIGITAL: D
INSTRUMENTAL_FREQUENCY_HZ: 
INSTRUMENTAL_DAMPING: 
FULL_SCALE_G: 
N_BIT_DIGITAL_CONVERTER: 
PGA_CM/S^2: 252.521311
TIME_PGA_S: 26.190000
BASELINE_CORRECTION: BASELINE REMOVED
FILTER_TYPE: BUTTERWORTH
FILTER_ORDER: 2
LOW_CUT_FREQUENCY_HZ: 0.060
HIGH_CUT_FREQUENCY_HZ: 40.000
LATE/NORMAL_TRIGGERED: NT
DATABASE_VERSION: DYNA 1.0
HEADER_FORMAT: DYNA 1.2
DATA_TYPE: ACCELERATION
PROCESSING: manual (Paolucci et al., 2011)
DATA_TIMESTAMP_YYYYMMDD_HHMMSS: 
DATA_LICENSE: CC-BY4_0 (http://creativecommons.org/licenses/by/4.0/)
DATA_CITATION: ESM working group (2015), European Strong-Motion database, version 0.1, Network Activity 3: Networking acceleration networks and SM data users. Project NERA (www.nera-eu.org)
DATA_CREATOR: ESM working group
ORIGINAL_DATA_MEDIATOR_CITATION: Orfeus - European Integrated Data Archive (EIDA) http://www.orfeus-eu.org/eida/
ORIGINAL_DATA_MEDIATOR: Orfeus - European Integrated Data Archive (EIDA)
ORIGINAL_DATA_CREATOR_CITATION: Data for this study comes from the Italian national seismic network operated by Istituto Nazionale di Geofisica e Vulcanologia and archived at the European Integrated Data Archive http://eida.rm.ingv.it/
ORIGINAL_DATA_CREATOR: network: IV (Italian National Seismic Network); owner: Istituto Nazionale di Geofisica e Vulcanologia
USER1: 
USER2: 
USER3: 
USER4: 
USER5: 
[...]
0.022336
0.022642
0.021952
0.020400
0.018490
0.016861
0.015772
0.014881
0.014030
0.013975
0.015719
0.019100
0.022459
0.023953
0.022919
0.020030
0.016698
0.014400
0.014070
0.015738
0.018674
0.021873
0.024274
0.024951
0.023731
0.021358
0.018672
0.016128
0.014319
0.014144
0.015655
0.017432
0.018158
0.018051
0.017937
0.017990
0.018167
0.019090
0.021272
0.023676
0.024266
0.022108
0.018346
0.015157
0.013992
0.014753
0.016416
0.018218
0.020107
0.022188
0.024065
0.024931
0.024275
0.022412
0.020323
0.018747
0.017396
0.015608
0.013815
0.013502
0.015624
0.019626
0.023844
0.026532
0.026830
0.025217
0.023008
0.021083
0.019412
0.017986
0.017383
0.018026
0.019581
0.021418
0.023131
0.024104
0.023467
0.021356
0.019133
0.017656
0.016413
0.014967
0.014265
0.015331
0.017547
0.019568
0.020897
0.021683
0.021893
0.021430
0.020664
0.020142
0.019957
0.019976
0.020449
0.021711
0.023257
0.023906
0.023117
0.021309
0.019091
0.017089
0.016204
0.017128
0.019395
0.021637
0.023098
0.024161
0.025231
0.025841
0.025251
0.023661
0.022350
0.022289
0.022659
0.021336
0.017450
0.013079
0.011314
0.012810
0.015480
0.017319
0.018267
0.019098
0.019902
0.020511
0.020919
0.020849
0.020345
0.020620
0.022810
0.025795
0.026997
0.025981
0.025019
0.025566
0.026528
0.026302
0.024744
0.022441
0.019601
0.016762
0.015093
0.015219
0.016799
0.019125
0.021323
0.022320
0.021532
0.019615
0.017613
0.015752
0.014298
0.014590
0.017688
0.022497
0.026530
0.028513
0.028930
0.028133
0.025713
0.021835
0.017783
0.014659
0.012530
0.011377
0.011732
0.013915
0.017503
0.021613
0.025324
0.027913
0.028911
0.028079
0.025478
0.021707
0.018044
0.015938
0.015963
0.017441
0.019362
0.021394
0.023390
0.024464
0.023748
0.021769
0.020255
0.020657
0.022906
0.025356
0.026154
0.024925
0.022989
0.021866
0.021776
0.021898
0.021762
0.021786
0.022398
0.023211
0.023402
0.022592
0.021079
0.019548
0.018780
0.019255
0.020534
0.021253
0.020387
0.018466
0.017179
0.017796
0.020163
0.023026
0.024890
0.024825
0.023182
0.021300
0.020154
0.019752
0.019971
0.021174
0.023393
0.025552
0.026492
0.026243
0.025592
0.025023
0.024704
0.025004
0.026141
0.027429
0.027716
0.026441
0.023947
0.021231
0.019523
0.019589
0.021119
0.022865
0.023534
0.022761
0.021216
0.019667
0.018316
0.017294
0.017148
0.018196
0.019766
0.020871
0.021595
0.022703
0.023892
0.023756
0.022000
0.020519
0.021127
0.023214
0.024762
0.024744
0.023573
0.021758
0.019404
0.017022
0.015674
0.016112
0.018337
0.021898
0.025939
0.028937
0.029510
0.027834
0.025582
0.024295
0.024296
0.025182
0.026450
0.027182
0.026426
0.024505
0.022995
0.023001
0.024047
0.025039
0.025617
0.025971
0.026188
0.026352
0.026647
0.026929
0.026620
0.025566
0.024517
0.024037
0.023517
0.022052
0.020040
0.019083
0.020254
0.023260
0.027045
0.030382
0.032158
0.031764
0.029335
0.025511
0.021065
0.017065
0.014992
0.015801
0.018855
0.022379
0.025103
0.026843
0.027535
0.026820
0.024998
0.023540
0.023877
0.025875
0.028037
0.028823
0.027478
0.024299
0.020559
0.017899
0.017536
0.019719
0.023477
0.026931
0.028393
0.027587
0.025547
0.023248
0.021029
0.019372
0.019229
0.021032
0.023843
0.026036
0.026596
0.025568
0.023981
0.023462
0.025052
0.028218
0.031400
0.033350
0.033476
0.031236
0.026487
0.020355
0.014598
0.010387
0.008438
0.009663
0.014614
0.022219
0.029949
0.035731
0.039105
0.039887
0.036767
0.029292
0.020294
0.013930
0.012014
0.013541
0.016778
0.020453
0.023568
0.025962
0.028814
0.032840
0.035904
0.034079
0.026306
0.017012
0.012500
0.014915
0.020763
0.025303
0.027045
0.027792
0.029666
0.032695
0.034979
0.034853
0.032453
0.028997
0.025159
0.020693
0.015690
0.012041
0.012949
0.019826
0.029610
0.036286
0.035881
0.029939
0.023928
0.022488
0.025881
0.030088
0.030481
0.026420
0.022287
0.022917
0.027537
0.029912
0.025823
0.018894
0.016586
0.020612
0.024499
0.021706
0.013810
0.009235
0.014390
0.026741
0.036699
0.036549
0.027970
0.020300
0.020693
0.027022
0.031500
0.029957
0.025396
0.022787
0.023572
0.025718
0.026326
0.024011
0.020589
0.020371
0.025764
0.032983
0.034541
0.027051
0.015036
0.006871
0.007777
0.016311
0.026370
0.032087
0.031779
0.028364
0.026389
0.028447
0.033530
0.037702
0.036780
0.029987
0.021646
0.017895
0.020532
0.025720
0.029681
0.032867
0.036680
0.038279
0.032157
0.017325
0.000886
-0.006152
0.002720
0.023077
0.041332
0.045404
0.035033
0.021142
0.014860
0.018313
0.025797
0.030910
0.031294
0.028386
0.024820
0.022409
0.021603
0.022230
0.024297
0.027409
0.029698
0.028638
0.023758
0.017891
0.014802
0.016129
0.021016
0.027250
0.031845
0.031829
0.026546
0.019410
0.015842
0.018642
0.025259
0.029547
0.026999
0.019262
0.013396
0.015694
0.025513
0.035413
0.038012
0.032730
0.025385
0.021500
0.021372
0.021845
0.021233
0.021235
0.024132
0.029157
0.032528
0.031268
0.026332
0.021446
0.019293
0.019818
0.022091
0.026003
0.031159
0.035221
0.035126
0.030334
0.023963
0.020004
0.019540
0.020252
0.019411
0.016776
0.014804
0.016525
0.022891
0.031627
0.038742
0.041568
0.039884
0.034334
0.025813
0.016911
0.011816
0.013299
0.020087
0.027969
0.033144
0.034158
0.031671
0.027379
0.023028
0.019873
0.018515
0.018989
0.020961
0.023874
0.027039
0.029773
0.031540
0.031836
0.030047
0.025958
0.020616
0.016404
0.015938
0.020469
0.028736
0.037164
0.041652
0.039927
0.032979
0.024552
0.018700
0.017107
0.018529
0.020669
0.022315
0.023572
0.024768
0.025850
0.026304
0.025408
0.023177
0.021087
0.021085
0.023523
0.026734
0.029058
0.030339
0.031137
0.031458
0.030563
0.027559
0.022237
0.015928
0.011410
0.010862
0.013780
0.017725
0.021007
0.024025
0.028015
0.033054
0.037657
0.039899
0.038649
0.034209
0.028132
0.022215
0.017566
0.014643
0.013830
0.015384
0.018960
0.023639
0.028117
0.030791
0.030517
0.027880
0.025323
0.025258
0.027777
0.030483
0.030468
0.026609
0.020686
0.016342
0.016215
0.019894
0.024833
0.029043
0.032442
0.035796
0.039113
0.041323
0.041110
0.037803
0.031685
0.023943
0.016372
0.010717
0.008069
0.009069
0.014304
0.023464
0.034237
0.043073
0.047128
0.045384
0.038797
0.029885
0.021637
0.016144
0.013973
0.014650
0.017338
0.021081
0.024971
0.028359
0.030860
0.032003
0.030994
0.027268
0.021532
0.015869
0.012390
0.011977
0.014452
0.019178
0.025093
0.030595
0.033873
0.033745
0.030464
0.025531
0.020528
0.016464
0.013910
0.012952
0.013325
0.015122
0.018730
0.023733
0.028492
0.031285
0.031629
0.030224
0.028072
0.025908
0.024014
0.022321
0.020823
0.019936
0.020322
0.022203
0.024859
0.027121
0.028506
0.029300
0.029395
0.028161
0.025827
0.023893
0.023595
0.024454
0.025054
0.024899
0.024751
0.025427
0.026817
0.028027
0.028249
0.027490
0.026595
0.026366
0.026580
0.026321
0.025020
0.022643
0.019671
0.017410
0.017155
0.018747
0.020808
0.022452
0.024009
0.025786
0.027070
0.026957
0.025356
0.022681
0.019270
0.015951
0.014408
0.015599
0.018504
0.021514
0.024230
0.026987
0.029209
0.029343
0.026409
0.020952
0.014679
0.009708
0.007956
0.010500
0.016803
0.024532
0.030864
0.034373
0.035032
0.032603
0.026880
0.019555
0.013930
0.012091
0.013354
0.016005
0.019229
0.022667
0.025520
0.026977
0.026921
0.025728
0.023766
0.021673
0.020586
0.021478
0.024491
0.028668
0.031923
0.031846
0.027596
0.021251
0.016442
0.015103
0.016196
0.017671
0.018821
0.020385
0.023095
0.026770
0.030338
0.032312
0.031705
0.028727
0.024376
0.019481
0.014265
0.008940
0.005238
0.006620
0.014824
0.026304
0.034285
0.034984
0.030811
0.027022
0.026198
0.026454
0.024138
0.018023
0.011349
0.009493
0.014703
0.022998
0.027829
0.027004
0.023903
0.022592
0.023942
0.025440
0.024248
0.021125
0.016433
-0.004643
-0.076079
-0.216301
-0.382555
-0.494289
-0.532473
-0.604776
-0.885249
-1.467658
-2.253841
-2.973907
-3.343679
-3.246526
-2.781150
-2.144962
-1.466046
-0.683230
0.437139
2.048754
3.858036
5.049287
4.816299
3.177135
1.074274
-0.606133
-1.980966
-3.942446
-7.073444
-10.930792
-14.218012
-15.475319
-13.981369
-10.489538
-7.044892
-5.377356
-5.011125
-3.538062
0.779953
6.959077
11.987639
13.471716
11.669897
9.173509
8.453454
9.045447
7.119381
-0.932884
-13.433673
-22.917536
-22.719727
-13.459956
-1.376477
8.385778
15.160442
20.178261
22.505396
18.990475
8.375617
-6.024208
-19.028379
-27.860477
-32.359245
-31.666382
-22.544706
-2.576993
24.236881
46.775177
54.371044
44.963860
24.771570
1.509544
-19.622110
-34.439880
-38.722439
-30.604940
-13.089883
6.608198
21.031813
26.487370
22.715712
9.647683
-11.905208
-35.487373
-48.670223
-41.187466
-14.134953
19.437777
42.980274
46.988468
34.381664
16.505644
3.105319
-3.717785
-6.833676
-8.188185
-6.776042
-1.649320
4.528516
6.306654
0.806613
-7.853074
-10.921240
-3.336760
10.501001
20.591976
21.090954
14.377751
5.366389
-4.141478
-13.897940
-21.493841
-23.075993
-17.473036
-7.887542
0.785050
5.620167
6.981314
7.040379
7.289144
7.127185
4.795218
0.159490
-4.060312
-4.941429
-2.731546
-0.705947
-1.616128
-4.289780
-3.952844
3.089997
14.277979
21.083405
16.556658
3.600162
-5.689211
-1.466343
12.432731
20.804628
12.306623
-8.733643
-27.130836
-32.434853
-27.327492
-20.650986
-15.398367
-7.130323
6.918343
21.486353
27.209574
19.513784
3.069708
-11.984999
-18.055159
-14.871017
-7.144591
1.040568
8.081933
12.473451
11.758607
4.798814
-5.673839
-13.241973
-11.638739
-0.186902
14.036371
21.047174
16.805016
6.835330
0.051646
-0.365140
0.792037
-3.173907
-13.962558
-26.966782
-35.034424
-33.266640
-21.756651
-5.443900
9.186176
18.640549
22.946285
21.635290
12.127482
-5.377773
-22.931744
-28.858788
-18.011621
2.888273
19.808123
22.191977
11.825710
1.637323
3.916095
18.172171
31.603340
32.493275
21.010832
6.058548
-5.580632
-14.695094
-25.258009
-37.111153
-44.247238
-40.381874
-25.890539
-8.090911
5.832964
14.352167
19.111259
19.258858
11.043322
-6.330145
-26.103067
-37.213272
-33.098450
-17.099756
1.203576
14.287964
20.656822
22.010256
19.507280
14.121188
9.199191
10.080111
19.296568
32.180904
38.762852
31.773523
13.334809
-6.875873
-20.368017
-26.011229
-27.551332
-27.034445
-23.008577
-15.067741
-6.951054
-2.846339
-1.941478
0.425465
5.778253
9.557614
6.544928
-2.404757
-10.734057
-12.993124
-9.721762
-4.844060
0.515801
9.101421
21.869438
33.452202
35.279903
23.114140
0.644972
-24.081652
-44.701969
-57.905682
-59.706429
-44.442009
-11.490892
28.258558
56.996243
62.188221
44.377960
15.321285
-10.361686
-23.488527
-23.052706
-13.720161
-2.684122
2.967352
0.463711
-4.692765
-1.592680
15.474966
39.166695
53.760979
48.898331
28.474257
5.606859
-9.762067
-16.695721
-18.094126
-13.720778
-1.007848
17.792807
32.366791
31.724472
15.443758
-5.824375
-22.806795
-36.261234
-51.074123
-65.806137
-71.946762
-63.466404
-44.245525
-23.305431
-3.680468
18.798542
44.325073
61.985142
58.210873
31.786140
-2.550093
-26.291910
-31.830961
-24.618170
-13.401877
-2.219106
8.413846
16.525145
17.667345
8.301951
-10.868633
-33.962311
-51.541264
-54.436417
-37.990223
-5.282020
31.372099
55.104160
56.493820
41.183540
22.609028
7.635018
-7.216009
-26.116749
-46.162010
-60.682831
-66.811501
-67.336761
-66.259590
-64.981422
-62.223057
-55.599297
-43.892258
-29.689491
-19.586275
-19.148542
-25.598251
-26.582577
-9.495317
26.496826
68.744583
100.681999
111.074493
94.494164
48.953075
-18.704430
-85.683113
-120.964699
-107.622444
-55.923714
7.387880
56.836113
77.828529
71.401573
52.975704
40.927502
42.922585
53.362862
62.423775
63.486988
53.919811
36.368458
20.771755
18.463772
28.430307
33.142818
15.284752
-22.499777
-59.527306
-78.396584
-77.894814
-63.403625
-34.651512
9.632942
58.861561
90.579300
86.881500
50.149830
2.033086
-33.538048
-46.436974
-40.409122
-22.386969
1.176550
19.552528
19.734150
-2.118287
-35.403187
-66.071930
-89.601967
-107.809723
-116.128525
-101.286911
-55.604317
8.715827
64.179550
87.695442
75.763062
44.287479
18.610170
20.088528
52.047146
94.417641
115.813248
97.046120
45.636250
-12.328195
-53.058693
-69.985588
-73.467026
-77.557953
-85.777931
-88.441803
-70.043404
-18.399220
65.076836
158.219543
225.052979
236.302933
188.040222
103.941010
18.751688
-44.877369
-85.897621
-113.959633
-132.401535
-131.552963
-99.337738
-43.021149
4.609356
12.732981
-13.112629
-31.538454
-4.793497
63.230099
129.204834
147.656891
105.363258
25.267721
-53.591042
-100.137421
-105.381813
-78.932945
-35.269508
12.004544
47.845734
59.951992
47.436249
19.852283
-12.988983
-44.353313
-65.094925
-66.365837
-51.247696
-35.657322
-31.159266
-29.239586
-10.437504
28.432676
62.668888
63.017914
27.862896
-15.050646
-36.651100
-30.980333
-12.726657
3.227186
14.584955
24.614805
28.350601
12.428901
-30.441652
-90.966888
-148.644318
-182.365555
-174.816055
-117.040489
-16.831684
99.023216
195.577454
247.863342
252.521317
221.452911
164.471191
84.174789
-13.214817
-109.969467
-179.933578
-200.081818
-167.641830
-108.813187
-61.345219
-39.649780
-21.331524
24.401499
97.478584
159.615692
165.606476
101.801018
-2.477337
-94.257507
-129.411880
-99.095444
-33.129974
24.922022
51.509438
53.715565
49.966316
47.419861
39.094883
17.225451
-14.908396
-44.197571
-58.208740
-52.499424
-29.157761
6.141410
42.562893
63.594963
55.182884
18.996964
-22.673653
-40.602707
-23.816925
7.876346
22.883049
12.737068
0.850856
12.455946
42.601463
60.853325
45.546936
5.291192
-33.928143
-55.461342
-62.264584
-67.268860
-81.296043
-105.710983
-129.172440
-133.335770
-105.997932
-50.873173
12.723577
59.175121
70.118645
45.816170
5.122937
-30.025759
-52.725239
-71.950012
-93.205582
-103.016251
-80.725815
-22.365740
55.366154
131.195602
188.604706
210.044907
178.083664
92.447067
-16.737930
-98.384705
-113.229408
-66.792465
-4.152454
36.653904
58.189743
84.267479
116.957603
127.837761
94.302223
31.460915
-21.484669
-42.321514
-42.937370
-46.447315
-58.268559
-61.302578
-35.252254
18.457590
71.811325
94.292252
80.442955
49.406570
18.506330
-16.136333
-68.979652
-137.116714
-188.141342
-183.035294
-115.206985
-23.829992
36.932205
43.433067
17.405710
-2.629946
-0.255143
11.294494
15.659990
17.712646
34.850784
68.413269
95.165550
93.014420
66.361534
36.851948
17.154909
3.168978
-11.717987
-24.303856
-26.447845
-16.738914
-5.175606
-8.044459
-35.743500
-80.234116
-113.688286
-106.563728
-52.778801
24.161022
91.252686
130.209167
140.064117
122.633667
77.534248
11.511112
-57.535835
-110.264839
-136.811783
-138.644424
-125.870628
-112.137253
-104.804176
-97.831558
-76.983788
-35.314392
15.917107
53.390514
59.114780
34.167698
0.207246
-11.939932
18.260048
84.234200
153.096344
188.238449
175.643204
131.968765
91.097176
82.550240
115.068237
170.240051
209.216812
195.115417
122.323730
27.585369
-35.144756
-38.773235
-4.529537
22.544565
19.044418
1.733438
2.782908
32.308228
68.471863
79.746834
52.098724
-2.622100
-59.860962
-101.609146
-122.811508
-123.897652
-105.896446
-76.473083
-54.026337
-55.407852
-77.871910
-98.836426
-96.842903
-72.614105
-48.361633
-45.725929
-63.607571
-77.006485
-58.442421
-2.546640
68.921303
126.207520
155.057449
159.017639
142.075668
100.555298
34.908394
-38.861927
-94.567558
-113.102348
-95.297974
-57.582253
-14.109760
33.710678
86.122978
127.268982
128.249023
72.889259
-20.471006
-105.096863
-138.189545
-111.592842
-50.927502
13.130648
65.035896
99.029739
108.304893
86.418282
36.085705
-27.587994
-84.464211
-121.296257
-137.093613
-138.136429
-130.333633
-115.948181
-94.864723
-68.577721
-42.918339
-24.682064
-14.012928
-1.524277
23.535999
59.900799
90.903069
98.758018
81.566307
53.398396
30.551847
20.632433
22.379351
30.846664
41.144691
50.654724
59.828922
69.705513
77.461952
75.650833
58.311684
27.398191
-8.056838
-37.805550
-56.328892
-66.509888
-77.793083
-97.713440
-123.420723
-142.857513
-144.643509
-125.233742
-87.620743
-37.296291
18.027983
68.438171
106.620483
130.962692
142.067795
140.108414
125.997192
101.030540
64.630020
14.178597
-50.264690
-118.161102
-167.088058
-174.961090
-135.202286
-59.826103
27.405914
100.086868
138.355042
135.097961
96.479584
38.696728
-18.153267
-58.432400
-75.079308
-68.016090
-43.640991
-15.018778
3.588114
5.396880
-7.191730
-29.026682
-55.664680
-80.819275
-95.895302
-92.406471
-63.902058
-10.446311
54.982979
107.480354
122.853851
92.902657
31.496735
-31.804697
-67.647652
-64.388756
-33.620659
1.301619
21.140614
18.143221
-4.824091
-37.025082
-62.715672
-67.129272
-44.432175
-1.928322
42.949223
72.264465
78.036728
64.239944
39.376999
10.513296
-15.388114
-29.780003
-26.688942
-7.801455
18.899660
45.064148
66.169250
81.305603
89.824707
88.804222
74.576195
47.153465
13.327453
-15.561036
-31.006414
-33.311249
-29.225468
-23.874151
-17.309374
-8.080417
3.166031
12.986545
16.285858
9.634582
-4.881575
-19.594507
-26.498981
-23.721161
-17.260363
-16.153475
-24.276594
-34.856159
-34.116814
-14.076766
16.336525
35.560249
29.007021
4.047141
-17.851088
-23.901682
-20.437166
-18.677429
-15.984765
2.497293
42.727818
85.984634
100.023766
69.636566
13.133822
-34.942333
-53.791622
-48.905251
-40.928326
-43.111095
-47.039604
-31.533686
12.705051
68.344078
102.428864
92.421120
43.014317
-19.878155
-70.387245
-98.347977
-107.138329
-102.497444
-87.618324
-65.534447
-40.061718
-13.590674
13.969309
42.213211
64.836182
68.903633
44.151760
-4.600321
-55.545898
-83.033134
-76.032867
-45.867306
-15.189339
1.550832
6.015316
7.100824
9.398235
10.715497
7.883696
3.365612
5.256985
19.325541
40.296684
52.460693
41.907825
9.585118
-28.485992
-54.461582
-61.998978
-57.439987
-49.983589
-41.554115
-26.083218
2.093131
40.148724
76.150291
94.893730
85.963371
49.848415
-3.525248
-62.605999
-116.365395
-149.075134
-142.439514
-89.197937
-4.260575
78.844994
126.064522
123.399414
83.034012
29.835152
-16.907143
-49.269985
-64.119041
-56.815838
-23.866739
27.828358
76.086914
93.692696
69.707512
19.634668
-28.569557
-55.598167
-58.288410
-43.352150
-17.633423
16.442074
56.428368
91.487045
102.520782
75.985420
18.279072
-45.842770
-89.710136
-101.035339
-85.519020
-57.186287
-26.319250
3.660244
31.031361
51.340878
57.626110
44.439369
14.090521
-21.888552
-50.368320
-63.927818
-59.956276
-37.653755
0.004068
43.374298
79.634506
