EVENT_NAME: EMILIA_2ND_SHOCK
EVENT_ID: IT-2012-0011
EVENT_DATE_YYYYMMDD: 20120529
EVENT_TIME_HHMMSS: 070002
EVENT_LATITUDE_DEGREE: 44.8417
EVENT_LONGITUDE_DEGREE: 11.0657
EVENT_DEPTH_KM: 8.1
HYPOCENTER_REFERENCE: INGV-CNT_Seismic_Bulletin
MAGNITUDE_W: 6.0
MAGNITUDE_W_REFERENCE: RCMT-INGV
MAGNITUDE_L: 5.8
MAGNITUDE_L_REFERENCE: INGV-CNT_Seismic_Bulletin
FOCAL_MECHANISM: TF
NETWORK: IV
STATION_CODE: T0813
STATION_NAME: T0813
STATION_LATITUDE_DEGREE: 44.877800
STATION_LONGITUDE_DEGREE: 11.199200
STATION_ELEVATION_M: 1
LOCATION: 
SENSOR_DEPTH_M: 1.0
VS30_M/S: 
SITE_CLASSIFICATION_EC8: C*
MORPHOLOGIC_CLASSIFICATION: 
EPICENTRAL_DISTANCE_KM: 11.3
EARTHQUAKE_BACKAZIMUTH_DEGREE: 249.2
DATE_TIME_FIRST_SAMPLE_YYYYMMDD_HHMMSS: 20120529_065942.000
DATE_TIME_FIRST_SAMPLE_PRECISION: milliseconds
SAMPLING_INTERVAL_S: 0.005000
NDATA: 30001
DURATION_S: 150.005
STREAM: HNZ
UNITS: cm/s
INSTRUMENT: sensor = Episensor FBA ES-T [Kinemetrics] | digitizer = Unknown [Unknown]
INSTRUMENT_ANALOG/DIGITAL: D
INSTRUMENTAL_FREQUENCY_HZ: 
INSTRUMENTAL_DAMPING: 
FULL_SCALE_G: 
N_BIT_DIGITAL_CONVERTER: 
PGV_CM/S: -3.821987
TIME_PGV_S: 30.330000
BASELINE_CORRECTION: BASELINE REMOVED
FILTER_TYPE: BUTTERWORTH
FILTER_ORDER: 2
LOW_CUT_FREQUENCY_HZ: 0.060
HIGH_CUT_FREQUENCY_HZ: 40.000
LATE/NORMAL_TRIGGERED: NT
DATABASE_VERSION: DYNA 1.0
HEADER_FORMAT: DYNA 1.2
DATA_TYPE: VELOCITY
PROCESSING: manual (Paolucci et al., 2011)
DATA_TIMESTAMP_YYYYMMDD_HHMMSS: 
DATA_LICENSE: CC-BY4_0 (http://creativecommons.org/licenses/by/4.0/)
DATA_CITATION: ESM working group (2015), European Strong-Motion database, version 0.1, Network Activity 3: Networking acceleration networks and SM data users. Project NERA (www.nera-eu.org)
DATA_CREATOR: ESM working group
ORIGINAL_DATA_MEDIATOR_CITATION: Orfeus - European Integrated Data Archive (EIDA) http://www.orfeus-eu.org/eida/
ORIGINAL_DATA_MEDIATOR: Orfeus - European Integrated Data Archive (EIDA)
ORIGINAL_DATA_CREATOR_CITATION: Data for this study comes from the Italian national seismic network operated by Istituto Nazionale di Geofisica e Vulcanologia and archived at the European Integrated Data Archive http://eida.rm.ingv.it/
ORIGINAL_DATA_CREATOR: network: IV (Italian National Seismic Network); owner: Istituto Nazionale di Geofisica e Vulcanologia
USER1: 
USER2: 
USER3: 
USER4: 
USER5: 
[...]
-0.080530
-0.080538
-0.080540
-0.080536
-0.080531
-0.080533
-0.080542
-0.080558
-0.080577
-0.080597
-0.080613
-0.080619
-0.080604
-0.080559
-0.080478
-0.080365
-0.080229
-0.080075
-0.079880
-0.079582
-0.079102
-0.078382
-0.077413
-0.076235
-0.074922
-0.073551
-0.072154
-0.070676
-0.068986
-0.066977
-0.064645
-0.062074
-0.059339
-0.056437
-0.053280
-0.049751
-0.045810
-0.041607
-0.037510
-0.033984
-0.031385
-0.029818
-0.029126
-0.028941
-0.028809
-0.028414
-0.027789
-0.027247
-0.027126
-0.027616
-0.028789
-0.030668
-0.033234
-0.036400
-0.040037
-0.044022
-0.048359
-0.053211
-0.058588
-0.063952
-0.068341
-0.071040
-0.071912
-0.070938
-0.068059
-0.064008
-0.060719
-0.060082
-0.062248
-0.065705
-0.069028
-0.072075
-0.075618
-0.080158
-0.084886
-0.087595
-0.086009
-0.079805
-0.071462
-0.064719
-0.061953
-0.063013
-0.066214
-0.069856
-0.072688
-0.073744
-0.072741
-0.070826
-0.070291
-0.073053
-0.079419
-0.088066
-0.096662
-0.102654
-0.104404
-0.102462
-0.099797
-0.100359
-0.106903
-0.119413
-0.135084
-0.150069
-0.161559
-0.168360
-0.170550
-0.169701
-0.168869
-0.170499
-0.173429
-0.173218
-0.165648
-0.148724
-0.122980
-0.093286
-0.070053
-0.063630
-0.074103
-0.089320
-0.094722
-0.082767
-0.054376
-0.017672
0.012189
0.018985
-0.000037
-0.026487
-0.033190
-0.005902
0.047326
0.105773
0.150505
0.168544
0.149539
0.090239
0.008410
-0.055572
-0.066390
-0.030198
0.003642
-0.013702
-0.083397
-0.158023
-0.186080
-0.154198
-0.091654
-0.043012
-0.036277
-0.069993
-0.123238
-0.173388
-0.205213
-0.210858
-0.191661
-0.162536
-0.146086
-0.154701
-0.178275
-0.191894
-0.176421
-0.132454
-0.077775
-0.031963
0.001092
0.036185
0.088078
0.150565
0.200706
0.225316
0.233071
0.234009
0.218415
0.169777
0.094878
0.023433
-0.025084
-0.058272
-0.091772
-0.127114
-0.154690
-0.168380
-0.167681
-0.154353
-0.136476
-0.127928
-0.132588
-0.132357
-0.104750
-0.055669
-0.024904
-0.051795
-0.133881
-0.221242
-0.257721
-0.235048
-0.205723
-0.229964
-0.305440
-0.368350
-0.370182
-0.330226
-0.302582
-0.310867
-0.333946
-0.344678
-0.340497
-0.338976
-0.354968
-0.380537
-0.387325
-0.356549
-0.308270
-0.288508
-0.318933
-0.371670
-0.400516
-0.384650
-0.339439
-0.295299
-0.269537
-0.253478
-0.224816
-0.176958
-0.133262
-0.122420
-0.143416
-0.165414
-0.161231
-0.134324
-0.112353
-0.119787
-0.158878
-0.211804
-0.254838
-0.269690
-0.248795
-0.203115
-0.169107
-0.192013
-0.286078
-0.411907
-0.498446
-0.490326
-0.382267
-0.223288
-0.090742
-0.038267
-0.056328
-0.095425
-0.127222
-0.164537
-0.218396
-0.262129
-0.260635
-0.218851
-0.178816
-0.173455
-0.193833
-0.198034
-0.144861
-0.029939
0.097178
0.164129
0.139604
0.061832
0.001444
0.005969
0.082191
0.207348
0.331758
0.386205
0.323952
0.169192
0.008273
-0.083293
-0.103266
-0.109932
-0.155242
-0.237715
-0.312090
-0.327978
-0.260894
-0.122223
0.050509
0.209296
0.306497
0.310950
0.234400
0.139682
0.100244
0.139978
0.222851
0.300890
0.355823
0.392934
0.416422
0.429467
0.447196
0.486131
0.535703
0.549213
0.474824
0.305837
0.098841
-0.069479
-0.164822
-0.205465
-0.213610
-0.182675
-0.106926
-0.013085
0.066281
0.134516
0.215946
0.301216
0.339247
0.294288
0.189581
0.082244
0.008794
-0.030390
-0.047571
-0.051289
-0.051691
-0.068599
-0.125439
-0.230266
-0.361816
-0.478135
-0.542807
-0.543511
-0.488278
-0.395293
-0.292825
-0.215035
-0.181481
-0.179974
-0.174088
-0.130996
-0.048819
0.034472
0.061796
0.005838
-0.094856
-0.162257
-0.146715
-0.062695
0.037435
0.105792
0.110098
0.032212
-0.115710
-0.280161
-0.394539
-0.430596
-0.418830
-0.413341
-0.439249
-0.478927
-0.499981
-0.480652
-0.415714
-0.319444
-0.224556
-0.158235
-0.112769
-0.062396
-0.007599
0.032436
0.067939
0.137419
0.245487
0.339381
0.375409
0.372922
0.372967
0.376672
0.359267
0.329671
0.335343
0.402689
0.501745
0.578999
0.606638
0.589111
0.540243
0.471460
0.389651
0.289548
0.152256
-0.033698
-0.248189
-0.446309
-0.586126
-0.644966
-0.624539
-0.557957
-0.502818
-0.498900
-0.529035
-0.545643
-0.535412
-0.536813
-0.593031
-0.704707
-0.834528
-0.939854
-0.988491
-0.958695
-0.848204
-0.689635
-0.542347
-0.453642
-0.426084
-0.427972
-0.432893
-0.439289
-0.452852
-0.466760
-0.472948
-0.480484
-0.500578
-0.518718
-0.504209
-0.451889
-0.395487
-0.371157
-0.385062
-0.422475
-0.470738
-0.522977
-0.570368
-0.602590
-0.605905
-0.554295
-0.425198
-0.242123
-0.083381
-0.014176
-0.012426
0.002583
0.066501
0.124572
0.098668
-0.017793
-0.144986
-0.186312
-0.101006
0.084346
0.316634
0.555697
0.776792
0.948810
1.029061
0.996187
0.886459
0.778052
0.728879
0.730293
0.718932
0.633313
0.467270
0.277896
0.142218
0.099256
0.127917
0.173852
0.189642
0.155986
0.084886
0.013896
-0.011740
0.032241
0.132738
0.247967
0.324682
0.319844
0.234181
0.130522
0.094886
0.157140
0.257996
0.307635
0.266902
0.164215
0.049733
-0.045188
-0.106050
-0.121725
-0.095624
-0.067227
-0.099181
-0.219024
-0.374775
-0.477026
-0.496812
-0.498700
-0.562809
-0.687164
-0.782334
-0.753484
-0.572888
-0.287887
0.016062
0.260587
0.404695
0.446680
0.403520
0.303121
0.198165
0.150715
0.178283
0.235507
0.268110
0.275806
0.308270
0.407893
0.567766
0.727446
0.793864
0.687762
0.404940
0.040982
-0.264376
-0.418623
-0.416125
-0.313437
-0.184004
-0.075975
0.013384
0.117770
0.235254
0.288174
0.175384
-0.130406
-0.541802
-0.910970
-1.129463
-1.185227
-1.130000
-1.002888
-0.803883
-0.549233
-0.318477
-0.197661
-0.184311
-0.190477
-0.142044
-0.041641
0.073462
0.190276
0.317706
0.464607
0.634153
0.807287
0.917995
0.887680
0.720622
0.525796
0.400563
0.318642
0.176059
-0.060721
-0.301225
-0.433077
-0.440800
-0.413761
-0.460867
-0.624573
-0.846306
-1.001261
-1.003130
-0.891533
-0.791450
-0.779857
-0.819170
-0.830901
-0.787448
-0.696838
-0.543648
-0.310725
-0.059150
0.080506
0.039527
-0.094855
-0.152348
-0.043123
0.171878
0.368684
0.492699
0.596816
0.765453
1.017174
1.275544
1.423212
1.390771
1.207250
0.973430
0.789306
0.694506
0.654948
0.601831
0.505042
0.425131
0.474392
0.705703
1.058157
1.417921
1.699971
1.868051
1.922892
1.911776
1.926316
2.032714
2.193029
2.294821
2.284861
2.244765
2.294869
2.437307
2.544902
2.514521
2.371193
2.200476
2.042882
1.889820
1.743639
1.635673
1.592628
1.604562
1.604122
1.497423
1.281856
1.104048
1.113231
1.261485
1.338619
1.228990
1.029603
0.891397
0.868062
0.947113
1.125368
1.395885
1.704436
1.968029
2.115256
2.113004
2.011289
1.942798
2.005593
2.141239
2.178122
2.011805
1.703734
1.399890
1.199925
1.092290
0.973176
0.745908
0.433741
0.180924
0.110806
0.204299
0.358025
0.506661
0.619440
0.631966
0.483835
0.229050
0.012104
-0.105127
-0.221305
-0.465077
-0.826266
-1.148659
-1.272836
-1.161399
-0.907640
-0.657808
-0.515470
-0.477314
-0.432797
-0.242187
0.139564
0.587516
0.878970
0.888709
0.727576
0.660508
0.864017
1.273073
1.668351
1.889615
1.947322
1.950124
1.972595
2.012086
2.046872
2.090267
2.159114
2.211286
2.174485
2.047041
1.913888
1.841486
1.794831
1.685905
1.478391
1.213872
0.963340
0.789921
0.739721
0.820349
0.971505
1.089817
1.121663
1.132095
1.250211
1.534691
1.910704
2.232535
2.386983
2.352916
2.207904
2.080037
2.029859
1.975973
1.810929
1.577494
1.441164
1.476541
1.574741
1.611609
1.599449
1.592125
1.529430
1.282717
0.849738
0.429766
0.279912
0.520655
1.062800
1.677100
2.131496
2.307666
2.236858
2.048801
1.885069
1.835730
1.915303
2.066475
2.184339
2.155223
1.905726
1.454309
0.924917
0.475776
0.171614
-0.081881
-0.449118
-0.988437
-1.563442
-1.937593
-1.962626
-1.675996
-1.228144
-0.747112
-0.289481
0.110401
0.375848
0.375573
0.010475
-0.646366
-1.331229
-1.771847
-1.889598
-1.785736
-1.552873
-1.192272
-0.717966
-0.222254
0.236740
0.739888
1.383063
2.064963
2.492367
2.428642
1.930654
1.325276
0.923083
0.755163
0.615989
0.335824
-0.042237
-0.340716
-0.424988
-0.272950
0.042831
0.371436
0.536179
0.448625
0.172552
-0.161160
-0.478915
-0.764551
-0.991596
-1.125687
-1.177035
-1.201030
-1.239995
-1.285275
-1.276406
-1.109133
-0.693184
-0.062306
0.589599
1.036164
1.212755
1.283167
1.506110
2.011014
2.658220
3.116951
3.134444
2.750594
2.223523
1.743593
1.273885
0.701189
0.068765
-0.422260
-0.627874
-0.621094
-0.612659
-0.724436
-0.854927
-0.769367
-0.327505
0.354397
0.951824
1.170318
0.979455
0.616936
0.341072
0.189010
0.020570
-0.244260
-0.541633
-0.788214
-0.962253
-1.042463
-0.983193
-0.813689
-0.654434
-0.591492
-0.643971
-0.840974
-1.177293
-1.460562
-1.378976
-0.853528
-0.187672
0.243987
0.336501
0.214966
-0.019106
-0.357613
-0.755226
-1.085057
-1.236310
-1.183569
-0.963241
-0.639588
-0.295574
0.005521
0.249326
0.423869
0.499929
0.508861
0.570885
0.761855
0.988109
1.099194
1.098288
1.120800
1.218524
1.280505
1.194114
0.978716
0.706192
0.395955
0.069353
-0.158644
-0.154944
0.045929
0.214204
0.143828
-0.104754
-0.218936
0.048518
0.557561
0.852778
0.609329
-0.041359
-0.661442
-0.928622
-0.855990
-0.647932
-0.438286
-0.175570
0.288428
1.016720
1.872447
2.573839
2.884817
2.763933
2.339578
1.799392
1.322496
1.029726
0.904719
0.777067
0.477202
0.046203
-0.256862
-0.199103
0.193422
0.681264
1.055394
1.272557
1.371006
1.377203
1.366160
1.498355
1.874035
2.390765
2.832147
3.081148
3.168824
3.154086
3.063770
2.924776
2.764371
2.578421
2.360544
2.164746
2.065851
2.046544
1.999043
1.876163
1.798339
1.945344
2.319084
2.655929
2.641589
2.224294
1.662686
1.240164
0.995384
0.785447
0.516972
0.219859
-0.029031
-0.160944
-0.136850
-0.014872
0.028154
-0.132575
-0.382090
-0.464164
-0.296269
-0.095332
-0.124949
-0.389495
-0.646794
-0.669717
-0.432044
-0.072364
0.241327
0.419412
0.494608
0.554582
0.604215
0.540626
0.325165
0.138036
0.241309
0.682649
1.231716
1.607813
1.691187
1.520288
1.210890
0.924698
0.790985
0.803053
0.862364
0.921200
1.014609
1.162654
1.330161
1.494288
1.650219
1.739951
1.672885
1.435307
1.127697
0.883976
0.789874
0.870679
1.083092
1.303256
1.390503
1.298694
1.096540
0.855396
0.558347
0.170037
-0.232163
-0.479762
-0.498803
-0.408195
-0.373500
-0.393304
-0.286246
0.111007
0.776930
1.531450
2.184763
2.661231
2.999401
3.239357
3.339116
3.232449
2.952646
2.655845
2.507769
2.568604
2.774322
2.980918
3.039861
2.896507
2.642776
2.438576
2.344347
2.251891
2.011994
1.614407
1.210353
0.961911
0.902627
0.944453
0.973490
0.909388
0.712922
0.405510
0.084266
-0.124548
-0.143688
0.016652
0.279079
0.546887
0.757219
0.919954
1.090165
1.287868
1.476926
1.622134
1.716157
1.742382
1.671523
1.532877
1.429694
1.438870
1.549276
1.712811
1.890394
2.030440
2.061840
1.955567
1.767615
1.601516
1.561150
1.712879
2.022098
2.347487
2.567067
2.706526
2.874303
3.063905
3.119788
2.944688
2.667006
2.531694
2.654326
2.945281
3.233790
3.393539
3.381874
3.235183
3.033583
2.813272
2.508998
2.043345
1.470864
0.971087
0.679526
0.574516
0.564650
0.628666
0.808034
1.091642
1.366680
1.492109
1.397733
1.129333
0.829340
0.643347
0.598885
0.582490
0.468055
0.265467
0.108668
0.106291
0.251365
0.473479
0.715060
0.923560
1.031604
1.001426
0.852240
0.616323
0.308144
-0.031899
-0.303760
-0.419399
-0.391745
-0.301728
-0.190090
-0.033424
0.162857
0.303832
0.281626
0.094722
-0.136950
-0.276747
-0.283267
-0.227411
-0.217218
-0.307314
-0.460793
-0.577879
-0.567407
-0.419656
-0.229600
-0.135402
-0.204534
-0.371073
-0.493152
-0.474412
-0.324498
-0.116186
0.081794
0.234385
0.348550
0.465837
0.604464
0.680952
0.546486
0.155593
-0.345416
-0.752259
-0.999146
-1.162139
-1.287829
-1.310842
-1.159239
-0.870471
-0.551290
-0.251498
0.061536
0.401695
0.697218
0.865414
0.920840
0.956574
1.025036
1.088765
1.106754
1.115066
1.179762
1.299899
1.396421
1.396775
1.308568
1.201862
1.129125
1.073052
0.980432
0.843364
0.723033
0.684276
0.732368
0.823308
0.905463
0.926539
0.828871
0.592866
0.289127
0.049133
-0.037707
0.006094
0.085117
0.131607
0.160415
0.233122
0.377998
0.543460
0.625940
0.552597
0.349513
0.126763
-0.012321
-0.053135
-0.070480
-0.150377
-0.302222
-0.444817
-0.486935
-0.423973
-0.339472
-0.301342
-0.286879
-0.242892
-0.198838
-0.270887
-0.538847
-0.951627
-1.367190
-1.658425
-1.780390
-1.771249
-1.712918
-1.682024
-1.711041
-1.776185
-1.816784
-1.773996
-1.630476
-1.425487
-1.227615
-1.091129
-1.038443
-1.064806
-1.137568
-1.198671
-1.199869
-1.147842
-1.092170
-1.057508
-1.008226
-0.901285
-0.766185
-0.703586
-0.791625
-1.004471
-1.234103
-1.382578
-1.421507
-1.383015
-1.330967
-1.345029
-1.488090
-1.754966
-2.068637
-2.340711
-2.525029
-2.617884
-2.640646
-2.641586
-2.679979
-2.773616
-2.881342
-2.960077
-3.018518
-3.081131
-3.116830
-3.059918
-2.908824
-2.762105
-2.732219
-2.836236
-2.990339
-3.103178
-3.156381
-3.196627
-3.269912
-3.378341
-3.495471
-3.604985
-3.708277
-3.794845
-3.821987
-3.740022
-3.538585
-3.262614
-2.985207
-2.770815
-2.658477
-2.654515
-2.721296
-2.783782
-2.772298
-2.670462
-2.518383
-2.377195
-2.305224
-2.356857
-2.566088
-2.903505
-3.261257
-3.510226
-3.586115
-3.517495
-3.374776
-3.215224
-3.078601
-2.994556
-2.961777
-2.936676
-2.878295
-2.797035
-2.731773
-2.699058
-2.696351
-2.739743
-2.859024
-3.049169
-3.257296
-3.421941
-3.501034
-3.468782
-3.317362
-3.074134
-2.802498
-2.565064
-2.375730
-2.188672
-1.942795
-1.625130
-1.288262
-1.002094
-0.802216
-0.694071
-0.683588
-0.773920
-0.934932
-1.108379
-1.258866
-1.402350
-1.572356
-1.765216
-1.929454
-2.013654
-2.017899
-1.986405
-1.953360
-1.912539
-1.839305
-1.724354
-1.577875
-1.416209
-1.258483
-1.121294
-1.003247
-0.888223
-0.774652
-0.689838
-0.660856
-0.683277
-0.737019
-0.816123
-0.917497
-1.010965
-1.054531
-1.046088
-1.028668
-1.031560
-1.030993
-0.988297
-0.911137
-0.850011
-0.840765
-0.872923
-0.913308
-0.947847
-0.996250
-1.087702
-1.221350
-1.352923
-1.433884
-1.467293
-1.507178
-1.599510
-1.742368
-1.907727
-2.079423
-2.254058
-2.428059
-2.605691
-2.799971
-3.004879
-3.174414
-3.244873
-3.180391
-2.994789
-2.743890
-2.503001
-2.325401
-2.201863
-2.068848
-1.866690
-1.582594
-1.233343
-0.836062
-0.423510
-0.066011
0.163475
0.253629
0.254694
0.202156
0.066577
-0.202119
-0.593518
-1.022363
-1.393291
-1.660079
-1.821517
-1.880130
-1.820452
-1.627933
-1.321981
-0.964915
-0.638169
-0.410484
-0.319705
-0.368519
-0.528850
-0.754239
-0.996418
-1.216689
-1.386857
-1.486983
-1.513661
-1.491368
-1.459824
-1.439245
-1.415693
-1.372073
-1.325345
-1.315749
-1.361216
-1.436723
-1.500951
-1.530198
-1.523914
-1.496240
-1.467950
-1.450796
-1.434029
-1.398630
-1.350574
-1.322575
-1.331890
-1.355276
-1.360492
-1.351500
-1.367088
-1.439636
-1.569039
-1.727557
-1.873643
-1.969906
-2.006276
-2.008331
-2.012895
-2.035221
-2.067507
-2.098359
-2.117122
-2.106487
-2.051935
-1.964471
-1.877604
-1.813082
-1.759915
-1.688486
-1.576259
-1.422540
-1.254619
-1.124830
-1.079363
-1.112772
-1.164149
-1.170133
-1.119078
-1.049932
-1.008116
-1.013185
-1.058982
-1.124704
-1.178984
-1.184189
-1.112713
-0.969581
-0.803905
-0.691490
-0.684203
-0.759493
-0.826025
-0.797203
-0.669465
-0.525012
-0.452338
-0.466704
-0.512617
-0.532012
-0.509646
-0.458317
-0.391698
-0.333250
-0.339748
-0.483989
-0.793310
-1.206013
-1.602063
-1.886436
-2.044367
-2.120184
-2.154609
-2.151806
-2.101863
-2.016732
-1.928010
-1.853239
-1.781054
-1.697327
-1.617014
-1.575422
-1.582514
-1.592289
-1.528582
-1.347855
-1.076297
-0.784899
-0.535904
-0.357272
-0.250426
-0.199915
-0.176511
-0.150489
-0.112812
-0.077118
-0.059827
-0.064374
-0.079321
-0.080325
-0.035611
0.073690
0.230282
0.389079
0.514907
0.605436
0.678424
0.749392
0.827680
0.919444
1.015273
1.075525
1.045838
0.903528
0.690265
0.489579
0.363115
0.305541
0.258052
0.159443
-0.011061
-0.223270
-0.416024
-0.533975
-0.560423
-0.523569
-0.475549
-0.467381
-0.528197
-0.644907
-0.761486
-0.819837
-0.817242
-0.816836
-0.890780
-1.056445
-1.267605
-1.457086
-1.583780
-1.643811
-1.645151
-1.581392
-1.437542
-1.220646
-0.974693
-0.755595
-0.591210
-0.468362
-0.356173
-0.237469
-0.119824
-0.024126
0.037452
0.077544
0.124716
0.193549
0.266055
0.305224
0.283791
0.197861
0.060920
-0.106301
-0.285353
-0.467801
-0.652171
-0.830711
-0.982211
-1.082958
-1.123682
-1.110662
-1.052313
-0.950971
-0.809480
-0.643708
-0.485970
-0.371303
-0.313030
-0.289519
-0.260870
-0.202035
-0.118018
-0.031225
0.039645
0.090914
0.131215
0.169217
0.200517
0.206214
0.167966
0.083777
-0.034032
-0.172667
-0.320875
-0.455938
-0.545720
-0.577067
-0.574342
-0.577302
-0.600756
-0.624843
-0.625625
-0.605982
-0.591324
-0.599750
-0.624340
-0.645186
-0.652767
-0.654827
-0.660431
-0.662395
-0.642462
-0.594606
-0.537253
-0.499747
-0.497224
-0.516843
-0.527110
-0.502629
-0.442863
-0.368000
-0.296793
-0.230397
-0.158040
-0.074709
0.006888
0.058924
0.055946
-0.005959
-0.108360
-0.228889
-0.357426
-0.494325
-0.640679
-0.795455
-0.953724
-1.099217
-1.203758
-1.244423
-1.223705
-1.168282
-1.110067
-1.073051
-1.069883
-1.098175
-1.138818
-1.164991
-1.157846
-1.114932
-1.047990
-0.976360
-0.916907
-0.873370
-0.835948
-0.794090
-0.749234
-0.713741
-0.701191
-0.721586
-0.779421
-0.867348
-0.962614
-1.037219
-1.074670
-1.074848
-1.046199
-0.998674
-0.940126
-0.873188
-0.796986
-0.715793
-0.643892
-0.594894
-0.565453
-0.535270
-0.484620
-0.408839
-0.316620
-0.222538
-0.146722
-0.114026
-0.139784
-0.211387
-0.291569
-0.347291
-0.374002
-0.389136
-0.405970
-0.421438
-0.429756
-0.439560
-0.471101
-0.538512
-0.639803
-0.762389
-0.894835
-1.035359
-1.189792
-1.359345
-1.532273
-1.688147
-1.805804
-1.866476
-1.857626
-1.784039
-1.674617
-1.570102
-1.501880
-1.483741
-1.517070
-1.588417
-1.657941
-1.669373
-1.591434
-1.451404
-1.318868
-1.253259
-1.268885
-1.341178
-1.432738
-1.512825
-1.562763
-1.574646
-1.552171
-1.513843
-1.488779
-1.496919
-1.524632
-1.522557
-1.437246
-1.252363
-1.002258
-0.751327
-0.562719
-0.471201
-0.466089
-0.498083
-0.514158
-0.495469
-0.462116
-0.442122
-0.441402
-0.443720
-0.432586
-0.407307
-0.378070
-0.350840
-0.322716
-0.292676
-0.271962
-0.279045
-0.324321
-0.402134
-0.496198
-0.589614
-0.671856
-0.739253
-0.789067
-0.815355
-0.813269
-0.785953
-0.744554
-0.701616
-0.665575
-0.637959
-0.611214
-0.574180
-0.526583
-0.484543
-0.465690
-0.471337
