EVENT_NAME: EMILIA_2ND_SHOCK
EVENT_ID: IT-2012-0011
EVENT_DATE_YYYYMMDD: 20120529
EVENT_TIME_HHMMSS: 070002
EVENT_LATITUDE_DEGREE: 44.8417
EVENT_LONGITUDE_DEGREE: 11.0657
EVENT_DEPTH_KM: 8.1
HYPOCENTER_REFERENCE: INGV-CNT_Seismic_Bulletin
MAGNITUDE_W: 6.0
MAGNITUDE_W_REFERENCE: RCMT-INGV
MAGNITUDE_L: 5.8
MAGNITUDE_L_REFERENCE: INGV-CNT_Seismic_Bulletin
FOCAL_MECHANISM: TF
NETWORK: IV
STATION_CODE: T0812
STATION_NAME: T0812
STATION_LATITUDE_DEGREE: 44.954700
STATION_LONGITUDE_DEGREE: 11.181000
STATION_ELEVATION_M: 7
LOCATION: 
SENSOR_DEPTH_M: 1.0
VS30_M/S: 
SITE_CLASSIFICATION_EC8: C*
MORPHOLOGIC_CLASSIFICATION: 
EPICENTRAL_DISTANCE_KM: 15.5
EARTHQUAKE_BACKAZIMUTH_DEGREE: 216.0
DATE_TIME_FIRST_SAMPLE_YYYYMMDD_HHMMSS: 20120529_065952.000
DATE_TIME_FIRST_SAMPLE_PRECISION: milliseconds
SAMPLING_INTERVAL_S: 0.005000
NDATA: 30001
DURATION_S: 150.005
STREAM: HNZ
UNITS: cm/s
INSTRUMENT: sensor = Episensor FBA ES-T [Kinemetrics] | digitizer = Unknown [Unknown]
INSTRUMENT_ANALOG/DIGITAL: D
INSTRUMENTAL_FREQUENCY_HZ: 
INSTRUMENTAL_DAMPING: 
FULL_SCALE_G: 
N_BIT_DIGITAL_CONVERTER: 
PGV_CM/S: -2.952715
TIME_PGV_S: 21.955000
BASELINE_CORRECTION: BASELINE REMOVED
FILTER_TYPE: BUTTERWORTH
FILTER_ORDER: 2
LOW_CUT_FREQUENCY_HZ: 0.060
HIGH_CUT_FREQUENCY_HZ: 40.000
LATE/NORMAL_TRIGGERED: NT
DATABASE_VERSION: DYNA 1.0
HEADER_FORMAT: DYNA 1.2
DATA_TYPE: VELOCITY
PROCESSING: manual (Paolucci et al., 2011)
DATA_TIMESTAMP_YYYYMMDD_HHMMSS: 
DATA_LICENSE: CC-BY4_0 (http://creativecommons.org/licenses/by/4.0/)
DATA_CITATION: ESM working group (2015), European Strong-Motion database, version 0.1, Network Activity 3: Networking acceleration networks and SM data users. Project NERA (www.nera-eu.org)
DATA_CREATOR: ESM working group
ORIGINAL_DATA_MEDIATOR_CITATION: Orfeus - European Integrated Data Archive (EIDA) http://www.orfeus-eu.org/eida/
ORIGINAL_DATA_MEDIATOR: Orfeus - European Integrated Data Archive (EIDA)
ORIGINAL_DATA_CREATOR_CITATION: Data for this study comes from the Italian national seismic network operated by Istituto Nazionale di Geofisica e Vulcanologia and archived at the European Integrated Data Archive http://eida.rm.ingv.it/
ORIGINAL_DATA_CREATOR: network: IV (Italian National Seismic Network); owner: Istituto Nazionale di Geofisica e Vulcanologia
USER1: 
USER2: 
USER3: 
USER4: 
USER5: 
[...]
-0.101486
-0.114692
-0.139048
-0.168663
-0.193672
-0.205106
-0.199513
-0.180345
-0.156508
-0.139258
-0.137895
-0.155123
-0.184653
-0.214103
-0.232801
-0.238909
-0.239436
-0.242820
-0.250241
-0.253005
-0.239008
-0.203535
-0.154513
-0.107358
-0.074571
-0.058928
-0.054237
-0.050814
-0.040889
-0.021254
0.007276
0.042104
0.080101
0.116202
0.141336
0.144417
0.119263
0.070328
0.010785
-0.045500
-0.090550
-0.123177
-0.145796
-0.160838
-0.169801
-0.174998
-0.180902
-0.191864
-0.206901
-0.216443
-0.205804
-0.164751
-0.095895
-0.014150
0.062355
0.121261
0.157740
0.171336
0.163897
0.140100
0.109341
0.086370
0.086197
0.114134
0.159970
0.202611
0.221509
0.206468
0.160864
0.098231
0.034892
-0.016292
-0.047557
-0.055931
-0.044163
-0.020811
0.002615
0.015649
0.011867
-0.009029
-0.040032
-0.068241
-0.079990
-0.067922
-0.036106
0.000632
0.024119
0.022623
-0.003585
-0.043301
-0.080314
-0.101610
-0.103782
-0.093148
-0.079638
-0.069692
-0.063201
-0.054998
-0.038961
-0.012780
0.019999
0.052889
0.081036
0.102344
0.115357
0.118996
0.115361
0.110123
0.107950
0.107944
0.104388
0.091851
0.069755
0.043934
0.025557
0.027253
0.056702
0.111130
0.177313
0.237840
0.279822
0.301314
0.311503
0.323256
0.342354
0.361699
0.365748
0.341665
0.287859
0.214454
0.137716
0.073249
0.031315
0.015448
0.023142
0.046779
0.075088
0.096594
0.104133
0.097289
0.080769
0.059994
0.037799
0.015398
-0.004006
-0.014365
-0.011198
0.002823
0.016614
0.015198
-0.012605
-0.068638
-0.146052
-0.233857
-0.319707
-0.389966
-0.431121
-0.434385
-0.400293
-0.338949
-0.264801
-0.189571
-0.118724
-0.053124
0.007069
0.059785
0.101255
0.128273
0.140144
0.138784
0.127446
0.109283
0.086428
0.060001
0.031254
0.002577
-0.023690
-0.048255
-0.075926
-0.111627
-0.153982
-0.192813
-0.213853
-0.207143
-0.172690
-0.120848
-0.068883
-0.035052
-0.032042
-0.062708
-0.118924
-0.182786
-0.231548
-0.247952
-0.230786
-0.195877
-0.165482
-0.154803
-0.165164
-0.186756
-0.207338
-0.220335
-0.227088
-0.233059
-0.242448
-0.255810
-0.271155
-0.285832
-0.297272
-0.303504
-0.305170
-0.308039
-0.322427
-0.357577
-0.414063
-0.480323
-0.537160
-0.567447
-0.563767
-0.529503
-0.474953
-0.412363
-0.352185
-0.301774
-0.266253
-0.248120
-0.244480
-0.246685
-0.245751
-0.239957
-0.237687
-0.252355
-0.292713
-0.355189
-0.424230
-0.481946
-0.520266
-0.545219
-0.570032
-0.604466
-0.649950
-0.702095
-0.755356
-0.805568
-0.850390
-0.890233
-0.930642
-0.982844
-1.058025
-1.156617
-1.261269
-1.342442
-1.375065
-1.354017
-1.297779
-1.239634
-1.211788
-1.228757
-1.279321
-1.335045
-1.368421
-1.364204
-1.318832
-1.236057
-1.125419
-1.002174
-0.885925
-0.797396
-0.751937
-0.751649
-0.784021
-0.830778
-0.879797
-0.929893
-0.986857
-1.058096
-1.150091
-1.265438
-1.397520
-1.526794
-1.624933
-1.668819
-1.656769
-1.613371
-1.575043
-1.564082
-1.571286
-1.562014
-1.501397
-1.378966
-1.214479
-1.043430
-0.898071
-0.799721
-0.760608
-0.784187
-0.861658
-0.970833
-1.081821
-1.168665
-1.221615
-1.251461
-1.280383
-1.325261
-1.386199
-1.446353
-1.480184
-1.465591
-1.395138
-1.279517
-1.139514
-0.994173
-0.856889
-0.738863
-0.651448
-0.604296
-0.601864
-0.641082
-0.710253
-0.790158
-0.860681
-0.911446
-0.946792
-0.978028
-1.010305
-1.037433
-1.047431
-1.031596
-0.990107
-0.931466
-0.866536
-0.801085
-0.734240
-0.666037
-0.605555
-0.569630
-0.572603
-0.614967
-0.680074
-0.744143
-0.793753
-0.835800
-0.890181
-0.973168
-1.088059
-1.227432
-1.379232
-1.530911
-1.670649
-1.786704
-1.868067
-1.907481
-1.903359
-1.858635
-1.779480
-1.676479
-1.565542
-1.464631
-1.387666
-1.341246
-1.326226
-1.338208
-1.364524
-1.386146
-1.388742
-1.372665
-1.349911
-1.330171
-1.309998
-1.275025
-1.213294
-1.129063
-1.044397
-0.984773
-0.959656
-0.954609
-0.941435
-0.896838
-0.814884
-0.707306
-0.594783
-0.495991
-0.421538
-0.376204
-0.365546
-0.397713
-0.477551
-0.599726
-0.745134
-0.881510
-0.974281
-1.007273
-0.996632
-0.982820
-1.005674
-1.081490
-1.194592
-1.304324
-1.364785
-1.347941
-1.254664
-1.107634
-0.935019
-0.758158
-0.589939
-0.440880
-0.323785
-0.251369
-0.229569
-0.250982
-0.292594
-0.322716
-0.315155
-0.260308
-0.166603
-0.055045
0.048635
0.123276
0.160748
0.168776
0.167928
0.185680
0.246826
0.361819
0.520407
0.693710
0.841305
0.921884
0.907292
0.793882
0.603752
0.377087
0.161310
-0.001605
-0.086295
-0.087486
-0.017592
0.097219
0.225515
0.344505
0.450890
0.560679
0.697581
0.875612
1.084839
1.290251
1.449255
1.536257
1.552933
1.520302
1.466219
1.417024
1.391213
1.392796
1.407890
1.408494
1.364174
1.259651
1.109221
0.954761
0.847101
0.826023
0.909924
1.093812
1.351490
1.639875
1.904287
2.087435
2.145826
2.066808
1.873519
1.616287
1.357829
1.155557
1.044100
1.025164
1.068757
1.125149
1.143818
1.091198
0.960217
0.773946
0.585513
0.466323
0.479664
0.653422
0.966929
1.354904
1.725840
1.990492
2.088648
2.003880
1.770046
1.469337
1.206758
1.065978
1.079378
1.228406
1.464125
1.733416
1.994914
2.215726
2.362491
2.406252
2.339497
2.187691
2.002208
1.836580
1.721217
1.654227
1.612477
1.569927
1.509108
1.423949
1.318838
1.205292
1.095601
0.996506
0.909010
0.835665
0.787454
0.779962
0.818816
0.887093
0.946746
0.955616
0.892719
0.775831
0.654982
0.585198
0.601247
0.709736
0.890337
1.096478
1.266107
1.348996
1.333516
1.254936
1.180857
1.177389
1.269364
1.420854
1.557045
1.611118
1.555129
1.400647
1.185068
0.957647
0.770516
0.673534
0.702870
0.860038
1.099675
1.345518
1.526305
1.604062
1.580264
1.483921
1.350926
1.207496
1.068152
0.944252
0.848611
0.787573
0.748964
0.703269
0.622457
0.500203
0.354219
0.211362
0.092281
0.007043
-0.039480
-0.040905
0.009496
0.108342
0.232928
0.345059
0.406860
0.396651
0.315455
0.182289
0.022596
-0.142027
-0.297681
-0.437783
-0.561332
-0.669289
-0.759504
-0.823291
-0.847100
-0.819442
-0.738499
-0.615527
-0.472814
-0.337469
-0.233585
-0.175415
-0.161950
-0.174658
-0.184711
-0.171662
-0.141302
-0.124392
-0.154014
-0.241571
-0.372786
-0.522114
-0.666229
-0.786204
-0.864842
-0.889114
-0.858086
-0.786700
-0.699056
-0.616888
-0.552338
-0.505222
-0.462047
-0.400081
-0.298338
-0.149170
0.037373
0.237813
0.424495
0.576608
0.688567
0.770009
0.836420
0.896372
0.944634
0.966839
0.952664
0.907046
0.848821
0.794929
0.741073
0.656752
0.504842
0.272963
-0.010844
-0.290344
-0.508557
-0.631476
-0.657028
-0.607317
-0.512197
-0.399927
-0.300497
-0.246659
-0.262039
-0.347631
-0.479671
-0.619487
-0.730457
-0.794724
-0.820119
-0.832531
-0.858968
-0.913084
-0.992479
-1.087616
-1.192766
-1.309035
-1.438563
-1.577196
-1.713453
-1.835571
-1.940027
-2.031304
-2.110255
-2.161821
-2.156925
-2.070960
-1.903422
-1.679576
-1.431861
-1.178384
-0.917570
-0.642202
-0.357963
-0.087522
0.142875
0.319523
0.445963
0.534962
0.596087
0.628505
0.623298
0.572900
0.480348
0.360700
0.234354
0.119469
0.028215
-0.034081
-0.067940
-0.075694
-0.054626
0.007143
0.125643
0.309176
0.550094
0.825846
1.105438
1.356710
1.552602
1.676530
1.727126
1.718673
1.673882
1.613968
1.553805
1.501091
1.454697
1.403609
1.330842
1.223364
1.084164
0.938522
0.826646
0.782697
0.813673
0.894478
0.979487
1.019159
0.977490
0.848074
0.658935
0.461128
0.308337
0.235968
0.243828
0.291826
0.322204
0.299796
0.237590
0.187595
0.208331
0.333579
0.558434
0.845060
1.141872
1.403643
1.603009
1.736630
1.829047
1.926349
2.075636
2.298846
2.572385
2.821899
2.942698
2.848618
2.523236
2.032006
1.487737
1.000410
0.638362
0.412332
0.287117
0.211367
0.146960
0.085541
0.046556
0.057812
0.131561
0.254456
0.397269
0.530438
0.629743
0.675072
0.654871
0.576164
0.466610
0.361933
0.287236
0.243905
0.209509
0.152139
0.050837
-0.091174
-0.247004
-0.376197
-0.438050
-0.406785
-0.285193
-0.107188
0.076030
0.221099
0.317069
0.392140
0.491419
0.640221
0.822967
0.992245
1.094821
1.093141
0.977696
0.774269
0.540162
0.343116
0.233345
0.227513
0.311607
0.456009
0.631214
0.813891
0.983250
1.119992
1.214104
1.271920
1.312892
1.356566
1.406789
1.444753
1.440520
1.378288
1.275587
1.179068
1.141735
1.200332
1.359826
1.584535
1.804933
1.947916
1.976142
1.908421
1.809815
1.760396
1.815542
1.977914
2.201257
2.417411
2.560045
2.578406
2.451603
2.200643
1.881905
1.565118
1.314316
1.170181
1.129769
1.143767
1.145205
1.090212
0.977744
0.837869
0.705974
0.602607
0.528736
0.476013
0.438634
0.412850
0.388052
0.346439
0.277591
0.192698
0.121727
0.095163
0.122406
0.179653
0.218284
0.190799
0.075829
-0.112604
-0.332078
-0.528335
-0.654409
-0.684561
-0.617491
-0.471289
-0.276332
-0.068642
0.118394
0.266159
0.380573
0.486582
0.605502
0.732901
0.837668
0.882870
0.850232
0.751514
0.623737
0.513923
0.458936
0.470446
0.536282
0.633794
0.741687
0.845842
0.940611
1.025709
1.101659
1.170763
1.243498
1.337901
1.466015
1.620541
1.775133
1.897148
1.964131
1.974224
1.942642
1.885879
1.807698
1.700622
1.558669
1.385398
1.192307
0.996842
0.824781
0.706828
0.664328
0.696210
0.775978
0.857248
0.888809
0.836404
0.697035
0.495662
0.270780
0.062304
-0.094300
-0.173705
-0.170029
-0.101438
0.001333
0.115015
0.232740
0.356458
0.484625
0.607237
0.710191
0.783212
0.825081
0.844749
0.859578
0.889455
0.945132
1.017060
1.077484
1.097351
1.063497
0.984160
0.883177
0.789457
0.729172
0.724899
0.797292
0.960804
1.212567
1.522399
1.833279
2.077290
2.200763
2.182161
2.034171
1.796366
1.524279
1.272817
1.076859
0.940786
0.844725
0.763707
0.686091
0.618199
0.574472
0.563813
0.581854
0.611284
0.629014
0.616965
0.570676
0.502270
0.438237
0.412396
0.453826
0.572652
0.753223
0.963474
1.174436
1.371472
1.547936
1.693386
1.790832
1.822474
1.777688
1.658181
1.475773
1.244367
0.974096
0.672976
0.352908
0.031991
-0.268606
-0.527985
-0.728785
-0.862519
-0.931843
-0.943462
-0.895830
-0.775015
-0.565789
-0.269139
0.088594
0.459352
0.785782
1.022373
1.158917
1.227986
1.288764
1.398242
1.583765
1.827662
2.073284
2.252452
2.317836
2.260440
2.108160
1.911972
1.723207
1.570470
1.452167
1.349140
1.244368
1.133824
1.024934
0.930258
0.861350
0.821444
0.797898
0.761665
0.677694
0.521199
0.292377
0.021062
-0.246873
-0.474577
-0.649880
-0.780828
-0.880211
-0.954432
-1.002104
-1.017257
-0.993847
-0.932523
-0.847298
-0.765245
-0.717316
-0.726101
-0.796139
-0.911681
-1.045997
-1.175511
-1.285116
-1.362845
-1.394051
-1.363287
-1.262560
-1.097311
-0.884093
-0.641522
-0.380412
-0.099994
0.205370
0.532695
0.862088
1.161807
1.401981
1.563503
1.635474
1.611967
1.498868
1.322671
1.127027
0.955603
0.831888
0.749447
0.680799
0.600256
0.505059
0.419111
0.375024
0.387826
0.442479
0.503668
0.536280
0.521841
0.463682
0.380546
0.293936
0.217534
0.154969
0.104597
0.064206
0.031857
0.005986
-0.011515
-0.011752
0.019991
0.098002
0.229326
0.410757
0.630524
0.872971
1.124359
1.377176
1.630521
1.887073
2.146604
2.396069
2.603391
2.724209
2.722373
2.592981
2.369795
2.108143
1.857962
1.650241
1.500208
1.414969
1.396636
1.438317
1.518011
1.600886
1.651893
1.649394
1.593026
1.503701
1.413711
1.350441
1.323790
1.324322
1.330306
1.317657
1.268367
1.174452
1.036846
0.863479
0.669330
0.474597
0.298864
0.155644
0.050042
-0.021288
-0.068093
-0.102139
-0.131784
-0.158400
-0.176684
-0.178294
-0.156220
-0.106605
-0.026859
0.086663
0.236228
0.414382
0.596161
0.741955
0.813481
0.790539
0.674093
0.477751
0.220849
-0.071345
-0.365959
-0.627637
-0.832499
-0.980634
-1.093926
-1.200905
-1.321142
-1.455424
-1.582277
-1.664064
-1.664258
-1.567510
-1.389793
-1.175913
-0.987479
-0.878914
-0.869111
-0.932068
-1.016060
-1.075201
-1.092161
-1.083049
-1.085697
-1.136024
-1.245065
-1.393151
-1.543929
-1.664945
-1.740715
-1.772196
-1.764982
-1.717276
-1.621884
-1.484008
-1.336993
-1.235499
-1.224269
-1.303634
-1.422722
-1.513745
-1.541349
-1.522823
-1.505366
-1.526068
-1.588028
-1.666215
-1.731570
-1.770611
-1.786347
-1.785109
-1.765735
-1.721287
-1.648727
-1.556582
-1.463890
-1.388957
-1.336111
-1.294085
-1.248452
-1.195120
-1.141192
-1.093716
-1.048434
-0.988388
-0.893378
-0.754375
-0.583927
-0.413129
-0.272076
-0.166889
-0.074496
0.038332
0.187357
0.356686
0.506412
0.594691
0.601467
0.541414
0.458112
0.402094
0.406600
0.475242
0.584314
0.695950
0.778038
0.818941
0.824255
0.801343
0.749643
0.664879
0.550352
0.424708
0.319089
0.260609
0.250773
0.259082
0.241082
0.167129
0.041930
-0.095632
-0.191880
-0.207434
-0.138856
-0.017708
0.110168
0.207763
0.260236
0.275820
0.275311
0.274765
0.270982
0.240964
0.156500
0.002165
-0.214297
-0.462604
-0.701176
-0.894925
-1.031020
-1.124737
-1.212572
-1.333432
-1.503590
-1.700457
-1.871695
-1.966730
-1.966768
-1.893103
-1.794296
-1.724657
-1.723659
-1.803958
-1.953288
-2.144187
-2.342525
-2.516327
-2.647144
-2.736685
-2.801803
-2.860104
-2.915431
-2.952715
-2.945304
-2.870451
-2.723362
-2.520350
-2.289594
-2.057139
-1.837722
-1.635994
-1.456095
-1.308557
-1.205614
-1.148764
-1.119331
-1.080522
-0.994163
-0.846319
-0.663942
-0.504155
-0.421516
-0.439962
-0.546201
-0.702214
-0.866749
-1.011586
-1.122290
-1.189448
-1.203914
-1.159750
-1.058790
-0.911069
-0.731279
-0.536285
-0.346581
-0.186190
-0.074826
-0.016344
0.006123
0.022059
0.056460
0.116503
0.192256
0.267911
0.331354
0.375771
0.396872
0.390883
0.354760
0.289558
0.205454
0.121719
0.059241
0.032100
0.043528
0.086112
0.145091
0.204202
0.252074
0.284954
0.302909
0.302844
0.277380
0.223639
0.153415
0.092629
0.067296
0.085008
0.126720
0.158028
0.153062
0.112441
0.062207
0.037340
0.064006
0.150350
0.287469
0.456921
0.636591
0.799921
0.915192
0.952651
0.894985
0.741903
0.508759
0.223749
-0.077858
-0.364160
-0.616561
-0.832413
-1.018295
-1.179536
-1.313509
-1.409029
-1.450949
-1.427662
-1.337580
-1.191012
-1.006470
-0.803899
-0.600814
-0.414869
-0.267882
-0.185091
-0.188735
-0.288462
-0.474600
-0.720584
-0.991941
-1.254225
-1.478851
-1.648262
-1.758824
-1.821686
-1.861172
-1.906288
-1.976242
-2.069811
-2.165745
-2.231876
-2.236873
-2.160405
-1.998982
-1.766289
-1.489114
-1.199988
-0.927830
-0.691225
-0.497688
-0.345268
-0.223071
-0.113816
-0.000793
0.124498
0.258835
0.389367
0.499944
0.578396
0.620948
0.631601
0.616856
0.578871
0.512462
0.408950
0.263696
0.081457
-0.123753
-0.333841
-0.532950
-0.710758
-0.862522
-0.987202
-1.084228
-1.150398
-1.179352
-1.165419
-1.110807
-1.030327
-0.946914
-0.879160
-0.830815
-0.790675
-0.742621
-0.678516
-0.605866
-0.545844
-0.522106
-0.547136
-0.615869
-0.709997
-0.807700
-0.891748
-0.952841
-0.989233
-1.005307
-1.009861
-1.012909
-1.021285
-1.035326
-1.048062
-1.047167
-1.019729
-0.958745
-0.868117
-0.762668
-0.662751
-0.586463
-0.543002
-0.531240
-0.545209
-0.580195
-0.631879
-0.690835
-0.740546
-0.762692
-0.746713
-0.696630
-0.628687
-0.560310
-0.499220
-0.442031
-0.382966
-0.324300
-0.278740
-0.261898
-0.282102
-0.335053
-0.405648
-0.475298
-0.530052
-0.564356
-0.579207
-0.577494
-0.560005
-0.525069
-0.472247
-0.406500
-0.339111
-0.284778
-0.256382
-0.260645
-0.298254
-0.367754
-0.468614
-0.600279
-0.758519
-0.933648
-1.113586
-1.288513
-1.451621
-1.597076
-1.719482
-1.814906
-1.881409
-1.918730
-1.928680
-1.916747
-1.892647
-1.868031
-1.852893
-1.852960
-1.867829
-1.889885
-1.906450
-1.905271
-1.879583
-1.830547
-1.767585
-1.706551
-1.665178
-1.656943
-1.685484
-1.742193
-1.809428
-1.868533
-1.907797
-1.926015
-1.931296
-1.936796
-1.954816
-1.991642
-2.045607
-2.107531
-2.161820
-2.189656
-2.175018
-2.109856
-1.995217
-1.839552
-1.656586
-1.463031
-1.276021
-1.110345
-0.974980
-0.870414
-0.789367
-0.720432
-0.651763
-0.573380
-0.478357
-0.363622
-0.230986
-0.087561
0.055900
0.188264
0.300915
0.389523
0.453948
0.495560
0.514077
0.506867
0.470737
0.404573
0.311686
0.200563
0.082360
-0.034645
-0.148633
-0.260467
-0.365734
-0.451644
-0.502919
-0.511821
-0.484041
-0.436408
-0.389481
-0.360857
-0.361535
-0.395204
-0.460146
-0.550890
-0.657708
-0.767361
-0.867740
-0.952818
-1.023263
-1.083590
-1.139554
-1.195838
-1.252541
-1.302740
-1.334642
-1.337607
-1.307663
-1.249702
-1.176506
-1.105063
-1.051350
-1.025880
-1.031675
-1.065354
-1.120338
-1.189938
-1.269028
-1.354003
-1.441167
-1.524881
-1.597469
-1.651218
-1.681270
-1.687921
-1.676881
-1.657230
-1.638536
-1.628550
-1.631963
-1.650569
-1.684582
-1.733479
-1.795068
-1.863392
-1.927640
-1.974480
-1.993903
-1.984520
-1.953730
-1.912788
-1.870870
-1.831847
-1.794922
-1.757700
-1.718756
-1.677983
-1.635646
-1.591986
-1.547947
-1.506055
-1.470236
-1.444199
-1.429452
-1.424624
-1.426491
-1.431077
-1.433574
-1.428409
-1.411124
-1.381427
-1.345480
-1.315291
-1.303915
-1.319317
-1.362181
-1.427846
-1.508033
-1.590905
-1.662243
-1.709516
-1.726502
-1.714331
-1.677979
-1.622887
-1.555783
-1.486599
-1.426618
-1.383399
-1.356688
-1.337708
-1.311720
-1.263170
-1.181438
-1.064436
-0.919225
-0.759979
-0.603390
-0.463784
-0.350941
-0.269123
-0.215313
-0.179032
-0.145566
-0.100767
-0.035453
0.051517
0.152947
0.256639
0.350783
0.428403
0.488300
0.531892
0.558581
0.563805
0.541629
0.490195
0.415908
0.332390
0.254615
0.193187
0.152536
0.132565
0.131251
0.145930
0.172705
0.205337
0.234878
0.250588
0.243575
0.212477
0.166301
0.120907
0.091566
0.086480
0.103226
0.128608
0.143997
0.135225
0.100686
0.052362
0.010238
-0.006121
0.014444
0.069835
0.145076
0.217665
0.265719
0.276495
0.251716
0.206330
0.161698
0.137199
0.142893
0.176135
0.225269
0.277509
0.323538
0.356016
0.366029
0.342571
0.276868
0.168723
0.029020
-0.124484
-0.274840
-0.411782
-0.533048
-0.641147
-0.737976
-0.820904
-0.882751
-0.915627
-0.915731
-0.885283
-0.830571
-0.758393
-0.673486
-0.578160
-0.473835
-0.362929
-0.249493
-0.137781
-0.029281
0.079134
0.193092
0.315871
0.445718
0.577704
0.707756
0.835196
0.962167
1.090860
1.220837
1.348725
1.470759
1.585644
1.694526
1.797940
1.893088
1.974530
2.037928
2.083644
2.117016
2.144927
2.171410
2.195691
2.213807
2.221854
2.217693
2.200059
2.167299
2.118564
2.057079
1.991702
1.934365
1.894986
1.876772
1.874201
1.875233
1.866841
1.840135
1.792235
1.725514
1.645797
1.559632
1.471610
1.383892
1.297794
1.215174
1.138138
1.067530
1.001827
0.937473
0.870109
0.795763
0.711918
0.618555
0.518575
0.417320
0.321225
0.235274
0.160152
0.091610
0.022894
