EVENT_NAME: EMILIA_2ND_SHOCK
EVENT_ID: IT-2012-0011
EVENT_DATE_YYYYMMDD: 20120529
EVENT_TIME_HHMMSS: 070002
EVENT_LATITUDE_DEGREE: 44.8417
EVENT_LONGITUDE_DEGREE: 11.0657
EVENT_DEPTH_KM: 8.1
HYPOCENTER_REFERENCE: INGV-CNT_Seismic_Bulletin
MAGNITUDE_W: 6.0
MAGNITUDE_W_REFERENCE: RCMT-INGV
MAGNITUDE_L: 5.8
MAGNITUDE_L_REFERENCE: INGV-CNT_Seismic_Bulletin
FOCAL_MECHANISM: TF
NETWORK: IV
STATION_CODE: T0811
STATION_NAME: T0811
STATION_LATITUDE_DEGREE: 44.783800
STATION_LONGITUDE_DEGREE: 11.226500
STATION_ELEVATION_M: 10
LOCATION: 
SENSOR_DEPTH_M: 1.0
VS30_M/S: 
SITE_CLASSIFICATION_EC8: C*
MORPHOLOGIC_CLASSIFICATION: 
EPICENTRAL_DISTANCE_KM: 14.3
EARTHQUAKE_BACKAZIMUTH_DEGREE: 296.9
DATE_TIME_FIRST_SAMPLE_YYYYMMDD_HHMMSS: 20120529_065952.000
DATE_TIME_FIRST_SAMPLE_PRECISION: milliseconds
SAMPLING_INTERVAL_S: 0.005000
NDATA: 30001
DURATION_S: 150.005
STREAM: HNE
UNITS: cm/s
INSTRUMENT: sensor = Episensor FBA ES-T [Kinemetrics] | digitizer = Unknown [Unknown]
INSTRUMENT_ANALOG/DIGITAL: D
INSTRUMENTAL_FREQUENCY_HZ: 
INSTRUMENTAL_DAMPING: 
FULL_SCALE_G: 
N_BIT_DIGITAL_CONVERTER: 
PGV_CM/S: 16.533894
TIME_PGV_S: 21.460000
BASELINE_CORRECTION: BASELINE REMOVED
FILTER_TYPE: BUTTERWORTH
FILTER_ORDER: 2
LOW_CUT_FREQUENCY_HZ: 0.060
HIGH_CUT_FREQUENCY_HZ: 40.000
LATE/NORMAL_TRIGGERED: NT
DATABASE_VERSION: DYNA 1.0
HEADER_FORMAT: DYNA 1.2
DATA_TYPE: VELOCITY
PROCESSING: manual (Paolucci et al., 2011)
DATA_TIMESTAMP_YYYYMMDD_HHMMSS: 
DATA_LICENSE: CC-BY4_0 (http://creativecommons.org/licenses/by/4.0/)
DATA_CITATION: ESM working group (2015), European Strong-Motion database, version 0.1, Network Activity 3: Networking acceleration networks and SM data users. Project NERA (www.nera-eu.org)
DATA_CREATOR: ESM working group
ORIGINAL_DATA_MEDIATOR_CITATION: Orfeus - European Integrated Data Archive (EIDA) http://www.orfeus-eu.org/eida/
ORIGINAL_DATA_MEDIATOR: Orfeus - European Integrated Data Archive (EIDA)
ORIGINAL_DATA_CREATOR_CITATION: Data for this study comes from the Italian national seismic network operated by Istituto Nazionale di Geofisica e Vulcanologia and archived at the European Integrated Data Archive http://eida.rm.ingv.it/
ORIGINAL_DATA_CREATOR: network: IV (Italian National Seismic Network); owner: Istituto Nazionale di Geofisica e Vulcanologia
USER1: 
USER2: 
USER3: 
USER4: 
USER5: 
[...]
0.046508
0.048064
0.049730
0.049954
0.048979
0.048385
0.049809
0.053896
0.059474
0.063464
0.062460
0.055389
0.044857
0.035616
0.031504
0.033423
0.039395
0.046026
0.050340
0.051286
0.050062
0.048911
0.049487
0.051982
0.055118
0.056772
0.055199
0.050356
0.044224
0.039689
0.038911
0.042346
0.048682
0.055505
0.060411
0.062073
0.060599
0.056968
0.052184
0.046853
0.041313
0.036137
0.032633
0.032521
0.036524
0.043212
0.049910
0.054966
0.058589
0.061470
0.063316
0.063131
0.060501
0.056006
0.050651
0.045582
0.042228
0.041599
0.042819
0.043176
0.040630
0.036260
0.033581
0.035265
0.040933
0.047819
0.052880
0.054367
0.052274
0.047998
0.043440
0.039918
0.037606
0.035850
0.033993
0.032070
0.030959
0.031993
0.036101
0.042721
0.049316
0.052545
0.050619
0.044591
0.037249
0.030939
0.026743
0.025325
0.027503
0.033478
0.041915
0.050288
0.056097
0.057594
0.054163
0.047005
0.039391
0.035124
0.035819
0.039557
0.042479
0.041834
0.037522
0.031301
0.025484
0.022465
0.024294
0.031336
0.041312
0.050704
0.057521
0.062380
0.066787
0.070797
0.072566
0.069914
0.062509
0.052921
0.045009
0.040844
0.039523
0.038947
0.038074
0.037235
0.037129
0.038322
0.041062
0.044572
0.046765
0.045676
0.041560
0.037065
0.034916
0.035519
0.036716
0.035600
0.030681
0.023024
0.016074
0.014269
0.020749
0.035045
0.052345
0.065486
0.069050
0.062941
0.052268
0.043006
0.037363
0.033591
0.029969
0.027679
0.029039
0.034082
0.040372
0.045768
0.049527
0.050209
0.044974
0.032862
0.017390
0.003980
-0.004858
-0.010240
-0.013495
-0.014088
-0.010871
-0.003431
0.008545
0.025375
0.045328
0.063784
0.075922
0.079842
0.076530
0.067711
0.054970
0.040348
0.026483
0.015918
0.010332
0.010200
0.015032
0.023967
0.036068
0.049581
0.060835
0.064957
0.058806
0.043341
0.022939
0.002638
-0.013991
-0.025464
-0.032017
-0.034308
-0.031740
-0.021822
-0.001789
0.028069
0.062102
0.090745
0.105261
0.102444
0.086356
0.066201
0.051163
0.045066
0.044698
0.043362
0.037063
0.028141
0.022876
0.025203
0.032790
0.038801
0.036613
0.023454
0.001779
-0.021129
-0.035760
-0.035414
-0.020982
-0.000936
0.014756
0.021463
0.020894
0.016484
0.009863
0.002418
-0.002037
0.001484
0.015380
0.037981
0.065244
0.092073
0.111428
0.114476
0.095699
0.059406
0.018898
-0.012899
-0.031844
-0.041817
-0.047715
-0.050911
-0.049972
-0.042499
-0.025154
0.005246
0.046961
0.089204
0.115129
0.111479
0.077178
0.024148
-0.029350
-0.067098
-0.079554
-0.064559
-0.027247
0.020638
0.064882
0.095063
0.107303
0.102430
0.083425
0.054375
0.020154
-0.014172
-0.043838
-0.064215
-0.070936
-0.061816
-0.039334
-0.010175
0.017916
0.038300
0.046085
0.039330
0.020656
-0.002923
-0.022306
-0.029298
-0.019784
0.003496
0.031354
0.052556
0.058979
0.048445
0.024930
-0.002897
-0.024469
-0.031001
-0.018460
0.011219
0.050364
0.086856
0.107273
0.102788
0.074855
0.035079
-0.001879
-0.026278
-0.035674
-0.032186
-0.019057
0.001053
0.025239
0.048276
0.063502
0.067132
0.060422
0.046819
0.028618
0.008279
-0.007844
-0.010108
0.007874
0.043028
0.083883
0.117598
0.135725
0.135158
0.117027
0.086646
0.053439
0.028541
0.020165
0.029028
0.047604
0.065384
0.075801
0.077796
0.071925
0.057798
0.036504
0.013269
-0.004406
-0.010654
-0.003082
0.017319
0.045942
0.074722
0.095232
0.103285
0.100710
0.093278
0.087186
0.085952
0.088062
0.087256
0.077440
0.058543
0.037198
0.021717
0.016879
0.022704
0.035282
0.047214
0.049902
0.039439
0.021100
0.005403
-0.001396
-0.001466
-0.000027
0.001335
0.004194
0.009427
0.017557
0.030993
0.051120
0.072043
0.081742
0.072751
0.050022
0.027258
0.017202
0.025770
0.051908
0.088887
0.125861
0.151399
0.158422
0.147502
0.125624
0.100750
0.076939
0.054399
0.033116
0.015404
0.005451
0.007588
0.024655
0.055679
0.093491
0.125914
0.142481
0.140907
0.125459
0.100346
0.067891
0.032919
0.005394
-0.003819
0.010677
0.047006
0.098506
0.155478
0.204790
0.232123
0.229013
0.198458
0.152390
0.103625
0.060402
0.025983
0.000492
-0.016751
-0.024917
-0.020992
-0.002952
0.024982
0.051344
0.063961
0.058634
0.041363
0.022944
0.012421
0.014152
0.027710
0.048465
0.069068
0.082753
0.087272
0.086709
0.089329
0.102077
0.125224
0.151440
0.170582
0.176249
0.168444
0.151406
0.130462
0.110559
0.095125
0.083976
0.073152
0.058984
0.042515
0.029354
0.025862
0.036321
0.061945
0.099167
0.138570
0.167760
0.177008
0.163136
0.129639
0.085505
0.043795
0.017204
0.011096
0.020500
0.035164
0.046899
0.051386
0.046437
0.032478
0.014065
-0.002339
-0.013528
-0.021535
-0.030393
-0.042365
-0.057495
-0.074966
-0.093052
-0.108401
-0.117258
-0.118125
-0.112706
-0.103975
-0.094032
-0.084212
-0.075991
-0.070144
-0.065093
-0.057840
-0.047364
-0.036292
-0.028600
-0.026061
-0.027351
-0.029779
-0.030871
-0.028768
-0.022305
-0.011484
0.002011
0.015458
0.027334
0.038951
0.052660
0.067542
0.077981
0.077788
0.064847
0.040823
0.008161
-0.029368
-0.062821
-0.078895
-0.068193
-0.032740
0.015169
0.059913
0.087683
0.089546
0.065203
0.024442
-0.017266
-0.046882
-0.060147
-0.062209
-0.062564
-0.068067
-0.079323
-0.092943
-0.106272
-0.118879
-0.129900
-0.136396
-0.136520
-0.133273
-0.132596
-0.137391
-0.145006
-0.151194
-0.154612
-0.156185
-0.155729
-0.151043
-0.140261
-0.124213
-0.106867
-0.094319
-0.092263
-0.102656
-0.121904
-0.141237
-0.148648
-0.133490
-0.094326
-0.044601
-0.007465
-0.001579
-0.030898
-0.084719
-0.143193
-0.183749
-0.189044
-0.155523
-0.096364
-0.035468
0.003176
0.004032
-0.037258
-0.115631
-0.218428
-0.326217
-0.416492
-0.470408
-0.477403
-0.437151
-0.361395
-0.273263
-0.200404
-0.163960
-0.169724
-0.207221
-0.257541
-0.303304
-0.333116
-0.341094
-0.327182
-0.298245
-0.264061
-0.229815
-0.195496
-0.164962
-0.153202
-0.179256
-0.248678
-0.344218
-0.435883
-0.498720
-0.520064
-0.497741
-0.440128
-0.365947
-0.297125
-0.248937
-0.227298
-0.233105
-0.264618
-0.316058
-0.378777
-0.446164
-0.513685
-0.570791
-0.598319
-0.580752
-0.520962
-0.441776
-0.375080
-0.349490
-0.381896
-0.472143
-0.601878
-0.738813
-0.846354
-0.898120
-0.890757
-0.844126
-0.787412
-0.742761
-0.718552
-0.713414
-0.723034
-0.743419
-0.770860
-0.801506
-0.831017
-0.853721
-0.863364
-0.856209
-0.833406
-0.801301
-0.770236
-0.750597
-0.746384
-0.751999
-0.757647
-0.758424
-0.756627
-0.757111
-0.763868
-0.780038
-0.805987
-0.834818
-0.854439
-0.858332
-0.851928
-0.844949
-0.838929
-0.826795
-0.805001
-0.781459
-0.768970
-0.773443
-0.791405
-0.815289
-0.835677
-0.839673
-0.812431
-0.744589
-0.641198
-0.524757
-0.426812
-0.369962
-0.354104
-0.361251
-0.373084
-0.381189
-0.382554
-0.372183
-0.345696
-0.309047
-0.282091
-0.288914
-0.341711
-0.432586
-0.540075
-0.641407
-0.718678
-0.761328
-0.771059
-0.763585
-0.759972
-0.773053
-0.802254
-0.839862
-0.879157
-0.918351
-0.961320
-1.014575
-1.078438
-1.137878
-1.165937
-1.140779
-1.061016
-0.950194
-0.852617
-0.820323
-0.890847
-1.065984
-1.306396
-1.544918
-1.711335
-1.762212
-1.700045
-1.562244
-1.391048
-1.217445
-1.067800
-0.971365
-0.951582
-1.011499
-1.133262
-1.292107
-1.466173
-1.631428
-1.755255
-1.803423
-1.754866
-1.612737
-1.407136
-1.189078
-1.018525
-0.949363
-1.009212
-1.180406
-1.401918
-1.597911
-1.711093
-1.718597
-1.632674
-1.495596
-1.363055
-1.275035
-1.233836
-1.207672
-1.156559
-1.060414
-0.931319
-0.804562
-0.713957
-0.666488
-0.634408
-0.571298
-0.441843
-0.246815
-0.027876
0.152459
0.245722
0.242303
0.166440
0.053331
-0.067090
-0.175290
-0.262199
-0.324121
-0.354721
-0.344225
-0.289059
-0.198691
-0.091754
0.008048
0.070648
0.064669
-0.022123
-0.164505
-0.311205
-0.419271
-0.475642
-0.488633
-0.466286
-0.406793
-0.307311
-0.176990
-0.036921
0.093985
0.207874
0.296971
0.340535
0.316993
0.233616
0.137105
0.087137
0.119871
0.237492
0.422105
0.646677
0.873652
1.058825
1.166454
1.178573
1.095421
0.937559
0.745610
0.566312
0.429875
0.338284
0.273911
0.216544
0.151552
0.065847
-0.055299
-0.218933
-0.410044
-0.591717
-0.724336
-0.787000
-0.786569
-0.752320
-0.719722
-0.710885
-0.724559
-0.744928
-0.759932
-0.769008
-0.775715
-0.780218
-0.782643
-0.787528
-0.796887
-0.802137
-0.791480
-0.765987
-0.741044
-0.728898
-0.726972
-0.729231
-0.744377
-0.792353
-0.879717
-0.985198
-1.072997
-1.117117
-1.112708
-1.072619
-1.021343
-0.987956
-0.993756
-1.039714
-1.103429
-1.148159
-1.137851
-1.049634
-0.878393
-0.635356
-0.347532
-0.057568
0.185700
0.346047
0.412713
0.396363
0.313398
0.174205
-0.014337
-0.238190
-0.472108
-0.688279
-0.869950
-1.017306
-1.140081
-1.245649
-1.335816
-1.413238
-1.485653
-1.560617
-1.637143
-1.702983
-1.740128
-1.736626
-1.695605
-1.630700
-1.551187
-1.452804
-1.324086
-1.161166
-0.976222
-0.793083
-0.636666
-0.526107
-0.472614
-0.475850
-0.517490
-0.561295
-0.568740
-0.523150
-0.440383
-0.353796
-0.291078
-0.265920
-0.281869
-0.335160
-0.415643
-0.510539
-0.607483
-0.692999
-0.756078
-0.800020
-0.843930
-0.903244
-0.969292
-1.015258
-1.022541
-0.994200
-0.944768
-0.887814
-0.837142
-0.810755
-0.822404
-0.869008
-0.932425
-0.995049
-1.048981
-1.088570
-1.102225
-1.078931
-1.020790
-0.943847
-0.868609
-0.816158
-0.811099
-0.878447
-1.029142
-1.242857
-1.465471
-1.632475
-1.701146
-1.660612
-1.519951
-1.300029
-1.037899
-0.787291
-0.601760
-0.510685
-0.510098
-0.575839
-0.681294
-0.801540
-0.910172
-0.982715
-1.005052
-0.976875
-0.908088
-0.814299
-0.715971
-0.639431
-0.613745
-0.661995
-0.793666
-1.002315
-1.264045
-1.536139
-1.766131
-1.913190
-1.965591
-1.940345
-1.867847
-1.775650
-1.682722
-1.602198
-1.542310
-1.502266
-1.470352
-1.428794
-1.361785
-1.262399
-1.136519
-1.001830
-0.880531
-0.788315
-0.725824
-0.678114
-0.622610
-0.539536
-0.415962
-0.242833
-0.017224
0.245111
0.503436
0.706322
0.815338
0.816659
0.717938
0.544533
0.340414
0.163608
0.066471
0.069903
0.154216
0.274327
0.383338
0.447939
0.454731
0.408889
0.322113
0.198837
0.036091
-0.164452
-0.388518
-0.615069
-0.828017
-1.019714
-1.184496
-1.312913
-1.394612
-1.426898
-1.419529
-1.390809
-1.361454
-1.354832
-1.398755
-1.515982
-1.706311
-1.941436
-2.179796
-2.383757
-2.525038
-2.582981
-2.547593
-2.429477
-2.264169
-2.100175
-1.979700
-1.929074
-1.958201
-2.060661
-2.217033
-2.402823
-2.593114
-2.760114
-2.871746
-2.901376
-2.845713
-2.732759
-2.606139
-2.499912
-2.430231
-2.405157
-2.432328
-2.513989
-2.637686
-2.774654
-2.888936
-2.951340
-2.948443
-2.881935
-2.763780
-2.613963
-2.459621
-2.331104
-2.254094
-2.240917
-2.286042
-2.368133
-2.458961
-2.538135
-2.605477
-2.677779
-2.767916
-2.865628
-2.941052
-2.967951
-2.943871
-2.890695
-2.840675
-2.822459
-2.852301
-2.929354
-3.036615
-3.148530
-3.239970
-3.291514
-3.294264
-3.255251
-3.195427
-3.138483
-3.100525
-3.087646
-3.097741
-3.121004
-3.140586
-3.137114
-3.096122
-3.015071
-2.906599
-2.795268
-2.708361
-2.664704
-2.665707
-2.692721
-2.714037
-2.699362
-2.633479
-2.521603
-2.384679
-2.248152
-2.131719
-2.046429
-1.997342
-1.984573
-2.001306
-2.034852
-2.072455
-2.106350
-2.135861
-2.168115
-2.215988
-2.290901
-2.394576
-2.518732
-2.653242
-2.792680
-2.935903
-3.083488
-3.237518
-3.398913
-3.558562
-3.692871
-3.773637
-3.784099
-3.725987
-3.614172
-3.469112
-3.316395
-3.189173
-3.120270
-3.123834
-3.185316
-3.271945
-3.354719
-3.424293
-3.490990
-3.572639
-3.681457
-3.817269
-3.966144
-4.101779
-4.190980
-4.205627
-4.134938
-3.985909
-3.771672
-3.501839
-3.183845
-2.827820
-2.446827
-2.056191
-1.676530
-1.335714
-1.060496
-0.860690
-0.722084
-0.614563
-0.505761
-0.370890
-0.197921
0.010217
0.236752
0.455705
0.639815
0.770749
0.846081
0.877238
0.883408
0.889979
0.927988
1.026825
1.202703
1.451811
1.753827
2.083628
2.421732
2.755873
3.076654
3.374303
3.638541
3.861013
4.038729
4.175597
4.281271
4.368682
4.450651
4.536311
4.629643
4.731107
4.841131
4.962758
5.100443
5.255625
5.424098
5.598049
5.769707
5.932404
6.079292
6.203904
6.303946
6.383605
6.450299
6.509490
6.563958
6.616420
6.670320
6.728252
6.790430
6.853676
6.909803
6.944556
6.940826
6.886606
6.781640
6.636652
6.468141
6.295825
6.141741
6.025669
5.957391
5.931367
5.929497
5.932363
5.930026
5.922294
5.910467
5.891492
5.859828
5.811271
5.741921
5.644895
5.512744
5.345699
5.155482
4.957601
4.758184
4.547008
4.302839
4.008375
3.666738
3.308617
2.981209
2.726583
2.569315
2.519546
2.581042
2.753467
3.026151
3.371411
3.749408
4.123323
4.471054
4.787653
5.082342
5.372321
5.674433
5.997475
6.338076
6.680593
7.000504
7.272655
7.484032
7.644582
7.785571
7.941343
8.125748
8.323908
8.508622
8.665756
8.805350
8.952808
9.132416
9.357371
9.629850
9.946134
10.301890
10.694910
11.124930
11.591590
12.091180
12.613670
13.144150
13.668250
14.173910
14.648120
15.074920
15.440350
15.741050
15.986600
16.191031
16.359779
16.482170
16.533890
16.486170
16.316389
16.014420
15.580440
15.017560
14.328710
13.522310
12.622310
11.675720
10.750630
9.921520
9.248295
8.757863
8.437491
8.247412
8.142931
8.084741
8.033191
7.942501
7.766757
7.473806
7.054236
6.517005
5.879478
5.163781
4.397581
3.612164
2.837800
2.098700
1.409191
0.773477
0.188211
-0.353360
-0.854366
-1.305469
-1.680649
-1.944625
-2.067326
-2.032214
-1.836072
-1.486912
-1.001764
-0.404103
0.276266
0.999371
1.708795
2.330253
2.787466
3.031064
3.057826
2.909893
2.658970
2.380004
2.127103
1.929198
1.800759
1.748737
1.769065
1.840217
1.925084
1.984686
1.992501
1.936368
1.812458
1.622070
1.370498
1.063952
0.706730
0.302993
-0.136764
-0.590998
-1.031716
-1.436230
-1.794685
-2.105477
-2.362645
-2.549156
-2.643787
-2.633633
-2.521259
-2.323522
-2.066682
-1.786744
-1.536260
-1.380884
-1.375068
-1.534043
-1.825790
-2.188797
-2.561724
-2.900919
-3.173939
-3.347161
-3.389459
-3.286554
-3.047429
-2.696373
-2.261092
-1.773357
-1.282355
-0.856237
-0.558952
-0.423398
-0.443205
-0.584736
-0.807577
-1.077126
-1.361519
-1.623693
-1.822234
-1.921316
-1.903801
-1.778699
-1.574831
-1.326252
-1.063080
-0.810487
-0.589829
-0.418391
-0.305766
-0.247646
-0.222660
-0.195911
-0.127931
0.012807
0.238883
0.542007
0.899430
1.281830
1.660916
2.016972
2.342158
2.636620
2.901066
3.132144
3.323524
3.470519
3.574058
3.641949
3.687450
3.725170
3.766653
3.819564
3.889837
3.982949
4.102327
4.245300
4.399907
4.547244
4.667926
4.745993
4.768397
4.723549
4.602368
4.403083
4.136291
3.824022
3.492192
3.161923
2.843849
2.538099
2.241353
1.956364
1.695703
1.475533
1.304489
1.177971
1.081371
0.997005
0.909314
0.807078
0.683577
0.536626
0.369473
0.190788
0.011750
-0.158655
-0.317061
-0.465856
-0.610079
-0.753126
-0.894605
-1.032301
-1.166569
-1.302838
-1.448524
-1.604581
-1.758065
-1.884290
-1.957486
-1.959291
-1.880140
-1.716909
-1.471181
-1.150975
-0.774932
-0.373403
0.016138
0.356944
0.622250
0.801410
0.897141
0.917601
0.872026
0.771618
0.631691
0.471510
0.310521
0.163577
0.038714
-0.062920
-0.146580
-0.222735
-0.305434
-0.410850
-0.555002
-0.750514
-1.003857
-1.313287
-1.668020
-2.050576
-2.441130
-2.820603
-3.173108
-3.488875
-3.765678
-4.007734
-4.222582
-4.416336
-4.588875
-4.732097
-4.833174
-4.880193
-4.865460
-4.785371
-4.639556
-4.431648
-4.170945
-3.872185
-3.553131
-3.232537
-2.928428
-2.654081
-2.413451
-2.201227
-2.007753
-1.823820
-1.642625
-1.459938
-1.273804
-1.083771
-0.889415
-0.689687
-0.483942
-0.272873
-0.057980
0.158871
0.373992
0.580037
0.767151
0.928117
1.063755
1.182884
1.295724
1.406040
1.508754
1.594886
1.659076
1.702699
1.730506
1.745154
1.744675
1.723759
1.676528
1.598472
1.486789
1.339946
1.158057
0.944303
0.705598
0.450906
0.187678
-0.081162
-0.357178
-0.643411
-0.940900
-1.246988
-1.555884
-1.860728
-2.156118
-2.439930
-2.713129
-2.977636
-3.234058
-3.480726
-3.713662
-3.926449
-4.110539
-4.257370
-4.361948
-4.426053
-4.459261
-4.476435
-4.491866
-4.513475
-4.541128
-4.568880
-4.588153
-4.590217
-4.567609
-4.514623
-4.428491
-4.311560
-4.171669
-4.018814
-3.860451
-3.699556
-3.536855
-3.374575
-3.217842
-3.072839
-2.943773
-2.830004
-2.724297
-2.614482
-2.488331
-2.337630
-2.159021
-1.952726
-1.721372
-1.470582
-1.210415
-0.954616
-0.717757
-0.513657
-0.355654
-0.257019
-0.230139
-0.283467
-0.417711
-0.624424
-0.887225
-1.183869
-1.489064
-1.777894
-2.029666
-2.232307
-2.384339
-2.491161
-2.558312
-2.587739
-2.579192
-2.533294
-2.452111
-2.337834
-2.193445
-2.025699
-1.846291
-1.668251
-1.499880
-1.342002
-1.190992
-1.043375
-0.897080
-0.750245
-0.601402
-0.451767
-0.306904
-0.175507
-0.065703
0.018791
0.080140
0.124780
0.160747
0.195925
0.236450
0.284501
0.337009
0.386454
0.423152
0.438373
0.427150
0.389226
0.328065
0.248967
0.156803
0.054230
-0.058280
-0.180630
-0.311269
-0.446761
-0.582410
-0.712583
-0.830727
-0.930216
-1.005959
-1.055484
-1.078643
-1.076290
-1.049307
-0.998888
-0.927267
-0.837772
-0.734080
-0.619070
-0.493686
-0.356467
-0.204237
-0.033913
0.155465
0.361999
0.582378
0.814208
1.056459
1.306879
1.558556
1.798641
2.010668
2.179198
2.293239
2.346696
2.337297
2.265748
2.136175
1.957481
1.743260
1.509326
1.270681
1.038844
0.820289
0.617824
0.433913
0.272487
0.137510
0.029349
-0.057654
-0.133547
-0.208726
-0.291739
-0.389650
-0.508743
-0.654049
-0.827577
-1.026828
-1.245575
-1.476156
-1.710807
-1.941417
-2.158976
-2.354340
-2.520915
-2.657201
-2.766591
-2.854890
-2.928001
-2.990814
-3.046828
-3.097987
-3.144432
-3.184287
-3.213799
-3.227723
-3.220057
-3.185927
-3.124411
-3.040496
-2.945610
-2.856996
-2.794135
-2.772132
-2.796223
-2.860344
-2.949643
-3.045955
-3.133337
-3.200144
-3.238493
-3.243983
-3.215663
-3.155584
-3.068381
-2.960905
-2.841405
-2.718160
-2.597866
-2.484859
-2.381975
-2.291299
-2.213094
-2.144380
-2.079071
-2.009723
-1.930304
-1.838972
-1.739243
-1.638760
-1.546584
-1.470240
-1.413193
-1.373553
-1.344792
-1.317561
-1.281286
-1.225796
-1.143320
-1.030128
-0.887518
-0.721740
-0.542165
-0.358876
-0.181626
-0.019705
0.118351
0.225076
0.294528
0.322891
0.309242
0.256531
0.171935
0.065651
-0.051420
-0.170155
-0.285286
-0.395926
-0.503959
-0.611458
-0.718656
-0.822604
-0.916184
-0.988446
-1.027232
-1.022707
-0.969696
-0.868098
-0.721923
-0.538377
-0.327793
-0.102937
0.123332
0.340353
0.540567
0.718875
0.870474
0.988817
1.065677
1.093694
1.070502
1.001991
0.902064
0.789857
