EVENT_NAME: EMILIA_2ND_SHOCK
EVENT_ID: IT-2012-0011
EVENT_DATE_YYYYMMDD: 20120529
EVENT_TIME_HHMMSS: 070002
EVENT_LATITUDE_DEGREE: 44.8417
EVENT_LONGITUDE_DEGREE: 11.0657
EVENT_DEPTH_KM: 8.1
HYPOCENTER_REFERENCE: INGV-CNT_Seismic_Bulletin
MAGNITUDE_W: 6.0
MAGNITUDE_W_REFERENCE: RCMT-INGV
MAGNITUDE_L: 5.8
MAGNITUDE_L_REFERENCE: INGV-CNT_Seismic_Bulletin
FOCAL_MECHANISM: TF
NETWORK: IV
STATION_CODE: T0805
STATION_NAME: T0805
STATION_LATITUDE_DEGREE: 44.918700
STATION_LONGITUDE_DEGREE: 11.322600
STATION_ELEVATION_M: 5
LOCATION: 
SENSOR_DEPTH_M: 1.0
VS30_M/S: 
SITE_CLASSIFICATION_EC8: C*
MORPHOLOGIC_CLASSIFICATION: 
EPICENTRAL_DISTANCE_KM: 22.0
EARTHQUAKE_BACKAZIMUTH_DEGREE: 247.2
DATE_TIME_FIRST_SAMPLE_YYYYMMDD_HHMMSS: 20120529_065953.000
DATE_TIME_FIRST_SAMPLE_PRECISION: milliseconds
SAMPLING_INTERVAL_S: 0.005000
NDATA: 30001
DURATION_S: 150.005
STREAM: HNZ
UNITS: cm/s
INSTRUMENT: sensor = Episensor FBA ES-T [Kinemetrics] | digitizer = Unknown [Unknown]
INSTRUMENT_ANALOG/DIGITAL: D
INSTRUMENTAL_FREQUENCY_HZ: 
INSTRUMENTAL_DAMPING: 
FULL_SCALE_G: 
N_BIT_DIGITAL_CONVERTER: 
PGV_CM/S: -1.484095
TIME_PGV_S: 24.185000
BASELINE_CORRECTION: BASELINE REMOVED
FILTER_TYPE: BUTTERWORTH
FILTER_ORDER: 2
LOW_CUT_FREQUENCY_HZ: 0.060
HIGH_CUT_FREQUENCY_HZ: 40.000
LATE/NORMAL_TRIGGERED: NT
DATABASE_VERSION: DYNA 1.0
HEADER_FORMAT: DYNA 1.2
DATA_TYPE: VELOCITY
PROCESSING: manual (Paolucci et al., 2011)
DATA_TIMESTAMP_YYYYMMDD_HHMMSS: 
DATA_LICENSE: CC-BY4_0 (http://creativecommons.org/licenses/by/4.0/)
DATA_CITATION: ESM working group (2015), European Strong-Motion database, version 0.1, Network Activity 3: Networking acceleration networks and SM data users. Project NERA (www.nera-eu.org)
DATA_CREATOR: ESM working group
ORIGINAL_DATA_MEDIATOR_CITATION: Orfeus - European Integrated Data Archive (EIDA) http://www.orfeus-eu.org/eida/
ORIGINAL_DATA_MEDIATOR: Orfeus - European Integrated Data Archive (EIDA)
ORIGINAL_DATA_CREATOR_CITATION: Data for this study comes from the Italian national seismic network operated by Istituto Nazionale di Geofisica e Vulcanologia and archived at the European Integrated Data Archive http://eida.rm.ingv.it/
ORIGINAL_DATA_CREATOR: network: IV (Italian National Seismic Network); owner: Istituto Nazionale di Geofisica e Vulcanologia
USER1: 
USER2: 
USER3: 
USER4: 
USER5: 
[...]
0.044932
0.020703
-0.000121
-0.006921
0.008256
0.042621
0.080979
0.104975
0.102463
0.071145
0.021085
-0.027529
-0.058198
-0.071919
-0.083550
-0.107267
-0.148761
-0.202371
-0.248035
-0.260666
-0.231079
-0.172853
-0.109619
-0.062833
-0.044604
-0.049055
-0.052742
-0.032611
0.016280
0.081852
0.146268
0.193296
0.215790
0.223319
0.235909
0.267114
0.316842
0.374957
0.424131
0.445850
0.431788
0.387635
0.327601
0.269937
0.231002
0.214853
0.210959
0.204700
0.187491
0.159601
0.130796
0.117790
0.132365
0.168839
0.207004
0.225088
0.207547
0.152572
0.081291
0.029929
0.027812
0.086333
0.195091
0.315886
0.398279
0.415827
0.379458
0.322214
0.285431
0.302519
0.372246
0.454167
0.501437
0.492824
0.435390
0.353923
0.281143
0.240444
0.229517
0.228318
0.223217
0.216800
0.218839
0.236459
0.269772
0.308425
0.333182
0.329368
0.300885
0.266637
0.245701
0.249363
0.277447
0.313723
0.332684
0.316448
0.262111
0.179823
0.092243
0.026286
-0.004331
-0.004722
0.011419
0.031282
0.047897
0.065771
0.100528
0.166621
0.264944
0.383928
0.508178
0.622867
0.714423
0.771387
0.787448
0.767091
0.726370
0.684996
0.658453
0.653253
0.661400
0.661997
0.638340
0.594776
0.550842
0.520843
0.504942
0.493915
0.474160
0.434315
0.376135
0.316320
0.272912
0.251947
0.247962
0.251575
0.253581
0.246256
0.225006
0.191425
0.158255
0.148998
0.184806
0.269624
0.387305
0.504539
0.577150
0.571981
0.491002
0.368279
0.250042
0.181585
0.191430
0.273091
0.389865
0.495680
0.549277
0.532931
0.473290
0.426024
0.432433
0.499672
0.604395
0.694726
0.712341
0.637646
0.503402
0.363533
0.264090
0.231193
0.259919
0.315653
0.358365
0.365173
0.334096
0.280985
0.234060
0.218564
0.241401
0.290303
0.340302
0.360481
0.329879
0.254949
0.166170
0.100984
0.092272
0.153014
0.258614
0.358362
0.409465
0.393262
0.316349
0.214081
0.135570
0.109803
0.133544
0.186640
0.245330
0.289704
0.313379
0.326067
0.346683
0.397359
0.494675
0.634255
0.785976
0.904683
0.941110
0.861451
0.681441
0.471801
0.313396
0.252297
0.289051
0.379919
0.448574
0.429764
0.312831
0.135718
-0.049482
-0.194909
-0.263438
-0.236348
-0.119042
0.052145
0.211883
0.289391
0.234290
0.035013
-0.258577
-0.539966
-0.710637
-0.745353
-0.686593
-0.599422
-0.542922
-0.545545
-0.581218
-0.591304
-0.541391
-0.441895
-0.320136
-0.193352
-0.066023
0.062738
0.193612
0.321191
0.428745
0.494294
0.505587
0.464744
0.379230
0.254500
0.096144
-0.083162
-0.261911
-0.417844
-0.536604
-0.613178
-0.650460
-0.657666
-0.648653
-0.641758
-0.656152
-0.703403
-0.782702
-0.876309
-0.943588
-0.937879
-0.844900
-0.696370
-0.550576
-0.473588
-0.513526
-0.657317
-0.823265
-0.914978
-0.874996
-0.699352
-0.439831
-0.191654
-0.040720
-0.011136
-0.068425
-0.153002
-0.202217
-0.173096
-0.065677
0.083731
0.228985
0.328941
0.356867
0.311285
0.213211
0.093993
-0.012258
-0.076211
-0.081446
-0.026582
0.074777
0.196707
0.311014
0.396919
0.445901
0.466757
0.483377
0.515914
0.561660
0.597673
0.596438
0.536250
0.413595
0.256907
0.113319
0.013630
-0.041304
-0.068338
-0.091306
-0.132281
-0.198417
-0.279879
-0.365102
-0.454082
-0.551935
-0.650150
-0.719810
-0.723962
-0.632530
-0.437147
-0.172303
0.084327
0.253557
0.297951
0.229416
0.101653
-0.003935
-0.020072
0.063952
0.208077
0.355514
0.452316
0.459826
0.368198
0.195810
-0.019749
-0.229259
-0.385667
-0.458551
-0.440430
-0.351765
-0.236610
-0.136628
-0.066641
-0.019522
0.012347
0.026976
0.017169
-0.022860
-0.091607
-0.172854
-0.236424
-0.256792
-0.232601
-0.183509
-0.133421
-0.102455
-0.107745
-0.164069
-0.279762
-0.448150
-0.644739
-0.831899
-0.962540
-0.994166
-0.916465
-0.758214
-0.563953
-0.373369
-0.213112
-0.088945
0.013361
0.111983
0.214801
0.318714
0.414839
0.492648
0.545908
0.578161
0.598482
0.610169
0.606338
0.575095
0.505594
0.394587
0.256082
0.122019
0.025756
-0.014490
0.002616
0.066156
0.156795
0.251528
0.327535
0.368627
0.376882
0.374998
0.393381
0.457502
0.579108
0.744836
0.916499
1.053587
1.134573
1.156662
1.125384
1.049338
0.942497
0.828762
0.736127
0.681168
0.662476
0.663013
0.651075
0.593231
0.480886
0.337763
0.199683
0.096236
0.045964
0.054532
0.115177
0.210144
0.308890
0.374457
0.379525
0.315356
0.200350
0.092022
0.065558
0.161845
0.367340
0.630357
0.872720
1.013079
1.011484
0.883335
0.675534
0.449225
0.267527
0.175179
0.190053
0.301195
0.460677
0.598592
0.661411
0.629719
0.518987
0.384038
0.295218
0.285445
0.332130
0.385624
0.395465
0.326923
0.182550
0.003742
-0.162184
-0.292576
-0.388933
-0.461481
-0.519361
-0.564317
-0.586652
-0.574953
-0.536831
-0.503897
-0.509413
-0.564282
-0.653575
-0.742624
-0.785160
-0.745320
-0.621315
-0.443243
-0.255445
-0.105241
-0.030803
-0.047516
-0.145701
-0.293882
-0.444282
-0.548788
-0.574971
-0.512292
-0.376749
-0.209179
-0.061333
0.016454
-0.011599
-0.145098
-0.342479
-0.540010
-0.668033
-0.670921
-0.541184
-0.327319
-0.103327
0.057466
0.099337
0.008045
-0.184421
-0.420904
-0.634587
-0.764120
-0.779857
-0.691512
-0.533413
-0.354457
-0.203863
-0.104777
-0.047611
-0.011872
0.014372
0.032475
0.038068
0.026075
0.000194
-0.018516
-0.003506
0.049147
0.113023
0.156164
0.166551
0.155326
0.149868
0.185389
0.284673
0.437503
0.610534
0.778021
0.933398
1.075331
1.193879
1.274289
1.311614
1.315876
1.303402
1.287764
1.273838
1.250769
1.194612
1.093517
0.973635
0.885350
0.861462
0.899577
0.971682
1.031571
1.029774
0.941837
0.777668
0.568455
0.357755
0.192090
0.103606
0.102767
0.177587
0.288457
0.380569
0.414442
0.378635
0.284704
0.165241
0.061472
-0.002770
-0.029777
-0.034111
-0.030212
-0.027059
-0.022916
-0.005716
0.035542
0.099432
0.173454
0.242671
0.294293
0.319736
0.317438
0.293568
0.261528
0.240143
0.246116
0.285186
0.349133
0.415157
0.450226
0.431534
0.368526
0.296728
0.252790
0.260450
0.321490
0.405194
0.463400
0.467462
0.421349
0.343697
0.251753
0.158162
0.071464
-0.002240
-0.056531
-0.084396
-0.085722
-0.081131
-0.112189
-0.212323
-0.375288
-0.559493
-0.714428
-0.796515
-0.782696
-0.685856
-0.545059
-0.396630
-0.261347
-0.148424
-0.058453
0.014955
0.082684
0.157970
0.251445
0.365098
0.490418
0.608358
0.691360
0.713068
0.659618
0.535389
0.368038
0.206894
0.106084
0.107262
0.229118
0.454894
0.733270
1.003902
1.220567
1.357717
1.413665
1.407501
1.363973
1.300658
1.223990
1.126710
0.989742
0.795790
0.544822
0.259796
-0.011302
-0.201639
-0.258885
-0.182637
-0.022202
0.149558
0.255885
0.247210
0.135606
-0.016221
-0.137224
-0.171993
-0.097809
0.054712
0.216283
0.322122
0.335258
0.260692
0.163922
0.143759
0.264354
0.525703
0.871917
1.193706
1.366066
1.327844
1.109607
0.798623
0.511413
0.359371
0.387875
0.558562
0.788436
0.982195
1.060608
1.005639
0.869969
0.732166
0.655455
0.669383
0.751774
0.831415
0.832327
0.717270
0.495247
0.214691
-0.048235
-0.222983
-0.278258
-0.225878
-0.111002
0.000907
0.057515
0.053570
0.025036
0.019060
0.074693
0.202958
0.365451
0.493863
0.542018
0.507556
0.419939
0.331018
0.295810
0.336422
0.431251
0.538415
0.616094
0.632660
0.578846
0.469539
0.330890
0.190196
0.069827
-0.021532
-0.090111
-0.146047
-0.192730
-0.223114
-0.217831
-0.147846
0.008625
0.246428
0.532343
0.814702
1.031812
1.129798
1.082883
0.898177
0.613844
0.292780
0.001905
-0.207219
-0.306297
-0.297617
-0.212382
-0.093968
0.015196
0.081566
0.092068
0.056516
-0.001651
-0.051655
-0.063795
-0.025035
0.055867
0.155808
0.242727
0.285744
0.274428
0.225255
0.171409
0.153337
0.201682
0.307053
0.413993
0.455943
0.390339
0.210434
-0.048723
-0.316841
-0.524631
-0.638462
-0.659820
-0.607713
-0.508331
-0.391393
-0.288670
-0.225810
-0.205353
-0.202914
-0.185193
-0.128587
-0.031333
0.072107
0.114610
0.042299
-0.136010
-0.353546
-0.522997
-0.561774
-0.424744
-0.141679
0.199548
0.509528
0.726184
0.824008
0.826593
0.789840
0.759286
0.751096
0.757120
0.748224
0.687409
0.556035
0.363077
0.133242
-0.103129
-0.319209
-0.506300
-0.676037
-0.841711
-0.999730
-1.129741
-1.204732
-1.199024
-1.102589
-0.937392
-0.747993
-0.572589
-0.429821
-0.320811
-0.230062
-0.135694
-0.030371
0.071814
0.148029
0.178687
0.151783
0.066202
-0.068585
-0.237764
-0.424284
-0.610063
-0.778288
-0.915052
-1.013325
-1.078011
-1.120646
-1.145650
-1.145600
-1.110491
-1.038333
-0.939141
-0.836710
-0.765457
-0.752356
-0.797085
-0.874193
-0.948734
-0.986778
-0.968485
-0.902907
-0.822454
-0.762894
-0.752432
-0.804851
-0.910563
-1.040901
-1.162772
-1.246378
-1.269729
-1.225054
-1.121003
-0.982713
-0.847912
-0.749709
-0.698087
-0.678783
-0.661337
-0.607865
-0.493431
-0.327361
-0.144998
0.020698
0.152854
0.250535
0.329016
0.409928
0.500775
0.588026
0.648771
0.661644
0.612094
0.498215
0.332139
0.136905
-0.054300
-0.205533
-0.294443
-0.319034
-0.296008
-0.261555
-0.257494
-0.301251
-0.375652
-0.444669
-0.467340
-0.410647
-0.269761
-0.072223
0.142065
0.338419
0.494002
0.603926
0.680819
0.743673
0.808192
0.881635
0.956703
1.012043
1.026676
0.995040
0.929027
0.853868
0.802373
0.798855
0.842158
0.910031
0.977246
1.025047
1.043901
1.036712
1.015437
0.992146
0.974443
0.963960
0.954391
0.934713
0.897143
0.840767
0.771086
0.699886
0.639994
0.594518
0.554474
0.510136
0.462240
0.420200
0.392761
0.382809
0.384956
0.383097
0.358061
0.304520
0.236072
0.173042
0.130777
0.115981
0.124871
0.144491
0.160134
0.161480
0.142197
0.096758
0.019384
-0.091854
-0.228955
-0.374103
-0.504143
-0.593673
-0.620316
-0.571375
-0.447155
-0.263667
-0.051541
0.153077
0.316873
0.416450
0.449104
0.433712
0.395582
0.353332
0.316922
0.289165
0.267666
0.247515
0.222366
0.184591
0.125909
0.038663
-0.078693
-0.214539
-0.346824
-0.453180
-0.515734
-0.522151
-0.468068
-0.358110
-0.205945
-0.032660
0.139805
0.294781
0.422200
0.518577
0.584909
0.619618
0.612459
0.549891
0.428774
0.261671
0.072164
-0.108729
-0.250608
-0.339231
-0.380646
-0.389691
-0.380088
-0.360517
-0.330859
-0.282863
-0.210010
-0.117757
-0.022801
0.054141
0.093264
0.082913
0.028268
-0.051378
-0.133547
-0.199052
-0.237769
-0.255337
-0.268770
-0.293568
-0.337771
-0.402387
-0.480758
-0.559781
-0.623483
-0.655029
-0.639667
-0.569342
-0.447349
-0.294379
-0.147590
-0.044223
-0.004956
-0.031923
-0.113163
-0.227782
-0.355745
-0.485691
-0.611679
-0.723857
-0.805468
-0.841680
-0.830440
-0.783636
-0.722884
-0.674899
-0.660217
-0.680941
-0.722218
-0.762052
-0.777211
-0.748538
-0.667275
-0.538224
-0.382278
-0.235105
-0.136305
-0.118227
-0.197360
-0.362531
-0.574284
-0.783610
-0.948808
-1.043209
-1.063601
-1.029844
-0.970129
-0.908731
-0.861412
-0.830974
-0.807548
-0.776838
-0.727314
-0.653707
-0.560896
-0.464040
-0.381910
-0.330557
-0.319004
-0.343472
-0.386808
-0.426596
-0.442475
-0.421039
-0.362601
-0.282450
-0.204507
-0.156707
-0.164876
-0.241418
-0.381337
-0.565173
-0.758979
-0.922524
-1.027919
-1.066935
-1.047498
-0.993185
-0.935823
-0.898956
-0.891017
-0.907814
-0.932923
-0.943287
-0.921653
-0.861891
-0.767740
-0.652983
-0.536300
-0.429819
-0.334453
-0.242459
-0.139205
-0.009210
0.152000
0.333970
0.517409
0.678748
0.794690
0.850219
0.840917
0.769347
0.643748
0.477579
0.287905
0.093725
-0.088761
-0.251519
-0.394134
-0.519886
-0.633000
-0.735835
-0.826190
-0.897873
-0.943338
-0.955150
-0.927136
-0.855800
-0.740682
-0.584183
-0.390904
-0.166340
0.083009
0.346699
0.605466
0.830651
0.993441
1.075530
1.073774
1.003626
0.896879
0.786747
0.693737
0.623969
0.572397
0.526421
0.472320
0.400316
0.305207
0.185738
0.044008
-0.114492
-0.279792
-0.439555
-0.584546
-0.710470
-0.815399
-0.897740
-0.956358
-0.991643
-1.005981
-1.003514
-0.989897
-0.969917
-0.942813
-0.901450
-0.838312
-0.751686
-0.646083
-0.529796
-0.412731
-0.302441
-0.200079
-0.101632
-0.002503
0.100378
0.209163
0.325671
0.450627
0.581856
0.713356
0.834748
0.930138
0.981956
0.979842
0.923839
0.821627
0.687540
0.540068
0.396162
0.268926
0.167674
0.096603
0.053511
0.028519
0.005054
-0.033079
-0.093917
-0.174473
-0.259323
-0.322901
-0.342291
-0.310911
-0.239798
-0.152606
-0.080109
-0.047241
-0.059464
-0.104071
-0.160226
-0.205872
-0.226235
-0.222904
-0.211345
-0.210703
-0.237517
-0.299365
-0.387448
-0.480657
-0.558417
-0.607125
-0.621841
-0.608713
-0.580368
-0.544903
-0.501437
-0.443561
-0.362507
-0.250459
-0.105873
0.064919
0.250584
0.436514
0.607038
0.749874
0.857633
0.926770
0.957720
0.954520
0.923435
0.871851
0.806272
0.730128
0.643393
0.543012
0.424408
0.287220
0.141843
0.007096
-0.098568
-0.162084
-0.180430
-0.166812
-0.145299
-0.135761
-0.146928
-0.176688
-0.211298
-0.231643
-0.227042
-0.200473
-0.163442
-0.131563
-0.118926
-0.128428
-0.149619
-0.168333
-0.175970
-0.171940
-0.163982
-0.166163
-0.190436
-0.238404
-0.303343
-0.378456
-0.461181
-0.553834
-0.663821
-0.798832
-0.957113
-1.124318
-1.279572
-1.400995
-1.470897
-1.484095
-1.449640
-1.383292
-1.301372
-1.216857
-1.133761
-1.046130
-0.944122
-0.819623
-0.669676
-0.500723
-0.328786
-0.172001
-0.043359
0.051714
0.116760
0.163086
0.202860
0.242633
0.282241
0.315716
0.332743
0.322450
0.277001
0.193195
0.073989
-0.071759
-0.232488
-0.396230
-0.551895
-0.691372
-0.810114
-0.906582
-0.982478
-1.041376
-1.085477
-1.113944
-1.122495
-1.102916
-1.046505
-0.951438
-0.825380
-0.682275
-0.539936
-0.415621
-0.317636
-0.243091
-0.184126
-0.133350
-0.086673
-0.046599
-0.022318
-0.023680
-0.055133
-0.114615
-0.194440
-0.282429
-0.364408
-0.426386
-0.457687
-0.456558
-0.431761
-0.398917
-0.377496
-0.383953
-0.418895
-0.463794
-0.492303
-0.481115
-0.417330
-0.308181
-0.181881
-0.073197
-0.010145
-0.008478
-0.066481
-0.165108
-0.276103
-0.367836
-0.411772
-0.394167
-0.319909
-0.208240
-0.091207
-0.004651
0.030987
0.017234
-0.030982
-0.091763
-0.143095
-0.174732
-0.191726
-0.207109
-0.235987
-0.291505
-0.378847
-0.493581
-0.625122
-0.758797
-0.878844
-0.974316
-1.040888
-1.078107
-1.087889
-1.074730
-1.046226
-1.012781
-0.984671
-0.968583
-0.965608
-0.969177
-0.965626
-0.940374
-0.884031
-0.794084
-0.675320
-0.538894
-0.398650
-0.268253
-0.158939
-0.075818
-0.017063
0.023169
0.052580
0.077917
0.099996
0.112564
0.107582
0.080708
0.033723
-0.023553
-0.074149
-0.101663
-0.098318
-0.066167
-0.015258
0.038746
0.080141
0.098356
0.089057
0.054004
0.000184
-0.062293
-0.121273
-0.164696
-0.185039
-0.180864
-0.155679
-0.117983
-0.079252
-0.049133
-0.033489
-0.035107
-0.053729
-0.086588
-0.129786
-0.179060
-0.229989
-0.277921
-0.317977
-0.345336
-0.355578
-0.346435
-0.320441
-0.285091
-0.251220
-0.231106
-0.233148
-0.255802
-0.289212
-0.322023
-0.345204
-0.354360
-0.352268
-0.346328
-0.341894
-0.339475
-0.336346
-0.327956
-0.309492
-0.278521
-0.235980
-0.185593
-0.133849
-0.088590
-0.055769
-0.038124
-0.035450
-0.044305
-0.059220
-0.075632
-0.090970
-0.103477
-0.111154
-0.112043
-0.105324
-0.091901
-0.074744
-0.059336
-0.051360
-0.051697
-0.054843
-0.052125
-0.034695
0.003899
0.063828
0.138253
0.217262
0.291082
0.351633
0.394569
0.419788
0.430489
0.432939
0.434298
0.437921
0.441602
0.439369
0.423042
0.385541
0.326956
0.256098
0.185204
0.124995
0.082111
0.056142
0.039732
0.024224
0.004973
-0.017693
-0.039097
-0.051417
-0.047149
-0.022482
0.022341
0.083973
0.157025
0.236111
0.317481
0.398632
0.476959
0.549021
0.610656
0.657311
0.685218
0.693573
0.684893
0.662488
0.628203
0.582483
0.525526
0.458207
0.383531
0.308225
0.240767
0.186398
0.145086
0.112501
0.080412
0.039395
-0.015513
-0.082702
-0.155662
-0.223759
-0.274614
-0.299172
-0.293725
-0.259390
-0.202640
-0.133487
-0.060891
0.009454
0.075717
0.141022
0.211349
0.290487
0.377877
0.469636
0.559224
0.639333
0.705645
0.758035
0.798679
0.830625
0.857070
0.880315
0.901233
0.918734
0.928874
0.926169
0.906951
0.870933
0.821379
0.765750
0.713347
0.669863
0.635524
0.607933
0.584709
0.565072
0.551766
0.551131
0.569389
0.608657
0.666235
0.735369
0.806417
0.870064
0.920437
0.955505
0.976381
0.986474
0.989914
0.990378
0.990481
0.990933
0.990467
0.986998
0.978646
0.964496
0.945640
0.925216
0.906514
0.891103
0.878675
0.867685
0.855985
0.842177
0.827107
0.813788
0.806376
0.809236
0.824722
0.850441
0.879692
0.904127
0.915655
0.909564
0.888126
0.858999
0.829827
0.805374
0.786216
0.767001
0.738680
0.694215
0.631077
0.550823
0.459385
0.365665
0.278053
0.202790
0.143527
0.100431
0.071036
0.052627
0.043606
0.044290
0.057680
0.087769
0.135662
0.198008
0.267974
0.335858
0.391676
0.430466
0.454159
0.469629
0.487450
0.518513
0.567357
0.629984
0.697307
0.757831
0.800734
0.821274
0.822204
0.809779
0.790437
0.769148
0.747353
0.722691
0.691494
0.651023
0.600312
0.540829
0.476286
0.410885
0.347902
0.289962
0.240093
0.202254
0.180901
0.180235
0.202798
0.247125
0.307323
0.375527
0.443832
0.505114
0.554112
0.587606
0.603854
0.602617
0.585078
0.553385
0.510218
0.458094
0.398942
0.334851
0.269599
0.208967
0.158484
0.120799
0.095025
0.076956
0.060102
0.039558
0.016051
-0.004897
-0.016863
-0.014729
0.003827
0.036549
0.077720
0.121570
0.163955
0.202749
0.238532
0.274152
0.313294
0.359624
0.415868
0.482625
0.558016
0.637762
0.715572
0.784646
0.839209
0.875769
0.894930
0.901435
0.901074
0.897777
0.892753
0.884099
0.867348
0.838194
0.795047
0.738678
0.670301
0.590645
0.500387
0.401000
0.295386
0.188427
0.086717
-0.004076
-0.082144
-0.149449
-0.209911
-0.268110
-0.327650
-0.389463
-0.451838
-0.511400
-0.563852
-0.605160
-0.632876
-0.646918
-0.650414
-0.649520
-0.651106
-0.660514
-0.680590
-0.710721
-0.746841
-0.782713
-0.810717
-0.823453
-0.816944
-0.791641
-0.750855
-0.699746
-0.643788
-0.585864
-0.525606
-0.462279
-0.397674
-0.336043
-0.282410
-0.241486
-0.216271
-0.206282
-0.207872
-0.215992
-0.225294
-0.231365
-0.232168
-0.228411
-0.223458
-0.222606
-0.230261
-0.246977
-0.269691
-0.293786
-0.314499
-0.328628
-0.336442
-0.341277
-0.347635
-0.360157
-0.383075
-0.419528
-0.470692
-0.534436
-0.605194
-0.675899
-0.739705
-0.791384
-0.829518
-0.856938
-0.878792
-0.901037
-0.928725
-0.963064
-1.000537
-1.034667
-1.057378
-1.061299
-1.044031
-1.009386
-0.964739
-0.919007
-0.880574
-0.853673
-0.837360
-0.827763
-0.819803
-0.808917
-0.793948
-0.777944
-0.766033
-0.763579
-0.774720
-0.800157
-0.836725
-0.879568
-0.923950
-0.966156
-1.004637
-1.040091
-1.073920
-1.106929
-1.139171
-1.170201
-1.199367
