EVENT_NAME: EMILIA_2ND_SHOCK
EVENT_ID: IT-2012-0011
EVENT_DATE_YYYYMMDD: 20120529
EVENT_TIME_HHMMSS: 070002
EVENT_LATITUDE_DEGREE: 44.8417
EVENT_LONGITUDE_DEGREE: 11.0657
EVENT_DEPTH_KM: 8.1
HYPOCENTER_REFERENCE: INGV-CNT_Seismic_Bulletin
MAGNITUDE_W: 6.0
MAGNITUDE_W_REFERENCE: RCMT-INGV
MAGNITUDE_L: 5.8
MAGNITUDE_L_REFERENCE: INGV-CNT_Seismic_Bulletin
FOCAL_MECHANISM: TF
NETWORK: IV
STATION_CODE: T0805
STATION_NAME: T0805
STATION_LATITUDE_DEGREE: 44.918700
STATION_LONGITUDE_DEGREE: 11.322600
STATION_ELEVATION_M: 5
LOCATION: 
SENSOR_DEPTH_M: 1.0
VS30_M/S: 
SITE_CLASSIFICATION_EC8: C*
MORPHOLOGIC_CLASSIFICATION: 
EPICENTRAL_DISTANCE_KM: 22.0
EARTHQUAKE_BACKAZIMUTH_DEGREE: 247.2
DATE_TIME_FIRST_SAMPLE_YYYYMMDD_HHMMSS: 20120529_065953.000
DATE_TIME_FIRST_SAMPLE_PRECISION: milliseconds
SAMPLING_INTERVAL_S: 0.005000
NDATA: 30001
DURATION_S: 150.005
STREAM: HNZ
UNITS: cm
INSTRUMENT: sensor = Episensor FBA ES-T [Kinemetrics] | digitizer = Unknown [Unknown]
INSTRUMENT_ANALOG/DIGITAL: D
INSTRUMENTAL_FREQUENCY_HZ: 
INSTRUMENTAL_DAMPING: 
FULL_SCALE_G: 
N_BIT_DIGITAL_CONVERTER: 
PGD_CM: -0.733199
TIME_PGD_S: 27.740000
BASELINE_CORRECTION: BASELINE REMOVED
FILTER_TYPE: BUTTERWORTH
FILTER_ORDER: 2
LOW_CUT_FREQUENCY_HZ: 0.060
HIGH_CUT_FREQUENCY_HZ: 40.000
LATE/NORMAL_TRIGGERED: NT
DATABASE_VERSION: DYNA 1.0
HEADER_FORMAT: DYNA 1.2
DATA_TYPE: DISPLACEMENT
PROCESSING: manual (Paolucci et al., 2011)
DATA_TIMESTAMP_YYYYMMDD_HHMMSS: 
DATA_LICENSE: CC-BY4_0 (http://creativecommons.org/licenses/by/4.0/)
DATA_CITATION: ESM working group (2015), European Strong-Motion database, version 0.1, Network Activity 3: Networking acceleration networks and SM data users. Project NERA (www.nera-eu.org)
DATA_CREATOR: ESM working group
ORIGINAL_DATA_MEDIATOR_CITATION: Orfeus - European Integrated Data Archive (EIDA) http://www.orfeus-eu.org/eida/
ORIGINAL_DATA_MEDIATOR: Orfeus - European Integrated Data Archive (EIDA)
ORIGINAL_DATA_CREATOR_CITATION: Data for this study comes from the Italian national seismic network operated by Istituto Nazionale di Geofisica e Vulcanologia and archived at the European Integrated Data Archive http://eida.rm.ingv.it/
ORIGINAL_DATA_CREATOR: network: IV (Italian National Seismic Network); owner: Istituto Nazionale di Geofisica e Vulcanologia
USER1: 
USER2: 
USER3: 
USER4: 
USER5: 
[...]
1.537115e-01
1.490989e-01
1.439593e-01
1.386246e-01
1.333871e-01
1.284212e-01
1.237421e-01
1.192473e-01
1.147922e-01
1.102532e-01
1.055885e-01
1.008721e-01
9.626385e-02
9.195439e-02
8.811569e-02
8.485077e-02
8.216928e-02
8.002018e-02
7.834792e-02
7.713562e-02
7.643959e-02
7.639354e-02
7.715354e-02
7.882339e-02
8.141044e-02
8.480418e-02
8.877763e-02
9.302873e-02
9.723331e-02
1.010800e-01
1.042988e-01
1.066867e-01
1.081262e-01
1.085948e-01
1.081510e-01
1.068934e-01
1.049228e-01
1.023233e-01
9.915833e-02
9.547915e-02
9.134820e-02
8.685883e-02
8.214214e-02
7.736639e-02
7.273071e-02
6.845171e-02
6.474830e-02
6.182738e-02
5.987286e-02
5.904116e-02
5.945621e-02
6.118971e-02
6.421704e-02
6.837029e-02
7.333750e-02
7.871515e-02
8.408402e-02
8.910215e-02
9.358654e-02
9.752028e-02
1.009890e-01
1.041088e-01
1.069708e-01
1.096029e-01
1.119645e-01
1.139661e-01
1.154921e-01
1.164208e-01
1.166408e-01
1.160684e-01
1.146694e-01
1.124716e-01
1.095489e-01
1.059966e-01
1.019196e-01
9.743087e-02
9.264908e-02
8.769087e-02
8.266096e-02
7.764339e-02
7.269391e-02
6.784432e-02
6.313026e-02
5.862301e-02
5.443145e-02
5.067302e-02
4.744260e-02
4.479362e-02
4.272997e-02
4.121777e-02
4.021737e-02
3.970921e-02
3.969670e-02
4.019859e-02
4.124440e-02
4.287276e-02
4.512589e-02
4.803517e-02
5.160195e-02
5.577569e-02
6.042638e-02
6.533616e-02
7.023537e-02
7.485456e-02
7.896270e-02
8.240040e-02
8.510074e-02
8.708155e-02
8.842618e-02
8.926455e-02
8.974756e-02
9.001511e-02
9.015771e-02
9.018298e-02
9.001758e-02
8.954800e-02
8.867564e-02
8.737902e-02
8.576451e-02
8.405306e-02
8.249851e-02
8.129952e-02
8.053649e-02
8.013595e-02
7.989974e-02
7.960242e-02
7.908207e-02
7.828094e-02
7.725158e-02
7.612040e-02
7.500588e-02
7.394916e-02
7.289564e-02
7.170806e-02
7.021123e-02
6.827399e-02
6.587071e-02
6.307862e-02
6.004299e-02
5.693379e-02
5.389023e-02
5.098838e-02
4.826387e-02
4.575669e-02
4.353888e-02
4.172635e-02
4.047406e-02
3.994469e-02
4.026928e-02
4.152220e-02
4.370477e-02
4.673996e-02
5.048934e-02
5.477750e-02
5.941135e-02
6.419995e-02
6.897255e-02
7.358972e-02
7.794898e-02
8.198034e-02
8.563098e-02
8.884795e-02
9.156301e-02
9.368505e-02
9.512115e-02
9.583036e-02
9.586584e-02
9.537300e-02
9.456258e-02
9.366043e-02
9.282637e-02
9.209988e-02
9.142107e-02
9.068643e-02
8.980299e-02
8.874650e-02
8.758828e-02
8.645307e-02
8.545071e-02
8.463350e-02
8.397568e-02
8.338105e-02
8.273891e-02
8.199082e-02
8.114915e-02
8.026930e-02
7.940960e-02
7.858970e-02
7.775888e-02
7.680670e-02
7.561468e-02
7.409797e-02
7.220569e-02
6.989978e-02
6.713061e-02
6.381150e-02
5.981734e-02
5.503178e-02
4.941019e-02
4.301233e-02
3.600735e-02
2.865286e-02
2.123239e-02
1.398419e-02
7.067726e-03
5.608673e-04
-5.523419e-03
-1.119222e-02
-1.642287e-02
-2.114348e-02
-2.524160e-02
-2.858998e-02
-3.109359e-02
-3.273752e-02
-3.359753e-02
-3.381432e-02
-3.355575e-02
-3.297195e-02
-3.215652e-02
-3.114222e-02
-2.992906e-02
-2.851786e-02
-2.693928e-02
-2.527556e-02
-2.366331e-02
-2.227830e-02
-2.131233e-02
-2.094238e-02
-2.130118e-02
-2.246362e-02
-2.444477e-02
-2.720424e-02
-3.066111e-02
-3.471168e-02
-3.924459e-02
-4.415698e-02
-4.936386e-02
-5.479124e-02
-6.036096e-02
-6.597344e-02
-7.148801e-02
-7.672054e-02
-8.147773e-02
-8.560463e-02
-8.901601e-02
-9.171569e-02
-9.379379e-02
-9.538197e-02
-9.659742e-02
-9.751805e-02
-9.818480e-02
-9.861817e-02
-9.885116e-02
-9.896275e-02
-9.908116e-02
-9.935682e-02
-9.992989e-02
-1.009021e-01
-1.023142e-01
-1.041363e-01
-1.062682e-01
-1.085566e-01
-1.108394e-01
-1.129982e-01
-1.149928e-01
-1.168803e-01
-1.188001e-01
-1.208945e-01
-1.232135e-01
-1.256750e-01
-1.280806e-01
-1.301673e-01
-1.317082e-01
-1.326176e-01
-1.329836e-01
-1.330343e-01
-1.330767e-01
-1.334091e-01
-1.342346e-01
-1.356151e-01
-1.374543e-01
-1.395132e-01
-1.414840e-01
-1.430835e-01
-1.441247e-01
-1.445808e-01
-1.446040e-01
-1.444491e-01
-1.443629e-01
-1.445178e-01
-1.449767e-01
-1.456921e-01
-1.465658e-01
-1.475244e-01
-1.485600e-01
-1.497399e-01
-1.511974e-01
-1.530917e-01
-1.555596e-01
-1.586852e-01
-1.624792e-01
-1.668734e-01
-1.717450e-01
-1.769494e-01
-1.823399e-01
-1.877794e-01
-1.931530e-01
-1.983842e-01
-2.034481e-01
-2.083714e-01
-2.132143e-01
-2.180424e-01
-2.228883e-01
-2.277164e-01
-2.324183e-01
-2.368384e-01
-2.408088e-01
-2.441854e-01
-2.468799e-01
-2.488732e-01
-2.502144e-01
-2.510091e-01
-2.513882e-01
-2.514735e-01
-2.513577e-01
-2.510948e-01
-2.507052e-01
-2.502052e-01
-2.496424e-01
-2.491045e-01
-2.487009e-01
-2.485323e-01
-2.486501e-01
-2.490208e-01
-2.495292e-01
-2.500207e-01
-2.503516e-01
-2.504279e-01
-2.502341e-01
-2.498334e-01
-2.493416e-01
-2.488964e-01
-2.486263e-01
-2.486254e-01
-2.489369e-01
-2.495432e-01
-2.503667e-01
-2.512919e-01
-2.521962e-01
-2.529746e-01
-2.535645e-01
-2.539608e-01
-2.542065e-01
-2.543739e-01
-2.545495e-01
-2.548181e-01
-2.552510e-01
-2.559000e-01
-2.567953e-01
-2.579452e-01
-2.593348e-01
-2.609247e-01
-2.626514e-01
-2.644293e-01
-2.661614e-01
-2.677636e-01
-2.691891e-01
-2.704452e-01
-2.716007e-01
-2.727665e-01
-2.740455e-01
-2.754915e-01
-2.771017e-01
-2.788277e-01
-2.805995e-01
-2.823608e-01
-2.840925e-01
-2.858019e-01
-2.874993e-01
-2.891810e-01
-2.908208e-01
-2.923683e-01
-2.937609e-01
-2.949408e-01
-2.958687e-01
-2.965380e-01
-2.969809e-01
-2.972598e-01
-2.974504e-01
-2.976276e-01
-2.978492e-01
-2.981453e-01
-2.985234e-01
-2.989783e-01
-2.994957e-01
-3.000514e-01
-3.006116e-01
-3.011383e-01
-3.015978e-01
-3.019715e-01
-3.022682e-01
-3.025250e-01
-3.027835e-01
-3.030577e-01
-3.033183e-01
-3.034918e-01
-3.034723e-01
-3.031531e-01
-3.024619e-01
-3.013756e-01
-2.999201e-01
-2.981620e-01
-2.961891e-01
-2.940902e-01
-2.919377e-01
-2.897730e-01
-2.876016e-01
-2.854120e-01
-2.832039e-01
-2.810071e-01
-2.788919e-01
-2.769642e-01
-2.753294e-01
-2.740489e-01
-2.731229e-01
-2.724979e-01
-2.720874e-01
-2.718066e-01
-2.716080e-01
-2.714869e-01
-2.714620e-01
-2.715505e-01
-2.717459e-01
-2.720030e-01
-2.722388e-01
-2.723512e-01
-2.722395e-01
-2.718196e-01
-2.710345e-01
-2.698539e-01
-2.682665e-01
-2.662734e-01
-2.638886e-01
-2.611435e-01
-2.580902e-01
-2.548036e-01
-2.513775e-01
-2.479097e-01
-2.444852e-01
-2.411728e-01
-2.380318e-01
-2.351193e-01
-2.324917e-01
-2.302007e-01
-2.282830e-01
-2.267419e-01
-2.255381e-01
-2.246061e-01
-2.238806e-01
-2.233181e-01
-2.229161e-01
-2.227191e-01
-2.227967e-01
-2.232102e-01
-2.239885e-01
-2.251073e-01
-2.264804e-01
-2.279762e-01
-2.294448e-01
-2.307418e-01
-2.317550e-01
-2.324224e-01
-2.327269e-01
-2.326796e-01
-2.323010e-01
-2.315959e-01
-2.305392e-01
-2.290867e-01
-2.271974e-01
-2.248492e-01
-2.220531e-01
-2.188564e-01
-2.153282e-01
-2.115380e-01
-2.075446e-01
-2.033915e-01
-1.991061e-01
-1.947045e-01
-1.901984e-01
-1.856047e-01
-1.809603e-01
-1.763295e-01
-1.717947e-01
-1.674401e-01
-1.633332e-01
-1.595044e-01
-1.559377e-01
-1.525884e-01
-1.494108e-01
-1.463711e-01
-1.434475e-01
-1.406222e-01
-1.378633e-01
-1.351077e-01
-1.322607e-01
-1.292175e-01
-1.258863e-01
-1.222094e-01
-1.181774e-01
-1.138270e-01
-1.092249e-01
-1.044473e-01
-9.956542e-02
-9.463305e-02
-8.968348e-02
-8.473159e-02
-7.977919e-02
-7.482452e-02
-6.987219e-02
-6.493720e-02
-6.004397e-02
-5.522148e-02
-5.049328e-02
-4.586720e-02
-4.133463e-02
-3.687912e-02
-3.248574e-02
-2.814732e-02
-2.386740e-02
-1.965651e-02
-1.552097e-02
-1.145203e-02
-7.420155e-03
-3.373973e-03
7.496381e-04
5.001841e-03
9.400303e-03
1.392094e-02
1.849921e-02
2.304703e-02
2.748767e-02
3.178266e-02
3.593180e-02
3.995867e-02
4.388974e-02
4.772475e-02
5.141815e-02
5.488922e-02
5.804461e-02
6.079872e-02
6.309565e-02
6.492397e-02
6.631424e-02
6.732819e-02
6.804583e-02
6.854798e-02
6.890316e-02
6.916629e-02
6.938432e-02
6.960577e-02
6.989417e-02
7.033302e-02
7.101133e-02
7.200137e-02
7.334124e-02
7.502053e-02
7.697891e-02
7.913124e-02
8.140204e-02
8.375018e-02
8.618743e-02
8.877999e-02
9.161678e-02
9.476669e-02
9.825323e-02
1.020424e-01
1.060461e-01
1.101524e-01
1.142634e-01
1.183123e-01
1.222645e-01
1.261103e-01
1.298470e-01
1.334605e-01
1.369180e-01
1.401731e-01
1.431746e-01
1.458788e-01
1.482602e-01
1.503146e-01
1.520541e-01
1.535039e-01
1.547044e-01
1.557157e-01
1.566202e-01
1.575214e-01
1.585354e-01
1.597710e-01
1.613076e-01
1.631852e-01
1.654044e-01
1.679300e-01
1.707005e-01
1.736385e-01
1.766578e-01
1.796709e-01
1.825963e-01
1.853632e-01
1.879143e-01
1.902048e-01
1.921995e-01
1.938737e-01
1.952217e-01
1.962666e-01
1.970590e-01
1.976630e-01
1.981381e-01
1.985229e-01
1.988234e-01
1.990212e-01
1.991015e-01
1.990770e-01
1.989927e-01
1.989190e-01
1.989381e-01
1.991209e-01
1.995095e-01
2.001173e-01
2.009371e-01
2.019509e-01
2.031435e-01
2.045143e-01
2.060808e-01
2.078789e-01
2.099582e-01
2.123713e-01
2.151614e-01
2.183502e-01
2.219281e-01
2.258513e-01
2.300474e-01
2.344262e-01
2.389009e-01
2.434080e-01
2.479134e-01
2.524023e-01
2.568661e-01
2.612866e-01
2.656233e-01
2.698143e-01
2.737895e-01
2.774829e-01
2.808344e-01
2.837876e-01
2.862896e-01
2.882946e-01
2.897715e-01
2.907136e-01
2.911472e-01
2.911268e-01
2.907161e-01
2.899689e-01
2.889193e-01
2.875787e-01
2.859405e-01
2.839932e-01
2.817340e-01
2.791770e-01
2.763577e-01
2.733319e-01
2.701676e-01
2.669330e-01
2.636809e-01
2.604333e-01
2.571778e-01
2.538752e-01
2.504722e-01
2.469186e-01
2.431844e-01
2.392709e-01
2.352173e-01
2.311000e-01
2.270153e-01
2.230571e-01
2.193028e-01
2.158041e-01
2.125852e-01
2.096558e-01
2.070278e-01
2.047164e-01
2.027280e-01
2.010478e-01
1.996358e-01
1.984283e-01
1.973470e-01
1.963156e-01
1.952762e-01
1.941963e-01
1.930698e-01
1.919130e-01
1.907521e-01
1.896101e-01
1.884928e-01
1.873798e-01
1.862284e-01
1.849936e-01
1.836451e-01
1.821762e-01
1.806037e-01
1.789605e-01
1.772783e-01
1.755720e-01
1.738338e-01
1.720330e-01
1.701176e-01
1.680200e-01
1.656665e-01
1.629943e-01
1.599684e-01
1.565889e-01
1.528903e-01
1.489334e-01
1.447858e-01
1.405011e-01
1.361072e-01
1.316020e-01
1.269584e-01
1.221431e-01
1.171404e-01
1.119670e-01
1.066801e-01
1.013737e-01
9.615350e-02
9.110657e-02
8.628287e-02
8.168784e-02
7.728497e-02
7.301660e-02
6.882980e-02
6.469099e-02
6.059198e-02
5.654740e-02
5.257766e-02
4.868794e-02
4.485778e-02
4.103988e-02
3.716628e-02
3.316550e-02
2.898187e-02
2.458403e-02
1.996428e-02
1.513350e-02
1.011031e-02
4.909859e-03
-4.597420e-04
-5.994389e-03
-1.169024e-02
-1.754125e-02
-2.353808e-02
-2.967032e-02
-3.593162e-02
-4.232260e-02
-4.884751e-02
-5.550841e-02
-6.230158e-02
-6.921580e-02
-7.623291e-02
-8.333196e-02
-9.049399e-02
-9.770198e-02
-1.049357e-01
-1.121665e-01
-1.193552e-01
-1.264517e-01
-1.334013e-01
-1.401571e-01
-1.466928e-01
-1.530098e-01
-1.591391e-01
-1.651373e-01
-1.710736e-01
-1.770142e-01
-1.830068e-01
-1.890673e-01
-1.951778e-01
-2.012942e-01
-2.073604e-01
-2.133286e-01
-2.191790e-01
-2.249243e-01
-2.306011e-01
-2.362570e-01
-2.419341e-01
-2.476550e-01
-2.534176e-01
-2.591984e-01
-2.649591e-01
-2.706563e-01
-2.762517e-01
-2.817173e-01
-2.870390e-01
-2.922177e-01
-2.972662e-01
-3.022061e-01
-3.070673e-01
-3.118901e-01
-3.167242e-01
-3.216196e-01
-3.266155e-01
-3.317363e-01
-3.369933e-01
-3.423877e-01
-3.479157e-01
-3.535715e-01
-3.593461e-01
-3.652218e-01
-3.711708e-01
-3.771652e-01
-3.831900e-01
-3.892475e-01
-3.953544e-01
-4.015338e-01
-4.078030e-01
-4.141608e-01
-4.205804e-01
-4.270079e-01
-4.333660e-01
-4.395659e-01
-4.455234e-01
-4.511718e-01
-4.564747e-01
-4.614349e-01
-4.660893e-01
-4.704992e-01
-4.747393e-01
-4.788844e-01
-4.829956e-01
-4.871108e-01
-4.912393e-01
-4.953624e-01
-4.994425e-01
-5.034353e-01
-5.073047e-01
-5.110366e-01
-5.146442e-01
-5.181658e-01
-5.216557e-01
-5.251673e-01
-5.287331e-01
-5.323563e-01
-5.360109e-01
-5.396487e-01
-5.432181e-01
-5.466845e-01
-5.500405e-01
-5.533071e-01
-5.565273e-01
-5.597485e-01
-5.630019e-01
-5.662926e-01
-5.695988e-01
-5.728788e-01
-5.760910e-01
-5.792168e-01
-5.822724e-01
-5.853104e-01
-5.884126e-01
-5.916688e-01
-5.951500e-01
-5.988906e-01
-6.028732e-01
-6.070275e-01
-6.112541e-01
-6.154584e-01
-6.195748e-01
-6.235854e-01
-6.275246e-01
-6.314529e-01
-6.354214e-01
-6.394534e-01
-6.435398e-01
-6.476442e-01
-6.517225e-01
-6.557451e-01
-6.597052e-01
-6.636147e-01
-6.674963e-01
-6.713714e-01
-6.752503e-01
-6.791281e-01
-6.829884e-01
-6.868087e-01
-6.905680e-01
-6.942542e-01
-6.978651e-01
-7.014031e-01
-7.048682e-01
-7.082472e-01
-7.115056e-01
-7.145876e-01
-7.174287e-01
-7.199718e-01
-7.221865e-01
-7.240845e-01
-7.257163e-01
-7.271480e-01
-7.284366e-01
-7.296139e-01
-7.306775e-01
-7.315964e-01
-7.323302e-01
-7.328473e-01
-7.331342e-01
-7.331993e-01
-7.330727e-01
-7.328015e-01
-7.324414e-01
-7.320412e-01
-7.316264e-01
-7.311968e-01
-7.307368e-01
-7.302297e-01
-7.296717e-01
-7.290829e-01
-7.285051e-01
-7.279853e-01
-7.275604e-01
-7.272513e-01
-7.270616e-01
-7.269794e-01
-7.269812e-01
-7.270374e-01
-7.271181e-01
-7.271985e-01
-7.272576e-01
-7.272711e-01
-7.272058e-01
-7.270186e-01
-7.266608e-01
-7.260896e-01
-7.252886e-01
-7.242811e-01
-7.231207e-01
-7.218725e-01
-7.205952e-01
-7.193213e-01
-7.180455e-01
-7.167335e-01
-7.153395e-01
-7.138216e-01
-7.121579e-01
-7.103569e-01
-7.084528e-01
-7.064932e-01
-7.045239e-01
-7.025684e-01
-7.006162e-01
-6.986338e-01
-6.965851e-01
-6.944508e-01
-6.922473e-01
-6.900334e-01
-6.878885e-01
-6.858825e-01
-6.840581e-01
-6.824254e-01
-6.809649e-01
-6.796435e-01
-6.784346e-01
-6.773231e-01
-6.763003e-01
-6.753561e-01
-6.744746e-01
-6.736303e-01
-6.727870e-01
-6.718968e-01
-6.709016e-01
-6.697389e-01
-6.683498e-01
-6.666873e-01
-6.647280e-01
-6.624776e-01
-6.599618e-01
-6.572126e-01
-6.542554e-01
-6.510982e-01
-6.477255e-01
-6.441044e-01
-6.401961e-01
-6.359675e-01
-6.314033e-01
-6.265148e-01
-6.213372e-01
-6.159219e-01
-6.103259e-01
-6.045973e-01
-5.987652e-01
-5.928412e-01
-5.868278e-01
-5.807293e-01
-5.745670e-01
-5.683892e-01
-5.622652e-01
-5.562735e-01
-5.504867e-01
-5.449517e-01
-5.396761e-01
-5.346330e-01
-5.297741e-01
-5.250479e-01
-5.204238e-01
-5.159067e-01
-5.115257e-01
-5.073121e-01
-5.032804e-01
-4.994109e-01
-4.956450e-01
-4.919080e-01
-4.881386e-01
-4.843026e-01
-4.803909e-01
-4.764112e-01
-4.723736e-01
-4.682772e-01
-4.641097e-01
-4.598602e-01
-4.555306e-01
-4.511381e-01
-4.467128e-01
-4.422924e-01
-4.379131e-01
-4.336013e-01
-4.293708e-01
-4.252230e-01
-4.211514e-01
-4.171510e-01
-4.132263e-01
-4.093922e-01
-4.056713e-01
-4.020860e-01
-3.986447e-01
-3.953311e-01
-3.921050e-01
-3.889086e-01
-3.856743e-01
-3.823346e-01
-3.788318e-01
-3.751233e-01
-3.711851e-01
-3.670107e-01
-3.626075e-01
-3.579920e-01
-3.531838e-01
-3.481999e-01
-3.430519e-01
-3.377449e-01
-3.322777e-01
-3.266469e-01
-3.208516e-01
-3.149005e-01
-3.088204e-01
-3.026617e-01
-2.964915e-01
-2.903835e-01
-2.844069e-01
-2.786137e-01
-2.730292e-01
-2.676505e-01
-2.624495e-01
-2.573809e-01
-2.523954e-01
-2.474543e-01
-2.425380e-01
-2.376516e-01
-2.328201e-01
-2.280752e-01
-2.234425e-01
-2.189360e-01
-2.145577e-01
-2.102995e-01
-2.061479e-01
-2.020871e-01
-1.981003e-01
-1.941694e-01
-1.902770e-01
-1.864134e-01
-1.825819e-01
-1.788019e-01
-1.751087e-01
-1.715497e-01
-1.681735e-01
-1.650200e-01
-1.621123e-01
-1.594526e-01
-1.570224e-01
-1.547873e-01
-1.527028e-01
-1.507194e-01
-1.487872e-01
-1.468588e-01
-1.448936e-01
-1.428610e-01
-1.407433e-01
-1.385360e-01
-1.362455e-01
-1.338829e-01
-1.314572e-01
-1.289713e-01
-1.264189e-01
-1.237870e-01
-1.210628e-01
-1.182411e-01
-1.153314e-01
-1.123611e-01
-1.093727e-01
-1.064111e-01
-1.035118e-01
-1.006923e-01
-9.794937e-02
-9.526763e-02
-9.264012e-02
-9.008449e-02
-8.764175e-02
-8.536575e-02
-8.330683e-02
-8.148734e-02
-7.988560e-02
-7.844276e-02
-7.707987e-02
-7.571454e-02
-7.428005e-02
-7.273885e-02
-7.108181e-02
-6.932028e-02
-6.747590e-02
-6.556613e-02
-6.359270e-02
-6.153916e-02
-5.937357e-02
-5.705597e-02
-5.455187e-02
-5.184454e-02
-4.894026e-02
-4.586900e-02
-4.267896e-02
-3.942372e-02
-3.615027e-02
-3.289256e-02
-2.966937e-02
-2.648769e-02
-2.335130e-02
-2.026696e-02
-1.724326e-02
-1.428642e-02
-1.139879e-02
-8.580727e-03
-5.833931e-03
-3.165755e-03
-5.929175e-04
1.858964e-03
4.160082e-03
6.281119e-03
8.195732e-03
9.882006e-03
1.132521e-02
1.252312e-02
1.349042e-02
1.425915e-02
1.487705e-02
1.540410e-02
1.590584e-02
1.644583e-02
1.707845e-02
1.784284e-02
1.876026e-02
1.983432e-02
2.105424e-02
2.240349e-02
2.386938e-02
2.544712e-02
2.713947e-02
2.895432e-02
3.089986e-02
3.297961e-02
3.519034e-02
3.752250e-02
3.996195e-02
4.249332e-02
4.510355e-02
4.778347e-02
5.052766e-02
5.333309e-02
5.619617e-02
5.910970e-02
6.206298e-02
6.504500e-02
6.804727e-02
7.106405e-02
7.409094e-02
7.712128e-02
8.014003e-02
8.312081e-02
8.603067e-02
8.883839e-02
9.152256e-02
9.408052e-02
9.653184e-02
9.890966e-02
1.012476e-01
1.035709e-01
1.058921e-01
1.082103e-01
1.105208e-01
1.128268e-01
1.151433e-01
1.174944e-01
1.199084e-01
1.224112e-01
1.250219e-01
1.277509e-01
1.306037e-01
1.335833e-01
1.366936e-01
1.399400e-01
1.433312e-01
1.468785e-01
1.505938e-01
1.544836e-01
1.585416e-01
1.627448e-01
1.670512e-01
1.714033e-01
1.757410e-01
1.800162e-01
1.842002e-01
1.882835e-01
1.922721e-01
1.961754e-01
1.999947e-01
2.037187e-01
2.073260e-01
2.107900e-01
2.140860e-01
2.171970e-01
2.201173e-01
2.228539e-01
2.254250e-01
2.278557e-01
2.301711e-01
2.323921e-01
2.345310e-01
2.365904e-01
2.385692e-01
2.404694e-01
2.422993e-01
2.440724e-01
2.458055e-01
2.475143e-01
2.492103e-01
2.509023e-01
2.526027e-01
2.543316e-01
2.561142e-01
2.579760e-01
2.599377e-01
2.620096e-01
2.641889e-01
2.664606e-01
2.688018e-01
2.711847e-01
2.735799e-01
2.759593e-01
2.782967e-01
2.805671e-01
2.827463e-01
2.848093e-01
2.867324e-01
2.884997e-01
2.901099e-01
2.915767e-01
2.929186e-01
2.941499e-01
2.952724e-01
2.962723e-01
2.971226e-01
2.977938e-01
2.982638e-01
2.985202e-01
2.985599e-01
2.983889e-01
2.980230e-01
2.974868e-01
2.968098e-01
2.960211e-01
2.951440e-01
2.941905e-01
2.931593e-01
2.920406e-01
2.908246e-01
2.895068e-01
2.880911e-01
2.865904e-01
2.850207e-01
