EVENT_NAME: EMILIA_2ND_SHOCK
EVENT_ID: IT-2012-0011
EVENT_DATE_YYYYMMDD: 20120529
EVENT_TIME_HHMMSS: 070002
EVENT_LATITUDE_DEGREE: 44.8417
EVENT_LONGITUDE_DEGREE: 11.0657
EVENT_DEPTH_KM: 8.1
HYPOCENTER_REFERENCE: INGV-CNT_Seismic_Bulletin
MAGNITUDE_W: 6.0
MAGNITUDE_W_REFERENCE: RCMT-INGV
MAGNITUDE_L: 5.8
MAGNITUDE_L_REFERENCE: INGV-CNT_Seismic_Bulletin
FOCAL_MECHANISM: TF
NETWORK: IV
STATION_CODE: T0818
STATION_NAME: T0818
STATION_LATITUDE_DEGREE: 44.934800
STATION_LONGITUDE_DEGREE: 11.030400
STATION_ELEVATION_M: 5
LOCATION: 
SENSOR_DEPTH_M: 1.0
VS30_M/S: 
SITE_CLASSIFICATION_EC8: C*
MORPHOLOGIC_CLASSIFICATION: 
EPICENTRAL_DISTANCE_KM: 10.7
EARTHQUAKE_BACKAZIMUTH_DEGREE: 164.9
DATE_TIME_FIRST_SAMPLE_YYYYMMDD_HHMMSS: 20120529_065952.000
DATE_TIME_FIRST_SAMPLE_PRECISION: milliseconds
SAMPLING_INTERVAL_S: 0.005000
NDATA: 20001
DURATION_S: 100.005
STREAM: HNN
UNITS: cm
INSTRUMENT: sensor = Episensor FBA ES-T [Kinemetrics] | digitizer = Unknown [Unknown]
INSTRUMENT_ANALOG/DIGITAL: D
INSTRUMENTAL_FREQUENCY_HZ: 
INSTRUMENTAL_DAMPING: 
FULL_SCALE_G: 
N_BIT_DIGITAL_CONVERTER: 
PGD_CM: -9.078533
TIME_PGD_S: 20.350000
BASELINE_CORRECTION: BASELINE REMOVED
FILTER_TYPE: BUTTERWORTH
FILTER_ORDER: 2
LOW_CUT_FREQUENCY_HZ: 0.060
HIGH_CUT_FREQUENCY_HZ: 40.000
LATE/NORMAL_TRIGGERED: NT
DATABASE_VERSION: DYNA 1.0
HEADER_FORMAT: DYNA 1.2
DATA_TYPE: DISPLACEMENT
PROCESSING: manual (Paolucci et al., 2011)
DATA_TIMESTAMP_YYYYMMDD_HHMMSS: 
DATA_LICENSE: CC-BY4_0 (http://creativecommons.org/licenses/by/4.0/)
DATA_CITATION: ESM working group (2015), European Strong-Motion database, version 0.1, Network Activity 3: Networking acceleration networks and SM data users. Project NERA (www.nera-eu.org)
DATA_CREATOR: ESM working group
ORIGINAL_DATA_MEDIATOR_CITATION: Orfeus - European Integrated Data Archive (EIDA) http://www.orfeus-eu.org/eida/
ORIGINAL_DATA_MEDIATOR: Orfeus - European Integrated Data Archive (EIDA)
ORIGINAL_DATA_CREATOR_CITATION: Data for this study comes from the Italian national seismic network operated by Istituto Nazionale di Geofisica e Vulcanologia and archived at the European Integrated Data Archive http://eida.rm.ingv.it/
ORIGINAL_DATA_CREATOR: network: IV (Italian National Seismic Network); owner: Istituto Nazionale di Geofisica e Vulcanologia
USER1: 
USER2: 
USER3: 
USER4: 
USER5: 
[...]
-6.642627e-01
-6.634218e-01
-6.630200e-01
-6.628168e-01
-6.623873e-01
-6.614208e-01
-6.599204e-01
-6.581523e-01
-6.564423e-01
-6.550268e-01
-6.540451e-01
-6.535683e-01
-6.535309e-01
-6.536161e-01
-6.533066e-01
-6.521820e-01
-6.502213e-01
-6.478050e-01
-6.454293e-01
-6.434500e-01
-6.420638e-01
-6.413988e-01
-6.415051e-01
-6.422486e-01
-6.432709e-01
-6.441080e-01
-6.443855e-01
-6.439614e-01
-6.429648e-01
-6.417350e-01
-6.406640e-01
-6.399818e-01
-6.396184e-01
-6.392559e-01
-6.385270e-01
-6.371934e-01
-6.351883e-01
-6.325642e-01
-6.294626e-01
-6.261439e-01
-6.229937e-01
-6.204097e-01
-6.186010e-01
-6.174495e-01
-6.165397e-01
-6.153335e-01
-6.134049e-01
-6.106357e-01
-6.072476e-01
-6.036492e-01
-6.002410e-01
-5.973102e-01
-5.949764e-01
-5.931215e-01
-5.914086e-01
-5.895067e-01
-5.873486e-01
-5.851200e-01
-5.829675e-01
-5.807793e-01
-5.783009e-01
-5.754036e-01
-5.721630e-01
-5.686824e-01
-5.649095e-01
-5.606763e-01
-5.559151e-01
-5.507900e-01
-5.455825e-01
-5.404626e-01
-5.354114e-01
-5.303712e-01
-5.254054e-01
-5.206436e-01
-5.160929e-01
-5.115999e-01
-5.070442e-01
-5.025020e-01
-4.981696e-01
-4.941744e-01
-4.905105e-01
-4.871148e-01
-4.839198e-01
-4.808384e-01
-4.777895e-01
-4.747722e-01
-4.718574e-01
-4.690426e-01
-4.661197e-01
-4.627269e-01
-4.585686e-01
-4.536299e-01
-4.482397e-01
-4.429318e-01
-4.381533e-01
-4.339863e-01
-4.301351e-01
-4.262318e-01
-4.221614e-01
-4.180805e-01
-4.141847e-01
-4.105847e-01
-4.074132e-01
-4.049163e-01
-4.033387e-01
-4.027162e-01
-4.027730e-01
-4.029515e-01
-4.025267e-01
-4.008357e-01
-3.975843e-01
-3.930114e-01
-3.877254e-01
-3.823457e-01
-3.772955e-01
-3.728378e-01
-3.691138e-01
-3.660407e-01
-3.632668e-01
-3.603884e-01
-3.572549e-01
-3.540055e-01
-3.507935e-01
-3.475414e-01
-3.440251e-01
-3.401611e-01
-3.361390e-01
-3.322411e-01
-3.285585e-01
-3.249313e-01
-3.211924e-01
-3.174432e-01
-3.140309e-01
-3.112163e-01
-3.088747e-01
-3.065594e-01
-3.038606e-01
-3.006837e-01
-2.971821e-01
-2.934714e-01
-2.894656e-01
-2.849909e-01
-2.800442e-01
-2.749277e-01
-2.701028e-01
-2.658672e-01
-2.621663e-01
-2.587633e-01
-2.555985e-01
-2.529036e-01
-2.509221e-01
-2.495661e-01
-2.483794e-01
-2.468093e-01
-2.444873e-01
-2.412899e-01
-2.372215e-01
-2.323116e-01
-2.266722e-01
-2.206487e-01
-2.148111e-01
-2.096482e-01
-2.052267e-01
-2.012346e-01
-1.973960e-01
-1.937261e-01
-1.903187e-01
-1.870043e-01
-1.833537e-01
-1.790188e-01
-1.739655e-01
-1.683160e-01
-1.620133e-01
-1.547198e-01
-1.460944e-01
-1.361744e-01
-1.254752e-01
-1.146898e-01
-1.042663e-01
-9.424843e-02
-8.446709e-02
-7.481326e-02
-6.532975e-02
-5.611668e-02
-4.719784e-02
-3.846087e-02
-2.970235e-02
-2.076202e-02
-1.165558e-02
-2.553967e-03
6.422381e-03
1.540401e-02
2.474557e-02
3.479318e-02
4.568866e-02
5.735638e-02
6.959259e-02
8.213550e-02
9.470560e-02
1.070560e-01
1.190196e-01
1.305366e-01
1.416902e-01
1.527347e-01
1.640642e-01
1.761127e-01
1.891714e-01
2.031449e-01
2.174212e-01
2.310810e-01
2.433876e-01
2.541318e-01
2.635457e-01
2.720195e-01
2.799775e-01
2.879097e-01
2.963139e-01
3.054790e-01
3.153392e-01
3.256128e-01
3.360941e-01
3.467528e-01
3.575468e-01
3.682324e-01
3.784602e-01
3.880532e-01
3.971075e-01
4.057659e-01
4.139088e-01
4.211080e-01
4.269542e-01
4.315331e-01
4.356427e-01
4.404719e-01
4.469242e-01
4.551984e-01
4.649847e-01
4.758944e-01
4.875479e-01
4.993192e-01
5.102747e-01
5.196086e-01
5.271734e-01
5.334997e-01
5.392781e-01
5.449011e-01
5.504863e-01
5.561786e-01
5.623099e-01
5.692765e-01
5.773298e-01
5.865299e-01
5.968752e-01
6.084017e-01
6.211076e-01
6.348121e-01
6.491753e-01
6.639020e-01
6.788762e-01
6.940200e-01
7.090122e-01
7.232127e-01
7.359361e-01
7.468603e-01
7.562318e-01
7.647291e-01
7.731193e-01
7.819519e-01
7.914588e-01
8.016953e-01
8.127814e-01
8.249794e-01
8.384681e-01
8.530441e-01
8.681447e-01
8.832140e-01
8.979904e-01
9.123840e-01
9.261626e-01
9.389156e-01
9.503530e-01
9.605217e-01
9.696458e-01
9.778241e-01
9.850324e-01
9.914761e-01
9.978612e-01
1.005218e+00
1.014416e+00
1.025803e+00
1.039170e+00
1.053922e+00
1.069274e+00
1.084457e+00
1.098920e+00
1.112459e+00
1.125162e+00
1.137266e+00
1.149071e+00
1.160894e+00
1.172984e+00
1.185445e+00
1.198304e+00
1.211682e+00
1.225848e+00
1.241097e+00
1.257591e+00
1.275296e+00
1.293955e+00
1.313032e+00
1.331754e+00
1.349369e+00
1.365486e+00
1.380212e+00
1.394003e+00
1.407440e+00
1.421082e+00
1.435455e+00
1.451032e+00
1.468138e+00
1.486794e+00
1.506642e+00
1.527035e+00
1.547249e+00
1.566698e+00
1.585097e+00
1.602540e+00
1.619495e+00
1.636644e+00
1.654571e+00
1.673464e+00
1.693113e+00
1.713232e+00
1.733770e+00
1.754896e+00
1.776688e+00
1.798894e+00
1.821013e+00
1.842563e+00
1.863237e+00
1.882875e+00
1.901399e+00
1.918855e+00
1.935462e+00
1.951560e+00
1.967449e+00
1.983284e+00
1.999109e+00
2.014977e+00
2.031046e+00
2.047562e+00
2.064728e+00
2.082547e+00
2.100735e+00
2.118776e+00
2.136096e+00
2.152259e+00
2.167093e+00
2.180722e+00
2.193531e+00
2.206125e+00
2.219221e+00
2.233461e+00
2.249168e+00
2.266171e+00
2.283810e+00
2.301191e+00
2.317602e+00
2.332757e+00
2.346674e+00
2.359375e+00
2.370774e+00
2.380825e+00
2.389686e+00
2.397726e+00
2.405485e+00
2.413714e+00
2.423320e+00
2.435066e+00
2.449229e+00
2.465563e+00
2.483566e+00
2.502810e+00
2.523122e+00
2.544584e+00
2.567379e+00
2.591514e+00
2.616666e+00
2.642342e+00
2.668258e+00
2.694555e+00
2.721648e+00
2.749875e+00
2.779293e+00
2.809751e+00
2.841091e+00
2.873279e+00
2.906403e+00
2.940575e+00
2.975814e+00
3.011995e+00
3.048921e+00
3.086446e+00
3.124538e+00
3.163219e+00
3.202500e+00
3.242382e+00
3.282895e+00
3.324062e+00
3.365805e+00
3.407918e+00
3.450160e+00
3.492403e+00
3.534656e+00
3.576939e+00
3.619119e+00
3.660858e+00
3.701759e+00
3.741622e+00
3.780615e+00
3.819206e+00
3.857929e+00
3.897176e+00
3.937184e+00
3.978181e+00
4.020445e+00
4.064148e+00
4.109155e+00
4.155072e+00
4.201511e+00
4.248278e+00
4.295309e+00
4.342527e+00
4.389862e+00
4.437409e+00
4.485510e+00
4.534582e+00
4.584864e+00
4.636287e+00
4.688558e+00
4.741322e+00
4.794248e+00
4.846988e+00
4.899174e+00
4.950532e+00
5.001043e+00
5.050942e+00
5.100492e+00
5.149775e+00
5.198700e+00
5.247192e+00
5.295314e+00
5.343231e+00
5.391127e+00
5.439221e+00
5.487786e+00
5.537060e+00
5.587059e+00
5.637493e+00
5.687946e+00
5.738194e+00
5.788372e+00
5.838817e+00
5.889771e+00
5.941245e+00
5.993115e+00
6.045300e+00
6.097818e+00
6.150713e+00
6.203989e+00
6.257629e+00
6.311668e+00
6.366234e+00
6.421551e+00
6.477866e+00
6.535341e+00
6.593965e+00
6.653586e+00
6.714059e+00
6.775379e+00
6.837637e+00
6.900809e+00
6.964553e+00
7.028196e+00
7.090954e+00
7.152186e+00
7.211490e+00
7.268638e+00
7.323464e+00
7.375829e+00
7.425647e+00
7.472874e+00
7.517429e+00
7.559111e+00
7.597627e+00
7.632741e+00
7.664412e+00
7.692752e+00
7.717846e+00
7.739602e+00
7.757812e+00
7.772331e+00
7.783187e+00
7.790521e+00
7.794458e+00
7.795042e+00
7.792295e+00
7.786310e+00
7.777270e+00
7.765379e+00
7.750772e+00
7.733502e+00
7.713593e+00
7.691078e+00
7.665978e+00
7.638254e+00
7.607789e+00
7.574450e+00
7.538170e+00
7.499019e+00
7.457221e+00
7.413072e+00
7.366805e+00
7.318485e+00
7.268022e+00
7.215276e+00
7.160168e+00
7.102707e+00
7.042950e+00
6.980940e+00
6.916697e+00
6.850274e+00
6.781820e+00
6.711569e+00
6.639736e+00
6.566419e+00
6.491570e+00
6.415113e+00
6.337121e+00
6.257911e+00
6.177981e+00
6.097890e+00
6.018191e+00
5.939454e+00
5.862258e+00
5.787143e+00
5.714580e+00
5.645005e+00
5.578834e+00
5.516408e+00
5.457942e+00
5.403580e+00
5.353489e+00
5.307853e+00
5.266746e+00
5.230073e+00
5.197656e+00
5.169304e+00
5.144697e+00
5.123143e+00
5.103570e+00
5.084848e+00
5.066210e+00
5.047359e+00
5.028234e+00
5.008745e+00
4.988728e+00
4.968022e+00
4.946518e+00
4.924167e+00
4.901013e+00
4.877227e+00
4.853082e+00
4.828873e+00
4.804812e+00
4.780950e+00
4.757187e+00
4.733370e+00
4.709450e+00
4.685588e+00
4.662144e+00
4.639566e+00
4.618234e+00
4.598312e+00
4.579650e+00
4.561817e+00
4.544254e+00
4.526499e+00
4.508402e+00
4.490217e+00
4.472520e+00
4.455985e+00
4.441137e+00
4.428252e+00
4.417409e+00
4.408631e+00
4.401997e+00
4.397631e+00
4.395645e+00
4.396118e+00
4.399136e+00
4.404818e+00
4.413289e+00
4.424644e+00
4.438977e+00
4.456440e+00
4.477278e+00
4.501770e+00
4.530135e+00
4.562435e+00
4.598557e+00
4.638282e+00
4.681423e+00
4.727924e+00
4.777825e+00
4.831105e+00
4.887558e+00
4.946826e+00
5.008541e+00
5.072441e+00
5.138318e+00
5.205833e+00
5.274328e+00
5.342771e+00
5.409919e+00
5.474688e+00
5.536526e+00
5.595519e+00
5.652107e+00
5.706668e+00
5.759266e+00
5.809638e+00
5.857328e+00
5.901850e+00
5.942829e+00
5.980040e+00
6.013348e+00
6.042644e+00
6.067879e+00
6.089119e+00
6.106536e+00
6.120285e+00
6.130396e+00
6.136801e+00
6.139462e+00
6.138459e+00
6.133939e+00
6.126021e+00
6.114754e+00
6.100167e+00
6.082297e+00
6.061171e+00
6.036778e+00
6.009075e+00
5.978038e+00
5.943691e+00
5.906094e+00
5.865284e+00
5.821200e+00
5.773639e+00
5.722318e+00
5.667013e+00
5.607664e+00
5.544335e+00
5.477086e+00
5.405921e+00
5.330829e+00
5.251838e+00
5.168980e+00
5.082260e+00
4.991709e+00
4.897460e+00
4.799708e+00
4.698546e+00
4.593863e+00
4.485394e+00
4.372869e+00
4.256097e+00
4.134940e+00
4.009270e+00
3.878950e+00
3.743825e+00
3.603712e+00
3.458398e+00
3.307687e+00
3.151442e+00
2.989607e+00
2.822159e+00
2.649013e+00
2.469992e+00
2.285055e+00
2.094747e+00
1.900495e+00
1.704297e+00
1.507965e+00
1.312544e+00
1.118369e+00
9.255344e-01
7.342112e-01
5.446275e-01
3.569344e-01
1.711477e-01
-1.284027e-02
-1.952163e-01
-3.761890e-01
-5.559535e-01
-7.346909e-01
-9.125208e-01
-1.089354e+00
-1.264777e+00
-1.438130e+00
-1.608751e+00
-1.776177e+00
-1.940167e+00
-2.100626e+00
-2.257527e+00
-2.410882e+00
-2.560728e+00
-2.707116e+00
-2.850094e+00
-2.989701e+00
-3.125986e+00
-3.259030e+00
-3.388931e+00
-3.515748e+00
-3.639455e+00
-3.759946e+00
-3.877084e+00
-3.990739e+00
-4.100779e+00
-4.207054e+00
-4.309390e+00
-4.407622e+00
-4.501631e+00
-4.591395e+00
-4.677035e+00
-4.758833e+00
-4.837218e+00
-4.912754e+00
-4.986133e+00
-5.058140e+00
-5.129546e+00
-5.200977e+00
-5.272829e+00
-5.345270e+00
-5.418315e+00
-5.491939e+00
-5.566155e+00
-5.641042e+00
-5.716699e+00
-5.793182e+00
-5.870458e+00
-5.948381e+00
-6.026663e+00
-6.104845e+00
-6.182282e+00
-6.258185e+00
-6.331724e+00
-6.402177e+00
-6.469082e+00
-6.532326e+00
-6.592081e+00
-6.648646e+00
-6.702265e+00
-6.753002e+00
-6.800731e+00
-6.845231e+00
-6.886365e+00
-6.924182e+00
-6.958874e+00
-6.990618e+00
-7.019450e+00
-7.045277e+00
-7.067986e+00
-7.087518e+00
-7.103822e+00
-7.116764e+00
-7.126105e+00
-7.131605e+00
-7.133139e+00
-7.130698e+00
-7.124309e+00
-7.113967e+00
-7.099614e+00
-7.081151e+00
-7.058420e+00
-7.031175e+00
-6.999096e+00
-6.961860e+00
-6.919217e+00
-6.871027e+00
-6.817304e+00
-6.758383e+00
-6.695094e+00
-6.628729e+00
-6.560697e+00
-6.492088e+00
-6.423500e+00
-6.355206e+00
-6.287397e+00
-6.220283e+00
-6.154091e+00
-6.089090e+00
-6.025622e+00
-5.964054e+00
-5.904696e+00
-5.847754e+00
-5.793325e+00
-5.741422e+00
-5.692025e+00
-5.645173e+00
-5.601039e+00
-5.559870e+00
-5.521875e+00
-5.487152e+00
-5.455686e+00
-5.427370e+00
-5.401982e+00
-5.379126e+00
-5.358219e+00
-5.338565e+00
-5.319512e+00
-5.300580e+00
-5.281494e+00
-5.262092e+00
-5.242228e+00
-5.221758e+00
-5.200595e+00
-5.178749e+00
-5.156288e+00
-5.133273e+00
-5.109732e+00
-5.085705e+00
-5.061361e+00
-5.037113e+00
-5.013600e+00
-4.991454e+00
-4.971042e+00
-4.952406e+00
-4.935454e+00
-4.920174e+00
-4.906692e+00
-4.895177e+00
-4.885752e+00
-4.878502e+00
-4.873536e+00
-4.871017e+00
-4.871151e+00
-4.874137e+00
-4.880119e+00
-4.889158e+00
-4.901266e+00
-4.916465e+00
-4.934816e+00
-4.956383e+00
-4.981173e+00
-5.009111e+00
-5.040055e+00
-5.073826e+00
-5.110247e+00
-5.149197e+00
-5.190671e+00
-5.234783e+00
-5.281688e+00
-5.331475e+00
-5.384110e+00
-5.439423e+00
-5.497156e+00
-5.557052e+00
-5.618935e+00
-5.682707e+00
-5.748268e+00
-5.815443e+00
-5.884009e+00
-5.953750e+00
-6.024492e+00
-6.096105e+00
-6.168527e+00
-6.241785e+00
-6.315971e+00
-6.391166e+00
-6.467419e+00
-6.544802e+00
-6.623468e+00
-6.703628e+00
-6.785451e+00
-6.869051e+00
-6.954623e+00
-7.042563e+00
-7.133269e+00
-7.226615e+00
-7.321636e+00
-7.416886e+00
-7.511171e+00
-7.603965e+00
-7.695252e+00
-7.785135e+00
-7.873636e+00
-7.960670e+00
-8.046088e+00
-8.129715e+00
-8.211409e+00
-8.291065e+00
-8.368509e+00
-8.443434e+00
-8.515472e+00
-8.584309e+00
-8.649685e+00
-8.711318e+00
-8.768869e+00
-8.822011e+00
-8.870498e+00
-8.914157e+00
-8.952840e+00
-8.986398e+00
-9.014704e+00
-9.037692e+00
-9.055378e+00
-9.067885e+00
-9.075471e+00
-9.078533e+00
-9.077552e+00
-9.072991e+00
-9.065225e+00
-9.054524e+00
-9.041066e+00
-9.024949e+00
-9.006211e+00
-8.984877e+00
-8.960980e+00
-8.934542e+00
-8.905523e+00
-8.873832e+00
-8.839376e+00
-8.802122e+00
-8.762118e+00
-8.719471e+00
-8.674335e+00
-8.626904e+00
-8.577416e+00
-8.526144e+00
-8.473351e+00
-8.419237e+00
-8.363880e+00
-8.307224e+00
-8.249143e+00
-8.189523e+00
-8.128277e+00
-8.065291e+00
-8.000393e+00
-7.933386e+00
-7.864104e+00
-7.792394e+00
-7.718061e+00
-7.640852e+00
-7.560505e+00
-7.476796e+00
-7.389540e+00
-7.298558e+00
-7.203665e+00
-7.104695e+00
-7.001534e+00
-6.894162e+00
-6.782685e+00
-6.667374e+00
-6.548704e+00
-6.427339e+00
-6.303981e+00
-6.179165e+00
-6.053147e+00
-5.925937e+00
-5.797442e+00
-5.667599e+00
-5.536449e+00
-5.404144e+00
-5.270878e+00
-5.136793e+00
-5.001893e+00
-4.866062e+00
-4.729130e+00
-4.590953e+00
-4.451441e+00
-4.310555e+00
-4.168273e+00
-4.024560e+00
-3.879360e+00
-3.732621e+00
-3.584322e+00
-3.434472e+00
-3.283095e+00
-3.130227e+00
-2.975949e+00
-2.820411e+00
-2.663791e+00
-2.506214e+00
-2.347698e+00
-2.188204e+00
-2.027750e+00
-1.866481e+00
-1.704670e+00
-1.542686e+00
-1.380981e+00
-1.220074e+00
-1.060514e+00
-9.027970e-01
-7.473040e-01
-5.942635e-01
-4.437706e-01
-2.958538e-01
-1.505584e-01
-7.985397e-03
1.317377e-01
2.685010e-01
4.022090e-01
5.327343e-01
6.598847e-01
7.834078e-01
9.030195e-01
1.018444e+00
1.129443e+00
1.235813e+00
1.337345e+00
1.433785e+00
1.524855e+00
1.610294e+00
1.689902e+00
1.763543e+00
1.831139e+00
1.892665e+00
1.948152e+00
1.997687e+00
2.041417e+00
2.079558e+00
2.112423e+00
2.140473e+00
2.164340e+00
2.184743e+00
2.202332e+00
2.217548e+00
2.230622e+00
2.241662e+00
2.250752e+00
2.258009e+00
2.263596e+00
2.267701e+00
2.270477e+00
2.271983e+00
2.272178e+00
2.270990e+00
2.268404e+00
2.264479e+00
2.259306e+00
2.252945e+00
2.245405e+00
2.236672e+00
2.226776e+00
2.215831e+00
2.204020e+00
2.191521e+00
2.178458e+00
2.164913e+00
2.150960e+00
2.136676e+00
2.122133e+00
2.107395e+00
2.092515e+00
2.077501e+00
2.062315e+00
2.046891e+00
2.031138e+00
2.014892e+00
1.997892e+00
1.979829e+00
1.960436e+00
1.939495e+00
1.916796e+00
1.892109e+00
1.865213e+00
1.835913e+00
1.804027e+00
1.769358e+00
1.731717e+00
1.690947e+00
1.646943e+00
1.599653e+00
1.549090e+00
1.495318e+00
1.438427e+00
1.378505e+00
1.315641e+00
1.249936e+00
1.181503e+00
1.110510e+00
1.037254e+00
9.622041e-01
8.859411e-01
8.090051e-01
7.317883e-01
6.545353e-01
5.774360e-01
5.007168e-01
4.246476e-01
3.494526e-01
2.752149e-01
2.018885e-01
1.294234e-01
5.786861e-02
-1.266085e-02
-8.209630e-02
-1.504428e-01
-2.176784e-01
-2.836511e-01
-3.480916e-01
-4.107156e-01
-4.712991e-01
-5.296603e-01
-5.855933e-01
-6.388387e-01
-6.891268e-01
-7.362525e-01
-7.801286e-01
-8.208231e-01
-8.586243e-01
-8.940903e-01
-9.279669e-01
-9.609742e-01
-9.936067e-01
-1.026089e+00
-1.058473e+00
-1.090762e+00
-1.123004e+00
-1.155358e+00
-1.188143e+00
-1.221822e+00
-1.256877e+00
-1.293641e+00
-1.332221e+00
-1.372582e+00
-1.414701e+00
-1.458653e+00
-1.504561e+00
-1.552483e+00
-1.602313e+00
-1.653730e+00
-1.706192e+00
-1.759032e+00
-1.811641e+00
-1.863604e+00
-1.914674e+00
-1.964653e+00
-2.013320e+00
-2.060443e+00
-2.105811e+00
-2.149232e+00
-2.190500e+00
-2.229398e+00
-2.265724e+00
-2.299337e+00
-2.330176e+00
-2.358197e+00
-2.383300e+00
-2.405295e+00
-2.423975e+00
-2.439212e+00
-2.450990e+00
-2.459355e+00
-2.464365e+00
-2.466077e+00
-2.464546e+00
-2.459810e+00
-2.451863e+00
-2.440656e+00
-2.426140e+00
-2.408314e+00
-2.387273e+00
-2.363265e+00
-2.336723e+00
-2.308227e+00
-2.278381e+00
-2.247674e+00
-2.216411e+00
-2.184712e+00
-2.152558e+00
-2.119865e+00
-2.086552e+00
-2.052578e+00
-2.017925e+00
-1.982577e+00
-1.946514e+00
-1.909716e+00
-1.872150e+00
-1.833745e+00
-1.794399e+00
-1.754022e+00
-1.712549e+00
-1.669918e+00
-1.626050e+00
-1.580893e+00
-1.534469e+00
-1.486874e+00
-1.438213e+00
-1.388543e+00
-1.337832e+00
-1.285928e+00
-1.232547e+00
-1.177305e+00
-1.119813e+00
-1.059788e+00
-9.971006e-01
-9.317547e-01
-8.638308e-01
-7.934667e-01
-7.208855e-01
-6.464484e-01
-5.706887e-01
-4.942863e-01
-4.179786e-01
-3.424284e-01
-2.680990e-01
-1.952086e-01
-1.237970e-01
-5.383924e-02
1.467405e-02
8.172012e-02
1.472689e-01
2.113381e-01
2.740814e-01
3.358644e-01
3.972386e-01
4.587812e-01
5.208902e-01
5.836713e-01
6.469789e-01
7.105538e-01
7.741550e-01
8.376181e-01
9.008442e-01
9.637452e-01
1.026180e+00
1.087921e+00
1.148679e+00
1.208155e+00
1.266087e+00
1.322253e+00
1.376456e+00
1.428489e+00
1.478118e+00
1.525090e+00
1.569148e+00
1.610059e+00
1.647606e+00
1.681574e+00
1.711724e+00
1.737810e+00
1.759632e+00
1.777051e+00
1.789949e+00
1.798153e+00
1.801409e+00
1.799451e+00
1.792088e+00
1.779229e+00
1.760884e+00
1.737181e+00
1.708466e+00
1.675362e+00
1.638719e+00
1.599432e+00
1.558242e+00
1.515657e+00
1.472023e+00
1.427655e+00
1.382903e+00
1.338130e+00
1.293658e+00
1.249737e+00
1.206531e+00
1.164111e+00
1.122453e+00
1.081470e+00
1.041048e+00
1.001076e+00
9.614816e-01
9.222562e-01
8.834576e-01
8.451773e-01
8.074897e-01
7.704083e-01
7.338765e-01
6.977807e-01
6.619494e-01
6.261292e-01
5.899872e-01
5.531738e-01
5.154023e-01
4.764724e-01
4.362210e-01
3.944653e-01
3.510026e-01
3.056621e-01
2.583630e-01
2.091485e-01
1.581800e-01
1.056810e-01
5.185640e-02
-3.162576e-03
-5.932779e-02
-1.166526e-01
-1.751841e-01
-2.349669e-01
-2.959987e-01
-3.582042e-01
