EVENT_NAME: EMILIA_2ND_SHOCK
EVENT_ID: IT-2012-0011
EVENT_DATE_YYYYMMDD: 20120529
EVENT_TIME_HHMMSS: 070002
EVENT_LATITUDE_DEGREE: 44.8417
EVENT_LONGITUDE_DEGREE: 11.0657
EVENT_DEPTH_KM: 8.1
HYPOCENTER_REFERENCE: INGV-CNT_Seismic_Bulletin
MAGNITUDE_W: 6.0
MAGNITUDE_W_REFERENCE: RCMT-INGV
MAGNITUDE_L: 5.8
MAGNITUDE_L_REFERENCE: INGV-CNT_Seismic_Bulletin
FOCAL_MECHANISM: TF
NETWORK: IV
STATION_CODE: T0803
STATION_NAME: T0803
STATION_LATITUDE_DEGREE: 44.766800
STATION_LONGITUDE_DEGREE: 11.350800
STATION_ELEVATION_M: 10
LOCATION: 
SENSOR_DEPTH_M: 1.0
VS30_M/S: 
SITE_CLASSIFICATION_EC8: C*
MORPHOLOGIC_CLASSIFICATION: 
EPICENTRAL_DISTANCE_KM: 24.0
EARTHQUAKE_BACKAZIMUTH_DEGREE: 290.4
DATE_TIME_FIRST_SAMPLE_YYYYMMDD_HHMMSS: 20120529_065953.000
DATE_TIME_FIRST_SAMPLE_PRECISION: milliseconds
SAMPLING_INTERVAL_S: 0.005000
NDATA: 20001
DURATION_S: 100.005
STREAM: HNE
UNITS: cm/s
INSTRUMENT: sensor = Episensor FBA ES-T [Kinemetrics] | digitizer = Unknown [Unknown]
INSTRUMENT_ANALOG/DIGITAL: D
INSTRUMENTAL_FREQUENCY_HZ: 
INSTRUMENTAL_DAMPING: 
FULL_SCALE_G: 
N_BIT_DIGITAL_CONVERTER: 
PGV_CM/S: 8.504172
TIME_PGV_S: 23.565000
BASELINE_CORRECTION: BASELINE REMOVED
FILTER_TYPE: BUTTERWORTH
FILTER_ORDER: 2
LOW_CUT_FREQUENCY_HZ: 0.060
HIGH_CUT_FREQUENCY_HZ: 40.000
LATE/NORMAL_TRIGGERED: NT
DATABASE_VERSION: DYNA 1.0
HEADER_FORMAT: DYNA 1.2
DATA_TYPE: VELOCITY
PROCESSING: manual (Paolucci et al., 2011)
DATA_TIMESTAMP_YYYYMMDD_HHMMSS: 
DATA_LICENSE: CC-BY4_0 (http://creativecommons.org/licenses/by/4.0/)
DATA_CITATION: ESM working group (2015), European Strong-Motion database, version 0.1, Network Activity 3: Networking acceleration networks and SM data users. Project NERA (www.nera-eu.org)
DATA_CREATOR: ESM working group
ORIGINAL_DATA_MEDIATOR_CITATION: Orfeus - European Integrated Data Archive (EIDA) http://www.orfeus-eu.org/eida/
ORIGINAL_DATA_MEDIATOR: Orfeus - European Integrated Data Archive (EIDA)
ORIGINAL_DATA_CREATOR_CITATION: Data for this study comes from the Italian national seismic network operated by Istituto Nazionale di Geofisica e Vulcanologia and archived at the European Integrated Data Archive http://eida.rm.ingv.it/
ORIGINAL_DATA_CREATOR: network: IV (Italian National Seismic Network); owner: Istituto Nazionale di Geofisica e Vulcanologia
USER1: 
USER2: 
USER3: 
USER4: 
USER5: 
[...]
-0.008461
-0.006614
-0.005079
-0.004178
-0.003839
-0.003936
-0.004470
-0.005510
-0.007072
-0.008954
-0.010509
-0.010693
-0.008804
-0.005268
-0.001371
0.001718
0.003419
0.003726
0.003260
0.003028
0.003885
0.006277
0.010125
0.014590
0.018196
0.019277
0.016320
0.008652
-0.002679
-0.015247
-0.026467
-0.034210
-0.036971
-0.034183
-0.026317
-0.014871
-0.002183
0.009248
0.017434
0.021251
0.020842
0.017526
0.012786
0.007391
0.001488
-0.004809
-0.011126
-0.016838
-0.021119
-0.023139
-0.022467
-0.019222
-0.014041
-0.008132
-0.002939
0.000621
0.002463
0.003135
0.003706
0.005346
0.008488
0.012586
0.016694
0.019997
0.021994
0.022636
0.022333
0.021756
0.021682
0.022732
0.024886
0.027366
0.029070
0.028971
0.026407
0.021479
0.015104
0.008527
0.002900
-0.000935
-0.002728
-0.002901
-0.002400
-0.002586
-0.004616
-0.008233
-0.011501
-0.012086
-0.008585
-0.000946
0.009352
0.019570
0.027071
0.030633
0.030368
0.026942
0.021165
0.014049
0.006985
0.001450
-0.001762
-0.002778
-0.002253
-0.001059
-0.000055
0.000283
-0.000083
-0.001175
-0.003393
-0.007370
-0.013465
-0.021503
-0.030613
-0.038913
-0.043866
-0.043257
-0.035747
-0.021504
-0.003142
0.015005
0.029020
0.036405
0.036210
0.029446
0.018664
0.006716
-0.003940
-0.011762
-0.016740
-0.019989
-0.022568
-0.024880
-0.026615
-0.026691
-0.023798
-0.017508
-0.008632
0.001487
0.011544
0.020318
0.026578
0.029117
0.027367
0.022195
0.015648
0.009908
0.006692
0.006789
0.009471
0.012944
0.015622
0.016730
0.016285
0.015157
0.014661
0.015672
0.018256
0.021872
0.025530
0.028224
0.029738
0.030801
0.032098
0.033269
0.033101
0.030430
0.024618
0.015772
0.005080
-0.005457
-0.013835
-0.018445
-0.018307
-0.013462
-0.005000
0.005189
0.014737
0.021680
0.025396
0.026483
0.026026
0.025149
0.024715
0.025035
0.025860
0.026535
0.026176
0.024115
0.020389
0.015687
0.010966
0.007134
0.004523
0.002354
-0.000651
-0.004763
-0.008683
-0.010263
-0.007271
0.001724
0.015959
0.032248
0.046742
0.056569
0.060297
0.058093
0.051492
0.042354
0.031991
0.021022
0.009422
-0.003251
-0.017030
-0.030617
-0.041436
-0.046340
-0.042182
-0.027141
-0.002402
0.028085
0.059170
0.085418
0.101944
0.105444
0.094914
0.072496
0.043359
0.013705
-0.010991
-0.026953
-0.033341
-0.032229
-0.026606
-0.018759
-0.010201
-0.002127
0.004334
0.008311
0.009530
0.008241
0.004848
-0.000255
-0.006491
-0.012800
-0.017704
-0.019695
-0.017504
-0.010685
-0.000348
0.011230
0.021892
0.030179
0.035267
0.036999
0.035830
0.032646
0.028605
0.024825
0.022066
0.020561
0.019847
0.018830
0.016405
0.012150
0.006652
0.001760
0.000416
0.005312
0.017396
0.035571
0.056928
0.077203
0.092126
0.098739
0.095716
0.083393
0.063603
0.039283
0.014426
-0.006602
-0.020662
-0.026437
-0.024078
-0.015163
-0.002066
0.013446
0.030724
0.049500
0.069095
0.088074
0.104050
0.113821
0.114537
0.105047
0.086129
0.060162
0.030704
0.001555
-0.024035
-0.043642
-0.055941
-0.060597
-0.057660
-0.047242
-0.029825
-0.006901
0.018783
0.043577
0.063248
0.074048
0.074816
0.067473
0.055286
0.041437
0.028491
0.017855
0.009708
0.003444
-0.002086
-0.008178
-0.015472
-0.023626
-0.031467
-0.037059
-0.038321
-0.034351
-0.025873
-0.014714
-0.003504
0.004787
0.007811
0.004362
-0.005043
-0.017287
-0.027768
-0.033318
-0.033401
-0.029490
-0.024627
-0.022199
-0.023542
-0.027189
-0.030424
-0.030711
-0.026534
-0.018404
-0.008927
-0.001208
0.002599
0.001533
-0.004349
-0.014286
-0.027476
-0.043460
-0.061577
-0.079830
-0.094706
-0.102953
-0.103515
-0.097478
-0.086935
-0.074188
-0.060883
-0.047235
-0.032512
-0.016389
0.000507
0.017062
0.032056
0.044125
0.051583
0.052467
0.045441
0.030994
0.011578
-0.008912
-0.025696
-0.034547
-0.033416
-0.022760
-0.005317
0.014330
0.030954
0.039800
0.037728
0.025017
0.005598
-0.015255
-0.032939
-0.044313
-0.048478
-0.046661
-0.040565
-0.031033
-0.018187
-0.002266
0.015997
0.035456
0.054480
0.070707
0.080739
0.080417
0.067044
0.042053
0.010540
-0.021314
-0.047757
-0.064631
-0.070629
-0.066612
-0.053587
-0.032009
-0.003285
0.028380
0.056997
0.077987
0.089461
0.091422
0.085324
0.073612
0.058814
0.043049
0.027653
0.012699
-0.002619
-0.018930
-0.036097
-0.052941
-0.066914
-0.074956
-0.075464
-0.068813
-0.055909
-0.037023
-0.012543
0.015120
0.040978
0.059225
0.065072
0.055741
0.031576
-0.003990
-0.046245
-0.090518
-0.132516
-0.168654
-0.196091
-0.212802
-0.217984
-0.212086
-0.196498
-0.173283
-0.144906
-0.114186
-0.084192
-0.057886
-0.037964
-0.026617
-0.025095
-0.033656
-0.051752
-0.078121
-0.110410
-0.144399
-0.174338
-0.194356
-0.199306
-0.186111
-0.155708
-0.112734
-0.063600
-0.015407
0.024857
0.051299
0.060654
0.054850
0.041152
0.027914
0.020518
0.020464
0.025491
0.030536
0.031093
0.026408
0.019038
0.012378
0.009424
0.012652
0.023742
0.042728
0.066510
0.088916
0.103974
0.109246
0.105692
0.095735
0.082093
0.067255
0.053215
0.041591
0.033842
0.031235
0.033978
0.040140
0.046443
0.050538
0.051690
0.049172
0.040780
0.023976
-0.001129
-0.030908
-0.060539
-0.086224
-0.105767
-0.118733
-0.126150
-0.129497
-0.130120
-0.129708
-0.131313
-0.139345
-0.157080
-0.183739
-0.214770
-0.244147
-0.265745
-0.274584
-0.268240
-0.247060
-0.213778
-0.173056
-0.130696
-0.093271
-0.067342
-0.057727
-0.066633
-0.092595
-0.128533
-0.163573
-0.188253
-0.196867
-0.187528
-0.162938
-0.129329
-0.093511
-0.061561
-0.038933
-0.030190
-0.037412
-0.057279
-0.080839
-0.098305
-0.103729
-0.095710
-0.076539
-0.051170
-0.025341
-0.004224
0.008040
0.008938
-0.002031
-0.022311
-0.044739
-0.060160
-0.063783
-0.057323
-0.045590
-0.033544
-0.025310
-0.023330
-0.028299
-0.039924
-0.057219
-0.078383
-0.100675
-0.120824
-0.137097
-0.151377
-0.167269
-0.185195
-0.200739
-0.207838
-0.202102
-0.182216
-0.151040
-0.115346
-0.082956
-0.060256
-0.051558
-0.058764
-0.081289
-0.115587
-0.154108
-0.187790
-0.212010
-0.228704
-0.243570
-0.263546
-0.294019
-0.334280
-0.376561
-0.410673
-0.428279
-0.424408
-0.398636
-0.355073
-0.301030
-0.246617
-0.203013
-0.178533
-0.176974
-0.197405
-0.232855
-0.272193
-0.305237
-0.324998
-0.327430
-0.311806
-0.280514
-0.238150
-0.190686
-0.143929
-0.102075
-0.067552
-0.041311
-0.023321
-0.013440
-0.011823
-0.017927
-0.028560
-0.037636
-0.039472
-0.032426
-0.019275
-0.005924
-0.000032
-0.007849
-0.030895
-0.066165
-0.108373
-0.151268
-0.188379
-0.213537
-0.221755
-0.210940
-0.182540
-0.141590
-0.097542
-0.062090
-0.043815
-0.046187
-0.069156
-0.110010
-0.164285
-0.227545
-0.295867
-0.364453
-0.426258
-0.473919
-0.504430
-0.520536
-0.527662
-0.531334
-0.536132
-0.544564
-0.556845
-0.571557
-0.585694
-0.594926
-0.594459
-0.579980
-0.550433
-0.511420
-0.473221
-0.444658
-0.430317
-0.430699
-0.441666
-0.455580
-0.464348
-0.461114
-0.441926
-0.408087
-0.365744
-0.323406
-0.289922
-0.270654
-0.263166
-0.258945
-0.249414
-0.228921
-0.195319
-0.150885
-0.101018
-0.050898
-0.003950
0.038028
0.074903
0.107748
0.137789
0.165675
0.190530
0.208966
0.216602
0.211701
0.196592
0.176622
0.159550
0.153828
0.165076
0.194851
0.241607
0.300708
0.364746
0.424772
0.471183
0.495501
0.492486
0.460467
0.400850
0.317623
0.217118
0.108567
0.002721
-0.091780
-0.169883
-0.229730
-0.272813
-0.302375
-0.319863
-0.323786
-0.312296
-0.285977
-0.248011
-0.202978
-0.156361
-0.114909
-0.087093
-0.080885
-0.098871
-0.136415
-0.182941
-0.222215
-0.236313
-0.214242
-0.155037
-0.065230
0.041891
0.148632
0.238438
0.298812
0.324008
0.319151
0.297572
0.272556
0.253264
0.243907
0.242343
0.241698
0.234701
0.215688
0.180528
0.126940
0.055396
-0.029447
-0.118696
-0.201552
-0.267114
-0.305410
-0.309044
-0.273756
-0.198996
-0.089841
0.043520
0.188572
0.331964
0.460470
0.562058
0.627560
0.653707
0.643900
0.606753
0.555831
0.506486
0.468845
0.445388
0.433639
0.427681
0.419393
0.400812
0.365300
0.308605
0.230802
0.136829
0.036075
-0.058633
-0.134550
-0.182619
-0.198592
-0.183548
-0.143452
-0.087502
-0.027622
0.022987
0.053308
0.055911
0.027384
-0.029936
-0.108267
-0.196561
-0.281931
-0.351419
-0.393807
-0.401358
-0.372544
-0.312490
-0.230770
-0.140475
-0.056285
0.009839
0.050446
0.063082
0.052245
0.028557
0.005256
-0.004110
0.010990
0.053998
0.121010
0.202736
0.286522
0.360538
0.417836
0.456567
0.478475
0.487493
0.487699
0.481823
0.471548
0.458595
0.445035
0.431939
0.417631
0.398130
0.369140
0.327021
0.269043
0.193973
0.102733
-0.000733
-0.109280
-0.213420
-0.301822
-0.363614
-0.393095
-0.391031
-0.361804
-0.311673
-0.248338
-0.180288
-0.116510
-0.065781
-0.035406
-0.029318
-0.045022
-0.073166
-0.101222
-0.116588
-0.109119
-0.075093
-0.018147
0.053390
0.127877
0.192291
0.236244
0.253671
0.243298
0.210375
0.165381
0.119772
0.083618
0.063699
0.061058
0.071884
0.090803
0.112616
0.132493
0.145771
0.147674
0.133134
0.096640
0.032714
-0.063013
-0.191837
-0.348850
-0.522130
-0.695087
-0.847988
-0.961580
-1.024368
-1.034893
-0.998927
-0.928751
-0.841399
-0.754251
-0.683050
-0.641186
-0.638102
-0.677925
-0.757754
-0.867774
-0.993825
-1.118706
-1.224584
-1.298109
-1.331901
-1.322342
-1.268817
-1.174423
-1.047086
-0.899536
-0.747123
-0.606085
-0.491008
-0.410066
-0.363871
-0.348325
-0.355881
-0.376157
-0.397453
-0.407928
-0.398518
-0.366707
-0.316400
-0.255324
-0.193164
-0.139329
-0.100980
-0.082440
-0.084802
-0.106156
-0.142518
-0.188139
-0.236758
-0.284320
-0.329642
-0.372087
-0.409511
-0.438976
-0.459173
-0.471344
-0.478399
-0.484301
-0.493266
-0.508263
-0.530542
-0.560026
-0.595152
-0.632487
-0.666415
-0.689714
-0.697142
-0.689474
-0.672607
-0.653443
-0.637657
-0.628782
-0.627231
-0.631218
-0.639146
-0.650506
-0.664785
-0.680364
-0.695385
-0.710064
-0.727454
-0.751894
-0.787489
-0.836917
-0.899755
-0.972097
-1.047880
-1.119736
-1.180333
-1.225008
-1.252583
-1.264305
-1.263423
-1.254524
-1.242040
-1.229728
-1.221171
-1.220060
-1.229165
-1.248169
-1.273190
-1.298759
-1.319416
-1.330336
-1.328082
-1.310832
-1.278736
-1.235071
-1.186230
-1.140598
-1.107417
-1.093694
-1.100569
-1.123752
-1.156541
-1.191703
-1.223004
-1.246582
-1.260739
-1.264913
-1.259093
-1.244102
-1.222502
-1.198949
-1.180047
-1.173956
-1.188610
-1.229647
-1.299305
-1.395352
-1.511232
-1.638146
-1.766386
-1.886429
-1.990991
-2.075701
-2.138940
-2.182612
-2.211803
-2.233204
-2.253925
-2.279347
-2.310529
-2.344208
-2.374361
-2.393394
-2.393823
-2.369821
-2.317757
-2.236647
-2.128145
-1.996468
-1.849144
-1.695902
-1.545506
-1.404403
-1.276707
-1.163630
-1.063795
-0.974402
-0.892175
-0.815099
-0.744482
-0.685080
-0.644026
-0.629744
-0.649185
-0.704681
-0.793839
-0.911107
-1.048898
-1.198687
-1.351727
-1.500251
-1.639883
-1.770377
-1.894759
-2.019244
-2.151577
-2.297279
-2.458285
-2.634089
-2.822246
-3.018470
-3.217004
-3.411021
-3.593884
-3.760569
-3.908323
-4.037290
-4.150180
-4.250040
-4.338166
-4.413795
-4.474475
-4.516438
-4.535245
-4.526348
-4.486163
-4.414056
-4.312778
-4.186745
-4.040701
-3.878946
-3.704175
-3.517215
-3.317751
-3.104687
-2.876390
-2.631181
-2.367646
-2.085171
-1.784730
-1.468847
-1.140950
-0.805024
-0.465467
-0.126996
0.206085
0.531460
0.849155
1.160356
1.466588
1.769601
2.071328
2.373675
2.677219
2.979342
3.274141
3.553566
3.808393
4.030272
4.213976
4.357657
4.462239
4.530819
4.568060
4.580105
4.573359
4.551733
4.515665
4.463025
4.389493
4.289773
4.160137
3.999403
3.808638
3.591660
3.355322
3.109310
2.865813
2.638284
2.440290
2.283551
2.174240
2.112034
2.091858
2.104125
2.135896
2.174032
2.206562
2.222892
2.214444
2.175395
2.103848
2.001917
1.874878
1.731256
1.581279
1.433095
1.291217
1.156892
1.027947
0.900471
0.772561
0.645650
0.522344
0.404057
0.289769
0.174828
0.051083
-0.089994
-0.253916
-0.441517
-0.647427
-0.859934
-1.062411
-1.233475
-1.350018
-1.394346
-1.356954
-1.236364
-1.041114
-0.787566
-0.493246
-0.173562
0.159025
0.496095
0.832877
1.166960
1.497296
1.823462
2.145424
2.463258
2.776569
3.084256
3.384669
3.675583
3.954187
4.217218
4.460865
4.680273
4.868984
5.020323
5.130621
5.200591
5.235589
5.246914
5.249664
5.256952
5.277310
5.314326
5.365311
5.423032
5.480403
5.532662
5.577194
5.613567
5.643098
5.667845
5.690122
5.712484
5.737719
5.768017
5.803279
5.840488
5.873986
5.895102
5.893326
5.859422
5.786688
5.670822
5.510349
5.306101
5.059728
4.772987
4.448300
4.089833
3.703596
3.296712
2.876870
2.451098
2.024385
1.599562
1.177718
0.758805
0.343000
-0.067898
-0.470092
-0.857887
-1.223635
-1.557146
-1.844556
-2.070318
-2.222386
-2.294183
-2.283821
-2.194477
-2.033031
-1.806548
-1.520777
-1.181087
-0.793675
-0.365634
0.095840
0.583698
1.090894
1.610338
2.135406
2.661184
3.184695
3.703957
4.217297
4.722924
5.218401
5.700298
6.163839
6.602267
7.007625
7.372995
7.693325
7.964870
8.184794
8.350508
8.458571
8.504172
8.481562
8.384628
8.208369
7.951611
7.617866
7.214335
6.751883
6.243491
5.700434
5.131175
4.543916
3.949181
3.359333
2.785912
2.238417
1.723285
1.241910
0.790777
0.363226
-0.049202
-0.454833
-0.860060
-1.268633
-1.681026
-2.094661
-2.505272
-2.907494
-3.294991
-3.660921
-3.998260
-4.300804
-4.564449
-4.787261
-4.968947
-5.110280
-5.212191
-5.275009
-5.298164
-5.279925
-5.217473
-5.107982
-4.950068
-4.745101
-4.498891
-4.221554
-3.923452
-3.611068
-3.286297
-2.947029
-2.588371
-2.206126
-1.800253
-1.374905
-0.936635
-0.493317
-0.053559
0.373356
0.777865
1.151341
1.486452
1.777145
2.019209
2.210700
2.352327
2.447105
2.498552
2.509159
2.480186
2.411880
2.303871
2.156315
1.971161
1.752159
1.504066
1.232132
0.941440
0.636287
0.320073
-0.004753
-0.336406
-0.672726
-1.010021
-1.343016
-1.665537
-1.970719
-2.250601
-2.495468
-2.694836
-2.840166
-2.925807
-2.948680
-2.908884
-2.809849
-2.657880
-2.461796
-2.232664
-1.984170
-1.730910
-1.484139
-1.250300
-1.032113
-0.828767
-0.637138
-0.454516
-0.280019
-0.115228
0.034712
0.161887
0.258170
0.316538
0.332180
0.304217
0.235756
0.132759
0.003256
-0.143282
-0.295929
-0.443172
-0.575204
-0.684575
-0.765205
-0.811858
-0.820260
-0.787551
-0.712550
-0.596978
-0.447666
-0.275755
-0.093293
0.088504
0.260177
0.415217
0.549996
0.663025
0.754248
0.824465
0.875407
0.910019
0.932640
0.948981
0.965648
0.989794
1.028175
1.085176
1.162430
1.260489
1.380096
1.522108
1.686831
1.873510
2.079180
2.296951
2.517014
2.730002
2.928611
3.108472
3.269730
3.416579
3.555153
3.692111
3.832880
3.979728
4.131693
4.285497
4.436319
4.578805
4.707713
4.818275
4.906857
4.970987
5.008592
5.017435
4.995233
4.940173
4.851264
4.729175
4.577502
4.401995
4.208065
3.999598
3.778802
3.545875
3.299853
3.040546
2.769354
2.488744
2.201780
1.911471
1.619598
1.326366
1.030988
0.731986
0.427449
0.115551
-0.205245
-0.536212
-0.878261
-1.231720
-1.596018
-1.969587
-2.349722
-2.731895
-3.109526
-3.474285
-3.816348
-4.125256
-4.390849
-4.604754
-4.763084
-4.866996
-4.920942
-4.932151
-4.910339
-4.866624
-4.812861
-4.760196
-4.717092
-4.687939
-4.671353
-4.660330
-4.645387
-4.616908
-4.566462
-4.488761
-4.382096
-4.247143
-4.086482
-3.903759
-3.701903
-3.482455
-3.246292
-2.994350
-2.727988
-2.449305
-2.161171
-1.866567
-1.567866
-1.266484
-0.962482
-0.654661
-0.341527
-0.022237
0.302948
0.632254
0.962404
1.289243
1.608060
1.913840
2.201907
2.468133
2.709048
2.922223
3.106454
3.261843
3.389627
3.491486
3.569011
3.623322
3.654510
3.661468
3.642193
3.593959
3.514087
3.401521
3.257333
3.084005
2.884993
2.664111
2.424267
2.167127
1.894165
1.607802
1.311727
1.010793
0.710863
0.418156
0.138617
-0.122754
-0.363061
-0.581704
-0.779496
-0.958261
-1.120482
-1.268552
-1.404399
-1.529199
-1.642908
-1.744404
-1.832101
-1.904300
-1.959361
-1.995789
-2.012236
-2.007520
-1.980676
-1.931420
-1.860902
-1.771735
-1.667462
-1.552215
-1.430342
-1.306168
-1.183763
-1.066410
-0.956551
-0.856133
-0.766722
-0.689364
-0.624305
-0.570994
-0.528473
-0.495619
-0.471304
-0.454661
-0.445136
-0.442175
-0.444887
-0.451979
-0.461865
-0.472701
-0.482303
-0.487976
-0.486732
-0.475917
-0.453467
-0.418020
-0.369330
-0.308444
-0.237703
-0.160564
-0.080917
-0.002561
0.071165
0.137983
0.196771
0.247082
0.288902
0.322523
0.348291
0.366440
0.376852
0.378781
0.371093
0.352923
0.323938
0.284192
0.234046
0.174081
0.104899
0.027021
-0.059199
-0.153641
-0.256228
-0.366522
-0.483511
-0.605476
-0.729744
-0.853151
-0.973232
-1.088582
-1.198068
-1.300002
-1.391957
-1.470884
-1.533344
-1.576564
-1.599776
-1.604438
-1.593839
-1.572619
-1.545741
-1.517658
-1.492050
-1.471516
-1.457615
-1.451117
-1.451883
-1.458833
-1.470090
-1.483130
-1.495060
-1.502849
-1.503874
-1.497000
-1.482948
-1.463995
-1.443990
-1.427376
-1.416998
-1.413240
-1.414399
-1.416594
-1.414586
-1.403774
-1.381043
-1.344675
-1.294563
-1.231884
-1.158216
-1.075111
-0.984320
-0.888268
-0.790196
-0.694008
-0.604180
-0.525570
-0.463276
-0.422151
-0.405729
-0.415929
-0.453353
-0.517141
-0.605215
-0.715032
-0.843938
-0.989002
-1.146673
-1.312938
-1.484009
-1.656556
-1.827643
-1.994793
-2.156100
-2.310431
-2.457282
-2.595833
-2.723851
-2.837529
-2.931888
-3.001121
-3.039426
-3.041897
-3.005045
-2.927473
-2.809864
-2.654204
-2.463512
-2.241519
-1.991894
-1.718113
-1.424552
-1.117905
-0.806754
-0.499634
-0.204157
0.073329
0.328330
0.558029
0.760614
0.934713
1.078816
1.190868
1.268527
1.309884
1.313826
1.280586
1.212750
1.115163
0.993880
0.855574
0.707035
0.554803
0.404799
0.261562
0.128199
0.007076
-0.099816
-0.190917
-0.265325
-0.322827
-0.363794
-0.389243
-0.400501
-0.398397
-0.383056
-0.354729
-0.314845
-0.266303
-0.213373
-0.161470
-0.116425
-0.083859
-0.068762
-0.074741
-0.103859
-0.156771
-0.232326
-0.327798
-0.439786
-0.564691
-0.698741
-0.837853
-0.977736
-1.114390
-1.244307
-1.364791
-1.474581
-1.573822
-1.663611
-1.745564
-1.821066
-1.890536
-1.953373
-2.008253
-2.053374
-2.086856
-2.107084
-2.112870
-2.103675
-2.079629
-2.041403
-1.990265
-1.927898
-1.855895
-1.775612
-1.688605
-1.597206
-1.504570
-1.414327
-1.330368
-1.256451
-1.195702
-1.150295
-1.121017
-1.107277
-1.107655
-1.120190
-1.142741
-1.173739
-1.212373
-1.257873
-1.308747
-1.362691
-1.416896
-1.468219
-1.513350
-1.548899
-1.571545
-1.578441
-1.567341
-1.536841
-1.487024
-1.419685
-1.338245
-1.247598
-1.153800
-1.064047
-0.985754
-0.924386
