EVENT_NAME: EMILIA_2ND_SHOCK
EVENT_ID: IT-2012-0011
EVENT_DATE_YYYYMMDD: 20120529
EVENT_TIME_HHMMSS: 070002
EVENT_LATITUDE_DEGREE: 44.8417
EVENT_LONGITUDE_DEGREE: 11.0657
EVENT_DEPTH_KM: 8.1
HYPOCENTER_REFERENCE: INGV-CNT_Seismic_Bulletin
MAGNITUDE_W: 6.0
MAGNITUDE_W_REFERENCE: RCMT-INGV
MAGNITUDE_L: 5.8
MAGNITUDE_L_REFERENCE: INGV-CNT_Seismic_Bulletin
FOCAL_MECHANISM: TF
NETWORK: IV
STATION_CODE: T0800
STATION_NAME: T0800
STATION_LATITUDE_DEGREE: 44.848600
STATION_LONGITUDE_DEGREE: 11.247900
STATION_ELEVATION_M: 9
LOCATION: 
SENSOR_DEPTH_M: 1.0
VS30_M/S: 
SITE_CLASSIFICATION_EC8: C*
MORPHOLOGIC_CLASSIFICATION: 
EPICENTRAL_DISTANCE_KM: 14.4
EARTHQUAKE_BACKAZIMUTH_DEGREE: 267.0
DATE_TIME_FIRST_SAMPLE_YYYYMMDD_HHMMSS: 20120529_065949.000
DATE_TIME_FIRST_SAMPLE_PRECISION: milliseconds
SAMPLING_INTERVAL_S: 0.005000
NDATA: 20001
DURATION_S: 100.005
STREAM: HNZ
UNITS: cm/s^2
INSTRUMENT: sensor = Episensor FBA ES-T [Kinemetrics] | digitizer = Unknown [Unknown]
INSTRUMENT_ANALOG/DIGITAL: D
INSTRUMENTAL_FREQUENCY_HZ: 
INSTRUMENTAL_DAMPING: 
FULL_SCALE_G: 
N_BIT_DIGITAL_CONVERTER: 
PGA_CM/S^2: -331.760469
TIME_PGA_S: 21.565000
BASELINE_CORRECTION: BASELINE REMOVED
FILTER_TYPE: BUTTERWORTH
FILTER_ORDER: 2
LOW_CUT_FREQUENCY_HZ: 0.070
HIGH_CUT_FREQUENCY_HZ: 40.000
LATE/NORMAL_TRIGGERED: NT
DATABASE_VERSION: DYNA 1.0
HEADER_FORMAT: DYNA 1.2
DATA_TYPE: ACCELERATION
PROCESSING: manual (Paolucci et al., 2011)
DATA_TIMESTAMP_YYYYMMDD_HHMMSS: 
DATA_LICENSE: CC-BY4_0 (http://creativecommons.org/licenses/by/4.0/)
DATA_CITATION: ESM working group (2015), European Strong-Motion database, version 0.1, Network Activity 3: Networking acceleration networks and SM data users. Project NERA (www.nera-eu.org)
DATA_CREATOR: ESM working group
ORIGINAL_DATA_MEDIATOR_CITATION: Orfeus - European Integrated Data Archive (EIDA) http://www.orfeus-eu.org/eida/
ORIGINAL_DATA_MEDIATOR: Orfeus - European Integrated Data Archive (EIDA)
ORIGINAL_DATA_CREATOR_CITATION: Data for this study comes from the Italian national seismic network operated by Istituto Nazionale di Geofisica e Vulcanologia and archived at the European Integrated Data Archive http://eida.rm.ingv.it/
ORIGINAL_DATA_CREATOR: network: IV (Italian National Seismic Network); owner: Istituto Nazionale di Geofisica e Vulcanologia
USER1: 
USER2: 
USER3: 
USER4: 
USER5: 
[...]
-0.015369
-0.015870
-0.015955
-0.015863
-0.015797
-0.015859
-0.016071
-0.016409
-0.016820
-0.017229
-0.017539
-0.017654
-0.017520
-0.017192
-0.016821
-0.016492
-0.016106
-0.015547
-0.014865
-0.014207
-0.013691
-0.013377
-0.013276
-0.013322
-0.013380
-0.013375
-0.013370
-0.013448
-0.013550
-0.013488
-0.013099
-0.012504
-0.012146
-0.012304
-0.012692
-0.012863
-0.012720
-0.012516
-0.012579
-0.013026
-0.013647
-0.014208
-0.014717
-0.015266
-0.015803
-0.016169
-0.016263
-0.016168
-0.016150
-0.016441
-0.017022
-0.017652
-0.018021
-0.017958
-0.017561
-0.017079
-0.016735
-0.016619
-0.016656
-0.016685
-0.016573
-0.016346
-0.016203
-0.016287
-0.016477
-0.016485
-0.016093
-0.015365
-0.014691
-0.014475
-0.014821
-0.015563
-0.016411
-0.017059
-0.017260
-0.016953
-0.016320
-0.015684
-0.015324
-0.015326
-0.015565
-0.015902
-0.016342
-0.016853
-0.017223
-0.017267
-0.017057
-0.016796
-0.016601
-0.016455
-0.016264
-0.015991
-0.015738
-0.015656
-0.015807
-0.016094
-0.016299
-0.016281
-0.016117
-0.015942
-0.015772
-0.015567
-0.015376
-0.015373
-0.015727
-0.016314
-0.016654
-0.016480
-0.016159
-0.016146
-0.016361
-0.016424
-0.016146
-0.015709
-0.015536
-0.015839
-0.016364
-0.016804
-0.017186
-0.017532
-0.017526
-0.016894
-0.015862
-0.015006
-0.014815
-0.015303
-0.015942
-0.016267
-0.016368
-0.016557
-0.016888
-0.017196
-0.017345
-0.017365
-0.017436
-0.017648
-0.017863
-0.017919
-0.017880
-0.017955
-0.018285
-0.018774
-0.019082
-0.018950
-0.018473
-0.017956
-0.017646
-0.017597
-0.017679
-0.017780
-0.017942
-0.018223
-0.018523
-0.018652
-0.018485
-0.018068
-0.017597
-0.017214
-0.016860
-0.016478
-0.016205
-0.016254
-0.016707
-0.017454
-0.018235
-0.018779
-0.018945
-0.018794
-0.018558
-0.018432
-0.018397
-0.018334
-0.018204
-0.018110
-0.018238
-0.018657
-0.019196
-0.019600
-0.019741
-0.019646
-0.019429
-0.019165
-0.018839
-0.018447
-0.018085
-0.017850
-0.017742
-0.017747
-0.017930
-0.018341
-0.018860
-0.019166
-0.018885
-0.018019
-0.017156
-0.016908
-0.017298
-0.017848
-0.018024
-0.017759
-0.017607
-0.018044
-0.018830
-0.019356
-0.019275
-0.018752
-0.018335
-0.018387
-0.018690
-0.018809
-0.018608
-0.018323
-0.018350
-0.018861
-0.019583
-0.020077
-0.020103
-0.019722
-0.019208
-0.018838
-0.018712
-0.018755
-0.018816
-0.018812
-0.018803
-0.018854
-0.018910
-0.018879
-0.018766
-0.018670
-0.018695
-0.018815
-0.018867
-0.018824
-0.018956
-0.019489
-0.020265
-0.020929
-0.021251
-0.021227
-0.021008
-0.020724
-0.020383
-0.020000
-0.019692
-0.019535
-0.019438
-0.019322
-0.019273
-0.019382
-0.019540
-0.019552
-0.019329
-0.018951
-0.018616
-0.018461
-0.018457
-0.018516
-0.018608
-0.018693
-0.018662
-0.018467
-0.018241
-0.018131
-0.018109
-0.018034
-0.017814
-0.017539
-0.017474
-0.017809
-0.018445
-0.019123
-0.019635
-0.019910
-0.020007
-0.020044
-0.020108
-0.020183
-0.020170
-0.020062
-0.020058
-0.020345
-0.020871
-0.021390
-0.021660
-0.021661
-0.021642
-0.021817
-0.022085
-0.022150
-0.021773
-0.020903
-0.019743
-0.018726
-0.018351
-0.018785
-0.019618
-0.020262
-0.020453
-0.020299
-0.020097
-0.020019
-0.019980
-0.019916
-0.020004
-0.020352
-0.020715
-0.020772
-0.020484
-0.020034
-0.019627
-0.019382
-0.019334
-0.019526
-0.020036
-0.020837
-0.021685
-0.022284
-0.022484
-0.022288
-0.021814
-0.021278
-0.020927
-0.020806
-0.020671
-0.020340
-0.019993
-0.019878
-0.019960
-0.020022
-0.019936
-0.019796
-0.019851
-0.020199
-0.020604
-0.020771
-0.020647
-0.020289
-0.019704
-0.019006
-0.018530
-0.018528
-0.018884
-0.019306
-0.019652
-0.020000
-0.020497
-0.021024
-0.021123
-0.020635
-0.020113
-0.020136
-0.020574
-0.020935
-0.020957
-0.020707
-0.020419
-0.020327
-0.020523
-0.020858
-0.021010
-0.020876
-0.020790
-0.021042
-0.021415
-0.021493
-0.021219
-0.021072
-0.021688
-0.022814
-0.023084
-0.022008
-0.021167
-0.021694
-0.022245
-0.021588
-0.021022
-0.021869
-0.022835
-0.022092
-0.019985
-0.018039
-0.016704
-0.014630
-0.009911
-0.003262
0.001526
0.003894
0.009403
0.019908
0.028131
0.033025
0.050715
0.094388
0.153194
0.201972
0.220853
0.205453
0.167466
0.125266
0.098260
0.111887
0.191176
0.323925
0.443860
0.491243
0.471772
0.431080
0.403798
0.389560
0.353055
0.254299
0.089642
-0.077522
-0.129420
-0.001316
0.222214
0.354357
0.239585
-0.081204
-0.338267
-0.328423
-0.172295
-0.149269
-0.414616
-0.884086
-1.285747
-1.412993
-1.328088
-1.254841
-1.352015
-1.538668
-1.497125
-1.029246
-0.385191
-0.124973
-0.709522
-1.996029
-3.106561
-3.239950
-2.436846
-1.296362
-0.362001
0.204398
0.642034
1.240129
2.002704
2.661978
2.854927
2.380096
1.431836
0.623498
0.686831
1.698504
2.720264
2.842190
2.177661
1.351097
0.625407
-0.206192
-1.403903
-2.622037
-2.749765
-1.034172
1.914690
4.686563
6.073182
5.555614
3.424595
0.542670
-2.110805
-4.093764
-5.749109
-7.316606
-8.141934
-7.276939
-4.482513
-0.623003
2.675728
4.334318
4.684374
4.467664
3.719883
2.174615
0.021381
-2.137564
-3.708238
-4.433969
-4.421754
-3.707016
-2.000125
0.752404
3.793161
5.900598
6.239909
5.238264
4.595773
5.348065
6.246199
5.008384
0.624548
-5.133719
-8.123691
-5.733312
-0.034080
4.378160
4.097886
-1.057303
-7.863154
-12.142947
-11.477347
-6.203659
0.868505
6.402095
8.673353
8.438295
8.217149
9.214748
9.286176
5.648657
-1.693174
-9.796381
-14.614850
-13.957961
-9.221966
-3.417987
1.275304
3.791103
3.853190
2.308095
1.152685
1.860358
3.761774
4.652480
2.566143
-2.205745
-6.531215
-7.375025
-4.703170
-0.849462
1.400188
0.345507
-3.652340
-8.133664
-9.399869
-4.971763
4.143807
13.684294
18.141727
14.551898
5.107957
-4.938907
-10.757387
-10.275316
-5.174368
0.425717
2.413392
-0.298458
-4.353750
-5.189333
-1.077538
5.748950
10.467353
9.856692
5.341522
0.698851
-1.546372
-1.538625
-1.634441
-3.914809
-8.069209
-11.976956
-13.448002
-11.933156
-8.953761
-5.924570
-2.516435
1.515655
4.512432
4.724483
3.000655
3.017260
8.925949
20.219187
29.315956
28.292501
16.301828
-0.818514
-14.765688
-20.073582
-17.312418
-10.738136
-4.593876
-1.046316
0.561212
2.700104
7.515007
13.760011
15.776427
8.507052
-7.011308
-23.642363
-31.805098
-26.146524
-10.019071
8.194001
20.883986
24.456154
20.251396
12.554252
5.950706
3.148527
3.465984
3.144070
-2.523500
-14.475933
-26.751394
-30.459478
-20.336895
0.339686
19.525480
25.721649
17.127472
0.774294
-13.132477
-18.172016
-15.420458
-9.094534
-1.525215
6.280104
12.426010
14.195303
9.829247
1.014585
-6.486970
-7.215554
-0.709443
8.426052
13.361742
10.114986
1.011755
-7.929728
-11.609869
-9.201781
-4.862811
-3.484839
-6.204721
-10.195661
-10.998560
-6.456965
1.002869
7.328602
10.650034
11.859956
12.986923
14.149300
12.365466
5.594032
-3.507318
-9.840761
-10.080521
-5.025482
0.615818
2.413501
0.181272
-2.506026
-1.097519
6.058574
15.322982
20.257046
16.118149
3.955053
-8.633237
-14.170122
-11.718799
-5.356768
0.315165
3.487687
5.756187
8.381073
9.246749
5.380313
-3.279594
-13.140723
-18.667154
-16.515301
-8.576045
-0.009106
4.466018
3.424996
-0.541708
-4.046548
-5.921493
-6.357339
-5.245915
-2.432026
1.512002
5.548042
8.788649
10.676763
10.920919
9.404531
6.157244
1.393412
-4.482983
-10.774573
-15.873343
-16.310122
-7.865108
8.787832
24.758558
29.970991
21.517567
4.250552
-13.015688
-23.548828
-26.433683
-23.649670
-16.601074
-6.909641
2.623275
10.644418
18.824095
27.358938
31.327496
25.559896
10.975415
-5.290831
-14.188670
-12.230139
-5.166321
-0.327921
1.169621
1.794447
2.411157
1.851488
-1.175956
-6.455119
-11.945868
-15.525319
-16.490881
-14.896731
-10.756124
-4.811542
1.007072
5.385979
8.999967
12.509999
14.314518
11.574999
2.919152
-8.926017
-17.048397
-16.030262
-7.256327
2.789891
7.371547
4.441921
-1.509605
-4.609997
-2.963466
1.888939
7.375086
10.976381
10.713535
6.139660
-0.789458
-6.480129
-7.679927
-4.188828
0.467157
3.475332
6.103553
9.893991
12.575649
10.698507
4.000828
-3.814359
-7.312661
-4.207926
1.933332
6.173152
6.940958
4.746304
-0.204568
-6.995369
-12.628990
-13.855737
-9.595903
-1.089828
9.055642
17.986246
23.222298
22.566133
14.638259
0.943939
-13.479565
-24.134279
-30.476437
-33.261330
-31.340595
-23.258535
-9.907635
5.610571
19.383078
27.922476
28.888851
21.408831
6.944013
-9.197909
-18.580509
-16.094116
-5.146135
6.271777
11.826784
9.491091
1.592698
-7.446764
-13.515068
-14.236399
-9.980897
-4.081928
-1.414050
-3.917269
-7.652850
-6.852948
0.647839
12.025642
21.213467
23.610262
19.268478
10.365020
-1.583228
-14.058603
-21.705170
-19.287579
-6.244516
11.264638
22.499353
21.017122
11.003311
0.980052
-4.713221
-6.951238
-8.575907
-9.680391
-6.014332
5.048911
19.165691
28.550623
27.881508
16.690090
-0.966815
-19.231737
-32.634857
-36.026505
-25.311363
-1.820460
24.452713
39.495937
33.514915
8.558683
-20.055122
-36.520508
-37.313854
-29.523035
-22.500443
-18.931488
-11.889121
4.820467
26.725101
42.602573
43.172592
26.925337
1.794520
-20.113216
-29.871656
-27.385983
-22.275181
-24.462257
-34.099998
-41.111572
-31.943211
-2.882791
32.529430
56.054634
59.462276
45.039272
20.344713
-6.216921
-27.790314
-39.431499
-38.427952
-25.413166
-4.968586
16.072781
30.612761
32.643669
20.124718
0.240383
-10.768903
-2.644881
16.576689
30.446548
29.652452
17.590683
6.897477
6.321625
11.621000
13.769743
9.429411
0.421925
-10.098596
-18.191339
-19.628439
-14.360363
-9.497708
-13.529041
-28.616508
-48.188747
-59.680622
-53.789799
-31.568045
-0.630268
30.697300
54.408573
63.054642
53.401993
29.619352
0.634741
-24.335966
-38.960732
-41.791725
-36.417267
-29.677168
-26.511782
-25.781578
-22.400656
-12.261705
3.173705
16.440416
22.088806
22.500290
21.200443
16.047743
4.288987
-10.874110
-22.923758
-27.565226
-24.579014
-16.307775
-3.581012
15.254764
37.292519
50.911732
46.214855
26.140585
3.554492
-7.317657
1.299268
26.100706
54.744179
71.299919
64.827385
36.517975
-0.776007
-27.985758
-30.792938
-9.098819
23.466578
46.077457
42.978477
13.575563
-29.024851
-65.654694
-82.583687
-78.717293
-59.671181
-30.463257
3.609531
34.683990
55.405880
62.680992
56.696369
38.739033
11.546418
-18.794558
-41.660839
-44.654720
-23.975048
8.471297
34.096218
40.379581
26.141722
0.864629
-22.668142
-35.850788
-36.714275
-29.473925
-21.275518
-18.562052
-24.358747
-36.484055
-48.122356
-50.648914
-39.682316
-19.369698
1.391859
15.343941
21.136145
23.649548
27.502737
31.353916
30.429457
21.420794
4.712709
-15.791055
-35.163471
-49.223701
-53.439911
-42.540035
-14.892806
22.318274
53.229961
60.101433
38.971775
8.241008
-8.798951
-4.629872
11.382380
23.396023
24.965611
25.753382
34.478474
43.790592
41.974873
29.242626
16.493464
15.745234
30.588465
52.335770
67.893799
68.450470
50.484447
15.342808
-28.124678
-63.623528
-77.907608
-70.409737
-49.378716
-23.571350
2.455742
27.963238
49.240578
56.212925
42.089111
12.786582
-18.156092
-40.052395
-52.009129
-62.244923
-74.688560
-79.058632
-61.563541
-20.253614
30.840639
67.620766
73.242737
51.102154
17.014816
-13.940693
-33.502171
-41.054817
-39.830082
-32.693520
-20.091534
-0.115773
27.761189
58.031120
77.398773
68.908768
26.525450
-34.345623
-87.495567
-112.346916
-102.842010
-68.362000
-24.129904
17.333620
45.266384
50.370060
33.634480
11.498407
1.564212
6.240029
13.315520
6.918584
-16.103823
-39.299664
-45.341923
-33.978535
-14.202817
8.774538
32.668144
52.264900
59.078754
46.754627
20.778690
0.976824
3.682122
25.077709
47.996223
55.964840
41.099972
6.597065
-36.477383
-74.085266
-94.792938
-94.228691
-75.514397
-47.128300
-17.769321
8.167446
30.595385
51.389278
70.286041
81.289749
73.826897
40.011074
-10.700817
-46.459297
-38.750141
10.386233
71.374313
107.434273
103.015648
76.823479
53.455360
34.663754
9.275007
-25.415545
-57.026237
-65.775574
-45.905975
-17.467440
-4.258000
-9.684386
-21.341820
-26.094233
-19.707081
-8.342774
0.674327
6.481029
10.531562
11.614314
9.794691
10.572476
19.603170
35.824280
51.664474
57.260548
46.520035
20.983675
-12.584702
-45.460510
-67.722702
-70.249100
-52.080345
-26.055185
-12.459990
-26.835337
-67.221268
-109.725868
-125.894226
-104.130119
-57.219574
-15.148077
2.083759
4.339626
14.681667
44.305790
84.733444
113.955933
115.639023
91.782120
51.147369
-2.356058
-60.251701
-100.477669
-102.224678
-64.696465
-7.346077
41.698616
64.818199
66.418053
60.393822
54.488773
49.989861
47.994934
53.514626
73.148430
102.474365
117.162865
86.117821
-4.702829
-130.075836
-224.760742
-232.191574
-150.859604
-24.980072
86.663475
140.080841
124.450829
59.116856
-17.897303
-67.835854
-70.367783
-35.591507
1.222064
17.481379
28.907509
56.311104
88.845268
99.339600
77.620346
45.853428
46.903214
94.424416
139.267715
113.531616
-6.991156
-179.740250
-312.158752
-331.760468
-245.679047
-122.042061
-38.193081
-28.023973
-59.452389
-80.399429
-70.398224
-41.952820
-19.311497
-15.478033
-21.148937
-18.803223
-0.903931
24.891190
39.557709
25.971581
-17.089781
-69.060371
-92.133064
-55.503994
39.216991
153.074020
224.005081
208.124725
114.882156
-2.690136
-80.641525
-86.737328
-43.927727
1.128955
19.460035
12.199378
3.216562
14.280992
43.750568
69.279816
64.050621
21.163168
-33.662212
-64.926247
-55.676655
-13.753415
36.039761
70.409660
81.306358
71.685501
49.002392
26.474567
19.602049
26.516991
19.979498
-17.841825
-65.363808
-87.028191
-70.439285
-31.374817
3.250616
24.911116
53.646145
97.988205
123.242676
88.456398
-5.551593
-115.674057
-182.666992
-169.888260
-89.408974
12.594607
85.162392
99.950348
65.670258
13.252584
-26.685993
-38.976387
-29.480045
-14.700516
-8.015776
-11.689979
-15.617885
-7.385902
15.925682
43.842613
58.027691
50.894211
36.971226
35.149925
48.614002
67.671997
79.642982
72.994347
40.371342
-13.870872
-69.375595
-101.314606
-97.005173
-65.776726
-35.670589
-27.427591
-35.564342
-46.134670
-56.835350
-68.052666
-70.030563
-52.057652
-16.597708
21.388638
44.516388
46.917938
39.148132
31.194336
19.407511
1.099039
-12.236799
-11.154039
-4.228391
-2.698457
-1.030742
16.834749
59.373497
112.462456
140.224396
117.192909
55.267052
-12.585909
-60.281593
-80.512665
-83.180061
-80.311478
-73.029663
-54.849789
-22.543098
13.528529
30.680855
18.358244
-5.663367
-19.747856
-24.667433
-32.925484
-47.508724
-57.155972
-46.889618
-20.604471
-7.511221
-24.364363
-46.324944
-40.685371
-7.229491
30.418432
50.466419
46.130066
26.145344
3.102756
-15.266559
-21.563950
-6.786701
25.557728
51.527538
49.667664
22.928337
-13.140691
-48.895859
-80.175117
-100.228424
-97.062202
-59.264153
8.408734
78.221390
122.238510
135.868118
132.800064
128.803650
128.786514
122.453583
95.522202
43.162453
-25.468290
-89.571823
-127.316589
-126.304131
-87.148277
-24.120432
37.449951
68.978111
56.304359
12.970354
-30.154837
-45.230427
-26.271515
6.140322
30.061846
43.992130
53.818130
54.812939
37.472252
1.439942
-39.838936
-64.983833
-62.719006
-43.554958
-25.493559
-16.059101
-11.218495
-2.100356
17.118002
43.492897
65.565369
69.284714
51.398449
27.103971
15.944257
24.062386
40.745255
45.610626
25.576462
-13.793349
-57.832176
-94.420380
-112.458237
-99.541618
-51.733650
16.444452
77.654289
105.882500
92.638512
52.492363
3.277944
-51.050446
-108.475227
-153.702881
-166.021118
-135.770264
-73.844215
-9.320263
31.995659
45.511272
40.342113
26.560970
13.273827
8.537885
12.647588
15.126290
8.404629
0.212929
4.580634
26.187796
53.483398
64.319336
49.125675
25.325891
15.478874
22.971630
37.461662
48.988625
51.734028
42.211533
18.485060
-17.042141
-52.114677
-66.421608
-51.401810
-24.442118
-10.987714
-21.066996
-45.796940
-65.544128
-64.806732
-43.305050
-13.181429
8.980746
11.276867
-5.217386
-23.524073
-17.709003
22.274780
72.984871
97.211494
74.153137
15.157337
-38.581158
-46.831711
-0.718390
75.457069
138.049881
149.384018
99.480309
8.347001
-83.939972
-140.068130
-144.799866
-104.383995
-39.017040
24.985847
63.549595
65.625664
40.001049
7.206482
-13.498800
-13.897702
0.500678
20.411520
41.144939
57.400543
58.295319
36.338070
-2.575015
-42.867813
-68.781219
-72.644798
-57.738026
-31.359402
0.430100
27.542130
33.550354
10.280240
-29.182234
-60.892563
-68.657173
-55.554150
-41.666962
-39.097595
-33.873466
-5.673244
45.774738
98.308304
120.555183
95.712425
36.763199
-27.335157
-71.601395
-83.000687
-61.662235
-18.515751
27.985279
58.113892
59.715210
37.682430
15.141881
13.455199
32.773083
56.121532
63.788422
47.702110
16.809015
-16.167149
-46.521187
-70.801292
-79.813812
-69.052147
-49.378788
-38.184269
-44.520851
-62.415054
-74.328796
-68.510902
-51.543167
-36.997948
-30.094707
-26.421728
-17.195410
4.471080
38.336842
74.806709
97.544083
95.342178
71.722519
39.297428
9.380925
-13.858679
-32.717625
-46.576534
-46.895191
-29.037880
-2.835890
17.025084
24.996721
26.892509
33.656590
48.904446
61.993366
59.244907
37.493649
5.132578
-23.520927
-36.984692
-33.063644
-17.773155
-1.435404
6.013749
-0.702525
-19.681257
-41.805748
-56.058670
-55.581444
-40.236610
-16.400305
6.715428
20.663235
19.149290
-0.043327
-30.820934
-57.442162
-63.799011
-44.679707
-9.517667
21.593966
32.710957
24.003071
6.531972
-8.079089
-13.645887
-11.081268
-5.034714
-0.272908
-0.409737
-6.497691
-14.160428
-13.825254
-0.097097
19.909590
31.435362
22.969463
-3.484837
-30.847439
-44.127525
-45.309631
-44.671768
-46.103161
-43.350243
-25.869263
6.756832
37.810795
50.461388
45.017769
32.886494
23.369841
18.057011
12.310682
3.506533
-3.588635
-2.925854
6.037452
20.569469
38.248978
54.877289
62.541573
54.849586
33.291183
7.312660
-10.500793
-13.729062
-7.634016
-1.511534
0.808218
1.752844
6.009064
14.708520
22.636217
23.596792
16.824604
7.602209
3.960077
10.275459
23.171974
35.596432
42.524624
42.643929
37.378414
28.223778
15.437071
0.478736
-12.330521
-19.356211
-21.133928
-20.221886
-17.675795
-12.509938
-3.483178
7.576174
14.748212
13.348941
4.681068
-6.786802
-17.855591
-27.071545
-33.130051
-33.346146
-24.105959
-5.114317
17.404325
34.129711
38.181355
28.821012
12.305282
-2.503115
-9.576181
-8.698015
-5.576302
-7.035787
-15.621330
-27.809797
-35.660835
-33.283428
-22.361435
-10.319667
-4.931917
-8.203651
-14.207948
-16.380987
