EVENT_NAME: EMILIA_2ND_SHOCK
EVENT_ID: IT-2012-0011
EVENT_DATE_YYYYMMDD: 20120529
EVENT_TIME_HHMMSS: 070002
EVENT_LATITUDE_DEGREE: 44.8417
EVENT_LONGITUDE_DEGREE: 11.0657
EVENT_DEPTH_KM: 8.1
HYPOCENTER_REFERENCE: INGV-CNT_Seismic_Bulletin
MAGNITUDE_W: 6.0
MAGNITUDE_W_REFERENCE: RCMT-INGV
MAGNITUDE_L: 5.8
MAGNITUDE_L_REFERENCE: INGV-CNT_Seismic_Bulletin
FOCAL_MECHANISM: TF
NETWORK: IV
STATION_CODE: T0803
STATION_NAME: T0803
STATION_LATITUDE_DEGREE: 44.766800
STATION_LONGITUDE_DEGREE: 11.350800
STATION_ELEVATION_M: 10
LOCATION: 
SENSOR_DEPTH_M: 1.0
VS30_M/S: 
SITE_CLASSIFICATION_EC8: C*
MORPHOLOGIC_CLASSIFICATION: 
EPICENTRAL_DISTANCE_KM: 24.0
EARTHQUAKE_BACKAZIMUTH_DEGREE: 290.4
DATE_TIME_FIRST_SAMPLE_YYYYMMDD_HHMMSS: 20120529_065953.000
DATE_TIME_FIRST_SAMPLE_PRECISION: milliseconds
SAMPLING_INTERVAL_S: 0.005000
NDATA: 20001
DURATION_S: 100.005
STREAM: HNN
UNITS: cm
INSTRUMENT: sensor = Episensor FBA ES-T [Kinemetrics] | digitizer = Unknown [Unknown]
INSTRUMENT_ANALOG/DIGITAL: D
INSTRUMENTAL_FREQUENCY_HZ: 
INSTRUMENTAL_DAMPING: 
FULL_SCALE_G: 
N_BIT_DIGITAL_CONVERTER: 
PGD_CM: -2.337887
TIME_PGD_S: 31.730000
BASELINE_CORRECTION: BASELINE REMOVED
FILTER_TYPE: BUTTERWORTH
FILTER_ORDER: 2
LOW_CUT_FREQUENCY_HZ: 0.060
HIGH_CUT_FREQUENCY_HZ: 40.000
LATE/NORMAL_TRIGGERED: NT
DATABASE_VERSION: DYNA 1.0
HEADER_FORMAT: DYNA 1.2
DATA_TYPE: DISPLACEMENT
PROCESSING: manual (Paolucci et al., 2011)
DATA_TIMESTAMP_YYYYMMDD_HHMMSS: 
DATA_LICENSE: CC-BY4_0 (http://creativecommons.org/licenses/by/4.0/)
DATA_CITATION: ESM working group (2015), European Strong-Motion database, version 0.1, Network Activity 3: Networking acceleration networks and SM data users. Project NERA (www.nera-eu.org)
DATA_CREATOR: ESM working group
ORIGINAL_DATA_MEDIATOR_CITATION: Orfeus - European Integrated Data Archive (EIDA) http://www.orfeus-eu.org/eida/
ORIGINAL_DATA_MEDIATOR: Orfeus - European Integrated Data Archive (EIDA)
ORIGINAL_DATA_CREATOR_CITATION: Data for this study comes from the Italian national seismic network operated by Istituto Nazionale di Geofisica e Vulcanologia and archived at the European Integrated Data Archive http://eida.rm.ingv.it/
ORIGINAL_DATA_CREATOR: network: IV (Italian National Seismic Network); owner: Istituto Nazionale di Geofisica e Vulcanologia
USER1: 
USER2: 
USER3: 
USER4: 
USER5: 
[...]
9.755279e-01
9.786395e-01
9.825121e-01
9.870845e-01
9.922748e-01
9.979889e-01
1.004128e+00
1.010596e+00
1.017300e+00
1.024155e+00
1.031080e+00
1.037993e+00
1.044813e+00
1.051456e+00
1.057834e+00
1.063856e+00
1.069430e+00
1.074468e+00
1.078892e+00
1.082641e+00
1.085677e+00
1.087993e+00
1.089618e+00
1.090614e+00
1.091072e+00
1.091103e+00
1.090821e+00
1.090340e+00
1.089758e+00
1.089156e+00
1.088596e+00
1.088124e+00
1.087776e+00
1.087587e+00
1.087594e+00
1.087845e+00
1.088397e+00
1.089311e+00
1.090643e+00
1.092443e+00
1.094743e+00
1.097554e+00
1.100868e+00
1.104647e+00
1.108837e+00
1.113363e+00
1.118144e+00
1.123093e+00
1.128129e+00
1.133186e+00
1.138217e+00
1.143196e+00
1.148121e+00
1.153010e+00
1.157892e+00
1.162796e+00
1.167750e+00
1.172770e+00
1.177867e+00
1.183042e+00
1.188292e+00
1.193614e+00
1.199005e+00
1.204465e+00
1.209995e+00
1.215595e+00
1.221258e+00
1.226967e+00
1.232683e+00
1.238350e+00
1.243896e+00
1.249235e+00
1.254270e+00
1.258904e+00
1.263045e+00
1.266613e+00
1.269554e+00
1.271840e+00
1.273480e+00
1.274512e+00
1.274995e+00
1.275006e+00
1.274634e+00
1.273976e+00
1.273132e+00
1.272199e+00
1.271275e+00
1.270456e+00
1.269836e+00
1.269510e+00
1.269577e+00
1.270135e+00
1.271277e+00
1.273092e+00
1.275653e+00
1.279024e+00
1.283252e+00
1.288367e+00
1.294378e+00
1.301275e+00
1.309034e+00
1.317611e+00
1.326951e+00
1.336985e+00
1.347640e+00
1.358841e+00
1.370515e+00
1.382599e+00
1.395036e+00
1.407776e+00
1.420774e+00
1.433986e+00
1.447366e+00
1.460869e+00
1.474448e+00
1.488056e+00
1.501643e+00
1.515166e+00
1.528584e+00
1.541862e+00
1.554978e+00
1.567918e+00
1.580679e+00
1.593266e+00
1.605688e+00
1.617954e+00
1.630066e+00
1.642016e+00
1.653784e+00
1.665335e+00
1.676620e+00
1.687575e+00
1.698122e+00
1.708173e+00
1.717635e+00
1.726415e+00
1.734433e+00
1.741624e+00
1.747942e+00
1.753364e+00
1.757878e+00
1.761485e+00
1.764189e+00
1.765997e+00
1.766914e+00
1.766943e+00
1.766088e+00
1.764355e+00
1.761755e+00
1.758307e+00
1.754032e+00
1.748961e+00
1.743131e+00
1.736587e+00
1.729385e+00
1.721587e+00
1.713269e+00
1.704512e+00
1.695403e+00
1.686037e+00
1.676512e+00
1.666929e+00
1.657396e+00
1.648029e+00
1.638948e+00
1.630277e+00
1.622136e+00
1.614629e+00
1.607839e+00
1.601819e+00
1.596589e+00
1.592133e+00
1.588405e+00
1.585328e+00
1.582805e+00
1.580731e+00
1.578996e+00
1.577489e+00
1.576105e+00
1.574747e+00
1.573320e+00
1.571740e+00
1.569937e+00
1.567858e+00
1.565474e+00
1.562783e+00
1.559809e+00
1.556599e+00
1.553219e+00
1.549747e+00
1.546261e+00
1.542835e+00
1.539534e+00
1.536413e+00
1.533511e+00
1.530854e+00
1.528452e+00
1.526295e+00
1.524355e+00
1.522589e+00
1.520942e+00
1.519350e+00
1.517748e+00
1.516066e+00
1.514236e+00
1.512188e+00
1.509853e+00
1.507168e+00
1.504071e+00
1.500513e+00
1.496451e+00
1.491857e+00
1.486717e+00
1.481043e+00
1.474871e+00
1.468264e+00
1.461312e+00
1.454133e+00
1.446872e+00
1.439692e+00
1.432763e+00
1.426255e+00
1.420326e+00
1.415114e+00
1.410732e+00
1.407267e+00
1.404781e+00
1.403305e+00
1.402843e+00
1.403371e+00
1.404844e+00
1.407195e+00
1.410339e+00
1.414180e+00
1.418613e+00
1.423526e+00
1.428808e+00
1.434346e+00
1.440028e+00
1.445745e+00
1.451395e+00
1.456885e+00
1.462137e+00
1.467087e+00
1.471688e+00
1.475908e+00
1.479727e+00
1.483138e+00
1.486147e+00
1.488762e+00
1.490996e+00
1.492858e+00
1.494356e+00
1.495491e+00
1.496267e+00
1.496686e+00
1.496759e+00
1.496500e+00
1.495931e+00
1.495069e+00
1.493925e+00
1.492500e+00
1.490778e+00
1.488729e+00
1.486309e+00
1.483470e+00
1.480162e+00
1.476336e+00
1.471947e+00
1.466957e+00
1.461333e+00
1.455051e+00
1.448091e+00
1.440446e+00
1.432115e+00
1.423107e+00
1.413442e+00
1.403153e+00
1.392286e+00
1.380905e+00
1.369082e+00
1.356902e+00
1.344465e+00
1.331880e+00
1.319270e+00
1.306760e+00
1.294480e+00
1.282555e+00
1.271104e+00
1.260233e+00
1.250037e+00
1.240595e+00
1.231966e+00
1.224187e+00
1.217275e+00
1.211231e+00
1.206042e+00
1.201683e+00
1.198119e+00
1.195306e+00
1.193191e+00
1.191719e+00
1.190827e+00
1.190451e+00
1.190525e+00
1.190987e+00
1.191779e+00
1.192850e+00
1.194159e+00
1.195672e+00
1.197363e+00
1.199214e+00
1.201213e+00
1.203361e+00
1.205663e+00
1.208131e+00
1.210781e+00
1.213625e+00
1.216674e+00
1.219930e+00
1.223388e+00
1.227034e+00
1.230843e+00
1.234777e+00
1.238784e+00
1.242804e+00
1.246766e+00
1.250591e+00
1.254197e+00
1.257502e+00
1.260427e+00
1.262904e+00
1.264870e+00
1.266275e+00
1.267078e+00
1.267242e+00
1.266732e+00
1.265519e+00
1.263580e+00
1.260896e+00
1.257454e+00
1.253252e+00
1.248296e+00
1.242604e+00
1.236206e+00
1.229144e+00
1.221467e+00
1.213235e+00
1.204520e+00
1.195398e+00
1.185949e+00
1.176251e+00
1.166379e+00
1.156396e+00
1.146356e+00
1.136305e+00
1.126279e+00
1.116306e+00
1.106402e+00
1.096578e+00
1.086836e+00
1.077175e+00
1.067583e+00
1.058043e+00
1.048525e+00
1.038987e+00
1.029377e+00
1.019630e+00
1.009674e+00
9.994350e-01
9.888447e-01
9.778430e-01
9.663837e-01
9.544384e-01
9.419965e-01
9.290653e-01
9.156690e-01
9.018467e-01
8.876498e-01
8.731356e-01
8.583617e-01
8.433831e-01
8.282514e-01
8.130143e-01
7.977169e-01
7.824017e-01
7.671090e-01
7.518752e-01
7.367310e-01
7.217000e-01
7.067972e-01
6.920269e-01
6.773812e-01
6.628386e-01
6.483662e-01
6.339229e-01
6.194613e-01
6.049286e-01
5.902679e-01
5.754201e-01
5.603257e-01
5.449259e-01
5.291651e-01
5.129917e-01
4.963596e-01
4.792285e-01
4.615650e-01
4.433450e-01
4.245556e-01
4.051951e-01
3.852723e-01
3.648060e-01
3.438256e-01
3.223702e-01
3.004867e-01
2.782265e-01
2.556442e-01
2.327951e-01
2.097339e-01
1.865137e-01
1.631854e-01
1.397967e-01
1.163916e-01
9.300886e-02
6.968166e-02
4.643775e-02
2.329886e-02
2.798302e-04
-2.261197e-02
-4.537593e-02
-6.801709e-02
-9.054528e-02
-1.129741e-01
-1.353194e-01
-1.575982e-01
-1.798266e-01
-2.020190e-01
-2.241875e-01
-2.463412e-01
-2.684874e-01
-2.906321e-01
-3.127805e-01
-3.349358e-01
-3.570980e-01
-3.792619e-01
-4.014147e-01
-4.235359e-01
-4.455960e-01
-4.675579e-01
-4.893793e-01
-5.110157e-01
-5.324224e-01
-5.535565e-01
-5.743786e-01
-5.948544e-01
-6.149562e-01
-6.346646e-01
-6.539703e-01
-6.728751e-01
-6.913907e-01
-7.095359e-01
-7.273344e-01
-7.448124e-01
-7.619964e-01
-7.789113e-01
-7.955795e-01
-8.120211e-01
-8.282551e-01
-8.443016e-01
-8.601833e-01
-8.759276e-01
-8.915676e-01
-9.071434e-01
-9.227014e-01
-9.382940e-01
-9.539766e-01
-9.698062e-01
-9.858383e-01
-1.002124e+00
-1.018709e+00
-1.035631e+00
-1.052919e+00
-1.070592e+00
-1.088654e+00
-1.107101e+00
-1.125916e+00
-1.145074e+00
-1.164541e+00
-1.184277e+00
-1.204236e+00
-1.224368e+00
-1.244619e+00
-1.264934e+00
-1.285255e+00
-1.305524e+00
-1.325685e+00
-1.345685e+00
-1.365476e+00
-1.385015e+00
-1.404263e+00
-1.423187e+00
-1.441758e+00
-1.459953e+00
-1.477752e+00
-1.495138e+00
-1.512094e+00
-1.528605e+00
-1.544655e+00
-1.560224e+00
-1.575291e+00
-1.589834e+00
-1.603831e+00
-1.617261e+00
-1.630107e+00
-1.642356e+00
-1.653997e+00
-1.665025e+00
-1.675432e+00
-1.685212e+00
-1.694355e+00
-1.702850e+00
-1.710676e+00
-1.717812e+00
-1.724231e+00
-1.729904e+00
-1.734800e+00
-1.738889e+00
-1.742142e+00
-1.744529e+00
-1.746021e+00
-1.746589e+00
-1.746205e+00
-1.744842e+00
-1.742475e+00
-1.739079e+00
-1.734637e+00
-1.729133e+00
-1.722561e+00
-1.714921e+00
-1.706221e+00
-1.696478e+00
-1.685712e+00
-1.673953e+00
-1.661228e+00
-1.647569e+00
-1.633005e+00
-1.617560e+00
-1.601252e+00
-1.584096e+00
-1.566100e+00
-1.547269e+00
-1.527606e+00
-1.507115e+00
-1.485804e+00
-1.463680e+00
-1.440753e+00
-1.417036e+00
-1.392540e+00
-1.367276e+00
-1.341252e+00
-1.314478e+00
-1.286960e+00
-1.258703e+00
-1.229709e+00
-1.199981e+00
-1.169520e+00
-1.138334e+00
-1.106429e+00
-1.073818e+00
-1.040517e+00
-1.006546e+00
-9.719288e-01
-9.366958e-01
-9.008838e-01
-8.645370e-01
-8.277080e-01
-7.904568e-01
-7.528515e-01
-7.149674e-01
-6.768844e-01
-6.386843e-01
-6.004494e-01
-5.622603e-01
-5.241952e-01
-4.863290e-01
-4.487331e-01
-4.114756e-01
-3.746205e-01
-3.382275e-01
-3.023525e-01
-2.670474e-01
-2.323596e-01
-1.983294e-01
-1.649888e-01
-1.323619e-01
-1.004656e-01
-6.931073e-02
-3.890250e-02
-9.240895e-03
1.967880e-02
4.786568e-02
7.533312e-02
1.020987e-01
1.281839e-01
1.536132e-01
1.784133e-01
2.026125e-01
2.262408e-01
2.493288e-01
2.719077e-01
2.940072e-01
3.156552e-01
3.368762e-01
3.576905e-01
3.781145e-01
3.981614e-01
4.178418e-01
4.371640e-01
4.561342e-01
4.747572e-01
4.930369e-01
5.109763e-01
5.285772e-01
5.458401e-01
5.627641e-01
5.793459e-01
5.955802e-01
6.114592e-01
6.269724e-01
6.421074e-01
6.568511e-01
6.711903e-01
6.851128e-01
6.986084e-01
7.116692e-01
7.242894e-01
7.364650e-01
7.481923e-01
7.594670e-01
7.702835e-01
7.806329e-01
7.905038e-01
7.998811e-01
8.087465e-01
8.170784e-01
8.248523e-01
8.320411e-01
8.386151e-01
8.445433e-01
8.497946e-01
8.543396e-01
8.581530e-01
8.612159e-01
8.635183e-01
8.650603e-01
8.658522e-01
8.659154e-01
8.652822e-01
8.639950e-01
8.621036e-01
8.596621e-01
8.567266e-01
8.533537e-01
8.495991e-01
8.455165e-01
8.411568e-01
8.365678e-01
8.317941e-01
8.268769e-01
8.218556e-01
8.167690e-01
8.116562e-01
8.065560e-01
8.015066e-01
7.965448e-01
7.917041e-01
7.870139e-01
7.824974e-01
7.781702e-01
7.740396e-01
7.701044e-01
7.663542e-01
7.627680e-01
7.593133e-01
7.559476e-01
7.526211e-01
7.492783e-01
7.458589e-01
7.422997e-01
7.385355e-01
7.345005e-01
7.301296e-01
7.253601e-01
7.201331e-01
7.143948e-01
7.080962e-01
7.011941e-01
6.936512e-01
6.854369e-01
6.765271e-01
6.669040e-01
6.565556e-01
6.454762e-01
6.336658e-01
6.211288e-01
6.078726e-01
5.939063e-01
5.792399e-01
5.638827e-01
5.478431e-01
5.311273e-01
5.137397e-01
4.956833e-01
4.769607e-01
4.575745e-01
4.375286e-01
4.168288e-01
3.954825e-01
3.734996e-01
3.508912e-01
3.276694e-01
3.038468e-01
2.794354e-01
2.544472e-01
2.288933e-01
2.027844e-01
1.761312e-01
1.489444e-01
1.212353e-01
9.301672e-02
6.430336e-02
3.511283e-02
5.466774e-03
-2.460828e-02
-5.508127e-02
-8.591733e-02
-1.170781e-01
-1.485216e-01
-1.802022e-01
-2.120712e-01
-2.440774e-01
-2.761676e-01
-3.082872e-01
-3.403813e-01
-3.723949e-01
-4.042741e-01
-4.359671e-01
-4.674261e-01
-4.986089e-01
-5.294790e-01
-5.600049e-01
-5.901600e-01
-6.199206e-01
-6.492656e-01
-6.781753e-01
-7.066313e-01
-7.346160e-01
-7.621136e-01
-7.891106e-01
-8.155957e-01
-8.415601e-01
-8.669970e-01
-8.919021e-01
-9.162737e-01
-9.401136e-01
-9.634275e-01
-9.862256e-01
-1.008523e+00
-1.030338e+00
-1.051693e+00
-1.072610e+00
-1.093111e+00
-1.113214e+00
-1.132936e+00
-1.152290e+00
-1.171285e+00
-1.189929e+00
-1.208229e+00
-1.226191e+00
-1.243822e+00
-1.261135e+00
-1.278142e+00
-1.294864e+00
-1.311322e+00
-1.327542e+00
-1.343550e+00
-1.359375e+00
-1.375043e+00
-1.390578e+00
-1.406005e+00
-1.421342e+00
-1.436605e+00
-1.451804e+00
-1.466945e+00
-1.482024e+00
-1.497035e+00
-1.511965e+00
-1.526798e+00
-1.541513e+00
-1.556086e+00
-1.570491e+00
-1.584702e+00
-1.598694e+00
-1.612444e+00
-1.625929e+00
-1.639128e+00
-1.652022e+00
-1.664593e+00
-1.676825e+00
-1.688706e+00
-1.700224e+00
-1.711370e+00
-1.722137e+00
-1.732525e+00
-1.742538e+00
-1.752184e+00
-1.761477e+00
-1.770436e+00
-1.779078e+00
-1.787426e+00
-1.795501e+00
-1.803322e+00
-1.810911e+00
-1.818286e+00
-1.825463e+00
-1.832453e+00
-1.839263e+00
-1.845892e+00
-1.852335e+00
-1.858577e+00
-1.864604e+00
-1.870394e+00
-1.875928e+00
-1.881181e+00
-1.886133e+00
-1.890762e+00
-1.895049e+00
-1.898979e+00
-1.902543e+00
-1.905736e+00
-1.908567e+00
-1.911053e+00
-1.913221e+00
-1.915116e+00
-1.916788e+00
-1.918298e+00
-1.919708e+00
-1.921084e+00
-1.922487e+00
-1.923971e+00
-1.925586e+00
-1.927371e+00
-1.929355e+00
-1.931559e+00
-1.933988e+00
-1.936643e+00
-1.939510e+00
-1.942572e+00
-1.945803e+00
-1.949172e+00
-1.952646e+00
-1.956193e+00
-1.959780e+00
-1.963377e+00
-1.966957e+00
-1.970499e+00
-1.973988e+00
-1.977417e+00
-1.980785e+00
-1.984098e+00
-1.987370e+00
-1.990619e+00
-1.993869e+00
-1.997152e+00
-2.000497e+00
-2.003941e+00
-2.007517e+00
-2.011262e+00
-2.015211e+00
-2.019401e+00
-2.023871e+00
-2.028656e+00
-2.033792e+00
-2.039314e+00
-2.045250e+00
-2.051625e+00
-2.058457e+00
-2.065755e+00
-2.073520e+00
-2.081743e+00
-2.090408e+00
-2.099490e+00
-2.108955e+00
-2.118763e+00
-2.128865e+00
-2.139210e+00
-2.149743e+00
-2.160406e+00
-2.171143e+00
-2.181893e+00
-2.192600e+00
-2.203207e+00
-2.213659e+00
-2.223906e+00
-2.233903e+00
-2.243607e+00
-2.252984e+00
-2.262000e+00
-2.270628e+00
-2.278845e+00
-2.286627e+00
-2.293950e+00
-2.300792e+00
-2.307129e+00
-2.312937e+00
-2.318196e+00
-2.322882e+00
-2.326973e+00
-2.330449e+00
-2.333288e+00
-2.335472e+00
-2.336979e+00
-2.337790e+00
-2.337887e+00
-2.337249e+00
-2.335856e+00
-2.333686e+00
-2.330717e+00
-2.326928e+00
-2.322297e+00
-2.316807e+00
-2.310440e+00
-2.303184e+00
-2.295030e+00
-2.285975e+00
-2.276022e+00
-2.265179e+00
-2.253462e+00
-2.240893e+00
-2.227498e+00
-2.213309e+00
-2.198359e+00
-2.182689e+00
-2.166340e+00
-2.149364e+00
-2.131815e+00
-2.113754e+00
-2.095252e+00
-2.076387e+00
-2.057246e+00
-2.037919e+00
-2.018497e+00
-1.999074e+00
-1.979737e+00
-1.960571e+00
-1.941653e+00
-1.923051e+00
-1.904823e+00
-1.887012e+00
-1.869648e+00
-1.852752e+00
-1.836333e+00
-1.820395e+00
-1.804932e+00
-1.789935e+00
-1.775387e+00
-1.761271e+00
-1.747563e+00
-1.734234e+00
-1.721249e+00
-1.708569e+00
-1.696152e+00
-1.683956e+00
-1.671935e+00
-1.660049e+00
-1.648260e+00
-1.636533e+00
-1.624841e+00
-1.613163e+00
-1.601482e+00
-1.589789e+00
-1.578077e+00
-1.566343e+00
-1.554587e+00
-1.542813e+00
-1.531024e+00
-1.519222e+00
-1.507413e+00
-1.495599e+00
-1.483787e+00
-1.471980e+00
-1.460186e+00
-1.448413e+00
-1.436667e+00
-1.424954e+00
-1.413277e+00
-1.401635e+00
-1.390024e+00
-1.378431e+00
-1.366843e+00
-1.355244e+00
-1.343619e+00
-1.331954e+00
-1.320239e+00
-1.308465e+00
-1.296627e+00
-1.284722e+00
-1.272750e+00
-1.260713e+00
-1.248618e+00
-1.236474e+00
-1.224292e+00
-1.212085e+00
-1.199874e+00
-1.187679e+00
-1.175526e+00
-1.163445e+00
-1.151468e+00
-1.139631e+00
-1.127971e+00
-1.116527e+00
-1.105335e+00
-1.094429e+00
-1.083838e+00
-1.073585e+00
-1.063692e+00
-1.054169e+00
-1.045025e+00
-1.036259e+00
-1.027865e+00
-1.019836e+00
-1.012161e+00
-1.004830e+00
-9.978310e-01
-9.911543e-01
-9.847889e-01
-9.787245e-01
-9.729527e-01
-9.674683e-01
-9.622696e-01
-9.573577e-01
-9.527370e-01
-9.484143e-01
-9.443989e-01
-9.407016e-01
-9.373349e-01
-9.343118e-01
-9.316440e-01
-9.293407e-01
-9.274084e-01
-9.258511e-01
-9.246714e-01
-9.238710e-01
-9.234518e-01
-9.234161e-01
-9.237661e-01
-9.245036e-01
-9.256292e-01
-9.271418e-01
-9.290386e-01
-9.313144e-01
-9.339611e-01
-9.369654e-01
-9.403069e-01
-9.439568e-01
-9.478778e-01
-9.520248e-01
-9.563463e-01
-9.607869e-01
-9.652901e-01
-9.698011e-01
-9.742675e-01
-9.786411e-01
-9.828785e-01
-9.869406e-01
-9.907930e-01
-9.944056e-01
-9.977528e-01
-1.000814e+00
-1.003571e+00
-1.006011e+00
-1.008125e+00
-1.009905e+00
-1.011345e+00
-1.012441e+00
-1.013191e+00
-1.013591e+00
-1.013637e+00
-1.013326e+00
-1.012655e+00
-1.011623e+00
-1.010226e+00
-1.008462e+00
-1.006329e+00
-1.003824e+00
-1.000944e+00
-9.976875e-01
-9.940540e-01
-9.900475e-01
-9.856750e-01
-9.809458e-01
-9.758705e-01
-9.704599e-01
-9.647232e-01
-9.586684e-01
-9.523021e-01
-9.456298e-01
-9.386564e-01
-9.313864e-01
-9.238241e-01
-9.159734e-01
-9.078379e-01
-8.994207e-01
-8.907240e-01
-8.817496e-01
-8.724982e-01
-8.629706e-01
-8.531677e-01
-8.430911e-01
-8.327431e-01
-8.221264e-01
-8.112435e-01
-8.000966e-01
-7.886868e-01
-7.770147e-01
-7.650810e-01
-7.528871e-01
-7.404351e-01
-7.277290e-01
-7.147738e-01
-7.015766e-01
-6.881462e-01
-6.744940e-01
-6.606347e-01
-6.465860e-01
-6.323685e-01
-6.180055e-01
-6.035227e-01
-5.889474e-01
-5.743076e-01
-5.596304e-01
-5.449408e-01
-5.302605e-01
-5.156062e-01
-5.009901e-01
-4.864205e-01
-4.719022e-01
-4.574384e-01
-4.430317e-01
-4.286851e-01
-4.144029e-01
-4.001909e-01
-3.860563e-01
-3.720069e-01
-3.580504e-01
-3.441933e-01
-3.304389e-01
-3.167865e-01
-3.032296e-01
-2.897558e-01
-2.763482e-01
-2.629853e-01
-2.496426e-01
-2.362927e-01
-2.229083e-01
-2.094632e-01
-1.959342e-01
-1.823026e-01
-1.685551e-01
-1.546840e-01
-1.406866e-01
-1.265650e-01
-1.123270e-01
-9.798623e-02
-8.356149e-02
-6.907596e-02
-5.455673e-02
-4.003442e-02
-2.554279e-02
-1.111775e-02
3.203589e-03
1.738409e-02
3.138842e-02
4.518532e-02
5.874965e-02
7.206430e-02
8.512115e-02
9.792132e-02
1.104745e-01
1.227960e-01
1.349040e-01
1.468176e-01
1.585568e-01
1.701415e-01
1.815921e-01
1.929285e-01
2.041706e-01
2.153382e-01
2.264505e-01
2.375267e-01
2.485856e-01
2.596451e-01
2.707208e-01
2.818252e-01
2.929659e-01
3.041454e-01
3.153598e-01
3.265980e-01
3.378410e-01
3.490639e-01
3.602380e-01
3.713322e-01
3.823150e-01
3.931556e-01
4.038257e-01
4.142998e-01
4.245563e-01
4.345787e-01
4.443558e-01
4.538817e-01
4.631539e-01
4.721738e-01
4.809453e-01
4.894752e-01
4.977721e-01
5.058455e-01
5.137051e-01
5.213596e-01
5.288160e-01
5.360787e-01
5.431491e-01
5.500257e-01
5.567039e-01
5.631761e-01
5.694317e-01
5.754575e-01
5.812374e-01
5.867520e-01
5.919776e-01
5.968871e-01
6.014503e-01
6.056354e-01
6.094106e-01
6.127461e-01
6.156152e-01
6.179959e-01
6.198711e-01
6.212300e-01
6.220685e-01
6.223888e-01
6.221987e-01
6.215116e-01
6.203464e-01
6.187280e-01
6.166870e-01
6.142600e-01
6.114902e-01
6.084290e-01
6.051362e-01
6.016786e-01
5.981273e-01
5.945551e-01
5.910342e-01
5.876339e-01
5.844193e-01
5.814512e-01
5.787862e-01
5.764766e-01
5.745706e-01
5.731126e-01
5.721425e-01
5.716953e-01
5.717987e-01
5.724715e-01
5.737235e-01
5.755565e-01
5.779643e-01
5.809338e-01
5.844449e-01
5.884731e-01
5.929905e-01
5.979670e-01
6.033707e-01
6.091681e-01
6.153244e-01
6.218032e-01
6.285661e-01
6.355734e-01
6.427832e-01
6.501528e-01
6.576393e-01
6.652010e-01
6.727987e-01
6.803981e-01
6.879700e-01
6.954908e-01
7.029430e-01
7.103145e-01
7.175983e-01
7.247909e-01
7.318903e-01
7.388951e-01
7.458035e-01
7.526130e-01
7.593208e-01
7.659241e-01
7.724213e-01
7.788119e-01
7.850980e-01
7.912833e-01
7.973727e-01
8.033725e-01
