EVENT_NAME: EMILIA_2ND_SHOCK
EVENT_ID: IT-2012-0011
EVENT_DATE_YYYYMMDD: 20120529
EVENT_TIME_HHMMSS: 070002
EVENT_LATITUDE_DEGREE: 44.8417
EVENT_LONGITUDE_DEGREE: 11.0657
EVENT_DEPTH_KM: 8.1
HYPOCENTER_REFERENCE: INGV-CNT_Seismic_Bulletin
MAGNITUDE_W: 6.0
MAGNITUDE_W_REFERENCE: RCMT-INGV
MAGNITUDE_L: 5.8
MAGNITUDE_L_REFERENCE: INGV-CNT_Seismic_Bulletin
FOCAL_MECHANISM: TF
NETWORK: IV
STATION_CODE: T0818
STATION_NAME: T0818
STATION_LATITUDE_DEGREE: 44.934800
STATION_LONGITUDE_DEGREE: 11.030400
STATION_ELEVATION_M: 5
LOCATION: 
SENSOR_DEPTH_M: 1.0
VS30_M/S: 
SITE_CLASSIFICATION_EC8: C*
MORPHOLOGIC_CLASSIFICATION: 
EPICENTRAL_DISTANCE_KM: 10.7
EARTHQUAKE_BACKAZIMUTH_DEGREE: 164.9
DATE_TIME_FIRST_SAMPLE_YYYYMMDD_HHMMSS: 20120529_065952.000
DATE_TIME_FIRST_SAMPLE_PRECISION: milliseconds
SAMPLING_INTERVAL_S: 0.005000
NDATA: 20001
DURATION_S: 100.005
STREAM: HNE
UNITS: cm/s^2
INSTRUMENT: sensor = Episensor FBA ES-T [Kinemetrics] | digitizer = Unknown [Unknown]
INSTRUMENT_ANALOG/DIGITAL: D
INSTRUMENTAL_FREQUENCY_HZ: 
INSTRUMENTAL_DAMPING: 
FULL_SCALE_G: 
N_BIT_DIGITAL_CONVERTER: 
PGA_CM/S^2: 240.090854
TIME_PGA_S: 18.910000
BASELINE_CORRECTION: BASELINE REMOVED
FILTER_TYPE: BUTTERWORTH
FILTER_ORDER: 2
LOW_CUT_FREQUENCY_HZ: 0.060
HIGH_CUT_FREQUENCY_HZ: 40.000
LATE/NORMAL_TRIGGERED: NT
DATABASE_VERSION: DYNA 1.0
HEADER_FORMAT: DYNA 1.2
DATA_TYPE: ACCELERATION
PROCESSING: manual (Paolucci et al., 2011)
DATA_TIMESTAMP_YYYYMMDD_HHMMSS: 
DATA_LICENSE: CC-BY4_0 (http://creativecommons.org/licenses/by/4.0/)
DATA_CITATION: ESM working group (2015), European Strong-Motion database, version 0.1, Network Activity 3: Networking acceleration networks and SM data users. Project NERA (www.nera-eu.org)
DATA_CREATOR: ESM working group
ORIGINAL_DATA_MEDIATOR_CITATION: Orfeus - European Integrated Data Archive (EIDA) http://www.orfeus-eu.org/eida/
ORIGINAL_DATA_MEDIATOR: Orfeus - European Integrated Data Archive (EIDA)
ORIGINAL_DATA_CREATOR_CITATION: Data for this study comes from the Italian national seismic network operated by Istituto Nazionale di Geofisica e Vulcanologia and archived at the European Integrated Data Archive http://eida.rm.ingv.it/
ORIGINAL_DATA_CREATOR: network: IV (Italian National Seismic Network); owner: Istituto Nazionale di Geofisica e Vulcanologia
USER1: 
USER2: 
USER3: 
USER4: 
USER5: 
[...]
0.010773
0.009509
0.007639
0.005740
0.004740
0.004487
0.004576
0.005397
0.007155
0.008714
0.008874
0.008526
0.009637
0.012222
0.014174
0.014208
0.013548
0.013917
0.015040
0.015303
0.014276
0.013230
0.012931
0.012247
0.010006
0.007516
0.007382
0.009712
0.011685
0.011341
0.009921
0.009618
0.010584
0.011751
0.013147
0.015465
0.018154
0.019671
0.019625
0.019052
0.018602
0.018215
0.018274
0.019439
0.021158
0.021782
0.020767
0.019287
0.018220
0.017110
0.015673
0.015029
0.016118
0.017788
0.018049
0.016661
0.015052
0.013836
0.012232
0.010253
0.009192
0.009420
0.009551
0.008609
0.007674
0.008153
0.009751
0.011462
0.013200
0.015307
0.017313
0.018537
0.019432
0.020958
0.023126
0.025179
0.026642
0.027472
0.027464
0.026235
0.023746
0.020385
0.016853
0.014010
0.012126
0.010398
0.007959
0.005207
0.003391
0.002854
0.002722
0.002488
0.002494
0.003025
0.004226
0.006476
0.009826
0.013360
0.016183
0.018755
0.021721
0.024403
0.026130
0.027390
0.028440
0.028515
0.027613
0.027547
0.029168
0.030046
0.027517
0.022605
0.018659
0.016806
0.015121
0.012287
0.009310
0.007245
0.005498
0.003162
0.000910
0.000418
0.002022
0.003894
0.004127
0.003312
0.004214
0.008447
0.014047
0.017289
0.016830
0.015168
0.015597
0.018624
0.022161
0.024212
0.024306
0.022890
0.020682
0.018790
0.018145
0.018361
0.017873
0.015665
0.012644
0.010948
0.011870
0.014719
0.017728
0.019437
0.019196
0.017634
0.016929
0.019152
0.023733
0.027505
0.028214
0.027076
0.026693
0.027528
0.027797
0.026302
0.023732
0.021036
0.018351
0.015717
0.013375
0.011337
0.009433
0.007763
0.006628
0.006044
0.005829
0.005886
0.005912
0.005393
0.004490
0.004414
0.006080
0.008720
0.010942
0.012552
0.014012
0.014841
0.013941
0.011491
0.009354
0.009184
0.010988
0.013581
0.015549
0.015913
0.014848
0.014021
0.015078
0.017481
0.019174
0.019228
0.018508
0.018156
0.018473
0.019142
0.019499
0.018521
0.015921
0.013393
0.013422
0.016270
0.019008
0.018547
0.015114
0.011898
0.011536
0.013615
0.015633
0.015703
0.014205
0.013215
0.014224
0.016321
0.017236
0.016217
0.015051
0.015664
0.017657
0.019278
0.019628
0.018640
0.016110
0.012358
0.009317
0.008983
0.010685
0.011604
0.010019
0.006905
0.004406
0.003699
0.004624
0.006298
0.007715
0.008466
0.008974
0.009753
0.010744
0.011655
0.012620
0.013915
0.015313
0.016518
0.018013
0.020605
0.023918
0.025908
0.024628
0.020536
0.016667
0.015995
0.018235
0.019768
0.017766
0.013478
0.010172
0.009108
0.008861
0.007781
0.005812
0.004043
0.003759
0.005747
0.009314
0.012181
0.012513
0.011307
0.011526
0.014322
0.017509
0.018439
0.017343
0.016769
0.018081
0.019764
0.019533
0.017167
0.014421
0.012865
0.012785
0.013446
0.013512
0.011770
0.008653
0.006691
0.007703
0.009998
0.010234
0.007628
0.004817
0.004415
0.006111
0.007770
0.008057
0.007259
0.006340
0.006074
0.006922
0.008955
0.011679
0.014329
0.016544
0.018527
0.020443
0.022077
0.023285
0.024276
0.024828
0.023791
0.020767
0.017590
0.016263
0.015912
0.013591
0.008361
0.002564
-0.001606
-0.004407
-0.006591
-0.007429
-0.006514
-0.006002
-0.008439
-0.013119
-0.016764
-0.017652
-0.017506
-0.019114
-0.023839
-0.031442
-0.039876
-0.044467
-0.039396
-0.022902
-0.001185
0.014422
0.014479
-0.002133
-0.025282
-0.038897
-0.034102
-0.018020
-0.006271
-0.006442
-0.014567
-0.026765
-0.044513
-0.064885
-0.072569
-0.050663
0.000416
0.058421
0.090892
0.073606
0.009569
-0.064135
-0.097347
-0.069557
-0.013850
0.011983
-0.014678
-0.052382
-0.036632
0.043351
0.123204
0.140004
0.109492
0.092037
0.097523
0.065145
-0.048421
-0.186410
-0.217648
-0.042057
0.308391
0.649223
0.750335
0.522120
0.114143
-0.223792
-0.365361
-0.278883
0.178681
1.190927
2.518999
3.222441
2.202910
-0.694696
-4.050831
-5.471366
-3.254120
1.945091
6.834968
7.399964
2.159419
-5.827982
-10.563756
-7.802373
0.981352
9.235545
10.525338
4.069931
-4.370703
-7.753551
-4.490455
0.496912
1.558218
-1.649476
-4.455162
-2.782680
2.611693
7.210504
7.204939
2.838626
-2.350824
-5.157907
-5.065673
-3.380983
-1.278584
0.689930
1.980542
2.253596
1.983688
1.832315
1.549415
0.383723
-1.265717
-1.693137
-0.066219
2.058007
2.176024
-0.390400
-3.689407
-5.117834
-3.864759
-1.433553
0.169760
0.758826
1.868088
3.970936
4.926840
2.581501
-1.327863
-1.972421
2.630603
8.041258
7.692145
0.514134
-7.688730
-10.632610
-7.402705
-1.599928
3.349056
6.141474
6.172959
3.100822
-1.746741
-5.301006
-5.290095
-2.205946
1.665543
4.108691
3.779832
0.650037
-3.374613
-5.152527
-3.040664
1.327008
4.726243
5.301441
3.289564
-0.360812
-4.485001
-7.156281
-6.688163
-3.672296
-0.815159
0.053986
0.054721
1.454280
4.495357
6.913266
6.476635
3.390486
0.021073
-1.263758
0.100687
2.619928
3.902686
2.502372
-0.780637
-3.597399
-4.388609
-3.726993
-3.056485
-2.613169
-1.538558
0.092700
0.637406
-1.045145
-3.487852
-3.718160
-0.648738
3.432003
5.226993
3.845599
1.192379
-0.785939
-2.144151
-3.565116
-4.136618
-2.209814
1.845049
5.287535
5.940490
4.294137
2.066763
-0.009951
-2.143696
-4.063616
-4.696889
-3.172702
0.374511
4.610380
7.452034
7.557606
5.500105
2.821647
0.002088
-3.768927
-8.331792
-11.065646
-9.035583
-2.756528
3.387162
5.354765
3.331608
0.961829
1.406763
4.357882
6.550713
5.134857
0.702852
-3.110431
-3.353196
-0.976499
0.279309
-1.554045
-4.088958
-3.685747
-0.239511
2.875649
3.150841
1.530701
0.317599
0.155094
0.199922
0.069769
0.180970
0.441391
0.107276
-0.825869
-1.363148
-1.015051
-0.655530
-1.153932
-1.884381
-1.675120
-0.773299
-0.716697
-2.027515
-3.008914
-1.684793
1.408198
3.243016
1.465786
-2.929444
-6.365816
-5.921412
-1.884030
2.619937
4.443347
3.018889
0.431627
-0.836804
-0.086571
1.615658
3.147453
4.279449
4.728363
3.502783
0.469850
-2.147716
-1.505930
2.244726
5.568678
5.534673
2.694950
-0.903408
-4.966914
-9.958850
-13.815852
-12.848647
-6.097402
3.242142
11.030781
15.092148
14.658488
9.778072
2.599489
-2.811921
-3.901770
-2.582049
-3.052100
-6.651358
-10.374874
-10.611365
-7.058417
-2.314817
1.179971
2.856551
3.579020
4.498465
6.134519
7.761863
7.763831
5.400642
1.966369
-0.624477
-2.125885
-3.752632
-5.582389
-5.718726
-2.955268
0.605797
0.926689
-3.299850
-7.811981
-5.875701
4.723565
17.883688
23.417526
16.137337
0.774764
-12.532599
-17.181044
-13.912062
-7.058579
-0.075675
4.950728
6.507747
4.489008
1.060935
-1.290236
-2.663764
-5.134090
-8.825727
-10.135278
-5.572503
3.305346
10.623078
12.052861
8.507752
3.621821
-0.267505
-2.499767
-2.261537
1.315312
6.728278
9.427763
5.415562
-4.145294
-13.029938
-15.394291
-10.828299
-3.870860
0.877259
2.443179
3.072219
5.412581
9.718104
13.032263
11.521532
4.274569
-5.502180
-13.467877
-17.203735
-15.929896
-9.789308
-1.155658
4.941581
4.419169
-1.074636
-4.860819
-2.002122
5.247802
9.701760
7.088126
0.992705
-0.786005
5.037508
12.973916
14.279125
6.471954
-4.438112
-11.270619
-12.733724
-11.765874
-9.278220
-3.776250
3.568623
8.135511
7.296025
3.624202
0.619573
-2.105458
-6.648246
-11.656896
-12.612962
-7.691783
-0.543997
3.863788
4.248722
3.121532
3.114139
4.119580
3.431865
-1.612493
-9.598968
-13.738287
-7.466355
7.378473
20.401373
23.392391
18.820850
14.513232
13.224494
11.496349
7.142634
2.322406
-1.869230
-7.702020
-14.934500
-17.383738
-10.192356
1.943012
9.362738
8.593186
4.335455
1.330992
-0.750988
-2.806195
-2.029380
4.087880
11.948356
13.682262
5.762757
-5.977850
-11.887341
-8.982428
-3.898408
-4.381848
-9.451498
-10.311219
-1.336961
11.972262
17.820665
10.615997
-3.072423
-11.442510
-8.963929
-0.391335
5.561929
4.984529
1.334699
0.801637
5.932215
13.109824
15.603607
9.945963
-0.116338
-6.800841
-5.472675
1.769017
8.740482
10.130803
4.325628
-6.185064
-16.119677
-20.862223
-19.425896
-13.748844
-6.364149
-0.117499
1.154584
-4.442293
-12.513250
-15.394038
-11.239687
-6.697628
-7.756461
-10.484449
-5.721954
7.666594
19.055632
17.936834
6.584419
-2.713604
-1.536767
6.363006
10.580210
5.776236
-3.804607
-10.690241
-11.814463
-8.476555
-2.306831
5.446622
11.888052
13.516648
10.631402
7.853796
8.172007
8.090497
1.576123
-11.468436
-23.361017
-25.374193
-15.123033
1.871475
16.192595
20.280684
12.714928
-1.068848
-12.102801
-13.218291
-3.479712
10.611268
19.026058
15.848098
4.042243
-8.146015
-15.628934
-19.595470
-22.436991
-23.278219
-20.258543
-14.504515
-8.268213
-0.081186
13.506787
29.811951
37.668674
28.256262
6.939048
-10.590974
-14.005756
-7.616118
-3.562651
-7.664984
-13.834295
-12.387238
-1.948545
8.417223
8.098412
-4.291548
-18.114752
-19.681213
-5.506755
14.063723
25.687561
26.170177
21.656822
15.999680
6.846947
-5.989838
-14.889022
-12.581540
-2.822021
2.936830
-1.636334
-11.396577
-15.858326
-10.082145
1.111929
8.913569
9.274895
5.420353
2.433520
1.487994
0.957780
1.144515
4.163265
8.437768
7.309272
-3.241301
-17.508940
-23.951147
-16.189257
1.628660
19.850222
30.142838
27.405148
10.582380
-13.535865
-30.277138
-28.050241
-10.518793
6.038836
9.206036
1.411598
-6.917512
-10.075472
-9.390229
-6.245013
1.329886
13.328023
23.119720
22.532837
11.791998
0.998222
-0.303319
6.569027
11.403688
6.552371
-5.964667
-18.373602
-25.093597
-25.305197
-20.184647
-11.342227
-1.502914
6.190303
10.247047
11.163351
9.756707
6.687667
3.287150
0.881356
-0.575756
-1.909752
-2.906857
-2.431574
-0.834354
-0.727033
-4.172638
-9.717677
-13.427094
-13.266146
-11.604238
-12.317967
-15.492423
-16.279884
-9.807980
3.139171
16.042286
22.463638
21.206993
15.025658
5.767271
-5.767714
-15.287382
-15.034386
-1.759257
16.637287
26.386806
20.875837
6.630068
-4.259423
-6.244357
-3.516930
-2.479503
-3.936412
-3.918149
0.264633
7.553840
15.309432
21.359318
23.893429
21.329893
13.855428
4.890746
-0.346236
0.999163
6.671413
11.377500
11.732475
8.556748
4.393205
0.336078
-3.539339
-5.817049
-4.555944
-0.934356
0.342310
-3.965309
-11.050485
-14.569157
-11.745102
-6.324811
-4.205250
-7.214177
-11.977277
-14.230512
-12.800109
-8.898242
-3.151592
4.529853
12.201466
15.363382
11.193922
2.210958
-6.179355
-11.264809
-14.885192
-20.071802
-27.259768
-33.520271
-34.129395
-25.429968
-7.978064
12.075318
25.863489
28.249575
21.901318
14.601077
12.619728
16.270834
20.733887
20.666344
14.855870
7.262653
3.218748
4.114516
6.140674
4.761803
-0.033106
-4.022722
-3.841169
-0.412742
2.532933
2.105306
-2.026797
-8.348778
-14.732625
-19.231272
-20.711967
-19.328426
-16.046837
-11.540304
-6.196810
-1.412315
0.454030
-1.088510
-3.015756
-2.078217
0.840831
1.511853
-2.183524
-7.351932
-9.826126
-9.355695
-9.244078
-11.279717
-13.366954
-12.532928
-8.243113
-1.904389
5.686324
14.639687
23.767792
29.697895
29.082298
21.781164
11.831544
4.591653
1.912477
0.330709
-4.638283
-12.364901
-17.236628
-15.370048
-9.176310
-3.921385
-1.028860
2.416717
7.584567
10.652802
7.823600
1.905711
0.425439
6.293320
12.688718
9.951368
-3.277392
-18.379847
-25.744759
-23.505156
-17.204184
-12.701107
-11.013456
-9.752808
-7.686697
-6.328050
-7.685215
-11.955159
-17.622503
-22.661362
-25.254192
-24.613977
-21.994268
-20.275217
-21.296061
-23.075838
-20.459354
-9.528144
8.326426
26.844170
39.727859
45.469460
47.382294
48.875191
49.467136
46.081310
37.629005
27.187008
19.307276
15.588326
13.542486
9.881103
4.307189
-0.193474
-0.523293
3.372042
8.723603
13.106995
16.559162
20.466282
25.207689
29.289591
30.731689
29.225468
26.483507
24.092768
21.442837
16.119139
6.209487
-8.093444
-25.099037
-42.889320
-59.736946
-74.265579
-85.908562
-94.921608
-101.574493
-105.575005
-106.572197
-105.264648
-103.465744
-101.983368
-97.751511
-83.648705
-53.647205
-10.522035
32.711094
62.226192
74.507446
77.052544
79.474815
85.101875
90.329201
89.566887
79.162109
58.717625
31.705179
5.145171
-13.326984
-20.484331
-20.690783
-23.019150
-33.454937
-49.620426
-63.915447
-71.711510
-75.097610
-78.817856
-84.727959
-91.099838
-95.982193
-99.690697
-104.441246
-112.169205
-121.103806
-123.715584
-110.867104
-81.349762
-46.475582
-21.475109
-11.912625
-10.268381
-4.817002
10.186046
32.603031
57.103630
79.163849
95.731529
104.951805
107.270866
106.769600
109.765671
120.425293
137.062378
152.845428
160.652405
157.861496
147.429565
135.585052
128.018219
126.416016
127.528275
125.475769
115.635239
97.375771
74.239532
52.302620
37.179165
30.253901
27.280205
21.800718
10.780366
-3.219074
-15.322123
-22.756113
-25.874411
-26.358643
-25.918386
-26.512798
-30.258265
-38.285789
-49.798962
-62.274269
-72.768517
-79.595787
-83.218521
-85.518837
-87.984772
-90.764839
-93.578041
-97.085014
-103.195236
-114.059982
-130.323349
-149.980392
-169.293320
-185.814636
-199.250031
-204.680511
-185.632202
-123.911919
-23.443460
81.825241
154.360596
185.347488
194.860199
205.953674
224.388123
240.090851
239.931030
216.107422
170.010437
113.121902
61.090511
24.484583
4.642850
-3.343799
-5.868509
-8.519030
-15.513310
-29.224319
-49.555725
-73.978577
-98.881882
-121.300636
-139.426422
-152.179596
-159.598373
-163.649384
-167.426193
-172.798920
-178.528122
-180.613037
-174.411530
-156.621964
-126.722244
-87.550659
-44.373558
-3.428369
29.919020
53.915977
71.580025
87.881859
105.281364
121.882835
133.667557
138.524811
138.063889
135.557938
132.415359
126.919167
116.911018
103.321960
90.064682
80.758347
76.148010
74.228691
71.957428
66.931664
58.546394
47.979263
36.897499
26.213774
15.147702
0.569996
-20.898655
-46.915417
-65.030869
-58.792900
-23.234865
26.710733
67.427574
86.877831
90.021126
85.117287
72.872887
50.580109
20.191338
-11.153345
-36.957676
-55.627960
-69.346764
-80.180382
-87.621361
-89.264053
-83.360336
-71.123703
-56.740231
-44.854736
-37.805256
-34.534096
-31.354849
-24.159143
-11.048256
6.491601
24.675901
39.465744
47.982090
49.312996
45.428669
40.725761
38.956661
40.502342
42.983730
43.916561
41.957615
35.878738
24.052176
5.773480
-17.447586
-42.278763
-65.695457
-87.192818
-108.787544
-132.529953
-157.654556
-179.846573
-193.674301
-196.629272
-191.028183
-182.064392
-174.496552
-170.725052
-170.750137
-173.240311
-176.598007
-179.443710
-180.904022
-181.003876
-180.408630
-179.048264
-174.867126
-164.264267
-144.387604
-115.567436
-81.167046
-44.982246
-9.827071
21.796406
47.940590
68.900307
87.643959
107.697678
130.062119
151.987915
168.857422
177.717270
179.907639
180.176285
182.487595
187.062088
191.523743
193.878799
193.698425
191.010300
185.667542
178.326508
170.970993
165.529694
161.966858
158.279648
152.638992
145.247543
137.796173
131.513901
126.410454
122.170868
118.533234
113.865425
104.089737
84.954971
56.841610
25.909348
-1.473212
-24.036316
-44.392097
-64.445786
-83.493927
-99.840179
-112.258263
-119.732056
-121.179451
-115.859940
-103.080223
-81.804344
-52.867180
-21.794622
3.104401
16.681206
20.780527
22.394772
28.140339
40.079697
56.010082
72.562820
87.188499
97.705544
101.907303
99.413559
93.515503
89.600098
91.353775
98.559570
107.933456
115.411659
118.121979
115.605110
109.249474
99.454063
83.134254
55.600967
17.348661
-22.233965
-51.337849
-65.543587
-69.752052
-71.811905
-76.287209
-83.297699
-89.883827
-91.223808
-82.618210
-63.005943
-36.846050
-11.331646
8.490645
22.275000
33.340031
45.589363
60.833500
78.124863
94.856094
108.367363
117.198204
121.703804
123.983269
126.665756
130.836609
135.206757
137.531006
136.325531
130.106216
115.294609
87.933891
49.039593
6.758398
-28.204935
-50.036919
-61.345505
-69.420235
-79.051743
-89.615059
-98.389420
-104.520508
-108.996559
-112.236252
-113.572578
-113.154175
-113.382996
-118.089043
-129.882095
-147.457870
-165.341827
-177.980133
-184.452713
-184.411942
-169.136307
-126.839500
-61.409691
1.826451
36.511261
39.371845
28.842947
23.286871
26.364786
31.898281
34.730984
32.634567
24.676455
13.318722
4.940516
5.176822
14.373122
28.745489
44.639042
59.896935
72.214447
78.564919
77.399094
70.644821
62.279045
54.919289
47.952312
38.471893
23.796335
3.487191
-20.208963
-43.419643
-62.891361
-78.240326
-91.830956
-105.896606
-120.162315
-132.461746
-141.126221
-146.152802
-148.046127
-146.527695
-140.705475
-129.952774
-114.719017
-96.787895
-78.885704
-64.132553
-55.214092
-52.976593
-55.879501
-61.259998
-66.486572
-69.173744
-68.009476
-64.157990
-61.029785
-61.395374
-64.578941
-67.130798
-66.245125
-62.195778
-57.553547
-54.529366
-53.275875
-52.330410
-50.049545
-45.534683
-38.996716
-31.942291
-26.868713
-26.365583
-32.297569
-45.328915
-64.157890
-84.243614
-97.357208
-94.943932
-75.507904
-48.506516
-27.676018
-19.074785
-17.204538
-13.243317
-4.182188
6.839521
16.100187
23.095079
29.580837
36.864876
44.687805
51.933475
57.857525
62.790386
67.984558
74.718895
83.275536
92.688919
101.569305
109.224487
115.860367
121.683624
126.237564
129.181885
131.669586
136.168427
144.244415
154.432587
162.546692
164.246918
157.671051
144.197388
127.089615
109.751953
94.840157
83.817078
76.863411
73.315529
72.027603
71.431740
70.071281
67.647636
65.129105
63.313156
61.448898
57.423275
49.254646
36.532597
20.658646
4.038388
-11.218258
-24.528095
-36.830673
-49.083019
-60.788284
-69.925201
-74.196091
-72.735954
-66.848801
-59.030754
-51.576649
-45.906185
-42.366962
-40.249588
-38.103687
-34.450115
-28.729897
-21.934544
-16.323898
-14.284709
-16.933311
-23.166676
-29.883360
-33.541847
-32.274918
-27.231833
-21.961065
-19.848379
-21.461998
-24.224031
-24.835865
-22.257145
-18.658102
-17.630878
-21.191422
-28.027716
-34.356987
-36.579803
-33.619122
-27.401604
-21.434574
-18.541477
-19.121794
-20.926199
-20.593742
-16.141123
-8.392615
0.172734
7.866117
14.747329
21.334038
27.205446
31.526861
34.289463
36.171936
37.522251
38.037838
37.288555
35.063683
31.214701
25.730785
19.124977
12.378062
6.394374
1.703447
-1.415739
-2.939126
-3.129640
-2.127500
0.490513
5.413783
12.419434
19.442734
23.394339
22.405474
17.332237
10.934995
5.385929
0.558756
-4.854472
-10.846475
-15.777961
-18.838079
-21.742739
-26.753885
-33.269489
-37.617199
-36.879700
-32.015350
-26.199112
-20.850964
-14.114516
-3.116887
12.640682
30.458176
46.711735
59.231255
67.466431
71.183235
69.142067
58.815960
37.636425
5.504981
-32.054821
-63.962147
-80.355515
-80.845833
-74.688087
