EVENT_NAME: EMILIA_2ND_SHOCK
EVENT_ID: IT-2012-0011
EVENT_DATE_YYYYMMDD: 20120529
EVENT_TIME_HHMMSS: 070002
EVENT_LATITUDE_DEGREE: 44.8417
EVENT_LONGITUDE_DEGREE: 11.0657
EVENT_DEPTH_KM: 8.1
HYPOCENTER_REFERENCE: INGV-CNT_Seismic_Bulletin
MAGNITUDE_W: 6.0
MAGNITUDE_W_REFERENCE: RCMT-INGV
MAGNITUDE_L: 5.8
MAGNITUDE_L_REFERENCE: INGV-CNT_Seismic_Bulletin
FOCAL_MECHANISM: TF
NETWORK: IV
STATION_CODE: T0803
STATION_NAME: T0803
STATION_LATITUDE_DEGREE: 44.766800
STATION_LONGITUDE_DEGREE: 11.350800
STATION_ELEVATION_M: 10
LOCATION: 
SENSOR_DEPTH_M: 1.0
VS30_M/S: 
SITE_CLASSIFICATION_EC8: C*
MORPHOLOGIC_CLASSIFICATION: 
EPICENTRAL_DISTANCE_KM: 24.0
EARTHQUAKE_BACKAZIMUTH_DEGREE: 290.4
DATE_TIME_FIRST_SAMPLE_YYYYMMDD_HHMMSS: 20120529_065953.000
DATE_TIME_FIRST_SAMPLE_PRECISION: milliseconds
SAMPLING_INTERVAL_S: 0.005000
NDATA: 20001
DURATION_S: 100.005
STREAM: HNZ
UNITS: cm/s^2
INSTRUMENT: sensor = Episensor FBA ES-T [Kinemetrics] | digitizer = Unknown [Unknown]
INSTRUMENT_ANALOG/DIGITAL: D
INSTRUMENTAL_FREQUENCY_HZ: 
INSTRUMENTAL_DAMPING: 
FULL_SCALE_G: 
N_BIT_DIGITAL_CONVERTER: 
PGA_CM/S^2: -66.640438
TIME_PGA_S: 21.600000
BASELINE_CORRECTION: BASELINE REMOVED
FILTER_TYPE: BUTTERWORTH
FILTER_ORDER: 2
LOW_CUT_FREQUENCY_HZ: 0.060
HIGH_CUT_FREQUENCY_HZ: 40.000
LATE/NORMAL_TRIGGERED: NT
DATABASE_VERSION: DYNA 1.0
HEADER_FORMAT: DYNA 1.2
DATA_TYPE: ACCELERATION
PROCESSING: manual (Paolucci et al., 2011)
DATA_TIMESTAMP_YYYYMMDD_HHMMSS: 
DATA_LICENSE: CC-BY4_0 (http://creativecommons.org/licenses/by/4.0/)
DATA_CITATION: ESM working group (2015), European Strong-Motion database, version 0.1, Network Activity 3: Networking acceleration networks and SM data users. Project NERA (www.nera-eu.org)
DATA_CREATOR: ESM working group
ORIGINAL_DATA_MEDIATOR_CITATION: Orfeus - European Integrated Data Archive (EIDA) http://www.orfeus-eu.org/eida/
ORIGINAL_DATA_MEDIATOR: Orfeus - European Integrated Data Archive (EIDA)
ORIGINAL_DATA_CREATOR_CITATION: Data for this study comes from the Italian national seismic network operated by Istituto Nazionale di Geofisica e Vulcanologia and archived at the European Integrated Data Archive http://eida.rm.ingv.it/
ORIGINAL_DATA_CREATOR: network: IV (Italian National Seismic Network); owner: Istituto Nazionale di Geofisica e Vulcanologia
USER1: 
USER2: 
USER3: 
USER4: 
USER5: 
[...]
0.059385
0.078626
0.065307
0.037394
0.023341
0.031005
0.046985
0.053853
0.037515
-0.006791
-0.050534
-0.029132
0.096250
0.291071
0.484640
0.596134
0.525509
0.231112
-0.193318
-0.603760
-0.901936
-1.019249
-0.934008
-0.715126
-0.459784
-0.216704
0.003282
0.200185
0.381588
0.552393
0.688460
0.730311
0.631477
0.396005
0.060478
-0.289714
-0.505456
-0.486139
-0.271602
0.037521
0.359131
0.619136
0.773692
0.841891
0.860557
0.817140
0.650385
0.338525
-0.034475
-0.348197
-0.532739
-0.556507
-0.417670
-0.164273
0.135063
0.402692
0.530870
0.438806
0.129436
-0.344174
-0.869283
-1.254848
-1.370346
-1.258992
-1.034841
-0.764350
-0.472217
-0.170600
0.134882
0.433861
0.674793
0.752514
0.593840
0.228127
-0.258150
-0.724895
-0.956197
-0.820428
-0.411024
0.078544
0.474317
0.607294
0.429198
0.142462
0.019536
0.131239
0.353942
0.548709
0.641061
0.612735
0.534961
0.562301
0.772580
1.047154
1.193437
1.103485
0.747850
0.170492
-0.469279
-0.989531
-1.318554
-1.473229
-1.483777
-1.375182
-1.159641
-0.829563
-0.372959
0.169020
0.652142
0.914928
0.922540
0.757222
0.504622
0.205452
-0.128319
-0.485489
-0.834169
-1.113667
-1.228006
-1.094680
-0.763817
-0.421983
-0.204445
-0.072954
0.077331
0.260808
0.386911
0.358606
0.129091
-0.292751
-0.753295
-0.934994
-0.636745
0.009804
0.740989
1.393318
1.881632
2.167197
2.279459
2.259023
2.067674
1.588105
0.772741
-0.238202
-1.223505
-1.967926
-2.226044
-1.881407
-1.121687
-0.263487
0.406252
0.593230
0.192747
-0.490071
-1.019534
-1.209736
-1.098573
-0.792318
-0.437356
-0.157675
0.064416
0.370083
0.831596
1.326569
1.660281
1.723730
1.481436
0.953938
0.251906
-0.475641
-1.066737
-1.322512
-1.175693
-0.859086
-0.698780
-0.807333
-1.076269
-1.288533
-1.128712
-0.332241
0.939139
2.069353
2.545566
2.315297
1.567023
0.574400
-0.282808
-0.738139
-0.824149
-0.706783
-0.513574
-0.339700
-0.233524
-0.159268
-0.037293
0.216723
0.677738
1.282080
1.698597
1.542727
0.757886
-0.370477
-1.472622
-2.189396
-2.254276
-1.738670
-1.040377
-0.497598
-0.167986
0.040593
0.253283
0.619707
1.212384
1.932743
2.594207
2.959821
2.710847
1.701822
0.206172
-1.343800
-2.639799
-3.447549
-3.679548
-3.537780
-3.297170
-2.985568
-2.397452
-1.404315
-0.150861
1.108609
2.182213
2.901315
3.148997
2.929417
2.306039
1.397951
0.422000
-0.384752
-0.818269
-0.756612
-0.356619
-0.060230
-0.168036
-0.545392
-0.875339
-0.969841
-0.770946
-0.335953
0.108487
0.319329
0.297181
0.265379
0.357409
0.425488
0.237936
-0.187978
-0.561728
-0.619200
-0.303767
0.301455
0.945301
1.193401
0.810112
0.067435
-0.586184
-0.971117
-1.158148
-1.257334
-1.342244
-1.425387
-1.355861
-0.816750
0.343401
1.846040
3.238282
4.160250
4.294820
3.536539
2.224400
0.843144
-0.337656
-1.209532
-1.749746
-2.056517
-2.252160
-2.336848
-2.193238
-1.743283
-1.051306
-0.236032
0.613272
1.405863
2.026868
2.332578
2.193233
1.613330
0.743644
-0.216402
-1.047166
-1.572553
-1.809701
-1.949020
-2.126923
-2.293249
-2.309418
-2.061034
-1.461706
-0.529397
0.516207
1.396983
1.962012
2.157989
2.005766
1.647343
1.263269
0.989318
0.944285
1.170339
1.546723
1.877653
1.957887
1.546422
0.555669
-0.753289
-1.988721
-2.864240
-3.146652
-2.735854
-1.809399
-0.636512
0.625968
1.883491
3.018547
3.861107
4.231651
4.014894
3.145253
1.676692
-0.101184
-1.823422
-3.206266
-3.977166
-3.985308
-3.365269
-2.369996
-1.240715
-0.264842
0.324825
0.461084
0.178204
-0.371515
-0.886573
-1.093481
-0.873013
-0.233567
0.581566
1.075882
0.942718
0.404243
-0.097807
-0.271152
0.027853
0.707949
1.276216
1.177447
0.400074
-0.513316
-1.026953
-0.910489
-0.158980
0.911340
1.639817
1.553275
0.756537
-0.371301
-1.443246
-2.030141
-1.914659
-1.356346
-0.790709
-0.453540
-0.395598
-0.525377
-0.550559
-0.151690
0.711751
1.805631
2.873966
3.752717
4.336225
4.529872
4.205636
3.285229
1.839769
0.022633
-1.888587
-3.411298
-4.129084
-3.913884
-2.809168
-1.051568
0.872048
2.472916
3.418576
3.535705
2.988591
2.273828
1.769884
1.450494
1.093325
0.519056
-0.379096
-1.518848
-2.484379
-2.801485
-2.417700
-1.702890
-1.053345
-0.705565
-0.762736
-1.136812
-1.571501
-1.895970
-2.187918
-2.618066
-3.208267
-3.795225
-4.146022
-4.003914
-3.166146
-1.716726
-0.040816
1.503423
2.772185
3.756574
4.528691
5.199388
5.753157
5.927348
5.418857
4.291145
3.001079
1.960221
1.277170
0.871862
0.518897
-0.143158
-1.280677
-2.598204
-3.653113
-4.292652
-4.618307
-4.697782
-4.429114
-3.643574
-2.301687
-0.535869
1.376565
2.968419
3.768397
3.642943
2.778865
1.508122
0.310705
-0.348526
-0.310957
0.302981
1.206186
1.905293
1.924672
1.240238
0.253048
-0.676002
-1.471507
-2.246040
-3.269734
-4.940852
-7.316829
-9.704109
-11.131551
-10.943762
-8.751572
-4.739729
-0.167805
3.460821
5.639107
6.751350
7.359721
7.988093
8.958765
9.916274
9.847876
8.166673
5.493206
2.884201
0.839121
-0.645902
-1.729408
-2.660408
-3.631366
-4.466244
-4.629331
-3.833795
-2.490056
-1.278838
-0.642463
-0.821909
-1.766020
-2.906183
-3.530456
-3.315209
-2.288904
-0.715893
0.819167
1.714451
1.882256
1.713348
1.592764
1.668803
1.927313
2.185071
2.091231
1.424966
0.325711
-0.899042
-1.927989
-2.388574
-2.112524
-1.399339
-0.725201
-0.403034
-0.616448
-1.356414
-2.270564
-2.929404
-3.220328
-3.299766
-3.254583
-2.924918
-2.071784
-0.682076
0.990269
2.605799
3.807085
4.324618
4.277959
4.178656
4.450211
5.135340
6.061182
6.911130
7.182970
6.507640
4.921081
2.665052
0.086261
-2.318096
-4.229905
-5.796625
-7.360100
-9.090265
-10.927507
-12.537004
-13.186068
-12.120061
-9.333629
-5.598602
-1.770120
1.529858
3.939714
5.575635
6.927004
8.193100
8.858614
8.175120
5.942684
2.551176
-1.383208
-5.087526
-7.833824
-9.225397
-9.045678
-7.213160
-3.934222
0.429045
5.225496
9.329604
11.824632
12.562696
11.791140
9.903881
7.479407
5.009323
2.704821
0.628194
-1.112374
-2.266376
-2.559993
-1.807710
0.040418
2.526690
4.562769
5.206692
4.211293
1.751811
-1.575513
-4.682036
-6.737513
-7.728618
-8.007955
-7.786477
-7.110619
-5.980213
-4.403378
-2.410007
-0.173880
1.916925
3.474601
4.263656
4.178017
3.358091
2.197686
1.023774
-0.099425
-1.263713
-2.623126
-4.353798
-6.405360
-8.276182
-9.332415
-9.251358
-7.955669
-5.508679
-2.191446
1.659718
5.754727
9.725396
13.164100
15.688903
16.953176
16.676945
14.580992
10.628469
5.345843
-0.505657
-6.086411
-10.276945
-12.328132
-12.509202
-11.539181
-10.044522
-8.600432
-7.397709
-5.870898
-3.269062
0.305509
3.791255
6.100241
6.651603
5.302933
2.721387
0.400235
-0.714266
-1.211212
-2.258952
-4.230139
-6.595949
-8.450807
-8.649381
-6.255823
-1.735779
2.959852
6.102970
7.228554
6.632778
5.191969
4.363667
4.998252
6.408041
7.307015
7.017147
5.457053
2.969006
0.468032
-1.105272
-1.747148
-2.326142
-3.465429
-4.879339
-5.883576
-6.022458
-5.086751
-3.245046
-1.315415
-0.258954
-0.391034
-1.410338
-2.764810
-3.691856
-3.516503
-2.325242
-0.985876
-0.387306
-1.035649
-3.074708
-5.876092
-7.974208
-8.295916
-7.039845
-4.967877
-2.656491
-0.531190
1.201479
2.724059
4.341947
6.065661
7.562878
8.434597
8.355836
7.107111
4.822966
2.059265
-0.496629
-2.145693
-2.365394
-1.365040
-0.070053
0.803118
1.316648
1.934098
3.152949
5.474305
8.914510
12.506219
14.975426
15.650256
14.357246
11.302989
7.292345
3.267110
-0.237075
-2.914274
-4.534974
-5.000406
-4.246874
-2.227335
0.974292
4.758611
7.598504
7.802278
4.851553
-0.591045
-7.194147
-12.874517
-15.718495
-15.826032
-15.162709
-15.180235
-15.419997
-14.505539
-11.285485
-4.929251
4.172318
13.326892
19.281668
20.840075
18.656345
13.975458
8.449129
3.540617
-0.517501
-4.514355
-9.052121
-13.906804
-18.329739
-21.004623
-19.938528
-14.294079
-6.037919
1.854498
7.545249
10.073900
9.429698
7.240565
5.510994
4.754283
4.126466
2.824217
0.758432
-1.833223
-4.821606
-8.173792
-11.688003
-14.790131
-16.805498
-17.336887
-16.164740
-13.233241
-8.811679
-3.265522
3.045496
9.561785
15.465806
19.632751
21.009895
19.475842
15.825620
11.062394
6.182307
1.947935
-1.605488
-5.023499
-8.622015
-12.021706
-14.514557
-15.422940
-14.046979
-10.234729
-5.024371
0.174360
4.579058
7.864867
9.962836
11.187982
11.925932
12.131768
11.305127
9.000383
5.169198
0.095238
-5.162250
-8.575450
-8.762317
-6.270726
-2.518148
1.167685
3.364791
3.207711
1.121962
-1.931334
-5.162386
-7.761550
-8.951577
-8.162952
-5.161081
-0.837267
2.665195
3.819254
3.050351
1.611574
0.293315
-0.510415
-0.577298
0.120353
1.532954
3.543334
5.843884
7.807577
8.342777
6.449565
2.486178
-1.807269
-5.075919
-7.444896
-9.634705
-11.680629
-12.786432
-12.182709
-9.670903
-5.445754
-0.312339
4.178610
6.861345
7.809857
7.677064
7.057729
6.522860
6.412775
6.593530
6.775932
7.014498
7.759698
9.405114
11.981513
15.169958
17.783012
17.579802
13.171916
5.570468
-3.225282
-11.604632
-17.999537
-21.152109
-20.639091
-16.516951
-9.446084
-0.898332
7.482658
14.213057
18.175039
19.253044
18.144642
15.431532
11.199598
5.478023
-0.599128
-4.531287
-4.726370
-2.271551
0.625515
2.366165
1.801861
-1.405709
-6.081802
-10.661741
-14.741992
-18.855350
-22.987226
-25.676908
-25.074713
-20.755972
-13.771659
-5.625124
1.995771
7.627831
10.830675
12.008936
11.858286
11.335775
11.360906
12.362761
14.413991
17.356739
20.686581
23.793358
26.114010
26.884809
25.244888
20.426140
12.018437
1.218399
-8.915371
-15.944355
-19.781059
-21.514420
-22.290279
-23.210022
-24.403320
-24.135843
-20.239330
-12.655823
-3.571910
4.691660
10.734946
13.922278
14.771387
14.888435
15.612069
17.218885
19.392754
21.468126
22.305494
20.777014
16.143845
8.082030
-2.469699
-13.008381
-21.028362
-25.002491
-24.242874
-19.601871
-13.486385
-7.856398
-2.990428
1.607370
5.909492
9.045915
9.838382
7.116526
0.193067
-9.290468
-16.995377
-19.368235
-16.061136
-8.495703
0.823940
8.089110
10.857122
10.266052
8.874214
7.963083
7.523982
6.911971
4.871502
0.267117
-6.227853
-11.985690
-14.790871
-14.355521
-11.452876
-7.518809
-4.858431
-5.322343
-9.246699
-16.108372
-24.609373
-32.417507
-37.464199
-38.914879
-36.699352
-31.491772
-24.713758
-17.504354
-10.084212
-2.256417
5.803952
13.353015
19.639132
24.280809
27.085899
27.930012
26.772533
24.020706
20.969599
19.052919
18.543852
18.513399
17.601309
14.250327
7.305443
-2.199271
-10.883177
-16.029596
-17.572630
-16.759403
-14.928615
-13.502990
-13.098024
-12.660354
-10.635403
-6.818551
-2.431414
1.214172
3.390168
3.908652
3.594791
4.292994
7.118983
11.169501
14.667671
16.212091
14.682473
9.945748
3.815444
-1.364164
-4.708342
-6.614201
-7.707980
-8.528013
-9.353488
-9.647795
-8.028597
-3.582931
3.162470
11.081633
19.174206
26.276142
31.165735
32.770493
30.187416
23.068056
11.680133
-2.780321
-17.529234
-29.472668
-36.910412
-39.046124
-35.706985
-27.869856
-16.934996
-4.345358
8.010398
18.658302
27.372911
34.405987
39.227947
40.196884
35.820610
25.770020
10.686996
-6.522204
-20.197506
-26.531563
-27.159021
-25.928535
-24.919626
-24.371450
-23.234667
-18.867794
-8.646267
6.513510
21.813337
32.657703
37.041004
34.596382
26.545732
15.771397
5.137139
-3.408739
-8.714895
-10.791751
-10.557351
-8.807901
-5.792725
-1.606573
2.833053
5.475479
4.764480
0.908160
-4.878299
-10.503906
-12.716750
-9.516048
-2.217110
6.528036
14.794036
20.976961
23.719017
22.265966
16.231714
5.825583
-8.005501
-23.777332
-39.307503
-52.287121
-60.752979
-62.546535
-56.547707
-44.236900
-28.151920
-10.717713
5.203023
17.534258
26.281197
32.230911
35.265564
34.348831
29.368921
22.623619
17.226557
15.095927
17.160995
22.901669
29.245186
32.540092
31.505117
26.912981
19.841415
11.143494
1.336011
-9.480350
-21.218801
-32.864304
-41.713413
-44.626919
-40.022369
-27.764549
-9.375488
10.840100
27.975515
39.383968
43.977520
41.732727
34.429657
24.309624
12.643210
0.252911
-11.719449
-21.495405
-27.294579
-28.579897
-25.999649
-20.839443
-15.160123
-11.046489
-9.512428
-10.774867
-14.451678
-19.193354
-23.320242
-25.398331
-23.937859
-18.297503
-9.782279
-0.398603
8.507226
15.975785
21.489717
25.386108
28.278189
30.241737
30.751545
29.213551
25.285173
18.878819
10.718976
2.571008
-3.872129
-7.723412
-8.700396
-7.423176
-5.437945
-4.008739
-3.354120
-3.188911
-3.375472
-4.024222
-5.314556
-7.387626
-10.269934
-13.463861
-15.790130
-16.172047
-14.192367
-9.813082
-3.370201
4.318262
12.197118
19.018433
23.630278
25.572752
25.003759
22.635134
20.047838
18.891054
19.484566
20.862078
21.780758
21.095413
17.948433
12.401387
5.356936
-2.369077
-10.502314
-18.967806
-27.077103
-33.175842
-35.642097
-33.647171
-26.898556
-15.947270
-2.307985
12.405577
26.879913
40.013199
50.450169
56.047981
55.110096
47.618011
34.367306
16.698376
-3.124650
-22.781097
-40.453491
-54.689587
-64.062134
-66.640434
-61.224926
-48.752617
-31.061983
-10.268242
10.574743
28.478527
41.394848
47.930119
47.425110
39.786720
26.014194
9.224789
-6.957782
-20.265610
-29.118439
-32.612499
-31.253189
-26.027201
-17.565193
-6.468728
6.010450
17.412703
25.093788
27.792915
25.344643
18.351625
8.634389
-1.767170
-11.752229
-20.697750
-27.853844
-32.214821
-32.781006
-29.234928
-21.997984
-12.196026
-2.035725
6.150662
11.302890
13.336240
12.650672
10.307236
7.377510
3.946291
-0.699547
-6.722859
-12.827174
-17.157726
-18.406551
-15.725164
-9.444264
-2.132005
3.139833
5.392433
5.499603
4.514649
3.054353
1.352479
-0.808277
-3.953020
-8.149525
-12.437304
-15.607689
-17.397619
-18.393682
-19.011871
-18.970516
-17.721464
-15.124850
-11.467215
-7.045003
-1.977206
3.749121
10.110745
16.850859
23.185366
27.494987
28.053497
24.415777
17.427500
8.560338
-0.062057
-6.409877
-9.854498
-10.980070
-10.781855
-10.566013
-11.416561
-13.030076
-13.786227
-12.571268
-9.964374
-7.288554
-5.572687
-5.586326
-7.355747
-9.501287
-10.265897
-9.006372
-6.064000
-1.955638
2.852637
7.920660
12.505166
15.284235
15.155921
11.937887
5.984709
-1.746958
-9.515732
-15.896674
-20.599808
-23.871777
-25.745689
-25.845646
-23.588469
-18.329506
-9.616878
1.713427
13.199368
22.299780
27.335163
27.440554
23.442062
17.917879
13.183402
10.110590
8.761079
9.000772
10.715164
13.952004
18.947437
25.815592
33.438137
39.089367
40.342731
36.440735
27.607761
15.039164
1.120097
-11.877859
-22.616314
-30.341774
-34.619621
-35.103615
-31.897202
-26.145317
-19.342754
-12.759023
-7.771500
-5.301122
-5.110213
-6.431315
-8.448944
-10.135622
-10.632800
-9.630985
-7.231952
-4.226518
-2.185207
-2.167400
-3.731950
-5.722850
-6.955250
-6.122017
-2.724441
1.967229
6.148917
9.204761
11.587276
13.755618
15.706302
17.132416
17.492989
16.038296
12.649768
8.611425
5.643668
4.580439
5.461319
7.779153
10.257204
11.444704
10.514069
7.096142
1.361730
-5.549548
-12.201615
-17.549534
-20.630880
-20.730621
-17.792316
-12.084302
-4.203303
4.693001
13.234273
20.010662
23.784655
23.978674
20.526245
13.913288
5.617771
-2.587968
-9.269897
-12.966976
-12.875477
-9.754317
-4.949256
0.584730
6.024930
10.540353
13.348400
13.778222
11.556997
6.804935
0.160445
-6.856619
-12.604638
-16.455437
-18.584471
-19.286600
-18.818836
-17.354336
-14.999063
-11.918156
-8.474252
-5.357153
-3.260273
-2.249016
-1.735490
-0.939776
0.957231
4.628078
10.023388
16.302494
22.311792
26.716135
28.337761
26.921934
23.020803
17.329166
10.518427
3.144152
-4.305351
-11.105179
-16.336807
-18.981766
-18.218763
-14.420512
-9.311201
-4.789120
-2.349944
-2.993831
-6.525435
-11.526800
-16.292538
-19.181402
-18.859596
-15.022102
-8.289688
0.300872
9.264883
17.142857
23.093550
26.536201
26.965773
24.128359
17.938944
8.833388
-2.010272
-13.144988
-23.038374
-30.343363
-34.403320
-35.012920
-32.338943
-27.254725
-20.849138
-14.051668
-7.882884
-3.008147
0.790255
4.098441
7.230086
10.182857
12.679394
14.085939
13.732675
11.584949
8.293471
4.704264
1.695364
0.009176
-0.064232
1.479513
4.645332
9.472032
15.986681
23.813387
31.920235
38.956661
43.400543
43.874783
39.914001
31.880568
20.716101
8.224621
-3.630566
-13.470433
-20.101238
-22.919531
-22.663822
-20.519943
-17.091251
-12.543594
-7.061099
-1.056357
4.913195
9.950444
12.615831
12.011674
8.754275
4.046823
-1.291409
-6.647001
-11.472221
-15.337302
-17.906576
-18.976347
-18.418365
-16.313658
-13.182864
-9.634983
-5.956015
-2.266412
1.116794
3.480886
4.016161
2.278227
-1.899302
-8.393051
-16.538580
-25.428801
-33.834175
-39.824638
-41.820881
-39.560875
-33.536770
-24.996996
-16.148081
-8.709980
-2.844571
1.996001
6.026790
9.007119
10.635359
10.798901
9.548239
7.365129
5.285653
4.196489
4.342499
5.685021
8.316876
12.475279
18.013147
23.911386
28.872707
32.034061
32.789879
30.980175
27.344070
22.893339
18.215242
13.652456
9.534915
6.201788
3.935355
2.758235
2.454471
2.790547
3.587788
4.729229
6.139220
7.719747
9.329617
10.778698
11.892181
12.607495
12.915911
12.717199
11.745135
9.717525
6.687158
3.077696
-0.661184
-4.225170
-7.445438
-10.312113
-12.872440
-14.966158
-16.050932
-15.519613
-13.335511
-10.069445
-6.416257
-3.013796
-0.348159
1.490675
2.735147
3.652811
4.459737
5.312121
6.252593
7.208390
7.975063
8.155989
7.335269
5.419073
2.628028
-0.717850
-4.238232
-7.570708
-10.414876
-12.414156
-13.282984
-12.983560
-11.598508
-9.306714
-6.447231
-3.426764
-0.687726
1.348998
2.341466
1.947241
0.100824
-2.641430
-5.488660
-7.764696
-8.760960
-8.072681
-6.020300
-3.232582
-0.311384
2.036838
3.273636
3.327827
2.332686
0.397651
-2.340118
-5.527519
-8.405886
-10.119422
-10.151712
-8.247379
-4.584169
-0.147283
3.862819
6.763488
8.206454
8.049069
6.510980
3.980001
1.015116
-1.488892
-2.763404
-2.558130
-0.961869
1.485457
3.698527
4.763930
4.450910
2.872780
0.210853
-3.276982
-7.242903
-11.192044
-14.611769
-17.102728
-18.266880
-17.915922
-16.363504
-14.092081
-11.406978
-8.527666
-5.687790
-3.155095
-1.151255
0.373637
1.765999
3.428709
5.710975
8.834314
12.548337
16.056103
18.561615
19.604572
18.950071
16.628935
12.916466
8.189363
2.940503
-2.351332
-7.318679
-11.556550
-14.722947
-16.708662
-17.535032
-17.374973
-16.603296
-15.633128
-14.838949
-14.478366
-14.439858
-14.246985
-13.496532
-12.129799
-10.245235
-7.876655
-4.948861
-1.333079
3.113565
8.458478
14.288639
19.567204
23.321562
25.119307
