EVENT_NAME: EMILIA_2ND_SHOCK
EVENT_ID: IT-2012-0011
EVENT_DATE_YYYYMMDD: 20120529
EVENT_TIME_HHMMSS: 070002
EVENT_LATITUDE_DEGREE: 44.8417
EVENT_LONGITUDE_DEGREE: 11.0657
EVENT_DEPTH_KM: 8.1
HYPOCENTER_REFERENCE: INGV-CNT_Seismic_Bulletin
MAGNITUDE_W: 6.0
MAGNITUDE_W_REFERENCE: RCMT-INGV
MAGNITUDE_L: 5.8
MAGNITUDE_L_REFERENCE: INGV-CNT_Seismic_Bulletin
FOCAL_MECHANISM: TF
NETWORK: IV
STATION_CODE: T0803
STATION_NAME: T0803
STATION_LATITUDE_DEGREE: 44.766800
STATION_LONGITUDE_DEGREE: 11.350800
STATION_ELEVATION_M: 10
LOCATION: 
SENSOR_DEPTH_M: 1.0
VS30_M/S: 
SITE_CLASSIFICATION_EC8: C*
MORPHOLOGIC_CLASSIFICATION: 
EPICENTRAL_DISTANCE_KM: 24.0
EARTHQUAKE_BACKAZIMUTH_DEGREE: 290.4
DATE_TIME_FIRST_SAMPLE_YYYYMMDD_HHMMSS: 20120529_065953.000
DATE_TIME_FIRST_SAMPLE_PRECISION: milliseconds
SAMPLING_INTERVAL_S: 0.005000
NDATA: 20001
DURATION_S: 100.005
STREAM: HNZ
UNITS: cm
INSTRUMENT: sensor = Episensor FBA ES-T [Kinemetrics] | digitizer = Unknown [Unknown]
INSTRUMENT_ANALOG/DIGITAL: D
INSTRUMENTAL_FREQUENCY_HZ: 
INSTRUMENTAL_DAMPING: 
FULL_SCALE_G: 
N_BIT_DIGITAL_CONVERTER: 
PGD_CM: 0.332125
TIME_PGD_S: 33.480000
BASELINE_CORRECTION: BASELINE REMOVED
FILTER_TYPE: BUTTERWORTH
FILTER_ORDER: 2
LOW_CUT_FREQUENCY_HZ: 0.060
HIGH_CUT_FREQUENCY_HZ: 40.000
LATE/NORMAL_TRIGGERED: NT
DATABASE_VERSION: DYNA 1.0
HEADER_FORMAT: DYNA 1.2
DATA_TYPE: DISPLACEMENT
PROCESSING: manual (Paolucci et al., 2011)
DATA_TIMESTAMP_YYYYMMDD_HHMMSS: 
DATA_LICENSE: CC-BY4_0 (http://creativecommons.org/licenses/by/4.0/)
DATA_CITATION: ESM working group (2015), European Strong-Motion database, version 0.1, Network Activity 3: Networking acceleration networks and SM data users. Project NERA (www.nera-eu.org)
DATA_CREATOR: ESM working group
ORIGINAL_DATA_MEDIATOR_CITATION: Orfeus - European Integrated Data Archive (EIDA) http://www.orfeus-eu.org/eida/
ORIGINAL_DATA_MEDIATOR: Orfeus - European Integrated Data Archive (EIDA)
ORIGINAL_DATA_CREATOR_CITATION: Data for this study comes from the Italian national seismic network operated by Istituto Nazionale di Geofisica e Vulcanologia and archived at the European Integrated Data Archive http://eida.rm.ingv.it/
ORIGINAL_DATA_CREATOR: network: IV (Italian National Seismic Network); owner: Istituto Nazionale di Geofisica e Vulcanologia
USER1: 
USER2: 
USER3: 
USER4: 
USER5: 
[...]
-1.768232e-01
-1.770092e-01
-1.771921e-01
-1.773339e-01
-1.773956e-01
-1.773410e-01
-1.771402e-01
-1.767707e-01
-1.762185e-01
-1.754802e-01
-1.745689e-01
-1.735162e-01
-1.723681e-01
-1.711772e-01
-1.699954e-01
-1.688650e-01
-1.678115e-01
-1.668430e-01
-1.659525e-01
-1.651202e-01
-1.643152e-01
-1.634987e-01
-1.626297e-01
-1.616702e-01
-1.605905e-01
-1.593743e-01
-1.580225e-01
-1.565524e-01
-1.549947e-01
-1.533895e-01
-1.517820e-01
-1.502169e-01
-1.487354e-01
-1.473729e-01
-1.461586e-01
-1.451137e-01
-1.442507e-01
-1.435708e-01
-1.430619e-01
-1.426990e-01
-1.424477e-01
-1.422684e-01
-1.421223e-01
-1.419761e-01
-1.418043e-01
-1.415878e-01
-1.413130e-01
-1.409710e-01
-1.405568e-01
-1.400695e-01
-1.395117e-01
-1.388891e-01
-1.382074e-01
-1.374692e-01
-1.366705e-01
-1.357978e-01
-1.348276e-01
-1.337316e-01
-1.324836e-01
-1.310654e-01
-1.294723e-01
-1.277153e-01
-1.258175e-01
-1.238074e-01
-1.217152e-01
-1.195700e-01
-1.173982e-01
-1.152216e-01
-1.130567e-01
-1.109135e-01
-1.087932e-01
-1.066883e-01
-1.045841e-01
-1.024622e-01
-1.003048e-01
-9.809986e-02
-9.584531e-02
-9.354906e-02
-9.122661e-02
-8.889770e-02
-8.658159e-02
-8.429391e-02
-8.204802e-02
-7.985815e-02
-7.774135e-02
-7.571791e-02
-7.380999e-02
-7.203743e-02
-7.041289e-02
-6.893931e-02
-6.760926e-02
-6.640569e-02
-6.530513e-02
-6.428118e-02
-6.330612e-02
-6.235119e-02
-6.138742e-02
-6.038782e-02
-5.933019e-02
-5.820011e-02
-5.699475e-02
-5.572504e-02
-5.441326e-02
-5.308903e-02
-5.178601e-02
-5.053847e-02
-4.937763e-02
-4.832821e-02
-4.740550e-02
-4.661406e-02
-4.594761e-02
-4.539006e-02
-4.491903e-02
-4.450967e-02
-4.413666e-02
-4.377516e-02
-4.340135e-02
-4.299275e-02
-4.252842e-02
-4.198960e-02
-4.136137e-02
-4.063460e-02
-3.980797e-02
-3.888949e-02
-3.789536e-02
-3.684566e-02
-3.575940e-02
-3.465025e-02
-3.352333e-02
-3.237496e-02
-3.119500e-02
-2.996962e-02
-2.868373e-02
-2.732290e-02
-2.587440e-02
-2.432793e-02
-2.267630e-02
-2.091585e-02
-1.904684e-02
-1.707402e-02
-1.500763e-02
-1.286364e-02
-1.066202e-02
-8.424673e-03
-6.174905e-03
-3.938337e-03
-1.743815e-03
3.765202e-04
2.387968e-03
4.256557e-03
5.955958e-03
7.473775e-03
8.813983e-03
9.997314e-03
1.106007e-02
1.205102e-02
1.302689e-02
1.404586e-02
1.516082e-02
1.641394e-02
1.783060e-02
1.941538e-02
2.115331e-02
2.301359e-02
2.495398e-02
2.692730e-02
2.888878e-02
3.080310e-02
3.265031e-02
3.442794e-02
3.615003e-02
3.784337e-02
3.953960e-02
4.126627e-02
4.304011e-02
4.486059e-02
4.670611e-02
4.853648e-02
5.029814e-02
5.192992e-02
5.337081e-02
5.456710e-02
5.547633e-02
5.606930e-02
5.633138e-02
5.626365e-02
5.588317e-02
5.522041e-02
5.431590e-02
5.321792e-02
5.198016e-02
5.065916e-02
4.931158e-02
4.799153e-02
4.674809e-02
4.562199e-02
4.464267e-02
4.382743e-02
4.318138e-02
4.269709e-02
4.235418e-02
4.212026e-02
4.195529e-02
4.181680e-02
4.166429e-02
4.146410e-02
4.119344e-02
4.084173e-02
4.041055e-02
3.991308e-02
3.937244e-02
3.881868e-02
3.828303e-02
3.779189e-02
3.736416e-02
3.701078e-02
3.673556e-02
3.653779e-02
3.641470e-02
3.636150e-02
3.636883e-02
3.642153e-02
3.650087e-02
3.658829e-02
3.666824e-02
3.673051e-02
3.677044e-02
3.678483e-02
3.676670e-02
3.670273e-02
3.657322e-02
3.635363e-02
3.601827e-02
3.554441e-02
3.491422e-02
3.411532e-02
3.314069e-02
3.198782e-02
3.065759e-02
2.915321e-02
2.747909e-02
2.564018e-02
2.364260e-02
2.149482e-02
1.920850e-02
1.679865e-02
1.428258e-02
1.167642e-02
8.991090e-03
6.230832e-03
3.393983e-03
4.751011e-04
-2.531245e-03
-5.626400e-03
-8.804701e-03
-1.205076e-02
-1.533768e-02
-1.862763e-02
-2.187331e-02
-2.501938e-02
-2.800450e-02
-3.076481e-02
-3.323958e-02
-3.537747e-02
-3.714194e-02
-3.851748e-02
-3.951322e-02
-4.015982e-02
-4.050376e-02
-4.060246e-02
-4.051854e-02
-4.031401e-02
-4.004495e-02
-3.975728e-02
-3.948488e-02
-3.924899e-02
-3.905857e-02
-3.891248e-02
-3.880176e-02
-3.871071e-02
-3.861715e-02
-3.849381e-02
-3.831192e-02
-3.804530e-02
-3.767348e-02
-3.718447e-02
-3.657683e-02
-3.585940e-02
-3.505044e-02
-3.417722e-02
-3.327610e-02
-3.239109e-02
-3.156967e-02
-3.085742e-02
-3.029288e-02
-2.990085e-02
-2.968758e-02
-2.964129e-02
-2.973518e-02
-2.993124e-02
-3.018596e-02
-3.045617e-02
-3.070393e-02
-3.090021e-02
-3.102692e-02
-3.107804e-02
-3.105989e-02
-3.098913e-02
-3.089010e-02
-3.079264e-02
-3.072942e-02
-3.073318e-02
-3.083418e-02
-3.105801e-02
-3.142414e-02
-3.194463e-02
-3.262369e-02
-3.345906e-02
-3.444421e-02
-3.556994e-02
-3.682586e-02
-3.820107e-02
-3.968332e-02
-4.125759e-02
-4.290591e-02
-4.460879e-02
-4.634775e-02
-4.810893e-02
-4.988671e-02
-5.168558e-02
-5.352057e-02
-5.541629e-02
-5.740329e-02
-5.951365e-02
-6.177688e-02
-6.421477e-02
-6.683732e-02
-6.964202e-02
-7.261473e-02
-7.573137e-02
-7.896067e-02
-8.226710e-02
-8.561381e-02
-8.896516e-02
-9.228899e-02
-9.555977e-02
-9.876135e-02
-1.018882e-01
-1.049453e-01
-1.079476e-01
-1.109174e-01
-1.138816e-01
-1.168682e-01
-1.199039e-01
-1.230124e-01
-1.262130e-01
-1.295196e-01
-1.329404e-01
-1.364781e-01
-1.401284e-01
-1.438790e-01
-1.477075e-01
-1.515820e-01
-1.554611e-01
-1.592976e-01
-1.630449e-01
-1.666640e-01
-1.701273e-01
-1.734223e-01
-1.765511e-01
-1.795294e-01
-1.823833e-01
-1.851458e-01
-1.878528e-01
-1.905390e-01
-1.932322e-01
-1.959481e-01
-1.986881e-01
-2.014390e-01
-2.041740e-01
-2.068550e-01
-2.094372e-01
-2.118752e-01
-2.141300e-01
-2.161728e-01
-2.179877e-01
-2.195727e-01
-2.209370e-01
-2.220981e-01
-2.230799e-01
-2.239116e-01
-2.246261e-01
-2.252551e-01
-2.258237e-01
-2.263473e-01
-2.268294e-01
-2.272622e-01
-2.276298e-01
-2.279141e-01
-2.280978e-01
-2.281676e-01
-2.281157e-01
-2.279391e-01
-2.276387e-01
-2.272183e-01
-2.266844e-01
-2.260465e-01
-2.253161e-01
-2.245064e-01
-2.236318e-01
-2.227066e-01
-2.217450e-01
-2.207602e-01
-2.197650e-01
-2.187701e-01
-2.177812e-01
-2.167973e-01
-2.158107e-01
-2.148078e-01
-2.137708e-01
-2.126794e-01
-2.115129e-01
-2.102531e-01
-2.088870e-01
-2.074092e-01
-2.058239e-01
-2.041460e-01
-2.023964e-01
-2.005979e-01
-1.987713e-01
-1.969339e-01
-1.950989e-01
-1.932754e-01
-1.914702e-01
-1.896873e-01
-1.879279e-01
-1.861903e-01
-1.844716e-01
-1.827689e-01
-1.810808e-01
-1.794078e-01
-1.777524e-01
-1.761197e-01
-1.745175e-01
-1.729570e-01
-1.714535e-01
-1.700257e-01
-1.686931e-01
-1.674718e-01
-1.663735e-01
-1.654046e-01
-1.645676e-01
-1.638631e-01
-1.632921e-01
-1.628558e-01
-1.625522e-01
-1.623737e-01
-1.623078e-01
-1.623390e-01
-1.624514e-01
-1.626330e-01
-1.628782e-01
-1.631890e-01
-1.635735e-01
-1.640447e-01
-1.646178e-01
-1.653078e-01
-1.661264e-01
-1.670803e-01
-1.681699e-01
-1.693897e-01
-1.707282e-01
-1.721679e-01
-1.736851e-01
-1.752499e-01
-1.768269e-01
-1.783763e-01
-1.798560e-01
-1.812236e-01
-1.824383e-01
-1.834635e-01
-1.842698e-01
-1.848364e-01
-1.851529e-01
-1.852192e-01
-1.850438e-01
-1.846417e-01
-1.840320e-01
-1.832355e-01
-1.822718e-01
-1.811557e-01
-1.798934e-01
-1.784825e-01
-1.769133e-01
-1.751707e-01
-1.732388e-01
-1.711038e-01
-1.687544e-01
-1.661806e-01
-1.633735e-01
-1.603255e-01
-1.570315e-01
-1.534890e-01
-1.496992e-01
-1.456669e-01
-1.413995e-01
-1.369063e-01
-1.321966e-01
-1.272788e-01
-1.221594e-01
-1.168436e-01
-1.113366e-01
-1.056467e-01
-9.978825e-02
-9.378367e-02
-8.766345e-02
-8.146510e-02
-7.522983e-02
-6.899881e-02
-6.281146e-02
-5.670527e-02
-5.071593e-02
-4.487769e-02
-3.922372e-02
-3.378624e-02
-2.859639e-02
-2.368363e-02
-1.907468e-02
-1.479218e-02
-1.085336e-02
-7.268403e-03
-4.039555e-03
-1.162053e-03
1.374371e-03
3.584833e-03
5.489060e-03
7.110168e-03
8.471346e-03
9.591971e-03
1.048493e-02
1.115454e-02
1.159578e-02
1.179662e-02
1.174110e-02
1.141128e-02
1.078843e-02
9.854711e-03
8.595358e-03
7.001279e-03
5.072003e-03
2.819775e-03
2.718261e-04
-2.532211e-03
-5.544850e-03
-8.715156e-03
-1.199421e-02
-1.533986e-02
-1.871887e-02
-2.210755e-02
-2.549120e-02
-2.886238e-02
-3.221828e-02
-3.555705e-02
-3.887423e-02
-4.216146e-02
-4.540674e-02
-4.859512e-02
-5.170950e-02
-5.473154e-02
-5.764329e-02
-6.043001e-02
-6.308297e-02
-6.560092e-02
-6.799048e-02
-7.026513e-02
-7.244217e-02
-7.453952e-02
-7.657310e-02
-7.855474e-02
-8.049010e-02
-8.237620e-02
-8.420074e-02
-8.594556e-02
-8.759167e-02
-8.912332e-02
-9.053189e-02
-9.181813e-02
-9.299044e-02
-9.406167e-02
-9.504712e-02
-9.596337e-02
-9.682724e-02
-9.765500e-02
-9.846184e-02
-9.926152e-02
-1.000663e-01
-1.008867e-01
-1.017314e-01
-1.026069e-01
-1.035174e-01
-1.044646e-01
-1.054479e-01
-1.064643e-01
-1.075092e-01
-1.085773e-01
-1.096645e-01
-1.107695e-01
-1.118948e-01
-1.130472e-01
-1.142374e-01
-1.154797e-01
-1.167904e-01
-1.181871e-01
-1.196865e-01
-1.213029e-01
-1.230452e-01
-1.249141e-01
-1.269028e-01
-1.289971e-01
-1.311763e-01
-1.334139e-01
-1.356788e-01
-1.379388e-01
-1.401645e-01
-1.423320e-01
-1.444257e-01
-1.464391e-01
-1.483718e-01
-1.502267e-01
-1.520071e-01
-1.537171e-01
-1.553618e-01
-1.569468e-01
-1.584794e-01
-1.599678e-01
-1.614200e-01
-1.628429e-01
-1.642409e-01
-1.656158e-01
-1.669661e-01
-1.682874e-01
-1.695725e-01
-1.708121e-01
-1.719954e-01
-1.731109e-01
-1.741480e-01
-1.750986e-01
-1.759593e-01
-1.767331e-01
-1.774293e-01
-1.780622e-01
-1.786488e-01
-1.792057e-01
-1.797470e-01
-1.802833e-01
-1.808227e-01
-1.813721e-01
-1.819358e-01
-1.825155e-01
-1.831096e-01
-1.837147e-01
-1.843282e-01
-1.849519e-01
-1.855960e-01
-1.862786e-01
-1.870204e-01
-1.878395e-01
-1.887476e-01
-1.897473e-01
-1.908314e-01
-1.919849e-01
-1.931856e-01
-1.944078e-01
-1.956238e-01
-1.968067e-01
-1.979332e-01
-1.989859e-01
-1.999538e-01
-2.008315e-01
-2.016194e-01
-2.023244e-01
-2.029594e-01
-2.035415e-01
-2.040898e-01
-2.046230e-01
-2.051566e-01
-2.057000e-01
-2.062550e-01
-2.068134e-01
-2.073575e-01
-2.078611e-01
-2.082913e-01
-2.086137e-01
-2.087971e-01
-2.088152e-01
-2.086481e-01
-2.082824e-01
-2.077125e-01
-2.069407e-01
-2.059778e-01
-2.048421e-01
-2.035574e-01
-2.021485e-01
-2.006374e-01
-1.990398e-01
-1.973639e-01
-1.956097e-01
-1.937706e-01
-1.918362e-01
-1.897948e-01
-1.876366e-01
-1.853562e-01
-1.829529e-01
-1.804299e-01
-1.777942e-01
-1.750565e-01
-1.722309e-01
-1.693320e-01
-1.663730e-01
-1.633629e-01
-1.603048e-01
-1.571953e-01
-1.540278e-01
-1.507969e-01
-1.475010e-01
-1.441433e-01
-1.407325e-01
-1.372817e-01
-1.338071e-01
-1.303264e-01
-1.268578e-01
-1.234176e-01
-1.200181e-01
-1.166655e-01
-1.133591e-01
-1.100921e-01
-1.068530e-01
-1.036279e-01
-1.004025e-01
-9.716404e-02
-9.390324e-02
-9.061632e-02
-8.730586e-02
-8.398110e-02
-8.065662e-02
-7.734886e-02
-7.407282e-02
-7.083981e-02
-6.765633e-02
-6.452396e-02
-6.144021e-02
-5.839964e-02
-5.539500e-02
-5.241845e-02
-4.946311e-02
-4.652550e-02
-4.360739e-02
-4.071565e-02
-3.786107e-02
-3.505666e-02
-3.231493e-02
-2.964549e-02
-2.705387e-02
-2.454111e-02
-2.210391e-02
-1.973517e-02
-1.742440e-02
-1.515820e-02
-1.292047e-02
-1.069321e-02
-8.458157e-03
-6.199172e-03
-3.905007e-03
-1.571986e-03
7.947907e-04
3.181513e-03
5.567079e-03
7.926853e-03
1.023709e-02
1.247854e-02
1.464023e-02
1.672174e-02
1.873176e-02
2.068533e-02
2.260194e-02
2.450427e-02
2.641661e-02
2.836268e-02
3.036325e-02
3.243322e-02
3.457765e-02
3.678971e-02
3.905384e-02
4.135086e-02
4.366220e-02
4.597404e-02
4.827983e-02
5.057916e-02
5.287508e-02
5.517207e-02
5.747462e-02
5.978668e-02
6.211273e-02
6.445945e-02
6.683673e-02
6.925791e-02
7.173936e-02
7.429891e-02
7.695402e-02
7.972072e-02
8.261285e-02
8.564094e-02
8.881085e-02
9.212219e-02
9.556739e-02
9.913126e-02
1.027917e-01
1.065230e-01
1.102992e-01
1.140977e-01
1.179016e-01
1.217014e-01
1.254942e-01
1.292814e-01
1.330663e-01
1.368510e-01
1.406355e-01
1.444171e-01
1.481926e-01
1.519585e-01
1.557110e-01
1.594459e-01
1.631583e-01
1.668425e-01
1.704935e-01
1.741088e-01
1.776899e-01
1.812414e-01
1.847686e-01
1.882759e-01
1.917662e-01
1.952411e-01
1.987026e-01
2.021555e-01
2.056081e-01
2.090704e-01
2.125524e-01
2.160616e-01
2.196007e-01
2.231672e-01
2.267537e-01
2.303502e-01
2.339448e-01
2.375262e-01
2.410841e-01
2.446087e-01
2.480904e-01
2.515201e-01
2.548893e-01
2.581905e-01
2.614201e-01
2.645782e-01
2.676684e-01
2.706958e-01
2.736648e-01
2.765779e-01
2.794347e-01
2.822339e-01
2.849750e-01
2.876601e-01
2.902932e-01
2.928800e-01
2.954261e-01
2.979349e-01
3.004064e-01
3.028371e-01
3.052195e-01
3.075440e-01
3.097998e-01
3.119769e-01
3.140667e-01
3.160624e-01
3.179577e-01
3.197452e-01
3.214158e-01
3.229583e-01
3.243612e-01
3.256152e-01
3.267162e-01
3.276673e-01
3.284786e-01
3.291670e-01
3.297521e-01
3.302529e-01
3.306848e-01
3.310581e-01
3.313774e-01
3.316428e-01
3.318519e-01
3.320020e-01
3.320923e-01
3.321251e-01
3.321064e-01
3.320453e-01
3.319527e-01
3.318415e-01
3.317252e-01
3.316170e-01
3.315287e-01
3.314693e-01
3.314433e-01
3.314490e-01
3.314801e-01
3.315269e-01
3.315779e-01
3.316224e-01
3.316509e-01
3.316563e-01
3.316331e-01
3.315770e-01
3.314845e-01
3.313518e-01
3.311750e-01
3.309508e-01
3.306760e-01
3.303468e-01
3.299579e-01
3.295034e-01
3.289770e-01
3.283737e-01
3.276919e-01
3.269346e-01
3.261083e-01
3.252209e-01
3.242800e-01
3.232912e-01
3.222580e-01
3.211812e-01
3.200597e-01
3.188916e-01
3.176743e-01
3.164057e-01
3.150842e-01
3.137089e-01
3.122787e-01
3.107916e-01
3.092433e-01
3.076273e-01
3.059354e-01
3.041585e-01
3.022883e-01
3.003186e-01
2.982470e-01
2.960764e-01
2.938151e-01
2.914774e-01
2.890829e-01
2.866536e-01
2.842119e-01
2.817777e-01
2.793653e-01
2.769815e-01
2.746255e-01
2.722896e-01
2.699611e-01
2.676254e-01
2.652689e-01
2.628814e-01
2.604580e-01
2.579991e-01
2.555102e-01
2.529998e-01
2.504772e-01
2.479503e-01
2.454240e-01
2.428997e-01
2.403754e-01
2.378472e-01
2.353112e-01
2.327649e-01
2.302085e-01
2.276444e-01
2.250765e-01
2.225075e-01
2.199380e-01
2.173662e-01
2.147876e-01
2.121973e-01
2.095912e-01
2.069671e-01
2.043232e-01
2.016579e-01
1.989699e-01
1.962584e-01
1.935249e-01
1.907744e-01
1.880162e-01
1.852606e-01
1.825163e-01
1.797868e-01
1.770691e-01
1.743524e-01
1.716200e-01
1.688529e-01
1.660320e-01
1.631407e-01
1.601675e-01
1.571068e-01
1.539600e-01
1.507351e-01
1.474469e-01
1.441156e-01
1.407657e-01
1.374238e-01
1.341160e-01
1.308659e-01
1.276914e-01
1.246044e-01
1.216112e-01
1.187125e-01
1.159054e-01
1.131845e-01
1.105439e-01
1.079790e-01
1.054870e-01
1.030676e-01
1.007222e-01
9.845337e-02
9.626269e-02
9.415071e-02
9.211751e-02
9.016304e-02
8.828685e-02
8.648727e-02
8.476041e-02
8.309857e-02
8.148947e-02
7.991698e-02
7.836278e-02
7.680818e-02
7.523687e-02
7.363712e-02
7.200231e-02
7.033045e-02
6.862299e-02
6.688285e-02
6.511330e-02
6.331888e-02
6.150700e-02
5.968810e-02
5.787389e-02
5.607494e-02
5.429790e-02
5.254328e-02
5.080525e-02
4.907358e-02
4.733575e-02
4.557873e-02
4.379026e-02
4.195987e-02
4.008025e-02
3.814837e-02
3.616599e-02
3.413971e-02
3.208038e-02
3.000169e-02
2.791833e-02
2.584385e-02
2.378866e-02
2.175927e-02
1.975832e-02
1.778507e-02
1.583645e-02
1.390821e-02
1.199548e-02
1.009301e-02
8.195772e-03
6.300035e-03
4.404585e-03
2.511394e-03
6.258095e-04
-1.243857e-03
-3.087839e-03
-4.896679e-03
-6.662132e-03
-8.377410e-03
-1.003693e-02
-1.163525e-02
-1.316595e-02
-1.462133e-02
-1.599321e-02
-1.727384e-02
-1.845686e-02
-1.953797e-02
-2.051501e-02
-2.138733e-02
-2.215515e-02
-2.281912e-02
-2.338009e-02
-2.383909e-02
-2.419747e-02
-2.445676e-02
-2.461813e-02
-2.468157e-02
-2.464526e-02
-2.450500e-02
-2.425446e-02
-2.388717e-02
-2.339906e-02
-2.279033e-02
-2.206731e-02
-2.124291e-02
-2.033462e-02
-1.936151e-02
-1.834201e-02
-1.729172e-02
-1.622166e-02
-1.513761e-02
-1.404004e-02
-1.292431e-02
-1.178159e-02
-1.060061e-02
-9.371163e-03
-8.087912e-03
-6.752562e-03
-5.375001e-03
-3.972895e-03
-2.568404e-03
-1.184074e-03
1.599515e-04
1.448266e-03
2.672059e-03
3.829756e-03
4.926997e-03
5.975917e-03
6.993385e-03
7.998614e-03
9.010111e-03
1.004280e-02
1.110657e-02
1.220563e-02
1.333837e-02
1.449808e-02
1.567399e-02
1.685251e-02
1.801916e-02
1.916043e-02
2.026527e-02
2.132608e-02
2.233897e-02
2.330353e-02
2.422221e-02
2.509915e-02
2.593898e-02
2.674574e-02
2.752185e-02
2.826754e-02
2.898136e-02
2.966118e-02
3.030493e-02
3.091140e-02
3.148092e-02
3.201588e-02
3.252106e-02
3.300384e-02
3.347415e-02
3.394351e-02
3.442278e-02
3.491953e-02
3.543667e-02
3.597221e-02
3.651964e-02
3.706940e-02
3.761064e-02
3.813205e-02
3.862221e-02
3.907036e-02
3.946791e-02
3.980989e-02
4.009513e-02
4.032491e-02
4.050139e-02
4.062628e-02
4.069996e-02
4.072203e-02
4.069328e-02
4.061703e-02
4.049857e-02
4.034378e-02
4.015847e-02
3.994820e-02
3.971843e-02
3.947487e-02
3.922370e-02
3.897084e-02
3.871992e-02
3.847049e-02
3.821756e-02
3.795170e-02
3.765953e-02
3.732456e-02
3.692862e-02
3.645369e-02
3.588399e-02
3.520744e-02
3.441730e-02
3.351311e-02
3.250037e-02
3.138952e-02
3.019524e-02
2.893552e-02
2.763049e-02
2.630070e-02
2.496529e-02
2.364119e-02
2.234260e-02
2.108081e-02
1.986440e-02
1.869957e-02
1.759027e-02
1.653823e-02
1.554314e-02
1.460343e-02
1.371711e-02
1.288216e-02
1.209663e-02
1.135890e-02
1.066796e-02
1.002385e-02
9.428014e-03
8.883509e-03
8.394913e-03
7.967405e-03
7.605671e-03
7.313444e-03
7.093571e-03
6.948271e-03
6.879578e-03
6.889579e-03
6.979427e-03
7.146959e-03
7.385069e-03
7.682483e-03
8.025721e-03
8.401608e-03
8.800731e-03
9.219664e-03
9.659916e-03
1.012556e-02
1.062165e-02
1.115313e-02
1.172413e-02
1.233775e-02
1.299602e-02
1.369894e-02
1.444249e-02
1.521697e-02
1.600683e-02
1.679145e-02
1.754656e-02
1.824709e-02
1.887014e-02
1.939755e-02
1.981781e-02
2.012652e-02
2.032586e-02
2.042348e-02
2.043085e-02
2.036156e-02
2.023015e-02
2.005093e-02
1.983671e-02
1.959781e-02
1.934134e-02
1.907097e-02
1.878726e-02
1.848843e-02
1.817169e-02
1.783485e-02
1.747758e-02
1.710282e-02
1.671730e-02
1.633026e-02
1.595143e-02
1.558936e-02
1.524972e-02
1.493408e-02
1.463987e-02
1.436098e-02
1.408856e-02
1.381252e-02
1.352335e-02
1.321424e-02
1.288306e-02
1.253280e-02
1.217090e-02
1.180794e-02
1.145572e-02
1.112540e-02
1.082635e-02
1.056523e-02
1.034514e-02
1.016518e-02
1.002021e-02
9.901218e-03
9.796564e-03
