EVENT_NAME: EMILIA_2ND_SHOCK
EVENT_ID: IT-2012-0011
EVENT_DATE_YYYYMMDD: 20120529
EVENT_TIME_HHMMSS: 070002
EVENT_LATITUDE_DEGREE: 44.8417
EVENT_LONGITUDE_DEGREE: 11.0657
EVENT_DEPTH_KM: 8.1
HYPOCENTER_REFERENCE: INGV-CNT_Seismic_Bulletin
MAGNITUDE_W: 6.0
MAGNITUDE_W_REFERENCE: RCMT-INGV
MAGNITUDE_L: 5.8
MAGNITUDE_L_REFERENCE: INGV-CNT_Seismic_Bulletin
FOCAL_MECHANISM: TF
NETWORK: IV
STATION_CODE: T0824
STATION_NAME: T0824
STATION_LATITUDE_DEGREE: 44.759400
STATION_LONGITUDE_DEGREE: 10.927600
STATION_ELEVATION_M: 72
LOCATION: 
SENSOR_DEPTH_M: 1.0
VS30_M/S: 
SITE_CLASSIFICATION_EC8: C*
MORPHOLOGIC_CLASSIFICATION: 
EPICENTRAL_DISTANCE_KM: 14.2
EARTHQUAKE_BACKAZIMUTH_DEGREE: 50.0
DATE_TIME_FIRST_SAMPLE_YYYYMMDD_HHMMSS: 20120529_065943.000
DATE_TIME_FIRST_SAMPLE_PRECISION: milliseconds
SAMPLING_INTERVAL_S: 0.005000
NDATA: 22001
DURATION_S: 110.005
STREAM: HNN
UNITS: cm
INSTRUMENT: sensor = Episensor FBA ES-T [Kinemetrics] | digitizer = Unknown [Unknown]
INSTRUMENT_ANALOG/DIGITAL: D
INSTRUMENTAL_FREQUENCY_HZ: 
INSTRUMENTAL_DAMPING: 
FULL_SCALE_G: 
N_BIT_DIGITAL_CONVERTER: 
PGD_CM: 2.853452
TIME_PGD_S: 30.695000
BASELINE_CORRECTION: BASELINE REMOVED
FILTER_TYPE: BUTTERWORTH
FILTER_ORDER: 2
LOW_CUT_FREQUENCY_HZ: 0.060
HIGH_CUT_FREQUENCY_HZ: 40.000
LATE/NORMAL_TRIGGERED: NT
DATABASE_VERSION: DYNA 1.0
HEADER_FORMAT: DYNA 1.2
DATA_TYPE: DISPLACEMENT
PROCESSING: manual (Paolucci et al., 2011)
DATA_TIMESTAMP_YYYYMMDD_HHMMSS: 
DATA_LICENSE: CC-BY4_0 (http://creativecommons.org/licenses/by/4.0/)
DATA_CITATION: ESM working group (2015), European Strong-Motion database, version 0.1, Network Activity 3: Networking acceleration networks and SM data users. Project NERA (www.nera-eu.org)
DATA_CREATOR: ESM working group
ORIGINAL_DATA_MEDIATOR_CITATION: Orfeus - European Integrated Data Archive (EIDA) http://www.orfeus-eu.org/eida/
ORIGINAL_DATA_MEDIATOR: Orfeus - European Integrated Data Archive (EIDA)
ORIGINAL_DATA_CREATOR_CITATION: Data for this study comes from the Italian national seismic network operated by Istituto Nazionale di Geofisica e Vulcanologia and archived at the European Integrated Data Archive http://eida.rm.ingv.it/
ORIGINAL_DATA_CREATOR: network: IV (Italian National Seismic Network); owner: Istituto Nazionale di Geofisica e Vulcanologia
USER1: 
USER2: 
USER3: 
USER4: 
USER5: 
[...]
-7.287591e-01
-7.288988e-01
-7.292242e-01
-7.295843e-01
-7.298833e-01
-7.301140e-01
-7.303182e-01
-7.305232e-01
-7.307136e-01
-7.308534e-01
-7.309207e-01
-7.309159e-01
-7.308392e-01
-7.306723e-01
-7.303946e-01
-7.300182e-01
-7.296038e-01
-7.292411e-01
-7.290070e-01
-7.289289e-01
-7.289703e-01
-7.290479e-01
-7.290775e-01
-7.290179e-01
-7.288837e-01
-7.287210e-01
-7.285679e-01
-7.284264e-01
-7.282601e-01
-7.280169e-01
-7.276643e-01
-7.272105e-01
-7.266948e-01
-7.261581e-01
-7.256222e-01
-7.250906e-01
-7.245566e-01
-7.240038e-01
-7.234002e-01
-7.227036e-01
-7.218831e-01
-7.209447e-01
-7.199396e-01
-7.189449e-01
-7.180277e-01
-7.172190e-01
-7.165122e-01
-7.158826e-01
-7.153082e-01
-7.147777e-01
-7.142839e-01
-7.138051e-01
-7.132903e-01
-7.126605e-01
-7.118385e-01
-7.107901e-01
-7.095508e-01
-7.082174e-01
-7.069138e-01
-7.057486e-01
-7.047824e-01
-7.040181e-01
-7.034170e-01
-7.029230e-01
-7.024795e-01
-7.020363e-01
-7.015536e-01
-7.010108e-01
-7.004126e-01
-6.997802e-01
-6.991281e-01
-6.984432e-01
-6.976857e-01
-6.968140e-01
-6.958163e-01
-6.947291e-01
-6.936305e-01
-6.926136e-01
-6.917505e-01
-6.910673e-01
-6.905378e-01
-6.900929e-01
-6.896378e-01
-6.890760e-01
-6.883410e-01
-6.874205e-01
-6.863554e-01
-6.852165e-01
-6.840782e-01
-6.830043e-01
-6.820445e-01
-6.812284e-01
-6.805564e-01
-6.800017e-01
-6.795300e-01
-6.791176e-01
-6.787496e-01
-6.784033e-01
-6.780364e-01
-6.775922e-01
-6.770198e-01
-6.762974e-01
-6.754439e-01
-6.745117e-01
-6.735627e-01
-6.726420e-01
-6.717694e-01
-6.709549e-01
-6.702223e-01
-6.696143e-01
-6.691631e-01
-6.688455e-01
-6.685639e-01
-6.681790e-01
-6.675765e-01
-6.667236e-01
-6.656759e-01
-6.645332e-01
-6.633794e-01
-6.622579e-01
-6.611910e-01
-6.602025e-01
-6.593043e-01
-6.584651e-01
-6.576035e-01
-6.566217e-01
-6.554534e-01
-6.540929e-01
-6.525965e-01
-6.510559e-01
-6.495557e-01
-6.481366e-01
-6.467878e-01
-6.454735e-01
-6.441639e-01
-6.428471e-01
-6.415257e-01
-6.402144e-01
-6.389366e-01
-6.377100e-01
-6.365321e-01
-6.353817e-01
-6.342321e-01
-6.330559e-01
-6.318190e-01
-6.304778e-01
-6.289949e-01
-6.273638e-01
-6.256279e-01
-6.238744e-01
-6.221959e-01
-6.206400e-01
-6.191825e-01
-6.177456e-01
-6.162403e-01
-6.146021e-01
-6.128063e-01
-6.108716e-01
-6.088567e-01
-6.068433e-01
-6.049011e-01
-6.030452e-01
-6.012146e-01
-5.992935e-01
-5.971696e-01
-5.947875e-01
-5.921642e-01
-5.893621e-01
-5.864522e-01
-5.834995e-01
-5.805720e-01
-5.777452e-01
-5.750790e-01
-5.725860e-01
-5.702225e-01
-5.679082e-01
-5.655529e-01
-5.630756e-01
-5.604192e-01
-5.575644e-01
-5.545347e-01
-5.513787e-01
-5.481408e-01
-5.448514e-01
-5.415469e-01
-5.382919e-01
-5.351691e-01
-5.322388e-01
-5.295017e-01
-5.268931e-01
-5.243155e-01
-5.216861e-01
-5.189709e-01
-5.161885e-01
-5.133856e-01
-5.106085e-01
-5.078890e-01
-5.052430e-01
-5.026657e-01
-5.001251e-01
-4.975749e-01
-4.949894e-01
-4.923860e-01
-4.898065e-01
-4.872721e-01
-4.847604e-01
-4.822216e-01
-4.796114e-01
-4.769095e-01
-4.741217e-01
-4.712753e-01
-4.684093e-01
-4.655592e-01
-4.627431e-01
-4.599528e-01
-4.571487e-01
-4.542687e-01
-4.512563e-01
-4.480963e-01
-4.448310e-01
-4.415416e-01
-4.383102e-01
-4.351857e-01
-4.321702e-01
-4.292246e-01
-4.262810e-01
-4.232583e-01
-4.200869e-01
-4.167422e-01
-4.132680e-01
-4.097616e-01
-4.063301e-01
-4.030439e-01
-3.999070e-01
-3.968497e-01
-3.937467e-01
-3.904612e-01
-3.869026e-01
-3.830652e-01
-3.790251e-01
-3.748932e-01
-3.707600e-01
-3.666681e-01
-3.626220e-01
-3.586130e-01
-3.546333e-01
-3.506768e-01
-3.467345e-01
-3.427929e-01
-3.388395e-01
-3.348725e-01
-3.309054e-01
-3.269585e-01
-3.230389e-01
-3.191255e-01
-3.151727e-01
-3.111375e-01
-3.070157e-01
-3.028591e-01
-2.987567e-01
-2.947843e-01
-2.909635e-01
-2.872631e-01
-2.836334e-01
-2.800349e-01
-2.764300e-01
-2.727595e-01
-2.689402e-01
-2.648967e-01
-2.605974e-01
-2.560653e-01
-2.513670e-01
-2.465983e-01
-2.418659e-01
-2.372590e-01
-2.328094e-01
-2.284609e-01
-2.240806e-01
-2.195182e-01
-2.146736e-01
-2.095200e-01
-2.040749e-01
-1.983588e-01
-1.923851e-01
-1.861804e-01
-1.797987e-01
-1.733045e-01
-1.667438e-01
-1.601401e-01
-1.535162e-01
-1.469099e-01
-1.403515e-01
-1.338233e-01
-1.272479e-01
-1.205289e-01
-1.136048e-01
-1.064614e-01
-9.910017e-02
-9.150401e-02
-8.363542e-02
-7.546008e-02
-6.696498e-02
-5.815821e-02
-4.906358e-02
-3.972223e-02
-3.019567e-02
-2.055825e-02
-1.087886e-02
-1.207875e-03
8.414553e-03
1.793640e-02
2.728817e-02
3.641211e-02
4.530856e-02
5.406088e-02
6.281918e-02
7.176094e-02
8.105679e-02
9.085037e-02
1.012485e-01
1.123230e-01
1.241247e-01
1.366988e-01
1.500849e-01
1.642995e-01
1.793230e-01
1.951122e-01
2.116351e-01
2.288983e-01
2.469431e-01
2.658075e-01
2.854797e-01
3.058717e-01
3.268315e-01
3.481844e-01
3.697694e-01
3.914435e-01
4.130562e-01
4.344181e-01
4.552865e-01
4.753801e-01
4.944176e-01
5.121653e-01
5.284734e-01
5.432800e-01
5.565837e-01
5.684050e-01
5.787539e-01
5.876053e-01
5.948846e-01
6.004637e-01
6.041716e-01
6.058232e-01
6.052661e-01
6.024296e-01
5.973499e-01
5.901537e-01
5.810102e-01
5.700781e-01
5.574794e-01
5.433098e-01
5.276602e-01
5.106333e-01
4.923606e-01
4.730298e-01
4.529133e-01
4.323734e-01
4.118370e-01
3.917479e-01
3.725109e-01
3.544531e-01
3.378152e-01
3.227584e-01
3.093731e-01
2.976898e-01
2.876942e-01
2.793440e-01
2.725820e-01
2.673442e-01
2.635631e-01
2.611623e-01
2.600458e-01
2.600919e-01
2.611679e-01
2.631552e-01
2.659642e-01
2.695179e-01
2.737112e-01
2.783740e-01
2.832707e-01
2.881441e-01
2.927719e-01
2.970014e-01
3.007560e-01
3.040207e-01
3.068163e-01
3.091665e-01
3.110758e-01
3.125274e-01
3.134989e-01
3.139791e-01
3.139733e-01
3.135045e-01
3.126283e-01
3.114607e-01
3.101814e-01
3.089829e-01
3.080001e-01
3.072812e-01
3.068158e-01
3.065788e-01
3.065579e-01
3.067646e-01
3.072299e-01
3.079882e-01
3.090677e-01
3.105083e-01
3.123908e-01
3.148344e-01
3.179443e-01
3.217454e-01
3.261526e-01
3.309920e-01
3.360537e-01
3.411501e-01
3.461618e-01
3.510488e-01
3.558222e-01
3.604983e-01
3.650641e-01
3.694630e-01
3.735995e-01
3.773713e-01
3.807260e-01
3.837131e-01
3.864977e-01
3.893314e-01
3.924947e-01
3.962300e-01
4.006872e-01
4.059038e-01
4.118181e-01
4.183061e-01
4.252329e-01
4.325084e-01
4.401189e-01
4.481061e-01
4.565057e-01
4.652929e-01
4.743714e-01
4.836076e-01
4.928877e-01
5.021671e-01
5.114946e-01
5.210101e-01
5.309267e-01
5.415005e-01
5.529825e-01
5.655618e-01
5.793281e-01
5.942739e-01
6.103309e-01
6.274101e-01
6.454062e-01
6.641684e-01
6.834809e-01
7.030825e-01
7.227183e-01
7.421855e-01
7.613424e-01
7.800826e-01
7.983033e-01
8.158925e-01
8.327386e-01
8.487483e-01
8.638558e-01
8.780191e-01
8.912086e-01
9.033988e-01
9.145644e-01
9.246844e-01
9.337553e-01
9.418094e-01
9.489247e-01
9.552217e-01
9.608490e-01
9.659601e-01
9.706887e-01
9.751371e-01
9.793843e-01
9.835027e-01
9.875679e-01
9.916578e-01
9.958470e-01
1.000203e+00
1.004786e+00
1.009649e+00
1.014858e+00
1.020505e+00
1.026698e+00
1.033534e+00
1.041069e+00
1.049304e+00
1.058195e+00
1.067682e+00
1.077738e+00
1.088410e+00
1.099808e+00
1.112046e+00
1.125167e+00
1.139113e+00
1.153742e+00
1.168891e+00
1.184420e+00
1.200238e+00
1.216283e+00
1.232484e+00
1.248728e+00
1.264852e+00
1.280656e+00
1.295930e+00
1.310491e+00
1.324192e+00
1.336923e+00
1.348597e+00
1.359148e+00
1.368527e+00
1.376705e+00
1.383685e+00
1.389514e+00
1.394284e+00
1.398130e+00
1.401237e+00
1.403862e+00
1.406323e+00
1.408966e+00
1.412122e+00
1.416073e+00
1.421021e+00
1.427066e+00
1.434188e+00
1.442260e+00
1.451091e+00
1.460453e+00
1.470092e+00
1.479722e+00
1.489017e+00
1.497641e+00
1.505289e+00
1.511766e+00
1.517030e+00
1.521216e+00
1.524596e+00
1.527526e+00
1.530375e+00
1.533500e+00
1.537205e+00
1.541710e+00
1.547114e+00
1.553383e+00
1.560384e+00
1.567936e+00
1.575851e+00
1.583940e+00
1.592007e+00
1.599865e+00
1.607360e+00
1.614401e+00
1.620956e+00
1.627053e+00
1.632781e+00
1.638298e+00
1.643828e+00
1.649609e+00
1.655825e+00
1.662544e+00
1.669708e+00
1.677183e+00
1.684823e+00
1.692510e+00
1.700167e+00
1.707760e+00
1.715306e+00
1.722874e+00
1.730580e+00
1.738539e+00
1.746844e+00
1.755562e+00
1.764767e+00
1.774560e+00
1.785051e+00
1.796327e+00
1.808440e+00
1.821424e+00
1.835320e+00
1.850183e+00
1.866059e+00
1.882959e+00
1.900834e+00
1.919554e+00
1.938899e+00
1.958559e+00
1.978164e+00
1.997336e+00
2.015763e+00
2.033240e+00
2.049660e+00
2.064966e+00
2.079097e+00
2.091973e+00
2.103509e+00
2.113642e+00
2.122341e+00
2.129593e+00
2.135385e+00
2.139696e+00
2.142472e+00
2.143607e+00
2.142938e+00
2.140274e+00
2.135459e+00
2.128433e+00
2.119255e+00
2.108088e+00
2.095169e+00
2.080768e+00
2.065156e+00
2.048585e+00
2.031271e+00
2.013369e+00
1.994965e+00
1.976077e+00
1.956664e+00
1.936663e+00
1.916036e+00
1.894785e+00
1.872951e+00
1.850579e+00
1.827703e+00
1.804363e+00
1.780637e+00
1.756660e+00
1.732617e+00
1.708713e+00
1.685147e+00
1.662096e+00
1.639690e+00
1.618002e+00
1.597042e+00
1.576768e+00
1.557124e+00
1.538079e+00
1.519647e+00
1.501883e+00
1.484867e+00
1.468682e+00
1.453388e+00
1.438954e+00
1.425206e+00
1.411829e+00
1.398446e+00
1.384699e+00
1.370298e+00
1.355026e+00
1.338729e+00
1.321320e+00
1.302782e+00
1.283194e+00
1.262731e+00
1.241651e+00
1.220247e+00
1.198801e+00
1.177559e+00
1.156735e+00
1.136503e+00
1.116995e+00
1.098273e+00
1.080331e+00
1.063107e+00
1.046492e+00
1.030321e+00
1.014390e+00
9.985178e-01
9.826173e-01
9.667334e-01
9.510027e-01
9.355555e-01
9.204197e-01
9.055036e-01
8.906770e-01
8.758802e-01
8.611593e-01
8.466092e-01
8.322991e-01
8.182537e-01
8.044803e-01
7.910037e-01
7.779024e-01
7.653341e-01
7.535152e-01
7.426508e-01
7.328799e-01
7.242881e-01
7.169426e-01
7.108729e-01
7.059887e-01
7.020141e-01
6.985124e-01
6.949924e-01
6.910217e-01
6.862940e-01
6.806508e-01
6.740753e-01
6.666695e-01
6.586154e-01
6.501302e-01
6.414338e-01
6.327436e-01
6.242813e-01
6.162710e-01
6.089267e-01
6.024431e-01
5.969931e-01
5.927227e-01
5.897386e-01
5.880991e-01
5.878213e-01
5.889024e-01
5.913430e-01
5.951595e-01
6.003751e-01
6.069967e-01
6.149850e-01
6.242266e-01
6.345134e-01
6.455421e-01
6.569581e-01
6.684435e-01
6.798054e-01
6.910155e-01
7.021956e-01
7.135634e-01
7.253626e-01
7.378083e-01
7.510710e-01
7.652862e-01
7.805609e-01
7.969696e-01
8.145506e-01
8.333157e-01
8.532626e-01
8.743713e-01
8.965813e-01
9.197673e-01
9.437292e-01
9.682098e-01
9.929397e-01
1.017693e+00
1.042328e+00
1.066800e+00
1.091143e+00
1.115451e+00
1.139874e+00
1.164611e+00
1.189891e+00
1.215931e+00
1.242889e+00
1.270842e+00
1.299797e+00
1.329704e+00
1.360462e+00
1.391919e+00
1.423861e+00
1.456007e+00
1.488013e+00
1.519503e+00
1.550109e+00
1.579526e+00
1.607545e+00
1.634042e+00
1.658944e+00
1.682204e+00
1.703778e+00
1.723626e+00
1.741702e+00
1.757941e+00
1.772244e+00
1.784479e+00
1.794499e+00
1.802167e+00
1.807371e+00
1.810046e+00
1.810176e+00
1.807794e+00
1.802957e+00
1.795730e+00
1.786168e+00
1.774321e+00
1.760272e+00
1.744211e+00
1.726479e+00
1.707554e+00
1.687969e+00
1.668214e+00
1.648669e+00
1.629609e+00
1.611253e+00
1.593811e+00
1.577476e+00
1.562383e+00
1.548591e+00
1.536107e+00
1.524927e+00
1.515054e+00
1.506481e+00
1.499166e+00
1.493005e+00
1.487815e+00
1.483341e+00
1.479320e+00
1.475566e+00
1.472030e+00
1.468792e+00
1.466008e+00
1.463861e+00
1.462530e+00
1.462173e+00
1.462910e+00
1.464791e+00
1.467750e+00
1.471600e+00
1.476088e+00
1.480976e+00
1.486087e+00
1.491301e+00
1.496523e+00
1.501666e+00
1.506643e+00
1.511371e+00
1.515775e+00
1.519792e+00
1.523381e+00
1.526524e+00
1.529224e+00
1.531525e+00
1.533537e+00
1.535447e+00
1.537533e+00
1.540136e+00
1.543595e+00
1.548199e+00
1.554178e+00
1.561705e+00
1.570884e+00
1.581724e+00
1.594154e+00
1.608082e+00
1.623441e+00
1.640198e+00
1.658329e+00
1.677817e+00
1.698648e+00
1.720829e+00
1.744375e+00
1.769292e+00
1.795536e+00
1.822990e+00
1.851476e+00
1.880788e+00
1.910729e+00
1.941108e+00
1.971735e+00
2.002405e+00
2.032892e+00
2.062944e+00
2.092295e+00
2.120692e+00
2.147932e+00
2.173885e+00
2.198488e+00
2.221726e+00
2.243600e+00
2.264104e+00
2.283229e+00
2.300982e+00
2.317423e+00
2.332683e+00
2.346977e+00
2.360608e+00
2.373961e+00
2.387478e+00
2.401607e+00
2.416723e+00
2.433069e+00
2.450763e+00
2.469859e+00
2.490406e+00
2.512441e+00
2.535911e+00
2.560566e+00
2.585888e+00
2.611129e+00
2.635474e+00
2.658242e+00
2.679002e+00
2.697572e+00
2.713961e+00
2.728286e+00
2.740718e+00
2.751438e+00
2.760632e+00
2.768519e+00
2.775381e+00
2.781546e+00
2.787342e+00
2.793057e+00
2.798916e+00
2.805059e+00
2.811504e+00
2.818144e+00
2.824794e+00
2.831249e+00
2.837299e+00
2.842705e+00
2.847218e+00
2.850619e+00
2.852741e+00
2.853452e+00
2.852625e+00
2.850150e+00
2.845960e+00
2.840051e+00
2.832478e+00
2.823344e+00
2.812765e+00
2.800819e+00
2.787519e+00
2.772822e+00
2.756638e+00
2.738828e+00
2.719204e+00
2.697529e+00
2.673587e+00
2.647297e+00
2.618832e+00
2.588639e+00
2.557341e+00
2.525557e+00
2.493757e+00
2.462233e+00
2.431159e+00
2.400658e+00
2.370818e+00
2.341700e+00
2.313348e+00
2.285805e+00
2.259130e+00
2.233390e+00
2.208662e+00
2.185048e+00
2.162689e+00
2.141771e+00
2.122514e+00
2.105153e+00
2.089909e+00
2.076975e+00
2.066503e+00
2.058595e+00
2.053327e+00
2.050763e+00
2.050957e+00
2.053913e+00
2.059519e+00
2.067498e+00
2.077393e+00
2.088610e+00
2.100489e+00
2.112411e+00
2.123870e+00
2.134484e+00
2.143957e+00
2.152043e+00
2.158537e+00
2.163282e+00
2.166184e+00
2.167205e+00
2.166342e+00
2.163583e+00
2.158890e+00
2.152174e+00
2.143291e+00
2.132046e+00
2.118245e+00
2.101751e+00
2.082515e+00
2.060534e+00
2.035807e+00
2.008298e+00
1.977952e+00
1.944721e+00
1.908620e+00
1.869759e+00
1.828341e+00
1.784606e+00
1.738794e+00
1.691140e+00
1.641849e+00
1.591066e+00
1.538850e+00
1.485196e+00
1.430064e+00
1.373394e+00
1.315117e+00
1.255179e+00
1.193568e+00
1.130313e+00
1.065473e+00
9.991089e-01
9.312799e-01
8.620591e-01
7.915588e-01
7.199439e-01
6.474288e-01
5.742717e-01
5.007680e-01
4.272375e-01
3.540012e-01
2.813561e-01
2.095524e-01
1.387804e-01
6.917480e-02
8.329610e-04
-6.617015e-02
-1.317838e-01
-1.960033e-01
-2.588967e-01
-3.206202e-01
-3.814064e-01
-4.415213e-01
-5.012074e-01
-5.606363e-01
-6.198833e-01
-6.789212e-01
-7.376304e-01
-7.958220e-01
-8.532714e-01
-9.097511e-01
-9.650469e-01
-1.018957e+00
-1.071292e+00
-1.121875e+00
-1.170548e+00
-1.217156e+00
-1.261544e+00
-1.303559e+00
-1.343077e+00
-1.380024e+00
-1.414380e+00
-1.446170e+00
-1.475438e+00
-1.502240e+00
-1.526647e+00
-1.548758e+00
-1.568691e+00
-1.586554e+00
-1.602429e+00
-1.616381e+00
-1.628478e+00
-1.638828e+00
-1.647591e+00
-1.654980e+00
-1.661231e+00
-1.666567e+00
-1.671160e+00
-1.675119e+00
-1.678479e+00
-1.681184e+00
-1.683071e+00
-1.683920e+00
-1.683554e+00
-1.681923e+00
-1.679089e+00
-1.675153e+00
-1.670184e+00
-1.664204e+00
-1.657238e+00
-1.649368e+00
-1.640762e+00
-1.631632e+00
-1.622166e+00
-1.612477e+00
-1.602604e+00
-1.592556e+00
-1.582351e+00
-1.572038e+00
-1.561703e+00
-1.551458e+00
-1.541412e+00
-1.531630e+00
-1.522108e+00
-1.512759e+00
-1.503432e+00
-1.493933e+00
-1.484053e+00
-1.473603e+00
-1.462446e+00
-1.450518e+00
-1.437835e+00
-1.424484e+00
-1.410624e+00
-1.396464e+00
-1.382245e+00
-1.368220e+00
-1.354629e+00
-1.341693e+00
-1.329616e+00
-1.318582e+00
-1.308741e+00
-1.300183e+00
-1.292906e+00
-1.286817e+00
-1.281748e+00
-1.277484e+00
-1.273795e+00
-1.270470e+00
-1.267342e+00
-1.264299e+00
-1.261294e+00
-1.258334e+00
-1.255439e+00
-1.252605e+00
-1.249784e+00
-1.246915e+00
-1.243977e+00
-1.241026e+00
-1.238210e+00
-1.235754e+00
-1.233929e+00
-1.233012e+00
-1.233253e+00
-1.234863e+00
-1.238011e+00
-1.242826e+00
-1.249403e+00
-1.257802e+00
-1.268048e+00
-1.280143e+00
-1.294058e+00
-1.309740e+00
-1.327113e+00
-1.346088e+00
-1.366576e+00
-1.388493e+00
-1.411745e+00
-1.436195e+00
-1.461637e+00
-1.487797e+00
-1.514375e+00
-1.541115e+00
-1.567843e+00
-1.594462e+00
-1.620904e+00
-1.647092e+00
-1.672945e+00
-1.698403e+00
-1.723460e+00
-1.748154e+00
-1.772536e+00
-1.796640e+00
-1.820473e+00
-1.844012e+00
-1.867212e+00
-1.890007e+00
-1.912306e+00
-1.933993e+00
-1.954932e+00
-1.974973e+00
-1.993954e+00
-2.011713e+00
-2.028111e+00
-2.043059e+00
-2.056537e+00
-2.068583e+00
-2.079265e+00
-2.088660e+00
-2.096845e+00
-2.103907e+00
-2.109949e+00
-2.115102e+00
-2.119527e+00
-2.123385e+00
-2.126793e+00
-2.129793e+00
-2.132336e+00
-2.134288e+00
-2.135452e+00
-2.135614e+00
-2.134576e+00
-2.132199e+00
-2.128416e+00
-2.123226e+00
-2.116669e+00
-2.108811e+00
-2.099745e+00
-2.089594e+00
-2.078512e+00
-2.066657e+00
-2.054160e+00
-2.041110e+00
-2.027583e+00
-2.013683e+00
-1.999587e+00
-1.985543e+00
-1.971851e+00
-1.958819e+00
-1.946721e+00
-1.935788e+00
-1.926206e+00
-1.918136e+00
-1.911724e+00
-1.907082e+00
-1.904255e+00
-1.903179e+00
-1.903650e+00
-1.905305e+00
-1.907635e+00
-1.910039e+00
-1.911932e+00
-1.912851e+00
-1.912512e+00
-1.910776e+00
-1.907594e+00
-1.902956e+00
-1.896879e+00
-1.889399e+00
-1.880573e+00
-1.870487e+00
-1.859242e+00
-1.846941e+00
-1.833669e+00
-1.819491e+00
-1.804445e+00
-1.788513e+00
-1.771607e+00
-1.753573e+00
-1.734226e+00
-1.713395e+00
-1.690962e+00
-1.666886e+00
-1.641199e+00
-1.614000e+00
-1.585427e+00
-1.555638e+00
-1.524797e+00
-1.493056e+00
-1.460533e+00
-1.427287e+00
-1.393318e+00
-1.358588e+00
-1.323047e+00
-1.286650e+00
-1.249366e+00
-1.211175e+00
-1.172057e+00
-1.131985e+00
-1.090932e+00
-1.048900e+00
-1.005933e+00
-9.621196e-01
-9.175835e-01
-8.724701e-01
-8.269328e-01
-7.811244e-01
-7.351984e-01
-6.893298e-01
-6.437454e-01
-5.987423e-01
-5.546811e-01
-5.119567e-01
-4.709653e-01
-4.320773e-01
-3.956153e-01
-3.618438e-01
-3.309709e-01
-3.031463e-01
-2.784512e-01
-2.568899e-01
-2.383941e-01
-2.228329e-01
-2.100160e-01
-1.996863e-01
-1.915079e-01
-1.850563e-01
-1.798272e-01
-1.752893e-01
-1.709764e-01
-1.665765e-01
-1.619739e-01
-1.572330e-01
-1.525363e-01
-1.481033e-01
-1.441264e-01
-1.407468e-01
-1.380713e-01
-1.362038e-01
-1.352602e-01
-1.353573e-01
-1.365928e-01
-1.390290e-01
-1.426835e-01
-1.475218e-01
-1.534495e-01
-1.603065e-01
-1.678707e-01
