EVENT_NAME: EMILIA_2ND_SHOCK
EVENT_ID: IT-2012-0011
EVENT_DATE_YYYYMMDD: 20120529
EVENT_TIME_HHMMSS: 070002
EVENT_LATITUDE_DEGREE: 44.8417
EVENT_LONGITUDE_DEGREE: 11.0657
EVENT_DEPTH_KM: 8.1
HYPOCENTER_REFERENCE: INGV-CNT_Seismic_Bulletin
MAGNITUDE_W: 6.0
MAGNITUDE_W_REFERENCE: RCMT-INGV
MAGNITUDE_L: 5.8
MAGNITUDE_L_REFERENCE: INGV-CNT_Seismic_Bulletin
FOCAL_MECHANISM: TF
NETWORK: IV
STATION_CODE: T0824
STATION_NAME: T0824
STATION_LATITUDE_DEGREE: 44.759400
STATION_LONGITUDE_DEGREE: 10.927600
STATION_ELEVATION_M: 72
LOCATION: 
SENSOR_DEPTH_M: 1.0
VS30_M/S: 
SITE_CLASSIFICATION_EC8: C*
MORPHOLOGIC_CLASSIFICATION: 
EPICENTRAL_DISTANCE_KM: 14.2
EARTHQUAKE_BACKAZIMUTH_DEGREE: 50.0
DATE_TIME_FIRST_SAMPLE_YYYYMMDD_HHMMSS: 20120529_065943.000
DATE_TIME_FIRST_SAMPLE_PRECISION: milliseconds
SAMPLING_INTERVAL_S: 0.005000
NDATA: 22001
DURATION_S: 110.005
STREAM: HNN
UNITS: cm/s
INSTRUMENT: sensor = Episensor FBA ES-T [Kinemetrics] | digitizer = Unknown [Unknown]
INSTRUMENT_ANALOG/DIGITAL: D
INSTRUMENTAL_FREQUENCY_HZ: 
INSTRUMENTAL_DAMPING: 
FULL_SCALE_G: 
N_BIT_DIGITAL_CONVERTER: 
PGV_CM/S: -14.706103
TIME_PGV_S: 31.185000
BASELINE_CORRECTION: BASELINE REMOVED
FILTER_TYPE: BUTTERWORTH
FILTER_ORDER: 2
LOW_CUT_FREQUENCY_HZ: 0.060
HIGH_CUT_FREQUENCY_HZ: 40.000
LATE/NORMAL_TRIGGERED: NT
DATABASE_VERSION: DYNA 1.0
HEADER_FORMAT: DYNA 1.2
DATA_TYPE: VELOCITY
PROCESSING: manual (Paolucci et al., 2011)
DATA_TIMESTAMP_YYYYMMDD_HHMMSS: 
DATA_LICENSE: CC-BY4_0 (http://creativecommons.org/licenses/by/4.0/)
DATA_CITATION: ESM working group (2015), European Strong-Motion database, version 0.1, Network Activity 3: Networking acceleration networks and SM data users. Project NERA (www.nera-eu.org)
DATA_CREATOR: ESM working group
ORIGINAL_DATA_MEDIATOR_CITATION: Orfeus - European Integrated Data Archive (EIDA) http://www.orfeus-eu.org/eida/
ORIGINAL_DATA_MEDIATOR: Orfeus - European Integrated Data Archive (EIDA)
ORIGINAL_DATA_CREATOR_CITATION: Data for this study comes from the Italian national seismic network operated by Istituto Nazionale di Geofisica e Vulcanologia and archived at the European Integrated Data Archive http://eida.rm.ingv.it/
ORIGINAL_DATA_CREATOR: network: IV (Italian National Seismic Network); owner: Istituto Nazionale di Geofisica e Vulcanologia
USER1: 
USER2: 
USER3: 
USER4: 
USER5: 
[...]
-0.195733
-0.201675
-0.211474
-0.220265
-0.224055
-0.222174
-0.217339
-0.213301
-0.211899
-0.211952
-0.211006
-0.208144
-0.204818
-0.202820
-0.201973
-0.200453
-0.197189
-0.193184
-0.190177
-0.188727
-0.188306
-0.188798
-0.190815
-0.194149
-0.196788
-0.196412
-0.192995
-0.189387
-0.188963
-0.192665
-0.198154
-0.201575
-0.200315
-0.194695
-0.187683
-0.183112
-0.183598
-0.189141
-0.196881
-0.202421
-0.202616
-0.198043
-0.192573
-0.189927
-0.190566
-0.192164
-0.192578
-0.191647
-0.190451
-0.189863
-0.190299
-0.192174
-0.195705
-0.200286
-0.204673
-0.208205
-0.211640
-0.216213
-0.221498
-0.224578
-0.222194
-0.214260
-0.205115
-0.200775
-0.204392
-0.213926
-0.223890
-0.229195
-0.227631
-0.219682
-0.207382
-0.193888
-0.182978
-0.177509
-0.177909
-0.182337
-0.188320
-0.194103
-0.198859
-0.202348
-0.204856
-0.207305
-0.210811
-0.215541
-0.219969
-0.221733
-0.219660
-0.215010
-0.210542
-0.208356
-0.208776
-0.211146
-0.215087
-0.220476
-0.226385
-0.230468
-0.229723
-0.222261
-0.208983
-0.194023
-0.183473
-0.182482
-0.191788
-0.206136
-0.217034
-0.218743
-0.212589
-0.205439
-0.203743
-0.208769
-0.216848
-0.223418
-0.226655
-0.227588
-0.227395
-0.225444
-0.220248
-0.211739
-0.201945
-0.193439
-0.187512
-0.183859
-0.181469
-0.179269
-0.176192
-0.171685
-0.166908
-0.165030
-0.169207
-0.179455
-0.191624
-0.200091
-0.201672
-0.196884
-0.188111
-0.177526
-0.166752
-0.157633
-0.152252
-0.151303
-0.152054
-0.148362
-0.133899
-0.106827
-0.072571
-0.042773
-0.030758
-0.044749
-0.081872
-0.128024
-0.165588
-0.183986
-0.184637
-0.176165
-0.164278
-0.146333
-0.116119
-0.073483
-0.028549
0.003394
0.011307
-0.004819
-0.034136
-0.062726
-0.083509
-0.099438
-0.116961
-0.136343
-0.148674
-0.142569
-0.114012
-0.071049
-0.030795
-0.011183
-0.020716
-0.052060
-0.086570
-0.108070
-0.113909
-0.113421
-0.116664
-0.125165
-0.132070
-0.129476
-0.115773
-0.097115
-0.082375
-0.076125
-0.075750
-0.075231
-0.072093
-0.071463
-0.083690
-0.116256
-0.165303
-0.214351
-0.242670
-0.237353
-0.200441
-0.146345
-0.091832
-0.047299
-0.016405
-0.001163
-0.004263
-0.025769
-0.058667
-0.089217
-0.103752
-0.097456
-0.077364
-0.056178
-0.043214
-0.041289
-0.049161
-0.063334
-0.078026
-0.086653
-0.085560
-0.076223
-0.063880
-0.054734
-0.053063
-0.058378
-0.064762
-0.064781
-0.055847
-0.042583
-0.032737
-0.031385
-0.038169
-0.048175
-0.055172
-0.055649
-0.051115
-0.046054
-0.043228
-0.041596
-0.038720
-0.034175
-0.030199
-0.029649
-0.033850
-0.041796
-0.050913
-0.059190
-0.066921
-0.076028
-0.087467
-0.099569
-0.108816
-0.111438
-0.104558
-0.087624
-0.064047
-0.041249
-0.027880
-0.029295
-0.043720
-0.060966
-0.065737
-0.046618
-0.006314
0.036476
0.058898
0.050899
0.021417
-0.011157
-0.033040
-0.040525
-0.036677
-0.026816
-0.016173
-0.009031
-0.008395
-0.015148
-0.026444
-0.035196
-0.032810
-0.013793
0.021646
0.067453
0.111809
0.138728
0.134115
0.094597
0.032619
-0.027949
-0.065079
-0.072018
-0.059801
-0.046139
-0.040844
-0.040994
-0.038093
-0.027952
-0.013453
0.000951
0.015347
0.033380
0.055532
0.075288
0.082872
0.072537
0.046823
0.015617
-0.008268
-0.015534
-0.005922
0.011926
0.026845
0.032545
0.030623
0.028282
0.033259
0.048646
0.070524
0.090761
0.103147
0.107340
0.107171
0.106330
0.106793
0.110558
0.120716
0.139328
0.164104
0.187673
0.201015
0.198952
0.183434
0.161747
0.141354
0.125910
0.114892
0.106089
0.098773
0.095746
0.102969
0.125953
0.164414
0.209675
0.247863
0.266674
0.260714
0.233039
0.193253
0.152851
0.120222
0.098808
0.088684
0.088640
0.096542
0.108559
0.119650
0.126478
0.130412
0.136983
0.151503
0.174346
0.199531
0.217447
0.219707
0.203389
0.172617
0.136636
0.105906
0.088981
0.091025
0.112356
0.146987
0.184101
0.213027
0.227782
0.227668
0.214778
0.191958
0.163217
0.134404
0.110942
0.094341
0.082477
0.073601
0.069259
0.073380
0.088843
0.114468
0.144476
0.170702
0.186439
0.189807
0.184139
0.174512
0.162913
0.146521
0.121588
0.090236
0.063527
0.056323
0.076986
0.120485
0.170588
0.209547
0.228541
0.230748
0.224303
0.213372
0.197712
0.179634
0.167842
0.172328
0.196346
0.233671
0.272085
0.299279
0.308136
0.300025
0.283825
0.269763
0.262866
0.261918
0.263359
0.264288
0.262255
0.255561
0.245324
0.235572
0.230072
0.229937
0.235227
0.247393
0.268237
0.296573
0.326211
0.347182
0.350714
0.335693
0.311188
0.291499
0.287380
0.301051
0.327650
0.359163
0.386925
0.402982
0.402684
0.388440
0.371170
0.366135
0.384210
0.424791
0.476415
0.524660
0.560417
0.581971
0.590545
0.585498
0.565363
0.533236
0.498615
0.472701
0.462843
0.471059
0.495466
0.531284
0.570953
0.605951
0.631201
0.647565
0.657893
0.660901
0.650989
0.624571
0.586056
0.547427
0.521710
0.515515
0.525889
0.543030
0.556491
0.560584
0.555423
0.543896
0.529190
0.515462
0.508124
0.510029
0.517105
0.520683
0.515912
0.506861
0.502348
0.507764
0.522030
0.540386
0.557568
0.569270
0.573203
0.570027
0.563206
0.558073
0.560817
0.575994
0.602485
0.631995
0.653071
0.657873
0.646278
0.624907
0.603085
0.589120
0.588729
0.604533
0.634298
0.668925
0.694845
0.701285
0.686298
0.657244
0.627381
0.611448
0.620605
0.657091
0.711734
0.767469
0.808025
0.826373
0.826639
0.818397
0.809212
0.801794
0.795938
0.791298
0.788468
0.788329
0.790678
0.793399
0.793415
0.789387
0.783905
0.782681
0.790577
0.807027
0.824367
0.831315
0.820490
0.794479
0.764145
0.740098
0.725924
0.719712
0.720981
0.734099
0.763856
0.808699
0.859854
0.906425
0.939650
0.953748
0.946481
0.921381
0.889926
0.869686
0.876058
0.912486
0.968924
1.030713
1.089028
1.143218
1.194732
1.240943
1.276345
1.298848
1.312124
1.320748
1.324772
1.321276
1.311672
1.305635
1.315088
1.343791
1.384825
1.428685
1.472241
1.519232
1.573717
1.635068
1.699021
1.761353
1.818926
1.868271
1.905312
1.927483
1.935877
1.934198
1.924486
1.904369
1.870354
1.824789
1.779290
1.750464
1.751660
1.788352
1.859170
1.958716
2.079633
2.214899
2.360335
2.514820
2.677209
2.842923
3.004702
3.157844
3.304571
3.452656
3.608961
3.772877
3.934437
4.078398
4.191953
4.270579
4.317007
4.334822
4.322549
4.272371
4.173675
4.018729
3.807494
3.549544
3.261626
2.961318
2.660729
2.364266
2.069776
1.770292
1.455855
1.115811
0.741588
0.330324
-0.111432
-0.567285
-1.015947
-1.439245
-1.828688
-2.186438
-2.519731
-2.833917
-3.129928
-3.405371
-3.654543
-3.866161
-4.023294
-4.107987
-4.107286
-4.017822
-3.847395
-3.611547
-3.327584
-3.011369
-2.677062
-2.336663
-1.999112
-1.670031
-1.352400
-1.047559
-0.756233
-0.480146
-0.223315
0.009231
0.215194
0.397463
0.561794
0.710739
0.838674
0.932558
0.979339
0.974680
0.925549
0.845908
0.750908
0.652950
0.559110
0.470047
0.381861
0.290313
0.194305
0.096040
-0.001162
-0.093755
-0.175241
-0.233522
-0.255863
-0.239697
-0.196567
-0.143764
-0.093078
-0.047415
-0.004172
0.041339
0.093063
0.151652
0.215894
0.288123
0.376514
0.488718
0.621966
0.760234
0.881443
0.967872
1.012330
1.019283
1.002338
0.977418
0.954679
0.935202
0.913176
0.879783
0.827286
0.754360
0.670951
0.597411
0.556916
0.566748
0.632669
0.747044
0.891453
1.043313
1.182855
1.297607
1.385353
1.455101
1.522108
1.597427
1.679923
1.757457
1.815685
1.847249
1.856026
1.855866
1.865499
1.903103
1.983313
2.114765
2.296402
2.515856
2.753273
2.989156
3.211401
3.415842
3.599203
3.752446
3.862502
3.920318
3.927156
3.893438
3.831384
3.748051
3.644141
3.517832
3.369218
3.201936
3.021515
2.832650
2.637897
2.438041
2.233128
2.023986
1.814180
1.610824
1.423055
1.259403
1.125468
1.022211
0.945718
0.889693
0.849439
0.823671
0.813055
0.817980
0.837829
0.871259
0.916479
0.972597
1.041875
1.129364
1.238587
1.367212
1.506940
1.646998
1.778208
1.897398
2.011245
2.134372
2.279680
2.447644
2.624241
2.789030
2.925931
3.029736
3.105775
3.163587
3.209048
3.240241
3.248844
3.224766
3.160672
3.054951
2.912179
2.740187
2.546081
2.334869
2.110297
1.875777
1.635529
1.395967
1.165803
0.954067
0.769147
0.621506
0.524988
0.492196
0.528617
0.631193
0.790076
0.989686
1.209039
1.424292
1.614459
1.766169
1.872429
1.927854
1.925829
1.859183
1.724676
1.529671
1.295265
1.052933
0.837112
0.676145
0.585810
0.569978
0.624961
0.741014
0.900994
1.080692
1.253812
1.400151
1.510426
1.583067
1.617766
1.613448
1.571508
1.499116
1.408142
1.311096
1.219418
1.145456
1.103492
1.105960
1.156229
1.243230
1.343715
1.432771
1.495029
1.527978
1.537372
1.531422
1.518685
1.509076
1.513748
1.541041
1.591895
1.660988
1.743608
1.841070
1.958571
2.098119
2.255176
2.422609
2.596831
2.779315
2.972578
3.175185
3.379965
3.574890
3.744052
3.869040
3.932087
3.920924
3.834428
3.685365
3.495364
3.284084
3.061165
2.826216
2.575143
2.307156
2.026698
1.739845
1.450304
1.158525
0.862142
0.555142
0.227072
-0.133783
-0.532853
-0.962962
-1.405168
-1.835745
-2.233410
-2.583729
-2.880221
-3.122455
-3.314087
-3.462858
-3.580419
-3.680664
-3.777679
-3.882698
-4.000030
-4.125511
-4.250150
-4.366845
-4.474437
-4.575155
-4.668006
-4.745253
-4.795355
-4.808644
-4.780833
-4.713037
-4.610339
-4.481227
-4.337443
-4.191980
-4.054821
-3.928846
-3.809078
-3.686382
-3.552675
-3.403287
-3.236949
-3.058869
-2.886749
-2.749671
-2.675360
-2.676662
-2.749381
-2.880157
-3.054432
-3.259259
-3.481960
-3.707515
-3.917613
-4.092523
-4.216029
-4.280868
-4.289274
-4.248243
-4.164956
-4.046323
-3.901687
-3.744347
-3.588370
-3.444709
-3.322988
-3.234225
-3.186176
-3.174536
-3.180104
-3.176766
-3.146138
-3.089457
-3.027155
-2.983223
-2.965319
-2.959365
-2.944164
-2.910020
-2.862033
-2.809070
-2.754680
-2.695331
-2.620256
-2.513652
-2.363784
-2.172884
-1.954167
-1.718364
-1.469096
-1.213946
-0.976835
-0.794922
-0.700342
-0.703995
-0.794140
-0.945545
-1.128651
-1.315089
-1.481173
-1.610819
-1.697035
-1.739269
-1.738047
-1.692467
-1.602061
-1.468858
-1.296715
-1.089994
-0.854085
-0.596826
-0.327888
-0.055557
0.216202
0.488132
0.763292
1.043129
1.324319
1.597649
1.848328
2.057362
2.205741
2.283197
2.297086
2.272377
2.242024
2.236001
2.273562
2.359841
2.489137
2.652547
2.843035
3.054956
3.281740
3.516193
3.753011
3.989384
4.221736
4.442009
4.637199
4.792382
4.896116
4.945974
4.950643
4.927059
4.894369
4.868579
4.861690
4.884500
4.947331
5.056127
5.208063
5.391497
5.590641
5.791020
5.981309
6.151610
6.291383
6.388402
6.429149
6.401343
6.297955
6.121153
5.883510
5.603795
5.299261
4.980530
4.651951
4.314798
3.969528
3.615237
3.247848
2.860541
2.446957
2.004177
1.533610
1.040802
0.534809
0.026125
-0.476383
-0.967369
-1.445446
-1.912411
-2.369447
-2.809680
-3.212291
-3.546474
-3.785005
-3.916925
-3.951004
-3.908916
-3.812016
-3.671185
-3.488434
-3.267093
-3.018576
-2.758381
-2.496819
-2.235922
-1.974585
-1.714634
-1.463096
-1.232176
-1.037989
-0.894691
-0.804279
-0.750857
-0.707101
-0.647609
-0.556888
-0.429350
-0.266120
-0.071486
0.147409
0.376227
0.591812
0.769996
0.897638
0.977580
1.022193
1.042748
1.044428
1.028497
0.995437
0.945731
0.880679
0.803368
0.717933
0.628491
0.539954
0.460361
0.402243
0.382016
0.417350
0.520568
0.691772
0.920809
1.195712
1.505494
1.835806
2.167871
2.486018
2.785662
3.071897
3.351234
3.626326
3.897498
4.166320
4.436120
4.709296
4.983411
5.248744
5.490786
5.697116
5.862551
5.988056
6.075760
6.125412
6.134120
6.097406
6.010368
5.870111
5.679415
5.448148
5.190535
4.920516
4.647566
4.374809
4.100914
3.824887
3.550653
3.288257
3.052035
2.858780
2.726184
2.670555
2.703401
2.825763
3.023153
3.269221
3.538825
3.819255
4.109390
4.406983
4.694038
4.931007
5.064346
5.048137
4.869062
4.553663
4.151929
3.714112
3.277659
2.865085
2.486481
2.144001
1.838686
1.577367
1.372392
1.233090
1.159267
1.142903
1.171808
1.228590
1.289010
1.327974
1.329971
1.291098
1.209899
1.081268
0.902574
0.680137
0.424556
0.142193
-0.165422
-0.495047
-0.837916
-1.181918
-1.514673
-1.826665
-2.115790
-2.389319
-2.659882
-2.939358
-3.236970
-3.561842
-3.924866
-4.334967
-4.788453
-5.257912
-5.693074
-6.038634
-6.259598
-6.356773
-6.359967
-6.304856
-6.214760
-6.100314
-5.967969
-5.823553
-5.670464
-5.508419
-5.335030
-5.148107
-4.945519
-4.722769
-4.471884
-4.183663
-3.851256
-3.472282
-3.048829
-2.586702
-2.094551
-1.581533
-1.053666
-0.512778
0.038916
0.591233
1.121220
1.595617
1.979110
2.243395
2.375808
2.384319
2.291834
2.122846
1.894591
1.617258
1.298753
0.948971
0.580332
0.204345
-0.172748
-0.551710
-0.938657
-1.343091
-1.776642
-2.248954
-2.760345
-3.298728
-3.847277
-4.396062
-4.945543
-5.501648
-6.069199
-6.646184
-7.220361
-7.772033
-8.283604
-8.747191
-9.162333
-9.530814
-9.858072
-10.156700
-10.443240
-10.730720
-11.026320
-11.334070
-11.655490
-11.987520
-12.322300
-12.650920
-12.968010
-13.272820
-13.565800
-13.844150
-14.100060
-14.322990
-14.503000
-14.631430
-14.700730
-14.706100
-14.647270
-14.529010
-14.360740
-14.154410
-13.921110
-13.668370
-13.400620
-13.122740
-12.843890
-12.578680
-12.344700
-12.157230
-12.022990
-11.937220
-11.885770
-11.849400
-11.807590
-11.741820
-11.638320
-11.489900
-11.295930
-11.059150
-10.782070
-10.466870
-10.116650
-9.734565
-9.321752
-8.877542
-8.402939
-7.903584
-7.389357
-6.871288
-6.357958
-5.853689
-5.360416
-4.881439
-4.422199
-3.986445
-3.572573
-3.175158
-2.790261
-2.419440
-2.070013
-1.752668
-1.477663
-1.250207
-1.067271
-0.918703
-0.791647
-0.672004
-0.541079
-0.377470
-0.169663
0.073177
0.326274
0.566753
0.787077
0.993862
1.196006
1.393289
1.573836
1.721234
1.826083
1.893184
1.937791
1.974555
2.009660
2.041043
2.062524
2.066948
2.049012
2.009273
1.956316
1.904542
1.869747
1.865317
1.899865
1.976060
2.090006
2.231368
2.385504
2.536727
2.670062
2.772030
2.832071
2.843722
2.805049
2.718185
2.587146
2.415484
2.206836
1.968059
1.711731
1.455430
1.217708
1.013711
0.852840
0.737857
0.665001
0.625682
0.608542
0.600915
0.592158
0.578956
0.566815
0.564218
0.573704
0.587550
0.590183
0.563318
0.491212
0.364899
0.183394
-0.048232
-0.321968
-0.629459
-0.963052
-1.315470
-1.679679
-2.049350
-2.418901
-2.783031
-3.136447
-3.474570
-3.794940
-4.097625
-4.383447
-4.650332
-4.889982
-5.088426
-5.231981
-5.315713
-5.347931
-5.345615
-5.323814
-5.288364
-5.237674
-5.170447
-5.091647
-5.011432
-4.938767
-4.876390
-4.820960
-4.766544
-4.707694
-4.640038
-4.559098
-4.459786
-4.337307
-4.187803
-4.008175
-3.796216
-3.551865
-3.279538
-2.989578
-2.695666
-2.409254
-2.136405
-1.878897
-1.637100
-1.412357
-1.208279
-1.030703
-0.885053
-0.771474
-0.681630
-0.600096
-0.508619
-0.390260
-0.232948
-0.032276
0.207589
0.475396
0.756565
1.038073
1.311409
1.571468
1.813263
2.030230
2.216426
2.370942
2.499445
2.609937
2.705487
2.779857
2.819321
2.808800
2.738323
2.606500
2.419462
2.186650
1.916459
1.613973
1.282453
0.928354
0.565433
0.215224
-0.094212
-0.331106
-0.465979
-0.480850
-0.378507
-0.183860
0.067839
0.347104
0.636551
0.927516
1.215334
1.496141
1.765190
2.017233
2.248833
2.460256
2.654490
2.835479
3.009243
3.186373
3.381190
3.606765
3.869430
4.166283
4.486555
4.815324
5.137278
5.439758
5.714622
5.957857
6.168279
6.348101
6.504607
6.649297
6.793797
6.945893
7.108215
7.279463
7.456782
7.638104
7.823557
8.014556
8.210520
8.406359
8.593430
8.762709
8.907216
9.022691
9.107448
9.161689
9.185207
9.173708
9.116881
9.000618
8.812245
8.544885
8.198271
7.777601
7.292400
6.754293
6.174598
5.564914
4.939015
4.312255
3.699167
3.112247
2.563370
2.065935
1.635683
1.290328
1.045817
0.907585
0.862581
0.879979
0.920519
0.948169
0.939345
0.886606
0.795380
0.675914
0.535109
0.373498
0.188720
-0.019432
-0.247102
-0.487238
-0.730892
-0.967665
-1.185536
-1.371395
-1.512851
-1.601185
-1.635493
-1.625447
-1.588399
-1.541846
-1.497845
-1.463226
-1.444725
-1.455008
-1.514527
-1.647248
-1.871611
-2.192156
-2.599118
-3.076018
-3.607670
-4.182784
-4.791132
-5.418730
-6.045863
-6.648395
-7.198874
-7.668094
-8.028717
-8.259523
-8.349124
-8.297214
-8.111869
-7.804929
-7.388546
-6.874526
-6.276911
-5.615390
-4.915567
-4.205226
-3.507898
-2.837505
-2.199640
-1.599280
-1.048253
-0.565120
-0.165867
0.146035
0.379466
0.546781
0.657245
0.717601
0.735652
0.721924
0.688655
0.648431
0.612852
0.590844
0.587870
0.605644
0.641597
0.689556
0.741565
0.789185
0.824726
0.842417
0.837368
0.802648
0.727645
0.599668
0.406879
0.140181
-0.203194
-0.612693
-1.061438
-1.515190
-1.946638
-2.339459
-2.678853
-2.942190
-3.105094
-3.157827
-3.110184
-2.979680
-2.780279
-2.523956
-2.227149
-1.909200
-1.584276
-1.258698
-0.937642
-0.630036
-0.343334
-0.076250
0.180326
0.436070
0.696683
0.965656
1.247081
1.544378
1.857130
2.180761
2.506559
2.817224
3.083465
3.270407
3.352124
3.324275
3.205765
3.028451
2.824048
2.617688
2.427004
2.262834
2.132260
2.041242
1.993142
1.986430
2.016194
2.078261
2.170595
2.290792
2.434266
2.595622
2.770170
2.952598
3.133849
3.299482
3.432366
3.518876
3.553863
3.541491
3.492506
3.419586
3.332957
3.238081
3.135112
3.019475
2.884365
2.724891
2.541201
2.338359
2.124208
1.907323
1.694432
1.487602
1.285020
1.087021
0.902847
0.750739
0.649414
0.607564
0.618986
0.664969
0.721193
0.765832
0.784928
0.773018
0.731861
0.669909
0.600914
0.540991
0.505970
0.508826
0.557033
0.651717
0.788295
0.956835
1.142797
1.328988
1.498085
1.635605
1.732512
1.785892
1.797766
1.772984
1.717228
1.636356
1.536898
1.425337
1.305822
1.179076
1.043591
0.897392
0.739062
0.568422
0.387421
0.200804
0.015777
-0.159667
-0.319626
-0.462880
-0.593136
-0.716375
-0.836775
-0.953351
-1.058849
-1.141325
-1.187080
-1.183123
-1.119688
-0.993027
-0.806088
-0.566559
-0.285075
0.024976
0.347636
0.666105
0.966246
1.239769
1.484460
1.703138
1.903673
2.097876
2.297821
2.512414
2.746218
2.998616
3.261300
3.515424
3.731854
3.878028
3.930807
3.886625
3.760015
3.572696
3.343406
3.085015
2.807969
2.524625
2.250052
2.000028
1.787980
1.621716
1.501996
1.424012
1.380536
1.364588
1.369773
1.388661
1.412449
1.433202
1.445840
1.448111
1.439116
1.417341
1.380049
1.325737
1.258761
1.191915
1.142761
1.124806
1.140996
1.185604
1.251203
1.332951
1.428194
1.534742
1.650251
1.772143
1.897198
2.021720
2.143032
2.260668
2.375428
2.486863
2.591492
2.682896
2.752764
2.792016
2.792158
2.746945
2.654428
2.518929
2.351051
2.164647
1.972870
1.786150
1.612849
1.461519
