EVENT_NAME: EMILIA_2ND_SHOCK
EVENT_ID: IT-2012-0011
EVENT_DATE_YYYYMMDD: 20120529
EVENT_TIME_HHMMSS: 070002
EVENT_LATITUDE_DEGREE: 44.8417
EVENT_LONGITUDE_DEGREE: 11.0657
EVENT_DEPTH_KM: 8.1
HYPOCENTER_REFERENCE: INGV-CNT_Seismic_Bulletin
MAGNITUDE_W: 6.0
MAGNITUDE_W_REFERENCE: RCMT-INGV
MAGNITUDE_L: 5.8
MAGNITUDE_L_REFERENCE: INGV-CNT_Seismic_Bulletin
FOCAL_MECHANISM: TF
NETWORK: IV
STATION_CODE: T0813
STATION_NAME: T0813
STATION_LATITUDE_DEGREE: 44.877800
STATION_LONGITUDE_DEGREE: 11.199200
STATION_ELEVATION_M: 1
LOCATION: 
SENSOR_DEPTH_M: 1.0
VS30_M/S: 
SITE_CLASSIFICATION_EC8: C*
MORPHOLOGIC_CLASSIFICATION: 
EPICENTRAL_DISTANCE_KM: 11.3
EARTHQUAKE_BACKAZIMUTH_DEGREE: 249.2
DATE_TIME_FIRST_SAMPLE_YYYYMMDD_HHMMSS: 20120529_065942.000
DATE_TIME_FIRST_SAMPLE_PRECISION: milliseconds
SAMPLING_INTERVAL_S: 0.005000
NDATA: 30001
DURATION_S: 150.005
STREAM: HNE
UNITS: cm
INSTRUMENT: sensor = Episensor FBA ES-T [Kinemetrics] | digitizer = Unknown [Unknown]
INSTRUMENT_ANALOG/DIGITAL: D
INSTRUMENTAL_FREQUENCY_HZ: 
INSTRUMENTAL_DAMPING: 
FULL_SCALE_G: 
N_BIT_DIGITAL_CONVERTER: 
PGD_CM: 5.603938
TIME_PGD_S: 29.440000
BASELINE_CORRECTION: BASELINE REMOVED
FILTER_TYPE: BUTTERWORTH
FILTER_ORDER: 2
LOW_CUT_FREQUENCY_HZ: 0.060
HIGH_CUT_FREQUENCY_HZ: 40.000
LATE/NORMAL_TRIGGERED: NT
DATABASE_VERSION: DYNA 1.0
HEADER_FORMAT: DYNA 1.2
DATA_TYPE: DISPLACEMENT
PROCESSING: manual (Paolucci et al., 2011)
DATA_TIMESTAMP_YYYYMMDD_HHMMSS: 
DATA_LICENSE: CC-BY4_0 (http://creativecommons.org/licenses/by/4.0/)
DATA_CITATION: ESM working group (2015), European Strong-Motion database, version 0.1, Network Activity 3: Networking acceleration networks and SM data users. Project NERA (www.nera-eu.org)
DATA_CREATOR: ESM working group
ORIGINAL_DATA_MEDIATOR_CITATION: Orfeus - European Integrated Data Archive (EIDA) http://www.orfeus-eu.org/eida/
ORIGINAL_DATA_MEDIATOR: Orfeus - European Integrated Data Archive (EIDA)
ORIGINAL_DATA_CREATOR_CITATION: Data for this study comes from the Italian national seismic network operated by Istituto Nazionale di Geofisica e Vulcanologia and archived at the European Integrated Data Archive http://eida.rm.ingv.it/
ORIGINAL_DATA_CREATOR: network: IV (Italian National Seismic Network); owner: Istituto Nazionale di Geofisica e Vulcanologia
USER1: 
USER2: 
USER3: 
USER4: 
USER5: 
[...]
-5.847429e-01
-5.856793e-01
-5.865994e-01
-5.875533e-01
-5.885556e-01
-5.895797e-01
-5.905904e-01
-5.915792e-01
-5.925703e-01
-5.935953e-01
-5.946597e-01
-5.957362e-01
-5.967934e-01
-5.978256e-01
-5.988512e-01
-5.998851e-01
-6.009219e-01
-6.019447e-01
-6.029451e-01
-6.039361e-01
-6.049453e-01
-6.059876e-01
-6.070436e-01
-6.080694e-01
-6.090308e-01
-6.099278e-01
-6.107894e-01
-6.116597e-01
-6.125829e-01
-6.135789e-01
-6.146233e-01
-6.156611e-01
-6.166507e-01
-6.175948e-01
-6.185287e-01
-6.194858e-01
-6.204717e-01
-6.214602e-01
-6.224126e-01
-6.233093e-01
-6.241650e-01
-6.250109e-01
-6.258642e-01
-6.267223e-01
-6.275808e-01
-6.284440e-01
-6.293151e-01
-6.301851e-01
-6.310372e-01
-6.318642e-01
-6.326838e-01
-6.335381e-01
-6.344691e-01
-6.354817e-01
-6.365272e-01
-6.375308e-01
-6.384443e-01
-6.392748e-01
-6.400676e-01
-6.408653e-01
-6.416804e-01
-6.424967e-01
-6.432885e-01
-6.440425e-01
-6.447699e-01
-6.455018e-01
-6.462697e-01
-6.470864e-01
-6.479414e-01
-6.488037e-01
-6.496294e-01
-6.503804e-01
-6.510573e-01
-6.517092e-01
-6.523952e-01
-6.531304e-01
-6.538765e-01
-6.545836e-01
-6.552368e-01
-6.558633e-01
-6.565044e-01
-6.571854e-01
-6.579101e-01
-6.586740e-01
-6.594722e-01
-6.602830e-01
-6.610565e-01
-6.617435e-01
-6.623442e-01
-6.629143e-01
-6.635075e-01
-6.641246e-01
-6.647254e-01
-6.652788e-01
-6.657910e-01
-6.662946e-01
-6.668300e-01
-6.674343e-01
-6.681305e-01
-6.689089e-01
-6.697190e-01
-6.704889e-01
-6.711666e-01
-6.717542e-01
-6.722992e-01
-6.728539e-01
-6.734436e-01
-6.740720e-01
-6.747435e-01
-6.754626e-01
-6.762199e-01
-6.769971e-01
-6.777920e-01
-6.786238e-01
-6.795088e-01
-6.804404e-01
-6.813976e-01
-6.823660e-01
-6.833474e-01
-6.843549e-01
-6.854002e-01
-6.864821e-01
-6.875865e-01
-6.887020e-01
-6.898325e-01
-6.909836e-01
-6.921402e-01
-6.932684e-01
-6.943396e-01
-6.953505e-01
-6.963174e-01
-6.972539e-01
-6.981510e-01
-6.989778e-01
-6.997069e-01
-7.003422e-01
-7.009253e-01
-7.015176e-01
-7.021738e-01
-7.029140e-01
-7.037099e-01
-7.045043e-01
-7.052563e-01
-7.059710e-01
-7.066874e-01
-7.074474e-01
-7.082738e-01
-7.091599e-01
-7.100744e-01
-7.109854e-01
-7.118830e-01
-7.127717e-01
-7.136505e-01
-7.145130e-01
-7.153615e-01
-7.162055e-01
-7.170416e-01
-7.178516e-01
-7.186181e-01
-7.193393e-01
-7.200332e-01
-7.207347e-01
-7.214841e-01
-7.223134e-01
-7.232400e-01
-7.242643e-01
-7.253625e-01
-7.264843e-01
-7.275741e-01
-7.285993e-01
-7.295558e-01
-7.304504e-01
-7.312859e-01
-7.320636e-01
-7.327887e-01
-7.334666e-01
-7.340983e-01
-7.346876e-01
-7.352551e-01
-7.358342e-01
-7.364456e-01
-7.370793e-01
-7.377096e-01
-7.383265e-01
-7.389429e-01
-7.395734e-01
-7.402167e-01
-7.408561e-01
-7.414703e-01
-7.420474e-01
-7.425968e-01
-7.431512e-01
-7.437452e-01
-7.443915e-01
-7.450777e-01
-7.457742e-01
-7.464387e-01
-7.470256e-01
-7.475129e-01
-7.479180e-01
-7.482724e-01
-7.485811e-01
-7.488219e-01
-7.489812e-01
-7.490781e-01
-7.491561e-01
-7.492661e-01
-7.494624e-01
-7.497956e-01
-7.502985e-01
-7.509737e-01
-7.517934e-01
-7.527091e-01
-7.536729e-01
-7.546637e-01
-7.557010e-01
-7.568244e-01
-7.580525e-01
-7.593642e-01
-7.607208e-01
-7.621003e-01
-7.635013e-01
-7.649144e-01
-7.662995e-01
-7.675961e-01
-7.687593e-01
-7.697871e-01
-7.707137e-01
-7.715744e-01
-7.723746e-01
-7.730973e-01
-7.737385e-01
-7.743228e-01
-7.748805e-01
-7.754142e-01
-7.758900e-01
-7.762574e-01
-7.764804e-01
-7.765613e-01
-7.765426e-01
-7.764750e-01
-7.763842e-01
-7.762751e-01
-7.761711e-01
-7.761371e-01
-7.762594e-01
-7.766095e-01
-7.772296e-01
-7.781337e-01
-7.793051e-01
-7.806855e-01
-7.821684e-01
-7.836151e-01
-7.849065e-01
-7.860086e-01
-7.869852e-01
-7.879259e-01
-7.888504e-01
-7.896847e-01
-7.903202e-01
-7.906924e-01
-7.908237e-01
-7.908168e-01
-7.908096e-01
-7.909089e-01
-7.911474e-01
-7.914948e-01
-7.918997e-01
-7.923290e-01
-7.927919e-01
-7.933351e-01
-7.939982e-01
-7.947539e-01
-7.954981e-01
-7.961109e-01
-7.965196e-01
-7.967078e-01
-7.966956e-01
-7.965246e-01
-7.962394e-01
-7.958494e-01
-7.953102e-01
-7.945607e-01
-7.935869e-01
-7.924530e-01
-7.912871e-01
-7.902375e-01
-7.894235e-01
-7.888971e-01
-7.886421e-01
-7.886065e-01
-7.887360e-01
-7.889910e-01
-7.893527e-01
-7.898112e-01
-7.903334e-01
-7.908447e-01
-7.912602e-01
-7.915408e-01
-7.917068e-01
-7.917984e-01
-7.918402e-01
-7.918435e-01
-7.918167e-01
-7.917538e-01
-7.916227e-01
-7.913840e-01
-7.910346e-01
-7.906394e-01
-7.903256e-01
-7.902265e-01
-7.904031e-01
-7.908102e-01
-7.913475e-01
-7.919499e-01
-7.926290e-01
-7.934382e-01
-7.944106e-01
-7.955157e-01
-7.966615e-01
-7.977553e-01
-7.987758e-01
-7.997794e-01
-8.008213e-01
-8.018836e-01
-8.028917e-01
-8.037716e-01
-8.044698e-01
-8.049448e-01
-8.051758e-01
-8.051782e-01
-8.049886e-01
-8.046410e-01
-8.041813e-01
-8.036952e-01
-8.032863e-01
-8.030159e-01
-8.028794e-01
-8.028504e-01
-8.029334e-01
-8.031601e-01
-8.035387e-01
-8.040167e-01
-8.045053e-01
-8.049546e-01
-8.054070e-01
-8.059595e-01
-8.066613e-01
-8.074621e-01
-8.082835e-01
-8.091391e-01
-8.101558e-01
-8.114602e-01
-8.130590e-01
-8.148395e-01
-8.166672e-01
-8.184705e-01
-8.202502e-01
-8.220186e-01
-8.237266e-01
-8.252541e-01
-8.264855e-01
-8.273981e-01
-8.280639e-01
-8.285550e-01
-8.288535e-01
-8.288518e-01
-8.284423e-01
-8.276177e-01
-8.264952e-01
-8.252497e-01
-8.240197e-01
-8.228608e-01
-8.217597e-01
-8.206747e-01
-8.195680e-01
-8.184190e-01
-8.172221e-01
-8.159809e-01
-8.147086e-01
-8.134121e-01
-8.120530e-01
-8.105388e-01
-8.087876e-01
-8.068051e-01
-8.046737e-01
-8.024677e-01
-8.002215e-01
-7.979884e-01
-7.958841e-01
-7.940448e-01
-7.925472e-01
-7.913686e-01
-7.904091e-01
-7.895411e-01
-7.886449e-01
-7.876199e-01
-7.863871e-01
-7.848954e-01
-7.831168e-01
-7.810234e-01
-7.785944e-01
-7.758769e-01
-7.730334e-01
-7.703040e-01
-7.679088e-01
-7.659705e-01
-7.645019e-01
-7.634531e-01
-7.627759e-01
-7.624408e-01
-7.623710e-01
-7.623927e-01
-7.623041e-01
-7.619813e-01
-7.613918e-01
-7.605469e-01
-7.594894e-01
-7.582957e-01
-7.570253e-01
-7.556742e-01
-7.542168e-01
-7.526501e-01
-7.509574e-01
-7.490844e-01
-7.470046e-01
-7.447734e-01
-7.424725e-01
-7.401164e-01
-7.376466e-01
-7.349856e-01
-7.320919e-01
-7.290338e-01
-7.260272e-01
-7.233295e-01
-7.210578e-01
-7.191351e-01
-7.174146e-01
-7.157932e-01
-7.141984e-01
-7.125607e-01
-7.108436e-01
-7.090416e-01
-7.070966e-01
-7.048513e-01
-7.021374e-01
-6.989111e-01
-6.952913e-01
-6.914967e-01
-6.877516e-01
-6.841972e-01
-6.808439e-01
-6.776034e-01
-6.743865e-01
-6.711769e-01
-6.680173e-01
-6.649466e-01
-6.619576e-01
-6.590049e-01
-6.560507e-01
-6.531113e-01
-6.502551e-01
-6.475409e-01
-6.449546e-01
-6.424168e-01
-6.398305e-01
-6.370905e-01
-6.340701e-01
-6.306711e-01
-6.269343e-01
-6.230740e-01
-6.193601e-01
-6.159614e-01
-6.129064e-01
-6.101616e-01
-6.077015e-01
-6.054810e-01
-6.033563e-01
-6.010746e-01
-5.984000e-01
-5.952899e-01
-5.919339e-01
-5.885913e-01
-5.853955e-01
-5.822986e-01
-5.791502e-01
-5.758158e-01
-5.722683e-01
-5.686129e-01
-5.650179e-01
-5.615970e-01
-5.583589e-01
-5.552679e-01
-5.523335e-01
-5.496296e-01
-5.472252e-01
-5.451011e-01
-5.431461e-01
-5.412461e-01
-5.393577e-01
-5.374941e-01
-5.356731e-01
-5.339084e-01
-5.322404e-01
-5.307450e-01
-5.295012e-01
-5.285328e-01
-5.277455e-01
-5.269372e-01
-5.259270e-01
-5.246776e-01
-5.232530e-01
-5.216624e-01
-5.197891e-01
-5.174727e-01
-5.146037e-01
-5.111442e-01
-5.071231e-01
-5.026253e-01
-4.977463e-01
-4.925535e-01
-4.871049e-01
-4.814928e-01
-4.758485e-01
-4.703111e-01
-4.650051e-01
-4.600260e-01
-4.554348e-01
-4.512983e-01
-4.477409e-01
-4.449195e-01
-4.429324e-01
-4.417750e-01
-4.413942e-01
-4.417470e-01
-4.427763e-01
-4.443572e-01
-4.463083e-01
-4.484746e-01
-4.507999e-01
-4.533125e-01
-4.560320e-01
-4.588815e-01
-4.616762e-01
-4.641739e-01
-4.661299e-01
-4.673367e-01
-4.676790e-01
-4.671970e-01
-4.661014e-01
-4.647035e-01
-4.632642e-01
-4.618314e-01
-4.602034e-01
-4.580853e-01
-4.553028e-01
-4.518774e-01
-4.479377e-01
-4.436158e-01
-4.390137e-01
-4.341917e-01
-4.291651e-01
-4.239476e-01
-4.185992e-01
-4.132029e-01
-4.077857e-01
-4.022868e-01
-3.966169e-01
-3.907543e-01
-3.848189e-01
-3.790705e-01
-3.737811e-01
-3.690617e-01
-3.648134e-01
-3.608300e-01
-3.568971e-01
-3.527752e-01
-3.481616e-01
-3.427517e-01
-3.363324e-01
-3.288186e-01
-3.202685e-01
-3.109011e-01
-3.010375e-01
-2.909278e-01
-2.805960e-01
-2.698578e-01
-2.584847e-01
-2.463669e-01
-2.335488e-01
-2.201011e-01
-2.059363e-01
-1.907660e-01
-1.742834e-01
-1.564184e-01
-1.374187e-01
-1.177114e-01
-9.773179e-02
-7.786120e-02
-5.845414e-02
-3.987560e-02
-2.250503e-02
-6.677726e-03
7.430283e-03
1.984999e-02
3.069921e-02
4.003200e-02
4.787762e-02
5.444771e-02
6.023928e-02
6.585361e-02
7.168068e-02
7.771926e-02
8.363825e-02
8.900799e-02
9.354892e-02
9.725319e-02
1.003346e-01
1.030925e-01
1.058209e-01
1.088136e-01
1.124050e-01
1.169547e-01
1.227428e-01
1.298494e-01
1.381593e-01
1.475081e-01
1.578084e-01
1.690516e-01
1.812433e-01
1.943459e-01
2.082684e-01
2.229445e-01
2.384578e-01
2.550359e-01
2.728000e-01
2.914986e-01
3.105572e-01
3.293849e-01
3.476043e-01
3.650719e-01
3.818148e-01
3.979850e-01
4.137809e-01
4.293687e-01
4.449116e-01
4.606266e-01
4.767142e-01
4.932217e-01
5.100448e-01
5.270627e-01
5.441792e-01
5.612380e-01
5.780194e-01
5.943611e-01
6.102294e-01
6.256741e-01
6.407826e-01
6.556698e-01
6.703685e-01
6.846444e-01
6.979700e-01
7.097365e-01
7.195008e-01
7.270840e-01
7.325767e-01
7.363714e-01
7.391540e-01
7.417448e-01
7.448699e-01
7.490363e-01
7.545501e-01
7.615671e-01
7.701360e-01
7.802528e-01
7.918946e-01
8.050053e-01
8.194689e-01
8.350681e-01
8.513909e-01
8.677516e-01
8.833029e-01
8.973460e-01
9.095375e-01
9.197945e-01
9.281051e-01
9.345393e-01
9.394287e-01
9.434337e-01
9.473868e-01
9.520467e-01
9.579248e-01
9.652654e-01
9.741726e-01
9.847690e-01
9.972453e-01
1.011776e+00
1.028436e+00
1.047188e+00
1.067855e+00
1.090067e+00
1.113279e+00
1.136896e+00
1.160327e+00
1.182928e+00
1.203977e+00
1.222813e+00
1.239040e+00
1.252593e+00
1.263600e+00
1.272148e+00
1.278190e+00
1.281689e+00
1.282881e+00
1.282388e+00
1.281129e+00
1.280086e+00
1.280070e+00
1.281569e+00
1.284780e+00
1.289733e+00
1.296378e+00
1.304565e+00
1.314050e+00
1.324533e+00
1.335664e+00
1.346953e+00
1.357759e+00
1.367451e+00
1.375615e+00
1.382225e+00
1.387713e+00
1.392913e+00
1.398802e+00
1.406239e+00
1.415873e+00
1.428182e+00
1.443486e+00
1.461921e+00
1.483482e+00
1.508120e+00
1.535776e+00
1.566356e+00
1.599699e+00
1.635535e+00
1.673435e+00
1.712872e+00
1.753378e+00
1.794605e+00
1.836166e+00
1.877433e+00
1.917537e+00
1.955595e+00
1.990924e+00
2.023132e+00
2.052100e+00
2.077941e+00
2.100958e+00
2.121705e+00
2.141074e+00
2.160250e+00
2.180357e+00
2.202019e+00
2.225206e+00
2.249527e+00
2.274616e+00
2.300287e+00
2.326457e+00
2.353085e+00
2.380170e+00
2.407715e+00
2.435724e+00
2.464249e+00
2.493351e+00
2.522913e+00
2.552521e+00
2.581631e+00
2.609810e+00
2.636748e+00
2.662133e+00
2.685616e+00
2.706930e+00
2.726014e+00
2.743144e+00
2.759047e+00
2.774817e+00
2.791546e+00
2.809983e+00
2.830474e+00
2.853072e+00
2.877572e+00
2.903497e+00
2.930163e+00
2.956813e+00
2.982766e+00
3.007568e+00
3.031135e+00
3.053759e+00
3.075974e+00
3.098346e+00
3.121303e+00
3.145094e+00
3.169867e+00
3.195768e+00
3.222988e+00
3.251699e+00
3.281963e+00
3.313713e+00
3.346801e+00
3.381069e+00
3.416380e+00
3.452588e+00
3.489506e+00
3.526917e+00
3.564594e+00
3.602274e+00
3.639623e+00
3.676245e+00
3.711740e+00
3.745751e+00
3.778016e+00
3.808473e+00
3.837343e+00
3.865069e+00
3.892128e+00
3.918866e+00
3.945487e+00
3.972144e+00
3.998999e+00
4.026170e+00
4.053627e+00
4.081154e+00
4.108471e+00
4.135376e+00
4.161802e+00
4.187767e+00
4.213293e+00
4.238359e+00
4.262932e+00
4.287030e+00
4.310723e+00
4.334055e+00
4.356982e+00
4.379373e+00
4.401079e+00
4.422017e+00
4.442255e+00
4.462033e+00
4.481671e+00
4.501444e+00
4.521584e+00
4.542379e+00
4.564191e+00
4.587351e+00
4.612049e+00
4.638309e+00
4.665979e+00
4.694736e+00
4.724144e+00
4.753736e+00
4.783032e+00
4.811566e+00
4.838974e+00
4.865085e+00
4.889912e+00
4.913593e+00
4.936379e+00
4.958616e+00
4.980641e+00
5.002688e+00
5.024918e+00
5.047523e+00
5.070710e+00
5.094591e+00
5.119122e+00
5.144133e+00
5.169389e+00
5.194674e+00
5.219862e+00
5.244931e+00
5.269855e+00
5.294471e+00
5.318489e+00
5.341618e+00
5.363692e+00
5.384655e+00
5.404492e+00
5.423200e+00
5.440822e+00
5.457479e+00
5.473328e+00
5.488504e+00
5.503064e+00
5.516951e+00
5.530029e+00
5.542191e+00
5.553435e+00
5.563820e+00
5.573340e+00
5.581865e+00
5.589210e+00
5.595215e+00
5.599759e+00
5.602720e+00
5.603938e+00
5.603215e+00
5.600321e+00
5.595030e+00
5.587167e+00
5.576631e+00
5.563329e+00
5.547134e+00
5.527940e+00
5.505749e+00
5.480665e+00
5.452782e+00
5.422115e+00
5.388638e+00
5.352367e+00
5.313401e+00
5.271939e+00
5.228253e+00
5.182636e+00
5.135343e+00
5.086582e+00
5.036523e+00
4.985278e+00
4.932857e+00
4.879165e+00
4.824036e+00
4.767270e+00
4.708620e+00
4.647795e+00
4.584508e+00
4.518540e+00
4.449805e+00
4.378392e+00
4.304580e+00
4.228771e+00
4.151389e+00
4.072810e+00
3.993357e+00
3.913326e+00
3.832971e+00
3.752477e+00
3.671943e+00
3.591416e+00
3.510967e+00
3.430798e+00
3.351310e+00
3.273038e+00
3.196482e+00
3.121988e+00
3.049825e+00
2.980348e+00
2.914021e+00
2.851263e+00
2.792238e+00
2.736761e+00
2.684412e+00
2.634766e+00
2.587584e+00
2.542842e+00
2.500648e+00
2.461158e+00
2.424545e+00
2.390997e+00
2.360734e+00
2.333988e+00
2.310963e+00
2.291755e+00
2.276290e+00
2.264309e+00
2.255416e+00
2.249202e+00
2.245388e+00
2.243822e+00
2.244246e+00
2.245988e+00
2.247896e+00
2.248630e+00
2.247063e+00
2.242493e+00
2.234606e+00
2.223304e+00
2.208546e+00
2.190235e+00
2.168149e+00
2.141884e+00
2.110788e+00
2.073942e+00
2.030327e+00
1.979158e+00
1.920197e+00
1.853858e+00
1.781078e+00
1.703056e+00
1.620978e+00
1.535863e+00
1.448559e+00
1.359777e+00
1.270064e+00
1.179707e+00
1.088657e+00
9.966171e-01
9.032825e-01
8.086315e-01
7.130662e-01
6.173481e-01
5.224097e-01
4.291842e-01
3.385393e-01
2.512916e-01
1.682265e-01
9.009736e-02
1.760923e-02
-4.863102e-02
-1.081956e-01
-1.608971e-01
-2.067851e-01
-2.460852e-01
-2.791279e-01
-3.062871e-01
-3.279249e-01
-3.443344e-01
-3.556628e-01
-3.618121e-01
-3.624152e-01
-3.570735e-01
-3.458606e-01
-3.297168e-01
-3.103292e-01
-2.895747e-01
-2.690171e-01
-2.498092e-01
-2.329062e-01
-2.192709e-01
-2.098799e-01
-2.055580e-01
-2.068112e-01
-2.137985e-01
-2.264446e-01
-2.445890e-01
-2.680660e-01
-2.967150e-01
-3.303870e-01
-3.689701e-01
-4.123889e-01
-4.605436e-01
-5.132179e-01
-5.700183e-01
-6.303704e-01
-6.935504e-01
-7.587189e-01
-8.249608e-01
-8.913562e-01
-9.570906e-01
-1.021565e+00
-1.084462e+00
-1.145744e+00
-1.205561e+00
-1.264074e+00
-1.321276e+00
-1.376864e+00
-1.430157e+00
-1.480133e+00
-1.525645e+00
-1.565711e+00
-1.599678e+00
-1.627168e+00
-1.647937e+00
-1.661763e+00
-1.668441e+00
-1.667822e+00
-1.659887e+00
-1.644805e+00
-1.622966e+00
-1.594951e+00
-1.561497e+00
-1.523462e+00
-1.481744e+00
-1.437154e+00
-1.390234e+00
-1.341076e+00
-1.289289e+00
-1.234304e+00
-1.175996e+00
-1.115256e+00
-1.054061e+00
-9.949359e-01
-9.401771e-01
-8.913734e-01
-8.494393e-01
-8.149064e-01
-7.881642e-01
-7.695671e-01
-7.594605e-01
-7.581640e-01
-7.658979e-01
-7.826291e-01
-8.078543e-01
-8.403906e-01
-8.783037e-01
-9.191066e-01
-9.602016e-01
-9.993593e-01
-1.035034e+00
-1.066444e+00
-1.093461e+00
-1.116389e+00
-1.135766e+00
-1.152181e+00
-1.166133e+00
-1.177959e+00
-1.187896e+00
-1.196173e+00
-1.203058e+00
-1.208828e+00
-1.213694e+00
-1.217712e+00
-1.220777e+00
-1.222769e+00
-1.223799e+00
-1.224345e+00
-1.225169e+00
-1.227107e+00
-1.230915e+00
-1.237202e+00
-1.246403e+00
-1.258767e+00
-1.274341e+00
-1.292921e+00
-1.313983e+00
-1.336680e+00
-1.359926e+00
-1.382526e+00
-1.403285e+00
-1.421079e+00
-1.434886e+00
-1.443799e+00
-1.447044e+00
-1.444008e+00
-1.434253e+00
-1.417527e+00
-1.393791e+00
-1.363265e+00
-1.326525e+00
-1.284641e+00
-1.239224e+00
-1.192176e+00
-1.145212e+00
-1.099439e+00
-1.055246e+00
-1.012473e+00
-9.706735e-01
-9.292670e-01
-8.875599e-01
-8.447404e-01
-7.998994e-01
-7.521047e-01
-7.005128e-01
-6.444472e-01
-5.833985e-01
-5.170010e-01
-4.450292e-01
-3.673930e-01
-2.841418e-01
-1.955680e-01
-1.024440e-01
-6.174673e-03
9.139406e-02
1.884279e-01
2.834841e-01
3.756127e-01
4.642360e-01
5.489770e-01
6.295369e-01
7.056328e-01
7.769678e-01
8.432169e-01
9.040354e-01
9.591029e-01
1.008216e+00
1.051401e+00
1.089005e+00
1.121708e+00
1.150487e+00
1.176529e+00
1.201112e+00
1.225460e+00
1.250653e+00
1.277565e+00
1.306769e+00
1.338446e+00
1.372413e+00
1.408242e+00
1.445354e+00
1.483013e+00
1.520310e+00
1.556215e+00
1.589710e+00
1.619942e+00
1.646396e+00
1.668981e+00
1.687989e+00
1.703985e+00
1.717861e+00
1.731040e+00
1.745517e+00
1.763463e+00
1.786600e+00
1.815838e+00
1.851411e+00
1.893241e+00
1.941151e+00
1.994867e+00
2.053998e+00
2.118087e+00
2.186697e+00
2.259459e+00
2.336064e+00
2.416215e+00
2.499580e+00
2.585747e+00
2.674204e+00
2.764337e+00
2.855459e+00
2.946849e+00
3.037816e+00
3.127739e+00
3.216088e+00
3.302410e+00
3.386328e+00
3.467577e+00
3.546031e+00
3.621690e+00
3.694620e+00
3.764855e+00
3.832320e+00
3.896792e+00
3.957927e+00
4.015305e+00
4.068495e+00
4.117091e+00
4.160749e+00
4.199226e+00
4.232393e+00
4.260238e+00
4.282828e+00
4.300245e+00
4.312508e+00
4.319524e+00
4.321154e+00
4.317338e+00
4.308195e+00
4.294038e+00
4.275326e+00
4.252589e+00
4.226344e+00
4.197022e+00
4.164931e+00
4.130266e+00
4.093101e+00
4.053389e+00
4.010961e+00
3.965576e+00
3.916963e+00
3.864848e+00
3.808960e+00
3.749038e+00
3.684850e+00
3.616195e+00
3.542898e+00
3.464828e+00
3.381914e+00
3.294136e+00
3.201501e+00
3.104200e+00
3.002923e+00
2.899099e+00
2.794725e+00
2.691895e+00
2.592376e+00
2.497507e+00
2.408327e+00
2.325660e+00
2.250089e+00
2.181927e+00
2.121258e+00
2.068030e+00
2.022114e+00
1.983293e+00
1.951210e+00
1.925354e+00
1.905116e+00
1.889882e+00
1.879115e+00
1.872414e+00
1.869554e+00
1.870481e+00
1.875237e+00
