EVENT_NAME: EMILIA_2ND_SHOCK
EVENT_ID: IT-2012-0011
EVENT_DATE_YYYYMMDD: 20120529
EVENT_TIME_HHMMSS: 070002
EVENT_LATITUDE_DEGREE: 44.8417
EVENT_LONGITUDE_DEGREE: 11.0657
EVENT_DEPTH_KM: 8.1
HYPOCENTER_REFERENCE: INGV-CNT_Seismic_Bulletin
MAGNITUDE_W: 6.0
MAGNITUDE_W_REFERENCE: RCMT-INGV
MAGNITUDE_L: 5.8
MAGNITUDE_L_REFERENCE: INGV-CNT_Seismic_Bulletin
FOCAL_MECHANISM: TF
NETWORK: IV
STATION_CODE: T0824
STATION_NAME: T0824
STATION_LATITUDE_DEGREE: 44.759400
STATION_LONGITUDE_DEGREE: 10.927600
STATION_ELEVATION_M: 72
LOCATION: 
SENSOR_DEPTH_M: 1.0
VS30_M/S: 
SITE_CLASSIFICATION_EC8: C*
MORPHOLOGIC_CLASSIFICATION: 
EPICENTRAL_DISTANCE_KM: 14.2
EARTHQUAKE_BACKAZIMUTH_DEGREE: 50.0
DATE_TIME_FIRST_SAMPLE_YYYYMMDD_HHMMSS: 20120529_065943.000
DATE_TIME_FIRST_SAMPLE_PRECISION: milliseconds
SAMPLING_INTERVAL_S: 0.005000
NDATA: 22001
DURATION_S: 110.005
STREAM: HNE
UNITS: cm/s^2
INSTRUMENT: sensor = Episensor FBA ES-T [Kinemetrics] | digitizer = Unknown [Unknown]
INSTRUMENT_ANALOG/DIGITAL: D
INSTRUMENTAL_FREQUENCY_HZ: 
INSTRUMENTAL_DAMPING: 
FULL_SCALE_G: 
N_BIT_DIGITAL_CONVERTER: 
PGA_CM/S^2: 223.672104
TIME_PGA_S: 30.140000
BASELINE_CORRECTION: BASELINE REMOVED
FILTER_TYPE: BUTTERWORTH
FILTER_ORDER: 2
LOW_CUT_FREQUENCY_HZ: 0.060
HIGH_CUT_FREQUENCY_HZ: 40.000
LATE/NORMAL_TRIGGERED: NT
DATABASE_VERSION: DYNA 1.0
HEADER_FORMAT: DYNA 1.2
DATA_TYPE: ACCELERATION
PROCESSING: manual (Paolucci et al., 2011)
DATA_TIMESTAMP_YYYYMMDD_HHMMSS: 
DATA_LICENSE: CC-BY4_0 (http://creativecommons.org/licenses/by/4.0/)
DATA_CITATION: ESM working group (2015), European Strong-Motion database, version 0.1, Network Activity 3: Networking acceleration networks and SM data users. Project NERA (www.nera-eu.org)
DATA_CREATOR: ESM working group
ORIGINAL_DATA_MEDIATOR_CITATION: Orfeus - European Integrated Data Archive (EIDA) http://www.orfeus-eu.org/eida/
ORIGINAL_DATA_MEDIATOR: Orfeus - European Integrated Data Archive (EIDA)
ORIGINAL_DATA_CREATOR_CITATION: Data for this study comes from the Italian national seismic network operated by Istituto Nazionale di Geofisica e Vulcanologia and archived at the European Integrated Data Archive http://eida.rm.ingv.it/
ORIGINAL_DATA_CREATOR: network: IV (Italian National Seismic Network); owner: Istituto Nazionale di Geofisica e Vulcanologia
USER1: 
USER2: 
USER3: 
USER4: 
USER5: 
[...]
1.002500
-0.658823
-2.589209
-3.730786
-3.514484
-2.266404
-0.777560
0.425607
1.372314
2.292777
3.081512
3.225009
2.290014
0.426501
-1.624127
-2.966230
-3.078912
-2.118133
-0.714920
0.588463
1.591006
2.166208
2.067672
1.204580
-0.021680
-0.930753
-1.166235
-0.956885
-0.740822
-0.651376
-0.512002
-0.266838
-0.185371
-0.516626
-1.089510
-1.439147
-1.236870
-0.469852
0.688342
1.958767
2.909973
3.102836
2.436069
1.275455
0.140738
-0.764134
-1.642438
-2.652211
-3.452384
-3.408574
-2.237936
-0.321935
1.537043
2.621654
2.717125
2.143239
1.361658
0.544369
-0.411662
-1.464357
-2.198358
-2.166662
-1.436530
-0.594414
-0.083879
0.294207
1.040195
2.182599
3.049019
2.865658
1.524330
-0.232080
-1.391720
-1.519583
-1.063090
-0.819322
-1.118612
-1.526094
-1.341138
-0.401982
0.664076
1.079232
0.741388
0.286329
0.348003
0.865573
1.194282
0.859728
0.067575
-0.609379
-0.916706
-1.099549
-1.404841
-1.578897
-1.050725
0.350690
1.984736
2.823459
2.305676
0.792741
-0.728919
-1.422910
-1.222921
-0.726867
-0.474122
-0.399330
-0.039280
0.796678
1.671190
1.860726
1.038864
-0.372915
-1.544250
-1.935870
-1.640753
-1.077757
-0.500831
0.143709
0.962382
1.784042
2.159463
1.783727
0.868235
-0.039985
-0.610776
-1.016978
-1.594975
-2.210232
-2.144818
-0.901828
0.973927
2.249415
2.239818
1.475490
0.999551
1.131466
1.162865
0.355355
-1.018787
-1.924907
-1.724902
-0.811635
-0.066491
0.090858
-0.040671
-0.015439
0.193089
0.316196
0.288256
0.387070
0.845807
1.465848
1.757877
1.475209
0.896902
0.511162
0.494161
0.552434
0.238785
-0.589908
-1.596262
-2.193474
-1.914627
-0.648198
1.251135
3.007134
3.761909
3.076026
1.216441
-0.979537
-2.587783
-3.132215
-2.765700
-1.964598
-1.098816
-0.302350
0.389210
0.953307
1.407789
1.771363
1.931528
1.642320
0.798762
-0.297576
-1.096233
-1.291169
-1.068853
-0.823432
-0.772133
-0.896729
-1.094665
-1.242024
-1.136994
-0.563403
0.455960
1.498132
1.948502
1.484546
0.401604
-0.604101
-1.052316
-1.035625
-0.899830
-0.670609
-0.019302
1.175817
2.418557
2.846948
1.946788
0.103593
-1.592318
-2.232329
-1.814114
-1.079577
-0.704911
-0.716344
-0.674616
-0.319468
0.112125
0.252307
0.131594
0.168887
0.616406
1.136924
1.065743
0.126554
-1.199919
-2.085480
-2.040230
-1.177880
0.023741
1.107482
1.854482
2.256706
2.335601
2.024609
1.285791
0.292474
-0.627475
-1.269720
-1.719667
-2.143458
-2.381069
-1.898056
-0.382533
1.612663
2.897756
2.719723
1.557790
0.633911
0.565906
0.690444
-0.078382
-1.819575
-3.340815
-3.399694
-1.980337
-0.189608
1.020050
1.771256
2.775513
4.098489
4.768420
3.775336
1.335079
-1.035298
-1.803057
-0.802778
0.688533
1.245685
0.585500
-0.447349
-1.015122
-1.135657
-1.315954
-1.597837
-1.351536
-0.065628
1.926154
3.662661
4.440264
4.342738
3.888143
3.291596
2.155361
-0.152718
-3.716584
-7.355830
-8.825669
-6.461680
-0.857802
5.377024
9.516657
10.505483
9.292012
7.382725
4.904331
0.484683
-6.593818
-14.370411
-18.732237
-16.218170
-6.790818
5.586766
15.323480
18.930365
16.798435
11.615007
5.642778
-0.508455
-7.027716
-13.085905
-16.212990
-14.090353
-6.901872
2.409479
9.849334
12.488073
9.936873
4.204737
-2.020513
-6.853338
-9.191452
-8.246044
-4.072545
1.695027
6.515836
8.396713
6.657281
1.989991
-3.758244
-8.197206
-9.362462
-6.518716
-0.443093
6.754410
12.377813
14.420149
12.427006
7.270697
0.459348
-6.387286
-11.851754
-14.754441
-14.153737
-9.825731
-2.795875
4.884149
10.829175
13.137366
11.406781
7.117630
2.518158
-1.037109
-3.528437
-5.271841
-5.953323
-4.779609
-1.493912
2.690111
5.370324
4.730908
1.243924
-2.541411
-3.953940
-2.172518
1.278491
3.767534
3.571096
1.152197
-1.478575
-2.819325
-3.140364
-3.598547
-4.376042
-4.096700
-1.296507
3.572566
7.870587
8.776015
5.540412
-0.159404
-5.617421
-8.566425
-7.901970
-4.117438
0.752271
4.312851
5.343051
4.224468
2.063401
-0.269383
-2.219709
-3.149039
-2.386348
0.075421
3.122847
5.150925
5.352705
4.252234
2.802690
1.145555
-1.374929
-4.851988
-7.752121
-7.689771
-3.722459
2.074830
5.834092
5.241357
1.609204
-1.610014
-2.096131
-0.335176
1.556285
2.227254
2.148063
2.454808
3.251389
3.499001
2.429253
0.542920
-1.029434
-1.807297
-2.186765
-2.467199
-2.121945
-0.400949
2.466146
4.987087
5.538457
3.886383
1.506094
0.171780
0.151396
0.005753
-1.566247
-3.910396
-4.991826
-3.753418
-1.329989
0.406886
1.104351
2.139645
4.604117
7.531324
8.549918
6.346860
2.182133
-1.279759
-2.506506
-2.233944
-2.134288
-2.708755
-2.866376
-1.486307
1.069601
3.236202
3.804931
2.995857
2.169747
2.584974
4.224470
5.667691
5.218006
2.427172
-1.499953
-4.885466
-6.835451
-7.266625
-6.222155
-3.558634
0.699913
5.796749
10.236411
12.635411
12.558818
10.322441
6.179312
0.217355
-6.832570
-13.034439
-15.862603
-13.812392
-7.738711
-0.479051
5.106634
7.782253
7.957676
6.681096
4.762306
2.577838
0.461753
-0.965525
-1.080003
0.178187
2.099032
3.465901
3.096436
0.539868
-3.365785
-6.691488
-7.583165
-5.499620
-1.435423
2.880042
6.054826
7.605559
7.568749
5.678355
1.435513
-4.629519
-10.184064
-12.389798
-10.079736
-4.474084
1.871175
6.675902
8.954972
8.862313
6.904084
3.690490
0.263646
-2.009344
-2.219453
-0.638847
1.281042
1.692166
-0.473674
-4.566027
-8.366865
-9.544451
-7.236043
-2.400325
3.092580
7.643775
10.536064
11.696497
10.823331
6.947923
-0.407119
-9.519367
-16.604662
-18.120689
-13.261041
-4.622710
3.738787
9.389692
12.502095
13.838975
12.700946
7.577535
-1.339688
-10.767591
-15.791544
-13.289080
-4.538899
5.537855
12.100621
13.632944
11.847051
8.914482
5.240264
0.113533
-5.762561
-9.262952
-7.293579
-0.244224
7.668879
11.792778
10.619940
6.185376
1.595897
-1.645293
-4.182697
-6.821490
-8.440139
-6.761293
-1.154020
6.107240
11.457265
12.597281
9.596582
4.017009
-2.540035
-8.776444
-13.056819
-13.518634
-9.482368
-2.469901
4.661551
9.631919
11.855183
11.963365
10.440269
7.021681
1.817718
-3.344853
-5.597935
-3.256187
2.747568
9.336885
13.070922
12.059334
6.889139
-0.160724
-6.863006
-11.744088
-13.485707
-11.014847
-4.721968
3.033771
9.180936
11.948643
11.775930
10.196155
7.850513
3.993604
-1.854757
-8.217380
-12.171120
-11.741613
-7.716532
-2.898021
0.435820
1.954872
2.314108
1.656653
-0.317039
-3.156482
-5.295934
-5.066974
-2.068054
2.260183
5.597939
6.720578
6.472060
6.566054
7.535132
8.102048
6.628030
3.065314
-0.681271
-2.395457
-1.396286
1.212613
3.730520
5.038593
4.916010
3.803111
2.399600
1.187550
0.149150
-1.029443
-2.405676
-3.442794
-3.325591
-1.722928
0.812017
3.303394
5.129511
6.296525
7.040496
7.191186
6.074140
3.394434
0.147952
-1.839131
-1.476423
0.581203
2.549950
3.149512
2.667395
2.438741
3.329474
4.827197
5.613880
4.893436
3.120557
1.640010
1.634620
3.052898
4.369295
3.697579
0.591121
-3.216560
-5.223306
-4.522266
-2.657189
-1.942031
-3.000250
-4.211632
-3.628408
-1.207742
1.130398
1.689902
0.913732
0.696518
1.930455
3.350643
3.115251
1.190886
-0.388008
0.267908
2.737211
4.636716
4.169891
2.113083
1.061301
2.758518
6.420085
9.791452
11.566729
12.236538
12.610339
12.293957
10.250606
6.511641
2.556912
-0.055331
-1.071839
-1.455481
-2.138829
-3.170581
-4.132177
-5.012877
-6.221135
-7.779838
-8.972226
-9.141037
-8.653524
-8.677358
-10.045589
-12.614976
-15.749626
-19.136747
-22.853870
-26.613342
-29.216265
-29.153936
-25.859062
-20.175306
-13.613926
-7.407973
-2.152092
2.086446
5.360080
7.355536
7.296480
4.376913
-1.484261
-9.066745
-16.232103
-21.274246
-24.016632
-25.632090
-27.489784
-30.033163
-32.555180
-34.092289
-34.549118
-34.840061
-36.004646
-38.364662
-41.539967
-45.042206
-48.588779
-51.907440
-54.578419
-56.323704
-57.417240
-58.638134
-60.744713
-63.916279
-67.571823
-70.658768
-72.167870
-71.484238
-68.173317
-61.481209
-50.470703
-34.778812
-15.323716
5.421009
24.152002
38.412106
47.709839
53.248772
57.336414
62.819515
71.838844
84.627037
99.666191
114.938766
128.886505
140.450516
148.727280
152.756836
151.763794
145.798370
136.041214
124.514915
113.282700
103.315292
94.031540
84.013824
72.147491
58.346016
43.573750
29.403599
17.429949
8.573796
2.455357
-2.462679
-7.747028
-13.924373
-20.542181
-27.247387
-34.680763
-44.051231
-55.659969
-67.956497
-78.320358
-84.844513
-87.297729
-86.410278
-82.117310
-72.880821
-57.937641
-39.962704
-24.033409
-13.944340
-10.089256
-10.369974
-12.142144
-13.203062
-12.060193
-8.296614
-2.725644
3.297299
8.921932
13.964634
18.276337
21.473555
23.140682
22.971382
20.954842
17.757690
14.729952
13.102778
13.081278
13.820164
14.293998
14.248863
14.216803
14.098580
11.882938
5.031625
-6.439683
-18.997095
-27.997032
-30.926283
-28.539829
-23.436979
-17.757641
-12.064422
-5.942858
0.821834
7.483904
12.455976
14.392973
13.306945
10.524325
7.692564
6.072493
6.512427
9.387399
14.295198
20.083223
25.372967
29.060995
30.305117
28.354712
22.979753
15.242144
7.299668
1.040664
-2.620295
-3.223252
-0.912930
2.537011
3.979300
1.001859
-6.229367
-15.294649
-23.336906
-28.626360
-31.061831
-31.545113
-30.900000
-29.521721
-27.923874
-27.113865
-27.977934
-30.199144
-32.114754
-31.974438
-29.384977
-25.362455
-20.907345
-15.759603
-8.648863
1.314348
13.374795
25.371359
35.495987
43.472130
49.771854
54.294678
56.457607
56.233746
54.264275
50.864304
45.533844
37.885098
28.731352
19.880644
13.339371
10.800950
12.817738
18.001583
23.529133
26.595364
25.517679
20.003752
10.651742
-1.803783
-16.461636
-31.633015
-45.079853
-55.234394
-61.995480
-66.210861
-68.235512
-66.942719
-60.709740
-49.565384
-36.008949
-23.888214
-16.359297
-14.146929
-15.504761
-18.065031
-20.596104
-22.959246
-25.023518
-26.294065
-26.374914
-25.082340
-21.940990
-16.089314
-7.311993
3.225648
13.875067
23.359650
30.263409
32.698097
29.386324
21.027063
10.359694
0.642629
-6.403426
-11.405154
-16.056955
-20.963863
-24.626925
-24.516443
-19.372477
-10.278761
0.652525
11.789844
21.949928
29.800707
33.828003
33.055210
28.167732
21.640678
16.006115
12.022623
8.749144
5.214308
1.899431
0.523217
2.221436
6.186072
10.460267
13.802181
16.470726
19.275578
21.988201
22.982494
20.894186
16.460585
12.134898
9.879472
9.610821
9.775502
9.096012
7.478528
5.413253
3.118810
0.710858
-1.089176
-0.990623
1.773460
6.416763
10.954771
13.724633
14.444110
13.858033
12.776748
11.611664
10.568506
9.988283
10.323141
11.739248
13.768673
15.364712
15.305802
12.726841
7.595719
0.613459
-7.674282
-17.546207
-29.731300
-44.425312
-60.560379
-76.079979
-89.190376
-99.323799
-106.834503
-112.009613
-114.284607
-112.295937
-105.210495
-94.101715
-81.676376
-70.673241
-62.450645
-56.883785
-53.509583
-52.530849
-54.445721
-59.001492
-64.895203
-70.312340
-73.780273
-74.919693
-74.384727
-72.953949
-70.940712
-68.400299
-65.388702
-61.747475
-56.714249
-49.046410
-37.467747
-20.976677
0.587596
26.005692
52.847511
77.976501
98.362877
112.607986
121.807442
128.334564
133.870300
138.558350
141.667053
142.831635
142.377014
140.422485
135.821869
126.225624
109.616669
85.794662
56.606819
25.598415
-2.715855
-24.387764
-37.294968
-41.150234
-37.089695
-27.342335
-15.041459
-4.386646
0.067961
-4.114159
-15.623529
-30.919750
-46.754730
-61.528004
-75.447060
-88.945419
-100.058151
-103.809746
-94.627434
-69.898102
-32.507473
10.005866
49.574284
80.991180
102.357307
114.314209
118.939056
118.221672
113.501663
105.586143
94.319504
78.689011
58.352432
35.483982
14.761361
0.679142
-5.131010
-3.715490
3.156550
13.952450
27.050508
40.350315
51.197163
56.724930
54.710083
44.431599
27.313354
7.211795
-10.718556
-22.628103
-27.698795
-27.468164
-24.142771
-19.463570
-14.471594
-9.981272
-6.770547
-4.866502
-3.032059
0.408226
6.237927
14.015880
22.792105
31.799946
40.604725
49.016201
56.893021
63.866955
69.312233
72.608444
73.411308
71.582535
66.828598
58.885376
48.309486
36.852467
27.050083
21.141644
19.630888
20.768875
21.892839
21.392725
19.227751
15.791356
10.853181
3.648683
-6.256208
-18.071358
-29.722029
-38.918251
-44.350056
-46.015739
-44.833992
-41.897942
-37.744617
-32.154251
-24.574755
-15.033733
-4.847915
3.817843
9.255150
11.102518
10.145185
7.302290
2.676619
-4.240956
-13.536536
-24.455439
-35.883514
-47.069168
-58.042164
-69.537254
-82.488480
-97.207100
-112.891029
-128.097534
-141.604141
-152.716202
-161.080704
-166.562698
-169.257736
-169.542404
-168.025330
-165.285965
-161.659683
-157.073685
-150.965775
-142.786804
-132.848862
-122.532707
-113.506195
-106.620918
-101.541176
-97.493629
-94.271217
-92.288918
-91.498238
-90.123985
-84.597336
-71.429672
-49.894672
-22.838568
5.278669
30.878159
52.367420
69.981537
84.880127
98.158760
110.745010
123.875175
138.923401
156.545731
175.969284
194.913422
210.359222
220.060776
223.672104
221.963989
214.937729
201.434219
180.705231
154.250732
125.946930
100.028114
79.221069
64.605591
55.986862
52.015743
50.722687
50.291294
49.421379
47.329826
43.485268
37.408386
29.103359
19.653496
10.804949
3.585253
-2.383643
-8.020808
-13.696973
-19.070574
-23.515736
-26.580006
-28.202517
-28.641785
-28.116249
-26.432898
-23.171968
-18.176933
-11.712639
-4.489537
2.340563
7.613309
10.710556
11.658812
10.902857
9.008758
6.370447
3.072363
-0.900009
-5.058922
-8.238395
-9.639899
-10.164521
-12.256456
-17.940350
-26.990866
-37.168022
-45.973663
-51.903152
-54.347622
-52.999542
-47.593399
-38.309166
-26.681257
-15.768922
-8.794072
-7.631242
-12.479359
-22.108746
-34.398338
-47.389450
-60.063934
-72.203964
-83.618034
-93.439667
-99.899628
-100.158951
-90.471321
-68.382263
-36.244797
-1.444458
28.410320
50.000385
63.952854
72.274841
77.066246
80.122200
81.682625
79.065247
68.461746
48.801781
22.966684
-4.126399
-28.024546
-46.155331
-57.430588
-60.923386
-55.859962
-42.873665
-24.473991
-4.473576
13.129545
25.414949
30.521610
26.722374
13.373778
-7.123751
-29.895512
-50.155720
-65.141846
-74.592705
-79.895523
-82.570023
-83.429451
-82.802399
-80.942711
-78.206375
-75.035965
-71.888817
-69.440163
-68.708397
-70.339653
-73.730225
-77.372002
-80.150452
-82.081390
-83.695602
-84.721161
-83.337372
-76.747177
-62.497948
-39.940166
-11.910644
15.255999
35.262806
45.971920
49.953854
51.712395
54.560947
59.268478
64.882355
70.572929
76.672180
84.041641
92.723396
101.510986
108.757889
113.455276
115.714851
116.427101
116.437698
115.668327
112.886940
106.984360
98.593674
89.864960
82.669014
77.293846
72.737907
67.868019
62.210369
56.026035
49.898193
44.198524
38.845619
33.438599
27.493584
20.552807
12.282006
2.758721
-7.513813
-18.232712
-29.773167
-42.881981
-57.979706
-74.807968
-92.645905
-110.481377
-126.813004
-139.743515
-147.709030
-149.963654
-146.447739
-137.780228
-125.378006
-111.254601
-97.404213
-85.135178
-75.280457
-68.894165
-66.817528
-68.563934
-72.464912
-76.963715
-81.240898
-84.676140
-86.435181
-85.922867
-83.361832
-79.547676
-74.956322
-69.469429
-63.023914
-56.011707
-48.753826
-40.823601
-31.338430
-19.941250
-7.211893
5.739731
17.596064
26.858541
32.404461
34.336128
33.958424
32.791340
31.683229
31.049673
31.653120
34.470123
39.797630
46.949421
54.788059
61.982681
66.889648
68.244942
66.225700
62.310120
58.100651
54.399113
51.277733
48.942825
48.330608
50.530117
55.642582
62.435249
69.090858
74.473961
78.963593
83.859993
89.758858
95.692535
99.990654
101.801292
101.478607
99.461319
95.200378
87.347763
74.834679
58.106579
39.494152
21.960438
7.302216
-4.455627
-14.146241
-21.987770
-26.822447
-26.858536
-20.922100
-9.013481
7.201615
24.330515
38.882790
49.367210
56.682732
62.617218
68.023033
72.289719
74.363785
73.997177
72.011772
69.729721
68.189690
67.590675
67.360558
66.800705
65.632248
63.883801
61.394100
57.684059
52.443752
46.123501
39.907650
34.926022
31.460396
28.871895
26.170338
22.742184
18.768442
15.021561
12.185579
10.272554
8.609993
6.369105
3.151671
-0.879298
-5.357160
-10.066508
-14.962216
-20.025442
-25.253010
-30.837009
-37.241531
-44.892456
-53.701702
-62.901463
-71.345871
-78.034904
-82.428864
-84.374275
-83.981552
-81.564461
-77.395393
-71.582138
-64.331932
-56.253151
-48.424706
-42.038177
-37.603882
-34.442280
-31.227810
-27.225830
-22.918247
-19.363190
-17.167368
-16.227957
-16.262676
-17.380278
-20.119303
-24.856035
-31.230112
-38.337379
-45.403557
-52.167114
-58.684113
-64.890411
-70.489700
-75.275299
-79.272446
-82.336441
-83.759613
-82.324265
-76.794243
-66.561264
-51.995556
-34.650517
-17.244200
-2.821696
6.455622
9.907489
8.345070
3.772480
-1.532014
-6.214225
-10.245326
-14.207993
-18.197521
-21.398438
-22.742212
-21.697002
-18.201330
-12.273446
-4.022535
6.172638
17.720844
30.142445
43.177307
56.291954
68.284904
77.892570
84.690155
89.090111
91.736275
93.050262
93.138046
91.856354
88.807068
83.604561
76.433243
68.220345
60.226643
53.447540
48.286400
44.786076
43.071026
43.216297
44.699299
46.337502
46.776733
45.009499
40.724102
34.364342
26.752897
18.579788
10.190734
1.709544
-6.665480
-14.429509
-20.806625
-24.865974
-25.710203
-23.190422
-18.505405
-13.571412
-9.808694
-7.626246
-6.739418
-6.663184
-6.946349
-7.257483
-7.505688
-7.856824
-8.382887
-8.669847
-8.061627
-6.377931
-4.156592
-2.019901
0.015974
2.385217
5.277220
8.370641
11.281481
14.042138
17.023281
20.513096
24.412415
28.219957
31.225580
32.798725
32.709530
31.231346
28.877459
26.179674
23.763933
22.340670
22.342804
23.589209
25.422348
27.174595
28.460112
29.000778
28.233868
25.319965
19.719488
11.616701
1.720890
-9.091531
-19.990091
-30.372210
-39.934479
-48.560280
-56.184719
-62.790466
-68.530945
-73.726837
-78.575859
-82.968124
-86.719086
-89.912445
-92.910667
-95.982384
-98.934418
-101.088181
-101.626541
-100.142555
-96.832390
-92.116875
-86.455101
-80.608231
-75.653336
-72.534187
-71.719322
-73.352280
-77.593536
-84.538582
-93.620811
-103.431480
-112.343941
-118.525635
-119.203613
-111.489395
-94.579430
-70.713921
-44.327229
-19.951471
0.195975
16.778732
31.350422
44.038857
53.126553
56.501926
53.322144
44.269951
30.774261
14.504263
-2.939501
-20.369318
-36.770599
-50.791214
-61.206055
-67.960907
-72.195801
-75.042114
-76.561501
-76.195091
-73.915443
-70.331207
-66.080276
-61.526333
-56.746284
