EVENT_NAME: EMILIA_2ND_SHOCK
EVENT_ID: IT-2012-0011
EVENT_DATE_YYYYMMDD: 20120529
EVENT_TIME_HHMMSS: 070002
EVENT_LATITUDE_DEGREE: 44.8417
EVENT_LONGITUDE_DEGREE: 11.0657
EVENT_DEPTH_KM: 8.1
HYPOCENTER_REFERENCE: INGV-CNT_Seismic_Bulletin
MAGNITUDE_W: 6.0
MAGNITUDE_W_REFERENCE: RCMT-INGV
MAGNITUDE_L: 5.8
MAGNITUDE_L_REFERENCE: INGV-CNT_Seismic_Bulletin
FOCAL_MECHANISM: TF
NETWORK: IV
STATION_CODE: T0813
STATION_NAME: T0813
STATION_LATITUDE_DEGREE: 44.877800
STATION_LONGITUDE_DEGREE: 11.199200
STATION_ELEVATION_M: 1
LOCATION: 
SENSOR_DEPTH_M: 1.0
VS30_M/S: 
SITE_CLASSIFICATION_EC8: C*
MORPHOLOGIC_CLASSIFICATION: 
EPICENTRAL_DISTANCE_KM: 11.3
EARTHQUAKE_BACKAZIMUTH_DEGREE: 249.2
DATE_TIME_FIRST_SAMPLE_YYYYMMDD_HHMMSS: 20120529_065942.000
DATE_TIME_FIRST_SAMPLE_PRECISION: milliseconds
SAMPLING_INTERVAL_S: 0.005000
NDATA: 30001
DURATION_S: 150.005
STREAM: HNE
UNITS: cm/s
INSTRUMENT: sensor = Episensor FBA ES-T [Kinemetrics] | digitizer = Unknown [Unknown]
INSTRUMENT_ANALOG/DIGITAL: D
INSTRUMENTAL_FREQUENCY_HZ: 
INSTRUMENTAL_DAMPING: 
FULL_SCALE_G: 
N_BIT_DIGITAL_CONVERTER: 
PGV_CM/S: -20.874722
TIME_PGV_S: 31.320000
BASELINE_CORRECTION: BASELINE REMOVED
FILTER_TYPE: BUTTERWORTH
FILTER_ORDER: 2
LOW_CUT_FREQUENCY_HZ: 0.060
HIGH_CUT_FREQUENCY_HZ: 40.000
LATE/NORMAL_TRIGGERED: NT
DATABASE_VERSION: DYNA 1.0
HEADER_FORMAT: DYNA 1.2
DATA_TYPE: VELOCITY
PROCESSING: manual (Paolucci et al., 2011)
DATA_TIMESTAMP_YYYYMMDD_HHMMSS: 
DATA_LICENSE: CC-BY4_0 (http://creativecommons.org/licenses/by/4.0/)
DATA_CITATION: ESM working group (2015), European Strong-Motion database, version 0.1, Network Activity 3: Networking acceleration networks and SM data users. Project NERA (www.nera-eu.org)
DATA_CREATOR: ESM working group
ORIGINAL_DATA_MEDIATOR_CITATION: Orfeus - European Integrated Data Archive (EIDA) http://www.orfeus-eu.org/eida/
ORIGINAL_DATA_MEDIATOR: Orfeus - European Integrated Data Archive (EIDA)
ORIGINAL_DATA_CREATOR_CITATION: Data for this study comes from the Italian national seismic network operated by Istituto Nazionale di Geofisica e Vulcanologia and archived at the European Integrated Data Archive http://eida.rm.ingv.it/
ORIGINAL_DATA_CREATOR: network: IV (Italian National Seismic Network); owner: Istituto Nazionale di Geofisica e Vulcanologia
USER1: 
USER2: 
USER3: 
USER4: 
USER5: 
[...]
-0.200385
-0.191092
-0.182638
-0.182758
-0.190024
-0.197545
-0.200868
-0.200874
-0.201302
-0.204762
-0.208978
-0.207686
-0.198339
-0.187292
-0.184015
-0.190768
-0.200476
-0.204809
-0.202143
-0.197761
-0.198217
-0.205005
-0.212877
-0.215299
-0.211435
-0.206455
-0.205115
-0.206767
-0.207364
-0.204567
-0.200072
-0.198204
-0.201843
-0.208468
-0.211201
-0.205141
-0.192294
-0.179395
-0.172321
-0.174068
-0.184641
-0.199194
-0.208877
-0.207566
-0.197922
-0.188809
-0.186775
-0.191418
-0.197188
-0.197705
-0.190478
-0.179335
-0.171144
-0.169175
-0.170662
-0.171619
-0.171706
-0.172647
-0.174221
-0.173992
-0.170418
-0.165399
-0.163921
-0.170855
-0.186203
-0.202525
-0.209090
-0.200729
-0.182697
-0.166098
-0.158568
-0.159543
-0.163021
-0.163251
-0.158364
-0.150799
-0.145479
-0.146388
-0.153568
-0.163348
-0.170989
-0.172464
-0.165136
-0.150211
-0.135367
-0.130380
-0.137202
-0.147053
-0.149214
-0.141412
-0.130642
-0.125308
-0.128211
-0.136216
-0.144923
-0.152781
-0.159644
-0.162159
-0.154706
-0.137388
-0.120152
-0.114012
-0.118643
-0.123425
-0.120163
-0.110683
-0.102421
-0.100733
-0.107074
-0.120865
-0.139229
-0.155680
-0.162035
-0.153963
-0.135559
-0.117509
-0.108992
-0.110958
-0.117936
-0.125677
-0.134294
-0.143833
-0.151453
-0.155447
-0.158969
-0.166354
-0.177016
-0.186318
-0.191430
-0.193680
-0.196289
-0.201496
-0.209058
-0.216385
-0.220872
-0.223109
-0.226103
-0.230202
-0.231331
-0.225646
-0.214243
-0.202165
-0.193388
-0.187304
-0.179407
-0.165374
-0.145812
-0.127056
-0.116624
-0.118465
-0.131233
-0.148048
-0.159175
-0.158873
-0.150409
-0.142927
-0.143281
-0.152009
-0.165273
-0.177231
-0.182889
-0.182209
-0.179523
-0.177736
-0.175769
-0.172484
-0.169714
-0.168784
-0.167230
-0.161997
-0.153308
-0.144232
-0.138778
-0.140304
-0.149872
-0.165860
-0.185331
-0.204863
-0.219625
-0.224370
-0.217965
-0.205038
-0.191305
-0.178912
-0.167105
-0.155537
-0.145012
-0.135593
-0.126333
-0.117850
-0.113499
-0.115826
-0.122283
-0.126732
-0.126062
-0.123387
-0.123269
-0.126106
-0.128667
-0.127868
-0.122858
-0.115412
-0.109883
-0.110875
-0.118804
-0.129263
-0.137227
-0.139313
-0.132896
-0.117377
-0.097452
-0.081034
-0.070884
-0.061732
-0.048153
-0.031862
-0.019393
-0.015586
-0.022011
-0.039246
-0.066652
-0.100584
-0.135041
-0.163925
-0.183150
-0.192750
-0.198157
-0.207473
-0.224679
-0.245620
-0.262337
-0.271319
-0.275901
-0.280193
-0.282634
-0.277018
-0.259309
-0.232638
-0.205560
-0.185331
-0.172140
-0.160038
-0.144547
-0.128228
-0.116856
-0.111551
-0.106742
-0.095145
-0.073487
-0.044596
-0.016197
0.003754
0.013509
0.018158
0.021820
0.020817
0.006791
-0.024463
-0.070013
-0.124014
-0.180836
-0.234269
-0.276076
-0.296595
-0.289329
-0.258286
-0.220422
-0.195324
-0.188128
-0.184896
-0.166861
-0.127097
-0.074451
-0.026252
0.001374
0.001434
-0.019855
-0.047705
-0.069476
-0.080971
-0.085862
-0.092574
-0.108646
-0.132631
-0.151134
-0.148838
-0.122567
-0.081735
-0.037648
0.002447
0.034197
0.057049
0.077987
0.107842
0.149897
0.194771
0.226770
0.233194
0.209908
0.162813
0.105277
0.050997
0.007127
-0.025904
-0.051010
-0.072336
-0.091699
-0.104447
-0.102256
-0.083090
-0.056116
-0.033217
-0.018321
-0.008352
-0.000665
0.005369
0.012575
0.026228
0.047728
0.069887
0.079041
0.062751
0.019820
-0.035305
-0.081423
-0.107466
-0.120483
-0.135813
-0.161840
-0.194486
-0.221007
-0.229175
-0.218746
-0.204106
-0.200722
-0.208371
-0.212475
-0.201617
-0.175968
-0.139639
-0.095006
-0.046206
-0.000477
0.037918
0.069525
0.091937
0.097220
0.081779
0.054081
0.027306
0.005797
-0.016606
-0.045335
-0.075719
-0.095605
-0.097713
-0.089868
-0.090483
-0.110482
-0.140363
-0.160163
-0.164282
-0.171131
-0.203338
-0.260882
-0.319749
-0.356111
-0.365540
-0.360652
-0.355942
-0.353679
-0.341592
-0.305503
-0.246278
-0.182529
-0.133151
-0.098234
-0.059695
0.000352
0.081890
0.164928
0.224499
0.249101
0.245998
0.231779
0.220210
0.216998
0.221347
0.229796
0.239386
0.248230
0.254458
0.259302
0.271829
0.302842
0.350240
0.396497
0.426275
0.441201
0.449242
0.446625
0.420862
0.367858
0.299516
0.235720
0.191904
0.173605
0.179230
0.204994
0.246570
0.298340
0.355723
0.418673
0.485812
0.543496
0.568685
0.545893
0.479040
0.387664
0.293715
0.209767
0.135421
0.067024
0.013959
-0.004336
0.017733
0.064543
0.117901
0.168989
0.211504
0.238734
0.254085
0.270218
0.291486
0.313330
0.338550
0.374585
0.415960
0.446238
0.460192
0.471218
0.493959
0.532188
0.578740
0.611621
0.601322
0.539543
0.454347
0.384533
0.344102
0.324284
0.318953
0.327552
0.343407
0.360408
0.388989
0.449067
0.542776
0.645258
0.723975
0.758905
0.749020
0.710881
0.670658
0.648109
0.643383
0.641918
0.631914
0.614144
0.597803
0.590542
0.590829
0.587896
0.571240
0.542837
0.517255
0.507560
0.517262
0.547997
0.604084
0.679798
0.747358
0.772053
0.742796
0.679731
0.610990
0.548962
0.492030
0.444101
0.424942
0.456335
0.534922
0.622026
0.671203
0.668520
0.639155
0.619366
0.629683
0.666895
0.709487
0.731079
0.719015
0.684162
0.647619
0.618216
0.586867
0.540792
0.480867
0.424830
0.390994
0.380001
0.377675
0.372720
0.364205
0.352937
0.333600
0.299082
0.248763
0.193690
0.157451
0.161664
0.202042
0.249870
0.284914
0.318135
0.374646
0.463287
0.573796
0.691913
0.804206
0.899558
0.975816
1.038549
1.089718
1.122430
1.128857
1.107477
1.061194
0.995820
0.918249
0.827306
0.711483
0.564268
0.397421
0.231484
0.076155
-0.070551
-0.205858
-0.316190
-0.390227
-0.433252
-0.465061
-0.502524
-0.543889
-0.569909
-0.558941
-0.499542
-0.391197
-0.241361
-0.068459
0.096411
0.219106
0.279581
0.287865
0.286561
0.325605
0.423626
0.556483
0.685091
0.787941
0.864372
0.920423
0.964403
1.005312
1.043512
1.069667
1.079261
1.083449
1.099776
1.133975
1.172527
1.187080
1.149686
1.057882
0.943870
0.849661
0.796686
0.786570
0.824377
0.922719
1.081987
1.283854
1.502760
1.710031
1.873471
1.972717
2.021957
2.066354
2.147628
2.274620
2.423564
2.563622
2.689552
2.832947
3.034064
3.296530
3.572987
3.799949
3.941454
3.995923
3.974119
3.881411
3.715708
3.474113
3.165462
2.821602
2.483942
2.169844
1.866558
1.569125
1.314017
1.158314
1.122865
1.165416
1.207716
1.183798
1.073948
0.908185
0.740854
0.616282
0.551582
0.545684
0.598536
0.718269
0.909956
1.157615
1.421315
1.661992
1.869754
2.060049
2.248640
2.438345
2.620518
2.784512
2.935221
3.102653
3.315622
3.552814
3.739715
3.811738
3.765526
3.643887
3.493511
3.348590
3.234046
3.159173
3.117566
3.108570
3.143006
3.217515
3.301493
3.364628
3.403579
3.423309
3.411757
3.356280
3.268339
3.173666
3.088925
3.021704
2.977434
2.939741
2.855180
2.665134
2.353284
1.952864
1.516650
1.098541
0.758942
0.556508
0.518169
0.625005
0.833293
1.102747
1.403418
1.713775
2.023366
2.328358
2.622124
2.892729
3.119842
3.264561
3.272136
3.110261
2.808622
2.438291
2.051408
1.662109
1.286842
0.977877
0.801009
0.790619
0.931980
1.175621
1.468127
1.781430
2.119289
2.495259
2.906178
3.331946
3.750314
4.133574
4.442233
4.642455
4.723507
4.686197
4.520164
4.209801
3.767156
3.245344
2.710709
2.201301
1.709631
1.208369
0.699928
0.238306
-0.098533
-0.251886
-0.208496
-0.003353
0.299923
0.642224
0.990607
1.328846
1.637557
1.896839
2.096775
2.226198
2.257643
2.161362
1.938231
1.632920
1.321951
1.097677
1.039896
1.177882
1.487399
1.926733
2.461867
3.060816
3.686929
4.312218
4.927655
5.531235
6.115869
6.668684
7.167203
7.580000
7.887421
8.101125
8.245328
8.312335
8.253264
8.020820
7.611566
7.065934
6.441542
5.793662
5.168057
4.603583
4.149272
3.873885
3.835116
4.021531
4.332319
4.637479
4.864055
5.017824
5.134223
5.233914
5.325610
5.417045
5.509142
5.601727
5.704884
5.820524
5.912437
5.921594
5.821970
5.635720
5.387726
5.076832
4.696710
4.262743
3.816760
3.426081
3.180681
3.153876
3.345803
3.687356
4.098326
4.519613
4.899951
5.185056
5.333111
5.330001
5.190522
4.960563
4.713343
4.524809
4.443080
4.474282
4.591327
4.758377
4.954461
5.180206
5.444070
5.742161
6.052872
6.349966
6.617517
6.853616
7.062221
7.241656
7.383612
7.482163
7.535321
7.536103
7.469842
7.324352
7.098909
6.802168
6.453061
6.091408
5.774002
5.545309
5.411742
5.347598
5.324260
5.331369
5.370897
5.434348
5.491232
5.505486
5.463378
5.380944
5.285214
5.193147
5.105183
5.013076
4.914618
4.819699
4.738480
4.666434
4.585399
4.478282
4.341232
4.187592
4.047489
3.955620
3.927561
3.954570
4.028149
4.158991
4.362381
4.632006
4.939626
5.251897
5.534026
5.751295
5.881669
5.918400
5.859310
5.706806
5.481455
5.222175
4.965527
4.736190
4.557123
4.447362
4.405075
4.409332
4.446145
4.520997
4.637276
4.776163
4.906332
5.002174
5.051277
5.056923
5.037647
5.013833
4.984619
4.923339
4.803529
4.625858
4.414683
4.192680
3.967462
3.741470
3.524533
3.331318
3.169746
3.035293
2.912032
2.777388
2.615647
2.432328
2.248768
2.077021
1.903928
1.705064
1.468952
1.200994
0.908901
0.592061
0.243601
-0.144524
-0.578695
-1.058363
-1.572439
-2.107296
-2.660475
-3.238900
-3.838798
-4.438128
-5.016880
-5.576657
-6.133376
-6.695301
-7.254311
-7.793128
-8.292499
-8.737168
-9.123384
-9.458571
-9.752246
-10.011810
-10.248980
-10.484090
-10.738510
-11.025700
-11.353270
-11.730060
-12.164880
-12.657460
-13.193590
-13.747080
-14.282510
-14.762490
-15.161840
-15.476340
-15.715860
-15.890530
-16.006229
-16.070890
-16.098850
-16.106871
-16.105410
-16.089670
-16.033760
-15.897760
-15.654280
-15.311230
-14.898890
-14.432440
-13.895460
-13.265430
-12.551520
-11.805080
-11.095340
-10.469840
-9.929202
-9.436382
-8.948436
-8.438842
-7.897917
-7.322714
-6.709471
-6.052695
-5.349156
-4.605042
-3.841658
-3.092977
-2.396131
-1.778562
-1.242796
-0.762944
-0.313198
0.084921
0.348322
0.381579
0.146888
-0.313450
-0.913903
-1.577399
-2.260416
-2.951568
-3.662228
-4.417359
-5.252985
-6.219212
-7.369081
-8.722957
-10.233920
-11.792130
-13.267720
-14.556020
-15.604490
-16.415590
-17.022949
-17.460930
-17.756399
-17.942450
-18.071541
-18.209860
-18.408030
-18.666929
-18.930201
-19.113050
-19.143641
-18.987680
-18.645090
-18.128981
-17.449539
-16.613020
-15.625820
-14.497630
-13.248050
-11.912910
-10.540310
-9.177592
-7.860034
-6.608537
-5.431840
-4.327563
-3.281894
-2.265676
-1.229857
-0.120623
1.068343
2.242585
3.228752
3.877520
4.150892
4.111537
3.841565
3.380611
2.727062
1.878190
0.864380
-0.250636
-1.397452
-2.529227
-3.628876
-4.695403
-5.729802
-6.734408
-7.716611
-8.683759
-9.630949
-10.534860
-11.360070
-12.070430
-12.635990
-13.033710
-13.248380
-13.279080
-13.146870
-12.894830
-12.579410
-12.256550
-11.963400
-11.702430
-11.440370
-11.117620
-10.658670
-9.995298
-9.102407
-8.013201
-6.793228
-5.498131
-4.153701
-2.765239
-1.335543
0.123650
1.587085
3.016360
4.367850
5.603001
6.690693
7.607120
8.343583
8.917973
9.383994
9.831629
10.357490
10.996990
11.661460
12.148010
12.239110
11.824970
10.951750
9.760759
8.386813
6.906572
5.348444
3.719418
2.021314
0.259305
-1.546766
-3.346241
-5.045055
-6.507254
-7.582616
-8.160583
-8.219000
-7.831547
-7.134874
-6.282147
-5.403337
-4.585668
-3.875273
-3.283116
-2.790277
-2.365195
-1.987411
-1.655534
-1.376995
-1.153988
-0.973110
-0.803630
-0.613024
-0.398387
-0.205889
-0.109250
-0.164783
-0.387669
-0.761643
-1.257386
-1.840248
-2.472749
-3.114814
-3.716011
-4.212348
-4.539324
-4.649292
-4.519945
-4.151755
-3.558886
-2.761396
-1.782514
-0.649139
0.607174
1.951128
3.345215
4.747221
6.105127
7.348039
8.376717
9.083404
9.409635
9.392894
9.154446
8.838679
8.554691
8.359804
8.281302
8.341416
8.563906
8.968185
9.558939
10.318380
11.213120
12.209740
13.279500
14.394370
15.527230
16.650240
17.714760
18.624800
19.253870
19.513750
19.406759
19.011259
18.425720
17.724661
16.948200
16.111971
15.219190
14.266980
13.249820
12.163710
11.013500
9.822536
8.637159
7.520743
6.540651
5.755794
5.208444
4.916469
4.869653
5.038593
5.382330
5.840807
6.335503
6.793337
7.165849
7.422365
7.531829
7.459367
7.181098
6.698827
6.046537
5.290716
4.517034
3.801605
3.199232
2.775137
2.635903
2.895342
3.589135
4.627444
5.847625
7.114577
8.365970
9.581924
10.743310
11.826220
12.817690
13.721990
14.552540
15.320930
16.030170
16.672970
17.233480
17.691370
18.026649
18.224300
18.278160
18.193300
17.984600
17.669901
17.264351
16.783550
16.249741
15.690800
15.131980
14.585980
14.047020
13.492900
12.894490
12.226860
11.475730
10.637970
9.719085
8.731707
7.695296
6.633541
5.569029
4.517886
3.483476
2.452459
1.403293
0.326084
-0.763265
-1.828626
-2.831352
-3.742469
-4.547411
-5.248874
-5.864500
-6.418141
-6.933123
-7.432847
-7.942533
-8.485532
-9.077065
-9.722647
-10.422890
-11.177590
-11.984420
-12.837640
-13.730990
-14.659280
-15.614170
-16.582689
-17.555710
-18.526840
-19.460320
-20.255301
-20.764940
-20.874720
-20.565969
-19.903900
-18.973770
-17.836029
-16.533390
-15.114120
-13.632490
-12.133770
-10.645540
-9.183158
-7.764266
-6.416699
-5.171166
-4.047459
-3.046780
-2.153457
-1.340142
-0.572070
0.185436
0.951175
1.708274
2.394385
2.913659
3.170387
3.113782
2.767563
2.215094
1.548728
0.827775
0.074445
-0.702332
-1.483672
-2.238362
-2.937100
-3.562095
-4.103388
-4.550409
-4.888920
-5.108013
-5.212365
-5.228189
-5.196506
-5.158771
-5.145906
-5.178689
-5.275055
-5.451946
-5.719067
-6.073651
-6.502416
-6.988101
-7.515162
-8.070823
-8.641994
-9.212542
-9.763954
-10.279820
-10.752990
-11.190470
-11.609270
-12.022150
-12.423280
-12.786060
-13.073170
-13.247040
-13.272870
-13.119250
-12.765610
-12.212330
-11.481250
-10.607640
-9.633215
-8.597512
-7.527461
-6.436722
-5.335648
-4.241538
-3.184024
-2.208870
-1.380330
-0.768867
-0.424122
-0.357466
-0.544880
-0.938748
-1.480042
-2.107909
-2.765030
-3.404287
-3.997866
-4.537417
-5.022124
-5.446899
-5.802769
-6.088252
-6.319187
-6.527531
-6.750955
-7.019790
-7.344208
-7.706476
-8.066836
-8.380228
-8.611180
-8.741705
-8.770858
-8.704034
-8.541762
-8.280027
-7.918169
-7.462948
-6.926256
-6.322615
-5.669598
-4.989546
-4.314746
-3.695045
-3.191992
-2.848219
-2.654646
-2.553519
-2.475956
-2.373955
-2.225880
-2.026015
-1.773177
-1.466598
-1.110148
-0.721719
-0.341738
-0.030625
0.151454
0.171450
0.035919
-0.215736
-0.526381
-0.836990
-1.097798
-1.270926
-1.331311
-1.270406
-1.095253
-0.820265
-0.459366
-0.025796
0.459381
0.957967
1.416819
1.781413
2.008100
2.067617
1.942734
1.628793
1.139266
0.505972
-0.231638
-1.039546
-1.895410
-2.788347
-3.715551
-4.677249
-5.672313
-6.696422
-7.741729
-8.796693
-9.847333
-10.879140
-11.877030
-12.825680
-13.710670
-14.512350
-15.188030
-15.658120
-15.825400
-15.631060
-15.100500
-14.328220
-13.418280
-12.443520
-11.447390
-10.463770
-9.527956
-8.671725
-7.914548
-7.261095
-6.703626
-6.225874
-5.806317
-5.419324
-5.036846
-4.635073
-4.202892
-3.743749
-3.270403
-2.799780
-2.351013
-1.944188
-1.597473
-1.323946
-1.131036
-1.021119
-0.991249
-1.034338
-1.142490
-1.310022
-1.535091
-1.819241
-2.162739
-2.556692
-2.979827
-3.406918
-3.823027
-4.229477
-4.637003
-5.056957
-5.500134
-5.976845
-6.488986
-7.019329
-7.531043
-7.981262
-8.340128
-8.603073
-8.787678
-8.917135
-9.005227
-9.055337
-9.068125
-9.046056
-8.993701
-8.919113
-8.835806
-8.758242
-8.691799
-8.628716
-8.553613
-8.450877
-8.308486
-8.118475
-7.874870
-7.570644
-7.198447
-6.757255
-6.258285
-5.722371
-5.170079
-4.613230
-4.054425
-3.491824
-2.922691
-2.345564
-1.765112
-1.197519
-0.667769
-0.201222
0.174828
0.417514
0.466356
0.272531
-0.158120
-0.750341
-1.392741
-1.988130
-2.474934
-2.820090
-3.013038
-3.068865
-3.031062
-2.965569
-2.941266
-3.003264
-3.159566
-3.393473
-3.686605
-4.029759
-4.421264
-4.865855
-5.374165
-5.951211
-6.574471
-7.184179
-7.699801
-8.049880
-8.198331
-8.155172
-7.964893
-7.683700
-7.364843
-7.054558
-6.790607
-6.600515
-6.498568
-6.483797
-6.543557
-6.658334
-6.800295
-6.930218
-7.001331
-6.969635
-6.805547
-6.500246
-6.062891
-5.513283
-4.876122
-4.177903
-3.449331
-2.733597
-2.086768
-1.561018
-1.182203
-0.938480
-0.788082
-0.681771
-0.582224
-0.465902
-0.314011
-0.107612
0.167797
0.511006
0.896315
1.279241
1.615705
1.879341
2.066107
2.187157
2.257232
2.287289
2.285020
2.259279
2.223933
2.199448
2.209958
2.277301
2.417182
2.637345
2.935360
3.298391
3.707333
4.143020
4.590524
5.039803
5.484286
5.917916
6.329950
6.701979
7.011166
7.236350
7.362547
7.382586
7.296663
7.111439
6.839373
6.498416
6.112388
5.710786
5.325638
4.987920
4.726481
4.564356
4.509397
4.546468
4.637934
4.732519
4.779885
4.744044
4.608585
4.374829
4.057615
3.680982
3.273988
2.865174
2.475047
2.111168
1.771196
1.452451
1.162996
0.928966
0.791026
0.785895
0.921197
1.164084
1.457667
1.750834
2.013122
2.229736
2.392597
2.497277
2.545052
2.545895
2.518598
2.487135
2.475614
2.503807
2.584314
2.722145
2.914545
3.149312
3.404505
3.651407
3.859137
4.001242
4.062776
4.042096
3.947589
3.795785
3.612873
3.436299
3.311537
3.279241
3.358706
3.543189
3.809286
4.127518
4.466344
4.791850
5.068051
5.262676
5.357791
5.357046
5.284968
5.179776
5.081127
5.017674
5.002520
5.035966
5.106593
5.188763
5.244982
5.237073
5.139123
4.944152
4.661352
4.307063
3.897661
3.449056
2.978988
2.507658
2.058143
1.662272
1.370150
1.244600
1.332584
1.637833
2.120892
2.724451
3.400568
4.119222
4.857855
5.590348
6.286758
6.916161
7.447859
7.854804
8.120886
8.249232
8.264667
8.205567
8.111157
8.014733
7.943345
7.917834
7.948782
8.027403
8.121393
8.191331
8.219837
8.222894
8.231440
8.264431
8.319136
8.381082
8.437485
8.483048
8.519462
8.553097
8.591698
8.639251
8.691171
8.733748
8.748877
8.721043
8.641722
8.509156
8.326994
8.104624
7.856556
7.599820
7.352329
7.131789
6.952771
6.822955
6.740484
6.693967
6.666902
6.645298
6.623574
6.604821
6.595998
6.601597
6.619249
6.639056
6.646751
6.628444
6.573653
6.476271
6.334935
6.152576
5.934662
5.687161
5.415557
5.125468
4.824235
4.521505
4.228867
3.961111
3.739133
3.591286
3.548542
3.631991
3.840646
4.150383
4.523301
4.918136
5.297593
5.632368
5.902066
6.096033
6.214645
6.268282
6.274418
6.255087
6.233935
6.232126
6.264638
6.338266
6.451637
6.595574
6.752593
6.898458
7.008865
7.067262
7.067185
7.009532
6.898869
6.739901
6.536155
6.293779
6.026999
5.757737
5.506708
5.282239
5.076688
4.872759
