EVENT_NAME: EMILIA_2ND_SHOCK
EVENT_ID: IT-2012-0011
EVENT_DATE_YYYYMMDD: 20120529
EVENT_TIME_HHMMSS: 070002
EVENT_LATITUDE_DEGREE: 44.8417
EVENT_LONGITUDE_DEGREE: 11.0657
EVENT_DEPTH_KM: 8.1
HYPOCENTER_REFERENCE: INGV-CNT_Seismic_Bulletin
MAGNITUDE_W: 6.0
MAGNITUDE_W_REFERENCE: RCMT-INGV
MAGNITUDE_L: 5.8
MAGNITUDE_L_REFERENCE: INGV-CNT_Seismic_Bulletin
FOCAL_MECHANISM: TF
NETWORK: IV
STATION_CODE: T0800
STATION_NAME: T0800
STATION_LATITUDE_DEGREE: 44.848600
STATION_LONGITUDE_DEGREE: 11.247900
STATION_ELEVATION_M: 9
LOCATION: 
SENSOR_DEPTH_M: 1.0
VS30_M/S: 
SITE_CLASSIFICATION_EC8: C*
MORPHOLOGIC_CLASSIFICATION: 
EPICENTRAL_DISTANCE_KM: 14.4
EARTHQUAKE_BACKAZIMUTH_DEGREE: 267.0
DATE_TIME_FIRST_SAMPLE_YYYYMMDD_HHMMSS: 20120529_065949.000
DATE_TIME_FIRST_SAMPLE_PRECISION: milliseconds
SAMPLING_INTERVAL_S: 0.005000
NDATA: 20001
DURATION_S: 100.005
STREAM: HNZ
UNITS: cm/s
INSTRUMENT: sensor = Episensor FBA ES-T [Kinemetrics] | digitizer = Unknown [Unknown]
INSTRUMENT_ANALOG/DIGITAL: D
INSTRUMENTAL_FREQUENCY_HZ: 
INSTRUMENTAL_DAMPING: 
FULL_SCALE_G: 
N_BIT_DIGITAL_CONVERTER: 
PGV_CM/S: 4.975049
TIME_PGV_S: 21.545000
BASELINE_CORRECTION: BASELINE REMOVED
FILTER_TYPE: BUTTERWORTH
FILTER_ORDER: 2
LOW_CUT_FREQUENCY_HZ: 0.070
HIGH_CUT_FREQUENCY_HZ: 40.000
LATE/NORMAL_TRIGGERED: NT
DATABASE_VERSION: DYNA 1.0
HEADER_FORMAT: DYNA 1.2
DATA_TYPE: VELOCITY
PROCESSING: manual (Paolucci et al., 2011)
DATA_TIMESTAMP_YYYYMMDD_HHMMSS: 
DATA_LICENSE: CC-BY4_0 (http://creativecommons.org/licenses/by/4.0/)
DATA_CITATION: ESM working group (2015), European Strong-Motion database, version 0.1, Network Activity 3: Networking acceleration networks and SM data users. Project NERA (www.nera-eu.org)
DATA_CREATOR: ESM working group
ORIGINAL_DATA_MEDIATOR_CITATION: Orfeus - European Integrated Data Archive (EIDA) http://www.orfeus-eu.org/eida/
ORIGINAL_DATA_MEDIATOR: Orfeus - European Integrated Data Archive (EIDA)
ORIGINAL_DATA_CREATOR_CITATION: Data for this study comes from the Italian national seismic network operated by Istituto Nazionale di Geofisica e Vulcanologia and archived at the European Integrated Data Archive http://eida.rm.ingv.it/
ORIGINAL_DATA_CREATOR: network: IV (Italian National Seismic Network); owner: Istituto Nazionale di Geofisica e Vulcanologia
USER1: 
USER2: 
USER3: 
USER4: 
USER5: 
[...]
-0.021215
-0.021277
-0.021341
-0.021409
-0.021482
-0.021558
-0.021637
-0.021717
-0.021801
-0.021887
-0.021973
-0.022058
-0.022140
-0.022221
-0.022300
-0.022380
-0.022459
-0.022538
-0.022614
-0.022688
-0.022760
-0.022829
-0.022895
-0.022957
-0.023019
-0.023081
-0.023145
-0.023209
-0.023271
-0.023332
-0.023393
-0.023456
-0.023522
-0.023589
-0.023656
-0.023722
-0.023786
-0.023848
-0.023910
-0.023977
-0.024049
-0.024126
-0.024205
-0.024285
-0.024365
-0.024444
-0.024523
-0.024603
-0.024685
-0.024769
-0.024855
-0.024943
-0.025031
-0.025119
-0.025205
-0.025289
-0.025372
-0.025452
-0.025530
-0.025604
-0.025675
-0.025744
-0.025811
-0.025877
-0.025944
-0.026010
-0.026077
-0.026144
-0.026211
-0.026279
-0.026347
-0.026412
-0.026475
-0.026535
-0.026597
-0.026660
-0.026725
-0.026788
-0.026851
-0.026914
-0.026979
-0.027047
-0.027118
-0.027192
-0.027268
-0.027347
-0.027428
-0.027509
-0.027590
-0.027671
-0.027753
-0.027838
-0.027926
-0.028016
-0.028106
-0.028194
-0.028279
-0.028363
-0.028446
-0.028529
-0.028613
-0.028696
-0.028778
-0.028859
-0.028940
-0.029022
-0.029105
-0.029185
-0.029262
-0.029336
-0.029408
-0.029482
-0.029560
-0.029642
-0.029727
-0.029813
-0.029898
-0.029980
-0.030058
-0.030135
-0.030211
-0.030289
-0.030369
-0.030451
-0.030535
-0.030621
-0.030707
-0.030793
-0.030877
-0.030960
-0.031042
-0.031123
-0.031203
-0.031282
-0.031360
-0.031439
-0.031520
-0.031601
-0.031682
-0.031763
-0.031843
-0.031922
-0.031999
-0.032076
-0.032153
-0.032232
-0.032313
-0.032397
-0.032479
-0.032560
-0.032641
-0.032722
-0.032805
-0.032885
-0.032964
-0.033041
-0.033121
-0.033202
-0.033286
-0.033372
-0.033460
-0.033548
-0.033632
-0.033711
-0.033787
-0.033861
-0.033937
-0.034017
-0.034098
-0.034180
-0.034263
-0.034347
-0.034433
-0.034520
-0.034607
-0.034694
-0.034782
-0.034871
-0.034961
-0.035050
-0.035140
-0.035232
-0.035326
-0.035421
-0.035516
-0.035608
-0.035698
-0.035786
-0.035874
-0.035962
-0.036051
-0.036141
-0.036232
-0.036325
-0.036418
-0.036511
-0.036601
-0.036689
-0.036775
-0.036859
-0.036942
-0.037023
-0.037104
-0.037187
-0.037275
-0.037366
-0.037460
-0.037554
-0.037648
-0.037741
-0.037833
-0.037925
-0.038017
-0.038108
-0.038199
-0.038290
-0.038383
-0.038479
-0.038577
-0.038676
-0.038774
-0.038871
-0.038967
-0.039061
-0.039153
-0.039244
-0.039333
-0.039422
-0.039511
-0.039600
-0.039692
-0.039786
-0.039882
-0.039976
-0.040067
-0.040152
-0.040237
-0.040323
-0.040413
-0.040503
-0.040592
-0.040680
-0.040770
-0.040864
-0.040961
-0.041057
-0.041151
-0.041243
-0.041334
-0.041428
-0.041522
-0.041615
-0.041707
-0.041798
-0.041893
-0.041991
-0.042091
-0.042191
-0.042290
-0.042386
-0.042480
-0.042574
-0.042668
-0.042762
-0.042856
-0.042950
-0.043044
-0.043139
-0.043233
-0.043327
-0.043420
-0.043514
-0.043608
-0.043702
-0.043796
-0.043891
-0.043988
-0.044090
-0.044194
-0.044301
-0.044407
-0.044512
-0.044615
-0.044717
-0.044817
-0.044916
-0.045013
-0.045111
-0.045207
-0.045304
-0.045401
-0.045498
-0.045596
-0.045693
-0.045787
-0.045881
-0.045973
-0.046065
-0.046158
-0.046251
-0.046344
-0.046437
-0.046530
-0.046621
-0.046712
-0.046802
-0.046892
-0.046981
-0.047069
-0.047157
-0.047246
-0.047338
-0.047433
-0.047532
-0.047631
-0.047731
-0.047831
-0.047932
-0.048033
-0.048134
-0.048234
-0.048334
-0.048436
-0.048540
-0.048647
-0.048756
-0.048864
-0.048972
-0.049081
-0.049192
-0.049302
-0.049411
-0.049516
-0.049615
-0.049708
-0.049800
-0.049894
-0.049992
-0.050093
-0.050195
-0.050297
-0.050397
-0.050498
-0.050597
-0.050697
-0.050797
-0.050899
-0.051002
-0.051106
-0.051209
-0.051309
-0.051407
-0.051504
-0.051601
-0.051698
-0.051798
-0.051903
-0.052011
-0.052122
-0.052235
-0.052346
-0.052455
-0.052562
-0.052666
-0.052770
-0.052874
-0.052975
-0.053075
-0.053175
-0.053275
-0.053375
-0.053474
-0.053573
-0.053673
-0.053774
-0.053877
-0.053981
-0.054084
-0.054185
-0.054284
-0.054379
-0.054471
-0.054564
-0.054658
-0.054755
-0.054853
-0.054953
-0.055056
-0.055161
-0.055266
-0.055370
-0.055470
-0.055571
-0.055674
-0.055778
-0.055883
-0.055987
-0.056089
-0.056190
-0.056293
-0.056397
-0.056502
-0.056607
-0.056711
-0.056816
-0.056923
-0.057031
-0.057137
-0.057242
-0.057350
-0.057464
-0.057580
-0.057690
-0.057796
-0.057904
-0.058015
-0.058123
-0.058229
-0.058338
-0.058452
-0.058562
-0.058662
-0.058753
-0.058836
-0.058909
-0.058959
-0.058975
-0.058968
-0.058948
-0.058901
-0.058801
-0.058661
-0.058496
-0.058242
-0.057770
-0.057004
-0.055994
-0.054890
-0.053863
-0.053025
-0.052399
-0.051908
-0.051348
-0.050393
-0.048773
-0.046554
-0.044097
-0.041739
-0.039583
-0.037564
-0.035616
-0.033851
-0.032580
-0.032131
-0.032519
-0.033166
-0.033173
-0.032062
-0.030290
-0.029092
-0.029498
-0.031189
-0.032831
-0.033693
-0.034439
-0.036512
-0.040933
-0.047361
-0.054426
-0.061067
-0.067341
-0.074101
-0.081794
-0.089280
-0.094426
-0.096352
-0.096977
-0.100525
-0.110505
-0.126038
-0.142237
-0.154422
-0.160903
-0.162713
-0.161692
-0.158481
-0.152281
-0.142267
-0.128957
-0.114683
-0.102782
-0.095623
-0.092505
-0.089071
-0.080579
-0.066978
-0.052767
-0.041878
-0.035123
-0.031996
-0.033027
-0.040046
-0.053156
-0.066905
-0.072076
-0.062503
-0.039070
-0.008704
0.019074
0.036197
0.038911
0.028356
0.007888
-0.020858
-0.057441
-0.098151
-0.134535
-0.156948
-0.160063
-0.146684
-0.125013
-0.101591
-0.079252
-0.060653
-0.049780
-0.049673
-0.060361
-0.078902
-0.101072
-0.123181
-0.141716
-0.151716
-0.147954
-0.128989
-0.099486
-0.068286
-0.042095
-0.019116
0.007624
0.038855
0.063897
0.067020
0.041352
0.000733
-0.027933
-0.028104
-0.006213
0.014276
0.008990
-0.030326
-0.091041
-0.148427
-0.179446
-0.175103
-0.143093
-0.099726
-0.057534
-0.016449
0.029625
0.076056
0.104299
0.095833
0.046851
-0.026223
-0.096013
-0.142122
-0.159212
-0.152836
-0.133880
-0.114614
-0.103074
-0.097310
-0.088009
-0.069200
-0.045937
-0.033107
-0.044135
-0.076792
-0.113667
-0.137183
-0.141430
-0.134429
-0.132701
-0.150963
-0.191631
-0.238631
-0.263490
-0.242770
-0.174349
-0.083640
-0.010881
0.014659
-0.010036
-0.063823
-0.115199
-0.141071
-0.138942
-0.126875
-0.128368
-0.150137
-0.176083
-0.181471
-0.152726
-0.100389
-0.051106
-0.024398
-0.020904
-0.028636
-0.036329
-0.044501
-0.064075
-0.104421
-0.164306
-0.231546
-0.291212
-0.335981
-0.365604
-0.378186
-0.370607
-0.348045
-0.324423
-0.309420
-0.294333
-0.249703
-0.148608
-0.002028
0.139435
0.220944
0.216851
0.143023
0.042655
-0.043907
-0.097598
-0.120567
-0.125799
-0.122993
-0.109492
-0.071917
-0.003117
0.075765
0.118300
0.083244
-0.034968
-0.193993
-0.324726
-0.374822
-0.333851
-0.229432
-0.107151
-0.005894
0.056877
0.086631
0.102374
0.119704
0.135424
0.122806
0.050427
-0.083330
-0.235628
-0.337312
-0.335614
-0.237986
-0.109378
-0.023741
-0.019869
-0.085532
-0.176392
-0.253494
-0.298967
-0.306593
-0.275192
-0.213062
-0.142086
-0.092939
-0.087866
-0.120301
-0.156379
-0.159926
-0.117796
-0.050987
-0.000412
0.004646
-0.035002
-0.093052
-0.139060
-0.163375
-0.180799
-0.211822
-0.262801
-0.317793
-0.350078
-0.345064
-0.308421
-0.255171
-0.195871
-0.130936
-0.060190
0.001637
0.029608
0.012071
-0.037133
-0.087535
-0.112663
-0.109584
-0.097516
-0.096610
-0.109140
-0.114628
-0.084335
-0.007720
0.093565
0.174156
0.193931
0.150765
0.079915
0.021321
-0.005463
-0.003887
0.013551
0.042332
0.084237
0.130471
0.157373
0.140975
0.075271
-0.018065
-0.100641
-0.143521
-0.143567
-0.121237
-0.104112
-0.106820
-0.127053
-0.156661
-0.188447
-0.214677
-0.226837
-0.219277
-0.191537
-0.147593
-0.094210
-0.039605
0.007418
0.038204
0.045171
0.022756
-0.031117
-0.110484
-0.192034
-0.231360
-0.187421
-0.063628
0.086227
0.193815
0.215068
0.149989
0.032245
-0.099923
-0.218172
-0.301177
-0.335725
-0.322609
-0.269387
-0.175266
-0.038472
0.118166
0.245965
0.300842
0.274388
0.203445
0.142294
0.116463
0.114823
0.120671
0.129643
0.141699
0.150957
0.145077
0.112801
0.053072
-0.024555
-0.107009
-0.181493
-0.235273
-0.259331
-0.254296
-0.227366
-0.182366
-0.119816
-0.048243
0.009632
0.024227
-0.020403
-0.105645
-0.185796
-0.222078
-0.208128
-0.171271
-0.149061
-0.156609
-0.179659
-0.194476
-0.185032
-0.148156
-0.093274
-0.039707
-0.009008
-0.012956
-0.045356
-0.083756
-0.104700
-0.102364
-0.084988
-0.054470
-0.005000
0.057878
0.111371
0.131375
0.112303
0.075740
0.054700
0.064367
0.095233
0.129938
0.153669
0.152646
0.117669
0.054524
-0.014754
-0.062734
-0.068183
-0.022905
0.067027
0.183138
0.295969
0.369160
0.373880
0.306482
0.185811
0.033428
-0.132878
-0.289581
-0.405874
-0.455412
-0.427359
-0.330444
-0.190832
-0.046387
0.060657
0.095377
0.049387
-0.043515
-0.123986
-0.149716
-0.118358
-0.059224
-0.011768
-0.003805
-0.041039
-0.108614
-0.179796
-0.229700
-0.250110
-0.257180
-0.276767
-0.315031
-0.349296
-0.346056
-0.285928
-0.179861
-0.061810
0.034533
0.086358
0.078442
0.008149
-0.100377
-0.196815
-0.228038
-0.171714
-0.059218
0.045868
0.100885
0.105785
0.082219
0.047463
0.004583
-0.043819
-0.073891
-0.048646
0.047182
0.189936
0.329343
0.412794
0.407959
0.311801
0.148627
-0.031506
-0.158063
-0.167165
-0.044902
0.152578
0.320153
0.362946
0.262670
0.080068
-0.106501
-0.254117
-0.366619
-0.461276
-0.520722
-0.496619
-0.362994
-0.149981
0.065882
0.200509
0.209481
0.108915
-0.040443
-0.177373
-0.288749
-0.411060
-0.581560
-0.787118
-0.946834
-0.961248
-0.798601
-0.518328
-0.221016
0.004180
0.105903
0.074819
-0.064133
-0.261290
-0.453430
-0.580496
-0.605339
-0.524975
-0.371911
-0.208693
-0.108069
-0.106867
-0.160712
-0.173936
-0.091053
0.061180
0.209442
0.297396
0.331883
0.363491
0.421596
0.490445
0.537592
0.539702
0.489209
0.398252
0.300110
0.228308
0.180819
0.113174
-0.029908
-0.270852
-0.569255
-0.838204
-0.996044
-0.999196
-0.845709
-0.573666
-0.258393
0.008617
0.156714
0.159887
0.038208
-0.156596
-0.365555
-0.547641
-0.696027
-0.828586
-0.957494
-1.069497
-1.130805
-1.114937
-1.032735
-0.922291
-0.809789
-0.703787
-0.623549
-0.602103
-0.656474
-0.771093
-0.908919
-1.031814
-1.113353
-1.131258
-1.054984
-0.868522
-0.613963
-0.382889
-0.252186
-0.234413
-0.271002
-0.264505
-0.134002
0.139719
0.496219
0.820356
1.002946
0.999066
0.859137
0.705172
0.659678
0.777011
1.007398
1.222291
1.290168
1.145044
0.816771
0.403852
0.010266
-0.288090
-0.440407
-0.422359
-0.248939
0.028091
0.341496
0.624977
0.818672
0.876405
0.782432
0.574128
0.350854
0.230979
0.273335
0.443816
0.645714
0.776423
0.780746
0.667405
0.488151
0.304580
0.157210
0.050833
-0.041977
-0.163771
-0.346191
-0.586803
-0.840048
-1.038459
-1.135308
-1.128349
-1.051629
-0.945948
-0.827700
-0.690187
-0.533417
-0.381270
-0.274166
-0.250602
-0.329558
-0.505375
-0.751494
-1.018693
-1.231393
-1.305857
-1.194266
-0.928116
-0.627609
-0.432750
-0.391545
-0.435540
-0.458689
-0.401777
-0.284797
-0.159969
-0.031202
0.141190
0.360143
0.570018
0.716231
0.798698
0.877424
1.030366
1.292045
1.631514
1.973767
2.226189
2.302903
2.162280
1.844162
1.454624
1.102575
0.855682
0.737825
0.750104
0.889920
1.136123
1.417187
1.627633
1.691566
1.600785
1.400523
1.140478
0.829253
0.455810
0.060517
-0.247301
-0.348569
-0.194366
0.143738
0.509952
0.765463
0.850537
0.780833
0.613323
0.408049
0.208898
0.045430
-0.055027
-0.055606
0.083200
0.373356
0.760349
1.104893
1.237520
1.065792
0.628314
0.066580
-0.447630
-0.789440
-0.910090
-0.823422
-0.597090
-0.345239
-0.177067
-0.119575
-0.111754
-0.080554
-0.013976
0.020617
-0.059902
-0.256401
-0.483110
-0.653003
-0.724017
-0.680144
-0.516804
-0.255479
0.039915
0.273688
0.377581
0.382465
0.400876
0.526265
0.766246
1.046070
1.251570
1.284555
1.102168
0.731742
0.257777
-0.213366
-0.590938
-0.826580
-0.915426
-0.874589
-0.721612
-0.464666
-0.113236
0.293213
0.662348
0.862403
0.808899
0.576602
0.382852
0.434783
0.791654
1.328826
1.843904
2.228021
2.495298
2.668617
2.714992
2.587914
2.302783
1.973905
1.744375
1.657038
1.635748
1.587326
1.480617
1.350146
1.251610
1.209897
1.213268
1.245673
1.298331
1.356403
1.405376
1.458239
1.556254
1.735376
1.993698
2.280001
2.512601
2.617520
2.554596
2.327293
1.988680
1.637434
1.377033
1.246757
1.184457
1.050280
0.714174
0.165544
-0.463927
-0.984577
-1.270675
-1.346416
-1.335997
-1.314299
-1.240890
-1.019361
-0.595694
-0.025914
0.552281
1.011191
1.266928
1.255148
0.953889
0.451501
-0.059622
-0.383105
-0.419835
-0.211342
0.112749
0.444839
0.746808
1.019252
1.269202
1.509176
1.776749
2.142491
2.654863
3.240678
3.671267
3.647753
2.997373
1.873570
0.712612
-0.041686
-0.166587
0.266731
0.967135
1.589389
1.884973
1.795487
1.456308
1.104469
0.926511
0.932621
1.020028
1.164566
1.446121
1.890348
2.387046
2.775148
3.004415
3.238931
3.711053
4.407391
4.975049
4.940094
4.041392
2.480599
0.821796
-0.406599
-1.016809
-1.207775
-1.347894
-1.645156
-2.047154
-2.399145
-2.608909
-2.705466
-2.782856
-2.888601
-2.982617
-2.987137
-2.862681
-2.664892
-2.535034
-2.620483
-2.965785
-3.426451
-3.703971
-3.507886
-2.742516
-1.622490
-0.581867
-0.007456
-0.020906
-0.424114
-0.857801
-1.077439
-1.071795
-0.974494
-0.913498
-0.897415
-0.826010
-0.607257
-0.260858
0.059395
0.165211
-0.003100
-0.327731
-0.606114
-0.674882
-0.494683
-0.142634
0.263897
0.622325
0.867337
0.999710
1.097720
1.230305
1.330202
1.240993
0.914174
0.479033
0.126837
-0.030037
-0.013784
0.110771
0.379002
0.868943
1.485157
1.927439
1.899681
1.321310
0.407975
-0.441466
-0.888511
-0.825538
-0.399726
0.100026
0.428377
0.494640
0.361210
0.166328
0.018928
-0.054575
-0.094654
-0.153103
-0.231193
-0.268122
-0.188494
0.030719
0.320858
0.575329
0.760185
0.935934
1.179004
1.517364
1.915579
2.280551
2.482408
2.413053
2.066175
1.559602
1.074577
0.745693
0.567340
0.430202
0.252380
0.021707
-0.262470
-0.602733
-0.952886
-1.213174
-1.296163
-1.189220
-0.966638
-0.732048
-0.536307
-0.380336
-0.283298
-0.277803
-0.338987
-0.394757
-0.415899
-0.429391
-0.434545
-0.350371
-0.053504
0.508808
1.209930
1.795895
2.072230
2.009301
1.707893
1.305329
0.889429
0.487872
0.122723
-0.151525
-0.264241
-0.196598
-0.043194
0.048597
0.020280
-0.078459
-0.201796
-0.366423
-0.603967
-0.889747
-1.124195
-1.227217
-1.264774
-1.386595
-1.618220
-1.821647
-1.857794
-1.705702
-1.453370
-1.222720
-1.091993
-1.076479
-1.152812
-1.260632
-1.294565
-1.166777
-0.909139
-0.660801
-0.546159
-0.611862
-0.856342
-1.257217
-1.758360
-2.243671
-2.539991
-2.497948
-2.106841
-1.495648
-0.816308
-0.152307
0.491711
1.135644
1.747911
2.225522
2.441335
2.313993
1.866134
1.229551
0.598031
0.162289
0.041687
0.228937
0.573827
0.855349
0.920201
0.769427
0.543275
0.411917
0.442619
0.592928
0.812889
1.081979
1.356044
1.543405
1.550605
1.351410
1.026491
0.712896
0.495121
0.367653
0.287358
0.231265
0.220764
0.306354
0.523818
0.851645
1.198068
1.455061
1.590581
1.670302
1.790614
1.994340
2.222393
2.350275
2.281309
1.992148
1.520046
0.957755
0.460047
0.201378
0.283601
0.671872
1.201285
1.664477
1.926939
1.943329
1.688076
1.145700
0.377186
-0.452920
-1.131771
-1.500992
-1.547593
-1.387615
-1.160059
-0.958348
-0.825543
-0.759174
-0.716485
-0.653247
-0.577615
-0.535592
-0.534527
-0.511624
-0.380685
-0.113268
0.208328
0.453957
0.580586
0.657981
0.772839
0.960147
1.205090
1.463760
1.674818
1.767243
1.682032
1.421459
1.089351
0.832342
0.710131
0.655193
0.549858
0.320873
-0.006847
-0.330881
-0.547406
-0.613313
-0.568410
-0.512025
-0.538112
-0.655733
-0.744278
-0.632904
-0.267980
0.218078
0.588844
0.664630
0.471725
0.237566
0.233974
0.611259
1.301509
2.048429
2.545830
2.587565
2.167866
1.467525
0.743526
0.221606
0.026520
0.151450
0.469198
0.797326
0.997331
1.033364
0.965870
0.896381
0.898884
1.000942
1.206667
1.493670
1.785146
1.966836
1.953961
1.739622
1.395716
1.032492
0.743802
0.587005
0.589156
0.726866
0.894618
0.946019
0.800108
0.495645
0.152359
-0.125411
-0.333746
-0.529234
-0.698601
-0.726968
-0.498094
-0.006552
0.596223
1.074786
1.258602
1.121926
0.763919
0.348915
0.040604
-0.051975
0.087952
0.378521
0.677097
0.865510
0.941219
1.008495
1.172360
1.452968
1.771910
2.010421
2.094466
2.013630
1.781024
1.427018
1.027949
0.682688
0.435794
0.244873
0.022268
-0.289807
-0.661451
-1.004005
-1.261721
-1.446711
-1.597185
-1.729293
-1.815270
-1.792915
-1.601231
-1.227197
-0.739477
-0.262766
0.095847
0.292334
0.339239
0.269945
0.106357
-0.126526
-0.361002
-0.506191
-0.520370
-0.435245
-0.310261
-0.175799
-0.007516
0.237006
0.546973
0.843198
1.030666
1.056329
0.938724
0.753801
0.588482
0.499617
0.492440
0.522508
0.518996
0.420590
0.211561
-0.068733
-0.346640
-0.547823
-0.629824
-0.596247
-0.492931
-0.397185
-0.397401
-0.551506
-0.838717
-1.157712
-1.381110
-1.428699
-1.320729
-1.157174
-1.037159
-1.004499
-1.044894
-1.113124
-1.168530
-1.193704
-1.195068
-1.197117
-1.229605
-1.300407
-1.369534
-1.370019
-1.270471
-1.113294
-0.998447
-1.015871
-1.170108
-1.390746
-1.617294
-1.840653
-2.071169
-2.287920
-2.417266
-2.383482
-2.194428
-1.942121
-1.717032
-1.552600
-1.435751
-1.345466
-1.283912
-1.266380
-1.284323
-1.298952
-1.268765
-1.165918
-0.974673
-0.700286
-0.387578
-0.113330
0.053126
0.089689
0.037185
-0.031460
-0.069631
-0.077188
-0.073147
-0.064383
-0.034338
0.039205
0.152386
0.270370
0.354493
0.392504
0.412304
0.463682
0.579542
0.757524
0.970147
1.183367
1.370259
1.511378
1.588563
1.590957
1.529304
1.432523
1.326853
1.225744
1.137365
1.074815
1.057399
1.095280
1.169021
1.235766
1.259171
1.225237
1.135959
1.000602
0.834951
0.668221
0.547691
0.522119
0.609141
0.779789
0.970696
1.114801
1.176328
1.163812
1.115931
1.072441
1.044560
1.009381
0.931274
0.792225
0.613921
0.447504
0.335696
0.284098
0.259439
0.218420
0.147381
0.065476
-0.006863
-0.065293
-0.111809
-0.139072
-0.125393
-0.051748
0.071690
0.206099
0.310548
0.357858
0.333975
0.242200
0.113758
0.002317
-0.042875
-0.008930
0.060436
0.080456
-0.026898
-0.287863
-0.654734
-1.024295
-1.291823
-1.406435
-1.400209
-1.357875
-1.344581
-1.367904
-1.393901
-1.388099
-1.351593
-1.315846
-1.306537
-1.329712
-1.386050
-1.476590
-1.592187
-1.709880
-1.806151
-1.878677
-1.958074
-2.081192
-2.243473
-2.397641
-2.500261
-2.541697
-2.538994
