EVENT_NAME: EMILIA_2ND_SHOCK
EVENT_ID: IT-2012-0011
EVENT_DATE_YYYYMMDD: 20120529
EVENT_TIME_HHMMSS: 070002
EVENT_LATITUDE_DEGREE: 44.8417
EVENT_LONGITUDE_DEGREE: 11.0657
EVENT_DEPTH_KM: 8.1
HYPOCENTER_REFERENCE: INGV-CNT_Seismic_Bulletin
MAGNITUDE_W: 6.0
MAGNITUDE_W_REFERENCE: RCMT-INGV
MAGNITUDE_L: 5.8
MAGNITUDE_L_REFERENCE: INGV-CNT_Seismic_Bulletin
FOCAL_MECHANISM: TF
NETWORK: IV
STATION_CODE: T0813
STATION_NAME: T0813
STATION_LATITUDE_DEGREE: 44.877800
STATION_LONGITUDE_DEGREE: 11.199200
STATION_ELEVATION_M: 1
LOCATION: 
SENSOR_DEPTH_M: 1.0
VS30_M/S: 
SITE_CLASSIFICATION_EC8: C*
MORPHOLOGIC_CLASSIFICATION: 
EPICENTRAL_DISTANCE_KM: 11.3
EARTHQUAKE_BACKAZIMUTH_DEGREE: 249.2
DATE_TIME_FIRST_SAMPLE_YYYYMMDD_HHMMSS: 20120529_065942.000
DATE_TIME_FIRST_SAMPLE_PRECISION: milliseconds
SAMPLING_INTERVAL_S: 0.005000
NDATA: 30001
DURATION_S: 150.005
STREAM: HNZ
UNITS: cm/s^2
INSTRUMENT: sensor = Episensor FBA ES-T [Kinemetrics] | digitizer = Unknown [Unknown]
INSTRUMENT_ANALOG/DIGITAL: D
INSTRUMENTAL_FREQUENCY_HZ: 
INSTRUMENTAL_DAMPING: 
FULL_SCALE_G: 
N_BIT_DIGITAL_CONVERTER: 
PGA_CM/S^2: 171.145456
TIME_PGA_S: 28.380000
BASELINE_CORRECTION: BASELINE REMOVED
FILTER_TYPE: BUTTERWORTH
FILTER_ORDER: 2
LOW_CUT_FREQUENCY_HZ: 0.060
HIGH_CUT_FREQUENCY_HZ: 40.000
LATE/NORMAL_TRIGGERED: NT
DATABASE_VERSION: DYNA 1.0
HEADER_FORMAT: DYNA 1.2
DATA_TYPE: ACCELERATION
PROCESSING: manual (Paolucci et al., 2011)
DATA_TIMESTAMP_YYYYMMDD_HHMMSS: 
DATA_LICENSE: CC-BY4_0 (http://creativecommons.org/licenses/by/4.0/)
DATA_CITATION: ESM working group (2015), European Strong-Motion database, version 0.1, Network Activity 3: Networking acceleration networks and SM data users. Project NERA (www.nera-eu.org)
DATA_CREATOR: ESM working group
ORIGINAL_DATA_MEDIATOR_CITATION: Orfeus - European Integrated Data Archive (EIDA) http://www.orfeus-eu.org/eida/
ORIGINAL_DATA_MEDIATOR: Orfeus - European Integrated Data Archive (EIDA)
ORIGINAL_DATA_CREATOR_CITATION: Data for this study comes from the Italian national seismic network operated by Istituto Nazionale di Geofisica e Vulcanologia and archived at the European Integrated Data Archive http://eida.rm.ingv.it/
ORIGINAL_DATA_CREATOR: network: IV (Italian National Seismic Network); owner: Istituto Nazionale di Geofisica e Vulcanologia
USER1: 
USER2: 
USER3: 
USER4: 
USER5: 
[...]
-0.011069
-0.009997
-0.010463
-0.011740
-0.012255
-0.011649
-0.011196
-0.012011
-0.013543
-0.014439
-0.014286
-0.013713
-0.013339
-0.013202
-0.012988
-0.012600
-0.012399
-0.012759
-0.013475
-0.013915
-0.013676
-0.013004
-0.012527
-0.012539
-0.012594
-0.012056
-0.011023
-0.010379
-0.010694
-0.011343
-0.011154
-0.009944
-0.008995
-0.009700
-0.011935
-0.014044
-0.014319
-0.012610
-0.010693
-0.010568
-0.012203
-0.013732
-0.013820
-0.012933
-0.012199
-0.011979
-0.012131
-0.012655
-0.013406
-0.014065
-0.014506
-0.014594
-0.014158
-0.013628
-0.014024
-0.015461
-0.016326
-0.015379
-0.013628
-0.012505
-0.011784
-0.010787
-0.010268
-0.011302
-0.012914
-0.013036
-0.011476
-0.009994
-0.009936
-0.010926
-0.011621
-0.011090
-0.009480
-0.007841
-0.007195
-0.007493
-0.007899
-0.008267
-0.009503
-0.011868
-0.013687
-0.013217
-0.011307
-0.010553
-0.011944
-0.013679
-0.013779
-0.012565
-0.011642
-0.011581
-0.011742
-0.011797
-0.011938
-0.011871
-0.011166
-0.010268
-0.009950
-0.010088
-0.009954
-0.009537
-0.009268
-0.008775
-0.007536
-0.006267
-0.006298
-0.007881
-0.010003
-0.011738
-0.012793
-0.012938
-0.012125
-0.011006
-0.010496
-0.010896
-0.011590
-0.011605
-0.010638
-0.009420
-0.008691
-0.008287
-0.007870
-0.008082
-0.009706
-0.011717
-0.012197
-0.011361
-0.011503
-0.013639
-0.015971
-0.016513
-0.015558
-0.014323
-0.013098
-0.011782
-0.010587
-0.009533
-0.008258
-0.007028
-0.006871
-0.007895
-0.008873
-0.009090
-0.009196
-0.009796
-0.010385
-0.010452
-0.010643
-0.011617
-0.012579
-0.012076
-0.009977
-0.007819
-0.007043
-0.007599
-0.008553
-0.009422
-0.010286
-0.011046
-0.011416
-0.011400
-0.011259
-0.011281
-0.011736
-0.012671
-0.013539
-0.013490
-0.012482
-0.011592
-0.011650
-0.012031
-0.011405
-0.009507
-0.007497
-0.006551
-0.006678
-0.006895
-0.006322
-0.005196
-0.004578
-0.004977
-0.006012
-0.007445
-0.009455
-0.011529
-0.012167
-0.010880
-0.009463
-0.009798
-0.011277
-0.011673
-0.010115
-0.008009
-0.006922
-0.006878
-0.007054
-0.007116
-0.007210
-0.007181
-0.006601
-0.005400
-0.003951
-0.002739
-0.002357
-0.003509
-0.006179
-0.009071
-0.010831
-0.011343
-0.011208
-0.010733
-0.010051
-0.009601
-0.009643
-0.009681
-0.009266
-0.008729
-0.008361
-0.007680
-0.006267
-0.004837
-0.004566
-0.005607
-0.007159
-0.008627
-0.009788
-0.010108
-0.009043
-0.007308
-0.006487
-0.006941
-0.007321
-0.006538
-0.005267
-0.004743
-0.004858
-0.004472
-0.003076
-0.001388
-0.000547
-0.001034
-0.002311
-0.003329
-0.003621
-0.003915
-0.004934
-0.005974
-0.005882
-0.004986
-0.004774
-0.005801
-0.007080
-0.007732
-0.007777
-0.007189
-0.005852
-0.004610
-0.004940
-0.006882
-0.008503
-0.008353
-0.007110
-0.006070
-0.005359
-0.004500
-0.003838
-0.004096
-0.005062
-0.005941
-0.006428
-0.006658
-0.006596
-0.006205
-0.005886
-0.005868
-0.005787
-0.005709
-0.006418
-0.007932
-0.008803
-0.007678
-0.005162
-0.003364
-0.003711
-0.005763
-0.007950
-0.008900
-0.008098
-0.005909
-0.003333
-0.001361
-0.000328
0.000022
-0.000077
-0.000798
-0.002324
-0.004076
-0.004848
-0.004275
-0.003509
-0.003690
-0.004485
-0.004870
-0.004741
-0.004920
-0.005706
-0.006350
-0.006083
-0.005024
-0.003994
-0.003672
-0.003978
-0.004142
-0.003498
-0.002388
-0.001864
-0.002222
-0.002506
-0.001782
-0.000291
0.000868
0.000857
-0.000279
-0.001848
-0.003136
-0.003855
-0.004003
-0.003311
-0.001123
0.003048
0.009052
0.016046
0.022575
0.027201
0.030821
0.039001
0.059574
0.096066
0.144039
0.193772
0.235534
0.262696
0.274271
0.279255
0.295684
0.337957
0.401828
0.466311
0.514202
0.547006
0.580436
0.631403
0.705766
0.788197
0.840653
0.819418
0.705233
0.519863
0.313218
0.138416
0.036971
0.026487
0.078930
0.125157
0.108288
0.024189
-0.097967
-0.234508
-0.375964
-0.513093
-0.633263
-0.727361
-0.796992
-0.867498
-0.970390
-1.075353
-1.072729
-0.877896
-0.539796
-0.174291
0.194728
0.575727
0.810388
0.657775
0.127422
-0.433210
-0.691456
-0.664575
-0.609522
-0.708512
-0.908002
-0.945608
-0.541785
0.317216
1.240828
1.668522
1.348525
0.553217
-0.211927
-0.640178
-0.728391
-0.566476
-0.211207
0.200623
0.383106
0.106982
-0.552496
-1.273228
-1.729259
-1.719229
-1.198390
-0.350096
0.388354
0.533063
-0.112484
-1.308728
-2.502040
-3.134166
-2.997001
-2.297939
-1.360151
-0.438156
0.169966
0.166220
-0.325946
-0.585936
0.042185
1.514089
3.384643
5.148812
5.938789
4.646636
1.284626
-2.094619
-3.043309
-1.080560
2.391136
5.678230
7.340802
5.972189
1.359082
-3.804442
-5.289894
-1.340685
5.457687
10.645646
11.689419
8.946431
3.607603
-3.800878
-11.860052
-16.365805
-12.796280
-2.163710
7.238331
6.768043
-3.468678
-13.939163
-14.925136
-5.611432
6.376473
12.508800
9.728353
1.346956
-6.743062
-10.649101
-10.029984
-6.364899
-1.129187
3.839490
5.824940
3.290123
-1.723079
-4.714709
-2.723778
3.094509
8.793424
10.935877
9.162224
6.611168
7.018530
10.378598
12.497337
10.028169
4.922005
1.551152
0.187512
-3.118867
-9.727508
-14.979832
-14.289079
-9.703258
-6.637574
-6.700052
-7.068367
-5.515297
-2.738066
0.139841
2.665757
3.575326
1.709530
-0.931964
0.046204
5.521468
9.816151
6.153044
-5.378225
-16.417219
-17.472145
-7.295815
4.534613
5.864996
-4.848254
-15.095178
-12.581952
-0.366429
7.991196
5.528789
-1.656992
-4.615876
-2.146307
0.836158
0.304259
-3.198529
-5.113680
-1.357616
6.155125
9.655923
3.952277
-6.084955
-10.547350
-5.769237
3.173259
9.042026
8.828015
5.152486
3.211768
5.732479
9.571510
8.739238
2.168403
-4.199308
-4.399556
0.836634
5.381456
4.394190
-1.486773
-7.818179
-10.585378
-8.606744
-2.970347
4.179084
9.135892
6.801524
-4.581184
-18.812887
-25.165936
-17.307692
1.623987
21.611761
31.795912
26.509113
10.495074
-3.612157
-7.819427
-6.359384
-7.463175
-10.771703
-8.746508
0.298679
8.356745
8.007073
1.072266
-4.075563
-0.840287
10.634540
22.984442
25.423357
13.390344
-4.905069
-15.554501
-12.077610
0.905092
15.244393
25.031401
24.881950
10.889556
-12.450729
-30.951988
-32.183887
-18.313070
-3.994634
-1.333118
-9.062078
-16.494690
-14.874882
-3.177629
13.416871
27.734138
34.546417
31.757332
19.440216
0.890605
-15.309979
-18.943569
-7.887541
7.946747
16.574532
15.607773
10.986705
7.422190
4.697543
2.609077
3.545665
7.787123
9.914424
2.701989
-14.877916
-33.797401
-41.399147
-33.664005
-19.068571
-8.128640
-1.629042
6.186966
15.149980
18.768030
15.873310
13.647060
16.285898
17.054005
7.606224
-8.991733
-20.941578
-21.467377
-14.689866
-7.836768
-3.436292
-0.743616
-0.080450
-3.381624
-11.367829
-20.965389
-26.310099
-23.263865
-12.934296
-0.140794
11.046588
18.597040
20.493473
15.558040
6.710838
0.301318
1.177329
8.618293
16.435532
16.658175
5.464697
-11.191647
-20.138660
-13.480231
3.108394
16.803932
20.025957
13.671395
0.861217
-15.577124
-29.584496
-32.890095
-22.875685
-7.211333
2.353275
1.097816
-5.181596
-7.935574
-4.210989
3.865876
12.987698
19.253979
18.977604
13.264211
9.093149
10.074558
10.959471
8.006950
7.100561
13.896041
21.613613
18.778820
7.205527
-0.497334
0.008952
0.740979
-3.480899
-5.919335
1.134450
13.469277
19.811142
15.450690
5.527942
-3.505517
-9.773544
-13.756475
-16.361856
-20.020594
-27.458521
-37.190647
-42.898346
-39.623981
-27.963337
-11.768100
4.085522
13.316283
11.027859
0.783631
-6.026943
-3.321732
2.046301
-0.280257
-11.243583
-22.335169
-25.964293
-21.065168
-9.727399
5.959171
22.098286
31.713842
29.457514
17.741041
5.511657
-0.377683
-0.984217
-1.279119
-2.712582
-2.781593
-1.237768
-1.507148
-4.018755
-3.627915
2.901738
10.464007
11.280345
4.866108
-2.781098
-7.482627
-9.652631
-10.447705
-9.478188
-6.444519
-0.662839
10.322007
25.819359
36.614929
31.748461
13.840883
0.349975
3.001917
12.783490
11.614294
-5.180735
-23.292337
-25.438490
-8.265208
17.061096
37.070454
46.457626
47.812641
44.219036
34.403465
16.050188
-6.574768
-21.945509
-21.681459
-9.834687
0.282838
-2.272167
-17.123798
-33.208618
-37.874863
-27.135452
-8.592432
5.732116
9.187092
3.157951
-6.731248
-14.219899
-14.198087
-5.127230
8.796208
20.099384
23.045851
15.343039
-0.967699
-17.132545
-20.731684
-7.127220
12.450736
20.171303
9.927669
-8.146497
-20.537416
-22.896383
-18.984207
-12.172513
-3.134972
5.220230
5.679326
-6.390735
-23.968658
-31.150084
-20.450224
-3.957302
-0.377584
-12.821818
-24.870932
-19.033918
5.769934
36.119095
57.000237
60.789783
48.905102
28.821556
8.396969
-8.631965
-20.079786
-20.991140
-9.490130
5.513648
11.444811
6.520706
1.539141
6.492851
19.924511
31.974567
31.936108
13.283512
-21.220449
-56.564220
-72.791672
-61.071571
-30.849440
0.499515
20.537685
25.886511
21.605923
17.871801
20.877068
23.496899
10.583984
-22.558062
-61.157944
-82.279137
-73.833763
-43.698589
-11.152728
11.045431
25.422405
39.800957
50.929962
46.151295
24.163143
2.670043
-1.233300
9.686612
20.080645
23.020664
23.362713
25.486010
29.380268
33.909122
34.626808
22.141653
-6.063022
-33.411594
-38.965260
-25.046495
-16.384333
-28.516487
-47.356075
-48.100807
-26.370415
-1.544632
5.407783
-9.420991
-32.741310
-44.346664
-30.991024
-0.373632
22.319410
20.016445
2.318584
-7.862619
-2.346121
8.690615
18.121918
30.638186
46.584435
50.315056
27.931250
-8.195831
-26.876331
-11.498732
21.845037
43.000317
39.361122
24.803040
20.823256
33.727455
50.344215
51.674084
29.533524
-6.488278
-36.704079
-46.763985
-36.824856
-18.959909
-7.911680
-10.623418
-19.357851
-15.982111
9.852229
46.262085
70.490807
71.952873
56.409920
33.616077
10.968149
-2.223226
2.908092
21.279579
32.063023
20.358339
-1.991933
-8.019155
10.020696
28.487654
21.518946
-6.076176
-28.665569
-34.143490
-31.518690
-30.612480
-29.236246
-21.593222
-8.608819
2.386661
-0.087915
-21.339752
-43.113464
-35.561638
1.836710
29.650719
15.426703
-21.925798
-39.877289
-27.641325
-4.666979
15.810343
35.651020
54.103344
61.710266
52.718502
29.445419
-0.450500
-20.342850
-13.698261
12.558938
27.129192
7.376627
-33.263268
-61.614193
-60.768860
-39.993118
-21.526951
-23.822748
-45.453667
-62.433399
-50.563297
-14.023671
18.698603
30.745117
29.727352
22.555792
2.505128
-29.626207
-50.957069
-43.389126
-23.446199
-23.235628
-48.754322
-72.237900
-64.478439
-24.835583
22.287531
50.751854
49.966202
28.467726
7.631108
8.903566
38.121956
76.350060
89.590462
58.290882
1.947754
-32.226574
-13.413571
40.701786
81.811226
79.055481
44.252930
11.541295
0.560338
4.494286
7.898155
6.957206
8.679124
13.769342
10.434382
-7.360248
-25.488827
-26.630571
-14.480300
-9.331013
-21.785194
-41.502876
-52.903847
-50.106358
-34.683720
-10.040120
16.125591
30.231195
23.662399
6.369381
2.086263
23.623171
56.896019
75.202744
64.366119
30.889677
-6.813416
-29.002497
-25.573458
-10.035535
-10.777137
-33.008812
-46.687096
-27.266014
7.075569
19.639936
7.373561
-2.432031
-1.464723
-12.539017
-49.342686
-86.595657
-83.994408
-29.970951
48.148731
108.428993
122.859894
90.879311
35.233906
-14.161550
-37.611378
-32.746384
-9.867840
15.914527
30.234411
23.572803
-5.823074
-49.899391
-90.283409
-105.878471
-89.828262
-60.832245
-50.699150
-73.447235
-107.863869
-115.001038
-74.830101
-5.006587
57.325901
89.570496
96.206329
91.526176
79.976326
53.089417
-0.055021
-73.019501
-131.368164
-136.972580
-88.123611
-23.550327
20.772476
46.572620
72.120232
94.861092
99.142540
91.798767
100.629623
128.634995
136.379822
85.480919
-12.745043
-99.597534
-121.075668
-80.438477
-33.584026
-27.834900
-56.032883
-75.612389
-59.695789
-16.854319
30.407677
63.156216
65.720863
32.948586
-17.510679
-55.214573
-66.742523
-63.551003
-57.127171
-45.408932
-26.818329
-10.269530
-4.799026
-7.793025
-9.055916
1.773831
33.454483
83.189911
126.175438
130.381104
89.312927
35.318279
14.082332
44.588634
100.980751
129.441193
91.746346
3.498495
-76.769997
-105.414162
-95.986069
-93.941498
-114.539246
-126.484886
-98.204910
-41.122868
1.356096
1.686924
-22.355267
-26.098225
17.111919
88.372505
136.380234
119.485535
43.698715
-38.172573
-72.503860
-55.172745
-30.412313
-33.688107
-52.965988
-59.474510
-49.316212
-34.807846
-16.042120
11.854059
33.900745
31.851112
12.588407
-10.495904
-39.400597
-67.263695
-56.653870
16.317320
105.089554
133.171097
86.331955
18.502630
-24.306887
-46.814491
-67.701263
-79.522705
-65.966133
-30.250614
10.548112
44.065666
64.730629
68.802704
60.219105
48.760975
34.908558
15.211962
1.786568
12.404722
38.194065
45.250629
22.217098
-0.181235
4.502377
19.544855
12.396242
-17.278288
-43.079575
-54.504845
-62.047333
-65.320503
-45.599346
0.739961
40.174713
33.654842
-14.075074
-49.716312
-22.836435
53.490662
101.808723
59.043304
-48.689816
-130.137451
-124.016747
-53.435898
14.526387
41.611530
41.929222
52.543262
92.799454
145.658432
171.145462
140.278381
62.195724
-24.176865
-84.870979
-108.037155
-95.379364
-58.554008
-25.001375
-25.530416
-59.972862
-86.199898
-60.613045
11.551980
78.504944
97.568321
74.825943
43.432594
19.689928
1.239327
-2.208661
26.439039
75.136101
103.346039
88.276360
49.800156
17.535112
-2.947518
-18.063194
-27.798876
-32.080963
-37.189987
-43.575340
-39.159653
-19.778921
-3.861520
-9.500108
-24.576132
-15.564775
29.401033
74.748093
67.368889
-2.868026
-83.458908
-112.321671
-84.504326
-48.956085
-41.987366
-53.694881
-59.422585
-49.777996
-26.382708
4.818767
24.395655
8.605154
-32.145683
-49.903152
-16.414761
33.579025
40.187431
-5.923467
-52.909142
-51.459869
-4.584491
47.534523
71.936081
62.738113
35.616959
15.039246
11.994849
9.926560
-12.717795
-43.092220
-37.425865
20.654640
88.268005
109.813492
75.219353
16.674828
-34.179787
-61.879726
-57.238239
-26.742683
2.413535
11.862330
11.767103
18.681889
29.608887
33.501366
32.825584
31.186092
17.946388
-13.413247
-47.515457
-61.522083
-48.744118
-18.820444
16.161036
42.482639
44.032639
17.449535
-18.361811
-40.430832
-48.228786
-59.409931
-77.661835
-80.440063
-49.519844
-3.808250
18.121675
6.939083
-3.960837
21.411627
79.450600
133.184616
150.903854
130.662598
95.293686
67.633919
47.991188
19.951963
-21.333551
-55.960518
-59.360188
-29.615215
12.167022
41.143528
41.319164
11.788757
-28.670843
-50.746319
-40.839893
-18.845825
-18.491125
-47.979404
-79.517433
-80.810905
-49.688274
-11.856903
8.365217
5.807424
-12.820347
-39.293247
-61.482410
-64.248863
-41.762718
-3.827972
32.067879
52.485550
53.561516
42.066486
32.546970
34.042267
39.540600
37.811584
29.041464
18.804590
5.244991
-14.171700
-27.729193
-20.636663
1.835199
22.081324
32.706871
35.516731
28.009083
6.280051
-21.254637
-37.590347
-33.219772
-8.073344
30.345959
61.843693
65.077881
43.915901
27.891811
33.555534
37.920269
11.176655
-35.020035
-55.536457
-27.062403
24.526419
58.190975
57.701950
31.949743
-2.333087
-29.338196
-40.319901
-44.062271
-60.854721
-93.130577
-114.496323
-99.955376
-58.312244
-21.001825
-1.973190
12.803188
35.873516
56.721600
55.007656
25.085739
-18.875141
-53.680061
-59.998631
-37.198620
-8.892331
-3.279066
-22.887032
-40.517532
-31.359896
-0.475307
29.014866
44.422733
48.316120
41.700024
21.608788
-6.035609
-29.837114
-47.183495
-61.635750
-68.008530
-54.372303
-23.127819
5.530974
18.003323
22.327600
31.333296
39.256187
28.194862
-4.441173
-37.380760
-46.334320
-27.959579
-1.303981
11.171355
2.038467
-18.019093
-30.695946
-23.417099
2.094426
29.550243
38.011166
18.839537
-13.826347
-33.307903
-24.415773
3.748047
29.982744
41.662403
39.596146
30.518097
22.832924
23.457539
27.725428
15.297502
-26.893227
-78.178574
-100.201759
-81.368721
-49.377296
-32.598694
-25.137938
-4.602543
30.320480
57.753700
63.836239
59.958336
62.606792
68.031822
59.104664
33.639118
11.085250
7.146691
13.692436
12.745867
3.597754
1.662454
12.939127
24.027346
19.304403
0.070931
-17.641418
-21.341265
-14.547414
-11.214631
-18.523958
-27.413645
-24.066185
-7.751247
9.618367
18.188011
16.430990
4.215149
-19.533674
-47.200912
-60.747768
-47.998875
-17.367977
8.760225
15.804686
9.297887
5.761700
14.541296
28.975204
33.092392
16.496117
-14.668741
-40.616737
-44.549999
-27.816858
-8.162660
-3.469165
-15.979296
-30.368946
-28.519064
-8.423558
12.592272
16.900204
7.626019
2.892660
8.797300
8.810818
-14.409714
-53.591972
-82.556000
-83.112640
-58.246902
-24.393055
1.828094
11.666208
6.178852
-5.803378
-13.028885
-8.119790
8.557644
28.704000
40.997829
39.574375
27.297218
10.537137
-5.272532
-14.552478
-12.220603
-0.239599
10.405469
11.134382
6.932399
9.856457
21.388128
27.019953
12.519895
-17.607744
-42.569359
-45.926220
-29.695114
-7.785780
7.698469
10.409523
-2.812489
-28.612019
-53.375282
-62.734104
-54.414986
-36.863556
-18.570875
-4.552406
-0.188096
-7.678536
-18.727421
-21.545242
-15.747019
-11.688135
-12.522693
-7.139642
11.382302
30.218861
29.343676
5.977360
-20.803432
-30.820667
-22.567825
-10.640591
-8.049250
-14.657003
-21.685684
-23.426071
-21.902834
-20.658371
-17.313585
-5.428446
16.393173
40.287354
55.194244
55.481216
42.878540
22.467453
0.792532
-13.356262
-12.497091
2.296762
20.367146
30.415789
28.237638
14.394123
-10.326480
-41.846233
-67.483490
-71.550392
-49.793816
-15.177757
13.723971
28.543806
31.910412
27.324709
16.808952
6.555715
5.020325
11.676049
16.252045
13.052416
6.542991
0.541397
-8.678437
-23.856207
-38.028835
-41.625500
-32.928982
-15.818554
6.450351
30.284031
48.645607
54.327187
47.486691
37.866978
37.411518
49.175301
63.533146
67.373573
57.233536
39.975590
21.629120
2.096487
-18.066406
-32.202427
-34.689354
-30.097366
-28.696892
-34.001190
-38.571896
-32.847710
-16.839939
-0.849027
6.298895
6.608860
8.164369
14.646652
22.990320
29.295681
32.333221
31.545193
27.437859
23.609472
23.004656
22.714336
16.962782
5.796380
-4.484276
-10.748376
-15.820812
-20.274759
-18.693705
-8.713173
1.688681
3.483930
-0.578391
0.113388
8.539240
15.431984
12.225157
1.849308
-6.431609
-8.077017
-6.907788
-9.680649
-18.290312
-26.729631
-26.314548
-16.192305
-6.681863
-7.976868
-18.466494
-28.571503
-33.071796
-34.339256
-34.927078
-34.800179
-35.526329
-38.855961
-40.981621
-33.907040
-14.091816
12.896522
37.120327
50.179829
48.177853
35.519993
24.707603
26.602945
40.431515
56.819244
69.850220
79.456161
82.510406
