EVENT_NAME: EMILIA_2ND_SHOCK
EVENT_ID: IT-2012-0011
EVENT_DATE_YYYYMMDD: 20120529
EVENT_TIME_HHMMSS: 070002
EVENT_LATITUDE_DEGREE: 44.8417
EVENT_LONGITUDE_DEGREE: 11.0657
EVENT_DEPTH_KM: 8.1
HYPOCENTER_REFERENCE: INGV-CNT_Seismic_Bulletin
MAGNITUDE_W: 6.0
MAGNITUDE_W_REFERENCE: RCMT-INGV
MAGNITUDE_L: 5.8
MAGNITUDE_L_REFERENCE: INGV-CNT_Seismic_Bulletin
FOCAL_MECHANISM: TF
NETWORK: IV
STATION_CODE: T0814
STATION_NAME: T0814
STATION_LATITUDE_DEGREE: 44.793300
STATION_LONGITUDE_DEGREE: 10.969200
STATION_ELEVATION_M: 16
LOCATION: 
SENSOR_DEPTH_M: 1.0
VS30_M/S: 
SITE_CLASSIFICATION_EC8: C*
MORPHOLOGIC_CLASSIFICATION: 
EPICENTRAL_DISTANCE_KM: 9.3
EARTHQUAKE_BACKAZIMUTH_DEGREE: 54.8
DATE_TIME_FIRST_SAMPLE_YYYYMMDD_HHMMSS: 20120529_065942.000
DATE_TIME_FIRST_SAMPLE_PRECISION: milliseconds
SAMPLING_INTERVAL_S: 0.005000
NDATA: 20001
DURATION_S: 100.005
STREAM: HNE
UNITS: cm/s^2
INSTRUMENT: sensor = Episensor FBA ES-T [Kinemetrics] | digitizer = Unknown [Unknown]
INSTRUMENT_ANALOG/DIGITAL: D
INSTRUMENTAL_FREQUENCY_HZ: 
INSTRUMENTAL_DAMPING: 
FULL_SCALE_G: 
N_BIT_DIGITAL_CONVERTER: 
PGA_CM/S^2: 436.286498
TIME_PGA_S: 32.140000
BASELINE_CORRECTION: BASELINE REMOVED
FILTER_TYPE: BUTTERWORTH
FILTER_ORDER: 2
LOW_CUT_FREQUENCY_HZ: 0.060
HIGH_CUT_FREQUENCY_HZ: 40.000
LATE/NORMAL_TRIGGERED: NT
DATABASE_VERSION: DYNA 1.0
HEADER_FORMAT: DYNA 1.2
DATA_TYPE: ACCELERATION
PROCESSING: manual (Paolucci et al., 2011)
DATA_TIMESTAMP_YYYYMMDD_HHMMSS: 
DATA_LICENSE: CC-BY4_0 (http://creativecommons.org/licenses/by/4.0/)
DATA_CITATION: ESM working group (2015), European Strong-Motion database, version 0.1, Network Activity 3: Networking acceleration networks and SM data users. Project NERA (www.nera-eu.org)
DATA_CREATOR: ESM working group
ORIGINAL_DATA_MEDIATOR_CITATION: Orfeus - European Integrated Data Archive (EIDA) http://www.orfeus-eu.org/eida/
ORIGINAL_DATA_MEDIATOR: Orfeus - European Integrated Data Archive (EIDA)
ORIGINAL_DATA_CREATOR_CITATION: Data for this study comes from the Italian national seismic network operated by Istituto Nazionale di Geofisica e Vulcanologia and archived at the European Integrated Data Archive http://eida.rm.ingv.it/
ORIGINAL_DATA_CREATOR: network: IV (Italian National Seismic Network); owner: Istituto Nazionale di Geofisica e Vulcanologia
USER1: 
USER2: 
USER3: 
USER4: 
USER5: 
[...]
-20.226200
-8.825292
6.854073
21.370272
29.291939
28.976751
22.385244
12.046146
0.069271
-10.404077
-15.433971
-12.862578
-4.261447
5.491828
10.390014
6.480096
-4.905150
-17.340069
-24.478268
-24.917059
-21.234795
-15.168687
-5.565079
8.368847
23.035624
31.391491
28.763531
17.007471
2.559595
-8.398830
-12.291051
-8.083639
1.644983
10.317394
11.646565
5.242445
-3.133307
-7.128927
-4.776893
1.624318
8.333893
12.385561
12.758348
10.447581
6.914295
2.147258
-4.740639
-12.910245
-19.435799
-21.834122
-19.715300
-13.584470
-3.389740
9.950053
21.879408
25.495005
17.566992
2.613904
-10.760677
-17.264408
-17.899895
-16.230106
-12.987347
-5.707292
5.863604
16.386023
19.441111
13.856360
3.811350
-5.798312
-12.163126
-13.954537
-11.106761
-5.180508
1.873928
8.538026
12.913698
13.078440
9.532654
6.201078
7.012799
11.478725
14.915490
13.079161
6.379112
-0.231779
-1.845368
1.786690
6.839518
10.287346
12.562231
14.370252
12.709341
3.273098
-13.060010
-28.542059
-34.622585
-28.750450
-14.697921
1.846608
16.820755
27.968142
32.807102
28.322781
14.722053
-1.776274
-12.639617
-13.101047
-4.073506
9.721532
21.622396
24.973459
17.327301
2.926172
-11.062885
-19.774080
-21.357321
-15.127675
-2.039210
13.352679
24.434183
27.085405
21.983974
12.884895
3.696238
-2.669881
-4.137900
-0.093507
7.460611
14.581724
18.181698
17.589140
13.384241
6.215479
-2.696944
-11.083454
-16.825752
-19.369783
-19.409811
-17.648026
-14.060725
-8.093275
0.243885
9.423893
16.929882
20.998131
21.912056
21.431610
20.632154
18.421551
12.768453
3.572444
-6.183259
-12.998178
-16.666786
-20.205751
-25.652895
-31.364025
-34.022305
-32.207348
-27.062769
-20.466906
-13.915183
-8.588680
-5.070776
-2.586105
0.800228
6.694906
15.111661
24.330299
31.568754
34.208488
31.321079
24.678122
17.829840
13.147151
9.629907
4.331906
-3.757822
-11.790104
-15.482449
-13.495683
-9.113327
-7.118726
-8.987459
-11.832658
-12.386212
-11.247035
-12.788399
-21.256138
-37.439816
-59.056919
-83.170586
-107.568901
-130.229492
-147.757736
-155.646362
-152.624832
-145.392166
-146.052307
-161.362305
-185.351822
-204.621338
-208.723038
-193.919601
-160.631332
-111.343315
-50.702099
14.513912
76.611130
129.143433
168.691315
194.972260
209.991821
216.666641
216.876450
211.296921
201.474274
190.884583
183.719803
182.751404
187.579254
194.152634
196.396454
189.675049
173.099319
148.694550
119.679520
89.468330
60.625378
33.782246
7.451306
-20.499548
-50.362186
-79.215378
-101.895287
-113.329842
-110.848450
-95.223305
-69.777115
-39.356182
-9.867796
13.405242
28.131332
35.394047
37.970318
38.111309
36.321018
31.912491
24.367311
13.746166
0.474512
-14.364830
-28.569073
-39.575768
-46.434719
-50.677670
-54.461716
-57.857342
-58.736053
-55.086300
-46.726032
-35.423336
-23.959272
-14.580913
-7.846631
-2.681893
2.688120
9.671454
18.398436
26.947569
31.616594
29.296785
19.633032
4.336723
-14.385407
-34.103798
-51.869663
-64.169556
-67.505157
-59.988766
-42.625523
-18.811729
6.758952
28.851732
42.821815
45.809319
37.463428
20.785646
1.938207
-12.449582
-18.015619
-13.307722
0.108539
17.350765
31.444050
36.342545
29.070593
10.110867
-15.556233
-38.080086
-46.985332
-37.529457
-13.066054
17.564383
44.471355
60.374275
61.937786
48.833824
23.179197
-9.259605
-39.434799
-59.515343
-67.440315
-66.719604
-62.825878
-59.934467
-59.624691
-60.762058
-59.560944
-50.848598
-30.946564
-0.381257
35.506763
69.088516
94.597832
109.868507
114.880646
110.990974
101.157471
88.211670
72.507347
52.094700
25.623552
-5.045096
-35.643513
-62.667145
-85.132759
-103.258736
-115.620064
-117.391350
-102.490074
-69.451477
-25.049520
18.912374
52.133358
69.743431
72.022591
62.001621
43.966251
23.019556
3.565915
-12.353789
-24.545416
-33.173725
-39.088367
-44.822224
-52.915215
-62.324203
-67.575851
-63.325684
-49.895744
-33.305992
-20.285639
-13.697578
-11.985465
-11.992039
-11.887606
-11.619312
-11.153005
-8.908435
-2.082334
11.215036
29.468639
47.496738
59.624905
63.543587
60.361031
51.192638
35.849354
14.724774
-10.141170
-35.827789
-59.515327
-78.785500
-91.156219
-93.909271
-85.332466
-66.383446
-41.261005
-16.327209
2.874317
14.774381
21.508175
25.110996
24.924894
18.828497
6.306259
-9.473507
-22.567015
-27.760679
-23.349401
-11.110807
5.009769
20.538536
32.694298
41.692116
49.711143
58.501377
67.796249
75.622459
79.547256
77.481873
68.281921
52.776814
34.254730
17.382166
6.216396
2.530875
5.291934
11.661912
18.701685
24.392593
27.747330
28.474464
26.375494
21.229315
14.140774
8.672037
9.034737
16.775084
29.836266
44.598862
57.960567
67.551697
71.160194
66.650093
52.739468
30.286963
2.826448
-24.276838
-46.246330
-62.150578
-75.815208
-92.570595
-114.731728
-140.462051
-166.657394
-191.494156
-213.354065
-228.412506
-230.982315
-216.008011
-181.269241
-129.157227
-67.317062
-7.157434
40.259300
69.608124
82.529022
82.540192
70.735092
48.393177
21.343037
-1.934108
-16.513081
-24.006836
-29.890610
-38.337219
-48.782600
-55.966866
-52.798008
-34.826920
-2.855080
38.623596
83.860886
127.112572
164.006287
191.759033
206.896896
203.570358
175.361511
120.529602
48.103104
-23.336325
-77.593964
-111.048836
-129.905029
-140.616989
-144.873459
-142.012619
-133.527145
-122.554756
-108.445557
-84.475281
-43.814346
11.082551
67.530647
113.618805
147.317413
172.903061
192.119812
201.831299
198.846466
184.393036
163.358215
140.389053
118.104561
97.880875
79.726784
61.200626
37.978214
6.792119
-31.800543
-73.329308
-111.106590
-138.430664
-151.368118
-150.105408
-137.216644
-115.846092
-89.424751
-61.008091
-32.636688
-6.063426
16.339142
32.441048
42.354637
48.771938
54.742390
61.287014
67.494675
72.027641
73.611649
71.448105
66.565796
62.123058
61.276203
64.370140
68.411736
69.403908
65.220337
56.586956
45.771748
34.787308
24.971609
17.571198
13.698501
13.666719
16.918842
22.720537
30.718103
40.484207
50.731426
59.377380
63.824631
61.167564
49.601311
30.214716
6.550328
-17.640749
-39.438351
-56.179714
-65.752472
-67.938812
-64.693489
-58.957005
-53.255913
-49.336739
-48.508488
-51.222355
-56.008446
-59.608067
-59.280495
-55.751842
-53.637325
-57.766380
-68.503708
-80.602676
-85.952133
-77.807068
-54.849468
-23.080732
7.304831
29.006271
41.538460
47.894939
49.167614
43.207294
27.673132
3.549880
-24.737778
-51.695404
-72.432053
-83.229050
-82.281715
-70.587250
-52.403770
-34.778484
-24.735853
-24.690939
-30.930679
-37.645130
-41.612972
-42.834709
-42.367638
-40.761829
-38.258575
-35.460339
-33.535770
-34.183739
-39.429104
-50.772186
-67.560524
-86.303917
-102.723557
-114.910980
-123.907196
-131.196503
-136.750305
-139.724167
-140.303970
-140.854584
-145.104202
-155.190277
-169.138702
-181.697525
-187.695511
-184.505936
-172.116425
-151.945084
-125.669861
-94.841331
-60.762615
-23.883364
16.088316
59.129345
104.222023
149.084915
190.467560
225.768753
254.357971
276.687805
292.653748
301.331543
302.378571
297.079590
287.010925
272.298706
252.043137
226.200455
196.980850
168.305450
143.539795
123.618324
107.168213
92.155975
77.638458
64.269287
53.005531
43.838875
36.596497
32.569710
34.017281
41.007347
49.863037
56.426140
59.975330
62.881008
67.232407
72.877625
78.547394
83.608894
88.291817
92.752037
96.008522
95.499435
88.038620
71.861534
47.914597
19.517185
-9.090569
-34.864212
-57.978413
-82.195107
-111.905975
-146.294327
-176.169342
-189.425095
-180.167892
-151.640594
-112.488411
-71.609375
-35.286133
-7.353467
10.024506
16.814623
14.707701
4.782454
-13.101423
-38.441830
-68.964798
-100.906532
-130.004532
-152.857132
-167.696060
-174.602844
-176.291351
-178.076797
-184.940491
-197.843979
-213.264862
-226.394272
-234.127670
-235.204697
-229.615646
-218.905807
-206.142151
-194.769150
-187.125336
-183.890366
-184.440460
-186.970795
-188.219452
-183.878250
-170.373215
-146.535278
-113.676323
-75.217987
-36.049442
-0.488496
29.445761
53.598129
72.446831
86.625320
96.662956
102.583069
104.129082
101.715843
96.683014
89.189247
75.636314
50.321526
11.369742
-34.941795
-77.051811
-106.605171
-123.564285
-133.130936
-139.863464
-145.120178
-147.788193
-145.719330
-136.538452
-117.923027
-88.002350
-46.061832
5.878062
61.126354
109.902977
145.874939
170.784515
191.238281
212.260651
234.381393
254.845581
269.330292
272.317505
258.921844
228.482544
186.262650
142.062515
106.105690
83.723404
73.384949
69.800713
67.633736
62.611366
51.672729
33.488258
8.390840
-22.323605
-56.191223
-89.064941
-116.528938
-136.397415
-149.507233
-158.133499
-163.473770
-164.721954
-160.979324
-153.566513
-145.619675
-139.121841
-132.703186
-123.239548
-109.499001
-93.369698
-77.732307
-63.778591
-50.379299
-35.350002
-16.977339
4.927574
29.011856
53.530373
77.094345
98.261871
115.445961
127.763512
135.579834
139.768417
140.237946
135.454193
123.158653
101.282608
69.699089
31.974613
-5.671570
-37.765198
-62.078838
-79.358261
-90.968544
-96.776947
-95.548080
-86.705948
-70.890938
-49.973297
-27.102409
-5.947581
10.063585
18.180410
17.760893
11.589674
4.588534
0.873720
1.949367
6.979400
14.098570
21.512480
28.084141
33.727104
39.490604
46.615456
55.096790
63.515057
70.447899
75.750137
80.157585
83.837074
85.827759
85.071976
81.703583
77.214340
73.754578
73.290695
76.787872
83.908524
93.485649
103.994156
113.869278
122.110420
128.518967
133.140396
135.902878
136.976761
137.083328
137.182755
138.007843
140.043060
143.567169
148.243881
152.730774
155.022598
153.483292
147.704651
138.554306
127.710037
116.915886
107.101410
98.300522
90.768784
85.708199
84.003784
84.694824
85.879189
86.885811
88.554558
91.135605
92.896431
91.747040
87.596596
82.266190
77.460487
73.617027
70.563812
68.261734
66.696304
65.707794
65.199547
65.237770
65.643440
65.548180
63.633934
58.950394
51.354736
41.308704
29.974735
19.359989
11.218513
5.281214
-1.024599
-10.512338
-24.053957
-40.621002
-58.629028
-76.760490
-94.007439
-109.476082
-122.383881
-132.241379
-138.819260
-141.965805
-141.869385
-139.276428
-134.988251
-129.437408
-122.985527
-116.406677
-110.740463
-106.532173
-103.589249
-101.745132
-101.508156
-103.670288
-108.468040
-115.232346
-122.621986
-128.986755
-132.584274
-132.175552
-128.470169
-125.109222
-126.931198
-135.841782
-148.862610
-161.061737
-168.964157
-170.075302
-160.979401
-138.350403
-102.320793
-58.375504
-15.229018
20.120726
45.419464
61.808708
70.963348
73.439339
68.634590
56.783047
41.001423
26.135777
15.683675
10.329873
8.780036
8.995039
8.702341
5.889194
-0.437786
-9.869445
-20.937775
-31.920858
-41.376820
-47.803772
-49.243935
-44.449615
-34.778225
-24.212223
-17.126204
-15.648743
-18.533632
-22.432878
-24.546829
-24.237116
-22.486847
-20.537771
-19.373856
-19.843550
-22.304258
-26.167503
-30.265781
-33.459274
-34.378567
-30.993202
-21.738541
-7.315726
9.268338
24.343609
35.187946
40.694317
41.158516
37.881172
33.111244
29.674070
29.674459
33.338497
39.173565
45.024891
48.951443
49.548870
45.964333
37.984089
26.594818
14.663941
6.303016
4.489323
9.325859
18.757544
30.009478
40.252304
47.147411
49.439594
47.180264
41.723267
35.431023
30.722397
28.905962
29.676308
31.605034
33.372742
34.799999
36.502254
38.474865
39.452400
38.017670
34.090519
28.882023
23.380346
17.278727
9.908670
2.107379
-3.519922
-4.325596
0.724780
10.857508
24.215347
38.642532
52.030037
62.233971
67.554977
68.234772
67.060905
67.377213
70.439659
75.160912
80.135033
84.720428
87.786499
87.011688
80.409775
68.009239
51.544586
32.814751
13.375972
-4.438665
-17.825365
-25.294178
-27.665970
-27.321421
-26.604515
-26.492050
-26.405169
-25.312510
-22.970356
-20.051279
-17.419094
-15.691781
-15.234202
-15.987311
-17.129557
-17.171850
-14.830906
-10.081074
-4.311397
0.687923
3.980204
5.878557
7.271277
8.540518
8.925748
6.721020
0.275024
-10.631314
-24.367939
-38.570545
-51.140972
-60.249325
-64.767014
-65.617638
-65.412727
-65.520256
-65.251816
-64.646011
-65.211754
-66.839592
-66.525146
-62.430050
-57.607609
-56.820999
-61.203205
-68.450607
-76.644882
-85.799072
-96.285088
-107.665016
-119.201210
-130.064514
-138.996735
-144.744690
-147.070175
-146.907150
-145.358337
-143.020020
-140.232147
-137.353104
-134.703384
-132.344650
-129.882446
-126.816620
-123.448723
-121.242493
-121.893036
-125.770401
-131.219803
-135.657883
-137.615082
-137.674255
-137.427109
-137.804230
-138.514389
-138.796326
-138.206528
-136.463486
-132.938034
-126.578712
-116.263184
-101.174675
-80.746780
-54.577049
-22.763384
13.847350
53.524734
93.724602
132.113663
168.094925
203.246277
239.955902
279.473053
321.003418
361.890839
397.877197
423.861053
436.286499
434.971741
422.054169
399.728699
369.336731
332.976746
295.068909
260.453705
231.330124
206.782684
184.524307
162.753845
140.876602
118.881226
96.447548
73.196396
49.792217
28.068127
9.405057
-6.663875
-21.855045
-37.684853
-54.715599
-72.758652
-91.766144
-111.978310
-131.860352
-145.296906
-143.278473
-122.628960
-91.783768
-64.175484
-48.343662
-46.553631
-58.775330
-83.270729
-114.199455
-142.969543
-162.809464
-170.847748
-166.715424
-150.393234
-121.930840
-82.722031
-36.044746
12.687544
55.722832
85.002098
95.849525
88.940254
69.739105
46.553795
27.050026
14.632361
8.404745
6.467118
7.600549
10.270349
12.579451
14.003469
16.312708
21.988478
31.987696
45.338013
59.773647
72.259201
79.918663
80.972855
74.886169
62.461708
45.998775
28.578997
12.927770
0.636738
-8.286910
-15.332116
-22.522964
-31.141714
-41.413136
-53.336216
-67.233238
-83.179108
-100.037033
-115.056969
-124.553238
-125.607948
-117.452698
-101.563652
-81.353355
-61.369522
-45.439812
-35.537758
-32.240742
-34.889137
-41.330158
-48.808064
-55.115211
-58.481369
-56.936607
-48.615459
-33.153542
-13.080491
6.620647
21.424309
30.153545
35.181393
40.198078
47.497204
56.611324
65.252197
71.731415
76.491028
81.096657
85.876129
89.162918
89.175514
86.298653
83.160172
82.602303
85.663010
91.103447
96.417267
99.168327
97.438011
89.583710
74.779594
53.981621
29.733198
5.244423
-16.413124
-33.081539
-43.713856
-47.821377
-45.507942
-38.116650
-28.126976
-18.463627
-11.650815
-8.769859
-9.255658
-12.004256
-16.192791
-20.737299
-23.675444
-23.075006
-18.867657
-13.494935
-10.436529
-11.840342
-17.342228
-25.118052
-33.848827
-43.170460
-52.560543
-60.702202
-65.832359
-66.348824
-61.661175
-52.881062
-42.481522
-33.208424
-27.016573
-24.428486
-24.728243
-26.845516
-29.892567
-32.992115
-35.129604
-35.329460
-32.835545
-27.240835
-18.569529
-7.209956
6.011535
19.667955
31.949617
40.885101
44.146675
39.405315
25.852760
5.527402
-16.892611
-35.949760
-48.015121
-52.464184
-50.326286
-42.574482
-30.367819
-16.124767
-3.160695
6.029189
11.109231
13.605283
15.272030
16.761637
17.644373
17.161432
14.764152
10.222993
3.646591
-4.282051
-12.298956
-19.180481
-24.198292
-26.825890
-26.501905
-22.996357
-16.881880
-9.560783
-2.567878
3.415150
8.709566
13.770862
18.453402
22.189770
24.650595
26.030010
26.688337
26.737797
26.138062
25.045511
23.913620
23.434649
24.501755
27.929668
33.921093
41.720379
49.901077
57.239124
63.339077
68.341400
72.183075
74.351074
74.243355
71.666046
67.091194
61.377972
55.237751
49.164478
43.798141
39.931744
37.959583
37.423985
37.198082
36.133877
33.524837
29.086882
22.782829
14.812042
5.797204
-2.995337
-9.832463
-13.445251
-14.137407
-13.472600
-12.464976
-10.791993
-7.902341
-4.055685
-0.204951
2.630255
3.700663
2.492402
-1.182432
-6.772191
-12.904189
-18.134209
-21.860500
-24.458696
-26.579115
-28.387026
-29.421528
-28.924242
-26.210751
-21.128853
-14.568127
-8.308345
-3.854142
-1.284752
0.699724
3.704078
8.441097
14.199063
19.431744
22.897118
24.106220
22.913744
19.361597
14.293620
9.367011
5.643580
2.843349
0.399488
-1.797036
-3.968376
-6.756540
-10.498755
-14.991247
-20.520346
-27.958206
-37.144817
-46.384125
-54.149605
-60.474583
-66.020798
-70.474335
-72.968445
-73.521873
-73.003555
-72.099266
-70.963074
-69.606277
-68.026100
-65.909264
-62.652069
-57.700390
-50.750587
-42.046619
-32.748356
-24.651064
-19.195910
-16.789141
-17.071011
-19.546656
-23.786528
-29.055422
-34.094311
-37.616947
-38.724728
-36.706867
-31.071167
-22.042576
-10.600963
2.064478
14.840227
26.541576
35.930004
42.034588
44.472050
43.550774
40.072803
35.130024
29.874943
24.993120
20.406033
15.555230
9.879542
3.250281
-3.821914
-10.444106
-15.742432
-18.999346
-19.735155
-17.992540
-14.651461
-11.203720
-8.769415
-7.285033
-5.830911
-3.694977
-0.910690
2.173276
5.484496
9.214276
13.376922
17.564667
21.047981
23.025194
22.989187
21.091108
18.211485
15.502284
13.613287
12.361221
11.108976
9.287282
6.596485
3.015856
-1.115286
-5.135958
-8.465647
-11.046437
-13.324044
-15.748244
-18.275288
-20.336906
-21.310852
-20.996237
-19.573994
-17.228239
-13.933578
-9.565851
-4.152214
1.978166
8.192446
13.675108
17.719896
20.053511
20.699579
19.508583
16.322363
11.603463
6.444479
2.084395
-0.411380
-0.362730
2.331016
7.164477
13.153378
19.111208
24.039762
27.388758
29.001719
28.888441
27.186508
24.452728
21.823797
20.215172
19.023718
16.514845
11.988329
6.640181
1.812432
-2.714856
-7.695844
-12.421611
-15.294293
-15.912854
-15.220263
-13.748589
-10.732825
-5.287528
2.185249
10.229565
17.622820
24.015213
29.440580
33.728016
36.710716
38.744640
40.458923
42.067162
43.496853
44.998161
46.967880
49.216461
51.079445
52.297871
52.957058
53.053429
53.173615
54.019810
54.310337
51.544308
45.555836
38.928020
32.823647
25.182487
15.269248
5.834366
-1.836316
-9.977699
-19.342779
-26.621819
-29.866863
-32.611309
-38.008038
-43.078869
-43.216175
-38.619453
-33.065605
-28.836966
-26.398235
-27.226336
-32.351803
-39.268929
-43.703003
-43.739605
-40.480965
-35.476025
-29.714064
-24.599440
-21.397289
-20.018822
-19.907524
-21.575880
-25.951597
-32.175346
-37.209179
-38.179054
-34.689728
-28.605818
-21.731958
-14.203232
-5.498311
3.478346
10.374241
13.851089
15.394883
17.599464
20.848862
23.332125
24.294998
25.407602
28.224257
31.471279
32.126640
28.616693
21.993998
14.605493
8.499157
