EVENT_NAME: EMILIA_2ND_SHOCK
EVENT_ID: IT-2012-0011
EVENT_DATE_YYYYMMDD: 20120529
EVENT_TIME_HHMMSS: 070002
EVENT_LATITUDE_DEGREE: 44.8417
EVENT_LONGITUDE_DEGREE: 11.0657
EVENT_DEPTH_KM: 8.1
HYPOCENTER_REFERENCE: INGV-CNT_Seismic_Bulletin
MAGNITUDE_W: 6.0
MAGNITUDE_W_REFERENCE: RCMT-INGV
MAGNITUDE_L: 5.8
MAGNITUDE_L_REFERENCE: INGV-CNT_Seismic_Bulletin
FOCAL_MECHANISM: TF
NETWORK: IV
STATION_CODE: T0811
STATION_NAME: T0811
STATION_LATITUDE_DEGREE: 44.783800
STATION_LONGITUDE_DEGREE: 11.226500
STATION_ELEVATION_M: 10
LOCATION: 
SENSOR_DEPTH_M: 1.0
VS30_M/S: 
SITE_CLASSIFICATION_EC8: C*
MORPHOLOGIC_CLASSIFICATION: 
EPICENTRAL_DISTANCE_KM: 14.3
EARTHQUAKE_BACKAZIMUTH_DEGREE: 296.9
DATE_TIME_FIRST_SAMPLE_YYYYMMDD_HHMMSS: 20120529_065952.000
DATE_TIME_FIRST_SAMPLE_PRECISION: milliseconds
SAMPLING_INTERVAL_S: 0.005000
NDATA: 30001
DURATION_S: 150.005
STREAM: HNZ
UNITS: cm
INSTRUMENT: sensor = Episensor FBA ES-T [Kinemetrics] | digitizer = Unknown [Unknown]
INSTRUMENT_ANALOG/DIGITAL: D
INSTRUMENTAL_FREQUENCY_HZ: 
INSTRUMENTAL_DAMPING: 
FULL_SCALE_G: 
N_BIT_DIGITAL_CONVERTER: 
PGD_CM: 0.621687
TIME_PGD_S: 23.265000
BASELINE_CORRECTION: BASELINE REMOVED
FILTER_TYPE: BUTTERWORTH
FILTER_ORDER: 2
LOW_CUT_FREQUENCY_HZ: 0.060
HIGH_CUT_FREQUENCY_HZ: 40.000
LATE/NORMAL_TRIGGERED: NT
DATABASE_VERSION: DYNA 1.0
HEADER_FORMAT: DYNA 1.2
DATA_TYPE: DISPLACEMENT
PROCESSING: manual (Paolucci et al., 2011)
DATA_TIMESTAMP_YYYYMMDD_HHMMSS: 
DATA_LICENSE: CC-BY4_0 (http://creativecommons.org/licenses/by/4.0/)
DATA_CITATION: ESM working group (2015), European Strong-Motion database, version 0.1, Network Activity 3: Networking acceleration networks and SM data users. Project NERA (www.nera-eu.org)
DATA_CREATOR: ESM working group
ORIGINAL_DATA_MEDIATOR_CITATION: Orfeus - European Integrated Data Archive (EIDA) http://www.orfeus-eu.org/eida/
ORIGINAL_DATA_MEDIATOR: Orfeus - European Integrated Data Archive (EIDA)
ORIGINAL_DATA_CREATOR_CITATION: Data for this study comes from the Italian national seismic network operated by Istituto Nazionale di Geofisica e Vulcanologia and archived at the European Integrated Data Archive http://eida.rm.ingv.it/
ORIGINAL_DATA_CREATOR: network: IV (Italian National Seismic Network); owner: Istituto Nazionale di Geofisica e Vulcanologia
USER1: 
USER2: 
USER3: 
USER4: 
USER5: 
[...]
-2.796044e-01
-2.733930e-01
-2.688236e-01
-2.664745e-01
-2.662659e-01
-2.675961e-01
-2.696217e-01
-2.715054e-01
-2.726709e-01
-2.729883e-01
-2.726937e-01
-2.720526e-01
-2.710421e-01
-2.693051e-01
-2.663679e-01
-2.619592e-01
-2.562767e-01
-2.500395e-01
-2.441959e-01
-2.393817e-01
-2.355365e-01
-2.320377e-01
-2.282281e-01
-2.238288e-01
-2.188825e-01
-2.133941e-01
-2.071142e-01
-1.996695e-01
-1.908462e-01
-1.807838e-01
-1.700366e-01
-1.594650e-01
-1.498956e-01
-1.417540e-01
-1.350033e-01
-1.294009e-01
-1.246944e-01
-1.205384e-01
-1.164039e-01
-1.117648e-01
-1.063879e-01
-1.003733e-01
-9.392173e-02
-8.715129e-02
-8.015300e-02
-7.314415e-02
-6.650694e-02
-6.065444e-02
-5.584733e-02
-5.214832e-02
-4.953519e-02
-4.796569e-02
-4.724503e-02
-4.689099e-02
-4.632475e-02
-4.531300e-02
-4.419202e-02
-4.362277e-02
-4.413986e-02
-4.590543e-02
-4.874698e-02
-5.228530e-02
-5.604193e-02
-5.951982e-02
-6.221408e-02
-6.355630e-02
-6.298017e-02
-6.025048e-02
-5.576964e-02
-5.043080e-02
-4.507220e-02
-4.002889e-02
-3.513275e-02
-3.003909e-02
-2.452669e-02
-1.858639e-02
-1.236855e-02
-6.138527e-03
-2.813932e-04
4.728311e-03
8.460094e-03
1.070460e-02
1.157640e-02
1.148616e-02
1.099182e-02
1.059033e-02
1.056701e-02
1.098566e-02
1.175853e-02
1.266489e-02
1.333988e-02
1.339203e-02
1.264021e-02
1.121682e-02
9.376614e-03
7.232056e-03
4.762492e-03
2.060502e-03
-5.712032e-04
-2.845259e-03
-4.705532e-03
-6.179355e-03
-7.051830e-03
-6.829990e-03
-5.092541e-03
-1.822184e-03
2.630096e-03
7.821243e-03
1.340688e-02
1.917270e-02
2.505532e-02
3.116684e-02
3.767767e-02
4.457989e-02
5.156817e-02
5.817980e-02
6.403836e-02
6.894700e-02
7.279654e-02
7.548216e-02
7.699282e-02
7.759924e-02
7.789821e-02
7.859431e-02
8.018341e-02
8.279015e-02
8.622804e-02
9.017098e-02
9.429507e-02
9.832294e-02
1.020058e-01
1.051225e-01
1.075205e-01
1.091402e-01
1.099696e-01
1.099835e-01
1.091757e-01
1.076547e-01
1.056661e-01
1.034837e-01
1.012816e-01
9.912227e-02
9.705378e-02
9.520998e-02
9.381761e-02
9.308415e-02
9.303953e-02
9.346604e-02
9.399919e-02
9.434583e-02
9.445975e-02
9.454538e-02
9.491112e-02
9.581346e-02
9.738786e-02
9.962521e-02
1.023225e-01
1.050686e-01
1.073948e-01
1.090396e-01
1.100886e-01
1.108654e-01
1.117070e-01
1.128242e-01
1.142772e-01
1.159910e-01
1.177991e-01
1.194979e-01
1.208397e-01
1.214932e-01
1.211357e-01
1.197096e-01
1.175416e-01
1.150791e-01
1.124924e-01
1.095920e-01
1.061095e-01
1.019688e-01
9.728263e-02
9.223558e-02
8.708098e-02
8.218781e-02
7.794076e-02
7.453815e-02
7.192203e-02
6.987907e-02
6.810641e-02
6.613609e-02
6.331558e-02
5.904199e-02
5.308606e-02
4.569750e-02
3.746646e-02
2.917579e-02
2.175068e-02
1.614677e-02
1.304741e-02
1.252201e-02
1.395371e-02
1.634660e-02
1.874825e-02
2.043339e-02
2.086408e-02
1.974320e-02
1.721603e-02
1.390698e-02
1.061573e-02
7.926457e-03
6.092015e-03
5.198820e-03
5.310904e-03
6.414291e-03
8.305798e-03
1.062721e-02
1.300570e-02
1.514777e-02
1.685170e-02
1.800082e-02
1.857579e-02
1.866674e-02
1.845837e-02
1.819314e-02
1.812973e-02
1.848370e-02
1.932921e-02
2.050876e-02
2.165486e-02
2.235973e-02
2.238324e-02
2.175027e-02
2.069675e-02
1.952937e-02
1.849023e-02
1.769133e-02
1.712647e-02
1.671408e-02
1.631939e-02
1.575530e-02
1.480923e-02
1.332991e-02
1.134923e-02
9.162634e-03
7.288771e-03
6.298258e-03
6.598694e-03
8.302856e-03
1.124095e-02
1.504526e-02
1.918951e-02
2.300111e-02
2.580650e-02
2.724566e-02
2.749544e-02
2.716508e-02
2.699453e-02
2.761017e-02
2.937864e-02
3.228409e-02
3.588461e-02
3.947745e-02
4.240923e-02
4.430342e-02
4.509472e-02
4.495961e-02
4.424364e-02
4.335312e-02
4.259976e-02
4.213980e-02
4.209396e-02
4.268050e-02
4.413250e-02
4.646964e-02
4.942654e-02
5.264375e-02
5.589597e-02
5.909771e-02
6.210744e-02
6.457551e-02
6.600093e-02
6.594424e-02
6.422843e-02
6.100512e-02
5.670285e-02
5.195504e-02
4.752015e-02
4.411603e-02
4.218178e-02
4.172396e-02
4.235118e-02
4.341012e-02
4.409903e-02
4.357110e-02
4.111685e-02
3.641238e-02
2.966734e-02
2.153845e-02
1.288436e-02
4.544623e-03
-2.798887e-03
-8.731856e-03
-1.316010e-02
-1.624664e-02
-1.831831e-02
-1.985948e-02
-2.153943e-02
-2.409692e-02
-2.805391e-02
-3.348975e-02
-4.010433e-02
-4.749327e-02
-5.533943e-02
-6.339942e-02
-7.142880e-02
-7.917278e-02
-8.641693e-02
-9.305797e-02
-9.915523e-02
-1.049109e-01
-1.105560e-01
-1.162051e-01
-1.217815e-01
-1.270536e-01
-1.317475e-01
-1.356755e-01
-1.388068e-01
-1.412565e-01
-1.432465e-01
-1.450783e-01
-1.470711e-01
-1.494173e-01
-1.520597e-01
-1.547823e-01
-1.575009e-01
-1.604738e-01
-1.642015e-01
-1.690974e-01
-1.752187e-01
-1.822334e-01
-1.895894e-01
-1.967470e-01
-2.033422e-01
-2.092014e-01
-2.142356e-01
-2.183629e-01
-2.215850e-01
-2.241365e-01
-2.264760e-01
-2.290513e-01
-2.320390e-01
-2.352834e-01
-2.384181e-01
-2.410445e-01
-2.428984e-01
-2.439687e-01
-2.445073e-01
-2.449044e-01
-2.455116e-01
-2.465286e-01
-2.479839e-01
-2.497730e-01
-2.517142e-01
-2.536262e-01
-2.554267e-01
-2.572174e-01
-2.592790e-01
-2.619433e-01
-2.654068e-01
-2.696086e-01
-2.742435e-01
-2.788867e-01
-2.831403e-01
-2.867321e-01
-2.895613e-01
-2.917246e-01
-2.935184e-01
-2.953734e-01
-2.977105e-01
-3.008011e-01
-3.046914e-01
-3.091859e-01
-3.138922e-01
-3.183585e-01
-3.222446e-01
-3.254082e-01
-3.278621e-01
-3.296858e-01
-3.309677e-01
-3.317592e-01
-3.320175e-01
-3.316021e-01
-3.303836e-01
-3.283846e-01
-3.258038e-01
-3.229038e-01
-3.198911e-01
-3.168905e-01
-3.139628e-01
-3.110661e-01
-3.079901e-01
-3.044051e-01
-3.000770e-01
-2.950878e-01
-2.898503e-01
-2.848946e-01
-2.806166e-01
-2.771771e-01
-2.745557e-01
-2.726461e-01
-2.713194e-01
-2.704693e-01
-2.700551e-01
-2.700900e-01
-2.705453e-01
-2.712613e-01
-2.719963e-01
-2.725934e-01
-2.730885e-01
-2.736506e-01
-2.744254e-01
-2.754323e-01
-2.765554e-01
-2.775632e-01
-2.781255e-01
-2.778711e-01
-2.765115e-01
-2.739583e-01
-2.703552e-01
-2.660357e-01
-2.614557e-01
-2.571088e-01
-2.534208e-01
-2.506531e-01
-2.488691e-01
-2.479798e-01
-2.478189e-01
-2.481760e-01
-2.487841e-01
-2.493361e-01
-2.495659e-01
-2.493389e-01
-2.486733e-01
-2.476737e-01
-2.464374e-01
-2.450057e-01
-2.433902e-01
-2.416358e-01
-2.398461e-01
-2.381321e-01
-2.365251e-01
-2.349420e-01
-2.332571e-01
-2.314256e-01
-2.295528e-01
-2.278585e-01
-2.265869e-01
-2.259249e-01
-2.259431e-01
-2.265791e-01
-2.276948e-01
-2.291910e-01
-2.310721e-01
-2.333715e-01
-2.360060e-01
-2.387201e-01
-2.411886e-01
-2.431671e-01
-2.445501e-01
-2.453290e-01
-2.455341e-01
-2.452098e-01
-2.444001e-01
-2.431368e-01
-2.414599e-01
-2.394586e-01
-2.372666e-01
-2.349929e-01
-2.326608e-01
-2.302246e-01
-2.276167e-01
-2.247462e-01
-2.214581e-01
-2.175334e-01
-2.127720e-01
-2.071077e-01
-2.006563e-01
-1.936687e-01
-1.864513e-01
-1.793084e-01
-1.724916e-01
-1.661310e-01
-1.601796e-01
-1.544264e-01
-1.485820e-01
-1.423696e-01
-1.355620e-01
-1.279987e-01
-1.196482e-01
-1.106822e-01
-1.014576e-01
-9.238388e-02
-8.379228e-02
-7.591064e-02
-6.891620e-02
-6.295298e-02
-5.805345e-02
-5.402532e-02
-5.043060e-02
-4.671700e-02
-4.242863e-02
-3.736520e-02
-3.160820e-02
-2.542359e-02
-1.912434e-02
-1.298620e-02
-7.240004e-03
-2.085171e-03
2.337043e-03
6.006196e-03
9.051463e-03
1.169025e-02
1.411011e-02
1.638789e-02
1.848373e-02
2.026521e-02
2.154380e-02
2.216622e-02
2.215767e-02
2.181513e-02
2.165956e-02
2.227659e-02
2.413324e-02
2.742518e-02
3.200302e-02
3.742447e-02
4.312073e-02
4.860035e-02
5.359719e-02
5.810272e-02
6.228501e-02
6.635630e-02
7.046945e-02
7.469552e-02
7.907944e-02
8.370859e-02
8.871392e-02
9.418459e-02
1.000496e-01
1.060052e-01
1.115557e-01
1.161773e-01
1.195144e-01
1.214862e-01
1.222589e-01
1.221385e-01
1.214528e-01
1.204576e-01
1.192939e-01
1.180207e-01
1.167096e-01
1.155286e-01
1.147379e-01
1.145884e-01
1.151920e-01
1.164496e-01
1.180926e-01
1.198216e-01
1.214579e-01
1.230187e-01
1.246927e-01
1.267509e-01
1.294380e-01
1.328844e-01
1.370759e-01
1.418850e-01
1.471233e-01
1.525758e-01
1.580101e-01
1.631755e-01
1.678149e-01
1.717070e-01
1.747174e-01
1.768256e-01
1.781141e-01
1.787331e-01
1.788560e-01
1.786343e-01
1.781606e-01
1.774670e-01
1.765695e-01
1.755256e-01
1.744502e-01
1.734753e-01
1.726933e-01
1.721244e-01
1.717131e-01
1.713383e-01
1.708348e-01
1.700374e-01
1.688253e-01
1.671316e-01
1.649178e-01
1.621605e-01
1.588892e-01
1.552494e-01
1.515117e-01
1.479999e-01
1.450096e-01
1.427880e-01
1.415479e-01
1.414474e-01
1.425316e-01
1.446903e-01
1.476731e-01
1.511371e-01
1.546854e-01
1.579044e-01
1.604476e-01
1.621481e-01
1.630802e-01
1.635190e-01
1.638071e-01
1.641994e-01
1.647775e-01
1.654903e-01
1.662725e-01
1.671280e-01
1.681070e-01
1.692251e-01
1.704282e-01
1.716478e-01
1.728827e-01
1.742172e-01
1.757561e-01
1.775389e-01
1.795084e-01
1.815557e-01
1.835914e-01
1.855820e-01
1.875334e-01
1.894591e-01
1.913759e-01
1.933244e-01
1.953677e-01
1.975409e-01
1.997914e-01
2.019768e-01
2.039269e-01
2.055094e-01
2.066531e-01
2.073442e-01
2.076401e-01
2.077010e-01
2.077772e-01
2.081165e-01
2.088543e-01
2.099750e-01
2.113490e-01
2.127782e-01
2.140161e-01
2.147911e-01
2.148615e-01
2.140850e-01
2.124595e-01
2.101153e-01
2.072758e-01
2.042154e-01
2.012170e-01
1.985266e-01
1.963247e-01
1.947302e-01
1.938287e-01
1.936952e-01
1.943930e-01
1.959448e-01
1.982959e-01
2.012972e-01
2.047336e-01
2.083908e-01
2.121098e-01
2.157861e-01
2.193230e-01
2.225934e-01
2.254474e-01
2.277533e-01
2.294331e-01
2.304713e-01
2.309097e-01
2.308448e-01
2.304301e-01
2.298765e-01
2.294273e-01
2.292959e-01
2.295883e-01
2.302588e-01
2.311237e-01
2.319245e-01
2.324080e-01
2.323905e-01
2.317936e-01
2.306558e-01
2.291146e-01
2.273562e-01
2.255593e-01
2.238633e-01
2.223629e-01
2.211143e-01
2.201482e-01
2.194924e-01
2.191979e-01
2.193462e-01
2.200294e-01
2.213144e-01
2.232136e-01
2.256759e-01
2.285978e-01
2.318422e-01
2.352606e-01
2.387126e-01
2.420876e-01
2.453249e-01
2.484311e-01
2.514779e-01
2.545619e-01
2.577298e-01
2.609109e-01
2.638998e-01
2.663960e-01
2.680877e-01
2.687529e-01
2.683295e-01
2.669221e-01
2.647559e-01
2.621188e-01
2.593125e-01
2.566223e-01
2.542992e-01
2.525500e-01
2.515236e-01
2.512946e-01
2.518437e-01
2.530571e-01
2.547536e-01
2.567218e-01
2.587517e-01
2.606616e-01
2.623266e-01
2.636997e-01
2.648209e-01
2.658041e-01
2.668019e-01
2.679598e-01
2.693796e-01
2.711019e-01
2.731056e-01
2.753205e-01
2.776461e-01
2.799702e-01
2.821834e-01
2.841937e-01
2.859500e-01
2.874719e-01
2.888588e-01
2.902586e-01
2.918187e-01
2.936673e-01
2.959269e-01
2.987155e-01
3.021050e-01
3.060647e-01
3.104441e-01
3.150120e-01
3.195199e-01
3.237451e-01
3.275106e-01
3.307027e-01
3.332920e-01
3.353467e-01
3.370254e-01
3.385465e-01
3.401442e-01
3.420216e-01
3.443103e-01
3.470475e-01
3.501839e-01
3.536172e-01
3.572286e-01
3.609072e-01
3.645713e-01
3.681851e-01
3.717559e-01
3.753023e-01
3.788122e-01
3.822202e-01
3.854144e-01
3.882560e-01
3.905922e-01
3.922717e-01
3.931896e-01
3.933487e-01
3.928900e-01
3.920533e-01
3.910971e-01
3.902294e-01
3.895797e-01
3.892036e-01
3.890981e-01
3.892147e-01
3.894708e-01
3.897664e-01
3.900080e-01
3.901402e-01
3.901725e-01
3.901752e-01
3.902310e-01
3.903814e-01
3.906117e-01
3.908756e-01
3.911200e-01
3.912913e-01
3.913368e-01
3.912206e-01
3.909448e-01
3.905588e-01
3.901460e-01
3.898033e-01
3.896281e-01
3.897144e-01
3.901461e-01
3.909752e-01
3.921958e-01
3.937359e-01
3.954859e-01
3.973480e-01
3.992711e-01
4.012521e-01
4.033196e-01
4.055179e-01
4.078922e-01
4.104718e-01
4.132535e-01
4.161912e-01
4.191934e-01
4.221369e-01
4.248992e-01
4.273961e-01
4.296045e-01
4.315625e-01
4.333520e-01
4.350730e-01
4.368173e-01
4.386492e-01
4.405985e-01
4.426634e-01
4.448185e-01
4.470138e-01
4.491714e-01
4.511974e-01
4.530086e-01
4.545588e-01
4.558468e-01
4.569048e-01
4.577774e-01
4.585041e-01
4.591123e-01
4.596185e-01
4.600390e-01
4.604002e-01
4.607374e-01
4.610815e-01
4.614502e-01
4.618607e-01
4.623509e-01
4.629844e-01
4.638307e-01
4.649418e-01
4.663432e-01
4.680304e-01
4.699627e-01
4.720696e-01
4.742875e-01
4.766111e-01
4.791081e-01
4.818809e-01
4.850149e-01
4.885557e-01
4.925111e-01
4.968532e-01
5.015188e-01
5.064233e-01
5.114750e-01
5.165728e-01
5.215974e-01
5.264285e-01
5.309885e-01
5.352743e-01
5.393416e-01
5.432495e-01
5.470128e-01
5.506000e-01
5.539818e-01
5.571891e-01
5.603305e-01
5.635548e-01
5.669880e-01
5.706894e-01
5.746483e-01
5.788056e-01
5.830704e-01
5.873296e-01
5.914673e-01
5.953949e-01
5.990677e-01
6.024740e-01
6.056061e-01
6.084405e-01
6.109327e-01
6.130268e-01
6.146775e-01
6.158859e-01
6.167241e-01
6.173235e-01
6.178255e-01
6.183332e-01
6.188959e-01
6.195237e-01
6.201979e-01
6.208602e-01
6.214028e-01
6.216867e-01
6.215858e-01
6.210278e-01
6.200107e-01
6.185914e-01
6.168632e-01
6.149365e-01
6.129246e-01
6.109227e-01
6.089902e-01
6.071555e-01
6.054421e-01
6.038887e-01
6.025445e-01
6.014511e-01
6.006371e-01
6.001322e-01
5.999824e-01
6.002502e-01
6.009987e-01
6.022698e-01
6.040614e-01
6.063080e-01
6.088734e-01
6.115660e-01
6.141711e-01
6.164851e-01
6.183381e-01
6.196066e-01
6.202283e-01
6.202209e-01
6.196831e-01
6.187559e-01
6.175645e-01
6.161843e-01
6.146550e-01
6.130186e-01
6.113409e-01
6.096958e-01
6.081292e-01
6.066296e-01
6.051256e-01
6.035157e-01
6.017207e-01
5.997265e-01
5.975793e-01
5.953374e-01
5.930170e-01
5.905744e-01
5.879327e-01
5.850217e-01
5.818029e-01
5.782743e-01
5.744715e-01
5.704780e-01
5.664305e-01
5.625015e-01
5.588614e-01
5.556412e-01
5.529127e-01
5.506854e-01
5.489040e-01
5.474423e-01
5.461075e-01
5.446708e-01
5.429130e-01
5.406644e-01
5.378320e-01
5.344127e-01
5.304861e-01
5.261874e-01
5.216648e-01
5.170396e-01
5.123868e-01
5.077486e-01
5.031593e-01
4.986560e-01
4.942659e-01
4.899860e-01
4.857849e-01
4.816286e-01
4.775058e-01
4.734224e-01
4.693703e-01
4.653022e-01
4.611341e-01
4.567657e-01
4.521013e-01
4.470671e-01
4.416229e-01
4.357613e-01
4.294925e-01
4.228306e-01
4.157945e-01
4.084174e-01
4.007475e-01
3.928362e-01
3.847300e-01
3.764759e-01
3.681346e-01
3.597831e-01
3.515067e-01
3.433911e-01
3.355162e-01
3.279404e-01
3.206739e-01
3.136608e-01
3.067915e-01
2.999395e-01
2.930025e-01
2.859287e-01
2.787229e-01
2.714363e-01
2.641448e-01
2.569223e-01
2.498268e-01
2.429045e-01
2.361944e-01
2.297183e-01
2.234688e-01
2.174171e-01
2.115390e-01
2.058308e-01
2.003014e-01
1.949523e-01
1.897624e-01
1.846845e-01
1.796540e-01
1.746079e-01
1.695036e-01
1.643234e-01
1.590661e-01
1.537369e-01
1.483414e-01
1.428821e-01
1.373577e-01
1.317671e-01
1.261182e-01
1.204332e-01
1.147473e-01
1.091036e-01
1.035486e-01
9.812818e-02
9.288446e-02
8.785167e-02
8.305075e-02
7.848244e-02
7.412309e-02
6.993015e-02
6.585823e-02
6.187500e-02
5.796527e-02
5.412421e-02
5.034841e-02
4.663274e-02
4.297493e-02
3.938305e-02
3.587702e-02
3.247948e-02
2.920246e-02
2.604327e-02
2.299400e-02
2.005264e-02
1.722047e-02
1.448823e-02
1.182814e-02
9.201284e-03
6.573490e-03
3.927687e-03
1.267004e-03
-1.392099e-03
-4.035788e-03
-6.672140e-03
-9.343965e-03
-1.212779e-02
-1.511744e-02
-1.839650e-02
-2.200890e-02
-2.593801e-02
-3.010213e-02
-3.437107e-02
-3.859719e-02
-4.264181e-02
-4.638918e-02
-4.975990e-02
-5.273030e-02
-5.534598e-02
-5.771669e-02
-5.999129e-02
-6.231970e-02
-6.481092e-02
-6.749836e-02
-7.032746e-02
-7.317974e-02
-7.592977e-02
-7.850051e-02
-8.087696e-02
-8.307706e-02
-8.511897e-02
-8.701588e-02
-8.879095e-02
-9.048648e-02
-9.215319e-02
-9.382966e-02
-9.553452e-02
-9.728179e-02
-9.910419e-02
-1.010601e-01
-1.032176e-01
-1.056319e-01
-1.083333e-01
-1.113195e-01
-1.145487e-01
-1.179347e-01
-1.213591e-01
-1.246997e-01
-1.278618e-01
-1.307974e-01
-1.335104e-01
-1.360578e-01
-1.385453e-01
-1.411100e-01
-1.438915e-01
-1.470048e-01
-1.505181e-01
-1.544358e-01
-1.586885e-01
-1.631373e-01
-1.675984e-01
-1.718833e-01
-1.758371e-01
-1.793576e-01
-1.824007e-01
-1.849829e-01
-1.871821e-01
-1.891345e-01
-1.910194e-01
-1.930323e-01
-1.953578e-01
-1.981485e-01
-2.015044e-01
-2.054496e-01
-2.099123e-01
-2.147219e-01
-2.196362e-01
-2.243971e-01
-2.287929e-01
-2.327018e-01
-2.361124e-01
-2.391185e-01
-2.418853e-01
-2.445924e-01
-2.473826e-01
-2.503366e-01
-2.534728e-01
-2.567593e-01
-2.601288e-01
-2.634970e-01
-2.667809e-01
-2.699119e-01
-2.728385e-01
-2.755248e-01
-2.779591e-01
-2.801631e-01
-2.821863e-01
-2.840837e-01
-2.858960e-01
-2.876463e-01
-2.893506e-01
-2.910234e-01
-2.926769e-01
-2.943218e-01
-2.959754e-01
-2.976662e-01
-2.994258e-01
-3.012739e-01
-3.032157e-01
-3.052543e-01
-3.074019e-01
-3.096734e-01
-3.120733e-01
-3.145929e-01
-3.172200e-01
-3.199426e-01
-3.227376e-01
-3.255626e-01
-3.283674e-01
-3.311152e-01
-3.337924e-01
-3.364000e-01
-3.389400e-01
-3.414108e-01
-3.438054e-01
-3.461055e-01
-3.482795e-01
-3.502926e-01
-3.521234e-01
-3.537739e-01
-3.552663e-01
-3.566362e-01
-3.579301e-01
-3.592034e-01
-3.605184e-01
-3.619404e-01
-3.635317e-01
-3.653400e-01
-3.673874e-01
-3.696628e-01
-3.721249e-01
-3.747107e-01
-3.773485e-01
-3.799669e-01
-3.825005e-01
-3.848912e-01
-3.870868e-01
-3.890423e-01
-3.907204e-01
-3.920873e-01
-3.931080e-01
-3.937474e-01
-3.939847e-01
-3.938318e-01
-3.933409e-01
-3.925909e-01
-3.916595e-01
-3.905990e-01
-3.894280e-01
-3.881418e-01
-3.867242e-01
-3.851513e-01
-3.833924e-01
-3.814188e-01
-3.792206e-01
-3.768196e-01
-3.742689e-01
-3.716404e-01
-3.690056e-01
-3.664210e-01
-3.639217e-01
-3.615174e-01
-3.591891e-01
-3.568883e-01
-3.545420e-01
-3.520639e-01
-3.493706e-01
-3.463967e-01
-3.431085e-01
-3.395130e-01
-3.356542e-01
-3.315953e-01
-3.273983e-01
-3.231128e-01
-3.187742e-01
-3.144027e-01
-3.100020e-01
-3.055623e-01
-3.010729e-01
-2.965375e-01
-2.919848e-01
-2.874668e-01
-2.830467e-01
-2.787835e-01
-2.747180e-01
-2.708655e-01
-2.672170e-01
-2.637530e-01
-2.604625e-01
-2.573542e-01
-2.544537e-01
-2.517897e-01
-2.493768e-01
-2.472010e-01
-2.452167e-01
-2.433533e-01
-2.415330e-01
-2.396886e-01
-2.377763e-01
-2.357782e-01
-2.337000e-01
-2.315713e-01
-2.294459e-01
-2.273911e-01
-2.254623e-01
-2.236773e-01
-2.220024e-01
-2.203554e-01
-2.186223e-01
-2.166827e-01
-2.144365e-01
-2.118242e-01
-2.088370e-01
