EVENT_NAME: EMILIA_2ND_SHOCK
EVENT_ID: IT-2012-0011
EVENT_DATE_YYYYMMDD: 20120529
EVENT_TIME_HHMMSS: 070002
EVENT_LATITUDE_DEGREE: 44.8417
EVENT_LONGITUDE_DEGREE: 11.0657
EVENT_DEPTH_KM: 8.1
HYPOCENTER_REFERENCE: INGV-CNT_Seismic_Bulletin
MAGNITUDE_W: 6.0
MAGNITUDE_W_REFERENCE: RCMT-INGV
MAGNITUDE_L: 5.8
MAGNITUDE_L_REFERENCE: INGV-CNT_Seismic_Bulletin
FOCAL_MECHANISM: TF
NETWORK: IV
STATION_CODE: T0811
STATION_NAME: T0811
STATION_LATITUDE_DEGREE: 44.783800
STATION_LONGITUDE_DEGREE: 11.226500
STATION_ELEVATION_M: 10
LOCATION: 
SENSOR_DEPTH_M: 1.0
VS30_M/S: 
SITE_CLASSIFICATION_EC8: C*
MORPHOLOGIC_CLASSIFICATION: 
EPICENTRAL_DISTANCE_KM: 14.3
EARTHQUAKE_BACKAZIMUTH_DEGREE: 296.9
DATE_TIME_FIRST_SAMPLE_YYYYMMDD_HHMMSS: 20120529_065952.000
DATE_TIME_FIRST_SAMPLE_PRECISION: milliseconds
SAMPLING_INTERVAL_S: 0.005000
NDATA: 30001
DURATION_S: 150.005
STREAM: HNZ
UNITS: cm/s
INSTRUMENT: sensor = Episensor FBA ES-T [Kinemetrics] | digitizer = Unknown [Unknown]
INSTRUMENT_ANALOG/DIGITAL: D
INSTRUMENTAL_FREQUENCY_HZ: 
INSTRUMENTAL_DAMPING: 
FULL_SCALE_G: 
N_BIT_DIGITAL_CONVERTER: 
PGV_CM/S: 2.800783
TIME_PGV_S: 18.585000
BASELINE_CORRECTION: BASELINE REMOVED
FILTER_TYPE: BUTTERWORTH
FILTER_ORDER: 2
LOW_CUT_FREQUENCY_HZ: 0.060
HIGH_CUT_FREQUENCY_HZ: 40.000
LATE/NORMAL_TRIGGERED: NT
DATABASE_VERSION: DYNA 1.0
HEADER_FORMAT: DYNA 1.2
DATA_TYPE: VELOCITY
PROCESSING: manual (Paolucci et al., 2011)
DATA_TIMESTAMP_YYYYMMDD_HHMMSS: 
DATA_LICENSE: CC-BY4_0 (http://creativecommons.org/licenses/by/4.0/)
DATA_CITATION: ESM working group (2015), European Strong-Motion database, version 0.1, Network Activity 3: Networking acceleration networks and SM data users. Project NERA (www.nera-eu.org)
DATA_CREATOR: ESM working group
ORIGINAL_DATA_MEDIATOR_CITATION: Orfeus - European Integrated Data Archive (EIDA) http://www.orfeus-eu.org/eida/
ORIGINAL_DATA_MEDIATOR: Orfeus - European Integrated Data Archive (EIDA)
ORIGINAL_DATA_CREATOR_CITATION: Data for this study comes from the Italian national seismic network operated by Istituto Nazionale di Geofisica e Vulcanologia and archived at the European Integrated Data Archive http://eida.rm.ingv.it/
ORIGINAL_DATA_CREATOR: network: IV (Italian National Seismic Network); owner: Istituto Nazionale di Geofisica e Vulcanologia
USER1: 
USER2: 
USER3: 
USER4: 
USER5: 
[...]
0.006772
0.006794
0.006815
0.006834
0.006850
0.006865
0.006879
0.006889
0.006893
0.006895
0.006896
0.006898
0.006900
0.006904
0.006910
0.006915
0.006917
0.006916
0.006912
0.006910
0.006909
0.006913
0.006918
0.006924
0.006928
0.006933
0.006941
0.006951
0.006965
0.006981
0.007001
0.007022
0.007046
0.007073
0.007103
0.007129
0.007150
0.007167
0.007184
0.007202
0.007220
0.007240
0.007263
0.007285
0.007300
0.007308
0.007313
0.007319
0.007326
0.007334
0.007344
0.007354
0.007363
0.007368
0.007368
0.007361
0.007348
0.007333
0.007320
0.007311
0.007308
0.007308
0.007307
0.007305
0.007300
0.007293
0.007287
0.007286
0.007292
0.007307
0.007330
0.007355
0.007380
0.007400
0.007416
0.007431
0.007449
0.007475
0.007510
0.007551
0.007594
0.007634
0.007670
0.007703
0.007734
0.007764
0.007792
0.007820
0.007851
0.007883
0.007912
0.007934
0.007949
0.007962
0.007976
0.007991
0.008008
0.008026
0.008045
0.008063
0.008078
0.008086
0.008091
0.008097
0.008104
0.008111
0.008119
0.008130
0.008143
0.008153
0.008158
0.008158
0.008158
0.008161
0.008166
0.008174
0.008184
0.008196
0.008207
0.008217
0.008224
0.008225
0.008225
0.008229
0.008240
0.008256
0.008276
0.008296
0.008314
0.008329
0.008340
0.008350
0.008360
0.008371
0.008380
0.008390
0.008402
0.008418
0.008435
0.008449
0.008459
0.008468
0.008476
0.008485
0.008496
0.008512
0.008531
0.008546
0.008555
0.008561
0.008566
0.008572
0.008579
0.008588
0.008597
0.008606
0.008614
0.008621
0.008628
0.008636
0.008645
0.008657
0.008672
0.008689
0.008705
0.008718
0.008726
0.008733
0.008740
0.008750
0.008764
0.008781
0.008801
0.008823
0.008846
0.008866
0.008883
0.008898
0.008915
0.008937
0.008966
0.008999
0.009034
0.009067
0.009095
0.009118
0.009136
0.009152
0.009167
0.009184
0.009203
0.009225
0.009245
0.009262
0.009274
0.009279
0.009278
0.009278
0.009281
0.009287
0.009295
0.009303
0.009310
0.009312
0.009307
0.009299
0.009291
0.009286
0.009285
0.009289
0.009297
0.009306
0.009314
0.009321
0.009327
0.009332
0.009336
0.009344
0.009359
0.009380
0.009400
0.009417
0.009433
0.009447
0.009457
0.009466
0.009473
0.009480
0.009489
0.009501
0.009515
0.009529
0.009541
0.009549
0.009555
0.009564
0.009577
0.009593
0.009611
0.009627
0.009641
0.009653
0.009663
0.009672
0.009681
0.009690
0.009702
0.009718
0.009735
0.009750
0.009762
0.009773
0.009784
0.009798
0.009814
0.009832
0.009853
0.009875
0.009893
0.009905
0.009915
0.009926
0.009941
0.009956
0.009975
0.009997
0.010023
0.010050
0.010073
0.010092
0.010108
0.010126
0.010145
0.010164
0.010184
0.010206
0.010225
0.010239
0.010247
0.010252
0.010260
0.010269
0.010280
0.010290
0.010299
0.010307
0.010312
0.010314
0.010314
0.010314
0.010316
0.010320
0.010329
0.010342
0.010358
0.010372
0.010385
0.010397
0.010412
0.010430
0.010450
0.010469
0.010488
0.010506
0.010521
0.010531
0.010539
0.010548
0.010561
0.010574
0.010588
0.010603
0.010619
0.010638
0.010656
0.010673
0.010688
0.010701
0.010712
0.010723
0.010735
0.010748
0.010761
0.010776
0.010788
0.010798
0.010806
0.010813
0.010820
0.010823
0.010824
0.010826
0.010830
0.010834
0.010835
0.010837
0.010839
0.010842
0.010848
0.010857
0.010873
0.010892
0.010909
0.010921
0.010928
0.010932
0.010935
0.010941
0.010954
0.010977
0.011010
0.011046
0.011077
0.011101
0.011119
0.011133
0.011143
0.011150
0.011159
0.011175
0.011195
0.011214
0.011227
0.011237
0.011245
0.011251
0.011256
0.011262
0.011268
0.011273
0.011274
0.011272
0.011270
0.011269
0.011272
0.011279
0.011288
0.011297
0.011306
0.011315
0.011325
0.011333
0.011338
0.011343
0.011353
0.011367
0.011384
0.011401
0.011419
0.011435
0.011447
0.011457
0.011467
0.011480
0.011495
0.011513
0.011532
0.011549
0.011560
0.011566
0.011569
0.011573
0.011580
0.011591
0.011606
0.011626
0.011649
0.011670
0.011688
0.011705
0.011721
0.011733
0.011743
0.011753
0.011766
0.011782
0.011798
0.011813
0.011827
0.011838
0.011845
0.011851
0.011858
0.011869
0.011885
0.011905
0.011926
0.011944
0.011959
0.011969
0.011978
0.011986
0.011996
0.012009
0.012024
0.012038
0.012047
0.012050
0.012051
0.012056
0.012064
0.012074
0.012088
0.012104
0.012120
0.012131
0.012137
0.012141
0.012147
0.012158
0.012173
0.012192
0.012214
0.012234
0.012253
0.012269
0.012282
0.012296
0.012317
0.012349
0.012392
0.012446
0.012515
0.012608
0.012723
0.012858
0.013006
0.013162
0.013320
0.013474
0.013627
0.013802
0.014024
0.014310
0.014659
0.015070
0.015550
0.016102
0.016697
0.017278
0.017794
0.018245
0.018673
0.019112
0.019550
0.019942
0.020267
0.020572
0.020939
0.021407
0.021931
0.022411
0.022741
0.022858
0.022765
0.022498
0.022049
0.021319
0.020191
0.018650
0.016786
0.014706
0.012477
0.010144
0.007730
0.005184
0.002417
-0.000536
-0.003402
-0.005809
-0.007612
-0.009033
-0.010347
-0.011423
-0.011704
-0.010700
-0.008437
-0.005460
-0.002508
-0.000208
0.001208
0.001976
0.002381
0.002299
0.001461
0.000183
-0.000659
-0.000676
-0.000544
-0.001143
-0.002406
-0.003279
-0.002688
-0.000337
0.003216
0.006922
0.009824
0.011552
0.012327
0.012670
0.013228
0.014578
0.016786
0.019160
0.020814
0.021414
0.020941
0.018951
0.014755
0.008438
0.001469
-0.003861
-0.005659
-0.003652
0.000218
0.002723
0.001725
-0.002037
-0.005800
-0.007547
-0.007586
-0.007426
-0.007769
-0.007742
-0.005645
-0.000412
0.006929
0.012883
0.013542
0.007928
-0.001021
-0.009092
-0.014227
-0.017307
-0.020051
-0.022695
-0.023855
-0.022662
-0.020888
-0.022330
-0.029367
-0.040154
-0.049660
-0.053529
-0.050475
-0.041635
-0.029415
-0.017370
-0.009292
-0.006321
-0.005403
-0.002553
0.002355
0.005180
0.001742
-0.008417
-0.021786
-0.032411
-0.034246
-0.024821
-0.007821
0.008909
0.018918
0.020971
0.018143
0.014866
0.014592
0.018138
0.023483
0.027927
0.030767
0.033166
0.035799
0.038551
0.042397
0.049221
0.058938
0.067732
0.069836
0.061071
0.041365
0.015375
-0.009522
-0.027579
-0.037650
-0.041811
-0.041670
-0.036930
-0.027170
-0.013712
-0.000193
0.007540
0.003950
-0.011356
-0.032014
-0.050332
-0.064544
-0.078861
-0.096186
-0.112889
-0.121936
-0.119941
-0.109652
-0.096809
-0.086348
-0.080381
-0.077252
-0.072209
-0.061309
-0.046425
-0.035553
-0.036549
-0.049834
-0.067345
-0.078923
-0.079997
-0.073762
-0.066723
-0.062482
-0.059407
-0.053582
-0.043557
-0.032383
-0.025389
-0.025850
-0.032565
-0.041582
-0.049773
-0.055883
-0.058300
-0.053748
-0.039829
-0.018117
0.006499
0.029098
0.046296
0.055139
0.053074
0.040507
0.022321
0.005318
-0.005898
-0.010199
-0.008883
-0.005148
-0.003575
-0.007503
-0.015478
-0.021150
-0.018154
-0.005505
0.012103
0.028758
0.040733
0.045815
0.041878
0.028645
0.010255
-0.006752
-0.018576
-0.025953
-0.030871
-0.032422
-0.026308
-0.008782
0.018275
0.046536
0.067454
0.079981
0.090098
0.102195
0.113029
0.115323
0.105355
0.085070
0.059316
0.033965
0.014556
0.003144
-0.003829
-0.012466
-0.025165
-0.037899
-0.043385
-0.036852
-0.020403
-0.002783
0.005934
0.000862
-0.015125
-0.033964
-0.046379
-0.044550
-0.025157
0.007378
0.042316
0.070704
0.092316
0.111966
0.129302
0.135770
0.123788
0.097082
0.068776
0.049458
0.040223
0.038008
0.042441
0.053724
0.067912
0.078961
0.084265
0.084556
0.079241
0.066045
0.044590
0.016755
-0.015873
-0.050986
-0.081195
-0.095225
-0.085639
-0.052417
0.000616
0.068848
0.145656
0.221066
0.283678
0.323796
0.335423
0.317473
0.273589
0.209744
0.131952
0.047662
-0.030797
-0.088287
-0.115105
-0.111924
-0.087337
-0.052502
-0.016421
0.016970
0.047880
0.075102
0.090900
0.083674
0.048366
-0.004483
-0.050814
-0.066870
-0.044242
0.005902
0.061722
0.104860
0.130162
0.145628
0.163429
0.187693
0.207769
0.204770
0.168363
0.108184
0.047443
0.004624
-0.018197
-0.030855
-0.042891
-0.057375
-0.072818
-0.084991
-0.086301
-0.068317
-0.028637
0.026046
0.086515
0.149304
0.214284
0.273507
0.307757
0.299157
0.246835
0.168752
0.089216
0.026471
-0.009228
-0.012202
0.016345
0.062439
0.103907
0.126580
0.134094
0.138580
0.143253
0.137738
0.108978
0.052292
-0.027968
-0.121742
-0.211019
-0.267753
-0.263218
-0.186000
-0.053512
0.094277
0.215512
0.285747
0.301847
0.272990
0.211989
0.133178
0.052752
-0.012659
-0.049171
-0.050096
-0.019643
0.028672
0.079676
0.124159
0.159692
0.185018
0.195837
0.187514
0.160580
0.121689
0.080200
0.045401
0.023845
0.015580
0.014159
0.011855
0.003914
-0.011737
-0.034337
-0.056207
-0.062816
-0.042472
0.004193
0.064783
0.122456
0.161830
0.171932
0.148934
0.097347
0.028282
-0.041792
-0.091633
-0.101171
-0.064921
-0.001194
0.057120
0.083862
0.072791
0.034306
-0.016887
-0.072003
-0.129024
-0.183308
-0.217969
-0.210933
-0.156711
-0.075867
0.001616
0.058923
0.095293
0.112233
0.106551
0.077615
0.035081
-0.003910
-0.024366
-0.020076
0.005728
0.042808
0.077395
0.095136
0.083964
0.040229
-0.023890
-0.082767
-0.115682
-0.123751
-0.122046
-0.116742
-0.098276
-0.057971
-0.004762
0.038676
0.053243
0.036155
0.002311
-0.024534
-0.026839
-0.005424
0.022910
0.041433
0.045121
0.037851
0.026158
0.018766
0.025545
0.049081
0.078385
0.096830
0.095735
0.076916
0.044853
0.003685
-0.037093
-0.063065
-0.067844
-0.062207
-0.063713
-0.078039
-0.096655
-0.111280
-0.123119
-0.136654
-0.151791
-0.167316
-0.185316
-0.203786
-0.207985
-0.179936
-0.121162
-0.059730
-0.029545
-0.044131
-0.091017
-0.146425
-0.190654
-0.213094
-0.210550
-0.185117
-0.143715
-0.096883
-0.054265
-0.020510
0.002656
0.011228
-0.001831
-0.042028
-0.108969
-0.195257
-0.286322
-0.361283
-0.399761
-0.393274
-0.348770
-0.277098
-0.182055
-0.068065
0.044822
0.123010
0.140033
0.093758
0.003894
-0.102642
-0.201999
-0.275148
-0.309747
-0.305045
-0.271637
-0.224274
-0.175879
-0.136511
-0.113077
-0.107660
-0.118394
-0.143710
-0.183517
-0.233265
-0.277638
-0.295492
-0.275819
-0.228598
-0.176858
-0.137574
-0.111667
-0.090023
-0.064840
-0.034931
-0.003727
0.024103
0.043351
0.046837
0.025227
-0.027943
-0.107636
-0.194368
-0.263736
-0.301659
-0.310606
-0.302828
-0.290566
-0.280730
-0.272827
-0.259195
-0.232016
-0.195277
-0.166405
-0.162300
-0.186658
-0.231902
-0.287961
-0.344271
-0.387322
-0.403863
-0.387248
-0.339458
-0.270651
-0.200752
-0.157273
-0.160044
-0.203689
-0.260756
-0.305096
-0.328814
-0.336013
-0.329402
-0.309690
-0.281442
-0.252176
-0.226709
-0.205427
-0.186577
-0.166732
-0.140761
-0.106102
-0.067938
-0.037527
-0.023416
-0.024640
-0.033174
-0.042058
-0.049673
-0.056677
-0.062032
-0.064642
-0.067565
-0.076405
-0.091913
-0.106692
-0.110994
-0.101073
-0.081269
-0.059345
-0.041805
-0.033476
-0.039321
-0.064076
-0.108565
-0.167874
-0.236153
-0.311468
-0.390740
-0.460234
-0.497494
-0.487330
-0.433909
-0.355314
-0.270763
-0.197353
-0.154919
-0.162174
-0.222400
-0.318013
-0.420973
-0.505721
-0.555494
-0.565977
-0.548476
-0.525261
-0.515994
-0.526353
-0.545981
-0.554586
-0.534069
-0.481804
-0.413767
-0.349878
-0.295471
-0.242906
-0.191462
-0.157911
-0.161186
-0.198697
-0.244181
-0.270187
-0.269423
-0.254006
-0.240345
-0.238582
-0.251075
-0.275017
-0.305933
-0.339447
-0.369506
-0.385797
-0.376237
-0.334764
-0.267754
-0.195620
-0.147861
-0.145922
-0.180501
-0.208351
-0.181945
-0.088449
0.040506
0.153169
0.206308
0.178569
0.073851
-0.078726
-0.233634
-0.347098
-0.391283
-0.355619
-0.241809
-0.064567
0.141772
0.325338
0.435471
0.445210
0.360139
0.213977
0.059093
-0.050994
-0.086447
-0.056108
0.000791
0.040378
0.038459
-0.004877
-0.081486
-0.190565
-0.333806
-0.500038
-0.665247
-0.809923
-0.926855
-1.007767
-1.032584
-0.986219
-0.885543
-0.775929
-0.698396
-0.668251
-0.683252
-0.735780
-0.808992
-0.877212
-0.922833
-0.944254
-0.941342
-0.903714
-0.825060
-0.721292
-0.619140
-0.531802
-0.461439
-0.424065
-0.450462
-0.550298
-0.687368
-0.797276
-0.822208
-0.732206
-0.532151
-0.262480
0.011899
0.226678
0.342678
0.358056
0.304631
0.226451
0.151228
0.077786
-0.009571
-0.116585
-0.232221
-0.343786
-0.452124
-0.570181
-0.709107
-0.866121
-1.023477
-1.158892
-1.260139
-1.329612
-1.373834
-1.394779
-1.395587
-1.387658
-1.383713
-1.385641
-1.386102
-1.378215
-1.355446
-1.309501
-1.242603
-1.180939
-1.159352
-1.184961
-1.228244
-1.257238
-1.269015
-1.275435
-1.265419
-1.200283
-1.049282
-0.820026
-0.552903
-0.294861
-0.083071
0.057624
0.116226
0.100095
0.040656
-0.009336
-0.001662
0.069298
0.157484
0.206821
0.201370
0.163072
0.106592
0.015454
-0.130431
-0.309910
-0.454068
-0.495048
-0.424320
-0.298561
-0.190535
-0.140213
-0.146843
-0.187065
-0.228481
-0.241736
-0.220028
-0.187282
-0.178084
-0.207160
-0.261268
-0.315562
-0.351658
-0.369668
-0.394455
-0.464542
-0.598674
-0.764403
-0.883755
-0.872684
-0.675755
-0.279568
0.278451
0.899743
1.435976
1.741860
1.751007
1.516840
1.168126
0.807952
0.462371
0.136213
-0.111240
-0.178139
0.001875
0.408018
0.950713
1.525400
2.047268
2.455292
2.710724
2.800783
2.734060
2.529452
2.219408
1.868591
1.574375
1.418461
1.393703
1.383482
1.242285
0.913880
0.469829
0.041720
-0.266043
-0.405125
-0.376728
-0.233110
-0.063482
0.058919
0.128226
0.202104
0.347389
0.587443
0.881743
1.136506
1.247436
1.168727
0.962839
0.769022
0.699763
0.761923
0.879858
0.989257
1.097686
1.255980
1.488938
1.764655
2.012495
2.149428
2.114323
1.913877
1.628322
1.350140
1.120494
0.941290
0.831209
0.826897
0.927812
1.075376
1.202927
1.290313
1.354089
1.399657
1.401770
1.327442
1.170499
0.961422
0.739803
0.522625
0.313901
0.144131
0.070809
0.113247
0.202350
0.224196
0.113851
-0.103418
-0.353114
-0.568311
-0.707664
-0.751326
-0.695577
-0.538853
-0.268443
0.115226
0.545938
0.896169
1.067769
1.071719
1.008662
0.979227
1.018733
1.102479
1.188061
1.243568
1.246004
1.171427
1.001941
0.746356
0.448902
0.174359
-0.018049
-0.098868
-0.080298
-0.004664
0.083731
0.154574
0.181272
0.134997
0.010432
-0.150366
-0.284677
-0.368041
-0.428912
-0.493913
-0.540398
-0.526341
-0.454811
-0.372055
-0.294765
-0.174495
0.044368
0.347490
0.654071
0.890456
1.038230
1.117128
1.153164
1.176524
1.222304
1.302167
1.380443
1.397656
1.322326
1.171713
0.981728
0.769908
0.537123
0.302132
0.121284
0.059796
0.139220
0.317820
0.521347
0.687579
0.788588
0.824818
0.805573
0.736578
0.623343
0.479582
0.323959
0.165862
0.002779
-0.161560
-0.304187
-0.397714
-0.436493
-0.440419
-0.431865
-0.413698
-0.368759
-0.278474
-0.146692
-0.008925
0.085303
0.106630
0.069327
0.022784
0.017126
0.073149
0.180467
0.314880
0.447470
0.539465
0.549210
0.465239
0.328968
0.209797
0.155352
0.168328
0.223449
0.290593
0.342751
0.361621
0.339761
0.268362
0.130694
-0.071491
-0.285227
-0.433594
-0.492504
-0.517329
-0.580090
-0.696488
-0.828147
-0.937237
-1.009409
-1.030921
-0.978634
-0.849409
-0.680523
-0.523223
-0.408593
-0.354532
-0.394062
-0.564103
-0.854718
-1.191185
-1.477714
-1.646207
-1.658134
-1.485022
-1.120782
-0.619872
-0.105081
0.286339
0.478578
0.480331
0.337029
0.086138
-0.224176
-0.505436
-0.661810
-0.658249
-0.537855
-0.366888
-0.178639
0.022417
0.220677
0.378302
0.464282
0.475698
0.428415
0.340785
0.229823
0.114996
0.018189
-0.041674
-0.053046
-0.012681
0.070793
0.169102
0.235910
0.229221
0.140973
0.004702
-0.126594
-0.210704
-0.233475
-0.207828
-0.159781
-0.112971
-0.082478
-0.078938
-0.112818
-0.189213
-0.295864
-0.396136
-0.437319
-0.374773
-0.198103
0.060087
0.340832
0.587619
0.760863
0.828849
0.762321
0.561078
0.287832
0.049957
-0.066072
-0.034109
0.123127
0.353694
0.581088
0.720104
0.718570
0.586355
0.378838
0.158261
-0.027021
-0.143195
-0.178105
-0.150671
-0.091993
-0.009167
0.117306
0.290400
0.467429
0.591379
0.643442
0.650444
0.640347
0.601946
0.493615
0.285084
-0.011339
-0.343162
-0.644662
-0.860453
-0.949562
-0.886979
-0.680823
-0.386849
-0.091565
0.125443
0.211789
0.137782
-0.105586
-0.490851
-0.940894
-1.349007
-1.625778
-1.730818
-1.667948
-1.468702
-1.186594
-0.885649
-0.617309
-0.414333
-0.308234
-0.335991
-0.511497
-0.791398
-1.087169
-1.322917
-1.477787
-1.569233
-1.611997
-1.605876
-1.548796
-1.448831
-1.328208
-1.219452
-1.151135
-1.129026
-1.129812
-1.115289
-1.054410
-0.938777
-0.785607
-0.626261
-0.489941
-0.398000
-0.366354
-0.398567
-0.469238
-0.528469
-0.544538
-0.543715
-0.594570
-0.745542
-0.979187
-1.224248
-1.402949
-1.471196
-1.431525
-1.319043
-1.171830
-1.006855
-0.825447
-0.644431
-0.510286
-0.467908
-0.515052
-0.597558
-0.648877
-0.626944
-0.525276
-0.370764
-0.214068
-0.107727
-0.079410
-0.121452
-0.203388
-0.291073
-0.357803
-0.388254
-0.382386
-0.360102
-0.358149
-0.412323
-0.532848
-0.692715
-0.840349
-0.926977
-0.928647
-0.850727
-0.718351
-0.565849
-0.432645
-0.358776
-0.370986
-0.467431
-0.618106
-0.778072
-0.898886
-0.941272
-0.893258
-0.777211
-0.632724
-0.490792
-0.364725
-0.256388
-0.158302
-0.051650
0.083073
0.243690
0.399805
0.516160
0.580002
0.602543
0.600125
0.585533
0.579332
0.615209
0.716992
0.865624
0.997852
1.047492
0.991142
0.855601
0.687901
0.524282
0.381910
0.265349
0.170023
0.082837
-0.006983
-0.091059
-0.143197
-0.147015
-0.119406
-0.099030
-0.112416
-0.154954
-0.201383
-0.224621
-0.201570
-0.112450
0.050884
0.271914
0.510634
0.720626
0.863898
0.916008
0.869374
0.737598
0.553534
0.356799
0.177876
0.032166
-0.071419
-0.121617
-0.110404
-0.045950
0.045388
0.133134
0.199923
0.247250
0.286347
0.323105
0.350874
0.357943
0.342784
0.321410
0.316610
0.336988
0.366308
0.374559
0.338863
0.254306
0.132410
-0.003645
-0.127205
-0.223132
-0.299251
-0.376209
-0.459875
-0.526902
-0.542829
-0.493700
-0.395688
-0.276615
-0.155780
-0.041011
0.064862
0.161941
0.252662
0.335365
0.400272
0.438390
0.454737
0.466425
0.487245
0.521582
0.574103
0.657605
0.784955
0.952283
1.132859
1.290278
1.397516
1.443476
1.428575
1.363363
1.272117
1.190285
1.150645
1.168872
1.242492
1.361522
1.512644
1.670106
1.793195
1.844934
1.814737
1.718319
1.576329
1.398888
1.192645
0.979906
0.805627
0.718942
0.742721
0.857673
1.012686
1.151401
1.236921
1.259851
1.227628
1.149238
1.030967
0.884443
0.733831
0.609053
0.527758
0.483972
0.455555
0.419169
0.356295
0.255718
0.124485
-0.001711
-0.068508
-0.031114
0.123407
0.371330
0.658388
0.915567
1.084289
1.139254
1.095923
0.999368
0.901107
0.836458
0.814257
0.822630
0.845215
0.876784
0.925830
1.001065
1.094135
1.173008
1.191112
1.110100
0.924319
0.667422
0.394362
0.154548
-0.024080
-0.137151
