EVENT_NAME: EMILIA_2ND_SHOCK
EVENT_ID: IT-2012-0011
EVENT_DATE_YYYYMMDD: 20120529
EVENT_TIME_HHMMSS: 070002
EVENT_LATITUDE_DEGREE: 44.8417
EVENT_LONGITUDE_DEGREE: 11.0657
EVENT_DEPTH_KM: 8.1
HYPOCENTER_REFERENCE: INGV-CNT_Seismic_Bulletin
MAGNITUDE_W: 6.0
MAGNITUDE_W_REFERENCE: RCMT-INGV
MAGNITUDE_L: 5.8
MAGNITUDE_L_REFERENCE: INGV-CNT_Seismic_Bulletin
FOCAL_MECHANISM: TF
NETWORK: IV
STATION_CODE: T0802
STATION_NAME: T0802
STATION_LATITUDE_DEGREE: 44.875000
STATION_LONGITUDE_DEGREE: 11.181600
STATION_ELEVATION_M: 9
LOCATION: 
SENSOR_DEPTH_M: 1.0
VS30_M/S: 
SITE_CLASSIFICATION_EC8: C*
MORPHOLOGIC_CLASSIFICATION: 
EPICENTRAL_DISTANCE_KM: 9.9
EARTHQUAKE_BACKAZIMUTH_DEGREE: 248.0
DATE_TIME_FIRST_SAMPLE_YYYYMMDD_HHMMSS: 20120529_065951.000
DATE_TIME_FIRST_SAMPLE_PRECISION: milliseconds
SAMPLING_INTERVAL_S: 0.005000
NDATA: 14001
DURATION_S: 70.005
STREAM: HNE
UNITS: cm/s
INSTRUMENT: sensor = Episensor FBA ES-T [Kinemetrics] | digitizer = Unknown [Unknown]
INSTRUMENT_ANALOG/DIGITAL: D
INSTRUMENTAL_FREQUENCY_HZ: 
INSTRUMENTAL_DAMPING: 
FULL_SCALE_G: 
N_BIT_DIGITAL_CONVERTER: 
PGV_CM/S: 17.012157
TIME_PGV_S: 21.865000
BASELINE_CORRECTION: BASELINE REMOVED
FILTER_TYPE: BUTTERWORTH
FILTER_ORDER: 2
LOW_CUT_FREQUENCY_HZ: 0.100
HIGH_CUT_FREQUENCY_HZ: 40.000
LATE/NORMAL_TRIGGERED: NT
DATABASE_VERSION: DYNA 1.0
HEADER_FORMAT: DYNA 1.2
DATA_TYPE: VELOCITY
PROCESSING: manual (Paolucci et al., 2011)
DATA_TIMESTAMP_YYYYMMDD_HHMMSS: 
DATA_LICENSE: CC-BY4_0 (http://creativecommons.org/licenses/by/4.0/)
DATA_CITATION: ESM working group (2015), European Strong-Motion database, version 0.1, Network Activity 3: Networking acceleration networks and SM data users. Project NERA (www.nera-eu.org)
DATA_CREATOR: ESM working group
ORIGINAL_DATA_MEDIATOR_CITATION: Orfeus - European Integrated Data Archive (EIDA) http://www.orfeus-eu.org/eida/
ORIGINAL_DATA_MEDIATOR: Orfeus - European Integrated Data Archive (EIDA)
ORIGINAL_DATA_CREATOR_CITATION: Data for this study comes from the Italian national seismic network operated by Istituto Nazionale di Geofisica e Vulcanologia and archived at the European Integrated Data Archive http://eida.rm.ingv.it/
ORIGINAL_DATA_CREATOR: network: IV (Italian National Seismic Network); owner: Istituto Nazionale di Geofisica e Vulcanologia
USER1: 
USER2: 
USER3: 
USER4: 
USER5: 
[...]
-0.352831
-0.347480
-0.339487
-0.332206
-0.330099
-0.335361
-0.346766
-0.361382
-0.376005
-0.387706
-0.394394
-0.395057
-0.390054
-0.381680
-0.373329
-0.367309
-0.364061
-0.363144
-0.364139
-0.366928
-0.371824
-0.379377
-0.389311
-0.399402
-0.406372
-0.408305
-0.405519
-0.399513
-0.392127
-0.385343
-0.381151
-0.381371
-0.386850
-0.396367
-0.406983
-0.415467
-0.419171
-0.416945
-0.410274
-0.402581
-0.397086
-0.395756
-0.399122
-0.405979
-0.414123
-0.422099
-0.429742
-0.436981
-0.442599
-0.444524
-0.441102
-0.431849
-0.418124
-0.403957
-0.394457
-0.392092
-0.395599
-0.402639
-0.412161
-0.423921
-0.436523
-0.446774
-0.451349
-0.448720
-0.439603
-0.426771
-0.414422
-0.406134
-0.402935
-0.404038
-0.409197
-0.419397
-0.434626
-0.451430
-0.464322
-0.470002
-0.468844
-0.462713
-0.452978
-0.440369
-0.425592
-0.409845
-0.395463
-0.386404
-0.386469
-0.395525
-0.408634
-0.419915
-0.426266
-0.427497
-0.424821
-0.419861
-0.414042
-0.408218
-0.402832
-0.398333
-0.395266
-0.393717
-0.392645
-0.390270
-0.385267
-0.377367
-0.367554
-0.358447
-0.353562
-0.355497
-0.365114
-0.381453
-0.401286
-0.419901
-0.433146
-0.438362
-0.434574
-0.423025
-0.406752
-0.389226
-0.373611
-0.362286
-0.356323
-0.355789
-0.360611
-0.370821
-0.385623
-0.402193
-0.416357
-0.424720
-0.425599
-0.418966
-0.406763
-0.392585
-0.380628
-0.374954
-0.378118
-0.389371
-0.404807
-0.418857
-0.425715
-0.422512
-0.412809
-0.404581
-0.404122
-0.413285
-0.430102
-0.449088
-0.463395
-0.469256
-0.467535
-0.461626
-0.455608
-0.452693
-0.452914
-0.452862
-0.449076
-0.441425
-0.432903
-0.427454
-0.428537
-0.437622
-0.452633
-0.469401
-0.485448
-0.501233
-0.517803
-0.534545
-0.549886
-0.563752
-0.578229
-0.595067
-0.612940
-0.627824
-0.635321
-0.632255
-0.618734
-0.600394
-0.585587
-0.578382
-0.576262
-0.574445
-0.570076
-0.562964
-0.555021
-0.549366
-0.548001
-0.549543
-0.550283
-0.547466
-0.540658
-0.530834
-0.519553
-0.508401
-0.498213
-0.488822
-0.479435
-0.468948
-0.456439
-0.442039
-0.427107
-0.413243
-0.401322
-0.391396
-0.382983
-0.375513
-0.369483
-0.367501
-0.372702
-0.385057
-0.400337
-0.413247
-0.420586
-0.421980
-0.419679
-0.417485
-0.416980
-0.413942
-0.401353
-0.377281
-0.347752
-0.322771
-0.312373
-0.323407
-0.354919
-0.397604
-0.439983
-0.474025
-0.496021
-0.505878
-0.506194
-0.500771
-0.493702
-0.488613
-0.487283
-0.489249
-0.492662
-0.494956
-0.493938
-0.489746
-0.485222
-0.483506
-0.485564
-0.489797
-0.492623
-0.489459
-0.477806
-0.460635
-0.445189
-0.438573
-0.445340
-0.465950
-0.494723
-0.522088
-0.540511
-0.546944
-0.541538
-0.526795
-0.506534
-0.483977
-0.461140
-0.439937
-0.423277
-0.414515
-0.415745
-0.426969
-0.445702
-0.466171
-0.480881
-0.484531
-0.475655
-0.456180
-0.431524
-0.408824
-0.392998
-0.385326
-0.385007
-0.390233
-0.398386
-0.406142
-0.409675
-0.405693
-0.392843
-0.372356
-0.348442
-0.327745
-0.316279
-0.316272
-0.326286
-0.343111
-0.362964
-0.382366
-0.398826
-0.410919
-0.418203
-0.421093
-0.420669
-0.418577
-0.416179
-0.412858
-0.405705
-0.391704
-0.370070
-0.342652
-0.313426
-0.287773
-0.270392
-0.263095
-0.264674
-0.271824
-0.280035
-0.285379
-0.286383
-0.284289
-0.282541
-0.285916
-0.297842
-0.317572
-0.340865
-0.362933
-0.379828
-0.388257
-0.385361
-0.368970
-0.338295
-0.294414
-0.241267
-0.187116
-0.142131
-0.112431
-0.097855
-0.094070
-0.094163
-0.091093
-0.082164
-0.070139
-0.059144
-0.050587
-0.042178
-0.028123
-0.000489
0.045276
0.104306
0.164501
0.214400
0.247136
0.261356
0.262561
0.259930
0.258941
0.258756
0.255964
0.248139
0.234637
0.216498
0.195924
0.174565
0.151853
0.125493
0.093315
0.054302
0.009350
-0.037606
-0.080297
-0.112414
-0.129071
-0.128840
-0.116382
-0.100560
-0.088875
-0.084781
-0.087460
-0.091416
-0.089762
-0.081227
-0.072255
-0.071666
-0.085180
-0.113404
-0.150595
-0.185517
-0.207155
-0.210360
-0.196128
-0.169314
-0.136763
-0.104570
-0.075542
-0.049204
-0.023032
0.006377
0.041035
0.079241
0.116367
0.147808
0.170630
0.184745
0.194262
0.205359
0.221126
0.239717
0.257011
0.269369
0.275604
0.279508
0.289572
0.312750
0.347984
0.387521
0.423063
0.449057
0.463885
0.471102
0.476812
0.483592
0.488279
0.485133
0.469278
0.439491
0.401947
0.370375
0.359083
0.375722
0.419570
0.481931
0.548246
0.605297
0.647909
0.677228
0.694182
0.697204
0.687120
0.672994
0.669500
0.688036
0.732554
0.799334
0.875776
0.944724
0.994462
1.022180
1.029479
1.018900
0.994153
0.961666
0.930303
0.906423
0.888556
0.869684
0.844734
0.813770
0.779928
0.747297
0.719156
0.695503
0.673031
0.649680
0.629047
0.617923
0.619138
0.629084
0.641858
0.653300
0.661705
0.667315
0.671323
0.673373
0.669422
0.654397
0.628542
0.599562
0.578705
0.576829
0.600956
0.649271
0.710965
0.774861
0.837586
0.902368
0.972612
1.047962
1.121340
1.175993
1.192065
1.161638
1.093650
1.005356
0.914900
0.837211
0.778659
0.735935
0.700108
0.659182
0.600498
0.515184
0.399979
0.257256
0.096188
-0.070092
-0.231478
-0.383029
-0.520563
-0.636849
-0.724691
-0.784837
-0.828249
-0.869773
-0.922013
-0.992340
-1.079796
-1.175845
-1.272640
-1.370538
-1.475261
-1.588667
-1.705472
-1.818839
-1.926415
-2.031038
-2.138893
-2.257420
-2.390320
-2.532108
-2.670263
-2.792718
-2.891530
-2.963664
-3.012496
-3.046366
-3.074390
-3.103829
-3.136793
-3.166048
-3.177253
-3.156292
-3.093211
-2.984812
-2.838272
-2.668153
-2.487849
-2.305821
-2.126508
-1.950730
-1.776333
-1.599512
-1.415709
-1.221226
-1.015604
-0.803918
-0.599591
-0.423764
-0.296147
-0.225137
-0.206769
-0.227997
-0.269920
-0.313579
-0.344991
-0.355874
-0.343091
-0.307775
-0.254253
-0.189981
-0.123227
-0.057933
0.007627
0.076281
0.147358
0.216268
0.276116
0.319179
0.339862
0.337794
0.316424
0.278526
0.224215
0.152467
0.063388
-0.039284
-0.144802
-0.235635
-0.296090
-0.321920
-0.321121
-0.310054
-0.308825
-0.329802
-0.365459
-0.393515
-0.394114
-0.358480
-0.290973
-0.212240
-0.151217
-0.126433
-0.138717
-0.176496
-0.219244
-0.243006
-0.231089
-0.177937
-0.086165
0.034447
0.168960
0.301961
0.420277
0.516228
0.592103
0.658617
0.728786
0.813944
0.919113
1.037738
1.155367
1.260296
1.348763
1.425649
1.505791
1.607849
1.740710
1.898887
2.069781
2.240224
2.400421
2.549016
2.693109
2.839091
2.983881
3.117459
3.232349
3.327517
3.405105
3.466953
3.512736
3.538057
3.534260
3.491552
3.402384
3.263980
3.081737
2.871038
2.659210
2.488985
2.407060
2.437831
2.574791
2.793590
3.061547
3.344303
3.616651
3.865264
4.081594
4.256894
4.384917
4.468975
4.523110
4.563862
4.603359
4.651324
4.721588
4.833535
5.001849
5.223472
5.476606
5.727028
5.933736
6.059743
6.082601
5.992922
5.786672
5.462706
5.032815
4.536359
4.033770
3.582864
3.226652
2.985806
2.846858
2.769824
2.712080
2.641073
2.540461
2.417835
2.297667
2.202056
2.142050
2.120387
2.134482
2.181539
2.267112
2.406418
2.612472
2.884143
3.210592
3.586188
4.014844
4.495805
5.007086
5.508944
5.961101
6.332515
6.609563
6.806418
6.955478
7.081627
7.191783
7.281556
7.339424
7.345181
7.266525
7.060960
6.694620
6.164895
5.502191
4.759727
4.005496
3.310497
2.738497
2.338728
2.134483
2.121853
2.280558
2.579785
2.984700
3.469263
4.019200
4.620474
5.248497
5.873345
6.475912
7.051838
7.596412
8.089671
8.501590
8.810442
9.009679
9.101152
9.089950
8.983929
8.794485
8.538151
8.241871
7.949581
7.712299
7.563413
7.510616
7.546832
7.656062
7.810519
7.965167
8.059654
8.040477
7.884936
7.598644
7.197757
6.699849
6.127941
5.520608
4.935628
4.447829
4.140838
4.070088
4.219592
4.515545
4.879329
5.254175
5.608980
5.942819
6.274097
6.615948
6.965876
7.312123
7.639294
7.929931
8.165814
8.329307
8.409383
8.410042
8.349678
8.254100
8.151192
8.062306
7.993204
7.937333
7.887142
7.839664
7.796103
7.761241
7.741914
7.744150
7.772500
7.832325
7.931588
8.077311
8.267762
8.490599
8.730143
8.973613
9.210857
9.431594
9.625149
9.786750
9.924954
10.056060
10.188460
10.315850
10.420660
10.477200
10.461540
10.370170
10.223960
10.049540
9.862529
9.669045
9.476102
9.295960
9.141125
9.018325
8.928932
8.873154
8.852916
8.874050
8.947657
9.084082
9.280410
9.517691
9.774273
10.038900
10.311350
10.597250
10.903050
11.225780
11.541610
11.811200
11.997870
12.076020
12.032610
11.871320
11.610360
11.274610
10.891350
10.488250
10.092070
9.725870
9.403342
9.128791
8.905929
8.745264
8.659957
8.654162
8.718100
8.829071
8.949728
9.033684
9.040015
8.939804
8.718484
8.381349
7.948857
7.442705
6.879131
6.269884
5.624229
4.952885
4.273983
3.613530
2.993944
2.421790
1.891019
1.395873
0.936767
0.517132
0.139340
-0.197268
-0.497965
-0.772550
-1.032054
-1.285497
-1.538004
-1.788547
-2.030280
-2.255989
-2.463395
-2.655571
-2.839041
-3.021916
-3.210219
-3.404329
-3.600786
-3.797587
-3.995362
-4.191195
-4.372116
-4.520621
-4.629386
-4.706335
-4.766826
-4.826766
-4.899433
-4.991781
-5.103868
-5.232198
-5.372023
-5.518713
-5.669889
-5.826304
-5.991456
-6.171252
-6.370843
-6.588375
-6.813508
-7.033662
-7.240085
-7.429297
-7.603146
-7.768657
-7.938680
-8.133729
-8.377002
-8.682477
-9.050911
-9.475227
-9.944320
-10.445650
-10.969540
-11.510160
-12.060950
-12.609090
-13.134350
-13.610500
-14.007650
-14.301150
-14.482390
-14.559660
-14.553210
-14.491140
-14.403390
-14.317700
-14.259080
-14.249050
-14.304560
-14.430870
-14.611670
-14.816050
-15.019150
-15.210290
-15.386160
-15.544590
-15.683860
-15.803890
-15.906680
-15.995260
-16.072929
-16.142639
-16.206070
-16.263081
-16.310591
-16.340851
-16.342970
-16.307699
-16.229309
-16.103451
-15.924040
-15.679500
-15.347840
-14.901090
-14.336520
-13.711970
-13.124620
-12.647160
-12.300100
-12.060760
-11.867650
-11.643190
-11.340890
-10.961020
-10.525650
-10.057390
-9.573462
-9.082485
-8.584208
-8.073147
-7.541952
-6.988458
-6.427907
-5.895165
-5.429246
-5.058385
-4.797729
-4.651465
-4.615572
-4.681243
-4.835756
-5.063713
-5.350501
-5.683109
-6.046514
-6.419077
-6.773076
-7.079431
-7.311853
-7.458008
-7.533570
-7.574787
-7.614600
-7.671904
-7.754662
-7.862786
-7.993505
-8.150545
-8.344436
-8.574248
-8.808112
-8.997116
-9.114587
-9.173229
-9.218173
-9.320978
-9.549742
-9.910793
-10.332980
-10.713850
-10.960060
-11.000340
-10.795650
-10.340160
-9.656242
-8.797494
-7.834104
-6.816897
-5.765247
-4.690058
-3.620796
-2.620818
-1.800424
-1.309411
-1.269784
-1.698743
-2.510089
-3.561431
-4.682734
-5.695656
-6.429075
-6.747335
-6.603491
-6.049928
-5.191639
-4.152465
-3.049673
-1.952173
-0.872835
0.189189
1.211426
2.152932
2.981325
3.681471
4.237673
4.615761
4.772318
4.682873
4.351678
3.798591
3.049314
2.132792
1.078579
-0.083587
-1.322611
-2.605288
-3.900302
-5.187305
-6.458783
-7.712632
-8.946467
-10.157090
-11.341440
-12.493780
-13.591040
-14.576800
-15.380060
-15.963160
-16.338640
-16.546841
-16.636749
-16.651310
-16.605150
-16.480370
-16.249720
-15.897770
-15.423850
-14.838200
-14.157870
-13.399090
-12.570730
-11.675130
-10.712690
-9.685270
-8.601498
-7.482829
-6.359549
-5.258451
-4.198439
-3.196232
-2.272559
-1.453026
-0.765831
-0.240708
0.093960
0.216435
0.119005
-0.180909
-0.639576
-1.201170
-1.808067
-2.404755
-2.943771
-3.387489
-3.710354
-3.905411
-3.982269
-3.957613
-3.846670
-3.648795
-3.334642
-2.867920
-2.255057
-1.561309
-0.879048
-0.298668
0.108204
0.310707
0.320901
0.168418
-0.118115
-0.512534
-0.988358
-1.517617
-2.073912
-2.635759
-3.184027
-3.695857
-4.141716
-4.487799
-4.698904
-4.743717
-4.604734
-4.281843
-3.792136
-3.173943
-2.478456
-1.747987
-1.007356
-0.268367
0.468188
1.209601
1.965081
2.741388
3.537476
4.339540
5.130270
5.909962
6.700903
7.520442
8.350133
9.134098
9.794610
10.247380
10.437370
10.378300
10.135990
9.772208
9.320383
8.797434
8.214392
7.573673
6.859361
6.042264
5.125927
4.199701
3.417367
2.920730
2.798903
3.062378
3.606639
4.256874
4.883564
5.445019
5.937536
6.349894
6.661887
6.862467
6.956449
6.954863
6.865570
6.691488
6.431574
6.083542
5.652446
5.159366
4.633043
4.088250
3.519714
2.920156
2.298753
1.679665
1.089218
0.550232
0.083870
-0.289040
-0.552951
-0.708231
-0.774100
-0.781498
-0.768114
-0.770676
-0.810179
-0.886403
-0.980546
-1.054200
-1.060000
-0.966055
-0.765356
-0.468946
-0.101588
0.308186
0.747391
1.224457
1.756126
2.355134
3.025864
3.761457
4.544680
5.355960
6.180344
7.008290
7.834496
8.656692
9.474684
10.290430
11.107240
11.927710
12.751740
13.570820
14.360170
15.081870
15.696900
16.171101
16.478020
16.603951
16.549061
16.326260
15.957780
15.466170
14.868240
14.181130
13.435720
12.680560
11.969310
11.348360
10.853340
10.507390
10.324270
10.318330
10.509670
10.909850
11.492770
12.188430
12.915260
13.610760
14.237830
14.783630
15.253760
15.657050
15.994600
16.263760
16.469681
16.628880
16.759390
16.869970
16.958160
17.011909
17.012159
16.939150
16.778811
16.526100
16.188789
15.787070
15.345660
14.887000
14.427280
13.971170
13.510620
13.028200
12.498490
11.894490
11.201390
10.420780
9.563973
8.648067
7.694987
6.729817
5.780570
4.878756
4.059237
3.352089
2.766066
2.284859
1.881225
1.527937
1.199849
0.874569
0.531614
0.150659
-0.288595
-0.801782
-1.390848
-2.042197
-2.734908
-3.446897
-4.157296
-4.849548
-5.511967
-6.136244
-6.717375
-7.253990
-7.748564
-8.206975
-8.636915
-9.046799
-9.444248
-9.833206
-10.213310
-10.582400
-10.938710
-11.281820
-11.613540
-11.937920
-12.258900
-12.577750
-12.891700
-13.192940
-13.468170
-13.698660
-13.859910
-13.928250
-13.894830
-13.769980
-13.575580
-13.339480
-13.089720
-12.843970
-12.606690
-12.375200
-12.143780
-11.904490
-11.647940
-11.364000
-11.043460
-10.679670
-10.267270
-9.798976
-9.264579
-8.654394
-7.964426
-7.200113
-6.380314
-5.536283
-4.699361
-3.888815
-3.111246
-2.365288
-1.645952
-0.950361
-0.281319
0.359187
0.983734
1.619406
2.276093
2.909774
3.431637
3.749215
3.790663
3.528511
3.009324
2.329708
1.568909
0.761184
-0.085154
-0.969892
-1.892396
-2.843101
-3.801320
-4.741730
-5.638842
-6.465059
-7.186379
-7.762845
-8.164019
-8.388445
-8.463289
-8.431586
-8.343193
-8.243557
-8.162950
-8.115925
-8.104971
-8.123696
-8.159105
-8.191289
-8.197688
-8.163200
-8.083113
-7.956794
-7.783050
-7.562648
-7.304863
-7.029561
-6.762812
-6.533294
-6.367653
-6.282200
-6.281241
-6.361808
-6.513316
-6.709346
-6.894658
-6.987206
-6.917452
-6.671910
-6.290492
-5.836656
-5.377050
-4.959339
-4.590982
-4.251710
-3.928964
-3.631558
-3.372463
-3.149765
-2.947341
-2.746610
-2.533103
-2.300156
-2.053813
-1.811589
-1.596516
-1.433547
-1.345788
-1.350362
-1.456405
-1.663117
-1.960917
-2.338404
-2.788000
-3.305284
-3.885565
-4.522840
-5.213353
-5.959751
-6.768672
-7.643531
-8.580438
-9.564420
-10.563300
-11.532650
-12.430910
-13.226570
-13.901450
-14.456950
-14.911150
-15.288110
-15.610660
-15.891010
-16.120171
-16.272779
-16.323360
-16.254910
-16.063210
-15.762560
-15.379560
-14.936490
-14.444700
-13.909930
-13.337520
-12.734360
-12.109930
-11.475930
-10.842290
-10.212330
-9.582761
-8.946295
-8.293923
-7.619472
-6.925388
-6.224835
-5.542017
-4.910569
-4.365746
-3.936685
-3.642562
-3.488272
-3.464770
-3.555808
-3.742066
-4.003512
-4.323630
-4.690621
-5.095479
-5.530866
-5.990815
-6.470700
-6.966501
-7.470988
-7.967902
-8.429149
-8.813835
-9.070773
-9.154396
-9.043644
-8.746138
-8.295554
-7.745629
-7.153303
-6.564386
-6.011415
-5.514524
-5.083506
-4.719685
-4.414759
-4.155410
-3.934486
-3.755258
-3.626224
-3.555597
-3.546345
-3.589199
-3.661119
-3.731879
-3.769205
-3.743384
-3.635350
-3.439488
-3.162844
-2.827308
-2.463145
-2.093142
-1.727048
-1.368795
-1.022566
-0.692262
-0.377787
-0.073745
0.228771
0.540870
0.873418
1.232380
1.616964
2.019008
2.419844
2.791049
3.099404
3.311089
3.402211
3.371940
3.240505
3.037129
2.793552
2.541747
2.311812
2.125750
1.985657
1.872041
1.757937
1.620762
1.444171
1.217144
0.933498
0.596478
0.228110
-0.129239
-0.417824
-0.572615
-0.549012
-0.354079
-0.035231
0.360399
0.804482
1.280731
1.776712
2.278538
2.765356
3.208622
3.581841
3.871594
4.078308
4.211887
4.288582
4.328724
4.355777
4.391567
4.446413
4.518037
4.604695
4.716397
4.866175
5.047623
5.226682
5.352978
5.370619
5.233467
4.931436
4.495319
3.969049
3.385852
2.766302
2.124204
1.472598
0.834208
0.251655
-0.222381
-0.551318
-0.725360
-0.758202
-0.688024
-0.566616
-0.434091
-0.308304
-0.187937
-0.052533
0.128964
0.379200
0.703762
1.090419
1.504999
1.898593
2.226745
2.458846
2.583114
2.615576
2.594224
2.560209
2.547574
2.576330
2.643470
2.727285
2.801870
2.845261
2.844905
2.804385
2.741339
2.678912
2.640776
2.646790
2.707877
2.824215
2.984604
3.168370
3.353710
3.525377
3.675990
3.805261
3.918358
4.022306
4.123489
4.226997
4.335993
4.451650
4.573762
4.701262
4.833915
4.975357
5.133259
5.313743
5.515818
5.733970
5.966095
6.214447
6.471635
6.704184
6.859964
6.893623
6.779208
6.515046
6.132132
5.681351
5.201232
4.707133
4.210208
3.736469
3.322829
2.998826
2.778961
2.665313
2.647790
2.707440
2.824373
2.981353
3.163860
3.360921
3.567026
3.785332
4.026631
4.298864
4.596367
4.902300
5.199398
5.474648
5.717192
5.916253
6.062531
6.152182
6.188325
6.180931
6.148648
6.116496
6.108940
6.146431
6.242079
6.395613
6.591828
6.802113
6.988050
7.114001
7.160235
7.124031
7.015055
6.850381
6.646215
6.412357
6.158284
5.906566
5.696865
5.573088
5.568898
5.699312
5.951537
6.286073
6.656139
7.024283
7.364923
7.663066
7.912463
8.114844
8.281962
8.431110
8.573676
8.709825
8.828676
8.907545
8.920480
8.856627
8.726217
8.550383
8.352621
8.153669
7.964335
7.784516
7.611465
7.446960
7.296624
7.165335
7.055429
6.968069
6.903950
6.860968
6.829564
6.791711
6.727223
6.621228
6.470543
6.292059
6.121677
5.993489
5.919156
5.890382
5.894208
5.921217
5.966403
6.028451
6.105480
6.187643
6.255513
6.288623
6.274188
6.207755
6.090314
5.926300
5.722953
5.490830
5.241574
4.982544
4.716211
4.448346
4.196618
3.986209
3.835952
3.752555
3.733207
3.767179
3.841268
3.950528
4.101027
4.299987
4.545898
4.829360
5.139917
5.469274
5.810315
6.155551
6.496519
6.823780
7.126525
7.391512
7.602119
7.742212
7.804699
7.794084
7.721350
7.599992
7.442545
7.254917
7.035875
6.785516
6.513575
6.236255
5.965456
5.705439
5.460881
5.245656
5.081336
4.988954
4.984276
5.072719
5.242100
5.466403
5.718405
