EVENT_NAME: EMILIA_2ND_SHOCK
EVENT_ID: IT-2012-0011
EVENT_DATE_YYYYMMDD: 20120529
EVENT_TIME_HHMMSS: 070002
EVENT_LATITUDE_DEGREE: 44.8417
EVENT_LONGITUDE_DEGREE: 11.0657
EVENT_DEPTH_KM: 8.1
HYPOCENTER_REFERENCE: INGV-CNT_Seismic_Bulletin
MAGNITUDE_W: 6.0
MAGNITUDE_W_REFERENCE: RCMT-INGV
MAGNITUDE_L: 5.8
MAGNITUDE_L_REFERENCE: INGV-CNT_Seismic_Bulletin
FOCAL_MECHANISM: TF
NETWORK: IV
STATION_CODE: T0812
STATION_NAME: T0812
STATION_LATITUDE_DEGREE: 44.954700
STATION_LONGITUDE_DEGREE: 11.181000
STATION_ELEVATION_M: 7
LOCATION: 
SENSOR_DEPTH_M: 1.0
VS30_M/S: 
SITE_CLASSIFICATION_EC8: C*
MORPHOLOGIC_CLASSIFICATION: 
EPICENTRAL_DISTANCE_KM: 15.5
EARTHQUAKE_BACKAZIMUTH_DEGREE: 216.0
DATE_TIME_FIRST_SAMPLE_YYYYMMDD_HHMMSS: 20120529_065952.000
DATE_TIME_FIRST_SAMPLE_PRECISION: milliseconds
SAMPLING_INTERVAL_S: 0.005000
NDATA: 30001
DURATION_S: 150.005
STREAM: HNE
UNITS: cm/s^2
INSTRUMENT: sensor = Episensor FBA ES-T [Kinemetrics] | digitizer = Unknown [Unknown]
INSTRUMENT_ANALOG/DIGITAL: D
INSTRUMENTAL_FREQUENCY_HZ: 
INSTRUMENTAL_DAMPING: 
FULL_SCALE_G: 
N_BIT_DIGITAL_CONVERTER: 
PGA_CM/S^2: -138.724954
TIME_PGA_S: 22.865000
BASELINE_CORRECTION: BASELINE REMOVED
FILTER_TYPE: BUTTERWORTH
FILTER_ORDER: 2
LOW_CUT_FREQUENCY_HZ: 0.060
HIGH_CUT_FREQUENCY_HZ: 40.000
LATE/NORMAL_TRIGGERED: NT
DATABASE_VERSION: DYNA 1.0
HEADER_FORMAT: DYNA 1.2
DATA_TYPE: ACCELERATION
PROCESSING: manual (Paolucci et al., 2011)
DATA_TIMESTAMP_YYYYMMDD_HHMMSS: 
DATA_LICENSE: CC-BY4_0 (http://creativecommons.org/licenses/by/4.0/)
DATA_CITATION: ESM working group (2015), European Strong-Motion database, version 0.1, Network Activity 3: Networking acceleration networks and SM data users. Project NERA (www.nera-eu.org)
DATA_CREATOR: ESM working group
ORIGINAL_DATA_MEDIATOR_CITATION: Orfeus - European Integrated Data Archive (EIDA) http://www.orfeus-eu.org/eida/
ORIGINAL_DATA_MEDIATOR: Orfeus - European Integrated Data Archive (EIDA)
ORIGINAL_DATA_CREATOR_CITATION: Data for this study comes from the Italian national seismic network operated by Istituto Nazionale di Geofisica e Vulcanologia and archived at the European Integrated Data Archive http://eida.rm.ingv.it/
ORIGINAL_DATA_CREATOR: network: IV (Italian National Seismic Network); owner: Istituto Nazionale di Geofisica e Vulcanologia
USER1: 
USER2: 
USER3: 
USER4: 
USER5: 
[...]
2.791133
2.065462
0.273439
-1.771916
-3.137862
-3.120784
-1.467173
1.372030
4.223956
5.776979
5.363084
3.258631
0.423983
-2.026242
-3.365339
-3.526827
-2.924317
-2.023894
-1.093635
-0.271471
0.271565
0.322592
-0.206912
-1.159485
-2.212518
-3.024232
-3.230230
-2.448196
-0.636488
1.508938
2.812781
2.464829
0.670703
-1.447677
-2.571479
-2.039910
-0.347343
1.188046
1.477592
0.461239
-1.063531
-2.186544
-2.344224
-1.325457
0.630138
2.636932
3.490400
2.549874
0.367738
-1.622256
-2.108455
-0.789769
1.442182
3.167922
3.474722
2.417527
0.530331
-1.862578
-4.626585
-7.277590
-8.887338
-8.661141
-6.544913
-3.332840
-0.183132
2.097296
3.401740
4.069936
4.363753
4.192114
3.342593
1.982411
0.777004
0.337184
0.670227
1.308617
1.807137
1.924164
1.444005
0.174043
-1.780691
-3.904465
-5.469742
-5.870943
-4.936164
-2.990155
-0.578392
1.828167
3.873126
5.202668
5.418224
4.237211
1.850130
-0.913796
-2.950283
-3.434205
-2.156196
0.321562
2.744229
3.759140
2.846896
0.639661
-1.806393
-3.805786
-5.084291
-5.467366
-4.850387
-3.430402
-1.750765
-0.365514
0.549881
1.159752
1.570568
1.665569
1.396915
1.075576
1.161808
1.719200
2.159704
1.604500
-0.416622
-3.461952
-6.245337
-7.360660
-6.303444
-3.896215
-1.634501
-0.667870
-1.273613
-2.901071
-4.513347
-5.076263
-4.083101
-1.769425
1.159671
3.926211
5.938787
6.977865
7.178831
6.711014
5.519974
3.518969
1.068068
-0.797882
-0.813528
1.522005
5.214432
8.170476
8.583286
6.072297
1.701777
-2.687766
-5.261669
-5.037373
-2.507165
0.541282
2.120708
1.373487
-0.845347
-2.645209
-2.607082
-0.918959
0.869232
1.245985
-0.021820
-1.862711
-2.897379
-2.413282
-0.676324
1.259785
1.987939
0.434620
-3.299227
-7.667174
-10.545294
-10.516629
-7.443580
-2.210428
3.765969
8.976281
12.236233
12.927101
11.049075
7.297886
2.921531
-0.866635
-3.378813
-4.450820
-4.273828
-3.309528
-2.208024
-1.711327
-2.439264
-4.420384
-6.682081
-7.561537
-5.896902
-2.047606
2.351251
5.496629
6.329854
4.837165
1.861019
-1.318312
-3.361772
-3.185599
-0.471630
3.721698
7.109221
7.589487
4.778132
0.105856
-4.498962
-7.948535
-10.232720
-11.638145
-11.913234
-10.298853
-6.260509
-0.009676
7.421610
14.235842
18.215736
17.650091
12.325801
3.840224
-4.964337
-11.296198
-13.752589
-12.632963
-9.218431
-5.192665
-2.418384
-2.263261
-4.693179
-8.180249
-10.697614
-10.875265
-8.395152
-3.675279
2.658510
9.961505
17.100357
22.007086
22.332869
16.857571
6.470340
-5.716686
-15.511756
-19.956179
-18.881439
-14.215517
-8.221848
-2.420129
2.514568
6.338663
8.877122
10.063353
10.058380
9.039158
7.037309
4.286977
1.632853
0.184872
0.278095
0.843808
0.146263
-2.575832
-6.189220
-8.505998
-8.141583
-5.551162
-2.292270
0.500036
2.774575
4.951607
7.025368
8.347870
8.148613
6.127774
2.493605
-2.347858
-7.757020
-12.566692
-15.308663
-15.053342
-12.175956
-8.423798
-5.928927
-5.590874
-6.219544
-5.435852
-1.717856
4.361458
10.869767
16.074036
19.169193
19.952148
18.143274
13.220916
5.306386
-3.893507
-11.650703
-15.879464
-16.193014
-13.639785
-9.654410
-5.108661
-0.224385
4.737207
8.969520
11.309102
10.807810
7.329136
1.871679
-3.826966
-8.281474
-10.879089
-11.651809
-10.846149
-8.857784
-6.402593
-4.555606
-4.383124
-6.323512
-9.928132
-14.207374
-18.026045
-20.221111
-19.789309
-16.204971
-9.667962
-1.399412
6.394873
11.555677
13.364376
12.875447
11.845794
11.296255
10.863107
9.336508
5.781280
0.292075
-5.907378
-10.964255
-13.342891
-12.525884
-8.954293
-3.692062
1.768880
5.914063
7.965901
8.422902
8.696605
9.823553
11.293035
11.346082
8.544447
3.023286
-3.525396
-8.933769
-11.838065
-12.193176
-10.823228
-8.747416
-6.838460
-5.661877
-5.335579
-5.524262
-5.687696
-5.515481
-5.208168
-5.220420
-5.600785
-5.623595
-4.205443
-0.799376
3.973463
8.437616
10.788934
10.356728
8.097866
5.765213
4.675294
5.149944
6.713289
8.619144
10.299524
11.481427
12.005571
11.674643
10.364381
8.188422
5.453336
2.499390
-0.354761
-2.684758
-3.826314
-3.137177
-0.719473
2.224428
4.148521
4.383328
3.543593
2.781779
2.789052
3.529919
4.643516
5.775351
6.474829
6.006404
3.636943
-0.573343
-5.379974
-9.102571
-10.765193
-10.423120
-8.614028
-5.752849
-2.044519
2.137794
5.985492
8.620601
9.759344
9.887104
9.757750
9.758080
9.729979
9.373836
8.730933
8.126803
7.639229
6.759415
4.740252
1.285192
-3.194121
-7.903581
-12.060306
-14.997999
-16.117416
-14.941879
-11.481260
-6.754541
-2.704981
-1.069172
-2.072329
-4.211395
-5.315305
-4.035986
-0.693754
3.139237
5.916390
7.070494
6.855049
5.578088
3.330279
0.289625
-3.130549
-6.440158
-9.188915
-10.893033
-10.962501
-8.993992
-5.440661
-1.853612
0.004598
-0.465749
-2.153773
-3.050034
-1.735572
1.599794
5.262817
7.212291
6.548440
4.229751
2.355227
2.540104
4.759425
7.504132
8.801980
7.321240
3.208095
-1.700788
-4.791921
-4.502233
-1.520237
1.901412
3.743761
3.441453
1.714833
-0.579872
-3.346154
-6.883974
-10.895445
-14.334366
-16.231127
-16.349926
-15.021339
-12.601179
-9.193657
-4.804164
0.399863
6.028459
11.399740
15.447645
17.047319
15.613352
11.386399
5.446165
-0.360063
-3.875848
-3.584702
0.415143
6.010843
9.750029
8.814958
3.414428
-2.733986
-5.016500
-1.357365
6.614544
15.074376
20.242565
19.920052
14.414135
6.532702
0.069956
-2.246245
0.032265
5.020531
9.428795
10.272000
6.624667
-0.080890
-7.571995
-14.210334
-19.128714
-21.762686
-21.648947
-18.648832
-13.465916
-7.737323
-3.118012
-0.224346
1.420481
2.608370
3.867045
5.525747
7.838575
10.605220
12.727342
12.642895
9.552942
4.265197
-1.249125
-5.313077
-7.647615
-9.038050
-10.109537
-10.712908
-10.373875
-8.970086
-6.880232
-4.558560
-2.109191
0.616450
3.545735
6.094649
7.446607
7.227239
5.831471
3.931413
1.813851
-0.443538
-2.106016
-1.523901
2.707482
9.888560
16.482538
18.026880
12.880959
4.092926
-3.026361
-4.946328
-1.636297
4.573959
10.904298
15.198143
16.223415
13.717804
8.474201
2.489823
-1.445988
-1.165218
3.468403
10.528367
17.298048
21.715202
23.118202
22.034092
19.383564
15.995638
12.825542
11.034264
11.143430
12.170830
12.087800
9.224287
3.291171
-4.488304
-11.793751
-16.073202
-15.899971
-11.734571
-5.294902
1.280969
5.692326
5.969428
1.485917
-6.369463
-14.536708
-19.620911
-19.750589
-15.940635
-11.764174
-11.218565
-16.275318
-25.737934
-35.738873
-41.444183
-39.430267
-29.600065
-15.157347
-0.728834
9.527147
13.077491
10.101824
3.634467
-2.382081
-5.486461
-5.491846
-3.748435
-1.893498
-0.885783
-0.699490
-0.624694
0.220885
2.566261
6.895941
13.300719
21.220943
29.441952
36.407993
40.501553
40.379745
35.751904
27.956726
19.486488
12.875130
9.675678
9.825177
11.818994
13.710488
14.023054
12.088157
8.259037
4.151956
2.267102
4.546156
10.970602
19.602327
27.729605
33.079014
34.610100
32.596325
28.121771
22.726929
18.203249
15.864816
15.675139
16.344801
16.523560
15.901488
15.204193
15.321295
16.567085
18.597538
20.548201
21.133610
19.119398
14.104666
6.885019
-0.891520
-7.421829
-11.468367
-12.902860
-12.827619
-13.178172
-15.978808
-22.379980
-31.693598
-41.342762
-48.290527
-50.714413
-48.414371
-42.220463
-33.466572
-23.702696
-14.450366
-7.078714
-2.623623
-1.309810
-2.115071
-2.895063
-1.162645
4.612480
13.683980
22.995741
29.070360
30.226892
27.219122
22.384132
18.573593
18.256752
22.428507
30.000263
38.503231
45.324570
48.593124
47.796860
43.890873
38.483101
32.790092
27.421907
22.883999
19.855270
18.900923
20.069197
22.887472
26.742556
31.024891
34.952267
37.692345
38.789185
38.284130
36.380596
33.043900
27.917580
20.785366
12.180026
3.356858
-4.387209
-10.446412
-15.162359
-19.321108
-23.212488
-26.150944
-26.806709
-24.006901
-17.700207
-9.490619
-2.212228
1.080589
-1.710605
-10.435920
-22.372190
-33.729515
-41.456181
-43.921795
-41.098320
-34.678703
-27.413481
-21.568672
-17.724445
-14.917831
-11.860665
-8.170303
-4.671800
-2.720551
-3.242164
-6.060640
-9.842150
-12.711815
-13.038336
-9.974686
-3.879888
3.488891
9.576486
12.363801
11.264180
6.920236
0.683514
-5.777053
-10.995699
-14.073891
-14.687236
-13.140592
-10.352067
-7.293342
-4.232359
-0.508135
4.853916
12.114007
20.353483
27.996168
33.655891
36.576839
36.618820
33.971073
28.981150
22.445253
15.862506
11.010390
9.102888
10.174561
13.050198
16.090111
18.283634
19.562597
20.099615
19.752623
18.478928
17.045397
16.772999
18.246698
20.353825
20.775820
17.627075
10.919711
2.577936
-4.970522
-10.100266
-12.220804
-11.518873
-8.778855
-5.169579
-2.023014
-0.727809
-2.401467
-7.125699
-13.489982
-19.231506
-22.510345
-22.819098
-21.065018
-18.810328
-17.165560
-16.285271
-15.717343
-14.911314
-13.305512
-10.171712
-4.827669
2.854731
12.223738
21.955236
30.444368
36.479664
39.577427
39.630978
36.685009
31.228949
24.364239
17.456217
11.334111
5.593154
-1.078158
-9.544897
-19.047335
-27.352242
-32.242970
-33.091724
-31.166801
-28.703592
-27.854061
-29.998377
-35.112083
-41.567650
-47.051006
-50.059196
-50.710659
-50.269142
-49.810333
-49.139889
-46.998013
-42.251938
-34.867950
-26.149401
-18.264158
-13.276074
-12.464746
-16.285931
-24.188074
-34.229786
-43.473373
-49.142143
-49.725681
-45.577335
-38.609894
-31.018829
-24.138964
-18.488874
-14.486772
-12.705769
-13.509217
-16.615644
-21.015129
-25.452082
-29.153282
-32.102528
-34.670444
-37.041286
-38.908436
-39.612904
-38.501949
-35.180817
-29.715796
-22.702768
-15.004809
-7.547489
-1.377047
2.428676
3.080810
0.421962
-4.638156
-10.018512
-13.377796
-13.488422
-10.868649
-7.316148
-4.855142
-4.643361
-6.247109
-7.875392
-7.682838
-5.110478
-1.096721
2.853564
5.746483
7.506743
8.685155
9.799157
10.750742
10.776615
8.996254
5.208213
0.336248
-4.026802
-6.718339
-7.584659
-6.968360
-4.959288
-1.305417
3.971921
9.826977
14.272139
15.635970
13.761647
9.890059
5.710037
2.602268
1.390596
2.519853
6.226661
12.212321
19.406553
26.631001
33.451675
40.175320
47.073334
53.528400
57.720024
57.094978
49.138226
32.428143
8.585457
-16.836826
-37.013824
-47.941204
-50.087322
-46.986305
-42.402790
-37.976978
-32.925159
-25.459805
-14.398540
-0.199024
14.943880
28.009060
36.421547
39.112560
37.110962
32.997292
29.245638
26.983412
26.072323
25.837042
25.597340
24.855904
23.434839
21.640543
20.192545
19.843267
20.976940
23.480972
27.018484
31.391068
36.336926
40.914574
43.465889
42.446526
37.429794
29.643976
21.604536
15.848819
13.735230
15.008426
17.799316
18.840570
14.585725
3.549253
-12.207580
-28.469408
-41.606361
-50.160667
-54.781330
-57.044624
-57.991650
-57.533749
-54.935108
-49.593857
-41.743626
-32.747742
-24.626829
-19.188290
-17.263693
-18.247437
-20.484900
-22.650440
-24.843971
-28.345579
-34.309299
-42.449436
-50.875324
-57.244038
-60.014336
-58.803787
-54.149841
-47.119629
-38.996864
-31.264631
-25.396006
-21.940741
-19.685106
-16.091795
-8.931804
2.154343
15.233729
26.978937
34.473312
37.026234
36.489910
35.603924
36.046204
37.663387
38.866570
37.726875
33.243465
26.258236
19.331987
15.287262
15.488220
19.325409
25.061552
31.088993
36.757805
42.340511
48.301491
54.650970
60.920120
66.560188
71.216324
74.515717
75.724579
74.093178
69.587463
62.959755
55.160728
46.659103
37.196854
26.331669
14.281498
2.221031
-8.264152
-16.160885
-21.601765
-25.459391
-28.468573
-30.855560
-32.597309
-33.732517
-34.330830
-34.294785
-33.494770
-32.169903
-31.021490
-30.907291
-32.477104
-35.938007
-41.066753
-47.427628
-54.483395
-61.653980
-68.547798
-75.096436
-81.393990
-87.497910
-93.335266
-98.622360
-102.814957
-105.270981
-105.754768
-104.882309
-103.818550
-103.361275
-103.402618
-103.297714
-102.548340
-101.018806
-98.646446
-95.043007
-89.387360
-80.924454
-69.665855
-56.551434
-43.097473
-30.787079
-20.382927
-11.724149
-4.230069
2.520778
8.601673
13.828556
18.013229
21.190044
23.650887
25.894547
28.524557
32.045227
36.712612
42.528671
49.202633
56.111256
62.485741
67.758896
71.820290
75.053963
78.128311
81.636253
85.859947
90.747330
95.922272
100.677544
104.148514
105.771454
105.584412
104.023232
101.639542
98.999557
96.564568
94.592346
93.163116
92.220413
91.520103
90.575081
88.782669
85.754181
81.639801
77.141815
73.119026
70.130051
68.339096
67.690460
67.927406
68.526352
68.881172
68.522461
67.091393
64.286896
59.937187
54.085705
47.032421
39.221375
31.048431
22.931997
15.516568
9.501064
5.224286
2.526488
0.916166
-0.166981
-1.177897
-2.515419
-4.583886
-7.607255
-11.455018
-15.788699
-20.264746
-24.535389
-28.234823
-31.167248
-33.599422
-36.324768
-40.299599
-46.025146
-53.165852
-60.833260
-68.305763
-75.429802
-82.402412
-89.353401
-96.170937
-102.622955
-108.540359
-113.843842
-118.472260
-122.377151
-125.591774
-128.322372
-130.941498
-133.761642
-136.663712
-138.724960
-138.154877
-132.796005
-121.230698
-104.375969
-86.068764
-71.154259
-62.648670
-60.581768
-62.800503
-66.457466
-69.324364
-70.440201
-69.753632
-67.318245
-63.046211
-57.073269
-50.076782
-43.217789
-37.658142
-33.875347
-31.422876
-29.391069
-26.927357
-23.328550
-18.000502
-10.570134
-1.077410
9.837714
21.048553
31.575535
41.190029
50.368023
59.693207
69.212563
78.236099
85.778877
91.200127
94.493950
96.273956
97.505814
98.994041
100.992271
103.200668
105.056915
106.060562
105.968605
104.907883
103.351234
101.878616
100.901665
100.549049
100.708527
101.120926
101.430725
101.157494
99.693466
96.511757
91.451180
84.777031
77.131760
69.501541
62.997158
58.469849
56.236000
55.966282
56.730331
57.358250
56.990284
55.316372
52.388176
48.426147
43.833385
39.257751
35.577187
33.628780
33.593731
34.634178
35.386940
34.844379
32.795898
29.679899
26.187107
22.904179
20.079313
17.447645
14.129339
8.787024
0.116480
-12.392343
-27.852783
-44.244450
-59.415905
-71.888168
-81.058250
-87.114853
-90.754555
-92.789864
-93.994225
-95.087570
-96.630005
-98.924301
-101.994507
-105.577293
-109.164604
-112.172058
-114.112213
-114.687675
-113.938881
-112.341827
-110.611969
-109.382210
-108.987488
-109.343155
-109.949341
-110.134415
-109.476768
-108.070045
-106.408073
-105.066010
-104.368622
-104.132957
-103.723625
-102.525024
-100.378395
-97.207336
-92.137909
-83.683334
-71.268066
-56.500996
-42.794518
-33.292099
-28.605785
-26.482861
-23.807510
-18.859598
-11.991761
-4.836122
0.968730
4.674403
6.627195
7.896423
9.655420
12.734994
17.459408
23.563473
30.219753
36.398182
41.411163
45.152729
47.929195
50.345985
53.394791
58.309174
66.054085
76.770348
89.404526
101.857529
111.900414
118.227745
120.804306
120.583549
119.026718
117.458366
116.480217
115.842445
114.680428
111.710632
105.375854
94.537750
79.737823
63.734695
50.388847
42.810650
42.062725
46.752548
53.820000
60.288998
64.573532
66.576714
67.088860
67.051590
67.005829
66.990005
66.771881
66.057869
64.567345
62.064816
58.491356
54.098587
49.349068
44.663956
40.260452
36.197037
32.581528
29.643770
27.435776
25.609116
23.753942
21.812634
19.885004
17.554256
13.321350
4.830336
-9.672176
-29.762976
-52.756378
-74.826881
-92.466225
-103.902374
-109.483086
-110.572517
-108.430656
-103.886269
-97.254112
-88.654800
-78.620895
-68.201950
-58.542023
-50.411362
-44.054684
-39.513111
-37.032387
-36.938198
-39.249512
-43.622280
-49.531082
-56.426285
-63.663033
-70.258705
-74.971382
-76.860260
-75.821587
-72.703476
-69.024300
-66.311577
-65.303391
-65.625984
-66.129250
-65.313225
-61.527763
-53.436218
-40.858704
-25.169344
-8.742557
6.290592
19.223457
30.787029
41.843956
52.133987
60.211273
64.404289
64.056168
59.985645
53.764164
46.931374
40.721909
35.801933
32.125118
29.237860
26.737576
24.505341
22.668163
21.406485
20.794012
20.776735
21.272791
22.336020
24.198444
27.093781
30.944323
34.980785
37.591438
36.833199
31.305588
20.781378
6.674815
-8.046093
-20.234966
-28.330128
-32.906052
-35.817329
-38.965603
-43.489967
-49.508198
-56.339951
-63.011269
-68.691711
-72.876831
-75.431282
-76.557243
-76.611732
-75.913116
-74.654877
-72.890984
-70.678825
-68.256363
-65.969734
-64.027573
-62.337681
-60.515442
-58.009464
-54.335823
-49.430779
-43.857319
-38.585506
-34.531605
-32.156357
-31.182261
-30.598955
-29.128372
-25.818237
-20.305721
-12.793367
-3.955038
5.273613
13.988095
21.476553
27.276606
31.287361
33.819504
35.484295
37.060764
39.315510
42.701408
47.190273
52.418201
57.908375
63.211357
68.027107
72.236588
75.784698
78.571877
80.414787
81.057503
80.319633
78.256622
75.169510
71.531433
67.843521
64.465179
61.578522
59.264587
57.520264
56.225761
55.190338
54.282024
53.535648
53.101513
53.075214
53.398266
53.875526
54.248318
54.274734
53.757195
52.537735
50.570774
47.977146
44.921207
41.442265
37.374786
32.373344
26.002691
17.865038
7.918335
-3.196544
-14.271772
-23.979319
-31.301842
-35.907009
-38.286449
-39.394611
-40.103039
-40.900566
-41.838352
-42.656883
-43.021912
-42.731625
-41.805294
-40.445583
-38.981365
-37.816631
-37.279972
-37.427803
-38.041904
-38.882805
-39.952938
-41.508572
-43.771248
-46.625591
-49.647217
-52.391312
-54.645042
-56.465965
-57.965263
-59.014431
-59.187977
-57.860035
-54.259460
-47.659103
-37.683056
-24.624027
-9.688335
5.287928
18.690620
29.767004
38.597672
45.735996
51.798424
57.130260
61.718571
65.287651
67.495918
68.091881
66.907074
63.874065
59.031883
52.445068
44.229069
34.655117
24.251741
13.791776
4.008417
-4.716422
-12.377042
-19.182739
-25.410370
-31.278954
-36.866180
-42.103073
-46.816681
-50.813194
-53.942490
-56.126812
-57.386456
-57.824825
-57.621693
-56.995190
-55.980526
-54.127739
-50.454826
-44.031460
-35.015903
-25.110968
-16.773260
-11.928927
-11.226597
-13.991501
-18.781139
-24.183643
-29.174765
-33.038662
-35.351391
-36.012909
-35.133793
-32.944511
-29.759115
-25.898382
-21.650066
-17.239557
-12.780341
-8.282665
-3.720469
0.908564
5.580248
10.305586
15.247456
20.788710
27.368210
35.208977
44.209366
53.960770
63.843243
73.222725
81.570587
88.445778
93.553444
96.771492
98.003342
97.192261
94.472267
90.156883
84.596176
77.977158
70.266716
61.339504
51.094414
39.620918
27.379269
15.223147
4.382569
-3.707218
-8.107713
-9.001227
-7.423281
-4.630403
-1.669304
0.907108
3.070419
5.098015
7.327577
10.013874
13.278113
17.085281
21.240761
