EVENT_NAME: EMILIA_2ND_SHOCK
EVENT_ID: IT-2012-0011
EVENT_DATE_YYYYMMDD: 20120529
EVENT_TIME_HHMMSS: 070002
EVENT_LATITUDE_DEGREE: 44.8417
EVENT_LONGITUDE_DEGREE: 11.0657
EVENT_DEPTH_KM: 8.1
HYPOCENTER_REFERENCE: INGV-CNT_Seismic_Bulletin
MAGNITUDE_W: 6.0
MAGNITUDE_W_REFERENCE: RCMT-INGV
MAGNITUDE_L: 5.8
MAGNITUDE_L_REFERENCE: INGV-CNT_Seismic_Bulletin
FOCAL_MECHANISM: TF
NETWORK: IV
STATION_CODE: T0802
STATION_NAME: T0802
STATION_LATITUDE_DEGREE: 44.875000
STATION_LONGITUDE_DEGREE: 11.181600
STATION_ELEVATION_M: 9
LOCATION: 
SENSOR_DEPTH_M: 1.0
VS30_M/S: 
SITE_CLASSIFICATION_EC8: C*
MORPHOLOGIC_CLASSIFICATION: 
EPICENTRAL_DISTANCE_KM: 9.9
EARTHQUAKE_BACKAZIMUTH_DEGREE: 248.0
DATE_TIME_FIRST_SAMPLE_YYYYMMDD_HHMMSS: 20120529_065951.000
DATE_TIME_FIRST_SAMPLE_PRECISION: milliseconds
SAMPLING_INTERVAL_S: 0.005000
NDATA: 14001
DURATION_S: 70.005
STREAM: HNZ
UNITS: cm/s^2
INSTRUMENT: sensor = Episensor FBA ES-T [Kinemetrics] | digitizer = Unknown [Unknown]
INSTRUMENT_ANALOG/DIGITAL: D
INSTRUMENTAL_FREQUENCY_HZ: 
INSTRUMENTAL_DAMPING: 
FULL_SCALE_G: 
N_BIT_DIGITAL_CONVERTER: 
PGA_CM/S^2: 176.478329
TIME_PGA_S: 17.950000
BASELINE_CORRECTION: BASELINE REMOVED
FILTER_TYPE: BUTTERWORTH
FILTER_ORDER: 2
LOW_CUT_FREQUENCY_HZ: 0.100
HIGH_CUT_FREQUENCY_HZ: 40.000
LATE/NORMAL_TRIGGERED: NT
DATABASE_VERSION: DYNA 1.0
HEADER_FORMAT: DYNA 1.2
DATA_TYPE: ACCELERATION
PROCESSING: manual (Paolucci et al., 2011)
DATA_TIMESTAMP_YYYYMMDD_HHMMSS: 
DATA_LICENSE: CC-BY4_0 (http://creativecommons.org/licenses/by/4.0/)
DATA_CITATION: ESM working group (2015), European Strong-Motion database, version 0.1, Network Activity 3: Networking acceleration networks and SM data users. Project NERA (www.nera-eu.org)
DATA_CREATOR: ESM working group
ORIGINAL_DATA_MEDIATOR_CITATION: Orfeus - European Integrated Data Archive (EIDA) http://www.orfeus-eu.org/eida/
ORIGINAL_DATA_MEDIATOR: Orfeus - European Integrated Data Archive (EIDA)
ORIGINAL_DATA_CREATOR_CITATION: Data for this study comes from the Italian national seismic network operated by Istituto Nazionale di Geofisica e Vulcanologia and archived at the European Integrated Data Archive http://eida.rm.ingv.it/
ORIGINAL_DATA_CREATOR: network: IV (Italian National Seismic Network); owner: Istituto Nazionale di Geofisica e Vulcanologia
USER1: 
USER2: 
USER3: 
USER4: 
USER5: 
[...]
-0.019140
-0.020455
-0.021566
-0.022160
-0.021733
-0.020055
-0.017578
-0.014989
-0.012634
-0.010598
-0.008913
-0.007588
-0.006676
-0.006428
-0.007341
-0.009697
-0.013178
-0.017219
-0.021296
-0.024793
-0.027204
-0.028370
-0.028298
-0.027046
-0.024747
-0.021708
-0.018557
-0.015966
-0.014282
-0.013626
-0.013987
-0.015139
-0.016826
-0.018996
-0.021709
-0.024776
-0.027491
-0.029077
-0.029467
-0.029261
-0.028922
-0.028335
-0.027119
-0.025052
-0.022160
-0.018831
-0.016022
-0.014747
-0.015205
-0.016840
-0.019102
-0.021761
-0.024748
-0.027801
-0.030345
-0.031911
-0.032474
-0.032193
-0.031095
-0.029070
-0.026134
-0.022640
-0.019089
-0.016000
-0.014023
-0.013508
-0.014078
-0.015160
-0.016737
-0.019301
-0.022979
-0.026932
-0.030058
-0.032013
-0.033111
-0.033561
-0.033116
-0.031372
-0.028387
-0.024778
-0.021290
-0.018592
-0.017134
-0.016718
-0.016570
-0.016269
-0.016349
-0.017644
-0.020278
-0.023663
-0.027333
-0.031373
-0.035913
-0.040029
-0.041687
-0.040123
-0.037735
-0.037766
-0.040563
-0.043500
-0.044026
-0.041319
-0.035828
-0.029740
-0.027034
-0.029747
-0.035023
-0.038400
-0.038480
-0.036820
-0.035148
-0.034144
-0.033819
-0.033792
-0.033356
-0.031980
-0.029654
-0.026675
-0.023659
-0.021589
-0.021008
-0.021335
-0.021660
-0.021927
-0.022918
-0.025100
-0.027889
-0.030317
-0.031952
-0.032875
-0.033397
-0.034030
-0.035149
-0.036251
-0.036014
-0.033965
-0.031738
-0.031527
-0.033637
-0.036522
-0.038838
-0.040555
-0.042192
-0.043753
-0.044669
-0.044698
-0.044566
-0.045210
-0.046451
-0.046964
-0.045806
-0.043429
-0.040911
-0.039093
-0.038555
-0.039110
-0.039174
-0.036981
-0.032808
-0.028984
-0.027259
-0.027176
-0.027439
-0.027807
-0.029150
-0.032053
-0.035940
-0.039779
-0.042946
-0.045109
-0.046071
-0.045843
-0.044514
-0.042257
-0.039423
-0.036539
-0.034333
-0.033414
-0.033558
-0.033765
-0.033471
-0.033334
-0.034354
-0.036410
-0.038220
-0.038901
-0.038963
-0.039416
-0.040475
-0.041541
-0.042147
-0.042497
-0.043070
-0.044068
-0.045351
-0.046538
-0.046997
-0.046278
-0.045186
-0.045745
-0.048814
-0.052304
-0.053297
-0.051411
-0.048830
-0.047566
-0.047980
-0.049453
-0.050818
-0.050434
-0.047756
-0.044671
-0.043683
-0.045032
-0.046726
-0.047142
-0.046509
-0.045860
-0.045695
-0.045923
-0.046284
-0.046490
-0.046362
-0.046141
-0.046441
-0.047453
-0.048354
-0.048109
-0.046867
-0.045978
-0.046396
-0.047669
-0.048819
-0.049566
-0.050342
-0.051525
-0.053021
-0.054449
-0.055270
-0.054794
-0.052955
-0.050998
-0.050398
-0.051008
-0.051140
-0.049829
-0.048291
-0.048444
-0.050577
-0.053295
-0.055245
-0.056046
-0.055944
-0.055671
-0.056327
-0.058121
-0.059346
-0.057941
-0.054308
-0.051362
-0.051247
-0.053233
-0.055388
-0.056639
-0.056758
-0.055926
-0.054750
-0.053867
-0.053310
-0.052601
-0.051537
-0.050670
-0.050733
-0.051672
-0.052677
-0.053289
-0.054111
-0.056044
-0.058973
-0.061715
-0.063368
-0.064166
-0.064799
-0.065497
-0.065972
-0.065853
-0.064901
-0.063045
-0.060653
-0.058540
-0.057147
-0.055929
-0.054094
-0.051838
-0.050421
-0.050780
-0.052612
-0.055102
-0.057803
-0.060605
-0.063496
-0.066503
-0.069617
-0.072550
-0.074647
-0.075374
-0.074682
-0.072740
-0.069762
-0.066088
-0.062241
-0.058999
-0.057103
-0.056679
-0.057319
-0.058668
-0.060678
-0.063453
-0.066916
-0.070698
-0.074294
-0.077132
-0.078728
-0.079072
-0.078573
-0.077589
-0.076199
-0.074358
-0.072193
-0.070076
-0.068305
-0.066884
-0.065697
-0.064758
-0.064258
-0.064401
-0.065287
-0.066916
-0.069026
-0.071042
-0.072515
-0.073437
-0.073977
-0.074086
-0.073459
-0.071879
-0.069475
-0.066549
-0.063523
-0.061045
-0.059641
-0.059417
-0.060290
-0.062219
-0.065190
-0.069022
-0.073180
-0.077073
-0.080475
-0.083395
-0.085689
-0.086875
-0.086396
-0.084145
-0.080505
-0.076056
-0.071549
-0.067680
-0.064771
-0.062934
-0.062286
-0.062960
-0.065070
-0.068490
-0.072795
-0.077512
-0.082229
-0.086560
-0.089981
-0.091738
-0.091587
-0.090482
-0.089648
-0.089093
-0.087666
-0.084681
-0.080948
-0.077835
-0.075991
-0.075392
-0.075708
-0.076296
-0.076627
-0.077108
-0.079005
-0.082765
-0.086802
-0.089000
-0.089080
-0.088519
-0.088391
-0.088157
-0.086693
-0.083954
-0.081109
-0.079280
-0.078820
-0.079606
-0.081166
-0.082733
-0.083975
-0.085545
-0.088325
-0.092057
-0.095253
-0.096730
-0.096594
-0.095461
-0.093480
-0.090345
-0.086089
-0.081659
-0.078225
-0.076168
-0.075183
-0.074999
-0.075683
-0.077475
-0.080511
-0.084757
-0.089897
-0.095145
-0.099635
-0.102956
-0.105020
-0.105822
-0.105464
-0.104108
-0.102048
-0.099745
-0.097375
-0.094478
-0.090514
-0.086042
-0.082831
-0.082095
-0.083252
-0.085063
-0.087194
-0.090227
-0.094644
-0.100229
-0.106335
-0.111856
-0.115129
-0.115432
-0.114270
-0.113652
-0.113278
-0.110583
-0.104139
-0.095953
-0.089229
-0.085254
-0.083482
-0.082872
-0.082252
-0.080910
-0.080059
-0.082753
-0.090318
-0.099671
-0.106405
-0.109364
-0.110499
-0.111729
-0.113429
-0.115061
-0.115651
-0.113843
-0.109066
-0.102553
-0.096087
-0.090370
-0.085232
-0.080699
-0.077496
-0.076538
-0.078018
-0.081434
-0.086255
-0.092176
-0.098996
-0.106202
-0.112758
-0.117810
-0.121240
-0.123270
-0.124032
-0.123544
-0.121852
-0.119172
-0.115804
-0.112198
-0.109065
-0.106878
-0.105445
-0.104359
-0.103673
-0.103930
-0.105484
-0.108025
-0.110969
-0.113838
-0.116165
-0.117620
-0.118195
-0.118026
-0.117208
-0.115802
-0.113876
-0.111542
-0.108930
-0.106268
-0.103959
-0.102360
-0.101595
-0.101660
-0.102478
-0.103895
-0.105756
-0.107919
-0.110247
-0.112486
-0.114212
-0.115184
-0.115647
-0.115989
-0.116248
-0.116137
-0.115537
-0.114822
-0.114501
-0.114667
-0.115009
-0.115265
-0.115469
-0.115816
-0.116549
-0.117938
-0.119985
-0.122137
-0.123704
-0.124478
-0.124675
-0.124482
-0.123856
-0.122664
-0.120951
-0.118987
-0.117046
-0.115289
-0.113823
-0.112829
-0.112639
-0.113505
-0.115379
-0.117992
-0.120701
-0.122435
-0.122736
-0.122622
-0.123512
-0.125468
-0.127121
-0.127160
-0.125177
-0.121232
-0.115400
-0.107597
-0.097568
-0.085013
-0.069907
-0.052944
-0.034564
-0.010995
0.029069
0.097422
0.191281
0.292156
0.382427
0.454827
0.509054
0.551417
0.593812
0.641636
0.684797
0.708092
0.708631
0.698445
0.698193
0.736879
0.837243
0.973460
1.062587
1.025944
0.830127
0.483128
0.081694
-0.180886
-0.193508
-0.066343
0.000888
-0.120641
-0.492372
-1.077167
-1.668923
-2.023750
-2.061337
-1.850274
-1.494945
-1.106407
-0.774265
-0.514472
-0.288087
-0.076409
0.078094
0.100618
-0.085050
-0.548533
-1.244644
-1.901281
-2.186753
-1.959747
-1.251020
-0.187800
0.978528
1.966539
2.561813
2.569665
1.933424
0.897068
-0.185209
-1.048608
-1.469817
-1.357728
-0.894478
-0.343349
0.199130
0.763867
1.313166
1.629670
1.471124
0.872961
0.159709
-0.385300
-0.713815
-0.909737
-1.100392
-1.434851
-1.919916
-2.273595
-2.134667
-1.405254
-0.263570
0.993396
1.972718
2.317780
1.986087
1.234872
0.374443
-0.319419
-0.626549
-0.448520
0.214921
1.237642
2.273480
2.920717
2.950607
2.273407
0.979433
-0.524231
-1.747264
-2.409872
-2.367983
-1.568970
-0.132152
1.702245
3.454865
4.348581
4.021892
3.129640
2.570832
2.221102
0.929334
-2.024686
-5.946285
-9.478119
-11.301282
-10.038585
-5.362111
0.810868
5.830819
8.279201
7.773692
4.728425
0.778743
-2.164628
-3.307069
-2.897339
-1.883010
-2.088930
-5.090136
-9.654694
-11.679888
-8.512082
-1.967131
4.293895
7.910788
7.751230
4.250510
0.461972
-0.082777
3.053814
7.256928
9.840869
9.512708
5.933748
-0.044610
-6.172093
-9.835968
-8.595455
-0.905024
11.073135
21.077206
23.941957
19.074560
8.279876
-5.648607
-18.592583
-27.191713
-30.508474
-28.755096
-22.204023
-11.321884
2.242557
14.611370
21.659773
22.401867
18.675577
12.484737
4.950985
-3.413180
-12.135786
-20.227081
-26.077387
-27.393866
-22.170513
-11.298463
1.079875
10.675860
14.769609
12.139446
4.551398
-3.198930
-7.418821
-8.231376
-7.474225
-6.188379
-4.433555
-1.718068
2.942098
10.167469
17.841360
20.787115
15.609569
4.303286
-8.862121
-20.515684
-27.592140
-27.907536
-21.330734
-8.906847
6.809957
21.113176
29.846155
31.444979
25.974279
15.189932
2.663555
-8.687074
-18.197802
-25.929413
-30.007559
-26.243353
-12.750310
6.250881
24.226007
36.540489
39.612377
31.760916
15.200452
-6.257969
-28.657921
-46.680164
-55.301933
-51.573414
-34.576458
-8.465669
16.829905
33.355072
40.469685
41.039837
37.400906
31.049561
22.277765
9.604927
-8.389311
-28.535828
-42.215523
-42.645397
-30.125622
-8.806389
14.640504
30.126743
30.952103
19.640673
2.996761
-12.178094
-18.323069
-11.509304
3.945970
20.674747
34.370525
43.038368
45.690639
42.639656
34.357788
20.103554
-1.559372
-28.930576
-53.813488
-66.369049
-62.675446
-44.400200
-16.504930
11.935050
31.901979
41.473579
44.819180
45.613293
43.958969
37.927563
25.327019
4.337197
-23.223454
-48.545895
-60.945629
-55.627331
-33.445534
-0.030849
31.916204
48.650948
45.105614
24.152950
-7.068951
-36.370502
-51.548607
-49.125477
-33.478317
-11.331675
9.323629
21.300310
22.151752
13.511360
-0.703805
-13.709219
-18.870308
-15.449451
-8.420632
-3.367624
-4.179723
-12.464102
-23.925018
-28.288546
-19.425598
-2.783793
11.761220
18.999769
18.066957
10.641213
1.595239
-3.986144
-5.775700
-7.764658
-12.719553
-18.937717
-22.908916
-22.801180
-18.470192
-10.848743
-2.278672
4.672127
8.902693
10.533187
10.317034
9.793509
10.451481
12.119458
12.978712
11.473325
7.451169
1.609142
-4.407548
-7.661733
-5.721622
1.893686
14.360618
28.824791
39.842369
43.144257
38.525146
27.789970
13.274027
-1.820191
-14.716813
-24.096392
-29.190399
-28.493452
-19.646481
-2.764975
16.469835
30.763147
36.654709
33.878365
23.682281
9.212749
-5.853585
-18.346886
-24.736265
-22.855282
-14.010983
-1.206384
11.829718
20.053244
20.442326
15.069953
7.857804
0.498946
-7.241108
-15.327005
-22.370068
-26.576384
-27.242838
-24.676725
-19.582647
-13.067616
-6.290082
-0.216475
4.094369
6.041950
6.159949
5.386328
4.087781
2.009357
-1.439373
-7.122728
-15.557641
-24.951443
-30.852083
-30.014257
-23.221346
-13.021623
-1.537965
9.141787
17.088251
20.917130
19.749086
13.964363
5.413770
-3.404215
-9.528811
-10.422550
-6.102482
0.900388
7.799738
12.543497
13.804143
11.555201
6.967366
1.606281
-2.737677
-4.577504
-3.934970
-2.175338
-0.343822
1.751096
4.797600
8.766170
12.654945
15.115525
14.759084
10.740938
4.696357
0.918108
2.317233
7.517480
13.180162
16.390289
14.550789
7.270526
-1.425552
-6.187326
-4.762561
2.182687
12.419027
21.894810
26.444492
24.702631
17.925325
8.758938
1.418679
-0.130716
4.072540
9.973923
13.291097
11.402082
3.336478
-8.353462
-17.421495
-19.343664
-15.128074
-8.317346
-2.015385
0.876664
-1.071006
-6.225688
-11.782802
-15.852251
-17.141720
-15.023298
-10.113330
-3.552649
3.395447
8.931919
11.250305
9.066110
1.820620
-8.644447
-17.618328
-20.889935
-17.039501
-6.615631
6.919958
16.738150
17.830530
10.905959
-0.694996
-13.870086
-25.389433
-32.934143
-36.329056
-36.270046
-32.853104
-25.543724
-14.416299
-1.194218
11.671487
21.578533
25.347813
21.627352
13.359727
4.996125
-1.018163
-4.035624
-4.976024
-7.105688
-13.834971
-24.229050
-32.549721
-33.049492
-22.797546
-1.429621
25.710836
46.673187
52.106915
41.954758
21.178711
-2.459465
-17.669825
-17.666403
-7.070825
5.011985
13.269003
15.680228
12.277291
5.925603
0.390131
-1.833354
0.958368
9.125493
20.396336
31.257608
37.714539
34.702084
20.066889
-1.478725
-22.603729
-38.016609
-43.641548
-38.122410
-25.539782
-11.789093
-0.280403
7.403883
10.852150
11.411227
10.741683
8.768159
4.106770
-2.689629
-6.712174
-2.162489
11.292494
28.060627
41.311623
45.021626
35.130962
14.113267
-8.783485
-25.348314
-33.101578
-32.779289
-26.451071
-17.148434
-6.582678
6.457394
23.888348
43.787045
59.448689
64.539566
56.528656
35.501740
5.372828
-25.487528
-49.921791
-65.742943
-72.592339
-67.507919
-44.828629
-4.995683
37.686169
65.158440
70.779762
58.542175
36.204750
14.223848
1.595048
-2.172970
-5.642380
-13.131117
-17.091522
-6.875260
15.982665
36.850090
43.387333
35.053967
17.642036
-0.796468
-9.766076
-4.284777
8.005834
15.264500
13.174881
4.634568
-6.030016
-15.080394
-20.209135
-22.893068
-27.725475
-36.101879
-41.721035
-36.114269
-17.869011
6.860477
30.125540
44.518196
45.163433
35.850746
28.487707
29.705061
31.666046
21.699776
-2.657085
-32.681358
-57.224659
-66.472153
-54.190838
-26.226067
-0.937219
7.276582
-1.222103
-18.732973
-36.843132
-46.113071
-41.760376
-29.291218
-17.787998
-11.060684
-7.983337
-6.224104
-3.319672
2.677706
11.696209
21.773338
30.984425
38.422478
43.568832
44.870110
38.945614
22.427179
-6.473640
-47.732529
-95.345291
-135.645691
-156.595230
-154.480637
-130.462448
-89.624832
-41.121700
8.370104
59.006332
112.185211
158.650803
176.478333
152.309692
98.004135
35.717949
-18.216469
-51.251755
-58.729877
-51.245514
-43.714916
-39.918919
-33.474533
-19.801016
-2.662168
11.145328
19.095268
22.594231
22.760391
18.547569
8.843366
-2.422988
-5.650067
4.757569
23.020350
38.796253
45.544098
40.301006
24.908394
9.277211
4.646806
12.321144
24.140486
32.887848
37.795586
41.321331
45.471699
51.341702
58.498344
64.003906
64.020432
56.054504
39.140167
15.946201
-4.384081
-12.088832
-7.713984
-2.217128
-5.423777
-19.394909
-40.995071
-61.076611
-63.882641
-40.578655
-0.294591
40.818768
71.791435
84.926491
75.865547
46.671898
2.577300
-47.820499
-89.687386
-108.341209
-94.400108
-44.193626
30.433933
99.479111
136.364487
132.368713
89.714554
21.190660
-48.377880
-97.929764
-121.033974
-118.979538
-95.722321
-58.217396
-16.130838
17.084888
28.701069
16.209036
-12.763098
-46.294922
-68.916138
-67.017746
-41.199463
-6.276437
21.997925
33.346901
22.664227
-5.138253
-34.951828
-53.533611
-56.887432
-46.449448
-27.324570
-8.209212
5.002727
13.903875
22.772697
31.421227
34.595249
27.911512
11.786089
-10.196624
-30.292107
-35.789326
-20.014952
8.354352
34.868618
51.086399
53.767181
44.183407
30.615406
22.334681
19.493256
13.391815
-3.003578
-28.867378
-59.270817
-87.249435
-102.470146
-96.626488
-68.286705
-20.123575
39.619301
94.858589
130.313782
137.826096
115.340683
72.601234
31.814396
8.445725
-2.324308
-13.382920
-28.868235
-42.919308
-46.929131
-32.650913
4.618979
54.511036
90.001076
91.022499
61.112804
14.323304
-37.846855
-84.775566
-117.308601
-129.951340
-119.789726
-88.437737
-42.781921
7.625430
50.707767
74.944153
75.128448
51.702618
11.447859
-28.375984
-48.705814
-42.847603
-15.966007
19.994829
45.260349
41.253960
8.955411
-31.677031
-63.037945
-81.614098
-90.681702
-91.541359
-82.312431
-61.640148
-31.508936
4.444971
41.238659
71.228058
88.162315
90.705437
79.638000
55.659008
20.355371
-20.249159
-52.120739
-60.531818
-43.717346
-12.690961
20.147976
45.897598
59.068523
59.503899
51.166931
37.427071
19.051008
-4.042914
-28.829216
-47.973789
-55.444599
-50.709686
-36.136532
-15.733755
4.090223
17.585630
22.029388
16.682211
2.943505
-15.757942
-36.570877
-58.662521
-81.390961
-99.546104
-101.963074
-80.923492
-39.779533
12.526191
64.540718
100.904099
113.490028
111.469887
108.522102
103.072975
78.950317
29.274721
-26.782227
-60.887516
-59.127724
-21.784109
39.252254
95.528961
117.715363
103.350761
75.021332
51.940899
34.949322
17.198141
-0.587774
-8.852243
-2.466730
9.775458
13.947748
3.176786
-22.348452
-56.916733
-87.148590
-98.827827
-88.590164
-63.215557
-31.446579
-1.391281
20.148663
28.929325
22.313337
2.229141
-20.490585
-32.992847
-30.875574
-17.256924
3.183627
25.768938
46.167950
60.250927
63.407684
55.372391
45.135792
43.079712
46.990650
42.155605
19.098986
-14.559169
-43.759506
-57.129017
-46.916248
-15.346898
16.881659
25.606695
8.133974
-17.579372
-35.686199
-44.578003
-49.351009
-52.424599
-52.534595
-47.812080
-37.390583
-20.799568
2.229071
30.831873
59.970634
77.250809
69.141808
33.130177
-21.146997
-77.340958
-112.457375
-106.588486
-65.430504
-20.286896
3.307277
4.561851
-5.235841
-15.751014
-17.891409
-7.571065
9.675633
25.088299
34.743752
38.657543
36.645554
26.786137
7.200402
-19.077101
-43.176750
-57.696312
-61.680923
-57.547340
-48.599483
-38.955299
-30.749964
-21.850906
-9.475462
2.862754
4.996641
-8.378263
-29.086582
-43.715694
-43.723091
-24.693968
12.386692
57.129169
96.758415
125.042465
140.012070
139.043228
117.619324
72.366508
10.801058
-46.974468
-85.397270
-105.169502
-112.994171
-107.200706
-77.487000
-21.303587
43.486195
92.046516
110.412941
94.178474
48.972450
-3.244145
-37.957741
-49.554539
-48.666058
-42.877956
-27.166759
6.115669
47.470924
68.557808
52.490955
15.940792
-11.965509
-17.698013
-2.513392
26.673037
58.320435
81.208450
91.834625
92.240929
82.719933
58.664639
15.800644
-36.832314
-75.265282
-83.547813
-70.342659
-53.559456
-40.309128
-27.617680
-13.208531
-0.758110
4.551656
4.036109
5.717661
14.717076
26.801836
33.592491
28.703451
7.784024
-27.586420
-64.676537
-87.628395
-88.788773
-67.717697
-29.336172
13.426868
45.659855
58.601444
48.695621
20.694683
-6.080101
-10.599437
6.784349
24.587954
24.458721
5.078858
-26.162703
-59.913284
-83.722343
-86.985664
-65.513779
-19.890467
40.204830
94.046478
124.400536
127.941216
108.767723
74.132652
34.733929
-1.515956
-34.038731
-64.182320
-85.538200
-83.071854
-50.536266
-4.389306
31.759499
48.830956
50.715168
42.776936
27.913605
7.991828
-12.164602
-23.376444
-20.132338
-7.250100
6.505368
16.547285
22.233212
25.215343
29.798828
39.297970
47.649197
39.188568
5.903943
-39.556641
-76.991508
-95.462372
-92.159286
-69.805809
-39.247955
-14.074937
-4.606634
-18.536156
-52.472504
-81.752144
-77.694565
-37.499500
15.602504
57.569706
76.156158
68.108322
41.838638
16.346693
2.792446
-8.307398
-33.085976
-72.255058
-109.848740
-130.939819
-131.720444
-113.845886
-79.247696
-30.761026
24.031313
68.764748
85.976540
71.116104
32.440990
-16.199909
-55.956635
-69.401657
-53.320587
-17.794191
23.888914
58.213745
74.362930
71.700966
59.085171
46.582630
42.041965
49.614120
63.204678
66.683975
50.464252
23.337337
0.777414
-10.762494
-13.480872
-11.639044
-9.615976
-10.634464
-13.874348
-14.846625
-10.438235
-2.059949
7.126810
15.319556
21.400543
22.940212
15.034040
-6.963524
