EVENT_NAME: EMILIA_2ND_SHOCK
EVENT_ID: IT-2012-0011
EVENT_DATE_YYYYMMDD: 20120529
EVENT_TIME_HHMMSS: 070002
EVENT_LATITUDE_DEGREE: 44.8417
EVENT_LONGITUDE_DEGREE: 11.0657
EVENT_DEPTH_KM: 8.1
HYPOCENTER_REFERENCE: INGV-CNT_Seismic_Bulletin
MAGNITUDE_W: 6.0
MAGNITUDE_W_REFERENCE: RCMT-INGV
MAGNITUDE_L: 5.8
MAGNITUDE_L_REFERENCE: INGV-CNT_Seismic_Bulletin
FOCAL_MECHANISM: TF
NETWORK: IV
STATION_CODE: T0812
STATION_NAME: T0812
STATION_LATITUDE_DEGREE: 44.954700
STATION_LONGITUDE_DEGREE: 11.181000
STATION_ELEVATION_M: 7
LOCATION: 
SENSOR_DEPTH_M: 1.0
VS30_M/S: 
SITE_CLASSIFICATION_EC8: C*
MORPHOLOGIC_CLASSIFICATION: 
EPICENTRAL_DISTANCE_KM: 15.5
EARTHQUAKE_BACKAZIMUTH_DEGREE: 216.0
DATE_TIME_FIRST_SAMPLE_YYYYMMDD_HHMMSS: 20120529_065952.000
DATE_TIME_FIRST_SAMPLE_PRECISION: milliseconds
SAMPLING_INTERVAL_S: 0.005000
NDATA: 30001
DURATION_S: 150.005
STREAM: HNE
UNITS: cm/s
INSTRUMENT: sensor = Episensor FBA ES-T [Kinemetrics] | digitizer = Unknown [Unknown]
INSTRUMENT_ANALOG/DIGITAL: D
INSTRUMENTAL_FREQUENCY_HZ: 
INSTRUMENTAL_DAMPING: 
FULL_SCALE_G: 
N_BIT_DIGITAL_CONVERTER: 
PGV_CM/S: -11.659809
TIME_PGV_S: 23.550000
BASELINE_CORRECTION: BASELINE REMOVED
FILTER_TYPE: BUTTERWORTH
FILTER_ORDER: 2
LOW_CUT_FREQUENCY_HZ: 0.060
HIGH_CUT_FREQUENCY_HZ: 40.000
LATE/NORMAL_TRIGGERED: NT
DATABASE_VERSION: DYNA 1.0
HEADER_FORMAT: DYNA 1.2
DATA_TYPE: VELOCITY
PROCESSING: manual (Paolucci et al., 2011)
DATA_TIMESTAMP_YYYYMMDD_HHMMSS: 
DATA_LICENSE: CC-BY4_0 (http://creativecommons.org/licenses/by/4.0/)
DATA_CITATION: ESM working group (2015), European Strong-Motion database, version 0.1, Network Activity 3: Networking acceleration networks and SM data users. Project NERA (www.nera-eu.org)
DATA_CREATOR: ESM working group
ORIGINAL_DATA_MEDIATOR_CITATION: Orfeus - European Integrated Data Archive (EIDA) http://www.orfeus-eu.org/eida/
ORIGINAL_DATA_MEDIATOR: Orfeus - European Integrated Data Archive (EIDA)
ORIGINAL_DATA_CREATOR_CITATION: Data for this study comes from the Italian national seismic network operated by Istituto Nazionale di Geofisica e Vulcanologia and archived at the European Integrated Data Archive http://eida.rm.ingv.it/
ORIGINAL_DATA_CREATOR: network: IV (Italian National Seismic Network); owner: Istituto Nazionale di Geofisica e Vulcanologia
USER1: 
USER2: 
USER3: 
USER4: 
USER5: 
[...]
-0.341154
-0.314062
-0.292876
-0.283626
-0.288195
-0.302946
-0.320117
-0.330898
-0.329290
-0.315569
-0.296773
-0.282539
-0.279341
-0.288372
-0.307402
-0.332823
-0.360160
-0.384412
-0.401564
-0.410318
-0.412145
-0.409396
-0.403597
-0.395744
-0.387416
-0.380432
-0.375054
-0.369245
-0.360649
-0.349850
-0.341828
-0.343911
-0.361221
-0.392447
-0.429251
-0.460768
-0.480249
-0.488421
-0.491761
-0.498129
-0.512634
-0.535201
-0.560582
-0.580998
-0.589845
-0.584046
-0.564415
-0.534721
-0.499832
-0.463938
-0.430383
-0.402783
-0.385188
-0.379848
-0.383837
-0.387905
-0.380295
-0.354223
-0.313370
-0.270454
-0.240093
-0.231584
-0.245022
-0.271331
-0.296518
-0.309053
-0.306347
-0.295743
-0.288876
-0.293103
-0.306329
-0.319364
-0.323959
-0.319613
-0.313383
-0.313492
-0.322806
-0.337292
-0.349359
-0.352740
-0.346442
-0.336502
-0.334329
-0.350825
-0.389161
-0.441887
-0.494470
-0.531688
-0.542741
-0.523911
-0.479029
-0.417848
-0.353213
-0.297967
-0.261478
-0.246870
-0.251203
-0.268097
-0.290351
-0.311721
-0.328268
-0.339308
-0.347865
-0.360061
-0.382163
-0.415574
-0.453381
-0.482866
-0.493104
-0.481348
-0.453865
-0.422215
-0.398029
-0.388724
-0.395316
-0.412125
-0.428053
-0.430411
-0.411802
-0.376256
-0.338309
-0.314418
-0.313889
-0.336384
-0.376126
-0.427290
-0.485481
-0.545047
-0.596541
-0.627844
-0.627892
-0.590784
-0.519605
-0.428526
-0.340276
-0.278647
-0.259445
-0.284267
-0.340748
-0.409511
-0.472676
-0.518768
-0.544731
-0.556823
-0.568140
-0.591605
-0.632507
-0.685995
-0.740371
-0.782347
-0.800723
-0.787431
-0.737623
-0.652121
-0.542086
-0.430422
-0.346134
-0.313782
-0.342366
-0.419924
-0.519705
-0.614112
-0.685190
-0.726299
-0.738400
-0.725827
-0.694134
-0.649748
-0.599431
-0.549139
-0.503944
-0.468757
-0.447322
-0.439158
-0.438234
-0.436843
-0.432624
-0.431893
-0.444772
-0.475718
-0.518248
-0.558956
-0.586712
-0.598173
-0.595673
-0.581800
-0.557042
-0.521915
-0.480176
-0.439433
-0.408794
-0.396326
-0.408065
-0.446850
-0.509684
-0.586227
-0.661494
-0.722373
-0.764493
-0.794137
-0.822092
-0.853189
-0.880368
-0.888958
-0.867150
-0.812802
-0.732431
-0.636585
-0.536825
-0.446108
-0.380004
-0.353472
-0.372939
-0.431193
-0.510590
-0.591555
-0.659754
-0.708026
-0.733570
-0.734692
-0.711006
-0.666158
-0.609612
-0.555573
-0.518928
-0.509569
-0.528704
-0.570112
-0.624507
-0.682766
-0.736997
-0.781286
-0.813299
-0.836077
-0.857992
-0.889610
-0.939251
-1.010287
-1.100418
-1.201523
-1.300470
-1.381495
-1.429834
-1.436831
-1.404857
-1.347079
-1.280257
-1.215880
-1.156651
-1.100169
-1.045854
-0.999171
-0.970265
-0.968804
-0.998341
-1.053163
-1.119877
-1.182506
-1.227278
-1.245738
-1.236894
-1.207324
-1.167494
-1.125380
-1.081896
-1.032779
-0.976313
-0.919583
-0.876861
-0.861745
-0.879372
-0.924040
-0.983231
-1.044196
-1.098313
-1.142050
-1.176242
-1.204551
-1.231229
-1.258851
-1.287289
-1.314866
-1.340907
-1.367009
-1.395013
-1.423131
-1.444159
-1.448155
-1.428288
-1.386100
-1.332155
-1.280372
-1.239882
-1.211056
-1.187680
-1.161930
-1.128364
-1.085268
-1.033770
-0.976363
-0.916335
-0.857962
-0.806140
-0.765198
-0.737931
-0.725434
-0.727208
-0.740632
-0.759764
-0.775450
-0.779047
-0.767925
-0.747182
-0.725266
-0.707548
-0.693639
-0.679693
-0.662044
-0.638826
-0.609950
-0.577575
-0.547543
-0.529359
-0.532225
-0.559125
-0.604638
-0.658464
-0.710580
-0.753650
-0.782414
-0.792637
-0.781948
-0.752020
-0.708917
-0.660120
-0.610685
-0.561896
-0.513106
-0.464456
-0.417587
-0.373932
-0.333298
-0.295102
-0.261305
-0.237604
-0.231178
-0.247148
-0.286666
-0.346968
-0.421958
-0.502545
-0.577254
-0.634660
-0.668433
-0.681958
-0.687304
-0.697666
-0.718723
-0.745299
-0.765479
-0.768948
-0.753251
-0.723670
-0.688317
-0.654042
-0.626151
-0.609500
-0.608052
-0.623705
-0.655905
-0.701850
-0.756315
-0.811128
-0.856098
-0.883301
-0.892569
-0.892546
-0.894875
-0.905644
-0.920894
-0.929572
-0.921573
-0.895259
-0.859197
-0.826455
-0.805306
-0.793530
-0.780829
-0.757032
-0.719512
-0.675502
-0.638896
-0.622855
-0.631359
-0.655319
-0.677830
-0.685431
-0.675924
-0.657205
-0.639998
-0.631424
-0.634323
-0.651054
-0.685474
-0.739951
-0.811623
-0.892778
-0.974528
-1.049635
-1.112641
-1.158609
-1.182630
-1.180630
-1.150488
-1.093489
-1.016251
-0.931015
-0.852948
-0.796016
-0.768785
-0.770585
-0.789965
-0.807888
-0.805812
-0.775758
-0.727008
-0.682933
-0.665861
-0.679531
-0.704614
-0.711400
-0.678328
-0.602956
-0.501743
-0.402143
-0.330072
-0.297408
-0.297059
-0.308290
-0.308129
-0.283026
-0.235882
-0.184522
-0.151399
-0.151803
-0.189663
-0.260715
-0.356358
-0.465172
-0.573416
-0.666661
-0.733990
-0.772677
-0.788267
-0.789389
-0.782286
-0.769244
-0.749909
-0.722280
-0.683088
-0.630061
-0.566425
-0.503210
-0.455445
-0.434119
-0.440365
-0.466931
-0.505169
-0.550359
-0.600906
-0.654471
-0.706340
-0.751191
-0.785592
-0.808385
-0.818931
-0.815849
-0.798120
-0.767647
-0.730414
-0.694277
-0.665120
-0.645463
-0.636394
-0.638611
-0.649141
-0.656761
-0.643224
-0.593781
-0.511368
-0.421234
-0.356829
-0.336364
-0.351496
-0.376228
-0.384409
-0.361539
-0.307018
-0.231027
-0.149910
-0.081321
-0.038950
-0.026501
-0.033731
-0.039557
-0.022215
0.030427
0.116917
0.225493
0.341084
0.451255
0.548172
0.628151
0.692278
0.747450
0.803167
0.864021
0.924460
0.970581
0.987037
0.964596
0.905627
0.825261
0.745761
0.687088
0.660614
0.667018
0.695480
0.725327
0.732757
0.700910
0.628226
0.530122
0.431368
0.351665
0.292845
0.236752
0.155375
0.026685
-0.152009
-0.359230
-0.556381
-0.704382
-0.780168
-0.783813
-0.736177
-0.670789
-0.620280
-0.602108
-0.614018
-0.641451
-0.668910
-0.687652
-0.697119
-0.701548
-0.705046
-0.708169
-0.707065
-0.694233
-0.659754
-0.593250
-0.487146
-0.339936
-0.157896
0.044612
0.246511
0.425270
0.565054
0.662486
0.726862
0.775240
0.824366
0.883461
0.952014
1.022129
1.082570
1.123865
1.144625
1.155960
1.178691
1.233544
1.331556
1.470204
1.635599
1.808649
1.971631
2.112240
2.225874
2.316891
2.396215
2.474590
2.556314
2.638932
2.718440
2.794461
2.871067
2.953902
3.046890
3.149631
3.255299
3.350896
3.421419
3.455845
3.451387
3.414278
3.356936
3.292422
3.228284
3.162393
3.082499
2.970599
2.812131
2.605417
2.363964
2.110392
1.868320
1.657218
1.489885
1.371372
1.299120
1.263726
1.250608
1.244059
1.233484
1.219009
1.213195
1.236258
1.304678
1.419656
1.565008
1.716143
1.852238
1.964159
2.057027
2.148311
2.260453
2.410454
2.602971
2.829593
3.072559
3.311543
3.530998
3.723413
3.887364
4.024473
4.138893
4.238170
4.332674
4.433020
4.547458
4.681170
4.836295
5.011056
5.199518
5.393464
5.584884
5.766787
5.932007
6.071595
6.175522
6.236422
6.253206
6.231270
6.179038
6.103226
6.006621
5.890558
5.759803
5.625770
5.505735
5.417234
5.369781
5.358720
5.364123
5.355570
5.303390
5.191529
5.022882
4.815601
4.595992
4.390500
4.217107
4.080039
3.972196
3.883574
3.808985
3.749681
3.708830
3.685471
3.671868
3.655657
3.625354
3.576143
3.512584
3.447393
3.397519
3.378120
3.395564
3.443447
3.505266
3.561587
3.596188
3.599605
3.570720
3.515742
3.445372
3.371936
3.306233
3.254473
3.218006
3.196844
3.194303
3.218573
3.279143
3.380910
3.520891
3.689171
3.872055
4.055149
4.225004
4.369910
4.482136
4.561449
4.616501
4.662015
4.712888
4.778139
4.858590
4.950008
5.047821
5.148319
5.247082
5.339477
5.424704
5.508569
5.599802
5.701571
5.805450
5.893586
5.948184
5.961074
5.936221
5.885720
5.824616
5.767022
5.723127
5.697280
5.687164
5.683525
5.671518
5.635890
5.568440
5.472282
5.359730
5.245635
5.140310
5.046258
4.960430
4.879004
4.800417
4.725861
4.659333
4.608475
4.584336
4.598610
4.659729
4.769505
4.921727
5.104125
5.302012
5.500167
5.683592
5.839737
5.961558
6.048839
6.105510
6.133475
6.128085
6.080360
5.985123
5.848362
5.687147
5.521689
5.365855
5.222337
5.083066
4.933075
4.757514
4.549676
4.314421
4.064125
3.810572
3.559226
3.310174
3.064475
2.829485
2.618225
2.443885
2.313138
2.221818
2.155437
2.093113
2.011684
1.890743
1.719594
1.502228
1.256517
1.007888
0.780002
0.586952
0.431858
0.311163
0.218719
0.146285
0.082756
0.015210
-0.067868
-0.172944
-0.300204
-0.445971
-0.606483
-0.779835
-0.965042
-1.159584
-1.357648
-1.550158
-1.726062
-1.874641
-1.988155
-2.063179
-2.100917
-2.107802
-2.095658
-2.080254
-2.078145
-2.101335
-2.151428
-2.218317
-2.285759
-2.340102
-2.376683
-2.400959
-2.424176
-2.455411
-2.494788
-2.533202
-2.558755
-2.564238
-2.549970
-2.521238
-2.483704
-2.440279
-2.391283
-2.337529
-2.283646
-2.238665
-2.212624
-2.210942
-2.231076
-2.264668
-2.302591
-2.337433
-2.362230
-2.368757
-2.348897
-2.299762
-2.228401
-2.150222
-2.081413
-2.031963
-2.003413
-1.990402
-1.983449
-1.970849
-1.939716
-1.878654
-1.781622
-1.648467
-1.481208
-1.280332
-1.044965
-0.777323
-0.488723
-0.203248
0.042443
0.204584
0.247511
0.163327
-0.021742
-0.261448
-0.511885
-0.746816
-0.958830
-1.148715
-1.313341
-1.440640
-1.512633
-1.513628
-1.438908
-1.298863
-1.116755
-0.921193
-0.735638
-0.570651
-0.424423
-0.289506
-0.159144
-0.029959
0.098027
0.222307
0.339481
0.447684
0.548647
0.647863
0.752748
0.870152
1.005245
1.162200
1.343885
1.548458
1.765787
1.978020
2.165169
2.313389
2.421411
2.500655
2.569332
2.644374
2.733370
2.827573
2.900502
2.918248
2.857210
2.714863
2.506831
2.256028
1.982121
1.696898
1.406940
1.119271
0.844596
0.596626
0.387908
0.224170
0.101035
0.005094
-0.081224
-0.172462
-0.274886
-0.388138
-0.512358
-0.654086
-0.825633
-1.037880
-1.292256
-1.578477
-1.878548
-2.172567
-2.443316
-2.678915
-2.873899
-3.030222
-3.157202
-3.266906
-3.365331
-3.445790
-3.490449
-3.479678
-3.403509
-3.268614
-3.096248
-2.911117
-2.728667
-2.550647
-2.370416
-2.182099
-1.987767
-1.799132
-1.632915
-1.501624
-1.404964
-1.328527
-1.251086
-1.154459
-1.029152
-0.873707
-0.689918
-0.478215
-0.236708
0.036547
0.341148
0.673949
1.030030
1.402609
1.781232
2.151698
2.499635
2.814434
3.090238
3.323533
3.509517
3.641176
3.712583
3.723688
3.682368
3.601563
3.493554
3.366257
3.223914
3.069637
2.906650
2.737988
2.566333
2.394859
2.227386
2.066536
1.911429
1.756892
1.594507
1.414817
1.209483
0.972345
0.699928
0.391658
0.048919
-0.326563
-0.733533
-1.171023
-1.637699
-2.130811
-2.644886
-3.171241
-3.700014
-4.224426
-4.743519
-5.260325
-5.777338
-6.293827
-6.806568
-7.311663
-7.804895
-8.280110
-8.727047
-9.131669
-9.479998
-9.762755
-9.978243
-10.132180
-10.234090
-10.292710
-10.313860
-10.301260
-10.258250
-10.189110
-10.099040
-9.993092
-9.874838
-9.745365
-9.602742
-9.442516
-9.258953
-9.046310
-8.800297
-8.519740
-8.207312
-7.868517
-7.509416
-7.134146
-6.743504
-6.335323
-5.906023
-5.452287
-4.972675
-4.469288
-3.948545
-3.419688
-2.891766
-2.371650
-1.863452
-1.368454
-0.885631
-0.412670
0.053146
0.514248
0.971848
1.424724
1.868637
2.297408
2.705607
3.091316
3.456911
3.807562
4.149257
4.487709
4.827346
5.169978
5.514384
5.856996
6.192453
6.513888
6.813574
7.084002
7.319164
7.515271
7.670513
7.785173
7.862756
7.910262
7.936383
7.949015
7.953596
7.952761
7.946872
7.934295
7.911375
7.873339
7.816064
7.737120
7.635797
7.513120
7.371946
7.216109
7.048112
6.866488
6.664991
6.434865
6.169035
5.864869
5.523340
5.146191
4.734179
4.287412
3.806558
3.293443
2.750741
2.181522
1.589161
0.977275
0.349316
-0.292296
-0.947003
-1.615812
-2.299130
-2.992755
-3.683529
-4.347509
-4.953663
-5.475543
-5.905887
-6.261658
-6.574901
-6.877810
-7.191813
-7.524100
-7.870722
-8.222923
-8.571691
-8.908282
-9.223513
-9.508880
-9.759263
-9.975352
-10.163640
-10.333020
-10.490130
-10.637090
-10.771730
-10.888370
-10.978370
-11.031220
-11.036610
-10.987420
-10.882180
-10.724300
-10.518350
-10.266510
-9.968044
-9.621981
-9.230801
-8.801906
-8.345906
-7.873436
-7.392066
-6.904537
-6.409567
-5.904606
-5.388602
-4.863318
-4.333015
-3.803172
-3.278632
-2.761876
-2.252483
-1.747975
-1.245230
-0.741687
-0.236082
0.271071
0.776859
1.275326
1.757885
2.215141
2.639026
3.024685
3.372192
3.687178
3.979527
4.260707
4.540539
4.824191
5.110982
5.395933
5.672515
5.934456
6.176587
6.395754
6.592042
6.769928
6.938072
7.106041
7.279212
7.456146
7.630368
7.794348
7.942747
8.073683
8.188204
8.288600
8.375839
8.446485
8.490420
8.491003
8.429041
8.289777
8.068555
7.771475
7.412035
7.006743
6.571169
6.117396
5.653447
5.183476
4.708038
4.224888
3.730266
3.220294
2.692407
2.146584
1.585724
1.015163
0.441725
-0.127970
-0.689679
-1.242739
-1.789650
-2.334587
-2.881303
-3.431050
-3.981722
-4.529106
-5.069456
-5.601496
-6.126826
-6.648669
-7.169334
-7.687952
-8.200578
-8.702470
-9.188506
-9.649196
-10.067610
-10.423950
-10.706460
-10.920430
-11.086890
-11.229920
-11.362330
-11.481370
-11.575670
-11.635630
-11.659810
-11.654970
-11.631590
-11.598460
-11.558980
-11.510700
-11.447020
-11.359730
-11.241910
-11.090810
-10.908820
-10.701760
-10.476000
-10.236350
-9.984624
-9.717650
-9.426104
-9.095833
-8.711982
-8.264959
-7.755671
-7.196169
-6.605031
-6.001009
-5.398091
-4.802958
-4.215666
-3.633265
-3.054053
-2.480651
-1.922097
-1.395218
-0.922529
-0.523840
-0.205167
0.046777
0.260831
0.471144
0.704907
0.974007
1.275452
1.598320
1.931203
2.266648
2.601906
2.936935
3.271885
3.605744
3.936033
4.258870
4.569194
4.861651
5.132144
5.378889
5.602209
5.803511
5.984497
6.147404
6.295623
6.432802
6.560847
6.679617
6.788680
6.888105
6.975877
7.042483
7.066635
7.018274
6.869459
6.605677
6.231543
5.769212
5.249700
4.702285
4.149422
3.607269
3.087837
2.601567
2.158293
1.765188
1.424179
1.131468
0.879412
0.659138
0.461573
0.276411
0.091720
-0.104528
-0.322639
-0.570295
-0.852426
-1.170741
-1.522035
-1.896892
-2.281193
-2.660301
-3.023818
-3.368940
-3.700498
-4.027015
-4.355145
-4.685791
-5.012357
-5.319996
-5.587177
-5.791470
-5.917317
-5.961030
-5.929577
-5.833460
-5.679524
-5.470305
-5.209635
-4.908578
-4.586557
-4.266276
-3.966348
-3.697527
-3.462870
-3.259261
-3.080251
-2.919625
-2.773436
-2.639748
-2.517221
-2.403881
-2.296848
-2.192878
-2.088994
-1.982631
-1.870950
-1.749958
-1.614489
-1.459768
-1.284864
-1.096907
-0.912741
-0.756213
-0.652306
-0.618932
-0.659162
-0.760337
-0.901988
-1.066518
-1.245605
-1.440433
-1.657882
-1.905423
-2.187123
-2.502179
-2.845638
-3.210022
-3.587179
-3.969965
-4.353023
-4.732589
-5.105863
-5.470318
-5.823712
-6.164994
-6.494843
-6.814981
-7.126669
-7.429246
-7.719294
-7.990973
-8.238127
-8.457413
-8.650341
-8.822999
-8.983781
-9.139692
-9.292687
-9.438329
-9.567420
-9.668948
-9.732915
-9.752690
-9.726322
-9.656382
-9.548999
-9.412616
-9.256179
-9.087082
-8.909660
-8.724356
-8.527779
-8.314272
-8.078321
-7.816229
-7.526688
-7.210631
-6.870495
-6.509312
-6.130389
-5.737530
-5.335456
-4.930168
-4.528570
-4.137287
-3.761439
-3.403782
-3.064564
-2.742239
-2.434346
-2.138023
-1.850422
-1.569293
-1.293341
-1.021931
-0.754253
-0.488745
-0.223369
0.043622
0.313000
0.584241
0.855615
1.124401
1.387090
1.639944
1.879829
2.104435
2.311647
2.498521
2.660387
2.790401
2.879726
2.919318
2.903335
2.831976
2.712079
2.555570
2.376035
2.184603
1.987630
1.787115
1.582612
1.373420
1.160136
0.945026
0.731368
0.522341
0.320114
0.125207
-0.063876
-0.250276
-0.437415
-0.627625
-0.822039
-1.021803
-1.229346
-1.448203
-1.681331
-1.929567
-2.191523
-2.464748
-2.747078
-3.036905
-3.331977
-3.627917
-3.917217
-4.188514
-4.426810
-4.615225
-4.738345
-4.786787
-4.760347
-4.666894
-4.518059
-4.325071
-4.096391
-3.837398
-3.551747
-3.243154
-2.916716
-2.579236
-2.238777
-1.904242
-1.584871
-1.289712
-1.027487
-0.806341
-0.633066
-0.511807
-0.442848
-0.422806
-0.446388
-0.508273
-0.604187
-0.731239
-0.887634
-1.071965
-1.282480
-1.516563
-1.770629
-2.040342
-2.320976
-2.607908
-2.897032
-3.185141
-3.470117
-3.750019
-4.020658
-4.272932
-4.493089
-4.668169
-4.793724
-4.877590
-4.937235
-4.993368
-5.063325
-5.157231
-5.278149
-5.424023
-5.589216
-5.765973
-5.946038
-6.121707
-6.286429
-6.435225
-6.564717
-6.672967
-6.759165
-6.823066
-6.864480
-6.883082
-6.878539
-6.850638
-6.799110
-6.722873
-6.618929
-6.482088
-6.306043
-6.084997
-5.815193
-5.495977
-5.129863
-4.722010
-4.279781
-3.812014
-3.328156
-2.838140
-2.352178
-1.879817
-1.429033
-1.006052
-0.616166
-0.264832
0.041865
0.297337
0.495442
0.632338
0.708454
0.730367
0.711831
0.671292
0.626286
0.589170
0.566018
0.557671
0.562207
0.577559
0.603049
0.639687
0.689756
0.756146
0.841573
0.947777
1.074736
1.219484
1.374738
1.528971
1.668234
1.778360
1.847762
1.870629
1.848273
1.787962
1.700340
1.595947
1.482016
1.361554
1.234730
1.101034
0.961097
0.817502
0.674413
0.536429
0.407889
0.293695
0.200783
0.138455
0.116435
0.140912
0.211195
0.319774
0.455036
0.603978
0.754247
0.895593
1.020223
1.122359
1.197557
1.242613
1.256514
1.241295
1.201917
1.145577
1.080757
1.016079
0.959504
0.917753
0.895790
0.896848
0.922623
0.972976
1.045728
1.136952
1.241576
1.354295
1.470324
1.585226
1.694510
1.793995
1.880584
1.952514
2.008552
2.046965
2.065645
2.063473
2.041799
2.004888
1.959073
1.911715
1.871184
1.846845
1.847751
1.880623
1.947678
2.045127
2.164131
2.294216
2.426650
2.556019
2.679657
2.795414
2.899586
2.986799
3.051949
3.093404
3.115559
3.128367
3.144019
3.173328
3.223139
3.295178
3.387029
3.494500
3.613809
3.742776
3.880904
4.028453
4.185227
4.349796
4.519274
4.689257
4.853600
5.004542
5.133289
5.230792
5.289775
5.308193
5.291414
5.251396
5.203606
5.162492
5.137316
5.131023
5.141785
5.165017
5.195399
5.228913
5.264065
5.301718
5.343990
5.393096
5.450623
5.517266
5.592759
5.675674
5.763232
5.851745
5.937541
6.017374
6.088177
6.146664
6.189162
6.211940
6.211820
6.186837
6.136789
6.063200
5.968640
5.855908
5.727497
5.585461
5.431724
5.268464
5.098413
4.925198
4.753326
4.587617
4.432972
4.295860
4.187135
4.122077
4.115353
4.174651
4.297343
4.471484
4.680376
4.907961
5.141961
5.374963
5.604925
5.834454
6.068322
6.310346
6.561029
6.816865
7.071531
7.318492
7.553389
7.774560
7.982129
8.176989
8.359870
8.530192
8.685120
8.819872
8.929389
9.010161
9.061298
9.084585
9.083403
9.061122
9.020063
8.961378
8.885577
8.793427
8.686747
8.568636
8.442956
8.313339
8.182477
8.052055
7.923111
7.796529
7.673207
