EVENT_NAME: EMILIA_2ND_SHOCK
EVENT_ID: IT-2012-0011
EVENT_DATE_YYYYMMDD: 20120529
EVENT_TIME_HHMMSS: 070002
EVENT_LATITUDE_DEGREE: 44.8417
EVENT_LONGITUDE_DEGREE: 11.0657
EVENT_DEPTH_KM: 8.1
HYPOCENTER_REFERENCE: INGV-CNT_Seismic_Bulletin
MAGNITUDE_W: 6.0
MAGNITUDE_W_REFERENCE: RCMT-INGV
MAGNITUDE_L: 5.8
MAGNITUDE_L_REFERENCE: INGV-CNT_Seismic_Bulletin
FOCAL_MECHANISM: TF
NETWORK: IV
STATION_CODE: T0800
STATION_NAME: T0800
STATION_LATITUDE_DEGREE: 44.848600
STATION_LONGITUDE_DEGREE: 11.247900
STATION_ELEVATION_M: 9
LOCATION: 
SENSOR_DEPTH_M: 1.0
VS30_M/S: 
SITE_CLASSIFICATION_EC8: C*
MORPHOLOGIC_CLASSIFICATION: 
EPICENTRAL_DISTANCE_KM: 14.4
EARTHQUAKE_BACKAZIMUTH_DEGREE: 267.0
DATE_TIME_FIRST_SAMPLE_YYYYMMDD_HHMMSS: 20120529_065949.000
DATE_TIME_FIRST_SAMPLE_PRECISION: milliseconds
SAMPLING_INTERVAL_S: 0.005000
NDATA: 20001
DURATION_S: 100.005
STREAM: HNN
UNITS: cm
INSTRUMENT: sensor = Episensor FBA ES-T [Kinemetrics] | digitizer = Unknown [Unknown]
INSTRUMENT_ANALOG/DIGITAL: D
INSTRUMENTAL_FREQUENCY_HZ: 
INSTRUMENTAL_DAMPING: 
FULL_SCALE_G: 
N_BIT_DIGITAL_CONVERTER: 
PGD_CM: -3.145064
TIME_PGD_S: 24.650000
BASELINE_CORRECTION: BASELINE REMOVED
FILTER_TYPE: BUTTERWORTH
FILTER_ORDER: 2
LOW_CUT_FREQUENCY_HZ: 0.070
HIGH_CUT_FREQUENCY_HZ: 40.000
LATE/NORMAL_TRIGGERED: NT
DATABASE_VERSION: DYNA 1.0
HEADER_FORMAT: DYNA 1.2
DATA_TYPE: DISPLACEMENT
PROCESSING: manual (Paolucci et al., 2011)
DATA_TIMESTAMP_YYYYMMDD_HHMMSS: 
DATA_LICENSE: CC-BY4_0 (http://creativecommons.org/licenses/by/4.0/)
DATA_CITATION: ESM working group (2015), European Strong-Motion database, version 0.1, Network Activity 3: Networking acceleration networks and SM data users. Project NERA (www.nera-eu.org)
DATA_CREATOR: ESM working group
ORIGINAL_DATA_MEDIATOR_CITATION: Orfeus - European Integrated Data Archive (EIDA) http://www.orfeus-eu.org/eida/
ORIGINAL_DATA_MEDIATOR: Orfeus - European Integrated Data Archive (EIDA)
ORIGINAL_DATA_CREATOR_CITATION: Data for this study comes from the Italian national seismic network operated by Istituto Nazionale di Geofisica e Vulcanologia and archived at the European Integrated Data Archive http://eida.rm.ingv.it/
ORIGINAL_DATA_CREATOR: network: IV (Italian National Seismic Network); owner: Istituto Nazionale di Geofisica e Vulcanologia
USER1: 
USER2: 
USER3: 
USER4: 
USER5: 
[...]
2.160636e-01
2.166050e-01
2.172842e-01
2.180130e-01
2.187277e-01
2.193904e-01
2.199765e-01
2.204696e-01
2.208659e-01
2.211775e-01
2.214296e-01
2.216549e-01
2.218907e-01
2.221828e-01
2.225788e-01
2.231053e-01
2.237567e-01
2.245161e-01
2.253705e-01
2.262936e-01
2.272250e-01
2.280871e-01
2.288209e-01
2.294111e-01
2.298853e-01
2.302957e-01
2.307076e-01
2.312026e-01
2.318612e-01
2.327056e-01
2.336640e-01
2.346116e-01
2.354533e-01
2.361836e-01
2.368943e-01
2.377274e-01
2.388051e-01
2.401730e-01
2.417831e-01
2.435241e-01
2.452751e-01
2.469499e-01
2.485033e-01
2.498962e-01
2.510593e-01
2.518976e-01
2.523273e-01
2.523221e-01
2.519408e-01
2.513203e-01
2.506326e-01
2.500223e-01
2.495645e-01
2.492712e-01
2.491228e-01
2.490943e-01
2.491712e-01
2.493612e-01
2.496935e-01
2.501964e-01
2.508653e-01
2.516394e-01
2.524164e-01
2.531100e-01
2.536990e-01
2.542259e-01
2.547641e-01
2.553902e-01
2.561708e-01
2.571531e-01
2.583553e-01
2.597526e-01
2.612728e-01
2.628100e-01
2.642530e-01
2.655153e-01
2.665539e-01
2.673671e-01
2.679802e-01
2.684277e-01
2.687404e-01
2.689380e-01
2.690261e-01
2.689985e-01
2.688489e-01
2.685890e-01
2.682559e-01
2.678953e-01
2.675404e-01
2.672101e-01
2.669311e-01
2.667694e-01
2.668420e-01
2.672888e-01
2.682219e-01
2.696796e-01
2.716053e-01
2.738524e-01
2.762056e-01
2.784129e-01
2.802471e-01
2.815954e-01
2.825068e-01
2.831368e-01
2.836303e-01
2.840257e-01
2.842572e-01
2.842643e-01
2.840914e-01
2.838716e-01
2.837453e-01
2.838044e-01
2.840905e-01
2.846234e-01
2.854141e-01
2.864331e-01
2.875818e-01
2.887135e-01
2.896933e-01
2.904570e-01
2.910384e-01
2.915484e-01
2.921181e-01
2.928321e-01
2.936928e-01
2.946385e-01
2.955910e-01
2.964951e-01
2.973286e-01
2.980829e-01
2.987469e-01
2.993199e-01
2.998319e-01
3.003387e-01
3.008862e-01
3.014666e-01
3.020158e-01
3.024788e-01
3.028803e-01
3.033273e-01
3.039396e-01
3.047512e-01
3.056662e-01
3.065168e-01
3.071640e-01
3.075592e-01
3.077505e-01
3.078503e-01
3.079930e-01
3.083056e-01
3.088921e-01
3.098293e-01
3.111670e-01
3.129233e-01
3.150687e-01
3.175054e-01
3.200731e-01
3.226001e-01
3.249533e-01
3.270436e-01
3.288039e-01
3.301815e-01
3.311606e-01
3.318019e-01
3.322497e-01
3.326786e-01
3.332333e-01
3.340140e-01
3.350747e-01
3.363943e-01
3.378443e-01
3.392047e-01
3.402536e-01
3.409035e-01
3.412677e-01
3.415714e-01
3.420026e-01
3.426283e-01
3.434032e-01
3.442409e-01
3.450773e-01
3.458825e-01
3.466534e-01
3.474202e-01
3.482355e-01
3.491197e-01
3.500066e-01
3.507499e-01
3.511881e-01
3.512353e-01
3.509342e-01
3.504302e-01
3.498904e-01
3.494185e-01
3.490141e-01
3.486032e-01
3.481134e-01
3.475495e-01
3.470296e-01
3.467596e-01
3.469708e-01
3.478519e-01
3.494950e-01
3.518779e-01
3.549077e-01
3.585203e-01
3.627446e-01
3.676538e-01
3.732535e-01
3.794074e-01
3.858788e-01
3.924807e-01
3.991740e-01
4.059832e-01
4.128390e-01
4.195105e-01
4.256823e-01
4.311281e-01
4.358253e-01
4.399043e-01
4.435270e-01
4.468210e-01
4.498750e-01
4.527481e-01
4.554519e-01
4.579079e-01
4.599336e-01
4.613020e-01
4.618322e-01
4.614513e-01
4.602100e-01
4.582583e-01
4.558001e-01
4.530497e-01
4.502044e-01
4.474372e-01
4.448900e-01
4.426494e-01
4.407174e-01
4.390020e-01
4.373445e-01
4.355803e-01
4.335953e-01
4.313390e-01
4.288050e-01
4.260047e-01
4.229586e-01
4.197145e-01
4.163608e-01
4.130037e-01
4.097117e-01
4.064623e-01
4.031559e-01
3.997245e-01
3.962334e-01
3.928716e-01
3.898459e-01
3.872527e-01
3.850310e-01
3.830361e-01
3.811401e-01
3.792624e-01
3.773714e-01
3.755136e-01
3.738347e-01
3.725430e-01
3.718256e-01
3.717677e-01
3.723186e-01
3.733187e-01
3.745362e-01
3.756744e-01
3.763879e-01
3.763548e-01
3.753753e-01
3.734431e-01
3.707522e-01
3.676207e-01
3.643567e-01
3.611289e-01
3.579448e-01
3.547779e-01
3.516910e-01
3.488126e-01
3.462217e-01
3.438742e-01
3.416540e-01
3.395445e-01
3.377664e-01
3.367506e-01
3.369982e-01
3.389280e-01
3.427587e-01
3.484601e-01
3.558198e-01
3.646143e-01
3.747161e-01
3.860060e-01
3.982147e-01
4.108818e-01
4.234810e-01
4.356316e-01
4.471770e-01
4.579986e-01
4.677811e-01
4.759922e-01
4.820921e-01
4.858323e-01
4.873902e-01
4.871849e-01
4.855419e-01
4.824684e-01
4.776839e-01
4.708957e-01
4.620619e-01
4.514112e-01
4.392916e-01
4.260253e-01
4.118937e-01
3.972717e-01
3.827417e-01
3.690267e-01
3.567776e-01
3.463424e-01
3.376797e-01
3.304932e-01
3.244506e-01
3.193152e-01
3.149314e-01
3.110933e-01
3.074041e-01
3.032368e-01
2.978291e-01
2.904879e-01
2.807991e-01
2.687185e-01
2.544750e-01
2.383180e-01
2.203244e-01
2.004486e-01
1.787256e-01
1.554545e-01
1.312517e-01
1.069353e-01
8.330881e-02
6.095196e-02
4.013223e-02
2.089554e-02
3.236944e-03
-1.278140e-02
-2.702257e-02
-3.935428e-02
-4.969213e-02
-5.793826e-02
-6.394742e-02
-6.763794e-02
-6.913559e-02
-6.881029e-02
-6.722698e-02
-6.506205e-02
-6.295233e-02
-6.126466e-02
-5.993397e-02
-5.852974e-02
-5.653369e-02
-5.367854e-02
-5.008709e-02
-4.608593e-02
-4.197373e-02
-3.801652e-02
-3.453915e-02
-3.189390e-02
-3.031073e-02
-2.975397e-02
-2.992765e-02
-3.047879e-02
-3.122876e-02
-3.224185e-02
-3.370790e-02
-3.571974e-02
-3.810996e-02
-4.047981e-02
-4.239342e-02
-4.362279e-02
-4.427018e-02
-4.465645e-02
-4.507355e-02
-4.555966e-02
-4.580383e-02
-4.522374e-02
-4.315293e-02
-3.903250e-02
-3.250025e-02
-2.333565e-02
-1.137580e-02
3.476997e-03
2.117423e-02
4.143695e-02
6.372379e-02
8.727911e-02
1.112445e-01
1.347983e-01
1.572682e-01
1.781633e-01
1.971115e-01
2.137519e-01
2.277338e-01
2.389042e-01
2.475053e-01
2.541826e-01
2.598226e-01
2.653301e-01
2.714445e-01
2.786448e-01
2.871090e-01
2.966992e-01
3.070059e-01
3.174707e-01
3.275112e-01
3.365810e-01
3.442176e-01
3.501217e-01
3.541978e-01
3.564908e-01
3.571030e-01
3.561960e-01
3.540465e-01
3.510683e-01
3.477115e-01
3.442447e-01
3.406041e-01
3.364635e-01
3.314256e-01
3.251742e-01
3.175456e-01
3.085404e-01
2.983058e-01
2.871103e-01
2.753085e-01
2.632825e-01
2.513495e-01
2.396599e-01
2.281775e-01
2.167933e-01
2.054655e-01
1.942614e-01
1.833100e-01
1.727419e-01
1.627082e-01
1.534862e-01
1.455151e-01
1.392567e-01
1.350488e-01
1.331156e-01
1.336322e-01
1.366899e-01
1.421895e-01
1.497706e-01
1.588581e-01
1.688319e-01
1.791935e-01
1.896217e-01
1.999672e-01
2.102569e-01
2.206666e-01
2.314206e-01
2.426764e-01
2.544633e-01
2.666557e-01
2.789489e-01
2.908680e-01
3.018532e-01
3.114071e-01
3.192512e-01
3.254015e-01
3.301127e-01
3.337626e-01
3.367610e-01
3.394850e-01
3.422202e-01
3.451183e-01
3.481886e-01
3.513212e-01
3.543270e-01
3.569849e-01
3.590860e-01
3.604643e-01
3.610077e-01
3.606650e-01
3.594572e-01
3.574779e-01
3.548651e-01
3.517602e-01
3.482795e-01
3.445196e-01
3.405903e-01
3.366226e-01
3.327276e-01
3.289767e-01
3.254569e-01
3.223250e-01
3.197738e-01
3.179515e-01
3.169181e-01
3.166824e-01
3.173009e-01
3.189259e-01
3.217228e-01
3.257401e-01
3.308482e-01
3.367671e-01
3.431563e-01
3.497087e-01
3.562055e-01
3.625175e-01
3.685716e-01
3.743225e-01
3.797559e-01
3.848854e-01
3.897031e-01
3.941155e-01
3.979215e-01
4.008772e-01
4.028356e-01
4.038470e-01
4.041177e-01
4.038729e-01
4.032150e-01
4.020497e-01
4.001128e-01
3.970731e-01
3.926663e-01
3.868070e-01
3.796242e-01
3.713818e-01
3.623043e-01
3.524449e-01
3.417128e-01
3.300054e-01
3.173273e-01
3.038188e-01
2.896856e-01
2.751329e-01
2.603891e-01
2.457563e-01
2.316043e-01
2.183127e-01
2.061997e-01
1.954569e-01
1.861114e-01
1.780442e-01
1.710774e-01
1.650641e-01
1.599102e-01
1.555228e-01
1.517377e-01
1.483201e-01
1.450809e-01
1.419703e-01
1.390284e-01
1.362613e-01
1.335699e-01
1.307709e-01
1.276914e-01
1.242582e-01
1.205227e-01
1.166352e-01
1.128001e-01
1.092029e-01
1.059185e-01
1.028741e-01
9.992290e-02
9.696345e-02
9.401240e-02
9.119291e-02
8.865249e-02
8.648072e-02
8.468934e-02
8.324920e-02
8.215620e-02
8.149767e-02
8.147722e-02
8.233546e-02
8.415536e-02
8.669582e-02
8.940570e-02
9.161646e-02
9.281395e-02
9.281078e-02
9.169553e-02
8.964255e-02
8.673170e-02
8.288539e-02
7.796055e-02
7.190639e-02
6.487082e-02
5.718860e-02
4.925033e-02
4.135829e-02
3.366357e-02
2.615997e-02
1.868898e-02
1.097106e-02
2.687042e-03
-6.422152e-03
-1.649128e-02
-2.753424e-02
-3.950626e-02
-5.234917e-02
-6.597037e-02
-8.022396e-02
-9.496113e-02
-1.100976e-01
-1.256243e-01
-1.415652e-01
-1.579255e-01
-1.746730e-01
-1.917681e-01
-2.091992e-01
-2.269846e-01
-2.451609e-01
-2.637787e-01
-2.828861e-01
-3.024749e-01
-3.224269e-01
-3.425092e-01
-3.624379e-01
-3.819801e-01
-4.010033e-01
-4.194128e-01
-4.370619e-01
-4.537409e-01
-4.692528e-01
-4.835170e-01
-4.965969e-01
-5.085981e-01
-5.195483e-01
-5.293825e-01
-5.380216e-01
-5.454760e-01
-5.518920e-01
-5.575049e-01
-5.625600e-01
-5.672641e-01
-5.717655e-01
-5.761424e-01
-5.804163e-01
-5.846045e-01
-5.887804e-01
-5.931019e-01
-5.977919e-01
-6.030899e-01
-6.092290e-01
-6.164672e-01
-6.251025e-01
-6.354157e-01
-6.475941e-01
-6.617114e-01
-6.777577e-01
-6.956777e-01
-7.153828e-01
-7.367325e-01
-7.595381e-01
-7.836223e-01
-8.088798e-01
-8.352752e-01
-8.627906e-01
-8.913653e-01
-9.208656e-01
-9.511076e-01
-9.819274e-01
-1.013274e+00
-1.045257e+00
-1.078118e+00
-1.112145e+00
-1.147603e+00
-1.184701e+00
-1.223592e+00
-1.264352e+00
-1.306940e+00
-1.351174e+00
-1.396791e+00
-1.443525e+00
-1.491127e+00
-1.539338e+00
-1.587856e+00
-1.636353e+00
-1.684582e+00
-1.732475e+00
-1.780153e+00
-1.827839e+00
-1.875727e+00
-1.923880e+00
-1.972212e+00
-2.020525e+00
-2.068574e+00
-2.116099e+00
-2.162830e+00
-2.208452e+00
-2.252569e+00
-2.294682e+00
-2.334205e+00
-2.370514e+00
-2.403010e+00
-2.431176e+00
-2.454629e+00
-2.473130e+00
-2.486580e+00
-2.494968e+00
-2.498295e+00
-2.496524e+00
-2.489577e+00
-2.477389e+00
-2.459985e+00
-2.437504e+00
-2.410148e+00
-2.378102e+00
-2.341502e+00
-2.300459e+00
-2.255105e+00
-2.205633e+00
-2.152280e+00
-2.095307e+00
-2.034993e+00
-1.971647e+00
-1.905613e+00
-1.837286e+00
-1.767127e+00
-1.695689e+00
-1.623604e+00
-1.551544e+00
-1.480125e+00
-1.409818e+00
-1.340884e+00
-1.273325e+00
-1.206859e+00
-1.140933e+00
-1.074817e+00
-1.007763e+00
-9.392006e-01
-8.688750e-01
-7.968816e-01
-7.236137e-01
-6.496786e-01
-5.757998e-01
-5.027145e-01
-4.310788e-01
-3.614000e-01
-2.940157e-01
-2.291234e-01
-1.668231e-01
-1.071406e-01
-5.004242e-02
4.533673e-03
5.664281e-02
1.063087e-01
1.535191e-01
1.982374e-01
2.404115e-01
2.799685e-01
3.168097e-01
3.508232e-01
3.819060e-01
4.099796e-01
4.349824e-01
4.568385e-01
4.754326e-01
4.906169e-01
5.022395e-01
5.101692e-01
5.142902e-01
5.144583e-01
5.104528e-01
5.019616e-01
4.886054e-01
4.699880e-01
4.457542e-01
4.156299e-01
3.794331e-01
3.370570e-01
2.884565e-01
2.336561e-01
1.727531e-01
1.059058e-01
3.336664e-02
-4.438939e-02
-1.265130e-01
-2.117450e-01
-2.986332e-01
-3.860050e-01
-4.733804e-01
-5.610110e-01
-6.495766e-01
-7.397375e-01
-8.317988e-01
-9.256474e-01
-1.020859e+00
-1.116820e+00
-1.212801e+00
-1.307989e+00
-1.401506e+00
-1.492422e+00
-1.579821e+00
-1.662891e+00
-1.741016e+00
-1.813831e+00
-1.881225e+00
-1.943291e+00
-2.000253e+00
-2.052376e+00
-2.099904e+00
-2.143059e+00
-2.182072e+00
-2.217195e+00
-2.248638e+00
-2.276458e+00
-2.300502e+00
-2.320545e+00
-2.336502e+00
-2.348586e+00
-2.357306e+00
-2.363317e+00
-2.367237e+00
-2.369548e+00
-2.370582e+00
-2.370515e+00
-2.369384e+00
-2.367108e+00
-2.363516e+00
-2.358373e+00
-2.351410e+00
-2.342385e+00
-2.331148e+00
-2.317699e+00
-2.302219e+00
-2.285048e+00
-2.266659e+00
-2.247623e+00
-2.228574e+00
-2.210152e+00
-2.192948e+00
-2.177462e+00
-2.164060e+00
-2.152920e+00
-2.143989e+00
-2.136999e+00
-2.131523e+00
-2.127074e+00
-2.123186e+00
-2.119430e+00
-2.115415e+00
-2.110782e+00
-2.105223e+00
-2.098503e+00
-2.090501e+00
-2.081250e+00
-2.070978e+00
-2.060116e+00
-2.049245e+00
-2.038964e+00
-2.029755e+00
-2.021909e+00
-2.015540e+00
-2.010634e+00
-2.007085e+00
-2.004696e+00
-2.003180e+00
-2.002249e+00
-2.001716e+00
-2.001566e+00
-2.001931e+00
-2.002989e+00
-2.004856e+00
-2.007571e+00
-2.011154e+00
-2.015673e+00
-2.021280e+00
-2.028166e+00
-2.036494e+00
-2.046351e+00
-2.057739e+00
-2.070595e+00
-2.084783e+00
-2.100068e+00
-2.116106e+00
-2.132522e+00
-2.149036e+00
-2.165556e+00
-2.182195e+00
-2.199199e+00
-2.216840e+00
-2.235369e+00
-2.254999e+00
-2.275889e+00
-2.298136e+00
-2.321778e+00
-2.346807e+00
-2.373185e+00
-2.400837e+00
-2.429630e+00
-2.459372e+00
-2.489855e+00
-2.520918e+00
-2.552476e+00
-2.584516e+00
-2.617050e+00
-2.650079e+00
-2.683575e+00
-2.717490e+00
-2.751756e+00
-2.786275e+00
-2.820893e+00
-2.855382e+00
-2.889455e+00
-2.922800e+00
-2.955117e+00
-2.986131e+00
-3.015556e+00
-3.043062e+00
-3.068251e+00
-3.090671e+00
-3.109852e+00
-3.125325e+00
-3.136636e+00
-3.143346e+00
-3.145064e+00
-3.141498e+00
-3.132518e+00
-3.118183e+00
-3.098714e+00
-3.074410e+00
-3.045554e+00
-3.012346e+00
-2.974912e+00
-2.933365e+00
-2.887890e+00
-2.838831e+00
-2.786743e+00
-2.732420e+00
-2.676895e+00
-2.621384e+00
-2.567161e+00
-2.515404e+00
-2.467060e+00
-2.422787e+00
-2.382964e+00
-2.347718e+00
-2.316896e+00
-2.290047e+00
-2.266459e+00
-2.245282e+00
-2.225711e+00
-2.207115e+00
-2.189073e+00
-2.171325e+00
-2.153727e+00
-2.136222e+00
-2.118835e+00
-2.101682e+00
-2.084976e+00
-2.069023e+00
-2.054187e+00
-2.040817e+00
-2.029141e+00
-2.019188e+00
-2.010785e+00
-2.003616e+00
-1.997311e+00
-1.991541e+00
-1.986074e+00
-1.980806e+00
-1.975754e+00
-1.971012e+00
-1.966649e+00
-1.962611e+00
-1.958666e+00
-1.954417e+00
-1.949375e+00
-1.943063e+00
-1.935088e+00
-1.925175e+00
-1.913145e+00
-1.898878e+00
-1.882282e+00
-1.863271e+00
-1.841749e+00
-1.817603e+00
-1.790698e+00
-1.760883e+00
-1.728030e+00
-1.692064e+00
-1.652978e+00
-1.610816e+00
-1.565645e+00
-1.517527e+00
-1.466495e+00
-1.412547e+00
-1.355651e+00
-1.295768e+00
-1.232878e+00
-1.167026e+00
-1.098385e+00
-1.027317e+00
-9.543888e-01
-8.803374e-01
-8.059660e-01
-7.320358e-01
-6.591937e-01
-5.879387e-01
-5.186149e-01
-4.514412e-01
-3.865772e-01
-3.241887e-01
-2.644719e-01
-2.076462e-01
-1.539381e-01
-1.035728e-01
-5.677107e-02
-1.373567e-02
2.537602e-02
6.044961e-02
9.135738e-02
1.179079e-01
1.398640e-01
1.570094e-01
1.692168e-01
1.764854e-01
1.789445e-01
1.768445e-01
1.705543e-01
1.605477e-01
1.473604e-01
1.315380e-01
1.135981e-01
9.400649e-02
7.315935e-02
5.136736e-02
2.884529e-02
5.714198e-03
-1.797870e-02
-4.222852e-02
-6.703986e-02
-9.240400e-02
-1.182920e-01
-1.446561e-01
-1.714292e-01
-1.985149e-01
-2.257741e-01
-2.530238e-01
-2.800582e-01
-3.066729e-01
-3.326719e-01
-3.578587e-01
-3.820354e-01
-4.050288e-01
-4.267456e-01
-4.472146e-01
-4.665694e-01
-4.849890e-01
-5.026276e-01
-5.195679e-01
-5.358109e-01
-5.512894e-01
-5.658851e-01
-5.794459e-01
-5.918054e-01
-6.028054e-01
-6.123207e-01
-6.202819e-01
-6.266850e-01
-6.315765e-01
-6.350103e-01
-6.370056e-01
-6.375320e-01
-6.365113e-01
-6.338209e-01
-6.293087e-01
-6.228414e-01
-6.143953e-01
-6.041660e-01
-5.926080e-01
-5.803374e-01
-5.679536e-01
-5.558767e-01
-5.442785e-01
-5.331305e-01
-5.223042e-01
-5.116482e-01
-5.010356e-01
-4.903941e-01
-4.797220e-01
-4.690832e-01
-4.585863e-01
-4.483564e-01
-4.385192e-01
-4.292045e-01
-4.205449e-01
-4.126468e-01
-4.055503e-01
-3.991992e-01
-3.934286e-01
-3.879668e-01
-3.824504e-01
-3.764541e-01
-3.695416e-01
-3.613328e-01
-3.515579e-01
-3.400705e-01
-3.268263e-01
-3.118441e-01
-2.951674e-01
-2.768437e-01
-2.569232e-01
-2.354759e-01
-2.126111e-01
-1.884819e-01
-1.632673e-01
-1.371317e-01
-1.101821e-01
-8.244723e-02
-5.388459e-02
-2.441744e-02
6.019110e-03
3.744683e-02
6.984834e-02
1.032048e-01
1.375224e-01
1.728171e-01
2.090945e-01
2.463653e-01
2.846673e-01
3.240426e-01
3.644549e-01
4.056778e-01
4.472419e-01
4.885042e-01
5.287713e-01
5.673946e-01
6.038340e-01
6.377047e-01
6.687764e-01
6.969091e-01
7.219849e-01
7.438900e-01
7.625293e-01
7.778394e-01
7.898277e-01
7.986568e-01
8.047184e-01
8.086207e-01
8.110637e-01
8.126493e-01
8.137702e-01
8.146654e-01
8.155096e-01
8.164099e-01
8.173879e-01
8.184350e-01
8.195525e-01
8.207050e-01
8.218209e-01
8.229253e-01
8.241983e-01
8.257943e-01
8.276656e-01
8.296684e-01
8.318368e-01
8.345119e-01
8.380436e-01
8.421696e-01
8.458912e-01
8.483302e-01
8.495760e-01
8.505061e-01
8.520002e-01
8.544008e-01
8.575360e-01
8.611429e-01
8.650893e-01
8.690903e-01
8.725545e-01
8.750792e-01
8.769510e-01
8.789307e-01
8.816290e-01
8.851035e-01
8.889229e-01
8.925952e-01
8.959039e-01
8.988292e-01
9.013045e-01
9.031393e-01
9.040901e-01
9.039232e-01
9.024040e-01
8.992381e-01
8.940734e-01
8.866280e-01
8.768336e-01
8.648531e-01
8.509540e-01
8.353286e-01
8.180599e-01
7.993187e-01
7.795217e-01
7.592047e-01
7.387701e-01
7.183669e-01
6.979599e-01
6.774984e-01
6.569931e-01
6.364148e-01
6.156241e-01
5.945100e-01
5.731528e-01
5.517928e-01
5.306687e-01
5.098930e-01
4.894548e-01
4.693323e-01
4.495768e-01
4.302622e-01
4.113984e-01
3.929234e-01
3.747466e-01
3.567719e-01
3.388926e-01
3.209853e-01
3.029374e-01
2.847122e-01
2.663983e-01
2.481936e-01
2.303508e-01
2.131311e-01
1.967828e-01
1.815391e-01
1.676128e-01
1.551775e-01
1.443599e-01
1.352557e-01
1.279205e-01
1.223069e-01
1.182109e-01
1.153020e-01
1.132215e-01
1.116934e-01
1.105903e-01
1.099258e-01
1.098088e-01
1.103975e-01
1.118532e-01
1.142962e-01
1.178024e-01
1.224586e-01
1.283944e-01
1.357334e-01
1.445431e-01
1.548628e-01
1.667468e-01
1.802390e-01
1.952941e-01
2.117187e-01
2.292074e-01
2.474853e-01
2.664283e-01
2.860533e-01
3.064536e-01
3.277714e-01
3.501644e-01
3.737187e-01
3.983808e-01
4.239824e-01
4.503057e-01
4.771140e-01
5.041645e-01
5.312512e-01
5.582854e-01
5.853655e-01
6.127250e-01
6.405317e-01
6.687579e-01
6.972908e-01
7.261050e-01
7.552724e-01
7.848530e-01
8.148085e-01
8.450312e-01
8.754743e-01
9.062232e-01
9.373965e-01
9.690270e-01
1.001074e+00
1.033496e+00
1.066251e+00
1.099257e+00
1.132362e+00
1.165379e+00
1.198171e+00
1.230710e+00
1.263059e+00
1.295312e+00
1.327563e+00
1.359895e+00
1.392345e+00
1.424867e+00
1.457320e+00
1.489476e+00
1.521070e+00
1.551841e+00
1.581576e+00
1.610103e+00
1.637274e+00
1.662945e+00
1.687005e+00
1.709409e+00
1.730204e+00
1.749525e+00
1.767568e+00
1.784565e+00
1.800768e+00
