EVENT_NAME: EMILIA_2ND_SHOCK
EVENT_ID: IT-2012-0011
EVENT_DATE_YYYYMMDD: 20120529
EVENT_TIME_HHMMSS: 070002
EVENT_LATITUDE_DEGREE: 44.8417
EVENT_LONGITUDE_DEGREE: 11.0657
EVENT_DEPTH_KM: 8.1
HYPOCENTER_REFERENCE: INGV-CNT_Seismic_Bulletin
MAGNITUDE_W: 6.0
MAGNITUDE_W_REFERENCE: RCMT-INGV
MAGNITUDE_L: 5.8
MAGNITUDE_L_REFERENCE: INGV-CNT_Seismic_Bulletin
FOCAL_MECHANISM: TF
NETWORK: IV
STATION_CODE: T0814
STATION_NAME: T0814
STATION_LATITUDE_DEGREE: 44.793300
STATION_LONGITUDE_DEGREE: 10.969200
STATION_ELEVATION_M: 16
LOCATION: 
SENSOR_DEPTH_M: 1.0
VS30_M/S: 
SITE_CLASSIFICATION_EC8: C*
MORPHOLOGIC_CLASSIFICATION: 
EPICENTRAL_DISTANCE_KM: 9.3
EARTHQUAKE_BACKAZIMUTH_DEGREE: 54.8
DATE_TIME_FIRST_SAMPLE_YYYYMMDD_HHMMSS: 20120529_065942.000
DATE_TIME_FIRST_SAMPLE_PRECISION: milliseconds
SAMPLING_INTERVAL_S: 0.005000
NDATA: 20001
DURATION_S: 100.005
STREAM: HNN
UNITS: cm
INSTRUMENT: sensor = Episensor FBA ES-T [Kinemetrics] | digitizer = Unknown [Unknown]
INSTRUMENT_ANALOG/DIGITAL: D
INSTRUMENTAL_FREQUENCY_HZ: 
INSTRUMENTAL_DAMPING: 
FULL_SCALE_G: 
N_BIT_DIGITAL_CONVERTER: 
PGD_CM: 6.058033
TIME_PGD_S: 29.995000
BASELINE_CORRECTION: BASELINE REMOVED
FILTER_TYPE: BUTTERWORTH
FILTER_ORDER: 2
LOW_CUT_FREQUENCY_HZ: 0.060
HIGH_CUT_FREQUENCY_HZ: 40.000
LATE/NORMAL_TRIGGERED: NT
DATABASE_VERSION: DYNA 1.0
HEADER_FORMAT: DYNA 1.2
DATA_TYPE: DISPLACEMENT
PROCESSING: manual (Paolucci et al., 2011)
DATA_TIMESTAMP_YYYYMMDD_HHMMSS: 
DATA_LICENSE: CC-BY4_0 (http://creativecommons.org/licenses/by/4.0/)
DATA_CITATION: ESM working group (2015), European Strong-Motion database, version 0.1, Network Activity 3: Networking acceleration networks and SM data users. Project NERA (www.nera-eu.org)
DATA_CREATOR: ESM working group
ORIGINAL_DATA_MEDIATOR_CITATION: Orfeus - European Integrated Data Archive (EIDA) http://www.orfeus-eu.org/eida/
ORIGINAL_DATA_MEDIATOR: Orfeus - European Integrated Data Archive (EIDA)
ORIGINAL_DATA_CREATOR_CITATION: Data for this study comes from the Italian national seismic network operated by Istituto Nazionale di Geofisica e Vulcanologia and archived at the European Integrated Data Archive http://eida.rm.ingv.it/
ORIGINAL_DATA_CREATOR: network: IV (Italian National Seismic Network); owner: Istituto Nazionale di Geofisica e Vulcanologia
USER1: 
USER2: 
USER3: 
USER4: 
USER5: 
[...]
-1.140473e+00
-1.142522e+00
-1.144534e+00
-1.146432e+00
-1.148180e+00
-1.149780e+00
-1.151222e+00
-1.152466e+00
-1.153467e+00
-1.154209e+00
-1.154714e+00
-1.155036e+00
-1.155252e+00
-1.155439e+00
-1.155637e+00
-1.155833e+00
-1.155995e+00
-1.156137e+00
-1.156346e+00
-1.156737e+00
-1.157398e+00
-1.158376e+00
-1.159703e+00
-1.161363e+00
-1.163222e+00
-1.165013e+00
-1.166457e+00
-1.167404e+00
-1.167889e+00
-1.168044e+00
-1.168032e+00
-1.168003e+00
-1.168071e+00
-1.168279e+00
-1.168607e+00
-1.169024e+00
-1.169549e+00
-1.170253e+00
-1.171223e+00
-1.172511e+00
-1.174074e+00
-1.175787e+00
-1.177511e+00
-1.179179e+00
-1.180793e+00
-1.182350e+00
-1.183804e+00
-1.185110e+00
-1.186249e+00
-1.187189e+00
-1.187848e+00
-1.188152e+00
-1.188160e+00
-1.188086e+00
-1.188177e+00
-1.188563e+00
-1.189215e+00
-1.190041e+00
-1.190978e+00
-1.192012e+00
-1.193138e+00
-1.194349e+00
-1.195651e+00
-1.197044e+00
-1.198471e+00
-1.199801e+00
-1.200890e+00
-1.201670e+00
-1.202156e+00
-1.202378e+00
-1.202337e+00
-1.202052e+00
-1.201610e+00
-1.201139e+00
-1.200733e+00
-1.200415e+00
-1.200178e+00
-1.200033e+00
-1.200011e+00
-1.200153e+00
-1.200515e+00
-1.201153e+00
-1.202092e+00
-1.203285e+00
-1.204618e+00
-1.205957e+00
-1.207180e+00
-1.208178e+00
-1.208856e+00
-1.209155e+00
-1.209088e+00
-1.208759e+00
-1.208312e+00
-1.207867e+00
-1.207504e+00
-1.207324e+00
-1.207480e+00
-1.208127e+00
-1.209339e+00
-1.211101e+00
-1.213333e+00
-1.215888e+00
-1.218524e+00
-1.220948e+00
-1.222943e+00
-1.224456e+00
-1.225568e+00
-1.226380e+00
-1.226910e+00
-1.227076e+00
-1.226804e+00
-1.226168e+00
-1.225439e+00
-1.224965e+00
-1.224990e+00
-1.225567e+00
-1.226623e+00
-1.228068e+00
-1.229837e+00
-1.231836e+00
-1.233884e+00
-1.235726e+00
-1.237162e+00
-1.238193e+00
-1.239026e+00
-1.239914e+00
-1.240979e+00
-1.242176e+00
-1.243368e+00
-1.244412e+00
-1.245232e+00
-1.245899e+00
-1.246625e+00
-1.247603e+00
-1.248829e+00
-1.250100e+00
-1.251227e+00
-1.252205e+00
-1.253165e+00
-1.254179e+00
-1.255154e+00
-1.255940e+00
-1.256491e+00
-1.256906e+00
-1.257327e+00
-1.257843e+00
-1.258498e+00
-1.259335e+00
-1.260363e+00
-1.261487e+00
-1.262504e+00
-1.263192e+00
-1.263418e+00
-1.263154e+00
-1.262443e+00
-1.261385e+00
-1.260150e+00
-1.258969e+00
-1.258075e+00
-1.257649e+00
-1.257829e+00
-1.258726e+00
-1.260382e+00
-1.262683e+00
-1.265323e+00
-1.267907e+00
-1.270108e+00
-1.271760e+00
-1.272835e+00
-1.273331e+00
-1.273203e+00
-1.272394e+00
-1.270963e+00
-1.269178e+00
-1.267451e+00
-1.266142e+00
-1.265397e+00
-1.265125e+00
-1.265119e+00
-1.265199e+00
-1.265277e+00
-1.265331e+00
-1.265327e+00
-1.265171e+00
-1.264774e+00
-1.264169e+00
-1.263523e+00
-1.262995e+00
-1.262570e+00
-1.262069e+00
-1.261316e+00
-1.260292e+00
-1.259148e+00
-1.258093e+00
-1.257259e+00
-1.256666e+00
-1.256269e+00
-1.256049e+00
-1.256033e+00
-1.256241e+00
-1.256626e+00
-1.257076e+00
-1.257458e+00
-1.257670e+00
-1.257674e+00
-1.257520e+00
-1.257376e+00
-1.257479e+00
-1.257992e+00
-1.258838e+00
-1.259728e+00
-1.260400e+00
-1.260825e+00
-1.261172e+00
-1.261577e+00
-1.261997e+00
-1.262265e+00
-1.262222e+00
-1.261799e+00
-1.261030e+00
-1.260046e+00
-1.259022e+00
-1.258082e+00
-1.257247e+00
-1.256473e+00
-1.255732e+00
-1.255051e+00
-1.254468e+00
-1.253968e+00
-1.253429e+00
-1.252654e+00
-1.251499e+00
-1.250020e+00
-1.248486e+00
-1.247229e+00
-1.246470e+00
-1.246276e+00
-1.246617e+00
-1.247383e+00
-1.248368e+00
-1.249297e+00
-1.249944e+00
-1.250214e+00
-1.250107e+00
-1.249613e+00
-1.248683e+00
-1.247336e+00
-1.245764e+00
-1.244246e+00
-1.242921e+00
-1.241695e+00
-1.240432e+00
-1.239215e+00
-1.238323e+00
-1.237971e+00
-1.238096e+00
-1.238421e+00
-1.238657e+00
-1.238632e+00
-1.238312e+00
-1.237763e+00
-1.237086e+00
-1.236377e+00
-1.235691e+00
-1.235040e+00
-1.234371e+00
-1.233545e+00
-1.232371e+00
-1.230693e+00
-1.228482e+00
-1.225847e+00
-1.222964e+00
-1.219997e+00
-1.217082e+00
-1.214362e+00
-1.212003e+00
-1.210115e+00
-1.208664e+00
-1.207480e+00
-1.206420e+00
-1.205516e+00
-1.204949e+00
-1.204834e+00
-1.205038e+00
-1.205247e+00
-1.205203e+00
-1.204852e+00
-1.204255e+00
-1.203422e+00
-1.202277e+00
-1.200765e+00
-1.198929e+00
-1.196890e+00
-1.194782e+00
-1.192711e+00
-1.190747e+00
-1.188909e+00
-1.187207e+00
-1.185684e+00
-1.184429e+00
-1.183531e+00
-1.183040e+00
-1.182966e+00
-1.183253e+00
-1.183748e+00
-1.184219e+00
-1.184461e+00
-1.184394e+00
-1.184057e+00
-1.183519e+00
-1.182807e+00
-1.181856e+00
-1.180516e+00
-1.178611e+00
-1.176068e+00
-1.173014e+00
-1.169755e+00
-1.166638e+00
-1.163914e+00
-1.161682e+00
-1.159924e+00
-1.158595e+00
-1.157699e+00
-1.157285e+00
-1.157370e+00
-1.157849e+00
-1.158492e+00
-1.159026e+00
-1.159237e+00
-1.159010e+00
-1.158294e+00
-1.157068e+00
-1.155344e+00
-1.153138e+00
-1.150390e+00
-1.146917e+00
-1.142477e+00
-1.136883e+00
-1.130019e+00
-1.121782e+00
-1.112069e+00
-1.100885e+00
-1.088397e+00
-1.074808e+00
-1.060153e+00
-1.044242e+00
-1.026835e+00
-1.007876e+00
-9.875703e-01
-9.662329e-01
-9.440828e-01
-9.211533e-01
-8.973602e-01
-8.726202e-01
-8.469007e-01
-8.201717e-01
-7.923420e-01
-7.632589e-01
-7.327618e-01
-7.007152e-01
-6.669981e-01
-6.314991e-01
-5.941513e-01
-5.549685e-01
-5.140168e-01
-4.713235e-01
-4.268038e-01
-3.802880e-01
-3.316428e-01
-2.808843e-01
-2.281501e-01
-1.735176e-01
-1.168398e-01
-5.778447e-02
3.959669e-03
6.852463e-02
1.358873e-01
2.059901e-01
2.787841e-01
3.541477e-01
4.318041e-01
5.113668e-01
5.924935e-01
6.749989e-01
7.588079e-01
8.437715e-01
9.294892e-01
1.015277e+00
1.100275e+00
1.183560e+00
1.264147e+00
1.340927e+00
1.412692e+00
1.478298e+00
1.536842e+00
1.587738e+00
1.630646e+00
1.665335e+00
1.691584e+00
1.709184e+00
1.717988e+00
1.717987e+00
1.709362e+00
1.692564e+00
1.668351e+00
1.637734e+00
1.601830e+00
1.561671e+00
1.518059e+00
1.471529e+00
1.422491e+00
1.371451e+00
1.319127e+00
1.266356e+00
1.213907e+00
1.162390e+00
1.112307e+00
1.064119e+00
1.018240e+00
9.749782e-01
9.344799e-01
8.967046e-01
8.614172e-01
8.282030e-01
7.965377e-01
7.658983e-01
7.358595e-01
7.061393e-01
6.765862e-01
6.471505e-01
6.178889e-01
5.889787e-01
5.606823e-01
5.332723e-01
5.069962e-01
4.821129e-01
4.589251e-01
4.377272e-01
4.186979e-01
4.018354e-01
3.869683e-01
3.737962e-01
3.619384e-01
3.510088e-01
3.407022e-01
3.308384e-01
3.213426e-01
3.122135e-01
3.035260e-01
2.954444e-01
2.881826e-01
2.819183e-01
2.767500e-01
2.727359e-01
2.699413e-01
2.684268e-01
2.681988e-01
2.691842e-01
2.712407e-01
2.741718e-01
2.777410e-01
2.817011e-01
2.858194e-01
2.898771e-01
2.936780e-01
2.971062e-01
3.002118e-01
3.032456e-01
3.065991e-01
3.106801e-01
3.157948e-01
3.220821e-01
3.294968e-01
3.378265e-01
3.467281e-01
3.557637e-01
3.644519e-01
3.723705e-01
3.792836e-01
3.851990e-01
3.903102e-01
3.948822e-01
3.991612e-01
4.033356e-01
4.075261e-01
4.117879e-01
4.161243e-01
4.205293e-01
4.250627e-01
4.299237e-01
4.354569e-01
4.420544e-01
4.500084e-01
4.594042e-01
4.701050e-01
4.818055e-01
4.941047e-01
5.065748e-01
5.188449e-01
5.306828e-01
5.420013e-01
5.527551e-01
5.628163e-01
5.719469e-01
5.798802e-01
5.864210e-01
5.914869e-01
5.950934e-01
5.973351e-01
5.983911e-01
5.985512e-01
5.982201e-01
5.978685e-01
5.979523e-01
5.988490e-01
6.008414e-01
6.041359e-01
6.088906e-01
6.152351e-01
6.232896e-01
6.331829e-01
6.450444e-01
6.589581e-01
6.748982e-01
6.926967e-01
7.120632e-01
7.326205e-01
7.539164e-01
7.754196e-01
7.965417e-01
8.167132e-01
8.354812e-01
8.525441e-01
8.676960e-01
8.807705e-01
8.916618e-01
9.003789e-01
9.070388e-01
9.117896e-01
9.147657e-01
9.161408e-01
9.162053e-01
9.153490e-01
9.139416e-01
9.122368e-01
9.104195e-01
9.087545e-01
9.076691e-01
9.076669e-01
9.091545e-01
9.123445e-01
9.172928e-01
9.239694e-01
9.322671e-01
9.419482e-01
9.525947e-01
9.636250e-01
9.743997e-01
9.843749e-01
9.932246e-01
1.000889e+00
1.007569e+00
1.013694e+00
1.019872e+00
1.026795e+00
1.035102e+00
1.045268e+00
1.057573e+00
1.072137e+00
1.088948e+00
1.107879e+00
1.128677e+00
1.150963e+00
1.174259e+00
1.198029e+00
1.221716e+00
1.244769e+00
1.266631e+00
1.286765e+00
1.304733e+00
1.320295e+00
1.333420e+00
1.344161e+00
1.352545e+00
1.358588e+00
1.362435e+00
1.364442e+00
1.365128e+00
1.365031e+00
1.364576e+00
1.364042e+00
1.363610e+00
1.363452e+00
1.363753e+00
1.364664e+00
1.366191e+00
1.368148e+00
1.370202e+00
1.371968e+00
1.373044e+00
1.373011e+00
1.371423e+00
1.367835e+00
1.361871e+00
1.353277e+00
1.341939e+00
1.327894e+00
1.311371e+00
1.292856e+00
1.273106e+00
1.253050e+00
1.233574e+00
1.215335e+00
1.198707e+00
1.183869e+00
1.170896e+00
1.159803e+00
1.150553e+00
1.143094e+00
1.137450e+00
1.133792e+00
1.132402e+00
1.133555e+00
1.137400e+00
1.143911e+00
1.152921e+00
1.164224e+00
1.177677e+00
1.193222e+00
1.210841e+00
1.230505e+00
1.252185e+00
1.275863e+00
1.301480e+00
1.328847e+00
1.357610e+00
1.387325e+00
1.417602e+00
1.448218e+00
1.479134e+00
1.510428e+00
1.542204e+00
1.574530e+00
1.607447e+00
1.640988e+00
1.675164e+00
1.709908e+00
1.745017e+00
1.780130e+00
1.814770e+00
1.848443e+00
1.880753e+00
1.911468e+00
1.940469e+00
1.967660e+00
1.992920e+00
2.016082e+00
2.036923e+00
2.055178e+00
2.070630e+00
2.083205e+00
2.093016e+00
2.100320e+00
2.105448e+00
2.108769e+00
2.110676e+00
2.111575e+00
2.111827e+00
2.111692e+00
2.111300e+00
2.110680e+00
2.109813e+00
2.108662e+00
2.107160e+00
2.105172e+00
2.102469e+00
2.098724e+00
2.093554e+00
2.086578e+00
2.077472e+00
2.065992e+00
2.051989e+00
2.035458e+00
2.016618e+00
1.995955e+00
1.974129e+00
1.951828e+00
1.929659e+00
1.908109e+00
1.887534e+00
1.868157e+00
1.850068e+00
1.833271e+00
1.817744e+00
1.803484e+00
1.790529e+00
1.778935e+00
1.768728e+00
1.759781e+00
1.751698e+00
1.743779e+00
1.735168e+00
1.725068e+00
1.712901e+00
1.698359e+00
1.681364e+00
1.661982e+00
1.640342e+00
1.616583e+00
1.590878e+00
1.563495e+00
1.534824e+00
1.505301e+00
1.475259e+00
1.444843e+00
1.414089e+00
1.383063e+00
1.351935e+00
1.320921e+00
1.290199e+00
1.259925e+00
1.230303e+00
1.201636e+00
1.174286e+00
1.148564e+00
1.124613e+00
1.102347e+00
1.081443e+00
1.061405e+00
1.041657e+00
1.021635e+00
1.000869e+00
9.790119e-01
9.558161e-01
9.310839e-01
9.046782e-01
8.765840e-01
8.469542e-01
8.160915e-01
7.844058e-01
7.523896e-01
7.205889e-01
6.895386e-01
6.596950e-01
6.314217e-01
6.050226e-01
5.807664e-01
5.588825e-01
5.395662e-01
5.230157e-01
5.094482e-01
4.990389e-01
4.918038e-01
4.875022e-01
4.856181e-01
4.854133e-01
4.860340e-01
4.866699e-01
4.867373e-01
4.860007e-01
4.845673e-01
4.827494e-01
4.808597e-01
4.790484e-01
4.772897e-01
4.755188e-01
4.737838e-01
4.722815e-01
4.712715e-01
4.709871e-01
4.716416e-01
4.735145e-01
4.770054e-01
4.825801e-01
4.906504e-01
5.015039e-01
5.153344e-01
5.323152e-01
5.526134e-01
5.763160e-01
6.033521e-01
6.335097e-01
6.665337e-01
7.022168e-01
7.404208e-01
7.810389e-01
8.239563e-01
8.690505e-01
9.162182e-01
9.653879e-01
1.016505e+00
1.069519e+00
1.124406e+00
1.181221e+00
1.240128e+00
1.301368e+00
1.365187e+00
1.431744e+00
1.501055e+00
1.573019e+00
1.647494e+00
1.724361e+00
1.803525e+00
1.884857e+00
1.968129e+00
2.052992e+00
2.139030e+00
2.225857e+00
2.313205e+00
2.400909e+00
2.488777e+00
2.576428e+00
2.663220e+00
2.748362e+00
2.831089e+00
2.910753e+00
2.986802e+00
3.058691e+00
3.125847e+00
3.187686e+00
3.243671e+00
3.293341e+00
3.336330e+00
3.372389e+00
3.401457e+00
3.423735e+00
3.439702e+00
3.450036e+00
3.455501e+00
3.456871e+00
3.454954e+00
3.450619e+00
3.444770e+00
3.438258e+00
3.431826e+00
3.426107e+00
3.421659e+00
3.418996e+00
3.418561e+00
3.420650e+00
3.425316e+00
3.432350e+00
3.441366e+00
3.451949e+00
3.463747e+00
3.476435e+00
3.489609e+00
3.502728e+00
3.515150e+00
3.526255e+00
3.535556e+00
3.542765e+00
3.547767e+00
3.550551e+00
3.551145e+00
3.549622e+00
3.546143e+00
3.540996e+00
3.534582e+00
3.527350e+00
3.519724e+00
3.512048e+00
3.504562e+00
3.497403e+00
3.490606e+00
3.484095e+00
3.477690e+00
3.471171e+00
3.464388e+00
3.457382e+00
3.450430e+00
3.444034e+00
3.438866e+00
3.435736e+00
3.435557e+00
3.439239e+00
3.447534e+00
3.460894e+00
3.479436e+00
3.503022e+00
3.531363e+00
3.564106e+00
3.600889e+00
3.641417e+00
3.685495e+00
3.732998e+00
3.783801e+00
3.837728e+00
3.894554e+00
3.954020e+00
4.015868e+00
4.079887e+00
4.145945e+00
4.213976e+00
4.283922e+00
4.355666e+00
4.429016e+00
4.503747e+00
4.579673e+00
4.656699e+00
4.734812e+00
4.814020e+00
4.894274e+00
4.975429e+00
5.057246e+00
5.139433e+00
5.221683e+00
5.303644e+00
5.384855e+00
5.464689e+00
5.542390e+00
5.617152e+00
5.688189e+00
5.754754e+00
5.816136e+00
5.871666e+00
5.920738e+00
5.962818e+00
5.997474e+00
6.024422e+00
6.043532e+00
6.054753e+00
6.058033e+00
6.053293e+00
6.040490e+00
6.019697e+00
5.991138e+00
5.955169e+00
5.912208e+00
5.862678e+00
5.807014e+00
5.745754e+00
5.679670e+00
5.609814e+00
5.537447e+00
5.463913e+00
5.390518e+00
5.318481e+00
5.248937e+00
5.182945e+00
5.121469e+00
5.065329e+00
5.015157e+00
4.971329e+00
4.933839e+00
4.902169e+00
4.875271e+00
4.851739e+00
4.830099e+00
4.809097e+00
4.787862e+00
4.765897e+00
4.742958e+00
4.718923e+00
4.693695e+00
4.667124e+00
4.638986e+00
4.609025e+00
4.577056e+00
4.543038e+00
4.507070e+00
4.469335e+00
4.430037e+00
4.389358e+00
4.347426e+00
4.304298e+00
4.259971e+00
4.214394e+00
4.167493e+00
4.119186e+00
4.069415e+00
4.018145e+00
3.965333e+00
3.910903e+00
3.854768e+00
3.796871e+00
3.737227e+00
3.675916e+00
3.613068e+00
3.548830e+00
3.483345e+00
3.416759e+00
3.349262e+00
3.281109e+00
3.212601e+00
3.144058e+00
3.075794e+00
3.008092e+00
2.941128e+00
2.874903e+00
2.809246e+00
2.743917e+00
2.678698e+00
2.613399e+00
2.547824e+00
2.481780e+00
2.415142e+00
2.347878e+00
2.279996e+00
2.211497e+00
2.142379e+00
2.072634e+00
2.002210e+00
1.930978e+00
1.858782e+00
1.785581e+00
1.711517e+00
1.636846e+00
1.561785e+00
1.486438e+00
1.410822e+00
1.334918e+00
1.258685e+00
1.182053e+00
1.104945e+00
1.027303e+00
9.491096e-01
8.703806e-01
7.912037e-01
7.117945e-01
6.325189e-01
5.538359e-01
4.762108e-01
4.000637e-01
3.257543e-01
2.535750e-01
1.837519e-01
1.164653e-01
5.187310e-02
-9.893261e-03
-6.876220e-02
-1.247468e-01
-1.779332e-01
-2.284466e-01
-2.764244e-01
-3.220102e-01
-3.653670e-01
-4.066948e-01
-4.462415e-01
-4.842979e-01
-5.211822e-01
-5.572247e-01
-5.927536e-01
-6.280696e-01
-6.634151e-01
-6.989487e-01
-7.347342e-01
-7.707516e-01
-8.069350e-01
-8.432109e-01
-8.795026e-01
-9.156946e-01
-9.516024e-01
-9.869981e-01
-1.021673e+00
-1.055481e+00
-1.088326e+00
-1.120119e+00
-1.150748e+00
-1.180075e+00
-1.207966e+00
-1.234327e+00
-1.259108e+00
-1.282264e+00
-1.303707e+00
-1.323310e+00
-1.340961e+00
-1.356615e+00
-1.370283e+00
-1.381981e+00
-1.391710e+00
-1.399481e+00
-1.405345e+00
-1.409396e+00
-1.411752e+00
-1.412543e+00
-1.411896e+00
-1.409914e+00
-1.406635e+00
-1.402050e+00
-1.396158e+00
-1.389031e+00
-1.380832e+00
-1.371777e+00
-1.362089e+00
-1.351984e+00
-1.341667e+00
-1.331351e+00
-1.321261e+00
-1.311638e+00
-1.302730e+00
-1.294768e+00
-1.287941e+00
-1.282369e+00
-1.278069e+00
-1.274926e+00
-1.272671e+00
-1.270919e+00
-1.269260e+00
-1.267356e+00
-1.264983e+00
-1.262008e+00
-1.258339e+00
-1.253914e+00
-1.248700e+00
-1.242682e+00
-1.235859e+00
-1.228219e+00
-1.219728e+00
-1.210348e+00
-1.200084e+00
-1.189034e+00
-1.177394e+00
-1.165422e+00
-1.153416e+00
-1.141696e+00
-1.130603e+00
-1.120472e+00
-1.111634e+00
-1.104418e+00
-1.099157e+00
-1.096157e+00
-1.095670e+00
-1.097897e+00
-1.103019e+00
-1.111205e+00
-1.122574e+00
-1.137144e+00
-1.154818e+00
-1.175422e+00
-1.198754e+00
-1.224593e+00
-1.252668e+00
-1.282646e+00
-1.314173e+00
-1.346942e+00
-1.380716e+00
-1.415305e+00
-1.450551e+00
-1.486371e+00
-1.522791e+00
-1.559917e+00
-1.597847e+00
-1.636618e+00
-1.676198e+00
-1.716498e+00
-1.757347e+00
-1.798451e+00
-1.839390e+00
-1.879690e+00
-1.918910e+00
-1.956686e+00
-1.992720e+00
-2.026757e+00
-2.058566e+00
-2.087933e+00
-2.114664e+00
-2.138632e+00
-2.159856e+00
-2.178576e+00
-2.195238e+00
-2.210390e+00
-2.224563e+00
-2.238183e+00
-2.251578e+00
-2.265028e+00
-2.278808e+00
-2.293159e+00
-2.308222e+00
-2.323990e+00
-2.340349e+00
-2.357154e+00
-2.374271e+00
-2.391558e+00
-2.408830e+00
-2.425872e+00
-2.442482e+00
-2.458524e+00
-2.473981e+00
-2.488949e+00
-2.503586e+00
-2.518026e+00
-2.532357e+00
-2.546668e+00
-2.561093e+00
-2.575786e+00
-2.590870e+00
-2.606392e+00
-2.622337e+00
-2.638661e+00
-2.655313e+00
-2.672212e+00
-2.689218e+00
-2.706132e+00
-2.722766e+00
-2.739013e+00
-2.754877e+00
-2.770421e+00
-2.785698e+00
-2.800730e+00
-2.815497e+00
-2.829933e+00
-2.843921e+00
-2.857307e+00
-2.869921e+00
-2.881609e+00
-2.892246e+00
-2.901756e+00
-2.910112e+00
-2.917338e+00
-2.923487e+00
-2.928594e+00
-2.932649e+00
-2.935579e+00
-2.937289e+00
-2.937725e+00
-2.936932e+00
-2.935046e+00
-2.932236e+00
-2.928644e+00
-2.924394e+00
-2.919650e+00
-2.914623e+00
-2.909513e+00
-2.904425e+00
-2.899385e+00
-2.894442e+00
-2.889759e+00
-2.885568e+00
-2.882046e+00
-2.879223e+00
-2.877006e+00
-2.875257e+00
-2.873844e+00
-2.872644e+00
-2.871550e+00
-2.870476e+00
-2.869366e+00
-2.868181e+00
-2.866892e+00
-2.865479e+00
-2.863930e+00
-2.862236e+00
-2.860391e+00
-2.858394e+00
-2.856246e+00
-2.853959e+00
-2.851570e+00
-2.849151e+00
-2.846786e+00
-2.844536e+00
-2.842450e+00
-2.840595e+00
-2.839044e+00
-2.837831e+00
-2.836951e+00
-2.836407e+00
-2.836229e+00
-2.836458e+00
-2.837129e+00
-2.838302e+00
-2.840076e+00
-2.842561e+00
-2.845828e+00
-2.849897e+00
-2.854740e+00
-2.860263e+00
-2.866264e+00
-2.872416e+00
-2.878274e+00
-2.883337e+00
-2.887119e+00
-2.889221e+00
-2.889368e+00
-2.887378e+00
-2.883124e+00
-2.876513e+00
-2.867508e+00
-2.856131e+00
-2.842435e+00
-2.826485e+00
-2.808359e+00
-2.788138e+00
-2.765891e+00
-2.741676e+00
-2.715539e+00
-2.687477e+00
-2.657413e+00
-2.625252e+00
-2.590964e+00
-2.554562e+00
-2.516026e+00
-2.475287e+00
-2.432292e+00
-2.387015e+00
-2.339408e+00
-2.289415e+00
-2.237041e+00
-2.182380e+00
-2.125560e+00
-2.066720e+00
-2.006076e+00
-1.943933e+00
-1.880613e+00
-1.816348e+00
-1.751256e+00
-1.685379e+00
-1.618722e+00
-1.551271e+00
