EVENT_NAME: EMILIA_2ND_SHOCK
EVENT_ID: IT-2012-0011
EVENT_DATE_YYYYMMDD: 20120529
EVENT_TIME_HHMMSS: 070002
EVENT_LATITUDE_DEGREE: 44.8417
EVENT_LONGITUDE_DEGREE: 11.0657
EVENT_DEPTH_KM: 8.1
HYPOCENTER_REFERENCE: INGV-CNT_Seismic_Bulletin
MAGNITUDE_W: 6.0
MAGNITUDE_W_REFERENCE: RCMT-INGV
MAGNITUDE_L: 5.8
MAGNITUDE_L_REFERENCE: INGV-CNT_Seismic_Bulletin
FOCAL_MECHANISM: TF
NETWORK: IV
STATION_CODE: T0802
STATION_NAME: T0802
STATION_LATITUDE_DEGREE: 44.875000
STATION_LONGITUDE_DEGREE: 11.181600
STATION_ELEVATION_M: 9
LOCATION: 
SENSOR_DEPTH_M: 1.0
VS30_M/S: 
SITE_CLASSIFICATION_EC8: C*
MORPHOLOGIC_CLASSIFICATION: 
EPICENTRAL_DISTANCE_KM: 9.9
EARTHQUAKE_BACKAZIMUTH_DEGREE: 248.0
DATE_TIME_FIRST_SAMPLE_YYYYMMDD_HHMMSS: 20120529_065951.000
DATE_TIME_FIRST_SAMPLE_PRECISION: milliseconds
SAMPLING_INTERVAL_S: 0.005000
NDATA: 14001
DURATION_S: 70.005
STREAM: HNN
UNITS: cm/s^2
INSTRUMENT: sensor = Episensor FBA ES-T [Kinemetrics] | digitizer = Unknown [Unknown]
INSTRUMENT_ANALOG/DIGITAL: D
INSTRUMENTAL_FREQUENCY_HZ: 
INSTRUMENTAL_DAMPING: 
FULL_SCALE_G: 
N_BIT_DIGITAL_CONVERTER: 
PGA_CM/S^2: 288.494473
TIME_PGA_S: 20.545000
BASELINE_CORRECTION: BASELINE REMOVED
FILTER_TYPE: BUTTERWORTH
FILTER_ORDER: 2
LOW_CUT_FREQUENCY_HZ: 0.100
HIGH_CUT_FREQUENCY_HZ: 40.000
LATE/NORMAL_TRIGGERED: NT
DATABASE_VERSION: DYNA 1.0
HEADER_FORMAT: DYNA 1.2
DATA_TYPE: ACCELERATION
PROCESSING: manual (Paolucci et al., 2011)
DATA_TIMESTAMP_YYYYMMDD_HHMMSS: 
DATA_LICENSE: CC-BY4_0 (http://creativecommons.org/licenses/by/4.0/)
DATA_CITATION: ESM working group (2015), European Strong-Motion database, version 0.1, Network Activity 3: Networking acceleration networks and SM data users. Project NERA (www.nera-eu.org)
DATA_CREATOR: ESM working group
ORIGINAL_DATA_MEDIATOR_CITATION: Orfeus - European Integrated Data Archive (EIDA) http://www.orfeus-eu.org/eida/
ORIGINAL_DATA_MEDIATOR: Orfeus - European Integrated Data Archive (EIDA)
ORIGINAL_DATA_CREATOR_CITATION: Data for this study comes from the Italian national seismic network operated by Istituto Nazionale di Geofisica e Vulcanologia and archived at the European Integrated Data Archive http://eida.rm.ingv.it/
ORIGINAL_DATA_CREATOR: network: IV (Italian National Seismic Network); owner: Istituto Nazionale di Geofisica e Vulcanologia
USER1: 
USER2: 
USER3: 
USER4: 
USER5: 
[...]
-0.102149
-0.102110
-0.102182
-0.102336
-0.102337
-0.101992
-0.101205
-0.100141
-0.099410
-0.099649
-0.100697
-0.101617
-0.101777
-0.101560
-0.101705
-0.102356
-0.103034
-0.103295
-0.103106
-0.102653
-0.102186
-0.102001
-0.102183
-0.102370
-0.102136
-0.101668
-0.101783
-0.102963
-0.104709
-0.106202
-0.107254
-0.108254
-0.109352
-0.109979
-0.109409
-0.107783
-0.106162
-0.105408
-0.105487
-0.105919
-0.106231
-0.105984
-0.105106
-0.104239
-0.104162
-0.104813
-0.105338
-0.105257
-0.105220
-0.106215
-0.108254
-0.110308
-0.111427
-0.111388
-0.110338
-0.108436
-0.105812
-0.102576
-0.098841
-0.094741
-0.090577
-0.086893
-0.084052
-0.081876
-0.079940
-0.077935
-0.075760
-0.073868
-0.073648
-0.076458
-0.081426
-0.085191
-0.084834
-0.079787
-0.071037
-0.061480
-0.056164
-0.058025
-0.064356
-0.069832
-0.069827
-0.060860
-0.045580
-0.038137
-0.054279
-0.092349
-0.132018
-0.152794
-0.144503
-0.107052
-0.061370
-0.049787
-0.093446
-0.159245
-0.195268
-0.180795
-0.126458
-0.056838
-0.008860
-0.015695
-0.072745
-0.138387
-0.176955
-0.183611
-0.170009
-0.151929
-0.148023
-0.164445
-0.180952
-0.169319
-0.122048
-0.053677
0.012974
0.050452
0.036532
-0.021783
-0.089519
-0.141602
-0.185972
-0.240387
-0.293192
-0.300667
-0.237734
-0.134905
-0.043436
0.009620
0.019301
-0.005804
-0.039848
-0.058526
-0.073439
-0.128016
-0.235088
-0.332020
-0.338142
-0.251845
-0.151721
-0.104525
-0.111616
-0.138450
-0.139585
-0.062386
0.098156
0.248598
0.271932
0.151030
-0.030456
-0.182646
-0.254878
-0.229425
-0.137726
-0.055592
-0.026405
-0.008318
0.064490
0.181140
0.250537
0.209916
0.096090
-0.014607
-0.081325
-0.094475
-0.053566
0.035160
0.157226
0.267777
0.284159
0.160284
-0.050153
-0.244455
-0.319462
-0.177707
0.146193
0.360412
0.146439
-0.401814
-0.768881
-0.580781
0.027624
0.688123
1.090859
0.974166
0.289425
-0.591840
-1.170904
-1.235314
-0.843451
-0.204446
0.295185
0.276460
-0.262391
-0.931542
-1.282818
-0.971547
0.146033
1.580436
2.191852
1.342048
-0.245078
-1.353277
-1.460566
-0.731685
0.376279
1.155107
0.969779
-0.064711
-1.097468
-1.429195
-1.038607
-0.225754
0.740900
1.594830
2.063278
1.893000
0.939215
-0.483130
-1.562923
-1.744343
-1.260714
-0.658413
-0.192089
0.168408
0.509398
0.888063
1.285213
1.451490
0.924242
-0.391750
-1.750785
-2.211840
-1.702773
-1.007792
-0.781434
-0.986987
-1.229331
-1.092580
-0.184338
1.445470
2.882141
3.026162
1.743053
-0.126751
-1.684764
-2.420518
-2.169335
-1.335368
-0.839373
-1.136649
-1.504809
-0.863939
0.902555
2.869302
4.012167
3.689621
1.674869
-1.306039
-3.534366
-3.862136
-2.829934
-1.629379
-0.768265
-0.100577
0.554293
1.141966
1.501349
1.553419
1.313172
0.847821
0.280462
-0.281904
-0.848135
-1.479824
-2.023152
-1.911873
-0.602937
1.465927
2.829722
2.516930
1.100376
-0.256692
-1.045513
-1.377459
-1.439880
-1.285210
-0.856541
-0.032019
1.282908
2.786887
3.457088
2.279268
-0.245440
-2.074966
-1.850847
-0.398264
0.589475
0.308617
-1.084174
-2.805516
-3.333435
-1.261523
2.842606
6.358432
7.154994
5.207883
1.614304
-2.096775
-3.896579
-2.777189
-0.121242
1.814349
1.889006
0.058737
-2.887383
-5.025528
-4.424979
-1.342836
1.763712
2.803841
1.582046
-1.007960
-3.431078
-3.511144
-0.373598
3.866271
6.124610
5.255006
2.026903
-2.050821
-4.933790
-4.899991
-2.479574
-0.407469
-0.747448
-3.074287
-5.710506
-6.848009
-4.541097
1.615346
8.790298
13.158955
13.084629
8.977572
2.309038
-4.239943
-7.993186
-8.362533
-6.619144
-4.154135
-1.780562
0.109238
1.443185
2.299686
2.696449
2.540948
1.797533
0.912785
0.818817
1.825152
2.746120
2.002207
-0.527488
-3.419394
-5.162641
-4.923987
-2.547991
0.715348
2.210637
0.545381
-2.396639
-3.663230
-2.492812
-0.337202
1.158984
1.098678
-0.732499
-3.353679
-4.622515
-3.351034
-0.872663
0.614789
0.400486
-0.742836
-1.810740
-2.071320
-1.124058
0.694189
2.312903
2.861413
2.261949
0.844993
-0.920177
-2.365745
-2.936903
-2.454314
-0.976090
1.122017
3.054997
4.067754
3.741780
1.999767
-0.432557
-1.954483
-1.501960
0.407246
2.599952
4.330798
5.237155
5.298500
5.018114
4.935268
4.753674
3.373031
0.296640
-3.352135
-5.918113
-6.739596
-6.061819
-4.323048
-1.967614
0.606698
2.998688
4.664810
5.249213
4.925527
4.104674
3.138533
2.317279
1.616406
0.428879
-1.879977
-4.812098
-6.655690
-6.217220
-4.025895
-1.355219
0.842718
1.855391
1.419261
0.123124
-1.130907
-1.745370
-1.356985
0.024032
1.706690
2.800009
2.887581
1.987741
0.425986
-1.051315
-1.696066
-1.528723
-1.296489
-1.568354
-2.207930
-2.795298
-3.171584
-3.417440
-3.500028
-3.061619
-1.671702
0.657368
3.394908
5.838861
7.245437
7.016304
5.236515
2.689335
0.223545
-1.541608
-2.263234
-2.241737
-2.426722
-3.589655
-5.775872
-8.480235
-10.327502
-9.002750
-3.541017
3.737620
9.367759
11.576005
10.142169
5.968003
1.527086
-0.607392
-0.318461
0.222844
-0.646996
-2.474903
-3.851591
-3.817064
-1.942179
1.379410
4.378576
5.065889
3.219136
0.365853
-1.899335
-2.733837
-1.902058
-0.070412
1.219368
0.949068
-0.388302
-1.661524
-2.124381
-1.394582
0.458936
2.612169
4.055708
4.410795
3.840173
2.600556
0.922969
-0.990912
-2.872808
-4.284113
-4.867949
-4.574985
-3.497597
-1.749649
0.486236
2.892980
4.932630
6.037576
5.961226
4.795528
3.046304
1.870913
2.417513
4.488019
6.500574
7.045799
5.812416
3.207229
0.405399
-0.612205
1.154211
4.264414
6.410731
6.559081
4.936374
2.466892
0.852633
1.685572
4.605055
7.274216
7.723220
5.771509
2.227235
-1.591452
-3.790139
-3.305450
-1.117561
0.990579
1.911075
1.128809
-1.234113
-4.006623
-5.753642
-5.922382
-4.763660
-2.848304
-1.025482
-0.035022
0.270399
0.842911
2.223006
3.743252
4.279545
3.325448
1.062551
-1.751392
-3.581878
-2.959661
-0.215657
2.501638
3.433356
2.558649
0.747799
-1.012580
-1.658043
-0.902066
-0.060578
-0.837879
-3.291093
-5.750444
-6.565395
-5.069098
-1.352315
3.304379
6.345728
6.149856
3.701674
1.000626
-0.924826
-1.953042
-2.317541
-2.540235
-2.999898
-3.009847
-0.873719
3.986610
9.386130
12.302631
11.804969
9.074543
5.973833
4.653415
6.742750
11.233112
14.445521
13.637842
9.390846
3.885468
-0.708721
-2.148101
0.336596
4.415430
6.885697
6.999312
6.386849
6.704228
8.473794
11.419912
14.358131
15.221076
13.065059
9.666529
7.556134
7.021591
6.204715
3.892328
1.198200
0.065963
1.014715
3.032165
4.770193
5.047061
3.236511
0.521867
-0.217617
2.220505
4.857197
3.572476
-1.879603
-7.676278
-10.078899
-7.724459
-0.959415
7.625038
13.121891
12.689165
8.922433
6.420048
7.183543
10.644025
15.215253
18.538403
18.575424
15.922570
13.690981
13.975306
15.591296
16.130669
14.926152
13.227305
12.706591
14.802421
20.232122
27.161245
31.083309
29.198502
23.626978
18.341427
15.052663
13.121717
10.795727
5.342454
-5.566165
-20.498137
-34.020271
-41.670975
-43.176434
-40.370651
-35.368099
-30.552374
-27.088793
-23.564932
-17.892717
-10.628978
-5.283284
-4.911142
-9.933894
-19.192053
-30.004299
-37.822102
-39.473370
-35.776272
-29.401571
-22.875463
-18.728764
-17.935198
-18.233660
-16.473711
-12.337791
-8.436647
-7.318334
-9.816138
-15.608861
-23.151340
-29.773783
-34.388252
-39.574650
-48.675846
-60.520699
-69.124107
-70.036339
-64.571350
-56.691711
-49.826042
-47.028454
-49.245514
-53.243416
-54.710651
-53.040100
-51.190453
-51.509228
-53.371613
-54.726337
-53.685295
-48.427032
-38.304653
-25.180395
-12.003212
-1.625253
2.870850
0.614363
-4.457521
-6.904397
-4.368409
2.681777
12.516964
22.147930
28.767855
32.475979
36.072815
41.672199
48.711765
55.407578
60.356636
62.476505
61.443600
58.426674
55.180874
53.091175
53.219444
55.219006
56.068790
52.274708
43.838425
34.372196
27.408430
24.395950
25.294964
28.226803
29.494846
26.899727
22.197531
18.440071
16.050850
12.784721
6.890997
-0.994933
-9.100485
-15.793116
-19.548588
-20.121923
-19.844530
-21.624346
-25.659769
-29.413727
-30.521881
-28.406794
-23.551252
-17.281502
-11.891519
-9.121549
-9.019751
-11.024301
-15.378322
-23.080055
-33.961571
-45.105305
-52.655823
-54.161728
-48.308338
-35.711254
-20.533751
-7.673470
1.524086
8.962003
16.832209
26.376301
37.829510
49.181259
55.993263
55.317009
48.676254
39.658394
31.817184
29.018917
32.877930
40.072803
45.698147
47.916656
47.764954
46.865669
46.653248
47.850681
48.852524
45.812893
36.979053
25.983017
18.331663
16.597176
20.539202
28.221443
35.596382
38.550835
36.457844
31.887907
27.318483
23.576611
20.577513
18.059967
15.693478
13.016252
9.322642
3.986007
-2.607371
-8.847049
-12.918901
-13.393491
-9.632588
-3.696013
-0.549910
-3.474449
-10.712127
-18.455458
-24.518099
-28.316517
-30.550110
-33.709007
-40.203930
-48.351757
-51.987167
-46.106079
-30.658455
-8.017298
18.889750
46.117195
70.216980
89.522850
103.344154
111.326561
113.244812
109.662567
102.875069
95.248146
86.142586
71.742645
48.702526
16.530411
-23.388874
-66.639145
-104.771080
-130.825119
-143.598373
-145.060699
-139.040070
-131.281906
-124.935516
-116.976837
-101.758965
-75.713509
-37.627388
9.802953
57.166027
93.790199
116.223564
127.406837
131.499512
132.446625
133.300125
135.047073
137.277161
139.483994
141.412521
142.773148
142.656555
139.540710
133.283417
126.816368
123.167595
119.180038
104.862938
72.967117
25.849121
-29.485571
-84.952888
-130.252090
-159.017960
-174.757568
-184.918686
-193.880280
-202.990662
-210.830338
-212.020264
-200.019196
-171.533829
-126.410652
-68.086060
-5.941786
49.574089
93.675743
125.679153
145.810440
155.067184
154.569138
145.437180
129.102890
106.467590
77.353455
41.615349
2.866927
-30.281977
-50.490543
-56.317677
-49.762653
-35.558617
-21.357155
-11.557880
-2.529965
11.951491
32.201424
52.309982
67.355690
77.681969
85.901421
92.927773
97.627106
98.528671
94.787552
86.352295
75.276703
65.683159
59.180695
51.351494
36.003502
12.028271
-16.437275
-44.751190
-69.949150
-90.270187
-104.468536
-110.742241
-106.684517
-89.733124
-58.436646
-17.801361
19.327124
41.927719
47.478306
38.333786
20.192667
2.396892
-8.630272
-14.359781
-19.277287
-24.111395
-25.512972
-20.874254
-11.355165
0.053423
10.153769
15.237538
13.636304
8.253016
3.271662
-0.600604
-5.795359
-13.375381
-20.227144
-21.751749
-15.716031
-2.196027
16.946966
37.263783
53.787399
63.788574
66.148926
61.303871
52.459187
43.917801
39.616081
43.528797
56.037430
70.051353
76.755951
74.943611
70.854500
70.296242
74.450691
81.228134
84.418076
73.382996
42.777584
0.590478
-40.408367
-73.046967
-94.380829
-103.034622
-99.612732
-85.634598
-63.978928
-39.891296
-18.554558
-3.336006
4.346799
7.235653
12.082917
22.812092
35.677929
44.161892
45.734146
41.698452
33.981968
24.055702
12.859057
0.785169
-11.941975
-24.938860
-37.556652
-49.100994
-58.978683
-66.422272
-70.595306
-70.862617
-67.223167
-62.287640
-61.569286
-68.185760
-78.797142
-87.982246
-94.605072
-101.703690
-111.608002
-123.174713
-133.741531
-141.409683
-144.887573
-143.737946
-139.092331
-132.287506
-122.889252
-109.078804
-91.253525
-74.781357
-65.954025
-65.034630
-66.443260
-65.766380
-63.740322
-63.348804
-66.044937
-71.626434
-79.459106
-88.843315
-99.275948
-110.615578
-122.625298
-133.900131
-141.007843
-140.452377
-132.712219
-122.337364
-113.419540
-107.074028
-102.943718
-100.942741
-101.411697
-103.896362
-106.082329
-105.345589
-101.489159
-96.696747
-92.970802
-90.759857
-89.508125
-87.659676
-82.535645
-72.442993
-58.409763
-42.672832
-27.345692
-14.692254
-5.842154
0.642161
7.340528
16.541676
30.300014
48.447369
66.406616
78.504715
83.189606
82.861404
80.653053
79.326569
80.894585
85.420822
91.120674
95.713501
96.892776
92.989136
85.063377
76.942711
71.554825
68.571442
66.056580
62.097733
54.833340
43.855686
31.683424
21.385231
12.624229
1.767652
-13.365803
-30.394180
-45.190815
-55.519264
-60.829311
-61.591282
-59.711861
-57.445621
-55.981857
-55.525078
-55.044659
-51.542656
-41.700836
-25.015673
-3.958240
17.982964
36.843376
49.351921
55.667217
59.103165
62.456566
66.043228
68.851715
69.687225
67.266068
61.197136
53.045734
45.549786
42.692219
49.895416
68.235985
89.135796
101.365807
101.627640
94.113792
83.916588
74.392242
66.485786
55.429764
31.004396
-11.104499
-60.436668
-101.587410
-127.486610
-138.513092
-138.000198
-132.167267
-127.374428
-126.318161
-128.900330
-133.991150
-139.408508
-142.870331
-143.638840
-142.487732
-141.119919
-142.334793
-148.782715
-160.151886
-172.922562
-183.032349
-187.093597
-182.528824
-168.889725
-148.103058
-124.465691
-105.712379
-99.082664
-102.736023
-105.313774
-96.297157
-72.100975
-33.494789
14.390993
61.608974
100.239517
129.245743
151.076035
168.687836
185.470062
203.402725
221.439438
237.352448
250.267151
260.770142
269.992310
279.347107
288.483490
288.494476
260.662689
193.961075
99.094048
-4.007039
-97.827232
-164.334702
-193.201569
-191.899567
-174.614426
-150.011078
-122.782608
-96.252327
-72.305367
-51.221748
-29.476515
0.428524
42.649975
92.275917
140.279205
178.121552
197.040024
194.976135
184.205139
181.462845
193.787354
218.448746
245.962692
258.354370
237.503143
181.428207
104.156517
22.185553
-50.911915
-105.781013
-142.206512
-167.422470
-187.284897
-202.035934
-209.571686
-210.857300
-210.908661
-214.368927
-222.684875
-234.720642
-244.780914
-241.764084
-217.853745
-175.420868
-121.634880
-64.475403
-13.891062
23.720867
50.810246
73.235497
93.409477
110.307236
122.577400
130.057037
133.312851
133.749786
133.742081
134.693970
135.560638
134.439240
130.890182
125.871941
119.937935
112.225517
101.490662
88.209839
74.934326
64.334816
58.080585
57.052124
60.805759
67.450798
74.560516
79.419044
79.797386
75.939377
70.539368
66.319130
64.806618
66.823662
72.946609
83.777809
99.261101
117.761864
136.449738
149.755966
148.289001
126.311035
88.242493
42.642776
-3.809088
-45.194317
-77.897400
-103.174271
-124.026634
-141.257874
-153.636337
-161.013916
-166.515121
-174.127899
-184.388824
-193.529053
-194.804123
-178.344803
-135.113663
-66.962852
12.290799
87.107124
145.087296
177.877029
186.372086
179.855606
167.227997
152.948639
138.626511
124.898170
112.761627
104.103767
101.834824
108.762169
124.671715
145.660477
165.677231
176.576614
170.837570
147.538513
112.207230
71.898270
33.660980
3.126858
-18.644762
-34.267872
-46.257885
-55.551472
-62.137749
-65.939461
-67.219391
-66.857567
-66.697952
-68.281509
-69.725357
-65.147896
-49.269444
-20.588770
19.752760
66.189453
107.685944
135.556107
149.318207
152.528198
149.213455
144.011963
139.808273
135.597290
128.318771
114.237663
88.684631
49.866901
2.684993
-45.378868
-88.464310
-121.474335
-142.839493
-158.249664
-175.330780
-195.569809
-214.386169
-227.074738
-231.864365
-229.058945
-221.921249
-217.042618
-219.319901
-228.275360
-240.781967
-253.259735
-261.286591
-262.018494
-256.585236
-247.976654
-239.110336
-232.788879
-228.959045
-221.924255
-204.259995
-172.863739
-128.982025
-77.055702
-25.888968
15.468162
44.542866
64.578316
79.392982
91.581299
102.129852
108.466232
104.484268
86.574127
58.270126
26.236546
-3.089820
-22.507929
-28.230232
-24.402929
-18.079420
-13.115791
-10.613142
-10.130245
-9.311548
-5.457762
1.909688
11.178903
20.781284
30.197794
39.528896
49.150928
59.703625
71.817696
85.913116
102.200378
120.310120
139.239624
158.168472
176.968094
195.553909
212.168869
222.815338
224.283997
216.558517
201.107803
179.472122
153.280334
123.311371
88.740829
48.346138
3.332552
-41.981735
-83.128387
-117.250137
-142.123535
-154.369308
-148.706329
-123.139198
-84.001335
-40.626553
0.244470
33.170803
55.636211
71.053955
84.683243
98.040337
109.199570
116.761864
122.012177
126.556602
127.597275
117.440331
91.362053
53.623436
12.661937
-22.543940
-41.127541
-37.268818
-17.258942
8.100935
32.130466
51.068974
62.829823
67.909012
67.891624
64.210609
58.384613
51.606815
44.314125
36.651878
29.591522
25.457491
26.627409
34.542671
49.819942
71.072433
94.517548
116.321747
133.950668
145.889343
151.910431
152.787674
149.659637
144.110138
137.422577
129.020477
116.455566
97.841919
73.539612
45.162273
15.685800
-9.899862
-27.695601
-37.461418
-40.767647
-39.662025
-36.884476
-34.553623
-33.115482
-32.180790
-31.469284
-30.923512
-30.492373
-29.989834
-29.196964
-28.093899
-26.911175
-26.055614
-26.134357
-27.810413
-31.545607
-37.578716
-45.401512
-53.086823
-58.252087
-59.311260
-55.331749
-46.887745
-37.378193
-30.871664
-29.007229
-31.413794
-37.314217
-45.849010
-56.202042
-67.310379
-77.433037
-85.021820
-89.508308
-90.991043
-90.297821
-88.833290
-86.850082
-82.134506
-71.737740
-54.812878
-32.616974
-6.998238
19.952066
46.277725
70.310905
90.078667
104.261414
113.382584
118.826851
122.257256
125.910652
131.352737
138.398590
146.023361
152.934921
157.057358
155.662827
145.516769
123.831551
91.391281
53.094460
14.963191
-17.048491
-38.152504
-47.537506
-47.726067
-41.402355
-30.341730
-15.596045
1.673021
19.214037
33.855396
41.624138
39.025238
26.223454
7.058273
-14.349697
-35.093075
-53.424728
-69.182922
-83.269814
-96.167137
-107.227737
-115.460175
-120.947563
-125.003967
-129.033035
-133.960190
-140.341431
-148.311401
-157.626663
-167.613205
-176.913284
-184.078491
-188.514694
-190.303101
-189.737961
-187.374252
-183.983429
-180.899216
-180.037537
-181.505417
-181.454620
-174.408951
-156.016739
-122.815002
-75.650558
-23.934273
20.599270
52.425232
71.064903
78.222939
78.220856
75.620049
72.007935
66.715965
59.364964
51.066463
43.581841
38.649006
38.286015
43.512730
52.934017
64.105965
74.607788
81.665749
83.904030
83.171165
82.510010
83.710220
87.561836
94.158081
102.528633
111.317841
119.265984
124.787872
126.394020
123.233185
114.918785
102.053780
86.474968
70.401466
56.101879
45.441566
38.859837
35.678913
35.223785
37.181732
41.388805
47.024307
52.155941
54.677006
52.951408
46.024174
34.976006
23.091299
13.251169
6.321812
2.082519
-0.025087
-0.869307
-1.437168
-2.796134
-5.754782
-9.876732
-13.426116
-14.901140
-13.992419
-10.883906
-5.337374
3.436286
15.802252
30.829439
46.491310
58.137665
57.703564
40.483929
10.920213
-22.874599
-54.855251
-80.104851
-96.134705
-105.351311
-111.876472
-117.644119
