EVENT_NAME: EMILIA_2ND_SHOCK
EVENT_ID: IT-2012-0011
EVENT_DATE_YYYYMMDD: 20120529
EVENT_TIME_HHMMSS: 070002
EVENT_LATITUDE_DEGREE: 44.8417
EVENT_LONGITUDE_DEGREE: 11.0657
EVENT_DEPTH_KM: 8.1
HYPOCENTER_REFERENCE: INGV-CNT_Seismic_Bulletin
MAGNITUDE_W: 6.0
MAGNITUDE_W_REFERENCE: RCMT-INGV
MAGNITUDE_L: 5.8
MAGNITUDE_L_REFERENCE: INGV-CNT_Seismic_Bulletin
FOCAL_MECHANISM: TF
NETWORK: IV
STATION_CODE: T0811
STATION_NAME: T0811
STATION_LATITUDE_DEGREE: 44.783800
STATION_LONGITUDE_DEGREE: 11.226500
STATION_ELEVATION_M: 10
LOCATION: 
SENSOR_DEPTH_M: 1.0
VS30_M/S: 
SITE_CLASSIFICATION_EC8: C*
MORPHOLOGIC_CLASSIFICATION: 
EPICENTRAL_DISTANCE_KM: 14.3
EARTHQUAKE_BACKAZIMUTH_DEGREE: 296.9
DATE_TIME_FIRST_SAMPLE_YYYYMMDD_HHMMSS: 20120529_065952.000
DATE_TIME_FIRST_SAMPLE_PRECISION: milliseconds
SAMPLING_INTERVAL_S: 0.005000
NDATA: 30001
DURATION_S: 150.005
STREAM: HNZ
UNITS: cm/s^2
INSTRUMENT: sensor = Episensor FBA ES-T [Kinemetrics] | digitizer = Unknown [Unknown]
INSTRUMENT_ANALOG/DIGITAL: D
INSTRUMENTAL_FREQUENCY_HZ: 
INSTRUMENTAL_DAMPING: 
FULL_SCALE_G: 
N_BIT_DIGITAL_CONVERTER: 
PGA_CM/S^2: 124.258345
TIME_PGA_S: 18.495000
BASELINE_CORRECTION: BASELINE REMOVED
FILTER_TYPE: BUTTERWORTH
FILTER_ORDER: 2
LOW_CUT_FREQUENCY_HZ: 0.060
HIGH_CUT_FREQUENCY_HZ: 40.000
LATE/NORMAL_TRIGGERED: NT
DATABASE_VERSION: DYNA 1.0
HEADER_FORMAT: DYNA 1.2
DATA_TYPE: ACCELERATION
PROCESSING: manual (Paolucci et al., 2011)
DATA_TIMESTAMP_YYYYMMDD_HHMMSS: 
DATA_LICENSE: CC-BY4_0 (http://creativecommons.org/licenses/by/4.0/)
DATA_CITATION: ESM working group (2015), European Strong-Motion database, version 0.1, Network Activity 3: Networking acceleration networks and SM data users. Project NERA (www.nera-eu.org)
DATA_CREATOR: ESM working group
ORIGINAL_DATA_MEDIATOR_CITATION: Orfeus - European Integrated Data Archive (EIDA) http://www.orfeus-eu.org/eida/
ORIGINAL_DATA_MEDIATOR: Orfeus - European Integrated Data Archive (EIDA)
ORIGINAL_DATA_CREATOR_CITATION: Data for this study comes from the Italian national seismic network operated by Istituto Nazionale di Geofisica e Vulcanologia and archived at the European Integrated Data Archive http://eida.rm.ingv.it/
ORIGINAL_DATA_CREATOR: network: IV (Italian National Seismic Network); owner: Istituto Nazionale di Geofisica e Vulcanologia
USER1: 
USER2: 
USER3: 
USER4: 
USER5: 
[...]
0.005381
0.004495
0.003652
0.003678
0.004240
0.004343
0.003751
0.003190
0.003056
0.002790
0.001922
0.000889
0.000348
0.000262
0.000254
0.000390
0.000846
0.001242
0.001052
0.000360
-0.000294
-0.000614
-0.000578
-0.000095
0.000686
0.001178
0.001090
0.000869
0.001043
0.001539
0.002047
0.002627
0.003357
0.003940
0.004252
0.004700
0.005482
0.005927
0.005334
0.004158
0.003434
0.003391
0.003491
0.003585
0.004045
0.004620
0.004352
0.003011
0.001599
0.001067
0.001223
0.001403
0.001554
0.001880
0.002123
0.001847
0.000998
-0.000149
-0.001383
-0.002479
-0.003003
-0.002666
-0.001707
-0.000687
-0.000072
-0.000043
-0.000493
-0.001083
-0.001391
-0.001141
-0.000250
0.001231
0.003017
0.004522
0.005173
0.004860
0.004009
0.003231
0.003017
0.003669
0.005153
0.006956
0.008284
0.008591
0.007992
0.007131
0.006567
0.006296
0.005985
0.005626
0.005640
0.006126
0.006404
0.005765
0.004374
0.003086
0.002558
0.002733
0.003119
0.003395
0.003600
0.003787
0.003663
0.002871
0.001707
0.001007
0.001075
0.001366
0.001444
0.001628
0.002205
0.002581
0.002055
0.000926
0.000103
0.000026
0.000455
0.001053
0.001639
0.002047
0.002231
0.002279
0.002047
0.001294
0.000318
-0.000024
0.000757
0.002158
0.003330
0.003932
0.004029
0.003661
0.002918
0.002196
0.001928
0.002051
0.002119
0.001958
0.001933
0.002429
0.003170
0.003389
0.002800
0.002030
0.001697
0.001693
0.001802
0.002269
0.003154
0.003675
0.003082
0.001859
0.001070
0.001005
0.001241
0.001489
0.001746
0.001903
0.001783
0.001516
0.001373
0.001411
0.001580
0.001910
0.002420
0.002996
0.003369
0.003232
0.002538
0.001676
0.001214
0.001417
0.002071
0.002793
0.003406
0.003953
0.004427
0.004572
0.004122
0.003327
0.002939
0.003421
0.004512
0.005684
0.006585
0.006969
0.006614
0.005641
0.004558
0.003711
0.003143
0.002991
0.003373
0.003959
0.004222
0.004021
0.003479
0.002460
0.000971
-0.000166
-0.000168
0.000608
0.001259
0.001540
0.001693
0.001459
0.000402
-0.000985
-0.001730
-0.001593
-0.000996
-0.000183
0.000803
0.001591
0.001776
0.001597
0.001468
0.001270
0.000852
0.000755
0.001640
0.003116
0.004053
0.004025
0.003555
0.003128
0.002708
0.002166
0.001657
0.001404
0.001467
0.001831
0.002391
0.002836
0.002815
0.002267
0.001565
0.001280
0.001709
0.002595
0.003337
0.003533
0.003265
0.002832
0.002398
0.002021
0.001772
0.001706
0.001898
0.002405
0.003055
0.003389
0.003091
0.002450
0.002100
0.002290
0.002720
0.003132
0.003649
0.004252
0.004379
0.003613
0.002472
0.001941
0.002268
0.002824
0.003187
0.003639
0.004437
0.005220
0.005346
0.004660
0.003740
0.003313
0.003483
0.003780
0.003911
0.004060
0.004249
0.003924
0.002790
0.001545
0.001106
0.001473
0.001914
0.002041
0.002019
0.001892
0.001523
0.000978
0.000458
0.000088
-0.000014
0.000274
0.000938
0.001785
0.002580
0.003063
0.002986
0.002539
0.002417
0.002962
0.003677
0.003953
0.003858
0.003784
0.003615
0.002956
0.002018
0.001549
0.001863
0.002454
0.002737
0.002760
0.002920
0.003315
0.003660
0.003703
0.003432
0.002961
0.002488
0.002246
0.002275
0.002406
0.002536
0.002720
0.002840
0.002555
0.001929
0.001526
0.001497
0.001302
0.000668
0.000174
0.000362
0.000793
0.000759
0.000377
0.000237
0.000447
0.000700
0.001058
0.001915
0.003123
0.003846
0.003484
0.002369
0.001322
0.000785
0.000725
0.001188
0.002495
0.004600
0.006565
0.007179
0.006242
0.004773
0.003678
0.002844
0.001914
0.001343
0.001886
0.003209
0.004032
0.003684
0.002737
0.002000
0.001564
0.001201
0.001021
0.001159
0.001274
0.000914
0.000190
-0.000368
-0.000463
-0.000106
0.000610
0.001387
0.001796
0.001768
0.001725
0.001914
0.001954
0.001509
0.001005
0.001133
0.001929
0.002803
0.003337
0.003567
0.003534
0.003126
0.002461
0.001993
0.002052
0.002510
0.003065
0.003546
0.003759
0.003371
0.002317
0.001169
0.000643
0.000845
0.001396
0.002109
0.003069
0.004045
0.004460
0.004174
0.003694
0.003402
0.003093
0.002519
0.002003
0.002034
0.002559
0.003078
0.003243
0.003084
0.002719
0.002158
0.001508
0.001134
0.001393
0.002219
0.003212
0.003975
0.004194
0.003737
0.002862
0.002086
0.001714
0.001685
0.001950
0.002555
0.003102
0.002840
0.001676
0.000549
0.000366
0.000934
0.001533
0.002044
0.002719
0.003295
0.003142
0.002195
0.001195
0.000853
0.001258
0.002107
0.003067
0.003851
0.004240
0.004188
0.003775
0.003104
0.002544
0.002815
0.004294
0.006452
0.008534
0.010725
0.013951
0.018421
0.023123
0.026944
0.029616
0.031244
0.031571
0.030738
0.030736
0.034838
0.044426
0.057176
0.069849
0.082160
0.096002
0.110374
0.119117
0.116134
0.103191
0.090194
0.085610
0.087856
0.087584
0.078326
0.065064
0.061024
0.073350
0.093582
0.104951
0.095925
0.065901
0.023469
-0.018624
-0.053347
-0.089764
-0.146078
-0.225480
-0.308228
-0.372857
-0.415975
-0.445850
-0.466618
-0.482808
-0.509124
-0.553375
-0.590662
-0.573265
-0.481416
-0.360569
-0.284122
-0.262827
-0.215200
-0.056289
0.200984
0.452536
0.595396
0.590354
0.460086
0.283111
0.153545
0.081109
-0.016488
-0.167616
-0.255522
-0.168367
-0.003495
0.026515
-0.119827
-0.252573
-0.174682
0.118183
0.470287
0.710488
0.741192
0.580534
0.345637
0.154983
0.068579
0.111535
0.269989
0.441593
0.474858
0.330712
0.120037
-0.094673
-0.397864
-0.839340
-1.263221
-1.393950
-1.065958
-0.359621
0.401435
0.774096
0.500953
-0.199610
-0.752462
-0.752621
-0.349331
-0.007746
0.031965
-0.068595
0.005290
0.419455
1.046625
1.468192
1.190710
0.131969
-1.122845
-1.789863
-1.614163
-1.027007
-0.616078
-0.548811
-0.528691
-0.232092
0.238651
0.354755
-0.288247
-1.407532
-2.157310
-1.901248
-0.773715
0.610743
1.767931
2.443999
2.409115
1.615466
0.594228
0.183689
0.569984
0.981598
0.565010
-0.687544
-2.031923
-2.673763
-2.125112
-0.366837
1.884904
3.400027
3.345920
2.001959
0.410517
-0.565664
-0.655258
-0.054863
0.709164
1.068974
0.888898
0.567986
0.479779
0.526553
0.550379
0.769241
1.364871
1.943422
1.758701
0.420891
-1.752977
-3.941358
-5.197905
-4.979495
-3.611232
-2.014237
-0.832184
0.028111
0.948073
1.951985
2.691616
2.703721
1.546607
-0.718042
-3.061175
-4.131586
-3.663530
-2.842409
-2.863380
-3.465095
-3.340680
-1.809360
0.399083
2.057721
2.568657
2.092119
1.193583
0.625754
1.008520
2.180099
2.976774
2.174360
-0.199290
-2.656883
-3.502313
-2.315416
-0.214881
1.246898
1.407833
0.848236
0.614949
1.165063
2.005081
2.234720
1.398840
-0.092224
-1.343041
-1.803421
-1.638145
-1.221960
-0.483412
0.910400
2.783751
4.342431
4.923093
4.519965
3.439521
1.768625
-0.413044
-2.513366
-3.637134
-3.400770
-2.243020
-0.860349
0.263173
0.747135
0.314471
-0.785548
-1.595045
-1.134330
0.599300
2.529698
3.521640
3.330889
2.395045
1.016528
-0.787413
-2.646733
-3.677965
-3.401303
-2.364840
-1.475431
-0.983574
-0.310315
1.222827
3.505299
5.411385
5.652121
4.183747
2.505332
2.023374
2.419345
2.166892
0.458833
-1.993735
-4.056842
-5.150824
-5.070266
-3.881884
-2.282348
-1.394632
-1.727395
-2.539717
-2.546883
-1.097078
1.306448
3.289850
3.524113
1.743263
-1.014395
-3.197284
-3.767885
-2.482922
0.365774
3.878635
6.506981
6.987497
5.677718
4.322300
3.929973
3.467248
1.293715
-2.396431
-5.341349
-5.661111
-3.863699
-1.846945
-0.442904
0.886560
2.256672
2.837507
2.209801
1.060892
0.058111
-1.062922
-2.639277
-4.290912
-5.567144
-6.525474
-7.022603
-6.041858
-2.805993
1.917280
6.644210
10.606747
13.646315
15.361732
15.081929
12.522437
8.023471
2.325484
-3.589934
-8.776987
-12.768895
-15.558350
-16.858070
-15.691720
-11.498165
-5.363548
0.636354
4.917319
6.966986
7.216094
6.678281
6.182001
5.444319
3.159593
-1.445094
-7.061532
-10.569845
-9.266206
-3.211228
4.525503
10.028987
11.163882
8.627590
5.060367
3.093229
3.560216
4.852797
4.015248
-0.599750
-7.281501
-12.035729
-12.148191
-8.563864
-4.564253
-2.531434
-2.407210
-2.896854
-3.088622
-2.434680
-0.261841
3.596659
7.936060
10.936494
12.093975
12.557694
12.996089
11.844512
6.850099
-1.720156
-10.464276
-15.616677
-15.907064
-12.549154
-7.139783
-0.594807
5.709406
9.218786
8.293690
4.534481
1.502900
0.897088
0.934594
-1.102862
-5.752071
-11.337166
-16.052032
-18.754763
-17.855482
-11.346777
0.907120
15.443462
26.497761
29.557650
24.246952
14.047133
3.219995
-5.771505
-12.200166
-15.762254
-16.085138
-13.082105
-7.302539
-0.184876
6.090517
9.662979
10.200894
8.896519
7.106750
5.065119
2.163794
-1.664713
-5.386793
-7.778025
-8.297951
-6.959774
-4.311113
-1.653006
-0.284212
-0.460896
-1.588209
-3.130183
-4.519884
-4.374041
-1.321837
4.068867
9.332876
12.118067
11.534620
7.874887
2.020330
-4.599702
-10.317412
-13.812911
-14.014812
-9.968085
-1.907662
7.249933
12.745372
11.662881
5.348418
-2.214321
-7.696965
-10.238563
-11.023231
-11.404165
-10.856891
-6.932037
1.407224
10.844302
16.168831
15.496585
11.461368
7.273994
3.388127
-1.136439
-5.787269
-8.506846
-7.798234
-4.091199
0.858084
5.160852
7.415957
6.917417
3.548128
-2.234339
-8.747006
-12.823873
-11.775355
-6.583015
-1.613828
0.341001
1.060786
3.693194
8.061000
10.641897
8.687622
2.913404
-3.417681
-6.768769
-5.368988
-0.461087
4.283098
5.666722
3.704664
0.737706
-1.454009
-2.338703
-1.478446
1.355895
4.707151
5.860823
3.688947
-0.218965
-3.763698
-6.412632
-8.233641
-8.155553
-5.194547
-0.955762
1.127442
-0.301212
-2.865184
-3.723222
-2.925040
-2.367833
-2.706934
-3.027372
-3.104971
-3.600046
-3.693900
-0.839847
5.609790
11.754853
12.286386
6.037003
-2.917225
-9.377236
-11.081566
-8.845880
-4.487909
0.508778
5.086621
8.280408
9.366261
8.523675
6.750956
4.633333
1.714237
-2.611755
-8.039389
-13.388173
-17.257635
-18.212944
-14.992258
-7.695640
1.297453
8.900897
14.334273
19.008734
22.797987
22.577240
15.637708
3.404467
-9.254910
-17.972710
-21.307241
-19.871374
-14.629907
-6.919674
0.940255
6.681573
9.472781
9.678810
7.873694
4.686817
1.083428
-2.146841
-5.063236
-7.961294
-9.949600
-8.874674
-3.570707
3.934599
9.444113
10.347913
7.856957
5.181258
4.328897
5.036678
5.981761
6.240814
5.565974
3.849512
0.697231
-4.321988
-10.634018
-15.938651
-17.346352
-13.873484
-7.584742
-1.789371
1.555644
2.452287
1.967217
1.580753
2.726401
5.435725
7.347763
5.774505
0.820884
-4.871625
-9.048790
-11.211674
-11.262061
-8.610278
-3.308099
3.323069
9.557817
13.761501
13.979721
8.695818
-0.554224
-8.728874
-11.413414
-8.868063
-4.743564
-1.439807
1.322096
3.942416
5.649744
5.853134
5.093433
4.256381
3.769902
3.969067
5.194274
6.931659
7.632799
6.082249
2.822241
-0.244724
-1.706831
-1.776901
-1.522983
-1.400824
-1.070867
-0.522018
-0.584699
-1.767957
-3.101610
-2.955795
-0.860364
1.984085
3.960791
4.384840
3.507990
1.665934
-1.169061
-4.950956
-8.897867
-11.861866
-13.655821
-15.062904
-15.854461
-13.898728
-7.452122
2.032798
10.684398
15.718932
16.910101
14.682104
8.486731
-1.451026
-12.045161
-19.122515
-20.591999
-16.949587
-9.954611
-2.096735
3.500273
4.643062
1.853335
-2.071847
-3.925589
-1.720887
4.103230
10.453108
13.607366
12.777906
10.881333
10.513015
10.288692
6.710246
-0.654872
-7.502298
-9.096796
-5.201295
0.152810
3.083561
2.732152
0.352499
-2.498606
-4.788366
-6.183082
-6.702868
-6.011773
-3.258196
1.911929
8.294708
13.401899
14.426850
9.551803
0.387833
-6.915761
-5.570077
5.281141
18.699148
25.791134
22.532574
10.627741
-5.547717
-20.943609
-30.515497
-30.981495
-22.692846
-8.836999
7.132815
22.762014
35.448372
41.267902
36.713051
22.026575
1.947969
-17.014214
-29.232456
-30.976744
-22.017555
-7.090538
6.067770
11.379902
7.917288
-0.383755
-8.667250
-15.321775
-21.815680
-28.648352
-33.246292
-33.041832
-28.935270
-23.386406
-16.182283
-4.963452
9.273037
20.135132
21.922901
15.506527
6.028977
-3.000163
-10.505583
-14.642414
-13.644057
-9.124206
-4.284080
0.582354
7.525465
15.730853
20.753542
20.430494
17.467623
14.072653
7.474718
-5.279476
-19.967167
-27.414017
-21.981550
-4.986356
18.000341
40.011147
53.934036
54.875793
42.955814
23.200037
3.075514
-10.684867
-15.636129
-15.044444
-14.688512
-17.471422
-21.402721
-23.127125
-22.313061
-21.667566
-23.611450
-27.785225
-31.402725
-31.471304
-27.082888
-20.249479
-13.894659
-8.844283
-4.189063
-0.161633
1.585836
0.788967
-0.385450
-0.092309
1.577479
4.553770
9.189023
13.379520
12.332877
4.317309
-5.121774
-8.656536
-5.798802
-2.355427
-1.283978
2.003231
13.027206
30.200212
45.851101
53.424664
51.608353
42.358063
28.138958
11.720299
-3.226188
-11.887718
-9.998413
1.534871
14.191941
17.637075
9.867492
-1.090148
-7.659732
-11.295818
-18.227697
-29.177040
-35.895702
-28.831701
-8.195853
14.145556
25.151852
21.605127
10.064330
-1.326006
-8.044292
-8.283251
-2.651036
4.341729
6.549050
1.839712
-5.815240
-10.821732
-10.858743
-7.219149
-3.601913
-4.957521
-14.017416
-26.826363
-33.145821
-23.870352
2.214195
39.385708
79.237373
111.603966
124.258347
107.246674
61.176682
1.829442
-46.833424
-69.742867
-72.034683
-69.116333
-65.231453
-49.490562
-13.379983
36.002819
81.228729
108.538963
114.937431
104.373573
81.604843
51.086441
18.011602
-13.344502
-40.921623
-62.008770
-70.163422
-58.843254
-31.182802
-4.951431
-2.044288
-28.239496
-65.680908
-88.810196
-85.621834
-61.552490
-27.816410
5.679420
28.723616
33.925423
24.480225
13.861474
14.775522
29.056959
48.010948
58.860001
50.952518
22.186090
-15.741889
-41.177654
-38.763229
-13.851875
12.431932
23.587065
21.879799
21.685823
31.658709
46.591663
55.143387
49.568092
27.386486
-7.020988
-40.089245
-57.111004
-55.636333
-45.929150
-35.840775
-22.016176
-0.862547
20.182997
29.512934
25.510063
17.477198
12.755299
9.113613
0.422621
-14.865614
-31.388754
-41.815262
-44.323914
-43.435562
-41.744747
-33.954010
-14.664441
8.487691
17.820604
4.369102
-22.069057
-43.453732
-49.939129
-43.039471
-27.870697
-8.732251
11.149731
31.344843
54.081955
76.733727
86.142540
70.046082
34.320000
0.790169
-12.611550
-5.886880
7.901228
16.749096
17.116438
11.101326
0.487272
-14.915456
-33.897171
-51.116882
-59.490952
-54.908543
-38.481522
-16.163870
3.714028
15.126755
17.678959
14.168615
5.339589
-9.254908
-24.913094
-32.159512
-26.862316
-16.672768
-12.174070
-13.000265
-9.297038
2.811409
14.305961
16.551317
15.457992
24.053934
43.772575
60.624386
61.316303
47.276913
29.554714
15.779732
7.207110
4.672049
9.155910
15.972621
15.655181
3.442742
-15.066023
-30.122677
-37.996845
-42.364136
-46.556980
-46.998161
-36.169720
-12.297599
15.884890
35.719959
40.705433
33.246376
20.201765
7.246115
-3.848979
-13.799103
-22.647039
-28.752134
-31.124640
-31.619324
-32.616562
-32.867901
-28.525379
-18.705284
-7.755796
-0.785275
1.710812
3.633342
8.987737
18.057158
26.356377
27.553434
18.845442
4.265475
-7.460657
-9.308489
-1.131742
11.204725
21.463585
26.882586
26.517904
18.399168
1.948959
-16.794163
-27.254391
-23.834023
-10.889064
2.595124
11.024249
13.428818
10.431575
3.774088
-4.372122
-14.279688
-27.533676
-40.436943
-42.747314
-29.673361
-11.781967
-4.965000
-12.552232
-23.279531
-26.331736
-21.818008
-14.434493
-4.302394
10.457414
25.844969
33.777233
31.460066
22.925913
10.812154
-7.906031
-34.008099
-58.122982
-67.293442
-57.305737
-33.698582
-2.385405
34.622253
72.848183
100.181877
102.958206
78.284126
38.447708
0.350516
-28.660419
-50.178059
-62.062805
-56.251961
-31.274910
0.712239
24.078836
34.193279
37.649876
40.211124
39.652161
31.524818
17.196018
2.283336
-9.456719
-17.525877
-22.192377
-22.965530
-19.361341
-11.972680
-2.274306
8.072986
16.694754
19.661800
13.361692
-1.337946
-17.649414
-27.254292
-26.259249
-16.821913
-4.554293
5.129415
9.609492
9.361940
6.098509
0.707998
-6.775908
-15.279022
-21.330267
-20.054300
-8.236660
12.509326
35.334019
51.637943
56.149029
49.357231
34.648853
13.597313
-13.305741
-40.248608
-54.649158
-47.575016
-23.205828
6.392644
31.447350
46.113365
45.478825
27.803125
-0.306861
-26.443014
-41.503433
-44.115318
-37.056484
-23.234690
-6.981945
5.486779
11.735565
16.565226
25.294615
34.618809
35.405830
24.789938
10.412613
1.400278
-2.019250
-7.680272
-21.666126
-41.706322
-59.284515
-66.364670
-60.299953
-43.158230
-17.821859
12.516598
41.231274
58.794731
59.056927
43.401600
17.269135
-14.801434
-48.673466
-77.053055
-90.008644
-81.622612
-55.354206
-21.008022
12.574076
39.849159
56.421638
60.188995
53.668030
40.595215
21.219740
-5.551503
-35.101074
-55.980156
-59.154270
-47.149536
-30.974030
-18.289223
-8.552852
1.224182
11.416076
19.992977
24.124596
21.751150
13.663406
4.421763
-0.157049
2.904587
12.175740
23.126583
30.634096
31.869102
27.264059
18.388212
6.329221
-6.442610
-14.134303
-11.846148
-3.213852
0.164743
-10.171029
-30.194389
-46.729099
-49.012127
-35.740246
-13.649342
7.934200
22.496412
29.442558
32.995003
36.281624
36.203133
26.829021
8.475604
-9.428914
-16.501060
-10.263835
4.386482
20.333624
30.902437
31.339231
21.268116
5.663470
-8.408298
-16.387335
-17.536861
-13.346004
-6.090300
1.173535
4.456806
0.390608
-10.834748
-24.104914
-31.973516
-29.526733
-17.325613
-0.334069
15.584059
26.475277
30.500319
26.640867
14.773792
-2.441951
-19.289190
-30.134880
-31.993208
-24.162771
-8.477342
9.602840
23.209364
28.897598
28.386362
25.213266
21.667538
19.617228
21.330351
26.944529
32.123363
31.223131
23.270857
12.768408
4.508366
-0.483600
-2.918472
-1.240222
7.175403
20.356579
29.726370
26.445581
9.927982
-11.269882
-27.108232
-33.539970
-32.723888
-28.474272
-23.312248
-19.065273
-17.437065
-17.964153
-16.815113
-10.427545
-0.763618
5.521685
4.075229
-2.677240
-8.507571
-9.285783
-4.647492
4.610098
17.824009
32.666832
44.206032
47.743980
41.998283
28.654451
10.422029
-9.326887
-26.355156
-36.812805
-39.346909
-35.784676
-29.141987
-20.717037
-10.039525
2.242576
12.890709
18.267740
17.549124
13.357811
9.465373
7.819402
7.351597
5.553920
1.413714
-3.031783
-4.274825
-0.959874
4.075405
5.864091
1.650100
-7.139034
-16.911528
-24.379047
-27.211159
-24.712015
-19.185270
-15.223897
-15.391506
-16.733198
-13.405419
-3.185491
9.825931
19.602354
23.814526
24.166956
22.953890
21.174520
19.415798
18.144321
16.540648
12.981264
7.623606
3.269500
2.337589
4.163902
6.867530
10.504110
16.700308
25.470116
33.465656
36.115158
31.483704
21.447622
9.191969
-2.980193
-13.042340
-18.249229
-16.366261
-7.928019
