EVENT_NAME: EMILIA_2ND_SHOCK
EVENT_ID: IT-2012-0011
EVENT_DATE_YYYYMMDD: 20120529
EVENT_TIME_HHMMSS: 070002
EVENT_LATITUDE_DEGREE: 44.8417
EVENT_LONGITUDE_DEGREE: 11.0657
EVENT_DEPTH_KM: 8.1
HYPOCENTER_REFERENCE: INGV-CNT_Seismic_Bulletin
MAGNITUDE_W: 6.0
MAGNITUDE_W_REFERENCE: RCMT-INGV
MAGNITUDE_L: 5.8
MAGNITUDE_L_REFERENCE: INGV-CNT_Seismic_Bulletin
FOCAL_MECHANISM: TF
NETWORK: IV
STATION_CODE: T0800
STATION_NAME: T0800
STATION_LATITUDE_DEGREE: 44.848600
STATION_LONGITUDE_DEGREE: 11.247900
STATION_ELEVATION_M: 9
LOCATION: 
SENSOR_DEPTH_M: 1.0
VS30_M/S: 
SITE_CLASSIFICATION_EC8: C*
MORPHOLOGIC_CLASSIFICATION: 
EPICENTRAL_DISTANCE_KM: 14.4
EARTHQUAKE_BACKAZIMUTH_DEGREE: 267.0
DATE_TIME_FIRST_SAMPLE_YYYYMMDD_HHMMSS: 20120529_065949.000
DATE_TIME_FIRST_SAMPLE_PRECISION: milliseconds
SAMPLING_INTERVAL_S: 0.005000
NDATA: 20001
DURATION_S: 100.005
STREAM: HNE
UNITS: cm
INSTRUMENT: sensor = Episensor FBA ES-T [Kinemetrics] | digitizer = Unknown [Unknown]
INSTRUMENT_ANALOG/DIGITAL: D
INSTRUMENTAL_FREQUENCY_HZ: 
INSTRUMENTAL_DAMPING: 
FULL_SCALE_G: 
N_BIT_DIGITAL_CONVERTER: 
PGD_CM: -5.159484
TIME_PGD_S: 24.290000
BASELINE_CORRECTION: BASELINE REMOVED
FILTER_TYPE: BUTTERWORTH
FILTER_ORDER: 2
LOW_CUT_FREQUENCY_HZ: 0.070
HIGH_CUT_FREQUENCY_HZ: 40.000
LATE/NORMAL_TRIGGERED: NT
DATABASE_VERSION: DYNA 1.0
HEADER_FORMAT: DYNA 1.2
DATA_TYPE: DISPLACEMENT
PROCESSING: manual (Paolucci et al., 2011)
DATA_TIMESTAMP_YYYYMMDD_HHMMSS: 
DATA_LICENSE: CC-BY4_0 (http://creativecommons.org/licenses/by/4.0/)
DATA_CITATION: ESM working group (2015), European Strong-Motion database, version 0.1, Network Activity 3: Networking acceleration networks and SM data users. Project NERA (www.nera-eu.org)
DATA_CREATOR: ESM working group
ORIGINAL_DATA_MEDIATOR_CITATION: Orfeus - European Integrated Data Archive (EIDA) http://www.orfeus-eu.org/eida/
ORIGINAL_DATA_MEDIATOR: Orfeus - European Integrated Data Archive (EIDA)
ORIGINAL_DATA_CREATOR_CITATION: Data for this study comes from the Italian national seismic network operated by Istituto Nazionale di Geofisica e Vulcanologia and archived at the European Integrated Data Archive http://eida.rm.ingv.it/
ORIGINAL_DATA_CREATOR: network: IV (Italian National Seismic Network); owner: Istituto Nazionale di Geofisica e Vulcanologia
USER1: 
USER2: 
USER3: 
USER4: 
USER5: 
[...]
-5.299154e-01
-5.310061e-01
-5.321571e-01
-5.333407e-01
-5.345054e-01
-5.355908e-01
-5.365522e-01
-5.373746e-01
-5.380771e-01
-5.387115e-01
-5.393442e-01
-5.400220e-01
-5.407485e-01
-5.414949e-01
-5.422324e-01
-5.429553e-01
-5.436785e-01
-5.444100e-01
-5.451350e-01
-5.458328e-01
-5.465008e-01
-5.471527e-01
-5.478062e-01
-5.484796e-01
-5.491915e-01
-5.499491e-01
-5.507361e-01
-5.515131e-01
-5.522332e-01
-5.528672e-01
-5.534263e-01
-5.539710e-01
-5.546029e-01
-5.554347e-01
-5.565345e-01
-5.578617e-01
-5.592582e-01
-5.605334e-01
-5.615695e-01
-5.623603e-01
-5.629803e-01
-5.635211e-01
-5.640442e-01
-5.645804e-01
-5.651470e-01
-5.657530e-01
-5.663969e-01
-5.670682e-01
-5.677464e-01
-5.683954e-01
-5.689759e-01
-5.694870e-01
-5.699873e-01
-5.705556e-01
-5.712346e-01
-5.720130e-01
-5.728584e-01
-5.737702e-01
-5.747972e-01
-5.759888e-01
-5.773415e-01
-5.787983e-01
-5.802823e-01
-5.817227e-01
-5.830684e-01
-5.842981e-01
-5.854210e-01
-5.864649e-01
-5.874630e-01
-5.884510e-01
-5.894665e-01
-5.905407e-01
-5.916792e-01
-5.928474e-01
-5.939856e-01
-5.950582e-01
-5.960845e-01
-5.971101e-01
-5.981625e-01
-5.992430e-01
-6.003446e-01
-6.014642e-01
-6.026063e-01
-6.037783e-01
-6.049820e-01
-6.061976e-01
-6.073696e-01
-6.084113e-01
-6.092435e-01
-6.098594e-01
-6.103502e-01
-6.108471e-01
-6.114391e-01
-6.121411e-01
-6.129112e-01
-6.136903e-01
-6.144408e-01
-6.151700e-01
-6.159309e-01
-6.167930e-01
-6.177934e-01
-6.188872e-01
-6.199377e-01
-6.207691e-01
-6.212456e-01
-6.213296e-01
-6.210952e-01
-6.206905e-01
-6.202725e-01
-6.199470e-01
-6.197449e-01
-6.196501e-01
-6.196397e-01
-6.197010e-01
-6.198300e-01
-6.200313e-01
-6.203178e-01
-6.207073e-01
-6.212116e-01
-6.218270e-01
-6.225273e-01
-6.232643e-01
-6.239690e-01
-6.245547e-01
-6.249410e-01
-6.251000e-01
-6.250859e-01
-6.250102e-01
-6.249839e-01
-6.250676e-01
-6.252579e-01
-6.255149e-01
-6.258045e-01
-6.261247e-01
-6.265068e-01
-6.269973e-01
-6.276281e-01
-6.283873e-01
-6.292034e-01
-6.299537e-01
-6.305046e-01
-6.307734e-01
-6.307752e-01
-6.306195e-01
-6.304625e-01
-6.304403e-01
-6.306196e-01
-6.309912e-01
-6.314932e-01
-6.320444e-01
-6.325802e-01
-6.330840e-01
-6.335969e-01
-6.341960e-01
-6.349506e-01
-6.358794e-01
-6.369340e-01
-6.380201e-01
-6.390398e-01
-6.399237e-01
-6.406326e-01
-6.411291e-01
-6.413670e-01
-6.413293e-01
-6.410668e-01
-6.406831e-01
-6.402761e-01
-6.398810e-01
-6.394632e-01
-6.389735e-01
-6.384001e-01
-6.377603e-01
-6.370754e-01
-6.363782e-01
-6.357242e-01
-6.351684e-01
-6.347300e-01
-6.343856e-01
-6.340980e-01
-6.338619e-01
-6.337081e-01
-6.336487e-01
-6.336322e-01
-6.335753e-01
-6.334278e-01
-6.331998e-01
-6.329420e-01
-6.327017e-01
-6.324941e-01
-6.323114e-01
-6.321410e-01
-6.319672e-01
-6.317655e-01
-6.315114e-01
-6.311997e-01
-6.308602e-01
-6.305537e-01
-6.303430e-01
-6.302612e-01
-6.303016e-01
-6.304328e-01
-6.306286e-01
-6.308884e-01
-6.312299e-01
-6.316641e-01
-6.321740e-01
-6.327115e-01
-6.332209e-01
-6.336645e-01
-6.340302e-01
-6.343102e-01
-6.344644e-01
-6.344046e-01
-6.340305e-01
-6.332942e-01
-6.322528e-01
-6.310604e-01
-6.298859e-01
-6.288208e-01
-6.278419e-01
-6.268369e-01
-6.256639e-01
-6.242084e-01
-6.224162e-01
-6.203158e-01
-6.180381e-01
-6.158004e-01
-6.138325e-01
-6.122956e-01
-6.112504e-01
-6.106680e-01
-6.104557e-01
-6.104789e-01
-6.105790e-01
-6.106081e-01
-6.104807e-01
-6.101985e-01
-6.098156e-01
-6.094000e-01
-6.090376e-01
-6.088346e-01
-6.088643e-01
-6.090971e-01
-6.093792e-01
-6.094894e-01
-6.092553e-01
-6.086307e-01
-6.076685e-01
-6.064528e-01
-6.050688e-01
-6.036014e-01
-6.021250e-01
-6.006854e-01
-5.992875e-01
-5.978903e-01
-5.964094e-01
-5.947340e-01
-5.927664e-01
-5.904697e-01
-5.878996e-01
-5.851929e-01
-5.825110e-01
-5.799869e-01
-5.777131e-01
-5.757278e-01
-5.739669e-01
-5.722443e-01
-5.703223e-01
-5.680184e-01
-5.652650e-01
-5.620870e-01
-5.585225e-01
-5.545811e-01
-5.502990e-01
-5.457945e-01
-5.412303e-01
-5.367391e-01
-5.324042e-01
-5.282935e-01
-5.245009e-01
-5.211392e-01
-5.182734e-01
-5.158766e-01
-5.138707e-01
-5.121801e-01
-5.107224e-01
-5.093727e-01
-5.079692e-01
-5.063628e-01
-5.044725e-01
-5.022960e-01
-4.998599e-01
-4.971820e-01
-4.943036e-01
-4.913355e-01
-4.884491e-01
-4.858253e-01
-4.836075e-01
-4.818839e-01
-4.806962e-01
-4.800414e-01
-4.798440e-01
-4.799363e-01
-4.800889e-01
-4.800842e-01
-4.797977e-01
-4.792404e-01
-4.785337e-01
-4.778408e-01
-4.773014e-01
-4.770049e-01
-4.770096e-01
-4.773569e-01
-4.780436e-01
-4.789921e-01
-4.800702e-01
-4.811366e-01
-4.820722e-01
-4.827755e-01
-4.831331e-01
-4.830056e-01
-4.822516e-01
-4.807462e-01
-4.783627e-01
-4.749750e-01
-4.705294e-01
-4.651273e-01
-4.590464e-01
-4.527048e-01
-4.466001e-01
-4.412298e-01
-4.369954e-01
-4.341035e-01
-4.324942e-01
-4.318343e-01
-4.315933e-01
-4.311668e-01
-4.300064e-01
-4.277397e-01
-4.242487e-01
-4.196222e-01
-4.139656e-01
-4.072420e-01
-3.993029e-01
-3.900194e-01
-3.793723e-01
-3.674705e-01
-3.545260e-01
-3.408095e-01
-3.265981e-01
-3.121254e-01
-2.975709e-01
-2.831480e-01
-2.692718e-01
-2.566065e-01
-2.458604e-01
-2.375513e-01
-2.319743e-01
-2.292840e-01
-2.295183e-01
-2.325494e-01
-2.380395e-01
-2.455021e-01
-2.544859e-01
-2.647059e-01
-2.759786e-01
-2.880658e-01
-3.005893e-01
-3.130423e-01
-3.248688e-01
-3.355784e-01
-3.448644e-01
-3.526675e-01
-3.591384e-01
-3.645118e-01
-3.689475e-01
-3.724301e-01
-3.747944e-01
-3.758428e-01
-3.754712e-01
-3.737281e-01
-3.707823e-01
-3.669033e-01
-3.625335e-01
-3.583561e-01
-3.552251e-01
-3.539349e-01
-3.549129e-01
-3.580523e-01
-3.628399e-01
-3.686573e-01
-3.750484e-01
-3.818174e-01
-3.889245e-01
-3.963122e-01
-4.038120e-01
-4.111732e-01
-4.181718e-01
-4.246779e-01
-4.305937e-01
-4.357339e-01
-4.397533e-01
-4.421580e-01
-4.423936e-01
-4.399653e-01
-4.345388e-01
-4.259696e-01
-4.142448e-01
-3.994064e-01
-3.815239e-01
-3.607106e-01
-3.371410e-01
-3.110225e-01
-2.825182e-01
-2.516945e-01
-2.185579e-01
-1.831522e-01
-1.456692e-01
-1.065735e-01
-6.670432e-02
-2.721716e-02
1.069707e-02
4.608524e-02
7.826521e-02
1.066898e-01
1.308274e-01
1.501861e-01
1.644755e-01
1.736889e-01
1.779714e-01
1.774955e-01
1.725591e-01
1.637489e-01
1.519352e-01
1.380878e-01
1.230228e-01
1.072256e-01
9.083796e-02
7.376692e-02
5.585000e-02
3.706628e-02
1.776161e-02
-1.246054e-03
-1.879280e-02
-3.365262e-02
-4.483004e-02
-5.172338e-02
-5.409349e-02
-5.193523e-02
-4.537834e-02
-3.466179e-02
-2.015915e-02
-2.368401e-03
1.818104e-02
4.101453e-02
6.570222e-02
9.179930e-02
1.188152e-01
1.462268e-01
1.735235e-01
2.002690e-01
2.261670e-01
2.510922e-01
2.750476e-01
2.980449e-01
3.199551e-01
3.404586e-01
3.591644e-01
3.757660e-01
3.900943e-01
4.021110e-01
4.119243e-01
4.197990e-01
4.261040e-01
4.311931e-01
4.352696e-01
4.383332e-01
4.402597e-01
4.409224e-01
4.402617e-01
4.383375e-01
4.353996e-01
4.318994e-01
4.283737e-01
4.252956e-01
4.230034e-01
4.217046e-01
4.214966e-01
4.223666e-01
4.241798e-01
4.267243e-01
4.298417e-01
4.335199e-01
4.378374e-01
4.428389e-01
4.484621e-01
4.545416e-01
4.608700e-01
4.672910e-01
4.737914e-01
4.805523e-01
4.879277e-01
4.963705e-01
5.063366e-01
5.181806e-01
5.320689e-01
5.479608e-01
5.656886e-01
5.850701e-01
6.059585e-01
6.281881e-01
6.514542e-01
6.752898e-01
6.992326e-01
7.230000e-01
7.464845e-01
7.696412e-01
7.924053e-01
8.146662e-01
8.362637e-01
8.569670e-01
8.764382e-01
8.942439e-01
9.099554e-01
9.232532e-01
9.339639e-01
9.420908e-01
9.478871e-01
9.518737e-01
9.547140e-01
9.570351e-01
9.593290e-01
9.619587e-01
9.652252e-01
9.694052e-01
9.747148e-01
9.812825e-01
9.891979e-01
9.985547e-01
1.009406e+00
1.021697e+00
1.035276e+00
1.049963e+00
1.065626e+00
1.082208e+00
1.099676e+00
1.117962e+00
1.136939e+00
1.156408e+00
1.176068e+00
1.195487e+00
1.214142e+00
1.231519e+00
1.247271e+00
1.261343e+00
1.273981e+00
1.285637e+00
1.296829e+00
1.308032e+00
1.319669e+00
1.332118e+00
1.345669e+00
1.360479e+00
1.376584e+00
1.393960e+00
1.412595e+00
1.432510e+00
1.453730e+00
1.476227e+00
1.499912e+00
1.524641e+00
1.550212e+00
1.576367e+00
1.602836e+00
1.629366e+00
1.655732e+00
1.681730e+00
1.707211e+00
1.732096e+00
1.756356e+00
1.779956e+00
1.802798e+00
1.824724e+00
1.845613e+00
1.865478e+00
1.884489e+00
1.902935e+00
1.921165e+00
1.939522e+00
1.958256e+00
1.977471e+00
1.997147e+00
2.017217e+00
2.037658e+00
2.058498e+00
2.079737e+00
2.101271e+00
2.122923e+00
2.144527e+00
2.165942e+00
2.187014e+00
2.207544e+00
2.227302e+00
2.246116e+00
2.263933e+00
2.280787e+00
2.296728e+00
2.311809e+00
2.326076e+00
2.339547e+00
2.352187e+00
2.363940e+00
2.374776e+00
2.384712e+00
2.393785e+00
2.402025e+00
2.409467e+00
2.416211e+00
2.422446e+00
2.428355e+00
2.434028e+00
2.439479e+00
2.444727e+00
2.449860e+00
2.455045e+00
2.460541e+00
2.466680e+00
2.473815e+00
2.482194e+00
2.491788e+00
2.502232e+00
2.512985e+00
2.523578e+00
2.533784e+00
2.543659e+00
2.553468e+00
2.563545e+00
2.574142e+00
2.585330e+00
2.596991e+00
2.608916e+00
2.620923e+00
2.632911e+00
2.644795e+00
2.656421e+00
2.667616e+00
2.678278e+00
2.688438e+00
2.698242e+00
2.707867e+00
2.717436e+00
2.726972e+00
2.736403e+00
2.745614e+00
2.754548e+00
2.763319e+00
2.772251e+00
2.781775e+00
2.792256e+00
2.803828e+00
2.816311e+00
2.829224e+00
2.841891e+00
2.853627e+00
2.863908e+00
2.872472e+00
2.879322e+00
2.884655e+00
2.888760e+00
2.891940e+00
2.894455e+00
2.896475e+00
2.898101e+00
2.899445e+00
2.900707e+00
2.902158e+00
2.904050e+00
2.906505e+00
2.909465e+00
2.912729e+00
2.916024e+00
2.919055e+00
2.921562e+00
2.923429e+00
2.924787e+00
2.926028e+00
2.927713e+00
2.930393e+00
2.934461e+00
2.940120e+00
2.947427e+00
2.956340e+00
2.966749e+00
2.978509e+00
2.991453e+00
3.005389e+00
3.020074e+00
3.035189e+00
3.050353e+00
3.065176e+00
3.079308e+00
3.092440e+00
3.104289e+00
3.114608e+00
3.123213e+00
3.130021e+00
3.135056e+00
3.138424e+00
3.140279e+00
3.140817e+00
3.140287e+00
3.138983e+00
3.137226e+00
3.135320e+00
3.133536e+00
3.132139e+00
3.131407e+00
3.131603e+00
3.132929e+00
3.135523e+00
3.139461e+00
3.144745e+00
3.151244e+00
3.158639e+00
3.166417e+00
3.173998e+00
3.180870e+00
3.186668e+00
3.191180e+00
3.194316e+00
3.196068e+00
3.196460e+00
3.195540e+00
3.193431e+00
3.190414e+00
3.186976e+00
3.183777e+00
3.181533e+00
3.180908e+00
3.182470e+00
3.186674e+00
3.193836e+00
3.204119e+00
3.217573e+00
3.234200e+00
3.253959e+00
3.276702e+00
3.302061e+00
3.329407e+00
3.357960e+00
3.386987e+00
3.415968e+00
3.444679e+00
3.473173e+00
3.501687e+00
3.530518e+00
3.559909e+00
3.589958e+00
3.620612e+00
3.651743e+00
3.683241e+00
3.715049e+00
3.747133e+00
3.779402e+00
3.811658e+00
3.843623e+00
3.875009e+00
3.905578e+00
3.935179e+00
3.963747e+00
3.991279e+00
4.017811e+00
4.043400e+00
4.068104e+00
4.091992e+00
4.115153e+00
4.137716e+00
4.159839e+00
4.181679e+00
4.203345e+00
4.224836e+00
4.245971e+00
4.266353e+00
4.285370e+00
4.302290e+00
4.316394e+00
4.327083e+00
4.333878e+00
4.336374e+00
4.334231e+00
4.327196e+00
4.315143e+00
4.298067e+00
4.276058e+00
4.249332e+00
4.218383e+00
4.184107e+00
4.147742e+00
4.110646e+00
4.073981e+00
4.038470e+00
4.004304e+00
3.971176e+00
3.938378e+00
3.904995e+00
3.870174e+00
3.833365e+00
3.794409e+00
3.753457e+00
3.710767e+00
3.666520e+00
3.620736e+00
3.573286e+00
3.523943e+00
3.472444e+00
3.418557e+00
3.362124e+00
3.303066e+00
3.241326e+00
3.176794e+00
3.109254e+00
3.038425e+00
2.964043e+00
2.885950e+00
2.804141e+00
2.718757e+00
2.630051e+00
2.538345e+00
2.443991e+00
2.347321e+00
2.248616e+00
2.148079e+00
2.045848e+00
1.942023e+00
1.836708e+00
1.730049e+00
1.622243e+00
1.513564e+00
1.404369e+00
1.295129e+00
1.186438e+00
1.079005e+00
9.736540e-01
8.713431e-01
7.731487e-01
6.801452e-01
5.931864e-01
5.126485e-01
4.382709e-01
3.692048e-01
3.042456e-01
2.421589e-01
1.819820e-01
1.231931e-01
6.570218e-02
9.679560e-03
-4.466309e-02
-9.722491e-02
-1.480861e-01
-1.975250e-01
-2.460209e-01
-2.942565e-01
-3.430937e-01
-3.935006e-01
-4.464615e-01
-5.029123e-01
-5.636961e-01
-6.295265e-01
-7.009540e-01
-7.783423e-01
-8.618681e-01
-9.515516e-01
-1.047312e+00
-1.149023e+00
-1.256517e+00
-1.369519e+00
-1.487537e+00
-1.609774e+00
-1.735152e+00
-1.862472e+00
-1.990650e+00
-2.118950e+00
-2.247108e+00
-2.375284e+00
-2.503898e+00
-2.633419e+00
-2.764189e+00
-2.896334e+00
-3.029733e+00
-3.164025e+00
-3.298632e+00
-3.432843e+00
-3.565905e+00
-3.697100e+00
-3.825776e+00
-3.951321e+00
-4.073113e+00
-4.190488e+00
-4.302756e+00
-4.409267e+00
-4.509491e+00
-4.603073e+00
-4.689822e+00
-4.769640e+00
-4.842439e+00
-4.908102e+00
-4.966490e+00
-5.017455e+00
-5.060853e+00
-5.096535e+00
-5.124350e+00
-5.144165e+00
-5.155893e+00
-5.159484e+00
-5.154905e+00
-5.142125e+00
-5.121110e+00
-5.091852e+00
-5.054377e+00
-5.008727e+00
-4.954938e+00
-4.893045e+00
-4.823099e+00
-4.745181e+00
-4.659401e+00
-4.565917e+00
-4.464951e+00
-4.356799e+00
-4.241847e+00
-4.120584e+00
-3.993645e+00
-3.861872e+00
-3.726310e+00
-3.588123e+00
-3.448463e+00
-3.308396e+00
-3.168873e+00
-3.030740e+00
-2.894774e+00
-2.761721e+00
-2.632360e+00
-2.507547e+00
-2.388207e+00
-2.275243e+00
-2.169431e+00
-2.071358e+00
-1.981402e+00
-1.899719e+00
-1.826247e+00
-1.760739e+00
-1.702837e+00
-1.652162e+00
-1.608382e+00
-1.571222e+00
-1.540449e+00
-1.515859e+00
-1.497278e+00
-1.484542e+00
-1.477445e+00
-1.475644e+00
-1.478588e+00
-1.485496e+00
-1.495419e+00
-1.507342e+00
-1.520287e+00
-1.533366e+00
-1.545766e+00
-1.556719e+00
-1.565442e+00
-1.571106e+00
-1.572822e+00
-1.569666e+00
-1.560755e+00
-1.545357e+00
-1.523003e+00
-1.493530e+00
-1.457050e+00
-1.413866e+00
-1.364367e+00
-1.308961e+00
-1.248041e+00
-1.181972e+00
-1.111105e+00
-1.035812e+00
-9.565355e-01
-8.738498e-01
-7.884912e-01
-7.013463e-01
-6.133897e-01
-5.255918e-01
-4.388361e-01
-3.538836e-01
-2.713863e-01
-1.919340e-01
-1.161071e-01
-4.451005e-02
2.221902e-02
8.342405e-02
1.384770e-01
1.868578e-01
2.282561e-01
2.626707e-01
2.904641e-01
3.123355e-01
3.292128e-01
3.420927e-01
3.519033e-01
3.594437e-01
3.653818e-01
3.702612e-01
3.744898e-01
3.783082e-01
3.817847e-01
3.848720e-01
3.874896e-01
3.895884e-01
3.911994e-01
3.924865e-01
3.937967e-01
3.956878e-01
3.988942e-01
4.042216e-01
4.124195e-01
4.240924e-01
4.396604e-01
4.593576e-01
4.832575e-01
5.113142e-01
5.434084e-01
5.793806e-01
6.190319e-01
6.620813e-01
7.081111e-01
7.565400e-01
8.066517e-01
8.576842e-01
9.089439e-01
9.598978e-01
1.010210e+00
1.059714e+00
1.108343e+00
1.156063e+00
1.202823e+00
1.248524e+00
1.293025e+00
1.336161e+00
1.377763e+00
1.417672e+00
1.455737e+00
1.491799e+00
1.525669e+00
1.557131e+00
1.585952e+00
1.611904e+00
1.634778e+00
1.654410e+00
1.670694e+00
1.683613e+00
1.693258e+00
1.699848e+00
1.703736e+00
1.705395e+00
1.705384e+00
1.704274e+00
1.702570e+00
1.700646e+00
1.698725e+00
1.696912e+00
1.695259e+00
1.693842e+00
1.692805e+00
1.692381e+00
1.692882e+00
1.694660e+00
1.698062e+00
1.703383e+00
1.710850e+00
1.720636e+00
1.732888e+00
1.747719e+00
1.765188e+00
1.785275e+00
1.807872e+00
1.832789e+00
1.859773e+00
1.888505e+00
1.918593e+00
1.949556e+00
1.980834e+00
2.011811e+00
2.041860e+00
2.070381e+00
2.096821e+00
2.120677e+00
2.141485e+00
2.158840e+00
2.172413e+00
2.181979e+00
2.187428e+00
2.188772e+00
2.186144e+00
2.179771e+00
2.169923e+00
2.156856e+00
2.140753e+00
2.121717e+00
2.099800e+00
2.075042e+00
2.047497e+00
2.017246e+00
1.984407e+00
1.949153e+00
1.911737e+00
1.872511e+00
1.831937e+00
1.790576e+00
1.749081e+00
1.708185e+00
1.668670e+00
1.631305e+00
1.596761e+00
1.565521e+00
1.537829e+00
1.513674e+00
1.492831e+00
1.474925e+00
1.459518e+00
1.446193e+00
1.434623e+00
1.424596e+00
1.416000e+00
1.408785e+00
1.402913e+00
1.398328e+00
1.394935e+00
1.392621e+00
1.391279e+00
1.390852e+00
1.391352e+00
1.392831e+00
1.395320e+00
1.398764e+00
1.402991e+00
1.407752e+00
1.412786e+00
1.417866e+00
1.422813e+00
1.427473e+00
1.431688e+00
1.435280e+00
1.438043e+00
1.439755e+00
1.440211e+00
1.439262e+00
1.436841e+00
1.432945e+00
1.427608e+00
1.420883e+00
1.412837e+00
1.403544e+00
1.393072e+00
1.381491e+00
1.368886e+00
1.355384e+00
1.341165e+00
1.326449e+00
1.311485e+00
1.296550e+00
1.281938e+00
1.267913e+00
1.254661e+00
1.242269e+00
1.230741e+00
1.220014e+00
1.209975e+00
1.200456e+00
1.191235e+00
1.182062e+00
1.172688e+00
1.162886e+00
1.152445e+00
1.141162e+00
1.128833e+00
1.115253e+00
1.100231e+00
1.083590e+00
1.065177e+00
1.044886e+00
1.022660e+00
9.984881e-01
9.723765e-01
9.443286e-01
9.143633e-01
8.825651e-01
8.491177e-01
8.142779e-01
7.783241e-01
7.415214e-01
7.041009e-01
6.662379e-01
6.280473e-01
5.896054e-01
5.509656e-01
5.121442e-01
4.731260e-01
4.339322e-01
3.947036e-01
3.557308e-01
3.174105e-01
2.801473e-01
2.442674e-01
2.099924e-01
1.774444e-01
1.466564e-01
1.176173e-01
9.035369e-02
6.494460e-02
4.141763e-02
1.968646e-02
-3.555811e-04
-1.876603e-02
-3.565963e-02
-5.129197e-02
-6.591895e-02
-7.959704e-02
-9.216854e-02
-1.034396e-01
-1.133808e-01
-1.220813e-01
-1.294117e-01
-1.348952e-01
-1.381121e-01
-1.390811e-01
-1.380979e-01
-1.354592e-01
-1.315868e-01
-1.272863e-01
-1.236629e-01
-1.216514e-01
-1.214864e-01
-1.227109e-01
-1.249336e-01
-1.284436e-01
-1.339064e-01
-1.416903e-01
-1.516185e-01
-1.631637e-01
-1.757587e-01
-1.889678e-01
-2.024492e-01
-2.158978e-01
-2.291165e-01
-2.420818e-01
-2.548626e-01
-2.675102e-01
-2.800589e-01
-2.925564e-01
-3.050199e-01
-3.173841e-01
-3.295302e-01
-3.413456e-01
-3.527419e-01
-3.636515e-01
-3.740488e-01
-3.839867e-01
-3.936140e-01
-4.031567e-01
-4.128615e-01
-4.229320e-01
-4.334801e-01
-4.444842e-01
-4.557556e-01
-4.669598e-01
-4.777142e-01
-4.876878e-01
-4.966213e-01
-5.042922e-01
-5.104818e-01
-5.149785e-01
-5.176169e-01
-5.183109e-01
-5.170422e-01
-5.138169e-01
-5.086314e-01
-5.014886e-01
-4.924794e-01
-4.818777e-01
-4.701782e-01
-4.580538e-01
-4.462395e-01
-4.354050e-01
-4.260743e-01
-4.186088e-01
-4.132392e-01
-4.101084e-01
-4.092914e-01
-4.107955e-01
-4.145520e-01
-4.204022e-01
-4.280790e-01
-4.371906e-01
-4.472235e-01
-4.575936e-01
-4.677478e-01
-4.772609e-01
-4.858707e-01
-4.934592e-01
-5.000091e-01
