EVENT_NAME: EMILIA_2ND_SHOCK
EVENT_ID: IT-2012-0011
EVENT_DATE_YYYYMMDD: 20120529
EVENT_TIME_HHMMSS: 070002
EVENT_LATITUDE_DEGREE: 44.8417
EVENT_LONGITUDE_DEGREE: 11.0657
EVENT_DEPTH_KM: 8.1
HYPOCENTER_REFERENCE: INGV-CNT_Seismic_Bulletin
MAGNITUDE_W: 6.0
MAGNITUDE_W_REFERENCE: RCMT-INGV
MAGNITUDE_L: 5.8
MAGNITUDE_L_REFERENCE: INGV-CNT_Seismic_Bulletin
FOCAL_MECHANISM: TF
NETWORK: IV
STATION_CODE: T0802
STATION_NAME: T0802
STATION_LATITUDE_DEGREE: 44.875000
STATION_LONGITUDE_DEGREE: 11.181600
STATION_ELEVATION_M: 9
LOCATION: 
SENSOR_DEPTH_M: 1.0
VS30_M/S: 
SITE_CLASSIFICATION_EC8: C*
MORPHOLOGIC_CLASSIFICATION: 
EPICENTRAL_DISTANCE_KM: 9.9
EARTHQUAKE_BACKAZIMUTH_DEGREE: 248.0
DATE_TIME_FIRST_SAMPLE_YYYYMMDD_HHMMSS: 20120529_065951.000
DATE_TIME_FIRST_SAMPLE_PRECISION: milliseconds
SAMPLING_INTERVAL_S: 0.005000
NDATA: 14001
DURATION_S: 70.005
STREAM: HNZ
UNITS: cm
INSTRUMENT: sensor = Episensor FBA ES-T [Kinemetrics] | digitizer = Unknown [Unknown]
INSTRUMENT_ANALOG/DIGITAL: D
INSTRUMENTAL_FREQUENCY_HZ: 
INSTRUMENTAL_DAMPING: 
FULL_SCALE_G: 
N_BIT_DIGITAL_CONVERTER: 
PGD_CM: 1.948539
TIME_PGD_S: 20.270000
BASELINE_CORRECTION: BASELINE REMOVED
FILTER_TYPE: BUTTERWORTH
FILTER_ORDER: 2
LOW_CUT_FREQUENCY_HZ: 0.100
HIGH_CUT_FREQUENCY_HZ: 40.000
LATE/NORMAL_TRIGGERED: NT
DATABASE_VERSION: DYNA 1.0
HEADER_FORMAT: DYNA 1.2
DATA_TYPE: DISPLACEMENT
PROCESSING: manual (Paolucci et al., 2011)
DATA_TIMESTAMP_YYYYMMDD_HHMMSS: 
DATA_LICENSE: CC-BY4_0 (http://creativecommons.org/licenses/by/4.0/)
DATA_CITATION: ESM working group (2015), European Strong-Motion database, version 0.1, Network Activity 3: Networking acceleration networks and SM data users. Project NERA (www.nera-eu.org)
DATA_CREATOR: ESM working group
ORIGINAL_DATA_MEDIATOR_CITATION: Orfeus - European Integrated Data Archive (EIDA) http://www.orfeus-eu.org/eida/
ORIGINAL_DATA_MEDIATOR: Orfeus - European Integrated Data Archive (EIDA)
ORIGINAL_DATA_CREATOR_CITATION: Data for this study comes from the Italian national seismic network operated by Istituto Nazionale di Geofisica e Vulcanologia and archived at the European Integrated Data Archive http://eida.rm.ingv.it/
ORIGINAL_DATA_CREATOR: network: IV (Italian National Seismic Network); owner: Istituto Nazionale di Geofisica e Vulcanologia
USER1: 
USER2: 
USER3: 
USER4: 
USER5: 
[...]
-3.023858e-01
-3.032943e-01
-3.041363e-01
-3.051954e-01
-3.067095e-01
-3.088718e-01
-3.117844e-01
-3.153530e-01
-3.192403e-01
-3.229714e-01
-3.260968e-01
-3.283087e-01
-3.295304e-01
-3.299579e-01
-3.300055e-01
-3.302095e-01
-3.311300e-01
-3.332175e-01
-3.366875e-01
-3.414469e-01
-3.470707e-01
-3.529061e-01
-3.583208e-01
-3.629015e-01
-3.664706e-01
-3.690136e-01
-3.706217e-01
-3.714535e-01
-3.717283e-01
-3.717630e-01
-3.720075e-01
-3.729653e-01
-3.749786e-01
-3.780580e-01
-3.818905e-01
-3.859432e-01
-3.896298e-01
-3.925633e-01
-3.947230e-01
-3.963917e-01
-3.979854e-01
-3.998836e-01
-4.022399e-01
-4.048840e-01
-4.074293e-01
-4.094578e-01
-4.106271e-01
-4.107203e-01
-4.096713e-01
-4.075564e-01
-4.045824e-01
-4.011059e-01
-3.976684e-01
-3.949541e-01
-3.935852e-01
-3.938755e-01
-3.957327e-01
-3.986999e-01
-4.020797e-01
-4.051611e-01
-4.074450e-01
-4.086921e-01
-4.088186e-01
-4.078049e-01
-4.056921e-01
-4.026312e-01
-3.989371e-01
-3.951346e-01
-3.919126e-01
-3.899043e-01
-3.894197e-01
-3.903257e-01
-3.920679e-01
-3.938108e-01
-3.947558e-01
-3.944846e-01
-3.930857e-01
-3.910830e-01
-3.892570e-01
-3.883403e-01
-3.887123e-01
-3.903124e-01
-3.927495e-01
-3.954699e-01
-3.979572e-01
-3.999120e-01
-4.013129e-01
-4.023761e-01
-4.034569e-01
-4.048805e-01
-4.067758e-01
-4.090573e-01
-4.115493e-01
-4.141256e-01
-4.168063e-01
-4.197986e-01
-4.233891e-01
-4.276867e-01
-4.324700e-01
-4.373229e-01
-4.418818e-01
-4.459657e-01
-4.495979e-01
-4.529640e-01
-4.562903e-01
-4.597163e-01
-4.632866e-01
-4.670511e-01
-4.711335e-01
-4.756894e-01
-4.808180e-01
-4.865166e-01
-4.926770e-01
-4.991086e-01
-5.055972e-01
-5.119690e-01
-5.181182e-01
-5.240041e-01
-5.296320e-01
-5.350151e-01
-5.401369e-01
-5.449558e-01
-5.494502e-01
-5.536577e-01
-5.576789e-01
-5.616600e-01
-5.657512e-01
-5.700340e-01
-5.744598e-01
-5.788382e-01
-5.828577e-01
-5.861565e-01
-5.884593e-01
-5.896834e-01
-5.899445e-01
-5.895107e-01
-5.887452e-01
-5.880251e-01
-5.876730e-01
-5.879232e-01
-5.889033e-01
-5.905956e-01
-5.927791e-01
-5.950318e-01
-5.968727e-01
-5.979445e-01
-5.981000e-01
-5.974085e-01
-5.961249e-01
-5.946110e-01
-5.932435e-01
-5.923346e-01
-5.920442e-01
-5.923251e-01
-5.929563e-01
-5.936176e-01
-5.939833e-01
-5.938475e-01
-5.932008e-01
-5.921772e-01
-5.909573e-01
-5.897248e-01
-5.886734e-01
-5.880052e-01
-5.878962e-01
-5.884516e-01
-5.896881e-01
-5.915415e-01
-5.938845e-01
-5.965541e-01
-5.993811e-01
-6.022134e-01
-6.049434e-01
-6.075223e-01
-6.099472e-01
-6.122375e-01
-6.144255e-01
-6.165634e-01
-6.187372e-01
-6.210891e-01
-6.238299e-01
-6.271945e-01
-6.313305e-01
-6.362167e-01
-6.416835e-01
-6.474759e-01
-6.533067e-01
-6.589089e-01
-6.640840e-01
-6.687361e-01
-6.728945e-01
-6.767038e-01
-6.803777e-01
-6.841368e-01
-6.881340e-01
-6.923919e-01
-6.968023e-01
-7.011901e-01
-7.053830e-01
-7.092623e-01
-7.127965e-01
-7.160418e-01
-7.191130e-01
-7.221439e-01
-7.252434e-01
-7.284572e-01
-7.317694e-01
-7.351361e-01
-7.385113e-01
-7.418427e-01
-7.450542e-01
-7.480465e-01
-7.507225e-01
-7.530206e-01
-7.549496e-01
-7.566102e-01
-7.581534e-01
-7.596736e-01
-7.611359e-01
-7.624102e-01
-7.633551e-01
-7.638901e-01
-7.640615e-01
-7.640510e-01
-7.640762e-01
-7.642561e-01
-7.645550e-01
-7.647994e-01
-7.647333e-01
-7.641198e-01
-7.628452e-01
-7.609530e-01
-7.586128e-01
-7.560535e-01
-7.534588e-01
-7.508673e-01
-7.481740e-01
-7.452314e-01
-7.419565e-01
-7.383966e-01
-7.347532e-01
-7.313187e-01
-7.283197e-01
-7.258043e-01
-7.236671e-01
-7.217378e-01
-7.198589e-01
-7.179581e-01
-7.160841e-01
-7.143657e-01
-7.129419e-01
-7.119144e-01
-7.113155e-01
-7.110921e-01
-7.111216e-01
-7.112398e-01
-7.112732e-01
-7.110833e-01
-7.106121e-01
-7.099143e-01
-7.091710e-01
-7.086438e-01
-7.085570e-01
-7.089925e-01
-7.098539e-01
-7.108808e-01
-7.117347e-01
-7.121701e-01
-7.121597e-01
-7.118767e-01
-7.116111e-01
-7.116922e-01
-7.124081e-01
-7.139473e-01
-7.163947e-01
-7.197489e-01
-7.239244e-01
-7.287385e-01
-7.339130e-01
-7.391174e-01
-7.440300e-01
-7.484031e-01
-7.521426e-01
-7.553413e-01
-7.582060e-01
-7.609459e-01
-7.637112e-01
-7.665774e-01
-7.695680e-01
-7.727362e-01
-7.762503e-01
-7.803702e-01
-7.853037e-01
-7.910635e-01
-7.973933e-01
-8.037588e-01
-8.094815e-01
-8.140374e-01
-8.172906e-01
-8.194950e-01
-8.211699e-01
-8.229062e-01
-8.250843e-01
-8.277041e-01
-8.305007e-01
-8.331719e-01
-8.355114e-01
-8.374590e-01
-8.390995e-01
-8.405920e-01
-8.420747e-01
-8.436032e-01
-8.451078e-01
-8.463842e-01
-8.471507e-01
-8.471358e-01
-8.461780e-01
-8.443527e-01
-8.420257e-01
-8.397356e-01
-8.380107e-01
-8.372361e-01
-8.375527e-01
-8.388222e-01
-8.407303e-01
-8.429331e-01
-8.451429e-01
-8.471676e-01
-8.489210e-01
-8.503891e-01
-8.515887e-01
-8.525690e-01
-8.534467e-01
-8.543917e-01
-8.555044e-01
-8.566712e-01
-8.575557e-01
-8.577387e-01
-8.568889e-01
-8.549136e-01
-8.520599e-01
-8.488535e-01
-8.458666e-01
-8.435135e-01
-8.419878e-01
-8.412817e-01
-8.412368e-01
-8.416207e-01
-8.421691e-01
-8.425561e-01
-8.423459e-01
-8.410410e-01
-8.382498e-01
-8.338452e-01
-8.280274e-01
-8.213220e-01
-8.144823e-01
-8.082798e-01
-8.033254e-01
-8.000145e-01
-7.985184e-01
-7.987100e-01
-8.000224e-01
-8.014596e-01
-8.019547e-01
-8.008208e-01
-7.979174e-01
-7.935505e-01
-7.882784e-01
-7.826508e-01
-7.769833e-01
-7.713701e-01
-7.658979e-01
-7.607541e-01
-7.560375e-01
-7.514928e-01
-7.465485e-01
-7.406830e-01
-7.337328e-01
-7.259063e-01
-7.176387e-01
-7.093910e-01
-7.013875e-01
-6.934911e-01
-6.853945e-01
-6.769163e-01
-6.681088e-01
-6.591854e-01
-6.504127e-01
-6.420171e-01
-6.341267e-01
-6.268086e-01
-6.201836e-01
-6.144612e-01
-6.097818e-01
-6.060053e-01
-6.026755e-01
-5.991742e-01
-5.949197e-01
-5.895523e-01
-5.830558e-01
-5.756631e-01
-5.675581e-01
-5.587105e-01
-5.490713e-01
-5.388896e-01
-5.287743e-01
-5.194760e-01
-5.116084e-01
-5.054025e-01
-5.005515e-01
-4.963560e-01
-4.921840e-01
-4.878301e-01
-4.835068e-01
-4.796518e-01
-4.767178e-01
-4.749367e-01
-4.741996e-01
-4.741947e-01
-4.746346e-01
-4.753510e-01
-4.762670e-01
-4.773385e-01
-4.784931e-01
-4.795807e-01
-4.803759e-01
-4.806268e-01
-4.801031e-01
-4.786188e-01
-4.760453e-01
-4.723500e-01
-4.676811e-01
-4.624515e-01
-4.573838e-01
-4.535093e-01
-4.520185e-01
-4.539189e-01
-4.597341e-01
-4.694113e-01
-4.823501e-01
-4.975296e-01
-5.137370e-01
-5.297352e-01
-5.442583e-01
-5.559767e-01
-5.637289e-01
-5.670691e-01
-5.666015e-01
-5.636839e-01
-5.598733e-01
-5.565181e-01
-5.544442e-01
-5.538385e-01
-5.545140e-01
-5.562824e-01
-5.590487e-01
-5.626519e-01
-5.667502e-01
-5.709149e-01
-5.748011e-01
-5.782099e-01
-5.810538e-01
-5.833287e-01
-5.851399e-01
-5.867300e-01
-5.883807e-01
-5.901727e-01
-5.918457e-01
-5.929432e-01
-5.930708e-01
-5.920598e-01
-5.900412e-01
-5.874000e-01
-5.845268e-01
-5.815375e-01
-5.782401e-01
-5.743392e-01
-5.696162e-01
-5.639482e-01
-5.572472e-01
-5.494094e-01
-5.402881e-01
-5.297043e-01
-5.175204e-01
-5.037360e-01
-4.885502e-01
-4.723860e-01
-4.558230e-01
-4.393697e-01
-4.232186e-01
-4.072604e-01
-3.913575e-01
-3.755903e-01
-3.603080e-01
-3.460505e-01
-3.333199e-01
-3.221864e-01
-3.120674e-01
-3.019557e-01
-2.908236e-01
-2.778967e-01
-2.628466e-01
-2.458999e-01
-2.277863e-01
-2.096084e-01
-1.926259e-01
-1.778857e-01
-1.658540e-01
-1.561822e-01
-1.476154e-01
-1.382876e-01
-1.264729e-01
-1.112491e-01
-9.271607e-02
-7.194017e-02
-5.063450e-02
-3.053828e-02
-1.289031e-02
1.731819e-03
1.337946e-02
2.263404e-02
3.043318e-02
3.782906e-02
4.565206e-02
5.419258e-02
6.313833e-02
7.176500e-02
7.923430e-02
8.498070e-02
8.905165e-02
9.209261e-02
9.497667e-02
9.841067e-02
1.026783e-01
1.075126e-01
1.122185e-01
1.160505e-01
1.185442e-01
1.196157e-01
1.195259e-01
1.187531e-01
1.177750e-01
1.169220e-01
1.164166e-01
1.164805e-01
1.173299e-01
1.190442e-01
1.214563e-01
1.241631e-01
1.266149e-01
1.283095e-01
1.291093e-01
1.294087e-01
1.299170e-01
1.312970e-01
1.339542e-01
1.379555e-01
1.430615e-01
1.489328e-01
1.553625e-01
1.622795e-01
1.695313e-01
1.767080e-01
1.831630e-01
1.881363e-01
1.909283e-01
1.911586e-01
1.889732e-01
1.850807e-01
1.806850e-01
1.772799e-01
1.762462e-01
1.784703e-01
1.841401e-01
1.926934e-01
2.030618e-01
2.142255e-01
2.256003e-01
2.369171e-01
2.478992e-01
2.581597e-01
2.673472e-01
2.753614e-01
2.825594e-01
2.898729e-01
2.985491e-01
3.094754e-01
3.226772e-01
3.374068e-01
3.524945e-01
3.666361e-01
3.786583e-01
3.877477e-01
3.935884e-01
3.964343e-01
3.970693e-01
3.966347e-01
3.963908e-01
3.974145e-01
4.003119e-01
4.050875e-01
4.111556e-01
4.175099e-01
4.231549e-01
4.275822e-01
4.309383e-01
4.338952e-01
4.373520e-01
4.419404e-01
4.475600e-01
4.534036e-01
4.584553e-01
4.619309e-01
4.633663e-01
4.625346e-01
4.594143e-01
4.542363e-01
4.475172e-01
4.400105e-01
4.326148e-01
4.262501e-01
4.216661e-01
4.192862e-01
4.191739e-01
4.210526e-01
4.243227e-01
4.281017e-01
4.313745e-01
4.333443e-01
4.338008e-01
4.331643e-01
4.322106e-01
4.317605e-01
4.324580e-01
4.346321e-01
4.382938e-01
4.432347e-01
4.491113e-01
4.554641e-01
4.617159e-01
4.672469e-01
4.715786e-01
4.745242e-01
4.762020e-01
4.769764e-01
4.773575e-01
4.778409e-01
4.787638e-01
4.802376e-01
4.821283e-01
4.840927e-01
4.856631e-01
4.863192e-01
4.855088e-01
4.826636e-01
4.773297e-01
4.694468e-01
4.595408e-01
4.486403e-01
4.380529e-01
4.290791e-01
4.226279e-01
4.190139e-01
4.181866e-01
4.200725e-01
4.245351e-01
4.309715e-01
4.381398e-01
4.446385e-01
4.496150e-01
4.531133e-01
4.560671e-01
4.600021e-01
4.663254e-01
4.755915e-01
4.874414e-01
5.011669e-01
5.161908e-01
5.320885e-01
5.484162e-01
5.647292e-01
5.808208e-01
5.968508e-01
6.131252e-01
6.297482e-01
6.464507e-01
6.625945e-01
6.773154e-01
6.898575e-01
6.999289e-01
7.077856e-01
7.140619e-01
7.195521e-01
7.250074e-01
7.309665e-01
7.376488e-01
7.448889e-01
7.521848e-01
7.589684e-01
7.649272e-01
7.701141e-01
7.748696e-01
7.797046e-01
7.851839e-01
7.918174e-01
7.999571e-01
8.096821e-01
8.207914e-01
8.330290e-01
8.463436e-01
8.608331e-01
8.763764e-01
8.923971e-01
9.080539e-01
9.226167e-01
9.357513e-01
9.477130e-01
9.592910e-01
9.712911e-01
9.839313e-01
9.967748e-01
1.009179e+00
1.020691e+00
1.031088e+00
1.040252e+00
1.048105e+00
1.054645e+00
1.059989e+00
1.064399e+00
1.068289e+00
1.072234e+00
1.076950e+00
1.083166e+00
1.091312e+00
1.101188e+00
1.111891e+00
1.122066e+00
1.130307e+00
1.135737e+00
1.138502e+00
1.139632e+00
1.140254e+00
1.140959e+00
1.141778e+00
1.142466e+00
1.142760e+00
1.142607e+00
1.142265e+00
1.142165e+00
1.142691e+00
1.144087e+00
1.146449e+00
1.149727e+00
1.153674e+00
1.157802e+00
1.161453e+00
1.164024e+00
1.165153e+00
1.164740e+00
1.162888e+00
1.159821e+00
1.155781e+00
1.150971e+00
1.145616e+00
1.140023e+00
1.134502e+00
1.129106e+00
1.123500e+00
1.117168e+00
1.109742e+00
1.101223e+00
1.092087e+00
1.083261e+00
1.075863e+00
1.070884e+00
1.069031e+00
1.070678e+00
1.075801e+00
1.083865e+00
1.093738e+00
1.103881e+00
1.112849e+00
1.119683e+00
1.123887e+00
1.125267e+00
1.123967e+00
1.120729e+00
1.116959e+00
1.114276e+00
1.113894e+00
1.116272e+00
1.121005e+00
1.126962e+00
1.132838e+00
1.137766e+00
1.141454e+00
1.143925e+00
1.145325e+00
1.146046e+00
1.146919e+00
1.148979e+00
1.152753e+00
1.157840e+00
1.163325e+00
1.168510e+00
1.173254e+00
1.177934e+00
1.183282e+00
1.190087e+00
1.198923e+00
1.210054e+00
1.223491e+00
1.238997e+00
1.255969e+00
1.273336e+00
1.289782e+00
1.304347e+00
1.316823e+00
1.327540e+00
1.336918e+00
1.345289e+00
1.352969e+00
1.360319e+00
1.367650e+00
1.375095e+00
1.382641e+00
1.390330e+00
1.398386e+00
1.407113e+00
1.416679e+00
1.426963e+00
1.437442e+00
1.447231e+00
1.455403e+00
1.461384e+00
1.465146e+00
1.467215e+00
1.468550e+00
1.470221e+00
1.473033e+00
1.477311e+00
1.482806e+00
1.488818e+00
1.494678e+00
1.500274e+00
1.506039e+00
1.512418e+00
1.519409e+00
1.526527e+00
1.532991e+00
1.537957e+00
1.540830e+00
1.541529e+00
1.540589e+00
1.539153e+00
1.538721e+00
1.540641e+00
1.545670e+00
1.553898e+00
1.564846e+00
1.577646e+00
1.591315e+00
1.604946e+00
1.617727e+00
1.628902e+00
1.637939e+00
1.644900e+00
1.650597e+00
1.656184e+00
1.662565e+00
1.670167e+00
1.679037e+00
1.688976e+00
1.699613e+00
1.710450e+00
1.720983e+00
1.730931e+00
1.740376e+00
1.749640e+00
1.759066e+00
1.768906e+00
1.779302e+00
1.790329e+00
1.802100e+00
1.814854e+00
1.828799e+00
1.843723e+00
1.858796e+00
1.872879e+00
1.885038e+00
1.894810e+00
1.902278e+00
1.908001e+00
1.912742e+00
1.917132e+00
1.921407e+00
1.925218e+00
1.927717e+00
1.928173e+00
1.926686e+00
1.924262e+00
1.922228e+00
1.921633e+00
1.922942e+00
1.925954e+00
1.930011e+00
1.934478e+00
1.939014e+00
1.943342e+00
1.946844e+00
1.948539e+00
1.947487e+00
1.943163e+00
1.935545e+00
1.925081e+00
1.912636e+00
1.899422e+00
1.886808e+00
1.875914e+00
1.867169e+00
1.860202e+00
1.854046e+00
1.847485e+00
1.839526e+00
1.829831e+00
1.818803e+00
1.807330e+00
1.796455e+00
1.787034e+00
1.779473e+00
1.773705e+00
1.769413e+00
1.766286e+00
1.764211e+00
1.763375e+00
1.764120e+00
1.766531e+00
1.770205e+00
1.774462e+00
1.778738e+00
1.782745e+00
1.786415e+00
1.789794e+00
1.792933e+00
1.795806e+00
1.798332e+00
1.800487e+00
1.802381e+00
1.804223e+00
1.806244e+00
1.808647e+00
1.811586e+00
1.815098e+00
1.818986e+00
1.822700e+00
1.825401e+00
1.826233e+00
1.824591e+00
1.820275e+00
1.813536e+00
1.804966e+00
1.795214e+00
1.784777e+00
1.774026e+00
1.763335e+00
1.753171e+00
1.744104e+00
1.736730e+00
1.731459e+00
1.728272e+00
1.726679e+00
1.725883e+00
1.724978e+00
1.723150e+00
1.719855e+00
1.714920e+00
1.708594e+00
1.701512e+00
1.694464e+00
1.688110e+00
1.682761e+00
1.678223e+00
1.673771e+00
1.668441e+00
1.661402e+00
1.652193e+00
1.640847e+00
1.627885e+00
1.614082e+00
1.600158e+00
1.586603e+00
1.573586e+00
1.560980e+00
1.548551e+00
1.536204e+00
1.524087e+00
1.512595e+00
1.502303e+00
1.493838e+00
1.487713e+00
1.484137e+00
1.482755e+00
1.482547e+00
1.482089e+00
1.479963e+00
1.475063e+00
1.466857e+00
1.455464e+00
1.441332e+00
1.424843e+00
1.406268e+00
1.386070e+00
1.365113e+00
1.344497e+00
1.325247e+00
1.308086e+00
1.293277e+00
1.280609e+00
1.269644e+00
1.260033e+00
1.251629e+00
1.244444e+00
1.238575e+00
1.234171e+00
1.231389e+00
1.230233e+00
1.230268e+00
1.230495e+00
1.229659e+00
1.226716e+00
1.221096e+00
1.212810e+00
1.202422e+00
1.190797e+00
1.178788e+00
1.167015e+00
1.155694e+00
1.144562e+00
1.132996e+00
1.120214e+00
1.105490e+00
1.088423e+00
1.069088e+00
1.047932e+00
1.025575e+00
1.002743e+00
9.803099e-01
9.592419e-01
9.403329e-01
9.238764e-01
9.095410e-01
8.964380e-01
8.832993e-01
8.687922e-01
8.518565e-01
8.319264e-01
8.090919e-01
7.841309e-01
7.582733e-01
7.328669e-01
7.091021e-01
6.877409e-01
6.689716e-01
6.525543e-01
6.380688e-01
6.250355e-01
6.129352e-01
6.012207e-01
5.893542e-01
5.768480e-01
5.632849e-01
5.483402e-01
5.318601e-01
5.140344e-01
4.955645e-01
4.775837e-01
4.612927e-01
4.475869e-01
4.368300e-01
4.287500e-01
4.225425e-01
4.171883e-01
4.117598e-01
4.055925e-01
3.983724e-01
3.901685e-01
3.814181e-01
3.728068e-01
3.649563e-01
3.580876e-01
3.519524e-01
3.460222e-01
3.397211e-01
3.326215e-01
3.245845e-01
3.157823e-01
3.066220e-01
2.976571e-01
2.895095e-01
2.827807e-01
2.778579e-01
2.745807e-01
2.720649e-01
2.689478e-01
2.638067e-01
2.555136e-01
2.435813e-01
2.283338e-01
2.106861e-01
1.917813e-01
1.727549e-01
1.545691e-01
1.378745e-01
1.229249e-01
1.095369e-01
9.716566e-02
8.511570e-02
7.275923e-02
5.968699e-02
4.580005e-02
3.130565e-02
1.662661e-02
2.290892e-03
-1.118385e-02
-2.341006e-02
-3.428076e-02
-4.416699e-02
-5.394266e-02
-6.462335e-02
-7.687642e-02
-9.075043e-02
-1.056058e-01
-1.202752e-01
-1.336003e-01
-1.450384e-01
-1.548432e-01
-1.638448e-01
-1.731009e-01
-1.834776e-01
-1.952804e-01
-2.081881e-01
-2.214667e-01
-2.342530e-01
-2.458492e-01
-2.559605e-01
-2.647110e-01
-2.724528e-01
-2.795573e-01
-2.862650e-01
-2.926062e-01
-2.984772e-01
-3.038656e-01
-3.090055e-01
-3.143155e-01
-3.202406e-01
-3.271252e-01
-3.351008e-01
-3.440191e-01
-3.534821e-01
-3.629149e-01
-3.716521e-01
-3.790682e-01
-3.847173e-01
-3.884550e-01
-3.905297e-01
-3.915750e-01
-3.924930e-01
-3.942807e-01
-3.978008e-01
-4.035521e-01
-4.115223e-01
-4.211023e-01
-4.311547e-01
-4.403762e-01
-4.477418e-01
-4.527479e-01
-4.554962e-01
-4.566382e-01
-4.570875e-01
-4.576712e-01
-4.589345e-01
-4.610504e-01
-4.638014e-01
-4.666865e-01
-4.690734e-01
-4.703451e-01
-4.700744e-01
-4.681498e-01
-4.647658e-01
-4.603531e-01
-4.555052e-01
-4.508849e-01
-4.471120e-01
-4.446405e-01
-4.436546e-01
-4.440765e-01
-4.456820e-01
-4.482228e-01
-4.515062e-01
-4.554299e-01
-4.599289e-01
-4.648392e-01
-4.698193e-01
-4.744291e-01
-4.782691e-01
-4.810579e-01
-4.826571e-01
-4.830677e-01
-4.823854e-01
-4.807425e-01
-4.782663e-01
-4.750454e-01
-4.711272e-01
-4.665773e-01
-4.615577e-01
-4.563588e-01
-4.513825e-01
-4.470842e-01
-4.438603e-01
-4.419325e-01
-4.413171e-01
-4.418724e-01
-4.433565e-01
-4.454768e-01
-4.479287e-01
-4.504300e-01
-4.527622e-01
-4.547898e-01
-4.564262e-01
-4.575799e-01
-4.581185e-01
-4.578536e-01
-4.565559e-01
-4.540256e-01
-4.501808e-01
-4.451192e-01
-4.391584e-01
-4.328267e-01
-4.267513e-01
-4.215162e-01
-4.175611e-01
-4.151007e-01
-4.140898e-01
-4.142841e-01
-4.153322e-01
-4.168284e-01
-4.183411e-01
-4.194474e-01
-4.197853e-01
-4.191053e-01
-4.172934e-01
-4.143733e-01
-4.105025e-01
-4.059580e-01
-4.011235e-01
-3.964750e-01
-3.925500e-01
-3.898775e-01
-3.888486e-01
-3.895761e-01
-3.918342e-01
-3.950766e-01
-3.985328e-01
-4.014298e-01
-4.032365e-01
-4.037864e-01
-4.033032e-01
-4.023514e-01
-4.016655e-01
-4.019462e-01
-4.037238e-01
-4.072525e-01
-4.124615e-01
-4.190254e-01
-4.264783e-01
-4.343021e-01
-4.420094e-01
-4.492173e-01
-4.556909e-01
-4.613657e-01
-4.663370e-01
-4.708079e-01
-4.750056e-01
-4.790608e-01
-4.829033e-01
-4.862966e-01
-4.890122e-01
-4.909637e-01
-4.921925e-01
-4.927904e-01
-4.928684e-01
-4.925729e-01
-4.920872e-01
-4.915783e-01
-4.911215e-01
-4.906386e-01
-4.898560e-01
-4.883498e-01
-4.857543e-01
-4.819941e-01
-4.772953e-01
-4.719831e-01
-4.663114e-01
-4.604597e-01
-4.545992e-01
