EVENT_NAME: EMILIA_2ND_SHOCK
EVENT_ID: IT-2012-0011
EVENT_DATE_YYYYMMDD: 20120529
EVENT_TIME_HHMMSS: 070002
EVENT_LATITUDE_DEGREE: 44.8417
EVENT_LONGITUDE_DEGREE: 11.0657
EVENT_DEPTH_KM: 8.1
HYPOCENTER_REFERENCE: INGV-CNT_Seismic_Bulletin
MAGNITUDE_W: 6.0
MAGNITUDE_W_REFERENCE: RCMT-INGV
MAGNITUDE_L: 5.8
MAGNITUDE_L_REFERENCE: INGV-CNT_Seismic_Bulletin
FOCAL_MECHANISM: TF
NETWORK: IV
STATION_CODE: T0812
STATION_NAME: T0812
STATION_LATITUDE_DEGREE: 44.954700
STATION_LONGITUDE_DEGREE: 11.181000
STATION_ELEVATION_M: 7
LOCATION: 
SENSOR_DEPTH_M: 1.0
VS30_M/S: 
SITE_CLASSIFICATION_EC8: C*
MORPHOLOGIC_CLASSIFICATION: 
EPICENTRAL_DISTANCE_KM: 15.5
EARTHQUAKE_BACKAZIMUTH_DEGREE: 216.0
DATE_TIME_FIRST_SAMPLE_YYYYMMDD_HHMMSS: 20120529_065952.000
DATE_TIME_FIRST_SAMPLE_PRECISION: milliseconds
SAMPLING_INTERVAL_S: 0.005000
NDATA: 30001
DURATION_S: 150.005
STREAM: HNZ
UNITS: cm/s^2
INSTRUMENT: sensor = Episensor FBA ES-T [Kinemetrics] | digitizer = Unknown [Unknown]
INSTRUMENT_ANALOG/DIGITAL: D
INSTRUMENTAL_FREQUENCY_HZ: 
INSTRUMENTAL_DAMPING: 
FULL_SCALE_G: 
N_BIT_DIGITAL_CONVERTER: 
PGA_CM/S^2: -108.853865
TIME_PGA_S: 19.195000
BASELINE_CORRECTION: BASELINE REMOVED
FILTER_TYPE: BUTTERWORTH
FILTER_ORDER: 2
LOW_CUT_FREQUENCY_HZ: 0.060
HIGH_CUT_FREQUENCY_HZ: 40.000
LATE/NORMAL_TRIGGERED: NT
DATABASE_VERSION: DYNA 1.0
HEADER_FORMAT: DYNA 1.2
DATA_TYPE: ACCELERATION
PROCESSING: manual (Paolucci et al., 2011)
DATA_TIMESTAMP_YYYYMMDD_HHMMSS: 
DATA_LICENSE: CC-BY4_0 (http://creativecommons.org/licenses/by/4.0/)
DATA_CITATION: ESM working group (2015), European Strong-Motion database, version 0.1, Network Activity 3: Networking acceleration networks and SM data users. Project NERA (www.nera-eu.org)
DATA_CREATOR: ESM working group
ORIGINAL_DATA_MEDIATOR_CITATION: Orfeus - European Integrated Data Archive (EIDA) http://www.orfeus-eu.org/eida/
ORIGINAL_DATA_MEDIATOR: Orfeus - European Integrated Data Archive (EIDA)
ORIGINAL_DATA_CREATOR_CITATION: Data for this study comes from the Italian national seismic network operated by Istituto Nazionale di Geofisica e Vulcanologia and archived at the European Integrated Data Archive http://eida.rm.ingv.it/
ORIGINAL_DATA_CREATOR: network: IV (Italian National Seismic Network); owner: Istituto Nazionale di Geofisica e Vulcanologia
USER1: 
USER2: 
USER3: 
USER4: 
USER5: 
[...]
-0.001299
-0.001799
-0.002892
-0.004112
-0.004575
-0.004241
-0.003956
-0.004347
-0.005268
-0.006139
-0.006329
-0.005596
-0.004518
-0.004113
-0.004813
-0.006153
-0.007680
-0.009260
-0.010106
-0.009168
-0.006965
-0.005448
-0.005649
-0.006661
-0.007487
-0.008415
-0.009534
-0.009866
-0.009008
-0.008063
-0.008070
-0.008445
-0.008062
-0.007295
-0.007597
-0.009183
-0.010374
-0.009792
-0.008113
-0.006900
-0.006669
-0.006804
-0.006703
-0.006252
-0.005514
-0.004784
-0.004589
-0.005057
-0.005646
-0.005783
-0.005504
-0.005313
-0.005519
-0.005876
-0.005902
-0.005349
-0.004269
-0.003000
-0.002365
-0.003270
-0.005493
-0.007228
-0.006922
-0.005549
-0.005630
-0.007935
-0.010427
-0.010627
-0.008267
-0.005324
-0.003941
-0.004586
-0.005889
-0.006207
-0.005421
-0.004779
-0.005032
-0.005482
-0.005059
-0.003705
-0.002206
-0.001339
-0.001712
-0.003399
-0.005323
-0.006025
-0.005358
-0.004749
-0.005388
-0.006909
-0.008314
-0.009112
-0.009158
-0.008510
-0.007843
-0.008288
-0.010249
-0.012608
-0.013666
-0.012801
-0.011000
-0.009827
-0.009853
-0.010134
-0.009416
-0.007614
-0.005771
-0.004951
-0.005493
-0.006877
-0.007908
-0.007379
-0.005345
-0.003332
-0.002590
-0.002823
-0.003107
-0.003297
-0.003971
-0.005237
-0.006205
-0.005973
-0.004926
-0.004493
-0.005372
-0.006460
-0.006262
-0.005080
-0.004556
-0.005253
-0.006030
-0.005947
-0.005580
-0.005761
-0.006216
-0.006392
-0.006576
-0.007150
-0.007395
-0.006337
-0.004618
-0.004124
-0.005779
-0.008564
-0.010738
-0.011451
-0.010991
-0.010049
-0.009195
-0.008809
-0.008945
-0.009076
-0.008478
-0.007102
-0.005765
-0.005232
-0.005414
-0.005845
-0.006476
-0.007486
-0.008612
-0.009092
-0.008343
-0.006602
-0.004838
-0.004051
-0.004597
-0.006022
-0.007425
-0.008047
-0.007701
-0.006671
-0.005470
-0.004876
-0.005557
-0.007201
-0.008605
-0.008948
-0.008597
-0.008328
-0.008216
-0.007858
-0.007229
-0.006649
-0.006206
-0.005751
-0.005473
-0.006072
-0.007994
-0.010582
-0.012423
-0.012673
-0.011604
-0.009842
-0.007668
-0.005351
-0.003577
-0.002834
-0.002744
-0.002594
-0.002245
-0.002258
-0.003217
-0.004975
-0.006575
-0.007110
-0.006949
-0.007650
-0.009848
-0.012060
-0.012774
-0.012600
-0.013079
-0.014098
-0.014127
-0.012880
-0.011787
-0.011763
-0.012160
-0.012046
-0.011444
-0.010843
-0.010308
-0.009659
-0.008982
-0.008601
-0.008730
-0.009176
-0.009370
-0.008833
-0.007614
-0.006249
-0.005392
-0.005492
-0.006438
-0.007250
-0.006613
-0.004461
-0.002544
-0.002611
-0.004321
-0.005819
-0.006226
-0.006226
-0.006248
-0.005767
-0.004658
-0.004035
-0.005014
-0.007276
-0.009558
-0.010932
-0.011230
-0.010855
-0.010443
-0.010486
-0.011171
-0.012455
-0.014078
-0.015440
-0.015808
-0.015051
-0.013986
-0.013662
-0.014382
-0.015701
-0.017155
-0.018372
-0.018623
-0.017198
-0.014466
-0.011910
-0.010685
-0.010547
-0.010569
-0.010327
-0.009965
-0.009505
-0.008585
-0.006933
-0.004888
-0.003360
-0.003143
-0.003991
-0.004693
-0.004522
-0.004013
-0.003855
-0.003875
-0.003726
-0.003914
-0.005100
-0.006856
-0.008308
-0.009515
-0.011059
-0.012551
-0.012750
-0.011411
-0.009816
-0.009224
-0.009855
-0.011210
-0.012600
-0.013455
-0.013578
-0.013214
-0.012785
-0.012656
-0.013216
-0.014732
-0.016717
-0.017811
-0.016836
-0.014123
-0.011480
-0.010632
-0.011763
-0.013679
-0.015265
-0.016562
-0.018566
-0.022473
-0.029437
-0.041031
-0.059225
-0.085181
-0.117664
-0.151829
-0.179774
-0.195197
-0.201300
-0.214194
-0.254106
-0.329733
-0.430436
-0.532362
-0.611016
-0.651764
-0.655438
-0.636479
-0.616216
-0.622675
-0.691788
-0.846092
-1.057324
-1.238754
-1.293583
-1.184821
-0.968658
-0.767913
-0.697842
-0.785072
-0.949146
-1.074724
-1.101247
-1.032473
-0.869277
-0.574155
-0.136581
0.330930
0.613245
0.567943
0.285715
0.049108
0.109914
0.487796
0.968538
1.286053
1.305342
1.061861
0.692225
0.368017
0.248539
0.363367
0.488406
0.278601
-0.335295
-0.940747
-1.024390
-0.571832
-0.108236
-0.093672
-0.410419
-0.571123
-0.358437
-0.143851
-0.639884
-2.278659
-4.570184
-6.043608
-5.250239
-2.287662
0.975339
2.680067
2.640429
2.029398
1.917753
2.407787
2.848793
2.473560
1.106393
-0.369616
-0.652663
0.510153
1.814233
1.752655
0.335106
-0.998097
-0.941266
0.627319
2.699765
3.765651
2.708317
-0.381888
-4.216801
-7.361544
-9.126658
-9.367558
-8.057092
-5.418205
-2.125364
0.997415
3.451131
4.962955
5.154217
3.869373
1.784045
0.150537
-0.310531
0.036060
0.373329
0.212882
-0.378342
-0.874574
-0.667449
0.310305
1.293492
1.300853
0.108510
-1.630150
-3.022962
-3.354512
-2.217385
0.210829
2.925352
4.489684
3.993032
1.654706
-1.379677
-3.718792
-4.477264
-3.739450
-2.371830
-1.143166
0.018616
1.575744
3.336671
4.382960
4.034871
2.608598
1.160511
0.535895
0.629803
0.564480
-0.267792
-1.335652
-1.428071
-0.039986
1.933386
2.895092
1.918782
-0.375597
-2.268610
-2.432294
-1.028071
0.713018
1.852708
2.366788
2.527611
2.291863
1.396341
-0.314490
-2.641318
-4.871190
-5.922906
-5.001784
-2.286907
1.118549
3.833679
4.767427
3.449957
0.272543
-3.445470
-5.906099
-5.889999
-3.739643
-1.221515
-0.105404
-0.676709
-1.484375
-0.552655
2.799308
7.094582
9.804438
9.431011
6.557396
3.128589
0.938213
0.684522
1.985165
3.926946
5.705881
6.965611
7.599521
7.220219
5.026746
0.616146
-5.030798
-9.787023
-11.908570
-11.256953
-9.009930
-6.525552
-4.523680
-3.008446
-1.792506
-1.039454
-1.180756
-2.192446
-3.007500
-1.908437
2.127976
8.210485
13.771167
16.349108
15.300946
11.781265
7.295808
2.719147
-1.487782
-4.759351
-6.151783
-4.594185
-0.034702
5.587444
9.167185
8.528205
3.779657
-3.008311
-9.120789
-12.526592
-12.667785
-10.236867
-6.253037
-1.674699
2.353632
4.670295
4.685268
2.606767
-0.756339
-4.179314
-6.200605
-5.641626
-2.349797
2.413614
6.363160
7.347581
4.697359
-0.299258
-5.241587
-7.943152
-7.402574
-4.259305
-0.434259
2.126791
2.701848
1.989276
1.298239
1.640500
3.207405
5.236257
6.555813
6.578080
5.629312
4.261527
2.602752
0.727799
-0.727119
-1.047563
-0.434672
-0.001111
-0.711157
-2.507511
-4.419066
-5.164236
-3.675482
0.339181
5.889887
10.885685
13.236475
12.105452
8.396446
4.298265
2.037813
2.350578
3.819683
3.869073
0.809681
-4.816624
-10.761091
-14.681127
-15.347532
-12.893474
-8.386695
-3.173363
1.538714
4.727338
5.661956
4.301144
1.507761
-1.368778
-3.303909
-4.155133
-4.438898
-4.480288
-3.880812
-2.071761
0.633355
2.804287
2.758078
-0.283064
-5.560623
-11.206640
-15.482746
-17.561083
-17.169956
-14.051848
-8.230976
-0.652758
6.818435
12.268833
14.829431
15.045973
14.169563
13.119925
12.038675
10.543145
8.293897
5.403732
2.374264
-0.271986
-2.267629
-3.632619
-4.570969
-5.285533
-5.749448
-5.735287
-5.253336
-4.913163
-5.534088
-7.140323
-8.470883
-7.766250
-4.207943
1.342013
6.890601
10.368355
10.392987
6.766277
0.601954
-6.133135
-11.243314
-12.772290
-9.752508
-3.280844
3.433228
6.981769
6.079028
2.135943
-2.072348
-4.318309
-4.116488
-2.599275
-1.350700
-1.194112
-1.877808
-2.672539
-3.068856
-2.935431
-2.288095
-1.246423
-0.333097
-0.573920
-2.877464
-7.029996
-11.297311
-13.251903
-11.367378
-6.057425
0.736042
6.852660
10.910060
12.518018
12.035655
10.082193
7.104073
3.626742
0.727996
-0.441063
0.186742
1.158930
0.454005
-2.933698
-8.071594
-12.495223
-13.808172
-11.543129
-7.664099
-4.990562
-4.962554
-6.886921
-9.096786
-10.428859
-10.652326
-10.042394
-8.964403
-7.968524
-8.081796
-10.440366
-15.036346
-19.718348
-20.930443
-16.234459
-6.524769
4.209794
11.247468
11.629078
5.569091
-3.393819
-10.112699
-11.144783
-6.675208
0.843294
9.074434
16.555046
22.127670
24.649014
23.249611
17.705824
9.091852
0.057592
-6.474368
-9.351379
-9.803778
-10.019243
-11.392899
-14.247757
-18.398943
-23.069342
-26.416527
-25.854679
-19.627913
-8.777159
2.409941
8.679591
7.665710
2.192172
-1.440723
1.854311
12.123467
24.486202
32.897339
34.209747
29.071882
19.670034
7.822485
-4.715735
-15.494224
-21.834955
-22.197624
-17.368784
-10.590068
-5.969073
-5.784554
-8.975548
-12.187572
-12.030762
-6.766136
2.918433
14.090729
23.124191
28.000509
29.068327
27.456724
23.605183
17.482899
9.430544
0.486353
-7.843664
-13.834147
-15.980898
-14.104791
-10.152976
-7.069076
-6.247269
-6.455352
-5.425695
-1.999426
3.166973
8.297799
11.728120
12.986066
13.090235
13.368919
13.640676
12.096222
7.185078
-0.594498
-8.472851
-13.021386
-12.813860
-9.921998
-8.409478
-10.876188
-16.597366
-22.978067
-27.874746
-30.359875
-30.335888
-27.947594
-23.211016
-16.272663
-7.882754
0.824513
8.944823
15.830966
20.600079
22.187403
20.182270
15.392951
9.283966
3.004163
-2.396582
-5.263173
-4.324267
-0.519183
3.215228
4.550929
3.948054
4.034512
6.994664
12.346049
16.846243
16.933159
11.924944
5.023240
1.009475
2.634812
8.919363
16.390865
21.515516
22.504673
19.758303
14.890725
9.066818
2.131503
-6.433431
-15.967558
-24.435019
-29.081610
-27.275145
-18.554148
-6.598399
2.128136
2.762419
-4.570758
-15.163156
-22.620546
-21.946276
-12.092196
3.368654
18.655409
29.405981
34.523121
35.372246
33.643745
29.811802
23.419033
14.483148
4.359920
-4.282629
-8.322262
-6.024467
1.512140
10.969480
18.741070
22.311529
20.736053
14.928156
7.494438
1.605480
-0.169445
3.550374
12.229237
22.998556
31.717577
34.660557
29.518986
16.115898
-2.918455
-22.681934
-38.026104
-45.332893
-43.155457
-32.583042
-16.937948
-0.238196
13.978765
22.962294
25.659220
23.797977
21.276890
21.957909
27.380297
35.606148
41.845470
41.082497
31.800797
17.400251
3.335336
-6.526263
-10.816710
-9.838897
-5.162215
0.316638
3.018781
0.120796
-8.863929
-20.904602
-30.086103
-30.892052
-21.532005
-4.215484
16.780130
36.777615
51.535717
57.676968
52.882359
36.629532
11.678309
-15.803751
-38.657692
-51.446461
-51.691509
-40.454418
-22.291498
-3.787093
8.718628
11.278278
3.733949
-10.524115
-26.196217
-37.254196
-37.686546
-23.838011
2.668111
34.751770
62.701286
77.595055
74.187164
52.930367
19.631184
-16.953646
-46.766747
-60.141739
-52.515915
-28.155851
2.679897
29.805603
47.143833
53.858284
52.299629
44.162243
29.353134
8.752037
-13.350881
-30.361170
-37.096680
-33.125641
-23.072624
-13.397851
-8.350116
-8.509935
-12.163778
-17.031879
-21.022135
-22.709187
-21.938297
-19.818882
-17.499338
-14.668992
-9.642147
-1.498418
7.770888
13.655281
11.930564
1.774147
-12.579355
-23.377790
-24.169662
-13.956868
3.209773
21.697832
36.120144
41.228233
33.925838
16.577904
-3.096072
-15.716068
-14.815661
-0.693786
18.395092
30.297995
27.238256
10.814552
-11.197784
-30.896511
-43.115746
-45.484070
-37.426334
-19.396280
5.867231
31.433451
47.927460
49.168560
36.157349
15.551414
-4.759564
-19.268621
-26.599030
-28.685846
-27.868845
-24.780104
-19.128023
-12.207777
-7.721718
-9.139030
-16.162373
-24.450760
-29.196749
-28.571415
-23.816364
-17.047461
-9.304580
-0.285052
10.080154
19.769316
24.917007
22.426226
12.360270
-2.041855
-16.239239
-26.633097
-31.938606
-32.924511
-31.130930
-28.020365
-24.709732
-21.591383
-18.043129
-12.757443
-4.761649
5.531548
16.188620
24.594372
28.542625
27.068876
20.776817
11.634078
2.692981
-2.541544
-2.010655
2.609769
6.072100
3.382008
-5.924440
-17.511459
-26.242855
-29.865784
-28.823021
-23.994905
-15.727548
-4.854491
6.205639
14.277154
17.528898
16.433586
12.910072
9.423143
8.635041
12.393009
20.348768
29.833534
37.308605
40.087986
37.336449
30.422659
22.391693
16.288469
13.282067
11.990568
9.652409
4.440876
-2.834916
-9.123597
-11.645145
-10.778335
-10.771124
-16.864340
-30.382021
-46.375729
-56.761463
-55.899906
-43.642670
-24.583675
-5.110463
9.942120
19.024111
22.453865
19.886028
10.767632
-3.075895
-17.118362
-26.408140
-27.963045
-22.194054
-12.853434
-5.079073
-2.482291
-5.287503
-10.823217
-15.878958
-19.027403
-21.030018
-23.253853
-25.905542
-27.726622
-27.251368
-24.423483
-20.891300
-18.255459
-15.790166
-10.313118
0.979172
17.192949
33.507553
44.769287
49.542912
50.695385
52.162956
55.073547
56.847851
54.088070
46.079494
35.329552
25.288038
17.799885
12.224803
6.483596
-1.041284
-10.079715
-18.510311
-23.929577
-25.269190
-22.976934
-18.250919
-12.459165
-6.771889
-1.550663
4.213574
12.353846
23.700005
36.706596
48.183628
55.150410
55.918274
50.254513
39.178265
24.785603
10.119189
-1.690634
-8.958187
-11.982746
-12.032609
-10.542743
-9.278906
-10.217519
-14.553489
-21.495428
-27.840155
-29.128265
-22.375326
-8.789799
6.195200
16.161064
17.001757
7.934514
-8.333920
-25.883085
-37.827915
-39.561333
-30.558235
-14.473887
1.572116
9.599571
6.075613
-4.481526
-12.441368
-9.998844
4.147209
25.049435
44.971073
57.325218
59.362461
52.354053
39.873219
26.724237
18.483492
19.460428
29.857376
44.641998
54.707710
49.902779
24.159925
-18.816183
-65.076279
-98.245972
-108.853867
-97.465370
-72.409630
-45.205906
-25.043156
-15.149984
-12.881316
-12.283855
-7.797030
2.251311
14.749775
24.578960
28.562550
26.633793
19.860989
9.065809
-4.040142
-15.741446
-21.910713
-20.935335
-14.939493
-8.666288
-6.879038
-11.474023
-20.260410
-28.402205
-31.166044
-25.838558
-12.370623
6.253083
24.318285
35.601055
36.643658
29.013643
19.194010
15.014245
19.855844
29.760342
36.549267
33.855667
20.515186
-0.336025
-23.089119
-40.685436
-46.821274
-39.409267
-21.954145
-1.166471
16.818821
28.880346
35.041019
36.535507
33.871746
27.348475
18.822371
11.563149
8.194343
8.734770
10.044716
7.592779
-0.846641
-12.446444
-20.540056
-19.303886
-7.466472
11.719211
31.898829
44.941940
44.079491
28.596575
5.645214
-13.544208
-19.721230
-9.883812
11.029351
32.474247
44.668644
43.230915
28.526659
3.672297
-25.360561
-50.192028
-63.747658
-63.357399
-50.160309
-28.827118
-8.082393
2.799604
0.287641
-10.998507
-22.493717
-27.974913
-26.378979
-20.673557
-14.774020
-10.544795
-7.475787
-5.156782
-4.959637
-8.322506
-13.769613
-16.978514
-14.194228
-5.312807
5.448526
11.449462
7.726143
-5.496947
-22.993973
-37.686611
-43.894917
-39.251316
-25.214836
-6.030336
13.414056
29.240223
38.991409
41.538048
37.407131
29.553091
22.882736
21.201956
23.783894
25.479855
20.953470
9.040284
-6.527487
-19.743752
-25.555443
-21.962694
-10.997435
2.301991
13.167248
19.502489
21.578573
20.830856
18.953781
17.019730
15.189995
13.820763
14.546923
18.880667
25.622890
30.905066
30.918381
24.403006
13.396573
2.018710
-6.316385
-11.352616
-15.636227
-21.415125
-28.390678
-34.654106
-38.618366
-39.092899
-34.412247
-23.590567
-8.499912
6.376240
15.953617
16.254120
6.312158
-10.481063
-27.873772
-40.274544
-44.976414
-41.695168
-31.320934
-15.880816
0.735009
13.718216
20.554274
22.736294
23.545145
24.743656
25.633341
24.522434
20.590784
14.604162
8.373714
3.933575
2.965846
5.975362
11.135510
14.385511
12.084900
3.973328
-6.770668
-15.867427
-20.196621
-18.743982
-12.057088
-0.854636
14.478719
32.702351
50.352554
61.966469
62.175995
48.802219
24.694590
-3.720391
-29.598030
-47.560974
-54.417461
-50.292423
-39.191475
-27.214712
-19.212107
-16.203587
-15.523309
-13.578457
-8.745263
-2.131814
3.608095
5.886170
3.545918
-2.409750
-9.257816
-13.681221
-12.806583
-5.168242
8.285993
23.765154
36.114239
42.050262
42.192322
39.407185
35.292747
29.090063
19.489325
6.328339
-8.957220
-23.901426
-36.481567
-46.281139
-54.054310
-60.223896
-64.013741
-64.183334
-60.119385
-51.875839
-40.160015
-26.746790
-13.864744
-2.323912
9.526414
24.162962
41.845360
59.330021
71.546547
74.151543
65.285965
47.318264
27.308764
13.813770
12.155712
21.895630
37.104565
48.779373
49.124493
35.833454
13.076901
-11.479255
-30.456005
-39.237686
-37.752956
-30.547333
-23.660622
-20.605417
-20.954296
-22.108955
-21.777887
-18.935295
-13.781467
-7.981332
-4.709118
-7.246539
-16.794355
-31.299004
-45.764252
-54.263103
-53.586884
-45.540939
-35.060600
-26.189495
-19.876625
-14.844305
-9.534244
-3.030703
4.682078
12.264818
17.044926
16.410667
9.585697
-1.756969
-14.007697
-23.108294
-26.863123
-25.902979
-21.920946
-15.545789
-6.241163
6.152837
20.145281
33.049973
42.643475
48.514217
52.221935
56.083755
61.072636
65.465096
65.878563
59.943783
48.034840
32.304485
14.394138
-4.701323
-22.619982
-35.239361
-39.128742
-34.284756
-24.743132
-16.488108
-13.729526
-16.108746
-19.039394
-17.189470
-8.817490
2.560391
10.930588
12.237790
6.522455
-2.887863
-11.631768
-16.627165
-17.321938
-15.280557
-12.512985
-10.074278
-8.078174
-6.469804
-5.174295
-3.500230
-0.047312
6.348494
15.602290
26.264809
36.286137
43.953503
48.489384
50.277584
50.563328
50.669014
51.310444
51.906162
49.893017
41.464493
24.163485
-0.367143
-25.878441
-44.637241
-52.330261
-50.036354
-41.544228
-30.006493
-17.047815
-3.666560
8.336208
15.938698
16.575087
10.201404
-0.499877
-11.273600
-17.864902
-17.998106
-12.654031
-5.330041
0.106399
1.196764
-2.529836
-9.857923
-18.783140
-27.521130
-34.673473
-38.829758
-38.946579
-35.146606
-28.643932
-21.120470
-14.266019
-9.360896
-6.809270
-5.929043
-5.323128
-3.656789
-0.322032
4.414781
9.922901
15.949243
22.704552
29.912870
35.630817
36.355728
29.158800
14.305343
-4.588429
-23.289122
-39.268440
-51.380505
-58.438847
-58.922634
-52.335754
-40.972332
-29.626919
-22.658518
-21.395800
-24.047289
-26.856504
-25.370625
-16.357395
-0.038786
19.349730
35.543343
42.775990
37.686829
21.712851
1.960758
-12.591429
-16.798349
-11.828298
-3.391888
1.822304
-0.529638
-10.065423
-21.808180
-29.617210
-30.155489
-24.203163
-15.154053
-6.296166
1.442811
9.541042
19.078527
27.575069
29.403063
20.298903
2.245875
-15.873006
-23.817505
-18.204752
-5.520669
3.705097
3.491458
-4.140471
-12.391973
-15.637342
-13.070927
-7.808312
-3.147229
0.247685
3.874682
8.889723
14.511908
18.429136
18.538317
14.986541
10.569195
8.405266
9.126592
10.666441
10.785619
9.495114
9.056430
12.009298
19.001944
27.800613
34.089638
34.159531
28.210527
21.037409
18.478661
22.565559
29.805017
33.865803
29.945295
17.655687
1.355235
-12.010583
-16.660473
-11.203462
0.901128
13.728350
21.814356
22.327366
16.417559
8.180464
1.062909
-4.582388
-10.340099
-16.952759
-22.905453
-25.128613
-21.123932
-11.695913
-1.967187
1.661756
-3.600136
-14.790495
-25.039782
-27.512377
-19.249641
-3.110772
13.715558
24.229631
25.575268
