EVENT_NAME: EMILIA_2ND_SHOCK
EVENT_ID: IT-2012-0011
EVENT_DATE_YYYYMMDD: 20120529
EVENT_TIME_HHMMSS: 070002
EVENT_LATITUDE_DEGREE: 44.8417
EVENT_LONGITUDE_DEGREE: 11.0657
EVENT_DEPTH_KM: 8.1
HYPOCENTER_REFERENCE: INGV-CNT_Seismic_Bulletin
MAGNITUDE_W: 6.0
MAGNITUDE_W_REFERENCE: RCMT-INGV
MAGNITUDE_L: 5.8
MAGNITUDE_L_REFERENCE: INGV-CNT_Seismic_Bulletin
FOCAL_MECHANISM: TF
NETWORK: IV
STATION_CODE: T0811
STATION_NAME: T0811
STATION_LATITUDE_DEGREE: 44.783800
STATION_LONGITUDE_DEGREE: 11.226500
STATION_ELEVATION_M: 10
LOCATION: 
SENSOR_DEPTH_M: 1.0
VS30_M/S: 
SITE_CLASSIFICATION_EC8: C*
MORPHOLOGIC_CLASSIFICATION: 
EPICENTRAL_DISTANCE_KM: 14.3
EARTHQUAKE_BACKAZIMUTH_DEGREE: 296.9
DATE_TIME_FIRST_SAMPLE_YYYYMMDD_HHMMSS: 20120529_065952.000
DATE_TIME_FIRST_SAMPLE_PRECISION: milliseconds
SAMPLING_INTERVAL_S: 0.005000
NDATA: 30001
DURATION_S: 150.005
STREAM: HNN
UNITS: cm/s^2
INSTRUMENT: sensor = Episensor FBA ES-T [Kinemetrics] | digitizer = Unknown [Unknown]
INSTRUMENT_ANALOG/DIGITAL: D
INSTRUMENTAL_FREQUENCY_HZ: 
INSTRUMENTAL_DAMPING: 
FULL_SCALE_G: 
N_BIT_DIGITAL_CONVERTER: 
PGA_CM/S^2: -201.966831
TIME_PGA_S: 21.255000
BASELINE_CORRECTION: BASELINE REMOVED
FILTER_TYPE: BUTTERWORTH
FILTER_ORDER: 2
LOW_CUT_FREQUENCY_HZ: 0.060
HIGH_CUT_FREQUENCY_HZ: 40.000
LATE/NORMAL_TRIGGERED: NT
DATABASE_VERSION: DYNA 1.0
HEADER_FORMAT: DYNA 1.2
DATA_TYPE: ACCELERATION
PROCESSING: manual (Paolucci et al., 2011)
DATA_TIMESTAMP_YYYYMMDD_HHMMSS: 
DATA_LICENSE: CC-BY4_0 (http://creativecommons.org/licenses/by/4.0/)
DATA_CITATION: ESM working group (2015), European Strong-Motion database, version 0.1, Network Activity 3: Networking acceleration networks and SM data users. Project NERA (www.nera-eu.org)
DATA_CREATOR: ESM working group
ORIGINAL_DATA_MEDIATOR_CITATION: Orfeus - European Integrated Data Archive (EIDA) http://www.orfeus-eu.org/eida/
ORIGINAL_DATA_MEDIATOR: Orfeus - European Integrated Data Archive (EIDA)
ORIGINAL_DATA_CREATOR_CITATION: Data for this study comes from the Italian national seismic network operated by Istituto Nazionale di Geofisica e Vulcanologia and archived at the European Integrated Data Archive http://eida.rm.ingv.it/
ORIGINAL_DATA_CREATOR: network: IV (Italian National Seismic Network); owner: Istituto Nazionale di Geofisica e Vulcanologia
USER1: 
USER2: 
USER3: 
USER4: 
USER5: 
[...]
0.148893
1.511614
1.902324
1.035597
-0.429601
-1.587443
-1.896374
-1.274385
-0.105255
0.908878
1.252479
0.958011
0.390646
-0.170130
-0.543005
-0.469863
0.153284
0.968451
1.371590
1.014285
0.040084
-1.058411
-1.723323
-1.645242
-1.024635
-0.396341
-0.063837
0.111119
0.373699
0.781324
1.224277
1.479104
1.200891
0.244558
-0.872922
-1.276415
-0.700547
0.141713
0.387334
0.015294
-0.303047
-0.145925
0.252962
0.488774
0.454730
0.184011
-0.310763
-0.776134
-0.657060
0.315019
1.543345
1.960820
1.087399
-0.484768
-1.635219
-1.655366
-0.730586
0.338093
0.821031
0.567163
-0.024917
-0.441089
-0.454091
-0.209048
-0.022474
-0.080929
-0.312027
-0.567108
-0.800253
-0.933583
-0.702259
0.096316
1.166129
1.821467
1.694534
1.089131
0.485851
-0.065087
-0.772025
-1.515483
-1.865816
-1.598108
-0.864050
0.085111
1.032814
1.595395
1.245880
-0.151544
-1.889559
-2.781795
-2.175290
-0.535109
1.104874
2.137471
2.513989
2.149726
0.916152
-0.747660
-1.837807
-1.768949
-1.033621
-0.539251
-0.593974
-0.725586
-0.267971
0.855547
1.840796
1.700991
0.390042
-0.970570
-1.222477
-0.346448
0.774549
1.408489
1.384481
0.774997
-0.237899
-1.134318
-1.304398
-0.775561
-0.310252
-0.602489
-1.509474
-2.152331
-1.700174
-0.064185
1.955770
3.178544
2.918924
1.409816
-0.581405
-2.236393
-2.772573
-1.627507
0.843542
3.069806
3.433118
1.943247
0.297655
-0.090036
0.268220
-0.186098
-1.845547
-3.349838
-3.378520
-2.209625
-0.935479
0.128501
1.349629
2.418694
2.347596
0.968576
-0.639684
-1.448910
-1.500266
-1.302100
-0.978544
-0.641453
-0.769219
-1.498974
-2.058433
-1.548954
-0.098456
1.407006
2.485690
3.286678
3.920381
4.121271
3.599330
2.397627
0.812388
-0.754368
-1.935982
-2.700279
-3.330487
-3.909298
-4.043926
-3.318102
-1.893217
-0.445711
0.380122
0.356105
-0.167545
-0.330519
0.651710
2.598557
4.128632
3.743322
1.311893
-1.630707
-3.015409
-1.753715
1.476639
4.661478
5.782959
4.157454
0.836655
-2.168325
-3.201890
-2.059359
-0.249054
0.144717
-1.592228
-3.993275
-4.824556
-3.309057
-0.653614
1.435913
2.117289
1.299065
-0.915005
-3.782962
-5.480288
-4.400297
-1.027533
2.334455
4.088968
4.877388
6.060679
7.364857
6.936497
3.731380
-1.032220
-5.174660
-7.585875
-8.210141
-6.616497
-2.309406
3.290927
6.752328
5.607100
1.028343
-3.276324
-4.631379
-3.317251
-1.246905
0.235550
0.725378
-0.110712
-2.501911
-5.430796
-6.374102
-3.190199
3.444578
9.991556
12.922003
11.341737
6.778816
1.289420
-3.658506
-7.078988
-8.388101
-7.612402
-5.226329
-1.788210
2.062476
5.325964
6.753369
5.671174
2.754371
-0.445299
-2.916563
-4.590315
-5.419790
-4.997671
-3.207946
-0.588767
2.173040
4.586940
6.028984
5.816801
3.837956
0.599705
-3.230877
-6.853696
-8.964548
-8.103164
-3.971348
1.915891
7.202877
10.087817
9.839699
6.629905
1.493471
-3.936384
-8.263195
-10.455002
-9.304791
-4.164050
3.338039
9.368660
10.701893
7.182312
1.138837
-4.643355
-8.348395
-9.819698
-9.968078
-9.022186
-5.881000
0.074494
6.934829
11.273847
11.381602
8.558477
5.036030
1.523382
-2.335753
-5.880152
-7.323856
-5.611007
-1.496037
3.229071
6.965112
8.767172
8.302341
5.553875
0.641143
-5.375061
-9.812896
-10.010396
-6.156639
-1.481414
1.235067
2.379089
3.774468
5.563813
6.061671
4.098605
0.315331
-3.750170
-6.484219
-6.334406
-2.777712
2.545284
6.663776
7.756616
6.133904
2.879156
-0.886600
-3.471388
-3.251573
-0.559533
2.113448
2.669315
1.288901
-0.824108
-3.221969
-5.654650
-6.717582
-4.997623
-1.583420
0.404780
-0.590761
-2.616674
-2.902760
-1.371943
0.040034
0.438002
0.562236
0.656887
-0.122962
-1.437150
-0.929224
2.948819
8.188931
10.664550
8.208825
2.370136
-3.525920
-7.136672
-7.929115
-6.234455
-2.581366
1.889122
5.305945
6.310726
5.244161
3.540983
2.084756
0.654478
-1.117262
-3.105460
-5.221102
-7.664350
-9.896978
-10.038086
-6.796960
-1.675986
2.352562
4.328135
6.164325
9.507947
12.888060
13.152985
9.285362
3.497386
-1.545779
-4.855640
-6.199009
-5.090187
-1.806627
1.590218
2.684634
0.934205
-2.357813
-5.663558
-8.011712
-8.658749
-7.293487
-4.927383
-3.430649
-3.407522
-3.097896
-0.331532
4.547205
8.603160
9.158708
6.171537
1.872429
-1.320729
-2.295986
-1.287137
0.858848
3.248753
5.010395
5.214763
3.145464
-1.035766
-5.844530
-9.020365
-9.009645
-6.195352
-2.508141
0.232962
1.312997
0.925146
-0.105925
-0.503824
0.639361
2.800172
4.436012
4.702278
3.934349
2.519339
0.423840
-1.865785
-2.971699
-2.039344
0.339980
3.193900
5.897806
7.368062
5.992119
1.693744
-2.807854
-4.479951
-3.120617
-0.831375
0.878014
2.060566
2.666150
1.810559
-0.782116
-3.972134
-6.331610
-7.364049
-7.128727
-5.357615
-1.916009
2.122232
4.822620
5.175185
3.927876
2.297393
0.593547
-1.350581
-3.001128
-3.390245
-2.554618
-1.824018
-2.367409
-3.875081
-5.043067
-5.028032
-3.978710
-2.450705
-0.749981
1.098878
2.866009
3.909602
3.809599
3.041197
2.453158
1.916570
0.154911
-3.363919
-6.865272
-7.597565
-4.741058
0.023785
4.944971
9.400143
12.397930
12.039926
7.556232
0.909643
-4.682494
-7.268449
-6.588614
-3.177788
1.883558
6.699926
8.934711
7.141221
2.031921
-3.582527
-6.512484
-5.497765
-2.156305
0.564525
1.297306
1.447869
2.798130
4.431376
3.423266
-1.317055
-7.144914
-10.377081
-9.882859
-7.204178
-4.210134
-1.725661
-0.009457
0.724790
0.564585
-0.041665
-0.593983
-0.630195
0.352098
2.776218
6.558704
10.539954
12.317187
9.375258
1.626785
-7.058822
-11.195033
-8.213647
-0.431622
7.283839
11.169384
9.922398
3.886730
-5.492741
-15.259981
-21.544575
-22.053614
-17.494829
-9.868609
-0.326491
10.190202
19.077858
22.843182
19.781828
10.951144
-0.763782
-11.635575
-17.716022
-15.958951
-6.214594
7.274646
17.489939
19.500546
13.895419
4.910364
-4.142474
-12.377267
-18.941765
-21.664627
-19.276045
-13.685046
-8.108507
-2.979218
4.189909
13.956828
21.965748
23.220657
17.689625
9.132938
0.584328
-6.429970
-9.794713
-7.584425
-1.444388
4.168819
7.014248
8.838122
11.165644
11.988449
9.215089
4.723864
1.551765
-1.237328
-7.446384
-17.479286
-26.371103
-28.724901
-23.226871
-12.063714
1.936436
15.817241
25.302752
26.091618
17.557829
4.430123
-6.030810
-8.948580
-4.601651
2.870715
9.189220
12.612762
13.508519
12.360363
9.105097
3.746046
-3.230290
-10.470335
-15.606548
-16.466419
-12.872448
-6.577765
0.714078
7.856944
12.850367
13.417943
9.631158
4.309515
0.284343
-1.519176
-0.784160
3.069821
8.684643
11.631426
8.195101
0.156853
-6.943156
-10.751739
-14.447289
-21.000797
-27.515326
-28.147879
-21.236982
-10.656840
-1.472618
3.578844
4.029338
0.072346
-7.877965
-17.971821
-25.739359
-25.655767
-15.953158
-1.817884
8.134470
9.359612
4.718462
-0.110439
-3.346992
-7.702548
-14.741561
-20.559612
-18.637201
-6.749160
10.309668
25.036257
32.682537
32.194016
24.660761
13.184791
3.311387
0.501779
5.513443
13.635029
19.369440
20.997576
20.196587
18.854219
17.841667
17.039274
14.467651
6.851592
-7.039773
-23.553061
-35.203503
-35.114666
-21.325768
2.582082
30.502872
55.801964
69.808945
62.675625
32.237057
-8.737537
-40.558392
-53.398754
-53.363739
-51.071281
-48.209789
-38.931149
-20.947691
0.209665
17.924807
30.511814
38.473186
40.056042
32.996044
19.355385
5.411561
-4.323860
-10.645201
-14.514384
-10.748940
6.445144
31.356853
46.783039
39.290573
11.863721
-20.438923
-43.314392
-49.311420
-36.550713
-7.753750
28.169884
57.082218
66.783691
55.776180
34.459740
16.305508
7.881358
6.744246
6.027685
-1.027585
-17.939819
-40.875713
-57.497532
-55.215000
-34.792671
-12.225560
-2.584865
-6.128092
-12.999218
-16.403282
-17.041359
-17.986052
-21.632191
-30.177618
-43.245407
-55.775471
-62.072552
-61.789257
-58.174706
-50.746975
-36.019302
-15.887166
0.857284
7.320171
5.961813
5.173056
9.835738
17.249781
22.085562
23.561377
25.757874
30.394606
32.137432
24.796820
11.130909
1.593150
1.136923
1.779385
-7.577591
-27.938597
-50.381115
-66.092079
-71.562622
-65.476646
-47.784626
-22.572273
3.887970
29.103172
55.049030
80.973579
97.903435
94.522781
70.188515
38.557800
14.935905
3.418920
-1.476466
-4.874694
-7.183670
-8.215870
-10.793585
-18.098083
-28.988314
-37.631710
-37.665794
-26.438562
-6.502696
16.048479
35.174389
47.573715
52.494041
49.520939
37.761269
18.827162
-0.239973
-10.815875
-11.617455
-10.405316
-13.739059
-18.908089
-19.628393
-16.770254
-17.466669
-23.060637
-24.791073
-14.607415
4.006838
19.995897
26.866745
26.029444
20.511526
11.456417
1.938889
-1.290486
5.307180
16.302504
22.337278
19.991140
14.065844
10.019833
7.061100
0.441538
-10.913882
-21.608881
-25.251038
-21.340122
-15.322456
-12.230267
-12.221881
-12.373956
-10.782397
-8.057426
-5.741062
-4.327126
-2.840109
-0.235996
2.555155
2.733100
-1.370588
-8.177846
-14.502394
-18.723463
-21.721689
-24.945541
-28.166775
-29.008020
-24.633102
-14.872278
-3.808282
2.829429
2.230671
-3.578862
-9.938182
-13.399454
-13.562632
-11.427964
-7.181230
-1.287329
2.517946
-1.698326
-15.215236
-30.871826
-39.327011
-37.275146
-27.790110
-15.296285
-2.897636
7.126870
14.096014
19.367422
23.197184
22.983929
17.415697
11.227423
11.871431
20.406185
29.543173
32.380585
29.952673
27.447002
25.845476
22.395269
17.907953
17.870449
24.524647
32.670750
36.854145
37.762829
37.675735
33.593140
19.976721
-2.363332
-24.897511
-39.568470
-45.055531
-43.669575
-34.715431
-15.334426
11.008558
31.237064
32.931885
16.688381
-5.699258
-24.107828
-37.362656
-47.250050
-50.022205
-39.163937
-16.613895
4.825071
14.328016
13.566182
11.198952
11.279992
11.081016
8.252324
4.825425
3.610658
4.504743
6.112814
9.004070
14.709043
22.024290
26.836784
26.480989
22.304325
16.474152
8.310214
-4.339996
-20.765654
-35.809059
-43.330997
-41.092972
-31.843641
-20.076977
-8.934346
0.180232
6.742974
10.152328
9.263392
3.449512
-5.795379
-14.860077
-19.511864
-16.898735
-7.638815
3.662500
11.330572
13.102756
10.575662
4.746875
-6.032544
-22.023306
-37.987637
-45.553707
-40.063164
-23.885813
-3.142996
16.657656
30.254461
31.206421
16.418970
-8.010583
-29.404209
-37.923008
-31.527075
-12.888723
12.949760
37.794460
53.489159
58.160900
56.797146
53.930836
47.730492
33.897423
14.147996
-2.434310
-7.839214
-3.146715
3.467678
5.406492
2.526391
-1.835679
-5.561748
-7.990909
-7.389841
-1.076956
11.040916
24.562981
33.684116
35.975876
32.679672
24.525854
9.997946
-10.924962
-33.334766
-50.109711
-57.195843
-54.763157
-44.900452
-30.254343
-14.613033
-2.349742
4.579519
7.809018
8.869962
5.618586
-4.186074
-16.568769
-23.134270
-19.694830
-10.366389
-2.239780
1.722702
3.119100
4.164576
5.395455
6.090207
5.387985
2.875851
-0.920757
-4.204429
-4.626717
-0.837098
6.340295
14.163108
20.066963
23.621613
25.337032
23.969919
17.411844
7.386589
0.537639
1.419137
5.834792
4.384574
-7.345492
-24.262833
-37.477432
-41.312405
-34.791435
-20.858473
-5.762419
3.754312
5.345531
2.027089
-3.002631
-10.034052
-20.216866
-31.611021
-39.428062
-39.705608
-31.918949
-18.700584
-4.583298
4.738042
3.989103
-8.109730
-26.666527
-43.472973
-52.360180
-51.507362
-41.904278
-26.182259
-9.063729
3.373288
6.215133
-1.700138
-16.457232
-30.574961
-37.423573
-34.730247
-24.085098
-8.486713
8.512579
22.474478
29.363520
27.785563
19.510561
8.388745
-1.031496
-4.935119
-1.715273
7.214404
18.221556
27.696098
33.896137
36.502766
35.288868
30.871857
26.232327
25.155069
28.110554
31.253151
30.922813
27.697021
24.693245
23.116598
21.528852
19.567633
19.987225
25.386660
33.655605
38.292267
33.940144
21.396465
7.056923
-2.334195
-4.029432
0.997201
10.471731
20.939545
27.108789
24.896170
15.597847
4.714519
-4.292263
-13.397017
-25.996441
-41.319073
-54.570271
-61.862358
-62.908459
-58.678108
-49.285206
-35.530861
-20.824907
-10.128535
-6.893344
-11.152261
-20.287064
-31.082941
-40.467560
-44.946461
-41.448399
-29.988052
-14.448498
0.598308
13.243373
23.861521
32.455730
37.748089
39.253574
39.300140
42.019077
50.189346
63.300537
78.530296
92.963043
105.057175
114.974022
123.827667
132.254547
139.527863
144.040497
144.468857
140.619293
133.724045
126.275925
121.315887
120.795647
123.671570
126.197762
125.196503
121.033752
116.772575
114.588715
114.099075
114.028435
113.929375
113.802505
113.185005
111.726044
110.032326
108.774277
107.360115
104.386192
99.376556
93.379356
87.690300
82.861702
79.335770
78.197998
80.379105
85.309280
91.041298
95.568916
97.696701
96.863754
92.618370
84.874077
75.042648
66.045219
59.880245
55.205368
48.266541
36.710670
21.650543
5.301859
-12.169443
-32.418419
-55.877602
-79.392822
-97.283203
-105.136162
-102.293045
-90.822327
-73.588791
-53.319431
-32.415306
-14.159024
-3.852804
-6.454241
-22.512365
-47.500538
-75.020172
-100.805161
-124.389725
-147.063736
-168.623795
-186.675949
-198.358246
-201.966827
-197.825012
-188.407913
-177.595200
-169.476547
-166.744736
-169.050552
-173.021469
-174.495697
-170.685181
-160.677887
-145.281754
-126.533981
-106.108620
-83.698601
-57.325504
-25.381521
11.878667
52.922283
95.885674
136.865295
167.422836
177.198242
160.722626
121.693665
71.854248
24.600529
-12.976459
-41.767166
-64.997345
-83.491302
-96.332947
-103.328651
-105.329033
-102.676994
-95.000671
-83.459160
-71.965050
-64.572701
-61.862144
-60.835285
-58.199417
-53.109322
-46.619698
-39.049000
-28.770832
-14.104008
4.527432
25.269285
46.480377
66.263107
80.646027
83.284592
68.462463
36.396793
-5.127136
-46.405354
-81.908928
-110.349304
-131.372192
-143.759827
-146.393738
-140.361908
-129.163757
-116.212234
-103.391121
-92.285095
-84.979813
-82.748589
-84.469238
-86.977592
-87.212166
-84.145653
-78.918007
-73.572929
-69.951523
-69.293983
-71.902817
-76.549042
-80.633926
-81.747086
-78.961533
-72.224159
-60.993484
-44.157940
-21.249229
6.401745
35.978466
64.800125
90.745605
110.838646
120.899330
117.395401
99.550232
70.634064
37.248184
5.874789
-20.025053
-39.550529
-52.361141
-57.964943
-56.794994
-51.691833
-47.236858
-46.350811
-48.070438
-49.297272
-48.137566
-45.057835
-41.290230
-37.187660
-32.230099
-25.876245
-18.181398
-9.820465
-1.669457
5.708353
12.361417
18.858822
26.040087
34.829052
45.867863
58.907127
72.408684
83.817924
90.634323
91.800667
87.967499
80.291786
69.781288
57.922218
47.148602
40.515507
40.618626
47.810909
59.393967
71.294167
80.503998
86.010834
88.101517
86.839050
81.053665
69.478653
53.011223
35.076031
19.469742
7.776152
-1.323731
-10.095911
-18.985369
-25.919842
-27.968851
-23.435017
-13.225855
-0.628206
10.755287
19.173058
25.135035
30.010134
34.400490
37.825039
39.491325
38.791237
35.149891
28.029533
17.381453
4.096085
-10.233535
-24.310749
-37.743832
-50.651611
-63.071220
-74.905258
-86.230400
-97.355934
-108.403587
-118.854538
-127.566673
-133.032181
-133.612106
-127.843933
-114.927856
-95.618645
-72.328880
-47.452724
-22.098248
3.258741
27.664272
49.478664
67.146294
80.345314
90.272804
98.535309
105.944740
112.229752
116.463150
117.702316
115.358208
109.439934
100.782089
90.934151
81.835678
75.335831
72.351761
72.101646
72.205330
69.772072
62.785320
51.018356
35.996387
19.838718
3.877214
-11.491077
-25.945080
-38.939392
-50.093376
-59.274246
-66.295883
-70.728210
-72.171852
-70.825996
-67.662003
-64.089676
-61.405361
-60.165840
-59.865349
-59.207458
-56.778866
-51.663170
-43.767677
-34.028004
-24.224581
-16.103476
-10.590054
-7.823230
-7.523289
-9.174754
-12.193353
-16.016870
-19.819490
-22.263275
-22.010853
-18.693207
-13.252775
-7.106200
-0.834475
6.055239
14.019469
22.497595
30.158722
35.944046
39.777351
42.344086
44.351810
46.209782
48.279697
50.968849
54.408302
58.254719
61.943848
64.836784
65.945747
63.967342
57.850040
47.316189
33.034496
16.243484
-1.822512
-19.842455
-36.055935
-48.758560
-57.039787
-60.615215
-59.233391
-52.506161
-40.541931
-24.878065
-8.185428
7.313859
20.754818
31.950068
40.439682
45.491295
46.892715
45.493473
42.662128
39.341145
35.771214
31.931067
28.259743
26.070761
27.034969
31.956598
40.024769
49.254841
57.659737
64.116920
68.109680
68.832138
65.204926
56.960281
45.272552
32.268311
20.039045
9.873781
2.289628
-2.213586
-2.848632
0.515051
6.282447
11.512427
13.567187
11.521869
6.137631
-1.301425
-9.780185
-18.309547
-25.559807
-30.137884
-30.981047
-27.518709
-20.195023
-10.783824
-1.468991
6.347473
12.231114
16.173037
18.100653
17.790428
15.075546
9.992224
2.875874
-5.495568
-14.125415
-22.434488
-30.542278
-38.759430
-46.859051
-53.935055
-58.993324
-61.479553
-61.075966
-57.372353
-49.979557
-38.899693
-24.992887
-10.044610
3.798937
14.366025
19.569588
18.492624
12.519145
4.569188
-2.674109
-7.667254
-9.856916
-9.301697
-6.572932
-2.688929
1.457556
5.858020
11.094000
17.185890
23.160694
27.485037
28.532053
25.147627
17.409016
6.947743
-3.636002
-12.089024
-17.599426
-20.482212
-20.825546
-18.037510
-11.732513
-2.620877
7.256615
15.202854
19.448978
20.299959
19.538960
18.762678
18.376799
17.944407
17.067545
15.734851
14.034397
11.910332
9.346055
6.644271
4.341904
2.787667
1.880674
1.230135
0.430407
-0.829112
-2.586077
-4.135599
-3.864808
-0.171412
7.055035
16.121136
24.967264
32.597301
38.991356
44.147415
47.580151
48.741047
47.763577
45.524197
42.900173
40.145336
36.980877
33.105789
28.393549
22.589413
15.258638
6.324518
-3.393455
-12.181845
-18.083668
-19.865236
-17.388517
-11.150562
-2.024049
8.679084
19.487280
28.949879
35.436920
37.340260
33.738899
24.907179
12.516643
-0.942625
-13.557170
-24.748737
-34.675179
-43.326927
-50.321835
-55.404823
-59.064201
-62.461143
-66.519402
-71.067688
-74.899460
-76.705315
-75.946129
-72.978516
-68.775139
-64.457634
-60.577862
-56.682297
-51.744083
-45.257725
-37.844093
-30.566299
-23.806566
-16.984667
-9.298530
-0.598296
8.522823
17.328560
25.331846
32.033848
36.530437
37.604061
34.462959
27.484709
18.020788
7.592071
-2.572666
-11.575384
-18.841967
-24.175783
-27.731871
-29.634598
-29.445862
-26.424688
-20.446762
-12.346736
-3.409813
5.400372
13.833981
22.018906
29.842360
36.798840
42.330811
46.164680
48.366192
49.033981
47.935467
44.557049
38.493343
29.876650
19.445625
8.137642
-3.123494
-13.329496
-21.636587
-27.820356
-32.298252
-35.803310
-39.099201
-42.750881
-46.852703
-50.805599
-53.401058
