EVENT_NAME: EMILIA_2ND_SHOCK
EVENT_ID: IT-2012-0011
EVENT_DATE_YYYYMMDD: 20120529
EVENT_TIME_HHMMSS: 070002
EVENT_LATITUDE_DEGREE: 44.8417
EVENT_LONGITUDE_DEGREE: 11.0657
EVENT_DEPTH_KM: 8.1
HYPOCENTER_REFERENCE: INGV-CNT_Seismic_Bulletin
MAGNITUDE_W: 6.0
MAGNITUDE_W_REFERENCE: RCMT-INGV
MAGNITUDE_L: 5.8
MAGNITUDE_L_REFERENCE: INGV-CNT_Seismic_Bulletin
FOCAL_MECHANISM: TF
NETWORK: IV
STATION_CODE: T0802
STATION_NAME: T0802
STATION_LATITUDE_DEGREE: 44.875000
STATION_LONGITUDE_DEGREE: 11.181600
STATION_ELEVATION_M: 9
LOCATION: 
SENSOR_DEPTH_M: 1.0
VS30_M/S: 
SITE_CLASSIFICATION_EC8: C*
MORPHOLOGIC_CLASSIFICATION: 
EPICENTRAL_DISTANCE_KM: 9.9
EARTHQUAKE_BACKAZIMUTH_DEGREE: 248.0
DATE_TIME_FIRST_SAMPLE_YYYYMMDD_HHMMSS: 20120529_065951.000
DATE_TIME_FIRST_SAMPLE_PRECISION: milliseconds
SAMPLING_INTERVAL_S: 0.005000
NDATA: 14001
DURATION_S: 70.005
STREAM: HNZ
UNITS: cm/s
INSTRUMENT: sensor = Episensor FBA ES-T [Kinemetrics] | digitizer = Unknown [Unknown]
INSTRUMENT_ANALOG/DIGITAL: D
INSTRUMENTAL_FREQUENCY_HZ: 
INSTRUMENTAL_DAMPING: 
FULL_SCALE_G: 
N_BIT_DIGITAL_CONVERTER: 
PGV_CM/S: -5.171514
TIME_PGV_S: 21.010000
BASELINE_CORRECTION: BASELINE REMOVED
FILTER_TYPE: BUTTERWORTH
FILTER_ORDER: 2
LOW_CUT_FREQUENCY_HZ: 0.100
HIGH_CUT_FREQUENCY_HZ: 40.000
LATE/NORMAL_TRIGGERED: NT
DATABASE_VERSION: DYNA 1.0
HEADER_FORMAT: DYNA 1.2
DATA_TYPE: VELOCITY
PROCESSING: manual (Paolucci et al., 2011)
DATA_TIMESTAMP_YYYYMMDD_HHMMSS: 
DATA_LICENSE: CC-BY4_0 (http://creativecommons.org/licenses/by/4.0/)
DATA_CITATION: ESM working group (2015), European Strong-Motion database, version 0.1, Network Activity 3: Networking acceleration networks and SM data users. Project NERA (www.nera-eu.org)
DATA_CREATOR: ESM working group
ORIGINAL_DATA_MEDIATOR_CITATION: Orfeus - European Integrated Data Archive (EIDA) http://www.orfeus-eu.org/eida/
ORIGINAL_DATA_MEDIATOR: Orfeus - European Integrated Data Archive (EIDA)
ORIGINAL_DATA_CREATOR_CITATION: Data for this study comes from the Italian national seismic network operated by Istituto Nazionale di Geofisica e Vulcanologia and archived at the European Integrated Data Archive http://eida.rm.ingv.it/
ORIGINAL_DATA_CREATOR: network: IV (Italian National Seismic Network); owner: Istituto Nazionale di Geofisica e Vulcanologia
USER1: 
USER2: 
USER3: 
USER4: 
USER5: 
[...]
-0.154256
-0.154879
-0.155501
-0.156121
-0.156734
-0.157339
-0.157934
-0.158519
-0.159095
-0.159664
-0.160229
-0.160792
-0.161359
-0.161936
-0.162526
-0.163130
-0.163742
-0.164356
-0.164969
-0.165586
-0.166213
-0.166849
-0.167485
-0.168111
-0.168717
-0.169294
-0.169832
-0.170320
-0.170745
-0.171094
-0.171359
-0.171532
-0.171587
-0.171442
-0.170954
-0.169998
-0.168537
-0.166625
-0.164351
-0.161806
-0.159049
-0.156080
-0.152871
-0.149447
-0.145907
-0.142364
-0.138872
-0.135381
-0.131696
-0.127510
-0.122643
-0.117330
-0.112200
-0.108049
-0.105634
-0.105225
-0.106130
-0.107097
-0.107429
-0.107425
-0.108028
-0.110490
-0.115875
-0.124220
-0.134339
-0.144645
-0.153897
-0.161372
-0.166904
-0.170775
-0.173347
-0.174788
-0.175170
-0.174779
-0.174276
-0.174701
-0.177444
-0.183667
-0.193174
-0.204108
-0.213906
-0.220161
-0.221100
-0.216208
-0.206375
-0.193566
-0.180718
-0.171051
-0.166565
-0.167491
-0.172734
-0.180083
-0.186872
-0.191344
-0.193061
-0.192066
-0.188246
-0.181680
-0.173532
-0.166176
-0.161812
-0.161013
-0.162940
-0.166509
-0.171057
-0.176559
-0.183733
-0.193333
-0.204701
-0.215374
-0.222401
-0.223718
-0.218752
-0.208888
-0.197299
-0.187369
-0.181194
-0.179322
-0.180919
-0.184052
-0.186294
-0.185220
-0.179032
-0.167664
-0.153061
-0.138308
-0.126941
-0.122043
-0.124665
-0.133401
-0.145450
-0.157290
-0.165135
-0.165796
-0.157285
-0.140010
-0.118267
-0.098158
-0.082510
-0.069656
-0.058550
-0.053903
-0.064027
-0.093758
-0.141149
-0.197655
-0.247848
-0.274659
-0.270604
-0.241450
-0.200054
-0.161186
-0.137544
-0.133650
-0.144473
-0.161008
-0.175495
-0.184910
-0.195355
-0.220805
-0.269079
-0.327478
-0.370039
-0.379874
-0.358405
-0.318851
-0.280095
-0.258842
-0.256532
-0.256946
-0.241677
-0.205393
-0.156188
-0.108625
-0.078956
-0.079179
-0.110040
-0.159219
-0.202197
-0.206722
-0.151356
-0.045970
0.073740
0.169113
0.210512
0.182269
0.089306
-0.046653
-0.199195
-0.342970
-0.453991
-0.510600
-0.499387
-0.426330
-0.318031
-0.206022
-0.112644
-0.050221
-0.025466
-0.042532
-0.103211
-0.204346
-0.334733
-0.471702
-0.582555
-0.639047
-0.633648
-0.580268
-0.506420
-0.445723
-0.422966
-0.438961
-0.476055
-0.517212
-0.554583
-0.585525
-0.607693
-0.616283
-0.601572
-0.550735
-0.461528
-0.357593
-0.279545
-0.258028
-0.302339
-0.404917
-0.542878
-0.682416
-0.789069
-0.833604
-0.799554
-0.693988
-0.544757
-0.387532
-0.257661
-0.181711
-0.168394
-0.211829
-0.302818
-0.432465
-0.582503
-0.713720
-0.777471
-0.746217
-0.625087
-0.442384
-0.244322
-0.085518
-0.009516
-0.040805
-0.184095
-0.417496
-0.694005
-0.951873
-1.124755
-1.167083
-1.082934
-0.916158
-0.713810
-0.508611
-0.321606
-0.166358
-0.054969
-0.006945
-0.048891
-0.191571
-0.402648
-0.615875
-0.766503
-0.810535
-0.737333
-0.586699
-0.431938
-0.333735
-0.318751
-0.379642
-0.471257
-0.528804
-0.509074
-0.405700
-0.233847
-0.018656
0.209798
0.422996
0.594785
0.695303
0.687506
0.542853
0.273785
-0.058060
-0.371437
-0.593438
-0.675963
-0.616287
-0.456778
-0.249410
-0.025314
0.202753
0.422548
0.612185
0.738820
0.760507
0.644389
0.401660
0.096932
-0.181205
-0.348433
-0.348587
-0.189006
0.054249
0.279777
0.400542
0.365197
0.183344
-0.074399
-0.320026
-0.487418
-0.544076
-0.497458
-0.390956
-0.280198
-0.212641
-0.216160
-0.284706
-0.379057
-0.456305
-0.498408
-0.515246
-0.536145
-0.598465
-0.718090
-0.859533
-0.956661
-0.970580
-0.911774
-0.816775
-0.726440
-0.673234
-0.665258
-0.685189
-0.714067
-0.752890
-0.816488
-0.911177
-1.025721
-1.139727
-1.232078
-1.286322
-1.297715
-1.274355
-1.229841
-1.177175
-1.125590
-1.076623
-1.024365
-0.963768
-0.898874
-0.841508
-0.804252
-0.796206
-0.818244
-0.856552
-0.885161
-0.875692
-0.803889
-0.659765
-0.460553
-0.244832
-0.052206
0.086744
0.153114
0.144013
0.070429
-0.050053
-0.196005
-0.338472
-0.436705
-0.450530
-0.368181
-0.214365
-0.031091
0.138300
0.256712
0.302776
0.273508
0.181773
0.058092
-0.056184
-0.126239
-0.132271
-0.073123
0.027144
0.129355
0.204705
0.243994
0.246489
0.210283
0.133648
0.021798
-0.111084
-0.247298
-0.370682
-0.468595
-0.533933
-0.565384
-0.566466
-0.545994
-0.515785
-0.484985
-0.458053
-0.437614
-0.427567
-0.434764
-0.470378
-0.548166
-0.672923
-0.827184
-0.977255
-1.093362
-1.158470
-1.166160
-1.120451
-1.035009
-0.930424
-0.831678
-0.761857
-0.734788
-0.751809
-0.799453
-0.851566
-0.882078
-0.877576
-0.838577
-0.775860
-0.706839
-0.649063
-0.614226
-0.606195
-0.619883
-0.642771
-0.662446
-0.673322
-0.675041
-0.666286
-0.642298
-0.598467
-0.535192
-0.459615
-0.385819
-0.332115
-0.308633
-0.304042
-0.292456
-0.254869
-0.188968
-0.107017
-0.034263
0.002090
-0.005038
-0.035974
-0.059787
-0.048874
0.013221
0.122695
0.254918
0.378431
0.468058
0.511852
0.518946
0.518292
0.538655
0.588525
0.654980
0.711990
0.728673
0.686906
0.599798
0.503080
0.427439
0.385853
0.375776
0.380159
0.374804
0.343675
0.284761
0.205500
0.119792
0.044675
-0.005892
-0.023655
-0.006678
0.037982
0.094234
0.139564
0.148667
0.105445
0.017353
-0.087096
-0.172294
-0.205372
-0.170772
-0.087081
0.002071
0.056601
0.053126
-0.016224
-0.143172
-0.307842
-0.489487
-0.670838
-0.835103
-0.962822
-1.034903
-1.040874
-0.982517
-0.874624
-0.747885
-0.639749
-0.572950
-0.547969
-0.553060
-0.573238
-0.598118
-0.633647
-0.702822
-0.823967
-0.986715
-1.151963
-1.265951
-1.273099
-1.144545
-0.911179
-0.650644
-0.440870
-0.334977
-0.347274
-0.435623
-0.523955
-0.559309
-0.534249
-0.467904
-0.389503
-0.328117
-0.298489
-0.296538
-0.305705
-0.300913
-0.255286
-0.153304
0.002984
0.191557
0.365067
0.465402
0.458008
0.344989
0.154906
-0.063301
-0.253913
-0.381612
-0.440558
-0.441960
-0.404940
-0.350680
-0.293624
-0.239915
-0.196074
-0.175541
-0.188989
-0.222549
-0.233362
-0.176899
-0.036596
0.169962
0.395070
0.570725
0.641291
0.597374
0.470632
0.305124
0.141228
0.008972
-0.076770
-0.109683
-0.077396
0.042045
0.260981
0.558224
0.880922
1.163565
1.341074
1.367938
1.240500
0.990892
0.662177
0.299215
-0.038325
-0.262468
-0.287446
-0.099015
0.226777
0.580676
0.873387
1.054410
1.125530
1.133505
1.122640
1.094428
1.028773
0.943315
0.908939
0.988852
1.173102
1.390039
1.565309
1.653519
1.649537
1.600706
1.579283
1.619312
1.695634
1.761509
1.784681
1.754531
1.679129
1.578084
1.463618
1.324991
1.144482
0.935876
0.755305
0.665960
0.700262
0.850890
1.073481
1.299298
1.478552
1.620991
1.769516
1.927846
2.036345
2.023060
1.859653
1.573529
1.241169
0.970214
0.839084
0.834398
0.870781
0.864671
0.771006
0.586790
0.356225
0.147423
0.000967
-0.087973
-0.143277
-0.183194
-0.214314
-0.230912
-0.217524
-0.159043
-0.050176
0.104746
0.296858
0.514703
0.739053
0.933781
1.045917
1.013549
0.774886
0.298160
-0.380069
-1.163045
-1.935448
-2.587760
-3.035884
-3.241493
-3.199642
-2.904611
-2.343685
-1.550431
-0.668039
0.093509
0.583530
0.762120
0.671037
0.414779
0.121129
-0.135098
-0.353673
-0.553267
-0.720640
-0.819645
-0.832956
-0.777229
-0.681753
-0.568782
-0.454980
-0.362242
-0.318025
-0.330140
-0.358391
-0.334603
-0.219501
-0.025520
0.202201
0.403706
0.528248
0.574634
0.597868
0.659474
0.780176
0.944615
1.133593
1.340200
1.567558
1.824267
2.116759
2.436778
2.756880
3.037153
3.232854
3.312585
3.290664
3.230220
3.191650
3.180564
3.153446
3.056471
2.851496
2.546113
2.226699
2.023806
2.022333
2.226427
2.585384
3.010017
3.389344
3.622704
3.635590
3.396488
2.948051
2.406345
1.934344
1.713376
1.865546
2.362941
3.044764
3.706607
4.155180
4.261134
4.019244
3.529595
2.924425
2.329528
1.850916
1.559829
1.479175
1.564599
1.708105
1.789150
1.725334
1.493860
1.149279
0.814190
0.608193
0.576811
0.686800
0.853535
0.966856
0.941165
0.766406
0.498738
0.214300
-0.017947
-0.154570
-0.195616
-0.170602
-0.101083
0.012781
0.169887
0.342863
0.482421
0.541351
0.490368
0.338908
0.159961
0.059886
0.101658
0.276001
0.531433
0.800269
1.021186
1.174263
1.285936
1.383403
1.450362
1.435344
1.291007
0.994653
0.558406
0.046055
-0.437077
-0.778511
-0.879129
-0.681032
-0.206739
0.444829
1.133960
1.710663
2.073670
2.232742
2.274970
2.263349
2.196434
2.052093
1.837496
1.602851
1.439596
1.462691
1.735246
2.185252
2.640364
2.945928
3.017545
2.828310
2.404433
1.817890
1.168133
0.569184
0.126996
-0.086914
-0.048787
0.204752
0.579473
0.955115
1.213628
1.270867
1.128987
0.885458
0.671220
0.591390
0.691364
0.917666
1.123936
1.168713
1.010328
0.695138
0.287068
-0.166341
-0.624048
-1.035610
-1.343811
-1.501355
-1.479130
-1.272937
-0.916797
-0.475985
-0.022458
0.375732
0.654027
0.755804
0.654558
0.393954
0.091295
-0.127292
-0.190746
-0.090006
0.139481
0.434824
0.732344
0.988178
1.175314
1.270569
1.250354
1.106208
0.866339
0.589116
0.335568
0.154885
0.076216
0.096667
0.184595
0.294742
0.378154
0.392871
0.314081
0.131227
-0.162086
-0.569040
-1.066771
-1.576586
-1.981204
-2.180101
-2.117471
-1.794767
-1.290246
-0.722796
-0.165447
0.377164
0.892528
1.287280
1.433654
1.299743
0.995305
0.699666
0.590746
0.787007
1.264652
1.853229
2.369983
2.745089
3.004794
3.179540
3.265531
3.262592
3.218331
3.205997
3.254875
3.324613
3.340497
3.228755
2.944171
2.508428
2.014289
1.571338
1.255261
1.098028
1.091071
1.191815
1.336461
1.448028
1.459174
1.356721
1.191756
1.037379
0.951094
0.967012
1.095857
1.326697
1.627951
1.944990
2.221852
2.447530
2.662929
2.897882
3.108660
3.204155
3.131359
2.912562
2.626917
2.392336
2.315601
2.400009
2.528043
2.568713
2.480816
2.302385
2.079495
1.832740
1.570617
1.307944
1.068883
0.881930
0.777933
0.789078
0.943237
1.243091
1.629345
1.975054
2.140704
2.034969
1.648265
1.085978
0.553035
0.225883
0.124448
0.140985
0.163794
0.137615
0.058860
-0.030597
-0.068453
-0.020074
0.105367
0.279086
0.472373
0.655601
0.789532
0.825534
0.730148
0.514265
0.225783
-0.082621
-0.370358
-0.613356
-0.808132
-0.961882
-1.071136
-1.118514
-1.104200
-1.079217
-1.121108
-1.266541
-1.485119
-1.703735
-1.827205
-1.765271
-1.479625
-0.995833
-0.370621
0.329439
1.024656
1.612752
1.974585
2.028590
1.793718
1.366731
0.840884
0.275913
-0.260091
-0.647526
-0.754044
-0.536613
-0.076380
0.475685
0.946577
1.191439
1.175219
0.985430
0.737657
0.494327
0.279937
0.144103
0.174682
0.412036
0.754825
1.017280
1.096984
1.037157
0.948666
0.936100
1.069465
1.361067
1.767109
2.226282
2.687487
3.101087
3.394410
3.473413
3.289251
2.912925
2.495186
2.143473
1.875675
1.674130
1.536041
1.469999
1.466208
1.488966
1.509147
1.537735
1.611321
1.745330
1.913292
2.056809
2.095730
1.957797
1.634415
1.196273
0.752329
0.413740
0.267060
0.334194
0.562493
0.855500
1.098979
1.202452
1.172051
1.119054
1.152976
1.275916
1.398209
1.423604
1.292790
0.993224
0.574612
0.139684
-0.187885
-0.287338
-0.086313
0.383919
1.005922
1.645628
2.189466
2.560130
2.733799
2.726220
2.556026
2.235114
1.807423
1.392064
1.139383
1.117436
1.276234
1.520388
1.773964
1.987849
2.127417
2.167376
2.106553
1.989671
1.889009
1.852759
1.885286
1.968022
2.079188
2.205265
2.354259
2.550749
2.788995
2.984938
3.014457
2.816674
2.431717
1.954405
1.493608
1.144579
0.948339
0.877965
0.854932
0.762251
0.499888
0.091128
-0.297345
-0.484843
-0.406830
-0.118982
0.261799
0.602341
0.811534
0.893267
0.907230
0.865693
0.700263
0.338987
-0.210256
-0.864955
-1.523558
-2.092787
-2.489025
-2.642831
-2.522674
-2.178850
-1.748968
-1.393387
-1.231182
-1.312182
-1.591965
-1.938973
-2.205576
-2.294547
-2.175102
-1.884034
-1.512219
-1.153714
-0.858288
-0.625375
-0.415166
-0.167095
0.148928
0.482348
0.734670
0.851356
0.855243
0.801431
0.734027
0.675831
0.627752
0.574579
0.505207
0.430974
0.378783
0.368483
0.404117
0.480715
0.587718
0.702419
0.777589
0.742772
0.540254
0.166384
-0.328313
-0.863308
-1.347826
-1.714000
-1.950387
-2.087361
-2.150293
-2.138057
-2.032784
-1.813541
-1.474704
-1.054172
-0.637512
-0.318445
-0.159192
-0.181183
-0.365595
-0.658850
-0.987042
-1.265212
-1.416469
-1.409483
-1.270939
-1.069709
-0.907706
-0.890211
-1.066039
-1.407877
-1.841829
-2.269226
-2.592367
-2.760639
-2.784664
-2.711064
-2.603320
-2.521240
-2.485771
-2.469546
-2.423289
-2.298412
-2.058412
-1.693037
-1.224878
-0.715210
-0.276457
-0.041688
-0.091446
-0.425215
-0.980133
-1.641083
-2.278718
-2.826317
-3.297785
-3.715070
-4.039549
-4.191481
-4.123170
-3.849885
-3.432249
-2.961905
-2.533594
-2.192883
-1.922311
-1.680731
-1.437031
-1.173747
-0.880756
-0.556524
-0.231099
0.007012
0.045244
-0.167172
-0.588574
-1.124003
-1.657180
-2.077648
-2.324898
-2.401771
-2.354705
-2.264215
-2.226276
-2.313218
-2.556522
-2.944737
-3.413474
-3.866963
-4.231132
-4.471422
-4.566326
-4.486694
-4.213592
-3.781807
-3.291302
-2.867080
-2.620595
-2.627737
-2.901426
-3.387142
-3.986018
-4.566897
-4.992200
-5.171514
-5.081297
-4.752942
-4.272242
-3.753872
-3.283445
-2.897112
-2.606666
-2.420054
-2.342887
-2.373308
-2.501238
-2.712618
-2.988945
-3.296024
-3.565139
-3.693973
-3.596165
-3.258193
-2.741169
-2.151382
-1.615985
-1.241504
-1.070854
-1.085692
-1.233452
-1.444019
-1.640782
-1.750085
-1.722261
-1.570093
-1.373741
-1.227053
-1.186041
-1.260206
-1.419936
-1.607401
-1.760435
-1.832064
-1.792979
-1.629503
-1.345774
-0.984551
-0.655451
-0.503155
-0.623422
-1.028211
-1.658622
-2.386467
-3.049499
-3.529545
-3.780954
-3.805269
-3.637163
-3.338917
-2.989935
-2.677586
-2.474255
-2.409993
-2.471294
-2.614448
-2.777387
-2.898881
-2.935807
-2.867144
-2.694948
-2.445242
-2.174141
-1.977247
-1.955134
-2.136136
-2.450614
-2.774802
-2.971070
-2.933876
-2.665029
-2.287622
-1.960964
-1.800319
-1.851216
-2.075341
-2.360554
-2.581535
-2.655718
-2.557275
-2.319236
-2.022263
-1.750085
-1.548364
-1.420902
-1.341542
-1.268248
-1.174202
-1.077665
-1.027979
-1.062006
-1.185024
-1.376916
-1.595118
-1.783659
-1.892609
-1.886557
-1.747440
-1.483207
-1.129825
-0.747545
-0.414934
-0.209068
-0.183598
-0.357529
-0.704030
-1.150269
-1.594023
-1.916010
-2.010487
-1.844288
-1.473132
-1.001220
-0.549656
-0.228403
-0.089854
-0.116728
-0.252671
-0.423171
-0.550215
-0.577003
-0.477386
-0.254343
0.054141
0.384928
0.676786
0.882550
0.969565
0.924070
0.754569
0.494317
0.197178
-0.084379
-0.321105
-0.508160
-0.656674
-0.784745
-0.899805
-0.982067
-0.996018
-0.921962
-0.768000
-0.557743
-0.319842
-0.082135
0.136477
0.328582
0.495227
0.644178
0.783639
0.909986
1.003925
1.039765
0.995263
0.859671
0.644767
0.385563
0.123078
-0.111054
-0.296824
-0.424053
-0.490377
-0.500270
-0.466442
-0.405503
-0.327293
-0.230728
-0.107729
0.052977
0.259538
0.506067
0.768951
1.012334
1.192147
1.266357
1.215073
1.047014
0.791027
0.492077
0.202172
-0.038853
-0.209620
-0.299240
-0.302531
-0.221269
-0.067588
0.136000
0.362389
0.584015
0.774170
0.908895
0.966908
0.929697
0.785005
0.534485
0.205780
-0.145490
-0.451628
-0.648479
-0.691243
-0.579394
-0.361348
-0.109979
0.096645
0.190352
0.137186
-0.056135
-0.355516
-0.705746
-1.041809
-1.312765
-1.490588
-1.564754
-1.541458
-1.441589
-1.294718
-1.134960
-0.994269
-0.894174
-0.839531
-0.811042
-0.768500
-0.678673
-0.543105
-0.390298
-0.245773
-0.119576
-0.015596
0.059088
0.097156
0.101775
0.091353
0.096577
0.156525
0.301241
0.519096
0.752038
0.939767
1.062449
1.134326
1.170351
1.172103
1.140946
1.093758
1.057941
1.051918
1.075337
1.108289
1.111052
1.046446
0.924715
0.812162
0.776294
0.829844
0.933537
1.030930
1.069732
1.018417
0.883224
0.698711
0.499409
0.308073
0.143601
0.028563
-0.017830
0.002422
0.061790
0.124926
0.166077
0.175780
0.165668
0.164427
0.192771
0.238632
0.266236
0.247377
0.175676
0.063582
-0.059090
-0.154748
-0.198013
-0.182525
-0.112658
0.001640
0.143846
0.288189
0.400019
0.444225
0.394033
0.233477
-0.041621
-0.421984
-0.874279
-1.324626
-1.673707
-1.840155
-1.781093
-1.499520
-1.060690
-0.573008
-0.135439
0.185417
0.352214
0.360504
0.239757
0.049632
-0.130167
-0.236945
-0.264540
-0.255539
-0.263829
-0.332382
-0.477210
-0.670573
-0.858057
-1.002601
-1.101005
-1.166100
-1.211126
-1.248955
-1.296710
-1.375255
-1.494472
-1.636089
-1.761825
-1.840101
-1.858547
-1.823419
-1.760643
-1.705171
-1.677793
-1.677836
-1.697185
-1.732387
-1.782242
-1.838003
-1.880858
-1.892674
-1.867523
-1.810814
-1.731493
-1.638574
-1.544000
-1.466767
-1.429233
-1.446555
-1.521241
-1.639553
-1.765603
-1.853076
-1.873467
-1.825742
-1.722974
-1.582088
-1.422501
-1.266621
-1.139250
-1.060936
-1.039034
-1.065676
-1.119439
-1.170114
-1.195292
-1.197617
-1.199815
-1.225403
-1.289093
-1.395198
-1.534643
-1.686569
-1.824316
-1.919894
-1.952941
-1.921927
-1.844624
-1.751927
-1.681837
-1.666624
-1.719673
-1.837279
-2.008972
-2.222702
-2.462940
-2.706449
-2.924651
-3.092126
-3.190133
-3.206300
-3.135810
-2.980384
-2.745106
-2.438363
-2.080205
-1.713454
-1.395202
-1.171749
-1.067820
-1.087159
-1.208448
-1.390664
-1.588759
-1.761857
-1.878898
-1.927117
-1.914845
-1.871310
-1.841141
-1.861784
-1.940188
-2.056016
-2.180564
-2.287744
-2.360346
-2.395609
-2.399979
-2.375974
-2.317434
-2.217685
-2.079159
-1.914666
-1.744268
-1.592474
-1.482364
-1.429035
-1.436580
-1.495627
-1.585231
-1.684546
-1.783720
-1.882864
-1.984765
-2.089782
-2.190615
-2.267756
-2.298700
-2.278835
-2.227763
-2.174438
-2.143000
-2.147004
-2.184434
-2.238917
-2.292118
-2.334214
-2.361427
-2.366929
-2.338466
-2.269104
-2.169815
-2.065280
-1.977897
-1.919607
-1.889322
-1.869172
-1.832412
-1.762091
-1.657690
-1.527040
-1.380227
-1.230193
-1.095564
-0.999327
-0.955029
-0.950775
-0.955005
-0.937665
-0.880980
-0.782250
-0.657597
-0.532722
-0.421620
-0.319700
-0.217492
-0.114180
-0.017784
0.061204
0.112972
0.128734
0.101810
0.031878
-0.067534
-0.168105
-0.238445
-0.256285
-0.213893
-0.122698
-0.011222
0.091098
0.169107
0.221936
0.255827
0.278943
0.295771
0.302151
0.288019
0.245517
0.173389
0.079619
-0.015168
-0.085016
-0.115904
-0.112172
-0.090251
-0.073933
-0.087404
-0.142366
-0.233114
-0.339572
-0.428337
-0.463236
-0.427484
-0.331035
-0.199463
-0.065358
0.039740
0.098946
0.113645
0.094667
0.056140
0.013802
-0.016964
-0.023295
-0.001679
0.033966
0.060375
0.066025
0.059182
0.059430
0.090063
0.171610
0.311797
0.502753
0.726777
0.959778
1.175617
1.354687
1.486861
1.569089
1.604856
1.602778
1.573250
