EVENT_NAME: EMILIA_2ND_SHOCK
EVENT_ID: IT-2012-0011
EVENT_DATE_YYYYMMDD: 20120529
EVENT_TIME_HHMMSS: 070002
EVENT_LATITUDE_DEGREE: 44.8417
EVENT_LONGITUDE_DEGREE: 11.0657
EVENT_DEPTH_KM: 8.1
HYPOCENTER_REFERENCE: INGV-CNT_Seismic_Bulletin
MAGNITUDE_W: 6.0
MAGNITUDE_W_REFERENCE: RCMT-INGV
MAGNITUDE_L: 5.8
MAGNITUDE_L_REFERENCE: INGV-CNT_Seismic_Bulletin
FOCAL_MECHANISM: TF
NETWORK: IV
STATION_CODE: T0803
STATION_NAME: T0803
STATION_LATITUDE_DEGREE: 44.766800
STATION_LONGITUDE_DEGREE: 11.350800
STATION_ELEVATION_M: 10
LOCATION: 
SENSOR_DEPTH_M: 1.0
VS30_M/S: 
SITE_CLASSIFICATION_EC8: C*
MORPHOLOGIC_CLASSIFICATION: 
EPICENTRAL_DISTANCE_KM: 24.0
EARTHQUAKE_BACKAZIMUTH_DEGREE: 290.4
DATE_TIME_FIRST_SAMPLE_YYYYMMDD_HHMMSS: 20120529_065953.000
DATE_TIME_FIRST_SAMPLE_PRECISION: milliseconds
SAMPLING_INTERVAL_S: 0.005000
NDATA: 20001
DURATION_S: 100.005
STREAM: HNZ
UNITS: cm/s
INSTRUMENT: sensor = Episensor FBA ES-T [Kinemetrics] | digitizer = Unknown [Unknown]
INSTRUMENT_ANALOG/DIGITAL: D
INSTRUMENTAL_FREQUENCY_HZ: 
INSTRUMENTAL_DAMPING: 
FULL_SCALE_G: 
N_BIT_DIGITAL_CONVERTER: 
PGV_CM/S: 1.970965
TIME_PGV_S: 21.570000
BASELINE_CORRECTION: BASELINE REMOVED
FILTER_TYPE: BUTTERWORTH
FILTER_ORDER: 2
LOW_CUT_FREQUENCY_HZ: 0.060
HIGH_CUT_FREQUENCY_HZ: 40.000
LATE/NORMAL_TRIGGERED: NT
DATABASE_VERSION: DYNA 1.0
HEADER_FORMAT: DYNA 1.2
DATA_TYPE: VELOCITY
PROCESSING: manual (Paolucci et al., 2011)
DATA_TIMESTAMP_YYYYMMDD_HHMMSS: 
DATA_LICENSE: CC-BY4_0 (http://creativecommons.org/licenses/by/4.0/)
DATA_CITATION: ESM working group (2015), European Strong-Motion database, version 0.1, Network Activity 3: Networking acceleration networks and SM data users. Project NERA (www.nera-eu.org)
DATA_CREATOR: ESM working group
ORIGINAL_DATA_MEDIATOR_CITATION: Orfeus - European Integrated Data Archive (EIDA) http://www.orfeus-eu.org/eida/
ORIGINAL_DATA_MEDIATOR: Orfeus - European Integrated Data Archive (EIDA)
ORIGINAL_DATA_CREATOR_CITATION: Data for this study comes from the Italian national seismic network operated by Istituto Nazionale di Geofisica e Vulcanologia and archived at the European Integrated Data Archive http://eida.rm.ingv.it/
ORIGINAL_DATA_CREATOR: network: IV (Italian National Seismic Network); owner: Istituto Nazionale di Geofisica e Vulcanologia
USER1: 
USER2: 
USER3: 
USER4: 
USER5: 
[...]
-0.001086
-0.001535
-0.001872
-0.002014
-0.001917
-0.001624
-0.001272
-0.001003
-0.000875
-0.000851
-0.000818
-0.000623
-0.000154
0.000565
0.001415
0.002308
0.003219
0.004096
0.004752
0.004911
0.004370
0.003071
0.001146
-0.001025
-0.002940
-0.004285
-0.005043
-0.005340
-0.005331
-0.005166
-0.004966
-0.004826
-0.004796
-0.004870
-0.004980
-0.005030
-0.004924
-0.004627
-0.004234
-0.003907
-0.003721
-0.003604
-0.003449
-0.003214
-0.002945
-0.002757
-0.002791
-0.003044
-0.003189
-0.002708
-0.001253
0.001171
0.004151
0.006779
0.007934
0.006968
0.003949
-0.000561
-0.005657
-0.010327
-0.013903
-0.016202
-0.017285
-0.017269
-0.016268
-0.014360
-0.011598
-0.008156
-0.004504
-0.001347
0.000633
0.000936
-0.000513
-0.003040
-0.005471
-0.006829
-0.006641
-0.004846
-0.001750
0.002119
0.006328
0.010631
0.014717
0.017968
0.019661
0.019489
0.017748
0.015084
0.012301
0.010213
0.009392
0.010067
0.012081
0.014735
0.016929
0.017576
0.015855
0.011509
0.005235
-0.001617
-0.007912
-0.013086
-0.016908
-0.019269
-0.020122
-0.019448
-0.017278
-0.013904
-0.010142
-0.007173
-0.006032
-0.007323
-0.010947
-0.015728
-0.019830
-0.021886
-0.021493
-0.019121
-0.016085
-0.013939
-0.013226
-0.013129
-0.012473
-0.010703
-0.007959
-0.004754
-0.001690
0.000984
0.003796
0.007659
0.012895
0.018862
0.024379
0.028119
0.028971
0.026625
0.021677
0.015084
0.007718
0.000299
-0.006577
-0.012375
-0.016523
-0.018388
-0.017543
-0.014282
-0.009707
-0.005094
-0.001308
0.001215
0.002242
0.001600
-0.000827
-0.004998
-0.010566
-0.016706
-0.022180
-0.025999
-0.028109
-0.029131
-0.029496
-0.029109
-0.027805
-0.025870
-0.024077
-0.023432
-0.024896
-0.028662
-0.033337
-0.036521
-0.036472
-0.032767
-0.025800
-0.016392
-0.005556
0.005841
0.017136
0.027475
0.035415
0.039279
0.038088
0.031970
0.022131
0.011001
0.001593
-0.004015
-0.005332
-0.003301
-0.000335
0.000629
-0.001822
-0.006919
-0.012968
-0.018461
-0.022422
-0.024609
-0.025398
-0.025076
-0.023225
-0.019067
-0.012434
-0.004133
0.004486
0.011893
0.016663
0.017922
0.015544
0.010210
0.003598
-0.002281
-0.006576
-0.010070
-0.014107
-0.019488
-0.025931
-0.031574
-0.033235
-0.028540
-0.018193
-0.005465
0.006111
0.013946
0.016818
0.015404
0.011714
0.007593
0.004059
0.001491
-0.000207
-0.001375
-0.002171
-0.002358
-0.001274
0.002115
0.008525
0.017018
0.024732
0.028521
0.026669
0.019305
0.008358
-0.002913
-0.011606
-0.016808
-0.019296
-0.020136
-0.019933
-0.018667
-0.015568
-0.009506
0.000157
0.013129
0.027928
0.041482
0.049991
0.051022
0.044303
0.031104
0.013866
-0.004532
-0.022221
-0.038706
-0.053634
-0.065622
-0.072643
-0.073397
-0.067854
-0.056943
-0.042437
-0.026692
-0.012045
-0.000514
0.006475
0.008585
0.006662
0.002570
-0.001213
-0.002996
-0.003297
-0.004137
-0.006864
-0.011241
-0.016090
-0.019945
-0.021625
-0.021082
-0.019486
-0.018000
-0.016673
-0.014886
-0.012758
-0.011569
-0.012508
-0.015317
-0.018413
-0.019932
-0.018425
-0.013698
-0.007731
-0.003681
-0.003343
-0.006274
-0.011130
-0.016921
-0.023207
-0.029919
-0.037045
-0.043825
-0.047909
-0.046192
-0.036961
-0.020770
0.000031
0.021505
0.039188
0.050310
0.054526
0.052838
0.046790
0.038041
0.027759
0.016498
0.004814
-0.006153
-0.014869
-0.020126
-0.021306
-0.018239
-0.011210
-0.001076
0.010587
0.021553
0.029620
0.033338
0.032256
0.027020
0.019158
0.010109
0.000364
-0.010271
-0.021737
-0.033284
-0.043589
-0.050898
-0.053545
-0.050964
-0.043979
-0.034169
-0.023379
-0.013350
-0.005113
0.001203
0.006150
0.010871
0.016723
0.024457
0.033845
0.043634
0.051366
0.054145
0.050378
0.040435
0.026113
0.010380
-0.003299
-0.012346
-0.015529
-0.012399
-0.002981
0.012111
0.031417
0.052575
0.072650
0.088376
0.096759
0.096253
0.087136
0.071105
0.051219
0.031293
0.014466
0.002616
-0.003587
-0.004911
-0.003287
-0.000982
-0.000091
-0.001948
-0.006381
-0.011849
-0.016214
-0.017382
-0.014474
-0.009094
-0.004381
-0.002360
-0.002849
-0.004204
-0.004065
-0.000525
0.005856
0.011743
0.013743
0.011177
0.006042
0.001489
0.000695
0.005251
0.013450
0.021217
0.024999
0.023143
0.015927
0.005776
-0.003797
-0.010579
-0.014533
-0.016800
-0.018778
-0.021405
-0.024158
-0.024916
-0.021358
-0.012329
0.002040
0.020804
0.042485
0.065134
0.086163
0.102589
0.111788
0.111901
0.102458
0.085401
0.064756
0.045186
0.031141
0.025883
0.030243
0.042608
0.059701
0.077379
0.092322
0.103691
0.112540
0.119793
0.125260
0.127855
0.125959
0.118365
0.105943
0.091936
0.079847
0.071333
0.066066
0.062538
0.058725
0.053041
0.045183
0.035703
0.024764
0.011673
-0.004368
-0.023344
-0.044074
-0.064094
-0.079925
-0.088508
-0.088712
-0.081195
-0.067334
-0.048551
-0.025908
0.000089
0.028855
0.058492
0.085586
0.107042
0.122047
0.131848
0.138234
0.142593
0.145188
0.144472
0.138069
0.125078
0.106812
0.085349
0.062257
0.038768
0.016623
-0.001595
-0.013104
-0.015783
-0.008900
0.005942
0.024784
0.042999
0.056893
0.064434
0.065987
0.064245
0.062690
0.064205
0.070236
0.079762
0.089385
0.095587
0.096852
0.093472
0.086114
0.074884
0.058535
0.033831
-0.002753
-0.051274
-0.106931
-0.161650
-0.205408
-0.229107
-0.229946
-0.212642
-0.184446
-0.150689
-0.113891
-0.073950
-0.029156
0.020425
0.069664
0.110498
0.137964
0.152385
0.156580
0.153351
0.144704
0.131402
0.113245
0.090914
0.067767
0.048598
0.036148
0.029754
0.026541
0.022432
0.013602
-0.000929
-0.018581
-0.035158
-0.046602
-0.050182
-0.046086
-0.037513
-0.028102
-0.019535
-0.011572
-0.003228
0.006409
0.017334
0.027791
0.034915
0.036544
0.032049
0.022409
0.010466
-0.000097
-0.007093
-0.010719
-0.012735
-0.015817
-0.022599
-0.033952
-0.048599
-0.064700
-0.081199
-0.097472
-0.112097
-0.122456
-0.125866
-0.120915
-0.107886
-0.088850
-0.067227
-0.045837
-0.024944
-0.002693
0.022984
0.053290
0.087845
0.123760
0.156298
0.180904
0.194229
0.194660
0.183070
0.161920
0.132937
0.096137
0.050685
-0.003952
-0.066637
-0.132568
-0.193168
-0.239836
-0.267829
-0.276680
-0.269030
-0.249332
-0.221454
-0.186819
-0.145853
-0.101560
-0.060684
-0.030971
-0.018215
-0.025131
-0.050569
-0.089738
-0.135865
-0.181093
-0.217159
-0.236830
-0.234685
-0.208558
-0.161910
-0.102786
-0.039973
0.018983
0.068502
0.105899
0.130946
0.144470
0.147611
0.142049
0.130717
0.117917
0.108879
0.109081
0.121714
0.144528
0.170562
0.191618
0.200377
0.192500
0.169089
0.135402
0.096759
0.056719
0.017787
-0.017767
-0.047668
-0.069685
-0.081735
-0.082604
-0.073019
-0.055646
-0.034328
-0.013438
0.003352
0.014341
0.019460
0.018963
0.012644
-0.000472
-0.022241
-0.054267
-0.095648
-0.142310
-0.188567
-0.228345
-0.255889
-0.266846
-0.258548
-0.229774
-0.181147
-0.115326
-0.036882
0.047884
0.131269
0.204174
0.257316
0.284045
0.281517
0.251085
0.199700
0.138059
0.075514
0.017818
-0.032405
-0.075407
-0.112396
-0.141750
-0.158095
-0.156568
-0.137612
-0.107111
-0.073852
-0.047338
-0.033731
-0.031730
-0.035301
-0.041357
-0.052652
-0.073803
-0.106782
-0.149036
-0.192283
-0.223562
-0.232241
-0.217442
-0.186927
-0.150784
-0.117620
-0.091661
-0.069842
-0.044851
-0.012811
0.023724
0.058810
0.086095
0.100940
0.103280
0.097754
0.089018
0.077388
0.060061
0.035664
0.006246
-0.023866
-0.049300
-0.065525
-0.072102
-0.073397
-0.075352
-0.082404
-0.096228
-0.114687
-0.132270
-0.143896
-0.148825
-0.150762
-0.155940
-0.171314
-0.200694
-0.240565
-0.282045
-0.317244
-0.342084
-0.355366
-0.358022
-0.352015
-0.338394
-0.316685
-0.286356
-0.248542
-0.206369
-0.164590
-0.129054
-0.104939
-0.094643
-0.097126
-0.107855
-0.119681
-0.126507
-0.126857
-0.122841
-0.116258
-0.106588
-0.090823
-0.063451
-0.018879
0.043652
0.118529
0.196781
0.268567
0.325082
0.361544
0.377879
0.376694
0.362122
0.339447
0.314445
0.293211
0.282075
0.286946
0.310739
0.348731
0.387743
0.412001
0.409045
0.373075
0.308702
0.230110
0.150979
0.075166
-0.000735
-0.077835
-0.150363
-0.206790
-0.231437
-0.210575
-0.143941
-0.047532
0.056668
0.149950
0.219827
0.262073
0.279776
0.277188
0.254617
0.209356
0.139822
0.048173
-0.056850
-0.156542
-0.228013
-0.258202
-0.248930
-0.211204
-0.160834
-0.113686
-0.077483
-0.049928
-0.026157
-0.005524
0.008597
0.012389
0.003223
-0.020885
-0.061754
-0.120194
-0.194145
-0.278172
-0.364857
-0.445680
-0.511847
-0.555905
-0.572233
-0.557005
-0.509196
-0.431867
-0.333703
-0.228654
-0.131275
-0.052147
0.003165
0.034077
0.043817
0.035789
0.010672
-0.032438
-0.092547
-0.165120
-0.242234
-0.312469
-0.363643
-0.388765
-0.387893
-0.364998
-0.325673
-0.275859
-0.219919
-0.160290
-0.099631
-0.043105
0.001897
0.027743
0.028219
0.002408
-0.040470
-0.084281
-0.115635
-0.128226
-0.122387
-0.105563
-0.089525
-0.083915
-0.093571
-0.119383
-0.158191
-0.202949
-0.243764
-0.269569
-0.273755
-0.260430
-0.241333
-0.226082
-0.218024
-0.216557
-0.219109
-0.221996
-0.221394
-0.213729
-0.196012
-0.166793
-0.127755
-0.086041
-0.053793
-0.041363
-0.050399
-0.075778
-0.113003
-0.161177
-0.219580
-0.283512
-0.344425
-0.392780
-0.420009
-0.421570
-0.400677
-0.366370
-0.327321
-0.288936
-0.253647
-0.221033
-0.188969
-0.156001
-0.122122
-0.087049
-0.048251
-0.001225
0.058682
0.134532
0.223447
0.311346
0.377206
0.405058
0.388932
0.330909
0.240911
0.135150
0.031955
-0.050630
-0.097860
-0.102352
-0.064939
0.006127
0.097002
0.193267
0.283990
0.361148
0.417146
0.444536
0.441540
0.418884
0.395252
0.383894
0.387022
0.398853
0.407862
0.400833
0.370425
0.317116
0.243406
0.149129
0.034193
-0.094192
-0.219565
-0.323345
-0.392203
-0.420329
-0.410350
-0.372211
-0.318058
-0.258013
-0.198721
-0.142043
-0.085238
-0.023424
0.048646
0.135429
0.238862
0.357829
0.488399
0.622823
0.749048
0.851178
0.911270
0.917363
0.872786
0.793064
0.694159
0.586586
0.475135
0.359085
0.237068
0.116389
0.015193
-0.048087
-0.065946
-0.042488
0.011187
0.080798
0.154655
0.229097
0.307158
0.393252
0.490216
0.597556
0.709084
0.812969
0.893688
0.934098
0.921750
0.856708
0.751566
0.626554
0.505339
0.407330
0.339898
0.300616
0.285664
0.293701
0.323248
0.368478
0.417670
0.453252
0.454218
0.407765
0.322789
0.225947
0.145642
0.103163
0.107283
0.147728
0.202014
0.253344
0.297715
0.337531
0.375151
0.409710
0.434068
0.435404
0.404264
0.344336
0.270382
0.198604
0.141340
0.103745
0.079453
0.052842
0.006608
-0.073934
-0.196981
-0.359068
-0.546389
-0.740964
-0.924460
-1.081919
-1.205488
-1.293010
-1.343431
-1.354713
-1.325693
-1.258928
-1.160732
-1.039328
-0.903899
-0.764249
-0.630386
-0.510283
-0.405434
-0.310170
-0.217451
-0.124884
-0.036877
0.034375
0.070902
0.059905
0.005489
-0.074659
-0.162522
-0.246319
-0.320962
-0.388477
-0.453967
-0.517269
-0.570446
-0.604538
-0.616695
-0.610625
-0.593674
-0.574130
-0.556157
-0.534692
-0.499097
-0.443249
-0.369911
-0.288850
-0.215438
-0.165709
-0.146632
-0.153453
-0.176995
-0.210065
-0.248605
-0.291245
-0.338013
-0.386252
-0.426395
-0.444310
-0.428497
-0.373089
-0.277218
-0.145837
0.009991
0.173844
0.324781
0.440121
0.498522
0.484620
0.396974
0.249611
0.065059
-0.130172
-0.308707
-0.448056
-0.532731
-0.554458
-0.514406
-0.421114
-0.284250
-0.112220
0.083920
0.284904
0.464007
0.592857
0.646292
0.613681
0.512694
0.380036
0.244241
0.114598
-0.010000
-0.131857
-0.248030
-0.342369
-0.385601
-0.353033
-0.243967
-0.080678
0.104527
0.277509
0.410238
0.489095
0.514780
0.497737
0.454162
0.400203
0.347417
0.303377
0.274413
0.266381
0.280546
0.307923
0.331746
0.336286
0.311895
0.259376
0.195792
0.148211
0.137126
0.169766
0.243736
0.348621
0.467216
0.578546
0.659705
0.688833
0.648805
0.529918
0.333381
0.071945
-0.231820
-0.544552
-0.827291
-1.048475
-1.189235
-1.242824
-1.216808
-1.129137
-0.997731
-0.836577
-0.660249
-0.488505
-0.341660
-0.228542
-0.142409
-0.066930
0.018875
0.133384
0.279610
0.442310
0.599836
0.734401
0.833608
0.889325
0.896005
0.848603
0.742509
0.578188
0.369621
0.146486
-0.053626
-0.192448
-0.239326
-0.185125
-0.045248
0.151672
0.371560
0.580223
0.752372
0.873920
0.937136
0.938400
0.879803
0.772326
0.635853
0.492954
0.362956
0.258758
0.182958
0.127725
0.080163
0.026289
-0.045970
-0.141936
-0.258538
-0.385529
-0.505219
-0.596706
-0.645617
-0.647610
-0.605074
-0.525195
-0.417747
-0.290816
-0.149425
0.001783
0.155541
0.301609
0.428035
0.522429
0.576024
0.588879
0.569518
0.530901
0.487399
0.450283
0.423093
0.403050
0.386279
0.370335
0.353457
0.333336
0.306763
0.269825
0.218476
0.151156
0.072206
-0.008655
-0.079616
-0.128682
-0.145533
-0.123942
-0.062956
0.032136
0.150288
0.278151
0.403170
0.516346
0.616585
0.711040
0.808463
0.912773
1.021677
1.127154
1.216896
1.278903
1.305688
1.293843
1.241331
1.146492
1.011107
0.845227
0.667017
0.498781
0.364288
0.284552
0.273012
0.335040
0.469440
0.669505
0.921756
1.201996
1.477547
1.715637
1.887473
1.970965
1.955342
1.841436
1.639169
1.365721
1.045410
0.712208
0.406083
0.162320
0.007010
-0.044331
0.008543
0.150936
0.357910
0.597561
0.834686
1.033620
1.163691
1.209815
1.175026
1.073698
0.928105
0.765043
0.608777
0.478641
0.390815
0.358471
0.388524
0.475587
0.601056
0.740021
0.866744
0.958502
1.001674
0.992838
0.934077
0.830588
0.691319
0.530245
0.366340
0.220165
0.110175
0.049195
0.039016
0.069770
0.126284
0.192965
0.256219
0.307755
0.344642
0.364374
0.360876
0.327262
0.263126
0.177337
0.085305
0.006679
-0.040542
-0.051202
-0.035503
-0.008541
0.018957
0.041530
0.056802
0.063564
0.059523
0.039758
-0.000990
-0.063176
-0.141215
-0.228203
-0.320171
-0.415231
-0.510083
-0.598691
-0.674315
-0.731651
-0.766876
-0.776762
-0.758016
-0.707463
-0.623208
-0.507281
-0.369807
-0.229539
-0.107460
-0.020323
0.022479
0.022169
-0.009881
-0.059153
-0.114054
-0.167963
-0.220793
-0.277876
-0.343026
-0.411957
-0.474813
-0.524635
-0.561078
-0.588942
-0.616873
-0.653652
-0.701158
-0.752488
-0.797520
-0.827840
-0.837618
-0.823355
-0.783751
-0.721226
-0.644804
-0.569025
-0.509335
-0.479412
-0.488147
-0.535725
-0.615209
-0.718208
-0.837567
-0.966295
-1.095523
-1.213466
-1.305113
-1.353198
-1.344630
-1.278634
-1.167135
-1.030459
-0.893256
-0.776046
-0.686456
-0.620539
-0.569986
-0.526181
-0.481177
-0.427601
-0.357841
-0.263104
-0.134026
0.033165
0.228611
0.430325
0.612529
0.750567
0.825763
0.831364
0.771975
0.658893
0.507184
0.334086
0.158568
-0.000918
-0.131645
-0.228359
-0.292154
-0.331011
-0.357517
-0.383068
-0.415224
-0.457469
-0.508147
-0.561311
-0.609466
-0.645626
-0.666758
-0.677684
-0.688522
-0.707181
-0.735795
-0.770572
-0.801182
-0.814804
-0.804968
-0.774223
-0.728199
-0.670263
-0.601485
-0.522954
-0.437291
-0.349827
-0.269635
-0.206386
-0.163329
-0.135111
-0.112209
-0.084902
-0.046006
0.005280
0.062503
0.115074
0.150554
0.157363
0.129615
0.068607
-0.019140
-0.122295
-0.225948
-0.314909
-0.375331
-0.396347
-0.372882
-0.306711
-0.206658
-0.087735
0.032159
0.134790
0.204357
0.232445
0.219506
0.173156
0.108321
0.043944
-0.004828
-0.029574
-0.026650
0.003474
0.056176
0.122918
0.191809
0.249594
0.283619
0.284421
0.250138
0.187115
0.104837
0.011915
-0.084518
-0.178612
-0.265384
-0.340379
-0.399970
-0.442341
-0.469127
-0.485428
-0.496673
-0.505351
-0.510050
-0.505264
-0.482123
-0.432006
-0.350494
-0.238935
-0.105354
0.036335
0.170944
0.286049
0.372694
0.425286
0.441007
0.419480
0.363955
0.282270
0.187362
0.096268
0.024165
-0.022391
-0.046336
-0.058086
-0.073055
-0.105682
-0.163316
-0.244779
-0.340686
-0.434984
-0.510095
-0.551543
-0.550039
-0.503714
-0.418000
-0.302532
-0.169851
-0.035022
0.085619
0.175314
0.219481
0.209430
0.143705
0.028513
-0.123204
-0.295220
-0.470285
-0.631980
-0.768253
-0.872499
-0.942757
-0.982172
-0.997213
-0.993261
-0.972769
-0.936619
-0.885704
-0.822307
-0.751878
-0.683214
-0.625290
-0.583822
-0.560301
-0.551824
-0.551778
-0.552099
-0.544702
-0.521475
-0.474115
-0.394182
-0.275115
-0.115514
0.079270
0.296272
0.515646
0.715217
0.874619
0.978200
1.019323
1.001170
0.933818
0.833312
0.718714
0.605395
0.502795
0.417339
0.354621
0.319315
0.314034
0.338600
0.388352
0.451431
0.511489
0.555261
0.575495
0.569038
0.535803
0.478442
0.401755
0.312222
0.217341
0.125249
0.043681
-0.022234
-0.070409
-0.100189
-0.111521
-0.105937
-0.088532
-0.068452
-0.057060
-0.066557
-0.108522
-0.191215
-0.318359
-0.487530
-0.686653
-0.895758
-1.093562
-1.261246
-1.386231
-1.466971
-1.510521
-1.524744
-1.514764
-1.484630
-1.439594
-1.386418
-1.332423
-1.284682
-1.247856
-1.221428
-1.200446
-1.178733
-1.150308
-1.108724
-1.046347
-0.956281
-0.836725
-0.692361
-0.532191
-0.368241
-0.213340
-0.076620
0.037847
0.128923
0.197185
0.244860
0.275869
0.295545
0.309337
0.321609
0.335562
0.353501
0.377147
0.407843
0.446442
0.493090
0.546983
0.606444
0.669482
0.734061
0.797647
0.856373
0.904960
0.938396
0.953785
0.950479
0.929353
0.892126
0.840565
0.776203
0.701372
0.621117
0.543519
0.476842
0.426495
0.394413
0.379344
0.377604
0.385057
0.398733
0.416997
0.439296
0.465856
0.497119
0.533161
0.573036
0.613816
0.650493
0.677588
0.690728
0.687139
0.665948
0.628094
0.576020
0.513949
0.447534
0.382616
0.324624
0.278090
0.245854
0.228720
0.225282
0.232027
0.243734
0.253470
0.253974
0.240767
0.213324
0.174500
0.130696
0.090332
0.060231
0.044068
0.042511
0.052695
0.069063
0.085702
0.097366
0.099354
0.087653
0.060016
0.017986
-0.032611
-0.083369
-0.124606
-0.147527
-0.148263
-0.128949
-0.095132
-0.054100
-0.013854
0.018701
0.038601
0.043676
0.036232
0.022415
0.009624
0.004815
0.012242
0.030735
0.054554
0.076809
0.091173
0.092227
0.075842
0.039628
-0.016333
-0.089392
-0.174905
-0.266240
-0.355819
-0.437637
-0.508097
-0.565132
-0.607770
-0.636209
-0.651985
-0.657741
-0.655873
-0.647043
-0.629899
-0.601344
-0.557173
-0.494431
-0.414151
-0.321343
-0.223320
-0.128569
-0.045425
0.019158
0.060104
0.074807
0.063050
0.026457
-0.031326
-0.104941
-0.188484
-0.276159
-0.363034
-0.446050
-0.524216
-0.598411
-0.670803
-0.743002
-0.814237
-0.881720
-0.942369
-0.993595
-1.032978
-1.057722
-1.064388
-1.048820
-1.006527
-0.935084
-0.837248
-0.720640
-0.595044
-0.470768
-0.357078
-0.260554
-0.184846
-0.130932
-0.097659
-0.082532
-0.081745
-0.090089
-0.101207
-0.107723
-0.101653
-0.074956
-0.021150
0.061657
0.170025
0.297289
0.434824
0.573370
0.705644
0.827061
0.934190
1.023540
