EVENT_NAME: EMILIA_2ND_SHOCK
EVENT_ID: IT-2012-0011
EVENT_DATE_YYYYMMDD: 20120529
EVENT_TIME_HHMMSS: 070002
EVENT_LATITUDE_DEGREE: 44.8417
EVENT_LONGITUDE_DEGREE: 11.0657
EVENT_DEPTH_KM: 8.1
HYPOCENTER_REFERENCE: INGV-CNT_Seismic_Bulletin
MAGNITUDE_W: 6.0
MAGNITUDE_W_REFERENCE: RCMT-INGV
MAGNITUDE_L: 5.8
MAGNITUDE_L_REFERENCE: INGV-CNT_Seismic_Bulletin
FOCAL_MECHANISM: TF
NETWORK: IV
STATION_CODE: T0824
STATION_NAME: T0824
STATION_LATITUDE_DEGREE: 44.759400
STATION_LONGITUDE_DEGREE: 10.927600
STATION_ELEVATION_M: 72
LOCATION: 
SENSOR_DEPTH_M: 1.0
VS30_M/S: 
SITE_CLASSIFICATION_EC8: C*
MORPHOLOGIC_CLASSIFICATION: 
EPICENTRAL_DISTANCE_KM: 14.2
EARTHQUAKE_BACKAZIMUTH_DEGREE: 50.0
DATE_TIME_FIRST_SAMPLE_YYYYMMDD_HHMMSS: 20120529_065943.000
DATE_TIME_FIRST_SAMPLE_PRECISION: milliseconds
SAMPLING_INTERVAL_S: 0.005000
NDATA: 22001
DURATION_S: 110.005
STREAM: HNZ
UNITS: cm/s^2
INSTRUMENT: sensor = Episensor FBA ES-T [Kinemetrics] | digitizer = Unknown [Unknown]
INSTRUMENT_ANALOG/DIGITAL: D
INSTRUMENTAL_FREQUENCY_HZ: 
INSTRUMENTAL_DAMPING: 
FULL_SCALE_G: 
N_BIT_DIGITAL_CONVERTER: 
PGA_CM/S^2: 96.397845
TIME_PGA_S: 25.370000
BASELINE_CORRECTION: BASELINE REMOVED
FILTER_TYPE: BUTTERWORTH
FILTER_ORDER: 2
LOW_CUT_FREQUENCY_HZ: 0.100
HIGH_CUT_FREQUENCY_HZ: 40.000
LATE/NORMAL_TRIGGERED: NT
DATABASE_VERSION: DYNA 1.0
HEADER_FORMAT: DYNA 1.2
DATA_TYPE: ACCELERATION
PROCESSING: manual (Paolucci et al., 2011)
DATA_TIMESTAMP_YYYYMMDD_HHMMSS: 
DATA_LICENSE: CC-BY4_0 (http://creativecommons.org/licenses/by/4.0/)
DATA_CITATION: ESM working group (2015), European Strong-Motion database, version 0.1, Network Activity 3: Networking acceleration networks and SM data users. Project NERA (www.nera-eu.org)
DATA_CREATOR: ESM working group
ORIGINAL_DATA_MEDIATOR_CITATION: Orfeus - European Integrated Data Archive (EIDA) http://www.orfeus-eu.org/eida/
ORIGINAL_DATA_MEDIATOR: Orfeus - European Integrated Data Archive (EIDA)
ORIGINAL_DATA_CREATOR_CITATION: Data for this study comes from the Italian national seismic network operated by Istituto Nazionale di Geofisica e Vulcanologia and archived at the European Integrated Data Archive http://eida.rm.ingv.it/
ORIGINAL_DATA_CREATOR: network: IV (Italian National Seismic Network); owner: Istituto Nazionale di Geofisica e Vulcanologia
USER1: 
USER2: 
USER3: 
USER4: 
USER5: 
[...]
-0.001112
-0.002120
-0.002642
-0.004089
-0.006972
-0.009628
-0.009919
-0.007915
-0.005784
-0.004760
-0.003556
-0.000714
0.002957
0.005460
0.006161
0.005887
0.005020
0.003438
0.001969
0.001843
0.002845
0.003562
0.003782
0.005033
0.008034
0.011132
0.012182
0.011052
0.009285
0.007785
0.006069
0.003607
0.000856
-0.001114
-0.001319
0.000861
0.005067
0.009424
0.011709
0.011500
0.010522
0.010324
0.010446
0.009736
0.008384
0.007519
0.007322
0.006833
0.005604
0.004208
0.003094
0.002176
0.001643
0.002092
0.003295
0.003897
0.003138
0.001927
0.001446
0.001404
0.000807
-0.000109
-0.000246
0.000365
0.000353
-0.000948
-0.002511
-0.003354
-0.003959
-0.005145
-0.006587
-0.007383
-0.007424
-0.006875
-0.005035
-0.001307
0.003124
0.006047
0.006774
0.006496
0.005835
0.003972
0.000786
-0.001907
-0.002360
-0.001056
0.000485
0.001852
0.003402
0.004931
0.006077
0.007447
0.009650
0.011646
0.012031
0.011271
0.010893
0.011015
0.010492
0.009479
0.009519
0.010907
0.012281
0.012713
0.012501
0.011881
0.010444
0.008323
0.006330
0.004452
0.001744
-0.001902
-0.004961
-0.005906
-0.004804
-0.002580
0.000314
0.003774
0.007259
0.009945
0.011678
0.013071
0.014327
0.014594
0.013165
0.010691
0.008208
0.005777
0.003192
0.001309
0.001316
0.002830
0.004410
0.005903
0.008332
0.011459
0.013315
0.012763
0.010928
0.009060
0.006950
0.004412
0.002590
0.002771
0.004736
0.007188
0.008988
0.009245
0.007580
0.004872
0.002556
0.000974
-0.000656
-0.002472
-0.003336
-0.002511
-0.000428
0.002578
0.006616
0.011076
0.014478
0.016080
0.016572
0.016550
0.015660
0.013784
0.011739
0.010172
0.008598
0.006559
0.005056
0.005489
0.007488
0.009021
0.008854
0.007679
0.006449
0.005070
0.003289
0.001686
0.000932
0.000828
0.001020
0.001717
0.002956
0.004222
0.005241
0.006260
0.007198
0.007317
0.006336
0.004828
0.003116
0.001267
0.000085
0.000554
0.002373
0.004341
0.006242
0.008731
0.011264
0.012379
0.012053
0.011741
0.012068
0.011983
0.010674
0.008805
0.007158
0.005639
0.004118
0.002992
0.002506
0.002414
0.002782
0.004031
0.005905
0.007825
0.009973
0.012422
0.013735
0.012190
0.008672
0.006260
0.006167
0.006470
0.005539
0.004536
0.005401
0.007907
0.010405
0.012077
0.013030
0.013501
0.013891
0.014626
0.015246
0.014511
0.012346
0.010237
0.008828
0.007107
0.004787
0.003595
0.004731
0.006507
0.006710
0.006100
0.007335
0.010925
0.014304
0.015396
0.014966
0.014584
0.014067
0.012184
0.009051
0.006362
0.005543
0.006656
0.008766
0.010847
0.012594
0.014479
0.016830
0.018949
0.019802
0.019620
0.019446
0.018988
0.016649
0.012168
0.007740
0.005380
0.004587
0.004073
0.004164
0.005963
0.009041
0.011242
0.010954
0.008814
0.006792
0.005935
0.005348
0.003652
0.001313
0.000434
0.001840
0.003588
0.003364
0.001631
0.000941
0.002470
0.004860
0.006301
0.006495
0.006324
0.006379
0.006501
0.006525
0.006719
0.007251
0.007931
0.008953
0.011124
0.014598
0.017870
0.019263
0.019098
0.018970
0.019212
0.018584
0.016726
0.015316
0.015818
0.017731
0.019853
0.021742
0.023227
0.023598
0.022546
0.021265
0.021278
0.022478
0.023145
0.021963
0.019656
0.018142
0.017956
0.017422
0.015014
0.011530
0.009072
0.008551
0.009244
0.010342
0.011339
0.011388
0.010014
0.008089
0.006938
0.006689
0.006564
0.006686
0.008032
0.010690
0.013468
0.015153
0.015428
0.014642
0.013255
0.011668
0.010219
0.009171
0.008769
0.009237
0.010617
0.012509
0.013992
0.014089
0.012743
0.011104
0.010419
0.010856
0.011779
0.012909
0.014488
0.016271
0.017288
0.016893
0.015490
0.013971
0.012730
0.011574
0.010532
0.010204
0.010946
0.011949
0.011921
0.011060
0.011410
0.014178
0.017590
0.018901
0.018038
0.017416
0.017961
0.017818
0.015719
0.013294
0.012849
0.014290
0.015943
0.017249
0.018669
0.019998
0.020552
0.020605
0.020952
0.021021
0.019377
0.016134
0.013159
0.011945
0.012345
0.013499
0.015073
0.017150
0.019559
0.021657
0.022641
0.022117
0.020416
0.018266
0.016098
0.013812
0.011454
0.009783
0.009682
0.011259
0.013975
0.017355
0.020834
0.023190
0.023383
0.021838
0.019818
0.017634
0.014455
0.010200
0.006591
0.005568
0.007259
0.009991
0.011881
0.012017
0.010679
0.009168
0.008815
0.009672
0.010919
0.012334
0.014331
0.016790
0.018982
0.020716
0.022183
0.022501
0.020467
0.016931
0.014571
0.014997
0.017289
0.019825
0.022167
0.024395
0.025966
0.026137
0.024943
0.023150
0.021479
0.020372
0.020129
0.020676
0.021390
0.021510
0.020818
0.019851
0.019298
0.019090
0.018374
0.016695
0.015090
0.015303
0.017661
0.020462
0.021684
0.020588
0.017717
0.014094
0.010823
0.008857
0.008443
0.009187
0.010944
0.013954
0.017690
0.020273
0.020068
0.017625
0.015179
0.014352
0.014756
0.014797
0.013567
0.011811
0.011143
0.012405
0.014778
0.016348
0.015660
0.013008
0.010241
0.009101
0.009753
0.011062
0.012132
0.013046
0.014231
0.015732
0.017047
0.017382
0.016304
0.014352
0.012702
0.011927
0.011502
0.011035
0.011246
0.013013
0.016102
0.019555
0.022946
0.026226
0.028668
0.029300
0.028176
0.026180
0.023753
0.020620
0.016912
0.013877
0.012948
0.014235
0.016422
0.018284
0.019871
0.021946
0.024703
0.027466
0.029325
0.029632
0.028287
0.026070
0.024326
0.023811
0.023973
0.023952
0.023983
0.024808
0.026082
0.026562
0.025990
0.025496
0.025578
0.025284
0.023989
0.022457
0.021452
0.020316
0.018110
0.015380
0.013389
0.012294
0.011348
0.010630
0.011233
0.013424
0.015901
0.017422
0.018253
0.019164
0.019844
0.019625
0.018954
0.018780
0.018984
0.018641
0.017722
0.017151
0.017173
0.017154
0.017101
0.018191
0.021149
0.024780
0.027018
0.027149
0.026235
0.025451
0.024881
0.024122
0.023113
0.021932
0.020526
0.019294
0.019264
0.020642
0.021914
0.021610
0.020546
0.021191
0.024556
0.028728
0.030917
0.030305
0.028444
0.027148
0.026622
0.025817
0.024083
0.021852
0.019935
0.018869
0.018963
0.020415
0.023021
0.026048
0.028792
0.031074
0.033010
0.034482
0.034791
0.033062
0.029631
0.026474
0.025314
0.025866
0.026676
0.027150
0.027833
0.028930
0.029639
0.028814
0.025742
0.021146
0.017380
0.016334
0.017508
0.019216
0.021013
0.023467
0.025884
0.026646
0.025606
0.023683
0.020711
0.015973
0.010753
0.008272
0.010093
0.014296
0.018021
0.020349
0.022167
0.024374
0.027094
0.029952
0.032152
0.032710
0.031400
0.029341
0.027884
0.026938
0.025505
0.023700
0.022845
0.023373
0.023917
0.023373
0.022722
0.023673
0.026237
0.028683
0.029658
0.029257
0.028144
0.026902
0.026022
0.025504
0.024477
0.022157
0.019404
0.018368
0.020250
0.024066
0.027730
0.029929
0.030798
0.031120
0.031301
0.031016
0.029774
0.027949
0.026858
0.027369
0.028730
0.029378
0.028867
0.028240
0.028446
0.029156
0.029147
0.027458
0.024316
0.021067
0.019101
0.018843
0.019732
0.020875
0.021626
0.021878
0.022125
0.023028
0.024621
0.026267
0.027547
0.028792
0.030485
0.032301
0.033064
0.031851
0.029028
0.025973
0.023782
0.022533
0.021980
0.022440
0.024294
0.027176
0.030405
0.033438
0.035559
0.036124
0.035353
0.034066
0.032302
0.029220
0.024947
0.021237
0.019821
0.021106
0.024508
0.029074
0.033434
0.036055
0.036377
0.034993
0.032337
0.028185
0.022875
0.018143
0.015888
0.016622
0.019653
0.023836
0.027741
0.030085
0.030633
0.030372
0.030304
0.030185
0.028974
0.026540
0.024343
0.023972
0.025395
0.027186
0.028188
0.028324
0.027845
0.026777
0.025418
0.024560
0.024835
0.026117
0.027837
0.029555
0.030959
0.031722
0.031617
0.030616
0.028936
0.027083
0.025665
0.025023
0.025131
0.025872
0.027243
0.029018
0.030336
0.030137
0.028340
0.026362
0.026022
0.027874
0.030869
0.033609
0.035504
0.036532
0.036469
0.034964
0.032333
0.029699
0.028062
0.027454
0.027099
0.026311
0.025262
0.024929
0.026192
0.028890
0.031847
0.033921
0.034617
0.033737
0.031317
0.028011
0.024825
0.022451
0.021229
0.021623
0.024060
0.028122
0.032420
0.035294
0.035577
0.033206
0.029419
0.026062
0.024335
0.024044
0.024056
0.023544
0.022861
0.023245
0.025442
0.028472
0.030307
0.030056
0.028842
0.028376
0.029187
0.030400
0.030839
0.030124
0.028850
0.027847
0.027209
0.026321
0.024998
0.024064
0.024673
0.027384
0.031579
0.035603
0.038000
0.038741
0.038775
0.038313
0.036319
0.032346
0.027997
0.025586
0.025877
0.027682
0.029403
0.030576
0.031843
0.033625
0.035129
0.035085
0.033537
0.031932
0.031071
0.030539
0.030320
0.031099
0.032635
0.033251
0.031738
0.028931
0.026651
0.025930
0.026520
0.027236
0.027114
0.026659
0.027119
0.028546
0.029581
0.029274
0.028231
0.027609
0.027799
0.028444
0.028817
0.028247
0.026874
0.025557
0.024656
0.023569
0.021877
0.020358
0.020139
0.021483
0.024033
0.027221
0.030064
0.031722
0.032478
0.033291
0.034078
0.033429
0.030679
0.027167
0.024737
0.023805
0.023517
0.023218
0.022880
0.022671
0.023031
0.024495
0.026663
0.027975
0.027421
0.026123
0.025943
0.026877
0.027299
0.026549
0.025841
0.026194
0.027019
0.027520
0.027838
0.027973
0.026938
0.024256
0.021388
0.020122
0.020512
0.021512
0.022425
0.023271
0.024640
0.027251
0.030806
0.033221
0.032479
0.029424
0.026787
0.025892
0.026224
0.027475
0.029999
0.033155
0.035130
0.035112
0.033951
0.032473
0.030676
0.028641
0.027122
0.026682
0.026792
0.026276
0.024524
0.022430
0.021957
0.023741
0.025701
0.025787
0.025020
0.025070
0.022734
0.010555
-0.015183
-0.050912
-0.091082
-0.132715
-0.177414
-0.239081
-0.351632
-0.555135
-0.858642
-1.218244
-1.567104
-1.869195
-2.118029
-2.276801
-2.264892
-2.037659
-1.668445
-1.314020
-1.047592
-0.722433
-0.081713
0.934158
2.010035
2.624246
2.411863
1.364141
-0.259165
-2.072525
-3.626677
-4.557378
-4.853301
-4.823862
-4.649925
-4.207235
-3.497072
-3.017854
-3.410562
-4.724543
-6.266420
-7.188829
-7.024947
-5.631817
-2.988493
0.509937
3.761077
5.628892
6.185286
6.783188
8.454703
10.618577
11.643040
10.367409
6.784724
1.497161
-4.747012
-10.900255
-15.624462
-17.598808
-15.734089
-9.651469
-0.718560
7.820640
13.015827
14.611607
14.523250
13.871803
11.259632
4.756978
-4.660848
-12.722632
-15.308097
-11.560468
-3.560995
5.415207
12.142639
14.859704
14.238564
12.288257
9.897376
6.074815
0.099674
-6.376187
-10.298555
-10.235440
-7.680355
-5.124267
-3.693022
-3.059617
-2.745523
-2.405143
-1.139451
2.034233
6.429500
9.363009
8.833476
5.994981
3.708839
3.146512
2.963673
1.727396
-0.202763
-1.764273
-2.785676
-3.340969
-2.301062
1.669033
7.591194
12.193663
12.776789
9.411735
4.334428
-0.141033
-3.013258
-4.876080
-7.190922
-10.542328
-13.240433
-12.357782
-7.040095
-0.026293
5.162506
7.433061
7.718152
6.644783
3.951030
-0.052307
-3.754230
-5.364436
-4.363338
-1.870571
0.279998
1.023919
0.954406
1.675199
3.789601
5.586899
4.389666
-0.474709
-6.302620
-9.000112
-6.545429
-0.645903
4.631966
5.971700
3.245644
-0.688996
-2.772324
-2.529951
-1.919827
-2.589852
-4.100914
-5.053804
-5.143845
-5.240938
-5.666848
-5.371372
-3.057765
1.306236
6.263951
9.986910
11.554808
11.263628
9.798244
7.252366
3.055996
-3.129713
-10.282121
-15.766947
-16.788836
-12.734020
-5.986746
-0.015839
3.294868
4.447147
4.944612
5.486254
5.451702
3.736763
-0.023256
-4.679132
-7.883240
-7.702984
-4.455952
-0.483294
2.406958
4.506626
6.822277
9.030452
9.605990
7.661214
3.764439
-1.036765
-5.995027
-9.810108
-9.937228
-4.590826
4.190734
10.846795
10.935600
5.176524
-1.771319
-5.845593
-6.431588
-5.482962
-4.794600
-4.552840
-4.175288
-3.459503
-2.237439
0.243144
4.445508
8.984318
10.773049
7.514857
0.191772
-7.261534
-11.034578
-10.055934
-5.950904
-1.411627
1.244847
0.861707
-2.188190
-6.238358
-9.296827
-10.032097
-8.292684
-5.217231
-2.488907
-0.755239
1.132053
4.658632
9.344729
12.637287
12.382003
8.947471
4.702367
1.752342
0.671753
1.071923
2.414071
4.019437
5.011357
4.919777
4.082940
3.068429
1.954411
0.349213
-2.015115
-4.688621
-6.522613
-6.614549
-5.507944
-5.009779
-6.058610
-7.219561
-6.264127
-2.889149
1.102347
4.195304
6.237152
6.721800
3.966108
-2.594736
-10.025282
-13.223844
-9.137513
0.510556
10.444761
15.689104
14.789250
9.942345
4.538214
0.805683
-0.846803
-1.244868
-1.413619
-1.852364
-2.704149
-4.244339
-6.589793
-8.773547
-8.653975
-4.564439
2.688005
9.841017
13.512207
12.511646
8.091017
2.608386
-2.019292
-5.226441
-7.561333
-9.543325
-10.621146
-9.111664
-3.468507
5.660577
14.732082
19.556826
18.490200
13.231889
6.886614
1.779193
-1.196139
-2.370727
-3.206941
-5.671665
-10.134905
-13.601628
-11.738734
-3.586240
6.593970
12.963547
13.403493
10.600315
7.990165
5.579971
0.831394
-6.775813
-13.613920
-14.810825
-8.860100
0.682602
7.650941
7.687435
1.312233
-6.997764
-12.975429
-15.605362
-16.220104
-15.631379
-13.034981
-7.705523
-1.030563
3.911223
4.952586
2.405780
-1.873012
-5.891314
-7.772793
-5.902823
-0.281293
6.571353
11.185021
11.482488
7.419883
0.191818
-8.792094
-18.762131
-29.953823
-43.104504
-58.059788
-71.619553
-75.974731
-61.273907
-23.579268
28.154469
74.369308
96.397842
88.488365
60.293221
27.222012
-1.974160
-28.273886
-54.811028
-77.801796
-85.065704
-64.794189
-18.588186
34.528851
69.978317
74.391167
52.230881
20.009924
-5.286104
-15.971216
-15.395704
-11.336828
-8.029642
-4.011483
3.685181
14.141650
21.521242
19.935019
10.015939
0.367873
1.208961
15.543198
36.081017
50.376980
48.869270
29.844671
0.228635
-27.770708
-43.453068
-42.899872
-28.686934
-6.412150
17.960247
39.212833
53.277325
57.451328
50.786697
34.230556
10.364684
-15.982889
-37.609493
-48.326656
-47.584045
-40.569641
-33.077312
-26.987476
-20.803915
-13.507213
-7.042886
-4.674452
-7.007536
-10.252850
-9.130488
-1.728694
8.765643
17.260534
21.033455
20.699360
18.319265
15.353174
11.886981
7.289642
1.835367
-1.985159
-1.129492
3.461889
5.212133
-2.691709
-19.081896
-32.844151
-30.890230
-9.445638
22.275496
49.415916
61.385559
55.770401
36.712242
11.717510
-11.629089
-28.489046
-37.481205
-38.896309
-32.489666
-17.442411
4.532606
26.006529
36.345303
30.301023
12.961317
-5.732462
-18.960020
-24.337515
-20.981144
-9.389620
5.512501
14.547360
10.035387
-7.840505
-29.822956
-42.763813
-38.046364
-18.561296
1.663235
8.160678
-0.972659
-13.419471
-15.571785
-6.376183
3.757058
6.469906
4.460925
6.225745
15.283121
27.218992
34.284859
30.402973
14.421858
-8.082046
-26.867592
-34.189209
-30.298519
-20.950212
-11.486696
-4.357752
0.028849
2.929559
7.507281
16.065948
25.959242
30.698208
26.879848
18.868147
14.481194
15.966142
16.536346
7.013052
-13.729091
-35.486366
-44.518791
-35.306759
-15.267824
2.300472
10.026444
10.404366
9.085225
7.655552
4.695228
0.960468
-0.661532
0.236331
0.279803
-3.321021
-9.097991
-13.583108
-15.357058
-15.073235
-12.655209
-6.532236
4.084782
17.486435
30.502853
40.447521
45.184406
42.034119
28.884394
7.130254
-17.750677
-38.987389
-50.805573
-48.624107
-30.390844
0.551217
34.716454
59.559010
65.429878
51.445137
26.056273
0.862905
-16.098396
-22.546665
-20.825514
-15.392484
-10.007850
-6.339552
-4.406301
-3.500461
-2.955395
-2.808464
-3.690880
-5.405402
-5.912417
-3.130943
2.148388
6.271134
5.910338
0.925798
-5.936861
-11.982974
-16.991020
-22.254305
-27.023626
-27.038664
-18.390600
-2.708050
12.999905
21.651192
20.846836
13.248159
3.275008
-6.188027
-13.978608
-18.817789
-19.235271
-16.284742
-15.087859
-21.082581
-33.883545
-46.020325
-48.498322
-37.512894
-16.177641
8.894677
31.732077
47.947933
53.296837
44.233780
21.464537
-8.668243
-37.590488
-56.947586
-58.151409
-35.985359
4.169775
45.797729
71.264175
73.981346
61.389091
45.890907
32.900597
18.935684
0.743912
-16.710951
-22.497581
-9.215399
19.104176
46.673367
55.125401
37.926796
6.209125
-22.198942
-38.450256
-46.337948
-52.665924
-57.094540
-52.550480
-34.481869
-7.836308
15.710907
26.002991
20.892717
7.893350
-1.189052
-0.224667
6.401930
10.237886
9.019206
7.344324
8.058909
7.818118
2.357584
-6.792931
-13.118915
-11.495814
-2.321406
9.084282
16.329348
16.906900
14.278924
14.213501
18.175524
21.107992
16.562937
2.778529
-16.605085
-35.283791
-45.497368
-39.399799
-15.887503
13.428243
30.375174
24.296698
-0.813958
-31.863779
-56.074688
-65.781364
-59.769638
-42.620350
-21.211744
-0.779091
16.328932
29.194424
36.552368
36.932270
30.440323
19.136768
5.177398
-9.215631
-19.239128
-18.183626
-3.882929
16.149715
29.545671
30.174292
22.944105
17.072117
16.209593
16.752422
14.014374
7.585982
1.352597
-0.022189
5.101864
13.429157
19.332476
21.116358
22.624924
26.474852
28.189075
20.493711
3.237006
-14.311587
-21.893356
-16.708048
-3.144409
13.370708
29.613886
42.865150
49.774494
48.075729
37.988857
21.466463
1.381197
-18.041847
-31.210989
-33.185108
-23.155146
-6.367639
8.859467
17.497654
20.614737
21.572870
21.000744
16.266327
5.113248
-10.899487
-26.660685
-36.943165
-39.452206
-35.292381
-27.867437
-21.124016
-17.445333
-17.092110
-19.972416
-26.818789
-36.824913
-44.898811
-44.744690
-35.708172
-24.592152
-19.502684
-22.237734
-27.063295
-25.989052
-15.075542
2.346827
17.618097
23.270964
19.200712
12.592646
11.201655
16.565212
23.670576
26.814405
25.702080
25.908447
33.111656
46.413754
57.465290
57.176117
44.130611
26.235558
13.143221
6.786162
0.731814
-10.823465
-25.209532
-33.511696
-29.962049
-17.791418
-5.141645
3.570652
9.647826
14.165771
14.149746
6.448080
-6.658409
-18.286362
-23.158800
-21.601700
-17.824347
-15.544672
-15.762887
-17.954071
-21.776344
-26.443911
-28.968988
-25.174906
-14.321868
-2.044021
3.663261
0.141567
-7.278464
-10.989169
-8.091447
-0.579588
9.378581
21.687065
35.446487
45.762856
46.006298
34.394402
16.937223
2.348025
-4.829720
-5.716634
-3.767419
-0.850897
3.977341
12.124904
22.155813
29.440744
29.204987
19.820848
4.046721
-11.406636
-18.465832
-13.430095
-1.453608
6.484628
2.673712
-10.896115
-25.065084
-31.767862
-29.795784
-23.920042
-19.848429
-20.013472
-22.731001
-24.067614
-20.651957
-11.811777
0.082940
11.078924
17.829159
19.357496
17.592291
16.175074
18.038692
23.355761
29.159784
30.740696
23.896257
7.155864
-16.646914
-41.011646
-58.997429
-65.862274
-59.472809
-41.118816
-16.473497
6.693242
23.004519
31.737514
34.986744
33.962959
27.520952
15.125827
0.743411
-8.112859
-5.980191
5.983984
20.612946
29.539055
28.274929
18.286592
4.975061
-6.449935
-13.449157
-15.808959
-14.319333
-9.383118
-0.105987
14.230022
30.936863
43.113922
43.365692
28.967127
4.306661
-20.526365
-34.612286
-32.833481
