EVENT_NAME: EMILIA_2ND_SHOCK
EVENT_ID: IT-2012-0011
EVENT_DATE_YYYYMMDD: 20120529
EVENT_TIME_HHMMSS: 070002
EVENT_LATITUDE_DEGREE: 44.8417
EVENT_LONGITUDE_DEGREE: 11.0657
EVENT_DEPTH_KM: 8.1
HYPOCENTER_REFERENCE: INGV-CNT_Seismic_Bulletin
MAGNITUDE_W: 6.0
MAGNITUDE_W_REFERENCE: RCMT-INGV
MAGNITUDE_L: 5.8
MAGNITUDE_L_REFERENCE: INGV-CNT_Seismic_Bulletin
FOCAL_MECHANISM: TF
NETWORK: IV
STATION_CODE: T0813
STATION_NAME: T0813
STATION_LATITUDE_DEGREE: 44.877800
STATION_LONGITUDE_DEGREE: 11.199200
STATION_ELEVATION_M: 1
LOCATION: 
SENSOR_DEPTH_M: 1.0
VS30_M/S: 
SITE_CLASSIFICATION_EC8: C*
MORPHOLOGIC_CLASSIFICATION: 
EPICENTRAL_DISTANCE_KM: 11.3
EARTHQUAKE_BACKAZIMUTH_DEGREE: 249.2
DATE_TIME_FIRST_SAMPLE_YYYYMMDD_HHMMSS: 20120529_065942.000
DATE_TIME_FIRST_SAMPLE_PRECISION: milliseconds
SAMPLING_INTERVAL_S: 0.005000
NDATA: 30001
DURATION_S: 150.005
STREAM: HNN
UNITS: cm/s
INSTRUMENT: sensor = Episensor FBA ES-T [Kinemetrics] | digitizer = Unknown [Unknown]
INSTRUMENT_ANALOG/DIGITAL: D
INSTRUMENTAL_FREQUENCY_HZ: 
INSTRUMENTAL_DAMPING: 
FULL_SCALE_G: 
N_BIT_DIGITAL_CONVERTER: 
PGV_CM/S: -24.855538
TIME_PGV_S: 29.810000
BASELINE_CORRECTION: BASELINE REMOVED
FILTER_TYPE: BUTTERWORTH
FILTER_ORDER: 2
LOW_CUT_FREQUENCY_HZ: 0.100
HIGH_CUT_FREQUENCY_HZ: 40.000
LATE/NORMAL_TRIGGERED: NT
DATABASE_VERSION: DYNA 1.0
HEADER_FORMAT: DYNA 1.2
DATA_TYPE: VELOCITY
PROCESSING: manual (Paolucci et al., 2011)
DATA_TIMESTAMP_YYYYMMDD_HHMMSS: 
DATA_LICENSE: CC-BY4_0 (http://creativecommons.org/licenses/by/4.0/)
DATA_CITATION: ESM working group (2015), European Strong-Motion database, version 0.1, Network Activity 3: Networking acceleration networks and SM data users. Project NERA (www.nera-eu.org)
DATA_CREATOR: ESM working group
ORIGINAL_DATA_MEDIATOR_CITATION: Orfeus - European Integrated Data Archive (EIDA) http://www.orfeus-eu.org/eida/
ORIGINAL_DATA_MEDIATOR: Orfeus - European Integrated Data Archive (EIDA)
ORIGINAL_DATA_CREATOR_CITATION: Data for this study comes from the Italian national seismic network operated by Istituto Nazionale di Geofisica e Vulcanologia and archived at the European Integrated Data Archive http://eida.rm.ingv.it/
ORIGINAL_DATA_CREATOR: network: IV (Italian National Seismic Network); owner: Istituto Nazionale di Geofisica e Vulcanologia
USER1: 
USER2: 
USER3: 
USER4: 
USER5: 
[...]
-0.098820
-0.099176
-0.099537
-0.099907
-0.100284
-0.100664
-0.101042
-0.101416
-0.101790
-0.102164
-0.102539
-0.102912
-0.103284
-0.103658
-0.104038
-0.104421
-0.104806
-0.105190
-0.105574
-0.105955
-0.106328
-0.106692
-0.107052
-0.107409
-0.107768
-0.108135
-0.108512
-0.108898
-0.109284
-0.109672
-0.110064
-0.110467
-0.110875
-0.111284
-0.111687
-0.112083
-0.112473
-0.112861
-0.113252
-0.113644
-0.114037
-0.114431
-0.114828
-0.115229
-0.115632
-0.116036
-0.116442
-0.116846
-0.117248
-0.117649
-0.118052
-0.118460
-0.118870
-0.119278
-0.119684
-0.120088
-0.120497
-0.120911
-0.121326
-0.121741
-0.122155
-0.122569
-0.122979
-0.123386
-0.123793
-0.124207
-0.124629
-0.125056
-0.125484
-0.125914
-0.126346
-0.126782
-0.127217
-0.127649
-0.128073
-0.128492
-0.128908
-0.129324
-0.129742
-0.130160
-0.130579
-0.130998
-0.131416
-0.131833
-0.132250
-0.132667
-0.133082
-0.133494
-0.133897
-0.134286
-0.134660
-0.135023
-0.135377
-0.135718
-0.136037
-0.136321
-0.136560
-0.136758
-0.136931
-0.137108
-0.137312
-0.137546
-0.137787
-0.138000
-0.138151
-0.138228
-0.138248
-0.138246
-0.138253
-0.138271
-0.138285
-0.138293
-0.138325
-0.138442
-0.138716
-0.139206
-0.139911
-0.140744
-0.141563
-0.142238
-0.142710
-0.143000
-0.143209
-0.143478
-0.143929
-0.144617
-0.145534
-0.146620
-0.147745
-0.148767
-0.149633
-0.150391
-0.151078
-0.151662
-0.152104
-0.152394
-0.152464
-0.152169
-0.151470
-0.150589
-0.149939
-0.149939
-0.150864
-0.152687
-0.154948
-0.156982
-0.158401
-0.159262
-0.159744
-0.159814
-0.159291
-0.158168
-0.156777
-0.155653
-0.155300
-0.156018
-0.157800
-0.160239
-0.162640
-0.164365
-0.165181
-0.165285
-0.165100
-0.165119
-0.165804
-0.167357
-0.169505
-0.171552
-0.172737
-0.172636
-0.171435
-0.169996
-0.169501
-0.170778
-0.173810
-0.177743
-0.181199
-0.182820
-0.181972
-0.179131
-0.175510
-0.172277
-0.170217
-0.169689
-0.170201
-0.170181
-0.167955
-0.163364
-0.158141
-0.154658
-0.154723
-0.159019
-0.166331
-0.173135
-0.175175
-0.170606
-0.161740
-0.153506
-0.150276
-0.153450
-0.160742
-0.167320
-0.168348
-0.161776
-0.149966
-0.139266
-0.137351
-0.148819
-0.171347
-0.195880
-0.211582
-0.212099
-0.199294
-0.182223
-0.171291
-0.171156
-0.178126
-0.184496
-0.185240
-0.180485
-0.173527
-0.168463
-0.168786
-0.175612
-0.186094
-0.194898
-0.198381
-0.196876
-0.192864
-0.187827
-0.181321
-0.172761
-0.163488
-0.156688
-0.154915
-0.157290
-0.159233
-0.155760
-0.145854
-0.133681
-0.125360
-0.124975
-0.133499
-0.149731
-0.170511
-0.190685
-0.205392
-0.213126
-0.215491
-0.214596
-0.212129
-0.210018
-0.209178
-0.207199
-0.200308
-0.188728
-0.177850
-0.173060
-0.175092
-0.181416
-0.189196
-0.195156
-0.196403
-0.194222
-0.194588
-0.201605
-0.211644
-0.217134
-0.214529
-0.205904
-0.195230
-0.185759
-0.179624
-0.177297
-0.177418
-0.178552
-0.180015
-0.180516
-0.179176
-0.178270
-0.181520
-0.188857
-0.195489
-0.197426
-0.195623
-0.193739
-0.194842
-0.200582
-0.210116
-0.219101
-0.221985
-0.216659
-0.206356
-0.196721
-0.191730
-0.191759
-0.194156
-0.196314
-0.199018
-0.205842
-0.218551
-0.233603
-0.244034
-0.244963
-0.237202
-0.226139
-0.217306
-0.212046
-0.206812
-0.196991
-0.182054
-0.167727
-0.163114
-0.173670
-0.194648
-0.211670
-0.210613
-0.188619
-0.154919
-0.122761
-0.103293
-0.104034
-0.126154
-0.160545
-0.190944
-0.204844
-0.200317
-0.183086
-0.161200
-0.143052
-0.135626
-0.140079
-0.150368
-0.159117
-0.163720
-0.165973
-0.168543
-0.174175
-0.185657
-0.201764
-0.214242
-0.213667
-0.199556
-0.182313
-0.173908
-0.178578
-0.192817
-0.210751
-0.227633
-0.240587
-0.249029
-0.253673
-0.253296
-0.244460
-0.225525
-0.198279
-0.165710
-0.131784
-0.104070
-0.091994
-0.098895
-0.118358
-0.139767
-0.154515
-0.157708
-0.148750
-0.132477
-0.117894
-0.113109
-0.120407
-0.135172
-0.148812
-0.155211
-0.157132
-0.165159
-0.188058
-0.223933
-0.261403
-0.287714
-0.293997
-0.276803
-0.239982
-0.194574
-0.153150
-0.122564
-0.102741
-0.092077
-0.092266
-0.107567
-0.140182
-0.185928
-0.233111
-0.266222
-0.274567
-0.259575
-0.232226
-0.203551
-0.179583
-0.164182
-0.161688
-0.173559
-0.194573
-0.214945
-0.225904
-0.223709
-0.210479
-0.192741
-0.178937
-0.176320
-0.187276
-0.206612
-0.223379
-0.228826
-0.224017
-0.217847
-0.217958
-0.226058
-0.240549
-0.258428
-0.272464
-0.271419
-0.248817
-0.211679
-0.178930
-0.170318
-0.194399
-0.243823
-0.300278
-0.344200
-0.363211
-0.356984
-0.336051
-0.313170
-0.293999
-0.276696
-0.259122
-0.241698
-0.224037
-0.206802
-0.196671
-0.200917
-0.216433
-0.230919
-0.236803
-0.237247
-0.236149
-0.231208
-0.220469
-0.208534
-0.201975
-0.202388
-0.207482
-0.214237
-0.216284
-0.203425
-0.171222
-0.130950
-0.104021
-0.104673
-0.131620
-0.174926
-0.224467
-0.270615
-0.304115
-0.321660
-0.328151
-0.328924
-0.322480
-0.304673
-0.277842
-0.250263
-0.227510
-0.209856
-0.197399
-0.193373
-0.201925
-0.224831
-0.260003
-0.300150
-0.332585
-0.343561
-0.325798
-0.283759
-0.232597
-0.191157
-0.173333
-0.182326
-0.210147
-0.242242
-0.264894
-0.271719
-0.265800
-0.256010
-0.250175
-0.250785
-0.256379
-0.265423
-0.277266
-0.291146
-0.307922
-0.331533
-0.364498
-0.401680
-0.431806
-0.446110
-0.442081
-0.418592
-0.373277
-0.308243
-0.235444
-0.171873
-0.130187
-0.116446
-0.132058
-0.171887
-0.222618
-0.268806
-0.301628
-0.319220
-0.320772
-0.304972
-0.272768
-0.228005
-0.175978
-0.124428
-0.086421
-0.078294
-0.110632
-0.179444
-0.264771
-0.337905
-0.374152
-0.365515
-0.324598
-0.274424
-0.232320
-0.201826
-0.175954
-0.146013
-0.110077
-0.075679
-0.053729
-0.048553
-0.054890
-0.065249
-0.076775
-0.089509
-0.102391
-0.114443
-0.128137
-0.148174
-0.176851
-0.212108
-0.248599
-0.279475
-0.299363
-0.307797
-0.309577
-0.310811
-0.314293
-0.318573
-0.321200
-0.323891
-0.335271
-0.364684
-0.409410
-0.450584
-0.466886
-0.453503
-0.425099
-0.399816
-0.382276
-0.359953
-0.313224
-0.231934
-0.127497
-0.030129
0.029250
0.036906
-0.002104
-0.072677
-0.155043
-0.228868
-0.281816
-0.315467
-0.339172
-0.358042
-0.369379
-0.367482
-0.347812
-0.310088
-0.263117
-0.226051
-0.218074
-0.243190
-0.286901
-0.325872
-0.339005
-0.315984
-0.263567
-0.203449
-0.156930
-0.129461
-0.113974
-0.107631
-0.120779
-0.169537
-0.258572
-0.368251
-0.460711
-0.502481
-0.482522
-0.410858
-0.306073
-0.188871
-0.082719
-0.010244
0.015854
-0.002236
-0.051264
-0.113175
-0.169006
-0.204453
-0.215056
-0.203155
-0.171644
-0.125972
-0.080770
-0.055359
-0.057568
-0.076712
-0.095744
-0.106443
-0.109448
-0.104387
-0.087895
-0.059764
-0.024596
0.012222
0.045361
0.067200
0.073226
0.072708
0.086074
0.126807
0.188424
0.251011
0.297052
0.318197
0.312585
0.283574
0.240784
0.195333
0.149598
0.094477
0.021652
-0.060742
-0.128076
-0.155052
-0.129176
-0.053818
0.054641
0.173968
0.285095
0.375910
0.438766
0.470972
0.481060
0.486295
0.496252
0.503687
0.497484
0.481044
0.470917
0.479638
0.508350
0.553635
0.613967
0.690854
0.786135
0.895391
1.002149
1.081373
1.113438
1.097496
1.050852
0.994019
0.936335
0.876326
0.813001
0.750859
0.692369
0.632727
0.565359
0.486442
0.396516
0.307701
0.245404
0.229794
0.254492
0.296070
0.343696
0.400547
0.461658
0.517119
0.576353
0.666244
0.798661
0.957365
1.121421
1.279307
1.419078
1.528464
1.607861
1.670217
1.727473
1.786758
1.855070
1.928168
1.978831
1.978797
1.932345
1.875091
1.840529
1.836582
1.852154
1.872311
1.885793
1.889114
1.884987
1.874388
1.855053
1.830142
1.811680
1.808523
1.815992
1.824923
1.833343
1.840136
1.833343
1.795888
1.723832
1.631811
1.541651
1.472259
1.435665
1.432904
1.453763
1.487923
1.538128
1.615439
1.718271
1.820761
1.886459
1.894393
1.852483
1.790528
1.742065
1.725246
1.733184
1.741838
1.730624
1.701341
1.681708
1.707351
1.793273
1.919634
2.044954
2.133252
2.171921
2.172681
2.161775
2.161954
2.173814
2.174936
2.138534
2.050278
1.909576
1.723475
1.504412
1.268698
1.032374
0.810560
0.618029
0.463587
0.344387
0.248509
0.161617
0.069675
-0.042616
-0.189930
-0.375433
-0.580628
-0.775284
-0.947224
-1.120068
-1.329978
-1.583851
-1.852354
-2.097999
-2.290047
-2.397874
-2.397212
-2.295279
-2.135269
-1.965815
-1.816310
-1.700369
-1.624523
-1.587077
-1.577318
-1.582050
-1.587233
-1.570389
-1.503626
-1.373897
-1.197909
-1.014504
-0.863566
-0.768750
-0.726877
-0.701778
-0.632298
-0.462810
-0.182592
0.155720
0.455771
0.624544
0.618777
0.461875
0.220822
-0.036962
-0.272842
-0.475812
-0.643117
-0.766113
-0.832886
-0.839106
-0.793740
-0.720954
-0.659874
-0.649073
-0.704483
-0.822478
-1.001565
-1.244700
-1.537986
-1.842852
-2.116507
-2.324680
-2.432351
-2.408977
-2.260078
-2.044312
-1.843706
-1.715436
-1.673907
-1.702441
-1.770346
-1.850130
-1.926173
-1.985291
-2.005790
-1.966477
-1.866029
-1.724347
-1.564224
-1.397412
-1.221684
-1.024947
-0.802053
-0.573526
-0.381780
-0.265963
-0.243871
-0.314332
-0.456910
-0.620931
-0.738828
-0.771437
-0.736736
-0.688475
-0.676112
-0.731962
-0.875461
-1.105832
-1.395300
-1.701442
-1.988457
-2.239427
-2.453333
-2.629387
-2.746612
-2.758517
-2.621910
-2.340080
-1.973414
-1.604208
-1.294321
-1.073517
-0.947082
-0.899480
-0.900505
-0.916504
-0.914444
-0.863235
-0.742493
-0.550437
-0.298279
0.006240
0.369314
0.800225
1.286441
1.783499
2.233103
2.588063
2.820790
2.924042
2.923216
2.879800
2.855878
2.870814
2.907801
2.961288
3.049283
3.172505
3.296889
3.382600
3.397594
3.302972
3.064005
2.694669
2.262180
1.824818
1.389792
0.952488
0.561620
0.321799
0.329670
0.616613
1.139034
1.808660
2.548191
3.332255
4.169290
5.046733
5.911330
6.708383
7.418199
8.035567
8.530507
8.855925
8.993077
8.968100
8.822997
8.590186
8.291450
7.942078
7.556339
7.165236
6.833156
6.635639
6.610035
6.742229
6.997372
7.342341
7.737499
8.123937
8.429855
8.590502
8.570336
8.380377
8.074914
7.718211
7.341889
6.928217
6.431555
5.815656
5.081545
4.273887
3.455142
2.662417
1.892707
1.131229
0.384506
-0.317275
-0.930018
-1.390556
-1.632459
-1.643974
-1.498072
-1.298291
-1.093054
-0.855398
-0.543658
-0.165489
0.215457
0.520256
0.703796
0.784222
0.840247
0.973638
1.253250
1.679507
2.202557
2.779816
3.413584
4.131272
4.941534
5.825857
6.758496
7.705092
8.616780
9.458257
10.235480
10.975330
11.682810
12.340120
12.936840
13.461200
13.862600
14.057100
13.985680
13.664540
13.175490
12.609500
12.020050
11.420840
10.810280
10.187860
9.555472
8.923261
8.322861
7.795709
7.353839
6.964782
6.583714
6.186834
5.760989
5.279584
4.716337
4.076256
3.390596
2.678771
1.932110
1.147608
0.371437
-0.299596
-0.761870
-0.960280
-0.914629
-0.694188
-0.359187
0.079186
0.643532
1.336143
2.105314
2.875234
3.601220
4.276451
4.897703
5.449833
5.916989
6.285315
6.532377
6.639125
6.616225
6.494536
6.298515
6.057127
5.829617
5.684009
5.642297
5.674989
5.754149
5.882261
6.069606
6.308897
6.575109
6.837889
7.073572
7.278313
7.469167
7.655650
7.810464
7.879564
7.820782
7.632508
7.351355
7.026954
6.703165
6.422805
6.234960
6.180965
6.270338
6.473562
6.739140
7.018502
7.285427
7.546557
7.831378
8.161200
8.526960
8.896722
9.236668
9.522001
9.740143
9.898828
10.029630
10.175940
10.376220
10.648110
10.969900
11.273600
11.465100
11.463100
11.233690
10.799340
10.218510
9.554276
8.854020
8.144252
7.434244
6.727140
6.035778
5.390829
4.829505
4.375372
4.031627
3.788045
3.627766
3.532096
3.485640
3.472324
3.459526
3.398061
3.252659
3.024838
2.739616
2.421923
2.090927
1.762837
1.443565
1.123837
0.791802
0.439675
0.054678
-0.375541
-0.840130
-1.300358
-1.716018
-2.070243
-2.366825
-2.621696
-2.861216
-3.106206
-3.352042
-3.579278
-3.785998
-3.997220
-4.240581
-4.530087
-4.877550
-5.299550
-5.804101
-6.380002
-7.001665
-7.627707
-8.184662
-8.578359
-8.750375
-8.720141
-8.560740
-8.337635
-8.078168
-7.787578
-7.470037
-7.127866
-6.756550
-6.356421
-5.944414
-5.547226
-5.192185
-4.910815
-4.741203
-4.712200
-4.823973
-5.053458
-5.375634
-5.769886
-6.211063
-6.666648
-7.104589
-7.497900
-7.821972
-8.055636
-8.188592
-8.222353
-8.159751
-8.001547
-7.761462
-7.476837
-7.198892
-6.979260
-6.863987
-6.886750
-7.056686
-7.352480
-7.734108
-8.161185
-8.600385
-9.024247
-9.415359
-9.774397
-10.116190
-10.452740
-10.779500
-11.075300
-11.311030
-11.458640
-11.500440
-11.440280
-11.310590
-11.167350
-11.072130
-11.067680
-11.163840
-11.346660
-11.598000
-11.904820
-12.259300
-12.658640
-13.096520
-13.536060
-13.889790
-14.049060
-13.952590
-13.623400
-13.130650
-12.531040
-11.863630
-11.179550
-10.552450
-10.067620
-9.806497
-9.825472
-10.128140
-10.655050
-11.314960
-12.035150
-12.783610
-13.551980
-14.332580
-15.115670
-15.896210
-16.675249
-17.455999
-18.238640
-19.019501
-19.797640
-20.578859
-21.371250
-22.181080
-23.005150
-23.804279
-24.473370
-24.855539
-24.818649
-24.339840
-23.517790
-22.498739
-21.390699
-20.240641
-19.063900
-17.872299
-16.684040
-15.526730
-14.443490
-13.497980
-12.767840
-12.327070
-12.225780
-12.477330
-13.059330
-13.921600
-14.993330
-16.196970
-17.468700
-18.766291
-20.054541
-21.275120
-22.317610
-23.023310
-23.236469
-22.877260
-21.987301
-20.707741
-19.200279
-17.581160
-15.921760
-14.280650
-12.712910
-11.260320
-9.943849
-8.762535
-7.696316
-6.714024
-5.787510
-4.902234
-4.054120
-3.238671
-2.443602
-1.647665
-0.827418
0.022003
0.858315
1.582695
2.069838
2.226825
2.045710
1.611915
1.060536
0.521458
0.095207
-0.154128
-0.212239
-0.116369
0.072199
0.307929
0.581746
0.909970
1.306904
1.764480
2.248643
2.707237
3.078215
3.295457
3.305539
3.094465
2.694802
2.159240
1.527676
0.820845
0.057353
-0.734241
-1.522704
-2.289672
-3.035864
-3.774781
-4.518699
-5.260638
-5.963609
-6.569722
-7.026146
-7.309224
-7.430712
-7.429206
-7.355508
-7.251450
-7.128111
-6.960684
-6.705437
-6.321930
-5.783708
-5.081787
-4.228146
-3.251525
-2.182617
-1.041382
0.162410
1.414864
2.676678
3.865178
4.851752
5.492088
5.691853
5.463563
4.916148
4.184430
3.366765
2.513702
1.654512
0.823110
0.059463
-0.601865
-1.133767
-1.502414
-1.650781
-1.507986
-1.032482
-0.256183
0.713126
1.740352
2.728605
3.647806
4.505381
5.303656
6.032574
6.687361
7.276541
7.812180
8.299115
8.733355
9.105939
9.414601
9.681678
9.953445
10.258880
10.554900
10.724030
10.639790
10.237550
9.537290
8.617371
7.565832
6.442976
5.275572
4.070834
2.825844
1.528972
0.167232
-1.258964
-2.730315
-4.216648
-5.684578
-7.100972
-8.438639
-9.682221
-10.825990
-11.862900
-12.776240
-13.544200
-14.155690
-14.628210
-15.009730
-15.349850
-15.656140
-15.880530
-15.961100
-15.882820
-15.693820
-15.464570
-15.239760
-15.031090
-14.843050
-14.691670
-14.597270
-14.563510
-14.567740
-14.576190
-14.566770
-14.533740
-14.478420
-14.404380
-14.315110
-14.201080
-14.024040
-13.727200
-13.272070
-12.661540
-11.926840
-11.098760
-10.192580
-9.213617
-8.169829
-7.078626
-5.965202
-4.855656
-3.768123
-2.706638
-1.661551
-0.611710
0.473563
1.621494
2.832415
4.067993
5.260417
6.325261
7.169921
7.717271
7.946512
7.910448
7.704499
7.415463
7.090664
6.742128
6.370342
5.983335
5.597720
5.220313
4.828673
4.377690
3.830293
3.184106
2.479426
1.801940
1.280588
1.044519
1.147497
1.537751
2.105700
2.753457
3.425788
4.102854
4.786585
5.491079
6.230801
7.005083
7.780116
8.473738
8.962713
9.128393
8.915645
8.353810
7.524512
6.511961
5.378704
4.182610
3.010732
1.986367
1.233034
0.818318
0.726074
0.889950
1.253556
1.793816
2.496905
3.326326
4.216668
5.093520
5.894157
6.567479
7.062943
7.329827
7.331952
7.068494
6.584653
5.962176
5.300462
4.702307
4.257737
4.023894
4.016126
4.212109
4.561475
5.004015
5.491330
5.994235
6.494169
6.973400
7.413828
7.800840
8.124585
8.381022
8.575782
8.724071
8.843934
8.950247
9.053395
9.156443
9.247988
9.299874
9.273871
9.136583
8.893339
8.628310
8.491547
8.603636
8.955892
9.424137
9.885467
10.299620
10.683390
11.043030
11.354170
11.594500
11.769090
11.899380
12.002560
12.088540
12.167540
12.249350
12.335700
12.417980
12.485680
12.539360
12.596220
12.679930
12.797850
12.922440
12.997740
12.973240
12.839240
12.632330
12.410130
12.223250
12.103650
12.066660
12.113840
12.230010
12.381700
12.528560
12.642020
12.711810
12.735310
12.701650
12.584360
12.349180
11.971090
11.446690
10.793940
10.041420
9.218271
8.352381
7.472035
6.603177
5.764650
4.966887
4.214495
3.510020
2.855240
2.248537
1.681683
1.141438
0.615721
0.098073
-0.410074
-0.892384
-1.306243
-1.581916
-1.648586
-1.477106
-1.101072
-0.592206
-0.014613
0.598058
1.233155
1.879623
2.518731
3.130197
3.703442
4.239834
4.744316
5.216422
5.648911
6.034219
6.374005
6.685564
6.998464
7.338246
7.707974
8.086132
8.442924
8.759147
9.033565
9.274231
9.478842
9.619343
9.645025
9.504341
9.172211
8.663962
8.024724
7.303635
6.535705
5.743524
4.949482
4.180712
3.460453
2.798466
2.194091
1.645088
1.148970
0.700165
0.290709
-0.088069
-0.445780
-0.792549
-1.136020
-1.478779
-1.820114
-2.159955
-2.499726
-2.836758
-3.151297
-3.396000
-3.509391
-3.457121
-3.266004
-3.009429
-2.755967
-2.535714
-2.347107
-2.181615
-2.040338
-1.935143
-1.880689
-1.883518
-1.933264
-2.003270
-2.062056
-2.086445
-2.065955
-1.996404
-1.869524
-1.670165
-1.385908
-1.019298
-0.589479
-0.122667
0.358264
0.838691
1.309755
1.755667
2.133390
2.364737
2.367766
2.114071
1.655389
1.094190
0.532885
0.042644
-0.339017
-0.596624
-0.728731
-0.746610
-0.671298
-0.526702
-0.334208
-0.110924
0.128777
0.369008
0.590580
0.773231
0.896593
0.939403
0.881456
0.709520
0.423538
0.040853
-0.397212
-0.821513
-1.155244
-1.357828
-1.450858
-1.491471
-1.520625
-1.543436
-1.548369
-1.527732
-1.479783
-1.404386
-1.306458
-1.202236
-1.118345
-1.084415
-1.123197
-1.242584
-1.435104
-1.684423
-1.973267
-2.289355
-2.627868
-2.989655
-3.377573
-3.794323
-4.241740
-4.719158
-5.221029
-5.737564
-6.257468
-6.765633
-7.232687
-7.603564
-7.801343
-7.755970
-7.440766
-6.886057
-6.160057
-5.334307
-4.457610
-3.552807
-2.632195
-1.714809
-0.834710
-0.038044
0.628169
1.129336
1.455632
1.628803
1.695468
1.710423
1.723349
1.773064
1.887567
2.088470
2.390891
2.797322
3.298606
3.879004
4.503994
5.093347
5.519771
5.662938
5.484580
5.049889
4.468321
3.819271
3.139787
2.461736
1.837616
1.333449
1.005224
0.880984
0.957585
1.205706
1.577282
