EVENT_NAME: EMILIA_2ND_SHOCK
EVENT_ID: IT-2012-0011
EVENT_DATE_YYYYMMDD: 20120529
EVENT_TIME_HHMMSS: 070002
EVENT_LATITUDE_DEGREE: 44.8417
EVENT_LONGITUDE_DEGREE: 11.0657
EVENT_DEPTH_KM: 8.1
HYPOCENTER_REFERENCE: INGV-CNT_Seismic_Bulletin
MAGNITUDE_W: 6.0
MAGNITUDE_W_REFERENCE: RCMT-INGV
MAGNITUDE_L: 5.8
MAGNITUDE_L_REFERENCE: INGV-CNT_Seismic_Bulletin
FOCAL_MECHANISM: TF
NETWORK: IV
STATION_CODE: T0814
STATION_NAME: T0814
STATION_LATITUDE_DEGREE: 44.793300
STATION_LONGITUDE_DEGREE: 10.969200
STATION_ELEVATION_M: 16
LOCATION: 
SENSOR_DEPTH_M: 1.0
VS30_M/S: 
SITE_CLASSIFICATION_EC8: C*
MORPHOLOGIC_CLASSIFICATION: 
EPICENTRAL_DISTANCE_KM: 9.3
EARTHQUAKE_BACKAZIMUTH_DEGREE: 54.8
DATE_TIME_FIRST_SAMPLE_YYYYMMDD_HHMMSS: 20120529_065942.000
DATE_TIME_FIRST_SAMPLE_PRECISION: milliseconds
SAMPLING_INTERVAL_S: 0.005000
NDATA: 20001
DURATION_S: 100.005
STREAM: HNN
UNITS: cm/s^2
INSTRUMENT: sensor = Episensor FBA ES-T [Kinemetrics] | digitizer = Unknown [Unknown]
INSTRUMENT_ANALOG/DIGITAL: D
INSTRUMENTAL_FREQUENCY_HZ: 
INSTRUMENTAL_DAMPING: 
FULL_SCALE_G: 
N_BIT_DIGITAL_CONVERTER: 
PGA_CM/S^2: -495.602451
TIME_PGA_S: 32.320000
BASELINE_CORRECTION: BASELINE REMOVED
FILTER_TYPE: BUTTERWORTH
FILTER_ORDER: 2
LOW_CUT_FREQUENCY_HZ: 0.060
HIGH_CUT_FREQUENCY_HZ: 40.000
LATE/NORMAL_TRIGGERED: NT
DATABASE_VERSION: DYNA 1.0
HEADER_FORMAT: DYNA 1.2
DATA_TYPE: ACCELERATION
PROCESSING: manual (Paolucci et al., 2011)
DATA_TIMESTAMP_YYYYMMDD_HHMMSS: 
DATA_LICENSE: CC-BY4_0 (http://creativecommons.org/licenses/by/4.0/)
DATA_CITATION: ESM working group (2015), European Strong-Motion database, version 0.1, Network Activity 3: Networking acceleration networks and SM data users. Project NERA (www.nera-eu.org)
DATA_CREATOR: ESM working group
ORIGINAL_DATA_MEDIATOR_CITATION: Orfeus - European Integrated Data Archive (EIDA) http://www.orfeus-eu.org/eida/
ORIGINAL_DATA_MEDIATOR: Orfeus - European Integrated Data Archive (EIDA)
ORIGINAL_DATA_CREATOR_CITATION: Data for this study comes from the Italian national seismic network operated by Istituto Nazionale di Geofisica e Vulcanologia and archived at the European Integrated Data Archive http://eida.rm.ingv.it/
ORIGINAL_DATA_CREATOR: network: IV (Italian National Seismic Network); owner: Istituto Nazionale di Geofisica e Vulcanologia
USER1: 
USER2: 
USER3: 
USER4: 
USER5: 
[...]
6.303652
-0.356508
-9.937460
-16.359133
-13.326532
-1.802858
8.772610
9.854564
3.136950
-2.322447
-0.625457
6.103580
12.421966
15.225389
13.824259
8.584836
1.628343
-3.369286
-4.201236
-2.433347
-1.356940
-2.354986
-3.952337
-3.297794
1.567934
9.430439
15.176322
12.981663
2.202309
-11.072752
-19.926615
-22.621790
-21.363483
-17.045700
-8.720479
2.235970
11.282318
15.072081
15.067201
15.485234
17.454523
16.665998
9.001882
-2.151151
-7.734327
-3.950950
1.451243
-1.786081
-13.058487
-21.560778
-19.087236
-8.013326
3.596894
10.422003
11.764544
9.226140
5.063902
1.315800
-0.947368
-1.390035
0.734451
6.249675
13.945662
20.143002
21.308369
16.976496
9.927103
3.353098
-2.058515
-7.829988
-14.401966
-18.879461
-17.462210
-10.712130
-4.911905
-6.257098
-13.499637
-18.042828
-12.778183
-0.207132
10.099758
12.306492
9.852093
9.433377
12.452244
14.713501
12.944257
8.113574
2.792704
-1.530550
-4.229007
-5.099248
-5.379883
-7.183120
-10.750413
-14.241581
-16.291817
-16.656933
-14.483495
-8.302302
0.987565
9.133439
12.341484
10.850985
7.992000
6.994731
9.527342
15.591322
22.585106
25.509945
20.432186
8.233400
-5.694834
-15.730369
-19.659771
-18.970165
-17.176985
-17.291353
-19.287649
-19.944031
-15.800399
-6.552952
4.397820
12.894184
17.501881
19.585493
20.392445
19.938175
19.273167
21.641394
29.018995
38.692989
46.191589
50.746555
54.956158
59.016731
58.827290
52.175266
44.054108
42.638966
50.211300
59.863487
62.063976
53.894230
41.252491
32.508743
31.175016
34.545353
37.873253
39.184963
40.374256
44.032780
50.133278
56.559185
61.982712
66.818474
71.279114
73.948792
73.398994
70.757637
69.666939
73.051537
79.845573
85.173630
84.535492
79.026672
75.931435
81.813492
95.100922
107.551979
112.832764
111.909264
109.605225
107.644974
102.787292
91.707947
76.254646
62.561024
55.146622
52.148052
46.177296
30.169895
2.800451
-31.605499
-68.502518
-107.903023
-152.305862
-200.588928
-246.375565
-282.468964
-305.928345
-319.506226
-328.775604
-337.573792
-346.001312
-351.779816
-352.265228
-344.927155
-326.917236
-296.600128
-256.151001
-211.517700
-170.159546
-138.146683
-116.703102
-100.326439
-80.089691
-51.345791
-17.881124
12.857417
37.309460
57.349960
75.769791
92.390076
104.702820
110.523064
108.920700
99.517502
82.924072
61.961060
41.030266
24.027369
12.745322
6.682053
4.697031
6.961942
14.057672
24.550251
35.455826
45.360725
55.706684
67.822533
79.596870
86.739899
86.675240
79.815887
67.801216
52.571346
37.124538
24.925140
17.707615
14.723792
14.665380
17.661600
24.241341
32.790558
39.897625
43.842735
46.164967
48.783833
51.202789
51.457497
48.535439
42.848442
34.982674
25.520559
15.640561
6.325288
-2.421820
-10.275999
-14.904894
-12.904889
-2.871451
12.790448
29.096275
41.346600
46.908119
45.093838
36.600014
22.877577
5.358999
-13.897978
-30.779205
-40.222366
-39.912106
-32.161705
-21.571882
-11.717178
-4.186157
0.644820
2.850333
2.987037
2.741952
5.134279
13.108554
26.882265
42.577419
54.258163
57.671368
52.198521
39.992725
23.942928
6.838066
-7.999128
-17.289486
-20.774675
-22.589788
-27.703646
-37.221828
-47.894562
-55.696495
-59.000862
-58.371475
-54.595482
-47.426071
-35.835873
-19.649967
-0.818221
17.414667
32.519775
43.822701
52.089085
58.405804
63.588715
68.405235
73.546471
78.731064
82.089577
81.055389
74.334579
62.721272
47.631538
29.541330
8.295994
-15.243966
-38.028111
-56.136288
-68.203552
-76.444077
-83.093277
-87.328041
-86.967102
-82.289711
-76.366203
-70.984764
-64.038849
-52.427124
-36.828602
-22.045757
-11.898081
-4.497896
6.094444
23.180256
43.330307
59.588367
68.100609
70.326530
69.135712
64.845078
55.334099
38.615982
15.352631
-10.224390
-31.978956
-45.021790
-47.405682
-39.385353
-22.188934
2.123408
29.776209
55.356579
74.371521
85.598625
90.307159
89.905594
84.790161
74.668343
59.541222
40.404022
18.933344
-3.276713
-25.414062
-47.588905
-69.133728
-86.681137
-96.178467
-97.507896
-95.360176
-94.319344
-93.575554
-87.870010
-73.603180
-52.815887
-31.352486
-14.307792
-3.172920
4.125625
10.891739
18.414394
24.381992
24.646721
17.173351
3.935886
-11.576161
-27.586411
-44.339409
-62.211411
-79.989357
-95.046486
-105.206940
-109.769432
-108.280510
-99.084457
-79.705345
-49.400795
-12.255744
23.231195
49.440845
64.495926
71.565186
74.576584
75.234589
73.732216
71.621765
72.604088
79.435768
90.724121
101.709000
107.683807
106.622665
99.969643
91.746765
85.970818
83.702354
82.937920
81.820435
80.646599
79.902077
77.564667
70.002678
55.827545
38.088539
22.486532
13.544173
11.999345
15.145919
19.244928
22.035896
23.627537
24.939867
25.413469
22.736563
14.569350
0.174327
-18.895254
-38.722183
-54.475925
-63.813499
-68.603615
-72.366875
-77.230110
-83.923088
-92.872665
-103.381172
-112.170586
-115.076408
-110.541634
-100.282707
-87.019974
-72.320671
-56.527328
-40.349056
-25.856573
-15.498910
-10.281649
-9.107915
-9.877777
-11.354033
-14.045940
-19.425734
-28.634493
-41.651428
-57.005619
-72.246376
-85.216446
-94.943649
-100.890778
-101.158356
-92.336853
-72.960541
-46.492767
-18.980005
5.266314
24.728132
39.040920
47.891262
51.552704
51.670750
50.762913
50.724716
52.156452
54.488174
55.437046
50.457409
34.507957
6.583695
-27.696621
-59.568501
-82.646606
-95.002808
-98.154991
-95.444725
-90.346954
-84.732697
-77.848351
-67.144081
-51.494198
-34.075096
-20.801735
-14.911316
-13.549600
-10.854358
-4.085223
4.515671
11.750351
17.880745
26.059240
38.233189
52.684582
65.073669
70.903305
67.374863
54.451797
34.655510
11.613958
-10.951523
-29.803091
-43.600197
-53.563335
-61.456963
-66.939713
-67.538063
-61.428024
-49.315136
-32.917366
-13.220998
8.618488
30.017408
48.268356
62.810783
74.967667
85.718727
94.889244
102.704056
110.635223
119.317078
126.329704
126.966690
117.339050
96.699020
67.176788
33.014576
0.611297
-22.741821
-32.155113
-27.877245
-15.378318
-2.871051
3.132300
2.109746
-0.493656
1.439346
9.305687
19.694784
29.022367
37.557941
48.732136
64.725418
83.347137
99.825302
111.327744
119.081223
126.012444
132.695541
136.172546
133.343750
124.860306
114.655708
106.362808
100.834450
96.566010
91.973679
87.069412
82.940224
80.083321
77.890160
75.862045
74.945122
77.138931
83.623627
93.345299
103.183487
109.483856
110.174530
106.141136
100.435112
95.658119
91.872147
86.742165
77.587341
63.651527
46.990170
31.586906
20.807705
14.224436
6.619091
-8.739430
-34.342552
-65.963692
-96.633080
-122.499008
-144.647278
-166.350266
-189.351532
-212.657990
-234.174011
-252.577591
-267.287994
-277.167999
-279.623444
-271.613953
-252.465454
-225.276917
-194.795868
-163.760788
-131.515472
-96.700569
-60.587296
-26.502319
3.200665
28.509855
50.873890
71.381905
89.117989
100.920540
103.124809
94.717056
79.265694
62.707264
48.586800
35.564640
19.483522
-2.212898
-27.861217
-52.733902
-72.123604
-83.684196
-88.253151
-88.764137
-87.579697
-84.679581
-78.232780
-66.716637
-50.697964
-32.712395
-15.754858
-2.005102
7.600448
13.073686
14.483324
11.445958
4.236574
-4.598090
-10.489965
-8.970159
2.174227
22.229795
49.139908
81.537376
117.987839
154.480331
184.524658
202.568588
207.296692
201.732880
190.245071
176.040649
161.635178
149.777878
142.000504
137.011215
131.977921
125.007652
115.932549
105.585526
95.294579
86.833534
81.547386
78.938408
76.594208
71.929260
64.229210
55.225510
47.816486
44.007805
43.484432
43.774586
41.875546
36.027054
26.452183
14.828682
2.494738
-11.511859
-30.056307
-55.047058
-85.322708
-117.560257
-149.004074
-178.884048
-207.346298
-234.031998
-258.320648
-279.714417
-296.957214
-308.277283
-313.569519
-315.534668
-317.655029
-320.791016
-322.511536
-319.621490
-310.613342
-296.426727
-279.669037
-262.730408
-245.410904
-223.813828
-192.933929
-150.924698
-100.433159
-46.675175
5.591390
54.293526
99.698311
142.123749
180.609802
213.442276
238.744339
253.736298
253.518539
232.795761
190.906235
134.626572
75.680779
25.529001
-9.335681
-29.218143
-38.941914
-43.806908
-47.775532
-53.696007
-62.682812
-72.895454
-80.331413
-81.969574
-77.987732
-70.705742
-62.508244
-55.217228
-50.141563
-47.833740
-47.997478
-49.947369
-53.000702
-56.217926
-58.552032
-59.962540
-61.685257
-64.698555
-68.249550
-70.434128
-69.923180
-66.653732
-61.469116
-55.599007
-49.904083
-44.017239
-36.457794
-26.260513
-14.147140
-1.427385
11.171166
22.454470
29.551727
29.537600
22.733562
13.100431
4.390545
-3.152554
-11.073219
-18.775614
-23.718145
-25.063793
-24.728634
-24.638807
-24.801245
-25.076332
-27.117142
-32.372280
-38.533489
-40.221500
-34.481880
-24.308855
-15.587922
-11.450246
-10.777464
-11.500620
-13.160939
-15.944279
-19.078592
-21.297411
-22.110909
-21.406618
-17.917402
-9.291168
5.344520
23.703066
42.316502
59.123108
73.505585
85.202530
94.250694
101.457390
107.776802
113.033920
115.896950
115.373978
111.927216
106.919220
101.427223
95.675453
89.163811
81.159164
71.241791
59.611980
46.889454
33.667152
20.544806
8.514712
-1.176485
-7.527340
-10.074080
-9.278426
-6.636656
-3.700224
-0.636305
3.993068
11.366961
20.481533
28.815666
34.694946
38.546028
42.056442
46.556187
52.083359
57.437431
61.192738
63.188107
65.015709
68.523697
73.614410
78.057961
79.877617
79.467148
78.787994
78.748222
78.333717
76.272087
72.506874
67.794044
62.641010
57.477585
53.453342
51.831650
52.255093
52.294739
49.366364
42.888805
34.273060
25.274574
16.715895
8.450111
-0.013005
-9.037674
-18.691071
-28.593269
-37.856388
-45.399998
-50.175236
-50.924088
-46.249119
-35.521198
-20.128519
-3.700790
9.797915
18.719011
24.139555
27.734720
30.204531
31.616402
32.117847
32.211910
32.686066
34.037781
35.586773
35.338184
31.417345
23.639259
13.238229
1.393189
-11.473918
-25.027363
-38.540112
-51.685165
-64.884018
-78.180214
-90.465340
-100.526886
-108.553223
-115.783607
-122.557541
-127.332283
-128.038681
-124.162582
-117.211296
-109.125061
-100.268936
-89.438759
-76.099510
-61.972130
-49.686714
-40.211376
-32.581646
-26.301138
-22.927565
-24.011158
-28.228058
-32.198822
-33.615356
-32.364040
-28.802723
-21.969034
-10.172026
6.591568
25.550720
43.184681
57.780666
69.681091
79.889297
89.107826
97.687469
105.407494
110.553650
109.741928
100.159706
82.354477
60.349068
39.194260
22.097940
9.021568
-2.212077
-13.172983
-22.869774
-28.459736
-28.221930
-23.630478
-17.845467
-12.492172
-6.755005
0.569873
9.179853
17.317347
22.677971
23.444340
19.526302
13.265109
7.884104
4.343299
0.779972
-4.514944
-10.766553
-15.611277
-17.517052
-16.908051
-15.199509
-13.105931
-9.881055
-4.246930
3.633816
11.249670
15.442241
15.305352
12.852428
10.640555
9.813531
10.591089
13.237860
17.911612
24.122225
30.846413
37.061737
42.000511
45.125706
46.137100
45.176201
43.139854
41.616043
42.116375
44.987827
48.813305
50.942871
49.193794
43.704193
36.955021
31.268625
26.298988
19.824181
11.269136
3.326886
-0.878852
-1.879428
-3.928836
-10.383039
-19.691025
-26.742874
-27.975126
-24.237932
-18.708752
-13.416380
-8.571660
-4.203487
-0.813346
1.438034
2.984657
4.179833
4.978342
5.418592
5.775706
6.058440
6.106959
6.000048
5.584231
4.102965
1.170897
-2.170396
-4.601157
-6.551460
-9.237740
-12.136673
-13.542159
-13.348223
-13.390592
-14.667840
-16.257055
-17.692930
-20.081179
-24.067570
-28.402382
-31.282385
-32.098728
-30.956186
-27.170492
-19.179907
-5.979753
11.732554
31.795248
51.253609
67.180862
78.234360
85.435532
90.607498
94.265831
95.724792
94.903648
92.787796
90.133217
87.037758
83.803757
81.025681
78.718193
76.893196
77.013298
80.095047
83.827652
85.107048
84.559380
85.370811
88.107162
90.251427
91.276779
93.170296
95.486832
95.202850
91.470543
86.411911
80.748802
72.203896
59.917057
47.117119
37.790649
33.054264
31.423653
31.183826
31.789934
33.773125
38.052536
44.637428
51.845379
57.656898
61.590664
64.524544
66.879227
67.507561
64.611420
57.639557
47.904839
37.242455
26.302423
14.201028
-0.163731
-16.633871
-33.879311
-50.750580
-67.330917
-84.637985
-103.192207
-121.935295
-138.825897
-152.537155
-163.501129
-173.388062
-183.395218
-192.754440
-198.753677
-198.266464
-189.914581
-175.070358
-156.801254
-138.500137
-123.038391
-111.573471
-102.683327
-93.231567
-80.658379
-64.830246
-47.957432
-32.792599
-20.380384
-8.902138
5.215713
24.434681
47.736683
71.130615
90.929214
106.552246
120.229187
134.514740
150.305984
166.644882
181.626770
193.567368
202.068466
208.344330
213.979462
219.058273
222.281860
222.864670
221.140594
217.603119
212.599228
206.295639
196.244141
174.497879
130.853638
61.811249
-24.084206
-112.127907
-193.822983
-270.803436
-346.232758
-416.034210
-469.184784
-495.602448
-495.483398
-480.150635
-461.828156
-445.746033
-432.333160
-421.386353
-411.065918
-395.362732
-367.392639
-325.148895
-271.653137
-211.834900
-151.056793
-94.614632
-46.875126
-10.352451
14.752754
30.189379
38.758011
43.828106
48.800674
55.953644
65.956612
78.109978
89.875511
96.641426
94.083267
82.160118
66.251747
53.368450
47.386948
47.916245
52.641163
60.103054
70.315704
82.885696
95.525360
105.603554
112.913399
119.944138
129.020691
139.507767
148.154816
151.734772
148.965408
140.519775
127.900612
112.161781
93.519913
71.964378
47.842506
21.997473
-4.538245
-31.026142
-56.897175
-81.124100
-102.110359
-117.940475
-126.557289
-126.527779
-117.898865
-102.146538
-81.353691
-57.171795
-30.832964
-4.132961
20.603624
41.937031
60.442940
78.252121
97.186562
116.962303
135.103317
148.433853
154.429962
151.274933
137.269211
111.847092
78.175552
43.429153
15.072318
-2.868488
-10.301009
-9.962156
-5.853111
-0.876534
4.680372
12.201911
22.065014
32.192177
39.803246
44.040844
46.284931
48.236294
49.953304
49.567616
44.900047
35.355343
22.365156
8.618370
-3.170739
-11.556805
-16.599230
-18.484133
-16.124113
-7.590048
7.708810
27.075603
45.418781
58.911385
67.403229
73.072479
77.673119
81.194153
82.237564
79.290329
71.871056
60.953053
48.434155
35.821712
23.394201
10.751621
-2.037684
-13.927509
-23.315365
-28.953255
-30.649441
-29.234503
-26.159262
-23.210228
-22.114471
-23.950239
-28.780874
-35.702526
-43.084999
-48.991604
-51.896019
-51.310696
-47.846039
-42.658203
-36.437729
-28.703836
-18.420469
-5.525773
8.147483
19.525303
26.105040
27.254837
23.741779
16.494473
6.399082
-5.085862
-15.881924
-24.104345
-28.970076
-30.916048
-30.778929
-29.059719
-26.170799
-22.990419
-20.596827
-19.408997
-18.869385
-18.133286
-16.957861
-15.749303
-14.967946
-14.879488
-15.863405
-18.553799
-23.348795
-29.857021
-37.062572
-43.987331
-49.967445
-54.496956
-57.367653
-58.901176
-59.606960
-59.691597
-59.064728
-57.732750
-56.045444
-54.408588
-52.740086
-50.271103
-45.984135
-39.387596
-30.792702
-20.804317
-9.811981
1.847784
13.285591
22.876060
29.061966
31.403860
30.604101
27.587524
22.800514
16.254059
8.151972
-0.438930
-7.714319
-12.147962
-13.356854
-11.991052
-8.999610
-5.080180
-0.706166
3.824728
8.665135
14.108920
19.875916
25.372793
30.508215
35.445610
39.415867
40.658562
38.132072
32.521061
25.128124
16.651958
7.433562
-2.033447
-11.594706
-21.714687
-32.448425
-42.715771
-51.103714
-56.991108
-60.527096
-61.711040
-60.081543
-55.071693
-46.174744
-33.451057
-18.346973
-3.633442
7.706856
13.952603
15.697213
15.314711
14.848237
14.590023
13.765355
12.158847
10.916719
11.792722
15.574414
21.351988
27.420841
32.691299
37.168030
41.305740
45.118793
48.256069
51.058128
54.463142
58.015060
59.200912
56.157372
50.485626
45.343903
40.575268
32.696323
20.734324
9.489586
4.917728
7.479150
12.258385
14.832040
14.958075
14.518593
14.090027
13.094342
11.738111
11.006219
11.216516
11.887128
12.973710
14.826221
16.856861
17.450317
15.335562
10.501753
3.933748
-2.782225
-7.727994
-9.691621
-9.138781
-7.612226
-6.390912
-5.982552
-6.497967
-7.953479
-10.049618
-12.021262
-13.157248
-13.562157
-14.143579
-15.750014
-18.487261
-21.871288
-25.399624
-28.770555
-31.808142
-34.570744
-37.423897
-40.772690
-44.714108
-48.929142
-52.859146
-56.028381
-58.307980
-59.939384
-61.264660
-62.377522
-62.998566
-62.423752
-59.457516
-52.903877
-42.489594
-29.281143
-15.371304
-3.142506
5.563511
9.838898
9.656296
6.050928
1.106300
-3.101893
-5.587666
-6.444534
-6.271434
-5.853875
-6.014676
-7.211725
-9.314259
-12.051693
-15.466899
-19.663900
-24.230654
-28.231762
-30.881361
-32.000820
-31.740551
-30.175497
-27.528746
-24.596058
-22.498016
-22.059464
-23.495337
-26.334049
-29.552305
-32.051174
-33.030777
-31.926098
-28.331928
-22.202711
-14.031078
-4.886879
3.686973
10.179568
13.893882
15.244083
15.249857
14.868745
14.638272
14.535146
14.069706
12.770530
10.869252
9.397327
9.315614
10.785522
13.474985
17.068754
21.251120
25.634422
29.982761
34.106060
37.156612
37.527119
33.981964
26.709679
16.811502
5.113635
-7.331370
-18.295572
-25.991114
-31.175114
-36.024956
-41.202980
-45.455772
-48.099689
-49.925995
-51.250126
-50.995464
-48.265537
-43.561363
-37.781902
-30.891289
-22.438631
-12.864547
-3.626230
3.829104
8.965513
12.103095
13.724074
13.929018
12.616851
10.332179
8.389867
7.424912
6.302976
3.355867
-1.407046
-6.419415
-11.247027
-17.481609
-25.508476
-31.358944
-29.284279
-18.473261
-5.359629
3.124538
7.863229
15.201397
26.244331
33.602062
31.098190
23.126303
19.804432
24.951889
33.516750
39.239475
40.893017
40.911171
41.299355
42.564083
44.369068
45.760197
45.553562
43.057930
38.479649
32.885750
27.823273
24.316040
21.740694
18.663235
15.369690
13.956098
15.329657
17.700411
18.756561
18.349220
17.941349
18.234592
18.787498
19.428316
20.816477
23.444761
26.722462
29.539478
31.501677
33.069977
34.432579
34.811806
33.178741
29.391441
24.307846
18.902620
13.894563
10.212998
8.910796
10.067222
12.304447
14.100760
15.366962
17.251410
20.472200
24.359354
27.755770
30.249289
32.115147
33.492542
34.120247
33.739750
32.217411
29.146872
23.951914
17.124340
10.885023
7.393225
6.272248
4.787584
0.824568
-4.927397
-10.028970
-12.475615
-11.529195
-7.631740
-2.199980
3.057433
7.182488
10.035136
11.309562
10.498548
7.960062
4.991029
2.575099
0.617971
