EVENT_NAME: EMILIA_2ND_SHOCK
EVENT_ID: IT-2012-0011
EVENT_DATE_YYYYMMDD: 20120529
EVENT_TIME_HHMMSS: 070002
EVENT_LATITUDE_DEGREE: 44.8417
EVENT_LONGITUDE_DEGREE: 11.0657
EVENT_DEPTH_KM: 8.1
HYPOCENTER_REFERENCE: INGV-CNT_Seismic_Bulletin
MAGNITUDE_W: 6.0
MAGNITUDE_W_REFERENCE: RCMT-INGV
MAGNITUDE_L: 5.8
MAGNITUDE_L_REFERENCE: INGV-CNT_Seismic_Bulletin
FOCAL_MECHANISM: TF
NETWORK: IV
STATION_CODE: T0802
STATION_NAME: T0802
STATION_LATITUDE_DEGREE: 44.875000
STATION_LONGITUDE_DEGREE: 11.181600
STATION_ELEVATION_M: 9
LOCATION: 
SENSOR_DEPTH_M: 1.0
VS30_M/S: 
SITE_CLASSIFICATION_EC8: C*
MORPHOLOGIC_CLASSIFICATION: 
EPICENTRAL_DISTANCE_KM: 9.9
EARTHQUAKE_BACKAZIMUTH_DEGREE: 248.0
DATE_TIME_FIRST_SAMPLE_YYYYMMDD_HHMMSS: 20120529_065951.000
DATE_TIME_FIRST_SAMPLE_PRECISION: milliseconds
SAMPLING_INTERVAL_S: 0.005000
NDATA: 14001
DURATION_S: 70.005
STREAM: HNN
UNITS: cm/s
INSTRUMENT: sensor = Episensor FBA ES-T [Kinemetrics] | digitizer = Unknown [Unknown]
INSTRUMENT_ANALOG/DIGITAL: D
INSTRUMENTAL_FREQUENCY_HZ: 
INSTRUMENTAL_DAMPING: 
FULL_SCALE_G: 
N_BIT_DIGITAL_CONVERTER: 
PGV_CM/S: -24.465010
TIME_PGV_S: 20.465000
BASELINE_CORRECTION: BASELINE REMOVED
FILTER_TYPE: BUTTERWORTH
FILTER_ORDER: 2
LOW_CUT_FREQUENCY_HZ: 0.100
HIGH_CUT_FREQUENCY_HZ: 40.000
LATE/NORMAL_TRIGGERED: NT
DATABASE_VERSION: DYNA 1.0
HEADER_FORMAT: DYNA 1.2
DATA_TYPE: VELOCITY
PROCESSING: manual (Paolucci et al., 2011)
DATA_TIMESTAMP_YYYYMMDD_HHMMSS: 
DATA_LICENSE: CC-BY4_0 (http://creativecommons.org/licenses/by/4.0/)
DATA_CITATION: ESM working group (2015), European Strong-Motion database, version 0.1, Network Activity 3: Networking acceleration networks and SM data users. Project NERA (www.nera-eu.org)
DATA_CREATOR: ESM working group
ORIGINAL_DATA_MEDIATOR_CITATION: Orfeus - European Integrated Data Archive (EIDA) http://www.orfeus-eu.org/eida/
ORIGINAL_DATA_MEDIATOR: Orfeus - European Integrated Data Archive (EIDA)
ORIGINAL_DATA_CREATOR_CITATION: Data for this study comes from the Italian national seismic network operated by Istituto Nazionale di Geofisica e Vulcanologia and archived at the European Integrated Data Archive http://eida.rm.ingv.it/
ORIGINAL_DATA_CREATOR: network: IV (Italian National Seismic Network); owner: Istituto Nazionale di Geofisica e Vulcanologia
USER1: 
USER2: 
USER3: 
USER4: 
USER5: 
[...]
-0.115139
-0.115681
-0.116215
-0.116743
-0.117268
-0.117793
-0.118310
-0.118811
-0.119282
-0.119721
-0.120136
-0.120539
-0.120937
-0.121335
-0.121737
-0.122147
-0.122573
-0.123016
-0.123475
-0.123949
-0.124434
-0.124927
-0.125422
-0.125916
-0.126406
-0.126889
-0.127366
-0.127839
-0.128308
-0.128773
-0.129234
-0.129688
-0.130138
-0.130586
-0.131036
-0.131491
-0.131953
-0.132427
-0.132916
-0.133421
-0.133941
-0.134471
-0.135006
-0.135540
-0.136065
-0.136579
-0.137080
-0.137571
-0.138054
-0.138533
-0.139011
-0.139492
-0.139980
-0.140476
-0.140981
-0.141490
-0.142001
-0.142512
-0.143023
-0.143534
-0.144046
-0.144556
-0.145062
-0.145563
-0.146060
-0.146558
-0.147061
-0.147570
-0.148078
-0.148586
-0.149095
-0.149606
-0.150122
-0.150638
-0.151154
-0.151667
-0.152178
-0.152688
-0.153199
-0.153711
-0.154221
-0.154730
-0.155238
-0.155753
-0.156277
-0.156808
-0.157344
-0.157885
-0.158432
-0.158982
-0.159529
-0.160068
-0.160599
-0.161126
-0.161653
-0.162183
-0.162714
-0.163244
-0.163769
-0.164291
-0.164812
-0.165336
-0.165862
-0.166389
-0.166915
-0.167446
-0.167987
-0.168539
-0.169096
-0.169653
-0.170204
-0.170747
-0.171276
-0.171788
-0.172283
-0.172756
-0.173209
-0.173644
-0.174064
-0.174473
-0.174873
-0.175263
-0.175642
-0.176011
-0.176379
-0.176761
-0.177169
-0.177594
-0.178019
-0.178418
-0.178773
-0.179080
-0.179361
-0.179651
-0.179973
-0.180322
-0.180671
-0.180975
-0.181203
-0.181394
-0.181665
-0.182127
-0.182787
-0.183551
-0.184274
-0.184809
-0.185116
-0.185365
-0.185832
-0.186628
-0.187605
-0.188509
-0.189141
-0.189425
-0.189469
-0.189548
-0.189912
-0.190603
-0.191488
-0.192406
-0.193256
-0.194016
-0.194756
-0.195578
-0.196483
-0.197330
-0.197940
-0.198208
-0.198143
-0.197891
-0.197709
-0.197818
-0.198265
-0.198973
-0.199903
-0.201105
-0.202571
-0.204074
-0.205263
-0.205937
-0.206155
-0.206106
-0.206010
-0.206039
-0.206238
-0.206531
-0.206898
-0.207538
-0.208714
-0.210374
-0.212064
-0.213324
-0.214082
-0.214605
-0.215163
-0.215855
-0.216553
-0.216865
-0.216374
-0.215131
-0.213772
-0.213016
-0.213169
-0.214082
-0.215356
-0.216504
-0.217192
-0.217470
-0.217602
-0.217644
-0.217321
-0.216415
-0.215163
-0.214113
-0.213633
-0.213706
-0.214113
-0.214585
-0.214853
-0.214677
-0.213891
-0.212552
-0.211131
-0.210330
-0.210580
-0.211803
-0.213400
-0.214289
-0.213558
-0.211755
-0.211023
-0.213032
-0.216877
-0.219781
-0.219643
-0.216202
-0.210748
-0.205877
-0.204430
-0.207389
-0.213243
-0.219420
-0.223637
-0.224660
-0.223184
-0.221801
-0.223113
-0.227771
-0.234185
-0.239043
-0.238313
-0.230410
-0.219451
-0.212741
-0.213966
-0.220733
-0.228035
-0.231694
-0.229813
-0.224037
-0.219188
-0.219512
-0.224999
-0.232145
-0.237338
-0.238467
-0.234762
-0.226788
-0.216472
-0.207007
-0.202311
-0.204726
-0.212541
-0.221263
-0.227566
-0.230858
-0.231819
-0.230977
-0.228430
-0.223989
-0.217563
-0.210306
-0.205685
-0.207643
-0.216397
-0.227456
-0.235970
-0.241009
-0.244916
-0.249851
-0.255998
-0.261461
-0.262383
-0.255155
-0.240745
-0.225614
-0.216899
-0.217532
-0.225956
-0.238059
-0.248905
-0.255582
-0.259779
-0.265462
-0.272986
-0.277306
-0.272793
-0.258447
-0.238386
-0.219938
-0.211563
-0.218094
-0.235766
-0.255076
-0.269226
-0.277373
-0.281214
-0.281717
-0.278946
-0.273236
-0.265729
-0.257962
-0.251396
-0.247157
-0.245755
-0.247164
-0.251405
-0.258804
-0.268920
-0.278479
-0.281494
-0.274164
-0.260015
-0.247431
-0.241929
-0.243212
-0.248440
-0.255327
-0.262527
-0.268953
-0.273235
-0.273396
-0.266981
-0.253047
-0.235761
-0.224365
-0.225592
-0.235967
-0.245221
-0.247212
-0.244265
-0.242722
-0.248143
-0.262170
-0.278838
-0.285145
-0.270932
-0.239140
-0.203365
-0.177326
-0.169254
-0.179738
-0.199221
-0.213107
-0.213713
-0.204641
-0.195196
-0.194902
-0.209339
-0.234467
-0.256592
-0.263306
-0.254488
-0.240468
-0.232558
-0.237598
-0.254753
-0.272309
-0.274177
-0.254846
-0.224223
-0.197948
-0.187813
-0.198067
-0.222736
-0.247236
-0.259634
-0.261671
-0.265408
-0.280780
-0.309332
-0.343573
-0.366278
-0.358201
-0.314250
-0.248455
-0.183032
-0.138144
-0.126599
-0.147799
-0.187764
-0.229577
-0.262673
-0.283444
-0.292346
-0.291800
-0.284584
-0.273086
-0.259604
-0.246899
-0.237911
-0.233347
-0.229253
-0.220127
-0.206397
-0.196386
-0.199023
-0.216120
-0.241933
-0.266553
-0.279293
-0.275717
-0.264663
-0.261936
-0.273920
-0.292236
-0.304700
-0.306386
-0.300591
-0.295098
-0.298760
-0.315528
-0.338641
-0.355396
-0.359760
-0.356685
-0.354683
-0.358397
-0.367451
-0.377808
-0.383428
-0.379957
-0.368392
-0.354085
-0.342776
-0.338551
-0.343152
-0.354980
-0.369665
-0.381936
-0.386817
-0.381207
-0.365932
-0.345593
-0.326884
-0.316885
-0.319048
-0.328820
-0.336330
-0.334294
-0.321294
-0.299640
-0.273454
-0.246962
-0.221871
-0.197195
-0.173427
-0.156561
-0.155078
-0.171839
-0.201430
-0.235127
-0.265437
-0.287052
-0.296890
-0.293857
-0.278863
-0.255539
-0.229293
-0.204665
-0.184142
-0.168449
-0.156863
-0.148781
-0.146636
-0.156036
-0.180097
-0.213375
-0.244461
-0.264591
-0.271367
-0.267153
-0.257876
-0.250780
-0.250165
-0.255819
-0.264546
-0.271331
-0.271211
-0.262677
-0.248677
-0.234239
-0.224301
-0.222171
-0.227427
-0.235907
-0.243551
-0.250033
-0.257875
-0.268915
-0.282891
-0.298749
-0.315837
-0.333337
-0.348645
-0.357003
-0.353716
-0.336742
-0.307548
-0.271320
-0.236239
-0.210056
-0.196610
-0.195492
-0.203200
-0.214516
-0.225725
-0.237859
-0.255807
-0.284686
-0.327087
-0.378725
-0.423739
-0.441444
-0.422756
-0.375917
-0.318037
-0.267326
-0.237486
-0.229850
-0.232887
-0.234480
-0.233365
-0.236600
-0.248975
-0.268233
-0.287318
-0.297029
-0.290132
-0.268239
-0.242910
-0.226814
-0.224985
-0.234481
-0.248151
-0.257661
-0.258013
-0.251916
-0.247171
-0.249112
-0.257420
-0.268042
-0.275015
-0.272720
-0.259659
-0.239381
-0.217327
-0.198126
-0.185123
-0.180508
-0.185463
-0.199827
-0.221247
-0.245587
-0.268462
-0.285950
-0.294698
-0.292267
-0.277802
-0.253139
-0.222951
-0.193145
-0.169167
-0.153936
-0.144581
-0.132494
-0.110054
-0.077551
-0.042322
-0.013260
0.002776
0.004803
0.001742
0.007513
0.028836
0.060889
0.093685
0.118366
0.130701
0.134964
0.143392
0.166417
0.202788
0.241404
0.270262
0.281398
0.273441
0.254490
0.237963
0.232375
0.237328
0.246883
0.252527
0.246357
0.226324
0.197555
0.167944
0.144125
0.129884
0.124756
0.124581
0.125933
0.130148
0.141263
0.159979
0.181377
0.198004
0.203317
0.194560
0.176650
0.161852
0.160774
0.173282
0.190449
0.203242
0.206981
0.201918
0.193628
0.189118
0.188815
0.184625
0.168170
0.139418
0.106591
0.081245
0.074484
0.091006
0.122734
0.153483
0.171992
0.176995
0.172371
0.162606
0.151018
0.138317
0.123317
0.108268
0.103899
0.123832
0.170763
0.232276
0.291301
0.336674
0.366543
0.389810
0.423524
0.479689
0.551917
0.620106
0.667060
0.686488
0.682944
0.672204
0.673887
0.695964
0.730392
0.765389
0.797323
0.830844
0.873213
0.930313
1.002103
1.078209
1.143534
1.191867
1.229647
1.264755
1.295779
1.315241
1.321232
1.321561
1.326635
1.341796
1.365647
1.390882
1.407065
1.409674
1.408586
1.419688
1.443974
1.461837
1.452439
1.414057
1.363663
1.325041
1.320243
1.358369
1.423978
1.487424
1.532036
1.564136
1.600054
1.653274
1.729350
1.822042
1.914920
1.994532
2.062987
2.132864
2.210820
2.291474
2.366104
2.432241
2.495774
2.569786
2.670947
2.806753
2.962169
3.108162
3.226297
3.318004
3.393267
3.458876
3.512855
3.539567
3.511736
3.409245
3.239144
3.030789
2.814907
2.613054
2.436213
2.283451
2.148007
2.030183
1.940719
1.887574
1.861158
1.836602
1.786933
1.690972
1.540951
1.351840
1.154473
0.975592
0.828584
0.714207
0.620563
0.530887
0.439719
0.357350
0.295661
0.253478
0.216886
0.167806
0.089761
-0.025995
-0.174864
-0.346806
-0.544679
-0.788058
-1.090661
-1.436282
-1.786464
-2.109320
-2.392779
-2.641909
-2.877051
-3.123279
-3.389496
-3.663049
-3.928250
-4.184202
-4.441748
-4.708606
-4.982238
-5.250665
-5.492800
-5.684323
-5.810225
-5.870241
-5.878367
-5.864013
-5.860941
-5.883229
-5.917751
-5.939593
-5.926184
-5.863599
-5.752859
-5.609020
-5.446640
-5.266276
-5.057915
-4.814356
-4.537318
-4.235535
-3.923153
-3.615935
-3.323801
-3.047897
-2.782441
-2.516344
-2.240249
-1.959905
-1.698531
-1.479339
-1.307478
-1.170436
-1.048456
-0.921982
-0.780848
-0.633373
-0.498875
-0.387887
-0.295687
-0.215432
-0.151509
-0.117054
-0.122028
-0.167531
-0.246496
-0.344239
-0.444849
-0.544072
-0.652193
-0.780492
-0.927561
-1.080170
-1.222204
-1.339961
-1.426368
-1.485826
-1.531433
-1.576532
-1.631654
-1.708545
-1.823946
-1.993753
-2.219280
-2.482559
-2.753368
-2.994909
-3.173466
-3.276134
-3.314502
-3.306881
-3.262071
-3.177910
-3.046029
-2.856881
-2.610975
-2.331009
-2.054424
-1.811042
-1.612750
-1.453664
-1.308570
-1.144180
-0.943816
-0.715325
-0.475742
-0.236917
-0.002589
0.230677
0.469931
0.714193
0.943258
1.128153
1.258068
1.349726
1.432712
1.535408
1.676515
1.854497
2.047252
2.229541
2.388980
2.525573
2.643456
2.746343
2.836643
2.915111
2.980192
3.026805
3.046735
3.033698
2.989463
2.924868
2.857901
2.809738
2.791258
2.788508
2.771136
2.717576
2.625298
2.502708
2.361125
2.208375
2.039830
1.838810
1.597051
1.337115
1.106585
0.953293
0.913206
1.007655
1.238241
1.589326
2.036940
2.553661
3.110294
3.676518
4.224831
4.739206
5.215447
5.646160
6.004873
6.248385
6.331037
6.214093
5.880897
5.357042
4.702916
3.984925
3.259621
2.564421
1.908011
1.283334
0.698449
0.189654
-0.188913
-0.377050
-0.328035
-0.042205
0.426746
1.007864
1.644898
2.302395
2.964629
3.631129
4.306365
4.992750
5.690170
6.397233
7.111099
7.824382
8.522085
9.188502
9.822584
10.438420
11.034320
11.558640
11.923470
12.052720
11.905290
11.480530
10.829270
10.034180
9.160388
8.235794
7.266393
6.251440
5.197288
4.137187
3.137090
2.279421
1.647368
1.306938
1.277229
1.525099
1.993478
2.621874
3.350926
4.126262
4.899108
5.626294
6.271808
6.804146
7.190913
7.398990
7.413325
7.261915
7.009462
6.727874
6.479060
6.301267
6.194481
6.136692
6.124042
6.183800
6.344807
6.606357
6.943135
7.331545
7.761052
8.225691
8.713827
9.206470
9.680408
10.112170
10.488550
10.816970
11.112870
11.369630
11.549650
11.609790
11.527600
11.303850
10.954100
10.502750
9.980407
9.426695
8.893273
8.444607
8.152424
8.063417
8.160053
8.369691
8.607083
8.798752
8.899715
8.911700
8.868548
8.796749
8.700363
8.579806
8.452241
8.347870
8.291094
8.291361
8.342130
8.418318
8.486499
8.527764
8.544122
8.541119
8.512143
8.445266
8.344130
8.235371
8.156791
8.145811
8.230546
8.416865
8.685802
9.004745
9.335489
9.642009
9.904305
10.123890
10.321970
10.539620
10.819810
11.170060
11.553840
11.928560
12.282830
12.634310
13.006570
13.412710
13.834800
14.201710
14.415600
14.418550
14.216510
13.851280
13.379370
12.864200
12.366140
11.937960
11.618070
11.418610
11.325840
11.309160
11.330890
11.367070
11.427490
11.541550
11.719940
11.940740
12.169420
12.377910
12.547820
12.668100
12.732390
12.736320
12.676610
12.551910
12.364130
12.118630
11.823730
11.491620
11.138640
10.784330
10.448210
10.136780
9.828930
9.488001
9.094016
8.654104
8.181079
7.672561
7.114521
6.498647
5.829939
5.122891
4.398453
3.679763
2.984302
2.322864
1.708418
1.163024
0.706756
0.332850
0.003079
-0.322094
-0.654310
-0.983142
-1.301843
-1.618588
-1.948812
-2.306944
-2.704240
-3.148456
-3.644836
-4.197914
-4.811041
-5.480541
-6.185580
-6.887842
-7.551403
-8.163090
-8.730188
-9.265558
-9.780277
-10.284990
-10.792050
-11.311530
-11.841940
-12.368670
-12.876120
-13.359600
-13.824450
-14.278250
-14.725790
-15.164090
-15.576770
-15.938990
-16.231030
-16.444401
-16.581129
-16.654591
-16.683800
-16.680590
-16.643890
-16.561180
-16.409679
-16.167440
-15.835410
-15.442880
-15.026940
-14.612630
-14.209360
-13.812730
-13.408260
-12.981150
-12.525550
-12.046980
-11.562520
-11.097570
-10.672260
-10.287540
-9.929768
-9.586911
-9.256628
-8.946139
-8.671973
-8.452694
-8.294277
-8.187351
-8.124230
-8.115392
-8.182221
-8.334191
-8.560146
-8.837742
-9.141888
-9.449845
-9.748404
-10.035630
-10.315540
-10.593170
-10.868390
-11.126100
-11.334610
-11.459690
-11.479480
-11.389560
-11.205350
-10.958590
-10.680250
-10.384730
-10.072450
-9.742235
-9.397977
-9.049540
-8.713210
-8.407224
-8.141996
-7.914247
-7.700786
-7.451309
-7.110129
-6.664450
-6.157621
-5.649483
-5.178914
-4.759331
-4.387369
-4.054940
-3.777792
-3.622770
-3.678292
-3.980476
-4.488413
-5.125846
-5.818411
-6.508412
-7.169248
-7.806121
-8.437711
-9.082213
-9.752169
-10.449210
-11.163560
-11.881760
-12.594200
-13.299800
-14.011470
-14.755380
-15.556140
-16.420759
-17.335920
-18.271379
-19.184031
-20.028481
-20.768990
-21.391319
-21.919880
-22.415300
-22.928980
-23.455549
-23.937031
-24.297541
-24.465010
-24.393061
-24.085011
-23.583811
-22.937580
-22.182199
-21.338760
-20.411409
-19.394400
-18.287201
-17.100439
-15.849110
-14.545250
-13.195290
-11.798560
-10.356140
-8.913668
-7.610355
-6.640549
-6.145079
-6.165114
-6.654250
-7.475924
-8.441932
-9.401430
-10.274500
-11.024560
-11.638470
-12.119730
-12.481260
-12.737370
-12.884750
-12.882610
-12.669360
-12.207980
-11.506580
-10.615970
-9.630774
-8.655893
-7.734868
-6.827554
-5.858617
-4.766373
-3.536560
-2.244788
-1.057272
-0.150131
0.370652
0.481579
0.227020
-0.301885
-1.012918
-1.850030
-2.786455
-3.796634
-4.844493
-5.898779
-6.953323
-8.025167
-9.138592
-10.312190
-11.536100
-12.744920
-13.834190
-14.711290
-15.319470
-15.641840
-15.711300
-15.592700
-15.338640
-14.972470
-14.505420
-13.953880
-13.341000
-12.690710
-12.024150
-11.355400
-10.686690
-10.013220
-9.335414
-8.663218
-8.008767
-7.379407
-6.779718
-6.218590
-5.711137
-5.270088
-4.895416
-4.573742
-4.283339
-3.998078
-3.694050
-3.356796
-2.983993
-2.586898
-2.187911
-1.808214
-1.455517
-1.123922
-0.799888
-0.465770
-0.101037
0.317852
0.814157
1.402967
2.085215
2.833995
3.575440
4.206995
4.648208
4.861422
4.842376
4.616405
4.226918
3.711046
3.090913
2.384624
1.616442
0.811373
-0.021203
-0.891842
-1.813787
-2.781432
-3.755452
-4.647176
-5.322745
-5.657559
-5.596105
-5.160569
-4.435133
-3.545748
-2.613887
-1.714609
-0.878469
-0.113726
0.579406
1.203897
1.767706
2.288224
2.797398
3.341209
3.964568
4.692870
5.521256
6.404139
7.258327
7.996020
8.557056
8.916547
9.084852
9.100487
9.007263
8.835923
8.604634
8.326877
8.016188
7.686491
7.350394
7.016106
6.682616
6.341208
5.992582
5.666842
5.420495
5.317551
5.416315
5.747262
6.285692
6.963472
7.710063
8.472704
9.218772
9.938831
10.637870
11.315860
11.957450
12.528640
12.972060
13.221400
13.234820
13.007930
12.565610
11.958240
11.244040
10.452790
9.576137
8.598288
7.526357
6.390983
5.231662
4.086367
2.976761
1.891548
0.794948
-0.346429
-1.550339
-2.816637
-4.123070
-5.433163
-6.716089
-7.955972
-9.151524
-10.315470
-11.460260
-12.569880
-13.591180
-14.455500
-15.100410
-15.485690
-15.615140
-15.537800
-15.315080
-14.992190
-14.595230
-14.137320
-13.626670
-13.084340
-12.561920
-12.129050
-11.837700
-11.706510
-11.721960
-11.834500
-11.975650
-12.097670
-12.188060
-12.253640
-12.306710
-12.357360
-12.403920
-12.431210
-12.421660
-12.365760
-12.261860
-12.110870
-11.913220
-11.667470
-11.368950
-11.009860
-10.580300
-10.069300
-9.467745
-8.771547
-7.980704
-7.095864
-6.118094
-5.057250
-3.943173
-2.821753
-1.738961
-0.733422
0.163939
0.930341
1.546897
1.990601
2.232332
2.248995
2.039086
1.623444
1.037194
0.326576
-0.445271
-1.188802
-1.804498
-2.224505
-2.427638
-2.426415
-2.260561
-1.982380
-1.627110
-1.203694
-0.713493
-0.167495
0.416315
1.026376
1.659159
2.297145
2.884347
3.341157
3.609274
3.672584
3.559864
3.354226
3.167882
3.081587
3.122092
3.282744
3.538089
3.852238
4.191783
4.531242
4.852295
5.144218
5.402252
5.623822
5.807082
5.955039
6.082327
6.215464
6.388177
6.637277
6.992639
7.465227
8.046836
8.716589
9.446036
10.205590
10.969530
11.717820
12.438380
13.125490
13.770590
14.352870
14.842080
15.209780
15.435590
15.514020
15.464520
15.326040
15.138730
14.934890
14.736580
14.552160
14.379390
14.213820
14.052910
13.895570
13.740950
13.588490
13.438540
13.292550
13.152080
13.017530
12.887250
12.756580
12.617520
12.459800
12.271900
12.044900
11.779460
11.488200
11.191640
10.914990
10.680550
10.493660
10.339300
10.194260
10.037190
9.850621
9.621376
9.340366
9.003814
8.616649
8.191540
7.743998
7.289043
6.837554
6.393388
5.959137
5.548465
5.189776
4.915712
4.752627
4.717636
4.817396
5.048785
5.400339
5.850732
6.372039
6.938952
7.533087
8.144373
8.773926
9.430690
10.122680
10.852800
11.617470
12.402760
13.181080
13.908660
14.527820
14.984770
15.250250
15.325060
15.239820
15.049060
14.811370
14.572740
14.365730
14.214020
14.136040
14.144400
14.240470
14.409750
14.617870
14.813000
14.944110
14.979410
14.907660
14.732190
14.465070
14.119150
13.702800
13.221970
12.685830
12.108530
11.503790
10.878770
10.233610
9.563806
8.862098
8.120541
7.332408
6.494342
5.609776
4.689383
3.746810
2.795294
1.846604
0.909733
-0.010184
-0.914680
-1.814868
-2.722395
-3.629668
-4.501713
-5.281796
-5.895871
-6.274124
-6.393795
-6.290799
-6.028673
-5.673348
-5.282234
-4.891129
-4.513029
-4.152990
-3.819410
-3.522585
-3.267253
-3.049343
-2.856098
-2.664668
-2.447105
-2.182435
-1.861905
-1.488866
-1.080537
-0.661017
-0.245161
0.167389
0.585940
1.023749
1.494540
2.007183
2.563772
3.160102
3.784041
4.416011
5.032177
5.606771
6.117040
6.549415
6.901422
7.181932
7.409140
7.603439
7.781833
7.957952
8.143861
8.350805
8.585926
8.846706
9.120091
9.384848
9.614969
9.789849
9.905306
9.971562
10.003170
10.013580
10.013460
10.009110
10.001930
9.987945
9.959171
9.909787
9.842657
9.768151
9.698189
9.643769
9.617082
9.634264
9.713275
9.867422
10.099880
10.390570
10.679080
10.881500
10.936110
10.821730
10.547460
10.146930
9.666259
9.139502
8.580120
7.991899
7.378377
6.744018
6.092380
5.425038
4.740459
4.032286
3.291087
2.509275
1.686002
0.839886
0.024886
-0.684064
-1.230853
-1.594651
-1.783139
-1.830009
-1.782057
-1.671825
-1.508601
-1.294138
-1.037646
-0.756054
-0.466934
-0.185208
0.077048
0.311574
0.515581
0.694311
0.860660
1.028475
1.205508
1.390364
1.570173
1.721991
1.823475
1.864061
1.847259
