EVENT_NAME: EMILIA_2ND_SHOCK
EVENT_ID: IT-2012-0011
EVENT_DATE_YYYYMMDD: 20120529
EVENT_TIME_HHMMSS: 070002
EVENT_LATITUDE_DEGREE: 44.8417
EVENT_LONGITUDE_DEGREE: 11.0657
EVENT_DEPTH_KM: 8.1
HYPOCENTER_REFERENCE: INGV-CNT_Seismic_Bulletin
MAGNITUDE_W: 6.0
MAGNITUDE_W_REFERENCE: RCMT-INGV
MAGNITUDE_L: 5.8
MAGNITUDE_L_REFERENCE: INGV-CNT_Seismic_Bulletin
FOCAL_MECHANISM: TF
NETWORK: IV
STATION_CODE: T0824
STATION_NAME: T0824
STATION_LATITUDE_DEGREE: 44.759400
STATION_LONGITUDE_DEGREE: 10.927600
STATION_ELEVATION_M: 72
LOCATION: 
SENSOR_DEPTH_M: 1.0
VS30_M/S: 
SITE_CLASSIFICATION_EC8: C*
MORPHOLOGIC_CLASSIFICATION: 
EPICENTRAL_DISTANCE_KM: 14.2
EARTHQUAKE_BACKAZIMUTH_DEGREE: 50.0
DATE_TIME_FIRST_SAMPLE_YYYYMMDD_HHMMSS: 20120529_065943.000
DATE_TIME_FIRST_SAMPLE_PRECISION: milliseconds
SAMPLING_INTERVAL_S: 0.005000
NDATA: 22001
DURATION_S: 110.005
STREAM: HNZ
UNITS: cm/s
INSTRUMENT: sensor = Episensor FBA ES-T [Kinemetrics] | digitizer = Unknown [Unknown]
INSTRUMENT_ANALOG/DIGITAL: D
INSTRUMENTAL_FREQUENCY_HZ: 
INSTRUMENTAL_DAMPING: 
FULL_SCALE_G: 
N_BIT_DIGITAL_CONVERTER: 
PGV_CM/S: 2.603174
TIME_PGV_S: 29.555000
BASELINE_CORRECTION: BASELINE REMOVED
FILTER_TYPE: BUTTERWORTH
FILTER_ORDER: 2
LOW_CUT_FREQUENCY_HZ: 0.100
HIGH_CUT_FREQUENCY_HZ: 40.000
LATE/NORMAL_TRIGGERED: NT
DATABASE_VERSION: DYNA 1.0
HEADER_FORMAT: DYNA 1.2
DATA_TYPE: VELOCITY
PROCESSING: manual (Paolucci et al., 2011)
DATA_TIMESTAMP_YYYYMMDD_HHMMSS: 
DATA_LICENSE: CC-BY4_0 (http://creativecommons.org/licenses/by/4.0/)
DATA_CITATION: ESM working group (2015), European Strong-Motion database, version 0.1, Network Activity 3: Networking acceleration networks and SM data users. Project NERA (www.nera-eu.org)
DATA_CREATOR: ESM working group
ORIGINAL_DATA_MEDIATOR_CITATION: Orfeus - European Integrated Data Archive (EIDA) http://www.orfeus-eu.org/eida/
ORIGINAL_DATA_MEDIATOR: Orfeus - European Integrated Data Archive (EIDA)
ORIGINAL_DATA_CREATOR_CITATION: Data for this study comes from the Italian national seismic network operated by Istituto Nazionale di Geofisica e Vulcanologia and archived at the European Integrated Data Archive http://eida.rm.ingv.it/
ORIGINAL_DATA_CREATOR: network: IV (Italian National Seismic Network); owner: Istituto Nazionale di Geofisica e Vulcanologia
USER1: 
USER2: 
USER3: 
USER4: 
USER5: 
[...]
0.066968
0.067143
0.067311
0.067471
0.067626
0.067779
0.067930
0.068086
0.068249
0.068415
0.068574
0.068719
0.068852
0.068982
0.069114
0.069250
0.069386
0.069519
0.069655
0.069798
0.069945
0.070092
0.070233
0.070371
0.070510
0.070652
0.070796
0.070938
0.071072
0.071200
0.071323
0.071441
0.071550
0.071652
0.071753
0.071860
0.071980
0.072116
0.072267
0.072425
0.072588
0.072754
0.072925
0.073092
0.073245
0.073381
0.073505
0.073624
0.073741
0.073857
0.073972
0.074085
0.074200
0.074323
0.074456
0.074596
0.074733
0.074864
0.074993
0.075128
0.075264
0.075397
0.075526
0.075657
0.075792
0.075930
0.076069
0.076209
0.076344
0.076465
0.076572
0.076672
0.076775
0.076883
0.076995
0.077111
0.077234
0.077370
0.077525
0.077691
0.077853
0.078000
0.078134
0.078264
0.078395
0.078532
0.078682
0.078848
0.079023
0.079199
0.079369
0.079531
0.079685
0.079828
0.079963
0.080097
0.080231
0.080362
0.080485
0.080597
0.080707
0.080825
0.080954
0.081083
0.081208
0.081333
0.081447
0.081500
0.081424
0.081169
0.080714
0.080050
0.079163
0.077968
0.076210
0.073434
0.069141
0.063049
0.055214
0.045868
0.035278
0.023894
0.012569
0.002381
-0.005961
-0.012531
-0.017769
-0.021381
-0.021790
-0.017119
-0.007069
0.006052
0.018112
0.024932
0.023636
0.013274
-0.004860
-0.027646
-0.051913
-0.076032
-0.099282
-0.120318
-0.137803
-0.152893
-0.169945
-0.193568
-0.224900
-0.260844
-0.295969
-0.324128
-0.339071
-0.336521
-0.317716
-0.289571
-0.258645
-0.224729
-0.182455
-0.129362
-0.071147
-0.019310
0.014613
0.022099
-0.001636
-0.056137
-0.134259
-0.222254
-0.300924
-0.349181
-0.352774
-0.313671
-0.248592
-0.175534
-0.102917
-0.033558
0.022740
0.046525
0.023220
-0.040393
-0.116933
-0.174736
-0.192541
-0.165465
-0.104751
-0.030453
0.040740
0.102181
0.151668
0.182042
0.182541
0.150660
0.099167
0.047990
0.009588
-0.016033
-0.034499
-0.049797
-0.063524
-0.075550
-0.081247
-0.071076
-0.038929
0.007886
0.052054
0.082029
0.100573
0.116306
0.131124
0.139761
0.138747
0.129926
0.115997
0.099292
0.087787
0.096132
0.134088
0.195057
0.258941
0.305999
0.327671
0.326966
0.311900
0.287520
0.251565
0.198853
0.132651
0.070862
0.035662
0.035530
0.061343
0.098508
0.137099
0.170323
0.190078
0.189816
0.171045
0.144223
0.122406
0.113054
0.114454
0.119573
0.124345
0.132721
0.151669
0.179604
0.201552
0.199178
0.167665
0.122665
0.089938
0.086708
0.109868
0.139726
0.155955
0.152510
0.138648
0.125998
0.116399
0.103450
0.082945
0.057676
0.031957
0.005752
-0.022582
-0.049439
-0.064728
-0.058196
-0.026877
0.023058
0.080832
0.137150
0.186141
0.222403
0.237683
0.222035
0.170624
0.091789
0.007845
-0.055825
-0.085759
-0.085838
-0.069364
-0.047128
-0.022405
0.005026
0.032285
0.050969
0.050852
0.027457
-0.011959
-0.050474
-0.072754
-0.075171
-0.063136
-0.040603
-0.006491
0.038661
0.086691
0.124997
0.143819
0.138635
0.108660
0.059610
0.009924
-0.013030
0.007923
0.062157
0.116835
0.142718
0.133861
0.104633
0.072475
0.045060
0.021087
-0.001677
-0.022553
-0.039851
-0.051038
-0.049822
-0.027595
0.017327
0.071192
0.108767
0.109725
0.073418
0.018245
-0.032035
-0.061789
-0.068848
-0.062623
-0.058315
-0.069256
-0.100447
-0.146932
-0.197092
-0.238556
-0.264642
-0.277086
-0.280862
-0.275202
-0.251909
-0.205185
-0.141999
-0.080089
-0.035352
-0.011840
-0.003078
0.000281
0.005640
0.017711
0.037808
0.062865
0.087464
0.107878
0.123220
0.132993
0.134739
0.124663
0.101220
0.068607
0.035534
0.007994
-0.017055
-0.047348
-0.083445
-0.114766
-0.129212
-0.123700
-0.102724
-0.071538
-0.037929
-0.018098
-0.031072
-0.081198
-0.147318
-0.193005
-0.190452
-0.138229
-0.059783
0.014163
0.063875
0.086566
0.090594
0.086360
0.080136
0.073068
0.063806
0.050285
0.029064
-0.003885
-0.047753
-0.091023
-0.113845
-0.100405
-0.051200
0.016361
0.078919
0.119374
0.132416
0.122320
0.096188
0.058381
0.010664
-0.042441
-0.088000
-0.105342
-0.077039
-0.003379
0.094405
0.186856
0.253016
0.287449
0.296345
0.290364
0.278510
0.262476
0.234117
0.183443
0.115435
0.056741
0.038810
0.071780
0.136597
0.203615
0.256616
0.296567
0.324467
0.328624
0.294745
0.226675
0.152621
0.108321
0.111734
0.149989
0.188426
0.194987
0.159998
0.095121
0.017094
-0.064006
-0.142163
-0.207338
-0.245866
-0.251019
-0.231462
-0.206700
-0.194671
-0.204036
-0.233492
-0.272356
-0.301870
-0.303277
-0.270420
-0.214495
-0.157083
-0.119983
-0.119024
-0.162985
-0.256795
-0.406564
-0.622087
-0.912386
-1.270484
-1.650357
-1.956727
-2.074623
-1.933851
-1.562004
-1.080015
-0.637573
-0.336107
-0.199997
-0.209868
-0.351237
-0.625292
-1.014301
-1.439630
-1.763601
-1.856542
-1.683897
-1.334006
-0.962050
-0.700896
-0.600846
-0.627276
-0.707133
-0.784111
-0.840795
-0.880943
-0.901001
-0.882575
-0.811867
-0.704261
-0.604585
-0.554506
-0.552666
-0.546622
-0.468906
-0.288500
-0.036616
0.207731
0.356954
0.358097
0.219244
0.001978
-0.212521
-0.355956
-0.388016
-0.298215
-0.102151
0.164236
0.451492
0.705426
0.876579
0.928402
0.848488
0.660440
0.418807
0.180887
-0.021962
-0.187348
-0.322286
-0.426305
-0.493841
-0.529056
-0.552428
-0.587466
-0.638730
-0.684382
-0.693026
-0.649198
-0.562895
-0.457727
-0.354231
-0.262634
-0.185869
-0.126434
-0.089985
-0.080809
-0.090734
-0.096382
-0.079072
-0.053012
-0.066470
-0.161880
-0.326100
-0.480552
-0.527780
-0.416402
-0.169323
0.137605
0.416457
0.600018
0.658606
0.600460
0.458015
0.270609
0.076128
-0.086321
-0.173533
-0.150870
-0.020837
0.160889
0.312394
0.377201
0.348539
0.253739
0.132051
0.027145
-0.019803
0.007760
0.080497
0.130673
0.091471
-0.057644
-0.271463
-0.461695
-0.554501
-0.546185
-0.505382
-0.510245
-0.577342
-0.655201
-0.687082
-0.668297
-0.635947
-0.613643
-0.582514
-0.506098
-0.370003
-0.198579
-0.046564
0.025545
-0.014865
-0.149203
-0.320149
-0.471642
-0.576393
-0.633826
-0.655615
-0.655471
-0.640823
-0.603287
-0.522957
-0.393161
-0.239670
-0.105270
-0.010930
0.061476
0.141307
0.223989
0.259054
0.190408
0.012977
-0.209617
-0.386151
-0.462490
-0.450988
-0.400856
-0.348834
-0.303408
-0.265130
-0.241654
-0.236851
-0.240159
-0.238977
-0.237578
-0.254184
-0.299673
-0.367589
-0.444374
-0.519740
-0.583017
-0.615678
-0.595254
-0.507822
-0.355307
-0.153070
0.072852
0.283023
0.427445
0.463096
0.374343
0.179406
-0.074622
-0.317743
-0.469697
-0.466941
-0.293359
0.004437
0.331586
0.588812
0.719093
0.723408
0.642916
0.530182
0.426055
0.349092
0.299053
0.267355
0.245324
0.227821
0.213044
0.199002
0.180548
0.153521
0.123959
0.108304
0.119046
0.150402
0.179953
0.184582
0.154898
0.094983
0.010028
-0.101244
-0.236362
-0.371555
-0.463508
-0.477048
-0.412049
-0.303793
-0.199559
-0.133318
-0.116943
-0.147883
-0.217776
-0.311865
-0.408041
-0.489465
-0.564904
-0.670317
-0.839735
-1.069836
-1.312328
-1.499893
-1.580781
-1.536307
-1.377647
-1.137907
-0.871423
-0.650254
-0.542932
-0.586273
-0.774225
-1.058963
-1.349720
-1.529647
-1.508798
-1.279809
-0.923489
-0.553582
-0.246636
-0.017182
0.147321
0.242000
0.245719
0.162164
0.049676
0.003599
0.099120
0.332487
0.608114
0.797748
0.828794
0.717799
0.525548
0.293858
0.030528
-0.254944
-0.517697
-0.690106
-0.729288
-0.650733
-0.520718
-0.416254
-0.376788
-0.382733
-0.383856
-0.351847
-0.300657
-0.255561
-0.218840
-0.178545
-0.139454
-0.127667
-0.161631
-0.227226
-0.284705
-0.296312
-0.250890
-0.169244
-0.084709
-0.013315
0.057753
0.148630
0.254171
0.336985
0.350878
0.267852
0.091433
-0.136053
-0.333052
-0.412490
-0.345349
-0.193473
-0.071989
-0.076059
-0.235378
-0.515751
-0.844658
-1.143507
-1.356608
-1.462667
-1.466562
-1.384918
-1.238946
-1.056184
-0.871522
-0.719321
-0.623637
-0.597750
-0.643828
-0.740024
-0.830942
-0.850357
-0.769608
-0.621880
-0.471008
-0.356288
-0.270927
-0.189879
-0.106117
-0.036045
0.001885
0.008648
0.008537
0.034046
0.101192
0.197854
0.303436
0.416561
0.548935
0.689880
0.792349
0.808534
0.736976
0.627509
0.543969
0.528247
0.595101
0.743170
0.957496
1.206368
1.446747
1.636691
1.744023
1.750929
1.660720
1.504665
1.338740
1.222964
1.191126
1.235423
1.322911
1.425985
1.533849
1.638853
1.720185
1.745751
1.691254
1.557950
1.373234
1.175973
0.999511
0.860174
0.754554
0.667327
0.581867
0.482005
0.347911
0.163786
-0.060708
-0.284431
-0.462972
-0.585933
-0.683446
-0.794635
-0.929951
-1.059897
-1.135274
-1.123540
-1.035450
-0.919095
-0.823091
-0.760128
-0.704120
-0.621294
-0.502941
-0.368869
-0.240359
-0.110816
0.054742
0.286811
0.574137
0.860018
1.080671
1.211849
1.277565
1.311496
1.315155
1.261037
1.134990
0.967431
0.817621
0.728664
0.702956
0.720809
0.769048
0.839877
0.910626
0.942866
0.909574
0.818142
0.702348
0.594340
0.505218
0.427495
0.348680
0.258910
0.150028
0.017809
-0.127036
-0.252911
-0.324520
-0.334740
-0.316424
-0.315716
-0.352109
-0.407054
-0.447512
-0.450410
-0.403517
-0.295081
-0.117849
0.110965
0.340997
0.512969
0.597655
0.609395
0.585247
0.556663
0.537826
0.533572
0.553459
0.614083
0.724862
0.872066
1.018091
1.117195
1.137429
1.080395
0.988066
0.920916
0.913648
0.946071
0.959439
0.904959
0.779633
0.620794
0.471815
0.352215
0.252973
0.152905
0.039250
-0.081088
-0.184347
-0.243406
-0.242992
-0.187597
-0.098451
-0.001664
0.086298
0.167173
0.257367
0.374145
0.519944
0.673648
0.793129
0.828908
0.745674
0.540616
0.245628
-0.083683
-0.381047
-0.586641
-0.669008
-0.635542
-0.520520
-0.361832
-0.186898
-0.017084
0.120521
0.196150
0.199867
0.159303
0.129402
0.159322
0.262387
0.410082
0.551457
0.642890
0.667765
0.635515
0.568269
0.489225
0.417628
0.370712
0.370183
0.441333
0.596017
0.811586
1.028415
1.173251
1.194784
1.092152
0.919091
0.754923
0.659178
0.644404
0.683413
0.735803
0.767559
0.750771
0.654504
0.450280
0.135879
-0.247415
-0.623461
-0.909711
-1.050245
-1.040530
-0.929195
-0.789484
-0.681240
-0.634654
-0.655985
-0.735369
-0.850092
-0.967119
-1.048715
-1.064917
-1.009952
-0.910260
-0.815693
-0.778541
-0.829719
-0.957977
-1.103546
-1.184119
-1.145605
-0.996722
-0.797855
-0.616842
-0.489218
-0.409454
-0.350692
-0.290517
-0.222354
-0.150055
-0.077720
-0.006949
0.056778
0.098126
0.098216
0.054228
-0.005326
-0.031842
0.007731
0.102653
0.206631
0.273358
0.283110
0.241693
0.165015
0.068156
-0.039585
-0.158118
-0.293688
-0.447496
-0.606872
-0.751258
-0.865632
-0.944048
-0.986815
-1.003945
-1.017302
-1.045854
-1.082550
-1.093252
-1.043683
-0.923791
-0.749712
-0.553957
-0.377500
-0.261864
-0.235488
-0.298588
-0.414725
-0.516583
-0.532248
-0.423431
-0.209476
0.043377
0.260990
0.398646
0.449054
0.421778
0.322744
0.155633
-0.063594
-0.297954
-0.496429
-0.618264
-0.657972
-0.644182
-0.612899
-0.585255
-0.568671
-0.565928
-0.571836
-0.567025
-0.526855
-0.440150
-0.319712
-0.198069
-0.114886
-0.100062
-0.155685
-0.249337
-0.329174
-0.354356
-0.320743
-0.261880
-0.221990
-0.221738
-0.244899
-0.254566
-0.220242
-0.132219
-0.000938
0.147784
0.279772
0.366590
0.401957
0.405087
0.403025
0.405061
0.393812
0.343065
0.244901
0.119333
-0.001396
-0.096526
-0.166365
-0.223632
-0.281764
-0.353467
-0.454713
-0.602069
-0.802292
-1.044315
-1.300958
-1.538355
-1.726944
-1.846998
-1.887104
-1.844125
-1.729790
-1.574943
-1.423148
-1.316965
-1.282977
-1.321188
-1.405155
-1.494419
-1.551970
-1.555462
-1.497303
-1.379155
-1.209801
-1.006216
-0.790013
-0.581608
-0.400730
-0.267365
-0.193903
-0.176312
-0.198187
-0.245948
-0.317243
-0.409638
-0.500895
-0.549487
-0.524750
-0.436696
-0.328490
-0.235359
-0.155732
-0.069461
0.019024
0.070607
0.048830
-0.045795
-0.183840
-0.336522
-0.484752
-0.604849
-0.664550
-0.646239
-0.572059
-0.495727
-0.465269
-0.493554
-0.558900
-0.625703
-0.664616
-0.663608
-0.628191
-0.570944
-0.501244
-0.427100
-0.362832
-0.325871
-0.321989
-0.339396
-0.362472
-0.388807
-0.429493
-0.494461
-0.582044
-0.683674
-0.794396
-0.913742
-1.033516
-1.125751
-1.147543
-1.063134
-0.866873
-0.593129
-0.308575
-0.086253
0.026471
0.023664
-0.067065
-0.204776
-0.353679
-0.488987
-0.588243
-0.621986
-0.557902
-0.375683
-0.081433
0.287124
0.669189
0.999181
1.224746
1.320990
1.299273
1.202455
1.085517
0.993934
0.951261
0.958057
1.000282
1.062357
1.134075
1.205525
1.260051
1.276074
1.234537
1.124739
0.949188
0.731908
0.524061
0.390751
0.376684
0.476406
0.637613
0.790995
0.878570
0.872424
0.786956
0.674055
0.594266
0.583876
0.645871
0.762245
0.904129
1.034801
1.117895
1.132781
1.082738
0.986581
0.865558
0.743826
0.659999
0.664716
0.795565
1.053754
1.402137
1.779420
2.119625
2.372140
2.516610
2.564328
2.543945
2.479890
2.379888
2.242969
2.079787
1.923884
1.820286
1.797583
1.848224
1.938479
2.036925
2.129471
2.209908
2.268176
2.296452
2.301245
2.301174
2.312413
2.337998
2.367786
2.383345
2.366660
2.314955
2.251153
2.215461
2.240087
2.326673
2.444709
2.549880
2.603174
2.575411
2.445379
2.206853
1.880148
1.510949
1.152505
0.845484
0.609781
0.449930
0.363477
0.342744
0.372331
0.428872
0.485918
0.523677
0.537305
0.533279
0.513973
0.467255
0.375676
0.237074
0.075713
-0.065871
-0.146585
-0.142942
-0.054097
0.102818
0.302608
0.519023
0.723159
0.880209
0.955371
0.927470
0.800655
0.608855
0.409005
0.257237
0.178042
0.153562
0.144611
0.122812
0.083627
0.035518
-0.013312
-0.056577
-0.086408
-0.094047
-0.072754
-0.017819
0.071640
0.186171
0.303935
0.399331
0.453451
0.455208
0.396107
0.268943
0.073357
-0.174541
-0.435306
-0.653688
-0.783797
-0.816222
-0.782593
-0.728538
-0.677894
-0.623470
-0.551800
-0.470508
-0.407755
-0.388875
-0.415296
-0.462477
-0.495990
-0.491620
-0.444881
-0.366743
-0.273196
-0.178385
-0.096738
-0.049851
-0.065093
-0.160568
-0.328086
-0.527890
-0.699826
-0.789309
-0.778381
-0.700514
-0.621739
-0.601362
-0.665273
-0.803937
-0.984696
-1.169621
-1.333683
-1.474534
-1.606631
-1.744430
-1.888650
-2.023664
-2.123628
-2.162674
-2.126291
-2.018697
-1.859992
-1.675931
-1.490375
-1.323890
-1.193950
-1.111679
-1.075040
-1.065977
-1.058960
-1.035782
-0.993660
-0.943504
-0.903274
-0.887534
-0.893446
-0.892047
-0.838484
-0.697823
-0.465641
-0.173766
0.115551
0.329292
0.416330
0.370978
0.222002
-0.001988
-0.290284
-0.632354
-0.989008
-1.291269
-1.474221
-1.511506
-1.419313
-1.237119
-1.010728
-0.785406
-0.600560
-0.481000
-0.429837
-0.431784
-0.465338
-0.511323
-0.552220
-0.571925
-0.562556
-0.529538
-0.486172
-0.442376
-0.398750
-0.348843
-0.282730
-0.188637
-0.056652
0.113716
0.309130
0.508225
0.692496
0.849829
0.968903
1.038663
1.059019
1.046317
1.019418
0.978397
0.902505
0.773760
0.601816
0.425010
0.287622
0.212555
0.187826
0.175113
0.136751
0.061083
-0.036887
-0.138088
-0.240835
-0.361268
-0.515883
-0.705742
-0.916207
-1.126946
-1.318367
-1.471037
-1.564984
-1.584422
-1.525815
-1.401473
-1.234719
-1.052178
-0.879360
-0.737232
-0.637568
-0.580106
-0.550032
-0.516277
-0.442919
-0.315700
-0.158933
-0.018296
0.078739
0.144649
0.216541
0.325767
0.482928
0.682839
0.912399
1.151646
1.374522
1.557874
1.695438
1.801742
1.896286
1.980924
2.035384
2.037736
1.988009
1.908347
1.820494
1.727553
1.619480
1.492253
1.356167
1.225440
1.103780
0.982368
0.851708
0.715437
0.593675
0.513557
0.493612
0.529548
0.589490
0.626855
0.607224
0.529757
0.425337
0.334142
0.281385
0.266662
0.272425
0.285930
0.314509
0.376478
0.476140
0.591605
0.691317
0.761380
0.815075
0.879591
0.977175
1.115279
1.284681
1.461479
1.616067
1.728768
1.800767
1.850058
1.897783
1.957774
2.032154
2.109812
2.169773
2.191980
2.168599
2.105177
2.013109
1.903777
1.787289
1.671880
1.562828
1.463035
1.375784
1.306548
1.261288
1.242105
1.242277
1.243048
1.215967
1.132747
0.977459
0.753037
0.481624
0.201049
-0.046321
-0.230212
-0.341491
-0.387966
-0.384421
-0.345543
-0.283649
-0.207639
-0.121528
-0.028238
0.059211
0.113633
0.108719
0.040633
-0.065908
-0.171879
-0.243385
-0.262689
-0.231326
-0.168957
-0.105467
-0.065565
-0.058816
-0.087842
-0.162515
-0.296607
-0.486090
-0.693902
-0.860616
-0.933979
-0.894821
-0.762327
-0.580054
-0.395916
-0.245350
-0.140910
-0.074186
-0.032380
-0.014093
-0.027180
-0.074927
-0.149232
-0.236528
-0.326103
-0.411675
-0.488965
-0.553622
-0.598504
-0.612561
-0.588092
-0.534515
-0.482624
-0.467514
-0.500843
-0.556952
-0.587342
-0.552907
-0.445320
-0.279672
-0.073350
0.161615
0.408571
0.637506
0.813096
0.915601
0.955936
0.969151
0.990576
1.035308
1.096466
1.158507
1.210246
1.247571
1.269371
1.275961
1.271697
1.265456
1.265430
1.272939
1.281849
1.282986
1.267875
1.229638
1.164031
1.072028
0.961137
0.844602
0.739204
0.658915
0.605641
0.567208
0.528378
0.483894
0.437581
0.391411
0.344071
0.303944
0.297506
0.355356
0.485390
0.659439
0.826533
0.941516
0.986052
0.969295
0.912994
0.834784
0.742869
0.644084
0.552300
0.484018
0.445082
0.424317
0.400639
0.355191
0.279450
0.177161
0.061508
-0.049943
-0.140493
-0.199414
-0.225230
-0.224212
-0.205666
-0.179025
-0.153570
-0.136349
-0.126727
-0.113721
-0.082462
-0.026971
0.041344
0.097844
0.120146
0.105075
0.075079
0.067684
0.114157
0.222221
0.373164
0.533701
0.674866
0.783583
0.857629
0.893083
0.879774
0.807401
0.674185
0.491368
0.282462
0.078715
-0.087765
-0.193282
-0.232246
-0.220860
-0.191251
-0.179416
-0.212415
-0.299506
-0.430416
-0.579398
-0.711125
-0.789303
-0.791616
-0.723008
-0.610591
-0.480566
-0.340036
-0.182977
-0.012632
0.146629
0.262902
0.321476
0.334765
0.330738
0.334412
0.356209
0.391232
0.427914
0.459980
0.492421
0.536045
0.596805
0.671409
0.751251
0.825893
0.880966
0.897700
0.860588
0.767289
0.631983
0.480274
0.339377
0.230207
0.165199
0.147761
0.169743
0.211629
0.250463
0.272071
0.278314
0.282858
0.297855
0.322424
0.343354
0.347892
0.337117
0.326738
0.332968
0.356548
0.381182
0.387224
0.366715
0.328024
0.290713
0.276574
0.298670
0.352579
0.419275
0.479872
0.527902
0.566328
0.594710
0.602613
0.576103
0.509508
0.410979
0.298818
0.192524
0.102575
0.024698
-0.055382
-0.149065
-0.255373
-0.363307
-0.461491
-0.544917
-0.615194
-0.676323
-0.729326
-0.769975
-0.791438
-0.788395
-0.758072
-0.699670
-0.617512
-0.526222
-0.449059
-0.405866
-0.401152
-0.425517
-0.466850
-0.517928
-0.576567
-0.643171
-0.718661
-0.802065
-0.887866
-0.965481
-1.021384
-1.041610
-1.013913
-0.931266
-0.796018
-0.621224
-0.428575
-0.244897
-0.096675
-0.003007
0.029546
0.008191
