EVENT_NAME: EMILIA_2ND_SHOCK
EVENT_ID: IT-2012-0011
EVENT_DATE_YYYYMMDD: 20120529
EVENT_TIME_HHMMSS: 070002
EVENT_LATITUDE_DEGREE: 44.8417
EVENT_LONGITUDE_DEGREE: 11.0657
EVENT_DEPTH_KM: 8.1
HYPOCENTER_REFERENCE: INGV-CNT_Seismic_Bulletin
MAGNITUDE_W: 6.0
MAGNITUDE_W_REFERENCE: RCMT-INGV
MAGNITUDE_L: 5.8
MAGNITUDE_L_REFERENCE: INGV-CNT_Seismic_Bulletin
FOCAL_MECHANISM: TF
NETWORK: IV
STATION_CODE: T0813
STATION_NAME: T0813
STATION_LATITUDE_DEGREE: 44.877800
STATION_LONGITUDE_DEGREE: 11.199200
STATION_ELEVATION_M: 1
LOCATION: 
SENSOR_DEPTH_M: 1.0
VS30_M/S: 
SITE_CLASSIFICATION_EC8: C*
MORPHOLOGIC_CLASSIFICATION: 
EPICENTRAL_DISTANCE_KM: 11.3
EARTHQUAKE_BACKAZIMUTH_DEGREE: 249.2
DATE_TIME_FIRST_SAMPLE_YYYYMMDD_HHMMSS: 20120529_065942.000
DATE_TIME_FIRST_SAMPLE_PRECISION: milliseconds
SAMPLING_INTERVAL_S: 0.005000
NDATA: 30001
DURATION_S: 150.005
STREAM: HNE
UNITS: cm/s^2
INSTRUMENT: sensor = Episensor FBA ES-T [Kinemetrics] | digitizer = Unknown [Unknown]
INSTRUMENT_ANALOG/DIGITAL: D
INSTRUMENTAL_FREQUENCY_HZ: 
INSTRUMENTAL_DAMPING: 
FULL_SCALE_G: 
N_BIT_DIGITAL_CONVERTER: 
PGA_CM/S^2: -361.214163
TIME_PGA_S: 30.410000
BASELINE_CORRECTION: BASELINE REMOVED
FILTER_TYPE: BUTTERWORTH
FILTER_ORDER: 2
LOW_CUT_FREQUENCY_HZ: 0.060
HIGH_CUT_FREQUENCY_HZ: 40.000
LATE/NORMAL_TRIGGERED: NT
DATABASE_VERSION: DYNA 1.0
HEADER_FORMAT: DYNA 1.2
DATA_TYPE: ACCELERATION
PROCESSING: manual (Paolucci et al., 2011)
DATA_TIMESTAMP_YYYYMMDD_HHMMSS: 
DATA_LICENSE: CC-BY4_0 (http://creativecommons.org/licenses/by/4.0/)
DATA_CITATION: ESM working group (2015), European Strong-Motion database, version 0.1, Network Activity 3: Networking acceleration networks and SM data users. Project NERA (www.nera-eu.org)
DATA_CREATOR: ESM working group
ORIGINAL_DATA_MEDIATOR_CITATION: Orfeus - European Integrated Data Archive (EIDA) http://www.orfeus-eu.org/eida/
ORIGINAL_DATA_MEDIATOR: Orfeus - European Integrated Data Archive (EIDA)
ORIGINAL_DATA_CREATOR_CITATION: Data for this study comes from the Italian national seismic network operated by Istituto Nazionale di Geofisica e Vulcanologia and archived at the European Integrated Data Archive http://eida.rm.ingv.it/
ORIGINAL_DATA_CREATOR: network: IV (Italian National Seismic Network); owner: Istituto Nazionale di Geofisica e Vulcanologia
USER1: 
USER2: 
USER3: 
USER4: 
USER5: 
[...]
-0.068491
-0.133898
-0.123993
-0.050506
0.031140
0.059543
0.014151
-0.072807
-0.152810
-0.198288
-0.203901
-0.172320
-0.101541
0.013489
0.142069
0.198883
0.122340
-0.031718
-0.128113
-0.096954
0.015775
0.146290
0.250446
0.247043
0.070436
-0.199668
-0.369544
-0.337575
-0.171204
0.055455
0.324293
0.538089
0.520437
0.221186
-0.179951
-0.441504
-0.460658
-0.260490
0.094987
0.489731
0.723909
0.560361
-0.094697
-0.938083
-1.324169
-0.833087
0.210073
0.986422
1.022330
0.558778
0.041871
-0.383569
-0.725634
-0.800736
-0.357897
0.482695
1.149499
1.040288
0.035055
-1.288510
-1.965453
-1.359670
0.286407
1.946087
2.479074
1.435967
-0.531100
-2.018762
-1.924606
-0.437550
1.106054
1.503574
0.759861
-0.171779
-0.525515
-0.310122
0.090627
0.438498
0.621073
0.461033
-0.087340
-0.691952
-0.893643
-0.577311
-0.034306
0.405892
0.592255
0.469399
0.092606
-0.277991
-0.345337
-0.116897
0.085833
0.063972
0.007558
0.193186
0.535144
0.602396
0.133545
-0.547637
-0.778817
-0.321345
0.215029
0.008830
-0.804972
-1.093286
-0.229029
0.824459
0.646483
-0.573986
-1.150377
-0.131763
1.580306
2.348353
1.392896
-0.655033
-2.236309
-1.945029
0.069253
1.858743
1.690815
-0.024010
-1.453363
-1.504120
-0.664571
-0.001255
-0.085531
-0.691936
-0.843348
0.258359
1.869518
2.209414
0.655454
-1.350673
-1.941630
-0.866550
0.533168
0.876430
-0.091206
-1.357641
-1.574383
-0.484379
0.772833
0.995956
0.267924
-0.330386
-0.119259
0.559334
0.898943
0.373601
-0.727655
-1.325130
-0.546535
1.211975
2.569398
2.579706
1.414985
-0.349487
-2.114682
-2.910524
-1.936693
0.262269
1.928807
1.822666
0.406814
-0.928680
-1.153959
-0.103363
1.445263
2.228752
1.638080
0.393844
-0.297352
-0.191359
-0.017524
-0.188241
-0.314631
0.045767
0.714728
1.003785
0.295613
-1.386834
-3.069501
-3.264477
-1.312956
1.672243
3.606324
3.319863
1.505885
-0.194893
-0.695729
-0.046007
0.977571
1.512883
1.063969
-0.181755
-1.435976
-1.955920
-1.528243
-0.294955
1.465508
2.984897
2.968867
0.997514
-1.364442
-1.970153
-0.432299
1.560390
2.153959
1.066867
-0.580702
-1.600960
-1.741297
-1.571605
-1.372700
-0.502940
1.490666
3.463452
3.447207
1.228028
-0.926214
-0.956238
0.652273
1.895950
1.652395
0.337734
-1.268300
-2.758175
-3.672846
-3.290045
-1.271071
1.614319
3.680771
3.610150
1.703443
-0.393215
-1.395673
-1.548291
-1.723333
-1.907809
-1.524029
-0.798835
-0.704280
-1.477113
-2.132352
-1.860282
-1.022564
-0.449996
-0.521791
-1.041279
-1.512409
-1.465387
-0.897393
-0.447494
-0.598730
-0.819884
-0.225769
1.137079
2.280527
2.415702
1.755275
1.216718
1.579507
2.806597
3.912386
3.751157
2.086394
-0.368147
-2.553673
-3.362880
-2.225344
0.060344
1.692846
1.496263
-0.070747
-1.745612
-2.652694
-2.391710
-1.131600
0.136085
0.537179
0.357297
0.393478
0.656935
0.553975
0.186159
0.310771
1.046533
1.737778
1.815269
1.090690
-0.305061
-1.913656
-3.197547
-3.894177
-3.906486
-2.952368
-0.949008
1.280872
2.585417
2.746677
2.478654
2.361280
2.313604
2.105007
1.883805
1.852121
1.696478
0.870165
-0.465356
-1.291307
-0.889756
0.133847
0.535098
0.023575
-0.567406
-0.512187
0.159849
1.001988
1.489073
1.105950
-0.198423
-1.585805
-2.091897
-1.592807
-0.417050
1.283291
3.103789
3.985039
3.283560
2.030047
1.830372
2.715854
3.258255
2.493770
0.761245
-1.284863
-3.447135
-5.481179
-6.786298
-6.891361
-5.776915
-3.844896
-1.920129
-1.081378
-1.863195
-3.441143
-4.188161
-3.343525
-1.796289
-0.916508
-0.858304
-0.488201
1.123173
3.541845
5.334131
5.415558
4.045929
2.638214
2.420412
3.098033
3.263802
2.274493
1.060922
0.961901
2.319373
4.331586
5.778199
5.679884
3.990046
1.951027
0.929748
0.732585
-0.200784
-2.805120
-6.250831
-9.110030
-10.800055
-11.364443
-10.686529
-8.361438
-4.103943
1.453294
6.208511
7.572911
5.019608
1.439110
0.646360
3.607179
7.952793
10.529039
9.639893
5.525122
0.011993
-4.257824
-5.569889
-4.354243
-2.298961
-0.978242
-1.342397
-3.214325
-4.797143
-3.700443
0.459224
5.254170
8.166255
8.817477
8.019031
6.350039
4.570354
4.187509
5.971115
8.410917
8.974862
6.399828
1.284647
-4.657062
-9.419135
-11.507178
-10.855930
-8.774071
-6.606112
-5.021179
-4.265253
-3.872501
-2.549636
0.438178
3.833191
5.394837
4.579663
2.979366
1.993707
1.537487
1.206730
1.441160
2.730611
4.300135
4.431741
1.830716
-3.258021
-8.586107
-11.025098
-9.223574
-5.208594
-2.603424
-3.065849
-5.205528
-6.529108
-5.304347
-1.633468
2.085678
2.928057
0.676739
-1.529793
-0.820694
2.171527
5.129754
7.265940
8.926505
9.760064
9.145695
7.679157
6.321239
4.482419
1.056724
-3.088185
-5.539746
-5.354850
-4.301803
-4.480707
-5.745803
-6.076732
-3.977225
-0.421626
1.569064
-0.123049
-3.999851
-5.976070
-3.960080
-0.823794
-1.369719
-6.441550
-11.508665
-11.773467
-7.272415
-1.885729
0.977575
0.942005
0.452544
2.417496
7.217695
11.845105
12.749727
9.875542
6.983364
7.707834
12.009418
16.307606
16.607666
11.914240
4.920404
-0.620692
-2.843819
-2.313685
-0.642491
0.869924
1.689710
1.918088
1.768733
1.245630
0.968826
2.505312
6.202493
9.479760
9.251338
5.955583
2.985235
1.608170
-0.523421
-5.152643
-10.600742
-13.668394
-12.759232
-8.763070
-3.659963
1.125064
5.152753
8.315304
10.353965
11.476560
12.590118
13.427676
11.536844
5.037803
-4.558353
-13.370692
-18.275267
-18.789707
-16.789522
-14.869187
-13.679573
-10.612992
-3.658904
4.413836
9.361961
10.671516
10.217681
8.502966
5.446124
3.070027
3.226752
4.253480
4.368797
5.044033
7.207098
8.274953
6.055531
2.790917
2.205213
4.548130
7.645777
9.310486
6.576048
-2.059726
-12.355726
-17.039303
-13.962819
-8.086203
-3.963586
-1.066225
1.719755
3.171170
3.400202
5.716150
12.015493
18.741920
20.496309
15.743553
6.985821
-1.977021
-7.627676
-8.044617
-4.509726
-0.945321
-0.292869
-2.000832
-3.554033
-3.268277
-1.452086
0.057379
-0.586668
-3.331122
-5.680623
-5.116323
-1.939118
1.940308
6.147012
11.217481
15.142908
13.511851
4.939010
-5.851414
-12.612978
-13.748167
-12.405631
-11.386418
-9.585839
-3.831788
6.278671
15.717302
17.420885
9.835509
-0.536761
-5.872846
-3.957876
2.063343
7.442416
8.518513
4.318229
-2.412772
-6.970467
-7.308564
-5.880793
-6.269655
-9.215088
-11.985053
-11.207427
-6.767121
-2.198577
-0.465204
-0.990958
-1.702947
-2.253713
-3.867370
-6.903650
-10.063834
-11.014535
-7.247808
0.842688
8.075562
9.565650
7.008793
6.644161
11.302173
17.728283
22.101673
23.623457
22.458574
19.070377
15.251558
12.546734
10.233678
6.542556
1.285365
-4.276149
-9.256535
-13.074855
-15.514050
-18.188696
-23.164614
-29.443012
-33.369335
-33.187366
-31.065941
-29.341192
-27.061220
-22.066469
-14.807532
-8.604897
-6.361778
-7.492592
-8.272963
-5.204085
2.193659
11.879750
21.669046
29.967072
34.580452
32.973984
24.538996
12.095030
1.656887
-0.260948
7.808809
19.604284
26.571377
25.721722
20.569864
15.286290
11.210107
8.796036
8.181791
7.639980
5.231016
1.918868
0.837625
3.265256
6.839907
7.710396
2.910584
-7.478852
-18.360802
-22.802374
-18.841837
-10.595035
-2.023019
7.561349
19.668367
31.853489
40.373398
43.781227
41.454330
32.687923
19.849264
9.847977
8.879339
16.254864
25.398342
29.788841
28.011683
25.185822
28.679174
40.223305
52.493118
55.291416
45.392525
28.300894
10.893829
-4.360868
-18.541510
-33.140522
-48.319050
-61.730289
-68.771980
-67.531914
-62.819664
-60.657234
-59.486603
-51.021511
-31.140585
-7.089861
8.510192
8.460018
-4.783594
-21.970093
-33.152412
-33.466324
-24.914358
-12.940116
-1.179427
10.570270
23.946657
38.337498
49.531704
52.740089
48.135281
41.552448
38.058899
37.718353
37.940899
36.434650
32.798832
30.141783
33.486347
42.593857
47.438293
37.380203
14.404599
-9.242363
-24.327719
-30.075237
-28.984276
-22.908726
-14.974548
-8.321453
-1.799264
6.887177
14.901790
16.795622
12.627093
7.790099
3.946122
-2.310374
-11.095475
-17.588255
-18.934628
-16.948088
-13.444240
-8.853896
-7.538627
-16.912237
-38.009129
-62.370178
-80.083870
-87.242867
-83.621719
-67.919884
-40.486691
-7.667847
21.367165
41.657597
53.890717
60.134323
62.071255
61.918274
60.998444
58.753204
54.120987
45.422642
28.943663
1.515168
-32.375095
-60.327766
-74.066132
-77.376686
-77.859749
-75.053490
-61.792850
-35.373783
-2.077949
28.272221
48.728157
58.501324
62.660442
67.571838
75.194115
82.183640
85.153694
83.673676
76.651825
61.731930
40.044403
16.210283
-7.461982
-33.206627
-62.072495
-88.528938
-104.362564
-106.926826
-101.881676
-98.334061
-100.252357
-101.688210
-92.324448
-67.367676
-30.670683
8.677994
41.028648
60.655148
68.460304
69.676491
67.647804
61.742142
51.856556
39.987057
25.884689
6.289061
-19.256344
-44.626064
-61.062160
-62.193920
-44.854832
-11.556059
27.597139
61.903397
87.866859
107.026657
119.789871
125.222679
125.057648
123.087433
120.715958
116.926834
110.562973
99.703896
82.559387
61.484287
42.740635
28.840588
13.401441
-11.814166
-46.488739
-81.850769
-109.126419
-124.878464
-129.575989
-125.120949
-112.894775
-90.862366
-55.077244
-7.753796
37.282848
62.157681
61.032021
45.315224
30.753674
23.279865
19.938284
18.339193
18.286970
18.419350
18.517080
20.631304
23.128054
18.382542
1.831411
-19.924688
-37.250000
-49.598953
-62.178711
-76.024361
-86.793503
-89.196487
-78.135811
-49.080109
-5.361050
38.385574
68.310600
82.193970
84.257271
76.067734
57.020897
29.611027
-0.622056
-27.895651
-45.991936
-49.443981
-37.706699
-16.345810
6.240350
23.408939
33.410145
39.216721
45.149082
52.772709
59.618183
62.142258
59.418793
53.510139
47.219917
41.720860
35.887104
28.391104
19.710238
10.631655
0.156388
-13.252302
-29.098019
-45.088543
-59.348145
-69.821419
-72.330620
-63.481163
-45.738667
-26.713255
-12.828933
-4.667582
1.421803
7.905689
12.690155
11.376796
2.850700
-8.421513
-16.486891
-19.145985
-18.413376
-17.592850
-18.421364
-19.691584
-18.983784
-16.243729
-14.409219
-16.206938
-21.423527
-27.409912
-30.727987
-28.020611
-18.373892
-5.611811
5.401897
14.715758
26.168482
40.677891
53.924934
61.524082
62.454136
56.425789
43.453835
26.074850
7.346210
-11.817944
-30.500959
-45.070015
-51.856037
-51.329746
-45.867310
-35.813339
-21.952265
-8.457439
0.851435
7.362646
14.970372
23.255754
27.777334
26.033857
19.168480
9.820650
1.129185
-3.855178
-4.762848
-5.842815
-12.255939
-23.962196
-35.534100
-42.235081
-44.400612
-45.043480
-45.198479
-43.387302
-38.643005
-32.314533
-26.890497
-24.652157
-26.928778
-32.348259
-36.663895
-36.711853
-34.349567
-34.618568
-39.772827
-47.222305
-53.591644
-58.418640
-63.367867
-69.692032
-77.624924
-86.834282
-95.933594
-102.815247
-106.971458
-110.635757
-115.684967
-119.979568
-119.866081
-115.750290
-111.955376
-111.343803
-112.385101
-111.801872
-107.763512
-99.874207
-88.933731
-77.243309
-67.037277
-58.734978
-51.913567
-47.432701
-47.022427
-50.884460
-57.436733
-65.514801
-75.357826
-86.964157
-98.515846
-107.225555
-110.698051
-107.087654
-95.995514
-79.869133
-62.899746
-47.905579
-34.933865
-23.139517
-12.932456
-5.592128
-1.602706
0.292334
3.147150
11.181870
27.200083
48.696697
68.609360
82.467400
93.291550
107.395172
126.005722
142.782883
149.287552
141.948532
125.099098
108.127678
98.564117
97.589157
101.918785
108.185097
115.040443
122.648689
131.355103
140.707840
148.822845
152.676849
149.736053
139.369232
123.513885
107.153145
95.970444
89.949135
79.623817
52.680161
6.651389
-46.938099
-92.067657
-120.090622
-132.699097
-136.603378
-138.230530
-142.131943
-151.026260
-167.125229
-193.245285
-229.973907
-270.775208
-302.192108
-311.642944
-295.116913
-257.661224
-209.693146
-162.220108
-121.471893
-87.595757
-59.095318
-37.208412
-25.819296
-27.663748
-39.634575
-51.779568
-52.653172
-36.570019
-6.117666
31.191219
68.518242
103.221329
135.887573
167.305054
197.439697
225.638855
249.915512
267.028015
274.519836
272.543701
263.511566
250.299271
235.339539
220.855286
209.133850
203.243500
207.163910
221.846725
237.793350
234.848236
197.233490
129.753494
54.674423
-7.870883
-53.994450
-92.190834
-130.709808
-169.774323
-202.762009
-223.003326
-229.363144
-226.354874
-219.929916
-213.305328
-206.879807
-200.921173
-196.440689
-193.429459
-189.438156
-180.782227
-165.041885
-142.071960
-113.111237
-79.544380
-42.933979
-6.141207
26.442657
50.407623
63.085468
64.571648
58.628811
52.194859
52.410851
64.551018
91.789970
132.674286
178.578171
217.841202
243.994568
259.019348
268.886108
277.692383
285.939087
291.838684
292.687103
285.854980
270.297882
247.030243
217.538376
183.285477
147.292542
114.877953
93.204178
89.527130
105.171478
127.899727
132.894409
97.310280
18.220736
-82.828636
-174.643433
-238.198517
-274.789215
-296.048187
-311.625763
-325.805084
-339.620911
-352.401733
-361.214172
-359.895111
-339.762665
-292.439941
-215.072311
-115.593323
-11.683490
77.490631
139.334641
170.545425
175.761978
163.533829
142.079010
118.431252
98.567780
85.016457
75.556824
66.375328
55.707836
44.601429
36.175491
33.896072
38.121197
42.927532
38.499569
19.327744
-11.106561
-44.577267
-74.794731
-99.148727
-116.572227
-126.500244
-128.413055
-120.239487
-99.267303
-65.395119
-21.993721
25.869329
73.638176
118.573631
159.498093
195.776505
226.675003
251.262421
268.790924
278.817352
280.401245
271.581146
248.582474
205.735504
141.337357
65.246231
-3.348265
-47.689430
-63.153481
-56.797546
-38.977455
-15.700439
12.022922
44.497868
80.855919
118.150772
151.888794
178.948044
199.323410
213.952484
222.973190
226.572464
224.601105
212.904343
182.008362
125.813744
51.975693
-21.397730
-79.100288
-117.108398
-140.210724
-155.292984
-167.244522
-178.556381
-190.441849
-203.432938
-217.222549
-230.041824
-238.192093
-237.075439
-223.283203
-196.018356
-156.971390
-109.469940
-58.395061
-9.363244
33.788067
68.747322
91.695374
98.939362
91.566757
74.502357
51.303253
21.892809
-14.492387
-55.653946
-96.454208
-130.457977
-151.164047
-154.736465
-143.085739
-120.474686
-84.818954
-27.846712
51.887672
138.758652
207.661804
244.036270
253.390366
250.278610
243.190704
232.277451
216.581619
198.295105
180.859009
166.110764
153.677063
141.848328
128.559265
112.102699
91.578125
67.055000
39.530605
10.771524
-16.971643
-41.739475
-62.940380
-81.110771
-96.159607
-106.761574
-111.787888
-111.764565
-109.199722
-107.791641
-110.824249
-119.681313
-133.527069
-150.226334
-167.551956
-183.776123
-197.475647
-207.282166
-212.350922
-212.902527
-210.228592
-206.882019
-206.203308
-209.833282
-215.441833
-217.869675
-213.072296
-200.545120
-182.223465
-160.988403
-140.292496
-123.125336
-110.728119
-102.996422
-99.944855
-101.937187
-108.599731
-118.306610
-129.116470
-140.049072
-150.939926
-161.365524
-170.644318
-178.669220
-185.658585
-190.977203
-193.703796
-194.605896
-194.224762
-186.695633
-158.996735
-101.928604
-21.955679
61.750790
132.413879
186.025955
227.547394
260.528351
283.854919
296.324982
299.743225
297.647125
292.476288
283.778412
269.513397
249.106522
224.741302
200.135925
178.664459
162.663071
153.614441
151.501114
153.147934
151.419754
137.222168
103.854866
51.345566
-11.321093
-69.243820
-110.493652
-133.273193
-144.190674
-150.665878
-155.355591
-156.267883
-150.938019
-139.747681
-124.998886
-108.258728
-89.404198
-67.702110
-43.818531
-20.870577
-3.164778
6.336715
7.546914
2.573040
-6.556511
-19.273243
-35.378159
-53.424198
-70.916824
-85.752998
-97.137100
-105.412163
-111.132126
-114.234222
-114.109734
-110.282333
-103.173302
-94.633530
-87.496834
-83.759453
-82.575363
-80.227074
-72.556602
-57.420822
-34.775139
-5.165785
30.723751
70.728783
110.655609
146.216736
174.721939
194.884811
207.140778
214.010056
218.147919
220.214844
218.821976
211.502731
195.030746
165.708145
122.292542
68.948990
13.331183
-37.482742
-78.773712
-108.258667
-125.573524
-131.424088
-127.851418
-118.715912
-107.910156
-96.941338
-84.955063
-71.173988
-57.096649
-46.186974
-41.668797
-44.684769
-53.767097
-64.883499
-72.453674
-72.071877
-62.678375
-46.190449
-26.105047
-5.830613
13.364850
32.454281
52.347050
72.371689
91.044075
107.338409
120.728188
130.603561
136.010284
134.960022
123.940193
100.610626
68.754524
38.714638
20.225500
15.512493
20.400171
29.615078
39.973003
50.567608
61.315720
71.290108
77.685783
75.996246
62.222542
36.415722
3.999310
-27.106323
-50.330868
-62.129013
-62.121861
-52.161697
-34.625507
-12.077025
12.180954
35.030762
54.997482
72.179779
86.714012
97.035530
99.717087
91.770477
72.918747
45.337357
11.903523
-24.976755
-62.788036
-97.905441
-126.658905
-147.521973
-161.581635
-171.172821
-178.587326
-185.440720
-192.339752
-199.012619
-204.821808
-209.061478
-210.992767
-210.128098
-206.362045
-199.578186
-189.729263
-176.998657
-160.334778
-135.136612
-94.017845
-33.455223
38.867527
106.112053
154.456467
181.988007
194.951355
199.225861
196.723724
187.162994
171.246170
151.435577
130.690475
111.493820
95.550323
83.911446
77.398666
76.495560
80.354652
86.436104
91.828644
94.669136
94.124611
89.753456
81.364990
69.342972
54.705372
38.582001
21.983454
5.974082
-8.617905
-21.630375
-33.506264
-45.013931
-56.830040
-68.699593
-78.790512
-84.626945
-85.418297
-83.221848
-81.289925
-81.505196
-83.990860
-88.635437
-95.342087
-102.428192
-106.068619
-102.342918
-90.043785
-71.773071
-52.589039
-36.920918
-25.891548
-17.618406
-10.021958
-2.557632
4.413780
10.471161
14.917483
16.661428
15.512729
13.288587
12.616629
15.020751
20.547003
28.478205
38.002289
48.721081
60.845196
74.439339
88.238358
99.794037
107.182755
110.458397
111.369904
111.760895
112.520271
113.826477
115.425423
116.090401
113.518646
105.949982
93.309479
75.209946
48.537304
9.768287
-38.764877
-86.130234
-118.444229
-128.480072
-119.077644
-97.360832
-69.031166
-38.589775
-11.165353
7.560721
13.098595
4.860501
-12.399563
-31.260515
-46.781315
-58.626408
-68.630821
-78.300957
-88.918152
-101.662064
-115.409111
-124.652061
-121.941544
-103.124428
-70.015823
-29.690268
8.631776
38.055927
56.238640
63.771286
62.056984
52.790161
38.018494
20.389303
2.954175
-11.951882
-22.955502
-28.392193
-25.984615
-14.222467
6.339137
32.817593
61.060200
