EVENT_NAME: EMILIA_2ND_SHOCK
EVENT_ID: IT-2012-0011
EVENT_DATE_YYYYMMDD: 20120529
EVENT_TIME_HHMMSS: 070002
EVENT_LATITUDE_DEGREE: 44.8417
EVENT_LONGITUDE_DEGREE: 11.0657
EVENT_DEPTH_KM: 8.1
HYPOCENTER_REFERENCE: INGV-CNT_Seismic_Bulletin
MAGNITUDE_W: 6.0
MAGNITUDE_W_REFERENCE: RCMT-INGV
MAGNITUDE_L: 5.8
MAGNITUDE_L_REFERENCE: INGV-CNT_Seismic_Bulletin
FOCAL_MECHANISM: TF
NETWORK: IV
STATION_CODE: T0805
STATION_NAME: T0805
STATION_LATITUDE_DEGREE: 44.918700
STATION_LONGITUDE_DEGREE: 11.322600
STATION_ELEVATION_M: 5
LOCATION: 
SENSOR_DEPTH_M: 1.0
VS30_M/S: 
SITE_CLASSIFICATION_EC8: C*
MORPHOLOGIC_CLASSIFICATION: 
EPICENTRAL_DISTANCE_KM: 22.0
EARTHQUAKE_BACKAZIMUTH_DEGREE: 247.2
DATE_TIME_FIRST_SAMPLE_YYYYMMDD_HHMMSS: 20120529_065953.000
DATE_TIME_FIRST_SAMPLE_PRECISION: milliseconds
SAMPLING_INTERVAL_S: 0.005000
NDATA: 30001
DURATION_S: 150.005
STREAM: HNN
UNITS: cm/s^2
INSTRUMENT: sensor = Episensor FBA ES-T [Kinemetrics] | digitizer = Unknown [Unknown]
INSTRUMENT_ANALOG/DIGITAL: D
INSTRUMENTAL_FREQUENCY_HZ: 
INSTRUMENTAL_DAMPING: 
FULL_SCALE_G: 
N_BIT_DIGITAL_CONVERTER: 
PGA_CM/S^2: 164.073711
TIME_PGA_S: 23.410000
BASELINE_CORRECTION: BASELINE REMOVED
FILTER_TYPE: BUTTERWORTH
FILTER_ORDER: 2
LOW_CUT_FREQUENCY_HZ: 0.060
HIGH_CUT_FREQUENCY_HZ: 40.000
LATE/NORMAL_TRIGGERED: NT
DATABASE_VERSION: DYNA 1.0
HEADER_FORMAT: DYNA 1.2
DATA_TYPE: ACCELERATION
PROCESSING: manual (Paolucci et al., 2011)
DATA_TIMESTAMP_YYYYMMDD_HHMMSS: 
DATA_LICENSE: CC-BY4_0 (http://creativecommons.org/licenses/by/4.0/)
DATA_CITATION: ESM working group (2015), European Strong-Motion database, version 0.1, Network Activity 3: Networking acceleration networks and SM data users. Project NERA (www.nera-eu.org)
DATA_CREATOR: ESM working group
ORIGINAL_DATA_MEDIATOR_CITATION: Orfeus - European Integrated Data Archive (EIDA) http://www.orfeus-eu.org/eida/
ORIGINAL_DATA_MEDIATOR: Orfeus - European Integrated Data Archive (EIDA)
ORIGINAL_DATA_CREATOR_CITATION: Data for this study comes from the Italian national seismic network operated by Istituto Nazionale di Geofisica e Vulcanologia and archived at the European Integrated Data Archive http://eida.rm.ingv.it/
ORIGINAL_DATA_CREATOR: network: IV (Italian National Seismic Network); owner: Istituto Nazionale di Geofisica e Vulcanologia
USER1: 
USER2: 
USER3: 
USER4: 
USER5: 
[...]
-1.165080
-1.373665
-1.393725
-1.322940
-1.284131
-1.410654
-1.793233
-2.313147
-2.623874
-2.458098
-1.840952
-0.949900
-0.028000
0.592758
0.726997
0.549444
0.382644
0.450770
0.885019
1.631956
2.307858
2.457898
1.988728
1.169476
0.347885
-0.153918
-0.113371
0.348625
0.765880
0.755125
0.283067
-0.499164
-1.372460
-2.033439
-2.280281
-2.174732
-1.891855
-1.562774
-1.283189
-1.085964
-0.890828
-0.587054
-0.173226
0.230447
0.487945
0.501296
0.218412
-0.284632
-0.784252
-1.061740
-0.996732
-0.553179
0.140548
0.775488
1.103183
1.102407
0.882470
0.638497
0.654010
1.045656
1.542389
1.729467
1.370766
0.404302
-1.020840
-2.408009
-3.184207
-3.115506
-2.277309
-0.930404
0.425358
1.278198
1.481971
1.211800
0.702449
0.169471
-0.237681
-0.553566
-0.961926
-1.534900
-2.057585
-2.214510
-1.859558
-1.021181
0.125887
1.198523
1.809654
1.938659
1.908438
1.989535
2.184293
2.358979
2.381965
2.134016
1.600420
0.969095
0.453355
-0.009001
-0.734143
-1.839153
-2.918966
-3.389091
-2.988938
-1.793424
-0.146717
1.231500
1.598200
0.829703
-0.590020
-2.046446
-2.962537
-2.900445
-1.890892
-0.432189
0.890207
1.559136
1.226072
0.097248
-1.054868
-1.573395
-1.337938
-0.533266
0.475467
1.136021
1.139508
0.774920
0.547258
0.662314
1.028445
1.453255
1.689416
1.530895
1.037284
0.533050
0.288382
0.325213
0.518999
0.639153
0.342266
-0.523741
-1.655248
-2.572740
-2.951740
-2.592262
-1.519039
-0.173063
0.906843
1.564301
2.000739
2.477731
3.205605
4.283032
5.432074
5.954391
5.321543
3.606028
1.207124
-1.249201
-2.833581
-3.000643
-2.190885
-1.247315
-0.748271
-1.040646
-2.085331
-3.159364
-3.384783
-2.584930
-1.274374
-0.054313
0.645331
0.590974
-0.025687
-0.602196
-0.690208
-0.360320
0.077286
0.366362
0.295867
-0.213379
-0.982558
-1.724698
-2.170656
-2.021597
-1.127145
0.309384
1.905806
3.182229
3.504697
2.614144
1.128759
-0.022708
-0.338518
0.289371
1.611858
2.835565
3.096611
2.292229
1.072883
0.152457
-0.010396
0.782274
2.157128
3.125063
2.865223
1.257097
-1.380080
-4.231647
-5.897074
-5.494813
-3.562336
-1.232599
0.672800
1.588843
1.447111
1.084777
1.517389
2.697700
3.495237
2.958647
1.075676
-1.647796
-4.391226
-5.928518
-5.477447
-3.433962
-0.694606
2.015405
4.039056
4.993995
5.088167
4.793541
4.530876
4.675561
5.225794
5.441811
4.401544
1.966222
-1.153388
-3.978529
-5.460897
-4.796603
-2.332844
0.400586
2.061476
2.313207
1.401867
-0.064887
-1.111285
-1.107952
-0.333346
0.547952
1.072478
0.959093
0.203446
-0.710791
-1.150330
-0.797826
0.373350
2.129825
3.841692
4.819280
4.864210
4.230861
3.287929
2.427726
1.958373
1.858938
1.822929
1.645559
1.451558
1.488591
1.828433
2.355690
2.924985
3.424981
3.756902
3.759048
3.162483
1.811669
-0.124704
-2.271402
-3.980170
-4.270835
-2.764475
-0.511475
0.961797
0.973772
-0.349768
-2.425768
-4.131800
-4.368900
-3.143195
-1.540464
-0.574326
-0.574580
-1.485553
-3.048793
-4.775286
-6.095324
-6.421820
-5.278165
-2.738776
0.511788
3.591392
5.568057
5.749639
4.516709
3.320570
3.246889
4.090445
5.028619
5.326459
4.355637
2.085949
-0.353674
-1.563639
-1.274625
-0.291879
0.622339
1.299272
1.881427
2.489993
3.158230
3.812189
4.241965
4.273956
4.108492
4.252741
4.701977
4.312429
1.709486
-3.005706
-8.118129
-11.818067
-13.010181
-11.243777
-7.290429
-3.168321
-0.421303
1.015641
1.955733
3.017708
4.609930
6.861706
9.431085
11.755765
13.190601
12.891477
10.399821
6.233944
1.346164
-3.270678
-6.407070
-7.352119
-6.623058
-5.202301
-3.640635
-2.129362
-0.718048
0.677302
2.138050
3.448936
4.063668
3.645586
2.476562
1.041812
-0.527579
-2.418013
-4.684868
-6.966980
-8.709266
-9.385078
-8.482418
-6.067147
-3.381539
-1.884944
-1.639693
-1.345540
0.053218
2.430164
5.013400
6.749986
6.269128
3.070486
-1.371139
-4.936224
-6.634860
-6.467015
-4.847198
-2.623368
-0.696527
0.484282
0.795996
0.323331
-0.530838
-1.287828
-1.705706
-1.704120
-1.237417
-0.288205
1.178498
3.267291
6.107750
9.525069
12.731516
14.778982
15.234991
14.127432
11.805124
9.080296
6.755547
4.744527
2.075783
-2.081022
-7.786512
-14.581732
-21.252869
-25.656425
-26.414610
-24.308598
-21.014765
-17.733105
-15.287461
-13.873060
-12.560470
-10.149587
-6.577040
-2.936932
-0.227370
1.350905
2.018993
2.085535
1.911114
1.674175
1.186050
0.207750
-0.899991
-1.108349
0.238050
2.651718
5.151395
6.959688
7.449844
6.529034
5.150233
4.568647
5.274478
7.047974
9.397260
11.605853
12.979931
13.243139
12.431926
10.669650
8.165398
5.143251
1.855264
-1.314105
-3.991409
-5.947003
-7.090639
-7.647624
-8.187426
-9.166056
-10.615435
-12.263677
-13.387275
-12.729254
-9.576549
-4.672898
0.575742
4.770702
6.365860
4.799001
1.685237
-0.639591
-1.087773
0.260807
2.627380
4.368482
3.818549
0.885589
-2.950959
-6.092822
-7.504614
-6.628778
-3.717621
0.144220
3.707598
5.834009
5.654612
3.177545
-0.701289
-4.795208
-7.791293
-8.596430
-7.164950
-4.401370
-1.154772
2.258568
5.857494
9.797201
14.246157
19.030252
23.329058
26.108114
26.627541
24.278648
18.822971
10.852251
1.347905
-8.343520
-16.149456
-20.443354
-21.090302
-18.700830
-14.148781
-8.685567
-3.344441
1.511269
5.804582
9.079852
10.275880
8.527398
3.830613
-3.297722
-11.570677
-18.589952
-22.246429
-21.800135
-17.392048
-10.229953
-2.722926
3.257220
7.602019
11.029167
13.969678
16.414181
17.963066
17.753426
14.958882
9.934847
4.287758
-0.646821
-4.732153
-8.393847
-11.813276
-14.811856
-17.085234
-18.325155
-18.303965
-17.144371
-15.301027
-13.058335
-10.228658
-6.513227
-2.235451
1.569878
4.174409
5.880470
7.486274
9.763774
13.466388
18.664274
24.038076
27.834103
29.175049
27.938572
24.517349
20.071510
15.924628
12.743475
10.634143
9.156635
7.014023
2.763999
-3.880997
-11.987072
-20.083464
-26.280998
-28.885124
-27.720646
-24.003817
-18.969200
-13.290069
-7.276863
-1.194626
4.518750
9.435961
13.345977
16.218124
18.307259
20.103172
21.702177
22.336861
20.986275
17.424503
12.278957
6.481297
1.138177
-2.807168
-5.278694
-6.961385
-8.448650
-9.818083
-10.863802
-11.360886
-11.145806
-10.408832
-9.995008
-10.865724
-13.155144
-16.154354
-19.004128
-20.979891
-21.553331
-20.629650
-18.443520
-15.208726
-11.008913
-5.889545
-0.169522
5.439099
10.338415
14.416568
17.753494
20.161312
21.074944
20.031660
17.061958
12.471915
6.905884
1.493313
-2.847263
-5.938201
-7.920502
-8.754501
-8.213096
-6.428099
-4.370508
-3.221932
-3.398333
-4.567845
-6.024753
-6.685399
-5.540533
-2.590135
1.196171
4.913591
8.252267
11.173217
13.372654
14.102964
12.729874
9.191205
3.733773
-3.059146
-10.081493
-16.168255
-20.396332
-22.055611
-20.806801
-16.637672
-10.126570
-2.941959
3.073308
7.349707
10.488139
13.442262
17.324862
23.013838
30.069086
36.630981
40.935940
42.228325
40.366112
35.766449
29.419132
22.322062
15.219900
8.613742
2.687397
-2.572253
-7.281261
-11.716403
-16.084391
-19.954885
-22.192984
-22.034468
-19.903006
-16.745945
-13.413373
-10.727768
-8.951446
-7.202655
-4.328116
-0.420649
3.085299
4.835407
4.390174
1.922457
-1.613321
-4.364919
-4.948056
-3.461827
-0.698121
2.580584
5.552088
7.581427
8.502958
8.341237
6.958257
3.998375
-0.684595
-6.640467
-13.112887
-19.028673
-22.751810
-23.151108
-20.571402
-15.980826
-10.139087
-3.699353
2.890894
9.574042
16.433712
23.230671
29.285318
34.016502
37.338081
39.325901
39.716427
37.834663
33.327415
26.788393
19.133900
10.920792
2.480071
-5.932022
-14.143886
-21.920265
-28.465246
-32.255375
-32.359871
-29.555243
-25.318680
-20.893438
-17.538935
-16.153419
-16.752302
-18.905172
-21.957745
-24.901466
-26.851089
-27.434111
-26.684734
-25.324400
-24.791142
-25.900330
-27.817074
-28.981331
-28.064680
-23.841131
-15.981410
-6.037421
3.824789
12.292915
18.574871
22.143414
22.954863
21.193733
17.289598
12.086811
6.582863
1.815174
-1.340496
-2.616090
-2.239528
-0.627337
1.596562
3.775854
5.339163
5.641233
4.336163
1.812549
-1.338113
-5.115668
-10.123257
-16.803213
-24.928522
-33.921879
-42.876011
-50.311035
-54.957333
-56.424614
-54.765896
-50.273869
-43.584854
-35.686680
-28.082100
-22.209599
-18.374514
-15.857786
-13.784786
-11.431883
-8.365193
-4.966320
-2.420832
-1.562594
-2.076411
-3.077734
-3.536171
-2.175873
1.583639
6.709633
11.551842
14.992983
16.323254
15.523734
13.855496
12.917527
13.270122
14.498682
15.872142
16.487911
15.592506
13.393469
11.112767
9.986286
10.714682
13.534942
17.752060
21.615168
23.559290
23.019115
20.005119
14.976154
8.914175
2.922754
-1.949068
-4.826515
-5.358341
-3.634826
-0.178085
3.776212
6.880243
8.543714
8.768292
7.781203
6.061836
4.125988
2.296070
0.820544
-0.095637
-0.353265
0.120315
1.441603
3.715334
6.638967
9.114936
9.865252
8.425970
5.112003
0.656442
-3.726719
-6.872201
-8.580979
-9.455495
-9.877956
-9.480231
-7.625548
-4.214830
0.239343
5.078784
9.677401
13.526059
16.339388
17.873095
17.802996
15.745462
11.371190
4.905187
-2.713202
-10.277204
-16.472513
-20.137836
-20.795303
-18.475103
-13.487453
-6.586307
1.378837
9.632990
17.114395
22.604082
24.923613
23.158613
17.508490
9.311595
-0.053319
-9.667765
-18.922438
-27.130878
-33.149376
-35.876118
-34.763584
-29.612816
-20.793917
-9.390028
3.231656
15.509744
25.921053
33.118202
35.586697
32.749355
26.253004
18.408989
10.151459
1.216221
-8.825337
-20.170418
-32.715111
-45.305206
-55.404003
-60.804020
-60.907593
-55.962753
-46.774555
-34.905254
-22.212828
-10.710079
-2.155444
2.838849
4.662160
4.404757
4.156287
6.121988
11.260666
19.515903
30.268654
42.136486
53.556011
63.269558
69.855019
72.020523
69.145012
61.089432
48.704159
33.998882
18.732775
3.548542
-11.586819
-26.938715
-42.808132
-59.068798
-74.803017
-88.798981
-99.933037
-106.769173
-107.925323
-102.621300
-90.548012
-72.768562
-52.160648
-31.969318
-15.080586
-3.685012
1.906223
3.058025
1.602234
-0.390474
-1.140018
-0.119952
2.232419
5.393163
9.016087
12.893862
16.884142
20.791149
24.360926
27.309837
29.377708
30.401400
30.215878
28.586725
25.229206
19.800554
11.893143
0.997568
-12.945686
-28.945189
-45.474674
-60.364483
-70.249901
-72.680229
-68.047295
-57.950333
-43.725555
-26.709169
-8.282555
10.148725
27.291744
41.944782
52.588730
58.250984
59.500134
57.395264
52.225441
43.627628
31.691063
17.765030
3.506722
-10.269295
-23.229418
-34.725433
-43.433979
-47.760075
-46.383842
-38.148891
-23.294992
-4.976574
12.906804
28.535540
41.638561
52.171715
60.059666
65.086334
66.716415
64.107597
57.156654
47.505135
37.419613
28.785831
23.571753
23.049486
26.745291
33.395573
41.615208
49.646263
56.223927
61.388943
65.762108
69.655792
72.973068
75.350761
76.168121
74.724327
70.499466
63.070610
52.454540
39.619377
25.822763
11.993815
-0.970340
-12.291738
-21.579449
-28.571348
-32.713341
-33.000038
-28.857918
-20.984814
-10.515764
1.735791
14.981919
28.226877
40.174660
49.482925
54.940037
55.088936
48.991779
37.194065
20.763342
0.514699
-22.636026
-47.283562
-71.209358
-92.050529
-107.924065
-116.791367
-117.173500
-109.288818
-94.050735
-72.562859
-46.515045
-17.962231
10.687836
37.115814
59.343849
75.040115
82.606087
82.590881
76.515526
66.301216
54.725155
44.143169
35.450802
28.786415
24.372587
22.761688
24.268217
28.396051
34.393047
41.809593
50.309128
59.327465
67.852829
74.682999
78.469513
77.395531
70.428459
58.627590
43.786762
26.931879
8.513653
-11.213503
-32.144016
-54.129921
-76.072128
-95.381203
-109.242172
-115.523499
-112.807243
-101.573334
-84.324280
-63.965881
-43.243668
-24.398991
-8.672301
3.105954
10.469473
13.831744
14.005152
12.051246
9.496058
7.367793
5.388216
2.667304
-1.463879
-7.407000
-14.963827
-22.838835
-29.388489
-33.574974
-34.856258
-33.582348
-31.735563
-31.672911
-34.241726
-38.943043
-44.908638
-51.118546
-56.770336
-61.994125
-67.634186
-73.778023
-78.738297
-80.197144
-76.741821
-67.694557
-53.357956
-35.841629
-17.719711
-0.456692
15.174086
28.756905
40.471931
50.728031
59.748016
67.525414
73.779968
77.870384
79.049362
77.020638
72.002785
64.795021
57.127602
50.825958
46.549171
44.028999
42.905521
42.967209
44.080372
45.820885
47.192272
46.943535
43.765335
36.648502
26.123755
14.438598
3.936352
-3.810198
-7.887663
-8.445105
-6.606572
-3.612585
-0.509536
2.001564
4.052497
6.494740
9.916206
14.036702
18.249666
22.346874
26.539909
31.113514
36.260132
41.867241
46.616268
47.798431
43.812386
36.160091
27.533953
19.598372
13.216230
8.642090
5.188720
1.971741
-1.003980
-2.991209
-3.960455
-5.628874
-10.211639
-18.494123
-29.914536
-43.478409
-57.910709
-72.095261
-85.716446
-98.932762
-111.409798
-121.764442
-128.165222
-128.833542
-121.617928
-105.201164
-80.561462
-49.634090
-14.635482
21.299770
55.306492
85.819153
112.047417
133.467072
149.427582
159.495789
164.073715
163.824554
159.210358
150.572006
138.075974
121.710556
101.367165
77.361420
50.653503
22.381174
-6.326332
-34.436375
-60.710789
-83.112648
-99.551308
-108.650459
-109.582825
-102.742210
-89.876190
-73.135506
-54.868153
-37.205978
-21.795916
-10.438706
-4.393262
-3.367353
-6.365108
-12.191064
-19.172832
-25.821297
-31.365866
-35.507069
-38.284184
-39.945103
-40.686501
-40.571671
-39.479122
-36.814671
-31.449512
-22.782120
-11.639484
0.593348
12.722250
23.402824
31.396378
35.966396
36.665855
33.377743
26.345152
16.388649
5.366110
-4.740349
-13.178868
-20.201632
-26.317881
-32.167332
-38.323742
-44.872536
-51.367943
-57.012024
-60.621815
-60.887234
-56.674274
-46.836891
-31.207520
-11.799989
8.590090
27.525026
42.192169
50.226181
50.830681
44.095875
31.109802
14.230565
-4.041712
-21.624929
-37.057167
-50.174561
-61.818398
-72.679787
-82.801712
-91.923340
-99.824890
-106.172310
-110.125999
-110.052788
-104.080620
-91.096405
-70.671806
-43.613522
-13.060312
17.326111
45.596283
70.907967
92.819885
111.486359
127.214386
139.828491
148.511765
152.313843
150.563477
142.661560
128.049988
106.205055
77.522141
44.411621
9.913967
-23.441072
-52.873932
-76.255745
-93.356743
-104.787155
-111.036781
-112.455147
-109.396294
-102.441025
-92.118782
-78.799591
-62.968201
-45.450275
-27.646286
-11.067642
3.153108
14.011852
21.288248
26.452276
31.538748
37.822155
46.039196
56.287579
67.530556
78.277214
87.040985
91.878586
91.094307
84.075554
70.856346
52.416286
30.918447
8.474288
-13.560889
-34.407822
-53.676971
-70.973648
-85.700226
-97.099487
-104.435471
-107.459427
-106.307411
-101.168839
-92.321426
-79.975243
-64.337517
-45.830059
-25.246866
-3.995795
16.411528
34.859585
50.277691
62.005630
70.431221
76.331177
80.151115
81.990921
81.592178
78.245003
71.150810
60.305817
46.607964
31.247677
15.558232
0.684432
-12.947612
-25.380732
-36.635750
-46.590412
-55.026157
-61.667698
-66.141312
-68.264900
-68.381783
-66.967529
-64.129150
-59.602482
-53.077682
-44.407799
-33.594662
-21.178539
-8.416644
3.501892
13.972679
22.778364
30.065308
36.293198
41.905514
47.198952
52.314274
57.058327
60.835842
62.959713
62.847694
60.008183
54.163544
45.184643
33.235111
19.104052
3.776239
-11.829639
-26.581936
-39.608597
-50.818691
-60.448269
-68.480125
-74.536362
-78.215378
-79.364105
-77.950935
-74.145943
-68.412926
-61.397606
-53.966930
-46.953217
-40.815418
-35.786400
-31.866356
-28.624567
-25.518541
-22.280975
-18.801128
-14.853075
-9.966198
-3.627981
4.283545
13.451810
23.242855
32.615891
40.469482
46.067257
48.818096
48.446377
45.407745
40.384460
33.826900
26.141479
17.919508
10.081465
3.637020
-0.468299
-1.089542
2.460468
9.640916
19.467760
31.187359
43.979362
56.712479
67.801888
75.690750
79.674431
79.665474
75.875465
69.008057
59.834084
48.866264
36.647457
24.001793
12.194334
2.443012
-4.994974
-10.722609
-15.442956
-19.707691
-23.875351
-27.908358
-31.353140
-33.551216
-33.701332
-31.095797
-25.836590
-18.910917
-11.504301
-4.741032
0.514887
4.208145
7.014913
9.689545
12.813838
16.751060
21.284327
25.521137
28.356268
28.692167
25.702791
19.782377
12.614792
5.781888
-0.010237
-4.620165
-8.361354
-11.962203
-16.087847
-21.070559
-26.987411
-33.401379
-39.188148
-43.046532
-43.806919
-40.608479
-33.702785
-24.472591
-14.280199
-3.910926
6.227717
15.805054
24.326019
31.342148
36.717297
40.513622
43.054455
44.945343
46.563248
47.699795
47.904221
46.974998
44.965984
42.024731
38.387989
34.300484
30.021702
25.944078
22.476086
19.926388
18.484669
18.020662
18.068642
18.193375
18.192398
18.005857
17.598967
16.872784
15.609957
13.441388
9.954993
4.879184
-1.946120
-10.401114
-19.808437
-29.316854
-38.234142
-45.810429
-51.441555
-54.986561
-56.503834
-56.035378
-53.608150
-49.386780
-43.869251
-37.639896
-31.226641
-25.303303
-20.518377
-17.285578
-15.869455
-16.360882
-18.689480
-22.535892
-27.117506
-31.534121
-35.110603
-37.216076
-37.520374
-36.390266
-34.442097
-32.045235
-29.391209
-26.587742
-23.642723
-20.520819
-17.246737
-13.933282
-10.711640
-7.694500
-4.967571
-2.529987
-0.272388
2.018512
4.696843
8.133761
12.503400
17.809349
23.893492
30.329214
36.605507
42.263824
46.767143
49.750298
51.326057
51.797325
51.379986
50.232151
48.467834
46.152225
43.296368
39.841232
35.663189
30.695370
25.038101
18.876787
12.544970
6.645718
1.773272
-1.708173
-3.572649
-3.730259
-2.214350
0.707520
4.318563
7.811505
10.738510
12.889797
14.237087
15.062531
15.718680
16.275009
16.536886
16.339710
15.718006
14.802694
13.738822
12.686228
11.675568
10.472372
8.727529
6.149195
2.483168
-2.252098
-7.478700
-12.430483
-16.541279
-19.303879
-20.411556
-20.031700
-18.510452
-16.113123
-13.097548
-9.742664
-6.352569
-3.179352
-0.289111
2.371822
4.779774
6.735078
7.948235
8.074966
6.624935
3.234390
-2.040477
-8.993480
-17.488302
-27.387953
-38.371876
-49.754547
-60.770107
-70.839798
-79.364487
-85.839569
-90.105515
-92.132660
-91.817276
-88.945320
-83.466072
-75.801437
-66.491478
-55.900009
-44.393112
-32.515396
-21.106100
-11.013507
-2.635872
3.981927
9.070237
13.313613
17.485933
21.972574
26.859482
32.033340
37.095325
41.539333
44.913647
46.719067
46.696087
45.180183
42.687347
39.396355
35.180828
29.926792
23.714054
16.688316
8.998977
0.889304
-7.247544
-14.805811
-21.117910
-25.563946
-27.401260
-26.193462
-22.330462
-16.523706
-9.454440
-1.984536
5.026422
