EVENT_NAME: EMILIA_2ND_SHOCK
EVENT_ID: IT-2012-0011
EVENT_DATE_YYYYMMDD: 20120529
EVENT_TIME_HHMMSS: 070002
EVENT_LATITUDE_DEGREE: 44.8417
EVENT_LONGITUDE_DEGREE: 11.0657
EVENT_DEPTH_KM: 8.1
HYPOCENTER_REFERENCE: INGV-CNT_Seismic_Bulletin
MAGNITUDE_W: 6.0
MAGNITUDE_W_REFERENCE: RCMT-INGV
MAGNITUDE_L: 5.8
MAGNITUDE_L_REFERENCE: INGV-CNT_Seismic_Bulletin
FOCAL_MECHANISM: TF
NETWORK: IV
STATION_CODE: T0814
STATION_NAME: T0814
STATION_LATITUDE_DEGREE: 44.793300
STATION_LONGITUDE_DEGREE: 10.969200
STATION_ELEVATION_M: 16
LOCATION: 
SENSOR_DEPTH_M: 1.0
VS30_M/S: 
SITE_CLASSIFICATION_EC8: C*
MORPHOLOGIC_CLASSIFICATION: 
EPICENTRAL_DISTANCE_KM: 9.3
EARTHQUAKE_BACKAZIMUTH_DEGREE: 54.8
DATE_TIME_FIRST_SAMPLE_YYYYMMDD_HHMMSS: 20120529_065942.000
DATE_TIME_FIRST_SAMPLE_PRECISION: milliseconds
SAMPLING_INTERVAL_S: 0.005000
NDATA: 20001
DURATION_S: 100.005
STREAM: HNE
UNITS: cm
INSTRUMENT: sensor = Episensor FBA ES-T [Kinemetrics] | digitizer = Unknown [Unknown]
INSTRUMENT_ANALOG/DIGITAL: D
INSTRUMENTAL_FREQUENCY_HZ: 
INSTRUMENTAL_DAMPING: 
FULL_SCALE_G: 
N_BIT_DIGITAL_CONVERTER: 
PGD_CM: 4.633760
TIME_PGD_S: 29.865000
BASELINE_CORRECTION: BASELINE REMOVED
FILTER_TYPE: BUTTERWORTH
FILTER_ORDER: 2
LOW_CUT_FREQUENCY_HZ: 0.060
HIGH_CUT_FREQUENCY_HZ: 40.000
LATE/NORMAL_TRIGGERED: NT
DATABASE_VERSION: DYNA 1.0
HEADER_FORMAT: DYNA 1.2
DATA_TYPE: DISPLACEMENT
PROCESSING: manual (Paolucci et al., 2011)
DATA_TIMESTAMP_YYYYMMDD_HHMMSS: 
DATA_LICENSE: CC-BY4_0 (http://creativecommons.org/licenses/by/4.0/)
DATA_CITATION: ESM working group (2015), European Strong-Motion database, version 0.1, Network Activity 3: Networking acceleration networks and SM data users. Project NERA (www.nera-eu.org)
DATA_CREATOR: ESM working group
ORIGINAL_DATA_MEDIATOR_CITATION: Orfeus - European Integrated Data Archive (EIDA) http://www.orfeus-eu.org/eida/
ORIGINAL_DATA_MEDIATOR: Orfeus - European Integrated Data Archive (EIDA)
ORIGINAL_DATA_CREATOR_CITATION: Data for this study comes from the Italian national seismic network operated by Istituto Nazionale di Geofisica e Vulcanologia and archived at the European Integrated Data Archive http://eida.rm.ingv.it/
ORIGINAL_DATA_CREATOR: network: IV (Italian National Seismic Network); owner: Istituto Nazionale di Geofisica e Vulcanologia
USER1: 
USER2: 
USER3: 
USER4: 
USER5: 
[...]
-9.142721e-01
-9.141794e-01
-9.141516e-01
-9.143100e-01
-9.146621e-01
-9.151311e-01
-9.156349e-01
-9.161382e-01
-9.166396e-01
-9.171285e-01
-9.175711e-01
-9.179407e-01
-9.182477e-01
-9.185362e-01
-9.188590e-01
-9.192608e-01
-9.197731e-01
-9.204023e-01
-9.211121e-01
-9.218224e-01
-9.224272e-01
-9.228225e-01
-9.229333e-01
-9.227399e-01
-9.222979e-01
-9.217394e-01
-9.212404e-01
-9.209540e-01
-9.209411e-01
-9.211489e-01
-9.214477e-01
-9.216978e-01
-9.217998e-01
-9.217186e-01
-9.214860e-01
-9.211864e-01
-9.209212e-01
-9.207596e-01
-9.207045e-01
-9.206926e-01
-9.206187e-01
-9.203659e-01
-9.198350e-01
-9.189815e-01
-9.178390e-01
-9.164999e-01
-9.150597e-01
-9.135789e-01
-9.120942e-01
-9.106551e-01
-9.093376e-01
-9.082245e-01
-9.073783e-01
-9.068216e-01
-9.065080e-01
-9.062902e-01
-9.059398e-01
-9.052548e-01
-9.041836e-01
-9.028587e-01
-9.015230e-01
-9.004127e-01
-8.996605e-01
-8.992420e-01
-8.989735e-01
-8.985734e-01
-8.977735e-01
-8.964318e-01
-8.945984e-01
-8.925092e-01
-8.905110e-01
-8.889359e-01
-8.879707e-01
-8.875871e-01
-8.875800e-01
-8.876836e-01
-8.876694e-01
-8.873820e-01
-8.867469e-01
-8.857724e-01
-8.845300e-01
-8.831057e-01
-8.815722e-01
-8.800095e-01
-8.785308e-01
-8.772498e-01
-8.762001e-01
-8.752933e-01
-8.743682e-01
-8.732826e-01
-8.719725e-01
-8.704656e-01
-8.688837e-01
-8.674310e-01
-8.663350e-01
-8.657431e-01
-8.656361e-01
-8.658135e-01
-8.659650e-01
-8.657843e-01
-8.650538e-01
-8.636790e-01
-8.617080e-01
-8.593435e-01
-8.569021e-01
-8.546990e-01
-8.529236e-01
-8.515816e-01
-8.505106e-01
-8.494494e-01
-8.481583e-01
-8.465489e-01
-8.447427e-01
-8.430095e-01
-8.416235e-01
-8.407309e-01
-8.402912e-01
-8.401033e-01
-8.398862e-01
-8.393709e-01
-8.383754e-01
-8.368507e-01
-8.348801e-01
-8.326273e-01
-8.302679e-01
-8.279519e-01
-8.258016e-01
-8.239070e-01
-8.222939e-01
-8.209011e-01
-8.196134e-01
-8.183361e-01
-8.170383e-01
-8.157301e-01
-8.144206e-01
-8.131092e-01
-8.118149e-01
-8.106097e-01
-8.096101e-01
-8.088987e-01
-8.084147e-01
-8.079124e-01
-8.070534e-01
-8.055729e-01
-8.033969e-01
-8.006580e-01
-7.976315e-01
-7.946331e-01
-7.919102e-01
-7.895656e-01
-7.875537e-01
-7.857501e-01
-7.840500e-01
-7.824443e-01
-7.810328e-01
-7.799585e-01
-7.792879e-01
-7.789182e-01
-7.785931e-01
-7.780108e-01
-7.769309e-01
-7.752121e-01
-7.728141e-01
-7.698186e-01
-7.664484e-01
-7.630131e-01
-7.597812e-01
-7.568728e-01
-7.542435e-01
-7.517344e-01
-7.491417e-01
-7.463008e-01
-7.431702e-01
-7.398633e-01
-7.365845e-01
-7.335137e-01
-7.307260e-01
-7.281916e-01
-7.258267e-01
-7.235302e-01
-7.211791e-01
-7.186187e-01
-7.156854e-01
-7.122577e-01
-7.082923e-01
-7.038267e-01
-6.989684e-01
-6.938934e-01
-6.888515e-01
-6.841401e-01
-6.800243e-01
-6.766391e-01
-6.739323e-01
-6.716700e-01
-6.695020e-01
-6.670787e-01
-6.641780e-01
-6.607747e-01
-6.570185e-01
-6.531562e-01
-6.494371e-01
-6.460160e-01
-6.428806e-01
-6.398546e-01
-6.366903e-01
-6.331813e-01
-6.292025e-01
-6.246826e-01
-6.195886e-01
-6.139613e-01
-6.079426e-01
-6.017423e-01
-5.955837e-01
-5.896780e-01
-5.842091e-01
-5.793138e-01
-5.750651e-01
-5.714534e-01
-5.683474e-01
-5.654621e-01
-5.624054e-01
-5.588144e-01
-5.544912e-01
-5.494435e-01
-5.438362e-01
-5.379278e-01
-5.320176e-01
-5.263675e-01
-5.211032e-01
-5.161606e-01
-5.113244e-01
-5.063510e-01
-5.011178e-01
-4.957226e-01
-4.904501e-01
-4.856110e-01
-4.813839e-01
-4.777798e-01
-4.747065e-01
-4.720124e-01
-4.694574e-01
-4.666932e-01
-4.633532e-01
-4.592283e-01
-4.543844e-01
-4.491152e-01
-4.437821e-01
-4.386590e-01
-4.338431e-01
-4.292293e-01
-4.245744e-01
-4.196616e-01
-4.144575e-01
-4.091225e-01
-4.038657e-01
-3.987872e-01
-3.938281e-01
-3.888284e-01
-3.836204e-01
-3.781027e-01
-3.722661e-01
-3.661682e-01
-3.598976e-01
-3.535732e-01
-3.473673e-01
-3.414842e-01
-3.360870e-01
-3.312357e-01
-3.268772e-01
-3.228583e-01
-3.189242e-01
-3.147414e-01
-3.100115e-01
-3.046443e-01
-2.988379e-01
-2.929661e-01
-2.873634e-01
-2.821923e-01
-2.774687e-01
-2.731508e-01
-2.691576e-01
-2.653071e-01
-2.613100e-01
-2.569033e-01
-2.520105e-01
-2.467713e-01
-2.414369e-01
-2.362473e-01
-2.313619e-01
-2.268253e-01
-2.225665e-01
-2.184371e-01
-2.142608e-01
-2.098712e-01
-2.051586e-01
-2.001191e-01
-1.948413e-01
-1.894085e-01
-1.838004e-01
-1.779052e-01
-1.716372e-01
-1.650423e-01
-1.582878e-01
-1.515391e-01
-1.448366e-01
-1.380894e-01
-1.311712e-01
-1.239958e-01
-1.165064e-01
-1.086577e-01
-1.004913e-01
-9.224305e-02
-8.432131e-02
-7.711311e-02
-7.077048e-02
-6.514662e-02
-5.989020e-02
-5.458761e-02
-4.886451e-02
-4.244220e-02
-3.519972e-02
-2.724916e-02
-1.893056e-02
-1.065636e-02
-2.698148e-03
4.932534e-03
1.246138e-02
2.023326e-02
2.854570e-02
3.748248e-02
4.685245e-02
5.629556e-02
6.546211e-02
7.413430e-02
8.227256e-02
9.003262e-02
9.774171e-02
1.057846e-01
1.144384e-01
1.237693e-01
1.336498e-01
1.438524e-01
1.541474e-01
1.643757e-01
1.745005e-01
1.846230e-01
1.949320e-01
2.056055e-01
2.167336e-01
2.283014e-01
2.402039e-01
2.522617e-01
2.642521e-01
2.759654e-01
2.872580e-01
2.980664e-01
3.083896e-01
3.182716e-01
3.278020e-01
3.371301e-01
3.464644e-01
3.560342e-01
3.660272e-01
3.765452e-01
3.876111e-01
3.992127e-01
4.113301e-01
4.239080e-01
4.368052e-01
4.497916e-01
4.626235e-01
4.751305e-01
4.872207e-01
4.988058e-01
5.097496e-01
5.199093e-01
5.292185e-01
5.377224e-01
5.455498e-01
5.528655e-01
5.598334e-01
5.665865e-01
5.732128e-01
5.797745e-01
5.863562e-01
5.931053e-01
6.002322e-01
6.079673e-01
6.164916e-01
6.258712e-01
6.360337e-01
6.468133e-01
6.580386e-01
6.695925e-01
6.813872e-01
6.932902e-01
7.050993e-01
7.166136e-01
7.277408e-01
7.385307e-01
7.490927e-01
7.594768e-01
7.696361e-01
7.794997e-01
7.890536e-01
7.983263e-01
8.072793e-01
8.157009e-01
8.231865e-01
8.291957e-01
8.331256e-01
8.343663e-01
8.323513e-01
8.266423e-01
8.170421e-01
8.036264e-01
7.865758e-01
7.658739e-01
7.411380e-01
7.117683e-01
6.772830e-01
6.375797e-01
5.930283e-01
5.444612e-01
4.931105e-01
4.404923e-01
3.882369e-01
3.378968e-01
2.907852e-01
2.478910e-01
2.098710e-01
1.771009e-01
1.497474e-01
1.278158e-01
1.111667e-01
9.955438e-02
9.271420e-02
9.046702e-02
9.278862e-02
9.979970e-02
1.116646e-01
1.284394e-01
1.499561e-01
1.758003e-01
2.053618e-01
2.379153e-01
2.727056e-01
3.090114e-01
3.461618e-01
3.834985e-01
4.203228e-01
4.558879e-01
4.894727e-01
5.205101e-01
5.487142e-01
5.741472e-01
5.971995e-01
6.185074e-01
6.388315e-01
6.589088e-01
6.793212e-01
7.004370e-01
7.224376e-01
7.453874e-01
7.692901e-01
7.941007e-01
8.197092e-01
8.459268e-01
8.724882e-01
8.990613e-01
9.252754e-01
9.507752e-01
9.752856e-01
9.986352e-01
1.020718e+00
1.041439e+00
1.060714e+00
1.078520e+00
1.094949e+00
1.110210e+00
1.124585e+00
1.138361e+00
1.151773e+00
1.164989e+00
1.178138e+00
1.191353e+00
1.204811e+00
1.218729e+00
1.233320e+00
1.248702e+00
1.264816e+00
1.281421e+00
1.298134e+00
1.314488e+00
1.329989e+00
1.344193e+00
1.356793e+00
1.367706e+00
1.377119e+00
1.385466e+00
1.393343e+00
1.401389e+00
1.410156e+00
1.419993e+00
1.430976e+00
1.442896e+00
1.455335e+00
1.467822e+00
1.479999e+00
1.491725e+00
1.503118e+00
1.514514e+00
1.526344e+00
1.538960e+00
1.552484e+00
1.566735e+00
1.581239e+00
1.595354e+00
1.608517e+00
1.620506e+00
1.631556e+00
1.642279e+00
1.653442e+00
1.665716e+00
1.679500e+00
1.694832e+00
1.711385e+00
1.728518e+00
1.745419e+00
1.761334e+00
1.775761e+00
1.788503e+00
1.799576e+00
1.809079e+00
1.817083e+00
1.823597e+00
1.828591e+00
1.832097e+00
1.834331e+00
1.835792e+00
1.837243e+00
1.839582e+00
1.843648e+00
1.850079e+00
1.859257e+00
1.871306e+00
1.886131e+00
1.903484e+00
1.923043e+00
1.944415e+00
1.967088e+00
1.990403e+00
2.013591e+00
2.035888e+00
2.056619e+00
2.075221e+00
2.091242e+00
2.104372e+00
2.114567e+00
2.122200e+00
2.128097e+00
2.133368e+00
2.139111e+00
2.146158e+00
2.154949e+00
2.165539e+00
2.177680e+00
2.190921e+00
2.204736e+00
2.218641e+00
2.232237e+00
2.245219e+00
2.257372e+00
2.268548e+00
2.278603e+00
2.287335e+00
2.294510e+00
2.299994e+00
2.303896e+00
2.306550e+00
2.308372e+00
2.309686e+00
2.310658e+00
2.311331e+00
2.311703e+00
2.311779e+00
2.311564e+00
2.311070e+00
2.310353e+00
2.309585e+00
2.309096e+00
2.309345e+00
2.310780e+00
2.313707e+00
2.318222e+00
2.324246e+00
2.331550e+00
2.339750e+00
2.348318e+00
2.356633e+00
2.364052e+00
2.369983e+00
2.373945e+00
2.375627e+00
2.374962e+00
2.372164e+00
2.367706e+00
2.362216e+00
2.356318e+00
2.350493e+00
2.345036e+00
2.340117e+00
2.335826e+00
2.332158e+00
2.328961e+00
2.325921e+00
2.322645e+00
2.318805e+00
2.314270e+00
2.309152e+00
2.303756e+00
2.298485e+00
2.293727e+00
2.289787e+00
2.286890e+00
2.285235e+00
2.285042e+00
2.286545e+00
2.289938e+00
2.295320e+00
2.302638e+00
2.311664e+00
2.322009e+00
2.333211e+00
2.344847e+00
2.356639e+00
2.368494e+00
2.380481e+00
2.392760e+00
2.405506e+00
2.418862e+00
2.432912e+00
2.447673e+00
2.463094e+00
2.479046e+00
2.495351e+00
2.511873e+00
2.528621e+00
2.545788e+00
2.563702e+00
2.582730e+00
2.603207e+00
2.625373e+00
2.649318e+00
2.674929e+00
2.701859e+00
2.729546e+00
2.757303e+00
2.784454e+00
2.810449e+00
2.834889e+00
2.857435e+00
2.877666e+00
2.895028e+00
2.908880e+00
2.918564e+00
2.923462e+00
2.923026e+00
2.916879e+00
2.904958e+00
2.887636e+00
2.865783e+00
2.840701e+00
2.813936e+00
2.786992e+00
2.761054e+00
2.736857e+00
2.714723e+00
2.694652e+00
2.676350e+00
2.659257e+00
2.642699e+00
2.626091e+00
2.609072e+00
2.591451e+00
2.573084e+00
2.553758e+00
2.533213e+00
2.511268e+00
2.488004e+00
2.463868e+00
2.439662e+00
2.416421e+00
2.395276e+00
2.377310e+00
2.363443e+00
2.354371e+00
2.350470e+00
2.351660e+00
2.357233e+00
2.365819e+00
2.375608e+00
2.384814e+00
2.392080e+00
2.396569e+00
2.397811e+00
2.395537e+00
2.389642e+00
2.380196e+00
2.367413e+00
2.351565e+00
2.333006e+00
2.312335e+00
2.290569e+00
2.269080e+00
2.249279e+00
2.232319e+00
2.219042e+00
2.210087e+00
2.205935e+00
2.206829e+00
2.212694e+00
2.223169e+00
2.237728e+00
2.255797e+00
2.276818e+00
2.300286e+00
2.325748e+00
2.352739e+00
2.380680e+00
2.408791e+00
2.436107e+00
2.461589e+00
2.484294e+00
2.503538e+00
2.518998e+00
2.530705e+00
2.538982e+00
2.544362e+00
2.547507e+00
2.549127e+00
2.549931e+00
2.550584e+00
2.551644e+00
2.553516e+00
2.556447e+00
2.560597e+00
2.566115e+00
2.573166e+00
2.581904e+00
2.592443e+00
2.604822e+00
2.618987e+00
2.634817e+00
2.652199e+00
2.671114e+00
2.691637e+00
2.713871e+00
2.737840e+00
2.763440e+00
2.790454e+00
2.818613e+00
2.847641e+00
2.877293e+00
2.907385e+00
2.937819e+00
2.968595e+00
2.999794e+00
3.031561e+00
3.064096e+00
3.097643e+00
3.132458e+00
3.168758e+00
3.206653e+00
3.246078e+00
3.286742e+00
3.328162e+00
3.369746e+00
3.410888e+00
3.451045e+00
3.489797e+00
3.526906e+00
3.562315e+00
3.596108e+00
3.628427e+00
3.659414e+00
3.689168e+00
3.717709e+00
3.744969e+00
3.770830e+00
3.795200e+00
3.818088e+00
3.839582e+00
3.859735e+00
3.878445e+00
3.895441e+00
3.910423e+00
3.923256e+00
3.934143e+00
3.943660e+00
3.952599e+00
3.961721e+00
3.971568e+00
3.982454e+00
3.994536e+00
4.007849e+00
4.022241e+00
4.037325e+00
4.052498e+00
4.067052e+00
4.080314e+00
4.091766e+00
4.101136e+00
4.108450e+00
4.113999e+00
4.118237e+00
4.121607e+00
4.124357e+00
4.126491e+00
4.127851e+00
4.128270e+00
4.127649e+00
4.125957e+00
4.123206e+00
4.119436e+00
4.114709e+00
4.109096e+00
4.102644e+00
4.095338e+00
4.087046e+00
4.077485e+00
4.066235e+00
4.052827e+00
4.036851e+00
4.018002e+00
3.996056e+00
3.970830e+00
3.942184e+00
3.910046e+00
3.874401e+00
3.835233e+00
3.792439e+00
3.745764e+00
3.694861e+00
3.639416e+00
3.579278e+00
3.514528e+00
3.445474e+00
3.372622e+00
3.296629e+00
3.218264e+00
3.138380e+00
3.057899e+00
2.977820e+00
2.899220e+00
2.823225e+00
2.750957e+00
2.683451e+00
2.621589e+00
2.566086e+00
2.517501e+00
2.476231e+00
2.442495e+00
2.416319e+00
2.397569e+00
2.385995e+00
2.381228e+00
2.382762e+00
2.389951e+00
2.402065e+00
2.418386e+00
2.438296e+00
2.461296e+00
2.486976e+00
2.514959e+00
2.544883e+00
2.576415e+00
2.609271e+00
2.643223e+00
2.678090e+00
2.713771e+00
2.750303e+00
2.787860e+00
2.826664e+00
2.866878e+00
2.908592e+00
2.951877e+00
2.996844e+00
3.043632e+00
3.092384e+00
3.143226e+00
3.196276e+00
3.251644e+00
3.309413e+00
3.369569e+00
3.431926e+00
3.496079e+00
3.561431e+00
3.627270e+00
3.692882e+00
3.757623e+00
3.820914e+00
3.882150e+00
3.940589e+00
3.995370e+00
4.045747e+00
4.091388e+00
4.132525e+00
4.169871e+00
4.204405e+00
4.237149e+00
4.269010e+00
4.300688e+00
4.332616e+00
4.364965e+00
4.397681e+00
4.430517e+00
4.463025e+00
4.494572e+00
4.524396e+00
4.551696e+00
4.575747e+00
4.595975e+00
4.612012e+00
4.623684e+00
4.630948e+00
4.633760e+00
4.631949e+00
4.625192e+00
4.613103e+00
4.595354e+00
4.571752e+00
4.542270e+00
4.507047e+00
4.466352e+00
4.420503e+00
4.369785e+00
4.314389e+00
4.254396e+00
4.189792e+00
4.120513e+00
4.046529e+00
3.967948e+00
3.885108e+00
3.798604e+00
3.709258e+00
3.618032e+00
3.525905e+00
3.433765e+00
3.342362e+00
3.252298e+00
3.164046e+00
3.077959e+00
2.994289e+00
2.913184e+00
2.834681e+00
2.758722e+00
2.685180e+00
2.613867e+00
2.544446e+00
2.476282e+00
2.408403e+00
2.339650e+00
2.268970e+00
2.195626e+00
2.119193e+00
2.039431e+00
1.956172e+00
1.869286e+00
1.778705e+00
1.684481e+00
1.586844e+00
1.486258e+00
1.383472e+00
1.279535e+00
1.175745e+00
1.073483e+00
9.739685e-01
8.781009e-01
7.865029e-01
6.996859e-01
6.181754e-01
5.425244e-01
4.732446e-01
4.106980e-01
3.549593e-01
3.056937e-01
2.621402e-01
2.232432e-01
1.878978e-01
1.552051e-01
1.246054e-01
9.584033e-02
6.882029e-02
4.349110e-02
1.972719e-02
-2.744906e-03
-2.437979e-02
-4.580491e-02
-6.778811e-02
-9.117610e-02
-1.167907e-01
-1.453185e-01
-1.772563e-01
-2.129318e-01
-2.525605e-01
-2.962762e-01
-3.441099e-01
-3.959680e-01
-4.516653e-01
-5.110032e-01
-5.738190e-01
-6.399525e-01
-7.091669e-01
-7.811188e-01
-8.554049e-01
-9.316344e-01
-1.009458e+00
-1.088542e+00
-1.168509e+00
-1.248900e+00
-1.329169e+00
-1.408712e+00
-1.486917e+00
-1.563194e+00
-1.637015e+00
-1.707950e+00
-1.775691e+00
-1.840042e+00
-1.900899e+00
-1.958250e+00
-2.012215e+00
-2.063100e+00
-2.111454e+00
-2.158065e+00
-2.203877e+00
-2.249831e+00
-2.296728e+00
-2.345178e+00
-2.395612e+00
-2.448320e+00
-2.503447e+00
-2.560963e+00
-2.620647e+00
-2.682102e+00
-2.744808e+00
-2.808191e+00
-2.871722e+00
-2.935002e+00
-2.997827e+00
-3.060209e+00
-3.122300e+00
-3.184277e+00
-3.246232e+00
-3.308139e+00
-3.369871e+00
-3.431250e+00
-3.492092e+00
-3.552231e+00
-3.611527e+00
-3.669836e+00
-3.726980e+00
-3.782746e+00
-3.836925e+00
-3.889342e+00
-3.939865e+00
-3.988385e+00
-4.034808e+00
-4.079086e+00
-4.121237e+00
-4.161346e+00
-4.199524e+00
-4.235858e+00
-4.270360e+00
-4.302942e+00
-4.333427e+00
-4.361574e+00
-4.387122e+00
-4.409823e+00
-4.429471e+00
-4.445906e+00
-4.459012e+00
-4.468721e+00
-4.475006e+00
-4.477864e+00
-4.477292e+00
-4.473269e+00
-4.465746e+00
-4.454633e+00
-4.439815e+00
-4.421178e+00
-4.398666e+00
-4.372316e+00
-4.342274e+00
-4.308768e+00
-4.272069e+00
-4.232447e+00
-4.190148e+00
-4.145392e+00
-4.098366e+00
-4.049197e+00
-3.997928e+00
-3.944542e+00
-3.889009e+00
-3.831304e+00
-3.771385e+00
-3.709188e+00
-3.644668e+00
-3.577854e+00
-3.508851e+00
-3.437791e+00
-3.364794e+00
-3.289957e+00
-3.213356e+00
-3.135048e+00
-3.055073e+00
-2.973455e+00
-2.890207e+00
-2.805329e+00
-2.718809e+00
-2.630650e+00
-2.540901e+00
-2.449678e+00
-2.357171e+00
-2.263631e+00
-2.169342e+00
-2.074569e+00
-1.979515e+00
-1.884330e+00
-1.789170e+00
-1.694273e+00
-1.599977e+00
-1.506697e+00
-1.414882e+00
-1.324987e+00
-1.237441e+00
-1.152633e+00
-1.070884e+00
-9.924411e-01
-9.174688e-01
-8.460456e-01
-7.781691e-01
-7.137746e-01
-6.527547e-01
-5.949708e-01
-5.402616e-01
-4.884625e-01
-4.394319e-01
-3.930646e-01
-3.492870e-01
-3.080531e-01
-2.693569e-01
-2.332524e-01
-1.998597e-01
-1.693477e-01
-1.419013e-01
-1.176796e-01
-9.677246e-02
-7.916972e-02
-6.477874e-02
-5.351549e-02
-4.542551e-02
-4.073158e-02
-3.975922e-02
-4.281340e-02
-5.009168e-02
-6.162185e-02
-7.717650e-02
-9.618991e-02
-1.177613e-01
-1.407922e-01
-1.642037e-01
-1.871122e-01
-2.088853e-01
-2.291131e-01
-2.475668e-01
-2.641846e-01
-2.790865e-01
-2.925688e-01
-3.050261e-01
-3.168299e-01
-3.282417e-01
-3.393953e-01
-3.503293e-01
-3.610385e-01
-3.715301e-01
-3.818745e-01
-3.922298e-01
-4.028319e-01
-4.139574e-01
-4.258809e-01
-4.388388e-01
-4.529919e-01
-4.683760e-01
-4.848714e-01
-5.022362e-01
-5.202064e-01
-5.386047e-01
-5.573942e-01
-5.766470e-01
-5.964607e-01
-6.168881e-01
-6.379213e-01
-6.595168e-01
-6.816257e-01
-7.042189e-01
-7.273082e-01
-7.509552e-01
-7.752563e-01
-8.003141e-01
-8.262083e-01
-8.529620e-01
-8.804906e-01
-9.085626e-01
-9.368175e-01
-9.648406e-01
-9.922552e-01
-1.018790e+00
-1.044308e+00
-1.068796e+00
-1.092338e+00
-1.115052e+00
-1.137024e+00
-1.158254e+00
-1.178650e+00
-1.198067e+00
-1.216359e+00
-1.233427e+00
-1.249256e+00
-1.263936e+00
-1.277666e+00
-1.290732e+00
-1.303431e+00
-1.315972e+00
-1.328401e+00
-1.340597e+00
-1.352324e+00
-1.363301e+00
-1.373272e+00
-1.382064e+00
-1.389619e+00
-1.395996e+00
-1.401329e+00
-1.405776e+00
-1.409456e+00
-1.412413e+00
-1.414627e+00
-1.416052e+00
-1.416643e+00
-1.416363e+00
-1.415171e+00
-1.413017e+00
-1.409877e+00
-1.405786e+00
-1.400843e+00
-1.395178e+00
-1.388928e+00
-1.382246e+00
-1.375317e+00
-1.368335e+00
-1.361441e+00
-1.354655e+00
-1.347851e+00
-1.340776e+00
-1.333095e+00
-1.324449e+00
-1.314501e+00
-1.302997e+00
-1.289805e+00
-1.274907e+00
-1.258332e+00
-1.240073e+00
-1.220053e+00
-1.198154e+00
-1.174251e+00
-1.148231e+00
-1.120016e+00
-1.089625e+00
-1.057224e+00
-1.023124e+00
-9.877339e-01
-9.515240e-01
-9.149797e-01
-8.785463e-01
-8.425585e-01
-8.072032e-01
-7.725394e-01
-7.385587e-01
-7.052431e-01
-6.725898e-01
-6.405967e-01
-6.092363e-01
-5.784503e-01
-5.481655e-01
-5.183161e-01
-4.888591e-01
-4.597829e-01
-4.311064e-01
-4.028582e-01
-3.750392e-01
-3.475910e-01
-3.203949e-01
-2.933065e-01
-2.662009e-01
-2.389958e-01
-2.116438e-01
-1.841100e-01
-1.563626e-01
-1.283921e-01
-1.002536e-01
