EVENT_NAME: EMILIA_2ND_SHOCK
EVENT_ID: IT-2012-0011
EVENT_DATE_YYYYMMDD: 20120529
EVENT_TIME_HHMMSS: 070002
EVENT_LATITUDE_DEGREE: 44.8417
EVENT_LONGITUDE_DEGREE: 11.0657
EVENT_DEPTH_KM: 8.1
HYPOCENTER_REFERENCE: INGV-CNT_Seismic_Bulletin
MAGNITUDE_W: 6.0
MAGNITUDE_W_REFERENCE: RCMT-INGV
MAGNITUDE_L: 5.8
MAGNITUDE_L_REFERENCE: INGV-CNT_Seismic_Bulletin
FOCAL_MECHANISM: TF
NETWORK: IV
STATION_CODE: T0805
STATION_NAME: T0805
STATION_LATITUDE_DEGREE: 44.918700
STATION_LONGITUDE_DEGREE: 11.322600
STATION_ELEVATION_M: 5
LOCATION: 
SENSOR_DEPTH_M: 1.0
VS30_M/S: 
SITE_CLASSIFICATION_EC8: C*
MORPHOLOGIC_CLASSIFICATION: 
EPICENTRAL_DISTANCE_KM: 22.0
EARTHQUAKE_BACKAZIMUTH_DEGREE: 247.2
DATE_TIME_FIRST_SAMPLE_YYYYMMDD_HHMMSS: 20120529_065953.000
DATE_TIME_FIRST_SAMPLE_PRECISION: milliseconds
SAMPLING_INTERVAL_S: 0.005000
NDATA: 30001
DURATION_S: 150.005
STREAM: HNE
UNITS: cm/s^2
INSTRUMENT: sensor = Episensor FBA ES-T [Kinemetrics] | digitizer = Unknown [Unknown]
INSTRUMENT_ANALOG/DIGITAL: D
INSTRUMENTAL_FREQUENCY_HZ: 
INSTRUMENTAL_DAMPING: 
FULL_SCALE_G: 
N_BIT_DIGITAL_CONVERTER: 
PGA_CM/S^2: -243.177070
TIME_PGA_S: 23.375000
BASELINE_CORRECTION: BASELINE REMOVED
FILTER_TYPE: BUTTERWORTH
FILTER_ORDER: 2
LOW_CUT_FREQUENCY_HZ: 0.060
HIGH_CUT_FREQUENCY_HZ: 40.000
LATE/NORMAL_TRIGGERED: NT
DATABASE_VERSION: DYNA 1.0
HEADER_FORMAT: DYNA 1.2
DATA_TYPE: ACCELERATION
PROCESSING: manual (Paolucci et al., 2011)
DATA_TIMESTAMP_YYYYMMDD_HHMMSS: 
DATA_LICENSE: CC-BY4_0 (http://creativecommons.org/licenses/by/4.0/)
DATA_CITATION: ESM working group (2015), European Strong-Motion database, version 0.1, Network Activity 3: Networking acceleration networks and SM data users. Project NERA (www.nera-eu.org)
DATA_CREATOR: ESM working group
ORIGINAL_DATA_MEDIATOR_CITATION: Orfeus - European Integrated Data Archive (EIDA) http://www.orfeus-eu.org/eida/
ORIGINAL_DATA_MEDIATOR: Orfeus - European Integrated Data Archive (EIDA)
ORIGINAL_DATA_CREATOR_CITATION: Data for this study comes from the Italian national seismic network operated by Istituto Nazionale di Geofisica e Vulcanologia and archived at the European Integrated Data Archive http://eida.rm.ingv.it/
ORIGINAL_DATA_CREATOR: network: IV (Italian National Seismic Network); owner: Istituto Nazionale di Geofisica e Vulcanologia
USER1: 
USER2: 
USER3: 
USER4: 
USER5: 
[...]
-0.370644
-0.504207
-0.666875
-0.741924
-0.623754
-0.375131
-0.234318
-0.377432
-0.758945
-1.220060
-1.564728
-1.539460
-1.012977
-0.147808
0.771967
1.502913
1.797605
1.511478
0.742369
-0.294439
-1.328946
-1.990585
-2.052928
-1.661244
-1.114017
-0.621193
-0.319988
-0.227536
-0.146090
0.175861
0.773957
1.450922
1.946871
2.006637
1.443773
0.359484
-0.839373
-1.772290
-2.279130
-2.343754
-2.086767
-1.754185
-1.507224
-1.278625
-0.913436
-0.373690
0.246485
0.827033
1.267664
1.494189
1.491410
1.299516
0.996061
0.707879
0.541211
0.424949
0.110059
-0.562653
-1.473744
-2.368447
-2.975165
-2.986362
-2.316542
-1.363872
-0.662568
-0.372924
-0.303405
-0.225987
-0.007018
0.389307
0.800409
0.864170
0.370953
-0.469478
-1.271767
-1.740026
-1.643216
-0.951252
-0.026772
0.659382
0.936237
0.905060
0.728704
0.570440
0.537227
0.532202
0.270457
-0.381330
-1.156288
-1.635618
-1.575544
-0.908436
0.198830
1.189126
1.434910
0.782175
-0.448269
-1.760645
-2.550295
-2.322965
-1.242034
-0.133449
0.306227
-0.008802
-0.814211
-1.634950
-1.780899
-0.941027
0.305662
1.066079
0.908056
-0.158424
-1.825957
-3.392044
-4.118393
-3.845565
-2.955855
-1.914971
-1.101398
-0.746081
-0.693130
-0.418830
0.435654
1.706531
2.977027
3.817890
3.766673
2.708239
1.270872
0.309897
0.170306
0.706144
1.526358
1.983870
1.478799
0.103732
-1.342375
-2.109118
-1.921109
-0.826448
0.725648
1.846726
1.894847
0.986065
-0.386318
-1.648351
-2.104279
-1.436882
-0.191839
0.766131
0.943493
0.194202
-1.256222
-2.589125
-2.887960
-1.986868
-0.465749
0.950003
1.619508
1.102027
-0.403848
-2.043764
-3.016286
-2.981169
-1.921716
-0.245726
1.186713
1.734371
1.455904
0.756541
0.079413
-0.085921
0.431337
1.122880
1.273795
0.678652
-0.342938
-1.300926
-1.638247
-0.931727
0.546118
1.791213
1.966305
0.978236
-0.830945
-2.779392
-3.798249
-3.286135
-1.827746
-0.486503
0.025623
-0.687810
-2.512141
-4.429125
-5.206138
-4.479756
-2.732696
-0.722041
0.657550
0.677124
-0.474680
-1.687203
-1.964451
-1.030438
0.924510
3.205011
4.561980
4.198843
2.564799
0.640201
-0.837665
-1.326711
-0.740478
0.150828
0.358534
-0.326288
-1.335138
-1.997883
-1.839804
-0.625438
1.280426
2.879371
3.386619
2.803867
1.537316
0.115821
-0.774733
-0.752267
-0.158857
0.374366
0.449089
-0.112675
-1.196842
-2.200171
-2.424126
-1.734443
-0.555866
0.590099
1.268311
1.192692
0.480411
-0.366972
-0.947729
-1.248645
-1.421967
-1.488273
-1.308743
-0.780323
0.029171
0.957542
1.777259
2.176908
2.041103
1.708243
1.672530
2.167870
3.164821
4.412025
5.342869
5.358427
4.351147
2.713260
1.003107
-0.143709
-0.208237
0.714283
1.912658
2.701773
2.768362
2.045900
0.721185
-0.769138
-2.047357
-2.985372
-3.595668
-3.938973
-4.089164
-4.039123
-3.631495
-2.658829
-1.059897
1.031634
3.263601
4.964650
5.440883
4.522256
2.539621
-0.012737
-2.538889
-4.492566
-5.624411
-5.901575
-5.448536
-4.646526
-3.924571
-3.445955
-3.127349
-2.746647
-1.927977
-0.341372
1.806077
3.723072
4.730856
4.709557
3.845482
2.492520
1.200781
0.374936
0.009278
-0.078565
0.017724
0.284737
0.650184
0.888360
0.755875
0.265754
-0.287680
-0.562588
-0.284142
0.677334
1.946097
2.585746
1.908801
0.061782
-2.385018
-4.701005
-5.903724
-5.407641
-3.626648
-1.374505
0.789483
2.486884
3.557143
4.232194
4.880654
5.672848
6.581640
7.451497
7.972662
7.830395
7.004878
5.775241
4.460739
3.311605
2.478353
1.874574
1.195151
0.234561
-0.905361
-1.988512
-2.832853
-3.294128
-3.321994
-3.054388
-2.679920
-2.240512
-1.630902
-0.730712
0.522419
2.076015
3.472021
3.798018
2.574498
0.472921
-1.366342
-2.123081
-1.258921
1.084539
3.501725
4.286959
2.964593
0.261042
-2.749676
-4.881481
-5.149387
-3.534089
-0.948768
1.579683
3.260162
3.636430
3.104269
2.889572
3.852107
5.681661
7.485193
8.279806
6.936360
3.084028
-1.976471
-6.387597
-9.161842
-10.032458
-9.197580
-7.531289
-6.028571
-4.968467
-3.968727
-2.522630
-0.202068
3.226379
7.274885
10.638919
12.247902
11.994629
10.291668
7.828532
5.619669
4.289565
3.484971
2.485628
1.041834
-0.604602
-2.112324
-3.195101
-3.658572
-3.560722
-3.215433
-2.953582
-3.009412
-3.517552
-4.383965
-5.253448
-5.704634
-5.344924
-3.916692
-1.716465
0.348478
1.501172
1.576014
0.760500
-0.493523
-1.421709
-1.444097
-0.550124
0.961970
2.592035
3.562281
3.305463
1.883211
-0.285736
-2.482446
-3.614951
-3.104458
-1.650494
-0.434371
-0.121576
-0.911262
-2.618516
-4.485088
-5.666667
-6.012978
-5.994126
-5.970179
-5.804812
-5.118789
-3.588323
-0.969677
2.630054
6.427167
9.437857
11.101717
11.189018
9.820477
7.723876
5.739558
4.084777
2.431086
0.496010
-1.661927
-3.804459
-5.634064
-6.776356
-7.080810
-6.911102
-6.807859
-7.068528
-7.789377
-8.923059
-10.202896
-11.221496
-11.349201
-9.651089
-5.745681
-0.595133
4.335062
8.016147
9.688935
9.109226
7.049394
4.602682
2.365746
0.608553
-0.414786
-0.414371
0.809481
2.905363
4.888884
5.949346
5.996093
5.358413
4.666116
4.879529
6.499452
8.898609
11.000229
12.037872
11.450046
9.055174
5.421347
1.429679
-2.014491
-3.770394
-3.057883
-0.085523
4.456532
9.646881
14.136990
16.847565
17.576639
16.530592
13.864487
9.657932
4.068552
-2.508944
-9.621325
-16.834063
-23.538610
-29.065765
-32.825344
-34.309551
-33.195175
-29.274973
-22.685501
-14.287749
-5.133431
4.018272
12.383580
19.055744
23.074514
23.638151
20.860826
15.871176
10.124789
5.200526
2.403609
1.868606
2.702802
4.036133
5.487765
6.998404
8.685266
10.724757
13.013568
14.897795
15.484020
13.902542
9.179703
1.015339
-9.353783
-20.131836
-29.923483
-37.409328
-41.748158
-43.227749
-42.472641
-39.355503
-32.984310
-22.958368
-10.344821
3.187225
16.033543
26.312269
32.840832
36.205719
37.665230
37.870216
36.928337
34.827465
31.598413
27.320768
22.329142
17.314009
12.847867
9.037558
5.711980
2.492573
-1.219592
-5.753088
-10.756232
-15.518706
-19.123388
-20.335579
-18.609732
-15.056867
-11.432628
-9.065909
-9.054140
-11.748157
-15.979969
-20.033567
-22.700197
-23.023550
-20.492893
-15.542490
-8.992004
-1.643834
5.501795
11.556591
16.068392
18.804586
19.535763
17.967543
14.144728
8.910155
3.366896
-1.676381
-5.532766
-7.909690
-9.342375
-10.618916
-11.979427
-13.150501
-13.857774
-14.078321
-13.898961
-13.350040
-12.394783
-11.024601
-9.341509
-7.534676
-5.970129
-5.214771
-5.432711
-5.852265
-5.312473
-2.833770
2.497910
10.861682
20.877892
30.582462
38.357304
42.582359
42.358372
38.484825
32.418758
25.299196
18.212439
12.055437
7.243709
3.894486
1.843061
0.631810
-0.275866
-1.430441
-3.279691
-5.866520
-8.844847
-11.755009
-14.102617
-15.448716
-15.634692
-14.766784
-13.199845
-11.674223
-10.912209
-10.795072
-10.315211
-8.464721
-4.740016
0.948028
7.859613
14.282441
18.740515
20.825594
20.697586
18.762362
15.695619
12.190860
8.844945
6.134767
4.343450
3.639310
3.909557
4.489447
4.579984
3.834539
2.262132
-0.066245
-3.078103
-6.732988
-10.966551
-15.543024
-19.839281
-22.623095
-22.568163
-19.147959
-12.544435
-3.346912
7.285917
18.094490
28.135057
36.450581
42.300728
45.584690
46.501221
45.335464
42.500641
38.413658
33.462940
27.998550
22.471544
17.567867
13.703644
10.571931
7.622740
4.716361
2.076860
-0.263686
-2.821142
-6.325504
-11.306061
-18.139851
-26.767662
-36.282078
-45.540031
-53.812580
-60.449818
-64.525948
-64.753128
-59.949364
-50.370342
-37.852749
-24.441874
-11.783294
-0.998244
7.814969
15.349958
22.169653
28.301111
33.540176
37.878578
41.485523
44.250641
45.467781
44.296692
40.709866
35.585800
30.038324
25.177748
21.850069
19.906401
18.206461
15.586343
11.354573
5.185347
-2.623020
-11.057716
-18.891520
-24.893938
-28.072977
-28.371012
-26.574057
-23.473251
-19.524794
-14.864428
-9.168440
-1.726236
7.730240
18.365841
28.911089
38.259697
45.218685
49.015438
49.954967
48.824406
46.463108
43.879726
41.661877
39.424343
36.287086
31.262060
23.154724
11.474764
-2.622143
-17.342630
-31.178421
-42.575172
-50.538372
-55.447285
-58.290306
-60.017982
-61.638779
-63.618523
-65.275475
-65.402840
-62.885872
-56.561378
-45.989792
-32.373501
-17.453157
-2.301939
12.389780
26.072149
38.430393
49.254429
58.255054
64.945793
68.979012
70.507996
69.851433
67.232048
62.889790
57.281174
51.277809
45.781597
41.154934
37.334805
34.125778
31.226110
28.356073
25.415672
22.362850
18.901285
14.262635
7.560906
-1.571578
-12.963554
-25.914339
-38.909645
-50.301743
-59.244171
-65.426346
-68.795250
-69.737488
-68.652092
-65.226364
-58.352291
-47.127052
-31.619520
-12.391349
9.429035
31.781046
52.593292
70.436394
84.342537
93.700737
97.891151
96.418892
89.355217
76.981415
59.909313
39.450535
17.476034
-3.477428
-20.942961
-33.684307
-41.359921
-44.451283
-44.889210
-44.925980
-45.704983
-47.573559
-50.520721
-54.079239
-57.696201
-61.251904
-64.935760
-68.599533
-71.329735
-71.910446
-69.322212
-62.549007
-51.179211
-36.200005
-19.045418
-0.761178
17.510176
34.105061
46.630375
52.712650
51.533215
43.698204
30.652073
14.994208
-0.654527
-15.163518
-28.361881
-39.958981
-49.213081
-55.341831
-58.431465
-59.458313
-59.302444
-58.250362
-56.162334
-52.492264
-46.278362
-36.949291
-25.014814
-11.415572
2.945139
16.917198
29.335733
39.296795
46.192554
50.145638
51.974541
52.477596
52.120445
51.040215
48.880310
44.863823
38.704201
31.336386
24.175617
18.399490
15.154577
14.952201
16.891705
19.634768
22.670300
26.203648
30.413689
35.099987
39.894779
44.406990
48.103542
50.473373
51.204639
49.995007
46.187405
38.683144
27.113668
12.927134
-1.713736
-14.839713
-24.198290
-28.224409
-27.213140
-22.404669
-15.667078
-9.836205
-6.965015
-6.851790
-8.147112
-9.171908
-7.762260
-2.686668
5.026059
13.364544
20.425247
24.032578
22.672165
16.583147
6.993037
-3.713753
-11.447317
-12.927993
-7.732287
2.934663
16.339714
27.680565
32.895351
30.826162
21.920128
7.661256
-9.286656
-26.477093
-42.536278
-56.808933
-69.146355
-79.674744
-88.651421
-96.590714
-103.915977
-110.096603
-113.439285
-112.261124
-105.712112
-93.609779
-77.290733
-59.921082
-44.336018
-31.634611
-21.971926
-15.338039
-11.792118
-11.286743
-13.346885
-17.330109
-22.479151
-27.759398
-32.573532
-37.391827
-43.054935
-49.688271
-56.646698
-63.268513
-69.271591
-74.468170
-78.027702
-78.140129
-73.204788
-62.811810
-47.205925
-27.334084
-5.080778
17.663872
39.537674
59.400215
75.416145
84.462776
84.420540
76.293312
62.372089
44.695766
25.531294
6.942460
-9.727302
-23.498520
-33.082703
-36.459354
-32.490002
-22.516617
-8.788233
6.988616
23.113209
37.749447
49.052788
55.461529
56.574265
53.055965
46.148453
37.838673
30.028603
23.207809
16.724838
10.031336
3.243431
-3.197207
-8.741527
-12.541271
-13.606684
-10.987279
-3.919263
7.412231
21.745394
37.475391
52.864403
66.392822
77.294228
85.189857
89.830185
91.269814
89.595146
84.633430
75.989479
63.705879
48.911144
33.257595
18.932587
9.146638
5.931583
8.096595
13.212416
19.861868
27.435501
35.584328
44.150932
53.155285
62.853642
73.637474
85.305244
96.414261
104.723465
106.789543
97.407417
73.986618
40.614365
3.919706
-31.077036
-59.849670
-79.251816
-89.354630
-91.735229
-88.474838
-82.657471
-77.367493
-74.968582
-76.932182
-82.647858
-89.488861
-95.123070
-98.813545
-100.601433
-100.358215
-97.635483
-92.431808
-85.912109
-79.609985
-74.418190
-70.725082
-68.381485
-66.342712
-63.347996
-58.840717
-52.751511
-44.896278
-34.758926
-21.838640
-6.786636
8.187891
20.449688
27.546406
27.584751
20.653498
8.777180
-5.761434
-21.030428
-35.641819
-49.220333
-62.071693
-74.469559
-86.436371
-97.823441
-108.080566
-115.918068
-119.549789
-116.857483
-105.933792
-86.736404
-61.180241
-31.773182
-1.296105
27.770885
53.770714
75.008034
89.647949
96.147781
93.448616
82.465714
66.377243
48.434093
30.857311
14.996394
1.367454
-9.828061
-18.245113
-23.384672
-24.808716
-22.851063
-18.692171
-13.322509
-6.955952
0.628381
9.613223
20.016027
31.557161
43.457703
54.855942
65.408211
75.208420
84.526627
93.810036
103.491913
113.628693
123.902534
133.902298
143.227295
151.479996
158.172684
162.602112
164.396225
164.092545
162.504547
159.727814
154.908371
146.502762
132.297729
110.170105
79.995148
43.704659
3.718032
-37.507244
-77.824562
-115.565285
-148.808792
-175.999268
-196.924911
-212.078827
-222.298599
-228.552261
-230.455627
-225.144073
-209.120850
-181.816879
-145.738129
-104.153191
-60.417839
-17.052589
25.976948
70.532501
116.702126
160.406738
196.252151
221.615555
236.276199
241.506088
240.788422
237.807602
233.614014
227.089264
217.308685
204.745712
190.441055
175.128998
159.254852
142.737411
124.614227
103.558502
78.507530
48.533501
13.547721
-24.749893
-64.102959
-102.889626
-139.553635
-172.515579
-200.463623
-222.242981
-236.844650
-243.177063
-241.081009
-232.639587
-220.572952
-206.503433
-191.377136
-175.722458
-159.433929
-142.194321
-124.392342
-107.414528
-92.855110
-82.033188
-75.881050
-74.169067
-75.456833
-78.101837
-80.641167
-81.979050
-81.861816
-80.674522
-78.851219
-76.704430
-74.475662
-72.432281
-70.897682
-69.815170
-68.330246
-65.276138
-59.703754
-50.717285
-38.007339
-22.567776
-5.753181
11.822643
29.997202
48.184887
64.854370
78.230476
87.408096
92.275459
93.622536
93.764450
95.279366
99.146652
104.994781
112.058121
119.336746
125.892792
131.242874
135.110062
137.158813
136.986694
134.129150
128.097748
118.355843
104.985023
89.437141
73.563271
58.485332
44.854652
32.874584
21.941706
11.217340
0.481993
-9.811173
-18.910551
-25.866867
-29.723551
-29.913864
-26.201117
-19.019203
-10.095460
-1.502936
5.442771
9.873999
11.545541
11.423951
10.878248
10.726506
11.384077
12.912682
14.792119
16.300592
16.948591
16.372444
14.397161
11.243076
7.219250
2.294939
-3.882040
-11.460939
-19.990288
-28.732962
-36.811501
-43.057316
-46.860008
-48.994099
-50.767757
-53.031868
-56.243923
-60.286938
-64.051239
-65.982735
-64.460396
-57.495293
-44.132820
-25.965225
-5.687088
13.861346
29.085751
37.589493
40.162865
38.925346
35.443748
30.938934
26.238585
21.487352
16.530884
11.489344
6.862614
3.038943
-0.061244
-2.720401
-5.130354
-7.406702
-9.622149
-11.798446
-13.936258
-16.055536
-18.192713
-20.322382
-22.290455
-23.924084
-25.267824
-26.624702
-28.355623
-30.783278
-34.183228
-38.697224
-44.321491
-50.740261
-57.073914
-62.235622
-65.242012
-65.016266
-61.118740
-54.605640
-47.098854
-39.911079
-34.327518
-31.137926
-29.981201
-29.969534
-30.160048
-29.394215
-26.897610
-22.882486
-18.027756
-13.060769
-8.838972
-5.835611
-3.631409
-1.409694
1.634749
6.460947
13.749404
23.414553
35.024757
47.994843
61.370441
74.006302
84.672844
92.234634
96.031212
95.735085
91.646339
85.312668
78.574379
72.336403
66.782494
61.729321
56.532276
50.441395
43.144493
34.707802
25.370390
15.577265
5.821220
-3.467090
-11.791140
-18.831545
-24.744711
-29.907404
-34.718399
-39.621731
-44.740028
-49.525455
-53.124653
-54.697227
-53.272755
-48.386341
-40.803188
-31.712820
-21.872288
-11.773031
-1.731572
8.219707
18.162050
27.963524
37.148647
45.102036
51.194241
54.859188
55.843052
54.147369
50.033943
44.249992
37.556286
30.006886
21.024160
10.221746
-2.069957
-15.169594
-28.103468
-39.313042
-47.381935
-51.681839
-52.028839
-48.641815
-42.172073
-33.476330
-23.658167
-13.727831
-4.146444
4.950709
13.455390
21.253691
28.217525
34.164303
38.806805
41.958046
43.756081
44.427158
43.932587
41.876980
37.689606
30.739613
20.449553
6.750066
-9.879664
-28.657864
-48.426167
-67.972298
-86.165276
-101.549515
-112.960091
-120.259949
-123.727379
-123.347305
-118.635307
-108.926163
-93.663811
-72.464844
-46.001064
-16.333509
14.177538
43.368786
69.342438
90.284698
103.840355
108.558281
105.561264
97.099731
85.714928
74.798019
66.871384
62.022171
59.197304
57.490116
56.048252
53.971474
50.310116
44.205734
35.256989
23.425774
9.054116
-6.833711
-23.063847
-38.871510
-53.630604
-66.811005
-78.164864
-87.506622
-94.247185
-97.149612
-95.102180
-87.823303
-75.494164
-58.949173
-39.876228
-19.823175
0.410018
20.499109
40.169170
58.858562
75.730026
89.733948
99.769028
104.843285
103.792618
95.965698
82.138550
63.599129
41.525364
17.348526
-7.553715
-32.156052
-55.690071
-77.302078
-95.615196
-109.302025
-117.706520
-120.513321
-117.735786
-109.775375
-97.566223
-83.013321
-68.153008
-54.182674
-41.856285
-31.579056
-23.074011
-15.803252
-9.400925
-3.614944
1.703167
6.545685
10.791621
14.206861
16.434830
17.338804
17.322096
16.982512
16.786970
17.196609
18.578283
21.038425
24.487244
28.382286
31.548731
32.828705
31.539373
27.345846
20.533527
12.115410
3.385420
-4.203265
-9.270484
-10.809627
-7.917445
-0.384545
10.434667
22.713264
35.390114
47.890938
59.844986
71.170013
81.874054
91.667877
99.821281
105.640038
108.850700
109.266418
106.211823
98.354820
84.914505
66.767136
45.429352
22.245094
-1.281448
-23.937937
-45.331367
-65.435234
-83.838799
-99.426193
-110.958748
-117.559235
-118.632347
-114.292793
-105.451164
-93.424751
-80.004951
-66.840935
-54.518345
-42.867538
-31.745462
-21.302383
-11.887834
-4.141490
0.859495
2.322569
0.405680
-4.299098
-10.979614
-18.373600
-25.246721
-30.753265
-34.331982
-35.644119
-34.371918
-30.301172
-23.576612
-14.467278
-3.294924
9.427833
23.080528
36.951336
50.333351
62.401146
71.877983
77.611656
79.169090
76.521744
70.127357
61.047768
50.448139
39.397160
28.733423
18.894501
10.195217
3.017314
-2.216938
-5.108468
-5.528563
-3.633984
0.138845
4.891447
9.616426
13.443559
15.336172
14.440050
10.548951
3.768266
-5.634038
-17.153259
-30.131264
-43.711658
-57.045727
-69.386040
-79.783257
-87.395844
-91.900764
-93.214767
-91.338760
-86.363510
-78.639717
-69.071526
-58.627003
-47.726204
-36.408989
-24.713833
-12.815106
-0.951176
10.561259
21.243660
30.755650
39.177921
46.742237
53.516174
59.419445
64.475197
69.004150
73.407997
77.897560
82.534317
87.280380
91.963478
96.321457
99.849518
101.593979
100.572884
96.142570
87.926788
76.192482
61.957592
46.467999
31.040531
16.822229
4.469056
-5.543713
-12.841773
-17.362291
-19.175728
-18.526106
-15.971359
-12.318061
-8.687840
-6.194554
-5.549621
-7.297576
-11.692021
-18.322901
-26.536066
-35.741886
-45.237522
