EVENT_NAME: EMILIA_2ND_SHOCK
EVENT_ID: IT-2012-0011
EVENT_DATE_YYYYMMDD: 20120529
EVENT_TIME_HHMMSS: 070002
EVENT_LATITUDE_DEGREE: 44.8417
EVENT_LONGITUDE_DEGREE: 11.0657
EVENT_DEPTH_KM: 8.1
HYPOCENTER_REFERENCE: INGV-CNT_Seismic_Bulletin
MAGNITUDE_W: 6.0
MAGNITUDE_W_REFERENCE: RCMT-INGV
MAGNITUDE_L: 5.8
MAGNITUDE_L_REFERENCE: INGV-CNT_Seismic_Bulletin
FOCAL_MECHANISM: TF
NETWORK: IV
STATION_CODE: T0818
STATION_NAME: T0818
STATION_LATITUDE_DEGREE: 44.934800
STATION_LONGITUDE_DEGREE: 11.030400
STATION_ELEVATION_M: 5
LOCATION: 
SENSOR_DEPTH_M: 1.0
VS30_M/S: 
SITE_CLASSIFICATION_EC8: C*
MORPHOLOGIC_CLASSIFICATION: 
EPICENTRAL_DISTANCE_KM: 10.7
EARTHQUAKE_BACKAZIMUTH_DEGREE: 164.9
DATE_TIME_FIRST_SAMPLE_YYYYMMDD_HHMMSS: 20120529_065952.000
DATE_TIME_FIRST_SAMPLE_PRECISION: milliseconds
SAMPLING_INTERVAL_S: 0.005000
NDATA: 20001
DURATION_S: 100.005
STREAM: HNN
UNITS: cm/s^2
INSTRUMENT: sensor = Episensor FBA ES-T [Kinemetrics] | digitizer = Unknown [Unknown]
INSTRUMENT_ANALOG/DIGITAL: D
INSTRUMENTAL_FREQUENCY_HZ: 
INSTRUMENTAL_DAMPING: 
FULL_SCALE_G: 
N_BIT_DIGITAL_CONVERTER: 
PGA_CM/S^2: 274.381191
TIME_PGA_S: 22.480000
BASELINE_CORRECTION: BASELINE REMOVED
FILTER_TYPE: BUTTERWORTH
FILTER_ORDER: 2
LOW_CUT_FREQUENCY_HZ: 0.060
HIGH_CUT_FREQUENCY_HZ: 40.000
LATE/NORMAL_TRIGGERED: NT
DATABASE_VERSION: DYNA 1.0
HEADER_FORMAT: DYNA 1.2
DATA_TYPE: ACCELERATION
PROCESSING: manual (Paolucci et al., 2011)
DATA_TIMESTAMP_YYYYMMDD_HHMMSS: 
DATA_LICENSE: CC-BY4_0 (http://creativecommons.org/licenses/by/4.0/)
DATA_CITATION: ESM working group (2015), European Strong-Motion database, version 0.1, Network Activity 3: Networking acceleration networks and SM data users. Project NERA (www.nera-eu.org)
DATA_CREATOR: ESM working group
ORIGINAL_DATA_MEDIATOR_CITATION: Orfeus - European Integrated Data Archive (EIDA) http://www.orfeus-eu.org/eida/
ORIGINAL_DATA_MEDIATOR: Orfeus - European Integrated Data Archive (EIDA)
ORIGINAL_DATA_CREATOR_CITATION: Data for this study comes from the Italian national seismic network operated by Istituto Nazionale di Geofisica e Vulcanologia and archived at the European Integrated Data Archive http://eida.rm.ingv.it/
ORIGINAL_DATA_CREATOR: network: IV (Italian National Seismic Network); owner: Istituto Nazionale di Geofisica e Vulcanologia
USER1: 
USER2: 
USER3: 
USER4: 
USER5: 
[...]
30.889669
22.739834
12.267629
1.087702
-8.786520
-15.475760
-17.862606
-14.531778
-4.369753
11.404504
28.757355
40.406387
36.595345
12.109698
-24.658253
-54.126587
-62.498077
-53.214825
-37.601192
-20.628780
-1.036719
18.880756
30.436155
27.804831
16.538475
8.302162
7.102446
5.405772
-4.333928
-18.310690
-25.389835
-21.551619
-15.835075
-20.619959
-37.747597
-54.120041
-50.691414
-18.772997
28.782539
64.924248
72.880386
60.479950
44.937283
29.751081
4.711517
-32.628170
-64.870377
-70.758797
-49.540813
-21.917952
-6.214761
-1.510075
4.280469
17.561657
33.411835
43.469280
45.870277
45.806404
47.252007
47.175167
39.942249
26.346727
14.541515
9.903648
6.780927
-6.063644
-31.671465
-59.079449
-71.970215
-62.106113
-34.970673
-4.283876
17.697115
26.973396
29.182240
33.984882
44.477577
51.623291
43.495716
20.983803
-1.251757
-11.718514
-15.309512
-24.600838
-41.022732
-52.627483
-50.744331
-41.785927
-37.833324
-38.796154
-30.586996
-2.342158
38.859955
73.659447
87.561226
79.209175
55.377003
24.016277
-6.798428
-28.752298
-36.984371
-33.449566
-23.922583
-11.981988
0.728071
10.677190
14.824778
15.936418
20.728485
31.552830
43.335011
49.783737
48.421829
38.158630
16.760088
-14.231902
-44.295879
-59.876675
-55.684937
-37.349010
-14.204831
8.237505
29.197899
48.186115
61.173992
61.986958
47.662334
21.817724
-7.188416
-30.572142
-42.011337
-38.225670
-19.538269
7.774141
31.115585
38.653996
30.241142
18.754398
16.809902
23.520924
26.596355
16.572601
-3.446109
-22.795710
-35.014069
-41.458755
-44.549606
-42.742805
-33.909286
-20.402782
-8.370744
-2.130890
-0.414092
1.722051
8.057766
17.865765
26.015491
26.101612
14.742295
-5.855647
-28.833490
-46.296207
-53.132561
-48.240376
-32.760242
-8.634362
20.096281
45.742645
58.700397
51.866959
25.390455
-10.307867
-38.785866
-50.245132
-49.543800
-48.618614
-52.088245
-53.910633
-47.566059
-32.889954
-11.221536
18.803976
55.060646
85.584976
96.715942
86.823700
66.787689
49.628429
42.674595
46.063034
53.285484
53.601109
40.673553
20.986650
9.571295
15.254890
31.848749
45.345802
47.642689
41.610497
35.271065
33.924244
37.445091
41.919666
42.657627
37.703163
29.776619
23.978008
22.659164
23.592552
23.973200
24.053913
25.241343
26.154594
23.060358
14.751518
5.208164
0.025634
0.374516
1.230867
-4.126167
-17.643536
-33.520309
-41.505100
-34.835068
-16.052711
5.280989
20.924351
30.470177
39.555134
50.701180
57.551250
52.156021
36.385387
20.889971
13.112773
10.564685
7.498128
4.631257
8.538235
22.117771
38.874439
48.372700
45.635387
33.925972
19.759380
6.412184
-7.379717
-22.171452
-33.157093
-33.840221
-24.499884
-13.948551
-10.707359
-14.291815
-17.324492
-14.790924
-8.242994
-0.787556
7.885837
18.835670
28.384718
28.997627
17.409832
0.732958
-8.168699
-2.822428
10.648473
20.421015
20.776796
15.825914
12.615594
13.323882
15.062682
15.218398
14.612026
15.929473
21.109970
30.000818
39.929596
46.405689
45.968742
39.873520
34.096581
33.850819
37.511902
36.616360
22.846796
-4.052650
-35.394100
-61.044430
-77.091805
-86.278412
-92.876854
-98.395721
-101.916077
-103.652733
-106.853722
-114.907524
-126.668869
-136.062439
-137.745575
-133.195755
-129.889862
-133.497726
-141.822144
-147.640778
-146.564972
-140.850052
-135.868225
-134.115005
-133.258820
-129.533325
-122.168877
-114.075920
-108.636024
-106.480408
-105.587631
-104.258163
-103.354408
-105.001350
-109.609978
-114.974274
-117.649567
-114.800415
-105.920990
-94.038147
-84.710663
-82.116455
-85.727608
-91.279785
-94.529114
-94.125397
-91.819145
-90.109154
-89.343796
-87.191780
-81.208969
-71.926910
-63.231998
-59.414036
-61.257706
-64.297440
-61.411076
-48.743114
-28.764496
-6.498930
15.722861
38.479462
61.651623
83.214775
102.094284
119.525307
136.151062
149.778183
158.415192
164.171143
170.861420
178.151001
181.182037
177.374359
170.200714
162.658722
149.734467
122.187576
79.201752
34.040054
3.342721
-8.484597
-10.988567
-14.552881
-21.100101
-27.564688
-31.951752
-33.848953
-32.113464
-25.324301
-14.329610
-2.541321
5.883389
7.994821
3.940323
-2.165700
-4.114933
2.332985
16.713650
34.616634
49.870422
56.370872
50.424515
33.155273
10.784248
-7.633471
-13.711837
-3.549449
19.570932
46.440842
67.519379
78.502449
81.646423
82.650452
85.722954
90.736145
95.208031
98.360023
101.785194
106.564438
111.550850
115.383469
119.084717
125.246666
134.962418
146.189270
154.874161
157.427719
152.884277
144.111908
136.641617
134.434219
135.969955
135.138443
126.960533
112.559227
97.896255
87.411980
79.089333
65.518555
39.183491
-2.097793
-51.760799
-95.200294
-117.222557
-113.790573
-96.185707
-81.107880
-78.542709
-88.987419
-107.304062
-126.724213
-141.714355
-150.703903
-156.158493
-160.438461
-162.483444
-159.767349
-152.916794
-146.729614
-145.520782
-148.253830
-149.725815
-146.587616
-140.666290
-135.956146
-133.898117
-132.830078
-131.338791
-130.209824
-130.714310
-132.383179
-133.350449
-132.390732
-130.034821
-128.507019
-130.949615
-139.064468
-150.441605
-159.342209
-161.730301
-159.238235
-156.772781
-156.684128
-157.048508
-155.954391
-154.674774
-154.503174
-153.233017
-147.889725
-140.173569
-136.370193
-140.851074
-151.427353
-162.225815
-169.907455
-175.379929
-180.530243
-186.027496
-192.156784
-199.540024
-208.026825
-215.919922
-221.300186
-223.623398
-224.555771
-227.898727
-234.959305
-236.701935
-214.788055
-157.786377
-77.837219
-5.374413
36.457031
49.860260
53.583576
60.464722
69.583923
75.622925
76.253548
71.949989
64.478188
56.133770
48.326889
41.083939
36.303066
39.850246
56.416718
82.815468
109.279442
127.811928
137.397537
141.263931
142.311111
141.847260
140.354813
138.327454
136.416977
134.822968
132.855865
129.659103
125.745094
123.329056
124.390602
128.657913
134.119766
139.340408
144.568787
150.629684
157.525635
164.186462
168.921967
169.782623
164.955246
153.686096
136.517136
113.986137
86.250008
54.878239
24.053148
-0.996535
-16.855179
-23.541208
-24.173899
-23.125834
-23.729740
-26.821524
-30.780676
-33.052979
-31.751247
-25.847376
-14.365732
3.996042
29.800842
61.368282
94.560005
123.460075
141.865356
146.483032
139.541656
127.596550
117.874962
115.237640
120.356758
129.104111
134.680893
132.691757
124.976685
117.909843
116.495674
120.211449
124.705055
127.100166
129.092361
134.501511
144.034515
153.608994
158.681198
159.003677
157.875793
158.154648
160.430283
164.409317
170.722092
180.534958
193.364456
206.294342
216.257874
221.935471
221.264328
207.921677
174.736755
123.047508
66.676003
23.076702
-0.840200
-11.756248
-19.416662
-27.795700
-36.873192
-47.634018
-61.292126
-76.041313
-88.417213
-96.583870
-100.552795
-101.058731
-100.193130
-101.857300
-108.660622
-118.620705
-127.003838
-130.840302
-130.263077
-126.022728
-117.114326
-101.304871
-77.924980
-50.132591
-24.020552
-4.892264
6.202210
12.636381
18.461714
24.273018
27.691103
27.326284
24.613863
22.144871
21.037325
19.439497
12.700315
-3.876223
-29.360741
-54.698288
-69.353378
-71.064629
-67.315636
-66.900101
-71.938110
-78.667320
-83.593636
-87.019470
-91.328835
-97.895844
-106.118187
-114.105072
-119.804726
-122.300751
-122.765633
-123.634850
-126.064224
-128.637970
-128.941345
-125.905418
-120.225670
-113.115555
-105.987968
-101.144341
-100.968391
-105.528770
-111.686279
-115.320335
-113.909630
-107.125061
-96.789726
-86.514030
-79.483620
-75.584579
-71.515091
-64.606750
-55.609299
-47.002750
-40.045864
-34.854328
-32.318420
-33.473244
-37.105263
-40.387596
-42.319920
-45.151924
-51.354633
-59.753834
-66.530273
-71.060379
-78.876938
-94.749031
-110.623749
-105.595566
-67.028671
-9.138341
38.637150
59.596195
60.293228
56.123825
55.347427
58.614277
64.667549
71.677391
77.270622
81.544304
88.471466
100.750343
115.469650
128.090271
138.405533
149.725876
163.270691
176.355591
186.214996
193.098770
199.052338
205.019073
210.055893
212.730713
212.072952
207.170593
196.858826
180.938858
161.714447
143.181854
128.233948
117.396881
110.242691
106.391586
104.838890
103.857185
102.478661
101.695854
103.195854
106.898888
110.587242
111.893196
110.047279
105.692535
99.579987
91.803535
82.236107
71.406952
60.827717
52.830051
49.730186
51.950958
57.001205
61.581264
65.038063
69.556206
76.510628
84.348328
91.024399
97.106903
104.913017
115.041183
125.533150
134.459106
141.886627
149.052048
156.424652
163.115845
167.617920
168.427933
164.201126
153.380676
134.312057
107.833366
79.746414
58.264359
48.124229
47.684582
51.382278
53.904976
52.272999
46.252571
38.380161
32.810253
32.557793
37.278664
44.013908
49.815166
53.368656
54.976978
55.855843
57.245712
59.456989
61.551346
62.416733
62.033962
61.107246
59.619190
56.368744
50.448303
43.267570
38.273422
37.558628
39.106167
38.431026
32.587715
21.677896
6.915787
-11.140294
-31.971485
-53.822586
-73.748962
-88.951920
-98.102333
-101.904480
-103.041191
-104.856934
-108.897018
-113.997513
-118.386353
-122.215721
-127.310539
-134.991455
-145.096100
-156.453949
-167.492584
-177.006165
-185.153687
-193.558502
-203.638702
-214.843613
-225.204941
-233.243393
-238.684372
-241.811691
-242.787476
-241.567429
-238.079422
-232.197784
-223.554977
-211.034546
-192.596497
-167.359970
-138.508301
-112.598633
-94.895706
-85.692734
-81.370224
-77.975121
-73.308228
-66.821487
-59.313671
-53.119743
-50.793816
-52.476692
-55.297199
-55.928257
-53.530113
-49.944172
-47.519711
-47.165489
-47.695580
-46.558971
-41.933327
-34.635277
-27.526100
-22.578701
-19.274235
-16.284796
-13.255667
-10.394745
-7.752405
-5.721885
-5.335973
-6.903155
-9.500198
-13.150317
-19.715025
-30.201717
-42.474743
-53.245365
-61.890736
-70.319031
-79.503593
-88.391418
-96.130630
-103.481033
-111.279167
-118.906288
-125.142525
-129.383102
-131.414581
-130.963852
-128.330765
-124.761635
-121.237938
-117.657501
-113.681557
-109.080162
-102.406525
-90.560616
-71.711700
-48.541302
-26.916111
-11.238177
-1.441686
6.143744
15.206081
25.999008
34.968037
38.292198
36.453255
34.448517
36.415550
41.011936
43.760838
43.558407
44.436680
50.514168
61.288490
72.659492
81.619499
88.892464
97.132088
107.498932
118.292885
126.495842
129.984787
127.267845
115.725342
93.413162
63.572231
34.775581
14.988222
5.993591
3.953043
3.802821
1.880544
-4.482078
-17.256582
-35.748775
-55.026604
-68.373062
-72.672447
-71.201103
-70.306313
-73.341248
-78.272125
-80.523056
-76.329643
-63.468742
-41.795670
-15.127873
9.223585
25.856283
35.739548
43.623173
52.464699
61.765179
70.186485
77.927895
86.073029
94.818283
102.895958
108.467300
111.028778
112.676399
116.728729
124.309380
132.626907
137.705704
138.373062
136.502563
134.182968
131.948135
129.713821
128.196579
128.449875
130.373367
132.380493
132.427582
128.570801
118.683678
101.358658
78.145912
54.011459
34.424561
22.250938
17.458664
18.185675
21.563702
24.788919
26.473354
27.122101
27.796791
28.632713
29.387211
30.699020
33.572639
37.640114
41.265373
43.810684
46.345547
49.456036
51.573967
50.649479
46.881714
42.630882
40.343658
41.644451
47.717609
59.095955
74.427856
89.975609
101.365372
106.471519
106.344849
103.119812
97.605827
88.688309
74.234245
52.904003
25.706125
-3.785695
-30.301756
-48.829224
-57.564846
-59.145687
-58.158382
-57.777130
-58.689270
-59.891811
-59.180687
-53.037788
-38.412773
-16.351185
6.736325
22.652775
26.889147
21.054420
10.697446
1.050365
-5.528247
-9.476311
-13.000709
-18.668705
-27.734398
-39.324661
-51.260914
-61.787777
-70.596474
-78.549271
-86.821770
-96.127266
-106.310936
-116.520866
-125.925247
-134.508911
-143.184631
-152.743622
-162.510406
-170.601135
-176.110245
-180.822403
-187.798615
-197.895599
-208.530502
-216.258209
-219.783463
-219.497299
-214.273895
-200.510834
-175.538116
-141.559555
-105.776634
-76.111259
-55.806988
-41.951424
-29.351229
-15.355866
-0.866399
12.035951
22.055552
28.630241
31.389778
30.497271
27.025045
22.416643
17.999985
15.097080
14.769572
17.069830
20.734453
23.705391
24.251331
21.979612
17.444868
10.577996
0.440941
-12.867365
-26.860153
-38.322407
-46.335308
-52.858932
-60.172325
-68.282295
-75.109459
-78.346817
-76.614296
-70.157791
-61.225700
-53.018650
-47.777061
-45.849327
-46.385426
-48.265549
-50.053600
-49.956619
-46.950634
-42.086861
-37.858772
-35.697315
-34.440750
-31.385733
-24.480623
-13.524174
0.229773
15.030535
29.369860
42.613445
55.257370
68.181488
81.434044
94.132324
105.648895
116.406174
127.215881
138.209320
149.043396
159.854935
171.134094
182.644089
193.226425
202.167709
210.302582
219.149017
229.117722
239.045120
247.593216
254.731140
261.427948
267.969788
273.006409
274.381195
270.690033
261.779144
248.402481
232.667328
216.940201
199.360794
172.335892
129.840378
77.612236
31.943352
4.553179
-7.889804
-17.067575
-30.225485
-46.858334
-64.512535
-82.330200
-99.427406
-114.006088
-124.447479
-129.735245
-129.525009
-125.670448
-123.043686
-125.721428
-130.977982
-128.681854
-108.871246
-70.846275
-24.942270
14.746537
40.433651
54.716255
65.419556
77.355263
89.766174
99.850510
106.111351
108.892036
109.582222
109.755905
110.200233
110.081245
107.643387
102.051018
93.930031
83.596313
69.313774
48.900925
23.060591
-4.198627
-28.207754
-46.142986
-57.797001
-65.129768
-70.973999
-77.095985
-83.128433
-87.696274
-90.704636
-94.203308
-100.661812
-110.769646
-123.495354
-138.013397
-154.755814
-174.107178
-194.536804
-213.401443
-229.166916
-238.068329
-228.152451
-186.117523
-115.205795
-40.598442
9.393274
27.016396
26.940866
27.534424
35.195496
46.346302
57.145615
65.647575
69.418121
66.378021
56.858627
43.359100
29.136791
18.247850
15.368432
22.726070
37.412819
53.272583
65.333641
71.646767
71.903122
66.687820
57.867096
47.715752
37.636513
28.205061
19.894159
13.323330
8.980702
7.059492
7.630255
10.627398
15.263384
19.712843
21.930719
20.603472
15.229809
6.110909
-5.448493
-17.536655
-28.551054
-37.864983
-45.813946
-53.005787
-59.543983
-65.025963
-69.294464
-72.918335
-76.752945
-81.157227
-85.901184
-90.805923
-96.059792
-101.643486
-107.015434
-111.964157
-117.287560
-124.063766
-132.399567
-141.224808
-149.271454
-155.678558
-158.955109
-155.612335
-141.222656
-114.110542
-78.818878
-45.656891
-24.663675
-17.952345
-18.462027
-17.076143
-9.791673
1.531371
12.667013
20.552219
24.739576
26.621628
27.484518
27.261248
25.474697
22.875456
21.075857
20.660267
20.360012
18.221840
13.103583
4.990589
-5.089295
-14.957244
-21.856522
-23.840014
-20.847788
-14.579725
-7.051534
1.044835
10.249466
20.713575
31.320505
40.466476
47.327999
52.223644
55.965107
58.915092
60.041111
56.345711
44.286720
23.779303
0.747755
-16.339567
-23.028461
-21.508568
-17.458557
-15.166496
-15.571561
-17.711304
-20.687599
-24.230106
-28.265547
-32.649693
-37.439190
-43.315937
-51.438011
-62.361031
-75.095131
-87.589668
-97.941650
-104.917847
-107.867760
-106.678497
-101.993118
-95.331039
-88.616447
-83.506790
-80.963737
-80.915451
-82.265938
-83.759460
-85.124763
-87.104340
-90.323853
-94.487129
-98.655754
-101.979507
-104.073914
-104.999802
-105.200874
-105.267143
-105.441406
-105.495735
-105.206955
-104.680176
-103.925301
-102.315109
-98.864937
-92.689003
-82.758026
-68.031631
-48.840965
-28.060619
-10.118937
1.842088
8.129072
11.825720
16.004702
21.862959
29.080667
36.878353
44.491852
51.272881
56.903774
61.497971
65.351074
68.721420
71.616547
73.382637
72.656509
68.057663
59.220856
47.273170
34.204845
21.975254
12.278322
6.422435
4.582522
5.284363
6.209318
5.571704
2.818194
-1.495571
-6.157859
-9.785715
-11.321703
-10.269340
-6.444817
0.475607
10.927292
24.423470
38.812847
51.427734
60.840542
67.139732
71.014160
73.257057
74.913200
77.036522
80.065628
83.815048
88.293320
94.202240
102.125092
111.462982
120.814774
129.367813
137.230972
144.064560
147.746231
144.667145
131.859436
109.568504
81.731918
53.819584
30.058018
11.886905
-1.727577
-12.496663
-20.751312
-24.009974
-17.644524
0.475811
25.370903
47.180248
58.824905
60.972393
59.687214
60.291756
63.701542
67.442108
68.734062
65.989044
57.983353
42.880882
19.655167
-8.700293
-34.877563
-52.387833
-60.664650
-64.086723
-67.266556
-71.978752
-77.349602
-81.685692
-83.830109
-83.616486
-81.735687
-79.261353
-77.463547
-77.850349
-81.689354
-89.300621
-99.782410
-111.112228
-121.180000
-129.148331
-133.694382
-128.498566
-103.041862
-53.558769
7.183762
56.878525
81.777176
85.762535
82.840462
83.892822
91.362923
102.029572
110.321053
110.791954
101.067619
83.665894
65.014534
52.481731
51.361233
62.666862
82.551453
104.207970
121.339920
130.949661
133.537476
131.219925
126.248146
120.541702
115.144043
109.934097
104.184746
97.173203
88.175423
76.562645
62.818535
49.342697
39.302925
34.173878
32.875965
33.547863
35.203712
37.596741
40.662495
44.684937
50.627747
59.398140
70.450317
81.499046
89.756462
93.619698
93.574730
91.314651
87.553467
81.124718
70.807655
57.800934
45.750896
37.989559
34.818851
33.728886
32.150936
29.479404
26.650620
24.691360
23.972342
24.376080
25.558525
26.823000
26.981161
24.731533
19.376352
11.274982
1.726893
-7.827136
-16.809418
-25.640999
-34.892838
-44.563499
-54.214561
-63.525806
-72.423523
-80.729813
-88.039200
-94.017975
-98.655243
-102.219963
-104.941078
-106.632103
-106.643486
-103.956779
-97.153893
-84.490173
-64.770576
-39.563686
-14.351663
4.378085
13.821151
16.181383
15.620106
14.780571
14.040683
12.765315
10.203785
5.313491
-2.932552
-14.378345
-27.274719
-39.370399
-49.604343
-58.882759
-69.238731
-82.011520
-96.366096
-109.609314
-119.196335
-123.352585
-119.015457
-101.475548
-68.912720
-27.603148
9.251933
30.134321
33.788609
28.704563
23.982433
22.246252
20.580256
15.169318
4.431515
-10.429227
-26.182531
-38.809914
-45.220158
-44.917831
-40.249996
-34.727856
-30.896341
-29.048861
-27.060526
-21.516802
-9.914936
7.062432
25.234867
39.598675
47.590557
49.860592
48.609802
45.793591
42.514854
39.239723
35.943165
31.968084
26.432215
19.344309
12.233958
7.407715
6.263318
7.993251
9.986140
9.840987
7.116985
3.273661
0.216620
