EVENT_NAME: EMILIA_2ND_SHOCK
EVENT_ID: IT-2012-0011
EVENT_DATE_YYYYMMDD: 20120529
EVENT_TIME_HHMMSS: 070002
EVENT_LATITUDE_DEGREE: 44.8417
EVENT_LONGITUDE_DEGREE: 11.0657
EVENT_DEPTH_KM: 8.1
HYPOCENTER_REFERENCE: INGV-CNT_Seismic_Bulletin
MAGNITUDE_W: 6.0
MAGNITUDE_W_REFERENCE: RCMT-INGV
MAGNITUDE_L: 5.8
MAGNITUDE_L_REFERENCE: INGV-CNT_Seismic_Bulletin
FOCAL_MECHANISM: TF
NETWORK: IV
STATION_CODE: T0824
STATION_NAME: T0824
STATION_LATITUDE_DEGREE: 44.759400
STATION_LONGITUDE_DEGREE: 10.927600
STATION_ELEVATION_M: 72
LOCATION: 
SENSOR_DEPTH_M: 1.0
VS30_M/S: 
SITE_CLASSIFICATION_EC8: C*
MORPHOLOGIC_CLASSIFICATION: 
EPICENTRAL_DISTANCE_KM: 14.2
EARTHQUAKE_BACKAZIMUTH_DEGREE: 50.0
DATE_TIME_FIRST_SAMPLE_YYYYMMDD_HHMMSS: 20120529_065943.000
DATE_TIME_FIRST_SAMPLE_PRECISION: milliseconds
SAMPLING_INTERVAL_S: 0.005000
NDATA: 22001
DURATION_S: 110.005
STREAM: HNZ
UNITS: cm
INSTRUMENT: sensor = Episensor FBA ES-T [Kinemetrics] | digitizer = Unknown [Unknown]
INSTRUMENT_ANALOG/DIGITAL: D
INSTRUMENTAL_FREQUENCY_HZ: 
INSTRUMENTAL_DAMPING: 
FULL_SCALE_G: 
N_BIT_DIGITAL_CONVERTER: 
PGD_CM: -0.842715
TIME_PGD_S: 35.050000
BASELINE_CORRECTION: BASELINE REMOVED
FILTER_TYPE: BUTTERWORTH
FILTER_ORDER: 2
LOW_CUT_FREQUENCY_HZ: 0.100
HIGH_CUT_FREQUENCY_HZ: 40.000
LATE/NORMAL_TRIGGERED: NT
DATABASE_VERSION: DYNA 1.0
HEADER_FORMAT: DYNA 1.2
DATA_TYPE: DISPLACEMENT
PROCESSING: manual (Paolucci et al., 2011)
DATA_TIMESTAMP_YYYYMMDD_HHMMSS: 
DATA_LICENSE: CC-BY4_0 (http://creativecommons.org/licenses/by/4.0/)
DATA_CITATION: ESM working group (2015), European Strong-Motion database, version 0.1, Network Activity 3: Networking acceleration networks and SM data users. Project NERA (www.nera-eu.org)
DATA_CREATOR: ESM working group
ORIGINAL_DATA_MEDIATOR_CITATION: Orfeus - European Integrated Data Archive (EIDA) http://www.orfeus-eu.org/eida/
ORIGINAL_DATA_MEDIATOR: Orfeus - European Integrated Data Archive (EIDA)
ORIGINAL_DATA_CREATOR_CITATION: Data for this study comes from the Italian national seismic network operated by Istituto Nazionale di Geofisica e Vulcanologia and archived at the European Integrated Data Archive http://eida.rm.ingv.it/
ORIGINAL_DATA_CREATOR: network: IV (Italian National Seismic Network); owner: Istituto Nazionale di Geofisica e Vulcanologia
USER1: 
USER2: 
USER3: 
USER4: 
USER5: 
[...]
-5.860913e-02
-5.648408e-02
-5.504596e-02
-5.398319e-02
-5.304406e-02
-5.216849e-02
-5.148474e-02
-5.117932e-02
-5.136376e-02
-5.205420e-02
-5.325838e-02
-5.506472e-02
-5.764414e-02
-6.117284e-02
-6.575388e-02
-7.138861e-02
-7.798044e-02
-8.533563e-02
-9.316055e-02
-1.010827e-01
-1.087117e-01
-1.157191e-01
-1.218927e-01
-1.271536e-01
-1.315504e-01
-1.352365e-01
-1.384244e-01
-1.413249e-01
-1.440751e-01
-1.466565e-01
-1.488711e-01
-1.504495e-01
-1.512442e-01
-1.513357e-01
-1.509420e-01
-1.502188e-01
-1.491360e-01
-1.475072e-01
-1.450926e-01
-1.416784e-01
-1.371164e-01
-1.313582e-01
-1.244855e-01
-1.166962e-01
-1.082190e-01
-9.921027e-02
-8.972885e-02
-7.982423e-02
-6.964731e-02
-5.945863e-02
-4.951858e-02
-3.997685e-02
-3.087437e-02
-2.223661e-02
-1.413921e-02
-6.677946e-03
1.028911e-04
6.230094e-03
1.174900e-02
1.666083e-02
2.091937e-02
2.449656e-02
2.746493e-02
3.003272e-02
3.250078e-02
3.514852e-02
3.809597e-02
4.123024e-02
4.426636e-02
4.691514e-02
4.904183e-02
5.071254e-02
5.211947e-02
5.345278e-02
5.481490e-02
5.624455e-02
5.781710e-02
5.969949e-02
6.208019e-02
6.503822e-02
6.849480e-02
7.230170e-02
7.637708e-02
8.077503e-02
8.566091e-02
9.123730e-02
9.766071e-02
1.049681e-01
1.130484e-01
1.216923e-01
1.306961e-01
1.399464e-01
1.494353e-01
1.592242e-01
1.693850e-01
1.799340e-01
1.907829e-01
2.017428e-01
2.125858e-01
2.231117e-01
2.331772e-01
2.426961e-01
2.516325e-01
2.599919e-01
2.678061e-01
2.751213e-01
2.820002e-01
2.885329e-01
2.948393e-01
3.010499e-01
3.072613e-01
3.134765e-01
3.195563e-01
3.252201e-01
3.301074e-01
3.338725e-01
3.362807e-01
3.372859e-01
3.370543e-01
3.359032e-01
3.341958e-01
3.322560e-01
3.303339e-01
3.286061e-01
3.271879e-01
3.261497e-01
3.255421e-01
3.254009e-01
3.256969e-01
3.262651e-01
3.268087e-01
3.270118e-01
3.266823e-01
3.258229e-01
3.246060e-01
3.232925e-01
3.221359e-01
3.212911e-01
3.207638e-01
3.204360e-01
3.201419e-01
3.197027e-01
3.188901e-01
3.174071e-01
3.149766e-01
3.115071e-01
3.072040e-01
3.025341e-01
2.980600e-01
2.942484e-01
2.913481e-01
2.893685e-01
2.881418e-01
2.874372e-01
2.870663e-01
2.869044e-01
2.868339e-01
2.866980e-01
2.863234e-01
2.855772e-01
2.843946e-01
2.827641e-01
2.807057e-01
2.782609e-01
2.754928e-01
2.725003e-01
2.694375e-01
2.664970e-01
2.638244e-01
2.614113e-01
2.590737e-01
2.565695e-01
2.537848e-01
2.508481e-01
2.480835e-01
2.458569e-01
2.444586e-01
2.440918e-01
2.448999e-01
2.469427e-01
2.501303e-01
2.541957e-01
2.587737e-01
2.635534e-01
2.683992e-01
2.733521e-01
2.785286e-01
2.840109e-01
2.898035e-01
2.958547e-01
3.020926e-01
3.084394e-01
3.148192e-01
3.211777e-01
3.275050e-01
3.338321e-01
3.401968e-01
3.466061e-01
3.530210e-01
3.593604e-01
3.655086e-01
3.713287e-01
3.766889e-01
3.814946e-01
3.857176e-01
3.894136e-01
3.927082e-01
3.957364e-01
3.985724e-01
4.012143e-01
4.036338e-01
4.058217e-01
4.077787e-01
4.094991e-01
4.110188e-01
4.125063e-01
4.142831e-01
4.167101e-01
4.200073e-01
4.241399e-01
4.288475e-01
4.337778e-01
4.386242e-01
4.431892e-01
4.473631e-01
4.510775e-01
4.542979e-01
4.570594e-01
4.594795e-01
4.617049e-01
4.638265e-01
4.658297e-01
4.676056e-01
4.690029e-01
4.698887e-01
4.701962e-01
4.699465e-01
4.692440e-01
4.682470e-01
4.671208e-01
4.659998e-01
4.649714e-01
4.640763e-01
4.633084e-01
4.626267e-01
4.619931e-01
4.614245e-01
4.610122e-01
4.608773e-01
4.610840e-01
4.615732e-01
4.621740e-01
4.626993e-01
4.630747e-01
4.634132e-01
4.639839e-01
4.650951e-01
4.669609e-01
4.696294e-01
4.730037e-01
4.769216e-01
4.812098e-01
4.856752e-01
4.900740e-01
4.941111e-01
4.974820e-01
4.999388e-01
5.013511e-01
5.017447e-01
5.013059e-01
5.003395e-01
4.991782e-01
4.980739e-01
4.971177e-01
4.962206e-01
4.951585e-01
4.936610e-01
4.915089e-01
4.886119e-01
4.850563e-01
4.811098e-01
4.771517e-01
4.735367e-01
4.704837e-01
4.680809e-01
4.663807e-01
4.654658e-01
4.654027e-01
4.661358e-01
4.674503e-01
4.690577e-01
4.707315e-01
4.723852e-01
4.740573e-01
4.758383e-01
4.777945e-01
4.799340e-01
4.822339e-01
4.846960e-01
4.873763e-01
4.903603e-01
4.937173e-01
4.974736e-01
5.016031e-01
5.060079e-01
5.104964e-01
5.147993e-01
5.186358e-01
5.217957e-01
5.241971e-01
5.258940e-01
5.270450e-01
5.278710e-01
5.286098e-01
5.294585e-01
5.305167e-01
5.317690e-01
5.331293e-01
5.345209e-01
5.359352e-01
5.374245e-01
5.390366e-01
5.407534e-01
5.424928e-01
5.441784e-01
5.458121e-01
5.474769e-01
5.492597e-01
5.511656e-01
5.531017e-01
5.549353e-01
5.565754e-01
5.580290e-01
5.594118e-01
5.609052e-01
5.626681e-01
5.647645e-01
5.671638e-01
5.698033e-01
5.726350e-01
5.756085e-01
5.786216e-01
5.815021e-01
5.840496e-01
5.861045e-01
5.875986e-01
5.885612e-01
5.890741e-01
5.891976e-01
5.889207e-01
5.881754e-01
5.868985e-01
5.850820e-01
5.827745e-01
5.800499e-01
5.769740e-01
5.735923e-01
5.699457e-01
5.660958e-01
5.621387e-01
5.581967e-01
5.544063e-01
5.509080e-01
5.478204e-01
5.451893e-01
5.429440e-01
5.409147e-01
5.389089e-01
5.367813e-01
5.344471e-01
5.318574e-01
5.289746e-01
5.257587e-01
5.221654e-01
5.181551e-01
5.137158e-01
5.088884e-01
5.037815e-01
4.985734e-01
4.935039e-01
4.888475e-01
4.848674e-01
4.817613e-01
4.796184e-01
4.783939e-01
4.779106e-01
4.778955e-01
4.780433e-01
4.780842e-01
4.778359e-01
4.772113e-01
4.761844e-01
4.747512e-01
4.729178e-01
4.707193e-01
4.682466e-01
4.656574e-01
4.631562e-01
4.609425e-01
4.591480e-01
4.578011e-01
4.568444e-01
4.561905e-01
4.557738e-01
4.555698e-01
4.555857e-01
4.558355e-01
4.563106e-01
4.569612e-01
4.576981e-01
4.584042e-01
4.589420e-01
4.591580e-01
4.588963e-01
4.580312e-01
4.565161e-01
4.544282e-01
4.519691e-01
4.494059e-01
4.469860e-01
4.448809e-01
4.431744e-01
4.418845e-01
4.409910e-01
4.404491e-01
4.401880e-01
4.401123e-01
4.401145e-01
4.400899e-01
4.399403e-01
4.395795e-01
4.389690e-01
4.381777e-01
4.374109e-01
4.369703e-01
4.371582e-01
4.381683e-01
4.400022e-01
4.424556e-01
4.451929e-01
4.478629e-01
4.501888e-01
4.520097e-01
4.532863e-01
4.540845e-01
4.545470e-01
4.548515e-01
4.551545e-01
4.555394e-01
4.559966e-01
4.564407e-01
4.567522e-01
4.568199e-01
4.565700e-01
4.559705e-01
4.550186e-01
4.537289e-01
4.521313e-01
4.502613e-01
4.481424e-01
4.457757e-01
4.431531e-01
4.402843e-01
4.372173e-01
4.340452e-01
4.308962e-01
4.279010e-01
4.251502e-01
4.226666e-01
4.204096e-01
4.183065e-01
4.162895e-01
4.143199e-01
4.123898e-01
4.105166e-01
4.087495e-01
4.071806e-01
4.059318e-01
4.051013e-01
4.046998e-01
4.046286e-01
4.047248e-01
4.048428e-01
4.049098e-01
4.049210e-01
4.048932e-01
4.048324e-01
4.047410e-01
4.046464e-01
4.046033e-01
4.046610e-01
4.048341e-01
4.051100e-01
4.054751e-01
4.059169e-01
4.063911e-01
4.067955e-01
4.069866e-01
4.068346e-01
4.062687e-01
4.052828e-01
4.039107e-01
4.021980e-01
4.001813e-01
3.978756e-01
3.952731e-01
3.923514e-01
3.890781e-01
3.854101e-01
3.813102e-01
3.767929e-01
3.719621e-01
3.669911e-01
3.620529e-01
3.572635e-01
3.526695e-01
3.482593e-01
3.439779e-01
3.397799e-01
3.357205e-01
3.319848e-01
3.287827e-01
3.261917e-01
3.241130e-01
3.223809e-01
3.208860e-01
3.195949e-01
3.184952e-01
3.175567e-01
3.167268e-01
3.159274e-01
3.150534e-01
3.139977e-01
3.126872e-01
3.110939e-01
3.092103e-01
3.070145e-01
3.044478e-01
3.014108e-01
2.977870e-01
2.934844e-01
2.884697e-01
2.827814e-01
2.765365e-01
2.699451e-01
2.633004e-01
2.569146e-01
2.510344e-01
2.457971e-01
2.412363e-01
2.373032e-01
2.338855e-01
2.308354e-01
2.280152e-01
2.253391e-01
2.227841e-01
2.203738e-01
2.181682e-01
2.162676e-01
2.148136e-01
2.139738e-01
2.139117e-01
2.147462e-01
2.165059e-01
2.191002e-01
2.223227e-01
2.258970e-01
2.295527e-01
2.330984e-01
2.364524e-01
2.396207e-01
2.426408e-01
2.455306e-01
2.482736e-01
2.508511e-01
2.532927e-01
2.557002e-01
2.582128e-01
2.609362e-01
2.639002e-01
2.670779e-01
2.704320e-01
2.739295e-01
2.775158e-01
2.810903e-01
2.845144e-01
2.876389e-01
2.903283e-01
2.924772e-01
2.940194e-01
2.949236e-01
2.951760e-01
2.947711e-01
2.937208e-01
2.920685e-01
2.898914e-01
2.872856e-01
2.843425e-01
2.811328e-01
2.777044e-01
2.740902e-01
2.703202e-01
2.664356e-01
2.625017e-01
2.586081e-01
2.548477e-01
2.512933e-01
2.479897e-01
2.449576e-01
2.421897e-01
2.396424e-01
2.372420e-01
2.349106e-01
2.325940e-01
2.302682e-01
2.279294e-01
2.255782e-01
2.232014e-01
2.207512e-01
2.181380e-01
2.152534e-01
2.120112e-01
2.083719e-01
2.043343e-01
1.999187e-01
1.951681e-01
1.901682e-01
1.850594e-01
1.800181e-01
1.752104e-01
1.707409e-01
1.666194e-01
1.627590e-01
1.590167e-01
1.552631e-01
1.514328e-01
1.475147e-01
1.435014e-01
1.393569e-01
1.350375e-01
1.305360e-01
1.258983e-01
1.211969e-01
1.164893e-01
1.117966e-01
1.071090e-01
1.024022e-01
9.764579e-02
9.280230e-02
8.783049e-02
8.270471e-02
7.743771e-02
7.207910e-02
6.667853e-02
6.123950e-02
5.570366e-02
4.997808e-02
4.398348e-02
3.769244e-02
3.114107e-02
2.441470e-02
1.761522e-02
1.082131e-02
4.054817e-03
-2.730447e-03
-9.625560e-03
-1.671507e-02
-2.402420e-02
-3.149692e-02
-3.901709e-02
-4.645509e-02
-5.370763e-02
-6.071146e-02
-6.743866e-02
-7.389109e-02
-8.009394e-02
-8.608003e-02
-9.187312e-02
-9.748894e-02
-1.029512e-01
-1.082952e-01
-1.135430e-01
-1.186694e-01
-1.235912e-01
-1.281972e-01
-1.323995e-01
-1.361701e-01
-1.395412e-01
-1.425834e-01
-1.453880e-01
-1.480631e-01
-1.507326e-01
-1.535142e-01
-1.564775e-01
-1.596147e-01
-1.628519e-01
-1.660928e-01
-1.692600e-01
-1.723147e-01
-1.752548e-01
-1.780985e-01
-1.808654e-01
-1.835640e-01
-1.861961e-01
-1.887714e-01
-1.913146e-01
-1.938431e-01
-1.963275e-01
-1.986721e-01
-2.007417e-01
-2.024198e-01
-2.036596e-01
-2.045027e-01
-2.050627e-01
-2.054885e-01
-2.059261e-01
-2.064897e-01
-2.072488e-01
-2.082328e-01
-2.094471e-01
-2.108883e-01
-2.125482e-01
-2.144071e-01
-2.164292e-01
-2.185682e-01
-2.207860e-01
-2.230659e-01
-2.254109e-01
-2.278319e-01
-2.303416e-01
-2.329602e-01
-2.357224e-01
-2.386757e-01
-2.418663e-01
-2.453171e-01
-2.490080e-01
-2.528694e-01
-2.568015e-01
-2.607129e-01
-2.645520e-01
-2.683063e-01
-2.719779e-01
-2.755570e-01
-2.790129e-01
-2.823005e-01
-2.853724e-01
-2.881879e-01
-2.907172e-01
-2.929479e-01
-2.949001e-01
-2.966417e-01
-2.982891e-01
-2.999921e-01
-3.019104e-01
-3.041835e-01
-3.068999e-01
-3.100763e-01
-3.136657e-01
-3.175918e-01
-3.217919e-01
-3.262399e-01
-3.309398e-01
-3.359032e-01
-3.411246e-01
-3.465640e-01
-3.521350e-01
-3.577068e-01
-3.631253e-01
-3.682478e-01
-3.729759e-01
-3.772751e-01
-3.811775e-01
-3.847664e-01
-3.881469e-01
-3.914144e-01
-3.946304e-01
-3.978180e-01
-4.009741e-01
-4.040888e-01
-4.071582e-01
-4.101860e-01
-4.131742e-01
-4.161119e-01
-4.189741e-01
-4.217367e-01
-4.243969e-01
-4.269807e-01
-4.295312e-01
-4.320852e-01
-4.346536e-01
-4.372146e-01
-4.397239e-01
-4.421358e-01
-4.444290e-01
-4.466223e-01
-4.487669e-01
-4.509171e-01
-4.530998e-01
-4.553083e-01
-4.575241e-01
-4.597438e-01
-4.619906e-01
-4.643125e-01
-4.667736e-01
-4.694418e-01
-4.723691e-01
-4.755746e-01
-4.790388e-01
-4.827084e-01
-4.865088e-01
-4.903623e-01
-4.942094e-01
-4.980273e-01
-5.018421e-01
-5.057294e-01
-5.097972e-01
-5.141533e-01
-5.188664e-01
-5.239389e-01
-5.293072e-01
-5.348722e-01
-5.405416e-01
-5.462559e-01
-5.519889e-01
-5.577356e-01
-5.635031e-01
-5.693051e-01
-5.751585e-01
-5.810749e-01
-5.870449e-01
-5.930233e-01
-5.989300e-01
-6.046694e-01
-6.101623e-01
-6.153737e-01
-6.203278e-01
-6.251074e-01
-6.298443e-01
-6.347006e-01
-6.398355e-01
-6.453632e-01
-6.513184e-01
-6.576452e-01
-6.642113e-01
-6.708411e-01
-6.773538e-01
-6.835922e-01
-6.894366e-01
-6.948089e-01
-6.996663e-01
-7.039855e-01
-7.077496e-01
-7.109461e-01
-7.135799e-01
-7.156863e-01
-7.173324e-01
-7.186072e-01
-7.196072e-01
-7.204217e-01
-7.211249e-01
-7.217740e-01
-7.224085e-01
-7.230482e-01
-7.236930e-01
-7.243281e-01
-7.249315e-01
-7.254832e-01
-7.259751e-01
-7.264224e-01
-7.268672e-01
-7.273652e-01
-7.279613e-01
-7.286731e-01
-7.294965e-01
-7.304219e-01
-7.314432e-01
-7.325572e-01
-7.337637e-01
-7.350684e-01
-7.364839e-01
-7.380207e-01
-7.396759e-01
-7.414280e-01
-7.432448e-01
-7.450955e-01
-7.469589e-01
-7.488271e-01
-7.507080e-01
-7.526279e-01
-7.546291e-01
-7.567584e-01
-7.590567e-01
-7.615530e-01
-7.642617e-01
-7.671780e-01
-7.702745e-01
-7.734992e-01
-7.767849e-01
-7.800715e-01
-7.833330e-01
-7.865872e-01
-7.898772e-01
-7.932382e-01
-7.966730e-01
-8.001501e-01
-8.036219e-01
-8.070498e-01
-8.104162e-01
-8.137176e-01
-8.169436e-01
-8.200606e-01
-8.230096e-01
-8.257166e-01
-8.281092e-01
-8.301389e-01
-8.318038e-01
-8.331565e-01
-8.342909e-01
-8.353140e-01
-8.363168e-01
-8.373553e-01
-8.384412e-01
-8.395416e-01
-8.405862e-01
-8.414883e-01
-8.421708e-01
-8.425854e-01
-8.427148e-01
-8.425668e-01
-8.421688e-01
-8.415650e-01
-8.408129e-01
-8.399778e-01
-8.391260e-01
-8.383205e-01
-8.376193e-01
-8.370676e-01
-8.366868e-01
-8.364673e-01
-8.363745e-01
-8.363628e-01
-8.363903e-01
-8.364218e-01
-8.364233e-01
-8.363510e-01
-8.361449e-01
-8.357362e-01
-8.350658e-01
-8.341019e-01
-8.328409e-01
-8.312943e-01
-8.294788e-01
-8.274218e-01
-8.251698e-01
-8.227838e-01
-8.203225e-01
-8.178287e-01
-8.153288e-01
-8.128405e-01
-8.103782e-01
-8.079562e-01
-8.055862e-01
-8.032658e-01
-8.009647e-01
-7.986231e-01
-7.961728e-01
-7.935676e-01
-7.908010e-01
-7.879064e-01
-7.849441e-01
-7.819821e-01
-7.790770e-01
-7.762604e-01
-7.735415e-01
-7.709223e-01
-7.684191e-01
-7.660729e-01
-7.639427e-01
-7.620819e-01
-7.605129e-01
-7.592118e-01
-7.581139e-01
-7.571370e-01
-7.562118e-01
-7.553004e-01
-7.543940e-01
-7.535003e-01
-7.526321e-01
-7.518051e-01
-7.510398e-01
-7.503638e-01
-7.498104e-01
-7.494126e-01
-7.491930e-01
-7.491547e-01
-7.492783e-01
-7.495219e-01
-7.498172e-01
-7.500654e-01
-7.501443e-01
-7.499303e-01
-7.493264e-01
-7.482813e-01
-7.467927e-01
-7.448978e-01
-7.426629e-01
-7.401745e-01
-7.375311e-01
-7.348318e-01
-7.321661e-01
-7.296035e-01
-7.271872e-01
-7.249299e-01
-7.228107e-01
-7.207723e-01
-7.187239e-01
-7.165534e-01
-7.141513e-01
-7.114437e-01
-7.084179e-01
-7.051220e-01
-7.016379e-01
-6.980474e-01
-6.944076e-01
-6.907445e-01
-6.870602e-01
-6.833459e-01
-6.795930e-01
-6.757962e-01
-6.719506e-01
-6.680512e-01
-6.640986e-01
-6.601066e-01
-6.561039e-01
-6.521299e-01
-6.482282e-01
-6.444410e-01
-6.408049e-01
-6.373462e-01
-6.340783e-01
-6.309991e-01
-6.280891e-01
-6.253142e-01
-6.226330e-01
-6.200057e-01
-6.174016e-01
-6.148043e-01
-6.122151e-01
-6.096533e-01
-6.071501e-01
-6.047351e-01
-6.024242e-01
-6.002184e-01
-5.981140e-01
-5.961136e-01
-5.942282e-01
-5.924718e-01
-5.908531e-01
-5.893667e-01
-5.879897e-01
-5.866839e-01
-5.854074e-01
-5.841286e-01
-5.828372e-01
-5.815485e-01
-5.802989e-01
-5.791302e-01
-5.780727e-01
-5.771352e-01
-5.763090e-01
-5.755779e-01
-5.749253e-01
-5.743340e-01
-5.737819e-01
-5.732435e-01
-5.726939e-01
-5.721128e-01
-5.714835e-01
-5.707926e-01
-5.700315e-01
-5.691950e-01
-5.682759e-01
-5.672547e-01
-5.660933e-01
-5.647372e-01
-5.631287e-01
-5.612246e-01
-5.590104e-01
-5.565027e-01
-5.537402e-01
-5.507725e-01
-5.476511e-01
-5.444262e-01
-5.411429e-01
-5.378400e-01
-5.345535e-01
-5.313202e-01
-5.281764e-01
-5.251476e-01
-5.222357e-01
-5.194144e-01
-5.166354e-01
-5.138429e-01
-5.109880e-01
-5.080352e-01
-5.049591e-01
-5.017367e-01
-4.983414e-01
-4.947432e-01
-4.909171e-01
-4.868522e-01
-4.825561e-01
-4.780517e-01
-4.733652e-01
-4.685113e-01
-4.634868e-01
-4.582769e-01
-4.528694e-01
-4.472632e-01
-4.414691e-01
-4.355077e-01
-4.294082e-01
-4.232069e-01
-4.169425e-01
-4.106531e-01
-4.043746e-01
-3.981405e-01
-3.919790e-01
-3.859067e-01
-3.799246e-01
-3.740204e-01
-3.681785e-01
-3.623908e-01
-3.566608e-01
-3.509953e-01
-3.453936e-01
-3.398396e-01
-3.343036e-01
-3.287517e-01
-3.231591e-01
-3.175239e-01
-3.118728e-01
-3.062566e-01
-3.007362e-01
-2.953707e-01
-2.902113e-01
-2.852998e-01
-2.806669e-01
-2.763322e-01
-2.723053e-01
-2.685883e-01
-2.651795e-01
-2.620732e-01
-2.592536e-01
-2.566869e-01
-2.543220e-01
-2.521005e-01
-2.499656e-01
-2.478612e-01
-2.457255e-01
-2.434932e-01
-2.411091e-01
-2.385408e-01
-2.357800e-01
-2.328303e-01
-2.296923e-01
-2.263576e-01
-2.228148e-01
-2.190613e-01
-2.151120e-01
-2.110012e-01
-2.067768e-01
-2.024913e-01
-1.981956e-01
-1.939368e-01
-1.897547e-01
-1.856765e-01
-1.817107e-01
-1.778464e-01
-1.740534e-01
-1.702860e-01
-1.664906e-01
-1.626196e-01
-1.586419e-01
-1.545465e-01
-1.503401e-01
-1.460409e-01
-1.416726e-01
-1.372563e-01
-1.328077e-01
-1.283407e-01
-1.238733e-01
-1.194274e-01
-1.150223e-01
-1.106674e-01
-1.063598e-01
-1.020832e-01
-9.780605e-02
-9.348059e-02
-8.904580e-02
-8.443655e-02
-7.959765e-02
-7.449830e-02
-6.913909e-02
-6.354649e-02
-5.776095e-02
-5.182750e-02
-4.579204e-02
-3.970053e-02
-3.359702e-02
-2.751705e-02
-2.147783e-02
-1.547115e-02
-9.464502e-03
-3.411251e-03
2.733882e-03
9.000854e-03
1.539650e-02
2.190266e-02
2.847846e-02
3.506707e-02
4.160743e-02
4.804909e-02
5.436680e-02
6.056889e-02
6.669381e-02
7.279534e-02
7.892465e-02
8.511562e-02
9.137352e-02
9.766900e-02
1.039425e-01
1.101194e-01
1.161306e-01
1.219328e-01
1.275193e-01
1.329169e-01
1.381713e-01
1.433314e-01
1.484398e-01
1.535296e-01
1.586218e-01
1.637179e-01
1.687920e-01
1.737957e-01
1.786750e-01
1.833920e-01
1.879382e-01
1.923357e-01
1.966292e-01
2.008725e-01
2.051184e-01
2.094140e-01
2.137989e-01
2.183043e-01
2.229555e-01
2.277754e-01
2.327874e-01
2.380118e-01
2.434576e-01
2.491153e-01
2.549576e-01
2.609468e-01
2.670419e-01
2.732009e-01
2.793796e-01
2.855323e-01
2.916180e-01
2.976055e-01
3.034757e-01
3.092200e-01
3.148355e-01
3.203243e-01
3.256959e-01
3.309687e-01
3.361668e-01
3.413101e-01
3.464049e-01
3.514461e-01
3.564294e-01
3.613613e-01
3.662590e-01
3.711425e-01
3.760285e-01
3.809300e-01
3.858547e-01
3.908020e-01
3.957629e-01
4.007239e-01
4.056719e-01
4.105975e-01
4.154923e-01
4.203414e-01
4.251142e-01
4.297614e-01
4.342236e-01
4.384461e-01
4.423923e-01
4.460501e-01
4.494321e-01
4.525720e-01
4.555202e-01
4.583416e-01
4.611108e-01
4.639009e-01
4.667710e-01
4.697560e-01
4.728627e-01
4.760732e-01
4.793525e-01
4.826586e-01
4.859540e-01
4.892157e-01
