EVENT_NAME: EMILIA_2ND_SHOCK
EVENT_ID: IT-2012-0011
EVENT_DATE_YYYYMMDD: 20120529
EVENT_TIME_HHMMSS: 070002
EVENT_LATITUDE_DEGREE: 44.8417
EVENT_LONGITUDE_DEGREE: 11.0657
EVENT_DEPTH_KM: 8.1
HYPOCENTER_REFERENCE: INGV-CNT_Seismic_Bulletin
MAGNITUDE_W: 6.0
MAGNITUDE_W_REFERENCE: RCMT-INGV
MAGNITUDE_L: 5.8
MAGNITUDE_L_REFERENCE: INGV-CNT_Seismic_Bulletin
FOCAL_MECHANISM: TF
NETWORK: IV
STATION_CODE: T0824
STATION_NAME: T0824
STATION_LATITUDE_DEGREE: 44.759400
STATION_LONGITUDE_DEGREE: 10.927600
STATION_ELEVATION_M: 72
LOCATION: 
SENSOR_DEPTH_M: 1.0
VS30_M/S: 
SITE_CLASSIFICATION_EC8: C*
MORPHOLOGIC_CLASSIFICATION: 
EPICENTRAL_DISTANCE_KM: 14.2
EARTHQUAKE_BACKAZIMUTH_DEGREE: 50.0
DATE_TIME_FIRST_SAMPLE_YYYYMMDD_HHMMSS: 20120529_065943.000
DATE_TIME_FIRST_SAMPLE_PRECISION: milliseconds
SAMPLING_INTERVAL_S: 0.005000
NDATA: 22001
DURATION_S: 110.005
STREAM: HNN
UNITS: cm/s^2
INSTRUMENT: sensor = Episensor FBA ES-T [Kinemetrics] | digitizer = Unknown [Unknown]
INSTRUMENT_ANALOG/DIGITAL: D
INSTRUMENTAL_FREQUENCY_HZ: 
INSTRUMENTAL_DAMPING: 
FULL_SCALE_G: 
N_BIT_DIGITAL_CONVERTER: 
PGA_CM/S^2: 142.068290
TIME_PGA_S: 32.800000
BASELINE_CORRECTION: BASELINE REMOVED
FILTER_TYPE: BUTTERWORTH
FILTER_ORDER: 2
LOW_CUT_FREQUENCY_HZ: 0.060
HIGH_CUT_FREQUENCY_HZ: 40.000
LATE/NORMAL_TRIGGERED: NT
DATABASE_VERSION: DYNA 1.0
HEADER_FORMAT: DYNA 1.2
DATA_TYPE: ACCELERATION
PROCESSING: manual (Paolucci et al., 2011)
DATA_TIMESTAMP_YYYYMMDD_HHMMSS: 
DATA_LICENSE: CC-BY4_0 (http://creativecommons.org/licenses/by/4.0/)
DATA_CITATION: ESM working group (2015), European Strong-Motion database, version 0.1, Network Activity 3: Networking acceleration networks and SM data users. Project NERA (www.nera-eu.org)
DATA_CREATOR: ESM working group
ORIGINAL_DATA_MEDIATOR_CITATION: Orfeus - European Integrated Data Archive (EIDA) http://www.orfeus-eu.org/eida/
ORIGINAL_DATA_MEDIATOR: Orfeus - European Integrated Data Archive (EIDA)
ORIGINAL_DATA_CREATOR_CITATION: Data for this study comes from the Italian national seismic network operated by Istituto Nazionale di Geofisica e Vulcanologia and archived at the European Integrated Data Archive http://eida.rm.ingv.it/
ORIGINAL_DATA_CREATOR: network: IV (Italian National Seismic Network); owner: Istituto Nazionale di Geofisica e Vulcanologia
USER1: 
USER2: 
USER3: 
USER4: 
USER5: 
[...]
-0.406627
-1.338923
-2.047403
-1.950324
-1.100050
-0.026984
1.058113
2.433209
4.168629
5.667311
5.927609
4.194204
0.706339
-3.004094
-4.901021
-3.937872
-0.823877
2.734297
5.319710
6.302591
5.552547
3.211418
-0.059599
-2.848850
-3.453917
-1.007108
3.615098
8.116083
10.324754
9.648960
7.151447
4.310778
1.714975
-1.009520
-4.027014
-6.425321
-6.924242
-5.182809
-1.971593
1.643237
4.881405
7.163523
7.933837
6.999566
5.050021
3.272894
2.065515
0.601604
-1.982452
-5.283592
-7.702904
-7.725753
-5.143598
-1.238887
2.074737
3.428335
2.692189
0.818485
-1.032160
-2.305379
-2.941298
-2.745534
-1.467610
0.381055
1.415137
0.715532
-0.954120
-1.810135
-0.902712
1.083322
2.853187
3.671231
3.436374
2.340334
0.786538
-0.635095
-1.364211
-1.026633
0.548784
3.035434
5.298176
5.901999
4.215197
0.960503
-2.319115
-4.274201
-4.364291
-2.792975
-0.078328
3.160763
5.952996
6.925488
5.183955
1.288073
-2.997417
-5.810895
-5.972591
-3.186625
1.831491
7.297270
10.928516
11.146953
8.111319
3.669558
0.053113
-1.648283
-1.837074
-1.483611
-1.171118
-0.927967
-0.566115
-0.027810
0.469902
0.544138
0.003232
-0.805670
-1.096308
-0.244805
1.579085
3.289972
3.468107
1.389520
-2.164846
-5.202245
-6.066802
-4.809514
-2.834745
-1.242322
0.253749
2.623593
5.951502
8.968598
10.230951
9.314153
6.645082
2.819597
-1.453573
-5.019837
-6.291145
-4.047897
1.274287
7.285655
11.287692
12.357814
11.662924
10.838104
10.302658
9.242240
7.080490
4.500540
2.655265
1.724795
0.804764
-0.699286
-1.920841
-1.207340
1.890607
5.740706
8.206741
8.771942
8.711266
9.398096
10.897129
12.270075
12.790691
12.466294
11.514724
9.868985
7.408109
4.434306
1.678803
-0.335898
-1.942447
-4.023270
-6.802973
-9.113132
-9.099745
-5.765266
0.239339
7.338369
14.163571
19.909098
24.183495
27.053228
29.087257
30.896915
32.477722
33.142937
32.355820
30.628408
29.345329
29.616905
31.261086
32.783096
32.312088
28.792166
22.711130
15.725079
9.285692
3.562882
-2.454611
-10.035482
-19.739250
-30.989262
-42.246895
-51.590111
-57.583447
-60.061646
-60.117882
-59.292519
-58.898067
-59.896721
-62.887527
-68.008812
-74.844566
-82.252716
-88.351219
-91.170677
-89.732307
-84.659676
-77.888557
-71.550087
-66.658478
-62.837196
-59.202240
-55.088547
-49.834370
-42.323681
-31.426582
-16.938705
0.140366
17.892679
34.085480
47.169579
56.792667
63.242847
66.861450
68.079742
67.510193
65.816216
63.526268
60.968193
58.265194
55.217426
51.366138
46.509296
41.192539
36.453869
32.866173
29.788963
25.586945
18.776918
9.356204
-0.931819
-9.826163
-15.928376
-18.999960
-19.591515
-18.768099
-17.812468
-17.637348
-18.309475
-19.201649
-19.653000
-19.440439
-18.518560
-16.297113
-11.656246
-4.468264
3.233336
8.625968
10.560599
10.137179
9.132512
8.648725
9.102123
10.344784
11.717816
12.848396
14.445848
17.678183
22.440710
26.649746
27.653591
24.241730
17.285862
8.891431
1.390708
-3.389055
-4.984066
-4.547760
-3.895360
-4.405189
-6.678524
-10.499487
-14.585247
-16.681704
-14.708073
-8.099029
1.966499
13.184126
22.875013
28.881853
30.372080
27.908270
22.950478
17.549118
13.949672
13.401375
15.063754
16.499153
15.506827
11.645741
6.312718
1.755332
-0.032027
1.926745
7.520849
16.041973
26.290424
36.327381
43.890663
47.483379
47.176701
44.448986
40.888275
36.672165
30.648584
22.011120
11.563324
1.367583
-6.743616
-12.410842
-16.666592
-20.782066
-25.261679
-29.722900
-33.456280
-36.084286
-37.772995
-38.950535
-39.971252
-40.982571
-41.828461
-41.961121
-40.671215
-37.553810
-32.730415
-26.787130
-20.651318
-15.298669
-11.204899
-8.050853
-5.153533
-2.123312
0.985059
3.969879
6.685909
9.044009
11.223518
13.855743
17.497791
21.844540
25.725084
27.945549
28.011637
26.241898
23.838142
22.769327
24.625441
29.061523
33.592815
35.319412
32.957874
27.380211
20.760841
15.207961
11.562232
9.092236
6.238562
1.720752
-4.815599
-12.818825
-21.144243
-28.554375
-34.398396
-38.821327
-42.242271
-44.914452
-46.904003
-48.049549
-47.912437
-46.032757
-42.347202
-36.983990
-29.528307
-19.303450
-6.558570
7.284366
20.515079
31.776657
39.921986
43.870644
43.050457
38.033546
30.341969
21.252014
11.084942
-0.405001
-13.329165
-26.901442
-39.001034
-46.881134
-48.466473
-43.164177
-32.193409
-18.066853
-3.166402
10.996593
23.210608
31.995892
35.939594
34.623989
29.267921
22.054909
14.528163
6.939920
-0.863625
-8.388125
-14.478283
-18.194921
-19.409155
-18.335581
-14.792386
-8.392877
0.493581
10.053941
17.400253
20.096910
17.811123
12.451695
6.589848
1.878697
-1.189923
-2.547351
-1.921996
0.934528
5.458504
10.170775
13.818646
16.523956
19.492537
23.500130
27.909666
31.411295
33.486614
34.844364
36.496975
38.652489
40.521511
40.955902
38.984947
33.832500
24.997581
12.609338
-2.232563
-17.299120
-29.812679
-38.000267
-42.255985
-44.583752
-46.989723
-50.214661
-53.597454
-56.091473
-57.370594
-57.908340
-58.355827
-59.276474
-61.400055
-65.614059
-72.170967
-79.813911
-86.021851
-88.441200
-86.115463
-79.532967
-70.063812
-59.298435
-48.446659
-38.326481
-29.754253
-23.512241
-20.048920
-19.402971
-21.003807
-23.466440
-25.096081
-24.927958
-23.339003
-21.518341
-20.143551
-18.570198
-15.449525
-10.020348
-2.657793
5.562191
13.559299
20.539604
25.822430
28.756617
29.092606
27.431974
25.194853
23.953686
24.539118
26.741419
29.877705
33.267529
35.615978
34.423992
27.415710
14.862063
-0.260330
-14.543750
-26.155308
-34.854874
-40.965492
-44.540188
-45.110935
-42.019737
-34.982006
-24.701132
-12.967700
-1.681314
8.206211
16.657497
23.726606
28.927042
31.468096
31.195402
28.732212
24.344252
17.752596
9.609682
2.328080
-1.113706
0.667747
6.125463
11.336223
12.460476
8.786292
3.580814
1.190877
3.040206
6.828707
9.597425
10.592651
10.877886
11.869944
15.014990
21.320700
29.973698
38.180016
43.743275
47.160637
49.853668
51.029976
47.422241
36.382572
18.915880
-0.730584
-18.028952
-30.280985
-36.621193
-37.287537
-33.216793
-25.929180
-17.243372
-8.446673
0.244447
9.115926
18.081226
26.640566
34.428520
41.344215
47.181839
51.451820
53.787678
54.466103
54.351933
54.385857
55.032059
55.967442
56.237942
54.666069
50.135715
41.806896
29.675806
15.491123
2.777775
-4.941849
-6.070496
-1.204588
7.512134
17.255846
25.859194
32.682049
38.097469
42.384232
45.356842
46.890629
47.363605
47.274487
46.470512
44.054447
39.038132
31.036579
20.746767
9.971525
0.933827
-4.716817
-6.537906
-5.157943
-1.377913
4.561994
12.566254
21.759178
30.387211
36.686882
39.828804
40.075699
38.057758
34.060173
27.954630
19.403769
8.149590
-5.561266
-20.677629
-35.360401
-47.528591
-55.942944
-60.906921
-63.746223
-65.715675
-67.430649
-69.054070
-70.858192
-73.477669
-77.461502
-82.716690
-88.556137
-94.113419
-98.561478
-101.198563
-101.736893
-100.501640
-98.197060
-95.615494
-93.392998
-91.407158
-88.046631
-80.522224
-66.836670
-47.706123
-26.383970
-6.815867
8.417714
19.379896
28.166231
36.550186
44.268234
49.703365
52.039036
52.312431
52.179268
52.267513
51.990120
50.307648
46.184052
38.837376
28.659616
18.082310
10.684348
8.751389
11.898278
18.144264
25.507561
32.646011
38.926762
43.778980
45.763691
43.117008
35.636673
25.528416
15.988379
8.922646
4.110983
0.336051
-3.186198
-6.612043
-9.941245
-13.010251
-15.462255
-17.087091
-17.888412
-17.707315
-15.918531
-11.623722
-4.045379
7.066858
20.643595
34.240742
45.807495
54.980518
61.956387
66.062454
66.412910
63.629383
59.928871
57.246983
55.867458
55.018456
54.234325
53.764484
53.959881
54.635147
54.823021
53.066769
48.408367
41.265976
33.087036
25.100903
17.540735
9.930576
1.741546
-7.342752
-17.407652
-28.051350
-38.139229
-46.253506
-51.522606
-54.003803
-54.589890
-54.551403
-54.779007
-55.205540
-54.846687
-52.479145
-47.244431
-38.651131
-26.519041
-11.125876
6.569276
24.472349
39.478065
49.213608
53.920704
56.085945
58.027035
59.518520
57.411175
47.393742
26.667797
-3.241832
-35.815006
-63.079708
-80.346840
-87.563393
-87.290649
-82.514732
-75.720833
-68.496040
-61.062885
-52.263885
-40.995003
-27.860495
-14.764484
-3.272860
5.781111
11.356343
12.084054
7.792822
0.399283
-7.774518
-16.239769
-25.726322
-35.738808
-44.487347
-51.116291
-56.472458
-61.523109
-65.924957
-68.573860
-68.800415
-66.550949
-62.398369
-57.824982
-54.705860
-54.112530
-55.895172
-59.522560
-64.974358
-72.604729
-82.020264
-90.697227
-93.891670
-87.032356
-69.112175
-44.192635
-19.435055
-0.638751
11.022058
18.019264
22.889202
26.468893
28.883389
30.617743
32.408913
34.677818
37.384674
40.517540
44.550095
50.176979
57.644238
66.481392
75.794632
84.690636
92.425407
98.430183
102.603615
105.573517
108.177521
110.338821
110.463310
105.997543
94.879356
76.698486
52.857094
26.482574
1.702312
-18.497076
-33.797626
-45.650940
-55.466599
-63.701141
-69.956238
-73.727898
-75.197357
-75.418541
-75.792465
-77.389397
-80.886772
-86.710228
-94.462387
-102.278152
-107.676773
-109.709740
-109.756989
-109.896240
-111.220940
-113.510185
-115.396980
-114.835358
-110.334457
-102.314270
-92.717369
-83.028442
-73.696167
-65.451599
-59.726559
-57.307423
-57.495571
-59.120106
-61.549557
-64.285339
-66.405640
-66.955254
-65.723129
-63.418320
-60.961712
-58.597359
-55.670185
-51.180687
-44.586872
-36.002338
-25.684963
-13.860980
-1.074275
11.767454
23.650282
33.654934
41.265087
46.660957
50.548283
53.549080
55.577618
55.768017
53.042480
46.796894
37.493099
26.847527
17.155231
10.289327
7.273840
8.363208
13.152775
20.700443
29.685123
38.792213
47.356956
55.415531
63.039337
70.045708
76.416199
82.562698
88.841911
94.920723
99.870903
102.845558
103.613655
102.666138
100.853775
98.654518
95.795326
91.848091
87.150856
82.774254
79.482994
76.979492
74.164268
69.885399
63.468994
55.000992
45.491203
36.587200
29.713469
25.411285
23.928698
26.184948
32.721752
41.561398
48.567978
50.619354
48.095901
44.064808
41.357021
40.428650
39.456734
36.109257
29.479656
20.969795
13.420165
8.921564
7.352792
7.020933
6.276510
4.296240
0.884875
-3.587169
-7.947794
-10.591532
-10.354673
-6.959097
-0.886012
6.909657
15.238958
22.789169
28.272388
30.827248
30.244604
26.667093
20.393547
12.008203
2.330267
-7.734787
-17.372719
-26.207800
-34.332344
-41.729549
-47.755516
-51.265518
-51.260300
-47.544327
-40.799366
-32.174316
-22.996469
-14.571230
-7.863948
-3.427905
-1.525459
-1.751256
-2.640442
-2.428279
-0.519456
1.897234
2.769172
0.526609
-5.372899
-14.421271
-25.262655
-36.300858
-46.325226
-54.747208
-61.498165
-66.718590
-70.483696
-72.841827
-73.934105
-73.910301
-72.825859
-70.683205
-67.624763
-64.073990
-60.536869
-57.164421
-53.377102
-47.929840
-39.688793
-28.711006
-16.746504
-6.443541
0.463175
4.360229
7.090017
10.137965
13.445465
15.759986
16.042873
14.532993
12.475429
11.085991
10.883307
11.769857
13.531180
16.188059
19.862391
24.495829
29.900854
35.925465
42.391926
48.870213
54.465363
57.991894
58.782440
57.282364
54.569820
51.501614
48.359520
44.948601
40.815598
35.515232
29.129955
22.715727
17.968884
16.306728
18.295502
23.671741
31.462265
40.134495
47.972965
53.561409
56.233841
56.301510
54.667336
52.011799
48.358875
43.393440
37.239281
30.903162
25.700661
22.098267
19.109983
14.874173
7.892791
-2.104216
-14.095392
-26.364645
-37.407543
-46.562469
-54.038158
-60.497189
-66.304131
-70.819809
-72.584137
-70.041809
-61.887081
-47.378975
-26.974558
-2.974101
20.468641
38.929234
50.339863
55.853046
57.889446
58.192902
57.563587
56.161514
53.809654
50.408665
46.319996
42.284561
38.846905
36.197624
34.752827
35.426075
38.963398
45.114937
52.533077
59.370495
64.054504
65.753746
64.390808
60.496082
54.972775
48.646984
42.084450
35.964317
31.301266
28.937908
28.900059
30.419086
32.464443
34.249603
35.463825
36.264332
37.090744
38.199665
39.192825
39.167889
37.414120
33.855896
28.901302
23.094999
16.951340
10.848342
4.703530
-2.299725
-11.365506
-23.252476
-37.674644
-53.472111
-69.322746
-84.133942
-97.040154
-107.621468
-115.938980
-121.936760
-125.179893
-125.351883
-122.617676
-117.384071
-109.775269
-99.487144
-86.050323
-69.070908
-48.902393
-27.646338
-9.000677
3.479578
8.108013
5.529854
-1.764843
-10.547665
-18.245253
-23.893187
-28.161026
-32.322182
-36.955605
-41.630322
-45.534046
-48.027302
-48.730621
-47.354687
-43.574116
-37.171928
-28.291153
-17.666824
-6.861483
2.009054
7.409661
9.310504
8.800262
6.923914
3.700054
-2.056569
-11.903698
-26.544189
-44.872623
-64.109161
-81.392403
-95.379997
-106.330208
-115.022896
-121.669556
-125.519684
-125.426628
-120.506409
-110.095734
-93.844078
-72.124580
-46.161041
-17.920301
10.381939
37.069153
61.387966
83.276588
102.804001
119.523056
132.304108
139.964554
142.068283
139.465530
134.078644
127.573044
120.071976
110.205429
96.626595
79.850571
62.380302
46.686195
33.463173
22.092724
12.071233
3.610198
-2.745699
-6.653802
-8.044754
-7.115731
-4.401729
-0.594770
3.554814
7.190635
9.591695
10.401811
9.524138
7.108123
3.538107
-1.009722
-6.944003
-15.000628
-25.595366
-38.557781
-53.339565
-68.675072
-81.899818
-89.748848
-90.750488
-86.289696
-78.564171
-67.878822
-52.667328
-32.580872
-10.546580
9.528597
26.100908
39.880257
51.264568
59.361294
63.589821
64.984909
65.115471
64.211235
61.521225
57.340305
53.416889
51.315228
51.148766
52.122498
53.794605
56.285141
59.459278
62.550404
64.726257
65.159523
62.133137
53.248058
37.388500
16.343431
-5.569878
-23.702057
-35.462646
-40.880707
-41.271957
-38.136703
-32.834190
-26.114637
-18.203569
-9.620008
-1.342568
5.952951
12.413246
18.466854
24.039463
28.694735
32.271225
34.909634
36.485519
36.250347
33.126476
26.576809
17.301937
6.997431
-2.474294
-9.796959
-14.584021
-17.325796
-18.975260
-20.593855
-23.127363
-27.022081
-31.894623
-36.738087
-40.568321
-42.830219
-43.377075
-42.578289
-41.365921
-40.516422
-39.599789
-36.834770
-30.421677
-20.264919
-8.369982
2.284465
9.196428
11.244842
8.927867
3.819251
-2.382094
-8.231438
-12.390330
-13.799089
-11.984587
-7.004057
0.571170
9.641244
18.936991
27.315582
33.707859
37.192471
37.238285
33.819370
27.503870
19.381405
10.676135
2.374647
-4.956220
-11.151244
-16.174347
-19.891703
-22.312218
-23.902918
-25.349270
-27.096931
-29.239878
-31.665892
-34.128166
-36.200226
-37.323368
-37.005257
-35.088959
-31.991783
-28.650694
-26.051201
-24.647915
-24.079979
-23.315187
-21.099627
-16.495161
-9.150889
0.791294
12.687027
25.332249
37.387684
47.905918
56.296703
62.010162
64.532028
63.693871
60.028248
54.704582
48.938099
43.735661
40.106956
38.840584
39.988979
42.918629
46.760910
50.479565
52.536705
50.824966
43.285805
29.234804
10.555943
-8.836520
-25.321875
-37.463951
-45.857937
-51.678204
-55.409134
-56.668812
-54.914646
-50.004669
-42.409740
-33.252754
-23.943937
-15.596904
-8.695126
-3.189629
1.037061
3.777633
4.757589
4.150581
2.527624
0.454195
-1.799179
-4.354894
-7.458509
-10.862314
-13.395146
-13.369237
-9.830893
-3.591004
3.238077
8.921699
13.119622
16.349642
19.048622
21.309690
23.101658
24.378559
25.010925
24.904367
24.262337
23.527205
22.951988
22.287134
20.925833
18.280754
13.973611
7.850410
0.028346
-9.042565
-18.503372
-27.099855
-33.575672
-37.280758
-38.355392
-37.343899
-34.660187
-30.266138
-23.898735
-15.623150
-6.027043
3.982197
13.492592
21.855219
28.629925
33.310303
35.427498
34.922562
32.193932
27.906385
22.667696
16.683622
9.959874
2.915819
-3.505541
-8.471701
-11.888627
-14.234008
-15.763583
-16.129135
-14.876129
-12.155782
-8.955102
-6.730462
-6.641511
-8.854604
-12.583329
-16.880749
-21.273592
-25.658676
-29.843889
-33.372387
-35.767265
-36.699112
-35.793381
-32.601994
-27.066713
-19.894480
-12.357146
-5.733020
-0.765168
2.620857
5.164470
7.746485
10.840064
14.306225
17.687990
20.677670
23.231804
25.267939
26.382116
26.017250
23.841911
19.813150
14.074472
6.993941
-0.767437
-8.252946
-14.360986
-18.232939
-19.555265
-18.512835
-15.731938
-12.212503
-8.902668
-6.288195
-4.398245
-2.983923
-1.627253
0.095419
2.268054
4.418823
5.786127
5.798597
4.232571
1.066608
-3.562228
-9.264985
-15.387745
-21.180536
-26.110474
-30.071239
-33.260166
-35.843719
-37.682823
-38.359241
-37.637081
-35.839054
-33.548908
-31.082603
-28.394253
-25.403015
-22.302355
-19.492504
-17.235884
-15.447500
-13.850573
-12.318048
-11.037380
-10.303721
-10.165951
-10.373985
-10.688591
-11.111939
-11.746003
-12.537608
-13.229478
-13.478965
-12.939129
-11.302506
-8.479734
-4.660524
-0.005185
5.570991
12.225377
19.897133
28.161936
36.364300
43.909286
50.400730
55.573067
59.227875
61.213783
61.444378
59.934792
56.732380
51.899693
45.546665
37.760971
28.758158
19.228403
10.338009
3.323736
-1.002348
-2.647662
-2.409867
-1.349290
-0.394924
-0.266488
-1.267332
-3.058808
-4.892184
-6.234726
-7.137137
-7.965935
-8.949097
-10.099035
-11.413489
-12.792931
-13.657261
-12.996425
-10.017965
-4.751697
1.832312
8.277208
13.391735
16.701853
18.360874
18.858330
18.716900
18.176579
17.143003
15.483715
13.372713
11.433942
10.506046
11.047773
12.730868
14.707628
16.239588
17.109034
17.582441
17.989712
18.297737
18.142021
17.225197
15.574012
13.459157
11.164618
8.860071
6.632176
4.522743
2.497552
0.426757
-1.844795
-4.363362
-6.959123
-9.278491
-11.028003
-12.279715
-13.518888
-15.316659
-17.894421
-20.987188
-24.082603
-26.714500
-28.539774
-29.321049
-29.081709
-28.197981
-27.097088
-25.913422
-24.502958
-22.688141
-20.398340
-17.609591
-14.336597
-10.729989
-7.033735
-3.388706
0.277996
4.110727
8.014326
11.463320
13.629198
13.600530
10.570287
4.259628
-4.719025
-15.036450
-25.089973
-33.434895
-39.192249
-42.173412
-42.677666
-41.357296
-39.031296
-36.233120
-32.992352
-29.109388
-24.524679
-19.332041
-13.531092
-7.124893
-0.552034
5.245058
9.229925
10.724301
9.740811
7.036364
3.715840
0.716942
-1.469904
-2.833045
-3.696742
-4.533480
-5.843956
-8.049565
-11.310097
-15.384618
-19.700380
-23.562357
-26.303858
-27.390961
-26.655355
-24.417475
-21.243984
-17.718149
-14.386743
-11.623982
-9.527459
-8.014154
-6.915934
-6.012215
-5.159952
-4.469635
-4.317330
-5.095569
-6.889800
-9.364344
-11.855911
-13.560506
-13.805391
