EVENT_NAME: EMILIA_2ND_SHOCK
EVENT_ID: IT-2012-0011
EVENT_DATE_YYYYMMDD: 20120529
EVENT_TIME_HHMMSS: 070002
EVENT_LATITUDE_DEGREE: 44.8417
EVENT_LONGITUDE_DEGREE: 11.0657
EVENT_DEPTH_KM: 8.1
HYPOCENTER_REFERENCE: INGV-CNT_Seismic_Bulletin
MAGNITUDE_W: 6.0
MAGNITUDE_W_REFERENCE: RCMT-INGV
MAGNITUDE_L: 5.8
MAGNITUDE_L_REFERENCE: INGV-CNT_Seismic_Bulletin
FOCAL_MECHANISM: TF
NETWORK: IV
STATION_CODE: T0805
STATION_NAME: T0805
STATION_LATITUDE_DEGREE: 44.918700
STATION_LONGITUDE_DEGREE: 11.322600
STATION_ELEVATION_M: 5
LOCATION: 
SENSOR_DEPTH_M: 1.0
VS30_M/S: 
SITE_CLASSIFICATION_EC8: C*
MORPHOLOGIC_CLASSIFICATION: 
EPICENTRAL_DISTANCE_KM: 22.0
EARTHQUAKE_BACKAZIMUTH_DEGREE: 247.2
DATE_TIME_FIRST_SAMPLE_YYYYMMDD_HHMMSS: 20120529_065953.000
DATE_TIME_FIRST_SAMPLE_PRECISION: milliseconds
SAMPLING_INTERVAL_S: 0.005000
NDATA: 30001
DURATION_S: 150.005
STREAM: HNE
UNITS: cm/s
INSTRUMENT: sensor = Episensor FBA ES-T [Kinemetrics] | digitizer = Unknown [Unknown]
INSTRUMENT_ANALOG/DIGITAL: D
INSTRUMENTAL_FREQUENCY_HZ: 
INSTRUMENTAL_DAMPING: 
FULL_SCALE_G: 
N_BIT_DIGITAL_CONVERTER: 
PGV_CM/S: 13.255324
TIME_PGV_S: 23.330000
BASELINE_CORRECTION: BASELINE REMOVED
FILTER_TYPE: BUTTERWORTH
FILTER_ORDER: 2
LOW_CUT_FREQUENCY_HZ: 0.060
HIGH_CUT_FREQUENCY_HZ: 40.000
LATE/NORMAL_TRIGGERED: NT
DATABASE_VERSION: DYNA 1.0
HEADER_FORMAT: DYNA 1.2
DATA_TYPE: VELOCITY
PROCESSING: manual (Paolucci et al., 2011)
DATA_TIMESTAMP_YYYYMMDD_HHMMSS: 
DATA_LICENSE: CC-BY4_0 (http://creativecommons.org/licenses/by/4.0/)
DATA_CITATION: ESM working group (2015), European Strong-Motion database, version 0.1, Network Activity 3: Networking acceleration networks and SM data users. Project NERA (www.nera-eu.org)
DATA_CREATOR: ESM working group
ORIGINAL_DATA_MEDIATOR_CITATION: Orfeus - European Integrated Data Archive (EIDA) http://www.orfeus-eu.org/eida/
ORIGINAL_DATA_MEDIATOR: Orfeus - European Integrated Data Archive (EIDA)
ORIGINAL_DATA_CREATOR_CITATION: Data for this study comes from the Italian national seismic network operated by Istituto Nazionale di Geofisica e Vulcanologia and archived at the European Integrated Data Archive http://eida.rm.ingv.it/
ORIGINAL_DATA_CREATOR: network: IV (Italian National Seismic Network); owner: Istituto Nazionale di Geofisica e Vulcanologia
USER1: 
USER2: 
USER3: 
USER4: 
USER5: 
[...]
-0.136201
-0.137911
-0.134600
-0.128541
-0.123935
-0.123700
-0.128101
-0.135347
-0.142035
-0.144458
-0.141150
-0.133636
-0.124702
-0.116821
-0.111518
-0.108782
-0.107174
-0.105268
-0.102972
-0.101249
-0.100887
-0.101920
-0.103732
-0.105183
-0.105159
-0.103620
-0.101837
-0.101346
-0.102884
-0.106219
-0.110327
-0.113676
-0.114996
-0.114091
-0.111832
-0.109692
-0.109345
-0.111918
-0.117184
-0.123828
-0.130428
-0.135981
-0.140059
-0.142975
-0.145428
-0.147700
-0.149381
-0.149916
-0.149160
-0.147400
-0.145119
-0.142835
-0.140990
-0.139839
-0.139490
-0.140017
-0.141475
-0.143756
-0.146399
-0.148793
-0.150670
-0.152288
-0.154141
-0.156662
-0.159996
-0.163706
-0.166825
-0.168701
-0.169872
-0.171759
-0.175554
-0.181654
-0.189478
-0.197175
-0.202240
-0.202979
-0.199119
-0.191605
-0.182617
-0.175059
-0.171347
-0.172820
-0.179464
-0.189417
-0.199682
-0.207988
-0.213558
-0.216664
-0.218264
-0.219402
-0.220132
-0.219253
-0.215383
-0.208129
-0.198394
-0.188361
-0.181142
-0.179345
-0.183542
-0.192403
-0.203799
-0.215518
-0.225951
-0.234722
-0.242258
-0.248652
-0.253219
-0.255087
-0.253855
-0.249720
-0.243381
-0.235910
-0.228453
-0.221956
-0.216975
-0.213436
-0.210730
-0.208605
-0.208055
-0.210868
-0.218237
-0.230079
-0.244955
-0.259887
-0.271469
-0.278289
-0.281602
-0.283466
-0.284983
-0.286113
-0.286148
-0.284202
-0.280200
-0.275879
-0.274024
-0.276372
-0.282730
-0.291431
-0.299647
-0.304403
-0.304537
-0.301240
-0.296559
-0.292033
-0.288390
-0.285538
-0.282851
-0.280190
-0.278838
-0.280745
-0.286526
-0.294704
-0.302582
-0.307124
-0.306130
-0.300184
-0.293010
-0.289099
-0.291340
-0.300144
-0.312895
-0.324510
-0.330720
-0.331387
-0.329856
-0.329900
-0.333971
-0.342146
-0.351050
-0.355756
-0.354227
-0.348897
-0.344357
-0.345149
-0.354279
-0.371239
-0.391831
-0.411058
-0.425838
-0.435413
-0.440920
-0.444650
-0.448116
-0.450210
-0.448032
-0.439499
-0.424614
-0.405524
-0.386691
-0.373150
-0.366795
-0.365246
-0.364394
-0.360864
-0.353232
-0.343313
-0.335919
-0.335400
-0.342112
-0.352657
-0.362263
-0.366395
-0.362767
-0.353533
-0.344059
-0.339129
-0.341060
-0.349302
-0.359823
-0.367008
-0.367967
-0.364136
-0.359419
-0.358448
-0.364729
-0.377675
-0.392114
-0.402049
-0.404377
-0.399628
-0.391530
-0.386020
-0.388039
-0.398258
-0.413339
-0.428245
-0.437854
-0.439082
-0.433149
-0.424477
-0.417197
-0.413415
-0.413018
-0.413447
-0.411291
-0.405676
-0.399307
-0.395914
-0.397629
-0.404133
-0.412324
-0.416983
-0.414253
-0.405297
-0.395465
-0.390574
-0.394729
-0.408626
-0.427617
-0.444047
-0.453186
-0.455619
-0.455490
-0.458930
-0.471490
-0.493636
-0.519667
-0.542065
-0.555729
-0.559339
-0.556051
-0.552666
-0.555039
-0.563475
-0.573297
-0.578450
-0.573827
-0.557802
-0.534992
-0.513998
-0.501174
-0.497973
-0.502161
-0.508795
-0.512497
-0.511743
-0.509950
-0.511582
-0.518257
-0.528247
-0.537446
-0.540573
-0.534171
-0.519774
-0.502841
-0.488822
-0.481135
-0.480556
-0.484430
-0.488191
-0.488985
-0.487113
-0.484868
-0.485431
-0.491416
-0.502416
-0.514537
-0.523209
-0.525989
-0.523038
-0.516697
-0.510733
-0.508331
-0.510166
-0.514904
-0.521148
-0.528258
-0.535699
-0.542243
-0.546144
-0.545998
-0.541211
-0.532324
-0.521440
-0.511234
-0.502693
-0.494330
-0.483491
-0.467667
-0.445607
-0.418893
-0.392100
-0.370345
-0.356778
-0.351763
-0.352481
-0.353523
-0.349951
-0.340388
-0.326879
-0.313037
-0.302808
-0.299202
-0.303048
-0.313284
-0.328211
-0.346189
-0.365884
-0.386330
-0.406526
-0.424683
-0.437977
-0.443277
-0.438119
-0.421801
-0.396978
-0.369773
-0.347162
-0.334464
-0.334527
-0.347222
-0.369685
-0.397807
-0.427314
-0.454557
-0.477790
-0.497413
-0.514642
-0.530279
-0.544012
-0.553652
-0.555359
-0.546329
-0.527713
-0.504059
-0.480511
-0.461284
-0.448821
-0.442818
-0.440943
-0.440896
-0.441289
-0.441201
-0.439777
-0.436526
-0.432084
-0.428305
-0.426976
-0.428414
-0.431227
-0.432648
-0.429261
-0.419531
-0.406602
-0.397058
-0.396749
-0.408674
-0.432179
-0.461698
-0.488736
-0.506869
-0.513742
-0.509795
-0.497360
-0.479575
-0.458414
-0.434010
-0.405646
-0.372738
-0.335480
-0.295617
-0.256465
-0.221441
-0.192564
-0.170261
-0.153703
-0.141311
-0.131938
-0.125962
-0.124789
-0.129316
-0.139259
-0.153423
-0.169894
-0.186504
-0.201776
-0.215175
-0.226378
-0.234532
-0.238186
-0.235574
-0.225194
-0.207834
-0.188844
-0.175971
-0.173607
-0.180438
-0.191054
-0.197348
-0.191925
-0.174417
-0.152982
-0.138159
-0.136854
-0.150602
-0.175010
-0.200757
-0.218427
-0.223171
-0.215273
-0.198972
-0.180790
-0.165268
-0.150820
-0.131560
-0.103152
-0.065726
-0.024326
0.010355
0.025775
0.015893
-0.016045
-0.061854
-0.112016
-0.158004
-0.195661
-0.225804
-0.250646
-0.270490
-0.283103
-0.284113
-0.267981
-0.231607
-0.178412
-0.117173
-0.057200
-0.005741
0.033402
0.061500
0.082948
0.100373
0.112801
0.118010
0.114987
0.104425
0.088450
0.070157
0.052353
0.036276
0.021508
0.006461
-0.011127
-0.033046
-0.059314
-0.087837
-0.114561
-0.134145
-0.142727
-0.140985
-0.133479
-0.125599
-0.121797
-0.124264
-0.131373
-0.138593
-0.141344
-0.136534
-0.123574
-0.105762
-0.089235
-0.079819
-0.081248
-0.093660
-0.111735
-0.127257
-0.135509
-0.137681
-0.138289
-0.142845
-0.155938
-0.178363
-0.206697
-0.236762
-0.266732
-0.296583
-0.325607
-0.351201
-0.369143
-0.373991
-0.360841
-0.328705
-0.281516
-0.226007
-0.170062
-0.120960
-0.082340
-0.053643
-0.033219
-0.021063
-0.018583
-0.026893
-0.045915
-0.074085
-0.107967
-0.143371
-0.177927
-0.211966
-0.247309
-0.286256
-0.330871
-0.381885
-0.437993
-0.494739
-0.542994
-0.571723
-0.574698
-0.553023
-0.512942
-0.464498
-0.418952
-0.383705
-0.360691
-0.348862
-0.345820
-0.347894
-0.349965
-0.345918
-0.331391
-0.306947
-0.277200
-0.247220
-0.220427
-0.197097
-0.172699
-0.140202
-0.095709
-0.040708
0.019482
0.076732
0.122008
0.149114
0.156263
0.146190
0.127338
0.112049
0.111621
0.133904
0.182138
0.252823
0.337061
0.424944
0.507597
0.576920
0.625209
0.645552
0.633007
0.584901
0.500731
0.383037
0.237709
0.073582
-0.097966
-0.263942
-0.410317
-0.523744
-0.595183
-0.620850
-0.600759
-0.538841
-0.443562
-0.328189
-0.209999
-0.105695
-0.026339
0.024285
0.050288
0.062306
0.071649
0.085163
0.105344
0.132783
0.167774
0.211201
0.264825
0.329892
0.404381
0.481802
0.551314
0.597213
0.602289
0.555520
0.454861
0.305244
0.118197
-0.090544
-0.306682
-0.519045
-0.715823
-0.880745
-0.995536
-1.047260
-1.031324
-0.951157
-0.819595
-0.655391
-0.474362
-0.286036
-0.096685
0.087956
0.262094
0.420086
0.556690
0.668335
0.754905
0.819145
0.864332
0.892892
0.905355
0.899257
0.870492
0.816711
0.739117
0.643500
0.541822
0.448774
0.373489
0.316326
0.270997
0.225726
0.166985
0.087085
-0.013083
-0.126584
-0.241701
-0.344166
-0.421878
-0.466838
-0.475057
-0.447548
-0.389765
-0.309424
-0.215401
-0.117722
-0.027884
0.042840
0.087390
0.104225
0.095843
0.068179
0.028631
-0.018081
-0.071176
-0.131073
-0.196825
-0.266114
-0.336506
-0.406001
-0.472751
-0.534725
-0.589848
-0.636555
-0.674229
-0.704079
-0.730153
-0.757317
-0.786578
-0.813141
-0.827309
-0.814820
-0.760511
-0.656122
-0.503210
-0.311423
-0.098511
0.113281
0.305705
0.467799
0.594294
0.685357
0.745634
0.781852
0.801325
0.810540
0.813699
0.812320
0.805168
0.788769
0.759437
0.715212
0.656437
0.585924
0.508681
0.430507
0.356673
0.290674
0.232303
0.177742
0.123767
0.072191
0.029867
0.006167
0.010907
0.050205
0.121617
0.215320
0.319448
0.422936
0.516747
0.595226
0.656180
0.700405
0.731079
0.752796
0.770992
0.790540
0.812987
0.835887
0.855060
0.866371
0.866039
0.850649
0.816984
0.762151
0.684436
0.585240
0.472124
0.359283
0.263543
0.200821
0.184087
0.220516
0.310989
0.451664
0.633917
0.845421
1.073344
1.305850
1.532528
1.745031
1.937099
2.104414
2.244407
2.356764
2.444604
2.513122
2.565981
2.604095
2.627677
2.638061
2.636743
2.622637
2.591010
2.534479
2.443780
2.309942
2.128531
1.900831
1.631768
1.329519
1.006889
0.683124
0.383377
0.131525
-0.057738
-0.179948
-0.238864
-0.243856
-0.204781
-0.128031
-0.017183
0.124323
0.292024
0.481417
0.688844
0.910097
1.137436
1.358920
1.562469
1.740398
1.890590
2.016479
2.125729
2.225261
2.316293
2.394225
2.450998
2.476925
2.463809
2.408521
2.314063
2.189594
2.049229
1.907374
1.774503
1.657137
1.559513
1.485191
1.439349
1.430718
1.469369
1.561198
1.705753
1.897052
2.123145
2.368223
2.617997
2.862119
3.094435
3.313834
3.522143
3.719265
3.900700
4.057010
4.172784
4.230158
4.217047
4.130334
3.974442
3.761566
3.508874
3.231638
2.940186
2.640096
2.331902
2.013810
1.687432
1.360418
1.045989
0.763182
0.533233
0.371365
0.284100
0.272590
0.334539
0.464900
0.657052
0.903324
1.194599
1.519328
1.864223
2.216763
2.566020
2.902180
3.216629
3.503035
3.759424
3.988332
4.194107
4.380781
4.551410
4.707540
4.849321
4.976399
5.088213
5.182720
5.254033
5.291838
5.283980
5.219162
5.089590
4.895042
4.643533
4.347312
4.020181
3.676204
3.327517
2.984257
2.658125
2.366363
2.130728
1.972630
1.910674
1.957819
2.116724
2.379691
2.731872
3.153585
3.622089
4.111545
4.593639
5.040415
5.425322
5.724869
5.922121
6.009502
5.992114
5.887400
5.718978
5.512179
5.289922
5.065476
4.840846
4.612321
4.374453
4.121850
3.851454
3.562973
3.256713
2.932034
2.589037
2.232388
1.872836
1.526225
1.213480
0.957584
0.776584
0.681356
0.677551
0.765101
0.935627
1.168779
1.432342
1.690008
1.908499
2.061759
2.136730
2.133458
2.057640
1.915831
1.716036
1.469970
1.193261
0.901104
0.603812
0.307300
0.016048
-0.264763
-0.527225
-0.758616
-0.943363
-1.068437
-1.125515
-1.110789
-1.026203
-0.879524
-0.683040
-0.452078
-0.201349
0.058523
0.320911
0.581513
0.836715
1.081116
1.305435
1.498956
1.655638
1.776516
1.868514
1.944287
2.019048
2.103506
2.201680
2.315031
2.446050
2.598118
2.773618
2.973092
3.195127
3.435645
3.688011
3.944035
4.194010
4.424947
4.618362
4.753931
4.818566
4.809998
4.735799
4.614808
4.473686
4.337620
4.225597
4.147261
4.098080
4.063255
4.028996
3.988261
3.942401
3.903590
3.890156
3.915287
3.982109
4.084236
4.204399
4.317759
4.400675
4.435640
4.417072
4.359835
4.295195
4.256534
4.271207
4.352905
4.491308
4.655785
4.809916
4.919517
4.957823
4.911390
4.779004
4.566323
4.282278
3.936546
3.538173
3.094915
2.611962
2.092382
1.541899
0.974702
0.413397
-0.115164
-0.583213
-0.969666
-1.269272
-1.490952
-1.649125
-1.758984
-1.835675
-1.894635
-1.951069
-2.017803
-2.104454
-2.216850
-2.355647
-2.518514
-2.705473
-2.920748
-3.169190
-3.452423
-3.768766
-4.115124
-4.487464
-4.877603
-5.268304
-5.634327
-5.948387
-6.184416
-6.321087
-6.346490
-6.258171
-6.060483
-5.763482
-5.386401
-4.964087
-4.541984
-4.160518
-3.848657
-3.625178
-3.497522
-3.462810
-3.511446
-3.628939
-3.794352
-3.976649
-4.139099
-4.251682
-4.295623
-4.260680
-4.145114
-3.956367
-3.711103
-3.433795
-3.150924
-2.885644
-2.654902
-2.465709
-2.315566
-2.199527
-2.115902
-2.065746
-2.049529
-2.065515
-2.109222
-2.171929
-2.239962
-2.294898
-2.314495
-2.277434
-2.168707
-1.981330
-1.717008
-1.385043
-0.998572
-0.572623
-0.123472
0.332877
0.780853
1.204020
1.583967
1.902497
2.147052
2.313340
2.408003
2.453736
2.483394
2.523877
2.589939
2.689249
2.826426
3.004348
3.225103
3.490879
3.805147
4.173334
4.599861
5.081932
5.605549
6.139497
6.626534
6.996467
7.199539
7.219138
7.063752
6.764504
6.368245
5.921472
5.462796
5.020422
4.607134
4.220297
3.845454
3.460793
3.047554
2.600109
2.124494
1.630426
1.127419
0.625628
0.137451
-0.324708
-0.754269
-1.152319
-1.524410
-1.878035
-2.219943
-2.551656
-2.868396
-3.162600
-3.426357
-3.650839
-3.824633
-3.933827
-3.967760
-3.926820
-3.824572
-3.686840
-3.548916
-3.445649
-3.401763
-3.430570
-3.535722
-3.713931
-3.960033
-4.270391
-4.642739
-5.074921
-5.564038
-6.104441
-6.684031
-7.281780
-7.866068
-8.395737
-8.829419
-9.135320
-9.294186
-9.300666
-9.161812
-8.892958
-8.517918
-8.069678
-7.588939
-7.121696
-6.709368
-6.377482
-6.135311
-5.981025
-5.906043
-5.899205
-5.948346
-6.039571
-6.156495
-6.280538
-6.394793
-6.488254
-6.554867
-6.589647
-6.586505
-6.538439
-6.438358
-6.280573
-6.063284
-5.789004
-5.461963
-5.085921
-4.663288
-4.194238
-3.676778
-3.108635
-2.489122
-1.819611
-1.103474
-0.346074
0.444789
1.257800
2.079781
2.900244
3.712766
4.511405
5.285947
6.018461
6.679950
7.230800
7.630776
7.849299
7.867889
7.680353
7.291230
6.713404
5.969360
5.089363
4.104739
3.044345
1.932852
0.790091
-0.362188
-1.487908
-2.533512
-3.442597
-4.171287
-4.692053
-4.994142
-5.079405
-4.949521
-4.596858
-4.013348
-3.211314
-2.230053
-1.121975
0.059406
1.266936
2.470878
3.659916
4.827986
5.963433
7.049976
8.073705
9.025910
9.901555
10.697830
11.411520
12.034590
12.552380
12.944920
13.187590
13.255320
13.131570
12.811060
12.296610
11.598840
10.736270
9.733947
8.622732
7.438509
6.222623
5.017218
3.854021
2.751156
1.718639
0.761753
-0.116859
-0.914029
-1.625001
-2.246962
-2.784035
-3.248311
-3.658476
-4.037882
-4.408727
-4.786011
-5.176520
-5.579726
-5.989621
-6.398931
-6.802303
-7.196559
-7.580081
-7.952460
-8.314621
-8.669110
-9.018185
-9.359837
-9.686217
-9.984736
-10.238320
-10.428360
-10.541200
-10.569960
-10.510850
-10.360860
-10.119940
-9.795669
-9.404516
-8.967476
-8.506098
-8.037986
-7.569163
-7.092767
-6.597033
-6.072059
-5.511769
-4.915085
-4.285621
-3.629407
-2.953857
-2.268062
-1.583129
-0.912483
-0.271995
0.319785
0.844710
1.291896
1.659712
1.952139
2.176412
2.340785
2.450493
2.506580
2.508990
2.459934
2.365381
2.236047
2.087429
1.937860
1.806854
1.711758
1.661281
1.653766
1.680980
1.730350
1.788078
1.845198
1.899589
1.953221
2.010142
2.074705
2.148666
2.230169
2.314912
2.396774
2.468760
2.524975
2.561071
2.572546
2.553136
2.495831
2.395880
2.252215
2.068157
1.852871
1.618571
1.373600
1.119762
0.854602
0.573383
0.271948
-0.048308
-0.378222
-0.700524
-0.988001
-1.208665
-1.338491
-1.366926
-1.297619
-1.152191
-0.964243
-0.763429
-0.568802
-0.391583
-0.236889
-0.105696
0.001741
0.084395
0.141842
0.176155
0.191350
0.191044
0.177442
0.151790
0.114756
0.066646
0.007653
-0.062028
-0.142306
-0.233269
-0.334881
-0.446333
-0.565954
-0.692293
-0.825416
-0.967194
-1.121111
-1.292027
-1.485513
-1.707121
-1.960822
-2.246191
-2.557370
-2.883580
-3.208661
-3.514255
-3.787283
-4.022777
-4.222333
-4.393970
-4.549660
-4.699566
-4.849413
-5.000214
-5.147185
-5.281673
-5.396085
-5.486224
-5.551528
-5.595723
-5.624901
-5.643058
-5.650106
-5.641933
-5.609628
-5.540881
-5.423808
-5.248684
-5.008710
-4.701858
-4.331826
-3.908462
-3.447289
-2.967133
-2.488457
-2.030226
-1.603662
-1.210791
-0.849109
-0.515196
-0.206549
0.076112
0.328319
0.544041
0.717580
0.844432
0.922319
0.951425
0.934089
0.875134
0.780976
0.657252
0.507715
0.334123
0.136015
-0.087686
-0.335313
-0.600936
-0.874422
-1.140786
-1.382718
-1.586734
-1.745298
-1.854659
-1.913524
-1.922182
-1.881084
-1.790273
-1.650456
-1.464713
-1.239202
-0.983231
-0.708935
-0.429720
-0.158983
0.091187
0.312437
0.500218
0.650252
0.755373
0.806482
0.796132
0.720284
0.579767
0.383202
0.146292
-0.112117
-0.372261
-0.615471
-0.826331
-0.993712
-1.112003
-1.180642
-1.201375
-1.176621
-1.109344
-1.003076
-0.861988
-0.691167
-0.497133
-0.287342
-0.068562
0.153574
0.373237
0.582622
0.771070
0.924768
1.027016
1.060766
1.011368
0.868078
0.625947
0.286086
-0.144741
-0.652488
-1.217289
-1.818588
-2.437225
-3.053962
-3.647138
-4.191769
-4.660088
-5.022412
-5.252418
-5.334085
-5.263198
-5.046354
-4.699641
-4.248218
-3.729016
-3.186225
-2.658418
-2.172920
-1.744345
-1.370355
-1.035998
-0.725887
-0.429901
-0.142450
0.137791
0.407649
0.659199
0.880228
1.056513
1.173642
1.218912
1.184744
1.069424
0.875067
0.606914
0.272859
-0.117965
-0.555499
-1.026735
-1.512483
-1.987994
-2.427110
-2.804581
-3.099327
-3.298708
-3.397824
-3.395774
-3.293278
-3.092432
-2.798139
-2.419489
-1.970820
-1.471974
-0.947758
-0.428795
0.051034
0.461726
0.779722
0.987349
1.074091
1.036323
0.875543
0.597092
0.210582
-0.267494
-0.814004
-1.402537
-2.005103
-2.593782
-3.142659
-3.630490
-4.045557
-4.386322
-4.657235
-4.866517
-5.024412
-5.139782
-5.218798
-5.265803
-5.283878
-5.275362
-5.242634
-5.188675
-5.117641
-5.035467
-4.948773
-4.862162
-4.777250
-4.693315
-4.607332
-4.514441
-4.409248
-4.286812
-4.144901
-3.987157
-3.823014
-3.665317
-3.528588
-3.425920
-3.365343
-3.348416
-3.369432
-3.415784
-3.469833
-3.509420
-3.511343
-3.459169
-3.345603
-3.168652
-2.929198
-2.629973
-2.274123
-1.864752
-1.406413
-0.907307
-0.379106
0.165147
0.711479
1.242538
1.734312
2.158885
2.492721
2.719867
2.831093
2.824686
2.704996
2.478339
2.151163
1.731969
1.234838
0.680044
0.092248
-0.500914
-1.072378
-1.599633
-2.066757
-2.466782
-2.800987
-3.073578
-3.287916
-3.446643
-3.553155
-3.612594
-3.633302
-3.629004
-3.617392
-3.615363
-3.636859
-3.691757
-3.783625
-3.909858
-4.063625
-4.235285
-4.413505
-4.585365
-4.736871
-4.854754
-4.927090
-4.943565
-4.896426
-4.781023
-4.596266
-4.344599
-4.032594
-3.673204
-3.285146
-2.889300
-2.506691
-2.156055
-1.850816
-1.598575
-1.401589
-1.257922
-1.163450
-1.112474
-1.097387
-1.108472
-1.134014
-1.161657
-1.179827
-1.179133
-1.154675
-1.106593
-1.039375
-0.962695
-0.890494
-0.837749
-0.818908
-0.847078
-0.932845
-1.083501
-1.302059
-1.587288
-1.934218
-2.333134
-2.770114
-3.229617
-3.695691
-4.152385
-4.584203
-4.977401
-5.322759
-5.615894
-5.854525
-6.036570
-6.160139
-6.224214
-6.228970
-6.176164
-6.069946
-5.916167
-5.720278
-5.486567
-5.218986
-4.921889
-4.599513
-4.254492
-3.887452
-3.497964
-3.085292
-2.648891
-2.189073
-1.707466
-1.208218
-0.700248
-0.197384
0.283329
0.722963
1.103925
1.413713
1.646053
1.801256
1.885367
1.907712
1.879994
1.815785
1.728973
1.633095
1.540464
1.460607
1.399017
1.355578
1.324605
1.296857
1.260369
1.201909
1.110295
0.977614
0.798905
0.572717
0.300858
-0.012815
-0.363280
-0.745173
-1.153146
-1.581599
-2.024386
-2.474245
-2.920896
-3.348272
-3.735651
-4.062281
-4.309526
-4.462383
-4.512195
-4.457295
-4.302521
-4.058441
-3.741077
-3.373769
-2.985413
-2.604315
-2.255418
-1.958845
-1.727174
-1.565711
-1.474705
-1.451227
-1.490906
-1.588518
-1.738147
-1.933819
