EVENT_NAME: EMILIA_2ND_SHOCK
EVENT_ID: IT-2012-0011
EVENT_DATE_YYYYMMDD: 20120529
EVENT_TIME_HHMMSS: 070002
EVENT_LATITUDE_DEGREE: 44.8417
EVENT_LONGITUDE_DEGREE: 11.0657
EVENT_DEPTH_KM: 8.1
HYPOCENTER_REFERENCE: INGV-CNT_Seismic_Bulletin
MAGNITUDE_W: 6.0
MAGNITUDE_W_REFERENCE: RCMT-INGV
MAGNITUDE_L: 5.8
MAGNITUDE_L_REFERENCE: INGV-CNT_Seismic_Bulletin
FOCAL_MECHANISM: TF
NETWORK: IV
STATION_CODE: T0800
STATION_NAME: T0800
STATION_LATITUDE_DEGREE: 44.848600
STATION_LONGITUDE_DEGREE: 11.247900
STATION_ELEVATION_M: 9
LOCATION: 
SENSOR_DEPTH_M: 1.0
VS30_M/S: 
SITE_CLASSIFICATION_EC8: C*
MORPHOLOGIC_CLASSIFICATION: 
EPICENTRAL_DISTANCE_KM: 14.4
EARTHQUAKE_BACKAZIMUTH_DEGREE: 267.0
DATE_TIME_FIRST_SAMPLE_YYYYMMDD_HHMMSS: 20120529_065949.000
DATE_TIME_FIRST_SAMPLE_PRECISION: milliseconds
SAMPLING_INTERVAL_S: 0.005000
NDATA: 20001
DURATION_S: 100.005
STREAM: HNN
UNITS: cm/s^2
INSTRUMENT: sensor = Episensor FBA ES-T [Kinemetrics] | digitizer = Unknown [Unknown]
INSTRUMENT_ANALOG/DIGITAL: D
INSTRUMENTAL_FREQUENCY_HZ: 
INSTRUMENTAL_DAMPING: 
FULL_SCALE_G: 
N_BIT_DIGITAL_CONVERTER: 
PGA_CM/S^2: -248.972605
TIME_PGA_S: 23.925000
BASELINE_CORRECTION: BASELINE REMOVED
FILTER_TYPE: BUTTERWORTH
FILTER_ORDER: 2
LOW_CUT_FREQUENCY_HZ: 0.070
HIGH_CUT_FREQUENCY_HZ: 40.000
LATE/NORMAL_TRIGGERED: NT
DATABASE_VERSION: DYNA 1.0
HEADER_FORMAT: DYNA 1.2
DATA_TYPE: ACCELERATION
PROCESSING: manual (Paolucci et al., 2011)
DATA_TIMESTAMP_YYYYMMDD_HHMMSS: 
DATA_LICENSE: CC-BY4_0 (http://creativecommons.org/licenses/by/4.0/)
DATA_CITATION: ESM working group (2015), European Strong-Motion database, version 0.1, Network Activity 3: Networking acceleration networks and SM data users. Project NERA (www.nera-eu.org)
DATA_CREATOR: ESM working group
ORIGINAL_DATA_MEDIATOR_CITATION: Orfeus - European Integrated Data Archive (EIDA) http://www.orfeus-eu.org/eida/
ORIGINAL_DATA_MEDIATOR: Orfeus - European Integrated Data Archive (EIDA)
ORIGINAL_DATA_CREATOR_CITATION: Data for this study comes from the Italian national seismic network operated by Istituto Nazionale di Geofisica e Vulcanologia and archived at the European Integrated Data Archive http://eida.rm.ingv.it/
ORIGINAL_DATA_CREATOR: network: IV (Italian National Seismic Network); owner: Istituto Nazionale di Geofisica e Vulcanologia
USER1: 
USER2: 
USER3: 
USER4: 
USER5: 
[...]
0.018872
-0.042513
-0.154356
-0.207000
-0.134813
0.042559
0.202011
0.168017
-0.098809
-0.387264
-0.443001
-0.218426
0.121068
0.342167
0.366446
0.357044
0.452947
0.545641
0.479404
0.295333
0.144227
0.104393
0.140987
0.161661
0.121196
0.075640
0.090782
0.137700
0.111352
-0.074326
-0.362306
-0.529444
-0.418162
-0.149913
-0.009814
-0.171665
-0.449274
-0.337117
0.362166
1.095652
1.141309
0.356031
-0.765282
-1.458507
-1.316918
-0.665018
-0.129203
-0.060107
-0.367791
-0.614741
-0.329603
0.640975
1.919934
2.689231
2.373663
1.215619
-0.034371
-0.731412
-0.756842
-0.571140
-0.650338
-0.987692
-1.291663
-1.341581
-1.051395
-0.438672
0.315133
0.848932
0.868629
0.419395
-0.116603
-0.247713
0.178509
0.728105
0.825565
0.282810
-0.655231
-1.498172
-1.781545
-1.309514
-0.270538
0.806479
1.406505
1.388646
1.021734
0.792760
0.999771
1.476780
1.823717
1.728135
1.057193
-0.109075
-1.393752
-2.184032
-2.113601
-1.456630
-0.830066
-0.668859
-0.906056
-0.999373
-0.526051
0.320363
1.005817
1.153193
0.783666
0.301566
0.140468
0.377618
0.635826
0.315375
-0.732395
-1.826044
-2.181475
-1.709969
-0.851457
-0.011227
0.844905
2.116133
3.724395
4.648978
4.020185
2.226139
0.420595
-0.514994
-0.572132
-0.590099
-1.308510
-2.545117
-3.514092
-3.514150
-2.381106
-0.647972
0.758865
1.024564
0.011128
-1.487847
-2.366599
-2.009201
-0.631596
0.842815
1.557854
1.400702
0.838916
0.453690
0.559346
1.036886
1.537115
1.737066
1.449801
0.704939
-0.138038
-0.412078
0.399687
2.136436
3.842812
4.148645
2.382613
-0.627986
-3.303885
-4.515624
-4.252691
-3.547579
-3.267907
-3.148527
-2.426383
-0.849108
1.085675
2.482921
2.879025
2.718961
2.633993
2.596992
2.027864
0.419281
-1.902912
-3.557644
-3.253051
-1.014928
1.840102
3.520910
3.130220
1.478899
0.067940
-0.298217
0.065872
0.101681
-0.804680
-2.017700
-2.470172
-1.810537
-0.651085
-0.095168
-0.608897
-1.362238
-1.235202
-0.018612
1.591960
2.600088
2.452003
1.441650
0.277261
-0.504689
-0.743863
-0.641280
-0.571257
-0.797560
-1.148256
-0.997698
0.011453
1.408568
2.456522
2.910429
3.045468
3.224318
3.270774
2.309932
-0.198471
-3.498901
-6.017245
-6.427110
-4.581491
-1.795031
0.260946
0.807082
0.195894
-0.502022
-0.441180
0.346051
1.372871
2.273530
2.787712
2.641145
1.804734
0.742205
0.115992
0.297060
1.051992
1.590687
1.260485
0.140743
-1.199130
-2.136529
-2.163132
-1.068676
0.636936
1.664179
1.035658
-0.912008
-2.988490
-4.137839
-4.123148
-3.583103
-3.071642
-2.343142
-1.045592
0.542746
2.005244
3.379047
4.722958
5.590991
5.427317
4.192651
2.439084
0.930689
-0.077296
-1.091815
-2.360776
-3.084842
-2.403409
-0.583380
1.198877
1.691448
0.361007
-2.204729
-4.739934
-6.017063
-5.477539
-3.551781
-1.249627
0.507044
1.449043
2.088945
2.940635
3.799664
4.044827
3.264191
1.596952
-0.260356
-1.518775
-1.785343
-1.165621
-0.082592
1.159468
2.586540
4.074120
4.937999
4.407783
2.327437
-0.604981
-3.073603
-4.013098
-3.326466
-1.663723
0.068907
1.032891
0.763859
-0.444747
-1.526030
-1.631035
-1.002859
-0.503521
-0.705682
-1.395837
-1.682821
-0.989435
0.215968
1.084561
1.262678
0.902107
0.351548
-0.020339
0.036390
0.420773
0.624531
0.232839
-0.616976
-1.468378
-2.006549
-2.291556
-2.634043
-3.001623
-2.760104
-1.545660
0.013138
1.040056
1.351821
1.343319
1.480680
1.979317
2.664381
3.023012
2.409069
0.531989
-2.073336
-4.091254
-4.029604
-1.528547
1.941406
4.522459
5.564850
5.461401
4.819945
3.909638
2.555272
0.622865
-1.557183
-3.391769
-4.377313
-4.230479
-2.967420
-1.052172
0.642004
1.430277
1.350649
0.923019
0.610750
0.413446
-0.153202
-1.373537
-2.778253
-3.584574
-3.399670
-2.470174
-1.447237
-0.604483
0.571670
2.474883
4.475145
5.401749
4.536513
2.263014
0.017036
-0.971636
-0.776672
-0.332229
-0.502938
-1.540548
-3.007255
-4.302164
-5.120238
-5.301042
-4.598751
-2.876764
-0.421540
2.045497
3.713073
4.406534
4.842301
5.478335
5.520018
3.790376
0.183070
-3.685256
-5.059839
-2.547591
2.063785
5.546663
5.857509
3.232844
-0.086299
-1.785907
-1.285459
0.273000
1.024141
-0.020461
-1.944155
-2.876858
-1.629648
1.143019
3.031565
2.278022
-0.306915
-2.779200
-4.154663
-4.675168
-5.096741
-5.719185
-5.894627
-4.702933
-1.793337
2.403332
6.720945
9.493293
9.258262
6.201687
2.636300
0.538104
-0.592800
-2.159043
-4.129144
-4.912652
-2.736984
2.138424
6.535398
7.188247
3.646572
-2.266294
-8.132265
-11.952659
-12.711593
-10.724954
-7.560933
-4.845756
-3.079260
-1.685494
0.295309
3.255214
6.535778
9.168266
10.629179
10.616070
8.812756
5.509092
1.985978
-0.564013
-2.079394
-3.068429
-3.716481
-3.869779
-3.393081
-2.376162
-1.074132
0.422524
2.252175
4.154828
5.216209
5.001834
4.314619
3.804470
2.745264
0.335479
-2.777196
-5.127771
-5.743391
-4.643110
-2.553003
0.062311
3.326840
6.540675
7.431702
4.558533
-0.428680
-4.237205
-4.457005
-0.783522
4.899494
9.779294
11.607637
9.690938
5.234936
0.402061
-3.051009
-4.854202
-6.421189
-9.189832
-12.996526
-16.339796
-17.398287
-15.043918
-9.567146
-2.687222
3.096337
6.099552
6.577582
5.798747
4.793238
4.217625
4.527389
5.685739
6.829085
6.638130
4.206758
0.119246
-3.341243
-4.181170
-2.480895
0.447481
3.519701
6.174309
8.073458
8.794461
7.804735
4.913777
0.681340
-3.769335
-7.226200
-8.950126
-9.011881
-8.007650
-6.623189
-5.390549
-4.605667
-4.380683
-4.624999
-4.882401
-4.412588
-2.928111
-1.096498
0.225802
0.984143
2.051936
4.690749
9.372960
14.970240
19.446650
20.989325
18.717552
12.855911
4.244292
-5.835470
-14.922489
-19.438198
-17.477617
-11.252654
-5.463375
-3.919425
-6.559004
-8.978626
-7.196499
-1.873350
3.734021
7.420714
9.075664
9.875449
10.310385
9.135361
5.182863
-0.677496
-6.074897
-8.645498
-7.292184
-2.853279
2.383355
5.773736
5.870543
3.398181
0.269844
-1.933939
-2.821592
-3.169565
-3.614074
-3.639064
-2.438455
-0.210193
1.629371
1.314342
-1.246991
-3.446180
-2.460603
1.818763
6.609415
7.977329
4.132627
-2.575201
-8.134631
-10.080676
-8.157589
-3.661158
1.721312
6.792786
10.952943
14.031266
16.020142
16.743238
15.567619
11.649030
5.239518
-1.629927
-6.947520
-10.519236
-13.200534
-15.306236
-15.939412
-13.511626
-7.740593
-0.759215
5.035679
9.040006
11.199382
10.354091
5.218480
-3.584390
-12.463858
-15.953969
-11.431593
-2.421723
5.104972
7.777350
5.967812
2.511946
-0.052202
-1.248025
-1.369089
-0.166684
1.942252
2.752088
0.112290
-5.748806
-12.201218
-15.641465
-13.930585
-8.115495
-1.432209
2.715622
2.700937
-0.260460
-3.158156
-2.961627
1.758192
9.996596
19.249889
26.794331
30.482061
29.590647
25.873894
23.311497
24.470881
27.397572
27.616865
22.169958
12.697327
5.222335
3.653357
4.640070
1.860969
-7.371705
-19.985323
-29.043112
-29.944262
-24.725403
-18.253183
-13.151231
-9.593875
-7.241996
-6.769048
-9.911818
-17.211630
-26.291798
-33.529167
-36.444199
-34.412632
-28.420006
-20.259628
-11.686719
-3.797077
3.124689
8.801913
12.261523
12.342686
8.666357
2.314159
-4.264041
-8.835908
-10.851353
-11.105277
-10.655780
-9.828931
-7.921515
-4.386337
-0.133119
2.606536
1.698015
-2.276109
-4.999620
-2.392119
5.177850
13.438044
17.304543
14.857381
9.076431
3.952104
0.730759
-0.528987
1.324222
7.161841
15.482871
22.972956
26.381941
24.352522
17.964523
8.699226
-3.173547
-16.987133
-29.865101
-37.857014
-38.105343
-30.348558
-17.624979
-5.299949
1.445776
1.753325
0.682129
3.202888
8.341139
11.501094
9.732887
5.093243
4.427319
13.255551
30.492838
50.536678
67.286545
76.036324
74.828392
66.332451
57.392235
52.293907
47.519024
36.753777
18.339172
-2.719203
-17.942423
-24.208521
-28.952173
-41.563747
-62.859722
-84.442802
-94.390274
-87.290306
-70.529694
-57.507256
-57.220783
-68.440750
-80.144508
-81.827118
-72.677490
-58.752151
-45.871040
-34.608429
-19.616739
3.675422
32.605927
58.631439
72.557304
70.902496
59.044010
45.759895
36.285110
30.067827
21.825512
5.953247
-19.121338
-49.616901
-77.338211
-93.903069
-95.675011
-86.513916
-76.541122
-73.464226
-75.290047
-73.885551
-61.921539
-37.270741
-4.546262
27.599390
50.785057
61.484959
63.321468
63.123596
65.610252
71.086700
76.378822
79.753998
83.669022
89.478745
92.745506
87.714935
72.918091
50.320469
23.264299
-2.208044
-16.881695
-14.279582
2.941454
23.672859
34.364269
29.452055
16.387869
4.442299
-6.200197
-19.193262
-33.284832
-42.483337
-41.056328
-29.217714
-15.098200
-7.953291
-10.524884
-18.118151
-21.831854
-15.135183
0.814859
18.249500
27.369852
23.278940
10.444889
-1.232995
-2.760625
9.677495
32.970737
59.628460
81.985184
96.472382
105.294128
111.809990
115.718109
113.777473
102.618919
80.965233
50.739250
16.404016
-16.465012
-43.357727
-62.990860
-77.875832
-92.309738
-106.340347
-112.460945
-102.772850
-76.953239
-41.491173
-5.299730
24.277927
43.433804
50.555855
45.041359
28.659618
6.325429
-16.975403
-38.823025
-57.332787
-69.299416
-73.116333
-71.328987
-67.227287
-60.772606
-49.695419
-33.152637
-15.140783
-4.397810
-6.958232
-19.997084
-35.888252
-48.545364
-55.085487
-55.063934
-49.176693
-38.435566
-24.251530
-8.969167
3.717928
9.739040
8.288754
3.926671
2.254121
4.951424
10.104249
15.334991
21.377239
32.465961
50.032578
68.512489
82.018517
90.988731
97.993584
101.640526
97.676315
83.261551
60.254837
35.453262
15.514759
2.657790
-3.303925
-2.233606
4.800449
13.772098
20.072298
21.244617
16.219259
4.030488
-14.959974
-37.359585
-57.252075
-68.390305
-67.751686
-57.565159
-42.451878
-26.060266
-10.976710
0.449800
6.512833
6.891608
2.492604
-5.073828
-13.918392
-22.267292
-28.914095
-33.396404
-35.445724
-34.601387
-30.862467
-25.336967
-19.684811
-15.033034
-11.166934
-6.778328
-1.534417
2.910764
5.759863
9.245533
15.515321
23.228281
29.158382
31.555550
31.906235
34.167156
40.262203
46.874073
48.818104
43.628311
32.436954
18.806921
6.533148
-2.228894
-7.388549
-10.316123
-12.130485
-12.696858
-12.158552
-12.471209
-16.214527
-24.252762
-34.012970
-39.890026
-37.883614
-29.624989
-20.621569
-16.522135
-20.296366
-30.864264
-44.113487
-54.686001
-58.096153
-52.941551
-42.383472
-33.401226
-31.280972
-34.906422
-39.011723
-38.827606
-33.214329
-24.991287
-16.777679
-7.643533
4.439534
19.228931
34.420109
47.140766
54.811024
55.888676
51.133698
44.015560
38.142017
34.373051
30.663979
24.085903
14.706153
7.131969
5.147243
6.744056
6.996696
3.025092
-4.304462
-11.221447
-14.142476
-12.098210
-6.075764
2.095667
9.514543
12.511634
9.602123
3.725394
-0.328873
0.336077
5.262681
11.162568
14.746020
15.215783
14.049185
13.885795
17.378895
25.523245
35.147774
38.465862
28.822815
6.776554
-19.964506
-40.531132
-48.026142
-44.483192
-37.509365
-34.315010
-37.417961
-43.141197
-45.173168
-39.256336
-25.865557
-10.242413
1.849266
7.892864
7.644514
1.304808
-9.877486
-22.643665
-33.007153
-38.397530
-38.953117
-37.162418
-34.835545
-31.131508
-25.295706
-19.343330
-15.972319
-15.607408
-16.569283
-16.776510
-15.488389
-13.903257
-13.438428
-14.176397
-15.630625
-17.664215
-19.582161
-19.257143
-14.523485
-5.215585
6.142675
15.459567
20.763138
24.548145
30.413540
38.804321
46.686443
49.904404
47.373062
43.151157
42.035553
44.645363
47.799759
47.386223
41.542061
32.120983
22.311859
14.037141
8.112060
4.979940
4.115706
3.432505
0.490848
-5.823540
-14.741768
-24.317682
-33.648678
-43.959919
-55.885521
-67.113213
-74.608925
-77.559196
-77.157127
-74.947853
-71.404305
-65.787682
-58.233246
-51.140816
-46.934502
-45.519867
-44.795799
-42.369804
-37.028728
-29.664837
-23.115452
-21.049286
-25.496401
-35.104759
-46.626442
-57.244308
-65.629578
-71.675980
-74.786819
-73.098785
-65.854736
-55.342289
-44.645775
-34.712990
-24.392891
-12.258565
0.825534
10.733390
13.424788
8.600384
-0.302654
-8.065289
-10.625137
-7.150207
0.723314
10.616380
20.937355
31.754404
44.336639
60.217960
80.183258
103.583649
128.548141
152.554413
173.150970
188.570206
198.039886
202.050659
202.516678
202.388077
203.930878
207.077576
209.614883
208.637772
203.059341
195.014969
187.611404
182.149811
177.750122
172.394058
164.749710
155.231293
144.804657
133.623993
121.294121
107.489281
91.764519
73.254120
51.197205
25.827044
-0.962381
-25.647499
-44.503658
-54.885937
-55.014473
-43.723454
-21.615364
7.623869
37.503010
60.354382
70.517265
66.716530
50.977325
26.687719
-2.250625
-31.740129
-57.986206
-78.275421
-91.778114
-99.677811
-103.685516
-104.707649
-103.375092
-100.883118
-98.678215
-97.731071
-98.217957
-99.682938
-101.767761
-104.685928
-108.631203
-113.111313
-117.224960
-120.366859
-122.835297
-125.866211
-130.476120
-136.395752
-142.470169
-147.713181
-152.346863
-158.118286
-166.945435
-179.423584
-194.605515
-210.443451
-224.656464
-235.620270
-242.903305
-247.169876
-248.972610
-247.999527
-244.104446
-237.770401
-227.675308
-208.674149
-174.703659
-124.335793
-66.245354
-19.347578
-0.144758
-10.206449
-37.398994
-63.811520
-76.017014
-71.492882
-54.531353
-29.950058
-0.797285
31.667765
66.911880
103.998482
140.676437
173.186554
197.779495
212.367706
216.889877
213.115845
204.150742
193.566727
183.789017
174.907135
165.681366
155.652618
147.144608
144.955276
151.005844
160.067245
163.422852
154.937256
134.542450
108.354416
83.669739
64.305206
51.124645
44.036621
42.566631
45.788235
52.617939
62.073448
72.784477
82.497086
88.489243
88.432610
81.280205
67.610497
48.734989
25.875624
0.538197
-25.079884
-48.734291
-68.729454
-83.359863
-90.448708
-88.408928
-77.603149
-60.553818
-41.111229
-22.398605
-5.330110
10.379236
24.720869
37.077717
46.400291
51.275295
49.958218
40.866322
23.592722
0.354104
-23.622112
-42.840168
-54.547649
-59.070034
-58.495872
-54.329498
-46.356411
-34.967388
-23.361536
-15.926537
-15.307613
-20.633856
-27.685211
-32.365589
-33.966011
-34.680836
-37.442997
-43.498981
-51.193108
-57.682354
-61.133381
-61.265308
-58.682873
-53.316601
-43.859707
-30.116207
-15.158261
-3.890607
-0.219227
-4.804940
-14.559069
-25.505051
-35.544144
-44.008366
-50.391022
-54.284401
-55.800583
-55.509033
-53.943447
-50.946522
-45.649937
-37.952251
-29.647100
-23.173861
-19.837002
-19.259975
-19.783665
-19.779587
-18.701706
-16.744116
-14.034379
-10.113566
-3.952551
5.133948
16.640032
29.129042
41.105885
52.161121
63.505508
76.790321
92.701637
110.718750
129.591187
148.280075
166.507568
184.028580
199.689713
211.357544
216.588867
214.169235
205.354477
193.387756
182.117828
174.066589
169.027222
164.540237
157.090057
143.380203
121.186127
89.378288
48.053947
-0.553691
-51.509838
-98.601799
-136.554474
-162.844193
-178.021179
-183.033127
-176.994064
-158.911911
-130.414948
-96.482063
-64.189934
-39.036629
-22.141064
-11.781283
-6.005663
-3.704436
-4.712916
-9.347862
-17.902048
-30.133278
-44.678326
-58.605770
-67.760681
-68.957085
-61.998566
-49.311832
-34.598358
-21.400251
-12.123559
-7.933639
-8.673123
-12.365629
-15.161147
-13.020976
-3.732979
12.199605
31.701172
50.801182
66.483101
77.552406
84.697830
89.458267
93.154312
96.636337
100.422905
104.922630
110.389420
116.388885
121.551468
124.491173
124.804100
123.055489
120.350014
117.878632
116.539101
116.663963
117.914795
119.497284
120.277016
118.471260
111.535934
97.117058
74.380905
44.938553
12.797850
-17.645252
-43.525017
-63.482384
-77.251953
-85.999809
-92.389877
-99.018410
-106.871040
-115.641289
-124.705307
-133.709869
-142.545929
-150.652054
-156.947952
-161.524460
-166.632339
-174.289734
-183.778427
-192.424545
-197.524994
-197.548691
-192.379745
-182.365204
-167.606232
-148.659485
-127.225891
-105.402161
-84.703171
-66.067650
-50.220936
-37.793556
-29.203581
-24.360718
-22.472416
-22.276466
-22.461258
-22.111713
-20.952621
-19.048273
-16.355715
-12.505148
-6.943167
0.381443
8.616410
16.781084
24.635109
32.484402
40.400154
47.339306
51.058388
49.916142
44.563293
37.412113
31.238249
27.934093
27.890442
30.580244
35.311626
41.393852
48.052708
54.382668
59.385162
62.167328
62.321915
60.463398
58.310059
57.538872
58.754772
61.884941
66.790306
72.870743
78.203346
79.150398
71.330132
53.148991
28.499069
4.531699
-12.276888
-19.144903
-18.013071
-12.865788
-6.810527
-1.734946
1.150153
1.228245
-1.333120
-5.674866
-10.679564
-15.708936
-20.902248
-26.200233
-30.462612
-32.062302
-29.815895
-23.220531
-12.355299
2.187159
19.198217
36.645966
51.848743
62.648502
68.499039
70.268768
69.525688
67.776672
65.880775
63.870708
61.070972
56.703884
50.573006
43.414917
36.844917
32.553955
31.415125
33.109558
36.180542
38.775726
39.646832
38.951706
38.196514
38.448833
39.082684
39.305092
39.739693
41.248711
42.927151
41.485199
32.421047
13.648565
-12.071577
-39.807281
-65.755966
-87.350960
-102.749619
-111.963684
-117.553825
-122.281738
-126.822716
-130.635880
-133.167587
-132.870667
-126.368439
-110.698051
-86.374817
-58.372429
-34.295094
-18.584543
-9.031252
-2.041439
2.244314
3.110549
2.764309
2.811456
1.403870
-1.464131
-0.460497
6.745442
12.918177
11.012316
5.256163
6.631255
20.260588
34.268532
23.771917
-16.176683
-51.304634
-47.725449
-12.632177
22.565996
36.254436
29.387533
18.865538
13.580716
2.183618
-21.469875
-37.585136
-26.110641
4.314759
28.743027
31.046709
13.800594
-5.887098
-14.546690
-15.330534
-18.005505
-25.616917
-35.360748
-44.707272
-54.091209
-65.869461
-79.951813
-91.226768
-93.961868
-87.442375
-76.742538
-69.056625
-65.730568
-58.897308
-42.232021
-20.802996
-4.703374
1.256319
-0.151597
-2.179564
-1.750221
-2.924274
-8.493030
-12.938473
-9.721501
-0.111367
9.431089
13.943200
13.493965
12.630893
14.678183
17.637474
18.030380
15.554364
11.927931
8.083891
3.813110
-1.117870
-5.625633
-7.089196
-3.548329
4.364901
14.477582
24.926718
34.854111
44.182568
52.697147
59.639690
64.710686
68.530319
70.763062
68.864555
60.704132
47.484673
33.135727
22.094816
16.998852
17.546207
21.898441
28.227886
34.684444
39.485641
42.530369
46.000504
51.183449
56.128353
58.830807
60.396793
62.572491
64.325943
62.519028
54.781944
42.560291
31.569609
26.603483
27.275858
31.016472
36.702374
43.005367
46.450439
44.310902
37.585148
28.865660
19.396093
9.692346
1.449005
-2.103168
1.837618
11.174724
17.890202
16.777845
12.271149
11.246870
