EVENT_NAME: EMILIA_2ND_SHOCK
EVENT_ID: IT-2012-0011
EVENT_DATE_YYYYMMDD: 20120529
EVENT_TIME_HHMMSS: 070002
EVENT_LATITUDE_DEGREE: 44.8417
EVENT_LONGITUDE_DEGREE: 11.0657
EVENT_DEPTH_KM: 8.1
HYPOCENTER_REFERENCE: INGV-CNT_Seismic_Bulletin
MAGNITUDE_W: 6.0
MAGNITUDE_W_REFERENCE: RCMT-INGV
MAGNITUDE_L: 5.8
MAGNITUDE_L_REFERENCE: INGV-CNT_Seismic_Bulletin
FOCAL_MECHANISM: TF
NETWORK: IV
STATION_CODE: T0814
STATION_NAME: T0814
STATION_LATITUDE_DEGREE: 44.793300
STATION_LONGITUDE_DEGREE: 10.969200
STATION_ELEVATION_M: 16
LOCATION: 
SENSOR_DEPTH_M: 1.0
VS30_M/S: 
SITE_CLASSIFICATION_EC8: C*
MORPHOLOGIC_CLASSIFICATION: 
EPICENTRAL_DISTANCE_KM: 9.3
EARTHQUAKE_BACKAZIMUTH_DEGREE: 54.8
DATE_TIME_FIRST_SAMPLE_YYYYMMDD_HHMMSS: 20120529_065942.000
DATE_TIME_FIRST_SAMPLE_PRECISION: milliseconds
SAMPLING_INTERVAL_S: 0.005000
NDATA: 20001
DURATION_S: 100.005
STREAM: HNE
UNITS: cm/s
INSTRUMENT: sensor = Episensor FBA ES-T [Kinemetrics] | digitizer = Unknown [Unknown]
INSTRUMENT_ANALOG/DIGITAL: D
INSTRUMENTAL_FREQUENCY_HZ: 
INSTRUMENTAL_DAMPING: 
FULL_SCALE_G: 
N_BIT_DIGITAL_CONVERTER: 
PGV_CM/S: -23.676570
TIME_PGV_S: 32.075000
BASELINE_CORRECTION: BASELINE REMOVED
FILTER_TYPE: BUTTERWORTH
FILTER_ORDER: 2
LOW_CUT_FREQUENCY_HZ: 0.060
HIGH_CUT_FREQUENCY_HZ: 40.000
LATE/NORMAL_TRIGGERED: NT
DATABASE_VERSION: DYNA 1.0
HEADER_FORMAT: DYNA 1.2
DATA_TYPE: VELOCITY
PROCESSING: manual (Paolucci et al., 2011)
DATA_TIMESTAMP_YYYYMMDD_HHMMSS: 
DATA_LICENSE: CC-BY4_0 (http://creativecommons.org/licenses/by/4.0/)
DATA_CITATION: ESM working group (2015), European Strong-Motion database, version 0.1, Network Activity 3: Networking acceleration networks and SM data users. Project NERA (www.nera-eu.org)
DATA_CREATOR: ESM working group
ORIGINAL_DATA_MEDIATOR_CITATION: Orfeus - European Integrated Data Archive (EIDA) http://www.orfeus-eu.org/eida/
ORIGINAL_DATA_MEDIATOR: Orfeus - European Integrated Data Archive (EIDA)
ORIGINAL_DATA_CREATOR_CITATION: Data for this study comes from the Italian national seismic network operated by Istituto Nazionale di Geofisica e Vulcanologia and archived at the European Integrated Data Archive http://eida.rm.ingv.it/
ORIGINAL_DATA_CREATOR: network: IV (Italian National Seismic Network); owner: Istituto Nazionale di Geofisica e Vulcanologia
USER1: 
USER2: 
USER3: 
USER4: 
USER5: 
[...]
0.080025
0.159978
0.268335
0.366689
0.417828
0.399649
0.315024
0.193028
0.076734
0.001421
-0.020724
0.002844
0.057465
0.127036
0.194886
0.248493
0.284859
0.306699
0.312544
0.295736
0.256199
0.209939
0.181352
0.185023
0.217122
0.262025
0.301371
0.316393
0.290535
0.219200
0.118370
0.021404
-0.035469
-0.030307
0.036137
0.146108
0.274950
0.394200
0.472902
0.488279
0.440614
0.355088
0.268396
0.214214
0.212236
0.258212
0.321890
0.361225
0.346637
0.277205
0.178533
0.087941
0.037577
0.043416
0.103058
0.199097
0.304945
0.394118
0.450558
0.471880
0.463211
0.430044
0.378917
0.322623
0.278564
0.257545
0.255449
0.259565
0.261652
0.261894
0.262270
0.258872
0.241039
0.199923
0.142274
0.096798
0.100472
0.171781
0.296106
0.435202
0.547779
0.605312
0.599678
0.544574
0.468925
0.402368
0.360730
0.340021
0.321128
0.282297
0.214860
0.134132
0.073928
0.065022
0.116459
0.215992
0.343751
0.479597
0.599100
0.674045
0.687066
0.646376
0.581681
0.525862
0.501823
0.518527
0.568195
0.626108
0.661384
0.655765
0.614152
0.557551
0.506878
0.472965
0.459318
0.470205
0.512089
0.586666
0.685525
0.793083
0.893123
0.971670
1.014998
1.008377
0.942271
0.823157
0.677045
0.541360
0.452464
0.433600
0.484660
0.580130
0.680674
0.751234
0.772457
0.743827
0.684214
0.627073
0.605219
0.632847
0.701800
0.795765
0.903984
1.018797
1.125460
1.203728
1.240074
1.231713
1.181139
1.093781
0.979068
0.849743
0.722327
0.621196
0.577069
0.611340
0.718191
0.864651
1.009534
1.121461
1.181691
1.182038
1.130017
1.052847
0.988535
0.967227
0.994686
1.046637
1.079037
1.054511
0.967811
0.845420
0.720834
0.614660
0.538817
0.510992
0.552836
0.668014
0.824971
0.968789
1.053826
1.066624
1.024630
0.963175
0.922757
0.930982
0.982569
1.040801
1.067014
1.051347
1.015702
0.991818
0.999940
1.041609
1.103537
1.167329
1.219566
1.254138
1.264874
1.241171
1.176620
1.079441
0.970270
0.871694
0.803771
0.786823
0.836573
0.945970
1.073445
1.161280
1.174349
1.120546
1.034224
0.944725
0.863574
0.798637
0.770101
0.799419
0.881349
0.978554
1.047836
1.066893
1.037902
0.977086
0.907313
0.851779
0.825877
0.835247
0.877937
0.942505
1.007897
1.055561
1.086566
1.121630
1.179024
1.253601
1.318997
1.350892
1.349734
1.340507
1.349440
1.383638
1.435074
1.497886
1.569737
1.633284
1.649649
1.584349
1.441639
1.268526
1.124774
1.051284
1.060517
1.144621
1.284461
1.448497
1.590111
1.663721
1.654840
1.591642
1.526136
1.505769
1.554377
1.662489
1.787356
1.873992
1.888623
1.833309
1.734438
1.627652
1.552013
1.541817
1.608581
1.730752
1.866179
1.976099
2.040523
2.059004
2.045655
2.024965
2.024498
2.061801
2.134709
2.225618
2.313564
2.380485
2.411562
2.398078
2.342660
2.258532
2.161683
2.064634
1.976393
1.906090
1.865623
1.866843
1.913962
1.998612
2.103602
2.213163
2.320321
2.423481
2.515589
2.579432
2.597294
2.566377
2.501387
2.418053
2.317024
2.188759
2.031939
1.861828
1.700791
1.565477
1.463143
1.393567
1.350623
1.325269
1.312339
1.316340
1.349815
1.425373
1.547024
1.704868
1.875911
2.032516
2.155907
2.245056
2.310792
2.358941
2.380601
2.361812
2.302861
2.225449
2.157970
2.112404
2.076810
2.031873
1.972709
1.910778
1.854543
1.790601
1.684321
1.497121
1.201837
0.785984
0.248140
-0.403008
-1.141797
-1.920029
-2.683153
-3.410114
-4.140375
-4.947187
-5.873946
-6.897052
-7.940668
-8.910266
-9.713422
-10.270140
-10.523650
-10.451080
-10.068020
-9.422307
-8.578850
-7.603989
-6.554030
-5.470697
-4.386314
-3.329830
-2.322459
-1.368036
-0.449437
0.464320
1.402217
2.372980
3.354962
4.303337
5.168834
5.912307
6.510704
6.958046
7.261173
7.430084
7.467341
7.364843
7.113032
6.716955
6.207479
5.640829
5.086587
4.610471
4.261585
4.064804
4.015465
4.082491
4.223148
4.400118
4.589970
4.780526
4.962132
5.121694
5.243531
5.312261
5.314634
5.242810
5.099964
4.902086
4.669912
4.416524
4.144215
3.854928
3.561248
3.285817
3.052186
2.875070
2.755273
2.682369
2.643136
2.629726
2.643167
2.691524
2.783516
2.918254
3.076337
3.222821
3.320986
3.342670
3.270743
3.100224
2.840875
2.520028
2.182502
1.882558
1.669430
1.575372
1.609167
1.753425
1.967534
2.196581
2.383898
2.487826
2.497517
2.435269
2.345191
2.278653
2.279195
2.365949
2.523169
2.704882
2.850235
2.900789
2.823008
2.632608
2.397681
2.210034
2.144704
2.232526
2.454882
2.756754
3.066443
3.310612
3.426508
3.380210
3.183036
2.885459
2.548257
2.214659
1.900530
1.600858
1.302734
0.998924
0.701119
0.446876
0.292143
0.290237
0.467771
0.813214
1.286203
1.835545
2.409948
2.964903
3.470691
3.911749
4.274286
4.534759
4.662877
4.637652
4.459434
4.146098
3.720434
3.204141
2.626040
2.039084
1.526633
1.179376
1.054128
1.148690
1.409357
1.758074
2.118187
2.428195
2.648027
2.763124
2.780954
2.719185
2.596458
2.430589
2.235147
2.011036
1.746460
1.434839
1.096960
0.780331
0.530853
0.364323
0.262895
0.194407
0.134479
0.074519
0.015081
-0.043015
-0.098780
-0.143323
-0.153734
-0.097659
0.049684
0.287168
0.585292
0.903010
1.204815
1.460779
1.640025
1.713649
1.662943
1.483804
1.186228
0.792300
0.336519
-0.133027
-0.559690
-0.891607
-1.097912
-1.179548
-1.165176
-1.091304
-0.983763
-0.858208
-0.733584
-0.639441
-0.607910
-0.655278
-0.768113
-0.906916
-1.023663
-1.079217
-1.054168
-0.951476
-0.788004
-0.579544
-0.330988
-0.038481
0.300500
0.678612
1.076349
1.463758
1.805168
2.069052
2.240325
2.327236
2.358318
2.370973
2.397432
2.455742
2.549250
2.671213
2.809950
2.952322
3.084200
3.190346
3.261050
3.304410
3.349584
3.433459
3.582641
3.805635
4.095438
4.433196
4.788997
5.122248
5.385945
5.537380
5.551512
5.430128
5.198896
4.888143
4.509067
4.046214
3.472556
2.770246
1.936959
0.979488
-0.087282
-1.229345
-2.384257
-3.464297
-4.370643
-5.016429
-5.353014
-5.388802
-5.187505
-4.839464
-4.426819
-4.014118
-3.660443
-3.418477
-3.311762
-3.321432
-3.403998
-3.524032
-3.673485
-3.865171
-4.109084
-4.388918
-4.652908
-4.827043
-4.841318
-4.648200
-4.228896
-3.593333
-2.773302
-1.814507
-0.780022
0.237830
1.114637
1.717285
1.957801
1.841119
1.453149
0.897905
0.248380
-0.454705
-1.179072
-1.889135
-2.556771
-3.169545
-3.711773
-4.134149
-4.353221
-4.297808
-3.960155
-3.392061
-2.655474
-1.790958
-0.830359
0.178797
1.173029
2.094995
2.911786
3.613731
4.204254
4.693658
5.092292
5.398295
5.588186
5.622147
5.463144
5.096498
4.540965
3.848811
3.091971
2.341444
1.655360
1.076130
0.629006
0.323966
0.160782
0.130465
0.212161
0.374366
0.586139
0.829999
1.103711
1.410146
1.747619
2.107758
2.475816
2.833056
3.165885
3.476501
3.782882
4.104732
4.446791
4.793811
5.119912
5.402847
5.631706
5.805642
5.930500
6.018356
6.086849
6.155182
6.239777
6.353379
6.506970
6.709391
6.963048
7.259935
7.579058
7.884896
8.132903
8.283976
8.316728
8.228524
8.031332
7.750434
7.421671
7.081977
6.758510
6.463725
6.197445
5.950761
5.708219
5.452107
5.172065
4.874025
4.577622
4.298863
4.030676
3.741844
3.399326
2.996313
2.566552
2.177517
1.903269
1.787866
1.824390
1.969421
2.177113
2.416588
2.662426
2.878463
3.016828
3.034578
2.910889
2.652412
2.290251
1.874106
1.462698
1.109761
0.847743
0.673850
0.550171
0.426716
0.272063
0.083837
-0.124228
-0.338401
-0.550240
-0.754049
-0.945342
-1.122643
-1.290322
-1.461241
-1.658386
-1.912247
-2.250050
-2.681569
-3.195187
-3.769742
-4.389278
-5.045261
-5.729012
-6.427633
-7.129153
-7.833426
-8.558947
-9.334898
-10.180590
-11.089080
-12.027560
-12.950090
-13.810670
-14.570390
-15.198740
-15.672950
-15.976760
-16.096180
-16.015739
-15.720090
-15.198980
-14.453560
-13.501220
-12.372380
-11.100590
-9.717146
-8.253878
-6.747220
-5.235327
-3.749929
-2.314874
-0.953381
0.306835
1.437837
2.422741
3.264269
3.981968
4.600059
5.135900
5.596680
5.984873
6.306219
6.571247
6.790441
6.973424
7.136272
7.306359
7.511395
7.760710
8.042841
8.342718
8.657123
8.993285
9.357673
9.750410
10.168450
10.609910
11.073670
11.553720
12.031210
12.471410
12.830710
13.070290
13.167870
13.122420
12.948100
12.658210
12.247230
11.687700
10.956230
10.075380
9.128258
8.227419
7.469216
6.906774
6.548727
6.372296
6.335529
6.385651
6.469724
6.543263
6.567175
6.501668
6.309459
5.964635
5.460102
4.810080
4.045794
3.207314
2.334299
1.452843
0.562459
-0.362244
-1.351464
-2.417788
-3.549759
-4.720398
-5.896421
-7.044499
-8.139029
-9.169739
-10.143580
-11.079210
-11.998660
-12.920870
-13.855720
-14.796820
-15.716210
-16.568069
-17.300751
-17.869129
-18.245220
-18.425470
-18.427910
-18.280680
-18.012690
-17.650459
-17.217331
-16.734020
-16.221100
-15.700460
-15.191880
-14.708460
-14.262520
-13.884330
-13.632730
-13.575880
-13.750590
-14.135850
-14.668870
-15.286690
-15.952350
-16.651670
-17.377270
-18.116211
-18.844801
-19.527500
-20.117109
-20.557119
-20.787430
-20.758039
-20.452410
-19.902901
-19.173519
-18.319599
-17.363411
-16.302099
-15.130200
-13.855970
-12.509320
-11.147730
-9.853120
-8.710707
-7.779394
-7.069081
-6.538553
-6.119936
-5.753011
-5.404008
-5.065839
-4.752782
-4.494418
-4.326977
-4.285023
-4.396641
-4.677597
-5.122922
-5.705567
-6.387554
-7.135090
-7.925757
-8.743126
-9.566736
-10.371630
-11.139470
-11.867560
-12.563170
-13.226690
-13.842890
-14.390380
-14.857230
-15.245890
-15.564780
-15.816680
-15.993430
-16.078320
-16.053680
-15.908620
-15.640970
-15.255500
-14.764190
-14.186960
-13.548140
-12.870240
-12.171400
-11.470210
-10.792940
-10.177140
-9.670732
-9.322236
-9.162363
-9.190721
-9.379547
-9.689941
-10.086730
-10.541580
-11.025460
-11.503200
-11.936730
-12.291180
-12.541050
-12.676560
-12.706300
-12.655980
-12.565080
-12.476280
-12.418330
-12.395390
-12.391020
-12.381270
-12.346370
-12.275880
-12.168320
-12.027900
-11.859260
-11.661810
-11.428730
-11.153250
-10.835670
-10.483430
-10.104680
-9.703894
-9.284709
-8.855570
-8.430210
-8.021692
-7.635621
-7.266848
-6.900394
-6.516455
-6.096912
-5.629484
-5.109513
-4.540167
-3.929615
-3.287020
-2.621318
-1.941804
-1.256920
-0.571503
0.114411
0.804450
1.504665
2.222501
2.963720
3.727374
4.502487
5.269904
6.008427
6.701198
7.339749
7.924328
8.459835
8.951338
9.405182
9.833723
10.253740
10.677220
11.106610
11.541040
11.983810
12.439490
12.903970
13.362710
13.800690
14.212020
14.599330
14.967410
15.320230
15.661540
15.995020
16.323561
16.649561
16.975750
17.303961
17.631701
17.949869
18.244619
18.501400
18.707939
18.857821
18.954620
19.010710
19.037109
19.031990
18.979429
18.859159
18.656050
18.362909
17.979111
17.509069
16.961691
16.349770
15.688560
14.994470
14.284640
13.575290
12.878910
12.203970
11.556780
10.941850
10.359820
9.806117
9.273457
8.755510
8.246785
7.739244
7.220892
6.678552
6.102390
5.489281
4.844347
4.181425
3.520548
2.878197
2.252651
1.617995
0.938786
0.194473
-0.610836
-1.455657
-2.306033
-3.110930
-3.802682
-4.314286
-4.606164
-4.682309
-4.581705
-4.354608
-4.045564
-3.690748
-3.323551
-2.980378
-2.696463
-2.491456
-2.360777
-2.282358
-2.230709
-2.186809
-2.141834
-2.098322
-2.068876
-2.071065
-2.120412
-2.225101
-2.384705
-2.591589
-2.830608
-3.076828
-3.299076
-3.472967
-3.594028
-3.679659
-3.757903
-3.850571
-3.962735
-4.085470
-4.206655
-4.319089
-4.421778
-4.518647
-4.617865
-4.729387
-4.860224
-5.011553
-5.178849
-5.350742
-5.505708
-5.614401
-5.650980
-5.604638
-5.482920
-5.306980
-5.103508
-4.897716
-4.708310
-4.542754
-4.394383
-4.246011
-4.079319
-3.883451
-3.658326
-3.413569
-3.165825
-2.936003
-2.746083
-2.613109
-2.539789
-2.508274
-2.485827
-2.439198
-2.345410
-2.195363
-1.994101
-1.758364
-1.511166
-1.275265
-1.066649
-0.889494
-0.735882
-0.591352
-0.442970
-0.284945
-0.118081
0.055919
0.238430
0.430804
0.628066
0.818155
0.988607
1.133017
1.249919
1.336313
1.385856
1.396393
1.378793
1.357165
1.360789
1.415077
1.536154
1.729366
1.989516
2.300686
2.638461
2.979635
3.314940
3.651826
4.004024
4.379828
4.780504
5.204106
5.643038
6.078097
6.480146
6.820192
7.077915
7.241988
7.308868
7.286675
7.197548
7.071077
6.932747
6.796140
6.663118
6.530657
6.398632
6.272069
6.157217
6.056961
5.969865
5.891407
5.815236
5.735299
5.649651
5.563792
5.489637
5.439232
5.417675
5.421115
5.441016
5.470408
5.506765
5.549467
5.594096
5.627701
5.629076
5.575920
5.454080
5.261227
5.005523
4.704276
4.380441
4.052353
3.725289
3.397688
3.071429
2.748199
2.422140
2.087942
1.755316
1.443166
1.155128
0.871023
0.565007
0.222754
-0.160471
-0.589466
-1.070891
-1.609217
-2.205223
-2.855545
-3.550529
-4.274252
-5.009603
-5.744139
-6.470931
-7.186031
-7.887191
-8.573957
-9.247474
-9.909197
-10.558610
-11.192690
-11.809940
-12.416150
-13.025610
-13.654470
-14.310560
-14.988850
-15.676930
-16.365299
-17.052441
-17.741461
-18.434031
-19.128010
-19.819040
-20.501360
-21.166050
-21.798941
-22.380260
-22.886129
-23.289869
-23.562750
-23.676571
-23.607330
-23.339710
-22.871090
-22.210520
-21.370041
-20.353809
-19.154030
-17.756670
-16.151649
-14.342200
-12.352810
-10.233510
-8.052073
-5.877214
-3.766943
-1.768300
0.078384
1.743268
3.218612
4.520881
5.677531
6.711445
7.634066
8.447836
9.152219
9.746625
10.228860
10.594840
10.843810
10.984150
11.031170
10.997850
10.888580
10.700150
10.426570
10.062780
9.603951
9.044059
8.384757
7.658273
6.941880
6.328736
5.869817
5.548939
5.307221
5.074453
4.780576
4.364223
3.793225
3.078378
2.264330
1.410092
0.576514
-0.175452
-0.785106
-1.198716
-1.378940
-1.315502
-1.036888
-0.611877
-0.132630
0.312072
0.660767
0.893536
1.028786
1.101948
1.143972
1.176307
1.214310
1.265662
1.328559
1.398576
1.480140
1.590082
1.750021
1.976711
2.275579
2.636875
3.036468
3.441333
3.815763
4.128072
4.358066
4.500961
4.565600
4.568783
4.527349
4.450688
4.338073
4.182365
3.975299
3.708618
3.372452
2.956556
2.456371
1.881086
1.258320
0.630280
0.043017
-0.464801
-0.871568
-1.178416
-1.405615
-1.583304
-1.744507
-1.918953
-2.125604
-2.369644
-2.645220
-2.937627
-3.222310
-3.465387
-3.631155
-3.696557
-3.663454
-3.556333
-3.405565
-3.229658
-3.028668
-2.791182
-2.508125
-2.181864
-1.823207
-1.440752
-1.035268
-0.605888
-0.160073
0.285804
0.717298
1.133099
1.546110
1.974425
2.429942
2.912029
3.407870
3.895060
4.342979
4.716877
4.986785
5.135451
5.161673
5.079607
4.914200
4.695631
4.456524
4.228984
4.038401
3.897766
3.805448
3.747194
3.703344
3.657066
3.597045
3.516081
3.412394
3.294017
3.178642
3.084304
3.016829
2.964646
2.905445
2.818734
2.693143
2.523899
2.308047
2.045244
1.741733
1.412571
1.080827
0.772521
0.508116
0.295708
0.129666
-0.005417
-0.127559
-0.251200
-0.385428
-0.534891
-0.699851
-0.875499
-1.052147
-1.216324
-1.352528
-1.445376
-1.481426
-1.451368
-1.353028
-1.193280
-0.988855
-0.768121
-0.571095
-0.441831
-0.414194
-0.498657
-0.678406
-0.918482
-1.180802
-1.432434
-1.645306
-1.797145
-1.877769
-1.893573
-1.863427
-1.807881
-1.739854
-1.663494
-1.579686
-1.491464
-1.405657
-1.331836
-1.280721
-1.262488
-1.283898
-1.345393
-1.441296
-1.562287
-1.696416
-1.828926
-1.943908
-2.028317
-2.076121
-2.088960
-2.071885
-2.028337
-1.959483
-1.867216
-1.756267
-1.633014
-1.502864
-1.369422
-1.235733
-1.105043
-0.979815
-0.860247
-0.743074
-0.620565
-0.480917
-0.311311
-0.102709
0.146796
0.432992
0.749687
1.091394
1.452309
1.824065
2.195282
2.553612
2.889068
3.195958
3.472146
3.717969
3.936959
4.136618
4.326416
4.513536
4.699526
4.880196
5.047820
5.193254
5.307169
5.381229
5.410215
5.395238
5.346076
5.278850
5.208162
5.140799
5.078475
5.024515
4.985003
4.964725
4.963700
4.976851
4.995354
5.007816
5.001904
4.968043
4.903522
4.812851
4.703549
4.581255
4.448360
4.306425
4.159317
4.014696
3.883642
3.777998
3.705157
3.663615
3.644345
3.637921
3.641419
3.659940
3.702145
3.773141
3.870299
3.984785
4.105316
4.219885
4.316693
4.388161
4.434996
4.463214
4.477431
4.479428
4.470443
4.450601
4.416818
4.364324
4.289368
4.186767
4.046976
3.861251
3.629331
3.358583
3.056210
2.726106
2.373734
2.008892
1.641283
1.276265
0.915769
0.560953
0.212922
-0.127209
-0.456755
-0.770015
-1.058517
-1.312270
-1.522503
-1.686245
-1.809501
-1.905480
-1.989426
-2.074781
-2.172514
-2.291447
-2.436724
-2.607195
-2.795280
-2.988904
-3.172438
-3.327794
-3.438007
-3.491012
-3.480689
-3.406488
-3.273780
-3.094130
-2.883957
-2.661597
-2.443843
-2.243479
-2.067829
-1.918454
-1.793489
-1.691459
-1.613682
-1.564285
-1.548033
-1.567143
-1.619363
-1.698076
-1.793072
-1.891748
-1.981711
-2.054968
-2.110987
-2.154834
-2.191259
-2.220413
-2.238888
-2.243442
-2.232575
-2.205153
-2.159082
-2.092197
-2.004374
-1.899134
-1.784008
-1.669062
-1.563606
-1.472549
-1.395037
-1.326971
-1.265165
-1.209620
-1.163184
-1.130201
-1.115122
-1.120698
-1.146378
-1.188706
-1.243939
-1.310559
-1.389300
-1.480676
-1.582361
-1.688915
-1.793896
-1.891766
-1.977908
-2.047575
-2.095405
-2.116166
-2.106275
-2.065313
-1.996937
-1.908338
-1.808070
-1.704572
-1.607029
-1.525417
-1.467400
-1.435178
-1.424756
-1.426813
-1.428626
-1.416971
-1.381149
-1.315382
-1.219826
-1.099627
-0.962683
-0.817675
-0.673232
-0.537300
-0.415036
-0.305917
-0.204841
-0.109723
-0.027149
0.032793
0.065994
0.075056
0.061482
0.023002
-0.039106
-0.115577
-0.195141
-0.271243
-0.339986
-0.393650
-0.420087
-0.409161
-0.358013
-0.269899
-0.149823
-0.002620
0.166020
0.349573
0.543297
0.745591
0.955927
1.173411
1.398402
1.633242
1.879324
2.134721
2.396210
2.660996
2.926263
3.192131
3.462230
3.733782
3.991503
4.219282
4.413922
4.578041
4.703953
4.780299
4.809471
4.800290
4.750401
4.653687
4.520578
4.371244
4.208187
4.018147
3.802753
3.586672
3.393575
3.228247
3.084062
2.952071
2.815939
2.654180
2.457835
2.239320
2.020622
1.818217
1.640837
1.492267
1.369270
1.262283
1.162189
1.062652
0.954772
0.825014
0.664137
0.478092
0.287196
0.113748
-0.029281
-0.137941
-0.208957
-0.236449
-0.219057
-0.167186
-0.097931
-0.020956
0.067041
0.171285
0.287946
0.409421
0.536459
0.677580
0.834937
0.995570
1.138653
1.248623
1.321651
1.364147
1.388104
1.405784
1.425470
1.451096
1.484594
1.526650
1.574818
1.622684
1.662945
1.691544
1.708392
1.714801
1.709821
1.687971
1.642503
1.574079
1.495922
1.427007
1.379562
1.355930
1.355505
1.378497
1.421585
1.474802
1.527477
1.576244
1.624351
1.674191
1.722173
1.759880
1.778916
1.775100
1.749447
1.706344
1.651146
1.589201
