EVENT_NAME: EMILIA_2ND_SHOCK
EVENT_ID: IT-2012-0011
EVENT_DATE_YYYYMMDD: 20120529
EVENT_TIME_HHMMSS: 070002
EVENT_LATITUDE_DEGREE: 44.8417
EVENT_LONGITUDE_DEGREE: 11.0657
EVENT_DEPTH_KM: 8.1
HYPOCENTER_REFERENCE: INGV-CNT_Seismic_Bulletin
MAGNITUDE_W: 6.0
MAGNITUDE_W_REFERENCE: RCMT-INGV
MAGNITUDE_L: 5.8
MAGNITUDE_L_REFERENCE: INGV-CNT_Seismic_Bulletin
FOCAL_MECHANISM: TF
NETWORK: IV
STATION_CODE: T0811
STATION_NAME: T0811
STATION_LATITUDE_DEGREE: 44.783800
STATION_LONGITUDE_DEGREE: 11.226500
STATION_ELEVATION_M: 10
LOCATION: 
SENSOR_DEPTH_M: 1.0
VS30_M/S: 
SITE_CLASSIFICATION_EC8: C*
MORPHOLOGIC_CLASSIFICATION: 
EPICENTRAL_DISTANCE_KM: 14.3
EARTHQUAKE_BACKAZIMUTH_DEGREE: 296.9
DATE_TIME_FIRST_SAMPLE_YYYYMMDD_HHMMSS: 20120529_065952.000
DATE_TIME_FIRST_SAMPLE_PRECISION: milliseconds
SAMPLING_INTERVAL_S: 0.005000
NDATA: 30001
DURATION_S: 150.005
STREAM: HNE
UNITS: cm/s^2
INSTRUMENT: sensor = Episensor FBA ES-T [Kinemetrics] | digitizer = Unknown [Unknown]
INSTRUMENT_ANALOG/DIGITAL: D
INSTRUMENTAL_FREQUENCY_HZ: 
INSTRUMENTAL_DAMPING: 
FULL_SCALE_G: 
N_BIT_DIGITAL_CONVERTER: 
PGA_CM/S^2: -189.318164
TIME_PGA_S: 21.505000
BASELINE_CORRECTION: BASELINE REMOVED
FILTER_TYPE: BUTTERWORTH
FILTER_ORDER: 2
LOW_CUT_FREQUENCY_HZ: 0.060
HIGH_CUT_FREQUENCY_HZ: 40.000
LATE/NORMAL_TRIGGERED: NT
DATABASE_VERSION: DYNA 1.0
HEADER_FORMAT: DYNA 1.2
DATA_TYPE: ACCELERATION
PROCESSING: manual (Paolucci et al., 2011)
DATA_TIMESTAMP_YYYYMMDD_HHMMSS: 
DATA_LICENSE: CC-BY4_0 (http://creativecommons.org/licenses/by/4.0/)
DATA_CITATION: ESM working group (2015), European Strong-Motion database, version 0.1, Network Activity 3: Networking acceleration networks and SM data users. Project NERA (www.nera-eu.org)
DATA_CREATOR: ESM working group
ORIGINAL_DATA_MEDIATOR_CITATION: Orfeus - European Integrated Data Archive (EIDA) http://www.orfeus-eu.org/eida/
ORIGINAL_DATA_MEDIATOR: Orfeus - European Integrated Data Archive (EIDA)
ORIGINAL_DATA_CREATOR_CITATION: Data for this study comes from the Italian national seismic network operated by Istituto Nazionale di Geofisica e Vulcanologia and archived at the European Integrated Data Archive http://eida.rm.ingv.it/
ORIGINAL_DATA_CREATOR: network: IV (Italian National Seismic Network); owner: Istituto Nazionale di Geofisica e Vulcanologia
USER1: 
USER2: 
USER3: 
USER4: 
USER5: 
[...]
0.071574
-0.509237
-0.873960
-0.535934
0.336930
1.133577
1.377120
1.012238
0.297445
-0.418638
-0.855276
-0.911613
-0.704384
-0.462275
-0.351307
-0.371470
-0.384600
-0.222023
0.206776
0.821572
1.324063
1.318967
0.645813
-0.385313
-1.205535
-1.468399
-1.262063
-0.839222
-0.283494
0.435491
1.195138
1.687328
1.674650
1.161657
0.299588
-0.686255
-1.431550
-1.522864
-0.853392
0.139013
0.747488
0.584425
-0.129019
-0.862418
-1.244062
-1.163369
-0.603918
0.365923
1.408391
1.995129
1.878321
1.363361
0.971886
0.881440
0.801884
0.353905
-0.530434
-1.480916
-1.917732
-1.582326
-0.832971
-0.264140
-0.115224
-0.174660
-0.167753
-0.021213
0.238625
0.548007
0.701842
0.438775
-0.217878
-0.823217
-0.899081
-0.429782
0.120610
0.239404
-0.223069
-0.983898
-1.531334
-1.390094
-0.360955
1.296005
2.859130
3.460051
2.628210
0.712892
-1.221869
-2.134716
-1.852325
-1.128646
-0.754311
-0.724327
-0.458109
0.271991
1.008700
1.258011
1.079165
0.751676
0.136377
-1.046922
-2.422478
-3.094228
-2.682091
-1.767591
-1.076495
-0.650827
-0.118575
0.643333
1.487960
2.395194
3.366102
3.990470
3.691206
2.427685
0.783975
-0.662504
-1.763715
-2.548299
-2.924381
-2.772885
-2.112982
-1.117261
-0.026409
0.966438
1.786985
2.420198
2.702686
2.250681
0.824382
-1.230137
-3.093068
-4.080365
-4.060236
-3.325682
-2.294732
-1.310524
-0.458185
0.513544
1.983549
4.006662
5.971589
6.806642
5.728566
2.903191
-0.563418
-3.217532
-4.030927
-3.007764
-1.219426
-0.073533
-0.267191
-1.259729
-1.784371
-1.053005
0.465366
1.517288
1.202283
-0.437588
-2.631877
-4.334873
-4.581604
-2.926289
0.069232
2.886353
4.009311
3.138229
1.341541
-0.113882
-0.882036
-1.324104
-1.489116
-0.891006
0.704212
2.779370
4.520205
5.452439
5.365963
3.870830
0.609707
-3.755455
-7.258590
-8.101597
-6.359311
-3.788983
-1.994758
-1.179615
-0.639080
0.187772
1.494664
3.468928
6.079897
8.343092
8.448672
5.184850
-0.730025
-6.860191
-10.605806
-10.699715
-7.549618
-2.491078
2.998919
7.462386
9.577088
8.848726
6.036232
2.448051
-0.974621
-3.801052
-5.809966
-6.844153
-6.865321
-5.933119
-4.075522
-1.344156
1.824116
4.496331
5.831701
5.618250
4.076923
1.556818
-1.350861
-3.734923
-4.715653
-3.876744
-1.398263
1.902777
4.656000
5.571649
4.240306
1.284614
-2.106783
-4.703131
-5.565323
-4.314366
-1.306318
2.508193
5.935675
7.829127
7.298303
4.083478
-0.897110
-5.586558
-7.955181
-7.391607
-4.879800
-1.879296
0.697759
2.625689
4.021971
4.837265
4.607369
3.045156
0.726118
-1.341946
-2.720667
-3.640230
-4.067723
-3.224626
-0.452777
3.596321
7.030837
8.170931
6.743000
3.625481
-0.113503
-3.626176
-6.076148
-6.641366
-4.979722
-1.675165
1.772717
3.715179
3.555917
2.083464
0.399050
-1.174337
-2.825336
-4.258908
-4.647008
-3.534838
-1.249682
1.514478
4.080064
5.724663
5.755913
4.102042
1.610603
-0.514913
-1.486411
-1.218456
-0.246693
0.421844
-0.161101
-1.963279
-3.779400
-4.268927
-3.096264
-0.967641
1.165114
2.515530
2.386456
0.537554
-2.092478
-3.667980
-3.139292
-1.359800
-0.013970
0.287769
0.272374
0.571828
1.046642
1.625901
2.687159
4.025444
4.184600
1.939807
-1.798182
-4.545810
-4.552747
-2.011159
1.713528
5.227702
7.395738
7.394803
5.107632
1.404439
-2.183864
-4.375616
-4.974787
-4.762214
-4.508119
-4.256568
-3.542310
-1.990711
0.427530
3.413423
6.204741
7.562421
6.484463
3.313455
-0.314772
-3.089594
-5.022494
-6.491048
-6.994412
-5.505003
-1.842691
2.899301
7.265778
10.299896
11.394428
9.862448
5.466619
-0.621967
-6.111041
-9.213629
-9.752875
-8.644622
-6.883876
-5.098163
-3.448648
-1.633138
0.784956
3.607949
5.586831
5.272376
2.523350
-1.065229
-3.454191
-3.683987
-2.104581
0.346323
2.711538
4.151102
4.120435
2.737093
0.903738
-0.112527
0.523937
2.549625
4.629386
5.243173
3.828487
1.133418
-1.561106
-3.407549
-4.188706
-3.980775
-3.086728
-2.229816
-2.164772
-2.833675
-3.293780
-2.632061
-0.698548
2.091839
5.124835
7.444474
7.880464
5.838030
1.849618
-2.774423
-6.699369
-8.826791
-8.342012
-5.318216
-1.221525
1.880645
2.932892
2.347094
0.897315
-0.989787
-2.791803
-3.682702
-3.280661
-2.237858
-1.601387
-1.771696
-2.394263
-3.026105
-3.494138
-3.617228
-3.069741
-1.771476
-0.173283
1.083688
1.746206
1.988532
1.964055
1.644252
1.169369
1.010232
1.450566
2.095264
2.214447
1.538293
0.507874
-0.258039
-0.485655
-0.218333
0.420606
1.292493
2.164302
2.698952
2.689502
2.375074
2.323431
2.741751
2.976480
2.087872
-0.038618
-2.588228
-4.804919
-6.532327
-7.505746
-6.690564
-3.214866
2.140435
7.090610
9.581736
8.948830
5.553876
0.372646
-4.868510
-8.152256
-8.341581
-5.923288
-2.652935
-0.412367
-0.070946
-1.100649
-2.251167
-2.724012
-2.665770
-2.521382
-2.204354
-1.299060
-0.024791
0.649387
0.135391
-0.959137
-1.522964
-1.237530
-0.683635
-0.314677
0.091356
0.937224
2.156233
3.209764
3.469143
2.509469
0.411246
-2.078536
-3.849632
-3.866566
-1.482153
3.031550
7.832870
9.944819
7.427327
1.177086
-5.863690
-10.764209
-11.694921
-8.111040
-1.059093
6.704318
11.831776
12.179193
7.728732
0.171143
-8.257843
-15.674619
-20.559536
-21.557701
-18.055063
-10.783251
-1.398907
8.050479
15.151151
17.626322
14.571815
7.288751
-1.152823
-7.499346
-10.063959
-9.152592
-5.962476
-1.595587
2.782447
5.787415
6.836846
6.849227
6.863828
6.106775
2.351932
-5.210791
-13.884463
-19.107903
-18.332989
-12.567533
-4.268677
4.464590
11.522474
14.836311
13.764466
9.637593
4.327633
-1.161383
-6.302477
-10.287997
-12.543902
-13.477375
-13.504075
-11.421314
-5.505662
3.513516
11.957905
15.837318
13.339170
5.117884
-6.481187
-18.049353
-25.946997
-27.386932
-21.508354
-10.353045
1.472502
9.326165
11.342792
8.930256
4.841880
1.027580
-1.923991
-4.076986
-5.488212
-6.129205
-5.902277
-4.540734
-1.928568
1.430912
4.560610
6.421087
6.212888
3.927855
0.842583
-1.123030
-1.129608
-0.155301
0.359418
-0.096973
-1.351326
-3.233977
-5.189692
-5.766220
-3.924375
-0.778502
1.280820
1.395666
1.204183
2.426776
4.358780
4.708366
2.497867
-0.894569
-3.592543
-4.776699
-4.077583
-0.799312
5.448498
13.568319
20.678261
23.288134
19.589066
11.369964
3.171581
-1.429466
-2.366461
-1.621015
-0.272992
2.074092
5.297393
7.329879
5.391098
-1.364423
-10.559578
-18.174992
-21.497683
-20.266499
-15.454234
-8.529939
-1.946091
1.494701
0.722711
-2.616239
-5.840229
-7.521621
-7.859032
-7.838775
-8.593761
-10.651033
-12.772691
-11.887983
-5.611716
5.031579
15.952537
22.164400
19.515497
6.458889
-14.104880
-35.027515
-48.082321
-47.704350
-33.283474
-10.175364
12.433456
27.560238
34.239185
34.720577
29.929022
19.286985
3.956605
-11.983465
-24.352642
-31.769056
-34.813168
-33.050869
-24.765507
-9.633521
9.711303
28.425886
41.120235
43.611576
34.110474
13.832550
-11.969829
-34.238861
-44.302345
-39.198574
-22.636541
-1.500789
17.184612
27.415571
26.508268
17.604017
8.239879
5.232647
10.222627
19.229042
25.819004
25.351324
18.121042
9.493850
6.415999
12.621904
25.891115
39.005543
43.787903
36.066914
18.652609
-0.683769
-15.172597
-22.621784
-24.084204
-21.640018
-17.381763
-12.384516
-6.119879
2.099031
11.033191
18.073755
21.387289
19.960501
12.519902
-1.195678
-17.358444
-28.476427
-29.340014
-21.613270
-11.274113
-2.598159
4.469293
11.898664
19.896393
26.064178
28.013760
26.181355
22.777693
17.819519
8.712750
-4.708474
-16.675411
-19.302097
-9.993615
6.546665
23.524240
36.922607
44.914536
45.394917
37.034637
21.525829
2.423627
-16.630301
-31.572327
-38.389923
-35.859608
-27.287376
-18.318132
-12.874717
-11.473330
-12.998308
-17.141087
-24.229202
-32.726746
-38.222160
-36.334732
-26.523756
-12.532897
0.086217
6.849940
6.519555
1.767312
-2.734814
-4.073649
-3.000959
-1.815162
-1.341337
-0.900560
-0.485042
-0.976913
-1.871804
-1.050011
2.131268
5.098639
4.988607
2.429205
0.385154
-0.451841
-3.029108
-9.595218
-17.472866
-21.096210
-17.559702
-8.824061
0.881767
8.017886
10.255185
6.677494
-1.160167
-9.191607
-12.742881
-8.946091
2.061713
17.643326
34.248154
48.607555
57.564777
57.992748
48.653587
32.069298
13.333327
-3.270028
-16.593006
-27.838675
-37.708252
-44.770695
-46.783634
-43.234112
-36.334251
-29.471128
-24.555071
-21.113663
-18.033304
-15.484306
-14.483151
-14.992732
-15.305283
-13.167924
-7.429060
0.700448
8.204218
12.980964
15.902720
19.676580
25.743544
32.583908
36.988827
36.627777
31.283545
22.111814
10.698449
-0.647097
-8.328003
-8.760998
-1.489098
9.118005
16.553499
17.317299
12.543716
5.031459
-3.189663
-10.658346
-16.096539
-18.979080
-19.388866
-17.103247
-12.615745
-8.788379
-8.782089
-11.862842
-13.209565
-9.193207
-1.456577
5.668182
9.886446
11.390850
10.134359
5.277297
-2.329771
-9.320740
-12.683385
-12.524898
-10.786308
-7.917865
-2.730992
4.658887
11.628205
15.388481
15.047580
10.490231
1.011824
-13.469505
-30.139132
-42.743008
-44.522713
-33.400867
-13.734179
8.106917
28.132208
43.984409
52.425861
50.121662
37.106213
18.214926
0.117375
-13.148113
-21.090933
-24.049200
-21.726425
-14.508692
-4.467373
5.635480
13.757325
18.757908
19.665524
15.307879
5.137317
-9.649919
-26.334381
-41.729782
-52.345917
-54.418835
-45.998417
-29.411846
-10.480119
5.049100
14.499764
18.439388
18.585550
16.104834
11.977502
8.008756
6.382833
8.311708
13.401844
19.877127
25.176039
26.937763
24.259668
18.443285
12.498318
9.541965
11.100674
16.614967
24.714802
34.625759
45.121689
52.467117
51.665020
40.577110
21.803158
0.264223
-19.744179
-34.681019
-40.823887
-35.361176
-19.427277
0.686259
16.862692
24.022289
21.802208
12.920186
1.358431
-9.168589
-17.355219
-24.655022
-32.549229
-40.108700
-44.813076
-45.310337
-42.589581
-38.339260
-32.956554
-25.683426
-16.339788
-6.457079
1.473761
5.743990
5.870929
1.324566
-8.784624
-23.445496
-38.065804
-47.024944
-47.671974
-40.792240
-28.256306
-11.588436
7.077563
23.623146
33.061596
32.798859
24.095049
10.125174
-5.825405
-20.491993
-31.274500
-37.157928
-38.058189
-33.399990
-22.326403
-5.925971
11.132503
22.590887
25.323898
21.245352
13.936331
5.014845
-5.434353
-16.332144
-24.739351
-27.393648
-22.856340
-12.480775
0.579310
13.301658
23.631044
29.963219
30.868498
25.703365
15.402061
2.635444
-9.025081
-16.418108
-18.165714
-15.834831
-13.468397
-14.460365
-18.027466
-19.542223
-15.084920
-5.379768
4.815893
10.635304
10.003903
3.643220
-5.968406
-15.410517
-21.452263
-22.383032
-18.287992
-10.308663
-0.549972
7.802415
11.964923
11.388860
7.591549
2.575691
-2.019012
-4.652474
-3.916468
0.694530
8.198352
16.210201
21.694399
22.266190
17.381321
8.731427
-0.200605
-5.402830
-4.263191
2.935005
13.176699
22.375175
27.384846
27.305359
23.286522
17.058081
9.817266
2.553826
-3.346465
-6.709356
-7.520533
-6.779080
-5.902092
-6.450789
-9.574544
-14.982730
-20.734877
-24.831221
-26.902025
-27.887684
-28.644457
-29.517067
-30.806087
-32.279018
-31.929781
-26.861675
-16.153185
-2.092494
11.622350
22.363111
29.012026
30.543373
25.444378
13.780568
-0.712712
-12.296414
-17.325880
-16.554714
-13.914826
-13.339439
-16.329878
-21.763580
-27.162394
-29.774921
-27.127058
-17.840141
-2.929391
14.137750
29.805746
42.847504
53.966492
63.598835
71.205025
76.198685
78.127167
75.932137
68.163292
55.043522
39.961124
27.721367
21.504190
21.760273
26.974270
34.593758
41.627693
45.306931
43.790672
36.821896
26.186903
15.066327
6.231351
1.233999
1.314204
7.601949
19.767321
35.175636
49.821487
60.403343
65.960159
67.620804
66.828217
64.156059
59.529903
52.847664
44.494362
35.543194
27.373508
21.134768
17.482315
16.393879
17.131996
18.666298
20.292810
22.004883
24.325365
27.536991
31.036400
33.694588
34.790176
34.331589
32.539436
29.377529
24.922482
20.008295
15.931905
13.338751
11.838163
10.893644
10.492393
10.780011
11.586448
12.435542
12.649253
11.225326
6.950562
-0.745982
-10.843951
-20.993174
-28.997551
-33.702206
-34.463295
-30.816797
-23.214333
-13.655558
-5.204848
-0.374075
0.573272
-0.467492
-1.546339
-2.365410
-3.794897
-6.332982
-9.711324
-13.870094
-19.405008
-26.430319
-33.408901
-38.043446
-39.576309
-39.883305
-42.235130
-48.833984
-58.892799
-68.327316
-71.624214
-65.481476
-50.925316
-31.453627
-9.953746
12.299287
34.484917
54.536823
69.052025
75.599281
74.782974
69.546242
63.319862
58.937778
57.995827
60.422428
64.608284
68.120331
68.503250
63.982224
54.430359
42.275402
32.109829
28.197815
31.154449
36.880924
39.631992
36.942844
31.426750
27.918962
29.491592
35.921497
44.991119
54.495682
63.256870
71.150352
78.604561
86.003883
93.331581
99.919769
104.496346
106.096642
104.820183
101.132812
94.841179
85.359657
73.086784
60.140411
49.109795
40.885994
33.748653
24.478819
10.344633
-9.543984
-33.956654
-60.394642
-86.796570
-112.575592
-137.769394
-161.280411
-179.999985
-189.318161
-185.018295
-165.821106
-134.645187
-98.086288
-64.074432
-38.015732
-20.896181
-11.638023
-10.309959
-18.138033
-35.148941
-58.590168
-83.913887
-107.446251
-127.505356
-143.139542
-153.239975
-157.083420
-154.872635
-147.820114
-137.901794
-127.142746
-117.053230
-108.314247
-100.201111
-90.220726
-75.035980
-52.795055
-24.540359
7.022506
39.228374
69.832062
97.029488
119.532211
136.073868
144.620956
141.884903
124.291458
91.442627
48.719650
5.352389
-29.586617
-50.184589
-55.793232
-50.580067
-39.581036
-25.687910
-10.404355
4.065574
14.230369
16.973455
11.920457
1.562928
-11.226479
-24.782097
-38.077644
-50.314339
-61.309174
-71.444405
-80.747444
-87.951485
-90.846649
-88.143669
-80.902878
-71.690948
-62.158386
-51.433517
-37.302334
-18.926054
2.030626
22.474890
39.547424
51.367928
55.987698
50.096840
31.075052
1.163177
-31.794956
-58.349300
-72.601501
-74.585289
-67.838982
-54.604160
-34.644230
-8.459776
20.581015
47.824997
70.211311
87.056213
97.546974
98.200409
85.223495
59.457130
27.110786
-3.961434
-28.306219
-44.568253
-53.909824
-56.878456
-52.434933
-39.708046
-19.816441
3.502896
25.020544
40.773472
49.715885
52.634342
50.518524
44.131710
34.287533
22.525003
11.624112
4.997033
5.349954
13.595976
28.147615
45.215145
60.624889
71.484596
76.479919
75.817307
71.211021
65.037369
58.892357
52.889057
46.215649
38.276047
29.399038
20.707750
13.578141
9.100217
7.543986
8.296587
10.582280
14.054648
18.622272
23.875767
28.594481
30.921452
29.467382
24.136368
15.613369
4.480788
-8.969514
-24.236265
-39.856937
-53.358479
-62.453804
-66.365906
-66.053879
-63.614697
-61.150043
-59.349140
-56.997913
-52.132126
-44.034039
-34.208725
-25.303724
-19.319899
-16.873257
-17.538183
-20.447271
-24.700041
-29.390203
-33.430668
-35.737003
-35.807671
-34.081043
-31.681051
-29.759090
-28.844639
-28.609234
-28.295893
-27.539242
-26.853519
-27.253922
-29.137209
-31.211386
-30.696690
-25.245075
-14.639052
-0.361058
15.830194
32.646088
49.145706
64.041077
75.208717
80.305748
77.908157
68.161346
53.061108
35.831974
19.146240
4.091917
-9.114916
-20.081646
-27.985374
-32.036076
-32.197952
-29.388716
-24.972672
-20.326830
-16.731936
-15.231016
-16.539803
-21.083183
-28.830351
-39.102402
-50.668571
-61.886032
-70.946663
-76.511230
-78.110794
-75.894554
-70.500992
-63.153427
-55.360573
-48.411217
-42.969547
-38.750900
-34.507683
-28.644384
-20.215570
-9.403791
2.946730
16.017670
29.163055
41.581543
52.140614
59.752106
63.810673
64.118790
60.821976
54.869251
48.126041
42.444805
38.694828
36.786621
36.238895
36.537510
37.226727
38.006680
38.871101
39.945724
41.148975
42.213676
42.978672
43.370148
43.024277
41.209003
37.422756
32.193150
27.127584
23.825972
22.567842
22.063208
20.542908
17.226419
12.837874
8.724725
5.561416
2.929620
-0.095821
-4.183203
-9.446303
-15.611107
-22.336622
-29.368587
-36.377811
-42.750889
-47.740871
-50.938480
-52.645672
-53.767963
-55.203232
-57.246429
-59.497955
-61.217453
-61.779232
-60.968895
-59.077881
-56.762512
-54.639854
-52.901367
-51.284306
-49.333557
-46.587353
-42.557400
-36.818008
-29.366177
-20.915627
-12.820987
-6.641465
-3.434836
-3.086210
-4.321878
-5.530518
-5.550476
-3.854485
-0.412944
4.521715
10.597214
17.226391
23.386196
27.978224
30.570976
31.672642
32.179001
32.540031
32.455994
31.346642
29.000641
25.813309
22.753649
21.141397
21.963076
25.230114
30.140347
35.721638
41.259087
46.270901
50.157841
52.033459
51.159809
47.371700
40.820133
31.600540
19.727121
5.375913
-10.665666
-26.848728
-41.342686
-52.560059
-59.328922
-61.038963
-57.765984
-50.354321
-40.528259
-30.406487
-21.364342
-13.430204
-5.885484
1.709388
9.179736
16.236542
22.855391
28.877922
33.549194
35.881466
35.608055
33.674225
31.575607
30.201981
29.523319
29.258978
29.367111
29.768568
29.927011
28.972528
26.279554
21.960733
16.898731
12.269939
8.927961
7.193318
7.035615
8.105075
9.610027
10.501731
9.888890
7.339710
3.044230
-2.244547
-7.584889
-12.232264
-15.819594
-18.432684
-20.514715
-22.501970
-24.469984
-26.127701
-27.098576
-27.129816
-26.034590
-23.628763
-19.897705
-15.148647
-9.905020
-4.631884
0.470711
5.396534
10.083882
14.324251
17.898977
20.738295
23.002138
25.076769
27.443832
30.445839
34.064903
37.875629
41.306728
44.075855
46.365974
48.450191
50.084045
50.335243
48.017155
42.405338
33.706013
22.808287
10.691243
-1.879797
-14.309745
-25.914532
-35.738880
-42.844257
-46.786636
-47.729019
-46.367439
-43.711121
-40.492821
-36.782356
-32.285194
-26.995371
-21.632076
-17.400618
-15.178740
-15.035841
-16.602547
-19.582258
-23.818420
-29.061289
-34.705647
-39.850216
-43.749290
-46.116249
-46.930218
-46.121880
-43.511841
-39.072906
-33.315010
-27.257177
-21.878000
-17.659698
-14.622244
-12.562675
-11.202667
-10.231871
-9.289079
-7.970933
-5.902377
-2.784860
1.533338
6.825939
12.303143
16.783028
18.977161
17.722921
12.572211
4.400486
-4.818096
-12.824253
-17.859818
-19.262342
-17.476393
-13.361374
-7.669989
-1.098002
5.664153
12.015741
17.440540
21.495184
23.899996
24.649084
24.058739
22.601439
20.576778
18.135193
15.641088
13.742805
13.061851
13.869421
15.883825
18.266476
19.945782
20.096531
18.435362
15.268687
11.409502
7.927895
5.752299
5.446070
7.255065
11.098032
16.495226
22.638353
28.521965
33.155689
35.914970
36.657799
35.449894
32.384235
27.611170
21.345148
13.890362
5.672600
-2.729834
-10.542249
