EVENT_NAME: EMILIA_2ND_SHOCK
EVENT_ID: IT-2012-0011
EVENT_DATE_YYYYMMDD: 20120529
EVENT_TIME_HHMMSS: 070002
EVENT_LATITUDE_DEGREE: 44.8417
EVENT_LONGITUDE_DEGREE: 11.0657
EVENT_DEPTH_KM: 8.1
HYPOCENTER_REFERENCE: INGV-CNT_Seismic_Bulletin
MAGNITUDE_W: 6.0
MAGNITUDE_W_REFERENCE: RCMT-INGV
MAGNITUDE_L: 5.8
MAGNITUDE_L_REFERENCE: INGV-CNT_Seismic_Bulletin
FOCAL_MECHANISM: TF
NETWORK: IV
STATION_CODE: T0812
STATION_NAME: T0812
STATION_LATITUDE_DEGREE: 44.954700
STATION_LONGITUDE_DEGREE: 11.181000
STATION_ELEVATION_M: 7
LOCATION: 
SENSOR_DEPTH_M: 1.0
VS30_M/S: 
SITE_CLASSIFICATION_EC8: C*
MORPHOLOGIC_CLASSIFICATION: 
EPICENTRAL_DISTANCE_KM: 15.5
EARTHQUAKE_BACKAZIMUTH_DEGREE: 216.0
DATE_TIME_FIRST_SAMPLE_YYYYMMDD_HHMMSS: 20120529_065952.000
DATE_TIME_FIRST_SAMPLE_PRECISION: milliseconds
SAMPLING_INTERVAL_S: 0.005000
NDATA: 30001
DURATION_S: 150.005
STREAM: HNN
UNITS: cm
INSTRUMENT: sensor = Episensor FBA ES-T [Kinemetrics] | digitizer = Unknown [Unknown]
INSTRUMENT_ANALOG/DIGITAL: D
INSTRUMENTAL_FREQUENCY_HZ: 
INSTRUMENTAL_DAMPING: 
FULL_SCALE_G: 
N_BIT_DIGITAL_CONVERTER: 
PGD_CM: -7.018735
TIME_PGD_S: 29.395000
BASELINE_CORRECTION: BASELINE REMOVED
FILTER_TYPE: BUTTERWORTH
FILTER_ORDER: 2
LOW_CUT_FREQUENCY_HZ: 0.060
HIGH_CUT_FREQUENCY_HZ: 40.000
LATE/NORMAL_TRIGGERED: NT
DATABASE_VERSION: DYNA 1.0
HEADER_FORMAT: DYNA 1.2
DATA_TYPE: DISPLACEMENT
PROCESSING: manual (Paolucci et al., 2011)
DATA_TIMESTAMP_YYYYMMDD_HHMMSS: 
DATA_LICENSE: CC-BY4_0 (http://creativecommons.org/licenses/by/4.0/)
DATA_CITATION: ESM working group (2015), European Strong-Motion database, version 0.1, Network Activity 3: Networking acceleration networks and SM data users. Project NERA (www.nera-eu.org)
DATA_CREATOR: ESM working group
ORIGINAL_DATA_MEDIATOR_CITATION: Orfeus - European Integrated Data Archive (EIDA) http://www.orfeus-eu.org/eida/
ORIGINAL_DATA_MEDIATOR: Orfeus - European Integrated Data Archive (EIDA)
ORIGINAL_DATA_CREATOR_CITATION: Data for this study comes from the Italian national seismic network operated by Istituto Nazionale di Geofisica e Vulcanologia and archived at the European Integrated Data Archive http://eida.rm.ingv.it/
ORIGINAL_DATA_CREATOR: network: IV (Italian National Seismic Network); owner: Istituto Nazionale di Geofisica e Vulcanologia
USER1: 
USER2: 
USER3: 
USER4: 
USER5: 
[...]
-3.800819e+00
-3.863649e+00
-3.925913e+00
-3.987416e+00
-4.047974e+00
-4.107414e+00
-4.165573e+00
-4.222318e+00
-4.277546e+00
-4.331174e+00
-4.383120e+00
-4.433288e+00
-4.481575e+00
-4.527882e+00
-4.572148e+00
-4.614356e+00
-4.654542e+00
-4.692775e+00
-4.729132e+00
-4.763667e+00
-4.796399e+00
-4.827317e+00
-4.856389e+00
-4.883577e+00
-4.908845e+00
-4.932159e+00
-4.953482e+00
-4.972761e+00
-4.989925e+00
-5.004873e+00
-5.017489e+00
-5.027647e+00
-5.035238e+00
-5.040178e+00
-5.042414e+00
-5.041914e+00
-5.038661e+00
-5.032651e+00
-5.023891e+00
-5.012408e+00
-4.998243e+00
-4.981435e+00
-4.962017e+00
-4.939998e+00
-4.915372e+00
-4.888119e+00
-4.858216e+00
-4.825650e+00
-4.790418e+00
-4.752531e+00
-4.712018e+00
-4.668936e+00
-4.623398e+00
-4.575611e+00
-4.525921e+00
-4.474809e+00
-4.422814e+00
-4.370420e+00
-4.317963e+00
-4.265600e+00
-4.213344e+00
-4.161128e+00
-4.108864e+00
-4.056463e+00
-4.003848e+00
-3.950968e+00
-3.897819e+00
-3.844480e+00
-3.791124e+00
-3.737998e+00
-3.685380e+00
-3.633541e+00
-3.582729e+00
-3.533183e+00
-3.485162e+00
-3.438959e+00
-3.394892e+00
-3.353272e+00
-3.314360e+00
-3.278352e+00
-3.245384e+00
-3.215544e+00
-3.188900e+00
-3.165525e+00
-3.145497e+00
-3.128892e+00
-3.115764e+00
-3.106116e+00
-3.099884e+00
-3.096946e+00
-3.097143e+00
-3.100322e+00
-3.106362e+00
-3.115171e+00
-3.126672e+00
-3.140771e+00
-3.157329e+00
-3.176155e+00
-3.196994e+00
-3.219530e+00
-3.243366e+00
-3.268026e+00
-3.292984e+00
-3.317719e+00
-3.341796e+00
-3.364917e+00
-3.386926e+00
-3.407772e+00
-3.427463e+00
-3.446020e+00
-3.463448e+00
-3.479720e+00
-3.494776e+00
-3.508535e+00
-3.520906e+00
-3.531816e+00
-3.541230e+00
-3.549156e+00
-3.555645e+00
-3.560772e+00
-3.564612e+00
-3.567233e+00
-3.568691e+00
-3.569021e+00
-3.568247e+00
-3.566370e+00
-3.563372e+00
-3.559230e+00
-3.553916e+00
-3.547409e+00
-3.539690e+00
-3.530727e+00
-3.520475e+00
-3.508868e+00
-3.495829e+00
-3.481268e+00
-3.465100e+00
-3.447262e+00
-3.427733e+00
-3.406547e+00
-3.383801e+00
-3.359633e+00
-3.334197e+00
-3.307628e+00
-3.280017e+00
-3.251408e+00
-3.221816e+00
-3.191255e+00
-3.159762e+00
-3.127403e+00
-3.094275e+00
-3.060491e+00
-3.026162e+00
-2.991380e+00
-2.956213e+00
-2.920703e+00
-2.884860e+00
-2.848669e+00
-2.812085e+00
-2.775043e+00
-2.737465e+00
-2.699272e+00
-2.660396e+00
-2.620782e+00
-2.580394e+00
-2.539215e+00
-2.497258e+00
-2.454570e+00
-2.411238e+00
-2.367387e+00
-2.323171e+00
-2.278755e+00
-2.234306e+00
-2.189964e+00
-2.145834e+00
-2.101976e+00
-2.058414e+00
-2.015152e+00
-1.972200e+00
-1.929590e+00
-1.887377e+00
-1.845634e+00
-1.804443e+00
-1.763883e+00
-1.724022e+00
-1.684906e+00
-1.646551e+00
-1.608935e+00
-1.571994e+00
-1.535631e+00
-1.499732e+00
-1.464187e+00
-1.428906e+00
-1.393823e+00
-1.358905e+00
-1.324143e+00
-1.289555e+00
-1.255181e+00
-1.221076e+00
-1.187292e+00
-1.153871e+00
-1.120833e+00
-1.088182e+00
-1.055910e+00
-1.024011e+00
-9.924880e-01
-9.613587e-01
-9.306466e-01
-9.003652e-01
-8.705022e-01
-8.410152e-01
-8.118432e-01
-7.829256e-01
-7.542187e-01
-7.256992e-01
-6.973532e-01
-6.691562e-01
-6.410562e-01
-6.129673e-01
-5.847721e-01
-5.563357e-01
-5.275262e-01
-4.982355e-01
-4.683902e-01
-4.379542e-01
-4.069244e-01
-3.753250e-01
-3.432037e-01
-3.106306e-01
-2.776957e-01
-2.445018e-01
-2.111500e-01
-1.777224e-01
-1.442677e-01
-1.107964e-01
-7.727961e-02
-4.365049e-02
-9.807041e-03
2.438353e-02
5.907774e-02
9.444609e-02
1.306627e-01
1.678968e-01
2.063083e-01
2.460481e-01
2.872596e-01
3.300779e-01
3.746263e-01
4.210116e-01
4.693222e-01
5.196326e-01
5.720092e-01
6.265135e-01
6.832000e-01
7.421098e-01
8.032657e-01
8.666713e-01
9.323171e-01
1.000189e+00
1.070272e+00
1.142548e+00
1.216987e+00
1.293533e+00
1.372101e+00
1.452549e+00
1.534652e+00
1.618070e+00
1.702358e+00
1.786995e+00
1.871476e+00
1.955381e+00
2.038424e+00
2.120439e+00
2.201349e+00
2.281102e+00
2.359635e+00
2.436845e+00
2.512599e+00
2.586742e+00
2.659121e+00
2.729610e+00
2.798124e+00
2.864624e+00
2.929103e+00
2.991574e+00
3.052048e+00
3.110527e+00
3.166995e+00
3.221419e+00
3.273760e+00
3.323979e+00
3.372051e+00
3.417965e+00
3.461714e+00
3.503288e+00
3.542678e+00
3.579892e+00
3.614981e+00
3.648069e+00
3.679369e+00
3.709183e+00
3.737878e+00
3.765845e+00
3.793455e+00
3.821025e+00
3.848803e+00
3.876982e+00
3.905713e+00
3.935117e+00
3.965296e+00
3.996328e+00
4.028279e+00
4.061214e+00
4.095211e+00
4.130364e+00
4.166772e+00
4.204525e+00
4.243677e+00
4.284247e+00
4.326227e+00
4.369596e+00
4.414347e+00
4.460478e+00
4.507996e+00
4.556891e+00
4.607126e+00
4.658628e+00
4.711295e+00
4.765016e+00
4.819693e+00
4.875252e+00
4.931638e+00
4.988813e+00
5.046738e+00
5.105376e+00
5.164683e+00
5.224611e+00
5.285098e+00
5.346057e+00
5.407369e+00
5.468877e+00
5.530398e+00
5.591733e+00
5.652682e+00
5.713046e+00
5.772637e+00
5.831274e+00
5.888788e+00
5.945034e+00
5.999890e+00
6.053261e+00
6.105070e+00
6.155253e+00
6.203757e+00
6.250529e+00
6.295521e+00
6.338691e+00
6.380000e+00
6.419419e+00
6.456922e+00
6.492488e+00
6.526095e+00
6.557733e+00
6.587404e+00
6.615143e+00
6.641015e+00
6.665108e+00
6.687512e+00
6.708297e+00
6.727492e+00
6.745095e+00
6.761082e+00
6.775422e+00
6.788088e+00
6.799049e+00
6.808268e+00
6.815698e+00
6.821288e+00
6.824988e+00
6.826760e+00
6.826578e+00
6.824420e+00
6.820260e+00
6.814068e+00
6.805810e+00
6.795456e+00
6.782979e+00
6.768361e+00
6.751591e+00
6.732658e+00
6.711558e+00
6.688292e+00
6.662886e+00
6.635400e+00
6.605943e+00
6.574685e+00
6.541860e+00
6.507756e+00
6.472683e+00
6.436936e+00
6.400761e+00
6.364332e+00
6.327753e+00
6.291074e+00
6.254306e+00
6.217440e+00
6.180458e+00
6.143352e+00
6.106126e+00
6.068808e+00
6.031439e+00
5.994074e+00
5.956769e+00
5.919577e+00
5.882538e+00
5.845686e+00
5.809044e+00
5.772635e+00
5.736481e+00
5.700608e+00
5.665035e+00
5.629770e+00
5.594812e+00
5.560152e+00
5.525797e+00
5.491780e+00
5.458164e+00
5.425033e+00
5.392477e+00
5.360578e+00
5.329391e+00
5.298938e+00
5.269210e+00
5.240166e+00
5.211748e+00
5.183893e+00
5.156541e+00
5.129642e+00
5.103146e+00
5.076999e+00
5.051140e+00
5.025501e+00
5.000011e+00
4.974598e+00
4.949187e+00
4.923703e+00
4.898063e+00
4.872181e+00
4.845971e+00
4.819346e+00
4.792218e+00
4.764501e+00
4.736107e+00
4.706959e+00
4.676992e+00
4.646161e+00
4.614435e+00
4.581795e+00
4.548226e+00
4.513717e+00
4.478260e+00
4.441863e+00
4.404548e+00
4.366354e+00
4.327339e+00
4.287568e+00
4.247117e+00
4.206065e+00
4.164505e+00
4.122542e+00
4.080300e+00
4.037906e+00
3.995483e+00
3.953131e+00
3.910930e+00
3.868947e+00
3.827241e+00
3.785875e+00
3.744911e+00
3.704405e+00
3.664401e+00
3.624930e+00
3.586018e+00
3.547689e+00
3.509962e+00
3.472854e+00
3.436366e+00
3.400489e+00
3.365206e+00
3.330495e+00
3.296328e+00
3.262668e+00
3.229464e+00
3.196649e+00
3.164153e+00
3.131912e+00
3.099878e+00
3.068025e+00
3.036344e+00
3.004837e+00
2.973520e+00
2.942419e+00
2.911577e+00
2.881051e+00
2.850896e+00
2.821154e+00
2.791847e+00
2.762984e+00
2.734567e+00
2.706599e+00
2.679084e+00
2.652018e+00
2.625381e+00
2.599137e+00
2.573239e+00
2.547640e+00
2.522301e+00
2.497197e+00
2.472324e+00
2.447704e+00
2.423378e+00
2.399401e+00
2.375835e+00
2.352741e+00
2.330177e+00
2.308204e+00
2.286883e+00
2.266276e+00
2.246447e+00
2.227458e+00
2.209374e+00
2.192259e+00
2.176175e+00
2.161176e+00
2.147303e+00
2.134589e+00
2.123055e+00
2.112711e+00
2.103554e+00
2.095563e+00
2.088700e+00
2.082919e+00
2.078172e+00
2.074419e+00
2.071623e+00
2.069748e+00
2.068754e+00
2.068596e+00
2.069217e+00
2.070546e+00
2.072495e+00
2.074958e+00
2.077820e+00
2.080974e+00
2.084328e+00
2.087819e+00
2.091412e+00
2.095094e+00
2.098870e+00
2.102767e+00
2.106828e+00
2.111110e+00
2.115670e+00
2.120563e+00
2.125833e+00
2.131524e+00
2.137673e+00
2.144321e+00
2.151500e+00
2.159238e+00
2.167553e+00
2.176447e+00
2.185906e+00
2.195896e+00
2.206366e+00
2.217256e+00
2.228515e+00
2.240104e+00
2.251999e+00
2.264183e+00
2.276637e+00
2.289329e+00
2.302211e+00
2.315220e+00
2.328287e+00
2.341346e+00
2.354343e+00
2.367235e+00
2.379988e+00
2.392566e+00
2.404927e+00
2.417014e+00
2.428760e+00
2.440085e+00
2.450904e+00
2.461126e+00
2.470655e+00
2.479398e+00
2.487261e+00
2.494155e+00
2.500003e+00
2.504740e+00
2.508316e+00
2.510694e+00
2.511850e+00
2.511770e+00
2.510445e+00
2.507871e+00
2.504043e+00
2.498957e+00
2.492600e+00
2.484955e+00
2.475998e+00
2.465707e+00
2.454069e+00
2.441082e+00
2.426759e+00
2.411134e+00
2.394258e+00
2.376205e+00
2.357070e+00
2.336961e+00
2.315985e+00
2.294237e+00
2.271801e+00
2.248750e+00
2.225165e+00
2.201147e+00
2.176825e+00
2.152355e+00
2.127911e+00
2.103670e+00
2.079798e+00
2.056440e+00
2.033722e+00
2.011750e+00
1.990613e+00
1.970396e+00
1.951177e+00
1.933038e+00
1.916065e+00
1.900351e+00
1.885986e+00
1.873060e+00
1.861653e+00
1.851834e+00
1.843665e+00
1.837189e+00
1.832435e+00
1.829408e+00
1.828084e+00
1.828410e+00
1.830292e+00
1.833593e+00
1.838134e+00
1.843704e+00
1.850092e+00
1.857109e+00
1.864603e+00
1.872462e+00
1.880606e+00
1.888974e+00
1.897526e+00
1.906232e+00
1.915069e+00
1.924002e+00
1.932986e+00
1.941960e+00
1.950855e+00
1.959604e+00
1.968142e+00
1.976402e+00
1.984314e+00
1.991805e+00
1.998805e+00
2.005248e+00
2.011074e+00
2.016226e+00
2.020648e+00
2.024288e+00
2.027100e+00
2.029045e+00
2.030082e+00
2.030160e+00
2.029221e+00
2.027201e+00
2.024044e+00
2.019710e+00
2.014174e+00
2.007415e+00
1.999409e+00
1.990125e+00
1.979521e+00
1.967558e+00
1.954203e+00
1.939434e+00
1.923233e+00
1.905580e+00
1.886456e+00
1.865843e+00
1.843732e+00
1.820131e+00
1.795065e+00
1.768565e+00
1.740667e+00
1.711400e+00
1.680792e+00
1.648864e+00
1.615640e+00
1.581148e+00
1.545430e+00
1.508555e+00
1.470628e+00
1.431785e+00
1.392182e+00
1.351964e+00
1.311247e+00
1.270109e+00
1.228595e+00
1.186734e+00
1.144548e+00
1.102061e+00
1.059297e+00
1.016281e+00
9.730409e-01
9.296108e-01
8.860390e-01
8.423859e-01
7.987207e-01
7.551164e-01
7.116459e-01
6.683810e-01
6.253900e-01
5.827328e-01
5.404542e-01
4.985761e-01
4.570908e-01
4.159605e-01
3.751212e-01
3.344919e-01
2.939835e-01
2.535104e-01
2.130022e-01
1.724113e-01
1.317143e-01
9.090676e-02
4.999201e-02
8.972499e-03
-3.215276e-02
-7.338326e-02
-1.147088e-01
-1.561031e-01
-1.975226e-01
-2.389112e-01
-2.802108e-01
-3.213708e-01
-3.623539e-01
-4.031346e-01
-4.436930e-01
-4.840058e-01
-5.240412e-01
-5.637607e-01
-6.031293e-01
-6.421307e-01
-6.807765e-01
-7.191068e-01
-7.571816e-01
-7.950699e-01
-8.328423e-01
-8.705687e-01
-9.083208e-01
-9.461724e-01
-9.841967e-01
-1.022463e+00
-1.061034e+00
-1.099961e+00
-1.139286e+00
-1.179042e+00
-1.219254e+00
-1.259943e+00
-1.301127e+00
-1.342825e+00
-1.385056e+00
-1.427836e+00
-1.471182e+00
-1.515113e+00
-1.559655e+00
-1.604837e+00
-1.650692e+00
-1.697254e+00
-1.744555e+00
-1.792632e+00
-1.841526e+00
-1.891289e+00
-1.941973e+00
-1.993628e+00
-2.046292e+00
-2.099989e+00
-2.154726e+00
-2.210490e+00
-2.267245e+00
-2.324933e+00
-2.383480e+00
-2.442805e+00
-2.502833e+00
-2.563499e+00
-2.624749e+00
-2.686535e+00
-2.748821e+00
-2.811580e+00
-2.874794e+00
-2.938456e+00
-3.002564e+00
-3.067111e+00
-3.132085e+00
-3.197468e+00
-3.263230e+00
-3.329330e+00
-3.395719e+00
-3.462336e+00
-3.529118e+00
-3.596001e+00
-3.662923e+00
-3.729823e+00
-3.796640e+00
-3.863311e+00
-3.929775e+00
-3.995973e+00
-4.061846e+00
-4.127337e+00
-4.192391e+00
-4.256960e+00
-4.321013e+00
-4.384535e+00
-4.447520e+00
-4.509968e+00
-4.571876e+00
-4.633236e+00
-4.694029e+00
-4.754228e+00
-4.813799e+00
-4.872699e+00
-4.930887e+00
-4.988322e+00
-5.044968e+00
-5.100791e+00
-5.155762e+00
-5.209857e+00
-5.263058e+00
-5.315351e+00
-5.366723e+00
-5.417157e+00
-5.466629e+00
-5.515111e+00
-5.562571e+00
-5.608984e+00
-5.654324e+00
-5.698573e+00
-5.741713e+00
-5.783722e+00
-5.824576e+00
-5.864250e+00
-5.902728e+00
-5.940005e+00
-5.976092e+00
-6.011015e+00
-6.044810e+00
-6.077514e+00
-6.109171e+00
-6.139832e+00
-6.169554e+00
-6.198398e+00
-6.226422e+00
-6.253677e+00
-6.280213e+00
-6.306075e+00
-6.331310e+00
-6.355962e+00
-6.380073e+00
-6.403679e+00
-6.426818e+00
-6.449527e+00
-6.471847e+00
-6.493813e+00
-6.515457e+00
-6.536801e+00
-6.557860e+00
-6.578639e+00
-6.599135e+00
-6.619343e+00
-6.639258e+00
-6.658880e+00
-6.678213e+00
-6.697266e+00
-6.716049e+00
-6.734570e+00
-6.752831e+00
-6.770829e+00
-6.788548e+00
-6.805970e+00
-6.823072e+00
-6.839827e+00
-6.856198e+00
-6.872141e+00
-6.887599e+00
-6.902508e+00
-6.916798e+00
-6.930401e+00
-6.943248e+00
-6.955279e+00
-6.966433e+00
-6.976657e+00
-6.985895e+00
-6.994096e+00
-7.001205e+00
-7.007172e+00
-7.011948e+00
-7.015490e+00
-7.017762e+00
-7.018735e+00
-7.018382e+00
-7.016683e+00
-7.013617e+00
-7.009168e+00
-7.003326e+00
-6.996091e+00
-6.987472e+00
-6.977489e+00
-6.966171e+00
-6.953549e+00
-6.939661e+00
-6.924548e+00
-6.908254e+00
-6.890833e+00
-6.872340e+00
-6.852837e+00
-6.832380e+00
-6.811019e+00
-6.788792e+00
-6.765729e+00
-6.741850e+00
-6.717174e+00
-6.691714e+00
-6.665480e+00
-6.638479e+00
-6.610714e+00
-6.582190e+00
-6.552912e+00
-6.522898e+00
-6.492176e+00
-6.460788e+00
-6.428790e+00
-6.396249e+00
-6.363230e+00
-6.329797e+00
-6.296006e+00
-6.261906e+00
-6.227538e+00
-6.192939e+00
-6.158139e+00
-6.123158e+00
-6.088001e+00
-6.052663e+00
-6.017120e+00
-5.981339e+00
-5.945271e+00
-5.908858e+00
-5.872033e+00
-5.834729e+00
-5.796880e+00
-5.758419e+00
-5.719280e+00
-5.679395e+00
-5.638699e+00
-5.597144e+00
-5.554697e+00
-5.511345e+00
-5.467085e+00
-5.421918e+00
-5.375843e+00
-5.328868e+00
-5.281019e+00
-5.232348e+00
-5.182938e+00
-5.132895e+00
-5.082342e+00
-5.031406e+00
-4.980212e+00
-4.928875e+00
-4.877500e+00
-4.826179e+00
-4.774990e+00
-4.723992e+00
-4.673229e+00
-4.622727e+00
-4.572501e+00
-4.522558e+00
-4.472897e+00
-4.423509e+00
-4.374377e+00
-4.325479e+00
-4.276788e+00
-4.228280e+00
-4.179933e+00
-4.131733e+00
-4.083672e+00
-4.035744e+00
-3.987942e+00
-3.940259e+00
-3.892686e+00
-3.845213e+00
-3.797835e+00
-3.750552e+00
-3.703369e+00
-3.656291e+00
-3.609325e+00
-3.562483e+00
-3.515775e+00
-3.469220e+00
-3.422836e+00
-3.376648e+00
-3.330684e+00
-3.284972e+00
-3.239538e+00
-3.194398e+00
-3.149562e+00
-3.105033e+00
-3.060808e+00
-3.016883e+00
-2.973248e+00
-2.929879e+00
-2.886739e+00
-2.843774e+00
-2.800919e+00
-2.758098e+00
-2.715222e+00
-2.672190e+00
-2.628892e+00
-2.585214e+00
-2.541052e+00
-2.496326e+00
-2.450988e+00
-2.405012e+00
-2.358379e+00
-2.311067e+00
-2.263042e+00
-2.214272e+00
-2.164727e+00
-2.114393e+00
-2.063266e+00
-2.011343e+00
-1.958619e+00
-1.905083e+00
-1.850723e+00
-1.795535e+00
-1.739516e+00
-1.682664e+00
-1.624979e+00
-1.566468e+00
-1.507145e+00
-1.447042e+00
-1.386198e+00
-1.324658e+00
-1.262479e+00
-1.199729e+00
-1.136501e+00
-1.072908e+00
-1.009076e+00
-9.451318e-01
-8.811901e-01
-8.173498e-01
-7.536970e-01
-6.903125e-01
-6.272770e-01
-5.646704e-01
-5.025677e-01
-4.410336e-01
-3.801202e-01
-3.198688e-01
-2.603106e-01
-2.014671e-01
-1.433480e-01
-8.595116e-02
-2.926519e-02
2.672667e-02
8.204270e-02
1.367022e-01
1.907279e-01
2.441487e-01
2.969975e-01
3.493040e-01
4.010848e-01
4.523377e-01
5.030426e-01
5.531687e-01
6.026833e-01
6.515609e-01
6.997880e-01
7.473604e-01
7.942767e-01
8.405305e-01
8.861059e-01
9.309778e-01
9.751180e-01
1.018501e+00
1.061104e+00
1.102907e+00
1.143882e+00
1.183994e+00
1.223206e+00
1.261488e+00
1.298823e+00
1.335212e+00
1.370669e+00
1.405218e+00
1.438893e+00
1.471735e+00
1.503797e+00
1.535142e+00
1.565840e+00
1.595961e+00
1.625567e+00
1.654710e+00
1.683425e+00
1.711728e+00
1.739624e+00
1.767102e+00
1.794144e+00
1.820722e+00
1.846805e+00
1.872360e+00
1.897351e+00
1.921740e+00
1.945490e+00
1.968560e+00
1.990909e+00
2.012500e+00
2.033296e+00
2.053268e+00
2.072392e+00
2.090652e+00
2.108039e+00
2.124551e+00
2.140195e+00
2.154992e+00
2.168977e+00
2.182199e+00
2.194713e+00
2.206570e+00
2.217815e+00
2.228475e+00
2.238570e+00
2.248107e+00
2.257089e+00
2.265520e+00
2.273401e+00
2.280733e+00
2.287514e+00
2.293744e+00
2.299417e+00
2.304534e+00
2.309096e+00
2.313113e+00
2.316601e+00
2.319583e+00
2.322082e+00
2.324121e+00
2.325718e+00
2.326887e+00
2.327641e+00
2.328006e+00
2.328011e+00
2.327696e+00
2.327097e+00
2.326242e+00
2.325151e+00
2.323837e+00
2.322310e+00
2.320577e+00
2.318645e+00
2.316519e+00
2.314201e+00
2.311696e+00
2.309011e+00
2.306155e+00
2.303142e+00
2.299984e+00
2.296695e+00
2.293289e+00
2.289782e+00
2.286193e+00
2.282540e+00
2.278844e+00
2.275124e+00
2.271398e+00
2.267685e+00
2.264002e+00
2.260369e+00
2.256800e+00
2.253301e+00
2.249868e+00
2.246488e+00
2.243142e+00
2.239810e+00
2.236471e+00
2.233106e+00
2.229696e+00
2.226219e+00
2.222646e+00
2.218946e+00
2.215090e+00
2.211057e+00
2.206837e+00
2.202430e+00
2.197836e+00
2.193044e+00
2.188032e+00
2.182763e+00
2.177190e+00
2.171266e+00
2.164949e+00
2.158206e+00
2.151022e+00
2.143397e+00
2.135346e+00
2.126895e+00
2.118073e+00
2.108914e+00
2.099448e+00
2.089705e+00
2.079712e+00
2.069499e+00
2.059091e+00
2.048514e+00
2.037786e+00
2.026919e+00
2.015927e+00
2.004820e+00
1.993621e+00
1.982353e+00
1.971049e+00
1.959742e+00
1.948468e+00
1.937265e+00
1.926176e+00
1.915237e+00
1.904476e+00
1.893907e+00
1.883534e+00
1.873356e+00
1.863375e+00
1.853598e+00
1.844044e+00
1.834731e+00
1.825676e+00
1.816890e+00
1.808381e+00
1.800159e+00
1.792239e+00
1.784644e+00
1.777397e+00
1.770514e+00
1.763998e+00
1.757842e+00
1.752035e+00
1.746569e+00
1.741448e+00
1.736685e+00
1.732298e+00
1.728309e+00
1.724738e+00
1.721600e+00
1.718913e+00
1.716694e+00
1.714966e+00
1.713747e+00
1.713053e+00
1.712893e+00
1.713266e+00
1.714169e+00
1.715594e+00
1.717534e+00
1.719983e+00
1.722933e+00
1.726374e+00
1.730290e+00
1.734662e+00
1.739469e+00
1.744690e+00
1.750315e+00
1.756338e+00
1.762758e+00
1.769573e+00
1.776774e+00
1.784343e+00
1.792251e+00
1.800466e+00
1.808954e+00
1.817683e+00
1.826626e+00
1.835759e+00
1.845060e+00
1.854516e+00
1.864116e+00
1.873859e+00
1.883749e+00
1.893796e+00
1.904008e+00
1.914386e+00
1.924921e+00
1.935596e+00
1.946390e+00
1.957282e+00
1.968260e+00
1.979321e+00
