EVENT_NAME: EMILIA_2ND_SHOCK
EVENT_ID: IT-2012-0011
EVENT_DATE_YYYYMMDD: 20120529
EVENT_TIME_HHMMSS: 070002
EVENT_LATITUDE_DEGREE: 44.8417
EVENT_LONGITUDE_DEGREE: 11.0657
EVENT_DEPTH_KM: 8.1
HYPOCENTER_REFERENCE: INGV-CNT_Seismic_Bulletin
MAGNITUDE_W: 6.0
MAGNITUDE_W_REFERENCE: RCMT-INGV
MAGNITUDE_L: 5.8
MAGNITUDE_L_REFERENCE: INGV-CNT_Seismic_Bulletin
FOCAL_MECHANISM: TF
NETWORK: IV
STATION_CODE: T0802
STATION_NAME: T0802
STATION_LATITUDE_DEGREE: 44.875000
STATION_LONGITUDE_DEGREE: 11.181600
STATION_ELEVATION_M: 9
LOCATION: 
SENSOR_DEPTH_M: 1.0
VS30_M/S: 
SITE_CLASSIFICATION_EC8: C*
MORPHOLOGIC_CLASSIFICATION: 
EPICENTRAL_DISTANCE_KM: 9.9
EARTHQUAKE_BACKAZIMUTH_DEGREE: 248.0
DATE_TIME_FIRST_SAMPLE_YYYYMMDD_HHMMSS: 20120529_065951.000
DATE_TIME_FIRST_SAMPLE_PRECISION: milliseconds
SAMPLING_INTERVAL_S: 0.005000
NDATA: 14001
DURATION_S: 70.005
STREAM: HNN
UNITS: cm
INSTRUMENT: sensor = Episensor FBA ES-T [Kinemetrics] | digitizer = Unknown [Unknown]
INSTRUMENT_ANALOG/DIGITAL: D
INSTRUMENTAL_FREQUENCY_HZ: 
INSTRUMENTAL_DAMPING: 
FULL_SCALE_G: 
N_BIT_DIGITAL_CONVERTER: 
PGD_CM: 7.393560
TIME_PGD_S: 19.765000
BASELINE_CORRECTION: BASELINE REMOVED
FILTER_TYPE: BUTTERWORTH
FILTER_ORDER: 2
LOW_CUT_FREQUENCY_HZ: 0.100
HIGH_CUT_FREQUENCY_HZ: 40.000
LATE/NORMAL_TRIGGERED: NT
DATABASE_VERSION: DYNA 1.0
HEADER_FORMAT: DYNA 1.2
DATA_TYPE: DISPLACEMENT
PROCESSING: manual (Paolucci et al., 2011)
DATA_TIMESTAMP_YYYYMMDD_HHMMSS: 
DATA_LICENSE: CC-BY4_0 (http://creativecommons.org/licenses/by/4.0/)
DATA_CITATION: ESM working group (2015), European Strong-Motion database, version 0.1, Network Activity 3: Networking acceleration networks and SM data users. Project NERA (www.nera-eu.org)
DATA_CREATOR: ESM working group
ORIGINAL_DATA_MEDIATOR_CITATION: Orfeus - European Integrated Data Archive (EIDA) http://www.orfeus-eu.org/eida/
ORIGINAL_DATA_MEDIATOR: Orfeus - European Integrated Data Archive (EIDA)
ORIGINAL_DATA_CREATOR_CITATION: Data for this study comes from the Italian national seismic network operated by Istituto Nazionale di Geofisica e Vulcanologia and archived at the European Integrated Data Archive http://eida.rm.ingv.it/
ORIGINAL_DATA_CREATOR: network: IV (Italian National Seismic Network); owner: Istituto Nazionale di Geofisica e Vulcanologia
USER1: 
USER2: 
USER3: 
USER4: 
USER5: 
[...]
-2.253744e-01
-2.264422e-01
-2.275009e-01
-2.285560e-01
-2.296212e-01
-2.307056e-01
-2.318045e-01
-2.329027e-01
-2.339837e-01
-2.350375e-01
-2.360668e-01
-2.370890e-01
-2.381259e-01
-2.391922e-01
-2.402893e-01
-2.414074e-01
-2.425307e-01
-2.436467e-01
-2.447557e-01
-2.458712e-01
-2.470101e-01
-2.481810e-01
-2.493762e-01
-2.505678e-01
-2.517198e-01
-2.528171e-01
-2.538808e-01
-2.549506e-01
-2.560543e-01
-2.571945e-01
-2.583529e-01
-2.595020e-01
-2.606222e-01
-2.617181e-01
-2.628157e-01
-2.639407e-01
-2.651014e-01
-2.662881e-01
-2.674804e-01
-2.686542e-01
-2.697882e-01
-2.708705e-01
-2.719056e-01
-2.729171e-01
-2.739408e-01
-2.750035e-01
-2.761098e-01
-2.772476e-01
-2.784019e-01
-2.795610e-01
-2.807159e-01
-2.818580e-01
-2.829780e-01
-2.840658e-01
-2.851173e-01
-2.861457e-01
-2.871840e-01
-2.882659e-01
-2.894032e-01
-2.905831e-01
-2.917881e-01
-2.930127e-01
-2.942620e-01
-2.955420e-01
-2.968493e-01
-2.981612e-01
-2.994370e-01
-3.006407e-01
-3.017687e-01
-3.028532e-01
-3.039409e-01
-3.050707e-01
-3.062610e-01
-3.075055e-01
-3.087834e-01
-3.100823e-01
-3.114096e-01
-3.127746e-01
-3.141611e-01
-3.155251e-01
-3.168173e-01
-3.180092e-01
-3.191089e-01
-3.201667e-01
-3.212572e-01
-3.224360e-01
-3.237114e-01
-3.250575e-01
-3.264444e-01
-3.278505e-01
-3.292590e-01
-3.306538e-01
-3.320200e-01
-3.333486e-01
-3.346384e-01
-3.358954e-01
-3.371312e-01
-3.383599e-01
-3.395958e-01
-3.408528e-01
-3.421468e-01
-3.434914e-01
-3.448838e-01
-3.462913e-01
-3.476621e-01
-3.489622e-01
-3.501993e-01
-3.514090e-01
-3.526250e-01
-3.538672e-01
-3.551439e-01
-3.564565e-01
-3.578013e-01
-3.591674e-01
-3.605344e-01
-3.618693e-01
-3.631346e-01
-3.643134e-01
-3.654352e-01
-3.665631e-01
-3.677430e-01
-3.689691e-01
-3.702051e-01
-3.714265e-01
-3.726401e-01
-3.738808e-01
-3.751916e-01
-3.765858e-01
-3.780116e-01
-3.793662e-01
-3.805619e-01
-3.815787e-01
-3.824654e-01
-3.833116e-01
-3.842103e-01
-3.852064e-01
-3.862720e-01
-3.873405e-01
-3.883637e-01
-3.893397e-01
-3.903142e-01
-3.913609e-01
-3.925333e-01
-3.938162e-01
-3.951328e-01
-3.964052e-01
-3.976075e-01
-3.987703e-01
-3.999583e-01
-4.012321e-01
-4.025936e-01
-4.039645e-01
-4.052387e-01
-4.063599e-01
-4.073496e-01
-4.082887e-01
-4.092790e-01
-4.103927e-01
-4.116289e-01
-4.129270e-01
-4.142354e-01
-4.155624e-01
-4.169663e-01
-4.185130e-01
-4.202309e-01
-4.220622e-01
-4.238532e-01
-4.254245e-01
-4.266668e-01
-4.275819e-01
-4.282727e-01
-4.289056e-01
-4.296446e-01
-4.305835e-01
-4.317313e-01
-4.330447e-01
-4.344619e-01
-4.359237e-01
-4.373827e-01
-4.388056e-01
-4.401710e-01
-4.414690e-01
-4.427035e-01
-4.438931e-01
-4.450598e-01
-4.462061e-01
-4.473067e-01
-4.483387e-01
-4.493206e-01
-4.503157e-01
-4.513964e-01
-4.526060e-01
-4.539388e-01
-4.553352e-01
-4.567138e-01
-4.580371e-01
-4.593468e-01
-4.607164e-01
-4.621776e-01
-4.637011e-01
-4.652330e-01
-4.667360e-01
-4.682115e-01
-4.697053e-01
-4.712829e-01
-4.729761e-01
-4.747531e-01
-4.765519e-01
-4.783353e-01
-4.801087e-01
-4.819007e-01
-4.837380e-01
-4.856270e-01
-4.875442e-01
-4.894440e-01
-4.912859e-01
-4.930563e-01
-4.947702e-01
-4.964630e-01
-4.981787e-01
-4.999536e-01
-5.018020e-01
-5.037116e-01
-5.056457e-01
-5.075518e-01
-5.093814e-01
-5.111094e-01
-5.127438e-01
-5.143282e-01
-5.159235e-01
-5.175676e-01
-5.192492e-01
-5.209207e-01
-5.225272e-01
-5.240254e-01
-5.253926e-01
-5.266274e-01
-5.277368e-01
-5.287228e-01
-5.295899e-01
-5.303727e-01
-5.311481e-01
-5.320073e-01
-5.330144e-01
-5.341901e-01
-5.355173e-01
-5.369525e-01
-5.384370e-01
-5.399063e-01
-5.413006e-01
-5.425783e-01
-5.437247e-01
-5.447481e-01
-5.456688e-01
-5.465110e-01
-5.472953e-01
-5.480392e-01
-5.487724e-01
-5.495526e-01
-5.504531e-01
-5.515200e-01
-5.527423e-01
-5.540652e-01
-5.554221e-01
-5.567578e-01
-5.580472e-01
-5.593011e-01
-5.605519e-01
-5.618310e-01
-5.631538e-01
-5.645104e-01
-5.658665e-01
-5.671798e-01
-5.684232e-01
-5.695944e-01
-5.707159e-01
-5.718268e-01
-5.729639e-01
-5.741435e-01
-5.753612e-01
-5.766114e-01
-5.779008e-01
-5.792453e-01
-5.806598e-01
-5.821535e-01
-5.837327e-01
-5.853994e-01
-5.871426e-01
-5.889276e-01
-5.906962e-01
-5.923799e-01
-5.939177e-01
-5.952743e-01
-5.964555e-01
-5.975057e-01
-5.984888e-01
-5.994663e-01
-6.004823e-01
-6.015548e-01
-6.026835e-01
-6.038728e-01
-6.051518e-01
-6.065752e-01
-6.082107e-01
-6.101043e-01
-6.122230e-01
-6.144302e-01
-6.165440e-01
-6.184235e-01
-6.200137e-01
-6.213504e-01
-6.225378e-01
-6.236870e-01
-6.248515e-01
-6.260239e-01
-6.271907e-01
-6.283737e-01
-6.296186e-01
-6.309597e-01
-6.323963e-01
-6.338815e-01
-6.353321e-01
-6.366733e-01
-6.378879e-01
-6.390220e-01
-6.401469e-01
-6.413193e-01
-6.425600e-01
-6.438483e-01
-6.451384e-01
-6.463980e-01
-6.476338e-01
-6.488794e-01
-6.501665e-01
-6.515067e-01
-6.528818e-01
-6.542454e-01
-6.555437e-01
-6.567406e-01
-6.578272e-01
-6.588179e-01
-6.597435e-01
-6.606460e-01
-6.615733e-01
-6.625725e-01
-6.636787e-01
-6.649066e-01
-6.662489e-01
-6.676787e-01
-6.691522e-01
-6.706135e-01
-6.720025e-01
-6.732682e-01
-6.743830e-01
-6.753487e-01
-6.761945e-01
-6.769642e-01
-6.776871e-01
-6.783496e-01
-6.788999e-01
-6.792876e-01
-6.794992e-01
-6.795655e-01
-6.795516e-01
-6.795276e-01
-6.795189e-01
-6.794814e-01
-6.793372e-01
-6.790327e-01
-6.785643e-01
-6.779725e-01
-6.773190e-01
-6.766441e-01
-6.759272e-01
-6.750951e-01
-6.740812e-01
-6.728741e-01
-6.715228e-01
-6.701158e-01
-6.687486e-01
-6.674762e-01
-6.662864e-01
-6.651245e-01
-6.639379e-01
-6.627034e-01
-6.614408e-01
-6.602090e-01
-6.590774e-01
-6.580896e-01
-6.572499e-01
-6.565293e-01
-6.558799e-01
-6.552561e-01
-6.546332e-01
-6.540035e-01
-6.533528e-01
-6.526464e-01
-6.518466e-01
-6.509397e-01
-6.499496e-01
-6.489331e-01
-6.479603e-01
-6.470770e-01
-6.462678e-01
-6.454639e-01
-6.445975e-01
-6.436452e-01
-6.426290e-01
-6.415941e-01
-6.405845e-01
-6.396164e-01
-6.386708e-01
-6.377267e-01
-6.368036e-01
-6.359627e-01
-6.352657e-01
-6.347327e-01
-6.343265e-01
-6.339541e-01
-6.334990e-01
-6.328854e-01
-6.321179e-01
-6.312580e-01
-6.303730e-01
-6.295112e-01
-6.286981e-01
-6.279430e-01
-6.272515e-01
-6.266349e-01
-6.260935e-01
-6.255740e-01
-6.249549e-01
-6.241011e-01
-6.229397e-01
-6.214832e-01
-6.197998e-01
-6.179671e-01
-6.160180e-01
-6.139004e-01
-6.115020e-01
-6.087424e-01
-6.056419e-01
-6.023065e-01
-5.988741e-01
-5.954594e-01
-5.920984e-01
-5.887289e-01
-5.852491e-01
-5.815972e-01
-5.777702e-01
-5.737836e-01
-5.696294e-01
-5.652633e-01
-5.606117e-01
-5.556012e-01
-5.502102e-01
-5.444925e-01
-5.385332e-01
-5.323849e-01
-5.260612e-01
-5.195823e-01
-5.130061e-01
-5.063999e-01
-4.997921e-01
-4.931589e-01
-4.864500e-01
-4.796217e-01
-4.726673e-01
-4.656320e-01
-4.585836e-01
-4.515407e-01
-4.444422e-01
-4.372224e-01
-4.299132e-01
-4.226510e-01
-4.155807e-01
-4.087624e-01
-4.021372e-01
-3.955360e-01
-3.887441e-01
-3.816242e-01
-3.741871e-01
-3.665269e-01
-3.587063e-01
-3.507060e-01
-3.424396e-01
-3.337929e-01
-3.246827e-01
-3.151081e-01
-3.051354e-01
-2.948205e-01
-2.841561e-01
-2.731020e-01
-2.616447e-01
-2.498141e-01
-2.376529e-01
-2.251741e-01
-2.123251e-01
-1.989704e-01
-1.849366e-01
-1.701258e-01
-1.545850e-01
-1.384535e-01
-1.218635e-01
-1.048971e-01
-8.760277e-02
-7.003849e-02
-5.234066e-02
-3.478198e-02
-1.773575e-02
-1.540035e-03
1.361391e-02
2.768844e-02
4.075371e-02
5.293478e-02
6.435203e-02
7.509207e-02
8.524298e-02
9.494658e-02
1.043845e-01
1.136902e-01
1.228732e-01
1.318079e-01
1.402628e-01
1.479675e-01
1.547267e-01
1.604991e-01
1.653771e-01
1.695200e-01
1.730910e-01
1.761938e-01
1.788483e-01
1.810469e-01
1.828336e-01
1.843119e-01
1.855793e-01
1.866637e-01
1.875028e-01
1.879516e-01
1.878216e-01
1.869473e-01
1.852133e-01
1.824899e-01
1.785496e-01
1.730963e-01
1.659148e-01
1.569825e-01
1.464359e-01
1.344720e-01
1.212625e-01
1.068772e-01
9.126083e-02
7.431335e-02
5.599811e-02
3.635686e-02
1.543585e-02
-6.772895e-03
-3.031593e-02
-5.522712e-02
-8.148044e-02
-1.089444e-01
-1.373661e-01
-1.664172e-01
-1.957684e-01
-2.251602e-01
-2.544803e-01
-2.837850e-01
-3.132011e-01
-3.427899e-01
-3.724879e-01
-4.021188e-01
-4.314368e-01
-4.602011e-01
-4.882462e-01
-5.154794e-01
-5.418107e-01
-5.671003e-01
-5.911721e-01
-6.138587e-01
-6.350364e-01
-6.546521e-01
-6.727318e-01
-6.893508e-01
-7.045903e-01
-7.185025e-01
-7.310842e-01
-7.422855e-01
-7.520850e-01
-7.605777e-01
-7.679744e-01
-7.745117e-01
-7.803639e-01
-7.856062e-01
-7.902161e-01
-7.941204e-01
-7.972872e-01
-7.997816e-01
-8.017210e-01
-8.031995e-01
-8.042766e-01
-8.050342e-01
-8.056194e-01
-8.062296e-01
-8.070672e-01
-8.082997e-01
-8.100209e-01
-8.122452e-01
-8.149655e-01
-8.182265e-01
-8.221289e-01
-8.267667e-01
-8.321676e-01
-8.382786e-01
-8.449784e-01
-8.521103e-01
-8.595394e-01
-8.671966e-01
-8.750792e-01
-8.832375e-01
-8.917802e-01
-9.008999e-01
-9.108687e-01
-9.219651e-01
-9.343779e-01
-9.481447e-01
-9.631193e-01
-9.789866e-01
-9.953673e-01
-1.011940e+00
-1.028474e+00
-1.044785e+00
-1.060674e+00
-1.075904e+00
-1.090189e+00
-1.103244e+00
-1.114899e+00
-1.125171e+00
-1.134226e+00
-1.142290e+00
-1.149558e+00
-1.156101e+00
-1.161822e+00
-1.166541e+00
-1.170117e+00
-1.172496e+00
-1.173681e+00
-1.173694e+00
-1.172540e+00
-1.170191e+00
-1.166620e+00
-1.161903e+00
-1.156263e+00
-1.149972e+00
-1.143224e+00
-1.136060e+00
-1.128383e+00
-1.120000e+00
-1.110728e+00
-1.100492e+00
-1.089344e+00
-1.077399e+00
-1.064771e+00
-1.051554e+00
-1.037822e+00
-1.023639e+00
-1.009063e+00
-9.941625e-01
-9.790285e-01
-9.637948e-01
-9.486263e-01
-9.336790e-01
-9.190547e-01
-9.047652e-01
-8.907165e-01
-8.767602e-01
-8.628177e-01
-8.489620e-01
-8.353741e-01
-8.222476e-01
-8.097341e-01
-7.979284e-01
-7.868866e-01
-7.766874e-01
-7.674934e-01
-7.595081e-01
-7.528225e-01
-7.472896e-01
-7.425232e-01
-7.379571e-01
-7.329188e-01
-7.267276e-01
-7.187810e-01
-7.085963e-01
-6.958280e-01
-6.802765e-01
-6.618939e-01
-6.407698e-01
-6.170738e-01
-5.909965e-01
-5.627657e-01
-5.327414e-01
-5.014994e-01
-4.698443e-01
-4.387738e-01
-4.093693e-01
-3.825841e-01
-3.590695e-01
-3.391449e-01
-3.228468e-01
-3.100247e-01
-3.004846e-01
-2.940680e-01
-2.905757e-01
-2.896274e-01
-2.905720e-01
-2.924573e-01
-2.940974e-01
-2.943085e-01
-2.921747e-01
-2.871354e-01
-2.789109e-01
-2.673989e-01
-2.525758e-01
-2.344202e-01
-2.128883e-01
-1.879246e-01
-1.594737e-01
-1.274876e-01
-9.193207e-02
-5.281016e-02
-1.019973e-02
3.574278e-02
8.485570e-02
1.370478e-01
1.922194e-01
2.500126e-01
3.096300e-01
3.698936e-01
4.294200e-01
4.868226e-01
5.409690e-01
5.911398e-01
6.369418e-01
6.781207e-01
7.144527e-01
7.457099e-01
7.716963e-01
7.923823e-01
8.080677e-01
8.194648e-01
8.277017e-01
8.342364e-01
8.406225e-01
8.482480e-01
8.582154e-01
8.713248e-01
8.880794e-01
9.087107e-01
9.332062e-01
9.613377e-01
9.926968e-01
1.026717e+00
1.062672e+00
1.099667e+00
1.136734e+00
1.173043e+00
1.208091e+00
1.241730e+00
1.274125e+00
1.305632e+00
1.336604e+00
1.367287e+00
1.397908e+00
1.428827e+00
1.460551e+00
1.493582e+00
1.528298e+00
1.564956e+00
1.603761e+00
1.644890e+00
1.688459e+00
1.734491e+00
1.782893e+00
1.833454e+00
1.885897e+00
1.939981e+00
1.995546e+00
2.052394e+00
2.110142e+00
2.168191e+00
2.225829e+00
2.282348e+00
2.337119e+00
2.389633e+00
2.439535e+00
2.486668e+00
2.531135e+00
2.573358e+00
2.614120e+00
2.654437e+00
2.695237e+00
2.737086e+00
2.780121e+00
2.824115e+00
2.868613e+00
2.913172e+00
2.957514e+00
3.001498e+00
3.045000e+00
3.087899e+00
3.130160e+00
3.171900e+00
3.213355e+00
3.254812e+00
3.296523e+00
3.338614e+00
3.381047e+00
3.423685e+00
3.466406e+00
3.509112e+00
3.551672e+00
3.593899e+00
3.635619e+00
3.676796e+00
3.717580e+00
3.758309e+00
3.799462e+00
3.841546e+00
3.884975e+00
3.929999e+00
3.976676e+00
4.024887e+00
4.074408e+00
4.125027e+00
4.176637e+00
4.229335e+00
4.283434e+00
4.339285e+00
4.397054e+00
4.456697e+00
4.518111e+00
4.581283e+00
4.646315e+00
4.713379e+00
4.782553e+00
4.853561e+00
4.925639e+00
4.997732e+00
5.068815e+00
5.138071e+00
5.204968e+00
5.269289e+00
5.331120e+00
5.390809e+00
5.448900e+00
5.505993e+00
5.562622e+00
5.619168e+00
5.675822e+00
5.732658e+00
5.789795e+00
5.847503e+00
5.906103e+00
5.965806e+00
6.026653e+00
6.088543e+00
6.151282e+00
6.214622e+00
6.278284e+00
6.341966e+00
6.405349e+00
6.468109e+00
6.529929e+00
6.590522e+00
6.649641e+00
6.707099e+00
6.762792e+00
6.816714e+00
6.868955e+00
6.919639e+00
6.968784e+00
7.016224e+00
7.061694e+00
7.104964e+00
7.145870e+00
7.184232e+00
7.219805e+00
7.252298e+00
7.281448e+00
7.307062e+00
7.329055e+00
7.347453e+00
7.362375e+00
7.373989e+00
7.382531e+00
7.388347e+00
7.391880e+00
7.393545e+00
7.393560e+00
7.391949e+00
7.388678e+00
7.383762e+00
7.377253e+00
7.369160e+00
7.359416e+00
7.347881e+00
7.334360e+00
7.318618e+00
7.300394e+00
7.279404e+00
7.255349e+00
7.227946e+00
7.197018e+00
7.162579e+00
7.124822e+00
7.084007e+00
7.040356e+00
6.994028e+00
6.945126e+00
6.893702e+00
6.839741e+00
6.783184e+00
6.723974e+00
6.662131e+00
6.597750e+00
6.530952e+00
6.461830e+00
6.390438e+00
6.316809e+00
6.240989e+00
6.163105e+00
6.083410e+00
6.002255e+00
5.920033e+00
5.837127e+00
5.753854e+00
5.670435e+00
5.587033e+00
5.503813e+00
5.421007e+00
5.338959e+00
5.258122e+00
5.178945e+00
5.101730e+00
5.026596e+00
4.953532e+00
4.882486e+00
4.813422e+00
4.746381e+00
4.681475e+00
4.618847e+00
4.558612e+00
4.500800e+00
4.445312e+00
4.391950e+00
4.340513e+00
4.290864e+00
4.242929e+00
4.196646e+00
4.151916e+00
4.108556e+00
4.066292e+00
4.024821e+00
3.983884e+00
3.943263e+00
3.902686e+00
3.861775e+00
3.820104e+00
3.777303e+00
3.733114e+00
3.687405e+00
3.640156e+00
3.591414e+00
3.541236e+00
3.489658e+00
3.436692e+00
3.382350e+00
3.326720e+00
3.270047e+00
3.212748e+00
3.155351e+00
3.098403e+00
3.042376e+00
2.987583e+00
2.934182e+00
2.882258e+00
2.831896e+00
2.783185e+00
2.736195e+00
2.690947e+00
2.647381e+00
2.605345e+00
2.564635e+00
2.525064e+00
2.486560e+00
2.449303e+00
2.413753e+00
2.380431e+00
2.349642e+00
2.321395e+00
2.295501e+00
2.271704e+00
2.249767e+00
2.229492e+00
2.210603e+00
2.192489e+00
2.174098e+00
2.154196e+00
2.131754e+00
2.106124e+00
2.077032e+00
2.044490e+00
2.008644e+00
1.969613e+00
1.927425e+00
1.882014e+00
1.833253e+00
1.781007e+00
1.725189e+00
1.665780e+00
1.602809e+00
1.536310e+00
1.466253e+00
1.392476e+00
1.314695e+00
1.232592e+00
1.145912e+00
1.054555e+00
9.586349e-01
8.584925e-01
7.546476e-01
6.476910e-01
5.380915e-01
4.260151e-01
3.113702e-01
1.940925e-01
7.440730e-02
-4.708038e-02
-1.694054e-01
-2.913707e-01
-4.117958e-01
-5.297148e-01
-6.444027e-01
-7.553138e-01
-8.620076e-01
-9.640647e-01
-1.061037e+00
-1.152473e+00
-1.237975e+00
-1.317220e+00
-1.389947e+00
-1.455923e+00
-1.514916e+00
-1.566697e+00
-1.611265e+00
-1.649317e+00
-1.682520e+00
-1.713245e+00
-1.744070e+00
-1.777342e+00
-1.814721e+00
-1.856931e+00
-1.903938e+00
-1.955311e+00
-2.010433e+00
-2.068626e+00
-2.129224e+00
-2.191631e+00
-2.255318e+00
-2.319741e+00
-2.384154e+00
-2.447501e+00
-2.508541e+00
-2.566074e+00
-2.619154e+00
-2.667308e+00
-2.710587e+00
-2.749262e+00
-2.783399e+00
-2.812692e+00
-2.836524e+00
-2.854207e+00
-2.865431e+00
-2.870717e+00
-2.871468e+00
-2.869615e+00
-2.867207e+00
-2.866072e+00
-2.867581e+00
-2.872646e+00
-2.881896e+00
-2.895828e+00
-2.914811e+00
-2.939034e+00
-2.968528e+00
-3.003294e+00
-3.043420e+00
-3.089113e+00
-3.140674e+00
-3.198355e+00
-3.262079e+00
-3.331250e+00
-3.404807e+00
-3.481404e+00
-3.559613e+00
-3.638170e+00
-3.716133e+00
-3.792826e+00
-3.867689e+00
-3.940216e+00
-4.009985e+00
-4.076690e+00
-4.140144e+00
-4.200264e+00
-4.257041e+00
-4.310475e+00
-4.360541e+00
-4.407218e+00
-4.450534e+00
-4.490578e+00
-4.527475e+00
-4.561374e+00
-4.592467e+00
-4.621022e+00
-4.647373e+00
-4.671850e+00
-4.694718e+00
-4.716135e+00
-4.736126e+00
-4.754596e+00
-4.771380e+00
-4.786300e+00
-4.799234e+00
-4.810174e+00
-4.819215e+00
-4.826492e+00
-4.832112e+00
-4.836111e+00
-4.838440e+00
-4.838946e+00
-4.837356e+00
-4.833285e+00
-4.826271e+00
-4.815845e+00
-4.801675e+00
-4.783797e+00
-4.762762e+00
-4.739521e+00
-4.715214e+00
-4.691002e+00
-4.667920e+00
-4.646786e+00
-4.628231e+00
-4.612776e+00
-4.600853e+00
-4.592771e+00
-4.588714e+00
-4.588820e+00
-4.593279e+00
-4.602348e+00
-4.616255e+00
-4.635032e+00
-4.658268e+00
-4.684882e+00
-4.713170e+00
-4.741150e+00
-4.766953e+00
-4.789129e+00
-4.806858e+00
-4.819927e+00
-4.828500e+00
-4.832892e+00
-4.833461e+00
-4.830564e+00
-4.824544e+00
-4.815706e+00
-4.804265e+00
-4.790278e+00
-4.773572e+00
-4.753749e+00
-4.730285e+00
-4.702678e+00
-4.670658e+00
-4.634366e+00
-4.594386e+00
-4.551601e+00
-4.507018e+00
-4.461594e+00
-4.416091e+00
-4.371055e+00
-4.326875e+00
-4.283852e+00
-4.242218e+00
-4.202137e+00
-4.163704e+00
-4.126952e+00
-4.091872e+00
-4.058459e+00
-4.026753e+00
-3.996790e+00
-3.968456e+00
-3.941353e+00
-3.914765e+00
-3.887684e+00
-3.858947e+00
-3.827519e+00
-3.792702e+00
-3.754151e+00
-3.711788e+00
-3.665694e+00
-3.616000e+00
-3.562810e+00
-3.506231e+00
-3.446444e+00
-3.383801e+00
-3.318940e+00
-3.252833e+00
-3.186659e+00
-3.121620e+00
-3.058791e+00
-2.999000e+00
-2.942780e+00
-2.890516e+00
-2.842635e+00
-2.799644e+00
-2.762012e+00
-2.730057e+00
-2.703899e+00
-2.683467e+00
-2.668583e+00
-2.659126e+00
-2.655151e+00
-2.656883e+00
-2.664635e+00
-2.678718e+00
-2.699333e+00
-2.726499e+00
-2.760080e+00
-2.799859e+00
-2.845617e+00
-2.897194e+00
-2.954496e+00
-3.017345e+00
-3.085301e+00
-3.157579e+00
-3.233081e+00
-3.310509e+00
-3.388585e+00
-3.466274e+00
-3.542849e+00
-3.617810e+00
-3.690786e+00
-3.761473e+00
-3.829606e+00
-3.895028e+00
-3.957837e+00
-4.018483e+00
-4.077671e+00
-4.136204e+00
-4.194814e+00
-4.253986e+00
-4.313864e+00
-4.374353e+00
-4.435293e+00
-4.496561e+00
-4.558095e+00
-4.619882e+00
-4.681901e+00
-4.744057e+00
-4.806165e+00
-4.867994e+00
-4.929304e+00
-4.989858e+00
-5.049424e+00
-5.107761e+00
-5.164606e+00
-5.219655e+00
-5.272557e+00
-5.322903e+00
-5.370242e+00
-5.414100e+00
-5.454003e+00
-5.489483e+00
-5.520073e+00
-5.545359e+00
-5.565075e+00
-5.579184e+00
