EVENT_NAME: EMILIA_2ND_SHOCK
EVENT_ID: IT-2012-0011
EVENT_DATE_YYYYMMDD: 20120529
EVENT_TIME_HHMMSS: 070002
EVENT_LATITUDE_DEGREE: 44.8417
EVENT_LONGITUDE_DEGREE: 11.0657
EVENT_DEPTH_KM: 8.1
HYPOCENTER_REFERENCE: INGV-CNT_Seismic_Bulletin
MAGNITUDE_W: 6.0
MAGNITUDE_W_REFERENCE: RCMT-INGV
MAGNITUDE_L: 5.8
MAGNITUDE_L_REFERENCE: INGV-CNT_Seismic_Bulletin
FOCAL_MECHANISM: TF
NETWORK: IV
STATION_CODE: T0805
STATION_NAME: T0805
STATION_LATITUDE_DEGREE: 44.918700
STATION_LONGITUDE_DEGREE: 11.322600
STATION_ELEVATION_M: 5
LOCATION: 
SENSOR_DEPTH_M: 1.0
VS30_M/S: 
SITE_CLASSIFICATION_EC8: C*
MORPHOLOGIC_CLASSIFICATION: 
EPICENTRAL_DISTANCE_KM: 22.0
EARTHQUAKE_BACKAZIMUTH_DEGREE: 247.2
DATE_TIME_FIRST_SAMPLE_YYYYMMDD_HHMMSS: 20120529_065953.000
DATE_TIME_FIRST_SAMPLE_PRECISION: milliseconds
SAMPLING_INTERVAL_S: 0.005000
NDATA: 30001
DURATION_S: 150.005
STREAM: HNZ
UNITS: cm/s^2
INSTRUMENT: sensor = Episensor FBA ES-T [Kinemetrics] | digitizer = Unknown [Unknown]
INSTRUMENT_ANALOG/DIGITAL: D
INSTRUMENTAL_FREQUENCY_HZ: 
INSTRUMENTAL_DAMPING: 
FULL_SCALE_G: 
N_BIT_DIGITAL_CONVERTER: 
PGA_CM/S^2: 69.242948
TIME_PGA_S: 21.045000
BASELINE_CORRECTION: BASELINE REMOVED
FILTER_TYPE: BUTTERWORTH
FILTER_ORDER: 2
LOW_CUT_FREQUENCY_HZ: 0.060
HIGH_CUT_FREQUENCY_HZ: 40.000
LATE/NORMAL_TRIGGERED: NT
DATABASE_VERSION: DYNA 1.0
HEADER_FORMAT: DYNA 1.2
DATA_TYPE: ACCELERATION
PROCESSING: manual (Paolucci et al., 2011)
DATA_TIMESTAMP_YYYYMMDD_HHMMSS: 
DATA_LICENSE: CC-BY4_0 (http://creativecommons.org/licenses/by/4.0/)
DATA_CITATION: ESM working group (2015), European Strong-Motion database, version 0.1, Network Activity 3: Networking acceleration networks and SM data users. Project NERA (www.nera-eu.org)
DATA_CREATOR: ESM working group
ORIGINAL_DATA_MEDIATOR_CITATION: Orfeus - European Integrated Data Archive (EIDA) http://www.orfeus-eu.org/eida/
ORIGINAL_DATA_MEDIATOR: Orfeus - European Integrated Data Archive (EIDA)
ORIGINAL_DATA_CREATOR_CITATION: Data for this study comes from the Italian national seismic network operated by Istituto Nazionale di Geofisica e Vulcanologia and archived at the European Integrated Data Archive http://eida.rm.ingv.it/
ORIGINAL_DATA_CREATOR: network: IV (Italian National Seismic Network); owner: Istituto Nazionale di Geofisica e Vulcanologia
USER1: 
USER2: 
USER3: 
USER4: 
USER5: 
[...]
-0.315430
-0.368403
-0.199834
0.151792
0.448098
0.410979
0.002877
-0.561196
-1.004947
-1.066122
-0.569304
0.320264
1.075948
1.269795
0.874296
0.076905
-0.829546
-1.417921
-1.402333
-0.873532
-0.091804
0.694012
1.203894
1.228500
0.747632
-0.138822
-1.159436
-1.819605
-1.748197
-0.972364
0.263769
1.557045
2.278378
1.977951
0.733832
-1.077887
-2.814113
-3.469035
-2.411886
-0.031454
2.768336
4.882930
4.900318
2.249801
-1.694472
-4.832218
-5.835353
-4.052305
0.150556
4.616863
6.770311
5.736864
2.263816
-2.235554
-5.772962
-6.510987
-4.248264
-0.368884
3.452799
5.740815
5.429814
2.681609
-1.117155
-4.431707
-6.063992
-5.253365
-2.351402
1.156106
3.820867
4.871195
4.031570
1.701637
-1.029521
-3.151820
-4.178835
-3.942171
-2.530700
-0.305514
2.141419
3.899747
4.086479
2.572426
0.001991
-2.683153
-4.345860
-4.024785
-1.854012
0.921630
3.037807
3.772333
2.845902
0.707844
-1.436992
-2.550909
-2.350370
-1.018737
0.807498
1.983952
1.706203
0.166682
-1.935058
-3.715588
-4.014962
-2.226054
0.922018
4.128046
6.253791
6.184404
3.526647
-0.557448
-4.315840
-6.482732
-6.124790
-3.160679
0.830175
3.769538
4.672267
3.527224
0.946844
-1.619422
-2.658307
-1.937850
-0.438231
0.805007
1.232410
0.668943
-0.490170
-1.296222
-1.093438
-0.105823
1.065450
1.994709
2.392497
2.120528
1.309185
0.192583
-1.012007
-2.021142
-2.497916
-2.086689
-0.556353
1.690868
3.542728
4.122918
3.443823
1.974908
0.321503
-0.735587
-0.765283
-0.162576
0.381615
0.577610
0.513526
0.354615
0.247863
0.296570
0.474392
0.611992
0.490128
-0.119780
-1.348627
-2.856591
-3.782695
-3.523878
-2.302683
-0.717076
0.707042
1.485565
1.472539
1.200738
1.354946
1.919140
2.199443
1.759298
1.015710
0.694144
1.034555
1.755705
2.385734
2.351239
1.203366
-0.774318
-2.522505
-3.145648
-2.506637
-0.879187
1.232545
3.015059
3.755118
3.160268
1.251752
-1.394041
-3.541931
-4.182689
-3.171990
-0.874112
1.891039
3.749799
3.758774
2.199423
-0.078493
-2.245109
-3.408023
-3.115414
-1.894788
-0.610216
0.373504
1.139928
1.826213
2.471578
2.981276
2.932414
1.582046
-1.255029
-4.458156
-6.450500
-6.326650
-3.796893
0.661559
5.276336
7.969057
7.825864
4.986085
0.324340
-4.254007
-6.709251
-6.327797
-3.611540
0.343128
3.788274
5.016800
3.663002
0.644908
-2.708224
-4.860572
-4.511525
-1.705081
2.140287
5.334652
6.371655
4.217239
-0.523561
-5.489145
-8.378651
-7.997326
-4.009224
2.460910
8.636744
11.971818
11.366197
6.740918
-0.483242
-7.169741
-10.629908
-10.113153
-6.096539
-0.379646
3.760193
4.093070
1.379145
-2.283734
-5.160702
-5.767674
-3.605611
-0.132059
2.585591
3.709924
3.515741
2.569523
1.537555
0.996145
1.077996
1.533143
2.025224
2.213856
1.818929
0.809319
-0.593704
-2.048819
-3.104329
-3.345138
-2.712952
-1.495979
-0.075875
1.138138
1.750716
1.428702
-0.129479
-2.794883
-5.555323
-7.112471
-6.691107
-3.987363
0.558316
5.194672
7.891950
7.946763
5.872336
2.617152
-0.535817
-2.410495
-2.751612
-2.104141
-1.097361
-0.190705
0.290367
0.155239
-0.682936
-1.987720
-2.911938
-2.494327
-0.563793
2.208732
4.819024
6.053918
4.930973
1.851200
-1.357940
-3.114732
-3.094627
-1.682788
0.338125
1.760744
1.796602
0.753192
-0.601942
-1.738663
-2.306267
-2.122900
-1.302861
-0.110648
1.066041
1.636207
1.185848
-0.184152
-2.086181
-3.874335
-4.530008
-3.357657
-0.592651
3.014955
6.282398
7.420719
5.371109
0.995131
-3.958188
-7.722217
-8.337817
-5.108846
-0.117247
3.631454
4.687230
3.005223
-0.641787
-4.439817
-6.447013
-6.046614
-3.796615
-0.569393
2.629269
4.849065
5.461494
4.050515
0.853717
-2.616311
-4.551889
-4.377917
-2.675046
-0.354994
1.541808
2.139860
1.365907
-0.134524
-1.726499
-3.112211
-4.141554
-4.519847
-3.764034
-1.844514
0.234012
1.195548
0.696767
-0.687544
-2.172367
-3.007714
-2.674069
-1.464022
-0.449856
-0.364580
-0.871647
-1.229032
-1.195192
-1.039890
-1.042003
-1.236677
-1.483108
-1.439137
-0.575460
1.230243
3.181944
4.206950
3.894532
2.458484
0.347790
-1.794567
-3.330126
-3.898694
-3.322977
-1.662102
0.573107
2.666821
3.841278
3.157111
0.336098
-3.410978
-6.380572
-7.699249
-7.226509
-5.350656
-3.218327
-2.028941
-1.796572
-1.404215
0.042042
2.419410
5.062912
7.095284
7.380171
5.448003
2.366095
-0.257057
-1.538502
-1.235366
0.352930
2.097104
2.704799
1.775045
-0.248903
-2.621809
-4.388987
-4.682186
-3.366010
-1.040637
1.383834
2.749865
2.048297
-0.600079
-3.877058
-6.269113
-6.532622
-3.915434
0.771952
5.036610
6.742418
5.425514
1.613184
-3.323738
-7.032087
-7.825500
-5.974664
-2.669675
0.897368
3.413145
4.095896
3.388068
2.244392
1.346362
1.126148
1.540943
1.701884
0.542919
-1.986665
-4.838004
-6.761835
-6.723037
-4.092230
0.438059
4.741158
6.971871
6.664209
4.159934
0.431758
-2.827138
-4.323240
-4.005881
-2.447163
-0.366686
1.297985
1.868108
1.352597
0.110231
-1.372838
-2.431564
-2.636780
-2.171202
-1.521420
-1.195424
-1.687451
-2.872639
-3.401371
-1.672421
2.377212
7.114607
10.506979
10.688293
6.463343
-0.808383
-7.039181
-8.988401
-6.650648
-1.693704
3.713507
6.778607
5.999450
2.905746
0.117494
-1.194346
-1.228531
-0.648764
-0.406474
-1.260374
-2.693028
-2.936463
-0.926547
2.331130
5.021510
6.115455
5.336782
3.088822
0.793561
-0.052177
0.467430
0.795070
-0.042415
-1.146932
-0.960855
0.890390
3.480029
5.542652
5.854886
3.625599
-0.212946
-2.920250
-2.481356
0.654358
4.829383
8.216300
8.647401
5.011800
-1.333271
-7.944602
-12.521694
-12.632919
-7.402492
0.632376
7.751791
11.837522
12.090924
8.850232
4.259116
0.827557
-0.701879
-1.118435
-1.179203
-0.924255
-0.058141
1.473668
3.362559
5.119270
6.123331
5.815114
4.136796
1.540109
-1.336253
-3.721554
-4.845709
-4.164807
-1.360132
3.035500
6.873048
7.671423
4.799270
-0.502466
-6.263553
-10.011988
-9.722716
-6.133939
-2.744149
-2.326184
-4.743404
-8.298868
-10.721865
-9.132734
-2.526369
5.917407
11.645243
12.646719
9.357218
3.645948
-0.890338
-0.737314
4.026170
9.778294
13.114401
12.883035
9.405751
4.498648
1.505883
2.517995
6.240948
9.945732
11.622894
9.834891
4.343833
-2.812536
-8.830624
-12.006784
-11.532688
-7.786955
-3.229937
-0.778802
-1.251818
-3.441825
-5.577836
-5.761165
-2.601207
2.915022
7.294762
7.633047
3.616871
-3.508320
-10.994881
-14.256122
-10.272510
-0.423353
11.704187
21.751654
24.158922
16.478544
3.509692
-7.273839
-11.448765
-7.356627
3.417681
13.945275
16.384289
9.454007
-1.722676
-11.486840
-16.293430
-14.555803
-8.139995
-2.185287
-0.239912
-1.020136
-1.283443
0.407948
3.523922
6.662521
7.730785
4.951303
-0.762727
-5.696583
-6.849707
-4.187274
0.732483
5.616753
7.255227
3.792206
-3.247201
-10.867390
-16.457602
-17.515915
-13.191576
-6.123282
-0.078222
3.228295
3.972425
3.323165
3.574732
6.951308
13.218633
19.664717
23.796713
24.850115
22.937769
18.311047
11.392862
3.212218
-4.071464
-8.144079
-8.274753
-5.308614
-1.040032
1.629391
0.119281
-4.731245
-8.712832
-8.786788
-5.999810
-3.180310
-2.205251
-3.951015
-7.969020
-11.635966
-11.963165
-8.681602
-4.192875
-0.797085
0.722610
0.401281
-1.465132
-4.249967
-6.716259
-6.633829
-1.851379
7.161587
16.963470
23.536257
23.446732
14.522317
-1.033877
-16.195759
-24.544556
-23.647438
-13.691372
1.968898
16.332237
23.354759
21.163027
10.719391
-3.269089
-11.928312
-9.453248
1.281828
13.447771
20.944752
18.066122
3.522935
-14.938868
-26.848928
-27.973627
-19.888630
-6.579540
5.745373
11.146656
8.542524
1.361609
-6.215449
-10.622259
-9.385022
-3.099191
4.567464
9.780424
9.999663
4.035868
-6.120350
-14.986048
-17.755722
-13.037255
-1.742455
12.148471
21.120035
19.949486
10.220730
-3.240645
-15.382717
-20.453497
-15.702131
-5.153391
4.748174
10.619031
11.738172
8.874680
4.734933
2.537721
4.123122
10.135286
19.463255
27.915863
30.344320
23.741255
7.285409
-15.931689
-36.002022
-41.928051
-31.680977
-12.219728
7.350783
18.173492
13.731123
-3.761989
-23.386770
-35.422436
-37.040096
-29.085388
-13.705813
5.418037
23.461164
34.237488
31.947609
15.501640
-11.020276
-39.855476
-58.717922
-56.277897
-34.134171
-6.943209
11.751996
17.434216
11.300021
-0.524572
-7.134570
-2.017271
9.982595
19.899252
24.351690
25.356968
25.465649
25.752178
26.174927
25.515867
21.510662
13.109878
2.258535
-8.168606
-17.102669
-24.946014
-31.671246
-35.861240
-35.749779
-31.186546
-23.751999
-15.314828
-7.456513
-1.441145
1.802529
1.379050
-2.878832
-9.450173
-15.859827
-18.721361
-13.455843
1.141875
18.595795
29.706032
29.158766
15.397534
-7.987481
-28.758171
-33.189709
-18.342516
7.996353
35.128784
51.904137
49.635517
30.186779
5.916862
-11.457809
-16.915459
-9.842914
5.824023
21.483795
29.881645
29.050753
19.991245
5.585309
-9.116370
-19.614906
-23.843611
-21.250225
-12.790611
-1.046874
10.972625
20.271866
24.386074
22.861429
17.180836
9.796493
4.171261
3.323834
6.507489
9.149302
7.202442
-0.246982
-12.037524
-24.531111
-31.337576
-28.717611
-19.937695
-10.986864
-5.406804
-4.593627
-8.194869
-13.227343
-16.292238
-17.044765
-17.795959
-19.570576
-19.642878
-13.932076
-0.830369
18.286400
39.076443
52.968903
51.326008
33.846077
8.878642
-13.707022
-25.552553
-21.117561
-3.227316
16.804646
28.825062
29.487404
19.360359
1.502031
-18.325678
-34.477413
-43.111885
-41.901920
-31.281660
-14.576849
3.624121
17.733141
23.031004
19.996256
13.997502
9.423805
6.373741
2.925839
-1.961472
-8.005653
-13.749444
-16.249374
-12.714121
-4.073432
4.838121
9.818487
10.017557
6.193183
-1.058025
-11.264850
-23.138510
-33.677738
-39.317631
-37.432060
-26.128138
-6.325189
15.540092
31.650145
38.852322
38.116653
32.051514
24.833437
20.461237
19.724228
20.563581
20.782665
19.225042
15.561835
10.651883
6.450656
4.064130
2.337494
-0.766166
-6.248607
-13.900264
-22.201363
-27.701063
-26.812601
-19.252571
-8.049081
3.421104
12.708031
18.127686
18.946611
15.201499
8.218319
1.651150
-0.376937
3.676706
12.824188
24.321230
33.145561
34.332561
27.417572
16.197222
4.417733
-6.255448
-15.209182
-21.368265
-22.747076
-18.526903
-10.991831
-3.738353
0.107381
-2.387741
-11.568651
-22.468956
-28.624676
-27.615974
-20.689537
-10.054294
1.713664
12.128943
18.993401
19.749088
13.113558
1.013548
-12.833725
-23.001213
-21.665741
-5.292682
19.257254
41.099163
52.603283
48.472733
28.071613
-0.318927
-25.629782
-41.560181
-45.261848
-36.339527
-18.469666
2.974911
22.228254
31.896381
27.583006
12.563791
-6.338346
-22.146469
-26.989716
-17.763962
-1.954609
9.337081
10.698694
1.968170
-13.708355
-28.874557
-35.761608
-33.185230
-26.078495
-19.271261
-14.509739
-11.576010
-8.991158
-4.466975
2.339841
7.624466
6.586654
-1.103122
-10.973888
-17.858629
-17.809696
-8.507237
7.967945
24.801111
35.614376
37.559624
30.040745
14.887538
-3.342442
-19.637049
-29.636267
-30.079922
-20.901180
-5.236600
12.535668
27.108734
33.513973
29.569271
15.557223
-5.610597
-26.699774
-39.476128
-39.506210
-25.604649
-0.577513
25.947357
42.773014
44.798450
32.158562
8.374116
-18.258310
-38.493172
-47.296593
-42.736671
-25.906492
-3.147403
17.668907
31.619720
35.791183
30.118979
19.817190
11.433035
7.147911
5.248735
3.620569
1.118739
-2.398598
-5.176236
-3.741932
3.001840
10.530705
12.775156
8.628229
2.077431
-2.245006
-1.091687
7.104267
19.856768
30.565905
34.606281
33.497387
31.075420
28.386627
23.709610
16.081913
7.465054
0.852471
-2.494843
-3.127690
-2.785080
-4.613784
-11.231467
-20.218946
-23.976540
-17.656916
-4.777677
7.623050
14.421028
11.977759
-0.359436
-17.587280
-32.833866
-41.842609
-42.139973
-33.132938
-17.696953
-0.167642
14.964011
22.174013
18.422361
6.774554
-7.161388
-18.786173
-23.892633
-20.753744
-12.848387
-5.401473
-0.866889
0.779908
0.630606
0.828647
3.440011
8.251554
12.778003
14.804367
13.843431
10.324453
5.088512
-0.459690
-4.773890
-6.408072
-4.277032
1.194649
7.813944
12.789548
13.204800
7.013833
-3.738390
-12.601620
-14.359703
-8.787667
1.532078
12.207920
16.740948
11.641136
0.812369
-9.222674
-15.530248
-18.388887
-18.718174
-17.339603
-14.740835
-10.858170
-5.573010
-0.265130
0.918219
-6.211623
-20.026762
-32.593025
-36.841007
-30.987093
-16.417320
2.763840
19.367865
28.159435
29.685808
27.056673
22.584637
17.994102
14.681578
13.545781
15.057200
18.694998
22.730661
25.063929
23.588024
16.600483
4.341642
-10.690002
-24.845783
-33.470303
-32.228817
-20.162012
0.235626
24.371138
45.155273
55.675259
54.126404
43.332848
27.430012
11.189758
-1.232907
-8.705514
-12.663127
-15.333580
-19.455931
-27.393530
-38.790466
-50.193649
-57.005096
-54.219631
-38.067432
-11.449294
15.249703
32.086994
34.351925
21.265493
-1.734952
-22.320890
-30.365419
-24.200607
-6.953852
14.836922
30.504190
32.314167
21.167770
2.627265
-14.913270
-19.353888
-4.032577
24.118935
52.269703
69.242950
64.357735
34.471951
-7.644261
-43.647423
-62.196815
-57.442036
-30.408382
5.700702
34.137394
45.974812
38.751938
15.682526
-10.993791
-27.133923
-27.560703
-15.342195
2.785671
16.478109
15.928180
0.182455
-23.011395
-44.404671
-56.111240
-52.585098
-34.949696
-11.054851
10.475895
22.975206
22.381762
11.321744
-0.788970
-5.706950
-1.195238
11.126664
25.653048
32.498627
25.682358
9.631018
-6.892488
-17.523233
-17.784266
-7.041678
8.122463
18.965820
21.432755
15.535809
3.313181
-10.762860
-21.861244
-27.729830
-28.138901
-24.073828
-18.271759
-13.715680
-11.187363
-9.336547
-6.076824
1.056721
13.997027
31.294111
47.560600
57.182953
56.471867
43.422001
19.597231
-9.383050
-36.941158
-56.866611
-64.212738
-58.175060
-41.824947
-19.815474
1.735942
17.046946
23.682894
21.832767
13.274006
2.100444
-7.110428
-11.633383
-10.000785
-2.428033
7.751971
16.180492
19.988174
17.383669
8.603411
-2.263182
-9.834514
-10.769172
-3.614477
9.669079
21.074192
21.388039
8.389936
-13.120814
-35.980919
-51.831394
-53.623611
-41.558079
-22.766258
-4.271552
10.421501
19.876270
23.387716
20.544613
12.571976
4.091282
0.487801
3.544280
11.321080
19.450996
20.687973
8.500445
-14.462047
-35.661892
-43.507092
-33.890327
-7.755373
27.405931
56.613041
68.245453
61.995880
43.331303
19.564718
0.517014
-7.350544
-6.110762
-1.637954
1.204676
-1.779176
-12.162892
-26.274792
-38.591705
-45.967072
-47.274063
-43.216076
-37.418171
-33.947403
-33.134777
-31.603727
-26.002207
-14.998374
1.141606
19.287180
33.039227
37.879887
35.080868
28.553558
21.802008
18.149845
18.873533
21.064596
20.437023
15.242984
6.131570
-5.380769
-17.116226
-26.957474
-33.835796
-37.304008
-37.155655
-33.645023
-27.352900
-19.654552
-12.937190
-8.526975
-5.000846
0.010028
7.021798
14.431494
19.838488
20.486267
14.250577
2.620168
-8.945897
-15.421451
-14.908339
-7.608667
3.658489
13.115611
16.090664
11.912014
2.092303
-10.483812
-21.142260
-26.067736
-24.374125
-16.721193
-4.670200
8.935062
20.810080
27.658037
26.960110
19.640625
10.324389
3.860900
3.489154
10.694390
22.886776
33.214169
36.472424
33.139236
26.431156
19.536346
15.696147
16.182425
18.169355
17.450157
12.149061
2.574684
-9.910110
-22.775885
-33.215088
-39.046741
-38.241158
-30.246574
-17.781834
-4.918296
4.605127
6.890688
0.812210
-8.751493
-14.880217
-13.803235
-4.534377
11.338725
28.177221
39.507488
42.857738
39.270794
31.116596
21.984753
15.378492
12.570918
12.903707
14.688756
15.013513
11.067892
2.926791
-6.327252
-13.202585
-15.031802
-10.299046
-0.703568
8.660647
13.574463
13.442945
9.560222
3.770869
-1.437766
-4.254993
-4.658307
-3.540603
-2.096481
-1.913914
-3.935558
-7.514040
-11.275166
-13.936145
-14.239951
-11.978509
-9.095114
-8.008827
-8.867696
-9.579219
-8.407939
-5.487735
-1.990395
0.429318
-0.371734
-5.007166
-10.708349
-13.689554
-12.605978
-8.452988
-2.959114
1.777937
3.924063
3.128454
0.269220
-3.856555
-9.087689
-15.474912
-22.247585
-27.420238
-29.029570
-26.007931
-17.906096
-5.328555
9.788261
24.844004
36.697445
42.425289
40.923641
32.759125
19.915348
6.530833
-3.078308
-7.626142
-8.449874
-7.282012
-5.551346
-4.299796
-4.030189
-5.029972
-7.554890
-11.736422
-17.449301
-23.471016
-27.169271
-26.456989
-21.271255
-12.510698
-1.283413
10.816595
21.991512
30.433008
34.656963
34.493000
30.995283
25.483713
19.275415
13.266450
6.941712
-1.431730
-12.513480
-24.223480
-33.420677
-37.901436
-36.178452
-28.375916
-17.724459
-8.283179
-1.808973
1.920589
3.914324
5.931599
9.599250
14.570513
18.450596
18.991203
15.388408
7.824624
-2.070248
-10.928908
-15.929235
-16.433788
-13.101165
-7.743385
-3.513520
-2.686603
-4.959681
-8.840455
-12.923347
-15.674056
-15.804696
-12.740289
-6.309194
3.072395
14.064905
24.398733
30.593931
29.357838
20.673409
7.853264
-5.393314
-16.248112
-22.923660
-25.592741
-25.989037
-25.197674
-22.435625
-16.322115
-7.242397
2.247846
9.360901
12.150304
9.597020
2.936397
-4.144699
-8.255464
-7.966762
-3.031792
5.734613
16.252512
25.810249
31.189245
29.434469
19.760139
3.615601
-15.826722
-33.034203
-42.350517
-41.865273
-33.039639
-18.880156
-4.078250
6.751374
11.943004
12.279530
9.463878
6.087611
4.685218
6.142000
9.904714
14.721380
18.562292
19.371096
16.425936
10.270711
2.310619
-4.893601
-8.667298
-7.957639
-3.175792
4.287332
11.687653
16.030020
15.588750
9.559968
-1.633881
-15.308465
-27.983700
-36.767162
-38.761211
-32.709023
-21.078974
-7.803156
3.887286
10.862634
11.472337
7.373498
1.587847
-3.359388
-5.021898
-2.072743
4.326733
11.952372
18.830221
22.951477
23.336637
21.296038
19.073282
18.398731
20.650846
25.999041
32.241898
36.394104
36.687725
32.267899
23.188429
11.105761
-1.860381
-14.314035
-25.119810
-33.233753
-37.934956
-38.835888
-36.497284
-32.551521
-28.522991
-25.150501
-22.622824
-20.566935
-18.071030
-14.336569
-9.093034
-2.362391
5.602861
14.267267
23.023598
31.299665
38.655865
44.912888
49.869793
52.737946
51.753441
45.036957
32.557941
16.417761
-0.351025
-14.029619
-21.349432
-22.026470
-18.602047
-13.953450
-10.314570
-9.195000
-10.820219
-14.400929
-19.021727
-23.893908
-28.345936
-31.699989
-33.059982
-31.952623
-28.998161
-25.184916
-20.985683
-16.468195
-11.723545
-7.057171
-2.867419
0.493293
2.723370
3.996087
5.420786
8.272545
12.627552
17.325380
21.120480
23.257408
23.413038
22.058048
20.472357
19.689342
19.825809
20.576227
21.756985
23.301695
