EVENT_NAME: EMILIA_2ND_SHOCK
EVENT_ID: IT-2012-0011
EVENT_DATE_YYYYMMDD: 20120529
EVENT_TIME_HHMMSS: 070002
EVENT_LATITUDE_DEGREE: 44.8417
EVENT_LONGITUDE_DEGREE: 11.0657
EVENT_DEPTH_KM: 8.1
HYPOCENTER_REFERENCE: INGV-CNT_Seismic_Bulletin
MAGNITUDE_W: 6.0
MAGNITUDE_W_REFERENCE: RCMT-INGV
MAGNITUDE_L: 5.8
MAGNITUDE_L_REFERENCE: INGV-CNT_Seismic_Bulletin
FOCAL_MECHANISM: TF
NETWORK: IV
STATION_CODE: T0818
STATION_NAME: T0818
STATION_LATITUDE_DEGREE: 44.934800
STATION_LONGITUDE_DEGREE: 11.030400
STATION_ELEVATION_M: 5
LOCATION: 
SENSOR_DEPTH_M: 1.0
VS30_M/S: 
SITE_CLASSIFICATION_EC8: C*
MORPHOLOGIC_CLASSIFICATION: 
EPICENTRAL_DISTANCE_KM: 10.7
EARTHQUAKE_BACKAZIMUTH_DEGREE: 164.9
DATE_TIME_FIRST_SAMPLE_YYYYMMDD_HHMMSS: 20120529_065952.000
DATE_TIME_FIRST_SAMPLE_PRECISION: milliseconds
SAMPLING_INTERVAL_S: 0.005000
NDATA: 20001
DURATION_S: 100.005
STREAM: HNN
UNITS: cm/s
INSTRUMENT: sensor = Episensor FBA ES-T [Kinemetrics] | digitizer = Unknown [Unknown]
INSTRUMENT_ANALOG/DIGITAL: D
INSTRUMENTAL_FREQUENCY_HZ: 
INSTRUMENTAL_DAMPING: 
FULL_SCALE_G: 
N_BIT_DIGITAL_CONVERTER: 
PGV_CM/S: -39.266477
TIME_PGV_S: 19.220000
BASELINE_CORRECTION: BASELINE REMOVED
FILTER_TYPE: BUTTERWORTH
FILTER_ORDER: 2
LOW_CUT_FREQUENCY_HZ: 0.060
HIGH_CUT_FREQUENCY_HZ: 40.000
LATE/NORMAL_TRIGGERED: NT
DATABASE_VERSION: DYNA 1.0
HEADER_FORMAT: DYNA 1.2
DATA_TYPE: VELOCITY
PROCESSING: manual (Paolucci et al., 2011)
DATA_TIMESTAMP_YYYYMMDD_HHMMSS: 
DATA_LICENSE: CC-BY4_0 (http://creativecommons.org/licenses/by/4.0/)
DATA_CITATION: ESM working group (2015), European Strong-Motion database, version 0.1, Network Activity 3: Networking acceleration networks and SM data users. Project NERA (www.nera-eu.org)
DATA_CREATOR: ESM working group
ORIGINAL_DATA_MEDIATOR_CITATION: Orfeus - European Integrated Data Archive (EIDA) http://www.orfeus-eu.org/eida/
ORIGINAL_DATA_MEDIATOR: Orfeus - European Integrated Data Archive (EIDA)
ORIGINAL_DATA_CREATOR_CITATION: Data for this study comes from the Italian national seismic network operated by Istituto Nazionale di Geofisica e Vulcanologia and archived at the European Integrated Data Archive http://eida.rm.ingv.it/
ORIGINAL_DATA_CREATOR: network: IV (Italian National Seismic Network); owner: Istituto Nazionale di Geofisica e Vulcanologia
USER1: 
USER2: 
USER3: 
USER4: 
USER5: 
[...]
-0.154749
-0.154919
-0.155107
-0.155308
-0.155509
-0.155701
-0.155883
-0.156057
-0.156227
-0.156394
-0.156563
-0.156736
-0.156912
-0.157087
-0.157256
-0.157415
-0.157558
-0.157693
-0.157832
-0.157985
-0.158148
-0.158313
-0.158480
-0.158647
-0.158809
-0.158957
-0.159095
-0.159240
-0.159402
-0.159579
-0.159756
-0.159924
-0.160077
-0.160221
-0.160364
-0.160514
-0.160672
-0.160830
-0.160984
-0.161134
-0.161290
-0.161448
-0.161603
-0.161746
-0.161881
-0.162020
-0.162169
-0.162327
-0.162484
-0.162640
-0.162799
-0.162970
-0.163156
-0.163351
-0.163548
-0.163740
-0.163925
-0.164108
-0.164292
-0.164476
-0.164657
-0.164832
-0.165004
-0.165170
-0.165322
-0.165458
-0.165591
-0.165733
-0.165884
-0.166032
-0.166165
-0.166299
-0.166459
-0.166657
-0.166873
-0.167077
-0.167253
-0.167414
-0.167574
-0.167743
-0.167913
-0.168078
-0.168233
-0.168377
-0.168511
-0.168637
-0.168758
-0.168876
-0.168992
-0.169108
-0.169229
-0.169357
-0.169492
-0.169631
-0.169773
-0.169920
-0.170080
-0.170261
-0.170464
-0.170686
-0.170921
-0.171158
-0.171393
-0.171628
-0.171870
-0.172117
-0.172361
-0.172593
-0.172814
-0.173028
-0.173235
-0.173425
-0.173594
-0.173751
-0.173906
-0.174056
-0.174190
-0.174299
-0.174394
-0.174488
-0.174590
-0.174697
-0.174805
-0.174922
-0.175050
-0.175180
-0.175300
-0.175408
-0.175516
-0.175637
-0.175776
-0.175930
-0.176095
-0.176269
-0.176448
-0.176631
-0.176816
-0.176999
-0.177176
-0.177348
-0.177521
-0.177698
-0.177875
-0.178047
-0.178215
-0.178388
-0.178571
-0.178757
-0.178935
-0.179099
-0.179249
-0.179392
-0.179531
-0.179671
-0.179809
-0.179945
-0.180081
-0.180224
-0.180372
-0.180519
-0.180659
-0.180795
-0.180930
-0.181061
-0.181181
-0.181298
-0.181432
-0.181593
-0.181774
-0.181959
-0.182141
-0.182325
-0.182515
-0.182703
-0.182883
-0.183050
-0.183204
-0.183346
-0.183483
-0.183623
-0.183765
-0.183904
-0.184035
-0.184161
-0.184280
-0.184394
-0.184504
-0.184614
-0.184729
-0.184849
-0.184979
-0.185123
-0.185280
-0.185440
-0.185591
-0.185726
-0.185851
-0.185973
-0.186101
-0.186240
-0.186395
-0.186564
-0.186739
-0.186911
-0.187074
-0.187227
-0.187371
-0.187505
-0.187636
-0.187770
-0.187909
-0.188049
-0.188185
-0.188324
-0.188471
-0.188629
-0.188794
-0.188966
-0.189142
-0.189310
-0.189460
-0.189591
-0.189718
-0.189854
-0.190005
-0.190166
-0.190324
-0.190471
-0.190608
-0.190737
-0.190866
-0.190996
-0.191129
-0.191262
-0.191392
-0.191517
-0.191639
-0.191760
-0.191881
-0.192000
-0.192120
-0.192248
-0.192382
-0.192513
-0.192635
-0.192747
-0.192857
-0.192967
-0.193077
-0.193191
-0.193316
-0.193454
-0.193595
-0.193728
-0.193848
-0.193956
-0.194058
-0.194161
-0.194270
-0.194388
-0.194516
-0.194653
-0.194792
-0.194926
-0.195046
-0.195154
-0.195260
-0.195373
-0.195489
-0.195602
-0.195709
-0.195816
-0.195922
-0.196016
-0.196084
-0.196119
-0.196120
-0.196084
-0.196002
-0.195870
-0.195685
-0.195449
-0.195168
-0.194848
-0.194483
-0.194060
-0.193564
-0.192979
-0.192269
-0.191383
-0.190288
-0.189003
-0.187593
-0.186154
-0.184780
-0.183527
-0.182392
-0.181334
-0.180326
-0.179357
-0.178399
-0.177407
-0.176381
-0.175401
-0.174554
-0.173829
-0.173119
-0.172296
-0.171302
-0.170216
-0.169279
-0.168828
-0.169125
-0.170185
-0.171788
-0.173639
-0.175502
-0.177157
-0.178332
-0.178788
-0.178519
-0.177859
-0.177256
-0.176864
-0.176417
-0.175683
-0.174942
-0.174790
-0.175506
-0.176735
-0.177812
-0.178255
-0.178080
-0.177907
-0.178642
-0.180822
-0.184382
-0.188994
-0.193963
-0.197306
-0.195878
-0.188199
-0.177724
-0.172693
-0.181634
-0.206879
-0.240264
-0.265365
-0.267338
-0.244867
-0.214058
-0.198437
-0.210794
-0.241335
-0.263963
-0.258400
-0.229344
-0.202286
-0.196945
-0.205641
-0.203618
-0.182684
-0.167416
-0.188248
-0.240077
-0.279255
-0.264530
-0.194811
-0.105407
-0.034588
0.000378
0.000808
-0.027907
-0.082665
-0.154448
-0.218608
-0.243522
-0.217107
-0.162913
-0.121578
-0.115832
-0.139252
-0.172714
-0.200279
-0.211627
-0.201584
-0.174059
-0.141646
-0.117151
-0.107657
-0.115338
-0.139130
-0.174834
-0.215557
-0.253061
-0.279336
-0.289835
-0.287181
-0.277058
-0.256266
-0.210809
-0.135710
-0.055835
-0.012478
-0.023112
-0.065526
-0.106996
-0.138933
-0.172755
-0.208246
-0.222945
-0.199013
-0.151088
-0.115979
-0.116221
-0.140639
-0.159443
-0.153800
-0.130979
-0.114359
-0.119019
-0.134626
-0.134216
-0.103461
-0.058934
-0.032277
-0.037710
-0.063376
-0.093449
-0.125010
-0.158375
-0.182973
-0.186975
-0.178705
-0.183987
-0.215927
-0.254291
-0.263103
-0.227387
-0.167894
-0.120910
-0.105960
-0.112186
-0.113878
-0.097769
-0.074366
-0.062078
-0.062312
-0.055769
-0.026848
0.012321
0.030194
0.008169
-0.043105
-0.098890
-0.142696
-0.170432
-0.180373
-0.168991
-0.137935
-0.099457
-0.069857
-0.056994
-0.057261
-0.066372
-0.088816
-0.130385
-0.181560
-0.215932
-0.211612
-0.171786
-0.119760
-0.077074
-0.052068
-0.046881
-0.062874
-0.092796
-0.115487
-0.106797
-0.058403
0.012448
0.070262
0.082336
0.042886
-0.020682
-0.072920
-0.103164
-0.127777
-0.160739
-0.191639
-0.197728
-0.168758
-0.111612
-0.036345
0.050104
0.132404
0.178689
0.157140
0.066588
-0.052055
-0.140962
-0.168126
-0.150388
-0.134905
-0.154514
-0.200361
-0.238653
-0.248587
-0.236033
-0.211575
-0.169209
-0.097193
-0.003695
0.079891
0.123682
0.122224
0.092330
0.055120
0.023344
0.000299
-0.017345
-0.035209
-0.052001
-0.053162
-0.020065
0.049934
0.135662
0.208298
0.253983
0.278364
0.291232
0.292237
0.272979
0.228439
0.164399
0.095677
0.036933
-0.008272
-0.050519
-0.102616
-0.161798
-0.206015
-0.209672
-0.162239
-0.072427
0.039367
0.147880
0.229167
0.271585
0.283894
0.286683
0.290954
0.288035
0.264218
0.220963
0.171445
0.119299
0.054831
-0.023009
-0.088785
-0.101559
-0.033090
0.114795
0.310241
0.500570
0.631350
0.675364
0.648644
0.588513
0.514681
0.421417
0.307013
0.196592
0.125291
0.105080
0.118378
0.141209
0.162762
0.182211
0.199916
0.220432
0.256913
0.323037
0.418737
0.525096
0.610469
0.641252
0.599446
0.501711
0.395952
0.324891
0.287702
0.245010
0.168180
0.080354
0.040647
0.085896
0.193307
0.300074
0.353623
0.342004
0.283096
0.196337
0.095365
0.007478
-0.017042
0.061899
0.224930
0.392130
0.483263
0.475138
0.395854
0.277243
0.133007
-0.021268
-0.148701
-0.204454
-0.167411
-0.055510
0.084815
0.199334
0.245942
0.214201
0.136449
0.072673
0.072497
0.145781
0.266720
0.401025
0.524815
0.620324
0.663752
0.630036
0.516798
0.361729
0.230308
0.181964
0.241239
0.385711
0.553851
0.677619
0.719687
0.681634
0.586150
0.466762
0.370990
0.342571
0.380387
0.431609
0.445721
0.430508
0.437631
0.495695
0.579461
0.648122
0.696110
0.754589
0.846640
0.952231
1.025024
1.041493
1.023978
1.010251
1.008035
0.993154
0.952361
0.910147
0.898593
0.911138
0.908455
0.866481
0.799025
0.732787
0.679133
0.639004
0.616286
0.609777
0.603451
0.582964
0.562956
0.584599
0.678550
0.831670
0.987726
1.078050
1.061574
0.955694
0.833409
0.770233
0.780669
0.814071
0.816189
0.779154
0.720000
0.634302
0.499383
0.315523
0.124491
-0.011363
-0.035686
0.084960
0.338190
0.650288
0.914575
1.057196
1.075939
1.010040
0.891537
0.744809
0.614612
0.554786
0.575686
0.626700
0.649873
0.642408
0.650407
0.703273
0.772800
0.804410
0.779582
0.736528
0.725426
0.747779
0.749854
0.682445
0.562935
0.468321
0.463059
0.539761
0.635369
0.700332
0.742122
0.801179
0.894938
0.989335
1.023302
0.964975
0.847112
0.740179
0.680611
0.632959
0.538982
0.396294
0.271198
0.237344
0.314021
0.464405
0.639479
0.813684
0.981962
1.127898
1.204699
1.167519
1.032579
0.884299
0.798415
0.767727
0.733985
0.681465
0.662889
0.730125
0.866965
1.010665
1.129894
1.260557
1.458685
1.725085
1.984000
2.139838
2.157078
2.084710
2.003569
1.956268
1.930766
1.896702
1.842614
1.783767
1.747395
1.751704
1.788066
1.821287
1.820324
1.795270
1.796326
1.868311
2.009522
2.179096
2.333544
2.447243
2.508582
2.514020
2.470087
2.392709
2.303396
2.230737
2.208888
2.265911
2.409697
2.611729
2.794706
2.855254
2.731963
2.461330
2.148840
1.882766
1.694760
1.591616
1.586432
1.680836
1.833017
1.972041
2.054733
2.096244
2.131756
2.158785
2.137116
2.045562
1.918613
1.810855
1.731680
1.628580
1.439842
1.169242
0.915784
0.821920
0.965832
1.290453
1.654855
1.957255
2.181942
2.330697
2.354255
2.191114
1.866762
1.512968
1.265264
1.155674
1.124600
1.117050
1.138452
1.226260
1.393320
1.610666
1.840017
2.069049
2.305309
2.541185
2.740896
2.872630
2.945338
2.994856
3.028761
2.998442
2.840085
2.544688
2.184837
1.874306
1.699453
1.678033
1.766519
1.901386
2.047297
2.217222
2.439609
2.697726
2.915205
3.020124
3.013865
2.955272
2.878725
2.755720
2.550607
2.287469
2.033748
1.824818
1.635651
1.441671
1.288736
1.277025
1.471325
1.839622
2.277428
2.673474
2.950359
3.070440
3.036448
2.892687
2.707765
2.540517
2.420904
2.360994
2.364634
2.418020
2.492144
2.571826
2.675469
2.833233
3.049908
3.298827
3.540936
3.731729
3.815529
3.744370
3.522891
3.223507
2.945083
2.758337
2.687313
2.728501
2.874490
3.115421
3.421291
3.731226
3.969537
4.078626
4.042684
3.889823
3.679766
3.488638
3.390947
3.429818
3.585395
3.778665
3.929871
4.023643
4.107693
4.225297
4.358279
4.441142
4.423911
4.309933
4.134863
3.927569
3.704821
3.491107
3.321560
3.219546
3.177693
3.167038
3.164968
3.173578
3.213867
3.303196
3.433273
3.563781
3.637493
3.608214
3.464047
3.232566
2.966903
2.725701
2.561900
2.518728
2.619210
2.847923
3.141425
3.400760
3.527712
3.476173
3.282243
3.031018
2.783299
2.540206
2.279764
2.010211
1.772381
1.607931
1.551823
1.645843
1.921147
2.349071
2.832651
3.266770
3.600708
3.848850
4.062223
4.292538
4.558966
4.826971
5.030339
5.135272
5.183129
5.259403
5.418647
5.645376
5.883589
6.091642
6.267997
6.437618
6.624844
6.834442
7.047730
7.236246
7.385129
7.505019
7.618315
7.736278
7.856144
7.976413
8.102620
8.233393
8.348695
8.422453
8.448493
8.448622
8.450494
8.456648
8.436018
8.347800
8.180198
7.972673
7.798498
7.718234
7.744639
7.849261
8.001612
8.199387
8.452893
8.740649
9.001429
9.183356
9.287806
9.353370
9.406194
9.443684
9.466840
9.509532
9.620121
9.814493
10.056360
10.284530
10.454160
10.552960
10.585020
10.548120
10.437260
10.271480
10.102280
9.979779
9.910036
9.856499
9.785040
9.698418
9.624463
9.583248
9.579311
9.618740
9.712918
9.854842
9.999830
10.086880
10.090540
10.049700
10.035590
10.088830
10.190940
10.294820
10.373950
10.437030
10.503650
10.578960
10.655050
10.728110
10.807760
10.913310
11.063310
11.262960
11.494990
11.724830
11.924200
12.094680
12.263940
12.451500
12.634580
12.748810
12.728550
12.551580
12.246360
11.860900
11.429510
10.965120
10.473140
9.963563
9.445299
8.911031
8.336493
7.703149
7.022837
6.334109
5.668130
5.018681
4.351192
3.642081
2.903877
2.171053
1.466802
0.787461
0.116886
-0.549408
-1.197075
-1.807919
-2.378299
-2.921479
-3.453881
-3.981819
-4.503110
-5.019882
-5.544888
-6.092938
-6.667810
-7.256058
-7.830060
-8.359665
-8.829855
-9.253409
-9.663991
-10.092630
-10.549030
-11.021670
-11.492300
-11.951400
-12.401940
-12.848660
-13.284620
-13.690660
-14.050300
-14.366460
-14.663530
-14.969820
-15.291300
-15.598360
-15.842080
-15.985900
-16.018391
-15.939780
-15.747380
-15.439120
-15.023050
-14.512580
-13.914950
-13.234200
-12.485310
-11.693230
-10.872370
-10.018070
-9.127312
-8.221401
-7.334530
-6.483526
-5.670232
-4.921560
-4.310622
-3.914613
-3.744413
-3.727700
-3.770123
-3.825065
-3.897830
-4.003330
-4.141154
-4.300913
-4.470157
-4.630725
-4.757346
-4.828994
-4.841701
-4.812284
-4.772310
-4.752608
-4.763437
-4.784011
-4.772346
-4.688778
-4.515695
-4.266343
-3.984488
-3.732366
-3.566590
-3.512668
-3.550836
-3.619395
-3.637142
-3.539287
-3.307083
-2.969486
-2.576974
-2.168742
-1.755490
-1.326875
-0.873194
-0.397154
0.094646
0.603572
1.136394
1.694149
2.271066
2.866490
3.492723
4.167535
4.898481
5.672852
6.459991
7.224412
7.944972
8.628180
9.300351
9.980201
10.655890
11.290700
11.853490
12.342970
12.780030
13.175480
13.503070
13.698990
13.688500
13.429700
12.953700
12.367580
11.798630
11.317700
10.912160
10.519450
10.074510
9.537991
8.904370
8.195798
7.442278
6.661486
5.859294
5.046876
4.248040
3.483456
2.749808
2.022204
1.280935
0.532305
-0.200633
-0.903964
-1.583745
-2.253235
-2.917386
-3.574080
-4.225129
-4.878700
-5.540616
-6.207369
-6.869322
-7.519496
-8.162031
-8.816779
-9.512102
-10.264310
-11.061020
-11.869670
-12.665860
-13.449730
-14.233150
-15.018390
-15.798160
-16.571541
-17.344049
-18.110220
-18.849670
-19.550529
-20.232389
-20.936640
-21.693781
-22.504910
-23.354441
-24.231340
-25.133989
-26.064131
-27.024920
-28.022619
-29.062750
-30.142349
-31.248850
-32.366970
-33.489750
-34.629238
-35.804039
-36.987549
-38.061489
-38.850422
-39.239601
-39.266479
-39.084190
-38.834888
-38.566971
-38.264648
-37.916729
-37.538609
-37.157349
-36.797600
-36.475208
-36.194538
-35.952900
-35.747478
-35.565971
-35.366718
-35.084629
-34.670559
-34.124161
-33.485100
-32.798111
-32.091789
-31.380239
-30.671000
-29.969231
-29.277590
-28.595501
-27.921391
-27.257111
-26.608810
-25.980089
-25.363440
-24.741489
-24.098200
-23.427601
-22.730900
-22.008060
-21.254910
-20.467279
-19.646351
-18.801741
-17.952820
-17.128050
-16.359619
-15.677030
-15.107100
-14.675850
-14.401460
-14.281190
-14.286180
-14.370450
-14.488160
-14.609030
-14.724660
-14.843310
-14.977410
-15.131320
-15.296580
-15.455340
-15.584570
-15.656400
-15.636420
-15.487420
-15.180580
-14.707780
-14.090480
-13.381150
-12.648730
-11.951030
-11.313040
-10.723670
-10.147480
-9.545697
-8.900176
-8.226772
-7.563313
-6.938430
-6.348880
-5.766402
-5.165345
-4.541820
-3.906319
-3.260857
-2.588349
-1.868177
-1.100132
-0.306726
0.488293
1.277672
2.068445
2.870596
3.692643
4.546253
5.448928
6.415750
7.447222
8.528512
9.638189
10.744510
11.784120
12.657800
13.273040
13.606420
13.721800
13.717600
13.658820
13.561740
13.422760
13.238390
13.000220
12.693760
12.313560
11.871470
11.388550
10.885790
10.380490
9.879528
9.370241
8.826938
8.233835
7.598815
6.944614
6.293299
5.663185
5.077613
4.571089
4.181464
3.930801
3.810698
3.786237
3.817248
3.880430
3.972739
4.094104
4.232559
4.369191
4.492260
4.602984
4.708171
4.805368
4.868870
4.849489
4.702685
4.429194
4.082427
3.727104
3.390525
3.056025
2.696334
2.302998
1.885030
1.449932
0.993288
0.503809
-0.026782
-0.597308
-1.196331
-1.807835
-2.421663
-3.039837
-3.670158
-4.313348
-4.958055
-5.587582
-6.188710
-6.754288
-7.284228
-7.789950
-8.294792
-8.822436
-9.380867
-9.957469
-10.527020
-11.062640
-11.546590
-11.979160
-12.376580
-12.754500
-13.112080
-13.435110
-13.713160
-13.948170
-14.148400
-14.322670
-14.484260
-14.651630
-14.837160
-15.039090
-15.250690
-15.476450
-15.733230
-16.032000
-16.364651
-16.719950
-17.114330
-17.588079
-18.141199
-18.669180
-19.004320
-19.050011
-18.856831
-18.558840
-18.257380
-17.976761
-17.700020
-17.406950
-17.083611
-16.725229
-16.338869
-15.931150
-15.488790
-14.985040
-14.407690
-13.767240
-13.075220
-12.326590
-11.510230
-10.628450
-9.697379
-8.731885
-7.736624
-6.711528
-5.661249
-4.597595
-3.537231
-2.501378
-1.517084
-0.612389
0.196183
0.912092
1.553262
2.140246
2.691460
3.223418
3.747612
4.266898
4.779291
5.287771
5.803750
6.338244
6.891181
7.450647
8.000883
8.529346
9.027246
9.486263
9.897444
10.254480
10.558620
10.822770
11.071420
11.331170
11.616180
11.924090
12.249280
12.597060
12.979610
13.401350
13.856470
14.342010
14.866570
15.441780
16.069441
16.741739
17.451170
18.196430
18.978559
19.794140
20.632231
21.474369
22.295370
23.062269
23.733829
24.273001
24.671730
24.963060
25.203680
25.442101
25.699011
25.968540
26.229900
26.461161
26.653061
26.817120
26.979900
27.166300
27.386370
27.635441
27.902290
28.177170
28.456450
28.742680
29.039961
29.347719
29.659800
29.969971
30.275511
30.573610
30.855450
31.107691
31.324030
31.515400
31.703190
31.898720
32.090881
32.253811
32.362202
32.396778
32.341080
32.181221
31.912109
31.543369
31.098610
30.608101
30.098570
29.583370
29.059080
28.514601
27.944611
27.352680
26.741600
26.105049
25.430090
24.704611
23.922340
23.084881
22.199850
21.274080
20.306280
19.288090
18.213869
17.087851
15.921630
14.728210
13.519150
12.305210
11.097380
9.906979
8.745990
7.628215
6.573042
5.610060
4.773260
4.080719
3.517725
3.043247
2.614783
2.207932
1.818057
1.451515
1.117408
0.820840
0.555241
0.301272
0.038888
-0.237598
-0.517239
-0.784890
-1.034610
-1.272209
-1.508036
-1.746514
-1.979309
-2.188976
-2.362152
-2.499783
-2.612676
-2.709047
-2.790471
-2.856750
-2.908723
-2.947485
-2.976095
-3.002775
-3.037290
-3.084791
-3.150543
-3.249118
-3.400127
-3.612500
-3.878727
-4.188181
-4.539776
-4.937294
-5.379251
-5.859904
-6.377309
-6.933705
-7.528237
-8.153949
-8.800865
-9.457938
-10.112760
-10.754410
-11.378220
-11.984410
-12.572700
-13.141100
-13.686500
-14.198540
-14.651340
-15.009900
-15.252610
-15.387190
-15.443380
-15.450590
-15.419870
-15.343840
-15.213840
-15.039000
-14.847540
-14.665270
-14.493030
-14.310950
-14.105890
-13.887090
-13.669300
-13.447110
-13.194540
-12.888100
-12.524800
-12.116710
-11.672240
-11.186580
-10.649090
-10.057620
-9.425145
-8.775221
-8.138882
-7.560255
-7.093189
-6.775328
-6.601450
-6.526509
-6.496541
-6.476776
-6.457762
-6.448359
-6.470769
-6.557052
-6.735796
-7.010929
-7.352794
-7.716157
-8.072162
-8.423694
-8.790400
-9.181761
-9.584376
-9.966024
-10.283370
-10.492350
-10.567990
-10.521870
-10.392590
-10.213890
-9.995773
-9.733449
-9.424623
-9.073691
-8.684051
-8.253686
-7.779595
-7.265115
-6.722778
-6.167635
-5.604253
-5.020609
-4.399062
-3.735927
-3.047399
-2.355534
-1.673021
-1.002106
-0.342365
0.306204
0.947187
1.589436
2.241303
2.903205
3.565343
4.208197
4.801616
5.308409
5.699139
5.969196
6.141319
6.252573
6.339867
6.430795
6.538614
6.662558
6.794925
6.930536
7.069519
7.212683
7.359619
7.513114
7.680977
7.869178
8.075505
8.294558
8.526286
8.773566
9.031436
9.284683
9.519092
9.732246
9.933965
10.142190
10.380770
10.676250
11.048390
11.498270
12.005100
12.537460
13.069180
13.584780
14.072810
14.516250
14.887420
15.151940
15.280470
15.261540
15.110040
14.865890
14.578060
14.282340
