EVENT_NAME: EMILIA_2ND_SHOCK
EVENT_ID: IT-2012-0011
EVENT_DATE_YYYYMMDD: 20120529
EVENT_TIME_HHMMSS: 070002
EVENT_LATITUDE_DEGREE: 44.8417
EVENT_LONGITUDE_DEGREE: 11.0657
EVENT_DEPTH_KM: 8.1
HYPOCENTER_REFERENCE: INGV-CNT_Seismic_Bulletin
MAGNITUDE_W: 6.0
MAGNITUDE_W_REFERENCE: RCMT-INGV
MAGNITUDE_L: 5.8
MAGNITUDE_L_REFERENCE: INGV-CNT_Seismic_Bulletin
FOCAL_MECHANISM: TF
NETWORK: IV
STATION_CODE: T0814
STATION_NAME: T0814
STATION_LATITUDE_DEGREE: 44.793300
STATION_LONGITUDE_DEGREE: 10.969200
STATION_ELEVATION_M: 16
LOCATION: 
SENSOR_DEPTH_M: 1.0
VS30_M/S: 
SITE_CLASSIFICATION_EC8: C*
MORPHOLOGIC_CLASSIFICATION: 
EPICENTRAL_DISTANCE_KM: 9.3
EARTHQUAKE_BACKAZIMUTH_DEGREE: 54.8
DATE_TIME_FIRST_SAMPLE_YYYYMMDD_HHMMSS: 20120529_065942.000
DATE_TIME_FIRST_SAMPLE_PRECISION: milliseconds
SAMPLING_INTERVAL_S: 0.005000
NDATA: 20001
DURATION_S: 100.005
STREAM: HNN
UNITS: cm/s
INSTRUMENT: sensor = Episensor FBA ES-T [Kinemetrics] | digitizer = Unknown [Unknown]
INSTRUMENT_ANALOG/DIGITAL: D
INSTRUMENTAL_FREQUENCY_HZ: 
INSTRUMENTAL_DAMPING: 
FULL_SCALE_G: 
N_BIT_DIGITAL_CONVERTER: 
PGV_CM/S: 21.043387
TIME_PGV_S: 32.280000
BASELINE_CORRECTION: BASELINE REMOVED
FILTER_TYPE: BUTTERWORTH
FILTER_ORDER: 2
LOW_CUT_FREQUENCY_HZ: 0.060
HIGH_CUT_FREQUENCY_HZ: 40.000
LATE/NORMAL_TRIGGERED: NT
DATABASE_VERSION: DYNA 1.0
HEADER_FORMAT: DYNA 1.2
DATA_TYPE: VELOCITY
PROCESSING: manual (Paolucci et al., 2011)
DATA_TIMESTAMP_YYYYMMDD_HHMMSS: 
DATA_LICENSE: CC-BY4_0 (http://creativecommons.org/licenses/by/4.0/)
DATA_CITATION: ESM working group (2015), European Strong-Motion database, version 0.1, Network Activity 3: Networking acceleration networks and SM data users. Project NERA (www.nera-eu.org)
DATA_CREATOR: ESM working group
ORIGINAL_DATA_MEDIATOR_CITATION: Orfeus - European Integrated Data Archive (EIDA) http://www.orfeus-eu.org/eida/
ORIGINAL_DATA_MEDIATOR: Orfeus - European Integrated Data Archive (EIDA)
ORIGINAL_DATA_CREATOR_CITATION: Data for this study comes from the Italian national seismic network operated by Istituto Nazionale di Geofisica e Vulcanologia and archived at the European Integrated Data Archive http://eida.rm.ingv.it/
ORIGINAL_DATA_CREATOR: network: IV (Italian National Seismic Network); owner: Istituto Nazionale di Geofisica e Vulcanologia
USER1: 
USER2: 
USER3: 
USER4: 
USER5: 
[...]
0.036090
-0.031300
-0.129378
-0.242449
-0.352288
-0.446438
-0.511002
-0.527115
-0.484900
-0.399025
-0.302486
-0.222362
-0.162492
-0.105904
-0.033233
0.054354
0.127094
0.145884
0.094832
-0.005013
-0.115420
-0.211098
-0.289015
-0.353812
-0.399934
-0.409491
-0.368344
-0.287315
-0.206172
-0.166626
-0.177620
-0.212989
-0.239397
-0.238442
-0.208734
-0.163975
-0.133393
-0.145185
-0.195742
-0.245043
-0.254235
-0.225401
-0.195589
-0.192049
-0.202720
-0.195084
-0.157130
-0.110186
-0.083115
-0.084236
-0.103111
-0.131032
-0.167321
-0.205573
-0.224895
-0.203321
-0.137700
-0.045185
0.052804
0.142148
0.211698
0.246996
0.236108
0.178932
0.085196
-0.036116
-0.179421
-0.331194
-0.460062
-0.528038
-0.516799
-0.440150
-0.330545
-0.214855
-0.099253
0.025520
0.161799
0.286224
0.357030
0.345471
0.261642
0.149053
0.054506
0.001125
-0.016024
-0.015515
-0.010811
0.000814
0.031158
0.079332
0.121120
0.129176
0.105587
0.084960
0.100205
0.150672
0.204801
0.228659
0.211112
0.166671
0.118710
0.079412
0.043981
0.003167
-0.041571
-0.077093
-0.089959
-0.076340
-0.042489
-0.000772
0.030747
0.028964
-0.020723
-0.102519
-0.169152
-0.178166
-0.134303
-0.085030
-0.069345
-0.080958
-0.084085
-0.053567
0.008543
0.084670
0.153791
0.196715
0.204857
0.188011
0.167004
0.154838
0.148053
0.136278
0.116516
0.100027
0.107867
0.155019
0.230901
0.295809
0.306821
0.251457
0.151824
0.038715
-0.068102
-0.153331
-0.196933
-0.185753
-0.129342
-0.053981
0.021355
0.098781
0.186053
0.269383
0.314393
0.303637
0.264965
0.245211
0.252467
0.243536
0.178244
0.070440
-0.024996
-0.065063
-0.047078
0.005032
0.063854
0.109985
0.135305
0.141884
0.137147
0.130197
0.133869
0.165117
0.234846
0.335561
0.442102
0.526985
0.576620
0.593386
0.583093
0.543943
0.471934
0.377536
0.290225
0.236665
0.212105
0.180819
0.113321
0.023107
-0.040784
-0.041819
0.008679
0.070212
0.119472
0.166639
0.228901
0.302468
0.367189
0.407757
0.421721
0.414068
0.392923
0.367427
0.340527
0.304612
0.250859
0.179652
0.098193
0.014908
-0.057510
-0.099021
-0.094083
-0.048416
0.013291
0.067546
0.107506
0.142480
0.190117
0.268073
0.380999
0.508548
0.610709
0.651876
0.623402
0.544750
0.446452
0.351601
0.265716
0.179259
0.082821
-0.016899
-0.095901
-0.128666
-0.106677
-0.042206
0.045303
0.143231
0.245193
0.344884
0.441250
0.549457
0.694552
0.888017
1.118975
1.372707
1.647488
1.942572
2.236708
2.497585
2.717855
2.931050
3.182106
3.481424
3.791744
4.061215
4.267477
4.430021
4.585896
4.758623
4.947989
5.143914
5.345785
5.565949
5.816616
6.099411
6.409325
6.743417
7.099813
7.469557
7.836552
8.190340
8.538675
8.903933
9.303160
9.729029
10.151710
10.546840
10.926500
11.335560
11.811070
12.348830
12.912990
13.472540
14.020560
14.558790
15.072730
15.531270
15.912540
16.225340
16.501080
16.761820
16.992701
17.143551
17.157560
16.999531
16.657021
16.117500
15.355970
14.353030
13.121150
11.708800
10.179160
8.581631
6.937753
5.249884
3.519878
1.760978
-0.000348
-1.724984
-3.359570
-4.842570
-6.123325
-7.180914
-8.031712
-8.722445
-9.305961
-9.807593
-10.208040
-10.464770
-10.554180
-10.489890
-10.303340
-10.016590
-9.637743
-9.175792
-8.652278
-8.099663
-7.555059
-7.057472
-6.642851
-6.333046
-6.127895
-6.007758
-5.944031
-5.910621
-5.887136
-5.852326
-5.782038
-5.659287
-5.482007
-5.255204
-4.976670
-4.637558
-4.239573
-3.805874
-3.372498
-2.973418
-2.634412
-2.371555
-2.185933
-2.061307
-1.972769
-1.899150
-1.825823
-1.737515
-1.616308
-1.452356
-1.252868
-1.033654
-0.802829
-0.558910
-0.302896
-0.045608
0.197069
0.411311
0.586224
0.713827
0.792030
0.823656
0.811547
0.760167
0.685643
0.621118
0.606761
0.670713
0.816195
1.022928
1.257468
1.482938
1.665938
1.780325
1.807120
1.737631
1.583735
1.382623
1.183062
1.022254
0.914394
0.855808
0.834878
0.838102
0.852353
0.867288
0.880998
0.906670
0.972212
1.106624
1.319511
1.590802
1.879159
2.140151
2.340115
2.459829
2.494020
2.454024
2.367577
2.263703
2.150754
2.012236
1.826127
1.586654
1.308172
1.013167
0.721310
0.448333
0.211202
0.032023
-0.066227
-0.070318
0.016755
0.179354
0.398468
0.658913
0.950942
1.268886
1.610912
1.978644
2.372300
2.782747
3.188024
3.559697
3.873304
4.111461
4.259168
4.300648
4.224428
4.034288
3.753606
3.412588
3.030368
2.614902
2.178261
1.743426
1.331977
0.950146
0.595222
0.275028
0.012893
-0.171250
-0.281479
-0.340970
-0.363459
-0.332987
-0.217086
-0.000434
0.297508
0.638011
0.989644
1.335322
1.659547
1.936218
2.129298
2.206061
2.154939
1.995044
1.769935
1.532907
1.335980
1.225036
1.235653
1.384534
1.661316
2.033174
2.461167
2.912703
3.362231
3.786182
4.159523
4.457230
4.659250
4.753916
4.737533
4.610463
4.372518
4.026849
3.593444
3.112551
2.625012
2.148211
1.676614
1.208737
0.769386
0.401371
0.137291
-0.019471
-0.091010
-0.106875
-0.086247
-0.031788
0.060284
0.182194
0.305428
0.391294
0.410974
0.353093
0.215161
-0.006536
-0.317593
-0.717540
-1.192772
-1.718807
-2.267654
-2.809057
-3.304479
-3.703006
-3.950010
-4.011289
-3.895133
-3.647928
-3.325449
-2.967623
-2.594740
-2.218567
-1.849906
-1.491797
-1.128777
-0.731598
-0.277977
0.230568
0.768987
1.302100
1.801948
2.260682
2.690536
3.109048
3.523738
3.932840
4.336073
4.735583
5.123407
5.473420
5.752558
5.943000
6.055433
6.123154
6.183151
6.258880
6.355105
6.465284
6.583422
6.708121
6.835189
6.948872
7.021718
7.022590
6.928114
6.734503
6.462123
6.143056
5.800038
5.438203
5.052053
4.632437
4.168074
3.651168
3.090315
2.514933
1.962225
1.460811
1.025711
0.664108
0.381471
0.179726
0.050443
-0.027051
-0.078460
-0.123999
-0.173388
-0.230158
-0.300388
-0.397516
-0.540689
-0.748946
-1.033974
-1.395206
-1.821288
-2.296007
-2.800460
-3.306252
-3.767936
-4.132739
-4.365203
-4.460103
-4.433771
-4.310131
-4.114926
-3.875470
-3.617706
-3.359353
-3.105538
-2.851914
-2.591132
-2.318691
-2.041506
-1.789219
-1.616679
-1.583761
-1.722244
-2.020086
-2.433319
-2.908333
-3.399108
-3.876332
-4.328067
-4.751730
-5.140972
-5.476692
-5.734163
-5.904539
-6.008548
-6.083104
-6.150852
-6.205124
-6.225550
-6.202972
-6.144220
-6.054816
-5.924520
-5.733354
-5.469931
-5.144563
-4.790046
-4.453172
-4.180913
-4.007636
-3.949566
-4.004323
-4.153339
-4.371340
-4.639156
-4.946441
-5.281140
-5.618830
-5.925970
-6.172546
-6.337133
-6.403238
-6.360145
-6.210058
-5.968717
-5.654663
-5.279824
-4.851231
-4.376784
-3.863264
-3.310088
-2.713503
-2.081854
-1.447021
-0.860325
-0.376830
-0.040946
0.124127
0.127183
0.013474
-0.147302
-0.286688
-0.363579
-0.377935
-0.362273
-0.351725
-0.354193
-0.346996
-0.300468
-0.201994
-0.056882
0.130908
0.374569
0.698196
1.114931
1.614058
2.170697
2.766103
3.396165
4.059643
4.740505
5.407224
6.031526
6.604804
7.136618
7.640790
8.123621
8.583489
9.018836
9.433537
9.833954
10.223400
10.602710
10.977440
11.363140
11.781250
12.247980
12.763900
13.311320
13.862190
14.392890
14.895070
15.373360
15.832720
16.266430
16.654369
16.972630
17.207581
17.365511
17.469549
17.540670
17.573771
17.530069
17.358360
17.028540
16.545370
15.932880
15.209640
14.377890
13.431130
12.367840
11.196970
9.934086
8.597646
7.211806
5.813689
4.455619
3.193292
2.066907
1.092928
0.274124
-0.383453
-0.866956
-1.169893
-1.302404
-1.286401
-1.143852
-0.889482
-0.532573
-0.086983
0.417620
0.933244
1.406829
1.803158
2.116694
2.359628
2.537451
2.634869
2.623804
2.484498
2.220829
1.860211
1.441790
1.000524
0.556703
0.118805
-0.304593
-0.695757
-1.029340
-1.282830
-1.446392
-1.525166
-1.535192
-1.497189
-1.431821
-1.359404
-1.302175
-1.280992
-1.303982
-1.356432
-1.401283
-1.390412
-1.279263
-1.033563
-0.625876
-0.035937
0.736465
1.659088
2.671931
3.708414
4.717079
5.668304
6.548507
7.356683
8.105573
8.815575
9.500631
10.160520
10.785560
11.365220
11.893150
12.369620
12.803790
13.211530
13.606220
13.989190
14.348840
14.669980
14.946110
15.185190
15.405230
15.622650
15.841530
16.050900
16.231039
16.363300
16.437441
16.449921
16.392361
16.242081
15.966840
15.540230
14.952430
14.207410
13.312990
12.276250
11.106090
9.814491
8.415919
6.931133
5.389747
3.821899
2.244226
0.655950
-0.948005
-2.560562
-4.158670
-5.711736
-7.193870
-8.592215
-9.905867
-11.132920
-12.251990
-13.216660
-13.971280
-14.473450
-14.706830
-14.678870
-14.407400
-13.908910
-13.198290
-12.295240
-11.228030
-10.034310
-8.765627
-7.498034
-6.334056
-5.379524
-4.706392
-4.327988
-4.200343
-4.247021
-4.393112
-4.587821
-4.806856
-5.045734
-5.314214
-5.627628
-5.992105
-6.393762
-6.803610
-7.193549
-7.547077
-7.859618
-8.135705
-8.386412
-8.625581
-8.865568
-9.115305
-9.380309
-9.661398
-9.954159
-10.253970
-10.562400
-10.885890
-11.227140
-11.579310
-11.928920
-12.262190
-12.569540
-12.847530
-13.097050
-13.317140
-13.499430
-13.630730
-13.701470
-13.708600
-13.652750
-13.540480
-13.392720
-13.245030
-13.131360
-13.065860
-13.043910
-13.059670
-13.115040
-13.208910
-13.327500
-13.452820
-13.576470
-13.699660
-13.823670
-13.949050
-14.084630
-14.246500
-14.439160
-14.640270
-14.812680
-14.934220
-15.012160
-15.069420
-15.123300
-15.180810
-15.246610
-15.326330
-15.421730
-15.528210
-15.638770
-15.745800
-15.835390
-15.881840
-15.855120
-15.736600
-15.525020
-15.229410
-14.861880
-14.435870
-13.964610
-13.457330
-12.918440
-12.353270
-11.773790
-11.196920
-10.637280
-10.102690
-9.595549
-9.117172
-8.671353
-8.265557
-7.909348
-7.611288
-7.376841
-7.208505
-7.105781
-7.063207
-7.069090
-7.106727
-7.157097
-7.203489
-7.236672
-7.255174
-7.258355
-7.238390
-7.181555
-7.079147
-6.935069
-6.761594
-6.568864
-6.358582
-6.125801
-5.865384
-5.578197
-5.272233
-4.956293
-4.631214
-4.288596
-3.920524
-3.530234
-3.130846
-2.733510
-2.339570
-1.945829
-1.554160
-1.172800
-0.810265
-0.471295
-0.158090
0.129298
0.396564
0.655723
0.916998
1.178472
1.425304
1.639748
1.811113
1.937486
2.021065
2.063316
2.063251
2.018062
1.924607
1.781641
1.592359
1.365359
1.114483
0.859862
0.628617
0.451011
0.350368
0.331864
0.380854
0.474449
0.595146
0.733820
0.884843
1.042925
1.203514
1.364574
1.528004
1.698193
1.876127
2.052818
2.209904
2.328101
2.394292
2.401258
2.343888
2.218751
2.026051
1.767625
1.443205
1.052304
0.599977
0.097343
-0.445424
-1.024342
-1.637129
-2.273791
-2.913984
-3.534797
-4.120854
-4.666479
-5.167824
-5.615017
-5.995515
-6.305376
-6.553809
-6.754866
-6.917774
-7.049280
-7.163918
-7.283974
-7.425114
-7.586108
-7.754185
-7.916005
-8.060019
-8.169864
-8.220724
-8.187766
-8.060012
-7.844089
-7.555186
-7.206780
-6.807334
-6.361795
-5.873357
-5.346320
-4.793552
-4.244842
-3.744043
-3.332271
-3.030526
-2.834554
-2.724065
-2.678957
-2.690017
-2.755882
-2.870231
-3.012530
-3.153639
-3.271792
-3.361019
-3.423480
-3.457255
-3.454406
-3.408506
-3.321920
-3.208530
-3.091308
-2.993677
-2.927351
-2.887930
-2.866214
-2.862314
-2.884889
-2.938722
-3.016778
-3.104363
-3.188903
-3.264901
-3.330431
-3.379836
-3.401071
-3.382902
-3.326653
-3.249442
-3.172915
-3.108653
-3.055450
-3.006383
-2.953427
-2.887238
-2.797680
-2.677069
-2.522837
-2.337528
-2.127525
-1.901897
-1.671211
-1.445330
-1.229631
-1.021551
-0.810969
-0.586030
-0.341963
-0.087249
0.158720
0.377241
0.562016
0.718359
0.849854
0.948975
1.005321
1.021955
1.017561
1.008164
0.988520
0.936604
0.838149
0.704435
0.564559
0.443370
0.349826
0.282744
0.239886
0.218868
0.214802
0.221992
0.236915
0.257814
0.282706
0.309799
0.338677
0.368970
0.399504
0.429505
0.457426
0.477940
0.483795
0.472943
0.449937
0.417180
0.370991
0.310308
0.242597
0.175856
0.108903
0.035564
-0.045722
-0.134186
-0.234592
-0.354930
-0.496942
-0.653354
-0.813847
-0.968628
-1.104481
-1.200380
-1.230279
-1.171616
-1.012640
-0.756372
-0.420468
-0.029296
0.397882
0.850919
1.322248
1.800872
2.275391
2.739330
3.189996
3.625184
4.044203
4.449332
4.842923
5.227389
5.612455
6.012930
6.432069
6.857604
7.280401
7.707255
8.147791
8.599048
9.055432
9.521283
9.998717
10.474730
10.932080
11.364140
11.767890
12.128910
12.428490
12.664080
12.853030
13.018300
13.175420
13.331340
13.490290
13.659160
13.849420
14.072610
14.331830
14.620120
14.928070
15.250690
15.585090
15.922630
16.245680
16.533880
16.773411
16.959620
17.091129
17.162140
17.161320
17.078150
16.908751
16.655001
16.318340
15.895150
15.379190
14.769520
14.075390
13.312700
12.495190
11.628250
10.711280
9.747506
8.753738
7.762406
6.812833
5.937481
5.153475
4.460974
3.845782
3.287915
2.774498
2.308340
1.905048
1.580897
1.341110
1.177147
1.075245
1.030734
1.056813
1.178986
1.417670
1.773323
2.227969
2.760730
3.361876
4.034450
4.785980
5.619204
6.527338
7.495175
8.505517
9.547239
10.617140
11.712430
12.823840
13.938160
15.043860
16.131880
17.194870
18.226351
19.207569
20.080059
20.734329
21.043390
20.922970
20.362329
19.393209
18.039190
16.308029
14.227860
11.881940
9.403924
6.926507
4.525754
2.216613
-0.012117
-2.173783
-4.280715
-6.336045
-8.312858
-10.149820
-11.775570
-13.133830
-14.193010
-14.948290
-15.421360
-15.655740
-15.707500
-15.633740
-15.482790
-15.289000
-15.069860
-14.825860
-14.546090
-14.216310
-13.825760
-13.376380
-12.893170
-12.422750
-12.011950
-11.680700
-11.413850
-11.176920
-10.937340
-10.674130
-10.373620
-10.022040
-9.607609
-9.129982
-8.601964
-8.037397
-7.437677
-6.792573
-6.095034
-5.354260
-4.595586
-3.850759
-3.148161
-2.508658
-1.947849
-1.480249
-1.120427
-0.881215
-0.771227
-0.793918
-0.949049
-1.233535
-1.639156
-2.149707
-2.739410
-3.372196
-4.004835
-4.594329
-5.105062
-5.511830
-5.797689
-5.951854
-5.972519
-5.869501
-5.659816
-5.357601
-4.966341
-4.480408
-3.895596
-3.220080
-2.477910
-1.705760
-0.949386
-0.263040
0.296196
0.687074
0.904219
0.979581
0.965238
0.913733
0.863923
0.834657
0.830274
0.853676
0.914686
1.025011
1.185972
1.384988
1.605192
1.836617
2.077798
2.327565
2.575403
2.799903
2.976680
3.088506
3.131597
3.115744
3.057960
2.974964
2.882543
2.801922
2.763972
2.802516
2.937894
3.164988
3.459545
3.796561
4.161924
4.550289
4.956260
5.367448
5.763899
6.123255
6.428020
6.670191
6.849299
6.966270
7.020028
7.009840
6.940202
6.823626
6.678859
6.525612
6.379440
6.248643
6.132592
6.022020
5.902269
5.758364
5.579852
5.364427
5.119469
4.859989
4.603435
4.364205
4.150914
3.968725
3.825206
3.733104
3.705475
3.746212
3.843839
3.974364
4.110638
4.229347
4.311819
4.343815
4.318385
4.238976
4.118454
3.973604
3.819024
3.665129
3.519830
3.388976
3.274024
3.171040
3.073995
2.979648
2.888982
2.804192
2.725446
2.650606
2.576209
2.496892
2.404123
2.287379
2.138094
1.952781
1.732844
1.483007
1.210522
0.923684
0.629178
0.331143
0.032685
-0.262639
-0.551302
-0.831529
-1.103572
-1.367273
-1.618628
-1.848549
-2.045487
-2.199451
-2.303472
-2.352532
-2.343293
-2.276865
-2.162485
-2.017175
-1.860156
-1.707135
-1.569198
-1.455195
-1.373925
-1.333165
-1.335359
-1.373931
-1.434671
-1.501455
-1.561410
-1.606408
-1.631809
-1.635340
-1.616217
-1.572891
-1.502346
-1.402967
-1.276103
-1.123562
-0.946334
-0.749254
-0.545961
-0.355301
-0.192696
-0.067055
0.016205
0.053372
0.043205
-0.014768
-0.123342
-0.285584
-0.499163
-0.754681
-1.039637
-1.342272
-1.650828
-1.951235
-2.226594
-2.457467
-2.624723
-2.716458
-2.734625
-2.696091
-2.626328
-2.547841
-2.471268
-2.397027
-2.324077
-2.255250
-2.194456
-2.139872
-2.080908
-2.003036
-1.896276
-1.759172
-1.595716
-1.409876
-1.203347
-0.977753
-0.736472
-0.481182
-0.208866
0.081209
0.377214
0.658001
0.910429
1.137148
1.340025
1.503506
1.607178
1.654626
1.679214
1.716610
1.777902
1.852062
1.926853
1.999446
2.069896
2.135367
2.194058
2.249089
2.305172
2.364607
2.429476
2.503607
2.587891
2.675143
2.751821
2.804329
2.823998
2.810087
2.771447
2.722989
2.677295
2.639234
2.607279
2.577367
2.544877
2.505109
2.454861
2.394755
2.328969
2.261158
2.190440
2.111690
2.019254
1.909897
1.782899
1.639046
1.480006
1.307152
1.120032
0.916169
0.692598
0.447953
0.183657
-0.096485
-0.388025
-0.687722
-0.994045
-1.305933
-1.620925
-1.933044
-2.230332
-2.494851
-2.707299
-2.853705
-2.930561
-2.946274
-2.918456
-2.869262
-2.820980
-2.790726
-2.785194
-2.800704
-2.828642
-2.860865
-2.892222
-2.921491
-2.951565
-2.987623
-3.034195
-3.094453
-3.171788
-3.270107
-3.391260
-3.532419
-3.686826
-3.846830
-4.005533
-4.156410
-4.294054
-4.417034
-4.529524
-4.639822
-4.757298
-4.888969
-5.036730
-5.196986
-5.362140
-5.521770
-5.663430
-5.774444
-5.844599
-5.869033
-5.850598
-5.799701
-5.730231
-5.654011
-5.577762
-5.503418
-5.430226
-5.357551
-5.287202
-5.223350
-5.169003
-5.122017
-5.075439
-5.021511
-4.954136
-4.868792
-4.762537
-4.634365
-4.484451
-4.313920
-4.128137
-3.940502
-3.770592
-3.637044
-3.552986
-3.527418
-3.564075
-3.655553
-3.785508
-3.941384
-4.121509
-4.327523
-4.554802
-4.795301
-5.044931
-5.301181
-5.556159
-5.797486
-6.015293
-6.204203
-6.358659
-6.470852
-6.535175
-6.553306
-6.534161
-6.489333
-6.428818
-6.360197
-6.290552
-6.227468
-6.175807
-6.133858
-6.096733
-6.065218
-6.048439
-6.055474
-6.087571
-6.143806
-6.231214
-6.358757
-6.515551
-6.661973
-6.754339
-6.781137
-6.765515
-6.726198
-6.650192
-6.518970
-6.350960
-6.195469
-6.079837
-5.980815
-5.856055
-5.688472
-5.492274
-5.287809
-5.083253
-4.876757
-4.663936
-4.442091
-4.213290
-3.985522
-3.770232
-3.577834
-3.413405
-3.274289
-3.152709
-3.044005
-2.950689
-2.873841
-2.804060
-2.727412
-2.638910
-2.545127
-2.453381
-2.363674
-2.272501
-2.178564
-2.081422
-1.977340
-1.860116
-1.726504
-1.578806
-1.421298
-1.255948
-1.083785
-0.909726
-0.743833
-0.596875
-0.475336
-0.380823
-0.311350
-0.260285
-0.215731
-0.165395
-0.103873
-0.033369
0.043466
0.129723
0.232084
0.353881
0.492660
0.643906
0.804482
0.971944
1.142546
1.311244
1.472331
1.618066
1.737825
1.823447
1.877872
1.914838
1.946200
1.970137
1.974260
1.949623
1.899478
1.837100
1.779454
1.741296
1.730296
1.745583
1.781495
1.831671
1.888219
1.940712
1.980512
2.005467
2.018343
2.021432
2.015336
2.002790
1.989695
1.979846
1.969024
1.945246
1.895735
1.814574
1.704498
1.571840
1.420155
1.249764
1.063525
0.870581
0.682545
0.507133
0.346897
0.202666
0.075151
-0.037528
-0.141856
-0.246184
-0.355007
-0.465951
-0.572070
-0.666886
-0.748125
-0.818137
-0.881479
