EVENT_NAME: EMILIA_2ND_SHOCK
EVENT_ID: IT-2012-0011
EVENT_DATE_YYYYMMDD: 20120529
EVENT_TIME_HHMMSS: 070002
EVENT_LATITUDE_DEGREE: 44.8417
EVENT_LONGITUDE_DEGREE: 11.0657
EVENT_DEPTH_KM: 8.1
HYPOCENTER_REFERENCE: INGV-CNT_Seismic_Bulletin
MAGNITUDE_W: 6.0
MAGNITUDE_W_REFERENCE: RCMT-INGV
MAGNITUDE_L: 5.8
MAGNITUDE_L_REFERENCE: INGV-CNT_Seismic_Bulletin
FOCAL_MECHANISM: TF
NETWORK: IV
STATION_CODE: T0818
STATION_NAME: T0818
STATION_LATITUDE_DEGREE: 44.934800
STATION_LONGITUDE_DEGREE: 11.030400
STATION_ELEVATION_M: 5
LOCATION: 
SENSOR_DEPTH_M: 1.0
VS30_M/S: 
SITE_CLASSIFICATION_EC8: C*
MORPHOLOGIC_CLASSIFICATION: 
EPICENTRAL_DISTANCE_KM: 10.7
EARTHQUAKE_BACKAZIMUTH_DEGREE: 164.9
DATE_TIME_FIRST_SAMPLE_YYYYMMDD_HHMMSS: 20120529_065952.000
DATE_TIME_FIRST_SAMPLE_PRECISION: milliseconds
SAMPLING_INTERVAL_S: 0.005000
NDATA: 20001
DURATION_S: 100.005
STREAM: HNE
UNITS: cm/s
INSTRUMENT: sensor = Episensor FBA ES-T [Kinemetrics] | digitizer = Unknown [Unknown]
INSTRUMENT_ANALOG/DIGITAL: D
INSTRUMENTAL_FREQUENCY_HZ: 
INSTRUMENTAL_DAMPING: 
FULL_SCALE_G: 
N_BIT_DIGITAL_CONVERTER: 
PGV_CM/S: 18.769044
TIME_PGV_S: 22.255000
BASELINE_CORRECTION: BASELINE REMOVED
FILTER_TYPE: BUTTERWORTH
FILTER_ORDER: 2
LOW_CUT_FREQUENCY_HZ: 0.060
HIGH_CUT_FREQUENCY_HZ: 40.000
LATE/NORMAL_TRIGGERED: NT
DATABASE_VERSION: DYNA 1.0
HEADER_FORMAT: DYNA 1.2
DATA_TYPE: VELOCITY
PROCESSING: manual (Paolucci et al., 2011)
DATA_TIMESTAMP_YYYYMMDD_HHMMSS: 
DATA_LICENSE: CC-BY4_0 (http://creativecommons.org/licenses/by/4.0/)
DATA_CITATION: ESM working group (2015), European Strong-Motion database, version 0.1, Network Activity 3: Networking acceleration networks and SM data users. Project NERA (www.nera-eu.org)
DATA_CREATOR: ESM working group
ORIGINAL_DATA_MEDIATOR_CITATION: Orfeus - European Integrated Data Archive (EIDA) http://www.orfeus-eu.org/eida/
ORIGINAL_DATA_MEDIATOR: Orfeus - European Integrated Data Archive (EIDA)
ORIGINAL_DATA_CREATOR_CITATION: Data for this study comes from the Italian national seismic network operated by Istituto Nazionale di Geofisica e Vulcanologia and archived at the European Integrated Data Archive http://eida.rm.ingv.it/
ORIGINAL_DATA_CREATOR: network: IV (Italian National Seismic Network); owner: Istituto Nazionale di Geofisica e Vulcanologia
USER1: 
USER2: 
USER3: 
USER4: 
USER5: 
[...]
0.170811
0.142899
0.114305
0.099529
0.102558
0.107191
0.090692
0.051632
0.022254
0.045871
0.135290
0.252378
0.333064
0.336938
0.274275
0.188370
0.118809
0.083517
0.083138
0.107892
0.140431
0.162876
0.168180
0.161729
0.148410
0.122740
0.078611
0.027935
0.000072
0.016599
0.069714
0.129979
0.172517
0.190627
0.189289
0.176790
0.165483
0.172059
0.205701
0.252839
0.279917
0.259191
0.194041
0.117069
0.062928
0.043574
0.047960
0.060176
0.075537
0.102600
0.151190
0.216352
0.273959
0.295332
0.267821
0.200482
0.114463
0.034814
-0.014133
-0.019911
0.004797
0.026893
0.021520
-0.002785
-0.012795
0.013444
0.061953
0.097393
0.102357
0.098427
0.123614
0.188484
0.259879
0.292239
0.270049
0.213696
0.150027
0.091198
0.044807
0.025925
0.043768
0.084446
0.120926
0.139047
0.142145
0.131618
0.098376
0.040092
-0.022973
-0.061432
-0.064152
-0.044833
-0.023589
-0.007982
0.007589
0.028187
0.045346
0.037284
-0.010711
-0.079402
-0.116734
-0.079842
0.022165
0.139127
0.233231
0.305797
0.371920
0.429402
0.465115
0.476727
0.467381
0.428871
0.354198
0.267279
0.216318
0.226033
0.272846
0.315812
0.337490
0.344145
0.340390
0.326359
0.316212
0.336651
0.396393
0.464804
0.493618
0.463729
0.404292
0.359380
0.339888
0.317979
0.270721
0.219165
0.212480
0.272342
0.361445
0.414525
0.399163
0.341950
0.297131
0.295174
0.322984
0.347906
0.354580
0.358588
0.388249
0.453798
0.531816
0.581546
0.580964
0.546960
0.519597
0.528442
0.572144
0.622798
0.644426
0.613501
0.532903
0.428591
0.331462
0.262718
0.230897
0.230310
0.236082
0.213871
0.151305
0.074335
0.018136
-0.015352
-0.054134
-0.106556
-0.135166
-0.096833
-0.001555
0.088129
0.121051
0.107483
0.099799
0.131614
0.184515
0.213397
0.194374
0.140922
0.081850
0.039467
0.027933
0.055166
0.114606
0.182190
0.235347
0.274616
0.315476
0.355928
0.363809
0.306467
0.189662
0.062791
-0.012825
-0.003467
0.077496
0.178899
0.242474
0.237129
0.176616
0.110524
0.093125
0.146182
0.241312
0.320553
0.340764
0.300034
0.221889
0.123912
0.011727
-0.104664
-0.205957
-0.278480
-0.319821
-0.320227
-0.252693
-0.103633
0.084710
0.225992
0.260687
0.207732
0.137703
0.099623
0.081810
0.043485
-0.025687
-0.087623
-0.097366
-0.055280
-0.014788
-0.036245
-0.126819
-0.225225
-0.252759
-0.182440
-0.054003
0.076848
0.185132
0.265131
0.299366
0.269416
0.194971
0.132064
0.117954
0.132638
0.124456
0.067473
-0.011819
-0.062229
-0.056670
-0.012102
0.034273
0.061374
0.073542
0.080982
0.085771
0.091493
0.112310
0.154499
0.191045
0.174838
0.087294
-0.032462
-0.113408
-0.105265
-0.006014
0.144700
0.281726
0.334638
0.266959
0.115573
-0.024678
-0.077272
-0.047078
-0.001048
0.006010
-0.028577
-0.078955
-0.125906
-0.157131
-0.150482
-0.083841
0.031757
0.144421
0.203381
0.208373
0.206856
0.239701
0.296719
0.329481
0.299658
0.207790
0.082322
-0.044204
-0.145127
-0.201838
-0.209353
-0.178401
-0.127166
-0.071349
-0.022566
0.010872
0.027308
0.031715
0.028836
0.019287
0.004753
-0.007405
-0.011576
-0.015212
-0.036075
-0.084663
-0.151799
-0.218129
-0.276151
-0.337741
-0.415203
-0.496602
-0.545642
-0.529946
-0.449735
-0.337416
-0.231381
-0.156253
-0.127417
-0.156255
-0.232692
-0.307864
-0.316660
-0.233474
-0.101540
0.002839
0.035990
0.014692
-0.016529
-0.034114
-0.046512
-0.066194
-0.085784
-0.084461
-0.046692
0.029855
0.136652
0.256119
0.362768
0.432045
0.456499
0.454768
0.459764
0.493121
0.550008
0.608671
0.651455
0.673421
0.675101
0.657404
0.628319
0.605539
0.600868
0.602579
0.582753
0.527500
0.454654
0.395929
0.364305
0.343278
0.307208
0.247321
0.176169
0.112168
0.067677
0.051919
0.074568
0.135576
0.212392
0.268362
0.279417
0.248520
0.192196
0.117770
0.017411
-0.118888
-0.286489
-0.457136
-0.584286
-0.624176
-0.563800
-0.434482
-0.293234
-0.183728
-0.110722
-0.047624
0.033730
0.137400
0.240732
0.315011
0.351324
0.367418
0.387991
0.418694
0.442503
0.442337
0.422224
0.403018
0.400954
0.413619
0.424145
0.414011
0.372268
0.298604
0.202448
0.098888
0.002246
-0.077988
-0.135690
-0.166674
-0.173735
-0.171465
-0.176908
-0.191986
-0.202377
-0.198173
-0.190614
-0.201532
-0.238291
-0.287422
-0.334201
-0.380421
-0.436819
-0.503654
-0.566319
-0.607534
-0.617056
-0.588625
-0.515426
-0.396587
-0.248098
-0.102686
0.006219
0.065377
0.088335
0.097898
0.099551
0.076360
0.014535
-0.071648
-0.148498
-0.194379
-0.213986
-0.219131
-0.207047
-0.169124
-0.115860
-0.076742
-0.067214
-0.065087
-0.033620
0.029824
0.079580
0.063194
-0.028706
-0.157430
-0.274955
-0.360976
-0.424482
-0.479549
-0.528313
-0.566746
-0.598387
-0.636813
-0.696589
-0.784701
-0.898008
-1.024279
-1.147349
-1.257320
-1.358696
-1.465177
-1.580556
-1.682853
-1.730493
-1.688861
-1.554640
-1.356001
-1.128654
-0.891742
-0.647366
-0.400031
-0.169624
0.018521
0.154456
0.250992
0.328934
0.396646
0.446052
0.467588
0.466621
0.464004
0.480864
0.524482
0.590017
0.672813
0.775145
0.901183
1.047631
1.201289
1.347417
1.479834
1.600298
1.707512
1.788108
1.819155
1.778688
1.653193
1.438746
1.140062
0.768734
0.339191
-0.135417
-0.643290
-1.171165
-1.704026
-2.230349
-2.747678
-3.257594
-3.746352
-4.164595
-4.432831
-4.485442
-4.321886
-4.010755
-3.638218
-3.252955
-2.855581
-2.430072
-1.978426
-1.530591
-1.134781
-0.841193
-0.682667
-0.656941
-0.723576
-0.825997
-0.929451
-1.044547
-1.211822
-1.459924
-1.779501
-2.138059
-2.513547
-2.907636
-3.331276
-3.786775
-4.266686
-4.765139
-5.287346
-5.848192
-6.453711
-7.072289
-7.626624
-8.033373
-8.265751
-8.373126
-8.432690
-8.484032
-8.508117
-8.457186
-8.294171
-8.008653
-7.612834
-7.134176
-6.609417
-6.073063
-5.539215
-4.990386
-4.388260
-3.702948
-2.938721
-2.135459
-1.346151
-0.609004
0.068922
0.709013
1.341093
1.978734
2.606113
3.184289
3.671168
4.042366
4.303879
4.489775
4.641044
4.777445
4.886449
4.940351
4.924255
4.847645
4.733864
4.604492
4.472699
4.343107
4.210543
4.059252
3.867823
3.618828
3.307457
2.943614
2.545635
2.129542
1.701948
1.262024
0.808200
0.340310
-0.145115
-0.661091
-1.231391
-1.883008
-2.632910
-3.479376
-4.408450
-5.404700
-6.428102
-7.356263
-7.975823
-8.093040
-7.683914
-6.912111
-5.985374
-5.011073
-3.981304
-2.859364
-1.658909
-0.459254
0.621283
1.471335
2.036945
2.342397
2.464820
2.488034
2.471315
2.441973
2.399378
2.321811
2.175689
1.927911
1.558018
1.063609
0.457105
-0.240027
-1.000925
-1.798917
-2.617163
-3.454294
-4.318289
-5.210930
-6.113995
-6.986053
-7.769162
-8.402774
-8.840527
-9.062395
-9.079536
-8.929941
-8.660361
-8.302461
-7.863052
-7.336645
-6.727231
-6.058893
-5.366269
-4.675950
-3.998160
-3.336083
-2.701487
-2.116932
-1.600323
-1.149999
-0.746207
-0.365467
0.005676
0.365463
0.700122
0.992854
1.232750
1.417237
1.548306
1.624045
1.626895
1.522401
1.287824
0.962670
0.668705
0.552531
0.686085
1.023223
1.457612
1.907717
2.333304
2.697668
2.950569
3.051526
2.995759
2.810970
2.532831
2.186097
1.785195
1.347088
0.900768
0.483966
0.128348
-0.155354
-0.379627
-0.568654
-0.741324
-0.898098
-1.018894
-1.074135
-1.041677
-0.918298
-0.720969
-0.481059
-0.234493
-0.007350
0.196279
0.391062
0.593574
0.808492
1.028075
1.237863
1.417257
1.537518
1.566385
1.479147
1.267753
0.939276
0.503312
-0.040626
-0.703276
-1.491548
-2.390781
-3.359153
-4.342299
-5.297440
-6.207762
-7.080245
-7.933870
-8.787621
-9.653822
-10.536810
-11.434030
-12.338550
-13.243570
-14.145610
-15.040850
-15.915190
-16.736509
-17.458450
-18.036289
-18.442120
-18.667030
-18.716169
-18.607189
-18.367479
-18.022980
-17.584761
-17.046270
-16.395960
-15.636020
-14.791740
-13.903150
-13.003610
-12.102730
-11.190290
-10.254980
-9.297364
-8.327970
-7.359478
-6.404426
-5.476088
-4.584456
-3.729601
-2.901952
-2.092118
-1.300720
-0.537525
0.188713
0.877694
1.535263
2.167315
2.778170
3.370836
3.940163
4.460612
4.885387
5.169595
5.299141
5.291775
5.171594
4.949633
4.627404
4.209935
3.710734
3.149443
2.550782
1.944885
1.365585
0.850184
0.441162
0.176827
0.067853
0.083375
0.166781
0.270684
0.382658
0.523360
0.723758
1.003809
1.366623
1.802565
2.291093
2.800629
3.297697
3.765275
4.213275
4.670044
5.162842
5.702509
6.279567
6.870177
7.448203
7.994450
8.491721
8.907392
9.185397
9.272140
9.160970
8.904281
8.576563
8.227803
7.868743
7.487307
7.070819
6.621400
6.165281
5.752189
5.437160
5.252930
5.196271
5.238725
5.350100
5.516800
5.744746
6.048914
6.439538
6.913819
7.455656
8.041647
8.650166
9.270082
9.903411
10.557590
11.233630
11.921280
12.602910
13.253440
13.829910
14.269580
14.514780
14.548570
14.407550
14.157360
13.850640
13.503540
13.108280
12.660200
12.168250
11.645650
11.100670
10.539490
9.971625
9.405854
8.838939
8.248494
7.599084
6.861794
6.035085
5.145185
4.222921
3.300861
2.455180
1.820982
1.513934
1.523066
1.705622
1.902482
2.046696
2.163131
2.294955
2.454446
2.628101
2.791274
2.914656
2.981250
3.005952
3.031836
3.103702
3.247429
3.470625
3.770109
4.131182
4.524006
4.911002
5.264226
5.575621
5.850217
6.089979
6.282338
6.401320
6.418756
6.317711
6.100613
5.786156
5.394955
4.935800
4.406317
3.805505
3.143196
2.437565
1.706801
0.966571
0.233932
-0.469595
-1.119359
-1.692954
-2.176894
-2.571322
-2.891985
-3.168055
-3.432938
-3.712336
-4.018636
-4.351069
-4.696938
-5.036985
-5.357775
-5.662924
-5.969901
-6.292795
-6.628449
-6.959675
-7.270654
-7.558422
-7.831068
-8.097448
-8.359100
-8.609348
-8.837021
-9.032005
-9.191716
-9.326060
-9.457888
-9.619375
-9.846020
-10.166810
-10.588030
-11.074810
-11.549530
-11.927070
-12.169610
-12.307990
-12.403360
-12.489380
-12.555600
-12.576510
-12.542310
-12.461810
-12.346340
-12.198430
-12.014110
-11.790670
-11.531000
-11.241710
-10.927760
-10.587840
-10.214240
-9.797866
-9.334422
-8.826575
-8.280453
-7.701151
-7.092733
-6.461545
-5.815635
-5.157287
-4.476445
-3.755223
-2.983060
-2.170327
-1.349092
-0.560737
0.160250
0.795698
1.344458
1.818659
2.237744
2.622061
2.988639
3.348777
3.705935
4.056292
4.394530
4.720175
5.036741
5.343986
5.631102
5.877375
6.060038
6.163332
6.183523
6.127432
6.004792
5.820638
5.575223
5.271282
4.921656
4.550675
4.186996
3.852752
3.557598
3.299715
3.070184
2.858349
2.657101
2.466582
2.294332
2.150682
2.041010
1.959390
1.887967
1.803300
1.687467
1.538050
1.370341
1.208966
1.072807
0.963002
0.863760
0.756450
0.635329
0.511150
0.399864
0.306574
0.218420
0.112462
-0.027676
-0.199461
-0.382360
-0.550456
-0.687464
-0.794637
-0.887344
-0.982953
-1.087584
-1.190553
-1.271258
-1.313221
-1.312358
-1.273027
-1.199290
-1.092620
-0.956593
-0.798959
-0.627511
-0.446652
-0.259040
-0.068851
0.117592
0.292910
0.448983
0.577637
0.673262
0.735153
0.767124
0.775642
0.768563
0.753867
0.738219
0.727582
0.730034
0.757103
0.819200
0.916414
1.033386
1.145413
1.232074
1.286749
1.313679
1.316473
1.292200
1.237968
1.159078
1.064888
0.956174
0.822405
0.656057
0.467971
0.283573
0.123496
-0.007500
-0.111754
-0.182327
-0.197912
-0.134708
0.017583
0.251141
0.547298
0.884630
1.240546
1.586256
1.880336
2.068518
2.096043
1.935769
1.615958
1.214181
0.809952
0.436511
0.077640
-0.293256
-0.674702
-1.031045
-1.311967
-1.473445
-1.492937
-1.380714
-1.179218
-0.948617
-0.750171
-0.633689
-0.628080
-0.736579
-0.937422
-1.190484
-1.452712
-1.698290
-1.928792
-2.162847
-2.413929
-2.676451
-2.930497
-3.156777
-3.346486
-3.499914
-3.619211
-3.703548
-3.749821
-3.756061
-3.723576
-3.655974
-3.555765
-3.422218
-3.253434
-3.050277
-2.817048
-2.558073
-2.275215
-1.970074
-1.647721
-1.317801
-0.993746
-0.691625
-0.426847
-0.207102
-0.025435
0.137845
0.300585
0.461695
0.598124
0.680608
0.694141
0.645344
0.554946
0.445653
0.332453
0.218989
0.102414
-0.017259
-0.132103
-0.229170
-0.295849
-0.321742
-0.299120
-0.225836
-0.107639
0.045478
0.225682
0.428287
0.648026
0.877394
1.108704
1.336175
1.555564
1.763252
1.954980
2.121278
2.241930
2.286630
2.225650
2.045089
1.753819
1.375489
0.935642
0.459159
-0.020404
-0.450973
-0.766485
-0.911110
-0.866094
-0.654805
-0.323359
0.083930
0.536564
1.014106
1.495876
1.951625
2.333864
2.580208
2.635536
2.484000
2.166227
1.764592
1.362302
1.005493
0.697216
0.420209
0.161279
-0.079684
-0.292610
-0.463137
-0.579552
-0.641728
-0.667195
-0.686134
-0.727239
-0.806853
-0.927569
-1.082238
-1.258074
-1.438764
-1.606151
-1.743935
-1.839647
-1.879347
-1.840975
-1.697931
-1.434405
-1.061721
-0.620542
-0.163000
0.270667
0.661152
1.006869
1.321401
1.630926
1.964598
2.340527
2.758350
3.204437
3.664242
4.131232
4.607088
5.096790
5.604821
6.134461
6.688082
7.266889
7.870732
8.498253
9.146661
9.811242
10.485080
11.159160
11.823590
12.469970
13.092700
13.687910
14.250560
14.772650
15.246080
15.669620
16.053089
16.414000
16.768579
17.123770
17.475491
17.813780
18.127430
18.401960
18.615860
18.744110
18.769039
18.690319
18.525181
18.297890
18.027290
17.722000
17.382389
17.004360
16.583740
16.121799
15.628130
15.116300
14.594330
14.058720
13.498330
12.904450
12.277350
11.625420
10.960230
10.291640
9.624771
8.960004
8.295877
7.632612
6.972989
6.319785
5.672679
5.028116
4.381928
3.731656
3.077215
2.420807
1.766559
1.119086
0.481476
-0.145040
-0.758707
-1.353957
-1.920517
-2.445646
-2.916495
-3.319834
-3.639370
-3.854573
-3.944114
-3.890689
-3.683753
-3.323752
-2.828898
-2.235164
-1.588743
-0.946418
-0.391649
-0.039433
0.015437
-0.218090
-0.612266
-1.009259
-1.325120
-1.569523
-1.790486
-2.024919
-2.291066
-2.597518
-2.943079
-3.314080
-3.693774
-4.077221
-4.476476
-4.912539
-5.400406
-5.934190
-6.479153
-6.978935
-7.379238
-7.655829
-7.827322
-7.940350
-8.036967
-8.132278
-8.219077
-8.284622
-8.317770
-8.307628
-8.245765
-8.132412
-7.976573
-7.787138
-7.564742
-7.303167
-6.998377
-6.656428
-6.294891
-5.938793
-5.612870
-5.332723
-5.099887
-4.902678
-4.720747
-4.531567
-4.316881
-4.066048
-3.775555
-3.445812
-3.076466
-2.663870
-2.203874
-1.697696
-1.156169
-0.599550
-0.052316
0.464423
0.938517
1.369193
1.766770
2.148720
2.532848
2.929917
3.337178
3.737210
4.108481
4.443963
4.760094
5.082123
5.418138
5.750994
6.058893
6.340942
6.617566
6.908128
7.213008
7.515691
7.796534
8.043099
8.253272
8.433731
8.593723
8.736603
8.855596
8.937001
8.966349
8.931349
8.822885
8.638103
8.383859
8.076296
7.735538
7.377778
7.009330
6.627326
6.226675
5.806560
5.370746
4.923083
4.463557
3.987610
3.487897
2.956983
2.391014
1.794157
1.181261
0.576067
0.005573
-0.507358
-0.950551
-1.324024
-1.635029
-1.891650
-2.100542
-2.268383
-2.403188
-2.513375
-2.605325
-2.681510
-2.739776
-2.772996
-2.769978
-2.719425
-2.614850
-2.455795
-2.245882
-1.991855
-1.702941
-1.386471
-1.042576
-0.669439
-0.280273
0.089464
0.404199
0.662948
0.904472
1.173056
1.483847
1.821437
2.163013
2.494867
2.807471
3.082222
3.289836
3.403547
3.413701
3.333617
3.194932
3.032786
2.868146
2.700992
2.519728
2.316577
2.094678
1.863371
1.629215
1.391202
1.142548
0.875731
0.586385
0.274158
-0.058122
-0.404612
-0.756411
-1.104631
-1.446099
-1.785485
-2.129569
-2.477125
-2.811397
-3.097720
-3.287553
-3.335012
-3.225676
-2.995657
-2.714072
-2.439650
-2.193789
-1.967788
-1.745589
-1.519710
-1.293810
-1.077842
-0.881027
-0.704915
-0.540193
-0.370131
-0.178590
0.042579
0.289469
0.545701
0.786169
0.983158
1.111717
1.154959
1.108905
0.982939
0.796338
0.574314
0.342307
0.118604
-0.088979
-0.280047
-0.456084
-0.617061
-0.761826
-0.890120
-1.003296
-1.103465
-1.192624
-1.272675
-1.346167
-1.417195
-1.491393
-1.574357
-1.668597
-1.769372
-1.861251
-1.918681
-1.911692
-1.815442
-1.621492
-1.346286
-1.031190
-0.733438
-0.510365
-0.398550
-0.398860
-0.483316
-0.619273
-0.788342
-0.987210
-1.216933
-1.473879
-1.747884
-2.024123
-2.284977
-2.511754
-2.686804
-2.797016
-2.838373
-2.818174
-2.753164
-2.665631
-2.578981
-2.513027
-2.480296
-2.484188
-2.518913
-2.572199
-2.630307
-2.681980
-2.719082
-2.735618
-2.727899
-2.696832
-2.650810
-2.605761
-2.580416
-2.589734
-2.640866
-2.732199
-2.854503
-2.994779
-3.141724
-3.289190
-3.435989
-3.583516
-3.733232
-3.885116
-4.036886
-4.183779
-4.319249
-4.436341
-4.528343
-4.587108
-4.600445
-4.552662
-4.429146
-4.221416
-3.928791
-3.556239
-3.112525
-2.612363
-2.079672
-1.545975
-1.041726
-0.582996
-0.163069
0.241010
0.652527
1.081953
1.515656
1.899145
2.131434
2.109412
1.807734
1.310748
0.753127
0.227569
-0.253117
-0.723228
-1.213256
-1.727073
-2.250797
-2.770829
-3.281992
-3.781178
-4.254854
-4.678068
-5.031557
-5.318213
-5.556851
-5.757585
-5.906734
-5.978274
-5.957422
-5.851814
-5.683205
-5.472261
-5.231854
-4.970414
-4.694362
-4.404447
-4.093146
-3.746795
-3.348876
-2.884904
-2.349405
-1.747450
-1.086928
-0.379394
0.332866
0.950859
1.347538
1.456962
1.341005
1.144515
0.978085
0.854848
0.731918
0.585658
0.435539
0.316003
0.248098
0.235948
0.272243
0.335627
0.387772
0.382315
0.282700
0.079808
-0.200034
-0.505703
-0.787531
-1.019872
-1.203543
-1.354009
-1.491831
-1.639639
-1.819391
-2.046335
-2.322439
-2.634859
-2.961755
-3.280254
-3.570137
-3.815140
-4.006396
-4.146147
-4.247931
-4.332571
-4.421210
-4.528517
-4.660340
-4.816167
-4.992593
-5.185483
-5.391636
-5.609766
-5.837869
-6.065230
-6.265189
-6.401686
-6.450513
-6.416502
-6.330953
-6.233646
-6.155462
-6.113464
-6.117809
-6.178488
-6.302783
-6.488097
-6.719275
-6.972417
-7.221353
-7.442206
-7.614508
-7.722978
-7.762330
-7.739508
-7.669053
-7.565133
-7.436435
-7.286439
-7.117008
-6.931175
-6.733291
-6.528283
-6.321724
-6.120786
-5.935021
-5.775894
-5.655236
-5.582634
-5.562189
-5.590666
-5.658041
-5.749714
-5.849838
-5.943803
-6.017691
-6.057579
-6.052396
-5.997906
-5.897234
-5.757349
-5.584990
-5.385159
-5.161557
-4.916274
-4.648948
-4.358351
-4.045863
-3.716708
-3.377035
-3.030163
-2.676909
-2.320467
-1.972322
-1.654699
-1.395814
-1.220393
-1.143279
-1.170811
-1.305407
-1.542282
-1.857369
-2.204130
-2.534100
-2.826013
-3.091957
-3.355006
-3.622979
-3.879174
-4.087990
-4.205406
-4.196265
-4.056770
-3.822363
-3.548334
-3.277599
-3.021330
-2.763754
-2.481541
-2.160785
-1.803060
-1.423811
-1.049871
-0.716610
-0.458396
-0.293365
-0.215739
-0.203088
-0.231327
-0.285272
-0.357220
-0.436193
-0.500194
-0.519482
-0.466515
-0.326200
-0.102383
0.183336
0.500190
0.819532
1.124671
1.415058
1.701068
1.992837
