EVENT_NAME: EMILIA_2ND_SHOCK
EVENT_ID: IT-2012-0011
EVENT_DATE_YYYYMMDD: 20120529
EVENT_TIME_HHMMSS: 070002
EVENT_LATITUDE_DEGREE: 44.8417
EVENT_LONGITUDE_DEGREE: 11.0657
EVENT_DEPTH_KM: 8.1
HYPOCENTER_REFERENCE: INGV-CNT_Seismic_Bulletin
MAGNITUDE_W: 6.0
MAGNITUDE_W_REFERENCE: RCMT-INGV
MAGNITUDE_L: 5.8
MAGNITUDE_L_REFERENCE: INGV-CNT_Seismic_Bulletin
FOCAL_MECHANISM: TF
NETWORK: IV
STATION_CODE: T0805
STATION_NAME: T0805
STATION_LATITUDE_DEGREE: 44.918700
STATION_LONGITUDE_DEGREE: 11.322600
STATION_ELEVATION_M: 5
LOCATION: 
SENSOR_DEPTH_M: 1.0
VS30_M/S: 
SITE_CLASSIFICATION_EC8: C*
MORPHOLOGIC_CLASSIFICATION: 
EPICENTRAL_DISTANCE_KM: 22.0
EARTHQUAKE_BACKAZIMUTH_DEGREE: 247.2
DATE_TIME_FIRST_SAMPLE_YYYYMMDD_HHMMSS: 20120529_065953.000
DATE_TIME_FIRST_SAMPLE_PRECISION: milliseconds
SAMPLING_INTERVAL_S: 0.005000
NDATA: 30001
DURATION_S: 150.005
STREAM: HNN
UNITS: cm/s
INSTRUMENT: sensor = Episensor FBA ES-T [Kinemetrics] | digitizer = Unknown [Unknown]
INSTRUMENT_ANALOG/DIGITAL: D
INSTRUMENTAL_FREQUENCY_HZ: 
INSTRUMENTAL_DAMPING: 
FULL_SCALE_G: 
N_BIT_DIGITAL_CONVERTER: 
PGV_CM/S: 8.195541
TIME_PGV_S: 23.455000
BASELINE_CORRECTION: BASELINE REMOVED
FILTER_TYPE: BUTTERWORTH
FILTER_ORDER: 2
LOW_CUT_FREQUENCY_HZ: 0.060
HIGH_CUT_FREQUENCY_HZ: 40.000
LATE/NORMAL_TRIGGERED: NT
DATABASE_VERSION: DYNA 1.0
HEADER_FORMAT: DYNA 1.2
DATA_TYPE: VELOCITY
PROCESSING: manual (Paolucci et al., 2011)
DATA_TIMESTAMP_YYYYMMDD_HHMMSS: 
DATA_LICENSE: CC-BY4_0 (http://creativecommons.org/licenses/by/4.0/)
DATA_CITATION: ESM working group (2015), European Strong-Motion database, version 0.1, Network Activity 3: Networking acceleration networks and SM data users. Project NERA (www.nera-eu.org)
DATA_CREATOR: ESM working group
ORIGINAL_DATA_MEDIATOR_CITATION: Orfeus - European Integrated Data Archive (EIDA) http://www.orfeus-eu.org/eida/
ORIGINAL_DATA_MEDIATOR: Orfeus - European Integrated Data Archive (EIDA)
ORIGINAL_DATA_CREATOR_CITATION: Data for this study comes from the Italian national seismic network operated by Istituto Nazionale di Geofisica e Vulcanologia and archived at the European Integrated Data Archive http://eida.rm.ingv.it/
ORIGINAL_DATA_CREATOR: network: IV (Italian National Seismic Network); owner: Istituto Nazionale di Geofisica e Vulcanologia
USER1: 
USER2: 
USER3: 
USER4: 
USER5: 
[...]
0.016534
0.025686
0.033358
0.037223
0.035848
0.029300
0.019863
0.010958
0.004506
0.000037
-0.003796
-0.007714
-0.011412
-0.013492
-0.011763
-0.004639
0.007324
0.021621
0.035052
0.044514
0.047839
0.044747
0.036581
0.025203
0.012351
-0.000785
-0.013936
-0.027399
-0.041128
-0.054300
-0.065348
-0.072058
-0.072433
-0.066417
-0.056344
-0.045430
-0.036329
-0.030415
-0.027016
-0.023577
-0.017683
-0.009040
0.000762
0.009728
0.016240
0.019282
0.018676
0.014988
0.009163
0.002294
-0.004674
-0.011289
-0.017710
-0.024763
-0.033729
-0.045295
-0.058414
-0.070705
-0.079909
-0.084659
-0.084799
-0.081835
-0.078200
-0.075453
-0.073540
-0.071286
-0.066861
-0.058701
-0.047162
-0.034872
-0.024929
-0.019081
-0.017342
-0.018111
-0.018678
-0.016935
-0.013106
-0.009330
-0.007915
-0.010411
-0.017273
-0.027440
-0.038841
-0.049715
-0.059174
-0.066988
-0.073404
-0.078834
-0.083288
-0.086223
-0.087090
-0.085937
-0.083498
-0.080991
-0.079899
-0.081322
-0.085243
-0.090552
-0.095536
-0.098302
-0.097599
-0.093722
-0.088206
-0.082694
-0.078281
-0.075089
-0.071819
-0.066590
-0.058878
-0.050231
-0.043377
-0.041356
-0.046460
-0.058500
-0.074421
-0.089999
-0.101385
-0.106037
-0.103910
-0.097519
-0.090110
-0.084051
-0.080538
-0.079691
-0.080879
-0.083647
-0.088457
-0.096131
-0.106419
-0.117492
-0.126790
-0.131895
-0.131266
-0.125273
-0.116225
-0.106532
-0.096990
-0.087042
-0.076121
-0.064326
-0.052416
-0.041746
-0.033744
-0.028898
-0.026631
-0.026676
-0.030347
-0.039543
-0.054138
-0.071083
-0.086028
-0.094995
-0.095729
-0.089571
-0.081580
-0.077432
-0.080382
-0.090614
-0.105426
-0.119929
-0.129383
-0.131544
-0.127093
-0.119297
-0.113167
-0.112681
-0.117955
-0.125822
-0.132512
-0.135178
-0.132801
-0.127121
-0.121423
-0.117549
-0.114812
-0.111501
-0.106358
-0.099092
-0.090645
-0.082991
-0.077804
-0.075139
-0.073697
-0.072071
-0.069476
-0.066280
-0.064569
-0.067188
-0.075464
-0.088328
-0.103086
-0.116048
-0.123643
-0.124508
-0.119974
-0.112152
-0.102149
-0.089760
-0.073732
-0.052317
-0.025156
0.004615
0.031223
0.049253
0.055289
0.049043
0.034875
0.019872
0.008917
0.002681
-0.001061
-0.006264
-0.016690
-0.032487
-0.049411
-0.062336
-0.068708
-0.068979
-0.065753
-0.062798
-0.062926
-0.065937
-0.069388
-0.071190
-0.070803
-0.068972
-0.067492
-0.068559
-0.073472
-0.082095
-0.092949
-0.103057
-0.108692
-0.107145
-0.097616
-0.081705
-0.064182
-0.051111
-0.045467
-0.045581
-0.047273
-0.045827
-0.037767
-0.023589
-0.008106
0.003355
0.008719
0.009481
0.009429
0.013341
0.024126
0.039752
0.054078
0.060363
0.053463
0.032305
0.002819
-0.024655
-0.042466
-0.048629
-0.045265
-0.037321
-0.030086
-0.024662
-0.017075
-0.003586
0.013890
0.028683
0.034062
0.025823
0.003866
-0.025776
-0.053163
-0.070333
-0.073806
-0.063729
-0.043534
-0.018564
0.006877
0.030845
0.053499
0.076877
0.103006
0.130215
0.152222
0.162054
0.156287
0.136394
0.109090
0.085107
0.073442
0.075445
0.085753
0.097319
0.104328
0.104004
0.098447
0.092907
0.091241
0.093980
0.099343
0.104138
0.105155
0.101602
0.095850
0.091861
0.093728
0.104377
0.123585
0.147682
0.172003
0.193157
0.209596
0.221735
0.231527
0.240822
0.249936
0.258164
0.265422
0.272865
0.282007
0.293786
0.308410
0.325535
0.344320
0.363115
0.378927
0.387986
0.387362
0.376005
0.356104
0.334750
0.320928
0.318371
0.323180
0.328048
0.326300
0.314171
0.293512
0.271667
0.255951
0.248249
0.245377
0.242504
0.235077
0.219833
0.195956
0.165480
0.133371
0.106980
0.093286
0.095845
0.113802
0.141642
0.170390
0.192974
0.209577
0.225811
0.246263
0.271406
0.298039
0.319817
0.330247
0.328478
0.320660
0.314287
0.312827
0.315939
0.322435
0.331843
0.344293
0.360084
0.379145
0.400355
0.421724
0.442267
0.463531
0.487040
0.508602
0.517150
0.502121
0.461531
0.402440
0.337389
0.281171
0.244719
0.228877
0.226770
0.231849
0.241627
0.256716
0.279765
0.314074
0.361229
0.420008
0.485961
0.550419
0.602418
0.633587
0.640318
0.623965
0.591929
0.555169
0.522054
0.496042
0.477839
0.467192
0.463602
0.466988
0.477679
0.494923
0.515242
0.533470
0.545852
0.551062
0.548424
0.536334
0.512909
0.478074
0.434528
0.387603
0.345190
0.314855
0.297947
0.288522
0.280324
0.273596
0.273862
0.286013
0.311080
0.344830
0.376176
0.391528
0.384672
0.359991
0.326817
0.294482
0.270246
0.257129
0.253646
0.256068
0.260048
0.261665
0.259010
0.252571
0.244043
0.235522
0.229335
0.227894
0.233786
0.250123
0.280662
0.328287
0.391944
0.465839
0.542014
0.612652
0.671677
0.717079
0.750856
0.774579
0.784958
0.774553
0.735620
0.662712
0.556447
0.428165
0.296092
0.174549
0.069475
-0.019190
-0.095628
-0.164993
-0.227795
-0.278543
-0.311428
-0.326113
-0.327250
-0.320495
-0.310400
-0.299973
-0.290417
-0.282046
-0.276116
-0.275077
-0.279577
-0.285119
-0.283929
-0.270670
-0.244913
-0.210115
-0.172865
-0.140220
-0.114469
-0.091626
-0.065254
-0.030014
0.016973
0.075002
0.139902
0.206117
0.268277
0.321625
0.362452
0.388168
0.397445
0.390874
0.370917
0.341182
0.305729
0.267491
0.226554
0.180723
0.127646
0.066328
-0.000609
-0.064255
-0.112137
-0.135502
-0.132623
-0.108770
-0.076940
-0.052945
-0.044519
-0.047717
-0.053156
-0.051852
-0.038715
-0.016873
0.002220
0.006648
-0.008107
-0.038571
-0.076094
-0.109238
-0.127826
-0.127105
-0.108567
-0.079397
-0.051124
-0.035236
-0.038743
-0.062719
-0.101675
-0.144657
-0.180482
-0.202489
-0.208263
-0.196970
-0.167682
-0.118696
-0.047466
0.047686
0.164331
0.294872
0.428009
0.549402
0.643517
0.697779
0.704518
0.662800
0.582053
0.479836
0.374385
0.280881
0.210137
0.166709
0.149987
0.157543
0.186566
0.231965
0.283345
0.325982
0.345135
0.328646
0.270793
0.177843
0.066611
-0.042390
-0.129350
-0.180500
-0.194114
-0.177828
-0.139818
-0.084672
-0.014824
0.067247
0.157062
0.245829
0.320624
0.370298
0.391737
0.388503
0.364842
0.322873
0.263806
0.189747
0.104321
0.012695
-0.078825
-0.164547
-0.241052
-0.306343
-0.357487
-0.390053
-0.401230
-0.393381
-0.372509
-0.343106
-0.305675
-0.256856
-0.189524
-0.096203
0.023988
0.163158
0.309033
0.448726
0.571313
0.671671
0.751294
0.815011
0.868182
0.913965
0.949035
0.962855
0.943450
0.883515
0.783097
0.651692
0.507267
0.368664
0.248645
0.153799
0.087348
0.050964
0.044991
0.067584
0.114764
0.181494
0.262585
0.354121
0.454637
0.563148
0.674832
0.779764
0.866886
0.928281
0.960687
0.966378
0.952342
0.925949
0.891142
0.848899
0.799808
0.745489
0.688685
0.632956
0.580912
0.530937
0.476608
0.410832
0.330061
0.235040
0.130140
0.022374
-0.080775
-0.172992
-0.249036
-0.304080
-0.333528
-0.334376
-0.307180
-0.255488
-0.183405
-0.094638
0.006169
0.111543
0.211702
0.297012
0.359371
0.393901
0.401367
0.387131
0.357440
0.317837
0.274065
0.232999
0.200859
0.179006
0.162897
0.145905
0.123066
0.092942
0.059515
0.031812
0.018862
0.024843
0.049410
0.090672
0.146538
0.213401
0.283916
0.347565
0.393521
0.412190
0.396895
0.346487
0.265646
0.163664
0.053386
-0.050648
-0.133836
-0.184469
-0.199179
-0.183812
-0.147064
-0.094623
-0.027412
0.059212
0.174282
0.324627
0.507782
0.712462
0.923603
1.125434
1.304266
1.451362
1.562972
1.639072
1.682140
1.695577
1.682716
1.646310
1.587728
1.507306
1.407531
1.296566
1.186394
1.086879
1.003149
0.936082
0.882444
0.837686
0.801673
0.780033
0.777929
0.793356
0.817533
0.839484
0.849096
0.841029
0.819205
0.794465
0.777155
0.773665
0.786568
0.814328
0.852235
0.894750
0.936456
0.971247
0.991239
0.987816
0.954614
0.889050
0.793906
0.680147
0.564392
0.461535
0.381631
0.330935
0.312438
0.326893
0.374763
0.456932
0.573085
0.719512
0.889594
1.076284
1.272914
1.471496
1.660669
1.827306
1.961248
2.056918
2.111522
2.123922
2.094262
2.023543
1.913941
1.771615
1.610338
1.448539
1.300763
1.174169
1.069702
0.982007
0.901240
0.817479
0.722953
0.613164
0.488657
0.354401
0.217231
0.083807
-0.042815
-0.166771
-0.296272
-0.435358
-0.580264
-0.720588
-0.839793
-0.919700
-0.949887
-0.930763
-0.869299
-0.776425
-0.665708
-0.550933
-0.444964
-0.358517
-0.298082
-0.265168
-0.256092
-0.262795
-0.275875
-0.287073
-0.290210
-0.282227
-0.263347
-0.236652
-0.208445
-0.186765
-0.177702
-0.184392
-0.209971
-0.260587
-0.344603
-0.469246
-0.638855
-0.853235
-1.104790
-1.379577
-1.661700
-1.935530
-2.186899
-2.404823
-2.583257
-2.723667
-2.834715
-2.926588
-3.005877
-3.074801
-3.131960
-3.173786
-3.198618
-3.210722
-3.218535
-3.228917
-3.244305
-3.261986
-3.272866
-3.264947
-3.231399
-3.173640
-3.098675
-3.017059
-2.939440
-2.870163
-2.805575
-2.739224
-2.666731
-2.587370
-2.504931
-2.426968
-2.360001
-2.304437
-2.254506
-2.200932
-2.133257
-2.044497
-1.936421
-1.818625
-1.703529
-1.603504
-1.528623
-1.484052
-1.469438
-1.479184
-1.503316
-1.530108
-1.548282
-1.549172
-1.530291
-1.495890
-1.453172
-1.409330
-1.370424
-1.340115
-1.319485
-1.308005
-1.303902
-1.304380
-1.306146
-1.305545
-1.298337
-1.279760
-1.246565
-1.200991
-1.151664
-1.109535
-1.083975
-1.080692
-1.099326
-1.133687
-1.176592
-1.223869
-1.273259
-1.320660
-1.358788
-1.379862
-1.378665
-1.353272
-1.304885
-1.237254
-1.155557
-1.066192
-0.977177
-0.898449
-0.841594
-0.817068
-0.830634
-0.882020
-0.964382
-1.065071
-1.169048
-1.261423
-1.328861
-1.361792
-1.354898
-1.306733
-1.221161
-1.108141
-0.983523
-0.867730
-0.780187
-0.733629
-0.733896
-0.782235
-0.876847
-1.012501
-1.178248
-1.357629
-1.531447
-1.679511
-1.783480
-1.830430
-1.814272
-1.736723
-1.607118
-1.441527
-1.263594
-1.099847
-0.968582
-0.876537
-0.825780
-0.819699
-0.863825
-0.964677
-1.128253
-1.354779
-1.631799
-1.935819
-2.240357
-2.520171
-2.754043
-2.928570
-3.039634
-3.093184
-3.103961
-3.089767
-3.066456
-3.044433
-3.023651
-2.993041
-2.936738
-2.839158
-2.687815
-2.477133
-2.209353
-1.893005
-1.543730
-1.183627
-0.837902
-0.532455
-0.288934
-0.118940
-0.025276
-0.007533
-0.065467
-0.200161
-0.414201
-0.709545
-1.083561
-1.527555
-2.027221
-2.561067
-3.100693
-3.613800
-4.066540
-4.430383
-4.691186
-4.851032
-4.926435
-4.944860
-4.935329
-4.920039
-4.912028
-4.913980
-4.919680
-4.920280
-4.909118
-4.882152
-4.837072
-4.772602
-4.688182
-4.584226
-4.462421
-4.325872
-4.178984
-4.026977
-3.875897
-3.732964
-3.606818
-3.507815
-3.448349
-3.443361
-3.508090
-3.652816
-3.880189
-4.182011
-4.533261
-4.896662
-5.236899
-5.526650
-5.745278
-5.878824
-5.920237
-5.869493
-5.733034
-5.523310
-5.260367
-4.969112
-4.671611
-4.384635
-4.123508
-3.905369
-3.746914
-3.658089
-3.640555
-3.691902
-3.808049
-3.981676
-4.198846
-4.437646
-4.669566
-4.860310
-4.976785
-5.001668
-4.937134
-4.794456
-4.586263
-4.325405
-4.025106
-3.699675
-3.366093
-3.045555
-2.759771
-2.522246
-2.335148
-2.191219
-2.073360
-1.958112
-1.824386
-1.657408
-1.449332
-1.201101
-0.919981
-0.613036
-0.284226
0.064053
0.428919
0.805672
1.186513
1.560135
1.912632
2.227985
2.490258
2.688354
2.817468
2.877437
2.872586
2.811127
2.703230
2.560373
2.396806
2.231806
2.087517
1.982592
1.930014
1.938693
2.013602
2.154737
2.355610
2.603024
2.877725
3.153169
3.398128
3.584099
3.687915
3.690489
3.577309
3.340891
2.984844
2.524591
1.984971
1.401014
0.815147
0.268703
-0.201551
-0.564365
-0.796941
-0.886752
-0.833313
-0.647733
-0.351014
0.024186
0.437217
0.850171
1.232749
1.564255
1.837881
2.058597
2.235851
2.379783
2.501646
2.615454
2.736795
2.878775
3.050741
3.259789
3.511334
3.807972
4.147236
4.520651
4.912998
5.299976
5.652118
5.945256
6.164190
6.298849
6.341418
6.285350
6.124630
5.853980
5.473620
4.996714
4.450503
3.872885
3.308849
2.800983
2.379361
2.059532
1.843313
1.721318
1.677957
1.693487
1.745834
1.814993
1.885019
1.945275
1.992755
2.029594
2.056535
2.069872
2.062552
2.025517
1.950698
1.836504
1.689562
1.521687
1.347405
1.179494
1.020816
0.862451
0.691243
0.496527
0.271984
0.016391
-0.267460
-0.577431
-0.915602
-1.284492
-1.678183
-2.079169
-2.462878
-2.801351
-3.068141
-3.247349
-3.335947
-3.338231
-3.262360
-3.118576
-2.916216
-2.662576
-2.363836
-2.026209
-1.657309
-1.267957
-0.872711
-0.487607
-0.127593
0.196382
0.482020
0.736150
0.968895
1.189040
1.403568
1.618404
1.838806
2.067910
2.303872
2.538589
2.757416
2.940659
3.071277
3.143470
3.163152
3.144101
3.104663
3.062437
3.029404
3.011341
3.008794
3.018802
3.039064
3.071538
3.121119
3.191302
3.282551
3.394285
3.526985
3.682552
3.863853
4.073189
4.306270
4.545263
4.764324
4.945125
5.082795
5.180787
5.246868
5.290078
5.316022
5.325880
5.320861
5.305904
5.286102
5.257958
5.206900
5.114429
4.964856
4.747464
4.457911
4.097434
3.668852
3.174188
2.617139
2.008317
1.367491
0.723323
0.115234
-0.410772
-0.813579
-1.061750
-1.134927
-1.028428
-0.751896
-0.322800
0.237437
0.904772
1.651910
2.449389
3.269758
4.088880
4.884932
5.637792
6.328172
6.936725
7.443561
7.830368
8.083635
8.195541
8.163910
7.991728
7.688174
7.272610
6.774854
6.231602
5.683687
5.169976
4.720595
4.354918
4.080577
3.894547
3.785568
3.733374
3.711408
3.694571
3.662746
3.601790
3.505926
3.376820
3.219990
3.042455
2.851034
2.651309
2.447876
2.245018
2.047622
1.863549
1.706301
1.592391
1.534193
1.537160
1.600771
1.717785
1.874767
2.054599
2.237928
2.404817
2.536543
2.618486
2.645317
2.621615
2.555721
2.454712
2.323123
2.162286
1.970668
1.746305
1.489465
1.204405
0.901296
0.596860
0.313489
0.079304
-0.076734
-0.135734
-0.092783
0.044842
0.255803
0.506934
0.761087
0.981567
1.137116
1.208268
1.188060
1.079935
0.894649
0.643777
0.334685
-0.028714
-0.442723
-0.902340
-1.401464
-1.932326
-2.482956
-3.033220
-3.553623
-4.009105
-4.362464
-4.580531
-4.645833
-4.559202
-4.331221
-3.976681
-3.512582
-2.955150
-2.319078
-1.619935
-0.877377
-0.115807
0.637010
1.350318
1.990568
2.521593
2.909204
3.131262
3.180832
3.063626
2.799257
2.417978
1.951194
1.427258
0.872075
0.309799
-0.237183
-0.749388
-1.209982
-1.603980
-1.918821
-2.146072
-2.284303
-2.339642
-2.323876
-2.253817
-2.147376
-2.015114
-1.857421
-1.668310
-1.438114
-1.156676
-0.819023
-0.427637
0.007568
0.466961
0.922432
1.342810
1.697092
1.959173
2.113766
2.156137
2.088333
1.916293
1.647909
1.293040
0.864539
0.379042
-0.143136
-0.680433
-1.211970
-1.717814
-2.179421
-2.579297
-2.900985
-3.130135
-3.256369
-3.276348
-3.194291
-3.019993
-2.768604
-2.458576
-2.106420
-1.724764
-1.324009
-0.914054
-0.506093
-0.114868
0.240886
0.542415
0.775455
0.931693
1.009484
1.012906
0.948168
0.821265
0.638086
0.405134
0.130003
-0.178335
-0.509042
-0.850366
-1.192275
-1.527113
-1.847759
-2.145771
-2.411160
-2.633199
-2.801172
-2.907065
-2.949148
-2.931638
-2.861775
-2.747883
-2.597557
-2.416091
-2.206563
-1.970568
-1.708997
-1.423705
-1.119526
-0.804727
-0.490489
-0.190448
0.080370
0.306293
0.472468
0.567989
0.586870
0.527722
0.394812
0.196769
-0.057324
-0.359566
-0.701966
-1.074648
-1.465725
-1.862546
-2.252300
-2.623030
-2.965095
-3.272083
-3.541917
-3.776683
-3.980761
-4.159693
-4.319024
-4.462147
-4.589740
-4.701145
-4.795150
-4.869416
-4.919247
-4.937387
-4.915969
-4.848710
-4.732496
-4.569416
-4.367069
-4.136732
-3.892642
-3.650410
-3.423371
-3.221449
-3.052315
-2.921607
-2.832010
-2.781602
-2.763417
-2.765759
-2.771206
-2.758904
-2.710699
-2.613361
-2.457424
-2.237527
-1.953965
-1.614955
-1.236501
-0.838129
-0.439802
-0.060425
0.284616
0.583786
0.828117
1.011355
1.131364
1.192335
1.204550
1.179576
1.125963
1.048748
0.950209
0.830832
0.691291
0.534525
0.366769
0.198262
0.042783
-0.086400
-0.180954
-0.238476
-0.262181
-0.259607
-0.238566
-0.203491
-0.155043
-0.090974
-0.007219
0.099203
0.226808
0.368590
0.512051
0.640565
0.739476
0.802550
0.831460
0.831409
0.808308
0.766501
0.706690
0.626251
0.520898
0.385961
0.218954
0.023013
-0.192219
-0.411254
-0.614296
-0.782810
-0.905173
-0.976574
-0.996129
-0.964990
-0.885965
-0.764335
-0.607624
-0.424038
-0.221470
-0.006197
0.218529
0.451346
0.689845
0.929366
1.164241
1.389071
1.599194
1.791134
1.962637
2.112745
2.242466
2.354846
2.454478
2.546901
2.637005
2.727348
2.818315
2.909277
2.999306
3.087301
3.171665
3.249714
3.316921
3.366696
3.391092
3.381362
3.329356
3.230314
3.083730
2.892559
2.663507
2.406299
2.131366
1.848847
1.568670
1.300629
1.053696
0.834349
0.646150
0.490017
0.363500
0.260908
0.174480
0.095133
0.013329
-0.080119
-0.192798
-0.328386
-0.486056
-0.661609
-0.847690
-1.035292
-1.217243
-1.389453
-1.549680
-1.696636
-1.829574
-1.947788
-2.050392
-2.136626
-2.206292
-2.259850
-2.298323
-2.323161
-2.335811
-2.337173
-2.327080
-2.303596
-2.262927
-2.200410
-2.111363
-1.991896
-1.840250
-1.657222
-1.445903
-1.212067
-0.963316
-0.706686
-0.447699
-0.190799
0.060362
0.302701
0.533462
0.749944
0.949150
1.127466
1.280943
1.406133
1.500517
1.563242
1.596471
1.605337
1.596796
1.578933
1.560282
1.549210
1.552747
1.574340
1.613398
1.667090
1.731539
1.802725
1.878037
1.956631
2.038006
2.120690
2.202389
2.280979
2.354992
2.423686
2.487118
2.545495
2.597857
2.641495
2.672241
2.684657
2.673396
2.636003
2.573850
2.491144
2.394625
2.292567
2.192408
2.099856
2.019290
1.953803
1.905089
1.873326
1.857430
1.855984
1.867843
1.891742
1.925418
1.965159
2.005534
2.038658
2.054830
2.044628
1.999660
1.912219
1.775279
1.583420
1.334647
1.030796
0.676597
0.279775
-0.149423
-0.599950
-1.060614
-1.519700
-1.964427
-2.381757
-2.760764
-3.093222
-3.372722
-3.594687
-3.757264
-3.862795
-3.917862
-3.931042
-3.911132
-3.865781
-3.799213
-3.711783
-3.601920
-3.467623
-3.307456
-3.121979
-2.914283
-2.689715
-2.456119
-2.222639
-1.996738
-1.783301
-1.586319
-1.410415
-1.260781
-1.142211
-1.058769
-1.013775
-1.009328
-1.045566
-1.119595
-1.225184
-1.353004
-1.490010
-1.620978
-1.732630
-1.815248
-1.862521
-1.872443
-1.847311
-1.792741
-1.716503
-1.625931
-1.525659
-1.418274
-1.306529
-1.194540
-1.087859
-0.993421
-0.918087
-0.865598
-0.835579
-0.824610
-0.826535
-0.833543
-0.838710
-0.837297
-0.827928
-0.814513
-0.804936
-0.806977
-0.826448
-0.867258
-0.931180
-1.017885
-1.125270
-1.249752
-1.386574
-1.529769
-1.673138
-1.812480
-1.946210
-2.073865
-2.194881
-2.308356
-2.413130
-2.507835
-2.591012
-2.661295
-2.717800
-2.760821
-2.792040
-2.814201
-2.831014
-2.846484
-2.863430
-2.883051
-2.905727
-2.931623
-2.960800
-2.993199
-3.028668
-3.067141
-3.108904
-3.154794
-3.206400
