EVENT_NAME: EMILIA_2ND_SHOCK
EVENT_ID: IT-2012-0011
EVENT_DATE_YYYYMMDD: 20120529
EVENT_TIME_HHMMSS: 070002
EVENT_LATITUDE_DEGREE: 44.8417
EVENT_LONGITUDE_DEGREE: 11.0657
EVENT_DEPTH_KM: 8.1
HYPOCENTER_REFERENCE: INGV-CNT_Seismic_Bulletin
MAGNITUDE_W: 6.0
MAGNITUDE_W_REFERENCE: RCMT-INGV
MAGNITUDE_L: 5.8
MAGNITUDE_L_REFERENCE: INGV-CNT_Seismic_Bulletin
FOCAL_MECHANISM: TF
NETWORK: IV
STATION_CODE: T0805
STATION_NAME: T0805
STATION_LATITUDE_DEGREE: 44.918700
STATION_LONGITUDE_DEGREE: 11.322600
STATION_ELEVATION_M: 5
LOCATION: 
SENSOR_DEPTH_M: 1.0
VS30_M/S: 
SITE_CLASSIFICATION_EC8: C*
MORPHOLOGIC_CLASSIFICATION: 
EPICENTRAL_DISTANCE_KM: 22.0
EARTHQUAKE_BACKAZIMUTH_DEGREE: 247.2
DATE_TIME_FIRST_SAMPLE_YYYYMMDD_HHMMSS: 20120529_065953.000
DATE_TIME_FIRST_SAMPLE_PRECISION: milliseconds
SAMPLING_INTERVAL_S: 0.005000
NDATA: 30001
DURATION_S: 150.005
STREAM: HNE
UNITS: cm
INSTRUMENT: sensor = Episensor FBA ES-T [Kinemetrics] | digitizer = Unknown [Unknown]
INSTRUMENT_ANALOG/DIGITAL: D
INSTRUMENTAL_FREQUENCY_HZ: 
INSTRUMENTAL_DAMPING: 
FULL_SCALE_G: 
N_BIT_DIGITAL_CONVERTER: 
PGD_CM: -3.501705
TIME_PGD_S: 26.225000
BASELINE_CORRECTION: BASELINE REMOVED
FILTER_TYPE: BUTTERWORTH
FILTER_ORDER: 2
LOW_CUT_FREQUENCY_HZ: 0.060
HIGH_CUT_FREQUENCY_HZ: 40.000
LATE/NORMAL_TRIGGERED: NT
DATABASE_VERSION: DYNA 1.0
HEADER_FORMAT: DYNA 1.2
DATA_TYPE: DISPLACEMENT
PROCESSING: manual (Paolucci et al., 2011)
DATA_TIMESTAMP_YYYYMMDD_HHMMSS: 
DATA_LICENSE: CC-BY4_0 (http://creativecommons.org/licenses/by/4.0/)
DATA_CITATION: ESM working group (2015), European Strong-Motion database, version 0.1, Network Activity 3: Networking acceleration networks and SM data users. Project NERA (www.nera-eu.org)
DATA_CREATOR: ESM working group
ORIGINAL_DATA_MEDIATOR_CITATION: Orfeus - European Integrated Data Archive (EIDA) http://www.orfeus-eu.org/eida/
ORIGINAL_DATA_MEDIATOR: Orfeus - European Integrated Data Archive (EIDA)
ORIGINAL_DATA_CREATOR_CITATION: Data for this study comes from the Italian national seismic network operated by Istituto Nazionale di Geofisica e Vulcanologia and archived at the European Integrated Data Archive http://eida.rm.ingv.it/
ORIGINAL_DATA_CREATOR: network: IV (Italian National Seismic Network); owner: Istituto Nazionale di Geofisica e Vulcanologia
USER1: 
USER2: 
USER3: 
USER4: 
USER5: 
[...]
1.491624e+00
1.496302e+00
1.502146e+00
1.509308e+00
1.517758e+00
1.527300e+00
1.537609e+00
1.548293e+00
1.558960e+00
1.569248e+00
1.578827e+00
1.587407e+00
1.594757e+00
1.600724e+00
1.605229e+00
1.608248e+00
1.609785e+00
1.609865e+00
1.608541e+00
1.605905e+00
1.602112e+00
1.597395e+00
1.592053e+00
1.586425e+00
1.580871e+00
1.575740e+00
1.571343e+00
1.567927e+00
1.565667e+00
1.564660e+00
1.564953e+00
1.566558e+00
1.569465e+00
1.573649e+00
1.579054e+00
1.585581e+00
1.593076e+00
1.601354e+00
1.610237e+00
1.619580e+00
1.629301e+00
1.639396e+00
1.649914e+00
1.660922e+00
1.672497e+00
1.684728e+00
1.697718e+00
1.711586e+00
1.726452e+00
1.742427e+00
1.759606e+00
1.778046e+00
1.797766e+00
1.818736e+00
1.840861e+00
1.863952e+00
1.887722e+00
1.911815e+00
1.935865e+00
1.959544e+00
1.982618e+00
2.004986e+00
2.026674e+00
2.047802e+00
2.068539e+00
2.089029e+00
2.109345e+00
2.129490e+00
2.149432e+00
2.169144e+00
2.188662e+00
2.208112e+00
2.227689e+00
2.247599e+00
2.268021e+00
2.289043e+00
2.310631e+00
2.332635e+00
2.354813e+00
2.376898e+00
2.398697e+00
2.420173e+00
2.441456e+00
2.462812e+00
2.484577e+00
2.507033e+00
2.530312e+00
2.554362e+00
2.578959e+00
2.603748e+00
2.628305e+00
2.652200e+00
2.675032e+00
2.696443e+00
2.716126e+00
2.733817e+00
2.749292e+00
2.762351e+00
2.772813e+00
2.780523e+00
2.785396e+00
2.787463e+00
2.786887e+00
2.783971e+00
2.779123e+00
2.772777e+00
2.765322e+00
2.757076e+00
2.748281e+00
2.739103e+00
2.729630e+00
2.719874e+00
2.709785e+00
2.699263e+00
2.688179e+00
2.676401e+00
2.663808e+00
2.650281e+00
2.635677e+00
2.619831e+00
2.602569e+00
2.583725e+00
2.563150e+00
2.540712e+00
2.516324e+00
2.489983e+00
2.461811e+00
2.432069e+00
2.401147e+00
2.369542e+00
2.337809e+00
2.306518e+00
2.276216e+00
2.247398e+00
2.220466e+00
2.195646e+00
2.172936e+00
2.152134e+00
2.132890e+00
2.114764e+00
2.097277e+00
2.079963e+00
2.062405e+00
2.044261e+00
2.025289e+00
2.005406e+00
1.984710e+00
1.963452e+00
1.941974e+00
1.920670e+00
1.899945e+00
1.880163e+00
1.861607e+00
1.844438e+00
1.828684e+00
1.814256e+00
1.800981e+00
1.788653e+00
1.777075e+00
1.766077e+00
1.755498e+00
1.745169e+00
1.734921e+00
1.724594e+00
1.714047e+00
1.703188e+00
1.691988e+00
1.680514e+00
1.668941e+00
1.657554e+00
1.646710e+00
1.636804e+00
1.628219e+00
1.621293e+00
1.616301e+00
1.613437e+00
1.612820e+00
1.614485e+00
1.618389e+00
1.624409e+00
1.632329e+00
1.641841e+00
1.652576e+00
1.664143e+00
1.676183e+00
1.688452e+00
1.700869e+00
1.713488e+00
1.726438e+00
1.739884e+00
1.754016e+00
1.769038e+00
1.785164e+00
1.802618e+00
1.821644e+00
1.842510e+00
1.865510e+00
1.890919e+00
1.918947e+00
1.949645e+00
1.982777e+00
2.017760e+00
2.053757e+00
2.089853e+00
2.125172e+00
2.158994e+00
2.190835e+00
2.220443e+00
2.247757e+00
2.272859e+00
2.295895e+00
2.316996e+00
2.336223e+00
2.353527e+00
2.368765e+00
2.381766e+00
2.392388e+00
2.400540e+00
2.406177e+00
2.409305e+00
2.409993e+00
2.408369e+00
2.404598e+00
2.398836e+00
2.391214e+00
2.381824e+00
2.370724e+00
2.357966e+00
2.343624e+00
2.327811e+00
2.310679e+00
2.292425e+00
2.273302e+00
2.253633e+00
2.233794e+00
2.214160e+00
2.195037e+00
2.176603e+00
2.158858e+00
2.141630e+00
2.124621e+00
2.107468e+00
2.089790e+00
2.071220e+00
2.051420e+00
2.030068e+00
2.006854e+00
1.981480e+00
1.953659e+00
1.923137e+00
1.889717e+00
1.853308e+00
1.813978e+00
1.771999e+00
1.727852e+00
1.682175e+00
1.635704e+00
1.589201e+00
1.543392e+00
1.498927e+00
1.456338e+00
1.415989e+00
1.378045e+00
1.342436e+00
1.308889e+00
1.277002e+00
1.246325e+00
1.216420e+00
1.186890e+00
1.157394e+00
1.127652e+00
1.097454e+00
1.066672e+00
1.035269e+00
1.003295e+00
9.708540e-01
9.380797e-01
9.051314e-01
8.721989e-01
8.395067e-01
8.073149e-01
7.759120e-01
7.455956e-01
7.166506e-01
6.893408e-01
6.639112e-01
6.405947e-01
6.196236e-01
6.012397e-01
5.856965e-01
5.732509e-01
5.641528e-01
5.586354e-01
5.569051e-01
5.591290e-01
5.654180e-01
5.758169e-01
5.903181e-01
6.088820e-01
6.314390e-01
6.578687e-01
6.879610e-01
7.213608e-01
7.575148e-01
7.956687e-01
8.349152e-01
8.742546e-01
9.126564e-01
9.491125e-01
9.826795e-01
1.012526e+00
1.037973e+00
1.058497e+00
1.073719e+00
1.083383e+00
1.087333e+00
1.085522e+00
1.078083e+00
1.065415e+00
1.048202e+00
1.027346e+00
1.003886e+00
9.789149e-01
9.535178e-01
9.287702e-01
9.057859e-01
8.857192e-01
8.696626e-01
8.585124e-01
8.529025e-01
8.531995e-01
8.595342e-01
8.718886e-01
8.901882e-01
9.143281e-01
9.441453e-01
9.793951e-01
1.019764e+00
1.064893e+00
1.114401e+00
1.167890e+00
1.224948e+00
1.285121e+00
1.347883e+00
1.412607e+00
1.478545e+00
1.544822e+00
1.610480e+00
1.674535e+00
1.736018e+00
1.794012e+00
1.847693e+00
1.896363e+00
1.939477e+00
1.976669e+00
2.007783e+00
2.032869e+00
2.052139e+00
2.065894e+00
2.074488e+00
2.078296e+00
2.077712e+00
2.073142e+00
2.065017e+00
2.053782e+00
2.039862e+00
2.023620e+00
2.005328e+00
1.985139e+00
1.963095e+00
1.939165e+00
1.913282e+00
1.885384e+00
1.855436e+00
1.823441e+00
1.789429e+00
1.753447e+00
1.715546e+00
1.675784e+00
1.634211e+00
1.590865e+00
1.545774e+00
1.498975e+00
1.450544e+00
1.400620e+00
1.349429e+00
1.297287e+00
1.244581e+00
1.191731e+00
1.139177e+00
1.087373e+00
1.036773e+00
9.877946e-01
9.407720e-01
8.959346e-01
8.534041e-01
8.132142e-01
7.753684e-01
7.399046e-01
7.069194e-01
6.765591e-01
6.490002e-01
6.244248e-01
6.029967e-01
5.848497e-01
5.700804e-01
5.587401e-01
5.508244e-01
5.462620e-01
5.449021e-01
5.465010e-01
5.507245e-01
5.571840e-01
5.654826e-01
5.752433e-01
5.861253e-01
5.978292e-01
6.100817e-01
6.226146e-01
6.351596e-01
6.474592e-01
6.592861e-01
6.704664e-01
6.809035e-01
6.905928e-01
6.996271e-01
7.081859e-01
7.164923e-01
7.247611e-01
7.331660e-01
7.418178e-01
7.507582e-01
7.599841e-01
7.694821e-01
7.792482e-01
7.892989e-01
7.996724e-01
8.104158e-01
8.215666e-01
8.331412e-01
8.451250e-01
8.574688e-01
8.700937e-01
8.828991e-01
8.957618e-01
9.085275e-01
9.210066e-01
9.329860e-01
9.442471e-01
9.545879e-01
9.638522e-01
9.719451e-01
9.788131e-01
9.844119e-01
9.886849e-01
9.915518e-01
9.929116e-01
9.926700e-01
9.907789e-01
9.872763e-01
9.823363e-01
9.762930e-01
9.696005e-01
9.627659e-01
9.562778e-01
9.505168e-01
9.456956e-01
9.418785e-01
9.390345e-01
9.370765e-01
9.358921e-01
9.353636e-01
9.353723e-01
9.357943e-01
9.365035e-01
9.373843e-01
9.383410e-01
9.392963e-01
9.401835e-01
9.409424e-01
9.415162e-01
9.418494e-01
9.418877e-01
9.415776e-01
9.408660e-01
9.396997e-01
9.380253e-01
9.357936e-01
9.329638e-01
9.295024e-01
9.253753e-01
9.205393e-01
9.149338e-01
9.084736e-01
9.010461e-01
8.925105e-01
8.827064e-01
8.714754e-01
8.586886e-01
8.442707e-01
8.282273e-01
8.106561e-01
7.917197e-01
7.716058e-01
7.504941e-01
7.285243e-01
7.057760e-01
6.822781e-01
6.580311e-01
6.330300e-01
6.072941e-01
5.808857e-01
5.539053e-01
5.264742e-01
4.987165e-01
4.707379e-01
4.426134e-01
4.143981e-01
3.861476e-01
3.579379e-01
3.298898e-01
3.021854e-01
2.750663e-01
2.488229e-01
2.237794e-01
2.002701e-01
1.786109e-01
1.590686e-01
1.418322e-01
1.269965e-01
1.145542e-01
1.044031e-01
9.638480e-02
9.033085e-02
8.608530e-02
8.350932e-02
8.247658e-02
8.285714e-02
8.449873e-02
8.721894e-02
9.080684e-02
9.502900e-02
9.964059e-02
1.043977e-01
1.090682e-01
1.134438e-01
1.173487e-01
1.206350e-01
1.231735e-01
1.248442e-01
1.255242e-01
1.250858e-01
1.234092e-01
1.204046e-01
1.160325e-01
1.103285e-01
1.034149e-01
9.548127e-02
8.675478e-02
7.748148e-02
6.791386e-02
5.830295e-02
4.889753e-02
3.994617e-02
3.169389e-02
2.437032e-02
1.817431e-02
1.325816e-02
9.713480e-03
7.564880e-03
6.769965e-03
7.225898e-03
8.788081e-03
1.128917e-02
1.454043e-02
1.831730e-02
2.234971e-02
2.633037e-02
2.993179e-02
3.283062e-02
3.474663e-02
3.547809e-02
3.491751e-02
3.305620e-02
2.997885e-02
2.584719e-02
2.087863e-02
1.531861e-02
9.415401e-03
3.408527e-03
-2.474579e-03
-8.021300e-03
-1.303668e-02
-1.734662e-02
-2.080245e-02
-2.328812e-02
-2.472483e-02
-2.506764e-02
-2.429977e-02
-2.243358e-02
-1.952048e-02
-1.566513e-02
-1.104129e-02
-5.906212e-03
-6.023828e-04
4.454455e-03
8.794846e-03
1.192458e-02
1.335501e-02
1.263131e-02
9.368869e-03
3.282426e-03
-5.810515e-03
-1.799664e-02
-3.326645e-02
-5.150214e-02
-7.246099e-02
-9.576143e-02
-1.208735e-01
-1.471356e-01
-1.738060e-01
-2.001220e-01
-2.253538e-01
-2.488520e-01
-2.700931e-01
-2.887381e-01
-3.046693e-01
-3.179614e-01
-3.288259e-01
-3.375477e-01
-3.443995e-01
-3.495794e-01
-3.532089e-01
-3.553584e-01
-3.560706e-01
-3.553817e-01
-3.533434e-01
-3.500474e-01
-3.456463e-01
-3.403637e-01
-3.344955e-01
-3.284010e-01
-3.224773e-01
-3.171301e-01
-3.127548e-01
-3.097202e-01
-3.083559e-01
-3.089458e-01
-3.117233e-01
-3.168569e-01
-3.244193e-01
-3.343593e-01
-3.464949e-01
-3.605178e-01
-3.760144e-01
-3.925079e-01
-4.094971e-01
-4.264759e-01
-4.429423e-01
-4.584045e-01
-4.723952e-01
-4.844926e-01
-4.943467e-01
-5.017066e-01
-5.064454e-01
-5.085894e-01
-5.083342e-01
-5.060256e-01
-5.021269e-01
-4.971902e-01
-4.918197e-01
-4.866381e-01
-4.822604e-01
-4.792750e-01
-4.782220e-01
-4.795595e-01
-4.836295e-01
-4.906422e-01
-5.006677e-01
-5.136367e-01
-5.293499e-01
-5.475024e-01
-5.677302e-01
-5.896618e-01
-6.129480e-01
-6.372806e-01
-6.624026e-01
-6.881015e-01
-7.141955e-01
-7.405245e-01
-7.669439e-01
-7.933207e-01
-8.195339e-01
-8.454773e-01
-8.710655e-01
-8.962428e-01
-9.209867e-01
-9.452975e-01
-9.691837e-01
-9.926503e-01
-1.015687e+00
-1.038259e+00
-1.060305e+00
-1.081739e+00
-1.102464e+00
-1.122400e+00
-1.141515e+00
-1.159841e+00
-1.177484e+00
-1.194614e+00
-1.211441e+00
-1.228183e+00
-1.245030e+00
-1.262109e+00
-1.279458e+00
-1.297005e+00
-1.314562e+00
-1.331858e+00
-1.348586e+00
-1.364429e+00
-1.379075e+00
-1.392225e+00
-1.403595e+00
-1.412919e+00
-1.419951e+00
-1.424488e+00
-1.426383e+00
-1.425558e+00
-1.422000e+00
-1.415787e+00
-1.407116e+00
-1.396321e+00
-1.383858e+00
-1.370259e+00
-1.356103e+00
-1.341980e+00
-1.328455e+00
-1.316063e+00
-1.305307e+00
-1.296647e+00
-1.290473e+00
-1.287073e+00
-1.286612e+00
-1.289116e+00
-1.294478e+00
-1.302476e+00
-1.312810e+00
-1.325144e+00
-1.339149e+00
-1.354517e+00
-1.370956e+00
-1.388190e+00
-1.405955e+00
-1.424018e+00
-1.442185e+00
-1.460330e+00
-1.478417e+00
-1.496494e+00
-1.514678e+00
-1.533137e+00
-1.552055e+00
-1.571604e+00
-1.591922e+00
-1.613099e+00
-1.635166e+00
-1.658093e+00
-1.681777e+00
-1.706051e+00
-1.730687e+00
-1.755404e+00
-1.779887e+00
-1.803792e+00
-1.826773e+00
-1.848496e+00
-1.868659e+00
-1.887025e+00
-1.903451e+00
-1.917897e+00
-1.930431e+00
-1.941211e+00
-1.950465e+00
-1.958458e+00
-1.965466e+00
-1.971755e+00
-1.977573e+00
-1.983135e+00
-1.988622e+00
-1.994164e+00
-1.999834e+00
-2.005643e+00
-2.011542e+00
-2.017438e+00
-2.023211e+00
-2.028744e+00
-2.033941e+00
-2.038754e+00
-2.043207e+00
-2.047395e+00
-2.051490e+00
-2.055725e+00
-2.060390e+00
-2.065807e+00
-2.072317e+00
-2.080254e+00
-2.089925e+00
-2.101591e+00
-2.115441e+00
-2.131589e+00
-2.150068e+00
-2.170830e+00
-2.193751e+00
-2.218638e+00
-2.245251e+00
-2.273331e+00
-2.302604e+00
-2.332786e+00
-2.363587e+00
-2.394708e+00
-2.425853e+00
-2.456734e+00
-2.487084e+00
-2.516664e+00
-2.545266e+00
-2.572699e+00
-2.598794e+00
-2.623403e+00
-2.646401e+00
-2.667673e+00
-2.687110e+00
-2.704600e+00
-2.720027e+00
-2.733271e+00
-2.744216e+00
-2.752754e+00
-2.758795e+00
-2.762296e+00
-2.763283e+00
-2.761866e+00
-2.758252e+00
-2.752732e+00
-2.745663e+00
-2.737433e+00
-2.728427e+00
-2.719000e+00
-2.709461e+00
-2.700061e+00
-2.690982e+00
-2.682338e+00
-2.674172e+00
-2.666470e+00
-2.659167e+00
-2.652172e+00
-2.645394e+00
-2.638771e+00
-2.632286e+00
-2.625985e+00
-2.619975e+00
-2.614424e+00
-2.609536e+00
-2.605541e+00
-2.602677e+00
-2.601173e+00
-2.601237e+00
-2.603054e+00
-2.606780e+00
-2.612545e+00
-2.620453e+00
-2.630575e+00
-2.642946e+00
-2.657551e+00
-2.674292e+00
-2.692970e+00
-2.713282e+00
-2.734830e+00
-2.757141e+00
-2.779702e+00
-2.801989e+00
-2.823501e+00
-2.843794e+00
-2.862499e+00
-2.879368e+00
-2.894295e+00
-2.907317e+00
-2.918594e+00
-2.928388e+00
-2.937024e+00
-2.944852e+00
-2.952226e+00
-2.959482e+00
-2.966936e+00
-2.974879e+00
-2.983570e+00
-2.993239e+00
-3.004087e+00
-3.016282e+00
-3.029950e+00
-3.045162e+00
-3.061924e+00
-3.080170e+00
-3.099762e+00
-3.120508e+00
-3.142178e+00
-3.164535e+00
-3.187347e+00
-3.210399e+00
-3.233490e+00
-3.256424e+00
-3.279014e+00
-3.301081e+00
-3.322454e+00
-3.342983e+00
-3.362536e+00
-3.381006e+00
-3.398310e+00
-3.414388e+00
-3.429199e+00
-3.442717e+00
-3.454920e+00
-3.465789e+00
-3.475297e+00
-3.483410e+00
-3.490087e+00
-3.495287e+00
-3.498972e+00
-3.501115e+00
-3.501705e+00
-3.500752e+00
-3.498288e+00
-3.494365e+00
-3.489060e+00
-3.482479e+00
-3.474765e+00
-3.466087e+00
-3.456631e+00
-3.446592e+00
-3.436152e+00
-3.425472e+00
-3.414683e+00
-3.403876e+00
-3.393111e+00
-3.382410e+00
-3.371763e+00
-3.361141e+00
-3.350507e+00
-3.339822e+00
-3.329058e+00
-3.318201e+00
-3.307257e+00
-3.296251e+00
-3.285229e+00
-3.274249e+00
-3.263376e+00
-3.252670e+00
-3.242176e+00
-3.231917e+00
-3.221899e+00
-3.212113e+00
-3.202542e+00
-3.193176e+00
-3.184009e+00
-3.175048e+00
-3.166309e+00
-3.157812e+00
-3.149578e+00
-3.141626e+00
-3.133968e+00
-3.126610e+00
-3.119552e+00
-3.112789e+00
-3.106318e+00
-3.100130e+00
-3.094215e+00
-3.088554e+00
-3.083116e+00
-3.077855e+00
-3.072708e+00
-3.067591e+00
-3.062413e+00
-3.057086e+00
-3.051535e+00
-3.045711e+00
-3.039596e+00
-3.033197e+00
-3.026535e+00
-3.019637e+00
-3.012529e+00
-3.005234e+00
-2.997768e+00
-2.990143e+00
-2.982365e+00
-2.974441e+00
-2.966375e+00
-2.958178e+00
-2.949864e+00
-2.941454e+00
-2.932980e+00
-2.924480e+00
-2.916001e+00
-2.907592e+00
-2.899306e+00
-2.891191e+00
-2.883288e+00
-2.875635e+00
-2.868267e+00
-2.861226e+00
-2.854555e+00
-2.848304e+00
-2.842514e+00
-2.837214e+00
-2.832408e+00
-2.828058e+00
-2.824076e+00
-2.820332e+00
-2.816660e+00
-2.812873e+00
-2.808772e+00
-2.804155e+00
-2.798827e+00
-2.792599e+00
-2.785294e+00
-2.776751e+00
-2.766828e+00
-2.755405e+00
-2.742380e+00
-2.727674e+00
-2.711235e+00
-2.693034e+00
-2.673076e+00
-2.651388e+00
-2.628023e+00
-2.603056e+00
-2.576573e+00
-2.548663e+00
-2.519408e+00
-2.488877e+00
-2.457116e+00
-2.424150e+00
-2.389986e+00
-2.354626e+00
-2.318073e+00
-2.280341e+00
-2.241464e+00
-2.201495e+00
-2.160502e+00
-2.118570e+00
-2.075799e+00
-2.032300e+00
-1.988198e+00
-1.943628e+00
-1.898742e+00
-1.853701e+00
-1.808684e+00
-1.763874e+00
-1.719456e+00
-1.675603e+00
-1.632472e+00
-1.590186e+00
-1.548835e+00
-1.508473e+00
-1.469116e+00
-1.430745e+00
-1.393311e+00
-1.356736e+00
-1.320927e+00
-1.285773e+00
-1.251152e+00
-1.216931e+00
-1.182972e+00
-1.149140e+00
-1.115309e+00
-1.081362e+00
-1.047201e+00
-1.012742e+00
-9.779260e-01
-9.427171e-01
-9.071098e-01
-8.711309e-01
-8.348332e-01
-7.982861e-01
-7.615704e-01
-7.247737e-01
-6.879878e-01
-6.513068e-01
-6.148258e-01
-5.786408e-01
-5.428464e-01
-5.075339e-01
-4.727871e-01
-4.386782e-01
-4.052642e-01
-3.725825e-01
-3.406502e-01
-3.094708e-01
-2.790430e-01
-2.493673e-01
-2.204519e-01
-1.923166e-01
-1.649915e-01
-1.385140e-01
-1.129252e-01
-8.826583e-02
-6.457178e-02
-4.187052e-02
-2.017813e-02
5.040930e-04
2.019456e-02
3.893529e-02
5.679139e-02
7.384925e-02
9.021566e-02
1.060179e-01
1.214025e-01
1.365309e-01
1.515739e-01
1.667054e-01
1.820927e-01
1.978877e-01
2.142223e-01
2.312051e-01
2.489181e-01
2.674105e-01
2.866934e-01
3.067417e-01
3.274969e-01
3.488727e-01
3.707644e-01
3.930577e-01
4.156377e-01
4.383942e-01
4.612252e-01
4.840378e-01
5.067497e-01
5.292912e-01
5.516066e-01
5.736582e-01
5.954311e-01
6.169375e-01
6.382135e-01
6.593143e-01
6.803070e-01
7.012602e-01
7.222325e-01
7.432652e-01
7.643770e-01
7.855622e-01
8.067929e-01
8.280215e-01
8.491882e-01
8.702270e-01
8.910695e-01
9.116473e-01
9.318935e-01
9.517455e-01
9.711468e-01
9.900510e-01
1.008427e+00
1.026266e+00
1.043576e+00
1.060385e+00
1.076731e+00
1.092650e+00
1.108162e+00
1.123265e+00
1.137928e+00
1.152090e+00
1.165666e+00
1.178553e+00
1.190640e+00
1.201822e+00
1.212004e+00
1.221117e+00
1.229120e+00
1.236008e+00
1.241800e+00
1.246541e+00
1.250298e+00
1.253155e+00
1.255207e+00
1.256554e+00
1.257299e+00
1.257544e+00
1.257386e+00
1.256918e+00
1.256234e+00
1.255426e+00
1.254594e+00
1.253841e+00
1.253273e+00
1.252999e+00
1.253122e+00
1.253743e+00
1.254951e+00
1.256830e+00
1.259456e+00
1.262898e+00
1.267221e+00
1.272482e+00
1.278737e+00
1.286028e+00
1.294390e+00
1.303837e+00
1.314365e+00
1.325946e+00
1.338531e+00
1.352055e+00
1.366431e+00
1.381564e+00
1.397350e+00
1.413695e+00
1.430513e+00
1.447738e+00
1.465320e+00
1.483222e+00
1.501409e+00
1.519841e+00
1.538470e+00
1.557245e+00
1.576111e+00
1.595027e+00
1.613968e+00
1.632930e+00
1.651928e+00
1.670988e+00
1.690139e+00
1.709406e+00
1.728804e+00
1.748334e+00
1.767980e+00
1.787714e+00
1.807493e+00
1.827262e+00
1.846957e+00
1.866505e+00
1.885824e+00
1.904832e+00
1.923443e+00
1.941583e+00
1.959190e+00
1.976224e+00
1.992665e+00
2.008513e+00
2.023786e+00
2.038510e+00
2.052714e+00
2.066425e+00
2.079662e+00
2.092432e+00
2.104725e+00
2.116513e+00
2.127750e+00
2.138372e+00
2.148293e+00
2.157413e+00
2.165620e+00
2.172798e+00
2.178828e+00
2.183601e+00
2.187020e+00
2.189010e+00
2.189519e+00
2.188527e+00
2.186049e+00
2.182132e+00
2.176854e+00
2.170319e+00
2.162660e+00
2.154027e+00
2.144590e+00
2.134521e+00
2.123989e+00
2.113146e+00
2.102123e+00
2.091022e+00
2.079919e+00
2.068871e+00
2.057921e+00
2.047105e+00
2.036455e+00
2.026006e+00
2.015795e+00
2.005860e+00
1.996239e+00
1.986971e+00
1.978091e+00
1.969637e+00
1.961646e+00
1.954162e+00
1.947228e+00
1.940896e+00
1.935216e+00
1.930235e+00
1.925992e+00
1.922510e+00
1.919799e+00
1.917850e+00
1.916640e+00
1.916134e+00
1.916288e+00
1.917051e+00
1.918366e+00
1.920173e+00
1.922401e+00
1.924980e+00
1.927834e+00
1.930888e+00
1.934065e+00
1.937289e+00
1.940488e+00
1.943594e+00
1.946546e+00
1.949293e+00
1.951796e+00
1.954026e+00
1.955969e+00
1.957623e+00
1.958997e+00
1.960112e+00
1.960990e+00
1.961655e+00
1.962121e+00
