EVENT_NAME: EMILIA_2ND_SHOCK
EVENT_ID: IT-2012-0011
EVENT_DATE_YYYYMMDD: 20120529
EVENT_TIME_HHMMSS: 070002
EVENT_LATITUDE_DEGREE: 44.8417
EVENT_LONGITUDE_DEGREE: 11.0657
EVENT_DEPTH_KM: 8.1
HYPOCENTER_REFERENCE: INGV-CNT_Seismic_Bulletin
MAGNITUDE_W: 6.0
MAGNITUDE_W_REFERENCE: RCMT-INGV
MAGNITUDE_L: 5.8
MAGNITUDE_L_REFERENCE: INGV-CNT_Seismic_Bulletin
FOCAL_MECHANISM: TF
NETWORK: IV
STATION_CODE: T0803
STATION_NAME: T0803
STATION_LATITUDE_DEGREE: 44.766800
STATION_LONGITUDE_DEGREE: 11.350800
STATION_ELEVATION_M: 10
LOCATION: 
SENSOR_DEPTH_M: 1.0
VS30_M/S: 
SITE_CLASSIFICATION_EC8: C*
MORPHOLOGIC_CLASSIFICATION: 
EPICENTRAL_DISTANCE_KM: 24.0
EARTHQUAKE_BACKAZIMUTH_DEGREE: 290.4
DATE_TIME_FIRST_SAMPLE_YYYYMMDD_HHMMSS: 20120529_065953.000
DATE_TIME_FIRST_SAMPLE_PRECISION: milliseconds
SAMPLING_INTERVAL_S: 0.005000
NDATA: 20001
DURATION_S: 100.005
STREAM: HNN
UNITS: cm/s
INSTRUMENT: sensor = Episensor FBA ES-T [Kinemetrics] | digitizer = Unknown [Unknown]
INSTRUMENT_ANALOG/DIGITAL: D
INSTRUMENTAL_FREQUENCY_HZ: 
INSTRUMENTAL_DAMPING: 
FULL_SCALE_G: 
N_BIT_DIGITAL_CONVERTER: 
PGV_CM/S: 7.646986
TIME_PGV_S: 30.020000
BASELINE_CORRECTION: BASELINE REMOVED
FILTER_TYPE: BUTTERWORTH
FILTER_ORDER: 2
LOW_CUT_FREQUENCY_HZ: 0.060
HIGH_CUT_FREQUENCY_HZ: 40.000
LATE/NORMAL_TRIGGERED: NT
DATABASE_VERSION: DYNA 1.0
HEADER_FORMAT: DYNA 1.2
DATA_TYPE: VELOCITY
PROCESSING: manual (Paolucci et al., 2011)
DATA_TIMESTAMP_YYYYMMDD_HHMMSS: 
DATA_LICENSE: CC-BY4_0 (http://creativecommons.org/licenses/by/4.0/)
DATA_CITATION: ESM working group (2015), European Strong-Motion database, version 0.1, Network Activity 3: Networking acceleration networks and SM data users. Project NERA (www.nera-eu.org)
DATA_CREATOR: ESM working group
ORIGINAL_DATA_MEDIATOR_CITATION: Orfeus - European Integrated Data Archive (EIDA) http://www.orfeus-eu.org/eida/
ORIGINAL_DATA_MEDIATOR: Orfeus - European Integrated Data Archive (EIDA)
ORIGINAL_DATA_CREATOR_CITATION: Data for this study comes from the Italian national seismic network operated by Istituto Nazionale di Geofisica e Vulcanologia and archived at the European Integrated Data Archive http://eida.rm.ingv.it/
ORIGINAL_DATA_CREATOR: network: IV (Italian National Seismic Network); owner: Istituto Nazionale di Geofisica e Vulcanologia
USER1: 
USER2: 
USER3: 
USER4: 
USER5: 
[...]
-1.826464
-1.956403
-2.084452
-2.200927
-2.298284
-2.373914
-2.430710
-2.474821
-2.514152
-2.556527
-2.606269
-2.662966
-2.722198
-2.775283
-2.810857
-2.818874
-2.792464
-2.728742
-2.630527
-2.505217
-2.361116
-2.205663
-2.045373
-1.885791
-1.731239
-1.584225
-1.445322
-1.313021
-1.182818
-1.047574
-0.899208
-0.729680
-0.532373
-0.304045
-0.045598
0.237628
0.536317
0.839105
1.133838
1.408813
1.655272
1.868189
2.045952
2.191034
2.308961
2.405386
2.484669
2.549611
2.600950
2.637524
2.656962
2.656108
2.631315
2.578660
2.494885
2.379230
2.233951
2.063208
1.872465
1.667805
1.454501
1.236441
1.015965
0.793190
0.566046
0.330948
0.083387
-0.180892
-0.464604
-0.768316
-1.089956
-1.424909
-1.767006
-2.109021
-2.443447
-2.764201
-3.067021
-3.348278
-3.604054
-3.830509
-4.025063
-4.186804
-4.316283
-4.415680
-4.488286
-4.537141
-4.564401
-4.571249
-4.557625
-4.522491
-4.464588
-4.382839
-4.276530
-4.145551
-3.990435
-3.812265
-3.612661
-3.394040
-3.160176
-2.915931
-2.666183
-2.415452
-2.168314
-1.929876
-1.705511
-1.499912
-1.316764
-1.158753
-1.027241
-0.922347
-0.843399
-0.789225
-0.758176
-0.747832
-0.754989
-0.775974
-0.806819
-0.843531
-0.882382
-0.920238
-0.955131
-0.986322
-1.013772
-1.037918
-1.059669
-1.080360
-1.101823
-1.126753
-1.159175
-1.203490
-1.262211
-1.334968
-1.418311
-1.504750
-1.583928
-1.646015
-1.683186
-1.689683
-1.662441
-1.601268
-1.508671
-1.389389
-1.249291
-1.094780
-0.932344
-0.767566
-0.604939
-0.448530
-0.302404
-0.170280
-0.054605
0.043679
0.124711
0.189594
0.240029
0.277476
0.302777
0.316156
0.317172
0.305070
0.279559
0.240974
0.189335
0.123265
0.040172
-0.062729
-0.187706
-0.335149
-0.501664
-0.680315
-0.862520
-1.039115
-1.201312
-1.341702
-1.454953
-1.538830
-1.594112
-1.623001
-1.628061
-1.611800
-1.576068
-1.521970
-1.450637
-1.364163
-1.265982
-1.160997
-1.055581
-0.957187
-0.874025
-0.813627
-0.779932
-0.772376
-0.786965
-0.816402
-0.851252
-0.882805
-0.904227
-0.910171
-0.896777
-0.861813
-0.804856
-0.727147
-0.631076
-0.520127
-0.398493
-0.270047
-0.137904
-0.004239
0.130177
0.265992
0.404941
0.549483
0.701841
0.862844
1.031222
1.202928
1.371051
1.526626
1.658988
1.757383
1.814429
1.827283
1.796848
1.728146
1.629751
1.511729
1.384544
1.258238
1.141554
1.041278
0.961204
0.902281
0.864487
0.848202
0.854114
0.882527
0.933029
1.004332
1.093871
1.197981
1.312688
1.433982
1.557467
1.677857
1.789310
1.886583
1.965389
2.022074
2.053534
2.057458
2.032825
1.980032
1.900967
1.799586
1.681513
1.552580
1.418163
1.283076
1.151394
1.026417
0.910597
0.805659
0.712793
0.632621
0.565327
0.511009
0.469981
0.443297
0.433383
0.443534
0.476480
0.533650
0.614642
0.716272
0.833284
0.960536
1.094058
1.231289
1.371473
1.515049
1.662177
1.812021
1.962763
2.111475
2.254455
2.388159
2.509475
2.615239
2.701726
2.764937
2.801561
2.809397
2.787797
2.738643
2.666264
2.576414
2.475538
2.369521
2.262314
2.155668
2.049257
1.941164
1.829235
1.712246
1.590042
1.463322
1.333421
1.202052
1.071260
0.943366
0.820719
0.705708
0.601243
0.511341
0.440710
0.393464
0.372526
0.379177
0.412051
0.467180
0.538924
0.620525
0.704578
0.783398
0.850183
0.901391
0.937464
0.962048
0.982077
1.006543
1.043418
1.098363
1.174753
1.273102
1.391192
1.524955
1.669111
1.817813
1.964923
2.104203
2.229909
2.336888
2.420449
2.476607
2.502772
2.498933
2.467819
2.413666
2.341356
2.255549
2.159113
2.052668
1.935403
1.805552
1.660987
1.500360
1.323566
1.131620
0.926795
0.712222
0.490854
0.265031
0.036621
-0.192946
-0.422657
-0.651927
-0.880466
-1.107723
-1.332261
-1.551691
-1.762998
-1.962788
-2.147877
-2.316004
-2.466129
-2.598675
-2.715421
-2.818822
-2.911593
-2.996391
-3.075263
-3.149440
-3.219278
-3.283817
-3.340669
-3.386220
-3.415879
-3.424802
-3.408640
-3.364270
-3.290941
-3.190521
-3.066848
-2.925642
-2.773710
-2.616976
-2.459740
-2.304953
-2.154146
-2.007487
-1.864088
-1.722315
-1.580289
-1.436257
-1.288833
-1.137363
-0.981949
-0.822937
-0.660487
-0.494548
-0.324965
-0.151550
0.025857
0.207304
0.392650
0.581455
0.772966
0.966145
1.159596
1.351568
1.540108
1.723063
1.897796
2.060819
2.208171
2.336552
2.443743
2.528541
2.591016
2.632451
2.654944
2.661133
2.653985
2.636752
2.612814
2.585210
2.556478
2.528529
2.502271
2.477510
2.453043
2.426836
2.396385
2.358924
2.311807
2.253276
2.182770
2.101089
2.010974
1.916759
1.823109
1.734442
1.654867
1.588018
1.536633
1.501752
1.482599
1.477256
1.482997
1.496725
1.515893
1.538799
1.564168
1.590847
1.617834
1.644476
1.670463
1.695480
1.718890
1.739791
1.757318
1.770779
1.779712
1.784042
1.784177
1.781107
1.776338
1.771427
1.767455
1.764663
1.762036
1.757281
1.747408
1.729053
1.698684
1.653042
1.589246
1.504706
1.397243
1.265454
1.109346
0.930500
0.731927
0.518359
0.295767
0.069906
-0.154314
-0.372903
-0.583085
-0.783257
-0.972740
-1.151449
-1.319360
-1.476076
-1.620852
-1.752813
-1.871045
-1.974492
-2.061782
-2.131303
-2.181502
-2.211022
-2.218788
-2.204204
-2.167159
-2.107925
-2.027015
-1.924856
-1.801467
-1.656507
-1.489513
-1.300097
-1.088384
-0.855631
-0.604288
-0.337613
-0.059554
0.224871
0.508796
0.783927
1.042172
1.276335
1.480528
1.651066
1.786839
1.889457
1.962924
2.012455
2.043674
2.061764
2.069874
2.068731
2.057713
2.035545
2.000717
1.952143
1.889404
1.812623
1.722480
1.620168
1.507177
1.385175
1.255955
1.121485
0.983924
0.845524
0.708578
0.575183
0.446922
0.324818
0.209389
0.100865
-0.000174
-0.092113
-0.172535
-0.239104
-0.290062
-0.324866
-0.345171
-0.354694
-0.358172
-0.360660
-0.366441
-0.377773
-0.394751
-0.415764
-0.438006
-0.458423
-0.474461
-0.484217
-0.486506
-0.480736
-0.466396
-0.442589
-0.407912
-0.360477
-0.297970
-0.217980
-0.118406
0.002059
0.143190
0.303035
0.478250
0.663972
0.854240
1.043229
1.225709
1.396877
1.552355
1.688581
1.803626
1.897313
1.970619
2.025474
2.064503
2.090366
2.105462
2.111812
2.110845
2.103327
2.089338
2.068445
2.040349
2.005544
1.965264
1.921032
1.874421
1.826934
1.779880
1.734218
1.690276
1.647697
1.605581
1.562520
1.516930
1.467809
1.415025
1.359233
1.301982
1.245500
1.192047
1.143642
1.102056
1.068757
1.044813
1.030735
1.026484
1.031625
1.045294
1.066176
1.092591
1.122488
1.153243
1.181362
1.203016
1.215412
1.217332
1.209203
1.193674
1.175437
1.160221
1.154235
1.163587
1.193614
1.248104
1.328039
1.431440
1.554525
1.692275
1.838927
1.989093
2.138131
2.281789
2.415986
2.537004
2.642057
2.729356
2.797620
2.845794
2.873032
2.878750
2.862551
2.823963
2.762253
2.676713
2.567335
2.435087
2.281938
2.111126
1.926766
1.732709
1.532090
1.327470
1.120887
0.913958
0.708040
0.504430
0.304707
0.111091
-0.073817
-0.247808
-0.409317
-0.557136
-0.690192
-0.807473
-0.908010
-0.990849
-1.055148
-1.100381
-1.126544
-1.134398
-1.125545
-1.102385
-1.068289
-1.027152
-0.982237
-0.935720
-0.888762
-0.841304
-0.792239
-0.739993
-0.682843
-0.618981
-0.546488
-0.463425
-0.368124
-0.259313
-0.136396
-0.000036
0.147717
0.303631
0.463478
0.622304
0.774517
0.914497
1.038046
1.142823
1.227865
1.293475
1.340829
1.371075
1.384914
1.382618
1.364010
1.328559
1.275592
1.204450
1.114880
1.007632
0.884751
0.749685
0.607249
0.463336
0.324891
0.199135
0.091716
0.006072
-0.056310
-0.096220
-0.116402
-0.120430
-0.112032
-0.094412
-0.069506
-0.037825
0.001471
0.050252
0.110377
0.182640
0.266485
0.359974
0.459934
0.562383
0.662683
0.755923
0.837872
0.905319
0.956132
0.989740
1.007275
1.011409
1.006080
0.995788
0.985058
0.977827
0.976338
0.980901
0.990677
1.004125
1.019381
1.034964
1.050057
1.064388
1.078195
1.091979
1.105997
1.119962
1.132714
1.141680
1.143175
1.133459
1.109221
1.067711
1.007104
0.926842
0.828075
0.713708
0.588111
0.457249
0.327999
0.206321
0.096627
0.002259
-0.074337
-0.131609
-0.168946
-0.186513
-0.184728
-0.163888
-0.124072
-0.065099
0.013399
0.111523
0.228542
0.362848
0.512260
0.674183
0.845610
1.022949
1.202193
1.379558
1.551672
1.715424
1.867949
2.006897
2.130982
2.240093
2.334911
2.416778
2.487384
2.548077
2.599598
2.642259
2.676029
2.700653
2.715859
2.721477
2.717557
2.704568
2.683476
2.655731
2.623216
2.588007
2.552160
2.517382
2.484464
2.453134
2.422301
2.390017
2.353623
2.310242
2.256987
2.190986
2.109481
2.010220
1.892239
1.756094
1.603625
1.438101
1.263727
1.084338
0.902857
0.721339
0.540837
0.361561
0.183315
0.005809
-0.171001
-0.346579
-0.519884
-0.689720
-0.854899
-1.014163
-1.166029
-1.308770
-1.440543
-1.559445
-1.663641
-1.751510
-1.821695
-1.873161
-1.905111
-1.916664
-1.906571
-1.873403
-1.816083
-1.734174
-1.628368
-1.501381
-1.357936
-1.203952
-1.046070
-0.891117
-0.745655
-0.615456
-0.504493
-0.414790
-0.347143
-0.301398
-0.276654
-0.271733
-0.285373
-0.315904
-0.360649
-0.415804
-0.476736
-0.538198
-0.594885
-0.642034
-0.675879
-0.694376
-0.697241
-0.685282
-0.660162
-0.624273
-0.580356
-0.531346
-0.480463
-0.431380
-0.387923
-0.353235
-0.329518
-0.318290
-0.320435
-0.336320
-0.366057
-0.409650
-0.466899
-0.537153
-0.619248
-0.711626
-0.812359
-0.918962
-1.027929
-1.134745
-1.234377
-1.321473
-1.390478
-1.435753
-1.452115
-1.435997
-1.385786
-1.301617
-1.185772
-1.042402
-0.876421
-0.692956
-0.497325
-0.295196
-0.092408
0.105725
0.294583
0.470105
0.628871
0.768223
0.886448
0.982672
1.056452
1.107610
1.136332
1.143348
1.129972
1.098097
1.050373
0.990027
0.920239
0.843917
0.763774
0.682325
0.601675
0.523060
0.446768
0.372492
0.299528
0.227108
0.155019
0.083830
0.014561
-0.051632
-0.113897
-0.172429
-0.228690
-0.285009
-0.344364
-0.409908
-0.483974
-0.567752
-0.661623
-0.765270
-0.877796
-0.998035
-1.124722
-1.256496
-1.391827
-1.528997
-1.666213
-1.801604
-1.933044
-2.057912
-2.173246
-2.276289
-2.364631
-2.435907
-2.487529
-2.516909
-2.522079
-2.501901
-2.455997
-2.384954
-2.290298
-2.174167
-2.039157
-1.888395
-1.725804
-1.555810
-1.382398
-1.208803
-1.037780
-0.871753
-0.712833
-0.562742
-0.422877
-0.294427
-0.178349
-0.075248
0.014822
0.092380
0.158388
0.214269
0.261775
0.302586
0.338190
0.370077
0.399935
0.429544
0.460421
0.493666
0.529877
0.568875
0.609756
0.651201
0.691643
0.729250
0.761777
0.786668
0.801473
0.804002
0.792346
0.765035
0.721222
0.660945
0.585124
0.495250
0.393234
0.281140
0.160599
0.032632
-0.101998
-0.242472
-0.387815
-0.536879
-0.688308
-0.840468
-0.991285
-1.138372
-1.279450
-1.412470
-1.535439
-1.646285
-1.743056
-1.824424
-1.889842
-1.939500
-1.974495
-1.996650
-2.007926
-2.010161
-2.005145
-1.994732
-1.980776
-1.964867
-1.948287
-1.932268
-1.918258
-1.908026
-1.903654
-1.907525
-1.922072
-1.949458
-1.991226
-2.047735
-2.118060
-2.200350
-2.291848
-2.389069
-2.488381
-2.586237
-2.679266
-2.764444
-2.839381
-2.902844
-2.954783
-2.995720
-3.026349
-3.047402
-3.059484
-3.063037
-3.058544
-3.046770
-3.028838
-3.006188
-2.980569
-2.954053
-2.929142
-2.908530
-2.894484
-2.888651
-2.892317
-2.906542
-2.932138
-2.969556
-3.018892
-3.079949
-3.152171
-3.234675
-3.326412
-3.426222
-3.532707
-3.644006
-3.757878
-3.872093
-3.984567
-4.093257
-4.196085
-4.291072
-4.376706
-4.452026
-4.516463
-4.569822
-4.612237
-4.644039
-4.665676
-4.677730
-4.681015
-4.676554
-4.665440
-4.648782
-4.627777
-4.603806
-4.578360
-4.552792
-4.528233
-4.505638
-4.485754
-4.469071
-4.455759
-4.445675
-4.438484
-4.433694
-4.430751
-4.429240
-4.428944
-4.429674
-4.431062
-4.432443
-4.432763
-4.430576
-4.424230
-4.412020
-4.392383
-4.364280
-4.327276
-4.281342
-4.226818
-4.164414
-4.095160
-4.020374
-3.941684
-3.861126
-3.780960
-3.703122
-3.629039
-3.559701
-3.495608
-3.436799
-3.382976
-3.333638
-3.288313
-3.246810
-3.209299
-3.176339
-3.148856
-3.128013
-3.115143
-3.111614
-3.118510
-3.136518
-3.165919
-3.206425
-3.257194
-3.317014
-3.384405
-3.457608
-3.534460
-3.612500
-3.689385
-3.763034
-3.831585
-3.893415
-3.947157
-3.991741
-4.026348
-4.050296
-4.063030
-4.064200
-4.053807
-4.032214
-4.000047
-3.958182
-3.907673
-3.849563
-3.784809
-3.714333
-3.639040
-3.559757
-3.477060
-3.391232
-3.302297
-3.209984
-3.113827
-3.013429
-2.908578
-2.799302
-2.685968
-2.569220
-2.449783
-2.328347
-2.205463
-2.081379
-1.955980
-1.828758
-1.698862
-1.565320
-1.427212
-1.283768
-1.134504
-0.979231
-0.817917
-0.650604
-0.477383
-0.298352
-0.113596
0.076780
0.272594
0.473530
0.679067
0.888457
1.100697
1.314436
1.528055
1.739962
1.948714
2.153045
2.351970
2.544890
2.731716
2.912868
3.089107
3.261484
3.431194
3.599234
3.766259
3.932580
4.098080
4.262318
4.424827
4.585257
4.743405
4.899249
5.052926
5.204670
5.354772
5.503572
5.651464
5.798803
5.945712
6.092019
6.237323
6.380991
6.522219
6.660209
6.794211
6.923382
7.046591
7.162418
7.269343
7.365810
7.450238
7.521052
7.576826
7.616612
7.640010
7.646986
7.637813
7.613022
7.573249
7.519171
7.451501
7.371027
7.278593
7.174999
7.061013
6.937573
6.806043
6.668109
6.525384
6.379260
6.230972
6.081647
5.932321
5.783939
5.637376
5.493488
5.353115
5.217036
5.085862
4.960020
4.839850
4.725647
4.617615
4.515768
4.419901
4.329601
4.244201
4.162861
4.084798
4.009383
3.936082
3.864430
3.794036
3.724608
3.655945
3.587872
3.520177
3.452592
3.384787
3.316365
3.246871
3.175795
3.102629
3.027005
2.948743
2.867836
2.784498
2.699124
2.612164
2.524048
2.435107
2.345453
2.254960
2.163280
2.069890
1.974173
1.875466
1.773081
1.666381
1.554785
1.437753
1.314810
1.185639
1.050245
0.909007
0.762687
0.612582
0.460480
0.308383
0.158387
0.012648
-0.126644
-0.257445
-0.378273
-0.488299
-0.587102
-0.674581
-0.750924
-0.816528
-0.871939
-0.917788
-0.954747
-0.983442
-1.004260
-1.017308
-1.022567
-1.020047
-1.009868
-0.992367
-0.968140
-0.938043
-0.903296
-0.865441
-0.826126
-0.787041
-0.750029
-0.717236
-0.690951
-0.673139
-0.665288
-0.668567
-0.683875
-0.711847
-0.752845
-0.806995
-0.874174
-0.953909
-1.045392
-1.147668
-1.259712
-1.380427
-1.508586
-1.642859
-1.781948
-1.924624
-2.069674
-2.215877
-2.362082
-2.507400
-2.651246
-2.793257
-2.933293
-3.071431
-3.207928
-3.343162
-3.477517
-3.611265
-3.744529
-3.877244
-4.009171
-4.139972
-4.269246
-4.396585
-4.521678
-4.644353
-4.764538
-4.882267
-4.997644
-5.110783
-5.221768
-5.330641
-5.437369
-5.541816
-5.643719
-5.742673
-5.838106
-5.929211
-6.015010
-6.094598
-6.167212
-6.232152
-6.288695
-6.336120
-6.373802
-6.401239
-6.418038
-6.423934
-6.418815
-6.402719
-6.375840
-6.338599
-6.291801
-6.236558
-6.174012
-6.105198
-6.031007
-5.952116
-5.868998
-5.781958
-5.691199
-5.596939
-5.499519
-5.399392
-5.297027
-5.192874
-5.087380
-4.981017
-4.874330
-4.767982
-4.662776
-4.559607
-4.459412
-4.363045
-4.271020
-4.183443
-4.100134
-4.020663
-3.944409
-3.870730
-3.799036
-3.728859
-3.659952
-3.592338
-3.526324
-3.462478
-3.401524
-3.344285
-3.291574
-3.243967
-3.201743
-3.164971
-3.133534
-3.107126
-3.085279
-3.067374
-3.052613
-3.039931
-3.028066
-3.015823
-3.002156
-2.986091
-2.966663
-2.943002
-2.914518
-2.880947
-2.842236
-2.798503
-2.749999
-2.697007
-2.639813
-2.578727
-2.514141
-2.446500
-2.376205
-2.303603
-2.229123
-2.153465
-2.077573
-2.002481
-1.929217
-1.858710
-1.791666
-1.728546
-1.669589
-1.614861
-1.564321
-1.517816
-1.475023
-1.435370
-1.398028
-1.361951
-1.325877
-1.288447
-1.248523
-1.205280
-1.158121
-1.106662
-1.050735
-0.990377
-0.925806
-0.857436
-0.786004
-0.712625
-0.638763
-0.566209
-0.497057
-0.433749
-0.378848
-0.334442
-0.301941
-0.282163
-0.275206
-0.280471
-0.296861
-0.322927
-0.356961
-0.396953
-0.440672
-0.485966
-0.530858
-0.573533
-0.612384
-0.646090
-0.673762
-0.694931
-0.709424
-0.717385
-0.719297
-0.715955
-0.708416
-0.697906
-0.685802
-0.673580
-0.662651
-0.654308
-0.649769
-0.650151
-0.656406
-0.669164
-0.688729
-0.715263
-0.748913
-0.789820
-0.838099
-0.893828
-0.956985
-1.027327
-1.104345
-1.187257
-1.275021
-1.366348
-1.459624
-1.552996
-1.644665
-1.732983
-1.816334
-1.893051
-1.961515
-2.020451
-2.068998
-2.106551
-2.132703
-2.147234
-2.150094
-2.141374
-2.121326
-2.090451
-2.049494
-1.999332
-1.940916
-1.875226
-1.803220
-1.725748
-1.643366
-1.556307
-1.464631
-1.368331
-1.267378
-1.161795
-1.051675
-0.937135
-0.818275
-0.695178
-0.567932
-0.436642
-0.301411
-0.162311
-0.019351
0.127559
0.278612
0.433995
0.593777
0.757879
0.926089
1.098066
1.273336
1.451214
1.630789
1.811001
1.990676
2.168570
2.343388
2.513863
2.678955
2.837875
2.989892
3.134147
3.269635
3.395269
3.509887
3.612149
3.700408
3.772897
3.828216
3.865494
3.884306
3.884736
3.867374
3.833217
3.783609
3.720291
3.645591
3.562244
3.472780
3.379320
3.283714
3.187630
3.092525
2.999527
2.909474
2.823171
2.741602
2.665887
2.597059
2.535977
2.483294
2.439341
2.404090
2.377167
2.357891
2.345349
2.338384
2.335688
2.336087
2.338621
2.342454
2.346823
2.351082
2.354827
2.357905
2.360272
2.361892
2.362697
2.362564
2.361301
2.358714
2.354682
2.349230
2.342624
2.335399
2.328311
2.322345
2.318536
2.317595
2.319774
2.325004
2.332944
2.343056
2.354781
2.367608
2.381026
2.394461
2.407290
2.418928
2.428849
2.436507
2.441245
2.442315
2.438978
2.430527
2.416256
2.395445
2.367452
2.331914
2.288806
2.238389
2.181249
2.118258
2.050410
1.978760
1.904462
1.828839
1.753245
1.678716
1.605855
1.534998
1.466287
1.399736
1.335335
1.273087
1.212888
1.154357
1.096870
1.039754
0.982372
0.924139
0.864533
0.803096
0.739453
0.673328
0.604621
0.533566
0.460664
0.386466
0.311446
0.235943
0.160085
0.083836
0.007141
-0.069999
-0.147493
-0.225119
-0.302534
-0.379355
-0.455159
-0.529338
-0.600863
-0.668291
-0.729981
-0.784217
-0.829398
-0.864290
-0.888116
-0.900654
-0.902186
-0.893283
-0.874732
-0.847467
-0.812424
-0.770486
-0.722523
-0.669438
-0.612144
-0.551466
-0.488120
-0.422745
-0.355896
-0.288006
-0.219332
-0.149958
-0.079900
-0.009176
0.062176
0.134098
0.206516
0.279381
0.352709
0.426565
0.500997
0.575993
0.651381
0.726705
0.801289
0.874497
0.945846
1.015054
1.082135
1.147335
1.210956
1.273262
1.334458
1.394677
1.453995
1.512464
1.570140
1.627097
1.683446
1.739331
1.794897
1.850271
1.905517
1.960581
2.015321
2.069602
2.123348
2.176566
2.229377
2.281960
2.334421
2.386738
2.438796
2.490388
2.541235
2.591028
2.639441
2.686083
2.730434
2.771862
2.809744
2.843501
2.872598
2.896564
