EVENT_NAME: EMILIA_2ND_SHOCK
EVENT_ID: IT-2012-0011
EVENT_DATE_YYYYMMDD: 20120529
EVENT_TIME_HHMMSS: 070002
EVENT_LATITUDE_DEGREE: 44.8417
EVENT_LONGITUDE_DEGREE: 11.0657
EVENT_DEPTH_KM: 8.1
HYPOCENTER_REFERENCE: INGV-CNT_Seismic_Bulletin
MAGNITUDE_W: 6.0
MAGNITUDE_W_REFERENCE: RCMT-INGV
MAGNITUDE_L: 5.8
MAGNITUDE_L_REFERENCE: INGV-CNT_Seismic_Bulletin
FOCAL_MECHANISM: TF
NETWORK: IV
STATION_CODE: T0800
STATION_NAME: T0800
STATION_LATITUDE_DEGREE: 44.848600
STATION_LONGITUDE_DEGREE: 11.247900
STATION_ELEVATION_M: 9
LOCATION: 
SENSOR_DEPTH_M: 1.0
VS30_M/S: 
SITE_CLASSIFICATION_EC8: C*
MORPHOLOGIC_CLASSIFICATION: 
EPICENTRAL_DISTANCE_KM: 14.4
EARTHQUAKE_BACKAZIMUTH_DEGREE: 267.0
DATE_TIME_FIRST_SAMPLE_YYYYMMDD_HHMMSS: 20120529_065949.000
DATE_TIME_FIRST_SAMPLE_PRECISION: milliseconds
SAMPLING_INTERVAL_S: 0.005000
NDATA: 20001
DURATION_S: 100.005
STREAM: HNE
UNITS: cm/s
INSTRUMENT: sensor = Episensor FBA ES-T [Kinemetrics] | digitizer = Unknown [Unknown]
INSTRUMENT_ANALOG/DIGITAL: D
INSTRUMENTAL_FREQUENCY_HZ: 
INSTRUMENTAL_DAMPING: 
FULL_SCALE_G: 
N_BIT_DIGITAL_CONVERTER: 
PGV_CM/S: 28.013408
TIME_PGV_S: 24.400000
BASELINE_CORRECTION: BASELINE REMOVED
FILTER_TYPE: BUTTERWORTH
FILTER_ORDER: 2
LOW_CUT_FREQUENCY_HZ: 0.070
HIGH_CUT_FREQUENCY_HZ: 40.000
LATE/NORMAL_TRIGGERED: NT
DATABASE_VERSION: DYNA 1.0
HEADER_FORMAT: DYNA 1.2
DATA_TYPE: VELOCITY
PROCESSING: manual (Paolucci et al., 2011)
DATA_TIMESTAMP_YYYYMMDD_HHMMSS: 
DATA_LICENSE: CC-BY4_0 (http://creativecommons.org/licenses/by/4.0/)
DATA_CITATION: ESM working group (2015), European Strong-Motion database, version 0.1, Network Activity 3: Networking acceleration networks and SM data users. Project NERA (www.nera-eu.org)
DATA_CREATOR: ESM working group
ORIGINAL_DATA_MEDIATOR_CITATION: Orfeus - European Integrated Data Archive (EIDA) http://www.orfeus-eu.org/eida/
ORIGINAL_DATA_MEDIATOR: Orfeus - European Integrated Data Archive (EIDA)
ORIGINAL_DATA_CREATOR_CITATION: Data for this study comes from the Italian national seismic network operated by Istituto Nazionale di Geofisica e Vulcanologia and archived at the European Integrated Data Archive http://eida.rm.ingv.it/
ORIGINAL_DATA_CREATOR: network: IV (Italian National Seismic Network); owner: Istituto Nazionale di Geofisica e Vulcanologia
USER1: 
USER2: 
USER3: 
USER4: 
USER5: 
[...]
-0.147282
-0.152714
-0.158428
-0.162861
-0.164554
-0.163207
-0.159578
-0.154556
-0.148990
-0.144152
-0.141282
-0.140404
-0.140470
-0.140837
-0.141892
-0.144266
-0.147837
-0.151373
-0.153412
-0.153684
-0.153083
-0.152402
-0.152027
-0.152626
-0.154770
-0.157520
-0.158324
-0.154759
-0.146647
-0.137154
-0.131268
-0.132408
-0.140527
-0.152589
-0.164416
-0.172979
-0.177823
-0.180833
-0.183875
-0.185789
-0.182851
-0.172608
-0.156647
-0.140342
-0.129719
-0.127354
-0.131504
-0.138637
-0.145945
-0.152462
-0.158851
-0.166238
-0.174774
-0.182691
-0.187227
-0.186876
-0.182354
-0.175863
-0.170058
-0.167143
-0.167765
-0.170006
-0.169956
-0.164208
-0.152990
-0.141849
-0.138602
-0.147041
-0.164366
-0.183645
-0.197583
-0.201649
-0.195569
-0.183069
-0.169775
-0.159872
-0.153741
-0.148118
-0.139877
-0.130942
-0.127522
-0.133897
-0.148374
-0.164240
-0.174390
-0.176592
-0.174091
-0.171638
-0.172041
-0.175101
-0.178432
-0.179252
-0.175902
-0.168754
-0.160344
-0.154583
-0.154878
-0.161845
-0.172651
-0.182622
-0.188182
-0.189513
-0.189915
-0.192288
-0.196642
-0.200072
-0.198661
-0.190042
-0.174455
-0.154293
-0.133721
-0.118320
-0.113269
-0.120453
-0.137374
-0.158544
-0.177951
-0.191372
-0.197174
-0.195720
-0.188792
-0.179237
-0.170188
-0.163994
-0.161975
-0.164941
-0.173171
-0.185544
-0.198766
-0.207693
-0.207838
-0.198829
-0.184741
-0.170849
-0.160183
-0.152182
-0.145093
-0.140152
-0.141638
-0.152533
-0.171158
-0.191152
-0.204676
-0.207108
-0.199299
-0.186409
-0.174725
-0.168091
-0.166734
-0.168790
-0.172528
-0.177662
-0.184090
-0.189540
-0.190581
-0.186519
-0.180478
-0.176506
-0.176163
-0.177010
-0.174793
-0.167927
-0.159301
-0.154147
-0.156054
-0.163454
-0.170130
-0.169767
-0.160801
-0.148723
-0.142824
-0.149171
-0.167070
-0.190597
-0.212105
-0.225735
-0.229341
-0.224624
-0.215764
-0.207138
-0.201398
-0.198516
-0.196221
-0.191648
-0.183244
-0.172279
-0.162857
-0.159813
-0.164864
-0.173404
-0.177154
-0.171434
-0.158726
-0.146310
-0.141307
-0.146041
-0.157189
-0.168752
-0.175930
-0.178079
-0.178723
-0.182425
-0.190537
-0.198895
-0.202105
-0.201226
-0.203175
-0.211929
-0.223747
-0.230386
-0.226282
-0.214281
-0.202597
-0.195633
-0.191177
-0.185333
-0.176270
-0.164265
-0.151209
-0.140554
-0.135938
-0.138449
-0.145236
-0.150833
-0.150996
-0.146691
-0.143082
-0.144428
-0.151768
-0.164439
-0.181135
-0.199313
-0.214938
-0.223520
-0.222061
-0.210931
-0.193882
-0.176217
-0.162769
-0.156452
-0.157669
-0.164514
-0.173607
-0.181356
-0.185080
-0.183657
-0.177363
-0.167203
-0.154815
-0.142972
-0.135581
-0.136441
-0.146684
-0.162597
-0.177618
-0.187275
-0.190687
-0.188077
-0.179464
-0.166036
-0.151894
-0.143938
-0.148069
-0.163928
-0.184978
-0.203778
-0.215614
-0.218811
-0.214284
-0.204921
-0.193462
-0.179916
-0.162663
-0.142784
-0.125853
-0.119154
-0.126312
-0.143192
-0.161371
-0.176621
-0.190779
-0.206135
-0.221879
-0.235161
-0.243048
-0.243648
-0.236891
-0.225163
-0.212890
-0.204570
-0.201853
-0.201759
-0.199765
-0.195543
-0.192845
-0.193838
-0.196920
-0.199675
-0.201367
-0.202829
-0.204976
-0.207614
-0.210226
-0.213544
-0.218330
-0.222285
-0.220685
-0.210797
-0.194368
-0.176455
-0.162651
-0.156518
-0.158955
-0.168841
-0.182619
-0.193596
-0.194739
-0.184263
-0.167837
-0.155352
-0.154496
-0.165102
-0.180855
-0.196633
-0.211328
-0.224554
-0.233734
-0.234555
-0.224385
-0.205843
-0.185484
-0.168652
-0.157580
-0.153354
-0.156428
-0.164542
-0.171584
-0.169498
-0.153503
-0.127739
-0.104322
-0.095584
-0.106557
-0.131999
-0.160839
-0.185069
-0.203420
-0.218133
-0.230204
-0.236730
-0.232933
-0.217084
-0.192281
-0.164463
-0.140509
-0.126876
-0.126538
-0.135575
-0.145290
-0.149278
-0.147497
-0.144592
-0.144630
-0.146304
-0.144993
-0.139574
-0.133602
-0.130377
-0.130687
-0.134697
-0.142381
-0.151517
-0.157402
-0.155400
-0.144009
-0.126795
-0.111823
-0.108946
-0.126378
-0.166361
-0.219964
-0.265434
-0.279299
-0.255048
-0.207213
-0.158155
-0.124013
-0.108151
-0.104624
-0.107240
-0.113315
-0.121203
-0.128783
-0.134260
-0.135647
-0.129786
-0.116097
-0.102228
-0.100050
-0.113677
-0.135793
-0.155681
-0.169072
-0.182368
-0.205392
-0.238333
-0.270537
-0.291357
-0.296801
-0.288069
-0.269147
-0.245941
-0.224573
-0.208778
-0.199631
-0.197592
-0.203115
-0.214838
-0.227690
-0.233640
-0.227645
-0.214526
-0.205261
-0.205117
-0.210471
-0.216111
-0.220304
-0.223936
-0.228408
-0.234401
-0.240745
-0.243115
-0.234404
-0.208339
-0.166441
-0.123184
-0.098163
-0.099364
-0.118399
-0.140399
-0.154025
-0.155829
-0.150092
-0.145846
-0.152172
-0.172429
-0.200076
-0.218754
-0.210115
-0.166279
-0.095281
-0.016813
0.046875
0.080952
0.083595
0.065106
0.040408
0.018962
0.002076
-0.012252
-0.025807
-0.040243
-0.057316
-0.077886
-0.100873
-0.123073
-0.140061
-0.147408
-0.140924
-0.117151
-0.077264
-0.031798
0.002820
0.015137
0.005268
-0.016749
-0.038058
-0.051394
-0.057928
-0.064027
-0.076427
-0.098106
-0.126151
-0.151843
-0.163211
-0.150067
-0.110184
-0.053761
-0.000353
0.031136
0.031397
0.004455
-0.035861
-0.074334
-0.100398
-0.110231
-0.107171
-0.100747
-0.102579
-0.119825
-0.150916
-0.185774
-0.210920
-0.217220
-0.203926
-0.176788
-0.141783
-0.099293
-0.047584
0.007536
0.052500
0.076751
0.081402
0.079007
0.083562
0.097936
0.114687
0.127968
0.136970
0.139434
0.130809
0.111166
0.087662
0.068899
0.057501
0.047233
0.030757
0.011876
0.003310
0.011369
0.029497
0.045598
0.051563
0.048072
0.041507
0.036546
0.034078
0.034766
0.040334
0.050817
0.062342
0.067897
0.061304
0.042148
0.016362
-0.008081
-0.026245
-0.039167
-0.051961
-0.068287
-0.086851
-0.101969
-0.107516
-0.101861
-0.088724
-0.073145
-0.056006
-0.030829
0.011947
0.074836
0.147256
0.208269
0.238493
0.234889
0.213028
0.195775
0.200996
0.234606
0.291104
0.358442
0.420082
0.455530
0.447534
0.393586
0.307379
0.209040
0.116476
0.042460
-0.004626
-0.020032
-0.005814
0.025474
0.056448
0.076577
0.083124
0.072465
0.040604
-0.005932
-0.046568
-0.056411
-0.022052
0.046824
0.124930
0.192432
0.243142
0.276796
0.293481
0.295280
0.287913
0.279588
0.279441
0.296183
0.335072
0.393521
0.459344
0.514028
0.541324
0.536381
0.504831
0.454759
0.397051
0.352194
0.344516
0.384390
0.460778
0.550696
0.635589
0.712902
0.788286
0.856422
0.900889
0.912853
0.898230
0.866975
0.822145
0.758527
0.672339
0.573157
0.479350
0.401192
0.338116
0.291536
0.269942
0.280697
0.321285
0.378064
0.435304
0.487216
0.535567
0.575685
0.593621
0.577286
0.524766
0.443551
0.344722
0.237534
0.130955
0.039478
-0.018456
-0.030521
0.000938
0.057307
0.111456
0.141348
0.138574
0.107873
0.059300
-0.000928
-0.069472
-0.137325
-0.189709
-0.215616
-0.213290
-0.187114
-0.140655
-0.071515
0.025500
0.150790
0.301081
0.476704
0.677542
0.889121
1.080412
1.216185
1.268308
1.220950
1.074061
0.846884
0.578383
0.321848
0.131975
0.048205
0.085300
0.232093
0.453329
0.698209
0.925291
1.131313
1.344720
1.587838
1.856687
2.129415
2.380364
2.588906
2.743293
2.842289
2.894545
2.910881
2.884591
2.775241
2.533059
2.149210
1.661827
1.115396
0.538068
-0.046856
-0.606223
-1.098019
-1.492525
-1.796749
-2.044018
-2.254530
-2.417439
-2.504700
-2.490603
-2.365293
-2.141925
-1.857199
-1.560627
-1.294173
-1.074675
-0.887148
-0.696512
-0.472875
-0.209663
0.074311
0.348617
0.589171
0.775799
0.873950
0.835479
0.626195
0.258046
-0.195607
-0.627878
-0.957503
-1.163482
-1.278231
-1.353802
-1.421419
-1.477532
-1.499967
-1.472240
-1.399725
-1.301217
-1.183158
-1.028037
-0.803871
-0.480952
-0.047109
0.485658
1.085290
1.713853
2.344953
2.967677
3.576510
4.162642
4.713929
5.223707
5.700844
6.164745
6.627315
7.081151
7.496598
7.819140
7.973835
7.897432
7.582846
7.077634
6.435993
5.684918
4.827515
3.871752
2.857875
1.842670
0.856506
-0.095180
-0.987282
-1.762034
-2.362739
-2.769492
-3.012988
-3.159445
-3.277524
-3.414208
-3.583384
-3.756743
-3.860935
-3.801532
-3.509349
-2.971965
-2.235484
-1.378668
-0.474021
0.431652
1.311378
2.143309
2.900529
3.558149
4.109888
4.566699
4.937538
5.219416
5.403173
5.482335
5.459331
5.349100
5.179606
4.985031
4.791081
4.599453
4.382050
4.100698
3.741157
3.320330
2.865654
2.403349
1.962653
1.574939
1.260997
1.017812
0.815315
0.612720
0.385291
0.132537
-0.132126
-0.384851
-0.587577
-0.700046
-0.705126
-0.615634
-0.458437
-0.259752
-0.041612
0.174013
0.362645
0.508885
0.623482
0.735646
0.863497
1.000298
1.124649
1.215889
1.265695
1.284194
1.300079
1.352182
1.475070
1.688568
1.993208
2.368801
2.777667
3.178384
3.545566
3.876287
4.177674
4.445931
4.653222
4.767114
4.788557
4.753481
4.696907
4.631344
4.552817
4.452180
4.319490
4.140675
3.894229
3.561138
3.142313
2.659549
2.142136
1.625393
1.159249
0.797327
0.568059
0.464222
0.458778
0.525942
0.653307
0.835991
1.061912
1.313547
1.583089
1.871349
2.170164
2.458258
2.715835
2.937361
3.132650
3.316367
3.493644
3.657277
3.795370
3.893791
3.931845
3.883919
3.730982
3.475304
3.150444
2.814438
2.527565
2.331283
2.238302
2.240623
2.327518
2.489758
2.710091
2.961987
3.221050
3.475322
3.726878
3.983109
4.243914
4.499329
4.737044
4.945934
5.114115
5.231059
5.293689
5.306064
5.273093
5.199770
5.096208
4.976887
4.852015
4.720087
4.568299
4.385146
4.177782
3.973070
3.802274
3.689127
3.646080
3.671422
3.746760
3.843015
3.935135
4.014070
4.088045
4.168050
4.247916
4.306679
4.330479
4.320797
4.282873
4.214531
4.106020
3.951558
3.762733
3.563486
3.370748
3.188300
3.016050
2.853437
2.694188
2.528000
2.350564
2.167303
1.987099
1.814585
1.648134
1.488394
1.348849
1.246908
1.181870
1.134612
1.090069
1.049735
1.026453
1.037048
1.099151
1.227823
1.427104
1.675772
1.918724
2.088847
2.150644
2.118616
2.041217
1.974962
1.961697
2.015364
2.119548
2.237515
2.332302
2.384947
2.401308
2.397765
2.376622
2.325284
2.238912
2.132396
2.032122
1.960765
1.924955
1.913831
1.907297
1.886188
1.842192
1.786810
1.754216
1.786309
1.904858
2.096098
2.314366
2.496662
2.582551
2.533562
2.347198
2.056120
1.712716
1.370098
1.066613
0.820974
0.636096
0.502845
0.403989
0.325206
0.268887
0.252417
0.290223
0.378341
0.491009
0.591977
0.652747
0.659019
0.606165
0.501439
0.373529
0.271520
0.248123
0.337026
0.536138
0.813601
1.131657
1.461357
1.782622
2.081933
2.351878
2.588768
2.787330
2.937015
3.022957
3.032738
2.964602
2.826375
2.626393
2.369932
2.063781
1.721025
1.361546
1.006985
0.673551
0.370997
0.107732
-0.106137
-0.260778
-0.351361
-0.381154
-0.356771
-0.279453
-0.146394
0.039139
0.265331
0.518763
0.787607
1.056662
1.299963
1.478861
1.555675
1.516084
1.374429
1.159752
0.902335
0.627150
0.350335
0.078502
-0.183958
-0.421795
-0.603377
-0.687608
-0.639972
-0.448777
-0.124851
0.312344
0.840777
1.432412
2.056512
2.690930
3.325416
3.951755
4.548539
5.071870
5.469233
5.710612
5.805297
5.796164
5.742318
5.698825
5.702653
5.766317
5.878171
6.009775
6.130832
6.226204
6.299523
6.361700
6.416789
6.453669
6.451207
6.393151
6.277145
6.113744
5.920260
5.713592
5.506364
5.306464
5.117664
4.940961
4.777546
4.632174
4.512543
4.424618
4.368107
4.333231
4.298038
4.227164
4.076261
3.803431
3.383959
2.820884
2.137870
1.358935
0.499218
-0.428701
-1.406883
-2.410624
-3.415209
-4.401892
-5.345151
-6.189708
-6.855316
-7.272887
-7.419291
-7.333060
-7.102214
-6.833057
-6.625722
-6.559629
-6.676566
-6.964163
-7.361782
-7.791140
-8.190507
-8.537935
-8.849394
-9.156818
-9.489957
-9.868608
-10.299800
-10.777470
-11.286470
-11.811650
-12.347950
-12.906490
-13.507910
-14.165880
-14.876480
-15.618610
-16.361790
-17.076691
-17.741171
-18.341169
-18.870979
-19.333910
-19.741020
-20.107290
-20.446270
-20.765110
-21.062830
-21.331980
-21.561060
-21.735929
-21.838989
-21.847969
-21.738190
-21.486570
-21.070200
-20.462170
-19.638889
-18.600700
-17.391760
-16.107571
-14.875530
-13.813210
-12.991830
-12.417340
-12.035380
-11.757790
-11.498190
-11.204520
-10.868530
-10.512360
-10.172230
-9.887799
-9.699179
-9.647105
-9.767445
-10.081370
-10.592200
-11.290150
-12.156750
-13.166090
-14.285500
-15.477670
-16.705151
-17.936710
-19.152140
-20.342100
-21.498800
-22.600500
-23.603451
-24.447399
-25.075800
-25.463940
-25.635509
-25.660080
-25.631571
-25.635201
-25.722851
-25.904209
-26.153980
-26.428890
-26.679951
-26.858231
-26.921400
-26.842220
-26.612400
-26.239031
-25.735260
-25.109030
-24.358330
-23.474960
-22.453640
-21.302200
-20.044880
-18.716410
-17.349800
-15.963540
-14.559690
-13.132690
-11.677580
-10.193030
-8.679587
-7.136459
-5.562940
-3.963064
-2.345515
-0.718155
0.915662
2.556158
4.203017
5.851580
7.494939
9.129969
10.757830
12.378660
13.989050
15.583670
17.156000
18.696791
20.193291
21.630239
22.990379
24.252710
25.387699
26.354731
27.112360
27.637480
27.931931
28.013411
27.904650
27.626419
27.193331
26.610640
25.872219
24.962530
23.868000
22.592791
21.162451
19.614559
17.991171
16.336590
14.694490
13.101590
11.580420
10.135020
8.755993
7.431839
6.154611
4.918025
3.716237
2.547123
1.419506
0.360144
-0.588689
-1.381645
-1.984569
-2.384583
-2.589183
-2.615645
-2.480129
-2.190528
-1.744641
-1.132831
-0.343164
0.631159
1.782315
3.079544
4.470738
5.894665
7.295921
8.636842
9.899832
11.081150
12.184050
13.213830
14.173380
15.058680
15.855220
16.537140
17.071720
17.428980
17.591311
17.559589
17.351139
16.990490
16.499460
15.890460
15.165390
14.319410
13.345810
12.241010
11.010590
9.676152
8.279660
6.882921
5.558676
4.374297
3.375451
2.575978
1.962113
1.508098
1.187609
0.975872
0.845725
0.763678
0.695297
0.617460
0.523537
0.419754
0.322204
0.257404
0.262056
0.378209
0.641291
1.065481
1.639567
2.334585
3.113595
3.939438
4.779980
5.611350
6.418834
7.194444
7.930252
8.609880
9.205963
9.685787
10.022340
10.206490
10.251950
10.190770
10.062460
9.900701
9.725790
9.544151
9.351888
9.140194
8.900332
8.627217
8.320309
7.981756
7.613114
7.212334
6.773967
6.292339
5.764291
5.190352
4.574942
3.926307
3.256860
2.583796
1.929007
1.317974
0.777485
0.331909
-0.002215
-0.222064
-0.340842
-0.384692
-0.384132
-0.362747
-0.330493
-0.283389
-0.207421
-0.084764
0.100153
0.355674
0.680399
1.064169
1.493285
1.957342
2.450389
2.966128
3.493771
4.017481
4.519309
4.983397
5.396766
5.746518
6.017538
6.192630
6.255505
6.195388
6.009816
5.704189
5.288170
4.771137
4.161661
3.470872
2.714640
1.913185
1.089731
0.268926
-0.525549
-1.274777
-1.969443
-2.613388
-3.220720
-3.807203
-4.383277
-4.951651
-5.509112
-6.050155
-6.567700
-7.050793
-7.483320
-7.845164
-8.114843
-8.272150
-8.298945
-8.179283
-7.903064
-7.472925
-6.908840
-6.247886
-5.538511
-4.830979
-4.168574
-3.581139
-3.081457
-2.664960
-2.313938
-2.005476
-1.719247
-1.443067
-1.174264
-0.917112
-0.678495
-0.462903
-0.268403
-0.085241
0.100015
0.295673
0.497779
0.688792
0.845490
0.952232
1.006744
1.016062
0.989364
0.931878
0.843037
0.718403
0.552576
0.342489
0.091196
-0.189789
-0.484235
-0.779108
-1.067396
-1.345061
-1.609152
-1.858654
-2.094340
-2.316303
-2.521072
-2.700379
-2.843784
-2.943127
-2.992791
-2.987034
-2.922481
-2.804967
-2.650403
-2.478278
-2.305681
-2.145388
-2.007778
-1.903843
-1.844176
-1.834606
-1.874697
-1.960490
-2.088195
-2.256512
-2.465902
-2.715944
-3.004454
-3.328260
-3.682433
-4.058386
-4.445198
-4.834286
-5.222333
-5.609574
-5.993058
-6.359642
-6.689485
-6.967952
-7.190775
-7.360534
-7.484095
-7.572598
-7.638133
-7.688371
-7.727957
-7.764287
-7.803642
-7.838760
-7.845723
-7.794549
-7.664056
-7.452655
-7.175979
-6.854992
-6.509596
-6.157604
-5.807822
-5.452719
-5.081818
-4.705395
-4.346233
-4.008409
-3.682089
-3.378720
-3.126469
-2.925396
-2.735619
-2.514300
-2.254208
-1.988250
-1.740099
-1.466073
-1.096695
-0.643384
-0.193796
0.196628
0.527747
0.774486
0.860097
0.724682
0.402294
0.033009
-0.244909
-0.444539
-0.701998
-1.092562
-1.556776
-1.985652
-2.309041
-2.518991
-2.641811
-2.696291
-2.689726
-2.643734
-2.593061
-2.556164
-2.529522
-2.509726
-2.499498
-2.492704
-2.472847
-2.429215
-2.363088
-2.279259
-2.181909
-2.079470
-1.987568
-1.925464
-1.908543
-1.940960
-2.014099
-2.109617
-2.200814
-2.254295
-2.240827
-2.150882
-1.994721
-1.786702
-1.534172
-1.237927
-0.899339
-0.527677
-0.138815
0.253748
0.645060
1.037089
1.428578
1.801829
2.120348
2.339897
2.424887
2.362848
2.166898
1.866140
1.493112
1.073919
0.626163
0.163398
-0.300835
-0.751295
-1.170033
-1.535364
-1.822309
-2.006594
-2.074022
-2.030834
-1.902619
-1.721962
-1.517706
-1.309978
-1.108620
-0.913614
-0.717936
-0.512682
-0.292360
-0.058770
0.178538
0.405140
0.605559
0.766222
0.875473
0.921369
0.891252
0.775010
0.571479
0.293889
-0.034327
-0.391495
-0.764693
-1.149474
-1.548393
-1.968809
-2.415024
-2.876898
-3.327335
-3.732007
-4.065318
-4.324354
-4.527035
-4.695549
-4.841713
-4.962686
-5.049946
-5.104606
-5.140206
-5.170125
-5.192833
-5.186234
-5.122215
-4.991997
-4.810481
-4.597897
-4.365883
-4.116954
-3.850165
-3.566063
-3.265197
-2.943494
-2.594940
-2.219748
-1.824586
-1.415860
-1.001699
-0.603346
-0.259876
-0.019971
0.075747
0.013440
-0.190301
-0.500486
-0.877714
-1.287875
-1.705398
-2.111201
-2.488747
-2.820586
-3.088706
-3.278704
-3.384588
-3.412194
-3.379051
-3.310763
-3.235789
-3.179658
-3.160150
-3.184922
-3.253643
-3.362918
-3.508103
-3.682181
-3.877343
-4.089380
-4.319018
-4.568805
-4.839118
-5.126442
-5.426564
-5.739598
-6.067894
-6.408264
-6.750481
-7.083557
-7.400728
-7.699111
-7.974640
-8.215730
-8.402652
-8.513250
-8.529946
-8.445225
-8.263526
-7.999505
-7.674051
-7.309484
-6.926257
-6.541252
-6.166345
-5.807626
-5.467406
-5.148389
-4.855913
-4.597213
-4.379299
-4.206848
-4.081565
-4.002757
-3.967463
-3.969775
-4.000418
-4.047528
-4.099470
-4.148742
-4.193491
-4.235438
-4.275250
-4.307977
-4.323857
-4.314316
-4.277282
-4.218888
-4.150221
-4.080537
-4.011785
-3.936783
-3.842325
-3.715599
-3.548814
-3.340765
-3.096915
-2.829230
-2.556541
-2.304474
-2.102315
-1.976800
-1.945842
-2.013826
-2.170101
-2.391550
-2.649570
-2.919237
-3.184171
-3.435550
-3.667842
-3.873711
-4.041746
-4.157835
-4.209183
-4.189429
-4.101652
-3.957911
-3.775256
-3.570265
-3.356871
-3.147140
-2.950037
-2.767833
-2.594645
-2.418617
-2.226233
-2.006882
-1.754908
-1.469221
-1.152743
