EVENT_NAME: EMILIA_2ND_SHOCK
EVENT_ID: IT-2012-0011
EVENT_DATE_YYYYMMDD: 20120529
EVENT_TIME_HHMMSS: 070002
EVENT_LATITUDE_DEGREE: 44.8417
EVENT_LONGITUDE_DEGREE: 11.0657
EVENT_DEPTH_KM: 8.1
HYPOCENTER_REFERENCE: INGV-CNT_Seismic_Bulletin
MAGNITUDE_W: 6.0
MAGNITUDE_W_REFERENCE: RCMT-INGV
MAGNITUDE_L: 5.8
MAGNITUDE_L_REFERENCE: INGV-CNT_Seismic_Bulletin
FOCAL_MECHANISM: TF
NETWORK: IV
STATION_CODE: T0811
STATION_NAME: T0811
STATION_LATITUDE_DEGREE: 44.783800
STATION_LONGITUDE_DEGREE: 11.226500
STATION_ELEVATION_M: 10
LOCATION: 
SENSOR_DEPTH_M: 1.0
VS30_M/S: 
SITE_CLASSIFICATION_EC8: C*
MORPHOLOGIC_CLASSIFICATION: 
EPICENTRAL_DISTANCE_KM: 14.3
EARTHQUAKE_BACKAZIMUTH_DEGREE: 296.9
DATE_TIME_FIRST_SAMPLE_YYYYMMDD_HHMMSS: 20120529_065952.000
DATE_TIME_FIRST_SAMPLE_PRECISION: milliseconds
SAMPLING_INTERVAL_S: 0.005000
NDATA: 30001
DURATION_S: 150.005
STREAM: HNE
UNITS: cm
INSTRUMENT: sensor = Episensor FBA ES-T [Kinemetrics] | digitizer = Unknown [Unknown]
INSTRUMENT_ANALOG/DIGITAL: D
INSTRUMENTAL_FREQUENCY_HZ: 
INSTRUMENTAL_DAMPING: 
FULL_SCALE_G: 
N_BIT_DIGITAL_CONVERTER: 
PGD_CM: -3.213792
TIME_PGD_S: 20.795000
BASELINE_CORRECTION: BASELINE REMOVED
FILTER_TYPE: BUTTERWORTH
FILTER_ORDER: 2
LOW_CUT_FREQUENCY_HZ: 0.060
HIGH_CUT_FREQUENCY_HZ: 40.000
LATE/NORMAL_TRIGGERED: NT
DATABASE_VERSION: DYNA 1.0
HEADER_FORMAT: DYNA 1.2
DATA_TYPE: DISPLACEMENT
PROCESSING: manual (Paolucci et al., 2011)
DATA_TIMESTAMP_YYYYMMDD_HHMMSS: 
DATA_LICENSE: CC-BY4_0 (http://creativecommons.org/licenses/by/4.0/)
DATA_CITATION: ESM working group (2015), European Strong-Motion database, version 0.1, Network Activity 3: Networking acceleration networks and SM data users. Project NERA (www.nera-eu.org)
DATA_CREATOR: ESM working group
ORIGINAL_DATA_MEDIATOR_CITATION: Orfeus - European Integrated Data Archive (EIDA) http://www.orfeus-eu.org/eida/
ORIGINAL_DATA_MEDIATOR: Orfeus - European Integrated Data Archive (EIDA)
ORIGINAL_DATA_CREATOR_CITATION: Data for this study comes from the Italian national seismic network operated by Istituto Nazionale di Geofisica e Vulcanologia and archived at the European Integrated Data Archive http://eida.rm.ingv.it/
ORIGINAL_DATA_CREATOR: network: IV (Italian National Seismic Network); owner: Istituto Nazionale di Geofisica e Vulcanologia
USER1: 
USER2: 
USER3: 
USER4: 
USER5: 
[...]
1.866950e-01
1.872524e-01
1.876383e-01
1.877590e-01
1.876123e-01
1.872768e-01
1.868790e-01
1.865562e-01
1.864200e-01
1.865232e-01
1.868476e-01
1.873229e-01
1.878594e-01
1.883716e-01
1.887887e-01
1.890606e-01
1.891613e-01
1.890905e-01
1.888713e-01
1.885502e-01
1.881955e-01
1.878865e-01
1.876898e-01
1.876389e-01
1.877285e-01
1.879200e-01
1.881504e-01
1.883471e-01
1.884503e-01
1.884357e-01
1.883242e-01
1.881777e-01
1.880788e-01
1.880963e-01
1.882530e-01
1.885158e-01
1.888107e-01
1.890530e-01
1.891776e-01
1.891631e-01
1.890408e-01
1.888858e-01
1.887935e-01
1.888496e-01
1.891014e-01
1.895357e-01
1.900720e-01
1.905860e-01
1.909602e-01
1.911356e-01
1.911262e-01
1.909949e-01
1.908165e-01
1.906556e-01
1.905603e-01
1.905655e-01
1.906917e-01
1.909331e-01
1.912506e-01
1.915863e-01
1.918884e-01
1.921225e-01
1.922656e-01
1.923070e-01
1.922678e-01
1.922172e-01
1.922566e-01
1.924717e-01
1.928911e-01
1.934791e-01
1.941578e-01
1.948335e-01
1.954187e-01
1.958519e-01
1.961191e-01
1.962618e-01
1.963626e-01
1.965078e-01
1.967458e-01
1.970727e-01
1.974517e-01
1.978407e-01
1.982003e-01
1.984893e-01
1.986718e-01
1.987382e-01
1.987162e-01
1.986629e-01
1.986475e-01
1.987341e-01
1.989638e-01
1.993374e-01
1.998135e-01
2.003300e-01
2.008335e-01
2.012999e-01
2.017358e-01
2.021656e-01
2.026059e-01
2.030422e-01
2.034294e-01
2.037221e-01
2.039081e-01
2.040167e-01
2.041011e-01
2.042146e-01
2.043910e-01
2.046271e-01
2.048766e-01
2.050738e-01
2.051793e-01
2.052063e-01
2.051993e-01
2.051920e-01
2.051918e-01
2.051985e-01
2.052195e-01
2.052666e-01
2.053544e-01
2.055094e-01
2.057650e-01
2.061252e-01
2.065339e-01
2.068976e-01
2.071478e-01
2.072840e-01
2.073701e-01
2.074989e-01
2.077585e-01
2.082029e-01
2.088322e-01
2.095892e-01
2.103813e-01
2.111188e-01
2.117469e-01
2.122507e-01
2.126354e-01
2.129074e-01
2.130729e-01
2.131500e-01
2.131772e-01
2.132152e-01
2.133384e-01
2.136168e-01
2.140843e-01
2.147139e-01
2.154263e-01
2.161308e-01
2.167581e-01
2.172598e-01
2.175993e-01
2.177639e-01
2.177908e-01
2.177718e-01
2.178251e-01
2.180602e-01
2.185527e-01
2.193301e-01
2.203540e-01
2.215146e-01
2.226597e-01
2.236520e-01
2.244140e-01
2.249321e-01
2.252341e-01
2.253640e-01
2.253665e-01
2.252827e-01
2.251581e-01
2.250532e-01
2.250384e-01
2.251633e-01
2.254200e-01
2.257398e-01
2.260330e-01
2.262398e-01
2.263545e-01
2.264167e-01
2.264874e-01
2.266260e-01
2.268683e-01
2.272136e-01
2.276274e-01
2.280638e-01
2.284973e-01
2.289439e-01
2.294543e-01
2.300804e-01
2.308376e-01
2.316906e-01
2.325718e-01
2.334140e-01
2.341710e-01
2.348234e-01
2.353762e-01
2.358518e-01
2.362717e-01
2.366374e-01
2.369323e-01
2.371449e-01
2.372917e-01
2.374210e-01
2.376026e-01
2.379123e-01
2.384082e-01
2.391010e-01
2.399398e-01
2.408248e-01
2.416405e-01
2.422887e-01
2.427162e-01
2.429352e-01
2.430212e-01
2.430767e-01
2.431792e-01
2.433550e-01
2.435895e-01
2.438465e-01
2.440787e-01
2.442410e-01
2.443114e-01
2.442997e-01
2.442320e-01
2.441244e-01
2.439724e-01
2.437606e-01
2.434731e-01
2.430983e-01
2.426330e-01
2.420910e-01
2.415047e-01
2.409141e-01
2.403505e-01
2.398307e-01
2.393605e-01
2.389394e-01
2.385595e-01
2.382088e-01
2.378833e-01
2.375941e-01
2.373573e-01
2.371758e-01
2.370328e-01
2.369025e-01
2.367658e-01
2.366169e-01
2.364625e-01
2.363187e-01
2.362072e-01
2.361497e-01
2.361598e-01
2.362371e-01
2.363738e-01
2.365685e-01
2.368318e-01
2.371695e-01
2.375594e-01
2.379484e-01
2.382726e-01
2.384767e-01
2.385175e-01
2.383707e-01
2.380566e-01
2.376621e-01
2.373211e-01
2.371574e-01
2.372333e-01
2.375329e-01
2.379713e-01
2.384190e-01
2.387450e-01
2.388672e-01
2.387809e-01
2.385465e-01
2.382457e-01
2.379347e-01
2.376219e-01
2.372815e-01
2.368849e-01
2.364202e-01
2.358889e-01
2.352945e-01
2.346450e-01
2.339630e-01
2.332804e-01
2.326140e-01
2.319510e-01
2.312641e-01
2.305391e-01
2.297831e-01
2.290100e-01
2.282291e-01
2.274505e-01
2.266952e-01
2.259939e-01
2.253729e-01
2.248385e-01
2.243669e-01
2.239056e-01
2.233924e-01
2.227828e-01
2.220766e-01
2.213334e-01
2.206660e-01
2.201943e-01
2.199713e-01
2.199340e-01
2.199261e-01
2.197716e-01
2.193480e-01
2.186321e-01
2.177133e-01
2.167681e-01
2.159905e-01
2.155087e-01
2.153313e-01
2.153472e-01
2.153674e-01
2.151811e-01
2.146029e-01
2.135108e-01
2.118797e-01
2.097972e-01
2.074452e-01
2.050582e-01
2.028724e-01
2.010654e-01
1.996991e-01
1.986971e-01
1.978773e-01
1.970287e-01
1.959926e-01
1.947049e-01
1.931883e-01
1.915228e-01
1.898173e-01
1.881814e-01
1.866902e-01
1.853699e-01
1.842208e-01
1.832433e-01
1.824185e-01
1.816525e-01
1.807562e-01
1.795128e-01
1.777917e-01
1.756123e-01
1.731187e-01
1.705184e-01
1.680297e-01
1.658290e-01
1.639993e-01
1.625137e-01
1.612690e-01
1.601325e-01
1.589670e-01
1.576439e-01
1.560636e-01
1.541697e-01
1.519389e-01
1.493705e-01
1.465165e-01
1.435249e-01
1.406212e-01
1.380164e-01
1.358075e-01
1.339321e-01
1.321846e-01
1.302752e-01
1.279144e-01
1.249050e-01
1.212110e-01
1.169792e-01
1.124886e-01
1.080348e-01
1.038142e-01
9.987713e-02
9.616333e-02
9.257057e-02
8.900350e-02
8.538833e-02
8.167124e-02
7.781694e-02
7.380941e-02
6.965432e-02
6.538572e-02
6.106890e-02
5.678785e-02
5.262082e-02
4.861432e-02
4.476314e-02
4.101015e-02
3.727823e-02
3.351824e-02
2.973000e-02
2.593788e-02
2.215475e-02
1.836919e-02
1.454985e-02
1.064966e-02
6.619727e-03
2.445639e-03
-1.826558e-03
-6.118218e-03
-1.037786e-02
-1.460260e-02
-1.879725e-02
-2.293122e-02
-2.695623e-02
-3.086352e-02
-3.470837e-02
-3.857558e-02
-4.253261e-02
-4.660905e-02
-5.078744e-02
-5.498580e-02
-5.904795e-02
-6.277090e-02
-6.597689e-02
-6.860068e-02
-7.073473e-02
-7.258454e-02
-7.435507e-02
-7.616132e-02
-7.802674e-02
-7.993269e-02
-8.184545e-02
-8.370637e-02
-8.543485e-02
-8.698009e-02
-8.839054e-02
-8.983511e-02
-9.154367e-02
-9.370660e-02
-9.640698e-02
-9.961401e-02
-1.032074e-01
-1.070140e-01
-1.108693e-01
-1.146873e-01
-1.184871e-01
-1.223524e-01
-1.263637e-01
-1.305630e-01
-1.349588e-01
-1.395505e-01
-1.443571e-01
-1.494300e-01
-1.548222e-01
-1.605116e-01
-1.663413e-01
-1.720451e-01
-1.773502e-01
-1.821012e-01
-1.863643e-01
-1.904659e-01
-1.949201e-01
-2.002501e-01
-2.067820e-01
-2.145066e-01
-2.230633e-01
-2.318744e-01
-2.403746e-01
-2.481858e-01
-2.551410e-01
-2.612283e-01
-2.665673e-01
-2.714241e-01
-2.761820e-01
-2.812395e-01
-2.869058e-01
-2.933663e-01
-3.006972e-01
-3.088543e-01
-3.176306e-01
-3.266477e-01
-3.354221e-01
-3.434857e-01
-3.505214e-01
-3.564668e-01
-3.615594e-01
-3.663063e-01
-3.713523e-01
-3.772543e-01
-3.842639e-01
-3.922535e-01
-4.008090e-01
-4.094019e-01
-4.175653e-01
-4.250433e-01
-4.318586e-01
-4.382337e-01
-4.444029e-01
-4.504413e-01
-4.562241e-01
-4.615262e-01
-4.661827e-01
-4.702056e-01
-4.737753e-01
-4.771078e-01
-4.802798e-01
-4.831363e-01
-4.853455e-01
-4.865796e-01
-4.867190e-01
-4.859567e-01
-4.847281e-01
-4.835166e-01
-4.826844e-01
-4.824177e-01
-4.827532e-01
-4.836296e-01
-4.849406e-01
-4.865612e-01
-4.883348e-01
-4.900559e-01
-4.915012e-01
-4.924947e-01
-4.929535e-01
-4.929132e-01
-4.925600e-01
-4.922366e-01
-4.923472e-01
-4.931698e-01
-4.947258e-01
-4.968221e-01
-4.992004e-01
-5.016435e-01
-5.039750e-01
-5.060089e-01
-5.075455e-01
-5.084304e-01
-5.086150e-01
-5.081451e-01
-5.071057e-01
-5.056209e-01
-5.039182e-01
-5.023332e-01
-5.011652e-01
-5.004796e-01
-5.000439e-01
-4.994446e-01
-4.982571e-01
-4.961466e-01
-4.929132e-01
-4.885450e-01
-4.832508e-01
-4.774186e-01
-4.715257e-01
-4.660486e-01
-4.613608e-01
-4.576328e-01
-4.548012e-01
-4.526518e-01
-4.509604e-01
-4.495908e-01
-4.485081e-01
-4.477504e-01
-4.474211e-01
-4.476976e-01
-4.487923e-01
-4.508425e-01
-4.538011e-01
-4.574228e-01
-4.613578e-01
-4.652906e-01
-4.690522e-01
-4.726508e-01
-4.762053e-01
-4.798281e-01
-4.835527e-01
-4.873524e-01
-4.911974e-01
-4.950760e-01
-4.989771e-01
-5.028903e-01
-5.068279e-01
-5.108123e-01
-5.148230e-01
-5.187804e-01
-5.226104e-01
-5.263156e-01
-5.299601e-01
-5.335949e-01
-5.372411e-01
-5.409630e-01
-5.449247e-01
-5.493233e-01
-5.542493e-01
-5.596143e-01
-5.651999e-01
-5.707634e-01
-5.761265e-01
-5.812332e-01
-5.861730e-01
-5.911418e-01
-5.963404e-01
-6.018575e-01
-6.075983e-01
-6.132876e-01
-6.185357e-01
-6.229277e-01
-6.261045e-01
-6.278421e-01
-6.281300e-01
-6.272015e-01
-6.254713e-01
-6.234077e-01
-6.214259e-01
-6.198589e-01
-6.189879e-01
-6.190595e-01
-6.202505e-01
-6.226110e-01
-6.260524e-01
-6.304022e-01
-6.354887e-01
-6.411891e-01
-6.474174e-01
-6.540964e-01
-6.611626e-01
-6.685909e-01
-6.763940e-01
-6.845797e-01
-6.930946e-01
-7.017953e-01
-7.104784e-01
-7.189564e-01
-7.271099e-01
-7.348658e-01
-7.421299e-01
-7.487503e-01
-7.545561e-01
-7.594372e-01
-7.634026e-01
-7.665860e-01
-7.692165e-01
-7.715796e-01
-7.739588e-01
-7.765463e-01
-7.793528e-01
-7.821965e-01
-7.848122e-01
-7.870141e-01
-7.887831e-01
-7.902385e-01
-7.915681e-01
-7.929774e-01
-7.946532e-01
-7.967315e-01
-7.992841e-01
-8.023216e-01
-8.057866e-01
-8.095669e-01
-8.135670e-01
-8.177867e-01
-8.223029e-01
-8.271494e-01
-8.322257e-01
-8.373384e-01
-8.423094e-01
-8.470332e-01
-8.514723e-01
-8.556580e-01
-8.597118e-01
-8.638238e-01
-8.681688e-01
-8.728310e-01
-8.778062e-01
-8.830511e-01
-8.884940e-01
-8.940051e-01
-8.993997e-01
-9.045037e-01
-9.092229e-01
-9.135660e-01
-9.176468e-01
-9.217023e-01
-9.260945e-01
-9.312402e-01
-9.374545e-01
-9.447818e-01
-9.529442e-01
-9.614500e-01
-9.697530e-01
-9.773528e-01
-9.838529e-01
-9.890424e-01
-9.929789e-01
-9.959877e-01
-9.985411e-01
-1.001092e+00
-1.003971e+00
-1.007377e+00
-1.011385e+00
-1.015936e+00
-1.020849e+00
-1.025875e+00
-1.030759e+00
-1.035299e+00
-1.039371e+00
-1.042951e+00
-1.046148e+00
-1.049217e+00
-1.052527e+00
-1.056495e+00
-1.061507e+00
-1.067827e+00
-1.075507e+00
-1.084338e+00
-1.093904e+00
-1.103732e+00
-1.113434e+00
-1.122773e+00
-1.131651e+00
-1.140065e+00
-1.148076e+00
-1.155787e+00
-1.163299e+00
-1.170650e+00
-1.177794e+00
-1.184603e+00
-1.190915e+00
-1.196598e+00
-1.201607e+00
-1.206010e+00
-1.209951e+00
-1.213580e+00
-1.216971e+00
-1.220084e+00
-1.222782e+00
-1.224862e+00
-1.226076e+00
-1.226162e+00
-1.224936e+00
-1.222419e+00
-1.218888e+00
-1.214811e+00
-1.210728e+00
-1.207138e+00
-1.204415e+00
-1.202713e+00
-1.201895e+00
-1.201563e+00
-1.201213e+00
-1.200442e+00
-1.199070e+00
-1.197154e+00
-1.194914e+00
-1.192640e+00
-1.190596e+00
-1.188985e+00
-1.187991e+00
-1.187811e+00
-1.188633e+00
-1.190576e+00
-1.193651e+00
-1.197791e+00
-1.202890e+00
-1.208812e+00
-1.215377e+00
-1.222350e+00
-1.229484e+00
-1.236582e+00
-1.243536e+00
-1.250343e+00
-1.257117e+00
-1.264111e+00
-1.271691e+00
-1.280223e+00
-1.289930e+00
-1.300829e+00
-1.312748e+00
-1.325373e+00
-1.338288e+00
-1.351026e+00
-1.363173e+00
-1.374494e+00
-1.384995e+00
-1.394893e+00
-1.404539e+00
-1.414330e+00
-1.424633e+00
-1.435718e+00
-1.447732e+00
-1.460698e+00
-1.474498e+00
-1.488857e+00
-1.503364e+00
-1.517592e+00
-1.531256e+00
-1.544287e+00
-1.556787e+00
-1.568938e+00
-1.580963e+00
-1.593125e+00
-1.605695e+00
-1.618883e+00
-1.632757e+00
-1.647201e+00
-1.661958e+00
-1.676700e+00
-1.691110e+00
-1.704929e+00
-1.717999e+00
-1.730297e+00
-1.741952e+00
-1.753223e+00
-1.764427e+00
-1.775858e+00
-1.787698e+00
-1.799993e+00
-1.812684e+00
-1.825711e+00
-1.839100e+00
-1.852940e+00
-1.867268e+00
-1.881973e+00
-1.896813e+00
-1.911532e+00
-1.925986e+00
-1.940189e+00
-1.954301e+00
-1.968563e+00
-1.983210e+00
-1.998393e+00
-2.014135e+00
-2.030335e+00
-2.046793e+00
-2.063264e+00
-2.079540e+00
-2.095517e+00
-2.111210e+00
-2.126712e+00
-2.142151e+00
-2.157639e+00
-2.173244e+00
-2.188947e+00
-2.204633e+00
-2.220114e+00
-2.235189e+00
-2.249722e+00
-2.263698e+00
-2.277240e+00
-2.290564e+00
-2.303892e+00
-2.317356e+00
-2.330926e+00
-2.344423e+00
-2.357590e+00
-2.370198e+00
-2.382121e+00
-2.393362e+00
-2.404021e+00
-2.414253e+00
-2.424240e+00
-2.434163e+00
-2.444169e+00
-2.454343e+00
-2.464706e+00
-2.475237e+00
-2.485917e+00
-2.496757e+00
-2.507837e+00
-2.519292e+00
-2.531265e+00
-2.543858e+00
-2.557124e+00
-2.571088e+00
-2.585767e+00
-2.601185e+00
-2.617372e+00
-2.634367e+00
-2.652160e+00
-2.670624e+00
-2.689492e+00
-2.708413e+00
-2.727043e+00
-2.745114e+00
-2.762459e+00
-2.779041e+00
-2.794987e+00
-2.810588e+00
-2.826207e+00
-2.842134e+00
-2.858494e+00
-2.875267e+00
-2.892389e+00
-2.909844e+00
-2.927707e+00
-2.946114e+00
-2.965201e+00
-2.985031e+00
-3.005540e+00
-3.026495e+00
-3.047523e+00
-3.068198e+00
-3.088128e+00
-3.106986e+00
-3.124495e+00
-3.140414e+00
-3.154553e+00
-3.166788e+00
-3.177068e+00
-3.185451e+00
-3.192130e+00
-3.197432e+00
-3.201736e+00
-3.205346e+00
-3.208419e+00
-3.210948e+00
-3.212802e+00
-3.213792e+00
-3.213741e+00
-3.212557e+00
-3.210278e+00
-3.207079e+00
-3.203226e+00
-3.198995e+00
-3.194609e+00
-3.190192e+00
-3.185742e+00
-3.181102e+00
-3.175968e+00
-3.169954e+00
-3.162695e+00
-3.153926e+00
-3.143508e+00
-3.131399e+00
-3.117620e+00
-3.102237e+00
-3.085365e+00
-3.067173e+00
-3.047868e+00
-3.027674e+00
-3.006796e+00
-2.985390e+00
-2.963546e+00
-2.941293e+00
-2.918611e+00
-2.895463e+00
-2.871808e+00
-2.847602e+00
-2.822788e+00
-2.797286e+00
-2.771008e+00
-2.743887e+00
-2.715897e+00
-2.687049e+00
-2.657386e+00
-2.626990e+00
-2.595971e+00
-2.564451e+00
-2.532533e+00
-2.500281e+00
-2.467734e+00
-2.434914e+00
-2.401832e+00
-2.368480e+00
-2.334839e+00
-2.300887e+00
-2.266619e+00
-2.232070e+00
-2.197347e+00
-2.162643e+00
-2.128210e+00
-2.094301e+00
-2.061118e+00
-2.028777e+00
-1.997298e+00
-1.966590e+00
-1.936461e+00
-1.906674e+00
-1.877017e+00
-1.847370e+00
-1.817708e+00
-1.788058e+00
-1.758447e+00
-1.728894e+00
-1.699437e+00
-1.670138e+00
-1.641081e+00
-1.612372e+00
-1.584147e+00
-1.556583e+00
-1.529855e+00
-1.504078e+00
-1.479290e+00
-1.455499e+00
-1.432764e+00
-1.411249e+00
-1.391208e+00
-1.372874e+00
-1.356331e+00
-1.341425e+00
-1.327792e+00
-1.314945e+00
-1.302347e+00
-1.289442e+00
-1.275675e+00
-1.260544e+00
-1.243687e+00
-1.224940e+00
-1.204323e+00
-1.181968e+00
-1.158030e+00
-1.132618e+00
-1.105757e+00
-1.077384e+00
-1.047397e+00
-1.015707e+00
-9.823037e-01
-9.473012e-01
-9.109379e-01
-8.735178e-01
-8.352949e-01
-7.963670e-01
-7.566603e-01
-7.160316e-01
-6.744120e-01
-6.318689e-01
-5.885401e-01
-5.445134e-01
-4.997493e-01
-4.540873e-01
-4.073004e-01
-3.591512e-01
-3.094205e-01
-2.579111e-01
-2.044365e-01
-1.488119e-01
-9.085394e-02
-3.039802e-02
3.267032e-02
9.839106e-02
1.667323e-01
2.376019e-01
3.108425e-01
3.862171e-01
4.634189e-01
5.421241e-01
6.220571e-01
7.030123e-01
7.848112e-01
8.672221e-01
9.498915e-01
1.032322e+00
1.113904e+00
1.193976e+00
1.271879e+00
1.346966e+00
1.418610e+00
1.486222e+00
1.549333e+00
1.607712e+00
1.661465e+00
1.711072e+00
1.757314e+00
1.801103e+00
1.843291e+00
1.884528e+00
1.925242e+00
1.965666e+00
2.005832e+00
2.045544e+00
2.084378e+00
2.121747e+00
2.157018e+00
2.189604e+00
2.219001e+00
2.244820e+00
2.266808e+00
2.284869e+00
2.299058e+00
2.309551e+00
2.316597e+00
2.320464e+00
2.321405e+00
2.319639e+00
2.315367e+00
2.308839e+00
2.300436e+00
2.290713e+00
2.280376e+00
2.270215e+00
2.261035e+00
2.253600e+00
2.248592e+00
2.246571e+00
2.247952e+00
2.252949e+00
2.261493e+00
2.273145e+00
2.287082e+00
2.302237e+00
2.317526e+00
2.332076e+00
2.345371e+00
2.357271e+00
2.367906e+00
2.377552e+00
2.386556e+00
2.395300e+00
2.404145e+00
2.413346e+00
2.422971e+00
2.432895e+00
2.442857e+00
2.452539e+00
2.461602e+00
2.469712e+00
2.476564e+00
2.481884e+00
2.485418e+00
2.486933e+00
2.486249e+00
2.483294e+00
2.478135e+00
2.470954e+00
2.461981e+00
2.451453e+00
2.439640e+00
2.426894e+00
2.413675e+00
2.400507e+00
2.387901e+00
2.376283e+00
2.365950e+00
2.357016e+00
2.349335e+00
2.342431e+00
2.335555e+00
2.327885e+00
2.318756e+00
2.307812e+00
2.295003e+00
2.280499e+00
2.264629e+00
2.247893e+00
2.230946e+00
2.214513e+00
2.199276e+00
2.185794e+00
2.174489e+00
2.165622e+00
2.159210e+00
2.154929e+00
2.152134e+00
2.150017e+00
2.147801e+00
2.144878e+00
2.140840e+00
2.135454e+00
2.128646e+00
2.120528e+00
2.111417e+00
2.101810e+00
2.092291e+00
2.083398e+00
2.075524e+00
2.068892e+00
2.063577e+00
2.059525e+00
2.056575e+00
2.054483e+00
2.052955e+00
2.051716e+00
2.050603e+00
2.049624e+00
2.048984e+00
2.049048e+00
2.050242e+00
2.052952e+00
2.057449e+00
2.063859e+00
2.072163e+00
2.082248e+00
2.093959e+00
2.107142e+00
2.121647e+00
2.137308e+00
2.153926e+00
2.171278e+00
2.189149e+00
2.207358e+00
2.225796e+00
2.244421e+00
2.263255e+00
2.282352e+00
2.301802e+00
2.321716e+00
2.342228e+00
2.363455e+00
2.385454e+00
2.408190e+00
2.431530e+00
2.455260e+00
2.479102e+00
2.502720e+00
2.525731e+00
2.547747e+00
2.568428e+00
2.587548e+00
2.605009e+00
2.620819e+00
2.635038e+00
2.647729e+00
2.658935e+00
2.668717e+00
2.677196e+00
2.684573e+00
2.691096e+00
2.696986e+00
2.702393e+00
2.707378e+00
2.711924e+00
2.715960e+00
2.719378e+00
2.722061e+00
2.723908e+00
2.724862e+00
2.724921e+00
2.724127e+00
2.722542e+00
2.720213e+00
2.717162e+00
2.713397e+00
2.708924e+00
2.703762e+00
2.697929e+00
2.691415e+00
2.684173e+00
2.676150e+00
2.667359e+00
2.657938e+00
2.648151e+00
2.638354e+00
2.628953e+00
2.620369e+00
2.613013e+00
2.607258e+00
2.603383e+00
2.601516e+00
2.601597e+00
2.603382e+00
2.606493e+00
2.610500e+00
2.614986e+00
2.619574e+00
2.623934e+00
2.627792e+00
2.630950e+00
2.633308e+00
2.634861e+00
2.635678e+00
2.635872e+00
2.635557e+00
2.634825e+00
2.633711e+00
2.632184e+00
2.630129e+00
2.627354e+00
2.623602e+00
2.618583e+00
2.612016e+00
2.603676e+00
2.593423e+00
2.581218e+00
2.567115e+00
2.551249e+00
2.533805e+00
2.514976e+00
2.494938e+00
2.473825e+00
2.451743e+00
2.428799e+00
2.405138e+00
2.380972e+00
2.356571e+00
2.332244e+00
2.308317e+00
2.285119e+00
2.262961e+00
2.242106e+00
2.222745e+00
2.204980e+00
2.188817e+00
2.174175e+00
2.160905e+00
2.148837e+00
2.137831e+00
2.127792e+00
2.118673e+00
2.110460e+00
2.103160e+00
2.096791e+00
2.091373e+00
2.086926e+00
2.083477e+00
2.081057e+00
2.079693e+00
2.079403e+00
2.080197e+00
2.082067e+00
2.084968e+00
2.088803e+00
2.093444e+00
2.098763e+00
2.104677e+00
2.111156e+00
2.118186e+00
