Origin Time       2016/04/16 01:25:00
Lat.              32.753
Long.             130.762
Depth. (km)       12
Mag.              7.3
Station Code      KMMH16
Station Lat.      32.7967
Station Long.     130.8199
Station Height(m) 55
Record Time       2016/04/16 01:25:08
Sampling Freq(Hz) 100Hz
Duration Time(s)  300
Dir.              4
Scale Factor      3920(gal)/6170801
Max. Acc. (gal)   653.017
Last Correction   2016/04/16 01:24:53
Memo.             
[...]
     -12      -19      -25      -23      -19      -20      -15      -10 
     -11      -17      -30      -41      -34      -19       -7        9 
      25       37       35       10      -23      -42      -58      -82 
     -99      -99      -82      -58      -46      -36      -10        9 
      10       13       16       14       18       17       11       13 
      13        3      -14      -41      -68      -83      -83      -69 
     -51      -42      -38      -30      -20      -16      -19      -26 
     -32      -39      -44      -41      -26       -6        8       16 
      29       40       36       19        5       -8      -27      -45 
     -53      -52      -47      -41      -39      -45      -54      -65 
     -71      -68      -60      -53      -41      -30      -21       -9 
       5       13       21       28       37       49       46       26 
      12        3      -13      -32      -49      -67      -83      -94 
     -98      -89      -81      -70      -39       -9        4       22 
      35       36       39       34       23       20       11      -10 
     -24      -31      -36      -39      -38      -33      -30      -35 
     -40      -43      -42      -37      -38      -47      -51      -52 
     -61      -61      -43      -24       -7       11       26       30 
      29       24       19       10      -10      -26      -24      -23 
     -32      -43      -56      -59      -51      -48      -46      -36 
     -31      -34      -36      -32      -19      -11      -12       -4 
      11       16       14       13       11        2      -19      -41 
     -48      -47      -50      -49      -36      -24      -15       -3 
       0      -12      -25      -27      -22      -22      -28      -34 
     -39      -40      -33      -23      -19      -17      -11       -9 
     -17      -25      -34      -39      -31      -19      -14      -10 
     -12      -17      -18      -20      -21      -18      -19      -21 
     -18      -13      -11       -9      -10      -15      -20      -25 
     -31      -36      -46      -54      -54      -47      -36      -21 
     -10       -2        2       -5      -10       -4       -7      -22 
     -28      -28      -24      -18      -16      -15      -10       -1 
       0      -21      -44      -47      -42      -40      -39      -29 
     -16      -15      -23      -23      -17      -18      -17      -11 
     -10      -14      -19      -26      -33      -41      -50      -58 
     -55      -37      -22       -9       16       33       32       24 
       9       -9      -27      -46      -56      -55      -57      -55 
     -44      -32      -17       -7      -10       -8        0       -5 
     -20      -22      -16      -17      -22      -23      -20      -28 
     -43      -51      -48      -41      -30      -17       -6       -2 
      -2       -3       -2        2        4        6        3      -12 
     -27      -33      -40      -46      -48      -51      -49      -43 
     -39      -29      -16      -17      -22      -16       -9      -15 
     -23      -27      -30      -31      -33      -32      -23      -20 
     -23      -20      -19      -23      -23      -18      -11       -2 
       4        8       10        0      -15      -26      -39      -54 
     -62      -60      -44      -32      -29      -17       -5      -10 
     -18      -19      -22      -26      -30      -32      -26      -20 
     -18       -7        6        3       -7      -13      -22      -34 
     -39      -43      -48      -44      -37      -32      -28      -25 
     -18      -13      -15      -11       -3       -2       -3        1 
       0       -6      -16      -33      -43      -44      -52      -55 
     -43      -31      -22      -13       -6       -5       -7      -16 
     -26      -30      -31      -34      -34      -26      -13       -7 
      -9      -12      -16      -19      -19      -19      -20      -17 
     -19      -25      -26      -32      -44      -47      -43      -43 
     -46      -43      -34      -22      -16      -17      -16      -13 
     -10      -11      -11      -11      -13      -13      -14      -14 
     -15      -19      -19      -14      -17      -20      -23      -31 
     -38      -41      -45      -39      -30      -29      -25      -13 
      -5       -2       -4       -9      -10      -14      -22      -24 
     -25      -31      -31      -27      -28      -35      -41      -43 
     -46      -48      -43      -31      -23      -19       -9        2 
      -1       -5       -1       -6      -17      -22      -21      -15 
     -15      -23      -25      -20      -27      -34      -29      -26 
     -26      -21      -24      -30      -31      -38      -47      -44 
     -37      -35      -33      -26      -14       -8      -15      -19 
     -16      -22      -29      -28      -28      -30      -22       -9 
      -4        0        4        3       -6      -18      -26      -30 
     -34      -30      -28      -31      -28      -21      -22      -33 
     -38      -36      -34      -33      -35      -36      -31      -27 
     -21      -15      -15      -14       -9      -10       -9       -2 
      -4      -12      -16      -18      -20      -21      -22      -25 
     -32      -41      -40      -36      -43      -40      -28      -27 
     -28      -21      -19      -19      -14       -7       -4       -5 
      -8       -8      -15      -27      -30      -27      -27      -28 
     -23      -17      -21      -27      -24      -22      -26      -28 
     -29      -26      -22      -22      -23      -26      -22      -15 
     -15      -16      -14      -15      -14      -15      -21      -27 
     -31      -33      -33      -30      -29      -27      -23      -19 
     -18      -21      -23      -14       -6       -9      -10       -7 
     -14      -24      -28      -28      -29      -30      -29      -24 
     -21      -23      -22      -21      -27      -27      -23      -29 
     -40      -38      -28      -28      -34      -24       -6        1 
      -4       -9      -14      -28      -38      -38      -41      -42 
     -36      -25      -16      -12       -6        5        1      -18 
     -27      -33      -44      -47      -42      -42      -40      -25 
      -6        2       -2      -10      -12      -17      -26      -32 
     -38      -41      -31      -25      -31      -34      -28      -20 
     -16      -16      -16      -16      -22      -27      -25      -29 
     -33      -27      -27      -34      -32      -25      -23      -25 
     -26      -15       -6      -11      -21      -25      -32      -34 
     -10       29       34      -35     -151     -193      -67       94 
     100        5     -101     -243     -248       54      485      868 
     985      428     -522     -981     -772     -311      -55     -331 
    -604     -283      495     2001     3593     2964     -109    -2381 
   -1172     1156      654    -1428    -2762    -4161    -5377    -4699 
    -832     4404     5639     3274     2145       32    -4429    -5206 
   -1996      907     5411    11457    11966     5253    -2252    -7115 
   -9483    -8837    -7874    -7395    -2589     5179    10587    13142 
   10940     2766    -6464   -13057   -15155   -10161     -825     5905 
    5355    -2279    -9169    -7429     -458     3441     3253     5487 
   13039    18552    14988     6346     1634     1782      333    -2667 
   -2179    -2329    -9674   -18112   -16448    -5886     -190    -3902 
   -4257     2929     6068     2597      656     2928     5059     1434 
   -4092     -772     4256    -6254   -21860   -18600    -2132     8966 
   16781    27932    35394    28770    11866     4451    11255    10448 
   -6332   -19059   -17336   -16962   -27559   -35315   -32935   -32005 
  -33034   -22783     -690    20538    28977    26501    31282    47959 
   53819    36059    10061    -8258   -18507   -25139   -26107   -18244 
   -9622    -8959   -12750   -17106   -21417   -21669   -16553    -9245 
   -3811    -3400    -1978     5738     8086    -1589   -10655   -12000 
  -13228   -17261   -14440    -2719     6647    13488    24018    33067 
   38699    44862    50877    54694    51037    37357    19785      188 
  -18667   -23142    -9817     3705     2103   -14856   -43143   -73964 
  -90048   -83711   -67017   -54655   -47243   -34778   -13885     5500 
   15734    19174    15143     3024    -2364     9748    25005    33808 
   45087    54179    46968    26136     3599    -7950      134    15333 
   15703     4185    -6638   -24949   -52303   -72632   -81322   -78889 
  -65582   -49766   -33867   -17902    -7890    -2652     4220    11043 
   10117     1830     -162    14001    33662    43298    45647    49577 
   51675    45909    38006    36027    33469    22252     5950   -10340 
  -22287   -30393   -37368   -36039   -25694   -20521   -26423   -33959 
  -34620   -29967   -23691   -12181     9565    38942    71960   103445 
  119093   111296    91154    71386    56305    43887    29616    15075 
      74   -23785   -51052   -66793   -76046   -87389   -90380   -73506 
  -40087    -7928     5596     6166    12092    24756    34863    38009 
   29603    14235     6652     6980     5889     4851     6596     8651 
    4903   -18598   -58483   -86495   -90178   -81165   -71924   -60384 
  -36788    -8866    15576    49836    93447   124007   134457   136862 
  131479   106662    70490    40891    15039   -13250   -38643   -61106 
  -80245   -89600   -95505  -112938  -139456  -154044  -153897  -164000 
 -190862  -210906  -200821  -153385   -86168   -18424    62173   162714 
  240907   251744   214375   184337   171629   144882   101966    65684 
   39483    13765   -12855   -35166   -55417   -75629   -85831   -77817 
  -58963   -59037   -97385  -141297  -150470  -134652  -129300  -136531 
 -116446   -53963     9309    46107    81233   127448   156598   160932 
  171654   192067   187390   161139   150542   147448   123586    87571 
   52423    16083   -21364   -54696   -79668  -107118  -140077  -151801 
 -127308   -83328   -45153   -19079     1270    -7641   -54612   -92275 
  -98096   -97686  -112526  -135527  -129740   -87597   -60930   -71582 
  -77592   -57749   -39141   -41794   -51177   -33464    21939    79640 
  120266   166003   209135   214877   184378   146107   116824    87313 
   45925     2468   -38200   -84422  -132024  -167686  -181903  -177684 
 -168741  -158850  -139640  -106450   -70902   -50051   -36679   -12801 
   21433    59473    93833   114930   123534   129949   145368   164572 
  169686   171338   185048   185495   169560   177554   204743   216660 
  222791   234850   238551   243533   268116   297361   309988   301784 
  278088   248927   214801   166526   105488    37555   -30635   -79720 
 -104431  -126041  -151930  -169934  -173295  -161012  -137422  -109140 
  -78552   -46490    -9683    28102    56217    86008   135454   198543 
  265066   331992   381069   382654   329774   250501   191348   173383 
  160186   121124    77849    53050    54501    68134    59222    36073 
   24455    11614    -1060     1706    -3014   -29607   -57598   -78771 
  -87823   -65916   -17168    37178    87189   112905   103888    95018 
   99513    89908    74778    79380    91957    88387    57768     5892 
  -52228  -108545  -168231  -239860  -300983  -294973  -208518  -102792 
  -30066     2864     6219    -1519   -17051   -43905   -74363  -122653 
 -203419  -278459  -307701  -320318  -359601  -421738  -480390  -531054 
 -608784  -689970  -665215  -531579  -416397  -363170  -308656  -217453 
  -82203    81233   224970   355294   484895   567228   619680   704360 
  810366   910668   981809   972528   854377   633240   365894   175909 
  108895    65364     1778   -32623   -56950  -103950  -163229  -218865 
 -225337  -177293  -128869   -89405   -38264    16279    59793    93843 
  118060   122509   105050    89166   108574   149710   173477   191558 
  222710   251603   272635   286170   299648   318785   305413   250443 
  195122   143061    97420    68006    31341   -14864   -77753  -170102 
 -259531  -335205  -397920  -427902  -454943  -510662  -559144  -571242 
 -566924  -578781  -624941  -687902  -714824  -677834  -617516  -598484 
 -644650  -689532  -625010  -443166  -229902   -20147   212149   422872 
  535801   593424   658321   677159   597192   463109   341590   251567 
  177811   101274    16583   -58175  -122357  -203519  -294650  -381708 
 -475491  -542863  -531767  -453922  -366112  -295927  -221296  -142729 
  -80885   -19953    40069    83873   121424   147740   148042   131455 
  122207   128228   130497   125583   127512   135710   147244   145469 
  103474    38596   -23132  -102327  -213836  -340555  -466639  -564190 
 -583273  -515092  -417953  -334682  -260986  -201308  -154042  -100106 
  -47596    11393    98943   178079   227670   270281   292581   291501 
  277243   228259   123458   -65067  -280592  -407453  -487479  -576032 
 -636133  -673038  -659816  -599560  -565586  -510635  -388749  -299195 
 -270690  -212675  -127092   -65871    -7923    63774   151326   250530 
  329522   395699   476080   552933   626469   717186   791343   805803 
  747131   626600   508479   436057   373979   306171   253628   205275 
  158803   147723   172411   207250   253035   314572   382991   455958 
  537492   617649   681991   734184   772463   783340   769387   747395 
  729342   706760   678510   666857   658091   615883   550755   479624 
  386669   274071   168332    76492   -23517  -164241  -354173  -570268 
 -782469  -943179 -1010032 -1013706 -1011502 -1018152 -1026014  -998891 
 -918351  -825948  -724339  -615281  -572033  -605049  -646038  -659747 
 -653089  -630046  -565748  -460048  -341173  -198693   -49026    39499 
   70786   106166   137896   118072    52726   -36902  -130699  -181933 
 -216290  -283139  -332375  -338770  -317538  -237858  -112413    -3355 
   74816   143051   213483   280667   339470   408958   490785   572611 
  664208   737960   766483   775079   748499   673895   599377   512244 
  379540   253656   168696    94843     2200   -96694  -143883  -138696 
 -139321  -145237  -147545  -171374  -196482  -199058  -209218  -234876 
 -248665  -255827  -273029  -302558  -348285  -395613  -433229  -461911 
 -464866  -452118  -442977  -403387  -313622  -202711   -62930   138218 
  363674   542074   642757   680943   697083   698793   671692   632899 
  614425   619390   586491   483132   357408   232867   122098    24637 
 -108609  -266291  -404529  -531976  -624848  -653144  -663958  -681574 
 -676861  -666547  -684761  -713810  -721775  -700833  -656238  -601017 
 -554589  -511514  -451676  -398175  -376008  -355842  -324180  -289708 
 -229542  -164628  -133320   -88161   -15857    26944    52887    98740 
  147969   188865   219732   228968   219433   204392   193899   190053 
  191956   203157   219549   240985   276129   318845   359551   392031 
  401574   383665   355593   335599   321776   304303   287682   274764 
  259117   239379   212500   177335   146175   125388    98925    56778 
   20934     8998      383   -22191   -45302   -68933  -103164  -136533 
 -168697  -203793  -225397  -238302  -259273  -278960  -293842  -313042 
 -333158  -349939  -361135  -363190  -358983  -347062  -321944  -282982 
 -232200  -181545  -137483   -86683   -28679    22374    69520   119299 
  166665   214617   270903   335583   408934   484846   550817   606701 
  656926   694761   708511   687649   623522   521257   404774   291746 
  183262    83358    -3901   -82017  -145780  -180820  -188875  -190399 
 -189818  -172675  -146444  -133759  -129763  -114610   -86285   -54214 
  -24387     5957    35375    46247    37204    29739    25678    13650 
   -6356   -32934   -61287   -82921   -96840  -104886  -107521  -103683 
  -91072   -68359   -35395      934    33507    67537   105440   137976 
  161055   178452   189981   188846   169308   137129   104630    78736 
   63489    56198    44059    23236     6837     6381    15324    21201 
   26699    37939    51696    67016    81980    88380    84747    78419 
   78971    90634   105191   113403   113279   104491    93948    92429 
   94081    83609    60312    31235    -1834   -33871   -57946   -76800 
  -96859  -118862  -139935  -155423  -162313  -163797  -163407  -162447 
 -166769  -177945  -188032  -200813  -226166  -254112  -272347  -285084 
 -294759  -294677  -282040  -263700  -250189  -243789  -236685  -222852 
 -202411  -176720  -145598  -108426   -66108   -20369    24763    64642 
  101429   140905   183353   223947   259961   294594   329617   358314 
  373270   374706   364171   335349   284484   226998   180125   140433 
  100426    62032    25295   -12993   -51089   -84454  -113360  -140019 
 -163762  -186165  -210019  -235060  -261893  -291081  -319687  -342992 
 -356852  -359843  -351315  -326145  -280791  -226570  -178795  -135821 
  -89618   -40166    12498    69679   129182   189636   252844   318761 
  381013   431046   464004   475162   454876   395288   305846   213158 
  140389    89203    41293   -11020   -52181   -76147   -87671   -80192 
  -54893   -29171   -10195    10367    34925    54500    64949    69918 
   69749    60102    39194    12977   -11293   -34493   -59843   -87277 
 -116584  -146429  -175742  -204275  -229853  -252186  -270535  -276750 
 -261207  -223750  -176196  -131380   -90051   -47907    -8007    26042 
   57498    88779   114546   127006   125205   114338    97165    72792 
   39613    -2474   -43890   -71723   -88883  -104163  -113824  -111745 
  -97572   -71247   -36845    -4235    20734    37849    46907    49250 
   48772    47985    46555    43013    37503    30847    23890    19248 
   16603    10705    -2522   -21332   -40253   -60915   -87339  -110131 
 -121453  -126943  -125968  -110695   -84919   -59011   -32622    -2083 
   25877    43473    48078    40499    30421    28054    31371    33021 
   30738    27560    25517    23365    21587    21327    20365    16081 
    7572    -2264    -3880     9135    30890    54428    78321    98183 
  108507   110446   107852    98478    78430    52566    27606     5400 
  -10769   -19847   -27067   -33699   -35244   -30319   -19401    -1655 
   19698    38363    51695    61406    71129    82020    91047    95119 
   92512    82426    65219    43623    23148     5890   -10962   -29156 
  -47540   -60490   -61660   -52203   -35687   -13424    10516    32918 
   53960    69830    75025    69762    57410    41839    26326     9501 
  -10712   -30778   -47093   -59984   -68430   -68894   -59757   -45269 
  -30886   -13823    10521    39580    68707    92369   105474   108437 
  103794    94337    81432    62912    39325    13082   -14890   -38906 
  -51843   -53581   -45786   -28820    -7914    12042    35276    64899 
   95287   122411   145291   161654   172714   180910   185219   185234 
  183059   181401   179611   171373   153319   130299   106700    84852 
   67079    50905    36157    25831    13425    -5160   -21196   -30330 
  -34395   -31879   -23737   -12955       56    13095    24982    39304 
   57935    78569    98497   114461   121228   115410    99016    76148 
   49582    24079     5723    -8597   -29106   -55720   -80092  -101450 
 -121059  -133483  -137032  -135199  -125528  -105465   -81537   -59273 
  -38175   -20414    -6673     6901    17584    21310    20930    18569 
   15328    12404     8135     2114    -5264   -16309   -31534   -48158 
