Origin Time       2016/04/16 01:25:00
Lat.              32.753
Long.             130.762
Depth. (km)       12
Mag.              7.3
Station Code      KMMH16
Station Lat.      32.7967
Station Long.     130.8199
Station Height(m) 55
Record Time       2016/04/16 01:25:08
Sampling Freq(Hz) 100Hz
Duration Time(s)  300
Dir.              6
Scale Factor      3920(gal)/6170801
Max. Acc. (gal)   873.407
Last Correction   2016/04/16 01:24:53
Memo.             
[...]
   16691    16700    16712    16687    16643    16624    16647    16675 
   16679    16693    16727    16737    16722    16725    16757    16779 
   16764    16749    16753    16732    16686    16652    16634    16637 
   16662    16700    16747    16777    16754    16711    16712    16752 
   16776    16768    16757    16744    16707    16666    16646    16648 
   16666    16687    16705    16725    16740    16737    16710    16681 
   16678    16701    16729    16748    16744    16736    16737    16735 
   16732    16730    16725    16716    16705    16689    16666    16654 
   16661    16678    16705    16734    16753    16769    16779    16757 
   16717    16699    16695    16689    16700    16720    16728    16722 
   16700    16677    16678    16694    16721    16756    16762    16744 
   16746    16755    16735    16709    16696    16670    16644    16650 
   16665    16678    16702    16734    16767    16778    16748    16714 
   16704    16697    16698    16718    16735    16749    16759    16741 
   16704    16681    16688    16706    16716    16716    16700    16681 
   16688    16704    16714    16743    16764    16739    16710    16708 
   16700    16684    16686    16710    16742    16754    16737    16718 
   16703    16687    16690    16714    16727    16719    16714    16726 
   16734    16723    16713    16711    16701    16694    16707    16714 
   16703    16699    16707    16720    16723    16714    16717    16727 
   16727    16733    16740    16733    16723    16707    16692    16704 
   16725    16726    16720    16713    16706    16706    16707    16707 
   16712    16719    16730    16732    16718    16708    16704    16701 
   16711    16728    16740    16740    16721    16702    16699    16706 
   16713    16711    16711    16720    16720    16711    16714    16722 
   16722    16721    16724    16727    16717    16706    16713    16715 
   16696    16677    16681    16700    16706    16707    16723    16734 
   16730    16734    16748    16749    16736    16722    16721    16732 
   16726    16708    16706    16702    16685    16681    16691    16704 
   16719    16730    16728    16716    16707    16711    16714    16710 
   16713    16725    16728    16715    16708    16722    16741    16729 
   16694    16694    16722    16728    16712    16697    16696    16711 
   16730    16738    16730    16718    16713    16707    16708    16728 
   16741    16732    16720    16716    16715    16709    16708    16710 
   16705    16704    16709    16707    16701    16701    16712    16731 
   16746    16746    16733    16711    16695    16701    16726    16744 
   16733    16710    16704    16697    16677    16681    16709    16723 
   16721    16722    16721    16710    16703    16716    16737    16745 
   16737    16721    16708    16703    16700    16708    16716    16705 
   16690    16697    16716    16726    16727    16729    16729    16716 
   16704    16716    16731    16724    16712    16713    16712    16708 
   16708    16706    16702    16706    16714    16723    16732    16733 
   16720    16714    16725    16724    16712    16711    16711    16700 
   16687    16691    16712    16724    16719    16722    16732    16727 
   16711    16711    16729    16736    16723    16704    16696    16702 
   16709    16713    16720    16721    16720    16721    16708    16694 
   16698    16708    16712    16720    16728    16722    16712    16712 
   16711    16703    16701    16718    16735    16733    16722    16719 
   16718    16712    16705    16712    16730    16729    16708    16703 
   16710    16705    16694    16697    16710    16714    16704    16705 
   16722    16720    16704    16713    16739    16745    16727    16715 
   16718    16717    16705    16704    16722    16730    16714    16702 
   16699    16688    16683    16699    16719    16728    16725    16725 
   16742    16747    16731    16728    16731    16714    16694    16697 
   16710    16704    16695    16699    16702    16703    16708    16716 
   16727    16728    16724    16725    16716    16702    16707    16723 
   16724    16715    16718    16732    16725    16702    16700    16710 
   16705    16702    16717    16730    16732    16728    16718    16710 
   16704    16701    16715    16730    16728    16719    16714    16708 
   16698    16691    16696    16707    16713    16714    16714    16713 
   16715    16725    16733    16726    16724    16728    16713    16691 
   16692    16707    16711    16707    16711    16723    16723    16709 
   16711    16718    16704    16690    16700    16718    16725    16719 
   16712    16713    16713    16703    16708    16726    16724    16712 
   16718    16725    16718    16713    16706    16700    16704    16709 
   16714    16720    16719    16718    16719    16717    16716    16718 
   16716    16713    16716    16719    16716    16712    16706    16705 
   16716    16719    16712    16712    16716    16713    16706    16708 
   16718    16726    16719    16707    16707    16712    16711    16719 
   16733    16737    16725    16708    16702    16702    16701    16707 
   16717    16716    16710    16711    16712    16711    16713    16714 
   16716    16720    16723    16718    16710    16706    16713    16719 
   16713    16710    16715    16710    16700    16707    16727    16734 
   16719    16706    16714    16724    16717    16706    16703    16708 
   16712    16708    16706    16716    16726    16722    16717    16717 
   16719    16717    16711    16705    16711    16720    16713    16707 
   16718    16724    16721    16717    16710    16705    16706    16707 
   16713    16723    16724    16712    16699    16697    16713    16730 
   16730    16718    16708    16705    16714    16724    16716    16707 
   16713    16717    16717    16719    16721    16724    16724    16721 
   16722    16723    16710    16694    16692    16702    16715    16718 
   16715    16716    16712    16705    16710    16720    16723    16723 
   16720    16715    16712    16711    16708    16707    16710    16713 
   16715    16719    16721    16720    16718    16715    16718    16715 
   16705    16709    16718    16708    16699    16709    16720    16726 
   16724    16725    16729    16719    16700    16699    16709    16713 
   16715    16717    16716    16715    16714    16716    16714    16705 
   16707    16726    16735    16721    16708    16708    16708    16704 
   16709    16718    16717    16713    16714    16719    16721    16715 
   16706    16699    16699    16718    16731    16719    16707    16709 
   16709    16708    16717    16732    16733    16712    16695    16703 
   16709    16700    16701    16713    16720    16720    16716    16711 
   16713    16717    16722    16728    16718    16698    16695    16706 
   16710    16707    16709    16714    16717    16719    16717    16713 
   16713    16713    16710    16705    16709    16719    16717    16711 
   16717    16721    16705    16691    16698    16714    16721    16718 
   16712    16709    16708    16706    16711    16720    16722    16717 
   16711    16709    16717    16723    16713    16704    16708    16713 
   16708    16683    16639    16591    16524    16466    16490    16502 
   16212    15501    14830    15050    16196    16899    16294    15312 
   14692    14396    15332    17941    20619    21528    19013    12664 
    6748     6903    12814    18740    20090    18468    18600    20806 
   24899    32929    37829    28509    10868     6037    20273    28785 
   14206    -3927    -7846    -6132    -6075     4599    36415    63402 
   49779     9855   -21155   -36937   -32816    -2553    38193    78447 
  109710    98677    26532   -62920   -94862   -52014     8596    49312 
   81799    96361    65836    11024   -13789    11653    51797    62904 
   43005    16670    -4365   -28746   -54221   -54745   -28535    -2159 
   17929    37300    48527    35969    -1361   -23737     5537    53760 
   64289    38993    19111    13396    -5956   -36562   -32377    14337 
   42951    21270      125    11910     5011   -37956   -42603    19825 
   89007   115955   101374    70730    20452   -67787  -129846   -90716 
  -11096    12728     1741    19182    57774    75228    73468    96534 
  141491   140624    88829    65578    79169    45178   -51790  -111312 
  -77249   -39440   -74848  -126009  -140544  -130773   -90039   -17556 
   63101   132314   143999    88945    55985    79243    78404    14965 
  -45985   -27420    43408    69812    42900    21390    15588    -4938 
  -59889  -111113   -84528     7168    71082    74325    50501    35667 
   45272    48983    35248    47171    75854    51566   -47801  -153126 
 -182249  -157478  -146708  -129871   -63090    28832    89025    85167 
   52521    50611    67944    70901    84059   133658   215107   311848 
  364232   307930   151910   -43346  -198198  -230811  -125026    35568 
  134288   121387    53884      284   -59192  -133970  -140991   -50368 
   52197   111059   139022   144546   108072    -7824  -147196  -166887 
  -76221     7618    96610   232178   318376   237054    34131  -132009 
 -196752  -206425  -184876   -94432    84000   249026   252620   107257 
  -44134  -116940  -103166   -43011    -7208   -16536   -46569   -95096 
 -163052  -186884   -98545    50732   168603   236429   264858   254881 
  201062   109163    36016    43189    92357    98292    48874   -22360 
  -75198   -99786  -149865  -208920  -168735   -26345    77650    36592 
  -68797   -80040    12189   118887   205138   256761   248960   178926 
   55425   -62536   -78827   -21144   -10909   -80548  -171447  -214549 
 -203996  -194750  -172206   -51479   187688   441790   528132   376786 
  137862   -44348  -162186  -207714  -161436   -71678   -19020   -25162 
  -48697   -65058   -56236     4582    99758   174344   160146    43360 
  -67412   -83051   -64100   -97943  -164916  -153781    -9441   140654 
  153743    93155   114868   219019   260506   193545   112963    69080 
   44571    33702    52164    95262   103487    67454    66692    94902 
   48686   -87164  -209231  -242935  -246510  -298344  -358957  -356755 
 -269834  -109603    27081    22413   -60499   -60450    28041   120913 
  213857   289840   280578   219725   190753   154751    43986   -77808 
  -87249    24817   131184   130410    49537    -8753     4107   -21434 
 -149016  -192085   -28107   159373   148396    -9791   -33616   140586 
  228827    99168   -49620   -19133   104528    56867  -152517  -241887 
  -97280   154207   284330   130401  -156447  -291042  -271220  -217206 
  -65737   208906   411007   372972   210360   195554   351271   415986 
  261701    43369  -111013  -291687  -470258  -430116  -194440    58418 
  207194   203158   211516   271496   143642  -149952  -352297  -367034 
 -246019  -105405   -21153    63306   182515   263468   303238   339798 
  289353   145971    46712   -11534  -125691  -267921  -358115  -382384 
 -373556  -373956  -382233  -313734  -121100   101995   252492   356568 
  494629   641628   664517   526073   372515   303142   243222   104411 
  -90948  -209536  -189074  -179692  -277302  -328260  -189057     3213 
     924  -128843  -111566    14406     8665  -103607   -99779    92032 
  279611   229693    -9100  -127981    60392   337365   325090    11544 
 -234954  -188912   -50294   -80612  -209740  -271550  -268797  -222515 
 -134210   -57420   -39571   -86591  -156741  -193302  -177546   -85497 
   57515    71288  -108769  -210135   -23262   289376   497843   575635 
  593698   595735   587906   498463   219339  -195746  -536815  -672739 
 -609703  -418744  -216323   -93330   -14257    69346    36309  -160135 
 -282770  -230827  -216565  -296379  -262088    -6715   376104   753885 
 1055372  1205241  1130329   903259   577601   118503  -324495  -565838 
 -636165  -647641  -685918  -760833  -815878  -856571  -931869 -1020977 
-1039814  -909252  -584184   -88893   388466   584992   482901   299054 
  140893     2136   -25011   171421   548001   905413  1029676   859918 
  462095   -54691  -473547  -626180  -619047  -588250  -506004  -363733 
 -220248  -142801  -161133  -225296  -286596  -275661   -82389   234863 
  443309   399332   118073  -271409  -549991  -610718  -515428  -300937 
   -5125   295265   569678   712058   550857   121771  -282596  -385117 
 -229914   -37532   124514   197966   102916   -27275   -25292    80222 
  151921   131451   115906   169173   188495    35004  -279011  -536939 
 -541544  -308175    -7839   105148   -59489  -257967  -299473  -229989 
 -107586   -51528  -168231  -258323   -58512   330758   613817   681664 
  628641   592998   624448   652438   626490   592522   614460   689526 
  719097   599030   339250    47916  -178145  -337093  -484669  -634742 
 -749956  -801725  -808976  -818064  -859449  -918209  -914867  -755898 
 -419534    36252   518742   936561  1217945  1318417  1247759  1079958 
  864555   561927   170826  -173327  -390302  -582064  -800322  -949164 
 -993521  -963556  -842410  -636730  -379915  -100968   152875   398353 
  642429   739964   615818   427059   305464   213859   154457   223418 
  372721   433214   392895   352430   297688   133600  -137184  -401258 
 -577486  -659145  -658966  -596347  -487036  -353581  -245767  -201075 
 -222767  -291039  -329095  -221758    65013   447648   801238  1017188 
 1056565   979873   854602   693893   538301   448423   401614   328768 
  200996    14004  -210606  -415915  -599167  -797609  -976869 -1068239 
-1036505  -900855  -672935  -309902   120544   517527   875837  1109432 
 1236756  1375021  1391598  1222564   965491   571057   116196  -152271 
 -248318  -338279  -387844  -326693  -205760   -65026    18189   -48450 
 -183041  -255656  -280459  -269011  -200270  -142080  -100217   -20044 
   58410   101163   144823   245708   375783   409749   353282   308140 
  232958    74165   -93804  -219962  -316116  -368799  -348387  -252705 
 -114171    37717   176132   236294   179136    49319   -95662  -229489 
 -331573  -396422  -438976  -453731  -436191  -435767  -493977  -581999 
 -642392  -617012  -453883  -135357   299084   739129  1050881  1189955 
 1209866  1145894  1030324   928941   794454   530942   196231  -127186 
 -423619  -658948  -837815  -978095 -1021773  -910851  -643556  -268718 
  142297   535329   855822  1043462  1050949   877022   625149   405475 
  149846  -209657  -511780  -640468  -659562  -608561  -535857  -450936 
 -237698    93805   406124   647345   760527   683434   513550   400213 
  346760   279717   196604   116529    23864   -48023   -38684     5898 
     964   -45707  -131827  -284892  -431757  -507852  -564126  -594027 
 -550285  -461129  -313655   -74938   207482   454188   616243   719605 
  803682   847886   831551   766337   650399   499721   365178   212343 
   -3655  -192803  -317634  -440087  -554235  -645662  -701414  -674509 
 -583973  -434900  -185819    97153   354797   632712   907171  1094944 
 1133730   959737   603729   180565  -243850  -604956  -818349  -888314 
 -884018  -831214  -716041  -573675  -474849  -377691  -176284   113519 
  398034   609612   734921   800310   794789   690568   521283   326766 
   98974  -127409  -276640  -340817  -353603  -346346  -361794  -403132 
 -410989  -363995  -311295  -267627  -203370  -120470   -38085    29998 
   84955   180619   314637   387843   388585   357762   282575   190497 
  129303    86949    39648   -17416   -86063  -141350  -149834  -123675 
 -100138   -99281  -112699  -122565  -124475  -124487  -130584  -143125 
 -152910  -153076  -147965  -158475  -209956  -302868  -399657  -432989 
 -348745  -146167   126960   384665   551090   606405   551971   401226 
  209775    50827   -47389  -113963  -152147  -123769   -65321   -65381 
 -130058  -215210  -286825  -290841  -201779   -67604    55875   138478 
  177583   203738   224015   212360   174669   145931   143785   150226 
  137406   110553    75247     3220   -92360  -143935  -133955   -96721 
  -54440   -26253    -8100    38566   102725   123684    89389    40955 
    6672   -15597   -42533  -102096  -209310  -320196  -361476  -324359 
 -263885  -200603  -108458    -5188    53538    81441   135081   193241 
  189296   114249    21258   -23248     4610    60982    78021    44044 
   25397    78415   182508   280415   327058   303894   231120   150136 
   71584   -15744   -94866  -148134  -175828  -153850   -79140   -17908 
  -21046   -76563  -152672  -210569  -206630  -114268    56888   236305 
  323078   298166   237683   184224   121107    60371    23348   -13068 
  -51938   -41616    28473    79668    48249   -16332   -14877    59127 
  113582    82420   -15494   -98340   -93441   -16245    74602   145817 
  186590   201398   181484   121784    64755    29141   -24052   -95981 
 -140834  -152904  -161900  -175473  -187849  -197090  -187567  -127608 
   -2747   158395   313793   431413   471064   406968   286056   200051 
  156953    85171    -5266   -38787    -8754    38925    67935    77644 
   91252    93876    55254      171   -27775   -25619    -6018    33862 
   85687   126806   150679   156035   136738    97809    48452   -12794 
  -79188  -115958  -110768  -105616  -117592  -109203   -58329    18119 
   82874    99821    76701    61225    69662    70130    43101    -4800 
  -67228  -125936  -159823  -174246  -171342  -146287  -130407  -144771 
 -147123  -105522   -47921    -2290    41195   107923   201412   289013 
  336059   327245   257087   136730     5751   -89370  -143576  -179562 
 -194365  -180467  -149589  -115107   -88086   -55080     9108    83276 
  123483   111250    54507    -8705   -40031   -38849   -27958   -29764 
  -34141    -7741    30071    30015      -74   -32937   -73255  -118544 
 -141266  -114887   -48600     5641    10390    -8088     8143    75906 
  157411   212950   227376   203657   157667   110180    66826     4675 
  -79838  -144364  -162517  -147765  -117855   -66673    24496   131790 
  196623   202513   177811   140494   105900    96392    83613    22765 
  -48287   -70306   -49470   -13581    11325      243   -30992   -40640 
  -19603     3700     9564    21261    73445   160232   255295   342637 
  388641   356014   257501   137917    29804   -60998  -150753  -242453 
 -313607  -346865  -342827  -318292  -286046  -225886  -116501    18219 
  138606   221783   241053   195547   153029   156879   155709   110036 
   53277    27895    49467   100198   141492   140863    84072     4970 
  -36912   -26552    23855    96067   143212   132641    72258   -19182 
 -109340  -168669  -199884  -219192  -241869  -258467  -214212   -83070 
   65732   148112   175860   206303   233292   231374   217090   201013 
  173321   131430    80098    25618   -14002   -14929    -7951   -63745 
 -167654  -222388  -192856  -136723   -96127   -58159   -15866    11679 
   12377     2752    20133    73231   125328   152019   160528   157020 
  138765   104030    58463    11774   -23945   -31896    -4967    37196 
   55459    38036    19493    15574     9667    13795    43951    62840 
   26966   -36565   -71867   -91046  -137940  -199512  -228261  -202068 
 -134725   -45596    59404   156095   195315   164423   117143   110120 
  137707   162050   159766   113020    24646   -70774  -152925  -220629 
 -261111  -259532  -219613  -160602   -99441   -46957    -7742    26899 
   62027    94195   127415   158044   166944   145519   105860    61087 
   15022   -28781   -75703  -135962  -192574  -220146  -219983  -201139 
