Origin Time       2016/04/14 21:26:00
Lat.              32.742
Long.             130.808
Depth. (km)       11
Mag.              6.5
Station Code      KMMH16
Station Lat.      32.7967
Station Long.     130.8199
Station Height(m) -197
Record Time       2016/04/14 21:26:36
Sampling Freq(Hz) 100Hz
Duration Time(s)  300
Dir.              2
Scale Factor      2940(gal)/6170270
Max. Acc. (gal)   178.463
Last Correction   2016/04/14 21:26:21
Memo.             
[...]
   76657    76656    76656    76656    76654    76655    76655    76654 
   76655    76656    76654    76653    76654    76655    76656    76656 
   76654    76656    76658    76657    76657    76655    76653    76654 
   76655    76656    76656    76656    76656    76656    76655    76654 
   76654    76656    76655    76654    76655    76656    76655    76656 
   76657    76655    76654    76655    76655    76654    76652    76653 
   76654    76653    76654    76656    76656    76656    76656    76656 
   76657    76657    76655    76653    76654    76656    76655    76655 
   76655    76654    76655    76655    76654    76655    76655    76655 
   76655    76656    76657    76656    76657    76657    76654    76653 
   76653    76654    76656    76657    76657    76657    76655    76655 
   76655    76655    76655    76655    76655    76657    76656    76656 
   76656    76654    76655    76657    76655    76653    76655    76656 
   76655    76655    76656    76655    76655    76656    76655    76654 
   76655    76653    76653    76654    76655    76657    76655    76652 
   76653    76654    76655    76657    76654    76654    76656    76655 
   76653    76655    76656    76654    76654    76654    76655    76656 
   76655    76656    76656    76655    76655    76654    76653    76654 
   76654    76653    76654    76654    76654    76654    76654    76655 
   76655    76653    76653    76656    76657    76655    76654    76654 
   76655    76654    76653    76653    76655    76656    76655    76654 
   76655    76654    76654    76655    76656    76654    76653    76656 
   76657    76655    76655    76655    76653    76654    76654    76655 
   76655    76654    76655    76655    76655    76656    76654    76653 
   76654    76656    76656    76655    76656    76657    76657    76655 
   76654    76654    76654    76654    76654    76655    76655    76654 
   76654    76655    76654    76654    76655    76654    76653    76655 
   76656    76655    76654    76657    76655    76652    76654    76656 
   76654    76654    76654    76654    76654    76656    76656    76655 
   76656    76656    76657    76656    76655    76656    76655    76655 
   76655    76652    76652    76653    76653    76655    76656    76654 
   76653    76654    76655    76657    76655    76655    76657    76655 
   76654    76656    76657    76654    76653    76656    76657    76657 
   76656    76655    76654    76654    76655    76655    76655    76655 
   76656    76655    76653    76654    76657    76657    76656    76655 
   76654    76653    76655    76654    76654    76655    76655    76654 
   76654    76654    76655    76654    76653    76655    76656    76656 
   76655    76655    76655    76654    76654    76654    76655    76656 
   76655    76656    76658    76656    76656    76657    76655    76654 
   76654    76653    76654    76654    76655    76656    76655    76654 
   76654    76655    76654    76653    76656    76656    76654    76655 
   76656    76656    76655    76654    76654    76654    76655    76657 
   76656    76654    76654    76655    76654    76652    76654    76654 
   76653    76654    76656    76656    76655    76655    76655    76655 
   76656    76656    76655    76656    76655    76653    76655    76655 
   76654    76655    76656    76655    76654    76653    76654    76655 
   76656    76654    76652    76653    76654    76653    76655    76658 
   76656    76655    76656    76654    76655    76656    76655    76654 
   76656    76656    76655    76655    76655    76655    76654    76654 
   76655    76656    76655    76656    76658    76657    76656    76656 
   76653    76653    76654    76655    76655    76656    76656    76655 
   76657    76656    76651    76651    76654    76653    76654    76656 
   76656    76657    76656    76655    76654    76655    76657    76655 
   76655    76656    76655    76654    76654    76654    76654    76655 
   76655    76654    76655    76656    76657    76657    76656    76654 
   76655    76655    76655    76656    76657    76658    76656    76654 
   76656    76656    76656    76657    76655    76654    76657    76656 
   76654    76654    76656    76656    76655    76654    76653    76653 
   76654    76656    76656    76655    76656    76656    76656    76657 
   76657    76655    76654    76655    76655    76656    76657    76655 
   76654    76654    76654    76654    76654    76653    76656    76659 
   76656    76655    76655    76655    76656    76657    76656    76657 
   76657    76654    76652    76655    76655    76654    76655    76657 
   76657    76657    76656    76654    76655    76656    76656    76655 
   76654    76656    76657    76655    76655    76656    76655    76655 
   76656    76656    76654    76653    76656    76655    76653    76656 
   76656    76654    76655    76655    76654    76654    76654    76653 
   76654    76656    76655    76654    76655    76654    76654    76654 
   76655    76656    76655    76654    76654    76656    76656    76654 
   76653    76653    76653    76656    76658    76655    76653    76655 
   76654    76655    76655    76655    76657    76657    76656    76655 
   76654    76654    76655    76655    76656    76657    76656    76656 
   76657    76655    76652    76651    76655    76656    76654    76654 
   76655    76654    76656    76657    76655    76655    76655    76655 
   76655    76656    76656    76654    76655    76657    76656    76654 
   76656    76658    76656    76654    76655    76656    76654    76654 
   76655    76656    76657    76655    76654    76656    76656    76655 
   76656    76655    76653    76653    76654    76654    76655    76655 
   76654    76655    76655    76655    76658    76658    76656    76655 
   76656    76654    76653    76654    76657    76655    76653    76655 
   76656    76654    76656    76655    76652    76651    76655    76657 
   76655    76653    76654    76654    76655    76655    76655    76656 
   76655    76655    76655    76652    76653    76654    76653    76653 
   76654    76654    76654    76654    76654    76654    76654    76655 
   76656    76654    76655    76656    76656    76655    76653    76653 
   76654    76653    76653    76655    76655    76656    76655    76654 
   76654    76654    76653    76653    76652    76653    76656    76658 
   76656    76655    76655    76656    76655    76655    76656    76654 
   76651    76654    76655    76654    76653    76652    76653    76655 
   76654    76654    76652    76651    76654    76656    76654    76653 
   76652    76650    76651    76654    76653    76653    76655    76656 
   76655    76655    76655    76654    76654    76655    76655    76656 
   76657    76654    76651    76654    76655    76651    76651    76653 
   76653    76653    76654    76654    76655    76655    76655    76654 
   76654    76655    76654    76655    76656    76654    76653    76654 
   76654    76654    76656    76654    76654    76657    76656    76654 
   76656    76655    76654    76656    76655    76653    76654    76654 
   76655    76656    76654    76654    76655    76655    76654    76654 
   76655    76655    76655    76654    76653    76654    76655    76654 
   76654    76655    76655    76654    76654    76654    76653    76655 
   76656    76655    76654    76654    76655    76655    76654    76654 
   76655    76656    76656    76654    76653    76654    76654    76655 
   76656    76653    76652    76655    76656    76654    76654    76656 
   76656    76655    76655    76655    76656    76656    76654    76652 
   76654    76657    76653    76650    76652    76654    76656    76655 
   76654    76655    76655    76656    76655    76654    76655    76655 
   76651    76653    76655    76653    76654    76655    76655    76656 
   76655    76653    76653    76655    76655    76656    76656    76655 
   76653    76653    76653    76654    76655    76654    76653    76653 
   76654    76656    76656    76655    76656    76656    76655    76656 
   76655    76653    76655    76656    76657    76657    76653    76653 
   76655    76656    76656    76657    76656    76656    76657    76657 
   76657    76654    76654    76657    76657    76655    76655    76656 
   76656    76655    76655    76655    76654    76654    76654    76652 
   76653    76656    76655    76653    76655    76656    76656    76656 
   76655    76653    76653    76655    76656    76654    76654    76656 
   76655    76656    76657    76657    76657    76658    76657    76656 
   76656    76655    76655    76655    76654    76654    76655    76654 
   76654    76656    76656    76655    76657    76655    76655    76656 
   76655    76653    76653    76655    76656    76656    76656    76654 
   76655    76657    76656    76655    76656    76655    76654    76653 
   76654    76654    76654    76655    76655    76653    76654    76655 
   76655    76654    76653    76653    76653    76654    76656    76655 
   76654    76655    76654    76654    76654    76655    76655    76655 
   76655    76654    76655    76656    76656    76654    76655    76656 
   76655    76655    76657    76656    76654    76655    76657    76654 
   76654    76657    76655    76655    76655    76655    76656    76657 
   76658    76658    76656    76655    76656    76657    76655    76654 
   76653    76656    76658    76657    76655    76657    76656    76654 
   76656    76656    76653    76656    76656    76654    76654    76655 
   76655    76654    76655    76656    76654    76654    76656    76655 
   76656    76658    76656    76655    76656    76656    76654    76652 
   76655    76657    76655    76656    76657    76655    76655    76655 
   76655    76655    76654    76654    76655    76655    76654    76655 
   76655    76654    76653    76653    76654    76656    76655    76653 
   76653    76655    76655    76655    76654    76654    76654    76655 
   76654    76653    76653    76653    76655    76657    76654    76654 
   76655    76653    76654    76656    76653    76653    76656    76656 
   76654    76654    76653    76654    76654    76654    76654    76653 
   76654    76656    76655    76653    76655    76656    76655    76655 
   76655    76653    76655    76656    76655    76654    76655    76656 
   76656    76657    76658    76655    76654    76655    76655    76656 
   76654    76654    76656    76654    76653    76655    76656    76655 
   76655    76657    76657    76656    76656    76656    76655    76655 
   76655    76655    76657    76656    76654    76654    76655    76655 
   76654    76655    76656    76656    76656    76656    76654    76653 
   76654    76654    76654    76655    76657    76657    76655    76655 
   76658    76658    76654    76653    76655    76654    76654    76654 
   76654    76655    76655    76655    76655    76653    76655    76658 
   76656    76654    76654    76655    76655    76654    76655    76656 
   76654    76651    76647    76634    76617    76629    76722    76821 
   76724    76489    76555    77136    77453    76629    75782    76061 
   76812    78183    79070    77438    75439    74796    75131    76704 
   77637    76947    75432    74715    77490    79330    76727    76075 
   77140    76197    76184    76244    76835    79795    79723    75917 
   73377    74476    77315    77142    75765    77141    78277    77464 
   76917    76479    75897    76995    77627    76115    77309    80954 
   81000    78357    77307    77484    77697    77599    76449    77222 
   81275    83378    81559    79511    79086    77704    76750    80026 
   82518    81433    78511    75749    78233    80817    79010    76807 
   75131    79797    89127    93780    96272    96836    89643    80769 
   84369    91833    83650    72338    72096    77240    80168    72818 
   74236    93291    99660    89658    73848    69899    90964    99123 
   91676    95347    91598    84660    84996    71802    64698    92887 
  118743   105453    86879    90834    90985    78817    70379    62960 
   59460    65400    76419    98039   118418   114078    97915    95369 
   97306    81998    65975    70605    79391    84445    95912   107076 
  108153   111848   117509    88574    49480    58990    77726    74271 
   90014   112818   104006    79563    64096    54329    56801    85153 
  112629   112436   104884   111094   105673    72661    55425    57517 
   43606    43595    79829   123263   152977   150562   116441    83629 
   74689    77893    75275    75309    77611    65354    45070    41374 
   64393    83036    77465    70589    72384    87399   112632   127960 
  132183   118272    89963    82182    84370    63960    46906    62336 
   82087    79111    62454    43937    40822    54931    55231    55381 
   88219   120725   120523    93521    55587    32339    26758    16492 
    -568    -2100     1236   -26765   -67408   -79157   -62943   -45135 
  -46284   -56154   -53526   -41342   -35257   -50194   -79392   -95091 
 -102085  -122539  -144378  -152439  -153014  -155327  -165352  -162709 
 -121479   -68392   -32168    -7973     4999    31374    97647   176640 
  242825   305273   364104   400479   399069   360994   318941   291516 
  238814   163028   121452   102256    62228    14168   -16721   -12719 
   48242   128310   150628   117454    64440   -14367   -95431  -135250 
 -141798  -140711  -143585  -142774  -101943   -11540    80578   134925 
  143277   108409    56474    10257   -26528   -31986     9421    54935 
   41319   -41335  -144993  -211896  -231262  -224362  -192309  -142647 
  -85153   -10193    84198   189096   282144   357969   423190   451019 
  439556   418372   404896   411975   410660   379449   366130   383191 
  392331   384897   368199   359937   365672   341996   269739   180661 
  102599    45933     6672    -7643    10608    32799    36215    24092 
   10038    23863    66234   100149   122929   153031   202161   277927 
  337836   351185   342867   288880   182137   114851   131404   196221 
  274850   322747   319629   289083   239661   169264    86749     8098 
  -46203   -77658   -88897   -51329    26229    76686    76110    60670 
   45814    21380    -1034    -3188     7998    30915    72412   121354 
  173466   226646   263459   266346   230834   185348   142969    84239 
   32425      972   -27731   -33616   -27565   -32562   -20150    -2363 
  -16863   -49472   -71221   -72236   -56770   -33012    -7279    20341 
   60986   112426   152571   172545   162096   105464    27671   -39231 
  -98406  -146550  -175553  -200034  -222907  -230526  -230400  -236349 
 -242571  -237982  -227459  -229405  -242018  -247608  -246812  -247050 
 -246777  -231339  -188572  -133599   -81992   -35072     4713    46594 
  107576   180839   248140   305044   340162   348762   349708   343777 
  328123   311999   286061   254491   232352   213519   207650   217626 
  229362   257751   292665   303889   296766   264928   214595   176734 
  144906   114810    94095    75800    66787    71209    80510    89414 
   88305    73983    49544    13930   -29762   -74746  -107703  -121056 
 -130541  -148757  -166728  -172835  -167917  -153837  -115640   -46548 
   30007    98945   151064   154955   115631    81043    68158    74474 
   94293   104650   103646    98351    80767    68729    79302   102418 
  138301   169690   166544   144671   132351   134227   141432   145506 
  155291   175246   195291   210029   221625   235245   239439   218350 
  188403   168780   157616   163635   193853   233192   268390   289628 
  289255   273983   253073   227035   198488   172026   140270   106700 
   90570    93378   115637   158184   200682   224333   218419   187349 
  152463   126468   112722   105370    94228    77846    59532    46808 
   47004    59808    75053    78423    65236    33198   -19558   -75554 
 -116297  -141042  -146868  -130933   -99993   -65034   -37913   -21150 
  -11229    -4377     2239     7295    15657    31983    52340    69340 
   73559    65593    52424    39059    30371    18441    -4431   -22762 
  -21951    -3802    30965    69232    80887    58369    23314     1423 
    3656    22184    45764    67966    85478    95164    97808   103520 
  112284   106120    80216    50887    31455    26658    34379    45999 
   53976    54926    52247    47864    37546    28448    31493    44858 
   61902    78154    98177   119386   129650   140698   158753   165148 
  160753   155448   147454   138888   135435   138365   137555   126144 
  111231    92201    65608    45156    40717    37918    35599    53109 
   81622   104019   121294   126584   114861    95600    76456    61289 
   58321    70763    89479   109536   128842   137300   131481   120907 
  114684   112007   111651   118625   123797   110728    91270    86733 
   93144    94534    75204    32019   -13548   -40181   -41179   -23288 
    -518    26136    53134    60203    46619    39932    57257    93220 
  133485   161299   173405   176583   170101   161379   162443   170053 
  174976   173516   175742   187221   192058   182362   162511   137228 
  117418   101605    82856    69609    60192    48083    40221    35084 
   27777    21479    13249    -2185   -21705   -39075   -47703   -44090 
  -38370   -38718   -40321   -43565   -48641   -47724   -33920    -7657 
   18586    38401    55729    69207    80315    87227    85241    80328 
   75861    71497    62326    48204    47319    63707    80066    87002 
   87059    82165    74586    70461    66109    56036    46119    43886 
   56658    80868   101515   112054   110534   101175    98268   105247 
  113463   123630   143094   163993   175637   180736   178077   166943 
  150916   127826   103872    82877    54604    20205   -11754   -33488 
  -35108   -28698   -30743   -35352   -42800   -56452   -61379   -47391 
  -26985   -14519   -10049   -14186   -25312   -31790   -30159   -22523 
   -8583     6659    20066    38741    65162    86593    97558   108935 
  127352   148727   164569   172149   174918   175312   175864   169862 
  151002   130959   115397   100281    91487    88184    75252    48068 
   20676    11012    20471    31794    38789    48773    58380    61063 
   60509    65243    75113    81357    81581    76737    67611    60051 
   58440    59661    56282    49675    49251    53785    55159    52944 
   50109    41632    25839    17182    19922    19857    15753    17863 
   25386    35150    50202    68617    85257    96037    93111    77407 
   64475    61031    62657    70934    86689   106618   126245   136749 
  138989   142892   149222   154812   161521   172764   184526   189519 
  188680   182899   173986   163982   149269   136095   131194   130556 
  132900   135652   132121   118215    97964    83082    75539    67329 
   60489    60520    63952    69242    78495    90911   103300   110450 
  110713   108891   108437   108287   109284   110936   107111    99593 
   96145    92304    81890    70550    60165    48282    37242    23993 
   12408    17714    36016    53650    72313    94552   116699   138889 
  159665   175121   187193   197722   208406   221063   227088   221394 
  211724   202558   193045   184418   179252   171974   158580   151315 
  151957   145958   128742   101481    66015    30685     6052    -2561 
   -2565    -1082     8017    22589    33091    44288    58110    66272 
   68275    70270    74743    74984    64278    48364    38647    39581 
   44201    43558    38294    33120    29426    26782    26193    31753 
