Origin Time       2016/04/14 21:26:00
Lat.              32.742
Long.             130.808
Depth. (km)       11
Mag.              6.5
Station Code      KMMH14
Station Lat.      32.6345
Station Long.     130.7521
Station Height(m) 70
Record Time       2016/04/14 21:26:37
Sampling Freq(Hz) 100Hz
Duration Time(s)  300
Dir.              4
Scale Factor      3920(gal)/6170801
Max. Acc. (gal)   328.222
Last Correction   2016/04/14 21:26:22
Memo.             
[...]
  -18165   -18161   -18166   -18164   -18167   -18162   -18153   -18157 
  -18156   -18158   -18170   -18173   -18171   -18166   -18163   -18162 
  -18161   -18161   -18158   -18162   -18179   -18175   -18160   -18164 
  -18168   -18167   -18166   -18160   -18159   -18159   -18151   -18147 
  -18148   -18161   -18183   -18189   -18175   -18158   -18151   -18155 
  -18162   -18168   -18170   -18165   -18167   -18174   -18167   -18153 
  -18158   -18170   -18171   -18168   -18168   -18161   -18151   -18147 
  -18148   -18171   -18194   -18178   -18160   -18165   -18156   -18151 
  -18168   -18171   -18162   -18160   -18160   -18156   -18160   -18171 
  -18172   -18179   -18181   -18162   -18156   -18159   -18155   -18159 
  -18167   -18173   -18170   -18162   -18170   -18171   -18156   -18166 
  -18179   -18164   -18147   -18139   -18139   -18157   -18181   -18188 
  -18180   -18170   -18166   -18177   -18190   -18180   -18154   -18140 
  -18142   -18127   -18121   -18157   -18197   -18212   -18207   -18176 
  -18138   -18134   -18148   -18159   -18181   -18183   -18156   -18156 
  -18186   -18192   -18162   -18148   -18167   -18175   -18166   -18155 
  -18151   -18166   -18173   -18149   -18139   -18155   -18169   -18181 
  -18196   -18187   -18167   -18156   -18135   -18134   -18184   -18209 
  -18177   -18143   -18136   -18157   -18183   -18185   -18172   -18158 
  -18146   -18143   -18145   -18149   -18160   -18182   -18201   -18209 
  -18199   -18165   -18133   -18138   -18165   -18183   -18170   -18129 
  -18119   -18149   -18190   -18215   -18191   -18159   -18160   -18172 
  -18180   -18171   -18158   -18145   -18133   -18147   -18161   -18154 
  -18149   -18166   -18208   -18226   -18196   -18165   -18144   -18137 
  -18160   -18180   -18171   -18150   -18139   -18144   -18154   -18152 
  -18161   -18188   -18202   -18193   -18171   -18157   -18148   -18144 
  -18167   -18183   -18174   -18165   -18159   -18160   -18157   -18154 
  -18155   -18151   -18160   -18178   -18187   -18183   -18169   -18162 
  -18161   -18151   -18141   -18144   -18153   -18169   -18190   -18197 
  -18190   -18177   -18168   -18157   -18137   -18131   -18151   -18171 
  -18183   -18188   -18175   -18151   -18146   -18159   -18163   -18164 
  -18170   -18148   -18133   -18170   -18201   -18188   -18165   -18157 
  -18158   -18159   -18165   -18169   -18168   -18171   -18170   -18167 
  -18170   -18160   -18143   -18156   -18174   -18160   -18151   -18167 
  -18181   -18182   -18170   -18151   -18135   -18139   -18160   -18190 
  -18204   -18169   -18141   -18172   -18192   -18159   -18132   -18147 
  -18176   -18185   -18179   -18154   -18131   -18156   -18185   -18175 
  -18161   -18157   -18150   -18151   -18183   -18200   -18163   -18144 
  -18169   -18180   -18157   -18131   -18141   -18170   -18185   -18193 
  -18179   -18148   -18142   -18158   -18167   -18182   -18201   -18178 
  -18130   -18137   -18195   -18195   -18123   -18084   -18111   -18177 
  -18253   -18264   -18210   -18161   -18128   -18093   -18069   -18077 
  -18122   -18189   -18269   -18301   -18251   -18173   -18137   -18147 
  -18130   -18075   -18063   -18122   -18209   -18266   -18273   -18232 
  -18137   -18054   -18066   -18123   -18149   -18186   -18231   -18236 
  -18223   -18196   -18167   -18140   -18092   -18067   -18107   -18178 
  -18231   -18241   -18220   -18184   -18140   -18102   -18096   -18139 
  -18195   -18218   -18218   -18222   -18198   -18123   -18076   -18103 
  -18145   -18150   -18151   -18184   -18213   -18211   -18199   -18180 
  -18166   -18155   -18138   -18127   -18130   -18163   -18192   -18199 
  -18198   -18163   -18119   -18121   -18154   -18199   -18219   -18191 
  -18161   -18145   -18126   -18113   -18131   -18178   -18201   -18190 
  -18187   -18176   -18149   -18137   -18144   -18168   -18180   -18172 
  -18180   -18191   -18179   -18157   -18137   -18131   -18137   -18135 
  -18146   -18189   -18221   -18211   -18191   -18181   -18148   -18116 
  -18107   -18114   -18164   -18218   -18213   -18187   -18166   -18149 
  -18147   -18158   -18181   -18183   -18156   -18151   -18155   -18134 
  -18135   -18167   -18178   -18165   -18157   -18164   -18188   -18201 
  -18188   -18171   -18152   -18141   -18140   -18135   -18152   -18186 
  -18199   -18190   -18183   -18168   -18124   -18111   -18145   -18161 
  -18171   -18186   -18198   -18201   -18175   -18146   -18119   -18109 
  -18149   -18193   -18208   -18201   -18183   -18175   -18157   -18125 
  -18110   -18135   -18183   -18203   -18195   -18187   -18165   -18138 
  -18128   -18134   -18161   -18193   -18198   -18190   -18183   -18152 
  -18119   -18125   -18158   -18176   -18175   -18189   -18215   -18236 
  -18230   -18192   -18206   -18265   -18288   -18328   -18389   -18304 
  -18101   -18025   -18168   -18416   -18465   -18290   -18249   -18159 
  -18134   -18824   -19498   -19374   -18903   -18335   -17804   -17194 
  -16817   -17790   -18725   -17256   -15004   -15486   -18481   -20078 
  -19353   -19216   -20094   -20001   -17817   -14817   -14674   -17365 
  -18651   -18555   -19111   -19119   -18510   -17829   -17703   -20130 
  -21636   -18805   -17583   -20389   -20986   -18574   -18049   -20067 
  -21523   -19613   -14882   -11964   -13033   -14971   -16133   -18237 
  -20860   -21734   -20294   -17923   -17167   -18593   -20797   -22584 
  -22290   -19819   -17670   -18926   -22837   -23739   -21266   -20602 
  -22142   -22951   -20000   -14987   -15604   -20840   -25223   -29003 
  -27718   -22033   -21377   -23193   -22387   -23798   -28894   -30451 
  -23005   -13734   -13132   -19168   -24289   -27572   -31019   -31195 
  -24691   -16017    -9309    -6636   -13313   -27523   -36688   -30075 
  -11982        6     -457    -7203   -20077   -33421   -38280   -36202 
  -27986   -23682   -31381   -31707   -26530   -34142   -35780   -26005 
  -21825   -20463   -28032   -42887   -46645   -43897   -35646   -22720 
  -15305    -3970     3278    -7679   -16753   -12936    -1235     8116 
    6812     7563     1417   -22422   -34058   -29771   -25822    -9886 
   14540    15960    -9148   -22524   -16733   -22839   -26789   -12005 
  -10453   -26148   -36627   -32394   -11717    -1194   -16746   -33409 
  -38798   -33573   -20023    -7296     8374    21414    24772    21777 
  -12299   -56547   -45157   -11479   -10185   -15537    -9794    13128 
   44240    40534    18225     8382   -12369   -39877   -53479   -56902 
  -51980   -37477     1811    57194    70421    29962   -18092   -49092 
  -58542   -53290   -40003   -18379    -5314    14732    60738    64091 
    3018   -32563   -21498   -24671   -64932  -104939   -81541   -16548 
    1545    -7371     7892     8551   -13341   -34488   -64245   -70143 
  -26934     3841   -21250   -57360   -58151   -32871     2861    37180 
   46677    33953    12972   -18835   -47804   -59232   -62536   -55488 
  -24965    12886    22761    -5947   -47252   -60152   -43388   -59932 
 -117649  -119477   -53773   -18978   -18475     1094    23390    34888 
   38971    22472    -5217   -21584   -19957   -18160   -35355   -58135 
  -72219   -73222   -49620    -4455    43697    62757    31361    -9595 
  -22813   -37030   -58547   -47198      770    42802    49236    43933 
   52707    41572   -12217   -66163   -80865   -60384   -26434     1747 
   20946    43779    61692    42506    -4798   -20602    10743    34489 
   23171     3480       35     7281    -1195   -15343     1883    33162 
   38521    13703   -21372   -25143    14362    40594    25854     7508 
   -2020   -16764   -32149   -40279   -31908    -9883     3191     2463 
  -19607   -76816  -138439  -169733  -170036  -146032  -106611   -57633 
  -11818    20650    53807    77895    67505    35446     2451   -24841 
  -49899   -86473  -128912  -163253  -194227  -219073  -230284  -236140 
 -244147  -255418  -259107  -229836  -166610  -102151   -55926   -20318 
    9384    31012    51650    73591    82157    69656    40754    -4906 
  -60711  -109019  -144487  -165106  -160835  -141343  -127629  -114365 
  -91751   -67403   -41114   -14295     1278    12492    26989    40388 
   62492    88712    89880    60433     8889   -54741   -94450   -90253 
  -65463   -32311    13051    55196    72170    62378    48768    49158 
   54145    60867    80939   104383   114186   112824   109299   112349 
  118476   102717    58316    16365    -3989   -18287   -36898   -44444 
  -21881    27740    86863   148802   203986   230057   227127   219667 
  218671   212558   189865   161220   146123   145303   150640   160590 
  176940   205995   242399   261501   257900   249268   233008   189241 
  114956    25998   -59147  -127586  -175293  -201906  -203795  -189021 
 -178402  -174101  -169435  -179554  -211510  -247437  -278979  -301774 
 -300210  -273560  -236661  -190946  -130588   -67617   -21629     -244 
   -1908   -20459   -50932   -88611  -113799  -104806   -66303   -13600 
   43460    87025   105325   105527    90218    57779    17872   -23502 
  -63334   -88769  -102407  -122448  -146519  -165702  -185696  -207176 
 -229104  -256034  -273957  -262212  -228825  -194211  -163124  -134853 
 -117603  -117726  -124463  -119794  -102372   -85138   -65228   -28159 
   14210    33807    27449    14168     6623     6206    12341    23636 
   42534    71646    97245   102248    89527    68942    39810     -846 
  -47791   -90567  -120177  -131012  -123835  -111156  -105527  -100413 
  -87172   -77467   -77616   -75654   -70247   -68674   -68397   -64938 
  -55649   -37959   -12636    17632    49477    78664   101359   112732 
  108569    94245    78633    60794    42451    32783    30915    29023 
   22678    12344     3635    -4716   -16630   -22841   -17248    -6642 
    2234     9114    27931    68932   110771   130509   134253   130932 
  122236   116500   115665   116727   127063   144157   148202   134075 
  119534   117873   125533   135892   149527   166083   174663   162662 
  126926    74681    22062   -16127   -33417   -28663    -7013    18976 
   32970    28006     8915   -19995   -52075   -78907   -94618   -95391 
  -89079   -90161  -102353  -119102  -135009  -147060  -152436  -147152 
 -124020   -90130   -65825   -53512   -47009   -54514   -79019  -108879 
 -138682  -170760  -202551  -223544  -224877  -214370  -205545  -200402 
 -194534  -181852  -164677  -156526  -154714  -141469  -118472  -105390 
 -117516  -150980  -177490  -177449  -160831  -131956   -86210   -38301 
   -3123    18296    20091     1554   -17549   -16701     2916    22028 
   33369    50627    67290    56993    25812    -1887   -25304   -50744 
  -78422  -105753  -115177   -96641   -77826   -76487   -65085   -36766 
  -24311   -28776   -24391   -10538     -669    -3420   -12772    -4141 
   24613    46999    63587    94145   130222   151529   148558   118831 
   77168    43905    23599    18332    26058    38954    62996    95672 
  117713   130988   142292   138567   121435   110228   108142   106971 
  104636   107371   125913   155796   174697   175470   172690   170517 
  156191   124950    89211    67157    61796    54576    39737    38319 
   57755    79061    87736    89672    96943    97885    70698    31993 
    9728    -4759   -19749   -21772   -12953   -11876   -29799   -62599 
  -87471   -83259   -55516   -25243   -11374   -20755   -43607   -81206 
 -143481  -205306  -239263  -259440  -279735  -299748  -325017  -349350 
 -359216  -354523  -332276  -284030  -220213  -165198  -128074  -100558 
  -81460   -74532   -72580   -65637   -46285   -15128    13374    26590 
   18522   -17638   -79152  -139497  -166763  -162949  -155601  -153049 
 -149088  -156629  -187159  -225150  -246612  -231743  -182050  -124745 
  -86359   -78379   -76655   -50463   -22695   -18128   -17277   -10585 
   -8305    -6057     3694    13972    18013    14355     5658     6973 
   28859    67257   120258   185814   247944   284619   285674   253888 
  206612   165422   123871    74192    46094    52886    68391    86885 
  113725   134129   141231   133449   110727    82019    40764   -10971 
  -29397    10684    70785   114158   146967   167718   168090   163542 
  151354   116010    79276    64570    58587    40449     6109   -39059 
  -90320  -132762  -145481  -141802  -152045  -169009  -181859  -209522 
 -250950  -279408  -284489  -257896  -191490  -115543   -65503   -38157 
  -27390   -39047   -54795   -41010    -2094    36282    80817   123408 
  122512    85983    55365    42932    42843    30422   -15203   -67295 
  -95565  -109104  -116630  -107030   -78823   -45134   -26320   -32129 
  -28189    15927    67447    95924   123398   164109   193854   191036 
  153825    93985    41352    16976    -2281   -43735   -86115  -101488 
  -99150   -99140  -108556  -114429  -100057   -75982   -53309   -12876 
   46692    89319   105859   121785   139563   142534   128926   100380 
   54312    -4750   -74192  -150030  -216838  -264798  -292186  -300859 
 -296784  -269528  -209379  -149110  -122810  -109152   -75855   -34293 
   -2446    29992    67548    96736   110254   105964    87335    72646 
   71869    71007    62907    61654    77998   107925   138999   159771 
  168919   167231   138324    67412   -16129   -71746  -105867  -134035 
 -139320  -109930   -62446   -18155    16512    40459    41450    19816 
    1192    -6019   -17287   -38691   -68372  -104037  -139882  -175150 
 -205627  -214025  -198927  -182709  -174720  -166222  -156232  -146785 
 -125582   -80226   -20124    39592    96061   140968   164784   169306 
  144381    70065   -56364  -213121  -361783  -469253  -523303  -534841 
 -526102  -498779  -441600  -372976  -321864  -280094  -222263  -148743 
  -78400   -17566    47718   132740   226442   290079   303937   290645 
  267841   230756   185370   146243   124075   126016   144539   165683 
  187969   209505   218325   216565   218417   223885   225327   217473 
  202539   190925   180776   158967   120569    74944    36981     8714 
  -16925   -35781   -35740   -20441    -7418     3349    23948    53308 
   85798   111965   124201   140883   176334   206044   204198   175268 
  126787    52590   -40798  -127886  -192803  -236058  -257047  -251783 
 -223075  -180242  -134870   -99936   -84085   -85641   -99775  -126571 
 -153482  -154517  -133216  -114378   -98092   -79103   -63871   -52035 
  -47945   -58851   -71628   -71081   -61573   -48816   -27723     4060 
   39654    70014    86107    78095    47531    11527   -18265   -39289 
  -46570   -44209   -42455   -41026   -45186   -67655  -101508  -129803 
 -149416  -160394  -161140  -158618  -157711  -157550  -156947  -150419 
 -142987  -142226  -132414  -104105   -70175   -37961   -11228     4633 
   11691    11982    10464    17242    30069    41579    51709    52578 
   29200   -20420   -83716  -145711  -197166  -237384  -264865  -267305 
 -238236  -190585  -137141   -80496   -24988    22094    55906    77538 
   95733   115177   128611   134972   148685   174426   195537   198087 
  186786   172468   154795   128296    97320    68664    38289    -1686 
  -49319   -97546  -139038  -163641  -172292  -169709  -145325   -99631 
  -49466     3944    61214   105843   132339   155777   182606   202830 
  209941   207023   198200   185564   170893   154904   136260   115122 
   94226    75775    60709    50747    47418    44455    33127    19064 
   14273    19559    35067    69218   118053   157608   170668   162074 
  143459   119608    88469    48916     6244   -37089   -82595  -123024 
 -148497  -163451  -178683  -190538  -189573  -183387  -186548  -195570 
 -198956  -200870  -211542  -232186  -257667  -278076  -288419  -295996 
 -302344  -295762  -273526  -251339  -240339  -232221  -216841  -193405 
 -163718  -131211   -95743   -53596   -12208    15330    29178    38682 
   44097    36680    16778    -5115   -24469   -44728   -65706   -82372 
  -92511   -96033   -94104   -89661   -81256   -63339   -35155    -2470 
   29302    58746    85614   106060   115937   119495   121497   117257 
  102731    80361    53010    22814    -6132   -28678   -41772   -42531 
  -30852   -15294    -1492    12727    24520    30361    33920    38288 
   44052    50978    56777    61416    66478    68526    64737    61050 
   65053    75751    87583   100762   114438   119343   110767    89602 
   55251    14939   -17662   -34924   -35661   -23475    -6489    10102 
   26677    41461    49690    49052    42422    39037    46244    60058 
   72865    82660    88633    89846    86390    73783    51143    27463 
    3808   -22745   -41561   -46705   -48101   -52758   -58389   -60806 
  -59438   -57620   -55748   -50577   -45379   -48616   -59046   -69379 
  -81489   -97350  -108895  -114359  -123340  -140283  -160945  -178692 
 -190161  -199139  -205935  -202347  -187997  -172798  -161636  -151589 
 -137103  -114820   -88533   -65065   -47706   -36388   -29473   -26387 
  -26438   -25475   -22664   -22827   -26741   -30357   -30542   -28037 
  -27889   -31947   -35363   -34912   -32089   -28529   -25897   -25862 
  -26485   -25040   -23042   -23933   -26080   -21817   -10428    -1101 
    3645     8457    11247     7017    -1678    -9606   -18172   -32258 
  -48963   -58324   -57852   -52541   -41525   -22404    -1201    14686 
   23308    25170    23212    21847    21953    23773    28384    32348 
   32626    32507    33589    31043    23147    16345    15070    17822 
   25551    40014    58833    79366    97110   106682   110861   114119 
  113848   110718   111025   114806   117192   115957   110384   100438 
   85363    64560    46883    43371    48075    48815    46416    45139 
   41283    28973     7525   -17290   -39678   -56813   -62905   -55655 
  -44156   -36932   -36585   -44359   -56684   -68580   -79792   -89986 
  -98306  -105623  -111357  -115280  -117722  -116127  -109881  -101910 
  -93769   -87324   -85258   -86322   -85737   -80167   -72033   -66947 
  -64971   -61708   -55795   -48780   -43605   -41398   -39200   -37042 
  -39161   -46731   -56783   -65996   -72276   -72249   -63860   -52929 
  -47495   -49464   -57238   -68244   -79662   -90837  -100125  -103502 
 -100134   -93553   -88014   -83866   -77235   -67337   -57494   -49590 
  -43963   -40043   -36313   -31516   -25156   -19553   -18049   -19551 
  -21258   -23476   -26339   -28154   -28260   -25012   -16063    -3296 
   10221    21385    24929    22639    22491    25133    28958    37095 
   48263    57065    60721    56989    46328    34095    25167    20970 
   19678    21420    29478    40280    47233    52060    57004    59418 
   58252    52916    42144    27308    12300     2992     2378     7798 
   17722    31039    43553    53777    63001    70695    75467    76332 
   73351    68130    61790    53970    45123    36766    29085    20804 
   10393    -2699   -16962   -29846   -40504   -50314   -58639   -63318 
  -66800   -70550   -70115   -67204   -68050   -70246   -70992   -72157 
  -72493   -72257   -74111   -76541   -78420   -79968   -78430   -73222 
  -66868   -59824   -53805   -51834   -53157   -57434   -64113   -66064 
  -57913   -43057   -26607   -13124    -5881    -2161      580     -105 
   -4275   -10086   -19260   -32685   -47519   -62159   -75778   -84620 
  -86983   -84639   -77375   -66221   -56422   -50541   -45959   -40238 
  -34154   -30726   -31040   -32881   -36653   -43271   -46734   -43407 
  -40557   -43118   -45928   -45186   -43660   -43748   -44125   -41663 
