Origin Time       2016/04/16 01:46:00
Lat.              32.862
Long.             130.898
Depth. (km)       11
Mag.              5.9
Station Code      KMMH16
Station Lat.      32.7967
Station Long.     130.8199
Station Height(m) -197
Record Time       2016/04/16 01:45:08
Sampling Freq(Hz) 100Hz
Duration Time(s)  300
Dir.              3
Scale Factor      2940(gal)/6170270
Max. Acc. (gal)   65.313
Last Correction   2016/04/16 01:44:53
Memo.             
[...]
  127536   127291   127332   127845   128044   127646   127480   127807 
  127913   127699   127847   127992   127450   127170   127714   127881 
  127346   127236   127716   127717   127233   127486   128171   127935 
  127420   127841   128291   127833   127509   127864   127908   127652 
  127658   127331   126855   127204   127885   128063   127887   127752 
  127892   128037   127902   127812   127669   127362   127395   127622 
  127695   127674   127464   127222   127255   127558   127947   128040 
  127776   127593   127524   127462   127758   128189   128173   128003 
  127851   127379   126998   127396   128119   128115   127633   127594 
  127805   127875   127860   127643   127282   127091   127265   127692 
  127970   127875   127716   127832   127970   127935   127899   127737 
  127672   127948   127801   127267   127443   128041   128056   127743 
  127624   127471   127176   127050   127353   127917   128240   128153 
  127967   127928   127768   127359   127381   127918   127966   127515 
  127458   127468   127126   127236   127841   128205   128267   128097 
  127739   127416   127377   127619   127756   127793   127988   128141 
  127996   127615   127310   127324   127452   127379   127355   127698 
  127950   127836   127714   127602   127517   127649   127821   127852 
  127622   127429   127694   127863   127716   127820   127918   127569 
  127219   127260   127487   127597   127503   127497   127751   127941 
  127887   127664   127505   127646   127800   127742   127717   127727 
  127688   127690   127520   127283   127490   127842   127745   127419 
  127367   127548   127664   127724   127782   127852   127967   127888 
  127669   127702   127804   127685   127567   127670   127808   127670 
  127449   127516   127686   127625   127535   127765   127902   127600 
  127585   127900   127742   127482   127641   127806   127746   127551 
  127496   127754   127966   127895   127667   127488   127623   127899 
  127850   127676   127675   127523   127342   127679   128067   127768 
  127440   127744   127881   127571   127605   127863   127808   127740 
  127840   127786   127576   127486   127601   127825   128026   127919 
  127448   127266   127572   127761   127714   127564   127495   127790 
  127912   127607   127583   127854   127862   127610   127577   127873 
  127899   127530   127425   127670   127851   127879   127774   127668 
  127658   127596   127559   127604   127505   127455   127761   127898 
  127558   127517   127804   127732   127668   127781   127604   127536 
  127970   128164   127597   127183   127562   127768   127594   127845 
  127913   127497   127513   127802   127905   127672   127302   127580 
  127780   127375   127507   127770   127646   127825   127917   127712 
  127661   127563   127480   127639   127678   127642   127776   127838 
  127794   127731   127707   127781   127775   127704   127746   127790 
  127639   127442   127485   127723   127891   127820   127592   127448 
  127517   127631   127619   127638   127706   127709   127719   127769 
  127740   127501   127412   127720   127831   127683   127708   127654 
  127549   127711   127883   127790   127483   127438   127782   127776 
  127365   127180   127390   127693   127645   127531   127720   127747 
  127685   127866   127826   127559   127661   127943   127742   127347 
  127523   127910   127824   127643   127725   127744   127682   127742 
  127801   127649   127438   127596   127837   127638   127413   127491 
  127670   127897   127963   127709   127526   127656   127808   127799 
  127779   127804   127724   127680   127915   128039   127780   127667 
  127799   127673   127493   127675   127823   127499   127209   127650 
  128061   127714   127661   128047   127916   127588   127590   127725 
  127716   127593   127647   127798   127752   127685   127852   127935 
  127772   127782   127907   127767   127597   127617   127615   127539 
  127491   127593   127768   127641   127472   127685   127772   127719 
  127812   127621   127586   127875   127601   127353   127689   127823 
  127685   127635   127749   127843   127607   127459   127688   127733 
  127467   127411   127676   127780   127609   127609   127745   127712 
  127606   127485   127468   127671   127752   127577   127460   127622 
  128091   128319   127674   126852   126908   127771   128427   127913 
  127221   127706   128130   127634   127398   127646   127736   127525 
  127343   127682   127872   127554   127717   127700   127133   127631 
  128300   127581   127209   127902   128054   127679   127541   127486 
  127676   127983   127820   127383   127261   127701   128010   127633 
  127549   128027   127971   127553   127616   127736   127529   127531 
  127802   127868   127753   127812   127868   127607   127561   127926 
  127997   127689   127479   127603   127798   127651   127529   127698 
  127686   127567   127706   127831   127718   127686   127836   127785 
  127656   127774   127691   127445   127635   127845   127707   127729 
  127956   127846   127449   127436   127768   127792   127652   127741 
  127786   127812   127994   127838   127398   127396   127732   127797 
  127561   127481   127657   127806   127770   127560   127516   127761 
  127790   127640   127716   127676   127397   127369   127595   127748 
  127697   127616   127705   127711   127661   127755   127776   127723 
  127633   127585   127631   127469   127369   127558   127624   127622 
  127769   127877   127716   127500   127554   127592   127518   127684 
  127848   127777   127723   127675   127594   127590   127618   127702 
  127712   127575   127637   127707   127491   127506   127761   127761 
  127671   127626   127557   127622   127713   127670   127625   127628 
  127666   127729   127747   127691   127609   127617   127687   127726 
  127770   127742   127612   127542   127634   127803   127790   127678 
  127736   127717   127494   127423   127636   127856   127787   127636 
  127742   127799   127620   127591   127723   127764   127783   127738 
  127608   127643   127787   127727   127520   127470   127638   127784 
  127713   127662   127844   127824   127586   127701   127850   127613 
  127470   127622   127757   127711   127658   127824   127893   127650 
  127549   127680   127721   127724   127803   127856   127746   127555 
  127601   127693   127573   127603   127772   127722   127620   127728 
  127797   127612   127542   127662   127673   127689   127707   127604 
  127585   127677   127668   127655   127738   127668   127605   127791 
  127856   127717   127649   127658   127655   127648   127626   127581 
  127677   127790   127692   127605   127583   127625   127751   127719 
  127650   127646   127592   127589   127609   127636   127482   127142 
  127532   128522   128645   127937   127556   127549   127427   127236 
  127251   127413   127487   127714   128023   127818   127484   127588 
  127670   127563   127715   127794   127460   127517   127905   127708 
  127369   127480   127562   127439   127546   127789   127660   127448 
  127729   128074   127939   127750   127712   127547   127502   127548 
  127419   127474   127676   127700   127664   127644   127718   127766 
  127739   127829   127701   127449   127573   127686   127640   127734 
  127755   127615   127546   127610   127619   127550   127715   128007 
  128003   127741   127632   127816   127786   127468   127467   127585 
  127567   127701   127715   127579   127622   127741   127831   127758 
  127620   127674   127736   127791   127925   127898   127723   127564 
  127528   127668   127663   127595   127770   127788   127753   128006 
  127965   127573   127470   127600   127662   127690   127702   127684 
  127629   127644   127819   127834   127670   127717   127821   127761 
  127669   127625   127663   127652   127641   127770   127702   127569 
  127731   127732   127494   127481   127661   127859   127927   127720 
  127486   127568   127795   127790   127632   127631   127767   127785 
  127663   127550   127543   127658   127691   127617   127628   127643 
  127605   127640   127755   127780   127711   127725   127704   127599 
  127625   127634   127583   127663   127672   127668   127778   127733 
  127629   127597   127564   127655   127790   127739   127647   127702 
  127718   127658   127709   127673   127487   127529   127799   127852 
  127581   127472   127701   127748   127615   127628   127542   127502 
  127760   127867   127816   127870   127828   127756   127775   127661 
  127494   127509   127584   127579   127597   127722   127790   127652 
  127542   127643   127756   127720   127580   127562   127833   128042 
  127821   127484   127519   127798   127806   127534   127515   127773 
  127747   127521   127632   127885   127837   127637   127656   127841 
  127784   127535   127517   127645   127592   127531   127781   127977 
  127830   127813   127925   127759   127542   127530   127592   127647 
  127753   127817   127694   127582   127663   127568   127411   127806 
  128201   127978   127673   127611   127697   127748   127647   127626 
  127668   127603   127591   127670   127766   127768   127541   127402 
  127558   127740   127848   127892   127859   127787   127647   127550 
  127628   127785   127864   127729   127548   127489   127474   127711 
  127945   127781   127699   127668   127451   127489   127681   127704 
  127678   127634   127658   127784   127766   127670   127668   127570 
  127495   127696   127871   127794   127646   127591   127637   127659 
  127649   127706   127784   127784   127649   127531   127619   127637 
  127562   127686   127711   127593   127692   127811   127808   127784 
  127738   127705   127585   127556   127737   127686   127557   127725 
  127791   127656   127707   127802   127725   127721   127809   127791 
  127672   127544   127539   127670   127757   127644   127536   127753 
  127953   127772   127596   127682   127782   127782   127718   127613 
  127583   127684   127774   127700   127599   127673   127758   127681 
  127616   127690   127741   127655   127648   127764   127734   127674 
  127769   127756   127583   127500   127622   127725   127605   127589 
  127707   127613   127590   127793   127768   127584   127653   127787 
  127656   127508   127663   127839   127703   127527   127605   127687 
  127564   127539   127721   127801   127820   127766   127472   127354 
  127540   127688   127783   127701   127578   127763   127990   128184 
  128509   128200   126823   126368   128231   129526   127794   126097 
  127915   130832   130860   129858   131257   132000   129376   127710 
  127753   126893   128377   131874   133014   131256   126276   123938 
  129233   132073   127456   125699   128708   125458   117143   115577 
  119948   123233   124549   130186   140381   140313   129930   124352 
  126272   130082   129430   124843   121396   119826   122198   126701 
  127280   126561   128969   127809   121015   122989   136061   142754 
  138504   134337   133009   127386   119238   118050   119936   122878 
  131754   133998   126216   123182   125041   127552   133812   141034 
  143739   143994   143507   137781   127242   118722   116022   116278 
  118308   122907   123642   121837   128106   140342   147314   141299 
  124798   113918   120270   127966   120472   114836   121981   126511 
  129765   142234   148775   135372   119696   120647   126533   118052 
  107561   121254   143386   139745   123675   124538   132709   130804 
  123887   122561   131956   142206   138691   131520   132487   130682 
  122482   119874   127619   133450   126533   121977   132416   140870 
  138102   132749   125116   119777   125669   132506   127234   122852 
  135934   149479   142757   124860   122052   138530   138469   127293 
  141970   154830   139984   121603   123596   145694   147112   115810 
  108091   133502   144252   143885   159604   165157   148343   150762 
  155884   117658    79102    80289    89733    87811   104012   141676 
  128259    65893    60480   119085   152286   137122   139176   180618 
  194613   146478    89868    79612    82047    74754   113616   176631 
  172090   105322    61637    69104    99476   141952   170721   174501 
  178189   159599    97819    44639    67405   129531   122970    97159 
  135745   163761   144176    83317    62808   188629   254992   160895 
  154937   229816   200731   127611   135357   166307   116657    93914 
  196310   227451    86525    13355    97219   151765   122013    92646 
  131062   187716   142638   123352   237294   256137   120991    52040 
  115253   176442   142468   101550   113750   114967   124013   124763 
   59682    67771   177057   166578    60240    85285   198003   187728 
   93747   114349   162243   106749   104460   148842   114278    89991 
  105834    97847    73456    93444   158049   135296    52613    95089 
  173543   120359    65117   109010   153458   144350    95184    81711 
  118790   107902   109961   170454   167695   116101    97773   125755 
  154802    99509    49841   105406   143232   122251   126393   154329 
  149151    93102    77603   121325   105331    64263   100361   166311 
  174472   113367    75358   106579   125975   117206   119875   111803 
   93222    97207   120076   124163    83867    60334   105097   133365 
  105441   117209   159790   116602    76049   176840   221104    73205 
    3606   125005   176439    72568    37692   112355   102724    27405 
   45123   125508   162618   160964   169464   189527   198441   183695 
  159215   138870   105713    74242    52007     7225    -9371    42118 
   75242    58620    70408   135380   178371   139805    75523    56492 
   53543    51502    85384   111578    93492    95968   132022   145639 
  128610   117002   147897   190421   191093   195226   227586   226904 
  201702   194749   184166   167825   163781   149742   125832   118048 
  117965   120096   126595   122904   127902   156432   181687   204569 
  225613   217564   188426   167841   172068   199786   218646   205315 
  183173   182777   202926   210040   187350   171727   185413   202105 
  208259   212889   213946   193327   153310   136460   153661   171118 
  177488   165342   125752    83696    63653    66439    97172   142455 
  155216   130303   110699   114473   117205    98864    89897    97983 
   92822   110257   166329   190707   161587   118513   100024   120570 
  150251   171812   171831   129503    90380    89184   105075   126337 
  129136   109316   104596   122337   133476   124943   113871   108771 
  107771   113542   123111   139044   150080   143678   141792   141637 
  125923   117334   112473    95094    91145   103020   111943   119580 
  123032   121294   115102    96631    80401    85862    98570   108334 
  120386   124604   120115   115898   103819    78263    57279    60316 
   73611    78104    76757    73579    80720   102035   114200   109291 
  102819   103607   106077   108390   118229   124305   113189   100303 
   99781   109012   117933   117142   113978   121276   139349   160109 
  173407   176034   173188   167972   157369   142202   138006   145241 
  142303   136418   143060   144425   127449   112404   114257   116669 
  121433   140252   151540   153113   162055   171090   171592   160299 
  147257   152565   166546   170892   166932   159640   153525   151510 
  153457   152615   141944   133516   141938   153648   149362   143375 
  150230   149646   134704   130648   142041   146862   144138   148760 
  156215   154143   140777   126337   122983   129589   140921   148349 
  146892   151422   158477   152680   148589   150594   146749   138217 
  128936   128741   136945   140673   143497   145393   138245   129926 
  128417   123754   113149   116615   135358   141846   137025   144208 
  154199   146206   126043   116304   121674   119398   114097   123557 
  123884   111099   111297   119804   123850   122822   119966   117977 
  114530   115119   119854   115574   102655    92308    89236    91607 
   93250    89803    86007    88553    94773    97173    93171    88774 
   91385    94990    91601    90333    95776    98402    98654   100772 
  102238   104406   108329   110379   108301   106025   111643   121337 
  120654   113839   115192   116132   110168   112730   124295   127350 
  119719   115001   118713   120670   117635   121997   130951   129664 
  125711   128681   128245   123846   126130   130326   131142   137157 
  147710   150851   145345   141243   141798   138304   127584   116931 
  107033    94090    86378    93821   111313   124447   125507   120361 
  117087   121646   129426   127118   123727   128002   128792   128362 
  131672   132860   128296   120042   116625   118056   119968   125809 
  128379   120405   117616   128434   135323   131821   132825   139707 
  139040   135487   143060   152135   147571   138352   136718   138447 
  140171   142161   141683   141149   139297   134953   139049   149256 
  150976   147975   147237   142684   138786   145020   150736   143551 
  133757   136312   139354   129794   126129   134270   137214   139455 
  146971   146014   137104   132111   128549   124626   124644   127496 
  130739   132363   132563   130937   127276   126270   125464   123100 
  124988   127413   126520   125608   122928   119941   122968   128472 
  131582   134528   135167   130481   123655   120635   126141   132814 
  131516   129818   134498   138288   135791   132352   132487   132268 
  132087   137560   141145   134161   126754   126704   126972   123672 
  121267   123330   129442   137442   139777   132003   124884   125177 
  125956   124992   126349   127627   121695   111961   110842   116846 
  116385   111546   115710   124142   124360   124389   131954   131563 
  119400   116360   125462   131073   130400   127892   127398   130539 
  130785   127609   127195   127105   125702   129074   135782   131959 
  116381   111581   122344   123599   114915   118206   123280   115927 
  114860   125694   128970   122727   121478   126367   126027   119552 
  116905   120045   123249   125048   126855   127289   122764   114043 
  109809   113921   119144   120309   120954   125271   129115   127072 
  122292   120470   121575   121887   122341   125684   131282   134731 
  131487   129824   134242   133595   130966   136657   143548   142119 
  134935   133131   140124   142908   137089   135028   137758   137716 
  136442   136646   136798   133641   131522   135436   134945   128295 
  126848   128535   127865   127112   130301   135994   133600   125743 
  127471   133903   131527   124185   123582   129343   131306   130126 
  131232   130723   126774   122063   120722   125471   128087   123787 
  121032   122154   124685   128594   128315   125542   128062   130794 
  128781   126032   127340   132381   132948   128582   127119   127632 
  125251   121053   121964   129050   131086   124770   123366   131395 
  136083   132598   128593   125020   119491   118039   123682   130848 
  135770   133841   127309   127599   130171   127200   126224   128726 
  129833   132161   137516   139990   136036   132629   133873   133165 
  130167   130577   131645   131210   132116   134050   136127   136925 
  134602   133708   137085   138222   136797   137548   137382   135444 
  134027   133093   132746   131254   129823   130548   129286   125616 
  126100   130823   132070   129032   128592   131401   131073   126568 
