Origin Time       2016/04/16 01:25:00
Lat.              32.753
Long.             130.762
Depth. (km)       12
Mag.              7.3
Station Code      KMMH14
Station Lat.      32.6345
Station Long.     130.7521
Station Height(m) 70
Record Time       2016/04/16 01:24:20
Sampling Freq(Hz) 100Hz
Duration Time(s)  300
Dir.              6
Scale Factor      3920(gal)/6170801
Max. Acc. (gal)   538.580
Last Correction   2016/04/16 01:24:05
Memo.             
[...]
  -25353   -25383   -25401   -25339   -25288   -25316   -25333   -25326 
  -25329   -25315   -25314   -25333   -25314   -25309   -25355   -25361 
  -25334   -25334   -25325   -25298   -25306   -25345   -25363   -25345 
  -25327   -25332   -25335   -25334   -25328   -25317   -25329   -25337 
  -25308   -25309   -25343   -25354   -25357   -25342   -25294   -25285 
  -25321   -25341   -25351   -25357   -25345   -25332   -25318   -25315 
  -25335   -25333   -25312   -25321   -25326   -25326   -25352   -25356 
  -25326   -25316   -25320   -25322   -25331   -25330   -25322   -25327 
  -25330   -25323   -25331   -25346   -25348   -25341   -25319   -25307 
  -25326   -25336   -25336   -25343   -25334   -25334   -25341   -25306 
  -25285   -25307   -25315   -25336   -25375   -25361   -25320   -25317 
  -25333   -25335   -25336   -25355   -25360   -25334   -25304   -25291 
  -25299   -25328   -25351   -25336   -25319   -25320   -25307   -25296 
  -25331   -25366   -25364   -25361   -25355   -25333   -25326   -25331 
  -25325   -25316   -25303   -25292   -25314   -25344   -25345   -25346 
  -25344   -25312   -25306   -25343   -25360   -25354   -25349   -25329 
  -25310   -25330   -25358   -25344   -25319   -25312   -25297   -25285 
  -25299   -25314   -25341   -25381   -25385   -25354   -25325   -25303 
  -25308   -25334   -25346   -25343   -25329   -25307   -25305   -25330 
  -25350   -25352   -25335   -25308   -25303   -25327   -25349   -25348 
  -25342   -25340   -25345   -25356   -25344   -25308   -25294   -25293 
  -25289   -25299   -25319   -25340   -25356   -25358   -25358   -25353 
  -25338   -25340   -25349   -25328   -25309   -25317   -25317   -25319 
  -25328   -25317   -25314   -25338   -25345   -25339   -25338   -25323 
  -25313   -25330   -25348   -25363   -25367   -25325   -25282   -25294 
  -25325   -25343   -25354   -25348   -25326   -25310   -25319   -25345 
  -25358   -25349   -25328   -25307   -25301   -25313   -25333   -25354 
  -25355   -25333   -25314   -25313   -25317   -25311   -25326   -25365 
  -25367   -25339   -25323   -25299   -25294   -25340   -25361   -25342 
  -25348   -25340   -25295   -25297   -25338   -25353   -25362   -25357 
  -25315   -25298   -25324   -25340   -25337   -25346   -25346   -25308 
  -25283   -25320   -25351   -25343   -25338   -25329   -25320   -25337 
  -25334   -25315   -25338   -25353   -25320   -25310   -25329   -25331 
  -25336   -25347   -25339   -25324   -25317   -25311   -25312   -25333 
  -25356   -25354   -25338   -25330   -25324   -25325   -25337   -25335 
  -25320   -25317   -25327   -25340   -25340   -25327   -25325   -25333 
  -25337   -25333   -25322   -25327   -25342   -25327   -25312   -25334 
  -25347   -25334   -25335   -25343   -25338   -25328   -25310   -25301 
  -25322   -25341   -25334   -25329   -25343   -25355   -25347   -25328 
  -25318   -25314   -25317   -25339   -25351   -25334   -25327   -25328 
  -25311   -25308   -25324   -25332   -25354   -25372   -25353   -25332 
  -25315   -25293   -25304   -25336   -25345   -25342   -25337   -25320 
  -25321   -25344   -25355   -25347   -25336   -25327   -25321   -25305 
  -25302   -25331   -25348   -25334   -25332   -25338   -25324   -25320 
  -25336   -25337   -25336   -25343   -25329   -25312   -25326   -25337 
  -25326   -25327   -25334   -25330   -25331   -25336   -25333   -25337 
  -25333   -25318   -25320   -25322   -25315   -25334   -25357   -25350 
  -25340   -25334   -25329   -25335   -25334   -25325   -25322   -25313 
  -25304   -25312   -25329   -25336   -25336   -25341   -25351   -25356 
  -25338   -25312   -25312   -25332   -25341   -25337   -25331   -25332 
  -25330   -25318   -25309   -25315   -25333   -25346   -25337   -25326 
  -25334   -25342   -25331   -25327   -25342   -25351   -25336   -25305 
  -25290   -25319   -25353   -25344   -25327   -25332   -25336   -25336 
  -25338   -25339   -25341   -25327   -25306   -25306   -25326   -25344 
  -25354   -25352   -25340   -25329   -25316   -25306   -25321   -25341 
  -25340   -25329   -25318   -25318   -25335   -25353   -25357   -25344 
  -25318   -25303   -25313   -25325   -25331   -25342   -25339   -25326 
  -25331   -25339   -25330   -25324   -25326   -25322   -25323   -25329 
  -25326   -25334   -25352   -25348   -25331   -25326   -25320   -25325 
  -25352   -25360   -25333   -25316   -25321   -25320   -25317   -25325 
  -25327   -25327   -25328   -25318   -25320   -25348   -25360   -25345 
  -25333   -25331   -25324   -25317   -25321   -25324   -25332   -25345 
  -25334   -25319   -25336   -25345   -25333   -25333   -25324   -25307 
  -25322   -25332   -25318   -25337   -25362   -25338   -25323   -25340 
  -25335   -25322   -25325   -25323   -25330   -25344   -25326   -25308 
  -25325   -25340   -25338   -25340   -25340   -25339   -25335   -25318 
  -25311   -25327   -25331   -25322   -25332   -25341   -25334   -25337 
  -25344   -25336   -25328   -25327   -25323   -25323   -25324   -25318 
  -25324   -25353   -25364   -25341   -25314   -25309   -25325   -25337 
  -25333   -25331   -25336   -25338   -25332   -25328   -25330   -25337 
  -25342   -25333   -25323   -25322   -25320   -25325   -25340   -25347 
  -25342   -25334   -25320   -25309   -25313   -25328   -25337   -25343 
  -25344   -25332   -25323   -25333   -25342   -25336   -25328   -25326 
  -25324   -25323   -25326   -25332   -25338   -25340   -25334   -25333 
  -25339   -25335   -25326   -25324   -25324   -25329   -25335   -25329 
  -25326   -25328   -25327   -25333   -25337   -25332   -25337   -25343 
  -25337   -25337   -25334   -25314   -25312   -25324   -25324   -25333 
  -25344   -25332   -25326   -25337   -25333   -25326   -25337   -25338 
  -25329   -25331   -25332   -25326   -25327   -25331   -25335   -25341 
  -25343   -25337   -25329   -25327   -25329   -25330   -25327   -25321 
  -25318   -25324   -25331   -25335   -25341   -25345   -25338   -25329 
  -25325   -25327   -25330   -25337   -25341   -25336   -25331   -25333 
  -25338   -25337   -25330   -25324   -25321   -25322   -25325   -25329 
  -25340   -25348   -25341   -25335   -25337   -25336   -25335   -25335 
  -25326   -25319   -25322   -25324   -25328   -25335   -25333   -25328 
  -25325   -25324   -25329   -25339   -25340   -25337   -25346   -25346 
  -25330   -25328   -25337   -25333   -25320   -25314   -25317   -25324 
  -25331   -25336   -25337   -25338   -25340   -25339   -25338   -25339 
  -25332   -25317   -25317   -25333   -25340   -25333   -25326   -25320 
  -25319   -25329   -25339   -25341   -25337   -25330   -25323   -25324 
  -25334   -25338   -25329   -25330   -25340   -25335   -25329   -25330 
  -25323   -25319   -25330   -25341   -25341   -25333   -25319   -25318 
  -25330   -25332   -25332   -25341   -25342   -25335   -25332   -25331 
  -25334   -25338   -25333   -25333   -25335   -25328   -25322   -25323 
  -25325   -25332   -25331   -25319   -25320   -25330   -25333   -25339 
  -25350   -25349   -25335   -25322   -25318   -25324   -25332   -25341 
  -25341   -25325   -25307   -25309   -25321   -25337   -25351   -25349 
  -25337   -25327   -25321   -25327   -25338   -25341   -25337   -25331 
  -25324   -25322   -25324   -25328   -25329   -25329   -25333   -25333 
  -25331   -25338   -25340   -25332   -25331   -25333   -25328   -25328 
  -25330   -25328   -25331   -25333   -25328   -25330   -25331   -25325 
  -25325   -25334   -25340   -25341   -25334   -25320   -25319   -25330 
  -25336   -25335   -25339   -25337   -25323   -25318   -25326   -25333 
  -25334   -25337   -25339   -25336   -25330   -25329   -25335   -25340 
  -25339   -25334   -25329   -25324   -25322   -25316   -25317   -25334 
  -25341   -25334   -25331   -25328   -25326   -25333   -25339   -25343 
  -25344   -25333   -25320   -25320   -25328   -25335   -25335   -25331 
  -25331   -25333   -25336   -25338   -25334   -25329   -25333   -25333 
  -25325   -25331   -25339   -25333   -25332   -25335   -25328   -25323 
  -25321   -25317   -25325   -25337   -25336   -25334   -25337   -25339 
  -25337   -25335   -25332   -25325   -25316   -25317   -25328   -25337 
  -25345   -25347   -25336   -25327   -25323   -25317   -25320   -25331 
  -25336   -25337   -25338   -25335   -25330   -25331   -25337   -25338 
  -25333   -25328   -25327   -25327   -25329   -25329   -25326   -25330 
  -25335   -25331   -25329   -25330   -25324   -25322   -25332   -25339 
  -25341   -25341   -25337   -25336   -25339   -25337   -25329   -25321 
  -25321   -25324   -25325   -25332   -25338   -25337   -25335   -25335 
  -25332   -25334   -25335   -25331   -25334   -25337   -25325   -25319 
  -25330   -25335   -25333   -25334   -25330   -25325   -25325   -25327 
  -25328   -25333   -25340   -25341   -25336   -25332   -25330   -25327 
  -25331   -25334   -25328   -25325   -25329   -25333   -25336   -25338 
  -25339   -25338   -25335   -25327   -25318   -25322   -25331   -25330 
  -25331   -25334   -25329   -25328   -25334   -25334   -25335   -25342 
  -25340   -25332   -25329   -25327   -25325   -25328   -25331   -25330 
  -25329   -25325   -25322   -25328   -25331   -25332   -25337   -25336 
  -25333   -25334   -25334   -25337   -25335   -25327   -25328   -25330 
  -25324   -25325   -25332   -25329   -25327   -25329   -25329   -25334 
  -25341   -25337   -25331   -25331   -25329   -25318   -25286   -25228 
  -25172   -25151   -25172   -25170   -24989   -24503   -23844   -23584 
  -24378   -26053   -27289   -26870   -25296   -24873   -27269   -30140 
  -28555   -21524   -15056   -17028   -27362   -36448   -37025   -28547 
  -14420    -9101   -24164   -43477   -50367   -49074   -36024   -13462 
   -6056   -16883   -31138   -45107   -46811   -24083    13842    45158 
   45152    11238   -31526   -66765   -80564   -53967   -13277    -2752 
  -14059   -31943   -53831   -44714     -787    25530    12392   -36444 
 -104656  -136530  -116172   -83953   -39103    24033    66908    79273 
   59520    -3235   -52302   -46936   -34141   -29725   -16261   -13965 
  -29840   -47338   -59197   -47401   -13240    -2421   -28197   -55020 
  -62872   -52368   -23100    19992    51729    45032     -853   -66759 
 -108759   -91783   -46283   -10318    14180    16565    -6966   -38802 
  -59989   -37867    28107    77431    66509     6258   -57799   -85445 
  -86517   -82958   -70082   -54741   -60979   -82942   -78120   -28405 
   31789    81150   129804   140272    76425     9470   -14213   -36820 
  -45098   -36567   -72377  -118549  -113715  -105497  -108393   -58113 
   21084    48132    27874    14618    38192    82038    94111    56716 
    4223   -49080  -111654  -159024  -178356  -185384  -172679  -152622 
 -144877  -108055   -12131   107161   200630   226362   173692   102788 
   54927   -20478  -121863  -162475  -149116  -135544   -98686   -51474 
  -29219    11290    50902    13926   -40292   -45283   -58809   -82303 
  -74460   -70308   -60442   -18145    -4128   -39996   -78986   -96600 
  -81784   -51003   -46156   -71955  -106520  -105906   -33955    52052 
   98478   144041   163097    73470   -54628  -109168  -132545  -155484 
 -116504   -48102   -34552   -24844    57403   128565   109198    77174 
   67212     7921   -98817  -179197  -191478  -120371    23273   156842 
  189948   138401    83169    37628   -52225  -175790  -275492  -354831 
 -398377  -358260  -255113   -71661   236008   493140   481839   296937 
  115332   -52967  -163860  -142587   -56665   -15531   -43719  -121848 
 -213542  -223742   -78512   147479   295133   252970    60036   -99372 
 -157358  -213706  -223294   -96315    13590    -7919   -63056   -93945 
  -52184   107250   215209   133010     8362   -51065   -76796     1545 
  152150   172842   100621    59356   -83386  -339247  -452714  -376079 
 -283467  -203714   -76953    53992   128264   162667   185497   207491 
  262983   277397    94215  -170571  -290331  -332745  -358249  -197853 
  140291   400264   443686   302729    52262  -183881  -306803  -335828 
 -294171  -170173   -54154   -47038   -83836   -30150   160710   369262 
  365978   130165   -53634   -27474    43912    19978   -40920   -81337 
 -115634  -120213   -54150    81760   215841   214321    52259  -169484 
 -367107  -468941  -481698  -456952  -295588    60048   378911   391127 
  144935   -98994  -204406  -150110    18167   154091   181528    77578 
 -155961  -340915  -296552   -41292   306409   603628   659034   356418 
 -117616  -447246  -568627  -527424  -261274    82633   152767   -14902 
 -127411  -226375  -329110  -180734   101343   206016   208300   156964 
  -49033  -231631  -196388  -115702  -144519  -138128  -107626  -235256 
 -352047  -245977   -53247   133426   307988   357700   256545    83593 
  -32100    41965   180959   113818  -124750  -240216  -165495  -104789 
  -94657   -13531    66515     -117  -188272  -389855  -502518  -444985 
 -211469   110463   356587   414163   355563   283320   219109   200242 
  187881    84485   -52545  -152946  -294315  -492947  -576938  -407196 
 -109901   104503   209215   259226   251479   201913   178098   148572 
   12748  -178052  -317533  -416701  -443970  -291028   -44050   123539 
  249825   323627   196302   -28496  -164012  -279175  -375192  -280170 
  -61562   102195   265348   434555   443608   322168   260036   190965 
  -91389  -468767  -660476  -669653  -620354  -468369  -204709    45473 
  280804   540539   656539   513494   286814   114400   -99148  -381097 
 -582780  -612799  -515757  -395178  -355119  -401812  -429641  -385073 
 -314146  -244597  -162299   -52310    71001   170499   240173   289234 
  359009   530613   743676   822491   736410   549044   268962   -64499 
 -353442  -520942  -519879  -357322  -144561   -16826   -11611   -65111 
  -71204     7694   100497   167237   220264   228984   170432    47470 
 -146103  -355887  -473197  -433251  -245818    34290   336738   569023 
  647269   563221   393200   230357   101413   -15959  -128985  -206193 
 -220324  -203428  -171932   -96185    10241   115271   224578   307976 
  282217   161188    57412      932   -33231   -43038   -88255  -216252 
 -311574  -273548  -198768  -183806  -189630  -217437  -302665  -370918 
 -369825  -331444  -233597   -69067    59882    66071   -30003  -140890 
 -197020  -181099  -100025     5026    77002    93036    25886  -118005 
 -223574  -222685  -175092  -122577   -81273   -66788   -56383   -56756 
  -75013   -52926     8840    34330    45106   122744   220750   250896 
  237476   197758    68320  -131856  -251033  -216360  -130337   -85258 
  -69783   -48994   -13629     6663     2181    25334    81104    91567 
   14263  -126511  -273431  -368501  -419180  -431701  -359832  -243920 
 -170995  -105458    18230   131740   131347    48978   -36502  -109109 
 -130006   -35191   159208   326885   353221   297759   276392   278482 
  279980   288869   241424   119420    24468     -957     2925    32438 
   60077    -1753  -146485  -263181  -308808  -301636  -214495   -30147 
  187140   337243   353179   263525   194315   220545   285869   343157 
  378909   310930   118490   -85322  -239147  -325788  -314254  -274215 
 -273132  -260205  -215896  -177263  -117826    33286   246621   369290 
  333597   221587   108158    22383   -45446  -117509  -180006  -248489 
 -316478  -314885  -257287  -194631  -126494   -46071    68702   186197 
  220396   184587   145626   118691    96884    60780     9129   -36750 
  -93619  -162393  -211139  -257401  -289452  -236527  -131232   -52403 
   36980   151237   192447   155865   140812   129001    49635   -42093 
  -90881  -143558  -204109  -224768  -241757  -303308  -356742  -345349 
 -286185  -205854  -102914    37469   219602   382406   433125   381011 
  306152   212635    86852    12715    29691    25759   -53587  -126947 
 -190854  -309236  -438499  -516802  -562361  -559847  -459432  -306257 
 -180414   -73887    20648    54865    55569   100498   165053   192821 
  195877   174228   106374     -584  -117289  -187042  -170313   -81821 
   27544    83848    68691    33059    -9256   -70789  -116947  -101338 
  -32317    37754    62368    21244   -50414   -77828   -35478    34800 
   68001    34334   -12338   -10947     8120    -2913    -1615    51695 
   77155    10076   -79880  -133504  -175520  -203723  -201009  -198285 
 -201619  -180892  -137827   -78619    10968   113818   157016    92987 
  -21430  -104866  -118302   -46253    42842    51850    23591    43245 
   83320   105653   138731   185899   199572   177260   150982    96914 
   20894    12683    93664   192150   248048   218304    96150   -88045 
 -300655  -441856  -443786  -385630  -301339  -171181   -53255    56510 
  217423   380754   460524   446801   384648   296652   150051   -47110 
 -198959  -244489  -197956   -96716    -3625    36497    18601   -53271 
 -134909  -177768  -196651  -198710  -152692   -74966   -10814    32402 
   41561      307   -44478   -57253   -89173  -163583  -225154  -259866 
 -308844  -367213  -406382  -440783  -453511  -366477  -168057    49402 
  189412   219969   172685    87649   -22235  -116750  -126015   -58928 
   -2497   -20349  -118945  -228350  -262621  -234919  -179657   -74717 
   51903   103477    41016   -49864   -52635    34162   111387   122219 
   97134    50072   -45522  -140824  -154441  -104773   -36396    44832 
  100181    91567    48409     3424   -45625   -82712   -69395     -666 
   86026   159498   211303   212108   123427     2737   -41853   -34806 
  -52550   -54253    -6570    16940   -33975   -97006   -78317    14047 
   98760   145346   155870   106366   -13225  -156701  -260554  -298919 
 -275544  -225707  -203650  -194654  -147504   -79040    -4357   101119 
  220097   329930   401033   355288   213565    88455    -4456   -81725 
 -105065   -81054   -59915   -52382   -40012   -30968   -58585  -107626 
 -114720   -57125    44537   155784   227600   243566   230385   217889 
  222500   223172   189057   128090    42454   -74760  -179736  -227093 
 -215499  -157486  -105912  -111045  -131057  -120130  -102917  -100489 
 -101215  -105788  -140277  -199419  -207275   -91470   124235   334406 
  442268   413150   262357    68075   -45253   -39874    16740    75628 
   97888    26626  -124188  -257836  -307027  -302878  -302218  -296245 
 -250257  -192425  -164221  -117905   -29799    17413    18596    41923 
   64523    63410    73561    78105    45390     3170   -32800   -85152 
 -147290  -176386  -158267  -146711  -188758  -252559  -296365  -306466 
 -264322  -188416  -137050  -115212   -69634     5857    43544    11156 
  -42572   -77179  -100861  -129426  -162464  -182231  -174673  -160529 
 -159425  -134330   -63379     9983    84232   171448   180957    55333 
 -122858  -263560  -330742  -313100  -234293  -133415   -38218    16920 
   21905    37297    94781   142720   175031   218082   223241   168621 
  124421   120159   111273    96020   118366   143482    91266   -22483 
 -137176  -239593  -312081  -320248  -267798  -177722   -56530    82862 
  228306   387977   535320   607017   592812   535853   459510   349175 
  186130    -7237  -172311  -261266  -267202  -224746  -171214  -122879 
  -94758  -101720  -126514  -117436   -56301    18137    76885   113086 
  115928    93315    74561    72741    68850    33160   -40851  -134697 
 -223402  -272757  -263869  -219732  -164225  -100136   -31647    32239 
   89540   142332   160149   104736     3337  -100797  -203619  -288887 
 -324827  -302858  -249481  -222604  -247341  -273791  -252655  -190113 
