Origin Time       2016/04/16 01:25:00
Lat.              32.8
Long.             130.8
Depth. (km)       10
Mag.              7.1
Station Code      KMMH16
Station Lat.      32.7967
Station Long.     130.8199
Station Height(m) -197
Record Time       2016/04/16 01:25:08
Sampling Freq(Hz) 100Hz
Duration Time(s)  300
Dir.              3
Scale Factor      2940(gal)/6170270
Max. Acc. (gal)   195.531
Last Correction   2016/04/16 01:24:53
Memo.             
[...]
  127591   127597   127587   127577   127573   127570   127576   127586 
  127574   127562   127580   127590   127574   127573   127594   127600 
  127594   127592   127590   127586   127584   127579   127583   127593 
  127586   127575   127582   127586   127574   127564   127567   127576 
  127581   127579   127582   127585   127577   127578   127590   127592 
  127584   127581   127585   127588   127587   127583   127579   127585 
  127586   127578   127585   127594   127581   127576   127589   127590 
  127583   127578   127581   127591   127582   127575   127587   127584 
  127578   127580   127581   127587   127584   127575   127579   127582 
  127581   127579   127573   127574   127585   127588   127572   127570 
  127595   127600   127585   127582   127587   127583   127577   127581 
  127584   127579   127585   127591   127588   127586   127580   127582 
  127590   127583   127573   127580   127581   127574   127580   127583 
  127580   127584   127583   127580   127574   127578   127590   127585 
  127585   127593   127585   127582   127587   127579   127573   127579 
  127582   127580   127583   127587   127583   127584   127585   127577 
  127576   127582   127584   127580   127574   127574   127576   127579 
  127583   127587   127583   127578   127591   127601   127590   127584 
  127585   127580   127576   127579   127584   127584   127581   127579 
  127579   127581   127588   127590   127578   127578   127589   127582 
  127575   127581   127586   127587   127579   127574   127589   127589 
  127576   127585   127595   127585   127582   127583   127581   127575 
  127576   127592   127594   127581   127582   127581   127574   127584 
  127592   127583   127581   127595   127593   127577   127580   127589 
  127584   127579   127579   127579   127583   127586   127578   127576 
  127584   127583   127580   127588   127592   127585   127580   127585 
  127588   127584   127582   127586   127591   127588   127580   127585 
  127591   127581   127574   127582   127586   127579   127580   127588 
  127587   127581   127577   127580   127584   127579   127578   127587 
  127591   127591   127587   127584   127590   127591   127584   127578 
  127582   127588   127581   127578   127585   127584   127578   127582 
  127586   127579   127573   127581   127589   127584   127580   127585 
  127585   127576   127578   127586   127580   127576   127589   127593 
  127579   127575   127589   127590   127581   127587   127587   127579 
  127584   127588   127585   127586   127584   127579   127581   127588 
  127582   127572   127580   127591   127583   127579   127589   127590 
  127581   127583   127591   127585   127579   127588   127592   127587 
  127587   127587   127585   127580   127577   127589   127593   127579 
  127579   127595   127597   127588   127586   127585   127579   127580 
  127590   127594   127590   127588   127587   127583   127579   127584 
  127589   127584   127582   127585   127585   127588   127587   127586 
  127587   127584   127582   127584   127586   127591   127587   127579 
  127578   127583   127584   127581   127583   127589   127581   127577 
  127588   127593   127587   127583   127581   127578   127583   127586 
  127581   127583   127587   127583   127580   127585   127588   127583 
  127578   127582   127586   127581   127579   127586   127587   127582 
  127586   127591   127589   127588   127583   127578   127585   127589 
  127583   127579   127581   127586   127586   127579   127579   127582 
  127583   127584   127583   127576   127578   127586   127582   127579 
  127587   127585   127577   127578   127583   127585   127585   127583 
  127584   127587   127586   127586   127584   127579   127580   127584 
  127587   127587   127582   127580   127581   127581   127582   127586 
  127589   127585   127580   127585   127587   127581   127580   127583 
  127586   127585   127583   127585   127582   127579   127586   127587 
  127582   127583   127581   127580   127585   127584   127584   127586 
  127583   127583   127588   127585   127579   127579   127581   127583 
  127582   127579   127582   127581   127582   127586   127583   127583 
  127586   127582   127581   127585   127584   127585   127585   127581 
  127581   127585   127587   127585   127584   127587   127587   127581 
  127577   127581   127585   127582   127579   127583   127587   127583 
  127582   127583   127578   127577   127584   127589   127589   127587 
  127583   127583   127587   127584   127582   127588   127588   127582 
  127584   127586   127584   127583   127585   127588   127586   127584 
  127585   127585   127585   127587   127586   127582   127583   127587 
  127587   127588   127589   127583   127581   127587   127586   127581 
  127584   127586   127583   127585   127589   127584   127580   127584 
  127585   127582   127584   127586   127583   127582   127587   127590 
  127586   127587   127588   127581   127580   127585   127585   127583 
  127583   127585   127587   127586   127585   127584   127583   127585 
  127586   127583   127581   127584   127589   127586   127580   127581 
  127582   127580   127583   127588   127587   127582   127581   127584 
  127584   127582   127582   127581   127584   127586   127582   127583 
  127587   127584   127582   127586   127585   127580   127583   127589 
  127589   127582   127579   127584   127584   127578   127580   127585 
  127584   127584   127584   127583   127577   127576   127586   127585 
  127579   127585   127590   127586   127583   127585   127586   127583 
  127582   127583   127582   127583   127588   127588   127584   127583 
  127582   127583   127583   127581   127584   127587   127581   127578 
  127585   127586   127579   127577   127578   127581   127584   127584 
  127585   127588   127585   127580   127583   127584   127579   127579 
  127587   127587   127580   127580   127585   127585   127581   127579 
  127581   127580   127575   127578   127586   127587   127583   127580 
  127580   127582   127584   127581   127578   127582   127584   127579 
  127579   127584   127580   127576   127577   127578   127581   127585 
  127581   127581   127586   127582   127576   127579   127581   127579 
  127584   127586   127579   127580   127585   127580   127578   127584 
  127586   127585   127582   127580   127581   127581   127581   127583 
  127584   127582   127580   127579   127581   127581   127578   127580 
  127585   127587   127585   127582   127583   127582   127582   127583 
  127581   127582   127587   127585   127581   127582   127584   127582 
  127580   127581   127582   127583   127583   127583   127581   127580 
  127583   127583   127580   127579   127582   127585   127586   127586 
  127584   127581   127583   127585   127583   127579   127580   127584 
  127584   127581   127581   127585   127584   127578   127580   127585 
  127584   127583   127583   127581   127580   127581   127577   127574 
  127580   127584   127579   127580   127582   127579   127577   127580 
  127582   127585   127586   127579   127577   127581   127581   127580 
  127581   127580   127579   127582   127581   127577   127579   127584 
  127582   127580   127581   127580   127578   127581   127580   127578 
  127583   127585   127581   127579   127579   127578   127577   127578 
  127581   127581   127581   127583   127585   127584   127583   127584 
  127584   127582   127581   127584   127586   127585   127581   127582 
  127585   127585   127584   127583   127579   127578   127581   127582 
  127584   127583   127581   127580   127581   127583   127584   127582 
  127580   127582   127583   127582   127584   127585   127584   127582 
  127582   127581   127579   127581   127586   127586   127581   127581 
  127584   127584   127581   127581   127582   127584   127585   127582 
  127582   127583   127582   127580   127582   127584   127580   127579 
  127581   127578   127582   127589   127585   127581   127584   127584 
  127583   127582   127583   127582   127581   127580   127583   127585 
  127583   127583   127584   127581   127580   127583   127584   127582 
  127584   127584   127581   127581   127584   127582   127581   127587 
  127586   127583   127586   127585   127581   127582   127584   127583 
  127583   127581   127578   127582   127585   127584   127583   127582 
  127583   127585   127582   127581   127585   127586   127583   127582 
  127582   127582   127584   127586   127583   127583   127587   127589 
  127586   127584   127587   127586   127584   127586   127585   127585 
  127584   127578   127570   127560   127539   127528   127542   127534 
  127436   127258   127146   127276   127501   127441   127206   127105 
  126973   126907   127247   127683   127943   128050   127536   126236 
  125325   125970   127261   127377   126611   126702   127577   128242 
  129470   131210   130798   127585   125205   127453   131109   129548 
  125718   124818   124813   124030   123326   127123   134451   134102 
  127820   125389   122464   117712   119724   126086   129775   135419 
  144452   142640   123674   110309   118568   125356   119939   125734 
  140868   141316   132204   133044   137605   131994   127451   131261 
  129107   123704   128123   128924   118133   116078   124525   126480 
  125474   131582   135154   124957   116314   123798   135206   137447 
  130483   124882   125472   124170   120598   117303   119756   129027 
  127991   121212   127568   134561   123201   110941   123014   133840 
  125146   126208   133249   126018   112389   102509   105355   115706 
  118639   115242   116530   126280   132989   133565   140132   149110 
  147861   139251   135940   142680   146963   135021   116027   114079 
  125159   121890   111796   108943   102130   101964   119164   132701 
  132191   135077   142718   134560   124089   128240   120484    94837 
   93384   125275   139266   130146   138311   145573   133211   123161 
  118010   115417   117006   119843   124827   124878   119644   119510 
  119129   113054   112471   119216   122485   112188    93289    95055 
  108611    95866    83423    98489   112375   118194   123366   122972 
  122728   121019   117789   122152   128618   139163   165503   197717 
  205089   171191   127490   103023    86814    89926   125286   156468 
  156945   145169   152412   163488   138400   110773   118840   130383 
  133022   150889   180589   188999   163601   130210   116155   123649 
  135299   149656   180587   214162   213588   176761   154575   153220 
  130794   111915   123480   138610   149758   157097   152860   132053 
   98469    81972    90508    99583   104467   107840   109295   106738 
   94464    97194   117720   120737   129153   162666   182967   180265 
  170049   161154   157508   152315   141044   124619   107611   100629 
  109321   111952    89126    82630   127903   165952   135651    96828 
  120539   143020   121315   120895   145262   149644   143057   135509 
  119589   117765   139963   148533   135706   120788   117017   122892 
   97503    68521    96269   141495   179438   210306   196915   158971 
  141222   126573    97353    81863   101421   125216   119375   104689 
  101464   102345   118091   147161   165316   161772   138820   124805 
  134320   137216   119945    86965    59958    73410    99774   107295 
  114430   119975   131044   154517   158602   158413   176873   176284 
  156469   164787   186637   166653   131956   133772   138012   124188 
  115419   107808   114453   133342   113363    76083    68680    68630 
   76429    88990    73247    60620    84541   116137   135452   171206 
  225253   219642   161210   156527   168827   111554    47212    48562 
   94029   130527   147036   153618   125364    98584   110023    75888 
   19707    63665   140498   128271    76671    85267   136697   141211 
  100489    92912   119285   130955   123367   121718   143163   175094 
  207193   236631   232436   186666   136402    98534    82727   122608 
  190223   195825   141845   120324   163207   204505   178880   132960 
  139338   145251    84113    28027    75024   164348   185570   167707 
  169354   188785   187448   133496    86579    61833    24857    51082 
  134501   167521   170262   185063   179940   181563   244152   292791 
  248444   207894   232785   231523   170642   120503   108471    72059 
   14895     8226    27613    38388    44134    57467   112865   180334 
  220469   227249   193010   174817   176952   122460    50341    25328 
   37235    71080    72894    33315    42374   122525   183287   147652 
  104607   168149   196069    89524    32615   100494   159392   123819 
   46586    21711    39549    90947   176851   170367    64841    51557 
  164972   233011   198487   196615   226869   149645    48797    81207 
  137091    60561   -57826   -78733   -43779   -22518    14570    59040 
   18930   -58851    12521   188979   241952   178806   179946   241981 
  217983   142115   158318   170999    49081   -61391   -20877    81792 
  102338    65384    99123   160232   156925   120689    93916   140554 
  201929   121334    45016   141871   237524   224079   221816   313303 
  390280   322400   253481   269023   208277   111740   133940   217949 
  182096    45486    52928   119441    -1084  -159880  -163608   -52767 
   19792    -9728   -30115   -70821  -191948  -245100  -185338   -91370 
   39115   175551   219628   188841   190351   197714   133983    52072 
   12638    18730    60161    78001    41611   -17071   -88913  -147583 
 -164932  -157939  -130463   -83094   -18466    36817    28186   -58446 
 -203987  -282600  -162804    46151   170355   167026   119915   125562 
  114392    35577   -50572  -139248  -202336  -183526   -99859   -17484 
  -19673  -123988  -221854  -197405   -54187   115584   196687   162956 
  120650   128334   154337   149426    66095   -17787    25116   158469 
  268221   293333   215722    82683     5832    68947   232812   322916 
  259594   217347   302787   390172   371621   277522   206936   204254 
  267198   351598   323837   194916   125982   151389   227527   285877 
  243843   153539   138491   167544   119855    64268   105517   175796 
  237928   260501   194030   119590    96131   103262   141239   189877 
  208127   174941   139683   181853   242187   230306   217895   257918 
  294420   333435   386794   373385   265253   156859   117294    91023 
   17233   -59878   -68143   -18902     7379    20539    75826    99212 
   53845    35680    76685   101147    83593   114628   200302   199662 
  114771   120920   216906   212265   100783    34075    20111    17962 
   41484    57403    49351    39538    51130    89369    71210    -6229 
  -14577    73406   200359   308418   363377   353735   250622   125952 
   64933    20899     1283    53963   129524   181224   222385   257557 
  247858   193129   175763   219012   242953   240690   270575   276652 
  211528   172096   189085   186900   169491   195234   257513   293933 
  293434   302941   322276   314384   274814   247912   259812   249875 
  185997   138249   138718   131895    99529    81078    71194    43993 
   26167    36003    44348    60765   122617   178291   192866   219740 
  234246   220736   238974   257465   267338   312738   327188   278873 
  252180   268520   256376   189299   138841   157697   184295   157557 
  136229   152292   140023   111440   112962   121281   117203    88525 
   56864    58243    54723    29105    14767     9380    21972    76632 
  156126   233915   273433   267798   271307   289554   296465   280686 
  239053   229044   239552   195563   147053   142445   155650   160891 
  128499   112631   158496   193995   200419   202988   195784   194520 
  197656   196500   196276   182162   166411   175603   169015   110049 
   60149    57514    53951    34986    27337    58743   129962   190418 
  242873   306170   312204   258763   226454   214455   187147   166315 
  171365   170596   145026   135616   186921   252795   237391   183989 
  196840   218949   183887   152505   158286   168537   159353   143152 
  150649   170224   177853   173923   155225   152475   182653   198906 
  192844   182852   163529   145298   133801   121062    99483    67671 
   64218    95421    99082    83821   110052   146462   137566   121907 
  139193   146247   129515   121656   128278   146790   155957   154986 
  160030   141075   129666   163115   174204   164662   191137   219661 
  203720   161364   140643   130492    98414    93135   124401   129314 
  115248   125950   146248   134483   105857    97501    88198    62176 
   52214    88113   151710   171995   130095   109025   133734   143075 
  127525    95325    66868    81202   100076   102017   109224   117677 
  156167   207597   214346   203690   203305   209237   211325   176395 
  133803   122735    93166    45477    34978    47084    68685    90709 
   87059    95713   124795   115666    78756    62500    66602    73303 
   75373    76589    74143    48922    17024    18466    44812    74958 
  120917   171794   190704   193327   205333   195670   155797   111559 
   75973    55291    38509    42998    85589   103407    68814    33829 
   19766    14190    23757    62478   100432    98420    78480    77394 
  100725   118963   103996    82497    75450    84801   116654   136583 
  126553   109495    93621    93308   112344   113782    92615    85898 
   85519    82569   103544   121171   106121    86936    83677    94181 
  110203   126176   128105   100688    80301   105597   138419   128414 
  100305    94768    89021    70839    77408   104994   102672    68867 
   61860    77524    70880    81903   123414   131807   110794   104233 
  117438   126695   118888   115433   104321    72144    68140    91615 
   82110    38689    10159    18326    47015    75997    88881    77435 
   64496    65019    57990    58411    97846   142841   161426   164268 
  164500   172187   164320   131118   126597   150911   147904   129783 
  145376   191840   200617   149011   131622   179782   208112   187764 
  159513   145409   139616   145391   168695   184375   177563   165656 
  160536   162694   170484   175490   166963   159361   166230   173091 
  174342   157332   123932   115868   127744   134479   156838   189491 
  200704   208302   238718   260492   234251   187607   183682   196701 
  159517   126630   151558   180988   186240   188301   210485   239579 
  239934   223554   210038   196661   185263   173579   162929   169580 
  189296   185239   167394   176068   186376   176125   161649   145581 
  156202   197152   202977   174430   170747   185754   183292   168226 
  164743   168906   169804   177076   187013   185853   165742   132616 
  120395   136272   139332   112735    90061    92839    94970    87341 
   91873    96860    87223    88413   112011   125791   114753   105822 
  100564    76903    47678    35084    32638    21574    10016    26162 
   60001    80497    84938    84580    93797   117089   137503   138713 
  120143   101182    97148   100507   109726   117569   100612    86156 
  113978   135683   115722   104636   113205   107533    96653    97313 
   98234    87669    79444    87898    92914    93221   110108   126066 
  127207   127439   130630   134237   136300   133857   120726   100642 
   94913   109128   125848   129291   126668   139819   162227   169095 
  162034   160522   159603   143937   146591   175731   162508   117550 
  122949   160068   170200   169037   177822   169279   151595   168142 
