Origin Time       2016/04/14 21:26:00
Lat.              32.742
Long.             130.808
Depth. (km)       11
Mag.              6.5
Station Code      KMMH14
Station Lat.      32.6345
Station Long.     130.7521
Station Height(m) -40
Record Time       2016/04/14 21:26:37
Sampling Freq(Hz) 100Hz
Duration Time(s)  300
Dir.              2
Scale Factor      2940(gal)/6170270
Max. Acc. (gal)   67.261
Last Correction   2016/04/14 21:26:22
Memo.             
[...]
    3230     3230     3232     3232     3230     3231     3234     3233 
    3231     3233     3233     3231     3232     3234     3233     3232 
    3232     3232     3233     3232     3232     3231     3231     3231 
    3231     3231     3233     3234     3232     3231     3232     3232 
    3232     3231     3232     3234     3232     3230     3231     3232 
    3232     3231     3231     3233     3233     3231     3231     3232 
    3231     3231     3231     3231     3230     3232     3233     3231 
    3230     3233     3233     3232     3233     3232     3229     3230 
    3233     3231     3230     3232     3233     3232     3231     3229 
    3230     3232     3232     3231     3231     3232     3232     3233 
    3233     3231     3233     3233     3233     3234     3233     3232 
    3234     3232     3232     3233     3231     3232     3234     3233 
    3232     3232     3232     3234     3234     3233     3233     3233 
    3231     3232     3233     3231     3231     3233     3233     3232 
    3233     3232     3232     3233     3232     3232     3233     3232 
    3231     3231     3233     3232     3232     3234     3234     3231 
    3231     3234     3232     3229     3232     3234     3233     3233 
    3233     3232     3231     3232     3232     3234     3234     3231 
    3231     3232     3232     3233     3233     3232     3232     3233 
    3232     3232     3231     3230     3232     3233     3232     3232 
    3233     3233     3233     3230     3232     3234     3232     3231 
    3232     3230     3231     3232     3232     3231     3231     3231 
    3232     3234     3233     3231     3231     3231     3230     3231 
    3232     3232     3230     3232     3233     3230     3231     3233 
    3230     3231     3233     3232     3232     3232     3234     3234 
    3232     3232     3234     3234     3233     3234     3232     3231 
    3232     3233     3234     3235     3233     3231     3234     3235 
    3233     3231     3232     3233     3233     3232     3232     3232 
    3232     3231     3231     3231     3231     3233     3232     3232 
    3234     3233     3232     3232     3231     3231     3232     3231 
    3231     3232     3232     3230     3231     3233     3234     3232 
    3231     3231     3233     3234     3233     3231     3231     3230 
    3230     3232     3233     3231     3229     3231     3231     3229 
    3231     3233     3230     3231     3235     3233     3231     3234 
    3234     3231     3231     3232     3231     3232     3234     3232 
    3232     3234     3232     3231     3233     3231     3231     3234 
    3232     3230     3234     3235     3231     3232     3234     3232 
    3232     3233     3232     3234     3234     3231     3230     3232 
    3233     3232     3233     3234     3232     3231     3232     3234 
    3234     3231     3230     3232     3233     3233     3233     3231 
    3230     3232     3234     3233     3231     3230     3231     3233 
    3234     3231     3231     3234     3234     3233     3232     3232 
    3233     3232     3231     3232     3231     3232     3233     3232 
    3230     3231     3231     3231     3231     3231     3232     3232 
    3235     3235     3233     3231     3232     3232     3231     3231 
    3232     3232     3233     3233     3231     3232     3233     3231 
    3230     3230     3231     3232     3231     3232     3231     3229 
    3231     3232     3231     3234     3234     3233     3235     3234 
    3231     3232     3234     3232     3231     3234     3235     3233 
    3233     3234     3232     3232     3233     3232     3230     3232 
    3232     3233     3233     3232     3231     3231     3232     3232 
    3233     3234     3233     3232     3232     3233     3234     3232 
    3230     3231     3233     3234     3233     3233     3232     3231 
    3230     3231     3232     3232     3232     3232     3232     3232 
    3232     3233     3233     3232     3232     3234     3232     3230 
    3232     3234     3234     3234     3233     3234     3233     3231 
    3232     3234     3235     3235     3233     3232     3232     3232 
    3233     3233     3234     3234     3233     3232     3231     3232 
    3232     3232     3233     3234     3233     3231     3231     3233 
    3234     3231     3231     3233     3232     3231     3232     3231 
    3231     3234     3233     3231     3232     3232     3232     3235 
    3233     3229     3232     3235     3233     3232     3234     3233 
    3231     3232     3234     3233     3231     3232     3231     3231 
    3234     3234     3232     3232     3233     3234     3232     3233 
    3233     3232     3231     3232     3232     3231     3231     3231 
    3232     3234     3234     3232     3233     3232     3231     3234 
    3234     3233     3234     3234     3232     3233     3233     3231 
    3232     3233     3232     3232     3232     3232     3234     3233 
    3231     3232     3233     3232     3234     3234     3233     3232 
    3231     3232     3232     3232     3234     3233     3231     3232 
    3234     3233     3231     3231     3231     3231     3231     3231 
    3230     3231     3234     3233     3232     3234     3233     3230 
    3231     3232     3230     3230     3232     3231     3231     3232 
    3233     3234     3233     3232     3232     3232     3233     3233 
    3233     3234     3234     3232     3232     3231     3230     3231 
    3232     3230     3230     3232     3232     3232     3234     3234 
    3231     3230     3231     3233     3233     3232     3232     3232 
    3232     3233     3232     3231     3233     3233     3231     3231 
    3233     3233     3232     3233     3234     3233     3231     3232 
    3233     3233     3234     3233     3231     3231     3231     3230 
    3230     3231     3232     3234     3233     3232     3232     3232 
    3231     3231     3232     3232     3231     3231     3231     3230 
    3231     3232     3232     3232     3234     3234     3232     3232 
    3233     3233     3231     3232     3234     3233     3233     3232 
    3231     3233     3235     3233     3232     3232     3232     3233 
    3233     3232     3231     3232     3233     3232     3232     3234 
    3234     3233     3233     3233     3234     3233     3231     3232 
    3234     3234     3232     3232     3232     3233     3234     3234 
    3231     3230     3232     3234     3232     3232     3232     3231 
    3231     3231     3232     3233     3232     3232     3234     3231 
    3231     3235     3234     3231     3231     3231     3232     3234 
    3233     3230     3230     3233     3233     3230     3229     3232 
    3232     3231     3231     3231     3232     3233     3234     3234 
    3233     3230     3229     3223     3201     3158     3130     3154 
    3135     3015     2987     3000     2810     2791     3117     3207 
    3056     3068     3343     3645     3509     3643     4400     4230 
    3205     3017     3530     3477     3024     2863     2577     2550 
    2896     2673     2675     3291     3240     2867     3570     4077 
    3249     2821     3034     3582     4000     3133     2987     4101 
    3747     2292     2208     3614     5103     5007     2840     1680 
    2776     3412     2641     1489     1319     2626     3394     2115 
    1661     3007     3241     3355     3831     3478     3896     4301 
    3317     2696     2731     2280     1755      951       53      -60 
    -126       71      426      824     1197      211     -755     -524 
     125      334      513     2244     3124     1216     -521      795 
    3777     4311     2883     1689      430      847     2589     2486 
    1994     3229     4430     3060     -824    -2274      -68      155 
    -276     2299     3282     1140    -1864    -5015    -4107      170 
    4394     8433     5352      618     3279    -1569    -7779      476 
    2882    -2164     2028     4080      373     -151     -183     -876 
    1303     8548    13435    11087    10204     6821      528     3242 
    3704    -3480    -4719    -1961     -789     1423     7485     9141 
    1727     1253     3026    -1715     2811    10438    11434     9863 
      70    -8200    -4130     3256    10825    13843    12442    14931 
   11963     7895    12346     7131     4308    16159     6665   -12105 
  -10668    -7133     1893     4757    -5207     8783    23048    16329 
   11207    -1306    -8178    11179    22569     9416     4370     8574 
    5860     8125     6755     1539     9873    11582      455      607 
    4171     -462     7452    14485    -1674    -8956    -1722    -1502 
    3266    10508    -2115   -14524     1052    12095     8865    17846 
   24511    26915    24732     1426   -20417   -22115   -10958     -205 
    4739     4940    -3668    -3719    -2655   -20053   -21265    -5799 
     644     9028    11749     7652    10479     6296    -4826    -3617 
    1764    -4308    -6397     3971    10571     8122     7845    16758 
   13860    -1896    -7951   -12216    -7733     3936    -1087   -10159 
  -13739    -9536    -3085    -7467    -5175     1570     4827    11527 
    7241     4717    13441    10061     3669     4203     3457     5742 
    8920     9175     6762     -193    -4349    -5975   -10662    -6296 
   10012    19824    22165    29963    32307    22656    11914     1435 
   -3374   -10706   -21929   -12995    -2018     -828     8523     8793 
   -1471     -894     9799    20174    19128    16221    19032    13139 
    7864     9787    -3562   -20734   -17351   -16744   -24176   -17605 
  -17240   -30174   -41307   -58502   -67807   -65700   -68592   -58635 
  -32180    -2529    27062    52687    80301   101442   110618   119430 
  123748   125192   116547    84160    46658    14245   -20616   -55563 
  -80703   -87037   -80951   -65115   -27405    17973    39704    46036 
   62204    81234    90560    98426   115657   133751   135356   120730 
   92797    52795    16101    -5503   -15465   -23466   -29568   -35276 
  -47706   -45332   -22635   -14917   -24489   -31236   -30375   -21779 
  -15309   -14003   -11197   -14061   -27901   -36152   -22890     4180 
   33903    57619    71726    95516   121659   114575    85549    57497 
   30672    22112    32515    38260    46408    71090    93481    89922 
   64893    38709    16517    -6076   -21647   -31954   -53098   -77207 
  -86941   -85227   -77766   -71700   -75622   -83738   -83722   -78736 
  -83433   -91336   -87990   -83554   -82590   -70163   -47668   -32471 
  -26951   -19515    -5418    11552    24676    32195    39964    45649 
   43151    34340    21710    13192    14747    17321    20350    31417 
   41056    40186    34559    28803    22966    18930    19044    17712 
    8529    -5721   -24838   -46584   -64064   -80082   -91575   -89802 
  -85635   -90061   -93134   -84475   -63168   -34665   -10872     1871 
    4000    -5194   -24324   -46977   -61643   -63335   -56885   -44823 
  -31391   -23013   -19504   -15178   -14048   -25472   -33647   -26690 
  -19166   -10369     3157    14558    26946    35079    33767    28746 
   15496    -5634   -24441   -40076   -50412   -49325   -41297   -35847 
  -34658   -29881   -18796   -15081   -21840   -21985   -17262   -16335 
   -3148    21632    33798    34820    39278    44771    45663    43877 
   42951    43561    48100    59084    67119    65448    61541    54497 
   42677    36962    39298    46080    55271    63271    71041    71893 
   61672    52655    47762    43575    44491    48591    50808    54544 
   62657    69405    70790    71253    70707    67034    68173    72262 
   68845    60346    45524    27722    24443    26513    19213    18226 
   20784    11718     6905     9975     4029    -8013   -17480   -22464 
  -24625   -25774   -20137   -14404   -19611   -24960   -27565   -37525 
  -47738   -47729   -42459   -40827   -39537   -35066   -38889   -50136 
  -51778   -43954   -36884   -30991   -27725   -31423   -36459   -38700 
  -43354   -51861   -59119   -59231   -60395   -67941   -66684   -62018 
  -58860   -42800   -32147   -34155   -32080   -35773   -38583   -30575 
  -25827   -18353    -6143     3035    15201    20298     9666     2975 
    8170    11054     8736    10773    22308    37534    43902    41514 
   40506    38069    31480    33021    41516    41584    36518    28515 
    9519    -3677    -2410    -5634    -6120     8388    24658    41860 
   57158    62798    74415    86298    86485    90355    84917    67972 
   67870    68190    56382    51465    51627    53792    59036    60188 
   59000    60729    58343    51898    57872    66836    64950    63701 
   54847    38619    34379    27645     6769   -11289   -16471   -13245 
   -8461    -1221     9305    10974    -1155   -12069   -24484   -46899 
  -56318   -57975   -73593   -73040   -51875   -48714   -59564   -64319 
  -68668   -76067   -74990   -69144   -75863   -83247   -80420   -80458 
  -79247   -73445   -70284   -62361   -48201   -33118   -17072    -6899 
   -3673    -2175    -5651    -9928   -11239   -15247   -13345    -5151 
   -5944    -9404    -8989    -8927    -8307   -15179   -24126   -14588 
   11349    38083    53084    62008    74409    77574    74531    71914 
   58708    49349    52221    49422    39885    32110    29657    31953 
   36711    41577    41734    38662    28188     7035    -6680    -7057 
   -4228     4764    19079    30722    40375    44679    41418    39603 
   36179    32568    45084    58781    58416    59514    61465    59525 
   57800    55584    62418    81583   105331   129496   144388   143373 
  131162   109548    71049    20497   -18568   -41149   -58725   -69667 
  -74223   -71319   -50595   -25746   -16232   -16452   -28180   -49293 
  -58455   -65698   -84143   -88855   -83732   -89870   -83325   -58322 
  -43876   -32534    -9831     9720    23142    31654    21665     1753 
   -5703   -12359   -29456   -37482   -39096   -49976   -57502   -55202 
  -52458   -48184   -39765   -35224   -32958    -9697    32883    63286 
   83475   101355    99438    86345    71995    49787    35412    28070 
   17463    24484    50295    70090    78697    85105    87129    79752 
   66322    40973     8352   -15266   -39735   -68469   -84360   -85658 
  -85848   -92223   -90407   -79143   -83329  -100031  -113373  -127062 
 -136212  -132283  -115001   -86667   -62051   -46697   -28062    -6769 
    9617    15249     4456    -6858    -8248   -16532   -26858   -29625 
  -39653   -45396   -33907   -25235   -25857   -30973   -31598   -15138 
    5275    20210    40693    58681    56602    41674    27720     7328 
  -24444   -49584   -56210   -52469   -43932   -31893   -30276   -45359 
  -53768   -44003   -28216    -2494    29306    51013    64700    63672 
   45168    24109      146   -17630   -14494   -10140   -14356    -5430 
   26364    58155    43078    13581    38683    47119    30767    58036 
   48445    13229     5208   -15313    -7712     6191     5189    29320 
   37755    34550    29451    13651     5190    -9942   -13217      381 
   10076    26705    42656    53392    61238    69130    81740    86342 
   77024    48058    14976    -1334   -14265   -18409    -8424      977 
    5332      801    -4396    -6005    -4844     4934     3826    -7216 
    1068    13385      851   -28745   -55334   -72169   -82306   -92963 
 -104621  -100748   -77141   -44665   -18996   -17752   -17431     2222 
   18313    32786    52705    63198    66755    64243    54836    50044 
   38328     9615   -19823   -48222   -67028   -55776   -21750    26084 
   64881    73614    94342   134628   139304   115581    91151    43369 
  -24908   -73383   -91573  -102456  -118012  -128194  -128042  -119031 
  -95416   -61670   -30086     2932    34585    51728    61943    71022 
   70690    64560    61856    62791    57496    45609    42571    49079 
   60612    79728    91731    86426    78631    71614    53606    32129 
   23977    26561    26393    19663    12997    10423    16709    38278 
   56063    57131    69466    93551   104993   112743   119717   113168 
   88230    48404    13679   -13257   -44662   -72052   -92503  -105282 
 -101024   -90421   -82437   -69850   -56969   -45828   -28044   -12419 
  -12338   -17234   -13462    -9016   -14615   -28144   -42723   -54787 
  -66593   -74896   -75428   -72607   -64082   -50302   -37624   -21185 
   -2149    13715    26809    34278    41382    55752    71332    78292 
   71124    54359    38646    26470    13403      966    -3391     -925 
     511    -3106   -11671   -18309   -19332   -16390    -6219     -215 
   -9654   -13116    -4233    -1800     -821     2285    -1059     -111 
   11949    27128    38831    42478    47853    59448    55670    34179 
   10496   -17305   -41875   -54196   -61934   -59996   -46127   -33877 
  -25885   -18324   -13299   -13407   -11971    -2727     5080     6253 
    6342     7145     9628    12133     9640     4446     4273     7725 
    4685    -4559    -7100     2186    12551    17083    16077     2500 
  -15505   -18972   -18507   -26508   -30538   -28800   -32130   -36484 
  -32630   -23389   -14484    -5232     5596    13648    13127     6286 
     453    -3207    -6221    -6232    -4989    -8121   -12652   -12976 
  -10361    -4897     4078    11161    12917    12405    10778     7157 
    5293    10139    17491    17427    12180    10525     9080     2713 
   -3486    -5321    -3939     1595     8428     8986     4342      -22 
    -558     3437    10506    19626    22417    20466    25485    31719 
   37215    45746    49573    48205    44899    38370    28313    15283 
    2911    -5033    -7194    -8297   -12177   -12711    -9390    -4491 
    4862    11331    11064    15325    23522    25453    25361    28217 
   28552    24502    17505    10533     7070      659   -12121   -21031 
  -21218   -15528    -4716     6807    14293    19365    22066    21061 
   22021    27061    26740    20313    16578    14575    11673     8595 
    5540     5494     6935     8025    10070     8265     5512    10614 
   17030    19498    21940    18976     9185     3624     3099       68 
   -4239    -5882    -5652    -6669   -12134   -18042   -18981   -20112 
  -21591   -17429   -12757   -10403    -5672      165     2528     -221 
   -3862    -5430    -8323   -13876   -21476   -27240   -27623   -27077 
  -24707   -18545   -16972   -19831   -19218   -16593   -14851   -13634 
  -13143   -11171    -6514    -1618       63    -2800    -5013    -2914 
    -885    -1537    -1436     3607    11721    16019    17637    23753 
   32599    38153    38861    36533    35348    34947    33192    33628 
   37111    41141    46158    50614    50343    46784    43502    39062 
   33886    31571    29917    22168    11566     8175     7922     5797 
    7217     7858     4289     4192     5945     3073     -682       32 
    1761     1026     2834     8509    10902     6788      -89    -6897 
  -13443   -16193   -14323   -14543   -15875   -13330   -11540   -12295 
  -12232   -11828   -10623    -7356    -3474     -919     -687    -1756 
   -1874    -1352    -1649    -1452      780     4946     7746     6250 
    3199    -2004    -9725   -12174    -8902    -7957    -9850    -8834 
   -6000    -7288   -11674   -15828   -17407   -15228   -14930   -16513 
  -14816   -14997   -18648   -19782   -20065   -21989   -22927   -21197 
  -19486   -22542   -27554   -29625   -30175   -28460   -24483   -21958 
