Origin Time       2016/04/15 00:03:00
Lat.              32.700
Long.             130.777
Depth. (km)       7
Mag.              6.4
Station Code      KMMH14
Station Lat.      32.6345
Station Long.     130.7521
Station Height(m) -40
Record Time       2016/04/15 00:03:48
Sampling Freq(Hz) 100Hz
Duration Time(s)  271
Dir.              1
Scale Factor      2940(gal)/6170270
Max. Acc. (gal)   84.429
Last Correction   2016/04/15 00:03:33
Memo.             
[...]
  -44171   -44162   -44168   -44180   -44183   -44172   -44158   -44157 
  -44155   -44157   -44174   -44173   -44159   -44157   -44161   -44162 
  -44167   -44180   -44184   -44177   -44185   -44191   -44183   -44180 
  -44185   -44192   -44178   -44162   -44165   -44172   -44181   -44189 
  -44189   -44189   -44185   -44184   -44180   -44175   -44176   -44169 
  -44171   -44181   -44176   -44171   -44169   -44172   -44171   -44168 
  -44173   -44167   -44173   -44183   -44168   -44170   -44182   -44180 
  -44180   -44178   -44173   -44160   -44157   -44176   -44179   -44174 
  -44172   -44165   -44166   -44170   -44182   -44178   -44166   -44180 
  -44182   -44175   -44183   -44176   -44164   -44170   -44175   -44173 
  -44177   -44180   -44169   -44164   -44173   -44185   -44187   -44169 
  -44161   -44167   -44164   -44177   -44187   -44173   -44172   -44183 
  -44183   -44175   -44173   -44182   -44188   -44182   -44175   -44176 
  -44176   -44169   -44164   -44172   -44179   -44184   -44191   -44183 
  -44163   -44165   -44179   -44187   -44194   -44194   -44182   -44177 
  -44177   -44174   -44172   -44164   -44165   -44171   -44163   -44166 
  -44178   -44183   -44180   -44168   -44170   -44178   -44177   -44183 
  -44181   -44167   -44161   -44163   -44171   -44175   -44174   -44174 
  -44169   -44174   -44187   -44185   -44177   -44177   -44175   -44171 
  -44176   -44174   -44163   -44165   -44177   -44191   -44197   -44195 
  -44189   -44178   -44168   -44168   -44174   -44175   -44171   -44175 
  -44175   -44164   -44163   -44173   -44176   -44172   -44169   -44170 
  -44177   -44182   -44174   -44164   -44174   -44186   -44190   -44192 
  -44188   -44178   -44166   -44160   -44163   -44166   -44167   -44166 
  -44169   -44166   -44156   -44172   -44194   -44186   -44173   -44168 
  -44167   -44170   -44167   -44164   -44173   -44185   -44190   -44193 
  -44195   -44190   -44190   -44185   -44171   -44167   -44164   -44162 
  -44164   -44160   -44164   -44177   -44182   -44182   -44181   -44180 
  -44177   -44175   -44184   -44193   -44187   -44179   -44177   -44170 
  -44168   -44170   -44162   -44156   -44166   -44176   -44177   -44179 
  -44182   -44184   -44180   -44177   -44175   -44170   -44172   -44182 
  -44187   -44179   -44170   -44161   -44152   -44155   -44166   -44169 
  -44167   -44172   -44183   -44186   -44182   -44184   -44182   -44174 
  -44173   -44177   -44181   -44182   -44178   -44181   -44184   -44180 
  -44183   -44179   -44169   -44168   -44171   -44177   -44181   -44173 
  -44170   -44174   -44166   -44163   -44172   -44175   -44169   -44167 
  -44174   -44176   -44174   -44180   -44178   -44172   -44177   -44179 
  -44172   -44170   -44176   -44181   -44179   -44178   -44181   -44183 
  -44184   -44182   -44173   -44169   -44174   -44178   -44177   -44173 
  -44175   -44179   -44177   -44172   -44171   -44171   -44171   -44174 
  -44172   -44170   -44178   -44183   -44180   -44184   -44179   -44165 
  -44164   -44171   -44179   -44181   -44177   -44177   -44178   -44179 
  -44180   -44173   -44167   -44169   -44175   -44177   -44178   -44180 
  -44179   -44178   -44174   -44169   -44175   -44179   -44179   -44183 
  -44181   -44176   -44176   -44177   -44177   -44177   -44183   -44188 
  -44184   -44181   -44182   -44185   -44183   -44168   -44164   -44168 
  -44163   -44163   -44166   -44166   -44170   -44172   -44167   -44165 
  -44169   -44168   -44167   -44171   -44174   -44178   -44183   -44179 
  -44175   -44181   -44182   -44176   -44173   -44179   -44185   -44180 
  -44178   -44187   -44183   -44174   -44173   -44166   -44164   -44177 
  -44177   -44168   -44171   -44177   -44178   -44176   -44172   -44170 
  -44167   -44165   -44167   -44174   -44179   -44180   -44181   -44178 
  -44176   -44177   -44171   -44170   -44176   -44176   -44177   -44174 
  -44170   -44172   -44176   -44181   -44181   -44175   -44175   -44176 
  -44171   -44169   -44172   -44172   -44166   -44164   -44168   -44174 
  -44180   -44181   -44179   -44175   -44176   -44178   -44180   -44186 
  -44190   -44189   -44182   -44170   -44169   -44178   -44182   -44178 
  -44175   -44177   -44173   -44169   -44172   -44176   -44182   -44181 
  -44173   -44169   -44169   -44175   -44174   -44171   -44175   -44175 
  -44175   -44174   -44172   -44179   -44181   -44173   -44170   -44170 
  -44172   -44172   -44174   -44178   -44175   -44172   -44171   -44172 
  -44178   -44179   -44174   -44171   -44172   -44174   -44177   -44178 
  -44178   -44176   -44172   -44170   -44171   -44173   -44174   -44175 
  -44177   -44179   -44180   -44183   -44186   -44183   -44178   -44178 
  -44180   -44178   -44175   -44181   -44187   -44173   -44155   -44162 
  -44174   -44164   -44159   -44177   -44184   -44175   -44165   -44163 
  -44169   -44171   -44173   -44174   -44169   -44173   -44178   -44180 
  -44181   -44181   -44183   -44180   -44178   -44189   -44183   -44170 
  -44175   -44183   -44179   -44166   -44168   -44174   -44170   -44177 
  -44175   -44165   -44172   -44181   -44196   -44203   -44183   -44166 
  -44159   -44165   -44182   -44185   -44185   -44182   -44180   -44180 
  -44169   -44166   -44170   -44174   -44187   -44186   -44171   -44165 
  -44168   -44179   -44179   -44171   -44173   -44177   -44178   -44177 
  -44172   -44161   -44160   -44182   -44192   -44183   -44173   -44165 
  -44169   -44173   -44172   -44182   -44186   -44180   -44178   -44169 
  -44173   -44187   -44183   -44176   -44174   -44170   -44172   -44172 
  -44173   -44177   -44171   -44167   -44176   -44180   -44171   -44172 
  -44179   -44175   -44174   -44175   -44171   -44178   -44190   -44189 
  -44174   -44165   -44173   -44181   -44181   -44177   -44170   -44176 
  -44180   -44174   -44180   -44178   -44164   -44177   -44191   -44175 
  -44169   -44181   -44180   -44175   -44175   -44174   -44174   -44175 
  -44175   -44169   -44163   -44171   -44178   -44174   -44176   -44182 
  -44181   -44172   -44169   -44179   -44183   -44183   -44188   -44184 
  -44178   -44174   -44163   -44164   -44180   -44182   -44171   -44166 
  -44171   -44172   -44164   -44169   -44179   -44181   -44184   -44178 
  -44172   -44174   -44172   -44170   -44169   -44171   -44182   -44182 
  -44180   -44183   -44175   -44173   -44178   -44171   -44157   -44162 
  -44179   -44181   -44177   -44173   -44170   -44180   -44181   -44170 
  -44175   -44186   -44182   -44170   -44165   -44169   -44170   -44166 
  -44176   -44187   -44181   -44183   -44190   -44181   -44179   -44181 
  -44173   -44171   -44177   -44180   -44170   -44163   -44175   -44175 
  -44164   -44171   -44187   -44190   -44180   -44184   -44188   -44164 
  -44151   -44168   -44180   -44182   -44183   -44184   -44178   -44164 
  -44161   -44171   -44183   -44185   -44173   -44176   -44183   -44171 
  -44175   -44188   -44177   -44170   -44174   -44169   -44168   -44176 
  -44180   -44180   -44182   -44182   -44165   -44156   -44165   -44170 
  -44172   -44169   -44170   -44183   -44191   -44195   -44191   -44177 
  -44174   -44171   -44168   -44176   -44180   -44175   -44170   -44170 
  -44169   -44168   -44175   -44182   -44187   -44186   -44177   -44179 
  -44180   -44175   -44172   -44171   -44176   -44176   -44175   -44179 
  -44176   -44173   -44179   -44174   -44164   -44178   -44191   -44184 
  -44182   -44175   -44169   -44182   -44173   -44160   -44167   -44169 
  -44173   -44173   -44165   -44172   -44184   -44186   -44176   -44166 
  -44177   -44184   -44177   -44179   -44178   -44170   -44170   -44167 
  -44163   -44179   -44187   -44180   -44186   -44186   -44172   -44170 
  -44165   -44164   -44179   -44182   -44183   -44187   -44172   -44165 
  -44180   -44183   -44178   -44181   -44178   -44171   -44166   -44163 
  -44171   -44182   -44186   -44178   -44167   -44171   -44179   -44182 
  -44180   -44173   -44172   -44173   -44174   -44176   -44171   -44169 
  -44178   -44181   -44170   -44167   -44172   -44172   -44176   -44181 
  -44175   -44173   -44183   -44184   -44170   -44174   -44188   -44183 
  -44178   -44170   -44167   -44187   -44187   -44174   -44177   -44171 
  -44172   -44176   -44168   -44170   -44178   -44174   -44171   -44173 
  -44168   -44166   -44177   -44178   -44171   -44166   -44163   -44175 
  -44182   -44183   -44190   -44179   -44170   -44179   -44173   -44169 
  -44176   -44172   -44169   -44174   -44174   -44177   -44180   -44170 
  -44173   -44182   -44175   -44171   -44178   -44179   -44175   -44173 
  -44174   -44168   -44167   -44183   -44187   -44181   -44179   -44174 
  -44170   -44177   -44182   -44178   -44176   -44180   -44175   -44168 
  -44169   -44167   -44170   -44182   -44184   -44178   -44175   -44177 
  -44174   -44172   -44179   -44180   -44175   -44179   -44181   -44176 
  -44168   -44159   -44165   -44186   -44190   -44173   -44167   -44174 
  -44185   -44191   -44180   -44174   -44172   -44169   -44167   -44160 
  -44164   -44174   -44175   -44177   -44178   -44182   -44186   -44180 
  -44179   -44175   -44170   -44177   -44179   -44172   -44176   -44187 
  -44181   -44166   -44165   -44173   -44178   -44174   -44171   -44177 
  -44181   -44178   -44173   -44173   -44171   -44169   -44174   -44179 
  -44175   -44170   -44169   -44174   -44177   -44178   -44179   -44176 
  -44173   -44169   -44169   -44175   -44179   -44179   -44178   -44175 
  -44178   -44182   -44176   -44170   -44174   -44176   -44173   -44177 
  -44178   -44173   -44174   -44175   -44180   -44188   -44180   -44175 
  -44179   -44177   -44176   -44173   -44174   -44177   -44176   -44182 
  -44182   -44175   -44177   -44175   -44172   -44176   -44173   -44167 
  -44165   -44175   -44179   -44171   -44173   -44176   -44174   -44174 
  -44170   -44168   -44172   -44179   -44177   -44170   -44177   -44183 
  -44177   -44171   -44169   -44172   -44175   -44173   -44165   -44169 
  -44184   -44185   -44177   -44177   -44181   -44181   -44177   -44178 
  -44180   -44179   -44180   -44174   -44170   -44175   -44173   -44169 
  -44177   -44183   -44169   -44165   -44180   -44181   -44174   -44174 
  -44175   -44171   -44167   -44172   -44175   -44173   -44182   -44185 
  -44171   -44172   -44185   -44181   -44172   -44172   -44175   -44184 
  -44182   -44177   -44181   -44176   -44172   -44173   -44170   -44173 
  -44175   -44182   -44186   -44178   -44181   -44184   -44174   -44164 
  -44164   -44180   -44178   -44169   -44176   -44170   -44168   -44180 
  -44179   -44178   -44174   -44169   -44170   -44171   -44177   -44177 
  -44177   -44176   -44167   -44165   -44169   -44169   -44172   -44181 
  -44189   -44178   -44166   -44172   -44176   -44179   -44182   -44184 
  -44178   -44166   -44170   -44170   -44165   -44186   -44188   -44175 
  -44177   -44172   -44181   -44188   -44173   -44171   -44184   -44221 
  -44279   -44358   -44519   -44717   -44622   -44085   -43800   -44004 
  -43910   -43876   -44524   -45148   -45612   -45825   -45224   -44619 
  -44321   -43436   -42635   -42874   -43276   -43431   -44122   -45171 
  -46279   -47922   -49741   -51046   -51854   -52239   -51443   -49323 
  -48111   -47558   -45258   -43621   -43905   -43103   -41435   -39787 
  -37722   -36055   -34710   -33796   -34433   -37280   -42069   -46789 
  -49590   -49987   -49086   -48962   -49330   -49242   -49072   -49404 
  -52287   -57432   -60201   -59252   -56956   -53342   -47689   -42126 
  -39098   -38077   -37835   -37404   -35024   -32402   -32682   -34232 
  -36036   -39840   -44407   -46808   -46348   -45125   -44892   -44585 
  -44444   -46719   -50170   -51422   -50609   -49799   -49706   -49074 
  -44877   -39243   -39314   -45494   -52317   -56006   -57635   -59549 
  -58829   -55873   -51560   -42698   -37658   -38982   -37234   -35553 
  -35120   -36289   -44340   -48289   -44532   -42088   -38639   -38704 
  -45736   -48773   -50063   -54683   -56577   -59424   -67171   -72546 
  -70549   -62569   -54544   -49510   -44119   -38162   -35062   -35236 
  -35420   -33323   -33602   -41555   -49620   -50390   -49938   -48446 
  -45908   -52433   -61426   -62024   -62762   -67753   -70266   -66937 
  -59142   -52548   -54147   -63535   -66865   -58190   -53181   -55029 
  -51877   -49094   -54595   -63385   -72788   -78429   -74105   -64301 
  -55697   -51510   -50125   -48055   -52391   -62046   -64535   -63273 
  -62031   -56198   -48950   -44189   -45255   -50009   -49709   -47824 
  -47445   -46495   -54146   -66195   -67776   -68402   -72813   -64947 
  -51834   -49671   -47298   -46440   -60837   -67401   -58563   -58560 
  -59200   -58817   -71180   -73268   -58891   -47153   -36292   -35258 
  -48416   -54857   -62409   -83012   -94822   -96942   -97504   -78581 
  -52769   -43425   -34203   -22648   -12278     7634     8005   -21387 
  -39516   -53841   -73778   -61124   -36669   -32037   -23456   -23181 
  -41296   -52916   -73573  -107217  -117321   -93875   -57030   -31615 
  -30446   -40036   -30080    -4468    -6023   -37569   -65840   -74971 
  -66168   -53107   -35968   -12542     2068    16319    35854    39930 
   24884     2458   -15467   -26586   -38731   -54732   -70509   -72870 
  -65183   -61184   -52416   -45336   -55808   -74670   -95667  -115871 
 -115328   -86038   -56992   -45368   -34046   -20524   -10428     -222 
    9708    20959    18250    -2337   -13252   -32507   -70055   -77192 
  -67892   -81003   -84799   -70366   -78106  -108088  -122772  -105496 
  -75692   -73317  -101565  -128784  -160931  -196604  -209586  -216971 
 -221376  -196928  -165764  -148822  -126007   -94634   -72258   -62218 
  -57034   -55576   -69266   -95813  -109632  -104276   -90341   -67783 
  -42851   -13887    25987    42609    14041   -21703   -40020   -61191 
  -88600   -89495   -63087   -36679    -1395    33236    30929    17197 
   22125    11321   -25442   -48199   -47959   -37521   -20725   -18539 
  -30499   -22395    -1489    12105    37184    65532    71254    71587 
   79038    82358    81587    73753    50380    34743    56264    85605 
   89090    86590    84546    72435    56198    33389    15186    20048 
   32086    31847    24692    26456    35969    38999    42602    54860 
   63322    66105    69150    69419    72993    82776    82092    65579 
   45306    30442    22635    15686    10100    13612    21813    33034 
   50509    58036    52829    57265    62963    53100    41624    32567 
   22944    19982    17423    15861    27039    32604    14138    -4823 
   -8453   -13887   -26986   -41710   -58366   -69896   -70763   -63818 
  -46881   -24504   -10578   -11016   -20662   -28505   -33980   -44742 
  -53444   -58138   -68905   -74225   -68454   -70852   -83910  -101947 
 -128055  -146913  -136639  -106368   -84126   -74679   -62433   -47298 
  -40778   -44692   -51740   -56837   -66704   -83447   -95456  -102589 
 -113205  -122440  -124547  -127750  -139624  -150596  -150829  -147529 
 -146760  -145987  -147183  -153313  -160288  -164022  -167184  -167302 
 -160601  -159270  -167389  -172057  -171697  -169300  -162336  -156012 
 -152258  -138139  -112059   -91152   -80529   -70558   -59223   -53518 
  -54911   -55400   -54500   -60030   -64801   -61023   -59969   -60911 
  -52859   -46185   -44734   -35468   -22927   -13092     -515     7526 
    7860    13323    24006    28718    25711    19648    13657     8639 
    4098      463     -250     1270      835    -3678   -10565   -17678 
  -24487   -29095   -28338   -26435   -31831   -40537   -41846   -39205 
  -39195   -36108   -30535   -29581   -29600   -27467   -25747   -24837 
  -23492   -19336   -13792   -10355    -8223    -8393   -12536   -17306 
  -19498   -15540    -6715    -3831    -7881   -11551   -17604   -28089 
  -37504   -44614   -49614   -47285   -36233   -24253   -19834   -22739 
  -24928   -24283   -26462   -30272   -30181   -26526   -22001   -20538 
  -24308   -27762   -26827   -25423   -27108   -31057   -35014   -38264 
  -42769   -49093   -55287   -61026   -64909   -64476   -63321   -65168 
  -67492   -72012   -83578   -96734  -105752  -115845  -128095  -136965 
 -142658  -145710  -146333  -149799  -154387  -153733  -153625  -160089 
 -164170  -159289  -153662  -153213  -152882  -149238  -143819  -136387 
 -126946  -118824  -113910  -110563  -107369  -103514   -98454   -94110 
  -91039   -87047   -84063   -83558   -81839   -81034   -84092   -83787 
  -78349   -74512   -70764   -64127   -56970   -46412   -31795   -21797 
  -16506    -8158     -371     1671     3823     7828     7366     2955 
     128     -707     -218      643    -1370    -2604     1645     4647 
     968    -5524   -11184   -14211   -13425   -11660   -13545   -17224 
  -17769   -17855   -19990   -21218   -22264   -22621   -18320   -11648 
   -6051    -1324     2120     5736    10508    14303    18521    24172 
   28292    32018    35891    36980    40213    48335    49842    41247 
   34889    34122    32850    32551    34838    34352    29689    25173 
   21803    16776    10490     5098     -397    -6461   -13252   -20589 
  -25942   -31195   -38287   -44411   -50966   -59387   -66332   -71388 
  -76062   -79886   -83144   -86472   -88982   -90561   -90862   -87804 
  -82985   -79748   -76199   -71459   -70150   -72647   -73566   -71863 
  -69773   -66423   -62021   -60341   -62383   -65431   -68909   -72584 
  -73472   -72320   -73340   -76064   -77959   -80090   -82240   -80975 
  -79069   -83017   -88856   -89648   -89031   -90554   -90705   -89084 
  -87219   -83330   -79804   -79825   -79871   -79638   -80477   -77652 
  -72661   -71797   -71487   -68026   -66697   -68852   -70164   -71622 
  -74396   -74875   -74197   -75430   -74883   -70658   -66090   -60399 
  -52446   -45906   -40479   -34835   -33554   -35253   -32642   -28304 
  -28027   -26966   -19889   -11197    -6019    -5564    -8750   -11665 
  -13791   -17080   -18691   -17458   -15178   -11028    -5992    -2398 
    -632     -596     -719     -978    -2980    -4326    -3658    -4797 
   -8429    -9913    -7496    -4615    -4303    -6236    -9311   -14772 
  -23109   -30885   -36367   -39463   -38460   -36616   -38093   -39416 
  -38298   -36364   -32708   -28276   -27257   -30749   -36123   -40252 
  -42629   -44502   -44894   -42908   -41598   -42948   -43182   -40130 
  -37014   -34116   -31198   -32334   -36294   -38760   -41436   -45223 
  -47505   -48114   -49106   -51394   -53785   -56024   -59141   -61459 
  -61153   -59795   -59173   -60397   -63705   -66076   -65569   -64635 
  -64543   -64371   -64754   -66029   -66832   -66640   -66107   -66027 
  -66424   -66059   -65160   -65653   -67283   -68969   -70867   -71411 
  -69282   -67062   -65911   -63771   -61642   -60838   -59382   -58122 
  -58532   -58455   -58179   -58758   -58294   -56652   -54228   -51107 
  -49021   -47964   -48626   -52768   -56744   -57610   -57814   -58001 
  -58163   -58846   -58595   -58785   -59515   -57958   -58355   -61598 
  -60228   -56370   -55386   -54480   -52804   -50258   -45018   -40515 
  -39569   -39880   -38840   -35118   -31149   -29789   -28396   -25761 
  -24574   -24133   -22798   -21997   -21507   -19269   -15953   -13906 
  -14377   -16492   -17648   -17290   -17286   -17549   -16662   -15110 
  -13933   -12631   -11386   -11855   -13286   -14477   -17043   -19926 
  -20294   -20022   -21562   -24343   -26823   -27159   -26839   -28563 
  -29736   -29016   -28680   -27810   -26934   -28912   -32359   -34858 
