Origin Time       2016/04/15 00:03:00
Lat.              32.700
Long.             130.777
Depth. (km)       7
Mag.              6.4
Station Code      KMMH14
Station Lat.      32.6345
Station Long.     130.7521
Station Height(m) 70
Record Time       2016/04/15 00:03:48
Sampling Freq(Hz) 100Hz
Duration Time(s)  271
Dir.              4
Scale Factor      3920(gal)/6170801
Max. Acc. (gal)   353.275
Last Correction   2016/04/15 00:03:33
Memo.             
[...]
  -18080   -18058   -18075   -18091   -18121   -18163   -18169   -18158 
  -18148   -18111   -18097   -18142   -18188   -18229   -18252   -18196 
  -18139   -18164   -18186   -18166   -18176   -18217   -18247   -18268 
  -18250   -18157   -18070   -18044   -18016   -17986   -18003   -18035 
  -18063   -18103   -18166   -18249   -18287   -18251   -18221   -18229 
  -18183   -18048   -17953   -17984   -18056   -18090   -18130   -18216 
  -18275   -18256   -18214   -18195   -18184   -18175   -18194   -18239 
  -18249   -18214   -18191   -18155   -18089   -18064   -18087   -18113 
  -18149   -18195   -18201   -18167   -18161   -18183   -18201   -18232 
  -18245   -18228   -18221   -18206   -18160   -18119   -18095   -18074 
  -18079   -18105   -18131   -18148   -18127   -18084   -18070   -18085 
  -18104   -18108   -18100   -18086   -18066   -18069   -18093   -18110 
  -18169   -18251   -18285   -18326   -18378   -18355   -18301   -18268 
  -18190   -18077   -18031   -18054   -18070   -18074   -18083   -18082 
  -18075   -18084   -18111   -18145   -18152   -18141   -18190   -18286 
  -18300   -18239   -18223   -18227   -18191   -18158   -18142   -18147 
  -18183   -18184   -18143   -18127   -18119   -18108   -18121   -18118 
  -18084   -18076   -18136   -18216   -18237   -18211   -18194   -18158 
  -18100   -18082   -18097   -18120   -18139   -18155   -18181   -18190 
  -18163   -18143   -18146   -18147   -18158   -18149   -18119   -18136 
  -18153   -18128   -18117   -18127   -18143   -18133   -18105   -18095 
  -18101   -18149   -18232   -18291   -18327   -18334   -18298   -18222 
  -18103   -18002   -17984   -18002   -18033   -18095   -18141   -18154 
  -18173   -18178   -18152   -18152   -18163   -18154   -18189   -18232 
  -18215   -18200   -18222   -18253   -18268   -18238   -18193   -18167 
  -18142   -18123   -18122   -18145   -18180   -18156   -18103   -18102 
  -18114   -18110   -18105   -18094   -18080   -18076   -18091   -18114 
  -18137   -18180   -18223   -18256   -18270   -18254   -18228   -18188 
  -18143   -18113   -18088   -18070   -18065   -18078   -18137   -18214 
  -18240   -18219   -18188   -18150   -18104   -18068   -18065   -18120 
  -18206   -18234   -18197   -18155   -18111   -18080   -18078   -18090 
  -18133   -18198   -18249   -18266   -18235   -18195   -18173   -18146 
  -18132   -18137   -18125   -18123   -18138   -18145   -18155   -18151 
  -18130   -18146   -18167   -18158   -18166   -18172   -18179   -18204 
  -18191   -18149   -18117   -18091   -18106   -18158   -18206   -18243 
  -18241   -18192   -18121   -18070   -18088   -18137   -18161   -18170 
  -18167   -18161   -18150   -18114   -18086   -18096   -18106   -18109 
  -18120   -18119   -18123   -18155   -18195   -18242   -18281   -18288 
  -18264   -18197   -18116   -18082   -18088   -18090   -18103   -18148 
  -18192   -18217   -18219   -18198   -18186   -18175   -18145   -18132 
  -18144   -18139   -18114   -18107   -18135   -18160   -18157   -18153 
  -18150   -18152   -18145   -18107   -18090   -18106   -18126   -18178 
  -18230   -18245   -18239   -18203   -18159   -18122   -18092   -18094 
  -18113   -18152   -18208   -18231   -18218   -18190   -18167   -18156 
  -18142   -18132   -18109   -18083   -18100   -18113   -18114   -18136 
  -18146   -18162   -18198   -18202   -18197   -18202   -18206   -18209 
  -18177   -18126   -18098   -18091   -18106   -18124   -18153   -18202 
  -18201   -18151   -18106   -18078   -18082   -18094   -18105   -18156 
  -18213   -18219   -18203   -18213   -18217   -18172   -18146   -18154 
  -18147   -18151   -18156   -18133   -18128   -18137   -18140   -18157 
  -18185   -18206   -18213   -18203   -18172   -18126   -18099   -18095 
  -18089   -18095   -18116   -18131   -18144   -18161   -18189   -18194 
  -18169   -18162   -18146   -18128   -18158   -18161   -18135   -18163 
  -18202   -18199   -18185   -18184   -18183   -18163   -18155   -18154 
  -18140   -18140   -18145   -18150   -18182   -18203   -18187   -18163 
  -18131   -18111   -18110   -18103   -18111   -18140   -18168   -18192 
  -18194   -18187   -18173   -18146   -18126   -18105   -18099   -18130 
  -18162   -18163   -18158   -18180   -18200   -18187   -18174   -18164 
  -18155   -18175   -18176   -18155   -18155   -18137   -18125   -18139 
  -18131   -18140   -18182   -18193   -18162   -18132   -18125   -18118 
  -18119   -18137   -18139   -18149   -18184   -18199   -18214   -18246 
  -18232   -18172   -18117   -18094   -18100   -18101   -18104   -18129 
  -18150   -18142   -18113   -18113   -18145   -18162   -18173   -18183 
  -18189   -18205   -18217   -18216   -18214   -18197   -18170   -18137 
  -18090   -18054   -18064   -18103   -18127   -18138   -18182   -18238 
  -18217   -18127   -18067   -18080   -18126   -18158   -18173   -18193 
  -18215   -18236   -18249   -18215   -18138   -18105   -18126   -18127 
  -18105   -18110   -18126   -18155   -18240   -18298   -18248   -18169 
  -18154   -18179   -18164   -18116   -18109   -18137   -18160   -18163 
  -18115   -18058   -18085   -18165   -18185   -18149   -18143   -18156 
  -18157   -18183   -18202   -18184   -18163   -18129   -18117   -18119 
  -18083   -18086   -18136   -18148   -18156   -18181   -18176   -18148 
  -18151   -18206   -18212   -18130   -18095   -18125   -18133   -18120 
  -18104   -18097   -18125   -18186   -18216   -18191   -18164   -18148 
  -18166   -18221   -18234   -18212   -18184   -18159   -18171   -18162 
  -18102   -18096   -18152   -18195   -18198   -18178   -18168   -18156 
  -18149   -18168   -18149   -18104   -18126   -18158   -18160   -18175 
  -18171   -18167   -18177   -18146   -18092   -18068   -18097   -18156 
  -18177   -18173   -18197   -18216   -18180   -18109   -18077   -18091 
  -18097   -18132   -18215   -18241   -18213   -18206   -18165   -18104 
  -18128   -18166   -18138   -18120   -18134   -18157   -18189   -18195 
  -18160   -18121   -18113   -18107   -18143   -18241   -18253   -18178 
  -18143   -18107   -18078   -18120   -18155   -18168   -18207   -18221 
  -18189   -18149   -18120   -18115   -18125   -18124   -18120   -18138 
  -18149   -18142   -18171   -18210   -18213   -18205   -18181   -18140 
  -18136   -18144   -18124   -18113   -18125   -18143   -18168   -18177 
  -18165   -18172   -18189   -18182   -18164   -18148   -18143   -18147 
  -18138   -18102   -18066   -18101   -18160   -18167   -18179   -18204 
  -18203   -18190   -18159   -18139   -18159   -18172   -18165   -18155 
  -18150   -18150   -18131   -18107   -18118   -18132   -18139   -18159 
  -18180   -18209   -18232   -18221   -18192   -18166   -18166   -18151 
  -18108   -18139   -18179   -18131   -18103   -18124   -18137   -18143 
  -18124   -18119   -18156   -18164   -18177   -18221   -18197   -18133 
  -18125   -18134   -18119   -18120   -18153   -18190   -18209   -18200 
  -18151   -18108   -18112   -18133   -18151   -18164   -18166   -18198 
  -18238   -18192   -18116   -18138   -18194   -18177   -18137   -18111 
  -18081   -18065   -18110   -18164   -18151   -18143   -18192   -18215 
  -18196   -18161   -18130   -18130   -18134   -18145   -18185   -18198 
  -18194   -18204   -18196   -18187   -18157   -18094   -18094   -18142 
  -18168   -18186   -18171   -18144   -18176   -18207   -18185   -18144 
  -18101   -18081   -18086   -18095   -18139   -18207   -18239   -18234 
  -18205   -18153   -18113   -18081   -18072   -18115   -18155   -18180 
  -18195   -18181   -18170   -18165   -18128   -18118   -18157   -18161 
  -18142   -18140   -18111   -18067   -18069   -18150   -18241   -18258 
  -18252   -18227   -18135   -18076   -18066   -18054   -18107   -18187 
  -18205   -18202   -18194   -18185   -18184   -18172   -18171   -18191 
  -18183   -18149   -18127   -18116   -18127   -18192   -18253   -18233 
  -18193   -18181   -18140   -18086   -18080   -18106   -18134   -18144 
  -18144   -18177   -18201   -18178   -18164   -18158   -18113   -18066 
  -18064   -18109   -18177   -18220   -18221   -18202   -18176   -18137 
  -18088   -18078   -18147   -18215   -18191   -18127   -18102   -18124 
  -18154   -18180   -18225   -18269   -18253   -18185   -18138   -18116 
  -18103   -18099   -18099   -18152   -18206   -18163   -18130   -18140 
  -18115   -18105   -18126   -18156   -18186   -18158   -18132   -18164 
  -18164   -18151   -18174   -18190   -18193   -18182   -18166   -18151 
  -18113   -18085   -18090   -18091   -18114   -18192   -18261   -18265 
  -18258   -18258   -18194   -18107   -18074   -18082   -18118   -18145 
  -18155   -18176   -18162   -18115   -18090   -18115   -18170   -18175 
  -18143   -18153   -18169   -18158   -18154   -18166   -18197   -18229 
  -18216   -18153   -18105   -18112   -18109   -18088   -18115   -18186 
  -18261   -18270   -18212   -18179   -18156   -18114   -18108   -18115 
  -18098   -18084   -18106   -18137   -18146   -18175   -18213   -18210 
  -18206   -18192   -18144   -18134   -18162   -18170   -18166   -18153 
  -18134   -18117   -18117   -18151   -18190   -18193   -18157   -18126 
  -18127   -18138   -18130   -18117   -18140   -18185   -18196   -18169 
  -18146   -18142   -18148   -18154   -18149   -18145   -18144   -18147 
  -18164   -18164   -18148   -18151   -18148   -18144   -18158   -18171 
  -18203   -18234   -18228   -18198   -18158   -18136   -18139   -18145 
  -18140   -18118   -18114   -18125   -18112   -18102   -18114   -18141 
  -18171   -18187   -18204   -18208   -18187   -18159   -18110   -18085 
  -18124   -18159   -18171   -18182   -18190   -18194   -18175   -18154 
  -18150   -18150   -18156   -18156   -18146   -18144   -18137   -18135 
  -18148   -18164   -18183   -18175   -18142   -18147   -18175   -18168 
  -18139   -18125   -18130   -18141   -18161   -18176   -18182   -18193 
  -18191   -18164   -18136   -18120   -18126   -18146   -18173   -18206 
  -18197   -18151   -18139   -18142   -18117   -18106   -18152   -18201 
  -18186   -18149   -18139   -18136   -18148   -18170   -18167   -18160 
  -18163   -18166   -18172   -18174   -18151   -18110   -18105   -18136 
  -18142   -18134   -18147   -18150   -18138   -18145   -18172   -18201 
  -18216   -18226   -18221   -18198   -18180   -18136   -18073   -18069 
  -18103   -18134   -18172   -18173   -18151   -18155   -18157   -18140 
  -18125   -18141   -18178   -18191   -18190   -18180   -18161   -18176 
  -18184   -18150   -18128   -18126   -18109   -18093   -18132   -18183 
  -18167   -18135   -18139   -18137   -18151   -18176   -18158   -18197 
  -18261   -18176   -18085   -18129   -18160   -18143   -18157   -18183 
  -18178   -18165   -18181   -18167   -18101   -18079   -18112   -18147 
  -18162   -18137   -18143   -18192   -18184   -18150   -18152   -18145 
  -18162   -18246   -18357   -18405   -18253   -18012   -18012   -18212 
  -18351   -18343   -18066   -17761   -18179   -19165   -19731   -19648 
  -18957   -18022   -17681   -16892   -15051   -14951   -17489   -20381 
  -22911   -24550   -24195   -22672   -20342   -17415   -16378   -17029 
  -16882   -16997   -17908   -18192   -19660   -23616   -27208   -28539 
  -28443   -26939   -22613   -15407    -7672    -2903    -4213   -10492 
  -17350   -24718   -32476   -35559   -34860   -34222   -29038   -17552 
   -7295    -3124    -5823   -13653   -18043   -15966   -17580   -22961 
  -17975    -3693     5271     4904    -2929   -17573   -33821   -46115 
  -51035   -46151   -35272   -25934   -21414   -22011   -27163   -31999 
  -31561   -27473   -21265   -12061    -4903    -6354   -14863   -22872 
  -21237    -6667    10167    19319    26300    32337    25335     2865 
  -25897   -52082   -63741   -59762   -55268   -48608   -29706   -13988 
  -11875    -8663    -3813   -14923   -45591   -74082   -69015   -34622 
   -8591     4717    22335    30203    14871   -13792   -43566   -57800 
  -48392   -31654   -21736   -18764   -21630   -25496   -24308   -16416 
   -2460     9289     6989   -13293   -40979   -54121   -50639   -51417 
  -54005   -39967   -16756    -2981    -3337   -10054   -15836   -27484 
  -48891   -66841   -75052   -79616   -77807   -60519   -26432    15311 
   49290    65365    59458    29311   -13026   -46278   -63471   -68189 
  -62725   -59731   -73175   -91670   -99988   -97826   -82606   -57155 
  -33208   -15521    -9518   -21275   -36539   -32597   -10218    16610 
   43202    60999    51507    11296   -32570   -51509   -52004   -50842 
  -46476   -39944   -37763   -39078   -36280   -21571    -4637      862 
    8321    27004    30767     7219   -18139   -26813   -24842   -34409 
  -65459   -89925   -92786   -96185  -109969  -122420  -122353  -111784 
  -97107   -70261   -29667     5444    21863    29815    44626    56471 
   46761    15036   -34782   -86967  -104854   -70398    -6237    55722 
  102668   133380   144226   121999    59681   -18114   -81070  -120493 
 -139851  -150213  -146816  -100744   -12475    75567   141973   183237 
  164482    71299   -56064  -171469  -221472  -184806  -121836   -61810 
   27209   112595   134544   109291    76233    46618    22436     2412 
   -1981    23868    52464    57492    55881    51288    40430    28292 
     345   -19735    10260    56549    70074    56934    41500    33665 
   16274   -19710   -39224   -26614     -631    33636    49236     8202 
  -68134  -134221  -184018  -228847  -258850  -257887  -219467  -151409 
  -75071     5504    93076   170457   217914   221292   192666   157680 
   99733    16396   -29887   -18158     1770     7429    -3302   -44476 
 -101607  -147743  -174908  -190524  -225733  -304293  -401629  -479008 
 -527745  -558999  -574269  -561824  -535471  -524765  -498204  -407416 
 -286016  -186860  -114986   -75704   -71194   -69180   -50128   -14150 
   51440   133633   192846   218514   213000   165089    89730    33154 
    6427   -16677   -36297   -37966   -27139   -14531   -14194   -28256 
  -17041    50335   138692   197411   222194   243837   282582   320845 
  336258   330206   303751   258280   213997   188679   183708   198652 
  215764   207925   197322   217049   244316   253269   242523   209557 
  171386   144188   112039    81188    91591   154454   243636   322034 
  363645   380360   397276   411329   407016   378660   330592   272993 
  213378   156507   103682    52731    14714      384    -9536   -32239 
  -51526   -47976   -24151     2334    20899    35085    46277    59965 
   90596   138125   186485   221725   236282   228556   205116   170899 
  120943    57705    -2233   -50049   -86352  -110649  -132264  -162922 
 -203103  -257306  -319736  -362801  -383676  -400175  -409605  -415501 
 -427498  -429821  -419542  -414185  -408005  -387756  -358844  -331808 
 -306833  -275500  -243459  -230635  -236723  -238406  -223455  -202191 
 -184102  -164894  -140983  -118446  -107128  -111386  -125321  -143472 
 -167257  -190261  -199935  -195160  -180280  -159426  -138585  -116828 
  -94569   -84808   -95358  -118725  -144075  -162370  -171504  -178372 
 -180397  -168670  -150901  -135057  -114821   -92134   -75050   -61484 
  -53737   -58450   -66771   -70248   -77849   -91279   -97612   -91802 
  -77968   -61477   -41631    -8147    40400    95194   150962   198411 
  230752   256787   281367   298832   310023   312968   296127   261125 
  221958   182266   140375   101025    66555    34394     5981   -13670 
  -24257   -32181   -41150   -43079   -25395    14831    72893   143161 
  214665   274690   319131   348195   362390   367369   367785   363092 
  356136   350768   344515   330578   303351   266136   226102   183302 
  138394    95754    55046    14965   -21925   -50645   -69147   -85067 
 -107009  -134734  -164596  -190225  -203931  -207220  -204278  -194659 
 -187000  -191741  -200907  -203271  -198554  -184362  -156688  -121060 
  -88292   -66298   -57069   -56593   -60389   -69614   -85063   -98423 
 -101649   -98243   -95181   -92871   -88388   -84027   -86930   -96700 
 -106759  -120059  -141656  -166486  -190288  -210980  -223817  -231935 
 -241897  -249252  -248540  -244930  -243011  -240082  -233928  -221355 
 -199236  -174665  -154551  -134272  -111601   -92184   -77565   -64635 
  -54402   -50078   -51652   -59241   -71574   -83335   -94870  -112062 
 -135236  -159921  -181323  -196356  -205748  -210213  -207106  -194017 
 -173197  -148756  -120328   -87650   -56166   -28698    -3163    18740 
   35266    49700    61277    65318    63595    61808    61886    63673 
   68567    78694    94339   110597   120465   124398   128965   136865 
  146027   156629   172451   194598   220339   246863   270715   287844 
  294923   290734   279440   266114   250133   229778   207338   185242 
  163059   140654   117670    92850    69465    52067    39493    28199 
   15752     3560    -2151     1075     8753    17122    26831    39051 
   50985    59874    70170    87591   107928   122730   133014   142835 
  146753   139647   124946   106007    85858    70104    58847    45824 
   27479     4347   -21709   -46981   -69344   -89198  -103747  -110464 
 -113165  -115878  -116845  -113239  -108582  -110242  -118693  -127747 
 -136543  -148254  -161102  -174496  -191375  -208240  -219129  -226032 
 -232369  -235629  -234081  -230493  -227160  -224065  -221076  -217738 
 -213661  -211519  -212386  -211851  -207924  -202030  -192842  -179272 
 -163230  -146032  -127367  -108081   -91442   -78911   -69332   -65059 
  -67364   -69542   -66389   -59478   -51223   -44927   -42158   -38477 
  -33044   -30175   -26428   -14455     4967    25559    41568    50805 
   56467    61618    64315    63806    64074    67116    71078    73932 
   73849    71207    69490    70217    71390    71427    70973    71550 
   72995    71776    65093    56848    52667    50892    47377    43065 
   39812    36998    34084    31559    31208    34195    37602    38771 
   39196    38945    37576    38450    42846    47813    50212    48263 
   42704    35019    25380    14697     6258     3168     4293     7019 
   11374    17445    25206    35621    48175    61690    74269    81364 
   81606    79365    76337    70497    62301    53302    44997    39377 
   33434    21000     1822   -20998   -45985   -69343   -87321  -101771 
 -114056  -121631  -122552  -116032  -103972   -91049   -77982   -63270 
  -50883   -44792   -42779   -42886   -44886   -46215   -45241   -43146 
  -40914   -38919   -37874   -38475   -40040   -40659   -40383   -41637 
  -45177   -50098   -57305   -66897   -75328   -80535   -84213   -88108 
  -92852   -97975  -103622  -111509  -119761  -123178  -120210  -113044 
 -104132   -95498   -87943   -81050   -73608   -63882   -52174   -40631 
  -30646   -24016   -21476   -20928   -22494   -27650   -33717   -37732 
  -39515   -38725   -36273   -34545   -33552   -32675   -33341   -36986 
  -43153   -49218   -53500   -56354   -56357   -52208   -45849   -40055 
  -36331   -33191   -28139   -22852   -21331   -23578   -25719   -25693 
  -24459   -21839   -15198    -3102    11407    23234    30558    35623 
   41363    48733    56309    62062    65402    66964    66991    65607 
   64527    66565    73440    83508    92432    98368   100969    97216 
   87538    76804    66573    56826    48668    42528    38742    35943 
   32041    27693    23358    19159    18496    23985    33952    45959 
   57386    65016    68097    67055    61202    51845    42374    32746 
   19537     3080   -12874   -28225   -44854   -61032   -71927   -74600 
  -72202   -68123   -60143   -49400   -43871   -46467   -52372   -58709 
