Origin Time       2016/04/15 00:03:00
Lat.              32.700
Long.             130.777
Depth. (km)       7
Mag.              6.4
Station Code      KMMH14
Station Lat.      32.6345
Station Long.     130.7521
Station Height(m) -40
Record Time       2016/04/15 00:03:48
Sampling Freq(Hz) 100Hz
Duration Time(s)  271
Dir.              3
Scale Factor      2940(gal)/6170270
Max. Acc. (gal)   72.749
Last Correction   2016/04/15 00:03:33
Memo.             
[...]
   -6700    -6705    -6708    -6723    -6729    -6719    -6715    -6710 
   -6702    -6709    -6714    -6709    -6710    -6705    -6703    -6710 
   -6709    -6712    -6719    -6713    -6704    -6697    -6701    -6718 
   -6721    -6715    -6715    -6718    -6725    -6722    -6708    -6701 
   -6704    -6704    -6699    -6694    -6695    -6703    -6710    -6711 
   -6703    -6697    -6710    -6726    -6721    -6708    -6710    -6716 
   -6711    -6699    -6697    -6706    -6707    -6702    -6709    -6720 
   -6719    -6714    -6710    -6705    -6704    -6703    -6707    -6717 
   -6717    -6710    -6713    -6716    -6711    -6707    -6708    -6707 
   -6702    -6701    -6702    -6703    -6711    -6714    -6708    -6702 
   -6703    -6712    -6715    -6706    -6702    -6704    -6706    -6709 
   -6705    -6702    -6718    -6723    -6709    -6702    -6701    -6703 
   -6712    -6717    -6714    -6711    -6714    -6719    -6716    -6714 
   -6710    -6701    -6703    -6708    -6710    -6712    -6703    -6691 
   -6696    -6701    -6703    -6713    -6713    -6707    -6710    -6706 
   -6706    -6714    -6711    -6712    -6720    -6716    -6711    -6714 
   -6713    -6712    -6715    -6718    -6714    -6703    -6701    -6708 
   -6712    -6705    -6698    -6707    -6713    -6704    -6705    -6713 
   -6712    -6703    -6699    -6703    -6710    -6710    -6703    -6702 
   -6707    -6704    -6702    -6711    -6714    -6713    -6709    -6703 
   -6701    -6703    -6708    -6714    -6714    -6717    -6723    -6716 
   -6704    -6702    -6713    -6719    -6710    -6705    -6708    -6710 
   -6714    -6712    -6708    -6709    -6710    -6713    -6715    -6706 
   -6700    -6711    -6715    -6708    -6706    -6704    -6701    -6709 
   -6712    -6707    -6707    -6707    -6708    -6714    -6713    -6713 
   -6715    -6703    -6697    -6714    -6721    -6708    -6708    -6714 
   -6706    -6699    -6700    -6705    -6710    -6705    -6697    -6709 
   -6724    -6724    -6721    -6716    -6707    -6705    -6711    -6712 
   -6704    -6699    -6698    -6706    -6710    -6705    -6705    -6705 
   -6707    -6715    -6714    -6706    -6705    -6706    -6708    -6709 
   -6704    -6710    -6722    -6718    -6705    -6698    -6704    -6716 
   -6719    -6716    -6711    -6709    -6713    -6713    -6708    -6705 
   -6704    -6704    -6704    -6709    -6713    -6710    -6706    -6703 
   -6702    -6703    -6711    -6720    -6717    -6706    -6705    -6708 
   -6705    -6708    -6717    -6720    -6717    -6712    -6711    -6712 
   -6709    -6702    -6702    -6714    -6721    -6716    -6712    -6706 
   -6702    -6700    -6700    -6703    -6706    -6710    -6715    -6714 
   -6707    -6703    -6701    -6705    -6706    -6700    -6698    -6709 
   -6716    -6715    -6716    -6716    -6712    -6706    -6705    -6708 
   -6713    -6713    -6710    -6715    -6715    -6707    -6710    -6720 
   -6719    -6712    -6710    -6709    -6708    -6712    -6712    -6709 
   -6704    -6702    -6704    -6709    -6710    -6708    -6707    -6708 
   -6710    -6714    -6714    -6707    -6705    -6710    -6712    -6707 
   -6702    -6703    -6709    -6709    -6707    -6709    -6708    -6704 
   -6699    -6691    -6703    -6743    -6754    -6707    -6684    -6719 
   -6732    -6699    -6680    -6706    -6742    -6737    -6713    -6704 
   -6695    -6703    -6721    -6705    -6684    -6692    -6708    -6715 
   -6723    -6729    -6705    -6690    -6714    -6722    -6700    -6675 
   -6679    -6711    -6728    -6716    -6708    -6709    -6706    -6704 
   -6704    -6708    -6712    -6715    -6709    -6698    -6704    -6723 
   -6725    -6712    -6702    -6693    -6690    -6707    -6718    -6713 
   -6713    -6717    -6717    -6711    -6694    -6693    -6715    -6720 
   -6720    -6730    -6724    -6711    -6700    -6691    -6702    -6715 
   -6715    -6718    -6723    -6720    -6717    -6704    -6695    -6709 
   -6706    -6697    -6712    -6713    -6702    -6708    -6706    -6698 
   -6707    -6714    -6705    -6698    -6709    -6728    -6724    -6696 
   -6697    -6713    -6706    -6708    -6719    -6713    -6703    -6695 
   -6691    -6696    -6704    -6719    -6715    -6699    -6707    -6712 
   -6708    -6712    -6709    -6715    -6728    -6714    -6698    -6697 
   -6699    -6698    -6700    -6720    -6726    -6713    -6723    -6714 
   -6682    -6690    -6711    -6717    -6715    -6710    -6724    -6725 
   -6697    -6695    -6714    -6711    -6697    -6705    -6725    -6719 
   -6703    -6700    -6697    -6715    -6720    -6683    -6679    -6721 
   -6731    -6719    -6716    -6701    -6698    -6714    -6706    -6694 
   -6709    -6712    -6702    -6712    -6709    -6692    -6697    -6696 
   -6695    -6723    -6727    -6722    -6742    -6722    -6686    -6703 
   -6711    -6692    -6691    -6693    -6711    -6729    -6703    -6694 
   -6716    -6716    -6707    -6702    -6708    -6718    -6702    -6689 
   -6707    -6718    -6704    -6693    -6707    -6724    -6718    -6705 
   -6698    -6699    -6708    -6706    -6708    -6721    -6714    -6710 
   -6721    -6704    -6689    -6706    -6715    -6707    -6713    -6711 
   -6696    -6710    -6729    -6709    -6683    -6699    -6740    -6747 
   -6707    -6679    -6699    -6726    -6706    -6678    -6699    -6719 
   -6714    -6715    -6702    -6689    -6707    -6723    -6712    -6690 
   -6695    -6721    -6721    -6712    -6716    -6705    -6692    -6710 
   -6732    -6722    -6692    -6685    -6710    -6728    -6729    -6718 
   -6701    -6708    -6721    -6711    -6698    -6685    -6684    -6707 
   -6715    -6710    -6715    -6708    -6712    -6715    -6691    -6695 
   -6716    -6707    -6703    -6706    -6707    -6717    -6718    -6714 
   -6715    -6703    -6690    -6697    -6708    -6716    -6714    -6706 
   -6721    -6730    -6716    -6709    -6708    -6702    -6702    -6704 
   -6707    -6715    -6711    -6703    -6707    -6705    -6704    -6714 
   -6708    -6708    -6717    -6707    -6713    -6721    -6699    -6696 
   -6714    -6724    -6717    -6692    -6684    -6711    -6734    -6734 
   -6716    -6700    -6707    -6718    -6714    -6707    -6700    -6700 
   -6703    -6695    -6705    -6733    -6738    -6716    -6688    -6684 
   -6711    -6717    -6699    -6696    -6705    -6720    -6732    -6711 
   -6693    -6707    -6712    -6705    -6705    -6711    -6720    -6721 
   -6718    -6706    -6699    -6709    -6711    -6714    -6715    -6695 
   -6696    -6719    -6716    -6706    -6703    -6705    -6723    -6733 
   -6714    -6699    -6706    -6715    -6700    -6682    -6702    -6724 
   -6712    -6699    -6706    -6713    -6713    -6716    -6708    -6693 
   -6705    -6723    -6721    -6706    -6694    -6700    -6705    -6710 
   -6722    -6709    -6703    -6725    -6717    -6696    -6703    -6716 
   -6721    -6704    -6692    -6714    -6719    -6698    -6702    -6714 
   -6707    -6705    -6714    -6714    -6709    -6719    -6726    -6707 
   -6696    -6707    -6714    -6705    -6692    -6701    -6722    -6722 
   -6710    -6708    -6707    -6698    -6692    -6708    -6723    -6712 
   -6707    -6711    -6709    -6710    -6709    -6704    -6708    -6714 
   -6711    -6710    -6719    -6728    -6722    -6707    -6700    -6707 
   -6703    -6695    -6704    -6708    -6701    -6706    -6716    -6712 
   -6703    -6705    -6709    -6713    -6710    -6702    -6705    -6711 
   -6709    -6710    -6706    -6701    -6711    -6715    -6703    -6701 
   -6705    -6706    -6714    -6717    -6714    -6719    -6711    -6695 
   -6698    -6707    -6703    -6705    -6715    -6721    -6719    -6707 
   -6702    -6708    -6703    -6701    -6717    -6726    -6716    -6702 
   -6699    -6707    -6710    -6706    -6707    -6707    -6705    -6711 
   -6716    -6713    -6704    -6701    -6705    -6710    -6714    -6713 
   -6710    -6712    -6713    -6716    -6716    -6707    -6701    -6705 
   -6712    -6706    -6699    -6707    -6716    -6715    -6706    -6703 
   -6714    -6715    -6701    -6692    -6693    -6705    -6719    -6724 
   -6721    -6712    -6702    -6704    -6711    -6707    -6703    -6704 
   -6702    -6713    -6729    -6715    -6692    -6700    -6713    -6710 
   -6705    -6705    -6709    -6710    -6707    -6713    -6720    -6717 
   -6712    -6702    -6706    -6721    -6716    -6704    -6709    -6707 
   -6704    -6709    -6707    -6708    -6717    -6710    -6702    -6709 
   -6714    -6708    -6702    -6704    -6704    -6706    -6711    -6710 
   -6708    -6707    -6704    -6707    -6709    -6701    -6699    -6717 
   -6733    -6716    -6687    -6699    -6717    -6708    -6714    -6720 
   -6702    -6697    -6706    -6715    -6707    -6698    -6708    -6710 
   -6714    -6722    -6713    -6702    -6695    -6703    -6723    -6726 
   -6708    -6692    -6699    -6716    -6715    -6713    -6714    -6696 
   -6693    -6718    -6720    -6706    -6716    -6725    -6708    -6704 
   -6723    -6713    -6698    -6716    -6715    -6701    -6709    -6702 
   -6700    -6714    -6696    -6697    -6736    -6716    -6689    -6708 
   -6713    -6714    -6710    -6703    -6716    -6713    -6703    -6716 
   -6716    -6710    -6717    -6720    -6700    -6682    -6702    -6721 
   -6704    -6704    -6725    -6725    -6716    -6709    -6709    -6703 
   -6682    -6695    -6726    -6717    -6700    -6688    -6590    -6190 
   -5416    -5100    -6368    -8138    -8001    -6901    -7288    -7380 
   -5253    -3246    -2721    -3242    -5105    -6860    -8046   -10476 
  -11312    -8344    -7021    -8255    -6731    -3437     -157     4850 
    8239     7528     6763     6102     2220    -2054    -3356    -5805 
  -10558   -10277    -5288    -4537    -8329   -12096   -16200   -19993 
  -21873   -23529   -24416   -20939   -12682    -3844     -716    -5024 
  -10583   -13234   -14765   -14192    -9486    -1793     8830    19255 
   23045    20863    14801     3489    -7965   -13389   -13956   -10507 
   -5615    -9289   -21514   -27840   -26838   -27330   -24228   -13580 
   -6460    -9062   -14451   -15957   -14334   -13126   -12897   -11169 
   -6767    -2073      471     2879     7775     9253    -1059   -15973 
  -16486      705    16303    20106    25245    35862    38723    28541 
    3071   -29743   -38669   -22979   -14687   -12670    -6070    -1595 
    2787     1150    -9116    -9675    -5608    -6910      150     7338 
    1794      417     5396     7869    15915    27000    31059    24474 
    6296   -15382   -33705   -41084   -28488    -8760      115    -1370 
   -5333    -3518     1625     -354    -6292   -11753   -17654   -17550 
  -12110    -6559     3788    13229    10175     2785    -1358    -5153 
   -1311    12158    20868    24407    37254    51339    45962    27029 
   12984     8945    10962    14825    17067    14954     7524    -5430 
  -17570   -20141    -7650    17048    36363    44886    46793    30878 
    -968   -27100   -31844   -14973     3311     6952      495    -8695 
  -11864   -12222   -27641   -47009   -51515   -58514   -69220   -69450 
  -68226   -48644   -12950    -8829   -21008   -23639   -32875   -35275 
  -23997    -6163     9141    -7514   -28069   -13567     1774    13945 
   49109    79514    86271    89874    96093    90870    51158   -17435 
  -59761   -65719   -76442   -84369   -64049   -20653    19897    31217 
   26350    10452   -29970   -59966   -46813   -14454     -554     5489 
   41790    79268    62194    14047   -15976   -36571   -56585   -42602 
   -9134    -1547    15598    72502   117337   111885    61364     -180 
  -39117   -68657  -100709  -113326   -82200   -21571    12444     -188 
  -36920   -82472  -113990  -113421   -95036   -77433   -50800   -13277 
    2687     2002    10720     8036    -6758   -11383   -17933   -22520 
   -6908    14438    24076    32149    40513    16214   -38873   -78741 
  -77978   -54092   -54930   -52214     9369    52499    27611    -4653 
  -46662  -101278  -119602  -122837  -133602  -142410  -157377  -125431 
  -50820   -48863   -86205   -69136   -51039   -63463   -75787   -97874 
 -101605   -52562   -28240   -58288   -65567   -66126   -83671   -76485 
  -70153   -71705   -58015   -55312   -54501   -44505   -63251  -101011 
 -111173   -92586   -53881    -5607    10215     8249    33855    37240 
   -6889   -19596     8092    34102    72400    83592    45310    44117 
   73588    62403    41599    48595    64164    81509   112859   132184 
  119368   110410   101901    89973   115953   137795   109158    77682 
   69994    79123    92511    76053    42019    50229    90796   106179 
  109443   117788   104150    93047    94617    55835     7095     9187 
   28746    48266    66962    53154    34646    32900    20335     4043 
   -6067   -12651   -21183   -42660   -56896   -56479   -69634   -89499 
  -87674   -70926   -63215   -76216  -100848  -114360  -110314  -106965 
 -114761  -120086  -115885  -106021   -92560   -90489  -100136  -108255 
 -124711  -142617  -147185  -147244  -129207   -94391   -86758   -97568 
  -91135   -81412   -70727   -57389   -68276   -88076   -95536  -100943 
  -80726   -38185   -24593   -31989   -42974   -72948   -91852   -80649 
  -74593   -77119   -70688   -57846   -30461     7298    24241    19433 
   16433    21461    34712    50547    54882    51912    60156    81502 
   96096    94204    91183    93358    90024    79245    68351    61692 
   57324    61468    86597   119918   138271   143083   139132   127037 
  120268   119024   113848   114261   120023   119421   121948   135813 
  145972   142182   134019   126007   116339   110943   103355    89099 
   83645    85864    90594   102760   101613    79455    65439    56207 
   36133    26789    30672    30547    31929    32507    26818    29293 
   36442    32244    24715    17437     3164    -8919   -18858   -33635 
  -41367   -39884   -37745   -38020   -48136   -65728   -78638   -86683 
  -98197  -114174  -122793  -121540  -124195  -133019  -141938  -150512 
 -155429  -153916  -144907  -130003  -119921  -116652  -112754  -108016 
 -103557  -102148  -101255   -90648   -75898   -65124   -55287   -49843 
  -47869   -44634   -44070   -41049   -32336   -27339   -23197   -13514 
   -1748    12749    25821    26542    20212    16609    11841     7673 
   12639    21117    26164    34587    45905    47192    35853    24222 
   21584    20295    14085     9726     6981     3133     -708    -7918 
  -16284   -22004   -24277   -21258   -21631   -27766   -26961   -24527 
  -28139   -26551   -24440   -30737   -31158   -24981   -25148   -24784 
  -20121   -19511   -18736   -14116   -13443   -16755   -17765   -15382 
   -9381    -2605     -755    -2477    -2349     1514     3003    -3583 
   -9391    -6925    -1218     4941     9079     8223     7827     9854 
    9296     5704       77    -3963     -287     6039     7379     8071 
   11003    10054     4271     2248     6117     6003     1249     1917 
    4355      876    -2759    -5418    -9467    -6619     -875    -4503 
   -7706    -5010    -7437    -9801    -7078    -9647   -14519   -12741 
   -7866    -1296     6229     6056    -2311    -9676   -13475   -13968 
  -11562   -12785   -16200   -13756    -9071    -7653    -8770    -9507 
   -6928    -4885    -5798    -5117    -2582      516     6049    11356 
   10841     7276     6528     3999    -5841   -17952   -25515   -28353 
  -28815   -25794   -21746   -21790   -22099   -20767   -25058   -36813 
  -46453   -45781   -41445   -41525   -40474   -34742   -32047   -35395 
  -37904   -36527   -34310   -32506   -30629   -29353   -29388   -27385 
  -19969    -9272      978     5526     3670     4159     8570    10625 
   10948    11620    12382    14320    15094    13926    17326    22974 
   20243    13635    14410    18715    17533    13824    14768    15501 
   10000     5157     3865     1141    -2286    -6841   -12167   -11598 
   -7146    -4653    -3053    -3612    -7278    -9232    -5947      764 
    4884     3082      484      978      251    -3040    -5225    -5107 
   -1294     4790     5126    -1200    -6606    -9896   -11941   -10091 
   -6097    -3428     -909     1568      751    -1833    -4072    -7415 
   -6805      812     6748     7340     7266     6338     4929     5599 
    4075      -59    -1533    -3335    -8231   -11568   -12537   -14786 
  -17018   -15560   -12386   -10316   -10720   -15588   -20601   -20413 
  -17671   -16001   -15327   -13591   -10998   -10303   -10848   -10754 
   -9768    -8793   -10210   -12110   -11251   -10358   -10501   -12390 
  -18961   -23180   -21050   -22143   -26689   -27069   -22784   -15340 
   -9132    -8447    -9182    -7241    -3352      704      331    -5326 
   -7437    -2420     1415     1473     3356     4108      203    -1808 
   -2321    -5538    -6248    -3982    -4840    -8603   -11460   -11070 
   -7607    -5747    -8329   -11561   -13434   -15466   -17338   -17555 
  -14442    -9320    -6402    -5275    -3763    -5826   -13130   -19101 
  -20319   -18515   -14926   -10714    -5266       19       89    -3637 
   -5022    -4446    -5623    -7521    -7437    -4392      267     1510 
    -863     -761     1242      904     -197      676     3665     7331 
    9583    10497    11597    13317    15088    14400    10759     7359 
    4090      509    -1570    -3144    -3614    -1795     -782     -944 
   -1323    -2989    -3447    -3330    -5998    -7186    -5411    -5354 
   -6147    -5935    -7144    -9897   -12148   -13876   -15464   -15397 
  -11796    -7721    -8061   -10530    -9582    -4622     -629    -1212 
   -3052    -2477    -1087    -1009    -1503    -2983    -5986    -7265 
   -6173    -5258    -5365    -6950    -8226    -7563    -6317    -5643 
   -7477    -9586    -6537    -2400    -2939    -5312    -7597   -10813 
  -14455   -18279   -21608   -23060   -21656   -17114   -13216   -14092 
  -15806   -13546   -10501   -11521   -15845   -17353   -14166   -11735 
  -11226   -10235   -10298   -13907   -19599   -22377   -21712   -20417 
  -17682   -14539   -13707   -12822    -9454    -6513    -7134   -10570 
  -13950   -14467   -12542   -12038   -13438   -12429    -8715    -6777 
   -7864    -9976   -10777    -8956    -7314    -8055    -8468    -6978 
   -3365     1364     2106    -1108    -3215    -5553    -9747   -11191 
   -7711    -2765     -605    -2480    -4927    -5060    -5601    -8326 
   -9689    -7523    -3689     -533      860     2103     3603     2848 
     861     -826    -2807    -2414     1014     3575     4215     3842 
    3107     2798     2260     1302     -416    -3508    -5855    -5638 
   -3349     -772     -121    -1687    -3720    -4690    -4959    -4978 
   -3934    -2069     -592      -36     -555    -1491    -1418    -1007 
   -2431    -4526    -4435    -2946    -2351    -2135    -2022    -4534 
   -7988    -6812    -3201    -2970    -5578    -9198   -11885   -11841 
  -12527   -15709   -17402   -16029   -13929   -11863    -9954    -9991 
  -10879   -10628   -10235    -9820    -9706    -9516    -7842    -7453 
   -8848    -8842    -8527    -8992    -8654    -7682    -7836    -9432 
  -10076    -9176    -8424    -7250    -6132    -6528    -7657    -9830 
  -11450    -9420    -7610    -9262   -10263    -9875   -11566   -16076 
  -21593   -23680   -20096   -15690   -14713   -14664   -11826    -8136 
   -8191   -11128   -12710   -12401   -12710   -14974   -16657   -14756 
  -11927   -11665   -12031   -11421   -11467   -11260    -8683    -6521 
