Origin Time       2016/04/14 21:26:00
Lat.              32.742
Long.             130.808
Depth. (km)       11
Mag.              6.5
Station Code      KMMH16
Station Lat.      32.7967
Station Long.     130.8199
Station Height(m) -197
Record Time       2016/04/14 21:26:36
Sampling Freq(Hz) 100Hz
Duration Time(s)  300
Dir.              1
Scale Factor      2940(gal)/6170270
Max. Acc. (gal)   236.696
Last Correction   2016/04/14 21:26:21
Memo.             
[...]
   53659    53657    53658    53658    53657    53657    53655    53658 
   53661    53658    53656    53660    53660    53657    53657    53658 
   53658    53658    53658    53656    53657    53658    53655    53653 
   53658    53658    53656    53658    53659    53659    53659    53660 
   53659    53658    53658    53658    53659    53657    53655    53657 
   53659    53657    53656    53659    53662    53660    53658    53658 
   53658    53658    53658    53659    53657    53655    53657    53660 
   53658    53656    53657    53658    53658    53655    53655    53658 
   53658    53657    53657    53657    53658    53659    53658    53658 
   53659    53658    53656    53656    53657    53658    53659    53660 
   53659    53657    53657    53657    53658    53659    53658    53658 
   53660    53659    53657    53657    53656    53655    53656    53660 
   53661    53660    53658    53658    53658    53657    53656    53655 
   53656    53659    53660    53657    53660    53662    53657    53655 
   53658    53659    53660    53661    53657    53656    53659    53660 
   53658    53658    53657    53657    53656    53658    53658    53657 
   53657    53657    53657    53658    53658    53657    53658    53658 
   53658    53657    53657    53657    53658    53657    53658    53660 
   53657    53656    53660    53660    53657    53659    53660    53660 
   53659    53658    53657    53657    53657    53657    53658    53658 
   53658    53658    53658    53658    53657    53657    53660    53660 
   53658    53657    53656    53657    53659    53656    53657    53660 
   53658    53658    53659    53657    53656    53658    53659    53656 
   53657    53659    53658    53657    53657    53656    53657    53659 
   53659    53659    53660    53658    53657    53658    53658    53657 
   53657    53658    53658    53657    53657    53658    53658    53657 
   53657    53659    53658    53657    53658    53659    53657    53655 
   53657    53659    53657    53657    53657    53659    53659    53656 
   53655    53659    53659    53655    53656    53658    53658    53655 
   53653    53656    53658    53658    53658    53656    53654    53657 
   53657    53656    53657    53657    53657    53658    53657    53656 
   53656    53657    53657    53659    53659    53657    53657    53658 
   53657    53657    53658    53657    53657    53658    53658    53657 
   53658    53658    53656    53658    53660    53658    53658    53659 
   53658    53657    53657    53658    53659    53657    53656    53656 
   53655    53656    53657    53657    53656    53656    53658    53659 
   53658    53658    53657    53657    53658    53657    53657    53658 
   53657    53658    53659    53659    53658    53658    53657    53656 
   53656    53658    53657    53656    53657    53658    53655    53655 
   53658    53659    53655    53656    53658    53657    53657    53659 
   53657    53656    53656    53655    53655    53657    53657    53658 
   53658    53658    53658    53658    53657    53659    53661    53657 
   53654    53657    53657    53655    53657    53656    53655    53659 
   53658    53657    53657    53658    53659    53658    53658    53658 
   53657    53656    53655    53657    53659    53655    53655    53658 
   53658    53656    53657    53657    53656    53655    53656    53658 
   53657    53656    53657    53657    53655    53657    53660    53659 
   53657    53658    53658    53656    53657    53658    53658    53657 
   53657    53657    53656    53658    53659    53658    53659    53660 
   53658    53657    53658    53658    53656    53657    53658    53658 
   53659    53660    53660    53656    53656    53660    53658    53655 
   53657    53658    53657    53657    53657    53657    53657    53658 
   53657    53656    53655    53655    53655    53654    53655    53659 
   53660    53659    53659    53659    53658    53657    53656    53658 
   53658    53656    53657    53658    53657    53658    53659    53658 
   53657    53658    53659    53656    53655    53657    53658    53660 
   53661    53660    53657    53657    53660    53657    53655    53659 
   53661    53658    53657    53657    53657    53655    53653    53656 
   53658    53658    53657    53658    53657    53658    53660    53660 
   53658    53657    53657    53659    53659    53657    53657    53660 
   53658    53658    53659    53659    53658    53658    53658    53659 
   53660    53659    53658    53659    53658    53655    53656    53660 
   53658    53655    53657    53660    53660    53660    53659    53657 
   53656    53656    53657    53657    53657    53658    53658    53656 
   53657    53656    53658    53659    53656    53654    53656    53658 
   53657    53658    53659    53658    53657    53657    53656    53656 
   53657    53657    53657    53657    53658    53658    53657    53657 
   53657    53656    53657    53657    53656    53657    53657    53657 
   53657    53657    53656    53656    53658    53658    53657    53657 
   53656    53655    53656    53658    53658    53657    53658    53658 
   53657    53658    53657    53653    53655    53657    53654    53656 
   53662    53661    53656    53654    53657    53659    53658    53658 
   53659    53659    53659    53657    53656    53657    53659    53658 
   53658    53657    53656    53657    53659    53659    53657    53657 
   53659    53658    53656    53656    53658    53657    53655    53656 
   53656    53656    53657    53658    53658    53657    53656    53657 
   53658    53658    53657    53657    53657    53657    53659    53658 
   53656    53656    53657    53657    53658    53657    53656    53656 
   53658    53660    53660    53661    53658    53655    53656    53659 
   53657    53656    53655    53653    53654    53658    53659    53657 
   53658    53658    53657    53658    53660    53658    53654    53655 
   53657    53658    53658    53657    53657    53658    53658    53658 
   53658    53656    53656    53656    53656    53658    53658    53655 
   53656    53658    53657    53656    53657    53657    53657    53657 
   53658    53657    53656    53657    53658    53659    53659    53658 
   53658    53657    53654    53654    53656    53656    53654    53654 
   53655    53655    53655    53657    53658    53657    53655    53655 
   53657    53659    53659    53657    53659    53659    53657    53657 
   53659    53657    53656    53658    53659    53658    53656    53657 
   53658    53657    53658    53659    53657    53658    53659    53659 
   53658    53657    53657    53658    53659    53658    53658    53657 
   53656    53657    53657    53658    53659    53657    53655    53656 
   53658    53658    53658    53658    53657    53659    53660    53658 
   53656    53656    53657    53658    53656    53655    53658    53660 
   53659    53657    53656    53655    53657    53658    53658    53659 
   53658    53659    53660    53658    53658    53659    53656    53656 
   53660    53659    53657    53657    53658    53657    53657    53658 
   53657    53656    53659    53659    53657    53657    53658    53656 
   53656    53658    53656    53654    53656    53657    53656    53658 
   53658    53658    53659    53660    53657    53657    53661    53661 
   53657    53655    53658    53659    53658    53656    53657    53659 
   53658    53658    53658    53657    53658    53659    53656    53656 
   53657    53658    53659    53660    53659    53658    53656    53657 
   53657    53657    53657    53656    53657    53658    53657    53656 
   53657    53660    53659    53657    53656    53655    53656    53658 
   53657    53657    53660    53659    53657    53657    53659    53660 
   53657    53656    53659    53658    53656    53657    53657    53657 
   53659    53658    53657    53660    53660    53658    53658    53658 
   53656    53656    53658    53660    53658    53658    53658    53657 
   53656    53657    53657    53658    53660    53660    53657    53656 
   53658    53657    53656    53655    53656    53658    53658    53658 
   53659    53658    53657    53659    53658    53656    53658    53660 
   53658    53657    53656    53656    53657    53657    53659    53657 
   53655    53657    53658    53658    53658    53658    53659    53658 
   53656    53658    53658    53658    53661    53661    53659    53659 
   53658    53656    53657    53660    53659    53656    53658    53660 
   53658    53657    53657    53657    53658    53656    53654    53656 
   53659    53659    53658    53659    53659    53658    53657    53658 
   53659    53657    53654    53657    53659    53660    53660    53658 
   53656    53657    53659    53660    53659    53658    53658    53659 
   53658    53656    53656    53658    53659    53659    53658    53658 
   53659    53661    53659    53658    53657    53654    53655    53658 
   53657    53656    53657    53656    53656    53658    53657    53655 
   53656    53658    53659    53659    53658    53657    53656    53656 
   53658    53658    53657    53656    53658    53659    53657    53657 
   53658    53656    53656    53660    53660    53656    53656    53657 
   53657    53657    53658    53657    53657    53658    53658    53657 
   53658    53658    53657    53658    53659    53658    53659    53659 
   53659    53659    53658    53658    53660    53659    53657    53657 
   53658    53657    53658    53659    53657    53658    53659    53659 
   53659    53658    53658    53657    53656    53655    53655    53657 
   53657    53655    53658    53660    53659    53657    53657    53658 
   53657    53657    53658    53657    53656    53658    53659    53659 
   53657    53655    53657    53660    53658    53657    53657    53658 
   53659    53657    53656    53659    53658    53657    53659    53659 
   53656    53657    53658    53659    53660    53657    53659    53661 
   53659    53657    53658    53659    53659    53657    53656    53657 
   53660    53659    53656    53656    53657    53658    53659    53657 
   53658    53658    53658    53660    53659    53658    53660    53659 
   53655    53656    53660    53659    53656    53657    53659    53658 
   53658    53660    53659    53657    53658    53658    53658    53659 
   53659    53659    53658    53659    53659    53656    53657    53656 
   53655    53659    53660    53658    53659    53658    53659    53660 
   53658    53657    53659    53659    53657    53658    53658    53657 
   53657    53659    53658    53656    53659    53660    53657    53658 
   53658    53656    53656    53656    53656    53657    53658    53657 
   53657    53658    53658    53658    53659    53660    53660    53658 
   53657    53657    53657    53657    53657    53656    53658    53659 
   53657    53657    53659    53657    53658    53660    53659    53656 
   53655    53655    53648    53630    53600    53579    53629    53725 
   53644    53351    53306    53791    54108    53426    52730    53290 
   53552    53378    55124    55642    52714    51939    52892    52594 
   55189    56658    52639    51731    53843    53571    54746    55265 
   52745    52447    52663    52164    54156    54798    53544    54335 
   54214    51777    50933    53275    55679    54897    53482    53447 
   53028    52186    50364    49991    55241    59131    55712    51797 
   50534    50448    52645    53578    52101    54140    55852    49980 
   45995    51330    55031    52411    50372    48569    46533    49033 
   52566    54341    58779    56820    45739    45223    50470    46531 
   46466    48640    47495    58653    59205    34128    34515    53756 
   42526    41357    62443    48934    34067    49606    46427    42365 
   60874    55381    38557    47667    58363    45398    23249    28139 
   53747    57445    47885    43662    31098    32441    56275    52832 
   44926    75031    70828    19066     4822    26412    43675    47809 
   35719    30419    43101    54039    54720    55916    66314    72253 
   60719    45513    45101    44110    21773    17541    50054    52907 
   19473    11386    22109    35333    55378    56757    57014    70312 
   63853    56329    47902    23414    39111    66385    41717    41008 
   79409    76726    65182    78572    67552    44619    52589    67781 
   63969    61196    62951    44420    25347    17491   -17188   -44794 
   -6276    48575    80571   120548   133269    88247    59152    61320 
   43494    28907    15259   -31030   -27379    37537    37702    13873 
   46016    45929    28486    62830    71659    72935   130504   142855 
   97528    70737    15150   -47337   -33781   -10675   -14420    28230 
   83536    91197   100623   102524    55158    20679    25173    31781 
   43280    49191    35707    41105    70420    79738    71070    72370 
   77440    68813    51467    36147    16899     7526    20834    21670 
    5206    17041    58908    82831    65911    43059    46988    63571 
   79514    84327    62933    47865    70177    93196   101845   128384 
  147974   125961   105382   130349   200126   292480   371730   421163 
  460663   499768   509320   485229   452282   411319   380241   373186 
  340631   245333   113974    -2150   -58057   -63790   -71249   -83037 
  -92029  -124268  -158372  -163998  -157037  -138988  -105595   -62692 
   11901   123661   215586   266404   309577   309901   231679   126277 
   29438   -42151   -67295   -67255   -61454   -52236   -62179  -101560 
 -159168  -229184  -304042  -375393  -425968  -425718  -344513  -149424 
  122328   339549   434975   471222   514942   550173   535299   477439 
  393734   287018   193924   134134    74091    11989   -36761   -91775 
 -152111  -196226  -207218  -181974  -153478  -121273   -75803   -54864 
  -36313     5905     8964   -35329   -75484  -113151  -146060  -163646 
 -197525  -248093  -275377  -258061  -183807   -50037   108095   213055 
  225308   199411   154012    74510    37680    57978    56687    54334 
   77725    98736   143411   201413   209517   173988   118048    59958 
   58389   100282   120701   156701   218066   223650   196888   187066 
  162306   159940   210428   242053   251291   263887   237115   194308 
  174811   144789   109668    80655    35058    -9809   -37838   -59330 
  -78142   -97506  -110645  -110501  -111197  -112152   -78981     8889 
  115848   184376   203920   189168   140061    79365    39964    24911 
   28285    41017    48554    42876    28111    23532    36306    47866 
   46913    39199    28707    17175     9749     1307   -15406   -36340 
  -60735   -82055   -94541   -89931   -40724    35377    97507   143666 
  151058   120780    97365    49115   -38467   -90023  -108550  -140598 
 -151029  -121155   -72620    -5434    60544   105027   142389   168352 
  168816   148761   106855    35585   -66604  -176925  -248134  -262241 
 -231099  -165849   -89342   -17689    41756    76005   104993   144333 
  162120   157387   151057   119979    65706    29873    11026   -18174 
  -60992  -100404  -121724  -130650  -135376  -138909  -140823  -132092 
 -110050   -82102   -54085   -11055    49174    87504    98741    92409 
   51165    13011     6587    -9180   -17860    13736    37855    33763 
   40793    52787    39062    32866    57233    69180    74499   108466 
  137250   142748   150560   149621   127169   100116    82141    88861 
  117927   145874   177386   212826   230584   235472   227181   192038 
  146119   109386    93077   106982   132266   139243   132904   131277 
  125670   104729    83562    74090    58451    24202   -12185   -36173 
  -37784    -9625    20674    19090     1045      168    21267    59960 
  115142   169613   199188   193209   163406   137310   125341   119259 
  117341   121167   131208   142836   142010   117633    73375    30366 
    6239     -527     6116    20810    33512    44487    55395    59468 
   55828    46169    37062    45168    56776    46495    32131    20398 
    -627    -4081    10643    -7483   -62192  -105821  -120022  -118288 
 -102711   -76057   -55971   -39800   -19196   -12777   -21734   -19854 
   -1984    14307    20518    23552    21256     9479     8635    32976 
   62683    80275    93220   101021    97433    95406    98928   103343 
  111878   112215    96801    86237    92382   105377   116194   124388 
  133646   148301   172529   197950   202885   180358   144253   104348 
   61927    30207    25365    43482    74154   108149   128349   128647 
  117849   104940   103298   113228   116470   111229   114714   130112 
  135837   117659    91884    78315    77060    82753    93695   104957 
  115618   132870   148416   139645   109157    78440    52805    34466 
   36020    53799    62193    58991    70452    93571   105711   105288 
   93588    72680    46874    14194   -15175   -26202   -18644    -3495 
   12007    31808    45661    42124    46493    71125    91205    99999 
  104618   107776   112761   104471    74252    38364     4313   -19158 
  -17005     5034    31921    53077    63800    67883    69080    71576 
   75227    71616    62765    54023    40361    23324    16783    31492 
   56873    68694    57690    37514    24629    11855   -10589   -28299 
  -39738   -54826   -55329   -28063     9963    46632    81879   108162 
  116922   110834    98259    87169    82206    85944    94160    91684 
   79274    72100    66515    54185    37786    22933    18328    25115 
   34604    39326    33524    23138    20204    13257    -6085   -11749 
    6553    29522    53531    74761    78434    77076    80076    66678 
   46644    42934    34356    12994      853    -5753   -12234   -10152 
   -2786     6383    13412    16061    19196    21987    28769    37359 
   34006    24647    19084    20063    33379    51173    66945    82971 
   87909    79884    70354    54317    31224    14323     5319     5738 
   19428    37828    57506    75837    83525    91489   107529   112973 
  104172    87013    55762    23711     4565    -9635   -15264    -4967 
   17971    48581    74074    92136   109238   112658    97900    81616 
   72165    70570    72145    69023    63320    56814    48848    38144 
   25044    22219    34095    48996    65013    81738    88663    93349 
  107893   118337   125079   140020   144488   135174   135712   144019 
  152594   166884   172936   156764   128420    93377    50001     1637 
  -49377   -88130   -95384   -75542   -39927     5555    46959    72106 
   79001    69082    46934    15616   -18015   -40071   -47663   -42948 
  -24640      299    24076    43765    55190    55242    45516    31248 
   12607    -9924   -27503   -39678   -48411   -44551   -30839   -19216 
   -4493    21507    52817    80847    97383    97354    90985    85991 
   76221    68854    74516    85197    96922   107098   108045   106032 
  103138    94556    86567    78749    69968    64376    51681    34610 
   29678    23037     6525     3005    12678    23392    41526    61230 
   71903    79488    80448    67829    56036    53680    49100    40179 
   36450    37993    37478    35393    33314    23116     9761     5125 
     503    -4311     3670    18241    33276    52547    72748    94066 
  109964   106857    96378    86998    71220    63956    73083    82147 
   89644    97679    95398    80220    60276    40111    20488     9205 
    8117     3862      296    11898    28609    43125    62431    77768 
   83370    85067    81581    81320    88640    88541    83162    81733 
