Origin Time       2016/04/14 21:26:00
Lat.              32.742
Long.             130.808
Depth. (km)       11
Mag.              6.5
Station Code      KMMH16
Station Lat.      32.7967
Station Long.     130.8199
Station Height(m) -197
Record Time       2016/04/14 21:26:36
Sampling Freq(Hz) 100Hz
Duration Time(s)  300
Dir.              3
Scale Factor      2940(gal)/6170270
Max. Acc. (gal)   126.953
Last Correction   2016/04/14 21:26:21
Memo.             
[...]
  127292   127293   127294   127292   127292   127293   127292   127293 
  127294   127293   127295   127295   127290   127289   127291   127293 
  127292   127292   127293   127294   127295   127295   127293   127291 
  127291   127292   127291   127289   127290   127292   127290   127289 
  127290   127290   127292   127292   127290   127292   127293   127292 
  127292   127292   127291   127291   127292   127292   127290   127290 
  127292   127291   127291   127292   127292   127291   127291   127292 
  127291   127290   127291   127291   127291   127292   127291   127290 
  127291   127292   127291   127292   127294   127295   127294   127292 
  127290   127289   127291   127293   127292   127292   127291   127292 
  127292   127290   127291   127291   127291   127292   127291   127291 
  127294   127292   127290   127292   127291   127290   127291   127290 
  127289   127292   127294   127292   127292   127292   127292   127292 
  127292   127291   127291   127292   127292   127291   127290   127292 
  127292   127291   127293   127293   127292   127293   127291   127290 
  127292   127293   127292   127292   127291   127291   127292   127292 
  127294   127293   127291   127291   127292   127291   127292   127292 
  127292   127292   127293   127292   127292   127291   127290   127291 
  127292   127293   127293   127293   127294   127294   127293   127293 
  127294   127294   127294   127294   127295   127295   127295   127294 
  127292   127293   127294   127294   127293   127292   127293   127295 
  127296   127294   127293   127293   127293   127293   127294   127294 
  127294   127294   127295   127294   127294   127292   127290   127292 
  127292   127293   127294   127294   127294   127293   127292   127294 
  127295   127294   127293   127294   127294   127294   127295   127294 
  127293   127294   127294   127293   127293   127293   127290   127291 
  127295   127295   127293   127294   127294   127294   127294   127294 
  127293   127294   127295   127293   127293   127294   127294   127293 
  127293   127293   127293   127293   127292   127292   127294   127294 
  127292   127293   127294   127292   127291   127292   127292   127293 
  127294   127293   127291   127293   127295   127293   127291   127293 
  127294   127295   127294   127291   127292   127291   127292   127295 
  127294   127293   127293   127292   127291   127291   127291   127293 
  127293   127292   127294   127294   127293   127295   127293   127291 
  127291   127292   127292   127293   127293   127293   127293   127294 
  127292   127292   127293   127294   127292   127291   127292   127292 
  127293   127294   127292   127291   127292   127292   127292   127293 
  127293   127292   127293   127292   127292   127293   127292   127291 
  127291   127291   127292   127293   127293   127292   127292   127291 
  127289   127291   127293   127293   127294   127293   127291   127292 
  127293   127292   127292   127293   127293   127293   127292   127291 
  127292   127292   127289   127289   127292   127291   127291   127292 
  127292   127290   127292   127294   127292   127291   127292   127289 
  127290   127293   127292   127290   127292   127293   127290   127290 
  127293   127294   127292   127291   127292   127293   127292   127290 
  127290   127291   127291   127293   127293   127292   127292   127293 
  127293   127294   127293   127292   127292   127291   127290   127291 
  127293   127292   127292   127294   127292   127293   127293   127289 
  127289   127293   127294   127292   127291   127293   127294   127293 
  127292   127294   127295   127292   127291   127293   127295   127295 
  127295   127294   127293   127293   127291   127291   127293   127292 
  127291   127294   127296   127292   127291   127292   127291   127291 
  127293   127293   127294   127295   127294   127295   127296   127293 
  127293   127293   127291   127292   127293   127291   127292   127293 
  127291   127290   127292   127293   127291   127290   127293   127293 
  127290   127293   127295   127292   127293   127296   127295   127292 
  127291   127292   127291   127290   127292   127292   127291   127292 
  127293   127293   127292   127290   127290   127290   127291   127293 
  127293   127293   127293   127292   127291   127292   127292   127292 
  127294   127294   127292   127292   127293   127292   127292   127291 
  127292   127294   127293   127290   127291   127293   127294   127294 
  127294   127292   127291   127291   127291   127292   127292   127291 
  127293   127294   127292   127290   127291   127294   127292   127292 
  127293   127292   127292   127294   127293   127291   127291   127292 
  127292   127292   127292   127293   127294   127292   127292   127293 
  127292   127290   127291   127292   127291   127292   127295   127294 
  127293   127292   127291   127291   127292   127291   127292   127293 
  127292   127291   127292   127295   127296   127294   127291   127291 
  127292   127292   127293   127294   127293   127291   127291   127291 
  127292   127294   127295   127293   127294   127296   127295   127292 
  127292   127294   127291   127289   127291   127291   127291   127293 
  127294   127292   127292   127292   127292   127291   127293   127295 
  127293   127292   127292   127292   127292   127292   127293   127293 
  127294   127294   127293   127294   127295   127293   127292   127294 
  127294   127292   127291   127293   127293   127291   127292   127291 
  127291   127292   127292   127290   127290   127291   127291   127292 
  127294   127293   127292   127292   127291   127291   127291   127290 
  127292   127295   127294   127292   127292   127293   127292   127291 
  127292   127293   127293   127293   127294   127293   127293   127293 
  127293   127293   127292   127290   127292   127293   127293   127292 
  127293   127292   127291   127290   127290   127291   127292   127294 
  127294   127292   127292   127294   127292   127291   127293   127294 
  127293   127292   127293   127293   127292   127292   127291   127292 
  127292   127292   127293   127293   127294   127295   127293   127290 
  127291   127293   127293   127290   127292   127294   127293   127293 
  127295   127293   127292   127292   127292   127293   127291   127291 
  127293   127292   127291   127293   127292   127291   127292   127293 
  127294   127293   127293   127294   127292   127290   127292   127291 
  127290   127293   127295   127294   127295   127294   127292   127292 
  127292   127291   127291   127293   127292   127292   127292   127293 
  127291   127291   127294   127294   127292   127293   127293   127293 
  127293   127292   127290   127292   127293   127293   127292   127290 
  127289   127291   127294   127292   127290   127292   127292   127291 
  127291   127291   127291   127294   127294   127292   127293   127294 
  127293   127292   127292   127292   127291   127293   127294   127291 
  127292   127293   127290   127292   127295   127292   127290   127294 
  127296   127295   127293   127292   127293   127294   127293   127293 
  127293   127293   127295   127293   127290   127293   127294   127292 
  127293   127294   127294   127295   127295   127295   127294   127293 
  127292   127292   127292   127292   127293   127293   127293   127292 
  127292   127292   127293   127293   127294   127294   127293   127295 
  127295   127293   127292   127293   127290   127290   127292   127291 
  127292   127294   127293   127293   127293   127292   127292   127292 
  127293   127291   127292   127295   127293   127290   127289   127289 
  127291   127292   127293   127291   127289   127291   127294   127294 
  127294   127292   127290   127291   127291   127289   127290   127292 
  127291   127291   127292   127292   127291   127291   127291   127291 
  127292   127293   127293   127291   127291   127293   127294   127292 
  127291   127293   127294   127292   127293   127296   127292   127290 
  127294   127294   127291   127293   127293   127292   127295   127294 
  127294   127295   127291   127290   127294   127293   127291   127293 
  127292   127291   127293   127292   127290   127293   127293   127291 
  127292   127292   127292   127292   127292   127293   127293   127292 
  127291   127291   127293   127293   127291   127290   127292   127292 
  127291   127291   127291   127293   127293   127291   127292   127293 
  127292   127291   127291   127291   127292   127293   127292   127291 
  127293   127293   127293   127293   127290   127289   127291   127291 
  127292   127293   127292   127292   127292   127291   127291   127291 
  127291   127292   127292   127292   127295   127293   127291   127292 
  127293   127292   127291   127290   127291   127292   127292   127291 
  127290   127291   127292   127292   127292   127293   127292   127291 
  127294   127295   127292   127292   127292   127291   127291   127290 
  127291   127292   127292   127291   127291   127293   127291   127290 
  127292   127293   127292   127292   127291   127291   127292   127292 
  127291   127293   127293   127292   127293   127294   127294   127292 
  127293   127294   127293   127290   127290   127293   127293   127292 
  127293   127293   127291   127292   127292   127291   127292   127291 
  127291   127292   127293   127292   127292   127292   127294   127294 
  127292   127292   127293   127292   127291   127292   127292   127293 
  127294   127292   127291   127292   127291   127291   127293   127291 
  127290   127292   127291   127291   127293   127293   127291   127293 
  127293   127291   127290   127291   127293   127293   127291   127289 
  127291   127293   127292   127291   127294   127295   127291   127289 
  127292   127293   127293   127293   127294   127293   127291   127292 
  127293   127290   127289   127291   127290   127291   127293   127292 
  127290   127291   127292   127290   127290   127293   127294   127293 
  127292   127291   127291   127292   127292   127291   127292   127291 
  127292   127294   127293   127294   127294   127291   127291   127293 
  127293   127291   127290   127292   127294   127291   127290   127291 
  127290   127288   127290   127292   127290   127290   127293   127292 
  127291   127291   127291   127292   127291   127289   127288   127291 
  127291   127289   127291   127292   127291   127293   127294   127291 
  127289   127293   127296   127292   127290   127293   127293   127292 
  127294   127293   127291   127292   127293   127291   127290   127291 
  127292   127293   127294   127294   127294   127295   127293   127292 
  127291   127293   127293   127291   127293   127296   127293   127291 
  127294   127295   127294   127294   127292   127291   127292   127292 
  127291   127292   127291   127289   127291   127293   127292   127292 
  127292   127290   127291   127292   127291   127292   127293   127293 
  127290   127280   127245   127152   126975   126797   126887   127207 
  127016   126137   125937   127431   128642   126809   124891   125820 
  124749   124702   132229   136156   132264   129984   127227   125883 
  129377   128452   123695   120453   120424   126787   130979   129314 
  128576   125728   123018   124213   126477   130862   130943   127051 
  128533   131192   130767   126488   120626   121301   126312   128754 
  129220   128339   124206   120757   121582   121678   122172   125800 
  126197   122450   117678   116566   123282   126792   120158   114600 
  116526   124712   133132   131820   128575   133557   135853   128773 
  121626   130341   143322   129574   117567   135040   136786   102868 
   65340    51520    66846    93107   116876   140305   162912   174066 
  173542   182925   198995   195111   155539   108048   110148   115837 
   80473    86593   124826   138309   162366   171664   123976    80104 
   98723   121714    94072   100712   148876   126733    74560    89821 
  149137   200509   225079   241194   268154   286961   257582   169049 
  105238    90574    40178    13104    69458    96769    80599   106746 
  154594   171248   194347   232335   196298   120701   122559   171111 
  167066   112498   121936   175593   137124    76224    75506    69564 
   78163   155329   247408   266488   226454   196253   153447    95461 
   71852    66748    59919    61593    83759    98870    65715    28508 
   13004   -11009     3833   100407   210359   252495   225043   178771 
  144822   105852    65029    78076   107387    65658    13680    26257 
   90621   156452   126178    17163    -9684    86360   159618   135760 
  108838   119128   138235   153445   123522    74007    62007    55621 
   58338   114265   180210   196808   196634   206814   162989    84369 
   61427    56179    60596   119775   153436   122879    89260    78541 
   79988    67375    39505    26541    56054   111384   134962   130384 
  132961   142192   163479   189471   212726   222950   176860   101283 
   62435    63953    83317    80695    42504    15797    20099    29876 
   56288    95995    75089    14373    25493   105757   178403   225995 
  261282   266586   229330   192936   200598   210283   186183   185716 
  229331   287929   336294   328510   277831   218192   147761   100596 
  102775   131302   149041   156128   176646   182211   153858   123301 
  112362   113552    90425    58687    97348   177452   197994   208000 
  284717   322938   244929   153297   132495   152921   161526   152752 
  160287   173642   141456   100432   109953   118377   106813    92933 
   27643   -40160   -22033    14524     -891     -942    67596   151083 
  244088   353002   394006   369265   328925   272508   240594   229345 
  201424   159443    80157    27992    78993   115550    88093    98915 
  137185   153991   159198   151831   160895   195134   203353   184054 
  150506   104378    86352    58064   -26163   -84987   -89419   -65045 
  -39557   -61650   -38661    63147    89328    75779   138354   205041 
  206694   148492   100148   115354   115053    83731    82164    93342 
   90695    50083   -10152   -17573    23741    55274    48801    41969 
   90575   150198   164172   184760   231620   250037   239183   207513 
  170064   158176   136974   126980   170175   201394   204815   198051 
  160602   120772    96731    73738    61788    61612    62772    82863 
  141957   199605   194369   161408   178368   218227   225076   220434 
  225114   227069   219181   222166   249897   244972   189770   162285 
  179078   179312   151269   132637   123124   108827   109466   129646 
  139190   114647    81827    71858    77037    87983    92655    90593 
   97837   124647   167230   182162   165855   162971   163824   146910 
  102121    32648   -12545   -15607    -9606    -5145    10545    23885 
   26096    49504    90913   122702   130718   110630   128419   185701 
  189044   160699   131032    94632   111174   130346    76901    26543 
   22401    47569    95547   136051   162399   157616   104069    72270 
   87794    87919    67996    55096    56958    91283   146312   171281 
  134199    73877    68393   115416   146122   145700   147974   156052 
  142281   120362   123607   131518   124058   121515   127847   121602 
  102554   101624   120063   108780    65774    63052    99204    99911 
   98962   146387   180426   180785   175231   162298   151829   144703 
  145993   151635   124550    98319   130241   173828   168779   136328 
  118649   120228   118219   110011   124639   153003   157893   159196 
  179860   186697   164958   141107   142260   161837   145612   105883 
  122822   158379   152806   158484   180199   177613   163846   153722 
  155975   171620   180872   166806   144616   150024   163133   156688 
  157889   168170   171277   163311   140750   132049   138738   123079 
  107832   127303   154902   164287   165876   181944   200207   186364 
  162030   154401   128185    89567    99867   140105   153904   156285 
  154602   121805    77157    61256    75739    86508    84776    98338 
  116174   111454   101330    94509    75376    57656    58535    68196 
   92530   132783   153613   140635   126341   132161   126256   106836 
  130751   164591   133429    87664    85739    88088    69715    62428 
   77465    91085   101895   120558   138395   151802   149619   126507 
  120030   139933   153543   154907   152331   150199   144554   130149 
  121846   119025   115515   122641   133494   129389   105553    85253 
   84206    81209    76092    80479    86327    93696    99504   105947 
  124844   138424   131697   135085   158777   161448   141221   136196 
  141181   130592   116168   128960   152056   143583   122084   119449 
  124767   124817   116429   117774   151877   189273   199265   199905 
  199908   189687   176681   170776   166673   162475   169932   181188 
  172121   158908   169863   179213   159111   142410   159503   178299 
  159445   120435   111951   136411   146135   138476   137304   132168 
  118785    99766    82520    87897   107314   116498   110402   106441 
  125130   146330   139455   126734   136612   144380   130102   117111 
  111295    95170    78149    71986    66809    66909    85358   114470 
  136038   147348   154388   152848   149054   143586   120718   104933 
  114380   117882   111802   114070   123969   131007   127453   125739 
  125630   119362   122655   135924   144227   141263   137261   143040 
  140639   125736   120485   123746   114949    99661    99190    95315 
   80055    84092    97520   104761   122263   143185   147708   133597 
  118038   116026   121826   128761   124538   111426   115873   116279 
   84249    60012    65456    68308    67865    93955   128903   137436 
  139068   151341   154849   152723   159029   158946   145804   147641 
  167097   168812   152931   143441   140612   136782   136120   151984 
  169009   159439   143073   147734   159652   145066   103667    79181 
   85441    96981   105462   117224   131031   140477   150091   158536 
  146952   122939   115269   121143   113362    91342    79737    79106 
   76959    79458    91260   106837   118298   120259   121830   128217 
  135311   155746   179672   178085   174929   185626   176452   146018 
  117027    96912    90255   102147   124080   128250   114218   112644 
  127527   138600   141759   157514   182536   183842   168174   165697 
  176101   185938   186347   174302   152739   133536   127692   117284 
   90116    70348    70127    88013   120585   138806   136120   138233 
  135688   119284   114525   116128   102784    93855   103046   113005 
  119735   125203   121437   117494   129068   146844   150703   139005 
  121474   107021   104275   101206    83126    75944    97899   115361 
  111617   114552   126995   127305   125172   140545   162892   171112 
  167204   166651   167326   155757   132844   106257    90459    99396 
  109367   102522   100335   101456    93750    94560   107274   108204 
   93355    86616    97338   109399   116015   125831   139376   149704 
  152508   152518   158093   155633   138665   131089   128899   113481 
   98628    94921    91383    78092    67963    72418    69858    53061 
   46458    61713    85126   100706   114045   137226   164734   183863 
  188942   177188   157862   152069   154045   148011   146248   154382 
  156076   147328   139729   132644   123148   119740   118027   118969 
  132229   136011   116101    99513   108584   130231   137717   140727 
  161766   178977   178818   182061   182641   167409   159025   166748 
