Origin Time       2016/04/14 21:26:00
Lat.              32.742
Long.             130.808
Depth. (km)       11
Mag.              6.5
Station Code      KMMH14
Station Lat.      32.6345
Station Long.     130.7521
Station Height(m) 70
Record Time       2016/04/14 21:26:37
Sampling Freq(Hz) 100Hz
Duration Time(s)  300
Dir.              6
Scale Factor      3920(gal)/6170801
Max. Acc. (gal)   228.094
Last Correction   2016/04/14 21:26:22
Memo.             
[...]
  -25332   -25358   -25370   -25375   -25379   -25360   -25355   -25348 
  -25356   -25368   -25349   -25362   -25365   -25353   -25364   -25348 
  -25351   -25374   -25373   -25369   -25347   -25354   -25372   -25351 
  -25355   -25352   -25341   -25375   -25388   -25373   -25356   -25338 
  -25349   -25350   -25352   -25380   -25371   -25361   -25368   -25349 
  -25346   -25357   -25367   -25383   -25367   -25360   -25363   -25347 
  -25351   -25351   -25355   -25374   -25365   -25362   -25359   -25349 
  -25364   -25371   -25370   -25365   -25351   -25354   -25356   -25350 
  -25354   -25355   -25367   -25382   -25374   -25366   -25349   -25334 
  -25350   -25370   -25376   -25369   -25355   -25355   -25355   -25358 
  -25367   -25366   -25366   -25366   -25354   -25345   -25347   -25362 
  -25375   -25370   -25356   -25345   -25346   -25357   -25365   -25373 
  -25382   -25380   -25364   -25340   -25325   -25341   -25365   -25378 
  -25376   -25356   -25344   -25355   -25359   -25361   -25370   -25370 
  -25371   -25368   -25347   -25337   -25350   -25377   -25384   -25369 
  -25355   -25340   -25340   -25350   -25343   -25354   -25378   -25385 
  -25382   -25366   -25359   -25363   -25351   -25348   -25347   -25339 
  -25352   -25368   -25372   -25373   -25367   -25365   -25371   -25381 
  -25379   -25351   -25322   -25315   -25334   -25358   -25377   -25386 
  -25377   -25360   -25345   -25356   -25392   -25396   -25363   -25332 
  -25317   -25319   -25359   -25400   -25396   -25375   -25353   -25323 
  -25297   -25314   -25392   -25449   -25429   -25381   -25335   -25295 
  -25296   -25350   -25408   -25408   -25374   -25350   -25325   -25309 
  -25336   -25399   -25434   -25408   -25359   -25304   -25285   -25355 
  -25441   -25438   -25355   -25290   -25306   -25338   -25352   -25375 
  -25387   -25386   -25395   -25389   -25350   -25311   -25339   -25391 
  -25386   -25358   -25339   -25331   -25347   -25360   -25366   -25364 
  -25348   -25377   -25414   -25400   -25367   -25312   -25300   -25344 
  -25387   -25408   -25349   -25283   -25302   -25353   -25407   -25435 
  -25423   -25391   -25335   -25314   -25335   -25351   -25370   -25366 
  -25343   -25350   -25358   -25344   -25343   -25364   -25389   -25396 
  -25367   -25336   -25341   -25374   -25392   -25364   -25337   -25342 
  -25360   -25374   -25353   -25335   -25351   -25366   -25377   -25372 
  -25361   -25357   -25352   -25363   -25380   -25375   -25357   -25335 
  -25318   -25334   -25377   -25401   -25396   -25370   -25328   -25297 
  -25320   -25393   -25437   -25414   -25351   -25300   -25318   -25371 
  -25391   -25378   -25360   -25344   -25333   -25333   -25358   -25390 
  -25392   -25374   -25337   -25310   -25338   -25385   -25407   -25384 
  -25345   -25332   -25345   -25373   -25379   -25355   -25352   -25356 
  -25341   -25339   -25366   -25392   -25391   -25373   -25352   -25325 
  -25311   -25339   -25393   -25429   -25411   -25353   -25319   -25321 
  -25335   -25353   -25366   -25397   -25412   -25361   -25305   -25298 
  -25336   -25384   -25394   -25396   -25387   -25356   -25350   -25347 
  -25347   -25364   -25366   -25374   -25375   -25363   -25366   -25351 
  -25338   -25339   -25331   -25344   -25356   -25369   -25404   -25408 
  -25384   -25351   -25310   -25302   -25344   -25410   -25449   -25417 
  -25344   -25281   -25271   -25340   -25391   -25354   -25341   -25395 
  -25433   -25415   -25351   -25295   -25289   -25319   -25368   -25399 
  -25421   -25428   -25392   -25358   -25316   -25265   -25264   -25317 
  -25407   -25456   -25419   -25373   -25362   -25365   -25357   -25324 
  -25303   -25334   -25373   -25381   -25387   -25398   -25392   -25347 
  -25297   -25307   -25351   -25389   -25397   -25384   -25391   -25376 
  -25326   -25310   -25323   -25349   -25382   -25401   -25413   -25397 
  -25342   -25308   -25324   -25362   -25374   -25343   -25334   -25374 
  -25396   -25375   -25341   -25349   -25396   -25397   -25365   -25342 
  -25312   -25318   -25357   -25398   -25414   -25364   -25327   -25332 
  -25346   -25374   -25367   -25349   -25364   -25359   -25356   -25365 
  -25374   -25409   -25396   -25342   -25321   -25300   -25307   -25355 
  -25395   -25428   -25404   -25346   -25334   -25335   -25341   -25354 
  -25362   -25378   -25377   -25372   -25376   -25354   -25339   -25348 
  -25361   -25378   -25357   -25318   -25320   -25362   -25421   -25427 
  -25385   -25349   -25287   -25272   -25357   -25434   -25443   -25385 
  -25315   -25292   -25305   -25354   -25412   -25417   -25378   -25339 
  -25325   -25349   -25387   -25389   -25357   -25334   -25327   -25338 
  -25363   -25385   -25388   -25365   -25351   -25361   -25368   -25365 
  -25357   -25362   -25359   -25340   -25352   -25351   -25344   -25363 
  -25366   -25380   -25383   -25363   -25365   -25361   -25364   -25358 
  -25344   -25357   -25351   -25339   -25347   -25358   -25382   -25384 
  -25376   -25372   -25337   -25333   -25359   -25377   -25393   -25369 
  -25341   -25339   -25337   -25360   -25386   -25381   -25370   -25347 
  -25328   -25344   -25369   -25368   -25300   -25147   -24826   -24193 
  -23581   -23512   -23580   -23227   -22977   -22581   -21151   -20952 
  -24291   -28772   -31727   -33214   -34179   -34530   -32979   -32475 
  -36139   -36737   -27783   -15466    -6718    -3174    -7017   -15217 
  -20594   -23830   -26275   -25141   -25309   -31408   -36380   -37545 
  -38365   -33749   -25471   -24143   -26047   -26762   -29094   -26563 
  -19889   -18449   -15713   -10024   -14325   -25693   -34174   -38178 
  -34585   -27388   -23578   -19790   -17647   -19698   -18224   -16319 
  -18543   -15752   -15095   -26282   -34881   -37391   -41021   -37802 
  -27238   -20768   -21107   -25366   -28564   -24549   -12746     2521 
   13377    12544     3094    -3153    -4216   -10028   -16335   -14138 
  -16079   -27890   -34953   -37909   -49477   -66815   -77325   -65989 
  -28784     4012     3953   -16317   -38708   -53369   -44062   -16493 
    5996    16829    11799   -16921   -58235   -83643   -71962   -34293 
    4578    37516    51045    28473    -7075   -20829    -5491    22209 
   24427   -17712   -85215  -140973  -131362   -65518    -9647    40790 
   69502    16547   -43841   -40752   -27475    -2937    28213   -15999 
 -102107  -145225  -170869  -171257   -87975    15199    50084    38169 
    4379   -36577   -26175    34657    74033    74605    55870    -4472 
  -93119  -121134   -84462   -63339   -39430    12211    15227   -46437 
 -118310  -159399  -108614    22483   114149    95541   -16986  -146481 
 -194147  -150511   -61400    37528    86957    70251     9414   -65794 
  -48276    61442   100080    23996  -103743  -205061  -193663  -104372 
   12430   156060   200737    82461   -76809  -238161  -345881  -268459 
 -117810   -36642    40429    99282    97797    97831    88141    74246 
  106791    83601   -50613  -136404  -100336   -32244    39307   115130 
  145974   112367   -25690  -246954  -326154  -218509  -146641  -128770 
 -104951  -116616   -73398    41312    94910   143365   240722   247314 
  160786    69628   -60592  -150175   -93837   -20251    27261   112949 
  106044   -36758  -154487  -202983  -204775  -157001  -126484  -114155 
  -43786    39594    95728   173907   213042   129743      185   -84072 
 -132664  -144049   -97203   -70155  -104760  -110791   -88521  -100235 
  -89276   -27722    17093    38066    47764    21386     5567    34253 
   43353    34829    29415   -39338  -129601  -131832  -108980  -145100 
 -192066  -206490  -165320   -42580   102724   182579   198709   181887 
  114921      126   -97468  -107739   -42381    -2773   -38054   -99113 
 -157807  -213463  -221897  -135701    11083   124547   129236    15978 
 -109588  -108685    20009   171924   255454   211729    49666  -144525 
 -272946  -265905  -161111   -86028   -56799   -35109   -65463   -91141 
  -16059    68616    95008    82922    -7629  -105484  -103733   -76224 
  -50517     8348    17702   -21603   -15612    -9820   -38798   -40428 
  -47596   -80871   -68767   -41064   -42250   -15135    33074    50364 
   65941    96785   106068    75313     9756   -43332   -40662   -16740 
   17731    63957    22888  -127239  -240533  -275253  -322628  -347184 
 -270361  -163825  -107868   -81910   -31671    75640   208123   300092 
  319903   291469   259968   216289   136944    46854   -36590  -112662 
 -184012  -261672  -320467  -327223  -299402  -257333  -199688  -154928 
 -151857  -149194   -95967     6592   145788   269962   306295   283665 
  246877   160624    50882   -10749   -50331  -115255  -187790  -231068 
 -216383  -150289   -89531   -69061   -53089    -3755    50227    78928 
  113429   153814   145505   103361    93029   110312   118807   115025 
   71935   -39028  -167009  -262158  -312915  -266297  -113741    35566 
  106403   128985   126879    94490    69792    90735   127443   121058 
   33294  -107948  -220452  -268470  -260687  -193252   -94029   -14383 
   44324    85062    82061    73564   115165   148074   112181    60485 
   33248    11296    -5464   -14614   -25649   -42823   -83607  -139973 
 -172001  -196404  -250725  -291689  -266246  -198587  -125722   -53282 
   10434    58431    85467    68198    17925   -19437   -62806  -144471 
 -210405  -220710  -207875  -167113   -78191    -8326     1064     7393 
   24400    23172    22898    46523    85472   100295    55593   -14508 
  -61721  -100240  -130720  -103320   -36438   -10762   -33222   -67733 
 -106064  -121191   -88748   -36806    11756    70033   133868   162406 
  145315   124282    93818    13100   -71647   -91273   -79520   -88751 
  -92120   -78082   -81303   -68777     6028    88779   126778   143245 
  152784   153814   160692   167595   150191    96084    19498   -36303 
  -46569   -31887   -11083     7619     -842   -29180   -38033   -37630 
  -36566    -6103    22523     1627   -36884   -56008   -55967   -31662 
   -5092   -15569   -45743   -66913   -88334  -101009   -85168   -54772 
  -30181   -24772   -35080   -25925     9479    22975   -22624  -109181 
 -183240  -218389  -219335  -174657   -97108   -43628   -27385   -14053 
    3413    34891   109632   182912   169917    77986   -43787  -180892 
 -279646  -277809  -208851  -127744   -50251   -18559   -56656  -103316 
 -120706  -137924  -143227  -102816   -46194   -12712     5635     8623 
  -22063   -49097   -38750   -25377      386    69943   137898   171498 
  174887   131756    61780    15882    -4509   -22242   -58251  -133538 
 -205733  -207477  -163618  -129106   -77224    20453   103971   111378 
   59436     4614   -13355    19056    88954   134454   100073    17284 
  -57407   -98994   -85865   -30650    23594    65864    72085     -992 
 -119558  -220034  -269492  -224056  -102454     -287    33067       36 
  -50027   -33945    50515   135917   180788   168442   102258    21287 
  -34503   -53701   -28186    38048    89056    64502   -27690  -121872 
 -164994  -173803  -186421  -188439  -165524  -129585   -49813    84863 
  203038   272587   313088   283870   151450   -14689  -153971  -271460 
 -320759  -266974  -193504  -129913   -15932   110022   167754   163904 
  112548    20441   -48455   -72656  -121177  -180432  -154653   -69657 
  -19206    -9771   -20499   -41732   -53757   -72898  -123611  -165742 
 -138335   -47371    49063   116334   144149   115414    47260    -1732 
  -19015   -42405   -78461  -107299  -133602  -183368  -253588  -288167 
 -253600  -194796  -172488  -204045  -248226  -230082  -126131    17987 
  156809   261947   311583   306259   255059   165965    66888   -23877 
 -112316  -178671  -207613  -224610  -233551  -211107  -147924   -59472 
   18073    81464   150502   189880   165323    99346    -5817  -125249 
 -152319   -68931    36522   141932   232331   234873   134113    -4005 
 -116264  -182002  -190368  -147524   -98382   -55983     2445    54628 
   68263    79608   123284   145333   104408    47583     -587   -62615 
 -118820  -141297  -137220  -110760   -73135   -42653   -27488   -28200 
  -18493     1755    -1896    -5424    -3229   -44066   -73033   -20294 
   37786    59791   104108   117125    26129   -75122  -136075  -206395 
 -219989  -142926  -106044  -122476   -83959   -21907    17719   105733 
  221290   253344   199075   102149   -17839  -111775  -154373  -142324 
  -72553    -6177    14071    23308    27382     4171   -23820   -41860 
  -67676   -75387   -61767  -104014  -182174  -194852  -172238  -159759 
  -79183    59698   115997    65717    -6406   -89804  -192124  -240237 
 -187303   -73465    64626   156073    91658   -61443  -144659  -191101 
 -257308  -241644  -123099   -21265    10758   -19552   -94314  -121761 
  -46825    36192    60382    86959   134851   139164    83235     3997 
  -48433   -17499    59007    70475    24210   -25375  -115567  -210630 
 -190432   -67038    62519   143329   124359    16200   -66191   -75792 
  -56212    -4712    73435   127556   148110   125611    31543   -85492 
 -144201  -129882   -64197    17578    53094    30803    33200    92331 
  137737   142722   126723    79945     5775   -86235  -187347  -250135 
 -248522  -201659  -143023  -117932  -106223   -34286    85267   156907 
  140231   109027   114759   104297    55119     7448   -11365     9715 
   37507    21724   -30135   -92042  -150261  -184807  -192315  -177075 
 -120777   -35521    -7130   -82862  -157308   -99922    54041   184691 
  245936   201066    16624  -202857  -330352  -376077  -350386  -238576 
 -135957  -109131   -91471   -53377     7526   146431   305916   333701 
  219448    49416  -126999  -251949  -283184  -247802  -181681   -98976 
  -18068    38595    61681    62981    52431     9914   -78687  -178090 
 -233316  -212930  -129171   -24283    77862   167898   219711   222719 
  196348   141453    43060   -71337  -140911  -130093   -47644    64041 
  160058   206573   178061    93993     6233   -49481   -47638     4259 
   58359   100956   152769   189850   176279   144958   126091    88432 
   26239   -48295  -157500  -274610  -324898  -308032  -274401  -223746 
 -151820  -100020   -67794   -14296    39208    56574    73457   117406 
  140024   108500    51743   -24466  -134699  -214224  -194934  -152028 
 -169132  -184578  -144880   -97755   -68468   -43635   -34191   -28983 
    5848    48718    75652    97148    81827    20753   -29046   -65568 
 -119624  -161785  -164340  -161806  -177354  -158847   -85120   -19453 
   26736    89238   125846    88103    31933    19529    22867    11609 
    4383     1331   -16542   -44359   -80193  -128504  -154214  -133469 
 -109147  -104442   -89045   -54352   -13024    31712    82173   151623 
  221092   230887   180807   109688    13371   -82899  -128722  -148832 
 -183870  -221165  -245500  -254258  -228147  -153632   -53130    42188 
  109394   114518    58531    16132    27467    41768    43786    61868 
   39949   -58523  -134686  -148947  -164819  -166860  -123069   -74388 
  -38116   -11619   -13016   -21500    10499    78761   127830   128773 
  115124    98039    47954     -979     1533    13657   -12085   -43600 
  -46142   -34711   -26353   -17054     3720    34288    40004     4193 
  -25921   -21733    -6168    23099    70841    98731    89406    52158 
  -15506   -86635  -113080   -90782   -54610   -36226   -41190   -62157 
  -88893   -84162   -19839    65634   117863   122125    75047   -12965 
  -93397  -137854  -164663  -172152  -154708  -148388  -152486  -122373 
  -65597   -13474    23961    28477    -3998   -53505   -98429  -112510 
  -94676   -76977   -74918   -76270   -76432   -87693  -103360  -106387 
 -105468  -101013   -83814   -71633   -62579   -30015     4168     8424 
   10187    21793    14062     4678    15829     4429   -38003   -56566 
  -39692   -13270    14154    27787    12533   -10119    -8387     6530 
   10537    15177    16734   -13007   -55495   -67761   -50360   -24552 
    7294    36060    39737    15664   -20111   -37773   -12423    34675 
   60400    51464    26551    12138    12824    14590    13435    10737 
    2033   -21079   -65674  -113403  -132818  -125937  -110398   -86372 
  -57196   -30536     1593    40516    63434    59844    52864    54098 
   46859    34960    28529    11338    -9865   -17375   -35069   -75066 
 -108353  -115823  -100051   -67534   -21417    27245    48009    35901 
   28015    32500    26325    16775    14659     5065   -10452   -14450 
   -8521     -287    11974    23317    20522      535   -27238   -52774 
  -64103   -53537   -42082   -57114   -84831   -94242   -88437   -89837 
  -92422   -75110   -49952   -37710   -32628   -32883   -43662   -55683 
  -63714   -67444   -61110   -55165   -66967   -90774  -113637  -127135 
 -116667   -81930   -49361   -38443   -45562   -62224   -73355   -62934 
  -43500   -31856   -21276   -17794   -33905   -54700   -65517   -58338 
  -24050    14302    25348    18772    10378    -7160   -23914   -13656 
   13742    27145    22804    11215    -6181   -23558   -22203     8793 
   46616    54668    28457   -13556   -50168   -53054   -29815   -24426 
  -32221   -23694   -20467   -37582   -47935   -43802   -29486      926 
   25609    17813    -5443   -21414   -38464   -59708   -64264   -47894 
  -33875   -27953   -19623   -20950   -30165   -11100    28645    43247 
   32305    11351   -23274   -49513   -45925   -35134   -33721   -34754 
  -45916   -72487   -88937   -73178   -38751    -7050    13801    20152 
   22218    34566    51497    63644    66426    47018     7632   -19005 
  -18506   -15831   -21613   -27579   -41160   -58601   -62822   -56339 
  -41013   -21952   -24248   -44287   -51441   -44615   -33443    -8939 
   21481    31298    21449    11789     1023   -16934   -35568   -57817 
  -85917  -106449  -117259  -121180  -107663   -84383   -71568   -60710 
  -45192   -44870   -54528   -47036   -25779    -8660    -4556   -16772 
  -33087   -43712   -53757   -56404   -46862   -41599   -44207   -41939 
  -33908   -21270    -3347     9702    15988    23039    25095    16469 
   -1646   -29146   -54628   -65306   -62839   -49494   -29400   -15370 
  -11424   -13758   -23448   -29586   -15915     3167     3998   -11099 
  -32678   -51316   -51956   -34619   -14256    -2289    -7666   -35877 
  -75128  -102747  -110230   -97838   -64154   -24951    -1089     9873 
   16512    16357    11250    10415    10954     -171   -23433   -44437 
  -48923   -34056    -9017    13503    24581    20008      296   -23540 
  -34349   -29183   -20350   -13080    -2268    10748    18515    17588 
    9835     1187    -8487   -24628   -35497   -24449    -5127      987 
    3035     9806     3824   -13885   -19141   -14087   -10827    -4024 
   -2135   -16327   -28732   -30408   -34536   -35038   -19862    -4043 
   -5537   -21259   -37675   -42973   -32520   -10409    11720    16627 
   -6264   -43303   -66226   -64849   -52238   -40990   -36607   -44217 
  -59415   -70257   -75240   -73540   -61212   -50503   -50646   -51079 
  -50623   -54983   -53475   -41319   -32232   -33613   -42164   -51886 
  -52050   -40559   -27928   -16975    -9677   -16691   -31641   -36897 
  -34338   -29193   -16640    -3957     -766     1856     9525    17990 
   27645    26131      547   -30532   -51607   -65222   -62534   -44291 
  -28322   -18601   -18777   -37017   -56060   -54839   -42795   -34103 
  -29902   -33588   -44268   -53017   -55828   -52891   -45920   -36086 
