Origin Time       2016/04/14 22:07:00
Lat.              32.775
Long.             130.848
Depth. (km)       8
Mag.              5.8
Station Code      KMMH16
Station Lat.      32.7967
Station Long.     130.8199
Station Height(m) -197
Record Time       2016/04/14 22:05:02
Sampling Freq(Hz) 100Hz
Duration Time(s)  300
Dir.              1
Scale Factor      2940(gal)/6170270
Max. Acc. (gal)   168.409
Last Correction   2016/04/14 22:04:47
Memo.             
[...]
   53482    53125    53142    53302    53259    53304    53439    53419 
   53297    53210    53209    53267    53342    53371    53391    53458 
   53372    53227    53261    53227    53170    53304    53374    53324 
   53285    53263    53334    53407    53392    53401    53418    53402 
   53407    53395    53314    53287    53329    53261    53187    53291 
   53374    53286    53256    53360    53358    53315    53362    53326 
   53284    53311    53278    53316    53397    53350    53347    53404 
   53366    53315    53284    53283    53374    53411    53359    53355 
   53315    53304    53462    53551    53510    53515    53515    53489 
   53473    53449    53472    53559    53588    53475    53351    53314 
   53308    53361    53469    53545    53562    53515    53437    53395 
   53461    53598    53630    53605    53631    53581    53471    53445 
   53428    53310    53210    53287    53443    53495    53424    53289 
   53237    53342    53444    53476    53459    53368    53330    53388 
   53377    53313    53329    53416    53464    53368    53210    53165 
   53212    53273    53334    53347    53321    53338    53359    53321 
   53322    53421    53521    53554    53524    53452    53396    53392 
   53410    53446    53483    53494    53533    53583    53545    53468 
   53455    53459    53406    53361    53374    53380    53407    53456 
   53403    53324    53341    53362    53363    53401    53414    53386 
   53412    53475    53497    53490    53469    53407    53337    53338 
   53368    53374    53432    53503    53483    53433    53406    53378 
   53372    53388    53403    53406    53389    53342    53277    53261 
   53296    53304    53269    53225    53200    53204    53239    53295 
   53320    53314    53307    53268    53231    53230    53189    53127 
   53139    53206    53265    53298    53311    53315    53322    53303 
   53269    53276    53308    53312    53296    53296    53306    53310 
   53328    53360    53392    53423    53422    53393    53395    53402 
   53378    53356    53331    53317    53351    53390    53409    53410 
   53388    53389    53406    53395    53396    53429    53432    53387 
   53326    53281    53267    53273    53316    53375    53391    53391 
   53395    53378    53376    53411    53437    53444    53454    53458 
   53441    53412    53403    53428    53454    53486    53515    53506 
   53476    53410    53333    53406    53559    53518    53415    53435 
   53435    53436    53447    53405    53515    53610    53443    53290 
   53284    53453    53602    53380    53269    53476    53500    53523 
   53598    53428    53406    53501    53287    53199    53396    53398 
   53341    53409    53407    53396    53387    53334    53392    53491 
   53523    53528    53433    53319    53317    53318    53292    53316 
   53378    53412    53382    53350    53375    53380    53356    53416 
   53450    53354    53330    53367    53308    53283    53312    53316 
   53334    53289    53230    53374    53534    53469    53389    53357 
   53265    53273    53347    53325    53365    53459    53404    53345 
   53417    53455    53426    53413    53367    53332    53408    53453 
   53420    53478    53481    53357    53381    53437    53359    53384 
   53474    53457    53427    53398    53370    53376    53350    53328 
   53376    53419    53431    53426    53395    53386    53375    53316 
   53300    53323    53289    53253    53265    53293    53342    53378 
   53381    53388    53367    53330    53334    53339    53332    53356 
   53339    53266    53243    53260    53266    53299    53351    53376 
   53333    53288    53345    53373    53296    53316    53441    53466 
   53421    53427    53404    53308    53303    53386    53363    53338 
   53445    53473    53403    53426    53477    53458    53445    53479 
   53478    53422    53407    53410    53384    53404    53402    53310 
   53322    53446    53440    53379    53450    53505    53444    53391 
   53369    53342    53371    53465    53524    53503    53475    53457 
   53386    53325    53382    53458    53419    53321    53215    53127 
   53190    53330    53389    53484    53617    53678    53666    53526 
   53357    53296    53235    53220    53347    53455    53492    53461 
   53310    53236    53405    53595    53572    53407    53210    52990 
   52828    52820    52997    53327    53715    54031    54105    53860 
   53403    52892    52566    52684    53126    53542    53814    53901 
   53739    53452    53186    53029    53090    53244    53310    53363 
   53421    53436    53462    53425    53318    53315    53348    53364 
   53510    53623    53520    53371    53280    53207    53197    53252 
   53292    53337    53411    53447    53422    53349    53288    53312 
   53369    53401    53399    53372    53374    53426    53447    53418 
   53460    53541    53505    53407    53359    53385    53507    53570 
   53443    53306    53260    53244    53304    53405    53435    53467 
   53564    53589    53515    53453    53361    53304    53444    53590 
   53524    53418    53428    53468    53534    53637    53568    53384 
   53325    53274    53251    53366    53339    53183    53267    53501 
   53521    53376    53429    53617    53570    53391    53306    53322 
   53449    53506    53385    53322    53397    53475    53489    53433 
   53345    53300    53350    53453    53500    53454    53385    53386 
   53403    53316    53268    53338    53344    53323    53324    53254 
   53290    53514    53624    53564    53578    53605    53522    53524 
   53552    53398    53248    53218    53108    52977    53050    53203 
   53326    53469    53467    53358    53358    53338    53282    53323 
   53349    53385    53437    53356    53380    53517    53352    53145 
   53233    53241    53158    53266    53326    53160    53017    53055 
   53085    53145    53445    53677    53629    53558    53468    53332 
   53319    53325    53289    53311    53272    53136    53064    53115 
   53271    53423    53425    53415    53436    53268    53148    53249 
   53220    53146    53264    53328    53327    53443    53419    53253 
   53382    53561    53403    53284    53319    53288    53310    53387 
   53418    53448    53475    53473    53481    53512    53493    53422 
   53373    53344    53338    53389    53471    53528    53510    53458 
   53577    53838    53830    53533    53309    53239    53352    53554 
   53535    53399    53425    53583    53696    53597    53435    53452 
   53469    53395    53427    53449    53295    53299    53513    53427 
   53173    53225    53287    53137    53048    53023    53068    53235 
   53258    53150    53148    53205    53352    53416    53106    52866 
   52906    52891    53065    53465    53706    54004    54455    54633 
   54493    54395    54373    54051    53409    52988    53042    53203 
   53200    53181    53235    53302    53476    53711    53700    53644 
   53869    54003    53881    53771    53636    53429    53134    52777 
   52662    52676    52587    52697    53047    53429    53741    53787 
   53652    53573    53488    53270    52937    52759    52808    52747 
   52568    52569    52833    53325    53899    54332    54558    54546 
   54252    53910    53657    53268    52833    52660    52624    52528 
   52562    52878    53322    53776    54079    54043    53794    53485 
   53204    53112    53089    53034    53139    53231    53091    53063 
   53353    53733    53940    53817    53554    53424    53316    53179 
   53193    53248    53177    53124    53149    53194    53192    53083 
   53072    53212    53262    53337    53651    53948    53942    53818 
   53797    53812    53877    53971    53851    53528    53232    53048 
   53019    53145    53255    53220    53153    53112    53005    52975 
   53188    53395    53504    53821    54239    54368    54219    53990 
   53762    53480    53157    52973    52919    52879    52812    52692 
   52743    53069    53323    53372    53380    53467    53693    53876 
   53827    53559    53226    53071    52991    52896    52970    53080 
   53238    53599    53889    54025    54056    53839    53545    53400 
   53241    53057    53076    53215    53373    53619    53796    53764 
   53598    53349    53093    52887    52697    52662    52762    52757 
   52862    53238    53537    53640    53618    53676    53970    53907 
   53416    53331    53472    53336    53295    53252    52934    52875 
   53119    53217    53277    53340    53264    53220    53177    53107 
   53204    53248    53167    53167    53120    53124    53324    53424 
   53402    53453    53426    53198    53005    53032    53140    53159 
   53167    53345    53614    53727    53675    53699    53851    53853 
   53719    53649    53505    53404    53442    53305    53193    53335 
   53455    53542    53621    53625    53693    53722    53563    53455 
   53493    53485    53425    53402    53403    53391    53358    53381 
   53408    53378    53443    53476    53406    53543    53736    53783 
   53874    53864    53664    53509    53401    53329    53300    53245 
   53292    53451    53522    53484    53424    53335    53163    52990 
   53009    53187    53238    53199    53283    53321    53286    53341 
   53318    53247    53341    53453    53497    53555    53590    53566 
   53498    53412    53413    53486    53534    53592    53522    53314 
   53268    53267    53227    53364    53449    53395    53517    53648 
   53563    53533    53592    53568    53538    53414    53220    53275 
   53454    53513    53569    53547    53291    53039    53014    53142 
   53345    53547    53620    53602    53592    53521    53430    53518 
   53640    53492    53260    53224    53294    53407    53549    53571 
   53450    53349    53350    53349    53229    53099    53137    53203 
   53163    53163    53192    53228    53375    53406    53221    53154 
   53226    53176    53043    53027    53159    53288    53323    53327 
   53350    53402    53462    53459    53428    53432    53375    53318 
   53419    53450    53325    53347    53463    53435    53326    53252 
   53291    53357    53265    53166    53244    53362    53438    53471 
   53293    52954    52850    53103    53516    53740    53422    52983 
   53080    53368    53354    53146    53097    53493    53786    53445 
   53230    53495    53652    53694    53670    53354    52934    52892 
   53391    53635    53187    52909    53027    53280    53878    54211 
   53704    53112    53086    53314    53289    53155    53234    53427 
   53615    53625    53422    53241    53339    53742    53600    52817 
   52737    53196    53453    54044    54294    53630    53513    53733 
   53273    52925    52584    52279    53022    53732    53537    53417 
   53503    53466    53419    53166    52864    53704    55248    55077 
   53064    51138    51439    54033    55467    54946    54030    53097 
   52159    51074    52426    54490    53126    52688    53578    52611 
   52997    55486    56002    51994    50524    54347    52352    49860 
   55791    57444    53197    52804    53149    51185    50333    52095 
   55145    56750    55958    54359    51820    50162    52933    55766 
   55427    55145    52827    48667    47867    49583    54451    60054 
   57013    50746    50665    51106    51591    56579    56572    48763 
   49294    59010    59497    52068    50767    51232    49174    50673 
   53162    54266    56488    56270    55431    59843    58002    43895 
   41718    55018    56876    54812    61638    52181    35440    46580 
   59464    50632    53080    65049    60100    50552    47141    47124 
   52091    60279    61198    47634    39361    52140    64953    54304 
   37800    50794    68336    52517    41939    54550    51385    47519 
   64940    64810    48528    56028    64200    44837    26617    28502 
   40430    56700    73304    73377    43297     7455    11439    53070 
   76766    69721    69220    74015    64121    49602    46355    43762 
   33495    39523    58900    66546    64158    52338    44044    52831 
   47352    31445    44971    55417    39075    33794    41223    50103 
   52852    46423    61993    82234    69834    52822    61483    82776 
   82415    55422    29487    37235    79735    83087    41839    37455 
   26852   -32991   -42739    25998    77442    72836    71293    86238 
   69890    52750    68650    79355    99177   135789   130039    88709 
   54759    28427    -3322   -41768   -44727     1453    33514    31252 
   26636    24715    18935     6145     1099    36173   103891   155875 
  162477   153812   165887   169460   148154   130759   102302    42794 
  -11513   -48520   -76602   -69586   -55848   -73042   -57167    18910 
  104453   169089   174119   129194   107595    79616    12210    23266 
  112179   119050    65340    43715    28791    29801    58929    83197 
  101708   113185   115351    98582    54565    28281    18988   -14543 
  -28011     7768    42267    54803    54924    52587    69746    98448 
  124851   152643   161245   152874   143370   108387    52711     3730 
  -48464   -80105   -39822    20845    30002    33079    58196    73534 
  102597   155417   189095   198503   197209   162116    79728   -27340 
 -143681  -239352  -262897  -216135  -138662   -41168    80082   196647 
  258353   262885   254397   246982   239953   243875   244614   244484 
  241186   181717    79326   -18237  -116875  -189012  -233429  -289239 
 -300070  -227606  -126128   -14041   105207   184869   198136   171796 
  122727    52531    18304    55048   107061   133801   133845   100937 
   53447    24180    15116     4696   -19633   -49559   -72059   -77357 
  -65574   -45714   -10512    43449    97654   144025   172490   160386 
  117450    82720    74956    89391   121939   158142   176730   179308 
  165988   123114    67709    28440    -5483   -43924   -61753   -50288 
  -24010    18090    72958   117709   138089   133734   110608    81699 
   50800    19221    -2199   -17502   -28995   -25847   -14562     8752 
   50284    78484    85454    97684   111695   107595    78635    32392 
   -8881   -29328   -28285    -4409    34232    65118    88191   118263 
  136630   122645    91729    56570    31637    37121    50998    55265 
   65022    71023    67185    67615    68463    68066    70641    72124 
   74347    76279    68745    50766    27155     1862   -17558   -25442 
  -19758        8    19968    27882    33280    39951    41434    38627 
   32145    28542    37148    48415    51964    53011    52023    43788 
   37038    42950    54251    61934    67371    64459    48625    35930 
   35734    37876    41810    52734    62635    64372    66120    76006 
   81846    76718    78710    89871    91514    85364    84251    84291 
   77996    70090    64872    57948    47098    39900    39584    35021 
   25941    27601    39961    49691    56424    68194    77188    72949 
   67187    66623    62744    59609    55894    42029    31442    33743 
   38830    45879    53754    56169    59761    63732    60579    59372 
   57944    47711    44432    50092    51126    57479    74317    88402 
   95572    97813    94262    84982    76648    74036    68556    58493 
   51521    47018    46134    49674    52311    54428    55447    51803 
   47057    41734    33873    30593    32173    33014    37439    45657 
   53291    59324    62243    68141    80566    86776    78180    63954 
   55665    52650    49562    46418    44744    45130    46537    45384 
   42044    42349    44173    41885    43173    49674    51351    52544 
   56348    52895    45235    41751    40214    41212    48529    58094 
   64660    69309    70176    64243    57437    53693    51051    51072 
   53911    54598    52413    50314    46039    41340    42846    45167 
   43624    45196    49996    53560    56338    58396    59531    58274 
   53623    47140    40746    38502    40417    43085    48536    54574 
   55275    56430    61716    61858    57252    55150    50751    43520 
   41137    41346    40280    39601    38634    37707    38436    39618 
   38469    34592    35532    44952    53779    56544    54831    51676 
   51338    51826    51669    54789    58534    60724    62049    57259 
   50145    49651    50093    48216    50439    55945    61539    66638 
   68689    67454    64074    59308    56318    54909    52668    52892 
   57771    62472    63559    63323    62806    62048    63506    65696 
   65777    63981    60345    54543    44672    35342    36514    43309 
   47206    53848    62343    62448    57634    54804    50731    46346 
   46221    48957    52319    54032    52541    53365    58275    59721 
   58043    58670    62712    69247    70414    64237    59777    57335 
   53671    51843    52583    53398    55022    59006    60069    56009 
   55527    59311    59031    56062    53700    48940    45016    47639 
   52817    56153    60167    65983    70581    71493    68688    63186 
   56803    51150    46114    43150    43162    44513    49264    57722 
   62141    59618    57775    59598    59988    58863    60422    64791 
   68637    69529    68321    65426    60263    55211    51817    49064 
   47721    48510    50671    53585    55001    54872    55252    53927 
   51303    49866    46742    41819    39488    41884    47272    51747 
   51689    47025    44567    44965    39961    33038    29626    25700 
   23736    25193    25109    26431    31379    35094    37886    42348 
   45472    44924    43278    44399    47758    47606    44729    45288 
   47185    48574    50302    50177    52929    59598    62620    64084 
   66121    64990    63539    62613    59278    57480    60250    65341 
   70614    73573    74575    74606    71068    66502    64253    60342 
   55838    56164    59341    62161    63559    61285    56331    52439 
   50064    48569    49567    52645    55898    59365    60981    57991 
   52529    47712    43987    41539    41355    45261    51934    54624 
   52322    51511    52446    51788    52412    56128    57880    56088 
   56079    57821    57726    57678    56605    52531    50047    49561 
   48751    49568    51182    51233    50173    48718    48655    50675 
   52681    55246    57933    56600    51972    47263    44360    45830 
   48636    48993    50497    52193    49373    45907    45522    47503 
   52861    58525    58943    56358    56732    60243    62292    61756 
   60937    58642    55469    55885    56937    54562    52118    49678 
   45977    45096    48138    53043    59165    63981    65456    64318 
   60498    56061    53273    49671    46378    46380    47139    49017 
   53225    55501    55076    55140    56035    56565    55371    51213 
   45996    43126    43338    46095    48612    48297    49285    54295 
   59012    60434    59636    58628    57651    56435    56649    57162 
   54014    48936    47844    50337    51411    52021    54733    56019 
   55668    58528    62217    61461    58248    55597    53202    51961 
   52033    51504    51067    51380    52179    54666    55695    53255 
   52929    55926    58639    60048    58498    54518    52036    51771 
   53100    54937    53556    49965    49142    50140    51547    54747 
   55856    53477    52828    53262    52803    54420    55824    53859 
   52925    54955    56447    55127    51347    48965    49657    49138 
