Origin Time       2016/04/16 01:25:00
Lat.              32.753
Long.             130.762
Depth. (km)       12
Mag.              7.3
Station Code      KMMH16
Station Lat.      32.7967
Station Long.     130.8199
Station Height(m) 55
Record Time       2016/04/16 01:25:08
Sampling Freq(Hz) 100Hz
Duration Time(s)  300
Dir.              5
Scale Factor      3920(gal)/6170801
Max. Acc. (gal)   1156.946
Last Correction   2016/04/16 01:24:53
Memo.             
[...]
    1514     1442     1387     1321     1249     1212     1223     1260 
    1311     1370     1416     1436     1455     1490     1514     1498 
    1471     1460     1430     1385     1388     1459     1541     1584 
    1579     1530     1433     1310     1214     1184     1216     1302 
    1422     1529     1595     1623     1616     1573     1512     1455 
    1419     1399     1380     1377     1403     1433     1453     1481 
    1509     1511     1486     1439     1381     1328     1293     1290 
    1327     1392     1459     1496     1500     1480     1432     1379 
    1354     1370     1413     1453     1478     1496     1500     1487 
    1476     1478     1475     1453     1437     1443     1442     1426 
    1415     1419     1423     1417     1403     1389     1384     1393 
    1411     1437     1465     1490     1501     1483     1450     1434 
    1432     1427     1422     1427     1432     1415     1379     1354 
    1349     1359     1383     1424     1470     1511     1536     1540 
    1533     1525     1511     1492     1467     1435     1416     1399 
    1370     1349     1351     1365     1373     1367     1362     1367 
    1369     1385     1430     1477     1505     1531     1555     1548 
    1523     1501     1462     1405     1364     1356     1373     1386 
    1390     1416     1458     1484     1496     1501     1489     1470 
    1452     1419     1375     1351     1352     1351     1347     1368 
    1405     1426     1422     1421     1431     1442     1464     1495 
    1513     1522     1531     1527     1510     1490     1470     1454 
    1426     1379     1338     1317     1306     1313     1346     1398 
    1458     1505     1525     1528     1522     1501     1467     1432 
    1412     1412     1420     1417     1414     1418     1424     1427 
    1417     1397     1392     1401     1408     1414     1426     1446 
    1470     1480     1468     1454     1444     1422     1403     1399 
    1405     1417     1424     1426     1431     1427     1420     1424 
    1434     1444     1460     1473     1481     1487     1486     1481 
    1476     1462     1450     1445     1431     1413     1404     1395 
    1385     1388     1396     1395     1390     1385     1385     1392 
    1407     1431     1456     1472     1486     1499     1498     1487 
    1483     1477     1452     1426     1416     1408     1407     1422 
    1430     1434     1440     1437     1437     1452     1457     1452 
    1452     1449     1442     1444     1448     1449     1445     1423 
    1395     1377     1370     1368     1372     1386     1411     1430 
    1438     1452     1469     1474     1473     1473     1473     1480 
    1478     1458     1445     1444     1433     1417     1406     1395 
    1393     1402     1417     1430     1431     1428     1439     1448 
    1449     1462     1474     1471     1469     1471     1464     1446 
    1427     1416     1411     1409     1415     1424     1427     1422 
    1417     1415     1412     1418     1436     1451     1462     1470 
    1474     1478     1474     1459     1448     1437     1417     1400 
    1400     1409     1422     1435     1446     1455     1460     1456 
    1443     1422     1406     1402     1396     1396     1418     1441 
    1439     1424     1418     1418     1424     1428     1440     1467 
    1485     1478     1468     1461     1449     1435     1427     1429 
    1437     1446     1455     1466     1464     1449     1443     1438 
    1420     1410     1416     1415     1409     1407     1402     1394 
    1386     1386     1399     1420     1438     1451     1460     1465 
    1468     1471     1475     1479     1476     1469     1461     1449 
    1437     1433     1427     1411     1405     1407     1405     1406 
    1407     1404     1413     1434     1447     1457     1472     1480 
    1474     1457     1444     1441     1432     1416     1413     1419 
    1424     1427     1425     1417     1416     1420     1430     1450 
    1464     1464     1461     1461     1452     1437     1430     1435 
    1431     1411     1395     1392     1394     1398     1411     1427 
    1434     1437     1446     1455     1464     1479     1492     1499 
    1492     1475     1461     1445     1418     1395     1385     1382 
    1385     1401     1420     1434     1447     1453     1453     1450 
    1437     1429     1432     1432     1424     1416     1423     1439 
    1445     1448     1457     1460     1454     1442     1429     1419 
    1423     1436     1447     1454     1453     1445     1431     1409 
    1398     1397     1395     1400     1415     1429     1439     1449 
    1459     1464     1467     1470     1462     1453     1453     1448 
    1432     1419     1419     1422     1423     1423     1423     1420 
    1422     1430     1434     1436     1445     1450     1448     1438 
    1422     1410     1405     1395     1394     1415     1438     1450 
    1461     1474     1471     1455     1446     1447     1443     1433 
    1429     1428     1420     1418     1433     1447     1445     1439 
    1430     1421     1414     1408     1409     1428     1449     1457 
    1458     1454     1440     1425     1415     1415     1423     1433 
    1446     1459     1462     1453     1446     1435     1422     1417 
    1420     1425     1429     1428     1426     1429     1430     1433 
    1440     1437     1435     1442     1441     1432     1430     1433 
    1440     1443     1438     1439     1443     1435     1424     1420 
    1422     1426     1430     1431     1435     1441     1438     1435 
    1434     1431     1433     1440     1441     1438     1440     1435 
    1424     1423     1427     1428     1427     1431     1435     1433 
    1428     1430     1438     1440     1442     1452     1455     1442 
    1427     1420     1422     1428     1431     1437     1448     1450 
    1440     1436     1433     1425     1420     1419     1429     1438 
    1438     1435     1430     1417     1410     1411     1411     1416 
    1428     1434     1444     1462     1469     1466     1463     1455 
    1449     1445     1431     1420     1426     1432     1427     1428 
    1433     1434     1433     1431     1430     1431     1428     1421 
    1423     1424     1420     1420     1421     1426     1441     1448 
    1448     1451     1452     1447     1442     1440     1442     1445 
    1436     1429     1432     1432     1436     1446     1444     1441 
    1439     1427     1422     1427     1421     1411     1414     1421 
    1422     1422     1420     1424     1435     1437     1433     1442 
    1452     1453     1454     1455     1452     1449     1447     1443 
    1443     1443     1440     1437     1433     1431     1427     1422 
    1427     1433     1426     1418     1417     1415     1417     1425 
    1426     1429     1438     1439     1431     1427     1429     1432 
    1433     1433     1442     1460     1467     1470     1480     1477 
    1458     1449     1443     1429     1421     1417     1413     1416 
    1419     1417     1421     1426     1429     1438     1438     1425 
    1419     1423     1430     1436     1440     1448     1455     1450 
    1443     1439     1428     1421     1426     1432     1434     1438 
    1439     1436     1435     1433     1436     1447     1452     1453 
    1461     1458     1442     1433     1427     1420     1416     1407 
    1402     1413     1425     1434     1445     1452     1456     1458 
    1447     1433     1427     1428     1433     1437     1437     1440 
    1444     1440     1442     1447     1439     1428     1424     1417 
    1410     1409     1411     1415     1422     1435     1452     1460 
    1458     1456     1453     1447     1443     1446     1446     1437 
    1430     1429     1423     1419     1427     1436     1439     1443 
    1444     1441     1431     1422     1425     1431     1430     1429 
    1430     1427     1415     1412     1425     1435     1437     1444 
    1450     1449     1449     1444     1434     1429     1431     1430 
    1434     1447     1448     1441     1436     1425     1419     1427 
    1426     1422     1427     1434     1440     1445     1445     1445 
    1444     1439     1436     1431     1423     1421     1426     1425 
    1423     1428     1435     1438     1438     1436     1436     1440 
    1438     1433     1435     1441     1444     1439     1434     1433 
    1435     1429     1415     1411     1416     1416     1412     1414 
    1425     1428     1403     1374     1385     1453     1478     1358 
    1249     1299     1290     1170     1265     1499     1508     1335 
    1086      829      928     1429     1762     1605     1374     1545 
    1572      760      250      946     1077     -249     -450     2219 
    4503     3136     1726     4198     6447     3914      183      810 
    3244      788    -4530    -5311    -3112    -3948    -4673       62 
    6164     8765     8393     2868    -7912   -12704    -4205     6164 
    6556     5192    12806    18013     6898    -7804    -7979    -1055 
   -1623    -5392    -2342     4683     7389     5602     5501    10691 
   18544    20080     8126   -10684   -22007   -20864   -12440    -2231 
    3885      759    -6429    -6874    -1152      731    -2598    -3293 
    2040     8598     9292     4405     1712     1880    -1188    -2351 
    7533    18867    14991     -566    -8422    -2815      347    -5037 
   -4028     5258     6078    -1349     2320    17374    19580     2774 
  -10667   -10196    -8597   -13494   -17791   -15597   -12033   -13462 
  -11152     8217    32410    35051    18047     6467     6669     5035 
   -2073    -9673   -18287   -27042   -31540   -29035   -19008    -7907 
   -5061    -6773     -368    12697    16325     6499      395     8607 
   16418    10630     2411     1782     -977   -10960   -17721   -13533 
    -178    13063    13803     3191     -569    13667    30815    28314 
   12841    11368    25331    31066    19848     6175     2479    -1802 
  -24376   -55538   -71773   -74802   -80261   -84419   -75106   -57151 
  -39410   -20269    -1839    10342    23102    44048    66362    82959 
   93167    93617    83626    69472    56125    40906    14425   -22973 
  -49705   -50056   -40106   -41971   -54323   -67918   -82922   -95339 
  -88119   -55953   -24301   -17482   -18005     9237    52970    70883 
   68087    79634   101090   112849   118804   125955   133198   123560 
   71687    -5772   -68276  -117377  -160775  -173530  -158605  -145560 
 -127801   -95261   -58826    -6774    69951   145449   195984   218638 
  225412   229656   227142   208982   178767   142789   100595    51399 
    3750   -32374   -63917  -109838  -174242  -232286  -252940  -237544 
 -216385  -205042  -184000  -127966   -50351    16283    73875   129714 
  165310   172267   160342   144555   132645   116905    93018    58778 
   13620   -32622   -82098  -141182  -191406  -202782  -161947   -93061 
  -39760    -5686    43656   114802   180711   229971   271641   306258 
  323510   316861   287405   244290   193500   128635    54962    -6903 
  -49122   -76683   -95384  -102399   -89004   -72177   -76803   -87257 
  -91466  -118763  -178465  -236477  -259986  -250318  -232647  -204685 
 -143039   -68560   -18048    28173   104150   194415   270808   328324 
  361949   365776   351165   324944   272476   191572   104331    20920 
  -66973  -162627  -257055  -334275  -389530  -434599  -465133  -456525 
 -401503  -305736  -170248   -20648   102053   191297   258216   307331 
  354759   407493   444403   452321   436293   395507   323942   220786 
   96310   -29115  -144014  -240515  -299003  -317265  -326789  -343672 
 -327584  -254505  -185539  -157118  -104335     8040   111132   154344 
  173282   202299   231154   233545   187623   113852    58077    15641 
  -49256  -133557  -205468  -231015  -199745  -166254  -176115  -178990 
 -133750   -92975   -93871   -86465   -34495    10718     3694   -22567 
  -31093   -30101   -31128   -29402   -23018   -30506   -77643  -151839 
 -195684  -168141   -92116   -22732    11961    19020    10138    -9675 
  -24311   -17758    -8889   -27499   -62750   -79717   -74813   -72090 
  -76994   -74252   -65396   -70138   -87603   -98212  -102854  -125683 
 -178831  -238253  -269841  -278061  -301004  -348170  -377285  -359159 
 -324897  -313737  -312348  -280492  -217054  -168104  -162577  -165349 
 -129403   -78886   -68010   -73873   -38915    24321    75584   117120 
  168247   226726   269115   290288   315633   350050   371001   369166 
  346012   317951   321050   350938   369385   376679   392706   427325 
  480499   530407   565580   594570   616508   628106   628454   621064 
  603413   541985   431885   336987   290629   256368   210883   159221 
   91784    15962   -15054     9974    28431    16938     5913      941 
   10896    66363   160882   256023   321092   344926   339665   316293 
  276885   233059   182637   114593    43274   -30324  -126927  -237137 
 -346861  -465192  -576128  -647913  -688099  -708088  -703540  -712388 
 -772357  -842519  -871406  -876881  -890993  -891386  -833862  -715230 
 -591031  -541335  -600754  -706575  -740454  -673006  -600509  -576878 
 -567253  -584836  -689525  -875133 -1054844 -1143656 -1137096 -1064325 
 -906122  -690244  -538083  -471608  -396009  -281059  -131787    23543 
   68781    13498    61921   242671   344784   355018   460286   647054 
  817470   973294  1052154  1034643  1038598  1098596  1193990  1365178 
 1580115  1744125  1820806  1780553  1585622  1267849   948408   758930 
  694776   644383   578365   512937   420020   338926   345573   402595 
  429225   426766   435241   456035   473191   490447   505997   495145 
  460383   454511   498387   523332   483509   441481   444088   479299 
  540672   583497   567840   535949   534750   564163   594095   582275 
  508843   393709   277519   179170    80919   -30726  -153404  -294158 
 -458393  -631264  -783306  -882080  -923618  -960599 -1030862 -1089550 
-1096259 -1076562 -1059668 -1004180  -835741  -613027  -482245  -469789 
 -529982  -614919  -637907  -568730  -444375  -293844  -181649  -127357 
  -58733    14234    31052    17541    25095    62516    85234    49093 
  -19112   -79174  -130493  -173213  -192113  -172293  -109006   -18748 
   70284   152137   235509   308711   345669   343793   339960   366908 
  419753   483188   554546   632906   703490   744018   746606   732939 
  736010   767394   823149   898714   983371  1049491  1050385   956442 
  798406   643345   521780   418455   322908   220558    80581   -93523 
 -268155  -427897  -560516  -638365  -668740  -711849  -796280  -879637 
 -924458  -949618  -974186  -961339  -900602  -855172  -837670  -809710 
 -798003  -843750  -907931  -874945  -701246  -535159  -479484  -450638 
 -395977  -326279  -218783   -71623    52193   115088   156904   178763 
  160647   146015   150642   154612   161282   178331   210583   254966 
  296015   324954   353938   393215   426932   443773   440122   385851 
  251593    52863  -154842  -332478  -496783  -654119  -760877  -809887 
 -839501  -840800  -786071  -691259  -569561  -425601  -292764  -190749 
  -98014    -1169    90086   172624   248147   311978   361811   405464 
  457435   518099   576120   646126   745727   844773   906531   935159 
  942834   934779   925986   921299   896469   805285   612815   332514 
   -1734  -350774  -631056  -780492  -851517  -915546  -962145  -964441 
 -919057  -827566  -701852  -565845  -484871  -514310  -584093  -605807 
 -608772  -618236  -588282  -510749  -420684  -331949  -245711  -169627 
 -109242   -42514    39887    80795    67092    65319    82318    86711 
   83511    69770    47285    38455    36820    23437     1689   -27302 
  -58870   -70951   -56354   -26742    12715    66227   134318   213408 
  297283   371899   438531   512899   592299   669037   731277   764458 
  773138   754934   718518   688605   642572   547811   413870   255782 
   84310   -88909  -265769  -445580  -615966  -762468  -871133  -946736 
 -994774  -997236  -960817  -917645  -879219  -849011  -808521  -716513 
 -589647  -480428  -392553  -313877  -231380  -132941   -47647    28945 
  130490   224231   285951   321834   311934   270504   247347   264788 
  325398   410640   470011   479307   459979   422006   375204   334835 
  285802   220337   134065    16675   -96601  -168101  -194860  -182925 
 -150526  -110769   -68278   -28704    21609    95385   175500   237752 
  280329   322238   366719   393262   400680   395462   363501   315802 
  286132   269241   244636   228902   238184   251480   258998   273314 
  284304   275836   254352   230020   202450   169943   133853    86035 
   20609   -53300  -133454  -218072  -294853  -357931  -405243  -439803 
 -471671  -499554  -517396  -529369  -534334  -521617  -497376  -484534 
 -489741  -493701  -470860  -415049  -344717  -276731  -218909  -181790 
 -170323  -182709  -209738  -229519  -232074  -227836  -219661  -197518 
 -162678  -131699  -111870  -100731  -100707  -107159  -107036   -98279 
  -91313   -96979  -114298  -128460  -128573  -116845   -98748   -76749 
  -51831   -27856    -7106    13648    32305    46320    65380    93205 
  119422   145230   181787   226585   269767   307660   342167   377460 
  413126   445441   481098   526066   561405   570033   560149   535120 
  494734   451967   408579   348611   265764   177837    99412    18487 
  -70147  -151866  -225781  -302218  -378274  -438152  -464520  -452928 
 -418106  -377122  -332933  -283138  -231943  -187475  -160236  -154182 
 -153218  -141712  -126146  -113525   -98259   -79199   -59769   -36713 
   -7328    22569    45121    59517    72972    90894   112107   137373 
  169448   202143   221340   222501   218049   218604   219854   213464 
  199496   185510   172813   153457   125562    93246    57504    22705 
    -453    -3591    12235    36459    62555    97713   141805   175142 
  189690   196981   198750   191079   174401   143118   100243    63587 
   39770    21276     6723      636     -506    -4084    -9788   -14165 
  -16470   -14288    -5202     6526    14801    18750    19873    18194 
   15184    15223    16203     9797    -3582   -16939   -30245   -50845 
  -83159  -121750  -158474  -190734  -218019  -236348  -238266  -218732 
 -181496  -137969   -97353   -60181   -27208    -2600    15996    32387 
   44801    53654    61435    68609    77673    91569   106731   117234 
  123128   122667   104845    64469    10714   -45318   -95071  -133889 
 -162799  -179873  -183364  -175685  -157131  -131278  -103471   -74022 
  -45687   -21408     3167    32043    63144    92107   116121   135966 
  153529   166619   170440   163202   147742   127940   106180    88560 
   80796    76315    68725    60754    49326    31232    11349    -9312 
  -30102   -44732   -50404   -51831   -56654   -67615   -79372   -85128 
  -84510   -80403   -70672   -55659   -45261   -47714   -63876   -89664 
 -117702  -142782  -162167  -170314  -162258  -143109  -126069  -117712 
 -109012   -88837   -63613   -47624   -41912   -38427   -32822   -24976 
  -17437   -14432   -15878   -16618   -12860    -6878    -7367   -20720 
  -43567   -70587  -101832  -135430  -162900  -179705  -189119  -194563 
 -201266  -215220  -234057  -249462  -254840  -250605  -245404  -244001 
 -234915  -202014  -151160  -105716   -69843   -28432    19882    65102 
