Origin Time       2016/04/14 22:07:00
Lat.              32.775
Long.             130.848
Depth. (km)       8
Mag.              5.8
Station Code      KMMH16
Station Lat.      32.7967
Station Long.     130.8199
Station Height(m) 55
Record Time       2016/04/14 22:05:02
Sampling Freq(Hz) 100Hz
Duration Time(s)  300
Dir.              6
Scale Factor      3920(gal)/6170801
Max. Acc. (gal)   517.540
Last Correction   2016/04/14 22:04:47
Memo.             
[...]
   16822    16593    16562    17134    17377    16919    16660    16953 
   17111    16690    16164    16271    16843    16901    16328    16075 
   16497    17085    17470    17596    17603    17701    17682    17198 
   16551    16335    16469    16302    15800    15675    16095    16507 
   16481    16227    16468    17075    16955    16167    15901    16356 
   16840    17075    17244    17401    17216    16633    16212    16248 
   16461    16479    16257    16204    16473    16492    16033    15805 
   16154    16529    16530    16371    16508    16959    17236    17197 
   17131    17175    17157    16819    16385    16350    16469    16243 
   15927    15918    16199    16553    16669    16652    16891    17192 
   17154    16849    16596    16570    16599    16530    16542    16566 
   16412    16294    16341    16492    16696    16781    16702    16527 
   16342    16416    16707    16789    16701    16733    16796    16846 
   16961    17004    16958    16892    16706    16512    16512    16621 
   16731    16835    16853    16692    16443    16312    16362    16566 
   16913    17236    17259    16988    16707    16540    16469    16598 
   16942    17233    17196    16883    16558    16351    16259    16314 
   16551    16873    17004    16792    16528    16480    16478    16453 
   16643    16984    17112    16904    16639    16606    16660    16499 
   16259    16280    16459    16480    16409    16493    16712    16857 
   16878    16864    16765    16555    16414    16383    16298    16200 
   16307    16581    16777    16792    16725    16694    16624    16454 
   16357    16406    16448    16471    16595    16766    16899    17007 
   17045    16996    16874    16675    16527    16518    16568    16634 
   16671    16649    16663    16736    16778    16769    16747    16706 
   16645    16581    16492    16482    16656    16810    16780    16735 
   16786    16835    16804    16691    16586    16585    16627    16653 
   16756    16943    16988    16785    16559    16510    16609    16701 
   16632    16514    16527    16566    16544    16583    16755    16937 
   16947    16839    16771    16686    16558    16550    16793    17295 
   17708    17275    15749    14362    14656    16147    17188    17621 
   18115    18042    16563    15246    16338    18637    19015    17035 
   15389    16075    17169    16270    15127    15674    16415    16417 
   16748    17367    17172    16169    15544    16018    16925    17452 
   17542    17334    16988    16566    16335    16672    16832    16236 
   15809    15945    16177    16493    16675    16535    16617    16770 
   16508    16505    17078    17328    16758    15902    15709    16429 
   16989    16668    16313    16442    16509    16511    16806    17154 
   17080    16453    15974    16334    16910    16964    16926    17045 
   16898    16662    16684    16698    16503    16257    16288    16665 
   16679    16040    15881    16779    17496    17119    16579    16776 
   16858    16167    15836    16598    17510    17615    17065    16676 
   16601    16195    15684    15913    16656    17145    17122    16785 
   16519    16469    16615    16935    17201    17335    17321    16879 
   16208    15953    16114    16261    16438    16897    17305    17037 
   16343    16146    16491    16621    16473    16704    17280    17270 
   16547    16238    16583    16606    16339    16666    17380    17551 
   16968    16209    15947    16237    16617    16957    17264    17342 
   17193    16869    16385    16076    16205    16424    16350    16393 
   17067    17730    17417    16529    16141    16304    16462    16637 
   16881    16828    16516    16349    16529    16882    16876    16470 
   16352    16689    16933    16828    16605    16572    16778    16915 
   16901    17034    17111    16718    16296    16365    16610    16603 
   16460    16409    16259    15957    16133    16869    17223    16944 
   16681    16661    16697    16627    16559    16800    17033    16753 
   16497    16758    16926    16657    16452    16554    16650    16569 
   16500    16464    16278    16115    16305    16727    16984    16851 
   16484    16354    16544    16657    16704    16917    17195    17369 
   17212    16721    16353    16126    15746    15606    16112    16830 
   17155    16987    16725    16812    17120    17192    17070    17037 
   16912    16421    15811    15533    15719    16190    16662    17016 
   17359    17515    17181    16540    15995    15928    16417    16871 
   16774    16404    16291    16534    16874    17043    17037    17048 
   16950    16531    16147    16202    16559    16893    16980    16874 
   16837    16784    16510    16280    16332    16396    16226    16108 
   16324    16578    16635    16632    16637    16707    16967    17467 
   18074    18413    18334    18041    17491    16622    15900    15581 
   15244    14652    14043    13771    14290    15587    16796    17313 
   17554    18157    18928    19204    19054    18801    18404    18026 
   17393    16084    15034    14928    14894    14624    14736    15274 
   15907    16222    16054    15972    16426    17501    18872    19489 
   19048    18366    17832    17332    16854    16364    15851    15367 
   14859    14473    14579    15045    15376    15723    16650    17793 
   18038    17489    17312    17495    17514    17715    17895    17439 
   16814    16608    16735    16865    16582    15829    15080    14705 
   14835    15514    16273    16398    16067    16299    17492    18631 
   18783    18548    18282    17173    15742    15352    15498    15213 
   14946    15425    16470    17316    17722    17952    17964    17621 
   16840    15978    16001    16691    16993    17202    17787    18169 
   17744    16601    15915    16348    16620    16039    15343    14750 
   14191    13853    14226    15998    18278    19272    19473    20223 
   20372    18693    16776    16177    16029    15291    14550    14702 
   15618    16318    16054    15517    15597    15653    15280    15393 
   16579    18351    19514    19363    18400    17331    16864    17171 
   17052    16411    16682    17175    16287    14959    14747    15262 
   15238    15120    16616    18746    18719    17061    16492    17304 
   17883    17638    17446    17859    17705    15985    14005    13284 
   13402    13694    14551    15912    16910    17438    18089    18606 
   18202    17656    18473    19695    19058    16818    15375    15744 
   16297    15729    15333    16289    17254    16669    15213    14603 
   14994    15340    15996    17925    20022    20536    19551    18010 
   16323    14922    14498    14988    15470    15452    15388    15522 
   15439    15420    16411    18062    18687    17863    17269    17739 
   18049    17507    17253    18298    19489    19125    17667    16497 
   15625    14517    13726    13802    13961    13803    14400    16433 
   18508    18774    17953    17721    17614    17033    16464    15859 
   15522    16120    17202    18133    18780    18951    18222    16577 
   15141    14820    15130    15272    15235    15716    16647    16847 
   16226    16183    17139    18080    18130    17293    16530    16396 
   16287    16077    16104    16296    16621    16872    16776    16505 
   16153    15854    16237    17336    18161    18188    17918    17943 
   17949    17175    16197    16041    16350    16774    17349    17584 
   17602    17519    16546    15063    14283    14254    14147    13547 
   13562    15170    17219    18178    18032    17990    18728    19160 
   18218    16730    16037    15838    15015    14074    14625    16469 
   17776    17973    18077    18790    19488    19181    18057    16914 
   16149    15934    15869    15393    14872    14824    14937    14827 
   14871    15541    16373    16495    16084    16285    17491    18705 
   19048    18920    18982    19036    18428    16949    15420    14776 
   14635    14427    14714    15818    16910    17209    17106    17481 
   18055    17871    16915    16048    16081    16785    17150    17140 
   17380    17592    17331    17067    17298    17604    16893    15103 
   14184    15042    15769    15186    14438    15022    17181    19057 
   18775    17145    16083    16245    16731    16215    15316    15880 
   17326    17682    17199    17453    18691    19300    17918    16027 
   15700    16047    15460    14591    14647    15133    14837    14172 
   14806    16782    18338    18771    19017    19566    19684    18849 
   17824    17450    17182    16146    14873    14556    15053    15185 
   14827    15030    16327    17837    18276    17796    17162    16111 
   14854    14552    15370    16701    18151    19134    19064    18168 
   17376    17070    16570    15732    15472    15915    16057    15548 
   15422    16382    17234    16976    16869    17972    18709    17340 
   15185    14728    15942    16830    16513    16286    17214    18116 
   17837    17364    17789    18272    17488    15943    15246    15598 
   15886    15538    14985    15206    16488    17609    17807    17814 
   18065    18025    17318    16670    16913    17294    16783    15933 
   15569    15503    15379    15294    15405    15559    15605    15968 
   17001    18086    18488    18201    17725    17631    17752    17451 
   16822    16418    16449    16562    16378    16228    16235    15768 
   14935    14769    15538    16333    16438    16240    16579    17481 
   17978    17664    17195    16858    16558    16408    16207    15867 
   15817    16064    16356    16728    17062    17199    17052    16533 
   15980    15813    16031    16365    16515    16642    17071    17315 
   16852    16394    16734    17524    18135    18186    17568    16694 
   15943    15565    15755    16045    16019    16024    16369    16838 
   16857    16357    16205    16598    16768    16911    17516    17842 
   17443    16747    16188    16341    16991    17158    16760    16248 
   15973    16068    16027    15868    16455    17617    18240    17811 
   16512    14608    12739    12789    16280    21465    24581    23870 
   20831    18056    16627    15502    13650    12314    13426    15566 
   14706    11282    10740    14547    18640    19579    17264    15814 
   18308    20270    18047    16094    17796    20359    21017    20226 
   19222    17311    13598    10666    11930    16066    17836    15395 
   13173    14214    15649    14445    12880    15952    22253    24589 
   21888    19072    18363    18199    15948    12598    12760    15533 
   15064    10696     6507     6207    11288    18827    24254    23928 
   16526    10049    12069    13272     7805    16610    53888    86580 
   74025    21299   -33948   -50923   -25333     7857    31104    41417 
   32105     8137   -14504   -14029    -1849    -1887    17732    60525 
   64502    35358    30972    41470    28316     -982    -7898    24151 
   45612    13960   -20369    -9841    18391    25531     4988    -6544 
   10769    13568    -8299   -12601     2205    12326    20739    47027 
   96671   123473    87224    30009   -16805   -71985   -99566   -39460 
   64146    82244    -8899   -65260    -8566    62690    61363    15531 
   -6438    18894    42252    23193    -6797   -27316   -39225      736 
   97235   170939   161272    67966   -47705   -83332   -30858    -1982 
  -50012   -95268   -40696    81758   123646    60733    44634   113406 
  121778   -10604  -153728  -128103     7038    30023   -80155  -135186 
  -58578    41070   100120   170192   223267   120282   -81302  -111661 
   50363   173647   154752    12842  -167945  -273890  -288441  -195889 
    3266   146231    95353   -39051   -34804   111807   155695    56095 
  122587   391453   447063   173316   -77016  -129422  -182063  -372459 
 -470977  -230709   183098   421072   371945   220388   107213   -43232 
 -146288   -15150   149535    88706   -37134   -16538    24234  -111961 
 -295878  -280760  -121566     9063   117656   266448   346030   144116 
 -239097  -391246  -141589   244362   384052   219538    75503   123885 
  185326   147390    12368  -218399  -315377   -83279   198555   202737 
   -5975  -223807  -366359  -431132  -402539  -275743   -85323   175779 
  516152   757649   617887   153275  -222532  -303760  -224462   -80867 
  132028   290017   192865   -78245  -188205  -100823   -80678  -115260 
  -22670   128311   187207   109575   -46827  -126479   -95897   -25936 
  128764   307579   296318    53316  -272574  -477546  -425765  -156501 
  156912   308352   291752   326110   385208   217198   -58313  -147436 
 -101552   -21346   102363   120310   -46263  -202652  -206027  -117854 
  -22003    50257    91189   116855    97154     2068   -57581    15703 
  129076   147670    99419   111339   173398   172264    86993   -35221 
 -125229  -126403  -100442  -122898  -129713   -53489    52012   113587 
  130339   136596    89462   -68078  -202551  -147784    35379   197728 
  263545   214305    82451   -70627  -169301  -133806    24199   188958 
  306978   379349   321269   123570   -54415  -129362  -164541  -241582 
 -343369  -337278  -204168   -91379   -38064    43789   153218   190694 
  142927   132362   200422   251150   229409   128143   -23461  -126539 
 -104985    18158   107390    64333   -25405   -53200   -15524    14710 
  -42112  -130565  -159144  -188782  -279934  -357320  -333575  -210897 
  -54652    89508   220230   337828   429986   474437   431142   279348 
   94724   -20816   -82703  -119905   -65588    90916   241933   295588 
  240227   111971   -65890  -308286  -579742  -766767  -798053  -675574 
 -426157  -120883   165305   419578   616185   708353   702041   593086 
  384852   165364     -383  -114607  -185805  -242010  -303879  -352716 
 -358412  -300881  -203081  -102964     -607   114488   245747   375769 
  450635   438578   372021   292988   204080   106485    25437   -41753 
 -127024  -229220  -313329  -348000  -323701  -242954  -102541    81382 
  252050   333280   275676   112265   -62789  -177717  -193005   -93279 
   62828   180029   217051   182786   119082    63011    -2167   -77197 
 -116035  -118717  -130233  -160017  -186006  -190116  -156731   -79002 
   22523   104337   138600   138863   135964   145406   156559   154203 
  144807   142222   143927   136214   114699    78797    23790   -24807 
  -24805     8486    21010     4459   -15503   -31214   -41357   -44381 
  -46142   -46771   -41593   -25764      162    21234    22929     5902 
  -12361    -8940     7424     3087   -25487   -48780   -38816     1980 
   44412    71041    74240    55628    39923    33644    21256     2477 
  -15733   -29687   -41375   -49700   -45280   -40636   -50101   -57689 
  -52672   -29769    21840    86051   131330   148300   146607   127677 
   90647    56708    45461    46605    46480    55262    69555    58087 
   21863   -11777   -36209   -47345   -49180   -61603   -82807  -101611 
 -106812   -83429   -41802     8669    68368   119594   155234   177071 
  175232   142150    82750    26214    -5107   -26182   -52748   -82252 
  -99660   -92023   -65473   -29175     8643    41037    64641    64511 
   36666     1525   -27258   -47478   -56778   -49803   -19586    20866 
   43804    48918    53188    61297    69279    65225    52841    48792 
   38593     4865   -35306   -62764   -77758   -80194   -64675   -39586 
  -14402    17129    52355    73988    81347    86420    86654    83290 
   83389    79994    79220    87972    84051    56128    16805   -16656 
  -27827   -22987   -19713   -18244   -14508    -7647    -1546    -3321 
    4743    43292    79369    76168    62679    64947    55533    28081 
   14733    23062    36028    44548    43299    36407    34590    26742 
    6255   -12764   -24827   -18225     8205    16245    -7636   -24259 
   -7501    19164    25029    14507     2642    -8187   -17322   -25976 
  -33886   -35341   -25450    -3808    24200    56427    84961    86886 
   61867    40800    39314    40744    22532   -11177   -33137   -39665 
  -53922   -71129   -61659   -27054     7150    25721    21556     3914 
   -6880    -9053    -8251    -2049     3967     3793    11755    36141 
   60884    75801    81497    79208    70722    51358    25991    10795 
    6597     6104     9472    15609    16291    11028    15063    29672 
   36746    32244    25865    24433    24665    17260     6388      349 
     512    12999    35432    55391    66402    57371    23913    -7725 
   -5443    26020    44802    31689    13626     5377     -167    -2471 
   -4315    -7058    -6985    -6284     -296    13251    22318    25293 
   31290    39274    46474    54402    55535    43399    31367    31190 
   29613    15871     5770    10011     9808   -11187   -38662   -45314 
  -24027     4100    22118    32989    36091    31253    27354    19555 
    -189   -16712   -13265     4123    19155    26605    35290    44343 
   40903    30917    26874    22950    15000     7103      211    -7055 
  -15876   -19290    -9663     3668     8782    11225    18412    23248 
   23324    27128    30225    23452    15359    18411    30164    35552 
   25846    14338    17811    29854    30927    18770    12590    24676 
   44524    54813    51806    42990    30554    19066    19000    21493 
   10920    -6102   -17499   -22153   -23330   -21678   -12645     2113 
    8633     3241     2839    14632    25454    29590    32780    37021 
   39082    34918    26212    18059    14013    16728    21563    20712 
   17687    21415    28139    21919     1234   -10474     -627    14070 
   20179    21817    19967    12245     7112    12323    22361    26538 
   18915     8480     8402    10103     3347     3487    23154    49798 
   63538    56662    40285    27984    16248      188    -7822     4525 
   24556    27468    12728     1194      224    -1586    -9551   -10819 
    4345    21282    20034     5046     -808    13784    35855    44615 
   33514    17074    10574     7398    -4570   -20810   -29537   -25648 
  -13250      586    11202    14476    13032    16936    28336    43089 
   59534    72350    74257    61281    36595    16393    12542    15833 
   11553    -1616   -10926    -7010     2575     7418    10037    18675 
   33434    46319    54661    63941    70061    58578    34030    18042 
   12951     8628     8858    16721    23569    21763    12792     7134 
    7804     5873     3773    10275    16921    12269     4029     6252 
   18062    25058    15053    -3111    -4145    14124    26161    20503 
    8765     4420    11431    22934    30157    31130    31850    38585 
   41934    30226    14432     4493    -4633   -10789   -10407    -5306 
    2673     7688     8959    11845    15777    18588    22996    29692 
   33791    32846    27899    20505    14919    13947    14582    10268 
   -1715   -13284   -15019    -9016    -3486      230     8638    23544 
   38458    46573    44890    37729    31430    24270    11172    -7057 
  -20993   -23741   -20260   -13527    -1254    14307    30194    41708 
   42577    36632    31590    26681    19584    10512      439    -3080 
    5592    16894    23145    29242    34662    34084    28315    20618 
   16641    18168    18462    19026    28080    37187    32121    19157 
   13403    20235    32289    31110    14122     4207     9271    14495 
   15803    19022    22129    19610     9912      731     4388    17648 
   25208    23439    21447    22640    15809    -1765    -7501    10501 
