Origin Time       2016/04/15 00:03:00
Lat.              32.700
Long.             130.777
Depth. (km)       7
Mag.              6.4
Station Code      KMMH14
Station Lat.      32.6345
Station Long.     130.7521
Station Height(m) 70
Record Time       2016/04/15 00:03:48
Sampling Freq(Hz) 100Hz
Duration Time(s)  271
Dir.              6
Scale Factor      3920(gal)/6170801
Max. Acc. (gal)   557.472
Last Correction   2016/04/15 00:03:33
Memo.             
[...]
  -25285   -25346   -25402   -25379   -25308   -25306   -25334   -25325 
  -25309   -25338   -25413   -25439   -25362   -25279   -25267   -25289 
  -25361   -25485   -25498   -25372   -25274   -25213   -25165   -25198 
  -25270   -25354   -25474   -25527   -25419   -25282   -25308   -25376 
  -25352   -25369   -25402   -25352   -25289   -25241   -25222   -25310 
  -25462   -25502   -25419   -25316   -25207   -25170   -25248   -25333 
  -25365   -25347   -25327   -25355   -25417   -25437   -25381   -25333 
  -25315   -25261   -25201   -25222   -25334   -25412   -25386   -25343 
  -25343   -25366   -25378   -25338   -25295   -25306   -25353   -25397 
  -25400   -25391   -25414   -25426   -25370   -25288   -25274   -25307 
  -25307   -25310   -25329   -25327   -25342   -25375   -25389   -25378 
  -25309   -25238   -25262   -25334   -25347   -25320   -25335   -25356 
  -25349   -25338   -25313   -25349   -25463   -25495   -25411   -25323 
  -25266   -25234   -25248   -25290   -25321   -25322   -25287   -25244 
  -25288   -25412   -25458   -25409   -25371   -25371   -25407   -25433 
  -25429   -25392   -25268   -25143   -25159   -25285   -25416   -25440 
  -25359   -25304   -25294   -25294   -25304   -25333   -25402   -25456 
  -25425   -25358   -25336   -25352   -25319   -25263   -25290   -25330 
  -25308   -25307   -25332   -25341   -25325   -25318   -25376   -25461 
  -25490   -25421   -25292   -25245   -25296   -25326   -25337   -25352 
  -25317   -25250   -25223   -25250   -25332   -25451   -25513   -25502 
  -25463   -25377   -25308   -25310   -25303   -25266   -25251   -25243 
  -25233   -25278   -25334   -25360   -25399   -25378   -25276   -25242 
  -25281   -25326   -25404   -25453   -25415   -25364   -25341   -25324 
  -25347   -25407   -25395   -25298   -25253   -25288   -25344   -25401 
  -25443   -25447   -25393   -25299   -25238   -25276   -25400   -25449 
  -25353   -25261   -25231   -25218   -25254   -25320   -25357   -25390 
  -25403   -25354   -25332   -25370   -25392   -25391   -25361   -25299 
  -25284   -25314   -25294   -25261   -25290   -25319   -25326   -25331 
  -25303   -25311   -25400   -25458   -25474   -25486   -25413   -25332 
  -25341   -25338   -25293   -25231   -25170   -25200   -25294   -25331 
  -25356   -25389   -25394   -25432   -25443   -25374   -25320   -25308 
  -25325   -25362   -25394   -25387   -25363   -25348   -25283   -25224 
  -25221   -25259   -25364   -25415   -25381   -25358   -25323   -25318 
  -25360   -25368   -25371   -25365   -25336   -25338   -25355   -25376 
  -25379   -25349   -25324   -25269   -25246   -25320   -25365   -25369 
  -25384   -25369   -25338   -25318   -25295   -25273   -25286   -25348 
  -25402   -25434   -25450   -25385   -25308   -25282   -25251   -25271 
  -25331   -25351   -25359   -25333   -25294   -25301   -25312   -25343 
  -25376   -25373   -25370   -25334   -25316   -25360   -25379   -25363 
  -25327   -25298   -25297   -25282   -25290   -25343   -25398   -25416 
  -25382   -25353   -25353   -25382   -25446   -25427   -25311   -25263 
  -25267   -25269   -25312   -25351   -25348   -25334   -25318   -25305 
  -25330   -25385   -25386   -25341   -25326   -25316   -25319   -25363 
  -25353   -25290   -25301   -25340   -25350   -25409   -25431   -25354 
  -25321   -25326   -25322   -25339   -25324   -25309   -25347   -25373 
  -25364   -25336   -25298   -25276   -25295   -25343   -25356   -25346 
  -25359   -25368   -25378   -25386   -25378   -25372   -25333   -25274 
  -25272   -25315   -25348   -25336   -25296   -25269   -25276   -25323 
  -25363   -25392   -25423   -25410   -25383   -25393   -25383   -25335 
  -25312   -25304   -25288   -25280   -25278   -25313   -25378   -25425 
  -25443   -25394   -25318   -25294   -25299   -25309   -25326   -25337 
  -25319   -25287   -25296   -25333   -25373   -25410   -25376   -25324 
  -25345   -25348   -25334   -25369   -25361   -25314   -25280   -25259 
  -25306   -25378   -25396   -25358   -25324   -25340   -25324   -25331 
  -25404   -25401   -25368   -25336   -25292   -25337   -25367   -25330 
  -25337   -25328   -25295   -25306   -25348   -25392   -25367   -25302 
  -25282   -25317   -25389   -25387   -25346   -25381   -25379   -25338 
  -25326   -25275   -25250   -25286   -25301   -25329   -25356   -25358 
  -25357   -25357   -25416   -25447   -25402   -25398   -25382   -25319 
  -25263   -25223   -25237   -25290   -25347   -25363   -25303   -25293 
  -25336   -25352   -25410   -25439   -25402   -25381   -25331   -25279 
  -25290   -25327   -25365   -25359   -25343   -25359   -25346   -25339 
  -25342   -25312   -25318   -25328   -25329   -25370   -25372   -25359 
  -25369   -25331   -25303   -25310   -25318   -25350   -25358   -25336 
  -25317   -25302   -25319   -25332   -25357   -25393   -25355   -25326 
  -25348   -25335   -25338   -25351   -25330   -25323   -25314   -25299 
  -25319   -25363   -25402   -25387   -25319   -25270   -25263   -25314 
  -25387   -25402   -25384   -25350   -25341   -25363   -25351   -25362 
  -25387   -25361   -25321   -25259   -25236   -25290   -25318   -25341 
  -25384   -25385   -25375   -25358   -25354   -25391   -25386   -25363 
  -25350   -25316   -25299   -25278   -25271   -25314   -25350   -25363 
  -25320   -25273   -25312   -25344   -25349   -25391   -25427   -25435 
  -25392   -25322   -25303   -25306   -25325   -25345   -25304   -25291 
  -25317   -25318   -25316   -25292   -25325   -25457   -25518   -25442 
  -25335   -25287   -25260   -25222   -25258   -25336   -25370   -25378 
  -25353   -25317   -25320   -25346   -25376   -25378   -25343   -25322 
  -25282   -25237   -25328   -25466   -25489   -25442   -25365   -25300 
  -25272   -25232   -25244   -25326   -25362   -25318   -25263   -25287 
  -25361   -25405   -25431   -25399   -25326   -25295   -25244   -25238 
  -25374   -25521   -25552   -25409   -25230   -25185   -25208   -25292 
  -25399   -25395   -25357   -25337   -25311   -25318   -25329   -25354 
  -25403   -25419   -25423   -25385   -25305   -25280   -25286   -25324 
  -25375   -25359   -25316   -25281   -25269   -25289   -25332   -25401 
  -25416   -25387   -25373   -25313   -25287   -25319   -25292   -25314 
  -25357   -25302   -25294   -25324   -25353   -25430   -25444   -25401 
  -25357   -25292   -25273   -25310   -25341   -25355   -25389   -25411 
  -25338   -25260   -25242   -25261   -25363   -25437   -25368   -25290 
  -25295   -25329   -25343   -25337   -25355   -25402   -25419   -25375 
  -25290   -25271   -25334   -25326   -25305   -25353   -25353   -25355 
  -25394   -25331   -25258   -25323   -25376   -25339   -25370   -25420 
  -25380   -25355   -25339   -25293   -25311   -25305   -25239   -25282 
  -25349   -25362   -25404   -25394   -25311   -25274   -25309   -25313 
  -25304   -25404   -25449   -25369   -25359   -25359   -25329   -25354 
  -25352   -25329   -25343   -25294   -25222   -25281   -25364   -25347 
  -25358   -25386   -25312   -25291   -25365   -25383   -25418   -25433 
  -25338   -25332   -25380   -25319   -25305   -25340   -25308   -25299 
  -25279   -25204   -25223   -25330   -25407   -25447   -25428   -25356 
  -25293   -25286   -25386   -25467   -25383   -25284   -25273   -25296 
  -25328   -25343   -25351   -25372   -25361   -25286   -25272   -25366 
  -25401   -25400   -25415   -25332   -25275   -25315   -25278   -25264 
  -25367   -25377   -25332   -25390   -25420   -25347   -25306   -25332 
  -25358   -25356   -25345   -25315   -25301   -25346   -25300   -25208 
  -25293   -25395   -25355   -25354   -25391   -25359   -25379   -25392 
  -25257   -25232   -25384   -25425   -25383   -25394   -25343   -25254 
  -25281   -25393   -25459   -25384   -25219   -25165   -25269   -25395 
  -25457   -25429   -25378   -25382   -25345   -25228   -25204   -25302 
  -25362   -25350   -25308   -25285   -25342   -25389   -25376   -25396 
  -25407   -25380   -25360   -25300   -25223   -25230   -25333   -25464 
  -25492   -25379   -25274   -25239   -25242   -25308   -25373   -25377 
  -25381   -25369   -25330   -25343   -25381   -25403   -25403   -25328 
  -25238   -25238   -25278   -25322   -25389   -25402   -25339   -25295 
  -25317   -25363   -25372   -25372   -25375   -25323   -25302   -25330 
  -25314   -25338   -25420   -25417   -25324   -25253   -25235   -25287 
  -25384   -25396   -25357   -25354   -25318   -25288   -25343   -25406 
  -25419   -25391   -25285   -25180   -25249   -25402   -25486   -25486 
  -25362   -25215   -25204   -25268   -25342   -25419   -25418   -25326 
  -25286   -25324   -25342   -25392   -25447   -25368   -25287   -25292 
  -25261   -25263   -25360   -25431   -25440   -25406   -25346   -25301 
  -25278   -25275   -25282   -25331   -25407   -25376   -25267   -25249 
  -25329   -25425   -25458   -25426   -25371   -25277   -25206   -25245 
  -25349   -25439   -25418   -25314   -25267   -25258   -25290   -25374 
  -25386   -25370   -25374   -25316   -25302   -25372   -25363   -25316 
  -25354   -25404   -25389   -25327   -25294   -25323   -25334   -25338 
  -25397   -25424   -25337   -25203   -25198   -25330   -25401   -25364 
  -25327   -25342   -25351   -25339   -25371   -25380   -25364   -25398 
  -25356   -25263   -25267   -25287   -25317   -25387   -25396   -25372 
  -25345   -25291   -25282   -25344   -25404   -25395   -25355   -25353 
  -25341   -25319   -25328   -25305   -25284   -25312   -25345   -25357 
  -25337   -25360   -25398   -25360   -25338   -25346   -25339   -25345 
  -25344   -25348   -25338   -25320   -25342   -25313   -25276   -25340 
  -25354   -25295   -25304   -25355   -25395   -25401   -25363   -25306 
  -25303   -25382   -25394   -25347   -25342   -25297   -25280   -25319 
  -25296   -25307   -25361   -25364   -25381   -25397   -25380   -25364 
  -25327   -25309   -25330   -25324   -25298   -25309   -25356   -25361 
  -25347   -25375   -25371   -25353   -25337   -25278   -25296   -25368 
  -25361   -25340   -25330   -25311   -25328   -25349   -25364   -25383 
  -25382   -25386   -25360   -25307   -25297   -25289   -25300   -25364 
  -25385   -25356   -25332   -25314   -25309   -25316   -25340   -25352 
  -25337   -25342   -25342   -25333   -25342   -25354   -25390   -25410 
  -25379   -25337   -25299   -25310   -25309   -25263   -25287   -25342 
  -25367   -25384   -25371   -25378   -25384   -25339   -25334   -25347 
  -25339   -25347   -25326   -25301   -25315   -25309   -25296   -25329 
  -25362   -25331   -25317   -25363   -25372   -25369   -25396   -25396 
  -25404   -25396   -25319   -25263   -25273   -25292   -25297   -25331 
  -25386   -25350   -25289   -25325   -25356   -25374   -25414   -25350 
  -25268   -25332   -25398   -25358   -25356   -25394   -25342   -25285 
  -25298   -25286   -25293   -25339   -25318   -25283   -25309   -25334 
  -25336   -25370   -25452   -25477   -25411   -25375   -25342   -25274 
  -25278   -25315   -25312   -25319   -25327   -25304   -25289   -25330 
  -25369   -25357   -25368   -25379   -25345   -25331   -25327   -25333 
  -25399   -25449   -25384   -25278   -25247   -25265   -25314   -25415 
  -25457   -25349   -25248   -25260   -25293   -25355   -25446   -25435 
  -25327   -25290   -25338   -25319   -25317   -25413   -25389   -25289 
  -25297   -25270   -25235   -25331   -25382   -25388   -25478   -25432 
  -25247   -25252   -25352   -25345   -25380   -25425   -25318   -25219 
  -25240   -25285   -25368   -25462   -25452   -25374   -25302   -25249 
  -25259   -25335   -25407   -25428   -25393   -25317   -25263   -25293 
  -25387   -25419   -25348   -25278   -25270   -25299   -25337   -25304 
  -24950   -23781   -21496   -19706   -21819   -27609   -31913   -32999 
  -32908   -29253   -20939   -13836   -10356   -10144   -16205   -24971 
  -31385   -39928   -47084   -44225   -40449   -40348   -32312   -17840 
    -482    26268    49445    53501    47467    31034    -6066   -46998 
  -72130   -89779  -106726  -112479  -105702   -94554   -78166   -59454 
  -47119   -35038   -20585   -19204   -25413   -11085    26424    66495 
   90912    86193    57337    21020   -16131   -42154   -47650   -48038 
  -50537   -44625   -33104   -23763   -24728   -50356   -89292  -111372 
 -113975  -104622   -78826   -55737   -61298   -73290   -59733   -21629 
   40099   112634   148177   123711    65149      493   -50184   -69201 
  -63560   -54198   -47295   -53491   -85539  -109707   -78476   -13176 
   18704   -12241   -67902   -83021   -38720    31788   108588   178060 
  199099   151500    44364   -96958  -189744  -193095  -186616  -194421 
 -168223  -139849  -128281   -88216   -25733    45382   125498   169501 
  166811   146632    97624    34019     6587    17345    48368    79065 
   63990    -8445  -109500  -219777  -314463  -357711  -333515  -253808 
 -155609   -85240   -44611    28416   168502   310459   373851   351521 
  268289   144027    11858   -88660  -128489  -115861  -104529  -129892 
 -181989  -237837  -259249  -209391   -97584    30804   131035   169965 
  142722    88909    58094    72506   126187   181420   176635    83162 
  -55407  -175812  -250109  -273861  -243328  -162890   -66739    13421 
   68613    67407    -3641   -81733  -101398   -52377    39511   111285 
   90418   -13155   -93845   -78907    -4015    65295    75405   -31107 
 -226235  -387794  -454019  -403127  -205948    37379   181319   212714 
  163533    82358    96372   255676   397618   354054   151235  -112085 
 -336685  -394584  -243647    31376   279981   361544   269013    94467 
  -98314  -264920  -361894  -396951  -428099  -491086  -556432  -542966 
 -358547    29518   516783   852224   842939   582031   301844   108703 
   -8921   -50515      144    65302    12277  -158553  -316282  -398788 
 -440578  -424797  -349416  -316163  -330144  -257183   -56779   185590 
  405146   560116   572876   417358   178643   -53856  -219192  -273518 
 -259193  -256210  -305399  -406766  -500744  -513228  -391351  -136801 
  151370   366134   422530   299253   156741   135344   187459   272328 
  338186   248094    27261  -149240  -233213  -251811  -189038  -121290 
 -192998  -378180  -510177  -539427  -538518  -445029  -111685   330299 
  557889   509252   355788   177725    22994   -25840   -37497  -138228 
 -294379  -384962  -389716  -416216  -463002  -367269  -117023   100305 
  152626    54758   -84726  -126818   -45579    30224    52335    93115 
  119867    68963     6784    -5376    12562    80301   203947   232669 
   45812  -247121  -478856  -577795  -508806  -273283    21861   261318 
  447081   540432   416650   165396    35823    74722   177448   252579 
  208581    74795   -17307   -57431   -84174   -46243    60380   130573 
  114448    45933   -64341  -160971  -159788   -89983    18175   164383 
  238952   167592    60288    32360    58970    81948    84795    64605 
   43879    25874     -952    12048    85463   174007   237732   197454 
     266  -239288  -382382  -419408  -382739  -309749  -255019  -225340 
 -193662  -153149   -91419    10634   112441   122816    18337  -129542 
 -255592  -330156  -326710  -253491  -171563  -129979  -115299   -97196 
  -84174   -81407   -64376   -35522   -24627   -41031   -65990   -78105 
  -77479   -71901   -69942   -84469  -112299  -132825  -125517   -98449 
  -87117   -90994   -70460   -21680    25793    45710     6616   -76263 
 -138531  -170007  -173762  -114798   -28335    14117    16107   -15266 
  -85734  -138168  -125712   -83322   -48120   -12869    27318    63941 
   93029   113506   128338   135341   128920   108050    62499     5494 
   -7160    45002   114283   159179   185817   196674   174301   135272 
  109953    90891    61921    32872    35648    84473   150127   209423 
  254349   258951   230666   212746   200953   171383   135590   101447 
   69994    59425    66844    65162    57798    55796    38633     6647 
  -26721   -76670  -122021  -118713   -87412   -61497   -34872    -7394 
   17376    39990    41791    23203    10615     1452   -21209   -59020 
 -109707  -153881  -161952  -136009   -99026   -62866   -37852   -41045 
  -81018  -143298  -194015  -205476  -172380  -114821   -76974   -86167 
 -118683  -140946  -152204  -161568  -156737  -128050  -104113  -116630 
 -155959  -199257  -227995  -216142  -155392   -74288   -21840   -23253 
  -53896   -86430  -111602  -116508  -102621   -81830   -59393   -50550 
  -65764   -87929   -89402   -61247   -27251   -11443    -9401   -18892 
  -44020   -58209   -26708    47108   127676   167458   141458    76579 
   13405   -24716   -23022    12325    56349    84873    74875    21105 
  -44935   -79874   -69449   -39988   -21031   -13387   -20490   -53123 
  -85683   -84645   -56184   -20746    12450    36025    37831    21246 
   10152     2706   -17520   -31130   -35681   -63947   -99827  -107083 
  -98457   -78347   -30987    14457    23760    14147     2503   -15502 
  -26587   -23423   -21501   -20964   -15854   -12977    -9352      738 
    3564   -14678   -42457   -58543   -55593   -37040   -15135    -1167 
   11941    28058    31157    13153   -12494   -26945   -20733    -2328 
   11113    17585    24741    26177    16520    14586    33368    51694 
   54748    58357    58080    28692   -12950   -36631   -52170   -61169 
  -51174   -47582   -61502   -59728   -43378   -38252   -33685   -22733 
  -22363   -26394   -21817   -20712   -25812   -29368   -44941   -75293 
  -97126  -102773   -96543   -79805   -64795   -56589   -45535   -34370 
  -33073   -35571   -30180   -23200   -28545   -45160   -62118   -69498 
  -62568   -48959   -43010   -45943   -47676   -51448   -68750   -91761 
 -103592  -104470  -101028   -89286   -70318   -56584   -44072   -21357 
   -7671   -21030   -39574   -46016   -54237   -68624   -73601   -67189 
  -61763   -56801   -43226   -22938    -5893     1847     1618    -7702 
  -27283   -41469   -37399   -24149    -5126    20195    34309    32056 
   27946    22256    11649     2646    -7600   -26229   -49471   -70236 
  -78866   -66580   -46762   -36134   -20375    11356    35459    41999 
   52690    65862    58473    38712    22680      778   -23031   -32548 
  -39263   -49085   -44553   -28948   -18960   -11569      222    12501 
   28160    54484    76434    75416    62547    49286    25366    -6959 
  -28862   -34076   -25581   -11061   -11504   -35548   -61672   -73339 
  -72315   -55199   -22269     9541    28909    36851    32226    18626 
    7078     -136    -6443   -13515   -28421   -54138   -78865   -94433 
 -100744   -91682   -70613   -54637   -46929   -43254   -46957   -51337 
  -44487   -29836   -13198     6743    22198    21026     4241   -20772 
  -44641   -56401   -58342   -63170   -73399   -78976   -74339   -65353 
  -55699   -42600   -24686    -5799     2580    -6356   -24407   -41485 
  -52297   -57321   -62116   -63791   -60263   -64141   -77511   -84450 
  -76313   -54108   -25846    -9988   -15344   -30581   -43117   -48670 
  -49458   -51687   -53537   -45720   -31588   -20792    -9385      583 
   -4907   -20682   -35745   -54651   -68700   -62454   -49401   -47012 
  -49185   -46025   -32839    -9391    14071    27947    28161    10066 
  -19467   -42038   -48208   -40215   -25081   -11169    -3468    -8381 
  -30081   -52714   -57256   -47668   -31944   -10574     9804    22147 
   25584    22362    19772    22524    24087    17122     4111    -8513 
  -18946   -29028   -33483   -21950      105    16302    22387    23255 
   22876    24321    28669    34074    36744    33329    24011    10951 
