Origin Time       2016/04/16 01:46:00
Lat.              32.862
Long.             130.898
Depth. (km)       11
Mag.              5.9
Station Code      KMMH16
Station Lat.      32.7967
Station Long.     130.8199
Station Height(m) 55
Record Time       2016/04/16 01:45:08
Sampling Freq(Hz) 100Hz
Duration Time(s)  300
Dir.              5
Scale Factor      3920(gal)/6170801
Max. Acc. (gal)   384.504
Last Correction   2016/04/16 01:44:53
Memo.             
[...]
      20    -2280    -4037    -4904    -5045    -4529    -3200    -1280 
     583     1955     2667     2495     1432      155     -428     -231 
      57       13     -257     -638    -1173    -1755    -1958    -1525 
    -796     -290     -283     -740    -1343    -1814    -2062    -1946 
   -1329     -336      756     1633     1895     1392      526     -321 
   -1189    -2016    -2397    -2209    -1930    -1971    -2103    -1941 
   -1562    -1162     -603      164      771      875      494     -102 
    -665    -1193    -1649    -1642     -864      360     1314     1680 
    1605     1216      630     -190    -1405    -2650    -3249    -3101 
   -2660    -2200    -1555     -614      290      744      860      862 
     446     -553    -1577    -2087    -2098    -1842    -1328     -489 
     430     1075     1259      897      197     -342     -484     -574 
   -1047    -1749    -2215    -2290    -1966    -1225     -253      628 
    1165     1189      628     -327    -1340    -2190    -2685    -2677 
   -2220    -1515     -644      453     1490     1855     1534     1116 
     757       37    -1171    -2219    -2307    -1479     -509       41 
     179       55     -309     -911    -1676    -2338    -2553    -2380 
   -2062    -1505     -814     -409     -124      383      852     1034 
    1055      883      253     -760    -1532    -1704    -1616    -1482 
   -1216     -906     -634     -441     -452     -655     -888     -960 
    -763     -473     -241      254     1152     1727     1296      223 
    -638    -1037    -1434    -2118    -2704    -2747    -2295    -1729 
   -1442    -1471    -1463    -1107     -452       33      -15     -176 
     135      567      411     -100     -264     -191     -612    -1591 
   -2331    -2476    -2411    -2224    -1568     -280     1322     2552 
    2943     2623     2064     1539      787     -361    -1464    -2125 
   -2411    -2610    -2843    -2843    -2462    -1824    -1037     -508 
    -572     -768     -648     -528     -661     -716     -387      143 
     456      573      933     1448     1549     1085      285     -612 
   -1434    -2146    -2639    -2704    -2392    -1956    -1539    -1157 
    -811     -531     -412     -498     -468      -30      375      230 
    -147     -279     -321     -513     -670     -658     -629     -580 
    -340        4      184       68     -279     -636     -891    -1072 
   -1080     -949     -899     -814     -624     -644     -753     -665 
    -713    -1040    -1347    -1539    -1594    -1548    -1342     -670 
     159      432      233       25      -55     -100     -294     -488 
    -280      194      419      359      320      194     -246     -673 
    -856    -1081    -1439    -1702    -1678    -1386    -1126     -908 
    -402       92      -53     -679    -1193    -1394    -1399    -1258 
    -849     -206      335      483      156     -253      -75      457 
     264     -946    -1921    -1511     -759    -1185    -1929    -1529 
    -524     -230     -795    -1332    -1374    -1433    -1780    -1934 
   -1474     -357      701      679       53      244     1198     1564 
     729     -443     -754     -396     -734    -1924    -2429    -1590 
    -714     -775     -955     -402      340      396     -234     -812 
    -705     -217     -210     -953    -1750    -1674     -867     -457 
    -717     -896     -826    -1011    -1500    -1729    -1377     -867 
    -601     -380       11      544      982      866      256     -262 
    -522     -646     -731    -1066    -1671    -2037    -1806    -1145 
    -463       33      396      597      526      302        9     -496 
   -1028    -1145     -904     -658     -541     -551     -648     -887 
   -1451    -2219    -2727    -2736    -2361    -1774    -1127     -431 
     422     1167     1374     1312     1479     1572     1056      145 
    -570     -987    -1363    -1509    -1155     -682     -476     -475 
    -681    -1120    -1509    -1681    -1898    -2212    -2138    -1420 
    -506       32      164      311      600      653      400      250 
     348      424      137     -487     -946    -1126    -1482    -1978 
   -2063    -1676    -1222     -825     -355       54      161      102 
     165      311      335      187     -127     -591    -1093    -1565 
   -2053    -2561    -2969    -3004    -2501    -1712     -863       79 
     926     1386     1473     1296      930      493       25     -454 
    -898    -1291    -1544    -1684    -1944    -2239    -2198    -1791 
   -1270     -763     -231      357      876     1189     1275     1105 
     690      139     -479    -1090    -1540    -1745    -1712    -1508 
   -1240    -1051    -1081    -1191    -1093     -880     -733     -528 
    -278     -102      134      410      487      358       69     -406 
    -971    -1522    -1829    -1702    -1452    -1240     -795     -221 
     118      237      260       89     -339     -820    -1109    -1254 
   -1344    -1191     -737     -322     -138      -11       64     -218 
    -877    -1470    -1676    -1644    -1622    -1516    -1127     -565 
     -29      421      669      667      625      612      395      -56 
    -487     -774     -955    -1105    -1252    -1288    -1139     -879 
    -641     -537     -548     -565     -623     -829    -1056    -1081 
    -946     -815     -632     -408     -446     -754     -876     -711 
    -658     -862    -1096    -1249    -1301    -1052     -562     -337 
    -410     -227      169      211     -142     -502     -578     -322 
    -102     -221     -344     -252     -354     -877    -1502    -1726 
   -1343     -832     -638     -533     -426     -532     -720     -668 
    -311       -5      -93     -323     -455     -802    -1392    -1685 
   -1503    -1165     -777     -378     -284     -566     -887     -944 
    -617     -129       67      -41     -162     -381     -850    -1322 
   -1458    -1165     -627     -196      -87     -250     -542     -764 
    -769     -698     -641     -470     -288     -321     -444     -429 
    -313     -286     -380     -376     -285     -418     -789    -1187 
   -1416    -1331    -1136    -1100    -1123    -1006     -729     -426 
    -230     -163     -262     -485     -581     -485     -447     -586 
    -813    -1000     -976     -677     -284      -56     -140     -437 
    -643     -670     -734     -867     -902     -870     -862     -810 
    -672     -526     -405     -269     -135      -75      -82     -104 
    -200     -414     -600     -649     -706     -946    -1325    -1551 
   -1418    -1134     -987     -921     -830     -845     -998    -1060 
    -904     -565     -140      160      319      522      609      275 
    -349     -905    -1235    -1450    -1726    -1903    -1622     -956 
    -354      -24      167      328      361      135     -285     -641 
    -752     -698     -708     -820     -803     -599     -534     -858 
   -1279    -1373    -1265    -1274    -1304    -1184     -953     -668 
    -356       -1      311      437      411      340      246       37 
    -424    -1026    -1437    -1496    -1390    -1439    -1601    -1525 
   -1172     -814     -539     -297     -154     -193     -292     -219 
     -11      -34     -421     -771     -716     -473     -551     -957 
   -1069     -670     -388     -557     -753     -687     -626     -839 
   -1047     -906     -666     -557     -366      -86       32       22 
      22     -113     -471     -808    -1035    -1348    -1656    -1557 
    -963     -277       93      211      352      422       64     -706 
   -1320    -1379    -1233    -1298    -1394    -1234     -843     -516 
    -507     -564     -392     -294     -445     -610     -763     -887 
    -802     -514     -194      -47     -119     -293     -525     -694 
    -672     -595     -618     -740     -948    -1185    -1290    -1157 
    -859     -509     -170       81      259      345      129     -296 
    -590     -842    -1147    -1172     -882     -665     -683     -776 
    -719     -502     -399     -608    -1046    -1452    -1549    -1246 
    -733     -347     -218     -153      -22       72       98      206 
     366      223     -329     -910    -1324    -1629    -1720    -1598 
   -1413    -1125     -704     -327     -240     -516     -901    -1092 
   -1024     -727     -276      140      370      424      371      129 
    -377     -946    -1357    -1628    -1766    -1612    -1239     -996 
    -838     -585     -516     -698     -753     -582     -373     -227 
    -163     -181     -220     -197     -213     -537    -1093    -1342 
   -1038     -677     -727     -908     -795     -587     -648     -770 
    -539      -65      150      -54     -405     -709    -1017    -1362 
   -1572    -1393     -825     -176      323      625      662      418 
      -8     -584    -1259    -1759    -1833    -1576    -1278    -1005 
    -628     -292     -243     -290     -258     -343     -481     -411 
    -288     -300     -353     -452     -681     -964    -1066     -847 
    -543     -449     -489     -661    -1060    -1089     -343      -92 
   -1368    -2403    -1238      303     -771    -3217    -3537    -2070 
   -1828    -2817    -2177      784     3050     2718     1327     -464 
   -2771    -2915       93     1564    -1295    -3046     1164     5611 
    2567    -3617    -2795     4506     8986     5989     -960    -6224 
  -10229   -16057   -19104   -13323    -1519     7788     9295     6940 
    7133     8308     4366    -3994    -7610    -3125     1553     2010 
    1597      908    -2364    -7093   -11119   -12133    -5654     5619 
   11073     8969     6880     6692     2950    -5251    -9248    -3810 
    3311     3301    -1597    -4717    -6664   -11601   -17545   -18355 
   -8919     9508    25072    26891    17505     5231    -6510   -17313 
  -24165   -22599   -12173     3238    17202    21278    14558     9327 
   13232    15518     3627   -15805   -23296   -13809    -4627    -8179 
  -16136   -17415    -9757     6811    26138    31984    17175    -4142 
  -15599   -17730   -19240   -17274     -969    22895    28282     9252 
   -6547    -3806     1474    -3304   -11603   -10212     2185    10368 
    8070     5121     5179     4684     2603     -220     1946    12941 
   20268     9655   -10589   -21481   -18273   -10762    -9668   -13698 
  -14011   -13079   -17132   -20662   -20764   -21719   -18158    -2270 
   17612    26012    21349    17254    19573    15034    -4077   -23292 
  -24722    -9730     1594    -5248   -18052   -13570     7535    28699 
   46058    54975    46658    28426    11685     2711     8474    21859 
   20887     1514   -16056   -25309   -41124   -63323   -70085   -46754 
   -4639    29190    40634    27332   -10260   -46084   -50000   -26647 
   10037    44528    50357    29151     8752    -6667   -26258   -35618 
  -12081    40687    89500   103782    77682    10624   -83735  -145643 
 -124001   -48732     3950    -2554   -42223   -78788   -96683   -95509 
  -84771   -49761    41465   158397   211228   182781   156712   159852 
  147570   127886   116236    98232    87162    76464    16387  -100352 
 -205320  -242672  -242206  -233670  -183331   -80644    18385    55028 
   31114    -4055   -15926    -2850    30440    83432   130978   139255 
  127308   119672    88714    21792   -36499   -34359    19782    55515 
   32518   -16291   -57859  -101718  -151409  -184282  -186584  -147843 
  -65171    12808    37526    32643    35800    43296    42329    39301 
   57414    96766   115718    92862    55353    31982    21882     9405 
   -3929     -809    19482    29209      -25   -59995  -112819  -128980 
 -111639   -86387   -50960    21227   106516   149846   155447   166802 
  192387   212532   213210   193595   158378   110670    60990    12538 
  -48831  -117874  -165956  -178019  -167530  -163087  -173530  -174707 
 -148688  -107991   -73157   -50372   -26731     5008    24959    24323 
   23791    27529    15334   -15123   -42920   -61181   -84552  -111057 
 -115829   -99948   -93961   -95511   -74505   -39775   -28553   -53563 
  -93542  -114835  -110937  -111563  -136866  -168152  -172792  -149083 
 -129498  -130535  -137650  -143067  -152595  -165815  -172556  -162103 
 -134611   -96106   -45562    21374   100874   183527   262325   328515 
  377807   417438   450094   474404   495949   515874   529472   533705 
  522972   493978   450776   400295   351387   304886   251466   188535 
  117432    34797   -61531  -169525  -275060  -357225  -413963  -458962 
 -496644  -519295  -520650  -505073  -482323  -457561  -435640  -416934 
 -391680  -361846  -339747  -322587  -301241  -277932  -258938  -240248 
 -209148  -162129  -110565   -65642   -28000     7224    41261    72356 
  102434   134298   166404   194520   214915   227510   232837   229236 
  217573   199816   180156   166199   159225   158615   167257   183073 
  201504   219341   234405   246553   253397   252685   244572   228968 
  207980   184058   161553   147220   140562   138403   142872   150570 
  147375   126564    96229    62648    27240    -8731   -44735   -74712 
  -94057  -108675  -121717  -129085  -133083  -140134  -147814  -152890 
 -159906  -172495  -191272  -215775  -242109  -264850  -281290  -292447 
 -298135  -294337  -281131  -266066  -251949  -232714  -204486  -166628 
 -117168   -53739    24610   111437   193949   263777   321244   372638 
  420624   458045   479255   487062   483429   466585   435512   390598 
  335424   273324   201798   119979    29695   -71958  -184595  -300188 
 -410988  -507641  -576629  -605970  -589689  -534987  -464697  -398185 
 -335199  -271247  -211325  -159897  -119695   -94369   -79190   -63332 
  -40373   -12119    16717    46969    80843   116527   150654   180053 
  202972   216569   214592   194444   163847   132614   100817    64475 
   27754    -2212   -25355   -42150   -47968   -42093   -32389   -26911 
  -24543   -16819     -380    19015    37659    60106    91970   131740 
  172222   208126   237862   259247   267853   259069   230764   186921 
  137016    87285    36608   -14800   -61157  -101082  -136452  -160859 
 -168291  -164472  -159461  -157768  -156674  -155136  -155951  -154976 
 -146133  -130896  -111019   -87421   -64475   -42538   -16010    15526 
   46162    74857   105993   139983   171726   196579   214412   227789 
  237264   240967   237045   223266   197889   163540   125836    87119 
   46574     6539   -29482   -63315   -96007  -121264  -133832  -137581 
 -140371  -143993  -144752  -142902  -140778  -136523  -130381  -124727 
 -114686   -93065   -63888   -40543   -26311   -10552    10700    31051 
   45230    49177    42229    29540    14390    -3027   -19684   -31575 
  -40798   -52883   -66763   -76990   -83062   -88336   -94458   -99411 
  -98427   -89058   -75195   -62078   -48628   -29862    -5815    18222 
   38211    52537    61684    69389    78895    88949    96780   101782 
  103507   100162    91907    82236    73810    64624    51301    35589 
   23034    15644    10331     4491     -849    -3813    -3046     1807 
    7323     9637     9048     5709    -1973   -12701   -23259   -32996 
  -43974   -57998   -73103   -82667   -83619   -83384   -87860   -89718 
  -80116   -62226   -45746   -35517   -29546   -23933   -16353    -6269 
    5520    16855    23723    22122    14420     9832    13089    19634 
   25027    29679    35442    43975    54404    62648    65870    65018 
   63094    61911    60893    57602    49303    36827    23006     7732 
   -8329   -20709   -28403   -35715   -44081   -51759   -58038   -60724 
  -57739   -50887   -40739   -24041    -1736    18636    34410    51059 
   69526    84452    93462    95534    88914    75088    56186    32926 
    8537   -11332   -24804   -36219   -49227   -61274   -66658   -63192 
  -54845   -44911   -31302   -12795     5739    18080    24960    30901 
   35234    35417    31836    24721    14465     2285   -12671   -30595 
  -47563   -60825   -72410   -83793   -94262  -105322  -118871  -132987 
 -144485  -151824  -153077  -143906  -121037   -89225   -59615   -36732 
  -15354     7093    28429    48968    69460    88746   104554   113538 
  115871   116124   117376   118991   117640   109443    93564    72915 
   51673    31569    11330    -8255   -23810   -33463   -36748   -34815 
  -30368   -24953   -19517   -14132    -5325     8862    21924    25821 
   21969    16902    11796     4218    -3543    -6860    -7931   -11269 
  -14819   -17319   -22214   -27312   -26713   -22371   -20117   -19469 
  -16188    -9572    -2764     1537     4999    11708    21434    30310 
   37053    42279    45130    43970    37918    28164    17856     8793 
    -716   -12710   -24353   -29563   -27025   -21041   -15077   -10549 
   -8139    -7077    -7330    -8685    -7595    -2831     1571     3462 
    5055     7957    10700    12327    14535    17303    17470    13888 
    8251      118   -12682   -27696   -37461   -37702   -31855   -24666 
  -15175     -967    14198    25366    34801    46005    56482    62860 
   65072    63821    58893    49947    37438    21980     4673   -11818 
  -26639   -42173   -58188   -70024   -74815   -74442   -70858   -62318 
  -46251   -24351    -3038    12565    22769    29268    32216    32192 
   29113    21328     9018    -5873   -21968   -38154   -53543   -66186 
  -72527   -70556   -61049   -47062   -32493   -18747    -5574     5572 
   13520    19764    25314    28680    29509    31359    36869    42799 
   45040    43092    36058    22683     5969    -9362   -21646   -30609 
  -34240   -29751   -17248    -1298    13451    26596    38881    48290 
   52380    51257    46654    39795    29843    14809    -4647   -23339 
  -35492   -40970   -44000   -46312   -46859   -45423   -43178   -41587 
  -39281   -32497   -22334   -13892    -7301      504     8897    15231 
   18427    19086    18684    17953    15531     9501       -7   -10807 
  -21067   -30244   -36455   -36260   -29547   -20225   -10795     -934 
    9017    17534    23991    27956    28036    23450    15609     8092 
    3218    -1235    -6765    -9571    -7183    -2479     2255     7109 
   10860    12552    13328    13919    14366    14575    13715    11901 
   11202    13493    18249    22190    22117    18793    15312    12222 
    8032     2025    -5802   -13788   -18297   -17665   -14340   -10805 
   -5980     1297     8897    14389    16946    15723    10453     3415 
   -1394    -1541     1308     3522     4522     6076     7270     5690 
    1885    -1944    -5381    -8944   -11695   -11836    -8900    -4295 
    -516      781      989     2499     5019     6652     6029     3078 
     342      884     4125     6953     8404    10478    13636    14655 
   11569     7257     4680     1621    -5379   -13919   -18408   -17814 
  -15763   -15517   -17198   -19141   -20555   -20911   -18826   -13535 
   -6331       65     4446     7977    10989    11802     7983    -2160 
  -15963   -26989   -32652   -36742   -43017   -50654   -56646   -59070 
  -57212   -50808   -40446   -28809   -19356   -12067    -4057     4633 
   10636    12765    13515    15175    17462    19270    20745    22588 
   25182    28300    30532    31207    31142    29449    24169    16254 
    8689     2942    -1351    -4199    -4301    -1646     1186     3305 
    7479    14714    20409    19968    15264    10543     6074     -236 
   -8646   -16355   -20078   -19300   -15884   -12207    -9197    -5424 
