Origin Time       2016/04/16 01:46:00
Lat.              32.862
Long.             130.898
Depth. (km)       11
Mag.              5.9
Station Code      KMMH16
Station Lat.      32.7967
Station Long.     130.8199
Station Height(m) 55
Record Time       2016/04/16 01:45:08
Sampling Freq(Hz) 100Hz
Duration Time(s)  300
Dir.              4
Scale Factor      3920(gal)/6170801
Max. Acc. (gal)   371.539
Last Correction   2016/04/16 01:44:53
Memo.             
[...]
    1614     1844     2332     2917     3451     3891     4200     4159 
    3626     2955     2505     2184     1861     1439      742     -110 
    -789    -1152    -1170     -755      140     1315     2427     3216 
    3513     3393     3217     3211     3348     3601     3960     4425 
    4839     4690     3804     2864     2274     1612      898      689 
     858      788      335     -153     -416     -567     -583      -28 
    1178     2477     3468     4326     5259     5985     6072     5532 
    4659     3634     2584     1661     1024      850     1085     1411 
    1731     2181     2620     2694     2410     2059     1646     1018 
     250     -446     -833     -714       13     1296     2689     3520 
    3593     3312     3132     3149     3239     3532     4256     5183 
    5809     5757     4889     3456     1914      517     -615    -1301 
   -1461    -1266     -914     -345      512     1430     2146     2595 
    2793     2848     2942     3203     3723     4369     4695     4521 
    4102     3565     2854     2084     1397      745      218      205 
     819     1596     2056     2241     2471     2668     2394     1709 
    1186      998      943     1082     1604     2366     2930     3044 
    2973     3046     3035     2560     1917     1656     1627     1403 
    1159     1298     1741     2115     2379     2856     3550     3990 
    3929     3444     2597     1629      880      462      396      587 
     780      956     1269     1655     2072     2564     2891     2876 
    2760     2700     2539     2171     1838     1966     2552     3120 
    3305     3101     2761     2444     2062     1597     1140      659 
     246      272      824     1486     1980     2448     3087     3738 
    3961     3780     3727     3860     3738     3368     3094     2919 
    2604     2027     1341      840      457      -65     -521     -561 
    -266      284     1401     3159     4887     5974     6550     6771 
    6344     5048     3095     1119     -257    -1020    -1342    -1075 
    -324      503     1331     2129     2690     3140     3587     3614 
    3078     2456     2058     1773     1381      863      695     1223 
    1973     2518     3057     3608     3905     3892     3643     3227 
    2679     2080     1680     1584     1528     1352     1316     1650 
    1994     1792     1248     1078     1405     1754     1856     1894 
    2079     2250     2211     2165     2304     2545     2836     3139 
    3366     3460     3332     2965     2489     2031     1700     1552 
    1456     1274     1188     1490     2066     2516     2605     2390 
    2146     1988     1705     1380     1382     1687     1998     2124 
    2149     2380     2814     3104     3124     2919     2489     2051 
    1840     1696     1468     1269     1106      960      946     1136 
    1467     1774     2016     2369     2781     2929     2878     2976 
    3215     3384     3410     3348     3352     3470     3567     3455 
    2929     2024     1153      559      152      -28       58      288 
     647     1132     1553     1759     1912     2229     2525     2556 
    2547     2758     3122     3485     3652     3570     3509     3474 
    3143     2673     2351     2008     1621     1329     1148     1291 
    1672     1757     1587     1541     1532     1528     1718     2032 
    2350     2653     2908     3149     3295     3121     2604     2026 
    1711     1619     1461     1335     1586     2123     2571     2834 
    3028     3216     3320     3168     2851     2644     2464     2065 
    1550     1245     1219     1186     1029     1139     1723     2306 
    2533     2662     2919     3169     3098     2423     1448      932 
    1043     1236     1115      954     1266     1908     2430     2900 
    3299     3304     3029     2686     2267     1974     1904     1813 
    1671     1684     1988     2545     3024     3107     2898     2883 
    3418     3801     3102     1962     1555     1838     2104     1844 
    1209     1020     1393     1406      839      520      901     1581 
    1881     1648     1566     2197     3101     3596     3749     3958 
    4141     3943     3373     2789     2393     2032     1577     1281 
    1471     1961     2106     1610     1030     1063     1597     1986 
    1907     1606     1490     1630     1793     1893     2106     2458 
    2781     3080     3325     3199     2624     2003     1760     1944 
    2216     2257     2179     2338     2809     3219     3194     2895 
    2604     2158     1436      732      416      561      791      764 
     826     1417     2271     2966     3414     3544     3339     2989 
    2723     2692     2820     2838     2679     2567     2686     2941 
    3031     2743     2160     1528     1079      985     1188     1412 
    1479     1582     1962     2355     2378     2214     2350     2845 
    3259     3345     3316     3178     2701     2088     1656     1323 
    1010      791      727      932     1343     1725     2064     2443 
    2773     2982     3067     3003     2829     2639     2447     2104 
    1497      926      682      559      465      657     1164     1812 
    2479     3029     3450     3757     3802     3690     3681     3663 
    3410     2893     2280     1916     1870     1800     1639     1671 
    1854     1876     1691     1530     1511     1513     1484     1545 
    1679     1833     2095     2435     2737     2944     2960     2772 
    2561     2428     2283     2065     1836     1649     1499     1470 
    1670     2003     2317     2584     2769     2843     2813     2663 
    2530     2541     2471     2211     2003     1892     1751     1549 
    1263     1058     1164     1416     1613     1895     2308     2646 
    2853     3006     3107     3118     2974     2661     2335     2146 
    2021     1789     1472     1253     1165     1165     1308     1502 
    1590     1736     2052     2330     2462     2459     2372     2446 
    2739     2894     2760     2593     2463     2214     1905     1697 
    1641     1696     1733     1755     1894     2062     2080     1999 
    1895     1710     1628     2018     2751     3257     3321     3152 
    2885     2555     2200     1776     1288      884      709      869 
    1332     1820     2101     2195     2174     2021     1794     1758 
    2129     2694     3094     3331     3377     2993     2441     2243 
    2361     2503     2506     2292     2004     1798     1622     1507 
    1572     1742     1802     1760     1859     2060     2176     2405 
    2841     3104     2947     2501     2106     2117     2364     2286 
    1918     1784     1999     2239     2301     2261     2177     1963 
    1721     1690     1777     1767     1791     2036     2348     2466 
    2404     2405     2563     2716     2750     2683     2554     2409 
    2284     2177     2046     1795     1408     1093     1133     1509 
    1864     2012     2154     2429     2658     2635     2384     2136 
    2046     2078     2217     2500     2785     2837     2713     2693 
    2825     2915     2808     2528     2210     1974     1852     1780 
    1680     1539     1496     1743     2179     2462     2420     2159 
    1863     1700     1758     1944     2125     2284     2435     2594 
    2753     2802     2651     2355     2030     1770     1616     1518 
    1476     1574     1765     1902     2026     2283     2555     2575 
    2421     2377     2437     2400     2193     1939     1813     1798 
    1814     1860     1864     1877     2086     2417     2664     2773 
    2712     2547     2467     2370     2066     1823     1853     1831 
    1576     1445     1728     2200     2431     2290     2032     1899 
    1786     1611     1599     1882     2280     2579     2707     2717 
    2671     2499     2176     1914     1926     2159     2354     2382 
    2388     2474     2497     2362     2173     2005     1844     1717 
    1653     1633     1641     1662     1679     1722     1832     1979 
    2127     2277     2382     2315     2044     1761     1698     1854 
    2051     2198     2299     2359     2406     2452     2480     2453 
    2347     2291     2403     2509     2433     2278     2152     1999 
    1833     1822     2006     2189     2215     2181     2268     2329 
    2079     1765     1875     2263     2373     2145     1934     1839 
    1696     1462     1311     1401     1641     1874     2168     2698 
    3278     3473     3358     3215     2827     2198     1906     2101 
    2331     2367     2357     2407     2486     2484     2361     2275 
    2260     2111     1953     2116     2351     2159     1678     1426 
    1507     1670     1813     1976     2162     2311     2228     1987 
    1946     1925     1627     1454     1610     1797     2058     2461 
    2797     3072     3240     3175     3038     2864     2496     2036 
    1696     1559     1617     1776     1872     1860     1882     2015 
    2138     2150     2134     2175     2130     1950     1953     2222 
    2405     2393     2332     2263     2191     2146     2193     2333 
    2432     2483     2529     2467     2370     2369     2317     2181 
    2151     2185     2113     1910     1582     1216     1031     1081 
    1293     1663     2093     2459     2773     2928     2849     2713 
    2520     2210     1956     1766     1600     1595     1700     1792 
    1920     2099     2345     2645     2780     2703     2690     2813 
    2873     2814     2668     2428     2087     1655     1313     1321 
    1585     1809     1957     2123     2284     2444     2582     2599 
    2577     2682     2807     2740     2458     2105     1859     1693 
    1499     1462     1698     1899     1919     1953     2049     2142 
    2165     2079     2117     2407     2719     2958     3133     3151 
    3122     3165     3147     2942     2280     1047      232      711 
    1351      734     -231      222     1825     2980     3390     3861 
    4259     3655     1894       45     -697     -376      656     2350 
    2834      483    -1482      916     5477     6725     3727      982 
    1496     2586     1487     1154     4624     8017     7272     5980 
    7601     8441     6007     3747     3791     3603     -715    -8814 
  -13120    -8448     -934     2154     3028     4337     1454    -5871 
   -7633      978    11469    15124    13063    10085     6880     2421 
   -1917    -4008    -3498    -3121    -6432   -11368   -11486    -6519 
   -1670     3711    11942    17841    16781    12140     9731    10735 
   10739     5268    -4504   -13423   -19159   -22934   -24054   -19713 
   -8749     4465    10154     5360     1379    10540    28228    35950 
   28500    20921    21495    24023    24009    21056    14368     4702 
   -5949   -17158   -29488   -39741   -39910   -26703    -7812     5472 
   10563    16201    25864    29335    21873    11371     3009    -4114 
  -10670   -17165   -22679   -24683   -24954   -25435   -23323   -18511 
  -11094     1513    16429    28347    35224    36424    33322    30206 
   30465    31371    28461    21718    11176    -3428   -19409   -32047 
  -36305   -33148   -27243   -16977    -1480    11117    15715    18130 
   24039    28656    19572    -4766   -26048   -31234   -27026   -21500 
  -16070   -11085    -5346     1380     4933     4266     3956     4555 
    5595    12371    25807    38089    40993    33963    26999    29570 
   38437    41624    34140    24991    17660     4336    -8807   -11103 
  -13607   -22848   -21219    -1508    11756    -8172   -48450   -74472 
  -79386   -66459   -33153     2859    21384    16318    -1942     -677 
   26055    46207    43134    24662    12987    17904    16397     1302 
  -10021   -20207   -36980   -45345   -27029     6593    23878    23374 
   27928    35861    24433   -14542   -48564   -40616   -18551   -23015 
  -34419   -34049   -36089   -40344   -29517      186    35509    75487 
  123704   154823   147330   120812   102536    86423    50076      -36 
  -28733   -25371   -28523   -61524   -94171  -113694  -135154  -144305 
 -131090  -101457   -46064    13894    44823    63641    85777    99558 
  109471   128825   147052   136113   102425    81361    69782    44996 
   10023   -29202   -64784   -76932   -69065   -69790   -85017   -90359 
  -82311   -82494   -74983   -31149    21559    47091    51687    59454 
   86827   115303   109532    80717    68858    73067    58915    21225 
  -15811   -45693   -69147   -78871   -86845  -104828  -111963   -94995 
  -76195   -71072   -68333   -62435   -62106   -66376   -64264   -49828 
  -25815    -3233    16086    43942    76600   107548   152336   212554 
  256859   263934   250417   233270   205879   174385   147111   108552 
   63894    31904      931   -30748   -46056   -53984   -62442   -57205 
  -34829    -6969     9858     9019     7626    22847    54462    87768 
   99702    91187    84927    82550    80440    86328    89028    76773 
   65095    64969    65561    55121    31805      -66   -32526   -57022 
  -75058   -98046  -130298  -165178  -196828  -222989  -240200  -247426 
 -249956  -250944  -246676  -235495  -221010  -204187  -180772  -147076 
 -107905   -75567   -57271   -50994   -53469   -65913   -90012  -119978 
 -146293  -164194  -174002  -183115  -201899  -228167  -252464  -276652 
 -305855  -335846  -361694  -377322  -373794  -356375  -337116  -313487 
 -280563  -244710  -209024  -163607  -102914   -36264    30000   100901 
  176751   248772   312275   369189   416052   446536   471003   503223 
  538177   568573   587084   581026   550728   505928   456732   414569 
  375288   323706   261316   197686   132357    64825      753   -53559 
  -94683  -123562  -142162  -149742  -144840  -130073  -110852   -89661 
  -68493   -51226   -40527   -36098   -34645   -33995   -31733   -22964 
   -7915     8792    26595    47422    68495    84006    91163    88974 
   78489    65494    54062    40676    20824    -5305   -34251   -58246 
  -69954   -70386   -63143   -49795   -34812   -24060   -20121   -23067 
  -30819   -39711   -45113   -39070   -17168    11828    34931    48185 
   56326    63662    67341    62449    47032    21836    -6680   -29718 
  -42721   -45942   -42084   -32551   -21353   -17898   -25216   -33083 
  -31432   -24961   -23578   -26607   -28342   -26344   -18190    -4168 
    5910     3792    -9515   -35515   -72923  -110110  -137487  -151653 
 -151057  -131432   -94529   -55764   -17776    30554    80164   116621 
  146658   177080   201218   213590   216814   213506   203253   191274 
  178079   149753   100675    40778   -19423   -76308  -133591  -188779 
 -229476  -251028  -259410  -261393  -258603  -245157  -216423  -175757 
 -126860   -70793   -12743    37722    77292   110474   136857   150931 
  150702   137654   116511    93685    75274    65715    61058    52540 
   37780    19653     1518   -14894   -31334   -49846   -69066   -86724 
 -103175  -117960  -126443  -126206  -120547  -110550   -92933   -69398 
  -45455   -20193     8260    35203    57420    77765    99968   125751 
  153660   178108   193426   198981   197014   187944   171088   146194 
  113513    76175    38993     4461   -25144   -47696   -66206   -84601 
  -99446  -105456  -104731  -102143   -98191   -90984   -80184   -67708 
  -54733   -39893   -23729    -9942     -149     7079    12975    16358 
   13825     4301    -7101   -12963   -11857    -8434    -5240     -873 
    6451    17005    28117    37902    47161    52879    52107    49020 
   45162    35731    19961     2178   -14158   -28221   -41987   -58414 
  -77366   -94975  -107536  -113659  -113365  -108024  -100001   -90340 
  -76919   -57830   -36733   -19074    -5857     4477    13535    21943 
   29266    35815    41188    44403    46239    46903    45244    41086 
   35139    26860    15273     2434    -9365   -19854   -26571   -26865 
  -21104   -10251     3001    15263    27398    41409    56539    72269 
   87971   100089   105276   103391    95983    85921    75645    63134 
   45699    25792     7280    -7402   -15541   -17321   -16291   -13234 
   -5485     9215    30727    55971    80355   100837   117275   129264 
  134991   133228   122040    99947    69094    34933     3038   -26440 
  -56379   -85474  -109573  -125173  -132067  -133598  -131921  -126902 
 -117524  -102843   -83659   -62291   -42515   -27578   -17327   -10749 
   -7262    -6140    -8568   -15876   -26611   -38126   -48822   -58720 
  -67245   -72080   -72143   -67758   -58345   -43448   -25345    -7067 
   12741    36441    61858    86064   107382   123741   134577   140959 
  143038   139848   130444   114196    93415    74645    61038    49218 
   36964    24030    10026    -2820   -12940   -21860   -30723   -39830 
  -48296   -54970   -61333   -68402   -74142   -77587   -80518   -83847 
  -86083   -86147   -85346   -85182   -84071   -78808   -70156   -61987 
  -54473   -45401   -35409   -26275   -18885   -13154    -7937    -3147 
    -103      -34    -2579    -5217    -5767    -3231     1824     6204 
    8320    10561    15346    22688    30009    34587    36563    36016 
   32328    27892    25341    23503    20018    15338    11717     9604 
    7446     4051      801     -707    -1589    -1479      284     1068 
    2606    10083    21705    32196    40947    50057    58828    64472 
   66516    65180    59314    49483    38437    28299    18427     6624 
   -7154   -20146   -29242   -33437   -33232   -28522   -20410   -11184 
    -740    11367    22629    30044    32829    31892    28514    23525 
   16764     8670     1429    -4552   -11013   -17732   -24063   -30637 
  -36356   -39289   -39224   -36410   -30026   -19151    -5314     8557 
   22088    35780    47570    55417    60093    63674    66853    67983 
   65351    59471    52287    45217    37917    28583    16249     2331 
  -11846   -26282   -39542   -50033   -57595   -61524   -61643   -57970 
  -49780   -38848   -28492   -19123    -8770     2655    12164    17338 
   18062    15183    11172    10086    12931    16155    18457    23252 
   31858    41251    48313    51213    49321    44480    39014    32582 
   23762    12860     2119    -6290   -11641   -13402   -11257    -6124 
     178     5874    10888    14891    15220    11648     7356     2857 
   -4188   -13579   -22415   -29407   -35286   -40842   -46830   -53170 
  -58757   -62150   -60404   -51437   -38986   -28315   -17690    -2142 
   17616    36913    52160    61506    65775    67256    66396    62224 
   54130    42634    29814    17650     6751    -2638   -11354   -20721 
  -29403   -35272   -39142   -43150   -46608   -46302   -40763   -30838 
  -18257    -5183     7376    18710    27158    31710    31591    25742 
   15275     3510    -7693   -18947   -30120   -39167   -44158   -44413 
  -41339   -37746   -34203   -28946   -21681   -14555    -9902    -7324 
   -4089      544     4543     6815     7727     6817     4188     2411 
    3150     5260     8016    11594    15553    19941    25034    30045 
   33649    34664    33288    31095    27957    21683    12327     2921 
   -4783   -10372   -12823   -13057   -13349   -12903    -9300    -2946 
    4015    10490    15280    17184    16725    14517    10442     5242 
     407    -3192    -5970    -8744   -10839   -10726    -8698    -5849 
   -1980     2255     4389     3808     2834     2330      496    -2318 
   -2900     -342     2664     3785     3037     1183     -940    -2437 
