Origin Time       2016/04/14 21:26:00
Lat.              32.742
Long.             130.808
Depth. (km)       11
Mag.              6.5
Station Code      KMMH14
Station Lat.      32.6345
Station Long.     130.7521
Station Height(m) -40
Record Time       2016/04/14 21:26:37
Sampling Freq(Hz) 100Hz
Duration Time(s)  300
Dir.              1
Scale Factor      2940(gal)/6170270
Max. Acc. (gal)   84.476
Last Correction   2016/04/14 21:26:22
Memo.             
[...]
  -43943   -43944   -43945   -43944   -43944   -43944   -43945   -43946 
  -43945   -43944   -43944   -43944   -43945   -43945   -43943   -43944 
  -43944   -43943   -43943   -43945   -43945   -43945   -43946   -43945 
  -43944   -43945   -43945   -43945   -43945   -43945   -43946   -43946 
  -43944   -43945   -43946   -43946   -43944   -43942   -43944   -43947 
  -43946   -43945   -43944   -43944   -43944   -43943   -43942   -43945 
  -43944   -43943   -43945   -43947   -43945   -43943   -43943   -43943 
  -43944   -43945   -43944   -43944   -43946   -43946   -43945   -43943 
  -43944   -43944   -43943   -43944   -43944   -43944   -43943   -43943 
  -43943   -43944   -43945   -43945   -43944   -43943   -43944   -43946 
  -43946   -43945   -43946   -43947   -43944   -43943   -43943   -43943 
  -43944   -43946   -43945   -43945   -43946   -43944   -43943   -43945 
  -43945   -43942   -43942   -43944   -43945   -43945   -43944   -43945 
  -43947   -43945   -43943   -43945   -43945   -43944   -43945   -43944 
  -43943   -43943   -43944   -43943   -43944   -43946   -43943   -43941 
  -43945   -43947   -43944   -43944   -43945   -43945   -43945   -43945 
  -43944   -43944   -43943   -43943   -43945   -43946   -43946   -43946 
  -43944   -43943   -43944   -43943   -43943   -43943   -43945   -43945 
  -43944   -43945   -43944   -43943   -43945   -43945   -43943   -43943 
  -43944   -43945   -43945   -43943   -43944   -43945   -43943   -43944 
  -43945   -43944   -43943   -43943   -43943   -43943   -43944   -43944 
  -43944   -43946   -43943   -43942   -43945   -43945   -43944   -43946 
  -43945   -43943   -43944   -43945   -43945   -43946   -43946   -43945 
  -43945   -43945   -43945   -43945   -43945   -43944   -43943   -43943 
  -43944   -43945   -43945   -43946   -43946   -43945   -43945   -43945 
  -43944   -43944   -43945   -43944   -43943   -43942   -43942   -43944 
  -43945   -43943   -43944   -43946   -43946   -43944   -43945   -43946 
  -43943   -43943   -43946   -43944   -43942   -43944   -43943   -43943 
  -43944   -43946   -43946   -43944   -43943   -43945   -43945   -43943 
  -43945   -43946   -43943   -43945   -43948   -43945   -43944   -43945 
  -43945   -43945   -43944   -43944   -43944   -43943   -43943   -43943 
  -43944   -43944   -43943   -43943   -43945   -43946   -43946   -43944 
  -43942   -43943   -43946   -43945   -43944   -43945   -43944   -43945 
  -43946   -43944   -43944   -43945   -43943   -43943   -43946   -43945 
  -43945   -43946   -43945   -43945   -43944   -43944   -43945   -43946 
  -43946   -43945   -43945   -43945   -43941   -43940   -43946   -43947 
  -43943   -43942   -43943   -43942   -43942   -43944   -43943   -43942 
  -43942   -43943   -43945   -43944   -43943   -43944   -43944   -43945 
  -43945   -43943   -43943   -43944   -43943   -43944   -43944   -43943 
  -43944   -43944   -43943   -43945   -43945   -43943   -43946   -43947 
  -43943   -43942   -43944   -43945   -43945   -43944   -43944   -43944 
  -43942   -43942   -43944   -43944   -43943   -43943   -43945   -43945 
  -43944   -43946   -43946   -43944   -43943   -43944   -43944   -43944 
  -43945   -43945   -43944   -43942   -43943   -43943   -43944   -43946 
  -43946   -43945   -43945   -43944   -43943   -43943   -43944   -43945 
  -43943   -43942   -43944   -43944   -43944   -43945   -43945   -43944 
  -43945   -43944   -43943   -43944   -43945   -43945   -43944   -43943 
  -43944   -43944   -43943   -43944   -43945   -43945   -43944   -43941 
  -43943   -43945   -43943   -43943   -43945   -43947   -43944   -43942 
  -43942   -43944   -43945   -43945   -43945   -43946   -43946   -43945 
  -43944   -43943   -43944   -43946   -43945   -43945   -43946   -43946 
  -43945   -43944   -43945   -43946   -43945   -43944   -43943   -43941 
  -43942   -43945   -43945   -43942   -43943   -43943   -43944   -43944 
  -43943   -43942   -43942   -43943   -43944   -43946   -43946   -43943 
  -43941   -43942   -43944   -43945   -43945   -43942   -43941   -43944 
  -43945   -43944   -43943   -43945   -43945   -43943   -43943   -43945 
  -43945   -43945   -43946   -43944   -43942   -43942   -43945   -43945 
  -43945   -43944   -43944   -43943   -43942   -43945   -43944   -43942 
  -43944   -43944   -43942   -43942   -43944   -43944   -43944   -43945 
  -43944   -43944   -43947   -43947   -43944   -43942   -43944   -43945 
  -43945   -43945   -43943   -43943   -43943   -43944   -43946   -43946 
  -43943   -43943   -43944   -43944   -43944   -43945   -43945   -43945 
  -43944   -43943   -43942   -43944   -43946   -43945   -43945   -43946 
  -43945   -43944   -43945   -43945   -43944   -43944   -43944   -43944 
  -43944   -43945   -43946   -43947   -43946   -43944   -43944   -43944 
  -43946   -43945   -43944   -43943   -43943   -43944   -43944   -43944 
  -43945   -43945   -43945   -43945   -43948   -43956   -43974   -44024 
  -44106   -44142   -44143   -44232   -44327   -44338   -44503   -44757 
  -44659   -44303   -44101   -44017   -43706   -43291   -43400   -43585 
  -42818   -41968   -42384   -43358   -43786   -43969   -44189   -44084 
  -44065   -44344   -44249   -44296   -45015   -45403   -45215   -45003 
  -44698   -44608   -44812   -44424   -43826   -43775   -43396   -42864 
  -43149   -43481   -43635   -43778   -43148   -42705   -43070   -43044 
  -43143   -43852   -44432   -45033   -45830   -46160   -45303   -44432 
  -44609   -45080   -45560   -44861   -43925   -45153   -45267   -43428 
  -43675   -44814   -44333   -43713   -43844   -43786   -44311   -46017 
  -46969   -47147   -47475   -47804   -48403   -48495   -48596   -49575 
  -50036   -50277   -50990   -51314   -50669   -48619   -45355   -42978 
  -44180   -47058   -47343   -45666   -43868   -41875   -40861   -41184 
  -41563   -43527   -47441   -48356   -45452   -43057   -43849   -47258 
  -48635   -49557   -54588   -57173   -54417   -52757   -54646   -57518 
  -57468   -54991   -51039   -45980   -47333   -52866   -52645   -54058 
  -58219   -50736   -40411   -42575   -46981   -47113   -49434   -50783 
  -46287   -40441   -36392   -32400   -33535   -42153   -44934   -40848 
  -41351   -41636   -40766   -45235   -48349   -48169   -49463   -50325 
  -49285   -49141   -51357   -49402   -45242   -49050   -52395   -49040 
  -44676   -40382   -43437   -51931   -51766   -44194   -34602   -26869 
  -26924   -29787   -32640   -36958   -38100   -39751   -39893   -32185 
  -34438   -52531   -62983   -54190   -34586   -21277   -24339   -33830 
  -42155   -52601   -59920   -54221   -36678   -18160    -8228   -12781 
  -25037   -28311   -30911   -41031   -42306   -38637   -34040   -25055 
  -31671   -40717   -25433   -19730   -44016   -65985   -71052   -62752 
  -49334   -45335   -39647   -26637   -31672   -48855   -47426   -37311 
  -35554   -30642   -25125   -25809   -27456   -34642   -42552   -41965 
  -34112   -25700   -27126   -31519   -38645   -55617   -67747   -72634 
  -68946   -53954   -50233   -55773   -48633   -39955   -44052   -47684 
  -48302   -56634   -59255   -50181   -42953   -34609   -26378   -26962 
  -28553   -33256   -52921   -69145   -57774   -37902   -35446   -41205 
  -46552   -51643   -46833   -36988   -38337   -46388   -44538   -36781 
  -36423   -38720   -42593   -45213   -40776   -47719   -59313   -53270 
  -43854   -31732   -16233   -21765   -39162   -47465   -48195   -40116 
  -31801   -27724   -14654    -8262   -27425   -47989   -48945   -41872 
  -38753   -37047   -30831   -20909   -23549   -43205   -52821   -43324 
  -32976   -29982   -29606   -23902   -16882   -15854   -17653   -17805 
  -15282   -22993   -40290   -42527   -35753   -36784   -34161   -33164 
  -51068   -69658   -71843   -65691   -55825   -52916   -58178   -54499 
  -50657   -54138   -49957   -46852   -57110   -66498   -71377   -81889 
  -87351   -81607   -87048  -103033  -104610   -97032   -97216   -99730 
  -93602   -81148   -74391   -77247   -82010   -85399   -87641   -88196 
  -97278  -114853  -115747   -97105   -82042   -73510   -67150   -68152 
  -71460   -64858   -42321   -13899    -4071   -19536   -44263   -67182 
  -85235   -97596  -105639  -110336  -112616  -111756  -105550   -98109 
  -95146   -91296   -86767   -88295   -82248   -64030   -53818   -49549 
  -34768   -14764    -3975   -12052   -39569   -69316   -82040   -80229 
  -74938   -64587   -46611   -28223   -15156    -7935    -6928   -13082 
  -24840   -33002   -26037     -916    32558    59213    75651    84389 
   83277    78399    74964    65012    48247    36195    32974    30575 
   23785    19590    23623    34566    47906    51224    41653    34458 
   32037    26697    22936    17380     -845   -21839   -31587   -34933 
  -36817   -35386   -32610   -28096   -23323   -18360    -4517     6064 
   -4095   -20646   -34263   -53186   -69873   -69042   -51899   -34051 
  -25295   -25696   -32102   -39135   -49585   -62720   -66669   -63590 
  -59053   -46545   -27651   -12538    -3814     4178    11388    11824 
    5885    -5079   -16648   -23247   -31811   -41396   -38405   -26551 
  -20054   -19858   -23938   -38011   -58199   -70079   -71781   -73589 
  -78983   -79340   -70955   -67023   -74715   -80619   -77022   -75216 
  -81919   -89275   -94873  -104218  -111988  -110033  -103835   -98944 
  -92320   -86952   -91351  -102169  -108700  -112457  -119884  -124353 
 -120482  -116366  -114272  -109381  -106262  -108917  -109851  -106829 
 -106212  -102863   -89945   -77413   -73578   -73291   -72471   -72891 
  -72536   -67896   -63961   -62893   -60080   -58998   -61522   -66079 
  -77283   -86320   -84853   -83017   -76318   -64291   -66420   -70720 
  -61332   -60528   -69788   -66330   -60527   -67191   -73547   -72541 
  -67384   -59729   -56489   -56089   -47004   -31402   -16007     2214 
   17901    23225    27861    36140    35726    27989    28786    36674 
   38611    39024    45586    45361    33005    25618    25355    19449 
    9635     1577    -6011   -13877   -20773   -24669   -26149   -26605 
  -27852   -32918   -35438   -29583   -25581   -27441   -28376   -34529 
  -48689   -57536   -58721   -61392   -65074   -62090   -54127   -48272 
  -40090   -29835   -27056   -26393   -23661   -24407   -27480   -35707 
  -44229   -40731   -38781   -47250   -53423   -59219   -65724   -66386 
  -68913   -72827   -65362   -48759   -35953   -34212   -36467   -29222 
  -18284   -16766   -20890   -32005   -52868   -65221   -61967   -57718 
  -57819   -60750   -65046   -60384   -46837   -42790   -46866   -41032 
  -27990   -16477   -12815   -25706   -41405   -49275   -63379   -76510 
  -74692   -72597   -78758   -85872   -91361   -95236  -100380  -111992 
 -123471  -122991  -122827  -133640  -131049  -109010   -92666   -86333 
  -79932   -68506   -59306   -65050   -69169   -61600   -71463   -98843 
 -110760  -105911  -102836  -104010  -101961   -93395   -81318   -73330 
  -75754   -80556   -74986   -64905   -61636   -58958   -46551   -28817 
  -13530    -1810     3419     2530     4582    10635    11651    10193 
   16383    25042    31392    43433    55681    56662    54644    59595 
   62063    48065    23078     5015     -551     -728     1102     7656 
   17307    24862    26234    14655    -5906   -15350   -13510   -17237 
  -15364     1907    16930    30401    43274    36185    16610     1213 
  -10756   -20584   -37388   -57326   -61838   -60844   -67334   -72451 
  -75522   -84406   -96569  -100529   -93040   -81031   -65679   -50621 
  -43229   -36818   -29255   -31985   -41702   -45431   -37406   -21182 
  -15839   -27784   -38606   -47246   -60578   -65160   -64283   -75894 
  -85179   -78243   -76754   -83356   -75238   -60751   -58539   -59386 
  -60035   -68592   -79006   -88463   -96231   -97944  -107247  -128122 
 -139234  -135668  -124894  -109688  -103882  -109120  -105293   -98532 
 -104505  -102228   -84356   -76457   -75860   -69926   -73728   -89541 
  -93992   -78886   -63594   -57841   -51937   -47313   -42669   -30604 
  -24689   -29217   -29991   -31696   -38475   -33940   -23726   -36600 
  -63840   -69526   -54089   -39797   -26519   -10010    -5069   -15962 
  -23964   -27939   -43352   -62375   -67085   -60426   -53754   -43547 
  -33440   -49457   -78210   -78772   -71418   -80493   -83423   -80149 
  -79728   -79457   -88737   -96832   -85010   -60448   -33436   -10225 
    6415     9122   -12754   -30814   -19117    -8214    -6506    12877 
   38177    53991    69252    70348    49138    34847    32096    15938 
   -4325    -8642    -5830    -3102      248    -1435    -5242     1117 
   15059    19381    16406    21057    23812    18367    16647    11178 
    -797     -624     4450    -4764   -21546   -34585   -41607   -44558 
  -49668   -56902   -60830   -63029   -67415   -71312   -71725   -71027 
  -70212   -69324   -70548   -69825   -57331   -34311   -20629   -29379 
  -47817   -61948   -68923   -69015   -68969   -67987   -65730   -81995 
  -99099   -72885   -50508   -80700   -78916   -33144   -38572   -47490 
  -20352   -23817   -31748   -24395   -28359   -25329   -21251   -27872 
  -37157   -44644   -41929   -31805   -29822   -42502   -47504   -37175 
  -36769   -41638   -32189   -13588     2866    10534     9037     4188 
    3731    10131    19516    24159    20700    24476    31735    21953 
   14327    15199     4668    -9329   -28848   -51490   -58075   -70797 
  -98304  -115281  -131431  -154154  -166121  -166680  -156627  -138524 
 -129520  -130948  -130043  -123609  -115839  -110736   -99799   -76510 
  -59907   -62996   -78777   -96631  -107213  -125581  -155615  -168490 
 -180612  -210920  -221432  -210066  -195282  -163310  -126702   -92301 
  -41665     4088    29026    52459    68665    67260    63400    53696 
   26917    -1012   -26697   -56281   -64232   -43682   -26526   -22938 
  -23276   -22920   -12904     4676    13958    22024    38382    37696 
   12374   -13579   -36122   -50412   -43283   -34949   -47994   -61914 
  -55069   -46585   -55913   -68620   -68245   -64490   -70023   -76771 
  -78369   -78039   -69314   -53667   -46265   -41929   -26053    -9119 
   -8270   -21004   -33200   -35677   -36101   -47043   -61455   -63361 
  -53757   -49612   -58488   -65461   -61139   -52539   -39158   -22821 
  -16961   -23859   -36312   -45420   -37061   -10635    13135    17756 
    8611     2180     3245     3610     1896     5449    15026    26017 
   38313    51142    63098    76729    85754    76861    55087    35915 
   15845    -8330   -25006   -35682   -43253   -43248   -48013   -62724 
  -75311   -84862   -87922   -77554   -66282   -61299   -56744   -62394 
  -80344   -91353   -95702  -102560  -104802  -103202  -106528  -112177 
 -107902   -92754   -85648   -88563   -87121   -85806   -85712   -81726 
  -83873   -86140   -74763   -65036   -68078   -77865   -96188  -119665 
 -141827  -158158  -154727  -140278  -135242  -125362  -103779   -85626 
  -66645   -46175   -31493   -16379    -3138     6175    16252    17079 
    8468     2672    -6093   -20244   -27073   -28109   -35357   -45952 
  -48132   -42899   -41611   -48290   -56973   -62119   -64697   -65341 
  -60916   -54346   -52617   -53989   -53295   -51403   -45277   -31675 
  -20274   -13226    -4212     -514    -2722    -3936   -10809   -21751 
  -30411   -40502   -44391   -39833   -42078   -49697   -51335   -49594 
  -49940   -49986   -47458   -47302   -46261   -35130   -22228   -14727 
   -6414     1703     9062    17473    20146    18576    19614    16887 
    7778     1855    -1405    -7905   -10911    -6553     -252     6105 
   11562    15474    17325    16888    18347    18270    11150     3195 
   -4206   -14516   -24931   -34826   -45122   -56885   -70669   -79018 
  -77531   -72923   -69941   -68129   -67250   -65314   -63038   -65050 
  -65425   -59468   -59124   -65054   -67698   -72697   -79966   -82513 
  -88063   -97024   -98718   -97195  -100603  -105808  -107353  -104358 
 -100236   -96347   -91196   -87095   -85659   -87253   -92162   -91926 
  -83404   -77773   -74730   -66078   -60016   -63032   -65207   -63399 
  -64518   -67982   -70152   -70114   -68661   -70275   -71171   -64082 
  -58370   -60351   -60337   -57493   -57453   -56056   -51482   -49544 
  -50447   -48062   -42447   -40308   -41314   -40338   -39516   -40373 
  -39521   -39489   -44876   -51140   -52138   -52025   -54161   -51978 
  -44084   -36165   -29237   -22502   -17228   -13646    -8878     -811 
    8967    17475    19379    16077    16555    18312    16887    15319 
   10555     4054      660    -6529   -15582   -15791   -12897   -14918 
  -19166   -23526   -25558   -24117   -23827   -24890   -22642   -21180 
  -27185   -34691   -37930   -42071   -47083   -46766   -43390   -41533 
  -40487   -41028   -42868   -43254   -42851   -40873   -38391   -42448 
  -51178   -57418   -62756   -65795   -61410   -56750   -57786   -54916 
  -45215   -39617   -40247   -43422   -50029   -54016   -51940   -53180 
  -57092   -56200   -56888   -62253   -65237   -67008   -70772   -73479 
  -73980   -73076   -71571   -68986   -64428   -63129   -67859   -72805 
  -75995   -76306   -70900   -67806   -72014   -74422   -74233   -78426 
  -83236   -82657   -78949   -76659   -76366   -76327   -77610   -80082 
  -79001   -74856   -72673   -70351   -65135   -59665   -52640   -44487 
  -40990   -38996   -34597   -33236   -35615   -39040   -43298   -44522 
  -42534   -41265   -38243   -33662   -32742   -31881   -26971   -24483 
  -27550   -30563   -30026   -27299   -25315   -23752   -19793   -15781 
  -14526   -14786   -17113   -20435   -21903   -22010   -20533   -18987 
  -20458   -21349   -18670   -16094   -16594   -18900   -18417   -14093 
   -9915    -6219    -4300    -8167   -14236   -17056   -16648   -14052 
  -10298    -7138    -6551    -9454   -14742   -19697   -21783   -21409 
  -19063   -15298   -13122   -12939   -14173   -17780   -22348   -27104 
  -32357   -36209   -38583   -42126   -46904   -50615   -53480   -56273 
  -56548   -54447   -53575   -53670   -54282   -57431   -60500   -61070 
  -62158   -63644   -64136   -66441   -70052   -73139   -77310   -81038 
  -83302   -84471   -80725   -75878   -77117   -78531   -76619   -76803 
  -77702   -77677   -80251   -82974   -81255   -76081   -70566   -67249 
  -66152   -65903   -64758   -59840   -55414   -57535   -60071   -58409 
  -55929   -52226   -47981   -45428   -43313   -42605   -43615   -44320 
  -46873   -51800   -53202   -50869   -50948   -52255   -52705   -55266 
  -57401   -56889   -57427   -58486   -56896   -54096   -53969   -57046 
  -58901   -57326   -54871   -51535   -46202   -42388   -43127   -46919 
  -50358   -50475   -47837   -44501   -40674   -37146   -32620   -25756 
  -21466   -20842   -19250   -17566   -16747   -14187   -10799    -8882 
   -8361    -7824    -6913    -6751    -7603    -9447   -10078    -7349 
   -5682    -7345    -8849   -10184   -10898    -8758    -7272    -8488 
   -8778    -9397   -12703   -15159   -16546   -18251   -18881   -21955 
  -29671   -37178   -42606   -46495   -46269   -42043   -37832   -35243 
  -35455   -41777   -51175   -55128   -54721   -55803   -56049   -55540 
  -57237   -57441   -56412   -57585   -58912   -59578   -59224   -58210 
  -60589   -64950   -67603   -69307   -68800   -66521   -66906   -68438 
  -67599   -67058   -67929   -66590   -63577   -62024   -61769   -64628 
  -71300   -74533   -71679   -69071   -68164   -66531   -64804   -63196 
  -62529   -64266   -65477   -63160   -59194   -55514   -52190   -50926 
