Origin Time       2016/04/14 21:26:00
Lat.              32.742
Long.             130.808
Depth. (km)       11
Mag.              6.5
Station Code      KMMH16
Station Lat.      32.7967
Station Long.     130.8199
Station Height(m) 55
Record Time       2016/04/14 21:26:36
Sampling Freq(Hz) 100Hz
Duration Time(s)  300
Dir.              4
Scale Factor      3920(gal)/6170801
Max. Acc. (gal)   759.771
Last Correction   2016/04/14 21:26:21
Memo.             
[...]
    -775     -770     -763     -761     -765     -774     -777     -775 
    -783     -793     -789     -785     -785     -782     -776     -772 
    -765     -748     -740     -750     -760     -764     -773     -785 
    -790     -788     -774     -765     -772     -783     -787     -787 
    -785     -786     -792     -789     -775     -763     -757     -753 
    -754     -757     -767     -780     -784     -779     -776     -774 
    -772     -768     -765     -769     -778     -779     -774     -783 
    -795     -786     -770     -765     -763     -758     -761     -774 
    -784     -783     -781     -779     -761     -745     -752     -761 
    -768     -780     -784     -777     -775     -781     -785     -787 
    -789     -785     -777     -768     -762     -768     -782     -788 
    -784     -775     -759     -750     -755     -759     -765     -777 
    -783     -781     -777     -774     -775     -779     -789     -800 
    -794     -779     -770     -764     -757     -755     -760     -774 
    -781     -777     -770     -760     -750     -750     -761     -770 
    -776     -784     -793     -794     -785     -776     -774     -772 
    -766     -764     -771     -774     -773     -778     -783     -784 
    -789     -788     -774     -764     -763     -760     -757     -759 
    -765     -771     -777     -784     -788     -784     -781     -772 
    -768     -781     -796     -799     -793     -781     -771     -762 
    -751     -750     -761     -770     -772     -774     -776     -776 
    -779     -785     -786     -777     -767     -767     -769     -770 
    -775     -783     -786     -792     -789     -764     -750     -758 
    -757     -757     -770     -773     -769     -771     -773     -772 
    -778     -792     -802     -801     -791     -779     -768     -756 
    -750     -759     -771     -771     -772     -774     -764     -759 
    -771     -784     -786     -779     -771     -767     -761     -751 
    -744     -747     -765     -781     -779     -784     -798     -801 
    -801     -807     -806     -793     -772     -756     -754     -751 
    -743     -749     -759     -755     -757     -770     -785     -798 
    -800     -789     -775     -761     -754     -764     -782     -795 
    -804     -810     -801     -773     -750     -743     -736     -734 
    -754     -776     -789     -804     -811     -796     -768     -745 
    -742     -754     -769     -781     -799     -809     -793     -767 
    -751     -752     -768     -779     -777     -774     -772     -772 
    -784     -800     -807     -798     -782     -769     -759     -749 
    -749     -762     -772     -780     -783     -776     -767     -761 
    -759     -764     -765     -763     -773     -782     -772     -765 
    -777     -786     -786     -794     -799     -790     -779     -769 
    -757     -751     -749     -754     -770     -783     -788     -793 
    -797     -794     -783     -768     -747     -725     -718     -731 
    -753     -774     -794     -818     -835     -828     -803     -780 
    -762     -749     -744     -739     -735     -746     -768     -779 
    -778     -780     -783     -785     -794     -806     -801     -781 
    -759     -738     -730     -739     -763     -795     -810     -802 
    -793     -779     -764     -761     -764     -767     -766     -761 
    -761     -769     -776     -785     -799     -804     -790     -770 
    -748     -729     -724     -733     -754     -780     -801     -813 
    -822     -820     -796     -765     -744     -735     -741     -757 
    -769     -772     -771     -772     -772     -767     -766     -775 
    -787     -797     -797     -778     -763     -770     -780     -777 
    -770     -759     -746     -743     -748     -756     -775     -802 
    -820     -820     -803     -782     -766     -756     -753     -760 
    -773     -772     -758     -748     -737     -723     -723     -741 
    -765     -792     -818     -829     -818     -793     -781     -789 
    -797     -795     -787     -774     -750     -725     -717     -725 
    -750     -789     -817     -824     -799     -751     -726     -734 
    -748     -763     -786     -800     -796     -784     -777     -771 
    -761     -761     -774     -784     -782     -787     -797     -794 
    -778     -767     -764     -755     -744     -746     -763     -770 
    -758     -752     -762     -779     -791     -796     -793     -784 
    -771     -767     -782     -794     -789     -789     -795     -788 
    -769     -753     -750     -751     -740     -726     -733     -753 
    -771     -789     -809     -820     -812     -793     -776     -766 
    -763     -766     -779     -789     -779     -761     -756     -756 
    -751     -752     -769     -784     -783     -781     -786     -782 
    -768     -766     -774     -777     -774     -772     -775     -777 
    -768     -758     -767     -789     -804     -810     -812     -802 
    -771     -735     -722     -730     -745     -765     -787     -802 
    -805     -789     -763     -750     -749     -750     -773     -809 
    -819     -805     -797     -794     -778     -766     -776     -791 
    -796     -792     -781     -765     -749     -739     -742     -754 
    -769     -780     -781     -776     -771     -766     -764     -770 
    -781     -792     -804     -813     -811     -799     -788     -777 
    -763     -756     -757     -765     -781     -794     -788     -766 
    -751     -743     -734     -745     -774     -782     -774     -780 
    -788     -786     -784     -788     -792     -791     -784     -786 
    -793     -789     -789     -793     -780     -763     -754     -747 
    -741     -736     -733     -746     -772     -797     -816     -821 
    -812     -800     -787     -772     -763     -755     -741     -751 
    -785     -804     -816     -826     -808     -775     -743     -716 
    -711     -725     -749     -787     -825     -838     -822     -791 
    -764     -748     -750     -769     -779     -774     -770     -768 
    -771     -774     -779     -790     -796     -787     -771     -756 
    -746     -751     -776     -801     -813     -812     -801     -787 
    -769     -745     -740     -755     -770     -779     -781     -780 
    -784     -777     -759     -752     -751     -751     -759     -777 
    -798     -805     -802     -801     -797     -785     -770     -767 
    -773     -771     -767     -772     -771     -759     -750     -746 
    -752     -764     -774     -782     -791     -793     -791     -791 
    -787     -777     -770     -770     -771     -765     -761     -769 
    -787     -803     -809     -803     -794     -779     -759     -744 
    -732     -725     -741     -767     -787     -799     -797     -791 
    -784     -769     -760     -767     -777     -787     -798     -803 
    -800     -787     -767     -749     -740     -741     -747     -760 
    -776     -783     -777     -775     -781     -784     -775     -768 
    -769     -771     -772     -772     -776     -789     -800     -799 
    -789     -776     -762     -749     -739     -737     -757     -786 
    -799     -799     -802     -802     -786     -770     -772     -776 
    -765     -748     -750     -766     -774     -779     -796     -814 
    -809     -782     -763     -758     -753     -752     -768     -791 
    -792     -779     -772     -764     -752     -749     -764     -789 
    -804     -799     -785     -769     -754     -749     -750     -761 
    -780     -787     -779     -774     -773     -773     -776     -785 
    -791     -789     -782     -766     -745     -741     -752     -765 
    -786     -812     -822     -810     -782     -751     -732     -728 
    -734     -749     -774     -794     -801     -804     -800     -783 
    -771     -767     -762     -757     -758     -763     -771     -776 
    -777     -779     -784     -782     -781     -786     -783     -774 
    -773     -769     -758     -757     -775     -789     -787     -774 
    -763     -753     -745     -750     -767     -784     -798     -808 
    -800     -780     -771     -769     -766     -766     -769     -771 
    -773     -778     -786     -791     -781     -767     -769     -772 
    -767     -769     -779     -780     -774     -772     -772     -770 
    -771     -777     -782     -784     -781     -773     -769     -767 
    -769     -777     -787     -795     -798     -797     -789     -770 
    -747     -733     -727     -732     -758     -789     -805     -805 
    -800     -794     -784     -773     -768     -771     -782     -787 
    -782     -774     -764     -752     -751     -764     -777     -782 
    -787     -790     -791     -788     -783     -778     -773     -765 
    -757     -751     -747     -751     -765     -781     -791     -800 
    -808     -813     -807     -785     -763     -757     -752     -741 
    -737     -747     -763     -777     -789     -799     -802     -794 
    -788     -789     -779     -756     -741     -748     -767     -783 
    -792     -794     -784     -771     -770     -775     -779     -784 
    -790     -790     -778     -761     -755     -755     -757     -762 
    -769     -779     -779     -774     -776     -778     -775     -782 
    -792     -796     -795     -788     -781     -775     -761     -747 
    -751     -758     -762     -770     -773     -764     -762     -763 
    -759     -763     -779     -791     -798     -806     -804     -792 
    -780     -770     -762     -756     -756     -772     -789     -784 
    -773     -769     -764     -763     -770     -777     -777     -772 
    -763     -757     -755     -759     -771     -786     -794     -796 
    -796     -790     -778     -773     -779     -782     -780     -776 
    -770     -761     -753     -751     -755     -764     -772     -777 
    -785     -786     -773     -767     -771     -769     -770     -780 
    -786     -792     -798     -791     -781     -776     -767     -761 
    -768     -781     -785     -780     -774     -763     -753     -754 
    -763     -771     -776     -786     -798     -795     -779     -764 
    -760     -767     -776     -783     -793     -800     -800     -794 
    -778     -758     -747     -751     -760     -764     -774     -789 
    -792     -776     -754     -733     -733     -795     -923    -1031 
    -969     -788     -860    -1322    -1561     -850      244       93 
   -1260    -2522    -3583    -2883      923     4249     4572     2569 
    -817    -1243     1549      -58    -6105    -9910    -9452    -4266 
    2117     3937     3218     2115     -241    -1842    -2360    -3231 
   -3561    -1099     4354     8458     6770      811    -3967    -4414 
   -2633    -2668    -3551    -4296    -8153   -10587    -5635      179 
    1249      469     -575    -1806    -2201    -1753       99     1362 
   -3478   -10984   -10655    -1756     7671    12216    11998     8204 
    2607    -3285   -10854   -13448    -7865    -7250    -7820     1146 
    3522    -9319   -24183   -36802   -46127   -40778   -21215    -1630 
   15472    28858    37561    55917    73611    59215    21787   -13114 
  -38576   -52866   -65628   -75267   -63128   -33136    -1405    12634 
   -5769   -33307   -41496   -34595   -25378   -20691   -19596   -11596 
    6661    27661    46856    63150    71769    65942    46921    27326 
   14542    -3074   -29605   -53601   -85577  -126069  -137163  -112036 
  -82364   -58373   -26229     6654     8635   -12055   -29402   -45755 
  -36788     9244    52148    82494    96376    78087    61721    63413 
   46836     2551   -52228  -100335  -113205   -87215   -64164   -58645 
  -33117    17889    42576    17235   -13769   -21374   -37572   -64589 
  -70954   -75558   -92919  -103017  -117382  -127283   -52761   119491 
  258215   278854   255218   234327   171561    83102     8240   -77466 
 -162910  -199853  -176273  -100360   -26496   -41813  -126007  -169915 
 -151383  -112924   -61536    -1535    59327   126628   186383   207186 
  180987   129986    82509    62875    66439    55790    27773     4708 
  -30458   -90334  -146944  -170256  -143158   -81932   -33059    -2705 
   36871    64221    44642     6002   -36557  -108659  -169000  -153379 
  -80319     9946    94331   137103   134238   133783   162739   189879 
  182728   145960    88428    16050   -55237  -119459  -179144  -225882 
 -241272  -215639  -149365   -34526    95987   164918   165065   150244 
  148215   164659   182748   175771   148253   111108    63361    20210 
  -11039   -53577  -107302  -129846  -101973   -56523   -18832    21711 
   66564    90022    67589     -356   -89313  -162634  -187344  -159473 
 -116300  -106484  -127031  -138081  -149463  -187025  -230713  -263166 
 -276297  -254331  -199087   -97588    74250   269626   417487   538333 
  682929   819076   891491   897268   857716   823590   833357   842780 
  822645   788580   726141   640342   547821   457371   414216   409768 
  387463   364985   367729   365145   322686   212450    33038  -179976 
 -382694  -512827  -551426  -589545  -675945  -740772  -749241  -715986 
 -666735  -654746  -651515  -585592  -498774  -473285  -491137  -454292 
 -344798  -230523  -120091   -24649    -1232   -31718   -63242   -91437 
 -126660  -179983  -245546  -301698  -343356  -372021  -392218  -404023 
 -401272  -393067  -375371  -324308  -240652  -133405     5172   167907 
  328062   466980   582626   688053   811011   937120   963930   865512 
  759021   685097   620734   592119   571976   518713   404702    93818 
 -491243 -1056198 -1168810  -973591 -1001553 -1189326 -1196244 -1123814 
-1062884  -961957  -857221  -728318  -593507  -505896  -454164  -456850 
 -498905  -532205  -565249  -589271  -554201  -457770  -353544  -256799 
 -112546    95566   303152   460801   556302   581266   537112   450979 
  403341   468945   608708   733542   819726   888948   955026   999306 
 1001970   986655   968868   925936   843988   731467   597462   440807 
  282039   165906    99119    50535    -7611   -83909  -165053  -250661 
 -346835  -433095  -504948  -581757  -669792  -772932  -882622  -956212 
 -942684  -834869  -692653  -562274  -422893  -258965   -76962   120154 
  318203   521008   735144   927035  1058812  1059498   856010   535113 
  273957   147637   103524    40884   -58926  -160143  -259142  -307889 
 -288174  -257264  -210577  -155968  -139825  -134441  -110702   -86030 
  -68924   -53552   -31356    -7376     6877    12721     2587   -31340 
  -75358  -123332  -175205  -214142  -220118  -191381  -149673  -103353 
  -45599    -1626    14511    32912    55949    56839    36125    11416 
   -5817    -6065    26749    94049   179159   275268   353450   385337 
  386548   351222   270395   169088    57566   -53062  -139524  -199127 
 -254731  -329958  -416250  -488119  -545213  -606535  -670648  -713335 
 -731540  -743210  -739176  -718958  -705739  -688396  -662074  -626044 
 -551207  -455263  -381349  -321568  -252422  -171989   -75318    45893 
  170199   265356   333293   396252   460768   512885   537738   545461 
  554717   564341   583500   633911   701506   760144   809801   836961 
  815856   757195   684092   598419   502733   409414   322373   233897 
  139528    44639   -43409  -114370  -160101  -196171  -236904  -269132 
 -292267  -317123  -328661  -312732  -287887  -283993  -301752  -317952 
 -325387  -320328  -288411  -235810  -179865  -119482   -46476    33564 
  106918   168925   215628   232797   207968   152082    97866    60107 
   35199    33692    67575   137988   228778   302329   344378   368445 
  379340   385022   388642   369776   312999   229806   144190    63669 
  -14210   -80826  -134845  -187320  -238569  -279644  -307957  -325292 
 -326199  -307336  -283758  -264756  -239511  -207806  -175668  -136720 
  -94301   -61563   -39779   -22921    -5673    14099    33398    50644 
   67861    84481    94729    93594    80359    47486   -16216   -99946 
 -177491  -241486  -293247  -313927  -302109  -294802  -300264  -289606 
 -257228  -218919  -182720  -143750   -94680   -40486    15677    84212 
  166550   248986   325732   402513   475800   531779   559953   552731 
  510239   445631   377020   316308   253615   176852   108513    66199 
   27895   -14668   -42218   -48484   -43550   -40305   -36100   -19107 
   -1891      786     2305    15194    32495    45980    55764    64408 
   71800    72551    60497    34343    -3062   -43254   -78632  -111357 
 -144323  -175166  -204313  -234264  -263750  -292849  -322283  -345618 
 -358553  -368176  -378818  -379946  -357412  -307834  -240733  -175064 
 -124015   -81514   -38216     7567    62421   135471   227566   328161 
  418851   485471   517525   503524   446619   375778   317800   264805 
  199393   125841    54997    -6656   -56790   -94174  -114106  -123828 
 -132717  -128495  -105404   -80956   -65204   -53545   -46903   -52562 
  -66791   -82748  -107467  -138389  -167306  -202675  -235366  -255186 
 -281068  -306567  -312490  -314322  -320005  -315388  -298352  -274924 
 -243972  -200097  -140184   -69056     3326    71403   132342   184790 
  234594   284166   321901   334442   317378   274731   219433   172990 
  154104   154240   148731   137710   128542   115447   106271   107767 
  108817   106710   110407   123627   136836   141408   141251   133091 
  107660    66237    16765   -26898   -60301   -99439  -148988  -196076 
 -240164  -285824  -325564  -354700  -377401  -392937  -391981  -370519 
 -338732  -303399  -259101  -204438  -142316   -72069     2298    70722 
  132051   190805   242002   284378   324462   357152   370765   363513 
  337510   288827   225507   167065   114821    63831    18926   -14763 
  -34759   -47728   -57959   -58106   -55019   -62108   -68141   -64006 
  -62930   -63628   -53599   -39628   -28017   -12355    12411    48060 
   86797   116396   137125   152384   159309   156103   143746   122113 
   88911    45014    -7736   -65876  -115976  -151334  -177867  -192401 
 -187357  -166171  -136221  -101315   -65144   -33457   -11135     3222 
   21295    54695    98416   138673   170177   194077   211937   223154 
  223420   208982   177953   128838    61031   -21088  -104035  -178224 
 -246111  -305296  -348888  -377640  -387830  -372411  -338702  -294310 
 -233799  -161855  -101208   -62481   -26001    23980    73911   115080 
  144831   152010   144708   126920    74019   -18547  -113301  -175213 
 -209104  -233110  -247098  -242046  -215894  -182786  -151611  -111681 
  -62739   -12977    45391   119287   198725   276368   355908   424838 
  446207   394910   291211   190244   126244    77782    16201   -51993 
 -122536  -199199  -259249  -286606  -293610  -279891  -241702  -197371 
 -152457  -100408   -54414   -23051     3919    37853    87613   151090 
  221041   300467   382768   436614   427760   339468   187719    32185 
  -75612  -143802  -186483  -201252  -215558  -253202  -295756  -308112 
 -272913  -214451  -151660   -65340    36308   115748   172101   228782 
  289886   339549   362989   363518   351087   320785   263664   191438 
  124688    60429   -16070  -100150  -178499  -247086  -303721  -342166 
 -353533  -330145  -273771  -196063  -112698   -34287    39405   106430 
  161065   207772   249275   279720   301327   319069   329389   324743 
  296364   248030   201000   163273   119821    62786     2544   -47714 
  -82922  -106550  -124324  -140345  -154662  -165499  -178574  -198241 
