Origin Time       2016/04/14 22:07:00
Lat.              32.775
Long.             130.848
Depth. (km)       8
Mag.              5.8
Station Code      KMMH16
Station Lat.      32.7967
Station Long.     130.8199
Station Height(m) -197
Record Time       2016/04/14 22:05:02
Sampling Freq(Hz) 100Hz
Duration Time(s)  300
Dir.              2
Scale Factor      2940(gal)/6170270
Max. Acc. (gal)   98.479
Last Correction   2016/04/14 22:04:47
Memo.             
[...]
   76327    76264    76364    76361    76227    76356    76422    76157 
   76179    76430    76403    76328    76329    76291    76341    76429 
   76422    76368    76326    76343    76393    76356    76286    76272 
   76273    76328    76439    76522    76509    76414    76369    76311 
   76223    76327    76481    76516    76610    76694    76611    76506 
   76532    76639    76691    76626    76523    76477    76499    76582 
   76609    76499    76486    76600    76553    76424    76433    76505 
   76618    76758    76749    76597    76506    76501    76466    76441 
   76495    76503    76445    76398    76348    76401    76478    76415 
   76380    76399    76356    76329    76337    76325    76337    76397 
   76422    76385    76354    76392    76471    76470    76428    76460 
   76475    76410    76355    76375    76446    76490    76503    76531 
   76528    76513    76528    76463    76365    76382    76425    76428 
   76456    76500    76548    76538    76476    76523    76619    76675 
   76665    76504    76379    76453    76547    76550    76537    76547 
   76478    76356    76336    76370    76408    76435    76378    76311 
   76330    76373    76362    76356    76412    76466    76517    76530 
   76437    76402    76497    76553    76557    76588    76605    76625 
   76638    76533    76379    76316    76363    76520    76683    76687 
   76526    76365    76324    76351    76375    76419    76454    76419 
   76361    76339    76345    76359    76369    76386    76369    76309 
   76285    76273    76265    76342    76423    76423    76387    76329 
   76278    76298    76400    76534    76622    76622    76569    76524 
   76486    76440    76410    76379    76384    76484    76591    76595 
   76509    76440    76408    76358    76341    76380    76431    76482 
   76472    76391    76375    76431    76432    76381    76347    76356 
   76406    76457    76500    76567    76655    76672    76572    76452 
   76410    76431    76476    76506    76489    76442    76409    76416 
   76480    76546    76526    76466    76456    76455    76406    76350 
   76356    76419    76463    76470    76453    76416    76399    76395 
   76367    76345    76348    76360    76384    76422    76478    76544 
   76578    76552    76491    76435    76417    76432    76457    76486 
   76502    76504    76501    76495    76504    76538    76569    76558 
   76525    76527    76524    76473    76448    76474    76476    76424 
   76367    76360    76384    76398    76410    76437    76473    76497 
   76467    76385    76314    76288    76281    76278    76296    76344 
   76380    76387    76395    76394    76362    76338    76341    76340 
   76321    76301    76308    76367    76430    76439    76426    76402 
   76376    76381    76385    76375    76380    76412    76467    76506 
   76483    76391    76315    76360    76468    76536    76544    76457 
   76346    76323    76363    76477    76591    76565    76500    76530 
   76530    76367    76331    76523    76506    76370    76444    76539 
   76599    76631    76516    76394    76363    76400    76491    76525 
   76515    76549    76526    76427    76450    76539    76514    76443 
   76383    76384    76425    76421    76498    76625    76622    76508 
   76377    76329    76370    76454    76505    76432    76338    76345 
   76384    76365    76332    76387    76475    76501    76476    76408 
   76368    76448    76493    76392    76355    76464    76548    76534 
   76468    76435    76483    76510    76431    76364    76430    76501 
   76470    76473    76513    76481    76457    76446    76380    76345 
   76387    76457    76484    76465    76500    76563    76538    76464 
   76399    76357    76389    76463    76486    76453    76437    76468 
   76454    76394    76384    76417    76447    76433    76390    76385 
   76397    76416    76438    76443    76497    76531    76477    76442 
   76445    76453    76466    76459    76455    76474    76504    76497 
   76444    76445    76506    76538    76530    76491    76455    76450 
   76450    76472    76510    76519    76509    76518    76531    76525 
   76560    76602    76539    76450    76449    76520    76600    76605 
   76526    76464    76421    76354    76360    76418    76424    76397 
   76337    76336    76436    76456    76415    76409    76400    76396 
   76376    76339    76328    76329    76340    76366    76400    76460 
   76518    76481    76345    76268    76299    76348    76413    76471 
   76463    76453    76480    76473    76439    76465    76491    76435 
   76398    76467    76574    76665    76710    76679    76578    76403 
   76181    76059    76157    76366    76492    76550    76684    76849 
   76850    76558    76121    75962    76196    76453    76481    76332 
   76169    76132    76240    76405    76527    76559    76493    76437 
   76560    76718    76630    76385    76226    76185    76188    76242 
   76401    76576    76588    76421    76255    76251    76372    76477 
   76510    76497    76501    76510    76438    76365    76390    76393 
   76350    76414    76569    76668    76691    76655    76530    76406 
   76371    76373    76384    76403    76432    76495    76546    76556 
   76532    76478    76484    76539    76525    76473    76451    76447 
   76438    76435    76439    76393    76310    76270    76327    76500 
   76666    76687    76613    76534    76459    76399    76394    76434 
   76462    76475    76478    76448    76399    76372    76383    76385 
   76334    76325    76412    76496    76557    76607    76583    76482 
   76391    76385    76396    76451    76563    76506    76463    76610 
   76566    76402    76417    76457    76395    76303    76314    76389 
   76386    76404    76424    76304    76265    76450    76584    76624 
   76686    76547    76336    76373    76391    76261    76225    76303 
   76340    76235    76128    76197    76347    76500    76603    76582 
   76608    76674    76596    76471    76386    76298    76234    76272 
   76389    76449    76468    76505    76501    76443    76435    76537 
   76631    76598    76497    76472    76541    76551    76430    76273 
   76246    76321    76256    76137    76241    76497    76644    76569 
   76480    76527    76529    76471    76436    76427    76563    76637 
   76440    76392    76578    76656    76658    76581    76496    76505 
   76338    76208    76359    76363    76249    76359    76565    76694 
   76696    76617    76538    76453    76501    76578    76446    76320 
   76300    76328    76384    76395    76566    76794    76767    76640 
   76500    76333    76224    76214    76251    76241    76362    76625 
   76714    76661    76614    76564    76506    76423    76326    76299 
   76362    76411    76465    76519    76413    76270    76224    76214 
   76334    76555    76702    76759    76758    76723    76632    76484 
   76385    76311    76224    76199    76213    76298    76423    76315 
   76008    75863    75909    75897    75796    75828    76033    76103 
   76055    76211    76310    76147    76050    76059    76076    76137 
   76204    76376    76695    77003    77364    77863    78269    78547 
   78832    78844    78467    78043    77596    76866    75942    75210 
   74833    74695    74680    74789    75090    75495    75773    75831 
   75864    76100    76329    76224    75999    76101    76408    76588 
   76814    77048    77020    76918    76741    76441    76338    76440 
   76627    76843    76854    76590    76221    75881    75717    75779 
   75841    75889    76142    76588    77189    77671    77636    77358 
   77179    76931    76503    75989    75630    75536    75581    75858 
   76242    76425    76532    76594    76662    76890    77002    76939 
   76967    77021    76894    76678    76660    76817    76909    76925 
   76936    76832    76537    76172    75919    75946    76158    76232 
   76085    75911    75934    76086    76085    75980    75989    76006 
   75893    75918    76248    76614    76801    76831    76832    76932 
   77014    76884    76671    76506    76216    75867    75689    75636 
   75673    75769    75873    76059    76342    76652    76906    77101 
   77254    77274    77175    77095    77060    76953    76686    76343 
   76096    76045    76123    76193    76258    76451    76708    76791 
   76738    76697    76609    76495    76419    76301    76083    75819 
   75641    75705    76013    76385    76684    76802    76732    76670 
   76677    76686    76692    76641    76531    76461    76458    76433 
   76346    76316    76325    76284    76369    76609    76726    76701 
   76694    76741    76819    76808    76696    76636    76573    76432 
   76336    76297    76189    76016    75935    76001    76108    76265 
   76418    76477    76538    76522    76473    76634    76779    76681 
   76547    76500    76550    76614    76498    76326    76219    76110 
   76101    76111    76091    76221    76264    76089    76138    76441 
   76526    76459    76543    76607    76608    76659    76581    76497 
   76550    76459    76232    76130    76215    76311    76286    76335 
   76454    76466    76511    76615    76663    76680    76536    76255 
   76142    76181    76156    76065    76119    76304    76308    76239 
   76322    76450    76590    76643    76591    76621    76573    76446 
   76519    76668    76760    76778    76628    76416    76262    76227 
   76389    76490    76359    76254    76230    76218    76257    76306 
   76413    76543    76508    76399    76430    76611    76795    76761 
   76504    76363    76476    76558    76474    76410    76425    76390 
   76311    76303    76356    76437    76539    76575    76560    76619 
   76731    76726    76599    76469    76342    76326    76466    76545 
   76552    76572    76492    76402    76502    76642    76648    76561 
   76411    76296    76280    76296    76364    76409    76392    76468 
   76500    76417    76484    76696    76888    76954    76848    76737 
   76686    76665    76708    76717    76631    76544    76505    76451 
   76343    76242    76285    76488    76575    76414    76267    76280 
   76341    76420    76551    76660    76599    76369    76213    76303 
   76464    76553    76596    76534    76452    76461    76448    76409 
   76426    76562    76709    76635    76506    76493    76491    76547 
   76602    76506    76353    76243    76171    76107    76080    76163 
   76238    76159    76035    76083    76276    76346    76275    76278 
   76369    76410    76395    76429    76519    76523    76423    76402 
   76505    76575    76553    76443    76255    76182    76330    76464 
   76425    76286    76246    76493    76804    76850    76656    76412 
   76281    76238    76157    76128    76289    76470    76453    76245 
   76080    76331    76684    76533    76164    75902    75845    76212 
   76697    76940    76894    76639    76477    76444    76510    76786 
   77003    76817    76168    75640    75989    76596    76588    76344 
   76119    75900    76122    76586    76817    77029    77141    76727 
   76104    76022    76320    76338    76291    76259    76136    76322 
   76705    77015    76997    76665    76687    76643    76241    76395 
   76828    77207    77901    77989    77031    75850    74915    75046 
   75742    75786    77127    78781    77123    74857    74353    74768 
   76852    79342    79390    76412    75026    77733    77939    76147 
   78282    78047    73929    74754    76622    75306    77953    80214 
   75385    72093    74227    76625    77383    77188    77878    78842 
   78296    76684    75468    77306    79752    77816    75212    75917 
   75463    74284    77838    80776    79030    77640    74710    70458 
   72329    78285    80793    79897    79963    76541    70273    73189 
   77433    76004    79362    80046    73748    74206    81373    83365 
   76681    73581    76399    75010    76741    80852    77620    73098 
   69976    72494    80103    79101    74361    76835    79982    79572 
   79083    79986    81783    78001    69966    70874    78933    85056 
   84459    76122    74520    81261    76809    70742    81470    85986 
   71305    60497    62998    74464    83593    82800    85472    83342 
   63341    51021    60116    83445   112843   122371   103958    75145 
   40110    22479    53596   100605   121571   118741    94511    67138 
   68918    92544   105615    97098    88291    80671    60529    58453 
   80585    89678    91994    97190    89421    74105    51959    35855 
   63101   109963   127085   116609    84823    39211    13958    29847 
   79115   125347   129747   104376    83980    75075    59251    39860 
   41234    43417    31681    30940    46868    77647   107691   123032 
  133686   125247    90496    54248    46205    76816    96762    77944 
   63392    66993    79372    85992    73772    78405    83654    47455 
   17585    25855    53152    76490    82825   100151   126003   132567 
  145440   153017   123155    94845    76979    48608    39395    69146 
  110036   126518   110354    86098    76095    61677    38806    39367 
   53370    57628    49633    28692     7137   -21020   -72563  -112593 
  -74390    22103    91026   129942   150593   126369    75244    28976 
   23133    55104    74286    75503    51946    20188    46712   105512 
  131789   125513    93988    35586   -36230   -86667   -93511   -70951 
  -32701     4600    15746    10492     1151   -34817   -73135   -56389 
     457    57387   116562   186781   250638   283123   273602   223477 
  168449   140671   122984   119920   145115   168522   174843   161492 
  108738    27989   -36350   -60663   -39537    31924   126551   198137 
  234442   250074   248074   214371   151780    88962    55505    68238 
  111248   151670   180194   188533   168671   144108   125233    95254 
   52334     2825   -39012   -55779   -45646    -3585    62079   113215 
  123831   100352    65501    34251     7562    -4748    14258    52872 
   77448    70884    41052    12382      214     4870    22774    31145 
   17277     8306    22400    44765    68165   101236   140344   175341 
  191909   167010   116835    94688   111058   140288   171669   199146 
  222417   241785   239433   214794   191550   169113   127542    73378 
   34899    21399    25806    52828    97719   129623   130804   112751 
   86771    55238    40007    62274    97818   119032   125891   122489 
  112989    96987    77188    57221    33382    15241    15329    36339 
   70781    97662   107796   101241    86185    86648    92233    75550 
   48149    25352     7548    -5145    -7519    11781    39241    46486 
   39787    45303    63809    74931    70225    59747    58886    71844 
   82807    75111    53246    33562    18493     2814    -7389    -2944 
   23766    68080   106088   123328   121800   108256    93835    81512 
   71273    71272    77935    77095    69441    64521    61429    56822 
   51510    39728    20829     9114    11725    24555    45297    64702 
   69867    68321    73418    77559    71663    62983    59049    57648 
   58823    65132    71217    77565    87841    94164    95939    97541 
   97366   100144   106452   109591   109646   105995    93084    75262 
   65817    64616    66299    73615    80701    83813    89917    95185 
   92934    86370    80647    79842    81128    80460    82767    86687 
   83220    73766    68568    74057    86089    93217    90984    88397 
   89637    88478    84259    75373    60818    50693    44597    37489 
   39037    47368    51911    57932    67246    74157    80898    87044 
   87870    86514    86815    85095    79624    74453    73112    77039 
   82662    84404    85320    88846    89717    85419    80074    77986 
   80333    83656    83448    80302    77780    76090    74231    71762 
   71493    76483    79087    77155    77437    77603    80072    87947 
   93038    94506    93029    84187    72552    64644    62442    67055 
   72887    73273    73649    80131    84939    81919    77678    76681 
   78654    83265    86905    88848    90318    90125    89917    88950 
   85606    85044    87701    88835    88640    87004    84397    83556 
   83364    81960    78209    72083    64866    56355    51302    55491 
   64965    73060    77363    76713    70801    63187    57002    53902 
   56735    62286    66041    68725    70630    72933    76510    81694 
   87222    87531    85074    84397    80930    76813    76266    73871 
   68881    65079    61282    58546    60839    67348    73868    77026 
   78334    79821    77063    71062    69646    72881    76910    80032 
   81179    82211    84379    86148    87380    88064    88635    89453 
   86891    81741    81532    86905    91934    92883    89245    84358 
   82695    83739    83458    81905    81778    83511    86504    88063 
   87036    86527    86440    84615    82159    80700    79781    77393 
   73584    71415    70436    68630    69148    72435    73763    73064 
   72750    73155    75604    78096    75638    71042    69446    68813 
   68663    70999    72872    73984    76626    77702    77805    79677 
   77849    70181    63859    63971    67936    70372    70698    71790 
   73454    72910    69431    65426    63222    64143    69254    75042 
   75770    74582    76889    79155    78665    78415    78936    77609 
   73620    70476    71811    75793    80331    85362    87424    85686 
   84511    84292    83068    80564    77248    75838    76591    77395 
   80110    84443    86060    85034    84238    83375    81242    79371 
   80756    84887    86905    85037    81570    79240    80083    80237 
   75833    70882    68536    67954    67463    66113    66747    70481 
   74101    76042    76614    76533    76196    74224    69657    65512 
   65787    68462    69515    69260    68397    67563    66771    63457 
   60097    62366    67889    70581    71312    74484    79213    81535 
   79748    75664    72511    71090    72413    76154    79280    83557 
   88900    90196    88491    85649    81278    78676    77047    73576 
   72515    75811    79785    83996    87064    83510    75979    72956 
   74164    75620    75965    74612    73398    72711    72304    74329 
   78016    79689    78400    77607    78340    77470    76007    76118 
   75593    73795    73111    73792    74248    74345    74053    72556 
   71648    73616    75852    75929    75692    75646    76860    81119 
   84637    83880    80589    77734    75655    73549    73273    74077 
   73287    72944    74326    76985    81263    83643    81124    77015 
   74170    72112    70682    69835    69734    70029    69475    68339 
   67355    67941    72907    80843    86097    86697    84332    80222 
   76637    75677    76129    76107    74408    70683    67696    68145 
   72107    78623    84596    86042    83053    80273    80604    82106 
   83226    85000    85958    82375    76304    74733    79901    86480 
   88046    84926    82037    81056    80678    80330    79438    77083 
   74309    71923    69923    70481    72967    74413    75345    75992 
   75982    76710    77740    77598    77054    76452    75026    72979 
   70956    71029    72765    72397    71190    72005    74135    77385 
   81238    82852    81003    78782    77541    75973    75596    76433 
   77396    78661    77759    75661    75659    75965    76351    77968 
