Origin Time       2016/04/15 00:03:00
Lat.              32.700
Long.             130.777
Depth. (km)       7
Mag.              6.4
Station Code      KMMH16
Station Lat.      32.7967
Station Long.     130.8199
Station Height(m) 55
Record Time       2016/04/15 00:03:27
Sampling Freq(Hz) 100Hz
Duration Time(s)  300
Dir.              5
Scale Factor      3920(gal)/6170801
Max. Acc. (gal)   590.160
Last Correction   2016/04/15 00:03:12
Memo.             
[...]
    1466     1471     1513     1502     1428     1404     1455     1483 
    1474     1506     1541     1533     1544     1562     1536     1526 
    1574     1595     1542     1510     1523     1489     1437     1486 
    1614     1681     1657     1626     1587     1510     1469     1500 
    1535     1562     1624     1659     1595     1509     1491     1493 
    1449     1426     1498     1592     1635     1643     1614     1522 
    1436     1431     1448     1409     1349     1356     1446     1547 
    1619     1677     1743     1827     1898     1875     1722     1541 
    1429     1316     1161     1113     1249     1436     1560     1667 
    1757     1744     1635     1515     1424     1382     1426     1524 
    1581     1583     1603     1641     1613     1526     1476     1468 
    1427     1387     1450     1592     1711     1752     1689     1543 
    1415     1366     1361     1390     1521     1734     1864     1838 
    1761     1670     1495     1302     1237     1283     1344     1418 
    1505     1548     1566     1651     1768     1803     1742     1646 
    1548     1444     1378     1391     1411     1395     1422     1501 
    1528     1489     1473     1513     1554     1575     1597     1603 
    1587     1616     1688     1707     1676     1668     1648     1540 
    1415     1370     1363     1337     1347     1442     1548     1595 
    1604     1606     1616     1624     1577     1491     1413     1405 
    1500     1562     1529     1581     1725     1733     1604     1523 
    1486     1410     1363     1382     1412     1489     1661     1806 
    1810     1744     1656     1496     1337     1303     1355     1393 
    1435     1549     1661     1641     1553     1516     1481     1416 
    1438     1536     1558     1506     1501     1551     1584     1614 
    1704     1782     1739     1635     1577     1527     1449     1429 
    1463     1444     1431     1496     1524     1475     1475     1561 
    1614     1593     1624     1697     1644     1486     1366     1301 
    1271     1322     1497     1717     1832     1836     1786     1634 
    1420     1286     1254     1296     1413     1583     1744     1823 
    1835     1842     1793     1645     1481     1342     1191     1079 
    1110     1286     1506     1681     1794     1813     1728     1615 
    1464     1287     1246     1351     1452     1555     1737     1896 
    1864     1699     1586     1544     1447     1314     1294     1378 
    1474     1598     1716     1726     1651     1609     1596     1499 
    1364     1333     1394     1452     1516     1646     1784     1826 
    1752     1580     1339     1127     1041     1062     1162     1408 
    1749     1972     2011     1986     1906     1721     1547     1524 
    1602     1662     1710     1766     1745     1617     1454     1251 
     987      811      868     1045     1208     1423     1700     1885 
    1926     1933     1951     1886     1706     1527     1422     1346 
    1319     1412     1555     1610     1576     1510     1412     1303 
    1261     1340     1502     1666     1783     1824     1767     1684 
    1659     1656     1664     1705     1667     1467     1243     1136 
    1110     1131     1287     1587     1849     1957     1971     1901 
    1695     1443     1281     1233     1257     1355     1511     1628 
    1677     1729     1764     1666     1479     1378     1375     1371 
    1379     1444     1536     1603     1660     1739     1755     1667 
    1580     1518     1407     1288     1264     1318     1391     1503 
    1655     1752     1743     1686     1615     1493     1376     1382 
    1485     1590     1670     1710     1680     1609     1563     1538 
    1507     1473     1455     1443     1420     1441     1554     1695 
    1780     1817     1813     1688     1456     1267     1160     1075 
    1079     1248     1460     1593     1712     1836     1856     1770 
    1689     1637     1544     1435     1409     1440     1450     1487 
    1581     1623     1561     1504     1518     1522     1474     1468 
    1543     1597     1588     1588     1597     1543     1476     1462 
    1444     1427     1506     1626     1669     1669     1675     1639 
    1530     1419     1371     1344     1340     1443     1585     1644 
    1660     1717     1754     1689     1582     1507     1426     1334 
    1314     1381     1434     1441     1501     1609     1682     1736 
    1795     1812     1756     1678     1612     1526     1439     1419 
    1446     1440     1415     1428     1435     1383     1336     1349 
    1375     1389     1456     1550     1575     1588     1660     1712 
    1693     1679     1687     1652     1589     1571     1590     1583 
    1534     1508     1520     1502     1480     1523     1561     1532 
    1517     1542     1500     1426     1469     1582     1619     1607 
    1641     1655     1558     1433     1381     1378     1370     1373 
    1417     1484     1552     1618     1654     1633     1593     1582 
    1550     1465     1429     1492     1561     1603     1671     1739 
    1742     1710     1677     1605     1503     1462     1482     1454 
    1379     1360     1392     1386     1371     1421     1496     1530 
    1554     1600     1620     1591     1579     1597     1593     1588 
    1636     1678     1644     1584     1559     1539     1497     1467 
    1467     1457     1439     1471     1535     1555     1549     1570 
    1560     1494     1481     1530     1521     1462     1470     1529 
    1522     1496     1549     1613     1623     1636     1681     1692 
    1634     1580     1571     1535     1461     1444     1474     1453 
    1412     1432     1459     1443     1438     1476     1511     1528 
    1581     1663     1697     1678     1668     1640     1557     1496 
    1503     1498     1468     1496     1567     1576     1541     1556 
    1590     1561     1519     1528     1531     1485     1465     1503 
    1532     1530     1521     1514     1503     1495     1504     1504 
    1486     1495     1523     1530     1537     1569     1596     1580 
    1562     1593     1622     1610     1614     1648     1636     1581 
    1564     1564     1505     1435     1428     1435     1411     1413 
    1465     1512     1527     1547     1589     1584     1516     1472 
    1493     1523     1551     1609     1675     1685     1654     1619 
    1556     1465     1414     1419     1435     1452     1487     1521 
    1547     1569     1566     1536     1514     1529     1585     1645 
    1679     1691     1710     1727     1639     1448     1349     1419 
    1440     1331     1348     1511     1501     1356     1406     1594 
    1632     1522     1516     1628     1601     1470     1504     1646 
    1707     1721     1694     1582     1509     1536     1511     1391 
    1398     1619     1743     1573     1384     1394     1477     1503 
    1527     1626     1697     1601     1474     1480     1547     1586 
    1582     1482     1342     1364     1510     1551     1512     1504 
    1522     1577     1589     1521     1526     1560     1478     1442 
    1611     1829     1860     1650     1396     1407     1642     1652 
    1420     1423     1584     1498     1349     1503     1772     1718 
    1411     1312     1456     1488     1404     1476     1625     1551 
    1349     1380     1604     1694     1619     1567     1586     1618 
    1667     1693     1569     1357     1337     1571     1746     1660 
    1530     1557     1610     1576     1538     1543     1519     1407 
    1308     1367     1512     1561     1527     1526     1549     1538 
    1488     1434     1475     1624     1704     1653     1611     1629 
    1617     1536     1452     1415     1425     1504     1594     1559 
    1477     1531     1604     1547     1513     1579     1677     1890 
    2157     2182     1911     1542     1187      857      552      344 
     381      637      967     1346     1717     1959     2144     2402 
    2644     2678     2461     2125     1782     1465     1317     1448 
    1622     1567     1356     1165     1042      969      925      919 
     977     1070     1140     1252     1545     1934     2212     2454 
    2788     2957     2670     2084     1466      838      289       65 
     216      553      917     1272     1586     1819     2054     2311 
    2381     2245     2144     2051     1786     1488     1385     1427 
    1446     1408     1379     1313     1103      799      577      605 
     937     1411     1845     2186     2439     2618     2693     2586 
    2298     1907     1486     1073      726      527      488      575 
     771     1053     1363     1624     1819     1985     2111     2174 
    2214     2215     2068     1762     1482     1440     1634     1749 
    1482     1056      969     1107      939      662      943     1661 
    2066     1929     1716     1721     1705     1517     1406     1564 
    1867     2035     1903     1618     1484     1555     1489     1154 
    1015     1272     1376     1128     1158     1741     2206     2070 
    1784     1853     2062     1985     1644     1444     1618     1781 
    1410      727      442      608      612      466      854     1704 
    2134     1969     2063     2740     3110     2586     1796     1499 
    1583     1465     1032      782      959     1150     1113     1322 
    1904     2086     1703     1648     2076     2154     1857     1816 
    1788     1553     1822     2496     2432     1559     1059     1557 
    2245     2275     2145     2347     2231     1539     1257     2026 
    3109     3574     3406     2981     2707     2967     3254     2884 
    2780     3778     4464     3613     2440     2442     3142     3140 
    2557     2821     3793     3821     2746     1695     1032      795 
    1263     1911     1598      489      362     2319     5416     7963 
    9185     9495     9796    10730    12034    12012     8671     3134 
     258     3193     8952    11395     8030     2268    -2183    -5135 
   -5807    -3831    -4683   -11016   -14683   -11002    -7612    -9001 
   -7306     4724    21848    32720    32377    24186    14252     6827 
    2441    -1007    -5154    -8604    -8789    -6829    -5547    -3721 
    1500     9140    15077    16192    12046     3626    -5771    -9984 
   -6334      439     5258     8081     9941     9405     4387    -5041 
  -16300   -25581   -29985   -29340   -25109   -17867    -6823     7382 
   20674    29432    34286    36902    36494    32262    26043    20298 
   14322     3955   -11971   -26390   -31312   -28474   -25418   -22634 
  -13883      433    11576    14068     8518    -2461   -13359   -17502 
  -12263      329    14347    23604    28599    32228    30806    20175 
    3724   -12213   -22846   -24673   -17383    -5664     3754     6929 
    3101    -6460   -16685   -21523   -19116   -11191    -1213     8734 
   19851    31267    37988    36554    27029    10640    -8820   -24264 
  -32599   -38470   -44671   -45860   -37325   -20715     1311    24929 
   42597    49562    46698    36608    23925    13796     5473    -4894 
  -13887   -13752    -5347     2354     3698      153    -5452   -12231 
  -17622   -18475   -16971   -16608   -14121    -2645    18129    39367 
   52051    53136    42244    21331    -2403   -19924   -27912   -31039 
  -33203   -29703   -16012     1894    15155    21476    20994    12802 
   -1577   -17276   -28970   -35283   -39586   -43410   -44100   -41226 
  -38661   -39065   -41820   -47064   -56281   -69190   -84149   -99183 
 -111681  -119787  -123419  -123827  -122500  -120230  -118282  -120001 
 -127337  -135444  -138221  -136584  -132979  -126517  -117976  -110004 
 -102406   -91709   -75494   -56104   -36455   -15445     9136    38910 
   73918   110607   146682   184590   225618   268004   311875   357246 
  400204   437695   471242   504629   540744   578104   611061   634401 
  643758   632929   595817   533587   460281   391484   323692   242984 
  148750    49358   -48836  -145002  -241567  -325467  -380419  -415813 
 -444648  -467030  -484540  -497549  -503881  -502300  -488107  -462389 
 -439598  -427151  -414370  -394437  -373726  -356146  -335792  -309463 
 -287820  -278562  -271220  -256062  -235180  -207448  -168510  -122098 
  -73594   -25102    20426    65185   110833   149256   181391   214882 
  245701   272206   300290   330692   351110   350593   342632   329410 
  291757   239351   185303   124408    66673    20182   -13201   -22780 
  -11496     9679    36400    58549    68374    70077    65220    51287 
   31754    10874   -10355   -31209   -52981   -75527   -96658  -115013 
 -125640  -125113  -114754   -96190   -77195   -65173   -56720   -49648 
  -46557   -47997   -56221   -69562   -79259   -86346   -98303  -111291 
 -119359  -124965  -128337  -123951  -110248   -87888   -59048   -34410 
  -15433     8907    35261    58797    86500   113764   132594   147185 
  158139   159960   149506   126560    97350    68100    34802    -5497 
  -45340   -77286  -102266  -124419  -141262  -149029  -151275  -148688 
 -138025  -123793  -112902  -103869   -93864   -88749   -91836   -98007 
 -106379  -115436  -118411  -114608  -103648   -81930   -53825   -23791 
   11767    52965    95936   140802   187323   231714   273930   319213 
  367759   412925   452509   489746   523304   548823   567118   581086 
  590808   594733   590410   572320   531114   465589   390074   314770 
  233222   138977    33851   -83333  -217052  -364211  -509211  -633421 
 -731063  -803020  -852739  -895130  -927537  -917364  -859278  -786330 
 -705073  -603791  -509346  -441946  -377774  -307280  -245161  -191464 
 -136014   -80578   -29323    22016    66024   101102   147872   204371 
  253420   285393   283272   283066   351942   442425   492672   556564 
  634460   680199   724245   739220   666714   544080   410383   282377 
  171253    58374   -41830  -101968  -138796  -164493  -169085  -148986 
 -121582  -104908   -84368   -49584   -19459     2164    24879    45921 
   65689    90112   114912   131566   138392   131519   105273    61834 
    1204   -73652  -148639  -216847  -277314  -323343  -350160  -360410 
 -358047  -341601  -312736  -276973  -231375  -177533  -127029   -82816 
  -44129   -14217     6552    14737    11948     9563       48   -27932 
  -61361   -94714  -133299  -163766  -169390  -152478  -126120   -95567 
  -56597   -12405    26649    57420    82129   106675   137549   169346 
  198464   229775   256658   271195   272636   257337   226049   180403 
  122501    67118    25536    -5342   -27346   -39771   -46086   -48301 
  -44865   -36141   -24141    -7163    15738    38744    58802    77506 
   91254    94629    85179    61885    27499   -11772   -51221   -89241 
 -123999  -151745  -170962  -183488  -188771  -183964  -167956  -140778 
 -106012   -71541   -42822   -19206     3548    26526    44495    56297 
   71509    93760   111447   118367   118939   112814   100318    83825 
   60749    31445    -1915   -35502   -63609   -87316  -106286  -114626 
 -111485  -101266   -84140   -58388   -31182    -9566     8583    24381 
   34326    38066    38941    38260    38273    41022    44060    49372 
   61197    76911    93391   110535   127483   140979   146508   144253 
  139581   131341   112169    83908    53531    21388   -12150   -41840 
  -63297   -77788   -89244   -97809  -101027   -99073   -94877   -89521 
  -81888   -73864   -69191   -66676   -60363   -48684   -37349   -27905 
  -16610    -6242     2091    14203    25448    28795    30556    35044 
   39728    43868    47426    52471    60390    67937    73029    76277 
   77192    74267    66762    54324    36437    14702    -7755   -29362 
  -47508   -58463   -63608   -67034   -66890   -59387   -46936   -31863 
  -13357     7214    28949    50655    68706    81526    89241    91928 
   88519    77786    62492    45095    23870    -1180   -26862   -50801 
  -71919   -89196   -99910  -101014   -93934   -82245   -67138   -49331 
  -31577   -17667    -8793    -3536     -795     1831     7893    17851 
   29506    40917    52094    64014    74811    83779    94457   106377 
  115042   119267   121463   124034   125414   123201   119277   114878 
  106754    90956    67967    42707    17023   -10951   -40227   -68732 
  -95074  -115785  -128445  -134183  -134318  -128717  -116765   -98959 
  -77672   -55574   -35146   -17715    -1495    14313    27330    37272 
   45173    48772    45248    34112    15735    -7152   -28956   -46073 
  -57006   -59771   -53570   -38645   -16551     8021    30307    48053 
   60284    66478    66015    58418    44819    27711     9362    -8071 
  -22185   -31145   -34130   -30863   -21775   -10295    -1300     3474 
    3948     -825   -10720   -23121   -35734   -49174   -63679   -76956 
  -87854   -97630  -105779  -109516  -108297  -103551   -96167   -86529 
  -74428   -60106   -44284   -27156    -9326     7849    22739    33746 
   39576    39393    33049    21541     7476    -6617   -19278   -28843 
  -35123   -40037   -42932   -39606   -28150   -11358     7074    25203 
   42573    58237    70070    77615    82249    84309    82653    75774 
   62796    43912    20404    -5231   -30092   -52089   -70157   -83567 
  -90968   -91751   -87653   -79220   -65970   -50706   -34724   -16178 
    3464    20754    33768    41714    44300    41260    33058    20716 
    7110    -3333   -10330   -16342   -20012   -17870    -9239     2676 
   13915    24431    35421    43898    46730    45347    42581    39967 
   37169    31706    22208    10100    -3091   -16699   -30451   -43978 
  -55568   -63188   -66627   -66624   -62849   -54732   -43507   -31181 
  -18220    -4299     9507    21413    31170    39611    46477    50775 
   52794    53485    52843    49950    43961    35670    26890    17746 
    7142    -4129   -13496   -20108   -25862   -32332   -38148   -41446 
  -43813   -47511   -51415   -53116   -51406   -47479   -44033   -40014 
  -31190   -17787    -4119     8955    23855    40246    54753    64761 
   70192    73218    75502    75699    72527    68221    64917    61366 
   55534    46329    33990    20998    10027     1626    -4417    -7656 
   -8348    -8749   -11507   -16330   -20333   -22733   -25668   -30562 
  -36693   -42012   -45005   -46064   -44707   -37675   -24004    -8036 
    6130    18536    30452    41760    51583    59474    65762    71118 
   75264    76335    73145    66279    56091    43247    29782    17172 
    5713    -4649   -13621   -19534   -20273   -15525    -7109     2375 
   10751    16108    16942    13904     9246     4494      740     -789 
     998     6554    14193    20932    25696    29899    34758    38651 
   38524    34579    30727    29643    30598    31880    32215    29914 
   22912    10701    -4694   -20252   -34114   -46034   -55668   -61579 
  -62728   -59808   -54409   -47163   -37800   -27162   -17286    -9424 
   -3734     -423      859     1835     3873     6722     9408    11291 
   12123    11114     7510     2841      238      915     3801     8736 
   16438    25634    34309    42216    49268    53971    54675    50737 
   42567    30992    16464       74   -14914   -25429   -31397   -34053 
  -34402   -33135   -29432   -22929   -15793    -8662      235     9875 
   17342    22746    27541    31011    31840    30112    26261    20099 
   11593     1918    -6835   -13855   -20301   -25429   -25852   -21440 
