Origin Time       2016/04/16 01:25:00
Lat.              32.753
Long.             130.762
Depth. (km)       12
Mag.              7.3
Station Code      KMMH14
Station Lat.      32.6345
Station Long.     130.7521
Station Height(m) -40
Record Time       2016/04/16 01:24:20
Sampling Freq(Hz) 100Hz
Duration Time(s)  300
Dir.              3
Scale Factor      2940(gal)/6170270
Max. Acc. (gal)   127.258
Last Correction   2016/04/16 01:24:05
Memo.             
[...]
   -6731    -6732    -6730    -6728    -6729    -6730    -6730    -6730 
   -6728    -6726    -6727    -6733    -6736    -6733    -6727    -6722 
   -6722    -6729    -6733    -6733    -6733    -6735    -6733    -6724 
   -6719    -6729    -6736    -6726    -6720    -6722    -6731    -6739 
   -6732    -6723    -6725    -6729    -6732    -6733    -6726    -6724 
   -6728    -6727    -6727    -6730    -6732    -6733    -6729    -6724 
   -6725    -6723    -6728    -6739    -6737    -6725    -6724    -6733 
   -6739    -6732    -6721    -6720    -6724    -6728    -6729    -6730 
   -6731    -6732    -6730    -6729    -6731    -6730    -6727    -6726 
   -6725    -6726    -6730    -6734    -6732    -6728    -6726    -6724 
   -6725    -6730    -6735    -6727    -6723    -6731    -6731    -6728 
   -6729    -6725    -6726    -6732    -6729    -6725    -6728    -6734 
   -6732    -6725    -6723    -6728    -6732    -6728    -6726    -6730 
   -6735    -6737    -6729    -6722    -6729    -6731    -6723    -6727 
   -6731    -6727    -6730    -6730    -6727    -6726    -6726    -6731 
   -6734    -6727    -6726    -6729    -6727    -6728    -6731    -6729 
   -6728    -6728    -6730    -6732    -6729    -6727    -6728    -6727 
   -6730    -6736    -6731    -6724    -6726    -6732    -6733    -6727 
   -6724    -6731    -6731    -6723    -6726    -6727    -6729    -6732 
   -6730    -6734    -6737    -6728    -6726    -6734    -6735    -6726 
   -6723    -6730    -6735    -6733    -6729    -6724    -6725    -6734 
   -6736    -6729    -6724    -6730    -6734    -6728    -6725    -6727 
   -6727    -6730    -6731    -6726    -6724    -6727    -6729    -6732 
   -6730    -6727    -6732    -6732    -6725    -6725    -6730    -6730 
   -6726    -6727    -6733    -6734    -6731    -6730    -6731    -6732 
   -6731    -6729    -6726    -6725    -6731    -6733    -6726    -6725 
   -6729    -6729    -6729    -6732    -6728    -6725    -6734    -6737 
   -6727    -6727    -6732    -6728    -6727    -6729    -6726    -6726 
   -6730    -6732    -6732    -6730    -6731    -6733    -6728    -6725 
   -6731    -6730    -6725    -6728    -6731    -6727    -6727    -6732 
   -6736    -6735    -6730    -6728    -6730    -6730    -6729    -6727 
   -6725    -6725    -6729    -6732    -6731    -6731    -6731    -6729 
   -6730    -6732    -6729    -6725    -6728    -6734    -6734    -6729 
   -6726    -6727    -6730    -6733    -6729    -6723    -6726    -6733 
   -6731    -6727    -6727    -6727    -6725    -6724    -6723    -6728 
   -6733    -6730    -6726    -6727    -6729    -6731    -6726    -6724 
   -6729    -6730    -6727    -6727    -6729    -6730    -6728    -6728 
   -6730    -6729    -6729    -6729    -6728    -6726    -6727    -6729 
   -6729    -6728    -6728    -6729    -6731    -6728    -6722    -6724 
   -6728    -6729    -6729    -6732    -6730    -6728    -6730    -6730 
   -6726    -6727    -6730    -6730    -6729    -6727    -6724    -6726 
   -6731    -6731    -6726    -6725    -6727    -6730    -6732    -6730 
   -6726    -6725    -6730    -6731    -6725    -6721    -6725    -6729 
   -6730    -6728    -6726    -6729    -6733    -6728    -6726    -6730 
   -6729    -6727    -6729    -6728    -6726    -6729    -6727    -6726 
   -6731    -6731    -6727    -6731    -6731    -6726    -6728    -6731 
   -6726    -6727    -6730    -6728    -6728    -6730    -6726    -6725 
   -6726    -6727    -6732    -6733    -6728    -6727    -6729    -6727 
   -6727    -6730    -6730    -6728    -6728    -6725    -6724    -6729 
   -6730    -6727    -6728    -6731    -6730    -6731    -6732    -6729 
   -6725    -6723    -6726    -6730    -6730    -6726    -6727    -6731 
   -6730    -6727    -6723    -6724    -6732    -6733    -6729    -6729 
   -6730    -6729    -6728    -6727    -6727    -6727    -6729    -6730 
   -6728    -6730    -6732    -6731    -6728    -6727    -6728    -6729 
   -6730    -6728    -6727    -6730    -6730    -6729    -6729    -6730 
   -6728    -6726    -6728    -6728    -6726    -6728    -6731    -6729 
   -6727    -6728    -6728    -6727    -6726    -6728    -6730    -6728 
   -6729    -6731    -6728    -6728    -6729    -6729    -6732    -6729 
   -6725    -6729    -6730    -6728    -6729    -6729    -6728    -6729 
   -6730    -6729    -6729    -6729    -6725    -6727    -6733    -6731 
   -6726    -6728    -6729    -6730    -6732    -6730    -6729    -6729 
   -6727    -6726    -6726    -6726    -6729    -6730    -6729    -6729 
   -6730    -6732    -6729    -6724    -6726    -6728    -6728    -6729 
   -6729    -6730    -6730    -6729    -6729    -6726    -6724    -6729 
   -6730    -6729    -6731    -6734    -6732    -6727    -6727    -6728 
   -6726    -6727    -6729    -6729    -6729    -6729    -6729    -6729 
   -6729    -6729    -6731    -6730    -6728    -6727    -6728    -6731 
   -6732    -6727    -6728    -6732    -6731    -6729    -6727    -6725 
   -6726    -6729    -6730    -6732    -6732    -6729    -6728    -6728 
   -6731    -6732    -6726    -6724    -6732    -6736    -6732    -6730 
   -6730    -6729    -6730    -6731    -6729    -6726    -6727    -6729 
   -6731    -6731    -6728    -6724    -6724    -6730    -6731    -6726 
   -6728    -6732    -6732    -6731    -6728    -6726    -6729    -6730 
   -6726    -6726    -6730    -6731    -6729    -6730    -6729    -6728 
   -6727    -6727    -6731    -6730    -6725    -6727    -6730    -6731 
   -6730    -6728    -6727    -6730    -6730    -6728    -6730    -6730 
   -6728    -6729    -6730    -6729    -6729    -6728    -6729    -6731 
   -6729    -6726    -6729    -6732    -6728    -6726    -6729    -6731 
   -6729    -6726    -6727    -6730    -6725    -6724    -6729    -6728 
   -6725    -6726    -6729    -6730    -6729    -6729    -6729    -6726 
   -6726    -6730    -6732    -6729    -6726    -6725    -6727    -6729 
   -6729    -6730    -6728    -6727    -6728    -6729    -6732    -6733 
   -6727    -6726    -6730    -6729    -6729    -6729    -6729    -6730 
   -6729    -6728    -6728    -6726    -6726    -6727    -6727    -6728 
   -6730    -6728    -6726    -6727    -6729    -6730    -6728    -6726 
   -6727    -6729    -6725    -6726    -6730    -6730    -6728    -6727 
   -6728    -6728    -6727    -6726    -6728    -6728    -6727    -6728 
   -6727    -6728    -6729    -6728    -6728    -6730    -6730    -6729 
   -6729    -6729    -6729    -6728    -6728    -6729    -6727    -6726 
   -6729    -6730    -6728    -6729    -6729    -6726    -6726    -6728 
   -6730    -6731    -6728    -6728    -6731    -6729    -6727    -6727 
   -6727    -6729    -6730    -6728    -6727    -6727    -6727    -6729 
   -6728    -6726    -6727    -6730    -6730    -6729    -6728    -6729 
   -6730    -6729    -6728    -6727    -6728    -6730    -6730    -6730 
   -6731    -6729    -6728    -6730    -6726    -6724    -6729    -6730 
   -6730    -6731    -6730    -6727    -6726    -6728    -6727    -6726 
   -6729    -6730    -6729    -6729    -6728    -6728    -6728    -6726 
   -6727    -6728    -6726    -6724    -6727    -6728    -6728    -6729 
   -6730    -6729    -6727    -6727    -6728    -6728    -6728    -6728 
   -6727    -6729    -6729    -6727    -6729    -6729    -6728    -6729 
   -6729    -6727    -6729    -6731    -6728    -6726    -6727    -6730 
   -6730    -6727    -6726    -6725    -6726    -6729    -6727    -6727 
   -6730    -6727    -6725    -6729    -6729    -6726    -6728    -6729 
   -6727    -6728    -6728    -6726    -6727    -6728    -6726    -6727 
   -6727    -6726    -6727    -6729    -6730    -6727    -6728    -6728 
   -6727    -6729    -6730    -6728    -6728    -6729    -6729    -6729 
   -6729    -6729    -6727    -6727    -6728    -6728    -6730    -6731 
   -6730    -6730    -6728    -6725    -6727    -6727    -6727    -6727 
   -6727    -6728    -6729    -6727    -6729    -6730    -6728    -6729 
   -6731    -6729    -6728    -6727    -6727    -6729    -6730    -6729 
   -6729    -6728    -6728    -6725    -6712    -6696    -6683    -6682 
   -6692    -6677    -6591    -6420    -6241    -6243    -6568    -6990 
   -6992    -6461    -6031    -6527    -7834    -8245    -6379    -3702 
   -3478    -6994   -10687    -9973    -6471    -4017    -2931    -5648 
  -12182   -13316    -8294    -6994    -8285    -8021    -9124   -10167 
   -9865    -9863    -9814    -8134     -806     6130     1399    -6174 
   -5716    -6090   -10786    -8705    -1790     -798      363     5377 
    4366     1308     2036    -2143   -10374   -16753   -20929   -17421 
  -11528   -13145   -11278    -2478     2661     4861    -3437   -22780 
  -27587   -19528   -17083   -12368    -1341     6995     8161      796 
   -9832   -15608   -14885   -10564    -6495    -5175    -3152     2983 
    9684    13380     7065   -10254   -20102   -16869   -14326   -13361 
   -9169    -4936    -2436       49      199    -8961   -18732   -12902 
     145     9009    12462     7052     1688     2274     -842    -9238 
  -19387   -24010   -15343    -3873     3658     9344     4951     -107 
    9773    12720    -2393    -5490     5840     8715     9750    12013 
    2985    -5285     3154    12004     2148    -9171    -3346     2435 
     977    13726    34169    33468    13332    -3824    -4134    -1234 
  -13941   -26375   -31647   -40935   -39688   -23639   -14381   -16133 
  -12469     2935    12999     1467   -18023   -18936    -6360   -10033 
  -30285   -38265   -26639    -5681    13558     8935    -9607    -6871 
    1608    -7975   -14931   -13546   -15916    -8477     5997     3311 
   -6984   -11029   -19883   -36609   -50451   -53808   -46306   -31390 
  -23963   -43879   -72502   -62417   -18446     2463   -16199   -24892 
   -4315    -5148   -28485   -28863   -25549   -34821   -26329     2046 
   21187    19630    22923    31767    13672   -12465    -7603    10599 
    3653   -18891   -20734     9887    52909    67769    44954    13323 
     591    13484    14552   -17668   -49617   -60196   -47134   -22374 
   -8049    12328    44754    45739     5086   -43027   -71792   -65025 
  -35286    -4128    27303    40000    24814     3759    -9269    -3096 
   17091    24883    16799     3730     -388    35084    66862    14812 
  -42178   -22124     -677    -3990    -5449    -9962     7962    28543 
    2764   -37227   -44617   -21722    18518    57427    54455    13349 
   -9787    -8650   -15266   -29840   -40161   -42619   -32310     5551 
   58337    60466     5460   -34459   -40600   -24411     5035    -8792 
  -60977   -65045   -28272   -12648     -637    36009    77510    89471 
   55897    12322    -8221   -31868   -75013   -90999   -32733    52392 
   79283    55006    29722    22843    28047    -3053   -78385  -104272 
  -34610    56060    94308    71449    16797   -14545     -299     9093 
     836    19687    49197    55934    46591     9211   -40495   -61894 
  -70296   -60246    -3177    57467    64227    11723   -73072  -140957 
 -138182   -87018   -57330   -30030    14685    19712   -16776   -59687 
  -81307   -37954    40175    85277    70079    -5746   -38641    19590 
   26066    -6571    46938    79877    40225    41776    23166   -43445 
  -32005   -19269   -69387   -47810    28204    62643    56096     1930 
  -58116   -91694  -140676  -158466  -116823   -91473   -89573   -97654 
  -95540   -36926     8409   -13476   -41896   -49365   -18778    32177 
   12668   -57416   -59126    15194    63733    37339    -6952    -4852 
   27868    15078   -62110  -119483  -103549   -37027    44315    82192 
   51719    25786    36997    19455   -13272    -8433   -19809   -56309 
  -51950   -22013   -11790   -23861   -24007    15521    32228    -7689 
  -22781     4400    15992    18404    21974    -2884   -32343   -34926 
  -39137   -55280   -49956   -19240   -14984   -35831   -24283   -16502 
  -60391  -106739  -138535  -165787  -125491   -19938    39526    45383 
   64063    74070    63120    60230    35571   -39809  -116244  -118981 
  -37062    60873   114549   121896    97776    83958   113293   115714 
   39038   -49101   -88821   -75602   -46535   -54805   -73017   -56517 
  -44306   -75553  -129929  -173070  -198691  -222174  -241490  -232365 
 -186754  -136056  -108218   -86390   -65111   -54837   -33768    -5974 
    7105    12412     7455     7786    33214    47537    25436    10367 
   63343   174200   243939   215059   149924   126120   137886   122304 
   76791    62729    83400   107621   112660    69289     1859   -50445 
  -92848  -109001   -73817   -10821    39415    61373    60847    45225 
   25457    15485    13622     4711      772    33616    85165   118148 
  134554   126662    85710    58043    70612    78387    65184    62000 
   62097    57560    74376    92764    57706    -2233    -1620    39287 
   38930     7401   -40845  -117266  -147344  -112397   -95672   -81456 
  -40094   -22589   -30549   -51428   -99205  -142563  -145826  -117114 
  -74488   -40102   -26884   -27164   -49906   -66135   -40454   -35173 
  -63477   -73938   -74613   -55520   -28724   -43430   -54180   -32497 
  -43461   -73874   -47275     3612    13430     4118    -8968   -33715 
  -62747   -95170   -89501   -27865    15861    11206    11944    47433 
   75085    55518    16051   -14443   -33458   -43353   -68120  -100827 
  -98746   -81812   -80108   -64013   -43665   -63023   -90299   -70789 
  -34381   -41111   -83893  -120484  -121665   -78510   -18038    31445 
   64470    67396    52026    67361   101658   103576    92027    88699 
   81275   112158   188790   236813   252630   260349   222150   152998 
  105792    71592    46364    52586    74922    87992    88463    66526 
   23965    -7252   -18732   -26708   -19392    10241    31979    39413 
   50598    48276    27010    24768    37777    37011    36496    34401 
   17399     7745    18525    40428    45937    22752    -2302   -15937 
  -18056   -24428   -46277   -49381   -45330   -66402   -70991   -50388 
  -44096   -56273   -74886   -63565   -20902   -13848   -37157   -40226 
  -22844     8038    13043   -28785   -49907   -37311   -38090   -37212 
  -29908   -46437   -54681   -31220   -17457    -1854    40358    49681 
   17801    21101    47041    37317    18929    15753    10498    17534 
   43651    49473    16189   -23841   -31167    -7972     -545   -23697 
  -35859   -14108    20101    31351     7845   -22544   -40571   -58730 
  -65577   -30692    14336    18980    12337    27491    27213    -1959 
  -38664   -88785  -116144   -79564   -44639   -52872   -53158   -44029 
  -57894   -70288   -64239   -68589   -85031   -95086  -105563  -104602 
  -94527  -105051  -106190   -80896   -60418   -46947   -50563   -60886 
  -41732   -25420   -38936   -47073   -25524    16845    51101    59175 
   50952    42490    37057    25967    12462     4135    -5136   -11187 
    2856    36631    57366    44846    40439    60245    52264    16003 
   -3524    -5324    -2644    -5153   -20061   -26411   -17114   -15355 
  -19548   -16233    -9207    -9366   -29048   -51915   -56063   -49812 
  -22984    13104      949   -35865   -29762    -4367    -6843   -22475 
  -24779   -21912   -18439    -8801   -18885   -43321   -24894    28017 
   55557    51563    33949    13562     3846   -28714   -90579   -97405 
  -51239   -28021   -14280    -1180     -521    21635    41054    24274 
   14348    18248    15745    15840     7745     2245    26221    59553 
   84772    93802    85326    80048    61052    16543     2341    28796 
   34055    19094    29660    65620   105069   113001    71468    17973 
  -12657   -22246   -33362   -52179   -62234   -77658  -103012  -111806 
 -118608  -130918  -122407  -105820   -99896   -99644  -111367  -127015 
 -125785  -122130  -129164  -124079  -104878   -85001   -58345   -50368 
  -77552   -89079   -78174   -84245   -83014   -55538   -33142   -23499 
  -29129   -44976   -30609    -3690   -17745   -36436   -20840   -17389 
  -40105   -43872   -26674   -10016    10293    25937    25780    23762 
   24522    15419     4387    12322    31414    47153    64347    79276 
   85821    78190    43015    14230    32211    56576    52592    48925 
   66291    83490    66260    33786    32516    43335    39569    39498 
   34315     3702   -30434   -48761   -57843   -54720   -40963   -44143 
  -59444   -50168   -33508   -40082   -46388   -41042   -28817     -456 
    9582   -16008   -26436   -18354   -20289   -19038   -12716    -7967 
    8253    27164    31402    26678    15086     7104    17629    33329 
   51684    72226    74028    63654    60275    64086    64342    46176 
   16827    -4381   -12677    -1588    24082    45865    68295    85828 
   74248    51455    41776    37094    34597    26720     8086    -7458 
  -22613   -30202    -4335    33006    46041    46105    35912    -4354 
  -50674   -53253    -8360    41461    65823    71484    74399    73276 
   57021    36401    23834    -3366   -38873   -32958     3118    19914 
   29376    38388     6877   -35016   -37484   -45075   -71275   -76837 
  -74354   -65753   -42478   -37665   -53387   -68234   -83962   -82681 
  -64225   -73708  -100700  -107332  -108579   -99410   -75417   -77034 
  -88620   -75471   -61338   -64148   -89303  -129691  -139478  -107308 
  -83818   -91866  -104148   -97947   -76262   -67703   -80415   -79537 
  -64651   -54444   -35964   -30486   -55597   -68760   -64785   -65239 
  -52817   -32270   -26458   -22177   -14953   -24428   -31768   -11201 
   -2265   -26570   -29449     4908    34234    48086    57425    64779 
   67829    66564    68532    61272    33457     6922    -4630    -7844 
   -7104    -5910    -3777    11527    34380    38268    34029    43241 
   45096    27895    11838    16265    39000    55721    58214    53752 
   48097    58348    78280    82019    72414    63435    57911    53344 
   53660    62139    64596    57592    54208    56120    59215    56944 
   45547    27672      668   -22514   -23722   -17199   -11581     7949 
   35390    55645    65192    59146    47115    40316    35930    38231 
   34491    13769     1609      302    -7519   -17051   -25431   -25570 
  -18394   -30044   -53112   -58963   -57162   -62186   -65838   -56841 
  -36615   -26923   -41339   -59474   -49668   -15415    -2441   -22616 
  -32516   -22395   -20166   -24160   -23631   -18029    -2064     6549 
   -8966   -22195   -16030    -8931   -11263   -21903   -38804   -44426 
  -32262   -21354   -16650   -11044    -4471     2654     8811    11447 
    4523    -6326      493    17384    20316    15827    14623    10558 
   -1232   -17763   -23246    -4268    18365    17710     1660   -12923 
  -19296   -13820    -4553    -1963    -1081     5892    11823     7417 
     232    -1811    -2106    -2862    -8779   -19369   -22535   -20728 
  -24877   -29321   -28238   -26687   -23697   -19668   -25194   -32724 
  -27050   -20562   -19793   -15061   -12715   -16066   -22015   -27378 
  -21574   -13604   -13743    -9328     3490    20040    33136    26961 
    2757   -14042   -11690    -6424    -8049   -11204   -11067    -2038 
    9431     6512    -5408    -8675    -7812   -11652   -14177   -14323 
  -10374     4456    17566    12691    -2855   -16336   -19966    -8588 
    2539    -4625   -16357   -12879     -964     1730    -3255     2080 
   14772    15703     7426     1270    -1548    -5502   -18217   -30659 
  -25005   -13926   -20085   -33968   -38433   -35142   -25121   -13293 
