Origin Time       2016/04/14 22:07:00
Lat.              32.775
Long.             130.848
Depth. (km)       8
Mag.              5.8
Station Code      KMMH16
Station Lat.      32.7967
Station Long.     130.8199
Station Height(m) 55
Record Time       2016/04/14 22:05:02
Sampling Freq(Hz) 100Hz
Duration Time(s)  300
Dir.              5
Scale Factor      3920(gal)/6170801
Max. Acc. (gal)   559.833
Last Correction   2016/04/14 22:04:47
Memo.             
[...]
    1984     2265     2359     2339     2353     2347     2166     1805 
    1519     1486     1561     1625     1801     2146     2480     2584 
    2426     2176     2005     1931     1859     1753     1761     1949 
    2090     2021     1867     1758     1646     1463     1264     1102 
     937      714      485      435      640      968     1340     1782 
    2227     2509     2544     2391     2160     1940     1797     1781 
    1866     1931     1950     2006     2073     2083     2059     2002 
    1865     1678     1517     1416     1367     1323     1269     1295 
    1399     1437     1408     1398     1375     1353     1394     1462 
    1522     1565     1593     1634     1637     1591     1612     1728 
    1886     2107     2387     2635     2759     2735     2588     2364 
    2095     1793     1515     1369     1387     1517     1702     1890 
    2062     2217     2302     2237     2041     1829     1680     1599 
    1570     1641     1865     2091     2075     1833     1576     1405 
    1305     1279     1338     1470     1664     1892     2066     2085 
    1970     1851     1808     1776     1674     1556     1521     1525 
    1491     1501     1683     1950     2098     2097     1991     1769 
    1540     1447     1429     1392     1364     1381     1412     1397 
    1350     1345     1367     1370     1409     1535     1678     1753 
    1802     1894     2004     2068     2073     2031     1936     1784 
    1640     1570     1553     1555     1584     1666     1771     1799 
    1734     1667     1639     1631     1634     1614     1560     1530 
    1523     1480     1444     1501     1599     1665     1740     1854 
    1937     1929     1874     1851     1862     1884     1940     2015 
    2066     2090     2043     1899     1775     1819     1982     1995 
    1799     1739     1896     1818     1444     1424     1880     2038 
    1703     1608     1966     2075     1563     1157     1601     2351 
    2460     2091     1926     1974     1967     1953     1909     1727 
    1576     1627     1728     1671     1578     1701     1941     1978 
    1833     1857     2091     2175     1975     1806     1901     1974 
    1634     1084      860      996     1118     1177     1393     1681 
    1811     1818     1793     1870     2163     2306     1929     1460 
    1455     1707     1819     1800     1719     1586     1396     1161 
    1110     1237     1130      795      696      986     1394     1733 
    2068     2313     2349     2432     2622     2520     2094     1772 
    1709     1581     1177      990     1449     1937     1891     1738 
    1867     2042     1968     1701     1633     1885     2085     2175 
    2345     2366     2143     1971     1934     1961     2041     2100 
    2027     1823     1675     1780     2058     2216     2187     2178 
    2157     1925     1611     1391     1172     1021     1195     1590 
    1821     1805     1776     1812     1687     1354     1220     1424 
    1492     1296     1302     1657     2034     2252     2367     2392 
    2276     2110     2046     1972     1811     1839     2063     2091 
    1861     1677     1662     1621     1485     1505     1700     1734 
    1549     1414     1406     1412     1405     1427     1522     1643 
    1646     1572     1522     1372     1181     1198     1370     1572 
    1724     1672     1545     1483     1350     1249     1314     1436 
    1644     1936     2138     2193     2123     1981     1870     1737 
    1549     1555     1825     1989     1871     1766     1882     2003 
    1875     1638     1576     1592     1445     1294     1445     1769 
    1928     1995     2225     2515     2700     2782     2670     2294 
    1864     1642     1637     1628     1518     1449     1462     1416 
    1247      993      741      661      915     1481     2156     2724 
    3000     2862     2393     1818     1308      904      587      438 
     650     1240     1936     2460     2744     2897     2997     2934 
    2602     2161     1799     1493     1302     1410     1787     2228 
    2542     2580     2329     1911     1438      975      588      444 
     723     1285     1744     1983     2206     2494     2669     2586 
    2358     2179     2026     1768     1454     1247     1201     1226 
    1230     1232     1257     1257     1203     1119     1064     1117 
    1349     1746     2158     2394     2372     2158     1859     1607 
    1505     1487     1461     1464     1562     1709     1756     1625 
    1439     1410     1642     1988     2203     2261     2326     2372 
    2231     1934     1621     1439     1524     1696     1718     1733 
    1854     1909     1796     1593     1459     1484     1565     1625 
    1738     1878     1970     2084     2175     2083     1929     1959 
    2128     2159     1946     1698     1586     1469     1236     1042 
     941      779      540      466      698     1060     1475     2046 
    2646     3114     3510     3744     3599     3133     2496     1678 
     811      251      166      468     1051     1821     2578     2921 
    2613     1900     1229      875      704      499      616     1366 
    2249     2760     3066     3370     3389     2893     2142     1397 
     751      414      437      665     1004     1335     1609     1878 
    2046     2027     1923     1907     2071     2280     2424     2706 
    3138     3226     2738     2105     1637     1115      411     -143 
    -206      118      498      929     1626     2326     2535     2433 
    2456     2444     2137     1781     1682     1778     1855     1847 
    1873     2034     2257     2365     2224     1854     1336      783 
     472      545      859     1458     2409     3145     3090     2739 
    2769     2650     1897     1358     1437     1250      677      762 
    1704     2508     2645     2558     2547     2294     1660     1142 
    1167     1438     1538     1581     1708     1727     1543     1267 
     946      586      446      898     1601     1713     1380     1575 
    2329     2631     2121     1654     1767     1707      884       87 
     174      689      787      508      264       -2     -413     -731 
    -672     -104     1007     2444     3699     4354     4433     4253 
    3985     3671     3630     4350     5971     8034     9833    11156 
   12094    12170    10715     7854     4207      -47    -5040   -10081 
  -13685   -15215   -15183   -13779   -10884    -7198    -3695     -518 
    2625     5455     7340     8469     9650    10791    11091    10583 
    9837     8798     7160     5083     2788      166    -2613    -4802 
   -5924    -6108    -5452    -3898    -1697      691     3126     5561 
    7453     8268     8293     7950     6965     5142     2950      840 
   -1223    -3356    -5220    -6198    -6090    -5199    -3664    -1308 
    1692     4822     7787    10216    11469    11105     9165     6262 
    3302      783    -1277    -2737    -3259    -2914    -2273    -1804 
   -1624    -1640    -1655    -1577    -1270     -398     1134     3046 
    5030     6940     8581     9359     8684     6705     4187     1829 
    -290    -2235    -3337    -2866    -1198      502     1570     2414 
    3265     3320     2203      764     -156     -417     -198      370 
    1202     2162     3151     3934     4024     3460     2860     2339 
    1670     1075      826      927     1337     1961     2667     3316 
    3508     2804     1468      223     -730    -1540    -1938    -1439 
     -34     1707     3163     4020     4251     4024     3493     2732 
    2040     1905     2438     3320     4260     5136     5812     5968 
    5393     4305     2976     1355     -632    -2594    -3917    -4603 
   -5061    -5116    -4276    -2743    -1196      166     1535     2793 
    3632     4035     4316     4786     5369     5663     5456     5016 
    4737     4482     3697     2378     1255      761      425     -294 
   -1052    -1170     -686     -186      153      754     1775     2677 
    3058     3206     3398     3448     3196     2789     2384     1951 
    1470     1049      840     1102     1889     2742     3230     3290 
    2964     2314     1383      278     -774    -1676    -2246    -2005 
    -847      739     2296     3578     4446     4793     4434     3344 
    1764       99    -1058    -1473    -1507    -1179     -138     1285 
    2356     3042     3810     4494     4420     3678     3104     2936 
    2750     2631     3082     3894     4285     3998     3367     2621 
    1701      584     -505    -1282    -1659    -1725    -1658    -1448 
    -883      -87      684     1567     2713     3892     4713     5069 
    5230     5330     5110     4332     3155     2067     1381      884 
     338      -10      126      549      958     1374     1894     2405 
    2764     3049     3286     3274     3009     2737     2480     2054 
    1552     1307     1322     1258      999      777      649      351 
    -190     -728    -1064    -1130     -960     -662     -187      676 
    1917     3108     3865     4331     4737     4946     4877     4729 
    4580     4420     4259     3875     3112     2149     1130       42 
   -1122    -2206    -2837    -2798    -2272    -1482     -422      966 
    2492     3741     4511     4975     5198     4933     4157     3277 
    2542     1799     1008      378       19      -45      230      733 
    1242     1655     2048     2522     2900     2826     2306     1710 
    1202      699      310      193      273      407      498      575 
     785     1059     1161     1066      947      965     1078     1090 
    1071     1338     1901     2476     3051     3901     4974     5669 
    5578     5035     4419     3641     2656     1655      902      705 
     977      948      167     -557     -410     -113     -504     -963 
    -724       21      553      379      305     1657     3777     4629 
    3955     3375     3575     3654     3229     2996     3079     2785 
    2066     1677     1731     1405      312     -854     -958      188 
    1054      498     -239      423     2006     2914     2724     2666 
    3522     4258     3856     3003     2804     2960     2435     1283 
     405      -66     -435      -24     1203     1389     1119     3984 
    8190     7016      739    -3578    -2713      546     2798     4831 
    8981    13115    11601     2563    -6113    -6003    -2557    -2751 
    -308     4384    -1082   -10550    -7248     1370      655    -1429 
    6899    14621     6350    -5609    -1524     9561    10178     5529 
    8370    14626    11681      -62    -8248    -5430     1913     3617 
    2489     5899     8677     3291    -4837    -7434    -8010   -12680 
  -13705        2    17143    16490     5719     7781    14842     3052 
  -19235   -22832    -5063     7664      689    -7131     3822    21397 
   27259    23930    18512    11241     2235    -7913   -16387   -15952 
   -6250     -147    -1827     4189    20516    22042    -5758   -33320 
  -22215     7163     2748   -27765   -29141    11255    44874    34663 
   11065    19689    45693    44747    12697   -14182   -16245   -22816 
  -46363   -43606   -10577    -3080   -22526   -14828    18610    30797 
   21922    24819    42102    54218    50967    40116    32740    16886 
  -26198   -66821   -44340    21575    27485   -41776   -72810   -22256 
   16451    -2713    -7559    50478   115510    95330    -7644   -69467 
  -46373   -47166   -87448   -63406    10362    31798     5785    14628 
   54575    53776    26947    40921    82143    91563    57513    23081 
   14434   -10942   -66028   -69843     4255    59593    32418   -15548 
  -10881    14517    -4318   -48939   -56306   -17274    28033    62493 
   76992    34658   -40481   -56746   -12418     9811     -685      769 
   11459     6599    -2092     6256     5715   -39067   -96244  -113031 
  -99719   -95211   -92736   -65601   -42970   -59182   -67097   -23965 
   31253    69074   113378   164610   181809   149638   104271    81936 
   75305    58385    25835    -5248   -29601   -73406  -144794  -211229 
 -242214  -225188  -176702  -128933   -80589   -27953     5003    25244 
   73946   163230   264296   338457   366628   361850   343849   311214 
  255867   176447    74326   -40570  -152475  -243727  -307489  -374667 
 -456031  -483994  -434301  -387147  -367034  -316536  -238161  -181741 
 -154933  -124519   -56525    38023   120085   187301   249354   288087 
  292717   258620   171975    58863   -26861   -86501  -154816  -209983 
 -198430  -128742   -58435   -14061     9650     7353   -25416   -65539 
  -89915  -107657  -133965  -165055  -200868  -251037  -295523  -288668 
 -231444  -170306  -117830   -53154    30710   122168   201982   261067 
  309974   362514   418395   473988   532154   578505   595689   594293 
  582259   550688   493720   414147   323007   224963   109871   -29395 
 -169687  -273210  -347184  -405595  -400926  -315492  -214069  -128700 
  -16308   149402   324692   462508   561030   610711   594697   530254 
  445655   354675   253143   135749     4663  -156864  -366723  -592532 
 -765405  -843606  -827996  -734836  -603459  -484560  -382552  -267594 
 -141625   -26275    78597   155187   165850   128542    89573    51536 
    2902   -50543  -116041  -215848  -332237  -409120  -425350  -389887 
 -304539  -196447  -106541   -33415    42726   117605   188009   265404 
  346843   419190   483227   543067   590408   620090   640335   646314 
  624144   581527   515446   401029   245234    73200  -126225  -375602 
 -634324  -814176  -879604  -850688  -738390  -562066  -380900  -238394 
 -115187     5705   100941   163316   196910   193378   163987   132113 
  103707    70081    25225   -23070   -67298  -112777  -156009  -178586 
 -175350  -149189  -100695   -46837    -3094    36090    73954   108638 
  145861   186034   220140   244075   255702   252716   240372   216564 
  172555   120545    76491    32544   -15640   -60319  -104783  -145368 
 -170479  -188095  -203511  -205324  -193550  -176321  -150761  -116191 
  -83468   -62838   -57693   -61952   -63488   -61167   -64772   -73069 
  -74017   -65110   -50191   -29022    -4859    15366    27972    33960 
   38914    46461    55067    65136    79785    99493   123093   148096 
  168323   178820   180897   174790   153135   113909    71461    38095 
    8549   -19538   -38670   -51596   -61979   -64618   -61357   -58788 
  -57328   -54210   -49438   -43387   -31459   -11641     7764    17609 
   18966    18246    17101    13340     9213     9565    12238    13311 
   12535     8341     3549     2359      981      421     6127    13325 
   17136    20372    23152    24418    27918    33556    36122    35426 
   30532    16226    -3830   -20262   -29330   -28958   -18108    -2126 
   13042    26169    36140    41232    41382    38359    33131    23616 
   12461     6942     7538     8253     2072   -13856   -34255   -55144 
  -77343   -96468  -108540  -115601  -115937  -105104   -80997   -46829 
  -12461    18776    49847    75219    89014    94462    94370    87661 
   75403    62264    50164    34685    12500   -13352   -38245   -59485 
  -74586   -82396   -85154   -84951   -79358   -64071   -42920   -25076 
  -12035    -3102     1935     7246    13081    17690    21055    23739 
   29968    40109    49729    59991    73003    84213    88662    86056 
   77367    62395    42120    20908     1316   -17993   -34803   -46630 
  -58039   -71750   -82721   -87367   -87183   -82401   -72535   -59526 
  -45016   -30766   -17205     -276    21412    43691    62637    75743 
   84366    93936   105310   112013   108692    98386    84950    64088 
   35712     9967    -8896   -24097   -34031   -35486   -33427   -34648 
  -37946   -41723   -48325   -55627   -58875   -57242   -52784   -48911 
  -47016   -44242   -39734   -35553   -30604   -24962   -21808   -18139 
   -8335     5323    17148    25795    33812    42640    48227    45915 
   38736    32518    27957    25745    27155    27789    24987    22072 
   20681    21284    24710    28032    27666    24938    22708    20223 
   14881     6126    -3785   -12011   -17437   -20730   -22201   -20296 
  -14685    -6882     3208    14720    24467    31314    34450    30853 
   20954     9839      -65    -9960   -18648   -22813   -23564   -25819 
  -29687   -30181   -26762   -24584   -25007   -22935   -15570    -5828 
    4280    14961    24968    33216    39956    43729    40900    29944 
   13760    -3170   -17624   -28428   -35212   -38584   -41654   -45176 
  -45819   -42995   -38947   -34648   -30479   -26693   -22496   -15934 
   -6420     3150    10472    16828    23269    28684    32701    36534 
   39233    36802    29059    22315    21011    21543    17044     7533 
     611      151     2898     6010     9718    13034    12431     7675 
    3078      494    -2335    -7511   -14712   -21333   -24883   -24498 
  -19734   -12486    -7150    -3580     2128     8755    11531    10573 
   10678    12661    11413     5388     -103    -1790    -3085    -7066 
  -10963   -11366    -8641    -3940     1226     4392     6314    10630 
   17595    22487    21919    19099    17687    15299     9776     3704 
   -1786    -9329   -18284   -23066   -22207   -20698   -20832   -19324 
  -14374    -9636    -9416   -12674   -14950   -14447   -12442    -8400 
     973    15000    26300    30147    29857    29233    27630    22699 
   14529     7661     5558     5151     2814     1389     5788    14405 
   20199    19502    14769     9788     5150    -1449    -9902   -15299 
  -13134    -4296     6411    15559    23482    30625    35065    35037 
   30101    20910     9354    -2876   -14626   -24269   -30500   -33161 
  -32778   -30325   -26580   -21709   -16981   -14830   -15361   -14961 
  -10265    -2646     3123     4553     3755     2901       65    -6096 
  -10949   -10325    -6734    -3048     1494     7790    15342    21950 
   25465    26408    26006    23825    19678    15707    13448    11215 
    7940     4766     1598    -3363   -11079   -19147   -24530   -28721 
  -33060   -33438   -25995   -12867      757    12785    24078    34736 
   44459    52268    54866    50327    40777    27857    11919    -4463 
  -18850   -30277   -37755   -42045   -43228   -38106   -26619   -14179 
   -3981     6290    18057    28406    35079    38842    40691    40421 
   37026    29883    19481     7132    -5247   -16468   -26424   -33503 
  -34474   -28785   -20532   -13412    -6284     2595    11493    18244 
   22606    25510    28191    30388    30103    26525    20885    13407 
    3011    -9044   -19445   -26204   -29275   -28906   -24404   -15867 
   -5804     3577    11890    18206    21156    20236    14139     2004 
  -12825   -24692   -31197   -35213   -40018   -43662   -42810   -39063 
  -35478   -31646   -26508   -21026   -15866    -9781    -1002    10503 
   21641    28785    32036    33977    35686    35829    32829    28276 
   25225    22712    18152    13259    11072    10062     6443      777 
   -2306    -1490     -916    -3467    -6930    -8838   -11232   -16584 
  -21610   -21617   -17717   -13838   -11397    -9663    -7444    -4307 
    -694     3451     8264    12929    17138    21818    27341    33242 
   39315    44997    49537    52572    52391    46487    35541    23261 
   11858     1838    -4768    -5783    -3337    -2493    -4181    -4640 
   -2871    -2378    -4030    -3500     1164     6051     8139     8673 
