Origin Time       2016/04/16 01:25:00
Lat.              32.753
Long.             130.762
Depth. (km)       12
Mag.              7.3
Station Code      KMMH14
Station Lat.      32.6345
Station Long.     130.7521
Station Height(m) -40
Record Time       2016/04/16 01:24:20
Sampling Freq(Hz) 100Hz
Duration Time(s)  300
Dir.              2
Scale Factor      2940(gal)/6170270
Max. Acc. (gal)   153.519
Last Correction   2016/04/16 01:24:05
Memo.             
[...]
    3199     3194     3195     3200     3200     3199     3196     3197 
    3201     3199     3195     3194     3196     3201     3198     3194 
    3196     3199     3198     3196     3196     3196     3195     3197 
    3197     3196     3199     3197     3195     3197     3198     3197 
    3197     3197     3197     3195     3196     3197     3198     3199 
    3194     3192     3200     3200     3197     3200     3199     3195 
    3192     3196     3201     3199     3196     3196     3195     3194 
    3198     3197     3194     3198     3200     3194     3193     3197 
    3197     3196     3195     3197     3198     3198     3201     3200 
    3193     3196     3198     3192     3189     3194     3198     3201 
    3206     3206     3201     3199     3196     3190     3193     3199 
    3198     3192     3190     3196     3198     3195     3197     3199 
    3199     3200     3196     3191     3193     3199     3200     3201 
    3204     3204     3195     3192     3199     3201     3197     3195 
    3191     3188     3192     3200     3200     3199     3201     3197 
    3195     3202     3204     3201     3197     3197     3199     3199 
    3196     3189     3189     3195     3198     3202     3204     3198 
    3197     3200     3195     3192     3198     3199     3199     3200 
    3196     3194     3196     3193     3192     3198     3204     3202 
    3194     3196     3201     3199     3198     3197     3195     3197 
    3198     3199     3198     3199     3200     3197     3194     3194 
    3199     3198     3190     3191     3195     3196     3201     3204 
    3199     3196     3199     3197     3195     3196     3197     3200 
    3198     3200     3202     3195     3200     3206     3195     3190 
    3197     3198     3196     3199     3201     3198     3196     3198 
    3200     3200     3199     3198     3198     3197     3193     3194 
    3200     3198     3194     3197     3198     3197     3201     3198 
    3190     3192     3197     3196     3194     3194     3199     3202 
    3202     3204     3200     3198     3203     3199     3193     3196 
    3198     3197     3198     3195     3196     3198     3198     3200 
    3198     3195     3197     3201     3197     3195     3197     3194 
    3191     3197     3202     3199     3195     3198     3204     3201 
    3195     3194     3195     3198     3200     3199     3197     3199 
    3200     3196     3196     3196     3194     3196     3198     3198 
    3193     3192     3199     3201     3197     3196     3199     3199 
    3197     3199     3199     3198     3197     3195     3196     3197 
    3195     3194     3197     3199     3199     3195     3194     3195 
    3197     3201     3202     3199     3199     3204     3201     3194 
    3195     3197     3199     3203     3197     3193     3201     3202 
    3195     3197     3200     3197     3195     3195     3196     3198 
    3196     3196     3198     3197     3199     3197     3195     3199 
    3200     3196     3195     3195     3195     3197     3198     3198 
    3198     3198     3197     3196     3196     3196     3198     3200 
    3200     3197     3195     3197     3196     3196     3198     3200 
    3202     3199     3195     3198     3200     3196     3194     3195 
    3193     3192     3193     3197     3201     3199     3195     3196 
    3197     3196     3193     3195     3198     3199     3198     3196 
    3198     3200     3196     3195     3198     3201     3201     3199 
    3198     3196     3195     3196     3196     3193     3196     3197 
    3194     3197     3199     3197     3197     3198     3194     3194 
    3199     3200     3198     3199     3197     3197     3197     3193 
    3191     3195     3199     3197     3195     3198     3199     3197 
    3197     3198     3198     3199     3199     3195     3194     3198 
    3200     3196     3193     3198     3201     3199     3199     3199 
    3197     3196     3197     3196     3194     3195     3199     3200 
    3199     3199     3198     3198     3198     3196     3196     3197 
    3198     3197     3197     3198     3199     3200     3200     3198 
    3196     3194     3196     3199     3197     3195     3199     3201 
    3195     3194     3196     3197     3198     3197     3196     3198 
    3198     3198     3199     3196     3195     3198     3197     3196 
    3198     3199     3200     3199     3196     3195     3200     3200 
    3194     3195     3199     3197     3197     3199     3196     3196 
    3199     3198     3198     3199     3196     3195     3197     3195 
    3194     3197     3199     3197     3197     3199     3197     3198 
    3200     3198     3197     3197     3196     3199     3200     3200 
    3199     3199     3200     3198     3196     3197     3197     3199 
    3201     3199     3196     3195     3197     3199     3195     3194 
    3197     3199     3198     3196     3195     3195     3197     3199 
    3198     3197     3197     3199     3198     3194     3194     3196 
    3198     3199     3199     3196     3196     3199     3196     3194 
    3198     3200     3196     3196     3200     3197     3193     3195 
    3200     3201     3199     3199     3199     3196     3195     3196 
    3196     3196     3198     3201     3200     3199     3198     3195 
    3196     3201     3200     3195     3198     3201     3197     3196 
    3197     3195     3197     3199     3195     3193     3195     3195 
    3194     3197     3198     3197     3199     3199     3196     3197 
    3199     3199     3198     3195     3194     3196     3196     3196 
    3197     3197     3196     3197     3196     3196     3198     3198 
    3196     3198     3200     3197     3197     3199     3197     3195 
    3194     3194     3197     3197     3196     3198     3199     3198 
    3199     3199     3197     3196     3197     3199     3199     3197 
    3196     3196     3196     3198     3197     3194     3196     3199 
    3196     3193     3195     3199     3201     3199     3198     3198 
    3196     3196     3198     3197     3195     3195     3195     3196 
    3198     3196     3194     3195     3195     3196     3197     3196 
    3196     3198     3197     3197     3197     3196     3197     3197 
    3196     3196     3195     3196     3196     3197     3199     3200 
    3197     3193     3195     3197     3196     3197     3199     3199 
    3196     3196     3199     3196     3195     3196     3195     3194 
    3197     3197     3198     3196     3193     3197     3201     3199 
    3197     3196     3196     3197     3196     3193     3195     3198 
    3196     3196     3198     3196     3196     3199     3198     3196 
    3195     3195     3198     3198     3195     3196     3197     3197 
    3197     3196     3194     3194     3197     3197     3195     3196 
    3199     3199     3197     3199     3198     3196     3200     3201 
    3197     3197     3198     3196     3193     3195     3198     3197 
    3199     3200     3198     3197     3198     3199     3197     3196 
    3196     3197     3198     3196     3195     3195     3194     3196 
    3198     3195     3196     3198     3197     3196     3198     3197 
    3197     3199     3200     3197     3195     3198     3199     3198 
    3198     3196     3197     3199     3197     3197     3199     3198 
    3197     3198     3198     3194     3195     3198     3199     3197 
    3197     3197     3196     3195     3197     3198     3197     3197 
    3197     3196     3196     3197     3198     3201     3199     3196 
    3198     3199     3197     3196     3196     3197     3198     3199 
    3198     3199     3200     3196     3195     3198     3196     3196 
    3197     3196     3198     3199     3198     3199     3198     3197 
    3197     3197     3197     3196     3195     3198     3198     3196 
    3196     3198     3198     3196     3195     3197     3199     3197 
    3195     3195     3197     3197     3197     3198     3199     3199 
    3198     3195     3194     3198     3199     3197     3195     3196 
    3196     3196     3197     3196     3194     3197     3199     3196 
    3193     3194     3196     3198     3200     3198     3196     3197 
    3196     3195     3196     3198     3198     3197     3196     3196 
    3197     3197     3196     3195     3198     3200     3198     3198 
    3199     3198     3198     3197     3198     3200     3197     3195 
    3197     3197     3196     3198     3200     3198     3195     3195 
    3198     3199     3197     3198     3197     3195     3197     3196 
    3194     3196     3197     3197     3198     3197     3196     3197 
    3197     3196     3197     3199     3198     3196     3196     3197 
    3197     3196     3198     3199     3197     3195     3197     3197 
    3194     3197     3199     3198     3199     3198     3195     3195 
    3198     3198     3197     3200     3201     3198     3198     3199 
    3197     3196     3196     3195     3198     3199     3198     3198 
    3198     3197     3196     3199     3199     3196     3197     3199 
    3199     3198     3196     3196     3196     3193     3190     3187 
    3185     3182     3164     3127     3090     3082     3120     3164 
    3121     3005     2947     3055     3282     3279     2836     2397 
    2574     3354     3734     2983     2172     2163     2333     3104 
    4485     3855     1965     2201     2452     2076     3699     4290 
    3329     3074     1906     1184     1395     1883     3923     3574 
     550     1095     3457     2134      632     2297     2506     2308 
    4619     3439     -320     1018     3795     3026     3516     5737 
    6166     7384     8209     5194     2673     2266     4036     8053 
    4639    -1723     1078      843    -4536    -2446     2288     4973 
    5839     4682     4048     1726     1604     6901     7998     5217 
    3535     -373     -858     3800     2556      592     5486     6844 
    2854      -69    -1486       76     3469     5758     7291     5466 
     910     -454     1309     4682     4734      755     3669     7976 
    7491     6424     1112     -889     -263    -3745     -846      250 
   -3630     4277    13208     8073     -246    -2959    -1449     3734 
    7071     5104     1536     1372     5399     2878    -4111    -6097 
   -6737    -3535      -22     1744     8544     9368     3503     2947 
    2228      843     7736    13830    10655     7585     6735     7357 
    7425     2551      204    -2174    -6247    -5602    -5863    -1094 
   11757    15197     5462    -4087    -3881     3390     6939     1246 
   -2407     3734     7053     7874     9380     1534    -2065     4670 
    7541     7248     1562     2649    17991    19274    12012    10847 
    1254    -3595      798    -8499   -18950   -10743     4092    10479 
    5140     2741    11058     9466      773      501     2541     6749 
    5526    -2928    -6704   -10048    -7231     1312      330    -5779 
  -10842    -8665     3463     4897   -11195   -12657     8265    20286 
   19174    14082     9564     7604    -3782   -10187    -1158      916 
    -399     2460      114    -1700    -2541      -76     9950     1268 
  -18769   -15602    -4593    -1264    -6082    -8316    10724    20443 
   13882    16333    12019     4763    -1752   -24405   -36155   -21087 
   -9585    -8859     4670    26351    27575    17877    17959    13937 
   16384    36349    35109    19499    17565    12221    17004    27189 
    3245   -17481    -3118     9363    12238    13561      699   -10557 
   -5007    -6482   -13691   -15719   -21727   -11933     3621    -4282 
  -11758   -13312   -23882   -39835   -51010   -51870   -47873   -29735 
  -10806   -15766   -29712   -50033   -69291   -67162   -59572   -55849 
  -42935   -20107     1638    10104     8608     8453     -598   -18310 
  -16210    -3668    -4610     -317     6104    -8029   -31994   -46243 
  -34495   -13045   -12251   -12143     6200    19508     5393   -19691 
  -27253   -23741   -11918     9400    27607    41938    38240    29311 
   23541   -11332   -22547    -1411    -9759      929    13297   -16778 
  -23649   -24872   -41957   -37327   -24690   -15401   -24793   -40880 
  -20003     3682    -7865   -23322   -13005    10397    24093    29380 
   13849   -17434   -11794     9574     5178    13367    25327    11564 
   10160    28448    42867    54650    61561    66165    72671    74474 
   70620    59541    60045    80041    84329    63231    25953    -1827 
    9922    14420    -9918    -6690    16333    27204    56365    82170 
   49676    20786    48637    66286    45516    18404     1755     2217 
   -1469   -22454   -44338   -50932   -42955   -47120   -54779   -49666 
  -55205   -57188   -48431   -52109   -54058   -35962     4304    36067 
   44786    62050    72367    79207   114660   155648   185598   189257 
  171547   166946   149109   104679    83644    89721    89036    89141 
   91466    84517    98626   134816   149210   141644   142142   155686 
  169054   161605   124488    97527    93437    68019    29158   -12354 
  -69581   -86840   -47761   -15663     2331    20198    26506    42156 
   87085   123633   118344   121999   163721   181545   168269   157423 
  143021   139049   137364   105457    58778    15086   -22740   -45659 
  -57832   -69391   -63829   -29381    -4145     -799     3823     1127 
   -4459   -10841   -26921   -18182    10944    23160    25624    20372 
    4732   -18016   -46706   -68278   -99060  -163821  -240632  -294404 
 -315579  -317919  -319011  -314794  -275659  -197600  -123852   -84889 
  -69804   -54689   -43832   -51247   -57451   -68163   -98095  -115786 
 -122281  -127071  -121185  -125607  -135267  -135689  -126723  -105402 
  -89898   -63203    -8156    39286    72368   101992   116881   107612 
   74550    33876     6662    -4206    -9582    -9286    -7818   -25972 
  -59873   -99920  -146110  -178648  -213121  -266530  -275216  -236360 
 -217557  -195642  -148736  -108382   -69226   -30712     1606    31705 
   49911    71968    98746   105203   101517    87686    62654    57500 
   65886    69619    89171   119532   142196   180912   225270   230782 
  222786   227015   204158   149580   110944   101051    88704    70726 
   65024    58253    54214    74070    95071    96841    94867    92260 
   72914    44884    26742     5477   -21829   -43358   -62251   -67519 
  -67567   -71666   -55973   -44739   -52420   -50317   -50757   -52413 
  -44662   -44177   -47444   -51602   -56720   -63732   -74967   -69176 
  -40947    -3539    33514    60756    80866    94462    97361    84923 
   56686    24884   -12402   -49422   -67114   -75847   -73116   -46022 
  -20579   -12494   -12805   -17834   -21650   -23261   -21898    -8327 
   17465    44594    64182    81547    98248    91659    68227    57403 
   36671     6061     9016    20404    21463    49192    82885    87661 
   87086    85533    58412    24306    12745     4985   -13312   -20025 
  -17351   -21487   -22856   -31946   -53392   -55907   -49112   -45285 
  -23398    -4468    -7656   -16772   -34780   -62840   -86677  -104144 
 -127433  -163424  -188261  -189686  -196566  -197702  -160985  -119671 
  -91751   -55135   -28361   -16854     -273     3613   -12311   -18314 
    -113    22678    38777    60340    69819    60199    66752    78644 
   70619    67856    81711    84728    64939    44304    34729    29641 
   32279    39557    42947    45640    44607    36045    29774    29485 
   30334    31911    38263    60726    93835   111417   112725   104090 
   71986    30377     7066   -17776   -49726   -46346   -28730   -34714 
  -29681   -17305   -25330   -27705   -18370   -10606     -753     6110 
   12266    28095    40332    41035    50460    67199    76488    89207 
  100872   102147   112669   133506   141152   136153   142940   159319 
  162959   160463   155109   134750   107841    80515    52796    32390 
   19895    14365    19876    41194    68200    83266    94398   105176 
  104267    98302    83898    55747    29594     7021   -10649   -15872 
  -15825   -11659    -8991   -14034   -15953   -21643   -35783   -43452 
  -52239   -63134   -57099   -51877   -61068   -61007   -65812   -86296 
  -93176  -104935  -129131  -125886  -106896   -97349   -96954  -107045 
 -111256  -108890  -116233  -123554  -128770  -131652  -121803  -118751 
 -126323  -115209   -92605   -78726   -66998   -58130   -56389   -51032 
  -47474   -58607   -69410   -72442   -72900   -64145   -54365   -48649 
  -47563   -59776   -64373   -59354   -63782   -60652   -57692   -66224 
  -59277   -44446   -37577   -34141   -39366   -41765   -36655   -35404 
  -32261   -30264   -28759   -20024   -15571    -8831     6917    16088 
   29199    48241    49318    45518    56881    72426    78889    64247 
   30986    10283    17292    23172    12812     8101     9723    15146 
   33781    41276    30322    22579    14370     5952     5038     8599 
   14639    19476    23512    28481    35458    43013    44797    43990 
   38399    23526    13330    15921    22220    24027    28808    42487 
   52132    56451    58195    47806    39284    45238    47093    40683 
   35480    30864    30806    27651     9645     1424    21376    47757 
   70738    98550   130475   161906   182918   192665   197863   193805 
  182630   161811   122019    78917    47925    22626    -7547   -37690 
  -56367   -78297  -105707  -115435  -119569  -129945  -133083  -134239 
 -128881  -105859   -80777   -58419   -41380   -38974   -33540   -23829 
  -23984   -15685       56     1888    -6920   -26555   -49360   -57159 
  -61829   -73004   -80221   -81667   -81309   -84203   -87004   -80444 
  -64704   -36372    -2077    16164    21868    30924    36843    35412 
   38076    45070    45716    38550    30921    26587    23105    23596 
   26744    18891     3155    -6741   -16940   -35979   -50497   -43619 
  -27453   -26393   -33611   -33694   -37666   -44438   -36223   -26285 
  -28910   -30161   -26540   -23463   -23036   -29863   -34965   -30602 
  -26607   -21504    -3770    14155    15772    12927     8714    -4816 
   -8673     1163     7043    14236    23727    30713    42342    52217 
   57197    62164    59919    51860    43494    36403    39696    48939 
   51346    55191    67283    77155    84605    89019    74811    49150 
   32179    15796    -3424    -7992    -5272    -4080    13146    38474 
   54334    65463    71867    79659    88357    86663    86057    85882 
   71929    52841    40744    41107    48020    47225    35314    18019 
   10053    12998     8008    -3155    -9889   -13158    -6897     6649 
   17975    28706    33158    31019    38360    45684    34390    22370 
   24304    26448    20743    12432    12790    21487    23951    24196 
   31787    42745    53291    51147    29835     6068   -11250   -25200 
  -31726   -33492   -38989   -41192   -37108   -36222   -35465   -34825 
  -41804   -50370   -53732   -49318   -38881   -29241   -23771   -27799 
  -36164   -34450   -26143   -24108   -30273   -32607   -28766   -33031 
  -38311   -33578   -29333   -26554   -26440   -29535   -23193   -16768 
  -15151    -4071     4212     -135    -6323   -10466    -8970    -5183 
   -3330     4000     9778     6300     2833      280    -3035    -6619 
  -13916   -17871   -15937   -15765   -21107   -33013   -34356   -16611 
   -5451    -2815    11529    29743    41486    49943    49363    41245 
