Origin Time       2016/04/15 00:03:00
Lat.              32.700
Long.             130.777
Depth. (km)       7
Mag.              6.4
Station Code      KMMH16
Station Lat.      32.7967
Station Long.     130.8199
Station Height(m) 55
Record Time       2016/04/15 00:03:27
Sampling Freq(Hz) 100Hz
Duration Time(s)  300
Dir.              4
Scale Factor      3920(gal)/6170801
Max. Acc. (gal)   353.195
Last Correction   2016/04/15 00:03:12
Memo.             
[...]
     309      251       99       46       86       36      -78     -138 
    -227     -400     -481     -377     -279     -309     -316     -246 
    -239     -261     -181     -116     -175     -185      -56       19 
     -16       19      134      149       87      118      178       97 
     -49     -114     -170     -277     -296     -194     -151     -182 
    -123      -23      -55     -132     -102      -78     -161     -209 
    -183     -250     -401     -457     -411     -378     -309     -122 
      57      110      163      301      350      248      158       89 
     -58     -192     -208     -208     -270     -236      -53       18 
     -62      -53      -23     -130     -231     -227     -223     -269 
    -296     -235     -139     -122     -103        4       17     -108 
    -144      -96     -129     -151      -44       20      -52      -50 
      54       50      -66     -141     -155     -172     -161     -100 
     -78     -127     -130      -56      -64     -170     -193     -158 
    -176     -165      -99     -107     -193     -198      -85      -20 
     -62      -95      -76      -97     -162     -125      -14        4 
     -17       29       53      -22      -92      -80      -93     -153 
    -110      -33      -78     -111      -71     -115     -220     -242 
    -223     -275     -348     -296     -179     -160     -148       -8 
      92       30       14      124      138        3     -114     -173 
    -231     -241     -142      -37      -15      -19      -41     -127 
    -223     -261     -272     -294     -262      -95       84      111 
      76       84       42      -39      -74     -127     -236     -301 
    -280     -249     -232     -141        3       35      -36      -30 
      24      -58     -223     -277     -267     -319     -323     -155 
      31       90      134      210      182       62      -15      -89 
    -244     -357     -332     -295     -311     -247     -102      -33 
     -15       65      125       80       33       39      -17     -146 
    -190     -146     -174     -221     -118       30       48        0 
     -54     -205     -423     -544     -559     -578     -538     -321 
     -35      143      224      275      236       62     -110     -138 
     -87      -54       30      180      239      181      137       84 
     -64     -217     -286     -337     -406     -413     -362     -373 
    -412     -330     -176      -92      -33       72      130       94 
      82      117       73      -25      -64     -123     -252     -297 
    -224     -186     -190     -118        9       61       31       32 
      25     -101     -241     -269     -288     -357     -354     -244 
    -150     -107       -4      152      207      189      227      226 
      81      -77     -174     -299     -432     -450     -379     -330 
    -289     -165      -11       29        1        3      -52     -166 
    -184     -112      -75      -44       49      126       92       30 
      16      -45     -178     -238     -211     -219     -239     -192 
    -153     -194     -220     -153      -94     -116     -119      -69 
     -74     -114      -83      -62     -141     -180     -112      -94 
    -166     -170      -63        1       -5       58      165      163 
      83       38      -39     -209     -333     -335     -335     -353 
    -270     -105        6       43       84      100        1     -130 
    -186     -233     -280     -230     -139     -112      -88       -4 
      13     -108     -205     -196     -213     -269     -203      -43 
      14        6       74      140      104       47       33      -33 
    -194     -297     -293     -312     -345     -249      -89      -38 
     -39       21       49      -28      -83      -55      -63     -142 
    -162     -132     -178     -243     -221     -195     -225     -205 
     -97       -7       10       38      107      110       59       79 
      84      -56     -198     -222     -247     -320     -311     -213 
    -177     -195     -122      -19      -24      -35       38       45 
     -83     -163     -122     -132     -227     -229     -137     -127 
    -172     -119      -51      -89      -98       13       75       16 
      -5       41       -7     -156     -246     -259     -296     -318 
    -243     -158     -130      -72       25       46        9       36 
      63      -24     -114      -90      -73     -144     -165      -87 
     -67     -131     -135      -92     -130     -198     -172     -136 
    -202     -254     -201     -166     -205     -181      -64       -4 
     -10       32       81       42        7       53       53      -49 
    -112     -110     -178     -300     -320     -266     -270     -265 
    -147      -41      -47      -34       53       60      -31      -57 
     -29      -90     -179     -160     -121     -166     -179      -90 
     -46     -112     -150     -116     -139     -205     -180     -102 
     -93      -86        3       57        3      -50      -55     -105 
    -206     -247     -224     -225     -204      -98      -27      -62 
     -67        7       15      -62      -74      -22      -28      -69 
     -48      -26      -98     -164     -138     -149     -241     -260 
    -188     -152     -152      -92       -3        6      -23       -9 
     -32     -128     -180     -163     -187     -242     -219     -158 
    -156     -152      -89      -53      -82      -77      -20      -25 
     -84      -69      -10      -25      -56       -5       35      -24 
     -92      -85      -82     -147     -180     -137     -141     -213 
    -237     -213     -226     -235     -171     -117     -140     -165 
    -122      -55       -3       71      108       11     -110      -98 
     -24      -40     -100      -87      -69     -129     -176     -152 
    -141     -229     -300     -219     -128     -138     -126      -83 
     -79      -72      -45      -13       16      -15      -73      -94 
    -107      -79        8      -10     -177     -322     -350     -218 
      44      195       99      -95     -193     -176     -157     -146 
    -152     -238     -312     -275     -121       46       34      -48 
      36       89      -43      -97     -110     -262     -259      -73 
     -47     -106      -87      -95     -190     -285     -158      118 
     149      -56     -158     -141     -215     -295     -141       42 
     -10      -35       29     -106     -269     -245     -197     -128 
     -29      -41      -94     -135     -212     -186        3      119 
      32     -100     -149     -120     -129     -262     -335     -231 
    -147     -149      -62       78       69        1       82      202 
     120     -130     -277     -250     -265     -352     -301     -151 
    -113     -148     -113       -4       60       17      -31      -47 
    -124     -194     -133      -56     -134     -231     -142      -22 
     -81     -168     -127      -77      -84      -69      -70     -166 
    -226     -148      -53        3       70       70      -65     -226 
    -318     -363     -319     -150      -31      -63      -59       64 
     162      213      256      209       35     -197     -366     -375 
    -323     -368     -419     -311     -122       26      158      276 
     271       90     -129     -281     -420     -525     -512     -407 
    -270      -71      132      185      189      301      342      168 
     -21      -94     -237     -504     -631     -535     -411     -327 
    -193      -18       69       70      103      100      -60     -227 
    -229     -190     -186      -81      109      214      206      200 
     216      129      -56     -231     -420     -616     -683     -602 
    -483     -327      -35      293      408      310      202      103 
     -37     -130     -140     -130     -109      -54       14        1 
    -104     -172     -193     -253     -292     -221     -146     -229 
    -391     -435     -326     -139       27       57       -3      113 
     410      456      120     -213     -333     -344     -332     -300 
    -173       -8       -5      -34       71       41     -142     -177 
    -166     -249     -198       18       86      -15      -11       40 
    -144     -491     -666     -588     -424     -228        9      215 
     335      360      276      105       40      106      -78     -494 
    -600     -330      -85      -98     -294     -365     -156       82 
     207      255       47     -314     -376      -94      241      246 
    -280     -818     -729     -193      253      390       96     -370 
    -295      152      287      363      494      136     -433     -504 
    -288     -344     -632     -692     -341      -65     -244     -422 
    -265     -134     -139       10      239      277      224      244 
     236      124     -155     -776    -1588    -1906    -1213      102 
    1233     1721     1374      437     -450    -1025    -1141     -793 
    -900    -1947    -3156    -3927    -3736    -2118     -390     -434 
   -1650    -1555     1354     5915     8770     7558     3527     -214 
   -1636     -608     1328     2085     1320      935     1578      690 
   -3510    -8948   -12114   -11481    -8862    -8259   -11808   -16588 
  -16665    -8346     5231    15155    16770    15270    17061    22318 
   26302    23746    14718     4377    -2484    -3741    -1316      411 
    -712    -4292   -10217   -18806   -27965   -32648   -29118   -18893 
   -6398     5169    13250    16456    15797    11777     4185    -4589 
   -9457    -6777     2577    14607    24564    30206    32761    31222 
   21761     5226   -11201   -19752   -18186   -11561    -7202    -8046 
  -11926   -16404   -21063   -25750   -30075   -32387   -29954   -22189 
  -10406     3083    14417    21153    23397    21324    16796    14474 
   16047    17778    15998    10862     4979      521    -1958    -2241 
     282     5291     9979    10635     6497    -1016   -12021   -26707 
  -41680   -51554   -53309   -47380   -35514   -19303     -281    19485 
   36668    48589    55494    57910    55434    48960    40096    30808 
   22725    14891     5970    -3046    -9363   -10833   -10320   -14258 
  -23877   -32496   -34873   -32107   -24894   -14611    -5542     3327 
   14493    25881    35217    37458    30696    23439    18445    10511 
    2545     -935    -1999     -283     6175    15304    25435    33958 
   33149    20083     3214    -9382   -16720   -18484   -14052    -5545 
    5023    17396    28238    31627    26251    14439    -1227   -16364 
  -26821   -30422   -26276   -15894    -1962    11769    19416    18718 
   12638     4072    -2421    -2856     -782     -229     1417     7666 
   17809    28294    36314    40511    39409    33336    26106    21174 
   19485    20648    21859    20329    17340    15022    14071    15913 
   20911    25519    24317    15345     2675    -8799   -18263   -26216 
  -32807   -39558   -47180   -53799   -58444   -61525   -62388   -61875 
  -62821   -65762   -68811   -70498   -71674   -74580   -79165   -83416 
  -86260   -87710   -89769   -94557   -99609  -101938  -102739  -102982 
 -100628   -91985   -74218   -49930   -26816    -7895    14265    46826 
   87463   130419   173177   219327   269347   308012   322112   313417 
  287336   253858   220705   186502   152826   117347    70918    18618 
  -23840   -55901   -87909  -118846  -145065  -168536  -184325  -190235 
 -194426  -202547  -212986  -219851  -223617  -227519  -227032  -220968 
 -210321  -194715  -181264  -170188  -153195  -138252  -130267  -116318 
  -97856   -76908   -43620    -1316    46106    94224   138146   186928 
  235024   272243   304418   321681   316115   297091   258391   196434 
  125877    59243     8600   -18302   -26018   -23177   -15126    -1737 
   18776    40886    57161    74884   100956   126952   147517   161106 
  162617   148612   118103    77429    35003    -9059   -54666   -98960 
 -140557  -176109  -203226  -222406  -232235  -234836  -237249  -238631 
 -234074  -229806  -232162  -230609  -212022  -177962  -136875   -92641 
  -41760    19317    82260   132381   163413   177524   176417   159814 
  130539    97606    68004    38536     9148   -14818   -35770   -54148 
  -67101   -79824   -94204  -100513   -88120   -55661    -9635    41745 
   89896   129557   156791   167236   167200   162981   147808   120325 
   90231    64582    42783    23803    12635    10195    13533    25875 
   43782    56845    69176    88087   105589   116767   126348   133283 
  134771   132074   127196   121991   114066   100701    84142    65739 
   45618    25884     8812    -5047   -11780    -2391    19512    39491 
   55674    68829    73178    69523    57774    33795     3401   -25709 
  -57369   -92551  -123449  -152919  -185978  -212433  -229309  -252113 
 -288416  -326465  -353972  -370234  -381016  -388222  -383461  -363951 
 -336821  -299418  -253713  -212853  -175302  -133369   -86815   -36836 
   17419    78977   136617   185731   254276   331034   362903   375244 
  421154   453866   431382   386686   322998   236565   159999    99345 
   50613    21942     7631     6271    14566    21292    35535    62116 
   88547   115903   146036   168581   183383   196482   204553   204262 
  196213   179734   156916   130530    99655    62328    18950   -25616 
  -72034  -124745  -176261  -221252  -264790  -306053  -345113  -386057 
 -426086  -463142  -493815  -510643  -513353  -501162  -474595  -447098 
 -430227  -419341  -395676  -345541  -277531  -203572  -124677   -41620 
   44725   131923   218277   308298   397735   474078   528640   555949 
  551828   507853   430595   350380   282949   222582   161221    97256 
   38028   -16586   -68432  -110913  -143119  -161665  -158665  -140576 
 -115988   -82777   -45827   -12261    20033    49398    76841   106829 
  131523   145731   154490   158297   156473   151233   143476   136187 
  131136   123092   107323    84239    55799    23789   -13750   -59781 
 -107000  -146520  -181917  -214974  -240145  -259126  -275309  -284324 
 -281065  -265257  -240754  -210456  -171497  -119919   -59908    -5268 
   29116    42872    58306    94796   139211   171729   197127   215431 
  211048   187535   156748   118089    75223    32576   -11415   -53709 
  -91915  -125867  -149260  -159987  -164540  -164173  -156435  -141493 
 -121519  -100263   -78426   -54029   -24733     7396    35583    60916 
   88953   119212   146857   165536   171629   165749   152422   138485 
  126996   116806   105543    91917    79074    68935    55221    34221 
   10301   -15715   -45718   -76333  -102769  -124930  -143665  -155509 
 -159002  -156736  -150385  -142228  -133028  -119714  -102847   -85961 
  -67710   -47016   -24872       74    25118    45754    62297    75553 
   85367    90504    89457    81918    67741    48812    27250     3637 
  -19758   -40470   -58161   -72301   -79609   -76047   -61263   -38701 
  -13588    10888    37429    68317    99795   128692   154211   174845 
  191196   203496   209317   207101   195180   173648   146708   117613 
   87321    56993    27999      978   -24172   -45598   -60488   -68885 
  -71368   -67841   -60019   -51498   -43927   -34834   -24480   -17426 
  -14972   -14191   -12235   -10743   -15095   -26716   -40160   -49426 
  -52655   -51054   -48502   -49477   -54311   -57802   -56334   -53986 
  -53126   -49851   -42985   -33929   -23018   -12222    -4930    -2231 
   -2892    -6872   -13623   -20257   -26841   -35350   -44106   -51161 
  -56750   -60515   -62547   -63563   -61210   -52239   -37312   -18765 
    1904    24051    47510    69648    87342   100490   109181   113204 
  113588   111469   106532    96812    82100    64931    46790    27987 
    9888    -6031   -19172   -28642   -33027   -31796   -25946   -17794 
  -10103    -3844     1856     7890    14907    21695    26076    29301 
   33461    37921    42086    45138    44626    39050    28716    15913 
    3887    -7234   -18591   -27395   -29731   -26169   -20057   -12300 
   -2947     4815     8267     7819     3705    -4776   -17899   -34309 
  -50780   -65336   -77980   -88201   -95570  -100659  -103471  -103154 
  -99943   -95329   -89199   -79106   -63511   -44318   -24567    -4220 
   17700    39418    59222    76054    86936    89821    86224    77306 
   61872    41052    18473    -4487   -27836   -50399   -70754   -88344 
 -101867  -107861  -104128   -92934   -79699   -68985   -60297   -50408 
  -37577   -20576    -1591    14054    25988    35482    40739    42091 
   40725    36075    28111    18043     8691     1839    -2344    -2586 
     627     4555     7669    10025    12772    16316    19453    21660 
   24153    28508    35164    43300    51083    57129    62433    68416 
   74402    79130    81982    82120    78996    72956    64923    55782 
   45309    33386    21836    12551     5970     2734     3799     8524 
   14319    18588    20205    18599    14441     9946     5673      918 
   -4407   -10321   -15964   -20697   -25675   -31260   -35972   -38492 
  -38860   -38662   -39213   -39046   -36115   -31257   -26045   -20662 
  -15622   -12220   -11469   -13625   -18024   -23872   -31168   -39374 
  -46464   -50667   -51728   -50558   -47679   -42576   -35817   -29456 
  -24831   -21479   -18209   -14654   -10649    -5832     -946     3492 
    8904    15965    22708    27379    30312    32152    32474    30121 
   24743    17567     9566     1247    -5912   -11009   -14822   -18113 
  -21112   -23925   -26116   -27255   -27529   -26419   -22183   -14249 
   -4130     7124    18979    29776    38502    45231    49721    52369 
   54231    56060    58859    63830    70948    78404    84339    88042 
   89200    87352    82324    75228    67339    58510    49199    41040 
   33936    25824    15680     4859    -4840   -12692   -18675   -23006 
  -25494   -25332   -22077   -16614   -10088    -2781     4286     9555 
   13251    15980    16899    15278    11859     7993     3997     -783 
   -6223   -11192   -14965   -17413   -18463   -18827   -19836   -21435 
  -22619   -23897   -26583   -30814   -36316   -43359   -51731   -60132 
  -67763   -75303   -83014   -89125   -91528   -90049   -85003   -75284 
  -60708   -43434   -25699    -8665     7031    20473    30527    37148 
   40845    41476    38976    33509    25509    16572     8487     1488 
   -4811    -9486   -11055    -9128    -3994     3936    13579    23127 
   30793    35743    38036    37502    33489    25908    16262     6680 
   -1925    -8937   -12986   -13727   -12433   -10178    -6934    -2643 
    1346     3848     6254    10012    13805    15785    15731    13794 
    9789     4586      149    -2633    -4950    -7558    -8814    -7844 
   -6600    -6567    -7256    -7876    -8111    -8101    -8187    -8775 
  -10128   -12411   -16462   -22841   -30465   -37996   -44592   -48862 
  -49737   -47757   -44598   -41527   -37823   -32173   -25006   -17418 
   -9908    -3315      941     2500     2770     2619      587    -4592 
  -11362   -17452   -22619   -27522   -32000   -35467   -37789   -39369 
  -40088   -39379   -38159   -37808   -37452   -35407   -31912   -28146 
  -23938   -18566   -12787    -8203    -5427    -3961    -3516    -3930 
   -4178    -3463    -1561     2299     7942    13960    20446    27964 
   35058    40333    44284    47719    50489    52171    52921    52368 
   49283    43647    36641    29000    21236    14263     9001     5796 
