Origin Time       2016/04/16 01:25:00
Lat.              32.753
Long.             130.762
Depth. (km)       12
Mag.              7.3
Station Code      KMMH14
Station Lat.      32.6345
Station Long.     130.7521
Station Height(m) -40
Record Time       2016/04/16 01:24:20
Sampling Freq(Hz) 100Hz
Duration Time(s)  300
Dir.              1
Scale Factor      2940(gal)/6170270
Max. Acc. (gal)   127.473
Last Correction   2016/04/16 01:24:05
Memo.             
[...]
  -44248   -44243   -44243   -44246   -44246   -44249   -44245   -44241 
  -44245   -44246   -44243   -44242   -44247   -44247   -44242   -44245 
  -44244   -44244   -44247   -44241   -44246   -44250   -44239   -44241 
  -44249   -44248   -44244   -44245   -44247   -44241   -44241   -44246 
  -44241   -44243   -44247   -44241   -44244   -44247   -44243   -44245 
  -44249   -44246   -44244   -44241   -44238   -44244   -44251   -44247 
  -44244   -44246   -44242   -44239   -44244   -44247   -44243   -44243 
  -44246   -44246   -44247   -44243   -44240   -44245   -44245   -44242 
  -44245   -44248   -44246   -44245   -44246   -44245   -44245   -44244 
  -44240   -44242   -44245   -44246   -44245   -44240   -44244   -44249 
  -44243   -44241   -44246   -44247   -44244   -44241   -44240   -44244 
  -44246   -44243   -44244   -44246   -44244   -44241   -44244   -44248 
  -44247   -44246   -44243   -44238   -44240   -44245   -44242   -44239 
  -44243   -44249   -44250   -44250   -44249   -44244   -44246   -44252 
  -44246   -44238   -44238   -44243   -44244   -44239   -44242   -44247 
  -44246   -44245   -44248   -44248   -44243   -44242   -44242   -44240 
  -44243   -44246   -44247   -44247   -44244   -44245   -44241   -44237 
  -44245   -44244   -44241   -44248   -44249   -44245   -44242   -44246 
  -44246   -44245   -44250   -44248   -44240   -44240   -44241   -44243 
  -44244   -44244   -44246   -44245   -44241   -44242   -44245   -44248 
  -44253   -44255   -44246   -44242   -44245   -44242   -44239   -44238 
  -44239   -44247   -44248   -44244   -44244   -44244   -44244   -44245 
  -44245   -44238   -44238   -44244   -44246   -44247   -44248   -44247 
  -44248   -44243   -44235   -44236   -44241   -44246   -44251   -44250 
  -44248   -44248   -44246   -44242   -44238   -44237   -44244   -44250 
  -44249   -44246   -44243   -44244   -44243   -44241   -44240   -44240 
  -44244   -44247   -44246   -44247   -44248   -44247   -44246   -44243 
  -44240   -44242   -44245   -44243   -44244   -44249   -44248   -44243 
  -44240   -44244   -44247   -44243   -44243   -44246   -44241   -44240 
  -44246   -44247   -44242   -44244   -44249   -44244   -44240   -44245 
  -44247   -44241   -44238   -44241   -44244   -44245   -44245   -44244 
  -44246   -44247   -44243   -44241   -44243   -44249   -44248   -44242 
  -44246   -44243   -44239   -44244   -44245   -44247   -44247   -44242 
  -44244   -44249   -44248   -44240   -44239   -44244   -44243   -44241 
  -44241   -44246   -44248   -44246   -44246   -44243   -44242   -44245 
  -44246   -44248   -44244   -44246   -44249   -44243   -44241   -44241 
  -44240   -44246   -44243   -44241   -44246   -44246   -44244   -44244 
  -44245   -44243   -44245   -44247   -44244   -44247   -44248   -44240 
  -44240   -44242   -44245   -44249   -44247   -44245   -44246   -44246 
  -44244   -44242   -44247   -44248   -44244   -44241   -44245   -44248 
  -44245   -44244   -44244   -44242   -44246   -44247   -44246   -44246 
  -44243   -44244   -44245   -44243   -44245   -44248   -44250   -44249 
  -44242   -44243   -44245   -44243   -44246   -44245   -44240   -44242 
  -44244   -44242   -44243   -44242   -44245   -44249   -44246   -44246 
  -44247   -44241   -44242   -44246   -44241   -44241   -44248   -44246 
  -44242   -44247   -44250   -44248   -44246   -44244   -44244   -44245 
  -44247   -44246   -44244   -44245   -44245   -44243   -44243   -44244 
  -44246   -44246   -44243   -44244   -44246   -44243   -44241   -44246 
  -44246   -44244   -44246   -44244   -44242   -44248   -44248   -44242 
  -44242   -44243   -44244   -44245   -44242   -44243   -44245   -44245 
  -44246   -44245   -44243   -44243   -44241   -44242   -44244   -44245 
  -44244   -44243   -44243   -44245   -44246   -44245   -44243   -44246 
  -44250   -44249   -44248   -44243   -44238   -44239   -44244   -44248 
  -44247   -44246   -44245   -44240   -44239   -44243   -44247   -44246 
  -44242   -44242   -44244   -44243   -44245   -44245   -44246   -44246 
  -44241   -44243   -44247   -44244   -44242   -44243   -44244   -44246 
  -44246   -44244   -44246   -44246   -44244   -44244   -44243   -44244 
  -44247   -44247   -44243   -44245   -44249   -44248   -44246   -44246 
  -44245   -44244   -44241   -44240   -44243   -44246   -44247   -44245 
  -44244   -44247   -44245   -44244   -44243   -44243   -44247   -44248 
  -44243   -44244   -44246   -44245   -44244   -44243   -44244   -44244 
  -44243   -44241   -44241   -44246   -44247   -44245   -44246   -44245 
  -44244   -44244   -44244   -44245   -44246   -44246   -44246   -44243 
  -44244   -44247   -44243   -44240   -44245   -44247   -44244   -44244 
  -44242   -44240   -44244   -44245   -44242   -44243   -44246   -44246 
  -44244   -44245   -44246   -44245   -44246   -44246   -44244   -44247 
  -44247   -44246   -44246   -44246   -44245   -44244   -44242   -44242 
  -44242   -44244   -44245   -44244   -44246   -44244   -44243   -44244 
  -44245   -44246   -44244   -44243   -44246   -44246   -44245   -44245 
  -44246   -44245   -44243   -44243   -44244   -44245   -44244   -44243 
  -44243   -44244   -44244   -44244   -44245   -44246   -44245   -44244 
  -44244   -44245   -44246   -44247   -44247   -44245   -44245   -44246 
  -44245   -44244   -44245   -44244   -44242   -44244   -44246   -44244 
  -44245   -44246   -44245   -44243   -44243   -44246   -44247   -44244 
  -44242   -44243   -44246   -44246   -44244   -44246   -44246   -44244 
  -44245   -44244   -44242   -44242   -44243   -44244   -44245   -44245 
  -44243   -44243   -44243   -44244   -44244   -44243   -44244   -44245 
  -44243   -44244   -44245   -44246   -44245   -44242   -44242   -44242 
  -44244   -44247   -44245   -44244   -44244   -44243   -44245   -44245 
  -44244   -44245   -44246   -44247   -44245   -44243   -44243   -44243 
  -44243   -44245   -44245   -44243   -44244   -44243   -44240   -44244 
  -44247   -44243   -44244   -44247   -44244   -44242   -44243   -44245 
  -44245   -44243   -44243   -44245   -44245   -44245   -44246   -44246 
  -44247   -44247   -44242   -44241   -44246   -44247   -44245   -44245 
  -44245   -44246   -44245   -44242   -44242   -44244   -44244   -44243 
  -44243   -44242   -44243   -44247   -44246   -44245   -44244   -44243 
  -44244   -44243   -44242   -44245   -44245   -44246   -44247   -44243 
  -44243   -44244   -44244   -44245   -44246   -44246   -44244   -44243 
  -44245   -44244   -44243   -44245   -44245   -44245   -44243   -44242 
  -44245   -44245   -44244   -44243   -44243   -44245   -44245   -44246 
  -44247   -44245   -44245   -44245   -44245   -44244   -44242   -44245 
  -44245   -44243   -44248   -44250   -44245   -44243   -44244   -44243 
  -44243   -44246   -44246   -44245   -44245   -44246   -44244   -44243 
  -44243   -44244   -44243   -44243   -44244   -44245   -44244   -44244 
  -44244   -44245   -44247   -44246   -44247   -44247   -44244   -44244 
  -44244   -44242   -44242   -44244   -44245   -44244   -44244   -44247 
  -44244   -44239   -44243   -44247   -44245   -44245   -44246   -44243 
  -44243   -44246   -44246   -44243   -44246   -44247   -44246   -44243 
  -44242   -44243   -44243   -44244   -44246   -44245   -44245   -44244 
  -44242   -44244   -44244   -44244   -44245   -44244   -44244   -44244 
  -44244   -44244   -44244   -44246   -44246   -44243   -44244   -44247 
  -44248   -44246   -44247   -44247   -44246   -44246   -44246   -44246 
  -44247   -44247   -44245   -44244   -44246   -44243   -44242   -44245 
  -44244   -44245   -44246   -44244   -44245   -44246   -44245   -44246 
  -44245   -44246   -44247   -44247   -44245   -44243   -44243   -44243 
  -44245   -44247   -44248   -44246   -44245   -44244   -44243   -44245 
  -44248   -44246   -44247   -44247   -44244   -44244   -44247   -44245 
  -44243   -44244   -44244   -44244   -44244   -44243   -44244   -44244 
  -44245   -44246   -44246   -44243   -44243   -44246   -44246   -44244 
  -44246   -44245   -44243   -44246   -44246   -44245   -44247   -44244 
  -44240   -44242   -44243   -44244   -44246   -44245   -44246   -44245 
  -44244   -44243   -44244   -44246   -44247   -44246   -44246   -44246 
  -44245   -44243   -44243   -44245   -44244   -44245   -44245   -44244 
  -44245   -44247   -44247   -44246   -44245   -44245   -44245   -44246 
  -44246   -44245   -44243   -44243   -44246   -44246   -44246   -44248 
  -44248   -44247   -44247   -44244   -44242   -44243   -44246   -44247 
  -44247   -44245   -44244   -44246   -44245   -44244   -44247   -44246 
  -44245   -44246   -44246   -44246   -44245   -44245   -44245   -44243 
  -44242   -44244   -44246   -44247   -44246   -44246   -44245   -44244 
  -44245   -44245   -44245   -44245   -44245   -44245   -44246   -44247 
  -44246   -44243   -44243   -44244   -44246   -44248   -44245   -44243 
  -44244   -44245   -44244   -44244   -44246   -44247   -44246   -44247 
  -44248   -44246   -44245   -44244   -44244   -44245   -44246   -44244 
  -44244   -44245   -44246   -44245   -44244   -44244   -44244   -44245 
  -44245   -44246   -44247   -44246   -44243   -44243   -44245   -44246 
  -44245   -44244   -44245   -44246   -44245   -44244   -44244   -44245 
  -44246   -44246   -44243   -44243   -44246   -44248   -44247   -44246 
  -44247   -44246   -44244   -44245   -44246   -44246   -44245   -44245 
  -44246   -44245   -44243   -44244   -44247   -44247   -44246   -44250 
  -44257   -44260   -44262   -44267   -44277   -44306   -44365   -44429 
  -44433   -44344   -44230   -44200   -44267   -44310   -44160   -43926 
  -44001   -44483   -44961   -44816   -43974   -43466   -43716   -43974 
  -44568   -45271   -44343   -42939   -42874   -42601   -42327   -43586 
  -44474   -43903   -42750   -41569   -41739   -43115   -45366   -48459 
  -48872   -46506   -45161   -44813   -45018   -45786   -46211   -46682 
  -47574   -48022   -46993   -46317   -47165   -47679   -47105   -42721 
  -35831   -33001   -33539   -36580   -41934   -44804   -45909   -45875 
  -42861   -41226   -41933   -41989   -44229   -48346   -49272   -48868 
  -49617   -48569   -46889   -47610   -47368   -44652   -42809   -40674 
  -39588   -44318   -49710   -50831   -48673   -43080   -37902   -36205 
  -36403   -39121   -44873   -50212   -50431   -46126   -41645   -39442 
  -40986   -44810   -48564   -51159   -51641   -51565   -49729   -45773 
  -42934   -40744   -42215   -44275   -38955   -37993   -47194   -51442 
  -46231   -42292   -47992   -52862   -46630   -44881   -51365   -51853 
  -54447   -64532   -63339   -49582   -42608   -42976   -42611   -46975 
  -52079   -48793   -46183   -48088   -48841   -52039   -53793   -48453 
  -46556   -48590   -46934   -46492   -45877   -42586   -42740   -41540 
  -37354   -38678   -42545   -44491   -48220   -52501   -49131   -42128 
  -44770   -47583   -44403   -48800   -52626   -54837   -68110   -72299 
  -59840   -53623   -55101   -52671   -47499   -44905   -43581   -42181 
  -40407   -36467   -37264   -41297   -37742   -31162   -27327   -29084 
  -36036   -43018   -54008   -55666   -36593   -23689   -23595   -20299 
  -21018   -32544   -47075   -51557   -45696   -44476   -44689   -40357 
  -41143   -43931   -42943   -45466   -51924   -53091   -46624   -44734 
  -52198   -54302   -49740   -45566   -35792   -27198   -30660   -39473 
  -42182   -35937   -36438   -46180   -46676   -38877   -26263   -16163 
  -21944   -22859   -12425   -18319   -35672   -39494   -32534   -30728 
  -32316   -34247   -43410   -57643   -67696   -59416   -34399   -15932 
   -6910    -4486   -28995   -76834  -102350   -89740   -75746   -75976 
  -62904   -27720     -923    -4226   -23961   -32822   -32440   -43283 
  -51259   -48975   -47839   -28048    -5804   -18147   -36644   -50695 
  -77128   -87739   -81672   -83979   -78850   -66939   -64028   -51695 
  -29708   -33290   -60617   -72938   -67752   -62276   -55506   -58453 
  -71520   -70173   -67073   -81828   -90553   -87997   -94441  -106172 
 -109030   -97361   -82664   -77773   -71632   -60575   -44884   -14093 
    6662    -3795    -6667    15086    20170    -8340   -43906   -58635 
  -39591   -17522   -25016   -31294   -24107   -22273   -16014   -17940 
  -33146   -32154   -29824   -46048   -49496   -35421   -44488   -59830 
  -42674   -28758   -22601     4507     8322   -20799   -38814   -41887 
  -33491   -23815   -20882   -15384   -12537   -15681   -40687   -72243 
  -61900   -41540   -37261   -28509   -39505   -86288  -128260   -94669 
  -17007    -7032   -25577   -21194   -48117   -65714   -34716    -3410 
   24817    30639     1220     -666    26410    34529    25061    22733 
   43388    64808    66336    65696    57118    36070    28070    20108 
  -11496   -35594   -10399    27184    10847   -16217    -5977   -17827 
  -65970  -100412  -108707   -88908   -61999   -64492   -67366   -48107 
  -38230   -33682   -38932   -67688   -59881    -5935    19777    10167 
    8953    15821     3978   -12225    -4927    -4023   -33459   -62792 
  -60333   -33294   -26907   -35997   -13447    11756     9571    10526 
    8834    -5528    -8904   -10969   -23398   -32552   -25376     1636 
   16271     4858     2571    10803    -2100   -28451   -41518   -64676 
 -111663  -132723  -112357   -91045   -83992   -72307   -74058  -121450 
 -162647  -165133  -182325  -212659  -237907  -281809  -309170  -294900 
 -274862  -235722  -180587  -162626  -153586  -107566   -47265     -104 
    9604   -16827   -36769   -34881   -25965   -27242   -45413   -47444 
  -22060   -23751   -65396  -102315  -130070  -172202  -232930  -291317 
 -311788  -294599  -274546  -261705  -250336  -243037  -236505  -234495 
 -248926  -271678  -288596  -292392  -274601  -250876  -238947  -224981 
 -212536  -209034  -201484  -211485  -247537  -262178  -244486  -227631 
 -214233  -182272  -123407   -51999     8802    49822    72289    68504 
   51072    58414    77467    74973    72606    75443    68166    66431 
   69007    70673    73650    60241    43954    50477    66525    81218 
   97667   117721   137639   146417   148103   147597   133849   111164 
   92351    73909    60867    70784    90500    95570   102884   119300 
  114215    87384    51917     5025   -36635   -68325  -104254  -130591 
 -136140  -129625  -120322  -121713  -126655  -125408  -127712  -114442 
  -75623   -38220    -2583    24992    27019    30913    42184    29772 
   10448    12887    24474    38056    49575    36932     5746   -24372 
  -50262   -44623    16462    87330   107294    82254    59695    62676 
   75371    82755    93410   111627   129271   144965   164782   192000 
  214974   218248   203822   186560   185142   201419   211704   200968 
  179692   157838   116968    52387     9139    -9336   -44008   -73913 
  -78370   -90664  -112598  -132437  -158481  -164933  -136903  -118886 
 -131775  -148042  -152743  -147618  -135967  -131681  -143669  -166261 
 -193908  -204980  -179811  -153641  -160228  -174176  -176636  -179782 
 -176828  -153375  -122420  -104754  -104073  -109463  -113243  -115206 
 -106173   -85894   -76590   -81438   -79331   -74343   -88675  -112438 
 -130008  -154081  -180838  -188529  -175648  -151700  -132107  -126363 
 -125924  -131333  -145397  -153581  -150920  -151936  -162354  -168087 
 -164250  -164517  -171592  -180116  -186396  -173201  -132598   -88390 
  -59076   -41568   -37709   -41701   -36112   -32845   -45295   -48612 
  -34436   -28927   -35618   -39805   -48754   -64722   -70583   -69911 
  -76800   -85384   -84991   -75722   -67072   -64128   -61012   -60812 
  -71816   -79496   -64210   -37155   -25563   -33892   -38569   -26581 
  -18092   -23996   -27445   -23447    -9508    24409    57568    71610 
   82247    95794   114866   134755   128005   111159   118037   117614 
   85814    48597    11142   -29933   -54229   -62774   -72122   -84740 
 -106025  -131610  -142021  -131071  -113578  -108375  -105702   -82515 
  -49333   -25243     4023    41573    54479    48075    57048    69845 
   69710    72853    83157    85784    77501    63281    43574    22366 
    3479   -15395   -30088   -39834   -54774   -68566   -71122   -83506 
 -116350  -136389  -128458  -125335  -145560  -165909  -170811  -174350 
 -181456  -179862  -172995  -173251  -176995  -173836  -166520  -164284 
 -158932  -140221  -119317  -102199   -87553   -86822   -93103   -88734 
  -90800  -108193  -118451  -124138  -137634  -148739  -152861  -149197 
 -136823  -127399  -121211  -106107   -81989   -53567   -27886   -14246 
   -8079      101    13835    32428    40949    35202    35268    41857 
   42054    29005     -850   -29357   -47944   -65761   -77012   -84587 
  -85988   -75906   -78948   -88560   -82076   -81599   -94642  -110386 
 -129772  -131481  -111968  -107607  -115584  -103858   -83296   -74653 
  -68342   -65195   -72618   -72807   -63831   -60205   -44602    -9130 
   12511     4910   -11470   -18558    -8098    17887    39577    45584 
   55886    83985   106944   111387   114749   118823   109964    96030 
   95663   111604   131029   140635   133822   109024    73837    44356 
   27641    21052    23798    26179    25965    38232    48767    40142 
   34227    35782    33171    33100    35545    40184    46963    48920 
   48011    43804    45320    63092    68440    52019    51564    58740 
   41754    23622    17044     2230   -12122   -12726   -12406   -18191 
  -18902   -13959   -20398   -40338   -58550   -69586   -74759   -74336 
  -74536   -80987   -87983   -83741   -69161   -59284   -58118   -55175 
  -46222   -38509   -40670   -50806   -59770   -65199   -66323   -62361 
  -63110   -75876   -95552  -114785  -126369  -130873  -139720  -154553 
 -167598  -175225  -173191  -167656  -174758  -192597  -206000  -203479 
 -184962  -170354  -166749  -153637  -136035  -131521  -124220  -115351 
 -123225  -125899  -110454   -93748   -71256   -44627   -36380   -42465 
  -41974   -34165   -32491   -39457   -45135   -49382   -58764   -72793 
  -89118   -99649   -98642   -93587   -83670   -67032   -57162   -56147 
  -56115   -55877   -54373   -56815   -63936   -65295   -60959   -52429 
  -38554   -28812   -27203   -29028   -34071   -43990   -59212   -78513 
  -98990  -111708  -108110   -96963   -90384   -90111   -93846   -90498 
  -76169   -66433   -64797   -59851   -49073   -30269    -2951    16042 
   17431    14069    12078    17680    44153    69757    66639    58424 
   64199    61485    46080    38415    37113    27794    14950    10822 
   16656    25834    29225    28163    30628    31776    29052    27895 
   24955    23654    31708    34077    18897     5029    10686    29853 
   46921    51352    45019    40171    42984    46506    47615    51033 
   52370    51141    54997    53249    34973    13431     2492    -2896 
  -10049   -17611   -30133   -44223   -42893   -31290   -22257   -10944 
   -7609   -28190   -49795   -49698   -48286   -58166   -62782   -62959 
  -69042   -70558   -61431   -54223   -52986   -50464   -47504   -43859 
  -31625   -15204    -9783   -16686   -22141   -21094   -22863   -27166 
  -22702   -14532   -13668   -13554   -10222   -12611   -27604   -55401 
  -80717   -86843   -84025   -86190   -92812  -103142  -109881  -107069 
  -99925   -90289   -85699   -93138  -100421  -104433  -113124  -120110 
 -122909  -128209  -132624  -131094  -125556  -118251  -110666  -106206 
 -107132  -109664  -112702  -119950  -123698  -112618   -92276   -76092 
  -71869   -81225   -93765   -96124   -94134   -97261   -97748   -90666 
