Origin Time       2016/04/15 00:03:00
Lat.              32.700
Long.             130.777
Depth. (km)       7
Mag.              6.4
Station Code      KMMH16
Station Lat.      32.7967
Station Long.     130.8199
Station Height(m) 55
Record Time       2016/04/15 00:03:27
Sampling Freq(Hz) 100Hz
Duration Time(s)  300
Dir.              6
Scale Factor      3920(gal)/6170801
Max. Acc. (gal)   189.319
Last Correction   2016/04/15 00:03:12
Memo.             
[...]
   16493    16604    16824    16901    16761    16608    16660    16864 
   16921    16733    16570    16629    16744    16724    16633    16583 
   16579    16601    16647    16722    16771    16731    16602    16489 
   16534    16689    16812    16889    16870    16725    16646    16709 
   16717    16616    16555    16563    16567    16588    16660    16719 
   16749    16843    16941    16885    16726    16597    16523    16512 
   16578    16680    16728    16693    16632    16648    16768    16895 
   16924    16781    16521    16397    16466    16524    16545    16624 
   16705    16724    16731    16793    16875    16861    16753    16683 
   16687    16719    16774    16783    16683    16600    16635    16669 
   16616    16549    16547    16590    16609    16608    16645    16710 
   16776    16846    16876    16809    16681    16583    16570    16649 
   16762    16790    16682    16558    16563    16669    16741    16749 
   16758    16751    16679    16593    16544    16524    16573    16730 
   16866    16839    16743    16707    16674    16609    16604    16669 
   16686    16632    16625    16680    16725    16748    16749    16724 
   16690    16664    16672    16698    16705    16714    16767    16843 
   16947    17007    16770    16261    15899    15954    16289    16612 
   16888    17147    17180    16992    16688    16333    16379    16838 
   17085    17103    17108    16882    16537    16348    16278    16441 
   16768    16819    16628    16517    16472    16373    16365    16655 
   16997    17045    16954    16924    16873    16757    16680    16696 
   16703    16604    16468    16442    16505    16513    16460    16450 
   16588    16833    16964    16933    16889    16835    16716    16598 
   16565    16649    16764    16803    16839    16931    16891    16563 
   16210    16209    16463    16677    16812    16896    16883    16751 
   16592    16521    16560    16704    16852    16946    17032    16936 
   16641    16446    16355    16345    16504    16652    16708    16720 
   16659    16686    16846    16885    16811    16734    16552    16393 
   16514    16788    16918    16841    16748    16758    16721    16650 
   16716    16736    16539    16345    16423    16754    16898    16601 
   16381    16592    16876    16997    16993    16869    16730    16604 
   16482    16537    16700    16730    16649    16531    16481    16581 
   16686    16719    16753    16831    16942    16983    16875    16644 
   16404    16353    16490    16601    16687    16867    17018    16949 
   16710    16505    16419    16377    16415    16635    16833    16782 
   16647    16665    16833    16988    16984    16880    16791    16644 
   16438    16296    16254    16393    16698    16893    16903    16875 
   16779    16628    16599    16696    16785    16789    16707    16583 
   16476    16502    16657    16769    16876    17028    17009    16782 
   16528    16372    16348    16370    16451    16729    17020    17043 
   16912    16803    16660    16471    16395    16508    16652    16654 
   16609    16669    16754    16816    16915    16939    16784    16614 
   16563    16551    16551    16635    16742    16733    16693    16764 
   16807    16707    16573    16503    16521    16579    16643    16723 
   16771    16772    16781    16772    16696    16605    16535    16517 
   16642    16828    16887    16821    16748    16757    16808    16794 
   16759    16739    16595    16368    16314    16435    16569    16677 
   16753    16791    16802    16789    16792    16779    16690    16624 
   16633    16626    16633    16719    16791    16769    16720    16701 
   16655    16554    16527    16610    16659    16677    16719    16724 
   16708    16693    16695    16773    16853    16834    16753    16678 
   16660    16673    16626    16537    16513    16570    16635    16652 
   16640    16623    16598    16623    16714    16769    16774    16812 
   16853    16806    16735    16765    16835    16767    16576    16469 
   16491    16532    16564    16593    16609    16645    16721    16801 
   16837    16780    16691    16677    16679    16658    16667    16673 
   16688    16747    16794    16789    16720    16629    16578    16569 
   16621    16700    16701    16638    16630    16691    16723    16707 
   16722    16757    16717    16624    16608    16649    16626    16602 
   16720    16877    16859    16735    16654    16579    16518    16553 
   16654    16709    16687    16694    16722    16684    16652    16674 
   16698    16709    16716    16723    16706    16642    16610    16656 
   16691    16696    16744    16785    16748    16693    16671    16667 
   16659    16659    16682    16700    16694    16650    16594    16605 
   16664    16659    16614    16653    16735    16704    16607    16650 
   16813    16852    16730    16682    16750    16722    16603    16601 
   16688    16706    16680    16669    16625    16562    16576    16677 
   16747    16735    16728    16743    16702    16626    16609    16681 
   16762    16776    16741    16686    16658    16691    16697    16621 
   16593    16672    16725    16659    16581    16617    16684    16676 
   16652    16662    16660    16644    16673    16733    16758    16747 
   16751    16765    16764    16785    16824    16786    16662    16570 
   16577    16607    16590    16575    16571    16563    16596    16657 
   16695    16723    16775    16801    16751    16728    16781    16774 
   16656    16582    16626    16652    16613    16622    16674    16676 
   16660    16716    16772    16723    16669    16686    16687    16652 
   16678    16768    16767    16670    16651    16701    16682    16628 
   16640    16662    16614    16564    16593    16648    16660    16692 
   16759    16764    16734    16740    16739    16707    16685    16699 
   16687    16626    16635    16723    16725    16630    16601    16644 
   16634    16609    16678    16778    16788    16724    16692    16689 
   16648    16636    16710    16749    16708    16667    16631    16609 
   16632    16663    16698    16753    16804    16810    16721    16619 
   16618    16637    16581    16555    16633    16701    16685    16681 
   16701    16672    16654    16733    16818    16786    16699    16678 
   16675    16609    16579    16652    16701    16679    16682    16733 
   16755    16701    16625    16524    16337    16237    16531    17130 
   17560    17534    17088    16407    15917    16036    16535    16773 
   16746    16908    17048    16683    16162    16234    16644    16542 
   16403    17033    17542    17127    16489    16278    16360    16431 
   16681    17373    17685    16940    16011    15643    15841    16751 
   17672    17421    16432    15903    16057    16476    16873    17335 
   17581    17081    16435    16445    16736    16644    16151    15927 
   16405    17125    17565    17382    16524    15858    15974    16294 
   16615    17219    17509    17008    16417    16324    16582    16931 
   17069    16761    16276    16251    16864    17297    16876    16175 
   16113    16639    16769    16463    16749    17091    16603    16411 
   16970    17180    16757    16215    16272    16907    16991    16626 
   16764    16954    16643    16378    16640    17032    16838    16284 
   16154    16377    16583    16843    17014    16895    16778    16872 
   16906    16664    16415    16515    16856    17040    16821    16348 
   16133    16347    16610    16805    16966    16866    16630    16610 
   16799    16975    16898    16646    16504    16560    16710    16715 
   16655    16820    16850    16515    16406    16590    16562    16444 
   16505    16607    16695    16813    16874    16828    16828    16954 
   16959    16761    16716    16793    16525    16154    16251    16577 
   16739    16943    17139    16875    16390    16334    16715    17001 
   16867    16620    16560    16459    16275    16341    16640    16864 
   16899    16832    16866    16984    16900    16696    16612    16533 
   16421    16517    16832    16960    16653    16235    16276    16794 
   17110    16930    16688    16624    16515    16377    16564    16933 
   16980    16766    16698    16864    16963    16697    16302    16211 
   16395    16649    16853    16792    16543    16608    16969    17083 
   16953    16837    16631    16402    16391    16595    16833    16849 
   16630    16459    16442    16558    16773    16853    16733    16670 
   16746    16750    16595    16491    16531    16506    16442    16619 
   17032    17348    17256    16887    16612    16471    16415    16487 
   16519    16374    16260    16458    16843    16929    16695    16806 
   17486    17847    16987    15520    15320    16949    18297    17601 
   16254    16066    16223    15550    14868    15535    17293    18112 
   17142    16427    17116    17595    16917    16180    16576    17764 
   18182    17196    16026    15918    16431    16270    15577    15781 
   16695    16569    15624    15992    17820    18688    17495    16217 
   16604    17635    17486    16048    15060    15921    17364    17462 
   16839    16708    16460    15710    15613    16940    18457    17901 
   15507    14458    16049    18022    18007    16350    15573    16544 
   17439    17743    18655    18990    16463    13251    13683    16977 
   19159    19576    19277    17856    15826    14975    15383    15811 
   16670    18976    20557    18649    15228    13964    14782    15925 
   17723    20595    22369    21322    18952    17223    16636    17292 
   18307    17523    14983    14679    18866    23993    26740    27580 
   25875    19637    10725     5673     8835    14035    11192     1331 
   -6329    -6202     1886    12970    19187    18543    17804    25025 
   40592    53998    52688    36199    17340     9835    16663    29336 
   37992    40850    43286    45781    34747    -1456   -46680   -66894 
  -50716   -23409   -17685   -43551   -81254   -91575   -45502    44538 
  126720   152280   126407    95477    75798    46056     3564   -27081 
  -24720     6660    38561    50184    42940    23244     -290   -18142 
  -26458   -24084   -17134   -14626   -10947     4910    30501    51941 
   55415    42535    27622    15856     4973    -4752   -13001   -13674 
    -472    21013    44944    68640    83194    81610    66896    47679 
   31883    22865    20578    19445     8459   -16000   -45879   -68140 
  -68378   -41970    -2268    29508    39772    36355    39234    45962 
   33872     1592   -23848   -18929    14858    56795    86451    93009 
   71899    29332   -10428   -21933    -8101     3883    -1003   -14310 
  -26480   -37577   -50495   -64098   -69871   -58544   -30035     6736 
   39206    58795    69209    79846    92125   103175   111344   107661 
   80649    36661    -2978   -27454   -44878   -62606   -72320   -65987 
  -50703   -33136    -8022    28909    69997   102269   120176   124922 
  112286    76179    28100    -5748    -9532    13229    48362    79740 
   90895    67921    18159   -29019   -55134   -58681   -36453     5576 
   47510    79546   105046   127285   142359   135479    98251    46695 
    2134   -30637   -51695   -56476   -48678   -39299   -28251    -3423 
   37552    76507    97097   102348   100531    91506    72422    49898 
   35800    28246     8662   -37421   -98053  -143281  -157435  -143162 
 -102855   -46394    -3958    -5751   -52454  -109532  -132924  -100998 
  -21936    75600   157129   197225   185055   127965    54516    -1816 
  -28148   -30156   -14905     9498    30185    34531    20978     5011 
    2562    13453    31898    54213    68748    57980    15361   -43616 
  -85721   -86176   -50837    -2211    40678    63363    60061    40972 
   24245    18076    15335    10008     9081    18206    28599    24985 
     603   -28922   -36661   -19367     3215    18381    23520    17510 
    1802   -22002   -49803   -69222   -67379   -40438     6159    58944 
  105436   147989   193934   230982   231760   186075   112304    34048 
  -33535   -77026   -91626   -87680   -73239   -42890     5695    54670 
   76605    59017    13072   -40839   -89591  -124583  -139252  -141981 
 -143789  -130524   -92570   -48187      612    62967   123458   163965 
  179665   176654   161598   127270    80251    50135    37433    23173 
   15788    13008     3026    -3028    -9838   -22824   -33752   -49504 
  -67250   -80784   -91966   -85147   -54032   -15903    20435    55445 
   88968   125722   160992   173154   154676   118991    75727    33395 
    3246   -16310   -33828   -50117   -61674   -74219  -102863  -141440 
 -157107  -132929   -85200   -38168     3414    53530   113506   163596 
  194300   210055   206331   176422   126300    70018    17922   -29060 
  -68059   -89994   -97604  -101947   -97816   -72288   -26820    28226 
   82990   128599   155873   154568   126937    95462    82504    92438 
  110102   111520    89402    53347     7634   -39731   -76282  -100521 
 -102567   -65220     5568    83285   139841   158659   140410   102888 
   72054    56043    41539    15963   -20283   -53781   -76649   -90994 
  -93692   -82487   -60306   -34990   -16536    -3834     3421    -1598 
   -8692    -3157     3819     2211     3539    11199    19189    22806 
   14626      733    -6850   -10251   -16712   -35826   -66358   -86681 
  -80190   -44863    12151    75310   127557   159009   172161   170503 
  158290   153536   160648   159688   147243   136527   130880   130168 
  125099    95305    43573   -12681   -72355  -130446  -179180  -227727 
 -269810  -281343  -261935  -221374  -161051   -99172   -58757   -33441 
   -8464    13024    28071    44660    76597   135665   206562   253749 
  255365   208728   137656    74968    20726   -35682   -86630  -125961 
 -154912  -171187  -171716  -152258  -111042   -51870    31694   136878 
  234058   298824   307820   240042   121897    -1261  -110610  -193344 
 -237819  -241781  -209662  -153266   -85724   -19846    32409    59122 
   54773    33260    13377     2344     1856    13108    37785    74337 
  114391   145457   156030   150947   141998   122817    89220    50325 
   12116   -15560   -25960   -29254   -38032   -55104   -67192   -52163 
   -6140    44907    70755    76109    85776   102751   124292   152588 
  174716   182747   181094   165678   128320    64469   -17431  -102474 
 -182901  -240596  -258083  -237546  -185958  -120567   -60822    -3301 
   59340   114693   145688   156392   157004   140483   103472    54832 
    3107   -37369   -55676   -62092   -70048   -79292   -88375   -97545 
 -103045   -98659   -76241   -35133    12854    55735    85083    92702 
   81653    68020    59008    53783    57964    70231    78060    71739 
   52904    35677    24938     7604   -14928   -19626     2641    33884 
   55804    73921   103343   138209   157412   154634   143969   139720 
  137008   117797    72086     8250   -44880   -65929   -70702   -76820 
  -88080  -114152  -139271  -135550  -109939   -77427   -44944   -19133 
    3499    24152    35175    36230    34363    39491    56281    74573 
   83797    78165    56047    25696    -5052   -27716   -38779   -48958 
  -59243   -58672   -46402   -31173   -17923    -1329    19954    33754 
   32598    26442    29834    40300    41851    35009    33690    31007 
   12951    -8482   -13122     2151    28017    55324    77044    86374 
   86413    87664    93207    99368    98949    88263    76963    68453 
   50036    21046    -7335   -29192   -36205   -22682     2356    23414 
   32704    33044    30913    33055    38440    38220    34393    34509 
   33683    27223    22125    21690    17311     1932   -17660   -24785 
  -12510     2888     5065     5401    18245    34222    45575    55125 
   59972    61621    64838    63824    54675    41167    24078     3903 
  -14867   -29755   -40450   -44602   -39815   -29541   -23670   -27531 
  -35247   -39084   -33749   -13971    14531    37303    52193    63489 
   65882    51100    21405    -6116   -15869   -13939   -15872   -23299 
  -31557   -41441   -48768   -41657   -16079    15188    40282    60624 
   74772    78971    74915    59661    32093     1827   -22165   -37050 
  -41486   -37183   -29057   -17333    -1294    12977    21456    26173 
   28063    29134    34063    41140    45070    48615    55298    58835 
   51961    37191    22193     8392    -9050   -29268   -42957   -43777 
  -31994   -11061    10029    22517    26790    28028    30729    35727 
   39403    40833    43990    49036    48733    37691    19500     1579 
   -9715   -10231    -3240     3055     8129    16515    22997    18603 
    8423     4099     7073    11784    12339     8763     7636     6330 
    -534    -3054     4397    10584    10428     8964     5172    -3092 
   -8344    -3573     7314    19062    30223    35315    31350    23694 
   15480     7899     4377     6017    12936    23820    32620    36468 
   42332    56317    72114    78888    75357    71309    70925    60798 
   33170     1837   -18272   -23807   -21304   -19538   -17117    -9129 
     282     5798    10130    16045    21722    29490    43933    61022 
   71797    71979    62715    48575    34609    21591     8298    -2640 
  -10759   -22954   -42405   -63065   -72502   -56802   -17867    24941 
   55173    69941    76618    76416    63385    45292    34797    31855 
   31494    27901    17857     6581     -516    -4096    -5339    -2247 
    6387    17583    25633    26680    22857    19981    22875    31967 
   40654    40063    30167    19695    11475     1316   -10461   -21005 
  -27572   -24805   -11090     8242    26012    36615    39541    38859 
   37118    33966    29769    25746    20529    13277     6215    -1051 
   -8908   -14540   -18294   -19652   -14393    -6295    -5724   -14937 
  -24112   -20927    -6306     6109    11460    18846    31796    39897 
   35765    28144    28408    33631    33489    27384    23350    23815 
   22247    12486     1595     5792    25784    44508    49530    41241 
   27639    16146     8438     4856     8370    22619    44902    62683 
   65839    57839    48867    43562    39052    33909    31325    31226 
   28633    21650    16707    20611    27901    27847    20751    14134 
    9303     1642    -8003   -10087     1893    22728    40042    45086 
   39513    29198    16958     5567    -1234    -2373     1228     7398 
   12571    15943    18116    17273    16553    24032    38370    47243 
   42482    29522    19100    14877    14688    16161    15613     8562 
   -4934   -17096   -18096    -7475     3231     1389   -11100   -17194 
   -8861     2377     8165    13912    25708    43281    58297    58120 
   40905    18744     2815    -4644    -5199      374     8677    11945 
    7302     2579     3819     5562     3986     4786    10534    16152 
   17750    16546    15685    17126    21823    28450    31489    26674 
   17716    13200    16572    22409    25633    29490    37245    42172 
   37901    30437    27471    27687    26327    21607    15883    11477 
    6269    -1180    -6256    -3917     5205    15598    19785    15962 
   11734    12698    17204    24320    32940    37290    32501    20907 
   10316     4812     1363     -493     2590     7996    10099     9511 
    9270     6834    -1126   -10057   -11940    -5187     4614    13188 
   22626    33461    37831    29266    12824    -4089   -20126   -29858 
  -24656    -8535     7533    19346    25690    25663    21783    18607 
