Origin Time       2016/04/16 01:25:00
Lat.              32.8
Long.             130.8
Depth. (km)       10
Mag.              7.1
Station Code      KMMH16
Station Lat.      32.7967
Station Long.     130.8199
Station Height(m) -197
Record Time       2016/04/16 01:25:08
Sampling Freq(Hz) 100Hz
Duration Time(s)  300
Dir.              1
Scale Factor      2940(gal)/6170270
Max. Acc. (gal)   158.649
Last Correction   2016/04/16 01:24:53
Memo.             
[...]
   53315    53309    53315    53317    53314    53309    53296    53293 
   53310    53312    53301    53305    53318    53325    53317    53302 
   53303    53312    53311    53303    53296    53300    53315    53317 
   53313    53317    53316    53312    53313    53310    53306    53311 
   53319    53317    53304    53300    53305    53305    53305    53304 
   53305    53315    53319    53308    53297    53294    53298    53311 
   53321    53318    53309    53309    53314    53313    53313    53322 
   53326    53315    53308    53306    53300    53304    53308    53306 
   53311    53314    53316    53317    53308    53308    53311    53300 
   53302    53314    53313    53309    53303    53291    53294    53306 
   53311    53316    53317    53312    53312    53314    53316    53314 
   53304    53301    53308    53313    53313    53308    53306    53312 
   53308    53308    53316    53313    53312    53317    53314    53313 
   53318    53310    53301    53310    53315    53302    53297    53303 
   53301    53304    53312    53310    53316    53322    53311    53303 
   53303    53310    53315    53310    53304    53300    53302    53310 
   53309    53309    53318    53316    53310    53314    53315    53313 
   53312    53308    53307    53311    53309    53309    53315    53312 
   53305    53308    53312    53308    53303    53301    53303    53311 
   53316    53312    53309    53307    53308    53308    53303    53306 
   53317    53311    53304    53311    53317    53316    53312    53312 
   53311    53307    53311    53316    53313    53310    53307    53306 
   53307    53303    53300    53307    53309    53307    53310    53309 
   53306    53310    53312    53307    53309    53314    53309    53305 
   53308    53306    53305    53315    53317    53308    53309    53312 
   53308    53308    53312    53312    53313    53310    53309    53313 
   53310    53309    53312    53309    53307    53309    53310    53307 
   53302    53304    53311    53312    53306    53305    53309    53311 
   53309    53310    53310    53303    53303    53313    53310    53305 
   53313    53315    53310    53311    53310    53304    53309    53313 
   53309    53309    53311    53308    53308    53310    53311    53308 
   53308    53309    53305    53302    53305    53307    53312    53314 
   53306    53303    53305    53304    53311    53315    53305    53303 
   53311    53313    53316    53317    53310    53309    53312    53308 
   53305    53305    53307    53308    53312    53317    53315    53310 
   53313    53313    53308    53303    53302    53307    53314    53314 
   53314    53315    53309    53306    53308    53307    53307    53311 
   53310    53306    53309    53314    53309    53307    53309    53307 
   53311    53314    53312    53311    53311    53310    53312    53313 
   53308    53305    53306    53307    53308    53309    53310    53310 
   53306    53307    53310    53308    53308    53310    53308    53307 
   53309    53309    53308    53307    53309    53309    53309    53311 
   53312    53311    53311    53307    53304    53310    53313    53311 
   53313    53312    53305    53308    53313    53311    53310    53313 
   53313    53308    53308    53312    53311    53308    53308    53308 
   53308    53308    53309    53311    53310    53310    53311    53312 
   53312    53309    53308    53313    53310    53303    53306    53309 
   53307    53311    53311    53306    53311    53313    53307    53307 
   53309    53309    53309    53310    53310    53309    53306    53306 
   53312    53312    53308    53309    53313    53310    53307    53308 
   53307    53308    53312    53311    53306    53306    53309    53311 
   53311    53311    53310    53308    53310    53312    53309    53307 
   53309    53308    53305    53306    53307    53306    53310    53315 
   53311    53309    53310    53307    53307    53312    53311    53307 
   53307    53308    53308    53309    53310    53307    53306    53309 
   53311    53310    53310    53312    53312    53306    53305    53309 
   53309    53309    53311    53313    53314    53311    53307    53310 
   53309    53306    53307    53307    53306    53308    53309    53308 
   53308    53310    53311    53311    53312    53312    53307    53303 
   53306    53311    53309    53306    53310    53309    53303    53306 
   53312    53310    53309    53311    53313    53314    53311    53312 
   53312    53308    53306    53308    53310    53311    53314    53314 
   53310    53307    53309    53310    53308    53304    53303    53310 
   53312    53308    53309    53312    53309    53308    53312    53311 
   53308    53311    53310    53307    53310    53309    53307    53311 
   53310    53308    53308    53307    53308    53311    53313    53312 
   53310    53308    53307    53309    53309    53307    53310    53310 
   53305    53306    53310    53311    53309    53307    53311    53313 
   53308    53306    53311    53312    53311    53310    53307    53307 
   53309    53309    53310    53309    53309    53311    53309    53308 
   53311    53311    53310    53310    53309    53310    53312    53309 
   53308    53311    53310    53308    53311    53313    53312    53312 
   53309    53307    53309    53311    53310    53308    53307    53307 
   53307    53308    53308    53309    53312    53313    53312    53309 
   53306    53305    53306    53306    53311    53312    53307    53310 
   53313    53308    53305    53311    53314    53313    53309    53308 
   53311    53313    53310    53307    53309    53310    53306    53308 
   53313    53314    53314    53310    53306    53309    53312    53312 
   53312    53306    53305    53310    53309    53306    53308    53310 
   53307    53307    53311    53311    53309    53310    53309    53309 
   53309    53307    53308    53312    53310    53309    53313    53309 
   53304    53309    53313    53310    53309    53309    53304    53305 
   53308    53307    53306    53308    53311    53312    53312    53313 
   53312    53308    53309    53313    53309    53308    53311    53312 
   53310    53308    53308    53307    53306    53311    53313    53309 
   53307    53308    53309    53310    53311    53310    53310    53310 
   53309    53307    53306    53308    53310    53310    53307    53307 
   53311    53314    53312    53309    53309    53308    53310    53312 
   53310    53311    53313    53310    53309    53310    53308    53307 
   53308    53309    53309    53309    53310    53309    53308    53311 
   53308    53305    53310    53313    53309    53310    53311    53308 
   53307    53308    53307    53307    53310    53311    53308    53308 
   53308    53308    53307    53306    53309    53312    53312    53311 
   53310    53311    53310    53308    53310    53311    53308    53307 
   53308    53309    53309    53306    53304    53307    53309    53308 
   53309    53310    53310    53309    53310    53311    53310    53310 
   53310    53308    53306    53307    53309    53310    53310    53311 
   53310    53308    53311    53314    53311    53305    53305    53307 
   53308    53310    53310    53308    53309    53311    53309    53308 
   53308    53308    53308    53309    53312    53312    53309    53307 
   53307    53309    53309    53307    53308    53309    53312    53312 
   53308    53308    53309    53309    53310    53309    53308    53310 
   53312    53313    53314    53312    53308    53307    53306    53306 
   53308    53306    53306    53311    53313    53313    53313    53313 
   53310    53307    53306    53306    53308    53311    53311    53309 
   53310    53309    53307    53308    53309    53308    53310    53311 
   53308    53310    53311    53309    53310    53310    53308    53308 
   53310    53309    53308    53307    53307    53308    53310    53310 
   53309    53312    53313    53310    53309    53309    53309    53309 
   53309    53308    53308    53309    53309    53310    53310    53309 
   53309    53310    53310    53308    53308    53311    53312    53308 
   53307    53309    53307    53308    53311    53310    53309    53313 
   53312    53310    53309    53308    53309    53310    53307    53306 
   53308    53310    53314    53313    53310    53312    53310    53303 
   53303    53303    53305    53310    53312    53310    53313    53311 
   53307    53306    53304    53305    53313    53315    53310    53308 
   53309    53308    53306    53305    53305    53309    53316    53319 
   53306    53284    53296    53361    53418    53375    53270    53239 
   53286    53351    53478    53540    53369    53259    53227    52930 
   52940    53635    54018    53676    53227    52998    53125    53444 
   53915    54163    53123    52142    52236    52679    54291    54376 
   52162    52774    53669    52487    53498    54333    54269    55363 
   53001    49733    50345    51401    54974    59321    55654    51639 
   53762    50861    45451    49593    57093    59214    57508    53742 
   49315    48549    53744    57996    54675    51160    53421    53445 
   49920    52387    57166    53920    50666    53998    52385    49854 
   58383    62551    54110    49833    51110    48621    47505    52324 
   56045    54355    53578    55692    54052    50686    51623    54219 
   52374    48380    52901    58900    55217    55571    58909    53591 
   53970    57021    49486    48811    56076    53319    48791    53035 
   56642    53792    51821    53568    55631    56231    49930    42769 
   46824    50534    49473    54945    56389    48739    45236    46221 
   49024    54467    59317    58013    50963    53528    63463    58122 
   48639    52779    53987    51781    55814    50747    41762    45144 
   50391    52740    56215    58037    58928    56482    48813    47491 
   51938    50285    55374    65328    55058    42726    46109    47189 
   52340    63650    61006    55144    54714    50975    50807    47769 
   37542    42544    54234    48772    43667    52054    58210    59631 
   56731    44502    37433    42154    45901    50900    61262    60499 
   46006    41534    46961    45533    51384    68062    71109    62463 
   49454    27944    20259    33369    38946    40862    52072    50539 
   43430    55923    62512    55662    65480    71409    57013    61087 
   74128    57832    36868    23560    -4035   -21472    -6900    17293 
   43594    73559    94036   100168    94840    82963    72183    66993 
   70433    78430    85140    90225    85026    70584    60231    48167 
   39068    47065    53123    52641    62017    61325    40585    28468 
   24890     9060     3717    32593    57712    56187    62982    84048 
   96122    95942    89588    95467   111902   100812    65476    42636 
   30285    20687    19208    14371     6432     5562     8049    11189 
   19014    46734    81103    83529    71575    69542    60554    52981 
   49456    33732    23549    22215    21688    29747    34342    46720 
   81944   102192    97615   102324   115800   105968    67351    32577 
   16803     7022     5229     3951    -8114    -2347    17904    19308 
   31291    69944    87215    74181    72298    94763   116447   118634 
  101411    76793    65028    52098    12272   -14696     4264    30118 
   41116    45440    36936    28011    38926    58318    58141    35349 
   24021    31028    32199    34439    46102    61114    83993   103223 
  101546    93630    98060   105182    97760    81991    77281    75995 
   57037    29724    13610     8297     5805     9217    27378    45347 
   49317    65744    98430   109399   105754   110867    89084    49402 
   50669    50573    19765    20992    33470    13571    -6346   -14797 
     271    39789    49805    30106    19974    24137    37192    39129 
   34606    38441    26750    21021    29704    27621    65520   105611 
   66352    46032    73293    54870    32796    32147     7132      344 
   11680    -5171   -12539    15700    37396    27930    22634    25926 
    2404    -5785    26608    46402    60245    70173    39935    17767 
   33219    57171   108672   167507   193605   222533   234620   203967 
  201313   207247   160912   125346   137878   165002   187464   193572 
  204302   227762   215856   160456   104882    71919    54391    30026 
    -693    -2614    33595    68843    77431    87094   107459   116071 
  129060   141768   135269   135506   120304    75471    61902    81400 
   93770    96466   103268   134681   168465   163822   141374   131466 
  132902   129803   104110    67912    48826    59255    75962    57594 
   31094    45817    84531   115365   118907   109681   135350   173903 
  163622   117608    88788    87476    77201    56621    64270    71114 
   52244    41742    15146   -25699    -4649    66706   111545   101991 
   78067    79455    66297    23924     9851    17846    -9507   -83088 
 -150840  -171365  -197017  -235351  -206228  -125181   -41841    39714 
  124238   229506   272075   205143   163466   152962    92689    63161 
   95662   119306   127949   142020   165242   190351   202393   203485 
  198692   191045   215230   266577   282166   295386   321647   246762 
  111847    77930    97850    68936    64787   113385   125554   114649 
  134662   156618   166202   171366   134479    72464    64786    76004 
   44616    19778    23632    47908   115080   175613   183099   207474 
  257210   280181   325401   382761   383799   382110   385459   342924 
  327941   344882   282047   175623    93501    -5804  -110605  -192539 
 -261870  -279592  -226064  -147190   -93346   -93032  -138914  -192190 
 -211637  -183719  -109445     2501   104091   148128   157789   178379 
  192669   170118   128157   102666   112495    94400   -17651  -124191 
 -146056  -155073  -151682  -115075  -110281  -127001  -123679  -103665 
  -78098   -92997  -105773   -39374    22779    42468    94458   156413 
  174254   168037   149264    82010   -20623   -83190   -85834   -26630 
   89439   149487   105528    84311   135943   169115   154445   127094 
   82495    45651    68392   114658   131500   119791    75956    23831 
   -4069   -27930   -42247   -26411   -18380   -47407   -79102   -78379 
  -55228   -22456     6109     -940   -12596    40779   116133   131742 
  119417   113332    83763    46967    26899   -20326  -107467  -177303 
 -208584  -238257  -272771  -260094  -189964  -139129  -141187  -131805 
  -79932   -36314   -19770     2266    16478    -2884   -36548   -86639 
 -157384  -208665  -233218  -248166  -233507  -179699   -94235     9390 
   76598    79933    81794   132955   184454   180588   148940   118834 
   86701    69368    59147    42636    56949    74134    40892    29182 
   73703   114504   164648   223230   250504   277482   287201   240598 
  214993   251568   288386   305457   316405   317324   325435   345083 
  359326   373583   372694   344618   311658   266511   208062   149378 
   74047   -12188   -96441  -175906  -223375  -224535  -190722  -146110 
 -113886   -85335   -61096   -70520   -96233   -91849   -65497   -43421 
  -33231   -45948   -67170   -67558   -62156   -75748   -91823   -95707 
 -100540  -106935  -100841   -89070   -83226   -79098   -88492  -114966 
 -129221  -132813  -137669  -123048  -103826  -111581  -114463   -83165 
  -49790   -40769   -37446   -12200    34476   103388   206800   303796 
  336934   312912   269599   230507   206382   199845   212093   247518 
  274715   246543   199891   183796   160325   127074   117238    95271 
   73211    91586    95957    87195   119942   143151   114987    70549 
   27975   -15354   -65506  -105821  -114748  -121184  -130022  -118183 
 -114127  -120785  -114717  -116020  -108319   -74992   -62287   -61507 
  -38497     1035    83541   184317   221126   225042   239564   224753 
  204297   206810   190572   181220   209944   227332   233776   240477 
  203040   150890   131926   120254   123228   134938   109092    83933 
   75422    45216    25223    12635    -6941     9348    22303    14496 
   39065    56059    47185    51495    36233    -1587   -25369   -57987 
 -106226  -144736  -169432  -188176  -208026  -209239  -180723  -153989 
 -145581  -142226  -129049  -112517  -112611  -117554  -109938   -99485 
  -78727   -44703   -26470   -14397    13607    30539    32825    43487 
   51399    54946    62447    53381    34872    37543    42154    26016 
   10764    11820    23766    45154    83530   120091   122962   123905 
  152514   173057   169294   148657   116355    86239    58843    39016 
   31303    15968   -11213   -16377    21220    50853    31150    11951 
   19890    32299    56193    67834    39641     1719   -39151   -74114 
  -80184   -87584  -100338   -88746   -73088   -69305   -70415   -79618 
  -80518   -66815   -55131   -41770   -36061   -47239   -43116   -17582 
    3821    23526    52233    91055   136341   171121   184989   188163 
  193584   194667   173481   143399   131119   131997   127574   100791 
   55505    24097    13006     4967      989     5322    22989    48251 
   58911    66638    86924   104507   120145   118431    72392    22800 
    9417    10874    15139    23085    24408    23163    14956   -16751 
  -47422   -46030   -26613    -9440    -3431     -184    25330    57713 
   70063    75260    76944    71164    68864    75178    93336   115300 
  130511   151225   169872   159323   138742   127195   107164   100297 
  118827   120081   111755   116485   106194    90186    96432   106674 
  112055   126827   149094   162159   161338   161421   160125   147973 
  139238   132301   117406   112121   125249   136754   122210    89954 
   68217    50173    29751    31251    52581    73729    93296   102813 
   92617    82933    81536    66850    48031    43513    36887    28841 
   37829    43414    29732    22577    21110     8897     9202    26998 
   37420    39238    41161    45055    54054    68785    81985    89644 
   94625    96843    99556   100116    88999    77283    75144    71361 
   63973    60142    62462    72551    84618    90815    94432   103657 
  115055   119507   116860   115598   130940   158837   171452   163533 
  149515   133207   112685    88514    80284    98738   103201    80256 
   73203    77699    63834    53102    59295    63406    58311    44598 
   30861    23956    10852    -5394   -15278   -28095   -38928   -41361 
  -42942   -41085   -36989   -36516   -28628    -6972    13919    23605 
   28305    39948    64203    83104    78874    72807    79048    82154 
   84663    90425    86695    78010    75120    73454    72457    73867 
   69798    63574    63904    60782    53757    60647    72422    67581 
   54619    43241    30314    27454    30680    15396     3051    14603 
   13341    -2672    -7286   -19604   -40504   -42142   -28257   -22749 
  -31949   -30526    -8295     8371    11698    14943    22809    27306 
   18911     9409     5222    -5162   -13644   -14071   -18990   -26418 
  -27339   -15184    13829    38387    41795    45942    63633    72337 
   63255    55306    55170    58264    63813    64152    62717    68790 
   67353    58982    62848    66775    65480    71533    69760    55840 
   46803    38709    32094    35381    38595    35909    34571    40658 
   50428    55798    59211    61630    54607    40946    33618    28234 
   17656    12895    12880    11955    17810    27951    38693    48258 
   49947    51326    57684    56446    46412    41739    40268    31331 
