Origin Time       2016/04/15 00:03:00
Lat.              32.700
Long.             130.777
Depth. (km)       7
Mag.              6.4
Station Code      KMMH16
Station Lat.      32.7967
Station Long.     130.8199
Station Height(m) -197
Record Time       2016/04/15 00:03:27
Sampling Freq(Hz) 100Hz
Duration Time(s)  300
Dir.              2
Scale Factor      2940(gal)/6170270
Max. Acc. (gal)   78.293
Last Correction   2016/04/15 00:03:12
Memo.             
[...]
   76448    76440    76431    76424    76425    76429    76430    76433 
   76432    76425    76434    76447    76444    76447    76453    76443 
   76435    76435    76422    76413    76428    76443    76443    76442 
   76442    76433    76420    76412    76410    76418    76436    76452 
   76462    76474    76470    76445    76421    76407    76403    76412 
   76427    76441    76446    76436    76427    76435    76449    76453 
   76446    76434    76422    76411    76409    76423    76441    76448 
   76446    76435    76424    76427    76439    76443    76433    76425 
   76433    76441    76437    76434    76435    76430    76425    76431 
   76440    76446    76449    76442    76432    76434    76443    76447 
   76453    76456    76446    76433    76428    76425    76422    76426 
   76441    76450    76447    76438    76423    76415    76425    76436 
   76441    76430    76415    76425    76448    76455    76446    76441 
   76446    76445    76437    76432    76428    76422    76415    76410 
   76416    76429    76446    76459    76460    76458    76460    76450 
   76434    76426    76420    76417    76419    76424    76425    76417 
   76416    76429    76451    76469    76461    76430    76414    76421 
   76442    76465    76454    76407    76401    76434    76440    76438 
   76428    76432    76487    76459    76381    76426    76468    76440 
   76434    76427    76439    76446    76422    76428    76422    76427 
   76447    76417    76427    76472    76452    76432    76443    76426 
   76427    76461    76450    76400    76403    76454    76459    76421 
   76416    76446    76462    76456    76438    76433    76439    76423 
   76406    76425    76443    76441    76432    76426    76427    76442 
   76446    76422    76424    76465    76462    76436    76428    76421 
   76432    76430    76402    76424    76467    76469    76449    76423 
   76430    76453    76428    76419    76438    76426    76432    76450 
   76434    76436    76457    76448    76429    76424    76417    76416 
   76440    76447    76424    76434    76472    76468    76446    76442 
   76410    76359    76353    76417    76499    76502    76418    76309 
   76295    76491    76728    76689    76408    76205    76251    76446 
   76560    76515    76443    76434    76456    76437    76378    76385 
   76426    76387    76327    76355    76461    76550    76551    76507 
   76472    76441    76409    76372    76344    76358    76396    76438 
   76478    76489    76475    76457    76443    76440    76437    76430 
   76433    76439    76437    76422    76400    76404    76434    76461 
   76471    76459    76438    76438    76453    76457    76445    76431 
   76413    76384    76369    76393    76435    76464    76476    76467 
   76445    76423    76404    76407    76433    76459    76466    76451 
   76432    76429    76433    76435    76445    76451    76442    76443 
   76453    76451    76439    76428    76420    76417    76416    76423 
   76431    76429    76428    76435    76441    76434    76421    76418 
   76428    76446    76453    76447    76450    76464    76459    76436 
   76425    76429    76427    76417    76418    76423    76422    76434 
   76455    76449    76425    76416    76417    76435    76464    76460 
   76459    76458    76430    76422    76395    76397    76452    76444 
   76463    76482    76434    76442    76439    76408    76431    76426 
   76416    76434    76441    76470    76451    76393    76426    76437 
   76391    76427    76455    76418    76450    76495    76459    76446 
   76452    76399    76380    76414    76428    76440    76438    76445 
   76472    76446    76434    76464    76439    76402    76406    76415 
   76432    76460    76459    76436    76425    76423    76435    76425 
   76409    76439    76430    76412    76466    76467    76430    76459 
   76454    76392    76395    76445    76444    76430    76447    76463 
   76444    76422    76446    76451    76422    76424    76406    76408 
   76446    76424    76420    76447    76433    76452    76487    76478 
   76454    76438    76417    76388    76406    76439    76434    76432 
   76428    76425    76441    76436    76439    76467    76458    76427 
   76435    76459    76451    76430    76450    76463    76441    76435 
   76422    76382    76363    76384    76409    76406    76402    76416 
   76443    76477    76520    76527    76453    76396    76423    76462 
   76491    76505    76488    76474    76476    76454    76402    76364 
   76347    76341    76363    76396    76425    76470    76516    76537 
   76495    76380    76310    76341    76388    76424    76463    76475 
   76464    76456    76473    76491    76463    76431    76433    76448 
   76475    76472    76421    76377    76356    76356    76381    76412 
   76459    76510    76517    76483    76448    76429    76419    76403 
   76402    76433    76464    76480    76477    76457    76454    76447 
   76412    76382    76391    76419    76411    76392    76410    76436 
   76470    76501    76485    76429    76379    76373    76402    76444 
   76491    76506    76501    76492    76447    76397    76382    76386 
   76412    76435    76424    76419    76425    76411    76402    76421 
   76453    76479    76478    76454    76436    76432    76441    76451 
   76451    76435    76409    76393    76392    76416    76458    76479 
   76468    76458    76457    76435    76412    76415    76413    76408 
   76426    76447    76451    76450    76447    76432    76416    76416 
   76425    76430    76431    76435    76441    76446    76455    76466 
   76471    76465    76446    76429    76424    76420    76413    76415 
   76419    76414    76407    76411    76427    76444    76458    76456 
   76434    76435    76463    76459    76436    76441    76448    76438 
   76427    76425    76424    76412    76405    76426    76454    76466 
   76462    76451    76442    76421    76398    76403    76431    76448 
   76451    76448    76437    76434    76453    76463    76448    76423 
   76404    76400    76412    76440    76457    76443    76424    76422 
   76424    76420    76420    76433    76453    76462    76452    76445 
   76454    76451    76434    76431    76436    76433    76431    76429 
   76422    76424    76435    76434    76429    76436    76444    76445 
   76451    76456    76437    76409    76407    76423    76431    76438 
   76449    76451    76444    76439    76433    76439    76452    76440 
   76418    76414    76419    76425    76436    76447    76452    76443 
   76422    76413    76425    76443    76448    76440    76437    76441 
   76447    76453    76460    76457    76438    76425    76426    76422 
   76420    76429    76431    76430    76436    76441    76447    76454 
   76453    76443    76433    76436    76441    76431    76426    76431 
   76443    76447    76430    76419    76428    76436    76438    76434 
   76426    76421    76420    76430    76444    76442    76437    76434 
   76430    76430    76434    76438    76439    76442    76442    76425 
   76416    76432    76446    76445    76437    76432    76440    76443 
   76438    76430    76416    76414    76427    76433    76433    76441 
   76448    76444    76440    76443    76443    76440    76436    76432 
   76429    76433    76442    76445    76441    76440    76438    76434 
   76431    76430    76427    76425    76427    76427    76431    76439 
   76436    76432    76436    76442    76449    76449    76443    76446 
   76450    76431    76411    76412    76428    76435    76430    76427 
   76427    76430    76434    76431    76433    76444    76445    76437 
   76440    76442    76432    76428    76434    76437    76437    76438 
   76435    76432    76437    76438    76428    76425    76433    76433 
   76425    76427    76439    76446    76449    76453    76446    76431 
   76427    76432    76433    76436    76445    76446    76440    76441 
   76440    76435    76436    76433    76428    76430    76437    76435 
   76427    76432    76438    76434    76432    76428    76427    76437 
   76443    76436    76431    76439    76449    76446    76444    76443 
   76430    76426    76432    76431    76435    76442    76436    76428 
   76428    76431    76433    76439    76450    76455    76445    76432 
   76425    76418    76419    76424    76415    76415    76444    76468 
   76468    76449    76417    76402    76416    76437    76450    76451 
   76445    76441    76442    76434    76417    76434    76445    76421 
   76430    76434    76424    76448    76461    76443    76400    76411 
   76491    76476    76411    76429    76416    76385    76451    76490 
   76450    76426    76394    76389    76443    76457    76457    76474 
   76424    76413    76449    76383    76392    76484    76459    76430 
   76439    76448    76453    76407    76404    76456    76462    76433 
   76405    76415    76460    76476    76456    76396    76365    76458 
   76482    76389    76395    76423    76440    76505    76436    76343 
   76431    76474    76400    76401    76489    76549    76475    76381 
   76409    76406    76388    76452    76463    76435    76450    76454 
   76432    76420    76420    76460    76473    76402    76403    76439 
   76415    76477    76502    76398    76384    76455    76454    76385 
   76400    76465    76410    76390    76475    76485    76477    76476 
   76407    76382    76434    76445    76422    76428    76436    76427 
   76413    76426    76452    76434    76447    76525    76525    76496 
   76564    76613    76546    76402    76240    76184    76272    76369 
   76347    76239    76248    76395    76477    76474    76519    76635 
   76596    76376    76337    76468    76519    76526    76533    76499 
   76417    76387    76452    76493    76464    76387    76353    76418 
   76476    76487    76436    76375    76389    76428    76459    76427 
   76365    76381    76382    76369    76461    76556    76532    76468 
   76447    76398    76314    76331    76479    76571    76508    76465 
   76483    76406    76321    76386    76489    76514    76476    76400 
   76360    76383    76394    76400    76437    76478    76482    76439 
   76415    76451    76497    76492    76454    76444    76414    76347 
   76346    76398    76435    76468    76474    76408    76320    76324 
   76414    76485    76518    76519    76476    76434    76413    76424 
   76472    76499    76514    76535    76500    76434    76379    76336 
   76349    76400    76412    76409    76421    76462    76528    76524 
   76450    76405    76412    76459    76462    76383    76367    76470 
   76528    76419    76255    76229    76389    76581    76563    76420 
   76456    76546    76492    76426    76393    76404    76455    76427 
   76384    76408    76477    76519    76409    76313    76402    76478 
   76452    76430    76448    76442    76405    76431    76452    76450 
   76489    76473    76428    76436    76502    76533    76410    76320 
   76342    76363    76414    76431    76448    76544    76571    76456 
   76320    76309    76348    76414    76538    76514    76486    76506 
   76326    76343    76585    76505    76373    76408    76314    76322 
   76560    76659    76543    76386    76296    76312    76473    76725 
   76824    76726    76704    76739    76563    76318    76263    76495 
   76849    76796    76578    76820    77054    76886    76713    76686 
   76650    76605    76855    77454    77703    77437    77367    77325 
   76879    76679    76985    77322    77680    78191    78604    78590 
   78128    77408    76725    76781    77674    78022    77403    77091 
   77372    77824    78518    78804    77658    75800    75272    76771 
   79175    80736    80354    79013    78506    79144    80094    80669 
   80664    80305    80369    81145    81416    80004    77725    76180 
   75304    74436    73433    72387    73727    79142    84213    84085 
   79928    75814    74719    76580    77581    76089    75985    79134 
   82938    85161    84930    82011    77478    74631    74808    75227 
   75125    75530    75853    75794    75586    75710    76625    78083 
   79377    79829    79940    79660    77942    75946    75255    75519 
   75755    74573    72704    73368    76689    80763    85126    87557 
   85582    80145    73868    71372    76078    83411    85978    83105 
   79581    78324    77397    74599    71563    71220    73922    76761 
   77355    77651    80110    83266    84801    84129    81308    76912 
   71745    67471    66418    68149    70754    74585    79393    82180 
   81102    76939    71590    67403    65663    66656    70593    76492 
   81497    82809    80950    78346    75286    71362    67982    66539 
   66937    68906    71743    73228    72711    72272    72969    74886 
   77983    80791    82144    81780    79636    76975    75737    76466 
   77862    78679    78864    79143    80972    84065    85363    82430 
   75047    65620    58129    54699    56063    62578    71553    78920 
   83386    84737    82739    78903    74450    69675    66516    65464 
   64689    65819    70467    74966    76601    76571    76248    76384 
   76832    75564    70843    64456    58906    53749    48865    45521 
   43901    42448    37773    29846    23296    18744    14330    11643 
   10735     9072     6392     4501     4500     6099     9607    15057 
   19555    21756    24090    27045    30040    35569    46157    61877 
   81825   104977   129930   154248   174859   190080   201173   211361 
  222059   231723   238659   240746   236063   226835   216606   206521 
  197936   190693   181628   170945   161842   154067   145564   135540 
  122138   103787    84826    71647    64574    60956    56647    45748 
   30535    17612     6946     -850    -3940    -5403    -7077    -7836 
   -7780    -8049    -8779    -8829    -8138    -7036    -6407    -8079 
   -8916    -4499     3654    13605    25040    37004    48463    58995 
   69787    79276    83448    83476    83016    83063    84088    85242 
   84468    83278    84674    88541    92743    95154    96010    98039 
  103210   112001   123633   136280   148454   157658   162132   163247 
  160670   154099   146967   141978   140082   140504   141283   142343 
  142686   139294   132015   123091   113651   104895    97287    89057 
   81064    76153    72719    66914    57718    46866    36429    27384 
   20702    16353    12669     9374     6266     2936     1891     3804 
    4143     -468    -8108   -15253   -20016   -21044   -17878   -12257 
   -6804    -1869     4017    10158    17278    27762    37469    41999 
   43681    44670    46088    48901    51383    53405    58213    65225 
   69131    68859    67953    67651    67383    66915    66162    65255 
   62823    57625    52123    48995    47346    46305    46264    46214 
   47284    51293    54673    56377    60669    67401    74956    84917 
   94616   100012   105385   114296   123687   134012   147106   160517 
  172958   185408   197851   209649   219186   223196   221424   215710 
  205139   191141   176745   161019   144315   128462   112014    95122 
   80405    65986    48866    31926    18544     7048    -4130   -13069 
  -19027   -23435   -24823   -20072   -10508     -560     8476    16420 
   20022    20160    21118    22160    24917    33597    46396    61161 
   76234    87561    93227    93281    90435    89175    88919    86803 
   83629    82393    85372    90996    95929   100162   102987   101412 
   96952    93187    91158    91775    93750    94939    96827   100033 
  102987   104909   105263   104423   104156   107299   116020   128205 
  139568   148138   152636   152028   149132   146862   143539   138070 
  132314   126638   118618   108053    99522    95042    92437    90283 
   86599    80643    75246    73216    75310    79200    82288    84488 
   84071    78930    71300    63760    55842    47915    40693    32497 
   25050    21195    17695    12995     8119     1927    -3589    -6296 
   -7420    -7367    -5564    -1118     6148    16312    29465    44013 
   58949    73517    86745    98996   110178   119836   127723   134368 
  141439   147703   149798   147573   143413   138486   132926   128318 
  125888   123818   119735   112868   103105    92248    83850    77958 
   72560    69789    70982    71135    67163    61883    56226    49406 
   43275    39150    36908    37268    38773    37841    35917    36423 
   38371    41601    46213    48329    47307    47947    52809    60834 
   69907    77141    80746    80656    78301    77085    78819    81812 
   83621    83296    82203    80964    77234    69685    60423    53104 
   48814    44668    41148    42558    47648    52325    55090    55329 
   55395    58306    63858    71859    81276    88634    91499    90265 
   87664    85446    83472    84277    89463    95331    99152   100147 
   97749    95031    96033   100377   103700   103336   101601    99962 
   97425    95090    94339    94707    94305    90964    86527    84566 
   84326    83925    83474    83375    83108    80447    75516    70920 
   66167    61468    59838    61602    65147    68594    69786    69914 
   71940    75102    76484    76077    76791    79618    82578    84676 
   86733    88867    89615    89158    90123    92292    93672    95338 
   98113   101321   105467   108929   107987   102031    92860    82737 
   73740    67296    65198    67749    73192    78066    78995    79343 
   82989    86176    87622    90185    93292    95723    95806    90956 
   82637    74476    68359    64871    63485    64435    68643    74237 
   78317    79926    79435    77280    73939    71717    71646    71729 
   72021    73774    76478    78766    79973    81098    81777    81206 
   81665    84795    89534    95120   101464   107245   110575   111400 
  110770   109543   109081   109876   110402   110142   110627   111346 
  110343   108141   104701    99918    96537    94592    92039    88977 
   85740    83252    81311    78270    75322    74135    73950    72994 
   70781    69561    70551    72692    74661    74855    74182    74381 
   73892    72017    71031    71856    72500    71235    69284    68523 
   68162    66776    65220    64708    64228    62816    62499    64238 
   66130    67788    69408    70640    72126    73725    75253    78310 
   83267    87830    90960    94620    99360   102329   101862    99826 
   98410    97818    97712    97784    96605    94092    92291    90660 
   87592    84488    81686    77781    73593    70429    68221    66327 
   64527    63092    61933    61905    63473    64428    63231    60873 
   58717    57074    54921    51939    49882    49336    48797    47846 
   47059    45808    43507    41154    39244    38185    39120    41478 
   44520    47606    49735    51940    53572    52560    50273    48362 
   47371    47672    48074    47452    45769    43386    41354    41191 
   43268    45977    48430    50829    52887    55964    61401    67301 
   71290    72531    71481    69140    65873    63473    64107    65826 
   67173    70147    74379    77810    78935    76921    74517    74093 
   73257    70605    69096    70430    72084    72009    71622    72553 
   73401    72742    71951    72432    74375    76966    79113    81144 
   83035    83517    81786    78422    75328    73364    71950    71161 
   71042    71367    72199    72816    72581    72284    72358    72138 
