Origin Time       2016/04/16 01:46:00
Lat.              32.862
Long.             130.898
Depth. (km)       11
Mag.              5.9
Station Code      KMMH16
Station Lat.      32.7967
Station Long.     130.8199
Station Height(m) 55
Record Time       2016/04/16 01:45:08
Sampling Freq(Hz) 100Hz
Duration Time(s)  300
Dir.              6
Scale Factor      3920(gal)/6170801
Max. Acc. (gal)   399.658
Last Correction   2016/04/16 01:44:53
Memo.             
[...]
   16654    16295    16394    17400    18432    17958    16319    15363 
   15606    16135    16338    16483    17062    17615    17130    15900 
   15139    15408    16607    17989    18657    18543    17914    16932 
   16009    15555    15643    16283    17271    17749    17395    17512 
   18787    19299    16768    11768     8418    10572    16438    20689 
   21524    21174    20641    18293    14510    13110    15379    17967 
   18554    18014    17474    16962    15642    13482    12762    15103 
   18714    20453    18937    16024    14561    14538    14747    16187 
   19383    21305    19705    17006    15753    15095    14388    14832 
   16533    18002    18286    17387    15808    14681    14673    15352 
   16390    17615    18911    20322    20558    18035    14297    12879 
   14782    17433    18227    17491    16790    16546    16309    15525 
   14974    16056    17403    17022    16193    16605    17513    17762 
   17513    17627    18026    17573    16274    15259    14946    15361 
   15998    15839    15584    16691    18262    18349    16949    15963 
   16478    17240    17486    17994    18253    17475    16751    16592 
   15867    14883    15106    15870    15747    15303    15944    17672 
   18828    18426    17374    16538    16095    16509    17693    18342 
   17542    15847    14683    15049    16243    16975    17278    17439 
   17259    16906    16783    17091    17258    16700    16363    16950 
   17367    16825    15918    15227    15050    16145    18371    19465 
   18002    15636    14119    13531    14291    16732    19451    20792 
   19777    16637    14009    14027    15652    17359    18846    19860 
   19802    18157    15421    13459    13433    14508    15878    17498 
   18713    18721    17196    14899    14189    15937    18020    18710 
   18365    17759    16921    15931    15694    16474    17107    17146 
   17359    17589    16821    15076    13926    14777    16568    17377 
   17822    19115    19632    17654    15059    14795    16610    17803 
   17482    17173    17275    16754    15638    15017    15381    16014 
   16272    16642    17371    17544    16857    16288    16432    17121 
   17817    17618    16603    16254    17108    17783    17398    16921 
   16924    16385    14922    13723    13935    15372    16716    17322 
   17824    18453    18729    18504    18074    17828    17754    17282 
   16165    14850    13864    13754    14634    16003    17652    19070 
   19088    17665    16059    15351    15769    16486    16642    16587 
   17003    17578    17286    16221    16140    17581    18693    18421 
   17663    17196    16840    15924    14568    14239    15445    16770 
   17217    17203    17189    16773    15718    15210    16295    17752 
   17833    17088    17174    17877    17823    17212    17096    17252 
   17023    16447    15756    15261    15234    15514    15697    15751 
   16323    17686    18795    18575    17248    16028    16206    17608 
   18277    17150    15690    15494    16146    16846    17457    17421 
   16776    16427    16305    16176    16638    17578    18051    17689 
   16660    15603    15385    15530    15470    16105    17524    18515 
   18228    16893    15986    16387    17191    17516    17300    16694 
   16025    15616    15448    15390    15535    15964    16570    17299 
   18037    18198    17334    16444    17002    18352    18676    17908 
   17001    16312    15684    14845    14497    15617    17161    17247 
   16091    15476    16046    16776    16973    17124    17582    18164 
   18630    18447    17218    15689    15260    15998    16425    16077 
   15918    16248    16637    16903    17314    17755    17403    16685 
   16560    16386    16100    16658    17563    17743    17170    16515 
   16385    16567    16393    15911    15874    16524    17101    17010 
   16623    16516    16744    16924    16679    16175    16100    16579 
   16782    16481    16514    17385    18562    19040    18384    17147 
   16194    15719    15298    14839    14748    15330    16125    16450 
   16520    16714    17146    17906    18342    18236    18514    18752 
   17626    15749    14594    14564    15222    15760    15955    16139 
   16244    16304    16659    17271    17665    17818    17991    17603 
   16854    17157    18025    17928    17055    16063    15339    15355 
   15650    15824    16307    16678    16541    16560    16812    16984 
   17126    17096    17038    17239    17497    17856    18083    17363 
   16313    16312    16806    16313    15086    14766    15815    17001 
   17553    17734    17650    17423    17411    17414    17032    16672 
   16847    16983    16484    16092    16324    16308    15810    16053 
   17028    17213    16731    16706    16825    16410    15838    15982 
   17045    18076    17916    17031    16823    17095    17036    16782 
   16440    16356    16665    16260    15407    15795    16735    16763 
   16585    16997    17767    18236    17708    16863    16586    16446 
   16264    16140    16114    16425    16467    15911    15915    16876 
   17403    16648    15922    16467    17198    17088    17049    17575 
   17748    17032    16215    16402    17104    16799    15894    15932 
   16437    16146    15697    16333    17463    17527    16449    15808 
   17089    19522    19558    15601    11949    13382    18261    20332 
   17464    15423    17529    18656    16213    14559    16101    18339 
   18388    16251    14921    16312    17904    16520    13494    13484 
   17705    20855    19049    15781    15234    16853    17916    17081 
   16379    17671    18437    16499    14280    14683    16844    17764 
   17018    16769    17190    16905    16254    16052    16330    17047 
   17651    17555    17079    16652    16389    16167    15929    16223 
   17165    17929    17826    17015    16554    16773    16805    16596 
   16438    16073    15809    15978    16523    17460    17929    17119 
   16223    16418    16895    16753    16227    15971    16398    17104 
   17432    17292    16834    16476    16710    17120    17110    16975 
   16884    16642    16422    16240    16051    16342    17090    17279 
   16458    15555    15774    17086    17838    16956    15955    16409 
   17316    17337    17006    16918    16486    15695    15583    16648 
   18052    18461    17526    16130    15493    15910    16501    16718 
   16839    16982    16805    16244    15921    16075    16223    16317 
   16692    17278    17734    17735    17198    16459    16152    16759 
   17557    17307    16606    16618    16637    16008    15749    16555 
   17539    17639    17011    16488    16305    16176    16140    16339 
   16573    16729    16895    17060    17097    16955    16765    16601 
   16417    16384    16717    17058    16902    16536    16427    16504 
   16596    16638    16645    16674    16800    17214    17663    17465 
   16815    16481    16334    15999    15991    16759    17668    17751 
   17037    16408    16192    16164    16535    17213    17438    17124 
   16790    16687    16942    17196    16732    15778    15336    15737 
   16298    16548    16943    17498    17444    16981    16846    16884 
   16903    16881    16571    16317    16425    16584    16863    17041 
   16693    16539    16844    16975    17195    17437    16764    15797 
   15938    16681    16903    16911    17249    17524    17135    16319 
   15951    16218    16454    16341    16437    17032    17415    17149 
   16611    16221    16125    16292    16659    17014    17115    17042 
   16914    16704    16476    16425    16628    16954    17206    17206 
   17100    17024    16632    15893    15384    15643    16589    17286 
   17132    16795    16849    16853    16538    16240    15776    15039 
   15467    18024    20637    20630    18294    15696    14012    13579 
   14394    15894    17363    18466    18844    17835    15802    14729 
   15767    17670    18842    18563    16857    15298    15162    15340 
   15268    16019    17142    17285    16640    16184    16611    17524 
   17886    18005    18232    17801    16809    15966    15607    15880 
   16275    16456    16931    17433    17013    16097    15901    16439 
   16850    16628    16084    16106    16985    17809    17884    17749 
   17570    16695    15784    15900    16239    16134    16249    16612 
   16709    16498    16281    16681    17381    17163    16496    16613 
   17260    17934    18317    17891    16968    16223    15881    15990 
   16087    15785    15506    15791    16897    18073    18028    16927 
   16005    16112    16966    17525    17623    17608    17308    16833 
   16434    16019    15984    16541    16801    16472    16271    16363 
   16418    16309    16240    16572    17225    17771    17858    17290 
   16473    16157    16510    17093    17398    17279    16964    16678 
   16492    16277    15828    15421    15683    16660    17552    17573 
   16922    16514    16683    16909    16741    16364    16400    16963 
   17166    16543    16221    17058    17861    17434    16525    16354 
   16855    16818    15929    15569    16255    16930    17038    16808 
   16629    16831    17057    16767    16494    16919    17377    16999 
   16128    15658    15998    16739    17093    16926    16865    17211 
   17511    17338    16754    16225    16208    16413    16388    16499 
   16898    17072    16951    16810    16847    16992    16765    16347 
   16418    16718    16801    16781    16653    16533    16732    17082 
   17299    17362    17140    16545    15984    15933    16255    16517 
   16706    17002    17289    17266    16619    15683    15645    16764 
   17630    17381    16938    17193    17413    16557    15476    15813 
   17125    17692    17268    16937    17089    16891    16154    15906 
   16321    16622    16651    16699    16700    16587    16617    16662 
   16550    16782    17492    17986    17793    17094    16296    15836 
   15983    16466    16902    17233    17210    16462    15532    15771 
   17178    18056    17713    16909    16464    16717    16760    15990 
   15741    16530    17056    16856    16674    16912    17052    16499 
   15836    16065    16949    17494    17388    17106    16931    16714 
   16559    16776    17241    17361    16808    15911    15376    15806 
   16817    17339    17186    16854    16327    15790    16054    16870 
   17268    17270    17145    17024    17134    17180    16971    16757 
   16585    16634    16937    16933    16466    15943    15707    15903 
   16257    16587    17046    17332    17093    16776    16829    16979 
   17047    17342    17588    17197    16801    16986    16939    16288 
   15769    15793    16061    16292    16585    16950    17072    16992 
   17017    16962    16731    16703    16932    17064    16934    16895 
   17152    17145    16647    16300    16347    16345    16295    16593 
   17068    17316    17206    16810    16550    16595    16600    16454 
   16264    16263    16665    16972    16696    16305    16323    16653 
   17085    17425    17426    17123    16806    16535    16221    16099 
   16476    17070    17248    16967    16739    16723    16641    16414 
   16267    16282    16441    16828    17065    16795    16585    16842 
   17098    17035    16947    17149    17253    16649    15784    15505 
   15683    16006    16504    16924    17226    17298    16509    15606 
   16102    17454    18250    18101    17340    16935    17518    18590 
   19645    19582    16190    11592    12913    19720    21326    14948 
   12854    22648    33893    35132    31017    29572    26783    15883 
    1477    -3193     7159    23979    37331    36819    14794   -11409 
  -13397     6598    21009    17258     8283     2529   -13839   -45491 
  -59702   -27287    29340    70553    88256    93423    87098    58442 
   12571   -19135   -16995      794     2590    -9896    -1465    31022 
   42311    14448   -12040    -8131     7040    20820    47382    85420 
  110458    98659    44482   -20314   -47863   -36998   -23992   -14359 
    6855    27528    19663   -24977   -72238   -71527   -14676    65563 
  131085   153469   137253   102544    40601   -45390  -103979   -99607 
  -54571   -12645     6938    19575    45376    79008    87805    45153 
  -25109   -60825   -29111    33488    59864    30416    -3763     7536 
   51193    92818   120342   119393    70303   -20302  -114182  -168862 
 -163450   -98740     3523    91786   117684    95297    82194    88501 
   62592    -3497   -34879     7117    62002    70656    47292    30167 
   22831     -616   -42368   -54137    -5152    57234    72155    34305 
  -18832   -42389   -34264   -26668    -8057    56466   133061   149736 
  104432    52008    10755   -38485   -86206   -87174   -25287    57472 
  115933   135001   102798    15927   -72385   -78602    -6511    40641 
    6520   -40815   -15006    67056   127867   133592   116508   126501 
  130120    36824  -134166  -266872  -293891  -236527  -158087   -91926 
  -32163    -9648   -69792  -131526   -52985   138990   302244   387148 
  413714   356261   176120   -66084  -224499  -231957  -140850    19803 
  215756   275967    66338  -274741  -465787  -384783  -108257   245303 
  499771   474876   222303   -77585  -309553  -344585  -161592    45934 
  147939   198372   250249   203524   -21182  -210522  -171352   -32601 
   89655   217972   334939   396763   339042   118402  -176453  -365021 
 -289308    20019   270058   185140  -124989  -291334  -265323  -316776 
 -422013  -319684    24484   421636   645853   639581   517777   290546 
  -32584  -258174  -304049  -259194  -123619    63627   118394   -23004 
 -252500  -410507  -364898  -185005   -52392    32924   187265   360313 
  366298   203948    45700   -10110    84353   264595   324465   246428 
  154676    16637  -192391  -392788  -536372  -549885  -400018  -199090 
  -19799   159591   283375   246105   117500    71606    95506   123907 
  208075   295289   284061   222510   140915   -16553  -227656  -357334 
 -298850  -156362  -129550  -201267  -187981   -34463   114346   142598 
  112968    97853    97116   107992   105839    59602   -21638   -59323 
    -277    25794   -57417   -74446    65291   209685   199222    35278 
 -127301  -169326  -126129   -83521   -97419  -145770  -119163    28314 
  192097   258417   243767   197420   104170    29223    42636    23570 
  -71493   -84569     4435    47181    12077   -13003   -11958   -57769 
 -197601  -351429  -362884  -198397    19205   162325   213878   255265 
  323114   368404   334647   188579    -3482  -123728  -178455  -224621 
 -241516  -212145  -165469   -96696    13738   114159   129968    63395 
  -20103   -72570   -86405   -63444   -14431    32114    60514    91263 
  132077   144865   112621    66780    38322    38380    54670    58840 
   41696    20498    -2703   -44909   -82605   -63258    16024   107600 
  169170   198818   221644   240421   236348   204437   155402   110465 
   94774   114841   139162   119357    44330   -42906   -91057   -96065 
  -82725   -50445       93    39668    62794   100532   176238   280640 
  361208   356810   271436   161450    58361   -30409   -95376  -140135 
 -169217  -180415  -187841  -216652  -276653  -347492  -389497  -360367 
 -247661  -109229   -16763    26454    54790    81956   101877   118270 
  141940   175190   234294   313974   346366   290346   167892    12271 
 -119644  -178164  -179057  -158485  -131858  -112570  -100626   -70989 
  -26561     4047    28106    70022   137510   207096   226850   188213 
  132235    73656     6355   -55382   -86992   -74473   -22663    42238 
   78564    63066    14691   -44707  -110530  -164833  -183781  -162134 
 -109183   -56464   -50379   -96835  -149034  -164089  -133818   -69649 
   10122    80954   121558   125355    99603    59903    18993    -5266 
   12110    51940    59512    23621   -25245   -59988   -70408   -66271 
  -55631   -28549    21795    87115   155435   218105   266823   286796 
  259760   189051   108497    41204   -21326   -80116  -113039  -101683 
  -54804    -7338    21140    47101    81900   111362   126974   132850 
  121739    87694    40672   -11070   -65512  -119695  -161843  -179343 
 -171832  -137582   -78027   -11452    46811   101468   163620   215983 
  221076   178985   124442    80355    46933     6963   -44087   -77323 
  -76125   -62100   -54408   -44639   -13454    41447    85289    82106 
   52442    36729    37148    50145    84841   131490   170416   187322 
  173482   140541    96582    29429   -46640   -98657  -121043  -115634 
  -85379   -53863   -33587    -6637    39682    87908   111991   105496 
   75438    30133   -18248   -50987   -52222   -36912   -41593   -63616 
  -65013   -38071    -8523     2678     -974      147     2863   -10806 
  -26649   -20584      -95    12925    12456    11678    25858    52698 
   66996    52228    31442    30180    39389    42056    35461    22698 
    7581    -3690    -4688     4703    15123    14201     2186    -5322 
   -3423    -5851   -16701   -24497   -19297    -1805    13767    17021 
   17971    29265    39823    28427     5414    -5916   -17186   -43235 
  -66375   -65443   -36747     1095    19270    15601     7324     1941 
    -659    -7536   -22970   -33556   -28833   -12021    14236    38816 
   46917    44406    40396    33402    32114    48120    71243    78771 
   63516    42993    33805    27504    14182     5264     9811    23141 
   41144    53627    47838    31187    19580    16081    13040     3231 
  -10455   -25265   -42898   -51730   -29584    27216    79193    76004 
   25596   -14817   -17688   -10305   -19133   -32357   -29283    -7582 
   21632    44399    51804    41350    19568     1444    -1410    16222 
   46839    62697    49774    31540    28780    35197    43626    51446 
   49282    40621    43236    56683    62681    49957    25309     8764 
   12448    25182    27157    15569    -2191   -23738   -35649   -21594 
    4021    16802    17275    10037    -5109   -10352     3748    13207 
    7087     6147    15486    17226     5515    -9181   -11894     5575 
   31430    46342    48564    48910    47539    36116    17114     6348 
   15234    30205    27950    10885     -370     2820    11592    15688 
   18010    26796    39331    42740    31507    15493     8105    18105 
   42522    66451    80292    80029    61763    34510    15836     8275 
    -266    -9889    -8658    -1177    -1137    -4996    -2338     5486 
   10787    14406    22985    31525    28144    13772      674    -5906 
  -12236   -17290    -8173    20715    59350    84181    74581    41487 
   13336    -1805    -5966     4604    17193    12077      -67      392 
    7168     7809     3221     3570    15077    29654    41289    45951 
   28849    -5624   -24324    -8552    25917    50257    53286    49777 
   47086    31711     6979    -8849   -18902   -24736   -10445     8133 
   -6067   -37785   -39903   -12152    10249    13620     8147     5141 
    8850    15933    21956    27404    30833    24823    10080    -1051 
   -1126     9017    26521    44208    53906    56030    52331    36641 
   10185   -11126   -14593     -783    20558    38489    49352    53833 
   46034    24779     8276     8224    14313    17348    18373    19539 
   15083     1078    -8729    -3687     8510    24140    48052    70536 
   68760    42080    19753    17534    17849     6472    -4760    -2178 
