Origin Time       2016/04/15 00:03:00
Lat.              32.700
Long.             130.777
Depth. (km)       7
Mag.              6.4
Station Code      KMMH16
Station Lat.      32.7967
Station Long.     130.8199
Station Height(m) -197
Record Time       2016/04/15 00:03:27
Sampling Freq(Hz) 100Hz
Duration Time(s)  300
Dir.              1
Scale Factor      2940(gal)/6170270
Max. Acc. (gal)   45.656
Last Correction   2016/04/15 00:03:12
Memo.             
[...]
   53385    53330    53298    53321    53350    53378    53373    53356 
   53359    53348    53341    53340    53327    53341    53359    53351 
   53362    53358    53318    53336    53379    53369    53373    53368 
   53322    53354    53384    53289    53257    53346    53376    53359 
   53375    53381    53370    53356    53334    53307    53302    53351 
   53374    53335    53349    53387    53353    53334    53345    53334 
   53354    53371    53347    53338    53338    53342    53357    53338 
   53333    53360    53355    53345    53350    53342    53339    53338 
   53337    53345    53369    53406    53390    53305    53263    53318 
   53441    53527    53411    53149    53078    53324    53582    53577 
   53403    53289    53326    53409    53380    53240    53112    53062 
   53108    53251    53439    53576    53598    53561    53501    53397 
   53302    53268    53278    53300    53298    53286    53297    53302 
   53305    53353    53407    53423    53423    53411    53377    53344 
   53308    53282    53292    53315    53331    53350    53370    53386 
   53395    53387    53367    53356    53359    53354    53326    53302 
   53295    53305    53330    53354    53370    53371    53364    53371 
   53372    53352    53342    53329    53310    53315    53329    53333 
   53349    53377    53391    53387    53380    53374    53361    53348 
   53332    53323    53326    53330    53343    53362    53366    53363 
   53354    53338    53338    53348    53350    53356    53366    53365 
   53356    53347    53335    53328    53330    53333    53339    53351 
   53363    53371    53368    53353    53332    53314    53313    53330 
   53347    53346    53325    53326    53363    53383    53384    53388 
   53353    53323    53337    53317    53317    53362    53367    53378 
   53356    53326    53364    53334    53347    53429    53342    53304 
   53397    53331    53297    53403    53337    53246    53329    53343 
   53316    53393    53429    53409    53379    53323    53319    53305 
   53275    53337    53375    53351    53393    53424    53368    53336 
   53329    53279    53280    53346    53358    53350    53376    53376 
   53361    53354    53350    53351    53341    53351    53363    53342 
   53358    53363    53326    53345    53355    53311    53318    53352 
   53368    53392    53420    53408    53326    53260    53290    53302 
   53308    53395    53430    53411    53405    53326    53278    53320 
   53315    53313    53356    53354    53359    53391    53373    53356 
   53356    53323    53312    53334    53346    53365    53380    53377 
   53367    53331    53309    53335    53350    53340    53336    53349 
   53357    53343    53354    53394    53395    53358    53343    53333 
   53310    53327    53375    53395    53387    53352    53325    53338 
   53335    53305    53285    53279    53320    53388    53425    53447 
   53423    53363    53369    53402    53400    53404    53375    53276 
   53182    53134    53108    53121    53236    53398    53503    53583 
   53617    53514    53384    53333    53270    53217    53231    53251 
   53296    53385    53436    53449    53450    53400    53337    53301 
   53268    53300    53386    53393    53356    53348    53315    53295 
   53337    53375    53401    53424    53408    53371    53344    53335 
   53332    53315    53297    53270    53243    53268    53333    53393 
   53437    53467    53455    53390    53324    53290    53276    53287 
   53310    53321    53330    53349    53366    53380    53378    53350 
   53333    53359    53382    53367    53351    53342    53341    53344 
   53331    53326    53335    53333    53341    53359    53354    53342 
   53352    53364    53375    53398    53391    53341    53302    53298 
   53303    53306    53332    53363    53379    53400    53390    53348 
   53348    53356    53330    53329    53337    53314    53307    53313 
   53300    53311    53339    53332    53352    53419    53426    53399 
   53393    53362    53324    53327    53335    53323    53334    53369 
   53381    53381    53391    53384    53367    53361    53336    53299 
   53298    53324    53335    53342    53352    53342    53331    53337 
   53343    53347    53352    53344    53335    53337    53346    53364 
   53359    53332    53333    53355    53365    53371    53365    53350 
   53351    53353    53338    53330    53345    53362    53351    53335 
   53338    53335    53333    53339    53335    53342    53356    53346 
   53351    53379    53390    53388    53369    53337    53329    53338 
   53328    53318    53336    53357    53356    53343    53345    53354 
   53345    53343    53356    53354    53345    53350    53349    53336 
   53338    53349    53362    53380    53376    53356    53349    53339 
   53323    53327    53339    53344    53349    53348    53351    53363 
   53363    53351    53348    53348    53347    53355    53350    53335 
   53335    53341    53346    53364    53377    53358    53337    53345 
   53348    53339    53341    53343    53337    53340    53343    53345 
   53355    53358    53351    53345    53339    53337    53343    53357 
   53363    53353    53344    53346    53341    53338    53354    53354 
   53339    53356    53380    53372    53360    53352    53333    53319 
   53325    53334    53345    53364    53367    53354    53347    53345 
   53343    53345    53355    53364    53355    53348    53349    53338 
   53328    53326    53326    53340    53360    53361    53353    53357 
   53362    53364    53364    53347    53329    53333    53343    53349 
   53349    53347    53354    53364    53370    53374    53362    53342 
   53335    53337    53339    53337    53339    53344    53342    53343 
   53356    53358    53353    53347    53338    53335    53342    53345 
   53350    53356    53350    53343    53344    53351    53353    53337 
   53328    53340    53344    53346    53358    53354    53349    53359 
   53355    53347    53356    53362    53352    53337    53339    53349 
   53347    53345    53351    53349    53347    53353    53355    53352 
   53347    53340    53333    53334    53345    53356    53361    53355 
   53346    53349    53353    53353    53355    53353    53349    53348 
   53348    53351    53347    53343    53349    53340    53333    53351 
   53354    53343    53352    53353    53340    53339    53342    53344 
   53350    53348    53346    53351    53351    53351    53346    53344 
   53358    53358    53344    53347    53358    53357    53350    53343 
   53344    53356    53363    53357    53345    53345    53351    53346 
   53342    53346    53352    53362    53362    53352    53344    53337 
   53339    53354    53357    53342    53335    53339    53343    53346 
   53348    53351    53349    53343    53344    53356    53368    53371 
   53354    53327    53317    53327    53350    53375    53368    53350 
   53363    53345    53314    53352    53355    53324    53370    53374 
   53330    53364    53368    53330    53347    53317    53303    53398 
   53390    53319    53389    53419    53314    53285    53357    53383 
   53317    53257    53350    53469    53386    53309    53391    53355 
   53252    53344    53378    53298    53394    53443    53310    53300 
   53358    53321    53329    53383    53356    53309    53315    53317 
   53378    53446    53333    53311    53427    53311    53262    53410 
   53330    53272    53402    53388    53353    53393    53370    53317 
   53252    53269    53359    53412    53457    53418    53351    53329 
   53228    53254    53405    53374    53369    53429    53321    53307 
   53390    53297    53309    53429    53327    53283    53396    53370 
   53333    53373    53374    53356    53299    53280    53358    53395 
   53381    53338    53314    53382    53374    53285    53295    53355 
   53397    53379    53295    53345    53451    53341    53248    53342 
   53382    53342    53353    53386    53378    53351    53327    53294 
   53287    53297    53282    53301    53407    53529    53556    53452 
   53314    53318    53414    53385    53312    53354    53377    53253 
   53139    53207    53266    53202    53276    53440    53421    53358 
   53463    53623    53630    53459    53249    53154    53235    53361 
   53329    53163    53130    53306    53447    53432    53368    53330 
   53350    53437    53498    53413    53244    53181    53279    53395 
   53375    53286    53286    53396    53458    53390    53394    53477 
   53403    53298    53336    53333    53258    53275    53284    53244 
   53332    53435    53421    53440    53455    53359    53268    53262 
   53305    53369    53463    53505    53379    53208    53155    53202 
   53309    53407    53442    53453    53442    53431    53436    53354 
   53241    53236    53260    53271    53333    53388    53404    53407 
   53365    53323    53314    53294    53333    53429    53447    53426 
   53424    53368    53277    53239    53265    53333    53387    53363 
   53333    53371    53391    53353    53311    53279    53281    53350 
   53417    53371    53268    53324    53530    53557    53308    53145 
   53246    53356    53311    53274    53382    53421    53303    53277 
   53329    53332    53387    53429    53331    53299    53435    53465 
   53374    53371    53375    53323    53282    53275    53341    53373 
   53358    53410    53398    53340    53372    53333    53266    53321 
   53385    53468    53444    53168    53135    53433    53391    53201 
   53399    53483    53289    53366    53429    53281    53406    53430 
   53132    53291    53645    53444    53243    53400    53392    53281 
   53312    53301    53319    53322    53121    53100    53486    53735 
   53534    53344    53319    53147    52994    53112    53416    53770 
   53890    53518    52981    52932    53158    53183    53414    53673 
   53382    53125    53253    53237    53187    53452    53606    53503 
   53383    53022    52799    53376    54006    53940    53784    53758 
   53290    52758    52911    53528    54050    53917    53091    52398 
   52200    52457    53436    54499    54283    53066    52631    53574 
   54887    55137    53183    50474    50314    52573    54801    56506 
   57117    56164    55247    54654    53333    51921    51616    53382 
   56506    56920    52689    47446    45316    48556    55884    60317 
   57659    52315    49484    49567    49656    48551    48760    50566 
   52362    54851    57533    59619    61154    60952    61008    61082 
   56798    52817    54154    55045    51330    46261    46165    51985 
   56007    55149    53065    50498    47119    43700    42027    44874 
   50654    55541    59188    60383    57181    52247    49394    49689 
   51805    53434    54327    55741    58757    62414    61522    55219 
   50884    51166    51257    48496    44816    44326    48409    52845 
   54305    54108    54467    56848    59915    60151    57977    56199 
   55140    54396    54514    56553    60236    63872    66391    66651 
   64826    62265    57424    50102    44823    43507    44485    47543 
   51520    53924    54738    54820    54045    53615    55804    58831 
   58943    57542    57408    58151    59138    59861    58992    56247 
   54242    55561    58436    60072    60150    58306    54289    49970 
   47005    45246    45561    48398    50648    51270    53021    55611 
   56456    56240    57632    60066    61153    62394    65118    65436 
   62307    61041    63631    67348    69769    68307    64669    63586 
   62952    61524    64422    68970    67689    62962    60244    59842 
   60598    60745    59449    57529    53844    48478    47124    53621 
   62612    68033    70238    69730    66974    64075    60063    54682 
   49044    40194    28047    18522    14419    14221    18069    25748 
   32280    33814    32758    33899    37450    38035    34470    31129 
   30230    32051    36123    43281    54675    64961    68633    69415 
   73320    80882    90227    99242   104857   107061   107506   105805 
  104933   106860   105753    99222    90359    77571    60084    43515 
   30831    20058    12073    10749    15824    22065    24775    24136 
   25565    31253    34979    35163    37484    39069    35393    30227 
   21619     7828    -2614    -7403    -8728    -3300     6952    17151 
   29953    47460    64193    73214    74628    74822    76272    78951 
   84803    90157    90794    89174    85062    77788    72060    68365 
   63217    57595    54308    53056    51889    49790    47315    47871 
   50370    47556    42884    43824    46946    50578    54255    53685 
   52713    55769    57842    55950    53268    51716    48875    44099 
   41615    40785    37832    34247    29978    25347    23825    20999 
   13716    10632    15510    22837    31496    42883    54455    65475 
   76274    82490    81960    77141    69196    60713    54471    49887 
   49053    53332    57921    60170    60725    59500    57576    55916 
   55517    56900    55185    46765    37816    33778    31321    28933 
   30553    35890    39456    39105    38972    41949    45113    45154 
   39737    29503    21685    20700    23355    25628    25926    25930 
   29200    37222    47843    58482    68489    77738    86396    93927 
  100421   108227   117788   128097   137689   143355   146021   148576 
  148804   146819   146846   148402   148132   143945   135556   125530 
  115762   105714    93016    74369    50867    26501     3943   -12741 
  -22492   -28597   -31374   -33257   -38486   -42466   -41871   -41424 
  -39904   -33945   -25955   -15506    -3907     2334     2348     -651 
   -5663   -12189   -17114   -15101    -2894    19189    46308    70512 
   88031    98128   101046   102557   105624   106921   107001   107172 
  107978   111324   113853   114072   115561   116426   116103   116646 
  115222   112934   112143   111595   113235   115252   114079   113858 
  116514   119962   123866   124754   120596   115543   109795    99817 
   87851    77882    68574    56334    39050    18290     1637    -5739 
   -8594   -11699   -15387   -20035   -22847   -20963   -16698   -11645 
   -5422      919     5772     9214    14435    23207    32566    40544 
   47918    53734    56537    57737    58531    57232    54634    54097 
   54239    55166    60071    63979    64000    65382    66842    66897 
   70182    74118    73645    70498    65542    60321    58673    58464 
   58107    60231    62524    61867    58219    49307    35330    20875 
    7105    -4405    -9603   -11431   -13436   -11999    -6538     -185 
    6939    14220    19592    23138    26459    30272    35714    45513 
   58703    69379    74301    74672    70735    63174    56433    52077 
   48112    46880    50580    56062    60943    65803    71605    78214 
   82455    80678    75053    70644    67082    61797    56613    54601 
   57086    63700    71737    78465    81930    79988    73206    65027 
   58432    55406    55592    55201    51126    43658    34996    27937 
   24407    24747    28201    33224    37992    40988    42598    43514 
   41016    33164    22013     9146    -2761    -9331   -11002    -9532 
   -4209     2891     9085    13793    16081    18277    25641    38410 
   52497    65645    77010    86004    93449    99188   100994    97593 
   90397    82587    74983    65453    54794    46404    41506    40373 
   42229    43763    43495    42355    40560    38823    38393    40427 
   44863    48621    50388    51544    50911    49382    52010    58652 
   65096    71255    77210    78893    74691    69241    65868    61944 
   57161    55791    57158    56956    55481    55021    55463    56032 
   56240    55047    52484    51480    54060    57499    59200    62038 
   68851    76320    80989    83184    82402    78991    74114    65338 
   52908    41413    31829    25302    25307    30110    37388    47755 
   58155    67247    77280    84734    86861    87111    85734    80506 
   72780    65270    58601    52085    46047    41506    39903    40471 
   38790    34799    33082    33447    33815    35384    38766    43308 
   48132    52547    56949    60490    63193    67372    71734    74413 
   77473    80414    80539    78938    75938    68386    58231    50594 
   43898    37888    37391    40201    41612    43687    47455    49212 
   47455    45230    44997    44941    43255    41280    39827    39834 
   43134    48113    52251    55947    60271    65156    68834    70546 
   71898    72323    70445    67820    65717    64234    63902    65409 
   68934    72464    73410    72360    72090    73634    75347    75913 
   75590    74805    74228    74241    74740    76656    79046    78963 
   77272    74975    70903    67955    67231    64944    62375    62642 
   63066    60707    56779    53868    51707    47569    42034    38244 
   36709    36363    36057    34983    34228    35331    38137    41266 
   44380    48187    51574    53617    55527    55945    52570    47830 
   44565    43529    46628    52278    55643    57591    60168    60507 
   57793    54951    53385    52187    50551    48387    45513    43718 
   44711    45426    43690    41761    40355    39108    39130    38710 
   35577    33342    35320    38606    41057    43887    46571    47824 
   47220    43522    37427    31841    28288    26927    27050    28519 
   31628    35181    38653    42185    44542    45360    46185    46773 
   44772    41697    41436    43336    45871    48968    50444    50973 
   53573    55783    55717    56135    57000    57329    58575    60281 
   60921    60888    61020    61175    60967    60986    60995    59915 
   59790    62342    64942    66730    68694    68932    67821    67844 
   67287    64719    62915    64283    66977    67450    66363    65920 
   64969    62845    60240    56655    52486    48875    45622    42239 
   39026    36585    34813    34093    35816    39017    41414    42793 
   42776    41303    40698    40986    40412    40125    40478    40728 
   42220    44430    45707    46711    47535    48336    49552    49215 
   47345    46643    47252    48406    49527    49569    49454    49058 
   46754    44992    46299    49597    54342    58747    59936    59121 
   58507    57907    57451    57707    57919    57331    57696    60917 
   64824    66928    68343    69447    69345    69462    70322    69984 
   68663    67645    65923    63654    62889    63345    64211    66575 
   69849    71462    70774    69564    69080    68526    68031    69074 
   70271    69952    69499    69598    69371    67789    64552    61533 
   60158    59593    59441    59839    60466    61652    63216    64191 
   64937    65515    64672    62690    60481    57828    54928    51856 
   49504    49463    49754    48801    48460    48756    50121    54055 
   58003    59662    60244    60598    60839    60259    57262    52780 
   49314    47576    47270    47341    47179    48645    51821    53454 
   53830    56159    59006    59383    58886    59109    58099    55648 
   54144    53779    53831    55074    57345    59309    61025    62980 
   63752    62660    61304    59300    55512    52575    52037    51563 
   51450    53130    54033    53179    52406    51700    51036    49943 
   47661    46403    47186    48572    50184    51864    53921    56489 
   57478    55714    53177    51782    51446    51339    51056    50896 
