Origin Time       2016/04/16 01:25:00
Lat.              32.8
Long.             130.8
Depth. (km)       10
Mag.              7.1
Station Code      KMMH16
Station Lat.      32.7967
Station Long.     130.8199
Station Height(m) -197
Record Time       2016/04/16 01:25:08
Sampling Freq(Hz) 100Hz
Duration Time(s)  300
Dir.              2
Scale Factor      2940(gal)/6170270
Max. Acc. (gal)   242.778
Last Correction   2016/04/16 01:24:53
Memo.             
[...]
   76419    76424    76424    76427    76432    76431    76424    76420 
   76421    76426    76425    76420    76424    76424    76425    76439 
   76437    76422    76418    76417    76415    76412    76413    76422 
   76425    76425    76429    76429    76432    76436    76433    76428 
   76429    76429    76426    76425    76420    76418    76421    76415 
   76408    76412    76421    76425    76428    76433    76430    76425 
   76424    76417    76416    76426    76429    76424    76424    76427 
   76425    76427    76431    76427    76425    76427    76423    76426 
   76430    76428    76422    76417    76414    76414    76417    76423 
   76428    76430    76427    76429    76433    76428    76425    76426 
   76423    76419    76420    76424    76426    76425    76415    76410 
   76420    76428    76427    76421    76418    76417    76420    76420 
   76417    76422    76428    76424    76419    76419    76425    76425 
   76425    76430    76432    76426    76422    76423    76425    76425 
   76426    76426    76425    76426    76425    76419    76421    76426 
   76426    76426    76424    76418    76417    76420    76424    76426 
   76422    76418    76419    76419    76417    76421    76427    76431 
   76429    76425    76425    76426    76426    76424    76418    76418 
   76425    76426    76422    76426    76433    76431    76428    76428 
   76427    76423    76419    76424    76432    76427    76415    76413 
   76422    76425    76423    76422    76422    76424    76427    76420 
   76413    76418    76424    76425    76423    76419    76417    76421 
   76425    76428    76428    76423    76421    76423    76423    76423 
   76422    76425    76430    76431    76427    76422    76419    76421 
   76424    76425    76425    76423    76423    76429    76430    76424 
   76423    76424    76421    76416    76417    76421    76426    76431 
   76431    76425    76422    76423    76424    76426    76426    76425 
   76424    76426    76429    76426    76422    76424    76425    76422 
   76424    76427    76426    76429    76430    76423    76419    76421 
   76422    76422    76423    76424    76428    76427    76424    76423 
   76422    76423    76429    76429    76424    76422    76422    76426 
   76425    76421    76423    76424    76422    76422    76423    76425 
   76428    76427    76423    76421    76424    76428    76423    76421 
   76428    76431    76427    76422    76423    76427    76425    76423 
   76422    76422    76423    76424    76425    76424    76423    76425 
   76426    76426    76428    76427    76425    76423    76422    76422 
   76424    76423    76421    76422    76423    76422    76424    76429 
   76430    76428    76424    76421    76422    76423    76424    76424 
   76423    76422    76425    76424    76422    76424    76427    76424 
   76422    76425    76426    76426    76429    76428    76423    76422 
   76422    76421    76423    76427    76429    76425    76421    76421 
   76423    76425    76427    76424    76419    76422    76427    76425 
   76425    76426    76424    76423    76425    76425    76421    76421 
   76426    76428    76426    76425    76421    76418    76421    76423 
   76425    76428    76427    76422    76422    76426    76426    76425 
   76427    76427    76422    76421    76424    76424    76425    76426 
   76424    76422    76423    76423    76423    76423    76425    76427 
   76425    76422    76424    76424    76425    76427    76427    76425 
   76422    76419    76422    76426    76425    76422    76422    76425 
   76425    76421    76421    76423    76425    76424    76422    76423 
   76425    76426    76425    76426    76426    76426    76426    76425 
   76421    76420    76423    76425    76421    76420    76425    76427 
   76425    76424    76421    76420    76423    76426    76425    76424 
   76425    76425    76424    76424    76422    76420    76423    76426 
   76425    76423    76424    76425    76422    76422    76425    76427 
   76424    76422    76423    76425    76425    76423    76423    76423 
   76423    76424    76426    76428    76427    76425    76424    76424 
   76420    76418    76425    76428    76422    76419    76423    76424 
   76424    76426    76424    76421    76422    76424    76424    76426 
   76426    76424    76421    76419    76421    76425    76426    76424 
   76425    76425    76420    76418    76422    76423    76425    76425 
   76423    76424    76427    76427    76426    76428    76428    76423 
   76421    76422    76426    76430    76429    76425    76422    76422 
   76425    76424    76422    76421    76421    76422    76424    76424 
   76425    76428    76426    76423    76422    76422    76423    76426 
   76425    76424    76424    76422    76420    76424    76427    76425 
   76425    76425    76423    76424    76425    76424    76424    76426 
   76425    76424    76424    76423    76423    76425    76427    76425 
   76422    76422    76425    76426    76427    76425    76425    76423 
   76420    76420    76424    76425    76426    76428    76429    76428 
   76426    76426    76425    76422    76424    76426    76425    76425 
   76425    76426    76426    76425    76424    76424    76423    76420 
   76420    76423    76424    76425    76425    76425    76426    76424 
   76421    76420    76423    76428    76429    76426    76424    76422 
   76424    76427    76425    76420    76422    76426    76426    76423 
   76424    76426    76424    76421    76422    76423    76422    76421 
   76423    76426    76426    76426    76426    76425    76422    76422 
   76424    76425    76425    76425    76424    76424    76425    76426 
   76427    76426    76424    76423    76426    76427    76427    76425 
   76424    76425    76423    76421    76424    76428    76427    76424 
   76423    76422    76422    76423    76424    76425    76424    76423 
   76423    76422    76422    76423    76423    76425    76425    76425 
   76424    76425    76426    76425    76423    76422    76423    76423 
   76425    76426    76422    76422    76426    76424    76420    76424 
   76427    76424    76423    76426    76425    76423    76423    76425 
   76424    76421    76423    76427    76426    76425    76425    76424 
   76423    76422    76420    76421    76424    76426    76425    76423 
   76422    76423    76424    76424    76424    76423    76424    76425 
   76424    76423    76425    76425    76422    76420    76420    76422 
   76423    76421    76421    76423    76426    76426    76427    76425 
   76421    76421    76422    76422    76423    76424    76424    76421 
   76419    76423    76425    76422    76422    76423    76422    76422 
   76422    76424    76426    76426    76424    76422    76423    76423 
   76423    76426    76426    76423    76425    76425    76423    76424 
   76425    76427    76426    76422    76418    76420    76423    76423 
   76422    76424    76426    76426    76425    76424    76424    76425 
   76425    76424    76423    76423    76424    76422    76422    76428 
   76430    76425    76423    76424    76422    76422    76424    76424 
   76424    76424    76425    76425    76424    76424    76425    76424 
   76424    76424    76425    76425    76423    76423    76427    76426 
   76424    76423    76423    76425    76427    76425    76424    76427 
   76427    76425    76427    76428    76425    76423    76423    76422 
   76421    76423    76425    76425    76425    76424    76424    76425 
   76422    76420    76422    76423    76424    76424    76425    76425 
   76426    76424    76423    76423    76422    76423    76426    76426 
   76424    76424    76425    76423    76422    76426    76427    76425 
   76424    76423    76423    76423    76425    76426    76425    76425 
   76425    76424    76426    76426    76422    76422    76425    76425 
   76422    76420    76417    76415    76413    76414    76419    76413 
   76376    76322    76308    76390    76473    76421    76338    76282 
   76164    76241    76575    76690    76595    76553    76253    75670 
   75605    76288    76770    76648    76396    76015    75740    76322 
   77074    77053    76463    75214    75016    76962    77945    77655 
   77113    75504    74981    75479    76074    77980    78472    76812 
   75080    73632    73099    72291    73311    78536    81024    79646 
   79660    77025    71713    70766    73202    76361    80581    82835 
   80396    75620    73475    75610    76851    75962    76975    76534 
   74831    77196    78516    76471    76655    77044    74739    73358 
   75931    79891    77992    73291    74100    75304    74192    74137 
   72577    71869    76171    79746    78134    76776    79803    81601 
   77745    71811    69279    72515    74810    73652    75418    76171 
   75681    78606    78098    72902    68133    67824    74716    81608 
   81431    77819    76372    75670    72443    72708    79110    80598 
   74254    69399    71286    78022    80895    78694    80053    80262 
   73838    70349    71227    69358    69036    72761    71849    67199 
   67676    70425    68220    68544    79144    87969    84836    76216 
   73586    79875    84924    83388    79936    78939    79167    72749 
   65293    66389    67130    68659    74993    75146    72347    71580 
   69367    73528    83222    84108    76511    70914    68590    67381 
   67476    66874    64834    61524    60710    64653    63099    60422 
   67267    68466    62476    62228    63584    69925    81609    85421 
   82514    76735    67004    55391    50932    68899    96083   105075 
  102457   103696   104146    98466    92932    87687    79401    74905 
   70433    60844    57205    59242    56968    50935    47981    59994 
   84354    96111    91934    87213    79985    72442    71485    71078 
   80694   107487   125933   128153   128583   121284   102227    82987 
   70359    62322    59194    65402    74844    84198    95266    92327 
   69489    45609    33705    37733    52292    64189    68935    69849 
   73925    81547    90654   104875   114729   108600    96112    91509 
   89530    80314    68707    58947    57739    70594    80788    83696 
   92473   104907   117645   123631   116895   107561    99595    96787 
   99167    99900   101766   104239   113171   130581   134375   121130 
  116634   129872   141431   141226   137537   128797   102486    60431 
   28132    14904     7651    15584    40174    58907    70385    76689 
   82873   109247   141012   151664   143346   120124   101400   109169 
  126743   125893   102820    80359    73512    70266    69193    81329 
   83577    57303    41790    51696    57084    61047    68548    64120 
   63178    87835   110359   110808   116353   122309   114809   115232 
  122267   121333   121130   131854   136334   122892   111591   104580 
   93636    85079    78929    73670    68686    68705    82646   103017 
  101906    69211    51837    70322    84063    92601   104243   100117 
   95720    98936    88721    62591    41782    54813    75454    63888 
   64228    95071   104926    91542    83818    85677    96225   102454 
   88030    67453    64790    70597    51685    11731      611    25839 
   34219    24253    35122    46783    40718    34313    36555    62198 
   85123    66352    45065    39357    38615    60789    63673    24024 
  -11310   -34924   -44834   -17502    44253    94693   102323    96919 
   93604    88631    86726    76129    51783    14911   -25514   -60091 
  -86799   -91796   -79558   -66171   -69209   -85519   -75202   -65346 
  -88743   -99250  -103488  -118868  -111826   -97346   -97524   -88544 
  -47141    12506    53252    61720    43301    17426    -4151   -34728 
  -57189   -47585   -16716    36803   104303   148141   164638   170153 
  184883   225067   253206   245106   230096   221446   214941   205729 
  200089   203369   195721   186554   189547   184062   172525   152680 
  122357   117236   157555   226720   264175   233876   193882   188413 
  194268   187350   177189   181913   191515   193653   188591   185564 
  198101   221825   254296   281094   290536   304330   313442   301897 
  271056   217150   168150   119118    26540   -75836  -122596  -122770 
 -137209  -173147  -185423  -174446  -149291  -117100   -98371   -60388 
  -15291   -20677   -67839  -161007  -281294  -365116  -405070  -391163 
 -335721  -301812  -282603  -265222  -271719  -262701  -220477  -175193 
 -115190   -45580    -8682    -9658    -8837    23982    67401    88250 
   94109   113832   138118   130265   112949   127276   153130   176659 
  194219   188757   190507   212538   214761   193259   164516   138888 
  135135   147681   167553   201212   232349   264618   319539   362924 
  354503   305674   258918   239273   238365   259335   313510   384070 
  424239   420327   408753   382999   328523   283817   267080   273260 
  320529   405610   465996   475603   466943   433166   383870   353034 
  317354   277395   265522   265352   261981   272975   287900   268818 
  201858    98736    -8895   -85483  -138451  -198636  -257570  -287570 
 -313109  -362057  -369595  -263671   -62719   143458   223747   145657 
   25892   -50192   -68132   -22259    63776   151116   197074   183806 
  161019   164691   186212   232101   274661   261617   209759   162307 
  153745   228721   358602   428379   398203   342091   305068   282698 
  250443   151974    25343   -12403    71893   236749   373837   410776 
  417685   425174   403787   371551   337578   314098   285541   204088 
  125060   134159   227427   355187   461860   527649   568047   585861 
  571947   523165   449435   355595   246609   165211   148520   164193 
  159588   127868    96804   103417   159913   225156   255543   250463 
  225823   206133   184693   124005    69734    75762    97816    93356 
   58401    25235    26403    21744    -5253   -14339    -5292    18173 
   51235    46756     1948   -56764  -129435  -195043  -236078  -241964 
 -211631  -179009  -138974   -76505    -9823    59465   113307   137540 
  150851   149910   125861    84913    48106    34652    25108    15340 
   18837     6076   -36868   -81441  -120667  -163943  -199317  -215352 
 -219324  -214160  -200025  -175282  -135710  -104044   -91344   -65859 
  -19447    24661    58006    87760   119139   142491   143235   131977 
  140140   174688   213210   224765   188374   133494    96625    71741 
   73145   113931   147106   139937   108937    63607    12040    -9034 
    7320    11962    -8817   -29132   -53160   -77352   -84582   -93378 
 -109586  -105241   -81197   -61705   -44476   -15567    18251    47738 
   79514   105887   104212    79903    44358      383   -34403   -54508 
  -60533   -51938   -55221   -85936  -129191  -163547  -162214  -128361 
  -94848   -70874   -58046   -59782   -62865   -55332   -28448     4990 
   16139    12302     4053   -12452   -21084   -12650    17605    65593 
   97384   113019   135780   152186   149272   135556   122909   119054 
  120467   114251    89858    53539    21088    -9183   -49787   -75767 
  -57858   -29710   -13869     7637    26293    46913    84660   105989 
  100187    92522    64248     3821   -47581   -70641   -78303   -65911 
  -38416   -31372   -49184   -70073   -86021   -70988    -8030    71706 
  127817   144293   128589    91420    55526    42137    35038    22766 
   17967    19961    24788    37413    50496    53998    56299    56182 
   31658    -4659   -13293     1522    11623    13689    15562    21442 
   32387    41969    45214    45517    46633    49183    45319    33411 
   24809    20604    28506    61600   102552   129109   139173   133439 
  114491    89327    67633    54480    33473     4636    -3135     9696 
   36601    82349   126025   163174   212898   266765   303088   303398 
  258191   198992   163833   146025   135748   126518    97825    68907 
   74374   106728   152564   194225   201788   181585   156104   130489 
  101360    56267    18903    21265    30584    23527    18238    17582 
   15109     6799     3294    21801    41329    30806    -7039   -48592 
  -65359   -57239   -41531   -12844    15480    20187     6347   -25026 
  -55276   -59427   -57001   -58052   -52952   -50648   -42987   -12187 
   25458    49523    56701    50830    44650    38417    26665    19297 
   10800    -9407   -21216   -11973     2162    19631    49740    84893 
  119375   142558   142437   143190   166823   192098   197428   187426 
  163384   121882    87954    87498   103776   120379   141343   156907 
  157656   138673   109906   102683   108005   101629    91927    78938 
   60953    48818    45777    50115    52171    40593    21636     7986 
    4691    16765    37436    43540    29055     6450   -17167   -41931 
  -64192   -67770   -52189   -44279   -50738   -57346   -64807   -67879 
  -51745   -25525      559    31816    52413    43084    27512    34012 
   52359    63665    61676    51713    44832    42965    45043    47274 
   48748    62988    86113    95859    90909    83658    80335    83742 
   90037    96689   107866   117060   116096   108010   105340   119897 
  138324   146400   152620   164861   182748   199976   214311   221405 
  207563   178497   146392   113819    93841    90643    94949   104297 
  116677   134824   157989   173749   181062   180368   166057   149056 
  140762   136132   133403   136174   136884   126426   113452   108918 
  108618   104277    93867    83996    81928    88656   101039   112651 
  120912   127644   136248   144349   144621   148721   168228   182519 
  172457   155009   146423   135280   118707   104922   100329   108662 
  112578   103936   104518   120666   128291   116559   105025   101168 
   97653    96935    91209    68443    41569    28039    24214    25879 
   37980    49319    45479    41493    55166    78506    99329   118330 
  138061   150698   154835   159922   160101   146234   125378   106465 
   91090    77528    67412    63536    61863    55537    47967    48495 
   53818    54761    49669    38347    23652    15613    17839    22202 
   25610    32266    39381    47674    67375    88275    96904   106901 
  113472   101976    87081    75445    66713    61758    47324    30940 
   28790    31909    44038    70372    82420    73001    63101    51052 
   35953    32075    38389    38997    33784    44290    64525    64428 
   51332    42033    29059    21432    31352    45694    62249    86974 
   97576    78504    55713    45381    35142    24698    10709   -13785 
  -32934   -40924   -38590   -20799     -203    20926    47396    62442 
   58909    50488    48754    51154    51998    48629    38093    31910 
   33634    27508    19603    20583    24375    31649    39230    36764 
   29073    26524    22219    11295    11289    22436    23956    21585 
   29560    41680    53684    65589    66537    55822    47597    38088 
   22588    18445    32934    53881    67332    68129    63814    60630 
   58407    59698    64835    66062    59569    54013    55639    62225 
   72641    78931    69332    52689    44604    37462    22649    12675 
   16462    22070    17772    14145    23183    43040    67155    79204 
   72339    64490    69108    80672    92796   104747   108851   100642 
   89512    84812    89405    94958    92901    92227    97578   103528 
  112271   121974   128382   131992   132984   135882   139937   136678 
  125629   114487   105760    95768    85402    79757    84313    92646 
