Origin Time       2016/04/15 00:03:00
Lat.              32.700
Long.             130.777
Depth. (km)       7
Mag.              6.4
Station Code      KMMH16
Station Lat.      32.7967
Station Long.     130.8199
Station Height(m) -197
Record Time       2016/04/15 00:03:27
Sampling Freq(Hz) 100Hz
Duration Time(s)  300
Dir.              3
Scale Factor      2940(gal)/6170270
Max. Acc. (gal)   26.011
Last Correction   2016/04/15 00:03:12
Memo.             
[...]
  127463   127488   127540   127483   127486   127643   127610   127461 
  127502   127509   127482   127538   127540   127558   127569   127529 
  127530   127514   127500   127512   127517   127554   127555   127493 
  127486   127536   127556   127549   127543   127520   127514   127536 
  127537   127516   127507   127531   127558   127531   127503   127533 
  127570   127526   127460   127536   127599   127515   127495   127545 
  127546   127538   127554   127550   127485   127494   127580   127552 
  127493   127521   127526   127511   127552   127564   127514   127484 
  127502   127569   127600   127548   127506   127500   127522   127530 
  127496   127523   127571   127547   127505   127498   127555   127587 
  127507   127477   127546   127556   127519   127517   127525   127524 
  127530   127526   127517   127530   127539   127546   127536   127465 
  127453   127574   127648   127581   127481   127456   127520   127599 
  127614   127554   127471   127449   127488   127502   127493   127505 
  127518   127543   127584   127613   127628   127591   127498   127442 
  127472   127530   127549   127519   127485   127496   127542   127582 
  127575   127523   127508   127534   127532   127518   127528   127550 
  127562   127557   127551   127530   127484   127461   127494   127552 
  127588   127591   127568   127517   127477   127485   127509   127525 
  127542   127556   127553   127540   127538   127533   127526   127535 
  127539   127518   127504   127518   127524   127512   127524   127554 
  127558   127548   127543   127539   127532   127520   127513   127522 
  127528   127523   127522   127528   127534   127545   127551   127547 
  127538   127526   127523   127522   127524   127535   127534   127520 
  127511   127512   127520   127522   127528   127541   127539   127533 
  127543   127543   127532   127529   127531   127532   127542   127581 
  127626   127599   127507   127449   127429   127429   127469   127493 
  127529   127591   127586   127584   127551   127481   127549   127563 
  127495   127557   127580   127555   127552   127498   127510   127511 
  127476   127534   127548   127531   127563   127530   127486   127539 
  127586   127525   127496   127548   127513   127468   127533   127558 
  127504   127508   127564   127562   127541   127549   127537   127517 
  127537   127555   127521   127515   127543   127518   127506   127528 
  127512   127501   127518   127527   127531   127555   127571   127523 
  127480   127513   127541   127519   127533   127590   127583   127549 
  127548   127493   127462   127527   127538   127516   127543   127558 
  127555   127525   127502   127543   127540   127503   127535   127557 
  127522   127514   127563   127556   127505   127519   127519   127494 
  127506   127568   127620   127530   127487   127556   127500   127472 
  127547   127539   127530   127545   127544   127590   127568   127456 
  127449   127523   127554   127556   127559   127561   127540   127503 
  127507   127532   127535   127535   127515   127495   127523   127551 
  127559   127557   127547   127544   127524   127500   127515   127554 
  127582   127570   127562   127558   127513   127510   127546   127489 
  127427   127473   127509   127492   127535   127601   127576   127524 
  127539   127557   127571   127596   127564   127516   127499   127474 
  127488   127508   127488   127530   127595   127578   127525   127484 
  127483   127515   127540   127565   127569   127551   127555   127538 
  127521   127553   127559   127530   127528   127533   127521   127511 
  127520   127529   127508   127490   127511   127528   127528   127543 
  127563   127563   127545   127538   127535   127516   127517   127518 
  127524   127556   127551   127532   127538   127544   127557   127544 
  127518   127521   127525   127523   127503   127480   127516   127562 
  127558   127552   127557   127543   127539   127556   127559   127544 
  127519   127493   127494   127513   127510   127505   127521   127527 
  127543   127568   127543   127508   127514   127529   127537   127541 
  127555   127575   127549   127513   127529   127540   127527   127520 
  127522   127537   127533   127512   127519   127527   127519   127522 
  127526   127527   127532   127527   127528   127533   127532   127544 
  127542   127530   127542   127530   127506   127527   127541   127529 
  127533   127549   127539   127526   127559   127574   127533   127520 
  127546   127538   127507   127501   127514   127519   127528   127547 
  127544   127521   127522   127547   127540   127518   127535   127550 
  127526   127499   127513   127535   127529   127528   127550   127551 
  127526   127524   127542   127535   127520   127524   127533   127537 
  127537   127529   127527   127527   127531   127544   127533   127509 
  127524   127545   127528   127514   127533   127545   127526   127525 
  127539   127517   127498   127527   127552   127545   127528   127528 
  127543   127533   127524   127542   127543   127519   127505   127511 
  127525   127532   127534   127528   127516   127518   127533   127546 
  127549   127543   127546   127548   127525   127523   127542   127525 
  127518   127537   127522   127512   127525   127527   127523   127520 
  127526   127532   127526   127532   127534   127524   127529   127531 
  127532   127546   127545   127537   127531   127514   127517   127539 
  127546   127540   127541   127544   127525   127504   127519   127539 
  127533   127527   127524   127523   127532   127522   127511   127527 
  127541   127542   127542   127543   127539   127530   127534   127532 
  127524   127536   127541   127531   127533   127528   127513   127519 
  127534   127534   127526   127528   127538   127534   127526   127530 
  127534   127532   127528   127527   127524   127522   127535   127542 
  127527   127519   127525   127530   127529   127527   127531   127533 
  127526   127522   127529   127539   127541   127535   127527   127523 
  127524   127531   127535   127526   127522   127539   127537   127517 
  127530   127547   127536   127523   127523   127535   127538   127524 
  127517   127527   127527   127523   127543   127550   127526   127527 
  127541   127531   127522   127530   127537   127524   127510   127516 
  127532   127532   127517   127520   127532   127524   127520   127530 
  127536   127525   127512   127517   127533   127532   127525   127530 
  127528   127520   127534   127538   127526   127532   127536   127528 
  127525   127528   127538   127539   127523   127518   127523   127520 
  127519   127523   127527   127527   127527   127531   127532   127528 
  127522   127527   127542   127540   127534   127538   127534   127531 
  127530   127528   127532   127533   127532   127532   127526   127523 
  127524   127518   127517   127523   127526   127527   127535   127544 
  127533   127519   127531   127540   127532   127531   127529   127522 
  127519   127524   127535   127531   127520   127520   127521   127526 
  127539   127539   127517   127482   127446   127457   127546   127644 
  127669   127631   127550   127455   127434   127499   127536   127498 
  127501   127576   127590   127517   127485   127557   127531   127354 
  127437   127694   127647   127490   127513   127571   127492   127408 
  127584   127705   127513   127484   127557   127361   127354   127725 
  127865   127530   127232   127381   127610   127514   127458   127720 
  127678   127331   127488   127746   127554   127378   127376   127457 
  127565   127622   127685   127568   127404   127501   127533   127449 
  127502   127598   127629   127535   127475   127520   127460   127488 
  127647   127565   127381   127423   127605   127680   127571   127471 
  127518   127543   127487   127518   127595   127549   127440   127448 
  127592   127640   127470   127381   127552   127630   127501   127500 
  127605   127621   127529   127412   127496   127608   127497   127468 
  127590   127570   127476   127511   127571   127535   127541   127581 
  127490   127421   127515   127573   127537   127562   127584   127502 
  127444   127514   127614   127579   127484   127496   127527   127541 
  127586   127596   127533   127458   127469   127531   127504   127447 
  127505   127613   127588   127500   127564   127616   127466   127428 
  127584   127565   127458   127558   127651   127482   127339   127547 
  127731   127545   127457   127605   127536   127404   127530   127599 
  127459   127516   127710   127595   127392   127428   127543   127528 
  127452   127518   127568   127480   127462   127475   127479   127560 
  127648   127679   127628   127526   127469   127470   127487   127518 
  127525   127485   127476   127540   127610   127593   127530   127515 
  127515   127482   127437   127466   127540   127537   127555   127621 
  127598   127550   127551   127575   127565   127488   127450   127466 
  127462   127495   127564   127553   127492   127521   127561   127509 
  127509   127564   127553   127510   127461   127469   127541   127580 
  127595   127572   127552   127605   127592   127521   127511   127495 
  127477   127513   127519   127480   127474   127491   127513   127546 
  127591   127620   127562   127496   127486   127491   127551   127576 
  127528   127521   127480   127477   127570   127527   127424   127546 
  127789   127762   127398   127169   127392   127745   127712   127427 
  127479   127722   127583   127284   127357   127594   127565   127418 
  127504   127691   127686   127599   127397   127217   127567   127901 
  127623   127331   127462   127753   127682   127307   127274   127603 
  127706   127353   127201   127594   127813   127629   127470   127459 
  127561   127709   127656   127262   127127   127604   127848   127603 
  127495   127569   127519   127379   127465   127720   127792   127554 
  127202   127300   127722   127769   127519   127236   127141   127507 
  127824   127766   127829   127889   127399   126975   127392   127884 
  127879   127883   127830   127695   127779   127809   127564   127175 
  127373   128228   128168   127470   127751   128056   127451   127238 
  127955   128412   128238   128441   128755   128241   127886   128380 
  128509   127870   127595   128280   129031   129078   129424   130446 
  130489   129321   128119   127540   127964   127868   126108   124641 
  124331   124602   125647   126858   127303   127057   127214   128902 
  131608   133389   132041   127981   125821   128195   131620   132461 
  131290   130857   132962   135747   134936   128698   121041   118368 
  120414   121499   118769   111708   104078   105567   118120   130610 
  135447   136283   137923   140269   139174   132152   122610   114379 
  112446   121298   134413   141170   137566   128884   125320   125830 
  124985   124127   120339   114934   115778   122077   128814   130114 
  125017   120921   118820   117290   119731   124501   128504   133610 
  139799   143167   142841   141968   141154   137899   133877   133632 
  134557   132409   129408   126090   122736   122808   123210   119521 
  116977   120251   124694   126426   128330   132085   134961   134247 
  129019   122076   118759   120661   126459   134253   140203   141260 
  137032   130791   127245   125824   123643   121668   121935   123335 
  123622   122270   118076   109935   101252    98138   102240   109572 
  117359   124172   128439   131677   135484   139083   139844   134737 
  125985   119615   118084   118357   116910   115037   114213   113035 
  113574   119228   127360   132839   134658   135370   136118   135099 
  131591   126178   119440   115355   118627   128072   140392   153673 
  161318   158725   152856   148243   141831   135409   133245   134291 
  135830   140113   148949   156698   157815   151546   143042   140010 
  139956   138336   140367   146982   150615   149737   151350   157281 
  159897   157459   155760   155606   156477   157964   156887   154752 
  154324   153272   147893   137690   129569   127333   124892   123751 
  131601   142428   144093   137322   129653   120398   109321   105192 
  108136   109750   111756   116518   116052   106641    96624    92080 
   90292    91964    99735   107431   108276   104421   100155    95170 
   89677    88190    92960   100092   103994   102871    99219    95369 
   93944    98032   106014   114853   123654   129717   131222   131841 
  133579   131128   124579   123780   130455   137041   138130   131742 
  125591   127511   129416   127600   129095   131533   130190   126924 
  124068   121635   116522   110823   109849   111343   113264   116245 
  120938   130735   144373   154025   156242   155314   151396   143169 
  139692   142424   142013   140583   144441   151130   154419   148711 
  134326   118679   108249   104806   107590   111426   110043   108192 
  113166   118185   117304   118480   128474   142173   151761   158110 
  162324   159412   148520   133104   119453   113877   111444   106185 
  103721   105457   104349   101013   100956   106397   115300   118809 
  114923   112422   113678   117758   124275   130361   136760   143232 
  150501   160704   164434   157284   149220   142378   133108   124184 
  118954   114653   107857   103472   104204   103154    98583    97226 
  101578   107151   111755   116355   121470   128283   132713   131675 
  131533   132078   127821   123024   121093   116615   109054   106542 
  109343   111081   114736   123488   131945   137410   142628   148923 
  153865   155683   155134   151940   147166   145117   148467   155985 
  164669   171753   175979   179180   182163   181585   176093   169346 
  166239   167442   170248   172416   169453   158495   145356   138779 
  139895   141948   141404   141040   140609   135666   127114   119591 
  111022   101204    97856    98917    95356    89783    88718    91286 
   92380    88708    83483    82212    86889    96161   106780   116766 
  124932   131380   138911   142321   134045   123480   121868   125459 
  127928   130513   136685   141534   141592   142338   142156   138572 
  137847   140530   141590   140471   139827   140579   140614   140432 
  143537   148890   152440   153679   154661   154440   148634   137560 
  128505   126258   127637   126621   122435   119340   118114   116224 
  114707   115058   116148   118469   121366   121622   120222   117076 
  109333   102493   101142   100796   100611   102464   104541   104576 
  101826   100356   102275   101723   100835   108120   119004   125328 
  128749   130054   125581   118542   115442   114368   111344   108251 
  108566   112537   117700   123434   129172   132533   134354   134411 
  130649   127882   129038   129140   127415   127862   131577   136143 
  139270   140045   138091   135927   133571   129154   127273   127891 
  124772   119677   116994   114369   109177   105684   107095   110934 
  117388   125525   130626   133918   139509   144703   143180   136592 
  133943   137482   141446   143069   142547   140094   140112   142894 
  141256   137836   139887   142855   141902   140114   139374   138407 
  135715   131156   127046   124817   122213   117020   112354   112604 
  115408   117240   120061   124144   126723   128618   129864   127911 
  125345   125434   126314   126309   125264   124092   123281   121568 
  121060   123260   125501   128062   130259   129374   127201   125072 
  124001   124781   123670   122243   127010   135770   138845   134593 
  135289   144152   148384   145428   142372   139630   136192   134201 
  136294   141112   141907   139583   142520   149034   151883   148360 
  139662   131315   125567   122653   125010   127064   123955   121517 
  122324   122337   118997   115338   116539   118723   116716   116116 
  118426   117136   111514   106990   108339   110696   107872   107839 
  114769   119222   118054   116966   118973   121308   120239   117095 
  114884   114971   118081   121807   125071   130859   136467   135908 
  131521   128364   126051   124466   126119   130372   131755   127810 
  125988   130926   134621   132753   132030   136415   141647   143204 
  142291   141461   139260   134302   131013   133636   138329   142107 
  147436   152984   156182   157002   155124   152598   152316   153360 
  152485   149368   146803   144539   139603   132360   128358   130639 
  132005   127129   124303   128777   132375   132128   133568   135494 
  134450   133158   134586   136257   135528   135691   137115   135914 
  134480   135077   133252   128003   125430   126185   124531   122622 
  123948   125105   126912   130554   132317   133089   135167   136714 
  135751   131656   127282   126461   128114   130386   133421   135662 
  134272   129727   126906   126578   123568   118048   115632   116176 
  115280   114859   116465   114711   110592   108466   106140   103586 
  102293   101779   102520   103458   104780   107568   110220   112378 
  113814   114590   116505   117923   116780   115250   114900   114030 
  112376   112784   113987   112551   112221   115875   119090   121477 
  127239   133731   134236   130199   128651   129214   127910   127492 
  129692   130605   130336   131993   133455   131388   128061   126430 
  125430   125353   127362   130372   134607   138059   136858   134221 
  135143   136378   134302   133576   135167   133956   131763   131362 
  131228   131368   130336   127305   126205   127296   125296   121381 
  122853   127579   126934   123194   122657   121808   118422   117151 
  118046   117761   117688   120064   122296   122718   123551   125180 
  127651   131070   132220   129674   127240   127627   126679   122552 
  121592   124638   126579   127250   128605   130756   131773   131036 
  131384   133276   134915   136316   137870   139739   141626   141905 
  141171   140761   137594   132528   129893   126400   120981   119299 
  121493   122319   119380   116646   118242   121504   123590   125392 
  126528   126957   127328   126700   126434   127041   126417   126819 
  129516   130635   129420   128560   128901   128785   128060   129271 
  131344   131880   132589   133513   133481   133414   133083   132935 
  132590   129921   128209   129538   129594   129219   131064   132310 
  132862   134698   137228   138468   135959   132460   132069   132103 
  130965   129938   128044   125651   123839   123075   123872   124660 
  124503   124077   123872   124702   125573   124313   121660   120142 
  120731   122072   122234   121915   122596   123627   123907   121908 
  119153   120142   123031   122811   121469   123770   127358   127298 
  125604   125681   127088   128578   129577   130333   129731   127334 
  124864   122800   121988   122225   122490   124842   128246   129493 
  130202   131455   132138   133085   134647   135829   136954   138030 
  137550   136926   139311   142153   141183   138831   137954   136027 
  132144   129511   130411   133061   134605   136104   138624   139717 
  138560   136705   134205   131643   131062   131627   131779   131812 
  131750   131500   129700   127107   127995   131822   134652   135493 
  135589   135935   135572   134583   134023   132014   127006   120784 
  116223   114777   115827   118198   119945   119128   117851   119505 
  122437   122893   121834   123072   125773   126748   126985   126709 
  124167   122014   123071   125496   126904   127264   127903   128982 
  129858   130837   130468   127271   124550   125324   127593   128260 
