Origin Time       2016/04/14 21:26:00
Lat.              32.742
Long.             130.808
Depth. (km)       11
Mag.              6.5
Station Code      KMMH16
Station Lat.      32.7967
Station Long.     130.8199
Station Height(m) 55
Record Time       2016/04/14 21:26:36
Sampling Freq(Hz) 100Hz
Duration Time(s)  300
Dir.              6
Scale Factor      3920(gal)/6170801
Max. Acc. (gal)   1399.383
Last Correction   2016/04/14 21:26:21
Memo.             
[...]
   16638    16643    16639    16628    16621    16621    16619    16613 
   16613    16621    16624    16620    16622    16623    16624    16630 
   16631    16630    16633    16629    16624    16627    16629    16627 
   16631    16639    16643    16640    16631    16623    16623    16623 
   16616    16605    16601    16607    16614    16622    16632    16642 
   16644    16639    16630    16622    16622    16632    16641    16643 
   16643    16637    16623    16610    16608    16616    16625    16630 
   16635    16635    16624    16615    16613    16610    16615    16629 
   16635    16638    16649    16647    16632    16624    16622    16624 
   16630    16629    16626    16630    16629    16618    16616    16620 
   16613    16611    16625    16634    16633    16631    16626    16617 
   16615    16618    16625    16635    16641    16642    16636    16633 
   16632    16627    16630    16635    16631    16628    16626    16619 
   16614    16607    16593    16591    16607    16625    16647    16664 
   16667    16660    16647    16634    16621    16605    16600    16608 
   16617    16627    16637    16643    16643    16631    16620    16614 
   16606    16608    16619    16626    16629    16633    16631    16623 
   16618    16625    16640    16643    16637    16637    16639    16629 
   16615    16610    16616    16620    16618    16617    16617    16619 
   16618    16620    16631    16638    16634    16631    16631    16630 
   16620    16608    16610    16618    16620    16628    16641    16644 
   16640    16636    16633    16627    16621    16621    16621    16614 
   16610    16615    16618    16615    16612    16620    16639    16652 
   16653    16651    16643    16625    16609    16607    16611    16613 
   16624    16640    16648    16647    16635    16621    16615    16609 
   16605    16617    16628    16632    16635    16628    16621    16626 
   16626    16624    16636    16642    16636    16626    16619    16625 
   16633    16637    16643    16639    16626    16612    16600    16606 
   16627    16637    16634    16621    16610    16611    16606    16607 
   16628    16647    16656    16667    16663    16635    16602    16590 
   16607    16626    16627    16633    16643    16629    16600    16591 
   16606    16626    16633    16638    16646    16644    16638    16637 
   16628    16629    16645    16649    16637    16618    16597    16580 
   16572    16582    16612    16641    16663    16668    16655    16643 
   16632    16618    16621    16642    16650    16634    16618    16603 
   16588    16598    16623    16632    16637    16639    16631    16622 
   16613    16606    16609    16619    16628    16637    16644    16641 
   16636    16635    16632    16628    16633    16642    16637    16629 
   16629    16622    16611    16619    16639    16646    16640    16628 
   16604    16574    16563    16574    16594    16626    16656    16668 
   16670    16663    16651    16651    16660    16663    16660    16655 
   16640    16610    16576    16555    16553    16568    16588    16606 
   16623    16639    16650    16656    16653    16649    16657    16662 
   16650    16636    16629    16619    16609    16601    16606    16626 
   16642    16644    16632    16612    16597    16593    16606    16626 
   16635    16642    16651    16650    16640    16626    16607    16590 
   16584    16593    16618    16642    16646    16642    16645    16657 
   16670    16673    16659    16639    16622    16614    16606    16598 
   16594    16594    16591    16592    16603    16615    16619    16621 
   16627    16640    16659    16674    16675    16672    16667    16655 
   16644    16635    16621    16599    16577    16562    16559    16580 
   16611    16637    16653    16654    16647    16647    16653    16659 
   16662    16657    16639    16617    16602    16594    16592    16594 
   16601    16625    16647    16637    16623    16629    16637    16652 
   16674    16682    16673    16651    16620    16590    16568    16557 
   16568    16596    16619    16628    16635    16646    16655    16659 
   16660    16667    16670    16661    16645    16629    16607    16583 
   16581    16595    16606    16611    16614    16619    16625    16626 
   16632    16647    16646    16628    16619    16626    16638    16646 
   16650    16648    16637    16616    16606    16616    16628    16627 
   16624    16623    16616    16605    16610    16630    16642    16646 
   16657    16664    16652    16624    16596    16583    16585    16589 
   16596    16615    16631    16628    16631    16645    16654    16663 
   16669    16664    16654    16641    16621    16604    16593    16586 
   16591    16615    16634    16629    16620    16628    16637    16634 
   16629    16637    16649    16647    16635    16625    16614    16600 
   16589    16591    16614    16634    16639    16645    16648    16638 
   16629    16635    16645    16646    16640    16638    16629    16600 
   16578    16583    16595    16608    16624    16638    16646    16645 
   16634    16629    16635    16644    16642    16636    16632    16624 
   16614    16614    16621    16618    16607    16603    16601    16599 
   16604    16618    16637    16652    16656    16648    16633    16622 
   16616    16614    16621    16625    16615    16607    16609    16612 
   16619    16627    16642    16655    16643    16625    16624    16624 
   16622    16623    16621    16617    16619    16630    16638    16628 
   16607    16593    16593    16607    16621    16625    16626    16631 
   16632    16631    16645    16663    16658    16645    16641    16633 
   16617    16606    16603    16606    16615    16612    16603    16606 
   16607    16604    16612    16622    16628    16634    16636    16635 
   16630    16627    16636    16645    16646    16639    16633    16625 
   16607    16601    16608    16608    16608    16613    16620    16630 
   16633    16633    16636    16633    16625    16621    16619    16618 
   16618    16617    16622    16624    16625    16631    16634    16635 
   16637    16637    16634    16629    16627    16621    16610    16608 
   16614    16620    16621    16615    16604    16608    16630    16645 
   16643    16642    16637    16625    16617    16623    16635    16635 
   16622    16617    16625    16628    16627    16630    16635    16633 
   16616    16602    16608    16621    16629    16625    16620    16628 
   16636    16631    16632    16641    16639    16624    16616    16622 
   16622    16614    16623    16642    16644    16629    16613    16607 
   16613    16623    16633    16642    16645    16633    16608    16591 
   16592    16603    16621    16642    16656    16654    16642    16629 
   16620    16615    16614    16616    16618    16626    16632    16624 
   16621    16635    16643    16635    16625    16629    16645    16646 
   16624    16611    16611    16605    16601    16612    16635    16648 
   16642    16637    16639    16627    16614    16617    16627    16632 
   16636    16639    16636    16624    16614    16612    16616    16620 
   16615    16608    16616    16629    16632    16633    16634    16636 
   16640    16638    16635    16630    16621    16616    16613    16612 
   16617    16617    16607    16599    16607    16627    16643    16645 
   16642    16639    16634    16623    16615    16621    16632    16630 
   16628    16636    16632    16615    16609    16617    16622    16627 
   16636    16634    16622    16615    16613    16612    16617    16625 
   16638    16658    16661    16646    16634    16624    16608    16601 
   16608    16615    16618    16629    16641    16641    16633    16628 
   16627    16628    16628    16630    16635    16629    16612    16612 
   16624    16626    16620    16618    16620    16620    16622    16628 
   16629    16626    16627    16627    16630    16636    16637    16637 
   16639    16630    16622    16627    16628    16619    16613    16613 
   16620    16627    16625    16622    16626    16629    16629    16631 
   16631    16629    16633    16636    16629    16623    16623    16629 
   16636    16636    16632    16627    16618    16612    16613    16611 
   16607    16615    16627    16637    16647    16649    16642    16631 
   16615    16607    16609    16615    16623    16627    16627    16627 
   16626    16628    16633    16634    16632    16631    16628    16627 
   16625    16618    16610    16609    16617    16626    16629    16629 
   16623    16617    16617    16620    16626    16633    16633    16631 
   16629    16623    16619    16621    16622    16624    16631    16641 
   16642    16628    16614    16613    16617    16622    16630    16635 
   16630    16622    16619    16619    16612    16608    16618    16630 
   16634    16634    16634    16635    16632    16627    16630    16637 
   16639    16636    16631    16623    16613    16605    16617    16630 
   16628    16628    16628    16617    16618    16631    16634    16627 
   16618    16618    16625    16629    16628    16630    16629    16625 
   16629    16637    16640    16637    16633    16625    16617    16616 
   16617    16616    16610    16602    16605    16620    16631    16642 
   16647    16639    16632    16631    16630    16629    16629    16627 
   16627    16632    16637    16639    16632    16615    16604    16605 
   16610    16619    16628    16630    16629    16628    16630    16636 
   16641    16642    16635    16623    16613    16614    16621    16624 
   16621    16620    16619    16622    16632    16639    16639    16636 
   16628    16621    16620    16616    16612    16615    16620    16629 
   16638    16635    16628    16629    16631    16624    16617    16621 
   16624    16620    16623    16630    16635    16643    16646    16632 
   16614    16607    16610    16616    16627    16635    16635    16632 
   16629    16626    16628    16629    16625    16625    16625    16624 
   16630    16630    16621    16618    16619    16613    16607    16611 
   16626    16640    16642    16640    16638    16627    16618    16619 
   16621    16622    16618    16614    16618    16624    16623    16620 
   16625    16630    16627    16630    16638    16642    16639    16631 
   16620    16609    16605    16609    16614    16619    16629    16638 
   16626    16569    16391    15955    15178    14408    14592    15919 
   16292    13788    11269    14468    21740    22283    13252     4232 
    1403    11505    39046    63674    61852    34013    -2204   -13056 
   11831    29570    13583   -13622   -25161    -8245    19386    28075 
   23603    17524     7419     2982    14566    36500    47511    37543 
   28385    29780    24334     5163   -15944   -13973    16164    36571 
   27373     2173   -30845   -48351   -29108     6672    37991    57762 
   50496    16830   -13237   -14419     9825    36618    38148     4495 
  -28218   -13886    33076    64217    70254    62220    40866    13866 
   -3108    21986    77831    77503    31853    30357    15235  -104303 
 -257533  -330640  -282683  -124734    65084   192380   261349   284410 
  239490   241080   368664   427205   269074    27672  -136564  -229723 
 -317732  -340569  -209041      406   141589    97037  -123502  -288276 
 -257417  -135356    18676   174623   219211   113732   -66145  -147298 
   71922   510687   799082   772759   611375   425304   142339  -213848 
 -471361  -550015  -581981  -627279  -536682  -326723  -202439  -158429 
   -2112   308126   577866   632636   499829   299067   138558    97057 
  151105   162143    81348    11017   -84039  -327013  -585748  -659397 
 -554002  -295584    90342   407792   474000   317188    94764   -11886 
   74567   264291   433994   495762   361737    10949  -407360  -668244 
 -748739  -803104  -814660  -597863   -77043   552872   839398   577419 
  189594    50957    21670    62601   276490   376206   143831  -136993 
 -173255    11705   122379  -116176  -470942  -476546  -195646   -24989 
  -54977  -100444    16542   231578   282067   190953   199051   247192 
  207056   248792   452128   573217   438660   114723  -273277  -589413 
 -725600  -679294  -490744  -245952   -98595   -77189   -45158    48335 
  100682    61374     2045   -32454   -32896    34036   119112   133607 
  119405   135297   129041   130096   279526   509037   537941   248017 
 -162671  -380100  -326983  -222453  -205169  -178300   -91184   -49160 
  -49589    45645   165301    92947  -101220  -117795   134055   442635 
  584565   533872   373371   146687   -59361   -95891   -16020   -12379 
  -51586    20205   157191   201647   119632     1802   -79152  -133896 
 -164342  -106921    17026    89353   138689   261108   321450   169175 
  -31800  -107769  -159660  -266082  -337475  -312760  -205945   -89079 
  -37215    20365   175562   285022   167548   -48948   -88181   142747 
  520389   806754   817160   609479   393492   219770     7413  -206503 
 -381268  -542772  -632158  -595848  -466191  -328943  -251848  -168209 
  -18222   164947   345580   426941   368330   283684   225310   204097 
  273533   355454   325824   223142   112282   -14176  -149915  -306146 
 -481726  -607702  -660466  -647779  -553883  -369037   -73564   245863 
  398110   371899   312532   251284   160541    63018   -59476  -199629 
 -253369  -211226  -218580  -331715  -406880  -340904  -221260  -124965 
     454   196079   414274   597157   760323   944061  1068391   994990 
  752468   453845    96466  -288839  -572755  -753955  -929692 -1122078 
-1295840 -1423190 -1513963 -1547072 -1446674 -1159735  -599940   318954 
 1437479  2219520  2186704  1754428  1707612  1758480  1357792   888866 
  526757    46601  -366021  -659559  -951006 -1151203 -1228959 -1204358 
-1094270  -903691  -574312  -133174   273725   555651   779364   994110 
 1090436  1001580   782424   455412    87010  -159768  -268244  -355622 
 -424113  -402237  -289934  -168847  -118775  -127160  -131247   -99564 
  -57443   -30445    11816    83512   151847   180168   146505    70905 
  -11627   -70116   -53336    22397    68359    72136    70522    57718 
   19582   -39809   -96227  -122345  -106378   -37779    69923   157658 
  174132   127635    64644    22889    16766    25649    17965    32992 
  118708   195453   148644   -36863  -289088  -491488  -566792  -502073 
 -316840   -97744   111367   374261   641674   775535   747848   583000 
  352084   146696   -34591  -182295  -274774  -357728  -434457  -470330 
 -465681  -438392  -415706  -402623  -371728  -290020  -145298    20195 
  153713   233150   230829   156423    97160   112191   163994   197130 
  199769   170397   118942    79597    51938     5071   -48305   -68851 
  -44400    33946   185239   384244   513303   462904   297822   127471 
  -46127  -203989  -336074  -501099  -688084  -799105  -768650  -631150 
 -437389  -169169   154221   421947   566101   628170   667427   674546 
  615850   505702   368879   222160    74137   -68362  -164850  -240474 
 -350689  -423535  -393493  -307263  -187584    -7242   197832   336966 
  377762   354531   312268   282538   261629   244639   248370   250553 
  212766   142537    51580   -53096  -145010  -223189  -294447  -337779 
 -369630  -413500  -419464  -350739  -244811  -133120      474   163375 
  297255   337290   295424   218108   154137   158993   225730   287882 
  302580   246147    98860   -94216  -225002  -250113  -216271  -152064 
  -77653   -29734     7491    57832    93993   107830   105270    57630 
  -33875  -114458  -155293  -184325  -222473  -241356  -205754  -103583 
   63840   269817   440893   488088   392888   227301    80557   -15948 
 -105451  -203537  -247102  -218040  -153046   -52012    60006   100353 
   53715     9821    37133   110986   174942   190028   142965    57336 
  -27519   -86258  -120443  -149610  -166567  -144815  -100497   -78062 
  -85748   -89051   -54033     9724    62878    98782   138903   177495 
  190234   160577    83642       55   -21249    21428    62365    66624 
   58363    55884    25679   -49008  -102896   -92023   -64844   -51463 
  -23431    22415    48332    38471    43114   112405   208027   264925 
  266632   220229   147734    76462     2025   -91269  -189573  -259495 
 -277781  -250548  -199987  -128723   -41789    27083    72201   131121 
  213323   277023   291483   286350   297071   296007   237760   136343 
   47188   -17780  -100377  -200051  -255772  -244026  -207655  -194269 
 -195633  -160939   -91937   -43648   -31340   -32571   -30350   -18440 
   -5240     -990     -185     1420   -11228   -32343   -25077     6284 
   26938    46976    91294   138774   156314   147170   123502    94200 
   90069   123797   170311   216216   254400   265248   236708   162098 
   44289   -88540  -206906  -299519  -353901  -350944  -284181  -179146 
  -83498   -13139    50842   110903   155451   167587   136265    81512 
    3034  -112431  -209844  -232770  -198589  -133250   -36931    79900 
  176954   216622   214946   214007   220453   204789   152311    92610 
   27873   -74636  -179323  -227918  -227192  -191823  -114523   -11600 
   79218   145811   204488   254078   268802   229648   135809    15511 
  -76416  -113827  -117113  -101873   -74753   -48683   -16876    30914 
   83613   139373   193916   223589   238908   252896   216323   106272 
  -15238   -89699  -114247  -109125   -98947  -110237  -142220  -168974 
 -181327  -181910  -171146  -152874  -120327   -74846   -42984   -27213 
    1141    48200    99603   146232   178994   196267   195338   164652 
  119265    91122    85307    86594    84930    78445    65512    38058 
  -16929   -93640  -163164  -200950  -186923  -117751   -39826    -1378 
   24493    88658   177346   267019   360055   409097   349140   182681 
  -31467  -213263  -312544  -341739  -332213  -299139  -238237  -132770 
     855   108508   173714   228129   287902   340180   358738   317187 
  215396    89548   -11508   -77996  -138129  -189134  -208148  -203837 
 -184672  -150092  -118845   -96012   -60808    -1796    77158   156199 
  203736   204512   169374   116359    51717   -16074   -52389   -36564 
  -10824   -24605   -70711  -121909  -161935  -180797  -186563  -177296 
 -123793   -26285    77716   162614   213200   209563   159334   111350 
   93108    81962    66389    50532    16008   -35548   -64268   -53809 
  -29485   -18986   -16417     4618    27410    11520   -31600   -70792 
  -95852  -101096   -87514   -51743    15162    96249   155764   184781 
  196222   188777   161418   114208    49786    -4801   -41839   -83174 
 -121244  -126819   -93404   -33211    28678    49776     9110   -61504 
 -123401  -172404  -205084  -197830  -132232    -7057   144924   269974 
  355168   405564   397762   328434   224047   100777   -24813  -130211 
 -198664  -217140  -189828  -132817   -44241    78960   215650   330172 
  383610   354082   245011    69498  -140986  -336246  -475169  -524805 
 -465765  -334456  -203644   -90854    49687   229827   391298   466051 
  442187   372902   303837   226650   129017    22938   -77479  -165082 
 -230847  -253878  -235170  -211598  -193171  -161914  -124564   -89222 
  -33965    52114   141798   212879   267314   298603   295181   263994 
  209509   125620    35224   -14234   -17203   -28252   -77363  -123507 
 -145118  -170174  -194600  -186248  -139332   -81191   -44710   -16667 
   37302   106483   164678   204677   228059   238999   217954   139031 
   27889   -70981  -146629  -195887  -210248  -184291  -118031   -40384 
