Origin Time       2016/04/14 21:26:00
Lat.              32.742
Long.             130.808
Depth. (km)       11
Mag.              6.5
Station Code      KMMH14
Station Lat.      32.6345
Station Long.     130.7521
Station Height(m) -40
Record Time       2016/04/14 21:26:37
Sampling Freq(Hz) 100Hz
Duration Time(s)  300
Dir.              3
Scale Factor      2940(gal)/6170270
Max. Acc. (gal)   49.971
Last Correction   2016/04/14 21:26:22
Memo.             
[...]
   -6734    -6733    -6734    -6734    -6734    -6734    -6734    -6734 
   -6734    -6734    -6734    -6734    -6735    -6737    -6737    -6735 
   -6733    -6733    -6734    -6736    -6735    -6735    -6734    -6734 
   -6736    -6737    -6735    -6733    -6734    -6735    -6734    -6734 
   -6736    -6737    -6737    -6737    -6736    -6735    -6735    -6736 
   -6735    -6734    -6734    -6733    -6733    -6736    -6736    -6735 
   -6734    -6734    -6734    -6734    -6733    -6734    -6735    -6737 
   -6736    -6733    -6733    -6732    -6733    -6734    -6733    -6733 
   -6736    -6736    -6736    -6735    -6734    -6736    -6738    -6734 
   -6732    -6735    -6735    -6733    -6733    -6734    -6735    -6735 
   -6736    -6737    -6735    -6734    -6735    -6735    -6734    -6736 
   -6736    -6736    -6735    -6734    -6734    -6734    -6734    -6735 
   -6735    -6734    -6735    -6735    -6736    -6737    -6736    -6735 
   -6734    -6735    -6736    -6736    -6734    -6733    -6734    -6732 
   -6733    -6735    -6734    -6733    -6733    -6732    -6734    -6737 
   -6735    -6734    -6736    -6735    -6733    -6735    -6738    -6736 
   -6732    -6733    -6734    -6735    -6736    -6736    -6734    -6734 
   -6735    -6735    -6734    -6733    -6735    -6735    -6733    -6734 
   -6734    -6732    -6731    -6733    -6735    -6734    -6733    -6735 
   -6736    -6733    -6732    -6734    -6734    -6732    -6733    -6735 
   -6735    -6734    -6733    -6734    -6735    -6734    -6735    -6735 
   -6733    -6733    -6734    -6734    -6735    -6735    -6736    -6735 
   -6735    -6735    -6734    -6732    -6732    -6733    -6733    -6733 
   -6734    -6735    -6734    -6734    -6734    -6732    -6732    -6732 
   -6732    -6733    -6734    -6732    -6732    -6736    -6737    -6733 
   -6734    -6735    -6735    -6734    -6734    -6734    -6734    -6733 
   -6734    -6735    -6734    -6734    -6734    -6734    -6735    -6733 
   -6731    -6733    -6735    -6735    -6734    -6734    -6734    -6735 
   -6735    -6734    -6734    -6734    -6734    -6734    -6733    -6733 
   -6735    -6736    -6734    -6732    -6732    -6731    -6731    -6733 
   -6734    -6733    -6733    -6733    -6732    -6734    -6734    -6734 
   -6735    -6736    -6734    -6734    -6736    -6735    -6735    -6734 
   -6732    -6734    -6735    -6735    -6735    -6735    -6735    -6736 
   -6736    -6734    -6735    -6737    -6736    -6734    -6734    -6734 
   -6735    -6734    -6734    -6735    -6736    -6736    -6736    -6736 
   -6735    -6736    -6735    -6735    -6737    -6734    -6733    -6736 
   -6734    -6732    -6733    -6734    -6735    -6735    -6735    -6735 
   -6734    -6735    -6735    -6733    -6735    -6737    -6736    -6735 
   -6734    -6734    -6735    -6735    -6736    -6736    -6736    -6737 
   -6737    -6734    -6733    -6735    -6736    -6736    -6737    -6736 
   -6736    -6734    -6734    -6734    -6735    -6735    -6734    -6733 
   -6733    -6732    -6733    -6737    -6736    -6733    -6733    -6733 
   -6735    -6736    -6735    -6735    -6734    -6734    -6734    -6734 
   -6734    -6735    -6735    -6735    -6736    -6736    -6734    -6734 
   -6734    -6734    -6735    -6735    -6733    -6734    -6736    -6735 
   -6734    -6735    -6735    -6735    -6734    -6734    -6735    -6736 
   -6736    -6736    -6736    -6735    -6735    -6736    -6735    -6735 
   -6734    -6734    -6736    -6737    -6736    -6735    -6736    -6736 
   -6735    -6735    -6736    -6734    -6734    -6735    -6737    -6738 
   -6736    -6735    -6737    -6738    -6736    -6735    -6735    -6734 
   -6734    -6736    -6736    -6736    -6735    -6736    -6736    -6735 
   -6734    -6736    -6736    -6734    -6735    -6737    -6736    -6734 
   -6735    -6735    -6734    -6735    -6736    -6738    -6738    -6737 
   -6737    -6738    -6737    -6735    -6735    -6736    -6735    -6734 
   -6736    -6736    -6735    -6734    -6735    -6735    -6735    -6736 
   -6735    -6735    -6736    -6736    -6737    -6736    -6735    -6736 
   -6736    -6735    -6733    -6734    -6736    -6736    -6736    -6736 
   -6735    -6735    -6736    -6735    -6735    -6736    -6736    -6735 
   -6736    -6737    -6736    -6736    -6737    -6736    -6735    -6737 
   -6735    -6733    -6734    -6735    -6736    -6735    -6735    -6737 
   -6737    -6736    -6736    -6735    -6736    -6736    -6735    -6735 
   -6736    -6736    -6734    -6733    -6733    -6735    -6735    -6735 
   -6734    -6734    -6736    -6735    -6733    -6735    -6736    -6736 
   -6736    -6735    -6733    -6734    -6737    -6736    -6735    -6736 
   -6736    -6736    -6737    -6736    -6733    -6733    -6735    -6735 
   -6737    -6738    -6738    -6738    -6736    -6736    -6738    -6736 
   -6735    -6736    -6737    -6737    -6736    -6735    -6737    -6738 
   -6737    -6736    -6736    -6736    -6736    -6736    -6735    -6735 
   -6737    -6737    -6736    -6738    -6737    -6734    -6735    -6736 
   -6735    -6736    -6737    -6735    -6734    -6734    -6735    -6737 
   -6735    -6735    -6737    -6736    -6734    -6735    -6737    -6737 
   -6735    -6734    -6733    -6735    -6738    -6737    -6737    -6738 
   -6736    -6736    -6736    -6736    -6737    -6737    -6735    -6736 
   -6737    -6736    -6735    -6735    -6736    -6736    -6735    -6736 
   -6736    -6735    -6737    -6737    -6735    -6736    -6736    -6734 
   -6735    -6737    -6735    -6734    -6737    -6739    -6737    -6735 
   -6735    -6735    -6736    -6736    -6737    -6737    -6736    -6735 
   -6734    -6729    -6715    -6680    -6584    -6386    -6219    -6282 
   -6299    -5966    -5759    -5679    -5095    -4918    -6019    -7062 
   -6991    -6638    -7425    -8551    -7957    -7670    -9777   -10489 
   -7462    -4829    -5398    -6528    -6863    -7077    -6344    -6079 
   -7661    -8250    -6754    -5472    -5100    -5658    -7129    -7306 
   -6493    -6686    -6632    -6534    -6899    -5799    -4839    -6066 
   -6713    -5809    -5483    -6761    -9960   -11893    -9370    -6170 
   -5795    -6317    -5711    -4194    -2901    -3729    -5791    -5206 
   -3612    -3671    -3551    -4328    -6226    -6327    -5270    -4934 
   -5760    -6850    -6210    -4165    -2242     -557      285      225 
    1203     4203     5833     2924     1117     4562     7171     6573 
    6030     4968      835    -5951    -9736    -4393     6387    10206 
    3039    -6045   -11334   -12470    -9459    -8059   -10647   -10221 
   -4595    -3232   -14231   -25940   -22372   -12151    -7011      276 
    8892     7184      773     1665     7043     7071     -313    -4834 
   -5468    -6099     6203    15640     1621      153    12373     2460 
   -6587     -695     -144    -2145    -5227   -13009   -20468   -21057 
  -18909   -27818   -32153   -20497   -16729   -19191   -14977   -14523 
  -17524   -16908   -15544   -14180    -7946    -2308    -9701   -15543 
  -10313   -14052   -17031    -1168    11227       80   -25884   -33689 
   -5531    18676    14408    -1061   -26030   -42235   -31489   -22167 
  -26368   -30784   -24259     3220    12155   -17750   -23436    -4978 
   -9631   -31450   -57085   -46107     3781    23708    19036    17294 
    -231   -10243    -8100   -42068   -81124   -64849   -27049    -8138 
    2710    16401    30607    17340   -31243   -52576   -31336   -32740 
  -42312      112    46586    38887    24630    36010    39022    25756 
  -10006   -50900   -25648    22785    10201   -11572    -9722    -1090 
   20044     9329   -37681   -45739   -13591     8731    14106     3223 
  -14790    -2605    29275    29227    15611    22236    27696    25990 
   16992    -4517   -14840   -10372    -4832    18897    51572    50878 
   34876    34321    24675    -9759   -40941   -37777   -27739   -32824 
  -21087   -12739   -26273   -27994   -27686   -34017   -32125   -29203 
  -21290    -8996    -7216    -3886     8277     6105   -14213   -26685 
  -19144   -11704   -22644   -33278   -30493   -33890   -47237   -49034 
  -32063    -9304     8146    13716    11960     9995     1376   -20441 
  -50270   -54242   -23179    -4522    -8690   -10048    -9241   -20187 
  -37459   -32809    -7056    10310     7886    -3958    -2700     8865 
   14557    19971    12111   -10274   -11178    -5188   -21714   -26088 
  -12760   -15149   -10027    11867    13875     4597     -976   -11572 
  -17700   -27609   -38086   -16352     9004     6379      393   -13535 
  -41985   -52090   -39754   -32626   -33600   -26470   -16682   -12496 
   -3408     5402     3096      129      295     2852    13316    17733 
    3457   -19302   -32592   -15965    12095    10136    -2279     2429 
   -4925   -32554   -43670   -39681   -50173   -53768   -31421   -15653 
  -20207   -28648   -27987   -23077   -26543   -31557   -32604   -21391 
    2298     4511   -11436   -17891   -20575   -14820    -7057   -16612 
  -11394    17591    21882     7739     9009     7178    -9594   -27701 
  -37317   -21713     9845    16612      371    -7960   -13926   -25281 
  -33988   -40042   -35173   -24071   -19190    -2209    26759    43365 
   45840    34731    22488    27793    23746     2034     2644    18520 
   16251     8646    13890    22541    28482    34384    32201    22701 
   19879    17516    15174    34635    63171    65638    50195    41613 
   32769    20644    21619    32238    42756    47464    32939    15349 
   15240     9882    -3289     -131     2772    -5528     6467    30403 
   28432    16458    12210      745    -8374    -5994    -4545    -2111 
    -165    -3011     5255    14184    -3260   -20598   -14671   -16835 
  -34164   -41218   -34881   -23867   -19123   -28561   -42505   -54333 
  -70470   -87921   -90785   -79711   -77174   -86845   -87974   -78506 
  -76236   -74643   -63586   -64472   -75176   -70606   -55309   -43030 
  -41494   -39151   -20733   -14182   -35966   -54715   -57477   -62924 
  -70470   -60600   -35618   -15091    -6518    -3666    -3284    -6835 
  -12685   -21520   -29184   -20355     3207    14958    10736    10320 
    9566      239    -4563     4407    21032    32482    37630    40947 
   37196    33490    42363    52358    53095    51462    51615    53934 
   55537    56356    55962    42181    23520    23515    37302    46522 
   46605    45844    50148    56242    56876    49337    44791    47547 
   45184    36705    31065    27491    25583    28667    28915    22488 
   17185    10642     3561      604    -4006    -1593     7887     2255 
   -7289    -3542    -1495    -6142   -18263   -36419   -42449   -42700 
  -42499   -25507   -11089   -19388   -25277   -19518   -24401   -30792 
  -17957    -8446   -15840   -22179   -31765   -49762   -53639   -37617 
  -24989   -24999   -24678   -24156   -29773   -36794   -52445   -75961 
  -80972   -61689   -43217   -41640   -47019   -55567   -69110   -68191 
  -62678   -73210   -67266   -32440     5196    33814    38876    19209 
    -768   -12601   -16292    -7960    -3571    -4547    13308    38423 
   37329    16629    16068    34856    28261    -6122   -31345   -30948 
  -19262    -9412     6448    14103    -5226   -25161   -26673   -16706 
   -3482    -4208    -7780    12219    29143    18851     -351   -23543 
  -34827   -19881    -7271     6658    22877     7948    -3111    16182 
   17858    -3440   -17744   -20905   -11558      979     3767    11302 
   30391    45373    50010    43555    29850    21097    16946     6834 
   -2885     1382     1930    -8354     9150    45030    46073    23137 
    4799   -20836   -44720   -44469   -40653   -41358   -15617    19005 
   26595    33812    52314    49207    23517    -5149   -25404   -28546 
  -20520    -7512     5597    11405    19031    24079     9540   -19004 
  -56191   -89540   -95169   -82395   -71647   -57352   -30878     2061 
   23804    18193    -7899   -33124   -47444   -53410   -53768   -52158 
  -47734   -27666    -2940    -9783   -41829   -57074   -51584   -57863 
  -85110  -103820   -87348   -52177   -32003   -23828   -15155   -12433 
   -9095    -7294   -26892   -48677   -45127   -34601   -23432     1725 
   22079    28646    28853    20630    24343    42405    41952    31752 
   36367    41003    41472    40393    11904   -29761   -40357   -27995 
   -9716     8719    12777    12553    14410     7099    -9887   -27293 
  -21558     6876    31118    47660    53069    40562    23538    13193 
   12564    13795     3294    -3272    12755    27786    17958    -6203 
  -25370   -29987   -21666    -7293    -3259   -15827   -20025   -13935 
  -11740    -2157    -1158   -16999   -10147     9604     5369     2994 
   17078    12719     1841     9431    -2749   -30088   -17957     6624 
   -3545   -16912    -8479    -4082    -5628     2021     1855   -15996 
  -38418   -54884   -42613    -9624    -4672   -15716   -12742   -11413 
   -2091    17838    14395    -9778   -27168   -30379   -19886     -300 
    3450   -19891   -30075    -8853      132   -10902    -6796     -429 
  -17095   -33376   -35204   -40881   -52467   -55626   -39666    -1339 
   39501    38570    -7260   -36143   -33793   -47491   -71441   -67106 
  -33791     2816     8574   -19941   -41776   -40449   -41023   -54046 
  -62321   -43579    -7317     4574   -10276   -25779   -33364   -17565 
    2826    -5202   -11693   -10314   -26965   -32294   -11652     5292 
   14139    18819    10243     -934    -5207   -13595   -16515    -6274 
    4284    21394    37851    29905    11280     -792    -9047    -1252 
   26419    50937    57196    57769    76429    98140    89408    64009 
   43697    33295    40096    40845    25139    16706     6172     1590 
   16668    15425     8703    25000    33087    11205   -19822   -27929 
  -15047    -5524    -3174    -8880   -12445    -3155    -2146   -12555 
  -19166   -31452   -42898   -27761       70    11216    13530    19547 
    9447   -29833   -59548   -41363    -6888     2868   -12657   -45390 
  -66857   -62941   -68473   -80934   -67549   -52017   -61647   -73240 
  -71394   -65013   -46767   -20347   -16778   -30255   -38758   -46309 
  -44170   -36853   -42063   -41596   -27579   -13918      503    15907 
   23507    13318   -14131   -37874   -46542   -48629   -38184   -12574 
    4895     3876    -6182   -15143   -16358   -15867   -14081     -966 
   11204     9434    12186    34590    65488    89995    97943    82697 
   57455    38349    20757    10654    21222    34613    35801    44861 
   67077    79370    78040    67298    41358    19507    22327    27285 
   21680    28332    46086    48198    29457     8088    -7339   -20384 
  -24753   -14894     -610     6730     9807    14108    13817     5565 
    2188     4403   -10927   -25223    -7730      645   -19237   -24727 
  -15314   -11028    -6563    -9377   -19419   -16411    -9335    -8960 
    3123     9012   -12522   -25407   -22073   -25933   -33154   -39997 
  -37627   -27992   -29987   -25288    -7890   -12051   -28548   -30995 
  -38144   -53443   -51303   -38002   -36222   -44692   -49082   -45842 
  -45867   -51278   -54912   -56588   -45244   -20290    -4171     1831 
     954    -3277     1971      100   -15143   -18281   -16049   -24612 
  -32348   -40419   -50959   -46265   -31548   -24070   -22966   -25260 
  -24874   -17282    -8606    -3611    -1382     5710    13581      939 
  -22015   -21184    -5718    -4172    -5044     2265    -8068   -30286 
  -29364   -17184   -11383    -7691    -7661     4507    22226    14247 
   -2507    -8040    -6235     9582    19504     8173     9428    24346 
   26414    26203    26679    16813     6403     4402    12133    24885 
   22760     6620     7324    19585    12490    -2782    -6341    -6466 
   -7931    -6457    -1998     5051     9471     1337   -16170   -32069 
  -35684   -16457     8973    17468    16174     9649     2230     9136 
   21127    26475    30174    26031    14972    13395    18060    15563 
    8561     4835     2771     -632     -214     3431     6011     7269 
   -2211   -17258   -22639   -28098   -32226   -25382   -22118   -26595 
  -32337   -38160   -40504   -44960   -54960   -64417   -71021   -67452 
  -54000   -47246   -47213   -45305   -49454   -58881   -60962   -60207 
  -59343   -45671   -29104   -26902   -26596   -18599    -6205     5815 
    4174    -7483   -15578   -20323   -18631   -13269    -9702    -1469 
    5541     3400     3306    12107    19744    18391    12858    11649 
   16153    13373     -250    -3128     8292    14581    10582      882 
   -4026     5030    14618    14817    14447    15265    16916    18356 
   12276     8698    14689    13609     8176    11420    12854    13184 
   21833    26259    20573    12604     4859     -131     -537     1372 
     994    -1597    -1865    -3114    -9643   -18826   -23786   -18690 
   -8945    -1121     6901    12676    10180     3450     -479    -1975 
   -3475    -7899   -14010   -13763    -8289    -4508    -2305    -2520 
   -3665     -683     1128    -1878    -2767    -1083     3029    12110 
   16268    12406    12463    17380    17649     7630    -4298    -4574 
    2034     7436    11133     9190     4437     -625   -11513   -20634 
  -19849   -19618   -24791   -28570   -31008   -34554   -37325   -40213 
  -44819   -46485   -44130   -43726   -42907   -38302   -36800   -39159 
  -42037   -46436   -46761   -42872   -42764   -40616   -33626   -33227 
  -37410   -34839   -28060   -26299   -28866   -26704   -17813   -11518 
  -12181   -12404   -10106   -11488   -13966    -7473     5643    12082 
   10251     5890     5032    16366    28273    24768    17796    16485 
   17225    22035    23468    15404    11453    14759    12442     5260 
    2315     4379     6716     4190      986     2760     2143    -2157 
   -3846    -6801   -10295    -7714    -3941    -4413    -7223   -11758 
  -15886   -14828    -9767    -6077    -6484   -10442   -15152   -19272 
  -20577   -17174   -13388    -9734    -6177    -5952    -4804    -3529 
   -5372    -3317      671    -1346    -4428    -1982     3718     6913 
    5182     2014     1485     3545     5163     4809     3674      724 
   -2818    -2564    -1446    -3247    -5572    -5547    -3937    -5482 
   -8153    -5027     -942    -4307   -13544   -21468   -19669   -10514 
   -7491    -8769    -7186   -10675   -17082   -15608   -11327   -10264 
   -9330    -7087    -2569     2311      817    -4149    -5441    -7423 
  -11814   -12358   -11874   -15757   -18418   -15113    -9481    -5593 
   -6762   -11192   -11478    -9684   -10423    -9918   -11003   -17563 
  -22882   -25068   -24750   -18322   -12130   -11830   -10889    -9499 
  -12153   -13926   -11858    -8270    -3773    -2201    -5249    -6878 
   -5537    -2904     -370    -3187    -9872   -14706   -17013   -16281 
  -15577   -15407   -10993    -7094    -6113    -2657      437     -378 
   -4272    -9424   -11181   -10215   -10099    -8220    -3499     1122 
    4992     6988     5338     1250    -3120    -4750    -2768     -847 
    -689     -392     2553     7856    10530     7696     2549     -685 
   -1461    -2566    -2750     3273    11215    11590     7403     4377 
   -1589    -9264   -10144    -5648     -991     3907     6898     7310 
    7381     5399     1593     -970     -191     5391     9040     4209 
    -649      151      883     1006     2507     2238    -2418    -8618 
   -9556    -5164    -2160     -887      995     1375      440     -919 
