Origin Time       2016/04/14 21:26:00
Lat.              32.742
Long.             130.808
Depth. (km)       11
Mag.              6.5
Station Code      KMMH14
Station Lat.      32.6345
Station Long.     130.7521
Station Height(m) 70
Record Time       2016/04/14 21:26:37
Sampling Freq(Hz) 100Hz
Duration Time(s)  300
Dir.              5
Scale Factor      3920(gal)/6170801
Max. Acc. (gal)   218.997
Last Correction   2016/04/14 21:26:22
Memo.             
[...]
   66356    66372    66370    66358    66354    66359    66354    66344 
   66348    66360    66362    66348    66332    66333    66354    66368 
   66353    66328    66329    66354    66371    66363    66348    66344 
   66356    66369    66365    66352    66343    66341    66344    66344 
   66337    66344    66370    66374    66342    66317    66341    66384 
   66385    66344    66306    66305    66339    66387    66411    66390 
   66366    66356    66325    66275    66271    66336    66404    66415 
   66388    66346    66308    66311    66359    66405    66395    66334 
   66301    66315    66336    66356    66375    66384    66387    66379 
   66337    66289    66309    66377    66398    66362    66328    66327 
   66332    66324    66342    66393    66424    66404    66345    66296 
   66308    66358    66376    66341    66309    66343    66399    66399 
   66348    66309    66328    66365    66368    66347    66327    66332 
   66354    66379    66394    66380    66356    66346    66338    66326 
   66327    66342    66360    66382    66383    66344    66291    66290 
   66352    66402    66394    66363    66354    66359    66352    66343 
   66348    66351    66354    66352    66339    66331    66340    66356 
   66350    66335    66352    66386    66393    66363    66332    66329 
   66344    66357    66350    66331    66333    66359    66376    66362 
   66342    66344    66358    66358    66341    66330    66340    66369 
   66388    66367    66325    66308    66340    66387    66391    66350 
   66317    66330    66363    66373    66360    66360    66373    66361 
   66331    66324    66346    66370    66371    66346    66319    66320 
   66345    66364    66367    66354    66337    66345    66371    66378 
   66354    66341    66362    66372    66342    66316    66346    66394 
   66390    66345    66320    66318    66322    66343    66371    66381 
   66365    66341    66324    66315    66328    66359    66382    66387 
   66375    66363    66369    66369    66349    66324    66311    66321 
   66341    66355    66363    66373    66381    66368    66336    66311 
   66307    66328    66369    66393    66378    66356    66380    66421 
   66395    66307    66249    66267    66319    66342    66346    66384 
   66434    66450    66423    66349    66270    66262    66297    66301 
   66301    66370    66474    66503    66434    66342    66284    66262 
   66245    66247    66313    66401    66444    66443    66429    66397 
   66334    66272    66274    66318    66318    66303    66370    66472 
   66467    66356    66285    66300    66327    66318    66304    66336 
   66390    66401    66387    66379    66366    66335    66306    66305 
   66331    66360    66377    66389    66380    66339    66300    66308 
   66356    66383    66359    66335    66349    66373    66377    66359 
   66337    66327    66331    66340    66335    66330    66357    66405 
   66414    66367    66327    66323    66334    66346    66342    66335 
   66342    66359    66372    66361    66336    66338    66362    66367 
   66348    66336    66350    66367    66374    66371    66341    66323 
   66346    66362    66349    66339    66353    66367    66351    66335 
   66340    66352    66371    66371    66336    66314    66341    66378 
   66372    66338    66333    66345    66351    66372    66380    66356 
   66347    66365    66362    66334    66325    66340    66348    66347 
   66351    66360    66363    66361    66349    66327    66326    66360 
   66378    66359    66344    66345    66348    66366    66378    66351 
   66329    66349    66373    66363    66337    66335    66345    66335 
   66321    66330    66363    66389    66386    66360    66332    66334 
   66361    66378    66372    66340    66322    66338    66351    66350 
   66332    66325    66349    66373    66378    66377    66368    66354 
   66335    66317    66310    66332    66385    66414    66385    66335 
   66308    66322    66352    66358    66344    66342    66363    66385 
   66375    66348    66337    66333    66339    66347    66336    66312 
   66287    66287    66333    66373    66329    66260    66326    66383 
   66284    66448    66792    66530    66010    66120    66383    65882 
   65165    65522    65821    64274    63437    65697    67716    67271 
   67699    70110    70792    69542    69976    71031    68799    64706 
   62498    61264    59208    58521    60992    63781    64301    65395 
   69005    71630    71615    71176    70989    69987    68152    66749 
   66556    66260    65214    64864    64258    63103    64102    65211 
   64196    64610    66625    67456    67787    67683    67606    69436 
   69780    66600    64692    65350    65586    62657    56765    55127 
   60034    63661    65218    69079    72939    75445    77158    74695 
   67860    62456    60954    58167    52401    52156    60095    65569 
   63182    60567    61936    61824    58949    58554    60415    60197 
   61309    70765    82724    85130    80142    75704    69602    58965 
   51044    53936    60569    58266    54528    60782    65200    60374 
   61258    72492    78462    72549    69934    75349    68318    52746 
   52451    51938    39131    41372    58477    69598    81480    97036 
  102625    92050    76641    71726    67122    54267    51353    58789 
   59344    55777    58202    66228    76466    86512    93952    98662 
   96718    84345    70718    58512    42998    31159    22475    19143 
   37723    64002    70018    67633    78081    91331    86846    71927 
   73019    84106    79751    68883    71129    84434    91442    76052 
   59885    63545    61871    59802    81818    95042    76424    55862 
   60531    81452    77875    51491    50700    57654    32691    21022 
   56669    87431    87642    91272    92619    58112    12813    18064 
   67229    89033    87334   116440   134310    98466    75283    93827 
   84816    34734    22497    59264    59280    12124     3762    51895 
   80053    56092    42847    76620   100242    82800    67251    64604 
   55817    46011    29262    13919    40213    96717   138062   155620 
  149843   127283   102448    63029    14306   -18018   -38063   -38966 
  -13561     5376    13245    41772    86538   122863   143378   138802 
  105826    60344    27240    29484    44164    41094    55735    92346 
   88228    39842     9006    18864    36683    58218   112530   172511 
  190298   181620   178713   169717   136229    88808    29481   -47774 
 -110761  -119696   -78692   -23587    17240    46713    79465   110611 
  129064   140993   146325   134034   118126   113975   116099   122195 
  118106    92628    69664    57933    34013    -1296   -12770    15214 
   47261    53081    54104    73975   101438   125848   155929   184618 
  183162   143742    85316    30429    -1741   -11859   -19986   -25352 
   -9678    16244    34084    55969    80783    86474    74821    55104 
   38462    37409    37756    39588    60193    74481    60038    42099 
   35931    24915     -207   -37112   -85188  -132646  -158366  -148814 
 -108984   -59146     -768    74606   141438   183156   234431   305523 
  352446   364725   365825   350258   316684   276806   217210   136523 
   62925     6603   -39888   -68594   -65929   -43872   -33792   -33732 
     954    74998   140117   191713   263481   344064   385604   371645 
  340168   318801   290688   248209   197231   133151    59325   -18483 
  -97331  -148091  -138693   -85911   -28676    21032    67515   106624 
  126068   114972    79867    41856     4897   -26731   -24155    11532 
   39249    41119    39206    59888    92768   111182   124619   147287 
  163797   165845   162328   165941   184570   195769   172780   133394 
  101951    69691    32611     5799   -10193   -32500   -71575  -113338 
 -128764  -113845   -95175   -91711  -101895  -123623  -160693  -201226 
 -218318  -204847  -180249  -166537  -167431  -163981  -140919  -107307 
  -72683   -29816    16735    43802    48324    47697    54020    76891 
  111020   135156   150126   168982   186091   198415   209357   206991 
  185660   154262   111114    65666    49075    64850    90788   121692 
  157861   182868   176360   140177    98361    57936    10128   -26653 
  -30943   -24691   -37526   -57924   -56743   -32275    -5990    13603 
   30015    36356    31146    28355    36771    51616    65703    86311 
  114725   123943   108514    99091    96526    73259    36816    19783 
   25027    36074    60054   111016   172189   212875   224443   218748 
  199605   162636   120560    91003    77676    76440    74462    63045 
   48522    36698    30902    35336    49627    68725    85739   100691 
  118975   142275   171596   201980   223340   234349   237455   237734 
  240389   238245   233867   243116   256750   252554   230829   198933 
  154113   101515    57213    29470    18787    21177    24575    21474 
   16484    11509     4618     2307     7994    16824    28846    42701 
   57041    77837   102837   123683   136811   137017   124948   112920 
  108668   109420   112824   122654   135354   134736   119076   103130 
   84817    50221     8718   -18254   -36152   -58207   -76549   -86729 
  -92320   -93503   -99865  -117892  -135483  -145906  -159779  -183075 
 -207641  -226588  -236849  -231266  -207862  -172071  -127329   -80440 
  -43265   -19857    -2325    12974    17824     7200   -20032   -56067 
  -77427   -76584   -57656   -11481    51016   102114   138795   165088 
  179711   186749   180896   160047   140435   126034   108681   102578 
  131633   186281   230533   253009   273776   297856   303226   283003 
  261844   259449   269057   276481   278084   280138   281293   266961 
  239829   222839   220379   222275   229720   241983   252862   255354 
  232382   186343   144247   112636    88787    80180    86903    99521 
  101929    89935    77956    71556    71766    83385    97263    92154 
   56673     8543   -21944   -25593    -8638    18923    44000    57811 
   46726     6740   -28533   -33355   -24721   -14982     2011    15605 
    8214   -14885   -35239   -40259   -34376   -40768   -65167   -84355 
  -92940   -99559   -92805   -68750   -45875   -36073   -37901   -44348 
  -48086   -48272   -51684   -65550   -81729   -86359   -84580   -83270 
  -75642   -59172   -36304    -8006    19749    40916    58474    77895 
   92604    87697    63820    37706    20819    15074    17761    29534 
   54547    84338   110197   137452   160868   169699   168384   158392 
  140734   126152   117879   127867   173946   231799   265092   277874 
  283415   282450   274681   248747   196356   132898    76607    40054 
   32264    54320   101090   147155   166434   175110   195730   213140 
  214076   212217   207682   183042   137023    78240    22418    -2639 
   11188    41338    65717    83200    92256    79279    55788    45050 
   41273    41076    48259    53263    60426    76565    85773    69234 
   26576    -6996     4499    44792    83886   125337   181016   229854 
  232257   191281   143085   103826    75594    52765    25973      851 
  -22700   -45853   -41123    -4215    20752    23945    27451     9039 
  -45557   -97220  -125217  -133833  -114047   -68548   -20234    20371 
   59787    97721   128431   150020   157005   151463   142611   129972 
  118399   110310    85081    39346    -3533   -40679   -79413  -113439 
 -142308  -166175  -176017  -172070  -152463  -100631   -28341    32185 
   94102   163217   184027   148490   120849   118568   119364   137049 
  181300   223148   243604   251718   252830   242997   226830   203106 
  172049   165615   184923   173982   127498    95208    83637    69246 
   51164    40796    42241    45153    29312   -10332   -51364   -78590 
 -107632  -144166  -159155  -131134   -78870   -38267   -30711   -51739 
  -70340   -67206   -61175   -57388   -41241   -29491   -37537   -48665 
  -57010   -58254   -33914      193    14196    14706    13978    14433 
   25194    48176    74958    98023   107020    93871    70172    56981 
   52804    50435    66860   100750   115914   104047    93052    98260 
  112793   130247   162037   206725   228471   216333   199565   196643 
  205886   219814   238489   263772   287103   309923   335109   347287 
  338781   313024   271555   221738   167952   113767    70833    35293 
   -2790   -30169   -35263   -25776    -4822    29539    59265    59579 
   45951    49016    42345    -4573   -51198   -71288   -94906  -117490 
 -106546   -69445   -30481    -5814    -8067   -26738   -41121   -53011 
  -54994   -18739    46653   105541   147262   161791   134497    75432 
     992   -75793  -139328  -187755  -223581  -228308  -182516  -100040 
  -12754    63427   125118   162153   164200   136413    94572    53055 
   18278   -10842   -35882   -51370   -43518    -9750    33900    79618 
  129779   174136   196782   202363   216822   253620   298350   336314 
  365662   383237   384733   369641   336652   293662   262553   249215 
  236867   219224   201185   183329   167857   155251   147646   154178 
  165730   152933   102449    32777   -29998   -79557  -113568  -117472 
  -91122   -54308   -20722     2128     8384     4266    -4859   -22538 
  -42541   -53884   -54854   -48930   -37100    -6909    52452   124028 
  184243   228695   260983   276529   258734   206347   153014   115368 
   74376    32549     3395   -24859   -56713   -80984   -90977   -81547 
  -49327    -1189    36745    44440    42855    54474    62907    51281 
   30730    15783     6843     1229      737    -1018   -18541   -54263 
  -98993  -145401  -188551  -228357  -264085  -278385  -250342  -177056 
  -72631    38584   138134   220445   276233   297998   294555   275703 
  246550   214765   182661   148988   114215    79140    50138    33948 
   32242    45839    71400   102688   136863   174156   216537   260618 
  292297   305852   315937   321183   292295   232077   181101   152133 
  133137   120684   112886   110467   110200   101708    89147    79944 
   68672    49062    20504    -4485   -11612   -10043   -11405    -6249 
   13346    37700    53951    62910    75320    90583    89939    59386 
   10753   -37191   -84281  -127676  -149436  -149972  -145739  -138058 
 -124509  -113143  -112297  -122750  -130367  -119177   -93500   -65562 
  -39541   -10612    29708    78181   127482   177737   219951   241251 
  244357   237924   226776   216904   213499   213152   210387   208525 
  203954   182839   152126   131565   125342   131173   144086   158509 
  176093   190178   189059   171751   140648    99496    53220     4097 
  -45807   -91889  -122010  -127717  -117254   -98667   -73942   -50209 
  -30214   -11651    -2776    -9788   -24672   -45576   -74790   -95661 
  -92809   -73915   -43258     2458    47760    70015    65856    50685 
   39977    37041    39473    45053    54709    70969    88086   100816 
  116681   140372   162613   175642   181749   186275   195462   209539 
  220707   231386   250242   270225   278675   275688   269589   264450 
  256139   243333   231048   218885   201530   172063   126235    78882 
   44207     9039   -29285   -49921   -51343   -43676   -25260     3825 
   39016    71452    88988    88426    73081    50344    29284    10625 
   -4703    -9638    -3637     5134    11572    19201    27931    28826 
   21980    16399    13173    14227    26772    46967    63436    68668 
   57845    30102    -7841   -42014   -58845   -54783   -35846   -10578 
   13057    28761    35326    35519    33231    32166    33101    37820 
   50132    68447    86254    98846   107674   114005   112937   106214 
  104012   107608   110304   109679   109441   114355   121176   119702 
  106910    89774    74150    58607    39975    20560     6355     2281 
    7448    15492    25699    39411    51099    61320    73141    78063 
   72472    61521    46473    35426    36424    40509    45001    60236 
   81209    94438   102167   111741   119943   120258   115078   114462 
  120700   125279   126925   131880   135027   127135   114236   106971 
  107565   115171   123792   126090   124301   118609   105262    93600 
   94255   103662   116646   130533   140828   147972   155078   159119 
  155599   145833   132701   112261    80973    49786    31555    23807 
   21236    23744    26187    21813    11254     -829   -10909   -19338 
  -29661   -42002   -53217   -63744   -73294   -74544   -61566   -40426 
  -21658    -6431     7106    16630    23388    31672    44003    59342 
   70239    70548    63847    56696    49977    42711    37431    34309 
   29774    24332    22108    26182    36077    46912    56679    68492 
   80349    85280    85319    91119   101177   102437    96790    97012 
  102782   107148   110691   116705   123132   122297   111662   100403 
   93717    84700    73349    70153    74707    76243    73233    71533 
   72169    72109    69435    66822    66616    63683    55518    47638 
   40565    31447    26105    29911    37437    43518    50065    59582 
   71339    81652    89429    97197   103349   106314   109090   110281 
  107346   102971    97254    90793    88371    87466    83225    78963 
   74437    64121    49606    34963    22613    16445    15454    16056 
   18944    23317    26740    30756    39655    53472    65382    72349 
   76562    77406    76279    77313    82209    90791   101215   112230 
  121256   122885   118627   116654   118429   117877   112116   103603 
   94388    84783    76979    75121    78575    80519    76225    66851 
   55103    41753    27574    16833    14770    20284    25864    28046 
   32738    44258    56270    63800    70711    74601    68244    58322 
   54540    53085    49575    46463    46176    50573    57105    60096 
   62370    68121    71670    68232    59984    51697    49295    52880 
   57898    66358    80706    93172    96178    94869    97507   100536 
   97037    92706    94875    97347    94872    93846    98959   107629 
  114825   117357   118454   120080   116605   106437    94042    79221 
   59505    37330    18257     7660     7107    12024    18842    28315 
   37061    39607    38899    40993    44327    44185    40577    35708 
   30374    24573    20255    23097    31740    34778    32143    32028 
   30511    26906    30600    40080    47644    53929    62752    75832 
   90525    99872   101665   100530    98200    92815    85381    77836 
   70271    62428    54123    46378    41866    43465    52577    66630 
   80847    92278    97963    94659    85669    79146    75605    71263 
   70065    74438    79343    84212    90268    93609    93251    91273 
   87491    83702    82374    81319    77611    70127    60215    53782 
   53535    55257    59054    69490    83643    95636   105676   112276 
  111468   106950   103849   101090    99996   103989   108413   105710 
   96201    85347    74983    62739    49792    41979    39473    35723 
   30249    28175    29035    29808    32127    38371    44610    44157 
   38888    37150    41359    48300    57835    71935    87916   100552 
  108624   113200   113151   107176    97900    90772    87466    83317 
   75195    66244    58659    51238    46800    50238    59648    70209 
   81245    90694    94643    96105    98013    95792    88819    82881 
   81144    81249    76329    65396    57802    55615    51276    44916 
   39826    32520    21746    11252     4626     3880     6287     9102 
   14539    22241    29251    35812    42787    49370    53553    52639 
