Origin Time       2016/04/14 22:07:00
Lat.              32.775
Long.             130.848
Depth. (km)       8
Mag.              5.8
Station Code      KMMH16
Station Lat.      32.7967
Station Long.     130.8199
Station Height(m) -197
Record Time       2016/04/14 22:05:02
Sampling Freq(Hz) 100Hz
Duration Time(s)  300
Dir.              3
Scale Factor      2940(gal)/6170270
Max. Acc. (gal)   83.555
Last Correction   2016/04/14 22:04:47
Memo.             
[...]
  127456   127438   127427   127423   127423   127430   127446   127475 
  127491   127476   127454   127434   127430   127463   127517   127552 
  127548   127528   127543   127577   127569   127542   127545   127578 
  127618   127645   127661   127649   127597   127585   127623   127637 
  127626   127609   127615   127668   127716   127724   127710   127693 
  127691   127690   127671   127656   127639   127614   127607   127613 
  127602   127592   127617   127652   127654   127639   127641   127634 
  127580   127487   127340   127303   127778   128384   128001   127149 
  127415   128032   127695   127356   127497   127533   127547   127476 
  127471   127765   127744   127450   127323   127377   127740   127838 
  127377   127220   127448   127587   127609   127456   127387   127514 
  127457   127423   127465   127342   127557   127859   127595   127410 
  127524   127442   127336   127389   127517   127547   127332   127209 
  127331   127440   127486   127440   127378   127502   127590   127427 
  127330   127518   127616   127388   127266   127398   127412   127375 
  127412   127364   127408   127570   127561   127471   127489   127489 
  127415   127429   127536   127670   127741   127602   127509   127543 
  127408   127366   127606   127673   127472   127454   127673   127737 
  127564   127472   127668   127818   127594   127442   127676   127806 
  127615   127531   127647   127640   127555   127586   127598   127536 
  127573   127688   127684   127589   127570   127669   127749   127659 
  127568   127668   127723   127573   127507   127619   127615   127516 
  127538   127625   127693   127680   127555   127429   127398   127515 
  127634   127574   127528   127579   127553   127500   127522   127616 
  127678   127572   127493   127639   127723   127528   127362   127388 
  127397   127404   127430   127448   127576   127607   127536   127598 
  127540   127453   127560   127558   127486   127480   127429   127425 
  127479   127494   127491   127477   127479   127492   127454   127440 
  127497   127530   127545   127576   127555   127460   127372   127388 
  127454   127458   127431   127438   127492   127539   127479   127428 
  127510   127562   127517   127492   127513   127525   127512   127504 
  127505   127495   127520   127576   127563   127504   127508   127551 
  127547   127521   127563   127604   127568   127543   127561   127617 
  127715   127772   127742   127650   127580   127572   127574   127588 
  127623   127615   127583   127585   127564   127509   127493   127543 
  127620   127662   127662   127652   127617   127578   127565   127558 
  127548   127559   127574   127547   127518   127541   127562   127556 
  127575   127601   127595   127596   127618   127604   127571   127571 
  127574   127557   127521   127479   127470   127455   127415   127413 
  127445   127474   127505   127508   127483   127480   127466   127440 
  127455   127478   127476   127481   127503   127513   127485   127453 
  127450   127468   127478   127464   127475   127510   127516   127514 
  127491   127444   127467   127522   127525   127546   127602   127601 
  127569   127586   127596   127576   127593   127601   127562   127555 
  127572   127560   127551   127565   127571   127577   127600   127598 
  127562   127565   127589   127577   127557   127561   127589   127605 
  127587   127594   127616   127605   127585   127580   127594   127586 
  127563   127607   127653   127636   127618   127610   127647   127750 
  127759   127522   127208   127222   127551   127718   127617   127567 
  127784   127841   127298   127208   127964   128039   127429   127260 
  127478   127786   127841   127570   127397   127325   127331   127540 
  127796   127771   127462   127411   127531   127409   127506   127769 
  127568   127307   127490   127644   127491   127470   127610   127511 
  127339   127505   127709   127531   127435   127660   127642   127336 
  127282   127560   127650   127447   127395   127470   127497   127537 
  127474   127384   127393   127328   127304   127463   127544   127526 
  127529   127440   127380   127517   127564   127421   127407   127498 
  127471   127464   127548   127528   127418   127409   127521   127585 
  127493   127401   127472   127592   127537   127392   127451   127574 
  127453   127384   127550   127595   127555   127604   127610   127626 
  127607   127470   127445   127507   127566   127675   127656   127594 
  127638   127651   127651   127569   127513   127661   127670   127552 
  127569   127573   127521   127467   127519   127682   127645   127471 
  127478   127566   127542   127476   127507   127599   127608   127546 
  127527   127529   127433   127346   127448   127590   127659   127689 
  127581   127452   127479   127540   127551   127521   127496   127611 
  127730   127639   127542   127580   127558   127468   127489   127636 
  127761   127725   127572   127505   127540   127472   127480   127695 
  127690   127506   127517   127583   127616   127651   127593   127486 
  127447   127570   127674   127520   127424   127570   127634   127555 
  127582   127737   127688   127451   127445   127564   127576   127584 
  127579   127554   127532   127509   127576   127622   127511   127461 
  127554   127631   127662   127651   127636   127646   127588   127471 
  127427   127496   127557   127490   127453   127607   127718   127621 
  127559   127549   127417   127430   127663   127689   127496   127383 
  127420   127553   127632   127633   127636   127597   127565   127594 
  127580   127490   127421   127419   127473   127552   127612   127617 
  127556   127484   127432   127363   127345   127420   127491   127573 
  127679   127676   127576   127458   127335   127322   127418   127474 
  127521   127532   127436   127387   127441   127491   127486   127445 
  127425   127453   127540   127615   127573   127542   127610   127617 
  127518   127424   127412   127474   127523   127531   127552   127569 
  127553   127523   127531   127546   127476   127397   127402   127439 
  127474   127464   127398   127383   127460   127559   127657   127791 
  127910   127973   128036   128018   127788   127520   127453   127434 
  127276   127137   127083   127024   127110   127405   127617   127594 
  127574   127759   127931   127937   127976   127809   127468   127635 
  127790   127377   127206   127385   127402   127363   127473   127716 
  127818   127678   127546   127393   127264   127481   127746   127556 
  127332   127474   127553   127437   127511   127768   127742   127513 
  127676   127933   127774   127593   127561   127526   127552   127494 
  127398   127433   127360   127208   127342   127621   127563   127389 
  127619   127912   127802   127680   127854   127737   127342   127492 
  127767   127493   127280   127486   127624   127471   127441   127647 
  127590   127377   127369   127364   127420   127559   127476   127346 
  127458   127633   127637   127671   127854   127724   127397   127476 
  127532   127323   127439   127722   127837   127796   127723   127809 
  127479   126972   127382   127777   127363   127214   127472   127521 
  127365   127311   127521   127572   127484   127682   127935   128117 
  128053   127774   127777   127700   127466   127577   127570   127290 
  127267   127444   127468   127334   127294   127334   127244   127149 
  127392   127830   127883   127749   127777   127567   127385   127490 
  127335   127235   127535   127662   127572   127629   127738   127546 
  127154   127290   127860   127867   127422   127330   127596   127756 
  127597   127468   127514   127528   127626   127596   127340   127270 
  127326   127423   127600   127662   127631   127657   127915   128056 
  127647   127467   127852   127961   127557   127093   127132   127387 
  127107   126984   127414   127490   127321   127397   127334   127102 
  127042   127009   127073   127482   127783   127771   127831   127904 
  127791   127658   127647   127705   127674   127533   127511   127524 
  127368   127415   127756   128039   128214   128277   128217   128023 
  127761   127575   127343   127151   127138   127175   127178   127040 
  127069   127506   127817   127774   127576   127303   127306   127700 
  127936   127867   127845   127836   127797   127884   127800   127284 
  126789   126792   127186   127499   127594   127772   127934   127985 
  128061   127949   127822   127837   127652   127418   127355   127359 
  127370   127423   127554   127636   127628   127568   127530   127588 
  127592   127529   127475   127448   127476   127467   127460   127436 
  127354   127410   127522   127547   127509   127332   127257   127447 
  127439   127223   127273   127439   127478   127521   127621   127743 
  127794   127724   127690   127671   127582   127638   127677   127502 
  127595   127969   128099   127888   127520   127364   127419   127284 
  127025   126981   127271   127450   127180   127068   127391   127626 
  127583   127514   127665   127862   127784   127635   127571   127421 
  127369   127499   127480   127360   127378   127425   127319   127172 
  127266   127542   127700   127670   127591   127614   127704   127659 
  127539   127651   127901   127902   127623   127418   127555   127717 
  127551   127327   127335   127442   127376   127189   127189   127427 
  127588   127438   127314   127547   127872   128007   127966   127909 
  127902   127767   127529   127480   127722   127919   127682   127440 
  127660   127881   127824   127623   127396   127476   127826   127999 
  127744   127228   127102   127440   127566   127411   127285   127316 
  127508   127545   127465   127665   127921   127811   127537   127545 
  127740   127597   127171   127100   127447   127539   127140   126940 
  127205   127285   127185   127300   127473   127668   127764   127594 
  127443   127516   127770   127912   127792   127801   127945   127842 
  127592   127461   127489   127490   127376   127357   127358   127218 
  127182   127306   127405   127445   127485   127628   127561   127264 
  127391   127582   127389   127449   127672   127633   127520   127470 
  127649   127837   127620   127456   127683   127859   127732   127523 
  127545   127688   127665   127558   127463   127456   127581   127595 
  127472   127510   127757   127889   127711   127544   127679   127816 
  127638   127412   127393   127454   127541   127588   127536   127510 
  127537   127518   127450   127473   127575   127575   127527   127599 
  127724   127777   127763   127764   127829   127804   127636   127587 
  127640   127629   127651   127553   127344   127416   127567   127516 
  127507   127551   127500   127422   127533   127740   127632   127468 
  127567   127608   127629   127712   127549   127370   127557   127812 
  127803   127705   127683   127589   127472   127466   127371   127190 
  127157   127175   127189   127231   127154   127141   127362   127520 
  127464   127319   127320   127513   127550   127475   127612   127673 
  127357   127148   127394   127604   127561   127620   127698   127593 
  127497   127477   127395   127316   127384   127472   127493   127517 
  127452   127311   127255   127343   127536   127684   127703   127601 
  127466   127517   127708   127799   127799   127801   127702   127554 
  127601   127619   127397   127304   127448   127565   127573   127485 
  127231   126730   126413   126970   128108   128827   128764   128411 
  128292   128348   128211   127588   126747   126578   127254   127646 
  127072   126749   127493   127880   127387   127154   127308   127640 
  128065   127885   127356   127493   128010   128020   127913   128416 
  128457   127073   125921   126691   128443   129017   127979   127179 
  127399   127711   127921   127430   126403   126860   127901   127560 
  127033   127391   127989   127953   127421   127248   127330   127231 
  126851   126381   126122   126135   126803   127963   128548   127580 
  126051   126962   128418   125604   122579   127588   137420   140250 
  133741   123942   118073   121433   125092   126582   131951   131526 
  128521   126701   122279   127150   125912   116280   127851   137480 
  128072   127956   135166   133001   124341   121697   132281   135204 
  122198   122028   131255   130921   131586   129348   124470   130401 
  130676   121181   118975   120505   121163   120843   122592   137487 
  150025   141857   132793   128537   115049   105661   115035   138541 
  147728   121829   110157   131786   136933   131827   131264   122553 
  117808   120100   129124   133948   121826   109443   107587   127177 
  153145   157393   147772   120631   102479   126316   142049   125378 
  109723   113192   138205   149441   132258   130764   138432   137561 
  137351   111299    95594   125641   131238   109014   103778   107343 
  114430   119469   139738   174772   155748    97373   100670   151866 
  167109   161318   151844   105036    56051    48496    77354   117926 
  124913   109899   104619   107566   145310   171702   120017   106082 
  182857   189930   111519    94639   139702   123590    23818     6549 
  135600   197088   150756   185523   245994   186532    86215    67635 
  137150   182453   119290    60095   104244   145922    97879    64024 
  124834   159109   108630   108304   191511   233089   161085    72679 
   90265   149618   161450   142377   116097   113706   130136   147169 
  178224   170102    98246    54353   101346   188046   203662   153561 
  117892    43427   -44431      431    86616    75864    81591   199424 
  302919   247483   135870   109785    84662    52767    93250   136308 
  140018   101147    51771    98846   165591   132117    98533   135210 
  174873   167198   129572   107704    93095    64342    79013   155627 
  179243   134899   126127   103844    47522    56613   113440   157189 
  152396   121868   142794   167284   122769    76379   102476   145777 
  160722   202437   222917   149711    77969    87828   123290   109604 
  106838   163777   148259    80827   111337   157303   148892   155086 
  153964   129214   127955   140122   123007    79372    82261   142142 
  155016   114988   112046   159199   210001   211093   168119   158717 
  186668   162843    82759    63614   127805   174085   189203   211068 
  216976   177820   105182    61427    75612   107493   139063   176347 
  203358   179770   118190    93440   105946   113326   107514   102415 
  133769   168875   161356   154826   164095   161671   138451   121088 
  168549   235404   240377   214543   169530   107297    71797    66649 
   94125   109244    71956    58773    76846    87256   108963   116598 
  124817   164259   181311   175108   177674   167138   128655    69212 
   30334    42098    62890    90727   144557   170251   158701   145165 
  125967   115286   126377   136129   122319    82347    50927    62141 
   93824   112169   121344   132882   138760   137696   139401   141877 
  142785   137219   122016   114708   112023    99025    95605   105413 
  113672   124718   126370   121977   136942   153604   150782   139536 
  143015   159870   159810   148052   135319   113137    92575    76794 
   68420    72463    80949    93630   110715   138560   170740   178123 
  166495   160101   154301   134710   111830   115908   134654   128694 
  110538   109432   129337   159770   170439   154478   140921   140120 
  140133   130055   118908   123757   130326   123378   125381   148074 
  164122   157877   143163   130279   121886   121548   131706   147401 
  152746   143946   131577   119149   108109    99736    96915   100869 
  104271   106918   110620   115615   120796   117537   114981   126802 
  141125   140529   125231   116685   122741   127549   133278   141247 
  132961   114990   111443   124176   137147   137663   132122   129795 
  130961   134014   125458   110373   117044   139132   152881   156541 
  157967   156973   143631   126135   119404   110977    96957    97605 
  112306   119540   121940   132142   130843   110724   101695   110697 
  119840   125871   134860   147052   150220   142593   142729   143348 
  129033   121223   127186   127552   127385   134734   136422   131686 
  133527   141407   145426   138384   122479   109739   103152    99247 
  100488   106032   115201   124620   128662   136616   148351   150071 
  145253   137718   127834   125529   128704   126848   120846   118411 
  120303   120119   123084   131461   132916   131590   132979   128198 
  118467   109552   106867   108529   106112   109704   122331   126656 
  124999   128334   129450   126294   123731   120988   122122   122982 
  116907   112523   111271   109563   109366   110677   115317   120214 
  120463   122809   131086   135089   129664   124423   127355   133178 
  130791   125631   131579   140082   140917   138702   137279   142203 
  149434   146451   137121   133665   135271   130915   124706   128954 
  136324   137161   134480   135701   142593   144983   140951   137936 
  138585   142956   142694   139152   145059   151220   147324   143974 
  145360   143856   139838   139720   141700   138436   132446   137157 
  147757   144186   136085   138400   135012   125057   125396   126995 
  119970   114344   117221   124792   129020   129499   127477   118197 
  110809   116101   119597   110767   104122   109945   116517   108877 
   96743    98568   104523   102954   105427   111659   110719   108261 
  108479   108603   110787   112317   112150   113367   114638   118280 
  121979   121924   123275   124240   124152   127807   130302   128861 
  129136   133985   137426   134370   130491   127107   123426   125422 
  128855   127158   125758   128364   131615   132849   131398   128476 
  129707   136111   142520   147297   146509   139488   134385   135132 
  141839   146474   140284   135411   138363   137406   135079   136898 
  136399   133239   129073   127366   130704   128831   122179   121610 
  124875   127983   129692   129661   129882   128676   131414   139253 
  137106   130462   135243   138914   131533   125170   125836   129004 
  130984   132810   136551   135777   129113   127744   128869   121861 
  112416   110305   116784   123735   125038   128345   131669   124514 
  118991   123958   126237   124639   126013   127339   128806   130787 
  131549   132660   130783   126924   126111   124067   121576   123423 
  127530   130206   126078   119538   121623   127073   126708   124142 
  124433   127227   130883   132523   129412   125509   126720   130849 
  133126   133738   133105   129880   125717   124922   126338   122539 
  116553   119051   125366   125587   123767   126220   129179   127952 
  125368   126201   129861   129114   123302   122792   127625   129196 
  127705   128190   131610   131675   128267   129662   131590   128263 
  128147   134347   136709   131684   128656   130245   129681   128238 
  131010   134129   130386   125255   128298   129850   122884   119354 
  122268   124475   124407   124786   127056   128871   129991   131344 
  130698   127580   125817   128082   128246   122152   120455   127844 
  130819   125018   122617   125235   124302   121618   123155   126928 
  127542   124326   120856   119781   122706   128487   131957   129629 
  125678   126703   128532   125432   122931   123202   122965   123099 
  123938   125704   125253   117760   111041   112215   114857   116338 
  121106   126370   125407   121823   123183   126441   126872   127937 
