Origin Time       2016/04/16 01:25:00
Lat.              32.753
Long.             130.762
Depth. (km)       12
Mag.              7.3
Station Code      KMMH14
Station Lat.      32.6345
Station Long.     130.7521
Station Height(m) 70
Record Time       2016/04/16 01:24:20
Sampling Freq(Hz) 100Hz
Duration Time(s)  300
Dir.              4
Scale Factor      3920(gal)/6170801
Max. Acc. (gal)   457.322
Last Correction   2016/04/16 01:24:05
Memo.             
[...]
  -18097   -18104   -18115   -18118   -18106   -18097   -18112   -18125 
  -18120   -18117   -18119   -18124   -18130   -18126   -18113   -18105 
  -18120   -18134   -18115   -18103   -18117   -18107   -18087   -18104 
  -18124   -18127   -18135   -18126   -18113   -18123   -18124   -18124 
  -18130   -18110   -18103   -18125   -18119   -18097   -18097   -18102 
  -18108   -18122   -18128   -18124   -18127   -18129   -18119   -18111 
  -18116   -18116   -18109   -18107   -18101   -18100   -18116   -18124 
  -18119   -18124   -18129   -18122   -18114   -18111   -18108   -18113 
  -18126   -18127   -18111   -18099   -18107   -18118   -18113   -18108 
  -18110   -18111   -18115   -18118   -18116   -18118   -18132   -18142 
  -18122   -18094   -18093   -18104   -18114   -18119   -18121   -18127 
  -18118   -18106   -18116   -18120   -18119   -18131   -18139   -18132 
  -18117   -18100   -18097   -18104   -18108   -18109   -18110   -18105 
  -18103   -18113   -18127   -18129   -18129   -18132   -18120   -18110 
  -18116   -18123   -18126   -18134   -18138   -18118   -18096   -18098 
  -18099   -18093   -18104   -18117   -18113   -18117   -18124   -18111 
  -18101   -18100   -18099   -18115   -18142   -18145   -18134   -18129 
  -18122   -18104   -18083   -18080   -18096   -18112   -18126   -18135 
  -18125   -18108   -18101   -18110   -18126   -18129   -18123   -18121 
  -18117   -18122   -18133   -18125   -18106   -18109   -18113   -18100 
  -18090   -18100   -18125   -18143   -18143   -18129   -18108   -18095 
  -18103   -18116   -18126   -18135   -18129   -18114   -18110   -18113 
  -18107   -18098   -18113   -18133   -18129   -18126   -18133   -18129 
  -18118   -18100   -18084   -18097   -18111   -18101   -18109   -18132 
  -18130   -18118   -18119   -18125   -18120   -18098   -18085   -18106 
  -18130   -18139   -18138   -18128   -18123   -18117   -18094   -18081 
  -18099   -18124   -18136   -18141   -18141   -18127   -18105   -18094 
  -18098   -18097   -18096   -18108   -18119   -18117   -18116   -18123 
  -18130   -18135   -18135   -18137   -18130   -18110   -18093   -18080 
  -18087   -18119   -18145   -18147   -18132   -18106   -18088   -18097 
  -18112   -18119   -18133   -18142   -18125   -18099   -18093   -18106 
  -18114   -18115   -18122   -18124   -18117   -18118   -18114   -18095 
  -18098   -18114   -18117   -18129   -18143   -18141   -18135   -18130 
  -18120   -18108   -18097   -18093   -18090   -18093   -18107   -18111 
  -18114   -18136   -18136   -18110   -18106   -18117   -18119   -18118 
  -18111   -18106   -18105   -18107   -18120   -18135   -18134   -18130 
  -18126   -18108   -18091   -18088   -18101   -18117   -18125   -18130 
  -18137   -18135   -18115   -18097   -18106   -18124   -18119   -18109 
  -18117   -18121   -18111   -18106   -18103   -18098   -18107   -18120 
  -18119   -18120   -18128   -18121   -18098   -18089   -18103   -18122 
  -18131   -18133   -18142   -18151   -18136   -18110   -18100   -18091 
  -18084   -18098   -18116   -18126   -18138   -18145   -18133   -18117 
  -18116   -18114   -18097   -18089   -18101   -18117   -18126   -18130 
  -18125   -18110   -18098   -18099   -18106   -18109   -18114   -18128 
  -18141   -18141   -18132   -18127   -18118   -18104   -18096   -18107 
  -18129   -18132   -18122   -18124   -18118   -18093   -18080   -18091 
  -18114   -18137   -18145   -18139   -18133   -18125   -18110   -18093 
  -18094   -18107   -18114   -18121   -18131   -18124   -18112   -18117 
  -18123   -18115   -18105   -18101   -18108   -18115   -18117   -18122 
  -18127   -18132   -18137   -18127   -18113   -18104   -18088   -18077 
  -18093   -18116   -18122   -18121   -18128   -18136   -18133   -18127 
  -18122   -18119   -18117   -18110   -18105   -18109   -18116   -18118 
  -18115   -18110   -18113   -18122   -18123   -18119   -18120   -18119 
  -18119   -18122   -18118   -18118   -18123   -18108   -18089   -18096 
  -18119   -18133   -18134   -18135   -18134   -18117   -18099   -18099 
  -18106   -18109   -18115   -18122   -18124   -18123   -18123   -18124 
  -18118   -18110   -18106   -18107   -18117   -18127   -18129   -18129 
  -18129   -18119   -18110   -18111   -18111   -18111   -18114   -18117 
  -18119   -18117   -18111   -18112   -18122   -18122   -18112   -18110 
  -18111   -18114   -18116   -18111   -18112   -18123   -18125   -18120 
  -18123   -18129   -18130   -18117   -18100   -18091   -18097   -18112 
  -18118   -18121   -18133   -18139   -18128   -18117   -18115   -18113 
  -18114   -18116   -18108   -18108   -18116   -18115   -18106   -18103 
  -18116   -18126   -18123   -18122   -18125   -18127   -18124   -18111 
  -18104   -18114   -18119   -18111   -18109   -18117   -18125   -18125 
  -18116   -18110   -18110   -18106   -18105   -18122   -18131   -18122 
  -18117   -18118   -18119   -18126   -18128   -18118   -18114   -18118 
  -18115   -18105   -18105   -18117   -18131   -18132   -18120   -18114 
  -18112   -18104   -18104   -18117   -18127   -18131   -18135   -18134 
  -18131   -18122   -18107   -18103   -18113   -18111   -18102   -18107 
  -18116   -18121   -18124   -18123   -18119   -18118   -18113   -18104 
  -18102   -18108   -18112   -18115   -18120   -18125   -18130   -18132 
  -18134   -18133   -18124   -18114   -18111   -18107   -18107   -18113 
  -18114   -18112   -18111   -18105   -18098   -18103   -18112   -18116 
  -18123   -18136   -18140   -18135   -18132   -18122   -18104   -18102 
  -18111   -18111   -18105   -18105   -18110   -18117   -18117   -18119 
  -18127   -18133   -18133   -18128   -18114   -18103   -18106   -18113 
  -18112   -18112   -18120   -18120   -18113   -18111   -18110   -18109 
  -18112   -18112   -18114   -18126   -18141   -18145   -18138   -18127 
  -18111   -18102   -18101   -18099   -18102   -18117   -18124   -18123 
  -18125   -18121   -18113   -18116   -18121   -18119   -18117   -18117 
  -18112   -18099   -18097   -18110   -18122   -18126   -18129   -18131 
  -18130   -18122   -18111   -18109   -18116   -18120   -18118   -18119 
  -18122   -18122   -18118   -18113   -18111   -18109   -18108   -18108 
  -18109   -18110   -18111   -18119   -18127   -18122   -18116   -18114 
  -18114   -18115   -18120   -18124   -18118   -18111   -18113   -18117 
  -18120   -18120   -18121   -18127   -18132   -18125   -18117   -18120 
  -18121   -18111   -18100   -18099   -18106   -18111   -18111   -18109 
  -18115   -18124   -18123   -18117   -18112   -18110   -18115   -18122 
  -18124   -18125   -18122   -18114   -18110   -18113   -18116   -18115 
  -18113   -18118   -18123   -18123   -18122   -18120   -18114   -18113 
  -18117   -18115   -18113   -18119   -18125   -18126   -18120   -18110 
  -18107   -18113   -18116   -18113   -18113   -18117   -18122   -18121 
  -18113   -18106   -18104   -18109   -18118   -18121   -18121   -18126 
  -18127   -18118   -18113   -18117   -18116   -18114   -18119   -18130 
  -18131   -18117   -18107   -18108   -18105   -18102   -18110   -18120 
  -18125   -18128   -18129   -18123   -18113   -18105   -18105   -18111 
  -18114   -18114   -18114   -18116   -18120   -18121   -18119   -18120 
  -18120   -18116   -18118   -18123   -18124   -18122   -18118   -18116 
  -18116   -18109   -18104   -18109   -18113   -18113   -18114   -18114 
  -18113   -18113   -18119   -18128   -18128   -18123   -18119   -18117 
  -18113   -18109   -18114   -18124   -18125   -18122   -18119   -18117 
  -18114   -18110   -18109   -18113   -18117   -18119   -18120   -18120 
  -18120   -18119   -18112   -18104   -18106   -18112   -18109   -18112 
  -18125   -18126   -18119   -18116   -18117   -18113   -18110   -18110 
  -18112   -18114   -18118   -18120   -18117   -18116   -18118   -18113 
  -18106   -18110   -18116   -18120   -18123   -18124   -18124   -18123 
  -18124   -18122   -18118   -18119   -18123   -18122   -18117   -18114 
  -18112   -18108   -18105   -18107   -18111   -18116   -18122   -18122 
  -18117   -18115   -18116   -18116   -18113   -18114   -18116   -18115 
  -18115   -18113   -18109   -18116   -18124   -18120   -18116   -18116 
  -18115   -18113   -18116   -18120   -18119   -18115   -18116   -18120 
  -18123   -18127   -18125   -18117   -18113   -18112   -18109   -18112 
  -18119   -18121   -18117   -18114   -18111   -18109   -18110   -18114 
  -18118   -18121   -18121   -18117   -18118   -18121   -18121   -18121 
  -18122   -18120   -18118   -18112   -18110   -18116   -18118   -18114 
  -18115   -18120   -18121   -18120   -18121   -18118   -18111   -18109 
  -18112   -18113   -18115   -18119   -18120   -18120   -18120   -18115 
  -18109   -18108   -18111   -18121   -18124   -18121   -18126   -18129 
  -18121   -18115   -18113   -18112   -18113   -18114   -18116   -18118 
  -18117   -18116   -18116   -18114   -18113   -18114   -18115   -18118 
  -18121   -18122   -18120   -18115   -18113   -18113   -18110   -18113 
  -18120   -18118   -18117   -18118   -18113   -18108   -18109   -18112 
  -18117   -18118   -18113   -18111   -18117   -18123   -18122   -18119 
  -18118   -18119   -18121   -18119   -18115   -18116   -18116   -18112 
  -18110   -18113   -18115   -18117   -18123   -18126   -18119   -18114 
  -18117   -18115   -18112   -18116   -18123   -18124   -18119   -18117 
  -18122   -18120   -18113   -18117   -18139   -18169   -18187   -18168 
  -18107   -18054   -18091   -18222   -18313   -18193   -17894   -17781 
  -18203   -18921   -19148   -18357   -17195   -17108   -18423   -19825 
  -19676   -17269   -14792   -15829   -19445   -21565   -20876   -17897 
  -14909   -15397   -17908   -19241   -19519   -18570   -18099   -19488 
  -18402   -14620   -12273   -13018   -19357   -25902   -22005   -11763 
   -7394   -13609   -24724   -30619   -29197   -24164   -19036   -16700 
  -13443    -7632    -7477   -14726   -22170   -27144   -29708   -27604 
  -21200   -18659   -23270   -22185   -12728    -7429    -4501     -545 
   -3879   -16989   -35041   -46638   -43396   -30053    -8442    12922 
   16112     8207     -954   -21524   -40884   -36535   -21945   -18221 
  -21787   -22560   -21603   -24410   -25786   -18424   -14512   -23018 
  -32830   -40063   -40630   -27387   -13911    -6668     1419     3282 
   -5719   -21778   -31855   -14557    13766    10444   -22717   -47505 
  -47244   -35695   -26604   -16426    -1204    12215    16654     3781 
  -23994   -43123   -47153   -53275   -58720   -49982   -35824   -30941 
  -27774    -8785    15027    10866   -17130   -26656   -13163   -10143 
  -22965   -36769   -40052   -29804   -20704   -19918   -21499   -21150 
  -19701   -27921   -41303   -46986   -56041   -63008   -41594    -5347 
   14096    18920    22613    22272    14150     1939   -15823   -41930 
  -68418   -83267   -79371   -62452   -44651   -14711    37470    77771 
   75918    44237     -709   -50567   -88356   -95493   -72347   -45973 
  -34151   -22124    -3344    10893    10929   -16123   -55632   -64106 
  -38520   -14191    -4204     1919    12822    25505    27762    20473 
   19379    29299    29984      444   -33669   -34408   -18823   -13987 
  -10291     2467    21572    44432    58686    36088   -26000   -76514 
  -81535   -75945   -93323  -103637   -69399   -13609    31140    71111 
   91586    64292    22610    -2200   -42303   -97544  -118054   -97454 
  -61609   -21830    17190    55400    76934    58534    23089    -1159 
  -24698   -45073   -52663   -50135   -22613    27528    62725    60352 
   26469   -18127   -51296   -54074   -22872    -7072   -43983   -74603 
  -65555   -72883  -102947  -110050   -86644   -40228    19053    64256 
   78715    60029      907   -76973  -115641  -104632   -80408   -47488 
    5790    62778    91176    81199    59521    42524     8657   -48510 
  -94828  -101717   -78331   -56471   -40991   -10664     6209   -45473 
 -136826  -172133  -115320   -46640   -59448  -108678   -87217   -21248 
   -2096   -30436   -62004   -69732   -56253   -65853  -116163  -161064 
 -157430  -117975   -87626   -76961   -64583   -46132   -21347     8377 
   16934     3577      336     2536     3270    30082    84873   128371 
  124095    92130    87399   106134   102627    70254    31086     -725 
  -18373   -20835   -16819   -14592    -3028    40456   111949   170732 
  183464   145718    55792   -56138  -106428   -65620   -19147   -32098 
  -34087    44560   134082   147665    97254    50702    37448     6988 
  -56091   -94997  -110629  -130045  -109196   -25321    75333   147204 
  152726    94046    35932     9523   -36169  -131072  -185335  -114008 
  -15310   -14626   -51307   -39620   -11345    13018    53128   104306 
  154621   186282   191602   190716   173652   116684    46406     3798 
    7891    39145    46321    24267    11626     9823   -10070   -47880 
  -81417  -109746  -136864  -163986  -203370  -226320  -190480  -134354 
 -109120   -83714   -29492    15321    30230    26005     3437   -26147 
  -65314  -115957  -140122  -123429   -79121   -32265   -21165    -5476 
   58518    88962    42987     2352    12048    33017    34982    24235 
    5727    -8755     9667    67312   147583   236799   303316   315183 
  292174   247794   142707   -33202  -210694  -301911  -296036  -244515 
 -171218   -87100   -23000      816     -223     7147     8778   -44949 
 -153705  -252366  -274285  -252352  -266173  -270345  -214807  -191205 
 -228556  -262290  -306551  -359494  -364528  -345578  -342337  -322012 
 -270020  -220718  -169941   -77785    35960   112826   166245   251300 
  340798   361632   322497   273716   213714   133901    52458   -29188 
 -115615  -193583  -273466  -386019  -520462  -637317  -713367  -737993 
 -718646  -686828  -669008  -660819  -624172  -529949  -413417  -328317 
 -265605  -195154  -138580  -128228  -150654  -181341  -211432  -221423 
 -188891  -127563   -85483   -79133   -67854   -30017     5961    20669 
   32642    64574   112882   159437   190162   205265   221643   259497 
  324918   398710   454428   485721   501362   500741   463346   383276 
  292571   214343   145224    97402    91686   123474   174072   222688 
  253805   278841   314835   357520   398820   429477   438112   425036 
  402236   386045   380267   374606   365138   355023   347851   348643 
  353000   346396   333126   331327   333103   317749   277794   207430 
  110198     9289   -68863  -106329  -111900  -118520  -124124   -90617 
  -23571    32050    55909    45794     2502   -48244   -73540   -78879 
  -91816  -113093  -123618  -114213   -88488   -63684   -61172   -82142 
 -114473  -145626  -158075  -148252  -131136  -122867  -135997  -160870 
 -173162  -174201  -186754  -205898  -192359  -137059   -65302    15287 
   98477   170164   227763   263938   273507   268004   246148   195843 
  134790    95744    86681    87937    64525     6961   -54377  -110585 
 -179307  -252063  -311199  -363595  -420268  -477172  -527265  -565135 
 -583034  -581694  -568830  -549699  -529327  -508340  -479273  -427388 
 -351546  -280088  -228835  -186083  -153362  -146212  -159324  -165959 
 -158366  -148545  -130952   -94071   -41273    20906    84458   130231 
  140165   121222    92798    63559    30907   -10006   -45037   -62264 
  -81429  -110579  -134513  -152189  -174156  -203938  -233139  -253802 
 -262186  -252494  -225398  -185980  -148732  -129668  -119635  -118648 
 -139603  -156567  -145168  -122276  -100275   -72744   -31794    20488 
   62917    82699    99758   132969   175498   215640   248763   282429 
  329325   380338   413839   423762   419400   411801   403053   385609 
  354870   318549   289120   274923   268913   245605   194404   130677 
   66474     6349   -51256  -113167  -166651  -190919  -189198  -169828 
 -134817   -99596   -75643   -48882    -4303    55898   122228   186258 
  251424   324204   386513   415345   414599   397688   374145   349702 
  317738   280227   251217   216644   150408    59289   -35274  -126228 
 -212438  -286167  -336777  -358445  -349437  -315979  -276744  -237909 
 -184437  -122654   -72855   -23673    29970    63486    72757    68472 
   51412    27542     3729   -17095   -32237   -49187   -77418  -108064 
 -126934  -143631  -175137  -210606  -232492  -246620  -263878  -289644 
 -326044  -360313  -382999  -405942  -432866  -448824  -445173  -430452 
 -418265  -405435  -381650  -356832  -341889  -328028  -310353  -295399 
 -279017  -248989  -206985  -160055  -108799   -61317   -22955    10232 
   28245    20608    -5381   -41667   -86202  -132016  -159852  -157289 
 -143751  -145935  -156096  -149031  -120308   -76420   -27559     4355 
   14963    34975    90255   161457   215661   255768   292836   316745 
  318815   296498   249508   190647   135551    83208    26644   -16187 
  -14281    26435    76251   130926   198078   263165   292852   266900 
  200432   126501    70665    42595    40652    64280   114920   180158 
  232124   255109   255911   244853   226083   193535   144405   108439 
  118797   160449   197513   219452   235424   256100   278637   286884 
  275439   256166   239259   217347   178163   132599   107281   111451 
  131924   155826   174293   178065   166395   135288    85397    40828 
    7626   -30031   -64444   -81592   -83628   -82507   -98134  -131269 
 -155922  -161195  -156035  -138216  -105382   -68610   -29517    12681 
   41615    51188    56670    62400    62328    62117    65728    66843 
   62379    53835    42659    21468   -22283   -84125  -149417  -208826 
 -250171  -267081  -269078  -262652  -249203  -241168  -251289  -275707 
 -302642  -325006  -341665  -354600  -357275  -337724  -306913  -287140 
 -273513  -249696  -216764  -183893  -161101  -156741  -165096  -173389 
 -179312  -188498  -204076  -218716  -219256  -209699  -207112  -213846 
 -225543  -243738  -262690  -270834  -259313  -225661  -182461  -149481 
 -135126  -133245  -133226  -131367  -131907  -136044  -137962  -135899 
 -133635  -128636  -111053   -76670   -35746     -826    27360    54148 
   83755   113653   132865   137427   135272   132655   132069   138568 
  156360   177090   184058   174498   157537   137711   114220    87427 
   69243    67528    66663    57128    50782    55527    72428   103233 
  140732   177888   218699   258326   287886   312689   334060   342210 
  334654   326059   330579   339433   335122   308403   261882   208144 
  150715    87279    24713   -27811   -56049   -46396   -13493    16129 
   44135    83737   130973   171328   189690   185908   175954   165213 
  150246   133641   115030    94639    77827    61167    36900     2384 
  -46187  -106698  -161432  -192670  -196435  -174009  -129381   -79284 
  -42748   -20309    -6253    -5609   -13264    -9404     5496     9064 
  -12891   -50903   -77090   -84536   -96124  -109229   -96555   -61831 
  -31800   -13816    -4084   -15543   -58168  -109696  -142123  -156331 
 -168557  -181841  -185601  -180390  -182817  -199437  -219559  -233880 
 -242997  -253359  -265695  -264873  -242857  -218814  -204126  -181666 
 -143928  -109808   -90938   -82963   -87679  -102437  -114792  -126722 
 -138805  -130284   -95487   -60089   -38148   -10335    41361   103784 
  149445   162134   139059    91639    41752     5170   -13293   -18848 
  -21916   -26770   -33054   -42337   -60517   -91289  -125077  -146604 
 -147157  -123515   -77500   -18839    36941    72529    79888    67176 
   45385    26662    23532    34277    49354    58831    61687    67767 
   70774    64181    62546    68152    72379    78851    85355    81879 
