Origin Time       2016/04/16 01:25:00
Lat.              32.753
Long.             130.762
Depth. (km)       12
Mag.              7.3
Station Code      KMMH14
Station Lat.      32.6345
Station Long.     130.7521
Station Height(m) 70
Record Time       2016/04/16 01:24:20
Sampling Freq(Hz) 100Hz
Duration Time(s)  300
Dir.              5
Scale Factor      3920(gal)/6170801
Max. Acc. (gal)   402.223
Last Correction   2016/04/16 01:24:05
Memo.             
[...]
   66313    66315    66333    66334    66338    66355    66352    66330 
   66316    66320    66343    66359    66348    66324    66312    66317 
   66326    66332    66348    66356    66334    66317    66330    66337 
   66330    66344    66365    66351    66313    66307    66339    66347 
   66329    66338    66355    66347    66339    66332    66320    66311 
   66314    66336    66346    66319    66315    66361    66382    66357 
   66340    66336    66322    66306    66312    66335    66344    66332 
   66335    66350    66345    66328    66325    66331    66324    66312 
   66322    66354    66374    66359    66346    66353    66340    66304 
   66294    66317    66334    66330    66325    66335    66348    66353 
   66354    66348    66338    66325    66315    66318    66325    66318 
   66323    66355    66366    66342    66331    66333    66329    66332 
   66345    66345    66333    66321    66321    66333    66339    66342 
   66347    66345    66343    66339    66327    66329    66342    66344 
   66338    66336    66336    66341    66353    66352    66328    66293 
   66280    66303    66336    66350    66343    66330    66328    66344 
   66358    66348    66333    66340    66349    66338    66330    66335 
   66330    66325    66334    66331    66312    66311    66338    66360 
   66360    66346    66326    66315    66330    66350    66345    66326 
   66326    66342    66350    66344    66336    66331    66319    66308 
   66314    66328    66343    66351    66348    66347    66351    66344 
   66331    66326    66327    66331    66339    66334    66325    66336 
   66353    66351    66335    66326    66331    66336    66335    66332 
   66325    66326    66341    66342    66332    66344    66362    66355 
   66333    66317    66310    66315    66325    66332    66333    66329 
   66340    66358    66354    66338    66329    66324    66325    66336 
   66347    66347    66340    66344    66358    66348    66318    66297 
   66293    66299    66312    66330    66360    66376    66373    66365 
   66351    66337    66337    66331    66307    66291    66296    66303 
   66306    66326    66356    66366    66369    66384    66375    66330 
   66304    66318    66337    66342    66336    66332    66336    66335 
   66332    66343    66350    66337    66324    66320    66332    66344 
   66332    66319    66329    66339    66342    66343    66343    66345 
   66342    66329    66321    66313    66310    66327    66349    66353 
   66346    66340    66333    66328    66330    66335    66333    66337 
   66352    66348    66325    66326    66344    66343    66329    66321 
   66326    66331    66326    66328    66335    66332    66327    66334 
   66350    66360    66356    66349    66343    66326    66309    66314 
   66326    66333    66339    66337    66333    66335    66337    66345 
   66361    66361    66343    66325    66312    66308    66314    66314 
   66316    66336    66353    66353    66348    66342    66336    66339 
   66345    66342    66332    66324    66325    66338    66346    66337 
   66329    66331    66332    66331    66329    66323    66323    66337 
   66348    66345    66339    66341    66353    66357    66343    66326 
   66309    66300    66310    66326    66334    66342    66354    66363 
   66364    66357    66346    66340    66338    66326    66311    66307 
   66311    66319    66338    66357    66360    66351    66351    66354 
   66339    66311    66310    66329    66331    66327    66336    66346 
   66350    66347    66339    66332    66321    66309    66313    66324 
   66326    66324    66326    66340    66360    66359    66346    66350 
   66354    66341    66331    66331    66325    66322    66332    66336 
   66327    66324    66335    66339    66329    66327    66340    66341 
   66332    66336    66340    66331    66328    66340    66354    66357 
   66340    66322    66326    66332    66319    66309    66320    66337 
   66341    66342    66350    66350    66332    66329    66337    66325 
   66310    66316    66333    66343    66340    66332    66336    66346 
   66341    66336    66342    66345    66334    66327    66333    66334 
   66328    66339    66351    66335    66316    66320    66332    66333 
   66334    66342    66345    66337    66338    66346    66342    66328 
   66314    66313    66321    66326    66330    66346    66361    66356 
   66339    66331    66331    66326    66316    66318    66328    66330 
   66332    66344    66349    66337    66331    66338    66347    66344 
   66330    66323    66330    66332    66326    66329    66337    66345 
   66348    66339    66331    66327    66322    66324    66330    66330 
   66335    66342    66340    66338    66345    66341    66326    66327 
   66344    66352    66341    66321    66317    66331    66336    66336 
   66341    66343    66336    66321    66311    66317    66335    66339 
   66331    66334    66343    66335    66329    66344    66357    66348 
   66332    66324    66322    66326    66324    66325    66336    66344 
   66335    66328    66336    66344    66339    66336    66341    66340 
   66332    66333    66340    66338    66328    66320    66319    66320 
   66323    66335    66347    66347    66340    66338    66337    66332 
   66330    66337    66339    66335    66334    66334    66329    66327 
   66336    66345    66332    66314    66322    66341    66344    66339 
   66339    66337    66328    66320    66323    66334    66339    66332 
   66330    66335    66337    66338    66344    66350    66350    66339 
   66326    66321    66322    66326    66334    66340    66337    66330 
   66326    66324    66326    66332    66339    66343    66342    66339 
   66339    66339    66341    66344    66344    66338    66334    66331 
   66320    66315    66325    66332    66329    66326    66328    66330 
   66331    66339    66353    66349    66328    66319    66323    66329 
   66335    66345    66351    66343    66330    66331    66343    66340 
   66325    66319    66323    66326    66327    66331    66338    66342 
   66344    66342    66336    66332    66334    66335    66334    66332 
   66330    66332    66340    66338    66329    66328    66326    66317 
   66314    66319    66326    66333    66339    66344    66345    66344 
   66344    66344    66340    66335    66333    66333    66336    66336 
   66329    66325    66328    66332    66336    66344    66353    66357 
   66351    66336    66326    66321    66319    66315    66311    66315 
   66329    66337    66339    66340    66337    66335    66334    66330 
   66334    66343    66347    66348    66349    66345    66338    66326 
   66324    66336    66331    66319    66325    66335    66334    66334 
   66337    66337    66331    66326    66327    66329    66327    66332 
   66345    66347    66339    66336    66334    66335    66336    66327 
   66321    66329    66337    66336    66335    66339    66341    66335 
   66330    66333    66333    66326    66327    66333    66330    66327 
   66331    66336    66337    66332    66328    66330    66329    66326 
   66330    66340    66344    66341    66344    66346    66338    66327 
   66324    66329    66333    66331    66329    66333    66336    66334 
   66334    66337    66338    66338    66340    66343    66343    66336 
   66331    66332    66327    66322    66331    66340    66336    66331 
   66336    66342    66340    66336    66335    66334    66331    66329 
   66332    66333    66331    66336    66341    66337    66336    66342 
   66340    66328    66325    66333    66335    66330    66332    66336 
   66339    66342    66342    66342    66343    66342    66337    66330 
   66326    66326    66327    66327    66329    66336    66340    66338 
   66334    66332    66335    66334    66329    66328    66336    66340 
   66335    66331    66336    66342    66339    66341    66349    66347 
   66338    66338    66338    66332    66330    66332    66333    66328 
   66325    66332    66341    66337    66327    66329    66338    66339 
   66332    66330    66334    66334    66326    66323    66329    66334 
   66335    66337    66341    66340    66337    66338    66337    66331 
   66329    66332    66335    66338    66339    66337    66331    66325 
   66323    66327    66332    66337    66338    66335    66337    66340 
   66341    66339    66336    66335    66337    66336    66334    66333 
   66336    66338    66337    66335    66335    66332    66331    66331 
   66331    66332    66328    66325    66328    66332    66337    66337 
   66331    66329    66335    66336    66330    66331    66338    66335 
   66330    66339    66346    66338    66333    66335    66333    66326 
   66325    66330    66335    66336    66337    66339    66340    66336 
   66332    66330    66331    66330    66324    66324    66334    66337 
   66334    66337    66346    66350    66346    66342    66340    66330 
   66320    66323    66334    66340    66340    66340    66339    66335 
   66331    66330    66330    66326    66328    66336    66336    66334 
   66338    66341    66342    66340    66335    66330    66329    66330 
   66334    66335    66336    66340    66341    66336    66338    66339 
   66332    66327    66328    66332    66333    66328    66328    66333 
   66333    66331    66334    66337    66331    66314    66293    66278 
   66285    66331    66390    66377    66262    66179    66255    66385 
   66309    65871    65344    65330    65916    66453    66423    66084 
   66235    66759    66681    66759    67668    66927    64449    64023 
   64853    64311    64691    66515    66665    64505    63206    65952 
   69034    68701    69788    71679    68471    66009    69166    69065 
   63985    62785    62412    55799    49138    49487    55781    62727 
   67845    74585    77107    70015    69947    80744    79436    65139 
   57196    54347    50788    54748    66863    80376    89278    88709 
   86368    83652    71251    58844    54810    52105    51489    50276 
   40219    34471    48735    68832    82213    98593   112848   107307 
   84866    62749    51010    44989    39093    39284    47720    55528 
   61237    72794    88476    98724   102459    99932    81278    47910 
   25792    29202    47120    71307    93013    96282    80442    58197 
   36207    24060    29325    37086    40676    55472    79143    93171 
   99790   117877   138289   130154    96236    61870    33365     8130 
   -4390     4695    24016    39719    53656    67829    77666    86871 
  102813   111058   104980   109624   111161    70329    21743    21110 
   43360    35992     9725     6852    25504    42292    65840   104521 
  135633   144513   146712   153760   143780   103447    72095    71161 
   58361    15726   -22881   -38315   -36203   -19831    11652    51281 
   87787   120508   150701   167385   161250   141212   115008    77293 
   34704    -2149   -32896   -40873    -9032    44006    92391   129374 
  154214   166499   158638   117473    63336    41128    38028    13094 
   -2881    23907    56004    67217    79208   100139    96058    52965 
   21431    19353     3134   -13789    12008    51745    69622    87653 
  119601   133679   107815    70059    51078    34537    10886     6710 
   21834    42622    80154   124851   147846   138584   106897    83137 
   72361    35034   -22099   -43424   -26001     6339    64012   138990 
  178519   156422   114143    93078    75832    33273   -15123   -32412 
  -26051   -13946    25430    94590   135529   118692   103764   123249 
  109518    36633   -24099   -30790    -2394    38193    80905   130343 
  180666   200151   190870   189986   180259   128307    67341    20956 
  -28954   -62935   -50418   -16054     5577    28933    69878    97421 
  107263   138206   181206   200581   187701   147612   109856    85804 
   39731   -20147   -37851    -6300    21393     7299   -19677   -14851 
   25287    73982    95688    91563    91867    79170    20686   -53751 
  -90272   -90853   -98349  -116838  -111578   -61379    24804   107092 
  146863   155538   171034   169397    84217   -50966  -116420   -89168 
  -63135   -65177   -27899    36878    62869    77883   132387   191017 
  192916   143115    87123    38608    -8809   -59966  -103727  -104651 
  -60966    20723   161434   312698   382225   356313   285328   212443 
  142978    84179    49640    11952   -21784     4369    70269   111579 
  115304    88207    57515    78850   130101   134358    97869    49593 
  -13662   -53359   -36962     8018    63059   148323   249275   282418 
  216992   136642    80109      183   -80711   -88796    -8979    98104 
  132973    88865    41538    20094    49198   125116   170636   171917 
  172257   158803    90715   -30803  -118731   -91895   -13020    22246 
   11517   -14802    -6727    60067   111278   119317   166271   269934 
  348958   329923   228768   151208   139730   124595    75319    27285 
    6663    11317    17377    22169    22527   -14760   -69255   -92562 
 -101356  -111739   -88615    -9577    97077   170669   173374   112840 
   22284   -43398   -65931   -59030      823    89790   145174   198104 
  284741   359638   408760   464162   510275   513587   489317   460338 
  405159   309363   215986   143305    57290   -22356   -45069   -19891 
   32588    95210   108895    92253   161238   254045   205812   104582 
  104340   160220   210803   249571   260227   252257   226830   159892 
   72669    21768    20210    28980    23485    29848    86558   191739 
  297312   362158   398851   420177   399952   338338   266231   192453 
  112483    22962   -80846  -199873  -331676  -461374  -552433  -566786 
 -498587  -390642  -306342  -258355  -186890   -71012    23253    84367 
  166450   261655   324591   330138   286643   228802   144240     3037 
 -157538  -291474  -394809  -471371  -522317  -537144  -495965  -415924 
 -343593  -299869  -271669  -237326  -207428  -216215  -247359  -244590 
 -189001  -108385   -34376    24002    65991    97114   131941   168462 
  208387   268727   328667   344150   317570   275398   209223   117516 
   45845    14507     1395    15678    68057   123796   170846   222513 
  258045   272083   296317   316858   288095   216646   138228    67500 
   10785   -32022   -81365  -145692  -197890  -226189  -241768  -233685 
 -193047  -118170   -10405    75943   111924   166832   256010   303941 
  304606   304038   298695   282216   285878   337645   431126   519292 
  554829   549187   535351   503987   437216   352762   284579   242544 
  205108   161562   130092   116626    99948    66398    27091    -3965 
  -30801   -53485   -52317   -28324   -14500   -21018   -20692   -14094 
  -40317   -97582  -143215  -159960  -163537  -181669  -217551  -243654 
 -253630  -258006  -253773  -248898  -256251  -261628  -242087  -182372 
  -80802    28314   105018   151782   187334   215076   232183   232412 
  216924   210095   231817   263489   280136   291120   305746   312675 
  309362   289528   241620   178082   108504    30972   -39386  -104108 
 -188273  -277676  -332260  -345682  -327619  -270626  -169370   -41311 
   89302   211730   311414   371387   414456   466119   503585   506385 
  479045   438433   412426   399473   374091   324441   247117   152054 
   57774   -15468   -42677   -36583   -44903   -75791  -100023  -111401 
 -123870  -135791  -125552   -76982    -9338    41284    59719    45897 
   17298    -3562   -33431   -79048   -95530   -76469   -63768   -55224 
  -30892   -15735   -29460   -52165   -72446   -98897  -130629  -159365 
 -179229  -184036  -170202  -143338  -114468   -86533   -56391   -16187 
   48967   126609   181768   219767   262001   282111   253513   206262 
  169223   126118    71365    26964    -7387   -44650   -75586   -95282 
 -111813  -111081   -76202   -23926    30841   104406   201209   292814 
  364748   421732   447581   433987   403716   370055   341117   326438 
  310768   277191   233926   202654   187849   164907   130121   108060 
   96220    80122    78936   119753   179203   205398   198598   201401 
  233579   280677   320598   349774   371083   376689   369002   362919 
  361235   355975   351505   356450   356214   334402   297857   254356 
  207616   165878   126246    80901    33585   -15046   -68643  -117445 
 -145431  -150104  -149168  -160460  -177302  -185846  -185528  -185135 
 -208458  -266240  -324340  -354340  -364532  -363278  -351160  -331321 
 -309416  -294990  -291488  -292440  -284429  -248991  -187829  -130536 
  -97439   -81749   -69193   -66358   -89795  -118857  -123272  -116420 
 -118269  -120665  -106882   -67907   -11787    40199    78372   110777 
  141589   159465   150207   122334    94936    57420    -6206   -80540 
 -139307  -164972  -157730  -131240   -87942   -23445    54910   139705 
  226255   302023   361148   398548   399689   373991   348281   322307 
  279472   223396   175457   146720   135699   144297   167193   185389 
  185500   165155   129713    92320    62346    44971    53284    89666 
  130341   164555   204423   234607   230574   210002   195704   186556 
  173883   137619    78322    40146    42389    51585    51396    64802 
  103010   144260   160844   154871   145823   119915    49487   -45608 
 -117374  -149235  -154709  -143316  -119794   -94757   -73759   -55583 
  -39605   -15325    25080    60410    68774    61877    62857    69698 
   62622    48447    50358    56493    45398    34017    48839    83556 
  114713   139414   169852   200677   214586   209270   193203   171314 
  145834   119776   102286   106746   132543   160819   181597   210326 
  257220   307033   349975   385494   404345   405992   386163   327610 
  248228   182080   120362    41917   -48722  -137994  -218465  -291580 
 -357295  -404701  -424533  -411454  -354952  -254946  -135572   -27239 
   54645   120991   191703   260444   306933   324154   320326   307595 
  275779   214105   142026    74152    15388   -28131   -70245  -118766 
 -156875  -178297  -189448  -190179  -176493  -147378  -116173  -103684 
 -104237   -88256   -47849    -3225    41220    97408   152977   188646 
  207377   211809   203587   195572   194545   193751   176233   135208 
   87232    36255   -29597  -103387  -169270  -219811  -249293  -248556 
 -214182  -152159   -66565    17449    61239    75992    91515   100659 
  103425   121648   154477   181915   197399   209221   220955   225887 
  226727   234997   243216   239573   230048   215487   193123   171292 
  155870   151219   156824   161468   164883   171824   172209   159272 
  144198   145103   167332   192277   206833   226166   251498   258666 
  250475   247438   247005   246329   253865   265905   264006   225755 
  150981    75092    22640   -22680   -67717   -82297   -57563   -27378 
   -6122    23565    63008    99571   129104   148705   152073   134212 
   99654    55757      -64   -63403  -116265  -148648  -161419  -156468 
 -139018  -116780   -95445   -78086   -58731   -29545      835    17365 
   17423     9313     -574   -19968   -57283  -102686  -141921  -169336 
 -183153  -182395  -166886  -141285  -114548   -91682   -63691   -12502 
   57999   120359   161536   188650   205689   207037   192165   171703 
  149324   123083    97327    69207    37993    21649    29925    56192 
   97501   149972   205384   254944   291537   317728   336184   346638 
  354256   357073   345582   314107   262348   202099   147775    99084 
   54130    21299     5245      413      800     9439    33235    62273 
