Origin Time       2016/04/16 01:46:00
Lat.              32.862
Long.             130.898
Depth. (km)       11
Mag.              5.9
Station Code      KMMH16
Station Lat.      32.7967
Station Long.     130.8199
Station Height(m) -197
Record Time       2016/04/16 01:45:08
Sampling Freq(Hz) 100Hz
Duration Time(s)  300
Dir.              2
Scale Factor      2940(gal)/6170270
Max. Acc. (gal)   82.578
Last Correction   2016/04/16 01:44:53
Memo.             
[...]
   76290    76319    76340    76347    76294    76277    76311    76315 
   76297    76273    76245    76176    76069    76080    76128    76160 
   76371    76512    76450    76452    76505    76607    76593    76268 
   76087    76431    76963    77035    76675    76463    76255    75951 
   75890    75752    75609    75834    75909    75847    76060    76301 
   76464    76529    76464    76338    76134    76145    76418    76602 
   76749    76779    76526    76273    76244    76482    76675    76597 
   76703    76946    76774    76290    75912    75817    75945    76008 
   75871    75769    75783    75878    76215    76608    76796    76813 
   76471    75994    75993    76331    76608    76762    76746    76565 
   76383    76332    76254    76033    75962    76091    76191    76329 
   76423    76382    76500    76697    76700    76523    76085    75686 
   75909    76405    76597    76677    76948    77249    77080    76375 
   75747    75478    75463    75674    75869    76019    76455    77016 
   77342    77380    76989    76335    75961    75984    76041    75836 
   75615    75797    76315    76894    77256    77103    76489    75910 
   75655    75663    76057    76626    76809    76559    76131    75718 
   75542    75898    76614    76928    76711    76373    76122    76223 
   76540    76620    76402    76015    75785    75957    76295    76582 
   76711    76592    76257    75884    75816    76175    76763    77171 
   77131    76893    76615    76179    75763    75656    75783    75982 
   76202    76329    76492    76772    76773    76454    76307    76415 
   76401    76190    76099    76280    76569    76749    76699    76466 
   76171    75887    75784    75961    76282    76665    76903    76731 
   76417    76240    76135    76088    75890    75541    75606    76076 
   76389    76542    76670    76611    76454    76425    76388    76183 
   75991    75983    76188    76466    76513    76431    76482    76507 
   76413    76370    76421    76438    76343    76183    76023    76027 
   76238    76378    76359    76284    76147    76096    76243    76353 
   76354    76378    76463    76605    76605    76464    76427    76453 
   76479    76469    76330    76252    76316    76233    76074    76037 
   75889    75852    76278    76641    76614    76450    76342    76449 
   76588    76406    76144    76234    76395    76178    75972    76148 
   76238    76089    76129    76368    76520    76491    76444    76526 
   76471    76233    76224    76408    76492    76395    76131    76060 
   76311    76379    76346    76578    76687    76491    76257    76144 
   76233    76363    76376    76422    76502    76339    76097    76162 
   76272    76213    76217    76182    76036    76067    76298    76480 
   76468    76453    76487    76353    76291    76384    76345    76240 
   76201    76334    76592    76631    76452    76345    76277    76200 
   76229    76280    76348    76457    76445    76290    76138    76059 
   76008    76144    76444    76503    76364    76272    76199    76220 
   76306    76189    75969    75933    76065    76240    76419    76729 
   76992    76800    76493    76510    76604    76394    75922    75801 
   76145    76377    76523    76654    76496    76244    76029    75783 
   75761    75997    76338    76649    76534    76089    75970    76342 
   76767    76708    76221    75958    76257    76715    76690    76321 
   76191    76276    76385    76474    76414    76319    76336    76300 
   76199    76185    76272    76396    76413    76358    76437    76503 
   76385    76306    76333    76274    76159    76155    76284    76415 
   76402    76362    76477    76560    76455    76396    76444    76412 
   76388    76420    76302    76101    76073    76160    76198    76331 
   76453    76377    76460    76684    76676    76524    76362    76173 
   76094    76208    76329    76435    76510    76415    76345    76339 
   76260    76253    76265    76219    76350    76510    76428    76387 
   76439    76295    76161    76245    76354    76442    76529    76575 
   76519    76362    76303    76251    76126    76196    76301    76249 
   76262    76377    76501    76563    76505    76337    76150    76110 
   76200    76297    76402    76506    76531    76381    76247    76328 
   76347    76230    76239    76366    76435    76398    76369    76389 
   76384    76304    76181    76129    76218    76490    76693    76448 
   76198    76335    76418    76249    76041    76072    76369    76573 
   76525    76366    76270    76299    76330    76248    76294    76510 
   76439    76247    76379    76542    76477    76378    76322    76367 
   76588    76656    76392    76124    75999    76021    76205    76422 
   76565    76465    76066    75817    76018    76268    76352    76431 
   76407    76306    76278    76275    76334    76429    76498    76521 
   76317    75997    75983    76278    76446    76349    76288    76345 
   76275    76052    76062    76372    76601    76779    76806    76250 
   75604    75526    75933    76544    76799    76578    76448    76332 
   76103    76197    76437    76443    76383    76324    76226    76164 
   76225    76508    76805    76769    76467    76194    76099    76059 
   75979    76086    76438    76711    76678    76462    76358    76328 
   76083    75899    76118    76388    76497    76553    76464    76346 
   76341    76312    76213    76184    76317    76422    76370    76312 
   76323    76384    76402    76342    76356    76398    76362    76390 
   76498    76507    76430    76405    76363    76209    76060    76090 
   76250    76390    76541    76576    76365    76259    76369    76416 
   76391    76352    76325    76316    76244    76268    76444    76497 
   76421    76303    76158    76150    76234    76255    76302    76391 
   76426    76422    76402    76355    76316    76358    76399    76329 
   76279    76274    76211    76202    76311    76426    76468    76469 
   76444    76296    76156    76214    76350    76428    76414    76355 
   76331    76280    76235    76251    76231    76244    76360    76424 
   76389    76364    76371    76357    76345    76338    76284    76254 
   76288    76299    76300    76268    76224    76323    76404    76322 
   76290    76330    76342    76340    76270    76220    76328    76429 
   76400    76360    76333    76300    76294    76343    76441    76499 
   76466    76361    76279    76314    76377    76407    76428    76421 
   76329    76212    76236    76359    76457    76471    76399    76346 
   76304    76233    76211    76300    76439    76418    76277    76276 
   76310    76240    76285    76382    76285    76200    76233    76233 
   76319    76469    76480    76424    76373    76322    76309    76318 
   76299    76236    76252    76395    76456    76351    76174    76146 
   76477    76799    76690    76394    76168    76066    76162    76325 
   76445    76512    76541    76513    76258    75998    76005    76104 
   76278    76490    76530    76417    76348    76386    76337    76210 
   76214    76377    76480    76372    76293    76298    76310    76460 
   76458    76237    76228    76312    76202    76090    76218    76434 
   76479    76420    76337    76146    75936    76023    76403    76631 
   76589    76465    76320    76280    76366    76359    76248    76242 
   76298    76191    76064    76183    76329    76415    76552    76473 
   76235    76093    76092    76340    76534    76492    76485    76420 
   76296    76309    76284    76126    76060    76167    76247    76249 
   76389    76542    76438    76348    76477    76464    76262    76236 
   76323    76329    76376    76419    76287    76116    76119    76201 
   76239    76349    76477    76425    76312    76295    76294    76266 
   76250    76257    76283    76320    76377    76417    76369    76326 
   76342    76299    76268    76433    76629    76532    76236    76125 
   76213    76297    76375    76416    76401    76435    76466    76417 
   76361    76313    76200    76046    76022    76172    76277    76238 
   76258    76408    76523    76535    76424    76254    76208    76333 
   76431    76324    76249    76382    76441    76392    76363    76318 
   76328    76316    76193    76199    76353    76483    76529    76457 
   76327    76198    76186    76312    76367    76347    76348    76384 
   76421    76354    76233    76162    76207    76337    76348    76251 
   76223    76267    76317    76277    76270    76492    76691    76578 
   76278    76051    76047    76127    76191    76343    76455    76432 
   76404    76382    76397    76517    76564    76353    76131    76180 
   76283    76213    76136    76209    76374    76478    76363    76158 
   76203    76452    76637    76645    76403    76129    76245    76560 
   76534    76273    76183    76290    76459    76452    76216    76109 
   76280    76524    76561    76370    76222    76192    76174    76110 
   76098    76294    76534    76620    76570    76379    76152    76071 
   76138    76286    76450    76511    76466    76391    76368    76391 
   76291    76164    76100    76048    76222    76497    76534    76476 
   76534    76553    76347    76173    76253    76331    76276    76238 
   76260    76340    76496    76568    76481    76348    76227    76236 
   76360    76481    76515    76324    76145    76169    76206    76265 
   76291    76207    76250    76373    76421    76510    76533    76448 
   76413    76277    76150    76276    76400    76412    76421    76391 
   76395    76421    76362    76259    76095    76020    76218    76402 
   76437    76493    76524    76414    76197    76111    76223    76313 
   76406    76477    76311    76171    76265    76310    76283    76310 
   76365    76400    76318    76244    76213    76116    76174    76356 
   76408    76447    76528    76550    76542    76457    76234    76074 
   76131    76340    76518    76426    76156    76107    76378    76581 
   76435    76169    76075    76151    76173    76072    76138    76411 
   76602    76616    76425    76205    76252    76326    76189    76139 
   76288    76391    76397    76460    76537    76415    76197    76181 
   76343    76464    76417    76303    76331    76353    76250    76249 
   76315    76338    76405    76395    76226    76136    76188    76188 
   76163    76302    76518    76539    76357    76217    76252    76324 
   76268    76209    76318    76467    76466    76306    76186    76291 
   76382    76276    76217    76257    76346    76482    76559    76651 
   76705    76368    75674    75309    75753    76539    76870    76633 
   76273    75861    75335    75082    75335    75933    76305    75890 
   75588    76282    76483    75320    74612    75396    76519    76866 
   76607    76567    76102    74527    74841    77763    78803    78085 
   79154    79549    75484    72195    76152    81323    80413    75670 
   72462    74011    75544    72779    72306    76803    78625    74651 
   71217    74080    81319    85168    81676    75172    70398    69613 
   71990    75217    80829    84293    77372    68645    69445    74018 
   76412    78480    79013    78937    81962    81866    75957    73540 
   75941    77593    75856    71412    70366    75605    80611    77985 
   70664    69939    77639    82529    79022    74665    75767    81079 
   86295    83679    73793    67806    67523    69096    74680    82093 
   83052    77781    73661    72078    73667    80754    86346    83204 
   75709    69248    67711    74593    80744    79342    80580    84812 
   81989    75473    72613    74350    77638    75576    70401    72129 
   75638    73434    75664    82844    78060    65083    63772    73169 
   81336    84165    83317    84977    85612    77724    68491    65422 
   68973    74403    75262    74633    77307    80040    78243    75721 
   75229    75429    79678    80375    73848    75160    80610    78192 
   76006    78687    83789    84584    73040    64841    68359    67481 
   65521    71323    76270    78551    80207    77165    76986    84712 
   85092    80682    87160    95452    94118    83004    68762    65340 
   75550    84282    80218    70147    62704    61832    63070    65583 
   75246    70875    56747    67459    82878    77162    67239    65554 
   72207    88730   103880   109057   119463   124505   103793    86796 
   90780    95234    92702    75311    47515    40146    55282    69175 
   61227    49788    69421    82382    72089    82935   102935   106554 
   93335    61111    40001    52898    74106    86948   105212   131935 
  141812   120777    98256    88694    75223    76151    94019    81899 
   47307    42130    60881    48916     1945   -11350    27378    54905 
   47107    55312   109666   154657   139214   100560    95024   106299 
   92569    82711    97377    92266    64817    54773    68442    76351 
   65318    58743    66331    85195   102744    94631    80003    85406 
   91974    81867    66416    63855    82666   113484   128414   120766 
  113098   114942   122205   118966   104933   109530   116124   101526 
   88845    73248    56479    62753    71340    64455    57102    61591 
   76665    85513    77316    58334    39756    31951    37288    50727 
   65760    81346    91137    74815    40770    26908    36412    47557 
   57630    61374    53808    52917    58797    55612    47171    26736 
  -12458   -40406   -32225    -9005    10229    39154    61058    45035 
    6980   -28456   -52546   -47221    -8447     9258    -9078     7196 
   57554   104151   172246   237721   249636   242503   248189   230230 
  182666   144242   122119   123338   147196   156712   161709   178873 
  174368   148715   130208   124012   129259   138133   131661   101792 
   58697    14268   -18604   -24480     2414    43834    56981    28504 
  -12820   -45888   -46659    -4345    49397    91002   112443   112041 
   98151    65986    30163    22717    34232    33407     6200   -32422 
  -51331   -41610   -22782   -13158    -1531    27099    60670    84541 
   89545    72204    42762    13678     4672    34663    87601   130421 
  153477   159887   149970   132091   116697   106367   112190   139494 
  165561   184135   208691   219822   193278   145685   112453   111040 
  125076   132520   134097   134535   133648   134350   141425   146132 
  130025    93303    47321    13780    17462    54730   109242   153586 
  152390   113427    79685    62586    33062   -10589   -36205   -39364 
  -15870    49043   113664   125177    80839     5150   -54809   -76309 
  -79807   -71282   -55947   -40434    -1892    66594   131160   168679 
  174195   134156    71990    39372    41156    65063   102480   125753 
  132272   142232   148615   139012   115832    74170    18288   -18298 
  -16097     5548    31774    64203    98322   130041   149481   140724 
  107669    70138    47885    49342    64815    82447    97953   108463 
  118118   130697   131613   117179   105908    99625    94899    94899 
   90720    80018    68547    55293    42333    38561    50211    68207 
   77434    77058    75374    73096    67600    68182    80132    88095 
   80791    67732    60446    61341    64511    60144    54534    57363 
   58282    50658    43637    47367    64511    87863   104447   106247 
   95284    76292    60634    60443    71294    85411    96312    95120 
   86088    79879    82405    94825   106035   106183    99417    92467 
   90596    93567    94797    93907    89518    71579    46380    36281 
   46420    64502    77989    83146    84454    79759    66089    51151 
   41920    38678    38570    41181    49264    61681    73190    81061 
   88117    96030   100813    97855    88336    82902    89189    98817 
  101644    97161    90344    87087    85733    83045    83875    90686 
   98778   104445   110670   122416   133175   129560   113856   101473 
   99293   101755   100430    97450    99905   101842    97341    86830 
   72083    66515    73473    78383    78564    78112    75120    66461 
   54697    50089    53039    54872    56298    60569    65428    69350 
   72534    74379    73333    68533    62338    58608    59652    67380 
   80951    92148    95738    98072   100071    94944    85236    76399 
   72066    75001    77857    74602    71922    75545    81061    81883 
   79530    78601    78094    77954    80347    80405    72749    61886 
   54258    51204    51498    52747    53319    52275    50944    54619 
   62872    68971    69806    65452    60019    58897    62573    69801 
   75207    75443    78234    85179    87555    84727    81523    76891 
   69620    65286    68141    73413    77147    79766    79174    76558 
   76489    78143    78053    77320    79408    83600    88858    91851 
   87401    82054    80687    76905    71314    69107    70123    73318 
   77744    81014    80786    76186    68904    62409    58867    58873 
   62005    67376    74978    81795    82841    80099    77683    74341 
   71810    73120    76357    80997    83779    81599    80558    80579 
   77417    76950    78641    75316    70496    69283    72869    81001 
   88570    91689    88701    79501    70417    65706    63124    64218 
   70248    73943    73783    75875    79915    83914    85459    81493 
   75624    71948    71454    72814    73282    73593    73648    70416 
   63229    56370    55658    59940    65329    72079    78968    83963 
   85307    82161    79630    79033    76194    73721    74148    74361 
   73928    74320    75881    79945    85171    85323    78933    71269 
   66030    65291    67856    69972    71483    71571    68239    64144 
   64025    66842    68804    71906    74854    74250    75648    79743 
   80310    78842    78815    79115    78570    77703    77465    76328 
   73210    70815    69695    69081    70627    72118    71001    70520 
   71254    72221    73681    73320    72723    74766    78306    81992 
   82824    80036    77590    76579    74576    72247    73577    78151 
   81061    82194    84552    85388    84261    86813    89990    88613 
   86026    82286    77335    76479    79263    82920    87587    91061 
   92251    91326    87266    82747    80699    80318    81917    85426 
   86775    84123    80277    76609    73654    72545    72914    73661 
   73373    73454    75309    76408    77575    80153    82444    83959 
   82644    78360    74406    72770    74280    76104    76156    76060 
   74572    71609    69223    67414    68735    74032    79324    83154 
   83864    79641    73956    70014    68161    67350    67253    69837 
   71982    70479    70106    73160    78252    83608    85093    83176 
   81629    82181    85298    86449    81748    75070    71203    70443 
   70782    72158    74403    76332    79196    82316    83413    83972 
   84226    80443    74121    70575    68285    66635    68832    73031 
   77085    79990    80818    80473    79453    79656    81156    81510 
   80677    78944    77665    78459    79172    77196    74148    71978 
   69193    67821    70950    74503    75935    77535    78146    77388 
   78546    79716    77897    75088    71230    66894    66335    68344 
   68458    68173    70270    72851    73507    72839    72736    73271 
   73767    73674    71590    68624    68076    70525    72725    72941 
   73745    75967    76916    75071    71905    69574    69258    70856 
   72990    75303    78259    80686    80575    77719    74912    75383 
