Origin Time       2016/04/15 00:03:00
Lat.              32.700
Long.             130.777
Depth. (km)       7
Mag.              6.4
Station Code      KMMH14
Station Lat.      32.6345
Station Long.     130.7521
Station Height(m) 70
Record Time       2016/04/15 00:03:48
Sampling Freq(Hz) 100Hz
Duration Time(s)  271
Dir.              5
Scale Factor      3920(gal)/6170801
Max. Acc. (gal)   323.927
Last Correction   2016/04/15 00:03:33
Memo.             
[...]
   66396    66438    66491    66449    66358    66358    66406    66391 
   66340    66312    66306    66287    66249    66262    66338    66393 
   66409    66422    66428    66428    66413    66368    66305    66225 
   66169    66205    66286    66336    66355    66358    66349    66350 
   66371    66399    66413    66395    66359    66343    66346    66351 
   66378    66399    66328    66208    66170    66222    66289    66341 
   66384    66413    66402    66378    66382    66375    66336    66323 
   66329    66297    66272    66300    66341    66387    66423    66392 
   66336    66317    66326    66348    66321    66259    66260    66280 
   66298    66353    66407    66464    66497    66424    66297    66215 
   66202    66259    66354    66413    66410    66396    66408    66399 
   66344    66281    66259    66295    66350    66373    66379    66386 
   66398    66409    66385    66311    66253    66267    66307    66300 
   66273    66274    66296    66325    66339    66356    66391    66401 
   66408    66434    66407    66340    66319    66353    66384    66365 
   66327    66313    66302    66286    66266    66250    66259    66289 
   66321    66343    66358    66381    66428    66473    66470    66444 
   66444    66436    66380    66294    66195    66129    66152    66227 
   66313    66405    66460    66449    66385    66291    66224    66239 
   66328    66421    66438    66398    66383    66357    66266    66185 
   66193    66260    66325    66384    66433    66436    66422    66426 
   66410    66370    66357    66375    66378    66342    66295    66267 
   66252    66242    66247    66252    66237    66258    66351    66432 
   66439    66418    66421    66439    66416    66352    66315    66316 
   66325    66339    66349    66348    66353    66362    66364    66345 
   66298    66269    66290    66318    66316    66316    66360    66425 
   66452    66441    66404    66346    66319    66333    66344    66336 
   66328    66339    66359    66338    66276    66233    66227    66236 
   66261    66298    66329    66361    66401    66425    66432    66427 
   66414    66392    66338    66281    66275    66301    66317    66316 
   66315    66327    66331    66326    66316    66298    66312    66352 
   66381    66385    66348    66328    66380    66435    66438    66397 
   66339    66311    66304    66272    66246    66270    66312    66343 
   66371    66399    66418    66435    66436    66408    66356    66278 
   66225    66241    66275    66297    66318    66353    66408    66416 
   66368    66340    66348    66346    66311    66279    66292    66318 
   66312    66281    66251    66250    66283    66350    66427    66456 
   66457    66466    66453    66408    66347    66284    66254    66264 
   66291    66311    66305    66311    66355    66387    66366    66321 
   66311    66335    66336    66322    66327    66351    66375    66371 
   66343    66329    66336    66354    66367    66361    66347    66334 
   66338    66358    66360    66330    66310    66325    66330    66304 
   66297    66328    66363    66371    66360    66347    66350    66375 
   66396    66378    66337    66319    66332    66343    66342    66335 
   66339    66355    66361    66345    66310    66294    66321    66325 
   66296    66281    66282    66298    66319    66334    66348    66359 
   66385    66421    66419    66380    66348    66341    66323    66272 
   66249    66287    66348    66397    66412    66397    66369    66339 
   66342    66366    66363    66350    66357    66375    66382    66349 
   66303    66295    66303    66287    66250    66226    66244    66292 
   66346    66372    66368    66380    66396    66384    66369    66367 
   66367    66366    66368    66359    66332    66328    66367    66369 
   66305    66265    66305    66352    66331    66313    66354    66362 
   66331    66334    66329    66278    66252    66300    66356    66350 
   66342    66373    66379    66353    66331    66297    66276    66342 
   66436    66447    66412    66441    66497    66461    66360    66289 
   66267    66266    66264    66258    66240    66252    66323    66374 
   66380    66383    66369    66353    66388    66436    66387    66268 
   66237    66289    66290    66264    66322    66433    66466    66417 
   66390    66367    66327    66317    66311    66290    66289    66302 
   66322    66343    66359    66371    66334    66271    66264    66279 
   66295    66350    66393    66396    66395    66389    66349    66284 
   66265    66310    66358    66370    66379    66395    66356    66315 
   66344    66345    66305    66307    66334    66351    66371    66396 
   66376    66298    66252    66281    66317    66352    66425    66460 
   66416    66366    66323    66254    66215    66285    66383    66382 
   66343    66365    66398    66385    66353    66322    66282    66281 
   66339    66354    66301    66295    66379    66462    66452    66374 
   66302    66281    66308    66319    66311    66332    66332    66300 
   66294    66320    66372    66410    66394    66349    66294    66248 
   66266    66330    66346    66312    66315    66375    66426    66445 
   66452    66422    66366    66320    66283    66268    66284    66332 
   66375    66346    66306    66325    66319    66261    66251    66308 
   66361    66377    66389    66411    66381    66303    66294    66337 
   66330    66322    66374    66430    66431    66374    66304    66294 
   66329    66326    66288    66269    66278    66326    66382    66379 
   66334    66303    66318    66376    66390    66336    66338    66397 
   66392    66347    66318    66281    66275    66316    66336    66330 
   66352    66413    66440    66387    66353    66378    66338    66261 
   66294    66357    66322    66271    66302    66360    66341    66275 
   66279    66334    66350    66340    66361    66393    66394    66363 
   66325    66328    66379    66412    66379    66328    66336    66361 
   66313    66260    66286    66324    66320    66332    66378    66413 
   66414    66382    66355    66341    66298    66256    66280    66342 
   66347    66284    66262    66323    66380    66365    66327    66334 
   66365    66377    66379    66363    66315    66287    66323    66379 
   66389    66379    66415    66445    66400    66318    66253    66248 
   66312    66344    66292    66257    66283    66322    66358    66396 
   66414    66397    66389    66393    66331    66251    66270    66340 
   66359    66329    66289    66287    66319    66344    66359    66369 
   66397    66438    66415    66338    66277    66248    66266    66333 
   66371    66334    66296    66301    66327    66348    66360    66380 
   66402    66378    66316    66287    66320    66384    66434    66439 
   66385    66326    66338    66367    66335    66298    66283    66272 
   66294    66320    66322    66348    66392    66414    66406    66392 
   66405    66403    66330    66247    66237    66271    66298    66329 
   66335    66281    66237    66277    66368    66439    66449    66404 
   66365    66343    66307    66272    66272    66313    66358    66367 
   66361    66345    66292    66269    66335    66395    66385    66369 
   66369    66372    66384    66377    66342    66323    66328    66319 
   66265    66217    66265    66349    66369    66380    66422    66432 
   66403    66379    66366    66317    66261    66279    66307    66254 
   66232    66329    66432    66443    66406    66393    66382    66333 
   66284    66256    66245    66290    66372    66402    66379    66368 
   66370    66363    66346    66310    66304    66357    66381    66343 
   66312    66290    66262    66261    66299    66339    66361    66406 
   66470    66469    66395    66321    66269    66246    66263    66315 
   66367    66389    66380    66354    66333    66323    66296    66273 
   66285    66318    66363    66387    66391    66403    66372    66303 
   66276    66287    66300    66313    66332    66362    66391    66419 
   66438    66421    66385    66353    66320    66289    66283    66327 
   66352    66298    66272    66305    66324    66333    66344    66336 
   66315    66292    66320    66391    66402    66376    66375    66369 
   66353    66319    66257    66241    66298    66352    66359    66346 
   66323    66299    66318    66359    66379    66394    66426    66454 
   66425    66357    66337    66346    66320    66273    66231    66223 
   66262    66328    66380    66377    66347    66347    66367    66371 
   66358    66356    66372    66373    66344    66315    66312    66332 
   66357    66359    66354    66362    66356    66352    66379    66377 
   66326    66293    66288    66286    66291    66302    66314    66332 
   66346    66349    66335    66325    66351    66366    66339    66327 
   66351    66371    66356    66333    66346    66377    66379    66355 
   66326    66303    66311    66342    66350    66331    66323    66326 
   66337    66362    66375    66360    66340    66329    66319    66297 
   66290    66329    66378    66386    66351    66308    66305    66346 
   66361    66331    66325    66359    66372    66372    66386    66364 
   66304    66291    66326    66328    66306    66317    66355    66374 
   66339    66291    66282    66288    66320    66358    66343    66318 
   66361    66422    66411    66370    66366    66366    66324    66270 
   66279    66329    66355    66391    66418    66369    66296    66274 
   66287    66315    66348    66354    66345    66358    66365    66361 
   66357    66345    66380    66418    66355    66274    66278    66321 
   66344    66340    66329    66330    66323    66306    66332    66371 
   66354    66355    66389    66357    66295    66295    66333    66358 
   66353    66330    66323    66323    66305    66317    66346    66335 
   66328    66314    66234    66128    66126    66406    66832    66856 
   66428    66389    66787    66256    65019    65087    65806    65245 
   64777    66078    67981    68988    68775    68312    68236    66411 
   62437    60263    60481    60274    60997    64315    68411    72503 
   75946    77365    77278    75539    70400    62003    53122    46438 
   41705    37690    37317    45611    60409    73109    81757    91897 
  101677   102127    94702    88461    82624    72553    60835    50904 
   45018    45257    47315    45846    44726    48219    53602    59804 
   67379    73053    72639    65428    58720    60698    66108    66733 
   68061    74777    78385    75654    74984    78989    81806    79286 
   74023    73899    79923    82839    80099    76611    67645    47477 
   28079    23260    27881    32631    40275    55888    76102    89892 
   90572    90058    98845    97580    70948    42356    35239    45008 
   56867    57796    51667    51880    50808    44292    49540    66405 
   82265    94519    96921    93151    99622   110244   114180   120419 
  120974    93164    43644    -2261   -29609   -37213   -35546   -31662 
  -18080     9421    40899    67992    93180   116747   131994   135439 
  125831   109725   104662   108638   100380    82515    75655    79995 
   78811    61600    32349     2147   -24198   -41916   -42139   -26895 
   -2753    31208    74504   122666   170148   206370   218717   203255 
  161888    94378     9467   -66988  -105470   -91495   -38422    17998 
   50620    59803    56163    51342    62595    94378   124957   138118 
  146002   151563   140195   122055   117794   121781   111961    77639 
   38646    18688     6744   -13401   -27798   -23888   -10201    10349 
   33873    51699    80384   124961   153721   164108   185252   214163 
  218532   191572   162462   139520    96994    32098   -24627   -60685 
 -101989  -154107  -171376  -129627   -58108    17024    94550   165137 
  197060   171397   104705    27345   -28433   -30932    20205    77821 
  104134   111929   125766   163613   220995   251566   239228   211243 
  157057    69502    -4302   -42494   -70475  -101562  -126249  -125521 
  -80834    10304   133083   266041   375524   416693   394102   353442 
  270284   105075   -69890  -173231  -218346  -225814  -191195  -128425 
  -48525    36793   104861   157488   207390   250236   275042   274857 
  257087   242722   250102   273077   270273   215422   126983    22202 
  -72040   -97355   -38375    45135   100665   129423   152800   182894 
  207740   232519   299479   387664   431399   449417   471584   455938 
  399482   345455   298249   252541   204600   148848    89411    -1185 
 -128284  -209505  -191822  -135306  -102504   -66442    13855   131317 
  259033   374015   484331   571968   549528   392262   186507    12384 
 -112664  -191387  -229644  -239779  -221325  -192689  -178320  -161180 
 -136051  -129580  -172035  -260892  -328148  -342818  -357630  -369361 
 -314288  -204769  -108439   -51767   -17577    20899    58278    59006 
   19345   -32235   -91240  -181372  -292233  -368850  -380214  -333147 
 -259555  -201220  -164077  -147413  -162930  -181028  -163995  -118539 
  -57495    21081   111608   199627   265027   294371   313423   352836 
  385914   384933   379278   385205   380526   360628   323221   253912 
  160264    51830   -69190  -180563  -261926  -305133  -294923  -225931 
 -123446   -28738    36230    83869   132764   175153   193586   198823 
  213343   234952   247635   241870   210179   151876    87909    38202 
   -2050   -36136   -54004   -54001   -45739   -42420   -53990   -76434 
  -98354  -112363  -111175   -93505   -65521   -17865    58753   141967 
  219492   306061   394723   473763   541899   576263   570835   553349 
  531541   501256   471217   442198   406112   361351   309094   243395 
  158222    64930   -15616   -76621  -125231  -165718  -196170  -218021 
 -234589  -248475  -267751  -291100  -296029  -272784  -241793  -215459 
 -184401  -148669  -122371  -106412   -84591   -49181   -12021    18650 
   58642   121676   193710   259444   313278   342551   338947   303168 
  236824   152631    69418    -3951   -62065   -99071  -121433  -143192 
 -164516  -177365  -181004  -168483  -128730   -66758    12964   110953 
  208391   282707   328803   354414   375425   396892   411172   418218 
  416127   398514   368770   329664   281988   233001   181920   121192 
   56291     1369   -35329   -56362   -72824   -90068   -97164   -82145 
  -47768    -4906    36785    76107   120157   166676   196694   193405 
  162185   120619    73362    19249   -29864   -59382   -66377   -60386 
  -53888   -48030   -39859   -34126   -33247   -34484   -36627   -38727 
  -39067   -37583   -42112   -61099   -86679  -104510  -110601  -111361 
 -115480  -118319  -108461   -90987   -74521   -50356    -8995    40697 
   79826    99558   108967   118388   126755   136956   157111   181304 
  199179   211585   217921   211848   194442   175049   160273   147214 
  131595   117577   109682   108774   120024   146582   181520   215956 
  244071   259879   259800   249076   235190   215883   189421   163194 
  137134   105316    72554    44077    18134    -1172    -7524    -3291 
    7402    23976    45936    73142   105715   140911   173031   196215 
  207006   206786   201100   192778   180456   167444   159000   150436 
  134747   115080    98529    88849    87348    90785    91492    84923 
   71962    54892    36602    20603     9376     3654     1174    -3833 
  -13242   -18748   -16325   -16020   -19130   -13424    -2627    -2501 
  -13009   -27533   -47257   -68242   -84096   -96570  -102452   -96148 
  -84937   -75353   -64646   -54670   -49591   -47614   -47811   -49330 
  -47681   -43453   -39827   -33317   -21895    -8967     4922    19578 
   32882    47112    63603    77367    86721    95769   106023   114568 
  119437   121600   121516   119345   115803   110648   104167    97074 
   89046    80929    76615    79609    88421    97871   104831   110405 
  114965   118434   124387   130940   129933   123561   119477   114462 
  103138    88280    74763    65060    58667    55188    58553    70108 
   82138    88498    93320   100586   107466   111662   112891   112893 
  117101   125498   133745   145169   161126   173995   182108   189406 
  194671   195776   191391   179797   165698   153909   138177   114604 
   91634    73690    56813    44905    46230    54238    55188    48762 
   39733    26236    10029    -3539   -12208   -13578    -9520    -5686 
   -2685      790     4749     9252    13987    19284    24080    26282 
   28011    30712    29881    24273    18184    12656     7036     2579 
    1236     6992    20454    35182    47529    58984    68205    72412 
   73315    73998    74580    74205    70822    61607    48946    37906 
   28591    20795    17240    16761    16862    17469    15662    10563 
    7030     5583     3515     3205     6930    12280    18149    26515 
   37112    46963    53799    57727    60568    61699    58709    53319 
   50540    53990    63377    75229    87432    99570   109757   116356 
  120584   125021   130657   136581   141461   144466   147222   150983 
  150963   143769   134562   127420   121084   116064   114983   119244 
  128435   140367   153112   164636   170143   166626   157417   146305 
  133215   120380   113808   114329   117569   120442   119854   114465 
  106309    95926    84072    71874    57621    42569    30456    20004 
   10468     6325     8286    12016    16697    25109    37244    47666 
   51806    52874    53758    49444    39278    31324    27185    22961 
   21230    25676    33902    40409    41475    39013    36503    31261 
   19894     6487    -4482   -13868   -22428   -28740   -29761   -23433 
  -13778    -5346     3718    15592    28225    39129    47961    56930 
   67544    77299    84433    89886    93089    92590    87449    77533 
   65297    54266    46942    43838    43700    47564    56705    67488 
   77041    87082    99121   112183   122537   125748   121188   110722 
   95595    79973    70229    66531    64993    65942    69599    71981 
   73132    78851    90666   102897   110003   111742   111014   109523 
  107535   107439   112444   119787   123981   125779   128167   129548 
  127463   123762   122222   122769   122550   120482   117329   114984 
  113055   106490    93748    79166    63588    44966    24798     6327 
   -8751   -21108   -31588   -37645   -36812   -31318   -22712    -8382 
   10965    29112    43647    57673    69519    74822    77376    81958 
   84795    81150    73278    66698    61956    55558    48522    44769 
   42979    39760    35774    31733    26750    22703    21587    21972 
   22184    21465    20074    20257    22919    26787    31715    37570 
   43271    48811    54179    58328    59571    56458    51268    47678 
   45116    42342    40691    40933    43698    51449    64891    79495 
   90570   100223   112657   125123   132522   136217   138967   138350 
  131674   120525   109077   100284    91987    81637    72386    65722 
   58375    50664    45947    45254    48318    55397    67157    82509 
   98634   114342   128929   140430   147440   149711   147038   139067 
  127699   116264   105524    94734    83694    73142    65320    61708 
   61611    64250    69093    74873    80112    83189    83231    81941 
   81129    79749    76991    74401    72116    68168    64228    64905 
   68906    71927    75822    82933    89394    90234    85428    79619 
   75585    71415    66562    62940    58858    51998    46027    45183 
