Origin Time       2016/04/15 00:03:00
Lat.              32.700
Long.             130.777
Depth. (km)       7
Mag.              6.4
Station Code      KMMH14
Station Lat.      32.6345
Station Long.     130.7521
Station Height(m) -40
Record Time       2016/04/15 00:03:48
Sampling Freq(Hz) 100Hz
Duration Time(s)  271
Dir.              2
Scale Factor      2940(gal)/6170270
Max. Acc. (gal)   131.623
Last Correction   2016/04/15 00:03:33
Memo.             
[...]
    3233     3234     3229     3221     3206     3203     3209     3215 
    3220     3219     3211     3209     3219     3220     3215     3225 
    3234     3226     3225     3227     3211     3204     3219     3221 
    3203     3192     3196     3208     3213     3215     3235     3249 
    3238     3223     3218     3215     3208     3204     3209     3211 
    3210     3209     3213     3217     3214     3210     3209     3214 
    3223     3224     3223     3226     3227     3221     3214     3216 
    3212     3199     3204     3212     3206     3210     3219     3220 
    3220     3221     3212     3209     3215     3213     3214     3222 
    3222     3224     3225     3217     3210     3210     3213     3217 
    3218     3220     3230     3231     3217     3211     3216     3220 
    3217     3208     3203     3205     3212     3219     3219     3224 
    3230     3230     3224     3211     3204     3207     3203     3196 
    3192     3196     3209     3212     3214     3230     3239     3231 
    3228     3234     3234     3232     3227     3213     3206     3214 
    3218     3216     3213     3208     3209     3217     3216     3216 
    3219     3216     3218     3221     3223     3229     3230     3224 
    3216     3211     3208     3206     3209     3216     3213     3211 
    3217     3217     3205     3198     3205     3222     3225     3216 
    3212     3213     3213     3209     3202     3205     3210     3212 
    3221     3224     3215     3220     3230     3224     3218     3225 
    3230     3226     3224     3224     3219     3213     3211     3206 
    3206     3216     3222     3220     3221     3217     3208     3205 
    3205     3209     3218     3222     3218     3213     3214     3213 
    3209     3212     3212     3208     3206     3205     3205     3211 
    3214     3217     3223     3225     3229     3229     3219     3215 
    3223     3227     3219     3213     3217     3224     3229     3231 
    3232     3233     3228     3219     3218     3215     3205     3203 
    3206     3204     3204     3212     3220     3220     3223     3224 
    3215     3217     3228     3224     3216     3217     3213     3206 
    3211     3214     3208     3210     3214     3213     3216     3213 
    3206     3210     3216     3215     3213     3213     3220     3231 
    3233     3225     3221     3222     3219     3221     3223     3216 
    3210     3207     3203     3207     3212     3218     3224     3222 
    3215     3212     3213     3209     3203     3205     3211     3211 
    3212     3218     3221     3222     3222     3220     3219     3216 
    3209     3207     3213     3222     3225     3224     3226     3229 
    3228     3223     3216     3212     3211     3211     3212     3216 
    3224     3231     3229     3219     3212     3208     3204     3206 
    3209     3206     3199     3203     3214     3217     3215     3217 
    3216     3216     3220     3217     3210     3209     3214     3226 
    3231     3226     3225     3220     3208     3209     3215     3214 
    3211     3212     3214     3214     3214     3215     3221     3226 
    3224     3219     3218     3216     3217     3223     3224     3223 
    3227     3226     3217     3214     3215     3211     3205     3202 
    3210     3217     3216     3218     3228     3226     3216     3214 
    3214     3210     3208     3208     3214     3214     3214     3222 
    3225     3220     3212     3205     3208     3218     3226     3224 
    3217     3216     3217     3211     3208     3211     3212     3210 
    3214     3220     3220     3220     3222     3223     3222     3218 
    3218     3220     3217     3211     3212     3218     3219     3211 
    3209     3216     3225     3223     3213     3210     3210     3207 
    3208     3213     3222     3233     3230     3215     3216     3227 
    3213     3201     3210     3216     3216     3209     3205     3213 
    3215     3221     3224     3207     3205     3213     3212     3211 
    3220     3234     3221     3211     3226     3217     3206     3217 
    3223     3226     3223     3218     3218     3219     3222     3221 
    3220     3225     3219     3209     3197     3194     3212     3224 
    3220     3215     3212     3213     3218     3227     3225     3216 
    3220     3220     3214     3216     3217     3211     3207     3207 
    3214     3222     3215     3209     3220     3229     3235     3233 
    3225     3220     3212     3208     3211     3211     3211     3215 
    3214     3211     3220     3222     3219     3228     3226     3212 
    3199     3199     3211     3218     3222     3228     3220     3208 
    3214     3219     3213     3222     3221     3202     3201     3207 
    3204     3208     3222     3230     3226     3221     3217     3210 
    3206     3217     3225     3221     3220     3218     3214     3220 
    3222     3214     3215     3220     3207     3195     3202     3201 
    3198     3223     3236     3226     3231     3221     3208     3219 
    3226     3231     3232     3227     3221     3214     3213     3209 
    3201     3200     3212     3228     3225     3210     3216     3232 
    3227     3219     3225     3214     3201     3215     3219     3207 
    3215     3227     3216     3201     3206     3210     3208     3218 
    3223     3228     3232     3225     3226     3220     3201     3205 
    3212     3208     3215     3221     3220     3222     3219     3213 
    3218     3225     3218     3214     3219     3218     3212     3209 
    3215     3217     3209     3209     3220     3221     3216     3221 
    3221     3214     3218     3219     3218     3220     3207     3208 
    3223     3214     3207     3216     3221     3220     3219     3222 
    3216     3212     3213     3199     3192     3205     3214     3218 
    3231     3244     3242     3240     3226     3202     3210     3220 
    3208     3214     3221     3219     3229     3220     3193     3197 
    3212     3208     3203     3214     3230     3231     3231     3236 
    3230     3224     3220     3219     3214     3196     3194     3209 
    3216     3212     3201     3203     3224     3225     3214     3217 
    3215     3204     3208     3222     3229     3229     3228     3227 
    3231     3234     3226     3215     3206     3201     3203     3204 
    3207     3211     3217     3227     3233     3232     3219     3200 
    3208     3226     3218     3209     3213     3209     3209     3219 
    3219     3211     3206     3214     3229     3228     3217     3212 
    3216     3220     3211     3202     3209     3214     3214     3219 
    3212     3204     3214     3220     3226     3231     3224     3217 
    3217     3212     3203     3202     3206     3208     3209     3205 
    3214     3230     3230     3230     3235     3230     3212     3209 
    3226     3229     3217     3217     3229     3228     3224     3218 
    3204     3206     3220     3215     3204     3209     3210     3202 
    3211     3221     3220     3227     3226     3211     3211     3216 
    3216     3217     3211     3207     3209     3215     3226     3223 
    3216     3222     3228     3217     3207     3207     3211     3218 
    3216     3216     3225     3224     3227     3226     3209     3211 
    3226     3221     3205     3201     3207     3218     3223     3227 
    3227     3208     3194     3215     3223     3207     3208     3220 
    3222     3217     3215     3225     3224     3207     3213     3224 
    3217     3216     3216     3208     3208     3214     3214     3218 
    3221     3216     3220     3220     3215     3223     3223     3212 
    3214     3222     3214     3213     3224     3225     3224     3220 
    3217     3224     3221     3209     3202     3204     3218     3225 
    3214     3210     3216     3218     3219     3214     3211     3220 
    3219     3207     3209     3219     3213     3204     3212     3224 
    3219     3213     3216     3214     3214     3213     3212     3212 
    3213     3224     3226     3217     3225     3229     3216     3213 
    3218     3221     3219     3212     3212     3223     3218     3210 
    3219     3221     3216     3212     3209     3210     3211     3209 
    3217     3229     3226     3221     3221     3220     3213     3207 
    3210     3220     3224     3212     3206     3212     3210     3210 
    3220     3218     3211     3213     3217     3217     3215     3216 
    3218     3218     3216     3220     3227     3220     3209     3216 
    3217     3206     3207     3217     3221     3222     3221     3219 
    3218     3217     3219     3224     3222     3217     3216     3216 
    3218     3223     3220     3213     3214     3217     3217     3208 
    3207     3219     3217     3206     3207     3216     3219     3212 
    3213     3217     3213     3210     3216     3224     3220     3216 
    3224     3224     3219     3225     3225     3217     3217     3217 
    3209     3207     3212     3218     3222     3219     3217     3221 
    3219     3209     3209     3216     3212     3212     3223     3224 
    3216     3210     3206     3211     3218     3217     3213     3219 
    3227     3221     3215     3223     3220     3210     3215     3215 
    3209     3214     3219     3219     3216     3217     3218     3208 
    3217     3222     3206     3216     3222     3217     3224     3216 
    3211     3209     3208     3214     3210     3216     3226     3219 
    3218     3221     3217     3220     3224     3218     3210     3213 
    3223     3219     3217     3222     3215     3215     3225     3214 
    3200     3213     3217     3214     3235     3227     3198     3206 
    3211     3213     3227     3222     3214     3218     3218     3215 
    3217     3220     3222     3212     3204     3219     3229     3214 
    3209     3222     3224     3222     3223     3214     3214     3216 
    3213     3227     3227     3207     3203     3210     3194     3116 
    2971     2929     3232     3517     3163     2847     3323     3438 
    2856     2882     3032     2789     2976     2859     2504     3233 
    3556     2831     3458     4595     3936     3172     2649     1114 
     513      767      -19     -643     -283     -341    -1210     -107 
    2933     3551     3353     5298     6361     6237     6853     6608 
    5337     5114     4997     3752     2122      503      626     1856 
    1378     1357     2806     2577      940     -111    -1763    -3670 
   -2906    -1683    -2551    -2231        8     1958     4408     7745 
    9959    11317    12230     9628     5540     4205     2217     -144 
    1383     3367     2367     -336    -2736    -3473    -2959    -1251 
    1021     2894     5216     6154     3890     2556     5608     9022 
    6572     -722    -5054    -3913    -4853    -8263    -5956    -1438 
    3138     9094     5746     -788     2907     5652     4365     6272 
    6055     4419     2284    -3724    -4268     1550     4366     4930 
    3669    -1539    -8322   -11886   -11152    -7928    -4924    -4105 
   -2065     -533      937     1631    -4555    -4108     5602    10506 
   12434    10908     4717     -377    -1344     1254     2895     2497 
     834    -5365   -17119   -23596   -18351   -11866    -5182     3697 
    6374     4130     3679     4973     2356    -2897    -3398    -3997 
   -6803    -7599   -10014   -14039   -14882    -9191      227     5366 
    4863     1581    -5026   -13196   -12372    -4014    -1132     1572 
    7057     6235     3725     6683    12850    18008    20440    21398 
   19112    11928     7013     7274     3358    -2669    -4286    -7114 
   -7520    -6702    -9575    -5283    -1352    -2900    -2435    -9934 
  -15583   -13922   -17628   -11024      723    -2925   -10113   -14360 
  -17914   -19771   -19852   -17460   -11372     1706    10919    12644 
   14140     9384     8506    16725    23330    34088    40884    44600 
   58749    55216    32042    20402    14367     8364     -104   -11695 
  -13630   -22204   -33258   -18768     2785    17336    26187    23643 
   27744    36742    28198    10615    -6098   -22218   -28348   -19632 
   -6398     7303    28346    51353    62634    55195    46942    54757 
   58028    47709    33400    25225    33866    47784    65098    90637 
  117839   135834   129944   123054   123704   116272   118559   114620 
   99708   105051   103595    89969    93149    97626    97646    93154 
   77894    73858    80541    81467    89541   105162   113832   122354 
  133017   133501   128891   127210   122471   112388   100190   101171 
  119488   127366   117434    99668    66754    24179   -10296   -35570 
  -64327  -100433  -126048  -121790   -96640   -76338   -57344   -32983 
  -27075   -41627   -65010   -99374  -129531  -142791  -145100  -140917 
 -131740  -111779   -81774   -57960   -43944   -31721   -25157   -30321 
  -44704   -70879  -109948  -148454  -179130  -199253  -200506  -191583 
 -180779  -164517  -143382  -103769   -50455    -5839    39239    69104 
   68569    69095    62649    42394    35532    26433    11883    11612 
    4636   -20136   -54747  -101782  -142497  -153253  -148496  -150997 
 -149788  -130485  -110441  -106550  -100882   -74630   -50369   -49445 
  -58691   -63928   -56218   -39091   -36411   -51015   -64365   -80109 
 -104057  -118977  -120556  -116824  -105948   -98669  -106928  -117000 
 -114104   -96879   -74113   -61744   -53922   -33386   -12771     2221 
   30576    66239   102901   145124   174536   197432   230700   253856 
  267592   279459   270005   255701   259330   257603   240545   222251 
  201119   177302   153682   122101    89237    60832    23488   -12355 
  -32412   -47063   -49533   -49050   -73731   -96065  -101230  -118911 
 -139306  -152163  -166956  -171325  -165236  -161070  -160875  -158146 
 -140151  -107803   -66805   -22301    15331    42841    56276    61715 
   65425    52574    30469    13540    -6535   -21514   -24583   -27041 
  -27154   -19799    -7396     5237    11937    10657     4618      323 
    -830      348     7747    21630    40318    59491    73674    82927 
   82949    74632    66910    58627    51588    50859    49558    41965 
   30055    18732     9626     -430    -7017    -9006   -17192   -27698 
  -29334   -32713   -48057   -62322   -68688   -76932   -81478   -74316 
  -67358   -61552   -49277   -39129   -34060   -26176   -18263   -14798 
  -11085    -5414      241     6275    12195    17199    19375    17450 
   16563    21608    29088    31955    30596    29513    29522    31634 
   33052    32255    35804    43301    51386    59538    65054    68836 
   67233    60598    57391    49834    37725    30969    21269     9958 
    1708    -8359   -12552   -11349   -11321    -8579    -5740    -8536 
  -16509   -25845   -34545   -40592   -39117   -33023   -27165   -18283 
   -7067     1938     9258    13453    11902     8198     5510     2803 
     285     1228     7347    16605    28109    39906    47064    50310 
   52731    51779    45838    38048    32344    30181    28231    25192 
   24619    23903    20278    18681    17282    14027    16445    21796 
   24178    29382    35019    36164    39253    43420    44208    45684 
   47384    45442    43048    43690    46310    50800    55292    54664 
   50320    46205    41545    38318    38331    36378    30268    25704 
   24866    22388    14356     3095    -6837   -12896   -14512   -14579 
  -17597   -23534   -31416   -40633   -47601   -50843   -51377   -49572 
  -46144   -41355   -37409   -37689   -39930   -41071   -41953   -41944 
  -41622   -43545   -46044   -46496   -43765   -37301   -31322   -29925 
  -30922   -32730   -34412   -33099   -29577   -25436   -21595   -20561 
  -20368   -17247   -13079   -10679    -9956   -11407   -14442   -15423 
  -14651   -15047   -15011   -12171    -5651     2299     6451     7997 
   10467    10684     8045     7805     9556     9712    10986    12799 
    9890     5722     3805     1143     -478     2076     7153    12284 
   15914    19353    24241    27667    27957    26701    23075    17860 
   13909    11569    12634    17217    22267    28999    38608    47921 
   53666    54523    51936    50102    51188    50327    44573    39359 
   36690    34287    32927    32053    29052    23677    17831    13174 
   11420    13526    14603    10454     5755     2607    -2230    -5174 
   -2548      -18      806     4670     8162     8555     9897     9328 
    5461     3379     2203      130    -2752    -6618    -9303   -11219 
  -12884   -13475   -14582   -14393   -12504   -14045   -18810   -24262 
  -30775   -35320   -35312   -33317   -32758   -34147   -34490   -33356 
  -32830   -32053   -30750   -29924   -29399   -28483   -27518   -27564 
  -26918   -25032   -23489   -21822   -21091   -20810   -19351   -19620 
  -20379   -18203   -15216   -12046    -9301    -9214    -8715    -5638 
   -3101     -758     3920     9871    15821    20912    24827    27491 
   27350    26608    26192    22790    19905    19585    17058    12938 
    9163     5520     3617     2451      988     1074     1558     1510 
    3319     5234     5432     7766    11938    15613    20354    24008 
   25552    28401    31414    31796    30666    31120    32068    29512 
   25433    22594    21297    22531    23169    21719    22309    24442 
   25171    25993    26867    28100    33612    40347    43090    42995 
   41183    39830    39340    36784    34377    33577    32257    30555 
   27733    23580    20398    17952    13589     7565     3221      177 
   -4367   -10207   -15817   -18929   -19987   -21435   -22777   -24325 
  -25844   -26059   -26141   -26363   -26937   -27994   -27621   -25558 
  -24442   -24950   -23586   -20480   -19280   -20290   -22944   -25107 
  -24965   -24349   -22785   -18895   -14635   -11966    -9964    -7504 
   -5829    -4693    -3500    -3440    -4439    -7031   -10329   -11354 
  -11054   -10792    -9795    -7938    -5866    -6060    -8176    -8510 
   -7884    -7727    -6163    -4299    -4976    -7207    -8239    -7435 
   -6136    -4995    -2478     2114     7113    11279    14449    17647 
   21858    25998    28678    29520    29484    29230    28042    26383 
   24189    20751    17535    15563    14448    13599    12583    12629 
   14803    16456    14969    13295    14101    15355    16680    18970 
   20846    22080    23491    24556    25366    26387    26549    25828 
   25352    24013    20078    13973     8003     4130     1624    -1260 
   -3901    -5039    -6142    -6995    -4969    -2703    -3592    -5610 
   -7126    -7837    -7307    -6290    -5044    -3860    -4669    -8057 
  -11569   -14197   -17023   -19270   -20597   -22111   -23476   -24387 
  -25294   -25526   -24962   -24903   -23411   -18359   -13346    -9925 
   -6104    -2610      353     2466     2454     1695      763    -1557 
   -5184    -8440    -9545    -8684    -7072    -5975    -5972    -5682 
   -4431    -3390    -2611     -753     2743     7291    11855    16069 
   20113    22807    23826    24213    23494    22482    22517    22475 
   22114    21736    20539    18800    17538    16061    13682    11900 
   11095    11088    11980    11985    10953     9935     8354     5607 
    3104     3258     4033     3718     5219     7697     8813     9855 
   11873    14466    16831    19225    21233    20617    17486    14320 
   12375    11054    11217    13806    15539    15540    16486    16665 
