Origin Time       2016/04/16 01:46:00
Lat.              32.862
Long.             130.898
Depth. (km)       11
Mag.              5.9
Station Code      KMMH16
Station Lat.      32.7967
Station Long.     130.8199
Station Height(m) -197
Record Time       2016/04/16 01:45:08
Sampling Freq(Hz) 100Hz
Duration Time(s)  300
Dir.              1
Scale Factor      2940(gal)/6170270
Max. Acc. (gal)   78.291
Last Correction   2016/04/16 01:44:53
Memo.             
[...]
   53451    53258    53065    53137    53343    53263    53180    53476 
   53693    53586    53466    53309    53149    53089    52980    52944 
   53161    53513    53659    53538    53448    53332    53171    53148 
   53212    53442    53691    53580    53467    53667    53692    53347 
   53070    53020    52934    52839    52961    53207    53494    53759 
   53709    53383    53238    53293    53327    53516    53718    53625 
   53544    53543    53357    53113    53029    53111    52986    52701 
   52853    53142    53283    53636    53878    53697    53370    53094 
   52904    52918    53348    53893    54021    53864    53725    53499 
   53257    53336    53419    53111    52900    52978    52949    52996 
   53344    53530    53477    53613    53726    53622    53679    53733 
   53536    53461    53384    53083    53108    53368    53296    53267 
   53489    53569    53483    53140    52740    52997    53761    54326 
   54446    54092    53412    52772    52497    52632    52870    52946 
   52949    53022    53295    53668    53640    53306    53297    53525 
   53697    53910    54042    53915    53698    53676    53931    54188 
   54100    53566    52815    52155    51669    51607    52134    52915 
   53756    54398    54467    54264    54102    53959    53938    53800 
   53354    53035    53060    53249    53361    53231    53051    53005 
   53034    53106    53264    53541    53743    53711    53555    53254 
   52953    53007    53211    53279    53481    53864    54090    54151 
   54080    53755    53438    53326    53139    52866    52849    53080 
   53227    53294    53521    53639    53431    53325    53388    53316 
   53216    53135    53077    53235    53374    53277    53378    53777 
   53913    53626    53203    52934    53035    53257    53399    53602 
   53653    53508    53384    53074    52718    52782    53169    53499 
   53514    53343    53337    53433    53376    53265    53323    53445 
   53410    53260    53135    53107    53207    53354    53548    53780 
   53681    53326    53404    53702    53571    53359    53435    53504 
   53437    53250    53047    53186    53451    53304    53166    53350 
   53307    53246    53471    53345    53093    53285    53394    53335 
   53622    53823    53549    53317    53347    53455    53444    53193 
   53046    53269    53519    53497    53514    53702    53630    53322 
   53091    53046    53146    53070    52991    53217    53343    53390 
   53685    53848    53621    53342    53289    53382    53343    53261 
   53362    53423    53441    53404    53123    53067    53362    53469 
   53512    53732    53669    53283    53241    53485    53429    53211 
   53174    53260    53368    53472    53528    53450    53383    53423 
   53328    53270    53398    53372    53350    53527    53579    53530 
   53638    53658    53342    53129    53283    53453    53490    53468 
   53487    53509    53425    53419    53515    53533    53481    53409 
   53334    53268    53312    53488    53604    53611    53520    53319 
   53169    53114    53156    53312    53426    53533    53533    53320 
   53396    53740    53775    53399    52880    52833    53193    53312 
   53453    53607    53383    53168    53116    53108    53332    53673 
   53720    53369    53107    53367    53743    53786    53590    53231 
   52935    52946    53082    53246    53435    53389    53207    53357 
   53594    53454    53347    53494    53499    53357    53187    53031 
   53086    53230    53341    53524    53583    53538    53568    53392 
   53071    53000    53122    53260    53369    53496    53638    53636 
   53578    53538    53397    53346    53446    53509    53599    53598 
   53377    53298    53377    53247    53135    53301    53382    53310 
   53448    53631    53499    53270    53241    53288    53281    53300 
   53440    53625    53605    53441    53410    53334    53228    53329 
   53358    53351    53449    53339    53287    53505    53553    53440 
   53348    53220    53134    53147    53217    53348    53527    53545 
   53421    53465    53496    53318    53293    53423    53352    53321 
   53457    53352    53167    53249    53375    53372    53315    53312 
   53417    53546    53634    53686    53719    53687    53492    53276 
   53276    53384    53374    53293    53276    53272    53185    53271 
   53487    53373    53359    53625    53479    53268    53379    53418 
   53481    53470    53269    53420    53708    53528    53278    53356 
   53447    53469    53612    53602    53304    53219    53425    53350 
   53046    53166    53556    53581    53487    53579    53489    53377 
   53441    53202    53078    53516    53710    53589    53494    53203 
   53166    53376    53296    53351    53525    53379    53309    53452 
   53515    53578    53594    53389    53192    53131    53079    53070 
   53240    53516    53500    53298    53452    53632    53433    53265 
   53274    53457    53935    53978    53326    53053    53161    53103 
   53399    53784    53555    53278    53397    53485    53277    53148 
   53426    53627    53498    53516    53589    53481    53473    53395 
   53128    53131    53280    53312    53488    53641    53456    53304 
   53488    53649    53525    53417    53414    53298    53249    53276 
   53166    53189    53343    53348    53365    53463    53564    53683 
   53636    53364    53172    53170    53126    53024    53141    53426 
   53541    53466    53381    53357    53385    53424    53499    53539 
   53505    53489    53398    53301    53319    53251    53199    53283 
   53311    53408    53535    53437    53421    53558    53507    53418 
   53409    53363    53445    53581    53514    53363    53299    53335 
   53384    53376    53366    53347    53358    53463    53490    53421 
   53398    53350    53304    53385    53459    53468    53505    53490 
   53448    53513    53552    53506    53508    53475    53300    53181 
   53271    53394    53372    53343    53424    53418    53332    53336 
   53271    53148    53226    53353    53359    53380    53384    53333 
   53383    53412    53237    53140    53285    53387    53360    53382 
   53469    53465    53343    53311    53387    53349    53287    53352 
   53397    53365    53347    53368    53377    53379    53436    53427 
   53336    53382    53456    53408    53386    53338    53289    53398 
   53413    53306    53337    53407    53401    53367    53328    53284 
   53295    53413    53450    53368    53315    53280    53300    53358 
   53360    53337    53305    53265    53271    53322    53351    53363 
   53405    53375    53251    53202    53247    53325    53460    53533 
   53390    53242    53308    53369    53307    53242    53194    53315 
   53634    53759    53551    53265    53104    53085    53206    53422 
   53487    53428    53429    53291    53112    53211    53411    53525 
   53533    53439    53299    53016    52838    53316    53886    53636 
   53215    53280    53302    53252    53365    53304    53226    53403 
   53348    52963    52985    53425    53643    53724    53750    53450 
   53199    53274    53278    53158    53218    53407    53550    53581 
   53421    53243    53279    53368    53283    53065    53022    53259 
   53409    53435    53568    53572    53337    53170    53135    53181 
   53424    53623    53612    53606    53449    53188    53227    53397 
   53533    53689    53672    53485    53306    53226    53292    53331 
   53345    53511    53609    53509    53464    53505    53424    53293 
   53318    53282    53194    53454    53623    53435    53508    53598 
   53400    53396    53384    53223    53291    53351    53268    53287 
   53405    53519    53438    53236    53299    53454    53402    53412 
   53483    53455    53520    53493    53180    52945    52986    53226 
   53530    53656    53570    53467    53465    53477    53405    53343 
   53322    53233    53222    53392    53473    53443    53445    53397 
   53405    53494    53390    53241    53318    53416    53416    53361 
   53188    53099    53261    53424    53488    53537    53537    53504 
   53408    53261    53204    53274    53449    53524    53354    53184 
   53117    53164    53369    53491    53509    53585    53587    53503 
   53436    53315    53187    53250    53423    53422    53280    53200 
   53263    53404    53372    53200    53229    53409    53482    53451 
   53396    53266    53076    53037    53192    53357    53515    53699 
   53833    53850    53609    53101    52718    52759    52990    53180 
   53431    53688    53714    53547    53327    53119    53092    53292 
   53492    53561    53546    53408    53257    53301    53241    52884 
   52802    53142    53351    53477    53673    53549    53329    53409 
   53438    53356    53389    53290    53081    53165    53331    53338 
   53508    53742    53698    53574    53451    53151    52973    53195 
   53399    53374    53430    53450    53297    53306    53432    53387 
   53267    53261    53431    53597    53621    53651    53558    53235 
   53055    53103    53122    53191    53401    53472    53377    53363 
   53324    53215    53333    53543    53443    53391    53630    53583 
   53418    53498    53276    52960    53062    53195    53340    53583 
   53614    53597    53659    53559    53336    53258    53364    53360 
   53296    53457    53516    53375    53386    53451    53398    53341 
   53424    53526    53423    53392    53520    53434    53320    53333 
   53173    53051    53181    53260    53298    53519    53697    53545 
   53340    53337    53277    53215    53418    53561    53444    53292 
   53172    53165    53290    53368    53383    53430    53516    53540 
   53474    53423    53297    53139    53172    53192    53187    53343 
   53422    53506    53636    53517    53528    53738    53569    53338 
   53441    53435    53250    53232    53288    53294    53412    53560 
   53532    53483    53450    53247    53149    53304    53359    53345 
   53426    53451    53416    53348    53214    53211    53441    53610 
   53522    53422    53482    53513    53401    53292    53321    53460 
   53553    53503    53416    53393    53369    53305    53288    53315 
   53286    53284    53384    53443    53513    53621    53489    53287 
   53380    53485    53445    53514    53512    53314    53253    53398 
   53496    53379    53211    53307    53456    53329    53286    53544 
   53601    53219    52722    52588    53239    54184    54129    53125 
   52614    52683    52557    52412    52256    52745    54000    53448 
   52520    53789    53133    51080    51544    52444    54843    56397 
   52180    51216    55865    54732    51087    54554    58630    57375 
   55898    53836    51270    52204    52209    51281    52876    53574 
   53910    54886    54578    53525    53752    56012    54714    48728 
   47785    51871    51935    50756    53922    55044    50022    45601 
   45504    49716    58179    61718    55526    51906    55966    56266 
   50469    49861    55157    60663    64355    57300    45726    47993 
   53708    51713    51399    53460    56962    60659    57430    52544 
   51785    53553    57237    54927    46267    43739    47878    53977 
   59781    57485    48087    44980    52380    57248    53982    55609 
   59065    51253    44502    47631    51106    55006    61288    65214 
   62370    50698    44549    54881    59053    47744    46431    54864 
   56397    58155    59000    55407    57000    54289    44834    45635 
   50002    49379    51236    52484    49004    44129    44661    54888 
   61826    58800    59770    65014    59982    48258    45630    48031 
   45789    45033    46761    53361    63458    58737    48109    46950 
   46640    53659    66586    68123    62121    54552    51902    56770 
   52473    45409    50935    51775    40850    39113    47654    44058 
   44941    71305    77883    56655    54217    61369    61067    60107 
   58645    66356    69951    53022    43378    47853    38865    27106 
   39100    64858    78132    68053    60897    65762    46258    22155 
   40017    67048    65705    60440    61228    50362    37502    29290 
   29144    55696    84557    83654    62295    36187    31471    39946 
   37680    53015    63254    53972    62699    48276    55144   125309 
  110155    41912    44274    20644   -14699    33739    75525    53587 
   12630     7210    57218    79632    57067    64482   104091   135328 
   94877    24126    54515    83590    15383    17708    83680    70057 
   62132   100618    82244    34764    24523    29491    42291    79339 
  114813    99069    63227    63727    44636    -1801    17133    68818 
   74819    67248    64089    39637    21937    40758    47776    25890 
   34965    58077    58923    78963    82515    38117    29056    32209 
    -667    10452    48494    44596    45630    62164    55638    54116 
   67845    65336    70305    93793   101995   109973   117072    78234 
   33058    46525    70678    62181    63609    88684   109892   106990 
   90147    89741    87473    78699    91309    95422    92117    99052 
   91481   103880   114940    67402    54283    96464   101510   100353 
  108080    74878    52803    71037    75718    59179    32529    14330 
   36051    65375    75348    91917    74916     6432    -5383    37454 
   20225   -15175     8114    30750    29100    23684    -5509    -1387 
   55844    68805    36770     5007   -27311   -37625   -46243   -88158 
 -110921   -87286   -69471   -80543   -90529   -67308   -42327   -59333 
  -73713   -65463   -73541   -73811   -51796   -48914   -58048   -59801 
  -63278   -48439    -1718    48355    72519    70054    65799    74152 
  103952   156481   190753   193518   190137   172191   155560   168571 
  171788   158487   166867   171196   158691   151642   134008   123523 
  148704   170710   175095   179210   164107   129305   105872   106395 
  115190    99507    69973    77344   110436   122426   110324    73412 
   18993    -7418     3739    25376    44095    38496    16395    25881 
   51660    43684    24589    28901    30452    15897    17228    37278 
   44230    26050     1452    -8528    -9238   -11117   -10258    -9178 
  -11346    -5814    13897    38565    58291    67365    59245    30717 
   -7293   -29656   -19037    11952    36433    51318    58662    54922 
   69879   104532   107309    77911    44749    18027    22651    53832 
   70474    55028     6737   -55702   -87152   -75328   -59804   -66253 
  -76484   -70244   -39085    15666    65059    80921    65902    39381 
   22392    25607    41961    55685    63823    69965    64593    52576 
   57660    78165    92698    91682    85130    92297   101418    87762 
   77472   100456   130325   141203   142186   133762   111389    92115 
   81964    79263    98626   129488   140606   134598   131633   129662 
  122809   117331   105851    79263    58377    63275    83763   102442 
  109184    96238    73198    62989    61682    56560    60582    68491 
   59607    48021    45287    40122    39064    49181    56314    57608 
   57790    50933    46981    56336    58280    44183    35956    35981 
   29218    25712    38349    54062    63796    71840    75125    76056 
   80843    79566    71301    68082    65808    57373    48680    47777 
   59098    78324    94346   102113   102340    99927   101237   102916 
   98614    90528    82683    68285    41955    21863    19374    19347 
   18671    24517    30817    31474    26974    21402    22094    29935 
   36767    39390    40290    38042    35418    36827    32739    16760 
     444    -5863    -1753     7552    14948    19042    22063    23215 
   25376    34418    43454    44928    46937    51885    52942    53849 
   60568    70189    77445    78598    74446    70244    64433    53098 
   46570    48853    48717    46452    40197    27850    28356    39782 
   44972    53753    66277    70407    71543    66371    52624    46660 
   46595    40389    34198    32227    31712    35130    41072    43296 
   39695    32170    27748    29831    31422    32047    36736    42461 
   46371    50740    54838    56003    57258    58412    55400    54390 
   58743    61773    62382    60620    56179    53374    51150    49841 
   54421    60120    62814    66214    67544    65321    67395    75758 
   82920    80939    71797    65263    64521    67329    69550    69038 
   70723    75558    77240    74128    70991    69170    65094    58145 
   52958    51763    48015    38320    31182    31905    36035    40592 
   46803    54013    59514    62987    64143    61401    56655    52146 
   48159    45930    45950    47793    47976    43179    40421    43365 
   43940    41960    41575    40196    39493    42587    43923    41069 
   40127    40143    38378    42061    49888    52583    53874    57355 
   58158    58727    60462    58345    56454    57764    56230    55367 
   62239    72766    81851    88106    89924    88444    87094    85494 
   81643    77184    73433    70604    69484    67500    64445    65736 
   69959    71611    71685    70343    65629    61136    60833    61246 
   58701    58684    62872    61492    53684    46993    43247    44617 
   48156    46271    42771    44244    48179    48294    42176    34931 
   31836    30350    27087    26242    31006    34930    34609    36162 
   40608    43195    45291    47981    46377    39986    33526    29798 
   29757    33063    34971    32146    30009    28491    24205    27207 
   37661    41868    39617    36153    36029    41343    43720    43827 
   47982    50113    49015    48235    45539    45426    49644    48795 
   43793    43330    46275    49701    54465    57849    59124    63063 
   69238    71861    69380    66751    68106    68221    61390    54630 
   53776    51467    47032    50280    56911    56851    57274    62335 
   62047    56368    52579    52062    54306    55711    54492    54862 
   55362    50895    45944    46835    50563    51772    50128    50581 
   55697    59868    60842    61423    60563    59756    62999    68115 
   70088    67878    63591    58053    53669    53402    53722    51718 
   49830    48749    49430    53993    58768    60336    61799    63947 
   65406    67207    67186    64275    62969    63671    63951    63882 
   62508    60675    59436    57875    58154    59899    59367    57172 
   55530    54255    52204    51183    53278    56612    61662    67056 
   67182    65096    65833    66910    65382    61265    58787    57991 
   52043    46301    48492    49293    44831    43478    47133    54403 
   62571    65091    62574    61530    61661    60241    59206    57834 
   54077    52475    54047    54331    57372    63319    62536    58397 
   57380    55652    54216    52784    48773    47419    47593    46764 
   49376    52077    52290    53055    53048    53839    55800    54326 
   52814    55666    57275    54779    53405    53615    53774    56350 
   58110    56547    55542    52871    48044    46531    45634    42644 
   41942    42411    41297    43107    49562    55136    55741    53440 
   52471    51377    47605    46011    48722    50710    51122    51055 
   48789    46632    48689    53573    57240    59114    61355    63841 
   64830    63525    59754    55707    53814    52271    51754    55380 
   58112    56475    54511    50987    45377    43357    45045    47445 
