Origin Time       2016/04/14 22:07:00
Lat.              32.775
Long.             130.848
Depth. (km)       8
Mag.              5.8
Station Code      KMMH16
Station Lat.      32.7967
Station Long.     130.8199
Station Height(m) 55
Record Time       2016/04/14 22:05:02
Sampling Freq(Hz) 100Hz
Duration Time(s)  300
Dir.              4
Scale Factor      3920(gal)/6170801
Max. Acc. (gal)   464.685
Last Correction   2016/04/14 22:04:47
Memo.             
[...]
    -318      -48      149      128       70      131      156       52 
     -28      -16      -25      -87     -132     -157     -202     -256 
    -218      -33       94      -10     -135     -144     -190     -221 
     -51      199      287      137     -173     -454     -641     -854 
   -1064    -1067     -843     -611     -461     -297     -120       27 
     167      286      384      436      333      100     -140     -366 
    -589     -786     -861     -717     -420     -147        5       86 
     133       95      -87     -372     -585     -643     -633     -530 
    -278       26      260      403      515      610      653      645 
     545      342      150       -5     -191     -334     -376     -410 
    -410     -292     -125       19      130      230      340      354 
     163     -154     -455     -679     -789     -784     -696     -499 
    -167      193      430      519      566      614      593      491 
     352      202       36     -199     -471     -674     -806     -899 
    -954     -996    -1011     -956     -818     -615     -443     -370 
    -310     -181       11      227      415      501      401      125 
    -163     -311     -365     -428     -455     -411     -368     -369 
    -456     -649     -795     -775     -698     -655     -572     -422 
    -274     -140       32      265      549      808      933      921 
     781      486      101     -261     -562     -818    -1008    -1085 
   -1045     -949     -860     -756     -594     -420     -256      -83 
      79      238      402      525      559      498      379      276 
     201      117       67       70       27      -97     -230     -313 
    -319     -246     -156      -94      -42      -41     -106     -163 
    -260     -491     -788    -1047    -1228    -1315    -1329    -1255 
   -1038     -727     -423     -136      110      265      357      385 
     299      127      -63     -222     -347     -504     -702     -844 
    -884     -864     -804     -707     -609     -508     -362     -195 
     -52       81      205      314      424      511      537      536 
     534      522      513      492      412      294      192       95 
     -13     -115     -160     -106      -95     -245     -339     -210 
     -33       67      129       96     -111     -317     -223      116 
     352      260      -57     -175        8      102       34     -107 
    -422     -622     -362      -48     -123     -255      -61      228 
     256      -17     -324     -366     -276     -383     -515     -377 
    -267     -467     -648     -507     -252     -198     -265     -175 
      44      125      -37     -179      -60       58      -50     -203 
    -356     -594     -833    -1027    -1166    -1142     -968     -733 
    -470     -358     -419     -360     -207     -216     -331     -388 
    -341     -235     -170     -124       26      241      328      245 
     197      273      286      139       55      230      434      317 
     -15     -227     -304     -388     -450     -464     -491     -534 
    -550     -449     -258     -187     -167      118      484      586 
     543      477      339      144      -91     -294     -446     -596 
    -636     -488     -260      -43       98      133      128       73 
     -93     -238     -256     -264     -316     -352     -413     -487 
    -431     -266     -165      -89       45       97       42        4 
     -75     -201     -207     -105      -10       37        6      -69 
    -173     -345     -444     -342     -206     -225     -389     -586 
    -730     -788     -757     -633     -447     -295     -262     -333 
    -412     -417     -439     -624     -832     -855     -738     -595 
    -501     -431     -272      -80       50      177      307      411 
     471      451      433      441      341      163       52       24 
     -11     -125     -229     -214     -236     -441     -624     -588 
    -462     -371     -270     -135       14      120      105       50 
      50       50       85      247      423      482      457      374 
     213       23     -136     -233     -198      -60       16       -8 
    -117     -414     -849    -1133    -1153    -1067     -952     -719 
    -416     -215     -132      -38      116      245      287      304 
     339      289       61     -234     -419     -459     -396     -232 
      -6      136       81     -102     -334     -684    -1142    -1434 
   -1332     -980     -639     -371     -159       36      277      522 
     710      848      857      626      263        5      -94     -142 
    -185     -159      -19      112       34     -302     -759    -1119 
   -1223    -1030     -644     -266      -52       15       33       -7 
    -154     -278     -218      -44      115      211      146      -85 
    -302     -402     -418     -359     -251     -141      -60      -91 
    -246     -382     -441     -493     -548     -549     -424     -134 
     180      312      270      208      206      267      318      204 
     -77     -262     -271     -322     -431     -495     -567     -559 
    -359     -136        7      111       78     -102     -226     -171 
      47      328      541      632      620      556      475      328 
     123       33       91      126      172      259      137     -125 
    -181     -112     -178     -323     -435     -670    -1015    -1101 
    -992    -1091    -1215     -993     -555     -139      165      254 
     172      120      139      190      275      255      -15     -357 
    -427     -277     -262     -343     -309     -301     -379     -384 
    -408     -635     -962    -1194    -1294    -1264    -1033     -650 
    -311     -103      -52     -125     -141     -162     -376     -540 
    -519     -559     -623     -584     -503     -250      193      547 
     678      524      103     -372     -864    -1403    -1818    -2010 
   -1816    -1003      101      971     1698     2314     2334     1727 
     991      286     -437    -1048    -1513    -1868    -2044    -2101 
   -2067    -1779    -1324     -875     -282      537     1273     1561 
    1519     1574     1632     1306      827      668      777      822 
     631      316       38     -343     -874    -1217    -1312    -1450 
   -1599    -1454     -961     -322      267      727     1057     1332 
    1628     1757     1409      743      233      -65     -443     -821 
    -769     -250      192      245      311      701      920      488 
    -116     -150      165       76     -351     -531     -479     -519 
    -599     -566     -540     -626     -622     -371      -79      141 
     441      686      520       64     -229     -358     -720    -1363 
   -1909    -2080    -2059    -2165    -2241    -1975    -1628    -1608 
   -1718    -1565    -1240    -1026     -870     -511       75      640 
    1105     1612     2074     2275     2287     2175     1666      752 
     104      210      643      718      522      482      348     -191 
    -819    -1383    -2125    -2946    -3407    -3177    -2239     -911 
     428     1806     3364     4680     5206     4934     4027     2545 
     689    -1322    -3350    -5095    -6280    -6838    -6716    -5992 
   -4928    -3687    -2318     -903      416     1496     2176     2401 
    2432     2456     2449     2611     3192     4006     4529     4554 
    4442     4488     4337     3265     1110    -1590    -4353    -6750 
   -8181    -8464    -7866    -6520    -4560    -2268      158     2459 
    4253     5255     5370     4760     3805     2787     1643      410 
    -557    -1172    -1569    -1748    -1769    -1668    -1451    -1336 
   -1529    -2011    -2601    -2943    -2706    -1894     -623     1105 
    3000     4370     4812     4573     3938     2800     1010    -1092 
   -2752    -3672    -4149    -4173    -3572    -2724    -2037    -1406 
    -604      453     1618     2487     2864     2938     2826     2410 
    1616      515     -822    -2294    -3559    -4245    -4306    -3844 
   -2815    -1300      273     1577     2618     3321     3487     3168 
    2559     1712      647     -546    -1607    -2175    -2250    -2068 
   -1722    -1421    -1357    -1315    -1199    -1306    -1810    -2525 
   -3011    -2956    -2515    -1977    -1431     -720      381     1640 
    2537     3024     3375     3571     3365     2730     1865      917 
     -94    -1055    -1654    -1763    -1593    -1265     -711      -45 
     422      603      664      609      386      190      205      322 
     429      649     1110     1565     1504      885      103     -860 
   -2218    -3671    -4662    -4893    -4521    -3832    -2816    -1429 
      41     1146     1755     2103     2147     1563      539     -358 
   -1025    -1723    -2204    -1949    -1084      -11     1183     2360 
    3299     3864     3940     3685     3285     2593     1668      851 
     177     -478    -1011    -1370    -1773    -2323    -2814    -3083 
   -3142    -3008    -2620    -1873     -909     -153      326      968 
    1883     2590     2822     2765     2513     2005     1317      645 
      71     -636    -1661    -2718    -3518    -4093    -4367    -4063 
   -3048    -1509      170     1736     3088     3980     4144     3640 
    2783     1863     1031      299     -349     -890    -1333    -1665 
   -1838    -1885    -1825    -1636    -1353    -1045     -782     -574 
    -440     -434     -510     -569     -531     -343      -37      264 
     454      585      753      910      897      617      271      184 
     237       36     -408     -780     -989    -1151    -1286    -1319 
   -1222    -1033     -820     -598     -209      427      995     1219 
    1231     1099      661      -35     -710    -1263    -1725    -2009 
   -2101    -2092    -1940    -1584    -1055     -491      -66      245 
     593      917      999      913      973     1132     1035      675 
     367      170      -56     -310     -498     -537     -448     -401 
    -408     -298      -70      167      322      278       35     -260 
    -511     -814    -1324    -2047    -2861    -3466    -3445    -2731 
   -1700     -734      -14      556     1229     1922     2253     2162 
    2039     2201     2353     2068     1682     1550     1417     1100 
     378     -683    -1168     -840     -534     -508     -714    -1301 
   -1846    -2002    -2224    -2847    -3577    -3948    -3586    -2401 
    -981      -22      804     2037     3242     3751     3350     2417 
    1766     1716     1999     2038     1310      450      239       39 
    -724    -1629    -2290    -2540    -2499    -2594    -2502    -1485 
     -54      386     -675    -1903    -1686    -1124    -2574    -4276 
   -1659     4435     8488     8002     3155    -2934    -4916    -3480 
   -1819     -582    -1665    -3451    -1893     2713     6634     3875 
   -2740    -3661    -3110    -5290     -653    10153    14865    10575 
    2822    -2458    -4467    -8520   -12574    -8222      749     3535 
    -250    -2464     -336     -893    -5764    -7244    -6353    -8898 
  -10225    -3759     9075    19087    18431    13008     9009        7 
  -13304   -15778     -976    12901     5423    -9877    -7921     4198 
    9248     6738    -2051   -14373   -20186   -14137     -551     7303 
    -137    -9175    -2408    10778    12934     6501     1078    -1151 
    1559     6389     3566    -7581   -15487    -8537     9339    19392 
   16378    10356     5397       82   -11560   -29956   -38516   -28691 
  -12739    -1832     1917      799     2177    15812    38648    38220 
   -2706   -35128   -18884    13527    30133    35773    29504     9599 
  -11825   -27176   -28078   -12552   -12073   -44632   -69196   -53393 
  -22522    -3011    15814    44760    65222    57809    33318    18313 
   17498     8649    -9118   -16264   -23803   -45204   -51142   -13253 
   33192    28868   -11580   -18768    16175    21942   -23411   -38428 
     836    14079   -13260   -16916    10499     8567   -44119   -74999 
  -34191     2850   -29081   -66770   -42854    13609    54534    77860 
   89177    70269    28895    14101    31799    20424   -51345  -119965 
 -107267   -36732     2857    -7049   -15854   -10217    -7289    -2859 
    6707    14903    24862    51537    87128    87587    49417    16305 
   -8706   -30195   -16901    22877    28855   -19777   -57769   -28516 
   19903    22514    -5150   -24965   -35206   -40229   -30669    -7950 
    5231   -11224   -32907   -16774    15364     7038   -37188   -65920 
  -57666   -35351   -23300   -18103     7397    57837    92761    99201 
  103824    99304    65799    22759     2701    11638    21091     6367 
  -18026   -32268   -46623   -77293  -116832  -142560  -145304  -135616 
 -115254   -69635    -3561    50328    83832   124651   171460   203651 
  234813   262757   258063   233760   215290   187104   131515    55025 
  -28300  -103591  -157690  -178513  -174342  -197295  -271088  -328976 
 -315484  -254485  -174404   -86357   -10698    50025   109255   166094 
  214782   248241   253873   244533   257582   281736   262727   208524 
  164556   118928    47415   -36752  -119098  -200125  -278924  -330075 
 -331142  -318001  -328455  -333142  -297189  -222468  -115066     9284 
  120657   206520   279147   350450   414628   458922   473988   455243 
  403838   323109   216471    86731   -49004  -164967  -268677  -373023 
 -449712  -484123  -502542  -506809  -473516  -418957  -371604  -312097 
 -231713  -167429  -116479   -45821    24164    72864   141976   265007 
  410307   536049   645434   731343   725367   604129   460709   372358 
  326617   288347   211950    73487   -78865  -209946  -345562  -478763 
 -560112  -582897  -573893  -550524  -526878  -501051  -455989  -385251 
 -305682  -254824  -241092  -227274  -195096  -153481  -100088   -33901 
   36972    99738   135526   150198   170367   196578   212272   226091 
  259006   292304   288052   254658   226085   211408   201209   179532 
  133151    71405    11424   -40434   -74835   -81413   -61471   -22342 
   34872    99052   140573   163160   186276   183032   145695   120560 
  120223   118015   113196   115236   115711   108054    83674    32269 
  -37535  -114912  -198757  -277740  -335183  -373443  -401405  -406660 
 -373162  -315854  -260311  -199240  -126292   -77732   -71276   -76171 
  -75478   -70920   -50535   -13512    26002    65940   106480   146700 
  184329   214331   247607   286164   311566   323636   330484   328427 
  317548   298388   262466   205720   138758    76613    21349   -33386 
  -83406  -124342  -159514  -186084  -204497  -220407  -233023  -241590 
 -243636  -235244  -217263  -191797  -165567  -141496  -110674   -70618 
  -24482    26083    63671    68173    54254    54324    69526    80462 
   84147    85146    81072    69092    50745    27181      673   -16997 
  -21626   -21857   -17271    -6886     5262    21760    39357    50220 
   54042    47988    28436     -841   -31378   -54838   -72374   -88199 
 -100229  -105518   -99788   -83581   -63212   -38331    -8814    23319 
   60742    99054   130917   159139   181321   187489   177188   153474 
  118174    79569    46927    22310     1691   -16579   -30055   -39135 
  -44293   -46450   -51910   -63782   -75805   -81617   -83014   -80261 
  -65239   -37338   -10004     8304    28237    60851    97358   127658 
  149871   159457   158691   153340   139190   114879    88486    63622 
   37371    12105    -8939   -29352   -49215   -66089   -81053   -93949 
 -105203  -113971  -118177  -119665  -116632  -107344   -96136   -80248 
  -60935   -58552   -77188   -87137   -74318   -58752   -48214   -33501 
  -21948   -20682   -21619   -26056   -36643   -46199   -59548   -77861 
  -86660   -87138   -84614   -73592   -60683   -51898   -38164   -16420 
    6194    25794    43654    61200    79472    97777   112933   122959 
  125528   120700   112655    99424    78068    52299    25470     2687 
  -13339   -28021   -42196   -52181   -56613   -53760   -46214   -38197 
  -27556   -16509   -14178   -17631   -14191    -2946     8487    17201 
   23310    28665    34933    38011    34569    28990    23032    12520 
   -2488   -17143   -26045   -29788   -33455   -33832   -28384   -24202 
  -24563   -24258   -16972    -5127     4911    14777    23784    27762 
   29251    29762    28734    27653    25914    22743    19158    17732 
   21854    29469    35231    37848    37134    34375    34558    38448 
   41517    42051    43696    49553    55758    56802    52409    44664 
   35481    26873    19431    11467     2288    -6737   -14846   -20675 
  -23674   -26781   -30719   -33453   -35540   -36761   -35208   -31850 
  -27128   -18983    -8153     1464     8544    15979    24257    29529 
   30055    27175    22065    14734     5774    -1918    -8076   -16651 
  -26640   -32677   -37372   -47364   -59819   -68290   -73333   -76741 
  -76064   -70377   -63155   -56672   -48430   -36477   -24160   -14328 
   -6128        6     2932     3741     4571     5890     4904      675 
   -2643    -2365      266     5625    15623    28373    39925    49563 
   58257    64812    66747    63162    54844    42102    25578     8523 
   -5799   -16343   -22556   -24734   -23404   -19510   -17582   -19054 
  -17023    -8373     1536     9861    17618    24730    30644    32882 
   27928    16200      870   -16435   -35218   -52530   -64522   -71386 
  -75163   -75746   -72079   -63691   -51441   -37161   -22417    -7849 
    7564    24038    38888    49855    56628    59100    56112    45340 
   27631     8634    -7792   -20841   -29604   -35312   -39873   -41879 
  -38927   -31461   -22350   -11880     1039    13620    24591    36921 
   50679    62466    70411    74652    74883    70731    63431    54458 
   44278    33087    21540    10433     -576   -11906   -22907   -33916 
  -45207   -53365   -54173   -47734   -36910   -23682    -8492     8387 
   25397    40515    51662    56143    53032    45220    37004    29069 
   17579     1465   -14444   -26409   -34888   -42271   -50689   -58825 
  -63075   -61832   -55336   -43714   -27725   -10455     4970    18496 
   30297    38696    41958    37973    26234    10388    -5917   -21260 
  -34022   -42576   -45405   -42195   -36161   -29155   -18984    -6409 
    4821    13518    18251    16782    11633     7230     3189    -2501 
   -7700    -9420    -8572    -7367    -5234      469     7949    10743 
   10131    13746    21667    28808    30266    22667    10633     1501 
   -4739   -10453   -14547   -15672   -13837    -8297      872     8640 
   10168     9620    11569    12836    11709     8062      384    -8737 
  -16149   -21696   -25895   -28214   -27110   -23631   -20133   -17134 
  -13687    -8400    -2134     4850    14390    24565    33049    41543 
   50413    58271    64579    67623    65199    57530    46847    34810 
   21222     5858    -9470   -21837   -29924   -35602   -41446   -46967 
  -50482   -52261   -52844   -52233   -50305   -45492   -36491   -24691 
  -12181      -10    11192    21055    28752    32495    31547    26735 
   18316     7212    -3235   -10649   -15432   -18617   -20658   -20900 
  -18836   -15140    -9619    -1813     6879    15186    23260    30022 
   32963    31027    25117    17331     9457     1366    -6878   -13558 
  -17660   -19618   -19230   -15852   -10668    -6293    -3787    -1119 
    3285     7415     9306     9822    10322    10348     8086     3270 
