Origin Time       2016/04/14 21:26:00
Lat.              32.742
Long.             130.808
Depth. (km)       11
Mag.              6.5
Station Code      KMMH16
Station Lat.      32.7967
Station Long.     130.8199
Station Height(m) 55
Record Time       2016/04/14 21:26:36
Sampling Freq(Hz) 100Hz
Duration Time(s)  300
Dir.              5
Scale Factor      3920(gal)/6170801
Max. Acc. (gal)   925.025
Last Correction   2016/04/14 21:26:21
Memo.             
[...]
    5459     5472     5478     5478     5482     5489     5486     5472 
    5468     5470     5464     5458     5459     5465     5475     5481 
    5481     5477     5473     5470     5464     5464     5470     5470 
    5466     5467     5468     5467     5470     5477     5486     5490 
    5484     5479     5473     5465     5461     5460     5460     5461 
    5463     5464     5462     5462     5469     5478     5481     5481 
    5481     5481     5480     5472     5461     5462     5468     5468 
    5469     5479     5486     5484     5483     5483     5473     5459 
    5448     5441     5446     5463     5476     5484     5491     5489 
    5478     5471     5465     5456     5460     5471     5479     5485 
    5486     5482     5482     5477     5467     5469     5474     5466 
    5457     5461     5470     5475     5475     5476     5473     5467 
    5461     5460     5464     5468     5471     5480     5489     5486 
    5482     5481     5477     5472     5473     5471     5470     5471 
    5467     5467     5474     5475     5473     5466     5458     5463 
    5470     5467     5467     5470     5464     5460     5463     5471 
    5481     5484     5486     5485     5474     5471     5472     5470 
    5476     5484     5480     5471     5456     5448     5459     5467 
    5469     5478     5483     5483     5477     5464     5458     5464 
    5469     5469     5468     5472     5477     5480     5483     5484 
    5482     5479     5471     5468     5469     5468     5464     5464 
    5468     5467     5465     5468     5473     5473     5473     5471 
    5466     5461     5459     5463     5468     5470     5474     5483 
    5488     5488     5487     5480     5467     5455     5452     5461 
    5467     5464     5462     5460     5451     5451     5463     5470 
    5475     5484     5489     5483     5476     5477     5478     5468 
    5464     5467     5463     5458     5465     5478     5477     5466 
    5465     5469     5472     5473     5469     5467     5471     5482 
    5491     5488     5477     5470     5468     5468     5471     5471 
    5469     5464     5462     5468     5470     5467     5466     5463 
    5459     5464     5468     5469     5477     5481     5484     5491 
    5483     5471     5470     5468     5470     5478     5479     5480 
    5478     5469     5471     5481     5478     5465     5450     5448 
    5454     5451     5451     5467     5482     5495     5502     5492 
    5477     5465     5454     5461     5485     5499     5493     5476 
    5459     5441     5432     5444     5462     5472     5483     5494 
    5495     5481     5461     5447     5447     5462     5484     5497 
    5501     5496     5474     5461     5467     5464     5452     5450 
    5457     5466     5473     5479     5488     5493     5483     5470 
    5472     5479     5475     5464     5454     5451     5457     5465 
    5463     5464     5473     5471     5460     5455     5456     5459 
    5466     5478     5490     5494     5492     5494     5492     5480 
    5474     5474     5464     5456     5462     5469     5469     5467 
    5461     5458     5464     5459     5450     5461     5476     5478 
    5475     5476     5482     5485     5489     5496     5493     5485 
    5485     5477     5463     5460     5454     5441     5445     5457 
    5456     5462     5479     5481     5473     5469     5469     5474 
    5483     5485     5481     5476     5468     5462     5466     5475 
    5479     5476     5464     5461     5474     5485     5491     5489 
    5478     5476     5472     5458     5458     5463     5451     5443 
    5457     5470     5468     5465     5469     5472     5475     5482 
    5492     5501     5504     5502     5492     5474     5457     5447 
    5444     5447     5453     5460     5463     5464     5464     5464 
    5469     5483     5492     5480     5467     5466     5468     5478 
    5493     5500     5495     5479     5464     5460     5457     5459 
    5472     5478     5466     5453     5451     5455     5457     5464 
    5482     5495     5493     5487     5485     5486     5479     5463 
    5449     5446     5458     5476     5491     5495     5484     5462 
    5442     5439     5456     5472     5482     5491     5491     5482 
    5472     5469     5475     5473     5463     5466     5486     5500 
    5498     5494     5495     5483     5459     5437     5424     5421 
    5429     5453     5476     5482     5485     5487     5480     5474 
    5477     5488     5502     5504     5495     5484     5471     5463 
    5461     5460     5466     5477     5480     5472     5457     5445 
    5444     5450     5459     5464     5457     5451     5461     5482 
    5495     5501     5504     5499     5485     5481     5493     5501 
    5489     5464     5448     5448     5449     5446     5451     5466 
    5476     5471     5470     5481     5483     5480     5485     5488 
    5467     5437     5428     5441     5456     5468     5477     5484 
    5493     5504     5510     5511     5500     5477     5461     5454 
    5450     5459     5474     5481     5474     5459     5447     5452 
    5462     5470     5485     5497     5493     5482     5474     5464 
    5452     5441     5441     5455     5465     5463     5468     5477 
    5474     5470     5481     5497     5503     5495     5480     5469 
    5463     5463     5474     5484     5477     5463     5453     5447 
    5443     5444     5451     5465     5476     5481     5486     5486 
    5469     5447     5438     5445     5457     5464     5478     5500 
    5512     5502     5484     5475     5469     5461     5461     5467 
    5473     5465     5448     5454     5471     5467     5455     5453 
    5451     5458     5473     5485     5491     5488     5474     5467 
    5467     5465     5463     5461     5459     5466     5475     5476 
    5483     5493     5479     5466     5477     5482     5474     5466 
    5458     5445     5433     5434     5456     5486     5496     5483 
    5471     5473     5479     5482     5481     5477     5466     5449 
    5444     5460     5475     5476     5472     5469     5462     5455 
    5453     5459     5468     5476     5479     5472     5472     5476 
    5461     5449     5462     5480     5489     5498     5505     5499 
    5484     5476     5476     5465     5445     5434     5434     5432 
    5434     5446     5462     5482     5499     5499     5491     5483 
    5463     5454     5473     5487     5488     5490     5481     5470 
    5471     5471     5470     5476     5468     5447     5433     5427 
    5444     5475     5489     5497     5503     5482     5455     5447 
    5448     5455     5470     5481     5496     5513     5507     5487 
    5484     5480     5462     5454     5457     5458     5451     5447 
    5464     5480     5468     5450     5448     5451     5451     5457 
    5473     5489     5492     5484     5475     5479     5486     5486 
    5491     5503     5499     5471     5451     5456     5463     5458 
    5448     5449     5457     5451     5436     5437     5461     5479 
    5481     5483     5489     5481     5470     5473     5483     5493 
    5500     5490     5478     5480     5475     5464     5471     5483 
    5479     5464     5455     5460     5463     5452     5447     5462 
    5471     5462     5459     5468     5474     5476     5482     5488 
    5495     5495     5480     5466     5466     5471     5476     5481 
    5482     5477     5467     5455     5453     5456     5450     5440 
    5438     5447     5456     5464     5482     5500     5506     5503 
    5502     5496     5480     5456     5445     5455     5464     5462 
    5465     5474     5468     5462     5474     5484     5474     5459 
    5452     5447     5447     5454     5466     5486     5505     5513 
    5508     5490     5468     5457     5462     5472     5479     5483 
    5484     5478     5464     5449     5449     5461     5466     5467 
    5468     5465     5460     5458     5464     5475     5476     5470 
    5472     5476     5479     5487     5494     5493     5483     5479 
    5483     5477     5460     5459     5470     5467     5458     5461 
    5467     5461     5455     5463     5477     5477     5471     5479 
    5486     5477     5469     5465     5457     5450     5451     5461 
    5475     5479     5482     5492     5497     5495     5494     5491 
    5479     5465     5461     5459     5455     5456     5463     5468 
    5462     5459     5464     5466     5466     5471     5476     5475 
    5467     5459     5461     5470     5478     5483     5487     5486 
    5481     5473     5466     5462     5464     5472     5472     5462 
    5455     5460     5472     5484     5488     5482     5473     5465 
    5461     5462     5460     5451     5448     5461     5473     5475 
    5480     5484     5484     5486     5486     5479     5469     5466 
    5468     5466     5463     5464     5466     5462     5457     5458 
    5465     5475     5482     5486     5485     5475     5466     5471 
    5477     5470     5466     5475     5473     5464     5460     5455 
    5451     5461     5473     5476     5478     5471     5464     5471 
    5477     5475     5477     5477     5472     5473     5484     5492 
    5494     5489     5479     5466     5452     5448     5448     5446 
    5455     5468     5468     5460     5456     5457     5461     5468 
    5481     5490     5489     5483     5488     5496     5495     5491 
    5487     5479     5469     5457     5449     5445     5435     5434 
    5450     5468     5475     5484     5490     5483     5472     5470 
    5469     5467     5473     5476     5467     5466     5476     5480 
    5478     5482     5488     5484     5473     5465     5463     5461 
    5462     5473     5482     5475     5466     5468     5475     5474 
    5471     5469     5457     5443     5441     5450     5462     5480 
    5497     5506     5500     5483     5471     5466     5457     5452 
    5464     5480     5486     5484     5472     5458     5453     5452 
    5455     5464     5471     5476     5480     5479     5478     5484 
    5484     5481     5487     5485     5470     5457     5447     5440 
    5448     5465     5483     5493     5491     5477     5461     5455 
    5461     5467     5465     5457     5454     5461     5470     5474 
    5480     5493     5492     5474     5458     5454     5455     5457 
    5464     5473     5482     5485     5476     5463     5457     5460 
    5468     5471     5474     5479     5475     5463     5467     5479 
    5476     5469     5465     5458     5453     5454     5469     5536 
    5642     5636     5473     5429     5725     5991     5552     4871 
    4981     5266     5879     7794     7742     4290     2293     2649 
    3819     6834     7697     4907     5536     9705    11972    11592 
    7243      160    -2634      533     4929     7468     6331     1960 
     437     4258     7671     8163     7207     4517     3208     6113 
    9397    11300    11415     7459     4680     6748     7803     6556 
    4659     1176     -977     1604     7774    12636    12304     9562 
    9475    13510    17965    15550     5875    -1284     -399     4571 
    9775    12030     9877     4870    -2862     -545    21522    33318 
   15225     1465    12821    27713    37998    47257    40559    18652 
    -960   -21559   -36645   -27559   -16320   -25496   -23933    13098 
   50789    52351    46287    71708    98599    84274    40378    -2897 
  -27993   -35981   -38868   -21964    27715    65403    46072   -10194 
  -49009   -38130    -2502    12449    11636    27085    45150    28402 
   -4225    -3068    32810    70167    87392    93413   108506   101995 
   33590   -43952   -61640   -45258   -43919   -51906   -45993   -30899 
  -14756    14274    50380    76429    92020    82437    37084    -4673 
  -12521   -17082   -27920    -6015    29881    17967   -39444   -99494 
 -132549  -119498   -63324     9517    76476   124489   132185    99948 
   79340    92437   103782   112904   140081   150049    86942   -52014 
 -199431  -275068  -271961  -252699  -220298  -109040    28020    77061 
   89192   148644   198422   186917   159046   153564   161881   154324 
   97971    13843   -30789   -20678    -4217   -36954  -119709  -160790 
 -113488   -85079  -121949  -113854   -52935   -46929   -78421   -59667 
    1419    62990   120407   164987   184165   182229   145398    51035 
  -75428  -178114  -224014  -221442  -208635  -194422  -147596   -84375 
  -62085   -64595   -12451    94895   167831   173028   154286   129248 
   84398    40099    34864    42402     2515   -76361  -155020  -227736 
 -293361  -352540  -407735  -433261  -424921  -425718  -421359  -356655 
 -272399  -246405  -270468  -293832  -291579  -261229  -200286  -120562 
  -72975   -85663  -126873  -189209  -291607  -401322  -470947  -500510 
 -517667  -536991  -529297  -440511  -264249   -44608   194795   438054 
  615721   680907   711302   779415   825972   827148   867805   952131 
 1012244  1060210  1120918  1142632  1067157   897089   688908   490422 
  258737   -84319  -495080  -842157 -1048995 -1108493 -1077368 -1023754 
 -914530  -687436  -393743  -141304    36102   161330   245957   315397 
  386392   447117   516432   576216   552125   437688   263650    35300 
 -226145  -480546  -673563  -768900  -800320  -820982  -846169  -855146 
 -819140  -733747  -582971  -352997  -105211    98346   295255   550416 
  832246  1075246  1288009  1435730  1458192  1430902  1420190  1407669 
 1410685  1420975  1371128  1237630  1066658   912114   784223   666872 
  555098   443115   300428   126882   -24886  -149243  -291741  -462562 
 -632538  -770389  -865790  -919411  -929802  -900476  -858580  -844654 
 -828572  -753286  -681943  -691528  -745013  -815938  -887634  -828539 
 -492059    24542   332091   285961   278409   469815   574987   569340 
  566613   527210   468051   393828   301783   233865   174878   114666 
   44141   -55582  -156584  -262379  -387115  -468372  -485329  -514970 
 -595249  -674801  -660449  -496084  -246005   -50302     6670     1872 
   30993     9204   -61667   -39686     7487   -11619   -49436  -131052 
 -263951  -394237  -527632  -673748  -813922  -925772  -983593  -958693 
 -827784  -624879  -428685  -268728  -131698   -21287    63086   131760 
  180548   212534   234546   239115   228509   211770   183017   137553 
   77166      772   -79292  -140546  -183566  -236882  -313175  -386845 
 -452017  -527013  -574290  -543647  -462591  -366006  -235585   -79920 
   44480   123020   193802   268961   336087   413001   510028   583969 
  612296   634791   671021   704349   736394   777150   830737   900164 
  980403  1064401  1141922  1197983  1233323  1259382  1267518  1234752 
 1157169  1049174   914974   758290   614145   512314   425233   333631 
  267053   215943   154875    99767    39323   -37370  -100872  -160173 
 -253135  -387767  -568779  -797321 -1026343 -1206557 -1329237 -1383743 
-1383806 -1368955 -1325655 -1223007 -1070999  -904207  -751970  -613781 
 -486553  -361820  -196389     5352   166162   266475   350529   422037 
  454527   436210   387419   338197   281476   219161   180041   155727 
  125654    95000    67443    39598     3119   -50339  -119071  -195866 
 -259548  -281043  -256807  -204813  -123091     3592   157104   286306 
  342637   328865   297937   267447   230527   209485   196034   162507 
  117267    64944     7091   -36879   -60812   -76660   -91962   -95410 
  -74449   -36780    12047    69812   117141   145253   171272   201819 
  223917   231507   224692   197938   152197   100619    52079     3592 
  -50835  -113644  -183215  -253895  -319081  -381755  -443529  -487905 
 -504937  -500119  -468525  -394978  -281829  -165499   -79429   -15699 
   42790    98088   149125   179518   171981   147294   128010   103908 
   78525    64584    43976     9827   -19261   -41755   -63017   -76441 
  -79071   -77053   -75510   -71729   -58327   -28811    16511    66159 
  111545   158760   210575   257262   292993   316960   324441   310277 
  273845   224032   173826   126327    78380    29395   -19180   -64137 
  -99675  -119457  -121992  -112113   -93249   -56530     6987    79003 
  134428   176398   211434   228039   227346   226670   218529   180584 
  121049    57281   -11612   -77982  -130436  -178019  -227646  -266193 
 -281459  -276538  -260634  -240029  -213455  -176602  -136563  -101336 
  -62228   -13435    32384    63814    85873   106021   119743   126042 
  132555   134486   127348   122335   117110    97243    67392    38322 
    8659   -22040   -45664   -60065   -78135  -106824  -133808  -148438 
 -156451  -168398  -182621  -184649  -165538  -132980   -98022   -58593 
   -6948    51936   107372   162138   225006   292650   353302   400637 
  435940   464715   492675   515823   520759   498290   449311   384603 
  317071   244863   158088    56517   -59909  -193473  -333441  -454308 
 -523168  -530230  -512057  -511745  -540140  -580163  -609944  -627196 
 -632034  -616843  -587725  -549783  -504560  -461185  -416581  -358760 
 -285039  -207899  -142448   -83600   -24139    27355    72812   128975 
  196375   256832   305334   353919   398998   425813   440988   453804 
  453057   438580   427659   422424   414803   398185   362154   306397 
  238205   152525    46279   -59681  -136332  -176915  -188068  -165873 
 -114758   -51436    24396   117393   213349   288167   321070   301761 
  231096   128594    32570   -36925   -94771  -159567  -232293  -297342 
 -344096  -384662  -431100  -479004  -519900  -551054  -574679  -588173 
 -579277  -535232  -459608  -379379  -315868  -254729  -180495  -109496 
  -51366     4280    58685   110946   161582   202193   235597   274131 
  310463   339364   379447   432877   481697   524772   563648   588120 
  594305   586827   571153   547131   510754   463686   403911   321139 
  214610    91485   -49855  -211581  -377948  -528768  -653035  -728920 
 -744116  -727892  -701210  -640976  -530619  -401666  -295615  -213396 
 -135097   -56867     7475    45227    63260    78267    96984   112267 
  120234   128247   130892   119410    99732    69142    24490   -22456 
  -64352   -94068  -100394   -85365   -58754   -27173     7770    54525 
  119499   195315   271307   338810   391888   432529   467427   500636 
  528317   540650   533759   512217   478382   431726   376880   318529 
  252349   175423    96617    25583   -37402   -93642  -134593  -155008 
 -167217  -177165  -178539  -176444  -172882  -158664  -141118  -134566 
 -139977  -155204  -174507  -192894  -211978  -223125  -215152  -190655 
 -155124  -110455   -59482    -5751    50297   105974   150297   173091 
  176202   167762   149002   120771    88718    52111     7536   -43481 
 -101569  -170267  -246096  -319569  -382666  -426400  -443480  -431763 
 -384685  -293897  -170731   -52245    37454   116809   203581   291860 
  386435   490099   582037   643642   672912   678670   665559   628455 
  570606   501399   418981   314844   185325    32242  -140824  -329859 
 -525060  -703890  -830755  -865366  -810419  -744828  -734120  -745049 
 -714166  -628820  -506507  -369871  -246379  -138589   -29994    63094 
  121200   170914   225420   257119   265801   273482   275241   262239 
  240051   216371   203174   202982   202938   199637   192238   171668 
