EVENT_NAME: L_AQUILA
EVENT_ID: IT-2009-0009
EVENT_DATE_YYYYMMDD: 20090406
EVENT_TIME_HHMMSS: 013240
EVENT_LATITUDE_DEGREE: 42.3420
EVENT_LONGITUDE_DEGREE: 13.3800
EVENT_DEPTH_KM: 8.3
HYPOCENTER_REFERENCE: INGV-CNT_Seismic_Bulletin
MAGNITUDE_W: 6.3
MAGNITUDE_W_REFERENCE: RCMT-INGV
MAGNITUDE_L: 5.9
MAGNITUDE_L_REFERENCE: INGV-CNT_Seismic_Bulletin
FOCAL_MECHANISM: NF
NETWORK: MN
STATION_CODE: AQU
STATION_NAME: AQUILA CASTELLO
STATION_LATITUDE_DEGREE: 42.353880
STATION_LONGITUDE_DEGREE: 13.401930
STATION_ELEVATION_M: 729
LOCATION: 
SENSOR_DEPTH_M: 15.0
VS30_M/S: 
SITE_CLASSIFICATION_EC8: C*
MORPHOLOGIC_CLASSIFICATION: 
EPICENTRAL_DISTANCE_KM: 2.2
EARTHQUAKE_BACKAZIMUTH_DEGREE: 233.9
DATE_TIME_FIRST_SAMPLE_YYYYMMDD_HHMMSS: 20090406_013225.000
DATE_TIME_FIRST_SAMPLE_PRECISION: milliseconds
SAMPLING_INTERVAL_S: 0.005000
NDATA: 18001
DURATION_S: 90.005
STREAM: HLN
UNITS: cm
INSTRUMENT: sensor = Unknown [Unknown] | digitizer = Unknown [Unknown]
INSTRUMENT_ANALOG/DIGITAL: D
INSTRUMENTAL_FREQUENCY_HZ: 
INSTRUMENTAL_DAMPING: 
FULL_SCALE_G: 
N_BIT_DIGITAL_CONVERTER: 
PGD_CM: 8.121592
TIME_PGD_S: 18.545000
BASELINE_CORRECTION: BASELINE REMOVED
FILTER_TYPE: BUTTERWORTH
FILTER_ORDER: 2
LOW_CUT_FREQUENCY_HZ: 0.150
HIGH_CUT_FREQUENCY_HZ: 40.000
LATE/NORMAL_TRIGGERED: NT
DATABASE_VERSION: DYNA 1.0
HEADER_FORMAT: DYNA 1.2
DATA_TYPE: DISPLACEMENT
PROCESSING: manual (Paolucci et al., 2011)
DATA_TIMESTAMP_YYYYMMDD_HHMMSS: 
DATA_LICENSE: CC-BY4_0 (http://creativecommons.org/licenses/by/4.0/)
DATA_CITATION: ESM working group (2015), European Strong-Motion database, version 0.1, Network Activity 3: Networking acceleration networks and SM data users. Project NERA (www.nera-eu.org)
DATA_CREATOR: ESM working group
ORIGINAL_DATA_MEDIATOR_CITATION: data obtained within the DPC-INGV data exchange agreements
ORIGINAL_DATA_MEDIATOR: Archive of Italian Department of Civil Protection
ORIGINAL_DATA_CREATOR_CITATION: Mediterranean Broad Band Seismographic Network, Istituto Nazionale di Geofisica e Vulcanologia http://mednet.rm.ingv.it
ORIGINAL_DATA_CREATOR: network: MN (Mediterranean Very Broadband Seismographic Network (MNDC)); owner: Istituto Nazionale di Geofisica e Vulcanologia
USER1: 
USER2: 
USER3: 
USER4: 
USER5: 
[...]
-5.223112e-03
-5.553581e-03
-5.886119e-03
-6.220741e-03
-6.557455e-03
-6.896265e-03
-7.237174e-03
-7.580193e-03
-7.925332e-03
-8.272602e-03
-8.622017e-03
-8.973592e-03
-9.327334e-03
-9.683244e-03
-1.004132e-02
-1.040158e-02
-1.076403e-02
-1.112867e-02
-1.149549e-02
-1.186447e-02
-1.223564e-02
-1.260903e-02
-1.298465e-02
-1.336252e-02
-1.374260e-02
-1.412490e-02
-1.450943e-02
-1.489623e-02
-1.528531e-02
-1.567663e-02
-1.607019e-02
-1.646600e-02
-1.686407e-02
-1.726443e-02
-1.766709e-02
-1.807202e-02
-1.847922e-02
-1.888873e-02
-1.930056e-02
-1.971473e-02
-2.013124e-02
-2.055009e-02
-2.097126e-02
-2.139475e-02
-2.182059e-02
-2.224880e-02
-2.267939e-02
-2.311239e-02
-2.354776e-02
-2.398547e-02
-2.442553e-02
-2.486796e-02
-2.531282e-02
-2.576012e-02
-2.620984e-02
-2.666196e-02
-2.711647e-02
-2.757340e-02
-2.803278e-02
-2.849462e-02
-2.895891e-02
-2.942566e-02
-2.989486e-02
-3.036655e-02
-3.084072e-02
-3.131737e-02
-3.179651e-02
-3.227815e-02
-3.276230e-02
-3.324896e-02
-3.373810e-02
-3.422974e-02
-3.472387e-02
-3.522053e-02
-3.571975e-02
-3.622151e-02
-3.672583e-02
-3.723270e-02
-3.774213e-02
-3.825412e-02
-3.876867e-02
-3.928578e-02
-3.980543e-02
-4.032764e-02
-4.085241e-02
-4.137976e-02
-4.190970e-02
-4.244226e-02
-4.297743e-02
-4.351523e-02
-4.405564e-02
-4.459868e-02
-4.514436e-02
-4.569268e-02
-4.624364e-02
-4.679722e-02
-4.735345e-02
-4.791234e-02
-4.847391e-02
-4.903817e-02
-4.960510e-02
-5.017470e-02
-5.074698e-02
-5.132192e-02
-5.189955e-02
-5.247988e-02
-5.306289e-02
-5.364861e-02
-5.423704e-02
-5.482818e-02
-5.542203e-02
-5.601859e-02
-5.661789e-02
-5.721992e-02
-5.782469e-02
-5.843219e-02
-5.904243e-02
-5.965543e-02
-6.027121e-02
-6.088978e-02
-6.151110e-02
-6.213516e-02
-6.276197e-02
-6.339156e-02
-6.402397e-02
-6.465920e-02
-6.529724e-02
-6.593810e-02
-6.658175e-02
-6.722820e-02
-6.787743e-02
-6.852948e-02
-6.918437e-02
-6.984212e-02
-7.050271e-02
-7.116611e-02
-7.183234e-02
-7.250142e-02
-7.317336e-02
-7.384815e-02
-7.452579e-02
-7.520627e-02
-7.588963e-02
-7.657589e-02
-7.726507e-02
-7.795712e-02
-7.865203e-02
-7.934979e-02
-8.005043e-02
-8.075397e-02
-8.146044e-02
-8.216981e-02
-8.288208e-02
-8.359722e-02
-8.431526e-02
-8.503622e-02
-8.576012e-02
-8.648694e-02
-8.721667e-02
-8.794930e-02
-8.868483e-02
-8.942327e-02
-9.016465e-02
-9.090899e-02
-9.165631e-02
-9.240660e-02
-9.315984e-02
-9.391602e-02
-9.467514e-02
-9.543722e-02
-9.620227e-02
-9.697030e-02
-9.774131e-02
-9.851531e-02
-9.929228e-02
-1.000722e-01
-1.008551e-01
-1.016409e-01
-1.024298e-01
-1.032216e-01
-1.040164e-01
-1.048142e-01
-1.056149e-01
-1.064186e-01
-1.072254e-01
-1.080351e-01
-1.088478e-01
-1.096635e-01
-1.104821e-01
-1.113038e-01
-1.121284e-01
-1.129561e-01
-1.137868e-01
-1.146204e-01
-1.154571e-01
-1.162967e-01
-1.171393e-01
-1.179850e-01
-1.188336e-01
-1.196853e-01
-1.205400e-01
-1.213976e-01
-1.222583e-01
-1.231220e-01
-1.239887e-01
-1.248584e-01
-1.257312e-01
-1.266069e-01
-1.274858e-01
-1.283676e-01
-1.292525e-01
-1.301404e-01
-1.310313e-01
-1.319252e-01
-1.328222e-01
-1.337222e-01
-1.346252e-01
-1.355312e-01
-1.364402e-01
-1.373523e-01
-1.382673e-01
-1.391854e-01
-1.401065e-01
-1.410306e-01
-1.419578e-01
-1.428879e-01
-1.438210e-01
-1.447572e-01
-1.456965e-01
-1.466387e-01
-1.475840e-01
-1.485323e-01
-1.494836e-01
-1.504378e-01
-1.513951e-01
-1.523554e-01
-1.533186e-01
-1.542849e-01
-1.552542e-01
-1.562265e-01
-1.572018e-01
-1.581801e-01
-1.591614e-01
-1.601457e-01
-1.611329e-01
-1.621231e-01
-1.631162e-01
-1.641124e-01
-1.651115e-01
-1.661136e-01
-1.671186e-01
-1.681266e-01
-1.691376e-01
-1.701516e-01
-1.711685e-01
-1.721883e-01
-1.732111e-01
-1.742369e-01
-1.752656e-01
-1.762973e-01
-1.773319e-01
-1.783694e-01
-1.794098e-01
-1.804533e-01
-1.814997e-01
-1.825490e-01
-1.836013e-01
-1.846564e-01
-1.857145e-01
-1.867755e-01
-1.878394e-01
-1.889062e-01
-1.899758e-01
-1.910484e-01
-1.921239e-01
-1.932022e-01
-1.942834e-01
-1.953676e-01
-1.964546e-01
-1.975444e-01
-1.986372e-01
-1.997327e-01
-2.008311e-01
-2.019323e-01
-2.030364e-01
-2.041433e-01
-2.052531e-01
-2.063656e-01
-2.074810e-01
-2.085992e-01
-2.097202e-01
-2.108439e-01
-2.119705e-01
-2.130998e-01
-2.142320e-01
-2.153669e-01
-2.165046e-01
-2.176450e-01
-2.187881e-01
-2.199340e-01
-2.210827e-01
-2.222340e-01
-2.233881e-01
-2.245448e-01
-2.257043e-01
-2.268665e-01
-2.280314e-01
-2.291990e-01
-2.303692e-01
-2.315420e-01
-2.327175e-01
-2.338956e-01
-2.350764e-01
-2.362598e-01
-2.374458e-01
-2.386344e-01
-2.398256e-01
-2.410194e-01
-2.422158e-01
-2.434147e-01
-2.446162e-01
-2.458201e-01
-2.470266e-01
-2.482357e-01
-2.494472e-01
-2.506613e-01
-2.518779e-01
-2.530970e-01
-2.543186e-01
-2.555426e-01
-2.567691e-01
-2.579980e-01
-2.592294e-01
-2.604631e-01
-2.616992e-01
-2.629378e-01
-2.641788e-01
-2.654221e-01
-2.666679e-01
-2.679159e-01
-2.691664e-01
-2.704191e-01
-2.716741e-01
-2.729315e-01
-2.741911e-01
-2.754529e-01
-2.767171e-01
-2.779835e-01
-2.792521e-01
-2.805229e-01
-2.817960e-01
-2.830713e-01
-2.843488e-01
-2.856285e-01
-2.869102e-01
-2.881941e-01
-2.894802e-01
-2.907683e-01
-2.920586e-01
-2.933509e-01
-2.946453e-01
-2.959417e-01
-2.972401e-01
-2.985405e-01
-2.998429e-01
-3.011473e-01
-3.024537e-01
-3.037621e-01
-3.050724e-01
-3.063846e-01
-3.076987e-01
-3.090148e-01
-3.103327e-01
-3.116524e-01
-3.129739e-01
-3.142974e-01
-3.156226e-01
-3.169496e-01
-3.182783e-01
-3.196088e-01
-3.209410e-01
-3.222749e-01
-3.236105e-01
-3.249478e-01
-3.262867e-01
-3.276273e-01
-3.289695e-01
-3.303133e-01
-3.316587e-01
-3.330057e-01
-3.343542e-01
-3.357042e-01
-3.370557e-01
-3.384086e-01
-3.397630e-01
-3.411188e-01
-3.424761e-01
-3.438348e-01
-3.451949e-01
-3.465563e-01
-3.479191e-01
-3.492831e-01
-3.506484e-01
-3.520150e-01
-3.533828e-01
-3.547519e-01
-3.561223e-01
-3.574938e-01
-3.588664e-01
-3.602402e-01
-3.616151e-01
-3.629910e-01
-3.643680e-01
-3.657460e-01
-3.671251e-01
-3.685052e-01
-3.698862e-01
-3.712683e-01
-3.726512e-01
-3.740350e-01
-3.754196e-01
-3.768051e-01
-3.781914e-01
-3.795785e-01
-3.809665e-01
-3.823552e-01
-3.837446e-01
-3.851346e-01
-3.865252e-01
-3.879165e-01
-3.893083e-01
-3.907008e-01
-3.920939e-01
-3.934875e-01
-3.948815e-01
-3.962761e-01
-3.976710e-01
-3.990664e-01
-4.004621e-01
-4.018581e-01
-4.032545e-01
-4.046512e-01
-4.060481e-01
-4.074453e-01
-4.088427e-01
-4.102403e-01
-4.116381e-01
-4.130360e-01
-4.144339e-01
-4.158318e-01
-4.172299e-01
-4.186279e-01
-4.200259e-01
-4.214239e-01
-4.228218e-01
-4.242196e-01
-4.256174e-01
-4.270151e-01
-4.284127e-01
-4.298102e-01
-4.312075e-01
-4.326049e-01
-4.340025e-01
-4.354013e-01
-4.368028e-01
-4.382094e-01
-4.396241e-01
-4.410498e-01
-4.424882e-01
-4.439386e-01
-4.453979e-01
-4.468624e-01
-4.483296e-01
-4.497997e-01
-4.512753e-01
-4.527584e-01
-4.542475e-01
-4.557367e-01
-4.572184e-01
-4.586864e-01
-4.601385e-01
-4.615762e-01
-4.630022e-01
-4.644184e-01
-4.658253e-01
-4.672224e-01
-4.686097e-01
-4.699895e-01
-4.713666e-01
-4.727476e-01
-4.741384e-01
-4.755428e-01
-4.769632e-01
-4.784033e-01
-4.798691e-01
-4.813640e-01
-4.828846e-01
-4.844217e-01
-4.859657e-01
-4.875099e-01
-4.890505e-01
-4.905825e-01
-4.920985e-01
-4.935932e-01
-4.950684e-01
-4.965325e-01
-4.979982e-01
-4.994830e-01
-5.010051e-01
-5.025720e-01
-5.041714e-01
-5.057753e-01
-5.073558e-01
-5.089019e-01
-5.104230e-01
-5.119335e-01
-5.134415e-01
-5.149568e-01
-5.164999e-01
-5.180899e-01
-5.197243e-01
-5.213708e-01
-5.229814e-01
-5.245225e-01
-5.259951e-01
-5.274269e-01
-5.288515e-01
-5.302957e-01
-5.317746e-01
-5.332874e-01
-5.348186e-01
-5.363494e-01
-5.378727e-01
-5.394044e-01
-5.409782e-01
-5.426242e-01
-5.443449e-01
-5.461069e-01
-5.478504e-01
-5.495116e-01
-5.510490e-01
-5.524593e-01
-5.537773e-01
-5.550570e-01
-5.563466e-01
-5.576698e-01
-5.590234e-01
-5.603906e-01
-5.617638e-01
-5.631650e-01
-5.646465e-01
-5.662637e-01
-5.680360e-01
-5.699178e-01
-5.718058e-01
-5.735878e-01
-5.752013e-01
-5.766652e-01
-5.780721e-01
-5.795451e-01
-5.811843e-01
-5.830234e-01
-5.850143e-01
-5.870445e-01
-5.889832e-01
-5.907408e-01
-5.923080e-01
-5.937460e-01
-5.951409e-01
-5.965491e-01
-5.979734e-01
-5.993865e-01
-6.007736e-01
-6.021533e-01
-6.035654e-01
-6.050376e-01
-6.065632e-01
-6.081137e-01
-6.096665e-01
-6.112187e-01
-6.127837e-01
-6.143773e-01
-6.160078e-01
-6.176762e-01
-6.193822e-01
-6.211275e-01
-6.229169e-01
-6.247578e-01
-6.266611e-01
-6.286447e-01
-6.307410e-01
-6.330045e-01
-6.355031e-01
-6.382856e-01
-6.413524e-01
-6.446557e-01
-6.481227e-01
-6.516839e-01
-6.553001e-01
-6.589864e-01
-6.628310e-01
-6.669932e-01
-6.716453e-01
-6.768539e-01
-6.824843e-01
-6.882176e-01
-6.936744e-01
-6.985906e-01
-7.029441e-01
-7.069564e-01
-7.109800e-01
-7.153246e-01
-7.200987e-01
-7.251402e-01
-7.300675e-01
-7.344487e-01
-7.380135e-01
-7.408013e-01
-7.431594e-01
-7.455655e-01
-7.484080e-01
-7.518736e-01
-7.559824e-01
-7.607139e-01
-7.660693e-01
-7.719886e-01
-7.782792e-01
-7.847071e-01
-7.911538e-01
-7.976786e-01
-8.044559e-01
-8.116537e-01
-8.193843e-01
-8.277738e-01
-8.369765e-01
-8.470053e-01
-8.575655e-01
-8.681193e-01
-8.781425e-01
-8.874029e-01
-8.960707e-01
-9.045722e-01
-9.133495e-01
-9.227137e-01
-9.328065e-01
-9.436103e-01
-9.549380e-01
-9.663995e-01
-9.774492e-01
-9.875933e-01
-9.966491e-01
-1.004879e+00
-1.012882e+00
-1.021263e+00
-1.030331e+00
-1.040070e+00
-1.050297e+00
-1.060821e+00
-1.071482e+00
-1.082079e+00
-1.092303e+00
-1.101807e+00
-1.110333e+00
-1.117773e+00
-1.124164e+00
-1.129639e+00
-1.134345e+00
-1.138365e+00
-1.141670e+00
-1.144139e+00
-1.145663e+00
-1.146297e+00
-1.146327e+00
-1.146171e+00
-1.146203e+00
-1.146622e+00
-1.147401e+00
-1.148317e+00
-1.149072e+00
-1.149447e+00
-1.149432e+00
-1.149215e+00
-1.149062e+00
-1.149159e+00
-1.149546e+00
-1.150221e+00
-1.151259e+00
-1.152814e+00
-1.155021e+00
-1.157918e+00
-1.161409e+00
-1.165292e+00
-1.169285e+00
-1.173041e+00
-1.176193e+00
-1.178459e+00
-1.179731e+00
-1.180074e+00
-1.179652e+00
-1.178658e+00
-1.177296e+00
-1.175803e+00
-1.174467e+00
-1.173573e+00
-1.173327e+00
-1.173797e+00
-1.174881e+00
-1.176295e+00
-1.177610e+00
-1.178357e+00
-1.178152e+00
-1.176781e+00
-1.174262e+00
-1.170879e+00
-1.167129e+00
-1.163505e+00
-1.160245e+00
-1.157198e+00
-1.153956e+00
-1.150217e+00
-1.146031e+00
-1.141674e+00
-1.137341e+00
-1.133000e+00
-1.128460e+00
-1.123561e+00
-1.118270e+00
-1.112575e+00
-1.106353e+00
-1.099404e+00
-1.091611e+00
-1.083086e+00
-1.074219e+00
-1.065581e+00
-1.057756e+00
-1.051183e+00
-1.046056e+00
-1.042275e+00
-1.039459e+00
-1.037022e+00
-1.034347e+00
-1.031039e+00
-1.027114e+00
-1.022969e+00
-1.019166e+00
-1.016149e+00
-1.014074e+00
-1.012829e+00
-1.012129e+00
-1.011532e+00
-1.010465e+00
-1.008355e+00
-1.004846e+00
-9.999875e-01
-9.942197e-01
-9.881140e-01
-9.820635e-01
-9.761523e-01
-9.701851e-01
-9.637780e-01
-9.564505e-01
-9.477140e-01
-9.371895e-01
-9.247524e-01
-9.105957e-01
-8.951241e-01
-8.787543e-01
-8.617427e-01
-8.441121e-01
-8.257007e-01
-8.062975e-01
-7.857937e-01
-7.642661e-01
-7.419265e-01
-7.189778e-01
-6.954584e-01
-6.711700e-01
-6.457297e-01
-6.186629e-01
-5.894587e-01
-5.576326e-01
-5.228624e-01
-4.851601e-01
-4.449805e-01
-4.031337e-01
-3.604592e-01
-3.174580e-01
-2.741320e-01
-2.301278e-01
-1.851153e-01
-1.390898e-01
-9.233248e-02
-4.513596e-02
2.459845e-03
5.071127e-02
9.993973e-02
1.502776e-01
2.016278e-01
2.537634e-01
3.064202e-01
3.593616e-01
4.124501e-01
4.657215e-01
5.194178e-01
5.739199e-01
6.295788e-01
6.865910e-01
7.450348e-01
8.049831e-01
8.665633e-01
9.299479e-01
9.953040e-01
1.062731e+00
1.132217e+00
1.203644e+00
1.276869e+00
1.351807e+00
1.428452e+00
1.506826e+00
1.586897e+00
1.668540e+00
1.751582e+00
1.835865e+00
1.921263e+00
2.007673e+00
2.095032e+00
2.183344e+00
2.272699e+00
2.363262e+00
2.455251e+00
2.548898e+00
2.644395e+00
2.741850e+00
2.841278e+00
2.942625e+00
3.045819e+00
3.150812e+00
3.257593e+00
3.366163e+00
3.476465e+00
3.588319e+00
3.701412e+00
3.815370e+00
3.929898e+00
4.044869e+00
4.160255e+00
4.275991e+00
4.391913e+00
4.507807e+00
4.623529e+00
4.739079e+00
4.854532e+00
4.969933e+00
5.085258e+00
5.200415e+00
5.315251e+00
5.429557e+00
5.543109e+00
5.655755e+00
5.767496e+00
5.878503e+00
5.989015e+00
6.099177e+00
6.208919e+00
6.317890e+00
6.425487e+00
6.530961e+00
6.633581e+00
6.732761e+00
6.828095e+00
6.919370e+00
7.006638e+00
7.090243e+00
7.170687e+00
7.248358e+00
7.323287e+00
7.395156e+00
7.463650e+00
7.528774e+00
7.590806e+00
7.650008e+00
7.706416e+00
7.759859e+00
7.810180e+00
7.857395e+00
7.901563e+00
7.942589e+00
7.980203e+00
8.014065e+00
8.043867e+00
8.069338e+00
8.090184e+00
8.106054e+00
8.116611e+00
8.121592e+00
8.120778e+00
8.113913e+00
8.100675e+00
8.080687e+00
8.053550e+00
8.018939e+00
7.976781e+00
7.927424e+00
7.871683e+00
7.810751e+00
7.745982e+00
7.678657e+00
7.609769e+00
7.539836e+00
7.468755e+00
7.395883e+00
7.320369e+00
7.241475e+00
7.158579e+00
7.071024e+00
6.978049e+00
6.878879e+00
6.772910e+00
6.659834e+00
6.539627e+00
6.412565e+00
6.279365e+00
6.141215e+00
5.999497e+00
5.855469e+00
5.710176e+00
5.564506e+00
5.419183e+00
5.274671e+00
5.131080e+00
4.988232e+00
4.845918e+00
4.704087e+00
4.562761e+00
4.421890e+00
4.281371e+00
4.141149e+00
4.001201e+00
3.861476e+00
3.721890e+00
3.582393e+00
3.443060e+00
3.304099e+00
3.165743e+00
3.028107e+00
2.891139e+00
2.754637e+00
2.618286e+00
2.481736e+00
2.344713e+00
2.207107e+00
2.068992e+00
1.930606e+00
1.792344e+00
1.654721e+00
1.518283e+00
1.383531e+00
1.250908e+00
1.120815e+00
9.935737e-01
8.693655e-01
7.481977e-01
6.299616e-01
5.145726e-01
4.020472e-01
2.924153e-01
1.855887e-01
8.134371e-02
-2.057737e-02
-1.203213e-01
-2.178236e-01
-3.128118e-01
-4.048894e-01
-4.936519e-01
-5.787879e-01
-6.601285e-01
-7.376327e-01
-8.113210e-01
-8.812034e-01
-9.472470e-01
-1.009377e+00
-1.067492e+00
-1.121492e+00
-1.171305e+00
-1.216923e+00
-1.258423e+00
-1.295989e+00
-1.329912e+00
-1.360568e+00
-1.388330e+00
-1.413434e+00
-1.435876e+00
-1.455417e+00
-1.471776e+00
-1.484834e+00
-1.494677e+00
-1.501445e+00
-1.505064e+00
-1.505153e+00
-1.501250e+00
-1.493151e+00
-1.481048e+00
-1.465412e+00
-1.446725e+00
-1.425287e+00
-1.401223e+00
-1.374588e+00
-1.345406e+00
-1.313682e+00
-1.279457e+00
-1.242883e+00
-1.204258e+00
-1.164027e+00
-1.122746e+00
-1.081046e+00
-1.039588e+00
-9.990091e-01
-9.598598e-01
-9.225766e-01
-8.875071e-01
-8.549420e-01
-8.251026e-01
-7.981081e-01
-7.739595e-01
-7.525475e-01
-7.336783e-01
-7.171221e-01
-7.026833e-01
-6.902536e-01
-6.798123e-01
-6.713831e-01
-6.649754e-01
-6.605313e-01
-6.578891e-01
-6.567459e-01
-6.566142e-01
-6.568014e-01
-6.564548e-01
-6.546885e-01
-6.507757e-01
-6.443233e-01
-6.353418e-01
-6.241843e-01
-6.113903e-01
-5.975560e-01
-5.833264e-01
-5.694567e-01
-5.568458e-01
-5.464913e-01
-5.393649e-01
-5.362725e-01
-5.377505e-01
-5.439903e-01
-5.547673e-01
-5.694141e-01
-5.868958e-01
-6.060126e-01
-6.256883e-01
-6.451748e-01
-6.640390e-01
-6.820135e-01
-6.988629e-01
-7.143614e-01
-7.283797e-01
-7.409340e-01
-7.520956e-01
-7.618875e-01
-7.703133e-01
-7.774736e-01
-7.836514e-01
-7.892864e-01
-7.948421e-01
-8.007015e-01
-8.071985e-01
-8.147022e-01
-8.236320e-01
-8.343854e-01
-8.472343e-01
-8.622954e-01
-8.796137e-01
-8.992206e-01
-9.210375e-01
-9.447024e-01
-9.694774e-01
-9.943423e-01
-1.018266e+00
-1.040438e+00
-1.060297e+00
-1.077453e+00
-1.091684e+00
-1.102973e+00
-1.111500e+00
-1.117576e+00
-1.121565e+00
-1.123838e+00
-1.124808e+00
-1.124961e+00
-1.124823e+00
-1.124916e+00
-1.125762e+00
-1.127827e+00
-1.131376e+00
-1.136338e+00
-1.142326e+00
-1.148788e+00
-1.155159e+00
-1.160914e+00
-1.165485e+00
-1.168187e+00
-1.168295e+00
-1.165211e+00
-1.158606e+00
-1.148472e+00
-1.135060e+00
-1.118783e+00
-1.100123e+00
-1.079569e+00
-1.057582e+00
-1.034592e+00
-1.011045e+00
-9.874289e-01
-9.642493e-01
-9.419483e-01
-9.208191e-01
-9.009917e-01
-8.825097e-01
-8.654002e-01
-8.496546e-01
-8.352037e-01
-8.219754e-01
-8.099738e-01
-7.992862e-01
-7.900120e-01
-7.821719e-01
-7.756892e-01
-7.704715e-01
-7.664735e-01
-7.636463e-01
-7.618905e-01
-7.611358e-01
-7.614768e-01
-7.632319e-01
-7.668700e-01
-7.728351e-01
-7.814002e-01
-7.926531e-01
-8.065517e-01
-8.229629e-01
-8.416932e-01
-8.625457e-01
-8.853897e-01
-9.101996e-01
-9.370162e-01
-9.658227e-01
-9.964258e-01
-1.028420e+00
-1.061208e+00
-1.094030e+00
-1.126018e+00
-1.156303e+00
-1.184161e+00
-1.209150e+00
-1.231173e+00
-1.250437e+00
-1.267382e+00
-1.282630e+00
-1.296919e+00
-1.310941e+00
-1.325206e+00
-1.340025e+00
-1.355642e+00
-1.372404e+00
-1.390786e+00
-1.411146e+00
-1.433436e+00
-1.457114e+00
-1.481318e+00
-1.505191e+00
-1.528134e+00
-1.549829e+00
-1.570140e+00
-1.589047e+00
-1.606616e+00
-1.622938e+00
-1.638055e+00
-1.651912e+00
-1.664396e+00
-1.675482e+00
-1.685331e+00
-1.694238e+00
-1.702500e+00
-1.710341e+00
-1.717893e+00
-1.725193e+00
-1.732209e+00
-1.738904e+00
-1.745303e+00
-1.751525e+00
-1.757730e+00
-1.763986e+00
-1.770211e+00
-1.776269e+00
-1.782121e+00
-1.787885e+00
-1.793805e+00
-1.800205e+00
-1.807443e+00
-1.815870e+00
-1.825787e+00
-1.837395e+00
-1.850767e+00
-1.865858e+00
-1.882515e+00
-1.900463e+00
-1.919313e+00
-1.938627e+00
-1.957972e+00
-1.976927e+00
-1.995079e+00
-2.012087e+00
-2.027765e+00
-2.042107e+00
-2.055229e+00
-2.067241e+00
-2.078189e+00
-2.088128e+00
-2.097236e+00
-2.105814e+00
-2.114193e+00
-2.122617e+00
-2.131176e+00
-2.139824e+00
-2.148435e+00
-2.156837e+00
-2.164791e+00
-2.171930e+00
-2.177758e+00
-2.181733e+00
-2.183406e+00
-2.182492e+00
-2.178852e+00
-2.172384e+00
-2.162949e+00
-2.150432e+00
-2.134839e+00
-2.116345e+00
-2.095272e+00
-2.072025e+00
-2.047027e+00
-2.020674e+00
-1.993307e+00
-1.965195e+00
-1.936524e+00
-1.907380e+00
-1.877735e+00
-1.847472e+00
-1.816431e+00
-1.784496e+00
-1.751636e+00
-1.717872e+00
-1.683214e+00
-1.647632e+00
-1.611055e+00
-1.573375e+00
-1.534462e+00
-1.494200e+00
-1.452510e+00
-1.409371e+00
-1.364808e+00
-1.318881e+00
-1.271664e+00
-1.223257e+00
-1.173811e+00
-1.123549e+00
-1.072770e+00
-1.021835e+00
-9.711099e-01
-9.208787e-01
-8.712831e-01
-8.223498e-01
-7.740491e-01
