EVENT_NAME: L_AQUILA
EVENT_ID: IT-2009-0009
EVENT_DATE_YYYYMMDD: 20090406
EVENT_TIME_HHMMSS: 013240
EVENT_LATITUDE_DEGREE: 42.3420
EVENT_LONGITUDE_DEGREE: 13.3800
EVENT_DEPTH_KM: 8.3
HYPOCENTER_REFERENCE: INGV-CNT_Seismic_Bulletin
MAGNITUDE_W: 6.3
MAGNITUDE_W_REFERENCE: RCMT-INGV
MAGNITUDE_L: 5.9
MAGNITUDE_L_REFERENCE: INGV-CNT_Seismic_Bulletin
FOCAL_MECHANISM: NF
NETWORK: MN
STATION_CODE: AQU
STATION_NAME: AQUILA CASTELLO
STATION_LATITUDE_DEGREE: 42.353880
STATION_LONGITUDE_DEGREE: 13.401930
STATION_ELEVATION_M: 729
LOCATION: 
SENSOR_DEPTH_M: 15.0
VS30_M/S: 
SITE_CLASSIFICATION_EC8: C*
MORPHOLOGIC_CLASSIFICATION: 
EPICENTRAL_DISTANCE_KM: 2.2
EARTHQUAKE_BACKAZIMUTH_DEGREE: 233.9
DATE_TIME_FIRST_SAMPLE_YYYYMMDD_HHMMSS: 20090406_013225.000
DATE_TIME_FIRST_SAMPLE_PRECISION: milliseconds
SAMPLING_INTERVAL_S: 0.005000
NDATA: 105
DURATION_S: 
STREAM: HLZ
UNITS: cm
INSTRUMENT: sensor = Unknown [Unknown] | digitizer = Unknown [Unknown]
INSTRUMENT_ANALOG/DIGITAL: D
INSTRUMENTAL_FREQUENCY_HZ: 
INSTRUMENTAL_DAMPING: 
FULL_SCALE_G: 
N_BIT_DIGITAL_CONVERTER: 
PGD_CM: -6.321938
TIME_PGD_S: 18.335000
BASELINE_CORRECTION: BASELINE REMOVED
FILTER_TYPE: BUTTERWORTH
FILTER_ORDER: 2
LOW_CUT_FREQUENCY_HZ: 0.150
HIGH_CUT_FREQUENCY_HZ: 40.000
LATE/NORMAL_TRIGGERED: NT
DATABASE_VERSION: DYNA 1.0
HEADER_FORMAT: DYNA 1.2
DATA_TYPE: DISPLACEMENT RESPONSE SPECTRUM
PROCESSING: manual (Paolucci et al., 2011)
DATA_TIMESTAMP_YYYYMMDD_HHMMSS: 
DATA_LICENSE: CC-BY4_0 (http://creativecommons.org/licenses/by/4.0/)
DATA_CITATION: ESM working group (2015), European Strong-Motion database, version 0.1, Network Activity 3: Networking acceleration networks and SM data users. Project NERA (www.nera-eu.org)
DATA_CREATOR: ESM working group
ORIGINAL_DATA_MEDIATOR_CITATION: data obtained within the DPC-INGV data exchange agreements
ORIGINAL_DATA_MEDIATOR: Archive of Italian Department of Civil Protection
ORIGINAL_DATA_CREATOR_CITATION: Mediterranean Broad Band Seismographic Network, Istituto Nazionale di Geofisica e Vulcanologia http://mednet.rm.ingv.it
ORIGINAL_DATA_CREATOR: network: MN (Mediterranean Very Broadband Seismographic Network (MNDC)); owner: Istituto Nazionale di Geofisica e Vulcanologia
USER1: 
USER2: 
USER3: 
USER4: 
USER5: 
    0.010000     0.000797
    0.020000     0.003418
    0.022000     0.004242
    0.025000     0.005762
    0.029000     0.007864
    0.030000     0.008105
    0.032000     0.010602
    0.035001     0.014021
    0.036000     0.016876
    0.040000     0.021460
    0.041999     0.025660
    0.044001     0.033694
    0.045000     0.038347
    0.046000     0.041900
    0.048001     0.054545
    0.050000     0.076030
    0.054999     0.088913
    0.059999     0.062353
    0.064998     0.054219
    0.067002     0.054531
    0.069999     0.061770
    0.075002     0.061075
    0.080000     0.061325
    0.084998     0.074679
    0.090001     0.082252
    0.095003     0.072904
    0.100000     0.076973
    0.109999     0.094907
    0.120005     0.162916
    0.130005     0.251839
    0.132996     0.268076
    0.139997     0.302661
    0.149993     0.361896
    0.160000     0.339088
    0.170010     0.320877
    0.179986     0.354240
    0.190006     0.440444
    0.200000     0.457902
    0.220022     0.519268
    0.239981     0.508227
    0.250000     0.419172
    0.260010     0.461960
    0.280034     0.411728
    0.290023     0.409522
    0.300030     0.385628
    0.320000     0.430218
    0.340020     0.411895
    0.350017     0.449033
    0.359971     0.480016
    0.379939     0.503301
    0.400000     0.583763
    0.419992     0.683954
    0.439947     0.763272
    0.450045     0.799931
    0.459982     0.853265
    0.480077     0.981317
    0.500000     1.155903
    0.550055     1.481270
    0.599880     1.714838
    0.650195     1.873030
    0.667111     1.915202
    0.699790     1.969674
    0.750188     2.057356
    0.800000     2.294824
    0.850340     3.048759
    0.900090     2.820469
    0.949668     2.626025
    1.000000     3.698969
    1.100110     4.090674
    1.200480     5.608955
    1.300390     5.274378
    1.400560     5.135581
    1.499250     6.051732
    1.600000     7.017872
    1.700680     7.743887
    1.798561     8.080468
    1.901141     8.624913
    2.000000     9.317213
    2.197802    10.557757
    2.398082    11.485224
    2.500000    11.811476
    2.597403    12.014705
    2.801121    12.808036
    3.003003    12.865052
    3.205128    12.734874
    3.401361    12.747326
    3.496503    12.642735
    3.597122    12.705038
    3.802281    12.468227
    4.000000    12.145197
    4.201681    12.374104
    4.405286    12.397985
    4.608295    12.314655
    4.807692    12.112475
    5.000000    11.843860
    5.494505    10.713741
    5.988024    10.549396
    6.493506    10.454440
    6.993007    10.247034
    7.518797     9.975024
    8.000000     9.674649
    8.474576     9.369822
    9.009009     9.077018
    9.523809     8.804388
   10.000000     8.555300
