EVENT_NAME: L_AQUILA
EVENT_ID: IT-2009-0009
EVENT_DATE_YYYYMMDD: 20090406
EVENT_TIME_HHMMSS: 013240
EVENT_LATITUDE_DEGREE: 42.3420
EVENT_LONGITUDE_DEGREE: 13.3800
EVENT_DEPTH_KM: 8.3
HYPOCENTER_REFERENCE: INGV-CNT_Seismic_Bulletin
MAGNITUDE_W: 6.3
MAGNITUDE_W_REFERENCE: RCMT-INGV
MAGNITUDE_L: 5.9
MAGNITUDE_L_REFERENCE: INGV-CNT_Seismic_Bulletin
FOCAL_MECHANISM: NF
NETWORK: MN
STATION_CODE: AQU
STATION_NAME: AQUILA CASTELLO
STATION_LATITUDE_DEGREE: 42.353880
STATION_LONGITUDE_DEGREE: 13.401930
STATION_ELEVATION_M: 729
LOCATION: 
SENSOR_DEPTH_M: 15.0
VS30_M/S: 
SITE_CLASSIFICATION_EC8: C*
MORPHOLOGIC_CLASSIFICATION: 
EPICENTRAL_DISTANCE_KM: 2.2
EARTHQUAKE_BACKAZIMUTH_DEGREE: 233.9
DATE_TIME_FIRST_SAMPLE_YYYYMMDD_HHMMSS: 20090406_013225.000
DATE_TIME_FIRST_SAMPLE_PRECISION: milliseconds
SAMPLING_INTERVAL_S: 0.005000
NDATA: 18001
DURATION_S: 90.005
STREAM: HLZ
UNITS: cm/s^2
INSTRUMENT: sensor = Unknown [Unknown] | digitizer = Unknown [Unknown]
INSTRUMENT_ANALOG/DIGITAL: D
INSTRUMENTAL_FREQUENCY_HZ: 
INSTRUMENTAL_DAMPING: 
FULL_SCALE_G: 
N_BIT_DIGITAL_CONVERTER: 
PGA_CM/S^2: 306.426440
TIME_PGA_S: 17.865000
BASELINE_CORRECTION: BASELINE REMOVED
FILTER_TYPE: BUTTERWORTH
FILTER_ORDER: 2
LOW_CUT_FREQUENCY_HZ: 0.150
HIGH_CUT_FREQUENCY_HZ: 40.000
LATE/NORMAL_TRIGGERED: NT
DATABASE_VERSION: DYNA 1.0
HEADER_FORMAT: DYNA 1.2
DATA_TYPE: ACCELERATION
PROCESSING: manual (Paolucci et al., 2011)
DATA_TIMESTAMP_YYYYMMDD_HHMMSS: 
DATA_LICENSE: CC-BY4_0 (http://creativecommons.org/licenses/by/4.0/)
DATA_CITATION: ESM working group (2015), European Strong-Motion database, version 0.1, Network Activity 3: Networking acceleration networks and SM data users. Project NERA (www.nera-eu.org)
DATA_CREATOR: ESM working group
ORIGINAL_DATA_MEDIATOR_CITATION: data obtained within the DPC-INGV data exchange agreements
ORIGINAL_DATA_MEDIATOR: Archive of Italian Department of Civil Protection
ORIGINAL_DATA_CREATOR_CITATION: Mediterranean Broad Band Seismographic Network, Istituto Nazionale di Geofisica e Vulcanologia http://mednet.rm.ingv.it
ORIGINAL_DATA_CREATOR: network: MN (Mediterranean Very Broadband Seismographic Network (MNDC)); owner: Istituto Nazionale di Geofisica e Vulcanologia
USER1: 
USER2: 
USER3: 
USER4: 
USER5: 
[...]
-0.082689
-0.083168
-0.083600
-0.083626
-0.083476
-0.083742
-0.084507
-0.084957
-0.084580
-0.084111
-0.084414
-0.085211
-0.085619
-0.085227
-0.084458
-0.084215
-0.084876
-0.085744
-0.086049
-0.085924
-0.085840
-0.085811
-0.085624
-0.085352
-0.085329
-0.085800
-0.086539
-0.086867
-0.086468
-0.085939
-0.085999
-0.086597
-0.087194
-0.087392
-0.087163
-0.086757
-0.086411
-0.086205
-0.086283
-0.086867
-0.087660
-0.087686
-0.086618
-0.085697
-0.086184
-0.087659
-0.088639
-0.088120
-0.086620
-0.085965
-0.087037
-0.088324
-0.088147
-0.086991
-0.086407
-0.087017
-0.088147
-0.088553
-0.087746
-0.086652
-0.086372
-0.086905
-0.087554
-0.087827
-0.087706
-0.087506
-0.087502
-0.087649
-0.087682
-0.087389
-0.086897
-0.086682
-0.086997
-0.087437
-0.087448
-0.086974
-0.086444
-0.086382
-0.086872
-0.087379
-0.087413
-0.087131
-0.086973
-0.087089
-0.087270
-0.087199
-0.086818
-0.086460
-0.086429
-0.086613
-0.086734
-0.086695
-0.086548
-0.086337
-0.086108
-0.085963
-0.086006
-0.086237
-0.086466
-0.086383
-0.085921
-0.085454
-0.085371
-0.085626
-0.085898
-0.085939
-0.085725
-0.085449
-0.085341
-0.085468
-0.085652
-0.085561
-0.085059
-0.084429
-0.084060
-0.084053
-0.084230
-0.084325
-0.084211
-0.083997
-0.083843
-0.083787
-0.083799
-0.083855
-0.083832
-0.083499
-0.082857
-0.082326
-0.082269
-0.082530
-0.082745
-0.082786
-0.082743
-0.082715
-0.082686
-0.082543
-0.082246
-0.081944
-0.081798
-0.081784
-0.081762
-0.081596
-0.081181
-0.080506
-0.079822
-0.079593
-0.079916
-0.080213
-0.079996
-0.079559
-0.079409
-0.079508
-0.079428
-0.078878
-0.078030
-0.077454
-0.077454
-0.077634
-0.077513
-0.077140
-0.076722
-0.076205
-0.075622
-0.075382
-0.075644
-0.075807
-0.075273
-0.074282
-0.073586
-0.073665
-0.074256
-0.074489
-0.073949
-0.073286
-0.073060
-0.072751
-0.071818
-0.070816
-0.070597
-0.071123
-0.071598
-0.071245
-0.070106
-0.069167
-0.069133
-0.069473
-0.069325
-0.068641
-0.067977
-0.067790
-0.068038
-0.068201
-0.067817
-0.066963
-0.066098
-0.065655
-0.065656
-0.065616
-0.065073
-0.064122
-0.063313
-0.063195
-0.063714
-0.064034
-0.063405
-0.061998
-0.060588
-0.059845
-0.059908
-0.060331
-0.060560
-0.060385
-0.059883
-0.059208
-0.058463
-0.057692
-0.056953
-0.056370
-0.056036
-0.055904
-0.055791
-0.055464
-0.054812
-0.053972
-0.053223
-0.052784
-0.052630
-0.052447
-0.051920
-0.051018
-0.049980
-0.049144
-0.048713
-0.048610
-0.048563
-0.048274
-0.047556
-0.046461
-0.045325
-0.044647
-0.044622
-0.044817
-0.044548
-0.043490
-0.041992
-0.040930
-0.040786
-0.041032
-0.040859
-0.040084
-0.039078
-0.038251
-0.037662
-0.036995
-0.036133
-0.035483
-0.035257
-0.034908
-0.033908
-0.032579
-0.031630
-0.031331
-0.031312
-0.030897
-0.029884
-0.028893
-0.028400
-0.027926
-0.026841
-0.025337
-0.024144
-0.023772
-0.024064
-0.024227
-0.023571
-0.022166
-0.020661
-0.019732
-0.019532
-0.019482
-0.018875
-0.017566
-0.016039
-0.015022
-0.014724
-0.014481
-0.013624
-0.012314
-0.011100
-0.010225
-0.009610
-0.009101
-0.008537
-0.007783
-0.006832
-0.005844
-0.004918
-0.003905
-0.002652
-0.001280
-0.000119
0.000574
0.000939
0.001491
0.002426
0.003248
0.003711
0.004486
0.006040
0.007610
0.008260
0.008205
0.008480
0.009870
0.012058
0.013681
0.013974
0.013902
0.014683
0.016188
0.017626
0.018756
0.019873
0.021225
0.022598
0.023400
0.023485
0.023674
0.024863
0.026985
0.029148
0.030419
0.030768
0.031284
0.032763
0.034580
0.035731
0.036203
0.036787
0.038179
0.040199
0.041782
0.042346
0.042728
0.043902
0.045634
0.047144
0.048196
0.049017
0.049818
0.050680
0.051674
0.052979
0.054777
0.056838
0.058433
0.059210
0.059842
0.061173
0.063191
0.065186
0.066464
0.067019
0.067653
0.069033
0.070888
0.072559
0.073816
0.074902
0.076167
0.077652
0.079015
0.080131
0.081447
0.083208
0.084860
0.085892
0.086684
0.087887
0.089536
0.091177
0.092446
0.093529
0.095090
0.097318
0.099379
0.100554
0.101305
0.102478
0.104200
0.106028
0.107583
0.108913
0.110440
0.112381
0.114352
0.115858
0.116899
0.117926
0.119435
0.121480
0.123524
0.125078
0.126294
0.127650
0.129378
0.131268
0.132868
0.134096
0.135508
0.137514
0.139713
0.141547
0.143071
0.144658
0.146451
0.148339
0.150181
0.151938
0.153656
0.155304
0.156742
0.158054
0.159680
0.161808
0.163957
0.165682
0.167254
0.169142
0.171304
0.173330
0.174949
0.176372
0.178186
0.180555
0.182804
0.184421
0.185895
0.187838
0.190014
0.191903
0.193534
0.195335
0.197556
0.199951
0.201942
0.203435
0.205173
0.207574
0.209884
0.211437
0.212861
0.215051
0.217834
0.220318
0.221926
0.223020
0.224699
0.227384
0.230054
0.231865
0.233549
0.236018
0.238803
0.240959
0.242461
0.244043
0.246309
0.249069
0.251410
0.252962
0.254641
0.257252
0.260192
0.262506
0.264254
0.266139
0.268553
0.271247
0.273597
0.275422
0.277359
0.279890
0.282533
0.284646
0.286402
0.288440
0.291085
0.294051
0.296676
0.298692
0.300635
0.303024
0.305615
0.307977
0.310203
0.312619
0.315259
0.317927
0.320486
0.322949
0.325404
0.327829
0.330071
0.332215
0.334714
0.337713
0.340599
0.342837
0.344770
0.347036
0.349753
0.352611
0.355310
0.357788
0.360209
0.362736
0.365370
0.368079
0.370888
0.373686
0.376191
0.378487
0.381243
0.384723
0.388077
0.390440
0.392129
0.394122
0.396980
0.400383
0.403409
0.405697
0.408086
0.411334
0.414910
0.417814
0.419843
0.421671
0.424205
0.427664
0.431211
0.434020
0.436283
0.438743
0.441818
0.445325
0.448680
0.451509
0.454038
0.456711
0.459689
0.462836
0.465924
0.468830
0.471623
0.474458
0.477417
0.480426
0.483289
0.485911
0.488480
0.491340
0.494723
0.498510
0.502188
0.505281
0.507798
0.510224
0.513174
0.516789
0.520466
0.523576
0.526215
0.528969
0.532287
0.535998
0.539363
0.542032
0.544666
0.547987
0.551794
0.555447
0.558678
0.561614
0.564480
0.567425
0.570528
0.573871
0.577500
0.581174
0.584379
0.587051
0.589963
0.593675
0.597623
0.600966
0.603681
0.606414
0.609763
0.613662
0.617360
0.620423
0.623426
0.627031
0.630986
0.634588
0.637560
0.640275
0.643436
0.647346
0.651485
0.655148
0.658208
0.661106
0.664428
0.668383
0.672544
0.676285
0.679363
0.682134
0.685350
0.689417
0.693869
0.697902
0.701154
0.703975
0.707165
0.711126
0.715341
0.719132
0.722484
0.725809
0.729381
0.733156
0.736879
0.740388
0.743803
0.747324
0.751006
0.754806
0.758675
0.762495
0.766094
0.769521
0.773171
0.777284
0.781532
0.785445
0.788967
0.792410
0.796099
0.800014
0.803770
0.807236
0.810890
0.815036
0.819181
0.822847
0.826393
0.830365
0.834644
0.838689
0.842197
0.845467
0.849216
0.853685
0.858137
0.861885
0.865241
0.868805
0.872590
0.876392
0.880361
0.884703
0.889212
0.893432
0.897110
0.900484
0.904170
0.908390
0.912569
0.916244
0.919875
0.924076
0.928680
0.933035
0.936738
0.939994
0.943503
0.947743
0.952425
0.956911
0.960855
0.964414
0.968103
0.972313
0.976937
0.981546
0.985761
0.989528
0.993163
0.996986
1.001030
1.005210
1.009517
1.013852
1.017913
1.021579
1.025214
1.029265
1.033756
1.038330
1.042564
1.046357
1.050059
1.054031
1.058270
1.062672
1.067293
1.072015
1.076342
1.080040
1.083649
1.087830
1.092581
1.097384
1.101752
1.105620
1.109407
1.113496
1.117831
1.122233
1.126727
1.131284
1.135580
1.139435
1.143174
1.147190
1.151469
1.155863
1.160413
1.165088
1.169508
1.173344
1.176787
1.180408
1.184684
1.189475
1.194013
1.197930
1.201911
1.206562
1.211355
1.215527
1.219222
1.223141
1.227667
1.232498
1.236904
1.240684
1.244624
1.249319
1.254182
1.258427
1.262224
1.266224
1.270665
1.275302
1.279772
1.284004
1.288281
1.292719
1.296947
1.300770
1.304678
1.309125
1.313807
1.318230
1.322430
1.326722
1.331166
1.335500
1.339423
1.343057
1.347051
1.351767
1.356690
1.361165
1.365228
1.369283
1.373511
1.377846
1.382182
1.386449
1.390617
1.394712
1.398837
1.403090
1.407463
1.411814
1.415965
1.419973
1.424180
1.428695
1.433060
1.436894
1.440497
1.444409
1.448776
1.453351
1.457815
1.462034
1.466136
1.470248
1.474306
1.478263
1.482273
1.486466
1.490708
1.494825
1.498864
1.502974
1.507205
1.511492
1.515719
1.519784
1.523658
1.527452
1.531397
1.535607
1.539900
1.543997
1.547823
1.551600
1.555686
1.560127
1.564457
1.568319
1.572011
1.576037
1.580453
1.584838
1.588675
1.591964
1.595426
1.599645
1.604306
1.608673
1.612373
1.615582
1.618840
1.622625
1.626991
1.631556
1.635733
1.639217
1.642316
1.645644
1.649610
1.654097
1.658494
1.662347
1.665834
1.669338
1.672920
1.676450
1.679921
1.683463
1.687198
1.691104
1.694973
1.698585
1.701898
1.705092
1.708481
1.712282
1.716386
1.720374
1.723772
1.726601
1.729597
1.733416
1.737832
1.742001
1.745217
1.747597
1.750167
1.753700
1.757769
1.761478
1.764542
1.767430
1.770833
1.774757
1.778254
1.780774
1.783197
1.786575
1.790694
1.794556
1.797539
1.799941
1.802723
1.806295
1.809843
1.812640
1.815215
1.818343
1.821813
1.824963
1.827628
1.830132
1.832834
1.835766
1.838646
1.841435
1.844575
1.848142
1.851318
1.853550
1.855548
1.858244
1.861528
1.864636
1.867087
1.869075
1.871267
1.873986
1.876762
1.879171
1.881545
1.884254
1.886944
1.889163
1.891125
1.893354
1.896020
1.898844
1.901388
1.903516
1.905576
1.907823
1.909990
1.911827
1.913629
1.915769
1.918127
1.920306
1.922124
1.923807
1.925812
1.928228
1.930492
1.932137
1.933470
1.935069
1.937059
1.939107
1.940804
1.942091
1.943371
1.944979
1.946762
1.948466
1.950146
1.951852
1.953298
1.954223
1.954846
1.955726
1.957306
1.959455
1.961402
1.962522
1.963044
1.963692
1.964962
1.966668
1.968021
1.968519
1.968625
1.969171
1.970442
1.971963
1.972890
1.972996
1.973130
1.974037
1.975292
1.976063
1.976217
1.976245
1.976660
1.977437
1.977885
1.977243
1.975114
1.971029
1.964304
1.955345
1.946620
1.940595
1.935600
1.919246
1.862018
1.716555
1.425225
0.949206
0.309410
-0.374920
-0.883032
-0.994679
-0.636065
0.003490
0.480349
0.405523
-0.204640
-0.841927
-0.712324
0.627183
2.761133
4.705104
5.545874
5.084212
4.068241
3.460861
3.616328
4.193450
4.500383
4.105159
3.233083
2.439891
2.085733
2.058146
1.819715
0.957981
-0.300264
-1.201946
-0.975863
0.424478
2.018264
2.734170
2.392475
1.543580
0.812813
0.318933
-0.431853
-1.769337
-3.258840
-4.266059
-4.588255
-4.119740
-2.397860
1.022687
5.860428
10.699896
13.271009
12.008502
7.435360
1.781810
-2.129676
-2.167115
2.005956
8.498791
13.580711
13.719255
7.819323
-1.962947
-10.912249
-14.784321
-12.578827
-6.353486
0.338623
4.518424
5.229782
3.229824
0.166533
-2.090400
-2.075272
0.501946
4.254223
6.801439
6.151848
2.418942
-1.446887
-1.839659
2.662036
10.037535
15.467495
14.947009
8.531068
-0.267843
-6.779357
-7.819795
-3.342838
4.334041
11.782870
15.150531
11.191371
-0.336004
-15.019336
-26.006454
-27.766764
-19.433029
-5.964780
5.635310
10.815418
9.034499
3.465335
-1.158317
-1.178258
3.797435
10.252258
13.761340
12.497364
8.180879
4.926494
5.644912
9.164114
11.470697
8.562366
-0.791965
-13.498388
-23.680180
-25.857225
-18.950632
-8.197656
-1.043898
-2.090165
-11.669788
-26.735834
-43.474751
-59.222328
-71.780006
-78.602219
-78.097931
-71.299660
-61.957760
-55.794727
-58.948563
-75.656876
-104.815681
-137.521790
-159.267242
-155.011307
-117.133217
-52.298817
18.728258
67.125946
70.653877
27.769133
-39.983109
-95.372437
-106.468811
-66.007950
7.669023
80.773209
123.972893
128.298538
102.545181
63.601597
26.509287
-1.806845
-20.909605
-32.766010
-38.200424
-34.990322
-19.985668
5.787154
30.561600
32.286091
-2.996957
-64.358047
-123.047798
-150.563950
-137.275421
-99.165955
-57.721600
-20.103331
15.306829
46.533298
66.048721
65.929993
46.243095
18.734283
-2.125452
-8.553445
1.500424
27.575436
64.968918
102.215088
124.035706
117.905342
82.331192
30.645548
-18.081264
-50.266438
-61.570686
-55.664845
-39.086651
-17.941040
-0.571397
1.099998
-21.001150
-63.432999
-112.827087
-151.355164
-162.694366
-137.204224
-75.943939
5.989041
80.439911
114.740860
93.572174
34.981304
-23.626133
-50.058018
-36.107552
-2.363764
23.602818
29.792383
19.553606
1.713865
-18.737776
-43.499493
-72.482536
-97.357750
-109.470490
-109.074196
-102.590858
-95.412773
-87.782112
-75.790794
-59.379936
-47.090290
-47.183548
-58.003014
-70.620705
-76.228447
-71.850990
-62.555622
-57.405514
-63.592369
-81.563660
-102.596840
-112.375603
-97.635620
-54.717640
4.720977
57.843929
78.880974
49.774605
-28.770647
-130.747528
-209.577423
-227.197433
-181.692368
-103.997299
-37.126759
-5.842066
-0.275051
0.290447
0.094452
-10.275754
-38.645580
-79.214287
-109.988625
-107.162399
-61.056496
19.650360
110.614052
181.210678
205.866882
174.793137
99.998215
8.571727
-68.018883
-104.034363
-88.559425
-31.330366
38.147167
86.769691
95.003487
61.021523
-2.693521
-78.097168
-148.024826
-195.102798
-201.932816
-160.969315
-84.007423
1.551605
63.373661
78.601273
44.900551
-20.686935
-88.933060
-130.249054
-125.236885
-68.631477
29.666864
146.325836
248.912994
306.426453
301.713898
240.471573
152.678482
76.951057
41.699444
55.049999
102.578568
156.654922
188.549438
178.450317
122.753212
35.362896
-55.790897
-120.590187
-139.766251
-112.113991
-55.487835
3.453280
42.279953
52.005592
40.333164
23.134586
13.433452
15.393705
23.853008
32.114029
39.204716
48.312561
61.552483
75.586990
81.581902
73.591774
55.780464
38.222771
28.548763
26.322176
23.704388
16.604261
12.444938
20.331478
38.996189
57.971615
65.497078
57.345665
39.763439
20.073183
-0.202651
-16.659542
-15.155701
14.660148
63.275974
103.893471
108.073242
70.473335
21.038641
-1.568318
18.047983
66.181999
110.482094
122.651672
96.382973
44.317120
-12.626873
-55.821732
-76.488861
-76.945908
-67.669380
-59.029282
-54.642185
-53.562584
-54.956726
-59.884747
-70.125999
-84.063385
-94.505066
-93.456757
-77.378967
-47.088089
-6.438250
37.012115
72.181610
89.629204
87.227356
71.022415
52.593338
42.921703
47.834770
69.259819
105.863373
148.385574
178.211441
179.680389
152.803802
111.502151
74.494865
53.917912
49.408623
55.490086
68.679245
83.056946
86.002777
66.731201
26.980921
-18.702574
-50.260017
-55.983578
-41.813694
-23.280359
-12.691303
-12.094142
-12.924142
-5.459375
11.552785
30.311628
39.354908
33.720711
20.925873
12.810902
15.150452
25.895498
38.464607
47.658482
53.189465
56.451275
57.090858
55.043659
53.199619
55.535667
63.791328
75.801445
85.370483
84.546768
67.346962
34.385185
-5.204423
-39.710590
-61.860126
-70.221703
-66.613441
-50.975655
-20.550087
20.379042
54.245617
63.170380
44.934559
14.645396
-3.916736
3.975045
31.841272
61.638634
79.293922
82.714142
81.409119
84.471474
89.275856
83.528931
55.285988
7.286625
-36.917423
-50.778980
-26.035854
22.846128
66.996063
84.138268
73.770317
47.706051
15.488416
-18.622110
-51.816151
-76.986336
-82.090172
-61.109772
-23.295153
13.725476
35.984493
40.377090
35.026962
29.200544
24.217415
16.180761
2.706231
-13.244345
-24.155916
-25.329769
-20.114576
-14.322658
-9.172261
-1.753571
11.030200
28.735613
46.344368
58.260761
61.610554
54.226765
33.468861
1.629696
-30.040533
-48.363873
-47.961037
-34.766151
-23.045507
-23.805853
-35.675602
-49.610619
-57.158718
-54.030910
-40.654827
-20.953423
-0.911193
13.293299
17.867435
14.200190
8.669634
5.238994
-0.683422
-17.593081
-49.681244
-91.766754
-129.372528
-147.718826
-140.897659
-113.119713
-75.974274
-43.295624
-26.250612
-30.187346
-52.721416
-84.147858
-109.504234
-113.877228
-89.233536
-40.431904
14.012102
53.839134
69.754822
65.046097
50.796482
37.022434
26.827490
20.058229
17.649616
19.420900
21.425348
19.230173
11.764342
-0.041255
-15.915999
-36.163059
-59.944576
-83.545647
-100.770691
-107.651596
-105.786217
-98.500320
-86.555382
-69.764435
-49.812843
-29.552584
-10.959398
5.805056
22.048002
38.724171
55.082081
69.634476
81.544281
90.617065
96.455833
97.485725
91.107170
76.417290
56.562248
37.182060
22.896368
13.730003
4.603173
-8.371711
-22.630138
-32.908123
-36.871956
-35.888779
-32.972580
-29.776688
-25.387297
-19.402964
-14.647936
-14.895790
-21.381432
-31.763954
-40.930481
-43.633781
-37.066292
-21.804903
-1.756268
17.155594
28.814363
29.176670
18.324347
0.843641
-15.828464
-26.410332
-31.826235
-37.149540
-46.973362
-61.063061
-73.111710
-76.207153
-68.205811
-50.553078
-24.914547
8.314978
48.943058
92.964874
130.693344
152.596298
155.684509
143.393127
122.751915
101.503853
85.988701
79.832809
82.499435
88.112442
86.788132
71.623360
44.295307
11.496554
-20.803436
-49.186218
-72.160957
-88.447525
-96.369682
-95.796944
-89.216286
-78.762360
-63.944950
-44.793011
-24.826616
-8.005721
5.364852
18.317474
34.155960
52.324223
67.207840
74.180344
74.902748
73.905136
73.351456
72.385979
68.693962
60.258732
46.554050
28.969156
11.092810
-1.658912
-4.229908
2.911416
11.342678
12.061228
3.820221
-6.832315
-10.575437
-3.397009
8.822351
16.562321
14.732302
4.538887
-8.480449
-18.980257
-25.120253
-27.277168
-25.504713
-18.493364
-4.182248
17.508450
42.345364
62.714054
70.405403
60.792519
36.089897
4.590846
-22.434261
-36.179180
-35.279503
-26.488188
-21.333059
-27.411568
-42.222492
-58.323273
-70.880173
-79.526825
-86.175537
-90.065865
-85.406532
-66.884171
-35.316425
3.651037
42.240273
70.407791
76.894455
56.555359
17.054672
-24.324474
-49.425583
-50.603176
-36.706848
-23.384533
-20.499836
-27.950319
-37.610832
-41.215271
-37.071968
-29.105938
-22.799837
-21.143559
-22.887177
-25.381460
-27.194593
-26.664755
-20.666512
-7.853203
8.218799
21.484928
27.636654
26.558174
21.858889
16.084135
7.447561
-6.267769
-23.528896
-41.125851
-57.359787
-71.320015
-81.094742
-84.195763
-79.380745
-68.654327
-57.421810
-50.481056
-48.612064
-50.489712
-55.509823
-63.385796
-72.441948
-78.772301
-76.902061
-62.973621
-37.952385
-8.067058
16.916159
28.164837
21.834173
-0.359054
-31.903271
-62.833668
-81.841270
-80.558846
-58.158287
-23.252750
7.996978
20.667292
9.241138
-22.388353
-63.926689
-101.805374
-122.487640
-117.299873
-86.907875
-41.708778
1.626747
29.119205
36.851784
28.959423
12.492508
-6.273563
-23.269836
-35.209389
-38.763821
-32.987473
-21.307114
-8.831788
1.589160
10.863122
22.314890
36.740658
49.418266
54.951485
52.859222
46.995461
42.340347
41.950039
45.225571
48.746342
48.034874
39.777813
24.013319
5.150234
-9.354611
-14.653246
-12.625741
-8.151359
-4.249759
-2.117169
-2.751774
-6.821807
-13.293745
-18.191660
-15.475259
-2.228892
17.482794
36.378258
