EVENT_NAME: L_AQUILA
EVENT_ID: IT-2009-0009
EVENT_DATE_YYYYMMDD: 20090406
EVENT_TIME_HHMMSS: 013240
EVENT_LATITUDE_DEGREE: 42.3420
EVENT_LONGITUDE_DEGREE: 13.3800
EVENT_DEPTH_KM: 8.3
HYPOCENTER_REFERENCE: INGV-CNT_Seismic_Bulletin
MAGNITUDE_W: 6.3
MAGNITUDE_W_REFERENCE: RCMT-INGV
MAGNITUDE_L: 5.9
MAGNITUDE_L_REFERENCE: INGV-CNT_Seismic_Bulletin
FOCAL_MECHANISM: NF
NETWORK: MN
STATION_CODE: AQU
STATION_NAME: AQUILA CASTELLO
STATION_LATITUDE_DEGREE: 42.353880
STATION_LONGITUDE_DEGREE: 13.401930
STATION_ELEVATION_M: 729
LOCATION: 
SENSOR_DEPTH_M: 15.0
VS30_M/S: 
SITE_CLASSIFICATION_EC8: C*
MORPHOLOGIC_CLASSIFICATION: 
EPICENTRAL_DISTANCE_KM: 2.2
EARTHQUAKE_BACKAZIMUTH_DEGREE: 233.9
DATE_TIME_FIRST_SAMPLE_YYYYMMDD_HHMMSS: 20090406_013225.000
DATE_TIME_FIRST_SAMPLE_PRECISION: milliseconds
SAMPLING_INTERVAL_S: 0.005000
NDATA: 18001
DURATION_S: 90.005
STREAM: HLN
UNITS: cm/s
INSTRUMENT: sensor = Unknown [Unknown] | digitizer = Unknown [Unknown]
INSTRUMENT_ANALOG/DIGITAL: D
INSTRUMENTAL_FREQUENCY_HZ: 
INSTRUMENTAL_DAMPING: 
FULL_SCALE_G: 
N_BIT_DIGITAL_CONVERTER: 
PGV_CM/S: -29.134011
TIME_PGV_S: 18.705000
BASELINE_CORRECTION: BASELINE REMOVED
FILTER_TYPE: BUTTERWORTH
FILTER_ORDER: 2
LOW_CUT_FREQUENCY_HZ: 0.150
HIGH_CUT_FREQUENCY_HZ: 40.000
LATE/NORMAL_TRIGGERED: NT
DATABASE_VERSION: DYNA 1.0
HEADER_FORMAT: DYNA 1.2
DATA_TYPE: VELOCITY
PROCESSING: manual (Paolucci et al., 2011)
DATA_TIMESTAMP_YYYYMMDD_HHMMSS: 
DATA_LICENSE: CC-BY4_0 (http://creativecommons.org/licenses/by/4.0/)
DATA_CITATION: ESM working group (2015), European Strong-Motion database, version 0.1, Network Activity 3: Networking acceleration networks and SM data users. Project NERA (www.nera-eu.org)
DATA_CREATOR: ESM working group
ORIGINAL_DATA_MEDIATOR_CITATION: data obtained within the DPC-INGV data exchange agreements
ORIGINAL_DATA_MEDIATOR: Archive of Italian Department of Civil Protection
ORIGINAL_DATA_CREATOR_CITATION: Mediterranean Broad Band Seismographic Network, Istituto Nazionale di Geofisica e Vulcanologia http://mednet.rm.ingv.it
ORIGINAL_DATA_CREATOR: network: MN (Mediterranean Very Broadband Seismographic Network (MNDC)); owner: Istituto Nazionale di Geofisica e Vulcanologia
USER1: 
USER2: 
USER3: 
USER4: 
USER5: 
[...]
0.007893
0.007824
0.007756
0.007689
0.007624
0.007557
0.007488
0.007416
0.007342
0.007265
0.007189
0.007115
0.007044
0.006974
0.006900
0.006820
0.006739
0.006661
0.006588
0.006517
0.006442
0.006362
0.006277
0.006191
0.006107
0.006027
0.005949
0.005869
0.005781
0.005688
0.005597
0.005512
0.005432
0.005350
0.005261
0.005168
0.005075
0.004984
0.004893
0.004798
0.004702
0.004605
0.004507
0.004410
0.004314
0.004220
0.004129
0.004037
0.003940
0.003838
0.003735
0.003633
0.003531
0.003427
0.003322
0.003216
0.003111
0.003009
0.002905
0.002800
0.002691
0.002580
0.002468
0.002356
0.002245
0.002134
0.002018
0.001897
0.001778
0.001663
0.001553
0.001440
0.001321
0.001197
0.001075
0.000956
0.000835
0.000710
0.000583
0.000457
0.000331
0.000205
0.000080
-0.000044
-0.000167
-0.000292
-0.000420
-0.000551
-0.000680
-0.000808
-0.000939
-0.001073
-0.001208
-0.001343
-0.001479
-0.001618
-0.001757
-0.001897
-0.002039
-0.002183
-0.002331
-0.002478
-0.002622
-0.002764
-0.002909
-0.003061
-0.003214
-0.003366
-0.003515
-0.003664
-0.003818
-0.003975
-0.004131
-0.004285
-0.004442
-0.004601
-0.004761
-0.004918
-0.005071
-0.005224
-0.005384
-0.005549
-0.005714
-0.005876
-0.006039
-0.006205
-0.006373
-0.006538
-0.006700
-0.006864
-0.007034
-0.007209
-0.007383
-0.007554
-0.007724
-0.007896
-0.008070
-0.008247
-0.008428
-0.008613
-0.008799
-0.008982
-0.009160
-0.009336
-0.009518
-0.009708
-0.009901
-0.010090
-0.010274
-0.010457
-0.010642
-0.010832
-0.011025
-0.011218
-0.011414
-0.011610
-0.011808
-0.012005
-0.012202
-0.012401
-0.012603
-0.012804
-0.013003
-0.013203
-0.013408
-0.013619
-0.013830
-0.014038
-0.014244
-0.014454
-0.014672
-0.014894
-0.015112
-0.015326
-0.015537
-0.015751
-0.015967
-0.016185
-0.016406
-0.016629
-0.016854
-0.017080
-0.017307
-0.017534
-0.017765
-0.017998
-0.018232
-0.018463
-0.018691
-0.018919
-0.019151
-0.019390
-0.019634
-0.019879
-0.020119
-0.020357
-0.020597
-0.020839
-0.021083
-0.021325
-0.021566
-0.021809
-0.022058
-0.022312
-0.022567
-0.022820
-0.023071
-0.023321
-0.023574
-0.023830
-0.024089
-0.024351
-0.024614
-0.024876
-0.025137
-0.025398
-0.025661
-0.025926
-0.026193
-0.026461
-0.026729
-0.027000
-0.027274
-0.027551
-0.027828
-0.028102
-0.028375
-0.028650
-0.028927
-0.029206
-0.029487
-0.029769
-0.030053
-0.030337
-0.030621
-0.030904
-0.031190
-0.031479
-0.031773
-0.032070
-0.032367
-0.032665
-0.032965
-0.033267
-0.033567
-0.033864
-0.034159
-0.034456
-0.034758
-0.035066
-0.035373
-0.035678
-0.035984
-0.036293
-0.036608
-0.036925
-0.037241
-0.037555
-0.037869
-0.038186
-0.038505
-0.038826
-0.039147
-0.039470
-0.039795
-0.040122
-0.040449
-0.040776
-0.041106
-0.041436
-0.041766
-0.042096
-0.042429
-0.042767
-0.043111
-0.043455
-0.043792
-0.044124
-0.044457
-0.044797
-0.045145
-0.045497
-0.045849
-0.046201
-0.046553
-0.046906
-0.047257
-0.047609
-0.047962
-0.048317
-0.048673
-0.049032
-0.049393
-0.049755
-0.050116
-0.050477
-0.050839
-0.051203
-0.051571
-0.051944
-0.052319
-0.052693
-0.053065
-0.053436
-0.053809
-0.054186
-0.054567
-0.054948
-0.055328
-0.055708
-0.056091
-0.056476
-0.056859
-0.057243
-0.057630
-0.058022
-0.058416
-0.058808
-0.059200
-0.059594
-0.059993
-0.060393
-0.060791
-0.061187
-0.061585
-0.061987
-0.062393
-0.062800
-0.063205
-0.063611
-0.064021
-0.064436
-0.064854
-0.065269
-0.065682
-0.066094
-0.066508
-0.066924
-0.067343
-0.067762
-0.068182
-0.068604
-0.069028
-0.069454
-0.069883
-0.070315
-0.070748
-0.071182
-0.071616
-0.072051
-0.072489
-0.072928
-0.073364
-0.073797
-0.074234
-0.074677
-0.075125
-0.075572
-0.076017
-0.076460
-0.076907
-0.077360
-0.077814
-0.078265
-0.078712
-0.079161
-0.079615
-0.080073
-0.080530
-0.080986
-0.081442
-0.081901
-0.082366
-0.082834
-0.083302
-0.083769
-0.084234
-0.084699
-0.085167
-0.085641
-0.086120
-0.086599
-0.087074
-0.087542
-0.088011
-0.088487
-0.088972
-0.089460
-0.089945
-0.090424
-0.090902
-0.091386
-0.091876
-0.092368
-0.092859
-0.093349
-0.093841
-0.094337
-0.094834
-0.095331
-0.095828
-0.096328
-0.096830
-0.097331
-0.097830
-0.098327
-0.098827
-0.099333
-0.099843
-0.100354
-0.100864
-0.101374
-0.101886
-0.102398
-0.102910
-0.103421
-0.103931
-0.104442
-0.104954
-0.105470
-0.105989
-0.106511
-0.107035
-0.107558
-0.108083
-0.108609
-0.109136
-0.109664
-0.110191
-0.110717
-0.111246
-0.111778
-0.112314
-0.112851
-0.113386
-0.113921
-0.114455
-0.114990
-0.115526
-0.116064
-0.116604
-0.117144
-0.117686
-0.118228
-0.118770
-0.119313
-0.119859
-0.120406
-0.120954
-0.121500
-0.122048
-0.122600
-0.123157
-0.123714
-0.124265
-0.124812
-0.125362
-0.125918
-0.126481
-0.127045
-0.127609
-0.128171
-0.128731
-0.129289
-0.129847
-0.130409
-0.130978
-0.131550
-0.132118
-0.132682
-0.133246
-0.133815
-0.134388
-0.134959
-0.135527
-0.136096
-0.136672
-0.137253
-0.137834
-0.138410
-0.138981
-0.139553
-0.140128
-0.140709
-0.141293
-0.141875
-0.142453
-0.143029
-0.143608
-0.144192
-0.144779
-0.145364
-0.145947
-0.146527
-0.147106
-0.147688
-0.148275
-0.148868
-0.149464
-0.150058
-0.150649
-0.151236
-0.151824
-0.152416
-0.153010
-0.153606
-0.154203
-0.154799
-0.155394
-0.155986
-0.156577
-0.157170
-0.157766
-0.158364
-0.158960
-0.159554
-0.160148
-0.160745
-0.161345
-0.161944
-0.162541
-0.163136
-0.163732
-0.164330
-0.164932
-0.165533
-0.166132
-0.166731
-0.167329
-0.167928
-0.168527
-0.169128
-0.169730
-0.170333
-0.170935
-0.171535
-0.172133
-0.172734
-0.173338
-0.173946
-0.174553
-0.175158
-0.175763
-0.176368
-0.176974
-0.177579
-0.178183
-0.178786
-0.179392
-0.179998
-0.180603
-0.181205
-0.181806
-0.182408
-0.183012
-0.183618
-0.184222
-0.184823
-0.185424
-0.186025
-0.186630
-0.187238
-0.187848
-0.188454
-0.189056
-0.189654
-0.190252
-0.190853
-0.191454
-0.192055
-0.192655
-0.193255
-0.193857
-0.194460
-0.195062
-0.195661
-0.196257
-0.196851
-0.197445
-0.198039
-0.198633
-0.199228
-0.199822
-0.200416
-0.201010
-0.201604
-0.202198
-0.202789
-0.203379
-0.203971
-0.204563
-0.205156
-0.205746
-0.206332
-0.206916
-0.207502
-0.208092
-0.208685
-0.209278
-0.209868
-0.210453
-0.211034
-0.211615
-0.212196
-0.212777
-0.213357
-0.213935
-0.214513
-0.215091
-0.215669
-0.216247
-0.216825
-0.217401
-0.217974
-0.218543
-0.219108
-0.219675
-0.220246
-0.220817
-0.221386
-0.221951
-0.222513
-0.223074
-0.223634
-0.224193
-0.224753
-0.225312
-0.225872
-0.226431
-0.226986
-0.227535
-0.228081
-0.228628
-0.229177
-0.229726
-0.230270
-0.230812
-0.231354
-0.231897
-0.232440
-0.232978
-0.233510
-0.234038
-0.234566
-0.235096
-0.235627
-0.236157
-0.236683
-0.237204
-0.237722
-0.238241
-0.238759
-0.239275
-0.239786
-0.240291
-0.240793
-0.241298
-0.241806
-0.242315
-0.242821
-0.243322
-0.243818
-0.244312
-0.244805
-0.245298
-0.245785
-0.246268
-0.246747
-0.247228
-0.247711
-0.248194
-0.248673
-0.249146
-0.249615
-0.250082
-0.250547
-0.251009
-0.251465
-0.251920
-0.252374
-0.252828
-0.253279
-0.253726
-0.254171
-0.254616
-0.255061
-0.255499
-0.255928
-0.256354
-0.256780
-0.257207
-0.257632
-0.258051
-0.258462
-0.258872
-0.259281
-0.259686
-0.260087
-0.260483
-0.260879
-0.261275
-0.261671
-0.262062
-0.262448
-0.262828
-0.263205
-0.263576
-0.263945
-0.264314
-0.264682
-0.265045
-0.265399
-0.265747
-0.266093
-0.266441
-0.266785
-0.267123
-0.267455
-0.267785
-0.268115
-0.268442
-0.268765
-0.269082
-0.269394
-0.269699
-0.269999
-0.270294
-0.270587
-0.270880
-0.271170
-0.271457
-0.271737
-0.272014
-0.272285
-0.272550
-0.272807
-0.273061
-0.273315
-0.273569
-0.273822
-0.274067
-0.274302
-0.274530
-0.274754
-0.274974
-0.275189
-0.275399
-0.275606
-0.275812
-0.276015
-0.276212
-0.276402
-0.276585
-0.276761
-0.276930
-0.277094
-0.277258
-0.277424
-0.277588
-0.277743
-0.277882
-0.278006
-0.278125
-0.278247
-0.278373
-0.278498
-0.278613
-0.278717
-0.278814
-0.278906
-0.278993
-0.279072
-0.279141
-0.279206
-0.279270
-0.279333
-0.279391
-0.279442
-0.279485
-0.279521
-0.279550
-0.279571
-0.279584
-0.279593
-0.279604
-0.279610
-0.279607
-0.279594
-0.279578
-0.279565
-0.279555
-0.279542
-0.279521
-0.279494
-0.279470
-0.279467
-0.279531
-0.279757
-0.280294
-0.281316
-0.282945
-0.285151
-0.287677
-0.290069
-0.291868
-0.292902
-0.293433
-0.294020
-0.295122
-0.296623
-0.297811
-0.297852
-0.296338
-0.293590
-0.290424
-0.287546
-0.285199
-0.283239
-0.281373
-0.279416
-0.277468
-0.275953
-0.275424
-0.276201
-0.278166
-0.280882
-0.284069
-0.288024
-0.293159
-0.298980
-0.304114
-0.307433
-0.308799
-0.308837
-0.308112
-0.306404
-0.303202
-0.298941
-0.295040
-0.292812
-0.293152
-0.296961
-0.304411
-0.313381
-0.319884
-0.320779
-0.316094
-0.309230
-0.304216
-0.302096
-0.301599
-0.303073
-0.308616
-0.318003
-0.326878
-0.329295
-0.322118
-0.308220
-0.294527
-0.286358
-0.284911
-0.288848
-0.295781
-0.302557
-0.306251
-0.306140
-0.304664
-0.306341
-0.314768
-0.329193
-0.344143
-0.352411
-0.348684
-0.332242
-0.307476
-0.282061
-0.263599
-0.255952
-0.257908
-0.264650
-0.270727
-0.273428
-0.274646
-0.280247
-0.296286
-0.323449
-0.354450
-0.376363
-0.377614
-0.356399
-0.322694
-0.292784
-0.281363
-0.294614
-0.327827
-0.367822
-0.398191
-0.406034
-0.387733
-0.351536
-0.313433
-0.287604
-0.278969
-0.281651
-0.284857
-0.282617
-0.277421
-0.275932
-0.282430
-0.294449
-0.305117
-0.310101
-0.310553
-0.310443
-0.312989
-0.318722
-0.326104
-0.333691
-0.341197
-0.349061
-0.357869
-0.368176
-0.380670
-0.396720
-0.419251
-0.452698
-0.499719
-0.556501
-0.613361
-0.660670
-0.693398
-0.712244
-0.723242
-0.737250
-0.768920
-0.832442
-0.930424
-1.041710
-1.126093
-1.146646
-1.091365
-0.983247
-0.870706
-0.802459
-0.804721
-0.868904
-0.954829
-1.008309
-0.985445
-0.876253
-0.712958
-0.557561
-0.471604
-0.481232
-0.568506
-0.693107
-0.821759
-0.946300
-1.071080
-1.183864
-1.258117
-1.285588
-1.289342
-1.304953
-1.355456
-1.439574
-1.546121
-1.677881
-1.840549
-2.005761
-2.112035
-2.110767
-2.004637
-1.852087
-1.733557
-1.700290
-1.755473
-1.872827
-2.018569
-2.160755
-2.265543
-2.292306
-2.209933
-2.028828
-1.811144
-1.645914
-1.600699
-1.676217
-1.813525
-1.947751
-2.045465
-2.104732
-2.132346
-2.119385
-2.044683
-1.900849
-1.705161
-1.487988
-1.278350
-1.094903
-0.941123
-0.804134
-0.661056
-0.493638
-0.304773
-0.126903
-0.006031
0.031275
-0.006414
-0.083866
-0.155662
-0.183305
-0.150919
-0.075153
0.003007
0.043515
0.030625
-0.019372
-0.077495
-0.134952
-0.207660
-0.310930
-0.441534
-0.579334
-0.698228
-0.776560
-0.798572
-0.751225
-0.630403
-0.453122
-0.254468
-0.068612
0.084491
0.198736
0.272464
0.298554
0.267192
0.178730
0.049233
-0.093943
-0.216851
-0.282891
-0.262987
-0.149407
0.041026
0.274219
0.503934
0.676457
0.750005
0.724746
0.652064
0.609402
0.648355
0.747963
0.837110
0.871361
0.866579
0.868324
0.908019
0.979729
1.058169
1.139024
1.244403
1.389695
1.558680
1.705000
1.773350
1.727585
1.565126
1.314532
1.025392
0.756189
0.563195
0.487390
0.535089
0.661586
0.784963
0.828964
0.760636
0.603321
0.415074
0.248979
0.140127
0.119411
0.213383
0.422009
0.701661
0.971756
1.153566
1.221139
1.210095
1.182246
1.193428
1.281421
1.465503
1.747306
2.104896
2.487415
2.831340
3.094315
3.273961
3.402319
3.526136
3.682261
3.880652
4.100749
4.305527
4.467923
4.589745
4.703873
4.857671
5.088063
5.413365
5.840850
6.365210
6.954047
7.540451
8.035933
8.369355
8.534893
8.600236
8.665200
8.800854
9.002482
9.205103
9.351470
9.439304
9.519162
9.650286
9.845692
10.067580
10.270040
10.427120
10.531350
10.588280
10.617710
10.654280
10.739260
10.900410
11.131790
11.402430
11.688770
11.989660
12.316040
12.676920
13.071230
13.485480
13.897110
14.285390
14.645040
14.987650
15.328960
15.674760
16.014231
16.328600
16.608299
16.856600
17.079660
17.282061
17.471720
17.662491
17.871000
18.112551
18.397779
18.729401
19.099390
19.491030
19.885580
20.269449
20.638769
20.998541
21.356350
21.714001
22.060230
22.370819
22.618710
22.791510
22.905550
22.994270
23.077250
23.147249
23.184380
23.178671
23.144480
23.110010
23.090580
23.080259
23.064890
23.031429
22.967260
22.861139
22.710510
22.529160
22.348129
22.201420
22.102350
22.032560
21.948351
21.794220
21.519390
21.094730
20.523951
19.836130
19.066799
18.254940
17.453590
16.721109
16.088739
15.534180
14.985740
14.373900
13.698760
13.024840
12.406300
11.840440
11.281710
10.688450
10.064240
9.442981
8.833602
8.205317
7.522717
6.772436
5.960365
5.094248
4.169140
3.174039
2.111314
0.996308
-0.162758
-1.372997
-2.647637
-3.997686
-5.427419
-6.922153
-8.431560
-9.871506
-11.148040
-12.186470
-12.953830
-13.465050
-13.777440
-13.986700
-14.216120
-14.574540
-15.102700
-15.778840
-16.579241
-17.511009
-18.594959
-19.833969
-21.193760
-22.615271
-24.041500
-25.412390
-26.639851
-27.630039
-28.343599
-28.805660
-29.058620
-29.134010
-29.064560
-28.902380
-28.718180
-28.569580
-28.462740
-28.366211
-28.265200
-28.174379
-28.103630
-28.044411
-27.989700
-27.945021
-27.917191
-27.899340
-27.866680
-27.792101
-27.671261
-27.527220
-27.393530
-27.300489
-27.270180
-27.309940
-27.404671
-27.521191
-27.623030
-27.677151
-27.652399
-27.524639
-27.287531
-26.950460
-26.524561
-26.018629
-25.448240
-24.841640
-24.233561
-23.647209
-23.077810
-22.505079
-21.926371
-21.365330
-20.848989
-20.384220
-19.948790
-19.500460
-18.997641
-18.415510
-17.752501
-17.027210
-16.268110
-15.500850
-14.737650
-13.976480
-13.208720
-12.425970
-11.623070
-10.799880
-9.962590
-9.123610
-8.300161
-7.513057
-6.784572
-6.131301
-5.552326
-5.020918
-4.488256
-3.908272
-3.271901
-2.611519
-1.968674
-1.353509
-0.723852
-0.017705
0.780574
1.619712
2.420627
3.127308
3.737242
4.287588
4.812820
5.327083
5.836448
6.344773
6.844923
7.314899
7.724956
8.046272
8.256177
8.339964
8.291559
8.115808
7.829850
7.456635
7.013898
6.513031
5.967868
5.398907
4.829730
4.282392
3.773846
3.311244
2.887752
2.485929
2.088264
1.685835
1.281551
0.888809
0.528449
0.228639
0.026340
-0.037441
0.069328
0.353259
0.782561
1.290483
1.796299
2.231490
2.558794
2.766870
2.845919
2.773932
2.522179
2.070914
1.425264
0.618499
-0.295616
-1.247962
-2.155387
-2.929363
-3.496339
-3.823367
-3.935139
-3.897297
-3.772846
-3.594894
-3.369873
-3.099705
-2.803660
-2.510854
-2.232326
-1.958390
-1.685152
-1.432053
-1.235557
-1.127002
-1.111143
-1.171883
-1.299395
-1.500738
-1.785977
-2.150676
-2.569772
-3.012224
-3.463666
-3.921382
-4.363362
-4.732987
-4.955006
-4.972972
-4.784678
-4.434559
-3.971728
-3.431112
-2.846288
-2.257847
-1.705258
-1.215326
-0.797843
-0.454596
-0.193985
-0.030572
0.027723
-0.018765
-0.169089
-0.412977
-0.709832
-0.992337
-1.197712
-1.292438
-1.274193
-1.151005
-0.914163
-0.540414
-0.021590
0.616862
1.320949
2.026888
2.682299
3.255403
3.732090
4.110782
4.397446
4.597850
4.709453
4.723249
4.635905
4.460215
4.225833
3.965484
3.696392
3.421903
3.149125
2.890173
2.645663
2.400313
2.137516
1.854854
1.568016
1.296546
1.043526
0.799602
0.565438
0.351165
0.150940
-0.068201
-0.351009
-0.727626
-1.193020
-1.713026
-2.250583
-2.779714
-3.282236
-3.746071
-4.170501
-4.568790
-4.961990
-5.363309
-5.761293
-6.120628
-6.398849
-6.557554
-6.564353
-6.397620
-6.057078
-5.571628
-4.997776
-4.404586
-3.852870
-3.388860
-3.049736
-2.857766
-2.804464
-2.852913
-2.963819
-3.123353
-3.352450
-3.676313
-4.072008
-4.457983
-4.735675
-4.840830
-4.774577
-4.588626
-4.338992
-4.062111
-3.781443
-3.513712
-3.264397
-3.023566
-2.771382
-2.496778
-2.217137
-1.969925
-1.781367
-1.652324
-1.568283
-1.510392
-1.459942
-1.403271
-1.338944
-1.279718
-1.244456
-1.240914
-1.251246
-1.244968
-1.211596
-1.170513
-1.152716
-1.183970
-1.280023
-1.447567
-1.685424
-1.983451
-2.321598
-2.674382
-3.018188
-3.331385
-3.589601
-3.770080
-3.862706
-3.869077
-3.791027
-3.630426
-3.401595
-3.135479
-2.868480
-2.624416
-2.402458
-2.189452
-1.987869
-1.821657
-1.715554
-1.675752
-1.684840
-1.711820
-1.729491
-1.722218
-1.680535
-1.590661
-1.427869
-1.165515
-0.795120
-0.334510
0.182791
0.727958
1.293673
1.886853
2.503445
3.118686
3.698729
4.214562
4.649450
4.999588
5.270555
5.473462
5.622408
5.734137
5.828901
5.928875
6.052761
6.208189
6.386908
6.571928
6.752863
6.931620
7.116301
7.315430
7.536158
7.782467
8.052429
8.337951
8.627936
8.912432
9.185439
9.443542
9.681395
9.889053
10.052440
10.155880
10.187040
10.144920
10.046260
9.919110
9.786662
9.660131
9.544101
9.442769
9.360711
9.296832
9.237360
9.160879
9.053315
8.915360
8.758721
8.599965
8.455728
8.339131
8.257934
8.216940
8.223139
8.286067
8.410807
8.586748
8.779180
8.937144
9.015422
8.991732
8.872369
8.687548
8.479093
8.285029
8.125392
7.998116
7.887078
7.777139
7.667840
7.570865
7.493481
7.427971
7.353687
7.247049
7.092230
6.882125
6.611879
6.278740
5.889391
5.462960
5.024974
4.594902
4.173581
3.742461
3.274890
2.749049
2.158608
1.520308
0.876710
0.288911
-0.179756
-0.480180
-0.590185
-0.521234
-0.318293
-0.050758
0.206560
0.398495
0.509774
0.557991
0.563408
0.529453
0.446093
0.309135
0.139733
-0.023207
-0.153553
-0.255029
-0.353343
-0.474304
-0.623000
-0.785841
-0.951090
-1.118286
-1.289933
-1.460233
-1.611197
-1.722270
-1.785908
-1.807930
-1.793578
-1.741706
-1.652123
-1.534147
-1.409188
-1.304484
-1.242025
-1.233483
-1.282119
-1.384472
-1.530185
-1.703440
-1.886406
-2.061906
-2.216072
-2.344546
-2.459033
-2.582588
-2.733538
-2.911748
-3.095378
-3.252605
-3.360698
-3.411592
-3.403804
-3.339804
-3.233117
-3.114204
-3.028049
-3.020311
-3.117881
-3.320665
-3.607778
-3.949404
-4.317894
-4.691418
-5.050298
-5.372551
-5.633716
-5.815581
-5.918588
-5.961452
-5.967309
-5.951429
-5.916576
-5.855515
-5.757772
-5.616313
-5.433936
-5.229728
-5.040463
-4.905731
-4.843045
-4.840302
-4.870213
-4.909446
-4.951850
-5.008591
-5.098973
-5.243820
-5.460611
-5.750394
-6.082233
-6.400036
-6.652093
-6.815240
-6.898514
-6.921885
-6.886404
-6.775567
-6.585923
-6.343471
-6.093226
-5.877426
-5.716475
-5.607150
-5.534578
-5.480444
-5.427198
-5.370194
-5.329889
-5.334642
-5.381414
-5.424962
-5.407437
-5.300301
-5.131177
-4.963634
-4.845230
-4.787434
-4.784986
-4.831417
-4.916521
-5.019900
-5.111818
-5.166379
-5.177570
-5.154591
-5.099751
-5.000094
-4.839828
-4.617661
-4.357955
-4.106267
-3.910869
-3.802586
-3.781366
-3.819335
-3.878832
