EVENT_NAME: L_AQUILA
EVENT_ID: IT-2009-0009
EVENT_DATE_YYYYMMDD: 20090406
EVENT_TIME_HHMMSS: 013240
EVENT_LATITUDE_DEGREE: 42.3420
EVENT_LONGITUDE_DEGREE: 13.3800
EVENT_DEPTH_KM: 8.3
HYPOCENTER_REFERENCE: INGV-CNT_Seismic_Bulletin
MAGNITUDE_W: 6.3
MAGNITUDE_W_REFERENCE: RCMT-INGV
MAGNITUDE_L: 5.9
MAGNITUDE_L_REFERENCE: INGV-CNT_Seismic_Bulletin
FOCAL_MECHANISM: NF
NETWORK: MN
STATION_CODE: AQU
STATION_NAME: AQUILA CASTELLO
STATION_LATITUDE_DEGREE: 42.353880
STATION_LONGITUDE_DEGREE: 13.401930
STATION_ELEVATION_M: 729
LOCATION: 
SENSOR_DEPTH_M: 15.0
VS30_M/S: 
SITE_CLASSIFICATION_EC8: C*
MORPHOLOGIC_CLASSIFICATION: 
EPICENTRAL_DISTANCE_KM: 2.2
EARTHQUAKE_BACKAZIMUTH_DEGREE: 233.9
DATE_TIME_FIRST_SAMPLE_YYYYMMDD_HHMMSS: 20090406_013225.000
DATE_TIME_FIRST_SAMPLE_PRECISION: milliseconds
SAMPLING_INTERVAL_S: 0.005000
NDATA: 18001
DURATION_S: 90.005
STREAM: HLZ
UNITS: cm/s
INSTRUMENT: sensor = Unknown [Unknown] | digitizer = Unknown [Unknown]
INSTRUMENT_ANALOG/DIGITAL: D
INSTRUMENTAL_FREQUENCY_HZ: 
INSTRUMENTAL_DAMPING: 
FULL_SCALE_G: 
N_BIT_DIGITAL_CONVERTER: 
PGV_CM/S: -21.241827
TIME_PGV_S: 17.845000
BASELINE_CORRECTION: BASELINE REMOVED
FILTER_TYPE: BUTTERWORTH
FILTER_ORDER: 2
LOW_CUT_FREQUENCY_HZ: 0.150
HIGH_CUT_FREQUENCY_HZ: 40.000
LATE/NORMAL_TRIGGERED: NT
DATABASE_VERSION: DYNA 1.0
HEADER_FORMAT: DYNA 1.2
DATA_TYPE: VELOCITY
PROCESSING: manual (Paolucci et al., 2011)
DATA_TIMESTAMP_YYYYMMDD_HHMMSS: 
DATA_LICENSE: CC-BY4_0 (http://creativecommons.org/licenses/by/4.0/)
DATA_CITATION: ESM working group (2015), European Strong-Motion database, version 0.1, Network Activity 3: Networking acceleration networks and SM data users. Project NERA (www.nera-eu.org)
DATA_CREATOR: ESM working group
ORIGINAL_DATA_MEDIATOR_CITATION: data obtained within the DPC-INGV data exchange agreements
ORIGINAL_DATA_MEDIATOR: Archive of Italian Department of Civil Protection
ORIGINAL_DATA_CREATOR_CITATION: Mediterranean Broad Band Seismographic Network, Istituto Nazionale di Geofisica e Vulcanologia http://mednet.rm.ingv.it
ORIGINAL_DATA_CREATOR: network: MN (Mediterranean Very Broadband Seismographic Network (MNDC)); owner: Istituto Nazionale di Geofisica e Vulcanologia
USER1: 
USER2: 
USER3: 
USER4: 
USER5: 
[...]
-0.103087
-0.103505
-0.103923
-0.104346
-0.104771
-0.105194
-0.105614
-0.106036
-0.106462
-0.106890
-0.107317
-0.107739
-0.108160
-0.108584
-0.109013
-0.109443
-0.109873
-0.110302
-0.110731
-0.111159
-0.111586
-0.112013
-0.112442
-0.112874
-0.113309
-0.113741
-0.114171
-0.114601
-0.115034
-0.115470
-0.115907
-0.116342
-0.116776
-0.117208
-0.117639
-0.118071
-0.118505
-0.118943
-0.119382
-0.119815
-0.120243
-0.120674
-0.121113
-0.121556
-0.121996
-0.122429
-0.122859
-0.123294
-0.123736
-0.124177
-0.124612
-0.125044
-0.125479
-0.125920
-0.126362
-0.126801
-0.127234
-0.127666
-0.128101
-0.128539
-0.128978
-0.129416
-0.129854
-0.130291
-0.130729
-0.131168
-0.131605
-0.132039
-0.132473
-0.132908
-0.133345
-0.133782
-0.134217
-0.134649
-0.135081
-0.135515
-0.135952
-0.136389
-0.136825
-0.137260
-0.137695
-0.138132
-0.138568
-0.139002
-0.139434
-0.139866
-0.140299
-0.140733
-0.141166
-0.141599
-0.142031
-0.142461
-0.142891
-0.143321
-0.143753
-0.144185
-0.144617
-0.145046
-0.145474
-0.145901
-0.146329
-0.146758
-0.147188
-0.147616
-0.148044
-0.148470
-0.148898
-0.149326
-0.149754
-0.150179
-0.150601
-0.151021
-0.151442
-0.151863
-0.152285
-0.152706
-0.153126
-0.153545
-0.153964
-0.154383
-0.154802
-0.155221
-0.155639
-0.156053
-0.156465
-0.156876
-0.157289
-0.157702
-0.158116
-0.158530
-0.158944
-0.159357
-0.159770
-0.160181
-0.160591
-0.161000
-0.161408
-0.161817
-0.162225
-0.162631
-0.163034
-0.163433
-0.163831
-0.164230
-0.164632
-0.165031
-0.165429
-0.165826
-0.166224
-0.166621
-0.167015
-0.167406
-0.167793
-0.168180
-0.168568
-0.168956
-0.169342
-0.169725
-0.170106
-0.170484
-0.170861
-0.171239
-0.171618
-0.171995
-0.172366
-0.172734
-0.173102
-0.173474
-0.173846
-0.174216
-0.174582
-0.174948
-0.175311
-0.175670
-0.176024
-0.176378
-0.176733
-0.177091
-0.177447
-0.177798
-0.178144
-0.178489
-0.178837
-0.179183
-0.179527
-0.179866
-0.180205
-0.180546
-0.180887
-0.181226
-0.181561
-0.181891
-0.182219
-0.182547
-0.182876
-0.183201
-0.183522
-0.183838
-0.184154
-0.184473
-0.184793
-0.185110
-0.185420
-0.185723
-0.186022
-0.186322
-0.186623
-0.186926
-0.187228
-0.187527
-0.187823
-0.188116
-0.188404
-0.188689
-0.188971
-0.189251
-0.189531
-0.189810
-0.190087
-0.190361
-0.190631
-0.190897
-0.191161
-0.191424
-0.191686
-0.191946
-0.192201
-0.192451
-0.192696
-0.192940
-0.193183
-0.193426
-0.193667
-0.193905
-0.194137
-0.194364
-0.194587
-0.194810
-0.195034
-0.195257
-0.195475
-0.195684
-0.195889
-0.196093
-0.196298
-0.196503
-0.196703
-0.196898
-0.197090
-0.197278
-0.197463
-0.197644
-0.197821
-0.197997
-0.198172
-0.198341
-0.198504
-0.198662
-0.198819
-0.198976
-0.199130
-0.199280
-0.199424
-0.199566
-0.199706
-0.199840
-0.199967
-0.200087
-0.200206
-0.200326
-0.200448
-0.200565
-0.200676
-0.200780
-0.200878
-0.200976
-0.201073
-0.201168
-0.201256
-0.201336
-0.201411
-0.201484
-0.201557
-0.201625
-0.201687
-0.201742
-0.201793
-0.201841
-0.201887
-0.201929
-0.201968
-0.202002
-0.202032
-0.202056
-0.202076
-0.202089
-0.202095
-0.202096
-0.202093
-0.202089
-0.202081
-0.202069
-0.202053
-0.202034
-0.202012
-0.201981
-0.201943
-0.201902
-0.201861
-0.201819
-0.201769
-0.201709
-0.201641
-0.201571
-0.201501
-0.201428
-0.201347
-0.201259
-0.201165
-0.201066
-0.200960
-0.200846
-0.200730
-0.200612
-0.200494
-0.200369
-0.200235
-0.200089
-0.199937
-0.199783
-0.199626
-0.199463
-0.199290
-0.199111
-0.198930
-0.198746
-0.198555
-0.198354
-0.198145
-0.197933
-0.197720
-0.197500
-0.197272
-0.197037
-0.196795
-0.196550
-0.196301
-0.196048
-0.195790
-0.195525
-0.195251
-0.194967
-0.194674
-0.194378
-0.194079
-0.193773
-0.193457
-0.193131
-0.192799
-0.192464
-0.192126
-0.191781
-0.191426
-0.191063
-0.190694
-0.190320
-0.189939
-0.189551
-0.189156
-0.188755
-0.188348
-0.187932
-0.187507
-0.187078
-0.186644
-0.186205
-0.185757
-0.185301
-0.184839
-0.184372
-0.183896
-0.183410
-0.182913
-0.182410
-0.181903
-0.181391
-0.180870
-0.180340
-0.179802
-0.179257
-0.178705
-0.178143
-0.177572
-0.176992
-0.176408
-0.175818
-0.175221
-0.174614
-0.173996
-0.173370
-0.172739
-0.172101
-0.171454
-0.170797
-0.170133
-0.169463
-0.168785
-0.168098
-0.167399
-0.166691
-0.165976
-0.165253
-0.164520
-0.163779
-0.163028
-0.162268
-0.161500
-0.160723
-0.159940
-0.159149
-0.158351
-0.157542
-0.156722
-0.155894
-0.155057
-0.154212
-0.153355
-0.152489
-0.151614
-0.150732
-0.149841
-0.148938
-0.148024
-0.147102
-0.146173
-0.145233
-0.144283
-0.143324
-0.142356
-0.141380
-0.140392
-0.139392
-0.138382
-0.137365
-0.136339
-0.135301
-0.134252
-0.133195
-0.132131
-0.131055
-0.129966
-0.128864
-0.127755
-0.126640
-0.125516
-0.124379
-0.123229
-0.122070
-0.120902
-0.119722
-0.118528
-0.117323
-0.116111
-0.114891
-0.113659
-0.112414
-0.111157
-0.109892
-0.108619
-0.107332
-0.106031
-0.104719
-0.103398
-0.102067
-0.100724
-0.099368
-0.098000
-0.096623
-0.095236
-0.093837
-0.092424
-0.091001
-0.089569
-0.088126
-0.086671
-0.085201
-0.083717
-0.082224
-0.080721
-0.079206
-0.077678
-0.076138
-0.074587
-0.073024
-0.071447
-0.069858
-0.068255
-0.066640
-0.065013
-0.063374
-0.061724
-0.060063
-0.058389
-0.056701
-0.054998
-0.053284
-0.051560
-0.049825
-0.048076
-0.046313
-0.044536
-0.042747
-0.040946
-0.039132
-0.037306
-0.035465
-0.033611
-0.031742
-0.029861
-0.027969
-0.026063
-0.024139
-0.022199
-0.020247
-0.018286
-0.016315
-0.014330
-0.012328
-0.010311
-0.008283
-0.006243
-0.004186
-0.002111
-0.000022
0.002077
0.004185
0.006306
0.008445
0.010601
0.012771
0.014952
0.017146
0.019355
0.021582
0.023825
0.026083
0.028353
0.030636
0.032935
0.035249
0.037579
0.039923
0.042281
0.044653
0.047040
0.049442
0.051859
0.054288
0.056731
0.059187
0.061661
0.064154
0.066665
0.069191
0.071730
0.074281
0.076847
0.079431
0.082033
0.084651
0.087282
0.089927
0.092588
0.095268
0.097965
0.100675
0.103399
0.106139
0.108898
0.111675
0.114468
0.117276
0.120099
0.122936
0.125788
0.128658
0.131545
0.134451
0.137373
0.140308
0.143258
0.146227
0.149215
0.152220
0.155238
0.158270
0.161319
0.164387
0.167474
0.170576
0.173693
0.176828
0.179983
0.183156
0.186344
0.189545
0.192763
0.195999
0.199257
0.202533
0.205823
0.209129
0.212451
0.215793
0.219156
0.222537
0.225934
0.229345
0.232772
0.236218
0.239688
0.243177
0.246683
0.250203
0.253739
0.257295
0.260871
0.264467
0.268079
0.271708
0.275355
0.279021
0.282705
0.286407
0.290126
0.293863
0.297618
0.301392
0.305185
0.308998
0.312828
0.316676
0.320542
0.324428
0.328336
0.332263
0.336208
0.340170
0.344151
0.348151
0.352169
0.356206
0.360260
0.364335
0.368431
0.372545
0.376677
0.380829
0.385002
0.389196
0.393407
0.397634
0.401880
0.406149
0.410439
0.414749
0.419075
0.423419
0.427782
0.432164
0.436566
0.440989
0.445435
0.449902
0.454388
0.458890
0.463411
0.467953
0.472516
0.477097
0.481697
0.486317
0.490960
0.495626
0.500309
0.505009
0.509727
0.514466
0.519228
0.524012
0.528817
0.533638
0.538479
0.543341
0.548225
0.553133
0.558062
0.563010
0.567975
0.572960
0.577965
0.582991
0.588039
0.593108
0.598198
0.603306
0.608432
0.613578
0.618747
0.623939
0.629151
0.634383
0.639633
0.644904
0.650195
0.655508
0.660845
0.666205
0.671587
0.676987
0.682405
0.687844
0.693307
0.698794
0.704303
0.709831
0.715378
0.720945
0.726534
0.732146
0.737779
0.743436
0.749114
0.754811
0.760527
0.766263
0.772020
0.777799
0.783601
0.789427
0.795274
0.801141
0.807025
0.812927
0.818851
0.824798
0.830768
0.836757
0.842767
0.848800
0.854857
0.860934
0.867030
0.873146
0.879285
0.885447
0.891631
0.897835
0.904058
0.910305
0.916575
0.922868
0.929179
0.935510
0.941863
0.948240
0.954639
0.961059
0.967500
0.973964
0.980448
0.986952
0.993476
1.000021
1.006590
1.013181
1.019794
1.026427
1.033083
1.039760
1.046458
1.053173
1.059908
1.066667
1.073450
1.080256
1.087082
1.093929
1.100796
1.107686
1.114597
1.121529
1.128482
1.135455
1.142450
1.149465
1.156502
1.163561
1.170641
1.177741
1.184862
1.192005
1.199171
1.206355
1.213558
1.220780
1.228024
1.235290
1.242580
1.249890
1.257220
1.264572
1.271943
1.279334
1.286746
1.294178
1.301632
1.309106
1.316600
1.324115
1.331651
1.339208
1.346787
1.354386
1.362004
1.369642
1.377299
1.384977
1.392676
1.400396
1.408135
1.415893
1.423672
1.431472
1.439295
1.447136
1.454996
1.462876
1.470779
1.478703
1.486646
1.494606
1.502583
1.510581
1.518603
1.526646
1.534708
1.542786
1.550880
1.558993
1.567128
1.575286
1.583465
1.591661
1.599872
1.608101
1.616349
1.624619
1.632912
1.641223
1.649553
1.657899
1.666264
1.674646
1.683046
1.691463
1.699899
1.708355
1.716829
1.725322
1.733832
1.742357
1.750900
1.759461
1.768043
1.776645
1.785264
1.793897
1.802545
1.811212
1.819901
1.828611
1.837337
1.846075
1.854826
1.863594
1.872383
1.881191
1.890013
1.898850
1.907705
1.916578
1.925470
1.934374
1.943290
1.952222
1.961176
1.970149
1.979136
1.988136
1.997150
2.006181
2.015230
2.024294
2.033370
2.042461
2.051570
2.060695
2.069833
2.078984
2.088148
2.097327
2.106520
2.115727
2.124950
2.134191
2.143448
2.152715
2.161993
2.171284
2.180592
2.189915
2.199251
2.208596
2.217952
2.227322
2.236706
2.246102
2.255510
2.264931
2.274366
2.283811
2.293267
2.302734
2.312214
2.321708
2.331215
2.340733
2.350261
2.359800
2.369350
2.378909
2.388477
2.398056
2.407646
2.417248
2.426859
2.436478
2.446107
2.455748
2.465400
2.475061
2.484728
2.494404
2.504089
2.513784
2.523488
2.533199
2.542916
2.552641
2.562374
2.572117
2.581868
2.591627
2.601393
2.611164
2.620939
2.630717
2.640504
2.650301
2.660108
2.669921
2.679736
2.689554
2.699379
2.709212
2.719053
2.728895
2.738738
2.748584
2.758436
2.768296
2.778161
2.788026
2.797891
2.807761
2.817638
2.827518
2.837399
2.847281
2.857164
2.867051
2.876940
2.886827
2.896702
2.906557
2.916379
2.926156
2.935889
2.945592
2.955270
2.964866
2.974176
2.982759
2.989885
2.994631
2.996178
2.994303
2.989888
2.984915
2.981735
2.981752
2.984154
2.986181
2.985158
2.980949
2.977387
2.980523
2.994328
3.017854
3.045583
3.071004
3.091346
3.108650
3.126732
3.147699
3.170201
3.190727
3.206892
3.219091
3.229520
3.239811
3.248909
3.253699
3.252198
3.246188
3.241309
3.243431
3.253523
3.267193
3.279156
3.286874
3.290938
3.292532
3.290373
3.281527
3.265232
3.243902
3.220961
3.200362
3.188373
3.193486
3.222788
3.276288
3.342643
3.402685
3.439862
3.448771
3.438123
3.427287
3.437317
3.479811
3.547715
3.616311
3.655407
3.645593
3.591031
3.517110
3.454216
3.422448
3.424141
3.446734
3.472882
3.489032
3.489864
3.479412
3.469036
3.471546
3.492817
3.526824
3.557583
3.569678
3.562443
3.553245
3.566555
3.616743
3.694080
3.768815
3.811471
3.810132
3.776235
3.737136
3.720422
3.742092
3.801006
3.876759
3.932716
3.931036
3.855939
3.725907
3.587073
3.489908
3.460084
3.488260
3.542338
3.587510
3.604837
3.599045
3.593154
3.612141
3.663402
3.732209
3.794696
3.835600
3.860233
3.888457
3.934278
3.991631
4.034443
4.030483
3.962991
3.844590
3.715304
3.620551
3.579563
3.574343
3.563893
3.505544
3.371864
3.154491
2.858379
2.499479
2.106468
1.715978
1.359480
1.049691
0.770718
0.475975
0.097690
-0.426388
-1.113997
-1.910333
-2.685390
-3.271056
-3.532550
-3.438909
-3.103279
-2.750009
-2.611164
-2.811079
-3.287942
-3.820286
-4.150325
-4.111980
-3.708114
-3.088250
-2.446757
-1.934031
-1.616023
-1.483477
-1.492511
-1.597059
-1.760889
-1.951891
-2.126843
-2.226771
-2.197835
-2.045027
-1.883597
-1.898582
-2.220372
-2.835611
-3.588431
-4.274808
-4.770637
-5.059245
-5.159762
-5.083228
-4.850562
-4.520318
-4.190668
-3.959452
-3.865781
-3.876408
-3.919176
-3.911673
-3.773796
-3.448952
-2.937876
-2.317698
-1.728171
-1.316515
-1.163287
-1.253694
-1.505026
-1.812879
-2.091203
-2.286637
-2.376342
-2.379199
-2.373699
-2.478705
-2.795870
-3.360005
-4.116781
-4.930253
-5.616274
-5.995994
-5.966048
-5.563849
-4.990145
-4.522284
-4.347377
-4.465508
-4.715798
-4.896336
-4.908154
-4.790140
-4.641178
-4.543410
-4.534841
-4.628530
-4.846027
-5.208440
-5.695229
-6.242581
-6.787952
-7.300907
-7.777970
-8.216881
-8.595835
-8.892735
-9.128186
-9.364104
-9.654119
-10.007220
-10.388360
-10.747620
-11.060400
-11.347430
-11.665390
-12.073210
-12.586190
-13.148070
-13.636250
-13.909830
-13.886230
-13.597010
-13.202600
-12.953730
-13.097580
-13.751320
-14.799210
-15.935200
-16.843660
-17.363640
-17.549280
-17.578489
-17.579861
-17.578409
-17.577940
-17.629320
-17.822550
-18.218620
-18.768560
-19.304371
-19.609659
-19.511400
-18.958330
-18.052280
-17.022949
-16.148979
-15.648990
-15.606130
-15.946220
-16.466400
-16.909189
-17.065849
-16.875111
-16.441259
-15.966240
-15.661140
-15.674600
-16.065090
-16.805210
-17.780729
-18.790390
-19.595240
-20.015280
-20.007521
-19.690651
-19.297640
-19.073139
-19.176571
-19.621241
-20.272490
-20.898670
-21.241831
-21.093491
-20.361860
-19.117300
-17.585171
-16.076599
-14.874240
-14.110850
-13.726090
-13.517590
-13.242340
-12.729450
-11.946180
-11.003430
-10.111180
-9.497412
-9.320597
-9.599552
-10.202500
-10.901330
-11.461900
-11.739340
-11.722080
-11.510680
-11.250650
-11.048980
-10.933310
-10.866140
-10.789170
-10.669910
-10.509340
-10.313320
-10.071750
-9.763990
-9.386055
-8.978146
-8.610187
-8.331285
-8.140171
-7.997427
-7.865816
-7.747294
-7.664273
-7.602048
-7.500391
-7.305410
-7.015552
-6.688066
-6.401338
-6.202521
-6.102155
-6.103168
-6.186466
-6.262244
-6.188944
-5.872564
-5.353097
-4.812730
-4.460364
-4.355170
-4.363012
-4.272772
-3.941862
-3.389452
-2.776193
-2.294278
-2.072693
-2.135827
-2.414936
-2.797380
-3.182110
-3.520457
-3.815603
-4.088814
-4.356627
-4.631410
-4.930834
-5.281464
-5.701781
-6.174306
-6.641590
-7.028485
-7.263926
-7.296117
-7.111056
-6.750148
-6.302002
-5.865865
-5.510753
-5.247787
-5.033178
-4.794004
-4.447705
-3.918388
-3.176460
-2.285403
-1.387001
-0.622982
-0.065472
0.307003
0.576592
0.823635
1.101086
1.444482
1.859767
2.289781
2.623437
2.758341
2.664828
2.413528
2.133610
1.924542
1.808140
1.744684
1.684213
1.619592
1.592295
1.650059
1.801617
1.998392
2.166995
2.271625
2.335679
2.411432
2.540909
2.733232
2.971525
3.237472
3.519728
3.805183
4.080401
4.346399
4.624077
4.943034
5.322041
5.748894
6.171627
6.508362
6.680288
6.654266
6.455713
6.146412
5.795304
5.462237
5.207358
5.104608
5.206503
5.477731
5.793583
6.018256
6.091483
6.071899
6.091774
6.250981
6.559174
6.955644
7.369214
7.776260
8.198617
8.644997
9.062641
9.339071
9.375504
9.190917
8.937022
8.806843
8.921074
9.256054
9.676745
10.045600
10.284130
10.361570
10.268460
10.009380
9.624446
9.213995
8.908447
8.791971
8.860598
9.040521
9.242406
9.417541
9.563544
9.684631
9.765534
9.779066
9.712844
9.592064
9.465415
9.364843
9.293229
9.247368
9.238600
9.293751
9.437429
9.669151
9.960455
10.268510
10.539640
10.706990
10.715130
10.564930
10.323110
10.083310
9.909476
9.794249
9.675219
9.496841
9.248788
8.962995
8.692840
8.489566
8.384799
8.380243
8.446709
8.536047
8.607048
8.650396
8.676591
8.673174
8.585208
8.336802
7.877968
7.231106
6.492511
5.788023
5.222425
4.842553
4.626075
4.494822
4.343885
4.080278
3.659539
3.112018
2.542632
2.096464
1.894304
1.964365
2.233561
2.582335
2.907565
3.161548
3.346660
3.480797
3.581088
3.669337
3.766441
3.873568
3.969719
4.028540
4.028334
3.948754
3.767939
3.468216
3.050488
2.546634
2.008376
1.479445
0.986943
0.554167
0.205344
-0.043720
-0.191483
-0.246280
-0.217254
-0.107014
0.086606
0.362017
0.710189
1.117911
1.570996
2.053275
2.540704
2.996240
3.378326
3.661137
3.847048
3.961529
4.030179
4.053195
4.011337
3.898186
3.733645
3.549286
3.369842
3.204979
3.056095
2.929159
2.832144
2.758904
2.684426
2.577518
2.418699
2.214046
1.995877
1.810546
1.701521
1.692740
1.778518
1.922590
2.068473
2.160095
2.164313
2.085171
1.953119
1.793988
1.608240
1.373373
1.068058
0.702500
0.321464
-0.019565
-0.272331
-0.396903
-0.355329
-0.110613
0.354211
1.007678
1.770659
2.549082
3.266048
3.879807
4.387327
4.817270
5.216434
5.628931
6.069493
6.503434
6.861551
7.083027
7.140510
7.036493
6.790562
6.429757
5.987519
5.505671
5.026686
4.580605
4.186793
3.867068
3.643103
3.518970
3.478942
3.505766
3.597353
3.768133
4.029754
4.365793
4.736695
5.111209
5.480735
5.847492
6.209422
6.552891
6.854185
7.086955
7.231801
7.287265
7.278971
7.257821
7.272378
7.329092
7.389398
7.408499
7.374337
7.321460
7.304475
7.348587
7.431398
7.505060
7.527754
7.485352
7.390451
7.264850
7.128464
7.000940
6.908473
6.887562
6.975104
7.186831
7.500401
7.852428
8.156391
8.336841
8.359795
8.247623
8.066728
7.890330
7.757889
7.651224
7.514166
7.303053
7.011437
6.657036
6.259402
5.828524
5.378195
4.951162
4.616742
4.440159
4.458415
4.669616
5.021655
5.406127
5.688904
5.774177
5.652555
5.405427
5.152411
4.968877
4.851954
4.749455
4.609704
4.421649
4.215573
4.030213
3.884683
3.770684
3.664967
3.550531
3.423623
3.287650
3.154327
3.050994
3.011728
3.052822
3.160247
3.298430
3.431221
3.540515
3.620936
3.658174
3.626835
3.509190
3.303561
3.016762
2.660162
2.254688
1.833710
1.436806
1.093534
0.806425
0.554020
0.310960
0.058511
-0.219038
-0.535967
-0.898177
-1.292038
-1.676549
-1.991417
-2.181179
-2.221514
-2.136933
-1.996109
-1.886938
-1.888733
-2.048250
-2.362418
-2.771624
-3.174419
-3.465210
-3.581474
-3.541489
-3.438152
-3.391947
-3.503889
-3.823522
-4.332549
-4.944987
-5.531486
-5.966026
-6.174570
-6.166436
-6.020840
-5.836581
-5.691784
-5.629321
-5.660689
-5.777038
-5.953085
-6.146904
-6.311842
-6.418377
-6.462536
-6.454590
-6.400275
-6.288700
-6.104997
-5.857906
-5.583148
-5.318852
-5.083875
-4.872173
-4.662423
-4.436295
-4.192563
-3.952389
-3.753500
-3.633433
-3.607682
-3.654455
-3.727722
-3.790850
-3.831607
-3.852856
-3.863442
-3.877201
-3.911310
-3.977778
-4.068737
-4.146113
-4.157257
-4.069843
-3.887952
-3.641045
-3.364505
-3.083901
-2.811327
-2.550830
-2.301361
-2.055657
-1.802023
-1.531106
-1.243617
-0.954553
-0.687716
-0.461484
-0.276296
-0.112049
0.055975
0.229469
0.375375
0.440615
0.388521
0.238776
0.070322
-0.017566
0.044021
0.254317
0.543369
0.811565
0.979406
1.027958
1.006133
1.002807
1.101579
1.335830
1.673505
2.035342
2.329236
2.488454
2.497092
2.395489
2.260293
2.165133
2.145703
2.182674
2.214001
2.170410
2.007521
1.724186
1.363656
0.998334
0.702470
0.521309
0.456770
