EVENT_NAME: L_AQUILA
EVENT_ID: IT-2009-0009
EVENT_DATE_YYYYMMDD: 20090406
EVENT_TIME_HHMMSS: 013240
EVENT_LATITUDE_DEGREE: 42.3420
EVENT_LONGITUDE_DEGREE: 13.3800
EVENT_DEPTH_KM: 8.3
HYPOCENTER_REFERENCE: INGV-CNT_Seismic_Bulletin
MAGNITUDE_W: 6.3
MAGNITUDE_W_REFERENCE: RCMT-INGV
MAGNITUDE_L: 5.9
MAGNITUDE_L_REFERENCE: INGV-CNT_Seismic_Bulletin
FOCAL_MECHANISM: NF
NETWORK: MN
STATION_CODE: AQU
STATION_NAME: AQUILA CASTELLO
STATION_LATITUDE_DEGREE: 42.353880
STATION_LONGITUDE_DEGREE: 13.401930
STATION_ELEVATION_M: 729
LOCATION: 
SENSOR_DEPTH_M: 15.0
VS30_M/S: 
SITE_CLASSIFICATION_EC8: C*
MORPHOLOGIC_CLASSIFICATION: 
EPICENTRAL_DISTANCE_KM: 2.2
EARTHQUAKE_BACKAZIMUTH_DEGREE: 233.9
DATE_TIME_FIRST_SAMPLE_YYYYMMDD_HHMMSS: 20090406_013225.000
DATE_TIME_FIRST_SAMPLE_PRECISION: milliseconds
SAMPLING_INTERVAL_S: 0.005000
NDATA: 18001
DURATION_S: 90.005
STREAM: HLZ
UNITS: cm
INSTRUMENT: sensor = Unknown [Unknown] | digitizer = Unknown [Unknown]
INSTRUMENT_ANALOG/DIGITAL: D
INSTRUMENTAL_FREQUENCY_HZ: 
INSTRUMENTAL_DAMPING: 
FULL_SCALE_G: 
N_BIT_DIGITAL_CONVERTER: 
PGD_CM: -6.321938
TIME_PGD_S: 18.335000
BASELINE_CORRECTION: BASELINE REMOVED
FILTER_TYPE: BUTTERWORTH
FILTER_ORDER: 2
LOW_CUT_FREQUENCY_HZ: 0.150
HIGH_CUT_FREQUENCY_HZ: 40.000
LATE/NORMAL_TRIGGERED: NT
DATABASE_VERSION: DYNA 1.0
HEADER_FORMAT: DYNA 1.2
DATA_TYPE: DISPLACEMENT
PROCESSING: manual (Paolucci et al., 2011)
DATA_TIMESTAMP_YYYYMMDD_HHMMSS: 
DATA_LICENSE: CC-BY4_0 (http://creativecommons.org/licenses/by/4.0/)
DATA_CITATION: ESM working group (2015), European Strong-Motion database, version 0.1, Network Activity 3: Networking acceleration networks and SM data users. Project NERA (www.nera-eu.org)
DATA_CREATOR: ESM working group
ORIGINAL_DATA_MEDIATOR_CITATION: data obtained within the DPC-INGV data exchange agreements
ORIGINAL_DATA_MEDIATOR: Archive of Italian Department of Civil Protection
ORIGINAL_DATA_CREATOR_CITATION: Mediterranean Broad Band Seismographic Network, Istituto Nazionale di Geofisica e Vulcanologia http://mednet.rm.ingv.it
ORIGINAL_DATA_CREATOR: network: MN (Mediterranean Very Broadband Seismographic Network (MNDC)); owner: Istituto Nazionale di Geofisica e Vulcanologia
USER1: 
USER2: 
USER3: 
USER4: 
USER5: 
[...]
-4.511944e-01
-4.517047e-01
-4.522084e-01
-4.527052e-01
-4.531952e-01
-4.536783e-01
-4.541545e-01
-4.546237e-01
-4.550858e-01
-4.555408e-01
-4.559886e-01
-4.564293e-01
-4.568626e-01
-4.572886e-01
-4.577072e-01
-4.581183e-01
-4.585219e-01
-4.589180e-01
-4.593064e-01
-4.596870e-01
-4.600600e-01
-4.604251e-01
-4.607823e-01
-4.611316e-01
-4.614729e-01
-4.618061e-01
-4.621312e-01
-4.624480e-01
-4.627567e-01
-4.630570e-01
-4.633489e-01
-4.636324e-01
-4.639074e-01
-4.641738e-01
-4.644316e-01
-4.646807e-01
-4.649211e-01
-4.651527e-01
-4.653754e-01
-4.655891e-01
-4.657938e-01
-4.659895e-01
-4.661760e-01
-4.663534e-01
-4.665214e-01
-4.666801e-01
-4.668294e-01
-4.669693e-01
-4.670996e-01
-4.672203e-01
-4.673313e-01
-4.674325e-01
-4.675239e-01
-4.676055e-01
-4.676772e-01
-4.677388e-01
-4.677904e-01
-4.678318e-01
-4.678630e-01
-4.678839e-01
-4.678945e-01
-4.678946e-01
-4.678842e-01
-4.678633e-01
-4.678317e-01
-4.677895e-01
-4.677365e-01
-4.676727e-01
-4.675979e-01
-4.675122e-01
-4.674154e-01
-4.673075e-01
-4.671884e-01
-4.670580e-01
-4.669162e-01
-4.667630e-01
-4.665983e-01
-4.664221e-01
-4.662342e-01
-4.660346e-01
-4.658232e-01
-4.655999e-01
-4.653647e-01
-4.651175e-01
-4.648582e-01
-4.645868e-01
-4.643031e-01
-4.640072e-01
-4.636989e-01
-4.633781e-01
-4.630448e-01
-4.626988e-01
-4.623402e-01
-4.619688e-01
-4.615845e-01
-4.611874e-01
-4.607772e-01
-4.603540e-01
-4.599175e-01
-4.594679e-01
-4.590050e-01
-4.585286e-01
-4.580388e-01
-4.575354e-01
-4.570184e-01
-4.564877e-01
-4.559432e-01
-4.553849e-01
-4.548125e-01
-4.542261e-01
-4.536257e-01
-4.530110e-01
-4.523820e-01
-4.517387e-01
-4.510810e-01
-4.504088e-01
-4.497219e-01
-4.490204e-01
-4.483041e-01
-4.475729e-01
-4.468269e-01
-4.460658e-01
-4.452896e-01
-4.444982e-01
-4.436916e-01
-4.428697e-01
-4.420323e-01
-4.411794e-01
-4.403110e-01
-4.394268e-01
-4.385269e-01
-4.376111e-01
-4.366794e-01
-4.357317e-01
-4.347679e-01
-4.337879e-01
-4.327916e-01
-4.317789e-01
-4.307498e-01
-4.297042e-01
-4.286419e-01
-4.275629e-01
-4.264672e-01
-4.253545e-01
-4.242248e-01
-4.230781e-01
-4.219142e-01
-4.207331e-01
-4.195347e-01
-4.183188e-01
-4.170854e-01
-4.158344e-01
-4.145657e-01
-4.132792e-01
-4.119749e-01
-4.106525e-01
-4.093121e-01
-4.079536e-01
-4.065768e-01
-4.051817e-01
-4.037682e-01
-4.023361e-01
-4.008855e-01
-3.994162e-01
-3.979281e-01
-3.964211e-01
-3.948952e-01
-3.933502e-01
-3.917861e-01
-3.902027e-01
-3.886000e-01
-3.869779e-01
-3.853362e-01
-3.836749e-01
-3.819938e-01
-3.802930e-01
-3.785722e-01
-3.768315e-01
-3.750706e-01
-3.732896e-01
-3.714883e-01
-3.696666e-01
-3.678245e-01
-3.659617e-01
-3.640783e-01
-3.621742e-01
-3.602492e-01
-3.583032e-01
-3.563362e-01
-3.543480e-01
-3.523386e-01
-3.503079e-01
-3.482557e-01
-3.461819e-01
-3.440865e-01
-3.419694e-01
-3.398305e-01
-3.376697e-01
-3.354869e-01
-3.332819e-01
-3.310548e-01
-3.288053e-01
-3.265333e-01
-3.242389e-01
-3.219218e-01
-3.195820e-01
-3.172195e-01
-3.148340e-01
-3.124255e-01
-3.099939e-01
-3.075391e-01
-3.050610e-01
-3.025594e-01
-3.000344e-01
-2.974857e-01
-2.949134e-01
-2.923173e-01
-2.896972e-01
-2.870531e-01
-2.843849e-01
-2.816926e-01
-2.789758e-01
-2.762347e-01
-2.734691e-01
-2.706787e-01
-2.678637e-01
-2.650238e-01
-2.621590e-01
-2.592692e-01
-2.563542e-01
-2.534140e-01
-2.504485e-01
-2.474575e-01
-2.444410e-01
-2.413988e-01
-2.383309e-01
-2.352372e-01
-2.321175e-01
-2.289717e-01
-2.257998e-01
-2.226017e-01
-2.193771e-01
-2.161262e-01
-2.128486e-01
-2.095444e-01
-2.062134e-01
-2.028554e-01
-1.994705e-01
-1.960585e-01
-1.926193e-01
-1.891527e-01
-1.856588e-01
-1.821373e-01
-1.785881e-01
-1.750112e-01
-1.714065e-01
-1.677738e-01
-1.641131e-01
-1.604242e-01
-1.567070e-01
-1.529614e-01
-1.491874e-01
-1.453847e-01
-1.415534e-01
-1.376933e-01
-1.338043e-01
-1.298863e-01
-1.259392e-01
-1.219628e-01
-1.179571e-01
-1.139220e-01
-1.098574e-01
-1.057631e-01
-1.016391e-01
-9.748528e-02
-9.330149e-02
-8.908766e-02
-8.484366e-02
-8.056937e-02
-7.626470e-02
-7.192955e-02
-6.756382e-02
-6.316740e-02
-5.874016e-02
-5.428200e-02
-4.979283e-02
-4.527254e-02
-4.072102e-02
-3.613814e-02
-3.152380e-02
-2.687791e-02
-2.220036e-02
-1.749104e-02
-1.274984e-02
-7.976649e-03
-3.171356e-03
1.666144e-03
6.535962e-03
1.143820e-02
1.637297e-02
2.134034e-02
2.634045e-02
3.137340e-02
3.643931e-02
4.153828e-02
4.667041e-02
5.183583e-02
5.703463e-02
6.226692e-02
6.753278e-02
7.283232e-02
7.816566e-02
8.353291e-02
8.893419e-02
9.436960e-02
9.983925e-02
1.053432e-01
1.108817e-01
1.164546e-01
1.220623e-01
1.277047e-01
1.333820e-01
1.390942e-01
1.448415e-01
1.506241e-01
1.564419e-01
1.622951e-01
1.681838e-01
1.741081e-01
1.800681e-01
1.860640e-01
1.920957e-01
1.981635e-01
2.042674e-01
2.104075e-01
2.165840e-01
2.227969e-01
2.290463e-01
2.353324e-01
2.416553e-01
2.480150e-01
2.544117e-01
2.608454e-01
2.673163e-01
2.738245e-01
2.803700e-01
2.869530e-01
2.935736e-01
3.002318e-01
3.069279e-01
3.136618e-01
3.204337e-01
3.272438e-01
3.340920e-01
3.409785e-01
3.479033e-01
3.548667e-01
3.618687e-01
3.689094e-01
3.759888e-01
3.831072e-01
3.902646e-01
3.974610e-01
4.046967e-01
4.119717e-01
4.192861e-01
4.266400e-01
4.340335e-01
4.414667e-01
4.489397e-01
4.564527e-01
4.640056e-01
4.715986e-01
4.792318e-01
4.869054e-01
4.946193e-01
5.023737e-01
5.101687e-01
5.180043e-01
5.258807e-01
5.337980e-01
5.417564e-01
5.497557e-01
5.577962e-01
5.658780e-01
5.740011e-01
5.821656e-01
5.903717e-01
5.986195e-01
6.069090e-01
6.152403e-01
6.236135e-01
6.320288e-01
6.404861e-01
6.489856e-01
6.575274e-01
6.661115e-01
6.747381e-01
6.834073e-01
6.921191e-01
7.008736e-01
7.096709e-01
7.185111e-01
7.273943e-01
7.363206e-01
7.452901e-01
7.543028e-01
7.633589e-01
7.724584e-01
7.816014e-01
7.907881e-01
8.000185e-01
8.092926e-01
8.186106e-01
8.279725e-01
8.373785e-01
8.468285e-01
8.563228e-01
8.658613e-01
8.754442e-01
8.850716e-01
8.947434e-01
9.044599e-01
9.142210e-01
9.240269e-01
9.338776e-01
9.437733e-01
9.537140e-01
9.636997e-01
9.737306e-01
9.838068e-01
9.939282e-01
1.004095e+00
1.014307e+00
1.024565e+00
1.034869e+00
1.045218e+00
1.055613e+00
1.066054e+00
1.076540e+00
1.087073e+00
1.097651e+00
1.108276e+00
1.118947e+00
1.129664e+00
1.140428e+00
1.151238e+00
1.162094e+00
1.172997e+00
1.183947e+00
1.194943e+00
1.205986e+00
1.217076e+00
1.228212e+00
1.239396e+00
1.250627e+00
1.261904e+00
1.273229e+00
1.284601e+00
1.296020e+00
1.307486e+00
1.319000e+00
1.330561e+00
1.342169e+00
1.353825e+00
1.365529e+00
1.377280e+00
1.389079e+00
1.400926e+00
1.412821e+00
1.424763e+00
1.436753e+00
1.448791e+00
1.460878e+00
1.473012e+00
1.485194e+00
1.497425e+00
1.509704e+00
1.522031e+00
1.534406e+00
1.546830e+00
1.559302e+00
1.571822e+00
1.584391e+00
1.597008e+00
1.609674e+00
1.622389e+00
1.635152e+00
1.647964e+00
1.660825e+00
1.673734e+00
1.686692e+00
1.699699e+00
1.712755e+00
1.725860e+00
1.739013e+00
1.752216e+00
1.765467e+00
1.778768e+00
1.792117e+00
1.805516e+00
1.818964e+00
1.832461e+00
1.846007e+00
1.859602e+00
1.873246e+00
1.886940e+00
1.900683e+00
1.914475e+00
1.928317e+00
1.942208e+00
1.956148e+00
1.970137e+00
1.984176e+00
1.998264e+00
2.012402e+00
2.026589e+00
2.040825e+00
2.055111e+00
2.069446e+00
2.083831e+00
2.098265e+00
2.112749e+00
2.127281e+00
2.141863e+00
2.156494e+00
2.171173e+00
2.185901e+00
2.200678e+00
2.215502e+00
2.230373e+00
2.245287e+00
2.260236e+00
2.275209e+00
2.290190e+00
2.305162e+00
2.320111e+00
2.335036e+00
2.349944e+00
2.364853e+00
2.379774e+00
2.394705e+00
2.409631e+00
2.424535e+00
2.439422e+00
2.454325e+00
2.469297e+00
2.484386e+00
2.499614e+00
2.514969e+00
2.530426e+00
2.545969e+00
2.561602e+00
2.577341e+00
2.593192e+00
2.609146e+00
2.625180e+00
2.641276e+00
2.657423e+00
2.673622e+00
2.689867e+00
2.706135e+00
2.722396e+00
2.738627e+00
2.754834e+00
2.771051e+00
2.787318e+00
2.803654e+00
2.820050e+00
2.836485e+00
2.852939e+00
2.869402e+00
2.885854e+00
2.902261e+00
2.918588e+00
2.934807e+00
2.950912e+00
2.966914e+00
2.982856e+00
2.998823e+00
3.014937e+00
3.031318e+00
3.048032e+00
3.065045e+00
3.082244e+00
3.099488e+00
3.116679e+00
3.133815e+00
3.151002e+00
3.168401e+00
3.186139e+00
3.204221e+00
3.222498e+00
3.240726e+00
3.258681e+00
3.276267e+00
3.293538e+00
3.310650e+00
3.327771e+00
3.345004e+00
3.362369e+00
3.379814e+00
3.397263e+00
3.414660e+00
3.432006e+00
3.449363e+00
3.466827e+00
3.484461e+00
3.502249e+00
3.520098e+00
3.537910e+00
3.555676e+00
3.573509e+00
3.591593e+00
3.610063e+00
3.628907e+00
3.647965e+00
3.667015e+00
3.685896e+00
3.704582e+00
3.723184e+00
3.741895e+00
3.760900e+00
3.780283e+00
3.799947e+00
3.819602e+00
3.838882e+00
3.857511e+00
3.875447e+00
3.892896e+00
3.910197e+00
3.927638e+00
3.945350e+00
3.963287e+00
3.981311e+00
3.999307e+00
4.017272e+00
4.035333e+00
4.053650e+00
4.072311e+00
4.091285e+00
4.110463e+00
4.129764e+00
4.149206e+00
4.168878e+00
4.188836e+00
4.209008e+00
4.229160e+00
4.248975e+00
4.268198e+00
4.286775e+00
4.304878e+00
4.322775e+00
4.340647e+00
4.358467e+00
4.375994e+00
4.392854e+00
4.408626e+00
4.422918e+00
4.435415e+00
4.445948e+00
4.454528e+00
4.461325e+00
4.466573e+00
4.470427e+00
4.472807e+00
4.473295e+00
4.471163e+00
4.465593e+00
4.456042e+00
4.442615e+00
4.426259e+00
4.408597e+00
4.391402e+00
4.375886e+00
4.362136e+00
4.349080e+00
4.335025e+00
4.318585e+00
4.299483e+00
4.278732e+00
4.258172e+00
4.239631e+00
4.224190e+00
4.211956e+00
4.202286e+00
4.194206e+00
4.186789e+00
4.179326e+00
4.171341e+00
4.162536e+00
4.152777e+00
4.142143e+00
4.131009e+00
4.120020e+00
4.109794e+00
4.100376e+00
4.090884e+00
4.079782e+00
4.065604e+00
4.047662e+00
4.026287e+00
4.002434e+00
3.977138e+00
3.951339e+00
3.925923e+00
3.901670e+00
3.879069e+00
3.858115e+00
3.838318e+00
3.818989e+00
3.799607e+00
3.780011e+00
3.760453e+00
3.741584e+00
3.724339e+00
3.709650e+00
3.698061e+00
3.689420e+00
3.682838e+00
3.677021e+00
3.670753e+00
3.663228e+00
3.654163e+00
3.643707e+00
3.632274e+00
3.620393e+00
3.608497e+00
3.596628e+00
3.584235e+00
3.570255e+00
3.553455e+00
3.532871e+00
3.508220e+00
3.480139e+00
3.450159e+00
3.420328e+00
3.392509e+00
3.367558e+00
3.344947e+00
3.323210e+00
3.300883e+00
3.277304e+00
3.252822e+00
3.228281e+00
3.204330e+00
3.181125e+00
3.158408e+00
3.135733e+00
3.112591e+00
3.088361e+00
3.062318e+00
3.033842e+00
3.002629e+00
2.968690e+00
2.932185e+00
2.893295e+00
2.852211e+00
2.809232e+00
2.764768e+00
2.719127e+00
2.672306e+00
2.624036e+00
2.574000e+00
2.522058e+00
2.468320e+00
2.413018e+00
2.356281e+00
2.297954e+00
2.237588e+00
2.174657e+00
2.108916e+00
2.040735e+00
1.971186e+00
1.901755e+00
1.833770e+00
1.767757e+00
1.702988e+00
1.637500e+00
1.568744e+00
1.494748e+00
1.415072e+00
1.330853e+00
1.244035e+00
1.156289e+00
1.068396e+00
9.804969e-01
8.926049e-01
8.047152e-01
7.165686e-01
6.274558e-01
5.363628e-01
4.425199e-01
3.459981e-01
2.479498e-01
1.503928e-01
5.560112e-02
-3.466028e-02
-1.197750e-01
-2.005199e-01
-2.787649e-01
-3.567955e-01
-4.365266e-01
-5.188586e-01
-6.034046e-01
-6.887338e-01
-7.731094e-01
-8.553157e-01
-9.351469e-01
-1.013453e+00
-1.091826e+00
-1.172151e+00
-1.256177e+00
-1.345081e+00
-1.439033e+00
-1.537009e+00
-1.637085e+00
-1.737123e+00
-1.835576e+00
-1.932064e+00
-2.027430e+00
-2.123313e+00
-2.221419e+00
-2.322781e+00
-2.427275e+00
-2.533484e+00
-2.638951e+00
-2.740761e+00
-2.836347e+00
-2.924273e+00
-3.004656e+00
-3.079027e+00
-3.149581e+00
-3.218212e+00
-3.285800e+00
-3.352012e+00
-3.415659e+00
-3.475390e+00
-3.530407e+00
-3.580963e+00
-3.628450e+00
-3.675053e+00
-3.723051e+00
-3.774063e+00
-3.828570e+00
-3.885879e+00
-3.944576e+00
-4.003186e+00
-4.060740e+00
-4.116993e+00
-4.172238e+00
-4.226905e+00
-4.281235e+00
-4.335181e+00
-4.388531e+00
-4.441077e+00
-4.492644e+00
-4.543003e+00
-4.591823e+00
-4.638753e+00
-4.683644e+00
-4.726695e+00
-4.768351e+00
-4.809052e+00
-4.849039e+00
-4.888368e+00
-4.927105e+00
-4.965426e+00
-5.003436e+00
-5.040938e+00
-5.077465e+00
-5.112543e+00
-5.145983e+00
-5.177990e+00
-5.209003e+00
-5.239513e+00
-5.270029e+00
-5.300961e+00
-5.332273e+00
-5.363217e+00
-5.392580e+00
-5.419346e+00
-5.443409e+00
-5.465711e+00
-5.487487e+00
-5.509302e+00
-5.530666e+00
-5.550375e+00
-5.567323e+00
-5.581204e+00
-5.592675e+00
-5.603038e+00
-5.613718e+00
-5.625792e+00
-5.639779e+00
-5.655690e+00
-5.673292e+00
-5.692370e+00
-5.712814e+00
-5.734597e+00
-5.757754e+00
-5.782408e+00
-5.808816e+00
-5.837325e+00
-5.868196e+00
-5.901404e+00
-5.936546e+00
-5.972866e+00
-6.009347e+00
-6.044902e+00
-6.078653e+00
-6.110163e+00
-6.139492e+00
-6.167046e+00
-6.193285e+00
-6.218451e+00
-6.242421e+00
-6.264659e+00
-6.284251e+00
-6.300133e+00
-6.311560e+00
-6.318495e+00
-6.321610e+00
-6.321938e+00
-6.320403e+00
-6.317520e+00
-6.313402e+00
-6.307896e+00
-6.300674e+00
-6.291375e+00
-6.279926e+00
-6.266809e+00
-6.253017e+00
-6.239693e+00
-6.227625e+00
-6.216957e+00
-6.207335e+00
-6.198294e+00
-6.189570e+00
-6.181149e+00
-6.173051e+00
-6.165090e+00
-6.156840e+00
-6.147832e+00
-6.137840e+00
-6.127005e+00
-6.115647e+00
-6.103968e+00
-6.091911e+00
-6.079206e+00
-6.065540e+00
-6.050683e+00
-6.034495e+00
-6.016897e+00
-5.997871e+00
-5.977469e+00
-5.955737e+00
-5.932616e+00
-5.907901e+00
-5.881291e+00
-5.852546e+00
-5.821688e+00
-5.789147e+00
-5.755745e+00
-5.722474e+00
-5.690195e+00
-5.659463e+00
-5.630487e+00
-5.603175e+00
-5.577139e+00
-5.551616e+00
-5.525583e+00
-5.498194e+00
-5.469227e+00
-5.439135e+00
-5.408678e+00
-5.378318e+00
-5.347859e+00
-5.316605e+00
-5.283809e+00
-5.249030e+00
-5.212184e+00
-5.173303e+00
-5.132310e+00
-5.089085e+00
-5.043772e+00
-4.997076e+00
-4.950199e+00
-4.904244e+00
-4.859559e+00
-4.815525e+00
-4.770920e+00
-4.724639e+00
-4.676256e+00
-4.626028e+00
-4.574607e+00
-4.522799e+00
-4.471457e+00
-4.421410e+00
-4.373288e+00
-4.327218e+00
-4.282676e+00
-4.238716e+00
-4.194413e+00
-4.149210e+00
-4.102998e+00
-4.055910e+00
-4.008093e+00
-3.959670e+00
-3.910842e+00
-3.861947e+00
-3.813382e+00
-3.765422e+00
-3.718095e+00
-3.671271e+00
-3.624805e+00
-3.578568e+00
-3.532375e+00
-3.485906e+00
-3.438719e+00
-3.390373e+00
-3.340571e+00
-3.289228e+00
-3.236530e+00
-3.182995e+00
-3.129419e+00
-3.076595e+00
-3.024979e+00
-2.974563e+00
-2.925015e+00
-2.876044e+00
-2.827668e+00
-2.780184e+00
-2.733940e+00
-2.689125e+00
-2.645661e+00
-2.603213e+00
-2.561289e+00
-2.519388e+00
-2.477154e+00
-2.434474e+00
-2.391439e+00
-2.348187e+00
-2.304804e+00
-2.261438e+00
-2.218512e+00
-2.176828e+00
-2.137438e+00
-2.101282e+00
-2.068820e+00
-2.039880e+00
-2.013768e+00
-1.989555e+00
-1.966424e+00
-1.943950e+00
-1.922231e+00
-1.901829e+00
-1.883532e+00
-1.867972e+00
-1.855259e+00
-1.844776e+00
-1.835305e+00
-1.825483e+00
-1.814315e+00
-1.801403e+00
-1.786866e+00
-1.771058e+00
-1.754325e+00
-1.736921e+00
-1.719015e+00
-1.700668e+00
-1.681836e+00
-1.662468e+00
-1.642620e+00
-1.622477e+00
-1.602335e+00
-1.582592e+00
-1.563752e+00
-1.546411e+00
-1.531158e+00
-1.518425e+00
-1.508383e+00
-1.500986e+00
-1.496051e+00
-1.493281e+00
-1.492254e+00
-1.492472e+00
-1.493430e+00
-1.494661e+00
-1.495748e+00
-1.496283e+00
-1.495850e+00
-1.494040e+00
-1.490489e+00
-1.484899e+00
-1.477044e+00
-1.466778e+00
-1.454074e+00
-1.439093e+00
-1.422201e+00
-1.403896e+00
-1.384660e+00
-1.364853e+00
-1.344702e+00
-1.324436e+00
-1.304379e+00
-1.284888e+00
-1.266220e+00
-1.248474e+00
-1.231624e+00
-1.215599e+00
-1.200319e+00
-1.185673e+00
-1.171512e+00
-1.157718e+00
-1.144296e+00
-1.131408e+00
-1.119315e+00
-1.108245e+00
-1.098265e+00
-1.089212e+00
-1.080705e+00
-1.072241e+00
-1.063349e+00
-1.053736e+00
-1.043393e+00
-1.032593e+00
-1.021771e+00
-1.011345e+00
-1.001580e+00
-9.926098e-01
-9.845686e-01
-9.777017e-01
-9.723614e-01
-9.688489e-01
-9.672416e-01
-9.673394e-01
-9.687011e-01
-9.706856e-01
-9.724622e-01
-9.730153e-01
-9.712442e-01
-9.662059e-01
-9.573526e-01
-9.446072e-01
-9.282769e-01
-9.088779e-01
-8.869412e-01
-8.628549e-01
-8.367727e-01
-8.086281e-01
-7.782806e-01
-7.457634e-01
-7.114557e-01
-6.760405e-01
-6.403380e-01
-6.051555e-01
-5.712027e-01
-5.390539e-01
-5.091163e-01
-4.815880e-01
-4.564545e-01
-4.335515e-01
-4.126176e-01
-3.932822e-01
-3.750667e-01
-3.574718e-01
-3.400771e-01
-3.225483e-01
-3.045615e-01
-2.857209e-01
-2.655721e-01
-2.437431e-01
-2.200597e-01
-1.945036e-01
-1.670999e-01
-1.378625e-01
-1.068154e-01
-7.405092e-02
-3.977999e-02
-4.345216e-03
3.181379e-02
6.825012e-02
1.046450e-01
1.409341e-01
1.772960e-01
2.139414e-01
2.508884e-01
2.879309e-01
3.248026e-01
3.614099e-01
3.979323e-01
4.346752e-01
4.718322e-01
5.093575e-01
5.469963e-01
5.844230e-01
6.213753e-01
6.576995e-01
6.933418e-01
7.283465e-01
7.628889e-01
7.973267e-01
8.322022e-01
8.681364e-01
9.056384e-01
9.449006e-01
9.856825e-01
1.027367e+00
1.069166e+00
1.110404e+00
1.150737e+00
1.190189e+00
1.228979e+00
1.267235e+00
1.304805e+00
1.341321e+00
1.376378e+00
1.409663e+00
1.440960e+00
1.470103e+00
1.496994e+00
1.521750e+00
1.544833e+00
1.567034e+00
1.589326e+00
1.612674e+00
1.637782e+00
1.664813e+00
1.693258e+00
1.722129e+00
1.750391e+00
1.777418e+00
1.803180e+00
1.828025e+00
1.852285e+00
1.876032e+00
1.899080e+00
1.921189e+00
1.942267e+00
1.962418e+00
1.981841e+00
2.000694e+00
2.019019e+00
2.036772e+00
2.053890e+00
2.070328e+00
2.086100e+00
2.101355e+00
2.116414e+00
2.131678e+00
2.147479e+00
2.163971e+00
2.181127e+00
2.198830e+00
2.216934e+00
2.235225e+00
2.253359e+00
2.270905e+00
2.287423e+00
2.302507e+00
2.315808e+00
2.327081e+00
2.336250e+00
2.343434e+00
2.348902e+00
2.352934e+00
2.355704e+00
2.357259e+00
2.357551e+00
2.356456e+00
2.353776e+00
2.349285e+00
2.342825e+00
2.334442e+00
2.324485e+00
2.313579e+00
2.302472e+00
2.291787e+00
2.281806e+00
2.272372e+00
2.262928e+00
2.252687e+00
2.240875e+00
2.227017e+00
2.211145e+00
2.193819e+00
2.175911e+00
2.158204e+00
2.141013e+00
2.124053e+00
2.106534e+00
2.087416e+00
2.065753e+00
2.041028e+00
2.013371e+00
1.983541e+00
1.952668e+00
1.921836e+00
1.891732e+00
1.862549e+00
1.834090e+00
1.805943e+00
1.777640e+00
1.748755e+00
1.718989e+00
1.688255e+00
1.656695e+00
1.624604e+00
1.592291e+00
1.560018e+00
1.528017e+00
1.496573e+00
1.466048e+00
