EVENT_NAME: L_AQUILA
EVENT_ID: IT-2009-0009
EVENT_DATE_YYYYMMDD: 20090406
EVENT_TIME_HHMMSS: 013240
EVENT_LATITUDE_DEGREE: 42.3420
EVENT_LONGITUDE_DEGREE: 13.3800
EVENT_DEPTH_KM: 8.3
HYPOCENTER_REFERENCE: INGV-CNT_Seismic_Bulletin
MAGNITUDE_W: 6.3
MAGNITUDE_W_REFERENCE: RCMT-INGV
MAGNITUDE_L: 5.9
MAGNITUDE_L_REFERENCE: INGV-CNT_Seismic_Bulletin
FOCAL_MECHANISM: NF
NETWORK: MN
STATION_CODE: AQU
STATION_NAME: AQUILA CASTELLO
STATION_LATITUDE_DEGREE: 42.353880
STATION_LONGITUDE_DEGREE: 13.401930
STATION_ELEVATION_M: 729
LOCATION: 
SENSOR_DEPTH_M: 15.0
VS30_M/S: 
SITE_CLASSIFICATION_EC8: C*
MORPHOLOGIC_CLASSIFICATION: 
EPICENTRAL_DISTANCE_KM: 2.2
EARTHQUAKE_BACKAZIMUTH_DEGREE: 233.9
DATE_TIME_FIRST_SAMPLE_YYYYMMDD_HHMMSS: 20090406_013225.000
DATE_TIME_FIRST_SAMPLE_PRECISION: milliseconds
SAMPLING_INTERVAL_S: 0.005000
NDATA: 105
DURATION_S: 
STREAM: HLZ
UNITS: cm/s^2
INSTRUMENT: sensor = Unknown [Unknown] | digitizer = Unknown [Unknown]
INSTRUMENT_ANALOG/DIGITAL: D
INSTRUMENTAL_FREQUENCY_HZ: 
INSTRUMENTAL_DAMPING: 
FULL_SCALE_G: 
N_BIT_DIGITAL_CONVERTER: 
PGV_CM/S: -21.241827
TIME_PGV_S: 17.845000
BASELINE_CORRECTION: BASELINE REMOVED
FILTER_TYPE: BUTTERWORTH
FILTER_ORDER: 2
LOW_CUT_FREQUENCY_HZ: 0.150
HIGH_CUT_FREQUENCY_HZ: 40.000
LATE/NORMAL_TRIGGERED: NT
DATABASE_VERSION: DYNA 1.0
HEADER_FORMAT: DYNA 1.2
DATA_TYPE: PSEUDO-VELOCITY RESPONSE SPECTRUM
PROCESSING: manual (Paolucci et al., 2011)
DATA_TIMESTAMP_YYYYMMDD_HHMMSS: 
DATA_LICENSE: CC-BY4_0 (http://creativecommons.org/licenses/by/4.0/)
DATA_CITATION: ESM working group (2015), European Strong-Motion database, version 0.1, Network Activity 3: Networking acceleration networks and SM data users. Project NERA (www.nera-eu.org)
DATA_CREATOR: ESM working group
ORIGINAL_DATA_MEDIATOR_CITATION: data obtained within the DPC-INGV data exchange agreements
ORIGINAL_DATA_MEDIATOR: Archive of Italian Department of Civil Protection
ORIGINAL_DATA_CREATOR_CITATION: Mediterranean Broad Band Seismographic Network, Istituto Nazionale di Geofisica e Vulcanologia http://mednet.rm.ingv.it
ORIGINAL_DATA_CREATOR: network: MN (Mediterranean Very Broadband Seismographic Network (MNDC)); owner: Istituto Nazionale di Geofisica e Vulcanologia
USER1: 
USER2: 
USER3: 
USER4: 
USER5: 
    0.010000     0.500499
    0.020000     1.073646
    0.022000     1.211591
    0.025000     1.448106
    0.029000     1.703937
    0.030000     1.697592
    0.032000     2.081702
    0.035001     2.517017
    0.036000     2.945405
    0.040000     3.370933
    0.041999     3.838782
    0.044001     4.811502
    0.045000     5.354290
    0.046000     5.723145
    0.048001     7.139900
    0.050000     9.554269
    0.054999    10.157464
    0.059999     6.529654
    0.064998     5.241043
    0.067002     5.113913
    0.069999     5.544506
    0.075002     5.116580
    0.080000     4.816496
    0.084998     5.520259
    0.090001     5.742254
    0.095003     4.821810
    0.100000     4.836365
    0.109999     5.421095
    0.120005     8.530301
    0.130005    12.171952
    0.132996    12.664456
    0.139997    13.583437
    0.149993    15.159114
    0.160000    13.315982
    0.170010    11.859621
    0.179986    12.365350
    0.190006    14.565268
    0.200000    14.385451
    0.220022    14.830285
    0.239981    13.305385
    0.250000    10.534977
    0.260010    11.163798
    0.280034     9.239168
    0.290023     8.872786
    0.300030     8.076599
    0.320000     8.447326
    0.340020     7.611811
    0.350017     8.061041
    0.359971     8.377873
    0.379939     8.321955
    0.400000     9.169753
    0.419992    10.231953
    0.439947    10.899525
    0.450045    11.169175
    0.459982    11.654856
    0.480077    12.845438
    0.500000    14.525543
    0.550055    16.922029
    0.599880    17.957779
    0.650195    18.105572
    0.667111    18.041376
    0.699790    17.679796
    0.750188    17.235708
    0.800000    18.023544
    0.850340    22.536425
    0.900090    19.690636
    0.949668    17.368250
    1.000000    23.241360
    1.100110    23.365929
    1.200480    29.368488
    1.300390    25.492287
    1.400560    23.048485
    1.499250    25.349493
    1.600000    27.559183
    1.700680    28.621405
    1.798561    28.206221
    1.901141    28.522133
    2.000000    29.270956
    2.197802    30.152954
    2.398082    30.068314
    2.500000    29.685545
    2.597403    29.034922
    2.801121    28.741232
    3.003003    26.944565
    3.205128    25.004923
    3.401361    23.557056
    3.496503    22.696238
    3.597122    22.174526
    3.802281    20.615885
    4.000000    19.077675
    4.201681    18.511660
    4.405286    17.704321
    4.608295    16.820747
    4.807692    15.855229
    5.000000    14.883468
    5.494505    12.239377
    5.988024    11.047327
    6.493506    10.105744
    6.993007     9.197738
    7.518797     8.356676
    8.000000     7.598469
    8.474576     6.926172
    9.009009     6.336968
    9.523809     5.823130
   10.000000     5.375466
