EVENT_NAME: L_AQUILA
EVENT_ID: IT-2009-0009
EVENT_DATE_YYYYMMDD: 20090406
EVENT_TIME_HHMMSS: 013240
EVENT_LATITUDE_DEGREE: 42.3420
EVENT_LONGITUDE_DEGREE: 13.3800
EVENT_DEPTH_KM: 8.3
HYPOCENTER_REFERENCE: INGV-CNT_Seismic_Bulletin
MAGNITUDE_W: 6.3
MAGNITUDE_W_REFERENCE: RCMT-INGV
MAGNITUDE_L: 5.9
MAGNITUDE_L_REFERENCE: INGV-CNT_Seismic_Bulletin
FOCAL_MECHANISM: NF
NETWORK: MN
STATION_CODE: AQU
STATION_NAME: AQUILA CASTELLO
STATION_LATITUDE_DEGREE: 42.353880
STATION_LONGITUDE_DEGREE: 13.401930
STATION_ELEVATION_M: 729
LOCATION: 
SENSOR_DEPTH_M: 15.0
VS30_M/S: 
SITE_CLASSIFICATION_EC8: C*
MORPHOLOGIC_CLASSIFICATION: 
EPICENTRAL_DISTANCE_KM: 2.2
EARTHQUAKE_BACKAZIMUTH_DEGREE: 233.9
DATE_TIME_FIRST_SAMPLE_YYYYMMDD_HHMMSS: 20090406_013225.000
DATE_TIME_FIRST_SAMPLE_PRECISION: milliseconds
SAMPLING_INTERVAL_S: 0.005000
NDATA: 18001
DURATION_S: 90.005
STREAM: HLN
UNITS: cm/s^2
INSTRUMENT: sensor = Unknown [Unknown] | digitizer = Unknown [Unknown]
INSTRUMENT_ANALOG/DIGITAL: D
INSTRUMENTAL_FREQUENCY_HZ: 
INSTRUMENTAL_DAMPING: 
FULL_SCALE_G: 
N_BIT_DIGITAL_CONVERTER: 
PGA_CM/S^2: -301.881474
TIME_PGA_S: 18.580000
BASELINE_CORRECTION: BASELINE REMOVED
FILTER_TYPE: BUTTERWORTH
FILTER_ORDER: 2
LOW_CUT_FREQUENCY_HZ: 0.150
HIGH_CUT_FREQUENCY_HZ: 40.000
LATE/NORMAL_TRIGGERED: NT
DATABASE_VERSION: DYNA 1.0
HEADER_FORMAT: DYNA 1.2
DATA_TYPE: ACCELERATION
PROCESSING: manual (Paolucci et al., 2011)
DATA_TIMESTAMP_YYYYMMDD_HHMMSS: 
DATA_LICENSE: CC-BY4_0 (http://creativecommons.org/licenses/by/4.0/)
DATA_CITATION: ESM working group (2015), European Strong-Motion database, version 0.1, Network Activity 3: Networking acceleration networks and SM data users. Project NERA (www.nera-eu.org)
DATA_CREATOR: ESM working group
ORIGINAL_DATA_MEDIATOR_CITATION: data obtained within the DPC-INGV data exchange agreements
ORIGINAL_DATA_MEDIATOR: Archive of Italian Department of Civil Protection
ORIGINAL_DATA_CREATOR_CITATION: Mediterranean Broad Band Seismographic Network, Istituto Nazionale di Geofisica e Vulcanologia http://mednet.rm.ingv.it
ORIGINAL_DATA_CREATOR: network: MN (Mediterranean Very Broadband Seismographic Network (MNDC)); owner: Istituto Nazionale di Geofisica e Vulcanologia
USER1: 
USER2: 
USER3: 
USER4: 
USER5: 
[...]
-0.013252
-0.013592
-0.013778
-0.013612
-0.013293
-0.013170
-0.013365
-0.013795
-0.014343
-0.014896
-0.015293
-0.015307
-0.014793
-0.014076
-0.013980
-0.014870
-0.015956
-0.016220
-0.015539
-0.014609
-0.014294
-0.014938
-0.016072
-0.016957
-0.017195
-0.016781
-0.016023
-0.015560
-0.016107
-0.017560
-0.018612
-0.018207
-0.016894
-0.016049
-0.016464
-0.017756
-0.018696
-0.018589
-0.018137
-0.018260
-0.018847
-0.019302
-0.019455
-0.019481
-0.019444
-0.019226
-0.018741
-0.018266
-0.018416
-0.019360
-0.020347
-0.020635
-0.020428
-0.020370
-0.020696
-0.021129
-0.021220
-0.020875
-0.020544
-0.020665
-0.021152
-0.021698
-0.022177
-0.022478
-0.022396
-0.022091
-0.022279
-0.023242
-0.024099
-0.023900
-0.022875
-0.022116
-0.022521
-0.023859
-0.024758
-0.024433
-0.023859
-0.024159
-0.024957
-0.025343
-0.025266
-0.025168
-0.025153
-0.025043
-0.024795
-0.024660
-0.024981
-0.025664
-0.026050
-0.025835
-0.025683
-0.026163
-0.026801
-0.026984
-0.026975
-0.027264
-0.027709
-0.027934
-0.027998
-0.028264
-0.028901
-0.029548
-0.029504
-0.028734
-0.028341
-0.029116
-0.030300
-0.030719
-0.030279
-0.029773
-0.029948
-0.030757
-0.031331
-0.031162
-0.030910
-0.031293
-0.031930
-0.031988
-0.031301
-0.030569
-0.030769
-0.031986
-0.032992
-0.032884
-0.032414
-0.032631
-0.033295
-0.033506
-0.032995
-0.032405
-0.032721
-0.034035
-0.035070
-0.034854
-0.034109
-0.033953
-0.034380
-0.034866
-0.035392
-0.036171
-0.036992
-0.037279
-0.036633
-0.035515
-0.035236
-0.036441
-0.038024
-0.038526
-0.037806
-0.036806
-0.036510
-0.037144
-0.038023
-0.038496
-0.038704
-0.039025
-0.039372
-0.039483
-0.039417
-0.039472
-0.039819
-0.040235
-0.040250
-0.039895
-0.040008
-0.041032
-0.042089
-0.042177
-0.041552
-0.041283
-0.042078
-0.043544
-0.044339
-0.043729
-0.042634
-0.042282
-0.042706
-0.043271
-0.043692
-0.044085
-0.044572
-0.045058
-0.045300
-0.045299
-0.045472
-0.046073
-0.046710
-0.046800
-0.046250
-0.045556
-0.045492
-0.046421
-0.047844
-0.048851
-0.048870
-0.048136
-0.047605
-0.047899
-0.048538
-0.048734
-0.048408
-0.048149
-0.048603
-0.049777
-0.050839
-0.051046
-0.050581
-0.050121
-0.050102
-0.050550
-0.051225
-0.051863
-0.052319
-0.052519
-0.052427
-0.052191
-0.052179
-0.052582
-0.053124
-0.053434
-0.053502
-0.053637
-0.054131
-0.054896
-0.055400
-0.055287
-0.054871
-0.054687
-0.054903
-0.055352
-0.055810
-0.056179
-0.056495
-0.056755
-0.056834
-0.056723
-0.056715
-0.057122
-0.057918
-0.058772
-0.059310
-0.059473
-0.059619
-0.059985
-0.060264
-0.060050
-0.059438
-0.059010
-0.059381
-0.060497
-0.061433
-0.061476
-0.061068
-0.061107
-0.061892
-0.062949
-0.063476
-0.063187
-0.062722
-0.062791
-0.063332
-0.063866
-0.064157
-0.064319
-0.064581
-0.064987
-0.065309
-0.065420
-0.065543
-0.065835
-0.066049
-0.065993
-0.066005
-0.066576
-0.067717
-0.068753
-0.068712
-0.067476
-0.066345
-0.066594
-0.068025
-0.069560
-0.070417
-0.070535
-0.070397
-0.070395
-0.070426
-0.070327
-0.070297
-0.070566
-0.071003
-0.071388
-0.071745
-0.072125
-0.072360
-0.072322
-0.072205
-0.072334
-0.072852
-0.073664
-0.074489
-0.074973
-0.074876
-0.074385
-0.074150
-0.074623
-0.075493
-0.076115
-0.076198
-0.076003
-0.076082
-0.076567
-0.076879
-0.076709
-0.076714
-0.077455
-0.078386
-0.078709
-0.078494
-0.078404
-0.078875
-0.079668
-0.080016
-0.079611
-0.079197
-0.079562
-0.080495
-0.081227
-0.081334
-0.081076
-0.081170
-0.081984
-0.083012
-0.083484
-0.083184
-0.082553
-0.082311
-0.082747
-0.083382
-0.083690
-0.083785
-0.084012
-0.084389
-0.084787
-0.085244
-0.085821
-0.086373
-0.086683
-0.086725
-0.086750
-0.087089
-0.087640
-0.087740
-0.087150
-0.086725
-0.087321
-0.088608
-0.089555
-0.089512
-0.088822
-0.088631
-0.089520
-0.090616
-0.090796
-0.090111
-0.089484
-0.089716
-0.090740
-0.091587
-0.091556
-0.091124
-0.091169
-0.091914
-0.092928
-0.093609
-0.093663
-0.093315
-0.093004
-0.093055
-0.093635
-0.094700
-0.095749
-0.095903
-0.094892
-0.093738
-0.093741
-0.095153
-0.096985
-0.097736
-0.096895
-0.095724
-0.095687
-0.096787
-0.097994
-0.098442
-0.098150
-0.097971
-0.098477
-0.099182
-0.099421
-0.099338
-0.099469
-0.099946
-0.100385
-0.100282
-0.099683
-0.099404
-0.100047
-0.101176
-0.101975
-0.102178
-0.102073
-0.102072
-0.102300
-0.102487
-0.102388
-0.102149
-0.102045
-0.102160
-0.102484
-0.103063
-0.103826
-0.104461
-0.104731
-0.104771
-0.104881
-0.105174
-0.105487
-0.105539
-0.105323
-0.105276
-0.105755
-0.106548
-0.107164
-0.107322
-0.107101
-0.106835
-0.106805
-0.107017
-0.107317
-0.107599
-0.107850
-0.108102
-0.108322
-0.108416
-0.108433
-0.108643
-0.109123
-0.109496
-0.109461
-0.109318
-0.109610
-0.110467
-0.111329
-0.111282
-0.110221
-0.109421
-0.109978
-0.111391
-0.112506
-0.112881
-0.112740
-0.112390
-0.111983
-0.111617
-0.111609
-0.112397
-0.113720
-0.114347
-0.113649
-0.112751
-0.112929
-0.113872
-0.114448
-0.114187
-0.113649
-0.113873
-0.115124
-0.116281
-0.116215
-0.115172
-0.114241
-0.114220
-0.115118
-0.116220
-0.116719
-0.116364
-0.115603
-0.115294
-0.115860
-0.116772
-0.117248
-0.117068
-0.116521
-0.116021
-0.115914
-0.116394
-0.117396
-0.118528
-0.119198
-0.118960
-0.118030
-0.117364
-0.117627
-0.118396
-0.118946
-0.119180
-0.119306
-0.119276
-0.118943
-0.118447
-0.118196
-0.118529
-0.119261
-0.119630
-0.119239
-0.118720
-0.118833
-0.119464
-0.119951
-0.119863
-0.119335
-0.118960
-0.119163
-0.119740
-0.120189
-0.120226
-0.119938
-0.119658
-0.119621
-0.119759
-0.119932
-0.120163
-0.120454
-0.120597
-0.120391
-0.119949
-0.119689
-0.120043
-0.120924
-0.121578
-0.121469
-0.121002
-0.120840
-0.121043
-0.121214
-0.121051
-0.120702
-0.120672
-0.121103
-0.121381
-0.120999
-0.120354
-0.120126
-0.120432
-0.120886
-0.121047
-0.120772
-0.120320
-0.120094
-0.120326
-0.120959
-0.121640
-0.121882
-0.121364
-0.120321
-0.119569
-0.119641
-0.120122
-0.120327
-0.120150
-0.119948
-0.120040
-0.120391
-0.120607
-0.120376
-0.119813
-0.119235
-0.118840
-0.118683
-0.118748
-0.118912
-0.118960
-0.118827
-0.118732
-0.118823
-0.118886
-0.118675
-0.118296
-0.118075
-0.118209
-0.118523
-0.118525
-0.117956
-0.117203
-0.116872
-0.117209
-0.117980
-0.118636
-0.118681
-0.118006
-0.116971
-0.116203
-0.116042
-0.116196
-0.116214
-0.116013
-0.115768
-0.115610
-0.115556
-0.115571
-0.115602
-0.115562
-0.115277
-0.114580
-0.113659
-0.113153
-0.113438
-0.114056
-0.114269
-0.113830
-0.113032
-0.112375
-0.112106
-0.112028
-0.111904
-0.111825
-0.111927
-0.112025
-0.111745
-0.110905
-0.109824
-0.109237
-0.109457
-0.109840
-0.109640
-0.108948
-0.108381
-0.108344
-0.108624
-0.108508
-0.107599
-0.106391
-0.105646
-0.105604
-0.105965
-0.106219
-0.105975
-0.105203
-0.104256
-0.103675
-0.103644
-0.103678
-0.103185
-0.102126
-0.101022
-0.100544
-0.100914
-0.101585
-0.101789
-0.101219
-0.100154
-0.099218
-0.098813
-0.098727
-0.098424
-0.097576
-0.096452
-0.095838
-0.096135
-0.096712
-0.096661
-0.095773
-0.094560
-0.093726
-0.093443
-0.093109
-0.092261
-0.091319
-0.090887
-0.090883
-0.090758
-0.090168
-0.089356
-0.088980
-0.089142
-0.088910
-0.087602
-0.085932
-0.085052
-0.085177
-0.085520
-0.085054
-0.083624
-0.082301
-0.081909
-0.081824
-0.081138
-0.080025
-0.079251
-0.079128
-0.079300
-0.079107
-0.078260
-0.077154
-0.076187
-0.075239
-0.074263
-0.073742
-0.073826
-0.073657
-0.072484
-0.070803
-0.069637
-0.069351
-0.069415
-0.068909
-0.067591
-0.066355
-0.065969
-0.065969
-0.065525
-0.064559
-0.063436
-0.062298
-0.061106
-0.059944
-0.059048
-0.058615
-0.058487
-0.058131
-0.057249
-0.056182
-0.055271
-0.054269
-0.052900
-0.051510
-0.050720
-0.050731
-0.051008
-0.050547
-0.048936
-0.046982
-0.045627
-0.044830
-0.044026
-0.043002
-0.042010
-0.041409
-0.041148
-0.040626
-0.039441
-0.037939
-0.036560
-0.035208
-0.033801
-0.032840
-0.032766
-0.033145
-0.032875
-0.031011
-0.027783
-0.024865
-0.023787
-0.024374
-0.025202
-0.024868
-0.023071
-0.020869
-0.019351
-0.018429
-0.017350
-0.015729
-0.013958
-0.012901
-0.012791
-0.012669
-0.011646
-0.010056
-0.008619
-0.007332
-0.005805
-0.004040
-0.002571
-0.001989
-0.002021
-0.001351
0.000645
0.002662
0.003211
0.002556
0.002048
0.002614
0.004091
0.005346
0.004886
0.000563
-0.012839
-0.045202
-0.107374
-0.204293
-0.325943
-0.441190
-0.505145
-0.478386
-0.359731
-0.206884
-0.106090
-0.117489
-0.220433
-0.300206
-0.237553
-0.008249
0.302824
0.549716
0.633029
0.575679
0.469483
0.392009
0.373180
0.391381
0.389531
0.302985
0.105876
-0.155526
-0.393008
-0.543175
-0.637276
-0.791040
-1.026942
-1.164324
-1.026779
-0.663877
-0.273058
-0.007648
0.145079
0.341538
0.640319
0.852188
0.780217
0.445740
-0.068040
-0.761802
-1.489952
-1.794010
-1.300697
-0.179023
0.937090
1.372723
1.002827
0.424093
0.099387
-0.294851
-1.108639
-1.877420
-1.774916
-0.483463
1.435363
2.779641
2.738583
1.633817
0.289446
-0.787471
-1.386468
-1.355360
-0.738844
0.022253
0.295350
-0.335407
-1.685551
-2.885021
-2.989861
-1.653679
0.745535
3.288324
4.953198
5.082938
3.692528
1.529383
-0.391343
-1.348233
-1.215424
-0.540203
-0.243666
-1.120293
-3.207755
-5.432658
-6.200150
-4.382463
-0.250215
4.242965
6.740950
5.981933
2.284198
-2.650033
-6.642643
-7.999047
-6.073889
-1.568483
3.660207
7.239429
7.620609
5.165722
1.726954
-0.536412
-0.641078
0.447952
1.039242
0.297639
-1.299501
-2.403877
-2.133503
-0.996872
-0.090234
0.021978
-0.509362
-1.146608
-1.476348
-1.517297
-1.501250
-1.572915
-1.761472
-2.061402
-2.498820
-3.210075
-4.506079
-6.689441
-9.404192
-11.356360
-11.372048
-9.461714
-6.545689
-3.769147
-2.199682
-2.801602
-6.334032
-12.704258
-19.596437
-22.257324
-16.876530
-4.110668
11.056291
21.623617
22.508049
13.649485
-0.452312
-12.836647
-17.184959
-10.695974
4.572669
21.838385
32.658981
31.079519
17.191412
-1.925675
-17.454666
-24.920288
-25.730316
-24.908274
-24.956022
-22.556850
-14.850654
-5.494083
-0.750771
-3.122183
-10.100730
-16.823462
-21.309549
-26.351940
-32.533531
-33.042534
-21.254759
0.253674
21.225962
30.509951
23.706154
6.653353
-11.036569
-23.470795
-29.148506
-28.437202
-20.957644
-5.352574
16.474596
36.220951
43.536865
33.045967
9.042964
-15.103559
-27.461452
-26.845282
-19.542732
-11.853411
-5.522943
2.592210
14.940449
28.766830
39.137672
43.434582
41.927620
36.689247
30.756100
27.397743
28.615570
33.483604
37.772991
35.574112
24.174305
7.461150
-7.537673
-15.490400
-14.359196
-5.528636
6.477097
15.153262
15.632021
8.101648
-2.578100
-9.999282
-11.624746
-11.491256
-14.541590
-20.654032
-26.120907
-27.559986
-23.778633
-15.666458
-4.402523
9.469424
24.164511
35.456226
39.730774
37.171124
30.620586
22.849096
14.745618
5.217905
-6.272417
-17.692373
-25.899315
-28.635183
-24.581625
-13.208027
3.980725
22.716000
38.086727
46.638466
45.942978
34.504738
14.709590
-5.051931
-14.536390
-8.532395
7.790638
19.921661
17.829281
6.850379
-0.956485
0.349009
7.939063
14.341896
15.688102
16.170935
21.075834
29.058252
33.797157
29.263964
13.670030
-9.153022
-32.491928
-50.118763
-57.827946
-53.840588
-38.598877
-15.160858
9.539636
25.299561
24.675285
8.800141
-13.665495
-31.462955
-37.649364
-33.219074
-21.770342
-4.143336
18.794434
41.725128
55.930584
54.019005
36.361935
13.514563
-2.208753
-5.569815
2.236426
17.598583
36.816368
56.360603
71.517982
76.503830
68.785080
52.594856
35.929249
25.671583
24.763437
31.224934
39.678326
44.019417
40.955582
32.479115
24.364414
22.825651
30.759539
46.078407
65.060371
85.496933
104.872070
117.767418
117.280777
99.096443
66.684433
33.107494
13.068747
12.992732
27.130882
40.325600
40.524048
29.273405
17.566757
15.971692
26.224735
39.081234
44.378155
40.490788
31.416004
20.847612
11.384605
5.885775
7.314041
16.996872
32.230701
46.274502
54.128719
57.268074
60.177505
65.275955
72.176208
78.861588
82.849564
82.327278
77.655853
71.930550
68.520325
68.262917
69.160156
67.893318
62.875526
55.938969
49.660599
44.610958
40.480331
37.932472
38.153790
41.702648
48.308453
57.047726
66.323029
73.998627
78.327339
78.910896
76.773499
73.863098
71.953659
71.561974
71.530457
69.246925
62.118149
49.576965
34.559998
22.808117
17.745344
16.594713
13.999396
7.427419
-1.143233
-6.838200
-6.893638
-3.885196
-2.064672
-3.074436
-6.690500
-12.834553
-21.225077
-30.125710
-36.268921
-36.206676
-29.340969
-19.814577
-13.957529
-16.842930
-30.826563
-54.966118
-84.930626
-114.156685
-137.564468
-153.866058
-162.370560
-160.271393
-146.494354
-126.475693
-110.911179
-109.687531
-122.369270
-135.026566
-134.784393
-123.709084
-113.172150
-111.745041
-118.652794
-124.841179
-124.251740
-121.875923
-125.657005
-136.519836
-150.056335
-162.414139
-173.223358
-185.021729
-199.020111
-212.545044
-223.001160
-231.813232
-242.047684
-254.928024
-270.009918
-285.946564
-298.946747
-301.881470
-287.989075
-255.307663
-207.685638
-153.471176
-102.243935
-62.478195
-41.851768
-45.884369
-71.683983
-105.632484
-135.227112
-160.080917
-186.353271
-216.790390
-247.801239
-271.958099
-284.302429
-285.246307
-274.176971
-245.493073
-198.036896
-142.712585
-92.412010
-50.592709
-15.077853
13.890842
32.435173
36.839863
29.719767
21.367870
19.306652
20.202751
18.164026
14.150239
11.842580
10.942811
8.935881
5.565165
3.571039
6.532163
14.915470
24.168779
28.807457
26.736660
18.608744
6.062656
-7.952446
-18.944992
-23.305933
-20.366966
-10.824905
4.950309
25.552073
47.422100
67.415260
85.180016
101.185852
114.077858
121.319099
121.615494
117.271446
113.878616
114.547485
115.741112
112.207199
103.268684
92.954857
87.085892
89.665199
100.564789
116.424706
132.602509
145.058548
151.818909
153.452866
152.639877
152.234970
153.550735
156.549911
160.579788
164.638550
167.458145
167.796021
164.689713
157.420807
145.696991
130.654297
115.795029
106.281578
106.532326
115.996880
127.274048
132.076553
128.568893
123.033134
125.931343
141.229370
159.655884
167.827621
160.182999
141.336182
121.986763
110.069244
105.046394
102.852486
101.872955
101.665123
100.029945
93.995163
82.011497
64.263115
41.981121
16.757410
-9.681070
-35.150120
-57.191727
-74.642967
-88.547401
-100.173317
-109.032677
-113.792191
-113.835510
-109.467468
-101.709320
-92.520309
-84.698303
-80.364632
-79.532997
-80.485794
-80.856789
-78.548508
-72.072060
-59.961967
-40.459705
-12.756261
21.353889
56.786152
85.860428
101.584358
101.163132
87.038246
65.460815
41.615135
15.809839
-14.397375
-50.350559
-90.253021
-129.130035
-161.352905
-182.822998
-190.469345
-181.484970
-154.795166
-113.395287
-65.405586
-22.354254
7.568331
24.890221
35.590359
45.004242
54.033497
59.209068
58.561165
55.705639
54.787270
54.647556
50.619850
39.299042
21.711100
3.171790
-12.148092
-25.502268
-40.268642
-57.047832
-72.939812
-83.819054
-88.490425
-90.288429
-91.543198
-88.396080
-73.924896
-44.403961
-3.593114
37.658745
70.023941
92.566200
108.123207
116.964645
117.688278
110.517784
97.986328
83.496597
68.649391
52.122223
32.682686
11.659040
-9.297576
-30.064928
-48.777534
-59.371014
-56.501030
-41.074902
-18.945292
3.648924
24.637712
47.368328
74.749893
103.764717
127.690514
140.817307
141.187927
131.082016
114.620926
95.337334
75.738396
57.332802
40.080826
22.320517
2.759240
-17.468824
-35.137981
-46.876400
-52.069660
-53.818508
-54.897709
-54.555717
-51.790310
-48.902031
-49.070026
-52.559349
-56.532532
-57.367485
-54.293976
-50.604027
-48.784733
-46.832840
-42.854553
-40.045040
-43.828331
-56.561474
-75.323387
-93.078796
-104.001190
-107.511566
-105.826042
-100.504478
-92.766930
-84.886002
-79.657951
-78.639984
-80.263809
-79.596687
-71.866959
-55.644249
-31.740944
-1.359934
33.346645
68.108337
97.090004
114.770538
118.637863
110.343208
92.802048
67.824921
38.393833
10.660385
-9.689682
-22.181177
-31.906935
-45.819393
-64.772530
-79.139053
-77.194962
-55.538361
-21.030985
13.250633
37.190102
49.926788
55.376133
56.133789
53.546165
49.862854
48.166348
50.436722
54.920734
55.928257
49.442410
37.711559
25.808599
16.808205
11.578332
10.089948
11.334259
12.865313
11.845255
7.052392
0.708308
-2.066321
1.255471
6.674412
8.216643
3.559403
-6.250856
-19.210499
-33.508850
-47.571396
-59.605343
-67.629326
-70.556900
-68.761215
-62.639400
-51.643272
-36.095737
-18.525131
-1.274311
15.609989
32.120319
45.766212
53.223202
53.399757
48.812782
44.391552
42.601181
40.316589
33.242413
21.220592
7.960419
-1.817503
-5.396069
-3.534097
1.454576
8.336529
17.974768
32.558449
52.470905
74.078972
92.121895
103.460320
109.033371
113.142899
118.636047
123.318359
123.048203
116.008636
103.166679
86.977547
70.027672
54.193245
40.581566
29.789036
22.345970
18.952679
19.994766
24.777172
31.085752
35.743809
37.003952
36.186886
35.751518
36.936123
39.825844
44.145542
49.261772
53.992477
57.104397
57.996998
56.899223
54.601299
51.620743
47.570534
41.531548
32.677998
20.688065
6.231232
-8.424738
-19.731947
-25.429110
-26.489710
-25.306152
-23.205961
-20.266394
-16.411604
-12.775755
-11.894427
-15.296228
-21.512762
-27.591097
-31.327774
-31.751162
-28.847458
-23.319263
-16.239492
-8.198724
1.239778
12.585517
24.947975
35.188305
38.486340
31.592896
15.655538
-4.737986
-23.872625
-36.964184
-41.691032
-38.812786
-31.927341
-25.455202
-22.207638
-21.987837
-21.859713
-19.395092
-15.476709
-13.102044
-14.856793
-21.327724
-30.963741
-42.020870
-54.049202
-66.627930
-77.869843
-85.286163
-87.597115
-86.014366
-84.264351
-86.223885
-93.514313
-105.168106
-118.088135
-127.660080
-128.719604
-117.559822
-93.733383
-60.084763
-22.000988
13.790159
40.588154
53.507072
51.463596
38.386921
22.255842
9.643410
1.083365
-6.790912
-16.672064
-27.391550
-33.880337
-32.587997
-26.069330
-20.295118
-19.662836
-24.192261
-29.739140
-32.568172
-33.049862
-33.439186
-34.329304
-34.060074
-30.192726
-22.214699
-12.727607
-4.404434
2.870369
10.374562
17.916576
23.595221
24.991753
20.940758
12.491785
1.708388
-9.727173
-20.470503
-29.142574
-34.651096
-36.593189
-35.099998
-30.833294
-25.694632
-22.897524
-24.710953
-30.190001
-35.641918
-36.726154
-31.445335
-21.618681
-10.178720
1.557615
12.800018
21.337330
23.782682
17.231052
1.547481
-19.513948
-40.556782
-57.422741
-68.325119
-73.698044
-74.704735
-71.775932
-64.450684
-52.233017
-36.372993
