EVENT_NAME: L_AQUILA
EVENT_ID: IT-2009-0009
EVENT_DATE_YYYYMMDD: 20090406
EVENT_TIME_HHMMSS: 013240
EVENT_LATITUDE_DEGREE: 42.3420
EVENT_LONGITUDE_DEGREE: 13.3800
EVENT_DEPTH_KM: 8.3
HYPOCENTER_REFERENCE: INGV-CNT_Seismic_Bulletin
MAGNITUDE_W: 6.3
MAGNITUDE_W_REFERENCE: RCMT-INGV
MAGNITUDE_L: 5.9
MAGNITUDE_L_REFERENCE: INGV-CNT_Seismic_Bulletin
FOCAL_MECHANISM: NF
NETWORK: MN
STATION_CODE: AQU
STATION_NAME: AQUILA CASTELLO
STATION_LATITUDE_DEGREE: 42.353880
STATION_LONGITUDE_DEGREE: 13.401930
STATION_ELEVATION_M: 729
LOCATION: 
SENSOR_DEPTH_M: 15.0
VS30_M/S: 
SITE_CLASSIFICATION_EC8: C*
MORPHOLOGIC_CLASSIFICATION: 
EPICENTRAL_DISTANCE_KM: 2.2
EARTHQUAKE_BACKAZIMUTH_DEGREE: 233.9
DATE_TIME_FIRST_SAMPLE_YYYYMMDD_HHMMSS: 20090406_013225.000
DATE_TIME_FIRST_SAMPLE_PRECISION: milliseconds
SAMPLING_INTERVAL_S: 0.005000
NDATA: 18001
DURATION_S: 90.005
STREAM: HLE
UNITS: cm
INSTRUMENT: sensor = Unknown [Unknown] | digitizer = Unknown [Unknown]
INSTRUMENT_ANALOG/DIGITAL: D
INSTRUMENTAL_FREQUENCY_HZ: 
INSTRUMENTAL_DAMPING: 
FULL_SCALE_G: 
N_BIT_DIGITAL_CONVERTER: 
PGD_CM: 3.338661
TIME_PGD_S: 23.010000
BASELINE_CORRECTION: BASELINE REMOVED
FILTER_TYPE: BUTTERWORTH
FILTER_ORDER: 2
LOW_CUT_FREQUENCY_HZ: 0.150
HIGH_CUT_FREQUENCY_HZ: 40.000
LATE/NORMAL_TRIGGERED: NT
DATABASE_VERSION: DYNA 1.0
HEADER_FORMAT: DYNA 1.2
DATA_TYPE: DISPLACEMENT
PROCESSING: manual (Paolucci et al., 2011)
DATA_TIMESTAMP_YYYYMMDD_HHMMSS: 
DATA_LICENSE: CC-BY4_0 (http://creativecommons.org/licenses/by/4.0/)
DATA_CITATION: ESM working group (2015), European Strong-Motion database, version 0.1, Network Activity 3: Networking acceleration networks and SM data users. Project NERA (www.nera-eu.org)
DATA_CREATOR: ESM working group
ORIGINAL_DATA_MEDIATOR_CITATION: data obtained within the DPC-INGV data exchange agreements
ORIGINAL_DATA_MEDIATOR: Archive of Italian Department of Civil Protection
ORIGINAL_DATA_CREATOR_CITATION: Mediterranean Broad Band Seismographic Network, Istituto Nazionale di Geofisica e Vulcanologia http://mednet.rm.ingv.it
ORIGINAL_DATA_CREATOR: network: MN (Mediterranean Very Broadband Seismographic Network (MNDC)); owner: Istituto Nazionale di Geofisica e Vulcanologia
USER1: 
USER2: 
USER3: 
USER4: 
USER5: 
[...]
1.515455e+00
1.578873e+00
1.641337e+00
1.703192e+00
1.764233e+00
1.823992e+00
1.882131e+00
1.938492e+00
1.992918e+00
2.045109e+00
2.094653e+00
2.141184e+00
2.184472e+00
2.224341e+00
2.260588e+00
2.293078e+00
2.321872e+00
2.347217e+00
2.369435e+00
2.388817e+00
2.405563e+00
2.419745e+00
2.431283e+00
2.439922e+00
2.445194e+00
2.446416e+00
2.442820e+00
2.433928e+00
2.420046e+00
2.402581e+00
2.383853e+00
2.366267e+00
2.351466e+00
2.340060e+00
2.331914e+00
2.326614e+00
2.323677e+00
2.322316e+00
2.321240e+00
2.318931e+00
2.314180e+00
2.306440e+00
2.295753e+00
2.282292e+00
2.265921e+00
2.246155e+00
2.222421e+00
2.194390e+00
2.162201e+00
2.126473e+00
2.088133e+00
2.048117e+00
2.007130e+00
1.965570e+00
1.923541e+00
1.880875e+00
1.837170e+00
1.791917e+00
1.744696e+00
1.695366e+00
1.644044e+00
1.590801e+00
1.535372e+00
1.477176e+00
1.415552e+00
1.349988e+00
1.280194e+00
1.205989e+00
1.127180e+00
1.043589e+00
9.551991e-01
8.623082e-01
7.655624e-01
6.658188e-01
5.639268e-01
4.605695e-01
3.562620e-01
2.515181e-01
1.470305e-01
4.370670e-02
-5.743908e-02
-1.554770e-01
-2.497717e-01
-3.401444e-01
-4.269125e-01
-5.107548e-01
-5.924538e-01
-6.726225e-01
-7.515546e-01
-8.292756e-01
-9.056893e-01
-9.806721e-01
-1.054057e+00
-1.125524e+00
-1.194528e+00
-1.260360e+00
-1.322326e+00
-1.379932e+00
-1.432979e+00
-1.481497e+00
-1.525564e+00
-1.565123e+00
-1.599902e+00
-1.629485e+00
-1.653489e+00
-1.671760e+00
-1.684471e+00
-1.692088e+00
-1.695265e+00
-1.694738e+00
-1.691253e+00
-1.685512e+00
-1.678134e+00
-1.669622e+00
-1.660337e+00
-1.650479e+00
-1.640090e+00
-1.629092e+00
-1.617340e+00
-1.604667e+00
-1.590869e+00
-1.575657e+00
-1.558664e+00
-1.539595e+00
-1.518394e+00
-1.495273e+00
-1.470612e+00
-1.444827e+00
-1.418301e+00
-1.391425e+00
-1.364633e+00
-1.338335e+00
-1.312846e+00
-1.288394e+00
-1.265174e+00
-1.243355e+00
-1.223064e+00
-1.204410e+00
-1.187541e+00
-1.172716e+00
-1.160328e+00
-1.150860e+00
-1.144825e+00
-1.142744e+00
-1.145122e+00
-1.152358e+00
-1.164652e+00
-1.181956e+00
-1.203984e+00
-1.230261e+00
-1.260190e+00
-1.293135e+00
-1.328493e+00
-1.365718e+00
-1.404312e+00
-1.443809e+00
-1.483773e+00
-1.523830e+00
-1.563701e+00
-1.603191e+00
-1.642191e+00
-1.680705e+00
-1.718887e+00
-1.757058e+00
-1.795664e+00
-1.835163e+00
-1.875896e+00
-1.917991e+00
-1.961356e+00
-2.005761e+00
-2.050948e+00
-2.096682e+00
-2.142750e+00
-2.188965e+00
-2.235202e+00
-2.281439e+00
-2.327735e+00
-2.374088e+00
-2.420282e+00
-2.465836e+00
-2.510087e+00
-2.552342e+00
-2.592019e+00
-2.628706e+00
-2.662114e+00
-2.691968e+00
-2.717891e+00
-2.739340e+00
-2.755680e+00
-2.766387e+00
-2.771232e+00
-2.770302e+00
-2.763920e+00
-2.752570e+00
-2.736918e+00
-2.717901e+00
-2.696737e+00
-2.674736e+00
-2.652996e+00
-2.632150e+00
-2.612271e+00
-2.593002e+00
-2.573801e+00
-2.554175e+00
-2.533769e+00
-2.512285e+00
-2.489357e+00
-2.464529e+00
-2.437324e+00
-2.407323e+00
-2.374191e+00
-2.337642e+00
-2.297402e+00
-2.253231e+00
-2.204944e+00
-2.152406e+00
-2.095549e+00
-2.034478e+00
-1.969561e+00
-1.901405e+00
-1.830718e+00
-1.758158e+00
-1.684264e+00
-1.609526e+00
-1.534448e+00
-1.459479e+00
-1.384894e+00
-1.310748e+00
-1.236977e+00
-1.163587e+00
-1.090778e+00
-1.018875e+00
-9.481253e-01
-8.785212e-01
-8.097394e-01
-7.412463e-01
-6.724681e-01
-6.029261e-01
-5.323248e-01
-4.606099e-01
-3.879901e-01
-3.149161e-01
-2.420373e-01
-1.701640e-01
-1.002441e-01
-3.334020e-02
2.943761e-02
8.706771e-02
1.387742e-01
1.841370e-01
2.231182e-01
2.559943e-01
2.832321e-01
3.053634e-01
3.229219e-01
3.364646e-01
3.466055e-01
3.539861e-01
3.592005e-01
3.627278e-01
3.648990e-01
3.658897e-01
3.656868e-01
3.640111e-01
3.602944e-01
3.537975e-01
3.438027e-01
3.297711e-01
3.114131e-01
2.886734e-01
2.616867e-01
2.307466e-01
1.962599e-01
1.586675e-01
1.183921e-01
7.587344e-02
3.164852e-02
-1.359892e-02
-5.906498e-02
-1.039281e-01
-1.474531e-01
-1.890258e-01
-2.281181e-01
-2.642259e-01
-2.968387e-01
-3.255024e-01
-3.499952e-01
-3.705676e-01
-3.880618e-01
-4.037496e-01
-4.189405e-01
-4.345490e-01
-4.509044e-01
-4.679640e-01
-4.856980e-01
-5.043192e-01
-5.242079e-01
-5.455825e-01
-5.682371e-01
-5.916081e-01
-6.150373e-01
-6.379818e-01
-6.600471e-01
-6.808612e-01
-6.999910e-01
-7.170396e-01
-7.317972e-01
-7.442817e-01
-7.547049e-01
-7.634524e-01
-7.710768e-01
-7.782493e-01
-7.856213e-01
-7.936090e-01
-8.022501e-01
-8.112462e-01
-8.201016e-01
-8.282349e-01
-8.350586e-01
-8.400518e-01
-8.428113e-01
-8.430454e-01
-8.405194e-01
-8.349891e-01
-8.261852e-01
-8.138707e-01
-7.978976e-01
-7.781929e-01
-7.547225e-01
-7.275015e-01
-6.966460e-01
-6.624252e-01
-6.252689e-01
-5.857070e-01
-5.442668e-01
-5.013647e-01
-4.572182e-01
-4.117969e-01
-3.648310e-01
-3.158863e-01
-2.644801e-01
-2.101985e-01
-1.527644e-01
-9.201870e-02
-2.782588e-02
4.003910e-02
1.119131e-01
1.880971e-01
2.686133e-01
3.530015e-01
4.402921e-01
5.292092e-01
6.184733e-01
7.070328e-01
7.941551e-01
8.793861e-01
9.624845e-01
1.043412e+00
1.122340e+00
1.199604e+00
1.275594e+00
1.350620e+00
1.424839e+00
1.498300e+00
1.571028e+00
1.643074e+00
1.714490e+00
1.785252e+00
1.855194e+00
1.924020e+00
1.991394e+00
2.057078e+00
2.121033e+00
2.183415e+00
2.244481e+00
2.304476e+00
2.363559e+00
2.421800e+00
2.479187e+00
2.535606e+00
2.590824e+00
2.644511e+00
2.696319e+00
2.745960e+00
2.793279e+00
2.838284e+00
2.881133e+00
2.922067e+00
2.961316e+00
2.999020e+00
3.035189e+00
3.069734e+00
3.102512e+00
3.133363e+00
3.162133e+00
3.188702e+00
3.212985e+00
3.234881e+00
3.254219e+00
3.270773e+00
3.284345e+00
3.294869e+00
3.302453e+00
3.307313e+00
3.309662e+00
3.309656e+00
3.307393e+00
3.302935e+00
3.296319e+00
3.287563e+00
3.276674e+00
3.263695e+00
3.248754e+00
3.232081e+00
3.213963e+00
3.194610e+00
3.174022e+00
3.151927e+00
3.127864e+00
3.101402e+00
3.072381e+00
3.041011e+00
3.007796e+00
2.973297e+00
2.937889e+00
2.901644e+00
2.864403e+00
2.825976e+00
2.786320e+00
2.745554e+00
2.703856e+00
2.661360e+00
2.618118e+00
2.574146e+00
2.529461e+00
2.484093e+00
2.438093e+00
2.391598e+00
2.344895e+00
2.298390e+00
2.252515e+00
2.207617e+00
2.163873e+00
2.121255e+00
2.079534e+00
2.038320e+00
1.997144e+00
1.955554e+00
1.913209e+00
1.869937e+00
1.825741e+00
1.780769e+00
1.735223e+00
1.689224e+00
1.642729e+00
1.595543e+00
1.547404e+00
1.498052e+00
1.447304e+00
1.395104e+00
1.341550e+00
1.286827e+00
1.231103e+00
1.174422e+00
1.116728e+00
1.058027e+00
9.985285e-01
9.385839e-01
8.785263e-01
8.185664e-01
7.588161e-01
6.994119e-01
6.405984e-01
5.826730e-01
5.258811e-01
4.703810e-01
4.162901e-01
3.637711e-01
3.131064e-01
2.647157e-01
2.190944e-01
1.766795e-01
1.377251e-01
1.022654e-01
7.017934e-02
4.131100e-02
1.555451e-02
-7.160951e-03
-2.692875e-02
-4.389014e-02
-5.822114e-02
-7.010561e-02
-7.971778e-02
-8.722545e-02
-9.280876e-02
-9.668775e-02
-9.915526e-02
-1.006021e-01
-1.015024e-01
-1.023480e-01
-1.035860e-01
-1.056113e-01
-1.087806e-01
-1.133931e-01
-1.196213e-01
-1.274278e-01
-1.365650e-01
-1.467107e-01
-1.576182e-01
-1.691441e-01
-1.811565e-01
-1.934152e-01
-2.055614e-01
-2.172852e-01
-2.285376e-01
-2.396157e-01
-2.510682e-01
-2.634691e-01
-2.772214e-01
-2.925273e-01
-3.094854e-01
-3.282060e-01
-3.488440e-01
-3.715240e-01
-3.962691e-01
-4.230319e-01
-4.517577e-01
-4.823764e-01
-5.147266e-01
-5.484784e-01
-5.831502e-01
-6.182496e-01
-6.534122e-01
-6.884154e-01
-7.231280e-01
-7.574858e-01
-7.914912e-01
-8.251870e-01
-8.585743e-01
-8.914937e-01
-9.235759e-01
-9.543384e-01
-9.833550e-01
-1.010388e+00
-1.035441e+00
-1.058725e+00
-1.080558e+00
-1.101219e+00
-1.120816e+00
-1.139218e+00
-1.156115e+00
-1.171200e+00
-1.184363e+00
-1.195766e+00
-1.205800e+00
-1.214963e+00
-1.223760e+00
-1.232668e+00
-1.242124e+00
-1.252475e+00
-1.263894e+00
-1.276320e+00
-1.289455e+00
-1.302856e+00
-1.316069e+00
-1.328750e+00
-1.340745e+00
-1.352090e+00
-1.362974e+00
-1.373664e+00
-1.384461e+00
-1.395696e+00
-1.407753e+00
-1.421053e+00
-1.435975e+00
-1.452737e+00
-1.471285e+00
-1.491248e+00
-1.511999e+00
-1.532766e+00
-1.552779e+00
-1.571401e+00
-1.588217e+00
-1.603065e+00
-1.615970e+00
-1.627009e+00
-1.636212e+00
-1.643580e+00
-1.649183e+00
-1.653238e+00
-1.656053e+00
-1.657819e+00
-1.658447e+00
-1.657638e+00
-1.655111e+00
-1.650836e+00
-1.645086e+00
-1.638235e+00
-1.630481e+00
-1.621732e+00
-1.611685e+00
-1.600089e+00
-1.586946e+00
-1.572525e+00
-1.557198e+00
-1.541243e+00
-1.524723e+00
-1.507514e+00
-1.489420e+00
-1.470282e+00
-1.450080e+00
-1.428990e+00
-1.407389e+00
-1.385733e+00
-1.364399e+00
-1.343562e+00
-1.323159e+00
-1.302979e+00
-1.282811e+00
-1.262574e+00
-1.242388e+00
-1.222538e+00
-1.203321e+00
-1.184825e+00
-1.166829e+00
-1.148928e+00
-1.130797e+00
-1.112404e+00
-1.094059e+00
-1.076286e+00
-1.059634e+00
-1.044554e+00
-1.031334e+00
-1.020082e+00
-1.010737e+00
-1.003111e+00
-9.969389e-01
-9.919079e-01
-9.877076e-01
-9.841067e-01
-9.809749e-01
-9.781906e-01
-9.755127e-01
-9.725338e-01
-9.687563e-01
-9.637523e-01
-9.572844e-01
-9.493129e-01
-9.399893e-01
-9.297250e-01
-9.192203e-01
-9.093261e-01
-9.008091e-01
-8.941650e-01
-8.895796e-01
-8.870469e-01
-8.864938e-01
-8.877847e-01
-8.906752e-01
-8.948233e-01
-8.998641e-01
-9.055052e-01
-9.115860e-01
-9.180746e-01
-9.250270e-01
-9.325427e-01
-9.407324e-01
-9.497042e-01
-9.595687e-01
-9.704524e-01
-9.824838e-01
-9.957345e-01
-1.010164e+00
-1.025624e+00
-1.041910e+00
-1.058835e+00
-1.076236e+00
-1.093931e+00
-1.111667e+00
-1.129173e+00
-1.146260e+00
-1.162899e+00
-1.179218e+00
-1.195389e+00
-1.211490e+00
-1.227422e+00
-1.242951e+00
-1.257840e+00
-1.271978e+00
-1.285368e+00
-1.297997e+00
-1.309664e+00
-1.319930e+00
-1.328270e+00
-1.334280e+00
-1.337760e+00
-1.338643e+00
-1.336876e+00
-1.332364e+00
-1.325093e+00
-1.315282e+00
-1.303424e+00
-1.290197e+00
-1.276308e+00
-1.262382e+00
-1.248977e+00
-1.236658e+00
-1.226040e+00
-1.217739e+00
-1.212231e+00
-1.209691e+00
-1.209887e+00
-1.212190e+00
-1.215713e+00
-1.219537e+00
-1.222944e+00
-1.225569e+00
-1.227380e+00
-1.228549e+00
-1.229280e+00
-1.229714e+00
-1.229973e+00
-1.230275e+00
-1.231012e+00
-1.232748e+00
-1.236130e+00
-1.241766e+00
-1.250132e+00
-1.261495e+00
-1.275876e+00
-1.293034e+00
-1.312514e+00
-1.333725e+00
-1.356033e+00
-1.378845e+00
-1.401666e+00
-1.424146e+00
-1.446129e+00
-1.467666e+00
-1.488981e+00
-1.510358e+00
-1.531982e+00
-1.553830e+00
-1.575711e+00
-1.597446e+00
-1.619095e+00
-1.641036e+00
-1.663796e+00
-1.687770e+00
-1.713068e+00
-1.739540e+00
-1.766943e+00
-1.795080e+00
-1.823794e+00
-1.852869e+00
-1.881975e+00
-1.910660e+00
-1.938411e+00
-1.964740e+00
-1.989286e+00
-2.011877e+00
-2.032509e+00
-2.051292e+00
-2.068403e+00
-2.084080e+00
-2.098615e+00
-2.112297e+00
-2.125270e+00
-2.137438e+00
-2.148517e+00
-2.158200e+00
-2.166309e+00
-2.172865e+00
-2.178006e+00
-2.181875e+00
-2.184553e+00
-2.186084e+00
-2.186538e+00
-2.186036e+00
-2.184645e+00
-2.182263e+00
-2.178587e+00
-2.173205e+00
-2.165762e+00
-2.156072e+00
-2.144071e+00
-2.129707e+00
-2.112889e+00
-2.093483e+00
-2.071342e+00
-2.046324e+00
-2.018289e+00
-1.987111e+00
-1.952724e+00
-1.915176e+00
-1.874659e+00
-1.831506e+00
-1.786167e+00
-1.739165e+00
-1.691048e+00
-1.642350e+00
-1.593581e+00
-1.545213e+00
-1.497655e+00
-1.451201e+00
-1.405971e+00
-1.361875e+00
-1.318642e+00
-1.275899e+00
-1.233301e+00
-1.190636e+00
-1.147846e+00
-1.104990e+00
-1.062184e+00
-1.019589e+00
-9.774761e-01
-9.362729e-01
-8.965408e-01
-8.588755e-01
-8.237791e-01
-7.915276e-01
-7.620602e-01
-7.349298e-01
-7.093517e-01
-6.843440e-01
-6.589157e-01
-6.322087e-01
-6.035260e-01
-5.722880e-01
-5.379950e-01
-5.002433e-01
-4.588044e-01
-4.137119e-01
-3.652898e-01
-3.140950e-01
-2.607808e-01
-2.059464e-01
-1.500435e-01
-9.337273e-02
-3.616219e-02
2.134417e-02
7.886698e-02
1.361641e-01
1.931594e-01
2.500094e-01
3.070212e-01
3.645024e-01
4.226624e-01
4.816204e-01
5.415000e-01
6.025025e-01
6.648774e-01
7.288475e-01
7.945708e-01
8.621497e-01
9.316551e-01
1.003130e+00
1.076555e+00
1.151789e+00
1.228550e+00
1.306427e+00
1.384948e+00
1.463631e+00
1.541964e+00
1.619366e+00
1.695177e+00
1.768725e+00
1.839477e+00
1.907155e+00
1.971742e+00
2.033401e+00
2.092363e+00
2.148865e+00
2.203139e+00
2.255450e+00
2.306122e+00
2.355545e+00
2.404132e+00
2.452254e+00
2.500169e+00
2.547975e+00
2.595599e+00
2.642821e+00
2.689308e+00
2.734659e+00
2.778446e+00
2.820271e+00
2.859839e+00
2.897018e+00
2.931858e+00
2.964556e+00
2.995380e+00
3.024615e+00
3.052538e+00
3.079422e+00
3.105516e+00
3.130997e+00
3.155908e+00
3.180134e+00
3.203424e+00
3.225450e+00
3.245886e+00
3.264459e+00
3.280993e+00
3.295417e+00
3.307725e+00
3.317935e+00
3.326053e+00
3.332086e+00
3.336090e+00
3.338207e+00
3.338661e+00
3.337709e+00
3.335575e+00
3.332397e+00
3.328234e+00
3.323088e+00
3.316945e+00
3.309789e+00
3.301594e+00
3.292320e+00
3.281942e+00
3.270465e+00
3.257907e+00
3.244264e+00
3.229482e+00
3.213472e+00
3.196159e+00
3.177524e+00
3.157602e+00
3.136472e+00
3.114244e+00
3.091055e+00
3.067039e+00
3.042308e+00
3.016970e+00
2.991170e+00
2.965127e+00
2.939131e+00
2.913468e+00
2.888327e+00
2.863737e+00
2.839578e+00
2.815652e+00
2.791784e+00
2.767883e+00
2.743938e+00
2.719950e+00
2.695871e+00
2.671633e+00
2.647224e+00
2.622765e+00
2.598510e+00
2.574756e+00
2.551733e+00
2.529564e+00
2.508289e+00
2.487920e+00
2.468470e+00
2.449951e+00
2.432358e+00
2.415679e+00
2.399922e+00
2.385117e+00
2.371286e+00
2.358399e+00
2.346370e+00
2.335128e+00
2.324709e+00
2.315282e+00
2.307099e+00
2.300375e+00
2.295202e+00
2.291553e+00
2.289368e+00
2.288624e+00
2.289355e+00
2.291607e+00
2.295376e+00
2.300588e+00
2.307139e+00
2.314933e+00
2.323898e+00
2.333953e+00
2.344948e+00
2.356649e+00
2.368776e+00
2.381075e+00
2.393378e+00
2.405610e+00
2.417749e+00
2.429803e+00
2.441800e+00
2.453809e+00
2.465962e+00
2.478436e+00
2.491400e+00
2.504960e+00
2.519111e+00
2.533732e+00
2.548586e+00
2.563321e+00
2.577471e+00
2.590467e+00
2.601693e+00
2.610565e+00
2.616618e+00
2.619574e+00
2.619380e+00
2.616215e+00
2.610433e+00
2.602414e+00
2.592417e+00
2.580508e+00
2.566610e+00
2.550643e+00
2.532649e+00
2.512811e+00
2.491380e+00
2.468572e+00
2.444473e+00
2.419011e+00
2.392000e+00
2.363246e+00
2.332672e+00
2.300363e+00
2.266529e+00
2.231398e+00
2.195119e+00
2.157753e+00
2.119329e+00
2.079893e+00
2.039558e+00
1.998515e+00
1.957037e+00
1.915457e+00
1.874110e+00
1.833238e+00
1.792925e+00
1.753100e+00
1.713615e+00
1.674347e+00
1.635260e+00
1.596410e+00
1.557916e+00
1.519907e+00
1.482486e+00
1.445697e+00
1.409503e+00
1.373794e+00
1.338399e+00
1.303105e+00
1.267689e+00
1.231958e+00
1.195785e+00
1.159130e+00
1.122051e+00
1.084725e+00
1.047462e+00
1.010693e+00
9.749030e-01
9.405124e-01
9.077936e-01
8.768727e-01
8.477800e-01
8.204880e-01
7.949324e-01
7.710357e-01
7.487415e-01
7.280430e-01
7.089686e-01
6.915134e-01
6.755849e-01
6.610239e-01
6.476641e-01
6.353686e-01
6.240260e-01
6.135108e-01
6.036358e-01
5.941214e-01
5.845956e-01
5.746284e-01
5.637814e-01
5.516502e-01
5.378841e-01
5.221858e-01
5.043225e-01
4.841680e-01
4.617481e-01
4.372513e-01
4.110046e-01
3.834286e-01
3.549854e-01
3.261296e-01
2.972716e-01
2.687559e-01
2.408452e-01
2.136978e-01
1.873367e-01
1.616200e-01
1.362290e-01
1.106904e-01
8.442936e-02
5.684116e-02
2.735684e-02
-4.516134e-03
-3.918266e-02
-7.696463e-02
-1.180872e-01
-1.626294e-01
-2.104794e-01
-2.613387e-01
-3.147655e-01
-3.702265e-01
-4.271334e-01
-4.848601e-01
-5.427620e-01
-6.002113e-01
-6.566170e-01
-7.114108e-01
-7.640371e-01
-8.139923e-01
-8.608913e-01
-9.045181e-01
-9.448345e-01
-9.819474e-01
-1.016065e+00
-1.047466e+00
-1.076461e+00
-1.103329e+00
-1.128257e+00
-1.151344e+00
-1.172618e+00
-1.192060e+00
-1.209601e+00
-1.225131e+00
-1.238510e+00
-1.249595e+00
-1.258258e+00
-1.264383e+00
-1.267873e+00
-1.268682e+00
-1.266834e+00
-1.262380e+00
-1.255352e+00
-1.245732e+00
-1.233475e+00
-1.218568e+00
-1.201082e+00
-1.181172e+00
-1.159046e+00
-1.134943e+00
-1.109124e+00
-1.081872e+00
-1.053490e+00
-1.024285e+00
-9.945431e-01
-9.645168e-01
-9.344208e-01
-9.044339e-01
-8.747012e-01
-8.453276e-01
-8.163694e-01
-7.878358e-01
-7.597114e-01
-7.320037e-01
-7.047907e-01
-6.782406e-01
-6.525872e-01
-6.280657e-01
-6.048396e-01
-5.829518e-01
-5.623088e-01
-5.426937e-01
-5.237976e-01
-5.052601e-01
-4.867179e-01
-4.678544e-01
-4.484308e-01
-4.282806e-01
-4.072761e-01
-3.852911e-01
-3.621935e-01
-3.378870e-01
-3.123760e-01
-2.858143e-01
-2.585059e-01
-2.308518e-01
-2.032748e-01
-1.761655e-01
-1.498622e-01
-1.246571e-01
-1.007991e-01
-7.847236e-02
-5.777436e-02
-3.872031e-02
-2.127093e-02
-5.360579e-03
9.099317e-03
2.224521e-02
3.426838e-02
4.536525e-02
5.566140e-02
6.515927e-02
7.373452e-02
8.118005e-02
8.726506e-02
9.178168e-02
9.458621e-02
9.564076e-02
9.502759e-02
9.291027e-02
8.946064e-02
8.478913e-02
7.890874e-02
7.174376e-02
6.315702e-02
5.297092e-02
4.099054e-02
2.704125e-02
1.100695e-02
-7.149055e-03
-2.738088e-02
-4.956470e-02
-7.350042e-02
-9.891037e-02
-1.254558e-01
-1.527811e-01
-1.805551e-01
-2.084783e-01
-2.362742e-01
-2.636944e-01
-2.905443e-01
-3.167186e-01
-3.422183e-01
-3.671330e-01
-3.916077e-01
-4.158126e-01
-4.398981e-01
-4.639268e-01
-4.878232e-01
-5.113842e-01
-5.343395e-01
-5.564214e-01
-5.773993e-01
-5.970615e-01
-6.151979e-01
-6.316296e-01
-6.462625e-01
-6.591185e-01
-6.703308e-01
-6.801141e-01
-6.887361e-01
-6.965106e-01
-7.037857e-01
-7.109032e-01
-7.181363e-01
-7.256326e-01
-7.333950e-01
-7.413202e-01
-7.492699e-01
-7.571342e-01
-7.648511e-01
-7.723706e-01
-7.796095e-01
-7.864480e-01
-7.927705e-01
-7.985257e-01
-8.037634e-01
-8.086213e-01
-8.132890e-01
-8.179824e-01
-8.229236e-01
-8.283139e-01
-8.343063e-01
-8.409916e-01
-8.484037e-01
-8.565416e-01
-8.653871e-01
-8.749043e-01
-8.850353e-01
-8.957121e-01
-9.068796e-01
-9.185165e-01
-9.306388e-01
-9.432762e-01
-9.564335e-01
-9.700557e-01
-9.840199e-01
-9.981640e-01
-1.012328e+00
-1.026379e+00
-1.040222e+00
-1.053783e+00
-1.067008e+00
-1.079852e+00
-1.092272e+00
-1.104216e+00
-1.115603e+00
-1.126329e+00
-1.136281e+00
-1.145343e+00
-1.153409e+00
-1.160364e+00
-1.166080e+00
-1.170409e+00
-1.173210e+00
-1.174382e+00
