EVENT_NAME: L_AQUILA
EVENT_ID: IT-2009-0009
EVENT_DATE_YYYYMMDD: 20090406
EVENT_TIME_HHMMSS: 013240
EVENT_LATITUDE_DEGREE: 42.3420
EVENT_LONGITUDE_DEGREE: 13.3800
EVENT_DEPTH_KM: 8.3
HYPOCENTER_REFERENCE: INGV-CNT_Seismic_Bulletin
MAGNITUDE_W: 6.3
MAGNITUDE_W_REFERENCE: RCMT-INGV
MAGNITUDE_L: 5.9
MAGNITUDE_L_REFERENCE: INGV-CNT_Seismic_Bulletin
FOCAL_MECHANISM: NF
NETWORK: MN
STATION_CODE: AQU
STATION_NAME: AQUILA CASTELLO
STATION_LATITUDE_DEGREE: 42.353880
STATION_LONGITUDE_DEGREE: 13.401930
STATION_ELEVATION_M: 729
LOCATION: 
SENSOR_DEPTH_M: 15.0
VS30_M/S: 
SITE_CLASSIFICATION_EC8: C*
MORPHOLOGIC_CLASSIFICATION: 
EPICENTRAL_DISTANCE_KM: 2.2
EARTHQUAKE_BACKAZIMUTH_DEGREE: 233.9
DATE_TIME_FIRST_SAMPLE_YYYYMMDD_HHMMSS: 20090406_013225.000
DATE_TIME_FIRST_SAMPLE_PRECISION: milliseconds
SAMPLING_INTERVAL_S: 0.005000
NDATA: 105
DURATION_S: 
STREAM: HLE
UNITS: cm/s^2
INSTRUMENT: sensor = Unknown [Unknown] | digitizer = Unknown [Unknown]
INSTRUMENT_ANALOG/DIGITAL: D
INSTRUMENTAL_FREQUENCY_HZ: 
INSTRUMENTAL_DAMPING: 
FULL_SCALE_G: 
N_BIT_DIGITAL_CONVERTER: 
PGV_CM/S: -20.948776
TIME_PGV_S: 18.840000
BASELINE_CORRECTION: BASELINE REMOVED
FILTER_TYPE: BUTTERWORTH
FILTER_ORDER: 2
LOW_CUT_FREQUENCY_HZ: 0.150
HIGH_CUT_FREQUENCY_HZ: 40.000
LATE/NORMAL_TRIGGERED: NT
DATABASE_VERSION: DYNA 1.0
HEADER_FORMAT: DYNA 1.2
DATA_TYPE: PSEUDO-VELOCITY RESPONSE SPECTRUM
PROCESSING: manual (Paolucci et al., 2011)
DATA_TIMESTAMP_YYYYMMDD_HHMMSS: 
DATA_LICENSE: CC-BY4_0 (http://creativecommons.org/licenses/by/4.0/)
DATA_CITATION: ESM working group (2015), European Strong-Motion database, version 0.1, Network Activity 3: Networking acceleration networks and SM data users. Project NERA (www.nera-eu.org)
DATA_CREATOR: ESM working group
ORIGINAL_DATA_MEDIATOR_CITATION: data obtained within the DPC-INGV data exchange agreements
ORIGINAL_DATA_MEDIATOR: Archive of Italian Department of Civil Protection
ORIGINAL_DATA_CREATOR_CITATION: Mediterranean Broad Band Seismographic Network, Istituto Nazionale di Geofisica e Vulcanologia http://mednet.rm.ingv.it
ORIGINAL_DATA_CREATOR: network: MN (Mediterranean Very Broadband Seismographic Network (MNDC)); owner: Istituto Nazionale di Geofisica e Vulcanologia
USER1: 
USER2: 
USER3: 
USER4: 
USER5: 
    0.010000     0.408857
    0.020000     0.832549
    0.022000     0.919015
    0.025000     1.058770
    0.029000     1.298984
    0.030000     1.402154
    0.032000     1.431326
    0.035001     1.766909
    0.036000     1.866416
    0.040000     1.988290
    0.041999     2.071217
    0.044001     2.570786
    0.045000     2.803958
    0.046000     2.886076
    0.048001     2.983652
    0.050000     3.475947
    0.054999     3.469932
    0.059999     4.604556
    0.064998     5.777054
    0.067002     5.870131
    0.069999     6.055479
    0.075002     7.352859
    0.080000     7.570997
    0.084998     7.287103
    0.090001     7.201343
    0.095003     8.666781
    0.100000     9.184179
    0.109999    12.794828
    0.120005    13.880013
    0.130005    17.259218
    0.132996    16.683653
    0.139997    14.215078
    0.149993    13.795094
    0.160000    12.857989
    0.170010    10.548459
    0.179986     9.862649
    0.190006     8.917886
    0.200000     9.378841
    0.220022    13.269095
    0.239981    18.180773
    0.250000    19.375206
    0.260010    20.065363
    0.280034    21.803833
    0.290023    22.551662
    0.300030    22.756762
    0.320000    23.735403
    0.340020    26.176434
    0.350017    28.681482
    0.359971    30.948029
    0.379939    33.561089
    0.400000    34.768017
    0.419992    35.803070
    0.439947    39.821068
    0.450045    42.028908
    0.459982    43.903885
    0.480077    46.775795
    0.500000    48.541866
    0.550055    53.087090
    0.599880    63.149258
    0.650195    60.786709
    0.667111    56.826351
    0.699790    46.980820
    0.750188    41.912178
    0.800000    42.862709
    0.850340    42.470882
    0.900090    43.947628
    0.949668    48.737247
    1.000000    49.192204
    1.100110    46.137211
    1.200480    40.473026
    1.300390    38.989059
    1.400560    39.335686
    1.499250    36.018768
    1.600000    31.923429
    1.700680    33.101765
    1.798561    31.117584
    1.901141    27.467670
    2.000000    24.293159
    2.197802    24.223995
    2.398082    22.513084
    2.500000    22.327591
    2.597403    20.554617
    2.801121    20.502247
    3.003003    18.938721
    3.205128    17.181429
    3.401361    15.024643
    3.496503    13.854177
    3.597122    13.249574
    3.802281    11.997025
    4.000000    10.543996
    4.201681     9.071575
    4.405286     7.708170
    4.608295     6.529011
    4.807692     6.320462
    5.000000     6.170294
    5.494505     5.668286
    5.988024     5.093428
    6.493506     4.533803
    6.993007     4.030024
    7.518797     3.595261
    8.000000     3.229444
    8.474576     3.029566
    9.009009     2.877944
    9.523809     2.719321
   10.000000     2.562900
