EVENT_NAME: L_AQUILA
EVENT_ID: IT-2009-0009
EVENT_DATE_YYYYMMDD: 20090406
EVENT_TIME_HHMMSS: 013240
EVENT_LATITUDE_DEGREE: 42.3420
EVENT_LONGITUDE_DEGREE: 13.3800
EVENT_DEPTH_KM: 8.3
HYPOCENTER_REFERENCE: INGV-CNT_Seismic_Bulletin
MAGNITUDE_W: 6.3
MAGNITUDE_W_REFERENCE: RCMT-INGV
MAGNITUDE_L: 5.9
MAGNITUDE_L_REFERENCE: INGV-CNT_Seismic_Bulletin
FOCAL_MECHANISM: NF
NETWORK: MN
STATION_CODE: AQU
STATION_NAME: AQUILA CASTELLO
STATION_LATITUDE_DEGREE: 42.353880
STATION_LONGITUDE_DEGREE: 13.401930
STATION_ELEVATION_M: 729
LOCATION: 
SENSOR_DEPTH_M: 15.0
VS30_M/S: 
SITE_CLASSIFICATION_EC8: C*
MORPHOLOGIC_CLASSIFICATION: 
EPICENTRAL_DISTANCE_KM: 2.2
EARTHQUAKE_BACKAZIMUTH_DEGREE: 233.9
DATE_TIME_FIRST_SAMPLE_YYYYMMDD_HHMMSS: 20090406_013225.000
DATE_TIME_FIRST_SAMPLE_PRECISION: milliseconds
SAMPLING_INTERVAL_S: 0.005000
NDATA: 105
DURATION_S: 
STREAM: HLE
UNITS: cm
INSTRUMENT: sensor = Unknown [Unknown] | digitizer = Unknown [Unknown]
INSTRUMENT_ANALOG/DIGITAL: D
INSTRUMENTAL_FREQUENCY_HZ: 
INSTRUMENTAL_DAMPING: 
FULL_SCALE_G: 
N_BIT_DIGITAL_CONVERTER: 
PGD_CM: 3.338661
TIME_PGD_S: 23.010000
BASELINE_CORRECTION: BASELINE REMOVED
FILTER_TYPE: BUTTERWORTH
FILTER_ORDER: 2
LOW_CUT_FREQUENCY_HZ: 0.150
HIGH_CUT_FREQUENCY_HZ: 40.000
LATE/NORMAL_TRIGGERED: NT
DATABASE_VERSION: DYNA 1.0
HEADER_FORMAT: DYNA 1.2
DATA_TYPE: DISPLACEMENT RESPONSE SPECTRUM
PROCESSING: manual (Paolucci et al., 2011)
DATA_TIMESTAMP_YYYYMMDD_HHMMSS: 
DATA_LICENSE: CC-BY4_0 (http://creativecommons.org/licenses/by/4.0/)
DATA_CITATION: ESM working group (2015), European Strong-Motion database, version 0.1, Network Activity 3: Networking acceleration networks and SM data users. Project NERA (www.nera-eu.org)
DATA_CREATOR: ESM working group
ORIGINAL_DATA_MEDIATOR_CITATION: data obtained within the DPC-INGV data exchange agreements
ORIGINAL_DATA_MEDIATOR: Archive of Italian Department of Civil Protection
ORIGINAL_DATA_CREATOR_CITATION: Mediterranean Broad Band Seismographic Network, Istituto Nazionale di Geofisica e Vulcanologia http://mednet.rm.ingv.it
ORIGINAL_DATA_CREATOR: network: MN (Mediterranean Very Broadband Seismographic Network (MNDC)); owner: Istituto Nazionale di Geofisica e Vulcanologia
USER1: 
USER2: 
USER3: 
USER4: 
USER5: 
    0.010000     0.000651
    0.020000     0.002650
    0.022000     0.003218
    0.025000     0.004213
    0.029000     0.005995
    0.030000     0.006695
    0.032000     0.007290
    0.035001     0.009842
    0.036000     0.010694
    0.040000     0.012658
    0.041999     0.013845
    0.044001     0.018003
    0.045000     0.020082
    0.046000     0.021129
    0.048001     0.022793
    0.050000     0.027661
    0.054999     0.030374
    0.059999     0.043970
    0.064998     0.059764
    0.067002     0.062595
    0.069999     0.067463
    0.075002     0.087768
    0.080000     0.096397
    0.084998     0.098581
    0.090001     0.103151
    0.095003     0.131039
    0.100000     0.146170
    0.109999     0.223999
    0.120005     0.265088
    0.130005     0.357095
    0.132996     0.353152
    0.139997     0.316735
    0.149993     0.329333
    0.160000     0.327425
    0.170010     0.285402
    0.179986     0.282543
    0.190006     0.269671
    0.200000     0.298537
    0.220022     0.464604
    0.239981     0.694453
    0.250000     0.770913
    0.260010     0.830308
    0.280034     0.971650
    0.290023     1.040868
    0.300030     1.086553
    0.320000     1.208831
    0.340020     1.416474
    0.350017     1.597676
    0.359971     1.773187
    0.379939     2.029732
    0.400000     2.213396
    0.419992     2.393253
    0.439947     2.788590
    0.450045     3.010092
    0.459982     3.214252
    0.480077     3.573399
    0.500000     3.862830
    0.550055     4.646979
    0.599880     6.030296
    0.650195     6.288414
    0.667111     6.032464
    0.699790     5.234049
    0.750188     5.002886
    0.800000     5.457437
    0.850340     5.745520
    0.900090     6.295020
    0.949668     7.368918
    1.000000     7.829165
    1.100110     8.077243
    1.200480     7.729761
    1.300390     8.066873
    1.400560     8.764636
    1.499250     8.598827
    1.600000     8.129216
    1.700680     8.956105
    1.798561     8.914511
    1.901141     8.306050
    2.000000     7.732735
    2.197802     8.481791
    2.398082     8.599345
    2.500000     8.883845
    2.597403     8.505539
    2.801121     9.136474
    3.003003     9.042552
    3.205128     8.750410
    3.401361     8.130219
    3.496503     7.717344
    3.597122     7.591429
    3.802281     7.255650
    4.000000     6.712501
    4.201681     6.063887
    4.405286     5.397878
    4.608295     4.779961
    4.807692     4.828466
    5.000000     4.910153
    5.494505     4.961736
    5.988024     4.863854
    6.493506     4.690240
    6.993007     4.489777
    7.518797     4.291517
    8.000000     4.111846
    8.474576     4.098439
    9.009009     4.122341
    9.523809     4.111528
   10.000000     4.078973
