EVENT_NAME: L_AQUILA
EVENT_ID: IT-2009-0009
EVENT_DATE_YYYYMMDD: 20090406
EVENT_TIME_HHMMSS: 013240
EVENT_LATITUDE_DEGREE: 42.3420
EVENT_LONGITUDE_DEGREE: 13.3800
EVENT_DEPTH_KM: 8.3
HYPOCENTER_REFERENCE: INGV-CNT_Seismic_Bulletin
MAGNITUDE_W: 6.3
MAGNITUDE_W_REFERENCE: RCMT-INGV
MAGNITUDE_L: 5.9
MAGNITUDE_L_REFERENCE: INGV-CNT_Seismic_Bulletin
FOCAL_MECHANISM: NF
NETWORK: MN
STATION_CODE: AQU
STATION_NAME: AQUILA CASTELLO
STATION_LATITUDE_DEGREE: 42.353880
STATION_LONGITUDE_DEGREE: 13.401930
STATION_ELEVATION_M: 729
LOCATION: 
SENSOR_DEPTH_M: 15.0
VS30_M/S: 
SITE_CLASSIFICATION_EC8: C*
MORPHOLOGIC_CLASSIFICATION: 
EPICENTRAL_DISTANCE_KM: 2.2
EARTHQUAKE_BACKAZIMUTH_DEGREE: 233.9
DATE_TIME_FIRST_SAMPLE_YYYYMMDD_HHMMSS: 20090406_013225.000
DATE_TIME_FIRST_SAMPLE_PRECISION: milliseconds
SAMPLING_INTERVAL_S: 0.005000
NDATA: 18001
DURATION_S: 90.005
STREAM: HLE
UNITS: cm/s^2
INSTRUMENT: sensor = Unknown [Unknown] | digitizer = Unknown [Unknown]
INSTRUMENT_ANALOG/DIGITAL: D
INSTRUMENTAL_FREQUENCY_HZ: 
INSTRUMENTAL_DAMPING: 
FULL_SCALE_G: 
N_BIT_DIGITAL_CONVERTER: 
PGA_CM/S^2: -255.267781
TIME_PGA_S: 19.705000
BASELINE_CORRECTION: BASELINE REMOVED
FILTER_TYPE: BUTTERWORTH
FILTER_ORDER: 2
LOW_CUT_FREQUENCY_HZ: 0.150
HIGH_CUT_FREQUENCY_HZ: 40.000
LATE/NORMAL_TRIGGERED: NT
DATABASE_VERSION: DYNA 1.0
HEADER_FORMAT: DYNA 1.2
DATA_TYPE: ACCELERATION
PROCESSING: manual (Paolucci et al., 2011)
DATA_TIMESTAMP_YYYYMMDD_HHMMSS: 
DATA_LICENSE: CC-BY4_0 (http://creativecommons.org/licenses/by/4.0/)
DATA_CITATION: ESM working group (2015), European Strong-Motion database, version 0.1, Network Activity 3: Networking acceleration networks and SM data users. Project NERA (www.nera-eu.org)
DATA_CREATOR: ESM working group
ORIGINAL_DATA_MEDIATOR_CITATION: data obtained within the DPC-INGV data exchange agreements
ORIGINAL_DATA_MEDIATOR: Archive of Italian Department of Civil Protection
ORIGINAL_DATA_CREATOR_CITATION: Mediterranean Broad Band Seismographic Network, Istituto Nazionale di Geofisica e Vulcanologia http://mednet.rm.ingv.it
ORIGINAL_DATA_CREATOR: network: MN (Mediterranean Very Broadband Seismographic Network (MNDC)); owner: Istituto Nazionale di Geofisica e Vulcanologia
USER1: 
USER2: 
USER3: 
USER4: 
USER5: 
[...]
0.029434
0.029598
0.029650
0.029656
0.029810
0.030302
0.031051
0.031639
0.031791
0.031764
0.031963
0.032439
0.032915
0.033076
0.032886
0.032707
0.032948
0.033680
0.034626
0.035360
0.035615
0.035484
0.035278
0.035293
0.035657
0.036287
0.036974
0.037506
0.037756
0.037769
0.037771
0.038039
0.038567
0.038953
0.038975
0.039020
0.039525
0.040333
0.040915
0.040929
0.040561
0.040471
0.041074
0.042022
0.042730
0.043009
0.042981
0.042806
0.042700
0.042957
0.043669
0.044513
0.045088
0.045343
0.045579
0.046142
0.046918
0.047243
0.046793
0.046245
0.046399
0.047197
0.048030
0.048485
0.048671
0.049058
0.049800
0.050391
0.050489
0.050570
0.051129
0.051835
0.052067
0.051776
0.051540
0.052040
0.053237
0.054121
0.053955
0.053309
0.053209
0.053930
0.054979
0.055683
0.055852
0.055989
0.056550
0.057314
0.057876
0.058233
0.058561
0.058812
0.058854
0.058783
0.058957
0.059728
0.060902
0.061638
0.061472
0.061071
0.061270
0.061982
0.062588
0.062777
0.062814
0.063286
0.064366
0.065434
0.065864
0.065779
0.065656
0.065721
0.066014
0.066621
0.067546
0.068536
0.069249
0.069521
0.069447
0.069332
0.069487
0.069993
0.070606
0.070910
0.070849
0.070971
0.071698
0.072674
0.073276
0.073382
0.073451
0.074095
0.075340
0.076377
0.076609
0.076496
0.076686
0.077058
0.077197
0.077169
0.077399
0.078177
0.079366
0.080416
0.080837
0.080640
0.080294
0.080393
0.081196
0.082333
0.083150
0.083283
0.083070
0.083409
0.084630
0.085821
0.086107
0.085889
0.086064
0.086834
0.087699
0.088075
0.087966
0.088078
0.088873
0.089836
0.090282
0.090281
0.090341
0.090748
0.091421
0.092109
0.092688
0.093272
0.093914
0.094387
0.094549
0.094654
0.095008
0.095567
0.096123
0.096629
0.097223
0.098020
0.098833
0.099199
0.099085
0.099246
0.100254
0.101616
0.102493
0.102689
0.102610
0.102746
0.103237
0.103787
0.104170
0.104573
0.105136
0.105589
0.105816
0.106298
0.107344
0.108399
0.108765
0.108540
0.108503
0.109390
0.111076
0.112403
0.112498
0.111866
0.111549
0.111918
0.112621
0.113118
0.113285
0.113605
0.114498
0.115711
0.116688
0.117169
0.117333
0.117588
0.118140
0.118757
0.119166
0.119455
0.119910
0.120672
0.121629
0.122497
0.123073
0.123416
0.123713
0.124084
0.124542
0.125052
0.125610
0.126265
0.126974
0.127535
0.127815
0.127960
0.128271
0.128949
0.129937
0.130903
0.131517
0.131709
0.131670
0.131721
0.132134
0.132965
0.134013
0.134917
0.135462
0.135818
0.136329
0.137173
0.138188
0.138938
0.139184
0.139194
0.139362
0.139776
0.140340
0.141014
0.141763
0.142447
0.142915
0.143183
0.143506
0.144236
0.145390
0.146441
0.146909
0.146906
0.146806
0.146789
0.146967
0.147571
0.148720
0.150111
0.151174
0.151492
0.151286
0.151423
0.152369
0.153473
0.153958
0.153994
0.154223
0.154887
0.155685
0.156124
0.156115
0.156205
0.156904
0.158061
0.159199
0.160049
0.160597
0.160940
0.161278
0.161856
0.162694
0.163443
0.163795
0.163885
0.164101
0.164715
0.165696
0.166740
0.167525
0.167955
0.168124
0.168214
0.168432
0.168924
0.169651
0.170355
0.170850
0.171264
0.171850
0.172700
0.173663
0.174428
0.174750
0.174683
0.174630
0.175151
0.176437
0.177973
0.179035
0.179330
0.179128
0.179039
0.179499
0.180413
0.181399
0.182176
0.182709
0.183162
0.183674
0.184216
0.184732
0.185305
0.186069
0.186998
0.187755
0.187831
0.187216
0.186766
0.187354
0.188899
0.190482
0.191122
0.190803
0.190736
0.191762
0.193093
0.193583
0.193295
0.193145
0.193796
0.195028
0.195889
0.195927
0.195950
0.196778
0.198027
0.198894
0.199257
0.199480
0.199811
0.200284
0.200854
0.201466
0.202039
0.202476
0.202743
0.203025
0.203682
0.204742
0.205643
0.205962
0.206037
0.206396
0.207051
0.207688
0.208126
0.208422
0.208766
0.209296
0.210005
0.210810
0.211621
0.212288
0.212623
0.212684
0.212875
0.213447
0.214122
0.214617
0.215133
0.215920
0.216757
0.217232
0.217269
0.217231
0.217645
0.218567
0.219329
0.219431
0.219272
0.219479
0.220080
0.220766
0.221422
0.222121
0.222889
0.223599
0.224048
0.224219
0.224382
0.224725
0.225067
0.225205
0.225304
0.225690
0.226494
0.227565
0.228558
0.229133
0.229167
0.228873
0.228737
0.229119
0.229914
0.230755
0.231358
0.231704
0.232004
0.232395
0.232757
0.232992
0.233278
0.233810
0.234488
0.235046
0.235362
0.235635
0.236271
0.237302
0.238084
0.238054
0.237463
0.237004
0.237142
0.237901
0.238966
0.239971
0.240708
0.241050
0.240921
0.240548
0.240495
0.241021
0.241666
0.241986
0.242250
0.242878
0.243714
0.244271
0.244298
0.244030
0.244023
0.244543
0.245185
0.245446
0.245359
0.245330
0.245699
0.246512
0.247466
0.248075
0.247968
0.247301
0.246856
0.247266
0.248297
0.249146
0.249199
0.248667
0.248578
0.249545
0.250833
0.251356
0.250958
0.250392
0.250530
0.251372
0.251822
0.251208
0.250437
0.250665
0.251740
0.252667
0.252782
0.252326
0.252205
0.252796
0.253311
0.253132
0.252939
0.253496
0.254327
0.254522
0.253988
0.253377
0.253355
0.253944
0.254463
0.254541
0.254747
0.255441
0.255865
0.255386
0.254713
0.254833
0.255625
0.256216
0.256002
0.255229
0.254842
0.255305
0.255883
0.255801
0.255381
0.255303
0.255599
0.255886
0.256001
0.256066
0.256242
0.256440
0.256306
0.255736
0.255191
0.255102
0.255302
0.255417
0.255409
0.255461
0.255642
0.255806
0.255717
0.255378
0.255135
0.255212
0.255344
0.255197
0.254867
0.254701
0.254886
0.255253
0.255354
0.254904
0.254103
0.253383
0.253043
0.253185
0.253704
0.254180
0.253974
0.252861
0.251499
0.250860
0.251388
0.252633
0.253458
0.253067
0.251814
0.250682
0.250367
0.250753
0.250980
0.250396
0.249356
0.248755
0.249118
0.250028
0.250262
0.249108
0.247327
0.246155
0.246000
0.246408
0.246660
0.246435
0.246047
0.245827
0.245600
0.245132
0.244579
0.244109
0.243515
0.242695
0.242105
0.242184
0.242556
0.241944
0.238782
0.232722
0.225923
0.222979
0.230406
0.254766
0.297434
0.344129
0.359891
0.307658
0.179341
0.024185
-0.055356
0.014350
0.194875
0.345475
0.306763
0.051616
-0.240512
-0.358001
-0.259638
-0.078393
0.006156
-0.028765
0.021205
0.304540
0.664450
0.821526
0.666947
0.347189
0.162171
0.274523
0.520981
0.624501
0.463870
0.097392
-0.307879
-0.539774
-0.439699
-0.081225
0.189881
0.125795
-0.096514
-0.093754
0.318855
0.907742
1.139496
0.802705
0.357412
0.230937
0.153049
-0.362544
-1.289184
-2.047140
-1.942718
-0.885713
0.312642
0.801302
0.524743
-0.106971
-0.823702
-1.546345
-2.151640
-2.284275
-1.451915
0.398929
2.511294
3.904724
4.108728
3.251264
1.779545
0.031950
-1.941939
-3.952361
-5.310206
-5.242725
-3.516884
-0.667906
2.219316
4.309016
5.562971
6.187911
5.949282
4.333036
1.181619
-2.640773
-5.289780
-5.524665
-3.977767
-2.138725
-0.823580
0.151991
1.361921
2.520404
2.134111
-0.442514
-3.393803
-4.275191
-2.473362
0.554675
2.454298
1.984250
0.165694
-1.199534
-1.342453
-0.632396
0.068628
0.097514
-0.493327
-0.866180
0.056343
2.152022
3.468814
2.323058
-0.656356
-3.425654
-4.393832
-3.408852
-1.572041
0.380152
2.918308
5.864785
7.129136
5.267277
1.845917
-0.616060
-1.492431
-1.952927
-3.339315
-5.425822
-6.075642
-3.836141
-0.130180
2.317098
1.909622
-1.137774
-5.075641
-7.416275
-6.014543
-0.532121
6.707143
11.973997
11.958144
5.119423
-7.243784
-20.582590
-28.123917
-25.066181
-12.578197
2.610116
11.685290
10.006471
1.143217
-7.256978
-9.650320
-5.624174
0.154592
2.146237
-1.615357
-8.381543
-12.133943
-8.160296
2.977367
15.995389
23.551636
20.070061
5.238611
-14.895721
-29.804535
-31.577492
-21.233603
-7.010998
1.953719
3.929759
7.275071
18.742105
32.626175
36.486992
22.439426
-6.235735
-35.597965
-52.455509
-54.193836
-45.350578
-31.168077
-16.485878
-6.317733
-3.955895
-8.548632
-15.608744
-20.012453
-21.020845
-24.197550
-34.292774
-48.267372
-58.084991
-57.434967
-46.972725
-34.745613
-27.852360
-25.669479
-24.455088
-23.338732
-22.497566
-19.570021
-11.128607
2.964345
16.000095
16.641956
1.898758
-15.286321
-21.111492
-16.629578
-11.793776
-12.576713
-15.495998
-10.507610
6.621719
26.668579
37.969147
38.419369
31.748608
19.846146
2.527065
-18.917265
-39.023403
-49.163795
-45.002632
-32.191292
-21.234133
-19.226107
-25.490379
-31.936424
-30.355209
-19.235552
-3.074686
11.465671
19.700182
21.440058
19.707758
18.015499
17.575258
15.921840
9.172303
-4.626186
-23.196341
-39.772804
-46.741985
-39.392796
-16.858559
17.180141
52.779339
74.763504
72.058998
46.904633
13.439301
-10.977518
-19.763420
-23.755781
-35.867706
-54.587093
-66.904816
-59.704372
-30.518808
8.444226
40.259941
54.662819
50.150642
31.558367
6.061739
-19.777147
-40.407871
-51.135643
-49.087029
-35.272938
-16.407921
-2.733170
1.963793
5.822161
16.487429
28.720936
30.728312
16.683958
-6.950230
-23.742004
-21.956987
-5.953392
11.493487
21.200941
21.077246
14.412149
5.276970
-5.175883
-18.238447
-34.417515
-48.847492
-51.501862
-38.658066
-20.916647
-11.923143
-14.623381
-21.908447
-24.298370
-18.218163
-8.699158
-0.753408
7.362922
17.125841
22.893950
18.937115
7.583754
-4.648560
-13.549171
-17.175989
-13.689118
-1.868691
17.025949
38.589668
57.093288
70.616402
82.885338
94.982742
98.776001
84.820534
53.150021
14.977062
-12.342815
-16.613550
0.406698
26.469814
47.655174
57.565742
60.713047
62.798096
61.471848
50.841854
30.385674
8.588975
-0.986961
6.275506
17.974312
19.665733
11.340811
3.832866
7.108323
21.586624
37.770115
49.374355
62.461395
83.604866
106.664215
118.437012
111.866348
94.923744
88.796341
107.317558
140.349091
165.074249
165.156311
139.963226
103.652489
71.751259
49.519165
34.846851
25.268717
20.641138
22.604443
31.905027
46.117550
60.056000
68.259789
69.449593
68.760536
72.649780
82.856071
95.577324
103.752716
101.330315
86.283745
59.717655
24.965420
-10.752215
-36.424114
-44.215916
-35.717422
-18.810648
-1.393695
12.536343
23.230797
30.734406
32.351921
27.898575
23.816723
26.821182
36.298393
45.550049
47.914452
43.786221
41.863319
47.602776
54.285664
52.321804
41.107624
27.742945
19.461615
16.442652
10.650995
-3.576460
-21.149555
-33.691196
-39.179142
-40.957115
-43.382584
-50.351742
-64.146362
-81.672325
-92.752235
-87.443703
-65.314590
-38.135288
-24.383003
-32.573418
-51.248692
-64.814018
-71.106308
-77.430519
-89.384544
-105.861572
-120.547356
-129.713791
-136.748734
-144.871124
-150.311646
-147.832901
-137.927567
-125.101318
-113.440567
-105.442574
-102.558273
-105.752731
-115.999832
-134.624512
-162.020721
-192.743103
-211.794128
-199.641464
-143.284775
-50.560730
45.710033
111.389580
135.813095
130.369385
113.854591
94.524323
63.059971
11.380303
-49.342899
-97.656189
-119.549698
-117.866310
-110.999779
-116.380608
-135.793732
-158.726288
-171.887161
-166.349731
-141.503342
-104.508408
-67.041374
-38.812893
-22.949627
-18.757505
-25.489960
-41.517433
-61.940720
-78.721069
-84.366264
-79.688370
-76.837769
-87.423309
-110.692482
-137.131363
-157.576416
-169.203110
-176.435318
-184.169540
-191.296829
-191.937241
-180.042892
-154.194244
-119.914810
-85.934021
-58.611576
-38.011654
-17.452471
10.252464
46.549259
87.122284
124.312187
149.731827
156.879807
144.182983
117.031715
85.734039
61.212227
49.462269
48.440308
52.297153
57.235699
63.930103
76.694168
98.533203
126.849716
154.671097
174.412567
182.318497
181.173218
178.067047
180.286377
191.201996
207.873581
223.120636
229.343750
222.420074
203.724350
177.603806
148.151764
118.339371
90.249908
65.473953
45.336960
30.929213
22.949120
21.225557
24.345804
30.134193
36.886284
44.970577
56.579483
71.261147
83.008675
85.260643
76.826942
61.592411
44.971943
29.642521
13.992128
-3.349739
-19.796906
-32.329163
-41.490196
-49.286549
-56.015820
-61.146172
-65.466911
-71.391815
-81.746170
-97.512993
-116.807526
-137.286957
-158.175583
-178.351410
-194.357956
-202.290131
-200.365448
-188.997253
-169.972076
-146.065887
-120.652176
-96.499016
-74.666138
-54.793388
-36.112492
-18.668282
-3.752825
7.496033
15.207736
19.573654
19.480042
13.280108
0.412078
-17.375513
-35.726128
-49.365040
-54.493435
-50.756668
-41.621876
-31.321890
-21.839895
-13.334108
-5.923970
-0.867784
0.006927
-2.356359
-2.306385
6.388954
25.579914
52.131981
79.850906
103.070061
119.636047
131.185867
142.114624
157.260742
178.966782
204.365936
225.307327
234.479797
230.971069
218.124222
198.716156
172.065109
134.596619
85.881866
33.493370
-10.469390
-35.732616
-38.695438
-24.386349
-2.742178
17.017488
31.190264
43.128941
57.772308
75.985184
95.079605
111.865715
125.220512
136.669037
147.624008
157.286377
164.620193
170.034393
172.735275
168.587784
153.840134
129.580704
101.198586
74.935623
53.368599
33.766502
13.601512
-4.396703
-15.325594
-17.577600
-14.987634
-15.225779
-23.269543
-36.219597
-46.156715
-45.808987
-32.891720
-11.549225
11.404090
30.554926
42.368778
44.544422
36.197136
18.166555
-7.808103
-40.219452
-78.137413
-120.636734
-165.045258
-205.908585
-236.944733
-253.745041
-255.267776
-244.202881
-225.532227
-204.257019
-182.914856
-160.631363
-136.070068
-110.416023
-86.646103
-67.480904
-54.247433
-47.221260
-47.742798
-58.911701
-81.639412
-111.206078
-139.917114
-161.474701
-173.054306
-175.267654
-169.880569
-158.137711
-141.859406
-124.230133
-107.321411
-89.730057
-68.249870
-40.900734
-8.744887
24.119400
53.519291
78.097328
99.213997
119.380737
139.801193
157.963074
166.832092
156.820908
123.126572
72.255150
19.878267
-16.705587
-29.875996
-28.167973
-26.978823
-35.484192
-50.699181
-59.438709
-51.200878
-28.654758
-2.325700
19.384651
35.172638
50.041599
67.377525
83.245186
91.640167
90.924919
82.452255
67.025101
44.928234
18.073723
-7.978479
-24.629545
-26.137182
-14.199524
5.631501
28.877537
52.389278
73.217430
89.350357
101.013489
110.406776
120.169586
130.948257
140.420303
146.342270
149.265427
150.629318
150.023895
145.379852
134.612610
117.419937
96.222313
75.133492
58.474827
49.775883
50.992966
61.782421
79.154572
98.458549
115.015503
126.098907
132.467102
137.883286
146.886841
160.358307
172.404633
173.283920
154.883713
116.092712
65.061790
13.878621
-28.181082
-57.492832
-75.649017
-85.304115
-86.838722
-79.972832
-66.555046
-50.975559
-38.575588
-32.249352
-30.341623
-29.298737
-27.269012
-25.214178
-26.191305
-32.778645
-44.621780
-58.089340
-67.614822
-69.141396
-62.930809
-52.643524
-42.843906
-36.456718
-33.697929
-34.157391
-38.693420
-48.094311
-61.202290
-75.175407
-86.662117
-92.896362
-92.548920
-86.235886
-76.610962
-67.381500
-61.836761
-61.381424
-64.967186
-70.649376
-77.099472
-83.266411
-88.021873
-91.413147
-95.505074
-102.322510
-111.335609
-119.294197
-121.952484
-117.572227
-108.958755
-100.430389
-94.199951
-90.275620
-87.831955
-86.301216
-85.623383
-85.293274
-83.596352
-78.494675
-69.241974
-57.846630
-49.390514
-49.396252
-60.260445
-78.750526
-95.939674
-102.379829
-93.939575
-73.816231
-51.344154
-36.379974
-33.449287
-39.864731
-47.446014
-49.130054
-44.406399
-37.297867
-31.936295
-29.789089
-29.258930
-28.476208
-27.315948
-25.313074
-19.768915
-8.334729
7.919363
25.189550
39.071213
46.188541
45.038845
35.853294
20.324945
1.504204
-16.575989
-30.185602
-37.121235
-36.927895
-31.011665
-22.999289
-18.101807
-19.864141
-27.602253
-38.166481
-48.477455
-55.876427
-58.027710
-54.212517
-46.722118
-40.067963
-38.257626
-40.549648
-40.252762
-31.913961
-17.839882
-4.518002
3.906133
8.384631
13.844341
23.626040
35.525780
45.338848
51.670654
56.369579
62.878567
74.169479
90.962212
110.770859
128.261932
138.415039
139.792084
134.942673
128.710052
124.473579
121.641495
117.906517
112.256088
105.215866
97.861115
90.891930
84.179893
76.974686
68.172432
56.459358
40.827507
21.859329
2.191127
-15.698444
-31.492207
-45.758709
-57.724834
-64.631943
-63.132439
-53.228062
-40.336670
-30.475885
-24.735544
-19.456308
-9.854084
4.498205
16.896280
18.857569
6.974412
-14.979044
-37.935963
-54.055397
-62.144432
-66.091202
-70.495918
-76.698059
-81.678123
-82.603165
-80.711815
-78.516495
-75.715370
-69.261574
-56.066940
-36.794029
-17.110859
-2.523503
6.375064
11.625668
14.189695
14.097024
12.383493
12.340339
18.714844
33.490128
52.786030
69.836266
79.342239
79.205284
70.751549
58.050289
46.855167
42.581886
47.809200
60.205196
72.452690
76.895393
70.392456
54.777771
34.814903
14.642306
-4.428089
-21.931171
-35.783688
-42.741173
-40.250492
-28.373590
-10.653075
7.536035
21.251991
27.494476
25.949434
18.450684
7.755316
-4.235120
-17.558348
-32.902985
-49.662697
-64.903160
-73.639946
-71.375183
-56.656799
-31.499395
-0.632452
30.163137
55.654839
72.193588
78.740997
77.757423
74.608627
73.421204
73.422523
70.593674
61.902367
49.618507
41.981190
45.479401
57.505241
68.726440
69.904007
59.000015
44.074356
36.052135
39.875633
51.859516
61.999660
61.851547
51.144920
36.217941
25.119793
22.611748
27.543922
35.429100
41.721809
42.621086
35.450893
20.479494
2.203058
-12.913174
-19.837801
-17.374628
-8.960008
-0.447128
2.779693
-2.056613
-13.457405
-25.281088
-28.880114
-19.975971
-3.806580
9.178397
10.498687
-1.905091
-22.876490
-44.880444
-62.848652
-74.410446
-78.720329
-76.263069
-68.783607
-58.146061
-45.641392
-33.233624
-23.970594
-18.767771
-13.901097
-4.251137
12.035502
31.945435
49.063419
58.550442
60.146557
54.085583
37.624290
9.618432
-24.418295
-55.091011
-74.914574
-82.348122
-82.108604
-79.182426
-73.761833
-63.986401
-50.297314
-35.713982
-24.010393
-17.585295
-16.315147
-18.552320
-22.529270
-26.960896
-31.284580
-35.708771
-40.767071
-45.907505
-48.773979
-47.159096
-41.187466
-33.089775
-25.503750
-19.092911
-11.717191
-1.671308
9.190193
16.788376
17.920309
12.811052
5.887171
2.820924
6.727489
16.162386
25.578815
30.049280
29.897921
30.454943
38.494968
56.041466
77.022957
93.178757
101.256714
103.828110
106.038612
109.762207
110.360710
101.624336
81.885811
54.741566
26.482437
1.480299
-20.820642
-43.455891
-68.042694
-92.670303
-111.735031
-118.707993
-109.446632
-84.283218
-48.797112
-12.019481
16.638363
31.324720
32.537907
25.675976
17.527876
11.884898
6.982509
-1.705039
-17.397114
-39.972420
-65.839462
-90.185852
-109.133598
-119.926674
-120.702904
-111.099258
-92.861023
-69.237907
-43.915043
-20.140308
-0.320485
13.601976
19.889391
17.816462
8.896771
-2.472759
-9.882309
-8.958124
-1.312055
5.823041
3.449360
-11.716018
-32.704281
-48.581234
-52.978558
-46.956394
-37.209484
