EVENT_NAME: L_AQUILA
EVENT_ID: IT-2009-0009
EVENT_DATE_YYYYMMDD: 20090406
EVENT_TIME_HHMMSS: 013240
EVENT_LATITUDE_DEGREE: 42.3420
EVENT_LONGITUDE_DEGREE: 13.3800
EVENT_DEPTH_KM: 8.3
HYPOCENTER_REFERENCE: INGV-CNT_Seismic_Bulletin
MAGNITUDE_W: 6.3
MAGNITUDE_W_REFERENCE: RCMT-INGV
MAGNITUDE_L: 5.9
MAGNITUDE_L_REFERENCE: INGV-CNT_Seismic_Bulletin
FOCAL_MECHANISM: NF
NETWORK: MN
STATION_CODE: AQU
STATION_NAME: AQUILA CASTELLO
STATION_LATITUDE_DEGREE: 42.353880
STATION_LONGITUDE_DEGREE: 13.401930
STATION_ELEVATION_M: 729
LOCATION: 
SENSOR_DEPTH_M: 15.0
VS30_M/S: 
SITE_CLASSIFICATION_EC8: C*
MORPHOLOGIC_CLASSIFICATION: 
EPICENTRAL_DISTANCE_KM: 2.2
EARTHQUAKE_BACKAZIMUTH_DEGREE: 233.9
DATE_TIME_FIRST_SAMPLE_YYYYMMDD_HHMMSS: 20090406_013225.000
DATE_TIME_FIRST_SAMPLE_PRECISION: milliseconds
SAMPLING_INTERVAL_S: 0.005000
NDATA: 105
DURATION_S: 
STREAM: HLN
UNITS: cm/s^2
INSTRUMENT: sensor = Unknown [Unknown] | digitizer = Unknown [Unknown]
INSTRUMENT_ANALOG/DIGITAL: D
INSTRUMENTAL_FREQUENCY_HZ: 
INSTRUMENTAL_DAMPING: 
FULL_SCALE_G: 
N_BIT_DIGITAL_CONVERTER: 
PGV_CM/S: -29.134011
TIME_PGV_S: 18.705000
BASELINE_CORRECTION: BASELINE REMOVED
FILTER_TYPE: BUTTERWORTH
FILTER_ORDER: 2
LOW_CUT_FREQUENCY_HZ: 0.150
HIGH_CUT_FREQUENCY_HZ: 40.000
LATE/NORMAL_TRIGGERED: NT
DATABASE_VERSION: DYNA 1.0
HEADER_FORMAT: DYNA 1.2
DATA_TYPE: PSEUDO-VELOCITY RESPONSE SPECTRUM
PROCESSING: manual (Paolucci et al., 2011)
DATA_TIMESTAMP_YYYYMMDD_HHMMSS: 
DATA_LICENSE: CC-BY4_0 (http://creativecommons.org/licenses/by/4.0/)
DATA_CITATION: ESM working group (2015), European Strong-Motion database, version 0.1, Network Activity 3: Networking acceleration networks and SM data users. Project NERA (www.nera-eu.org)
DATA_CREATOR: ESM working group
ORIGINAL_DATA_MEDIATOR_CITATION: data obtained within the DPC-INGV data exchange agreements
ORIGINAL_DATA_MEDIATOR: Archive of Italian Department of Civil Protection
ORIGINAL_DATA_CREATOR_CITATION: Mediterranean Broad Band Seismographic Network, Istituto Nazionale di Geofisica e Vulcanologia http://mednet.rm.ingv.it
ORIGINAL_DATA_CREATOR: network: MN (Mediterranean Very Broadband Seismographic Network (MNDC)); owner: Istituto Nazionale di Geofisica e Vulcanologia
USER1: 
USER2: 
USER3: 
USER4: 
USER5: 
    0.010000     0.481846
    0.020000     0.978775
    0.022000     1.078722
    0.025000     1.232168
    0.029000     1.561317
    0.030000     1.570809
    0.032000     1.647276
    0.035001     1.867668
    0.036000     1.928375
    0.040000     2.204390
    0.041999     2.375167
    0.044001     2.258765
    0.045000     2.228065
    0.046000     2.359013
    0.048001     2.660682
    0.050000     2.932446
    0.054999     3.952433
    0.059999     4.444629
    0.064998     4.706082
    0.067002     4.883154
    0.069999     5.911794
    0.075002     6.906856
    0.080000     7.763542
    0.084998     7.576604
    0.090001     8.216172
    0.095003     8.344197
    0.100000     8.538477
    0.109999    10.400631
    0.120005    11.530828
    0.130005    14.463367
    0.132996    14.286150
    0.139997    12.131121
    0.149993    10.647731
    0.160000    11.706662
    0.170010    11.654725
    0.179986    10.438022
    0.190006     9.449608
    0.200000     9.093639
    0.220022    10.044124
    0.239981    10.702721
    0.250000    12.061700
    0.260010    12.349413
    0.280034    14.534020
    0.290023    14.773147
    0.300030    15.520806
    0.320000    16.553049
    0.340020    18.217321
    0.350017    18.944939
    0.359971    19.274269
    0.379939    19.434828
    0.400000    23.339594
    0.419992    27.003881
    0.439947    31.163101
    0.450045    33.296833
    0.459982    33.998226
    0.480077    32.112030
    0.500000    30.684235
    0.550055    32.351528
    0.599880    39.738415
    0.650195    48.050140
    0.667111    50.831154
    0.699790    55.951733
    0.750188    62.413788
    0.800000    66.932297
    0.850340    69.265205
    0.900090    69.836922
    0.949668    69.246696
    1.000000    67.917267
    1.100110    65.119270
    1.200480    60.136940
    1.300390    55.344791
    1.400560    51.379883
    1.499250    49.794422
    1.600000    47.769173
    1.700680    45.421425
    1.798561    42.890812
    1.901141    40.275627
    2.000000    37.673096
    2.197802    32.737862
    2.398082    30.300354
    2.500000    29.261829
    2.597403    27.117771
    2.801121    22.438026
    3.003003    20.638039
    3.205128    18.178499
    3.401361    15.757510
    3.496503    14.553156
    3.597122    13.744362
    3.802281    13.232256
    4.000000    12.747624
    4.201681    12.289013
    4.405286    11.857573
    4.608295    11.449096
    4.807692    11.064622
    5.000000    10.699411
    5.494505     9.866386
    5.988024     9.128894
    6.493506     8.473925
    6.993007     7.888782
    7.518797     7.365562
    8.000000     6.896044
    8.474576     6.474244
    9.009009     6.094922
    9.523809     5.753555
   10.000000     5.444628
