EVENT_NAME: L_AQUILA
EVENT_ID: IT-2009-0009
EVENT_DATE_YYYYMMDD: 20090406
EVENT_TIME_HHMMSS: 013240
EVENT_LATITUDE_DEGREE: 42.3420
EVENT_LONGITUDE_DEGREE: 13.3800
EVENT_DEPTH_KM: 8.3
HYPOCENTER_REFERENCE: INGV-CNT_Seismic_Bulletin
MAGNITUDE_W: 6.3
MAGNITUDE_W_REFERENCE: RCMT-INGV
MAGNITUDE_L: 5.9
MAGNITUDE_L_REFERENCE: INGV-CNT_Seismic_Bulletin
FOCAL_MECHANISM: NF
NETWORK: MN
STATION_CODE: AQU
STATION_NAME: AQUILA CASTELLO
STATION_LATITUDE_DEGREE: 42.353880
STATION_LONGITUDE_DEGREE: 13.401930
STATION_ELEVATION_M: 729
LOCATION: 
SENSOR_DEPTH_M: 15.0
VS30_M/S: 
SITE_CLASSIFICATION_EC8: C*
MORPHOLOGIC_CLASSIFICATION: 
EPICENTRAL_DISTANCE_KM: 2.2
EARTHQUAKE_BACKAZIMUTH_DEGREE: 233.9
DATE_TIME_FIRST_SAMPLE_YYYYMMDD_HHMMSS: 20090406_013225.000
DATE_TIME_FIRST_SAMPLE_PRECISION: milliseconds
SAMPLING_INTERVAL_S: 0.005000
NDATA: 18001
DURATION_S: 90.005
STREAM: HLE
UNITS: cm/s
INSTRUMENT: sensor = Unknown [Unknown] | digitizer = Unknown [Unknown]
INSTRUMENT_ANALOG/DIGITAL: D
INSTRUMENTAL_FREQUENCY_HZ: 
INSTRUMENTAL_DAMPING: 
FULL_SCALE_G: 
N_BIT_DIGITAL_CONVERTER: 
PGV_CM/S: -20.948776
TIME_PGV_S: 18.840000
BASELINE_CORRECTION: BASELINE REMOVED
FILTER_TYPE: BUTTERWORTH
FILTER_ORDER: 2
LOW_CUT_FREQUENCY_HZ: 0.150
HIGH_CUT_FREQUENCY_HZ: 40.000
LATE/NORMAL_TRIGGERED: NT
DATABASE_VERSION: DYNA 1.0
HEADER_FORMAT: DYNA 1.2
DATA_TYPE: VELOCITY
PROCESSING: manual (Paolucci et al., 2011)
DATA_TIMESTAMP_YYYYMMDD_HHMMSS: 
DATA_LICENSE: CC-BY4_0 (http://creativecommons.org/licenses/by/4.0/)
DATA_CITATION: ESM working group (2015), European Strong-Motion database, version 0.1, Network Activity 3: Networking acceleration networks and SM data users. Project NERA (www.nera-eu.org)
DATA_CREATOR: ESM working group
ORIGINAL_DATA_MEDIATOR_CITATION: data obtained within the DPC-INGV data exchange agreements
ORIGINAL_DATA_MEDIATOR: Archive of Italian Department of Civil Protection
ORIGINAL_DATA_CREATOR_CITATION: Mediterranean Broad Band Seismographic Network, Istituto Nazionale di Geofisica e Vulcanologia http://mednet.rm.ingv.it
ORIGINAL_DATA_CREATOR: network: MN (Mediterranean Very Broadband Seismographic Network (MNDC)); owner: Istituto Nazionale di Geofisica e Vulcanologia
USER1: 
USER2: 
USER3: 
USER4: 
USER5: 
[...]
-0.025344
-0.025366
-0.025387
-0.025407
-0.025427
-0.025448
-0.025471
-0.025495
-0.025518
-0.025538
-0.025556
-0.025576
-0.025600
-0.025625
-0.025648
-0.025665
-0.025678
-0.025692
-0.025710
-0.025730
-0.025751
-0.025768
-0.025783
-0.025796
-0.025810
-0.025823
-0.025836
-0.025850
-0.025864
-0.025879
-0.025892
-0.025904
-0.025914
-0.025921
-0.025927
-0.025934
-0.025946
-0.025961
-0.025973
-0.025979
-0.025980
-0.025982
-0.025989
-0.025999
-0.026008
-0.026012
-0.026013
-0.026015
-0.026018
-0.026021
-0.026023
-0.026024
-0.026024
-0.026021
-0.026015
-0.026008
-0.026006
-0.026008
-0.026010
-0.026006
-0.025998
-0.025988
-0.025984
-0.025982
-0.025979
-0.025971
-0.025959
-0.025948
-0.025938
-0.025927
-0.025915
-0.025902
-0.025891
-0.025878
-0.025863
-0.025845
-0.025827
-0.025810
-0.025793
-0.025775
-0.025756
-0.025736
-0.025718
-0.025700
-0.025681
-0.025658
-0.025634
-0.025610
-0.025587
-0.025563
-0.025539
-0.025513
-0.025485
-0.025455
-0.025429
-0.025407
-0.025385
-0.025359
-0.025327
-0.025293
-0.025261
-0.025228
-0.025193
-0.025154
-0.025116
-0.025079
-0.025044
-0.025010
-0.024975
-0.024939
-0.024902
-0.024860
-0.024815
-0.024769
-0.024722
-0.024675
-0.024626
-0.024575
-0.024523
-0.024472
-0.024420
-0.024367
-0.024316
-0.024267
-0.024216
-0.024162
-0.024105
-0.024051
-0.024001
-0.023952
-0.023896
-0.023833
-0.023769
-0.023708
-0.023649
-0.023588
-0.023524
-0.023458
-0.023393
-0.023327
-0.023258
-0.023186
-0.023118
-0.023054
-0.022989
-0.022915
-0.022836
-0.022756
-0.022681
-0.022608
-0.022530
-0.022446
-0.022361
-0.022281
-0.022203
-0.022120
-0.022031
-0.021940
-0.021852
-0.021766
-0.021676
-0.021582
-0.021487
-0.021395
-0.021304
-0.021211
-0.021117
-0.021023
-0.020928
-0.020830
-0.020729
-0.020627
-0.020527
-0.020429
-0.020326
-0.020216
-0.020103
-0.019989
-0.019880
-0.019771
-0.019662
-0.019549
-0.019435
-0.019319
-0.019201
-0.019081
-0.018959
-0.018837
-0.018714
-0.018589
-0.018464
-0.018339
-0.018216
-0.018092
-0.017963
-0.017829
-0.017693
-0.017559
-0.017430
-0.017301
-0.017168
-0.017031
-0.016891
-0.016750
-0.016608
-0.016465
-0.016320
-0.016174
-0.016027
-0.015879
-0.015730
-0.015582
-0.015433
-0.015281
-0.015126
-0.014968
-0.014809
-0.014650
-0.014490
-0.014328
-0.014164
-0.013998
-0.013834
-0.013670
-0.013506
-0.013337
-0.013164
-0.012987
-0.012809
-0.012632
-0.012455
-0.012279
-0.012101
-0.011919
-0.011734
-0.011547
-0.011358
-0.011169
-0.010980
-0.010790
-0.010597
-0.010403
-0.010208
-0.010013
-0.009815
-0.009613
-0.009409
-0.009204
-0.009001
-0.008799
-0.008594
-0.008383
-0.008170
-0.007955
-0.007740
-0.007526
-0.007312
-0.007097
-0.006879
-0.006657
-0.006431
-0.006204
-0.005977
-0.005746
-0.005511
-0.005275
-0.005041
-0.004810
-0.004578
-0.004342
-0.004102
-0.003859
-0.003616
-0.003371
-0.003122
-0.002870
-0.002617
-0.002364
-0.002109
-0.001850
-0.001589
-0.001330
-0.001073
-0.000812
-0.000546
-0.000276
-0.000006
0.000261
0.000527
0.000796
0.001071
0.001350
0.001629
0.001909
0.002192
0.002478
0.002768
0.003059
0.003352
0.003646
0.003940
0.004234
0.004529
0.004827
0.005132
0.005440
0.005747
0.006053
0.006359
0.006669
0.006982
0.007296
0.007610
0.007926
0.008248
0.008575
0.008905
0.009233
0.009562
0.009890
0.010220
0.010554
0.010891
0.011234
0.011580
0.011928
0.012275
0.012622
0.012969
0.013319
0.013672
0.014027
0.014381
0.014736
0.015094
0.015458
0.015824
0.016191
0.016558
0.016929
0.017305
0.017687
0.018070
0.018453
0.018836
0.019221
0.019607
0.019993
0.020380
0.020771
0.021168
0.021570
0.021974
0.022377
0.022779
0.023181
0.023587
0.023999
0.024414
0.024831
0.025246
0.025663
0.026086
0.026515
0.026946
0.027375
0.027806
0.028240
0.028678
0.029119
0.029559
0.029999
0.030443
0.030892
0.031344
0.031795
0.032247
0.032701
0.033158
0.033618
0.034082
0.034548
0.035018
0.035490
0.035962
0.036436
0.036911
0.037389
0.037869
0.038352
0.038838
0.039329
0.039823
0.040319
0.040814
0.041310
0.041812
0.042320
0.042832
0.043346
0.043859
0.044372
0.044889
0.045408
0.045928
0.046451
0.046977
0.047505
0.048034
0.048565
0.049102
0.049644
0.050188
0.050731
0.051273
0.051820
0.052375
0.052938
0.053500
0.054059
0.054617
0.055177
0.055740
0.056305
0.056872
0.057440
0.058012
0.058591
0.059174
0.059760
0.060347
0.060935
0.061525
0.062119
0.062715
0.063312
0.063912
0.064515
0.065123
0.065736
0.066351
0.066968
0.067587
0.068207
0.068830
0.069455
0.070083
0.070715
0.071350
0.071987
0.072626
0.073266
0.073907
0.074552
0.075202
0.075856
0.076514
0.077173
0.077831
0.078489
0.079150
0.079815
0.080485
0.081160
0.081837
0.082516
0.083198
0.083884
0.084574
0.085269
0.085965
0.086661
0.087358
0.088057
0.088758
0.089464
0.090172
0.090885
0.091599
0.092315
0.093033
0.093754
0.094481
0.095213
0.095947
0.096682
0.097416
0.098150
0.098885
0.099623
0.100366
0.101117
0.101873
0.102630
0.103387
0.104144
0.104906
0.105673
0.106443
0.107213
0.107984
0.108758
0.109537
0.110317
0.111098
0.111879
0.112663
0.113454
0.114250
0.115050
0.115853
0.116658
0.117464
0.118273
0.119087
0.119904
0.120723
0.121542
0.122363
0.123186
0.124015
0.124849
0.125686
0.126526
0.127367
0.128208
0.129050
0.129894
0.130743
0.131594
0.132449
0.133305
0.134164
0.135028
0.135896
0.136768
0.137642
0.138515
0.139389
0.140264
0.141146
0.142036
0.142932
0.143828
0.144724
0.145619
0.146517
0.147419
0.148326
0.149237
0.150150
0.151066
0.151984
0.152905
0.153829
0.154756
0.155686
0.156621
0.157560
0.158499
0.159435
0.160369
0.161305
0.162250
0.163202
0.164158
0.165112
0.166066
0.167024
0.167990
0.168958
0.169924
0.170890
0.171859
0.172834
0.173814
0.174793
0.175773
0.176757
0.177747
0.178741
0.179738
0.180735
0.181734
0.182736
0.183740
0.184747
0.185757
0.186770
0.187783
0.188799
0.189817
0.190841
0.191869
0.192899
0.193929
0.194961
0.195996
0.197035
0.198075
0.199117
0.200161
0.201208
0.202258
0.203312
0.204370
0.205431
0.206494
0.207558
0.208622
0.209689
0.210760
0.211833
0.212909
0.213988
0.215072
0.216158
0.217245
0.218331
0.219419
0.220512
0.221609
0.222706
0.223802
0.224900
0.226000
0.227104
0.228211
0.229321
0.230436
0.231554
0.232674
0.233795
0.234917
0.236041
0.237166
0.238292
0.239419
0.240547
0.241680
0.242817
0.243960
0.245106
0.246252
0.247396
0.248540
0.249685
0.250835
0.251989
0.253145
0.254304
0.255464
0.256626
0.257790
0.258955
0.260121
0.261290
0.262463
0.263638
0.264815
0.265993
0.267174
0.268361
0.269551
0.270741
0.271929
0.273114
0.274299
0.275489
0.276684
0.277884
0.279087
0.280292
0.281497
0.282700
0.283902
0.285107
0.286316
0.287526
0.288737
0.289951
0.291170
0.292391
0.293613
0.294833
0.296053
0.297276
0.298501
0.299729
0.300956
0.302182
0.303411
0.304643
0.305881
0.307121
0.308361
0.309597
0.310832
0.312068
0.313309
0.314555
0.315801
0.317044
0.318287
0.319535
0.320789
0.322046
0.323301
0.324553
0.325805
0.327062
0.328321
0.329578
0.330830
0.332083
0.333342
0.334605
0.335869
0.337130
0.338392
0.339656
0.340922
0.342188
0.343453
0.344720
0.345992
0.347264
0.348534
0.349801
0.351068
0.352338
0.353610
0.354883
0.356156
0.357433
0.358713
0.359990
0.361263
0.362538
0.363816
0.365097
0.366377
0.367653
0.368927
0.370204
0.371483
0.372762
0.374039
0.375315
0.376593
0.377873
0.379153
0.380433
0.381714
0.382997
0.384278
0.385557
0.386833
0.388108
0.389385
0.390662
0.391939
0.393216
0.394494
0.395773
0.397052
0.398329
0.399605
0.400881
0.402157
0.403433
0.404708
0.405981
0.407256
0.408532
0.409809
0.411083
0.412354
0.413621
0.414886
0.416152
0.417420
0.418691
0.419961
0.421225
0.422483
0.423737
0.424994
0.426257
0.427525
0.428790
0.430049
0.431302
0.432554
0.433808
0.435063
0.436315
0.437562
0.438805
0.440051
0.441301
0.442552
0.443798
0.445035
0.446265
0.447495
0.448727
0.449961
0.451193
0.452423
0.453652
0.454880
0.456106
0.457329
0.458549
0.459767
0.460980
0.462191
0.463402
0.464615
0.465824
0.467018
0.468182
0.469312
0.470426
0.471578
0.472852
0.474339
0.476060
0.477859
0.479398
0.480294
0.480415
0.480139
0.480210
0.481185
0.482912
0.484446
0.484704
0.483501
0.481711
0.480413
0.480021
0.480052
0.479908
0.480014
0.481537
0.484859
0.488967
0.492302
0.494038
0.494848
0.496221
0.498826
0.501948
0.504268
0.504755
0.503215
0.500516
0.498318
0.497912
0.498861
0.499490
0.499008
0.498539
0.500133
0.504672
0.510369
0.514383
0.516170
0.517325
0.518090
0.516277
0.509831
0.499595
0.489882
0.485453
0.487017
0.491023
0.493647
0.493112
0.488993
0.481262
0.470504
0.459082
0.451823
0.453817
0.466374
0.485897
0.506441
0.522697
0.531595
0.531755
0.522045
0.502283
0.475732
0.449519
0.431934
0.428595
0.439691
0.461236
0.489051
0.519991
0.549737
0.571402
0.577310
0.564107
0.537658
0.510034
0.490145
0.479452
0.475334
0.476094
0.482904
0.495506
0.506176
0.503963
0.486995
0.465618
0.453252
0.456025
0.468297
0.478218
0.479046
0.473049
0.466336
0.463174
0.463517
0.464005
0.461538
0.457208
0.457489
0.468249
0.485593
0.497209
0.493927
0.476799
0.454830
0.437785
0.429925
0.431826
0.446417
0.475741
0.511387
0.537723
0.546953
0.543873
0.536411
0.526646
0.509949
0.482820
0.452442
0.433261
0.432610
0.444196
0.453744
0.448055
0.422677
0.385596
0.355523
0.352862
0.386398
0.446268
0.506059
0.531656
0.495437
0.392524
0.251904
0.126573
0.063682
0.076733
0.135159
0.185192
0.190908
0.154623
0.106371
0.078250
0.079023
0.089755
0.081678
0.039770
-0.020900
-0.061701
-0.046814
0.033163
0.150921
0.251271
0.277464
0.202986
0.053963
-0.103924
-0.210092
-0.245147
-0.235379
-0.215730
-0.179355
-0.085644
0.077487
0.259922
0.372119
0.340940
0.162950
-0.099327
-0.370296
-0.597049
-0.752890
-0.835319
-0.866908
-0.886687
-0.929430
-1.007474
-1.107536
-1.212641
-1.333628
-1.505092
-1.746429
-2.036854
-2.324029
-2.558893
-2.732621
-2.871882
-3.000230
-3.122505
-3.239199
-3.351687
-3.449537
-3.505180
-3.490358
-3.410358
-3.327148
-3.317654
-3.394086
-3.499643
-3.582791
-3.641760
-3.704643
-3.782123
-3.834662
-3.801553
-3.668210
-3.478364
-3.286267
-3.127524
-3.028294
-3.015658
-3.110245
-3.305362
-3.551181
-3.776194
-3.937150
-4.043321
-4.139451
-4.266903
-4.426586
-4.578362
-4.674539
-4.689913
-4.632584
-4.534083
-4.426883
-4.328344
-4.238267
-4.150391
-4.070781
-4.024920
-4.048051
-4.164033
-4.362897
-4.596606
-4.793570
-4.877863
-4.791963
-4.528066
-4.154248
-3.793953
-3.559430
-3.492234
-3.547121
-3.645938
-3.764717
-3.944056
-4.216991
-4.551515
-4.850037
-5.002631
-4.960410
-4.759110
-4.485796
-4.235043
-4.077251
-4.046943
-4.145828
-4.347868
-4.603546
-4.848981
-5.025346
-5.107385
-5.121051
-5.111232
-5.082121
-4.999684
-4.856080
-4.702438
-4.619018
-4.653769
-4.772479
-4.882264
-4.912031
-4.854564
-4.748559
-4.643173
-4.571112
-4.544727
-4.570607
-4.661799
-4.833887
-5.078124
-5.335633
-5.528924
-5.633507
-5.693123
-5.766239
-5.875782
-5.997274
-6.088364
-6.131860
-6.135627
-6.098813
-6.013183
-5.898714
-5.804028
-5.766109
-5.789352
-5.857098
-5.942978
-6.011424
-6.020767
-5.935637
-5.742689
-5.457222
-5.104140
-4.689714
-4.214800
-3.720920
-3.296817
-3.031067
-2.956182
-3.017896
-3.100964
-3.098930
-2.966581
-2.728305
-2.440477
-2.136911
-1.822921
-1.515562
-1.261352
-1.109424
-1.066479
-1.071414
-1.040037
-0.950165
-0.851836
-0.795132
-0.775968
-0.740426
-0.632493
-0.443643
-0.196771
0.115536
0.533561
1.066882
1.659067
2.218398
2.693017
3.136999
3.673587
4.375332
5.200703
6.026485
6.726301
7.244563
7.603320
7.850916
8.025150
8.151493
8.254699
8.367721
8.527246
8.757834
9.058114
9.399413
9.746661
10.090460
10.453710
10.867990
11.345880
11.864640
12.371290
12.802710
13.101300
13.226130
13.172370
12.990250
12.769170
12.590580
12.496530
12.489560
12.552240
12.668390
12.822070
12.983830
13.123320
13.242400
13.376510
13.558000
13.785750
14.025320
14.244250
14.453570
14.691580
14.963010
15.224620
15.430160
15.568870
15.666180
15.748400
15.801650
15.783770
15.678020
15.509570
15.313670
15.108880
14.891970
14.640210
14.319480
13.911120
13.447360
13.010140
12.683570
12.492890
12.370970
12.208110
11.951860
11.627790
11.272260
10.885110
10.438190
9.908879
9.306142
8.657573
7.973830
7.249474
6.497916
5.758751
5.069114
4.443607
3.876404
3.349191
2.836400
2.307636
1.727637
1.054515
0.244411
-0.719305
-1.778275
-2.776483
-3.492906
-3.745710
-3.517160
-2.960212
-2.281147
-1.629300
-1.060027
-0.587405
-0.272105
-0.215204
-0.461918
-0.950199
-1.547948
-2.137279
-2.692278
-3.274181
-3.953150
-4.746781
-5.606217
-6.437966
-7.145482
-7.668024
-8.003231
-8.197296
-8.312044
-8.405831
-8.533281
-8.740868
-9.050572
-9.444177
-9.866009
-10.264450
-10.648640
-11.085760
-11.639220
-12.324880
-13.112760
-13.958770
-14.840950
-15.761800
-16.718281
-17.677971
-18.578180
-19.349150
-19.948730
-20.378401
-20.671459
-20.861509
-20.948780
-20.897511
-20.664770
-20.229160
-19.607590
-18.858940
-18.074539
-17.353621
-16.768459
-16.339790
-16.033730
-15.786420
-15.544220
-15.282730
-14.996550
-14.676900
-14.293430
-13.800770
-13.166520
-12.393160
-11.521100
-10.609510
-9.703642
-8.813306
-7.911874
-6.955865
-5.916497
-4.800893
-3.654175
-2.542074
-1.523453
-0.635434
0.105325
0.697022
1.148272
1.475641
1.702326
1.856972
1.971718
2.077846
2.199575
2.350246
2.534677
2.759530
3.042427
3.398733
3.813776
4.240080
4.624214
4.932176
5.157036
5.305249
5.375209
5.358461
5.259476
5.097830
4.890379
4.643947
4.363868
4.058137
3.730802
3.373843
2.965112
2.477547
1.893510
1.207075
0.416197
-0.475560
-1.447350
-2.458801
-3.460628
-4.405614
-5.255475
-5.985804
-6.589065
-7.071560
-7.444891
-7.718858
-7.899420
-7.992761
-8.011526
-7.974045
-7.898007
-7.800138
-7.702738
-7.636338
-7.634277
-7.721155
-7.899785
-8.146611
-8.419078
-8.672861
-8.880971
-9.037580
-9.146779
-9.213450
-9.243070
-9.247409
-9.247374
-9.259156
-9.270688
-9.238743
-9.110844
-8.850184
-8.450929
-7.935579
-7.337399
-6.681469
-5.970896
-5.184592
-4.289758
-3.267929
-2.141392
-0.968993
0.185862
1.276483
2.270064
3.130390
3.803373
4.232782
4.400249
4.347902
4.169239
3.975762
3.853830
3.840119
3.925206
4.081158
4.296802
4.585664
4.965590
5.440988
6.000316
6.626419
7.309764
8.047884
8.834316
9.657417
10.507590
11.371270
12.214200
12.983410
13.631310
14.137300
14.511980
14.778820
14.947660
15.015660
14.993680
14.917050
14.829160
14.754230
14.678100
14.561750
14.380650
14.149870
13.920820
13.756360
13.698620
13.755640
13.908410
14.120260
14.342980
14.523960
14.614800
14.575760
14.374660
13.983970
13.380790
12.555560
11.526020
10.341300
9.072570
7.796231
6.575217
5.447556
4.426271
3.511696
2.708540
2.028189
1.476109
1.042879
0.705474
0.434237
0.198131
-0.040583
-0.335142
-0.743339
-1.299369
-1.998955
-2.806328
-3.671600
-4.547938
-5.397341
-6.188030
-6.897327
-7.518477
-8.055084
-8.503735
-8.844984
-9.049488
-9.093212
-8.972615
-8.705019
-8.314532
-7.818462
-7.221558
-6.522552
-5.732737
-4.898576
-4.114472
-3.498839
-3.137563
-3.038172
-3.121700
-3.271080
-3.411920
-3.546814
-3.724235
-3.977731
-4.274924
-4.530929
-4.674202
-4.685831
-4.588908
-4.413045
-4.162837
-3.825949
-3.409723
-2.951522
-2.496898
-2.084636
-1.749511
-1.524870
-1.434501
-1.474393
-1.597541
-1.728227
-1.799225
-1.771067
-1.626680
-1.364733
-0.998646
-0.551894
-0.046827
0.505207
1.106055
1.760796
2.462898
3.194609
3.940936
4.694083
5.444202
6.171102
6.844165
7.431264
7.912376
8.288043
8.580418
8.829297
9.084262
9.393174
9.788947
10.281240
10.856320
11.486810
12.149150
12.838560
13.573000
14.374790
15.236810
16.103230
16.877649
17.458111
17.783421
17.852819
17.711910
17.424450
17.046200
16.619680
16.185490
15.785620
15.452850
15.197970
15.005090
14.843850
14.692140
14.545640
14.409300
14.283230
14.152270
13.988380
13.765270
13.474820
13.136750
12.791040
12.476390
12.213170
11.998950
11.816670
11.648180
11.477390
11.283920
11.043450
10.737440
10.361560
9.928252
9.463770
9.001026
8.569846
8.186791
7.849884
7.540700
7.233793
6.908957
6.555710
6.170213
5.753881
5.313771
4.856706
4.379180
3.867568
3.310890
2.714419
2.104656
1.516795
0.972001
0.469849
-0.001150
-0.452528
-0.891688
-1.323194
-1.751311
-2.177778
-2.595759
-2.988233
-3.334443
-3.623676
-3.870628
-4.117610
-4.418912
-4.812664
-5.292363
-5.804262
-6.273960
-6.643041
-6.899762
-7.081662
-7.248908
-7.448232
-7.685462
-7.931112
-8.153144
-8.339633
-8.499315
-8.648260
-8.794555
-8.936936
-9.073516
-9.200081
-9.298926
-9.340599
-9.301003
-9.175055
-8.979699
-8.748756
-8.523562
-8.344295
-8.242671
-8.235150
-8.318029
-8.468957
-8.654564
-8.839203
-8.994261
-9.109258
-9.199767
-9.299088
-9.437099
-9.627931
-9.870319
-10.149700
-10.439840
-10.710900
-10.944510
-11.144850
-11.336140
-11.538890
-11.740150
-11.899720
-11.988920
-12.011510
-11.991980
-11.950060
-11.880840
-11.762710
-11.585080
-11.358380
-11.100030
-10.818180
-10.503790
-10.132940
-9.678130
-9.124276
-8.482966
-7.790891
-7.091931
-6.417217
-5.773667
-5.151299
-4.543092
-3.953559
-3.392279
-2.866199
-2.376894
-1.922434
-1.501535
-1.116661
-0.775799
-0.493502
-0.289365
-0.180068
-0.169113
-0.247605
-0.405066
-0.633859
-0.922484
-1.245643
-1.561305
-1.827446
-2.029129
-2.181508
-2.305186
-2.402468
-2.451738
-2.429247
-2.344766
-2.250478
-2.215606
-2.290501
-2.480181
-2.750458
-3.061180
-3.391636
-3.744116
-4.127606
-4.535997
-4.949012
-5.352571
-5.745154
-6.123731
-6.470039
-6.750373
-6.934343
-7.019898
-7.032515
-7.000640
-6.942512
-6.871563
-6.801078
-6.739161
-6.677459
-6.583885
-6.416434
-6.152504
-5.803323
-5.406611
-5.010585
-4.656827
-4.366576
-4.132300
-3.919390
-3.680344
-3.379318
-3.017055
-2.632578
-2.280616
-2.006727
-1.832652
-1.759441
-1.781581
-1.891237
-2.070156
-2.283861
-2.485114
-2.626982
-2.680247
-2.642567
-2.536307
-2.398835
-2.269088
-2.176834
-2.138058
-2.159233
-2.247025
-2.411540
-2.659853
-2.984369
-3.352569
-3.709445
-3.992729
-4.150226
-4.153388
-4.002572
-3.724298
-3.363330
-2.969625
-2.580838
-2.207795
-1.840689
-1.473576
-1.120608
-0.811096
-0.563003
-0.353098
-0.125701
0.161826
0.505458
0.854978
1.149978
1.370350
1.550610
1.749989
2.009286
2.319284
2.628542
2.884267
3.065356
3.190955
3.304014
3.441734
3.618879
3.827488
4.040594
4.217848
4.320246
4.331261
4.266695
4.167506
4.080633
4.035833
4.033597
4.047496
4.037213
