EVENT_NAME: EMILIA_2ND_SHOCK
EVENT_ID: IT-2012-0011
EVENT_DATE_YYYYMMDD: 20120529
EVENT_TIME_HHMMSS: 070002
EVENT_LATITUDE_DEGREE: 44.8417
EVENT_LONGITUDE_DEGREE: 11.0657
EVENT_DEPTH_KM: 8.1
HYPOCENTER_REFERENCE: INGV-CNT_Seismic_Bulletin
MAGNITUDE_W: 6.0
MAGNITUDE_W_REFERENCE: RCMT-INGV
MAGNITUDE_L: 5.8
MAGNITUDE_L_REFERENCE: INGV-CNT_Seismic_Bulletin
FOCAL_MECHANISM: TF
NETWORK: TV
STATION_CODE: CAS05
STATION_NAME: SAN CARLO
STATION_LATITUDE_DEGREE: 44.802222
STATION_LONGITUDE_DEGREE: 11.409715
STATION_ELEVATION_M: 
LOCATION: 
SENSOR_DEPTH_M: 
VS30_M/S: 
SITE_CLASSIFICATION_EC8: C*
MORPHOLOGIC_CLASSIFICATION: 
EPICENTRAL_DISTANCE_KM: 27.6
EARTHQUAKE_BACKAZIMUTH_DEGREE: 279.3
DATE_TIME_FIRST_SAMPLE_YYYYMMDD_HHMMSS: 20120529_065939.000
DATE_TIME_FIRST_SAMPLE_PRECISION: milliseconds
SAMPLING_INTERVAL_S: 0.005000
NDATA: 30001
DURATION_S: 150.005
STREAM: HNE
UNITS: cm
INSTRUMENT: sensor = Episensor FBA ES-T [Kinemetrics] | digitizer = Unknown [Unknown]
INSTRUMENT_ANALOG/DIGITAL: D
INSTRUMENTAL_FREQUENCY_HZ: 
INSTRUMENTAL_DAMPING: 
FULL_SCALE_G: 
N_BIT_DIGITAL_CONVERTER: 
PGD_CM: 1.937143
TIME_PGD_S: 52.495000
BASELINE_CORRECTION: BASELINE REMOVED
FILTER_TYPE: BUTTERWORTH
FILTER_ORDER: 2
LOW_CUT_FREQUENCY_HZ: 0.060
HIGH_CUT_FREQUENCY_HZ: 40.000
LATE/NORMAL_TRIGGERED: NT
DATABASE_VERSION: DYNA 1.0
HEADER_FORMAT: DYNA 1.2
DATA_TYPE: DISPLACEMENT
PROCESSING: manual (Paolucci et al., 2011)
DATA_TIMESTAMP_YYYYMMDD_HHMMSS: 
DATA_LICENSE: CC-BY4_0 (http://creativecommons.org/licenses/by/4.0/)
DATA_CITATION: ESM working group (2015), European Strong-Motion database, version 0.1, Network Activity 3: Networking acceleration networks and SM data users. Project NERA (www.nera-eu.org)
DATA_CREATOR: ESM working group
ORIGINAL_DATA_MEDIATOR_CITATION: Orfeus - European Integrated Data Archive (EIDA) http://www.orfeus-eu.org/eida/
ORIGINAL_DATA_MEDIATOR: Orfeus - European Integrated Data Archive (EIDA)
ORIGINAL_DATA_CREATOR_CITATION: 
ORIGINAL_DATA_CREATOR: network: TV (INGV Experiments Network); owner: Istituto Nazionale di Geofisica e Vulcanologia
USER1: 
USER2: 
USER3: 
USER4: 
USER5: 
[...]
4.527301e-02
4.122679e-02
3.717028e-02
3.309870e-02
2.900980e-02
2.490374e-02
2.078182e-02
1.664491e-02
1.249258e-02
8.322600e-03
4.130616e-03
-8.989436e-05
-4.347413e-03
-8.651994e-03
-1.301498e-02
-1.744929e-02
-2.197037e-02
-2.659716e-02
-3.135208e-02
-3.625995e-02
-4.134635e-02
-4.663631e-02
-5.215313e-02
-5.791699e-02
-6.394320e-02
-7.024015e-02
-7.680760e-02
-8.363531e-02
-9.070248e-02
-9.797817e-02
-1.054228e-01
-1.129913e-01
-1.206380e-01
-1.283217e-01
-1.360093e-01
-1.436780e-01
-1.513163e-01
-1.589243e-01
-1.665134e-01
-1.741034e-01
-1.817204e-01
-1.893942e-01
-1.971555e-01
-2.050341e-01
-2.130572e-01
-2.212485e-01
-2.296265e-01
-2.382029e-01
-2.469824e-01
-2.559627e-01
-2.651366e-01
-2.744936e-01
-2.840211e-01
-2.937062e-01
-3.035362e-01
-3.134997e-01
-3.235872e-01
-3.337921e-01
-3.441108e-01
-3.545430e-01
-3.650912e-01
-3.757601e-01
-3.865566e-01
-3.974902e-01
-4.085734e-01
-4.198202e-01
-4.312444e-01
-4.428559e-01
-4.546572e-01
-4.666418e-01
-4.787921e-01
-4.910803e-01
-5.034689e-01
-5.159121e-01
-5.283578e-01
-5.407505e-01
-5.530347e-01
-5.651569e-01
-5.770681e-01
-5.887245e-01
-6.000881e-01
-6.111278e-01
-6.218194e-01
-6.321461e-01
-6.420988e-01
-6.516758e-01
-6.608813e-01
-6.697236e-01
-6.782136e-01
-6.863621e-01
-6.941783e-01
-7.016674e-01
-7.088310e-01
-7.156666e-01
-7.221699e-01
-7.283362e-01
-7.341622e-01
-7.396468e-01
-7.447921e-01
-7.496042e-01
-7.540935e-01
-7.582739e-01
-7.621621e-01
-7.657750e-01
-7.691281e-01
-7.722347e-01
-7.751059e-01
-7.777519e-01
-7.801834e-01
-7.824119e-01
-7.844489e-01
-7.863044e-01
-7.879860e-01
-7.894979e-01
-7.908398e-01
-7.920069e-01
-7.929890e-01
-7.937701e-01
-7.943278e-01
-7.946332e-01
-7.946544e-01
-7.943595e-01
-7.937199e-01
-7.927119e-01
-7.913173e-01
-7.895238e-01
-7.873257e-01
-7.847241e-01
-7.817271e-01
-7.783495e-01
-7.746121e-01
-7.705401e-01
-7.661609e-01
-7.615023e-01
-7.565908e-01
-7.514505e-01
-7.461009e-01
-7.405565e-01
-7.348261e-01
-7.289141e-01
-7.228218e-01
-7.165488e-01
-7.100935e-01
-7.034534e-01
-6.966259e-01
-6.896094e-01
-6.824043e-01
-6.750141e-01
-6.674460e-01
-6.597119e-01
-6.518284e-01
-6.438182e-01
-6.357097e-01
-6.275376e-01
-6.193431e-01
-6.111731e-01
-6.030796e-01
-5.951176e-01
-5.873435e-01
-5.798134e-01
-5.725820e-01
-5.657021e-01
-5.592234e-01
-5.531918e-01
-5.476486e-01
-5.426304e-01
-5.381687e-01
-5.342895e-01
-5.310131e-01
-5.283547e-01
-5.263240e-01
-5.249242e-01
-5.241513e-01
-5.239941e-01
-5.244352e-01
-5.254510e-01
-5.270133e-01
-5.290897e-01
-5.316431e-01
-5.346312e-01
-5.380069e-01
-5.417196e-01
-5.457179e-01
-5.499508e-01
-5.543692e-01
-5.589261e-01
-5.635781e-01
-5.682870e-01
-5.730218e-01
-5.777596e-01
-5.824848e-01
-5.871885e-01
-5.918674e-01
-5.965240e-01
-6.011654e-01
-6.058017e-01
-6.104454e-01
-6.151096e-01
-6.198075e-01
-6.245521e-01
-6.293564e-01
-6.342335e-01
-6.391967e-01
-6.442584e-01
-6.494295e-01
-6.547189e-01
-6.601338e-01
-6.656794e-01
-6.713587e-01
-6.771720e-01
-6.831154e-01
-6.891808e-01
-6.953560e-01
-7.016248e-01
-7.079677e-01
-7.143626e-01
-7.207848e-01
-7.272082e-01
-7.336065e-01
-7.399553e-01
-7.462343e-01
-7.524281e-01
-7.585267e-01
-7.645248e-01
-7.704212e-01
-7.762186e-01
-7.819227e-01
-7.875395e-01
-7.930729e-01
-7.985216e-01
-8.038785e-01
-8.091315e-01
-8.142640e-01
-8.192552e-01
-8.240813e-01
-8.287162e-01
-8.331339e-01
-8.373113e-01
-8.412300e-01
-8.448775e-01
-8.482457e-01
-8.513288e-01
-8.541220e-01
-8.566211e-01
-8.588228e-01
-8.607236e-01
-8.623197e-01
-8.636072e-01
-8.645823e-01
-8.652397e-01
-8.655736e-01
-8.655790e-01
-8.652539e-01
-8.645990e-01
-8.636170e-01
-8.623130e-01
-8.606952e-01
-8.587755e-01
-8.565707e-01
-8.541008e-01
-8.513877e-01
-8.484528e-01
-8.453148e-01
-8.419888e-01
-8.384859e-01
-8.348135e-01
-8.309758e-01
-8.269751e-01
-8.228139e-01
-8.184968e-01
-8.140311e-01
-8.094265e-01
-8.046941e-01
-7.998461e-01
-7.948958e-01
-7.898563e-01
-7.847398e-01
-7.795562e-01
-7.743127e-01
-7.690140e-01
-7.636624e-01
-7.582583e-01
-7.528000e-01
-7.472836e-01
-7.417027e-01
-7.360491e-01
-7.303141e-01
-7.244904e-01
-7.185725e-01
-7.125566e-01
-7.064392e-01
-7.002160e-01
-6.938811e-01
-6.874284e-01
-6.808530e-01
-6.741530e-01
-6.673313e-01
-6.603959e-01
-6.533594e-01
-6.462385e-01
-6.390525e-01
-6.318230e-01
-6.245725e-01
-6.173229e-01
-6.100941e-01
-6.029029e-01
-5.957637e-01
-5.886876e-01
-5.816823e-01
-5.747505e-01
-5.678887e-01
-5.610859e-01
-5.543243e-01
-5.475785e-01
-5.408177e-01
-5.340075e-01
-5.271124e-01
-5.200974e-01
-5.129285e-01
-5.055734e-01
-4.980020e-01
-4.901869e-01
-4.821043e-01
-4.737339e-01
-4.650599e-01
-4.560714e-01
-4.467635e-01
-4.371371e-01
-4.271986e-01
-4.169579e-01
-4.064273e-01
-3.956217e-01
-3.845589e-01
-3.732592e-01
-3.617448e-01
-3.500381e-01
-3.381607e-01
-3.261313e-01
-3.139645e-01
-3.016694e-01
-2.892497e-01
-2.767036e-01
-2.640252e-01
-2.512066e-01
-2.382397e-01
-2.251181e-01
-2.118384e-01
-1.984016e-01
-1.848139e-01
-1.710872e-01
-1.572392e-01
-1.432911e-01
-1.292652e-01
-1.151828e-01
-1.010624e-01
-8.691970e-02
-7.276884e-02
-5.862278e-02
-4.449344e-02
-3.039094e-02
-1.632323e-02
-2.296935e-03
1.168119e-02
2.560331e-02
3.946084e-02
5.324549e-02
6.695017e-02
8.056926e-02
9.409809e-02
1.075317e-01
1.208637e-01
1.340855e-01
1.471870e-01
1.601576e-01
1.729868e-01
1.856638e-01
1.981771e-01
2.105154e-01
2.226693e-01
2.346315e-01
2.463973e-01
2.579629e-01
2.693251e-01
2.804791e-01
2.914175e-01
3.021295e-01
3.126006e-01
3.228126e-01
3.327448e-01
3.423750e-01
3.516802e-01
3.606387e-01
3.692318e-01
3.774460e-01
3.852724e-01
3.927076e-01
3.997529e-01
4.064152e-01
4.127052e-01
4.186358e-01
4.242191e-01
4.294661e-01
4.343853e-01
4.389824e-01
4.432601e-01
4.472196e-01
4.508617e-01
4.541871e-01
4.571956e-01
4.598853e-01
4.622512e-01
4.642855e-01
4.659765e-01
4.673081e-01
4.682598e-01
4.688074e-01
4.689246e-01
4.685849e-01
4.677624e-01
4.664323e-01
4.645726e-01
4.621654e-01
4.591984e-01
4.556650e-01
4.515640e-01
4.468995e-01
4.416820e-01
4.359278e-01
4.296590e-01
4.229020e-01
4.156865e-01
4.080426e-01
3.999991e-01
3.915817e-01
3.828126e-01
3.737088e-01
3.642818e-01
3.545382e-01
3.444814e-01
3.341125e-01
3.234328e-01
3.124438e-01
3.011484e-01
2.895496e-01
2.776504e-01
2.654524e-01
2.529558e-01
2.401589e-01
2.270588e-01
2.136524e-01
1.999386e-01
1.859204e-01
1.716049e-01
1.570040e-01
1.421339e-01
1.270151e-01
1.116730e-01
9.613780e-02
8.044351e-02
6.462768e-02
4.873005e-02
3.279119e-02
1.685135e-02
9.493017e-04
-1.487905e-02
-3.060218e-02
-4.619384e-02
-6.163239e-02
-7.689908e-02
-9.197612e-02
-1.068452e-01
-1.214868e-01
-1.358799e-01
-1.500024e-01
-1.638320e-01
-1.773472e-01
-1.905282e-01
-2.033589e-01
-2.158272e-01
-2.279262e-01
-2.396544e-01
-2.510152e-01
-2.620177e-01
-2.726768e-01
-2.830136e-01
-2.930552e-01
-3.028324e-01
-3.123770e-01
-3.217187e-01
-3.308835e-01
-3.398919e-01
-3.487584e-01
-3.574927e-01
-3.661003e-01
-3.745844e-01
-3.829474e-01
-3.911917e-01
-3.993215e-01
-4.073424e-01
-4.152628e-01
-4.230933e-01
-4.308472e-01
-4.385386e-01
-4.461809e-01
-4.537860e-01
-4.613643e-01
-4.689248e-01
-4.764767e-01
-4.840294e-01
-4.915933e-01
-4.991805e-01
-5.068040e-01
-5.144773e-01
-5.222129e-01
-5.300212e-01
-5.379102e-01
-5.458853e-01
-5.539481e-01
-5.620966e-01
-5.703241e-01
-5.786202e-01
-5.869715e-01
-5.953626e-01
-6.037778e-01
-6.122019e-01
-6.206224e-01
-6.290305e-01
-6.374222e-01
-6.457981e-01
-6.541632e-01
-6.625257e-01
-6.708964e-01
-6.792894e-01
-6.877207e-01
-6.962079e-01
-7.047687e-01
-7.134209e-01
-7.221815e-01
-7.310665e-01
-7.400891e-01
-7.492585e-01
-7.585785e-01
-7.680485e-01
-7.776646e-01
-7.874219e-01
-7.973167e-01
-8.073469e-01
-8.175131e-01
-8.278181e-01
-8.382667e-01
-8.488657e-01
-8.596216e-01
-8.705409e-01
-8.816278e-01
-8.928841e-01
-9.043071e-01
-9.158881e-01
-9.276113e-01
-9.394537e-01
-9.513858e-01
-9.633741e-01
-9.753825e-01
-9.873744e-01
-9.993145e-01
-1.011171e+00
-1.022915e+00
-1.034526e+00
-1.045984e+00
-1.057275e+00
-1.068387e+00
-1.079308e+00
-1.090031e+00
-1.100547e+00
-1.110851e+00
-1.120939e+00
-1.130806e+00
-1.140449e+00
-1.149865e+00
-1.159054e+00
-1.168016e+00
-1.176750e+00
-1.185257e+00
-1.193535e+00
-1.201578e+00
-1.209380e+00
-1.216931e+00
-1.224221e+00
-1.231236e+00
-1.237965e+00
-1.244398e+00
-1.250525e+00
-1.256341e+00
-1.261839e+00
-1.267016e+00
-1.271869e+00
-1.276395e+00
-1.280592e+00
-1.284459e+00
-1.287991e+00
-1.291185e+00
-1.294035e+00
-1.296532e+00
-1.298665e+00
-1.300423e+00
-1.301794e+00
-1.302765e+00
-1.303326e+00
-1.303470e+00
-1.303189e+00
-1.302484e+00
-1.301358e+00
-1.299820e+00
-1.297886e+00
-1.295573e+00
-1.292903e+00
-1.289898e+00
-1.286586e+00
-1.282991e+00
-1.279139e+00
-1.275052e+00
-1.270753e+00
-1.266257e+00
-1.261580e+00
-1.256735e+00
-1.251732e+00
-1.246580e+00
-1.241287e+00
-1.235862e+00
-1.230314e+00
-1.224652e+00
-1.218883e+00
-1.213012e+00
-1.207039e+00
-1.200965e+00
-1.194787e+00
-1.188501e+00
-1.182104e+00
-1.175595e+00
-1.168975e+00
-1.162245e+00
-1.155414e+00
-1.148491e+00
-1.141491e+00
-1.134431e+00
-1.127329e+00
-1.120205e+00
-1.113082e+00
-1.105981e+00
-1.098924e+00
-1.091932e+00
-1.085023e+00
-1.078212e+00
-1.071510e+00
-1.064924e+00
-1.058459e+00
-1.052116e+00
-1.045898e+00
-1.039802e+00
-1.033826e+00
-1.027968e+00
-1.022222e+00
-1.016582e+00
-1.011037e+00
-1.005574e+00
-1.000172e+00
-9.948052e-01
-9.894452e-01
-9.840590e-01
-9.786115e-01
-9.730676e-01
-9.673939e-01
-9.615605e-01
-9.555418e-01
-9.493175e-01
-9.428725e-01
-9.361963e-01
-9.292810e-01
-9.221198e-01
-9.147057e-01
-9.070317e-01
-8.990908e-01
-8.908764e-01
-8.823836e-01
-8.736100e-01
-8.645572e-01
-8.552322e-01
-8.456469e-01
-8.358177e-01
-8.257643e-01
-8.155090e-01
-8.050757e-01
-7.944883e-01
-7.837688e-01
-7.729350e-01
-7.619997e-01
-7.509699e-01
-7.398482e-01
-7.286319e-01
-7.173137e-01
-7.058811e-01
-6.943178e-01
-6.826060e-01
-6.707282e-01
-6.586685e-01
-6.464134e-01
-6.339518e-01
-6.212761e-01
-6.083822e-01
-5.952691e-01
-5.819383e-01
-5.683923e-01
-5.546337e-01
-5.406642e-01
-5.264834e-01
-5.120879e-01
-4.974710e-01
-4.826228e-01
-4.675310e-01
-4.521821e-01
-4.365623e-01
-4.206600e-01
-4.044669e-01
-3.879794e-01
-3.711982e-01
-3.541282e-01
-3.367777e-01
-3.191577e-01
-3.012815e-01
-2.831639e-01
-2.648201e-01
-2.462652e-01
-2.275145e-01
-2.085831e-01
-1.894859e-01
-1.702367e-01
-1.508468e-01
-1.313255e-01
-1.116793e-01
-9.191322e-02
-7.203104e-02
-5.203667e-02
-3.193495e-02
-1.173264e-02
8.560489e-03
2.893090e-02
4.936130e-02
6.983111e-02
9.031732e-02
1.107951e-01
1.312384e-01
1.516217e-01
1.719207e-01
1.921126e-01
2.121766e-01
2.320927e-01
2.518423e-01
2.714075e-01
2.907714e-01
3.099185e-01
3.288359e-01
3.475142e-01
3.659482e-01
3.841361e-01
4.020800e-01
4.197849e-01
4.372599e-01
4.545163e-01
4.715676e-01
4.884276e-01
5.051094e-01
5.216245e-01
5.379828e-01
5.541926e-01
5.702612e-01
5.861945e-01
6.019969e-01
6.176728e-01
6.332267e-01
6.486655e-01
6.639984e-01
6.792371e-01
6.943949e-01
7.094863e-01
7.245276e-01
7.395370e-01
7.545350e-01
7.695436e-01
7.845854e-01
7.996817e-01
8.148516e-01
8.301111e-01
8.454730e-01
8.609464e-01
8.765362e-01
8.922435e-01
9.080658e-01
9.239981e-01
9.400344e-01
9.561683e-01
9.723939e-01
9.887064e-01
1.005102e+00
1.021575e+00
1.038120e+00
1.054725e+00
1.071380e+00
1.088068e+00
1.104773e+00
1.121479e+00
1.138169e+00
1.154828e+00
1.171440e+00
1.187988e+00
1.204454e+00
1.220817e+00
1.237051e+00
1.253131e+00
1.269028e+00
1.284714e+00
1.300160e+00
1.315340e+00
1.330231e+00
1.344815e+00
1.359080e+00
1.373017e+00
1.386622e+00
1.399895e+00
1.412836e+00
1.425449e+00
1.437738e+00
1.449705e+00
1.461354e+00
1.472685e+00
1.483698e+00
1.494394e+00
1.504768e+00
1.514819e+00
1.524544e+00
1.533943e+00
1.543022e+00
1.551786e+00
1.560249e+00
1.568429e+00
1.576345e+00
1.584020e+00
1.591473e+00
1.598724e+00
1.605792e+00
1.612690e+00
1.619430e+00
1.626018e+00
1.632457e+00
1.638751e+00
1.644898e+00
1.650900e+00
1.656761e+00
1.662484e+00
1.668077e+00
1.673549e+00
1.678908e+00
1.684168e+00
1.689336e+00
1.694424e+00
1.699441e+00
1.704397e+00
1.709302e+00
1.714168e+00
1.719007e+00
1.723836e+00
1.728671e+00
1.733533e+00
1.738442e+00
1.743419e+00
1.748482e+00
1.753651e+00
1.758939e+00
1.764358e+00
1.769914e+00
1.775607e+00
1.781435e+00
1.787390e+00
1.793461e+00
1.799633e+00
1.805892e+00
1.812217e+00
1.818591e+00
1.824992e+00
1.831398e+00
1.837785e+00
1.844131e+00
1.850412e+00
1.856606e+00
1.862692e+00
1.868649e+00
1.874456e+00
1.880094e+00
1.885544e+00
1.890789e+00
1.895810e+00
1.900592e+00
1.905119e+00
1.909379e+00
1.913362e+00
1.917058e+00
1.920459e+00
1.923557e+00
1.926345e+00
1.928817e+00
1.930971e+00
1.932806e+00
1.934319e+00
1.935509e+00
1.936377e+00
1.936922e+00
1.937143e+00
1.937038e+00
1.936604e+00
1.935833e+00
1.934718e+00
1.933249e+00
1.931420e+00
1.929223e+00
1.926658e+00
1.923724e+00
1.920424e+00
1.916764e+00
1.912749e+00
1.908386e+00
1.903683e+00
1.898646e+00
1.893281e+00
1.887592e+00
1.881583e+00
1.875256e+00
1.868614e+00
1.861659e+00
1.854391e+00
1.846810e+00
1.838912e+00
1.830698e+00
1.822165e+00
1.813313e+00
1.804144e+00
1.794660e+00
1.784868e+00
1.774777e+00
1.764399e+00
1.753751e+00
1.742850e+00
1.731716e+00
1.720371e+00
1.708835e+00
1.697131e+00
1.685278e+00
1.673296e+00
1.661204e+00
1.649020e+00
1.636765e+00
1.624458e+00
1.612119e+00
1.599768e+00
1.587424e+00
1.575106e+00
1.562833e+00
1.550618e+00
1.538474e+00
1.526411e+00
1.514432e+00
1.502538e+00
1.490727e+00
1.478992e+00
1.467327e+00
1.455721e+00
1.444165e+00
1.432651e+00
1.421170e+00
1.409713e+00
1.398277e+00
1.386859e+00
1.375461e+00
1.364085e+00
1.352739e+00
1.341430e+00
1.330169e+00
1.318971e+00
1.307852e+00
1.296832e+00
1.285933e+00
1.275175e+00
1.264580e+00
1.254171e+00
1.243968e+00
1.233992e+00
1.224263e+00
1.214800e+00
1.205622e+00
1.196744e+00
1.188178e+00
1.179935e+00
1.172019e+00
1.164436e+00
1.157183e+00
1.150256e+00
1.143646e+00
1.137340e+00
1.131323e+00
1.125581e+00
1.120098e+00
1.114857e+00
1.109839e+00
1.105025e+00
1.100393e+00
1.095919e+00
1.091577e+00
1.087338e+00
1.083172e+00
1.079047e+00
1.074934e+00
1.070803e+00
1.066631e+00
1.062395e+00
1.058078e+00
1.053664e+00
1.049143e+00
1.044507e+00
1.039749e+00
1.034867e+00
1.029858e+00
1.024721e+00
1.019454e+00
1.014057e+00
1.008526e+00
1.002862e+00
9.970624e-01
9.911283e-01
9.850614e-01
9.788653e-01
9.725448e-01
9.661056e-01
9.595523e-01
9.528888e-01
9.461174e-01
9.392383e-01
9.322491e-01
9.251443e-01
9.179162e-01
9.105561e-01
9.030550e-01
8.954042e-01
8.875953e-01
8.796194e-01
8.714683e-01
8.631345e-01
8.546105e-01
8.458887e-01
8.369610e-01
8.278187e-01
8.184522e-01
8.088515e-01
7.990064e-01
7.889076e-01
7.785471e-01
7.679196e-01
7.570225e-01
7.458565e-01
7.344267e-01
7.227429e-01
7.108207e-01
6.986806e-01
6.863479e-01
6.738507e-01
6.612184e-01
6.484794e-01
6.356589e-01
6.227772e-01
6.098493e-01
5.968858e-01
5.838941e-01
5.708801e-01
5.578484e-01
5.448035e-01
5.317491e-01
5.186901e-01
5.056321e-01
4.925824e-01
4.795492e-01
4.665408e-01
4.535656e-01
4.406317e-01
4.277468e-01
4.149189e-01
4.021562e-01
3.894674e-01
3.768631e-01
3.643563e-01
3.519631e-01
3.397022e-01
3.275940e-01
3.156589e-01
3.039165e-01
2.923833e-01
2.810716e-01
2.699882e-01
2.591344e-01
2.485060e-01
2.380949e-01
2.278899e-01
2.178789e-01
2.080489e-01
1.983863e-01
1.888767e-01
1.795044e-01
1.702529e-01
1.611049e-01
1.520433e-01
1.430519e-01
1.341168e-01
1.252261e-01
1.163703e-01
1.075411e-01
9.873076e-02
8.993149e-02
8.113476e-02
7.233102e-02
6.350984e-02
5.466044e-02
4.577244e-02
3.683631e-02
2.784416e-02
1.879055e-02
9.673333e-03
4.943769e-04
-8.739822e-03
-1.801831e-02
-2.732700e-02
-3.665079e-02
-4.597569e-02
-5.529044e-02
-6.458757e-02
-7.386444e-02
-8.312410e-02
-9.237543e-02
-1.016322e-01
-1.109116e-01
-1.202327e-01
-1.296156e-01
-1.390806e-01
-1.486460e-01
-1.583278e-01
-1.681391e-01
-1.780899e-01
-1.881871e-01
-1.984341e-01
-2.088310e-01
-2.193738e-01
-2.300540e-01
-2.408588e-01
-2.517712e-01
-2.627717e-01
-2.738385e-01
-2.849490e-01
-2.960807e-01
-3.072122e-01
-3.183240e-01
-3.293984e-01
-3.404185e-01
-3.513681e-01
-3.622315e-01
-3.729944e-01
-3.836437e-01
-3.941676e-01
-4.045556e-01
-4.147987e-01
-4.248895e-01
-4.348206e-01
-4.445843e-01
-4.541712e-01
-4.635694e-01
-4.727638e-01
-4.817364e-01
-4.904666e-01
-4.989327e-01
-5.071130e-01
-5.149875e-01
-5.225382e-01
-5.297504e-01
-5.366126e-01
-5.431168e-01
-5.492583e-01
-5.550344e-01
-5.604436e-01
-5.654846e-01
-5.701556e-01
-5.744537e-01
-5.783741e-01
-5.819098e-01
-5.850511e-01
-5.877869e-01
-5.901044e-01
-5.919907e-01
-5.934333e-01
-5.944209e-01
-5.949444e-01
-5.949970e-01
-5.945749e-01
-5.936779e-01
-5.923099e-01
-5.904790e-01
-5.881973e-01
-5.854810e-01
-5.823500e-01
-5.788287e-01
-5.749451e-01
-5.707299e-01
-5.662151e-01
-5.614321e-01
-5.564106e-01
-5.511775e-01
-5.457565e-01
-5.401681e-01
-5.344298e-01
-5.285572e-01
-5.225655e-01
-5.164695e-01
-5.102849e-01
-5.040273e-01
-4.977128e-01
-4.913577e-01
-4.849772e-01
-4.785851e-01
-4.721928e-01
-4.658089e-01
-4.594381e-01
-4.530818e-01
-4.467380e-01
-4.404024e-01
-4.340698e-01
-4.277347e-01
-4.213920e-01
-4.150378e-01
-4.086695e-01
-4.022876e-01
-3.958957e-01
-3.895005e-01
-3.831111e-01
-3.767385e-01
-3.703936e-01
-3.640879e-01
-3.578318e-01
-3.516346e-01
-3.455036e-01
-3.394439e-01
-3.334598e-01
-3.275553e-01
-3.217348e-01
-3.160035e-01
-3.103665e-01
-3.048300e-01
-2.994006e-01
-2.940863e-01
-2.888960e-01
-2.838393e-01
-2.789260e-01
-2.741646e-01
-2.695623e-01
-2.651243e-01
-2.608535e-01
-2.567500e-01
-2.528103e-01
-2.490275e-01
-2.453926e-01
-2.418955e-01
-2.385254e-01
-2.352713e-01
-2.321220e-01
-2.290659e-01
-2.260916e-01
-2.231874e-01
-2.203421e-01
-2.175453e-01
-2.147879e-01
-2.120620e-01
-2.093606e-01
-2.066776e-01
-2.040073e-01
-2.013440e-01
-1.986810e-01
-1.960106e-01
-1.933232e-01
-1.906084e-01
-1.878547e-01
-1.850508e-01
-1.821861e-01
-1.792524e-01
-1.762440e-01
-1.731580e-01
-1.699944e-01
-1.667551e-01
-1.634447e-01
-1.600691e-01
-1.566350e-01
-1.531495e-01
-1.496192e-01
-1.460506e-01
-1.424494e-01
-1.388212e-01
-1.351701e-01
-1.314994e-01
-1.278104e-01
-1.241026e-01
-1.203738e-01
-1.166194e-01
-1.128330e-01
