EVENT_NAME: EMILIA_2ND_SHOCK
EVENT_ID: IT-2012-0011
EVENT_DATE_YYYYMMDD: 20120529
EVENT_TIME_HHMMSS: 070002
EVENT_LATITUDE_DEGREE: 44.8417
EVENT_LONGITUDE_DEGREE: 11.0657
EVENT_DEPTH_KM: 8.1
HYPOCENTER_REFERENCE: INGV-CNT_Seismic_Bulletin
MAGNITUDE_W: 6.0
MAGNITUDE_W_REFERENCE: RCMT-INGV
MAGNITUDE_L: 5.8
MAGNITUDE_L_REFERENCE: INGV-CNT_Seismic_Bulletin
FOCAL_MECHANISM: TF
NETWORK: TV
STATION_CODE: CAS05
STATION_NAME: SAN CARLO
STATION_LATITUDE_DEGREE: 44.802222
STATION_LONGITUDE_DEGREE: 11.409715
STATION_ELEVATION_M: 
LOCATION: 
SENSOR_DEPTH_M: 
VS30_M/S: 
SITE_CLASSIFICATION_EC8: C*
MORPHOLOGIC_CLASSIFICATION: 
EPICENTRAL_DISTANCE_KM: 27.6
EARTHQUAKE_BACKAZIMUTH_DEGREE: 279.3
DATE_TIME_FIRST_SAMPLE_YYYYMMDD_HHMMSS: 20120529_065939.000
DATE_TIME_FIRST_SAMPLE_PRECISION: milliseconds
SAMPLING_INTERVAL_S: 0.005000
NDATA: 30001
DURATION_S: 150.005
STREAM: HNN
UNITS: cm
INSTRUMENT: sensor = Episensor FBA ES-T [Kinemetrics] | digitizer = Unknown [Unknown]
INSTRUMENT_ANALOG/DIGITAL: D
INSTRUMENTAL_FREQUENCY_HZ: 
INSTRUMENTAL_DAMPING: 
FULL_SCALE_G: 
N_BIT_DIGITAL_CONVERTER: 
PGD_CM: 1.482517
TIME_PGD_S: 42.505000
BASELINE_CORRECTION: BASELINE REMOVED
FILTER_TYPE: BUTTERWORTH
FILTER_ORDER: 2
LOW_CUT_FREQUENCY_HZ: 0.060
HIGH_CUT_FREQUENCY_HZ: 40.000
LATE/NORMAL_TRIGGERED: NT
DATABASE_VERSION: DYNA 1.0
HEADER_FORMAT: DYNA 1.2
DATA_TYPE: DISPLACEMENT
PROCESSING: manual (Paolucci et al., 2011)
DATA_TIMESTAMP_YYYYMMDD_HHMMSS: 
DATA_LICENSE: CC-BY4_0 (http://creativecommons.org/licenses/by/4.0/)
DATA_CITATION: ESM working group (2015), European Strong-Motion database, version 0.1, Network Activity 3: Networking acceleration networks and SM data users. Project NERA (www.nera-eu.org)
DATA_CREATOR: ESM working group
ORIGINAL_DATA_MEDIATOR_CITATION: Orfeus - European Integrated Data Archive (EIDA) http://www.orfeus-eu.org/eida/
ORIGINAL_DATA_MEDIATOR: Orfeus - European Integrated Data Archive (EIDA)
ORIGINAL_DATA_CREATOR_CITATION: 
ORIGINAL_DATA_CREATOR: network: TV (INGV Experiments Network); owner: Istituto Nazionale di Geofisica e Vulcanologia
USER1: 
USER2: 
USER3: 
USER4: 
USER5: 
[...]
-7.435063e-01
-7.451382e-01
-7.466126e-01
-7.479254e-01
-7.490449e-01
-7.499155e-01
-7.504617e-01
-7.505938e-01
-7.502197e-01
-7.492578e-01
-7.476466e-01
-7.453500e-01
-7.423618e-01
-7.387082e-01
-7.344446e-01
-7.296450e-01
-7.243875e-01
-7.187399e-01
-7.127484e-01
-7.064336e-01
-6.997900e-01
-6.927895e-01
-6.853912e-01
-6.775586e-01
-6.692862e-01
-6.606212e-01
-6.516665e-01
-6.425617e-01
-6.334578e-01
-6.244984e-01
-6.158100e-01
-6.074956e-01
-5.996370e-01
-5.923024e-01
-5.855569e-01
-5.794676e-01
-5.741060e-01
-5.695463e-01
-5.658626e-01
-5.631288e-01
-5.614192e-01
-5.608085e-01
-5.613662e-01
-5.631512e-01
-5.662102e-01
-5.705808e-01
-5.762903e-01
-5.833507e-01
-5.917519e-01
-6.014572e-01
-6.124002e-01
-6.244808e-01
-6.375580e-01
-6.514431e-01
-6.658977e-01
-6.806450e-01
-6.953950e-01
-7.098769e-01
-7.238600e-01
-7.371550e-01
-7.496037e-01
-7.610749e-01
-7.714686e-01
-7.807258e-01
-7.888363e-01
-7.958436e-01
-8.018430e-01
-8.069744e-01
-8.114081e-01
-8.153272e-01
-8.189089e-01
-8.223116e-01
-8.256675e-01
-8.290791e-01
-8.326208e-01
-8.363416e-01
-8.402724e-01
-8.444353e-01
-8.488536e-01
-8.535577e-01
-8.585831e-01
-8.639623e-01
-8.697164e-01
-8.758498e-01
-8.823508e-01
-8.891993e-01
-8.963767e-01
-9.038719e-01
-9.116752e-01
-9.197593e-01
-9.280560e-01
-9.364497e-01
-9.447947e-01
-9.529465e-01
-9.607808e-01
-9.681937e-01
-9.750936e-01
-9.813989e-01
-9.870448e-01
-9.919924e-01
-9.962289e-01
-9.997618e-01
-1.002610e+00
-1.004797e+00
-1.006357e+00
-1.007326e+00
-1.007750e+00
-1.007683e+00
-1.007180e+00
-1.006299e+00
-1.005085e+00
-1.003573e+00
-1.001790e+00
-9.997661e-01
-9.975328e-01
-9.951189e-01
-9.925390e-01
-9.897855e-01
-9.868285e-01
-9.836182e-01
-9.800931e-01
-9.761926e-01
-9.718712e-01
-9.671069e-01
-9.619033e-01
-9.562899e-01
-9.503232e-01
-9.440890e-01
-9.377015e-01
-9.313003e-01
-9.250455e-01
-9.191072e-01
-9.136533e-01
-9.088390e-01
-9.048011e-01
-9.016518e-01
-8.994728e-01
-8.983121e-01
-8.981817e-01
-8.990580e-01
-9.008836e-01
-9.035723e-01
-9.070152e-01
-9.110907e-01
-9.156797e-01
-9.206826e-01
-9.260285e-01
-9.316769e-01
-9.376147e-01
-9.438520e-01
-9.504174e-01
-9.573539e-01
-9.647146e-01
-9.725547e-01
-9.809211e-01
-9.898415e-01
-9.993165e-01
-1.009315e+00
-1.019777e+00
-1.030624e+00
-1.041769e+00
-1.053130e+00
-1.064640e+00
-1.076250e+00
-1.087913e+00
-1.099577e+00
-1.111177e+00
-1.122637e+00
-1.133883e+00
-1.144843e+00
-1.155460e+00
-1.165694e+00
-1.175524e+00
-1.184953e+00
-1.193999e+00
-1.202691e+00
-1.211063e+00
-1.219148e+00
-1.226976e+00
-1.234577e+00
-1.241985e+00
-1.249235e+00
-1.256358e+00
-1.263365e+00
-1.270239e+00
-1.276926e+00
-1.283338e+00
-1.289353e+00
-1.294836e+00
-1.299659e+00
-1.303720e+00
-1.306954e+00
-1.309335e+00
-1.310870e+00
-1.311599e+00
-1.311587e+00
-1.310914e+00
-1.309664e+00
-1.307901e+00
-1.305663e+00
-1.302954e+00
-1.299745e+00
-1.295974e+00
-1.291567e+00
-1.286463e+00
-1.280633e+00
-1.274069e+00
-1.266761e+00
-1.258687e+00
-1.249832e+00
-1.240201e+00
-1.229826e+00
-1.218761e+00
-1.207088e+00
-1.194916e+00
-1.182374e+00
-1.169604e+00
-1.156749e+00
-1.143945e+00
-1.131318e+00
-1.118985e+00
-1.107062e+00
-1.095653e+00
-1.084843e+00
-1.074691e+00
-1.065226e+00
-1.056445e+00
-1.048313e+00
-1.040776e+00
-1.033760e+00
-1.027196e+00
-1.021021e+00
-1.015196e+00
-1.009707e+00
-1.004564e+00
-9.997971e-01
-9.954488e-01
-9.915641e-01
-9.881887e-01
-9.853668e-01
-9.831384e-01
-9.815359e-01
-9.805834e-01
-9.802986e-01
-9.806951e-01
-9.817806e-01
-9.835507e-01
-9.859819e-01
-9.890298e-01
-9.926343e-01
-9.967269e-01
-1.001238e+00
-1.006099e+00
-1.011244e+00
-1.016608e+00
-1.022128e+00
-1.027743e+00
-1.033400e+00
-1.039051e+00
-1.044655e+00
-1.050173e+00
-1.055564e+00
-1.060790e+00
-1.065812e+00
-1.070595e+00
-1.075108e+00
-1.079327e+00
-1.083244e+00
-1.086867e+00
-1.090219e+00
-1.093332e+00
-1.096226e+00
-1.098897e+00
-1.101295e+00
-1.103331e+00
-1.104877e+00
-1.105794e+00
-1.105954e+00
-1.105242e+00
-1.103559e+00
-1.100812e+00
-1.096918e+00
-1.091803e+00
-1.085415e+00
-1.077732e+00
-1.068788e+00
-1.058702e+00
-1.047678e+00
-1.035964e+00
-1.023788e+00
-1.011309e+00
-9.986111e-01
-9.857216e-01
-9.726191e-01
-9.592378e-01
-9.454762e-01
-9.312200e-01
-9.163753e-01
-9.008929e-01
-8.847667e-01
-8.680154e-01
-8.506711e-01
-8.327804e-01
-8.144062e-01
-7.956231e-01
-7.765101e-01
-7.571409e-01
-7.375758e-01
-7.178662e-01
-6.980691e-01
-6.782576e-01
-6.585183e-01
-6.389391e-01
-6.195965e-01
-6.005502e-01
-5.818440e-01
-5.635096e-01
-5.455689e-01
-5.280339e-01
-5.109082e-01
-4.941942e-01
-4.779064e-01
-4.620846e-01
-4.467987e-01
-4.321428e-01
-4.182253e-01
-4.051630e-01
-3.930786e-01
-3.820955e-01
-3.723293e-01
-3.638794e-01
-3.568227e-01
-3.512084e-01
-3.470545e-01
-3.443475e-01
-3.430453e-01
-3.430806e-01
-3.443587e-01
-3.467466e-01
-3.500610e-01
-3.540709e-01
-3.585205e-01
-3.631630e-01
-3.677836e-01
-3.722043e-01
-3.762749e-01
-3.798675e-01
-3.828757e-01
-3.852162e-01
-3.868303e-01
-3.876844e-01
-3.877709e-01
-3.871108e-01
-3.857568e-01
-3.837946e-01
-3.813405e-01
-3.785303e-01
-3.755008e-01
-3.723699e-01
-3.692226e-01
-3.661055e-01
-3.630266e-01
-3.599619e-01
-3.568664e-01
-3.536854e-01
-3.503640e-01
-3.468559e-01
-3.431327e-01
-3.391945e-01
-3.350746e-01
-3.308374e-01
-3.265678e-01
-3.223582e-01
-3.182957e-01
-3.144556e-01
-3.108980e-01
-3.076636e-01
-3.047658e-01
-3.021798e-01
-2.998387e-01
-2.976399e-01
-2.954624e-01
-2.931846e-01
-2.906944e-01
-2.878896e-01
-2.846812e-01
-2.810026e-01
-2.768226e-01
-2.721512e-01
-2.670349e-01
-2.615419e-01
-2.557424e-01
-2.496950e-01
-2.434443e-01
-2.370253e-01
-2.304696e-01
-2.238077e-01
-2.170675e-01
-2.102725e-01
-2.034416e-01
-1.965896e-01
-1.897285e-01
-1.828685e-01
-1.760180e-01
-1.691871e-01
-1.623916e-01
-1.556582e-01
-1.490268e-01
-1.425501e-01
-1.362914e-01
-1.303214e-01
-1.247147e-01
-1.195485e-01
-1.149026e-01
-1.108594e-01
-1.075012e-01
-1.049064e-01
-1.031460e-01
-1.022813e-01
-1.023635e-01
-1.034301e-01
-1.054994e-01
-1.085608e-01
-1.125634e-01
-1.174068e-01
-1.229422e-01
-1.289859e-01
-1.353414e-01
-1.418202e-01
-1.482558e-01
-1.545126e-01
-1.604934e-01
-1.661470e-01
-1.714727e-01
-1.765197e-01
-1.813769e-01
-1.861566e-01
-1.909770e-01
-1.959481e-01
-2.011614e-01
-2.066771e-01
-2.125113e-01
-2.186306e-01
-2.249611e-01
-2.314086e-01
-2.378784e-01
-2.442868e-01
-2.505666e-01
-2.566696e-01
-2.625657e-01
-2.682374e-01
-2.736714e-01
-2.788493e-01
-2.837415e-01
-2.883089e-01
-2.925089e-01
-2.963059e-01
-2.996795e-01
-3.026288e-01
-3.051733e-01
-3.073557e-01
-3.092468e-01
-3.109515e-01
-3.126108e-01
-3.143919e-01
-3.164631e-01
-3.189663e-01
-3.219983e-01
-3.256071e-01
-3.297978e-01
-3.345404e-01
-3.397747e-01
-3.454133e-01
-3.513479e-01
-3.574586e-01
-3.636299e-01
-3.697657e-01
-3.757978e-01
-3.816849e-01
-3.874075e-01
-3.929610e-01
-3.983464e-01
-4.035574e-01
-4.085657e-01
-4.133119e-01
-4.177057e-01
-4.216364e-01
-4.249880e-01
-4.276494e-01
-4.295180e-01
-4.305033e-01
-4.305325e-01
-4.295548e-01
-4.275395e-01
-4.244704e-01
-4.203468e-01
-4.151960e-01
-4.090890e-01
-4.021452e-01
-3.945165e-01
-3.863573e-01
-3.778000e-01
-3.689474e-01
-3.598778e-01
-3.506533e-01
-3.413262e-01
-3.319419e-01
-3.225416e-01
-3.131668e-01
-3.038648e-01
-2.946931e-01
-2.857188e-01
-2.770132e-01
-2.686481e-01
-2.606925e-01
-2.532096e-01
-2.462515e-01
-2.398542e-01
-2.340318e-01
-2.287667e-01
-2.240064e-01
-2.196742e-01
-2.156926e-01
-2.120061e-01
-2.085868e-01
-2.054297e-01
-2.025441e-01
-1.999458e-01
-1.976502e-01
-1.956639e-01
-1.939737e-01
-1.925274e-01
-1.912151e-01
-1.898666e-01
-1.882801e-01
-1.862651e-01
-1.836699e-01
-1.803818e-01
-1.763186e-01
-1.714284e-01
-1.656975e-01
-1.591585e-01
-1.518877e-01
-1.439927e-01
-1.355958e-01
-1.268183e-01
-1.177637e-01
-1.085025e-01
-9.906545e-02
-8.944919e-02
-7.963049e-02
-6.958670e-02
-5.931463e-02
-4.884182e-02
-3.822673e-02
-2.754883e-02
-1.689403e-02
-6.342290e-03
4.038835e-03
1.419594e-02
2.409033e-02
3.369870e-02
4.301219e-02
5.203149e-02
6.075691e-02
6.917741e-02
7.726351e-02
8.496480e-02
9.220958e-02
9.890725e-02
1.049554e-01
1.102513e-01
1.147045e-01
1.182483e-01
1.208483e-01
1.225112e-01
1.232900e-01
1.232865e-01
1.226446e-01
1.215288e-01
1.200960e-01
1.184753e-01
1.167633e-01
1.150266e-01
1.133054e-01
1.116114e-01
1.099279e-01
1.082161e-01
1.064270e-01
1.045165e-01
1.024581e-01
1.002504e-01
9.792014e-02
9.552171e-02
9.313108e-02
9.083477e-02
8.871763e-02
8.685426e-02
8.530474e-02
8.411163e-02
8.329625e-02
8.285578e-02
8.276442e-02
8.297858e-02
8.344382e-02
8.410049e-02
8.488758e-02
8.574530e-02
8.661652e-02
8.744771e-02
8.818974e-02
8.879844e-02
8.923517e-02
8.946846e-02
8.947703e-02
8.925323e-02
8.880645e-02
8.816730e-02
8.739216e-02
8.656598e-02
8.579957e-02
8.521886e-02
8.494970e-02
8.510529e-02
8.578009e-02
8.704888e-02
8.896810e-02
9.157816e-02
9.490608e-02
9.896676e-02
1.037613e-01
1.092730e-01
1.154637e-01
1.222732e-01
1.296251e-01
1.374335e-01
1.456110e-01
1.540731e-01
1.627395e-01
1.715333e-01
1.803820e-01
1.892174e-01
1.979781e-01
2.066091e-01
2.150629e-01
2.232984e-01
2.312819e-01
2.389872e-01
2.463935e-01
2.534837e-01
2.602411e-01
2.666464e-01
2.726750e-01
2.782954e-01
2.834716e-01
2.881673e-01
2.923508e-01
2.959981e-01
2.990963e-01
3.016481e-01
3.036755e-01
3.052224e-01
3.063527e-01
3.071457e-01
3.076892e-01
3.080738e-01
3.083865e-01
3.087043e-01
3.090866e-01
3.095722e-01
3.101789e-01
3.109067e-01
3.117420e-01
3.126639e-01
3.136519e-01
3.146936e-01
3.157902e-01
3.169578e-01
3.182253e-01
3.196291e-01
3.212080e-01
3.229961e-01
3.250161e-01
3.272748e-01
3.297633e-01
3.324609e-01
3.353403e-01
3.383725e-01
3.415292e-01
3.447854e-01
3.481222e-01
3.515308e-01
3.550150e-01
3.585927e-01
3.622940e-01
3.661561e-01
3.702182e-01
3.745153e-01
3.790765e-01
3.839251e-01
3.890788e-01
3.945509e-01
4.003510e-01
4.064857e-01
4.129593e-01
4.197758e-01
4.269395e-01
4.344568e-01
4.423351e-01
4.505816e-01
4.592002e-01
4.681884e-01
4.775337e-01
4.872110e-01
4.971815e-01
5.073924e-01
5.177787e-01
5.282663e-01
5.387758e-01
5.492271e-01
5.595451e-01
5.696620e-01
5.795175e-01
5.890592e-01
5.982429e-01
6.070326e-01
6.154031e-01
6.233426e-01
6.308559e-01
6.379687e-01
6.447309e-01
6.512190e-01
6.575345e-01
6.637962e-01
6.701280e-01
6.766454e-01
6.834438e-01
6.905935e-01
6.981418e-01
7.061156e-01
7.145231e-01
7.233509e-01
7.325580e-01
7.420668e-01
7.517573e-01
7.614734e-01
7.710450e-01
7.803149e-01
7.891589e-01
7.974918e-01
8.052650e-01
8.124628e-01
8.190995e-01
8.252167e-01
8.308780e-01
8.361615e-01
8.411504e-01
8.459241e-01
8.505493e-01
8.550731e-01
8.595198e-01
8.638903e-01
8.681656e-01
8.723103e-01
8.762752e-01
8.799976e-01
8.834040e-01
8.864173e-01
8.889666e-01
8.909975e-01
8.924785e-01
8.934054e-01
8.938076e-01
8.937545e-01
8.933529e-01
8.927297e-01
8.920063e-01
8.912846e-01
8.906500e-01
8.901784e-01
8.899369e-01
8.899779e-01
8.903352e-01
8.910246e-01
8.920491e-01
8.934044e-01
8.950819e-01
8.970710e-01
8.993627e-01
9.019576e-01
9.048719e-01
9.081396e-01
9.118060e-01
9.159198e-01
9.205277e-01
9.256724e-01
9.313917e-01
9.377157e-01
9.446615e-01
9.522284e-01
9.603958e-01
9.691233e-01
9.783541e-01
9.880185e-01
9.980383e-01
1.008329e+00
1.018800e+00
1.029358e+00
1.039900e+00
1.050322e+00
1.060524e+00
1.070412e+00
1.079909e+00
1.088957e+00
1.097524e+00
1.105602e+00
1.113207e+00
1.120374e+00
1.127158e+00
1.133629e+00
1.139865e+00
1.145949e+00
1.151954e+00
1.157934e+00
1.163920e+00
1.169914e+00
1.175886e+00
1.181782e+00
1.187525e+00
1.193026e+00
1.198188e+00
1.202918e+00
1.207126e+00
1.210734e+00
1.213683e+00
1.215934e+00
1.217474e+00
1.218322e+00
1.218522e+00
1.218148e+00
1.217296e+00
1.216077e+00
1.214599e+00
1.212962e+00
1.211250e+00
1.209529e+00
1.207850e+00
1.206251e+00
1.204758e+00
1.203392e+00
1.202171e+00
1.201111e+00
1.200225e+00
1.199528e+00
1.199031e+00
1.198747e+00
1.198693e+00
1.198890e+00
1.199368e+00
1.200164e+00
1.201322e+00
1.202889e+00
1.204910e+00
1.207428e+00
1.210477e+00
1.214082e+00
1.218257e+00
1.223003e+00
1.228305e+00
1.234125e+00
1.240399e+00
1.247042e+00
1.253953e+00
1.261032e+00
1.268184e+00
1.275328e+00
1.282398e+00
1.289339e+00
1.296108e+00
1.302685e+00
1.309066e+00
1.315276e+00
1.321356e+00
1.327361e+00
1.333349e+00
1.339372e+00
1.345465e+00
1.351650e+00
1.357925e+00
1.364272e+00
1.370654e+00
1.377023e+00
1.383320e+00
1.389480e+00
1.395441e+00
1.401147e+00
1.406557e+00
1.411647e+00
1.416412e+00
1.420865e+00
1.425027e+00
1.428921e+00
1.432571e+00
1.436008e+00
1.439268e+00
1.442400e+00
1.445460e+00
1.448506e+00
1.451588e+00
1.454744e+00
1.457988e+00
1.461304e+00
1.464648e+00
1.467955e+00
1.471141e+00
1.474115e+00
1.476778e+00
1.479034e+00
1.480792e+00
1.481973e+00
1.482517e+00
1.482386e+00
1.481565e+00
1.480067e+00
1.477927e+00
1.475205e+00
1.471980e+00
1.468345e+00
1.464395e+00
1.460218e+00
1.455886e+00
1.451457e+00
1.446973e+00
1.442457e+00
1.437918e+00
1.433342e+00
1.428704e+00
1.423964e+00
1.419076e+00
1.413994e+00
1.408673e+00
1.403079e+00
1.397187e+00
1.390980e+00
1.384451e+00
1.377600e+00
1.370425e+00
1.362926e+00
1.355100e+00
1.346944e+00
1.338453e+00
1.329621e+00
1.320439e+00
1.310896e+00
1.300980e+00
1.290686e+00
1.280018e+00
1.268991e+00
1.257635e+00
1.246005e+00
1.234180e+00
1.222270e+00
1.210410e+00
1.198734e+00
1.187364e+00
1.176394e+00
1.165897e+00
1.155927e+00
1.146524e+00
1.137709e+00
1.129485e+00
1.121839e+00
1.114742e+00
1.108156e+00
1.102040e+00
1.096356e+00
1.091071e+00
1.086165e+00
1.081626e+00
1.077457e+00
1.073667e+00
1.070272e+00
1.067293e+00
1.064749e+00
1.062654e+00
1.061009e+00
1.059801e+00
1.059007e+00
1.058595e+00
1.058542e+00
1.058837e+00
1.059484e+00
1.060507e+00
1.061938e+00
1.063818e+00
1.066189e+00
1.069082e+00
1.072516e+00
1.076486e+00
1.080968e+00
1.085921e+00
1.091286e+00
1.096990e+00
1.102954e+00
1.109090e+00
1.115314e+00
1.121539e+00
1.127680e+00
1.133655e+00
1.139379e+00
1.144771e+00
1.149751e+00
1.154244e+00
1.158180e+00
1.161498e+00
1.164148e+00
1.166085e+00
1.167270e+00
1.167668e+00
1.167260e+00
1.166039e+00
1.164014e+00
1.161210e+00
1.157664e+00
1.153432e+00
1.148578e+00
1.143179e+00
1.137317e+00
1.131086e+00
1.124578e+00
1.117881e+00
1.111074e+00
1.104215e+00
1.097348e+00
1.090500e+00
1.083686e+00
1.076919e+00
1.070213e+00
1.063592e+00
1.057089e+00
1.050743e+00
1.044595e+00
1.038686e+00
1.033048e+00
1.027707e+00
1.022677e+00
1.017963e+00
1.013553e+00
1.009423e+00
1.005530e+00
1.001817e+00
9.982122e-01
9.946350e-01
9.910031e-01
9.872400e-01
9.832810e-01
9.790763e-01
9.745907e-01
9.698037e-01
9.647090e-01
9.593154e-01
9.536458e-01
9.477365e-01
9.416338e-01
9.353922e-01
9.290702e-01
9.227276e-01
9.164220e-01
9.102055e-01
9.041216e-01
8.982042e-01
8.924785e-01
8.869646e-01
8.816800e-01
8.766412e-01
8.718649e-01
8.673682e-01
8.631663e-01
8.592705e-01
8.556855e-01
8.524069e-01
8.494199e-01
8.466986e-01
8.442064e-01
8.418963e-01
8.397117e-01
8.375879e-01
8.354562e-01
8.332489e-01
8.309053e-01
8.283764e-01
8.256291e-01
8.226486e-01
8.194402e-01
8.160304e-01
8.124648e-01
8.088031e-01
8.051134e-01
8.014657e-01
7.979275e-01
7.945611e-01
7.914218e-01
7.885567e-01
7.860051e-01
7.837999e-01
7.819692e-01
7.805366e-01
7.795207e-01
7.789340e-01
7.787814e-01
7.790601e-01
7.797585e-01
7.808567e-01
7.823252e-01
7.841228e-01
7.861939e-01
7.884683e-01
7.908641e-01
7.932939e-01
7.956715e-01
7.979185e-01
7.999683e-01
8.017688e-01
8.032826e-01
8.044864e-01
8.053701e-01
8.059355e-01
8.061946e-01
8.061663e-01
8.058727e-01
8.053353e-01
8.045699e-01
8.035820e-01
8.023635e-01
8.008925e-01
7.991359e-01
7.970551e-01
7.946124e-01
7.917771e-01
7.885318e-01
7.848769e-01
7.808345e-01
7.764498e-01
7.717902e-01
7.669381e-01
7.619803e-01
7.569965e-01
7.520516e-01
7.471938e-01
7.424540e-01
7.378474e-01
7.333757e-01
7.290316e-01
7.248058e-01
7.206923e-01
7.166932e-01
7.128205e-01
7.090964e-01
7.055526e-01
7.022288e-01
6.991689e-01
6.964161e-01
6.940077e-01
6.919693e-01
6.903098e-01
6.890171e-01
6.880555e-01
6.873651e-01
6.868673e-01
6.864751e-01
6.861046e-01
6.856844e-01
6.851572e-01
6.844776e-01
6.836092e-01
6.825241e-01
6.812038e-01
6.796425e-01
6.778493e-01
6.758511e-01
6.736934e-01
6.714400e-01
6.691710e-01
6.669780e-01
6.649599e-01
6.632168e-01
6.618449e-01
6.609313e-01
6.605499e-01
6.607585e-01
6.615982e-01
6.630928e-01
6.652488e-01
6.680533e-01
6.714734e-01
6.754563e-01
6.799311e-01
6.848135e-01
6.900127e-01
6.954402e-01
7.010151e-01
7.066687e-01
7.123452e-01
7.180016e-01
7.236050e-01
7.291286e-01
7.345452e-01
7.398206e-01
7.449101e-01
7.497580e-01
7.543013e-01
7.584732e-01
7.622073e-01
7.654406e-01
7.681165e-01
7.701889e-01
7.716257e-01
7.724124e-01
7.725530e-01
7.720698e-01
7.710019e-01
7.694006e-01
7.673231e-01
7.648258e-01
7.619590e-01
7.587620e-01
7.552623e-01
7.514750e-01
7.474055e-01
7.430514e-01
7.384054e-01
7.334594e-01
7.282089e-01
7.226577e-01
7.168226e-01
7.107340e-01
7.044342e-01
6.979736e-01
6.914044e-01
6.847769e-01
6.781357e-01
6.715203e-01
6.649671e-01
6.585105e-01
6.521848e-01
6.460232e-01
6.400583e-01
6.343219e-01
6.288448e-01
6.236559e-01
6.187799e-01
6.142341e-01
6.100256e-01
6.061487e-01
6.025823e-01
5.992905e-01
5.962237e-01
5.933215e-01
5.905179e-01
5.877466e-01
5.849459e-01
5.820605e-01
5.790429e-01
5.758525e-01
5.724548e-01
5.688199e-01
5.649215e-01
5.607368e-01
5.562455e-01
5.514287e-01
5.462684e-01
5.407473e-01
5.348492e-01
5.285608e-01
5.218718e-01
5.147755e-01
5.072675e-01
4.993449e-01
4.910057e-01
4.822493e-01
4.730788e-01
4.635028e-01
4.535369e-01
4.432048e-01
4.325381e-01
4.215758e-01
4.103621e-01
3.989439e-01
3.873664e-01
3.756695e-01
3.638859e-01
3.520398e-01
3.401470e-01
3.282154e-01
3.162458e-01
3.042336e-01
2.921700e-01
2.800435e-01
2.678412e-01
2.555518e-01
2.431674e-01
2.306855e-01
2.181090e-01
2.054466e-01
1.927112e-01
1.799185e-01
1.670854e-01
1.542284e-01
1.413632e-01
1.285052e-01
1.156705e-01
1.028771e-01
9.014694e-02
7.750695e-02
6.499068e-02
5.263821e-02
4.049538e-02
2.861284e-02
1.704513e-02
5.849332e-03
-4.917202e-03
-1.519962e-02
-2.494834e-02
-3.412156e-02
-4.268736e-02
-5.062486e-02
-5.792447e-02
-6.458808e-02
-7.062979e-02
-7.607786e-02
-8.097688e-02
-8.538940e-02
