EVENT_NAME: EMILIA_2ND_SHOCK
EVENT_ID: IT-2012-0011
EVENT_DATE_YYYYMMDD: 20120529
EVENT_TIME_HHMMSS: 070002
EVENT_LATITUDE_DEGREE: 44.8417
EVENT_LONGITUDE_DEGREE: 11.0657
EVENT_DEPTH_KM: 8.1
HYPOCENTER_REFERENCE: INGV-CNT_Seismic_Bulletin
MAGNITUDE_W: 6.0
MAGNITUDE_W_REFERENCE: RCMT-INGV
MAGNITUDE_L: 5.8
MAGNITUDE_L_REFERENCE: INGV-CNT_Seismic_Bulletin
FOCAL_MECHANISM: TF
NETWORK: TV
STATION_CODE: CAS05
STATION_NAME: SAN CARLO
STATION_LATITUDE_DEGREE: 44.802222
STATION_LONGITUDE_DEGREE: 11.409715
STATION_ELEVATION_M: 
LOCATION: 
SENSOR_DEPTH_M: 
VS30_M/S: 
SITE_CLASSIFICATION_EC8: C*
MORPHOLOGIC_CLASSIFICATION: 
EPICENTRAL_DISTANCE_KM: 27.6
EARTHQUAKE_BACKAZIMUTH_DEGREE: 279.3
DATE_TIME_FIRST_SAMPLE_YYYYMMDD_HHMMSS: 20120529_065939.000
DATE_TIME_FIRST_SAMPLE_PRECISION: milliseconds
SAMPLING_INTERVAL_S: 0.005000
NDATA: 30001
DURATION_S: 150.005
STREAM: HNN
UNITS: cm/s^2
INSTRUMENT: sensor = Episensor FBA ES-T [Kinemetrics] | digitizer = Unknown [Unknown]
INSTRUMENT_ANALOG/DIGITAL: D
INSTRUMENTAL_FREQUENCY_HZ: 
INSTRUMENTAL_DAMPING: 
FULL_SCALE_G: 
N_BIT_DIGITAL_CONVERTER: 
PGA_CM/S^2: -58.418377
TIME_PGA_S: 39.570000
BASELINE_CORRECTION: BASELINE REMOVED
FILTER_TYPE: BUTTERWORTH
FILTER_ORDER: 2
LOW_CUT_FREQUENCY_HZ: 0.060
HIGH_CUT_FREQUENCY_HZ: 40.000
LATE/NORMAL_TRIGGERED: NT
DATABASE_VERSION: DYNA 1.0
HEADER_FORMAT: DYNA 1.2
DATA_TYPE: ACCELERATION
PROCESSING: manual (Paolucci et al., 2011)
DATA_TIMESTAMP_YYYYMMDD_HHMMSS: 
DATA_LICENSE: CC-BY4_0 (http://creativecommons.org/licenses/by/4.0/)
DATA_CITATION: ESM working group (2015), European Strong-Motion database, version 0.1, Network Activity 3: Networking acceleration networks and SM data users. Project NERA (www.nera-eu.org)
DATA_CREATOR: ESM working group
ORIGINAL_DATA_MEDIATOR_CITATION: Orfeus - European Integrated Data Archive (EIDA) http://www.orfeus-eu.org/eida/
ORIGINAL_DATA_MEDIATOR: Orfeus - European Integrated Data Archive (EIDA)
ORIGINAL_DATA_CREATOR_CITATION: 
ORIGINAL_DATA_CREATOR: network: TV (INGV Experiments Network); owner: Istituto Nazionale di Geofisica e Vulcanologia
USER1: 
USER2: 
USER3: 
USER4: 
USER5: 
[...]
0.181416
0.316560
0.497776
0.629213
0.623525
0.481023
0.271939
0.075113
-0.046661
-0.054081
0.042566
0.168522
0.228380
0.185315
0.084772
-0.012797
-0.108197
-0.262971
-0.533056
-0.894026
-1.205655
-1.263023
-0.939757
-0.312080
0.378070
0.890260
1.108136
1.036666
0.745108
0.330373
-0.101907
-0.464492
-0.709649
-0.819351
-0.788906
-0.638803
-0.424086
-0.199024
0.019418
0.236194
0.447559
0.631516
0.740850
0.710809
0.517028
0.246109
0.073702
0.126623
0.364114
0.607978
0.687875
0.561937
0.308425
0.015585
-0.295031
-0.632318
-0.963901
-1.213113
-1.315855
-1.267154
-1.121839
-0.951886
-0.777450
-0.533465
-0.138592
0.396337
0.944334
1.326009
1.406715
1.203029
0.906906
0.727470
0.676988
0.566686
0.235645
-0.250697
-0.631095
-0.662228
-0.336279
0.079186
0.241937
0.023915
-0.381222
-0.645221
-0.599554
-0.338837
-0.061796
0.127864
0.254350
0.369526
0.456784
0.422697
0.179000
-0.267699
-0.805931
-1.275929
-1.527934
-1.484000
-1.214786
-0.927502
-0.783345
-0.703856
-0.422543
0.231089
1.126479
1.921409
2.320106
2.248032
1.840762
1.301927
0.759126
0.257778
-0.123038
-0.255179
-0.131382
0.045315
0.049108
-0.133100
-0.318971
-0.351625
-0.248798
-0.142998
-0.143032
-0.281541
-0.523463
-0.755667
-0.808583
-0.575201
-0.121449
0.371035
0.777850
1.115263
1.455332
1.777232
1.911140
1.660967
1.001464
0.111955
-0.806097
-1.674971
-2.454978
-3.003209
-3.122847
-2.711573
-1.803254
-0.544796
0.790239
1.847994
2.378984
2.388952
2.075347
1.641765
1.186247
0.708651
0.183496
-0.357166
-0.805748
-1.055923
-1.086391
-0.953640
-0.722437
-0.444492
-0.192170
-0.022689
0.118751
0.352760
0.663993
0.832599
0.645100
0.164920
-0.245455
-0.211747
0.328864
1.085276
1.647317
1.740124
1.310823
0.485141
-0.486379
-1.310758
-1.809477
-2.004738
-2.001521
-1.824774
-1.441616
-0.890841
-0.286650
0.274583
0.716715
0.936214
0.860995
0.541884
0.108362
-0.343420
-0.736549
-0.898444
-0.604292
0.146143
0.983236
1.438830
1.335280
0.876180
0.438212
0.279399
0.351849
0.371059
0.106465
-0.397598
-0.883671
-1.113080
-1.038629
-0.803552
-0.591110
-0.461471
-0.324202
-0.072136
0.271182
0.565354
0.681919
0.579699
0.318589
0.068496
0.030206
0.211784
0.309728
-0.019301
-0.742977
-1.412543
-1.537880
-0.992654
-0.130625
0.470598
0.449414
-0.083241
-0.686550
-0.979794
-0.904452
-0.649970
-0.403437
-0.186962
0.127082
0.656005
1.330720
1.890788
2.049632
1.664199
0.838228
-0.100392
-0.826758
-1.265777
-1.557806
-1.797243
-1.891648
-1.701686
-1.249992
-0.724737
-0.311707
-0.102589
-0.119590
-0.289046
-0.417418
-0.362750
-0.231676
-0.247702
-0.401915
-0.373091
0.139950
1.061065
1.952841
2.387040
2.290968
1.942548
1.682438
1.644596
1.679953
1.503392
0.990589
0.344385
-0.096971
-0.181171
0.000101
0.294833
0.614465
0.915248
1.154385
1.263517
1.132402
0.637308
-0.256877
-1.376102
-2.346080
-2.792303
-2.590783
-1.975664
-1.387967
-1.117201
-1.034915
-0.729484
0.055724
1.140597
2.052931
2.390013
2.038892
1.146768
-0.036275
-1.297485
-2.476397
-3.352845
-3.600150
-2.957331
-1.480643
0.389047
2.034641
2.988738
3.117812
2.572474
1.647576
0.690304
0.013554
-0.252141
-0.237165
-0.175851
-0.162017
-0.127434
-0.038646
0.000176
-0.113413
-0.322698
-0.475579
-0.511931
-0.541789
-0.759091
-1.268972
-1.962862
-2.585137
-2.917018
-2.838072
-2.282090
-1.283181
-0.041027
1.158875
2.064072
2.493147
2.378780
1.837106
1.148600
0.626512
0.445502
0.522459
0.575879
0.371622
-0.063011
-0.450141
-0.469220
-0.006273
0.735249
1.365808
1.598680
1.463483
1.251674
1.241671
1.476505
1.794326
2.014195
2.056191
1.944720
1.750542
1.490737
1.085179
0.465257
-0.304349
-1.068200
-1.722861
-2.273656
-2.759175
-3.188799
-3.579158
-3.962082
-4.296752
-4.446608
-4.307598
-3.908793
-3.341533
-2.653694
-1.870917
-1.076290
-0.405844
0.053397
0.347765
0.613061
0.941841
1.295750
1.541131
1.603732
1.610714
1.816112
2.339045
3.016574
3.542097
3.717609
3.550729
3.148693
2.609326
2.046752
1.623699
1.453073
1.478881
1.506399
1.351049
0.953420
0.381491
-0.257945
-0.909571
-1.555049
-2.111337
-2.405842
-2.302607
-1.824888
-1.116037
-0.301025
0.574107
1.442243
2.075892
2.139827
1.455639
0.215863
-1.053503
-1.758899
-1.594755
-0.747368
0.276847
1.083567
1.650736
2.156386
2.624593
2.852413
2.670081
2.129080
1.402199
0.646300
0.023376
-0.302504
-0.315038
-0.220614
-0.288206
-0.631289
-1.147547
-1.611832
-1.830300
-1.795760
-1.735439
-1.960503
-2.617708
-3.555646
-4.414372
-4.849521
-4.706429
-4.071033
-3.228010
-2.517170
-2.130578
-2.007860
-1.916008
-1.644999
-1.169054
-0.629082
-0.157753
0.228012
0.545774
0.759839
0.832958
0.771835
0.578792
0.261808
-0.078427
-0.271514
-0.225407
-0.031095
0.046702
-0.295859
-1.146369
-2.235633
-3.175345
-3.836488
-4.366568
-4.854397
-5.139773
-4.990592
-4.361420
-3.424846
-2.370978
-1.196995
0.278124
2.157428
4.210337
5.901911
6.748830
6.659536
5.866495
4.580337
2.873218
0.895517
-1.002978
-2.469440
-3.348802
-3.636702
-3.374430
-2.659459
-1.657557
-0.550370
0.521139
1.511999
2.483006
3.480166
4.389171
4.962854
4.987492
4.384493
3.196603
1.550126
-0.392636
-2.479358
-4.517162
-6.178303
-7.061442
-6.904108
-5.728283
-3.803713
-1.497102
0.867133
3.054307
4.889447
6.204667
6.816831
6.589523
5.538883
3.872167
1.941020
0.135266
-1.272814
-2.236565
-2.880789
-3.322312
-3.537839
-3.422120
-2.961707
-2.295209
-1.602818
-0.987490
-0.445968
0.090788
0.657592
1.177104
1.539914
1.742013
1.844310
1.827766
1.601501
1.144583
0.578505
0.103735
-0.145987
-0.214598
-0.265882
-0.411555
-0.639013
-0.898667
-1.206829
-1.624249
-2.116930
-2.472986
-2.425887
-1.897279
-1.140841
-0.651158
-0.847514
-1.728334
-2.831617
-3.613247
-3.862861
-3.718333
-3.378862
-2.949638
-2.532902
-2.293507
-2.337215
-2.585097
-2.832069
-2.878666
-2.559225
-1.713221
-0.257302
1.634756
3.481770
4.773794
5.346878
5.426373
5.311883
5.059867
4.437394
3.155079
1.201598
-1.001792
-2.834796
-3.956632
-4.544020
-4.985224
-5.389613
-5.539383
-5.276389
-4.707979
-4.005258
-3.221101
-2.382289
-1.622858
-1.168585
-1.217098
-1.799386
-2.734425
-3.730910
-4.510719
-4.845854
-4.594011
-3.806113
-2.729883
-1.559987
-0.217763
1.512042
3.679602
6.070604
8.328684
10.101481
11.126237
11.290625
10.643481
9.340311
7.615193
5.785261
4.195739
3.097521
2.529617
2.304857
2.130202
1.751843
1.040537
0.051581
-0.955818
-1.640607
-1.825914
-1.676031
-1.627800
-2.072746
-3.019067
-4.082842
-4.834955
-5.071536
-4.761309
-3.938349
-2.737312
-1.403479
-0.176609
0.818605
1.581767
2.187793
2.742335
3.362057
4.144388
5.098319
6.113074
7.022239
7.667956
7.916947
7.699012
7.019620
5.868145
4.172159
1.933491
-0.633235
-3.165965
-5.330709
-6.939042
-7.982976
-8.564574
-8.749428
-8.519706
-7.868925
-6.876500
-5.695089
-4.505354
-3.450796
-2.583768
-1.910398
-1.492870
-1.436076
-1.763555
-2.379331
-3.139683
-3.881248
-4.398246
-4.473724
-3.950600
-2.774738
-1.008525
1.192624
3.649444
6.207555
8.722361
11.024052
12.893315
14.068925
14.316241
13.500861
11.608475
8.762642
5.270724
1.608866
-1.716168
-4.323112
-6.007954
-6.727567
-6.568593
-5.682659
-4.240718
-2.474559
-0.685815
0.915132
2.357946
3.782133
5.153528
6.159192
6.385242
5.623053
4.018845
1.921743
-0.353383
-2.591319
-4.608056
-6.195561
-7.136231
-7.290533
-6.692741
-5.518933
-3.919301
-1.929740
0.404310
2.881208
5.175920
6.975370
8.084214
8.457419
8.126383
7.109783
5.429301
3.137453
0.302531
-2.920712
-6.174455
-8.944940
-10.769214
-11.394864
-10.791096
-9.067537
-6.396366
-3.010557
0.747792
4.425386
7.517904
9.566251
10.301244
9.750599
8.154994
5.766507
2.786005
-0.512095
-3.692537
-6.270168
-7.930331
-8.671287
-8.760750
-8.522639
-8.103220
-7.433524
-6.431984
-5.189754
-3.896690
-2.649670
-1.456501
-0.397389
0.372970
0.785965
0.888631
0.717135
0.244481
-0.531938
-1.502019
-2.491611
-3.422464
-4.379248
-5.474508
-6.677727
-7.768773
-8.405260
-8.299522
-7.426519
-6.014334
-4.281918
-2.271995
-0.008837
2.272383
4.166857
5.338939
5.677290
5.308142
4.523248
3.628303
2.811318
2.135965
1.585790
1.103519
0.665355
0.318796
0.113355
0.025515
-0.043064
-0.222786
-0.599985
-1.139191
-1.680621
-2.008368
-1.932177
-1.386722
-0.524360
0.316884
0.788575
0.681214
-0.053379
-1.310994
-2.815256
-4.173407
-5.074869
-5.485726
-5.634833
-5.830229
-6.345743
-7.420122
-9.152277
-11.290515
-13.233016
-14.349014
-14.325234
-13.233398
-11.328173
-8.839284
-5.956327
-2.921330
-0.020071
2.562273
4.826282
6.839367
8.547987
9.744692
10.221038
9.956843
9.171812
8.188122
7.243457
6.428981
5.751114
5.202886
4.785058
4.491419
4.304570
4.209588
4.191452
4.220425
4.236735
4.158262
3.953332
3.680262
3.396553
3.108333
2.880147
2.910658
3.428089
4.496735
5.878398
7.073750
7.556617
7.007600
5.367979
2.771428
-0.509620
-4.099948
-7.592946
-10.637710
-12.993508
-14.525994
-15.156151
-14.843091
-13.657356
-11.865326
-9.914476
-8.301983
-7.404403
-7.376572
-8.145476
-9.451263
-10.917680
-12.170567
-13.015355
-13.591452
-14.299634
-15.446783
-16.926437
-18.273012
-18.986221
-18.785082
-17.679634
-15.954614
-14.083648
-12.531311
-11.527597
-10.977336
-10.545197
-9.802602
-8.327406
-5.810688
-2.234233
2.062125
6.574139
10.900424
14.844011
18.318539
21.198448
23.300720
24.520050
24.950968
24.871868
24.610361
24.372948
24.147959
23.777521
23.124096
22.144127
20.838140
19.180197
17.111507
14.634966
11.924913
9.335266
7.321996
6.300442
6.461616
7.733123
9.953189
12.980007
16.564283
20.246456
23.508345
25.975664
27.418745
27.661283
26.613331
24.403524
21.439749
18.312880
15.609021
13.751125
12.933616
13.155221
14.269992
15.916735
17.369814
17.592916
15.703407
11.589009
6.003402
-0.032985
-5.786468
-10.834693
-14.962313
-18.229456
-20.965622
-23.557329
-26.250513
-29.110600
-32.073658
-35.042110
-37.991436
-40.971096
-43.955540
-46.738937
-49.087509
-50.962952
-52.460217
-53.557571
-54.038017
-53.632683
-52.161587
-49.508705
-45.502373
-39.866901
-32.314423
-22.781181
-11.705935
-0.111252
10.726782
19.951374
27.525888
33.848507
39.103493
43.096588
45.462658
45.865303
44.129784
40.314392
34.723110
27.904915
20.587889
13.493826
7.156945
1.877258
-2.232933
-5.200176
-7.167250
-8.398857
-9.280761
-10.217778
-11.433877
-12.850017
-14.154454
-14.996096
-15.168098
-14.706371
-13.899198
-13.156695
-12.712509
-12.326307
-11.227482
-8.507762
-3.875420
1.943182
7.730293
12.702659
16.854017
20.518011
23.785976
26.372732
27.937489
28.438190
28.148674
27.404350
26.394356
25.142879
23.613667
21.786461
19.672508
17.382540
15.171863
13.316485
11.918514
10.807296
9.664894
8.373647
7.216938
6.646149
6.940735
8.142473
10.129486
12.593119
15.015119
16.837765
17.716404
17.568611
16.394480
14.129931
10.701427
6.134202
0.544624
-5.853822
-12.662375
-19.372021
-25.587557
-31.056885
-35.541252
-38.813595
-40.728745
-41.215511
-40.266857
-37.973675
-34.521980
-30.167450
-25.303385
-20.543417
-16.552561
-13.721630
-12.100421
-11.576257
-11.979881
-13.122627
-14.845077
-16.966352
-19.177073
-21.052153
-22.163494
-22.177494
-20.938936
-18.556337
-15.389621
-11.918242
-8.641339
-5.968722
-3.950944
-2.159333
-0.051768
2.577808
5.565314
8.605929
11.411765
13.733122
15.345896
16.111134
16.050810
15.325956
14.164664
12.813997
11.484720
10.263848
9.065772
7.737200
6.299527
5.092267
4.628971
5.339624
7.465299
11.045700
15.842880
21.258078
26.416044
30.495943
33.071873
34.125965
33.807404
32.260731
29.664389
26.401140
23.116434
20.499088
19.005583
18.831263
20.026978
22.441704
25.439140
27.898418
29.054846
29.342316
29.778843
30.623543
31.240473
31.015560
29.796577
27.584553
24.309320
19.976894
14.794138
9.124129
3.397653
-2.032751
-7.061049
-11.812459
-16.372959
-20.550947
-23.971243
-26.327574
-27.465851
-27.339048
-26.016150
-23.734358
-20.902737
-18.029055
-15.601992
-13.993960
-13.410128
-13.845170
-15.068768
-16.730139
-18.543455
-20.372080
-22.142275
-23.739517
-25.036638
-25.998274
-26.707779
-27.252495
-27.562122
-27.381874
-26.442173
-24.671888
-22.260286
-19.527527
-16.735239
-14.003223
-11.352440
-8.764587
-6.231763
-3.821144
-1.656437
0.215678
1.886502
3.478977
5.047885
6.603112
8.134899
9.581340
10.827337
11.724337
12.090498
11.774435
10.815962
9.581085
8.723900
8.968919
10.858838
14.539773
19.589491
25.124050
30.316122
34.851658
38.861855
42.544083
45.910618
48.799736
50.942207
51.810593
50.421280
45.691296
37.519924
27.572872
18.497707
12.140033
8.734871
7.670638
8.517676
11.150067
15.214015
19.784063
23.541433
25.508081
25.748592
25.004290
23.723562
21.855099
19.339424
16.354065
13.196698
10.251019
7.832933
5.780039
3.501933
0.575170
-2.889796
-6.400037
-9.466365
-11.854898
-13.601306
-14.870617
-15.750422
-16.227091
-16.370531
-16.470304
-17.046270
-18.639128
-21.439135
-25.199081
-29.534500
-34.209518
-39.114910
-44.052052
-48.676487
-52.650993
-55.726322
-57.698547
-58.418377
-57.873158
-56.191803
-53.501892
-49.711098
-44.390732
-37.062370
-27.816788
-17.590599
-7.713046
0.871457
8.001525
13.999520
19.120850
23.378614
26.704432
29.055885
30.403669
30.702433
29.861233
27.758568
24.327724
19.678480
14.241499
8.770394
4.059172
0.652081
-1.205110
-1.526726
-0.570627
1.232837
3.421738
5.613345
7.469872
8.599691
8.603807
7.266708
4.694974
1.292091
-2.396775
-5.887077
-8.894493
-11.296915
-12.933163
-13.461058
-12.474054
-9.793361
-5.692598
-0.850990
4.007557
8.501060
12.580751
16.146170
18.803574
20.058695
19.659622
17.791742
15.067414
12.262195
9.914960
8.134305
6.730328
5.467894
4.249320
3.130220
2.190047
1.439763
0.843972
0.360468
-0.039079
-0.385210
-0.780497
-1.416289
-2.483982
-4.080851
-6.189417
-8.719507
-11.545135
-14.534483
-17.619627
-20.811970
-24.105846
-27.402565
-30.537994
-33.370914
-35.832527
-37.872929
-39.376194
-40.107342
-39.686497
-37.646759
-33.633385
-27.677860
-20.332195
-12.474133
-4.931126
1.729731
7.151096
11.037886
13.092558
13.111728
11.149526
7.593855
3.097713
-1.628152
-6.029597
-9.683870
-12.096930
-12.740803
-11.404150
-8.449351
-4.679626
-0.890218
2.455953
5.143190
7.069221
8.279855
8.976780
9.503630
10.248473
11.425237
12.993189
14.694163
16.122631
16.933050
16.975290
16.191069
14.481380
11.653859
7.458110
1.811854
-4.867779
-11.606217
-17.280363
-21.151890
-23.070061
-23.277161
-22.077353
-19.665058
-16.177341
-11.833301
-7.047119
-2.425499
1.419963
4.150611
5.797589
6.581504
6.764947
6.721188
6.979886
8.105317
10.482282
14.100081
18.522945
23.161402
27.610189
31.710512
35.333187
38.244457
40.272999
41.505997
42.155037
42.176430
41.086609
38.251347
33.473362
27.393303
21.218315
15.926446
11.811459
8.680320
6.196455
4.103115
2.285632
0.641879
-1.016137
-2.915253
-5.214865
-7.890466
-10.751551
-13.618469
-16.383718
-18.905128
-20.988026
-22.438320
-22.991508
-22.293709
-20.193708
-17.120705
-14.029574
-11.796863
-10.692005
-10.489280
-10.857342
-11.493672
-12.105136
-12.376097
-11.839879
-9.759440
-5.358493
1.447270
9.522761
17.136248
23.210066
27.717524
31.000647
33.082199
33.626312
32.325020
29.269749
24.971128
20.076433
15.221784
11.084179
8.267063
7.029685
7.170363
8.097484
9.003703
9.131092
8.029432
5.691374
2.512657
-0.924169
-4.122650
-6.824422
-8.960711
-10.508703
-11.441011
-11.794686
-11.768228
-11.754679
-12.197046
-13.375866
-15.392377
-18.260471
-21.884560
-25.981386
-30.090322
-33.703545
-36.381630
-37.748356
-37.486015
-35.364315
-31.289846
-25.537394
-18.957045
-12.679789
-7.511434
-3.659264
-0.981242
0.617563
1.085010
0.422550
-1.131668
-3.091224
-4.857127
-5.918192
-5.971517
-4.899321
-2.728214
0.311690
3.773250
7.166599
10.150698
12.553719
14.256771
15.109042
14.996810
13.963893
12.221083
10.043088
7.657178
5.216908
2.824959
0.540312
-1.601287
-3.566576
-5.333157
-6.878742
-8.137531
-8.988602
-9.295113
-8.919035
-7.694882
-5.439912
-2.041306
2.390969
7.427952
12.461784
16.990177
20.768370
23.759417
26.017431
27.633465
28.714518
29.310177
29.354334
28.687714
27.156229
24.757599
21.691015
18.261814
14.764380
11.385087
8.169069
5.101153
2.189598
-0.526136
-2.994593
-5.182282
-7.092001
-8.729559
-10.077285
-11.133531
-11.956341
-12.646222
-13.312808
-14.079802
-15.070381
-16.328754
-17.768976
-19.216276
-20.490391
-21.449883
-21.960905
-21.857698
-20.973528
-19.222195
-16.662933
-13.494314
-9.977215
-6.357719
-2.872948
0.199195
2.584541
4.130007
4.843797
4.842404
4.301847
3.464679
2.643031
2.148637
2.195430
2.841599
3.991839
5.456229
7.003030
8.366749
9.275978
9.549750
9.190463
8.362188
7.276812
6.109375
4.979525
3.979556
3.226513
2.868371
3.026727
3.740900
4.939296
6.438624
7.994476
9.401036
10.567022
11.493197
12.205681
12.735550
13.118515
13.383303
13.561343
13.709107
13.892392
14.142196
14.441138
14.727272
14.887192
14.781025
14.281473
13.284499
11.727131
9.613508
7.016744
4.053902
0.873020
-2.324537
-5.332411
-8.047737
-10.454735
-12.547297
-14.323739
-15.759637
-16.769756
-17.239906
-17.043715
-16.023947
-14.023640
-10.960930
-6.907032
-2.152854
2.808751
7.421017
11.236997
14.057420
15.939753
17.022495
17.347000
16.812572
15.171530
12.068049
7.267353
1.026149
-5.783862
-12.063805
-17.036125
-20.446466
-22.386099
-23.016806
-22.444319
-20.780701
-18.234243
-15.113876
-11.782273
-8.609797
-5.941466
-4.051822
-3.087077
-3.045833
-3.809535
-5.221741
-7.194216
-9.700969
-12.636881
-15.725238
-18.559322
-20.737907
-21.996445
-22.161301
-20.987350
-18.215277
-13.937598
-8.866424
-4.007128
0.070285
3.480361
6.522389
9.203641
11.300957
12.649073
13.284992
13.406327
13.230776
12.888666
12.460387
12.108884
12.123795
12.780093
14.131283
15.950188
17.899454
19.760344
21.470745
22.987566
24.185888
24.870031
24.847717
24.018230
22.405874
20.128880
17.348223
14.213096
10.829806
7.242154
3.427232
-0.615849
-4.771270
-8.832139
-12.549014
-15.656006
-17.932446
-19.247978
-19.567335
-18.945259
-17.490009
-15.315029
-12.540755
-9.360716
-6.100748
-3.176193
-0.975496
0.225580
0.282233
-0.836491
-3.043042
-6.109884
-9.710283
-13.524437
-17.309143
-20.867968
-23.979216
-26.397139
-27.918533
-28.396156
-27.730450
-25.900225
-22.962925
-19.098248
-14.711243
-10.334327
-6.371895
-3.019235
-0.339177
1.692792
3.174413
4.252889
5.085968
5.789816
6.420557
6.998132
7.526316
8.018364
8.532003
9.171725
10.052724
11.243430
12.735800
14.467940
16.335558
18.188545
19.864595
21.240189
22.243544
22.812456
22.851007
