EVENT_NAME: EMILIA_2ND_SHOCK
EVENT_ID: IT-2012-0011
EVENT_DATE_YYYYMMDD: 20120529
EVENT_TIME_HHMMSS: 070002
EVENT_LATITUDE_DEGREE: 44.8417
EVENT_LONGITUDE_DEGREE: 11.0657
EVENT_DEPTH_KM: 8.1
HYPOCENTER_REFERENCE: INGV-CNT_Seismic_Bulletin
MAGNITUDE_W: 6.0
MAGNITUDE_W_REFERENCE: RCMT-INGV
MAGNITUDE_L: 5.8
MAGNITUDE_L_REFERENCE: INGV-CNT_Seismic_Bulletin
FOCAL_MECHANISM: TF
NETWORK: TV
STATION_CODE: CAS05
STATION_NAME: SAN CARLO
STATION_LATITUDE_DEGREE: 44.802222
STATION_LONGITUDE_DEGREE: 11.409715
STATION_ELEVATION_M: 
LOCATION: 
SENSOR_DEPTH_M: 
VS30_M/S: 
SITE_CLASSIFICATION_EC8: C*
MORPHOLOGIC_CLASSIFICATION: 
EPICENTRAL_DISTANCE_KM: 27.6
EARTHQUAKE_BACKAZIMUTH_DEGREE: 279.3
DATE_TIME_FIRST_SAMPLE_YYYYMMDD_HHMMSS: 20120529_065939.000
DATE_TIME_FIRST_SAMPLE_PRECISION: milliseconds
SAMPLING_INTERVAL_S: 0.005000
NDATA: 30001
DURATION_S: 150.005
STREAM: HNZ
UNITS: cm/s^2
INSTRUMENT: sensor = Episensor FBA ES-T [Kinemetrics] | digitizer = Unknown [Unknown]
INSTRUMENT_ANALOG/DIGITAL: D
INSTRUMENTAL_FREQUENCY_HZ: 
INSTRUMENTAL_DAMPING: 
FULL_SCALE_G: 
N_BIT_DIGITAL_CONVERTER: 
PGA_CM/S^2: 46.183782
TIME_PGA_S: 37.050000
BASELINE_CORRECTION: BASELINE REMOVED
FILTER_TYPE: BUTTERWORTH
FILTER_ORDER: 2
LOW_CUT_FREQUENCY_HZ: 0.100
HIGH_CUT_FREQUENCY_HZ: 40.000
LATE/NORMAL_TRIGGERED: NT
DATABASE_VERSION: DYNA 1.0
HEADER_FORMAT: DYNA 1.2
DATA_TYPE: ACCELERATION
PROCESSING: manual (Paolucci et al., 2011)
DATA_TIMESTAMP_YYYYMMDD_HHMMSS: 
DATA_LICENSE: CC-BY4_0 (http://creativecommons.org/licenses/by/4.0/)
DATA_CITATION: ESM working group (2015), European Strong-Motion database, version 0.1, Network Activity 3: Networking acceleration networks and SM data users. Project NERA (www.nera-eu.org)
DATA_CREATOR: ESM working group
ORIGINAL_DATA_MEDIATOR_CITATION: Orfeus - European Integrated Data Archive (EIDA) http://www.orfeus-eu.org/eida/
ORIGINAL_DATA_MEDIATOR: Orfeus - European Integrated Data Archive (EIDA)
ORIGINAL_DATA_CREATOR_CITATION: 
ORIGINAL_DATA_CREATOR: network: TV (INGV Experiments Network); owner: Istituto Nazionale di Geofisica e Vulcanologia
USER1: 
USER2: 
USER3: 
USER4: 
USER5: 
[...]
-0.221386
-0.388481
-0.496978
-0.423895
-0.107723
0.354441
0.722846
0.783530
0.529471
0.172620
-0.039730
-0.029738
0.082353
0.133687
0.081955
0.017224
0.042556
0.170561
0.326985
0.425176
0.432755
0.383323
0.330834
0.297345
0.267433
0.201755
0.033341
-0.295731
-0.742352
-1.138890
-1.293731
-1.106951
-0.618098
0.010687
0.577060
0.945921
1.087012
1.035355
0.854838
0.621672
0.389614
0.164537
-0.054299
-0.210460
-0.220525
-0.092554
0.036185
0.020215
-0.164878
-0.424251
-0.625465
-0.671171
-0.538911
-0.259832
0.124597
0.518314
0.714798
0.520551
-0.027714
-0.640253
-0.996999
-0.972397
-0.676112
-0.349301
-0.200748
-0.243419
-0.272735
-0.063673
0.393388
0.862348
1.063428
0.924251
0.651677
0.537673
0.673745
0.855416
0.774170
0.327986
-0.248136
-0.591873
-0.562162
-0.349219
-0.251400
-0.392504
-0.638896
-0.726713
-0.484129
0.006951
0.470116
0.680930
0.640794
0.506072
0.383828
0.223450
-0.086169
-0.524478
-0.897664
-1.026605
-0.920311
-0.705015
-0.433841
-0.053142
0.432519
0.825568
0.855251
0.475809
-0.010304
-0.203861
0.009314
0.357744
0.467715
0.219554
-0.178130
-0.417134
-0.361439
-0.122179
0.086305
0.130437
0.024906
-0.100491
-0.084374
0.137807
0.447209
0.613116
0.476631
0.076564
-0.391545
-0.742224
-0.928363
-0.989238
-0.900881
-0.574197
-0.027775
0.540466
0.918861
1.063977
1.083620
1.089627
1.086799
0.970308
0.637405
0.119956
-0.426786
-0.862951
-1.129707
-1.204008
-1.094251
-0.881665
-0.676832
-0.522435
-0.382930
-0.219440
-0.043935
0.083510
0.097802
0.001804
-0.090079
-0.015852
0.299741
0.766098
1.168235
1.298807
1.083416
0.598196
-0.003975
-0.562094
-0.936242
-1.016710
-0.748081
-0.205881
0.352667
0.627813
0.541725
0.303475
0.159766
0.137724
0.083602
-0.088354
-0.269467
-0.315352
-0.262591
-0.283855
-0.450708
-0.638196
-0.651370
-0.385413
0.102413
0.619518
0.952301
0.991151
0.762886
0.389752
0.048157
-0.105689
-0.047788
0.097979
0.175330
0.098889
-0.116841
-0.346315
-0.393991
-0.141048
0.345186
0.884935
1.321277
1.568185
1.615591
1.498610
1.195098
0.626913
-0.127680
-0.740140
-0.926181
-0.773372
-0.627773
-0.690836
-0.852673
-0.895696
-0.710842
-0.294334
0.305096
0.946823
1.388226
1.388634
0.846410
-0.105795
-1.113782
-1.805272
-2.070900
-2.108603
-2.139323
-2.123153
-1.822667
-1.134477
-0.294505
0.275321
0.323881
0.000285
-0.263405
-0.149355
0.254633
0.620149
0.815709
1.058479
1.592362
2.323671
2.872863
2.961762
2.659723
2.207265
1.667543
0.862711
-0.327553
-1.678420
-2.702816
-3.069467
-2.922688
-2.700451
-2.630727
-2.503242
-1.947908
-0.858324
0.478422
1.609352
2.211316
2.189698
1.626870
0.743071
-0.160619
-0.848363
-1.263705
-1.488246
-1.595869
-1.509128
-0.981378
0.170483
1.725161
3.031042
3.451606
2.884317
1.844011
1.042151
0.865041
1.165184
1.436246
1.196879
0.337431
-0.809846
-1.732412
-2.102237
-1.931802
-1.436835
-0.817216
-0.182590
0.392631
0.837412
1.121329
1.268787
1.304630
1.232296
1.110563
1.087548
1.250855
1.451448
1.376447
0.829120
-0.101977
-1.147537
-2.092773
-2.907978
-3.678196
-4.441893
-5.106010
-5.469123
-5.284705
-4.362816
-2.729281
-0.716198
1.165694
2.498981
3.155051
3.274400
3.064600
2.609880
1.886217
0.947808
0.043833
-0.517563
-0.639423
-0.504425
-0.337067
-0.163490
0.146636
0.652537
1.231181
1.707780
2.032655
2.252112
2.327050
2.080949
1.372076
0.295453
-0.809265
-1.606057
-2.067549
-2.456345
-2.920402
-3.204275
-2.885284
-1.835912
-0.360631
1.039611
1.930504
2.088415
1.607072
0.912121
0.529765
0.694653
1.134356
1.275254
0.722667
-0.410454
-1.580036
-2.193848
-2.022353
-1.324989
-0.568651
-0.017984
0.360739
0.616231
0.598533
0.164181
-0.522144
-1.081514
-1.260963
-1.042846
-0.522637
0.148744
0.782425
1.274179
1.683108
2.115753
2.575335
2.934455
2.949277
2.290311
0.747376
-1.457981
-3.661568
-5.203617
-5.874247
-5.872143
-5.424004
-4.559728
-3.224717
-1.513741
0.239842
1.604636
2.310905
2.423746
2.274088
2.173631
2.155048
1.988968
1.437631
0.471903
-0.694405
-1.699857
-2.208652
-2.097492
-1.497073
-0.627853
0.371190
1.391778
2.174357
2.348024
1.790265
0.888970
0.311006
0.478640
1.256048
2.071075
2.378554
2.145888
1.858871
1.913725
2.073742
1.698393
0.479204
-1.159933
-2.367539
-2.545732
-1.827825
-0.978618
-0.788919
-1.392872
-2.071280
-1.858858
-0.461033
1.501860
3.102788
3.783346
3.540226
2.717674
1.655091
0.433184
-1.073642
-2.903447
-4.782985
-6.199115
-6.673047
-5.970753
-4.156980
-1.602546
1.067561
3.238100
4.638705
5.344181
5.439597
4.846669
3.576886
2.045917
0.917937
0.535984
0.587524
0.391274
-0.502880
-1.935297
-3.292932
-4.111746
-4.539694
-5.074323
-5.827361
-6.238821
-5.630654
-3.954027
-1.907003
-0.337479
0.442954
0.794920
1.326268
2.410049
3.981165
5.589860
6.640581
6.687292
5.566507
3.366023
0.440191
-2.516656
-4.610009
-5.195461
-4.245897
-2.251305
0.123166
2.237112
3.624850
4.209140
4.279387
4.138954
3.849793
3.329602
2.551556
1.598527
0.610909
-0.251265
-0.805530
-0.905691
-0.629392
-0.382339
-0.667750
-1.669409
-3.029394
-4.015621
-3.990794
-2.872333
-1.224647
0.126595
0.671835
0.490651
0.004052
-0.431611
-0.665426
-0.739304
-0.895843
-1.375588
-2.033615
-2.335964
-1.902845
-0.986733
-0.326321
-0.513576
-1.434415
-2.279096
-2.231128
-1.274608
-0.234610
0.094403
-0.179996
-0.113453
1.130050
3.394600
5.590995
6.651813
6.410670
5.538944
4.747117
4.139545
3.241875
1.547865
-0.935288
-3.615366
-5.742271
-6.897964
-7.074452
-6.324014
-4.486531
-1.393956
2.669311
6.794710
9.823266
11.008747
10.470925
9.070989
7.689633
6.411813
4.491937
1.422676
-1.947031
-3.752060
-2.806889
0.214026
3.388933
5.131051
5.168893
4.369825
3.788276
3.655512
3.184916
1.436884
-1.677696
-5.230490
-7.924314
-8.963687
-8.553155
-7.577299
-6.631142
-5.411769
-3.291508
-0.485561
1.591235
1.276738
-1.915158
-6.580632
-10.093922
-10.377013
-7.403988
-3.031210
0.626383
2.613529
3.290738
3.568479
3.986775
4.334367
4.195284
3.740514
3.582710
3.862938
3.982260
3.416360
2.397400
1.522421
0.992986
0.632024
0.522782
1.151547
2.719909
4.519083
5.215557
3.835206
0.478820
-3.786339
-7.468102
-9.128739
-7.858205
-3.836252
1.399143
5.516188
6.746230
5.089622
2.185012
-0.212820
-1.593981
-2.474077
-3.261578
-3.919813
-4.515553
-5.278230
-5.983459
-5.983142
-5.110024
-4.009642
-3.335341
-3.054490
-2.789156
-2.506888
-2.553150
-3.103696
-3.821197
-4.064423
-3.357654
-1.687761
0.622043
3.308338
6.317167
9.536946
12.568591
14.769566
15.350565
13.572109
9.231305
3.129861
-3.004840
-7.298010
-8.829746
-8.228942
-7.052119
-6.382555
-6.085625
-5.416008
-4.035848
-2.278842
-0.705218
0.318423
0.706159
0.635775
0.604239
1.316959
3.152834
5.588585
7.408464
7.798371
7.130015
6.355650
5.673846
4.097959
0.521272
-4.821426
-10.161992
-13.636805
-14.804770
-14.605837
-14.030450
-13.103070
-11.043200
-7.108920
-1.325383
5.306597
11.288048
15.488953
17.521629
17.338213
14.937630
10.644647
5.231028
-0.428562
-5.441229
-8.648203
-9.034335
-6.829087
-3.758443
-1.722887
-1.358375
-1.974211
-2.505807
-2.426918
-2.180082
-2.919492
-5.523018
-9.518707
-12.965544
-13.715939
-11.083913
-6.262444
-1.159999
3.045132
6.427114
9.658547
12.738994
14.340530
12.708655
7.504107
0.823557
-3.747585
-3.521121
1.274732
7.618979
12.005621
12.818533
10.806649
7.962551
6.107905
5.662730
5.072929
1.911027
-4.789913
-13.355446
-20.780291
-25.009430
-25.807955
-23.752331
-19.067093
-11.799992
-2.748078
6.280499
13.240181
16.994490
17.900755
17.257845
16.018425
14.002435
10.413678
5.008604
-1.418810
-7.561932
-12.285719
-14.868883
-14.949909
-12.398245
-7.338665
-0.507251
6.549314
12.003234
14.534500
13.679955
9.929163
4.789246
0.403189
-1.464951
-0.484799
2.042927
4.169756
4.673265
3.626970
1.804390
-0.369027
-3.225404
-7.100215
-11.128611
-13.187315
-11.642917
-7.179261
-2.410766
0.366989
0.822266
0.372476
0.854560
3.105690
6.261192
8.487580
8.655813
7.180968
5.156828
3.017225
0.413511
-2.778926
-5.898392
-8.017647
-8.605715
-7.628345
-5.350968
-2.176180
1.424793
4.922250
7.774463
9.495630
9.615924
7.646485
3.346755
-2.791051
-9.359463
-14.523697
-17.012016
-16.913565
-15.485098
-13.962395
-12.522906
-10.508676
-7.456005
-3.531348
0.825130
5.105842
8.688042
11.147834
12.679816
13.801636
14.497224
14.011306
11.808311
8.446039
5.112116
2.505684
0.453192
-1.569410
-3.675323
-5.236973
-5.442070
-4.258780
-2.537261
-0.984692
0.658169
3.111015
6.265122
8.724676
8.971289
6.969740
4.319909
2.760105
2.724194
3.261844
2.952902
0.919057
-2.429382
-5.270528
-5.485631
-2.535400
1.884136
5.345914
6.626905
6.182678
5.382865
5.523781
6.991710
8.886675
9.596929
8.037165
4.425371
0.001317
-3.859708
-6.480490
-8.201825
-9.952997
-12.438738
-15.637950
-18.911831
-21.549486
-23.236563
-23.938297
-23.476688
-21.523262
-17.922371
-12.760409
-6.287420
0.907329
7.749013
13.029425
15.959225
16.255434
13.916111
9.478545
4.519385
1.085186
0.054386
0.272217
-0.370245
-2.857486
-5.905732
-6.930406
-4.464454
0.146822
3.590229
3.422189
0.138841
-3.628160
-5.774026
-6.303055
-6.404213
-6.498888
-5.616597
-2.668250
1.981518
6.470366
8.975770
9.232140
8.620288
8.846196
10.369153
11.976712
12.006657
10.032581
7.163644
4.742594
3.204170
2.263119
1.569347
0.872945
0.040385
-0.751376
-1.039006
-0.398503
1.236095
3.231065
4.123772
2.470251
-1.640424
-6.164569
-8.686263
-8.486428
-6.856368
-5.528618
-5.145688
-5.041258
-3.933182
-0.837577
4.145021
9.685856
14.042023
16.181517
16.206404
14.903950
13.003769
10.645227
7.359177
2.639697
-3.273957
-8.986031
-12.313179
-11.422012
-6.050795
2.147029
10.472967
16.663610
19.937874
20.915236
20.565920
19.064219
15.568961
9.349811
1.258251
-6.310571
-11.309345
-13.696305
-14.933946
-16.152256
-17.198149
-17.178513
-15.425009
-12.046310
-7.896711
-4.036957
-1.186973
0.313330
0.372350
-0.610562
-1.617392
-1.669345
-0.596998
1.157912
3.354467
6.089527
9.032997
11.018189
10.938180
9.063592
7.047798
6.366060
6.891810
7.195642
6.151213
4.007418
1.870561
0.486890
-0.211587
-0.679017
-1.371809
-2.789791
-5.458356
-9.529994
-14.409912
-18.847933
-21.383902
-20.903391
-17.166794
-10.961813
-3.678533
3.247029
8.647768
11.911251
13.176694
12.973261
11.591461
9.081508
5.772971
2.326075
-0.797486
-3.589023
-6.141627
-8.268220
-9.628186
-10.157034
-10.207030
-10.238056
-10.419693
-10.486042
-9.881113
-8.040218
-4.721064
-0.380316
3.738119
6.237983
6.534334
5.200807
3.405730
1.983253
0.900550
-0.514586
-2.887939
-6.229900
-9.866584
-12.956504
-15.099108
-16.153608
-15.460618
-12.016098
-5.969776
0.556793
4.796365
5.442268
3.399680
0.875048
-0.086678
1.418133
5.024731
9.549747
13.564012
15.901198
16.079897
14.574943
12.710925
11.912646
12.708243
14.564768
16.784595
19.178768
21.541002
22.746124
20.961847
15.140526
6.370641
-2.362493
-8.019139
-9.515119
-8.228079
-6.588713
-6.130150
-6.781367
-7.619449
-7.783751
-6.667276
-3.788785
0.959244
6.798466
12.117049
15.447099
16.459604
15.886060
14.641207
13.221195
11.657394
9.630064
6.693503
2.720864
-1.785730
-5.901786
-8.782761
-10.096250
-10.381939
-11.060448
-13.499302
-17.703367
-22.237516
-25.576860
-27.153297
-27.019609
-25.093966
-21.233341
-15.867867
-10.095775
-4.979936
-0.910811
2.139374
3.872530
3.673310
1.585062
-1.156837
-3.108361
-4.070806
-5.060124
-6.761583
-8.534230
-9.172741
-8.316155
-6.860193
-6.055489
-6.281131
-6.767704
-6.579643
-5.624565
-4.368945
-2.786879
-0.113722
4.304547
10.210494
16.488180
21.690813
24.413319
23.633289
19.344101
12.947270
6.594681
1.871351
-0.885991
-2.189741
-2.594064
-2.133509
-0.349161
3.101043
7.892771
13.122428
17.816557
21.364025
23.588493
24.462158
23.846216
21.656494
18.261612
14.602625
11.875473
10.902773
11.460177
12.197290
11.540454
8.823301
4.579851
-0.089761
-4.424991
-8.448367
-12.448310
-15.940170
-17.555887
-16.400215
-13.210233
-9.700797
-6.919901
-4.479988
-1.249936
3.231189
7.889831
10.773202
10.697260
8.137481
4.528752
0.973911
-2.349991
-5.864284
-9.828004
-13.787786
-16.813404
-18.347069
-18.667187
-18.434490
-17.941841
-16.876282
-14.759013
-11.733973
-8.993367
-8.099375
-9.534444
-11.978189
-13.261131
-12.174691
-9.375777
-6.460019
-4.195182
-1.941110
1.170780
4.937537
8.162721
9.734503
9.478647
8.125635
6.544074
4.943024
2.786165
-0.537080
-5.051904
-10.133629
-14.773274
-17.810329
-18.238247
-15.624555
-10.371214
-3.593426
3.327969
9.209925
13.282114
15.203675
15.011197
13.019987
9.720752
5.705502
1.598086
-1.989565
-4.463632
-5.355163
-4.588196
-2.657044
-0.514486
0.735198
0.258150
-2.070972
-5.568336
-9.213270
-12.322671
-14.779221
-16.707602
-18.128862
-18.965549
-19.198639
-18.889072
-18.061983
-16.593407
-14.254536
-10.944881
-6.932993
-2.935369
0.012486
0.913344
-0.684451
-4.309675
-8.625905
-11.959025
-13.058770
-11.735601
-8.880146
-5.585682
-2.027934
2.655574
9.300976
17.765675
27.009289
35.667789
42.421413
46.183781
46.181389
41.977669
33.867699
23.471844
13.381746
5.657744
0.687535
-2.495198
-5.052106
-7.491550
-9.559215
-10.646045
-10.356576
-8.869981
-6.756905
-4.343492
-1.300462
2.958488
8.385687
13.876223
17.765591
18.721489
16.300213
10.979679
3.839018
-3.958980
-11.564238
-18.319397
-23.432301
-26.222132
-26.726828
-25.589758
-23.189823
-19.269224
-13.640937
-7.003531
-0.747831
4.035191
7.164090
9.003670
9.785386
9.423990
7.828052
5.295755
2.633675
0.759632
0.106151
0.537876
1.857437
4.182241
7.674210
11.936821
15.848138
18.125469
18.044195
15.658635
11.591053
6.731828
1.899935
-2.449037
-6.211521
-9.431046
-12.238030
-14.797402
-16.970720
-18.049814
-17.150581
-14.033441
-9.423532
-4.461349
0.029447
3.729355
6.598636
8.739555
10.388276
11.770906
12.836038
13.166081
12.291045
10.304419
8.224299
7.474736
8.702148
11.025940
12.513290
11.494764
7.589060
1.629821
-5.247196
-12.301705
-19.060408
-24.895119
-29.035606
-30.957178
-30.647911
-28.451254
-24.634912
-19.248766
-12.518773
-5.201184
1.703102
7.581702
12.409805
16.332315
19.249472
20.881365
21.036797
19.685980
16.935638
13.119173
8.882887
5.121384
2.809436
2.725339
5.060074
9.160363
13.727574
17.449348
19.581945
20.037069
19.127596
17.386274
15.463291
13.931879
13.120326
13.089799
13.633812
14.308373
14.650115
14.388717
13.305282
10.928840
6.631818
0.217777
-7.582874
-15.320647
-21.645802
-25.960701
-28.347519
-29.034922
-27.994070
-24.991838
-20.049435
-13.873708
-7.761704
-2.975627
-0.170171
0.614298
-0.464033
-3.372051
-8.153445
-14.604981
-21.956739
-28.820700
-33.520988
-34.704311
-31.925400
-25.806454
-17.613705
-8.585082
0.491555
9.229608
17.271893
23.979580
28.514511
30.283730
29.332146
26.302832
22.021965
17.055937
11.566030
5.607275
-0.391526
-5.528353
-8.919325
-10.322918
-10.244228
-9.393002
-8.065185
-6.069487
-3.201578
0.246659
3.398000
5.192561
5.026339
3.166456
0.547045
-1.883459
-3.591711
-4.383044
-4.241913
-3.401539
-2.395846
-1.851665
-2.140742
-3.079728
-3.827369
-3.190168
-0.336461
4.537994
10.157564
14.812011
17.171535
16.694897
13.538212
8.235697
1.488095
-5.760009
-12.162757
-16.182653
-16.795252
-14.202409
-9.824384
-5.379729
-1.798665
0.984703
3.180424
4.257842
3.176258
-0.432059
-5.486803
-9.959118
-12.102715
-11.368366
-8.496963
-4.884208
-1.698970
0.593489
2.049120
2.756131
2.561208
1.248289
-1.091451
-3.985198
-6.926136
-9.741672
-12.523966
-15.189439
-17.157892
-17.485434
-15.355856
-10.527603
-3.378180
5.408647
15.075363
24.646372
32.739388
37.874168
39.192467
36.910419
32.017612
25.480972
17.757723
9.073182
0.017714
-8.264622
-14.444350
-17.546396
-17.346891
-14.519738
-10.394644
-6.338060
-3.189770
-1.203412
-0.360107
-0.627408
-2.034144
-4.547483
-7.765900
-10.805972
-12.738625
-13.281303
-13.014677
-12.793103
-12.958402
-13.159114
-12.686961
-10.799494
-7.015022
-1.521561
4.659455
10.140077
13.956653
15.943388
16.412600
15.621743
13.535742
9.941749
4.836538
-1.110711
-6.554922
-10.226316
-11.802036
-12.001874
-11.885454
-12.012790
-12.062341
-11.189536
-8.848233
-5.305882
-1.392018
2.174142
5.166185
7.644704
9.499334
10.254567
9.379965
6.905622
3.775899
1.474729
1.080716
2.506553
4.664768
6.450772
7.560557
8.478610
9.919886
12.303065
15.558932
19.254648
22.822311
25.742058
27.670254
28.452118
27.944691
25.843924
21.818298
15.908164
8.805826
1.657739
-4.581286
-9.687741
-14.045204
-18.047422
-21.685993
-24.608141
-26.463985
-27.164957
-26.799889
-25.404629
-22.867607
-18.970448
-13.576821
-6.927772
0.305304
7.334833
13.538953
18.427723
21.492170
22.224821
20.345264
16.079811
10.275761
4.132985
-1.301186
-5.401803
-7.915090
-8.875829
-8.585721
-7.570349
-6.455919
-5.777368
-5.843326
-6.755358
-8.467346
-10.750985
-13.235204
-15.671705
-18.130627
-20.832310
-23.781849
-26.530439
-28.237370
-28.055370
-25.639624
-21.363449
-16.056093
-10.550934
-5.403591
-0.886938
2.939145
6.242364
9.286270
12.130113
14.573622
16.428480
17.735941
18.675667
19.353882
19.759167
19.778868
19.117126
17.352606
14.255641
10.011056
5.109566
0.121710
-4.442196
-8.231716
-11.119772
-13.124437
-14.209057
-14.169141
-12.771540
-10.040369
-6.420983
-2.641660
0.671634
3.313534
5.432273
7.099399
7.933191
7.241688
4.640720
0.524115
-4.106582
-8.224316
-11.147947
-12.475735
-11.906147
-9.248616
-4.571903
1.677244
8.677873
15.411914
20.940500
24.603683
26.095579
25.473463
23.093649
19.440517
14.934786
9.881628
4.590096
-0.474692
-4.714564
-7.651670
-9.154021
-9.396754
-8.663088
-7.228593
-5.420687
-3.737643
-2.846038
-3.363096
-5.511127
-8.908361
-12.733280
-16.206354
-18.989576
-21.144894
-22.756136
-23.622461
-23.287537
-21.331747
-17.645979
-12.479489
-6.302464
0.327203
6.828091
12.681733
17.534336
21.230867
23.785395
25.293343
25.841084
25.482897
24.208197
22.000725
19.069929
15.852343
12.727439
9.901409
7.439438
5.234328
3.081043
0.929878
-1.024755
-2.611830
-3.930346
-5.269968
-6.889529
-8.854466
-10.970702
-12.875504
-14.290289
-15.200816
-15.717984
-15.754938
-14.878404
-12.518603
-8.431658
-2.998178
3.011961
8.950331
14.511389
19.578035
24.014944
27.611582
30.104050
31.149590
30.296247
27.104254
21.452675
13.859776
5.526856
-2.113038
-8.079565
-12.135342
-14.533691
-15.620182
-15.607766
-14.655834
-13.133588
-11.668811
-10.818080
-10.667365
-10.724543
-10.195582
-8.457844
-5.428759
-1.608709
2.273257
5.759056
8.812464
11.522577
13.764459
15.116834
15.083054
13.522702
10.898354
7.994588
5.363632
3.002204
