EVENT_NAME: EMILIA_2ND_SHOCK
EVENT_ID: IT-2012-0011
EVENT_DATE_YYYYMMDD: 20120529
EVENT_TIME_HHMMSS: 070002
EVENT_LATITUDE_DEGREE: 44.8417
EVENT_LONGITUDE_DEGREE: 11.0657
EVENT_DEPTH_KM: 8.1
HYPOCENTER_REFERENCE: INGV-CNT_Seismic_Bulletin
MAGNITUDE_W: 6.0
MAGNITUDE_W_REFERENCE: RCMT-INGV
MAGNITUDE_L: 5.8
MAGNITUDE_L_REFERENCE: INGV-CNT_Seismic_Bulletin
FOCAL_MECHANISM: TF
NETWORK: TV
STATION_CODE: CAS05
STATION_NAME: SAN CARLO
STATION_LATITUDE_DEGREE: 44.802222
STATION_LONGITUDE_DEGREE: 11.409715
STATION_ELEVATION_M: 
LOCATION: 
SENSOR_DEPTH_M: 
VS30_M/S: 
SITE_CLASSIFICATION_EC8: C*
MORPHOLOGIC_CLASSIFICATION: 
EPICENTRAL_DISTANCE_KM: 27.6
EARTHQUAKE_BACKAZIMUTH_DEGREE: 279.3
DATE_TIME_FIRST_SAMPLE_YYYYMMDD_HHMMSS: 20120529_065939.000
DATE_TIME_FIRST_SAMPLE_PRECISION: milliseconds
SAMPLING_INTERVAL_S: 0.005000
NDATA: 30001
DURATION_S: 150.005
STREAM: HNZ
UNITS: cm/s
INSTRUMENT: sensor = Episensor FBA ES-T [Kinemetrics] | digitizer = Unknown [Unknown]
INSTRUMENT_ANALOG/DIGITAL: D
INSTRUMENTAL_FREQUENCY_HZ: 
INSTRUMENTAL_DAMPING: 
FULL_SCALE_G: 
N_BIT_DIGITAL_CONVERTER: 
PGV_CM/S: -1.565965
TIME_PGV_S: 68.135000
BASELINE_CORRECTION: BASELINE REMOVED
FILTER_TYPE: BUTTERWORTH
FILTER_ORDER: 2
LOW_CUT_FREQUENCY_HZ: 0.100
HIGH_CUT_FREQUENCY_HZ: 40.000
LATE/NORMAL_TRIGGERED: NT
DATABASE_VERSION: DYNA 1.0
HEADER_FORMAT: DYNA 1.2
DATA_TYPE: VELOCITY
PROCESSING: manual (Paolucci et al., 2011)
DATA_TIMESTAMP_YYYYMMDD_HHMMSS: 
DATA_LICENSE: CC-BY4_0 (http://creativecommons.org/licenses/by/4.0/)
DATA_CITATION: ESM working group (2015), European Strong-Motion database, version 0.1, Network Activity 3: Networking acceleration networks and SM data users. Project NERA (www.nera-eu.org)
DATA_CREATOR: ESM working group
ORIGINAL_DATA_MEDIATOR_CITATION: Orfeus - European Integrated Data Archive (EIDA) http://www.orfeus-eu.org/eida/
ORIGINAL_DATA_MEDIATOR: Orfeus - European Integrated Data Archive (EIDA)
ORIGINAL_DATA_CREATOR_CITATION: 
ORIGINAL_DATA_CREATOR: network: TV (INGV Experiments Network); owner: Istituto Nazionale di Geofisica e Vulcanologia
USER1: 
USER2: 
USER3: 
USER4: 
USER5: 
[...]
0.659804
0.657608
0.656054
0.655070
0.654507
0.654172
0.653857
0.653367
0.652536
0.651217
0.649306
0.646798
0.643824
0.640562
0.637048
0.633082
0.628313
0.622448
0.615469
0.607705
0.599662
0.591721
0.583985
0.576394
0.568963
0.561831
0.555112
0.548745
0.542513
0.536166
0.529534
0.522611
0.515581
0.508709
0.502180
0.496002
0.490020
0.483998
0.477689
0.470875
0.463430
0.455374
0.446882
0.438220
0.429657
0.421441
0.413813
0.406999
0.401132
0.396165
0.391842
0.387818
0.383803
0.379616
0.375156
0.370336
0.365057
0.359197
0.352623
0.345186
0.336726
0.327099
0.316258
0.304327
0.291600
0.278461
0.265234
0.252062
0.238886
0.225517
0.211728
0.197307
0.182072
0.165906
0.148808
0.130910
0.112472
0.093854
0.075451
0.057570
0.040325
0.023652
0.007424
-0.008412
-0.023800
-0.038659
-0.052953
-0.066726
-0.080103
-0.093279
-0.106457
-0.119802
-0.133421
-0.147346
-0.161519
-0.175830
-0.190204
-0.204651
-0.219244
-0.234103
-0.249412
-0.265350
-0.281944
-0.298974
-0.316057
-0.332855
-0.349204
-0.365052
-0.380355
-0.395086
-0.409318
-0.423173
-0.436673
-0.449683
-0.462013
-0.473568
-0.484457
-0.494998
-0.505649
-0.516901
-0.529178
-0.542720
-0.557491
-0.573163
-0.589208
-0.605065
-0.620281
-0.634566
-0.647788
-0.659962
-0.671256
-0.681965
-0.692459
-0.703076
-0.714054
-0.725524
-0.737573
-0.750251
-0.763531
-0.777275
-0.791261
-0.805260
-0.819079
-0.832522
-0.845344
-0.857282
-0.868148
-0.877895
-0.886620
-0.894500
-0.901696
-0.908302
-0.914409
-0.920192
-0.925914
-0.931861
-0.938231
-0.945088
-0.952425
-0.960238
-0.968547
-0.977334
-0.986476
-0.995715
-1.004715
-1.013182
-1.020964
-1.028092
-1.034736
-1.041123
-1.047453
-1.053825
-1.060198
-1.066437
-1.072406
-1.078030
-1.083260
-1.088039
-1.092298
-1.095985
-1.099070
-1.101477
-1.103008
-1.103380
-1.102383
-1.100026
-1.096542
-1.092271
-1.087552
-1.082712
-1.078144
-1.074305
-1.071594
-1.070170
-1.069923
-1.070584
-1.071868
-1.073564
-1.075563
-1.077826
-1.080310
-1.082920
-1.085529
-1.088035
-1.090427
-1.092795
-1.095287
-1.098044
-1.101193
-1.104881
-1.109244
-1.114330
-1.120061
-1.126273
-1.132792
-1.139501
-1.146351
-1.153271
-1.160082
-1.166538
-1.172441
-1.177697
-1.182272
-1.186131
-1.189237
-1.191610
-1.193363
-1.194667
-1.195689
-1.196566
-1.197375
-1.198091
-1.198613
-1.198813
-1.198545
-1.197648
-1.195998
-1.193580
-1.190500
-1.186939
-1.183114
-1.179250
-1.175525
-1.171966
-1.168399
-1.164547
-1.160151
-1.155013
-1.148978
-1.141932
-1.133793
-1.124506
-1.114030
-1.102357
-1.089545
-1.075765
-1.061292
-1.046498
-1.031848
-1.017880
-1.005076
-0.993720
-0.983811
-0.975075
-0.967100
-0.959547
-0.952224
-0.944978
-0.937572
-0.929679
-0.920930
-0.910974
-0.899550
-0.886572
-0.872177
-0.856723
-0.840742
-0.824822
-0.809497
-0.795165
-0.782023
-0.770042
-0.759031
-0.748752
-0.739019
-0.729744
-0.720903
-0.712438
-0.704200
-0.695969
-0.687529
-0.678738
-0.669554
-0.660031
-0.650287
-0.640470
-0.630723
-0.621117
-0.611599
-0.602077
-0.592577
-0.583268
-0.574348
-0.565950
-0.558139
-0.550922
-0.544276
-0.538153
-0.532470
-0.527105
-0.521902
-0.516699
-0.511377
-0.505878
-0.500190
-0.494316
-0.488248
-0.481961
-0.475432
-0.468646
-0.461614
-0.454431
-0.447372
-0.440878
-0.435409
-0.431245
-0.428400
-0.426662
-0.425739
-0.425354
-0.425219
-0.424995
-0.424337
-0.423020
-0.420978
-0.418232
-0.414787
-0.410625
-0.405790
-0.400435
-0.394782
-0.389038
-0.383380
-0.377945
-0.372790
-0.367820
-0.362748
-0.357185
-0.350823
-0.343622
-0.335831
-0.327814
-0.319823
-0.311913
-0.304040
-0.296230
-0.288667
-0.281657
-0.275490
-0.270252
-0.265720
-0.261466
-0.257068
-0.252255
-0.246882
-0.240809
-0.233871
-0.225962
-0.217141
-0.207641
-0.197762
-0.187764
-0.177816
-0.167991
-0.158277
-0.148599
-0.138878
-0.129080
-0.119191
-0.109155
-0.098823
-0.088001
-0.076581
-0.064640
-0.052428
-0.040277
-0.028459
-0.017076
-0.006062
0.004723
0.015424
0.026196
0.037241
0.048809
0.061125
0.074327
0.088425
0.103332
0.118930
0.135109
0.151766
0.168783
0.186013
0.203267
0.220323
0.237004
0.253275
0.269306
0.285412
0.301881
0.318812
0.336080
0.353450
0.370732
0.387853
0.404781
0.421389
0.437451
0.452768
0.467261
0.480968
0.493948
0.506200
0.517680
0.528397
0.538488
0.548168
0.557599
0.566837
0.575963
0.585243
0.595081
0.605819
0.617642
0.630647
0.644870
0.660267
0.676697
0.693900
0.711478
0.728934
0.745757
0.761570
0.776258
0.789917
0.802719
0.814834
0.826438
0.837681
0.848662
0.859486
0.870302
0.881272
0.892514
0.904042
0.915718
0.927315
0.938643
0.949636
0.960347
0.970896
0.981402
0.991921
1.002424
1.012813
1.022978
1.032859
1.042470
1.051855
1.061040
1.070011
1.078769
1.087392
1.096035
1.104871
1.114048
1.123631
1.133560
1.143674
1.153810
1.163824
1.173585
1.182967
1.191861
1.200200
1.207989
1.215307
1.222275
1.229047
1.235796
1.242675
1.249806
1.257268
1.265058
1.273085
1.281246
1.289518
1.297909
1.306348
1.314657
1.322638
1.330163
1.337207
1.343809
1.350053
1.356019
1.361683
1.366870
1.371364
1.375108
1.378238
1.380925
1.383233
1.385130
1.386611
1.387761
1.388694
1.389459
1.390063
1.390543
1.390999
1.391576
1.392411
1.393545
1.394862
1.396167
1.397333
1.398341
1.399214
1.399946
1.400450
1.400607
1.400407
1.400019
1.399719
1.399776
1.400319
1.401262
1.402371
1.403441
1.404394
1.405215
1.405855
1.406150
1.405865
1.404823
1.403002
1.400495
1.397414
1.393826
1.389710
1.384990
1.379642
1.373769
1.367590
1.361360
1.355253
1.349247
1.343134
1.336696
1.329855
1.322651
1.315155
1.307425
1.299493
1.291374
1.283082
1.274633
1.266025
1.257252
1.248301
1.239140
1.229748
1.220156
1.210425
1.200570
1.190552
1.180270
1.169570
1.158357
1.146681
1.134689
1.122519
1.110266
1.097984
1.085689
1.073406
1.061150
1.048819
1.036180
1.023003
1.009155
0.994642
0.979626
0.964352
0.949015
0.933690
0.918372
0.903027
0.887652
0.872298
0.857040
0.841882
0.826746
0.811507
0.796020
0.780185
0.763989
0.747507
0.730855
0.714191
0.697700
0.681562
0.665943
0.650991
0.636756
0.623109
0.609742
0.596250
0.582251
0.567537
0.552122
0.536170
0.519884
0.503451
0.487004
0.470588
0.454178
0.437712
0.421158
0.404591
0.388182
0.372103
0.356481
0.341399
0.326863
0.312801
0.299123
0.285780
0.272734
0.259931
0.247288
0.234744
0.222332
0.210146
0.198167
0.186155
0.173745
0.160621
0.146639
0.131859
0.116516
0.100946
0.085523
0.070576
0.056266
0.042521
0.029118
0.015848
0.002623
-0.010532
-0.023604
-0.036696
-0.050025
-0.063805
-0.078187
-0.093265
-0.109093
-0.125689
-0.143041
-0.161095
-0.179728
-0.198762
-0.218017
-0.237348
-0.256643
-0.275786
-0.294645
-0.313110
-0.331171
-0.348940
-0.366599
-0.384338
-0.402334
-0.420739
-0.439675
-0.459257
-0.479558
-0.500555
-0.522115
-0.544056
-0.566212
-0.588500
-0.610925
-0.633496
-0.656142
-0.678707
-0.700995
-0.722803
-0.743973
-0.764432
-0.784167
-0.803169
-0.821416
-0.838892
-0.855618
-0.871704
-0.887360
-0.902836
-0.918355
-0.934055
-0.949940
-0.965914
-0.981885
-0.997814
-1.013719
-1.029649
-1.045637
-1.061633
-1.077538
-1.093284
-1.108842
-1.124178
-1.139241
-1.153973
-1.168287
-1.182078
-1.195294
-1.207987
-1.220265
-1.232212
-1.243854
-1.255212
-1.266375
-1.277463
-1.288500
-1.299382
-1.309956
-1.320066
-1.329497
-1.338041
-1.345641
-1.352450
-1.358755
-1.364835
-1.370836
-1.376751
-1.382489
-1.387949
-1.393070
-1.397928
-1.402737
-1.407700
-1.412890
-1.418314
-1.424014
-1.430046
-1.436371
-1.442794
-1.448997
-1.454697
-1.459783
-1.464288
-1.468265
-1.471699
-1.474477
-1.476436
-1.477429
-1.477363
-1.476218
-1.474098
-1.471280
-1.468112
-1.464891
-1.461855
-1.459233
-1.457240
-1.456030
-1.455659
-1.456096
-1.457276
-1.459143
-1.461612
-1.464494
-1.467471
-1.470133
-1.472050
-1.472909
-1.472623
-1.471334
-1.469302
-1.466786
-1.463946
-1.460839
-1.457523
-1.454174
-1.451039
-1.448308
-1.446049
-1.444196
-1.442561
-1.440909
-1.439050
-1.436838
-1.434152
-1.430936
-1.427234
-1.423148
-1.418779
-1.414202
-1.409480
-1.404750
-1.400268
-1.396316
-1.393043
-1.390407
-1.388203
-1.386132
-1.383882
-1.381178
-1.377788
-1.373536
-1.368365
-1.362350
-1.355610
-1.348213
-1.340159
-1.331404
-1.321907
-1.311659
-1.300673
-1.288957
-1.276535
-1.263494
-1.249950
-1.235986
-1.221655
-1.207032
-1.192241
-1.177462
-1.162933
-1.148929
-1.135691
-1.123362
-1.111986
-1.101527
-1.091893
-1.082961
-1.074568
-1.066440
-1.058141
-1.049190
-1.039245
-1.028215
-1.016237
-1.003531
-0.990291
-0.976688
-0.962936
-0.949232
-0.935633
-0.922016
-0.908161
-0.893835
-0.878855
-0.863133
-0.846690
-0.829641
-0.812171
-0.794519
-0.776936
-0.759616
-0.742629
-0.725953
-0.709585
-0.693598
-0.678116
-0.663246
-0.648987
-0.635136
-0.621273
-0.606896
-0.591645
-0.575428
-0.558358
-0.540618
-0.522370
-0.503727
-0.484760
-0.465514
-0.446008
-0.426233
-0.406186
-0.385940
-0.365677
-0.345633
-0.326012
-0.306905
-0.288242
-0.269823
-0.251402
-0.232781
-0.213851
-0.194583
-0.175001
-0.155157
-0.135122
-0.114987
-0.094847
-0.074778
-0.054805
-0.034911
-0.015104
0.004507
0.023696
0.042201
0.059825
0.076507
0.092317
0.107436
0.122145
0.136764
0.151552
0.166657
0.182137
0.198021
0.214343
0.231128
0.248360
0.265957
0.283806
0.301825
0.319978
0.338197
0.356315
0.374070
0.391201
0.407535
0.423039
0.437802
0.451978
0.465735
0.479212
0.492518
0.505749
0.519008
0.532417
0.546125
0.560289
0.575050
0.590488
0.606568
0.623113
0.639843
0.656492
0.672888
0.688955
0.704711
0.720276
0.735819
0.751451
0.767161
0.782838
0.798352
0.813613
0.828612
0.843406
0.858078
0.872693
0.887283
0.901842
0.916354
0.930797
0.945118
0.959255
0.973212
0.987065
1.000844
1.014458
1.027691
1.040267
1.051934
1.062535
1.072016
1.080413
1.087867
1.094631
1.101041
1.107461
1.114219
1.121532
1.129458
1.137910
1.146699
1.155575
1.164309
1.172796
1.181051
1.189124
1.197030
1.204749
1.212247
1.219488
1.226447
1.233092
1.239383
1.245294
1.250856
1.256169
1.261357
1.266509
1.271595
1.276445
1.280829
1.284609
1.287830
1.290706
1.293498
1.296369
1.299322
1.302293
1.305277
1.308359
1.311634
1.315101
1.318611
1.321946
1.324953
1.327622
1.330040
1.332325
1.334587
1.336888
1.339245
1.341648
1.344087
1.346557
1.349059
1.351574
1.354040
1.356355
1.358422
1.360203
1.361739
1.363157
1.364634
1.366320
1.368255
1.370329
1.372319
1.373974
1.375082
1.375519
1.375247
1.374314
1.372822
1.370880
1.368602
1.366125
1.363604
1.361153
1.358820
1.356597
1.354447
1.352344
1.350332
1.348510
1.346942
1.345582
1.344306
1.342985
1.341548
1.339977
1.338266
1.336375
1.334254
1.331855
1.329116
1.325954
1.322300
1.318105
1.313318
1.307861
1.301658
1.294660
1.286857
1.278275
1.269013
1.259274
1.249342
1.239463
1.229768
1.220315
1.211166
1.202373
1.193949
1.185900
1.178229
1.170837
1.163447
1.155684
1.147264
1.138065
1.128060
1.117268
1.105779
1.093764
1.081420
1.068913
1.056354
1.043813
1.031354
1.019062
1.007018
0.995256
0.983690
0.972094
0.960156
0.947573
0.934104
0.919617
0.904108
0.887653
0.870351
0.852350
0.833890
0.815289
0.796866
0.778867
0.761405
0.744442
0.727810
0.711269
0.694615
0.677791
0.660905
0.644167
0.627792
0.611912
0.596542
0.581626
0.567128
0.553070
0.539498
0.526400
0.513691
0.501269
0.489058
0.476992
0.465001
0.453021
0.441014
0.428988
0.416998
0.405088
0.393228
0.381314
0.369233
0.356947
0.344507
0.331960
0.319234
0.306116
0.292354
0.277758
0.262263
0.245895
0.228719
0.210826
0.192344
0.173411
0.154134
0.134612
0.114970
0.095374
0.076022
0.057124
0.038824
0.021148
0.004029
-0.012640
-0.028975
-0.045077
-0.060999
-0.076739
-0.092254
-0.107494
-0.122432
-0.137106
-0.151603
-0.166027
-0.180483
-0.195056
-0.209776
-0.224652
-0.239739
-0.255134
-0.270911
-0.287104
-0.303719
-0.320736
-0.338125
-0.355854
-0.373859
-0.392043
-0.410316
-0.428632
-0.446992
-0.465432
-0.484026
-0.502856
-0.521975
-0.541397
-0.561065
-0.580816
-0.600424
-0.619677
-0.638409
-0.656519
-0.673992
-0.690876
-0.707256
-0.723267
-0.739072
-0.754792
-0.770494
-0.786257
-0.802203
-0.818459
-0.835078
-0.851986
-0.868996
-0.885898
-0.902543
-0.918855
-0.934787
-0.950312
-0.965429
-0.980154
-0.994530
-1.008640
-1.022595
-1.036481
-1.050332
-1.064139
-1.077868
-1.091513
-1.105118
-1.118749
-1.132441
-1.146214
-1.160067
-1.173958
-1.187805
-1.201518
-1.214977
-1.228027
-1.240518
-1.252355
-1.263518
-1.274070
-1.284141
-1.293874
-1.303370
-1.312693
-1.321895
-1.331030
-1.340160
-1.349339
-1.358567
-1.367774
-1.376869
-1.385747
-1.394283
-1.402347
-1.409853
-1.416798
-1.423291
-1.429554
-1.435867
-1.442468
-1.449489
-1.456939
-1.464735
-1.472768
-1.480939
-1.489096
-1.496974
-1.504226
-1.510532
-1.515702
-1.519736
-1.522848
-1.525380
-1.527662
-1.529907
-1.532180
-1.534457
-1.536732
-1.539061
-1.541527
-1.544162
-1.546940
-1.549793
-1.552615
-1.555285
-1.557703
-1.559807
-1.561565
-1.562983
-1.564108
-1.564983
-1.565616
-1.565965
-1.565954
-1.565489
-1.564508
-1.563001
-1.560979
-1.558438
-1.555383
-1.551862
-1.547971
-1.543817
-1.539448
-1.534814
-1.529806
-1.524332
-1.518347
-1.511848
-1.504895
-1.497594
-1.490023
-1.482188
-1.474049
-1.465570
-1.456749
-1.447621
-1.438210
-1.428474
-1.418328
-1.407744
-1.396818
-1.385756
-1.374826
-1.364288
-1.354324
-1.345015
-1.336348
-1.328216
-1.320431
-1.312788
-1.305104
-1.297207
-1.288922
-1.280088
-1.270574
-1.260294
-1.249223
-1.237387
-1.224795
-1.211407
-1.197174
-1.182077
-1.166158
-1.149495
-1.132161
-1.114191
-1.095620
-1.076517
-1.057006
-1.037262
-1.017485
-0.997822
-0.978292
-0.958782
-0.939094
-0.918999
-0.898298
-0.876878
-0.854760
-0.832089
-0.809063
-0.785834
-0.762463
-0.738962
-0.715355
-0.691730
-0.668272
-0.645259
-0.622987
-0.601638
-0.581212
-0.561540
-0.542341
-0.523295
-0.504109
-0.484539
-0.464401
-0.443569
-0.421976
-0.399630
-0.376632
-0.353140
-0.329320
-0.305331
-0.281332
-0.257465
-0.233818
-0.210439
-0.187376
-0.164722
-0.142617
-0.121190
-0.100463
-0.080349
-0.060733
-0.041596
-0.023060
-0.005318
0.011524
0.027569
0.043124
0.058550
0.074097
0.089845
0.105763
0.121793
0.137916
0.154162
0.170578
0.187174
0.203910
0.220713
0.237516
0.254290
0.271045
0.287796
0.304494
0.321030
0.337310
0.353352
0.369312
0.385445
0.402002
0.419153
0.436963
0.455394
0.474326
0.493588
0.513006
0.532416
0.551653
0.570557
0.588968
0.606741
0.623769
0.640032
0.655622
0.670742
0.685659
0.700612
0.715723
0.730958
0.746182
0.761273
0.776231
0.791195
0.806338
0.821743
0.837392
0.853273
0.869463
0.886116
0.903363
0.921205
0.939476
0.957925
0.976344
0.994645
1.012825
1.030878
1.048719
1.066195
1.083176
1.099624
1.115587
1.131146
1.146386
1.161423
1.176465
1.191778
1.207572
1.223884
1.240570
1.257381
1.274077
1.290483
1.306481
1.321968
1.336818
1.350869
1.363963
1.376046
1.387216
1.397679
1.407637
1.417204
1.426400
1.435212
1.443666
1.451835
1.459815
1.467685
1.475460
1.483075
1.490433
1.497477
1.504215
1.510680
1.516880
1.522765
1.528240
1.533223
1.537681
1.541604
1.544931
1.547519
1.549185
1.549802
1.549378
1.548031
1.545907
1.543135
1.539850
1.536239
1.532541
1.529007
1.525814
1.523026
1.520608
1.518478
1.516578
1.514885
1.513367
1.511938
1.510434
1.508635
1.506293
1.503229
1.499416
1.495008
1.490266
1.485458
1.480781
1.476361
1.472278
1.468583
1.465298
1.462418
1.459908
1.457654
1.455418
1.452850
1.449580
1.445308
1.439852
1.433149
1.425205
1.416066
1.405861
1.394831
1.383303
1.371612
1.360007
1.348594
1.337354
1.326213
1.315116
1.304049
1.293003
1.281942
1.270797
1.259517
1.248120
1.236693
1.225352
1.214213
1.203353
1.192763
1.182326
1.171824
1.160973
1.149476
1.137097
1.123701
1.109266
1.093867
1.077639
1.060755
1.043385
1.025651
1.007585
0.989134
0.970249
0.950978
0.931479
0.911952
0.892569
0.873408
0.854432
0.835530
0.816603
0.797598
0.778462
0.759139
0.739625
0.720060
0.700706
0.681828
0.663573
0.645947
0.628903
0.612402
0.596419
0.580896
0.565712
0.550672
0.535534
0.520064
0.504091
0.487535
0.470414
0.452805
0.434779
0.416362
0.397565
0.378430
0.358999
0.339300
0.319386
0.299353
0.279328
0.259434
0.239779
0.220451
0.201500
0.182926
0.164698
0.146789
0.129176
0.111826
0.094706
0.077779
0.060975
0.044140
0.027083
0.009686
-0.008042
-0.026036
-0.044264
-0.062724
-0.081350
-0.099958
-0.118325
-0.136305
-0.153839
-0.170922
-0.187667
-0.204380
-0.221525
-0.239541
-0.258680
-0.278984
-0.300377
-0.322710
-0.345747
-0.369187
-0.392704
-0.415974
-0.438705
-0.460685
-0.481776
-0.501899
-0.521065
-0.539394
-0.557082
-0.574312
-0.591201
-0.607803
-0.624150
-0.640269
-0.656163
-0.671806
-0.687166
-0.702242
-0.717061
-0.731665
-0.746131
-0.760575
-0.775092
-0.789716
-0.804428
-0.819182
-0.833948
-0.848765
-0.863773
-0.879165
-0.895076
-0.911479
-0.928156
-0.944761
-0.960943
-0.976440
-0.991101
-1.004854
-1.017657
-1.029453
-1.040191
-1.049889
-1.058667
-1.066732
-1.074320
-1.081667
-1.088971
-1.096392
-1.104066
-1.112107
-1.120602
-1.129625
-1.139233
-1.149403
-1.160007
-1.170852
-1.181749
-1.192557
-1.203210
-1.213693
-1.224016
-1.234173
-1.244087
-1.253594
-1.262520
-1.270763
-1.278287
-1.285085
-1.291168
-1.296581
-1.301393
-1.305677
-1.309512
-1.313007
-1.316333
-1.319673
-1.323136
-1.326739
-1.330421
-1.334069
-1.337546
-1.340709
-1.343440
-1.345688
-1.347483
-1.348911
-1.350099
-1.351208
-1.352407
-1.353876
-1.355814
-1.358401
-1.361739
-1.365807
-1.370457
-1.375475
-1.380674
-1.385910
-1.391024
-1.395814
-1.400067
-1.403591
-1.406286
-1.408209
-1.409557
-1.410551
-1.411292
-1.411710
-1.411638
-1.410941
-1.409552
-1.407444
-1.404635
-1.401197
-1.397216
-1.392706
-1.387560
-1.381594
-1.374647
-1.366666
-1.357717
-1.347936
-1.337461
-1.326376
-1.314678
-1.302313
-1.289243
-1.275512
-1.261266
-1.246739
-1.232215
-1.217973
-1.204249
-1.191252
-1.179156
-1.168054
-1.157927
-1.148648
-1.140015
-1.131814
-1.123875
-1.116024
-1.108021
-1.099584
-1.090475
-1.080549
-1.069753
-1.058086
-1.045571
-1.032277
-1.018339
-1.003939
-0.989266
-0.974475
-0.959655
-0.944812
-0.929898
-0.914858
-0.899663
-0.884350
-0.869051
-0.853953
-0.839241
-0.825032
-0.811351
-0.798158
-0.785360
-0.772820
-0.760363
-0.747824
-0.735075
-0.722015
-0.708543
-0.694531
-0.679868
-0.664536
-0.648630
-0.632298
-0.615669
-0.598859
-0.581998
-0.565247
-0.548770
-0.532659
-0.516878
-0.501295
-0.485774
-0.470240
-0.454660
-0.438977
-0.423074
-0.406811
-0.390134
-0.373120
-0.355909
-0.338592
