EVENT_NAME: EMILIA_2ND_SHOCK
EVENT_ID: IT-2012-0011
EVENT_DATE_YYYYMMDD: 20120529
EVENT_TIME_HHMMSS: 070002
EVENT_LATITUDE_DEGREE: 44.8417
EVENT_LONGITUDE_DEGREE: 11.0657
EVENT_DEPTH_KM: 8.1
HYPOCENTER_REFERENCE: INGV-CNT_Seismic_Bulletin
MAGNITUDE_W: 6.0
MAGNITUDE_W_REFERENCE: RCMT-INGV
MAGNITUDE_L: 5.8
MAGNITUDE_L_REFERENCE: INGV-CNT_Seismic_Bulletin
FOCAL_MECHANISM: TF
NETWORK: TV
STATION_CODE: CAS05
STATION_NAME: SAN CARLO
STATION_LATITUDE_DEGREE: 44.802222
STATION_LONGITUDE_DEGREE: 11.409715
STATION_ELEVATION_M: 
LOCATION: 
SENSOR_DEPTH_M: 
VS30_M/S: 
SITE_CLASSIFICATION_EC8: C*
MORPHOLOGIC_CLASSIFICATION: 
EPICENTRAL_DISTANCE_KM: 27.6
EARTHQUAKE_BACKAZIMUTH_DEGREE: 279.3
DATE_TIME_FIRST_SAMPLE_YYYYMMDD_HHMMSS: 20120529_065939.000
DATE_TIME_FIRST_SAMPLE_PRECISION: milliseconds
SAMPLING_INTERVAL_S: 0.005000
NDATA: 30001
DURATION_S: 150.005
STREAM: HNE
UNITS: cm/s
INSTRUMENT: sensor = Episensor FBA ES-T [Kinemetrics] | digitizer = Unknown [Unknown]
INSTRUMENT_ANALOG/DIGITAL: D
INSTRUMENTAL_FREQUENCY_HZ: 
INSTRUMENTAL_DAMPING: 
FULL_SCALE_G: 
N_BIT_DIGITAL_CONVERTER: 
PGV_CM/S: 6.810290
TIME_PGV_S: 39.185000
BASELINE_CORRECTION: BASELINE REMOVED
FILTER_TYPE: BUTTERWORTH
FILTER_ORDER: 2
LOW_CUT_FREQUENCY_HZ: 0.060
HIGH_CUT_FREQUENCY_HZ: 40.000
LATE/NORMAL_TRIGGERED: NT
DATABASE_VERSION: DYNA 1.0
HEADER_FORMAT: DYNA 1.2
DATA_TYPE: VELOCITY
PROCESSING: manual (Paolucci et al., 2011)
DATA_TIMESTAMP_YYYYMMDD_HHMMSS: 
DATA_LICENSE: CC-BY4_0 (http://creativecommons.org/licenses/by/4.0/)
DATA_CITATION: ESM working group (2015), European Strong-Motion database, version 0.1, Network Activity 3: Networking acceleration networks and SM data users. Project NERA (www.nera-eu.org)
DATA_CREATOR: ESM working group
ORIGINAL_DATA_MEDIATOR_CITATION: Orfeus - European Integrated Data Archive (EIDA) http://www.orfeus-eu.org/eida/
ORIGINAL_DATA_MEDIATOR: Orfeus - European Integrated Data Archive (EIDA)
ORIGINAL_DATA_CREATOR_CITATION: 
ORIGINAL_DATA_CREATOR: network: TV (INGV Experiments Network); owner: Istituto Nazionale di Geofisica e Vulcanologia
USER1: 
USER2: 
USER3: 
USER4: 
USER5: 
[...]
-0.014715
-0.015083
-0.015325
-0.015807
-0.016668
-0.017707
-0.018647
-0.019352
-0.019698
-0.019361
-0.017993
-0.015694
-0.013157
-0.011175
-0.010008
-0.009304
-0.008692
-0.008417
-0.009227
-0.011522
-0.014673
-0.017376
-0.018794
-0.019317
-0.020094
-0.021807
-0.023906
-0.024974
-0.023876
-0.020824
-0.017491
-0.015844
-0.016554
-0.018573
-0.020320
-0.021105
-0.021396
-0.021899
-0.022478
-0.021949
-0.019036
-0.013676
-0.007516
-0.003054
-0.002120
-0.004859
-0.009922
-0.015471
-0.020131
-0.023386
-0.025350
-0.026194
-0.025794
-0.023982
-0.020986
-0.017460
-0.014045
-0.010915
-0.007752
-0.004225
-0.000532
0.002495
0.003835
0.002943
0.000134
-0.003669
-0.007608
-0.011264
-0.014353
-0.016290
-0.016383
-0.014566
-0.011853
-0.009898
-0.010044
-0.012628
-0.016895
-0.021451
-0.024950
-0.026614
-0.026305
-0.024256
-0.020789
-0.016315
-0.011507
-0.007307
-0.004532
-0.003364
-0.003214
-0.003083
-0.002224
-0.000746
0.000418
0.000407
-0.000720
-0.002187
-0.003400
-0.004405
-0.005552
-0.007017
-0.008724
-0.010568
-0.012637
-0.015194
-0.018316
-0.021579
-0.024282
-0.026005
-0.026795
-0.026777
-0.025695
-0.022914
-0.017965
-0.011171
-0.003796
0.002407
0.005896
0.005991
0.003231
-0.000970
-0.005318
-0.009255
-0.012599
-0.014922
-0.015691
-0.014994
-0.013863
-0.013651
-0.014896
-0.016605
-0.016750
-0.013865
-0.008459
-0.002829
0.000711
0.001595
0.001185
0.001324
0.002684
0.004422
0.005261
0.004748
0.003430
0.002063
0.000862
-0.000600
-0.002996
-0.006626
-0.010975
-0.014979
-0.017871
-0.019700
-0.021036
-0.022307
-0.023399
-0.023807
-0.023298
-0.022375
-0.021762
-0.021307
-0.019744
-0.016001
-0.010961
-0.007490
-0.008046
-0.012056
-0.016120
-0.017014
-0.014335
-0.010294
-0.007321
-0.005892
-0.004386
-0.000948
0.004481
0.009983
0.013328
0.013718
0.012106
0.010074
0.008216
0.005396
-0.000009
-0.007623
-0.014103
-0.015465
-0.010592
-0.002326
0.004772
0.007760
0.007192
0.006326
0.008273
0.013562
0.020222
0.025869
0.029569
0.031991
0.033997
0.035090
0.033553
0.028598
0.022034
0.016981
0.015003
0.015129
0.015441
0.014621
0.011839
0.006256
-0.002461
-0.013213
-0.023371
-0.029838
-0.030502
-0.025032
-0.014841
-0.002846
0.007148
0.012147
0.011976
0.009357
0.007373
0.006809
0.006269
0.004690
0.002973
0.002621
0.003273
0.002628
-0.000918
-0.006268
-0.010597
-0.011752
-0.009312
-0.004234
0.001445
0.004955
0.004205
-0.000528
-0.006782
-0.012127
-0.016002
-0.019401
-0.023124
-0.026693
-0.028984
-0.029640
-0.029479
-0.029533
-0.030025
-0.030245
-0.028746
-0.023526
-0.013008
0.002145
0.018319
0.030825
0.036943
0.037234
0.034084
0.029411
0.023803
0.017283
0.010150
0.002798
-0.004919
-0.013528
-0.022867
-0.031444
-0.037010
-0.037662
-0.032626
-0.022624
-0.009903
0.002187
0.010146
0.011750
0.007406
0.000237
-0.005844
-0.008789
-0.009344
-0.009433
-0.009984
-0.010542
-0.010699
-0.011175
-0.013222
-0.017271
-0.022442
-0.027166
-0.030015
-0.030248
-0.028135
-0.024808
-0.021380
-0.018029
-0.013891
-0.007810
0.000530
0.009820
0.017579
0.021896
0.022802
0.021627
0.019173
0.015181
0.009543
0.003382
-0.001284
-0.002870
-0.001574
0.000176
-0.001019
-0.007041
-0.016796
-0.027401
-0.036523
-0.043534
-0.049259
-0.054807
-0.059688
-0.060901
-0.054793
-0.040367
-0.020915
-0.002334
0.010745
0.017909
0.022671
0.029404
0.040136
0.053532
0.066538
0.076937
0.084528
0.090494
0.096133
0.101531
0.104868
0.103858
0.098443
0.091110
0.083845
0.075668
0.063822
0.046906
0.026825
0.008206
-0.004355
-0.008979
-0.006601
0.001123
0.013356
0.029664
0.048773
0.068146
0.084724
0.095960
0.100362
0.097668
0.089039
0.076928
0.064451
0.054831
0.050874
0.053852
0.062598
0.074047
0.084696
0.091766
0.093753
0.090494
0.082643
0.070844
0.055556
0.037721
0.019448
0.003950
-0.005594
-0.008150
-0.006330
-0.004954
-0.007075
-0.011342
-0.013502
-0.010364
-0.002314
0.007475
0.015620
0.020412
0.022162
0.022317
0.021852
0.020222
0.016379
0.011019
0.007027
0.006992
0.010510
0.014111
0.013412
0.005565
-0.009380
-0.028732
-0.048557
-0.064929
-0.074469
-0.074804
-0.065294
-0.047405
-0.024442
-0.001038
0.017830
0.028738
0.031605
0.029569
0.026684
0.025341
0.025464
0.025702
0.024983
0.022817
0.018800
0.012943
0.006838
0.003863
0.007375
0.018250
0.034165
0.051139
0.065518
0.075190
0.080235
0.082896
0.086173
0.091494
0.097265
0.099601
0.094774
0.081647
0.062163
0.039552
0.016241
-0.006235
-0.025727
-0.039094
-0.044124
-0.041564
-0.034737
-0.027064
-0.019849
-0.011993
-0.001624
0.011743
0.026065
0.037425
0.042266
0.039978
0.033616
0.027507
0.023771
0.021290
0.017909
0.013159
0.008765
0.006790
0.007347
0.008017
0.005630
-0.001217
-0.011267
-0.022032
-0.032067
-0.042169
-0.054792
-0.072073
-0.093682
-0.116369
-0.136100
-0.150841
-0.161199
-0.168672
-0.173700
-0.175288
-0.171630
-0.160400
-0.138903
-0.105140
-0.059433
-0.004899
0.053821
0.111938
0.164654
0.207395
0.237583
0.256233
0.266833
0.271961
0.270880
0.260547
0.239013
0.207847
0.171219
0.132622
0.092651
0.050164
0.005479
-0.038058
-0.076154
-0.107286
-0.134137
-0.161019
-0.189585
-0.216904
-0.237843
-0.249425
-0.253070
-0.252977
-0.252307
-0.250434
-0.243598
-0.228458
-0.205293
-0.177927
-0.150894
-0.126874
-0.106139
-0.087554
-0.070159
-0.054253
-0.040904
-0.030219
-0.020500
-0.009533
0.003342
0.016367
0.025961
0.028212
0.020934
0.005119
-0.015887
-0.038879
-0.062073
-0.084102
-0.103046
-0.117257
-0.126617
-0.132442
-0.136398
-0.139762
-0.143398
-0.147898
-0.153233
-0.158057
-0.159997
-0.157617
-0.152428
-0.148675
-0.150701
-0.159988
-0.173969
-0.187094
-0.193341
-0.188864
-0.173310
-0.149093
-0.119496
-0.087298
-0.054802
-0.024701
-0.000586
0.013844
0.016818
0.010090
-0.002005
-0.015632
-0.029853
-0.046376
-0.067356
-0.093194
-0.121585
-0.148273
-0.169141
-0.182181
-0.187991
-0.188962
-0.187969
-0.186913
-0.185836
-0.183808
-0.180969
-0.179034
-0.179200
-0.180439
-0.181125
-0.182214
-0.187690
-0.201389
-0.223659
-0.251259
-0.280268
-0.308741
-0.336606
-0.363670
-0.388628
-0.409881
-0.426347
-0.437112
-0.440936
-0.436658
-0.423924
-0.403385
-0.376432
-0.344857
-0.310332
-0.273736
-0.234836
-0.192756
-0.147167
-0.099482
-0.053011
-0.011485
0.022998
0.050669
0.072900
0.090756
0.104910
0.116589
0.127992
0.141698
0.159824
0.183315
0.211285
0.240967
0.268846
0.292115
0.309100
0.318768
0.320447
0.314212
0.301349
0.284027
0.264165
0.242718
0.220386
0.199062
0.182289
0.173942
0.176252
0.189004
0.210426
0.238734
0.272944
0.312040
0.353153
0.390864
0.419007
0.433470
0.433360
0.419874
0.394416
0.357759
0.310577
0.254483
0.192663
0.129682
0.070472
0.019191
-0.021375
-0.049906
-0.066520
-0.072398
-0.069140
-0.058789
-0.044544
-0.030437
-0.019247
-0.010672
-0.002213
0.007801
0.018120
0.025395
0.026830
0.022286
0.014476
0.007233
0.003201
0.002965
0.006081
0.012165
0.020493
0.029018
0.034780
0.035858
0.032948
0.029025
0.027593
0.031034
0.039825
0.052379
0.065196
0.073697
0.074157
0.065640
0.050062
0.030434
0.009380
-0.010875
-0.028026
-0.040064
-0.046588
-0.049810
-0.053761
-0.061865
-0.075067
-0.092084
-0.110746
-0.128511
-0.142010
-0.147083
-0.140320
-0.121148
-0.092453
-0.058881
-0.024172
0.010211
0.044304
0.078419
0.113378
0.151010
0.192802
0.238077
0.284721
0.331809
0.380500
0.431973
0.484843
0.534726
0.576130
0.604684
0.617550
0.612280
0.586811
0.541564
0.481015
0.412467
0.343636
0.281535
0.231975
0.198045
0.178635
0.169212
0.164474
0.160364
0.154093
0.143199
0.125152
0.098043
0.061985
0.020095
-0.022152
-0.059102
-0.086919
-0.103807
-0.108884
-0.101498
-0.081867
-0.052155
-0.016447
0.020839
0.056965
0.091493
0.124792
0.155898
0.181994
0.199930
0.208075
0.206990
0.198740
0.185386
0.167512
0.144103
0.114322
0.079377
0.042110
0.004646
-0.033041
-0.071679
-0.109757
-0.142347
-0.163001
-0.167307
-0.155594
-0.132691
-0.104813
-0.076524
-0.050327
-0.028064
-0.011754
-0.003131
-0.002403
-0.007259
-0.013370
-0.016560
-0.014698
-0.007603
0.004622
0.022981
0.049185
0.083508
0.122758
0.160698
0.191185
0.211269
0.221399
0.223001
0.216174
0.199648
0.172580
0.135864
0.091128
0.038477
-0.024059
-0.098248
-0.182499
-0.270421
-0.352094
-0.417183
-0.457983
-0.470987
-0.456778
-0.418868
-0.362103
-0.291375
-0.211373
-0.126863
-0.042198
0.039748
0.117543
0.189735
0.253732
0.306413
0.345901
0.372956
0.390878
0.403887
0.415128
0.425613
0.434299
0.438873
0.436826
0.426247
0.406005
0.375767
0.336525
0.291297
0.244841
0.202140
0.167004
0.141970
0.128978
0.129551
0.144217
0.172093
0.211498
0.261150
0.320716
0.390235
0.469046
0.555028
0.644482
0.732567
0.814108
0.884682
0.941711
0.984906
1.015492
1.034364
1.040287
1.029856
0.999737
0.949233
0.880739
0.798434
0.707187
0.612231
0.518836
0.431577
0.353382
0.284865
0.224687
0.171115
0.123688
0.083525
0.052133
0.030161
0.017067
0.011056
0.008916
0.006430
-0.000642
-0.015973
-0.042457
-0.081337
-0.130797
-0.185700
-0.239454
-0.286845
-0.325812
-0.356946
-0.381347
-0.398765
-0.407492
-0.405752
-0.393164
-0.370952
-0.340796
-0.303551
-0.259221
-0.208076
-0.151593
-0.092317
-0.033027
0.024009
0.077399
0.126614
0.171777
0.213523
0.252887
0.290728
0.326866
0.359890
0.387759
0.408224
0.418795
0.417023
0.401473
0.372643
0.333062
0.286436
0.236376
0.185367
0.134281
0.082488
0.028566
-0.028539
-0.088613
-0.150144
-0.210940
-0.268615
-0.320652
-0.364455
-0.397500
-0.417477
-0.422645
-0.412439
-0.387752
-0.350549
-0.303263
-0.248423
-0.188574
-0.126307
-0.064094
-0.003940
0.052630
0.103967
0.147811
0.181684
0.203986
0.214760
0.215454
0.208115
0.195050
0.179188
0.164204
0.153504
0.148490
0.147389
0.145185
0.134542
0.107809
0.059481
-0.012373
-0.106298
-0.218412
-0.343262
-0.474573
-0.606377
-0.734323
-0.856110
-0.970772
-1.078072
-1.178751
-1.274556
-1.367119
-1.456564
-1.541125
-1.617581
-1.681866
-1.729738
-1.757538
-1.762794
-1.744707
-1.704725
-1.646928
-1.577755
-1.505228
-1.437940
-1.383545
-1.346587
-1.326606
-1.317740
-1.310122
-1.292576
-1.255935
-1.195665
-1.112076
-1.008340
-0.888777
-0.758741
-0.624829
-0.493965
-0.371886
-0.262586
-0.169070
-0.093529
-0.035800
0.007816
0.043186
0.075517
0.107581
0.139849
0.171562
0.201852
0.230852
0.260440
0.293818
0.333936
0.381810
0.435840
0.492423
0.547298
0.596984
0.639491
0.673692
0.697998
0.709878
0.706835
0.687831
0.653761
0.606718
0.548817
0.481527
0.405953
0.323606
0.236647
0.147176
0.056173
-0.036805
-0.132755
-0.231798
-0.332333
-0.431627
-0.527700
-0.621170
-0.715509
-0.815398
-0.924574
-1.044964
-1.177465
-1.323174
-1.483798
-1.660794
-1.853809
-2.059745
-2.273147
-2.487080
-2.693239
-2.881228
-3.038523
-3.153090
-3.218413
-3.236937
-3.217994
-3.171752
-3.104709
-3.019472
-2.916826
-2.797390
-2.661971
-2.511179
-2.345407
-2.165702
-1.974775
-1.776924
-1.576791
-1.378325
-1.185344
-1.003068
-0.838843
-0.701544
-0.599740
-0.538653
-0.517522
-0.529926
-0.567178
-0.621902
-0.689006
-0.764386
-0.843829
-0.923423
-1.000743
-1.075370
-1.147981
-1.218608
-1.285323
-1.343883
-1.388071
-1.410528
-1.404124
-1.363567
-1.286785
-1.175731
-1.036296
-0.877392
-0.709715
-0.544281
-0.390431
-0.253579
-0.134033
-0.027905
0.070445
0.165793
0.260006
0.350740
0.431377
0.492653
0.525411
0.523067
0.482635
0.404608
0.292788
0.154266
-0.001125
-0.161593
-0.313560
-0.441965
-0.532733
-0.577446
-0.576739
-0.539043
-0.475786
-0.397129
-0.310572
-0.221580
-0.134374
-0.051657
0.026547
0.103300
0.183116
0.269436
0.363153
0.462622
0.564432
0.664227
0.757432
0.839987
0.908695
0.960904
0.994219
1.006695
0.997376
0.967026
0.918815
0.858441
0.793760
0.734619
0.692468
0.677971
0.696871
0.747424
0.821665
0.908875
0.998329
1.080360
1.146684
1.190979
1.209629
1.201970
1.169975
1.117793
1.050806
0.973855
0.889722
0.799275
0.703234
0.604500
0.509747
0.428815
0.371674
0.344665
0.348207
0.377368
0.424777
0.483223
0.546081
0.606490
0.656956
0.690077
0.700236
0.685274
0.646962
0.590310
0.522712
0.453650
0.394908
0.360116
0.362035
0.407832
0.495311
0.613200
0.745633
0.877386
0.995678
1.088133
1.141318
1.143690
1.091093
0.989519
0.852657
0.696655
0.535721
0.380010
0.235359
0.103914
-0.014982
-0.123893
-0.226431
-0.326459
-0.427362
-0.531602
-0.640582
-0.754516
-0.872242
-0.991250
-1.107938
-1.218419
-1.320215
-1.414055
-1.504494
-1.598993
-1.705754
-1.830867
-1.976162
-2.139192
-2.314879
-2.496506
-2.674325
-2.833077
-2.952611
-3.014380
-3.009934
-2.943249
-2.825135
-2.666812
-2.478060
-2.268024
-2.045688
-1.819474
-1.596100
-1.379300
-1.169884
-0.967209
-0.770143
-0.576513
-0.382389
-0.182547
0.028152
0.253295
0.494049
0.749418
1.017294
1.295366
1.581515
1.873854
2.170609
2.470067
2.770504
3.070113
3.367097
3.659730
3.946220
4.224494
4.491931
4.745048
4.979526
5.191063
5.377127
5.538590
5.679631
5.805775
5.921793
6.030972
6.135547
6.237213
6.337080
6.435223
6.530231
6.619035
6.697089
6.758841
6.798422
6.810290
6.789488
6.731584
6.632716
6.489988
6.301945
6.068757
5.792160
5.475412
5.123375
4.742569
4.340804
3.926328
3.507147
3.091013
2.685680
2.298886
1.938027
1.609337
1.316167
1.057243
0.826908
0.617826
0.423948
0.241617
0.069344
-0.091870
-0.237075
-0.356205
-0.435673
-0.463750
-0.436687
-0.360197
-0.244936
-0.101072
0.063002
0.238430
0.413033
0.569241
0.684689
0.737877
0.717170
0.625705
0.477312
0.288394
0.073608
-0.153930
-0.381911
-0.599162
-0.796556
-0.968188
-1.112118
-1.229701
-1.323418
-1.394814
-1.444360
-1.472294
-1.478895
-1.464615
-1.429960
-1.375002
-1.299773
-1.205416
-1.094841
-0.972550
-0.843581
-0.712296
-0.582189
-0.456618
-0.339395
-0.234354
-0.143850
-0.067586
-0.002927
0.053697
0.105255
0.153238
0.197780
0.238334
0.274182
0.304824
0.330430
0.352026
0.371684
0.392851
0.419912
0.457130
0.508479
0.578195
0.670375
0.787450
0.928750
1.090308
1.266622
1.453491
1.649439
1.854318
2.066444
2.280731
2.488908
2.681058
2.847793
2.982702
3.084002
3.154051
3.197083
3.217092
3.217127
3.199561
3.166531
3.120219
3.062942
2.997061
2.924846
2.848288
2.768576
2.685263
2.596090
2.498318
2.390758
2.274816
2.153996
2.032714
1.915438
1.806261
1.708307
1.622622
1.547118
1.476539
1.403811
1.322179
1.226994
1.116578
0.992258
0.857602
0.717542
0.578461
0.448768
0.338437
0.257057
0.211273
0.202850
0.228058
0.278018
0.339641
0.397607
0.437663
0.450066
0.431276
0.383124
0.310636
0.220421
0.120342
0.019363
-0.073784
-0.152676
-0.214302
-0.258458
-0.286336
-0.299539
-0.300164
-0.291205
-0.276164
-0.258077
-0.239187
-0.221637
-0.208625
-0.205088
-0.216697
-0.247027
-0.295072
-0.355461
-0.420899
-0.484399
-0.540045
-0.582717
-0.607478
-0.609379
-0.584459
-0.531521
-0.453169
-0.355183
-0.244961
-0.130485
-0.020507
0.075092
0.146812
0.188980
0.201856
0.189576
0.156168
0.104093
0.035482
-0.046929
-0.139841
-0.239225
-0.340010
-0.436686
-0.524836
-0.602221
-0.668757
-0.725897
-0.775709
-0.819996
-0.860128
-0.897427
-0.933286
-0.968768
-1.004074
-1.038382
-1.070152
-1.097709
-1.119706
-1.135245
-1.143917
-1.146046
-1.142818
-1.136133
-1.128558
-1.123392
-1.124147
-1.133400
-1.152017
-1.179528
-1.215308
-1.259567
-1.313423
-1.378135
-1.454066
-1.539946
-1.632997
-1.729826
-1.826999
-1.920812
-2.007115
-2.081829
-2.141633
-2.184044
-2.206911
-2.207974
-2.185022
-2.136521
-2.062190
-1.963078
-1.841037
-1.697901
-1.535222
-1.354759
-1.158842
-0.950177
-0.731509
-0.505546
-0.275304
-0.044596
0.181963
0.399448
0.603067
0.788503
0.952042
1.090232
1.199199
1.273957
1.308384
1.296793
1.236817
1.131272
0.987081
0.812383
0.614427
0.399324
0.172806
-0.059175
-0.290181
-0.513003
-0.718890
-0.896325
-1.030848
-1.108300
-1.120891
-1.070776
-0.967068
-0.819573
-0.635409
-0.419774
-0.177816
0.084472
0.360084
0.641355
0.920979
1.193112
1.453911
1.701414
1.934732
2.153058
2.355325
2.540346
2.706671
2.851959
2.972283
3.062043
3.115189
3.127414
3.097852
3.029276
2.927310
2.799666
2.655482
2.504362
2.355089
2.214462
2.086886
1.974649
1.877992
1.794909
1.721930
1.655786
1.594501
1.537572
1.485921
1.441593
1.406601
1.381145
1.362773
1.347717
1.333428
1.319735
1.307492
1.296472
1.284831
1.270211
1.250851
1.225479
1.192464
1.149807
1.096124
1.031383
0.957008
0.875986
0.792782
0.712490
0.639458
0.576127
0.522722
0.477916
0.439830
0.406623
0.376470
0.347081
0.315102
0.275752
0.222899
0.149744
0.050276
-0.078841
-0.236730
-0.417812
-0.612857
-0.811404
-1.004189
-1.184381
-1.347555
-1.491020
-1.613325
-1.714556
-1.796812
-1.863881
-1.920244
-1.970106
-2.016855
-2.063109
-2.110867
-2.161061
-2.212769
-2.263038
-2.307621
-2.341972
-2.362088
-2.365509
-2.352362
-2.325712
-2.290968
-2.254842
-2.224390
-2.206371
-2.206664
-2.229281
-2.275281
-2.342630
-2.427299
-2.524605
-2.630054
-2.739802
-2.850875
-2.960971
-3.067846
-3.168665
-3.259791
-3.337237
-3.397528
-3.438301
-3.458178
-3.456167
-3.431169
-3.381836
-3.306897
-3.205920
-3.080062
-2.932310
-2.767204
-2.590264
-2.407257
-2.223484
-2.043285
-1.869695
-1.703993
-1.545438
-1.391600
-1.239276
-1.085634
-0.929364
-0.771523
-0.615669
-0.467321
-0.333145
-0.219951
-0.133452
-0.077023
-0.051061
-0.053348
-0.079999
-0.126331
-0.187533
-0.259220
-0.337632
-0.419243
-0.500215
-0.576489
-0.644610
-0.702570
-0.750015
-0.787798
-0.817318
-0.840009
-0.856844
-0.867783
-0.871486
-0.865621
-0.847663
-0.815934
-0.770507
-0.713665
-0.649769
-0.584635
-0.524804
-0.476778
-0.445933
-0.435346
-0.445389
-0.474178
-0.518198
-0.572814
-0.632675
-0.692122
-0.745874
-0.790039
-0.822700
-0.843527
-0.853018
-0.852073
-0.841947
-0.824381
-0.801678
-0.776532
-0.751838
-0.730649
-0.716197
-0.711754
-0.720078
-0.742608
-0.779086
-0.827937
-0.886914
-0.953519
-1.025120
-1.099002
-1.172499
-1.243187
-1.308917
-1.367684
-1.417640
-1.457380
-1.486221
-1.504212
-1.511898
-1.509990
-1.499021
-1.479133
-1.450170
-1.412112
-1.365582
-1.312062
-1.253616
-1.192264
-1.129498
-1.066235
-1.002997
-0.939953
-0.876650
-0.811705
-0.742876
-0.667584
-0.583572
-0.489488
-0.385185
-0.271752
-0.151791
-0.030201
0.085282
0.185378
0.263036
0.316847
0.350172
0.366971
0.369083
0.356774
0.330399
0.291235
0.241433
0.183730
0.121309
0.057873
-0.002351
-0.055208
-0.097754
-0.129155
-0.150708
-0.164987
-0.174803
-0.182802
-0.191668
-0.204321
-0.223837
-0.253236
-0.295096
-0.351018
-0.421326
-0.505204
-0.600930
-0.706026
-0.817578
-0.932633
-1.048446
-1.162734
-1.273823
-1.380559
-1.482250
-1.578739
-1.670533
-1.758941
-1.845851
