EVENT_NAME: EMILIA_2ND_SHOCK
EVENT_ID: IT-2012-0011
EVENT_DATE_YYYYMMDD: 20120529
EVENT_TIME_HHMMSS: 070002
EVENT_LATITUDE_DEGREE: 44.8417
EVENT_LONGITUDE_DEGREE: 11.0657
EVENT_DEPTH_KM: 8.1
HYPOCENTER_REFERENCE: INGV-CNT_Seismic_Bulletin
MAGNITUDE_W: 6.0
MAGNITUDE_W_REFERENCE: RCMT-INGV
MAGNITUDE_L: 5.8
MAGNITUDE_L_REFERENCE: INGV-CNT_Seismic_Bulletin
FOCAL_MECHANISM: TF
NETWORK: TV
STATION_CODE: CAS05
STATION_NAME: SAN CARLO
STATION_LATITUDE_DEGREE: 44.802222
STATION_LONGITUDE_DEGREE: 11.409715
STATION_ELEVATION_M: 
LOCATION: 
SENSOR_DEPTH_M: 
VS30_M/S: 
SITE_CLASSIFICATION_EC8: C*
MORPHOLOGIC_CLASSIFICATION: 
EPICENTRAL_DISTANCE_KM: 27.6
EARTHQUAKE_BACKAZIMUTH_DEGREE: 279.3
DATE_TIME_FIRST_SAMPLE_YYYYMMDD_HHMMSS: 20120529_065939.000
DATE_TIME_FIRST_SAMPLE_PRECISION: milliseconds
SAMPLING_INTERVAL_S: 0.005000
NDATA: 30001
DURATION_S: 150.005
STREAM: HNN
UNITS: cm/s
INSTRUMENT: sensor = Episensor FBA ES-T [Kinemetrics] | digitizer = Unknown [Unknown]
INSTRUMENT_ANALOG/DIGITAL: D
INSTRUMENTAL_FREQUENCY_HZ: 
INSTRUMENTAL_DAMPING: 
FULL_SCALE_G: 
N_BIT_DIGITAL_CONVERTER: 
PGV_CM/S: 4.218966
TIME_PGV_S: 48.635000
BASELINE_CORRECTION: BASELINE REMOVED
FILTER_TYPE: BUTTERWORTH
FILTER_ORDER: 2
LOW_CUT_FREQUENCY_HZ: 0.060
HIGH_CUT_FREQUENCY_HZ: 40.000
LATE/NORMAL_TRIGGERED: NT
DATABASE_VERSION: DYNA 1.0
HEADER_FORMAT: DYNA 1.2
DATA_TYPE: VELOCITY
PROCESSING: manual (Paolucci et al., 2011)
DATA_TIMESTAMP_YYYYMMDD_HHMMSS: 
DATA_LICENSE: CC-BY4_0 (http://creativecommons.org/licenses/by/4.0/)
DATA_CITATION: ESM working group (2015), European Strong-Motion database, version 0.1, Network Activity 3: Networking acceleration networks and SM data users. Project NERA (www.nera-eu.org)
DATA_CREATOR: ESM working group
ORIGINAL_DATA_MEDIATOR_CITATION: Orfeus - European Integrated Data Archive (EIDA) http://www.orfeus-eu.org/eida/
ORIGINAL_DATA_MEDIATOR: Orfeus - European Integrated Data Archive (EIDA)
ORIGINAL_DATA_CREATOR_CITATION: 
ORIGINAL_DATA_CREATOR: network: TV (INGV Experiments Network); owner: Istituto Nazionale di Geofisica e Vulcanologia
USER1: 
USER2: 
USER3: 
USER4: 
USER5: 
[...]
-0.243865
-0.295536
-0.327396
-0.342492
-0.344188
-0.335724
-0.319852
-0.298588
-0.273158
-0.244209
-0.212106
-0.177115
-0.139484
-0.099392
-0.056732
-0.010873
0.039390
0.095608
0.159287
0.231626
0.313304
0.404247
0.503570
0.609771
0.720989
0.835051
0.949306
1.060377
1.163919
1.254859
1.328564
1.382270
1.415659
1.430366
1.428948
1.414015
1.388069
1.353943
1.315245
1.276362
1.241947
1.216000
1.201021
1.197608
1.204459
1.218765
1.236903
1.255018
1.269352
1.276525
1.273794
1.259260
1.232001
1.192208
1.141313
1.082009
1.017940
0.953029
0.890545
0.832319
0.778809
0.730157
0.687282
0.652021
0.626446
0.612033
0.609091
0.616449
0.631217
0.648737
0.663195
0.668896
0.661312
0.637267
0.594716
0.532663
0.451196
0.351563
0.236229
0.108795
-0.026282
-0.164095
-0.299636
-0.427986
-0.544462
-0.644997
-0.726972
-0.789942
-0.835490
-0.866373
-0.885752
-0.896867
-0.903069
-0.907921
-0.915040
-0.927624
-0.948024
-0.977568
-1.016517
-1.064111
-1.118790
-1.178558
-1.241400
-1.305667
-1.370312
-1.434956
-1.499767
-1.565111
-1.631209
-1.698203
-1.766433
-1.836447
-1.908696
-1.983101
-2.058715
-2.133682
-2.205492
-2.271027
-2.326092
-2.365080
-2.381885
-2.372118
-2.335127
-2.274067
-2.193938
-2.099391
-1.993960
-1.880706
-1.763022
-1.644663
-1.529174
-1.419403
-1.317188
-1.223175
-1.136888
-1.056961
-0.981343
-0.907690
-0.833836
-0.758027
-0.678944
-0.595826
-0.508779
-0.419064
-0.329017
-0.241488
-0.158913
-0.082295
-0.010602
0.058886
0.129544
0.204508
0.286211
0.376057
0.474091
0.578714
0.686718
0.793993
0.896483
0.990548
1.072940
1.140941
1.192692
1.227325
1.244702
1.244972
1.228314
1.194875
1.144820
1.078397
0.996043
0.898550
0.787193
0.663706
0.529977
0.387426
0.236882
0.079669
-0.081658
-0.244132
-0.404930
-0.560985
-0.709102
-0.846463
-0.970728
-1.079904
-1.172222
-1.246282
-1.301639
-1.339267
-1.361525
-1.371723
-1.373426
-1.369720
-1.362746
-1.353388
-1.341097
-1.324187
-1.300683
-1.269241
-1.229501
-1.181915
-1.127593
-1.068218
-1.005855
-0.942873
-0.881963
-0.826106
-0.778551
-0.742577
-0.720959
-0.715446
-0.726387
-0.752618
-0.791789
-0.840955
-0.897115
-0.957399
-1.018930
-1.078733
-1.133907
-1.181876
-1.220528
-1.248325
-1.264392
-1.268520
-1.261127
-1.243304
-1.216770
-1.183495
-1.145137
-1.102766
-1.056925
-1.007771
-0.955248
-0.899349
-0.840384
-0.779154
-0.716995
-0.655717
-0.597412
-0.544264
-0.498439
-0.462013
-0.436923
-0.424755
-0.426347
-0.441459
-0.468725
-0.505772
-0.549454
-0.596107
-0.641679
-0.681957
-0.713127
-0.732336
-0.737943
-0.729536
-0.707634
-0.673277
-0.627861
-0.573019
-0.510324
-0.441043
-0.366147
-0.286519
-0.203171
-0.117347
-0.030510
0.055725
0.139681
0.219645
0.293704
0.359509
0.414220
0.454887
0.479168
0.485954
0.475529
0.449394
0.409956
0.360100
0.302767
0.240759
0.176724
0.113085
0.051829
-0.005663
-0.058712
-0.107480
-0.153090
-0.197588
-0.243688
-0.294202
-0.351322
-0.416155
-0.488551
-0.567060
-0.649059
-0.730969
-0.808487
-0.876930
-0.931923
-0.970418
-0.991560
-0.996770
-0.988968
-0.971573
-0.947962
-0.921317
-0.894345
-0.868801
-0.845167
-0.822705
-0.799823
-0.774540
-0.744822
-0.708750
-0.664755
-0.611984
-0.550559
-0.481680
-0.407678
-0.331906
-0.258536
-0.192331
-0.138079
-0.099550
-0.078451
-0.074087
-0.084040
-0.105447
-0.135926
-0.173671
-0.217022
-0.264049
-0.312273
-0.358634
-0.399639
-0.431548
-0.450671
-0.453806
-0.438588
-0.403630
-0.348623
-0.274376
-0.182719
-0.076286
0.041729
0.167928
0.298927
0.431199
0.560907
0.684024
0.796580
0.894962
0.976466
1.039853
1.085485
1.114983
1.130715
1.135306
1.131274
1.120686
1.104728
1.083316
1.055081
1.017887
0.969591
0.908655
0.834378
0.746823
0.646662
0.535189
0.414463
0.287363
0.157347
0.028115
-0.096634
-0.213575
-0.320266
-0.415510
-0.499443
-0.573372
-0.639391
-0.699953
-0.757449
-0.813900
-0.870832
-0.929192
-0.989190
-1.050113
-1.110231
-1.167026
-1.217727
-1.259945
-1.292137
-1.313825
-1.325509
-1.328243
-1.323066
-1.310653
-1.291307
-1.265152
-1.232321
-1.192979
-1.147279
-1.095412
-1.037776
-0.975211
-0.909163
-0.841689
-0.775396
-0.713272
-0.658349
-0.613363
-0.580442
-0.560732
-0.554250
-0.560143
-0.577074
-0.603530
-0.638075
-0.679531
-0.726987
-0.779682
-0.836943
-0.898262
-0.963349
-1.032055
-1.104237
-1.179611
-1.257681
-1.337790
-1.419271
-1.501604
-1.584512
-1.667845
-1.751282
-1.834105
-1.915198
-1.993166
-2.066424
-2.133339
-2.192464
-2.242731
-2.283646
-2.315508
-2.339374
-2.356727
-2.369217
-2.378549
-2.386329
-2.393926
-2.402441
-2.412712
-2.425309
-2.440450
-2.457883
-2.476876
-2.496390
-2.515286
-2.532481
-2.547087
-2.558534
-2.566617
-2.571403
-2.573041
-2.571598
-2.566945
-2.558671
-2.546041
-2.527998
-2.503254
-2.470494
-2.428565
-2.376509
-2.313542
-2.239160
-2.153307
-2.056483
-1.949744
-1.834644
-1.713160
-1.587499
-1.459923
-1.332721
-1.208343
-1.089613
-0.979804
-0.882505
-0.801396
-0.739901
-0.700732
-0.685429
-0.694104
-0.725611
-0.778097
-0.849599
-0.938369
-1.042823
-1.161214
-1.291333
-1.430483
-1.575623
-1.723505
-1.870822
-2.014242
-2.150346
-2.275705
-2.387260
-2.482892
-2.561832
-2.624520
-2.672052
-2.705644
-2.726306
-2.734670
-2.731010
-2.715412
-2.687958
-2.648825
-2.598270
-2.536503
-2.463698
-2.380261
-2.287050
-2.185302
-2.076474
-1.962191
-1.844371
-1.725413
-1.608102
-1.495031
-1.387772
-1.286330
-1.189272
-1.094390
-0.999342
-0.902091
-0.801121
-0.695401
-0.584283
-0.467411
-0.344690
-0.216369
-0.083158
0.053799
0.193075
0.333112
0.472371
0.609429
0.742991
0.871933
0.995464
1.113251
1.225371
1.332207
1.434342
1.532389
1.626667
1.716832
1.801817
1.880114
1.950124
2.010521
2.060648
2.100715
2.131684
2.154875
2.171539
2.182710
2.189279
2.191979
2.191253
2.187244
2.179933
2.169288
2.155325
2.138053
2.117403
2.093239
2.065484
2.034368
2.000664
1.965665
1.930796
1.897116
1.865034
1.834310
1.804203
1.773740
1.742050
1.708582
1.673080
1.635391
1.595306
1.552527
1.506727
1.457664
1.405337
1.350055
1.292379
1.233029
1.172796
1.112380
1.052136
0.991831
0.930556
0.866873
0.799046
0.725319
0.644169
0.554462
0.455455
0.346772
0.228513
0.101397
-0.033207
-0.173412
-0.316994
-0.461457
-0.604061
-0.741999
-0.872606
-0.993500
-1.102791
-1.199341
-1.282803
-1.353479
-1.412084
-1.459452
-1.496281
-1.523116
-1.540478
-1.548966
-1.549336
-1.542531
-1.529707
-1.512222
-1.491493
-1.468795
-1.445165
-1.421520
-1.398845
-1.378254
-1.360902
-1.347854
-1.339879
-1.337181
-1.339238
-1.344807
-1.351949
-1.358109
-1.360391
-1.355998
-1.342681
-1.319064
-1.284716
-1.240004
-1.185717
-1.122511
-1.050519
-0.969476
-0.879245
-0.780242
-0.673464
-0.560258
-0.442074
-0.320303
-0.196276
-0.071349
0.053308
0.176918
0.298790
0.418062
0.533855
0.645190
0.750633
0.848210
0.935523
1.009971
1.069249
1.111894
1.137551
1.146927
1.141466
1.122938
1.093231
1.054286
1.008025
0.956271
0.900661
0.842568
0.782981
0.722395
0.660853
0.598130
0.533878
0.467648
0.398840
0.326781
0.250946
0.171061
0.086978
-0.001427
-0.094190
-0.191128
-0.291699
-0.394889
-0.499146
-0.602404
-0.702207
-0.795988
-0.881438
-0.956864
-1.021358
-1.074636
-1.116657
-1.147346
-1.166530
-1.173987
-1.169548
-1.153203
-1.125244
-1.086377
-1.037656
-0.980302
-0.915539
-0.844470
-0.768007
-0.686944
-0.602105
-0.514476
-0.425232
-0.335681
-0.247095
-0.160476
-0.076463
0.004519
0.082010
0.155362
0.223758
0.286294
0.341986
0.389794
0.428783
0.458293
0.478030
0.488176
0.489542
0.483589
0.472302
0.458013
0.443209
0.430328
0.421556
0.418580
0.422440
0.433575
0.451968
0.477290
0.509036
0.546552
0.589000
0.635334
0.684341
0.734734
0.785209
0.834416
0.880985
0.923543
0.960696
0.991113
1.013694
1.027682
1.032745
1.028989
1.016812
0.996720
0.969200
0.934619
0.893191
0.845050
0.790316
0.729100
0.661561
0.587978
0.508740
0.424293
0.335130
0.241814
0.145010
0.045560
-0.055549
-0.157339
-0.258903
-0.359316
-0.457687
-0.553377
-0.646225
-0.736650
-0.825586
-0.914296
-1.004234
-1.096917
-1.193639
-1.295074
-1.400958
-1.510105
-1.620805
-1.731208
-1.839255
-1.942491
-2.038290
-2.124365
-2.199115
-2.261693
-2.311918
-2.350037
-2.376444
-2.391533
-2.395732
-2.389563
-2.373569
-2.348162
-2.313571
-2.269930
-2.217395
-2.156097
-2.086137
-2.007793
-1.921558
-1.827873
-1.727111
-1.619964
-1.507743
-1.392325
-1.275817
-1.160219
-1.047378
-0.939078
-0.836842
-0.741540
-0.653351
-0.572162
-0.497942
-0.430852
-0.371263
-0.319795
-0.277317
-0.244733
-0.222592
-0.210835
-0.208870
-0.215827
-0.230807
-0.253018
-0.281706
-0.315984
-0.354877
-0.397534
-0.443183
-0.491104
-0.540895
-0.592513
-0.646033
-0.701546
-0.759169
-0.818904
-0.880418
-0.942904
-1.005077
-1.065337
-1.122062
-1.173918
-1.219987
-1.259693
-1.292731
-1.319010
-1.338590
-1.351713
-1.358949
-1.361187
-1.359460
-1.354834
-1.348477
-1.341705
-1.335925
-1.332502
-1.332722
-1.337930
-1.349665
-1.369514
-1.398704
-1.437819
-1.486764
-1.544747
-1.610324
-1.681659
-1.756939
-1.834596
-1.913207
-1.991262
-2.067168
-2.139469
-2.206998
-2.268839
-2.324265
-2.372680
-2.413524
-2.446288
-2.470628
-2.486477
-2.494076
-2.493885
-2.486342
-2.471751
-2.450367
-2.422472
-2.388348
-2.348268
-2.302555
-2.251692
-2.196414
-2.137691
-2.076688
-2.014783
-1.953546
-1.894511
-1.838854
-1.787198
-1.739625
-1.695772
-1.654896
-1.615922
-1.577543
-1.538365
-1.497070
-1.452527
-1.403880
-1.350545
-1.292038
-1.227748
-1.156856
-1.078446
-0.991652
-0.895762
-0.790279
-0.674972
-0.549967
-0.415899
-0.274064
-0.126389
0.024704
0.176421
0.325853
0.470245
0.606943
0.733466
0.847942
0.949318
1.037204
1.111687
1.173181
1.222253
1.259486
1.285396
1.300364
1.304561
1.297909
1.280109
1.250771
1.209563
1.156314
1.091028
1.013883
0.925349
0.826348
0.718274
0.602856
0.482040
0.357928
0.232736
0.108820
-0.011303
-0.125119
-0.230443
-0.325624
-0.409530
-0.481420
-0.540792
-0.587339
-0.621083
-0.642467
-0.652320
-0.651693
-0.641693
-0.623383
-0.597792
-0.565939
-0.528822
-0.487407
-0.442620
-0.395265
-0.345984
-0.295246
-0.243263
-0.189867
-0.134555
-0.076696
-0.015728
0.048740
0.116925
0.188845
0.264252
0.342601
0.423069
0.504519
0.585461
0.664130
0.738633
0.807023
0.867286
0.917478
0.956037
0.981987
0.994835
0.994592
0.982192
0.959567
0.928977
0.892527
0.852484
0.811547
0.772618
0.738399
0.711092
0.692321
0.683203
0.684226
0.695005
0.714358
0.740737
0.772664
0.808850
0.848068
0.889223
0.931621
0.975004
1.019392
1.064913
1.111516
1.158734
1.205747
1.251517
1.294717
1.333666
1.366524
1.391633
1.407706
1.413841
1.409481
1.394426
1.368859
1.333321
1.288645
1.235913
1.176441
1.111696
1.043151
0.972166
0.899869
0.827048
0.754222
0.681921
0.611032
0.542926
0.479264
0.421622
0.371161
0.328443
0.293431
0.265587
0.244031
0.227664
0.215203
0.205197
0.196105
0.186466
0.175046
0.160944
0.143692
0.123283
0.100045
0.074470
0.047160
0.018783
-0.010059
-0.038965
-0.067768
-0.096431
-0.124876
-0.152858
-0.179922
-0.205392
-0.228372
-0.247792
-0.262461
-0.271091
-0.272333
-0.264904
-0.247743
-0.220091
-0.181520
-0.131959
-0.071670
-0.001181
0.078764
0.167165
0.262686
0.363615
0.467932
0.573429
0.677870
0.779185
0.875633
0.965838
1.048784
1.123769
1.190342
1.248267
1.297488
1.338066
1.370120
1.393846
1.409573
1.417848
1.419456
1.415292
1.406270
1.393430
1.377989
1.361136
1.343917
1.327181
1.311354
1.296325
1.281621
1.266585
1.250483
1.232674
1.212791
1.190787
1.166845
1.141312
1.114734
1.087882
1.061605
1.036556
1.013019
0.990894
0.969704
0.948539
0.926028
0.900523
0.870453
0.834636
0.792445
0.743818
0.689264
0.629835
0.566908
0.501860
0.435906
0.370083
0.305288
0.242282
0.181571
0.123253
0.067033
0.012379
-0.041380
-0.094991
-0.149180
-0.204624
-0.262047
-0.322233
-0.385893
-0.453576
-0.525638
-0.602237
-0.683335
-0.768740
-0.858144
-0.951103
-1.047039
-1.145186
-1.244454
-1.343465
-1.440774
-1.535027
-1.624989
-1.709518
-1.787574
-1.858438
-1.921838
-1.977778
-2.026362
-2.067780
-2.102298
-2.130148
-2.151410
-2.165954
-2.173487
-2.173672
-2.166214
-2.150864
-2.127368
-2.095445
-2.054820
-2.005352
-1.947141
-1.880474
-1.805727
-1.723371
-1.634028
-1.538489
-1.437655
-1.332450
-1.223735
-1.112267
-0.998699
-0.883629
-0.767629
-0.651156
-0.534432
-0.417431
-0.299972
-0.181736
-0.062159
0.059489
0.183878
0.311556
0.442901
0.577975
0.716544
0.858158
1.002134
1.147603
1.293660
1.439416
1.583962
1.726357
1.865665
2.001020
2.131705
2.257175
2.377013
2.490913
2.598694
2.700303
2.795767
2.885164
2.968594
3.046149
3.117937
3.184156
3.245146
3.301390
3.353411
3.401607
3.446228
3.487504
3.525680
3.560984
3.593707
3.624313
3.653412
3.681636
3.709567
3.737695
3.766331
3.795534
3.825091
3.854556
3.883345
3.910819
3.936395
3.959688
3.980617
3.999400
4.016487
4.032471
4.047997
4.063719
4.080236
4.097960
4.116966
4.136912
4.157060
4.176390
4.193690
4.207559
4.216479
4.218966
4.213704
4.199600
4.175837
4.141900
4.097490
4.042401
3.976484
3.899695
3.812155
3.714175
3.606267
3.489175
3.363905
3.231655
3.093688
2.951236
2.805463
2.657506
2.508565
2.359987
2.213195
2.069491
1.929880
1.795055
1.665446
1.541146
1.421793
1.306644
1.194784
1.085259
0.977121
0.869526
0.761803
0.653408
0.543866
0.432835
0.320143
0.205737
0.089680
-0.027770
-0.146172
-0.265027
-0.383846
-0.502140
-0.619427
-0.735253
-0.849183
-0.960749
-1.069366
-1.174259
-1.274399
-1.368507
-1.455153
-1.532997
-1.600989
-1.658313
-1.704210
-1.738035
-1.759443
-1.768395
-1.764979
-1.749253
-1.721230
-1.680983
-1.628729
-1.564813
-1.489660
-1.403750
-1.307660
-1.202111
-1.087935
-0.965983
-0.837110
-0.702203
-0.562180
-0.417987
-0.270626
-0.121190
0.029159
0.179206
0.327659
0.473139
0.614214
0.749542
0.878134
0.999609
1.114271
1.222995
1.327026
1.427799
1.526768
1.625194
1.723930
1.823348
1.923380
2.023555
2.123022
2.220693
2.315454
2.406301
2.492429
2.573320
2.648651
2.718048
2.781093
2.837550
2.887264
2.929760
2.964182
2.989655
3.005538
3.011489
3.007513
2.993858
2.970882
2.939173
2.899680
2.853572
2.802056
2.746315
2.687468
2.626506
2.564254
2.501431
2.438701
2.376640
2.315724
2.256398
2.199065
2.143947
2.090997
2.039884
1.990037
1.940744
1.891230
1.840656
1.788160
1.732994
1.674660
1.613008
1.548319
1.481332
1.413139
1.345051
1.278483
1.214810
1.155247
1.100874
1.052675
1.011487
0.978015
0.952906
0.936725
0.929873
0.932609
0.945071
0.967220
0.998765
1.039108
1.087331
1.142284
1.202742
1.267413
1.334854
1.403529
1.471956
1.538699
1.602320
1.661404
1.714596
1.760661
1.798559
1.827489
1.846934
1.856716
1.856930
1.847861
1.830005
1.804074
1.770940
1.731507
1.686594
1.636892
1.583059
1.525775
1.465501
1.402099
1.335091
1.264370
1.190195
1.112732
1.032093
0.948467
0.861919
0.772342
0.679578
0.583474
0.483979
0.381139
0.274903
0.164982
0.050879
-0.067939
-0.191861
-0.321048
-0.455399
-0.594570
-0.738004
-0.884920
-1.034290
-1.184925
-1.335580
-1.485036
-1.632155
-1.775894
-1.915310
-2.049576
-2.177972
-2.299883
-2.414834
-2.522530
-2.622882
-2.715993
-2.802065
-2.881235
-2.953467
-3.018585
-3.076384
-3.126745
-3.169635
-3.205044
-3.232963
-3.253441
-3.266632
-3.272728
-3.271872
-3.264137
-3.249524
-3.227911
-3.199035
-3.162604
-3.118479
-3.066773
-3.007781
-2.941883
-2.869604
-2.791735
-2.709312
-2.623481
-2.535392
-2.446157
-2.356822
-2.268311
-2.181372
-2.096558
-2.014275
-1.934803
-1.858264
-1.784660
-1.714014
-1.646503
-1.582426
-1.522065
-1.465594
-1.413103
-1.364704
-1.320552
-1.280782
-1.245496
-1.214858
-1.189094
-1.168390
-1.152780
-1.142104
-1.135973
-1.133802
-1.134860
-1.138265
-1.143009
-1.148143
-1.152915
-1.156677
-1.158909
-1.159388
-1.158167
-1.155488
-1.151841
-1.147949
-1.144588
-1.142446
-1.142136
-1.144207
-1.149119
-1.157199
-1.168627
-1.183454
-1.201659
-1.223216
-1.248063
-1.276008
-1.306711
-1.339713
-1.374437
-1.410237
-1.446471
-1.482498
-1.517681
-1.551436
-1.583277
-1.612858
-1.640036
-1.664879
-1.687610
-1.708573
-1.728254
-1.747199
-1.765814
-1.784225
-1.802287
-1.819679
-1.836006
-1.850853
-1.863802
-1.874448
-1.882451
-1.887576
-1.889730
-1.888995
-1.885608
-1.879890
-1.872192
-1.862859
-1.852234
-1.840639
-1.828300
-1.815319
-1.801745
-1.787614
-1.772912
-1.757519
-1.741159
-1.723364
-1.703442
-1.680457
-1.653331
-1.621057
-1.582850
-1.538194
-1.486855
-1.428919
-1.364817
-1.295233
-1.220992
-1.143011
-1.062302
-0.979910
-0.896778
-0.813699
-0.731363
-0.650359
-0.571083
-0.493662
-0.417901
-0.343361
-0.269635
-0.196577
-0.124326
-0.053315
0.015702
0.081717
0.143653
0.200533
0.251518
0.295909
0.333314
0.363711
0.387282
0.404294
0.415133
0.420271
0.420202
0.415455
0.406619
0.394320
0.379141
0.361589
0.342103
0.321046
0.298663
0.275093
0.250463
0.224961
0.198802
0.172130
0.144978
0.117296
0.089000
0.059981
0.030124
-0.000680
-0.032534
-0.065550
-0.099830
-0.135390
-0.172081
-0.209586
-0.247432
-0.284975
-0.321374
-0.355667
-0.386927
-0.414389
-0.437524
-0.456119
-0.470341
-0.480742
-0.488198
-0.493775
-0.498530
-0.503330
-0.508782
-0.515250
-0.522892
-0.531642
-0.541240
-0.551361
-0.561753
-0.572287
-0.582988
-0.594064
-0.605912
-0.619072
-0.634123
-0.651497
-0.671381
-0.693743
-0.718334
-0.744656
-0.771989
-0.799455
-0.826089
-0.850963
-0.873348
-0.892780
-0.909030
-0.922065
-0.931992
-0.939014
-0.943403
-0.945434
-0.945312
-0.943171
-0.939101
-0.933148
-0.925303
-0.915518
-0.903699
-0.889683
-0.873282
-0.854379
-0.832965
-0.809121
-0.782975
-0.754654
-0.724308
-0.692165
-0.658499
-0.623588
-0.587735
-0.551269
-0.514509
-0.477742
-0.441195
-0.405055
-0.369518
-0.334758
-0.300897
-0.268071
-0.236488
-0.206365
-0.177871
-0.151168
-0.126421
-0.103808
-0.083556
-0.065947
-0.051257
-0.039713
-0.031495
-0.026725
-0.025437
-0.027526
-0.032729
-0.040647
-0.050816
-0.062723
-0.075768
-0.089290
-0.102679
-0.115457
-0.127279
-0.137924
-0.147311
-0.155461
-0.162370
-0.167947
-0.172012
-0.174293
-0.174427
-0.172014
-0.166682
-0.158171
-0.146394
-0.131406
-0.113328
-0.092311
-0.068584
-0.042529
-0.014713
0.014157
0.043285
0.071833
0.099027
0.124247
0.147030
0.166965
0.183628
0.196632
0.205704
0.210658
0.211278
0.207243
0.198197
0.183894
0.164256
0.139341
0.109319
0.074505
0.035387
-0.007372
-0.052912
-0.100125
-0.147639
-0.193915
-0.237381
-0.276561
-0.310155
-0.337087
-0.356543
-0.367999
-0.371228
-0.366211
-0.353093
-0.332202
-0.304029
-0.269162
-0.228240
-0.181991
