EVENT_NAME: EMILIA_2ND_SHOCK
EVENT_ID: IT-2012-0011
EVENT_DATE_YYYYMMDD: 20120529
EVENT_TIME_HHMMSS: 070002
EVENT_LATITUDE_DEGREE: 44.8417
EVENT_LONGITUDE_DEGREE: 11.0657
EVENT_DEPTH_KM: 8.1
HYPOCENTER_REFERENCE: INGV-CNT_Seismic_Bulletin
MAGNITUDE_W: 6.0
MAGNITUDE_W_REFERENCE: RCMT-INGV
MAGNITUDE_L: 5.8
MAGNITUDE_L_REFERENCE: INGV-CNT_Seismic_Bulletin
FOCAL_MECHANISM: TF
NETWORK: TV
STATION_CODE: CAS05
STATION_NAME: SAN CARLO
STATION_LATITUDE_DEGREE: 44.802222
STATION_LONGITUDE_DEGREE: 11.409715
STATION_ELEVATION_M: 
LOCATION: 
SENSOR_DEPTH_M: 
VS30_M/S: 
SITE_CLASSIFICATION_EC8: C*
MORPHOLOGIC_CLASSIFICATION: 
EPICENTRAL_DISTANCE_KM: 27.6
EARTHQUAKE_BACKAZIMUTH_DEGREE: 279.3
DATE_TIME_FIRST_SAMPLE_YYYYMMDD_HHMMSS: 20120529_065939.000
DATE_TIME_FIRST_SAMPLE_PRECISION: milliseconds
SAMPLING_INTERVAL_S: 0.005000
NDATA: 30001
DURATION_S: 150.005
STREAM: HNE
UNITS: cm/s^2
INSTRUMENT: sensor = Episensor FBA ES-T [Kinemetrics] | digitizer = Unknown [Unknown]
INSTRUMENT_ANALOG/DIGITAL: D
INSTRUMENTAL_FREQUENCY_HZ: 
INSTRUMENTAL_DAMPING: 
FULL_SCALE_G: 
N_BIT_DIGITAL_CONVERTER: 
PGA_CM/S^2: -83.836078
TIME_PGA_S: 39.250000
BASELINE_CORRECTION: BASELINE REMOVED
FILTER_TYPE: BUTTERWORTH
FILTER_ORDER: 2
LOW_CUT_FREQUENCY_HZ: 0.060
HIGH_CUT_FREQUENCY_HZ: 40.000
LATE/NORMAL_TRIGGERED: NT
DATABASE_VERSION: DYNA 1.0
HEADER_FORMAT: DYNA 1.2
DATA_TYPE: ACCELERATION
PROCESSING: manual (Paolucci et al., 2011)
DATA_TIMESTAMP_YYYYMMDD_HHMMSS: 
DATA_LICENSE: CC-BY4_0 (http://creativecommons.org/licenses/by/4.0/)
DATA_CITATION: ESM working group (2015), European Strong-Motion database, version 0.1, Network Activity 3: Networking acceleration networks and SM data users. Project NERA (www.nera-eu.org)
DATA_CREATOR: ESM working group
ORIGINAL_DATA_MEDIATOR_CITATION: Orfeus - European Integrated Data Archive (EIDA) http://www.orfeus-eu.org/eida/
ORIGINAL_DATA_MEDIATOR: Orfeus - European Integrated Data Archive (EIDA)
ORIGINAL_DATA_CREATOR_CITATION: 
ORIGINAL_DATA_CREATOR: network: TV (INGV Experiments Network); owner: Istituto Nazionale di Geofisica e Vulcanologia
USER1: 
USER2: 
USER3: 
USER4: 
USER5: 
[...]
-0.650844
-0.392817
-0.168785
0.079923
0.362371
0.599254
0.705222
0.682837
0.626184
0.632600
0.705274
0.738697
0.605428
0.267844
-0.178380
-0.561773
-0.760557
-0.787843
-0.731255
-0.617623
-0.387482
-0.018586
0.363299
0.542642
0.391106
-0.029200
-0.516798
-0.853493
-0.911194
-0.699795
-0.332708
0.061672
0.409865
0.693338
0.894888
0.961585
0.839953
0.554962
0.233566
0.030065
0.026160
0.171897
0.295567
0.232705
-0.002132
-0.225295
-0.293450
-0.242733
-0.200990
-0.229382
-0.293025
-0.341356
-0.368743
-0.413853
-0.511265
-0.624422
-0.652740
-0.540602
-0.344529
-0.157944
0.003501
0.216489
0.556242
0.989794
1.358791
1.475013
1.240561
0.697809
0.018874
-0.551858
-0.840299
-0.869596
-0.787453
-0.668665
-0.464675
-0.153775
0.139453
0.226150
0.042314
-0.248912
-0.341780
-0.029115
0.577009
1.081295
1.125948
0.707994
0.176918
-0.081992
0.027616
0.272190
0.347512
0.167748
-0.102556
-0.263541
-0.273483
-0.240138
-0.292381
-0.479185
-0.725995
-0.869788
-0.800804
-0.578447
-0.365823
-0.267129
-0.254277
-0.218303
-0.081676
0.101802
0.184641
0.122614
0.090824
0.312745
0.748476
1.008153
0.694073
-0.111100
-0.802087
-0.812842
-0.178708
0.535799
0.808091
0.594647
0.285754
0.301204
0.687596
1.085893
1.100368
0.669105
0.077905
-0.322390
-0.406334
-0.371696
-0.563889
-1.081136
-1.522704
-1.296082
-0.272257
0.974491
1.653159
1.419744
0.597517
-0.113507
-0.173280
0.389312
1.057788
1.331996
1.129451
0.740116
0.484333
0.401208
0.218571
-0.307481
-0.990899
-1.312873
-1.010604
-0.395480
0.025229
0.062313
-0.163904
-0.556433
-1.116628
-1.743351
-2.150431
-2.031721
-1.293262
-0.132905
1.094101
2.038172
2.398890
1.998958
0.999814
-0.034338
-0.523739
-0.396853
-0.112742
-0.107938
-0.315982
-0.343385
-0.070255
0.130323
-0.128910
-0.709333
-1.069884
-0.865806
-0.231012
0.488046
1.015510
1.135863
0.701980
-0.150069
-0.946529
-1.250937
-1.068901
-0.775062
-0.679713
-0.744714
-0.713733
-0.458211
-0.131107
0.032187
-0.010769
-0.098528
-0.043909
0.299777
1.044009
2.103593
3.030526
3.234845
2.501117
1.223777
0.058137
-0.629941
-0.934678
-1.121694
-1.303929
-1.426612
-1.470314
-1.543488
-1.721778
-1.867864
-1.715363
-1.113104
-0.130375
1.007191
2.000313
2.544227
2.418078
1.591778
0.320689
-0.868782
-1.433829
-1.216112
-0.589051
-0.110905
-0.017968
-0.110045
-0.111688
-0.031351
-0.095186
-0.409382
-0.809823
-1.034299
-0.944649
-0.569839
-0.046673
0.422608
0.665493
0.685463
0.670162
0.827625
1.216180
1.668062
1.857943
1.551944
0.863282
0.181183
-0.234990
-0.490658
-0.798389
-1.127662
-1.232233
-0.933230
-0.317090
0.259159
0.350022
-0.238967
-1.204418
-1.951098
-2.121032
-1.824398
-1.402076
-1.144983
-1.109764
-0.976034
-0.242673
1.221503
2.885357
3.890325
3.716278
2.615651
1.432833
0.952350
1.346703
2.146345
2.679341
2.601145
2.079787
1.518119
1.193193
1.127963
1.079418
0.667456
-0.201934
-1.082976
-1.466669
-1.452906
-1.635403
-2.369360
-3.383213
-4.016060
-3.723894
-2.512212
-0.924717
0.475544
1.544786
2.446638
3.261665
3.821775
3.874551
3.315608
2.247301
0.880355
-0.538777
-1.725913
-2.422139
-2.495492
-1.924002
-0.791346
0.595532
1.749302
2.289846
2.129835
1.413983
0.397281
-0.651703
-1.570334
-2.359664
-3.057660
-3.567057
-3.654496
-3.099606
-1.908842
-0.511120
0.363869
0.275169
-0.424063
-0.853428
-0.432047
0.627649
1.609987
1.957854
1.628866
0.958436
0.350077
0.031027
-0.093002
-0.326002
-0.768660
-1.071992
-0.798359
-0.007108
0.703653
0.720140
-0.139694
-1.569529
-2.989005
-3.870335
-3.964995
-3.274334
-1.908108
-0.067034
1.902143
3.577809
4.592579
4.680780
3.773584
2.181613
0.573431
-0.407347
-0.576965
-0.268553
0.024520
0.047730
-0.143797
-0.433244
-0.803372
-1.171447
-1.220947
-0.595039
0.702413
2.174973
3.183109
3.394618
2.875864
1.934444
1.008976
0.532251
0.655400
1.064082
1.154318
0.467107
-0.965344
-2.625498
-3.896765
-4.522040
-4.662271
-4.495310
-3.898326
-2.673318
-1.005994
0.511888
1.365512
1.534469
1.443103
1.571214
2.073817
2.673241
2.864391
2.272040
0.968193
-0.457538
-1.272398
-1.221788
-0.747127
-0.496205
-0.676314
-0.949994
-0.878792
-0.394980
0.111311
0.134174
-0.477433
-1.369532
-2.009839
-2.153065
-2.007083
-2.020411
-2.524459
-3.456257
-4.321765
-4.537370
-3.946256
-2.948189
-2.071716
-1.494566
-1.005640
-0.317500
0.731558
2.245928
4.299577
6.752522
9.141322
10.906930
11.744036
11.623381
10.543065
8.548372
6.037551
3.729848
2.120083
1.025646
-0.216189
-2.066626
-4.306798
-6.233239
-7.325618
-7.719399
-7.994165
-8.497339
-8.936967
-8.707588
-7.619058
-6.226392
-5.370171
-5.376562
-5.713101
-5.463795
-4.187903
-2.316289
-0.729053
0.018540
0.134035
0.374704
1.367126
3.028062
4.632877
5.473170
5.406754
4.803989
4.146882
3.716997
3.479173
3.181165
2.669827
2.136884
1.943875
2.193344
2.575011
2.605088
1.918779
0.450151
-1.455677
-3.162995
-4.201085
-4.598500
-4.638790
-4.405787
-3.788873
-2.842073
-1.872089
-1.165018
-0.791066
-0.672856
-0.727154
-0.900038
-1.067064
-0.964668
-0.388003
0.475962
1.037790
0.750653
-0.405325
-1.857337
-2.796227
-2.625037
-1.249324
0.895368
3.110837
4.843420
5.919296
6.439614
6.499172
6.020183
4.823146
2.885857
0.594967
-1.345597
-2.419164
-2.725274
-2.844278
-3.304571
-4.195975
-5.167574
-5.678210
-5.337597
-4.173634
-2.608043
-1.161964
-0.194140
0.198573
0.211260
0.215261
0.405679
0.567751
0.387034
-0.033183
-0.247795
-0.137314
-0.217813
-1.095063
-2.739835
-4.453921
-5.520143
-5.801717
-5.694718
-5.572848
-5.412847
-4.991645
-4.250532
-3.293305
-2.152957
-0.764791
0.855654
2.546658
4.107944
5.390534
6.314948
6.905137
7.319120
7.780097
8.415888
9.117816
9.536975
9.294179
8.305172
6.896768
5.534134
4.446153
3.571119
2.830823
2.335817
2.280580
2.741248
3.625240
4.698223
5.594029
5.936403
5.575745
4.653726
3.397006
1.933697
0.335802
-1.247095
-2.572515
-3.464334
-3.972513
-4.289436
-4.466292
-4.264819
-3.354537
-1.669510
0.461909
2.550588
4.284258
5.661691
6.841873
7.819343
8.222560
7.542091
5.628737
2.892525
-0.022015
-2.697251
-5.091547
-7.331432
-9.436237
-11.218904
-12.364016
-12.596244
-11.841830
-10.256341
-8.113131
-5.706200
-3.322805
-1.175613
0.651680
2.070118
2.849075
2.821260
2.238048
1.715040
1.691874
2.002757
2.063697
1.455130
0.286970
-0.908798
-1.561989
-1.448644
-0.806456
-0.047205
0.623158
1.216878
1.665572
1.704983
1.152415
0.215650
-0.582043
-0.784622
-0.286330
0.688173
1.758177
2.510923
2.563286
1.700180
0.092089
-1.703391
-3.115570
-3.925672
-4.210848
-4.050981
-3.430205
-2.407544
-1.304811
-0.644486
-0.790150
-1.620704
-2.640445
-3.403519
-3.732242
-3.553079
-2.699823
-1.014638
1.352654
3.834428
5.739063
6.714360
6.941771
6.876650
6.818485
6.823100
6.991780
7.526355
8.358450
9.054972
9.328821
9.417475
9.738242
10.294589
10.574097
9.976642
8.280642
5.710951
2.573232
-1.054010
-5.093976
-9.049408
-12.109676
-13.709679
-13.766160
-12.420232
-9.911907
-6.786036
-3.882041
-1.884615
-0.947547
-0.822004
-1.254270
-2.178802
-3.609301
-5.421766
-7.211661
-8.378015
-8.449362
-7.389966
-5.563439
-3.377687
-1.015370
1.477314
3.926124
5.942459
7.141520
7.457134
7.225371
6.905570
6.659688
6.221256
5.219298
3.586994
1.629112
-0.216948
-1.650126
-2.670645
-3.574845
-4.681867
-5.956076
-6.989052
-7.453467
-7.492773
-7.537504
-7.727418
-7.615745
-6.517963
-4.130738
-0.861304
2.342571
4.580709
5.575506
5.657956
5.239234
4.452707
3.261904
1.724755
0.145483
-0.971078
-1.222363
-0.637973
0.372352
1.419024
2.445153
3.671719
5.240724
6.864670
7.849895
7.588107
6.097411
4.016733
2.026111
0.320271
-1.365275
-3.305175
-5.413735
-7.343157
-8.947122
-10.530209
-12.507174
-14.837820
-16.850338
-17.584269
-16.334730
-13.017792
-8.160015
-2.600656
2.841795
7.581922
11.353133
14.145483
16.000399
16.902008
16.932926
16.389278
15.559068
14.438394
12.799346
10.536208
7.897625
5.410863
3.584445
2.601847
2.248253
2.097005
1.737173
0.914802
-0.409490
-2.115730
-4.048377
-6.047665
-7.848431
-9.045627
-9.291151
-8.540107
-7.027193
-5.006778
-2.598426
0.114629
2.933078
5.575163
7.881060
9.930501
11.913171
13.903667
15.762218
17.196400
17.890795
17.617107
16.308149
14.114795
11.405875
8.638906
6.117312
3.774306
1.184570
-2.086205
-6.023696
-10.100873
-13.698719
-16.460999
-18.249435
-18.991163
-18.679125
-17.451748
-15.638888
-13.703560
-12.035569
-10.714311
-9.485492
-8.032631
-6.278373
-4.394376
-2.618845
-1.202089
-0.428059
-0.497278
-1.414313
-3.066175
-5.296779
-7.776038
-9.891952
-10.980727
-10.750753
-9.478201
-7.793286
-6.226938
-4.880212
-3.483570
-1.745369
0.348013
2.517644
4.442291
6.031318
7.448893
8.866087
10.229006
11.296507
11.855242
11.857911
11.407242
10.677968
9.843091
9.032508
8.349255
7.872915
7.568081
7.227538
6.604927
5.573745
4.093092
2.114077
-0.354293
-3.110085
-5.765903
-7.916195
-9.325301
-10.011896
-10.201954
-10.217108
-10.358729
-10.784378
-11.420846
-12.014799
-12.306265
-12.159253
-11.534862
-10.407541
-8.760606
-6.608964
-3.995442
-1.033489
2.041106
4.937373
7.440578
9.457249
10.968080
11.969734
12.453454
12.442530
12.030936
11.313900
10.267492
8.768714
6.774580
4.460373
2.154954
0.138767
-1.467975
-2.612945
-3.172297
-2.996768
-2.140137
-1.002857
-0.220051
-0.440799
-2.128599
-5.346639
-9.665589
-14.370863
-18.785002
-22.422701
-24.970060
-26.262245
-26.360708
-25.589317
-24.357332
-22.932358
-21.460127
-20.135618
-19.161184
-18.512535
-17.889063
-16.912033
-15.291257
-12.857096
-9.574392
-5.559939
-1.051272
3.617444
7.996407
11.559525
13.834500
14.505368
13.457569
10.879115
7.391550
3.996246
1.773225
1.523454
3.509311
7.328267
12.053874
16.717829
20.747211
23.912613
26.007097
26.782539
26.172657
24.415901
21.860058
18.703154
15.108079
11.545817
8.723366
7.073984
6.466075
6.412909
6.453522
6.342594
6.058028
5.799953
5.917675
6.675488
8.023723
9.574743
10.805904
11.316685
10.975117
9.937036
8.501565
6.840194
4.861045
2.375987
-0.608476
-3.800757
-6.814012
-9.408678
-11.580117
-13.458078
-15.114834
-16.469475
-17.391718
-17.894203
-18.200556
-18.595619
-19.189926
-19.808659
-20.107006
-19.858791
-19.214670
-18.693987
-18.867746
-19.977749
-21.835180
-24.078176
-26.500170
-29.141754
-32.124870
-35.399097
-38.603031
-41.187187
-42.680389
-42.786674
-41.231663
-37.597816
-31.459015
-22.913382
-13.064691
-3.704838
3.788620
9.248480
13.408595
17.047459
20.529110
23.887146
27.083864
30.158333
33.154449
35.940937
38.185467
39.570171
40.026566
39.693222
38.596264
36.455280
32.844868
27.459938
20.360777
12.217410
4.226164
-2.480802
-7.450420
-10.944868
-13.420713
-15.075996
-15.888704
-15.918830
-15.463923
-14.925382
-14.522232
-14.125429
-13.342895
-11.712117
-8.837596
-4.491404
1.280821
8.111480
15.356431
22.210758
27.887039
31.780697
33.535480
33.086704
30.770065
27.370428
23.909159
21.225632
19.669876
19.069733
18.842644
18.146677
16.127487
12.255055
6.551681
-0.468889
-8.086310
-15.605415
-22.364040
-27.704294
-31.078148
-32.093674
-30.393358
-25.681047
-18.153528
-8.942682
0.141357
7.539169
12.651479
15.731426
17.311455
17.798256
17.441357
16.543308
15.640778
15.350602
15.963224
17.264050
18.743439
19.893694
20.361931
19.959124
18.640852
16.511091
13.741522
10.441930
6.662988
2.495209
-1.863843
-6.070050
-9.642187
-12.074666
-12.936383
-11.828132
-8.430116
-2.899452
3.779895
10.110618
14.848280
17.442032
17.890724
16.406263
13.264864
8.858824
3.730080
-1.531831
-6.399017
-10.436285
-13.397390
-15.390207
-16.826738
-18.089401
-19.208050
-19.746769
-18.950661
-16.186392
-11.428241
-5.401789
0.708417
5.832170
9.481790
11.689138
12.571697
12.081809
10.093236
6.624213
2.031628
-2.992417
-7.662299
-11.330442
-13.519612
-13.812256
-11.748447
-6.958440
0.383716
9.159527
17.495853
23.577770
26.486559
26.350649
23.658314
18.490921
10.637089
0.474333
-10.519292
-20.314737
-27.372561
-31.200317
-32.186802
-31.142122
-28.930267
-26.289019
-23.779272
-21.782095
-20.507570
-20.005581
-20.180733
-20.847904
-21.796137
-22.786674
-23.545191
-23.801697
-23.337603
-22.096172
-20.359205
-18.767929
-18.087818
-18.899851
-21.352175
-25.022591
-29.058977
-32.606094
-35.137436
-36.325344
-35.563816
-31.750435
-23.906694
-12.353906
0.889380
13.336809
23.622948
31.664474
37.750381
42.007259
44.467331
45.242718
44.674870
43.359886
41.883190
40.535023
39.413177
38.726059
38.824837
39.968319
42.139790
45.028633
48.150784
51.073807
53.575317
55.614304
57.229774
58.467789
59.351135
59.891453
60.087383
59.921959
59.396687
58.526627
57.297901
55.654839
53.487488
50.623367
46.895508
42.307407
37.212955
32.292530
28.208118
25.228785
23.203733
21.835703
20.914991
20.333263
19.973415
19.628658
19.001493
17.760815
15.610909
12.350359
7.916224
2.373512
-4.160448
-11.580741
-19.773624
-28.545521
-37.608574
-46.637688
-55.319290
-63.349670
-70.407516
-76.161079
-80.353096
-82.895164
-83.836075
-83.226959
-81.066536
-77.358810
-72.171806
-65.737938
-58.633953
-51.784809
-46.067062
-41.816452
-38.775616
-36.466206
-34.454475
-32.242790
-29.041191
-23.825970
-15.893448
-5.615433
5.412601
15.297921
23.052208
28.772886
32.814690
35.085732
34.920547
31.241619
23.089622
10.637609
-4.141403
-18.293072
-29.678522
-37.783726
-42.957157
-45.507538
-45.596180
-43.450336
-39.478760
-34.326427
-28.786030
-23.516523
-18.743380
-14.279265
-9.909237
-5.586766
-1.320123
2.856018
6.930863
10.991606
15.045822
18.871468
22.114977
24.458233
25.793695
26.257099
26.021330
25.114336
23.444519
21.008110
18.100813
15.252777
12.931945
11.324676
10.311648
9.596688
8.908304
8.110878
7.169619
6.128360
5.121126
4.319323
3.931567
4.233306
5.412158
7.443659
10.269877
13.943127
18.436024
23.415052
28.259905
32.311607
35.262775
37.373920
39.189526
40.975872
42.425159
42.857487
41.635292
38.430096
33.346897
26.981812
20.259945
14.009884
8.606382
4.001754
0.006979
-3.513035
-6.606090
-9.262313
-11.455389
-13.176308
-14.443044
-15.311612
-15.942404
-16.662563
-17.834646
-19.554354
-21.511902
-23.188383
-24.164083
-24.256325
-23.455223
-21.835503
-19.590818
-17.136986
-15.100660
-14.115786
-14.545693
-16.326418
-19.036968
-22.083145
-24.864052
-26.931170
-28.012022
-27.816298
-25.938459
-22.066236
-16.276014
-9.156853
-1.684505
5.041592
9.992000
12.324548
11.593245
8.011203
2.480570
-3.758087
-9.630396
-14.497607
-18.042931
-20.015776
-20.195906
-18.629330
-15.778474
-12.325073
-8.831334
-5.575450
-2.640744
-0.124994
1.791782
3.008330
3.617359
3.777904
3.510107
2.602414
0.707304
-2.321713
-6.065945
-9.609068
-12.077748
-13.087644
-12.700099
-11.129092
-8.534453
-4.952175
-0.380204
4.984056
10.587532
15.670454
19.597147
22.044359
22.895319
21.995495
19.119759
14.344048
8.433674
2.575188
-2.456015
-6.681544
-10.414970
-13.722345
-16.482216
-18.582365
-19.876820
-20.156958
-19.335274
-17.629951
-15.476993
-13.307146
-11.427958
-9.962408
-8.857376
-8.026495
-7.459702
-7.171971
-7.096334
-7.061092
-6.861661
-6.354091
-5.511240
-4.399559
-3.107800
-1.734315
-0.425715
0.645525
1.337018
1.514901
1.033195
-0.150986
-1.850532
-3.723353
-5.502338
-7.156011
-8.851718
-10.771235
-12.942350
-15.186211
-17.176092
-18.610126
-19.365778
-19.434683
-18.762552
-17.260551
-14.942850
-11.960759
-8.482211
-4.573346
-0.212735
4.590482
9.700171
14.866251
19.822374
24.408281
28.627161
32.535679
36.092644
39.183361
41.733109
43.733654
45.192467
46.048550
46.141499
45.311878
43.496952
40.723804
37.087200
32.707661
27.638109
21.793493
14.951513
6.885375
-2.318127
-11.995221
-21.109056
-28.838123
-34.939594
-39.591347
-43.020428
-45.303722
-46.396111
-46.201302
-44.564373
-41.177315
-35.487053
-26.904659
-15.490299
-2.518290
10.022956
20.741663
29.499020
36.832878
43.126858
48.391624
52.457649
55.122372
56.254124
55.924980
54.426617
52.159721
49.500610
46.663593
43.665222
40.453342
37.004292
33.264870
29.057735
24.064804
17.951895
10.629210
2.444955
-5.912365
-13.715270
-20.393101
-25.528757
-28.836779
-30.223995
-29.854776
-28.125307
-25.515278
-22.447273
-19.331490
-16.616653
-14.595753
-13.228691
-12.257093
-11.385860
-10.330147
-8.865492
-6.998448
-5.091204
-3.674429
-3.011147
-2.857898
-2.738507
-2.448572
-2.203991
-2.328214
-2.924153
-3.871885
-5.074486
-6.602854
-8.531558
-10.736488
-12.948220
-14.875112
-16.204323
-16.640728
-16.058435
-14.606416
-12.666282
-10.681031
-8.961127
-7.617195
-6.641334
-6.030619
-5.877748
-6.395922
-7.870059
-10.570394
-14.630999
-19.893732
-25.823315
-31.577923
-36.216370
-39.009037
-39.709225
-38.557037
-36.038387
-32.634792
-28.693016
-24.461128
-20.246090
-16.451176
-13.413787
-11.272635
-9.972381
-9.349782
-9.250879
-9.551619
-10.038810
-10.341586
-10.053755
-8.916609
-6.870221
-4.023220
-0.684133
2.629394
5.330034
6.948740
7.225253
6.090383
3.603681
-0.058554
-4.523414
-9.199920
-13.469913
-16.933815
-19.461168
-21.089825
-21.949539
-22.214563
-22.019241
-21.374971
-20.163780
-18.225145
-15.489219
-12.058309
-8.154629
-3.975288
0.402142
4.999673
9.866526
14.987721
20.195465
25.171638
29.550381
33.021229
35.388012
36.601276
36.754772
36.039680
34.718102
33.140251
31.710995
30.767609
30.464882
30.728415
31.253956
31.568174
31.170933
29.669510
26.835171
22.638821
17.299757
11.285817
5.192353
-0.457387
-5.330129
-9.266489
-12.240385
-14.337339
-15.682405
-16.322128
-16.194368
-15.254798
-13.624185
-11.592028
-9.489131
-7.556451
-5.903991
-4.538223
-3.367124
-2.187671
-0.740694
1.173060
3.591518
6.345796
9.085506
11.368316
12.779263
13.026794
11.966272
9.605013
6.169017
2.117549
-2.008747
-5.757630
-8.804060
-10.923200
-11.972291
-11.889416
-10.750237
-8.833064
-6.532275
-4.165428
-1.898193
0.188984
2.025342
3.513107
4.540703
5.029083
4.938770
4.237969
2.890377
0.888497
-1.664842
-4.505851
-7.295718
-9.770190
-11.795456
-13.320914
-14.320236
-14.776270
-14.699554
-14.137573
-13.145870
-11.753573
-9.991139
-7.947887
-5.768377
-3.598140
-1.537228
0.381584
2.193809
3.977636
5.792526
7.611623
9.306132
10.703892
11.689159
12.270459
12.553197
12.652734
12.647578
12.608780
12.660481
12.989110
13.765696
15.058357
16.802555
18.816771
20.860502
22.686661
23.992220
24.318022
23.096621
20.019201
15.531639
10.762151
6.665042
3.359702
0.422327
-2.461791
-5.275001
-7.832800
-9.960409
-11.540495
-12.484252
-12.687260
-12.044669
-10.571435
-8.509234
-6.280101
-4.310707
-2.855815
-1.963170
-1.599684
