EVENT_NAME: EMILIA_2ND_SHOCK
EVENT_ID: IT-2012-0011
EVENT_DATE_YYYYMMDD: 20120529
EVENT_TIME_HHMMSS: 070002
EVENT_LATITUDE_DEGREE: 44.8417
EVENT_LONGITUDE_DEGREE: 11.0657
EVENT_DEPTH_KM: 8.1
HYPOCENTER_REFERENCE: INGV-CNT_Seismic_Bulletin
MAGNITUDE_W: 6.0
MAGNITUDE_W_REFERENCE: RCMT-INGV
MAGNITUDE_L: 5.8
MAGNITUDE_L_REFERENCE: INGV-CNT_Seismic_Bulletin
FOCAL_MECHANISM: TF
NETWORK: TV
STATION_CODE: CAS05
STATION_NAME: SAN CARLO
STATION_LATITUDE_DEGREE: 44.802222
STATION_LONGITUDE_DEGREE: 11.409715
STATION_ELEVATION_M: 
LOCATION: 
SENSOR_DEPTH_M: 
VS30_M/S: 
SITE_CLASSIFICATION_EC8: C*
MORPHOLOGIC_CLASSIFICATION: 
EPICENTRAL_DISTANCE_KM: 27.6
EARTHQUAKE_BACKAZIMUTH_DEGREE: 279.3
DATE_TIME_FIRST_SAMPLE_YYYYMMDD_HHMMSS: 20120529_065939.000
DATE_TIME_FIRST_SAMPLE_PRECISION: milliseconds
SAMPLING_INTERVAL_S: 0.005000
NDATA: 30001
DURATION_S: 150.005
STREAM: HNZ
UNITS: cm
INSTRUMENT: sensor = Episensor FBA ES-T [Kinemetrics] | digitizer = Unknown [Unknown]
INSTRUMENT_ANALOG/DIGITAL: D
INSTRUMENTAL_FREQUENCY_HZ: 
INSTRUMENTAL_DAMPING: 
FULL_SCALE_G: 
N_BIT_DIGITAL_CONVERTER: 
PGD_CM: 0.821085
TIME_PGD_S: 48.405000
BASELINE_CORRECTION: BASELINE REMOVED
FILTER_TYPE: BUTTERWORTH
FILTER_ORDER: 2
LOW_CUT_FREQUENCY_HZ: 0.100
HIGH_CUT_FREQUENCY_HZ: 40.000
LATE/NORMAL_TRIGGERED: NT
DATABASE_VERSION: DYNA 1.0
HEADER_FORMAT: DYNA 1.2
DATA_TYPE: DISPLACEMENT
PROCESSING: manual (Paolucci et al., 2011)
DATA_TIMESTAMP_YYYYMMDD_HHMMSS: 
DATA_LICENSE: CC-BY4_0 (http://creativecommons.org/licenses/by/4.0/)
DATA_CITATION: ESM working group (2015), European Strong-Motion database, version 0.1, Network Activity 3: Networking acceleration networks and SM data users. Project NERA (www.nera-eu.org)
DATA_CREATOR: ESM working group
ORIGINAL_DATA_MEDIATOR_CITATION: Orfeus - European Integrated Data Archive (EIDA) http://www.orfeus-eu.org/eida/
ORIGINAL_DATA_MEDIATOR: Orfeus - European Integrated Data Archive (EIDA)
ORIGINAL_DATA_CREATOR_CITATION: 
ORIGINAL_DATA_CREATOR: network: TV (INGV Experiments Network); owner: Istituto Nazionale di Geofisica e Vulcanologia
USER1: 
USER2: 
USER3: 
USER4: 
USER5: 
[...]
1.695932e-01
1.689920e-01
1.682461e-01
1.673480e-01
1.662874e-01
1.650525e-01
1.636315e-01
1.620163e-01
1.602044e-01
1.581988e-01
1.560069e-01
1.536393e-01
1.511101e-01
1.484383e-01
1.456494e-01
1.427775e-01
1.398674e-01
1.369777e-01
1.341792e-01
1.315506e-01
1.291705e-01
1.271082e-01
1.254166e-01
1.241280e-01
1.232531e-01
1.227817e-01
1.226845e-01
1.229158e-01
1.234181e-01
1.241276e-01
1.249785e-01
1.259050e-01
1.268441e-01
1.277383e-01
1.285412e-01
1.292206e-01
1.297594e-01
1.301545e-01
1.304145e-01
1.305557e-01
1.305970e-01
1.305548e-01
1.304391e-01
1.302516e-01
1.299868e-01
1.296351e-01
1.291869e-01
1.286380e-01
1.279935e-01
1.272715e-01
1.265044e-01
1.257369e-01
1.250186e-01
1.243949e-01
1.239006e-01
1.235610e-01
1.233943e-01
1.234156e-01
1.236350e-01
1.240562e-01
1.246758e-01
1.254853e-01
1.264744e-01
1.276297e-01
1.289321e-01
1.303541e-01
1.318614e-01
1.334173e-01
1.349889e-01
1.365502e-01
1.380818e-01
1.395693e-01
1.409998e-01
1.423616e-01
1.436446e-01
1.448420e-01
1.459510e-01
1.469713e-01
1.479042e-01
1.487511e-01
1.495135e-01
1.501951e-01
1.508025e-01
1.513453e-01
1.518329e-01
1.522708e-01
1.526586e-01
1.529880e-01
1.532428e-01
1.533997e-01
1.534319e-01
1.533125e-01
1.530168e-01
1.525257e-01
1.518286e-01
1.509262e-01
1.498314e-01
1.485671e-01
1.471612e-01
1.456422e-01
1.440348e-01
1.423581e-01
1.406255e-01
1.388468e-01
1.370317e-01
1.351909e-01
1.333372e-01
1.314832e-01
1.296400e-01
1.278155e-01
1.260123e-01
1.242262e-01
1.224457e-01
1.206545e-01
1.188352e-01
1.169735e-01
1.150603e-01
1.130930e-01
1.110753e-01
1.090181e-01
1.069394e-01
1.048621e-01
1.028109e-01
1.008080e-01
9.886986e-02
9.700411e-02
9.520988e-02
9.348002e-02
9.180444e-02
9.017212e-02
8.857125e-02
8.698839e-02
8.540825e-02
8.381470e-02
8.219265e-02
8.053004e-02
7.882009e-02
7.706293e-02
7.526567e-02
7.344050e-02
7.160084e-02
6.975601e-02
6.790637e-02
6.604131e-02
6.414170e-02
6.218536e-02
6.015142e-02
5.802123e-02
5.577697e-02
5.340125e-02
5.087915e-02
4.820209e-02
4.537200e-02
4.240433e-02
3.932885e-02
3.618708e-02
3.302695e-02
2.989743e-02
2.684644e-02
2.392143e-02
2.116951e-02
1.863520e-02
1.635738e-02
1.436644e-02
1.268183e-02
1.131119e-02
1.025216e-02
9.494689e-03
9.021595e-03
8.807409e-03
8.818683e-03
9.017713e-03
9.367969e-03
9.837704e-03
1.040003e-02
1.103098e-02
1.170841e-02
1.241308e-02
1.313011e-02
1.384843e-02
1.455864e-02
1.525126e-02
1.591726e-02
1.654995e-02
1.714584e-02
1.770251e-02
1.821524e-02
1.867614e-02
1.907629e-02
1.940837e-02
1.966849e-02
1.985760e-02
1.998248e-02
2.005441e-02
2.008473e-02
2.007958e-02
2.003768e-02
1.995176e-02
1.981231e-02
1.961136e-02
1.934540e-02
1.901752e-02
1.863780e-02
1.822141e-02
1.778572e-02
1.734768e-02
1.692215e-02
1.652096e-02
1.615261e-02
1.582212e-02
1.553052e-02
1.527392e-02
1.504325e-02
1.482614e-02
1.461069e-02
1.438883e-02
1.415605e-02
1.390656e-02
1.362715e-02
1.329431e-02
1.287723e-02
1.234424e-02
1.166817e-02
1.082754e-02
9.804811e-03
8.584146e-03
7.150427e-03
5.489835e-03
3.591463e-03
1.449625e-03
-9.334472e-04
-3.545352e-03
-6.362960e-03
-9.354815e-03
-1.248635e-02
-1.572562e-02
-1.904659e-02
-2.242884e-02
-2.585410e-02
-2.930256e-02
-3.275146e-02
-3.617613e-02
-3.955222e-02
-4.285818e-02
-4.607748e-02
-4.919994e-02
-5.222197e-02
-5.514537e-02
-5.797508e-02
-6.071814e-02
-6.338502e-02
-6.599112e-02
-6.855533e-02
-7.109537e-02
-7.362305e-02
-7.614290e-02
-7.865474e-02
-8.115793e-02
-8.365462e-02
-8.615173e-02
-8.866146e-02
-9.119969e-02
-9.378347e-02
-9.642996e-02
-9.915757e-02
-1.019882e-01
-1.049479e-01
-1.080647e-01
-1.113613e-01
-1.148490e-01
-1.185233e-01
-1.223672e-01
-1.263556e-01
-1.304606e-01
-1.346529e-01
-1.389008e-01
-1.431682e-01
-1.474141e-01
-1.515950e-01
-1.556694e-01
-1.596006e-01
-1.633583e-01
-1.669178e-01
-1.702599e-01
-1.733722e-01
-1.762514e-01
-1.789049e-01
-1.813488e-01
-1.836055e-01
-1.856997e-01
-1.876547e-01
-1.894897e-01
-1.912191e-01
-1.928542e-01
-1.944091e-01
-1.959063e-01
-1.973778e-01
-1.988624e-01
-2.003986e-01
-2.020182e-01
-2.037421e-01
-2.055807e-01
-2.075338e-01
-2.095925e-01
-2.117405e-01
-2.139568e-01
-2.162198e-01
-2.185108e-01
-2.208146e-01
-2.231179e-01
-2.254072e-01
-2.276685e-01
-2.298863e-01
-2.320438e-01
-2.341235e-01
-2.361097e-01
-2.379906e-01
-2.397570e-01
-2.413985e-01
-2.429029e-01
-2.442584e-01
-2.454585e-01
-2.465059e-01
-2.474133e-01
-2.482032e-01
-2.489073e-01
-2.495654e-01
-2.502230e-01
-2.509265e-01
-2.517175e-01
-2.526279e-01
-2.536774e-01
-2.548742e-01
-2.562173e-01
-2.576981e-01
-2.593009e-01
-2.610029e-01
-2.627753e-01
-2.645878e-01
-2.664123e-01
-2.682260e-01
-2.700124e-01
-2.717605e-01
-2.734641e-01
-2.751231e-01
-2.767442e-01
-2.783386e-01
-2.799190e-01
-2.814958e-01
-2.830752e-01
-2.846591e-01
-2.862470e-01
-2.878397e-01
-2.894426e-01
-2.910678e-01
-2.927337e-01
-2.944626e-01
-2.962778e-01
-2.982020e-01
-3.002562e-01
-3.024600e-01
-3.048313e-01
-3.073843e-01
-3.101281e-01
-3.130656e-01
-3.161928e-01
-3.194996e-01
-3.229694e-01
-3.265811e-01
-3.303113e-01
-3.341369e-01
-3.380348e-01
-3.419815e-01
-3.459511e-01
-3.499150e-01
-3.538429e-01
-3.577052e-01
-3.614771e-01
-3.651413e-01
-3.686876e-01
-3.721102e-01
-3.754045e-01
-3.785650e-01
-3.815866e-01
-3.844661e-01
-3.872011e-01
-3.897878e-01
-3.922206e-01
-3.944957e-01
-3.966166e-01
-3.985962e-01
-4.004551e-01
-4.022153e-01
-4.038940e-01
-4.055025e-01
-4.070479e-01
-4.085360e-01
-4.099733e-01
-4.113675e-01
-4.127292e-01
-4.140726e-01
-4.154155e-01
-4.167781e-01
-4.181817e-01
-4.196468e-01
-4.211902e-01
-4.228224e-01
-4.245438e-01
-4.263446e-01
-4.282068e-01
-4.301088e-01
-4.320296e-01
-4.339504e-01
-4.358542e-01
-4.377256e-01
-4.395516e-01
-4.413230e-01
-4.430355e-01
-4.446887e-01
-4.462825e-01
-4.478154e-01
-4.492865e-01
-4.506990e-01
-4.520634e-01
-4.533971e-01
-4.547199e-01
-4.560501e-01
-4.574014e-01
-4.587853e-01
-4.602150e-01
-4.617081e-01
-4.632870e-01
-4.649757e-01
-4.667942e-01
-4.687543e-01
-4.708575e-01
-4.730964e-01
-4.754567e-01
-4.779176e-01
-4.804504e-01
-4.830172e-01
-4.855734e-01
-4.880732e-01
-4.904756e-01
-4.927481e-01
-4.948691e-01
-4.968286e-01
-4.986296e-01
-5.002864e-01
-5.018220e-01
-5.032636e-01
-5.046388e-01
-5.059719e-01
-5.072842e-01
-5.085937e-01
-5.099154e-01
-5.112590e-01
-5.126272e-01
-5.140160e-01
-5.154193e-01
-5.168336e-01
-5.182598e-01
-5.197029e-01
-5.211688e-01
-5.226631e-01
-5.241900e-01
-5.257526e-01
-5.273523e-01
-5.289862e-01
-5.306444e-01
-5.323097e-01
-5.339601e-01
-5.355740e-01
-5.371348e-01
-5.386331e-01
-5.400667e-01
-5.414388e-01
-5.427572e-01
-5.440343e-01
-5.452868e-01
-5.465333e-01
-5.477892e-01
-5.490633e-01
-5.503545e-01
-5.516531e-01
-5.529434e-01
-5.542091e-01
-5.554355e-01
-5.566112e-01
-5.577254e-01
-5.587679e-01
-5.597319e-01
-5.606183e-01
-5.614406e-01
-5.622225e-01
-5.629900e-01
-5.637624e-01
-5.645481e-01
-5.653470e-01
-5.661548e-01
-5.669652e-01
-5.677709e-01
-5.685640e-01
-5.693373e-01
-5.700863e-01
-5.708091e-01
-5.715054e-01
-5.721738e-01
-5.728118e-01
-5.734182e-01
-5.739959e-01
-5.745533e-01
-5.751036e-01
-5.756632e-01
-5.762496e-01
-5.768811e-01
-5.775759e-01
-5.783516e-01
-5.792221e-01
-5.801958e-01
-5.812716e-01
-5.824374e-01
-5.836691e-01
-5.849330e-01
-5.861903e-01
-5.874018e-01
-5.885299e-01
-5.895374e-01
-5.903862e-01
-5.910394e-01
-5.914659e-01
-5.916460e-01
-5.915714e-01
-5.912414e-01
-5.906572e-01
-5.898193e-01
-5.887269e-01
-5.873811e-01
-5.857865e-01
-5.839526e-01
-5.818930e-01
-5.796234e-01
-5.771605e-01
-5.745210e-01
-5.717222e-01
-5.687807e-01
-5.657127e-01
-5.625331e-01
-5.592570e-01
-5.559027e-01
-5.524944e-01
-5.490610e-01
-5.456327e-01
-5.422342e-01
-5.388799e-01
-5.355745e-01
-5.323187e-01
-5.291146e-01
-5.259690e-01
-5.228916e-01
-5.198942e-01
-5.169906e-01
-5.141991e-01
-5.115438e-01
-5.090516e-01
-5.067470e-01
-5.046463e-01
-5.027529e-01
-5.010567e-01
-4.995369e-01
-4.981669e-01
-4.969195e-01
-4.957697e-01
-4.946954e-01
-4.936769e-01
-4.926986e-01
-4.917524e-01
-4.908403e-01
-4.899718e-01
-4.891567e-01
-4.883977e-01
-4.876867e-01
-4.870096e-01
-4.863534e-01
-4.857105e-01
-4.850743e-01
-4.844328e-01
-4.837657e-01
-4.830468e-01
-4.822506e-01
-4.813572e-01
-4.803543e-01
-4.792355e-01
-4.779982e-01
-4.766439e-01
-4.751786e-01
-4.736136e-01
-4.719636e-01
-4.702435e-01
-4.684653e-01
-4.666363e-01
-4.647583e-01
-4.628287e-01
-4.608424e-01
-4.587945e-01
-4.566824e-01
-4.545069e-01
-4.522727e-01
-4.499875e-01
-4.476622e-01
-4.453112e-01
-4.429533e-01
-4.406106e-01
-4.383054e-01
-4.360565e-01
-4.338755e-01
-4.317646e-01
-4.297159e-01
-4.277114e-01
-4.257238e-01
-4.237197e-01
-4.216634e-01
-4.195212e-01
-4.172652e-01
-4.148766e-01
-4.123488e-01
-4.096886e-01
-4.069144e-01
-4.040522e-01
-4.011297e-01
-3.981719e-01
-3.951990e-01
-3.922257e-01
-3.892604e-01
-3.863045e-01
-3.833516e-01
-3.803866e-01
-3.773881e-01
-3.743317e-01
-3.711939e-01
-3.679545e-01
-3.645978e-01
-3.611119e-01
-3.574893e-01
-3.537271e-01
-3.498280e-01
-3.458001e-01
-3.416540e-01
-3.373982e-01
-3.330333e-01
-3.285511e-01
-3.239381e-01
-3.191825e-01
-3.142784e-01
-3.092263e-01
-3.040298e-01
-2.986927e-01
-2.932213e-01
-2.876277e-01
-2.819331e-01
-2.761646e-01
-2.703491e-01
-2.645071e-01
-2.586517e-01
-2.527903e-01
-2.469267e-01
-2.410607e-01
-2.351882e-01
-2.293024e-01
-2.233991e-01
-2.174810e-01
-2.115596e-01
-2.056508e-01
-1.997701e-01
-1.939277e-01
-1.881280e-01
-1.823705e-01
-1.766535e-01
-1.709753e-01
-1.653356e-01
-1.597354e-01
-1.541758e-01
-1.486565e-01
-1.431757e-01
-1.377314e-01
-1.323231e-01
-1.269516e-01
-1.216187e-01
-1.163270e-01
-1.110818e-01
-1.058923e-01
-1.007689e-01
-9.572016e-02
-9.075155e-02
-8.586604e-02
-8.106408e-02
-7.634184e-02
-7.169223e-02
-6.710981e-02
-6.259514e-02
-5.815460e-02
-5.379692e-02
-4.952926e-02
-4.535506e-02
-4.127486e-02
-3.728828e-02
-3.339407e-02
-2.958733e-02
-2.585566e-02
-2.217713e-02
-1.852236e-02
-1.486050e-02
-1.116559e-02
-7.419577e-03
-3.610455e-03
2.716111e-04
4.236602e-03
8.293923e-03
1.244971e-02
1.670433e-02
2.105208e-02
2.548372e-02
2.999027e-02
3.456599e-02
3.921002e-02
4.392696e-02
4.872714e-02
5.362647e-02
5.864544e-02
6.380637e-02
6.912919e-02
7.462710e-02
8.030423e-02
8.615580e-02
9.216994e-02
9.832978e-02
1.046152e-01
1.110032e-01
1.174683e-01
1.239829e-01
1.305213e-01
1.370631e-01
1.435961e-01
1.501159e-01
1.566234e-01
1.631220e-01
1.696150e-01
1.761054e-01
1.825961e-01
1.890912e-01
1.955953e-01
2.021122e-01
2.086434e-01
2.151870e-01
2.217377e-01
2.282861e-01
2.348183e-01
2.413160e-01
2.477586e-01
2.541270e-01
2.604062e-01
2.665882e-01
2.726707e-01
2.786542e-01
2.845382e-01
2.903189e-01
2.959908e-01
3.015498e-01
3.069964e-01
3.123379e-01
3.175878e-01
3.227645e-01
3.278889e-01
3.329822e-01
3.380640e-01
3.431504e-01
3.482522e-01
3.533737e-01
3.585124e-01
3.636609e-01
3.688086e-01
3.739432e-01
3.790509e-01
3.841156e-01
3.891183e-01
3.940375e-01
3.988509e-01
4.035383e-01
4.080852e-01
4.124854e-01
4.167424e-01
4.208670e-01
4.248736e-01
4.287768e-01
4.325886e-01
4.363171e-01
4.399651e-01
4.435308e-01
4.470104e-01
4.504016e-01
4.537055e-01
4.569258e-01
4.600671e-01
4.631331e-01
4.661293e-01
4.690676e-01
4.719684e-01
4.748586e-01
4.777652e-01
4.807096e-01
4.837071e-01
4.867697e-01
4.899093e-01
4.931377e-01
4.964634e-01
4.998882e-01
5.034067e-01
5.070094e-01
5.106872e-01
5.144351e-01
5.182502e-01
5.221292e-01
5.260652e-01
5.300461e-01
5.340544e-01
5.380694e-01
5.420704e-01
5.460385e-01
5.499575e-01
5.538122e-01
5.575889e-01
5.612782e-01
5.648772e-01
5.683922e-01
5.718375e-01
5.752353e-01
5.786126e-01
5.819987e-01
5.854225e-01
5.889112e-01
5.924911e-01
5.961883e-01
6.000275e-01
6.040283e-01
6.082012e-01
6.125459e-01
6.170528e-01
6.217070e-01
6.264906e-01
6.313844e-01
6.363677e-01
6.414176e-01
6.465110e-01
6.516254e-01
6.567400e-01
6.618355e-01
6.668926e-01
6.718907e-01
6.768064e-01
6.816131e-01
6.862808e-01
6.907787e-01
6.950789e-01
6.991612e-01
7.030167e-01
7.066479e-01
7.100688e-01
7.133033e-01
7.163843e-01
7.193508e-01
7.222431e-01
7.250972e-01
7.279430e-01
7.308044e-01
7.337021e-01
7.366533e-01
7.396691e-01
7.427509e-01
7.458873e-01
7.490563e-01
7.522301e-01
7.553818e-01
7.584899e-01
7.615399e-01
7.645226e-01
7.674324e-01
7.702657e-01
7.730202e-01
7.756937e-01
7.782823e-01
7.807781e-01
7.831679e-01
7.854362e-01
7.875695e-01
7.895618e-01
7.914160e-01
7.931417e-01
7.947519e-01
7.962593e-01
7.976757e-01
7.990118e-01
8.002792e-01
8.014902e-01
8.026573e-01
8.037924e-01
8.049060e-01
8.060074e-01
8.071033e-01
8.081972e-01
8.092880e-01
8.103712e-01
8.114400e-01
8.124877e-01
8.135084e-01
8.144970e-01
8.154485e-01
8.163572e-01
8.172165e-01
8.180190e-01
8.187565e-01
8.194191e-01
8.199945e-01
8.204672e-01
8.208195e-01
8.210318e-01
8.210846e-01
8.209594e-01
8.206410e-01
8.201201e-01
8.193953e-01
8.184751e-01
8.173776e-01
8.161292e-01
8.147614e-01
8.133063e-01
8.117930e-01
8.102458e-01
8.086852e-01
8.071302e-01
8.055994e-01
8.041090e-01
8.026701e-01
8.012858e-01
7.999520e-01
7.986588e-01
7.973951e-01
7.961514e-01
7.949198e-01
7.936929e-01
7.924627e-01
7.912222e-01
7.899682e-01
7.887033e-01
7.874354e-01
7.861762e-01
7.849387e-01
7.837361e-01
7.825804e-01
7.814806e-01
7.804422e-01
7.794665e-01
7.785492e-01
7.776797e-01
7.768408e-01
7.760110e-01
7.751658e-01
7.742790e-01
7.733225e-01
7.722689e-01
7.710950e-01
7.697858e-01
7.683376e-01
7.667575e-01
7.650606e-01
7.632673e-01
7.613988e-01
7.594735e-01
7.575043e-01
7.554963e-01
7.534485e-01
7.513569e-01
7.492181e-01
7.470323e-01
7.448042e-01
7.425415e-01
7.402535e-01
7.379475e-01
7.356272e-01
7.332910e-01
7.309320e-01
7.285389e-01
7.260977e-01
7.235930e-01
7.210102e-01
7.183366e-01
7.155622e-01
7.126801e-01
7.096853e-01
7.065753e-01
7.033505e-01
7.000156e-01
6.965785e-01
6.930469e-01
6.894256e-01
6.857164e-01
6.819221e-01
6.780502e-01
6.741139e-01
6.701293e-01
6.661104e-01
6.620663e-01
6.580026e-01
6.539238e-01
6.498345e-01
6.457378e-01
6.416333e-01
6.375184e-01
6.333904e-01
6.292500e-01
6.251021e-01
6.209546e-01
6.168161e-01
6.126943e-01
6.085945e-01
6.045188e-01
6.004659e-01
5.964300e-01
5.924006e-01
5.883643e-01
5.843081e-01
5.802222e-01
5.761014e-01
5.719429e-01
5.677435e-01
5.634968e-01
5.591925e-01
5.548188e-01
5.503648e-01
5.458226e-01
5.411864e-01
5.364513e-01
5.316121e-01
5.266643e-01
5.216056e-01
5.164375e-01
5.111659e-01
5.058005e-01
5.003544e-01
4.948447e-01
4.892925e-01
4.837202e-01
4.781489e-01
4.725935e-01
4.670622e-01
4.615571e-01
4.560772e-01
4.506207e-01
4.451848e-01
4.397637e-01
4.343486e-01
4.289297e-01
4.234983e-01
4.180479e-01
4.125712e-01
4.070573e-01
4.014897e-01
3.958487e-01
3.901167e-01
3.842842e-01
3.783504e-01
3.723200e-01
3.661976e-01
3.599847e-01
3.536806e-01
3.472859e-01
3.408041e-01
3.342430e-01
3.276161e-01
3.209423e-01
3.142434e-01
3.075406e-01
3.008520e-01
2.941924e-01
2.875729e-01
2.810009e-01
2.744804e-01
2.680127e-01
2.615988e-01
2.552405e-01
2.489396e-01
2.426965e-01
2.365079e-01
2.303654e-01
2.242563e-01
2.181643e-01
2.120701e-01
2.059530e-01
1.997934e-01
1.935758e-01
1.872900e-01
1.809291e-01
1.744867e-01
1.679567e-01
1.613354e-01
1.546245e-01
1.478326e-01
1.409726e-01
1.340587e-01
1.271031e-01
1.201155e-01
1.131042e-01
1.060796e-01
9.905562e-02
9.204953e-02
8.507997e-02
7.816431e-02
7.131689e-02
6.454891e-02
5.786931e-02
5.128458e-02
4.479729e-02
3.840472e-02
3.209888e-02
2.586810e-02
1.969995e-02
1.358413e-02
7.514251e-03
1.487940e-03
-4.494203e-03
-1.043014e-02
-1.631763e-02
-2.215490e-02
-2.794158e-02
-3.367998e-02
-3.937586e-02
-4.503781e-02
-5.067569e-02
-5.629949e-02
-6.191875e-02
-6.754231e-02
-7.317729e-02
-7.882735e-02
-8.449183e-02
-9.016641e-02
-9.584490e-02
-1.015209e-01
-1.071897e-01
-1.128500e-01
-1.185047e-01
-1.241592e-01
-1.298190e-01
-1.354889e-01
-1.411732e-01
-1.468776e-01
-1.526089e-01
-1.583730e-01
-1.641719e-01
-1.700000e-01
-1.758449e-01
-1.816868e-01
-1.875015e-01
-1.932624e-01
-1.989455e-01
-2.045309e-01
-2.100038e-01
-2.153532e-01
-2.205715e-01
-2.256554e-01
-2.306070e-01
-2.354337e-01
-2.401486e-01
-2.447678e-01
-2.493086e-01
-2.537859e-01
-2.582114e-01
-2.625957e-01
-2.669506e-01
-2.712906e-01
-2.756302e-01
-2.799803e-01
-2.843460e-01
-2.887272e-01
-2.931231e-01
-2.975357e-01
-3.019709e-01
-3.064352e-01
-3.109311e-01
-3.154538e-01
-3.199912e-01
-3.245274e-01
-3.290462e-01
-3.335317e-01
-3.379681e-01
-3.423377e-01
-3.466213e-01
-3.507995e-01
-3.548558e-01
-3.587805e-01
-3.625717e-01
-3.662352e-01
-3.697828e-01
-3.732310e-01
-3.766006e-01
-3.799153e-01
-3.831992e-01
-3.864719e-01
-3.897454e-01
-3.930238e-01
-3.963045e-01
-3.995803e-01
-4.028423e-01
-4.060823e-01
-4.092963e-01
-4.124859e-01
-4.156589e-01
-4.188269e-01
-4.220040e-01
-4.252045e-01
-4.284413e-01
-4.317244e-01
-4.350595e-01
-4.384479e-01
-4.418849e-01
-4.453586e-01
-4.488482e-01
-4.523259e-01
-4.557613e-01
-4.591270e-01
-4.624028e-01
-4.655777e-01
-4.686494e-01
-4.716236e-01
-4.745098e-01
-4.773182e-01
-4.800567e-01
-4.827320e-01
-4.853514e-01
-4.879225e-01
-4.904533e-01
-4.929517e-01
-4.954258e-01
-4.978832e-01
-5.003296e-01
-5.027674e-01
-5.051964e-01
-5.076154e-01
-5.100251e-01
-5.124285e-01
-5.148300e-01
-5.172336e-01
-5.196412e-01
-5.220528e-01
-5.244651e-01
-5.268702e-01
-5.292539e-01
-5.315971e-01
-5.338789e-01
-5.360795e-01
-5.381841e-01
-5.401835e-01
-5.420737e-01
-5.438544e-01
-5.455280e-01
-5.470995e-01
-5.485761e-01
-5.499654e-01
-5.512740e-01
-5.525075e-01
-5.536719e-01
-5.547743e-01
-5.558213e-01
-5.568174e-01
-5.577647e-01
-5.586641e-01
-5.595178e-01
-5.603308e-01
-5.611103e-01
-5.618631e-01
-5.625950e-01
-5.633099e-01
-5.640110e-01
-5.647002e-01
-5.653768e-01
-5.660357e-01
-5.666667e-01
-5.672553e-01
-5.677834e-01
-5.682298e-01
-5.685715e-01
-5.687862e-01
-5.688548e-01
-5.687649e-01
-5.685129e-01
-5.681036e-01
-5.675476e-01
-5.668571e-01
-5.660428e-01
-5.651128e-01
-5.640737e-01
-5.629323e-01
-5.616964e-01
-5.603744e-01
-5.589743e-01
-5.575029e-01
-5.559651e-01
-5.543647e-01
-5.527045e-01
-5.509859e-01
-5.492078e-01
-5.473670e-01
-5.454600e-01
-5.434854e-01
-5.414452e-01
-5.393449e-01
-5.371932e-01
-5.350019e-01
-5.327860e-01
-5.305625e-01
-5.283473e-01
-5.261534e-01
-5.239891e-01
-5.218589e-01
-5.197656e-01
