EVENT_NAME: EMILIA_2ND_SHOCK
EVENT_ID: IT-2012-0011
EVENT_DATE_YYYYMMDD: 20120529
EVENT_TIME_HHMMSS: 070002
EVENT_LATITUDE_DEGREE: 44.8417
EVENT_LONGITUDE_DEGREE: 11.0657
EVENT_DEPTH_KM: 8.1
HYPOCENTER_REFERENCE: INGV-CNT_Seismic_Bulletin
MAGNITUDE_W: 6.0
MAGNITUDE_W_REFERENCE: RCMT-INGV
MAGNITUDE_L: 5.8
MAGNITUDE_L_REFERENCE: INGV-CNT_Seismic_Bulletin
FOCAL_MECHANISM: TF
NETWORK: TV
STATION_CODE: MIR01
STATION_NAME: MEDOLLA
STATION_LATITUDE_DEGREE: 44.844042
STATION_LONGITUDE_DEGREE: 11.071316
STATION_ELEVATION_M: 
LOCATION: 
SENSOR_DEPTH_M: 
VS30_M/S: 
SITE_CLASSIFICATION_EC8: C*
MORPHOLOGIC_CLASSIFICATION: 
EPICENTRAL_DISTANCE_KM: 0.5
EARTHQUAKE_BACKAZIMUTH_DEGREE: 239.6
DATE_TIME_FIRST_SAMPLE_YYYYMMDD_HHMMSS: 20120529_065945.000
DATE_TIME_FIRST_SAMPLE_PRECISION: milliseconds
SAMPLING_INTERVAL_S: 0.005000
NDATA: 30001
DURATION_S: 150.005
STREAM: HNE
UNITS: cm/s
INSTRUMENT: sensor = Episensor FBA ES-T [Kinemetrics] | digitizer = Unknown [Unknown]
INSTRUMENT_ANALOG/DIGITAL: D
INSTRUMENTAL_FREQUENCY_HZ: 
INSTRUMENTAL_DAMPING: 
FULL_SCALE_G: 
N_BIT_DIGITAL_CONVERTER: 
PGV_CM/S: 31.325017
TIME_PGV_S: 26.005000
BASELINE_CORRECTION: BASELINE REMOVED
FILTER_TYPE: BUTTERWORTH
FILTER_ORDER: 2
LOW_CUT_FREQUENCY_HZ: 0.050
HIGH_CUT_FREQUENCY_HZ: 40.000
LATE/NORMAL_TRIGGERED: NT
DATABASE_VERSION: DYNA 1.0
HEADER_FORMAT: DYNA 1.2
DATA_TYPE: VELOCITY
PROCESSING: manual (Paolucci et al., 2011)
DATA_TIMESTAMP_YYYYMMDD_HHMMSS: 
DATA_LICENSE: CC-BY4_0 (http://creativecommons.org/licenses/by/4.0/)
DATA_CITATION: ESM working group (2015), European Strong-Motion database, version 0.1, Network Activity 3: Networking acceleration networks and SM data users. Project NERA (www.nera-eu.org)
DATA_CREATOR: ESM working group
ORIGINAL_DATA_MEDIATOR_CITATION: Orfeus - European Integrated Data Archive (EIDA) http://www.orfeus-eu.org/eida/
ORIGINAL_DATA_MEDIATOR: Orfeus - European Integrated Data Archive (EIDA)
ORIGINAL_DATA_CREATOR_CITATION: 
ORIGINAL_DATA_CREATOR: network: TV (INGV Experiments Network); owner: Istituto Nazionale di Geofisica e Vulcanologia
USER1: 
USER2: 
USER3: 
USER4: 
USER5: 
[...]
-0.076543
-0.076593
-0.076655
-0.076731
-0.076813
-0.076894
-0.076969
-0.077041
-0.077112
-0.077190
-0.077276
-0.077365
-0.077444
-0.077507
-0.077564
-0.077616
-0.077664
-0.077710
-0.077765
-0.077831
-0.077897
-0.077959
-0.078015
-0.078064
-0.078109
-0.078158
-0.078212
-0.078264
-0.078316
-0.078370
-0.078423
-0.078465
-0.078496
-0.078523
-0.078546
-0.078572
-0.078609
-0.078661
-0.078717
-0.078764
-0.078796
-0.078819
-0.078839
-0.078864
-0.078901
-0.078952
-0.079012
-0.079077
-0.079142
-0.079197
-0.079238
-0.079272
-0.079311
-0.079354
-0.079391
-0.079398
-0.079341
-0.079170
-0.078839
-0.078337
-0.077703
-0.077006
-0.076316
-0.075690
-0.075181
-0.074861
-0.074895
-0.075544
-0.076802
-0.078084
-0.078662
-0.078339
-0.077466
-0.076730
-0.077089
-0.079207
-0.082712
-0.086519
-0.089852
-0.092462
-0.094306
-0.095859
-0.098211
-0.102128
-0.107410
-0.113152
-0.118156
-0.121475
-0.122550
-0.120486
-0.114554
-0.106154
-0.098791
-0.095582
-0.097587
-0.103751
-0.111010
-0.115222
-0.113698
-0.106891
-0.097164
-0.086584
-0.076005
-0.064967
-0.052349
-0.038040
-0.023446
-0.010055
0.001120
0.008285
0.008725
0.001605
-0.008987
-0.015346
-0.012668
-0.005391
-0.004931
-0.017401
-0.034737
-0.042613
-0.036092
-0.022317
-0.008402
0.007021
0.027527
0.048602
0.058438
0.048736
0.022770
-0.006991
-0.028063
-0.034552
-0.026860
-0.008927
0.013715
0.036055
0.053508
0.058332
0.040360
-0.003791
-0.063908
-0.121447
-0.160085
-0.170745
-0.151618
-0.108428
-0.053868
-0.003079
0.033038
0.051242
0.052147
0.033039
-0.011509
-0.077999
-0.145821
-0.187038
-0.186146
-0.148353
-0.090859
-0.031335
0.016902
0.046762
0.057921
0.053526
0.037779
0.018286
0.006007
0.009054
0.028390
0.059771
0.097755
0.139436
0.185799
0.236596
0.283379
0.312057
0.315179
0.300298
0.284502
0.281542
0.295099
0.322210
0.359168
0.401537
0.439697
0.458839
0.447544
0.408618
0.361099
0.328134
0.319915
0.328193
0.337389
0.339444
0.336244
0.329590
0.314770
0.287294
0.253892
0.233794
0.245748
0.289779
0.341834
0.369852
0.356546
0.307567
0.241236
0.172589
0.105545
0.037789
-0.029770
-0.089739
-0.130094
-0.136927
-0.101658
-0.029200
0.064755
0.163968
0.255056
0.324349
0.359653
0.359198
0.337043
0.313931
0.299987
0.290386
0.278701
0.267661
0.264710
0.271782
0.280338
0.275024
0.244649
0.192005
0.134369
0.096369
0.098586
0.143307
0.208743
0.264306
0.294154
0.303092
0.305054
0.313055
0.334136
0.364577
0.391080
0.400394
0.387274
0.354760
0.310833
0.265301
0.228194
0.209874
0.219384
0.257790
0.313224
0.368672
0.417278
0.465624
0.521006
0.579996
0.629964
0.658909
0.664182
0.653999
0.641558
0.636432
0.639047
0.643385
0.647665
0.661410
0.695268
0.740603
0.767075
0.747000
0.675646
0.564517
0.427248
0.281377
0.157628
0.096073
0.124505
0.233907
0.372973
0.473513
0.491711
0.430532
0.328050
0.229810
0.165951
0.143044
0.154300
0.194145
0.256808
0.324889
0.370308
0.371074
0.327065
0.260122
0.197465
0.152269
0.121258
0.102539
0.110110
0.162119
0.253531
0.346497
0.393660
0.374947
0.314263
0.261306
0.258164
0.319654
0.432058
0.560910
0.665848
0.720088
0.724873
0.708966
0.710228
0.751350
0.829088
0.921330
1.000563
1.045336
1.049275
1.025531
0.999863
0.991787
0.997959
0.996752
0.973780
0.940927
0.925915
0.946288
0.997464
1.060027
1.112485
1.142929
1.155385
1.160927
1.159062
1.135293
1.080690
1.005398
0.930982
0.876600
0.847093
0.824870
0.782284
0.712344
0.641077
0.604869
0.617692
0.654669
0.663940
0.606931
0.496634
0.390527
0.343098
0.369416
0.445354
0.526957
0.575901
0.584436
0.574242
0.562021
0.533835
0.459828
0.325068
0.143437
-0.046995
-0.198407
-0.274431
-0.269425
-0.211585
-0.146928
-0.117093
-0.142188
-0.212135
-0.293942
-0.354730
-0.379360
-0.369339
-0.334377
-0.285134
-0.225160
-0.147833
-0.044377
0.086004
0.234877
0.389745
0.537755
0.666401
0.765117
0.832653
0.888019
0.970059
1.115096
1.328083
1.574945
1.803643
1.976262
2.088271
2.163199
2.231034
2.309640
2.399268
2.485622
2.545489
2.554368
2.496388
2.374039
2.211789
2.048080
1.918165
1.836645
1.788646
1.736481
1.640792
1.484019
1.280780
1.067688
0.881045
0.741568
0.653868
0.611026
0.599015
0.602443
0.605647
0.590823
0.549242
0.499338
0.481525
0.528306
0.642186
0.799179
0.967562
1.126069
1.269064
1.392302
1.474102
1.482682
1.410316
1.289936
1.166681
1.058134
0.954312
0.858598
0.815686
0.884195
1.081925
1.366826
1.668425
1.926929
2.108362
2.204843
2.230970
2.214830
2.189729
2.189649
2.238816
2.338059
2.465804
2.597770
2.724895
2.845906
2.941936
2.969502
2.886619
2.689229
2.431876
2.212864
2.117437
2.159599
2.280465
2.400488
2.470799
2.485942
2.460454
2.399766
2.297036
2.151296
1.977610
1.802356
1.656751
1.570201
1.559559
1.622890
1.745412
1.908190
2.090081
2.269093
2.425681
2.537444
2.570315
2.489953
2.289821
2.000283
1.667878
1.329224
0.994932
0.645365
0.246056
-0.221069
-0.740406
-1.280249
-1.822661
-2.367927
-2.916798
-3.465666
-4.018588
-4.584650
-5.159213
-5.725913
-6.283427
-6.855308
-7.469802
-8.142695
-8.877391
-9.664691
-10.481310
-11.300060
-12.103100
-12.883430
-13.640290
-14.375770
-15.087180
-15.756010
-16.343220
-16.794069
-17.055140
-17.103970
-16.962570
-16.666559
-16.229349
-15.652440
-14.947500
-14.125940
-13.188660
-12.145240
-11.030740
-9.892188
-8.759157
-7.627514
-6.471038
-5.268551
-4.023578
-2.767990
-1.553658
-0.434651
0.549806
1.378344
2.048733
2.588758
3.052073
3.493141
3.958693
4.500522
5.168182
5.977103
6.898894
7.889709
8.912492
9.922452
10.846670
11.598920
12.120090
12.399290
12.455800
12.309760
11.974690
11.468510
10.822390
10.082470
9.305467
8.547174
7.850962
7.245080
6.747676
6.376214
6.155020
6.101375
6.191009
6.355642
6.537576
6.729767
6.946672
7.187263
7.448564
7.743058
8.070347
8.377800
8.561899
8.513944
8.185472
7.632908
6.991029
6.384979
5.871779
5.455409
5.112317
4.790161
4.428284
4.011832
3.594610
3.264694
3.101640
3.153420
3.413423
3.803086
4.197551
4.487648
4.616116
4.562224
4.330584
3.979732
3.629321
3.398063
3.337088
3.430653
3.631301
3.871551
4.067287
4.143565
4.062573
3.828603
3.480827
3.086743
2.725596
2.457352
2.299912
2.229410
2.192190
2.124059
1.977361
1.733595
1.390745
0.954993
0.452990
-0.064447
-0.547139
-0.975154
-1.365408
-1.756000
-2.177351
-2.615587
-2.993405
-3.198839
-3.145236
-2.810020
-2.230203
-1.476005
-0.623395
0.269296
1.172550
2.076185
2.966872
3.813535
4.576682
5.232876
5.785663
6.253610
6.658150
7.022123
7.360276
7.660750
7.886041
7.995887
7.960516
7.753904
7.349006
6.729316
5.905363
4.916894
3.819476
2.672648
1.537171
0.470083
-0.487034
-1.311224
-1.982414
-2.468144
-2.734977
-2.777092
-2.626622
-2.333553
-1.939598
-1.471585
-0.950799
-0.398433
0.169899
0.751195
1.346542
1.924450
2.384265
2.587186
2.456714
2.036960
1.441095
0.776387
0.129383
-0.430760
-0.872741
-1.210860
-1.481561
-1.721491
-1.962196
-2.225316
-2.515557
-2.826535
-3.156493
-3.511888
-3.894649
-4.292213
-4.683876
-5.058592
-5.425428
-5.798816
-6.172682
-6.520567
-6.821673
-7.075029
-7.290063
-7.475129
-7.635779
-7.777673
-7.907836
-8.032360
-8.156212
-8.288790
-8.443400
-8.621947
-8.802063
-8.949060
-9.045617
-9.107068
-9.163401
-9.226438
-9.276035
-9.275300
-9.196660
-9.037228
-8.814409
-8.548721
-8.251587
-7.925602
-7.565966
-7.157790
-6.681531
-6.130686
-5.525751
-4.909481
-4.325964
-3.798390
-3.318487
-2.852315
-2.360911
-1.823865
-1.247678
-0.656996
-0.083349
0.440203
0.877879
1.185489
1.313717
1.232326
0.957307
0.546286
0.060241
-0.469163
-1.040520
-1.667544
-2.364703
-3.132079
-3.948521
-4.785348
-5.622169
-6.436092
-7.171795
-7.730957
-8.004612
-7.928951
-7.517900
-6.848220
-6.023856
-5.152863
-4.329197
-3.602287
-2.951179
-2.294790
-1.544547
-0.672286
0.244751
1.034053
1.508405
1.578866
1.303183
0.820384
0.256758
-0.295647
-0.756572
-1.067280
-1.223788
-1.279740
-1.307813
-1.357520
-1.450597
-1.612374
-1.893895
-2.348576
-2.988545
-3.780993
-4.690276
-5.706862
-6.833010
-8.058467
-9.358566
-10.707240
-12.082450
-13.458360
-14.798480
-16.059380
-17.195959
-18.161409
-18.908890
-19.398781
-19.606390
-19.528891
-19.191040
-18.639629
-17.922520
-17.069010
-16.090509
-14.997940
-13.813830
-12.567240
-11.282510
-9.978367
-8.676271
-7.405111
-6.196529
-5.073619
-4.036629
-3.054833
-2.075199
-1.045104
0.065980
1.258891
2.513536
3.804032
5.107881
6.407415
7.688357
8.938659
10.152170
11.336750
12.510980
13.678940
14.805090
15.823040
16.675369
17.347179
17.870979
18.311960
18.744419
19.226250
19.783701
20.408751
21.060659
21.675640
22.192101
22.576799
22.829861
22.968981
23.011169
22.963430
22.822710
22.582710
22.241409
21.802299
21.269739
20.644930
19.926371
19.110889
18.192711
17.166229
16.037670
14.835870
13.609040
12.410260
11.287060
10.279830
9.421251
8.734228
8.234933
7.940273
7.866750
8.015774
8.362288
8.864566
9.485990
10.204370
11.004950
11.873830
12.798160
13.764700
14.754480
15.742060
16.701229
17.610380
18.455099
19.229271
19.930420
20.548960
21.063459
21.446369
21.668680
21.702520
21.533670
21.178810
20.682730
20.087240
19.402969
18.618971
17.735790
16.774469
15.752320
14.664890
13.499540
12.258810
10.963140
9.634859
8.287123
6.926404
5.557443
4.183750
2.807479
1.428213
0.036105
-1.393248
-2.888215
-4.458457
-6.082297
-7.717021
-9.320496
-10.862770
-12.320070
-13.665890
-14.878460
-15.960990
-16.949680
-17.893620
-18.823170
-19.737930
-20.621290
-21.458780
-22.241249
-22.956619
-23.582821
-24.086370
-24.426649
-24.567200
-24.491520
-24.212490
-23.765699
-23.191299
-22.520109
-21.772490
-20.962130
-20.092791
-19.150410
-18.104650
-16.924919
-15.597330
-14.128030
-12.534410
-10.834230
-9.038437
-7.151012
-5.178288
-3.142077
-1.085217
0.937646
2.880648
4.727233
6.498406
8.237616
9.961424
11.590610
12.934750
13.797000
14.119190
13.994120
13.540700
12.822100
11.878220
10.772560
9.589312
8.401294
7.239768
6.090249
4.917338
3.697112
2.436425
1.167719
-0.075007
-1.272484
-2.410202
-3.458891
-4.376932
-5.137639
-5.751232
-6.258385
-6.706340
-7.132207
-7.559327
-7.996785
-8.438574
-8.867147
-9.260862
-9.599395
-9.866559
-10.053570
-10.160920
-10.196660
-10.172660
-10.097890
-9.966908
-9.752522
-9.416948
-8.937704
-8.324331
-7.609213
-6.824105
-5.987256
-5.108159
-4.197317
-3.274533
-2.380915
-1.589239
-0.990716
-0.650733
-0.569615
-0.692619
-0.956192
-1.317448
-1.750790
-2.237548
-2.763400
-3.318045
-3.893337
-4.481089
-5.071274
-5.652321
-6.216481
-6.766864
-7.315870
-7.873944
-8.442171
-9.017094
-9.599273
-10.194940
-10.812030
-11.456670
-12.131760
-12.837270
-13.571350
-14.329680
-15.105630
-15.897160
-16.715269
-17.580070
-18.502850
-19.471809
-20.458321
-21.438700
-22.407551
-23.363951
-24.281580
-25.096390
-25.731890
-26.146799
-26.363001
-26.443609
-26.447250
-26.409821
-26.354900
-26.296970
-26.237221
-26.172449
-26.108549
-26.059860
-26.038830
-26.051109
-26.098339
-26.180309
-26.294390
-26.435539
-26.594971
-26.755831
-26.893669
-26.986231
-27.023470
-27.008160
-26.949360
-26.856600
-26.738119
-26.603251
-26.466181
-26.344681
-26.248920
-26.169920
-26.083900
-25.970100
-25.820089
-25.632080
-25.404980
-25.138300
-24.831949
-24.484541
-24.091480
-23.644300
-23.134520
-22.559349
-21.921980
-21.227610
-20.481680
-19.690041
-18.856131
-17.977551
-17.047760
-16.062260
-15.022820
-13.936910
-12.815150
-11.669700
-10.511190
-9.343754
-8.164873
-6.972897
-5.774557
-4.584296
-3.417905
-2.286892
-1.194799
-0.135064
0.906287
1.941710
2.973010
3.988909
4.970005
5.898273
6.766537
7.580669
8.351947
9.086689
9.779180
10.406950
10.932410
11.318800
11.552250
11.648170
11.635590
11.538130
11.368570
11.132400
10.829790
10.456340
10.007370
9.483257
8.891186
8.245736
7.573736
6.919417
6.336858
5.867901
5.524335
5.291497
5.145860
5.065999
5.029751
5.007960
4.966837
4.879875
4.738714
4.552471
4.337423
4.107128
3.868766
3.624811
3.377327
3.132617
2.903638
2.707794
2.561037
2.473555
2.449812
2.488903
2.582932
2.718098
2.880751
3.063750
3.268533
3.501764
3.768557
4.067999
4.395717
4.750153
5.134331
5.550429
5.993784
6.454121
6.922611
7.395744
7.873149
8.356552
8.852473
9.369996
9.909916
10.455200
10.971570
11.415630
11.744620
11.926460
11.949740
11.829880
11.608700
11.348430
11.117570
10.965340
10.899210
10.890760
10.906660
10.931370
10.965050
11.013580
11.085430
11.190990
11.338890
11.531770
11.765440
12.031820
12.323840
12.638570
12.975280
13.331060
13.698910
14.066920
14.416810
14.726960
14.983280
15.189220
15.363670
15.528990
15.701230
15.888000
16.089920
16.303490
16.525709
16.757071
16.999540
17.253429
17.518370
17.796869
18.095301
18.420700
18.777031
19.163151
19.573950
20.003780
20.449160
20.910660
21.395550
21.918779
22.497780
23.142820
23.850740
24.606079
25.386009
26.164631
26.918119
27.631701
28.302610
28.933910
29.522860
30.054661
30.506310
30.857479
31.101749
31.249439
31.318750
31.325020
31.279310
31.193150
31.079840
30.952089
30.819469
30.685270
30.543760
30.382730
30.190630
29.960859
29.689911
29.373980
29.008110
28.587231
28.108311
27.572531
26.983891
26.343571
25.647600
24.893900
24.089500
23.244900
22.361441
21.432770
20.461821
19.468010
18.472210
17.480061
16.485189
15.484480
14.483600
13.488630
12.499980
11.517770
10.548530
9.603036
8.690197
7.814819
6.978310
6.178767
5.410465
4.664732
3.932564
3.207617
2.488835
1.782230
1.099489
0.452361
-0.153067
-0.717316
-1.243748
-1.733279
-2.180385
-2.573100
-2.898452
-3.149881
-3.329909
-3.445608
-3.502052
-3.501169
-3.447458
-3.353974
-3.242130
-3.136289
-3.057220
-3.014387
-2.998584
-2.984926
-2.949405
-2.881678
-2.780397
-2.643389
-2.468092
-2.256965
-2.017446
-1.758080
-1.485715
-1.203215
-0.908589
-0.599638
-0.282002
0.026979
0.300065
0.504091
0.608992
0.603986
0.507283
0.355795
0.186557
0.029217
-0.093962
-0.173574
-0.219486
-0.255719
-0.305424
-0.379405
-0.476968
-0.595092
-0.734213
-0.893405
-1.060645
-1.211002
-1.316533
-1.357832
-1.328385
-1.233591
-1.087130
-0.904023
-0.694292
-0.462180
-0.208979
0.065142
0.361675
0.685601
1.045655
1.451031
1.907805
2.420035
2.991308
3.615235
4.257735
4.856721
5.354853
5.736700
6.028343
6.265801
6.473242
6.661267
6.825715
6.945145
6.991659
6.953337
6.848411
6.718449
6.608448
6.550052
6.555447
6.619268
6.723213
6.840834
6.943685
7.010040
7.032635
7.018811
6.982171
6.933343
6.876476
6.811103
6.735974
6.651317
6.556403
6.443509
6.295309
6.090973
5.816108
5.467393
5.050765
4.578317
4.065124
3.524348
2.963517
2.386576
1.799525
1.212341
0.634727
0.070998
-0.480707
-1.025866
-1.570924
-2.121017
-2.677772
-3.239046
-3.801660
-4.364548
-4.929415
-5.498703
-6.072028
-6.643068
-7.200284
-7.732934
-8.238376
-8.724695
-9.206521
-9.696006
-10.193570
-10.685520
-11.152710
-11.583900
-11.981370
-12.355140
-12.713750
-13.058920
-13.384580
-13.679980
-13.935510
-14.146030
-14.308760
-14.420600
-14.480590
-14.495010
-14.478320
-14.449140
-14.426340
-14.426190
-14.457610
-14.519080
-14.603820
-14.709510
-14.841200
-15.005080
-15.202230
-15.426470
-15.663320
-15.891200
-16.089991
-16.252220
-16.385651
-16.506260
-16.630760
-16.772110
-16.935909
-17.120680
-17.324551
-17.551161
-17.805550
-18.082020
-18.355320
-18.582661
-18.719320
-18.744329
-18.674561
-18.546400
-18.385180
-18.200130
-18.000610
-17.802179
-17.617760
-17.449980
-17.291260
-17.127960
-16.945089
-16.730810
-16.481190
-16.203140
-15.912990
-15.631620
-15.378490
-15.166860
-15.002580
-14.885910
-14.811950
-14.769760
-14.744370
-14.721460
-14.690730
-14.647170
-14.592610
-14.536070
-14.491050
-14.470520
-14.480540
-14.513700
-14.546520
-14.547420
-14.493080
-14.380440
-14.222860
-14.036830
-13.834000
-13.621760
-13.404660
-13.183410
-12.954790
-12.714410
-12.459940
-12.192130
-11.914090
-11.630330
-11.345480
-11.062480
-10.782180
-10.504960
-10.231430
-9.961506
-9.693801
-9.426542
-9.159039
-8.893478
-8.636084
-8.394762
-8.172990
-7.965637
-7.761764
-7.550961
-7.326668
-7.086704
-6.833945
-6.575473
-6.318876
-6.068717
-5.825970
-5.591466
-5.372682
-5.187975
-5.060331
-5.002904
-5.009914
-5.059925
-5.123432
-5.167560
-5.161878
-5.087379
-4.941736
-4.736371
-4.489329
-4.219104
-3.941030
-3.666027
-3.400771
-3.148816
-2.913752
-2.703079
-2.527426
-2.393866
-2.300650
-2.239139
-2.199296
-2.172119
-2.148592
-2.119506
-2.077610
-2.018966
-1.942138
-1.848475
-1.744657
-1.643199
-1.557825
-1.495368
-1.446944
-1.383637
-1.266395
-1.070688
-0.803978
-0.494012
-0.161218
0.191895
0.569379
0.970640
1.390354
1.822379
2.261502
2.703565
3.146074
3.588957
4.033591
4.480621
4.929001
5.376866
5.823182
6.268997
6.717243
7.171596
7.636661
8.119487
8.628661
9.169609
9.740436
10.331630
10.926370
11.499170
12.016640
12.442640
12.746010
12.909870
12.939170
12.857660
12.695310
12.478220
12.227450
11.961090
11.693260
11.430150
11.167430
10.892830
10.593310
10.262850
9.906140
9.538022
9.183013
8.877787
8.670911
8.609503
8.713847
8.959779
9.288486
9.637055
9.961401
10.236470
10.446950
10.584290
10.647870
10.642430
10.572540
10.439580
10.243890
9.990485
9.695871
9.392777
9.128244
8.949923
8.883661
8.918469
9.013180
9.118489
9.195629
9.222891
9.193785
9.111719
8.983787
8.816271
8.613196
8.377036
8.110304
7.817640
7.507890
7.194283
6.891563
6.612863
6.369521
6.172039
6.028444
5.941251
5.907342
5.920525
5.972693
6.053087
6.148477
6.244535
6.326739
6.380589
6.392038
6.348949
6.243422
6.073684
5.844773
5.568026
5.258575
4.931054
4.596362
4.261868
3.935330
3.631619
3.376670
3.199379
3.113356
3.107828
3.159312
3.248297
3.363147
3.496929
3.646029
3.805788
3.963717
4.100786
4.200595
4.255604
4.266656
4.239834
4.182778
4.101466
4.000353
3.885177
3.762897
3.638196
3.513036
3.390855
3.278422
3.181294
3.097796
3.018123
2.929589
2.823173
2.695814
2.548059
2.381044
2.195742
1.994171
1.780792
1.562412
1.346197
1.137307
0.937939
0.748200
0.567701
0.396587
0.236157
0.090613
-0.030578
-0.113844
-0.148874
-0.137746
-0.097794
-0.055231
-0.032888
-0.037752
-0.055605
-0.058869
-0.023800
0.057391
0.178469
0.328024
0.494234
0.665865
0.835105
1.000164
1.162237
1.319419
1.465247
1.593317
1.702205
1.796447
1.883960
1.971503
2.060178
2.143615
2.209714
2.244095
2.233621
2.170130
2.054126
1.895494
1.708889
1.507274
1.299553
1.091935
0.887665
0.684082
0.471599
0.237490
-0.027947
-0.327810
-0.660497
-1.025487
-1.427354
-1.872990
-2.364489
-2.896332
-3.460169
-4.050380
-4.664137
