EVENT_NAME: EMILIA_2ND_SHOCK
EVENT_ID: IT-2012-0011
EVENT_DATE_YYYYMMDD: 20120529
EVENT_TIME_HHMMSS: 070002
EVENT_LATITUDE_DEGREE: 44.8417
EVENT_LONGITUDE_DEGREE: 11.0657
EVENT_DEPTH_KM: 8.1
HYPOCENTER_REFERENCE: INGV-CNT_Seismic_Bulletin
MAGNITUDE_W: 6.0
MAGNITUDE_W_REFERENCE: RCMT-INGV
MAGNITUDE_L: 5.8
MAGNITUDE_L_REFERENCE: INGV-CNT_Seismic_Bulletin
FOCAL_MECHANISM: TF
NETWORK: TV
STATION_CODE: MIR02
STATION_NAME: MIRANDOLA MRN
STATION_LATITUDE_DEGREE: 44.886948
STATION_LONGITUDE_DEGREE: 11.073198
STATION_ELEVATION_M: 
LOCATION: 
SENSOR_DEPTH_M: 
VS30_M/S: 
SITE_CLASSIFICATION_EC8: C*
MORPHOLOGIC_CLASSIFICATION: 
EPICENTRAL_DISTANCE_KM: 5.1
EARTHQUAKE_BACKAZIMUTH_DEGREE: 186.7
DATE_TIME_FIRST_SAMPLE_YYYYMMDD_HHMMSS: 20120529_065950.000
DATE_TIME_FIRST_SAMPLE_PRECISION: milliseconds
SAMPLING_INTERVAL_S: 0.005000
NDATA: 12601
DURATION_S: 63.005
STREAM: HNE
UNITS: cm/s^2
INSTRUMENT: sensor = Episensor FBA ES-T [Kinemetrics] | digitizer = Unknown [Unknown]
INSTRUMENT_ANALOG/DIGITAL: D
INSTRUMENTAL_FREQUENCY_HZ: 
INSTRUMENTAL_DAMPING: 
FULL_SCALE_G: 
N_BIT_DIGITAL_CONVERTER: 
PGA_CM/S^2: -212.989692
TIME_PGA_S: 18.955000
BASELINE_CORRECTION: BASELINE REMOVED
FILTER_TYPE: BUTTERWORTH
FILTER_ORDER: 2
LOW_CUT_FREQUENCY_HZ: 0.050
HIGH_CUT_FREQUENCY_HZ: 40.000
LATE/NORMAL_TRIGGERED: NT
DATABASE_VERSION: DYNA 1.0
HEADER_FORMAT: DYNA 1.2
DATA_TYPE: ACCELERATION
PROCESSING: manual (Paolucci et al., 2011)
DATA_TIMESTAMP_YYYYMMDD_HHMMSS: 20141028_094514.539
DATA_LICENSE: CC-BY4_0 (http://creativecommons.org/licenses/by/4.0/)
DATA_CITATION: ESM working group (2015), European Strong-Motion database, version 0.1, Network Activity 3: Networking acceleration networks and SM data users. Project NERA (www.nera-eu.org)
DATA_CREATOR: ESM working group
ORIGINAL_DATA_MEDIATOR_CITATION: Orfeus - European Integrated Data Archive (EIDA) http://www.orfeus-eu.org/eida/
ORIGINAL_DATA_MEDIATOR: Orfeus - European Integrated Data Archive (EIDA)
ORIGINAL_DATA_CREATOR_CITATION: 
ORIGINAL_DATA_CREATOR: network: TV (INGV Experiments Network); owner: Istituto Nazionale di Geofisica e Vulcanologia
USER1: /home/dyna/processing-itaca/processing.py /var/www/processing/tmp/Lucia//TV.MIR02..HNE.D.20120529.070003.X.ACC.ASC /var/www/processing/tmp/Lucia//TV.MIR02..HNN.D.20120529.070003.X.ACC.ASC /var/www/processing/tmp/Lucia//TV.MIR02..HNZ.D.20120529.070003.X.ACC.ASC --tmp /var/www/processing/tmp/Lucia/ --le 0.050 --he 40.000 --ln 0.050 --hn 40.000 --lz 0.050 --hz 40.000 --fo 2 --ca 50 --cz 180 --ta 5 --tz 5 --mf 1 --rf 0 --tr NT
USER2: 
USER3: 
USER4: 
USER5: 
[...]
-0.023506
-0.030547
-0.040874
-0.049178
-0.052118
-0.047706
-0.039119
-0.033386
-0.032123
-0.030269
-0.022796
-0.008959
0.004912
0.007915
-0.004058
-0.022615
-0.036658
-0.044011
-0.048986
-0.052228
-0.049778
-0.040131
-0.026638
-0.014115
-0.005342
-0.001240
-0.004455
-0.018083
-0.038199
-0.053717
-0.056694
-0.049529
-0.041859
-0.041290
-0.046278
-0.049114
-0.044767
-0.034013
-0.022098
-0.017299
-0.023875
-0.034200
-0.035554
-0.026356
-0.018269
-0.020112
-0.027325
-0.030912
-0.029771
-0.029182
-0.030897
-0.030445
-0.024785
-0.017744
-0.016135
-0.022388
-0.030406
-0.031667
-0.027069
-0.026002
-0.033198
-0.042252
-0.043287
-0.035448
-0.027010
-0.023154
-0.021304
-0.018832
-0.019267
-0.028112
-0.043810
-0.056518
-0.057403
-0.048298
-0.039415
-0.035799
-0.032924
-0.029081
-0.030143
-0.036672
-0.039227
-0.033018
-0.026580
-0.029515
-0.039315
-0.044695
-0.037480
-0.021227
-0.008992
-0.008733
-0.014397
-0.016416
-0.014859
-0.016989
-0.025065
-0.032336
-0.033255
-0.031605
-0.033578
-0.037555
-0.036840
-0.030661
-0.025123
-0.023640
-0.024044
-0.024271
-0.025016
-0.026479
-0.025391
-0.018932
-0.011649
-0.013175
-0.026795
-0.043561
-0.051387
-0.048838
-0.044358
-0.042459
-0.037916
-0.025122
-0.008106
0.002612
0.002130
-0.003766
-0.007058
-0.008594
-0.016193
-0.031677
-0.047797
-0.058440
-0.062982
-0.061775
-0.054575
-0.043476
-0.033604
-0.028110
-0.024733
-0.020182
-0.014747
-0.011603
-0.013294
-0.018363
-0.024148
-0.031966
-0.042488
-0.049791
-0.048105
-0.039887
-0.032508
-0.031146
-0.036088
-0.043135
-0.045720
-0.039164
-0.024050
-0.005474
0.009145
0.013923
0.010653
0.005755
-0.001148
-0.015020
-0.031555
-0.039161
-0.035805
-0.031893
-0.035198
-0.042094
-0.044803
-0.041265
-0.035842
-0.032508
-0.030437
-0.027195
-0.023948
-0.025118
-0.031973
-0.038413
-0.036834
-0.027251
-0.016530
-0.010436
-0.010436
-0.016077
-0.025532
-0.033830
-0.035590
-0.030866
-0.024230
-0.018051
-0.010766
-0.002034
0.003942
0.001753
-0.009914
-0.026258
-0.039437
-0.044761
-0.042833
-0.036313
-0.028071
-0.020765
-0.015607
-0.012990
-0.013273
-0.016412
-0.021868
-0.027372
-0.029869
-0.029588
-0.028982
-0.028317
-0.026895
-0.025563
-0.024431
-0.021875
-0.017430
-0.013048
-0.011473
-0.013673
-0.017336
-0.019341
-0.019473
-0.020221
-0.024152
-0.031092
-0.036183
-0.034178
-0.026816
-0.020553
-0.018180
-0.017776
-0.016712
-0.014016
-0.011478
-0.012616
-0.018949
-0.027131
-0.031801
-0.033277
-0.038977
-0.051947
-0.061267
-0.053061
-0.030232
-0.010254
-0.003387
-0.005333
-0.010773
-0.020159
-0.030362
-0.030349
-0.015538
-0.000754
-0.005203
-0.026278
-0.041554
-0.036601
-0.020321
-0.009460
-0.006404
-0.002145
0.004870
0.006557
-0.000842
-0.011409
-0.017977
-0.021164
-0.027577
-0.038252
-0.044331
-0.038769
-0.026375
-0.015884
-0.008196
-0.001252
0.000396
-0.008628
-0.023579
-0.032306
-0.029203
-0.021110
-0.016380
-0.014375
-0.010053
-0.004785
-0.007545
-0.023107
-0.042310
-0.049797
-0.040763
-0.024223
-0.011676
-0.009681
-0.017780
-0.026120
-0.021838
-0.002595
0.019665
0.029964
0.023295
0.005158
-0.016562
-0.035722
-0.046167
-0.042386
-0.026716
-0.011982
-0.009951
-0.018796
-0.027160
-0.028172
-0.023871
-0.018671
-0.014103
-0.009657
-0.007022
-0.010470
-0.020472
-0.030519
-0.033889
-0.031042
-0.027333
-0.025776
-0.024997
-0.022376
-0.017426
-0.012827
-0.010873
-0.008766
-0.001767
0.008483
0.014476
0.012592
0.006646
0.000473
-0.007594
-0.020342
-0.035405
-0.046280
-0.048806
-0.045356
-0.042039
-0.040444
-0.033358
-0.014040
0.012145
0.033324
0.043839
0.043496
0.031289
0.009511
-0.011142
-0.022729
-0.032047
-0.047066
-0.058803
-0.052354
-0.027814
0.000749
0.019645
0.023578
0.014376
-0.003346
-0.022723
-0.035698
-0.039280
-0.035825
-0.028399
-0.022087
-0.021457
-0.023142
-0.019609
-0.009657
0.000136
0.004001
0.002934
-0.000329
-0.005649
-0.011069
-0.012390
-0.010003
-0.009479
-0.013426
-0.017161
-0.014601
-0.005905
0.001713
0.000191
-0.010593
-0.022818
-0.031572
-0.037152
-0.036195
-0.023294
-0.002022
0.014901
0.018288
0.011786
0.005273
0.001954
-0.002677
-0.012129
-0.023214
-0.027712
-0.020120
-0.004913
0.006248
0.007245
0.005634
0.012571
0.025220
0.027757
0.011760
-0.012295
-0.027813
-0.031082
-0.030488
-0.029783
-0.023809
-0.011380
-0.000526
0.002895
0.003449
0.006506
0.006984
-0.002352
-0.018160
-0.031971
-0.038498
-0.031737
-0.007516
0.024009
0.042606
0.039925
0.027242
0.017949
0.011094
-0.001309
-0.017402
-0.026977
-0.027690
-0.027785
-0.031923
-0.034321
-0.027519
-0.012287
0.003366
0.014210
0.021805
0.025639
0.018900
-0.000150
-0.020332
-0.028638
-0.022849
-0.005757
0.024193
0.063872
0.096186
0.108063
0.112795
0.135920
0.179476
0.215335
0.219001
0.205689
0.225931
0.310679
0.424339
0.507176
0.546505
0.555420
0.564882
0.699519
1.030116
1.219644
0.698956
-0.513035
-1.488655
-1.205698
0.421293
2.334678
3.030593
1.743518
-0.670079
-2.300449
-2.027943
-0.447543
1.074507
1.416412
0.122373
-1.764325
-1.979859
0.075697
1.790695
0.614327
-2.354441
-3.883714
-2.526509
0.463933
3.061217
4.013155
3.041972
0.713567
-1.570205
-2.314286
-1.422330
-0.253671
0.304647
0.723997
1.436494
1.847074
1.171742
-0.548812
-2.337145
-2.744322
-0.958710
1.970479
3.752876
3.355670
2.003498
0.982589
-0.206164
-1.981944
-2.410094
0.244312
3.372011
2.448864
-2.223983
-5.508128
-4.456092
-1.181608
1.277864
2.179624
2.086517
1.362889
0.219866
-0.794301
-1.101102
-0.860494
-0.683753
-0.506065
0.415757
2.226599
3.685040
3.055683
0.115417
-3.039377
-3.902100
-2.102951
0.605468
2.619617
3.859707
4.756317
4.820819
3.329027
1.148414
0.244378
0.782691
0.406856
-2.101599
-4.038903
-2.358020
1.094262
1.499617
-2.169695
-5.699065
-5.035028
-1.005869
1.788219
0.638631
-1.703935
-1.226373
1.199620
1.829424
0.292457
-0.667529
0.349234
2.624871
4.601709
4.300685
1.059387
-3.070956
-5.814386
-7.274621
-8.053795
-6.791371
-2.254264
3.405886
6.249616
5.177504
2.872001
2.240450
3.671943
5.434803
5.542246
4.011884
3.069391
3.322619
1.604412
-4.200395
-10.096655
-9.316382
-0.845678
7.732681
8.359695
2.153148
-3.075654
-3.583826
-2.787709
-4.199002
-5.881470
-3.337740
3.493313
8.609893
7.272102
2.348831
-0.306691
-0.082318
-1.048553
-5.389059
-10.569366
-11.816221
-6.899500
0.347461
3.394451
1.442384
0.546237
4.602029
10.176774
12.261583
9.998570
4.853843
-1.506477
-5.872587
-5.306932
-1.443422
1.169412
0.791525
-0.285947
0.783716
3.897147
5.506424
2.920124
-1.280355
-2.686562
-1.832348
-2.174172
-2.633516
0.863980
6.871460
8.839749
4.294768
-2.230208
-4.646315
-0.725712
5.293308
6.067849
0.456869
-4.648419
-4.667258
-3.047361
-3.904794
-5.600140
-4.921505
-2.215732
0.992343
5.185068
10.612124
14.335177
11.465403
-0.332305
-16.101217
-24.138552
-16.086351
2.741267
17.916313
20.119106
10.561746
-3.468583
-13.112050
-12.888611
-5.452166
1.717002
4.398669
3.633032
1.832972
0.070090
-0.592188
2.628448
10.350672
16.250191
13.015668
2.597449
-6.517121
-10.178939
-10.139771
-7.871226
-2.981398
3.533734
8.526737
9.544269
6.786361
2.325509
-1.543647
-3.744907
-4.749433
-4.731197
-2.335936
2.822854
7.198789
5.483417
-2.755590
-10.642341
-11.286616
-5.301380
2.028415
7.186237
9.265599
8.491598
5.781481
2.080392
-1.636685
-4.542513
-7.667361
-12.722493
-17.637589
-16.846584
-7.431805
7.269838
19.728851
22.534876
14.104235
2.812383
0.283271
7.342831
13.653247
13.193221
10.089305
7.810582
4.087524
-1.664373
-5.986574
-7.586625
-7.786174
-5.890326
-1.227548
3.738133
7.976805
13.616277
19.773109
22.754793
23.360989
24.734762
23.843746
13.950463
-5.943272
-28.545992
-40.962036
-31.775620
-5.139861
16.568560
15.437908
-2.061798
-16.809284
-20.749765
-19.177189
-16.085222
-8.623027
4.827439
18.477011
22.635071
12.352970
-5.553953
-15.088013
-6.859854
8.419949
11.289902
-0.842303
-12.065827
-12.701872
-8.233367
-1.161885
14.098535
31.611843
31.793728
8.378175
-20.145752
-31.739214
-21.313028
-0.443677
15.193454
19.319603
18.505550
22.483438
32.353348
38.151123
28.952700
6.137624
-15.590522
-20.197828
-3.859093
19.879532
30.469816
18.694906
-7.225444
-29.391603
-30.233053
-4.867141
30.538261
50.215240
40.423058
7.042975
-30.692579
-49.763264
-38.216419
-8.407299
10.880330
2.632697
-18.769899
-23.251003
-1.698234
24.681780
33.856510
25.579308
11.190755
-2.094994
-10.701089
-10.547319
-0.586557
14.129422
25.899019
29.490129
26.024412
23.121450
27.231216
33.704338
28.299294
5.437304
-17.241871
-16.714973
3.810645
20.883799
25.656466
27.980007
29.749636
21.261108
3.001714
-11.820897
-17.733391
-22.902723
-32.560883
-38.772575
-29.126701
-1.238181
30.231560
44.243084
34.970802
15.265664
-0.324338
-5.064838
-0.584964
2.279387
-4.108518
-7.391195
11.317614
44.989410
60.888199
40.305584
3.661657
-15.889542
-13.409512
-8.200786
-8.041670
-4.303144
6.458309
21.967838
39.087208
43.397179
19.270645
-22.072094
-48.188759
-40.102154
-5.769165
33.728825
55.966751
44.143852
1.458240
-42.097492
-52.207905
-22.699200
21.869564
50.735779
45.956036
9.158203
-37.256222
-61.246395
-42.593109
14.083236
82.094147
124.746719
115.430527
58.902348
-7.703749
-42.602203
-31.890667
4.937559
36.889011
44.558945
28.902086
4.935415
-13.688449
-22.360773
-19.027079
-0.052590
31.216539
56.373768
53.385498
21.105194
-14.535471
-24.129892
-3.052395
26.123175
38.961044
30.597519
10.920894
-9.793992
-23.837421
-23.269224
-5.264308
19.752031
34.093948
28.756754
7.872952
-18.499369
-37.116688
-33.139263
-2.989776
32.727306
42.796581
21.201078
-3.390064
-4.617754
11.885705
27.196228
36.645569
42.932644
40.776413
26.183065
6.822536
-8.052926
-15.363175
-13.583421
-3.095579
9.638774
14.852331
4.891882
-18.482967
-37.985748
-34.956982
-13.871079
4.223553
11.550944
14.920495
11.312541
-11.657833
-51.036526
-85.199982
-95.993813
-83.360085
-60.338417
-38.437557
-20.045889
-9.188158
-20.130619
-58.587784
-101.356674
-113.370972
-84.127594
-36.505856
0.663539
21.932430
43.425343
75.773056
107.454712
115.535080
86.920647
33.847980
-7.831770
-9.039324
22.597206
57.318966
77.588570
81.396523
68.438393
42.124523
13.719606
-6.987857
-16.567732
-11.891389
6.791815
25.170950
22.943230
-3.778081
-37.831814
-58.186943
-56.540195
-39.400387
-16.726442
8.341292
34.828293
54.400471
55.780426
38.945717
19.230671
15.360157
35.656818
74.766403
117.398468
144.252762
141.727325
110.095963
61.703800
14.576523
-11.711352
-6.162237
19.444857
36.554680
27.430872
-0.857357
-31.601728
-55.780861
-69.394409
-65.496605
-40.740421
-4.762808
26.425632
43.034397
43.921581
35.131516
28.917374
32.834064
38.765251
34.840919
25.683170
27.953321
46.762814
67.367699
73.764786
65.660934
49.426949
25.378845
-3.837814
-25.497534
-27.795158
-9.639570
20.031488
43.955250
45.010895
22.615269
-4.796727
-17.869173
-11.979005
4.306250
19.107374
25.627768
26.316961
29.290514
39.033962
51.630486
59.191277
58.797394
57.258961
63.871738
76.474831
79.702843
62.125286
30.460649
0.440731
-19.555363
-27.890215
-21.618093
0.899323
32.999294
60.974712
72.223381
61.279823
30.682989
-9.272996
-43.911030
-64.445854
-74.497543
-82.951370
-93.235672
-102.502029
-108.799828
-115.170631
-125.741508
-139.808228
-151.193665
-152.977539
-142.895401
-125.576317
-109.683891
-100.416595
-94.752724
-86.643440
-74.696892
-60.910030
-44.800030
-23.753065
1.703886
26.839916
47.901363
65.412514
79.109177
81.844849
64.858810
30.284241
-6.925351
-31.671824
-39.780785
-35.687035
-22.940315
-1.644268
22.683674
35.185291
25.926416
3.868017
-11.253521
-9.243755
2.131130
9.095012
8.247988
5.685686
4.243113
1.368585
-2.983595
-4.892758
-1.974024
4.095281
10.121286
13.774766
12.817095
4.776339
-9.796573
-24.189409
-27.895645
-14.119424
13.854104
42.660736
55.857777
44.370068
11.711128
-29.715206
-64.185471
-78.750313
-72.363564
-56.590267
-41.204304
-25.433661
-10.018317
-5.326813
-14.632323
-21.874130
-10.848771
12.580395
27.433973
17.852230
-19.817095
-79.363686
-144.343475
-190.556549
-201.183304
-183.688705
-163.682861
-157.927628
-162.397522
-167.982697
-172.216629
-172.163177
-163.014374
-148.741058
-140.327362
-139.897873
-136.594208
-119.890717
-89.715019
-53.989624
-23.735596
-10.201290
-19.186172
-45.173199
-74.729965
-98.334251
-115.444786
-127.394722
-132.834686
-132.226059
-131.048584
-135.795837
-145.335831
-146.753082
-125.695793
-82.803497
-35.291618
0.188321
22.734606
41.926083
64.186974
91.318733
123.509125
154.713638
170.363312
154.147171
96.864838
4.001284
-100.115005
-180.325195
-212.989685
-204.007736
-179.887421
-160.626465
-147.363159
-134.163940
-121.196968
-113.112686
-110.766823
-109.710129
-105.856956
-99.157555
-91.600945
-84.696503
-79.293983
-76.223091
-77.051086
-82.245468
-87.456512
-86.722031
-80.211670
-72.582359
-65.250664
-57.196247
-51.207592
-52.655170
-62.611607
-77.028938
-91.403206
-101.472305
-102.634415
-94.728004
-84.738220
-80.068459
-80.608315
-80.148720
-74.953941
-68.662903
-66.963913
-69.634514
-73.704597
-82.861771
-103.136673
-128.112595
-140.559723
-131.869751
-109.901802
-87.555641
-72.231369
-63.790806
-56.140224
-41.550961
-15.152424
22.360210
63.485073
97.480751
117.179962
121.460152
114.066544
104.462685
106.711525
128.796692
161.643509
187.283096
199.379898
205.715057
209.759415
202.229675
176.543091
145.265839
131.176178
142.222672
165.740326
186.911575
199.855820
200.818695
183.528061
145.989227
96.269081
46.341694
3.982160
-23.857750
-27.599976
-5.430661
26.903484
46.620083
46.060032
37.942989
36.428230
42.345642
51.654003
65.895927
85.064148
100.208122
102.077034
91.432007
76.558281
63.026730
49.137100
34.403069
26.146837
26.897818
22.248642
-4.558070
-51.412304
-101.641022
-142.701172
-171.518295
-186.914886
-186.313568
-171.342346
-150.553146
-132.321686
-118.303650
-104.985771
-87.589928
-62.938477
-32.504074
-4.529732
8.299201
-1.296243
-25.994188
-49.740017
-62.883595
-66.851372
-66.362366
-62.226627
-52.738758
-41.763493
-40.388447
-53.806469
-70.775742
-73.541420
-55.047810
-21.802687
15.883949
50.192535
74.142914
82.711899
78.731773
69.310631
53.744209
24.487368
-18.007065
-59.965714
-86.469650
-95.674141
-98.833511
-107.037621
-120.644241
-130.342606
-124.622345
-98.364845
-57.961708
-16.204256
19.457298
50.979946
82.432678
113.090935
138.199371
154.053253
162.604752
170.601318
182.231186
194.016998
199.465973
197.883224
195.472153
196.835693
199.141220
196.952591
188.477112
174.966599
159.050537
144.602448
132.930573
119.858650
102.734970
89.211899
91.055580
107.806618
124.566368
128.672913
121.026474
109.919495
102.694321
103.667442
111.225418
116.269524
109.780823
92.846321
75.875885
67.596329
68.120232
73.556633
82.241089
92.879639
100.433342
97.823860
81.764977
57.462688
36.988819
30.497419
38.320316
51.409386
59.486477
59.540337
55.895035
53.094528
51.888035
52.339157
57.742950
72.484421
96.088409
121.741127
140.873291
148.150513
144.177200
135.748505
130.917709
130.975037
129.899628
123.244308
112.562958
99.091141
79.810143
53.578049
25.652845
2.346772
-15.068828
-28.409678
-38.071423
-43.942986
-47.777603
-50.744099
-51.429459
-49.187222
-45.855927
-41.797592
-34.297840
-22.648821
-11.255822
-4.735014
-2.759616
-2.111741
-1.039051
0.803451
4.445275
10.494625
16.462358
17.971575
13.075423
3.490895
-8.005895
-18.865030
-26.202127
-28.284508
-26.831936
-25.719946
-27.019449
-29.448715
-31.206213
-33.017338
-36.760330
-41.814388
-44.758392
-42.883186
-36.315006
-26.495996
-14.871192
-3.021121
8.287560
19.769154
31.870337
43.054222
51.003986
54.951679
55.211510
51.528210
44.025967
34.415611
25.292971
19.827049
21.220541
29.368057
37.846981
37.635281
26.245951
11.358010
3.257565
5.246251
12.721827
19.028601
20.320530
17.053226
13.081979
12.601448
17.197304
25.813789
35.336594
39.720524
32.385700
13.045798
-10.128051
-27.221510
-33.413982
-29.483562
-19.528027
-8.125846
3.526783
17.597033
34.339130
50.250095
62.469532
71.684540
80.154861
88.553230
94.947212
96.746269
93.052742
84.074013
69.179314
47.271030
19.063339
-11.880375
-41.056591
-66.116501
-87.868446
-108.447021
-128.472183
-145.568512
-155.753922
-156.531616
-148.676712
-135.365387
-120.432373
-107.480331
-98.609764
-92.523476
-85.128716
-73.305496
-58.004242
-43.752136
-35.420174
-34.291801
-34.360519
-22.504871
12.086485
65.648720
120.520164
159.683380
177.899307
178.570007
164.126740
132.545074
82.251892
18.417894
-46.154537
-96.156509
-121.164001
-121.733040
-110.148674
-102.610016
-107.832092
-122.354248
-135.706314
-139.501221
-132.993408
-121.601578
-111.150139
-103.949028
-99.024895
-93.806839
-85.474075
-72.566902
-56.294804
-39.965782
-26.494677
-16.249105
-7.523775
1.802322
14.068753
31.710587
55.223183
81.506386
105.443497
123.303162
134.074570
137.159882
129.305817
105.453629
64.308922
13.130763
-34.677483
-68.308266
-86.195999
-94.162971
-98.265625
-100.625092
-100.829971
-97.908783
-89.520309
-71.503548
-40.899349
0.243109
44.895283
84.612045
112.258736
122.443161
112.322662
83.683899
43.570835
1.777669
-33.052315
-56.245216
-67.790344
-70.875801
-69.423294
-66.735046
-65.280197
-66.004112
-68.226746
-71.239326
-74.528915
-75.701950
-70.955101
-59.099834
-43.101685
-27.327932
-15.645526
-11.434740
-15.258597
-21.164307
-18.081812
2.063599
36.208488
71.254349
95.549171
107.958946
113.970535
116.699379
114.267357
102.721443
80.132347
50.215446
22.141514
4.720908
0.472451
5.996152
16.094784
26.033001
33.271252
39.818188
49.825893
61.502556
63.518047
44.414875
6.686540
-32.644127
-57.394276
-64.422981
-60.210415
-52.062775
-44.922710
-41.065678
-39.790520
-39.440197
-40.669621
-45.923454
-54.664291
-61.757595
-63.012424
-60.048233
-57.708481
-58.742729
-61.680546
-61.990776
-55.656113
-42.977337
-28.359467
-16.310337
-8.447498
-3.416191
1.899850
10.359179
22.164644
34.849819
45.788918
52.891262
