EVENT_NAME: EMILIA_2ND_SHOCK
EVENT_ID: IT-2012-0011
EVENT_DATE_YYYYMMDD: 20120529
EVENT_TIME_HHMMSS: 070002
EVENT_LATITUDE_DEGREE: 44.8417
EVENT_LONGITUDE_DEGREE: 11.0657
EVENT_DEPTH_KM: 8.1
HYPOCENTER_REFERENCE: INGV-CNT_Seismic_Bulletin
MAGNITUDE_W: 6.0
MAGNITUDE_W_REFERENCE: RCMT-INGV
MAGNITUDE_L: 5.8
MAGNITUDE_L_REFERENCE: INGV-CNT_Seismic_Bulletin
FOCAL_MECHANISM: TF
NETWORK: TV
STATION_CODE: MIR03
STATION_NAME: QUARANTOLI 1
STATION_LATITUDE_DEGREE: 44.938400
STATION_LONGITUDE_DEGREE: 11.104500
STATION_ELEVATION_M: 
LOCATION: 
SENSOR_DEPTH_M: 
VS30_M/S: 
SITE_CLASSIFICATION_EC8: C*
MORPHOLOGIC_CLASSIFICATION: 
EPICENTRAL_DISTANCE_KM: 11.2
EARTHQUAKE_BACKAZIMUTH_DEGREE: 195.9
DATE_TIME_FIRST_SAMPLE_YYYYMMDD_HHMMSS: 20120529_065927.000
DATE_TIME_FIRST_SAMPLE_PRECISION: milliseconds
SAMPLING_INTERVAL_S: 0.005000
NDATA: 18001
DURATION_S: 90.005
STREAM: HNN
UNITS: cm/s^2
INSTRUMENT: sensor = Episensor FBA ES-T [Kinemetrics] | digitizer = Unknown [Unknown]
INSTRUMENT_ANALOG/DIGITAL: D
INSTRUMENTAL_FREQUENCY_HZ: 
INSTRUMENTAL_DAMPING: 
FULL_SCALE_G: 
N_BIT_DIGITAL_CONVERTER: 
PGA_CM/S^2: 320.997739
TIME_PGA_S: 45.765000
BASELINE_CORRECTION: BASELINE REMOVED
FILTER_TYPE: BUTTERWORTH
FILTER_ORDER: 2
LOW_CUT_FREQUENCY_HZ: 0.070
HIGH_CUT_FREQUENCY_HZ: 40.000
LATE/NORMAL_TRIGGERED: NT
DATABASE_VERSION: DYNA 1.0
HEADER_FORMAT: DYNA 1.2
DATA_TYPE: ACCELERATION
PROCESSING: manual (Paolucci et al., 2011)
DATA_TIMESTAMP_YYYYMMDD_HHMMSS: 
DATA_LICENSE: CC-BY4_0 (http://creativecommons.org/licenses/by/4.0/)
DATA_CITATION: ESM working group (2015), European Strong-Motion database, version 0.1, Network Activity 3: Networking acceleration networks and SM data users. Project NERA (www.nera-eu.org)
DATA_CREATOR: ESM working group
ORIGINAL_DATA_MEDIATOR_CITATION: Orfeus - European Integrated Data Archive (EIDA) http://www.orfeus-eu.org/eida/
ORIGINAL_DATA_MEDIATOR: Orfeus - European Integrated Data Archive (EIDA)
ORIGINAL_DATA_CREATOR_CITATION: 
ORIGINAL_DATA_CREATOR: network: TV (INGV Experiments Network); owner: Istituto Nazionale di Geofisica e Vulcanologia
USER1: 
USER2: 
USER3: 
USER4: 
USER5: 
[...]
-4.257084
-2.144107
0.569880
4.001777
7.169312
8.448697
6.826640
2.483848
-3.500810
-9.545523
-13.893137
-15.328469
-13.841685
-10.317244
-5.569350
0.133225
6.646255
13.240361
18.430082
20.480551
18.103661
11.096606
0.829318
-9.867069
-17.667614
-20.176138
-17.061035
-10.131735
-2.179977
4.428842
8.324455
9.000062
6.656587
2.093714
-3.486589
-8.536758
-11.093672
-9.293039
-2.773708
6.280004
14.097209
17.886253
17.453918
14.232250
9.140376
1.816368
-8.053048
-18.739899
-26.029146
-25.481800
-16.097263
-1.974985
10.270210
16.091597
15.163747
10.106569
4.259346
0.159397
-1.253561
-0.594223
0.796751
1.664537
1.005477
-2.171252
-8.569375
-17.176840
-23.844093
-22.344679
-8.434980
15.933054
42.173676
59.806084
62.226074
47.930283
19.282246
-16.392784
-47.922421
-67.403168
-74.160950
-70.234276
-55.819603
-29.658352
7.899848
50.666191
85.926537
100.504997
87.908005
51.819721
4.827848
-38.349876
-67.443230
-77.862900
-70.120308
-48.758106
-20.045023
8.674969
30.057478
40.006256
37.918606
25.559925
8.555102
-5.213932
-10.996996
-8.913811
-2.459250
2.660150
1.627999
-5.170430
-12.580012
-16.163084
-15.708456
-13.043258
-8.563109
-1.265589
8.696497
18.422920
23.466852
20.820889
10.765825
-3.639526
-17.888676
-27.022839
-26.738520
-14.983391
6.658262
32.687973
54.747772
64.265556
56.528099
33.787090
4.436166
-21.643707
-38.159512
-44.118420
-41.679474
-33.328644
-21.129528
-7.680254
3.548190
9.785140
10.553830
7.296840
2.266706
-1.977303
-3.128912
-0.125333
6.007316
12.111069
14.092338
9.329041
-0.841399
-11.044187
-15.367822
-11.641855
-2.432070
7.887685
16.447508
22.114958
23.832714
20.499569
12.285121
0.769421
-12.089667
-24.149277
-32.650913
-35.018345
-30.395857
-19.808147
-5.287768
10.066910
21.576387
24.236502
16.072077
0.896634
-13.176185
-19.454819
-17.201111
-10.546668
-3.934599
0.881916
4.196627
6.172187
6.592169
6.811835
10.399379
20.273458
34.965252
48.328526
53.254696
45.746716
26.136461
-2.224582
-34.397659
-64.202911
-84.419418
-88.262756
-72.573112
-40.838634
-2.343830
32.810184
57.552853
67.636055
61.040874
39.247421
7.512048
-26.544062
-53.723537
-64.690247
-54.598904
-27.439938
5.908851
34.770981
53.575191
61.330639
59.192013
49.263458
33.922695
15.045694
-5.582281
-24.952520
-38.967163
-44.634838
-42.296116
-35.433086
-27.632053
-19.744234
-10.502966
0.587472
11.633046
19.322573
21.460239
18.997639
15.456870
13.751679
13.375244
11.141383
5.092329
-2.478371
-6.230147
-2.386633
7.380745
16.624361
19.036331
13.116994
2.451600
-8.245360
-17.225466
-25.925617
-35.351620
-42.839024
-43.311218
-33.999046
-17.272705
1.084948
15.369320
21.959583
19.926228
11.416824
1.084818
-6.282941
-7.917849
-3.010624
7.856160
22.020498
34.554657
40.222961
36.194359
23.645105
7.532878
-5.857762
-12.645684
-13.300906
-10.912130
-7.665965
-2.995007
4.731078
14.404327
20.913357
18.941092
7.652978
-8.799562
-24.305025
-34.182938
-37.187504
-35.345486
-32.018318
-29.129810
-25.006039
-15.854155
-0.763372
15.745500
27.279890
31.243668
30.400093
28.864634
27.324026
23.070278
14.467742
4.315437
-1.938565
-1.545385
2.173072
2.377682
-5.230824
-19.160603
-34.059799
-44.728424
-48.725967
-46.228806
-37.903179
-23.225124
-1.300760
25.882917
50.622574
61.658566
52.340805
27.782986
2.026834
-13.365670
-16.882545
-13.230052
-5.613088
5.470399
18.773733
31.467220
40.238075
41.061638
30.495247
9.940272
-12.490977
-26.378860
-26.388338
-15.857097
-3.435835
3.289536
1.879975
-4.670438
-10.931709
-13.552928
-13.901864
-16.207798
-22.748871
-31.529320
-38.646542
-41.458199
-39.818977
-35.741692
-31.014244
-24.208883
-11.640823
7.350141
27.031134
38.689453
37.664337
26.523460
11.965766
-0.041950
-6.593011
-7.495469
-4.185653
0.752332
4.297736
5.242002
6.230028
12.248035
25.583157
42.055168
53.431847
54.092346
44.439636
28.563728
11.022364
-4.323760
-14.895278
-19.755795
-19.086117
-13.760852
-5.859864
1.087073
3.606341
0.546834
-6.217653
-13.079070
-17.239788
-19.316549
-23.028963
-30.925571
-40.708916
-46.744545
-44.989372
-36.011108
-23.674761
-11.629797
-0.980693
9.409641
20.635731
31.235704
36.783577
33.149891
21.518223
9.780070
7.252871
16.929264
32.756344
44.319126
44.438133
34.139664
21.889009
16.498041
18.873940
21.599504
17.157072
5.335689
-7.126540
-13.215063
-12.392551
-10.421859
-12.628760
-19.509899
-27.919462
-33.009975
-30.585356
-20.855671
-8.555932
1.706169
8.739570
14.101360
19.715294
25.508583
29.119423
28.863703
26.637568
26.791824
31.625143
37.816463
38.051506
26.874325
4.423378
-24.718376
-53.827824
-75.532295
-84.529503
-80.734489
-68.918762
-54.613262
-40.276154
-24.897995
-6.801729
13.481020
32.574135
45.053459
44.696182
27.077360
-5.578484
-40.789276
-60.994450
-56.484306
-32.708248
-4.318883
16.883556
29.085857
37.836563
48.425514
61.762611
75.154205
84.462936
86.400673
80.279167
68.112198
53.188377
38.279087
24.962851
13.483101
2.098341
-11.522288
-26.540085
-38.779598
-45.902401
-50.525742
-56.461349
-63.329292
-66.049850
-58.395058
-37.117756
-5.339476
27.375168
50.177906
56.652699
45.922489
21.255096
-10.455012
-39.812077
-58.569256
-63.530323
-56.643520
-41.349277
-20.224522
3.523383
24.903065
39.746998
47.297665
48.552605
43.064957
29.210037
8.089887
-14.180255
-30.211029
-37.267017
-37.934719
-35.489719
-29.802855
-17.449741
4.054397
31.190533
54.002411
62.460903
54.534302
38.173923
24.794809
19.666155
18.188362
12.211748
-0.248857
-12.467279
-15.659108
-7.579023
5.166838
13.069427
11.851105
5.179763
0.642242
3.154332
10.596758
15.342807
11.341150
0.170329
-9.716327
-9.160671
4.926478
26.495026
43.659492
46.953568
36.398991
20.686277
8.437979
0.363104
-9.096379
-22.847433
-35.604107
-37.589401
-22.633463
6.762456
39.904945
63.125599
67.449249
53.818966
31.143793
8.356303
-11.974514
-32.236351
-53.240387
-70.701241
-78.059418
-71.493340
-52.046947
-24.515478
4.505617
28.922379
45.614864
54.488182
55.744274
48.489285
32.249851
8.310293
-20.082270
-47.530052
-67.534454
-75.003853
-68.319672
-50.261501
-26.694050
-2.751126
19.701538
40.568970
58.147301
67.550011
62.943996
42.473152
12.014299
-16.365166
-32.116627
-33.893303
-28.176151
-19.908781
-7.351590
12.818157
38.554321
62.357124
76.730499
79.926384
77.495880
76.839378
78.611053
74.382423
54.445770
18.290339
-23.246885
-56.421810
-74.505638
-79.598007
-77.354767
-72.230209
-66.474586
-60.910912
-55.426254
-49.363819
-43.563171
-42.408905
-50.832958
-68.109161
-86.912804
-99.040611
-101.004303
-94.749016
-84.124603
-71.113625
-55.507023
-37.520416
-19.938206
-7.437025
-3.415954
-6.867493
-12.152618
-12.342847
-3.648908
12.563342
31.551764
49.026672
63.387066
74.098717
78.762878
73.831642
59.189026
40.895100
28.048986
26.965155
38.545635
59.529877
83.898613
103.527771
110.682533
102.342720
82.156639
56.993912
31.048567
3.967864
-24.908047
-52.095551
-72.061829
-83.324608
-89.633904
-94.649437
-97.834427
-96.442810
-90.068710
-81.919037
-75.542183
-71.186150
-65.894974
-56.662136
-43.379681
-29.566851
-20.475334
-19.316683
-23.988176
-27.559053
-22.938883
-7.569274
15.518330
39.676067
58.025677
66.931068
66.726158
58.845222
43.579773
21.745634
-2.589008
-22.414318
-30.924219
-24.652576
-4.830078
22.891573
49.922497
67.864166
72.637474
66.407738
54.951805
42.791092
31.148504
20.535770
13.901940
15.508579
26.427259
41.827358
53.057613
52.978874
40.615013
21.686682
4.458770
-5.976607
-10.098357
-11.179007
-11.164657
-9.672551
-5.820655
-0.190240
4.848471
6.909678
5.810440
3.637813
2.746318
4.265024
8.238838
14.083531
20.375620
24.483559
22.989676
13.915113
-0.241199
-13.003723
-19.039959
-17.633402
-10.762703
-0.448206
11.171450
21.867355
30.835844
38.609638
44.522213
45.509239
38.761456
25.649426
12.516603
7.213940
14.182551
31.233210
49.354450
56.138969
42.374729
7.894297
-38.601303
-85.573242
-124.376091
-150.951553
-165.483032
-171.120834
-170.577133
-163.270920
-146.999664
-121.891747
-91.646408
-61.545071
-35.918907
-16.531044
-2.510208
7.351974
11.781671
7.108915
-9.690891
-37.427715
-69.038986
-94.540924
-107.882645
-110.902351
-108.928612
-102.473839
-85.334663
-52.373871
-8.003389
35.075493
65.122330
77.607834
73.327766
54.034073
22.085873
-17.235764
-55.959824
-86.624962
-105.041138
-111.098526
-107.553871
-97.591270
-83.910378
-70.124748
-61.490883
-62.877445
-75.242905
-93.992218
-111.505997
-121.321732
-119.104004
-100.719383
-63.386383
-10.921673
45.480858
94.388748
129.404373
147.774536
149.920517
140.736862
125.866753
106.326965
79.423203
44.175949
4.501879
-32.970345
-63.362827
-84.555527
-95.340332
-95.522331
-86.822006
-71.256287
-49.646065
-23.257494
4.440918
29.075323
47.816257
60.435944
69.218559
78.292191
91.662560
110.247246
131.191086
151.216873
169.754562
187.634995
203.468063
212.541595
210.248001
196.766174
177.438568
158.767807
145.153961
138.719299
140.571030
151.269882
168.995468
186.078140
187.214355
155.166550
87.127892
6.445675
-54.529915
-85.759743
-100.577545
-109.471207
-109.055779
-91.692673
-55.530407
-10.002667
27.746386
45.984028
45.516472
34.864517
23.149078
16.292450
16.253469
22.202908
30.953512
36.189224
30.761374
12.504350
-13.349076
-38.289135
-56.171188
-65.875969
-70.591408
-74.753365
-80.825279
-88.520035
-96.423637
-103.571854
-109.849037
-115.785545
-121.641754
-125.994225
-125.928764
-119.492447
-107.150177
-89.547325
-64.317986
-27.640467
18.991693
65.198067
97.963837
110.733452
104.936401
85.858841
59.500019
30.821831
3.515400
-17.870522
-27.556030
-22.340355
-4.869175
17.525354
36.710037
47.106995
46.664761
36.085316
18.508774
-0.740425
-16.425510
-26.185263
-30.925728
-33.353493
-36.397312
-41.887871
-49.990711
-60.047703
-71.899605
-85.719421
-100.355698
-112.880943
-120.704689
-124.008850
-125.930679
-129.887421
-134.684647
-130.640411
-103.528046
-48.620079
18.506935
72.064507
98.623360
103.352859
96.438698
83.519928
67.123352
48.501759
29.242090
13.979300
9.041385
18.113947
39.868767
67.915154
93.003281
107.117119
106.474869
92.246239
70.000633
47.494934
30.999372
23.141190
23.879213
32.169365
46.236340
63.462990
80.911140
96.173409
107.990814
116.069557
120.532974
121.902527
121.025986
118.358711
113.881981
108.584297
105.511353
107.767220
115.021019
123.276253
128.804016
131.317139
132.014053
127.951775
109.380882
66.212242
0.371337
-70.114861
-123.926369
-153.503647
-167.238327
-177.850800
-192.363617
-209.858627
-223.721466
-227.032852
-219.424255
-208.727325
-203.941788
-206.800598
-211.035950
-209.467270
-201.940536
-196.390991
-201.344986
-217.337570
-235.848434
-245.517456
-238.179016
-211.360565
-170.604736
-129.732803
-102.340286
-90.456566
-85.005547
-76.946228
-64.562775
-52.168381
-45.345558
-46.387486
-53.469425
-64.449493
-79.437897
-98.667885
-119.579163
-136.952972
-145.690567
-143.565384
-131.747726
-113.242073
-90.869301
-66.136963
-39.474831
-11.362212
16.590073
41.644093
61.437447
75.751305
86.868370
97.816795
109.113602
116.823372
115.119789
102.182465
83.524452
68.603394
63.931965
69.661125
81.988213
97.536446
115.361763
135.783142
158.136627
180.164795
199.758698
217.007614
234.027176
251.442459
263.341064
257.199707
224.553070
174.600403
131.065842
110.009651
106.415283
106.250153
103.117508
100.433334
105.530235
122.877892
149.292709
176.896744
200.002060
216.327988
224.460526
223.842316
215.778412
202.693985
187.047928
170.978241
156.290390
144.611435
137.415070
135.959854
141.316986
153.834366
172.081573
192.653580
211.234879
223.865509
227.891708
222.940186
211.453644
197.555435
184.642105
174.064789
166.093552
161.573639
162.191147
169.274246
182.461487
198.483719
209.081284
200.278183
159.595047
89.785454
11.661803
-52.929615
-96.989784
-124.507782
-139.889130
-145.449402
-143.155441
-136.602921
-131.555145
-132.484207
-139.853378
-152.035797
-167.233704
-182.979309
-196.375137
-206.385925
-215.626358
-228.651443
-247.610489
-269.866302
-289.864380
-302.924347
-307.960999
-307.716187
-306.585876
-307.587036
-310.365479
-311.465302
-306.980316
-295.916199
-281.448151
-268.741211
-261.274353
-259.075623
-260.014984
-262.165070
-264.965027
-269.049194
-275.654266
-285.342804
-295.565186
-299.082520
-286.630249
-253.660507
-205.502335
-155.254303
-115.875076
-93.512245
-86.520027
-89.019272
-95.371330
-102.427399
-108.886551
-113.725647
-115.651756
-113.727341
-108.181595
-100.313095
-91.236099
-80.642708
-67.037781
-49.351154
-28.223373
-5.640020
16.409258
36.713490
54.807751
70.766701
84.974678
97.827438
109.713043
121.424934
134.396576
150.200439
169.769821
193.051712
219.001923
245.581314
269.897980
288.760345
299.590790
301.368408
295.136505
283.887207
272.021729
264.403625
264.826019
274.211548
289.754272
306.134857
317.910919
320.997742
313.189178
295.178040
271.525055
249.112503
233.039444
223.948288
219.524582
217.311218
214.707001
206.960510
187.471741
151.691513
100.846291
41.915352
-15.388036
-62.188320
-93.315331
-108.654976
-112.190460
-108.665405
-99.524361
-81.519226
-50.091961
-5.679707
42.486919
80.412201
98.774254
97.622803
82.755104
61.143211
39.238689
21.238726
8.192296
-0.115668
-3.830092
-3.576799
-0.261413
5.033135
9.581834
9.026340
0.294201
-15.785151
-34.806862
-51.766026
-63.936676
-70.755997
-72.119522
-68.514961
-62.051514
-55.535946
-50.642296
-47.745987
-46.938755
-48.344501
-51.814819
-57.049484
-63.980530
-72.751411
-83.368973
-95.420570
-107.935081
-119.399574
-128.066040
-132.381302
-131.194229
-123.917931
-110.931885
-93.742500
-74.377914
-54.631680
-36.071178
-20.428631
-9.458388
-4.510635
-6.424403
-15.288339
-29.778944
-47.165619
-64.639664
-80.582741
-94.353683
-105.335953
-112.761429
-116.393913
-116.943916
-115.323952
-110.969200
-100.602310
-79.532219
-46.400181
-7.495619
26.043486
46.907562
55.578419
55.784672
49.788280
38.302937
21.685118
1.008858
-20.939705
-40.880604
-57.416069
-70.900787
-81.506714
-88.874680
-93.309341
-96.116570
-98.580231
-100.847015
-101.680351
-99.231712
-92.273064
-80.779465
-65.359650
-46.836445
-27.335264
-11.194858
-3.015815
-4.638791
-15.147741
-32.897511
-55.723358
-79.952415
-100.974815
-115.102753
-120.962791
-119.503380
-112.841461
-103.231735
-92.687103
-82.449318
-72.521049
-62.530613
-53.423855
-47.637478
-47.000191
-50.615135
-55.142208
-57.222065
-55.670692
-51.585175
-46.850723
-42.946526
-40.735680
-40.435581
-41.587700
-43.591709
-46.467335
-50.906975
-57.432484
-65.278397
-71.984741
-74.425949
-70.809738
-61.964149
-50.455463
-38.286022
-25.931356
-13.857828
-4.176355
-0.121968
-4.133478
-16.513796
-35.389736
-57.544254
-79.306747
-97.123123
-108.341347
-112.195435
-109.771317
-102.887383
-93.478004
-83.945175
-77.246185
-75.784447
-79.151123
-82.221184
-77.076538
-59.792480
-35.173370
-11.799478
7.069105
24.397301
42.981804
62.266678
79.946281
93.530144
101.343185
103.304703
100.384804
93.952194
86.082794
79.408798
76.117615
77.273727
82.686974
91.035599
100.541122
110.148804
120.056000
130.787659
141.967194
152.309189
160.614929
166.585190
170.822739
174.260254
177.594864
180.934418
183.622589
184.462723
182.421738
177.350006
170.051254
161.415741
151.263367
138.287888
121.621178
102.429031
83.444893
66.784782
52.677479
40.384144
29.629494
20.803408
14.117821
8.577563
1.737537
-8.790867
-22.886589
-37.190407
-47.440277
-51.705578
-51.267426
-48.736519
-45.720848
-41.963692
-36.209839
-27.957991
-18.719412
-11.722349
-10.098119
-14.622918
-22.652149
-29.514933
-31.762890
-29.518923
-25.597424
-22.410734
-19.956022
-16.522778
-10.789521
-3.175927
4.490528
10.389747
13.879767
15.693553
17.359095
20.269268
24.849272
30.395145
35.739895
39.964310
42.125206
40.413799
32.700611
18.774279
1.217347
-16.910137
-34.428970
-51.280983
-66.511063
-78.052757
-84.139259
-84.581070
-80.861946
-75.051094
-68.633446
-62.347630
-56.744995
-52.589993
-50.909588
-52.776501
-58.750008
-68.240303
-79.338303
-89.501244
-96.964462
-101.667389
-104.221840
-103.246941
-93.791595
-70.123238
-32.356632
10.342460
46.205204
70.252228
84.720215
92.493317
93.956032
88.093231
73.897896
52.533073
28.617802
7.701216
-6.879684
-14.123438
-14.258944
-8.301586
2.422838
16.767494
33.388214
49.971432
63.494972
71.864555
75.494171
77.138550
79.960632
85.489166
92.977516
100.326157
105.684654
108.555267
109.795769
110.873642
112.992279
116.467812
120.631882
124.327400
126.670685
127.580757
127.768410
128.300552
130.131516
133.793915
139.187943
145.484344
151.186111
154.383636
153.358963
147.442520
137.544037
125.901909
115.170219
107.313766
102.846855
100.856606
99.930641
99.428635
99.912666
102.179054
105.940643
109.595222
111.236679
109.935402
106.325851
102.231606
99.581802
99.012077
98.875046
95.733490
86.608200
71.285393
52.295853
32.648476
14.022354
-3.062031
-18.291754
-31.167646
-41.182541
-48.208378
-52.790573
-56.071815
-59.386272
-63.769119
-69.606102
-76.647049
-84.384789
-92.503349
-101.049377
-110.169006
-119.684685
-128.970993
-137.199173
-143.734055
-148.546906
-152.463623
-156.873520
-162.767456
-169.799057
-176.362915
-180.684052
-181.915207
-180.547195
-178.209290
-177.049866
-178.797531
-183.921112
-191.431900
-199.363586
-205.583969
-208.664154
-208.373276
-205.249786
-199.541321
-190.797501
-178.892227
-165.355942
-152.707733
-141.452103
-128.486038
-110.461975
-88.734520
-68.832382
-54.820293
-46.283867
-40.652611
-36.015862
-31.676533
-27.695135
-23.785746
-18.344372
-9.517316
2.777169
16.568226
29.260105
39.157131
46.128136
51.194935
55.614052
60.209396
65.144569
70.024376
74.283089
77.737404
80.849922
84.426643
89.187622
95.552727
103.463722
112.347893
121.440048
130.108200
137.840668
144.142609
148.630646
151.201401
152.082306
151.808380
151.194168
151.182999
152.469269
155.132812
158.698303
162.638519
166.805695
171.322357
176.163345
181.114716
186.054672
190.145035
189.011353
173.318192
135.428925
81.636688
32.437622
4.197264
-4.119929
-2.346683
2.884986
8.967500
16.106567
26.155350
38.165997
48.016384
52.882195
52.436943
47.194839
38.190594
26.981586
14.904376
2.834354
-8.310732
-17.449188
-23.872095
-27.631088
-29.371864
-29.772919
-29.176262
-28.017019
-27.305923
-28.058840
-30.276934
-32.837666
-34.558460
-35.365875
