EVENT_NAME: EMILIA_2ND_SHOCK
EVENT_ID: IT-2012-0011
EVENT_DATE_YYYYMMDD: 20120529
EVENT_TIME_HHMMSS: 070002
EVENT_LATITUDE_DEGREE: 44.8417
EVENT_LONGITUDE_DEGREE: 11.0657
EVENT_DEPTH_KM: 8.1
HYPOCENTER_REFERENCE: INGV-CNT_Seismic_Bulletin
MAGNITUDE_W: 6.0
MAGNITUDE_W_REFERENCE: RCMT-INGV
MAGNITUDE_L: 5.8
MAGNITUDE_L_REFERENCE: INGV-CNT_Seismic_Bulletin
FOCAL_MECHANISM: TF
NETWORK: TV
STATION_CODE: MIR01
STATION_NAME: MEDOLLA
STATION_LATITUDE_DEGREE: 44.844042
STATION_LONGITUDE_DEGREE: 11.071316
STATION_ELEVATION_M: 
LOCATION: 
SENSOR_DEPTH_M: 
VS30_M/S: 
SITE_CLASSIFICATION_EC8: C*
MORPHOLOGIC_CLASSIFICATION: 
EPICENTRAL_DISTANCE_KM: 0.5
EARTHQUAKE_BACKAZIMUTH_DEGREE: 239.6
DATE_TIME_FIRST_SAMPLE_YYYYMMDD_HHMMSS: 20120529_065945.000
DATE_TIME_FIRST_SAMPLE_PRECISION: milliseconds
SAMPLING_INTERVAL_S: 0.005000
NDATA: 30001
DURATION_S: 150.005
STREAM: HNN
UNITS: cm
INSTRUMENT: sensor = Episensor FBA ES-T [Kinemetrics] | digitizer = Unknown [Unknown]
INSTRUMENT_ANALOG/DIGITAL: D
INSTRUMENTAL_FREQUENCY_HZ: 
INSTRUMENTAL_DAMPING: 
FULL_SCALE_G: 
N_BIT_DIGITAL_CONVERTER: 
PGD_CM: 21.069797
TIME_PGD_S: 24.665000
BASELINE_CORRECTION: BASELINE REMOVED
FILTER_TYPE: BUTTERWORTH
FILTER_ORDER: 2
LOW_CUT_FREQUENCY_HZ: 0.050
HIGH_CUT_FREQUENCY_HZ: 40.000
LATE/NORMAL_TRIGGERED: NT
DATABASE_VERSION: DYNA 1.0
HEADER_FORMAT: DYNA 1.2
DATA_TYPE: DISPLACEMENT
PROCESSING: manual (Paolucci et al., 2011)
DATA_TIMESTAMP_YYYYMMDD_HHMMSS: 
DATA_LICENSE: CC-BY4_0 (http://creativecommons.org/licenses/by/4.0/)
DATA_CITATION: ESM working group (2015), European Strong-Motion database, version 0.1, Network Activity 3: Networking acceleration networks and SM data users. Project NERA (www.nera-eu.org)
DATA_CREATOR: ESM working group
ORIGINAL_DATA_MEDIATOR_CITATION: Orfeus - European Integrated Data Archive (EIDA) http://www.orfeus-eu.org/eida/
ORIGINAL_DATA_MEDIATOR: Orfeus - European Integrated Data Archive (EIDA)
ORIGINAL_DATA_CREATOR_CITATION: 
ORIGINAL_DATA_CREATOR: network: TV (INGV Experiments Network); owner: Istituto Nazionale di Geofisica e Vulcanologia
USER1: 
USER2: 
USER3: 
USER4: 
USER5: 
[...]
3.189331e-01
3.189492e-01
3.189511e-01
3.189212e-01
3.188637e-01
3.188053e-01
3.187785e-01
3.187978e-01
3.188389e-01
3.188475e-01
3.187841e-01
3.186654e-01
3.185544e-01
3.185080e-01
3.185375e-01
3.186142e-01
3.187036e-01
3.187853e-01
3.188429e-01
3.188528e-01
3.187989e-01
3.186948e-01
3.185683e-01
3.184202e-01
3.182178e-01
3.179408e-01
3.176182e-01
3.173033e-01
3.170238e-01
3.167732e-01
3.165422e-01
3.163308e-01
3.161246e-01
3.158848e-01
3.155788e-01
3.152151e-01
3.148349e-01
3.144820e-01
3.141952e-01
3.140171e-01
3.139711e-01
3.140210e-01
3.140858e-01
3.141105e-01
3.141068e-01
3.141204e-01
3.141754e-01
3.142619e-01
3.143606e-01
3.144645e-01
3.145867e-01
3.147671e-01
3.150742e-01
3.155744e-01
3.162644e-01
3.170323e-01
3.177098e-01
3.181801e-01
3.184307e-01
3.185104e-01
3.184647e-01
3.183309e-01
3.181729e-01
3.180886e-01
3.181734e-01
3.184622e-01
3.188861e-01
3.192871e-01
3.195124e-01
3.195216e-01
3.194110e-01
3.193392e-01
3.194190e-01
3.196477e-01
3.199296e-01
3.201765e-01
3.203834e-01
3.206071e-01
3.209036e-01
3.213052e-01
3.218276e-01
3.224622e-01
3.231720e-01
3.239272e-01
3.247567e-01
3.257434e-01
3.269542e-01
3.283905e-01
3.300157e-01
3.318101e-01
3.337840e-01
3.359482e-01
3.382793e-01
3.407040e-01
3.431197e-01
3.454494e-01
3.476905e-01
3.499143e-01
3.522070e-01
3.545856e-01
3.569614e-01
3.591988e-01
3.612297e-01
3.631149e-01
3.649883e-01
3.669539e-01
3.690455e-01
3.712516e-01
3.735295e-01
3.757956e-01
3.779352e-01
3.798443e-01
3.814676e-01
3.828039e-01
3.838856e-01
3.847542e-01
3.854486e-01
3.859917e-01
3.863848e-01
3.866437e-01
3.868471e-01
3.871207e-01
3.875652e-01
3.882094e-01
3.890273e-01
3.899894e-01
3.910967e-01
3.923664e-01
3.938049e-01
3.954143e-01
3.972155e-01
3.992375e-01
4.014876e-01
4.039418e-01
4.065543e-01
4.092703e-01
4.120449e-01
4.148645e-01
4.177596e-01
4.207840e-01
4.239463e-01
4.271654e-01
4.303430e-01
4.334955e-01
4.367840e-01
4.404052e-01
4.444683e-01
4.489490e-01
4.537088e-01
4.585562e-01
4.633302e-01
4.679595e-01
4.724589e-01
4.768665e-01
4.811739e-01
4.853149e-01
4.892217e-01
4.928871e-01
4.963741e-01
4.997773e-01
5.031623e-01
5.065198e-01
5.097742e-01
5.128514e-01
5.157657e-01
5.186661e-01
5.217930e-01
5.253515e-01
5.293980e-01
5.338446e-01
5.385614e-01
5.434499e-01
5.484337e-01
5.534370e-01
5.583926e-01
5.632398e-01
5.679250e-01
5.724638e-01
5.770083e-01
5.817758e-01
5.868461e-01
5.920408e-01
5.970407e-01
6.016350e-01
6.058431e-01
6.097998e-01
6.135575e-01
6.170541e-01
6.202924e-01
6.235057e-01
6.270741e-01
6.312452e-01
6.359321e-01
6.407575e-01
6.452665e-01
6.491444e-01
6.523230e-01
6.549390e-01
6.572014e-01
6.592784e-01
6.612586e-01
6.631596e-01
6.649396e-01
6.664953e-01
6.676789e-01
6.683692e-01
6.685550e-01
6.683375e-01
6.678422e-01
6.671394e-01
6.662638e-01
6.653031e-01
6.644237e-01
6.637495e-01
6.632172e-01
6.626247e-01
6.618771e-01
6.611571e-01
6.608101e-01
6.610825e-01
6.620120e-01
6.635217e-01
6.655176e-01
6.678808e-01
6.704486e-01
6.730955e-01
6.758717e-01
6.790392e-01
6.829147e-01
6.876507e-01
6.931644e-01
6.992494e-01
7.057214e-01
7.124791e-01
7.194873e-01
7.267267e-01
7.341490e-01
7.416582e-01
7.491457e-01
7.565633e-01
7.639593e-01
7.714211e-01
7.789803e-01
7.865787e-01
7.941056e-01
8.014580e-01
8.085898e-01
8.155214e-01
8.222696e-01
8.287429e-01
8.347531e-01
8.401746e-01
8.450898e-01
8.497678e-01
8.544852e-01
8.592938e-01
8.639113e-01
8.678984e-01
8.710181e-01
8.734248e-01
8.755066e-01
8.775719e-01
8.796535e-01
8.815418e-01
8.829953e-01
8.839764e-01
8.847273e-01
8.856210e-01
8.869154e-01
8.886176e-01
8.905530e-01
8.925493e-01
8.945532e-01
8.965672e-01
8.984675e-01
8.999009e-01
9.003933e-01
8.996030e-01
8.975134e-01
8.944259e-01
8.907687e-01
8.868434e-01
8.826648e-01
8.780150e-01
8.726761e-01
8.666356e-01
8.601029e-01
8.533869e-01
8.467683e-01
8.404399e-01
8.345277e-01
8.291558e-01
8.244637e-01
8.205591e-01
8.174854e-01
8.152432e-01
8.138108e-01
8.131122e-01
8.129678e-01
8.130990e-01
8.132300e-01
8.132455e-01
8.132953e-01
8.137668e-01
8.151587e-01
8.179413e-01
8.224433e-01
8.287620e-01
8.367147e-01
8.458830e-01
8.557779e-01
8.660640e-01
8.767087e-01
8.879553e-01
9.001324e-01
9.134204e-01
9.277326e-01
9.427725e-01
9.581736e-01
9.735886e-01
9.886989e-01
1.003189e+00
1.016729e+00
1.028993e+00
1.039758e+00
1.048997e+00
1.056837e+00
1.063371e+00
1.068523e+00
1.072107e+00
1.074026e+00
1.074399e+00
1.073542e+00
1.071826e+00
1.069485e+00
1.066492e+00
1.062634e+00
1.057697e+00
1.051600e+00
1.044339e+00
1.035886e+00
1.026208e+00
1.015431e+00
1.003979e+00
9.924596e-01
9.813724e-01
9.709299e-01
9.611066e-01
9.517641e-01
9.426852e-01
9.335726e-01
9.241413e-01
9.142660e-01
9.040128e-01
8.935283e-01
8.829785e-01
8.726721e-01
8.632034e-01
8.553353e-01
8.496069e-01
8.459750e-01
8.437887e-01
8.421104e-01
8.401710e-01
8.376955e-01
8.349138e-01
8.322995e-01
8.302917e-01
8.291869e-01
8.291533e-01
8.302511e-01
8.324230e-01
8.354863e-01
8.391533e-01
8.430828e-01
8.469578e-01
8.505627e-01
8.537809e-01
8.565047e-01
8.585870e-01
8.599140e-01
8.604862e-01
8.603985e-01
8.597619e-01
8.586469e-01
8.570810e-01
8.550954e-01
8.527452e-01
8.500569e-01
8.469838e-01
8.434321e-01
8.393133e-01
8.345927e-01
8.293542e-01
8.238337e-01
8.183509e-01
8.131810e-01
8.084580e-01
8.041489e-01
8.001063e-01
7.961738e-01
7.922410e-01
7.881640e-01
7.836456e-01
7.782276e-01
7.713831e-01
7.626116e-01
7.515244e-01
7.379118e-01
7.217138e-01
7.029078e-01
6.814590e-01
6.573975e-01
6.308893e-01
6.021846e-01
5.714952e-01
5.389185e-01
5.044513e-01
4.680349e-01
4.295720e-01
3.889424e-01
3.460553e-01
3.008855e-01
2.534382e-01
2.036993e-01
1.516324e-01
9.718196e-02
4.024975e-02
-1.930334e-02
-8.161258e-02
-1.467613e-01
-2.147428e-01
-2.854434e-01
-3.586810e-01
-4.342762e-01
-5.120911e-01
-5.920436e-01
-6.741317e-01
-7.584224e-01
-8.449283e-01
-9.334447e-01
-1.023533e+00
-1.114670e+00
-1.206372e+00
-1.298193e+00
-1.389678e+00
-1.480313e+00
-1.569475e+00
-1.656392e+00
-1.740105e+00
-1.819512e+00
-1.893553e+00
-1.961452e+00
-2.022903e+00
-2.078094e+00
-2.127650e+00
-2.172519e+00
-2.213795e+00
-2.252508e+00
-2.289481e+00
-2.325273e+00
-2.360104e+00
-2.393827e+00
-2.426069e+00
-2.456462e+00
-2.484727e+00
-2.510630e+00
-2.533985e+00
-2.554748e+00
-2.573046e+00
-2.589067e+00
-2.602859e+00
-2.614144e+00
-2.622238e+00
-2.626221e+00
-2.625355e+00
-2.619444e+00
-2.608837e+00
-2.594135e+00
-2.575963e+00
-2.555019e+00
-2.532272e+00
-2.509011e+00
-2.486562e+00
-2.465836e+00
-2.447060e+00
-2.429973e+00
-2.414287e+00
-2.399924e+00
-2.386889e+00
-2.375125e+00
-2.364554e+00
-2.355108e+00
-2.346556e+00
-2.338400e+00
-2.329993e+00
-2.320790e+00
-2.310539e+00
-2.299352e+00
-2.287577e+00
-2.275638e+00
-2.264024e+00
-2.253386e+00
-2.244500e+00
-2.238011e+00
-2.234243e+00
-2.233346e+00
-2.235582e+00
-2.241433e+00
-2.251461e+00
-2.266143e+00
-2.285836e+00
-2.310815e+00
-2.341273e+00
-2.377248e+00
-2.418590e+00
-2.464961e+00
-2.515826e+00
-2.570424e+00
-2.627839e+00
-2.687244e+00
-2.748163e+00
-2.810500e+00
-2.874254e+00
-2.939232e+00
-3.005015e+00
-3.071101e+00
-3.136963e+00
-3.201963e+00
-3.265361e+00
-3.326506e+00
-3.385063e+00
-3.441123e+00
-3.495175e+00
-3.547995e+00
-3.600493e+00
-3.653443e+00
-3.707262e+00
-3.762034e+00
-3.817791e+00
-3.874766e+00
-3.933427e+00
-3.994325e+00
-4.057901e+00
-4.124375e+00
-4.193773e+00
-4.266038e+00
-4.341087e+00
-4.418833e+00
-4.499186e+00
-4.582074e+00
-4.667473e+00
-4.755510e+00
-4.846577e+00
-4.941300e+00
-5.040342e+00
-5.144158e+00
-5.252812e+00
-5.365923e+00
-5.482753e+00
-5.602396e+00
-5.723970e+00
-5.846735e+00
-5.970155e+00
-6.093962e+00
-6.218241e+00
-6.343362e+00
-6.469705e+00
-6.597350e+00
-6.725997e+00
-6.855134e+00
-6.984216e+00
-7.112678e+00
-7.239919e+00
-7.365420e+00
-7.488853e+00
-7.610026e+00
-7.728722e+00
-7.844656e+00
-7.957566e+00
-8.067312e+00
-8.173849e+00
-8.277146e+00
-8.377123e+00
-8.473649e+00
-8.566560e+00
-8.655649e+00
-8.740674e+00
-8.821368e+00
-8.897452e+00
-8.968700e+00
-9.035084e+00
-9.096874e+00
-9.154556e+00
-9.208587e+00
-9.259160e+00
-9.306129e+00
-9.349103e+00
-9.387642e+00
-9.421439e+00
-9.450388e+00
-9.474613e+00
-9.494556e+00
-9.511108e+00
-9.525515e+00
-9.538934e+00
-9.552050e+00
-9.565119e+00
-9.578246e+00
-9.591500e+00
-9.604882e+00
-9.618316e+00
-9.631686e+00
-9.644940e+00
-9.658240e+00
-9.671989e+00
-9.686639e+00
-9.702472e+00
-9.719602e+00
-9.738175e+00
-9.758494e+00
-9.780903e+00
-9.805543e+00
-9.832177e+00
-9.860269e+00
-9.889275e+00
-9.918863e+00
-9.948886e+00
-9.979256e+00
-1.000993e+01
-1.004102e+01
-1.007283e+01
-1.010582e+01
-1.014048e+01
-1.017729e+01
-1.021660e+01
-1.025856e+01
-1.030312e+01
-1.035003e+01
-1.039895e+01
-1.044956e+01
-1.050169e+01
-1.055532e+01
-1.061056e+01
-1.066760e+01
-1.072666e+01
-1.078793e+01
-1.085157e+01
-1.091762e+01
-1.098600e+01
-1.105649e+01
-1.112878e+01
-1.120260e+01
-1.127777e+01
-1.135412e+01
-1.143149e+01
-1.150964e+01
-1.158832e+01
-1.166739e+01
-1.174688e+01
-1.182702e+01
-1.190806e+01
-1.199020e+01
-1.207347e+01
-1.215774e+01
-1.224262e+01
-1.232759e+01
-1.241203e+01
-1.249532e+01
-1.257697e+01
-1.265652e+01
-1.273356e+01
-1.280771e+01
-1.287870e+01
-1.294644e+01
-1.301104e+01
-1.307271e+01
-1.313159e+01
-1.318773e+01
-1.324116e+01
-1.329198e+01
-1.334054e+01
-1.338738e+01
-1.343309e+01
-1.347820e+01
-1.352308e+01
-1.356791e+01
-1.361263e+01
-1.365698e+01
-1.370065e+01
-1.374343e+01
-1.378512e+01
-1.382543e+01
-1.386401e+01
-1.390057e+01
-1.393496e+01
-1.396714e+01
-1.399713e+01
-1.402492e+01
-1.405050e+01
-1.407394e+01
-1.409529e+01
-1.411458e+01
-1.413179e+01
-1.414694e+01
-1.416005e+01
-1.417103e+01
-1.417964e+01
-1.418541e+01
-1.418786e+01
-1.418661e+01
-1.418148e+01
-1.417253e+01
-1.415994e+01
-1.414395e+01
-1.412463e+01
-1.410183e+01
-1.407532e+01
-1.404510e+01
-1.401152e+01
-1.397525e+01
-1.393703e+01
-1.389757e+01
-1.385747e+01
-1.381722e+01
-1.377727e+01
-1.373794e+01
-1.369936e+01
-1.366134e+01
-1.362319e+01
-1.358377e+01
-1.354174e+01
-1.349586e+01
-1.344522e+01
-1.338931e+01
-1.332788e+01
-1.326096e+01
-1.318874e+01
-1.311155e+01
-1.302973e+01
-1.294351e+01
-1.285313e+01
-1.275880e+01
-1.266077e+01
-1.255925e+01
-1.245440e+01
-1.234630e+01
-1.223502e+01
-1.212063e+01
-1.200320e+01
-1.188275e+01
-1.175926e+01
-1.163266e+01
-1.150287e+01
-1.136982e+01
-1.123356e+01
-1.109426e+01
-1.095224e+01
-1.080787e+01
-1.066151e+01
-1.051346e+01
-1.036383e+01
-1.021251e+01
-1.005914e+01
-9.903168e+00
-9.743935e+00
-9.580707e+00
-9.412815e+00
-9.239815e+00
-9.061582e+00
-8.878294e+00
-8.690371e+00
-8.498388e+00
-8.302948e+00
-8.104559e+00
-7.903555e+00
-7.700085e+00
-7.494165e+00
-7.285788e+00
-7.075022e+00
-6.862048e+00
-6.647143e+00
-6.430619e+00
-6.212769e+00
-5.993821e+00
-5.773946e+00
-5.553282e+00
-5.331976e+00
-5.110221e+00
-4.888282e+00
-4.666488e+00
-4.445235e+00
-4.224984e+00
-4.006272e+00
-3.789709e+00
-3.575988e+00
-3.365918e+00
-3.160471e+00
-2.960797e+00
-2.768109e+00
-2.583495e+00
-2.407748e+00
-2.241291e+00
-2.084159e+00
-1.935978e+00
-1.795893e+00
-1.662532e+00
-1.534123e+00
-1.408798e+00
-1.284919e+00
-1.161239e+00
-1.036870e+00
-9.111573e-01
-7.835559e-01
-6.535584e-01
-5.206752e-01
-3.844419e-01
-2.444244e-01
-1.001911e-01
4.874947e-02
2.030071e-01
3.633209e-01
5.305046e-01
7.053409e-01
8.884435e-01
1.080106e+00
1.280198e+00
1.488190e+00
1.703325e+00
1.924825e+00
2.152027e+00
2.384444e+00
2.621763e+00
2.863784e+00
3.110283e+00
3.360910e+00
3.615142e+00
3.872322e+00
4.131722e+00
4.392613e+00
4.654318e+00
4.916230e+00
5.177819e+00
5.438637e+00
5.698337e+00
5.956690e+00
6.213542e+00
6.468717e+00
6.721969e+00
6.973088e+00
7.222057e+00
7.469075e+00
7.714414e+00
7.958219e+00
8.200401e+00
8.440686e+00
8.678750e+00
8.914325e+00
9.147236e+00
9.377359e+00
9.604563e+00
9.828699e+00
1.004961e+01
1.026712e+01
1.048105e+01
1.069117e+01
1.089726e+01
1.109906e+01
1.129636e+01
1.148901e+01
1.167705e+01
1.186075e+01
1.204059e+01
1.221722e+01
1.239129e+01
1.256348e+01
1.273435e+01
1.290435e+01
1.307380e+01
1.324295e+01
1.341202e+01
1.358133e+01
1.375122e+01
1.392214e+01
1.409457e+01
1.426898e+01
1.444583e+01
1.462550e+01
1.480831e+01
1.499449e+01
1.518407e+01
1.537692e+01
1.557274e+01
1.577112e+01
1.597160e+01
1.617376e+01
1.637722e+01
1.658157e+01
1.678633e+01
1.699098e+01
1.719498e+01
1.739783e+01
1.759896e+01
1.779774e+01
1.799354e+01
1.818583e+01
1.837425e+01
1.855863e+01
1.873891e+01
1.891493e+01
1.908635e+01
1.925268e+01
1.941344e+01
1.956818e+01
1.971654e+01
1.985814e+01
1.999259e+01
2.011952e+01
2.023870e+01
2.035000e+01
2.045340e+01
2.054888e+01
2.063647e+01
2.071619e+01
2.078804e+01
2.085195e+01
2.090783e+01
2.095558e+01
2.099511e+01
2.102635e+01
2.104922e+01
2.106368e+01
2.106980e+01
2.106780e+01
2.105802e+01
2.104081e+01
2.101645e+01
2.098514e+01
2.094693e+01
2.090183e+01
2.084988e+01
2.079126e+01
2.072633e+01
2.065547e+01
2.057906e+01
2.049746e+01
2.041093e+01
2.031969e+01
2.022390e+01
2.012374e+01
2.001947e+01
1.991127e+01
1.979929e+01
1.968356e+01
1.956413e+01
1.944110e+01
1.931462e+01
1.918486e+01
1.905200e+01
1.891610e+01
1.877718e+01
1.863524e+01
1.849027e+01
1.834233e+01
1.819149e+01
1.803790e+01
1.788169e+01
1.772295e+01
1.756170e+01
1.739786e+01
1.723139e+01
1.706229e+01
1.689064e+01
1.671656e+01
1.654016e+01
1.636157e+01
1.618089e+01
1.599821e+01
1.581356e+01
1.562691e+01
1.543831e+01
1.524787e+01
1.505576e+01
1.486212e+01
1.466703e+01
1.447054e+01
1.427269e+01
1.407354e+01
1.387323e+01
1.367183e+01
1.346934e+01
1.326564e+01
1.306067e+01
1.285445e+01
1.264708e+01
1.243864e+01
1.222925e+01
1.201912e+01
1.180856e+01
1.159796e+01
1.138770e+01
1.117810e+01
1.096939e+01
1.076173e+01
1.055527e+01
1.035018e+01
1.014663e+01
9.944828e+00
9.745011e+00
9.547512e+00
9.352731e+00
9.161069e+00
8.972874e+00
8.788434e+00
8.607988e+00
8.431697e+00
8.259506e+00
8.090953e+00
7.925092e+00
7.760704e+00
7.596699e+00
7.432411e+00
7.267556e+00
7.102027e+00
6.935740e+00
6.768605e+00
6.600538e+00
6.431483e+00
6.261422e+00
6.090370e+00
5.918381e+00
5.745533e+00
5.571916e+00
5.397598e+00
5.222600e+00
5.046915e+00
4.870546e+00
4.693546e+00
4.515990e+00
4.337938e+00
4.159419e+00
3.980470e+00
3.801146e+00
3.621505e+00
3.441573e+00
3.261351e+00
3.080857e+00
2.900170e+00
2.719453e+00
2.538943e+00
2.358898e+00
2.179556e+00
2.001126e+00
1.823824e+00
1.647886e+00
1.473551e+00
1.301019e+00
1.130454e+00
9.620287e-01
7.959713e-01
6.325387e-01
4.719410e-01
3.143231e-01
1.598424e-01
8.747648e-03
-1.386458e-01
-2.820557e-01
-4.212979e-01
-5.562945e-01
-6.870819e-01
-8.137969e-01
-9.365836e-01
-1.055472e+00
-1.170347e+00
-1.281016e+00
-1.387304e+00
-1.489118e+00
-1.586480e+00
-1.679549e+00
-1.768631e+00
-1.854174e+00
-1.936746e+00
-2.016975e+00
-2.095469e+00
-2.172738e+00
-2.249145e+00
-2.324903e+00
-2.400095e+00
-2.474696e+00
-2.548589e+00
-2.621599e+00
-2.693529e+00
-2.764185e+00
-2.833408e+00
-2.901115e+00
-2.967297e+00
-3.031978e+00
-3.095149e+00
-3.156753e+00
-3.216715e+00
-3.274976e+00
-3.331507e+00
-3.386281e+00
-3.439237e+00
-3.490245e+00
-3.539094e+00
-3.585519e+00
-3.629266e+00
-3.670158e+00
-3.708119e+00
-3.743158e+00
-3.775308e+00
-3.804578e+00
-3.830933e+00
-3.854313e+00
-3.874628e+00
-3.891753e+00
-3.905519e+00
-3.915729e+00
-3.922204e+00
-3.924816e+00
-3.923492e+00
-3.918197e+00
-3.908923e+00
-3.895664e+00
-3.878377e+00
-3.856935e+00
-3.831137e+00
-3.800743e+00
-3.765515e+00
-3.725250e+00
-3.679802e+00
-3.629121e+00
-3.573295e+00
-3.512600e+00
-3.447604e+00
-3.379260e+00
-3.308831e+00
-3.237605e+00
-3.166610e+00
-3.096564e+00
-3.028005e+00
-2.961392e+00
-2.897106e+00
-2.835459e+00
-2.776738e+00
-2.721244e+00
-2.669297e+00
-2.621221e+00
-2.577318e+00
-2.537858e+00
-2.503103e+00
-2.473367e+00
-2.449027e+00
-2.430421e+00
-2.417698e+00
-2.410729e+00
-2.409142e+00
-2.412402e+00
-2.419850e+00
-2.430717e+00
-2.444167e+00
-2.459379e+00
-2.475608e+00
-2.492223e+00
-2.508722e+00
-2.524725e+00
-2.539931e+00
-2.554058e+00
-2.566848e+00
-2.578081e+00
-2.587574e+00
-2.595146e+00
-2.600594e+00
-2.603719e+00
-2.604361e+00
-2.602411e+00
-2.597789e+00
-2.590418e+00
-2.580217e+00
-2.567122e+00
-2.551081e+00
-2.532031e+00
-2.509882e+00
-2.484544e+00
-2.456008e+00
-2.424429e+00
-2.390156e+00
-2.353701e+00
-2.315633e+00
-2.276427e+00
-2.236344e+00
-2.195390e+00
-2.153348e+00
-2.109854e+00
-2.064514e+00
-2.017038e+00
-1.967334e+00
-1.915506e+00
-1.861802e+00
-1.806555e+00
-1.750130e+00
-1.692890e+00
-1.635162e+00
-1.577233e+00
-1.519353e+00
-1.461764e+00
-1.404713e+00
-1.348458e+00
-1.293251e+00
-1.239323e+00
-1.186854e+00
-1.135958e+00
-1.086680e+00
-1.039021e+00
-9.929658e-01
-9.485011e-01
-9.056091e-01
-8.642570e-01
-8.243884e-01
-7.859219e-01
-7.487598e-01
-7.128048e-01
-6.779634e-01
-6.441213e-01
-6.111160e-01
-5.787490e-01
-5.468376e-01
-5.152578e-01
-4.839410e-01
-4.528452e-01
-4.219285e-01
-3.911126e-01
-3.602294e-01
-3.289872e-01
-2.969961e-01
-2.638376e-01
-2.291257e-01
-1.925381e-01
-1.538394e-01
-1.129074e-01
-6.974576e-02
-2.447186e-02
2.270238e-02
7.148064e-02
1.214988e-01
1.723515e-01
2.236065e-01
2.748055e-01
3.254800e-01
3.751798e-01
4.234871e-01
4.700139e-01
5.144118e-01
5.564083e-01
5.958391e-01
6.326416e-01
6.668038e-01
6.983025e-01
7.270831e-01
7.530972e-01
7.763623e-01
7.970031e-01
8.152870e-01
8.316741e-01
8.468298e-01
8.615243e-01
8.764369e-01
8.919834e-01
9.082560e-01
9.250717e-01
9.420902e-01
9.589635e-01
9.754526e-01
9.914548e-01
1.006952e+00
1.021948e+00
1.036449e+00
1.050475e+00
1.064076e+00
1.077321e+00
1.090295e+00
1.103091e+00
1.115836e+00
1.128683e+00
1.141789e+00
1.155245e+00
1.169040e+00
1.183059e+00
1.197118e+00
1.210996e+00
1.224470e+00
1.237328e+00
1.249380e+00
1.260456e+00
1.270419e+00
1.279177e+00
1.286703e+00
1.293071e+00
1.298507e+00
1.303428e+00
1.308391e+00
1.313951e+00
1.320516e+00
1.328325e+00
1.337525e+00
1.348260e+00
1.360668e+00
1.374852e+00
1.390868e+00
1.408732e+00
1.428452e+00
1.450061e+00
1.473643e+00
1.499331e+00
1.527284e+00
1.557666e+00
1.590627e+00
1.626260e+00
1.664511e+00
1.705034e+00
1.747122e+00
1.789826e+00
1.832251e+00
1.873756e+00
1.913938e+00
1.952484e+00
1.989107e+00
2.023558e+00
2.055653e+00
2.085291e+00
2.112480e+00
