EVENT_NAME: EMILIA_2ND_SHOCK
EVENT_ID: IT-2012-0011
EVENT_DATE_YYYYMMDD: 20120529
EVENT_TIME_HHMMSS: 070002
EVENT_LATITUDE_DEGREE: 44.8417
EVENT_LONGITUDE_DEGREE: 11.0657
EVENT_DEPTH_KM: 8.1
HYPOCENTER_REFERENCE: INGV-CNT_Seismic_Bulletin
MAGNITUDE_W: 6.0
MAGNITUDE_W_REFERENCE: RCMT-INGV
MAGNITUDE_L: 5.8
MAGNITUDE_L_REFERENCE: INGV-CNT_Seismic_Bulletin
FOCAL_MECHANISM: TF
NETWORK: TV
STATION_CODE: MIR04
STATION_NAME: GAVELLO
STATION_LATITUDE_DEGREE: 44.927433
STATION_LONGITUDE_DEGREE: 11.178312
STATION_ELEVATION_M: 
LOCATION: 
SENSOR_DEPTH_M: 
VS30_M/S: 
SITE_CLASSIFICATION_EC8: C*
MORPHOLOGIC_CLASSIFICATION: 
EPICENTRAL_DISTANCE_KM: 13.0
EARTHQUAKE_BACKAZIMUTH_DEGREE: 223.1
DATE_TIME_FIRST_SAMPLE_YYYYMMDD_HHMMSS: 20120529_065927.000
DATE_TIME_FIRST_SAMPLE_PRECISION: milliseconds
SAMPLING_INTERVAL_S: 0.005000
NDATA: 30001
DURATION_S: 150.005
STREAM: HNZ
UNITS: cm
INSTRUMENT: sensor = Episensor FBA ES-T [Kinemetrics] | digitizer = Unknown [Unknown]
INSTRUMENT_ANALOG/DIGITAL: D
INSTRUMENTAL_FREQUENCY_HZ: 
INSTRUMENTAL_DAMPING: 
FULL_SCALE_G: 
N_BIT_DIGITAL_CONVERTER: 
PGD_CM: 2.208423
TIME_PGD_S: 45.825000
BASELINE_CORRECTION: BASELINE REMOVED
FILTER_TYPE: BUTTERWORTH
FILTER_ORDER: 2
LOW_CUT_FREQUENCY_HZ: 0.050
HIGH_CUT_FREQUENCY_HZ: 40.000
LATE/NORMAL_TRIGGERED: NT
DATABASE_VERSION: DYNA 1.0
HEADER_FORMAT: DYNA 1.2
DATA_TYPE: DISPLACEMENT
PROCESSING: manual (Paolucci et al., 2011)
DATA_TIMESTAMP_YYYYMMDD_HHMMSS: 
DATA_LICENSE: CC-BY4_0 (http://creativecommons.org/licenses/by/4.0/)
DATA_CITATION: ESM working group (2015), European Strong-Motion database, version 0.1, Network Activity 3: Networking acceleration networks and SM data users. Project NERA (www.nera-eu.org)
DATA_CREATOR: ESM working group
ORIGINAL_DATA_MEDIATOR_CITATION: Orfeus - European Integrated Data Archive (EIDA) http://www.orfeus-eu.org/eida/
ORIGINAL_DATA_MEDIATOR: Orfeus - European Integrated Data Archive (EIDA)
ORIGINAL_DATA_CREATOR_CITATION: 
ORIGINAL_DATA_CREATOR: network: TV (INGV Experiments Network); owner: Istituto Nazionale di Geofisica e Vulcanologia
USER1: 
USER2: 
USER3: 
USER4: 
USER5: 
[...]
-2.369172e-01
-2.435213e-01
-2.503062e-01
-2.572531e-01
-2.644891e-01
-2.719101e-01
-2.791084e-01
-2.857419e-01
-2.918749e-01
-2.978818e-01
-3.040818e-01
-3.105492e-01
-3.172234e-01
-3.239973e-01
-3.305615e-01
-3.362928e-01
-3.405230e-01
-3.429827e-01
-3.439804e-01
-3.442399e-01
-3.445883e-01
-3.456449e-01
-3.476406e-01
-3.504701e-01
-3.539256e-01
-3.579290e-01
-3.625895e-01
-3.680571e-01
-3.743386e-01
-3.812283e-01
-3.883193e-01
-3.951175e-01
-4.013644e-01
-4.073253e-01
-4.135551e-01
-4.202199e-01
-4.267539e-01
-4.323239e-01
-4.366039e-01
-4.400615e-01
-4.436042e-01
-4.480247e-01
-4.536196e-01
-4.600416e-01
-4.663771e-01
-4.715493e-01
-4.749905e-01
-4.770951e-01
-4.789321e-01
-4.813571e-01
-4.842992e-01
-4.869369e-01
-4.886762e-01
-4.899228e-01
-4.917675e-01
-4.949650e-01
-4.993493e-01
-5.041562e-01
-5.087116e-01
-5.127678e-01
-5.164185e-01
-5.200239e-01
-5.242130e-01
-5.296095e-01
-5.363260e-01
-5.437407e-01
-5.508156e-01
-5.567443e-01
-5.615064e-01
-5.658892e-01
-5.708498e-01
-5.766591e-01
-5.825881e-01
-5.875694e-01
-5.913629e-01
-5.950382e-01
-6.000642e-01
-6.067557e-01
-6.136886e-01
-6.188411e-01
-6.214165e-01
-6.225931e-01
-6.246539e-01
-6.295033e-01
-6.377637e-01
-6.487353e-01
-6.608203e-01
-6.721040e-01
-6.810547e-01
-6.870958e-01
-6.905933e-01
-6.922747e-01
-6.927366e-01
-6.925148e-01
-6.923799e-01
-6.932011e-01
-6.953343e-01
-6.982074e-01
-7.006438e-01
-7.017180e-01
-7.014387e-01
-7.007111e-01
-7.006617e-01
-7.019048e-01
-7.042180e-01
-7.067213e-01
-7.084962e-01
-7.093875e-01
-7.103494e-01
-7.128220e-01
-7.175690e-01
-7.240476e-01
-7.308194e-01
-7.365545e-01
-7.408391e-01
-7.442207e-01
-7.474769e-01
-7.507872e-01
-7.536707e-01
-7.557541e-01
-7.574472e-01
-7.596850e-01
-7.630082e-01
-7.670362e-01
-7.709239e-01
-7.743074e-01
-7.777787e-01
-7.824141e-01
-7.887952e-01
-7.964622e-01
-8.042764e-01
-8.112223e-01
-8.168945e-01
-8.214167e-01
-8.250591e-01
-8.279303e-01
-8.299730e-01
-8.312344e-01
-8.321049e-01
-8.331843e-01
-8.347991e-01
-8.366502e-01
-8.380572e-01
-8.385496e-01
-8.379788e-01
-8.359905e-01
-8.318999e-01
-8.256739e-01
-8.190123e-01
-8.149556e-01
-8.160460e-01
-8.227798e-01
-8.337202e-01
-8.467694e-01
-8.600941e-01
-8.721363e-01
-8.815153e-01
-8.875609e-01
-8.909385e-01
-8.932937e-01
-8.959932e-01
-8.991918e-01
-9.020189e-01
-9.035257e-01
-9.035443e-01
-9.028136e-01
-9.022934e-01
-9.023294e-01
-9.024903e-01
-9.021268e-01
-9.010039e-01
-8.995293e-01
-8.985807e-01
-8.990836e-01
-9.015732e-01
-9.061126e-01
-9.126396e-01
-9.212576e-01
-9.319980e-01
-9.443184e-01
-9.571124e-01
-9.694779e-01
-9.814270e-01
-9.935146e-01
-1.005531e+00
-1.015667e+00
-1.021231e+00
-1.020339e+00
-1.013007e+00
-1.000873e+00
-9.860466e-01
-9.701690e-01
-9.543444e-01
-9.395847e-01
-9.269163e-01
-9.169949e-01
-9.098446e-01
-9.050663e-01
-9.022040e-01
-9.008539e-01
-9.005047e-01
-9.004344e-01
-8.998510e-01
-8.981492e-01
-8.950949e-01
-8.908332e-01
-8.856651e-01
-8.796608e-01
-8.723869e-01
-8.630523e-01
-8.510464e-01
-8.365009e-01
-8.204597e-01
-8.045119e-01
-7.901848e-01
-7.786055e-01
-7.705435e-01
-7.663952e-01
-7.657809e-01
-7.671427e-01
-7.680667e-01
-7.664245e-01
-7.615568e-01
-7.546208e-01
-7.478369e-01
-7.430171e-01
-7.402131e-01
-7.374859e-01
-7.321293e-01
-7.223525e-01
-7.079217e-01
-6.894689e-01
-6.676315e-01
-6.430322e-01
-6.167924e-01
-5.906552e-01
-5.664237e-01
-5.452364e-01
-5.272365e-01
-5.116984e-01
-4.973407e-01
-4.826518e-01
-4.663607e-01
-4.481173e-01
-4.288786e-01
-4.104465e-01
-3.943785e-01
-3.810882e-01
-3.697674e-01
-3.591824e-01
-3.488226e-01
-3.395069e-01
-3.327747e-01
-3.293886e-01
-3.282254e-01
-3.267275e-01
-3.228417e-01
-3.168436e-01
-3.112053e-01
-3.084307e-01
-3.088845e-01
-3.106973e-01
-3.116962e-01
-3.112766e-01
-3.103874e-01
-3.099912e-01
-3.099327e-01
-3.093480e-01
-3.077804e-01
-3.055254e-01
-3.029739e-01
-3.000238e-01
-2.963353e-01
-2.918829e-01
-2.868515e-01
-2.809747e-01
-2.732627e-01
-2.626393e-01
-2.490702e-01
-2.342673e-01
-2.212188e-01
-2.126501e-01
-2.094568e-01
-2.102009e-01
-2.120267e-01
-2.125041e-01
-2.111874e-01
-2.095701e-01
-2.093907e-01
-2.109194e-01
-2.128906e-01
-2.140149e-01
-2.144094e-01
-2.153346e-01
-2.174161e-01
-2.193927e-01
-2.190642e-01
-2.155609e-01
-2.103822e-01
-2.060363e-01
-2.038074e-01
-2.029879e-01
-2.021698e-01
-2.010304e-01
-2.007237e-01
-2.026989e-01
-2.074029e-01
-2.140723e-01
-2.214732e-01
-2.287094e-01
-2.354715e-01
-2.417993e-01
-2.478329e-01
-2.538029e-01
-2.600542e-01
-2.668340e-01
-2.739875e-01
-2.809484e-01
-2.869955e-01
-2.913629e-01
-2.931696e-01
-2.915887e-01
-2.863775e-01
-2.783141e-01
-2.690372e-01
-2.603360e-01
-2.534383e-01
-2.487651e-01
-2.461829e-01
-2.454188e-01
-2.462679e-01
-2.485243e-01
-2.518543e-01
-2.558007e-01
-2.599626e-01
-2.642393e-01
-2.688675e-01
-2.740910e-01
-2.796252e-01
-2.843438e-01
-2.866047e-01
-2.851877e-01
-2.801484e-01
-2.727820e-01
-2.646078e-01
-2.562552e-01
-2.473161e-01
-2.372022e-01
-2.259226e-01
-2.139658e-01
-2.016928e-01
-1.891363e-01
-1.763627e-01
-1.637521e-01
-1.516997e-01
-1.400914e-01
-1.283391e-01
-1.161256e-01
-1.040696e-01
-9.349035e-02
-8.542183e-02
-7.989556e-02
-7.619881e-02
-7.363730e-02
-7.187401e-02
-7.072767e-02
-7.001130e-02
-6.969006e-02
-7.014017e-02
-7.218784e-02
-7.670235e-02
-8.390050e-02
-9.303137e-02
-1.028874e-01
-1.126253e-01
-1.219878e-01
-1.307838e-01
-1.383402e-01
-1.435795e-01
-1.457075e-01
-1.449586e-01
-1.428404e-01
-1.416586e-01
-1.434790e-01
-1.491152e-01
-1.578786e-01
-1.682340e-01
-1.787329e-01
-1.885816e-01
-1.977321e-01
-2.066875e-01
-2.162009e-01
-2.269377e-01
-2.390711e-01
-2.519149e-01
-2.640688e-01
-2.743185e-01
-2.825602e-01
-2.897697e-01
-2.971443e-01
-3.054367e-01
-3.149395e-01
-3.256419e-01
-3.372276e-01
-3.492193e-01
-3.613522e-01
-3.736191e-01
-3.857667e-01
-3.968976e-01
-4.057605e-01
-4.114849e-01
-4.141666e-01
-4.149946e-01
-4.158875e-01
-4.187399e-01
-4.245587e-01
-4.330261e-01
-4.429138e-01
-4.529975e-01
-4.625038e-01
-4.707964e-01
-4.770890e-01
-4.808208e-01
-4.822959e-01
-4.828104e-01
-4.839767e-01
-4.866639e-01
-4.903704e-01
-4.935625e-01
-4.946742e-01
-4.929675e-01
-4.887255e-01
-4.828060e-01
-4.760188e-01
-4.689108e-01
-4.620375e-01
-4.561585e-01
-4.519725e-01
-4.497358e-01
-4.492409e-01
-4.500357e-01
-4.514045e-01
-4.521364e-01
-4.506948e-01
-4.460159e-01
-4.382424e-01
-4.285493e-01
-4.181063e-01
-4.072237e-01
-3.956531e-01
-3.836360e-01
-3.722228e-01
-3.623153e-01
-3.536783e-01
-3.452657e-01
-3.365505e-01
-3.283676e-01
-3.223291e-01
-3.193061e-01
-3.183343e-01
-3.168545e-01
-3.120635e-01
-3.023522e-01
-2.878238e-01
-2.696625e-01
-2.491091e-01
-2.270315e-01
-2.042465e-01
-1.818533e-01
-1.609509e-01
-1.420173e-01
-1.246812e-01
-1.081735e-01
-9.207736e-02
-7.672341e-02
-6.289264e-02
-5.112323e-02
-4.124663e-02
-3.251675e-02
-2.412277e-02
-1.556247e-02
-6.622636e-03
2.811093e-03
1.275515e-02
2.290873e-02
3.262214e-02
4.134845e-02
4.915999e-02
5.660846e-02
6.398864e-02
7.092213e-02
7.677504e-02
8.134227e-02
8.502244e-02
8.844670e-02
9.211450e-02
9.643163e-02
1.019645e-01
1.094158e-01
1.190979e-01
1.302645e-01
1.410420e-01
1.493661e-01
1.544094e-01
1.573271e-01
1.605200e-01
1.658638e-01
1.733691e-01
1.814001e-01
1.881016e-01
1.926583e-01
1.954739e-01
1.975297e-01
1.997229e-01
2.026279e-01
2.064844e-01
2.110945e-01
2.157633e-01
2.196435e-01
2.224413e-01
2.248867e-01
2.284351e-01
2.344319e-01
2.435188e-01
2.556238e-01
2.701616e-01
2.861314e-01
3.023040e-01
3.177237e-01
3.322759e-01
3.467510e-01
3.621583e-01
3.788305e-01
3.961613e-01
4.131551e-01
4.291238e-01
4.438509e-01
4.573178e-01
4.696005e-01
4.810612e-01
4.922868e-01
5.035619e-01
5.144898e-01
5.243071e-01
5.325435e-01
5.392813e-01
5.448957e-01
5.497713e-01
5.542172e-01
5.583483e-01
5.619203e-01
5.643573e-01
5.649810e-01
5.632857e-01
5.592001e-01
5.532056e-01
5.461438e-01
5.388008e-01
5.316249e-01
5.248497e-01
5.189098e-01
5.146746e-01
5.131752e-01
5.150069e-01
5.198291e-01
5.262933e-01
5.325261e-01
5.369500e-01
5.389930e-01
5.393469e-01
5.395591e-01
5.409365e-01
5.434457e-01
5.457526e-01
5.466199e-01
5.463212e-01
5.464686e-01
5.482641e-01
5.509697e-01
5.522507e-01
5.500272e-01
5.439928e-01
5.355989e-01
5.269333e-01
5.196389e-01
5.144990e-01
5.115080e-01
5.099897e-01
5.086523e-01
5.058257e-01
4.999958e-01
4.903143e-01
4.768369e-01
4.606269e-01
4.436263e-01
4.278872e-01
4.144693e-01
4.031521e-01
3.934753e-01
3.859749e-01
3.820270e-01
3.823317e-01
3.858067e-01
3.902358e-01
3.939696e-01
3.968192e-01
3.993245e-01
4.015252e-01
4.028555e-01
4.032653e-01
4.040234e-01
4.069966e-01
4.131585e-01
4.220361e-01
4.324521e-01
4.433309e-01
4.536591e-01
4.620518e-01
4.668427e-01
4.670011e-01
4.632727e-01
4.584268e-01
4.559082e-01
4.575260e-01
4.621241e-01
4.667578e-01
4.693511e-01
4.701626e-01
4.710218e-01
4.737234e-01
4.790529e-01
4.866229e-01
4.951262e-01
5.028419e-01
5.084449e-01
5.119587e-01
5.151249e-01
5.204466e-01
5.293941e-01
5.414095e-01
5.545198e-01
5.666726e-01
5.766062e-01
5.840378e-01
5.895996e-01
5.946492e-01
6.006307e-01
6.081771e-01
6.168520e-01
6.257990e-01
6.344760e-01
6.427922e-01
6.508282e-01
6.585372e-01
6.655438e-01
6.711208e-01
6.744216e-01
6.748249e-01
6.721524e-01
6.667052e-01
6.592166e-01
6.507875e-01
6.427086e-01
6.360764e-01
6.313536e-01
6.281928e-01
6.256789e-01
6.228895e-01
6.194728e-01
6.159052e-01
6.133268e-01
6.131013e-01
6.162972e-01
6.233173e-01
6.338188e-01
6.468397e-01
6.610855e-01
6.754520e-01
6.895518e-01
7.037013e-01
7.182655e-01
7.329281e-01
7.465266e-01
7.576433e-01
7.655830e-01
7.709548e-01
7.753005e-01
7.800777e-01
7.858969e-01
7.925202e-01
7.993278e-01
8.057031e-01
8.111135e-01
8.150582e-01
8.172365e-01
8.179653e-01
8.183105e-01
8.195586e-01
8.224100e-01
8.265349e-01
8.307646e-01
8.337484e-01
8.346087e-01
8.331996e-01
8.299901e-01
8.258518e-01
8.219129e-01
8.193553e-01
8.190049e-01
8.209274e-01
8.244357e-01
8.285411e-01
8.325068e-01
8.361770e-01
8.399423e-01
8.444143e-01
8.500505e-01
8.569525e-01
8.649131e-01
8.736005e-01
8.826627e-01
8.916660e-01
9.000311e-01
9.071358e-01
9.124770e-01
9.156870e-01
9.164776e-01
9.147302e-01
9.107063e-01
9.051430e-01
8.990445e-01
8.932594e-01
8.882027e-01
8.839316e-01
8.803664e-01
8.774001e-01
8.748959e-01
8.726702e-01
8.704987e-01
8.681806e-01
8.657383e-01
8.637153e-01
8.632578e-01
8.656896e-01
8.717881e-01
8.813209e-01
8.931923e-01
9.060368e-01
9.187906e-01
9.309657e-01
9.426707e-01
9.544697e-01
9.671389e-01
9.814107e-01
9.977186e-01
1.015902e+00
1.035073e+00
1.053972e+00
1.071712e+00
1.088239e+00
1.104075e+00
1.119657e+00
1.134935e+00
1.149530e+00
1.163235e+00
1.176369e+00
1.189639e+00
1.203593e+00
1.218218e+00
1.233044e+00
1.247560e+00
1.261498e+00
1.274853e+00
1.287865e+00
1.301061e+00
1.315194e+00
1.330969e+00
1.348576e+00
1.367306e+00
1.385646e+00
1.402115e+00
1.416413e+00
1.429899e+00
1.444725e+00
1.462199e+00
1.481818e+00
1.501777e+00
1.520316e+00
1.536694e+00
1.551156e+00
1.564167e+00
1.575669e+00
1.584983e+00
1.591299e+00
1.594300e+00
1.594483e+00
1.593089e+00
1.591646e+00
1.591272e+00
1.592110e+00
1.593377e+00
1.594065e+00
1.593708e+00
1.592613e+00
1.591481e+00
1.590793e+00
1.590457e+00
1.589945e+00
1.588752e+00
1.586726e+00
1.584021e+00
1.580773e+00
1.576841e+00
1.571833e+00
1.565349e+00
1.557184e+00
1.547378e+00
1.536185e+00
1.523983e+00
1.511121e+00
1.497892e+00
1.484705e+00
1.472204e+00
1.461055e+00
1.451626e+00
1.443907e+00
1.437714e+00
1.432941e+00
1.429681e+00
1.428115e+00
1.428280e+00
1.429970e+00
1.432835e+00
1.436559e+00
1.440881e+00
1.445447e+00
1.449633e+00
1.452638e+00
1.453897e+00
1.453477e+00
1.452104e+00
1.450751e+00
1.450078e+00
1.450056e+00
1.450072e+00
1.449567e+00
1.448678e+00
1.448227e+00
1.449049e+00
1.451337e+00
1.454538e+00
1.457723e+00
1.460039e+00
1.461020e+00
1.460658e+00
1.459230e+00
1.457036e+00
1.454387e+00
1.451829e+00
1.450251e+00
1.450525e+00
1.452901e+00
1.456755e+00
1.461025e+00
1.464962e+00
1.468542e+00
1.472291e+00
1.476788e+00
1.482187e+00
1.488071e+00
1.493710e+00
1.498481e+00
1.502022e+00
1.504009e+00
1.503939e+00
1.501363e+00
1.496474e+00
1.490452e+00
1.485110e+00
1.482063e+00
1.482079e+00
1.484991e+00
1.490231e+00
1.497507e+00
1.506901e+00
1.518278e+00
1.530815e+00
1.543349e+00
1.555197e+00
1.566621e+00
1.578541e+00
1.591874e+00
1.607146e+00
1.624569e+00
1.644238e+00
1.666082e+00
1.689734e+00
1.714604e+00
1.740177e+00
1.766202e+00
1.792554e+00
1.818951e+00
1.844872e+00
1.869773e+00
1.893355e+00
1.915577e+00
1.936428e+00
1.955778e+00
1.973526e+00
1.989880e+00
2.005428e+00
2.020850e+00
2.036543e+00
2.052449e+00
2.068202e+00
2.083526e+00
2.098602e+00
2.114044e+00
2.130342e+00
2.147228e+00
2.163592e+00
2.178061e+00
2.189706e+00
2.198318e+00
2.204139e+00
2.207448e+00
2.208423e+00
2.207370e+00
2.204909e+00
2.201759e+00
2.198243e+00
2.194055e+00
2.188543e+00
2.181238e+00
2.172171e+00
2.161830e+00
2.150897e+00
2.140013e+00
2.129651e+00
2.120079e+00
2.111405e+00
2.103662e+00
2.096905e+00
2.091242e+00
2.086713e+00
2.083072e+00
2.079687e+00
2.075730e+00
2.070580e+00
2.064098e+00
2.056508e+00
2.048069e+00
2.038875e+00
2.028918e+00
2.018239e+00
2.007002e+00
1.995504e+00
1.984116e+00
1.973195e+00
1.962957e+00
1.953368e+00
1.944120e+00
1.934702e+00
1.924615e+00
1.913645e+00
1.902031e+00
1.890310e+00
1.878921e+00
1.867876e+00
1.856747e+00
1.844973e+00
1.832300e+00
1.819046e+00
1.805971e+00
1.793835e+00
1.783033e+00
1.773525e+00
1.764984e+00
1.757017e+00
1.749424e+00
1.742360e+00
1.736230e+00
1.731293e+00
1.727344e+00
1.723764e+00
1.719883e+00
1.715324e+00
1.710118e+00
1.704601e+00
1.699228e+00
1.694435e+00
1.690582e+00
1.687898e+00
1.686343e+00
1.685494e+00
1.684612e+00
1.682919e+00
1.679941e+00
1.675702e+00
1.670684e+00
1.665570e+00
1.660931e+00
1.657023e+00
1.653748e+00
1.650761e+00
1.647712e+00
1.644444e+00
1.640964e+00
1.637250e+00
1.633178e+00
1.628668e+00
1.623816e+00
1.618832e+00
1.613934e+00
1.609346e+00
1.605344e+00
1.602249e+00
1.600320e+00
1.599643e+00
1.600128e+00
1.601667e+00
1.604232e+00
1.607732e+00
1.611783e+00
1.615657e+00
1.618473e+00
1.619533e+00
1.618650e+00
1.616286e+00
1.613327e+00
1.610566e+00
1.608280e+00
1.606324e+00
1.604611e+00
1.603443e+00
1.603324e+00
1.604448e+00
1.606347e+00
1.608012e+00
1.608373e+00
1.606750e+00
1.602961e+00
1.597114e+00
1.589325e+00
1.579602e+00
1.567944e+00
1.554569e+00
1.540076e+00
1.525372e+00
1.511345e+00
1.498411e+00
1.486251e+00
1.473972e+00
1.460618e+00
1.445653e+00
1.429095e+00
1.411302e+00
1.392589e+00
1.372962e+00
1.352156e+00
1.329929e+00
1.306337e+00
1.281797e+00
1.256911e+00
1.232202e+00
1.207939e+00
1.184128e+00
1.160580e+00
1.136999e+00
1.113137e+00
1.088999e+00
1.064922e+00
1.041436e+00
1.019021e+00
9.979517e-01
9.782916e-01
9.599762e-01
9.428334e-01
9.265204e-01
9.105146e-01
8.942775e-01
8.775277e-01
8.604101e-01
8.433872e-01
8.268751e-01
8.108660e-01
7.948721e-01
7.783022e-01
7.609850e-01
7.434059e-01
7.264855e-01
7.111237e-01
6.978751e-01
6.869330e-01
6.782870e-01
6.717953e-01
6.670897e-01
6.635066e-01
6.602622e-01
6.568226e-01
6.531641e-01
6.496621e-01
6.466885e-01
6.442938e-01
6.422697e-01
6.405136e-01
6.393168e-01
6.392445e-01
6.406575e-01
6.432938e-01
6.463176e-01
6.488220e-01
6.503776e-01
6.512185e-01
6.519931e-01
6.533410e-01
6.556189e-01
6.588699e-01
6.628915e-01
6.672590e-01
6.713357e-01
6.743697e-01
6.756783e-01
6.748452e-01
6.718579e-01
6.671305e-01
6.613650e-01
6.552582e-01
6.491972e-01
6.431604e-01
6.368978e-01
6.302101e-01
6.230809e-01
6.156027e-01
6.078226e-01
5.996435e-01
5.908341e-01
5.811690e-01
5.706182e-01
5.593935e-01
5.477647e-01
5.358368e-01
5.235282e-01
5.107262e-01
4.974123e-01
4.836605e-01
4.695797e-01
4.552815e-01
4.408652e-01
4.263828e-01
4.117977e-01
3.969841e-01
3.817716e-01
3.659985e-01
3.495380e-01
3.322830e-01
3.141178e-01
2.949206e-01
2.745878e-01
2.530324e-01
2.301538e-01
2.058361e-01
1.800221e-01
1.528360e-01
1.246552e-01
9.605061e-02
6.762214e-02
3.984091e-02
1.298782e-02
-1.281796e-02
-3.756599e-02
-6.131806e-02
-8.417211e-02
-1.062010e-01
-1.273975e-01
-1.477015e-01
-1.671314e-01
-1.859135e-01
-2.044498e-01
-2.230980e-01
-2.419438e-01
-2.607673e-01
-2.792160e-01
-2.970219e-01
-3.141054e-01
-3.305490e-01
-3.465436e-01
-3.623874e-01
-3.785029e-01
-3.953659e-01
-4.132970e-01
-4.322426e-01
-4.517922e-01
-4.714994e-01
-4.912171e-01
-5.111026e-01
-5.313106e-01
-5.517127e-01
-5.719016e-01
-5.914440e-01
-6.101259e-01
-6.279833e-01
-6.451673e-01
-6.618269e-01
-6.780717e-01
-6.939726e-01
-7.095521e-01
-7.247559e-01
-7.394546e-01
-7.535138e-01
-7.668852e-01
-7.796371e-01
-7.919040e-01
-8.038247e-01
-8.155305e-01
-8.271595e-01
-8.388418e-01
-8.506464e-01
-8.625207e-01
-8.742699e-01
-8.856361e-01
-8.964584e-01
-9.067958e-01
-9.168911e-01
-9.270014e-01
-9.372553e-01
-9.476496e-01
-9.581251e-01
-9.685946e-01
-9.789008e-01
-9.888094e-01
-9.981138e-01
-1.006787e+00
-1.015008e+00
-1.022970e+00
-1.030641e+00
-1.037685e+00
-1.043678e+00
-1.048419e+00
-1.052081e+00
-1.055056e+00
-1.057658e+00
-1.059972e+00
-1.061954e+00
-1.063613e+00
-1.065105e+00
-1.066681e+00
-1.068597e+00
-1.071075e+00
-1.074316e+00
-1.078491e+00
-1.083646e+00
-1.089613e+00
-1.096008e+00
-1.102351e+00
-1.108224e+00
-1.113440e+00
-1.118123e+00
-1.122671e+00
-1.127583e+00
-1.133256e+00
-1.139836e+00
-1.147204e+00
-1.155109e+00
-1.163297e+00
-1.171550e+00
-1.179630e+00
-1.187273e+00
-1.194272e+00
-1.200575e+00
-1.206307e+00
-1.211686e+00
-1.216908e+00
-1.222065e+00
-1.227176e+00
-1.232305e+00
-1.237631e+00
-1.243400e+00
-1.249774e+00
-1.256719e+00
-1.264034e+00
-1.271475e+00
-1.278907e+00
-1.286335e+00
-1.293820e+00
-1.301370e+00
-1.308941e+00
-1.316529e+00
-1.324206e+00
-1.332034e+00
-1.339938e+00
-1.347667e+00
-1.354868e+00
-1.361190e+00
-1.366366e+00
-1.370247e+00
-1.372775e+00
-1.373928e+00
-1.373720e+00
-1.372248e+00
-1.369730e+00
-1.366506e+00
-1.363021e+00
-1.359761e+00
-1.357144e+00
-1.355412e+00
-1.354572e+00
-1.354387e+00
-1.354397e+00
-1.354011e+00
-1.352686e+00
-1.350125e+00
-1.346373e+00
-1.341718e+00
-1.336498e+00
-1.330945e+00
-1.325165e+00
-1.319188e+00
-1.313000e+00
-1.306526e+00
-1.299616e+00
-1.292108e+00
-1.283932e+00
-1.275187e+00
-1.266114e+00
-1.256986e+00
-1.247993e+00
