EVENT_NAME: EMILIA_2ND_SHOCK
EVENT_ID: IT-2012-0011
EVENT_DATE_YYYYMMDD: 20120529
EVENT_TIME_HHMMSS: 070002
EVENT_LATITUDE_DEGREE: 44.8417
EVENT_LONGITUDE_DEGREE: 11.0657
EVENT_DEPTH_KM: 8.1
HYPOCENTER_REFERENCE: INGV-CNT_Seismic_Bulletin
MAGNITUDE_W: 6.0
MAGNITUDE_W_REFERENCE: RCMT-INGV
MAGNITUDE_L: 5.8
MAGNITUDE_L_REFERENCE: INGV-CNT_Seismic_Bulletin
FOCAL_MECHANISM: TF
NETWORK: TV
STATION_CODE: MIR01
STATION_NAME: MEDOLLA
STATION_LATITUDE_DEGREE: 44.844042
STATION_LONGITUDE_DEGREE: 11.071316
STATION_ELEVATION_M: 
LOCATION: 
SENSOR_DEPTH_M: 
VS30_M/S: 
SITE_CLASSIFICATION_EC8: C*
MORPHOLOGIC_CLASSIFICATION: 
EPICENTRAL_DISTANCE_KM: 0.5
EARTHQUAKE_BACKAZIMUTH_DEGREE: 239.6
DATE_TIME_FIRST_SAMPLE_YYYYMMDD_HHMMSS: 20120529_065945.000
DATE_TIME_FIRST_SAMPLE_PRECISION: milliseconds
SAMPLING_INTERVAL_S: 0.005000
NDATA: 105
DURATION_S: 
STREAM: HNZ
UNITS: cm/s^2
INSTRUMENT: sensor = Episensor FBA ES-T [Kinemetrics] | digitizer = Unknown [Unknown]
INSTRUMENT_ANALOG/DIGITAL: D
INSTRUMENTAL_FREQUENCY_HZ: 
INSTRUMENTAL_DAMPING: 
FULL_SCALE_G: 
N_BIT_DIGITAL_CONVERTER: 
PGA_CM/S^2: -361.534980
TIME_PGA_S: 22.585000
BASELINE_CORRECTION: BASELINE REMOVED
FILTER_TYPE: BUTTERWORTH
FILTER_ORDER: 2
LOW_CUT_FREQUENCY_HZ: 0.050
HIGH_CUT_FREQUENCY_HZ: 40.000
LATE/NORMAL_TRIGGERED: NT
DATABASE_VERSION: DYNA 1.0
HEADER_FORMAT: DYNA 1.2
DATA_TYPE: ACCELERATION RESPONSE SPECTRUM
PROCESSING: manual (Paolucci et al., 2011)
DATA_TIMESTAMP_YYYYMMDD_HHMMSS: 
DATA_LICENSE: CC-BY4_0 (http://creativecommons.org/licenses/by/4.0/)
DATA_CITATION: ESM working group (2015), European Strong-Motion database, version 0.1, Network Activity 3: Networking acceleration networks and SM data users. Project NERA (www.nera-eu.org)
DATA_CREATOR: ESM working group
ORIGINAL_DATA_MEDIATOR_CITATION: Orfeus - European Integrated Data Archive (EIDA) http://www.orfeus-eu.org/eida/
ORIGINAL_DATA_MEDIATOR: Orfeus - European Integrated Data Archive (EIDA)
ORIGINAL_DATA_CREATOR_CITATION: 
ORIGINAL_DATA_CREATOR: network: TV (INGV Experiments Network); owner: Istituto Nazionale di Geofisica e Vulcanologia
USER1: 
USER2: 
USER3: 
USER4: 
USER5: 
    0.010000   364.972168
    0.020000   395.706604
    0.022000   414.011627
    0.025000   489.632141
    0.029000   636.543274
    0.030000   677.908875
    0.032000   757.604675
    0.035001   899.964172
    0.036000   955.706055
    0.040000  1011.107971
    0.041999  1167.983765
    0.044001  1386.559326
    0.045000  1463.163574
    0.046000  1478.423584
    0.048001  1434.829468
    0.050000  1522.847412
    0.054999  1426.846191
    0.059999  1374.602661
    0.064998  1156.451904
    0.067002  1065.199829
    0.069999   968.644043
    0.075002   959.437317
    0.080000   969.307190
    0.084998  1019.654602
    0.090001   864.443665
    0.095003   733.053528
    0.100000   729.393250
    0.109999   621.382751
    0.120005   787.447754
    0.130005   678.980469
    0.132996   698.626038
    0.139997   654.385864
    0.149993   769.965576
    0.160000   780.834900
    0.170010   813.767273
    0.179986   954.157532
    0.190006  1066.202881
    0.200000  1051.670898
    0.220022   628.048035
    0.239981   496.666260
    0.250000   364.179626
    0.260010   305.971161
    0.280034   206.398834
    0.290023   205.547470
    0.300030   253.769257
    0.320000   226.443954
    0.340020   201.815903
    0.350017   193.269882
    0.359971   186.950134
    0.379939   152.695526
    0.400000   163.349091
    0.419992   151.630478
    0.439947   116.519150
    0.450045   101.849495
    0.459982    91.158875
    0.480077    84.431259
    0.500000    95.705620
    0.550055   115.542641
    0.599880    89.088631
    0.650195    74.574135
    0.667111    81.196770
    0.699790    87.276299
    0.750188    85.300613
    0.800000    97.477615
    0.850340    96.235962
    0.900090    85.697144
    0.949668    76.386467
    1.000000    73.793808
    1.100110    66.765442
    1.200480    75.198135
    1.300390    91.660461
    1.400560    94.104019
    1.499250    84.146835
    1.600000    68.647041
    1.700680    68.556900
    1.798561    70.671814
    1.901141    69.582169
    2.000000    82.176544
    2.197802    78.304916
    2.398082    58.123661
    2.500000    48.468006
    2.597403    39.886543
    2.801121    31.567616
    3.003003    27.212383
    3.205128    23.888895
    3.401361    20.939550
    3.496503    19.589924
    3.597122    18.325806
    3.802281    16.190876
    4.000000    15.864173
    4.201681    16.714180
    4.405286    16.905190
    4.608295    16.565914
    4.807692    15.805167
    5.000000    14.854314
    5.494505    11.500839
    5.988024     8.255102
    6.493506     8.128366
    6.993007     7.905539
    7.518797     7.448378
    8.000000     6.824948
    8.474576     6.130280
    9.009009     5.432917
    9.523809     4.772635
   10.000000     4.169604
