EVENT_NAME: EMILIA_2ND_SHOCK
EVENT_ID: IT-2012-0011
EVENT_DATE_YYYYMMDD: 20120529
EVENT_TIME_HHMMSS: 070002
EVENT_LATITUDE_DEGREE: 44.8417
EVENT_LONGITUDE_DEGREE: 11.0657
EVENT_DEPTH_KM: 8.1
HYPOCENTER_REFERENCE: INGV-CNT_Seismic_Bulletin
MAGNITUDE_W: 6.0
MAGNITUDE_W_REFERENCE: RCMT-INGV
MAGNITUDE_L: 5.8
MAGNITUDE_L_REFERENCE: INGV-CNT_Seismic_Bulletin
FOCAL_MECHANISM: TF
NETWORK: TV
STATION_CODE: MIR01
STATION_NAME: MEDOLLA
STATION_LATITUDE_DEGREE: 44.844042
STATION_LONGITUDE_DEGREE: 11.071316
STATION_ELEVATION_M: 
LOCATION: 
SENSOR_DEPTH_M: 
VS30_M/S: 
SITE_CLASSIFICATION_EC8: C*
MORPHOLOGIC_CLASSIFICATION: 
EPICENTRAL_DISTANCE_KM: 0.5
EARTHQUAKE_BACKAZIMUTH_DEGREE: 239.6
DATE_TIME_FIRST_SAMPLE_YYYYMMDD_HHMMSS: 20120529_065945.000
DATE_TIME_FIRST_SAMPLE_PRECISION: milliseconds
SAMPLING_INTERVAL_S: 0.005000
NDATA: 30001
DURATION_S: 150.005
STREAM: HNN
UNITS: cm/s^2
INSTRUMENT: sensor = Episensor FBA ES-T [Kinemetrics] | digitizer = Unknown [Unknown]
INSTRUMENT_ANALOG/DIGITAL: D
INSTRUMENTAL_FREQUENCY_HZ: 
INSTRUMENTAL_DAMPING: 
FULL_SCALE_G: 
N_BIT_DIGITAL_CONVERTER: 
PGA_CM/S^2: -373.013579
TIME_PGA_S: 24.020000
BASELINE_CORRECTION: BASELINE REMOVED
FILTER_TYPE: BUTTERWORTH
FILTER_ORDER: 2
LOW_CUT_FREQUENCY_HZ: 0.050
HIGH_CUT_FREQUENCY_HZ: 40.000
LATE/NORMAL_TRIGGERED: NT
DATABASE_VERSION: DYNA 1.0
HEADER_FORMAT: DYNA 1.2
DATA_TYPE: ACCELERATION
PROCESSING: manual (Paolucci et al., 2011)
DATA_TIMESTAMP_YYYYMMDD_HHMMSS: 
DATA_LICENSE: CC-BY4_0 (http://creativecommons.org/licenses/by/4.0/)
DATA_CITATION: ESM working group (2015), European Strong-Motion database, version 0.1, Network Activity 3: Networking acceleration networks and SM data users. Project NERA (www.nera-eu.org)
DATA_CREATOR: ESM working group
ORIGINAL_DATA_MEDIATOR_CITATION: Orfeus - European Integrated Data Archive (EIDA) http://www.orfeus-eu.org/eida/
ORIGINAL_DATA_MEDIATOR: Orfeus - European Integrated Data Archive (EIDA)
ORIGINAL_DATA_CREATOR_CITATION: 
ORIGINAL_DATA_CREATOR: network: TV (INGV Experiments Network); owner: Istituto Nazionale di Geofisica e Vulcanologia
USER1: 
USER2: 
USER3: 
USER4: 
USER5: 
[...]
-0.011119
-0.017506
-0.023509
-0.026651
-0.025910
-0.021685
-0.015754
-0.009994
-0.004563
0.000734
0.004892
0.007346
0.008890
0.009778
0.009082
0.006894
0.004081
-0.000163
-0.006038
-0.010986
-0.014054
-0.016907
-0.019270
-0.020299
-0.021245
-0.021474
-0.018883
-0.015375
-0.013573
-0.011866
-0.009121
-0.007069
-0.005425
-0.002827
-0.001303
-0.002874
-0.005735
-0.008073
-0.010096
-0.011501
-0.012384
-0.013385
-0.012949
-0.010890
-0.010959
-0.013643
-0.015047
-0.014776
-0.014282
-0.011421
-0.005842
-0.002040
-0.002709
-0.007119
-0.014299
-0.021211
-0.022928
-0.018369
-0.010684
-0.002806
0.001987
-0.000130
-0.008004
-0.016505
-0.024146
-0.031227
-0.034529
-0.032204
-0.026921
-0.020205
-0.011966
-0.004382
0.000887
0.004829
0.007659
0.009190
0.010591
0.011146
0.008136
0.001420
-0.007133
-0.016726
-0.025558
-0.030068
-0.029266
-0.025038
-0.018678
-0.012027
-0.008363
-0.008205
-0.008419
-0.006742
-0.003763
-0.001235
-0.000617
-0.002186
-0.004879
-0.007957
-0.011904
-0.016900
-0.022127
-0.026529
-0.028998
-0.028856
-0.026720
-0.024252
-0.022532
-0.020454
-0.016041
-0.009376
-0.002415
0.003060
0.005679
0.004445
-0.000386
-0.007263
-0.014169
-0.019481
-0.022521
-0.023460
-0.022774
-0.020744
-0.017942
-0.015662
-0.014150
-0.012062
-0.009151
-0.006804
-0.005928
-0.006586
-0.008631
-0.011416
-0.013778
-0.015006
-0.015309
-0.014953
-0.013958
-0.012807
-0.012357
-0.012990
-0.014104
-0.014762
-0.015020
-0.015469
-0.015860
-0.015854
-0.015841
-0.015871
-0.015076
-0.012839
-0.010346
-0.010087
-0.012839
-0.016547
-0.019147
-0.019992
-0.018670
-0.015877
-0.014000
-0.014004
-0.014275
-0.013976
-0.014119
-0.014630
-0.014795
-0.016147
-0.019474
-0.022209
-0.023266
-0.024317
-0.025088
-0.023992
-0.021587
-0.018949
-0.015800
-0.012795
-0.012028
-0.013421
-0.014352
-0.013804
-0.012937
-0.011929
-0.009913
-0.007097
-0.004756
-0.003837
-0.004537
-0.007053
-0.011497
-0.017140
-0.022898
-0.027566
-0.029541
-0.027921
-0.023190
-0.016851
-0.011568
-0.009843
-0.011589
-0.014799
-0.018215
-0.021435
-0.023053
-0.021266
-0.016715
-0.012146
-0.009334
-0.008695
-0.010597
-0.014918
-0.020548
-0.026132
-0.030549
-0.032770
-0.032119
-0.029215
-0.025615
-0.022088
-0.018576
-0.015108
-0.011830
-0.009790
-0.010743
-0.014443
-0.018640
-0.021965
-0.023909
-0.023797
-0.022129
-0.020491
-0.019475
-0.018934
-0.019441
-0.021189
-0.022486
-0.021657
-0.019451
-0.017363
-0.015146
-0.012623
-0.011644
-0.013648
-0.017481
-0.021063
-0.023568
-0.025280
-0.026208
-0.025803
-0.023833
-0.020567
-0.016797
-0.014306
-0.014350
-0.015722
-0.016540
-0.016822
-0.017662
-0.019358
-0.021450
-0.023693
-0.025836
-0.027225
-0.027627
-0.027018
-0.024516
-0.019840
-0.014984
-0.012031
-0.011188
-0.012256
-0.015007
-0.018108
-0.020215
-0.021112
-0.020966
-0.019634
-0.017219
-0.015040
-0.014493
-0.015160
-0.016351
-0.018906
-0.023128
-0.027306
-0.029940
-0.031069
-0.030675
-0.028224
-0.024329
-0.021075
-0.020188
-0.021543
-0.023578
-0.024838
-0.024706
-0.023334
-0.021559
-0.020134
-0.019485
-0.020277
-0.022782
-0.026641
-0.030961
-0.033422
-0.031931
-0.027526
-0.023083
-0.020547
-0.020344
-0.021721
-0.023423
-0.024411
-0.023983
-0.021867
-0.018790
-0.016867
-0.017910
-0.020893
-0.023128
-0.023914
-0.024480
-0.024986
-0.024826
-0.025089
-0.027104
-0.029884
-0.031947
-0.033057
-0.032796
-0.030774
-0.028131
-0.026143
-0.024541
-0.022710
-0.021111
-0.020513
-0.020613
-0.020632
-0.020746
-0.021377
-0.022465
-0.024643
-0.028790
-0.033838
-0.036957
-0.036943
-0.035774
-0.034684
-0.032110
-0.027779
-0.023573
-0.020157
-0.017385
-0.015933
-0.016151
-0.017419
-0.019024
-0.020730
-0.022918
-0.026010
-0.029088
-0.030369
-0.029493
-0.027207
-0.023805
-0.020207
-0.018199
-0.018295
-0.019500
-0.020889
-0.022232
-0.023405
-0.023729
-0.023036
-0.022998
-0.025379
-0.029854
-0.034637
-0.037656
-0.037516
-0.034782
-0.031644
-0.030209
-0.031919
-0.038701
-0.054538
-0.083522
-0.123259
-0.165650
-0.214691
-0.294984
-0.415140
-0.525516
-0.565116
-0.558334
-0.579053
-0.618158
-0.609850
-0.545223
-0.424153
-0.230171
-0.077491
-0.162052
-0.467040
-0.751750
-0.861134
-0.808220
-0.610128
-0.332366
-0.210229
-0.446596
-0.942593
-1.305261
-1.075922
-0.155941
0.973360
1.771776
2.184374
2.366722
2.312139
1.985885
1.393008
0.494135
-0.568814
-1.275048
-1.097055
-0.041236
1.266718
1.841182
0.873028
-1.298989
-2.880149
-2.212701
0.305747
2.587379
3.034740
1.888609
0.508628
-0.309134
-0.961590
-1.912230
-2.549427
-2.009458
-0.894479
-0.863016
-2.174241
-2.982894
-1.825221
0.310129
1.415042
1.155304
0.785259
0.782156
0.209342
-1.346792
-2.643167
-2.312476
-0.654856
1.088034
2.642601
4.353502
5.280390
3.834888
0.599438
-1.608372
-1.133016
0.690194
1.658122
1.260947
0.485409
0.208706
0.732008
2.325694
5.071806
7.721485
7.594843
3.113129
-3.615550
-8.287129
-8.785219
-6.839346
-5.015891
-3.523216
-0.971632
2.954249
6.760204
8.159570
5.404229
-0.912749
-7.032174
-8.643582
-4.789596
1.552514
6.060594
5.957803
2.128500
-1.401272
-1.597397
0.671680
2.907184
4.208535
4.829228
4.490512
3.009475
1.813932
2.971619
6.288142
8.963848
9.018032
7.556319
6.770816
7.178411
7.613666
6.676031
3.741277
-0.356631
-3.441596
-3.547899
-0.685131
2.752080
3.434371
-0.108103
-5.538879
-8.259120
-5.826875
-0.472770
3.687162
5.043823
4.576083
2.872798
-0.473455
-5.057635
-9.217926
-11.438581
-11.472682
-10.187677
-8.526401
-6.966099
-6.050028
-6.001440
-5.365908
-2.222261
2.806339
6.838169
7.989269
6.944387
5.772071
5.805056
6.498717
6.748193
6.839364
7.671383
8.830188
9.124237
8.167303
6.327643
4.142645
2.344353
1.795691
3.024751
5.171731
5.512365
2.276287
-1.663273
-1.003349
5.441832
13.306737
17.677013
16.704058
11.162666
3.505424
-2.936981
-5.787725
-5.198178
-3.670421
-4.005955
-6.660819
-9.362828
-9.658796
-7.135587
-3.351570
-0.728576
-1.098871
-4.125538
-7.086561
-6.515085
-0.556596
9.057729
17.265745
19.519993
16.004160
10.806498
6.866940
3.814566
0.782710
-1.911518
-4.335572
-6.480673
-5.856811
0.230145
8.917193
12.115436
4.973877
-7.789407
-16.227785
-15.444550
-10.057369
-7.959682
-10.446336
-10.329708
-1.000340
14.205194
24.106472
20.632544
5.535967
-12.650561
-25.243650
-27.974537
-22.503983
-14.144808
-7.415669
-3.870614
-3.166184
-4.843973
-8.971412
-14.883696
-19.730177
-20.180550
-16.132221
-11.114194
-8.297422
-6.912867
-3.402691
3.251257
8.209033
5.674256
-2.406862
-6.207380
1.106827
14.921623
24.772491
26.285185
23.208046
19.450022
14.690182
8.185157
3.162095
5.174659
15.648580
28.323463
34.418224
31.106037
22.856075
15.474561
11.433025
10.016792
9.252722
7.309630
3.480859
-0.870219
-2.796327
-0.859713
2.626792
3.898700
1.567206
-2.859839
-6.980946
-8.825156
-8.002920
-7.342638
-10.990764
-18.525805
-23.547968
-20.253576
-9.485694
1.577097
3.645859
-7.643988
-25.216612
-34.696533
-28.519089
-12.992547
-0.663635
0.653739
-7.736413
-17.387922
-18.894276
-9.211880
5.712238
16.031404
16.309748
9.326287
2.436868
0.307563
0.398246
-4.542506
-18.679564
-37.638157
-51.308014
-51.972752
-39.917549
-22.787336
-10.722829
-10.129132
-18.851032
-27.564419
-28.064150
-19.687611
-7.334389
3.902064
11.601425
16.651625
21.611477
27.192617
31.501141
33.231041
33.265224
32.389294
29.353956
22.166775
11.023078
-0.009558
-4.617675
1.372286
16.868641
36.814297
55.628090
68.778679
72.667595
65.357971
48.622055
29.065620
15.651185
14.341077
24.076237
37.221325
44.435310
40.967239
29.109360
14.444234
0.559308
-12.186307
-24.792921
-38.048119
-51.018723
-59.941193
-61.039314
-56.002003
-52.212543
-55.283756
-62.696880
-66.633049
-61.825302
-49.186291
-34.369267
-25.024645
-26.027155
-34.668579
-43.086487
-46.438080
-46.585129
-47.645020
-49.023457
-43.937050
-26.998169
-2.719011
17.300913
25.787600
24.768585
19.230099
10.544650
-1.350140
-12.743600
-17.761478
-15.118277
-9.249139
-2.612872
9.733076
33.512947
64.021957
85.584450
83.863930
57.823444
20.318855
-10.441895
-21.445133
-12.246117
6.693399
24.260921
36.117840
42.850449
45.256580
42.963066
35.653976
24.152868
10.495481
-2.178919
-10.803701
-15.466155
-19.777847
-25.661089
-30.211687
-30.189396
-26.399485
-21.953091
-19.136963
-18.036222
-16.787525
-14.584975
-13.522686
-15.394784
-19.138876
-22.687206
-24.075085
-20.710049
-11.284392
1.508834
12.519881
17.871462
16.557095
10.658907
4.405511
-0.010025
-5.770198
-17.656630
-35.982590
-57.060089
-77.081078
-92.626999
-101.018143
-103.411171
-104.326218
-105.708397
-104.506775
-97.871902
-87.857239
-79.389999
-75.490059
-75.619514
-77.970436
-81.856491
-86.669449
-90.301941
-91.306633
-91.099480
-91.665474
-93.117317
-95.344383
-99.270035
-104.834778
-110.246086
-113.580704
-113.310310
-108.760422
-101.484245
-94.301582
-88.790001
-85.501938
-85.425774
-88.106102
-88.603691
-80.421463
-62.894894
-41.931534
-22.558075
-4.815041
13.433476
34.058731
58.862801
89.805382
128.195663
172.195541
214.682861
245.644867
257.957367
250.363312
225.418686
187.488907
143.685120
102.559891
69.597183
47.217953
38.424683
44.373714
59.209160
73.953415
85.122849
94.491203
101.893021
103.706116
98.594536
91.080055
89.140968
100.309975
127.648209
164.398743
193.984192
201.795685
187.827194
163.817200
138.814392
110.857079
72.105011
20.618757
-32.542152
-68.903915
-77.970123
-67.591606
-56.033142
-52.907513
-53.159138
-50.776833
-47.779446
-44.965073
-35.776325
-15.811745
9.985176
31.906874
41.868446
37.473572
23.504066
6.531702
-12.959321
-39.045383
-70.102188
-95.833916
-108.873993
-114.833961
-125.351318
-144.568466
-167.056564
-186.192932
-200.428253
-211.467117
-219.116699
-220.715637
-214.667221
-201.172653
-179.746155
-149.315186
-112.693726
-79.552696
-60.610600
-56.694042
-56.699959
-48.962852
-32.174976
-12.167779
9.001508
34.494709
64.044136
90.118980
103.535889
99.862549
80.364899
49.218121
12.946100
-18.121651
-34.754250
-38.122066
-39.404301
-48.722858
-67.413841
-89.498337
-107.137497
-115.879593
-116.995796
-114.643875
-111.405762
-107.824890
-104.316322
-101.404137
-100.433128
-105.526711
-121.184235
-146.239227
-172.775223
-190.949127
-193.524490
-178.272324
-148.757431
-112.518845
-77.239594
-47.676136
-26.143183
-15.529191
-18.871941
-33.651806
-48.889423
-52.114319
-40.041981
-19.605330
2.184387
24.832848
48.809383
69.614212
82.689201
90.425751
99.069557
110.506500
120.921700
126.614510
128.311569
129.598724
132.847488
137.996155
144.605560
152.870163
162.586548
173.244736
184.390945
193.422195
194.576813
183.753403
164.318115
146.054688
138.289246
144.181030
159.822067
177.349396
189.727676
193.888519
188.963226
171.304565
135.612076
85.830055
39.497993
12.126173
1.855424
-2.309205
-5.062493
-5.133757
-2.065042
2.575678
4.621627
-1.863663
-17.945898
-36.031246
-47.309471
-51.896637
-57.748730
-69.805840
-83.600258
-89.218575
-79.782295
-58.342155
-36.532688
-23.287498
-17.412798
-13.866003
-12.313262
-16.527515
-28.723709
-46.917339
-67.151512
-85.966217
-99.998581
-106.184929
-103.677719
-94.046005
-80.497536
-67.817741
-60.555843
-60.026936
-64.493958
-71.866127
-80.586014
-88.817108
-94.624107
-96.502686
-93.138824
-84.236862
-72.222351
-61.234009
-53.527157
-47.720646
-40.724915
-31.143522
-21.179356
-15.386064
-17.118839
-25.606981
-36.274048
-43.981010
-45.538811
-39.379444
-24.921387
-3.443342
21.489401
45.538269
66.139381
83.789192
100.267395
115.512207
126.587982
129.950775
125.417511
117.485832
111.551018
109.458557
108.675911
103.939568
90.628876
69.046478
44.842556
24.045139
9.319581
2.067722
4.322602
14.855832
27.063814
35.807491
43.510849
55.010880
69.359520
80.970276
86.671188
88.024971
88.022446
88.133812
87.842171
86.055527
83.503746
82.407379
82.896591
82.706566
81.841431
84.600052
95.293228
113.307709
133.012527
147.982437
154.866318
153.351151
145.252472
135.969452
133.118607
139.428528
148.270584
148.577881
134.151901
107.893143
77.710617
49.727589
25.796053
5.491604
-11.621297
-24.728157
-30.332584
-22.132845
5.231122
50.587238
104.504562
154.049362
190.188416
211.299500
220.306900
219.893127
211.699188
198.781555
185.720261
175.351913
166.857635
157.904022
148.047134
139.280029
133.429459
130.039520
127.289978
124.270416
121.672768
120.639816
121.625916
124.312943
127.799622
130.205597
128.728043
121.408966
108.916862
93.916710
79.298645
67.923019
63.130867
67.713745
81.992943
103.816612
130.616211
159.799088
186.553864
204.326126
209.311691
202.178696
185.423172
162.422195
138.243958
117.987762
104.599747
98.625832
97.984962
98.304199
95.559662
88.285439
77.288383
64.712006
53.080021
43.895954
37.089455
31.565237
25.699337
17.911570
7.404011
-5.826401
-21.625303
-40.104156
-61.524452
-85.980095
-113.700104
-145.995789
-184.980377
-230.875092
-279.424286
-322.980133
-354.713440
-371.547424
-373.013580
-358.051147
-323.859222
-268.926971
-198.077866
-123.378777
-57.839191
-7.953848
27.549809
53.752853
75.554398
95.838493
115.430161
134.006699
151.367126
168.630478
188.289505
212.685516
242.243729
274.796448
306.104950
330.653259
342.408386
337.156830
316.005341
285.736908
254.583725
228.078247
208.581421
196.136108
188.025558
179.170929
165.060532
144.228195
117.941452
88.790863
59.631207
32.534595
8.308626
-12.912936
-30.861343
-44.715248
-53.871540
-60.026611
-67.123672
-76.893425
-85.285515
-86.055801
-78.028633
-67.128227
-61.393208
-64.916229
-75.843933
-88.892914
-99.533981
-106.538910
-111.560951
-116.738838
-122.735497
-129.089432
-135.788528
-143.434875
-152.170074
-161.576920
-171.249100
-180.199509
-185.823715
-184.473358
-173.687759
-154.081970
-128.920990
-101.868523
-75.665672
-52.626617
-34.677864
-21.980507
-12.342512
-2.722365
8.997861
23.674313
41.169510
60.312271
79.374016
97.136093
112.999725
125.986908
134.315994
136.191254
130.821487
118.850334
102.288498
84.130913
67.142006
51.796478
35.711891
16.587709
-4.661914
-25.610973
-46.314442
-68.901199
-93.877090
-118.980194
-140.532181
-154.947571
-161.397812
-164.195419
-170.415054
-184.041351
-203.271652
-223.234482
-240.451080
-255.247406
-270.257446
-286.283691
-300.642456
-310.253632
-314.841400
-316.345245
-316.465393
-315.751221
-314.782043
-314.991455
-317.399994
-321.313202
-325.225739
-328.527588
-331.705414
-334.907013
-336.492584
-333.562653
-324.594055
-311.298462
-297.319794
-285.723175
-278.308929
-275.674164
-275.878235
-274.101776
-266.242279
-252.757004
-237.201767
-222.002396
-207.985001
-196.531174
-188.626907
-182.307938
-174.392731
-164.802078
-156.600067
-151.882446
-149.731232
-147.807602
-144.156769
-138.074158
-130.740112
-124.610916
-121.356804
-120.663139
-121.019066
-120.920670
-119.292473
-115.610886
-110.224777
-104.625900
-101.029915
-100.861809
-103.235603
-105.405167
-105.051674
-101.935081
-97.398277
-92.654243
-87.893379
-83.252388
-79.957161
-79.152519
-79.624954
-78.284897
-73.500160
-66.842583
-61.148861
-57.826618
-56.236629
-54.649071
-51.477211
-46.781406
-43.237942
-43.968712
-48.150394
-50.999859
-49.699821
-46.242615
-42.788551
-38.010422
-29.550802
-16.991730
-1.816183
13.509677
26.442596
35.689293
42.114590
47.933437
54.575153
61.854069
69.688423
79.507118
92.760483
108.705238
124.744194
138.692947
150.185226
159.779541
166.190506
164.009064
145.515961
107.704651
58.872360
15.358490
-11.352354
-22.652782
-26.987556
-30.304596
-33.934082
-37.257191
-39.508560
-40.290985
-39.583458
-37.514763
-34.345116
-30.772940
-28.048477
-27.148115
-27.535559
-27.330141
-25.274675
-22.200590
-19.870670
-18.638386
-17.250006
-14.964057
-12.697263
-11.644532
-11.576897
-10.884736
-7.745390
-1.178085
8.262979
18.629807
28.092583
36.507496
45.089211
54.576439
64.106110
72.155769
78.647766
85.579964
94.730972
104.992996
113.392731
119.195587
125.487129
135.435593
148.051849
159.343491
166.711639
169.818268
168.371872
162.893799
157.132248
155.918610
160.549438
168.245316
175.241943
178.965164
178.057190
171.724808
159.510391
141.527649
118.840752
93.723701
69.392265
49.009884
34.480686
25.967966
22.627832
23.660370
28.305422
35.300140
43.223461
50.979717
57.284920
60.663670
60.957302
60.079170
60.404457
62.660122
65.691856
68.007339
69.231575
70.282776
72.707489
77.914742
86.375526
96.956017
107.113220
114.234543
117.191330
116.895966
115.565117
115.226036
116.539703
119.062027
122.567650
127.573105
134.402893
142.236176
149.387115
154.513458
157.461319
158.826950
159.171097
159.369110
161.167297
166.159241
174.252609
183.857376
193.318680
201.518112
207.324341
209.275269
205.831573
194.768860
172.030991
133.933914
83.388931
31.853146
-9.229500
-37.927719
-59.525398
-77.818672
-93.056885
-105.572456
-117.063004
-129.053665
-141.877640
-154.854477
-166.943695
-177.684891
-188.211334
-200.775543
-215.800934
-229.387619
-235.318634
-230.148788
-215.279205
-193.886093
-167.537460
-136.742615
-103.326759
-70.461693
-40.713829
-15.420372
4.656125
19.797691
31.938553
43.107517
53.512085
62.276306
69.579582
76.855545
84.935318
92.940163
99.339195
103.668518
106.857010
109.991905
113.166809
115.789299
117.841721
120.328316
123.985359
127.565361
127.889282
121.751183
107.760612
87.258263
64.523384
45.526733
35.087242
34.819607
43.510483
58.104282
73.866371
85.393509
89.143723
84.964104
75.010513
61.745689
47.099052
32.627411
19.487963
8.089995
-1.993045
-11.637599
-21.539515
-31.800842
-41.950005
-51.142902
-58.384892
-62.911160
-64.717636
-64.734291
-64.171471
-63.621265
-62.908855
-61.592541
-59.342243
-56.082569
-52.175793
-48.286102
-44.542534
-39.971035
-33.474331
-25.528894
-18.226286
-13.265186
-10.518252
-8.840363
-7.160890
-4.034915
2.689072
14.364884
29.954714
46.693676
62.139774
75.024094
84.444801
89.335548
89.181358
84.491982
76.013985
64.160278
49.596344
33.383430
16.088207
-2.237356
-20.982386
-38.987354
-55.695976
-71.225967
-85.153641
-96.054001
-102.628067
-105.132912
-105.614632
-106.535370
-108.726784
-110.661369
-109.957329
-104.973587
-94.275986
-75.871223
-49.254360
-18.450800
8.723762
25.357487
29.043507
21.723223
8.115831
-5.811686
-15.367546
-19.477739
-20.206896
-20.029648
-19.808456
-18.990105
-17.037125
-14.184063
-10.893314
-7.066425
-2.100858
4.131912
10.310598
14.035230
13.561399
8.968113
1.566139
-7.209685
-16.194712
-24.618069
-32.242817
