EVENT_NAME: EMILIA_2ND_SHOCK
EVENT_ID: IT-2012-0011
EVENT_DATE_YYYYMMDD: 20120529
EVENT_TIME_HHMMSS: 070002
EVENT_LATITUDE_DEGREE: 44.8417
EVENT_LONGITUDE_DEGREE: 11.0657
EVENT_DEPTH_KM: 8.1
HYPOCENTER_REFERENCE: INGV-CNT_Seismic_Bulletin
MAGNITUDE_W: 6.0
MAGNITUDE_W_REFERENCE: RCMT-INGV
MAGNITUDE_L: 5.8
MAGNITUDE_L_REFERENCE: INGV-CNT_Seismic_Bulletin
FOCAL_MECHANISM: TF
NETWORK: TV
STATION_CODE: MIR02
STATION_NAME: MIRANDOLA MRN
STATION_LATITUDE_DEGREE: 44.886948
STATION_LONGITUDE_DEGREE: 11.073198
STATION_ELEVATION_M: 
LOCATION: 
SENSOR_DEPTH_M: 
VS30_M/S: 
SITE_CLASSIFICATION_EC8: C*
MORPHOLOGIC_CLASSIFICATION: 
EPICENTRAL_DISTANCE_KM: 5.1
EARTHQUAKE_BACKAZIMUTH_DEGREE: 186.7
DATE_TIME_FIRST_SAMPLE_YYYYMMDD_HHMMSS: 20120529_065950.000
DATE_TIME_FIRST_SAMPLE_PRECISION: milliseconds
SAMPLING_INTERVAL_S: 0.005000
NDATA: 12601
DURATION_S: 63.005
STREAM: HNZ
UNITS: cm
INSTRUMENT: sensor = Episensor FBA ES-T [Kinemetrics] | digitizer = Unknown [Unknown]
INSTRUMENT_ANALOG/DIGITAL: D
INSTRUMENTAL_FREQUENCY_HZ: 
INSTRUMENTAL_DAMPING: 
FULL_SCALE_G: 
N_BIT_DIGITAL_CONVERTER: 
PGD_CM: 5.062914
TIME_PGD_S: 19.335000
BASELINE_CORRECTION: BASELINE REMOVED
FILTER_TYPE: BUTTERWORTH
FILTER_ORDER: 2
LOW_CUT_FREQUENCY_HZ: 0.050
HIGH_CUT_FREQUENCY_HZ: 40.000
LATE/NORMAL_TRIGGERED: NT
DATABASE_VERSION: DYNA 1.0
HEADER_FORMAT: DYNA 1.2
DATA_TYPE: DISPLACEMENT
PROCESSING: manual (Paolucci et al., 2011)
DATA_TIMESTAMP_YYYYMMDD_HHMMSS: 20141028_094514.539
DATA_LICENSE: CC-BY4_0 (http://creativecommons.org/licenses/by/4.0/)
DATA_CITATION: ESM working group (2015), European Strong-Motion database, version 0.1, Network Activity 3: Networking acceleration networks and SM data users. Project NERA (www.nera-eu.org)
DATA_CREATOR: ESM working group
ORIGINAL_DATA_MEDIATOR_CITATION: Orfeus - European Integrated Data Archive (EIDA) http://www.orfeus-eu.org/eida/
ORIGINAL_DATA_MEDIATOR: Orfeus - European Integrated Data Archive (EIDA)
ORIGINAL_DATA_CREATOR_CITATION: 
ORIGINAL_DATA_CREATOR: network: TV (INGV Experiments Network); owner: Istituto Nazionale di Geofisica e Vulcanologia
USER1: /home/dyna/processing-itaca/processing.py /var/www/processing/tmp/Lucia//TV.MIR02..HNE.D.20120529.070003.X.ACC.ASC /var/www/processing/tmp/Lucia//TV.MIR02..HNN.D.20120529.070003.X.ACC.ASC /var/www/processing/tmp/Lucia//TV.MIR02..HNZ.D.20120529.070003.X.ACC.ASC --tmp /var/www/processing/tmp/Lucia/ --le 0.050 --he 40.000 --ln 0.050 --hn 40.000 --lz 0.050 --hz 40.000 --fo 2 --ca 50 --cz 180 --ta 5 --tz 5 --mf 1 --rf 0 --tr NT
USER2: 
USER3: 
USER4: 
USER5: 
[...]
-2.061857e+00
-2.065047e+00
-2.068239e+00
-2.071432e+00
-2.074627e+00
-2.077823e+00
-2.081020e+00
-2.084219e+00
-2.087420e+00
-2.090622e+00
-2.093828e+00
-2.097035e+00
-2.100244e+00
-2.103455e+00
-2.106668e+00
-2.109883e+00
-2.113100e+00
-2.116320e+00
-2.119541e+00
-2.122765e+00
-2.125991e+00
-2.129219e+00
-2.132448e+00
-2.135680e+00
-2.138913e+00
-2.142147e+00
-2.145383e+00
-2.148621e+00
-2.151861e+00
-2.155103e+00
-2.158347e+00
-2.161593e+00
-2.164840e+00
-2.168090e+00
-2.171342e+00
-2.174595e+00
-2.177849e+00
-2.181105e+00
-2.184363e+00
-2.187622e+00
-2.190884e+00
-2.194148e+00
-2.197415e+00
-2.200684e+00
-2.203955e+00
-2.207228e+00
-2.210503e+00
-2.213780e+00
-2.217058e+00
-2.220338e+00
-2.223620e+00
-2.226903e+00
-2.230188e+00
-2.233474e+00
-2.236762e+00
-2.240052e+00
-2.243345e+00
-2.246641e+00
-2.249939e+00
-2.253238e+00
-2.256536e+00
-2.259824e+00
-2.263086e+00
-2.266293e+00
-2.269408e+00
-2.272396e+00
-2.275227e+00
-2.277869e+00
-2.280283e+00
-2.282431e+00
-2.284304e+00
-2.285929e+00
-2.287347e+00
-2.288573e+00
-2.289592e+00
-2.290412e+00
-2.291086e+00
-2.291662e+00
-2.292104e+00
-2.292253e+00
-2.291889e+00
-2.290853e+00
-2.289191e+00
-2.287184e+00
-2.285223e+00
-2.283567e+00
-2.282193e+00
-2.280897e+00
-2.279534e+00
-2.278197e+00
-2.277119e+00
-2.276423e+00
-2.275998e+00
-2.275693e+00
-2.275587e+00
-2.275976e+00
-2.277105e+00
-2.278943e+00
-2.281181e+00
-2.283367e+00
-2.285099e+00
-2.286251e+00
-2.287062e+00
-2.287919e+00
-2.289056e+00
-2.290513e+00
-2.292384e+00
-2.294895e+00
-2.298128e+00
-2.301808e+00
-2.305554e+00
-2.309278e+00
-2.313220e+00
-2.317596e+00
-2.322305e+00
-2.326971e+00
-2.331184e+00
-2.334696e+00
-2.337473e+00
-2.339634e+00
-2.341334e+00
-2.342657e+00
-2.343557e+00
-2.343882e+00
-2.343478e+00
-2.342332e+00
-2.340641e+00
-2.338726e+00
-2.336911e+00
-2.335530e+00
-2.334933e+00
-2.335265e+00
-2.336246e+00
-2.337374e+00
-2.338398e+00
-2.339451e+00
-2.340653e+00
-2.341794e+00
-2.342531e+00
-2.342777e+00
-2.342744e+00
-2.342683e+00
-2.342740e+00
-2.343016e+00
-2.343582e+00
-2.344425e+00
-2.345489e+00
-2.346805e+00
-2.348504e+00
-2.350618e+00
-2.352948e+00
-2.355239e+00
-2.357467e+00
-2.359898e+00
-2.362797e+00
-2.366123e+00
-2.369557e+00
-2.372821e+00
-2.375914e+00
-2.378962e+00
-2.381828e+00
-2.383940e+00
-2.384713e+00
-2.384218e+00
-2.383314e+00
-2.382997e+00
-2.383693e+00
-2.385221e+00
-2.387284e+00
-2.389760e+00
-2.392478e+00
-2.394978e+00
-2.396686e+00
-2.397255e+00
-2.396627e+00
-2.394888e+00
-2.392239e+00
-2.388991e+00
-2.385442e+00
-2.381849e+00
-2.378659e+00
-2.376583e+00
-2.376232e+00
-2.377656e+00
-2.380289e+00
-2.383319e+00
-2.386101e+00
-2.388387e+00
-2.390371e+00
-2.392487e+00
-2.395001e+00
-2.397774e+00
-2.400600e+00
-2.403728e+00
-2.407763e+00
-2.412855e+00
-2.418179e+00
-2.422543e+00
-2.425577e+00
-2.428094e+00
-2.431175e+00
-2.435084e+00
-2.439302e+00
-2.443475e+00
-2.447969e+00
-2.453436e+00
-2.460042e+00
-2.467301e+00
-2.474492e+00
-2.481059e+00
-2.486693e+00
-2.491220e+00
-2.494485e+00
-2.496336e+00
-2.496787e+00
-2.496251e+00
-2.495575e+00
-2.495711e+00
-2.497228e+00
-2.500089e+00
-2.503876e+00
-2.508168e+00
-2.512653e+00
-2.516952e+00
-2.520549e+00
-2.522945e+00
-2.523844e+00
-2.523285e+00
-2.521667e+00
-2.519591e+00
-2.517570e+00
-2.515866e+00
-2.514607e+00
-2.513901e+00
-2.513746e+00
-2.513927e+00
-2.514091e+00
-2.513915e+00
-2.513272e+00
-2.512387e+00
-2.511826e+00
-2.512137e+00
-2.513362e+00
-2.514930e+00
-2.516222e+00
-2.517289e+00
-2.518733e+00
-2.520716e+00
-2.522403e+00
-2.522715e+00
-2.521530e+00
-2.519856e+00
-2.518865e+00
-2.518985e+00
-2.519907e+00
-2.521110e+00
-2.522275e+00
-2.523350e+00
-2.524418e+00
-2.525560e+00
-2.526772e+00
-2.527979e+00
-2.529222e+00
-2.530878e+00
-2.533476e+00
-2.537126e+00
-2.541123e+00
-2.544189e+00
-2.545309e+00
-2.544513e+00
-2.542925e+00
-2.542036e+00
-2.542791e+00
-2.545142e+00
-2.548288e+00
-2.551319e+00
-2.553739e+00
-2.555546e+00
-2.557008e+00
-2.558431e+00
-2.560004e+00
-2.561692e+00
-2.563175e+00
-2.563883e+00
-2.563333e+00
-2.561681e+00
-2.559948e+00
-2.559426e+00
-2.560648e+00
-2.562980e+00
-2.565459e+00
-2.567957e+00
-2.571302e+00
-2.576341e+00
-2.583225e+00
-2.591463e+00
-2.600137e+00
-2.608054e+00
-2.614241e+00
-2.618572e+00
-2.621684e+00
-2.624109e+00
-2.625726e+00
-2.626208e+00
-2.625794e+00
-2.625444e+00
-2.626214e+00
-2.628593e+00
-2.632498e+00
-2.637836e+00
-2.644886e+00
-2.654064e+00
-2.665304e+00
-2.677608e+00
-2.689237e+00
-2.698364e+00
-2.703635e+00
-2.704421e+00
-2.700826e+00
-2.693418e+00
-2.682953e+00
-2.670456e+00
-2.657430e+00
-2.645663e+00
-2.636600e+00
-2.630705e+00
-2.627355e+00
-2.625345e+00
-2.623431e+00
-2.620554e+00
-2.615997e+00
-2.609650e+00
-2.602069e+00
-2.594137e+00
-2.586670e+00
-2.580352e+00
-2.575606e+00
-2.572170e+00
-2.569110e+00
-2.565638e+00
-2.561722e+00
-2.557750e+00
-2.553843e+00
-2.549731e+00
-2.545212e+00
-2.540553e+00
-2.536345e+00
-2.533034e+00
-2.530637e+00
-2.528880e+00
-2.527402e+00
-2.525613e+00
-2.522588e+00
-2.517640e+00
-2.511285e+00
-2.505416e+00
-2.502172e+00
-2.502380e+00
-2.504893e+00
-2.507334e+00
-2.507601e+00
-2.504805e+00
-2.499079e+00
-2.490971e+00
-2.481173e+00
-2.470496e+00
-2.459626e+00
-2.448772e+00
-2.437728e+00
-2.426475e+00
-2.415692e+00
-2.406407e+00
-2.398981e+00
-2.392421e+00
-2.384690e+00
-2.373784e+00
-2.358760e+00
-2.340156e+00
-2.319828e+00
-2.300394e+00
-2.284134e+00
-2.271527e+00
-2.260901e+00
-2.250306e+00
-2.239944e+00
-2.232041e+00
-2.228117e+00
-2.227055e+00
-2.226006e+00
-2.222556e+00
-2.215980e+00
-2.207134e+00
-2.197540e+00
-2.188310e+00
-2.179536e+00
-2.170665e+00
-2.161645e+00
-2.153300e+00
-2.145819e+00
-2.136969e+00
-2.122505e+00
-2.098695e+00
-2.064590e+00
-2.022468e+00
-1.976654e+00
-1.931379e+00
-1.888285e+00
-1.845294e+00
-1.798654e+00
-1.746951e+00
-1.693116e+00
-1.642497e+00
-1.599150e+00
-1.563876e+00
-1.535469e+00
-1.513277e+00
-1.498052e+00
-1.490539e+00
-1.489834e+00
-1.493243e+00
-1.497580e+00
-1.500560e+00
-1.500957e+00
-1.498201e+00
-1.492764e+00
-1.486592e+00
-1.481870e+00
-1.479029e+00
-1.476430e+00
-1.471785e+00
-1.463095e+00
-1.448355e+00
-1.425491e+00
-1.393557e+00
-1.354241e+00
-1.311813e+00
-1.270909e+00
-1.233977e+00
-1.200883e+00
-1.170675e+00
-1.142976e+00
-1.117265e+00
-1.091357e+00
-1.061893e+00
-1.026935e+00
-9.871650e-01
-9.438280e-01
-8.965050e-01
-8.440071e-01
-7.869105e-01
-7.279827e-01
-6.698412e-01
-6.128290e-01
-5.554838e-01
-4.966175e-01
-4.365681e-01
-3.767284e-01
-3.184420e-01
-2.625290e-01
-2.092870e-01
-1.584892e-01
-1.098016e-01
-6.313731e-02
-1.761147e-02
2.952426e-02
8.132570e-02
1.383606e-01
1.982717e-01
2.578594e-01
3.150492e-01
3.692027e-01
4.202593e-01
4.680967e-01
5.127123e-01
5.546850e-01
5.955605e-01
6.375743e-01
6.817636e-01
7.259306e-01
7.655363e-01
7.973349e-01
8.222351e-01
8.449854e-01
8.710590e-01
9.030156e-01
9.392857e-01
9.764024e-01
1.012136e+00
1.046417e+00
1.080184e+00
1.114293e+00
1.149090e+00
1.183756e+00
1.215783e+00
1.242261e+00
1.262855e+00
1.281637e+00
1.305440e+00
1.339550e+00
1.383792e+00
1.432101e+00
1.476304e+00
1.511425e+00
1.538369e+00
1.562057e+00
1.587109e+00
1.615083e+00
1.645103e+00
1.675870e+00
1.706190e+00
1.734124e+00
1.757479e+00
1.776442e+00
1.795019e+00
1.818007e+00
1.845942e+00
1.874122e+00
1.897104e+00
1.913183e+00
1.924118e+00
1.931954e+00
1.937320e+00
1.940194e+00
1.940995e+00
1.940510e+00
1.939574e+00
1.939652e+00
1.943382e+00
1.953501e+00
1.970506e+00
1.991432e+00
2.011126e+00
2.024665e+00
2.028976e+00
2.023689e+00
2.011672e+00
1.998084e+00
1.987633e+00
1.982429e+00
1.982340e+00
1.986637e+00
1.994623e+00
2.005113e+00
2.016362e+00
2.026861e+00
2.035773e+00
2.042541e+00
2.046686e+00
2.048241e+00
2.047953e+00
2.046858e+00
2.046081e+00
2.047087e+00
2.051228e+00
2.058341e+00
2.065936e+00
2.070308e+00
2.069067e+00
2.063056e+00
2.055873e+00
2.051706e+00
2.053615e+00
2.062701e+00
2.077650e+00
2.095448e+00
2.113234e+00
2.129121e+00
2.141562e+00
2.149748e+00
2.155691e+00
2.164789e+00
2.182506e+00
2.209596e+00
2.240977e+00
2.270236e+00
2.295362e+00
2.319451e+00
2.345943e+00
2.374257e+00
2.400729e+00
2.423246e+00
2.443686e+00
2.465296e+00
2.488669e+00
2.511364e+00
2.530755e+00
2.545904e+00
2.557011e+00
2.564537e+00
2.569485e+00
2.574153e+00
2.581721e+00
2.594143e+00
2.610397e+00
2.627461e+00
2.643104e+00
2.657401e+00
2.672012e+00
2.689117e+00
2.711175e+00
2.740491e+00
2.777991e+00
2.822184e+00
2.869341e+00
2.914972e+00
2.955832e+00
2.991168e+00
3.022434e+00
3.052153e+00
3.082890e+00
3.116548e+00
3.153916e+00
3.194528e+00
3.236842e+00
3.278926e+00
3.319768e+00
3.360041e+00
3.400847e+00
3.441273e+00
3.477527e+00
3.504919e+00
3.521004e+00
3.527264e+00
3.528261e+00
3.529193e+00
3.533682e+00
3.543278e+00
3.558078e+00
3.576632e+00
3.595381e+00
3.609999e+00
3.618575e+00
3.623124e+00
3.627294e+00
3.632753e+00
3.638388e+00
3.642846e+00
3.646786e+00
3.651927e+00
3.658484e+00
3.664447e+00
3.667528e+00
3.667516e+00
3.666418e+00
3.666256e+00
3.667382e+00
3.669481e+00
3.673611e+00
3.682112e+00
3.696017e+00
3.713154e+00
3.729790e+00
3.744138e+00
3.757407e+00
3.771512e+00
3.786516e+00
3.800215e+00
3.809631e+00
3.813042e+00
3.811118e+00
3.806400e+00
3.801703e+00
3.798740e+00
3.797869e+00
3.798947e+00
3.802337e+00
3.808854e+00
3.818541e+00
3.829654e+00
3.839195e+00
3.844566e+00
3.844715e+00
3.839974e+00
3.831182e+00
3.819153e+00
3.804991e+00
3.790564e+00
3.777993e+00
3.768600e+00
3.763011e+00
3.762286e+00
3.768104e+00
3.781355e+00
3.800778e+00
3.823131e+00
3.844671e+00
3.862691e+00
3.876061e+00
3.884750e+00
3.889133e+00
3.889922e+00
3.888728e+00
3.888162e+00
3.890681e+00
3.896984e+00
3.905595e+00
3.914045e+00
3.920499e+00
3.924436e+00
3.926045e+00
3.925245e+00
3.921331e+00
3.913447e+00
3.901237e+00
3.885157e+00
3.866314e+00
3.846096e+00
3.825913e+00
3.807033e+00
3.790320e+00
3.776077e+00
3.764365e+00
3.755427e+00
3.749517e+00
3.746232e+00
3.744227e+00
3.741771e+00
3.737473e+00
3.730331e+00
3.719442e+00
3.704399e+00
3.686310e+00
3.668105e+00
3.653078e+00
3.642604e+00
3.635479e+00
3.629920e+00
3.625886e+00
3.624918e+00
3.628132e+00
3.634990e+00
3.643770e+00
3.652530e+00
3.659496e+00
3.663143e+00
3.662778e+00
3.659247e+00
3.654524e+00
3.650296e+00
3.647366e+00
3.646563e+00
3.649501e+00
3.657569e+00
3.669953e+00
3.683211e+00
3.693463e+00
3.699166e+00
3.701673e+00
3.703373e+00
3.705682e+00
3.708600e+00
3.711562e+00
3.714145e+00
3.715898e+00
3.716024e+00
3.713725e+00
3.708768e+00
3.701545e+00
3.692529e+00
3.681524e+00
3.667432e+00
3.649207e+00
3.627415e+00
3.604576e+00
3.583620e+00
3.566225e+00
3.552777e+00
3.543125e+00
3.536410e+00
3.530545e+00
3.523061e+00
3.512960e+00
3.501481e+00
3.490910e+00
3.482751e+00
3.477226e+00
3.474367e+00
3.474977e+00
3.480249e+00
3.490717e+00
3.505365e+00
3.521169e+00
3.533815e+00
3.539797e+00
3.538455e+00
3.532342e+00
3.525739e+00
3.522343e+00
3.523708e+00
3.529418e+00
3.538394e+00
3.549770e+00
3.562769e+00
3.576363e+00
3.589471e+00
3.601284e+00
3.611273e+00
3.619223e+00
3.625603e+00
3.631774e+00
3.639566e+00
3.650317e+00
3.663950e+00
3.678862e+00
3.692812e+00
3.704067e+00
3.711977e+00
3.716921e+00
3.720274e+00
3.724208e+00
3.730498e+00
3.738811e+00
3.746529e+00
3.750810e+00
3.750922e+00
3.748777e+00
3.747539e+00
3.749647e+00
3.755619e+00
3.764368e+00
3.774727e+00
3.786669e+00
3.800982e+00
3.817944e+00
3.836611e+00
3.855359e+00
3.872935e+00
3.889139e+00
3.904810e+00
3.921244e+00
3.939252e+00
3.958442e+00
3.977321e+00
3.994086e+00
4.007241e+00
4.015791e+00
4.019526e+00
4.019476e+00
4.017867e+00
4.017326e+00
4.019843e+00
4.026071e+00
4.035369e+00
4.046568e+00
4.058825e+00
4.071659e+00
4.084436e+00
4.096367e+00
4.107132e+00
4.117220e+00
4.127703e+00
4.139785e+00
4.154403e+00
4.172233e+00
4.194124e+00
4.221047e+00
4.253069e+00
4.288410e+00
4.323960e+00
4.357109e+00
4.387356e+00
4.416074e+00
4.444484e+00
4.472069e+00
4.497266e+00
4.519382e+00
4.539204e+00
4.557874e+00
4.575828e+00
4.593081e+00
4.610233e+00
4.628631e+00
4.649189e+00
4.671116e+00
4.692055e+00
4.709622e+00
4.723164e+00
4.734503e+00
4.747096e+00
4.764098e+00
4.786793e+00
4.814368e+00
4.844479e+00
4.873754e+00
4.898599e+00
4.916754e+00
4.928476e+00
4.935832e+00
4.940716e+00
4.943966e+00
4.946483e+00
4.950509e+00
4.959010e+00
4.973484e+00
4.992307e+00
5.011316e+00
5.026396e+00
5.036001e+00
5.041687e+00
5.046502e+00
5.052459e+00
5.058863e+00
5.062914e+00
5.062153e+00
5.056522e+00
5.048309e+00
5.040354e+00
5.034313e+00
5.030300e+00
5.027613e+00
5.025606e+00
5.024166e+00
5.023696e+00
5.024695e+00
5.027198e+00
5.030357e+00
5.032493e+00
5.031930e+00
5.028019e+00
5.021207e+00
5.012208e+00
5.001476e+00
4.989301e+00
4.975952e+00
4.961760e+00
4.947431e+00
4.934140e+00
4.922684e+00
4.912328e+00
4.900972e+00
4.887012e+00
4.871212e+00
4.856604e+00
4.846392e+00
4.841817e+00
4.841796e+00
4.844153e+00
4.846972e+00
4.848934e+00
4.848693e+00
4.844465e+00
4.834830e+00
4.820095e+00
4.802619e+00
4.785430e+00
4.770065e+00
4.755587e+00
4.739941e+00
4.722316e+00
4.703880e+00
4.686203e+00
4.669397e+00
4.652245e+00
4.634049e+00
4.615840e+00
4.599641e+00
4.586904e+00
4.577648e+00
4.570637e+00
4.564412e+00
4.558626e+00
4.554341e+00
4.552809e+00
4.554119e+00
4.557175e+00
4.560695e+00
4.563916e+00
4.566376e+00
4.567334e+00
4.565702e+00
4.560603e+00
4.552099e+00
4.541469e+00
4.530600e+00
4.520770e+00
4.512024e+00
4.503811e+00
4.495982e+00
4.488870e+00
4.482539e+00
4.476258e+00
4.468733e+00
4.458819e+00
4.446086e+00
4.430650e+00
4.412419e+00
4.390878e+00
4.366052e+00
4.339524e+00
4.314019e+00
4.291695e+00
4.272682e+00
4.255051e+00
4.236270e+00
4.215099e+00
4.192488e+00
4.170648e+00
4.150955e+00
4.132584e+00
4.113174e+00
4.090791e+00
4.065227e+00
4.037702e+00
4.009738e+00
3.982239e+00
3.955277e+00
3.928475e+00
3.901416e+00
3.873602e+00
3.844282e+00
3.812912e+00
3.780100e+00
3.748014e+00
3.719513e+00
3.696473e+00
3.678674e+00
3.664149e+00
3.650669e+00
3.637083e+00
3.623441e+00
3.610080e+00
3.596872e+00
3.583344e+00
3.569292e+00
3.555129e+00
3.541588e+00
3.529117e+00
3.517703e+00
3.507320e+00
3.498335e+00
3.491210e+00
3.485793e+00
3.481056e+00
3.475518e+00
3.467883e+00
3.457407e+00
3.443970e+00
3.427914e+00
3.409817e+00
3.390469e+00
3.370968e+00
3.352490e+00
3.335693e+00
3.320431e+00
3.306136e+00
3.292259e+00
3.278198e+00
3.263080e+00
3.245985e+00
3.226372e+00
3.204180e+00
3.179629e+00
3.153074e+00
3.124918e+00
3.095588e+00
3.065712e+00
3.036339e+00
3.008732e+00
2.983726e+00
2.961359e+00
2.941185e+00
2.922758e+00
2.905659e+00
2.889268e+00
2.872921e+00
2.856320e+00
2.839613e+00
2.823023e+00
2.806543e+00
2.790096e+00
2.773997e+00
2.759140e+00
2.746600e+00
2.736906e+00
2.729586e+00
2.723354e+00
2.716777e+00
2.708864e+00
2.699107e+00
2.687176e+00
2.672770e+00
2.655885e+00
2.637261e+00
2.618360e+00
2.600577e+00
2.584277e+00
2.568685e+00
2.552702e+00
2.535751e+00
2.517934e+00
2.499562e+00
2.480671e+00
2.461071e+00
2.440842e+00
2.420587e+00
2.400966e+00
2.381984e+00
2.362929e+00
2.343167e+00
2.323010e+00
2.303781e+00
2.286896e+00
2.272728e+00
2.260253e+00
2.247918e+00
2.234969e+00
2.222029e+00
2.210399e+00
2.200943e+00
2.193642e+00
2.187931e+00
2.183066e+00
2.178107e+00
2.171907e+00
2.163579e+00
2.153216e+00
2.142036e+00
2.131518e+00
2.122154e+00
2.113124e+00
2.103333e+00
2.092661e+00
2.081993e+00
2.072181e+00
2.063315e+00
2.055016e+00
2.047143e+00
2.040034e+00
2.034061e+00
2.029044e+00
2.024247e+00
2.019053e+00
2.013438e+00
2.007621e+00
2.001492e+00
1.994628e+00
1.986777e+00
1.978156e+00
1.969225e+00
1.960240e+00
1.951207e+00
1.942355e+00
1.934542e+00
1.928957e+00
1.926275e+00
1.926146e+00
1.927491e+00
1.929200e+00
1.930506e+00
1.930943e+00
1.930245e+00
1.928417e+00
1.925730e+00
1.922401e+00
1.918180e+00
1.912434e+00
1.904765e+00
1.895493e+00
1.885537e+00
1.876005e+00
1.867893e+00
1.861879e+00
1.857966e+00
1.855245e+00
1.852316e+00
1.848269e+00
1.843282e+00
1.838202e+00
1.833528e+00
1.828772e+00
1.822832e+00
1.814946e+00
1.805205e+00
1.794174e+00
1.782246e+00
1.769454e+00
1.755756e+00
1.741443e+00
1.727220e+00
1.713707e+00
1.700731e+00
1.687263e+00
1.672206e+00
1.655283e+00
1.637249e+00
1.619402e+00
1.602887e+00
1.588185e+00
1.574966e+00
1.562326e+00
1.549378e+00
1.535856e+00
1.522196e+00
1.509023e+00
1.496664e+00
1.485197e+00
1.474798e+00
1.465882e+00
1.458958e+00
1.454437e+00
1.452487e+00
1.452927e+00
1.455214e+00
1.458586e+00
1.462293e+00
1.465706e+00
1.468305e+00
1.469756e+00
1.470158e+00
1.470080e+00
1.470116e+00
1.470250e+00
1.469641e+00
1.467084e+00
1.461733e+00
1.453436e+00
1.442424e+00
1.428811e+00
1.412433e+00
1.393186e+00
1.371520e+00
1.348622e+00
1.326067e+00
1.305217e+00
1.286760e+00
1.270612e+00
1.256177e+00
1.242759e+00
1.229787e+00
1.216652e+00
1.202464e+00
1.186164e+00
1.166990e+00
1.144986e+00
1.121236e+00
1.097571e+00
1.075798e+00
1.056947e+00
1.041033e+00
1.027303e+00
1.014621e+00
1.001791e+00
9.877604e-01
9.716134e-01
9.525645e-01
9.302777e-01
9.053444e-01
8.792093e-01
8.532849e-01
8.281083e-01
8.034786e-01
7.792492e-01
7.556294e-01
7.326194e-01
7.094714e-01
6.851423e-01
6.594413e-01
6.335713e-01
6.093629e-01
5.879466e-01
5.690871e-01
5.515478e-01
5.339238e-01
5.152607e-01
4.952157e-01
4.739075e-01
4.516323e-01
4.284922e-01
4.041272e-01
3.779618e-01
3.499426e-01
3.209758e-01
2.924062e-01
2.649904e-01
2.384631e-01
2.120935e-01
1.854986e-01
1.588864e-01
1.327294e-01
1.073145e-01
8.241202e-02
5.725455e-02
3.100685e-02
3.402850e-03
-2.511952e-02
-5.396978e-02
-8.310601e-02
-1.131566e-01
-1.447611e-01
-1.777968e-01
-2.113542e-01
-2.444416e-01
-2.765906e-01
-3.078230e-01
-3.382401e-01
-3.677886e-01
-3.963964e-01
-4.242074e-01
-4.515991e-01
-4.789868e-01
-5.065952e-01
-5.343016e-01
-5.616640e-01
-5.882206e-01
