EVENT_NAME: EMILIA_2ND_SHOCK
EVENT_ID: IT-2012-0011
EVENT_DATE_YYYYMMDD: 20120529
EVENT_TIME_HHMMSS: 070002
EVENT_LATITUDE_DEGREE: 44.8417
EVENT_LONGITUDE_DEGREE: 11.0657
EVENT_DEPTH_KM: 8.1
HYPOCENTER_REFERENCE: INGV-CNT_Seismic_Bulletin
MAGNITUDE_W: 6.0
MAGNITUDE_W_REFERENCE: RCMT-INGV
MAGNITUDE_L: 5.8
MAGNITUDE_L_REFERENCE: INGV-CNT_Seismic_Bulletin
FOCAL_MECHANISM: TF
NETWORK: TV
STATION_CODE: MIR04
STATION_NAME: GAVELLO
STATION_LATITUDE_DEGREE: 44.927433
STATION_LONGITUDE_DEGREE: 11.178312
STATION_ELEVATION_M: 
LOCATION: 
SENSOR_DEPTH_M: 
VS30_M/S: 
SITE_CLASSIFICATION_EC8: C*
MORPHOLOGIC_CLASSIFICATION: 
EPICENTRAL_DISTANCE_KM: 13.0
EARTHQUAKE_BACKAZIMUTH_DEGREE: 223.1
DATE_TIME_FIRST_SAMPLE_YYYYMMDD_HHMMSS: 20120529_065927.000
DATE_TIME_FIRST_SAMPLE_PRECISION: milliseconds
SAMPLING_INTERVAL_S: 0.005000
NDATA: 30001
DURATION_S: 150.005
STREAM: HNE
UNITS: cm
INSTRUMENT: sensor = Episensor FBA ES-T [Kinemetrics] | digitizer = Unknown [Unknown]
INSTRUMENT_ANALOG/DIGITAL: D
INSTRUMENTAL_FREQUENCY_HZ: 
INSTRUMENTAL_DAMPING: 
FULL_SCALE_G: 
N_BIT_DIGITAL_CONVERTER: 
PGD_CM: -7.748815
TIME_PGD_S: 49.215000
BASELINE_CORRECTION: BASELINE REMOVED
FILTER_TYPE: BUTTERWORTH
FILTER_ORDER: 2
LOW_CUT_FREQUENCY_HZ: 0.050
HIGH_CUT_FREQUENCY_HZ: 40.000
LATE/NORMAL_TRIGGERED: NT
DATABASE_VERSION: DYNA 1.0
HEADER_FORMAT: DYNA 1.2
DATA_TYPE: DISPLACEMENT
PROCESSING: manual (Paolucci et al., 2011)
DATA_TIMESTAMP_YYYYMMDD_HHMMSS: 
DATA_LICENSE: CC-BY4_0 (http://creativecommons.org/licenses/by/4.0/)
DATA_CITATION: ESM working group (2015), European Strong-Motion database, version 0.1, Network Activity 3: Networking acceleration networks and SM data users. Project NERA (www.nera-eu.org)
DATA_CREATOR: ESM working group
ORIGINAL_DATA_MEDIATOR_CITATION: Orfeus - European Integrated Data Archive (EIDA) http://www.orfeus-eu.org/eida/
ORIGINAL_DATA_MEDIATOR: Orfeus - European Integrated Data Archive (EIDA)
ORIGINAL_DATA_CREATOR_CITATION: 
ORIGINAL_DATA_CREATOR: network: TV (INGV Experiments Network); owner: Istituto Nazionale di Geofisica e Vulcanologia
USER1: 
USER2: 
USER3: 
USER4: 
USER5: 
[...]
-2.889087e-01
-2.718827e-01
-2.561658e-01
-2.420434e-01
-2.297920e-01
-2.196389e-01
-2.117898e-01
-2.064469e-01
-2.037393e-01
-2.036145e-01
-2.058344e-01
-2.101338e-01
-2.164282e-01
-2.248909e-01
-2.358332e-01
-2.494755e-01
-2.658034e-01
-2.846675e-01
-3.060252e-01
-3.300197e-01
-3.567530e-01
-3.859641e-01
-4.169429e-01
-4.488051e-01
-4.809172e-01
-5.130786e-01
-5.453127e-01
-5.775635e-01
-6.096413e-01
-6.413721e-01
-6.726663e-01
-7.034145e-01
-7.333563e-01
-7.620585e-01
-7.889901e-01
-8.136082e-01
-8.354060e-01
-8.539380e-01
-8.688712e-01
-8.800825e-01
-8.877364e-01
-8.922429e-01
-8.940950e-01
-8.937121e-01
-8.913941e-01
-8.873750e-01
-8.819109e-01
-8.753384e-01
-8.680444e-01
-8.603296e-01
-8.522489e-01
-8.435472e-01
-8.337403e-01
-8.222709e-01
-8.086196e-01
-7.923360e-01
-7.730596e-01
-7.505842e-01
-7.249188e-01
-6.962750e-01
-6.649946e-01
-6.314726e-01
-5.961046e-01
-5.592466e-01
-5.211868e-01
-4.821348e-01
-4.422349e-01
-4.015957e-01
-3.603262e-01
-3.185979e-01
-2.767330e-01
-2.352348e-01
-1.946778e-01
-1.555084e-01
-1.179240e-01
-8.192343e-02
-4.742087e-02
-1.425992e-02
1.785968e-02
4.939816e-02
8.087047e-02
1.127007e-01
1.451445e-01
1.782963e-01
2.121136e-01
2.464192e-01
2.809242e-01
3.153317e-01
3.494779e-01
3.833797e-01
4.171231e-01
4.507006e-01
4.839442e-01
5.165737e-01
5.482927e-01
5.788745e-01
6.081764e-01
6.360300e-01
6.620719e-01
6.857234e-01
7.064410e-01
7.240339e-01
7.387016e-01
7.507570e-01
7.603910e-01
7.677230e-01
7.729664e-01
7.764505e-01
7.785229e-01
7.794919e-01
7.796422e-01
7.792584e-01
7.786288e-01
7.780224e-01
7.776056e-01
7.773170e-01
7.768491e-01
7.758318e-01
7.740217e-01
7.712521e-01
7.672579e-01
7.616493e-01
7.540168e-01
7.439862e-01
7.312134e-01
7.153938e-01
6.962958e-01
6.738538e-01
6.484058e-01
6.209880e-01
5.933226e-01
5.672927e-01
5.443133e-01
5.251848e-01
5.103696e-01
5.002014e-01
4.949155e-01
4.946986e-01
4.997479e-01
5.102036e-01
5.259780e-01
5.466346e-01
5.714636e-01
5.997497e-01
6.310196e-01
6.650599e-01
7.017525e-01
7.409435e-01
7.824743e-01
8.263345e-01
8.728038e-01
9.224329e-01
9.758176e-01
1.033297e+00
1.094795e+00
1.159902e+00
1.228138e+00
1.299142e+00
1.372669e+00
1.448480e+00
1.526264e+00
1.605674e+00
1.686365e+00
1.767958e+00
1.849934e+00
1.931604e+00
2.012265e+00
2.091403e+00
2.168742e+00
2.244157e+00
2.317628e+00
2.389236e+00
2.459166e+00
2.527690e+00
2.595168e+00
2.662032e+00
2.728733e+00
2.795649e+00
2.863000e+00
2.930781e+00
2.998784e+00
3.066730e+00
3.134385e+00
3.201590e+00
3.268194e+00
3.334034e+00
3.399026e+00
3.463310e+00
3.527189e+00
3.590855e+00
3.654191e+00
3.716886e+00
3.778620e+00
3.839060e+00
3.897801e+00
3.954487e+00
4.008968e+00
4.061267e+00
4.111361e+00
4.159044e+00
4.203982e+00
4.245866e+00
4.284495e+00
4.319747e+00
4.351477e+00
4.379490e+00
4.403732e+00
4.424719e+00
4.443830e+00
4.463007e+00
4.483926e+00
4.507336e+00
4.533158e+00
4.561125e+00
4.591232e+00
4.623676e+00
4.658585e+00
4.695907e+00
4.735497e+00
4.777232e+00
4.821062e+00
4.867065e+00
4.915480e+00
4.966642e+00
5.020813e+00
5.078038e+00
5.138092e+00
5.200500e+00
5.264588e+00
5.329525e+00
5.394304e+00
5.457772e+00
5.518828e+00
5.576653e+00
5.630790e+00
5.681021e+00
5.727191e+00
5.769066e+00
5.806292e+00
5.838508e+00
5.865548e+00
5.887561e+00
5.904895e+00
5.917824e+00
5.926333e+00
5.930142e+00
5.928911e+00
5.922422e+00
5.910618e+00
5.893484e+00
5.870905e+00
5.842608e+00
5.808230e+00
5.767482e+00
5.720270e+00
5.666681e+00
5.606855e+00
5.540874e+00
5.468820e+00
5.390868e+00
5.307259e+00
5.218168e+00
5.123620e+00
5.023545e+00
4.917893e+00
4.806707e+00
4.690112e+00
4.568248e+00
4.441236e+00
4.309187e+00
4.172223e+00
4.030473e+00
3.884052e+00
3.733079e+00
3.577696e+00
3.418023e+00
3.254076e+00
3.085820e+00
2.913495e+00
2.738020e+00
2.560966e+00
2.383957e+00
2.208047e+00
2.033738e+00
1.861440e+00
1.691704e+00
1.525026e+00
1.361643e+00
1.201567e+00
1.044749e+00
8.911782e-01
7.409259e-01
5.942660e-01
4.517888e-01
3.144027e-01
1.832117e-01
5.932343e-02
-5.636150e-02
-1.632772e-01
-2.611485e-01
-3.498143e-01
-4.290749e-01
-4.986881e-01
-5.584986e-01
-6.085676e-01
-6.491887e-01
-6.807798e-01
-7.037317e-01
-7.182998e-01
-7.245827e-01
-7.225712e-01
-7.122156e-01
-6.934624e-01
-6.662558e-01
-6.305375e-01
-5.862693e-01
-5.334625e-01
-4.721976e-01
-4.026496e-01
-3.251283e-01
-2.400962e-01
-1.481436e-01
-4.995525e-02
5.369062e-02
1.619035e-01
2.736972e-01
3.880760e-01
5.041476e-01
6.211966e-01
7.387334e-01
8.565598e-01
9.747822e-01
1.093680e+00
1.213496e+00
1.334329e+00
1.456166e+00
1.578970e+00
1.702717e+00
1.827357e+00
1.952774e+00
2.078789e+00
2.205194e+00
2.331798e+00
2.458455e+00
2.585063e+00
2.711555e+00
2.837889e+00
2.964038e+00
3.089963e+00
3.215598e+00
3.340869e+00
3.465748e+00
3.590276e+00
3.714536e+00
3.838585e+00
3.962409e+00
4.085929e+00
4.209054e+00
4.331727e+00
4.453934e+00
4.575644e+00
4.696713e+00
4.816826e+00
4.935506e+00
5.052195e+00
5.166337e+00
5.277396e+00
5.384811e+00
5.487949e+00
5.586103e+00
5.678573e+00
5.764780e+00
5.844333e+00
5.917006e+00
5.982655e+00
6.041127e+00
6.092229e+00
6.135775e+00
6.171648e+00
6.199850e+00
6.220469e+00
6.233594e+00
6.239221e+00
6.237195e+00
6.227240e+00
6.209072e+00
6.182525e+00
6.147571e+00
6.104223e+00
6.052408e+00
5.991924e+00
5.922521e+00
5.844023e+00
5.756434e+00
5.659951e+00
5.554923e+00
5.441803e+00
5.321166e+00
5.193742e+00
5.060422e+00
4.922235e+00
4.780306e+00
4.635796e+00
4.489808e+00
4.343264e+00
4.196841e+00
4.050987e+00
3.905997e+00
3.762073e+00
3.619318e+00
3.477704e+00
3.337053e+00
3.197060e+00
3.057368e+00
2.917666e+00
2.777770e+00
2.637627e+00
2.497276e+00
2.356832e+00
2.216502e+00
2.076596e+00
1.937477e+00
1.799476e+00
1.662860e+00
1.527851e+00
1.394672e+00
1.263561e+00
1.134757e+00
1.008484e+00
8.849420e-01
7.643267e-01
6.468539e-01
5.327853e-01
4.224434e-01
3.162208e-01
2.145856e-01
1.180765e-01
2.727167e-02
-5.727093e-02
-1.350790e-01
-2.057931e-01
-2.691355e-01
-3.248647e-01
-3.727876e-01
-4.128305e-01
-4.450885e-01
-4.698115e-01
-4.873690e-01
-4.982316e-01
-5.029460e-01
-5.020696e-01
-4.960779e-01
-4.853148e-01
-4.700260e-01
-4.504171e-01
-4.266582e-01
-3.988579e-01
-3.670546e-01
-3.312111e-01
-2.912094e-01
-2.468990e-01
-1.982214e-01
-1.453466e-01
-8.872368e-02
-2.900684e-02
3.309273e-02
9.693252e-02
1.619800e-01
2.277862e-01
2.939611e-01
3.601886e-01
4.262567e-01
4.920670e-01
5.576262e-01
6.230393e-01
6.884942e-01
7.542160e-01
8.203994e-01
8.871571e-01
9.545109e-01
1.022409e+00
1.090740e+00
1.159331e+00
1.227952e+00
1.296343e+00
1.364239e+00
1.431396e+00
1.497586e+00
1.562599e+00
1.626254e+00
1.688412e+00
1.748950e+00
1.807734e+00
1.864591e+00
1.919329e+00
1.971786e+00
2.021889e+00
2.069697e+00
2.115399e+00
2.159231e+00
2.201345e+00
2.241712e+00
2.280124e+00
2.316284e+00
2.349896e+00
2.380714e+00
2.408538e+00
2.433188e+00
2.454527e+00
2.472562e+00
2.487575e+00
2.500153e+00
2.511000e+00
2.520637e+00
2.529226e+00
2.536667e+00
2.542802e+00
2.547544e+00
2.550859e+00
2.552672e+00
2.552815e+00
2.551055e+00
2.547197e+00
2.541167e+00
2.533003e+00
2.522753e+00
2.510425e+00
2.496054e+00
2.479785e+00
2.461855e+00
2.442455e+00
2.421640e+00
2.399321e+00
2.375309e+00
2.349353e+00
2.321207e+00
2.290721e+00
2.257910e+00
2.222921e+00
2.185950e+00
2.147181e+00
2.106817e+00
2.065107e+00
2.022345e+00
1.978828e+00
1.934819e+00
1.890518e+00
1.846059e+00
1.801508e+00
1.756878e+00
1.712139e+00
1.667223e+00
1.622036e+00
1.576471e+00
1.530445e+00
1.483929e+00
1.436976e+00
1.389710e+00
1.342297e+00
1.294943e+00
1.247934e+00
1.201680e+00
1.156702e+00
1.113555e+00
1.072694e+00
1.034379e+00
9.986683e-01
9.654805e-01
9.346446e-01
9.059205e-01
8.790219e-01
8.536803e-01
8.297205e-01
8.070868e-01
7.857992e-01
7.658836e-01
7.473248e-01
7.300562e-01
7.139663e-01
6.989006e-01
6.846542e-01
6.709662e-01
6.575245e-01
6.439818e-01
6.299760e-01
6.151546e-01
5.992208e-01
5.820169e-01
5.636108e-01
5.442975e-01
5.244818e-01
5.045336e-01
4.847342e-01
4.653103e-01
4.464608e-01
4.283258e-01
4.109472e-01
3.942607e-01
3.781090e-01
3.622508e-01
3.463848e-01
3.302043e-01
3.134669e-01
2.960423e-01
2.779232e-01
2.591997e-01
2.400115e-01
2.205035e-01
2.008078e-01
1.810473e-01
1.613308e-01
1.417245e-01
1.222126e-01
1.026667e-01
8.284368e-02
6.242084e-02
4.106200e-02
1.848234e-02
-5.511630e-03
-3.100159e-02
-5.793667e-02
-8.611730e-02
-1.152147e-01
-1.448373e-01
-1.746107e-01
-2.042327e-01
-2.334898e-01
-2.622440e-01
-2.904042e-01
-3.179025e-01
-3.446838e-01
-3.706900e-01
-3.958213e-01
-4.198983e-01
-4.426628e-01
-4.638190e-01
-4.830836e-01
-5.002117e-01
-5.149927e-01
-5.272259e-01
-5.366858e-01
-5.431006e-01
-5.461733e-01
-5.456577e-01
-5.414577e-01
-5.336898e-01
-5.226646e-01
-5.087915e-01
-4.924731e-01
-4.740584e-01
-4.538605e-01
-4.321869e-01
-4.093351e-01
-3.855655e-01
-3.610740e-01
-3.359747e-01
-3.102919e-01
-2.839640e-01
-2.568618e-01
-2.288289e-01
-1.997324e-01
-1.695033e-01
-1.381460e-01
-1.057200e-01
-7.231079e-02
-3.801330e-02
-2.935586e-03
3.279358e-02
6.903447e-02
1.056614e-01
1.425852e-01
1.797585e-01
2.171610e-01
2.547723e-01
2.925401e-01
3.303578e-01
3.680633e-01
4.054572e-01
4.423199e-01
4.784070e-01
5.134285e-01
5.470436e-01
5.789023e-01
6.087377e-01
6.364715e-01
6.622629e-01
6.864407e-01
7.093356e-01
7.311247e-01
7.517978e-01
7.712353e-01
7.892843e-01
8.057624e-01
8.204177e-01
8.329066e-01
8.428025e-01
8.496218e-01
8.528563e-01
8.520131e-01
8.466622e-01
8.364928e-01
8.213725e-01
8.013809e-01
7.767848e-01
7.479507e-01
7.152335e-01
6.789062e-01
6.391728e-01
5.962342e-01
5.503258e-01
5.016792e-01
4.504383e-01
3.966006e-01
3.400244e-01
2.804942e-01
2.178081e-01
1.518473e-01
8.260007e-02
1.014460e-02
-6.536435e-02
-1.436745e-01
-2.244056e-01
-3.070657e-01
-3.911217e-01
-4.760810e-01
-5.615373e-01
-6.471821e-01
-7.327984e-01
-8.182579e-01
-9.035245e-01
-9.886550e-01
-1.073785e+00
-1.159102e+00
-1.244816e+00
-1.331133e+00
-1.418227e+00
-1.506210e+00
-1.595111e+00
-1.684884e+00
-1.775438e+00
-1.866663e+00
-1.958446e+00
-2.050654e+00
-2.143144e+00
-2.235786e+00
-2.328514e+00
-2.421343e+00
-2.514348e+00
-2.607615e+00
-2.701219e+00
-2.795220e+00
-2.889671e+00
-2.984592e+00
-3.079907e+00
-3.175368e+00
-3.270542e+00
-3.364923e+00
-3.458163e+00
-3.550222e+00
-3.641305e+00
-3.731618e+00
-3.821205e+00
-3.910035e+00
-3.998187e+00
-4.085886e+00
-4.173392e+00
-4.260892e+00
-4.348460e+00
-4.436035e+00
-4.523386e+00
-4.610120e+00
-4.695741e+00
-4.779734e+00
-4.861633e+00
-4.941076e+00
-5.017838e+00
-5.091835e+00
-5.163079e+00
-5.231580e+00
-5.297266e+00
-5.359978e+00
-5.419510e+00
-5.475657e+00
-5.528222e+00
-5.577001e+00
-5.621770e+00
-5.662284e+00
-5.698320e+00
-5.729721e+00
-5.756440e+00
-5.778557e+00
-5.796267e+00
-5.809846e+00
-5.819605e+00
-5.825860e+00
-5.828913e+00
-5.829039e+00
-5.826468e+00
-5.821383e+00
-5.813935e+00
-5.804267e+00
-5.792532e+00
-5.778892e+00
-5.763502e+00
-5.746498e+00
-5.727998e+00
-5.708107e+00
-5.686930e+00
-5.664570e+00
-5.641126e+00
-5.616674e+00
-5.591269e+00
-5.564945e+00
-5.537719e+00
-5.509594e+00
-5.480573e+00
-5.450684e+00
-5.420017e+00
-5.388744e+00
-5.357137e+00
-5.325563e+00
-5.294469e+00
-5.264330e+00
-5.235597e+00
-5.208650e+00
-5.183746e+00
-5.160978e+00
-5.140255e+00
-5.121350e+00
-5.104000e+00
-5.088003e+00
-5.073272e+00
-5.059825e+00
-5.047758e+00
-5.037230e+00
-5.028456e+00
-5.021709e+00
-5.017313e+00
-5.015608e+00
-5.016900e+00
-5.021402e+00
-5.029169e+00
-5.040048e+00
-5.053673e+00
-5.069526e+00
-5.087057e+00
-5.105786e+00
-5.125363e+00
-5.145553e+00
-5.166195e+00
-5.187174e+00
-5.208431e+00
-5.229997e+00
-5.252013e+00
-5.274697e+00
-5.298267e+00
-5.322881e+00
-5.348610e+00
-5.375452e+00
-5.403341e+00
-5.432164e+00
-5.461773e+00
-5.492009e+00
-5.522732e+00
-5.553838e+00
-5.585262e+00
-5.616985e+00
-5.649032e+00
-5.681474e+00
-5.714424e+00
-5.748017e+00
-5.782388e+00
-5.817647e+00
-5.853864e+00
-5.891067e+00
-5.929239e+00
-5.968326e+00
-6.008241e+00
-6.048874e+00
-6.090104e+00
-6.131822e+00
-6.173940e+00
-6.216390e+00
-6.259122e+00
-6.302102e+00
-6.345316e+00
-6.388761e+00
-6.432430e+00
-6.476300e+00
-6.520333e+00
-6.564498e+00
-6.608775e+00
-6.653157e+00
-6.697623e+00
-6.742132e+00
-6.786620e+00
-6.831008e+00
-6.875211e+00
-6.919134e+00
-6.962680e+00
-7.005748e+00
-7.048235e+00
-7.090036e+00
-7.131040e+00
-7.171141e+00
-7.210250e+00
-7.248299e+00
-7.285237e+00
-7.321020e+00
-7.355606e+00
-7.388964e+00
-7.421079e+00
-7.451953e+00
-7.481588e+00
-7.509973e+00
-7.537066e+00
-7.562800e+00
-7.587097e+00
-7.609876e+00
-7.631065e+00
-7.650586e+00
-7.668345e+00
-7.684244e+00
-7.698219e+00
-7.710274e+00
-7.720484e+00
-7.728956e+00
-7.735797e+00
-7.741101e+00
-7.744964e+00
-7.747482e+00
-7.748745e+00
-7.748815e+00
-7.747721e+00
-7.745454e+00
-7.741974e+00
-7.737215e+00
-7.731091e+00
-7.723506e+00
-7.714371e+00
-7.703615e+00
-7.691177e+00
-7.677000e+00
-7.661026e+00
-7.643204e+00
-7.623497e+00
-7.601884e+00
-7.578353e+00
-7.552893e+00
-7.525476e+00
-7.496053e+00
-7.464554e+00
-7.430893e+00
-7.394976e+00
-7.356700e+00
-7.315971e+00
-7.272705e+00
-7.226834e+00
-7.178303e+00
-7.127068e+00
-7.073092e+00
-7.016343e+00
-6.956803e+00
-6.894482e+00
-6.829441e+00
-6.761805e+00
-6.691769e+00
-6.619582e+00
-6.545526e+00
-6.469901e+00
-6.393009e+00
-6.315139e+00
-6.236526e+00
-6.157325e+00
-6.077622e+00
-5.997475e+00
-5.916932e+00
-5.836040e+00
-5.754832e+00
-5.673319e+00
-5.591498e+00
-5.509361e+00
-5.426918e+00
-5.344202e+00
-5.261270e+00
-5.178191e+00
-5.095025e+00
-5.011809e+00
-4.928553e+00
-4.845241e+00
-4.761840e+00
-4.678299e+00
-4.594543e+00
-4.510480e+00
-4.426001e+00
-4.340990e+00
-4.255331e+00
-4.168926e+00
-4.081711e+00
-3.993673e+00
-3.904847e+00
-3.815297e+00
-3.725088e+00
-3.634264e+00
-3.542840e+00
-3.450804e+00
-3.358132e+00
-3.264796e+00
-3.170770e+00
-3.076031e+00
-2.980568e+00
-2.884393e+00
-2.787541e+00
-2.690080e+00
-2.592095e+00
-2.493685e+00
-2.394948e+00
-2.295970e+00
-2.196820e+00
-2.097546e+00
-1.998177e+00
-1.898726e+00
-1.799203e+00
-1.699618e+00
-1.599984e+00
-1.500319e+00
-1.400652e+00
-1.301024e+00
-1.201496e+00
-1.102139e+00
-1.003031e+00
-9.042540e-01
-8.058867e-01
-7.080085e-01
-6.106989e-01
-5.140366e-01
-4.180976e-01
-3.229549e-01
-2.286812e-01
-1.353493e-01
-4.302388e-02
4.825368e-02
1.384746e-01
2.276534e-01
3.158019e-01
4.029059e-01
4.889199e-01
5.737781e-01
6.574061e-01
7.397254e-01
8.206525e-01
9.000983e-01
9.779710e-01
1.054182e+00
1.128653e+00
1.201324e+00
1.272151e+00
1.341100e+00
1.408140e+00
1.473236e+00
1.536350e+00
1.597448e+00
1.656500e+00
1.713483e+00
1.768397e+00
1.821284e+00
1.872260e+00
1.921546e+00
1.969462e+00
2.016390e+00
2.062674e+00
2.108548e+00
2.154110e+00
2.199368e+00
2.244303e+00
2.288887e+00
2.333077e+00
2.376811e+00
2.420018e+00
2.462638e+00
2.504643e+00
2.546047e+00
2.586920e+00
2.627382e+00
2.667584e+00
2.707688e+00
2.747832e+00
2.788114e+00
2.828596e+00
2.869305e+00
2.910239e+00
2.951366e+00
2.992627e+00
3.033953e+00
3.075289e+00
3.116602e+00
3.157887e+00
3.199163e+00
3.240466e+00
3.281840e+00
3.323322e+00
3.364929e+00
3.406655e+00
3.448475e+00
3.490348e+00
3.532228e+00
3.574064e+00
3.615804e+00
3.657395e+00
3.698791e+00
3.739954e+00
3.780857e+00
3.821486e+00
3.861836e+00
3.901901e+00
3.941675e+00
3.981148e+00
4.020316e+00
4.059182e+00
4.097766e+00
4.136096e+00
4.174214e+00
4.212164e+00
4.249994e+00
4.287746e+00
4.325435e+00
4.363026e+00
4.400429e+00
4.437535e+00
4.474261e+00
4.510578e+00
4.546487e+00
4.581998e+00
4.617108e+00
4.651814e+00
4.686108e+00
4.719985e+00
4.753440e+00
4.786466e+00
4.819048e+00
4.851149e+00
4.882705e+00
4.913622e+00
4.943791e+00
4.973108e+00
5.001483e+00
5.028842e+00
5.055112e+00
5.080216e+00
5.104062e+00
5.126545e+00
5.147554e+00
5.166984e+00
5.184738e+00
5.200723e+00
5.214842e+00
5.226997e+00
5.237099e+00
5.245079e+00
5.250893e+00
5.254507e+00
5.255886e+00
5.254979e+00
5.251722e+00
5.246050e+00
5.237903e+00
5.227236e+00
5.214008e+00
5.198175e+00
5.179686e+00
5.158484e+00
5.134516e+00
5.107742e+00
5.078168e+00
5.045888e+00
5.011141e+00
4.974337e+00
4.935999e+00
4.896627e+00
4.856579e+00
4.816045e+00
4.775106e+00
4.733810e+00
4.692176e+00
4.650171e+00
4.607707e+00
4.564661e+00
4.520899e+00
4.476309e+00
4.430834e+00
4.384492e+00
4.337389e+00
4.289709e+00
4.241664e+00
4.193446e+00
4.145186e+00
4.096961e+00
4.048816e+00
4.000773e+00
3.952823e+00
3.904915e+00
3.856957e+00
3.808854e+00
3.760537e+00
3.711994e+00
3.663263e+00
3.614420e+00
3.565568e+00
3.516817e+00
3.468267e+00
3.420000e+00
3.372076e+00
3.324528e+00
3.277357e+00
3.230535e+00
3.184001e+00
3.137666e+00
3.091431e+00
3.045210e+00
2.998954e+00
2.952655e+00
2.906342e+00
2.860061e+00
2.813855e+00
2.767762e+00
2.721818e+00
2.676064e+00
2.630547e+00
2.585303e+00
2.540362e+00
2.495745e+00
2.451476e+00
2.407586e+00
2.364107e+00
2.321074e+00
2.278519e+00
2.236476e+00
2.194982e+00
2.154084e+00
2.113838e+00
2.074304e+00
2.035546e+00
1.997626e+00
1.960609e+00
1.924554e+00
1.889516e+00
1.855537e+00
1.822646e+00
1.790860e+00
1.760193e+00
1.730655e+00
1.702250e+00
1.674970e+00
1.648788e+00
1.623671e+00
1.599585e+00
1.576505e+00
1.554420e+00
1.533325e+00
1.513226e+00
1.494129e+00
1.476043e+00
1.458970e+00
1.442909e+00
1.427846e+00
1.413764e+00
1.400636e+00
1.388425e+00
1.377077e+00
1.366518e+00
1.356661e+00
1.347422e+00
1.338742e+00
1.330588e+00
1.322943e+00
1.315796e+00
1.309124e+00
1.302899e+00
1.297090e+00
1.291669e+00
1.286608e+00
1.281876e+00
1.277428e+00
1.273207e+00
1.269144e+00
1.265170e+00
1.261232e+00
1.257296e+00
1.253348e+00
1.249379e+00
1.245388e+00
1.241376e+00
1.237357e+00
1.233349e+00
1.229373e+00
1.225443e+00
1.221564e+00
1.217734e+00
1.213950e+00
1.210212e+00
1.206524e+00
1.202894e+00
1.199338e+00
1.195879e+00
1.192543e+00
1.189348e+00
1.186305e+00
1.183418e+00
1.180691e+00
1.178133e+00
1.175757e+00
1.173580e+00
1.171617e+00
1.169880e+00
1.168375e+00
1.167102e+00
1.166050e+00
1.165200e+00
1.164514e+00
1.163936e+00
1.163398e+00
1.162838e+00
1.162218e+00
1.161530e+00
1.160782e+00
1.159970e+00
1.159078e+00
1.158079e+00
1.156946e+00
1.155656e+00
1.154181e+00
1.152479e+00
1.150495e+00
1.148165e+00
1.145427e+00
1.142229e+00
1.138530e+00
