EVENT_NAME: EMILIA_2ND_SHOCK
EVENT_ID: IT-2012-0011
EVENT_DATE_YYYYMMDD: 20120529
EVENT_TIME_HHMMSS: 070002
EVENT_LATITUDE_DEGREE: 44.8417
EVENT_LONGITUDE_DEGREE: 11.0657
EVENT_DEPTH_KM: 8.1
HYPOCENTER_REFERENCE: INGV-CNT_Seismic_Bulletin
MAGNITUDE_W: 6.0
MAGNITUDE_W_REFERENCE: RCMT-INGV
MAGNITUDE_L: 5.8
MAGNITUDE_L_REFERENCE: INGV-CNT_Seismic_Bulletin
FOCAL_MECHANISM: TF
NETWORK: TV
STATION_CODE: MIR08
STATION_NAME: QUARANTOLI 2
STATION_LATITUDE_DEGREE: 44.916900
STATION_LONGITUDE_DEGREE: 11.089500
STATION_ELEVATION_M: 
LOCATION: 
SENSOR_DEPTH_M: 
VS30_M/S: 
SITE_CLASSIFICATION_EC8: C*
MORPHOLOGIC_CLASSIFICATION: 
EPICENTRAL_DISTANCE_KM: 8.6
EARTHQUAKE_BACKAZIMUTH_DEGREE: 192.7
DATE_TIME_FIRST_SAMPLE_YYYYMMDD_HHMMSS: 20120529_065929.000
DATE_TIME_FIRST_SAMPLE_PRECISION: milliseconds
SAMPLING_INTERVAL_S: 0.005000
NDATA: 34001
DURATION_S: 170.005
STREAM: HNE
UNITS: cm/s
INSTRUMENT: sensor = Episensor FBA ES-T [Kinemetrics] | digitizer = Unknown [Unknown]
INSTRUMENT_ANALOG/DIGITAL: D
INSTRUMENTAL_FREQUENCY_HZ: 
INSTRUMENTAL_DAMPING: 
FULL_SCALE_G: 
N_BIT_DIGITAL_CONVERTER: 
PGV_CM/S: -18.682912
TIME_PGV_S: 42.140000
BASELINE_CORRECTION: BASELINE REMOVED
FILTER_TYPE: BUTTERWORTH
FILTER_ORDER: 2
LOW_CUT_FREQUENCY_HZ: 0.050
HIGH_CUT_FREQUENCY_HZ: 40.000
LATE/NORMAL_TRIGGERED: NT
DATABASE_VERSION: DYNA 1.0
HEADER_FORMAT: DYNA 1.2
DATA_TYPE: VELOCITY
PROCESSING: manual (Paolucci et al., 2011)
DATA_TIMESTAMP_YYYYMMDD_HHMMSS: 
DATA_LICENSE: CC-BY4_0 (http://creativecommons.org/licenses/by/4.0/)
DATA_CITATION: ESM working group (2015), European Strong-Motion database, version 0.1, Network Activity 3: Networking acceleration networks and SM data users. Project NERA (www.nera-eu.org)
DATA_CREATOR: ESM working group
ORIGINAL_DATA_MEDIATOR_CITATION: Orfeus - European Integrated Data Archive (EIDA) http://www.orfeus-eu.org/eida/
ORIGINAL_DATA_MEDIATOR: Orfeus - European Integrated Data Archive (EIDA)
ORIGINAL_DATA_CREATOR_CITATION: 
ORIGINAL_DATA_CREATOR: network: TV (INGV Experiments Network); owner: Istituto Nazionale di Geofisica e Vulcanologia
USER1: 
USER2: 
USER3: 
USER4: 
USER5: 
[...]
-0.052715
-0.052817
-0.052885
-0.052912
-0.052907
-0.052886
-0.052867
-0.052866
-0.052891
-0.052944
-0.053023
-0.053125
-0.053242
-0.053352
-0.053425
-0.053436
-0.053381
-0.053291
-0.053224
-0.053233
-0.053332
-0.053484
-0.053636
-0.053744
-0.053782
-0.053751
-0.053675
-0.053597
-0.053559
-0.053586
-0.053675
-0.053790
-0.053870
-0.053869
-0.053780
-0.053642
-0.053520
-0.053471
-0.053513
-0.053618
-0.053734
-0.053817
-0.053859
-0.053891
-0.053949
-0.054045
-0.054158
-0.054260
-0.054328
-0.054354
-0.054340
-0.054306
-0.054284
-0.054297
-0.054347
-0.054410
-0.054461
-0.054499
-0.054532
-0.054570
-0.054620
-0.054695
-0.054799
-0.054907
-0.054964
-0.054931
-0.054811
-0.054662
-0.054566
-0.054594
-0.054757
-0.055000
-0.055229
-0.055356
-0.055348
-0.055229
-0.055058
-0.054909
-0.054850
-0.054912
-0.055069
-0.055234
-0.055320
-0.055291
-0.055174
-0.055036
-0.054942
-0.054928
-0.054989
-0.055083
-0.055168
-0.055227
-0.055275
-0.055331
-0.055404
-0.055473
-0.055498
-0.055447
-0.055332
-0.055211
-0.055168
-0.055259
-0.055480
-0.055758
-0.055981
-0.056056
-0.055962
-0.055761
-0.055560
-0.055454
-0.055485
-0.055630
-0.055818
-0.055967
-0.056023
-0.055994
-0.055934
-0.055898
-0.055907
-0.055951
-0.056004
-0.056049
-0.056087
-0.056140
-0.056220
-0.056318
-0.056410
-0.056467
-0.056476
-0.056445
-0.056402
-0.056380
-0.056403
-0.056469
-0.056554
-0.056613
-0.056611
-0.056545
-0.056445
-0.056357
-0.056319
-0.056348
-0.056433
-0.056538
-0.056622
-0.056655
-0.056630
-0.056574
-0.056527
-0.056511
-0.056516
-0.056523
-0.056520
-0.056510
-0.056510
-0.056540
-0.056602
-0.056675
-0.056729
-0.056745
-0.056717
-0.056658
-0.056598
-0.056566
-0.056576
-0.056624
-0.056691
-0.056758
-0.056813
-0.056851
-0.056877
-0.056895
-0.056896
-0.056875
-0.056836
-0.056799
-0.056778
-0.056778
-0.056801
-0.056842
-0.056890
-0.056939
-0.056989
-0.057037
-0.057080
-0.057117
-0.057150
-0.057180
-0.057199
-0.057211
-0.057230
-0.057266
-0.057319
-0.057379
-0.057436
-0.057475
-0.057489
-0.057474
-0.057440
-0.057398
-0.057362
-0.057348
-0.057377
-0.057452
-0.057547
-0.057628
-0.057667
-0.057655
-0.057598
-0.057512
-0.057414
-0.057320
-0.057255
-0.057258
-0.057372
-0.057604
-0.057897
-0.058157
-0.058301
-0.058303
-0.058190
-0.058006
-0.057785
-0.057560
-0.057386
-0.057330
-0.057438
-0.057683
-0.057963
-0.058162
-0.058218
-0.058139
-0.057987
-0.057842
-0.057775
-0.057810
-0.057917
-0.058048
-0.058156
-0.058207
-0.058183
-0.058077
-0.057905
-0.057720
-0.057609
-0.057651
-0.057868
-0.058201
-0.058526
-0.058699
-0.058612
-0.058246
-0.057663
-0.056952
-0.056198
-0.055468
-0.054814
-0.054284
-0.053934
-0.053799
-0.053819
-0.053823
-0.053626
-0.053197
-0.052676
-0.052213
-0.051738
-0.050974
-0.049742
-0.048310
-0.047380
-0.047619
-0.049079
-0.051051
-0.052565
-0.053168
-0.053293
-0.053817
-0.055184
-0.056943
-0.058050
-0.057713
-0.056265
-0.055242
-0.056166
-0.058930
-0.061636
-0.062384
-0.061098
-0.059381
-0.058828
-0.059889
-0.062106
-0.064831
-0.067527
-0.069583
-0.070058
-0.067874
-0.062490
-0.054586
-0.046317
-0.040803
-0.040872
-0.047706
-0.060072
-0.074307
-0.085268
-0.088465
-0.082741
-0.071520
-0.060510
-0.052870
-0.046863
-0.038943
-0.028813
-0.020851
-0.020355
-0.028453
-0.040714
-0.050484
-0.053638
-0.050828
-0.045541
-0.040159
-0.034225
-0.025533
-0.012013
0.005512
0.021202
0.027065
0.019242
0.000145
-0.025351
-0.053366
-0.080109
-0.100578
-0.111073
-0.111845
-0.105129
-0.091626
-0.070215
-0.039724
-0.000423
0.043643
0.082028
0.099623
0.085112
0.040530
-0.017915
-0.070805
-0.108171
-0.131683
-0.147423
-0.159256
-0.167278
-0.169301
-0.162715
-0.145245
-0.115426
-0.074322
-0.027670
0.013484
0.036929
0.038959
0.029892
0.025118
0.028552
0.027077
0.003436
-0.045730
-0.105865
-0.156754
-0.185207
-0.187248
-0.165201
-0.126354
-0.081577
-0.042174
-0.016027
-0.002976
0.007332
0.028171
0.061733
0.093052
0.099348
0.066515
0.001230
-0.069085
-0.111878
-0.111685
-0.080663
-0.049220
-0.044928
-0.074036
-0.117039
-0.141188
-0.122139
-0.060842
0.016665
0.075701
0.091262
0.059730
0.004335
-0.033963
-0.025475
0.022100
0.069744
0.079580
0.040010
-0.034177
-0.114047
-0.167137
-0.169435
-0.119896
-0.044462
0.018558
0.041626
0.024045
-0.008283
-0.021141
0.000960
0.039457
0.054328
0.017320
-0.062698
-0.144877
-0.186807
-0.173634
-0.122999
-0.067496
-0.035055
-0.038334
-0.068745
-0.097537
-0.092524
-0.041322
0.039505
0.114230
0.144787
0.106452
0.002868
-0.126125
-0.219878
-0.234370
-0.171608
-0.073556
0.012773
0.067060
0.098648
0.124306
0.146681
0.152524
0.127567
0.072102
0.002877
-0.059140
-0.099887
-0.112756
-0.097663
-0.065433
-0.037380
-0.032112
-0.051266
-0.081172
-0.105666
-0.110286
-0.079305
-0.005424
0.094166
0.184028
0.236403
0.242801
0.202494
0.114737
-0.010647
-0.142531
-0.237477
-0.261301
-0.203523
-0.080551
0.067426
0.189195
0.245099
0.225148
0.149471
0.053725
-0.028632
-0.079733
-0.103138
-0.116690
-0.132942
-0.143857
-0.128384
-0.076675
-0.002929
0.068038
0.123531
0.167966
0.206879
0.234440
0.241643
0.230035
0.209016
0.181091
0.136203
0.062802
-0.037672
-0.147532
-0.238732
-0.279549
-0.247248
-0.150438
-0.036739
0.038683
0.057898
0.046512
0.035834
0.029212
0.010544
-0.023723
-0.055166
-0.065873
-0.057789
-0.043995
-0.026788
0.008286
0.071911
0.144933
0.181772
0.147932
0.053486
-0.051107
-0.108963
-0.090048
-0.003907
0.108214
0.194138
0.216933
0.172828
0.087811
0.000348
-0.053811
-0.053433
-0.000546
0.082451
0.166262
0.228104
0.259086
0.261686
0.239800
0.193870
0.126437
0.050741
-0.007576
-0.022262
0.015030
0.088846
0.172897
0.245551
0.292450
0.299810
0.254656
0.159240
0.041964
-0.058105
-0.121775
-0.157697
-0.179301
-0.184639
-0.164087
-0.119207
-0.064776
-0.015051
0.025797
0.063981
0.111789
0.177832
0.257605
0.335947
0.399646
0.445511
0.475147
0.484792
0.464504
0.409771
0.333507
0.261420
0.213187
0.195299
0.214220
0.282283
0.397129
0.520503
0.592866
0.576316
0.481670
0.354850
0.242159
0.167546
0.131091
0.115691
0.095244
0.052655
0.001295
-0.020788
0.011098
0.081325
0.149344
0.183019
0.171651
0.117762
0.031519
-0.065118
-0.140446
-0.168289
-0.140639
-0.066152
0.037476
0.150560
0.259493
0.359842
0.446991
0.504878
0.509810
0.446713
0.322370
0.169658
0.040296
-0.020048
-0.001036
0.070101
0.156205
0.233346
0.288490
0.309988
0.294816
0.261756
0.241546
0.250264
0.283057
0.334271
0.411050
0.524509
0.673466
0.834343
0.964228
1.018294
0.968311
0.813387
0.585235
0.340916
0.139340
0.016814
-0.026965
-0.026613
-0.024701
-0.041026
-0.067497
-0.075116
-0.018222
0.134120
0.345095
0.511820
0.548092
0.457976
0.313175
0.174559
0.064168
0.002296
0.022684
0.128253
0.258679
0.333350
0.327592
0.288967
0.275227
0.295852
0.320266
0.316098
0.263494
0.157234
0.021696
-0.084792
-0.103557
-0.016712
0.152478
0.369152
0.603542
0.825986
0.996369
1.068284
1.016017
0.855597
0.636366
0.422253
0.271635
0.204671
0.189132
0.182672
0.185951
0.235079
0.352402
0.523406
0.709886
0.864800
0.944229
0.933677
0.868028
0.808288
0.786679
0.774366
0.707856
0.543517
0.280837
-0.046628
-0.372873
-0.598421
-0.624353
-0.413245
-0.019327
0.440231
0.838702
1.081643
1.138513
1.059150
0.937827
0.829570
0.711946
0.546389
0.349647
0.184040
0.105182
0.133854
0.257801
0.451066
0.693534
0.966349
1.228525
1.409484
1.440927
1.306512
1.056152
0.770765
0.517786
0.325730
0.182951
0.066372
-0.022820
-0.058535
-0.019797
0.089527
0.241620
0.388272
0.473130
0.468905
0.409291
0.365368
0.377483
0.412506
0.393937
0.277086
0.095421
-0.057889
-0.079764
0.097033
0.464115
0.924404
1.338438
1.599926
1.672740
1.576935
1.362415
1.090758
0.819661
0.593248
0.444423
0.395180
0.445802
0.571579
0.735053
0.893790
1.002311
1.029795
0.983575
0.903934
0.831455
0.780130
0.733209
0.657574
0.529558
0.360492
0.203077
0.128596
0.188004
0.381155
0.653993
0.933522
1.177492
1.386822
1.571791
1.726412
1.837525
1.891153
1.864971
1.748273
1.581520
1.440828
1.358169
1.281387
1.143011
0.955863
0.811853
0.789760
0.888939
1.048274
1.194688
1.271127
1.257934
1.187188
1.122169
1.112317
1.166467
1.262392
1.371215
1.468647
1.532758
1.549599
1.530183
1.510815
1.522060
1.555158
1.557718
1.465808
1.262150
1.011828
0.817027
0.725549
0.704539
0.708527
0.744065
0.847123
1.010617
1.162938
1.228497
1.193111
1.099849
0.999630
0.924679
0.896481
0.926920
1.000947
1.079660
1.139070
1.200693
1.313294
1.502511
1.739417
1.960869
2.124441
2.240445
2.346223
2.455475
2.538045
2.545983
2.457812
2.298660
2.121670
1.976906
1.893549
1.876138
1.907113
1.951381
1.966188
1.923219
1.834889
1.756711
1.749006
1.827471
1.950208
2.045254
2.048416
1.936203
1.747259
1.572533
1.504693
1.577862
1.751659
1.955099
2.140678
2.293584
2.403652
2.452948
2.436148
2.371052
2.278211
2.167322
2.046464
1.924074
1.801814
1.687803
1.619162
1.653009
1.827776
2.132552
2.504597
2.853929
3.102305
3.214293
3.207813
3.141271
3.073929
3.021543
2.952661
2.831466
2.657086
2.461342
2.283179
2.154947
2.102058
2.133678
2.221839
2.294621
2.264237
2.080082
1.768985
1.422948
1.135062
0.938636
0.805942
0.699404
0.616059
0.586496
0.642392
0.785856
0.979770
1.161340
1.267688
1.258345
1.130353
0.927319
0.731420
0.625464
0.642738
0.749657
0.882205
0.998987
1.095923
1.178206
1.235582
1.251895
1.229688
1.192542
1.159717
1.126978
1.078888
1.014244
0.953229
0.920952
0.924796
0.945730
0.950847
0.914224
0.827981
0.701837
0.560068
0.435649
0.355353
0.320810
0.304007
0.270509
0.213699
0.161834
0.147713
0.175588
0.219906
0.252655
0.267924
0.277954
0.288569
0.287452
0.260717
0.214822
0.178800
0.191049
0.284202
0.471909
0.740586
1.049098
1.337822
1.551197
1.666235
1.701772
1.698646
1.696064
1.727548
1.822645
1.997140
2.249594
2.573648
2.959015
3.376880
3.777815
4.107158
4.326993
4.439977
4.496247
4.565397
4.690064
4.859761
5.028277
5.155521
5.229698
5.256527
5.241006
5.178834
5.054755
4.848192
4.546919
4.161436
3.731807
3.320087
2.987271
2.768540
2.663918
2.644854
2.667440
2.689857
2.689128
2.663209
2.619152
2.563714
2.500331
2.429057
2.353081
2.286468
2.250237
2.258594
2.307450
2.373351
2.425176
2.441970
2.425496
2.402879
2.416236
2.496195
2.638279
2.812403
2.995903
3.188630
3.401079
3.639769
3.899150
4.159231
4.398288
4.612563
4.812147
4.991646
5.114877
5.134933
5.027799
4.809431
4.523328
4.206096
3.860794
3.467593
3.020302
2.545465
2.088279
1.691320
1.384891
1.180651
1.065472
1.008907
0.983908
0.976195
0.970358
0.939940
0.866196
0.760259
0.653178
0.566997
0.500808
0.435911
0.347215
0.217285
0.048886
-0.135470
-0.308125
-0.450555
-0.555131
-0.615787
-0.619261
-0.549029
-0.400359
-0.192301
0.033114
0.224906
0.343864
0.376138
0.330966
0.229928
0.100214
-0.026502
-0.116032
-0.136108
-0.061001
0.122901
0.411712
0.785337
1.216368
1.676466
2.133803
2.550618
2.891425
3.135573
3.281026
3.339351
3.329838
3.273275
3.182751
3.059970
2.909367
2.758786
2.654842
2.626740
2.657603
2.698730
2.711052
2.691514
2.666233
2.664011
2.695027
2.748476
2.801188
2.825449
2.796294
2.699887
2.539413
2.332557
2.096760
1.832980
1.526674
1.164073
0.743471
0.274410
-0.225026
-0.729852
-1.218618
-1.691540
-2.175349
-2.702541
-3.283901
-3.900376
-4.516503
-5.102009
-5.647988
-6.163529
-6.655323
-7.117094
-7.540583
-7.924871
-8.265703
-8.541660
-8.723481
-8.801422
-8.798145
-8.751555
-8.688451
-8.615559
-8.527570
-8.414711
-8.264642
-8.067509
-7.828005
-7.574030
-7.347045
-7.177918
-7.073465
-7.027026
-7.036780
-7.111912
-7.265772
-7.505714
-7.826319
-8.207930
-8.619870
-9.027304
-9.401411
-9.729633
-10.017420
-10.276720
-10.509660
-10.702130
-10.832510
-10.887720
-10.873590
-10.812310
-10.726560
-10.619020
-10.466420
-10.237930
-9.918598
-9.514234
-9.041003
-8.516075
-7.953671
-7.363345
-6.750221
-6.118164
-5.474573
-4.832714
-4.207200
-3.603625
-3.012569
-2.417844
-1.811619
-1.198899
-0.591948
-0.014622
0.478662
0.798908
0.864513
0.665138
0.274273
-0.212324
-0.735117
-1.262515
-1.764090
-2.227152
-2.679845
-3.163527
-3.684202
-4.206486
-4.688764
-5.109069
-5.460329
-5.737869
-5.938322
-6.062883
-6.115731
-6.101395
-6.026896
-5.907522
-5.771359
-5.658453
-5.611716
-5.661300
-5.812119
-6.043871
-6.322071
-6.610235
-6.874498
-7.079495
-7.183477
-7.143329
-6.931543
-6.553396
-6.048294
-5.473462
-4.886330
-4.339709
-3.884761
-3.567293
-3.413762
-3.419253
-3.549491
-3.753848
-3.978381
-4.173659
-4.301456
-4.345772
-4.319725
-4.252979
-4.167041
-4.064558
-3.939856
-3.791323
-3.620260
-3.422484
-3.184720
-2.888388
-2.521442
-2.101528
-1.701815
-1.448335
-1.460524
-1.767466
-2.292190
-2.933745
-3.641952
-4.396419
-5.161085
-5.906530
-6.644724
-7.393102
-8.124066
-8.790149
-9.386376
-9.957903
-10.551800
-11.178520
-11.818360
-12.452020
-13.076830
-13.700430
-14.332930
-14.986220
-15.668110
-16.371140
-17.068470
-17.716999
-18.256220
-18.605320
-18.682911
-18.459129
-17.991449
-17.383240
-16.700029
-15.948480
-15.129210
-14.265600
-13.371250
-12.425780
-11.404850
-10.322190
-9.227337
-8.167357
-7.163373
-6.218682
-5.332134
-4.500249
-3.716623
-2.977450
-2.294999
-1.712857
-1.301620
-1.121075
-1.177374
-1.422249
-1.793148
-2.241654
-2.723602
-3.185952
-3.580924
-3.882071
-4.073866
-4.136508
-4.052932
-3.822786
-3.462763
-2.999837
-2.465340
-1.886510
-1.279270
-0.652965
-0.024789
0.574777
1.116341
1.589727
2.003703
2.371175
2.701158
3.003984
3.298019
3.609101
3.965708
4.394180
4.907785
5.481320
6.027020
6.411227
6.524186
6.349283
5.960278
5.454096
4.904398
4.372545
3.915408
3.551404
3.237834
2.906758
2.522126
2.098068
1.674418
1.286004
0.947684
0.655195
0.399235
0.181696
0.014137
-0.098568
-0.162122
-0.178576
-0.140464
-0.045505
0.091610
0.253682
0.449137
0.718034
1.101428
1.599925
2.157529
2.681694
3.083389
3.310421
3.355264
3.242506
3.015001
2.722900
2.408552
2.096696
1.802536
1.542629
1.328276
1.152188
0.989900
0.814794
0.612645
0.386975
0.151815
-0.084610
-0.331986
-0.612125
-0.936038
-1.283683
-1.608127
-1.863145
-2.029814
-2.119156
-2.150725
-2.125303
-2.009361
-1.743009
-1.276153
-0.615446
0.158439
0.928896
1.609527
2.179545
2.666773
3.114750
3.567818
4.061878
4.603266
5.156602
5.667188
6.099146
6.449729
6.733929
6.964754
7.145318
7.270373
7.333081
7.333631
7.281953
7.190720
7.067998
6.922161
6.774331
6.656303
6.585730
6.545421
6.498136
6.422781
6.324874
6.211552
6.070922
5.879788
5.624111
5.311527
4.966538
4.613522
4.267218
3.938339
3.638321
3.372640
3.135215
2.918607
2.729301
2.580613
2.464715
2.343297
2.174688
1.946523
1.685668
1.447936
1.292231
1.245020
1.287874
1.390594
1.548944
1.778305
2.084790
2.455601
2.865645
3.287691
3.705283
4.116620
4.525782
4.939203
5.369031
5.822662
6.280216
6.692678
7.013664
7.234147
7.388431
7.533749
7.723619
7.988237
8.325376
8.702204
9.066669
9.363259
9.547691
9.597471
9.513557
9.309707
8.997773
8.584220
8.080664
7.513048
6.914105
6.304609
5.685151
5.047667
4.390326
3.718258
3.036316
2.350385
1.676058
1.039893
0.470694
-0.007839
-0.379645
-0.641411
-0.808761
-0.911620
-0.979320
-1.031973
-1.086066
-1.163378
-1.291759
-1.497849
-1.797192
-2.188240
-2.654759
-3.172824
-3.716116
-4.259704
-4.781383
-5.256426
-5.649743
-5.916007
-6.013409
-5.926138
-5.679118
-5.329826
-4.942411
-4.566453
-4.235088
-3.972794
-3.793185
-3.687764
-3.626383
-3.576538
-3.524029
-3.479159
-3.473101
-3.550992
-3.750136
-4.062918
-4.425247
-4.757140
-5.007806
-5.152062
-5.168808
-5.054727
-4.848600
-4.612663
-4.389274
-4.192430
-4.035500
-3.941535
-3.918415
-3.938864
-3.952579
-3.913216
-3.798912
-3.621158
-3.417925
-3.228975
-3.066671
-2.905791
-2.702638
-2.427343
-2.082376
-1.694641
-1.291334
-0.882596
-0.466553
-0.047189
0.360505
0.744434
1.105196
1.447080
1.767224
2.059379
2.320310
2.541209
2.691575
2.720452
2.584519
2.280588
1.850112
1.353248
0.842892
0.359354
-0.064506
-0.400012
-0.619070
-0.691654
-0.593418
-0.323341
0.078669
0.524556
0.893536
1.080662
1.057475
0.884848
0.652108
0.409252
0.164898
-0.079320
-0.321741
-0.566067
-0.801963
-0.993842
-1.114876
-1.186386
-1.269512
-1.420758
-1.657685
-1.955581
-2.265661
-2.539722
-2.749906
-2.895924
-2.999207
-3.088104
-3.178772
-3.259526
-3.288310
-3.205927
-2.959055
-2.523419
-1.915168
-1.183558
-0.391583
0.404673
1.171441
1.900551
2.599305
3.280081
3.961795
4.674607
5.445724
6.257854
7.007775
7.522539
7.660966
7.425072
6.955949
6.415091
5.900707
5.473550
5.191474
5.076641
5.088160
5.161297
5.251133
5.324214
5.340168
5.267748
5.108553
4.893026
4.660771
4.446258
4.265276
4.103341
3.924901
3.701465
3.431593
3.137955
2.851548
2.597160
2.384676
2.207823
2.053131
1.914380
1.798805
1.718265
1.674232
1.650193
1.617303
1.548946
1.434448
1.284853
1.128422
0.996485
0.907111
0.858598
0.836580
0.826997
0.824848
0.833600
0.857504
0.894923
0.939406
0.986634
1.038745
1.101697
1.179144
1.267800
1.356995
1.432625
1.482224
1.498078
1.479105
1.431916
1.367981
1.295709
1.213605
1.112685
0.986615
0.838471
0.677476
0.510802
0.339031
0.157914
-0.037171
-0.248289
-0.473498
-0.704151
-0.923355
-1.112032
-1.260422
-1.373464
-1.464661
-1.545513
-1.619835
-1.685638
-1.740560
-1.784857
-1.820940
-1.853659
-1.891441
-1.943554
-2.014426
-2.101591
-2.198499
-2.297553
-2.390836
-2.469725
-2.525279
-2.549899
-2.539394
-2.495378
-2.428787
-2.363603
-2.337222
-2.390830
-2.546156
-2.784030
-3.053768
-3.312318
-3.548186
-3.765308
-3.962309
-4.138566
-4.304485
-4.470735
-4.630701
-4.758633
-4.824821
-4.814129
-4.733581
-4.605529
-4.453898
-4.292627
-4.122437
-3.935535
-3.721231
-3.469344
-3.174507
-2.839699
-2.472993
-2.079390
-1.656925
-1.201178
-0.713436
-0.205475
0.301326
0.778362
1.189139
1.489361
1.636823
1.610738
1.424456
1.117204
0.733273
0.309366
-0.126671
-0.557765
-0.979793
-1.393352
-1.790336
-2.152199
-2.460816
-2.707151
-2.891547
-3.022082
-3.113857
-3.184799
-3.248030
-3.307353
-3.358279
-3.391285
-3.396281
-3.368593
-3.313514
-3.245617
-3.180994
-3.125040
-3.065483
-2.978373
-2.841172
-2.641023
-2.376115
-2.056266
-1.702911
-1.343154
-1.000368
-0.689191
-0.414383
-0.168601
0.068461
0.322652
0.610884
0.931625
1.268538
1.600338
1.906915
2.171283
2.381438
2.533038
2.630716
2.686141
2.714572
2.733007
2.759136
2.808485
2.891481
3.013582
3.176424
3.377095
3.608112
3.861518
4.134432
4.429755
4.750743
5.095154
5.453276
5.808438
6.138840
6.421587
6.638440
6.781825
6.858795
6.889540
