EVENT_NAME: EMILIA_2ND_SHOCK
EVENT_ID: IT-2012-0011
EVENT_DATE_YYYYMMDD: 20120529
EVENT_TIME_HHMMSS: 070002
EVENT_LATITUDE_DEGREE: 44.8417
EVENT_LONGITUDE_DEGREE: 11.0657
EVENT_DEPTH_KM: 8.1
HYPOCENTER_REFERENCE: INGV-CNT_Seismic_Bulletin
MAGNITUDE_W: 6.0
MAGNITUDE_W_REFERENCE: RCMT-INGV
MAGNITUDE_L: 5.8
MAGNITUDE_L_REFERENCE: INGV-CNT_Seismic_Bulletin
FOCAL_MECHANISM: TF
NETWORK: TV
STATION_CODE: MIR06
STATION_NAME: PIEVE DI CORIANO
STATION_LATITUDE_DEGREE: 45.040100
STATION_LONGITUDE_DEGREE: 11.087400
STATION_ELEVATION_M: 
LOCATION: 
SENSOR_DEPTH_M: 
VS30_M/S: 
SITE_CLASSIFICATION_EC8: C*
MORPHOLOGIC_CLASSIFICATION: 
EPICENTRAL_DISTANCE_KM: 22.1
EARTHQUAKE_BACKAZIMUTH_DEGREE: 184.4
DATE_TIME_FIRST_SAMPLE_YYYYMMDD_HHMMSS: 20120529_065933.000
DATE_TIME_FIRST_SAMPLE_PRECISION: milliseconds
SAMPLING_INTERVAL_S: 0.005000
NDATA: 30001
DURATION_S: 150.005
STREAM: HNZ
UNITS: cm
INSTRUMENT: sensor = Episensor FBA ES-T [Kinemetrics] | digitizer = Unknown [Unknown]
INSTRUMENT_ANALOG/DIGITAL: D
INSTRUMENTAL_FREQUENCY_HZ: 
INSTRUMENTAL_DAMPING: 
FULL_SCALE_G: 
N_BIT_DIGITAL_CONVERTER: 
PGD_CM: -1.049790
TIME_PGD_S: 55.835000
BASELINE_CORRECTION: BASELINE REMOVED
FILTER_TYPE: BUTTERWORTH
FILTER_ORDER: 2
LOW_CUT_FREQUENCY_HZ: 0.060
HIGH_CUT_FREQUENCY_HZ: 40.000
LATE/NORMAL_TRIGGERED: NT
DATABASE_VERSION: DYNA 1.0
HEADER_FORMAT: DYNA 1.2
DATA_TYPE: DISPLACEMENT
PROCESSING: manual (Paolucci et al., 2011)
DATA_TIMESTAMP_YYYYMMDD_HHMMSS: 
DATA_LICENSE: CC-BY4_0 (http://creativecommons.org/licenses/by/4.0/)
DATA_CITATION: ESM working group (2015), European Strong-Motion database, version 0.1, Network Activity 3: Networking acceleration networks and SM data users. Project NERA (www.nera-eu.org)
DATA_CREATOR: ESM working group
ORIGINAL_DATA_MEDIATOR_CITATION: Orfeus - European Integrated Data Archive (EIDA) http://www.orfeus-eu.org/eida/
ORIGINAL_DATA_MEDIATOR: Orfeus - European Integrated Data Archive (EIDA)
ORIGINAL_DATA_CREATOR_CITATION: 
ORIGINAL_DATA_CREATOR: network: TV (INGV Experiments Network); owner: Istituto Nazionale di Geofisica e Vulcanologia
USER1: 
USER2: 
USER3: 
USER4: 
USER5: 
[...]
-5.597013e-01
-5.630145e-01
-5.664015e-01
-5.698550e-01
-5.733520e-01
-5.768666e-01
-5.803659e-01
-5.838153e-01
-5.871940e-01
-5.904905e-01
-5.936881e-01
-5.967625e-01
-5.996811e-01
-6.024060e-01
-6.049102e-01
-6.071953e-01
-6.092934e-01
-6.112466e-01
-6.130763e-01
-6.147679e-01
-6.162881e-01
-6.176143e-01
-6.187484e-01
-6.197093e-01
-6.205171e-01
-6.211783e-01
-6.216813e-01
-6.220067e-01
-6.221413e-01
-6.220830e-01
-6.218475e-01
-6.214775e-01
-6.210322e-01
-6.205577e-01
-6.200730e-01
-6.195739e-01
-6.190411e-01
-6.184541e-01
-6.178075e-01
-6.171162e-01
-6.164082e-01
-6.157101e-01
-6.150326e-01
-6.143695e-01
-6.137095e-01
-6.130520e-01
-6.124162e-01
-6.118342e-01
-6.113354e-01
-6.109355e-01
-6.106346e-01
-6.104245e-01
-6.102994e-01
-6.102637e-01
-6.103289e-01
-6.105098e-01
-6.108263e-01
-6.113009e-01
-6.119450e-01
-6.127483e-01
-6.136870e-01
-6.147445e-01
-6.159211e-01
-6.172270e-01
-6.186680e-01
-6.202327e-01
-6.218866e-01
-6.235837e-01
-6.252911e-01
-6.270074e-01
-6.287567e-01
-6.305633e-01
-6.324309e-01
-6.343414e-01
-6.362728e-01
-6.382186e-01
-6.401922e-01
-6.422149e-01
-6.442994e-01
-6.464403e-01
-6.486163e-01
-6.508007e-01
-6.529749e-01
-6.551376e-01
-6.573037e-01
-6.594953e-01
-6.617318e-01
-6.640240e-01
-6.663762e-01
-6.687910e-01
-6.712688e-01
-6.738016e-01
-6.763628e-01
-6.789053e-01
-6.813705e-01
-6.837043e-01
-6.858709e-01
-6.878552e-01
-6.896559e-01
-6.912832e-01
-6.927617e-01
-6.941260e-01
-6.954085e-01
-6.966317e-01
-6.978009e-01
-6.988917e-01
-6.998474e-01
-7.006031e-01
-7.011092e-01
-7.013320e-01
-7.012460e-01
-7.008411e-01
-7.001354e-01
-6.991704e-01
-6.979956e-01
-6.966567e-01
-6.951852e-01
-6.935907e-01
-6.918675e-01
-6.900056e-01
-6.879960e-01
-6.858354e-01
-6.835352e-01
-6.811316e-01
-6.786805e-01
-6.762360e-01
-6.738397e-01
-6.715220e-01
-6.692959e-01
-6.671461e-01
-6.650408e-01
-6.629528e-01
-6.608622e-01
-6.587570e-01
-6.566387e-01
-6.545197e-01
-6.524158e-01
-6.503425e-01
-6.483104e-01
-6.463211e-01
-6.443698e-01
-6.424511e-01
-6.405634e-01
-6.387146e-01
-6.369265e-01
-6.352311e-01
-6.336566e-01
-6.322087e-01
-6.308633e-01
-6.295759e-01
-6.283004e-01
-6.270049e-01
-6.256788e-01
-6.243317e-01
-6.229854e-01
-6.216610e-01
-6.203675e-01
-6.190991e-01
-6.178380e-01
-6.165616e-01
-6.152497e-01
-6.138918e-01
-6.124931e-01
-6.110744e-01
-6.096587e-01
-6.082549e-01
-6.068495e-01
-6.054153e-01
-6.039260e-01
-6.023669e-01
-6.007381e-01
-5.990488e-01
-5.973093e-01
-5.955245e-01
-5.936924e-01
-5.918070e-01
-5.898574e-01
-5.878252e-01
-5.856826e-01
-5.833963e-01
-5.809343e-01
-5.782754e-01
-5.754154e-01
-5.723635e-01
-5.691313e-01
-5.657304e-01
-5.621739e-01
-5.584735e-01
-5.546397e-01
-5.506892e-01
-5.466525e-01
-5.425702e-01
-5.384832e-01
-5.344215e-01
-5.303964e-01
-5.263988e-01
-5.224060e-01
-5.183963e-01
-5.143635e-01
-5.103227e-01
-5.063049e-01
-5.023449e-01
-4.984706e-01
-4.946989e-01
-4.910374e-01
-4.874866e-01
-4.840382e-01
-4.806734e-01
-4.773650e-01
-4.740863e-01
-4.708197e-01
-4.675557e-01
-4.642885e-01
-4.610151e-01
-4.577389e-01
-4.544656e-01
-4.511932e-01
-4.479091e-01
-4.445959e-01
-4.412390e-01
-4.378318e-01
-4.343794e-01
-4.309018e-01
-4.274264e-01
-4.239706e-01
-4.205287e-01
-4.170709e-01
-4.135547e-01
-4.099416e-01
-4.062089e-01
-4.023498e-01
-3.983714e-01
-3.942929e-01
-3.901405e-01
-3.859348e-01
-3.816796e-01
-3.773641e-01
-3.729757e-01
-3.685096e-01
-3.639728e-01
-3.593845e-01
-3.547725e-01
-3.501618e-01
-3.455602e-01
-3.409551e-01
-3.363260e-01
-3.316601e-01
-3.269566e-01
-3.222244e-01
-3.174783e-01
-3.127319e-01
-3.079868e-01
-3.032279e-01
-2.984282e-01
-2.935582e-01
-2.885921e-01
-2.835145e-01
-2.783260e-01
-2.730447e-01
-2.676997e-01
-2.623212e-01
-2.569335e-01
-2.515544e-01
-2.461912e-01
-2.408296e-01
-2.354346e-01
-2.299727e-01
-2.244317e-01
-2.188146e-01
-2.131197e-01
-2.073447e-01
-2.015024e-01
-1.956141e-01
-1.896955e-01
-1.837642e-01
-1.778470e-01
-1.719703e-01
-1.661531e-01
-1.604056e-01
-1.547239e-01
-1.490900e-01
-1.434791e-01
-1.378693e-01
-1.322488e-01
-1.266166e-01
-1.209782e-01
-1.153407e-01
-1.097098e-01
-1.040868e-01
-9.846832e-02
-9.284763e-02
-8.722053e-02
-8.159328e-02
-7.599007e-02
-7.045248e-02
-6.502764e-02
-5.975030e-02
-5.462839e-02
-4.963881e-02
-4.473584e-02
-3.986909e-02
-3.500267e-02
-3.012580e-02
-2.525092e-02
-2.040254e-02
-1.560404e-02
-1.087000e-02
-6.205121e-03
-1.605501e-03
2.939768e-03
7.445979e-03
1.193031e-02
1.641051e-02
2.090135e-02
2.540631e-02
2.991412e-02
3.441163e-02
3.889983e-02
4.338762e-02
4.787515e-02
5.235932e-02
5.685063e-02
6.136840e-02
6.592412e-02
7.051872e-02
7.514702e-02
7.979896e-02
8.446518e-02
8.914428e-02
9.384188e-02
9.856454e-02
1.033165e-01
1.081006e-01
1.129190e-01
1.177716e-01
1.226553e-01
1.275670e-01
1.325067e-01
1.374781e-01
1.424857e-01
1.475317e-01
1.526154e-01
1.577345e-01
1.628867e-01
1.680710e-01
1.732909e-01
1.785605e-01
1.839064e-01
1.893605e-01
1.949467e-01
2.006725e-01
2.065294e-01
2.125002e-01
2.185646e-01
2.247039e-01
2.309030e-01
2.371484e-01
2.434237e-01
2.497079e-01
2.559790e-01
2.622196e-01
2.684193e-01
2.745727e-01
2.806760e-01
2.867258e-01
2.927207e-01
2.986627e-01
3.045557e-01
3.104008e-01
3.161934e-01
3.219255e-01
3.275895e-01
3.331797e-01
3.386914e-01
3.441248e-01
3.494909e-01
3.548093e-01
3.600939e-01
3.653441e-01
3.705472e-01
3.756830e-01
3.807274e-01
3.856561e-01
3.904457e-01
3.950728e-01
3.995204e-01
4.037854e-01
4.078794e-01
4.118225e-01
4.156343e-01
4.193247e-01
4.228897e-01
4.263143e-01
4.295841e-01
4.326957e-01
4.356567e-01
4.384828e-01
4.412011e-01
4.438507e-01
4.464706e-01
4.490868e-01
4.517096e-01
4.543395e-01
4.569753e-01
4.596153e-01
4.622565e-01
4.648934e-01
4.675152e-01
4.701044e-01
4.726402e-01
4.751033e-01
4.774769e-01
4.797509e-01
4.819256e-01
4.840113e-01
4.860233e-01
4.879774e-01
4.898881e-01
4.917716e-01
4.936462e-01
4.955304e-01
4.974394e-01
4.993823e-01
5.013614e-01
5.033731e-01
5.054118e-01
5.074750e-01
5.095672e-01
5.116991e-01
5.138829e-01
5.161280e-01
5.184413e-01
5.208283e-01
5.232928e-01
5.258341e-01
5.284469e-01
5.311234e-01
5.338578e-01
5.366503e-01
5.395084e-01
5.424424e-01
5.454627e-01
5.485779e-01
5.517961e-01
5.551220e-01
5.585535e-01
5.620795e-01
5.656818e-01
5.693352e-01
5.730114e-01
5.766934e-01
5.803839e-01
5.840970e-01
5.878474e-01
5.916500e-01
5.955228e-01
5.994827e-01
6.035355e-01
6.076695e-01
6.118624e-01
6.160978e-01
6.203738e-01
6.247020e-01
6.291008e-01
6.335857e-01
6.381602e-01
6.428153e-01
6.475358e-01
6.523084e-01
6.571287e-01
6.620027e-01
6.669413e-01
6.719555e-01
6.770511e-01
6.822225e-01
6.874487e-01
6.926967e-01
6.979289e-01
7.031134e-01
7.082281e-01
7.132588e-01
7.181931e-01
7.230134e-01
7.276935e-01
7.322027e-01
7.365201e-01
7.406457e-01
7.446001e-01
7.484162e-01
7.521294e-01
7.557706e-01
7.593607e-01
7.629055e-01
7.663935e-01
7.698006e-01
7.730994e-01
7.762664e-01
7.792880e-01
7.821647e-01
7.849102e-01
7.875444e-01
7.900852e-01
7.925430e-01
7.949242e-01
7.972381e-01
7.994970e-01
8.017027e-01
8.038369e-01
8.058687e-01
8.077740e-01
8.095464e-01
8.111987e-01
8.127556e-01
8.142378e-01
8.156493e-01
8.169805e-01
8.182181e-01
8.193482e-01
8.203554e-01
8.212254e-01
8.219522e-01
8.225413e-01
8.230062e-01
8.233643e-01
8.236331e-01
8.238247e-01
8.239437e-01
8.239944e-01
8.239874e-01
8.239342e-01
8.238341e-01
8.236698e-01
8.234169e-01
8.230542e-01
8.225663e-01
8.219468e-01
8.212014e-01
8.203421e-01
8.193780e-01
8.183158e-01
8.171623e-01
8.159265e-01
8.146244e-01
8.132824e-01
8.119280e-01
8.105794e-01
8.092421e-01
8.079148e-01
8.065967e-01
8.052916e-01
8.040088e-01
8.027616e-01
8.015651e-01
8.004370e-01
7.993995e-01
7.984794e-01
7.977023e-01
7.970831e-01
7.966188e-01
7.962891e-01
7.960653e-01
7.959207e-01
7.958415e-01
7.958306e-01
7.959004e-01
7.960602e-01
7.963064e-01
7.966227e-01
7.969844e-01
7.973659e-01
7.977507e-01
7.981367e-01
7.985278e-01
7.989237e-01
7.993235e-01
7.997343e-01
8.001640e-01
8.006089e-01
8.010561e-01
8.014948e-01
8.019218e-01
8.023371e-01
8.027421e-01
8.031382e-01
8.035222e-01
8.038834e-01
8.042075e-01
8.044824e-01
8.047007e-01
8.048593e-01
8.049579e-01
8.049991e-01
8.049895e-01
8.049385e-01
8.048541e-01
8.047376e-01
8.045825e-01
8.043781e-01
8.041141e-01
8.037841e-01
8.033859e-01
8.029204e-01
8.023869e-01
8.017809e-01
8.010934e-01
8.003138e-01
7.994329e-01
7.984438e-01
7.973411e-01
7.961193e-01
7.947746e-01
7.933071e-01
7.917208e-01
7.900185e-01
7.881939e-01
7.862273e-01
7.840889e-01
7.817487e-01
7.791871e-01
7.764023e-01
7.734089e-01
7.702312e-01
7.668917e-01
7.634019e-01
7.597600e-01
7.559561e-01
7.519794e-01
7.478222e-01
7.434788e-01
7.389410e-01
7.341948e-01
7.292229e-01
7.240110e-01
7.185532e-01
7.128558e-01
7.069367e-01
7.008221e-01
6.945395e-01
6.881102e-01
6.815492e-01
6.748679e-01
6.680730e-01
6.611637e-01
6.541371e-01
6.469982e-01
6.397638e-01
6.324530e-01
6.250726e-01
6.176157e-01
6.100769e-01
6.024635e-01
5.947936e-01
5.870899e-01
5.793745e-01
5.716661e-01
5.639776e-01
5.563148e-01
5.486771e-01
5.410630e-01
5.334732e-01
5.259110e-01
5.183818e-01
5.108914e-01
5.034395e-01
4.960144e-01
4.885976e-01
4.811727e-01
4.737292e-01
4.662629e-01
4.587763e-01
4.512771e-01
4.437710e-01
4.362546e-01
4.287200e-01
4.211639e-01
4.135906e-01
4.060104e-01
3.984381e-01
3.908864e-01
3.833556e-01
3.758306e-01
3.682890e-01
3.607107e-01
3.530849e-01
3.454123e-01
3.377043e-01
3.299796e-01
3.222580e-01
3.145556e-01
3.068825e-01
2.992418e-01
2.916278e-01
2.840244e-01
2.764095e-01
2.687629e-01
2.610741e-01
2.533438e-01
2.455808e-01
2.377938e-01
2.299855e-01
2.221511e-01
2.142812e-01
2.063668e-01
1.984049e-01
1.904008e-01
1.823676e-01
1.743217e-01
1.662773e-01
1.582425e-01
1.502201e-01
1.422107e-01
1.342161e-01
1.262396e-01
1.182849e-01
1.103546e-01
1.024472e-01
9.455553e-02
8.666865e-02
7.877507e-02
7.086579e-02
6.293493e-02
5.497701e-02
4.698342e-02
3.894204e-02
3.084124e-02
2.267491e-02
1.444484e-02
6.159796e-03
-2.166732e-03
-1.051878e-02
-1.888016e-02
-2.723694e-02
-3.557929e-02
-4.390188e-02
-5.220383e-02
-6.048957e-02
-6.876992e-02
-7.706159e-02
-8.538382e-02
-9.375194e-02
-1.021712e-01
-1.106360e-01
-1.191361e-01
-1.276648e-01
-1.362222e-01
-1.448138e-01
-1.534456e-01
-1.621200e-01
-1.708318e-01
-1.795652e-01
-1.882952e-01
-1.969938e-01
-2.056378e-01
-2.142163e-01
-2.227318e-01
-2.311975e-01
-2.396323e-01
-2.480600e-01
-2.565076e-01
-2.649961e-01
-2.735334e-01
-2.821150e-01
-2.907291e-01
-2.993643e-01
-3.080172e-01
-3.166988e-01
-3.254295e-01
-3.342264e-01
-3.430930e-01
-3.520169e-01
-3.609725e-01
-3.699268e-01
-3.788510e-01
-3.877277e-01
-3.965481e-01
-4.053090e-01
-4.140171e-01
-4.226909e-01
-4.313525e-01
-4.400172e-01
-4.486904e-01
-4.573717e-01
-4.660559e-01
-4.747316e-01
-4.833810e-01
-4.919829e-01
-5.005165e-01
-5.089645e-01
-5.173170e-01
-5.255713e-01
-5.337285e-01
-5.417899e-01
-5.497574e-01
-5.576343e-01
-5.654229e-01
-5.731244e-01
-5.807384e-01
-5.882620e-01
-5.956883e-01
-6.030058e-01
-6.102016e-01
-6.172686e-01
-6.242105e-01
-6.310415e-01
-6.377806e-01
-6.444480e-01
-6.510656e-01
-6.576559e-01
-6.642409e-01
-6.708390e-01
-6.774636e-01
-6.841192e-01
-6.907984e-01
-6.974803e-01
-7.041350e-01
-7.107313e-01
-7.172470e-01
-7.236769e-01
-7.300337e-01
-7.363404e-01
-7.426192e-01
-7.488827e-01
-7.551311e-01
-7.613555e-01
-7.675446e-01
-7.736889e-01
-7.797814e-01
-7.858148e-01
-7.917792e-01
-7.976636e-01
-8.034575e-01
-8.091527e-01
-8.147454e-01
-8.202396e-01
-8.256453e-01
-8.309731e-01
-8.362299e-01
-8.414196e-01
-8.465441e-01
-8.516002e-01
-8.565780e-01
-8.614661e-01
-8.662585e-01
-8.709565e-01
-8.755658e-01
-8.800928e-01
-8.845458e-01
-8.889375e-01
-8.932845e-01
-8.976034e-01
-9.019016e-01
-9.061720e-01
-9.103986e-01
-9.145656e-01
-9.186608e-01
-9.226734e-01
-9.265960e-01
-9.304300e-01
-9.341862e-01
-9.378766e-01
-9.415074e-01
-9.450785e-01
-9.485814e-01
-9.519997e-01
-9.553151e-01
-9.585174e-01
-9.616086e-01
-9.645996e-01
-9.675037e-01
-9.703286e-01
-9.730701e-01
-9.757153e-01
-9.782549e-01
-9.806906e-01
-9.830337e-01
-9.852955e-01
-9.874798e-01
-9.895848e-01
-9.916159e-01
-9.935904e-01
-9.955246e-01
-9.974221e-01
-9.992759e-01
-1.001075e+00
-1.002809e+00
-1.004476e+00
-1.006077e+00
-1.007622e+00
-1.009128e+00
-1.010614e+00
-1.012094e+00
-1.013569e+00
-1.015037e+00
-1.016495e+00
-1.017949e+00
-1.019411e+00
-1.020897e+00
-1.022413e+00
-1.023947e+00
-1.025480e+00
-1.026988e+00
-1.028459e+00
-1.029900e+00
-1.031330e+00
-1.032764e+00
-1.034210e+00
-1.035658e+00
-1.037091e+00
-1.038486e+00
-1.039824e+00
-1.041089e+00
-1.042268e+00
-1.043352e+00
-1.044337e+00
-1.045229e+00
-1.046041e+00
-1.046786e+00
-1.047476e+00
-1.048111e+00
-1.048679e+00
-1.049158e+00
-1.049520e+00
-1.049736e+00
-1.049790e+00
-1.049677e+00
-1.049408e+00
-1.048995e+00
-1.048444e+00
-1.047752e+00
-1.046910e+00
-1.045911e+00
-1.044757e+00
-1.043454e+00
-1.042006e+00
-1.040415e+00
-1.038677e+00
-1.036790e+00
-1.034752e+00
-1.032566e+00
-1.030244e+00
-1.027799e+00
-1.025245e+00
-1.022595e+00
-1.019853e+00
-1.017007e+00
-1.014035e+00
-1.010916e+00
-1.007642e+00
-1.004209e+00
-1.000616e+00
-9.968634e-01
-9.929620e-01
-9.889330e-01
-9.847964e-01
-9.805617e-01
-9.762256e-01
-9.717804e-01
-9.672225e-01
-9.625564e-01
-9.577948e-01
-9.529568e-01
-9.480639e-01
-9.431342e-01
-9.381790e-01
-9.332010e-01
-9.281944e-01
-9.231494e-01
-9.180573e-01
-9.129160e-01
-9.077305e-01
-9.025094e-01
-8.972595e-01
-8.919825e-01
-8.866740e-01
-8.813258e-01
-8.759290e-01
-8.704787e-01
-8.649771e-01
-8.594323e-01
-8.538525e-01
-8.482407e-01
-8.425921e-01
-8.368969e-01
-8.311460e-01
-8.253374e-01
-8.194789e-01
-8.135846e-01
-8.076667e-01
-8.017300e-01
-7.957710e-01
-7.897821e-01
-7.837563e-01
-7.776888e-01
-7.715755e-01
-7.654117e-01
-7.591914e-01
-7.529132e-01
-7.465852e-01
-7.402206e-01
-7.338253e-01
-7.273886e-01
-7.208892e-01
-7.143077e-01
-7.076361e-01
-7.008774e-01
-6.940425e-01
-6.871447e-01
-6.801967e-01
-6.732094e-01
-6.661902e-01
-6.591395e-01
-6.520480e-01
-6.449025e-01
-6.376947e-01
-6.304256e-01
-6.231015e-01
-6.157297e-01
-6.083159e-01
-6.008617e-01
-5.933633e-01
-5.858148e-01
-5.782095e-01
-5.705371e-01
-5.627869e-01
-5.549538e-01
-5.470405e-01
-5.390545e-01
-5.310060e-01
-5.229089e-01
-5.147790e-01
-5.066297e-01
-4.984687e-01
-4.902972e-01
-4.821135e-01
-4.739165e-01
-4.657077e-01
-4.574896e-01
-4.492623e-01
-4.410223e-01
-4.327642e-01
-4.244826e-01
-4.161758e-01
-4.078474e-01
-3.995049e-01
-3.911555e-01
-3.828020e-01
-3.744440e-01
-3.660807e-01
-3.577147e-01
-3.493504e-01
-3.409924e-01
-3.326472e-01
-3.243244e-01
-3.160360e-01
-3.077940e-01
-2.996053e-01
-2.914690e-01
-2.833767e-01
-2.753153e-01
-2.672700e-01
-2.592269e-01
-2.511749e-01
-2.431058e-01
-2.350153e-01
-2.269019e-01
-2.187681e-01
-2.106225e-01
-2.024792e-01
-1.943546e-01
-1.862614e-01
-1.782026e-01
-1.701683e-01
-1.621398e-01
-1.541036e-01
-1.460573e-01
-1.379971e-01
-1.299051e-01
-1.217646e-01
-1.135804e-01
-1.053719e-01
-9.715200e-02
-8.892377e-02
-8.069182e-02
-7.246326e-02
-6.423795e-02
-5.600287e-02
-4.773645e-02
-3.942099e-02
-3.105486e-02
-2.264916e-02
-1.421155e-02
-5.738837e-03
2.775545e-03
1.133548e-02
1.994598e-02
2.861552e-02
3.734891e-02
4.614176e-02
5.498504e-02
6.387246e-02
7.280327e-02
8.178073e-02
9.080695e-02
9.987726e-02
1.089790e-01
1.180955e-01
1.272100e-01
1.363084e-01
1.453795e-01
1.544171e-01
1.634204e-01
1.723940e-01
1.813443e-01
1.902788e-01
1.992097e-01
2.081546e-01
2.171240e-01
2.261124e-01
2.351029e-01
2.440792e-01
2.530292e-01
2.619458e-01
2.708334e-01
2.797081e-01
2.885851e-01
2.974693e-01
3.063559e-01
3.152350e-01
3.240940e-01
3.329198e-01
3.417041e-01
3.504487e-01
3.591654e-01
3.678687e-01
3.765649e-01
3.852482e-01
3.939036e-01
4.025106e-01
4.110481e-01
4.195002e-01
4.278630e-01
4.361453e-01
4.443642e-01
4.525379e-01
4.606811e-01
4.688050e-01
4.769174e-01
4.850204e-01
4.931072e-01
5.011607e-01
5.091560e-01
5.170679e-01
5.248785e-01
5.325818e-01
5.401809e-01
5.476813e-01
5.550858e-01
5.623934e-01
5.696021e-01
5.767128e-01
5.837305e-01
5.906614e-01
5.975078e-01
6.042639e-01
6.109186e-01
6.174634e-01
6.238967e-01
6.302216e-01
6.364435e-01
6.425682e-01
6.486034e-01
6.545572e-01
6.604361e-01
6.662420e-01
6.719737e-01
6.776302e-01
6.832143e-01
6.887319e-01
6.941904e-01
6.995951e-01
7.049473e-01
7.102452e-01
7.154877e-01
7.206758e-01
7.258117e-01
7.308971e-01
7.359335e-01
7.409248e-01
7.458791e-01
7.508027e-01
7.556938e-01
7.605426e-01
7.653364e-01
7.700635e-01
7.747189e-01
7.793097e-01
7.838541e-01
7.883747e-01
7.928895e-01
7.974056e-01
8.019185e-01
8.064151e-01
8.108788e-01
8.152932e-01
8.196469e-01
8.239368e-01
8.281684e-01
8.323557e-01
8.365158e-01
8.406626e-01
8.448023e-01
8.489347e-01
8.530550e-01
8.571551e-01
8.612245e-01
8.652512e-01
8.692261e-01
8.731454e-01
8.770094e-01
8.808197e-01
8.845809e-01
8.883032e-01
8.919965e-01
8.956656e-01
8.993084e-01
9.029148e-01
9.064665e-01
9.099412e-01
9.133164e-01
9.165729e-01
9.197012e-01
9.227002e-01
9.255716e-01
9.283141e-01
9.309208e-01
9.333812e-01
9.356869e-01
9.378366e-01
9.398376e-01
9.417036e-01
9.434513e-01
9.450959e-01
9.466472e-01
9.481075e-01
9.494744e-01
9.507440e-01
9.519124e-01
9.529765e-01
9.539359e-01
9.547943e-01
9.555593e-01
9.562410e-01
9.568495e-01
9.573899e-01
9.578600e-01
9.582511e-01
9.585530e-01
9.587603e-01
9.588749e-01
9.589035e-01
9.588531e-01
9.587276e-01
9.585285e-01
9.582575e-01
9.579171e-01
9.575098e-01
9.570364e-01
9.564975e-01
9.558985e-01
9.552512e-01
9.545668e-01
9.538489e-01
9.530955e-01
9.523044e-01
9.514741e-01
9.506065e-01
9.497092e-01
9.487921e-01
9.478624e-01
9.469208e-01
9.459615e-01
9.449754e-01
9.439559e-01
9.429027e-01
9.418214e-01
9.407203e-01
9.396056e-01
9.384800e-01
9.373425e-01
9.361876e-01
9.350048e-01
9.337811e-01
9.325062e-01
9.311747e-01
9.297867e-01
9.283483e-01
9.268704e-01
9.253625e-01
9.238268e-01
9.222573e-01
9.206417e-01
9.189651e-01
9.172176e-01
9.153986e-01
9.135121e-01
9.115614e-01
9.095506e-01
9.074874e-01
9.053830e-01
9.032525e-01
9.011089e-01
8.989584e-01
8.968009e-01
8.946314e-01
8.924426e-01
8.902242e-01
8.879626e-01
8.856412e-01
8.832458e-01
8.807694e-01
8.782133e-01
8.755833e-01
8.728852e-01
