EVENT_NAME: EMILIA_2ND_SHOCK
EVENT_ID: IT-2012-0011
EVENT_DATE_YYYYMMDD: 20120529
EVENT_TIME_HHMMSS: 070002
EVENT_LATITUDE_DEGREE: 44.8417
EVENT_LONGITUDE_DEGREE: 11.0657
EVENT_DEPTH_KM: 8.1
HYPOCENTER_REFERENCE: INGV-CNT_Seismic_Bulletin
MAGNITUDE_W: 6.0
MAGNITUDE_W_REFERENCE: RCMT-INGV
MAGNITUDE_L: 5.8
MAGNITUDE_L_REFERENCE: INGV-CNT_Seismic_Bulletin
FOCAL_MECHANISM: TF
NETWORK: TV
STATION_CODE: MIR05
STATION_NAME: POGGIO RUSCO
STATION_LATITUDE_DEGREE: 44.980800
STATION_LONGITUDE_DEGREE: 11.107190
STATION_ELEVATION_M: 
LOCATION: 
SENSOR_DEPTH_M: 
VS30_M/S: 
SITE_CLASSIFICATION_EC8: C*
MORPHOLOGIC_CLASSIFICATION: 
EPICENTRAL_DISTANCE_KM: 15.8
EARTHQUAKE_BACKAZIMUTH_DEGREE: 192.0
DATE_TIME_FIRST_SAMPLE_YYYYMMDD_HHMMSS: 20120529_065929.000
DATE_TIME_FIRST_SAMPLE_PRECISION: milliseconds
SAMPLING_INTERVAL_S: 0.005000
NDATA: 30001
DURATION_S: 150.005
STREAM: HNZ
UNITS: cm/s^2
INSTRUMENT: sensor = Episensor FBA ES-T [Kinemetrics] | digitizer = Unknown [Unknown]
INSTRUMENT_ANALOG/DIGITAL: D
INSTRUMENTAL_FREQUENCY_HZ: 
INSTRUMENTAL_DAMPING: 
FULL_SCALE_G: 
N_BIT_DIGITAL_CONVERTER: 
PGA_CM/S^2: -148.876649
TIME_PGA_S: 40.630000
BASELINE_CORRECTION: BASELINE REMOVED
FILTER_TYPE: BUTTERWORTH
FILTER_ORDER: 2
LOW_CUT_FREQUENCY_HZ: 0.070
HIGH_CUT_FREQUENCY_HZ: 40.000
LATE/NORMAL_TRIGGERED: NT
DATABASE_VERSION: DYNA 1.0
HEADER_FORMAT: DYNA 1.2
DATA_TYPE: ACCELERATION
PROCESSING: manual (Paolucci et al., 2011)
DATA_TIMESTAMP_YYYYMMDD_HHMMSS: 
DATA_LICENSE: CC-BY4_0 (http://creativecommons.org/licenses/by/4.0/)
DATA_CITATION: ESM working group (2015), European Strong-Motion database, version 0.1, Network Activity 3: Networking acceleration networks and SM data users. Project NERA (www.nera-eu.org)
DATA_CREATOR: ESM working group
ORIGINAL_DATA_MEDIATOR_CITATION: Orfeus - European Integrated Data Archive (EIDA) http://www.orfeus-eu.org/eida/
ORIGINAL_DATA_MEDIATOR: Orfeus - European Integrated Data Archive (EIDA)
ORIGINAL_DATA_CREATOR_CITATION: 
ORIGINAL_DATA_CREATOR: network: TV (INGV Experiments Network); owner: Istituto Nazionale di Geofisica e Vulcanologia
USER1: 
USER2: 
USER3: 
USER4: 
USER5: 
[...]
-0.001751
-0.002488
-0.003068
-0.002951
-0.001987
-0.000383
0.001709
0.003695
0.004046
0.001686
-0.002595
-0.006392
-0.007294
-0.005131
-0.001980
0.000979
0.004875
0.010133
0.014783
0.016983
0.016432
0.013444
0.008833
0.003877
-0.000472
-0.003778
-0.005903
-0.007086
-0.007470
-0.006255
-0.002833
0.001326
0.004155
0.005837
0.007738
0.009814
0.011784
0.014471
0.017098
0.016922
0.013752
0.010733
0.010322
0.012513
0.015244
0.015860
0.013803
0.010606
0.008062
0.007710
0.009618
0.011748
0.011899
0.009415
0.005335
0.001076
-0.003068
-0.006965
-0.009335
-0.009602
-0.009253
-0.009251
-0.008614
-0.006857
-0.004719
-0.002451
0.000037
0.002491
0.004936
0.007364
0.009018
0.008776
0.005867
0.000777
-0.004855
-0.009818
-0.013861
-0.016850
-0.017715
-0.014428
-0.006726
0.002311
0.009680
0.014968
0.018361
0.019556
0.018664
0.016067
0.012046
0.006668
-0.000085
-0.006931
-0.011255
-0.011932
-0.010693
-0.010025
-0.010714
-0.011289
-0.009476
-0.004288
0.003359
0.011206
0.016623
0.018033
0.015991
0.013136
0.011891
0.011620
0.009975
0.006041
0.000619
-0.003952
-0.005108
-0.003377
-0.001229
0.001243
0.005705
0.012656
0.020631
0.026165
0.026084
0.021149
0.015304
0.011253
0.008215
0.004088
-0.001023
-0.004674
-0.004957
-0.001920
0.002716
0.006067
0.006191
0.004218
0.002594
0.002066
0.001887
0.001310
0.000170
-0.000770
-0.000558
0.000740
0.002462
0.004037
0.004603
0.002980
-0.000938
-0.004955
-0.006487
-0.005519
-0.003595
-0.001567
-0.000190
-0.000130
-0.000891
-0.002107
-0.004095
-0.006204
-0.007564
-0.008196
-0.007581
-0.005471
-0.003509
-0.002613
-0.001563
0.000481
0.003308
0.006621
0.009693
0.011262
0.010529
0.008358
0.006563
0.005468
0.004474
0.004393
0.005707
0.006571
0.005242
0.002276
-0.000262
-0.000805
0.000219
0.001771
0.003833
0.005889
0.007129
0.008259
0.009796
0.011737
0.014894
0.018253
0.019444
0.018903
0.017487
0.013904
0.008240
0.002759
-0.000925
-0.002550
-0.002576
-0.001597
-0.000153
0.000966
0.001323
0.001485
0.001838
0.001982
0.002358
0.004017
0.006520
0.008402
0.008509
0.006124
0.001510
-0.003753
-0.007739
-0.009980
-0.011867
-0.013627
-0.012845
-0.008868
-0.006278
-0.008622
-0.010758
-0.008119
-0.006908
-0.009768
-0.009286
-0.005639
-0.004600
-0.002942
0.002468
0.006229
0.005587
0.004877
0.005671
0.005449
0.004477
0.003544
0.001881
0.001238
0.003207
0.004592
0.001795
-0.002993
-0.004351
-0.001094
0.003403
0.007051
0.010191
0.012656
0.013986
0.014719
0.015416
0.016203
0.017038
0.017508
0.016899
0.014133
0.009190
0.004640
0.002211
0.000474
-0.001630
-0.004200
-0.007655
-0.010378
-0.010123
-0.007541
-0.004088
-0.000629
0.001543
0.002127
0.001765
0.000839
0.000729
0.002563
0.005086
0.007344
0.009616
0.011197
0.011617
0.010855
0.007582
0.001901
-0.003909
-0.009106
-0.013205
-0.014195
-0.011951
-0.008708
-0.006193
-0.004479
-0.002452
-0.000514
-0.000463
-0.000514
0.003458
0.010971
0.016886
0.017173
0.012255
0.005442
-0.000817
-0.005436
-0.007620
-0.008028
-0.007447
-0.004400
0.001344
0.006430
0.008547
0.008437
0.006847
0.004021
0.000848
-0.001698
-0.003126
-0.003752
-0.004308
-0.004364
-0.002509
0.001799
0.007554
0.012809
0.016159
0.017290
0.015800
0.011789
0.006548
0.000897
-0.004174
-0.007066
-0.008646
-0.010993
-0.013765
-0.016020
-0.017263
-0.016007
-0.011443
-0.004281
0.004322
0.012244
0.017131
0.018316
0.017051
0.015393
0.013512
0.009276
0.002503
-0.004420
-0.010205
-0.014082
-0.014766
-0.012827
-0.009752
-0.005236
0.001506
0.009768
0.017606
0.022823
0.024304
0.022439
0.018174
0.012715
0.006835
0.000224
-0.006240
-0.010219
-0.011316
-0.010332
-0.006654
0.000108
0.008396
0.015099
0.016766
0.012284
0.004006
-0.004542
-0.010825
-0.014381
-0.017072
-0.020581
-0.023786
-0.024398
-0.021568
-0.015754
-0.008211
-0.000621
0.005390
0.008183
0.007062
0.002773
-0.003461
-0.009821
-0.014501
-0.016669
-0.015628
-0.011867
-0.007587
-0.003607
0.000249
0.002746
0.003742
0.005252
0.008329
0.012522
0.016629
0.018762
0.017958
0.014386
0.008692
0.003066
-0.000773
-0.004122
-0.007944
-0.010483
-0.010099
-0.007026
-0.002280
0.003629
0.010278
0.016062
0.019571
0.021079
0.020895
0.018950
0.015856
0.011628
0.005534
-0.001959
-0.009559
-0.016152
-0.020623
-0.022430
-0.021098
-0.015552
-0.006614
0.002722
0.010638
0.016208
0.018137
0.016735
0.013320
0.008110
0.001688
-0.004180
-0.007936
-0.009308
-0.009897
-0.011570
-0.014223
-0.015541
-0.011984
-0.002721
0.007667
0.014578
0.017799
0.017817
0.014130
0.008166
0.002366
-0.002760
-0.008222
-0.014769
-0.021258
-0.025089
-0.025329
-0.023229
-0.020403
-0.018036
-0.015268
-0.009490
-0.000267
0.010071
0.019194
0.025247
0.026050
0.019828
0.007425
-0.007123
-0.019799
-0.028988
-0.034183
-0.034826
-0.030613
-0.021685
-0.008679
0.007308
0.024580
0.039825
0.048303
0.047354
0.038472
0.024529
0.007930
-0.008578
-0.022672
-0.033188
-0.039322
-0.040243
-0.035212
-0.025192
-0.013537
-0.001984
0.010350
0.022135
0.030047
0.032986
0.031877
0.027617
0.019997
0.008465
-0.004987
-0.016988
-0.026826
-0.035229
-0.041030
-0.041912
-0.036698
-0.026344
-0.013153
0.001208
0.015766
0.028936
0.038864
0.043883
0.043092
0.037518
0.028409
0.015610
-0.000207
-0.016826
-0.031826
-0.042309
-0.045494
-0.039831
-0.025605
-0.006923
0.009865
0.021751
0.029583
0.034359
0.035617
0.031352
0.020263
0.004785
-0.011219
-0.025710
-0.036893
-0.042896
-0.043482
-0.039090
-0.030499
-0.019206
-0.006620
0.004021
0.008529
0.008560
0.008216
0.004894
-0.003157
-0.009962
-0.012965
-0.015510
-0.017541
-0.017191
-0.015691
-0.014349
-0.011276
-0.004051
0.005814
0.014282
0.018943
0.019658
0.017803
0.015006
0.011330
0.005809
-0.001230
-0.008223
-0.014643
-0.020818
-0.025913
-0.028133
-0.026433
-0.021121
-0.012869
-0.002323
0.008773
0.018160
0.025016
0.029148
0.028908
0.021800
0.007897
-0.008083
-0.020410
-0.027474
-0.031214
-0.033717
-0.035550
-0.034957
-0.029268
-0.018155
-0.003959
0.010395
0.022575
0.030799
0.033323
0.029928
0.023784
0.018285
0.013288
0.007001
-0.001449
-0.011749
-0.021867
-0.028302
-0.027913
-0.020880
-0.012700
-0.009332
-0.009743
-0.008032
-0.001621
0.006683
0.012325
0.012920
0.010227
0.007155
0.003823
-0.000507
-0.005341
-0.010400
-0.015056
-0.018000
-0.019185
-0.018974
-0.017105
-0.014078
-0.010839
-0.008407
-0.007856
-0.007861
-0.005729
-0.001670
0.002029
0.003474
0.001567
-0.002483
-0.005325
-0.004614
-0.001403
0.000033
-0.003540
-0.010220
-0.015754
-0.018165
-0.017818
-0.015432
-0.010818
-0.004393
0.000820
0.002338
0.001586
0.001261
0.001970
0.002693
0.002424
-0.000085
-0.006515
-0.016790
-0.027946
-0.035762
-0.037535
-0.034534
-0.029580
-0.022969
-0.014807
-0.007229
-0.001329
0.003434
0.007088
0.009085
0.009746
0.011075
0.013699
0.014150
0.009391
0.000836
-0.008396
-0.016374
-0.022406
-0.025728
-0.024992
-0.020354
-0.013749
-0.006106
0.002880
0.012690
0.021046
0.024963
0.023460
0.018029
0.009565
-0.002321
-0.016507
-0.029982
-0.039983
-0.044619
-0.042976
-0.035549
-0.023572
-0.008975
0.005384
0.017085
0.024266
0.025462
0.021969
0.017137
0.011482
0.002055
-0.012399
-0.028257
-0.040208
-0.045551
-0.043673
-0.034468
-0.019589
-0.002621
0.012521
0.022559
0.026328
0.025212
0.020667
0.013197
0.003883
-0.005901
-0.015718
-0.024806
-0.031117
-0.033745
-0.033985
-0.032600
-0.029214
-0.024343
-0.019420
-0.015563
-0.013113
-0.011932
-0.011348
-0.009170
-0.003709
0.001987
0.002338
-0.003958
-0.012799
-0.019734
-0.024506
-0.029978
-0.037107
-0.044650
-0.054146
-0.070399
-0.096293
-0.130469
-0.170593
-0.215585
-0.262950
-0.307539
-0.346739
-0.385346
-0.432179
-0.492201
-0.565306
-0.655572
-0.776455
-0.933106
-1.101091
-1.247410
-1.378494
-1.542357
-1.777814
-2.079397
-2.402780
-2.681278
-2.853308
-2.899162
-2.835368
-2.677110
-2.462496
-2.306941
-2.338944
-2.544110
-2.733036
-2.734579
-2.617209
-2.591470
-2.636061
-2.469616
-2.042841
-1.691593
-1.612101
-1.591673
-1.257768
-0.138298
2.096605
4.715317
5.855389
4.360024
1.289301
-1.087667
-1.143078
1.607735
6.177305
9.628066
9.186909
5.598846
2.291104
1.241669
1.651996
2.035210
1.703397
0.596954
-0.889329
-1.832415
-1.596621
-0.924307
-1.002625
-1.292823
-0.143614
2.009385
2.371944
-0.357514
-3.872619
-5.060466
-3.747010
-2.552276
-2.857177
-2.284855
1.731721
7.028389
8.622420
5.004906
-0.341439
-3.167782
-2.167939
0.768139
2.457731
0.925429
-3.083495
-6.889172
-8.414612
-7.866303
-6.342089
-3.547952
1.170480
6.219446
8.678340
7.252166
2.462783
-4.519047
-11.276684
-14.366896
-12.246355
-6.576864
0.005654
5.041216
5.459015
-0.411591
-9.457847
-15.445545
-14.284301
-6.429023
3.949119
10.652367
9.026847
0.556703
-7.200033
-7.702542
-2.251649
2.471799
3.319911
4.123079
9.789389
19.488132
26.898865
26.520704
18.973934
9.861200
3.980683
1.188632
-2.160220
-7.869623
-13.128509
-14.223812
-11.129528
-6.523976
-2.303794
1.281321
4.457598
6.585071
5.644956
0.085342
-7.976085
-12.753658
-9.681291
0.217020
11.622136
19.466202
22.009640
20.751368
17.296963
10.918252
1.418170
-6.786383
-7.771961
-2.084382
2.132038
-1.613535
-10.109709
-14.505623
-10.773528
-3.187019
1.428582
0.149202
-4.912152
-10.009440
-13.751456
-17.136040
-19.156698
-15.029339
-2.189761
13.485546
21.306965
15.601660
0.380271
-14.968687
-23.906805
-26.956587
-27.608803
-25.877800
-19.105736
-8.396746
-0.279477
-0.313254
-6.448070
-10.392171
-5.579144
7.474346
23.179621
35.244377
38.665756
31.572233
17.838144
5.609990
0.833731
3.017182
7.822167
12.305919
16.903271
22.962372
29.558554
33.809208
33.395393
27.557255
17.257689
5.420544
-4.716830
-11.937781
-17.326550
-23.311510
-31.851336
-41.308861
-45.511959
-38.193764
-19.488518
2.228639
16.469193
19.772490
17.274197
14.303476
9.697781
-0.245014
-14.319113
-26.132612
-30.076172
-25.376120
-14.453849
0.515303
17.479502
31.824238
36.819031
28.569258
10.413680
-8.433615
-19.790663
-22.304165
-19.477041
-13.247424
-2.844813
10.252430
20.488451
23.561638
21.290623
18.056541
13.368813
2.681164
-13.426400
-26.627937
-30.408195
-27.111904
-22.226456
-16.558117
-7.972564
2.564537
11.124381
16.203062
19.971123
23.143599
22.973665
18.697220
13.835315
10.161514
5.162664
-2.137501
-9.390843
-16.924156
-28.710350
-44.248634
-54.316166
-49.063389
-29.253340
-6.547190
7.880976
13.170699
16.357624
22.560938
30.947058
39.256844
46.616215
50.016159
43.786633
26.840921
6.381812
-9.598912
-19.624016
-25.255970
-25.692942
-20.528452
-13.306874
-7.833471
-4.685853
-3.972713
-6.593997
-10.592077
-11.817072
-10.429317
-11.424487
-16.544180
-20.186306
-15.445879
-1.710302
13.995448
21.591370
15.840999
2.214053
-7.415369
-7.307000
-3.207857
-3.194328
-7.196266
-8.305661
-1.134402
13.367851
28.731337
36.613338
31.686819
15.929319
-1.533802
-11.335251
-12.639613
-13.589744
-20.927176
-31.208344
-35.411175
-30.008652
-19.211052
-7.548969
4.613732
16.781721
23.794006
19.550608
3.818915
-17.461582
-36.984764
-49.048080
-50.263943
-40.754799
-24.932207
-9.220050
2.846436
12.451516
20.581953
24.001066
20.283287
14.517888
15.764220
26.846594
41.098240
49.621391
49.125904
42.237263
32.642841
21.165857
6.697400
-9.217955
-21.548321
-26.763905
-25.014589
-17.462418
-7.067773
-1.335178
-7.034837
-20.391548
-27.303930
-16.243153
10.183087
36.375729
43.830341
22.474010
-19.946993
-58.365849
-68.266304
-46.993706
-14.097790
8.493160
12.437484
3.109428
-8.862533
-16.586658
-20.477062
-22.714151
-21.106283
-13.063920
-2.244002
5.229053
8.821916
12.662344
19.171200
26.435942
28.113859
16.425222
-8.014397
-30.836864
-36.390579
-23.965410
-4.653882
13.885786
30.628986
42.047646
39.315788
17.421614
-15.627348
-42.202648
-50.411526
-44.057899
-33.943520
-23.070589
-6.143048
18.508083
41.911716
50.231812
36.112930
4.425607
-30.678413
-52.134785
-47.248375
-16.525536
22.854187
47.138725
42.731522
13.956203
-22.177795
-46.707130
-48.821922
-31.028444
-5.445695
15.148504
23.637852
19.790098
7.246780
-9.988016
-24.863338
-24.301716
-1.198817
28.746279
36.303337
10.932769
-27.340965
-53.703308
-63.064884
-59.595409
-38.067646
4.127264
45.797256
56.021774
28.525751
-13.152800
-42.467293
-50.778507
-45.036766
-33.759918
-15.489799
19.530304
72.322090
121.381905
134.815689
100.514359
39.844570
-11.931111
-35.881611
-37.259312
-27.202522
-7.308460
21.330927
43.381149
38.593414
6.706101
-27.715019
-40.105309
-29.888159
-15.664380
-12.187139
-18.054216
-22.452074
-17.731380
-5.886985
2.943049
-2.645322
-25.404503
-53.316063
-68.136024
-62.963779
-46.057922
-26.808508
-5.799216
18.697910
40.120960
45.237110
27.969168
0.077462
-14.548364
-0.190757
33.224724
57.249386
54.266590
34.714985
21.826296
27.908068
49.946007
78.281792
100.970726
104.774902
82.113510
39.971340
-2.834163
-29.980438
-36.600273
-25.740614
-3.865010
19.349995
33.814789
33.397861
16.030903
-17.311405
-61.723099
-107.865234
-142.018051
-148.876648
-121.552483
-72.576714
-31.142450
-22.055037
-43.450615
-68.504211
-71.882660
-51.338825
-22.728115
0.683329
20.529350
46.067619
76.728790
95.324074
82.911758
41.940460
1.084030
-7.724970
22.565821
70.426949
108.171593
125.302490
130.727661
135.771820
138.105042
124.572739
91.189857
55.965347
43.733185
58.398369
76.889961
70.147461
27.002237
-37.386173
-91.868904
-112.622589
-101.313835
-79.282341
-63.204788
-50.250893
-29.303856
-0.731071
22.241768
27.698032
12.648771
-18.505533
-53.987976
-76.993309
-75.856552
-51.234207
-13.032319
25.126787
49.890652
54.229172
42.410042
27.215250
20.685099
25.607874
34.931011
40.250641
39.816696
37.051182
34.638302
33.397259
34.908226
41.657856
53.226257
62.910782
60.150120
37.521370
-4.269258
-54.679428
-93.732338
-100.457161
-69.246658
-17.188005
27.917517
46.582039
37.971996
15.851318
-6.704168
-27.849445
-48.334717
-58.275417
-44.774521
-11.756568
18.708138
26.117226
7.290993
-24.170290
-47.462234
-45.747562
-14.716066
35.514935
85.404854
115.406830
114.630600
81.601685
21.577456
-48.894985
-100.507965
-108.999397
-76.686935
-31.091192
-3.688582
-9.403080
-38.115162
-62.374630
-59.128510
-28.407955
8.713243
28.749338
21.915712
-5.193414
-37.080631
-59.049786
-63.100967
-48.255463
-18.974571
15.055666
40.730339
48.154297
37.423035
17.642277
-0.724381
-10.884238
-10.071902
-0.934001
8.698545
12.965717
13.092305
11.678190
6.079119
-7.335974
-23.350464
-27.067081
-7.918513
25.599482
50.887337
51.992149
31.180101
1.781234
-23.810043
-39.661053
-46.848354
-51.217960
-58.023403
-66.831810
-70.964775
-61.714127
-34.916744
5.399834
50.122635
89.263901
111.549622
105.647217
68.297302
11.128260
-43.284081
-74.672256
-77.291748
-59.379257
-31.128878
1.762890
32.469032
51.109955
53.395699
43.953449
28.524136
10.352940
-4.744118
-8.601660
-0.043321
10.552035
10.751772
0.192463
-8.365458
-3.660052
12.097937
26.836542
28.653303
11.966918
-19.113743
-52.414963
-76.407753
-84.893341
-73.124138
-39.823959
3.204888
34.580521
41.741772
28.669754
5.283163
-21.079929
-43.076984
-52.144642
-44.652897
-25.799183
-3.800163
18.709923
44.033676
69.796768
84.196976
75.083305
43.309593
3.631568
-28.125090
-46.284859
-54.386169
-57.448818
-57.001282
-50.752972
-35.479385
-12.801179
8.278608
18.684896
17.426855
8.899032
-2.917256
-13.715894
-18.980627
-18.532816
-16.297094
-15.481034
-17.781853
-24.105007
-31.880987
-35.540272
-32.786018
-26.217495
-17.017891
-2.289084
18.308205
36.794426
42.446365
33.524754
19.356895
9.184465
3.913513
1.640873
5.523550
20.025101
40.981258
55.081631
50.850903
27.434933
-6.821296
-40.094112
-62.132568
-68.756195
-62.583172
-48.674236
-31.485954
-16.181034
-8.861458
-13.227557
-27.901091
-46.063423
-56.347164
-48.186138
-21.320240
11.640735
35.243343
42.907101
39.336205
34.632778
35.131325
36.485802
27.548044
5.210304
-16.947454
-19.672714
3.552992
41.468975
75.013077
89.314621
79.033897
47.911716
6.968138
-28.228901
-44.230873
-37.191765
-13.709822
14.055793
33.183617
35.190109
21.350296
0.933600
-18.576332
-38.170479
-62.466702
-89.354553
-107.735069
-106.667328
-84.198746
-46.954670
-5.416089
28.298120
41.388309
25.260914
-15.106633
-57.914284
-78.338043
-68.278885
-38.324184
-1.814559
35.664951
71.832611
101.542709
118.597916
120.449371
109.124275
88.647881
63.056602
37.288120
17.223713
5.563811
0.385452
0.733018
7.704468
16.571230
16.937473
5.793773
-7.805318
-14.284917
-12.473056
-6.391063
0.171961
5.938116
13.557692
28.150597
50.721409
72.831833
81.482201
70.670578
45.477535
14.965897
-15.438227
-44.764034
-71.992119
-91.099968
-92.699150
-73.244820
-40.889320
-10.301762
7.071069
9.021026
3.408442
3.341770
17.629864
43.378712
67.247910
74.485352
59.741055
31.653843
5.570419
-9.957059
-17.851370
-22.660828
-20.266832
-2.828865
27.498158
56.015659
67.823616
58.649250
33.151348
-1.994560
-39.830841
-71.294327
-87.189079
-83.502281
-63.416245
-34.763107
-7.152847
10.602207
14.505498
7.691866
-2.440968
-8.558767
-5.269068
8.241947
24.640358
32.227589
26.300558
13.608991
3.060609
-3.726214
-10.303089
-19.339851
-31.452894
-44.834312
-53.500362
-48.843613
-24.411366
18.677095
67.990265
105.445656
122.017296
122.899780
115.187744
97.686775
66.521034
23.561396
-24.745321
-71.567307
-109.296684
-129.264969
-125.955223
-100.258293
-57.898129
-8.232657
34.475235
54.701885
46.720367
21.688711
0.093057
-4.925503
2.457897
7.185812
-0.464265
-16.694534
-31.465391
-38.470798
-35.750450
-22.417177
-0.400484
23.375561
42.431969
56.864285
68.419861
71.962082
59.484245
32.630306
5.365874
-8.148620
-6.637611
-0.934561
-1.198259
-7.723601
-13.839880
-14.151238
-8.593185
-0.042434
9.594031
19.175882
25.941748
27.280258
25.439800
26.818703
34.151623
41.276703
38.260468
20.837381
-6.777856
-35.635406
-55.816757
-60.147652
-48.641064
-28.482775
-8.191063
7.638066
18.308708
23.663099
22.705181
16.040762
6.820852
-2.849316
-13.200984
-22.353598
-25.596109
-22.989666
-22.940510
-32.741890
-47.358406
-52.008919
-37.162964
-9.633679
13.389915
20.887344
14.368072
-1.736187
-26.910753
-57.216141
-78.574089
-74.707626
-40.942139
10.925545
59.011806
83.592400
78.443550
53.095333
23.269859
-1.488490
-20.997089
-37.871494
-52.194084
-63.301987
-71.672897
-75.890648
-70.544487
-50.288624
-17.046894
17.211708
37.512920
37.699799
24.565699
10.555320
4.065457
5.533568
8.952010
6.057206
-7.125401
-24.652088
-34.382999
-30.893927
-21.677845
-17.325283
