EVENT_NAME: EMILIA_2ND_SHOCK
EVENT_ID: IT-2012-0011
EVENT_DATE_YYYYMMDD: 20120529
EVENT_TIME_HHMMSS: 070002
EVENT_LATITUDE_DEGREE: 44.8417
EVENT_LONGITUDE_DEGREE: 11.0657
EVENT_DEPTH_KM: 8.1
HYPOCENTER_REFERENCE: INGV-CNT_Seismic_Bulletin
MAGNITUDE_W: 6.0
MAGNITUDE_W_REFERENCE: RCMT-INGV
MAGNITUDE_L: 5.8
MAGNITUDE_L_REFERENCE: INGV-CNT_Seismic_Bulletin
FOCAL_MECHANISM: TF
NETWORK: TV
STATION_CODE: MIR06
STATION_NAME: PIEVE DI CORIANO
STATION_LATITUDE_DEGREE: 45.040100
STATION_LONGITUDE_DEGREE: 11.087400
STATION_ELEVATION_M: 
LOCATION: 
SENSOR_DEPTH_M: 
VS30_M/S: 
SITE_CLASSIFICATION_EC8: C*
MORPHOLOGIC_CLASSIFICATION: 
EPICENTRAL_DISTANCE_KM: 22.1
EARTHQUAKE_BACKAZIMUTH_DEGREE: 184.4
DATE_TIME_FIRST_SAMPLE_YYYYMMDD_HHMMSS: 20120529_065933.000
DATE_TIME_FIRST_SAMPLE_PRECISION: milliseconds
SAMPLING_INTERVAL_S: 0.005000
NDATA: 30001
DURATION_S: 150.005
STREAM: HNZ
UNITS: cm/s^2
INSTRUMENT: sensor = Episensor FBA ES-T [Kinemetrics] | digitizer = Unknown [Unknown]
INSTRUMENT_ANALOG/DIGITAL: D
INSTRUMENTAL_FREQUENCY_HZ: 
INSTRUMENTAL_DAMPING: 
FULL_SCALE_G: 
N_BIT_DIGITAL_CONVERTER: 
PGA_CM/S^2: -89.374473
TIME_PGA_S: 39.880000
BASELINE_CORRECTION: BASELINE REMOVED
FILTER_TYPE: BUTTERWORTH
FILTER_ORDER: 2
LOW_CUT_FREQUENCY_HZ: 0.060
HIGH_CUT_FREQUENCY_HZ: 40.000
LATE/NORMAL_TRIGGERED: NT
DATABASE_VERSION: DYNA 1.0
HEADER_FORMAT: DYNA 1.2
DATA_TYPE: ACCELERATION
PROCESSING: manual (Paolucci et al., 2011)
DATA_TIMESTAMP_YYYYMMDD_HHMMSS: 
DATA_LICENSE: CC-BY4_0 (http://creativecommons.org/licenses/by/4.0/)
DATA_CITATION: ESM working group (2015), European Strong-Motion database, version 0.1, Network Activity 3: Networking acceleration networks and SM data users. Project NERA (www.nera-eu.org)
DATA_CREATOR: ESM working group
ORIGINAL_DATA_MEDIATOR_CITATION: Orfeus - European Integrated Data Archive (EIDA) http://www.orfeus-eu.org/eida/
ORIGINAL_DATA_MEDIATOR: Orfeus - European Integrated Data Archive (EIDA)
ORIGINAL_DATA_CREATOR_CITATION: 
ORIGINAL_DATA_CREATOR: network: TV (INGV Experiments Network); owner: Istituto Nazionale di Geofisica e Vulcanologia
USER1: 
USER2: 
USER3: 
USER4: 
USER5: 
[...]
-0.008987
-0.010169
-0.009349
-0.006205
-0.001768
0.002354
0.005294
0.007270
0.007794
0.005103
-0.000607
-0.005725
-0.007700
-0.007783
-0.008227
-0.009790
-0.011649
-0.012470
-0.011296
-0.007826
-0.002999
0.001464
0.004683
0.006925
0.008124
0.007675
0.006055
0.003988
0.001081
-0.002599
-0.006179
-0.009246
-0.011344
-0.011446
-0.009456
-0.006870
-0.004629
-0.002181
0.000943
0.004090
0.005427
0.003859
0.001171
-0.000251
-0.000501
-0.001008
-0.002592
-0.005609
-0.009611
-0.012976
-0.014723
-0.014981
-0.013313
-0.009284
-0.004131
0.000048
0.002202
0.002544
0.001357
-0.001313
-0.004552
-0.006505
-0.006811
-0.007640
-0.010476
-0.013484
-0.013733
-0.011083
-0.007819
-0.004729
-0.000912
0.002965
0.004712
0.003557
0.000657
-0.002903
-0.006356
-0.008519
-0.009179
-0.009656
-0.010694
-0.011434
-0.011052
-0.009902
-0.008652
-0.007302
-0.005355
-0.003055
-0.001722
-0.001881
-0.002042
-0.000440
0.002357
0.003597
0.001654
-0.002091
-0.005601
-0.008904
-0.012560
-0.014857
-0.013564
-0.008989
-0.003112
0.001687
0.003070
0.001580
0.000989
0.002788
0.003980
0.002239
-0.000972
-0.003396
-0.004450
-0.005281
-0.007927
-0.011921
-0.013075
-0.009689
-0.006366
-0.006339
-0.005044
0.001231
0.005918
0.001514
-0.006277
-0.006223
0.000204
0.002673
-0.000862
-0.005562
-0.010156
-0.014609
-0.016926
-0.016786
-0.015108
-0.012684
-0.011572
-0.012266
-0.011824
-0.008206
-0.002622
0.002247
0.004075
0.002652
0.000197
-0.001167
-0.001387
-0.001643
-0.002843
-0.005033
-0.007559
-0.009858
-0.012040
-0.014221
-0.015443
-0.014420
-0.011542
-0.008902
-0.007716
-0.006436
-0.002699
0.003138
0.007825
0.008780
0.006620
0.003265
-0.000458
-0.003996
-0.006878
-0.009530
-0.011763
-0.012168
-0.010574
-0.009123
-0.009556
-0.010048
-0.006832
-0.000324
0.003928
0.002756
-0.001133
-0.004469
-0.006680
-0.007935
-0.008433
-0.008818
-0.008757
-0.007698
-0.007370
-0.008940
-0.010506
-0.010843
-0.010816
-0.010815
-0.010217
-0.008176
-0.004787
-0.002323
-0.003201
-0.006159
-0.007491
-0.006465
-0.005635
-0.005692
-0.004617
-0.001752
0.000814
0.000158
-0.004495
-0.009622
-0.011392
-0.010879
-0.010817
-0.010849
-0.009432
-0.007122
-0.006065
-0.006571
-0.006241
-0.004167
-0.002498
-0.002792
-0.004844
-0.007995
-0.011003
-0.012705
-0.013194
-0.013029
-0.011935
-0.009056
-0.004939
-0.002013
-0.001661
-0.002740
-0.003584
-0.003749
-0.004148
-0.005653
-0.007111
-0.006642
-0.005035
-0.004938
-0.007013
-0.009072
-0.009030
-0.007737
-0.007492
-0.008329
-0.008252
-0.006296
-0.003216
-0.000572
0.000115
-0.000899
-0.001781
-0.002451
-0.004608
-0.007724
-0.009175
-0.008298
-0.006780
-0.006075
-0.006599
-0.008032
-0.009289
-0.009240
-0.008233
-0.007508
-0.006686
-0.004418
-0.001866
-0.002163
-0.005556
-0.008561
-0.009165
-0.009142
-0.010144
-0.011218
-0.011100
-0.010194
-0.009676
-0.009962
-0.010013
-0.008516
-0.006403
-0.006782
-0.011538
-0.019124
-0.026480
-0.032591
-0.038975
-0.046939
-0.055668
-0.063603
-0.071501
-0.082341
-0.096983
-0.112889
-0.129670
-0.152123
-0.184052
-0.220511
-0.247164
-0.251934
-0.243616
-0.245209
-0.256880
-0.256337
-0.251448
-0.278248
-0.332365
-0.374415
-0.400642
-0.429033
-0.446502
-0.444249
-0.450743
-0.470626
-0.458440
-0.389046
-0.279929
-0.138672
0.024411
0.144219
0.149947
0.059107
-0.029680
-0.028177
0.065642
0.162142
0.170144
0.101812
0.039531
0.022894
0.034132
0.041983
0.015754
-0.042379
-0.094790
-0.166382
-0.348754
-0.585268
-0.618123
-0.346283
-0.017999
0.122047
0.080366
-0.064221
-0.210925
-0.195187
-0.042238
-0.007591
-0.179736
-0.421935
-0.668434
-0.824563
-0.579790
0.163249
0.851793
0.773226
-0.045726
-0.791072
-0.751760
-0.035851
0.629101
0.689223
0.261615
-0.220351
-0.574308
-0.713649
-0.355121
0.498934
1.179977
1.032872
0.172891
-0.788596
-1.453102
-1.753819
-1.644518
-1.097739
-0.333674
0.293769
0.617689
0.667033
0.481121
0.132792
-0.222259
-0.548380
-0.973687
-1.451961
-1.676468
-1.474832
-1.039183
-0.690346
-0.534563
-0.384024
-0.067300
0.218509
0.131747
-0.242050
-0.417346
-0.096947
0.606289
1.450741
2.257644
2.824884
2.893760
2.352804
1.314306
-0.101490
-1.762884
-3.270725
-4.057617
-3.817431
-2.770093
-1.516533
-0.493643
0.383428
1.289859
1.933991
1.847021
1.047584
0.021676
-0.832699
-1.382204
-1.492212
-0.996821
-0.010562
0.969745
1.436139
1.282465
0.719695
-0.074440
-0.974252
-1.756214
-2.187254
-2.121187
-1.477199
-0.347147
0.917301
1.846123
2.023582
1.280592
-0.047584
-1.219536
-1.639712
-1.224658
-0.284146
0.711626
1.262614
1.065803
0.395393
0.051878
0.519715
1.373251
1.828567
1.516495
0.545286
-0.717782
-1.778294
-2.283068
-2.314899
-2.275176
-2.397275
-2.450731
-1.962085
-0.792846
0.497692
1.153919
1.082297
0.779477
0.576735
0.470205
0.468641
0.672804
1.065431
1.354016
1.143459
0.405617
-0.397330
-0.812083
-0.731760
-0.123222
1.086235
2.531868
3.293570
2.775117
1.518325
0.757660
1.138674
1.966455
1.862383
0.286536
-1.930178
-3.709007
-4.624013
-4.551562
-3.528993
-2.159016
-1.166035
-0.504444
0.370382
1.543345
2.619156
3.430349
4.052806
4.287621
3.915114
3.300844
2.955545
2.733636
2.180488
1.400887
0.971917
1.044014
0.979331
0.153186
-1.189015
-2.219756
-2.345023
-1.546870
-0.339964
0.572320
0.932023
1.093330
1.363495
1.465252
0.868834
-0.557421
-2.294952
-3.418688
-3.315665
-2.371545
-1.550194
-1.176585
-0.791232
-0.289477
-0.203187
-0.515985
-0.300504
0.873855
2.122177
2.426271
1.866602
1.173060
0.615957
-0.161512
-1.368415
-2.501330
-2.840117
-2.397255
-1.881797
-1.724110
-1.736130
-1.763531
-2.059682
-2.857904
-3.857726
-4.212428
-3.098502
-0.510823
2.443356
4.141556
3.649031
1.614058
-0.270468
-0.877411
-0.361318
0.637402
1.690322
2.293907
1.712590
-0.361675
-3.306362
-5.879591
-6.859335
-5.740743
-3.315515
-1.205609
-0.279639
0.075993
0.797764
2.112695
3.972315
6.280272
8.266482
8.763005
7.304743
4.132455
-0.468065
-5.732401
-9.772263
-10.602240
-7.831266
-2.811089
2.436452
6.032966
6.913171
5.537541
3.627772
2.869488
3.781299
5.349981
5.726635
3.922656
0.897986
-1.369309
-1.829236
-1.132959
-0.545131
-0.682588
-1.558815
-2.988369
-4.369030
-4.735139
-3.617119
-1.640646
0.034412
0.833267
1.129955
1.547182
2.148701
2.221299
0.621658
-3.187455
-7.947739
-11.095960
-11.137026
-9.005538
-6.568735
-4.508655
-2.460746
-0.549545
0.464213
0.263304
-0.861921
-2.431286
-3.572470
-3.148973
-0.450704
4.602883
10.977235
15.671305
15.056033
8.274890
-1.485695
-9.723296
-13.938266
-13.830596
-9.737731
-2.771530
4.510863
9.718450
12.373398
13.033662
11.819903
8.532741
3.418208
-2.257356
-6.012704
-5.690697
-2.304458
0.114737
-1.090310
-4.513578
-7.351562
-8.755846
-9.443221
-9.484952
-7.776401
-3.595255
1.983520
6.816434
9.751163
11.351070
12.439001
12.535084
10.175888
4.536290
-3.402347
-11.014967
-15.434715
-15.066793
-9.923116
-1.463532
7.201853
12.392577
12.404696
8.124707
1.010107
-7.807630
-15.996487
-19.514988
-15.446276
-5.224720
5.961999
12.859361
12.955735
6.988413
-1.824958
-9.218506
-11.887345
-9.394669
-4.350144
-0.248419
0.863205
-0.933076
-3.686286
-4.823541
-3.659161
-2.181972
-2.499309
-4.648294
-7.067711
-7.514479
-3.913468
3.583040
11.611990
16.217142
15.970528
11.526773
3.451474
-7.475070
-18.336346
-24.950647
-25.476076
-21.422798
-14.497557
-4.911136
5.895423
13.744741
15.326916
11.520514
5.625493
0.124397
-3.760672
-5.167683
-3.758397
-0.466287
2.576425
3.334968
1.222506
-2.946442
-7.670885
-10.856146
-10.395931
-5.968106
0.331145
5.834771
9.193294
10.487537
10.629999
10.749374
11.312631
11.693367
10.684735
7.390867
2.070781
-3.718687
-8.271197
-11.025357
-12.639292
-14.186054
-16.118135
-17.409235
-15.901549
-10.123293
-0.894644
8.789080
15.171773
15.529803
9.817187
0.936304
-7.033735
-10.891587
-9.205220
-2.944507
4.446060
9.380235
10.813127
9.301214
4.711440
-2.635580
-9.960694
-14.067983
-14.361322
-11.654085
-5.820031
2.755117
11.041369
15.162833
13.515865
7.304289
-0.706611
-7.436413
-10.438206
-8.548091
-2.312305
5.911545
12.489427
13.851024
8.577707
-1.028778
-9.949809
-13.771798
-11.113021
-3.185784
7.446202
17.014000
21.480377
19.099333
11.388814
1.114707
-9.770876
-19.885946
-27.158516
-29.175196
-24.935482
-15.448615
-3.213798
7.725262
12.706352
9.858186
2.260260
-4.678917
-7.295872
-4.579699
2.734810
12.275655
20.741592
25.835629
26.957291
24.200922
17.771112
8.433862
-2.065514
-11.338808
-17.334316
-19.293650
-17.731285
-13.189892
-5.626225
3.793855
11.216348
12.947252
9.694519
5.513125
2.711403
0.474973
-1.712132
-2.273398
0.513080
6.744035
14.958528
22.834427
28.232376
29.774504
26.202240
16.782978
3.643956
-8.155968
-14.512178
-14.691046
-9.021837
3.196942
21.306862
40.169121
51.953911
51.687691
40.150131
21.767044
1.801944
-14.509691
-23.148434
-23.246460
-17.034420
-7.621201
2.613564
11.715547
17.438641
17.871017
12.888215
4.459904
-4.472135
-11.081759
-13.416464
-11.294102
-6.647962
-2.844338
-2.997647
-7.272519
-11.814046
-12.305085
-8.565744
-3.993380
-1.168502
0.049049
0.752154
1.527195
2.646117
3.837807
3.854936
1.687128
-2.074997
-5.928827
-8.620334
-9.154086
-6.927144
-2.527668
2.078896
4.781908
5.432792
6.453734
10.070220
15.079831
17.737360
15.632354
9.589037
2.339002
-3.438353
-6.032494
-4.764612
0.104030
7.118855
13.552280
16.620247
15.394809
11.018187
4.789660
-3.290384
-13.847271
-26.291559
-37.585159
-43.118275
-39.696667
-28.176310
-13.251377
-0.728880
5.398217
4.407081
-1.175466
-6.421935
-5.789345
3.821289
20.201778
36.265339
44.740597
43.217838
34.726357
24.609785
17.870581
17.508495
22.535528
28.001308
28.947435
24.236954
15.922340
6.411449
-2.351280
-8.355307
-10.434383
-9.634264
-8.130320
-6.856134
-5.487810
-4.137963
-3.332183
-2.643491
-0.722788
3.224795
8.399305
12.740181
14.137964
11.603836
6.014137
-0.059682
-3.989312
-4.761859
-2.663172
1.913174
8.195516
14.001826
16.230406
12.881948
4.679060
-4.941858
-11.578413
-12.596095
-8.725063
-3.025830
1.412279
3.013410
2.172885
0.765334
0.528911
1.293918
1.049245
-1.906910
-7.089275
-12.206925
-15.281488
-16.316593
-16.699926
-17.221474
-17.480106
-16.927107
-15.209060
-11.678015
-5.964881
0.979948
7.391641
11.917879
13.591689
11.091290
3.030052
-10.540206
-26.995918
-41.901344
-51.062878
-51.924461
-43.828823
-28.345497
-9.805979
5.778079
14.009260
14.787712
11.490904
7.627649
4.638565
2.770925
2.741571
5.011725
7.854603
8.031600
3.961446
-2.828983
-9.729370
-15.504737
-20.301497
-24.145037
-26.348665
-26.319279
-24.316374
-21.123594
-17.365877
-13.440625
-9.627950
-5.894399
-1.934868
2.367865
6.549046
9.471935
10.001157
8.450491
6.935709
7.578631
10.681565
14.644459
16.847019
14.839088
8.016177
-1.127627
-7.816264
-7.844307
-0.297959
11.645234
22.110748
25.803986
21.380043
11.936359
2.282566
-4.166123
-6.534665
-5.708569
-3.167747
-0.528908
0.804258
0.338210
-1.569935
-4.771094
-9.803011
-17.047504
-25.607624
-33.044041
-36.227558
-32.921818
-23.146286
-9.133932
5.908663
18.687450
26.325590
27.474314
22.815685
13.877394
2.298497
-9.378159
-17.810127
-20.746553
-18.342953
-12.452845
-5.274108
0.984251
4.316631
4.456882
3.865222
5.788277
11.172659
17.925606
22.936815
24.301912
21.762133
15.787609
6.881177
-4.022990
-14.965702
-23.569218
-28.063293
-27.379217
-21.433697
-12.375692
-4.483938
-1.370289
-3.332503
-7.866384
-12.032477
-13.647631
-11.399209
-5.598149
1.188532
5.369193
4.693341
-0.474233
-7.710111
-13.896461
-16.678722
-15.858527
-13.581700
-12.561755
-14.052063
-17.377150
-20.498737
-20.767462
-16.064741
-5.965762
7.986117
22.815807
35.052341
42.013042
42.782684
38.169319
30.014359
20.425568
11.093067
2.975336
-3.519357
-8.246277
-11.372137
-13.556000
-15.525106
-17.309864
-18.420263
-18.694836
-18.325876
-17.407005
-16.255152
-15.750561
-16.426018
-17.387943
-16.986998
-14.585024
-10.894956
-6.535178
-1.224162
5.164003
11.495688
16.020576
17.935022
17.919817
17.301235
17.006086
17.088152
17.004513
16.613205
16.614656
17.238791
17.115389
14.728037
10.441768
5.579005
-0.224169
-8.791747
-19.841349
-29.312397
-32.495735
-27.803799
-16.849651
-2.529806
11.578169
21.215624
23.186295
17.746965
8.450253
-0.376180
-5.542551
-5.636083
-1.329246
5.242673
12.160886
18.704458
24.811272
30.068930
33.451900
34.245190
33.380810
33.542412
37.370663
45.120567
53.920425
59.587719
59.527523
53.862179
44.076492
31.646399
18.211998
5.828967
-3.865782
-10.788029
-16.747019
-24.158161
-33.551201
-42.539711
-47.949226
-48.685127
-45.904861
-41.064064
-35.184696
-29.795803
-26.754148
-26.263100
-25.916594
-22.667410
-15.665348
-6.592170
2.456434
10.361138
16.321690
19.127239
18.084259
14.707382
12.768294
15.792799
24.337646
36.054970
48.127594
58.724590
66.068062
67.476974
60.496479
44.914680
23.185648
-1.166482
-24.990276
-45.388088
-59.845940
-68.002632
-72.657143
-77.616508
-84.110626
-89.374474
-88.722160
-79.353157
-62.921658
-44.700321
-29.678516
-19.232332
-11.847503
-6.214258
-2.361505
-0.696771
-1.763088
-6.336308
-13.806809
-20.551649
-21.500196
-13.702223
1.969777
21.799120
40.895515
54.626694
60.264484
58.348549
52.170998
45.310276
39.408737
34.017101
28.243801
22.361082
17.492655
13.965075
11.148771
9.304805
10.040934
13.820371
18.387434
20.858871
20.018913
15.783723
8.403519
-0.476785
-7.431431
-9.546465
-7.057038
-3.207616
-1.420168
-2.513597
-4.510067
-4.908979
-2.821285
0.899943
4.894876
8.409818
11.345527
13.508711
14.537998
14.655166
14.699694
15.633966
18.501007
23.772369
30.117332
34.822914
35.604980
31.453821
22.605320
11.163785
1.514004
-1.811811
2.042121
9.265224
14.874608
16.368586
13.909397
8.817052
3.013452
-1.268903
-2.920762
-3.244662
-5.018034
-10.230593
-19.057722
-30.502621
-43.354961
-56.448383
-67.932976
-74.731979
-74.200096
-67.007095
-57.262306
-49.112667
-43.985168
-41.118813
-39.057468
-35.750217
-28.805645
-17.402687
-3.602398
9.123660
18.597672
25.230097
31.174747
38.340649
46.813828
54.658356
59.088490
58.358028
53.172146
46.434029
41.268158
38.724792
37.145187
33.930134
27.917994
19.769659
10.453844
0.447658
-9.534888
-18.218241
-24.423389
-27.421276
-27.136368
-24.763201
-22.553127
-22.169521
-23.289419
-24.149609
-23.726864
-23.057743
-23.608988
-24.882372
-24.977268
-22.716913
-17.843744
-10.335567
-0.822718
8.955553
16.681656
20.967022
22.864721
25.195559
30.087410
37.741798
46.602612
53.254017
53.273170
44.372986
28.640150
10.614222
-6.219750
-20.422464
-31.430155
-38.769672
-42.417744
-43.222862
-42.231697
-39.757626
-36.188179
-33.150726
-31.573627
-29.081343
-22.329426
-11.467029
0.395864
10.783133
18.155458
20.672304
17.987434
12.518571
6.173743
-1.431804
-8.995738
-11.725516
-6.385772
5.024638
17.969013
28.450174
33.368374
31.804262
26.146946
19.488058
12.848850
6.042996
-0.585660
-5.962292
-8.699759
-7.858452
-4.084346
0.471008
3.738415
4.510800
2.324546
-1.709396
-4.764320
-4.873698
-3.130203
-2.016387
-2.220569
-2.381180
-1.429822
0.118062
0.941151
-0.195155
-4.272080
-11.180062
-18.366688
-22.274696
-22.189459
-20.337484
-17.841070
-13.848788
-8.610160
-3.932569
-1.027112
-0.729210
-3.993083
-10.102308
-17.319656
-25.034279
-32.451900
-37.417847
-37.347324
-30.275188
-16.982063
-1.357429
12.685753
22.901215
28.238123
28.939440
26.731890
24.074537
22.869625
23.250898
23.280071
20.271696
12.973338
2.689409
-7.841927
-16.604448
-22.747166
-25.275183
-22.852585
-15.527774
-5.995822
1.609302
4.554180
3.209517
-0.050404
-3.101354
-4.690446
-3.912792
-0.587748
4.403632
9.906553
14.823173
17.906187
18.326540
15.921113
10.803796
3.824819
-3.387632
-9.777526
-15.003598
-18.081057
-17.443256
-12.689155
-5.606522
0.814884
4.228758
3.564044
-1.438030
-10.041864
-20.188755
-29.384842
-35.664253
-37.687378
-35.160378
-29.501017
-23.133520
-17.618734
-12.409910
-5.321832
5.439370
19.208685
32.587566
41.053299
41.217258
32.644093
18.390144
3.632135
-7.216971
-12.657954
-13.516416
-11.079925
-6.602222
-1.752269
1.709774
2.780324
1.641028
-0.278910
-0.699664
1.976487
6.802925
10.621482
10.663334
5.962570
-3.109682
-14.279859
-23.003462
-25.419668
-21.103092
-11.887134
-0.473734
9.012368
12.156358
7.377128
-2.706337
-12.932775
-18.779242
-18.356134
-12.011196
-1.828814
8.503155
15.401773
17.386524
15.596422
13.043633
12.097508
12.183203
11.394536
9.531157
7.831301
6.862617
5.902922
4.018785
1.543920
-0.021517
0.192209
1.786649
4.138925
6.685545
8.423995
8.417962
6.644523
3.671404
0.136458
-2.909168
-3.989091
-2.168803
2.118855
7.234940
11.388204
13.683448
14.181887
13.357973
11.781615
9.797980
7.026307
2.377968
-4.988753
-14.670280
-25.090736
-34.063919
-38.950176
-37.403744
-29.184105
-16.975174
-4.839088
4.291717
10.107696
14.300850
18.042265
20.231968
19.012955
14.421472
8.495928
3.555483
1.295497
2.394612
5.721804
8.632287
9.114952
7.368370
4.795166
2.181321
-0.320665
-2.127507
-2.360160
-0.906638
1.415490
3.617835
5.153974
6.264710
7.697460
9.293757
9.158717
5.095470
-3.183191
-13.101028
-20.124672
-20.489626
-13.839620
-3.011572
8.367804
17.573284
23.217436
25.248478
24.487144
21.985641
18.687708
15.348098
12.440832
10.027078
8.304509
7.854119
8.138737
7.318235
4.214947
-1.587730
-9.773546
-17.717258
-22.053823
-21.602304
-16.604609
-7.862740
2.312203
11.109633
17.230131
21.142860
24.148619
26.537060
26.882166
24.354715
19.828272
13.995784
6.965540
-0.553390
-7.641753
-13.912721
-19.028028
-22.515228
-24.218916
-24.209730
-22.602749
-19.696716
-15.780073
-11.217471
-7.082972
-4.570628
-3.301440
-1.308297
2.933298
9.192487
16.135857
22.424423
27.043476
29.197386
28.332256
24.510118
18.739376
12.455259
6.579093
1.414596
-2.774190
-5.521915
-6.465361
-5.824477
-4.498761
-3.373240
-2.554112
-1.662508
-0.768655
-0.496390
-1.107541
-1.881240
-1.647368
0.036195
2.137983
2.687211
0.513285
-3.377065
-6.558983
-7.620897
-7.523870
-8.128093
-9.747997
-10.961424
-10.498697
-8.125067
-4.037325
0.916600
4.654110
5.393139
3.843479
2.336020
1.802722
1.032269
-1.169353
-4.587402
-8.406021
-11.826165
-13.845590
-14.117992
-13.732331
-13.861421
-14.920481
-17.407681
-21.320938
-24.877266
-25.630770
-22.770851
-17.827850
-13.496323
-11.988067
-13.661650
-16.231936
-16.007479
-10.918082
-2.178860
6.741515
12.468376
13.982132
12.884204
10.964891
8.289000
4.256819
-0.533157
-4.238926
-5.353995
-3.968827
-1.197898
2.311917
6.707085
