EVENT_NAME: EMILIA_2ND_SHOCK
EVENT_ID: IT-2012-0011
EVENT_DATE_YYYYMMDD: 20120529
EVENT_TIME_HHMMSS: 070002
EVENT_LATITUDE_DEGREE: 44.8417
EVENT_LONGITUDE_DEGREE: 11.0657
EVENT_DEPTH_KM: 8.1
HYPOCENTER_REFERENCE: INGV-CNT_Seismic_Bulletin
MAGNITUDE_W: 6.0
MAGNITUDE_W_REFERENCE: RCMT-INGV
MAGNITUDE_L: 5.8
MAGNITUDE_L_REFERENCE: INGV-CNT_Seismic_Bulletin
FOCAL_MECHANISM: TF
NETWORK: TV
STATION_CODE: MIR03
STATION_NAME: QUARANTOLI 1
STATION_LATITUDE_DEGREE: 44.938400
STATION_LONGITUDE_DEGREE: 11.104500
STATION_ELEVATION_M: 
LOCATION: 
SENSOR_DEPTH_M: 
VS30_M/S: 
SITE_CLASSIFICATION_EC8: C*
MORPHOLOGIC_CLASSIFICATION: 
EPICENTRAL_DISTANCE_KM: 11.2
EARTHQUAKE_BACKAZIMUTH_DEGREE: 195.9
DATE_TIME_FIRST_SAMPLE_YYYYMMDD_HHMMSS: 20120529_065927.000
DATE_TIME_FIRST_SAMPLE_PRECISION: milliseconds
SAMPLING_INTERVAL_S: 0.005000
NDATA: 18001
DURATION_S: 90.005
STREAM: HNZ
UNITS: cm/s^2
INSTRUMENT: sensor = Episensor FBA ES-T [Kinemetrics] | digitizer = Unknown [Unknown]
INSTRUMENT_ANALOG/DIGITAL: D
INSTRUMENTAL_FREQUENCY_HZ: 
INSTRUMENTAL_DAMPING: 
FULL_SCALE_G: 
N_BIT_DIGITAL_CONVERTER: 
PGA_CM/S^2: -398.290479
TIME_PGA_S: 40.210000
BASELINE_CORRECTION: BASELINE REMOVED
FILTER_TYPE: BUTTERWORTH
FILTER_ORDER: 2
LOW_CUT_FREQUENCY_HZ: 0.070
HIGH_CUT_FREQUENCY_HZ: 40.000
LATE/NORMAL_TRIGGERED: NT
DATABASE_VERSION: DYNA 1.0
HEADER_FORMAT: DYNA 1.2
DATA_TYPE: ACCELERATION
PROCESSING: manual (Paolucci et al., 2011)
DATA_TIMESTAMP_YYYYMMDD_HHMMSS: 
DATA_LICENSE: CC-BY4_0 (http://creativecommons.org/licenses/by/4.0/)
DATA_CITATION: ESM working group (2015), European Strong-Motion database, version 0.1, Network Activity 3: Networking acceleration networks and SM data users. Project NERA (www.nera-eu.org)
DATA_CREATOR: ESM working group
ORIGINAL_DATA_MEDIATOR_CITATION: Orfeus - European Integrated Data Archive (EIDA) http://www.orfeus-eu.org/eida/
ORIGINAL_DATA_MEDIATOR: Orfeus - European Integrated Data Archive (EIDA)
ORIGINAL_DATA_CREATOR_CITATION: 
ORIGINAL_DATA_CREATOR: network: TV (INGV Experiments Network); owner: Istituto Nazionale di Geofisica e Vulcanologia
USER1: 
USER2: 
USER3: 
USER4: 
USER5: 
[...]
-0.012091
-0.016423
-0.016319
-0.012317
-0.007224
-0.003134
-0.000882
-0.000394
-0.000862
-0.000794
0.001023
0.003896
0.005971
0.006580
0.006305
0.005079
0.002003
-0.002477
-0.006147
-0.007826
-0.008596
-0.009254
-0.008833
-0.006976
-0.005404
-0.005413
-0.005996
-0.005602
-0.004226
-0.002697
-0.000933
0.001492
0.003615
0.004066
0.003448
0.003256
0.002887
0.000913
-0.001403
-0.001382
0.001101
0.003788
0.005377
0.006540
0.007659
0.007482
0.005332
0.002853
0.001520
0.000210
-0.002670
-0.006272
-0.007961
-0.006152
-0.002120
0.001026
0.000524
-0.004676
-0.012061
-0.015936
-0.013317
-0.007538
-0.003365
-0.001954
-0.002705
-0.005594
-0.009065
-0.009812
-0.006938
-0.003247
-0.001707
-0.002436
-0.003112
-0.002213
-0.001085
-0.001524
-0.003057
-0.004062
-0.003731
-0.002170
0.000109
0.002136
0.002758
0.001756
0.000047
-0.001522
-0.002583
-0.002760
-0.002382
-0.002566
-0.002856
-0.001327
0.001706
0.003398
0.002440
0.000543
-0.000512
-0.001372
-0.003568
-0.006352
-0.007371
-0.006127
-0.004051
-0.002162
-0.001073
-0.001347
-0.002088
-0.001399
0.000812
0.002305
0.001031
-0.002624
-0.006000
-0.006862
-0.005568
-0.003688
-0.002254
-0.002178
-0.003778
-0.005736
-0.006045
-0.004042
-0.001353
0.000330
0.001435
0.002034
0.000621
-0.002248
-0.003378
-0.001367
0.001325
0.001662
-0.000515
-0.003379
-0.005692
-0.007550
-0.009541
-0.011620
-0.012969
-0.012656
-0.010024
-0.005710
-0.002368
-0.002083
-0.003488
-0.003970
-0.003305
-0.002989
-0.003660
-0.004126
-0.002335
0.002260
0.007666
0.010819
0.009429
0.004152
-0.000527
-0.000759
0.001841
0.002798
0.000183
-0.004532
-0.008742
-0.010487
-0.009581
-0.008183
-0.009210
-0.013329
-0.017630
-0.018023
-0.013868
-0.008700
-0.005460
-0.003540
-0.000748
0.003312
0.006231
0.006084
0.003874
0.001278
-0.000799
-0.001602
-0.001280
-0.001043
-0.001774
-0.003065
-0.003681
-0.003500
-0.003823
-0.005596
-0.008776
-0.012244
-0.014316
-0.014202
-0.011827
-0.007762
-0.003781
-0.001209
-0.000114
-0.000107
0.000085
0.001287
0.001708
-0.000918
-0.006000
-0.010079
-0.010037
-0.006813
-0.004224
-0.003579
-0.002329
0.001379
0.005183
0.004850
-0.000809
-0.008603
-0.014129
-0.015543
-0.014137
-0.012267
-0.011398
-0.010578
-0.007270
-0.001485
0.003500
0.005425
0.004988
0.003922
0.003077
0.001984
-0.000295
-0.004070
-0.008295
-0.010511
-0.009164
-0.006847
-0.008288
-0.013727
-0.017571
-0.014950
-0.006814
0.002244
0.008439
0.010322
0.008604
0.005471
0.002819
0.000875
-0.001576
-0.005651
-0.010856
-0.015921
-0.020662
-0.025172
-0.027630
-0.025384
-0.018611
-0.010360
-0.002505
0.005198
0.012110
0.016429
0.017306
0.014854
0.009891
0.004402
-0.000075
-0.004302
-0.010017
-0.017111
-0.022521
-0.022772
-0.018719
-0.015838
-0.017663
-0.020926
-0.019805
-0.013277
-0.005185
0.001135
0.004805
0.006316
0.007301
0.009473
0.012365
0.012821
0.008203
0.000346
-0.006747
-0.012341
-0.017620
-0.021734
-0.023186
-0.022126
-0.019537
-0.015574
-0.009424
-0.001866
0.003441
0.003817
0.000630
-0.003549
-0.007969
-0.012252
-0.015224
-0.016525
-0.016478
-0.014635
-0.010545
-0.004915
0.000686
0.005160
0.008691
0.011333
0.011743
0.008450
0.001623
-0.006412
-0.012661
-0.015970
-0.017055
-0.016703
-0.015522
-0.014030
-0.012221
-0.009960
-0.007234
-0.004083
-0.000938
0.001362
0.002090
0.001643
0.002051
0.004562
0.006485
0.003328
-0.005361
-0.014775
-0.019420
-0.017434
-0.011583
-0.007151
-0.007386
-0.010375
-0.011680
-0.009895
-0.007838
-0.008291
-0.010888
-0.013694
-0.014941
-0.013355
-0.009774
-0.007571
-0.009286
-0.013239
-0.014436
-0.009881
-0.002403
0.002785
0.003706
0.001590
-0.001347
-0.002312
0.000005
0.003077
0.002954
-0.001176
-0.006089
-0.007861
-0.005936
-0.003702
-0.004589
-0.008545
-0.013087
-0.015897
-0.015460
-0.011691
-0.007328
-0.006325
-0.009411
-0.013134
-0.014274
-0.013164
-0.011981
-0.011998
-0.013521
-0.016344
-0.018661
-0.017706
-0.013660
-0.011006
-0.013131
-0.017047
-0.016938
-0.011536
-0.004917
-0.001397
-0.001336
-0.001705
-0.000287
0.002159
0.003490
0.001830
-0.002870
-0.007541
-0.008708
-0.006974
-0.006116
-0.007892
-0.010675
-0.012896
-0.014578
-0.015157
-0.013072
-0.009101
-0.006842
-0.007643
-0.008718
-0.007747
-0.005348
-0.003005
-0.001485
-0.000876
-0.001078
-0.002198
-0.004057
-0.005699
-0.006321
-0.006232
-0.006178
-0.006738
-0.008758
-0.012558
-0.016490
-0.018276
-0.017945
-0.017357
-0.017035
-0.016266
-0.015298
-0.014471
-0.013118
-0.010901
-0.008365
-0.006470
-0.005951
-0.006616
-0.008151
-0.010126
-0.010756
-0.008730
-0.005321
-0.003004
-0.003581
-0.007034
-0.011372
-0.014403
-0.015269
-0.014492
-0.013249
-0.012434
-0.012055
-0.011405
-0.010582
-0.010793
-0.011652
-0.011163
-0.009451
-0.008713
-0.009492
-0.010207
-0.009932
-0.009296
-0.008714
-0.007738
-0.006476
-0.005843
-0.006181
-0.007078
-0.008225
-0.009371
-0.009866
-0.009161
-0.008014
-0.007990
-0.008852
-0.008854
-0.008227
-0.008663
-0.009704
-0.009591
-0.008564
-0.008272
-0.008914
-0.009139
-0.008650
-0.008848
-0.010159
-0.010806
-0.009610
-0.008373
-0.009392
-0.011839
-0.013365
-0.013607
-0.013479
-0.013197
-0.012746
-0.012529
-0.012599
-0.012157
-0.010845
-0.010089
-0.011208
-0.012957
-0.013504
-0.013435
-0.014202
-0.015278
-0.015148
-0.013809
-0.012319
-0.010878
-0.009037
-0.007065
-0.006083
-0.006923
-0.009040
-0.011282
-0.013452
-0.015409
-0.015774
-0.013827
-0.011370
-0.010915
-0.012785
-0.015067
-0.016439
-0.017448
-0.018403
-0.018937
-0.019889
-0.021871
-0.023030
-0.021486
-0.017983
-0.014478
-0.011836
-0.009578
-0.007317
-0.005409
-0.004114
-0.003636
-0.004507
-0.006495
-0.008123
-0.008428
-0.008265
-0.008779
-0.009623
-0.009712
-0.008867
-0.008283
-0.009300
-0.011730
-0.014058
-0.014907
-0.013798
-0.011128
-0.007730
-0.004774
-0.003740
-0.005120
-0.007559
-0.009330
-0.010191
-0.011391
-0.014067
-0.017867
-0.021258
-0.022582
-0.021123
-0.018021
-0.015453
-0.014478
-0.014452
-0.014443
-0.014343
-0.014533
-0.015225
-0.015993
-0.015443
-0.012353
-0.007737
-0.004323
-0.003627
-0.004922
-0.006944
-0.009110
-0.011203
-0.013396
-0.016498
-0.020807
-0.024921
-0.027036
-0.026998
-0.025988
-0.024860
-0.023831
-0.023083
-0.022573
-0.021678
-0.019467
-0.015489
-0.010982
-0.008105
-0.006867
-0.005317
-0.003190
-0.002277
-0.003546
-0.006708
-0.011292
-0.015735
-0.017600
-0.016410
-0.014657
-0.015471
-0.019354
-0.023430
-0.024861
-0.023824
-0.021651
-0.018269
-0.013688
-0.009581
-0.007119
-0.005446
-0.003969
-0.003979
-0.006420
-0.010021
-0.013412
-0.016899
-0.020316
-0.021933
-0.021283
-0.020459
-0.020966
-0.021177
-0.018943
-0.015223
-0.012573
-0.011847
-0.012412
-0.013399
-0.013726
-0.012502
-0.010471
-0.010286
-0.013168
-0.016471
-0.017379
-0.016758
-0.017097
-0.018571
-0.018739
-0.016308
-0.013525
-0.013105
-0.014858
-0.016881
-0.017979
-0.018064
-0.017559
-0.016835
-0.015812
-0.014289
-0.012817
-0.012375
-0.013116
-0.014387
-0.015538
-0.016311
-0.016865
-0.017160
-0.016896
-0.016550
-0.017068
-0.018470
-0.019964
-0.020984
-0.021525
-0.021770
-0.021842
-0.021816
-0.021455
-0.020379
-0.018627
-0.016533
-0.014816
-0.014268
-0.014418
-0.014190
-0.013831
-0.014328
-0.015682
-0.016877
-0.017069
-0.016485
-0.016179
-0.016982
-0.018616
-0.020005
-0.020408
-0.020326
-0.021322
-0.023858
-0.025889
-0.025662
-0.024074
-0.022750
-0.022025
-0.021318
-0.020094
-0.018073
-0.015419
-0.013302
-0.012766
-0.013031
-0.012646
-0.011725
-0.011733
-0.013263
-0.014941
-0.015145
-0.014096
-0.013446
-0.014065
-0.015233
-0.016091
-0.016507
-0.016528
-0.016450
-0.017256
-0.019804
-0.023194
-0.025118
-0.024792
-0.023847
-0.023425
-0.022752
-0.021255
-0.019684
-0.018647
-0.017600
-0.015912
-0.014321
-0.013844
-0.013873
-0.013586
-0.013806
-0.015267
-0.016799
-0.017185
-0.017506
-0.019568
-0.023083
-0.026184
-0.027504
-0.026903
-0.024749
-0.021257
-0.017572
-0.015816
-0.016338
-0.017489
-0.018529
-0.020189
-0.022908
-0.025655
-0.026729
-0.025934
-0.024510
-0.023223
-0.022286
-0.021674
-0.020739
-0.019049
-0.017160
-0.016062
-0.016296
-0.017298
-0.017639
-0.016448
-0.014827
-0.015152
-0.018465
-0.023690
-0.028728
-0.031277
-0.030388
-0.027672
-0.025562
-0.024820
-0.024414
-0.023276
-0.021314
-0.018877
-0.016335
-0.014410
-0.013799
-0.013920
-0.013125
-0.010622
-0.007384
-0.005410
-0.006216
-0.009692
-0.014712
-0.020113
-0.024642
-0.027257
-0.027604
-0.026201
-0.024788
-0.025245
-0.027437
-0.029363
-0.029745
-0.029633
-0.030642
-0.032148
-0.032143
-0.030394
-0.028183
-0.025779
-0.022518
-0.018308
-0.013770
-0.009946
-0.008204
-0.009284
-0.012291
-0.015378
-0.017221
-0.018072
-0.019996
-0.024755
-0.030982
-0.035237
-0.035429
-0.032197
-0.028017
-0.025250
-0.024890
-0.026544
-0.028415
-0.028624
-0.027086
-0.024607
-0.021564
-0.018776
-0.017578
-0.018068
-0.018806
-0.018862
-0.018676
-0.018714
-0.018970
-0.019430
-0.020140
-0.021431
-0.023490
-0.025786
-0.028123
-0.030850
-0.033015
-0.032446
-0.028588
-0.023240
-0.017851
-0.012939
-0.010541
-0.012876
-0.018002
-0.021415
-0.022046
-0.022453
-0.023974
-0.025696
-0.027278
-0.029523
-0.031929
-0.032599
-0.031780
-0.031974
-0.033607
-0.034193
-0.031745
-0.026979
-0.022629
-0.020587
-0.020138
-0.020071
-0.020196
-0.019595
-0.017512
-0.015962
-0.017084
-0.019646
-0.021276
-0.021685
-0.022207
-0.023907
-0.026774
-0.030051
-0.032502
-0.032346
-0.028679
-0.023456
-0.020030
-0.019735
-0.021280
-0.022472
-0.021996
-0.020333
-0.019330
-0.021323
-0.027349
-0.034439
-0.036843
-0.032211
-0.024818
-0.021078
-0.022592
-0.025052
-0.024114
-0.019774
-0.014592
-0.011682
-0.014607
-0.024442
-0.036854
-0.045872
-0.049529
-0.048898
-0.044063
-0.034606
-0.022935
-0.014111
-0.011502
-0.013814
-0.017441
-0.020431
-0.022858
-0.025164
-0.027612
-0.029808
-0.030367
-0.028524
-0.025928
-0.025570
-0.028654
-0.033251
-0.036062
-0.034859
-0.029792
-0.023415
-0.019585
-0.020737
-0.025285
-0.029350
-0.030738
-0.029787
-0.028044
-0.027213
-0.028248
-0.030516
-0.032062
-0.031965
-0.031462
-0.031040
-0.028767
-0.023367
-0.016739
-0.012519
-0.012732
-0.015890
-0.019424
-0.022551
-0.024828
-0.025682
-0.026598
-0.029438
-0.032934
-0.033983
-0.031587
-0.027812
-0.025474
-0.026053
-0.029561
-0.034661
-0.038426
-0.038471
-0.035820
-0.033143
-0.030800
-0.027051
-0.021729
-0.017684
-0.017321
-0.019628
-0.023012
-0.028246
-0.035696
-0.042463
-0.045078
-0.043177
-0.038686
-0.033143
-0.027638
-0.023831
-0.022982
-0.024512
-0.026774
-0.028937
-0.030999
-0.032381
-0.032088
-0.030226
-0.028186
-0.026867
-0.025558
-0.023761
-0.022910
-0.024293
-0.026631
-0.027935
-0.028523
-0.029562
-0.029874
-0.028094
-0.026209
-0.026249
-0.026564
-0.025635
-0.025153
-0.026565
-0.028870
-0.030490
-0.030883
-0.030793
-0.030926
-0.030886
-0.030837
-0.031820
-0.033514
-0.035049
-0.038254
-0.047918
-0.069979
-0.112254
-0.187755
-0.315623
-0.517326
-0.811553
-1.210127
-1.713342
-2.304241
-2.943246
-3.565418
-4.084788
-4.407069
-4.445107
-4.138311
-3.490044
-2.619880
-1.782886
-1.295483
-1.382120
-2.072635
-3.264096
-4.847823
-6.688254
-8.488588
-9.816419
-10.347425
-10.073169
-9.243009
-7.967337
-5.726322
-1.543996
4.777031
11.541149
15.863340
15.931786
12.638681
9.084803
8.553614
12.497071
19.585072
26.118597
27.627102
21.097025
6.960862
-10.254118
-23.637648
-27.777952
-22.402561
-12.562788
-4.664085
-1.561965
-1.166470
0.228399
3.574134
6.475866
6.411193
3.219675
-1.357585
-4.889920
-4.962954
-0.467614
7.075876
14.194908
18.005865
18.253675
16.945642
15.756305
13.620009
7.235554
-5.701415
-23.788366
-42.212223
-55.088829
-57.574348
-47.404827
-26.429985
-0.746629
22.456957
39.492729
51.512547
61.157150
68.218384
68.605347
57.395241
32.908371
-1.903499
-40.977489
-77.125153
-103.620895
-115.939346
-112.725494
-95.148880
-66.229309
-30.962765
4.617631
35.593658
59.168327
74.016098
79.160507
73.463470
57.183235
34.657776
13.778231
1.237415
-1.690738
1.018135
4.003086
4.612029
3.563936
2.238527
0.519530
-2.733065
-8.144822
-14.917948
-20.970537
-23.710583
-20.577133
-9.538649
9.325740
32.018139
51.227493
59.702660
53.792385
34.937859
8.716780
-17.865740
-39.337246
-53.481842
-61.312336
-65.209984
-65.904938
-60.906380
-46.473045
-21.313860
11.455087
44.965816
70.517754
80.064789
69.637115
43.124989
13.235863
-4.172565
-0.518156
19.134384
39.791573
46.654366
33.717377
5.767105
-26.126415
-51.195477
-63.338863
-62.062653
-50.465614
-32.030056
-9.190947
15.398449
37.428993
51.698772
54.491585
45.328655
26.567528
1.371037
-27.554949
-56.605404
-79.068283
-86.497337
-74.710297
-48.926952
-21.996330
-6.529391
-7.390760
-19.457945
-30.793287
-29.179083
-9.376740
22.801506
52.848202
65.351456
52.130039
15.770666
-32.168186
-74.987068
-93.692757
-70.114464
5.695552
124.575348
253.962646
348.576508
368.474182
293.003693
132.443512
-67.240707
-244.553299
-357.681335
-398.290466
-377.312103
-307.837708
-199.787827
-63.664124
83.069786
211.886658
287.627869
287.277283
219.675064
120.812851
28.632118
-34.719952
-65.125412
-71.996910
-69.339592
-66.691910
-66.227493
-63.569092
-51.706417
-28.652246
-0.268311
25.285484
42.936188
51.314812
51.566261
45.755772
34.977409
19.849909
3.227619
-10.452961
-19.594521
-26.525230
-33.240551
-37.955212
-36.834068
-28.379213
-15.301820
-2.216182
7.507339
12.165586
10.555640
2.373509
-10.249803
-22.775272
-30.244736
-29.193010
-18.034653
3.169843
32.160423
63.672752
89.942924
103.009506
97.739021
73.964470
36.601192
-6.581284
-48.046108
-82.060219
-104.631348
-113.063179
-105.506256
-81.541771
-44.463017
-2.229196
36.176323
66.570618
91.490524
115.419983
136.806061
144.481445
124.377342
72.735580
3.314589
-59.144936
-93.684280
-94.484871
-72.320251
-47.131912
-36.010147
-42.884617
-57.254852
-63.435818
-52.579098
-28.087069
-2.482801
9.920071
1.197159
-23.704550
-47.479160
-50.629932
-25.113338
19.111477
60.160107
78.852448
71.017998
47.600601
23.068087
4.416808
-9.343334
-21.529755
-34.714928
-50.481922
-67.823494
-80.368065
-76.612923
-45.806351
13.226467
87.188690
152.374451
185.722610
175.703964
126.628433
54.527561
-21.707918
-87.216080
-132.397110
-151.404816
-142.684219
-110.814224
-65.262917
-16.316965
26.990200
55.878098
62.443726
43.817875
4.860097
-43.663265
-88.189140
-115.076721
-114.925888
-87.667778
-43.853573
0.606511
33.236698
50.862354
58.759384
64.261330
69.606773
70.327011
61.095188
42.905231
23.980759
13.445963
13.775885
19.263308
21.661234
16.549986
4.287568
-12.864072
-32.234276
-50.020000
-60.625648
-57.434582
-36.436424
-1.645415
34.407658
58.413837
64.751366
56.784908
42.232143
27.571432
14.726534
1.769741
-13.086585
-27.704803
-36.277546
-34.467640
-24.910381
-16.760302
-18.515688
-30.459620
-44.064930
-48.893356
-40.208530
-21.669844
-3.289822
3.316841
-8.669979
-35.435143
-62.057545
-69.919586
-46.730537
7.726509
80.783775
150.205078
192.612411
194.201996
157.722778
101.682419
50.508003
19.649687
6.241276
-6.771697
-36.563229
-86.577377
-141.407959
-174.324829
-163.724655
-107.721237
-27.743898
41.181606
69.672279
51.801163
8.144086
-29.443741
-40.434662
-28.233118
-13.272518
-14.785707
-37.889053
-73.150940
-103.941368
-114.634499
-96.573082
-52.184628
3.676313
49.226116
68.302856
61.811493
48.462502
52.421940
85.470329
137.241577
181.247833
190.772522
152.901733
73.847389
-25.013214
-116.214058
-174.137054
-180.062637
-127.624153
-29.334133
80.438072
153.774963
152.837769
75.556198
-40.661987
-142.259140
-189.464584
-172.341217
-109.832367
-38.237762
7.441718
13.443284
-7.069135
-30.402567
-44.136860
-52.068943
-62.118458
-74.015587
-78.017197
-63.118584
-26.541922
23.256689
71.629463
106.162987
123.190224
129.478638
137.339981
154.248550
174.011154
177.511368
144.350647
69.247177
-28.678623
-114.104134
-155.966171
-142.429184
-82.296768
0.600270
75.033958
113.298950
103.515175
55.231625
-7.572487
-61.201454
-92.892693
-101.463966
-92.237297
-73.257278
-54.521599
-45.996708
-50.996647
-59.452991
-51.074493
-10.919368
55.659760
124.606773
169.595383
176.931534
149.396149
102.056465
54.581776
22.530914
11.055843
13.443362
14.506713
-1.419803
-40.541878
-94.487068
-144.104950
-169.290985
-159.741882
-121.704308
-75.386574
-43.014439
-36.059017
-50.603558
-72.347847
-86.483322
-86.136169
-74.432381
-58.397602
-38.937534
-7.132527
46.107288
113.878059
168.209290
176.742661
130.395828
56.755054
3.863537
5.692609
57.184425
117.263901
136.939026
95.238525
17.648275
-41.515961
-39.608170
26.817671
124.646561
205.586105
231.065704
190.854797
106.544464
17.550842
-42.554119
-64.866333
-65.259293
-66.875473
-81.636345
-104.241760
-119.530579
-115.306435
-90.241898
-53.148502
-18.030704
2.085156
3.005582
-4.603571
1.784818
42.815338
121.003471
213.632889
280.221771
281.653778
201.854691
58.969917
-102.629982
-234.448807
-304.224701
-302.926147
-241.257462
-144.277328
-44.605591
30.095055
72.024384
98.182716
136.161026
197.706497
261.543182
283.723816
231.488037
112.766006
-26.170380
-132.160294
-175.993240
-161.540405
-116.736176
-76.227898
-61.848927
-70.957375
-81.827492
-71.539124
-31.343458
29.996738
92.332520
133.987762
142.451248
121.391365
87.440681
56.979671
34.846676
16.077005
-4.877920
-30.594999
-63.208122
-103.808113
-147.909363
-184.889648
-202.767166
-192.515106
-150.826126
-82.863258
-2.631213
69.214081
108.128716
93.568985
23.864925
-76.330513
-169.166275
-225.851517
-236.401321
-204.067276
-139.333862
-60.677460
7.868188
49.769611
69.101364
87.616951
124.544968
176.575180
217.622269
218.863281
170.098572
84.943871
-10.237406
-90.475746
-138.970596
-147.603516
-116.555733
-54.354504
22.365799
91.225624
132.438034
140.950333
130.338348
120.109764
115.862083
103.291504
64.476967
-0.776688
-71.447166
-121.112617
-135.458710
-117.983826
-84.920769
-55.503021
-42.016068
-44.926552
-56.702259
-70.481041
-84.869514
-100.258163
-111.334785
-104.789909
-66.955765
2.376118
81.963577
137.788483
144.411926
102.064507
35.999260
-20.611811
-46.555222
-41.650200
-21.585224
-3.823842
5.740418
15.810891
40.491165
85.180069
138.458954
177.035400
179.744278
139.196594
64.059204
-27.468786
-117.442764
-193.958694
-250.490616
-282.244232
-283.164673
-246.074738
-167.447510
-53.844982
75.530136
192.254395
267.919250
287.851715
260.339111
209.317307
154.965622
102.358070
46.458576
-17.509274
