EVENT_NAME: EMILIA_2ND_SHOCK
EVENT_ID: IT-2012-0011
EVENT_DATE_YYYYMMDD: 20120529
EVENT_TIME_HHMMSS: 070002
EVENT_LATITUDE_DEGREE: 44.8417
EVENT_LONGITUDE_DEGREE: 11.0657
EVENT_DEPTH_KM: 8.1
HYPOCENTER_REFERENCE: INGV-CNT_Seismic_Bulletin
MAGNITUDE_W: 6.0
MAGNITUDE_W_REFERENCE: RCMT-INGV
MAGNITUDE_L: 5.8
MAGNITUDE_L_REFERENCE: INGV-CNT_Seismic_Bulletin
FOCAL_MECHANISM: TF
NETWORK: TV
STATION_CODE: MIR01
STATION_NAME: MEDOLLA
STATION_LATITUDE_DEGREE: 44.844042
STATION_LONGITUDE_DEGREE: 11.071316
STATION_ELEVATION_M: 
LOCATION: 
SENSOR_DEPTH_M: 
VS30_M/S: 
SITE_CLASSIFICATION_EC8: C*
MORPHOLOGIC_CLASSIFICATION: 
EPICENTRAL_DISTANCE_KM: 0.5
EARTHQUAKE_BACKAZIMUTH_DEGREE: 239.6
DATE_TIME_FIRST_SAMPLE_YYYYMMDD_HHMMSS: 20120529_065945.000
DATE_TIME_FIRST_SAMPLE_PRECISION: milliseconds
SAMPLING_INTERVAL_S: 0.005000
NDATA: 105
DURATION_S: 
STREAM: HNE
UNITS: cm
INSTRUMENT: sensor = Episensor FBA ES-T [Kinemetrics] | digitizer = Unknown [Unknown]
INSTRUMENT_ANALOG/DIGITAL: D
INSTRUMENTAL_FREQUENCY_HZ: 
INSTRUMENTAL_DAMPING: 
FULL_SCALE_G: 
N_BIT_DIGITAL_CONVERTER: 
PGD_CM: -8.250823
TIME_PGD_S: 25.275000
BASELINE_CORRECTION: BASELINE REMOVED
FILTER_TYPE: BUTTERWORTH
FILTER_ORDER: 2
LOW_CUT_FREQUENCY_HZ: 0.050
HIGH_CUT_FREQUENCY_HZ: 40.000
LATE/NORMAL_TRIGGERED: NT
DATABASE_VERSION: DYNA 1.0
HEADER_FORMAT: DYNA 1.2
DATA_TYPE: DISPLACEMENT RESPONSE SPECTRUM
PROCESSING: manual (Paolucci et al., 2011)
DATA_TIMESTAMP_YYYYMMDD_HHMMSS: 
DATA_LICENSE: CC-BY4_0 (http://creativecommons.org/licenses/by/4.0/)
DATA_CITATION: ESM working group (2015), European Strong-Motion database, version 0.1, Network Activity 3: Networking acceleration networks and SM data users. Project NERA (www.nera-eu.org)
DATA_CREATOR: ESM working group
ORIGINAL_DATA_MEDIATOR_CITATION: Orfeus - European Integrated Data Archive (EIDA) http://www.orfeus-eu.org/eida/
ORIGINAL_DATA_MEDIATOR: Orfeus - European Integrated Data Archive (EIDA)
ORIGINAL_DATA_CREATOR_CITATION: 
ORIGINAL_DATA_CREATOR: network: TV (INGV Experiments Network); owner: Istituto Nazionale di Geofisica e Vulcanologia
USER1: 
USER2: 
USER3: 
USER4: 
USER5: 
    0.010000     0.001042
    0.020000     0.004215
    0.022000     0.005112
    0.025000     0.006648
    0.029000     0.009253
    0.030000     0.009906
    0.032000     0.011047
    0.035001     0.013148
    0.036000     0.014072
    0.040000     0.017915
    0.041999     0.019368
    0.044001     0.020462
    0.045000     0.020941
    0.046000     0.022165
    0.048001     0.025919
    0.050000     0.030034
    0.054999     0.038780
    0.059999     0.046793
    0.064998     0.060958
    0.067002     0.067916
    0.069999     0.072469
    0.075002     0.076884
    0.080000     0.093066
    0.084998     0.105604
    0.090001     0.122409
    0.095003     0.153969
    0.100000     0.191421
    0.109999     0.248198
    0.120005     0.343299
    0.130005     0.317342
    0.132996     0.324959
    0.139997     0.358450
    0.149993     0.370534
    0.160000     0.546076
    0.170010     0.625455
    0.179986     0.960703
    0.190006     1.035249
    0.200000     1.021855
    0.220022     1.291882
    0.239981     1.683500
    0.250000     1.721966
    0.260010     2.075949
    0.280034     2.509019
    0.290023     3.109275
    0.300030     3.698822
    0.320000     4.059814
    0.340020     4.062723
    0.350017     4.129267
    0.359971     4.055097
    0.379939     3.323149
    0.400000     2.683033
    0.419992     2.605792
    0.439947     2.725124
    0.450045     3.124421
    0.459982     3.475930
    0.480077     4.283673
    0.500000     4.660271
    0.550055     5.883793
    0.599880     5.699432
    0.650195     8.386285
    0.667111     8.999190
    0.699790     9.348938
    0.750188     9.325054
    0.800000     7.587988
    0.850340     6.033757
    0.900090     5.464320
    0.949668     6.162863
    1.000000     6.615272
    1.100110     8.185968
    1.200480     8.331093
    1.300390     8.804735
    1.400560    11.232247
    1.499250    14.733149
    1.600000    16.759747
    1.700680    17.168007
    1.798561    16.764708
    1.901141    20.142771
    2.000000    21.555222
    2.197802    22.737288
    2.398082    21.711226
    2.500000    20.743496
    2.597403    19.724846
    2.801121    18.985771
    3.003003    17.913538
    3.205128    16.812346
    3.401361    15.708077
    3.496503    15.184438
    3.597122    14.671670
    3.802281    13.620038
    4.000000    12.517498
    4.201681    12.041518
    4.405286    11.741917
    4.608295    11.426884
    4.807692    11.095325
    5.000000    10.748203
    5.494505    10.381267
    5.988024     9.985498
    6.493506     9.545111
    6.993007     9.650150
    7.518797     9.704232
    8.000000     9.711202
    8.474576     9.679699
    9.009009     9.622437
    9.523809     9.550833
   10.000000     9.472370
