EVENT_NAME: EMILIA_2ND_SHOCK
EVENT_ID: IT-2012-0011
EVENT_DATE_YYYYMMDD: 20120529
EVENT_TIME_HHMMSS: 070002
EVENT_LATITUDE_DEGREE: 44.8417
EVENT_LONGITUDE_DEGREE: 11.0657
EVENT_DEPTH_KM: 8.1
HYPOCENTER_REFERENCE: INGV-CNT_Seismic_Bulletin
MAGNITUDE_W: 6.0
MAGNITUDE_W_REFERENCE: RCMT-INGV
MAGNITUDE_L: 5.8
MAGNITUDE_L_REFERENCE: INGV-CNT_Seismic_Bulletin
FOCAL_MECHANISM: TF
NETWORK: TV
STATION_CODE: MIR06
STATION_NAME: PIEVE DI CORIANO
STATION_LATITUDE_DEGREE: 45.040100
STATION_LONGITUDE_DEGREE: 11.087400
STATION_ELEVATION_M: 
LOCATION: 
SENSOR_DEPTH_M: 
VS30_M/S: 
SITE_CLASSIFICATION_EC8: C*
MORPHOLOGIC_CLASSIFICATION: 
EPICENTRAL_DISTANCE_KM: 22.1
EARTHQUAKE_BACKAZIMUTH_DEGREE: 184.4
DATE_TIME_FIRST_SAMPLE_YYYYMMDD_HHMMSS: 20120529_065933.000
DATE_TIME_FIRST_SAMPLE_PRECISION: milliseconds
SAMPLING_INTERVAL_S: 0.005000
NDATA: 30001
DURATION_S: 150.005
STREAM: HNZ
UNITS: cm/s
INSTRUMENT: sensor = Episensor FBA ES-T [Kinemetrics] | digitizer = Unknown [Unknown]
INSTRUMENT_ANALOG/DIGITAL: D
INSTRUMENTAL_FREQUENCY_HZ: 
INSTRUMENTAL_DAMPING: 
FULL_SCALE_G: 
N_BIT_DIGITAL_CONVERTER: 
PGV_CM/S: 2.640170
TIME_PGV_S: 40.255000
BASELINE_CORRECTION: BASELINE REMOVED
FILTER_TYPE: BUTTERWORTH
FILTER_ORDER: 2
LOW_CUT_FREQUENCY_HZ: 0.060
HIGH_CUT_FREQUENCY_HZ: 40.000
LATE/NORMAL_TRIGGERED: NT
DATABASE_VERSION: DYNA 1.0
HEADER_FORMAT: DYNA 1.2
DATA_TYPE: VELOCITY
PROCESSING: manual (Paolucci et al., 2011)
DATA_TIMESTAMP_YYYYMMDD_HHMMSS: 
DATA_LICENSE: CC-BY4_0 (http://creativecommons.org/licenses/by/4.0/)
DATA_CITATION: ESM working group (2015), European Strong-Motion database, version 0.1, Network Activity 3: Networking acceleration networks and SM data users. Project NERA (www.nera-eu.org)
DATA_CREATOR: ESM working group
ORIGINAL_DATA_MEDIATOR_CITATION: Orfeus - European Integrated Data Archive (EIDA) http://www.orfeus-eu.org/eida/
ORIGINAL_DATA_MEDIATOR: Orfeus - European Integrated Data Archive (EIDA)
ORIGINAL_DATA_CREATOR_CITATION: 
ORIGINAL_DATA_CREATOR: network: TV (INGV Experiments Network); owner: Istituto Nazionale di Geofisica e Vulcanologia
USER1: 
USER2: 
USER3: 
USER4: 
USER5: 
[...]
0.002380
0.002314
0.002267
0.002247
0.002247
0.002258
0.002271
0.002278
0.002271
0.002248
0.002216
0.002182
0.002143
0.002091
0.002024
0.001955
0.001900
0.001860
0.001837
0.001832
0.001847
0.001871
0.001888
0.001892
0.001877
0.001845
0.001803
0.001757
0.001709
0.001655
0.001598
0.001543
0.001493
0.001450
0.001413
0.001387
0.001371
0.001363
0.001353
0.001343
0.001341
0.001353
0.001371
0.001379
0.001369
0.001341
0.001296
0.001233
0.001159
0.001091
0.001046
0.001031
0.001039
0.001054
0.001062
0.001067
0.001081
0.001101
0.001112
0.001107
0.001090
0.001068
0.001042
0.001002
0.000943
0.000877
0.000829
0.000797
0.000765
0.000740
0.000746
0.000776
0.000783
0.000752
0.000721
0.000722
0.000735
0.000731
0.000703
0.000652
0.000579
0.000495
0.000411
0.000335
0.000272
0.000214
0.000153
0.000093
0.000052
0.000039
0.000051
0.000071
0.000084
0.000085
0.000079
0.000072
0.000064
0.000050
0.000025
-0.000013
-0.000062
-0.000123
-0.000194
-0.000271
-0.000343
-0.000401
-0.000445
-0.000484
-0.000516
-0.000529
-0.000514
-0.000475
-0.000431
-0.000398
-0.000381
-0.000384
-0.000404
-0.000438
-0.000486
-0.000544
-0.000605
-0.000658
-0.000704
-0.000752
-0.000802
-0.000836
-0.000838
-0.000818
-0.000804
-0.000810
-0.000832
-0.000866
-0.000905
-0.000947
-0.000991
-0.001035
-0.001074
-0.001111
-0.001155
-0.001208
-0.001262
-0.001316
-0.001370
-0.001421
-0.001462
-0.001486
-0.001498
-0.001514
-0.001544
-0.001582
-0.001614
-0.001642
-0.001671
-0.001694
-0.001703
-0.001699
-0.001698
-0.001720
-0.001768
-0.001825
-0.001880
-0.001934
-0.001988
-0.002035
-0.002071
-0.002101
-0.002134
-0.002165
-0.002186
-0.002199
-0.002213
-0.002237
-0.002277
-0.002332
-0.002395
-0.002461
-0.002526
-0.002586
-0.002631
-0.002656
-0.002666
-0.002674
-0.002688
-0.002706
-0.002725
-0.002746
-0.002774
-0.002809
-0.002843
-0.002868
-0.002892
-0.002928
-0.002973
-0.003018
-0.003057
-0.003094
-0.003136
-0.003177
-0.003209
-0.003225
-0.003228
-0.003227
-0.003231
-0.003240
-0.003253
-0.003276
-0.003314
-0.003360
-0.003402
-0.003436
-0.003466
-0.003499
-0.003539
-0.003585
-0.003632
-0.003673
-0.003710
-0.003744
-0.003766
-0.003775
-0.003786
-0.003814
-0.003857
-0.003902
-0.003948
-0.003999
-0.004055
-0.004110
-0.004161
-0.004210
-0.004260
-0.004310
-0.004352
-0.004384
-0.004418
-0.004476
-0.004572
-0.004704
-0.004867
-0.005062
-0.005296
-0.005575
-0.005893
-0.006250
-0.006662
-0.007147
-0.007711
-0.008360
-0.009120
-0.010041
-0.011143
-0.012379
-0.013639
-0.014857
-0.016083
-0.017367
-0.018649
-0.019906
-0.021297
-0.022959
-0.024831
-0.026834
-0.028980
-0.031212
-0.033433
-0.035687
-0.038040
-0.040332
-0.042278
-0.043677
-0.044371
-0.044249
-0.043528
-0.042778
-0.042482
-0.042631
-0.042772
-0.042443
-0.041633
-0.040782
-0.040273
-0.040075
-0.039961
-0.039790
-0.039580
-0.039501
-0.039713
-0.040187
-0.041019
-0.042763
-0.045689
-0.048780
-0.050511
-0.050601
-0.049991
-0.049589
-0.049910
-0.050965
-0.051941
-0.052152
-0.052190
-0.053089
-0.055198
-0.058541
-0.062663
-0.065562
-0.064746
-0.060487
-0.056621
-0.056850
-0.060805
-0.064564
-0.064743
-0.061597
-0.058151
-0.056843
-0.057945
-0.060817
-0.064385
-0.066160
-0.063666
-0.057766
-0.052602
-0.051737
-0.055680
-0.062946
-0.071715
-0.079937
-0.085426
-0.087094
-0.085625
-0.082537
-0.079202
-0.076796
-0.076132
-0.077244
-0.079985
-0.084854
-0.092114
-0.100496
-0.107870
-0.113066
-0.116518
-0.119191
-0.121111
-0.121447
-0.120355
-0.119696
-0.120906
-0.122993
-0.123478
-0.120446
-0.113193
-0.101904
-0.087780
-0.073311
-0.061547
-0.054976
-0.055483
-0.064297
-0.080651
-0.100939
-0.120026
-0.133877
-0.141459
-0.143928
-0.142011
-0.135561
-0.125891
-0.116656
-0.111418
-0.111310
-0.115473
-0.122384
-0.129845
-0.134830
-0.134882
-0.130034
-0.122853
-0.116441
-0.112842
-0.113214
-0.118086
-0.126867
-0.137803
-0.148409
-0.155795
-0.157531
-0.152944
-0.143714
-0.133596
-0.127193
-0.127431
-0.133528
-0.141727
-0.147850
-0.149271
-0.145713
-0.139400
-0.134071
-0.132094
-0.131834
-0.129236
-0.122369
-0.113227
-0.105644
-0.102918
-0.106507
-0.115398
-0.126813
-0.138388
-0.149764
-0.161750
-0.174004
-0.183814
-0.187779
-0.185290
-0.179520
-0.174109
-0.170211
-0.167328
-0.164977
-0.162634
-0.159270
-0.153942
-0.147172
-0.141455
-0.139427
-0.141414
-0.145474
-0.149133
-0.149749
-0.144318
-0.131658
-0.115191
-0.101315
-0.093723
-0.089935
-0.084242
-0.074409
-0.065098
-0.063665
-0.073316
-0.091861
-0.114981
-0.137739
-0.155384
-0.166179
-0.172009
-0.174531
-0.172679
-0.164963
-0.151867
-0.134715
-0.114451
-0.093013
-0.073437
-0.056933
-0.042155
-0.028487
-0.017585
-0.010580
-0.005721
-0.000501
0.004396
0.005162
-0.000783
-0.011882
-0.023607
-0.031341
-0.033041
-0.030180
-0.025519
-0.020053
-0.013235
-0.005909
-0.001565
-0.004352
-0.015827
-0.032920
-0.049498
-0.061356
-0.069107
-0.074990
-0.078946
-0.080394
-0.081410
-0.083990
-0.085492
-0.081123
-0.070512
-0.058381
-0.049048
-0.043182
-0.040102
-0.040910
-0.047752
-0.060259
-0.074459
-0.086446
-0.095855
-0.104475
-0.113156
-0.121973
-0.132272
-0.146561
-0.165850
-0.186912
-0.202405
-0.204959
-0.192742
-0.172034
-0.153789
-0.145719
-0.147071
-0.151458
-0.153265
-0.150078
-0.141626
-0.130157
-0.121594
-0.123402
-0.139934
-0.169332
-0.203628
-0.232332
-0.248910
-0.254938
-0.256336
-0.255956
-0.251967
-0.241404
-0.221542
-0.190141
-0.148808
-0.104993
-0.068470
-0.047807
-0.050148
-0.078810
-0.127671
-0.180682
-0.219839
-0.233894
-0.221712
-0.191547
-0.156981
-0.129293
-0.111154
-0.096807
-0.077900
-0.051151
-0.022517
-0.002904
0.001586
-0.005261
-0.014407
-0.020072
-0.022797
-0.026210
-0.034004
-0.048946
-0.070791
-0.094467
-0.112553
-0.120756
-0.120584
-0.116417
-0.110768
-0.103032
-0.092288
-0.081182
-0.078074
-0.094011
-0.133749
-0.189229
-0.244914
-0.289942
-0.322786
-0.345329
-0.357633
-0.360381
-0.358059
-0.356743
-0.361053
-0.373209
-0.391071
-0.406816
-0.409070
-0.386055
-0.331169
-0.252813
-0.177532
-0.136158
-0.143586
-0.192203
-0.261894
-0.331047
-0.379736
-0.393593
-0.371039
-0.322447
-0.260580
-0.195412
-0.136312
-0.093648
-0.076557
-0.087844
-0.117908
-0.146361
-0.157883
-0.157310
-0.162761
-0.185329
-0.222087
-0.265866
-0.313082
-0.360507
-0.399389
-0.417365
-0.407448
-0.373366
-0.324610
-0.267855
-0.205659
-0.142984
-0.092105
-0.069423
-0.086435
-0.141510
-0.218683
-0.294017
-0.343633
-0.350951
-0.314941
-0.252978
-0.190955
-0.150331
-0.145281
-0.184319
-0.264301
-0.361876
-0.439108
-0.465231
-0.435421
-0.371125
-0.306346
-0.271404
-0.280529
-0.326621
-0.386058
-0.433031
-0.454782
-0.456024
-0.451708
-0.456373
-0.474805
-0.498922
-0.517218
-0.528128
-0.540625
-0.563866
-0.599205
-0.636777
-0.656344
-0.638429
-0.580369
-0.499284
-0.419431
-0.361797
-0.344540
-0.381915
-0.473597
-0.598350
-0.725730
-0.832844
-0.905332
-0.929888
-0.900411
-0.831687
-0.755053
-0.697450
-0.669322
-0.668700
-0.687504
-0.713342
-0.732134
-0.734466
-0.721583
-0.704909
-0.698796
-0.713528
-0.751883
-0.806163
-0.858143
-0.887984
-0.886328
-0.857154
-0.811188
-0.758750
-0.705600
-0.651853
-0.595290
-0.536823
-0.483399
-0.446445
-0.436091
-0.454685
-0.496041
-0.551167
-0.614364
-0.685294
-0.765885
-0.852931
-0.932439
-0.983055
-0.987528
-0.943583
-0.867724
-0.790075
-0.740989
-0.736308
-0.771476
-0.825934
-0.871960
-0.886683
-0.864453
-0.817551
-0.763486
-0.716980
-0.693422
-0.706600
-0.756404
-0.826744
-0.898550
-0.956821
-0.985921
-0.972145
-0.916939
-0.841124
-0.773545
-0.737024
-0.740557
-0.777739
-0.829930
-0.872670
-0.884232
-0.854674
-0.792227
-0.722972
-0.680083
-0.685227
-0.734976
-0.803835
-0.859400
-0.875329
-0.838098
-0.753028
-0.645626
-0.550130
-0.493186
-0.487612
-0.536466
-0.635896
-0.771689
-0.917565
-1.042242
-1.119485
-1.135554
-1.096928
-1.033396
-0.984105
-0.972804
-0.996198
-1.032678
-1.055576
-1.041902
-0.980524
-0.876816
-0.747638
-0.612851
-0.491847
-0.402991
-0.360822
-0.371150
-0.427844
-0.514515
-0.610983
-0.699640
-0.765589
-0.793720
-0.774751
-0.718669
-0.653933
-0.605461
-0.577895
-0.564338
-0.561963
-0.570524
-0.581891
-0.579325
-0.545605
-0.470812
-0.356640
-0.215478
-0.066606
0.064405
0.148320
0.166540
0.125760
0.053199
-0.020256
-0.065365
-0.049380
0.057154
0.257999
0.517769
0.776207
0.976958
1.085793
1.094803
1.022255
0.906512
0.790280
0.705108
0.667002
0.680070
0.738648
0.825841
0.915196
0.979637
1.001936
0.979576
0.924167
0.857085
0.800614
0.767374
0.753153
0.738164
0.701802
0.642732
0.581206
0.538377
0.518411
0.512568
0.512813
0.516574
0.524210
0.537441
0.556630
0.575904
0.584340
0.573965
0.544321
0.501219
0.455449
0.420813
0.408175
0.418569
0.442479
0.469643
0.501911
0.552262
0.627662
0.716348
0.794510
0.842455
0.854150
0.836959
0.806796
0.782973
0.783493
0.819088
0.886849
0.969950
1.046924
1.102015
1.125963
1.109511
1.040275
0.908817
0.720891
0.505300
0.306817
0.165935
0.099678
0.096034
0.123025
0.145060
0.139183
0.107074
0.078127
0.097233
0.198242
0.379569
0.603272
0.819361
0.992993
1.116042
1.205395
1.292937
1.405615
1.545621
1.690358
1.811543
1.891155
1.923212
1.911456
1.869679
1.817507
1.769336
1.728684
1.694404
1.666965
1.646275
1.629614
1.616396
1.612783
1.628906
1.670903
1.734604
1.805294
1.863313
1.893384
1.893085
1.873139
1.849329
1.836013
1.845579
1.886557
1.956566
2.037718
2.102128
2.125523
2.100814
2.042922
1.979941
1.936316
1.921187
1.928248
1.943315
1.954180
1.958006
1.960651
1.967121
1.972367
1.962832
1.927386
1.866351
1.789944
1.708361
1.624861
1.538754
1.451353
1.366718
1.290672
1.232282
1.202458
1.207358
1.244316
1.303905
1.371864
1.427320
1.442470
1.389769
1.254790
1.045283
0.789969
0.530346
0.311202
0.169475
0.120445
0.149335
0.219382
0.293320
0.350775
0.388913
0.412106
0.425960
0.439668
0.464727
0.504000
0.544158
0.563965
0.549820
0.501173
0.423650
0.322142
0.201417
0.069674
-0.061923
-0.183505
-0.289123
-0.375952
-0.443155
-0.491295
-0.520767
-0.530441
-0.518602
-0.485857
-0.438497
-0.388491
-0.346239
-0.311560
-0.273667
-0.220259
-0.147037
-0.062802
0.011394
0.051475
0.045836
0.006755
-0.032466
-0.033956
0.024270
0.134824
0.263844
0.370744
0.430426
0.441838
0.421008
0.388335
0.359792
0.343953
0.341308
0.345330
0.347021
0.339171
0.315316
0.266300
0.181063
0.053025
-0.112195
-0.293333
-0.457942
-0.573674
-0.619343
-0.589800
-0.496363
-0.364735
-0.227363
-0.113285
-0.043898
-0.032405
-0.079296
-0.168347
-0.272079
-0.363794
-0.426059
-0.452429
-0.447508
-0.425925
-0.403640
-0.384314
-0.355373
-0.299509
-0.209881
-0.095197
0.026312
0.135123
0.214061
0.248467
0.228352
0.153523
0.035677
-0.104639
-0.241535
-0.348704
-0.410582
-0.433002
-0.439853
-0.456516
-0.495848
-0.556010
-0.624248
-0.681244
-0.709235
-0.703292
-0.676446
-0.652980
-0.655351
-0.693901
-0.763384
-0.846777
-0.926070
-0.993979
-1.056787
-1.127048
-1.213933
-1.316427
-1.420264
-1.500588
-1.530417
-1.490486
-1.376407
-1.201146
-0.991080
-0.777167
-0.586320
-0.436249
-0.334121
-0.278655
-0.263779
-0.281375
-0.322607
-0.379468
-0.447248
-0.524873
-0.611422
-0.703524
-0.796998
-0.888627
-0.975662
-1.056938
-1.135691
-1.217821
-1.304761
-1.389696
-1.462621
-1.517096
-1.549772
-1.555892
-1.530072
-1.472594
-1.392491
-1.302816
-1.213217
-1.126711
-1.041680
-0.956239
-0.871217
-0.788151
-0.705078
-0.618884
-0.533307
-0.459666
-0.407458
-0.379563
-0.380683
-0.424642
-0.523849
-0.670411
-0.832890
-0.971909
-1.056157
-1.068806
-1.010915
-0.904837
-0.788905
-0.700171
-0.657919
-0.659800
-0.687513
-0.715693
-0.722340
-0.696126
-0.635322
-0.541799
-0.417743
-0.267399
-0.100139
0.071087
0.237991
0.405703
0.592556
0.818159
1.087761
1.385700
1.683338
1.952648
2.173031
2.331263
2.422323
2.451468
2.432139
2.378199
2.294464
2.173673
2.005917
1.793218
1.553472
1.310046
1.080522
0.875202
0.699278
0.550299
0.416528
0.285213
0.155630
0.042293
-0.036034
-0.068995
-0.056712
-0.004907
0.076702
0.172338
0.262759
0.336296
0.400138
0.479102
0.600790
0.781065
1.021703
1.315326
1.645666
1.983051
2.285533
2.510107
2.626035
2.620202
2.495251
2.268311
1.969081
1.629068
1.265782
0.877699
0.457146
0.010274
-0.433337
-0.830103
-1.144711
-1.368212
-1.516605
-1.612767
-1.672004
-1.703076
-1.714883
-1.718367
-1.727182
-1.758864
-1.827898
-1.930656
-2.038157
-2.106668
-2.096819
-1.987824
-1.783346
-1.510213
-1.208890
-0.917148
-0.656293
-0.429741
-0.232698
-0.062612
0.078607
0.190412
0.277876
0.347701
0.403445
0.449969
0.500174
0.569275
0.661213
0.765507
0.865601
0.944520
0.986538
0.984154
0.946997
0.899264
0.863979
0.847941
0.840840
0.828272
0.805722
0.781177
0.767071
0.771570
0.796045
0.838094
0.894821
0.962365
1.035055
1.108331
1.181829
1.259999
1.352504
1.471366
1.621953
1.796067
1.974092
2.131361
2.244388
2.300207
2.307777
2.298718
2.308928
2.355254
2.429627
2.511470
2.581017
2.625103
2.640170
2.633825
2.619222
2.602998
2.577908
2.526755
2.431466
2.278953
2.062179
1.779937
1.440272
1.066612
0.695611
0.360576
0.074264
-0.171299
-0.391225
-0.596819
-0.792106
-0.970857
-1.114885
-1.201899
-1.219911
-1.174293
-1.081304
-0.955154
-0.799280
-0.607577
-0.373508
-0.100216
0.195227
0.487017
0.752877
0.985048
1.191388
1.385012
1.570738
1.740389
1.879979
1.978827
2.031096
2.033335
1.985660
1.894569
1.772452
1.635346
1.499664
1.375848
1.263082
1.152235
1.035788
0.915039
0.796405
0.681117
0.563071
0.438660
0.313773
0.200189
0.110970
0.059292
0.055179
0.099956
0.183365
0.288200
0.402523
0.528501
0.678938
0.867647
1.100660
1.366930
1.633296
1.855161
1.998362
2.051433
2.020334
1.918222
1.761071
1.567223
1.355134
1.139020
0.927861
0.729073
0.548132
0.382379
0.224511
0.079104
-0.032543
-0.089879
-0.087899
-0.033984
0.056794
0.160155
0.250093
0.312685
0.343554
0.336395
0.291416
0.232789
0.200860
0.225983
0.315828
0.458079
0.624921
0.783942
0.914677
1.012117
1.076361
1.106576
1.103648
1.073837
1.030338
0.991046
0.970624
0.972979
0.991671
1.014225
1.025848
1.017301
0.993479
0.969111
0.953460
0.943378
0.932275
0.920369
0.913220
0.913810
0.918516
0.917540
0.896180
0.840279
0.748446
0.637073
0.526125
0.424438
0.335232
0.265988
0.222938
0.203275
0.198139
0.194493
0.174528
0.124016
0.037418
-0.087753
-0.250013
-0.437102
-0.623839
-0.775215
-0.860125
-0.866912
-0.803483
-0.688977
-0.547787
-0.403089
-0.269430
-0.149057
-0.034709
0.081545
0.197946
0.299304
0.364171
0.377618
0.338408
0.255386
0.141650
0.015274
-0.098989
-0.176628
-0.206607
-0.198560
-0.175789
-0.159742
-0.159994
-0.175500
-0.198953
-0.218517
-0.221455
-0.199437
-0.149905
-0.075789
0.013742
0.105375
0.184981
0.239000
0.258124
0.241186
0.192298
0.117280
0.026875
-0.060342
-0.123787
-0.151820
-0.147746
-0.126602
-0.108782
-0.115972
-0.166181
-0.267125
-0.414049
-0.592370
-0.780807
-0.956609
-1.104114
-1.219782
-1.307876
-1.369925
-1.396534
-1.369337
-1.273294
-1.110356
-0.905090
-0.699003
-0.535783
-0.443832
-0.425671
-0.461756
-0.525046
-0.592628
-0.648028
-0.681039
-0.689800
-0.681251
-0.667350
-0.659145
-0.660539
-0.664038
-0.654155
-0.620140
-0.567033
-0.513716
-0.483903
-0.499452
-0.570851
-0.685869
-0.812967
-0.918482
-0.977918
-0.980287
-0.935225
-0.874443
-0.837557
-0.851089
-0.915753
-1.009649
-1.101430
-1.161486
-1.170630
-1.128114
-1.051105
-0.964173
-0.886190
-0.820972
-0.760485
-0.699569
-0.642596
-0.594940
-0.555784
-0.521471
-0.491956
-0.471862
-0.464143
-0.464250
-0.463289
-0.454356
-0.433661
-0.400234
-0.358114
-0.316024
-0.282801
-0.264444
-0.263762
-0.278308
-0.298253
-0.309097
-0.298503
-0.262328
-0.205387
-0.136970
-0.066060
0.000729
0.059637
0.108627
0.143759
0.155649
0.130705
0.057354
-0.068100
-0.238420
-0.433171
-0.620189
-0.766110
-0.850986
-0.875181
-0.853723
-0.803184
-0.731680
-0.641469
-0.540309
-0.445244
-0.373136
-0.330657
-0.312880
-0.306402
-0.294429
-0.265820
-0.222659
-0.177084
-0.140242
-0.116266
-0.105359
-0.106963
-0.117600
-0.129401
-0.133934
-0.126857
-0.108768
-0.082998
-0.051674
-0.013187
0.033282
0.079075
0.104553
0.088637
0.023132
-0.077492
-0.179940
-0.249138
-0.264196
-0.222357
-0.134490
-0.018403
0.107839
0.230275
0.340203
0.433642
0.510382
0.572586
0.622722
0.664244
0.703515
0.744209
0.780800
0.801875
0.793936
0.745068
0.656482
0.546213
0.438201
0.355178
0.315865
0.327426
0.382974
0.469124
0.574839
0.695582
0.828267
0.962678
1.084451
1.183593
1.253572
1.288399
1.285632
1.247424
1.177860
1.082720
0.970144
0.849049
0.728001
0.614987
0.516503
0.437603
0.381516
0.346101
0.323247
0.306740
0.300199
0.314865
0.360828
0.441507
0.553629
0.688847
0.834834
0.976495
1.099045
1.192742
1.255019
1.287914
1.294987
1.281116
1.253506
1.221180
1.192057
1.169563
1.152697
1.139927
1.131614
1.127771
1.125289
1.119751
1.110345
1.102108
1.102289
1.112979
1.126415
1.128982
1.112096
1.079301
1.041197
1.003577
0.962937
0.914197
0.859390
0.806896
0.766271
0.746085
0.750668
0.773938
0.800904
0.820121
0.831801
0.840815
0.845976
0.840129
0.817192
0.775162
0.716031
0.646803
0.576214
0.507552
0.438245
0.363642
0.276604
0.169999
0.045613
-0.082541
-0.196395
-0.285534
-0.353016
-0.412956
-0.481265
-0.562424
-0.642462
-0.697052
-0.707946
-0.674239
-0.611897
-0.541986
-0.477565
-0.422741
-0.381296
-0.360012
-0.362678
-0.383872
-0.410642
-0.430486
-0.436476
-0.424916
-0.391381
-0.332603
-0.253035
-0.166882
-0.091954
-0.042531
-0.025887
-0.039973
-0.072857
-0.107165
-0.127509
-0.125621
-0.100428
-0.055252
0.002879
0.061432
0.103750
0.116230
0.096559
0.056392
0.016251
-0.003298
0.011273
0.060652
0.128175
0.185169
0.205666
0.175312
0.093552
-0.023712
-0.149689
-0.260456
-0.342819
-0.396362
-0.432940
-0.470412
-0.525222
-0.609034
-0.726277
-0.870120
-1.021420
-1.155861
-1.256048
-1.319584
-1.355474
-1.370317
-1.359473
-1.312665
-1.223079
-1.090176
-0.919691
-0.723378
-0.518034
-0.323318
-0.156093
-0.024289
0.074817
0.153005
0.224452
0.293791
0.350745
0.376894
0.355250
0.276017
0.138168
-0.051701
-0.279703
-0.524036
-0.757517
-0.955549
-1.106015
-1.212510
-1.287542
-1.343480
-1.389263
-1.431740
-1.476488
-1.526540
-1.581411
-1.638401
-1.694695
-1.747727
-1.794034
-1.829171
-1.850117
-1.857592
-1.854265
-1.840331
-1.812384
-1.767296
-1.706825
-1.639465
-1.579490
-1.542714
-1.538615
-1.564529
-1.608104
-1.654101
-1.688900
-1.703249
-1.692948
-1.655592
-1.589258
-1.496844
-1.389176
-1.283543
-1.198298
-1.143480
