EVENT_NAME: EMILIA_2ND_SHOCK
EVENT_ID: IT-2012-0011
EVENT_DATE_YYYYMMDD: 20120529
EVENT_TIME_HHMMSS: 070002
EVENT_LATITUDE_DEGREE: 44.8417
EVENT_LONGITUDE_DEGREE: 11.0657
EVENT_DEPTH_KM: 8.1
HYPOCENTER_REFERENCE: INGV-CNT_Seismic_Bulletin
MAGNITUDE_W: 6.0
MAGNITUDE_W_REFERENCE: RCMT-INGV
MAGNITUDE_L: 5.8
MAGNITUDE_L_REFERENCE: INGV-CNT_Seismic_Bulletin
FOCAL_MECHANISM: TF
NETWORK: TV
STATION_CODE: MIR08
STATION_NAME: QUARANTOLI 2
STATION_LATITUDE_DEGREE: 44.916900
STATION_LONGITUDE_DEGREE: 11.089500
STATION_ELEVATION_M: 
LOCATION: 
SENSOR_DEPTH_M: 
VS30_M/S: 
SITE_CLASSIFICATION_EC8: C*
MORPHOLOGIC_CLASSIFICATION: 
EPICENTRAL_DISTANCE_KM: 8.6
EARTHQUAKE_BACKAZIMUTH_DEGREE: 192.7
DATE_TIME_FIRST_SAMPLE_YYYYMMDD_HHMMSS: 20120529_065929.000
DATE_TIME_FIRST_SAMPLE_PRECISION: milliseconds
SAMPLING_INTERVAL_S: 0.005000
NDATA: 105
DURATION_S: 
STREAM: HNZ
UNITS: cm/s^2
INSTRUMENT: sensor = Episensor FBA ES-T [Kinemetrics] | digitizer = Unknown [Unknown]
INSTRUMENT_ANALOG/DIGITAL: D
INSTRUMENTAL_FREQUENCY_HZ: 
INSTRUMENTAL_DAMPING: 
FULL_SCALE_G: 
N_BIT_DIGITAL_CONVERTER: 
PGV_CM/S: -7.838663
TIME_PGV_S: 42.325000
BASELINE_CORRECTION: BASELINE REMOVED
FILTER_TYPE: BUTTERWORTH
FILTER_ORDER: 2
LOW_CUT_FREQUENCY_HZ: 0.050
HIGH_CUT_FREQUENCY_HZ: 40.000
LATE/NORMAL_TRIGGERED: NT
DATABASE_VERSION: DYNA 1.0
HEADER_FORMAT: DYNA 1.2
DATA_TYPE: PSEUDO-VELOCITY RESPONSE SPECTRUM
PROCESSING: manual (Paolucci et al., 2011)
DATA_TIMESTAMP_YYYYMMDD_HHMMSS: 
DATA_LICENSE: CC-BY4_0 (http://creativecommons.org/licenses/by/4.0/)
DATA_CITATION: ESM working group (2015), European Strong-Motion database, version 0.1, Network Activity 3: Networking acceleration networks and SM data users. Project NERA (www.nera-eu.org)
DATA_CREATOR: ESM working group
ORIGINAL_DATA_MEDIATOR_CITATION: Orfeus - European Integrated Data Archive (EIDA) http://www.orfeus-eu.org/eida/
ORIGINAL_DATA_MEDIATOR: Orfeus - European Integrated Data Archive (EIDA)
ORIGINAL_DATA_CREATOR_CITATION: 
ORIGINAL_DATA_CREATOR: network: TV (INGV Experiments Network); owner: Istituto Nazionale di Geofisica e Vulcanologia
USER1: 
USER2: 
USER3: 
USER4: 
USER5: 
    0.010000     0.488591
    0.020000     1.077081
    0.022000     1.284642
    0.025000     1.508582
    0.029000     2.527273
    0.030000     2.519888
    0.032000     2.724821
    0.035001     3.995856
    0.036000     4.350214
    0.040000     6.691681
    0.041999     6.795607
    0.044001     5.684083
    0.045000     5.703983
    0.046000     5.553414
    0.048001     5.852117
    0.050000     6.309399
    0.054999     6.659440
    0.059999     7.640514
    0.064998    10.342457
    0.067002     9.922029
    0.069999    10.144912
    0.075002    13.986360
    0.080000    13.058977
    0.084998    12.940272
    0.090001    10.919501
    0.095003     9.434361
    0.100000    12.193963
    0.109999    12.954726
    0.120005    13.109468
    0.130005    14.515454
    0.132996    14.996642
    0.139997    14.672483
    0.149993    15.558245
    0.160000    12.851237
    0.170010    12.138284
    0.179986    12.537933
    0.190006    13.417743
    0.200000    13.082131
    0.220022    13.193720
    0.239981    11.356997
    0.250000     9.413974
    0.260010    10.189658
    0.280034    10.416107
    0.290023    10.528150
    0.300030    10.335550
    0.320000     9.260319
    0.340020    11.117151
    0.350017    12.010529
    0.359971    12.540701
    0.379939    13.707663
    0.400000    14.291567
    0.419992    14.477768
    0.439947    13.855960
    0.450045    13.641726
    0.459982    13.475087
    0.480077    13.200494
    0.500000    12.890600
    0.550055    10.913265
    0.599880    11.921257
    0.650195     9.364698
    0.667111     8.070914
    0.699790     6.963083
    0.750188     7.876858
    0.800000     8.249115
    0.850340     8.111775
    0.900090     7.215668
    0.949668     6.273877
    1.000000     5.241152
    1.100110     5.370071
    1.200480     5.318973
    1.300390     6.436194
    1.400560     7.301950
    1.499250     8.232860
    1.600000    11.545147
    1.700680    15.631202
    1.798561    16.882782
    1.901141    18.056358
    2.000000    17.240191
    2.197802    13.876082
    2.398082    19.526926
    2.500000    21.831308
    2.597403    22.106764
    2.801121    19.780510
    3.003003    14.702967
    3.205128    12.225250
    3.401361    11.781094
    3.496503    11.468476
    3.597122    11.105108
    3.802281    10.248883
    4.000000     9.396087
    4.201681     9.359869
    4.405286     9.993191
    4.608295     9.686128
    4.807692     9.105780
    5.000000     9.403239
    5.494505     8.874146
    5.988024     7.224349
    6.493506     7.110687
    6.993007     6.590907
    7.518797     5.859042
    8.000000     5.025310
    8.474576     4.205621
    9.009009     3.425626
    9.523809     2.966423
   10.000000     2.862251
