EVENT_NAME: EMILIA_2ND_SHOCK
EVENT_ID: IT-2012-0011
EVENT_DATE_YYYYMMDD: 20120529
EVENT_TIME_HHMMSS: 070002
EVENT_LATITUDE_DEGREE: 44.8417
EVENT_LONGITUDE_DEGREE: 11.0657
EVENT_DEPTH_KM: 8.1
HYPOCENTER_REFERENCE: INGV-CNT_Seismic_Bulletin
MAGNITUDE_W: 6.0
MAGNITUDE_W_REFERENCE: RCMT-INGV
MAGNITUDE_L: 5.8
MAGNITUDE_L_REFERENCE: INGV-CNT_Seismic_Bulletin
FOCAL_MECHANISM: TF
NETWORK: TV
STATION_CODE: MIR08
STATION_NAME: QUARANTOLI 2
STATION_LATITUDE_DEGREE: 44.916900
STATION_LONGITUDE_DEGREE: 11.089500
STATION_ELEVATION_M: 
LOCATION: 
SENSOR_DEPTH_M: 
VS30_M/S: 
SITE_CLASSIFICATION_EC8: C*
MORPHOLOGIC_CLASSIFICATION: 
EPICENTRAL_DISTANCE_KM: 8.6
EARTHQUAKE_BACKAZIMUTH_DEGREE: 192.7
DATE_TIME_FIRST_SAMPLE_YYYYMMDD_HHMMSS: 20120529_065929.000
DATE_TIME_FIRST_SAMPLE_PRECISION: milliseconds
SAMPLING_INTERVAL_S: 0.005000
NDATA: 34001
DURATION_S: 170.005
STREAM: HNE
UNITS: cm
INSTRUMENT: sensor = Episensor FBA ES-T [Kinemetrics] | digitizer = Unknown [Unknown]
INSTRUMENT_ANALOG/DIGITAL: D
INSTRUMENTAL_FREQUENCY_HZ: 
INSTRUMENTAL_DAMPING: 
FULL_SCALE_G: 
N_BIT_DIGITAL_CONVERTER: 
PGD_CM: 3.386489
TIME_PGD_S: 41.295000
BASELINE_CORRECTION: BASELINE REMOVED
FILTER_TYPE: BUTTERWORTH
FILTER_ORDER: 2
LOW_CUT_FREQUENCY_HZ: 0.050
HIGH_CUT_FREQUENCY_HZ: 40.000
LATE/NORMAL_TRIGGERED: NT
DATABASE_VERSION: DYNA 1.0
HEADER_FORMAT: DYNA 1.2
DATA_TYPE: DISPLACEMENT
PROCESSING: manual (Paolucci et al., 2011)
DATA_TIMESTAMP_YYYYMMDD_HHMMSS: 
DATA_LICENSE: CC-BY4_0 (http://creativecommons.org/licenses/by/4.0/)
DATA_CITATION: ESM working group (2015), European Strong-Motion database, version 0.1, Network Activity 3: Networking acceleration networks and SM data users. Project NERA (www.nera-eu.org)
DATA_CREATOR: ESM working group
ORIGINAL_DATA_MEDIATOR_CITATION: Orfeus - European Integrated Data Archive (EIDA) http://www.orfeus-eu.org/eida/
ORIGINAL_DATA_MEDIATOR: Orfeus - European Integrated Data Archive (EIDA)
ORIGINAL_DATA_CREATOR_CITATION: 
ORIGINAL_DATA_CREATOR: network: TV (INGV Experiments Network); owner: Istituto Nazionale di Geofisica e Vulcanologia
USER1: 
USER2: 
USER3: 
USER4: 
USER5: 
[...]
-2.330857e-01
-2.333735e-01
-2.336605e-01
-2.339471e-01
-2.342343e-01
-2.345227e-01
-2.348125e-01
-2.351033e-01
-2.353944e-01
-2.356851e-01
-2.359751e-01
-2.362643e-01
-2.365531e-01
-2.368422e-01
-2.371318e-01
-2.374220e-01
-2.377128e-01
-2.380038e-01
-2.382947e-01
-2.385851e-01
-2.388747e-01
-2.391633e-01
-2.394513e-01
-2.397396e-01
-2.400289e-01
-2.403199e-01
-2.406125e-01
-2.409060e-01
-2.411991e-01
-2.414903e-01
-2.417786e-01
-2.420634e-01
-2.423444e-01
-2.426217e-01
-2.428958e-01
-2.431672e-01
-2.434369e-01
-2.437059e-01
-2.439750e-01
-2.442441e-01
-2.445122e-01
-2.447782e-01
-2.450416e-01
-2.453026e-01
-2.455613e-01
-2.458162e-01
-2.460649e-01
-2.463065e-01
-2.465434e-01
-2.467815e-01
-2.470268e-01
-2.472821e-01
-2.475449e-01
-2.478108e-01
-2.480772e-01
-2.483463e-01
-2.486222e-01
-2.489070e-01
-2.491972e-01
-2.494858e-01
-2.497671e-01
-2.500433e-01
-2.503241e-01
-2.506188e-01
-2.509270e-01
-2.512389e-01
-2.515444e-01
-2.518413e-01
-2.521354e-01
-2.524349e-01
-2.527454e-01
-2.530696e-01
-2.534072e-01
-2.537551e-01
-2.541054e-01
-2.544448e-01
-2.547572e-01
-2.550302e-01
-2.552617e-01
-2.554658e-01
-2.556701e-01
-2.559086e-01
-2.562090e-01
-2.565805e-01
-2.570069e-01
-2.574492e-01
-2.578629e-01
-2.582205e-01
-2.585231e-01
-2.587874e-01
-2.590217e-01
-2.592164e-01
-2.593605e-01
-2.594648e-01
-2.595665e-01
-2.597088e-01
-2.599124e-01
-2.601648e-01
-2.604330e-01
-2.606871e-01
-2.609148e-01
-2.611156e-01
-2.612868e-01
-2.614144e-01
-2.614745e-01
-2.614469e-01
-2.613409e-01
-2.612056e-01
-2.611094e-01
-2.611086e-01
-2.612354e-01
-2.615022e-01
-2.619028e-01
-2.624057e-01
-2.629610e-01
-2.635203e-01
-2.640459e-01
-2.645040e-01
-2.648551e-01
-2.650537e-01
-2.650558e-01
-2.648376e-01
-2.644275e-01
-2.639294e-01
-2.635038e-01
-2.633012e-01
-2.633907e-01
-2.637448e-01
-2.642856e-01
-2.649440e-01
-2.656811e-01
-2.664774e-01
-2.673138e-01
-2.681603e-01
-2.689739e-01
-2.697001e-01
-2.702772e-01
-2.706489e-01
-2.707872e-01
-2.707198e-01
-2.705351e-01
-2.703403e-01
-2.701909e-01
-2.700653e-01
-2.699225e-01
-2.697872e-01
-2.697700e-01
-2.699986e-01
-2.705280e-01
-2.713117e-01
-2.722378e-01
-2.731740e-01
-2.740000e-01
-2.746318e-01
-2.750397e-01
-2.752505e-01
-2.753307e-01
-2.753455e-01
-2.753089e-01
-2.751680e-01
-2.748594e-01
-2.743941e-01
-2.738974e-01
-2.735648e-01
-2.735586e-01
-2.739041e-01
-2.744635e-01
-2.750219e-01
-2.754252e-01
-2.756713e-01
-2.758959e-01
-2.762661e-01
-2.768513e-01
-2.775572e-01
-2.781679e-01
-2.784722e-01
-2.783888e-01
-2.780103e-01
-2.775540e-01
-2.772554e-01
-2.772337e-01
-2.774035e-01
-2.775309e-01
-2.774204e-01
-2.770717e-01
-2.766738e-01
-2.764737e-01
-2.766446e-01
-2.772148e-01
-2.780505e-01
-2.788977e-01
-2.794972e-01
-2.797195e-01
-2.796267e-01
-2.794186e-01
-2.792983e-01
-2.793397e-01
-2.794454e-01
-2.794407e-01
-2.792434e-01
-2.789717e-01
-2.788851e-01
-2.791986e-01
-2.799230e-01
-2.808570e-01
-2.817252e-01
-2.823402e-01
-2.826777e-01
-2.828530e-01
-2.830446e-01
-2.833884e-01
-2.838760e-01
-2.843387e-01
-2.845453e-01
-2.843477e-01
-2.837766e-01
-2.830527e-01
-2.825204e-01
-2.825061e-01
-2.831367e-01
-2.842361e-01
-2.854079e-01
-2.862660e-01
-2.866337e-01
-2.865699e-01
-2.862346e-01
-2.857413e-01
-2.851198e-01
-2.843864e-01
-2.836238e-01
-2.829859e-01
-2.826254e-01
-2.826110e-01
-2.829067e-01
-2.834062e-01
-2.839700e-01
-2.844583e-01
-2.847854e-01
-2.849723e-01
-2.851329e-01
-2.853892e-01
-2.857951e-01
-2.863234e-01
-2.868749e-01
-2.872714e-01
-2.872985e-01
-2.868277e-01
-2.859075e-01
-2.847255e-01
-2.835115e-01
-2.824991e-01
-2.819254e-01
-2.819786e-01
-2.826913e-01
-2.838786e-01
-2.851851e-01
-2.862028e-01
-2.866055e-01
-2.862684e-01
-2.853224e-01
-2.840969e-01
-2.829712e-01
-2.822238e-01
-2.819552e-01
-2.820984e-01
-2.824970e-01
-2.830127e-01
-2.835962e-01
-2.842609e-01
-2.849802e-01
-2.856221e-01
-2.860054e-01
-2.860201e-01
-2.856799e-01
-2.850622e-01
-2.842224e-01
-2.831880e-01
-2.820158e-01
-2.808076e-01
-2.796574e-01
-2.786123e-01
-2.777069e-01
-2.770259e-01
-2.767119e-01
-2.769002e-01
-2.776379e-01
-2.788315e-01
-2.802293e-01
-2.814655e-01
-2.822177e-01
-2.824014e-01
-2.822080e-01
-2.819185e-01
-2.816860e-01
-2.815068e-01
-2.813607e-01
-2.813080e-01
-2.814266e-01
-2.817024e-01
-2.820318e-01
-2.823208e-01
-2.825407e-01
-2.826747e-01
-2.826332e-01
-2.822737e-01
-2.815490e-01
-2.806402e-01
-2.799005e-01
-2.796331e-01
-2.798886e-01
-2.804334e-01
-2.808837e-01
-2.809032e-01
-2.803621e-01
-2.793914e-01
-2.783068e-01
-2.774426e-01
-2.770036e-01
-2.770018e-01
-2.772709e-01
-2.775381e-01
-2.775408e-01
-2.771285e-01
-2.762972e-01
-2.751567e-01
-2.738613e-01
-2.725528e-01
-2.713538e-01
-2.703845e-01
-2.697523e-01
-2.694986e-01
-2.695365e-01
-2.696478e-01
-2.695726e-01
-2.691284e-01
-2.682639e-01
-2.670362e-01
-2.655739e-01
-2.640749e-01
-2.628016e-01
-2.620054e-01
-2.617956e-01
-2.620861e-01
-2.626950e-01
-2.634835e-01
-2.643800e-01
-2.653032e-01
-2.661236e-01
-2.667196e-01
-2.670435e-01
-2.671188e-01
-2.669898e-01
-2.666699e-01
-2.661109e-01
-2.652218e-01
-2.639337e-01
-2.622540e-01
-2.602558e-01
-2.580282e-01
-2.556525e-01
-2.532285e-01
-2.509060e-01
-2.488571e-01
-2.471896e-01
-2.458825e-01
-2.448166e-01
-2.438401e-01
-2.427690e-01
-2.413576e-01
-2.393719e-01
-2.367694e-01
-2.338051e-01
-2.309235e-01
-2.285152e-01
-2.267409e-01
-2.255301e-01
-2.246924e-01
-2.240369e-01
-2.234585e-01
-2.229822e-01
-2.227190e-01
-2.227125e-01
-2.228164e-01
-2.227609e-01
-2.223543e-01
-2.216076e-01
-2.206925e-01
-2.198342e-01
-2.192454e-01
-2.190878e-01
-2.194134e-01
-2.201157e-01
-2.209571e-01
-2.216603e-01
-2.219911e-01
-2.218037e-01
-2.210509e-01
-2.197534e-01
-2.179542e-01
-2.157193e-01
-2.131949e-01
-2.106458e-01
-2.084123e-01
-2.068004e-01
-2.059521e-01
-2.057506e-01
-2.058509e-01
-2.058560e-01
-2.055055e-01
-2.047245e-01
-2.035578e-01
-2.021153e-01
-2.005654e-01
-1.990913e-01
-1.977825e-01
-1.965748e-01
-1.953235e-01
-1.939082e-01
-1.922368e-01
-1.901816e-01
-1.875590e-01
-1.841917e-01
-1.800200e-01
-1.751989e-01
-1.701074e-01
-1.652658e-01
-1.611989e-01
-1.582727e-01
-1.565681e-01
-1.558714e-01
-1.557874e-01
-1.559222e-01
-1.560553e-01
-1.561788e-01
-1.563839e-01
-1.567214e-01
-1.570970e-01
-1.571881e-01
-1.565175e-01
-1.547920e-01
-1.522329e-01
-1.494924e-01
-1.472026e-01
-1.456367e-01
-1.447639e-01
-1.444430e-01
-1.444316e-01
-1.443181e-01
-1.436769e-01
-1.423835e-01
-1.407167e-01
-1.390788e-01
-1.376339e-01
-1.362578e-01
-1.347786e-01
-1.331772e-01
-1.315967e-01
-1.302793e-01
-1.294931e-01
-1.293846e-01
-1.298086e-01
-1.303264e-01
-1.304099e-01
-1.296475e-01
-1.278018e-01
-1.247841e-01
-1.206541e-01
-1.156723e-01
-1.103309e-01
-1.052508e-01
-1.009728e-01
-9.779097e-02
-9.567970e-02
-9.432153e-02
-9.329817e-02
-9.235251e-02
-9.143915e-02
-9.050940e-02
-8.933400e-02
-8.757199e-02
-8.495496e-02
-8.140553e-02
-7.708153e-02
-7.236038e-02
-6.769200e-02
-6.335186e-02
-5.931042e-02
-5.537703e-02
-5.150520e-02
-4.796592e-02
-4.524834e-02
-4.384415e-02
-4.407729e-02
-4.594166e-02
-4.893376e-02
-5.205553e-02
-5.412175e-02
-5.421838e-02
-5.201723e-02
-4.782372e-02
-4.241550e-02
-3.672294e-02
-3.142719e-02
-2.673806e-02
-2.259020e-02
-1.903047e-02
-1.629853e-02
-1.455029e-02
-1.363010e-02
-1.310419e-02
-1.243491e-02
-1.114591e-02
-8.890580e-03
-5.422909e-03
-5.911631e-04
5.551463e-03
1.259888e-02
1.980352e-02
2.633608e-02
3.161683e-02
3.547066e-02
3.805959e-02
3.968824e-02
4.060299e-02
4.093485e-02
4.082075e-02
4.052807e-02
4.042909e-02
4.087672e-02
4.208482e-02
4.402618e-02
4.639183e-02
4.873636e-02
5.078281e-02
5.260965e-02
5.449706e-02
5.655959e-02
5.852928e-02
5.991471e-02
6.039181e-02
6.010237e-02
5.970355e-02
6.018871e-02
6.250929e-02
6.713131e-02
7.382350e-02
8.182313e-02
9.018683e-02
9.807151e-02
1.048836e-01
1.103374e-01
1.144357e-01
1.174019e-01
1.196240e-01
1.215999e-01
1.238289e-01
1.266868e-01
1.303621e-01
1.348311e-01
1.398426e-01
1.449916e-01
1.499095e-01
1.544291e-01
1.585864e-01
1.624871e-01
1.661531e-01
1.694410e-01
1.720888e-01
1.738912e-01
1.749066e-01
1.755496e-01
1.764896e-01
1.783954e-01
1.816654e-01
1.863330e-01
1.922204e-01
1.991545e-01
2.070135e-01
2.156455e-01
2.248332e-01
2.342889e-01
2.436138e-01
2.523552e-01
2.602628e-01
2.674669e-01
2.742577e-01
2.806647e-01
2.863797e-01
2.911590e-01
2.952183e-01
2.991671e-01
3.036118e-01
3.088532e-01
3.148266e-01
3.211823e-01
3.274719e-01
3.334079e-01
3.390187e-01
3.445803e-01
3.504126e-01
3.567246e-01
3.635807e-01
3.709239e-01
3.785877e-01
3.863357e-01
3.939866e-01
4.015407e-01
4.091510e-01
4.169268e-01
4.247154e-01
4.320444e-01
4.383552e-01
4.434143e-01
4.474994e-01
4.511272e-01
4.546499e-01
4.581925e-01
4.619128e-01
4.661484e-01
4.712015e-01
4.770162e-01
4.831587e-01
4.891243e-01
4.946235e-01
4.996217e-01
5.042450e-01
5.087275e-01
5.133621e-01
5.183668e-01
5.237651e-01
5.294604e-01
5.354639e-01
5.420304e-01
5.495429e-01
5.582400e-01
5.680444e-01
5.786666e-01
5.898688e-01
6.015999e-01
6.138773e-01
6.265675e-01
6.392974e-01
6.515865e-01
6.630798e-01
6.736881e-01
6.835727e-01
6.930404e-01
7.024211e-01
7.119567e-01
7.217136e-01
7.315445e-01
7.411606e-01
7.503350e-01
7.591186e-01
7.678636e-01
7.770010e-01
7.867520e-01
7.969783e-01
8.072204e-01
8.169014e-01
8.256377e-01
8.335004e-01
8.410238e-01
8.489131e-01
8.576714e-01
8.674469e-01
8.781503e-01
8.896182e-01
9.016365e-01
9.139012e-01
9.260820e-01
9.379372e-01
9.493283e-01
9.601649e-01
9.703972e-01
9.800176e-01
9.890267e-01
9.974657e-01
1.005561e+00
1.013827e+00
1.022965e+00
1.033628e+00
1.046151e+00
1.060421e+00
1.075932e+00
1.092004e+00
1.108043e+00
1.123749e+00
1.139119e+00
1.154227e+00
1.168990e+00
1.183147e+00
1.196433e+00
1.208739e+00
1.220155e+00
1.230930e+00
1.241440e+00
1.252109e+00
1.263218e+00
1.274691e+00
1.286012e+00
1.296413e+00
1.305257e+00
1.312372e+00
1.318048e+00
1.322741e+00
1.326770e+00
1.330267e+00
1.333348e+00
1.336280e+00
1.339492e+00
1.343421e+00
1.348320e+00
1.354127e+00
1.360465e+00
1.366757e+00
1.372409e+00
1.377046e+00
1.380703e+00
1.383830e+00
1.387044e+00
1.390792e+00
1.395203e+00
1.400198e+00
1.405677e+00
1.411569e+00
1.417746e+00
1.424006e+00
1.430154e+00
1.436117e+00
1.441916e+00
1.447551e+00
1.452945e+00
1.458016e+00
1.462782e+00
1.467387e+00
1.472011e+00
1.476740e+00
1.481494e+00
1.486065e+00
1.490205e+00
1.493714e+00
1.496514e+00
1.498693e+00
1.500470e+00
1.502074e+00
1.503594e+00
1.504946e+00
1.506015e+00
1.506824e+00
1.507562e+00
1.508440e+00
1.509540e+00
1.510803e+00
1.512143e+00
1.513532e+00
1.514975e+00
1.516413e+00
1.517716e+00
1.518790e+00
1.519684e+00
1.520640e+00
1.522061e+00
1.524420e+00
1.528123e+00
1.533369e+00
1.540058e+00
1.547814e+00
1.556145e+00
1.564654e+00
1.573147e+00
1.581627e+00
1.590265e+00
1.599378e+00
1.609364e+00
1.620612e+00
1.633480e+00
1.648275e+00
1.665160e+00
1.684049e+00
1.704584e+00
1.726219e+00
1.748419e+00
1.770900e+00
1.793727e+00
1.817178e+00
1.841477e+00
1.866618e+00
1.892396e+00
1.918544e+00
1.944827e+00
1.971032e+00
1.996926e+00
2.022200e+00
2.046441e+00
2.069175e+00
2.089982e+00
2.108641e+00
2.125242e+00
2.140178e+00
2.154021e+00
2.167341e+00
2.180565e+00
2.193902e+00
2.207351e+00
2.220797e+00
2.234113e+00
2.247209e+00
2.260027e+00
2.272529e+00
2.284674e+00
2.296440e+00
2.307872e+00
2.319123e+00
2.330416e+00
2.341953e+00
2.353820e+00
2.365946e+00
2.378156e+00
2.390283e+00
2.402298e+00
2.414379e+00
2.426860e+00
2.440051e+00
2.454113e+00
2.469093e+00
2.485036e+00
2.502041e+00
2.520240e+00
2.539736e+00
2.560532e+00
2.582524e+00
2.605586e+00
2.629647e+00
2.654605e+00
2.680180e+00
2.705854e+00
2.730993e+00
2.755041e+00
2.777657e+00
2.798688e+00
2.817992e+00
2.835330e+00
2.850431e+00
2.863158e+00
2.873600e+00
2.882056e+00
2.888981e+00
2.894884e+00
2.900212e+00
2.905256e+00
2.910176e+00
2.915057e+00
2.919908e+00
2.924608e+00
2.928939e+00
2.932740e+00
2.936006e+00
2.938841e+00
2.941345e+00
2.943525e+00
2.945261e+00
2.946347e+00
2.946592e+00
2.945914e+00
2.944374e+00
2.942121e+00
2.939345e+00
2.936266e+00
2.933170e+00
2.930425e+00
2.928423e+00
2.927462e+00
2.927627e+00
2.928752e+00
2.930471e+00
2.932352e+00
2.934007e+00
2.935156e+00
2.935657e+00
2.935525e+00
2.934945e+00
2.934264e+00
2.933959e+00
2.934574e+00
2.936632e+00
2.940559e+00
2.946641e+00
2.955023e+00
2.965692e+00
2.978445e+00
2.992902e+00
3.008580e+00
3.024985e+00
3.041682e+00
3.058331e+00
3.074698e+00
3.090611e+00
3.105911e+00
3.120458e+00
3.134252e+00
3.147526e+00
3.160660e+00
3.173948e+00
3.187441e+00
3.200997e+00
3.214454e+00
3.227785e+00
3.241106e+00
3.254581e+00
3.268323e+00
3.282329e+00
3.296456e+00
3.310438e+00
3.323937e+00
3.336634e+00
3.348297e+00
3.358781e+00
3.367946e+00
3.375579e+00
3.381399e+00
3.385117e+00
3.386489e+00
3.385364e+00
3.381714e+00
3.375621e+00
3.367164e+00
3.356287e+00
3.342774e+00
3.326355e+00
3.306853e+00
3.284270e+00
3.258760e+00
3.230520e+00
3.199703e+00
3.166426e+00
3.130841e+00
3.093138e+00
3.053513e+00
3.012185e+00
2.969476e+00
2.925859e+00
2.881852e+00
2.837861e+00
2.794103e+00
2.750661e+00
2.707583e+00
2.664946e+00
2.622872e+00
2.581549e+00
2.541211e+00
2.502071e+00
2.464201e+00
2.427466e+00
2.391576e+00
2.356209e+00
2.321074e+00
2.285890e+00
2.250330e+00
2.214001e+00
2.176473e+00
2.137341e+00
2.096302e+00
2.053202e+00
2.008066e+00
1.961059e+00
1.912411e+00
1.862323e+00
1.810940e+00
1.758392e+00
1.704881e+00
1.650718e+00
1.596280e+00
1.541912e+00
1.487850e+00
1.434218e+00
1.381122e+00
1.328790e+00
1.277601e+00
1.228008e+00
1.180436e+00
1.135231e+00
1.092651e+00
1.052883e+00
1.016066e+00
9.823149e-01
9.517241e-01
9.243512e-01
9.001876e-01
8.791516e-01
8.611335e-01
8.460707e-01
8.339814e-01
8.249233e-01
8.189288e-01
8.159691e-01
8.158960e-01
8.182893e-01
8.222838e-01
8.266064e-01
8.299321e-01
8.313035e-01
8.302418e-01
8.265663e-01
8.202537e-01
8.114332e-01
8.002975e-01
7.868983e-01
7.710806e-01
7.526596e-01
7.316272e-01
7.081834e-01
6.826380e-01
6.553364e-01
6.266470e-01
5.969554e-01
5.666410e-01
5.360623e-01
5.055554e-01
4.754209e-01
4.458833e-01
4.170265e-01
3.887342e-01
3.606756e-01
3.323691e-01
3.033085e-01
2.730892e-01
2.414788e-01
2.084277e-01
1.740552e-01
1.386577e-01
1.027403e-01
6.702367e-02
3.236595e-02
-4.010253e-04
-3.064250e-02
-5.800981e-02
-8.244146e-02
-1.041400e-01
-1.235638e-01
-1.414003e-01
-1.584691e-01
-1.755653e-01
-1.933128e-01
-2.120820e-01
-2.319739e-01
-2.528422e-01
-2.743495e-01
-2.960784e-01
-3.176770e-01
-3.389419e-01
-3.597771e-01
-3.800999e-01
-3.997992e-01
-4.187558e-01
-4.368571e-01
-4.539695e-01
-4.698931e-01
-4.843350e-01
-4.969423e-01
-5.074499e-01
-5.159590e-01
-5.232007e-01
-5.305033e-01
-5.393406e-01
-5.508016e-01
-5.654703e-01
-5.836800e-01
-6.056621e-01
-6.314676e-01
-6.610002e-01
-6.942238e-01
-7.311893e-01
-7.718097e-01
-8.157604e-01
-8.626923e-01
-9.124818e-01
-9.652408e-01
-1.021133e+00
-1.080225e+00
-1.142485e+00
-1.207869e+00
-1.276372e+00
-1.348036e+00
-1.422967e+00
-1.501308e+00
-1.583164e+00
-1.668506e+00
-1.757091e+00
-1.848372e+00
-1.941399e+00
-2.034813e+00
-2.127109e+00
-2.217066e+00
-2.303982e+00
-2.387482e+00
-2.467225e+00
-2.542871e+00
-2.614199e+00
-2.681055e+00
-2.743184e+00
-2.800208e+00
-2.851819e+00
-2.897956e+00
-2.938793e+00
-2.974610e+00
-3.005703e+00
-3.032364e+00
-3.054865e+00
-3.073448e+00
-3.088335e+00
-3.099810e+00
-3.108375e+00
-3.114883e+00
-3.120488e+00
-3.126375e+00
-3.133486e+00
-3.142452e+00
-3.153660e+00
-3.167278e+00
-3.183208e+00
-3.201112e+00
-3.220523e+00
-3.240892e+00
-3.261575e+00
-3.281839e+00
-3.300953e+00
-3.318267e+00
-3.333266e+00
-3.345593e+00
-3.355026e+00
-3.361422e+00
-3.364687e+00
-3.364811e+00
-3.361937e+00
-3.356355e+00
-3.348406e+00
-3.338388e+00
-3.326532e+00
-3.313026e+00
-3.298006e+00
-3.281516e+00
-3.263471e+00
-3.243642e+00
-3.221671e+00
-3.197132e+00
-3.169726e+00
-3.139591e+00
-3.107535e+00
-3.074914e+00
-3.043167e+00
-3.013366e+00
-2.986095e+00
-2.961573e+00
-2.939711e+00
-2.920134e+00
-2.902377e+00
-2.886187e+00
-2.871654e+00
-2.859043e+00
-2.848553e+00
-2.840181e+00
-2.833751e+00
-2.829012e+00
-2.825736e+00
-2.823740e+00
-2.822831e+00
-2.822761e+00
-2.823254e+00
-2.824064e+00
-2.824957e+00
-2.825659e+00
-2.825887e+00
-2.825429e+00
-2.824160e+00
-2.821915e+00
-2.818325e+00
-2.812817e+00
-2.804818e+00
-2.794030e+00
-2.780622e+00
-2.765205e+00
-2.748653e+00
-2.731876e+00
-2.715664e+00
-2.700589e+00
-2.686974e+00
-2.674932e+00
-2.664448e+00
-2.655435e+00
-2.647722e+00
-2.641081e+00
-2.635320e+00
-2.630370e+00
-2.626297e+00
-2.623233e+00
-2.621298e+00
-2.620539e+00
-2.620962e+00
-2.622622e+00
-2.625683e+00
-2.630363e+00
-2.636782e+00
-2.644822e+00
-2.654138e+00
-2.664287e+00
-2.674883e+00
-2.685636e+00
-2.696263e+00
-2.706310e+00
-2.715025e+00
-2.721405e+00
-2.724483e+00
-2.723691e+00
-2.719046e+00
-2.710998e+00
-2.700101e+00
-2.686767e+00
-2.671193e+00
-2.653354e+00
-2.633045e+00
-2.610028e+00
-2.584245e+00
-2.555909e+00
-2.525414e+00
-2.493165e+00
-2.459495e+00
-2.424672e+00
-2.388945e+00
-2.352593e+00
-2.315928e+00
-2.279260e+00
-2.242850e+00
-2.206896e+00
-2.171556e+00
-2.136945e+00
-2.103074e+00
-2.069792e+00
-2.036864e+00
-2.004136e+00
-1.971646e+00
-1.939532e+00
-1.907907e+00
-1.876850e+00
-1.846495e+00
-1.817096e+00
-1.788976e+00
-1.762418e+00
-1.737585e+00
-1.714518e+00
-1.693182e+00
-1.673490e+00
-1.655298e+00
-1.638435e+00
-1.622759e+00
-1.608166e+00
-1.594519e+00
-1.581616e+00
-1.569293e+00
-1.557576e+00
-1.546703e+00
-1.536970e+00
-1.528542e+00
-1.521302e+00
-1.514841e+00
-1.508616e+00
-1.502177e+00
-1.495224e+00
-1.487479e+00
-1.478587e+00
-1.468163e+00
-1.455885e+00
-1.441557e+00
-1.425119e+00
-1.406592e+00
-1.386009e+00
-1.363380e+00
-1.338684e+00
-1.311839e+00
-1.282726e+00
-1.251325e+00
-1.217861e+00
-1.182793e+00
-1.146622e+00
-1.109680e+00
-1.072011e+00
-1.033393e+00
-9.934522e-01
-9.518253e-01
-9.083143e-01
-8.629809e-01
-8.161646e-01
-7.684262e-01
-7.204388e-01
-6.728710e-01
-6.263225e-01
-5.813336e-01
-5.384125e-01
-4.980092e-01
-4.604440e-01
-4.258735e-01
-3.943504e-01
-3.659247e-01
-3.406863e-01
-3.187347e-01
-3.001434e-01
-2.849618e-01
-2.732099e-01
-2.648296e-01
-2.596302e-01
-2.572767e-01
-2.573159e-01
-2.592141e-01
-2.624212e-01
