EVENT_NAME: EMILIA_2ND_SHOCK
EVENT_ID: IT-2012-0011
EVENT_DATE_YYYYMMDD: 20120529
EVENT_TIME_HHMMSS: 070002
EVENT_LATITUDE_DEGREE: 44.8417
EVENT_LONGITUDE_DEGREE: 11.0657
EVENT_DEPTH_KM: 8.1
HYPOCENTER_REFERENCE: INGV-CNT_Seismic_Bulletin
MAGNITUDE_W: 6.0
MAGNITUDE_W_REFERENCE: RCMT-INGV
MAGNITUDE_L: 5.8
MAGNITUDE_L_REFERENCE: INGV-CNT_Seismic_Bulletin
FOCAL_MECHANISM: TF
NETWORK: TV
STATION_CODE: MIR03
STATION_NAME: QUARANTOLI 1
STATION_LATITUDE_DEGREE: 44.938400
STATION_LONGITUDE_DEGREE: 11.104500
STATION_ELEVATION_M: 
LOCATION: 
SENSOR_DEPTH_M: 
VS30_M/S: 
SITE_CLASSIFICATION_EC8: C*
MORPHOLOGIC_CLASSIFICATION: 
EPICENTRAL_DISTANCE_KM: 11.2
EARTHQUAKE_BACKAZIMUTH_DEGREE: 195.9
DATE_TIME_FIRST_SAMPLE_YYYYMMDD_HHMMSS: 20120529_065927.000
DATE_TIME_FIRST_SAMPLE_PRECISION: milliseconds
SAMPLING_INTERVAL_S: 0.005000
NDATA: 18001
DURATION_S: 90.005
STREAM: HNN
UNITS: cm
INSTRUMENT: sensor = Episensor FBA ES-T [Kinemetrics] | digitizer = Unknown [Unknown]
INSTRUMENT_ANALOG/DIGITAL: D
INSTRUMENTAL_FREQUENCY_HZ: 
INSTRUMENTAL_DAMPING: 
FULL_SCALE_G: 
N_BIT_DIGITAL_CONVERTER: 
PGD_CM: 7.481851
TIME_PGD_S: 49.315000
BASELINE_CORRECTION: BASELINE REMOVED
FILTER_TYPE: BUTTERWORTH
FILTER_ORDER: 2
LOW_CUT_FREQUENCY_HZ: 0.070
HIGH_CUT_FREQUENCY_HZ: 40.000
LATE/NORMAL_TRIGGERED: NT
DATABASE_VERSION: DYNA 1.0
HEADER_FORMAT: DYNA 1.2
DATA_TYPE: DISPLACEMENT
PROCESSING: manual (Paolucci et al., 2011)
DATA_TIMESTAMP_YYYYMMDD_HHMMSS: 
DATA_LICENSE: CC-BY4_0 (http://creativecommons.org/licenses/by/4.0/)
DATA_CITATION: ESM working group (2015), European Strong-Motion database, version 0.1, Network Activity 3: Networking acceleration networks and SM data users. Project NERA (www.nera-eu.org)
DATA_CREATOR: ESM working group
ORIGINAL_DATA_MEDIATOR_CITATION: Orfeus - European Integrated Data Archive (EIDA) http://www.orfeus-eu.org/eida/
ORIGINAL_DATA_MEDIATOR: Orfeus - European Integrated Data Archive (EIDA)
ORIGINAL_DATA_CREATOR_CITATION: 
ORIGINAL_DATA_CREATOR: network: TV (INGV Experiments Network); owner: Istituto Nazionale di Geofisica e Vulcanologia
USER1: 
USER2: 
USER3: 
USER4: 
USER5: 
[...]
3.275517e-02
9.213448e-02
1.531691e-01
2.142130e-01
2.735040e-01
3.296969e-01
3.820522e-01
4.302265e-01
4.739546e-01
5.128735e-01
5.465460e-01
5.746255e-01
5.970291e-01
6.139471e-01
6.256470e-01
6.322483e-01
6.336796e-01
6.298350e-01
6.207537e-01
6.066239e-01
5.875843e-01
5.635111e-01
5.340044e-01
4.986016e-01
4.570608e-01
4.095655e-01
3.567862e-01
2.997418e-01
2.394541e-01
1.766079e-01
1.115003e-01
4.426748e-02
-2.488895e-02
-9.565946e-02
-1.677342e-01
-2.409425e-01
-3.153106e-01
-3.910153e-01
-4.683313e-01
-5.476333e-01
-6.294020e-01
-7.141601e-01
-8.023421e-01
-8.941663e-01
-9.895796e-01
-1.088287e+00
-1.189825e+00
-1.293635e+00
-1.399098e+00
-1.505548e+00
-1.612282e+00
-1.718602e+00
-1.823880e+00
-1.927622e+00
-2.029471e+00
-2.129148e+00
-2.226379e+00
-2.320883e+00
-2.412466e+00
-2.501171e+00
-2.587322e+00
-2.671384e+00
-2.753731e+00
-2.834480e+00
-2.913488e+00
-2.990446e+00
-3.064965e+00
-3.136600e+00
-3.204841e+00
-3.269128e+00
-3.328912e+00
-3.383701e+00
-3.433065e+00
-3.476578e+00
-3.513806e+00
-3.544449e+00
-3.568663e+00
-3.587263e+00
-3.601498e+00
-3.612456e+00
-3.620664e+00
-3.626212e+00
-3.629104e+00
-3.629417e+00
-3.627220e+00
-3.622384e+00
-3.614477e+00
-3.602837e+00
-3.586774e+00
-3.565712e+00
-3.539242e+00
-3.507159e+00
-3.469481e+00
-3.426409e+00
-3.378269e+00
-3.325453e+00
-3.268362e+00
-3.207364e+00
-3.142751e+00
-3.074703e+00
-3.003255e+00
-2.928275e+00
-2.849449e+00
-2.766320e+00
-2.678376e+00
-2.585150e+00
-2.486328e+00
-2.381808e+00
-2.271716e+00
-2.156336e+00
-2.036018e+00
-1.911084e+00
-1.781798e+00
-1.648360e+00
-1.510882e+00
-1.369350e+00
-1.223586e+00
-1.073260e+00
-9.179722e-01
-7.574574e-01
-5.919356e-01
-4.224240e-01
-2.506677e-01
-7.861981e-02
9.210480e-02
2.604047e-01
4.255918e-01
5.872818e-01
7.453355e-01
8.998103e-01
1.050870e+00
1.198641e+00
1.343100e+00
1.484062e+00
1.621224e+00
1.754204e+00
1.882611e+00
2.006107e+00
2.124445e+00
2.237391e+00
2.344621e+00
2.445661e+00
2.539955e+00
2.627001e+00
2.706475e+00
2.778249e+00
2.842331e+00
2.898748e+00
2.947475e+00
2.988444e+00
3.021625e+00
3.047132e+00
3.065241e+00
3.076314e+00
3.080669e+00
3.078491e+00
3.069837e+00
3.054682e+00
3.032974e+00
3.004641e+00
2.969581e+00
2.927631e+00
2.878547e+00
2.822074e+00
2.758123e+00
2.687007e+00
2.609550e+00
2.526955e+00
2.440478e+00
2.351105e+00
2.259394e+00
2.165519e+00
2.069420e+00
1.970936e+00
1.869891e+00
1.766124e+00
1.659514e+00
1.550013e+00
1.437669e+00
1.322620e+00
1.205063e+00
1.085225e+00
9.633717e-01
8.398421e-01
7.150786e-01
5.896096e-01
4.639995e-01
3.387997e-01
2.145177e-01
9.160595e-02
-2.953666e-02
-1.485549e-01
-2.651275e-01
-3.789572e-01
-4.897513e-01
-5.971855e-01
-7.008647e-01
-8.002996e-01
-8.949083e-01
-9.840419e-01
-1.067036e+00
-1.143283e+00
-1.212310e+00
-1.273848e+00
-1.327852e+00
-1.374477e+00
-1.414005e+00
-1.446732e+00
-1.472850e+00
-1.492347e+00
-1.504988e+00
-1.510386e+00
-1.508130e+00
-1.497926e+00
-1.479698e+00
-1.453640e+00
-1.420202e+00
-1.379976e+00
-1.333523e+00
-1.281243e+00
-1.223365e+00
-1.159998e+00
-1.091199e+00
-1.017032e+00
-9.376913e-01
-8.536637e-01
-7.658437e-01
-6.755026e-01
-5.841136e-01
-4.931093e-01
-4.036597e-01
-3.165430e-01
-2.321427e-01
-1.505471e-01
-7.166815e-02
4.722674e-03
7.907552e-02
1.521761e-01
2.251346e-01
2.991554e-01
3.751864e-01
4.536868e-01
5.346277e-01
6.176376e-01
7.021760e-01
7.876954e-01
8.737457e-01
9.600009e-01
1.046253e+00
1.132410e+00
1.218477e+00
1.304537e+00
1.390724e+00
1.477150e+00
1.563801e+00
1.650460e+00
1.736725e+00
1.822119e+00
1.906219e+00
1.988720e+00
2.069453e+00
2.148383e+00
2.225599e+00
2.301265e+00
2.375542e+00
2.448553e+00
2.520371e+00
2.591015e+00
2.660450e+00
2.728590e+00
2.795304e+00
2.860418e+00
2.923713e+00
2.984925e+00
3.043750e+00
3.099878e+00
3.153020e+00
3.202961e+00
3.249592e+00
3.292943e+00
3.333196e+00
3.370676e+00
3.405813e+00
3.439090e+00
3.471001e+00
3.502011e+00
3.532509e+00
3.562772e+00
3.592921e+00
3.622910e+00
3.652517e+00
3.681379e+00
3.709062e+00
3.735129e+00
3.759182e+00
3.780875e+00
3.799936e+00
3.816177e+00
3.829508e+00
3.839916e+00
3.847441e+00
3.852191e+00
3.854427e+00
3.854674e+00
3.853761e+00
3.852661e+00
3.852212e+00
3.852935e+00
3.855048e+00
3.858556e+00
3.863308e+00
3.869018e+00
3.875270e+00
3.881547e+00
3.887301e+00
3.892032e+00
3.895329e+00
3.896852e+00
3.896339e+00
3.893603e+00
3.888534e+00
3.881063e+00
3.871127e+00
3.858670e+00
3.843671e+00
3.826191e+00
3.806404e+00
3.784598e+00
3.761158e+00
3.736547e+00
3.711252e+00
3.685678e+00
3.660028e+00
3.634262e+00
3.608118e+00
3.581151e+00
3.552791e+00
3.522432e+00
3.489549e+00
3.453789e+00
3.415004e+00
3.373232e+00
3.328638e+00
3.281464e+00
3.231973e+00
3.180420e+00
3.127054e+00
3.072126e+00
3.015861e+00
2.958406e+00
2.899775e+00
2.839880e+00
2.778605e+00
2.715900e+00
2.651804e+00
2.586417e+00
2.519860e+00
2.452229e+00
2.383579e+00
2.313918e+00
2.243218e+00
2.171428e+00
2.098477e+00
2.024252e+00
1.948592e+00
1.871300e+00
1.792208e+00
1.711256e+00
1.628533e+00
1.544261e+00
1.458728e+00
1.372238e+00
1.285100e+00
1.197615e+00
1.110025e+00
1.022433e+00
9.347369e-01
8.466282e-01
7.576348e-01
6.672028e-01
5.747882e-01
4.799454e-01
3.823942e-01
2.820380e-01
1.789376e-01
7.326495e-02
-3.474462e-02
-1.448528e-01
-2.568922e-01
-3.708262e-01
-4.867389e-01
-6.047072e-01
-7.246024e-01
-8.459924e-01
-9.682617e-01
-1.090826e+00
-1.213214e+00
-1.334991e+00
-1.455694e+00
-1.574841e+00
-1.691989e+00
-1.806798e+00
-1.919074e+00
-2.028768e+00
-2.135951e+00
-2.240786e+00
-2.343469e+00
-2.444167e+00
-2.542961e+00
-2.639824e+00
-2.734620e+00
-2.827140e+00
-2.917146e+00
-3.004398e+00
-3.088650e+00
-3.169631e+00
-3.247063e+00
-3.320688e+00
-3.390297e+00
-3.455741e+00
-3.516915e+00
-3.573733e+00
-3.626110e+00
-3.673965e+00
-3.717228e+00
-3.755880e+00
-3.789972e+00
-3.819630e+00
-3.845036e+00
-3.866407e+00
-3.883997e+00
-3.898129e+00
-3.909221e+00
-3.917752e+00
-3.924197e+00
-3.928972e+00
-3.932431e+00
-3.934880e+00
-3.936588e+00
-3.937776e+00
-3.938611e+00
-3.939231e+00
-3.939809e+00
-3.940605e+00
-3.941975e+00
-3.944273e+00
-3.947758e+00
-3.952536e+00
-3.958595e+00
-3.965873e+00
-3.974293e+00
-3.983763e+00
-3.994138e+00
-4.005212e+00
-4.016754e+00
-4.028589e+00
-4.040676e+00
-4.053129e+00
-4.066148e+00
-4.079905e+00
-4.094457e+00
-4.109746e+00
-4.125675e+00
-4.142164e+00
-4.159153e+00
-4.176554e+00
-4.194225e+00
-4.211976e+00
-4.229614e+00
-4.246992e+00
-4.264024e+00
-4.280663e+00
-4.296868e+00
-4.312567e+00
-4.327644e+00
-4.341961e+00
-4.355385e+00
-4.367810e+00
-4.379182e+00
-4.389543e+00
-4.399087e+00
-4.408161e+00
-4.417205e+00
-4.426672e+00
-4.436999e+00
-4.448609e+00
-4.461881e+00
-4.477104e+00
-4.494431e+00
-4.513873e+00
-4.535336e+00
-4.558675e+00
-4.583731e+00
-4.610345e+00
-4.638377e+00
-4.667724e+00
-4.698345e+00
-4.730284e+00
-4.763692e+00
-4.798806e+00
-4.835904e+00
-4.875239e+00
-4.916999e+00
-4.961300e+00
-5.008206e+00
-5.057694e+00
-5.109526e+00
-5.163112e+00
-5.217506e+00
-5.271642e+00
-5.324623e+00
-5.375848e+00
-5.424954e+00
-5.471748e+00
-5.516194e+00
-5.558436e+00
-5.598832e+00
-5.637914e+00
-5.676281e+00
-5.714455e+00
-5.752801e+00
-5.791500e+00
-5.830556e+00
-5.869819e+00
-5.909022e+00
-5.947806e+00
-5.985754e+00
-6.022454e+00
-6.057566e+00
-6.090882e+00
-6.122310e+00
-6.151810e+00
-6.179310e+00
-6.204674e+00
-6.227713e+00
-6.248244e+00
-6.266132e+00
-6.281307e+00
-6.293737e+00
-6.303395e+00
-6.310229e+00
-6.314150e+00
-6.315056e+00
-6.312854e+00
-6.307485e+00
-6.298926e+00
-6.287173e+00
-6.272213e+00
-6.253999e+00
-6.232441e+00
-6.207403e+00
-6.178727e+00
-6.146273e+00
-6.109958e+00
-6.069809e+00
-6.025975e+00
-5.978702e+00
-5.928281e+00
-5.874981e+00
-5.818998e+00
-5.760444e+00
-5.699369e+00
-5.635795e+00
-5.569736e+00
-5.501179e+00
-5.430067e+00
-5.356307e+00
-5.279807e+00
-5.200526e+00
-5.118496e+00
-5.033809e+00
-4.946565e+00
-4.856833e+00
-4.764624e+00
-4.669944e+00
-4.572871e+00
-4.473632e+00
-4.372612e+00
-4.270284e+00
-4.167139e+00
-4.063644e+00
-3.960226e+00
-3.857265e+00
-3.755083e+00
-3.653931e+00
-3.553984e+00
-3.455356e+00
-3.358131e+00
-3.262390e+00
-3.168243e+00
-3.075837e+00
-2.985347e+00
-2.896966e+00
-2.810898e+00
-2.727356e+00
-2.646568e+00
-2.568773e+00
-2.494202e+00
-2.423060e+00
-2.355512e+00
-2.291678e+00
-2.231656e+00
-2.175555e+00
-2.123523e+00
-2.075736e+00
-2.032359e+00
-1.993498e+00
-1.959186e+00
-1.929387e+00
-1.904043e+00
-1.883126e+00
-1.866678e+00
-1.854829e+00
-1.847765e+00
-1.845686e+00
-1.848746e+00
-1.857022e+00
-1.870508e+00
-1.889125e+00
-1.912731e+00
-1.941107e+00
-1.973955e+00
-2.010937e+00
-2.051736e+00
-2.096072e+00
-2.143620e+00
-2.193930e+00
-2.246458e+00
-2.300706e+00
-2.356325e+00
-2.413102e+00
-2.470894e+00
-2.529588e+00
-2.589073e+00
-2.649250e+00
-2.710022e+00
-2.771252e+00
-2.832721e+00
-2.894120e+00
-2.955105e+00
-3.015358e+00
-3.074633e+00
-3.132754e+00
-3.189596e+00
-3.245047e+00
-3.298992e+00
-3.351310e+00
-3.401876e+00
-3.450586e+00
-3.497352e+00
-3.542097e+00
-3.584731e+00
-3.625135e+00
-3.663151e+00
-3.698580e+00
-3.731200e+00
-3.760785e+00
-3.787116e+00
-3.810002e+00
-3.829284e+00
-3.844850e+00
-3.856636e+00
-3.864621e+00
-3.868810e+00
-3.869219e+00
-3.865848e+00
-3.858666e+00
-3.847606e+00
-3.832578e+00
-3.813484e+00
-3.790220e+00
-3.762673e+00
-3.730722e+00
-3.694242e+00
-3.653112e+00
-3.607228e+00
-3.556619e+00
-3.501676e+00
-3.443348e+00
-3.382979e+00
-3.321800e+00
-3.260515e+00
-3.199333e+00
-3.138210e+00
-3.077015e+00
-3.015595e+00
-2.953773e+00
-2.891297e+00
-2.827867e+00
-2.763236e+00
-2.697284e+00
-2.630020e+00
-2.561577e+00
-2.492179e+00
-2.422106e+00
-2.351661e+00
-2.281144e+00
-2.210836e+00
-2.140964e+00
-2.071688e+00
-2.003104e+00
-1.935254e+00
-1.868148e+00
-1.801771e+00
-1.736095e+00
-1.671101e+00
-1.606809e+00
-1.543274e+00
-1.480560e+00
-1.418710e+00
-1.357744e+00
-1.297685e+00
-1.238581e+00
-1.180502e+00
-1.123515e+00
-1.067664e+00
-1.012990e+00
-9.595590e-01
-9.074871e-01
-8.569289e-01
-8.080470e-01
-7.609843e-01
-7.158509e-01
-6.727312e-01
-6.317046e-01
-5.928528e-01
-5.562129e-01
-5.216762e-01
-4.889049e-01
-4.573681e-01
-4.265048e-01
-3.959002e-01
-3.653529e-01
-3.348231e-01
-3.043514e-01
-2.740215e-01
-2.439678e-01
-2.143819e-01
-1.854764e-01
-1.574146e-01
-1.302544e-01
-1.039455e-01
-7.837110e-02
-5.341379e-02
-2.902195e-02
-5.263790e-03
1.764841e-02
3.938430e-02
5.957679e-02
7.791979e-02
9.423116e-02
1.084870e-01
1.208740e-01
1.318427e-01
1.420725e-01
1.523190e-01
1.632417e-01
1.753240e-01
1.888812e-01
2.040877e-01
2.209916e-01
2.395313e-01
2.595587e-01
2.808726e-01
3.032548e-01
3.265060e-01
3.504768e-01
3.751046e-01
4.004402e-01
4.266449e-01
4.539620e-01
4.826810e-01
5.131037e-01
5.455113e-01
5.801296e-01
6.171013e-01
6.564736e-01
6.982057e-01
7.421835e-01
7.882327e-01
8.361459e-01
8.857480e-01
9.369802e-01
9.899419e-01
1.044852e+00
1.101962e+00
1.161480e+00
1.223528e+00
1.288070e+00
1.354797e+00
1.423019e+00
1.491775e+00
1.560146e+00
1.627502e+00
1.693490e+00
1.757909e+00
1.820633e+00
1.881602e+00
1.940852e+00
1.998579e+00
2.055194e+00
2.111322e+00
2.167724e+00
2.225113e+00
2.283960e+00
2.344437e+00
2.406507e+00
2.470039e+00
2.534879e+00
2.600846e+00
2.667722e+00
2.735270e+00
2.803296e+00
2.871729e+00
2.940671e+00
3.010363e+00
3.081094e+00
3.153070e+00
3.226296e+00
3.300538e+00
3.375385e+00
3.450396e+00
3.525246e+00
3.599788e+00
3.674016e+00
3.748008e+00
3.821904e+00
3.895898e+00
3.970236e+00
4.045187e+00
4.120984e+00
4.197752e+00
4.275440e+00
4.353788e+00
4.432366e+00
4.510686e+00
4.588318e+00
4.664942e+00
4.740336e+00
4.814338e+00
4.886845e+00
4.957832e+00
5.027375e+00
5.095651e+00
5.162891e+00
5.229307e+00
5.295025e+00
5.360057e+00
5.424331e+00
5.487740e+00
5.550190e+00
5.611607e+00
5.671928e+00
5.731086e+00
5.789011e+00
5.845643e+00
5.900925e+00
5.954802e+00
6.007198e+00
6.057999e+00
6.107040e+00
6.154122e+00
6.199038e+00
6.241624e+00
6.281777e+00
6.319460e+00
6.354692e+00
6.387524e+00
6.418032e+00
6.446306e+00
6.472433e+00
6.496471e+00
6.518411e+00
6.538195e+00
6.555828e+00
6.571582e+00
6.586095e+00
6.600206e+00
6.614612e+00
6.629676e+00
6.645530e+00
6.662240e+00
6.679860e+00
6.698385e+00
6.717697e+00
6.737564e+00
6.757701e+00
6.777870e+00
6.797928e+00
6.817845e+00
6.837709e+00
6.857718e+00
6.878129e+00
6.899220e+00
6.921252e+00
6.944437e+00
6.968892e+00
6.994596e+00
7.021389e+00
7.048991e+00
7.077037e+00
7.105122e+00
7.132858e+00
7.159930e+00
7.186125e+00
7.211343e+00
7.235597e+00
7.258985e+00
7.281629e+00
7.303611e+00
7.324960e+00
7.345640e+00
7.365551e+00
7.384511e+00
7.402258e+00
7.418497e+00
7.432967e+00
7.445504e+00
7.456053e+00
7.464643e+00
7.471353e+00
7.476294e+00
7.479602e+00
7.481419e+00
7.481851e+00
7.480942e+00
7.478665e+00
7.474957e+00
7.469737e+00
7.462945e+00
7.454574e+00
7.444697e+00
7.433483e+00
7.421169e+00
7.408026e+00
7.394320e+00
7.380281e+00
7.366087e+00
7.351860e+00
7.337637e+00
7.323341e+00
7.308756e+00
7.293542e+00
7.277311e+00
7.259731e+00
7.240589e+00
7.219782e+00
7.197256e+00
7.172986e+00
7.146981e+00
7.119301e+00
7.090048e+00
7.059324e+00
7.027190e+00
6.993650e+00
6.958658e+00
6.922125e+00
6.883925e+00
6.843909e+00
6.801924e+00
6.757834e+00
6.711518e+00
6.662877e+00
6.611839e+00
6.558372e+00
6.502490e+00
6.444250e+00
6.383778e+00
6.321320e+00
6.257254e+00
6.192013e+00
6.125936e+00
6.059201e+00
5.991860e+00
5.923909e+00
5.855343e+00
5.786194e+00
5.716548e+00
5.646546e+00
5.576389e+00
5.506316e+00
5.436580e+00
5.367433e+00
5.299127e+00
5.231900e+00
5.165953e+00
5.101437e+00
5.038447e+00
4.977029e+00
4.917177e+00
4.858842e+00
4.801934e+00
4.746344e+00
4.691951e+00
4.638613e+00
4.586135e+00
4.534223e+00
4.482485e+00
4.430484e+00
4.377838e+00
4.324296e+00
4.269737e+00
4.214137e+00
4.157523e+00
4.099961e+00
4.041561e+00
3.982486e+00
3.922947e+00
3.863168e+00
3.803347e+00
3.743632e+00
3.684123e+00
3.624881e+00
3.565939e+00
3.507303e+00
3.448943e+00
3.390768e+00
3.332605e+00
3.274198e+00
3.215246e+00
3.155465e+00
3.094640e+00
3.032628e+00
2.969341e+00
2.904718e+00
2.838712e+00
2.771282e+00
2.702392e+00
2.632009e+00
2.560090e+00
2.486576e+00
2.411388e+00
2.334436e+00
2.255638e+00
2.174934e+00
2.092305e+00
2.007764e+00
1.921364e+00
1.833184e+00
1.743326e+00
1.651895e+00
1.558993e+00
1.464727e+00
1.369234e+00
1.272700e+00
1.175370e+00
1.077533e+00
9.794976e-01
8.815726e-01
7.840541e-01
6.872208e-01
5.913255e-01
4.965797e-01
4.031415e-01
3.111181e-01
2.205829e-01
1.315994e-01
4.424286e-02
-4.139161e-02
-1.251943e-01
-2.070503e-01
-2.868435e-01
-3.644573e-01
-4.397728e-01
-5.126692e-01
-5.830259e-01
-6.507276e-01
-7.156731e-01
-7.777878e-01
-8.370349e-01
-8.934232e-01
-9.470080e-01
-9.978834e-01
-1.046169e+00
-1.091992e+00
-1.135468e+00
-1.176689e+00
-1.215713e+00
-1.252569e+00
-1.287261e+00
-1.319784e+00
-1.350137e+00
-1.378347e+00
-1.404488e+00
-1.428692e+00
-1.451137e+00
-1.472034e+00
-1.491603e+00
-1.510055e+00
-1.527581e+00
-1.544337e+00
-1.560435e+00
-1.575933e+00
-1.590841e+00
-1.605129e+00
-1.618746e+00
-1.631640e+00
-1.643778e+00
-1.655151e+00
-1.665776e+00
-1.675699e+00
-1.684982e+00
-1.693709e+00
-1.701982e+00
-1.709929e+00
-1.717701e+00
-1.725488e+00
-1.733511e+00
-1.742013e+00
-1.751243e+00
-1.761428e+00
-1.772761e+00
-1.785392e+00
-1.799426e+00
-1.814928e+00
-1.831931e+00
-1.850435e+00
-1.870414e+00
-1.891789e+00
-1.914399e+00
-1.937952e+00
-1.962029e+00
-1.986146e+00
-2.009858e+00
-2.032833e+00
-2.054865e+00
-2.075837e+00
-2.095690e+00
-2.114407e+00
-2.132008e+00
-2.148535e+00
-2.164036e+00
-2.178533e+00
-2.192005e+00
-2.204385e+00
-2.215565e+00
-2.225412e+00
-2.233792e+00
-2.240603e+00
-2.245814e+00
-2.249521e+00
-2.251982e+00
-2.253592e+00
-2.254792e+00
-2.255962e+00
-2.257376e+00
-2.259212e+00
-2.261583e+00
-2.264533e+00
-2.268039e+00
-2.272012e+00
-2.276333e+00
-2.280906e+00
-2.285689e+00
-2.290711e+00
-2.296061e+00
-2.301874e+00
-2.308311e+00
-2.315544e+00
-2.323746e+00
-2.333079e+00
-2.343691e+00
-2.355695e+00
-2.369162e+00
-2.384118e+00
-2.400553e+00
-2.418437e+00
-2.437745e+00
-2.458439e+00
-2.480393e+00
-2.503277e+00
-2.526511e+00
-2.549400e+00
-2.571357e+00
-2.592018e+00
-2.611187e+00
-2.628733e+00
-2.644560e+00
-2.658641e+00
-2.671037e+00
-2.681883e+00
-2.691317e+00
-2.699422e+00
-2.706195e+00
-2.711555e+00
-2.715358e+00
-2.717417e+00
-2.717535e+00
-2.715520e+00
-2.711196e+00
-2.704416e+00
-2.695111e+00
-2.683364e+00
-2.669485e+00
-2.654011e+00
-2.637607e+00
-2.620892e+00
-2.604330e+00
-2.588224e+00
-2.572761e+00
-2.558043e+00
-2.544084e+00
-2.530816e+00
-2.518099e+00
-2.505742e+00
-2.493541e+00
-2.481302e+00
-2.468866e+00
-2.456127e+00
-2.443039e+00
-2.429608e+00
-2.415853e+00
-2.401780e+00
-2.387359e+00
-2.372530e+00
-2.357240e+00
-2.341470e+00
-2.325245e+00
-2.308610e+00
-2.291609e+00
-2.274269e+00
-2.256603e+00
-2.238604e+00
-2.220233e+00
-2.201409e+00
-2.182017e+00
-2.161923e+00
-2.141009e+00
-2.119187e+00
-2.096406e+00
-2.072646e+00
-2.047927e+00
-2.022311e+00
-1.995898e+00
-1.968817e+00
-1.941210e+00
-1.913224e+00
-1.884995e+00
-1.856642e+00
-1.828263e+00
-1.799922e+00
-1.771651e+00
-1.743439e+00
-1.715248e+00
-1.687027e+00
-1.658742e+00
-1.630381e+00
-1.601967e+00
-1.573536e+00
-1.545129e+00
-1.516776e+00
-1.488487e+00
-1.460249e+00
-1.432027e+00
-1.403773e+00
-1.375435e+00
-1.346969e+00
-1.318358e+00
-1.289622e+00
-1.260818e+00
-1.232034e+00
-1.203374e+00
-1.174947e+00
-1.146864e+00
-1.119233e+00
-1.092163e+00
-1.065768e+00
-1.040163e+00
-1.015464e+00
-9.917801e-01
-9.692029e-01
-9.478077e-01
-9.276537e-01
-9.087899e-01
-8.912594e-01
-8.750915e-01
-8.602688e-01
-8.466728e-01
-8.340445e-01
-8.220098e-01
-8.101756e-01
-7.982306e-01
-7.859833e-01
-7.733380e-01
-7.602641e-01
-7.467958e-01
-7.330478e-01
-7.192115e-01
-7.055121e-01
-6.921462e-01
-6.792313e-01
-6.667881e-01
-6.547502e-01
-6.429922e-01
-6.313638e-01
-6.197209e-01
-6.079476e-01
-5.959700e-01
-5.837633e-01
-5.713541e-01
-5.588182e-01
-5.462734e-01
-5.338670e-01
-5.217604e-01
-5.101126e-01
-4.990644e-01
-4.887231e-01
-4.791506e-01
-4.703598e-01
-4.623240e-01
-4.549957e-01
-4.483275e-01
-4.422862e-01
-4.368577e-01
-4.320430e-01
-4.278463e-01
-4.242615e-01
