EVENT_NAME: EMILIA_2ND_SHOCK
EVENT_ID: IT-2012-0011
EVENT_DATE_YYYYMMDD: 20120529
EVENT_TIME_HHMMSS: 070002
EVENT_LATITUDE_DEGREE: 44.8417
EVENT_LONGITUDE_DEGREE: 11.0657
EVENT_DEPTH_KM: 8.1
HYPOCENTER_REFERENCE: INGV-CNT_Seismic_Bulletin
MAGNITUDE_W: 6.0
MAGNITUDE_W_REFERENCE: RCMT-INGV
MAGNITUDE_L: 5.8
MAGNITUDE_L_REFERENCE: INGV-CNT_Seismic_Bulletin
FOCAL_MECHANISM: TF
NETWORK: TV
STATION_CODE: MIR08
STATION_NAME: QUARANTOLI 2
STATION_LATITUDE_DEGREE: 44.916900
STATION_LONGITUDE_DEGREE: 11.089500
STATION_ELEVATION_M: 
LOCATION: 
SENSOR_DEPTH_M: 
VS30_M/S: 
SITE_CLASSIFICATION_EC8: C*
MORPHOLOGIC_CLASSIFICATION: 
EPICENTRAL_DISTANCE_KM: 8.6
EARTHQUAKE_BACKAZIMUTH_DEGREE: 192.7
DATE_TIME_FIRST_SAMPLE_YYYYMMDD_HHMMSS: 20120529_065929.000
DATE_TIME_FIRST_SAMPLE_PRECISION: milliseconds
SAMPLING_INTERVAL_S: 0.005000
NDATA: 34001
DURATION_S: 170.005
STREAM: HNZ
UNITS: cm
INSTRUMENT: sensor = Episensor FBA ES-T [Kinemetrics] | digitizer = Unknown [Unknown]
INSTRUMENT_ANALOG/DIGITAL: D
INSTRUMENTAL_FREQUENCY_HZ: 
INSTRUMENTAL_DAMPING: 
FULL_SCALE_G: 
N_BIT_DIGITAL_CONVERTER: 
PGD_CM: 4.224861
TIME_PGD_S: 41.520000
BASELINE_CORRECTION: BASELINE REMOVED
FILTER_TYPE: BUTTERWORTH
FILTER_ORDER: 2
LOW_CUT_FREQUENCY_HZ: 0.050
HIGH_CUT_FREQUENCY_HZ: 40.000
LATE/NORMAL_TRIGGERED: NT
DATABASE_VERSION: DYNA 1.0
HEADER_FORMAT: DYNA 1.2
DATA_TYPE: DISPLACEMENT
PROCESSING: manual (Paolucci et al., 2011)
DATA_TIMESTAMP_YYYYMMDD_HHMMSS: 
DATA_LICENSE: CC-BY4_0 (http://creativecommons.org/licenses/by/4.0/)
DATA_CITATION: ESM working group (2015), European Strong-Motion database, version 0.1, Network Activity 3: Networking acceleration networks and SM data users. Project NERA (www.nera-eu.org)
DATA_CREATOR: ESM working group
ORIGINAL_DATA_MEDIATOR_CITATION: Orfeus - European Integrated Data Archive (EIDA) http://www.orfeus-eu.org/eida/
ORIGINAL_DATA_MEDIATOR: Orfeus - European Integrated Data Archive (EIDA)
ORIGINAL_DATA_CREATOR_CITATION: 
ORIGINAL_DATA_CREATOR: network: TV (INGV Experiments Network); owner: Istituto Nazionale di Geofisica e Vulcanologia
USER1: 
USER2: 
USER3: 
USER4: 
USER5: 
[...]
-5.553375e-01
-5.542832e-01
-5.533001e-01
-5.524252e-01
-5.517333e-01
-5.513008e-01
-5.511683e-01
-5.513321e-01
-5.517693e-01
-5.524742e-01
-5.534787e-01
-5.548429e-01
-5.566229e-01
-5.588436e-01
-5.614954e-01
-5.645425e-01
-5.679205e-01
-5.715308e-01
-5.752528e-01
-5.789810e-01
-5.826579e-01
-5.862846e-01
-5.899208e-01
-5.936821e-01
-5.977169e-01
-6.021306e-01
-6.068804e-01
-6.117450e-01
-6.164391e-01
-6.207958e-01
-6.248473e-01
-6.287224e-01
-6.324618e-01
-6.359372e-01
-6.389520e-01
-6.414038e-01
-6.433492e-01
-6.449482e-01
-6.463490e-01
-6.475866e-01
-6.485805e-01
-6.492502e-01
-6.496043e-01
-6.496639e-01
-6.493052e-01
-6.482467e-01
-6.462209e-01
-6.431440e-01
-6.391634e-01
-6.346292e-01
-6.300107e-01
-6.257533e-01
-6.221582e-01
-6.193527e-01
-6.173165e-01
-6.159537e-01
-6.152161e-01
-6.151651e-01
-6.158790e-01
-6.173048e-01
-6.191784e-01
-6.210518e-01
-6.224313e-01
-6.229710e-01
-6.225799e-01
-6.214044e-01
-6.197633e-01
-6.180616e-01
-6.166498e-01
-6.156850e-01
-6.151174e-01
-6.148325e-01
-6.148304e-01
-6.152994e-01
-6.165461e-01
-6.188314e-01
-6.221924e-01
-6.263575e-01
-6.308220e-01
-6.350485e-01
-6.386747e-01
-6.416008e-01
-6.438860e-01
-6.455287e-01
-6.463271e-01
-6.459463e-01
-6.441346e-01
-6.409473e-01
-6.368681e-01
-6.327213e-01
-6.293638e-01
-6.273463e-01
-6.267562e-01
-6.272735e-01
-6.284037e-01
-6.298157e-01
-6.315606e-01
-6.339483e-01
-6.371777e-01
-6.410265e-01
-6.448296e-01
-6.477785e-01
-6.493644e-01
-6.496435e-01
-6.491434e-01
-6.485514e-01
-6.484157e-01
-6.489150e-01
-6.497412e-01
-6.502803e-01
-6.501094e-01
-6.494152e-01
-6.489627e-01
-6.496810e-01
-6.521671e-01
-6.563566e-01
-6.615613e-01
-6.669133e-01
-6.719227e-01
-6.767000e-01
-6.816666e-01
-6.870249e-01
-6.924471e-01
-6.972106e-01
-7.006266e-01
-7.024173e-01
-7.028109e-01
-7.023705e-01
-7.017251e-01
-7.013437e-01
-7.014180e-01
-7.018581e-01
-7.023441e-01
-7.024156e-01
-7.016580e-01
-6.999602e-01
-6.976346e-01
-6.952187e-01
-6.930798e-01
-6.912010e-01
-6.893469e-01
-6.873591e-01
-6.852398e-01
-6.830476e-01
-6.808450e-01
-6.787637e-01
-6.770388e-01
-6.759044e-01
-6.754227e-01
-6.754330e-01
-6.757019e-01
-6.761249e-01
-6.767617e-01
-6.776971e-01
-6.789391e-01
-6.804856e-01
-6.824392e-01
-6.850099e-01
-6.884750e-01
-6.932113e-01
-6.996986e-01
-7.083362e-01
-7.191513e-01
-7.316420e-01
-7.448778e-01
-7.577452e-01
-7.691829e-01
-7.784020e-01
-7.851173e-01
-7.896216e-01
-7.925259e-01
-7.943347e-01
-7.952667e-01
-7.954310e-01
-7.950089e-01
-7.941727e-01
-7.929596e-01
-7.913841e-01
-7.896358e-01
-7.880563e-01
-7.869233e-01
-7.862898e-01
-7.860132e-01
-7.859393e-01
-7.860867e-01
-7.866293e-01
-7.875986e-01
-7.885272e-01
-7.884171e-01
-7.861672e-01
-7.811529e-01
-7.735222e-01
-7.640838e-01
-7.540221e-01
-7.446495e-01
-7.371573e-01
-7.322800e-01
-7.299875e-01
-7.294230e-01
-7.291802e-01
-7.278330e-01
-7.244954e-01
-7.191490e-01
-7.125783e-01
-7.059349e-01
-7.001697e-01
-6.957280e-01
-6.927103e-01
-6.912163e-01
-6.914263e-01
-6.933745e-01
-6.967590e-01
-7.010153e-01
-7.055097e-01
-7.095982e-01
-7.125680e-01
-7.137401e-01
-7.128445e-01
-7.103038e-01
-7.070197e-01
-7.038108e-01
-7.009946e-01
-6.983469e-01
-6.953378e-01
-6.914713e-01
-6.865592e-01
-6.808114e-01
-6.747305e-01
-6.688623e-01
-6.635138e-01
-6.586494e-01
-6.541056e-01
-6.499623e-01
-6.466961e-01
-6.449189e-01
-6.449139e-01
-6.463553e-01
-6.483972e-01
-6.501116e-01
-6.510948e-01
-6.518025e-01
-6.532352e-01
-6.561993e-01
-6.607738e-01
-6.663247e-01
-6.719257e-01
-6.768101e-01
-6.805855e-01
-6.832239e-01
-6.849744e-01
-6.862436e-01
-6.874397e-01
-6.888231e-01
-6.904021e-01
-6.919545e-01
-6.932673e-01
-6.944082e-01
-6.956855e-01
-6.973471e-01
-6.994183e-01
-7.018308e-01
-7.046192e-01
-7.079378e-01
-7.118672e-01
-7.162225e-01
-7.206101e-01
-7.247125e-01
-7.285417e-01
-7.324779e-01
-7.371370e-01
-7.431219e-01
-7.506469e-01
-7.592595e-01
-7.680355e-01
-7.761577e-01
-7.833401e-01
-7.897844e-01
-7.958156e-01
-8.015099e-01
-8.065549e-01
-8.104158e-01
-8.126781e-01
-8.133292e-01
-8.127878e-01
-8.116336e-01
-8.101738e-01
-8.081984e-01
-8.052213e-01
-8.010231e-01
-7.959647e-01
-7.908218e-01
-7.863597e-01
-7.829803e-01
-7.806158e-01
-7.788721e-01
-7.773090e-01
-7.756961e-01
-7.741189e-01
-7.728307e-01
-7.719107e-01
-7.710591e-01
-7.697874e-01
-7.678029e-01
-7.651678e-01
-7.621660e-01
-7.591571e-01
-7.565183e-01
-7.544922e-01
-7.528931e-01
-7.509165e-01
-7.473736e-01
-7.413426e-01
-7.327167e-01
-7.221869e-01
-7.108255e-01
-6.996402e-01
-6.892025e-01
-6.795050e-01
-6.702771e-01
-6.615246e-01
-6.537175e-01
-6.474309e-01
-6.427955e-01
-6.392090e-01
-6.355131e-01
-6.305536e-01
-6.238303e-01
-6.158560e-01
-6.079927e-01
-6.018562e-01
-5.986739e-01
-5.989284e-01
-6.023700e-01
-6.083389e-01
-6.161740e-01
-6.252918e-01
-6.348710e-01
-6.437344e-01
-6.508197e-01
-6.557011e-01
-6.585262e-01
-6.596054e-01
-6.592475e-01
-6.578771e-01
-6.560688e-01
-6.543247e-01
-6.528147e-01
-6.513884e-01
-6.497898e-01
-6.477582e-01
-6.450248e-01
-6.414198e-01
-6.370217e-01
-6.321640e-01
-6.273263e-01
-6.230709e-01
-6.201562e-01
-6.196438e-01
-6.224809e-01
-6.285580e-01
-6.361711e-01
-6.425521e-01
-6.449463e-01
-6.413867e-01
-6.309617e-01
-6.139159e-01
-5.917292e-01
-5.667646e-01
-5.412893e-01
-5.167211e-01
-4.939330e-01
-4.739203e-01
-4.576103e-01
-4.451477e-01
-4.359908e-01
-4.298852e-01
-4.273391e-01
-4.289254e-01
-4.343961e-01
-4.426836e-01
-4.525625e-01
-4.632171e-01
-4.745092e-01
-4.870520e-01
-5.020390e-01
-5.207013e-01
-5.435047e-01
-5.696128e-01
-5.970766e-01
-6.235145e-01
-6.467519e-01
-6.653554e-01
-6.791828e-01
-6.895477e-01
-6.984659e-01
-7.073529e-01
-7.162831e-01
-7.243821e-01
-7.309030e-01
-7.361011e-01
-7.411655e-01
-7.472754e-01
-7.547940e-01
-7.632577e-01
-7.717111e-01
-7.789020e-01
-7.834346e-01
-7.840748e-01
-7.802786e-01
-7.727401e-01
-7.633380e-01
-7.541341e-01
-7.461393e-01
-7.390289e-01
-7.320510e-01
-7.252392e-01
-7.200204e-01
-7.189055e-01
-7.243809e-01
-7.375232e-01
-7.571995e-01
-7.804907e-01
-8.041535e-01
-8.261015e-01
-8.458560e-01
-8.639354e-01
-8.809236e-01
-8.966599e-01
-9.098014e-01
-9.182537e-01
-9.204494e-01
-9.165805e-01
-9.088610e-01
-9.006503e-01
-8.950309e-01
-8.936240e-01
-8.960312e-01
-9.000050e-01
-9.024734e-01
-9.010485e-01
-8.948735e-01
-8.842115e-01
-8.697130e-01
-8.523665e-01
-8.338038e-01
-8.162598e-01
-8.021647e-01
-7.935643e-01
-7.914344e-01
-7.951593e-01
-8.026744e-01
-8.114237e-01
-8.194830e-01
-8.259997e-01
-8.308176e-01
-8.337189e-01
-8.338867e-01
-8.302362e-01
-8.224797e-01
-8.117666e-01
-8.003526e-01
-7.909245e-01
-7.858648e-01
-7.863031e-01
-7.915901e-01
-7.999483e-01
-8.096769e-01
-8.196884e-01
-8.293033e-01
-8.380651e-01
-8.457552e-01
-8.522701e-01
-8.574683e-01
-8.613413e-01
-8.643019e-01
-8.670840e-01
-8.702809e-01
-8.740752e-01
-8.785170e-01
-8.840599e-01
-8.917029e-01
-9.024495e-01
-9.165090e-01
-9.329510e-01
-9.501328e-01
-9.665434e-01
-9.813184e-01
-9.940634e-01
-1.004462e+00
-1.012286e+00
-1.017677e+00
-1.021219e+00
-1.023818e+00
-1.026617e+00
-1.030655e+00
-1.036127e+00
-1.042058e+00
-1.047028e+00
-1.050216e+00
-1.051497e+00
-1.050573e+00
-1.046351e+00
-1.037442e+00
-1.023367e+00
-1.005270e+00
-9.854037e-01
-9.659991e-01
-9.487520e-01
-9.349256e-01
-9.251527e-01
-9.190349e-01
-9.154080e-01
-9.130694e-01
-9.110401e-01
-9.084216e-01
-9.045516e-01
-8.993517e-01
-8.931954e-01
-8.863257e-01
-8.785623e-01
-8.696080e-01
-8.593875e-01
-8.478084e-01
-8.342172e-01
-8.173835e-01
-7.962391e-01
-7.706862e-01
-7.417830e-01
-7.112284e-01
-6.804555e-01
-6.498764e-01
-6.188088e-01
-5.860356e-01
-5.505788e-01
-5.125202e-01
-4.735964e-01
-4.368954e-01
-4.054702e-01
-3.807651e-01
-3.620145e-01
-3.469798e-01
-3.333488e-01
-3.196459e-01
-3.051188e-01
-2.893155e-01
-2.721903e-01
-2.543159e-01
-2.364020e-01
-2.185852e-01
-2.005379e-01
-1.822829e-01
-1.645796e-01
-1.483780e-01
-1.340423e-01
-1.212092e-01
-1.093412e-01
-9.837116e-02
-8.882710e-02
-8.131311e-02
-7.584651e-02
-7.177358e-02
-6.848370e-02
-6.632162e-02
-6.682041e-02
-7.201216e-02
-8.341038e-02
-1.013045e-01
-1.245780e-01
-1.511977e-01
-1.792980e-01
-2.080422e-01
-2.374206e-01
-2.672183e-01
-2.962151e-01
-3.224106e-01
-3.440999e-01
-3.608256e-01
-3.733632e-01
-3.827917e-01
-3.894834e-01
-3.928699e-01
-3.920866e-01
-3.868665e-01
-3.780732e-01
-3.676403e-01
-3.579077e-01
-3.506311e-01
-3.462190e-01
-3.437068e-01
-3.415536e-01
-3.386608e-01
-3.348206e-01
-3.304985e-01
-3.263549e-01
-3.226972e-01
-3.190320e-01
-3.141287e-01
-3.067977e-01
-2.969486e-01
-2.861040e-01
-2.769291e-01
-2.721517e-01
-2.735190e-01
-2.810840e-01
-2.929492e-01
-3.058152e-01
-3.164506e-01
-3.231630e-01
-3.259854e-01
-3.256224e-01
-3.224662e-01
-3.164531e-01
-3.073675e-01
-2.951249e-01
-2.801180e-01
-2.636886e-01
-2.482982e-01
-2.369442e-01
-2.320123e-01
-2.343067e-01
-2.427935e-01
-2.550214e-01
-2.679432e-01
-2.788257e-01
-2.859347e-01
-2.888844e-01
-2.886129e-01
-2.868467e-01
-2.851558e-01
-2.841472e-01
-2.833536e-01
-2.818612e-01
-2.791347e-01
-2.753619e-01
-2.711032e-01
-2.666457e-01
-2.616383e-01
-2.552222e-01
-2.464773e-01
-2.349423e-01
-2.209829e-01
-2.057764e-01
-1.908983e-01
-1.777834e-01
-1.672983e-01
-1.595289e-01
-1.538814e-01
-1.494348e-01
-1.452143e-01
-1.402084e-01
-1.333891e-01
-1.240111e-01
-1.120028e-01
-9.800226e-02
-8.296910e-02
-6.776093e-02
-5.297483e-02
-3.895226e-02
-2.571355e-02
-1.279765e-02
7.791113e-04
1.623917e-02
3.452018e-02
5.586746e-02
7.982763e-02
1.055935e-01
1.323424e-01
1.592343e-01
1.851999e-01
2.090010e-01
2.297033e-01
2.471452e-01
2.619838e-01
2.753145e-01
2.881831e-01
3.013278e-01
3.151989e-01
3.300589e-01
3.460532e-01
3.632577e-01
3.815887e-01
4.005091e-01
4.188568e-01
4.351717e-01
4.484088e-01
4.585215e-01
4.664593e-01
4.735532e-01
4.807762e-01
4.884571e-01
4.965072e-01
5.047932e-01
5.133692e-01
5.224718e-01
5.322897e-01
5.427092e-01
5.532837e-01
5.634432e-01
5.727408e-01
5.809158e-01
5.877081e-01
5.926237e-01
5.949930e-01
5.944587e-01
5.916062e-01
5.881361e-01
5.861946e-01
5.871846e-01
5.909049e-01
5.956813e-01
5.994534e-01
6.010482e-01
6.007144e-01
5.997053e-01
5.994679e-01
6.010571e-01
6.050370e-01
6.117483e-01
6.215528e-01
6.347133e-01
6.509424e-01
6.690912e-01
6.874720e-01
7.046793e-01
7.201997e-01
7.343858e-01
7.480359e-01
7.619667e-01
7.767347e-01
7.925588e-01
8.094508e-01
8.274500e-01
8.468084e-01
8.679640e-01
8.912470e-01
9.165213e-01
9.430700e-01
9.698243e-01
9.957967e-01
1.020442e+00
1.043702e+00
1.065760e+00
1.086823e+00
1.107073e+00
1.126694e+00
1.145871e+00
1.164816e+00
1.183815e+00
1.203180e+00
1.223102e+00
1.243528e+00
1.264166e+00
1.284632e+00
1.304660e+00
1.324285e+00
1.343966e+00
1.364621e+00
1.387377e+00
1.412994e+00
1.441346e+00
1.471359e+00
1.501483e+00
1.530409e+00
1.557667e+00
1.583694e+00
1.609323e+00
1.635132e+00
1.661189e+00
1.687279e+00
1.713268e+00
1.739190e+00
1.765111e+00
1.791109e+00
1.817419e+00
1.844376e+00
1.872041e+00
1.899972e+00
1.927471e+00
1.953978e+00
1.979230e+00
2.003321e+00
2.026840e+00
2.050845e+00
2.076451e+00
2.104275e+00
2.134133e+00
2.165086e+00
2.195711e+00
2.224495e+00
2.250365e+00
2.273102e+00
2.293282e+00
2.311797e+00
2.329436e+00
2.346724e+00
2.363907e+00
2.381000e+00
2.397975e+00
2.414984e+00
2.432442e+00
2.450884e+00
2.470659e+00
2.491664e+00
2.513353e+00
2.535075e+00
2.556404e+00
2.577127e+00
2.597010e+00
2.615733e+00
2.633032e+00
2.648823e+00
2.663260e+00
2.676892e+00
2.690693e+00
2.705649e+00
2.722121e+00
2.739759e+00
2.758172e+00
2.777630e+00
2.798957e+00
2.822782e+00
2.849007e+00
2.876842e+00
2.905087e+00
2.932316e+00
2.957032e+00
2.977982e+00
2.994620e+00
3.007452e+00
3.018006e+00
3.028421e+00
3.040848e+00
3.056873e+00
3.077115e+00
3.101174e+00
3.127947e+00
3.156065e+00
3.184232e+00
3.211468e+00
3.237247e+00
3.261486e+00
3.284484e+00
3.307008e+00
3.330253e+00
3.355398e+00
3.382997e+00
3.412694e+00
3.443333e+00
3.473285e+00
3.500905e+00
3.525051e+00
3.545438e+00
3.562534e+00
3.577025e+00
3.589238e+00
3.599009e+00
3.606186e+00
3.611274e+00
3.615581e+00
3.620661e+00
3.627574e+00
3.636491e+00
3.646771e+00
3.657382e+00
3.667448e+00
3.676743e+00
3.685835e+00
3.695637e+00
3.706560e+00
3.718107e+00
3.729364e+00
3.739837e+00
3.749733e+00
3.759578e+00
3.769765e+00
3.780477e+00
3.791863e+00
3.804120e+00
3.817375e+00
3.831573e+00
3.846568e+00
3.862310e+00
3.878895e+00
3.896401e+00
3.914707e+00
3.933477e+00
3.952305e+00
3.970828e+00
3.988715e+00
4.005688e+00
4.021644e+00
4.036785e+00
4.051582e+00
4.066526e+00
4.081827e+00
4.097326e+00
4.112669e+00
4.127536e+00
4.141705e+00
4.154962e+00
4.167037e+00
4.177689e+00
4.186823e+00
4.194489e+00
4.200827e+00
4.206053e+00
4.210504e+00
4.214549e+00
4.218336e+00
4.221601e+00
4.223859e+00
4.224861e+00
4.224816e+00
4.224129e+00
4.222960e+00
4.221024e+00
4.217744e+00
4.212589e+00
4.205360e+00
4.196285e+00
4.185961e+00
4.175217e+00
4.164897e+00
4.155568e+00
4.147416e+00
4.140460e+00
4.134792e+00
4.130562e+00
4.127792e+00
4.126277e+00
4.125591e+00
4.125123e+00
4.124210e+00
4.122435e+00
4.119907e+00
4.117280e+00
4.115393e+00
4.114733e+00
4.115104e+00
4.115706e+00
4.115501e+00
4.113558e+00
4.109244e+00
4.102349e+00
4.093135e+00
4.082214e+00
4.070258e+00
4.057745e+00
4.044847e+00
4.031448e+00
4.017287e+00
4.002201e+00
3.986236e+00
3.969510e+00
3.952047e+00
3.933786e+00
3.914710e+00
3.894925e+00
3.874682e+00
3.854366e+00
3.834456e+00
3.815398e+00
3.797463e+00
3.780700e+00
3.765031e+00
3.750348e+00
3.736545e+00
3.723515e+00
3.711092e+00
3.698967e+00
3.686644e+00
3.673493e+00
3.658902e+00
3.642482e+00
3.624258e+00
3.604657e+00
3.584189e+00
3.563110e+00
3.541379e+00
3.518893e+00
3.495680e+00
3.471943e+00
3.448067e+00
3.424579e+00
3.401998e+00
3.380691e+00
3.360868e+00
3.342683e+00
3.326273e+00
3.311746e+00
3.299208e+00
3.288796e+00
3.280633e+00
3.274712e+00
3.270772e+00
3.268167e+00
3.265827e+00
3.262513e+00
3.257266e+00
3.249711e+00
3.240030e+00
3.228741e+00
3.216489e+00
3.203893e+00
3.191430e+00
3.179355e+00
3.167734e+00
3.156533e+00
3.145693e+00
3.135180e+00
3.125022e+00
3.115249e+00
3.105802e+00
3.096490e+00
3.086970e+00
3.076701e+00
3.065056e+00
3.051650e+00
3.036679e+00
3.021009e+00
3.005954e+00
2.992832e+00
2.982496e+00
2.975033e+00
2.969724e+00
2.965260e+00
2.960141e+00
2.953132e+00
2.943636e+00
2.931828e+00
2.918420e+00
2.904157e+00
2.889358e+00
2.873827e+00
2.857125e+00
2.838936e+00
2.819358e+00
2.798945e+00
2.778445e+00
2.758325e+00
2.738476e+00
2.718375e+00
2.697454e+00
2.675311e+00
2.651748e+00
2.626844e+00
2.601016e+00
2.574856e+00
2.548837e+00
2.523183e+00
2.497951e+00
2.473132e+00
2.448709e+00
2.424669e+00
2.400952e+00
2.377364e+00
2.353530e+00
2.328914e+00
2.302885e+00
2.274882e+00
2.244670e+00
2.212552e+00
2.179299e+00
2.145759e+00
2.112397e+00
2.079125e+00
2.045498e+00
2.011066e+00
1.975530e+00
1.938740e+00
1.900745e+00
1.861879e+00
1.822686e+00
1.783677e+00
1.745168e+00
1.707338e+00
1.670360e+00
1.634408e+00
1.599559e+00
1.565737e+00
1.532648e+00
1.499735e+00
1.466312e+00
1.431950e+00
1.396816e+00
1.361669e+00
1.327533e+00
1.295281e+00
1.265315e+00
1.237377e+00
1.210627e+00
1.184050e+00
1.156912e+00
1.128927e+00
1.100138e+00
1.070746e+00
1.040972e+00
1.010927e+00
9.805841e-01
9.499020e-01
9.190100e-01
8.882739e-01
8.581666e-01
8.290672e-01
8.011862e-01
7.746381e-01
7.494779e-01
7.256021e-01
7.026818e-01
6.803080e-01
6.582527e-01
6.365888e-01
6.155910e-01
5.955151e-01
5.763201e-01
5.574464e-01
5.379177e-01
5.168572e-01
4.940787e-01
4.702636e-01
4.465994e-01
4.241953e-01
4.036399e-01
3.848321e-01
3.670843e-01
3.494953e-01
3.314690e-01
3.130473e-01
2.947826e-01
2.772644e-01
2.607121e-01
2.449593e-01
2.298055e-01
2.153637e-01
2.020367e-01
1.901765e-01
1.797832e-01
1.704253e-01
1.613233e-01
1.515443e-01
1.402588e-01
1.269378e-01
1.114165e-01
9.385256e-02
7.465692e-02
5.446094e-02
3.407546e-02
1.431496e-02
-4.307508e-03
-2.178436e-02
-3.850616e-02
-5.490265e-02
-7.110043e-02
-8.684122e-02
-1.017074e-01
-1.154828e-01
-1.283949e-01
-1.410813e-01
-1.543162e-01
-1.686732e-01
-1.842920e-01
-2.008356e-01
-2.177031e-01
-2.344492e-01
-2.511168e-01
-2.681428e-01
-2.858820e-01
-3.042031e-01
-3.225539e-01
-3.403878e-01
-3.574803e-01
-3.738756e-01
-3.896398e-01
-4.046905e-01
-4.187657e-01
-4.314626e-01
-4.423201e-01
-4.509945e-01
-4.575108e-01
-4.623776e-01
-4.663673e-01
-4.701119e-01
-4.739144e-01
-4.778929e-01
-4.821488e-01
-4.867205e-01
-4.914656e-01
-4.960771e-01
-5.002237e-01
-5.037027e-01
-5.065242e-01
-5.089214e-01
-5.113235e-01
-5.142983e-01
-5.184189e-01
-5.240454e-01
-5.311357e-01
-5.392541e-01
-5.478331e-01
-5.565055e-01
-5.652202e-01
-5.740687e-01
-5.830490e-01
-5.919391e-01
-6.002978e-01
-6.076895e-01
-6.140865e-01
-6.200152e-01
-6.261801e-01
-6.329283e-01
-6.400758e-01
-6.471636e-01
-6.538274e-01
-6.599903e-01
-6.658042e-01
-6.714684e-01
-6.771369e-01
-6.829529e-01
-6.890197e-01
-6.952325e-01
-7.012073e-01
-7.065273e-01
-7.111160e-01
-7.153160e-01
-7.195854e-01
-7.241758e-01
-7.290703e-01
-7.340560e-01
-7.387882e-01
-7.429259e-01
-7.463564e-01
-7.493024e-01
-7.521684e-01
-7.552726e-01
-7.587176e-01
-7.624736e-01
-7.665192e-01
-7.708996e-01
-7.757270e-01
-7.811609e-01
-7.873156e-01
-7.941131e-01
-8.012277e-01
-8.081832e-01
-8.144825e-01
-8.196542e-01
-8.232829e-01
-8.251651e-01
-8.254962e-01
-8.248175e-01
-8.237326e-01
-8.227275e-01
-8.222353e-01
-8.227242e-01
-8.246420e-01
-8.283048e-01
-8.338152e-01
-8.409795e-01
-8.492285e-01
-8.576513e-01
-8.652169e-01
-8.711345e-01
-8.751392e-01
-8.774621e-01
-8.785009e-01
-8.784919e-01
-8.774323e-01
-8.752070e-01
-8.717467e-01
-8.671251e-01
-8.616167e-01
-8.557137e-01
-8.500329e-01
-8.451005e-01
-8.411342e-01
-8.379639e-01
-8.351418e-01
-8.321749e-01
-8.287270e-01
-8.246590e-01
-8.199473e-01
-8.146509e-01
-8.089809e-01
-8.033358e-01
-7.982086e-01
-7.940459e-01
-7.911018e-01
-7.892444e-01
-7.878441e-01
-7.859708e-01
-7.828215e-01
-7.780313e-01
-7.716906e-01
-7.641836e-01
-7.559650e-01
-7.473125e-01
-7.382008e-01
-7.284427e-01
-7.179688e-01
-7.069538e-01
-6.957324e-01
-6.846788e-01
-6.741398e-01
-6.643592e-01
-6.553740e-01
-6.469419e-01
-6.385129e-01
-6.292597e-01
-6.182692e-01
-6.049481e-01
-5.894168e-01
-5.725314e-01
