EVENT_NAME: EMILIA_2ND_SHOCK
EVENT_ID: IT-2012-0011
EVENT_DATE_YYYYMMDD: 20120529
EVENT_TIME_HHMMSS: 070002
EVENT_LATITUDE_DEGREE: 44.8417
EVENT_LONGITUDE_DEGREE: 11.0657
EVENT_DEPTH_KM: 8.1
HYPOCENTER_REFERENCE: INGV-CNT_Seismic_Bulletin
MAGNITUDE_W: 6.0
MAGNITUDE_W_REFERENCE: RCMT-INGV
MAGNITUDE_L: 5.8
MAGNITUDE_L_REFERENCE: INGV-CNT_Seismic_Bulletin
FOCAL_MECHANISM: TF
NETWORK: TV
STATION_CODE: MIR06
STATION_NAME: PIEVE DI CORIANO
STATION_LATITUDE_DEGREE: 45.040100
STATION_LONGITUDE_DEGREE: 11.087400
STATION_ELEVATION_M: 
LOCATION: 
SENSOR_DEPTH_M: 
VS30_M/S: 
SITE_CLASSIFICATION_EC8: C*
MORPHOLOGIC_CLASSIFICATION: 
EPICENTRAL_DISTANCE_KM: 22.1
EARTHQUAKE_BACKAZIMUTH_DEGREE: 184.4
DATE_TIME_FIRST_SAMPLE_YYYYMMDD_HHMMSS: 20120529_065933.000
DATE_TIME_FIRST_SAMPLE_PRECISION: milliseconds
SAMPLING_INTERVAL_S: 0.005000
NDATA: 30001
DURATION_S: 150.005
STREAM: HNE
UNITS: cm
INSTRUMENT: sensor = Episensor FBA ES-T [Kinemetrics] | digitizer = Unknown [Unknown]
INSTRUMENT_ANALOG/DIGITAL: D
INSTRUMENTAL_FREQUENCY_HZ: 
INSTRUMENTAL_DAMPING: 
FULL_SCALE_G: 
N_BIT_DIGITAL_CONVERTER: 
PGD_CM: 1.357075
TIME_PGD_S: 49.285000
BASELINE_CORRECTION: BASELINE REMOVED
FILTER_TYPE: BUTTERWORTH
FILTER_ORDER: 2
LOW_CUT_FREQUENCY_HZ: 0.060
HIGH_CUT_FREQUENCY_HZ: 40.000
LATE/NORMAL_TRIGGERED: NT
DATABASE_VERSION: DYNA 1.0
HEADER_FORMAT: DYNA 1.2
DATA_TYPE: DISPLACEMENT
PROCESSING: manual (Paolucci et al., 2011)
DATA_TIMESTAMP_YYYYMMDD_HHMMSS: 
DATA_LICENSE: CC-BY4_0 (http://creativecommons.org/licenses/by/4.0/)
DATA_CITATION: ESM working group (2015), European Strong-Motion database, version 0.1, Network Activity 3: Networking acceleration networks and SM data users. Project NERA (www.nera-eu.org)
DATA_CREATOR: ESM working group
ORIGINAL_DATA_MEDIATOR_CITATION: Orfeus - European Integrated Data Archive (EIDA) http://www.orfeus-eu.org/eida/
ORIGINAL_DATA_MEDIATOR: Orfeus - European Integrated Data Archive (EIDA)
ORIGINAL_DATA_CREATOR_CITATION: 
ORIGINAL_DATA_CREATOR: network: TV (INGV Experiments Network); owner: Istituto Nazionale di Geofisica e Vulcanologia
USER1: 
USER2: 
USER3: 
USER4: 
USER5: 
[...]
-4.650188e-01
-4.803223e-01
-4.943196e-01
-5.069575e-01
-5.181806e-01
-5.279254e-01
-5.361265e-01
-5.427297e-01
-5.476974e-01
-5.510078e-01
-5.526606e-01
-5.526973e-01
-5.512340e-01
-5.484826e-01
-5.447243e-01
-5.402553e-01
-5.353522e-01
-5.302585e-01
-5.251722e-01
-5.202434e-01
-5.155799e-01
-5.112426e-01
-5.072422e-01
-5.035535e-01
-5.001286e-01
-4.968941e-01
-4.937430e-01
-4.905347e-01
-4.871058e-01
-4.832848e-01
-4.789115e-01
-4.738539e-01
-4.680177e-01
-4.613481e-01
-4.538324e-01
-4.455063e-01
-4.364597e-01
-4.268335e-01
-4.168061e-01
-4.065739e-01
-3.963349e-01
-3.862762e-01
-3.765659e-01
-3.673470e-01
-3.587314e-01
-3.507969e-01
-3.435886e-01
-3.371225e-01
-3.313895e-01
-3.263564e-01
-3.219640e-01
-3.181269e-01
-3.147359e-01
-3.116664e-01
-3.087876e-01
-3.059725e-01
-3.031092e-01
-3.001148e-01
-2.969426e-01
-2.935768e-01
-2.900209e-01
-2.862972e-01
-2.824569e-01
-2.785906e-01
-2.748232e-01
-2.712936e-01
-2.681427e-01
-2.655168e-01
-2.635698e-01
-2.624582e-01
-2.623345e-01
-2.633403e-01
-2.655895e-01
-2.691488e-01
-2.740296e-01
-2.801974e-01
-2.875924e-01
-2.961503e-01
-3.058130e-01
-3.165295e-01
-3.282506e-01
-3.409292e-01
-3.545261e-01
-3.690099e-01
-3.843452e-01
-4.004794e-01
-4.173370e-01
-4.348227e-01
-4.528344e-01
-4.712754e-01
-4.900581e-01
-5.090988e-01
-5.283074e-01
-5.475833e-01
-5.668208e-01
-5.859084e-01
-6.047217e-01
-6.231266e-01
-6.409907e-01
-6.581854e-01
-6.745863e-01
-6.900753e-01
-7.045423e-01
-7.178864e-01
-7.300178e-01
-7.408556e-01
-7.503245e-01
-7.583647e-01
-7.649515e-01
-7.701057e-01
-7.738817e-01
-7.763458e-01
-7.775686e-01
-7.776337e-01
-7.766469e-01
-7.747269e-01
-7.719829e-01
-7.685053e-01
-7.643710e-01
-7.596494e-01
-7.543999e-01
-7.486687e-01
-7.424890e-01
-7.358801e-01
-7.288439e-01
-7.213611e-01
-7.133870e-01
-7.048548e-01
-6.956873e-01
-6.858087e-01
-6.751408e-01
-6.635885e-01
-6.510364e-01
-6.373671e-01
-6.224845e-01
-6.063180e-01
-5.888162e-01
-5.699583e-01
-5.497819e-01
-5.283972e-01
-5.059766e-01
-4.827277e-01
-4.588711e-01
-4.346267e-01
-4.101984e-01
-3.857651e-01
-3.614863e-01
-3.375117e-01
-3.139832e-01
-2.910355e-01
-2.687999e-01
-2.474091e-01
-2.269911e-01
-2.076427e-01
-1.894085e-01
-1.722872e-01
-1.562576e-01
-1.412949e-01
-1.273685e-01
-1.144418e-01
-1.024810e-01
-9.146570e-02
-8.138795e-02
-7.224183e-02
-6.401254e-02
-5.667813e-02
-5.021420e-02
-4.458055e-02
-3.970215e-02
-3.548262e-02
-3.184237e-02
-2.872380e-02
-2.605614e-02
-2.374397e-02
-2.170031e-02
-1.987064e-02
-1.821989e-02
-1.670925e-02
-1.528865e-02
-1.390731e-02
-1.253020e-02
-1.114615e-02
-9.764166e-03
-8.407477e-03
-7.113475e-03
-5.936380e-03
-4.947367e-03
-4.232942e-03
-3.892189e-03
-4.035876e-03
-4.791033e-03
-6.302976e-03
-8.723776e-03
-1.219277e-02
-1.682598e-02
-2.271934e-02
-2.995215e-02
-3.857984e-02
-4.862492e-02
-6.007993e-02
-7.291990e-02
-8.711072e-02
-1.026071e-01
-1.193448e-01
-1.372341e-01
-1.561575e-01
-1.759684e-01
-1.964897e-01
-2.175150e-01
-2.388166e-01
-2.601539e-01
-2.812791e-01
-3.019499e-01
-3.219528e-01
-3.411127e-01
-3.592842e-01
-3.763482e-01
-3.922235e-01
-4.068656e-01
-4.202556e-01
-4.324053e-01
-4.433731e-01
-4.532578e-01
-4.621741e-01
-4.702350e-01
-4.775535e-01
-4.842456e-01
-4.904271e-01
-4.962090e-01
-5.016868e-01
-5.069261e-01
-5.119607e-01
-5.168019e-01
-5.214388e-01
-5.258327e-01
-5.299225e-01
-5.336263e-01
-5.368345e-01
-5.394135e-01
-5.412294e-01
-5.421689e-01
-5.421396e-01
-5.410565e-01
-5.388383e-01
-5.354192e-01
-5.307538e-01
-5.248152e-01
-5.176004e-01
-5.091306e-01
-4.994404e-01
-4.885794e-01
-4.766161e-01
-4.636232e-01
-4.496665e-01
-4.348105e-01
-4.191306e-01
-4.027282e-01
-3.857458e-01
-3.683717e-01
-3.508408e-01
-3.334251e-01
-3.164105e-01
-3.000712e-01
-2.846526e-01
-2.703644e-01
-2.573810e-01
-2.458403e-01
-2.358425e-01
-2.274607e-01
-2.207533e-01
-2.157564e-01
-2.124731e-01
-2.108812e-01
-2.109430e-01
-2.125919e-01
-2.157077e-01
-2.201142e-01
-2.256084e-01
-2.319927e-01
-2.390846e-01
-2.467228e-01
-2.547781e-01
-2.631575e-01
-2.717887e-01
-2.805974e-01
-2.894967e-01
-2.983932e-01
-3.071887e-01
-3.157723e-01
-3.240249e-01
-3.318368e-01
-3.391127e-01
-3.457657e-01
-3.517202e-01
-3.569212e-01
-3.613321e-01
-3.649201e-01
-3.676509e-01
-3.695004e-01
-3.704690e-01
-3.705774e-01
-3.698651e-01
-3.684232e-01
-3.664154e-01
-3.640495e-01
-3.615599e-01
-3.592113e-01
-3.572618e-01
-3.559227e-01
-3.553624e-01
-3.556931e-01
-3.569442e-01
-3.590853e-01
-3.620574e-01
-3.657774e-01
-3.701442e-01
-3.750498e-01
-3.803878e-01
-3.860584e-01
-3.919648e-01
-3.980099e-01
-4.041082e-01
-4.101948e-01
-4.162198e-01
-4.221414e-01
-4.279264e-01
-4.335577e-01
-4.390405e-01
-4.444061e-01
-4.497114e-01
-4.550348e-01
-4.604682e-01
-4.661052e-01
-4.720333e-01
-4.783336e-01
-4.850762e-01
-4.923081e-01
-5.000460e-01
-5.082804e-01
-5.169894e-01
-5.261589e-01
-5.357948e-01
-5.459159e-01
-5.565490e-01
-5.677313e-01
-5.794984e-01
-5.918706e-01
-6.048524e-01
-6.184275e-01
-6.325486e-01
-6.471317e-01
-6.620518e-01
-6.771384e-01
-6.921821e-01
-7.069603e-01
-7.212669e-01
-7.349278e-01
-7.477995e-01
-7.597667e-01
-7.707458e-01
-7.806918e-01
-7.895962e-01
-7.974768e-01
-8.043748e-01
-8.103561e-01
-8.155021e-01
-8.199008e-01
-8.236516e-01
-8.268765e-01
-8.297088e-01
-8.322631e-01
-8.346194e-01
-8.368290e-01
-8.389141e-01
-8.408611e-01
-8.426264e-01
-8.441521e-01
-8.453707e-01
-8.462052e-01
-8.465756e-01
-8.464080e-01
-8.456379e-01
-8.442095e-01
-8.420764e-01
-8.392023e-01
-8.355611e-01
-8.311385e-01
-8.259351e-01
-8.199698e-01
-8.132814e-01
-8.059337e-01
-7.980213e-01
-7.896616e-01
-7.809783e-01
-7.720922e-01
-7.631276e-01
-7.542277e-01
-7.455651e-01
-7.373282e-01
-7.296956e-01
-7.228200e-01
-7.168319e-01
-7.118565e-01
-7.080109e-01
-7.053606e-01
-7.038993e-01
-7.035844e-01
-7.043443e-01
-7.060635e-01
-7.086080e-01
-7.118382e-01
-7.156008e-01
-7.197608e-01
-7.241997e-01
-7.287814e-01
-7.333761e-01
-7.378825e-01
-7.422188e-01
-7.463325e-01
-7.502061e-01
-7.538501e-01
-7.573063e-01
-7.606428e-01
-7.639462e-01
-7.673209e-01
-7.708797e-01
-7.747347e-01
-7.789985e-01
-7.837818e-01
-7.891831e-01
-7.952781e-01
-8.021201e-01
-8.097444e-01
-8.181814e-01
-8.274806e-01
-8.377150e-01
-8.489637e-01
-8.613032e-01
-8.748039e-01
-8.895172e-01
-9.054732e-01
-9.226858e-01
-9.411500e-01
-9.608286e-01
-9.816362e-01
-1.003434e+00
-1.026042e+00
-1.049241e+00
-1.072762e+00
-1.096289e+00
-1.119470e+00
-1.141953e+00
-1.163410e+00
-1.183558e+00
-1.202164e+00
-1.219047e+00
-1.234064e+00
-1.247116e+00
-1.258144e+00
-1.267135e+00
-1.274114e+00
-1.279153e+00
-1.282372e+00
-1.283935e+00
-1.284040e+00
-1.282907e+00
-1.280765e+00
-1.277839e+00
-1.274332e+00
-1.270418e+00
-1.266222e+00
-1.261834e+00
-1.257320e+00
-1.252724e+00
-1.248070e+00
-1.243364e+00
-1.238585e+00
-1.233684e+00
-1.228585e+00
-1.223199e+00
-1.217431e+00
-1.211184e+00
-1.204369e+00
-1.196908e+00
-1.188754e+00
-1.179898e+00
-1.170376e+00
-1.160258e+00
-1.149633e+00
-1.138596e+00
-1.127238e+00
-1.115640e+00
-1.103870e+00
-1.091994e+00
-1.080076e+00
-1.068169e+00
-1.056305e+00
-1.044495e+00
-1.032741e+00
-1.021028e+00
-1.009305e+00
-9.974828e-01
-9.854534e-01
-9.730957e-01
-9.602833e-01
-9.469038e-01
-9.328585e-01
-9.180659e-01
-9.024726e-01
-8.860311e-01
-8.686849e-01
-8.503885e-01
-8.311135e-01
-8.108438e-01
-7.895843e-01
-7.673675e-01
-7.442579e-01
-7.203592e-01
-6.958194e-01
-6.708216e-01
-6.455674e-01
-6.202807e-01
-5.952072e-01
-5.705825e-01
-5.466047e-01
-5.234281e-01
-5.011550e-01
-4.798344e-01
-4.594704e-01
-4.400260e-01
-4.214316e-01
-4.036007e-01
-3.864338e-01
-3.698116e-01
-3.535943e-01
-3.376334e-01
-3.217876e-01
-3.059317e-01
-2.899655e-01
-2.738211e-01
-2.574611e-01
-2.408745e-01
-2.240833e-01
-2.071471e-01
-1.901492e-01
-1.731697e-01
-1.562725e-01
-1.395136e-01
-1.229549e-01
-1.066681e-01
-9.073021e-02
-7.522719e-02
-6.025816e-02
-4.592763e-02
-3.232984e-02
-1.954294e-02
-7.634445e-03
3.336741e-03
1.332459e-02
2.229237e-02
3.020089e-02
3.700526e-02
4.266200e-02
4.713488e-02
5.039639e-02
5.242826e-02
5.322501e-02
5.280329e-02
5.121440e-02
4.855261e-02
4.495573e-02
4.060203e-02
3.570610e-02
3.050490e-02
2.522989e-02
2.008107e-02
1.521780e-02
1.076298e-02
6.811786e-03
3.440055e-03
7.088626e-04
-1.332883e-03
-2.642500e-03
-3.177250e-03
-2.894677e-03
-1.759813e-03
2.445395e-04
3.107972e-03
6.786457e-03
1.120216e-02
1.624895e-02
2.180229e-02
2.773072e-02
3.390471e-02
4.019983e-02
4.649860e-02
5.269649e-02
5.870672e-02
6.445558e-02
6.987498e-02
7.490527e-02
7.950574e-02
8.366420e-02
8.740487e-02
9.079055e-02
9.391429e-02
9.688676e-02
9.982467e-02
1.028442e-01
1.060646e-01
1.096101e-01
1.135993e-01
1.181356e-01
1.233090e-01
1.292032e-01
1.359007e-01
1.434854e-01
1.520362e-01
1.616109e-01
1.722292e-01
1.838717e-01
1.965003e-01
2.100719e-01
2.245277e-01
2.397798e-01
2.557138e-01
2.721955e-01
2.890792e-01
3.062122e-01
3.234258e-01
3.405333e-01
3.573408e-01
3.736562e-01
3.893016e-01
4.041322e-01
4.180447e-01
4.309732e-01
4.428790e-01
4.537450e-01
4.635770e-01
4.724045e-01
4.802710e-01
4.872214e-01
4.932966e-01
4.985412e-01
5.030100e-01
5.067654e-01
5.098730e-01
5.123992e-01
5.144095e-01
5.159698e-01
5.171419e-01
5.179772e-01
5.185199e-01
5.188210e-01
5.189491e-01
5.189886e-01
5.190324e-01
5.191751e-01
5.195110e-01
5.201254e-01
5.210812e-01
5.224160e-01
5.241480e-01
5.262706e-01
5.287427e-01
5.314939e-01
5.344369e-01
5.374714e-01
5.404870e-01
5.433668e-01
5.459920e-01
5.482465e-01
5.500254e-01
5.512454e-01
5.518524e-01
5.518230e-01
5.511570e-01
5.498701e-01
5.479958e-01
5.455885e-01
5.427207e-01
5.394752e-01
5.359378e-01
5.321948e-01
5.283333e-01
5.244413e-01
5.206051e-01
5.169093e-01
5.134343e-01
5.102478e-01
5.073958e-01
5.048982e-01
5.027475e-01
5.009084e-01
4.993193e-01
4.978964e-01
4.965442e-01
4.951703e-01
4.936946e-01
4.920428e-01
4.901343e-01
4.878866e-01
4.852334e-01
4.821381e-01
4.785888e-01
4.745897e-01
4.701628e-01
4.653577e-01
4.602532e-01
4.549538e-01
4.495942e-01
4.443368e-01
4.393549e-01
4.348169e-01
4.308753e-01
4.276532e-01
4.252382e-01
4.236836e-01
4.230083e-01
4.231959e-01
4.241988e-01
4.259474e-01
4.283568e-01
4.313261e-01
4.347415e-01
4.384875e-01
4.424558e-01
4.465529e-01
4.507107e-01
4.548968e-01
4.591182e-01
4.634164e-01
4.678599e-01
4.725346e-01
4.775357e-01
4.829613e-01
4.889087e-01
4.954701e-01
5.027267e-01
5.107435e-01
5.195646e-01
5.292114e-01
5.396818e-01
5.509512e-01
5.629750e-01
5.756929e-01
5.890312e-01
6.029077e-01
6.172352e-01
6.319237e-01
6.468809e-01
6.620112e-01
6.772178e-01
6.924049e-01
7.074843e-01
7.223805e-01
7.370347e-01
7.514026e-01
7.654520e-01
7.791583e-01
7.925003e-01
8.054551e-01
8.179935e-01
8.300764e-01
8.416559e-01
8.526831e-01
8.631202e-01
8.729478e-01
8.821623e-01
8.907696e-01
8.987843e-01
9.062349e-01
9.131641e-01
9.196195e-01
9.256397e-01
9.312508e-01
9.364745e-01
9.413353e-01
9.458646e-01
9.501040e-01
9.541056e-01
9.579297e-01
9.616449e-01
9.653268e-01
9.690526e-01
9.728898e-01
9.768838e-01
9.810566e-01
9.854146e-01
9.899513e-01
9.946479e-01
9.994751e-01
1.004395e+00
1.009364e+00
1.014336e+00
1.019265e+00
1.024100e+00
1.028781e+00
1.033243e+00
1.037417e+00
1.041242e+00
1.044674e+00
1.047683e+00
1.050249e+00
1.052357e+00
1.053985e+00
1.055103e+00
1.055670e+00
1.055643e+00
1.054977e+00
1.053632e+00
1.051584e+00
1.048820e+00
1.045343e+00
1.041170e+00
1.036337e+00
1.030897e+00
1.024917e+00
1.018471e+00
1.011640e+00
1.004516e+00
9.971916e-01
9.897505e-01
9.822597e-01
9.747701e-01
9.673176e-01
9.599179e-01
9.525653e-01
9.452373e-01
9.379011e-01
9.305165e-01
9.230394e-01
9.154276e-01
9.076429e-01
8.996497e-01
8.914122e-01
8.828941e-01
8.740610e-01
8.648845e-01
8.553482e-01
8.454549e-01
8.352295e-01
8.247171e-01
8.139761e-01
8.030728e-01
7.920787e-01
7.810711e-01
7.701379e-01
7.593889e-01
7.489601e-01
7.390066e-01
7.296910e-01
7.211742e-01
7.136088e-01
7.071357e-01
7.018851e-01
6.979726e-01
6.954927e-01
6.945156e-01
6.950862e-01
6.972264e-01
7.009393e-01
7.062122e-01
7.130129e-01
7.212873e-01
7.309692e-01
7.419955e-01
7.543031e-01
7.678156e-01
7.824426e-01
7.980908e-01
8.146640e-01
8.320510e-01
8.501192e-01
8.687194e-01
8.876970e-01
9.069019e-01
9.261995e-01
9.454801e-01
9.646616e-01
9.836849e-01
1.002505e+00
1.021079e+00
1.039363e+00
1.057304e+00
1.074844e+00
1.091915e+00
1.108451e+00
1.124389e+00
1.139685e+00
1.154315e+00
1.168277e+00
1.181590e+00
1.194276e+00
1.206355e+00
1.217843e+00
1.228757e+00
1.239105e+00
1.248900e+00
1.258164e+00
1.266941e+00
1.275295e+00
1.283297e+00
1.291004e+00
1.298457e+00
1.305679e+00
1.312669e+00
1.319405e+00
1.325841e+00
1.331905e+00
1.337513e+00
1.342575e+00
1.347005e+00
1.350721e+00
1.353648e+00
1.355721e+00
1.356881e+00
1.357075e+00
1.356261e+00
1.354408e+00
1.351504e+00
1.347553e+00
1.342581e+00
1.336636e+00
1.329796e+00
1.322156e+00
1.313817e+00
1.304876e+00
1.295436e+00
1.285613e+00
1.275522e+00
1.265278e+00
1.254983e+00
1.244718e+00
1.234549e+00
1.224521e+00
1.214661e+00
1.204983e+00
1.195502e+00
1.186232e+00
1.177197e+00
1.168431e+00
1.159981e+00
1.151907e+00
1.144277e+00
1.137159e+00
1.130626e+00
1.124745e+00
1.119575e+00
1.115152e+00
1.111485e+00
1.108557e+00
1.106330e+00
1.104728e+00
1.103641e+00
1.102925e+00
1.102423e+00
1.101969e+00
1.101405e+00
1.100585e+00
1.099381e+00
1.097687e+00
1.095424e+00
1.092520e+00
1.088905e+00
1.084516e+00
1.079307e+00
1.073255e+00
1.066353e+00
1.058601e+00
1.050008e+00
1.040586e+00
1.030356e+00
1.019345e+00
1.007590e+00
9.951203e-01
9.819619e-01
9.681486e-01
9.537297e-01
9.387622e-01
9.233199e-01
9.075046e-01
8.914343e-01
8.752218e-01
8.589620e-01
8.427271e-01
8.265648e-01
8.104963e-01
7.945268e-01
7.786694e-01
7.629494e-01
7.473856e-01
7.319949e-01
7.168234e-01
7.019446e-01
6.874197e-01
6.732812e-01
6.595517e-01
6.462528e-01
6.333934e-01
6.209684e-01
6.089733e-01
5.974107e-01
5.862848e-01
5.755994e-01
5.653609e-01
5.555761e-01
5.462436e-01
5.373435e-01
5.288482e-01
5.207407e-01
5.130044e-01
5.056035e-01
4.984870e-01
4.916039e-01
4.849108e-01
4.783799e-01
4.719953e-01
4.657282e-01
4.595315e-01
4.533667e-01
4.472136e-01
4.410519e-01
4.348640e-01
4.286485e-01
4.224130e-01
4.161670e-01
4.099294e-01
4.037272e-01
3.975871e-01
3.915296e-01
3.855712e-01
3.797283e-01
3.740113e-01
3.684136e-01
3.629102e-01
3.574679e-01
3.520548e-01
3.466426e-01
3.412065e-01
3.357237e-01
3.301718e-01
3.245302e-01
3.187791e-01
3.128949e-01
3.068457e-01
3.005940e-01
2.941126e-01
2.873919e-01
2.804185e-01
2.731580e-01
2.655755e-01
2.576641e-01
2.494396e-01
2.409199e-01
2.321158e-01
2.230389e-01
2.137123e-01
2.041708e-01
1.944551e-01
1.846081e-01
1.746710e-01
1.646724e-01
1.546228e-01
1.445118e-01
1.343057e-01
1.239499e-01
1.133796e-01
1.025337e-01
9.135940e-02
7.980739e-02
6.783312e-02
5.540815e-02
4.252976e-02
2.921874e-02
1.550919e-02
1.441199e-03
-1.293866e-02
-2.757653e-02
-4.241721e-02
-5.740988e-02
-7.250677e-02
-8.765869e-02
-1.028117e-01
-1.179051e-01
-1.328735e-01
-1.476492e-01
-1.621618e-01
-1.763345e-01
-1.900829e-01
-2.033182e-01
-2.159520e-01
-2.279005e-01
-2.390805e-01
-2.494029e-01
-2.587760e-01
-2.671186e-01
-2.743663e-01
-2.804632e-01
-2.853561e-01
-2.890032e-01
-2.913879e-01
-2.925243e-01
-2.924514e-01
-2.912272e-01
-2.889327e-01
-2.856768e-01
-2.815858e-01
-2.767941e-01
-2.714440e-01
-2.656849e-01
-2.596706e-01
-2.535523e-01
-2.474707e-01
-2.415500e-01
-2.358921e-01
-2.305785e-01
-2.256817e-01
-2.212694e-01
-2.173907e-01
-2.140604e-01
-2.112772e-01
-2.090569e-01
-2.074273e-01
-2.063967e-01
-2.059575e-01
-2.061210e-01
-2.069168e-01
-2.083623e-01
-2.104524e-01
-2.131761e-01
-2.165212e-01
-2.204596e-01
-2.249418e-01
-2.299080e-01
-2.352926e-01
-2.410288e-01
-2.470562e-01
-2.533198e-01
-2.597650e-01
-2.663381e-01
-2.729874e-01
-2.796668e-01
-2.863367e-01
-2.929629e-01
-2.995204e-01
-3.060021e-01
-3.124179e-01
-3.187855e-01
-3.251239e-01
-3.314495e-01
-3.377669e-01
-3.440677e-01
-3.503334e-01
-3.565324e-01
-3.626151e-01
-3.685240e-01
-3.742021e-01
-3.795900e-01
-3.846258e-01
-3.892535e-01
-3.934277e-01
-3.971089e-01
-4.002638e-01
-4.028696e-01
-4.049211e-01
-4.064371e-01
-4.074568e-01
-4.080243e-01
-4.081822e-01
-4.079808e-01
-4.074848e-01
-4.067574e-01
-4.058410e-01
-4.047531e-01
-4.034949e-01
-4.020598e-01
-4.004328e-01
-3.985863e-01
-3.964874e-01
-3.941105e-01
-3.914444e-01
-3.884945e-01
-3.852858e-01
-3.818587e-01
-3.782644e-01
-3.745667e-01
-3.708396e-01
-3.671577e-01
-3.635956e-01
-3.602333e-01
-3.571514e-01
-3.544229e-01
-3.521128e-01
-3.502810e-01
-3.489829e-01
-3.482693e-01
-3.481835e-01
-3.487578e-01
-3.500127e-01
-3.519571e-01
-3.545836e-01
-3.578673e-01
-3.617712e-01
-3.662500e-01
-3.712484e-01
-3.767021e-01
-3.825428e-01
-3.886998e-01
-3.950962e-01
-4.016464e-01
-4.082562e-01
-4.148294e-01
-4.212761e-01
-4.275157e-01
-4.334771e-01
-4.390898e-01
-4.442654e-01
-4.489039e-01
-4.529384e-01
-4.563507e-01
-4.591301e-01
-4.612537e-01
-4.627026e-01
-4.634562e-01
-4.634963e-01
-4.628325e-01
-4.614910e-01
-4.594901e-01
-4.568448e-01
-4.535633e-01
-4.496423e-01
-4.450845e-01
-4.399057e-01
-4.341271e-01
-4.277653e-01
-4.208259e-01
-4.133068e-01
-4.052083e-01
-3.965396e-01
-3.873213e-01
-3.775862e-01
-3.673784e-01
-3.567549e-01
-3.457915e-01
-3.345887e-01
-3.232673e-01
-3.119521e-01
-3.007583e-01
-2.897830e-01
-2.790990e-01
-2.687531e-01
-2.587684e-01
-2.491428e-01
-2.398440e-01
-2.308092e-01
-2.219572e-01
-2.132035e-01
-2.044628e-01
-1.956454e-01
-1.866574e-01
-1.774027e-01
-1.677899e-01
-1.577447e-01
-1.472150e-01
-1.361655e-01
-1.245797e-01
-1.124616e-01
-9.982977e-02
-8.671532e-02
-7.316571e-02
-5.924478e-02
-4.502928e-02
-3.060680e-02
-1.607419e-02
-1.535609e-03
1.289919e-02
2.711593e-02
4.099906e-02
5.443800e-02
6.733353e-02
7.960272e-02
9.118159e-02
1.020254e-01
1.121072e-01
1.214153e-01
1.299514e-01
1.377284e-01
1.447665e-01
1.510871e-01
1.567118e-01
1.616640e-01
1.659702e-01
1.696593e-01
1.727603e-01
1.752998e-01
1.773041e-01
1.788027e-01
1.798243e-01
1.803859e-01
1.804951e-01
1.801664e-01
1.794233e-01
1.782831e-01
1.767604e-01
1.748800e-01
1.726658e-01
1.701307e-01
1.672833e-01
1.641237e-01
1.606428e-01
1.568376e-01
1.527078e-01
1.482480e-01
1.434500e-01
