EVENT_NAME: EMILIA_2ND_SHOCK
EVENT_ID: IT-2012-0011
EVENT_DATE_YYYYMMDD: 20120529
EVENT_TIME_HHMMSS: 070002
EVENT_LATITUDE_DEGREE: 44.8417
EVENT_LONGITUDE_DEGREE: 11.0657
EVENT_DEPTH_KM: 8.1
HYPOCENTER_REFERENCE: INGV-CNT_Seismic_Bulletin
MAGNITUDE_W: 6.0
MAGNITUDE_W_REFERENCE: RCMT-INGV
MAGNITUDE_L: 5.8
MAGNITUDE_L_REFERENCE: INGV-CNT_Seismic_Bulletin
FOCAL_MECHANISM: TF
NETWORK: TV
STATION_CODE: MIR03
STATION_NAME: QUARANTOLI 1
STATION_LATITUDE_DEGREE: 44.938400
STATION_LONGITUDE_DEGREE: 11.104500
STATION_ELEVATION_M: 
LOCATION: 
SENSOR_DEPTH_M: 
VS30_M/S: 
SITE_CLASSIFICATION_EC8: C*
MORPHOLOGIC_CLASSIFICATION: 
EPICENTRAL_DISTANCE_KM: 11.2
EARTHQUAKE_BACKAZIMUTH_DEGREE: 195.9
DATE_TIME_FIRST_SAMPLE_YYYYMMDD_HHMMSS: 20120529_065927.000
DATE_TIME_FIRST_SAMPLE_PRECISION: milliseconds
SAMPLING_INTERVAL_S: 0.005000
NDATA: 18001
DURATION_S: 90.005
STREAM: HNZ
UNITS: cm/s
INSTRUMENT: sensor = Episensor FBA ES-T [Kinemetrics] | digitizer = Unknown [Unknown]
INSTRUMENT_ANALOG/DIGITAL: D
INSTRUMENTAL_FREQUENCY_HZ: 
INSTRUMENTAL_DAMPING: 
FULL_SCALE_G: 
N_BIT_DIGITAL_CONVERTER: 
PGV_CM/S: 6.885310
TIME_PGV_S: 42.090000
BASELINE_CORRECTION: BASELINE REMOVED
FILTER_TYPE: BUTTERWORTH
FILTER_ORDER: 2
LOW_CUT_FREQUENCY_HZ: 0.070
HIGH_CUT_FREQUENCY_HZ: 40.000
LATE/NORMAL_TRIGGERED: NT
DATABASE_VERSION: DYNA 1.0
HEADER_FORMAT: DYNA 1.2
DATA_TYPE: VELOCITY
PROCESSING: manual (Paolucci et al., 2011)
DATA_TIMESTAMP_YYYYMMDD_HHMMSS: 
DATA_LICENSE: CC-BY4_0 (http://creativecommons.org/licenses/by/4.0/)
DATA_CITATION: ESM working group (2015), European Strong-Motion database, version 0.1, Network Activity 3: Networking acceleration networks and SM data users. Project NERA (www.nera-eu.org)
DATA_CREATOR: ESM working group
ORIGINAL_DATA_MEDIATOR_CITATION: Orfeus - European Integrated Data Archive (EIDA) http://www.orfeus-eu.org/eida/
ORIGINAL_DATA_MEDIATOR: Orfeus - European Integrated Data Archive (EIDA)
ORIGINAL_DATA_CREATOR_CITATION: 
ORIGINAL_DATA_CREATOR: network: TV (INGV Experiments Network); owner: Istituto Nazionale di Geofisica e Vulcanologia
USER1: 
USER2: 
USER3: 
USER4: 
USER5: 
[...]
0.000141
0.000149
0.000143
0.000131
0.000131
0.000146
0.000161
0.000155
0.000125
0.000086
0.000056
0.000037
0.000014
-0.000028
-0.000094
-0.000173
-0.000251
-0.000309
-0.000346
-0.000377
-0.000424
-0.000490
-0.000561
-0.000627
-0.000687
-0.000747
-0.000815
-0.000896
-0.000990
-0.001078
-0.001147
-0.001202
-0.001267
-0.001352
-0.001437
-0.001495
-0.001519
-0.001526
-0.001533
-0.001542
-0.001543
-0.001532
-0.001515
-0.001506
-0.001520
-0.001558
-0.001601
-0.001636
-0.001667
-0.001706
-0.001760
-0.001824
-0.001897
-0.001973
-0.002038
-0.002084
-0.002118
-0.002156
-0.002200
-0.002238
-0.002265
-0.002280
-0.002287
-0.002292
-0.002297
-0.002308
-0.002328
-0.002357
-0.002389
-0.002420
-0.002451
-0.002484
-0.002528
-0.002591
-0.002673
-0.002765
-0.002854
-0.002941
-0.003026
-0.003108
-0.003184
-0.003257
-0.003322
-0.003377
-0.003419
-0.003451
-0.003481
-0.003514
-0.003554
-0.003605
-0.003659
-0.003703
-0.003729
-0.003744
-0.003762
-0.003797
-0.003854
-0.003926
-0.004002
-0.004075
-0.004141
-0.004203
-0.004264
-0.004321
-0.004374
-0.004428
-0.004486
-0.004542
-0.004589
-0.004632
-0.004680
-0.004731
-0.004781
-0.004827
-0.004871
-0.004909
-0.004942
-0.004971
-0.005002
-0.005037
-0.005078
-0.005125
-0.005175
-0.005220
-0.005260
-0.005300
-0.005345
-0.005389
-0.005430
-0.005473
-0.005522
-0.005570
-0.005613
-0.005654
-0.005699
-0.005744
-0.005787
-0.005832
-0.005883
-0.005937
-0.005985
-0.006026
-0.006073
-0.006133
-0.006199
-0.006267
-0.006335
-0.006401
-0.006465
-0.006527
-0.006590
-0.006651
-0.006705
-0.006756
-0.006812
-0.006876
-0.006944
-0.007011
-0.007082
-0.007159
-0.007234
-0.007303
-0.007365
-0.007419
-0.007465
-0.007500
-0.007530
-0.007565
-0.007610
-0.007667
-0.007734
-0.007811
-0.007890
-0.007959
-0.008016
-0.008070
-0.008134
-0.008209
-0.008292
-0.008379
-0.008471
-0.008566
-0.008665
-0.008774
-0.008890
-0.008997
-0.009087
-0.009159
-0.009218
-0.009266
-0.009303
-0.009330
-0.009351
-0.009369
-0.009391
-0.009424
-0.009464
-0.009507
-0.009548
-0.009592
-0.009640
-0.009688
-0.009733
-0.009774
-0.009821
-0.009879
-0.009950
-0.010024
-0.010093
-0.010149
-0.010187
-0.010211
-0.010230
-0.010256
-0.010293
-0.010340
-0.010391
-0.010448
-0.010518
-0.010608
-0.010714
-0.010827
-0.010932
-0.011023
-0.011100
-0.011172
-0.011244
-0.011317
-0.011388
-0.011461
-0.011537
-0.011617
-0.011694
-0.011756
-0.011795
-0.011816
-0.011835
-0.011859
-0.011894
-0.011939
-0.011995
-0.012062
-0.012145
-0.012249
-0.012374
-0.012509
-0.012644
-0.012774
-0.012898
-0.013017
-0.013133
-0.013245
-0.013354
-0.013451
-0.013529
-0.013583
-0.013624
-0.013658
-0.013685
-0.013701
-0.013712
-0.013730
-0.013764
-0.013820
-0.013899
-0.013987
-0.014069
-0.014142
-0.014219
-0.014316
-0.014433
-0.014558
-0.014677
-0.014785
-0.014876
-0.014945
-0.014993
-0.015028
-0.015055
-0.015075
-0.015095
-0.015127
-0.015177
-0.015244
-0.015329
-0.015431
-0.015540
-0.015647
-0.015749
-0.015854
-0.015960
-0.016054
-0.016130
-0.016193
-0.016253
-0.016315
-0.016382
-0.016450
-0.016513
-0.016565
-0.016617
-0.016682
-0.016765
-0.016852
-0.016935
-0.017021
-0.017114
-0.017207
-0.017289
-0.017357
-0.017422
-0.017496
-0.017581
-0.017671
-0.017761
-0.017849
-0.017933
-0.018012
-0.018084
-0.018148
-0.018210
-0.018275
-0.018347
-0.018425
-0.018506
-0.018591
-0.018676
-0.018761
-0.018844
-0.018929
-0.019021
-0.019121
-0.019226
-0.019334
-0.019443
-0.019552
-0.019661
-0.019768
-0.019870
-0.019963
-0.020046
-0.020120
-0.020191
-0.020263
-0.020334
-0.020403
-0.020475
-0.020553
-0.020638
-0.020723
-0.020806
-0.020886
-0.020971
-0.021064
-0.021165
-0.021267
-0.021368
-0.021475
-0.021594
-0.021724
-0.021852
-0.021972
-0.022086
-0.022196
-0.022303
-0.022403
-0.022494
-0.022571
-0.022637
-0.022701
-0.022766
-0.022829
-0.022888
-0.022947
-0.023013
-0.023088
-0.023163
-0.023234
-0.023301
-0.023371
-0.023448
-0.023528
-0.023611
-0.023693
-0.023775
-0.023862
-0.023961
-0.024077
-0.024202
-0.024326
-0.024446
-0.024563
-0.024676
-0.024783
-0.024881
-0.024974
-0.025062
-0.025142
-0.025214
-0.025283
-0.025352
-0.025420
-0.025489
-0.025565
-0.025649
-0.025735
-0.025823
-0.025921
-0.026036
-0.026167
-0.026305
-0.026439
-0.026563
-0.026669
-0.026757
-0.026836
-0.026918
-0.027005
-0.027098
-0.027199
-0.027313
-0.027442
-0.027575
-0.027705
-0.027827
-0.027944
-0.028055
-0.028163
-0.028267
-0.028362
-0.028448
-0.028528
-0.028610
-0.028696
-0.028785
-0.028867
-0.028941
-0.029017
-0.029109
-0.029227
-0.029371
-0.029527
-0.029679
-0.029818
-0.029946
-0.030070
-0.030192
-0.030308
-0.030415
-0.030509
-0.030591
-0.030663
-0.030732
-0.030801
-0.030867
-0.030920
-0.030957
-0.030984
-0.031015
-0.031064
-0.031137
-0.031238
-0.031361
-0.031497
-0.031635
-0.031766
-0.031890
-0.032016
-0.032154
-0.032300
-0.032449
-0.032597
-0.032751
-0.032911
-0.033072
-0.033224
-0.033365
-0.033494
-0.033606
-0.033698
-0.033767
-0.033817
-0.033858
-0.033904
-0.033965
-0.034042
-0.034128
-0.034219
-0.034319
-0.034443
-0.034597
-0.034774
-0.034951
-0.035112
-0.035252
-0.035378
-0.035503
-0.035635
-0.035777
-0.035920
-0.036056
-0.036179
-0.036287
-0.036381
-0.036468
-0.036559
-0.036653
-0.036747
-0.036841
-0.036934
-0.037029
-0.037126
-0.037227
-0.037334
-0.037451
-0.037580
-0.037721
-0.037875
-0.038040
-0.038203
-0.038345
-0.038462
-0.038551
-0.038616
-0.038668
-0.038733
-0.038823
-0.038930
-0.039040
-0.039152
-0.039272
-0.039401
-0.039537
-0.039685
-0.039844
-0.040007
-0.040166
-0.040326
-0.040494
-0.040665
-0.040824
-0.040959
-0.041072
-0.041175
-0.041275
-0.041376
-0.041477
-0.041575
-0.041662
-0.041742
-0.041828
-0.041926
-0.042032
-0.042141
-0.042252
-0.042371
-0.042505
-0.042655
-0.042818
-0.042980
-0.043123
-0.043240
-0.043340
-0.043439
-0.043545
-0.043658
-0.043768
-0.043869
-0.043966
-0.044073
-0.044209
-0.044382
-0.044566
-0.044727
-0.044851
-0.044956
-0.045069
-0.045195
-0.045315
-0.045414
-0.045487
-0.045545
-0.045618
-0.045741
-0.045925
-0.046154
-0.046402
-0.046646
-0.046867
-0.047040
-0.047154
-0.047225
-0.047282
-0.047352
-0.047439
-0.047541
-0.047655
-0.047781
-0.047919
-0.048068
-0.048220
-0.048363
-0.048492
-0.048620
-0.048763
-0.048930
-0.049110
-0.049284
-0.049433
-0.049550
-0.049648
-0.049752
-0.049878
-0.050025
-0.050179
-0.050328
-0.050468
-0.050604
-0.050745
-0.050898
-0.051058
-0.051218
-0.051375
-0.051530
-0.051674
-0.051791
-0.051875
-0.051937
-0.052001
-0.052080
-0.052178
-0.052290
-0.052414
-0.052543
-0.052676
-0.052823
-0.052988
-0.053158
-0.053316
-0.053455
-0.053582
-0.053712
-0.053860
-0.054033
-0.054226
-0.054418
-0.054597
-0.054763
-0.054917
-0.055052
-0.055161
-0.055249
-0.055336
-0.055434
-0.055549
-0.055690
-0.055869
-0.056081
-0.056306
-0.056522
-0.056716
-0.056881
-0.057019
-0.057139
-0.057254
-0.057376
-0.057510
-0.057655
-0.057810
-0.057972
-0.058132
-0.058283
-0.058424
-0.058558
-0.058686
-0.058805
-0.058920
-0.059041
-0.059174
-0.059314
-0.059456
-0.059604
-0.059754
-0.059894
-0.060025
-0.060156
-0.060289
-0.060417
-0.060543
-0.060676
-0.060820
-0.060973
-0.061127
-0.061281
-0.061436
-0.061590
-0.061744
-0.061903
-0.062071
-0.062246
-0.062438
-0.062677
-0.063027
-0.063588
-0.064527
-0.066105
-0.068692
-0.072750
-0.078800
-0.087367
-0.098888
-0.113604
-0.131431
-0.151855
-0.173891
-0.196116
-0.216808
-0.234258
-0.247357
-0.256272
-0.262749
-0.269660
-0.280023
-0.296344
-0.320583
-0.354024
-0.396467
-0.445549
-0.497286
-0.547652
-0.593867
-0.633704
-0.662335
-0.670055
-0.646170
-0.588464
-0.509148
-0.429489
-0.366295
-0.320871
-0.278103
-0.215618
-0.117693
0.012900
0.151036
0.256521
0.291325
0.240055
0.121867
-0.017023
-0.129036
-0.191850
-0.215170
-0.222980
-0.228813
-0.227671
-0.209800
-0.177420
-0.145365
-0.129266
-0.136054
-0.160504
-0.185318
-0.187657
-0.152277
-0.081303
0.008727
0.099995
0.184723
0.263505
0.331605
0.367783
0.339276
0.220334
0.009273
-0.266172
-0.554043
-0.791067
-0.923217
-0.926951
-0.814666
-0.617202
-0.359639
-0.053854
0.287238
0.630265
0.917241
1.081783
1.072266
0.867378
0.481752
-0.036352
-0.616049
-1.179676
-1.655421
-1.986567
-2.141381
-2.118293
-1.940325
-1.644483
-1.274402
-0.878600
-0.511283
-0.225366
-0.052077
0.016814
0.023001
0.014547
0.019638
0.039653
0.062713
0.080533
0.091726
0.094323
0.080658
0.039934
-0.034656
-0.139509
-0.258061
-0.360947
-0.408640
-0.362012
-0.201921
0.054216
0.352730
0.621692
0.796381
0.839965
0.750636
0.553950
0.286541
-0.020021
-0.346071
-0.675596
-0.980128
-1.212493
-1.319062
-1.261787
-1.036957
-0.684369
-0.284045
0.064141
0.279766
0.345945
0.325082
0.322491
0.418163
0.617121
0.850393
1.018980
1.047815
0.917183
0.661206
0.344512
0.034198
-0.218130
-0.378280
-0.424235
-0.347242
-0.160097
0.098396
0.370854
0.597498
0.730335
0.737190
0.599416
0.316389
-0.078953
-0.511439
-0.884991
-1.129626
-1.239607
-1.272254
-1.309208
-1.406498
-1.560464
-1.706360
-1.753243
-1.639236
-1.374995
-1.048238
-0.787587
-0.708734
-0.869575
-1.244510
-1.712974
-2.063546
-2.035069
-1.412192
-0.142379
1.600504
3.442875
4.907893
5.570111
5.233907
4.011141
2.222734
0.231282
-1.655279
-3.194467
-4.193407
-4.511727
-4.096378
-3.036945
-1.598806
-0.162419
0.935956
1.540020
1.683181
1.509581
1.183954
0.823970
0.477272
0.143812
-0.187325
-0.505171
-0.763703
-0.906964
-0.908306
-0.781878
-0.567197
-0.310623
-0.052792
0.175987
0.350874
0.450123
0.466262
0.413997
0.316024
0.183398
0.017195
-0.172581
-0.356751
-0.498647
-0.575156
-0.586237
-0.548701
-0.487873
-0.435094
-0.423227
-0.474476
-0.588352
-0.739576
-0.885541
-0.975714
-0.959865
-0.799063
-0.480699
-0.030985
0.484063
0.972758
1.342580
1.525586
1.492680
1.252449
0.842148
0.318992
-0.246324
-0.773856
-1.181564
-1.403880
-1.415026
-1.234144
-0.901291
-0.443838
0.133262
0.817292
1.539699
2.161586
2.525264
2.541837
2.246112
1.777691
1.305266
0.943665
0.708006
0.527955
0.313532
0.027257
-0.289922
-0.552817
-0.693252
-0.705666
-0.656066
-0.650080
-0.768603
-1.005999
-1.259149
-1.384715
-1.289158
-0.988357
-0.594095
-0.239005
-0.001002
0.114338
0.136422
0.089706
-0.017943
-0.191518
-0.443927
-0.783045
-1.184885
-1.567950
-1.796981
-1.730849
-1.294906
-0.533033
0.395580
1.274099
1.907242
2.179879
2.071340
1.635259
0.973274
0.216250
-0.497171
-1.051242
-1.377557
-1.459142
-1.324191
-1.044800
-0.732582
-0.513492
-0.489192
-0.707508
-1.148454
-1.723837
-2.298467
-2.736806
-2.956074
-2.953041
-2.786858
-2.532546
-2.238749
-1.917442
-1.569408
-1.217773
-0.912297
-0.697771
-0.577867
-0.510638
-0.441758
-0.345442
-0.237135
-0.154386
-0.132948
-0.197268
-0.358440
-0.608540
-0.911668
-1.198841
-1.381023
-1.389250
-1.217212
-0.925142
-0.601385
-0.317461
-0.106300
0.031557
0.105190
0.114038
0.048605
-0.089919
-0.271306
-0.443645
-0.568196
-0.651998
-0.744577
-0.896875
-1.117199
-1.361666
-1.562709
-1.671058
-1.687507
-1.670923
-1.714273
-1.891448
-2.201736
-2.551334
-2.784987
-2.746354
-2.342435
-1.591410
-0.628348
0.342662
1.131276
1.639688
1.892228
1.990477
2.021683
1.987824
1.805008
1.372121
0.665082
-0.206543
-1.025166
-1.563772
-1.702492
-1.496583
-1.148222
-0.889216
-0.848496
-0.995714
-1.197888
-1.339053
-1.405416
-1.479345
-1.668790
-2.034544
-2.554251
-3.127424
-3.610289
-3.871212
-3.852831
-3.606700
-3.265186
-2.956128
-2.713816
-2.451706
-2.024355
-1.338147
-0.431908
0.521955
1.286464
1.655701
1.530635
0.949564
0.078879
-0.821434
-1.459555
-1.606226
-1.204035
-0.435160
0.329028
0.706809
0.503499
-0.207796
-1.155119
-2.016825
-2.565987
-2.757176
-2.719967
-2.652751
-2.688097
-2.840110
-3.060794
-3.321139
-3.631731
-4.001809
-4.391895
-4.707488
-4.840197
-4.723914
-4.365766
-3.834951
-3.219000
-2.571607
-1.884907
-1.113665
-0.243609
0.643948
1.365701
1.711937
1.568544
0.998023
0.218193
-0.493953
-0.905437
-0.902436
-0.527266
0.039229
0.556804
0.832963
0.795100
0.489093
0.024629
-0.482690
-0.943877
-1.310163
-1.582771
-1.812755
-2.067738
-2.365003
-2.620375
-2.674972
-2.396673
-1.773640
-0.925663
-0.041005
0.705976
1.216258
1.489167
1.601822
1.657101
1.724318
1.796851
1.789752
1.587043
1.114607
0.394083
-0.452372
-1.251082
-1.859603
-2.236536
-2.451608
-2.631903
-2.884921
-3.246660
-3.679077
-4.109758
-4.481920
-4.773908
-4.968595
-5.004258
-4.773722
-4.204331
-3.363285
-2.479571
-1.827592
-1.543817
-1.524499
-1.496036
-1.210114
-0.623795
0.060900
0.537093
0.625334
0.417755
0.219714
0.353802
0.977035
2.004965
3.160294
4.114568
4.647290
4.735044
4.522274
4.197942
3.871646
3.537268
3.129087
2.607878
2.010225
1.433693
0.982483
0.716741
0.626587
0.637013
0.652041
0.629023
0.637947
0.852024
1.457041
2.525206
3.926314
5.334583
6.343857
6.638706
6.125556
4.953312
3.432189
1.917558
0.711271
-0.010116
-0.233144
-0.082668
0.277454
0.768367
1.449172
2.437705
3.745421
5.164040
6.321480
6.885310
6.754458
6.093657
5.213690
4.405988
3.822308
3.441168
3.131923
2.777137
2.367999
2.010304
1.853586
2.003570
2.465233
3.135171
3.847428
4.454384
4.891588
5.176486
5.350720
5.431105
5.406715
5.253740
4.937699
4.418659
3.679112
2.754664
1.740828
0.778252
0.024122
-0.390195
-0.403351
-0.057280
0.483363
0.951208
1.070533
0.688880
-0.156951
-1.286209
-2.468215
-3.488552
-4.185221
-4.488608
-4.449267
-4.200419
-3.854913
-3.416828
-2.794103
-1.911227
-0.823116
0.271201
1.121693
1.546413
1.495226
1.042847
0.347994
-0.390024
-0.972802
-1.244575
-1.132746
-0.676618
-0.014427
0.690324
1.342016
1.942565
2.521875
3.038333
3.360717
3.356834
2.999598
2.394035
1.716742
1.126822
0.702219
0.424704
0.214623
-0.010010
-0.293521
-0.645926
-1.070274
-1.571564
-2.128238
-2.652188
-2.986967
-2.975086
-2.565268
-1.876326
-1.154266
-0.643944
-0.463947
-0.567007
-0.799783
-1.008034
-1.115960
-1.135079
-1.106377
-1.027322
-0.824866
-0.398966
0.293329
1.178506
2.077227
2.773210
3.093506
2.956162
2.368948
1.399155
0.146702
-1.264519
-2.680343
-3.910717
-4.747954
-5.017179
-4.639528
-3.678256
-2.338660
-0.899402
0.402294
1.448880
2.223708
2.735499
2.967792
2.880245
2.441154
1.667167
0.651072
-0.433276
-1.353620
-1.875076
-1.842662
-1.259021
-0.310507
0.691814
1.444758
1.789545
1.758262
1.496655
1.136989
0.727376
0.252395
-0.299135
-0.881069
-1.386163
-1.690294
-1.711464
-1.433409
-0.876091
-0.062895
0.956272
2.045136
2.969472
3.483734
3.459501
2.943180
2.106834
1.163221
0.305281
-0.337042
-0.726298
-0.907807
-0.957669
-0.927546
-0.830801
-0.672021
-0.479089
-0.305828
-0.205514
-0.190080
-0.200943
-0.123812
0.146664
0.631225
1.233599
1.775982
2.082031
2.058657
1.729803
1.213767
0.674103
0.265520
0.079594
0.116846
0.317849
0.633047
1.057643
1.583365
2.116263
2.468508
2.463165
2.063725
1.410783
0.748288
0.312908
0.247900
0.559042
1.120552
1.730343
2.193178
2.396128
2.337208
2.094899
1.773664
1.465150
1.224860
1.052179
0.889531
0.662249
0.342745
-0.012790
-0.292215
-0.400621
-0.322217
-0.131523
0.046103
0.101711
0.004745
-0.177038
-0.318441
-0.318043
-0.167176
0.044289
0.192434
0.205531
0.110908
0.018785
0.061876
0.327854
0.817046
1.440819
2.057784
2.528468
2.761645
2.736662
2.503839
2.167475
1.848935
1.634607
1.535983
1.496585
1.448530
1.373147
1.309975
1.304784
1.344877
1.342865
1.188777
0.832380
0.332030
-0.167905
-0.517684
-0.647848
-0.599691
-0.478620
-0.370773
-0.286029
-0.155945
0.124273
0.634950
1.380421
2.272807
3.161737
3.893478
4.362321
4.526344
4.394960
4.014602
3.459061
2.814309
2.159990
1.553977
1.018742
0.539439
0.086508
-0.349831
-0.739155
-1.017744
-1.117565
-0.999194
-0.673763
-0.209794
0.282049
0.695381
0.989453
1.215082
1.464526
1.771781
2.049282
2.127275
1.877719
1.334304
0.718414
0.345217
0.467026
1.147030
2.227554
3.405009
4.375702
4.972944
5.210236
5.213150
5.111759
4.978308
4.830573
4.667201
4.494867
4.325816
4.155835
3.956649
3.701590
3.404361
3.133753
2.985470
3.022703
3.218206
3.438492
3.496647
3.253485
2.697013
1.940715
1.156901
0.509585
0.117889
0.039079
0.264573
0.730453
1.339675
1.996504
2.643168
3.264963
3.851954
4.360253
4.715184
4.848058
4.737014
4.431828
4.051178
3.754863
3.700089
3.984074
4.587021
5.352097
6.033920
6.409066
6.387322
6.042261
5.544545
5.064339
4.708549
4.506113
4.428841
4.429106
4.469498
4.530832
4.605213
4.686408
4.764305
4.824648
4.850670
4.823949
4.728280
4.559647
4.336059
4.099942
3.911486
3.831137
3.892236
4.076750
4.311817
4.492968
4.522827
4.342857
3.940017
3.333456
2.560798
1.671594
0.723387
-0.223093
-1.108498
-1.872529
-2.445959
-2.755846
-2.754953
-2.457791
-1.952407
-1.369220
-0.822165
-0.368158
-0.012942
0.259399
0.468200
0.632747
0.770750
0.897496
1.027692
1.169577
1.309892
1.421618
1.507690
1.621445
1.819683
2.106961
2.435277
2.739861
2.975634
3.137046
3.236455
3.255174
3.128809
2.785836
2.199540
1.420556
0.575292
-0.178874
-0.721376
-1.013809
-1.097883
-1.059227
-0.985000
-0.932560
-0.913926
-0.900270
-0.844124
-0.701619
-0.444569
-0.072596
0.373053
0.812842
1.157860
1.344330
1.349487
1.187625
0.899313
0.539000
0.160995
-0.189175
-0.469003
-0.623485
-0.581936
-0.287036
0.254950
0.946110
1.624025
2.128551
2.364559
2.329773
2.098749
1.778345
1.469217
1.250977
1.177352
1.266817
1.493046
1.789779
2.076174
2.288536
2.398098
2.408572
2.342635
2.233548
2.127920
2.083415
2.147705
2.334041
2.617592
2.953177
3.293305
3.589562
3.785316
3.823914
3.678063
3.374234
2.984392
2.588914
2.241587
1.961401
1.746452
1.588237
1.475032
1.389351
1.309804
1.222232
1.127268
1.026884
0.907040
0.747305
0.543472
0.312381
0.087472
-0.079247
-0.123614
0.002709
0.299275
0.705354
1.118981
1.435066
1.581235
1.533426
1.310675
0.961576
0.549204
0.135090
-0.235917
-0.548260
-0.820772
-1.095677
-1.412127
-1.777358
-2.149598
-2.443101
-2.562137
-2.453170
-2.138506
-1.698597
-1.213674
-0.714906
-0.188599
0.373722
0.932585
1.407018
1.718676
1.831615
1.758685
1.538585
1.214467
0.837257
0.478799
0.222997
0.131389
0.209692
0.400125
0.609674
0.765177
0.858036
0.939669
1.068021
1.245292
1.399112
1.432545
1.305986
1.076175
0.856529
0.735105
0.717082
0.732243
0.692398
0.546403
0.297470
-0.012545
-0.333118
-0.631719
-0.899724
-1.136032
-1.327460
-1.441123
-1.430033
-1.249572
-0.876238
-0.316207
0.392886
1.176227
1.922038
2.506576
2.836479
2.877869
2.656071
2.236831
1.702560
1.129909
0.576800
0.082162
-0.328412
-0.637856
-0.838275
-0.935639
-0.945245
-0.870482
-0.681207
-0.318407
