EVENT_NAME: EMILIA_2ND_SHOCK
EVENT_ID: IT-2012-0011
EVENT_DATE_YYYYMMDD: 20120529
EVENT_TIME_HHMMSS: 070002
EVENT_LATITUDE_DEGREE: 44.8417
EVENT_LONGITUDE_DEGREE: 11.0657
EVENT_DEPTH_KM: 8.1
HYPOCENTER_REFERENCE: INGV-CNT_Seismic_Bulletin
MAGNITUDE_W: 6.0
MAGNITUDE_W_REFERENCE: RCMT-INGV
MAGNITUDE_L: 5.8
MAGNITUDE_L_REFERENCE: INGV-CNT_Seismic_Bulletin
FOCAL_MECHANISM: TF
NETWORK: TV
STATION_CODE: MIR06
STATION_NAME: PIEVE DI CORIANO
STATION_LATITUDE_DEGREE: 45.040100
STATION_LONGITUDE_DEGREE: 11.087400
STATION_ELEVATION_M: 
LOCATION: 
SENSOR_DEPTH_M: 
VS30_M/S: 
SITE_CLASSIFICATION_EC8: C*
MORPHOLOGIC_CLASSIFICATION: 
EPICENTRAL_DISTANCE_KM: 22.1
EARTHQUAKE_BACKAZIMUTH_DEGREE: 184.4
DATE_TIME_FIRST_SAMPLE_YYYYMMDD_HHMMSS: 20120529_065933.000
DATE_TIME_FIRST_SAMPLE_PRECISION: milliseconds
SAMPLING_INTERVAL_S: 0.005000
NDATA: 30001
DURATION_S: 150.005
STREAM: HNN
UNITS: cm/s^2
INSTRUMENT: sensor = Episensor FBA ES-T [Kinemetrics] | digitizer = Unknown [Unknown]
INSTRUMENT_ANALOG/DIGITAL: D
INSTRUMENTAL_FREQUENCY_HZ: 
INSTRUMENTAL_DAMPING: 
FULL_SCALE_G: 
N_BIT_DIGITAL_CONVERTER: 
PGA_CM/S^2: -115.474688
TIME_PGA_S: 44.820000
BASELINE_CORRECTION: BASELINE REMOVED
FILTER_TYPE: BUTTERWORTH
FILTER_ORDER: 2
LOW_CUT_FREQUENCY_HZ: 0.060
HIGH_CUT_FREQUENCY_HZ: 40.000
LATE/NORMAL_TRIGGERED: NT
DATABASE_VERSION: DYNA 1.0
HEADER_FORMAT: DYNA 1.2
DATA_TYPE: ACCELERATION
PROCESSING: manual (Paolucci et al., 2011)
DATA_TIMESTAMP_YYYYMMDD_HHMMSS: 
DATA_LICENSE: CC-BY4_0 (http://creativecommons.org/licenses/by/4.0/)
DATA_CITATION: ESM working group (2015), European Strong-Motion database, version 0.1, Network Activity 3: Networking acceleration networks and SM data users. Project NERA (www.nera-eu.org)
DATA_CREATOR: ESM working group
ORIGINAL_DATA_MEDIATOR_CITATION: Orfeus - European Integrated Data Archive (EIDA) http://www.orfeus-eu.org/eida/
ORIGINAL_DATA_MEDIATOR: Orfeus - European Integrated Data Archive (EIDA)
ORIGINAL_DATA_CREATOR_CITATION: 
ORIGINAL_DATA_CREATOR: network: TV (INGV Experiments Network); owner: Istituto Nazionale di Geofisica e Vulcanologia
USER1: 
USER2: 
USER3: 
USER4: 
USER5: 
[...]
-2.005862
-3.756139
-4.872413
-5.099085
-4.451864
-3.281979
-2.138356
-1.418335
-1.132823
-1.058207
-1.103402
-1.374000
-1.755185
-1.647819
-0.463008
1.678954
3.998725
5.724398
6.532633
6.458667
5.590761
3.949998
1.705316
-0.614911
-2.383276
-3.382956
-3.868833
-4.133786
-4.237965
-4.174992
-4.063661
-4.034313
-3.996887
-3.649912
-2.740917
-1.229264
0.777263
3.053089
5.214697
6.842839
7.662704
7.581473
6.756907
5.708534
5.142752
5.513201
6.698544
8.032916
8.698127
8.240757
6.779768
4.745760
2.526730
0.414537
-1.291446
-2.366954
-2.831676
-2.891102
-2.722273
-2.395802
-1.988772
-1.703358
-1.785611
-2.304943
-3.123525
-4.086265
-5.099905
-6.065620
-6.885513
-7.469288
-7.600784
-6.922233
-5.251411
-2.848798
-0.242196
2.113398
3.945127
5.105063
5.511046
5.153357
4.251208
3.327117
2.819633
2.615086
2.248493
1.525994
0.687171
0.065122
-0.106882
0.354434
1.448608
2.733585
3.460317
3.094544
1.632937
-0.501554
-2.645213
-4.061967
-4.279633
-3.413479
-2.106510
-1.111271
-0.859698
-1.332334
-2.252213
-3.289977
-4.045366
-4.046178
-3.055560
-1.357948
0.446744
1.831885
2.389288
1.769254
-0.087865
-2.747358
-5.513190
-7.798259
-9.163243
-9.182376
-7.616069
-4.838385
-1.887509
0.108445
0.547284
-0.529634
-2.649433
-5.102902
-7.118420
-8.077931
-7.678144
-5.953500
-3.170922
0.290054
3.925551
7.084163
9.206520
10.162605
10.234524
9.793385
9.080616
8.159497
6.898421
5.033001
2.344246
-1.172962
-5.275725
-9.541769
-13.397375
-16.160654
-17.293859
-16.687414
-14.678652
-11.922797
-9.176752
-6.849071
-4.715139
-2.301522
0.537621
3.603709
6.690786
9.633605
12.097211
13.586347
13.745730
12.638484
10.756358
8.720866
6.927484
5.445880
4.133778
2.754681
1.073598
-1.024510
-3.474921
-6.095861
-8.629537
-10.687485
-11.792268
-11.556249
-9.805513
-6.670842
-2.734011
1.047837
3.842703
5.398354
5.916827
5.658202
4.911997
4.210344
4.164409
4.957078
6.156959
7.054796
7.097169
6.157396
4.623556
3.181920
2.343389
2.077500
1.849326
1.062683
-0.409686
-2.114656
-3.494644
-4.464793
-5.440040
-6.793927
-8.375508
-9.565616
-9.738540
-8.623791
-6.307107
-3.136579
0.283948
3.262865
5.378990
6.664418
7.452941
8.064357
8.554622
8.707986
8.239584
6.965483
4.847036
2.059731
-0.901706
-3.317206
-4.628301
-4.798666
-4.226954
-3.283401
-2.016810
-0.331696
1.664306
3.607250
5.212607
6.587758
8.065054
9.761426
11.446134
12.738111
13.246443
12.589220
10.500210
7.089382
3.033490
-0.596598
-2.864076
-3.497508
-3.007659
-2.252615
-1.869986
-2.162509
-3.304908
-5.276103
-7.590861
-9.405293
-10.030225
-9.340616
-7.728568
-5.731465
-3.752487
-2.076415
-0.952517
-0.478159
-0.383884
-0.112028
0.694696
1.875294
3.122790
4.530695
6.487608
9.103640
11.985349
14.544786
16.391155
17.493378
18.072166
18.358248
18.445370
18.230284
17.419813
15.820977
13.725970
11.814685
10.574261
9.854864
9.025928
7.585812
5.534214
3.100669
0.401635
-2.405953
-4.950617
-6.892384
-8.110237
-8.557362
-8.218119
-7.291987
-6.171991
-5.072865
-3.759106
-1.765785
1.075328
4.358042
7.423245
9.938461
12.049743
14.043117
15.997360
17.683376
18.743547
19.033533
18.724533
18.035990
17.006117
15.542520
13.619489
11.479867
9.635629
8.508615
8.016609
7.586442
6.591786
4.749220
2.149067
-0.918570
-4.075858
-6.955260
-9.357505
-11.249978
-12.499715
-12.751381
-11.803031
-9.997076
-7.982557
-6.223971
-5.008962
-4.755586
-5.916758
-8.505845
-11.868965
-14.986428
-17.002592
-17.551447
-16.726400
-14.837560
-12.191795
-9.074968
-5.817445
-2.668825
0.342268
3.242297
5.904756
8.183254
10.180114
12.163191
14.109213
15.489539
15.709076
14.703054
13.005941
11.333387
10.148510
9.467668
8.915286
7.977763
6.310972
3.877694
0.908228
-2.139588
-4.740603
-6.670891
-8.045567
-8.891703
-9.098121
-8.720126
-7.719097
-5.721115
-2.683020
0.756396
3.980887
6.794531
9.183963
11.325626
13.547093
15.924697
18.101723
19.433844
19.349073
17.883224
15.727921
13.638844
12.052549
11.142152
10.858642
10.875027
10.630004
9.610460
7.742258
5.453283
3.329774
1.800215
0.982797
0.550068
-0.139078
-1.597060
-4.138093
-8.116529
-13.544075
-19.584429
-25.029238
-29.067480
-31.541170
-32.796528
-32.934067
-31.397646
-28.024960
-23.610577
-18.715033
-13.204280
-7.328932
-1.863747
3.050861
8.008307
13.058097
17.350246
20.203068
21.490738
21.004070
18.646133
15.136363
11.390123
7.555602
3.483741
-0.454059
-3.632085
-5.781832
-6.935763
-7.206255
-7.055587
-7.213937
-7.941483
-9.088351
-10.846796
-13.569743
-17.126877
-20.950682
-24.318941
-26.649965
-28.043133
-29.289335
-30.784389
-31.738949
-31.389261
-30.453098
-29.617720
-27.731005
-23.984159
-19.426216
-14.477305
-9.027322
-4.194867
-0.142477
3.773683
6.136206
5.681960
3.366758
0.232892
-3.195808
-6.494171
-9.484281
-11.653182
-12.613837
-12.868795
-13.034986
-13.447841
-14.324883
-15.316995
-15.765100
-15.596970
-15.033835
-13.927619
-12.045907
-9.335794
-5.818027
-1.708422
2.561564
6.561051
9.965168
12.545266
14.171312
15.039058
15.797064
16.940290
18.222740
19.050959
19.105711
18.374226
16.833340
14.219228
10.378824
5.794991
1.231955
-2.702829
-5.317815
-6.315267
-6.597540
-7.349136
-8.642381
-9.794456
-10.367795
-10.228362
-9.293466
-7.670425
-5.708860
-3.748166
-1.982932
-0.469564
0.928532
2.504532
4.584187
7.471628
11.310585
15.883438
20.638903
24.879295
27.896528
29.069004
28.028795
24.918600
20.389891
15.126041
9.515013
4.033093
-0.311506
-2.442176
-2.177145
-0.400743
1.736866
3.585876
5.136982
6.719950
8.548872
10.435994
11.927064
12.647785
12.487567
11.471052
9.473163
6.283855
2.055096
-2.658263
-7.348783
-11.740067
-15.639658
-18.691212
-20.350410
-20.661800
-20.460545
-19.974413
-18.681089
-16.771832
-14.734888
-12.373922
-9.830859
-7.988991
-7.359632
-7.787646
-8.763291
-9.816164
-11.230848
-13.417031
-15.604029
-16.919136
-17.834934
-19.035952
-20.528963
-22.292526
-23.943880
-24.314880
-22.539040
-18.550468
-12.485077
-5.011345
2.160460
7.304028
9.846754
10.225943
9.177481
7.237115
4.654428
1.567554
-2.005708
-6.087708
-10.359628
-14.343061
-17.963280
-21.129246
-23.005297
-22.498926
-19.220364
-13.680947
-6.737004
1.074102
9.465747
17.796568
25.002167
30.231346
33.442883
35.358128
36.850571
38.262012
39.010754
37.862926
33.944141
27.706192
20.872742
15.312372
11.836635
9.978538
8.785331
7.804275
7.540908
9.054515
12.895510
18.413853
24.193419
29.013247
32.373428
34.266533
34.437473
31.913506
25.515579
15.014270
1.861403
-11.318364
-22.280077
-30.167383
-34.804790
-35.690262
-32.295452
-24.808840
-14.423144
-3.279412
6.465132
13.974063
19.596123
23.449219
24.719151
22.244085
15.673215
6.305894
-3.463201
-11.676413
-17.554499
-21.352020
-23.970406
-26.147860
-27.778337
-27.988998
-26.251101
-23.652430
-21.393812
-18.436813
-13.462342
-7.232745
-1.018668
4.281085
8.145210
11.414602
14.611692
16.891319
18.322723
18.910849
16.503103
9.267581
-2.193179
-15.658867
-28.205154
-37.643620
-44.018894
-48.282291
-50.125687
-49.047779
-45.632332
-40.239182
-33.033005
-25.080957
-17.166374
-8.692188
1.341192
13.106999
25.662186
37.541950
47.482220
54.588284
58.346859
58.602802
55.097389
47.240719
34.844730
18.933184
1.574114
-14.990456
-29.051100
-39.661369
-46.469036
-48.989574
-45.911858
-36.067554
-20.731260
-3.841847
11.199667
24.005497
35.590050
45.734753
53.004379
56.222061
55.343449
51.579388
46.598312
41.187778
35.028767
27.923103
20.771006
15.187447
12.434260
12.761894
15.481834
19.503002
24.011087
28.815065
34.004688
39.407619
44.434219
48.224121
50.038555
49.656864
47.207821
42.717743
35.760750
25.196701
10.099362
-8.404019
-27.672972
-46.046486
-62.617149
-75.441559
-82.913063
-85.555832
-84.231018
-78.628342
-68.598610
-55.010773
-39.506119
-24.285275
-11.129653
-0.802592
6.297676
10.054769
10.855783
9.198735
5.908424
2.621355
1.254607
3.035259
8.019569
15.379863
23.849037
31.900644
38.502155
43.736584
47.917088
50.846844
52.488937
53.364277
54.070782
55.008350
56.264030
57.313259
57.204330
55.207783
51.050243
44.883526
37.439190
29.875530
23.233438
18.146854
14.870535
13.347942
13.352183
14.530094
16.156139
17.135172
16.663210
14.740107
11.677150
7.189032
0.501190
-8.262497
-17.532703
-26.033348
-33.837090
-40.692211
-45.571945
-48.657578
-50.879185
-51.728287
-50.289604
-47.052311
-42.971790
-38.528038
-33.983635
-29.239281
-23.840004
-17.518309
-10.541656
-3.676744
2.230333
6.522540
8.783303
9.194206
8.363600
6.449763
3.123326
-1.547860
-6.879520
-12.514605
-18.738482
-25.098587
-30.081825
-33.018452
-34.428520
-34.147560
-30.859436
-23.495926
-12.477502
0.481484
13.648674
25.738752
35.803093
43.534092
49.046734
52.640324
55.021919
56.923744
58.705994
60.529945
62.494656
64.655472
66.854141
68.588814
69.356735
69.035187
67.839722
65.979095
63.384693
59.827347
55.199036
49.560837
43.018486
35.619785
27.286556
17.860819
7.297930
-4.190904
-16.091908
-27.561949
-37.625443
-45.628738
-51.471436
-55.393707
-57.663445
-58.411346
-57.715141
-55.979111
-54.023678
-52.437294
-51.228447
-50.476768
-50.523731
-51.083450
-51.195091
-50.395981
-48.963554
-47.101639
-44.815994
-42.183109
-39.047325
-34.903526
-29.356428
-22.376118
-14.263378
-5.506294
3.540884
12.567256
21.023836
28.576817
35.324852
41.104759
45.346611
47.609634
47.657394
45.481983
41.424038
35.599464
27.645016
17.610079
6.440684
-4.484234
-13.872988
-20.855696
-24.924101
-25.739037
-23.332108
-18.328232
-11.912702
-5.534055
-0.482687
2.263889
2.205832
-0.366698
-4.467799
-8.841805
-12.266478
-13.808064
-13.190533
-10.972943
-8.183254
-5.722566
-4.057423
-3.197773
-2.773086
-2.182945
-0.838751
1.531070
4.604509
7.427862
8.827624
8.051343
5.069135
0.360606
-5.508052
-12.177159
-19.450546
-26.994965
-34.170406
-40.301903
-45.172050
-49.089573
-52.404800
-55.206207
-57.488976
-59.105572
-59.432655
-57.709358
-53.928062
-48.832035
-43.066513
-37.058582
-31.338820
-26.131165
-21.212881
-16.512495
-12.093374
-7.837178
-3.719978
0.019191
3.027303
4.902703
5.295935
4.065217
1.447430
-1.817176
-4.570167
-5.506522
-3.683827
0.937537
7.427265
14.347322
20.517761
25.496868
29.180504
31.193081
31.063448
28.897335
25.560913
22.075134
19.006962
16.443592
14.244932
12.356819
10.966590
10.201594
9.874817
9.768918
10.001361
11.012895
13.271890
16.912577
21.577221
26.624149
31.340527
34.846985
36.018860
33.652187
26.827791
15.625595
1.787894
-11.772289
-22.628389
-30.052858
-34.671135
-37.362980
-38.768803
-39.513035
-40.338860
-41.672047
-42.938217
-42.673370
-39.746387
-34.093147
-26.166489
-16.863234
-7.918186
-0.500875
6.179546
13.013953
19.103182
23.567123
27.317730
31.473942
36.063946
40.950394
45.725952
49.246815
51.160469
52.193584
52.542645
52.096626
51.383720
50.840607
50.124310
48.717281
46.525074
43.614300
40.088558
36.487385
33.514992
31.350616
29.810551
28.808077
28.298019
28.215549
28.521307
29.018194
29.425482
29.792595
30.327950
30.860628
31.125721
31.347652
31.802101
32.080978
31.436466
29.604729
26.953701
24.071239
21.271042
18.396025
15.125844
11.264647
6.675831
1.327127
-4.398697
-9.709356
-13.903706
-16.559711
-17.258961
-15.769096
-12.524357
-8.477668
-4.523926
-1.153901
1.536530
3.658201
5.339665
6.606187
7.460965
8.079250
8.659108
9.015448
8.487660
6.266895
1.889589
-4.413648
-11.930500
-20.153679
-29.023397
-38.439659
-48.035168
-57.389149
-65.975075
-73.318436
-79.501358
-84.839417
-89.215797
-92.335434
-94.043114
-94.095901
-92.280830
-88.726540
-83.776794
-77.735863
-70.706406
-62.740341
-54.456799
-47.179096
-42.011082
-39.009270
-37.528141
-37.202034
-38.325813
-41.217869
-45.553368
-50.731724
-56.470802
-62.450844
-67.979301
-72.680107
-76.950455
-81.097038
-84.495529
-86.336540
-86.755547
-86.428101
-85.591949
-84.174240
-82.221466
-79.648094
-76.173134
-71.791245
-66.803291
-61.397110
-55.616238
-49.642654
-43.877205
-38.790756
-34.724522
-31.760391
-29.760223
-28.553564
-28.060629
-28.230068
-28.984764
-30.283850
-32.052818
-33.875343
-34.830162
-33.809414
-30.066523
-23.538349
-14.832066
-4.919493
5.368619
15.635333
25.698502
35.227268
43.748074
50.910862
56.556976
60.620853
63.141506
64.249763
64.084328
62.842453
60.855789
58.539215
56.332005
54.683414
53.996937
54.534603
56.403591
59.632980
64.173012
69.809616
76.159309
82.714836
88.868393
94.086945
98.242767
101.685745
104.854446
107.836220
110.360580
112.146782
113.135422
113.415550
113.104424
112.348808
111.305824
110.066063
108.630775
106.936806
104.931915
102.663857
100.204659
97.498932
94.392662
90.715843
86.307297
81.159401
75.447235
69.266975
62.663845
55.929630
49.502747
43.698162
38.606579
34.007496
29.450861
24.403055
18.161825
9.862105
-1.235874
-15.330988
-31.631973
-48.354198
-63.559025
-76.166542
-86.171616
-94.095184
-100.433983
-105.469048
-109.290428
-111.997520
-113.862053
-115.078110
-115.474686
-114.667656
-112.297859
-108.238152
-102.931808
-97.308220
-92.122284
-87.682243
-84.256653
-82.177856
-81.425240
-81.642975
-82.557411
-83.963722
-85.537590
-86.970924
-88.141541
-89.129555
-90.170845
-91.541534
-93.423721
-95.811256
-98.465843
-100.988464
-103.011032
-104.349823
-105.003792
-105.088837
-104.747169
-103.988091
-102.682327
-100.843750
-98.780586
-96.805176
-94.902924
-92.841599
-90.478073
-87.843781
-85.150063
-82.609589
-79.965538
-76.675598
-72.684006
-68.225082
-63.074474
-56.738911
-48.863651
-38.948215
-26.341444
-11.028443
5.890335
22.688396
37.801865
50.277962
59.906895
67.100159
72.482979
76.484940
79.356895
81.496429
83.462395
85.578796
87.796242
89.965813
91.896004
93.223175
93.670082
93.451805
93.163170
93.171646
93.303062
93.357834
93.657478
94.648621
96.240791
97.911003
99.281570
100.397881
101.406013
102.180237
102.698006
103.471725
104.971909
106.950653
108.769623
110.015678
110.620743
110.672188
110.046707
108.252090
105.007004
100.738029
96.155083
91.784325
87.964470
84.744118
81.923576
79.466591
77.566940
76.284744
75.398758
74.628716
73.891930
73.264946
72.687836
71.847366
70.440796
68.370773
65.416916
60.860607
54.002247
45.089546
34.905151
23.354654
9.628300
-6.085667
-22.295090
-37.813351
-52.507561
-66.184448
-77.992279
-87.344841
-94.403709
-99.526176
-102.892181
-104.561554
-104.645866
-103.399139
-101.123695
-98.011833
-94.071167
-89.314621
-83.942757
-78.082108
-71.527710
-64.097351
-56.225521
-48.804348
-42.218338
-36.046494
-30.044697
-24.776024
-20.877661
-18.290697
-16.627666
-16.008783
-17.093788
-20.122192
-24.347383
-28.947678
-34.079247
-40.221729
-46.798557
-52.434292
-56.494011
-59.444443
-61.641846
-62.610397
-61.815800
-59.456429
-55.983765
-51.474689
-46.034748
-40.113045
-33.999863
-27.691935
-21.319187
-15.236648
-9.884572
-5.661995
-2.701260
-0.801385
0.400355
1.245236
1.921095
2.464344
3.017956
4.088484
6.248246
9.494632
13.347874
17.682337
22.865046
28.984188
35.607967
42.329807
48.922882
55.008404
60.079739
63.889053
66.584778
68.396675
69.254517
68.782234
66.696457
63.220814
58.904041
54.003815
48.509243
42.643353
36.739246
30.920979
25.321714
20.200302
15.600117
11.182383
6.660104
2.322231
-1.228345
-3.884529
-6.250898
-8.961871
-11.961171
-14.728067
-17.205980
-19.975527
-23.363556
-26.998655
-30.426311
-33.507809
-36.066750
-37.894131
-39.124615
-39.831654
-39.597725
-38.274170
-36.463360
-34.663506
-32.929230
-31.366600
-29.770027
-27.418333
-24.005058
-19.776566
-14.766914
-8.786299
-1.955421
5.083262
11.378566
16.110264
19.068451
20.638006
21.046919
20.096104
17.713797
14.127833
9.924799
6.180811
3.520548
1.161264
-2.096146
-6.126663
-9.639769
-12.017118
-13.799103
-15.325316
-16.310184
-16.510590
-15.692030
-13.582959
-10.434095
-6.932642
-3.451150
0.201230
4.407120
9.276521
14.483930
19.515202
23.903828
27.396032
30.241247
32.863865
35.034851
36.175583
36.330292
35.953091
35.135666
33.542797
30.871838
27.415327
23.819759
20.075212
15.822795
11.578872
8.121583
5.336431
2.951474
0.978431
-0.865903
-2.603077
-3.974186
-5.508639
-7.858665
-10.956191
-14.721953
-19.125612
-23.759504
-28.224192
-32.334919
-35.891048
-38.800854
-41.243896
-43.376633
-45.114578
-46.218113
-46.300800
-44.887100
-41.658352
-36.593327
-29.919842
-22.205847
-14.502398
-7.892517
-2.924541
0.221881
1.711528
2.430585
3.431915
5.009550
7.008216
9.506554
12.566653
15.802903
18.457165
19.693661
19.193438
17.685940
16.366598
15.610136
14.664864
12.649924
9.441526
5.441152
0.850097
-4.457687
-10.458549
-16.636551
-22.190382
-26.585182
-29.743481
-31.662397
-32.252502
-31.670443
-30.455191
-29.185379
-28.006079
-26.588591
-24.679794
-22.399790
-19.800653
-16.492491
-11.992864
-6.285562
0.241586
7.238854
14.441331
21.527393
28.199389
34.257858
39.610683
44.271599
48.275467
51.637291
54.375893
56.496078
57.969501
58.718437
58.618519
57.581081
55.628750
52.869221
49.469959
45.679314
41.621155
36.980564
31.263847
24.411150
16.883062
9.392917
2.839978
-1.750607
-3.874578
-4.348725
-4.307369
-3.512542
-1.705499
-0.072135
1.010236
2.543402
4.511314
6.492830
8.836375
11.485132
14.323873
17.459389
20.170118
21.851145
22.731276
22.814518
21.770067
19.516567
16.469213
13.397525
10.839820
8.886328
7.480309
6.468800
5.465607
4.362089
3.690604
3.523683
2.988217
1.757199
0.593979
0.141040
0.243182
0.203463
-0.621089
-2.392739
-4.906179
-7.718536
-10.429409
-12.983286
-15.300250
-17.052746
-17.938240
-17.947580
-17.596247
-17.502041
-17.708178
-17.990915
-18.360075
-18.831039
-19.121290
-18.769739
-17.560196
-15.770595
-13.793003
-11.610110
-8.898902
-5.502684
-1.591312
2.429905
6.017486
8.727605
10.422304
11.169150
11.051119
10.111584
8.426755
6.158557
3.519931
0.808885
-1.668596
-3.811419
-5.580618
-6.799422
-7.304176
-6.959420
-5.581213
-3.142713
0.047945
3.415561
6.344558
8.443090
9.656229
10.170143
10.166929
9.650100
8.577871
7.060456
5.264102
3.286122
1.291801
-0.449018
-1.609702
-1.808420
-1.302270
-1.078028
-0.941887
0.162486
1.308010
1.262704
1.233199
2.149088
3.539443
5.551607
8.129278
10.984383
14.789952
19.580299
24.392027
28.947184
33.319775
36.688725
37.831211
36.766205
34.476566
31.096771
26.488846
21.355959
16.201008
11.396527
7.908155
6.009276
5.103491
4.988061
5.457476
5.951749
6.265749
6.314575
5.672704
4.185615
2.567038
1.764917
1.931729
2.736415
4.172595
6.151860
8.133361
9.807898
11.353323
12.868242
14.122018
14.860139
