EVENT_NAME: EMILIA_2ND_SHOCK
EVENT_ID: IT-2012-0011
EVENT_DATE_YYYYMMDD: 20120529
EVENT_TIME_HHMMSS: 070002
EVENT_LATITUDE_DEGREE: 44.8417
EVENT_LONGITUDE_DEGREE: 11.0657
EVENT_DEPTH_KM: 8.1
HYPOCENTER_REFERENCE: INGV-CNT_Seismic_Bulletin
MAGNITUDE_W: 6.0
MAGNITUDE_W_REFERENCE: RCMT-INGV
MAGNITUDE_L: 5.8
MAGNITUDE_L_REFERENCE: INGV-CNT_Seismic_Bulletin
FOCAL_MECHANISM: TF
NETWORK: TV
STATION_CODE: MIR08
STATION_NAME: QUARANTOLI 2
STATION_LATITUDE_DEGREE: 44.916900
STATION_LONGITUDE_DEGREE: 11.089500
STATION_ELEVATION_M: 
LOCATION: 
SENSOR_DEPTH_M: 
VS30_M/S: 
SITE_CLASSIFICATION_EC8: C*
MORPHOLOGIC_CLASSIFICATION: 
EPICENTRAL_DISTANCE_KM: 8.6
EARTHQUAKE_BACKAZIMUTH_DEGREE: 192.7
DATE_TIME_FIRST_SAMPLE_YYYYMMDD_HHMMSS: 20120529_065929.000
DATE_TIME_FIRST_SAMPLE_PRECISION: milliseconds
SAMPLING_INTERVAL_S: 0.005000
NDATA: 105
DURATION_S: 
STREAM: HNE
UNITS: cm/s^2
INSTRUMENT: sensor = Episensor FBA ES-T [Kinemetrics] | digitizer = Unknown [Unknown]
INSTRUMENT_ANALOG/DIGITAL: D
INSTRUMENTAL_FREQUENCY_HZ: 
INSTRUMENTAL_DAMPING: 
FULL_SCALE_G: 
N_BIT_DIGITAL_CONVERTER: 
PGA_CM/S^2: 218.970373
TIME_PGA_S: 42.200000
BASELINE_CORRECTION: BASELINE REMOVED
FILTER_TYPE: BUTTERWORTH
FILTER_ORDER: 2
LOW_CUT_FREQUENCY_HZ: 0.050
HIGH_CUT_FREQUENCY_HZ: 40.000
LATE/NORMAL_TRIGGERED: NT
DATABASE_VERSION: DYNA 1.0
HEADER_FORMAT: DYNA 1.2
DATA_TYPE: ACCELERATION RESPONSE SPECTRUM
PROCESSING: manual (Paolucci et al., 2011)
DATA_TIMESTAMP_YYYYMMDD_HHMMSS: 
DATA_LICENSE: CC-BY4_0 (http://creativecommons.org/licenses/by/4.0/)
DATA_CITATION: ESM working group (2015), European Strong-Motion database, version 0.1, Network Activity 3: Networking acceleration networks and SM data users. Project NERA (www.nera-eu.org)
DATA_CREATOR: ESM working group
ORIGINAL_DATA_MEDIATOR_CITATION: Orfeus - European Integrated Data Archive (EIDA) http://www.orfeus-eu.org/eida/
ORIGINAL_DATA_MEDIATOR: Orfeus - European Integrated Data Archive (EIDA)
ORIGINAL_DATA_CREATOR_CITATION: 
ORIGINAL_DATA_CREATOR: network: TV (INGV Experiments Network); owner: Istituto Nazionale di Geofisica e Vulcanologia
USER1: 
USER2: 
USER3: 
USER4: 
USER5: 
    0.010000   219.765121
    0.020000   230.044937
    0.022000   243.659668
    0.025000   244.207077
    0.029000   227.232651
    0.030000   223.410965
    0.032000   238.014435
    0.035001   243.363556
    0.036000   251.296631
    0.040000   305.600067
    0.041999   305.831390
    0.044001   316.113403
    0.045000   323.210602
    0.046000   325.156128
    0.048001   346.511841
    0.050000   366.701263
    0.054999   370.296265
    0.059999   357.855652
    0.064998   426.780487
    0.067002   409.130066
    0.069999   342.684387
    0.075002   369.413757
    0.080000   434.166656
    0.084998   477.023865
    0.090001   479.277191
    0.095003   594.857300
    0.100000   654.195679
    0.109999   563.455322
    0.120005   470.530762
    0.130005   444.019287
    0.132996   440.894043
    0.139997   451.412750
    0.149993   486.068359
    0.160000   466.518890
    0.170010   510.573181
    0.179986   686.836853
    0.190006   806.412903
    0.200000   716.258911
    0.220022   453.366150
    0.239981   474.972839
    0.250000   526.741577
    0.260010   628.108765
    0.280034   677.379028
    0.290023   618.632568
    0.300030   556.264343
    0.320000   657.734497
    0.340020   701.159119
    0.350017   641.057678
    0.359971   586.936340
    0.379939   623.259216
    0.400000   543.560913
    0.419992   475.835449
    0.439947   468.691315
    0.450045   419.892517
    0.459982   362.036926
    0.480077   273.294769
    0.500000   255.088516
    0.550055   328.827942
    0.599880   325.009216
    0.650195   355.440613
    0.667111   301.295929
    0.699790   254.654572
    0.750188   285.856842
    0.800000   237.221069
    0.850340   174.588684
    0.900090   143.762878
    0.949668   123.195641
    1.000000   131.615021
    1.100110   173.900848
    1.200480   149.365967
    1.300390   113.095070
    1.400560   104.823067
    1.499250    78.995682
    1.600000    71.756165
    1.700680    65.651825
    1.798561    62.395584
    1.901141    58.176815
    2.000000    61.000309
    2.197802    71.011612
    2.398082    58.608330
    2.500000    48.529797
    2.597403    41.736137
    2.801121    37.861778
    3.003003    33.855011
    3.205128    29.439007
    3.401361    29.985363
    3.496503    30.242388
    3.597122    28.993099
    3.802281    22.897875
    4.000000    16.193727
    4.201681    15.178381
    4.405286    14.187254
    4.608295    15.322603
    4.807692    15.702077
    5.000000    14.928283
    5.494505    12.537861
    5.988024     9.768105
    6.493506     7.139193
    6.993007     5.858685
    7.518797     5.051305
    8.000000     4.396002
    8.474576     3.859295
    9.009009     3.418067
    9.523809     3.051148
   10.000000     2.742395
