EVENT_NAME: EMILIA_2ND_SHOCK
EVENT_ID: IT-2012-0011
EVENT_DATE_YYYYMMDD: 20120529
EVENT_TIME_HHMMSS: 070002
EVENT_LATITUDE_DEGREE: 44.8417
EVENT_LONGITUDE_DEGREE: 11.0657
EVENT_DEPTH_KM: 8.1
HYPOCENTER_REFERENCE: INGV-CNT_Seismic_Bulletin
MAGNITUDE_W: 6.0
MAGNITUDE_W_REFERENCE: RCMT-INGV
MAGNITUDE_L: 5.8
MAGNITUDE_L_REFERENCE: INGV-CNT_Seismic_Bulletin
FOCAL_MECHANISM: TF
NETWORK: TV
STATION_CODE: MIR03
STATION_NAME: QUARANTOLI 1
STATION_LATITUDE_DEGREE: 44.938400
STATION_LONGITUDE_DEGREE: 11.104500
STATION_ELEVATION_M: 
LOCATION: 
SENSOR_DEPTH_M: 
VS30_M/S: 
SITE_CLASSIFICATION_EC8: C*
MORPHOLOGIC_CLASSIFICATION: 
EPICENTRAL_DISTANCE_KM: 11.2
EARTHQUAKE_BACKAZIMUTH_DEGREE: 195.9
DATE_TIME_FIRST_SAMPLE_YYYYMMDD_HHMMSS: 20120529_065927.000
DATE_TIME_FIRST_SAMPLE_PRECISION: milliseconds
SAMPLING_INTERVAL_S: 0.005000
NDATA: 18001
DURATION_S: 90.005
STREAM: HNN
UNITS: cm/s
INSTRUMENT: sensor = Episensor FBA ES-T [Kinemetrics] | digitizer = Unknown [Unknown]
INSTRUMENT_ANALOG/DIGITAL: D
INSTRUMENTAL_FREQUENCY_HZ: 
INSTRUMENTAL_DAMPING: 
FULL_SCALE_G: 
N_BIT_DIGITAL_CONVERTER: 
PGV_CM/S: 34.409569
TIME_PGV_S: 45.310000
BASELINE_CORRECTION: BASELINE REMOVED
FILTER_TYPE: BUTTERWORTH
FILTER_ORDER: 2
LOW_CUT_FREQUENCY_HZ: 0.070
HIGH_CUT_FREQUENCY_HZ: 40.000
LATE/NORMAL_TRIGGERED: NT
DATABASE_VERSION: DYNA 1.0
HEADER_FORMAT: DYNA 1.2
DATA_TYPE: VELOCITY
PROCESSING: manual (Paolucci et al., 2011)
DATA_TIMESTAMP_YYYYMMDD_HHMMSS: 
DATA_LICENSE: CC-BY4_0 (http://creativecommons.org/licenses/by/4.0/)
DATA_CITATION: ESM working group (2015), European Strong-Motion database, version 0.1, Network Activity 3: Networking acceleration networks and SM data users. Project NERA (www.nera-eu.org)
DATA_CREATOR: ESM working group
ORIGINAL_DATA_MEDIATOR_CITATION: Orfeus - European Integrated Data Archive (EIDA) http://www.orfeus-eu.org/eida/
ORIGINAL_DATA_MEDIATOR: Orfeus - European Integrated Data Archive (EIDA)
ORIGINAL_DATA_CREATOR_CITATION: 
ORIGINAL_DATA_CREATOR: network: TV (INGV Experiments Network); owner: Istituto Nazionale di Geofisica e Vulcanologia
USER1: 
USER2: 
USER3: 
USER4: 
USER5: 
[...]
-0.030956
-0.030994
-0.031036
-0.031078
-0.031115
-0.031149
-0.031178
-0.031191
-0.031189
-0.031189
-0.031204
-0.031222
-0.031226
-0.031215
-0.031203
-0.031207
-0.031228
-0.031267
-0.031316
-0.031361
-0.031397
-0.031430
-0.031470
-0.031507
-0.031527
-0.031521
-0.031495
-0.031468
-0.031454
-0.031468
-0.031526
-0.031634
-0.031762
-0.031860
-0.031904
-0.031907
-0.031898
-0.031894
-0.031898
-0.031901
-0.031903
-0.031913
-0.031945
-0.031998
-0.032063
-0.032130
-0.032187
-0.032223
-0.032233
-0.032222
-0.032195
-0.032162
-0.032136
-0.032130
-0.032152
-0.032199
-0.032261
-0.032326
-0.032382
-0.032420
-0.032433
-0.032426
-0.032407
-0.032388
-0.032376
-0.032371
-0.032373
-0.032383
-0.032395
-0.032402
-0.032400
-0.032394
-0.032382
-0.032366
-0.032357
-0.032362
-0.032376
-0.032401
-0.032443
-0.032501
-0.032560
-0.032603
-0.032633
-0.032665
-0.032700
-0.032727
-0.032747
-0.032777
-0.032837
-0.032942
-0.033108
-0.033360
-0.033740
-0.034313
-0.035165
-0.036382
-0.038014
-0.040057
-0.042451
-0.045070
-0.047712
-0.050109
-0.051972
-0.053065
-0.053300
-0.052858
-0.052242
-0.052152
-0.053208
-0.055774
-0.060023
-0.066009
-0.073477
-0.081596
-0.089072
-0.094780
-0.098332
-0.099895
-0.099205
-0.094868
-0.085274
-0.070958
-0.055933
-0.045639
-0.042709
-0.044701
-0.046183
-0.042892
-0.034083
-0.021921
-0.009846
-0.001607
-0.000785
-0.009655
-0.027276
-0.048524
-0.066203
-0.075507
-0.076575
-0.071907
-0.061652
-0.043630
-0.019427
0.001489
0.007136
-0.006808
-0.033446
-0.060897
-0.080651
-0.090231
-0.089892
-0.078785
-0.055278
-0.020964
0.016529
0.045860
0.057659
0.048282
0.019623
-0.022636
-0.070413
-0.114808
-0.148188
-0.165545
-0.164452
-0.144820
-0.109181
-0.062246
-0.009565
0.042684
0.086226
0.110421
0.105947
0.070109
0.007915
-0.071957
-0.160405
-0.247554
-0.322453
-0.374362
-0.393277
-0.370639
-0.303705
-0.200949
-0.081823
0.029914
0.114407
0.160639
0.165159
0.127645
0.052341
-0.044209
-0.132976
-0.187265
-0.198871
-0.178127
-0.139578
-0.090942
-0.035910
0.017206
0.054365
0.064455
0.048388
0.018601
-0.010754
-0.032039
-0.042760
-0.039910
-0.019901
0.015945
0.058189
0.092322
0.104741
0.087237
0.039509
-0.029956
-0.106599
-0.175807
-0.227393
-0.255240
-0.254574
-0.221343
-0.155141
-0.062990
0.039412
0.129931
0.185414
0.189560
0.140225
0.051887
-0.048994
-0.134299
-0.184958
-0.195857
-0.173713
-0.132091
-0.087091
-0.053808
-0.043339
-0.060772
-0.103456
-0.158924
-0.205389
-0.219258
-0.187858
-0.117372
-0.027941
0.059329
0.130490
0.176192
0.185274
0.145009
0.051309
-0.078837
-0.206246
-0.286732
-0.296607
-0.245256
-0.164798
-0.088979
-0.038446
-0.017150
-0.016353
-0.022620
-0.025591
-0.021608
-0.013285
-0.008258
-0.019114
-0.061961
-0.147845
-0.267065
-0.378789
-0.420964
-0.341298
-0.130430
0.168600
0.479731
0.719382
0.815793
0.733829
0.494217
0.157201
-0.213603
-0.564775
-0.843873
-0.992164
-0.952665
-0.699334
-0.269702
0.232823
0.672364
0.931462
0.955601
0.763852
0.426636
0.037321
-0.313280
-0.557071
-0.657296
-0.613921
-0.463634
-0.263602
-0.074009
0.053790
0.096566
0.070496
0.015511
-0.029058
-0.041354
-0.028053
-0.019913
-0.045766
-0.108666
-0.189481
-0.268023
-0.333240
-0.376055
-0.382383
-0.338901
-0.246786
-0.129452
-0.025347
0.028482
0.010284
-0.079159
-0.214273
-0.347966
-0.422883
-0.389592
-0.226152
0.047587
0.368915
0.651555
0.820491
0.842672
0.734453
0.543656
0.323063
0.114666
-0.051977
-0.157625
-0.196026
-0.178285
-0.129359
-0.076590
-0.040106
-0.028773
-0.038659
-0.054304
-0.054930
-0.024894
0.035662
0.106123
0.152769
0.148562
0.093341
0.016502
-0.041708
-0.053868
-0.014430
0.067808
0.178383
0.297546
0.400044
0.461470
0.465317
0.404868
0.284122
0.120867
-0.054224
-0.206204
-0.305244
-0.331683
-0.281349
-0.173467
-0.052284
0.028076
0.032559
-0.033321
-0.130596
-0.216601
-0.269334
-0.289008
-0.284598
-0.263615
-0.232754
-0.199793
-0.165734
-0.113737
-0.012370
0.162457
0.404099
0.670373
0.899106
1.029789
1.018666
0.846677
0.525663
0.103566
-0.337748
-0.700613
-0.904807
-0.916526
-0.752475
-0.464711
-0.126530
0.178674
0.374911
0.412471
0.279751
0.011133
-0.312318
-0.585312
-0.722512
-0.692968
-0.519113
-0.251237
0.055416
0.351376
0.597694
0.767307
0.842535
0.814624
0.689861
0.495026
0.271852
0.060371
-0.116794
-0.254955
-0.353676
-0.406191
-0.403253
-0.345088
-0.248475
-0.141174
-0.046186
0.031098
0.099857
0.166733
0.222440
0.247902
0.235510
0.204359
0.192426
0.229329
0.312451
0.407633
0.473218
0.485476
0.444249
0.358122
0.228494
0.051736
-0.162459
-0.379016
-0.549011
-0.635374
-0.629950
-0.553103
-0.443305
-0.343674
-0.286590
-0.281166
-0.312580
-0.352170
-0.367223
-0.327942
-0.217839
-0.045066
0.156049
0.337020
0.455246
0.492910
0.463621
0.400393
0.333889
0.279328
0.240998
0.226023
0.249678
0.321700
0.426267
0.520972
0.559237
0.515239
0.393714
0.222800
0.036862
-0.139865
-0.299957
-0.445606
-0.570636
-0.649907
-0.653724
-0.574996
-0.438597
-0.282378
-0.130378
0.013945
0.150565
0.265917
0.338255
0.359832
0.350140
0.342413
0.353278
0.365166
0.339012
0.243209
0.072910
-0.150732
-0.394362
-0.625506
-0.815022
-0.931147
-0.937651
-0.808236
-0.555124
-0.246831
0.014873
0.153788
0.163923
0.097094
0.012681
-0.053469
-0.081534
-0.054182
0.039686
0.197022
0.398213
0.603521
0.755997
0.805699
0.743244
0.611349
0.479408
0.400122
0.382943
0.399391
0.408791
0.385439
0.330780
0.263015
0.193506
0.112467
-0.001277
-0.158924
-0.352157
-0.559448
-0.758543
-0.937251
-1.092322
-1.213367
-1.271571
-1.234820
-1.099664
-0.906217
-0.717896
-0.585278
-0.525449
-0.525659
-0.558624
-0.596102
-0.617030
-0.613268
-0.591779
-0.565569
-0.534419
-0.473179
-0.345263
-0.134988
0.132172
0.402633
0.624832
0.767650
0.822762
0.801143
0.726667
0.627888
0.532457
0.463653
0.434354
0.439789
0.457821
0.460555
0.429467
0.364071
0.277873
0.181290
0.066145
-0.088483
-0.292028
-0.525750
-0.750697
-0.930753
-1.049126
-1.107275
-1.112179
-1.065131
-0.961952
-0.805773
-0.621856
-0.456106
-0.348515
-0.299615
-0.263350
-0.178704
-0.014922
0.206673
0.428864
0.599562
0.709007
0.791498
0.885867
0.993865
1.079650
1.106329
1.070696
1.004621
0.942658
0.890549
0.827405
0.729855
0.590258
0.425208
0.272281
0.168003
0.125223
0.133754
0.177452
0.247959
0.346535
0.474078
0.619675
0.763994
0.897182
1.031141
1.189266
1.378349
1.568606
1.702978
1.725095
1.601503
1.332364
0.954702
0.532055
0.128382
-0.216211
-0.489278
-0.690659
-0.815148
-0.849157
-0.781752
-0.618881
-0.393614
-0.170133
-0.034746
-0.062639
-0.266585
-0.571557
-0.853979
-1.017520
-1.039115
-0.954697
-0.809268
-0.620085
-0.377957
-0.069144
0.306627
0.728942
1.160945
1.562341
1.902902
2.168844
2.360239
2.485053
2.552469
2.562961
2.505349
2.372649
2.178751
1.949239
1.696610
1.414303
1.097657
0.767408
0.475432
0.289843
0.263146
0.400022
0.650912
0.934175
1.163787
1.270063
1.217788
1.018728
0.725881
0.408230
0.125012
-0.081734
-0.182857
-0.165240
-0.040725
0.158010
0.394499
0.637262
0.852586
0.998637
1.039086
0.968185
0.817130
0.630795
0.441121
0.263672
0.114658
0.027409
0.047681
0.203634
0.473646
0.785951
1.058622
1.249492
1.373466
1.471797
1.562738
1.623797
1.622553
1.560216
1.481921
1.444026
1.469860
1.535207
1.594463
1.620361
1.623573
1.639344
1.692328
1.769042
1.825748
1.826599
1.778018
1.732214
1.756847
1.889322
2.107619
2.342387
2.524382
2.627814
2.670004
2.671819
2.626337
2.512100
2.334079
2.146132
2.032965
2.066777
2.266302
2.581930
2.919176
3.188271
3.343990
3.385772
3.325899
3.164717
2.898515
2.545009
2.154712
1.797245
1.537011
1.414433
1.436961
1.581573
1.809648
2.082089
2.360810
2.603256
2.764506
2.806057
2.705646
2.467995
2.130323
1.755304
1.413706
1.162398
1.028928
1.015172
1.113680
1.316525
1.607261
1.945011
2.259731
2.472097
2.532168
2.450343
2.289760
2.120293
1.979412
1.879868
1.843110
1.907201
2.099973
2.411758
2.795411
3.195043
3.582522
3.966719
4.359774
4.731686
5.003915
5.095367
4.979133
4.697024
4.324495
3.926505
3.539731
3.178580
2.846207
2.541653
2.264522
2.017703
1.799887
1.587842
1.333677
0.993132
0.558568
0.063364
-0.441657
-0.915402
-1.336025
-1.691593
-1.969128
-2.156730
-2.256421
-2.293607
-2.310686
-2.345024
-2.405787
-2.467501
-2.485746
-2.422929
-2.265170
-2.020037
-1.703101
-1.332608
-0.938793
-0.569635
-0.273690
-0.069215
0.071030
0.205856
0.398584
0.696234
1.115727
1.633366
2.186778
2.698492
3.109275
3.394245
3.549487
3.569327
3.444787
3.184309
2.824000
2.407377
1.959207
1.485960
0.996788
0.514574
0.064230
-0.345365
-0.723076
-1.079007
-1.408482
-1.691792
-1.908691
-2.056525
-2.158902
-2.255485
-2.375426
-2.513221
-2.627916
-2.665762
-2.588170
-2.389790
-2.099662
-1.765006
-1.431375
-1.137149
-0.919250
-0.810522
-0.823467
-0.935539
-1.090160
-1.213423
-1.237573
-1.123115
-0.873503
-0.534182
-0.170995
0.161044
0.435803
0.649758
0.805501
0.908180
0.977690
1.055232
1.187369
1.396505
1.661794
1.926688
2.129763
2.238196
2.260490
2.230607
2.180115
2.124220
2.068397
2.020034
1.990931
1.989980
2.014222
2.048771
2.077823
2.096012
2.109743
2.131069
2.172263
2.242680
2.344559
2.466976
2.581925
2.651500
2.650294
2.585276
2.490076
2.401909
2.348095
2.345854
2.401712
2.511048
2.665228
2.858276
3.080887
3.308433
3.502240
3.630487
3.693070
3.729140
3.800053
3.956219
4.202991
4.483686
4.695560
4.735031
4.542025
4.114158
3.492278
2.737520
1.910105
1.054501
0.201615
-0.614739
-1.349738
-1.959196
-2.417428
-2.725154
-2.904748
-2.987404
-2.999955
-2.963195
-2.904286
-2.868742
-2.917196
-3.104335
-3.449530
-3.922234
-4.461648
-5.016159
-5.560802
-6.073172
-6.499845
-6.761714
-6.801731
-6.626354
-6.300742
-5.912703
-5.546064
-5.275894
-5.165464
-5.251643
-5.531442
-5.964567
-6.489773
-7.045265
-7.583035
-8.070991
-8.490543
-8.841167
-9.148621
-9.463008
-9.839223
-10.309180
-10.866710
-11.473320
-12.068840
-12.572440
-12.889370
-12.943980
-12.716580
-12.244630
-11.597610
-10.858740
-10.109130
-9.405450
-8.776117
-8.244482
-7.847366
-7.626486
-7.603977
-7.768828
-8.085643
-8.508420
-8.985122
-9.462734
-9.896844
-10.253120
-10.501360
-10.617640
-10.595440
-10.450060
-10.210980
-9.908801
-9.562708
-9.171247
-8.712934
-8.161698
-7.505742
-6.749658
-5.900885
-4.962710
-3.945370
-2.882662
-1.831422
-0.847591
0.039602
0.833441
1.559211
2.252807
2.955662
3.712012
4.556989
5.487380
6.423452
7.199284
7.634924
7.667152
7.394503
6.965704
6.462816
5.915460
5.370181
4.911718
4.634066
4.584053
4.722784
4.952705
5.180287
5.354610
5.470355
5.551817
5.633085
5.744099
5.898867
6.079813
6.233620
6.296141
6.229396
6.037950
5.757094
5.427715
5.074757
4.700991
4.296864
3.854264
3.372146
2.854287
2.305041
1.726114
1.117905
0.487934
-0.141710
-0.739172
-1.274923
-1.722660
-2.044250
-2.182452
-2.087494
-1.761503
-1.271684
-0.718017
-0.193335
0.235959
0.533459
0.687569
0.705146
0.615793
0.478013
0.366311
0.341965
0.429592
0.613142
0.848677
1.082001
1.262428
1.354971
1.351269
1.269142
1.138215
0.983587
0.816819
0.634833
0.425393
0.175440
-0.124799
-0.484297
-0.912894
-1.414672
-1.979077
-2.582600
-3.202645
-3.832298
-4.481735
-5.155158
-5.808360
-6.326001
-6.569101
-6.476566
-6.116244
-5.623127
-5.106363
-4.624169
-4.206570
-3.870953
-3.628444
-3.482234
-3.412337
-3.367130
-3.276560
-3.077217
-2.737641
-2.272624
-1.737039
-1.204665
-0.743433
-0.393430
-0.155955
-0.000959
0.114747
0.234143
0.394990
0.626172
0.943487
1.348043
1.828910
2.368864
2.949211
3.551876
4.161389
4.766519
5.358312
5.927722
6.470644
6.998201
7.537037
8.112142
8.728523
9.372543
10.029130
10.689200
11.328960
11.875860
12.206920
12.208780
11.858210
11.238570
10.471060
9.634864
8.745610
7.783792
6.734499
5.615892
4.480728
3.383606
2.339970
1.320261
0.286258
-0.768922
-1.816258
-2.825961
-3.807916
-4.814641
-5.901329
-7.080571
-8.308158
-9.499053
-10.555860
-11.408880
-12.057540
-12.569250
-13.021530
-13.446560
-13.831290
-14.154100
-14.414940
-14.641670
-14.873610
-15.140960
-15.463200
-15.860390
-16.353729
-16.951630
-17.636391
-18.364840
-19.082670
-19.741409
-20.307619
-20.761971
-21.092649
-21.290030
-21.346840
-21.263889
-21.055670
-20.748480
-20.369720
-19.935381
-19.446301
-18.900730
-18.316610
-17.741011
-17.230101
-16.812481
-16.469460
-16.149799
-15.801500
-15.391560
-14.903870
-14.327060
-13.648150
-12.857470
-11.956640
-10.957850
-9.872810
-8.702674
-7.445461
-6.128756
-4.842758
-3.719992
-2.846990
-2.191661
-1.641613
-1.109536
-0.578286
-0.062698
0.439469
0.967120
1.581509
2.327973
3.212456
4.212467
5.294107
6.416409
7.535621
8.614513
9.627983
10.563220
11.418110
12.199570
12.922620
13.609700
14.289500
14.996080
15.765250
16.625660
17.588930
18.645100
19.764429
20.903891
22.018591
23.075859
24.063641
24.986851
25.857170
26.687639
27.495510
28.306459
29.152830
30.065140
31.057560
32.102970
33.104359
33.902328
34.351261
34.409569
34.144920
33.659969
33.037430
32.337990
31.610741
30.894960
30.211950
29.554171
28.891750
28.192490
27.432310
26.596140
25.681240
24.699369
23.667440
22.589300
21.446051
20.207991
18.858660
17.409340
15.894720
14.354910
12.816330
11.283400
9.745469
8.193641
6.636315
5.101413
3.621832
2.214592
0.870886
-0.435486
-1.730864
-3.030939
-4.341764
-5.666590
-7.011836
-8.390107
-9.816821
-11.294650
-12.790060
-14.223210
-15.491510
-16.519020
-17.295300
-17.874670
-18.342230
-18.774830
-19.219931
-19.696791
-20.208920
-20.753361
-21.321980
-21.900240
-22.468880
-23.009790
-23.511351
-23.967529
-24.370750
-24.705940
-24.952690
-25.093809
-25.122009
-25.039961
-24.856400
-24.582359
-24.228519
-23.803650
-23.314510
-22.765949
-22.158819
-21.486839
-20.735840
-19.886990
-18.921730
-17.826719
-16.598810
-15.249320
-13.805520
-12.307570
-10.800730
-9.325043
-7.905607
-6.545498
-5.223480
-3.899350
-2.528292
-1.079521
0.451153
2.040708
3.645696
5.211642
6.687533
8.045158
9.290720
10.455920
11.575660
12.673280
13.759840
14.833370
15.868180
16.805531
17.563990
18.068220
18.277800
18.200859
17.889919
17.423340
16.880070
16.319111
15.775790
15.278170
14.870570
14.620110
14.591710
14.804150
15.206210
15.700080
16.188190
16.601971
16.907681
17.103880
17.210070
17.251030
17.250450
17.231300
17.213421
17.212111
17.237280
17.285191
17.330320
17.331791
17.252859
17.078831
16.820000
16.500320
16.146540
15.785940
15.443360
15.133110
14.855430
14.602220
14.363490
14.128790
13.887070
13.627990
13.342750
13.022840
12.659090
12.242240
11.765140
11.225460
10.628470
9.988136
9.326230
8.670259
8.050669
7.496010
7.027297
6.655408
6.382249
6.201893
6.099750
6.052458
6.029905
5.997783
5.921341
5.772447
5.536619
5.213420
4.810507
4.338738
3.812058
3.248251
2.666282
2.081562
1.504942
0.950096
0.447085
0.049424
-0.182577
-0.220055
-0.089838
0.144700
0.422592
0.701515
0.950457
1.141972
1.250397
1.255441
1.150743
0.946340
0.659259
0.304756
-0.102778
-0.547151
-1.013698
-1.494281
-1.987182
-2.491417
-2.999819
-3.495977
-3.957343
-4.361240
-4.688038
-4.922221
-5.058897
-5.114871
-5.129950
-5.153144
-5.228883
-5.393370
-5.671987
-6.071749
-6.576623
-7.152137
-7.756951
-8.354468
-8.918675
-9.434834
-9.898270
-10.310520
-10.673120
-10.985770
-11.252890
-11.491080
-11.726080
-11.979160
-12.254870
-12.540980
-12.819330
-13.077260
-13.311510
-13.526240
-13.729920
-13.932100
-14.140040
-14.358000
-14.590330
-14.844870
-15.132030
-15.458420
-15.818350
-16.190479
-16.544531
-16.854349
-17.106621
-17.298050
-17.427710
-17.497000
-17.517879
-17.518490
-17.539160
-17.621731
-17.798679
-18.086399
-18.482929
-18.968550
-19.510250
-20.071230
-20.620090
-21.134520
-21.601910
-22.021641
-22.407869
-22.786791
-23.182550
-23.593660
-23.979040
-24.278000
-24.453871
-24.512859
-24.477520
-24.355530
-24.140619
-23.829290
-23.429560
-22.961910
-22.455191
-21.938669
-21.436741
-20.966980
-20.536570
-20.139530
-19.758940
-19.372570
-18.959129
-18.503960
-18.001249
-17.450510
-16.850229
-16.196289
-15.486450
-14.724910
-13.921830
-13.088910
-12.234790
-11.363490
-10.475520
-9.570844
-8.652732
-7.730418
-6.818309
-5.931559
-5.081303
-4.274224
-3.517907
-2.826468
-2.218362
-1.706217
-1.288992
-0.955069
-0.691681
-0.489760
-0.341613
-0.237596
-0.167007
-0.124119
-0.115431
-0.159386
-0.273819
-0.459771
-0.696972
-0.955500
-1.211837
-1.455520
-1.684124
-1.893942
-2.074991
-2.214781
-2.308379
-2.366990
-2.417481
-2.490595
-2.603856
-2.751431
-2.910245
-3.057840
-3.185827
-3.297881
-3.397661
-3.480275
-3.534222
-3.550102
-3.527649
-3.475701
-3.406302
-3.327834
-3.241038
-3.139692
-3.015446
-2.863470
-2.684771
-2.484949
-2.274323
-2.072254
-1.908751
-1.814880
-1.808793
-1.893344
-2.065488
-2.321893
-2.654449
-3.044712
-3.465409
-3.888314
-4.292624
-4.667879
-5.011046
-5.322785
-5.606510
-5.869460
-6.124007
-6.387890
-6.681640
-7.022842
-7.419533
-7.867039
-8.351862
-8.860198
-9.381308
-9.897542
-10.366500
-10.717120
-10.878900
-10.827190
-10.596160
-10.244900
-9.821299
-9.358833
-8.889052
-8.448586
-8.079097
-7.816431
-7.673342
-7.634836
-7.669235
-7.739852
-7.811147
-7.852655
-7.840540
-7.756703
-7.589762
-7.339905
-7.022430
-6.663107
-6.285636
-5.899943
-5.500140
-5.072694
-4.607807
-4.106176
-3.577753
-3.034977
-2.485998
-1.931629
-1.366668
-0.784329
-0.181170
0.440467
1.073821
1.711725
2.350567
2.992069
3.642727
4.311697
5.007636
5.735058
6.490988
7.262907
8.029702
8.766914
9.454634
10.084140
10.659990
11.196560
11.710800
12.215080
12.714730
13.211880
13.711440
14.222340
14.752040
15.300020
15.856200
16.405880
16.937510
17.448660
17.946569
18.441629
18.936010
19.414680
19.847719
20.204140
20.465620
20.628860
20.698980
20.683670
20.592211
20.436371
20.230459
19.989410
19.725460
19.445101
19.148170
18.829330
18.481300
18.098061
17.676140
17.213619
16.708370
16.157530
15.559100
14.914250
14.228250
13.509580
12.766850
12.004530
11.220160
10.406330
9.557330
8.675516
7.772095
6.862519
5.959783
5.068737
4.183488
3.289500
2.369894
1.412735
0.415917
-0.612003
-1.655324
-2.697190
-3.723439
-4.721146
-5.675133
-6.569594
-7.396374
-8.159913
-8.867173
-9.509603
-10.061910
-10.505590
-10.849750
-11.123850
-11.355270
-11.558530
-11.738610
-11.896990
-12.035470
-12.154400
-12.246120
-12.293710
-12.279820
-12.196980
-12.050680
-11.854890
-11.624250
-11.368280
-11.090210
-10.789160
-10.463440
-10.113320
-9.741901
-9.353214
-8.948964
-8.526831
-8.080893
