EVENT_NAME: EMILIA_2ND_SHOCK
EVENT_ID: IT-2012-0011
EVENT_DATE_YYYYMMDD: 20120529
EVENT_TIME_HHMMSS: 070002
EVENT_LATITUDE_DEGREE: 44.8417
EVENT_LONGITUDE_DEGREE: 11.0657
EVENT_DEPTH_KM: 8.1
HYPOCENTER_REFERENCE: INGV-CNT_Seismic_Bulletin
MAGNITUDE_W: 6.0
MAGNITUDE_W_REFERENCE: RCMT-INGV
MAGNITUDE_L: 5.8
MAGNITUDE_L_REFERENCE: INGV-CNT_Seismic_Bulletin
FOCAL_MECHANISM: TF
NETWORK: TV
STATION_CODE: MIR02
STATION_NAME: MIRANDOLA MRN
STATION_LATITUDE_DEGREE: 44.886948
STATION_LONGITUDE_DEGREE: 11.073198
STATION_ELEVATION_M: 
LOCATION: 
SENSOR_DEPTH_M: 
VS30_M/S: 
SITE_CLASSIFICATION_EC8: C*
MORPHOLOGIC_CLASSIFICATION: 
EPICENTRAL_DISTANCE_KM: 5.1
EARTHQUAKE_BACKAZIMUTH_DEGREE: 186.7
DATE_TIME_FIRST_SAMPLE_YYYYMMDD_HHMMSS: 20120529_065950.000
DATE_TIME_FIRST_SAMPLE_PRECISION: milliseconds
SAMPLING_INTERVAL_S: 0.005000
NDATA: 12601
DURATION_S: 63.005
STREAM: HNE
UNITS: cm
INSTRUMENT: sensor = Episensor FBA ES-T [Kinemetrics] | digitizer = Unknown [Unknown]
INSTRUMENT_ANALOG/DIGITAL: D
INSTRUMENTAL_FREQUENCY_HZ: 
INSTRUMENTAL_DAMPING: 
FULL_SCALE_G: 
N_BIT_DIGITAL_CONVERTER: 
PGD_CM: 11.985444
TIME_PGD_S: 18.745000
BASELINE_CORRECTION: BASELINE REMOVED
FILTER_TYPE: BUTTERWORTH
FILTER_ORDER: 2
LOW_CUT_FREQUENCY_HZ: 0.050
HIGH_CUT_FREQUENCY_HZ: 40.000
LATE/NORMAL_TRIGGERED: NT
DATABASE_VERSION: DYNA 1.0
HEADER_FORMAT: DYNA 1.2
DATA_TYPE: DISPLACEMENT
PROCESSING: manual (Paolucci et al., 2011)
DATA_TIMESTAMP_YYYYMMDD_HHMMSS: 20141028_094514.539
DATA_LICENSE: CC-BY4_0 (http://creativecommons.org/licenses/by/4.0/)
DATA_CITATION: ESM working group (2015), European Strong-Motion database, version 0.1, Network Activity 3: Networking acceleration networks and SM data users. Project NERA (www.nera-eu.org)
DATA_CREATOR: ESM working group
ORIGINAL_DATA_MEDIATOR_CITATION: Orfeus - European Integrated Data Archive (EIDA) http://www.orfeus-eu.org/eida/
ORIGINAL_DATA_MEDIATOR: Orfeus - European Integrated Data Archive (EIDA)
ORIGINAL_DATA_CREATOR_CITATION: 
ORIGINAL_DATA_CREATOR: network: TV (INGV Experiments Network); owner: Istituto Nazionale di Geofisica e Vulcanologia
USER1: /home/dyna/processing-itaca/processing.py /var/www/processing/tmp/Lucia//TV.MIR02..HNE.D.20120529.070003.X.ACC.ASC /var/www/processing/tmp/Lucia//TV.MIR02..HNN.D.20120529.070003.X.ACC.ASC /var/www/processing/tmp/Lucia//TV.MIR02..HNZ.D.20120529.070003.X.ACC.ASC --tmp /var/www/processing/tmp/Lucia/ --le 0.050 --he 40.000 --ln 0.050 --hn 40.000 --lz 0.050 --hz 40.000 --fo 2 --ca 50 --cz 180 --ta 5 --tz 5 --mf 1 --rf 0 --tr NT
USER2: 
USER3: 
USER4: 
USER5: 
[...]
-8.628623e-01
-8.640169e-01
-8.651729e-01
-8.663298e-01
-8.674874e-01
-8.686453e-01
-8.698034e-01
-8.709619e-01
-8.721211e-01
-8.732808e-01
-8.744407e-01
-8.756000e-01
-8.767585e-01
-8.779165e-01
-8.790744e-01
-8.802326e-01
-8.813918e-01
-8.825521e-01
-8.837135e-01
-8.848755e-01
-8.860379e-01
-8.872005e-01
-8.883635e-01
-8.895273e-01
-8.906917e-01
-8.918568e-01
-8.930223e-01
-8.941881e-01
-8.953542e-01
-8.965205e-01
-8.976870e-01
-8.988541e-01
-9.000219e-01
-9.011906e-01
-9.023600e-01
-9.035301e-01
-9.047009e-01
-9.058723e-01
-9.070442e-01
-9.082166e-01
-9.093893e-01
-9.105623e-01
-9.117355e-01
-9.129087e-01
-9.140818e-01
-9.152544e-01
-9.164268e-01
-9.175990e-01
-9.187712e-01
-9.199435e-01
-9.211164e-01
-9.222901e-01
-9.234651e-01
-9.246412e-01
-9.258185e-01
-9.269968e-01
-9.281761e-01
-9.293563e-01
-9.305368e-01
-9.317170e-01
-9.328964e-01
-9.340747e-01
-9.352519e-01
-9.364283e-01
-9.376045e-01
-9.387809e-01
-9.399579e-01
-9.411358e-01
-9.423148e-01
-9.434952e-01
-9.446770e-01
-9.458595e-01
-9.470419e-01
-9.482239e-01
-9.494053e-01
-9.505863e-01
-9.517674e-01
-9.529491e-01
-9.541316e-01
-9.553152e-01
-9.564996e-01
-9.576848e-01
-9.588705e-01
-9.600567e-01
-9.612435e-01
-9.624308e-01
-9.636184e-01
-9.648059e-01
-9.659933e-01
-9.671807e-01
-9.683681e-01
-9.695556e-01
-9.707434e-01
-9.719315e-01
-9.731199e-01
-9.743085e-01
-9.754974e-01
-9.766867e-01
-9.778765e-01
-9.790663e-01
-9.802562e-01
-9.814460e-01
-9.826361e-01
-9.838267e-01
-9.850182e-01
-9.862106e-01
-9.874038e-01
-9.885977e-01
-9.897916e-01
-9.909852e-01
-9.921782e-01
-9.933710e-01
-9.945637e-01
-9.957563e-01
-9.969490e-01
-9.981419e-01
-9.993355e-01
-1.000530e+00
-1.001725e+00
-1.002919e+00
-1.004114e+00
-1.005309e+00
-1.006503e+00
-1.007697e+00
-1.008891e+00
-1.010083e+00
-1.011276e+00
-1.012469e+00
-1.013662e+00
-1.014856e+00
-1.016051e+00
-1.017247e+00
-1.018443e+00
-1.019640e+00
-1.020837e+00
-1.022033e+00
-1.023230e+00
-1.024426e+00
-1.025622e+00
-1.026818e+00
-1.028015e+00
-1.029213e+00
-1.030411e+00
-1.031610e+00
-1.032810e+00
-1.034008e+00
-1.035206e+00
-1.036403e+00
-1.037599e+00
-1.038795e+00
-1.039990e+00
-1.041185e+00
-1.042381e+00
-1.043578e+00
-1.044775e+00
-1.045973e+00
-1.047171e+00
-1.048371e+00
-1.049571e+00
-1.050772e+00
-1.051972e+00
-1.053172e+00
-1.054372e+00
-1.055570e+00
-1.056769e+00
-1.057967e+00
-1.059166e+00
-1.060366e+00
-1.061566e+00
-1.062766e+00
-1.063966e+00
-1.065164e+00
-1.066360e+00
-1.067553e+00
-1.068743e+00
-1.069930e+00
-1.071113e+00
-1.072290e+00
-1.073461e+00
-1.074627e+00
-1.075788e+00
-1.076941e+00
-1.078083e+00
-1.079213e+00
-1.080329e+00
-1.081431e+00
-1.082519e+00
-1.083590e+00
-1.084634e+00
-1.085649e+00
-1.086645e+00
-1.087655e+00
-1.088702e+00
-1.089779e+00
-1.090845e+00
-1.091853e+00
-1.092785e+00
-1.093674e+00
-1.094580e+00
-1.095543e+00
-1.096556e+00
-1.097581e+00
-1.098579e+00
-1.099542e+00
-1.100501e+00
-1.101505e+00
-1.102558e+00
-1.103609e+00
-1.104616e+00
-1.105607e+00
-1.106657e+00
-1.107804e+00
-1.109014e+00
-1.110213e+00
-1.111335e+00
-1.112356e+00
-1.113302e+00
-1.114230e+00
-1.115197e+00
-1.116222e+00
-1.117283e+00
-1.118350e+00
-1.119409e+00
-1.120450e+00
-1.121455e+00
-1.122414e+00
-1.123344e+00
-1.124288e+00
-1.125290e+00
-1.126360e+00
-1.127455e+00
-1.128500e+00
-1.129451e+00
-1.130319e+00
-1.131136e+00
-1.131929e+00
-1.132727e+00
-1.133575e+00
-1.134483e+00
-1.135384e+00
-1.136202e+00
-1.136958e+00
-1.137770e+00
-1.138719e+00
-1.139780e+00
-1.140871e+00
-1.141929e+00
-1.142933e+00
-1.143885e+00
-1.144803e+00
-1.145715e+00
-1.146647e+00
-1.147607e+00
-1.148588e+00
-1.149587e+00
-1.150597e+00
-1.151598e+00
-1.152543e+00
-1.153396e+00
-1.154172e+00
-1.154945e+00
-1.155795e+00
-1.156742e+00
-1.157741e+00
-1.158726e+00
-1.159645e+00
-1.160467e+00
-1.161171e+00
-1.161754e+00
-1.162254e+00
-1.162725e+00
-1.163190e+00
-1.163635e+00
-1.164070e+00
-1.164558e+00
-1.165147e+00
-1.165795e+00
-1.166415e+00
-1.166998e+00
-1.167635e+00
-1.168415e+00
-1.169320e+00
-1.170251e+00
-1.171137e+00
-1.172007e+00
-1.172919e+00
-1.173862e+00
-1.174775e+00
-1.175643e+00
-1.176503e+00
-1.177380e+00
-1.178248e+00
-1.179051e+00
-1.179738e+00
-1.180318e+00
-1.180871e+00
-1.181502e+00
-1.182277e+00
-1.183235e+00
-1.184393e+00
-1.185722e+00
-1.187107e+00
-1.188407e+00
-1.189550e+00
-1.190564e+00
-1.191507e+00
-1.192393e+00
-1.193187e+00
-1.193846e+00
-1.194366e+00
-1.194786e+00
-1.195129e+00
-1.195389e+00
-1.195609e+00
-1.195934e+00
-1.196511e+00
-1.197321e+00
-1.198152e+00
-1.198790e+00
-1.199219e+00
-1.199595e+00
-1.200047e+00
-1.200588e+00
-1.201200e+00
-1.201916e+00
-1.202780e+00
-1.203726e+00
-1.204586e+00
-1.205230e+00
-1.205693e+00
-1.206096e+00
-1.206508e+00
-1.206921e+00
-1.207361e+00
-1.207935e+00
-1.208774e+00
-1.209908e+00
-1.211214e+00
-1.212512e+00
-1.213725e+00
-1.214902e+00
-1.216065e+00
-1.217114e+00
-1.217907e+00
-1.218395e+00
-1.218632e+00
-1.218748e+00
-1.218902e+00
-1.219202e+00
-1.219635e+00
-1.220104e+00
-1.220544e+00
-1.220964e+00
-1.221392e+00
-1.221799e+00
-1.222110e+00
-1.222282e+00
-1.222382e+00
-1.222513e+00
-1.222712e+00
-1.222957e+00
-1.223256e+00
-1.223621e+00
-1.223964e+00
-1.224135e+00
-1.224086e+00
-1.223929e+00
-1.223827e+00
-1.223842e+00
-1.223876e+00
-1.223776e+00
-1.223525e+00
-1.223263e+00
-1.223117e+00
-1.223087e+00
-1.223134e+00
-1.223278e+00
-1.223563e+00
-1.223970e+00
-1.224433e+00
-1.224871e+00
-1.225179e+00
-1.225222e+00
-1.224907e+00
-1.224305e+00
-1.223711e+00
-1.223520e+00
-1.223933e+00
-1.224747e+00
-1.225493e+00
-1.225791e+00
-1.225586e+00
-1.225117e+00
-1.224735e+00
-1.224680e+00
-1.224948e+00
-1.225352e+00
-1.225713e+00
-1.225964e+00
-1.226125e+00
-1.226239e+00
-1.226352e+00
-1.226480e+00
-1.226542e+00
-1.226345e+00
-1.225741e+00
-1.224813e+00
-1.223819e+00
-1.222989e+00
-1.222413e+00
-1.222090e+00
-1.221964e+00
-1.221913e+00
-1.221773e+00
-1.221421e+00
-1.220829e+00
-1.220068e+00
-1.219249e+00
-1.218468e+00
-1.217781e+00
-1.217213e+00
-1.216763e+00
-1.216372e+00
-1.215910e+00
-1.215267e+00
-1.214488e+00
-1.213778e+00
-1.213334e+00
-1.213172e+00
-1.213142e+00
-1.213062e+00
-1.212802e+00
-1.212310e+00
-1.211606e+00
-1.210758e+00
-1.209858e+00
-1.208998e+00
-1.208252e+00
-1.207698e+00
-1.207462e+00
-1.207667e+00
-1.208293e+00
-1.209104e+00
-1.209734e+00
-1.209871e+00
-1.209445e+00
-1.208665e+00
-1.207816e+00
-1.206959e+00
-1.205919e+00
-1.204538e+00
-1.202826e+00
-1.200863e+00
-1.198704e+00
-1.196443e+00
-1.194223e+00
-1.192154e+00
-1.190274e+00
-1.188588e+00
-1.187050e+00
-1.185543e+00
-1.183942e+00
-1.182141e+00
-1.180001e+00
-1.177365e+00
-1.174161e+00
-1.170374e+00
-1.165967e+00
-1.160965e+00
-1.155614e+00
-1.150411e+00
-1.145922e+00
-1.142457e+00
-1.139786e+00
-1.137244e+00
-1.134288e+00
-1.130946e+00
-1.127655e+00
-1.124785e+00
-1.122433e+00
-1.120561e+00
-1.119091e+00
-1.117836e+00
-1.116461e+00
-1.114624e+00
-1.112221e+00
-1.109509e+00
-1.106936e+00
-1.104740e+00
-1.102716e+00
-1.100481e+00
-1.097964e+00
-1.095468e+00
-1.093274e+00
-1.091397e+00
-1.089726e+00
-1.088084e+00
-1.086090e+00
-1.083305e+00
-1.079726e+00
-1.075937e+00
-1.072651e+00
-1.070159e+00
-1.068200e+00
-1.066252e+00
-1.063925e+00
-1.061114e+00
-1.057840e+00
-1.054005e+00
-1.049361e+00
-1.043763e+00
-1.037441e+00
-1.030965e+00
-1.024880e+00
-1.019299e+00
-1.013815e+00
-1.007834e+00
-1.001091e+00
-9.938806e-01
-9.868509e-01
-9.805561e-01
-9.750171e-01
-9.695997e-01
-9.634189e-01
-9.559827e-01
-9.475360e-01
-9.389131e-01
-9.310576e-01
-9.244462e-01
-9.187902e-01
-9.133443e-01
-9.076265e-01
-9.018428e-01
-8.965284e-01
-8.917952e-01
-8.871045e-01
-8.817968e-01
-8.756426e-01
-8.688490e-01
-8.617756e-01
-8.547546e-01
-8.480011e-01
-8.415113e-01
-8.350361e-01
-8.282077e-01
-8.207319e-01
-8.125188e-01
-8.036550e-01
-7.942133e-01
-7.840907e-01
-7.731256e-01
-7.614529e-01
-7.496444e-01
-7.382669e-01
-7.273072e-01
-7.162523e-01
-7.046753e-01
-6.924569e-01
-6.795390e-01
-6.658773e-01
-6.516841e-01
-6.374159e-01
-6.234432e-01
-6.099138e-01
-5.969570e-01
-5.848142e-01
-5.736408e-01
-5.631955e-01
-5.527811e-01
-5.416110e-01
-5.293348e-01
-5.161843e-01
-5.026522e-01
-4.891281e-01
-4.757307e-01
-4.623480e-01
-4.489082e-01
-4.355712e-01
-4.224189e-01
-4.089837e-01
-3.944238e-01
-3.783416e-01
-3.612519e-01
-3.440705e-01
-3.272864e-01
-3.108376e-01
-2.945938e-01
-2.785510e-01
-2.626158e-01
-2.465191e-01
-2.298733e-01
-2.122502e-01
-1.935422e-01
-1.743525e-01
-1.557146e-01
-1.382814e-01
-1.218507e-01
-1.055643e-01
-8.843461e-02
-6.990579e-02
-5.027337e-02
-3.060450e-02
-1.198806e-02
5.323179e-03
2.206694e-02
3.935744e-02
5.791633e-02
7.762412e-02
9.756087e-02
1.165662e-01
1.340404e-01
1.504498e-01
1.672112e-01
1.860250e-01
2.079574e-01
2.327757e-01
2.590664e-01
2.851646e-01
3.101978e-01
3.344336e-01
3.587929e-01
3.840745e-01
4.104700e-01
4.375880e-01
4.648294e-01
4.917287e-01
5.180689e-01
5.439334e-01
5.697966e-01
5.964403e-01
6.244932e-01
6.538809e-01
6.837961e-01
7.133480e-01
7.422966e-01
7.711689e-01
8.006942e-01
8.311936e-01
8.624580e-01
8.939953e-01
9.252879e-01
9.559844e-01
9.860993e-01
1.016083e+00
1.046560e+00
1.077889e+00
1.109937e+00
1.142182e+00
1.173965e+00
1.204820e+00
1.234846e+00
1.264798e+00
1.295567e+00
1.327407e+00
1.359776e+00
1.392061e+00
1.424231e+00
1.456697e+00
1.489844e+00
1.523906e+00
1.559042e+00
1.595198e+00
1.632008e+00
1.668988e+00
1.705767e+00
1.742162e+00
1.778218e+00
1.814196e+00
1.850415e+00
1.887005e+00
1.923718e+00
1.959969e+00
1.995270e+00
2.029697e+00
2.063777e+00
2.097963e+00
2.132438e+00
2.167285e+00
2.202416e+00
2.237255e+00
2.270818e+00
2.302251e+00
2.331284e+00
2.358233e+00
2.383674e+00
2.408154e+00
2.432133e+00
2.455882e+00
2.479127e+00
2.500908e+00
2.520156e+00
2.536568e+00
2.550878e+00
2.564275e+00
2.577689e+00
2.591651e+00
2.606698e+00
2.623640e+00
2.643268e+00
2.665785e+00
2.690474e+00
2.716010e+00
2.741350e+00
2.766464e+00
2.792143e+00
2.819255e+00
2.848307e+00
2.879394e+00
2.912191e+00
2.946042e+00
2.980235e+00
3.014254e+00
3.047859e+00
3.081167e+00
3.114644e+00
3.148750e+00
3.183431e+00
3.218016e+00
3.251656e+00
3.283841e+00
3.314613e+00
3.344400e+00
3.373768e+00
3.403345e+00
3.433793e+00
3.465601e+00
3.498803e+00
3.532979e+00
3.567636e+00
3.602676e+00
3.638609e+00
3.676410e+00
3.717146e+00
3.761489e+00
3.809374e+00
3.860013e+00
3.912193e+00
3.964738e+00
4.016991e+00
4.069089e+00
4.121674e+00
4.175172e+00
4.229356e+00
4.283519e+00
4.336891e+00
4.388869e+00
4.439112e+00
4.487718e+00
4.535306e+00
4.582774e+00
4.630903e+00
4.680107e+00
4.730410e+00
4.781591e+00
4.833495e+00
4.886220e+00
4.939914e+00
4.994479e+00
5.049686e+00
5.105592e+00
5.162667e+00
5.221426e+00
5.282029e+00
5.344274e+00
5.407755e+00
5.471870e+00
5.535889e+00
5.599270e+00
5.661957e+00
5.724402e+00
5.787349e+00
5.851394e+00
5.916565e+00
5.982301e+00
6.047917e+00
6.113086e+00
6.177956e+00
6.242934e+00
6.308389e+00
6.374485e+00
6.441239e+00
6.508725e+00
6.577187e+00
6.646940e+00
6.718172e+00
6.790875e+00
6.865009e+00
6.940739e+00
7.018382e+00
7.098017e+00
7.179205e+00
7.261155e+00
7.343116e+00
7.424588e+00
7.505363e+00
7.585597e+00
7.665854e+00
7.746935e+00
7.829541e+00
7.913953e+00
7.999897e+00
8.086607e+00
8.173086e+00
8.258467e+00
8.342237e+00
8.424145e+00
8.503979e+00
8.581482e+00
8.656422e+00
8.728642e+00
8.797983e+00
8.864181e+00
8.926883e+00
8.985805e+00
9.040903e+00
9.092429e+00
9.140815e+00
9.186459e+00
9.229593e+00
9.270358e+00
9.308957e+00
9.345688e+00
9.380897e+00
9.414986e+00
9.448480e+00
9.482018e+00
9.516226e+00
9.551632e+00
9.588673e+00
9.627692e+00
9.668758e+00
9.711444e+00
9.754888e+00
9.798158e+00
9.840637e+00
9.882121e+00
9.922713e+00
9.962732e+00
1.000271e+01
1.004325e+01
1.008468e+01
1.012675e+01
1.016892e+01
1.021081e+01
1.025246e+01
1.029417e+01
1.033611e+01
1.037825e+01
1.042054e+01
1.046293e+01
1.050536e+01
1.054771e+01
1.058994e+01
1.063212e+01
1.067440e+01
1.071693e+01
1.075981e+01
1.080301e+01
1.084633e+01
1.088941e+01
1.093188e+01
1.097365e+01
1.101507e+01
1.105683e+01
1.109967e+01
1.114389e+01
1.118923e+01
1.123486e+01
1.127975e+01
1.132303e+01
1.136435e+01
1.140385e+01
1.144194e+01
1.147900e+01
1.151543e+01
1.155160e+01
1.158764e+01
1.162332e+01
1.165845e+01
1.169330e+01
1.172847e+01
1.176433e+01
1.180064e+01
1.183644e+01
1.187027e+01
1.190048e+01
1.192594e+01
1.194636e+01
1.196219e+01
1.197393e+01
1.198171e+01
1.198544e+01
1.198497e+01
1.198020e+01
1.197112e+01
1.195796e+01
1.194109e+01
1.192071e+01
1.189683e+01
1.186954e+01
1.183925e+01
1.180671e+01
1.177283e+01
1.173835e+01
1.170362e+01
1.166841e+01
1.163207e+01
1.159386e+01
1.155319e+01
1.150964e+01
1.146290e+01
1.141284e+01
1.135947e+01
1.130283e+01
1.124279e+01
1.117912e+01
1.111179e+01
1.104131e+01
1.096875e+01
1.089532e+01
1.082189e+01
1.074903e+01
1.067722e+01
1.060701e+01
1.053909e+01
1.047425e+01
1.041328e+01
1.035657e+01
1.030372e+01
1.025328e+01
1.020295e+01
1.015011e+01
1.009276e+01
1.003009e+01
9.962324e+00
9.890057e+00
9.813773e+00
9.733806e+00
9.650485e+00
9.564133e+00
9.474954e+00
9.383006e+00
9.288315e+00
9.190977e+00
9.091161e+00
8.989054e+00
8.884830e+00
8.778624e+00
8.670512e+00
8.560474e+00
8.448380e+00
8.334099e+00
8.217651e+00
8.099197e+00
7.978928e+00
7.857028e+00
7.733698e+00
7.609089e+00
7.483162e+00
7.355671e+00
7.226253e+00
7.094551e+00
6.960312e+00
6.823507e+00
6.684334e+00
6.543042e+00
6.399748e+00
6.254440e+00
6.107127e+00
5.957941e+00
5.807038e+00
5.654462e+00
5.500144e+00
5.343984e+00
5.185752e+00
5.024941e+00
4.860928e+00
4.693401e+00
4.522577e+00
4.349006e+00
4.173246e+00
3.995680e+00
3.816519e+00
3.635954e+00
3.454351e+00
3.272369e+00
3.090946e+00
2.911111e+00
2.733712e+00
2.559242e+00
2.387810e+00
2.219229e+00
2.053259e+00
1.889957e+00
1.729875e+00
1.573835e+00
1.422476e+00
1.276102e+00
1.134871e+00
9.988832e-01
8.679516e-01
7.414336e-01
6.185473e-01
4.989403e-01
3.828890e-01
2.709811e-01
1.637460e-01
6.150731e-02
-3.571092e-02
-1.283409e-01
-2.173212e-01
-3.038948e-01
-3.893098e-01
-4.746253e-01
-5.605372e-01
-6.471391e-01
-7.338768e-01
-8.199419e-01
-9.048414e-01
-9.885895e-01
-1.071389e+00
-1.153278e+00
-1.234108e+00
-1.313647e+00
-1.391538e+00
-1.467303e+00
-1.540563e+00
-1.611270e+00
-1.679692e+00
-1.746200e+00
-1.811132e+00
-1.874836e+00
-1.937680e+00
-1.999870e+00
-2.061388e+00
-2.122349e+00
-2.183425e+00
-2.245785e+00
-2.310687e+00
-2.379156e+00
-2.451913e+00
-2.529343e+00
-2.611431e+00
-2.697803e+00
-2.787938e+00
-2.881381e+00
-2.977782e+00
-3.076808e+00
-3.178023e+00
-3.280812e+00
-3.384413e+00
-3.488128e+00
-3.591635e+00
-3.695175e+00
-3.799364e+00
-3.904797e+00
-4.011802e+00
-4.120478e+00
-4.230814e+00
-4.342705e+00
-4.455914e+00
-4.570168e+00
-4.685431e+00
-4.802039e+00
-4.920417e+00
-5.040634e+00
-5.162226e+00
-5.284364e+00
-5.406104e+00
-5.526590e+00
-5.645222e+00
-5.761786e+00
-5.876382e+00
-5.989246e+00
-6.100765e+00
-6.211673e+00
-6.323031e+00
-6.435887e+00
-6.550906e+00
-6.668316e+00
-6.788198e+00
-6.910755e+00
-7.036328e+00
-7.165160e+00
-7.297107e+00
-7.431514e+00
-7.567369e+00
-7.703630e+00
-7.839404e+00
-7.973904e+00
-8.106343e+00
-8.235955e+00
-8.362111e+00
-8.484417e+00
-8.602657e+00
-8.716632e+00
-8.826052e+00
-8.930621e+00
-9.030203e+00
-9.124838e+00
-9.214587e+00
-9.299414e+00
-9.379263e+00
-9.454189e+00
-9.524402e+00
-9.590241e+00
-9.652104e+00
-9.710352e+00
-9.765276e+00
-9.817204e+00
-9.866564e+00
-9.913693e+00
-9.958546e+00
-1.000070e+01
-1.003975e+01
-1.007557e+01
-1.010838e+01
-1.013843e+01
-1.016592e+01
-1.019081e+01
-1.021292e+01
-1.023213e+01
-1.024859e+01
-1.026273e+01
-1.027498e+01
-1.028553e+01
-1.029438e+01
-1.030140e+01
-1.030635e+01
-1.030899e+01
-1.030911e+01
-1.030679e+01
-1.030242e+01
-1.029662e+01
-1.028989e+01
-1.028240e+01
-1.027395e+01
-1.026422e+01
-1.025300e+01
-1.024029e+01
-1.022618e+01
-1.021075e+01
-1.019402e+01
-1.017598e+01
-1.015650e+01
-1.013520e+01
-1.011151e+01
-1.008477e+01
-1.005450e+01
-1.002054e+01
-9.982966e+00
-9.942002e+00
-9.897764e+00
-9.850253e+00
-9.799494e+00
-9.745653e+00
-9.688999e+00
-9.629867e+00
-9.568740e+00
-9.506274e+00
-9.443166e+00
-9.380000e+00
-9.317210e+00
-9.255131e+00
-9.194003e+00
-9.133974e+00
-9.075140e+00
-9.017574e+00
-8.961293e+00
-8.906243e+00
-8.852339e+00
-8.799479e+00
-8.747478e+00
-8.696042e+00
-8.644888e+00
-8.593852e+00
-8.542885e+00
-8.491971e+00
-8.441083e+00
-8.390175e+00
-8.339156e+00
-8.287874e+00
-8.236181e+00
-8.184038e+00
-8.131569e+00
-8.079012e+00
-8.026656e+00
-7.974771e+00
-7.923541e+00
-7.873019e+00
-7.823167e+00
-7.773958e+00
-7.725424e+00
-7.677627e+00
-7.630610e+00
-7.584419e+00
-7.539146e+00
-7.494919e+00
-7.451810e+00
-7.409774e+00
-7.368646e+00
-7.328180e+00
-7.288086e+00
-7.248067e+00
-7.207841e+00
-7.167121e+00
-7.125605e+00
-7.083011e+00
-7.039143e+00
-6.993901e+00
-6.947279e+00
-6.899368e+00
-6.850357e+00
-6.800486e+00
-6.749982e+00
-6.698982e+00
-6.647452e+00
-6.595188e+00
-6.541977e+00
-6.487826e+00
-6.433018e+00
-6.377927e+00
-6.322754e+00
-6.267450e+00
-6.211828e+00
-6.155730e+00
-6.099124e+00
-6.042092e+00
-5.984733e+00
-5.927059e+00
-5.868955e+00
-5.810205e+00
-5.750572e+00
-5.689946e+00
-5.628511e+00
-5.566749e+00
-5.505241e+00
-5.444413e+00
-5.384420e+00
-5.325164e+00
-5.266397e+00
-5.207833e+00
-5.149180e+00
-5.090088e+00
-5.030137e+00
-4.968930e+00
-4.906162e+00
-4.841601e+00
-4.775036e+00
-4.706257e+00
-4.635105e+00
-4.561534e+00
-4.485637e+00
-4.407638e+00
-4.327909e+00
-4.246999e+00
-4.165612e+00
-4.084522e+00
-4.004459e+00
-3.926048e+00
-3.849834e+00
-3.776332e+00
-3.706041e+00
-3.639389e+00
-3.576631e+00
-3.517787e+00
-3.462659e+00
-3.410915e+00
-3.362183e+00
-3.316137e+00
-3.272557e+00
-3.231289e+00
-3.192150e+00
-3.154844e+00
