EVENT_NAME: EMILIA_2ND_SHOCK
EVENT_ID: IT-2012-0011
EVENT_DATE_YYYYMMDD: 20120529
EVENT_TIME_HHMMSS: 070002
EVENT_LATITUDE_DEGREE: 44.8417
EVENT_LONGITUDE_DEGREE: 11.0657
EVENT_DEPTH_KM: 8.1
HYPOCENTER_REFERENCE: INGV-CNT_Seismic_Bulletin
MAGNITUDE_W: 6.0
MAGNITUDE_W_REFERENCE: RCMT-INGV
MAGNITUDE_L: 5.8
MAGNITUDE_L_REFERENCE: INGV-CNT_Seismic_Bulletin
FOCAL_MECHANISM: TF
NETWORK: TV
STATION_CODE: MIR08
STATION_NAME: QUARANTOLI 2
STATION_LATITUDE_DEGREE: 44.916900
STATION_LONGITUDE_DEGREE: 11.089500
STATION_ELEVATION_M: 
LOCATION: 
SENSOR_DEPTH_M: 
VS30_M/S: 
SITE_CLASSIFICATION_EC8: C*
MORPHOLOGIC_CLASSIFICATION: 
EPICENTRAL_DISTANCE_KM: 8.6
EARTHQUAKE_BACKAZIMUTH_DEGREE: 192.7
DATE_TIME_FIRST_SAMPLE_YYYYMMDD_HHMMSS: 20120529_065929.000
DATE_TIME_FIRST_SAMPLE_PRECISION: milliseconds
SAMPLING_INTERVAL_S: 0.005000
NDATA: 34001
DURATION_S: 170.005
STREAM: HNE
UNITS: cm/s^2
INSTRUMENT: sensor = Episensor FBA ES-T [Kinemetrics] | digitizer = Unknown [Unknown]
INSTRUMENT_ANALOG/DIGITAL: D
INSTRUMENTAL_FREQUENCY_HZ: 
INSTRUMENTAL_DAMPING: 
FULL_SCALE_G: 
N_BIT_DIGITAL_CONVERTER: 
PGA_CM/S^2: 218.970373
TIME_PGA_S: 42.200000
BASELINE_CORRECTION: BASELINE REMOVED
FILTER_TYPE: BUTTERWORTH
FILTER_ORDER: 2
LOW_CUT_FREQUENCY_HZ: 0.050
HIGH_CUT_FREQUENCY_HZ: 40.000
LATE/NORMAL_TRIGGERED: NT
DATABASE_VERSION: DYNA 1.0
HEADER_FORMAT: DYNA 1.2
DATA_TYPE: ACCELERATION
PROCESSING: manual (Paolucci et al., 2011)
DATA_TIMESTAMP_YYYYMMDD_HHMMSS: 
DATA_LICENSE: CC-BY4_0 (http://creativecommons.org/licenses/by/4.0/)
DATA_CITATION: ESM working group (2015), European Strong-Motion database, version 0.1, Network Activity 3: Networking acceleration networks and SM data users. Project NERA (www.nera-eu.org)
DATA_CREATOR: ESM working group
ORIGINAL_DATA_MEDIATOR_CITATION: Orfeus - European Integrated Data Archive (EIDA) http://www.orfeus-eu.org/eida/
ORIGINAL_DATA_MEDIATOR: Orfeus - European Integrated Data Archive (EIDA)
ORIGINAL_DATA_CREATOR_CITATION: 
ORIGINAL_DATA_CREATOR: network: TV (INGV Experiments Network); owner: Istituto Nazionale di Geofisica e Vulcanologia
USER1: 
USER2: 
USER3: 
USER4: 
USER5: 
[...]
-0.018764
-0.016984
-0.011967
-0.009447
-0.011278
-0.014558
-0.013767
-0.004981
0.010033
0.023082
0.024120
0.008713
-0.018133
-0.044232
-0.055714
-0.044596
-0.014938
0.018770
0.040197
0.040222
0.021155
-0.006152
-0.028936
-0.037681
-0.029695
-0.011237
0.005719
0.011965
0.007262
-0.001848
-0.008764
-0.010642
-0.008862
-0.007753
-0.010534
-0.015922
-0.019679
-0.018348
-0.011456
-0.001772
0.006200
0.008614
0.004306
-0.004500
-0.013269
-0.016881
-0.011836
0.000406
0.013231
0.019925
0.017648
0.007568
-0.005898
-0.016894
-0.020985
-0.016862
-0.006533
0.004941
0.011182
0.009378
0.003313
-0.001054
-0.001440
0.000597
0.002000
-0.000068
-0.005949
-0.012298
-0.014577
-0.010958
-0.003117
0.005661
0.011675
0.012020
0.006486
-0.002085
-0.009603
-0.013402
-0.013390
-0.010879
-0.007637
-0.005269
-0.003506
-0.000359
0.004359
0.007694
0.007405
0.004299
-0.000072
-0.004650
-0.008102
-0.009588
-0.009833
-0.009966
-0.009745
-0.008559
-0.007286
-0.006752
-0.005871
-0.003845
-0.002460
-0.003796
-0.007229
-0.010526
-0.012090
-0.011256
-0.007954
-0.002711
0.002928
0.006895
0.008350
0.007273
0.002667
-0.005797
-0.014839
-0.019144
-0.016139
-0.007736
0.002389
0.011313
0.017228
0.019636
0.018742
0.013099
-0.000619
-0.022854
-0.046326
-0.058719
-0.051926
-0.028738
-0.000426
0.022480
0.036830
0.044331
0.044907
0.034815
0.011095
-0.021594
-0.048911
-0.055917
-0.039809
-0.011204
0.015648
0.030553
0.028959
0.013329
-0.006860
-0.021466
-0.026139
-0.021622
-0.010359
0.004897
0.021260
0.034382
0.036952
0.022234
-0.008418
-0.043367
-0.066602
-0.065126
-0.034476
0.017443
0.073085
0.116603
0.142128
0.150854
0.145960
0.130807
0.106104
0.070025
0.027027
-0.004168
-0.000663
0.039258
0.085986
0.104095
0.092696
0.094919
0.152851
0.246336
0.286382
0.186018
-0.047739
-0.291996
-0.394520
-0.302819
-0.120497
-0.025090
-0.104654
-0.273403
-0.351946
-0.221366
0.067394
0.289593
0.204681
-0.184783
-0.552867
-0.541244
-0.149476
0.257045
0.343505
0.110610
-0.212309
-0.443395
-0.544897
-0.539307
-0.411198
-0.094845
0.436726
1.076776
1.580897
1.653759
1.102686
-0.013700
-1.366797
-2.473184
-2.846965
-2.192193
-0.639561
1.144976
2.244114
2.201991
1.527998
1.201326
1.584113
2.025904
1.592446
0.099154
-1.619636
-2.452147
-1.954044
-0.630665
0.561995
1.057313
1.076440
1.186733
1.738431
2.703995
3.505091
3.137980
1.172540
-1.564518
-3.819395
-5.099281
-5.603060
-5.348521
-4.093818
-2.098942
-0.154347
1.343131
2.700675
4.282075
6.098258
7.860175
8.813289
7.676900
3.519014
-2.902228
-8.916332
-11.689043
-10.577964
-7.473283
-4.702249
-3.148008
-2.366636
-1.604442
-0.404535
1.317045
3.494121
5.963840
8.220778
9.330384
8.230665
4.689084
0.405946
-1.813316
-0.954860
0.686742
-0.294959
-4.728224
-9.833198
-12.026931
-10.177782
-5.690517
-0.408370
4.409395
7.769479
8.955358
7.880556
5.229453
2.610148
2.061616
4.167858
6.712493
6.263772
1.259236
-6.566649
-13.057018
-14.063001
-8.558658
0.038738
6.204209
6.288670
0.858404
-5.821556
-8.600615
-4.829739
3.809667
12.259536
15.501313
11.807220
3.112286
-6.306549
-11.079007
-7.659487
1.697455
9.515145
9.528742
1.967265
-7.913983
-14.837425
-15.974015
-10.618015
-0.459544
9.907639
15.086983
12.603816
4.613615
-3.516064
-6.465735
-2.571614
4.420214
7.699372
2.974292
-7.401603
-16.003613
-16.435835
-8.386044
2.634642
10.127115
11.100634
6.488203
-0.655915
-6.082101
-5.758472
1.002675
10.240229
16.165411
14.945028
6.111453
-7.667056
-20.716660
-25.798647
-18.750639
-2.898483
12.552535
19.610390
17.265833
10.857412
6.317533
5.131606
4.474867
1.168791
-4.991464
-11.092970
-13.845027
-12.403416
-8.149480
-2.573784
3.018567
6.446185
5.610443
1.053694
-3.830862
-5.981263
-4.898770
-0.923997
6.196210
14.776175
19.918026
17.972380
10.475167
1.279513
-8.061439
-17.551401
-25.076712
-26.376940
-18.989153
-4.764710
11.555477
24.594479
29.595337
24.353916
11.180656
-3.990162
-15.135279
-19.149319
-16.471277
-10.220259
-4.680971
-2.710396
-3.250382
-2.183014
3.094611
10.341703
14.749293
14.193349
11.098505
8.887163
7.782496
5.512241
1.440526
-2.321545
-4.203765
-5.585051
-8.977523
-14.680319
-20.094702
-21.972052
-18.240032
-8.163411
6.460216
19.362106
22.739759
15.084333
3.842994
-2.277097
-2.135591
-1.324467
-3.733566
-6.853429
-6.288590
-2.141466
1.616800
2.758917
3.441323
7.014843
12.724988
14.604422
7.367648
-6.767843
-18.889246
-20.918531
-11.571347
3.783128
17.228098
22.424309
17.184752
4.559051
-8.821142
-17.003313
-17.492542
-10.831916
0.075650
10.577308
16.599443
16.762287
12.368262
6.196414
0.520114
-4.377134
-9.186034
-13.486574
-15.139316
-11.663423
-2.937099
7.458351
14.763245
16.810051
14.530984
9.379728
1.471958
-9.030770
-19.083267
-23.455153
-20.013706
-12.733986
-7.184479
-4.320824
-1.067570
4.110492
8.975872
10.886316
9.944950
8.169521
7.636836
9.561608
13.208627
15.954524
15.668365
12.739828
9.173108
5.927231
1.928929
-4.057552
-10.946698
-15.252812
-14.417338
-9.646631
-3.577632
3.784187
13.612583
22.969265
24.674782
14.472658
-3.309976
-18.929178
-25.364113
-22.538126
-14.922559
-7.291141
-3.079983
-4.089354
-8.517705
-10.272079
-4.416668
6.377300
14.045389
13.603738
6.735039
-2.273523
-10.777977
-17.248522
-19.327353
-15.065700
-5.568517
5.530053
14.897345
20.725536
22.616842
21.786715
20.069679
17.429787
11.577365
0.986458
-12.619334
-24.868595
-30.542389
-25.872467
-12.068788
3.802388
14.227383
17.220839
15.428238
11.028814
4.299613
-3.034459
-6.612067
-4.041950
1.743656
6.558512
10.242776
15.355921
22.691668
29.791441
32.175468
25.976910
10.813264
-9.996615
-30.984863
-45.630295
-48.863968
-40.315022
-24.505350
-8.755792
0.070502
0.382357
-3.265025
-5.294246
-1.523733
11.378837
30.468433
42.194843
33.345013
7.254585
-18.023294
-28.960266
-27.723097
-22.078230
-12.374409
4.077646
21.113796
26.085184
14.934086
-1.151556
-7.724933
-2.748122
4.125012
4.882915
-0.833563
-10.520956
-21.251863
-27.107639
-21.297535
-3.753075
17.368923
33.838093
43.334682
46.878025
44.488819
34.076618
14.383032
-10.453380
-32.084026
-43.846233
-42.822582
-30.123644
-13.392667
-3.107856
-1.291919
0.655659
9.825622
23.464706
34.200649
37.296097
30.982794
15.885833
-2.110494
-13.129839
-11.947940
-4.321800
-2.462530
-13.302145
-32.867779
-52.535923
-65.492973
-65.249001
-45.109657
-5.186303
42.221626
78.783455
91.911713
79.694244
48.588066
11.373969
-15.872562
-24.264650
-21.651264
-23.524908
-33.111416
-39.348267
-33.121529
-15.771538
5.734408
24.789326
38.653126
48.493572
54.562977
52.435242
36.191689
6.288704
-26.883142
-50.071980
-57.077400
-50.595764
-38.411160
-28.555893
-23.315735
-17.838324
-7.143083
7.747584
21.864811
30.418646
29.330400
16.971611
-0.844988
-11.922922
-8.784619
2.423062
7.004629
-3.713705
-23.370327
-36.332962
-30.662046
-4.375010
35.359547
73.416351
92.057823
82.806831
52.297581
14.562753
-19.161064
-42.903992
-54.331287
-54.219505
-45.282482
-29.765045
-9.848621
10.124426
25.155272
32.694859
31.747526
21.704132
5.496837
-9.244020
-15.928336
-14.495766
-10.264972
-9.384148
-15.127027
-25.603230
-33.813221
-31.482914
-14.896173
11.881443
38.630230
54.567654
55.905880
48.793858
41.866070
36.993813
30.924107
22.222736
10.725591
-5.236532
-23.339520
-33.350651
-28.138323
-16.531796
-15.356399
-27.675138
-37.429596
-28.802114
-4.418568
19.835764
31.866993
29.282913
15.287742
-2.638704
-14.149104
-13.003785
-1.970434
10.829918
19.185101
21.764669
19.486391
12.822125
3.368204
-3.883183
-3.873584
2.249058
6.619579
0.511961
-18.382061
-40.731609
-50.064430
-38.960144
-18.295515
-4.202056
0.797531
7.107710
20.611507
32.698799
30.464260
13.111754
-7.077211
-18.652454
-20.043642
-14.990350
-5.639459
6.087829
14.805265
15.742612
11.881970
12.324709
22.520180
37.843445
47.381027
44.290527
32.714272
23.200874
21.155598
21.850376
16.514019
1.587633
-17.634111
-31.830406
-35.398029
-28.952919
-16.671295
-3.482172
6.194898
8.853616
2.961387
-8.593675
-17.666084
-15.635560
-1.540959
15.692866
24.547400
19.009140
0.632516
-22.442692
-37.788639
-34.945202
-13.568035
14.633800
34.759338
40.687927
37.115875
30.581228
22.013676
9.859025
-3.359857
-13.019225
-18.568327
-22.177710
-24.171595
-24.478079
-24.452024
-22.802071
-13.728218
6.769337
34.953415
60.955132
74.409088
69.866371
49.675327
22.397432
-1.296011
-13.308259
-13.468490
-10.477184
-13.776292
-24.239031
-34.876141
-39.148632
-35.632755
-25.646269
-10.577834
6.324005
17.632132
14.556410
-6.076840
-36.830868
-62.219421
-69.207344
-57.577343
-39.285179
-26.538683
-21.307785
-16.668941
-5.912642
11.179240
28.692816
38.782814
36.313995
21.269535
-1.868464
-25.598534
-40.606712
-39.179863
-21.191099
3.454668
21.383848
26.509617
23.356470
19.387100
16.456619
11.475256
3.262569
-4.441364
-7.429169
-6.565133
-6.547789
-9.617994
-12.928689
-12.203071
-6.455403
0.768854
4.186733
1.023469
-7.324630
-17.248550
-25.228786
-28.353951
-24.883648
-16.059235
-6.908607
-3.360699
-6.699505
-11.362112
-10.372850
-2.824327
5.574961
8.863760
6.549758
3.053772
2.005907
2.123052
-0.223256
-5.347132
-9.178916
-7.204423
2.449773
18.630503
37.541550
53.735424
61.702385
57.744766
42.675068
23.007515
7.107328
-0.625149
-0.516438
6.296862
19.019457
34.898952
50.490875
64.810753
77.073288
83.573013
80.187111
65.868576
43.966938
22.596832
11.253926
13.830057
24.933453
33.939339
33.703304
25.448713
14.835484
5.365822
-3.104236
-12.434517
-24.815742
-41.312649
-60.254612
-77.096504
-85.925850
-82.343979
-66.563293
-43.746140
-20.924381
-3.812831
4.517279
4.483392
-0.145930
-5.183712
-8.811357
-11.087681
-12.676595
-14.254778
-15.195135
-13.322566
-7.246285
1.671341
9.771232
13.180335
10.364821
3.358890
-3.294727
-4.523544
2.671432
15.991814
28.416897
34.824650
36.700031
38.545532
42.489681
47.738079
51.876099
52.016178
47.811398
42.855118
39.916759
35.899879
24.646177
4.011172
-21.426823
-43.673714
-57.220566
-63.446438
-69.060379
-78.640030
-89.458267
-94.967522
-91.437149
-79.391808
-61.285816
-40.848026
-23.035725
-11.312887
-4.999790
-1.542690
-1.167322
-6.083758
-14.748743
-21.187386
-21.416273
-17.236198
-13.237783
-12.979283
-17.739334
-25.986046
-33.679699
-36.871178
-34.531029
-28.485958
-20.915323
-12.131127
-0.694800
14.046451
29.733896
41.611698
45.083031
38.358315
23.791611
6.454846
-9.034364
-20.207680
-25.942692
-25.343224
-17.906090
-4.015117
15.021373
36.780376
57.762100
74.725182
86.206161
92.019478
91.467415
83.363068
68.161415
48.829556
29.090687
11.665011
-1.902760
-11.312599
-18.104725
-24.556173
-30.120649
-30.116091
-20.788898
-5.620338
6.172540
8.225373
2.464376
-3.907536
-5.056296
-0.444296
6.203278
10.689701
10.542325
4.852315
-5.831066
-19.281305
-32.094845
-41.371128
-47.159382
-52.756176
-61.261124
-72.520119
-84.120407
-93.812378
-99.887146
-100.965218
-97.753098
-94.584473
-96.761688
-105.438461
-116.271980
-123.295036
-123.225365
-117.101242
-109.195847
-103.108070
-98.358864
-92.354279
-84.697693
-76.857628
-68.166405
-55.191330
-36.364365
-15.588158
0.655526
9.317890
12.620862
14.578280
17.597912
22.571823
30.013689
39.426762
47.900726
50.795017
45.396896
33.825401
20.890625
9.287881
-1.950748
-15.026418
-30.772112
-47.988441
-64.120979
-76.322159
-82.387985
-81.486717
-74.821465
-65.644478
-57.557911
-51.858765
-46.588989
-38.493122
-26.075941
-11.042346
2.825404
12.256134
17.150080
21.508478
30.518690
45.698189
63.867119
80.872910
94.646057
104.985703
112.480682
118.065208
122.624954
126.411324
128.718201
128.371826
125.102730
120.715042
118.211113
118.945137
121.245003
122.543922
121.390190
115.465210
98.656883
64.049042
13.121103
-39.875015
-78.173035
-97.319290
-104.558609
-105.479668
-100.314919
-92.612450
-90.538544
-96.736443
-104.134979
-104.456894
-96.455467
-84.061104
-70.251923
-55.508003
-40.090580
-24.912325
-10.569567
2.867252
14.899766
23.874901
27.232491
22.581165
9.347492
-9.916941
-30.163692
-46.350491
-55.639839
-57.632801
-52.852757
-40.999340
-20.796364
8.029521
42.357304
75.629395
101.020325
114.966454
117.426376
109.324211
90.989677
63.493435
30.706388
-1.098287
-26.047688
-40.871304
-44.906616
-39.055531
-25.559473
-8.863168
5.209366
13.349125
17.187675
20.496550
24.940474
29.706652
34.212566
39.555202
47.552681
59.266449
73.389137
83.982819
79.942619
50.696087
-2.437834
-61.388416
-104.944824
-128.311005
-141.641357
-150.893417
-152.933197
-149.088898
-147.638870
-149.675613
-146.192734
-133.216614
-119.245369
-114.305565
-118.778419
-125.344391
-127.969208
-126.730530
-124.963509
-124.718300
-126.500168
-130.659348
-136.378372
-140.604340
-139.466476
-129.705948
-107.844093
-69.820404
-15.518193
44.757076
93.535706
121.641647
136.642227
150.309296
163.853973
172.723206
178.868530
189.093719
204.187378
216.531769
218.970367
211.995956
200.796967
188.938110
177.309677
166.376877
156.725327
147.834488
136.490158
116.428444
82.247383
36.109032
-11.259734
-48.975094
-74.179764
-89.701263
-96.389519
-92.469910
-78.994484
-60.229439
-38.358891
-12.528509
16.715305
46.029121
72.004517
92.585320
106.899429
115.765945
121.447998
125.260994
125.635239
119.913277
108.312683
94.677246
82.795067
73.494484
65.996651
60.565178
58.807007
62.216278
71.321594
85.694290
102.721046
114.707039
109.139969
76.841270
22.591827
-34.980488
-77.801102
-101.236267
-109.939575
-106.370773
-91.427269
-72.800919
-62.713940
-66.215118
-76.926430
-84.811577
-84.729988
-77.682869
-67.663979
-58.497917
-51.191837
-43.507793
-33.511833
-22.541098
-12.710652
-3.290878
7.622330
18.991789
27.422995
32.414474
39.090927
53.779484
76.678780
99.699318
111.520851
104.833092
80.339012
45.406273
8.968718
-22.551605
-45.501137
-58.420193
-62.869629
-62.371147
-58.831886
-51.981487
-42.870598
-35.217651
-32.457626
-35.021019
-40.429836
-45.133995
-47.032059
-47.285027
-49.475193
-56.027794
-64.782578
-69.528969
-64.888756
-51.003609
-33.333931
-17.868284
-6.313884
5.084343
23.188520
53.270287
93.371292
132.141449
154.776962
154.091293
136.126205
114.003769
97.445526
89.595398
90.613525
98.812050
108.277611
110.667160
102.117195
86.391670
70.116524
56.840019
46.164989
36.112885
25.010942
12.541641
0.110072
-10.335686
-18.246572
-24.544346
-29.167393
-29.566044
-23.605665
-14.114566
-8.061911
-9.456995
-15.070955
-19.581308
-22.664379
-28.125984
-38.226830
-51.135548
-62.516804
-68.997765
-70.603043
-69.260918
-65.775856
-60.003464
-53.136314
-47.484901
-43.321712
-37.861099
-29.737606
-23.179630
-24.283537
-33.721794
-45.632988
-52.170982
-47.546417
-31.141062
-9.442275
8.570770
20.544125
31.669880
45.872253
61.297096
74.162231
82.008652
84.409317
83.518394
82.267273
81.832489
82.684288
85.965485
90.726166
91.510925
82.492241
64.197289
44.096554
30.856812
29.063673
37.973858
52.923691
67.427872
75.365440
72.893105
59.317936
36.886459
9.956022
-16.782787
-40.770008
-62.386871
-82.710655
-100.711082
-113.523239
-119.788635
-121.899200
-123.891441
-127.496887
-131.468292
-134.413620
-136.388367
-137.186203
-134.865356
-127.233047
-113.839699
-95.706642
-74.361107
-52.353313
-33.469891
-20.571867
-13.539984
-10.530660
-10.818465
-15.462454
-25.676291
-41.217865
-59.868782
-78.209496
-93.303772
-103.613014
-108.658325
-108.717636
-104.335953
-95.008446
-78.663551
-53.252731
-19.480324
17.454082
49.404003
69.858551
77.482986
75.191490
66.273094
52.458683
35.921810
21.084171
12.276186
9.969165
10.501816
8.973897
1.211614
-15.578140
-39.828907
-62.556293
-72.465897
-66.378502
-50.133289
-28.851135
-3.349178
22.816145
41.225342
47.187363
44.677944
39.368652
31.386118
18.792952
4.624058
-4.089798
-2.743096
7.872653
22.860817
35.550724
40.646641
37.790062
32.460682
32.176048
40.630718
55.058964
68.993240
77.547096
80.661453
81.747581
83.208618
83.872704
81.538750
76.785858
72.152428
68.376816
64.028885
58.430897
52.186291
44.179703
30.073315
5.775299
-27.186571
-60.786278
-86.095108
-99.372879
-102.071182
-96.707596
-84.771912
-67.101288
-43.811680
-14.516725
19.647318
54.015244
80.402138
89.177299
73.795990
37.425167
-4.637365
-34.525421
-46.547897
-48.571255
-48.870724
-48.843716
-48.484070
-48.865295
-47.179234
-38.375854
-24.206650
-14.302031
-16.625124
-30.249308
-47.385345
-59.579300
-62.015850
-54.812214
-42.036934
-29.203588
-20.656540
-17.779493
-18.133512
-16.150768
-5.756782
16.476494
49.374367
87.127281
121.650284
146.321884
158.395081
159.251068
153.353607
145.822006
139.750977
136.155106
136.342880
142.562332
154.223373
162.425995
149.984192
102.952919
27.685289
-47.178772
-93.824654
-108.171524
-102.876755
-85.431534
-56.415154
-22.966494
2.303738
14.627401
17.967234
14.616241
3.190739
-14.484031
-31.839005
-43.105316
-46.451023
-42.902569
-36.196484
-32.386917
-35.688160
-44.687145
-53.974442
-58.727638
-57.281322
-50.877628
-42.496670
-35.370705
-30.938328
-27.750256
-23.114973
-16.108002
-8.806539
-4.807920
-6.578052
-13.671291
-22.899527
-29.918997
-31.286346
-26.387316
-17.874918
-9.702587
-4.403489
-1.916740
-0.429741
1.750347
4.780969
7.483640
8.896694
9.445587
10.422230
12.590410
15.489452
17.731127
17.839058
15.125998
9.919708
3.170743
-3.794481
-9.437787
-12.787059
-14.454368
-16.420773
-20.184122
-25.213982
-29.628786
-32.198933
-33.334869
-34.354118
-36.223438
-39.017094
-42.223572
-45.041798
-46.130619
-43.840706
-37.735470
-29.678007
-22.608288
-18.239468
-16.170389
-14.864315
-13.160650
-10.984508
-8.859261
-7.216647
-6.543783
-7.556491
-10.422511
-14.174405
-17.433079
-19.381483
-19.810900
-18.656633
-15.777773
-11.110747
-4.923945
2.101004
8.803163
13.318104
13.036784
5.276243
-10.721534
-31.065126
-47.574944
-53.947578
-51.709873
-47.173771
-43.424423
-39.400097
-35.251328
-33.183914
-33.250057
-31.993143
-25.586426
-13.237515
2.138462
16.109543
25.610373
30.326258
32.254200
34.037949
37.380444
42.860748
50.377392
58.967392
66.961533
73.341270
78.720543
84.493126
91.149391
97.548325
101.592171
101.360313
95.407082
82.155487
60.044357
29.492413
-5.216971
-37.256355
-61.450386
-76.786194
-84.781532
-87.207253
-86.218864
-84.405647
-82.711693
-79.396805
-72.372787
-61.723228
-49.266998
-36.879265
-26.107040
-18.354986
-14.188434
-12.646066
-11.864747
-10.185183
-6.601154
-0.999147
5.537453
11.015918
13.579458
