EVENT_NAME: EMILIA_2ND_SHOCK
EVENT_ID: IT-2012-0011
EVENT_DATE_YYYYMMDD: 20120529
EVENT_TIME_HHMMSS: 070002
EVENT_LATITUDE_DEGREE: 44.8417
EVENT_LONGITUDE_DEGREE: 11.0657
EVENT_DEPTH_KM: 8.1
HYPOCENTER_REFERENCE: INGV-CNT_Seismic_Bulletin
MAGNITUDE_W: 6.0
MAGNITUDE_W_REFERENCE: RCMT-INGV
MAGNITUDE_L: 5.8
MAGNITUDE_L_REFERENCE: INGV-CNT_Seismic_Bulletin
FOCAL_MECHANISM: TF
NETWORK: TV
STATION_CODE: MIR05
STATION_NAME: POGGIO RUSCO
STATION_LATITUDE_DEGREE: 44.980800
STATION_LONGITUDE_DEGREE: 11.107190
STATION_ELEVATION_M: 
LOCATION: 
SENSOR_DEPTH_M: 
VS30_M/S: 
SITE_CLASSIFICATION_EC8: C*
MORPHOLOGIC_CLASSIFICATION: 
EPICENTRAL_DISTANCE_KM: 15.8
EARTHQUAKE_BACKAZIMUTH_DEGREE: 192.0
DATE_TIME_FIRST_SAMPLE_YYYYMMDD_HHMMSS: 20120529_065929.000
DATE_TIME_FIRST_SAMPLE_PRECISION: milliseconds
SAMPLING_INTERVAL_S: 0.005000
NDATA: 30001
DURATION_S: 150.005
STREAM: HNZ
UNITS: cm/s
INSTRUMENT: sensor = Episensor FBA ES-T [Kinemetrics] | digitizer = Unknown [Unknown]
INSTRUMENT_ANALOG/DIGITAL: D
INSTRUMENTAL_FREQUENCY_HZ: 
INSTRUMENTAL_DAMPING: 
FULL_SCALE_G: 
N_BIT_DIGITAL_CONVERTER: 
PGV_CM/S: 4.338443
TIME_PGV_S: 40.795000
BASELINE_CORRECTION: BASELINE REMOVED
FILTER_TYPE: BUTTERWORTH
FILTER_ORDER: 2
LOW_CUT_FREQUENCY_HZ: 0.070
HIGH_CUT_FREQUENCY_HZ: 40.000
LATE/NORMAL_TRIGGERED: NT
DATABASE_VERSION: DYNA 1.0
HEADER_FORMAT: DYNA 1.2
DATA_TYPE: VELOCITY
PROCESSING: manual (Paolucci et al., 2011)
DATA_TIMESTAMP_YYYYMMDD_HHMMSS: 
DATA_LICENSE: CC-BY4_0 (http://creativecommons.org/licenses/by/4.0/)
DATA_CITATION: ESM working group (2015), European Strong-Motion database, version 0.1, Network Activity 3: Networking acceleration networks and SM data users. Project NERA (www.nera-eu.org)
DATA_CREATOR: ESM working group
ORIGINAL_DATA_MEDIATOR_CITATION: Orfeus - European Integrated Data Archive (EIDA) http://www.orfeus-eu.org/eida/
ORIGINAL_DATA_MEDIATOR: Orfeus - European Integrated Data Archive (EIDA)
ORIGINAL_DATA_CREATOR_CITATION: 
ORIGINAL_DATA_CREATOR: network: TV (INGV Experiments Network); owner: Istituto Nazionale di Geofisica e Vulcanologia
USER1: 
USER2: 
USER3: 
USER4: 
USER5: 
[...]
0.011662
0.011676
0.011692
0.011719
0.011754
0.011781
0.011790
0.011778
0.011744
0.011703
0.011670
0.011651
0.011646
0.011653
0.011677
0.011718
0.011770
0.011825
0.011881
0.011938
0.011992
0.012045
0.012097
0.012145
0.012176
0.012188
0.012185
0.012177
0.012170
0.012161
0.012149
0.012133
0.012119
0.012109
0.012107
0.012115
0.012134
0.012154
0.012162
0.012149
0.012117
0.012081
0.012055
0.012045
0.012050
0.012075
0.012125
0.012199
0.012284
0.012366
0.012434
0.012478
0.012497
0.012495
0.012476
0.012446
0.012411
0.012374
0.012342
0.012328
0.012335
0.012356
0.012385
0.012423
0.012472
0.012531
0.012604
0.012689
0.012774
0.012843
0.012896
0.012948
0.013010
0.013087
0.013166
0.013235
0.013288
0.013328
0.013367
0.013415
0.013474
0.013533
0.013580
0.013607
0.013612
0.013597
0.013562
0.013515
0.013467
0.013421
0.013375
0.013332
0.013298
0.013274
0.013262
0.013262
0.013274
0.013299
0.013336
0.013381
0.013425
0.013454
0.013458
0.013434
0.013385
0.013315
0.013231
0.013143
0.013070
0.013037
0.013048
0.013097
0.013172
0.013263
0.013361
0.013454
0.013535
0.013595
0.013628
0.013628
0.013593
0.013537
0.013477
0.013424
0.013374
0.013320
0.013264
0.013216
0.013195
0.013212
0.013268
0.013351
0.013441
0.013521
0.013587
0.013646
0.013704
0.013754
0.013784
0.013787
0.013768
0.013742
0.013725
0.013719
0.013725
0.013754
0.013817
0.013920
0.014051
0.014182
0.014287
0.014364
0.014420
0.014461
0.014482
0.014476
0.014453
0.014428
0.014419
0.014432
0.014463
0.014494
0.014515
0.014528
0.014538
0.014547
0.014554
0.014555
0.014551
0.014548
0.014552
0.014564
0.014584
0.014607
0.014622
0.014618
0.014593
0.014560
0.014533
0.014515
0.014507
0.014506
0.014505
0.014501
0.014490
0.014470
0.014439
0.014401
0.014360
0.014322
0.014295
0.014277
0.014264
0.014256
0.014259
0.014275
0.014308
0.014357
0.014413
0.014466
0.014508
0.014540
0.014568
0.014590
0.014612
0.014641
0.014674
0.014700
0.014711
0.014710
0.014706
0.014707
0.014716
0.014735
0.014764
0.014800
0.014841
0.014890
0.014949
0.015023
0.015115
0.015212
0.015306
0.015394
0.015463
0.015505
0.015518
0.015514
0.015501
0.015488
0.015480
0.015479
0.015484
0.015491
0.015498
0.015507
0.015517
0.015529
0.015549
0.015582
0.015624
0.015666
0.015697
0.015705
0.015686
0.015647
0.015597
0.015538
0.015470
0.015405
0.015361
0.015330
0.015287
0.015233
0.015192
0.015158
0.015109
0.015062
0.015034
0.015011
0.014997
0.015009
0.015040
0.015068
0.015092
0.015121
0.015148
0.015170
0.015188
0.015197
0.015204
0.015220
0.015243
0.015252
0.015237
0.015215
0.015209
0.015226
0.015262
0.015313
0.015376
0.015446
0.015519
0.015597
0.015678
0.015763
0.015850
0.015935
0.016005
0.016051
0.016075
0.016086
0.016088
0.016080
0.016059
0.016021
0.015969
0.015918
0.015880
0.015860
0.015857
0.015865
0.015875
0.015884
0.015888
0.015892
0.015905
0.015930
0.015967
0.016015
0.016071
0.016129
0.016183
0.016221
0.016231
0.016211
0.016166
0.016100
0.016029
0.015969
0.015925
0.015894
0.015872
0.015860
0.015857
0.015855
0.015852
0.015869
0.015924
0.016009
0.016095
0.016156
0.016183
0.016179
0.016152
0.016114
0.016074
0.016036
0.016014
0.016021
0.016053
0.016096
0.016138
0.016172
0.016192
0.016197
0.016188
0.016173
0.016154
0.016132
0.016110
0.016098
0.016107
0.016145
0.016209
0.016290
0.016376
0.016455
0.016514
0.016547
0.016551
0.016530
0.016495
0.016452
0.016397
0.016328
0.016248
0.016162
0.016081
0.016024
0.016003
0.016024
0.016086
0.016171
0.016263
0.016348
0.016425
0.016493
0.016539
0.016552
0.016530
0.016478
0.016408
0.016334
0.016270
0.016221
0.016195
0.016203
0.016252
0.016340
0.016454
0.016575
0.016687
0.016778
0.016842
0.016876
0.016877
0.016846
0.016795
0.016738
0.016687
0.016653
0.016654
0.016696
0.016771
0.016855
0.016917
0.016937
0.016914
0.016860
0.016788
0.016703
0.016600
0.016481
0.016359
0.016251
0.016172
0.016131
0.016128
0.016155
0.016196
0.016231
0.016245
0.016228
0.016179
0.016106
0.016023
0.015945
0.015885
0.015847
0.015829
0.015831
0.015844
0.015863
0.015889
0.015931
0.015993
0.016077
0.016170
0.016260
0.016332
0.016376
0.016391
0.016387
0.016366
0.016327
0.016274
0.016224
0.016189
0.016177
0.016195
0.016247
0.016327
0.016425
0.016530
0.016635
0.016730
0.016809
0.016867
0.016895
0.016885
0.016837
0.016756
0.016653
0.016541
0.016436
0.016358
0.016325
0.016338
0.016392
0.016473
0.016563
0.016647
0.016714
0.016754
0.016763
0.016742
0.016702
0.016655
0.016606
0.016548
0.016477
0.016399
0.016339
0.016326
0.016364
0.016437
0.016526
0.016615
0.016686
0.016727
0.016738
0.016725
0.016683
0.016610
0.016503
0.016378
0.016251
0.016135
0.016033
0.015943
0.015867
0.015819
0.015818
0.015868
0.015964
0.016090
0.016221
0.016320
0.016357
0.016321
0.016222
0.016077
0.015906
0.015732
0.015579
0.015471
0.015427
0.015464
0.015587
0.015786
0.016027
0.016264
0.016457
0.016579
0.016619
0.016576
0.016463
0.016297
0.016100
0.015899
0.015723
0.015597
0.015529
0.015519
0.015571
0.015682
0.015832
0.015997
0.016156
0.016294
0.016394
0.016437
0.016412
0.016327
0.016193
0.016016
0.015811
0.015602
0.015418
0.015287
0.015221
0.015227
0.015306
0.015450
0.015645
0.015864
0.016080
0.016267
0.016409
0.016487
0.016486
0.016402
0.016243
0.016031
0.015804
0.015605
0.015477
0.015442
0.015491
0.015600
0.015748
0.015920
0.016098
0.016255
0.016356
0.016380
0.016324
0.016195
0.016011
0.015796
0.015579
0.015384
0.015231
0.015135
0.015102
0.015122
0.015165
0.015207
0.015249
0.015273
0.015257
0.015207
0.015143
0.015065
0.014977
0.014891
0.014813
0.014741
0.014685
0.014665
0.014694
0.014765
0.014860
0.014958
0.015047
0.015122
0.015179
0.015208
0.015202
0.015161
0.015087
0.014983
0.014854
0.014713
0.014581
0.014475
0.014411
0.014399
0.014443
0.014534
0.014659
0.014805
0.014949
0.015058
0.015098
0.015057
0.014955
0.014818
0.014662
0.014493
0.014316
0.014141
0.013994
0.013904
0.013884
0.013936
0.014049
0.014203
0.014369
0.014519
0.014638
0.014729
0.014796
0.014831
0.014823
0.014765
0.014655
0.014514
0.014374
0.014270
0.014206
0.014160
0.014111
0.014071
0.014063
0.014096
0.014158
0.014222
0.014274
0.014309
0.014328
0.014326
0.014299
0.014247
0.014172
0.014082
0.013986
0.013891
0.013806
0.013735
0.013681
0.013639
0.013600
0.013560
0.013532
0.013523
0.013534
0.013551
0.013559
0.013546
0.013520
0.013497
0.013490
0.013490
0.013472
0.013421
0.013342
0.013251
0.013162
0.013085
0.013031
0.013009
0.013013
0.013025
0.013033
0.013039
0.013049
0.013062
0.013075
0.013074
0.013042
0.012958
0.012818
0.012639
0.012451
0.012279
0.012131
0.012016
0.011942
0.011906
0.011899
0.011916
0.011952
0.011997
0.012046
0.012101
0.012170
0.012240
0.012287
0.012292
0.012250
0.012168
0.012056
0.011927
0.011802
0.011700
0.011632
0.011601
0.011615
0.011679
0.011784
0.011909
0.012026
0.012116
0.012164
0.012153
0.012070
0.011920
0.011720
0.011497
0.011282
0.011105
0.010987
0.010942
0.010969
0.011054
0.011176
0.011303
0.011413
0.011498
0.011556
0.011566
0.011504
0.011363
0.011162
0.010934
0.010716
0.010543
0.010445
0.010432
0.010495
0.010608
0.010739
0.010865
0.010969
0.011035
0.011054
0.011025
0.010946
0.010822
0.010666
0.010498
0.010328
0.010165
0.010019
0.009897
0.009800
0.009722
0.009656
0.009597
0.009540
0.009494
0.009476
0.009486
0.009497
0.009477
0.009413
0.009315
0.009192
0.009042
0.008857
0.008634
0.008363
0.008011
0.007529
0.006877
0.006024
0.004946
0.003631
0.002094
0.000360
-0.001567
-0.003728
-0.006189
-0.009015
-0.012293
-0.016175
-0.020841
-0.026346
-0.032583
-0.039476
-0.047188
-0.056077
-0.066474
-0.078488
-0.091894
-0.106160
-0.120656
-0.134833
-0.148219
-0.160531
-0.172066
-0.183760
-0.196481
-0.210146
-0.223819
-0.236905
-0.249863
-0.263043
-0.275391
-0.285605
-0.294063
-0.302124
-0.310082
-0.316371
-0.317062
-0.306579
-0.283003
-0.253726
-0.231926
-0.225479
-0.230917
-0.236633
-0.228594
-0.197708
-0.149567
-0.103633
-0.075639
-0.064183
-0.057975
-0.049715
-0.039539
-0.031022
-0.028037
-0.032484
-0.041646
-0.049629
-0.054250
-0.059263
-0.065727
-0.066446
-0.056399
-0.044539
-0.046326
-0.065690
-0.090992
-0.109727
-0.122488
-0.136774
-0.148199
-0.139540
-0.104398
-0.061286
-0.036261
-0.037969
-0.053807
-0.064647
-0.060806
-0.048518
-0.043891
-0.059308
-0.093754
-0.135827
-0.175159
-0.206869
-0.224609
-0.218756
-0.187659
-0.144267
-0.108007
-0.095693
-0.118288
-0.174671
-0.246506
-0.307738
-0.340622
-0.340594
-0.315387
-0.288092
-0.290150
-0.337440
-0.414667
-0.486089
-0.518234
-0.498488
-0.445227
-0.400092
-0.397309
-0.433309
-0.471822
-0.483080
-0.470721
-0.454121
-0.433506
-0.384559
-0.287118
-0.152624
-0.020021
0.074849
0.124155
0.144058
0.150002
0.139201
0.099852
0.034210
-0.036909
-0.092557
-0.125177
-0.136696
-0.130289
-0.108001
-0.075076
-0.046851
-0.046424
-0.086305
-0.150073
-0.198479
-0.197394
-0.139284
-0.041953
0.068096
0.171852
0.258337
0.312929
0.320019
0.286088
0.247228
0.236806
0.247466
0.239398
0.188850
0.116322
0.062454
0.046519
0.053662
0.054408
0.029847
-0.020200
-0.088957
-0.174638
-0.270421
-0.345568
-0.356517
-0.289089
-0.182554
-0.104546
-0.102644
-0.177488
-0.297022
-0.431805
-0.569849
-0.699238
-0.794766
-0.836750
-0.838148
-0.839714
-0.871954
-0.923915
-0.951811
-0.914439
-0.798541
-0.622319
-0.428990
-0.271129
-0.181938
-0.153888
-0.149720
-0.134634
-0.095523
-0.033993
0.050523
0.165335
0.313127
0.482174
0.649150
0.786937
0.873225
0.900328
0.876744
0.817055
0.730422
0.613865
0.454608
0.248064
0.020504
-0.170465
-0.267908
-0.256764
-0.174418
-0.075556
0.010815
0.082332
0.130821
0.129596
0.058001
-0.072662
-0.223043
-0.349924
-0.422193
-0.419617
-0.332219
-0.173098
0.010997
0.153844
0.205912
0.163744
0.064791
-0.046730
-0.144115
-0.210353
-0.224577
-0.173314
-0.070872
0.046936
0.153389
0.243672
0.310516
0.323922
0.256790
0.123650
-0.028391
-0.163951
-0.275083
-0.357873
-0.397736
-0.384914
-0.329292
-0.248276
-0.148421
-0.032703
0.082166
0.175652
0.244828
0.295636
0.321449
0.310762
0.263808
0.179187
0.035635
-0.185608
-0.457189
-0.702506
-0.848773
-0.881509
-0.842104
-0.776250
-0.694462
-0.581658
-0.426922
-0.230638
0.002443
0.252524
0.471457
0.605662
0.637571
0.589576
0.491456
0.365176
0.236712
0.134069
0.067535
0.028368
0.004938
-0.014925
-0.047895
-0.100856
-0.159941
-0.212088
-0.269210
-0.351931
-0.452863
-0.530092
-0.538643
-0.468666
-0.360709
-0.281504
-0.270434
-0.307511
-0.344046
-0.360085
-0.376057
-0.412038
-0.453566
-0.459238
-0.392399
-0.248743
-0.065676
0.092758
0.172405
0.164736
0.108060
0.044862
-0.023087
-0.127723
-0.283765
-0.460821
-0.610864
-0.706919
-0.744664
-0.721595
-0.637687
-0.518717
-0.420964
-0.401869
-0.489177
-0.674101
-0.919341
-1.170661
-1.374435
-1.499096
-1.545196
-1.530964
-1.468706
-1.365797
-1.245791
-1.144375
-1.071785
-0.992964
-0.858731
-0.653240
-0.405133
-0.159504
0.051683
0.214897
0.320726
0.354213
0.308123
0.200382
0.066562
-0.058511
-0.145823
-0.181162
-0.187838
-0.223012
-0.324970
-0.461489
-0.542705
-0.491789
-0.309911
-0.090759
0.021611
-0.078124
-0.369953
-0.711285
-0.946253
-1.016742
-0.974276
-0.912089
-0.896542
-0.940855
-1.023788
-1.126173
-1.239744
-1.345275
-1.410595
-1.421815
-1.395670
-1.351560
-1.288248
-1.192392
-1.060213
-0.919643
-0.837517
-0.877589
-1.031774
-1.213726
-1.333554
-1.356823
-1.287394
-1.134249
-0.924011
-0.727432
-0.640324
-0.718461
-0.929474
-1.181531
-1.401821
-1.571539
-1.686892
-1.717607
-1.625066
-1.415508
-1.164349
-0.983784
-0.961656
-1.115048
-1.375722
-1.611964
-1.694592
-1.580321
-1.344627
-1.130969
-1.061188
-1.172077
-1.405613
-1.649723
-1.804865
-1.832093
-1.756351
-1.638162
-1.539211
-1.502977
-1.552917
-1.677234
-1.798742
-1.804737
-1.661005
-1.479488
-1.424825
-1.561529
-1.830046
-2.145370
-2.443347
-2.633686
-2.613049
-2.384063
-2.103954
-1.961325
-2.027089
-2.239426
-2.493318
-2.718502
-2.887302
-2.964751
-2.867099
-2.505489
-1.898579
-1.224501
-0.721929
-0.522706
-0.582362
-0.761770
-0.948066
-1.084079
-1.120621
-1.013967
-0.797061
-0.604094
-0.570563
-0.709139
-0.909665
-1.059106
-1.137428
-1.198363
-1.288635
-1.400895
-1.489552
-1.518987
-1.504272
-1.517498
-1.644521
-1.911101
-2.251781
-2.566600
-2.796890
-2.930932
-2.959928
-2.866439
-2.665834
-2.439648
-2.299802
-2.299415
-2.372157
-2.373111
-2.206987
-1.920740
-1.649407
-1.475832
-1.366701
-1.227161
-0.977431
-0.586021
-0.081168
0.442707
0.853274
1.053131
1.038960
0.889058
0.706056
0.577353
0.558028
0.654778
0.823852
0.990842
1.070996
0.984439
0.675824
0.136497
-0.573593
-1.317976
-1.925739
-2.288622
-2.444334
-2.554610
-2.771863
-3.114384
-3.473797
-3.730491
-3.844132
-3.840715
-3.738068
-3.507730
-3.124086
-2.647466
-2.232907
-2.023205
-2.017785
-2.056409
-1.943580
-1.591446
-1.050588
-0.424075
0.229563
0.908422
1.598947
2.221811
2.677760
2.957587
3.176253
3.468245
3.852695
4.203432
4.338443
4.151512
3.692168
3.129055
2.622486
2.226074
1.910050
1.658796
1.512276
1.508621
1.619830
1.758320
1.821564
1.729036
1.459096
1.074130
0.694847
0.438676
0.373514
0.499148
0.748601
1.019747
1.231798
1.367874
1.471299
1.599339
1.773994
1.975247
2.174330
2.359586
2.532778
2.699764
2.874305
3.082594
3.348726
3.663280
3.964030
4.151637
4.130291
3.856894
3.388232
2.885946
2.539713
2.453773
2.593360
2.826271
3.016131
3.095387
3.061866
2.922619
2.680946
2.389568
2.165696
2.106913
2.200454
2.331040
2.367495
2.246643
2.009332
1.780594
1.707014
1.884589
2.311613
2.888647
3.461800
3.869809
3.977696
3.733221
3.230681
2.685684
2.302249
2.146793
2.128351
2.081335
1.890759
1.578886
1.283244
1.141204
1.184770
1.328517
1.438095
1.412128
1.226725
0.931476
0.615971
0.374694
0.279821
0.355099
0.558751
0.799523
0.986638
1.074849
1.071227
1.016806
0.966447
0.961777
1.005269
1.070098
1.135559
1.193950
1.224346
1.187666
1.070914
0.935578
0.895986
1.023983
1.278420
1.538381
1.694281
1.703187
1.584137
1.385832
1.151590
0.895500
0.605383
0.271224
-0.083600
-0.392170
-0.566754
-0.539755
-0.289142
0.157178
0.714926
1.243162
1.584649
1.640290
1.423869
1.050508
0.664050
0.367153
0.211509
0.220323
0.382668
0.638218
0.905197
1.124964
1.267585
1.319349
1.295629
1.252620
1.252404
1.305164
1.358923
1.359885
1.318058
1.299758
1.360247
1.494430
1.637697
1.697531
1.601962
1.339888
0.957849
0.533382
0.167761
-0.031358
-0.015334
0.157569
0.366277
0.509626
0.536042
0.430642
0.215257
-0.045466
-0.268730
-0.397726
-0.416727
-0.323177
-0.103009
0.245975
0.666960
1.042376
1.258924
1.277082
1.136457
0.905032
0.633102
0.345858
0.060851
-0.192914
-0.370311
-0.434317
-0.392924
-0.299499
-0.212365
-0.167870
-0.182456
-0.251035
-0.345939
-0.438603
-0.520088
-0.597493
-0.686402
-0.806928
-0.966332
-1.144034
-1.307964
-1.439051
-1.524141
-1.535586
-1.444045
-1.260073
-1.047841
-0.880217
-0.783433
-0.737511
-0.717943
-0.709739
-0.682121
-0.581995
-0.377089
-0.101681
0.152573
0.289748
0.255642
0.055171
-0.255492
-0.599273
-0.912189
-1.155560
-1.312990
-1.393895
-1.438202
-1.504340
-1.643845
-1.874162
-2.155898
-2.396829
-2.503430
-2.445226
-2.269010
-2.054474
-1.857793
-1.684629
-1.508973
-1.326544
-1.188803
-1.162752
-1.247489
-1.345853
-1.328088
-1.120743
-0.745678
-0.299105
0.096065
0.335624
0.370464
0.229320
0.008165
-0.177793
-0.246342
-0.176063
-0.010145
0.165805
0.272557
0.277225
0.184343
-0.006509
-0.318843
-0.765616
-1.304291
-1.837628
-2.258622
-2.493395
-2.520475
-2.378985
-2.172043
-2.045739
-2.121272
-2.410843
-2.802533
-3.143928
-3.335549
-3.344622
-3.166297
-2.807134
-2.299420
-1.706431
-1.104184
-0.558562
-0.115323
0.199960
0.386401
0.472519
0.500338
0.502266
0.505931
0.544453
0.627309
0.711996
0.740965
0.701939
0.630514
0.568149
0.536194
0.537053
0.566744
0.634532
0.775285
1.028892
1.393052
1.800463
2.153816
2.381203
2.456033
2.378842
2.155021
1.795061
1.339561
0.876065
0.509841
0.305395
0.253886
0.289241
0.334346
0.351388
0.368097
0.456247
0.673140
1.009380
1.381806
1.680512
1.838781
1.866633
1.816848
1.727591
1.614287
1.512953
1.498808
1.636299
1.916377
2.255495
2.548742
2.714498
2.704526
2.505371
2.148900
1.712954
1.295443
0.978362
0.804546
0.768782
0.821793
0.894320
0.932780
0.920575
0.877781
0.851436
0.892645
1.015847
1.176985
1.308488
1.376533
1.391836
1.373205
1.321690
1.224990
1.067726
0.843554
0.576052
0.331834
0.209778
0.303163
0.643114
1.170343
1.780429
2.394928
2.970867
3.459301
3.791906
3.909713
3.785986
3.428150
2.881666
2.235341
1.605565
1.104274
0.814783
0.773620
0.945996
1.219505
1.453107
1.561551
1.562016
1.537389
1.549678
1.585607
1.583286
1.499813
1.342486
1.150132
0.971380
0.859294
0.857292
0.974169
1.186329
1.470651
1.812750
2.172560
2.469982
2.633133
2.659963
2.619219
2.586031
2.581359
2.575367
2.536749
2.467550
2.396794
2.353828
2.353616
2.401586
2.497465
2.627174
2.763575
2.890774
3.024868
3.195626
3.402009
3.593312
3.697499
3.663609
3.485432
3.206348
2.905610
2.662405
2.519991
2.479036
2.517226
2.608770
2.727085
2.840611
2.920815
2.954919
2.940672
2.874668
2.762900
2.634919
2.519971
2.405268
2.241559
2.004767
1.744722
1.558907
1.510739
1.577688
1.682125
1.753966
1.745285
1.610731
1.324650
0.931780
0.558241
0.353531
0.408159
0.703218
1.121180
1.513397
1.778874
1.895223
1.887781
1.782795
1.593438
1.332467
1.015958
0.657593
0.278140
-0.074583
-0.326026
-0.411260
-0.325202
-0.137637
0.050862
0.173690
0.226467
0.246794
0.274462
0.319222
0.349508
0.313881
0.190621
0.018706
-0.135764
-0.244153
-0.330779
-0.430206
-0.552119
-0.686058
-0.817500
-0.933243
-1.021372
-1.071743
-1.081636
-1.066826
-1.060137
-1.085911
-1.134397
-1.167167
-1.149541
-1.078625
-0.984515
-0.907874
-0.872137
-0.869583
-0.871026
-0.848301
-0.787824
-0.690203
-0.566252
-0.432095
-0.300310
-0.172699
-0.044365
0.083146
0.196347
0.281386
0.339056
0.387063
0.450518
0.546917
0.670564
0.789648
0.866407
0.884695
0.857095
0.810897
0.776237
0.781623
0.840064
0.928261
0.990004
0.976167
0.884338
0.757580
0.655730
0.636398
0.742561
0.976365
1.279528
1.553144
1.706175
1.699715
1.570978
1.423587
1.368999
1.444095
1.576936
1.645886
1.583685
1.426092
1.264805
1.163500
1.117398
1.076722
0.996435
0.866286
0.702439
0.519731
0.325104
0.143166
0.027554
0.021319
0.109136
0.225476
0.307785
0.333013
0.313599
0.275565
0.235913
0.183520
0.079701
-0.111680
-0.389653
-0.709547
-1.008061
-1.240806
-1.407162
-1.546864
-1.712810
-1.933442
