EVENT_NAME: EMILIA_2ND_SHOCK
EVENT_ID: IT-2012-0011
EVENT_DATE_YYYYMMDD: 20120529
EVENT_TIME_HHMMSS: 070002
EVENT_LATITUDE_DEGREE: 44.8417
EVENT_LONGITUDE_DEGREE: 11.0657
EVENT_DEPTH_KM: 8.1
HYPOCENTER_REFERENCE: INGV-CNT_Seismic_Bulletin
MAGNITUDE_W: 6.0
MAGNITUDE_W_REFERENCE: RCMT-INGV
MAGNITUDE_L: 5.8
MAGNITUDE_L_REFERENCE: INGV-CNT_Seismic_Bulletin
FOCAL_MECHANISM: TF
NETWORK: TV
STATION_CODE: MIR01
STATION_NAME: MEDOLLA
STATION_LATITUDE_DEGREE: 44.844042
STATION_LONGITUDE_DEGREE: 11.071316
STATION_ELEVATION_M: 
LOCATION: 
SENSOR_DEPTH_M: 
VS30_M/S: 
SITE_CLASSIFICATION_EC8: C*
MORPHOLOGIC_CLASSIFICATION: 
EPICENTRAL_DISTANCE_KM: 0.5
EARTHQUAKE_BACKAZIMUTH_DEGREE: 239.6
DATE_TIME_FIRST_SAMPLE_YYYYMMDD_HHMMSS: 20120529_065945.000
DATE_TIME_FIRST_SAMPLE_PRECISION: milliseconds
SAMPLING_INTERVAL_S: 0.005000
NDATA: 30001
DURATION_S: 150.005
STREAM: HNN
UNITS: cm/s
INSTRUMENT: sensor = Episensor FBA ES-T [Kinemetrics] | digitizer = Unknown [Unknown]
INSTRUMENT_ANALOG/DIGITAL: D
INSTRUMENTAL_FREQUENCY_HZ: 
INSTRUMENTAL_DAMPING: 
FULL_SCALE_G: 
N_BIT_DIGITAL_CONVERTER: 
PGV_CM/S: 52.382421
TIME_PGV_S: 24.210000
BASELINE_CORRECTION: BASELINE REMOVED
FILTER_TYPE: BUTTERWORTH
FILTER_ORDER: 2
LOW_CUT_FREQUENCY_HZ: 0.050
HIGH_CUT_FREQUENCY_HZ: 40.000
LATE/NORMAL_TRIGGERED: NT
DATABASE_VERSION: DYNA 1.0
HEADER_FORMAT: DYNA 1.2
DATA_TYPE: VELOCITY
PROCESSING: manual (Paolucci et al., 2011)
DATA_TIMESTAMP_YYYYMMDD_HHMMSS: 
DATA_LICENSE: CC-BY4_0 (http://creativecommons.org/licenses/by/4.0/)
DATA_CITATION: ESM working group (2015), European Strong-Motion database, version 0.1, Network Activity 3: Networking acceleration networks and SM data users. Project NERA (www.nera-eu.org)
DATA_CREATOR: ESM working group
ORIGINAL_DATA_MEDIATOR_CITATION: Orfeus - European Integrated Data Archive (EIDA) http://www.orfeus-eu.org/eida/
ORIGINAL_DATA_MEDIATOR: Orfeus - European Integrated Data Archive (EIDA)
ORIGINAL_DATA_CREATOR_CITATION: 
ORIGINAL_DATA_CREATOR: network: TV (INGV Experiments Network); owner: Istituto Nazionale di Geofisica e Vulcanologia
USER1: 
USER2: 
USER3: 
USER4: 
USER5: 
[...]
0.041984
0.041924
0.041836
0.041745
0.041683
0.041654
0.041644
0.041638
0.041629
0.041617
0.041607
0.041595
0.041577
0.041554
0.041527
0.041495
0.041460
0.041423
0.041381
0.041335
0.041301
0.041291
0.041298
0.041305
0.041293
0.041252
0.041193
0.041136
0.041090
0.041059
0.041034
0.041004
0.040961
0.040912
0.040856
0.040789
0.040709
0.040625
0.040546
0.040483
0.040440
0.040411
0.040389
0.040378
0.040382
0.040393
0.040404
0.040410
0.040407
0.040390
0.040358
0.040303
0.040215
0.040098
0.039964
0.039835
0.039726
0.039648
0.039598
0.039575
0.039578
0.039603
0.039640
0.039684
0.039733
0.039778
0.039813
0.039833
0.039832
0.039802
0.039747
0.039677
0.039592
0.039496
0.039395
0.039288
0.039181
0.039087
0.039010
0.038942
0.038883
0.038837
0.038802
0.038774
0.038760
0.038754
0.038739
0.038711
0.038670
0.038620
0.038562
0.038501
0.038434
0.038369
0.038314
0.038260
0.038191
0.038116
0.038042
0.037971
0.037914
0.037885
0.037874
0.037861
0.037825
0.037754
0.037648
0.037533
0.037441
0.037388
0.037374
0.037384
0.037383
0.037343
0.037260
0.037140
0.036984
0.036811
0.036650
0.036515
0.036414
0.036354
0.036333
0.036337
0.036361
0.036399
0.036445
0.036498
0.036554
0.036595
0.036602
0.036566
0.036483
0.036355
0.036204
0.036058
0.035933
0.035840
0.035779
0.035738
0.035697
0.035654
0.035621
0.035602
0.035596
0.035593
0.035582
0.035557
0.035518
0.035458
0.035374
0.035263
0.035130
0.034985
0.034841
0.034707
0.034586
0.034473
0.034371
0.034291
0.034244
0.034232
0.034247
0.034276
0.034298
0.034296
0.034260
0.034189
0.034091
0.033979
0.033862
0.033748
0.033644
0.033554
0.033476
0.033405
0.033345
0.033299
0.033265
0.033235
0.033203
0.033159
0.033102
0.033033
0.032958
0.032882
0.032807
0.032737
0.032673
0.032611
0.032547
0.032476
0.032402
0.032327
0.032250
0.032170
0.032091
0.032012
0.031933
0.031857
0.031793
0.031741
0.031691
0.031627
0.031544
0.031448
0.031348
0.031255
0.031176
0.031105
0.031035
0.030964
0.030894
0.030824
0.030750
0.030677
0.030596
0.030498
0.030387
0.030271
0.030149
0.030024
0.029904
0.029796
0.029701
0.029622
0.029558
0.029498
0.029431
0.029359
0.029290
0.029226
0.029166
0.029116
0.029081
0.029057
0.029038
0.029015
0.028980
0.028923
0.028837
0.028722
0.028585
0.028437
0.028297
0.028181
0.028097
0.028039
0.027990
0.027932
0.027858
0.027767
0.027660
0.027545
0.027438
0.027355
0.027294
0.027247
0.027204
0.027151
0.027076
0.026973
0.026843
0.026690
0.026526
0.026366
0.026220
0.026091
0.025981
0.025888
0.025813
0.025753
0.025704
0.025651
0.025579
0.025485
0.025376
0.025256
0.025137
0.025026
0.024924
0.024827
0.024732
0.024635
0.024529
0.024416
0.024308
0.024211
0.024124
0.024048
0.023985
0.023927
0.023859
0.023771
0.023666
0.023548
0.023422
0.023291
0.023162
0.023042
0.022940
0.022856
0.022784
0.022712
0.022634
0.022551
0.022467
0.022379
0.022282
0.022175
0.022056
0.021927
0.021791
0.021653
0.021518
0.021395
0.021296
0.021221
0.021161
0.021105
0.021043
0.020968
0.020878
0.020777
0.020671
0.020566
0.020468
0.020382
0.020307
0.020235
0.020159
0.020077
0.019982
0.019867
0.019730
0.019581
0.019425
0.019272
0.019131
0.019009
0.018904
0.018803
0.018695
0.018577
0.018453
0.018329
0.018213
0.018105
0.018004
0.017907
0.017806
0.017692
0.017558
0.017404
0.017236
0.017077
0.016939
0.016824
0.016721
0.016619
0.016511
0.016394
0.016272
0.016152
0.016042
0.015948
0.015864
0.015774
0.015670
0.015554
0.015435
0.015312
0.015187
0.015063
0.014938
0.014802
0.014653
0.014493
0.014328
0.014164
0.014010
0.013869
0.013739
0.013616
0.013502
0.013397
0.013294
0.013191
0.013088
0.012984
0.012877
0.012765
0.012642
0.012498
0.012329
0.012144
0.011959
0.011780
0.011607
0.011446
0.011308
0.011190
0.011089
0.011002
0.010922
0.010842
0.010754
0.010659
0.010556
0.010441
0.010311
0.010166
0.010014
0.009866
0.009730
0.009611
0.009510
0.009419
0.009328
0.009230
0.009126
0.009015
0.008898
0.008779
0.008664
0.008549
0.008422
0.008273
0.008099
0.007911
0.007724
0.007550
0.007391
0.007240
0.007081
0.006887
0.006615
0.006197
0.005581
0.004752
0.003679
0.002204
0.000128
-0.002499
-0.005325
-0.008116
-0.011012
-0.014102
-0.017152
-0.019878
-0.021999
-0.023149
-0.023537
-0.024347
-0.026682
-0.030441
-0.034747
-0.038788
-0.041839
-0.043500
-0.044552
-0.046784
-0.051497
-0.058024
-0.063403
-0.064183
-0.059316
-0.050457
-0.039536
-0.027702
-0.016141
-0.006212
0.000753
0.003224
0.000380
-0.005995
-0.011481
-0.011687
-0.005353
0.003853
0.008218
0.001723
-0.012678
-0.023741
-0.022213
-0.009276
0.005898
0.015341
0.017884
0.016338
0.011530
0.001969
-0.010778
-0.020825
-0.025297
-0.029613
-0.040484
-0.055398
-0.064524
-0.062974
-0.055898
-0.050122
-0.046196
-0.042285
-0.041238
-0.047972
-0.061188
-0.072750
-0.076025
-0.070584
-0.057371
-0.035604
-0.009202
0.009972
0.012970
0.004928
-0.000737
0.002714
0.011004
0.017309
0.019736
0.020780
0.024440
0.036068
0.061427
0.100035
0.138009
0.153574
0.135497
0.094061
0.050135
0.015938
-0.009141
-0.026757
-0.031615
-0.016844
0.016957
0.057755
0.084776
0.080212
0.045051
0.001833
-0.022115
-0.014352
0.015951
0.045740
0.056382
0.049376
0.041389
0.044747
0.059283
0.080326
0.104472
0.126925
0.141972
0.151042
0.165900
0.197341
0.242160
0.287250
0.325031
0.358886
0.394778
0.432846
0.466226
0.484933
0.483149
0.465941
0.448202
0.444776
0.458537
0.475709
0.475168
0.447474
0.406178
0.377044
0.374680
0.393116
0.418335
0.441215
0.455579
0.453212
0.427924
0.381834
0.324641
0.267278
0.216339
0.173707
0.138877
0.108627
0.078619
0.051790
0.040679
0.054710
0.088901
0.128847
0.163569
0.192430
0.221455
0.253949
0.287690
0.321886
0.360243
0.404394
0.450015
0.490852
0.522490
0.543203
0.554925
0.563904
0.579027
0.604886
0.632448
0.643829
0.635513
0.630496
0.657705
0.724239
0.812624
0.896144
0.951958
0.969485
0.954800
0.925861
0.899870
0.881518
0.861489
0.828184
0.781370
0.733076
0.697398
0.680641
0.676998
0.671503
0.650876
0.615443
0.582867
0.580084
0.625373
0.711702
0.809302
0.889323
0.943355
0.977690
0.996763
1.000676
0.991118
0.969441
0.937037
0.907753
0.908904
0.953490
1.014067
1.038937
0.999990
0.918850
0.841628
0.791341
0.751543
0.699311
0.647662
0.642661
0.713687
0.834219
0.937382
0.965061
0.901809
0.775590
0.635718
0.523198
0.452474
0.415395
0.396042
0.380212
0.355992
0.311135
0.236716
0.138065
0.037162
-0.043499
-0.099070
-0.140557
-0.175121
-0.192134
-0.175878
-0.134833
-0.106462
-0.118496
-0.149533
-0.143999
-0.069391
0.054472
0.185898
0.301938
0.399188
0.472639
0.513565
0.529375
0.555248
0.633491
0.775109
0.947200
1.102730
1.217010
1.294383
1.351548
1.401632
1.447896
1.484444
1.501848
1.497497
1.483516
1.479217
1.492351
1.511844
1.519680
1.505381
1.470477
1.426351
1.386336
1.349623
1.294669
1.202040
1.084300
0.983032
0.935604
0.943489
0.961719
0.923499
0.797416
0.623933
0.481338
0.416375
0.413057
0.416325
0.377643
0.290704
0.196232
0.150173
0.178734
0.258891
0.340440
0.387071
0.399256
0.400793
0.402785
0.380072
0.286674
0.098484
-0.158056
-0.417920
-0.617508
-0.731445
-0.785059
-0.835705
-0.929960
-1.067782
-1.208103
-1.306541
-1.343213
-1.323702
-1.265695
-1.182437
-1.074380
-0.938416
-0.780911
-0.614756
-0.448429
-0.286483
-0.139713
-0.028879
0.026236
0.026188
0.003100
0.009961
0.094305
0.278376
0.556517
0.900410
1.263748
1.590538
1.833648
1.978976
2.057232
2.128937
2.249319
2.435425
2.657602
2.862438
3.007985
3.080206
3.083002
3.022071
2.898106
2.707866
2.452772
2.153066
1.847870
1.567860
1.306797
1.030378
0.716894
0.383728
0.074602
-0.171329
-0.343176
-0.468299
-0.598435
-0.771778
-0.987210
-1.219401
-1.452326
-1.690551
-1.935669
-2.155354
-2.290345
-2.303940
-2.217435
-2.088497
-1.964654
-1.868504
-1.815781
-1.822531
-1.886249
-1.975057
-2.050648
-2.096894
-2.109958
-2.061293
-1.893728
-1.573618
-1.145696
-0.726376
-0.437259
-0.335665
-0.387874
-0.495100
-0.556331
-0.522864
-0.401559
-0.220970
-0.006717
0.219565
0.434381
0.612651
0.733415
0.785892
0.774998
0.720979
0.643649
0.544759
0.416454
0.265395
0.114448
-0.017549
-0.127314
-0.222999
-0.313180
-0.397118
-0.470043
-0.537656
-0.614630
-0.710325
-0.823761
-0.944136
-1.047686
-1.104108
-1.096564
-1.033965
-0.944607
-0.861822
-0.808527
-0.786500
-0.786550
-0.815401
-0.903684
-1.083597
-1.368897
-1.754303
-2.217438
-2.722529
-3.239584
-3.761216
-4.289757
-4.812291
-5.301651
-5.740937
-6.137887
-6.515337
-6.893435
-7.283287
-7.692570
-8.125917
-8.577427
-9.033960
-9.489457
-9.947784
-10.413370
-10.890090
-11.386440
-11.910620
-12.461850
-13.029750
-13.596300
-14.140100
-14.647530
-15.119030
-15.562980
-15.990490
-16.417620
-16.858150
-17.301170
-17.703279
-18.017750
-18.227409
-18.340200
-18.364281
-18.297110
-18.126820
-17.832500
-17.383471
-16.742500
-15.881520
-14.808100
-13.579880
-12.290090
-11.038280
-9.911183
-8.973739
-8.255313
-7.742513
-7.394528
-7.158438
-6.966314
-6.744446
-6.448400
-6.078633
-5.653019
-5.180563
-4.671098
-4.152567
-3.659594
-3.204194
-2.758489
-2.256939
-1.618698
-0.796704
0.173216
1.182195
2.121331
2.940417
3.634489
4.188774
4.549299
4.652393
4.489682
4.145163
3.755312
3.417354
3.137188
2.872651
2.606855
2.352971
2.114074
1.889248
1.710367
1.631308
1.681234
1.840768
2.050110
2.237478
2.354999
2.387657
2.322861
2.127634
1.777123
1.297953
0.753583
0.179413
-0.447343
-1.170186
-2.005468
-2.936433
-3.938574
-4.995910
-6.091493
-7.195072
-8.268408
-9.274271
-10.173000
-10.919580
-11.483050
-11.880810
-12.183860
-12.467330
-12.750830
-12.995650
-13.156520
-13.217360
-13.172350
-12.999880
-12.679660
-12.229060
-11.711380
-11.212070
-10.810250
-10.564160
-10.499430
-10.590030
-10.763810
-10.954420
-11.151440
-11.395050
-11.732120
-12.179610
-12.715300
-13.294700
-13.879680
-14.452900
-15.009930
-15.549050
-16.070629
-16.577650
-17.079821
-17.607450
-18.213369
-18.944571
-19.808439
-20.763189
-21.730810
-22.622169
-23.365959
-23.928560
-24.314751
-24.553129
-24.683849
-24.761499
-24.855860
-25.024120
-25.268560
-25.529131
-25.729340
-25.827370
-25.816450
-25.692280
-25.448240
-25.100170
-24.686720
-24.234591
-23.739241
-23.186710
-22.582100
-21.949030
-21.307470
-20.659479
-19.995239
-19.305260
-18.582230
-17.817881
-17.004950
-16.138729
-15.216770
-14.249660
-13.276780
-12.358010
-11.536420
-10.806140
-10.114700
-9.393793
-8.594683
-7.707936
-6.759298
-5.789855
-4.845039
-3.988516
-3.310456
-2.881305
-2.683815
-2.623185
-2.613907
-2.625453
-2.650766
-2.676435
-2.686760
-2.673882
-2.650773
-2.660092
-2.749821
-2.929977
-3.166525
-3.426008
-3.714752
-4.063781
-4.481782
-4.927875
-5.326786
-5.618497
-5.801161
-5.917598
-6.004662
-6.073992
-6.135558
-6.218196
-6.361815
-6.596401
-6.932159
-7.361990
-7.861983
-8.392907
-8.911296
-9.381526
-9.784014
-10.123100
-10.425880
-10.726020
-11.048490
-11.407820
-11.810750
-12.254830
-12.727950
-13.210470
-13.676160
-14.097340
-14.458460
-14.764630
-15.032260
-15.270870
-15.474490
-15.630210
-15.736100
-15.813030
-15.898630
-16.026661
-16.208031
-16.427940
-16.655630
-16.852530
-16.977140
-16.994350
-16.886909
-16.659220
-16.328520
-15.909570
-15.408240
-14.830680
-14.197740
-13.547980
-12.920890
-12.333460
-11.775710
-11.228420
-10.685040
-10.165340
-9.712195
-9.366962
-9.142750
-9.022524
-8.975926
-8.965587
-8.943974
-8.869695
-8.734376
-8.555339
-8.337784
-8.062730
-7.715932
-7.311081
-6.877725
-6.437600
-5.997488
-5.556819
-5.117608
-4.687331
-4.269812
-3.857775
-3.443292
-3.029759
-2.620552
-2.197552
-1.721086
-1.154547
-0.489484
0.250428
1.024759
1.791515
2.517777
3.197625
3.863218
4.560360
5.301713
6.044603
6.715362
7.254828
7.643381
7.892019
8.020999
8.048457
7.990351
7.866710
7.715047
7.604383
7.630538
7.883475
8.405997
9.176244
10.127190
11.183680
12.285220
13.384680
14.443180
15.437090
16.365690
17.242451
18.076740
18.866261
19.606489
20.302891
20.970039
21.620239
22.256689
22.878040
23.486401
24.089600
24.697729
25.319300
25.958290
26.609320
27.252960
27.860010
28.404591
28.874180
29.270670
29.610279
29.925940
30.264509
30.674471
31.193550
31.846640
32.645630
33.578400
34.600029
35.646591
36.657478
37.584599
38.396709
39.087929
39.677872
40.200871
40.694000
41.183922
41.675442
42.153240
42.594669
42.981110
43.304668
43.570068
43.789551
43.974998
44.132820
44.261318
44.350880
44.387901
44.358768
44.250641
44.050121
43.742500
43.312599
42.744099
42.014118
41.089211
39.934841
38.537720
36.922821
35.149250
33.291512
31.426439
29.636190
28.016890
26.672260
25.681870
25.064970
24.775780
24.736010
24.873760
25.142521
25.520290
25.999491
26.576639
27.246670
28.003510
28.846661
29.788111
30.851530
32.062752
33.436741
34.967258
36.620529
38.332569
40.018349
41.598381
43.027061
44.299980
45.440369
46.483280
47.463959
48.404091
49.299938
50.125252
50.846390
51.436089
51.880051
52.178200
52.340881
52.382420
52.317860
52.163551
51.939968
51.670620
51.370480
51.034859
50.650398
50.223969
49.793690
49.403549
49.067909
48.760941
48.436359
48.057140
47.612671
47.115002
46.582310
46.024509
45.440811
44.827129
44.181690
43.502739
42.785568
42.024719
41.216831
40.360592
39.459591
38.530472
37.608109
36.739670
35.969261
35.324650
34.815311
34.436981
34.173851
34.000462
33.890560
33.828838
33.815231
33.860222
33.978588
34.184441
34.486000
34.882870
35.368549
35.933552
36.563492
37.235069
37.916019
38.570129
39.164379
39.675819
40.096481
40.432190
40.691170
40.869732
40.952671
40.929359
40.801300
40.569729
40.225231
39.755840
39.160938
38.458279
37.683540
36.876549
36.055569
35.203499
34.283291
33.266930
32.150761
30.948509
29.672270
28.320980
26.889561
25.386351
23.835079
22.260880
20.679150
19.096821
17.518070
15.944160
14.369200
12.782200
11.175630
9.549505
7.906867
6.248340
4.573805
2.891342
1.223529
-0.399442
-1.955934
-3.442533
-4.871149
-6.262693
-7.641064
-9.020455
-10.390960
-11.722180
-12.985960
-14.171970
-15.281980
-16.321911
-17.304560
-18.247700
-19.159241
-20.031200
-20.855209
-21.638210
-22.397619
-23.146280
-23.885321
-24.606100
-25.296471
-25.950171
-26.573231
-27.180010
-27.783331
-28.388420
-28.993031
-29.589491
-30.167540
-30.718670
-31.241800
-31.746941
-32.251251
-32.767429
-33.294460
-33.819721
-34.329391
-34.816380
-35.279652
-35.719120
-36.135380
-36.535172
-36.930931
-37.329060
-37.720482
-38.087978
-38.422192
-38.727940
-39.017071
-39.298248
-39.571499
-39.828892
-40.062790
-40.278980
-40.498829
-40.739578
-40.994579
-41.243080
-41.474289
-41.688229
-41.878281
-42.026039
-42.111000
-42.120079
-42.052528
-41.920319
-41.741871
-41.531300
-41.291630
-41.018749
-40.709480
-40.361038
-39.963509
-39.499699
-38.956181
-38.332458
-37.638988
-36.888069
-36.089169
-35.258221
-34.438171
-33.710590
-33.172070
-32.877708
-32.800911
-32.857681
-32.970940
-33.105881
-33.257401
-33.427071
-33.613361
-33.810902
-34.012348
-34.210270
-34.397839
-34.569569
-34.723438
-34.863682
-34.999420
-35.137100
-35.273750
-35.400120
-35.511120
-35.610481
-35.703671
-35.789921
-35.864738
-35.928219
-35.986450
-36.044331
-36.098759
-36.137482
-36.143372
-36.102058
-36.008911
-35.868450
-35.685909
-35.460461
-35.187580
-34.867050
-34.506271
-34.113029
-33.685131
-33.211479
-32.686508
-32.119549
-31.523569
-30.896139
-30.218960
-29.478701
-28.681980
-27.848419
-26.999331
-26.157471
-25.343000
-24.557341
-23.777750
-22.975000
-22.133770
-21.257570
-20.362740
-19.472450
-18.613831
-17.816280
-17.108641
-16.514441
-16.045820
-15.698860
-15.453810
-15.281400
-15.151560
-15.038420
-14.920120
-14.778590
-14.602090
-14.385980
-14.131080
-13.844650
-13.541340
-13.236550
-12.936150
-12.634130
-12.320830
-11.992370
-11.652330
-11.306180
-10.954760
-10.591220
-10.201650
-9.769773
-9.284993
-8.749427
-8.178255
-7.592298
-7.007818
-6.429993
-5.853862
-5.271164
-4.675854
-4.063015
-3.425150
-2.753135
-2.041955
-1.295019
-0.522452
0.264855
1.058990
1.854845
2.651691
3.457527
4.288323
5.159587
6.078873
7.045467
8.053057
9.089679
10.136060
11.165210
12.139060
12.999210
13.668880
14.085830
14.245090
14.198950
14.009310
13.711680
13.322590
12.857300
12.329440
11.744120
11.098860
10.389470
9.615195
8.780477
7.892053
6.950996
5.947118
4.868114
3.721175
2.544582
1.393838
0.317442
-0.651988
-1.489675
-2.173389
-2.690022
-3.042331
-3.245900
-3.323002
-3.299721
-3.200733
-3.041040
-2.825502
-2.557942
-2.246560
-1.898663
-1.514385
-1.089708
-0.625007
-0.128311
0.390031
0.924316
1.474276
2.040110
2.619056
3.208265
3.809906
4.429833
5.067660
5.707106
6.315862
6.854665
7.290957
7.613574
7.841207
8.016644
8.190742
8.408294
8.698815
9.068147
9.495115
9.940833
10.365650
10.740710
11.049430
11.284930
11.448070
11.545510
11.585960
11.575990
11.517800
11.410110
11.251100
11.041350
10.785640
10.493710
10.179160
9.855569
9.531898
9.211040
8.892934
8.578390
8.270427
7.973716
7.693303
7.432424
7.190993
6.968281
6.768426
6.601054
6.473409
6.382278
6.315952
6.263361
6.219159
6.183355
6.163180
6.176625
6.248450
6.398223
6.631692
6.942391
7.317511
7.739735
8.186413
8.632320
9.054780
9.434849
9.755651
10.003630
10.170550
10.250990
10.239800
10.134890
9.939955
9.661475
9.305346
8.879577
8.399307
7.886167
7.360502
6.832429
6.299752
5.756119
5.202812
4.653025
4.128157
3.656777
3.277421
3.031149
2.938895
2.982514
3.109301
3.254519
3.363135
3.403714
3.374656
3.297818
3.200429
3.099395
2.999247
2.900204
2.805254
2.720068
2.649148
2.594681
2.559349
2.548845
2.569505
2.621058
2.691234
2.759041
2.803881
2.811712
2.775664
2.694690
2.571600
2.410386
2.215309
1.992579
1.751571
1.505255
1.273488
1.087218
0.984298
0.992663
1.111911
1.313087
1.561636
1.840102
2.147017
2.481572
2.836804
3.203138
3.572906
3.943962
4.321692
4.716386
5.137627
5.590690
6.076477
6.592056
7.126596
7.650166
8.104735
8.417505
8.540922
8.484865
8.301128
8.036375
7.709172
7.324488
6.890224
6.419008
5.927717
5.437694
4.968884
4.532054
4.128848
3.758622
3.421628
3.115761
2.834900
2.571152
2.313741
2.044791
1.742730
1.394547
1.002949
0.580442
0.139196
-0.313796
-0.776586
-1.249536
-1.731411
-2.217393
-2.699044
-3.162789
-3.588439
-3.953488
-4.242267
-4.451947
-4.591900
-4.680407
-4.741551
-4.800435
-4.876740
-4.981120
-5.116814
-5.282831
-5.474645
-5.684150
-5.903102
-6.128975
-6.367067
-6.626352
-6.913334
-7.229069
-7.570881
-7.936686
-8.327685
-8.747164
-9.198165
-9.682646
