EVENT_NAME: EMILIA_2ND_SHOCK
EVENT_ID: IT-2012-0011
EVENT_DATE_YYYYMMDD: 20120529
EVENT_TIME_HHMMSS: 070002
EVENT_LATITUDE_DEGREE: 44.8417
EVENT_LONGITUDE_DEGREE: 11.0657
EVENT_DEPTH_KM: 8.1
HYPOCENTER_REFERENCE: INGV-CNT_Seismic_Bulletin
MAGNITUDE_W: 6.0
MAGNITUDE_W_REFERENCE: RCMT-INGV
MAGNITUDE_L: 5.8
MAGNITUDE_L_REFERENCE: INGV-CNT_Seismic_Bulletin
FOCAL_MECHANISM: TF
NETWORK: TV
STATION_CODE: MIR01
STATION_NAME: MEDOLLA
STATION_LATITUDE_DEGREE: 44.844042
STATION_LONGITUDE_DEGREE: 11.071316
STATION_ELEVATION_M: 
LOCATION: 
SENSOR_DEPTH_M: 
VS30_M/S: 
SITE_CLASSIFICATION_EC8: C*
MORPHOLOGIC_CLASSIFICATION: 
EPICENTRAL_DISTANCE_KM: 0.5
EARTHQUAKE_BACKAZIMUTH_DEGREE: 239.6
DATE_TIME_FIRST_SAMPLE_YYYYMMDD_HHMMSS: 20120529_065945.000
DATE_TIME_FIRST_SAMPLE_PRECISION: milliseconds
SAMPLING_INTERVAL_S: 0.005000
NDATA: 105
DURATION_S: 
STREAM: HNN
UNITS: cm/s^2
INSTRUMENT: sensor = Episensor FBA ES-T [Kinemetrics] | digitizer = Unknown [Unknown]
INSTRUMENT_ANALOG/DIGITAL: D
INSTRUMENTAL_FREQUENCY_HZ: 
INSTRUMENTAL_DAMPING: 
FULL_SCALE_G: 
N_BIT_DIGITAL_CONVERTER: 
PGA_CM/S^2: -373.013579
TIME_PGA_S: 24.020000
BASELINE_CORRECTION: BASELINE REMOVED
FILTER_TYPE: BUTTERWORTH
FILTER_ORDER: 2
LOW_CUT_FREQUENCY_HZ: 0.050
HIGH_CUT_FREQUENCY_HZ: 40.000
LATE/NORMAL_TRIGGERED: NT
DATABASE_VERSION: DYNA 1.0
HEADER_FORMAT: DYNA 1.2
DATA_TYPE: ACCELERATION RESPONSE SPECTRUM
PROCESSING: manual (Paolucci et al., 2011)
DATA_TIMESTAMP_YYYYMMDD_HHMMSS: 
DATA_LICENSE: CC-BY4_0 (http://creativecommons.org/licenses/by/4.0/)
DATA_CITATION: ESM working group (2015), European Strong-Motion database, version 0.1, Network Activity 3: Networking acceleration networks and SM data users. Project NERA (www.nera-eu.org)
DATA_CREATOR: ESM working group
ORIGINAL_DATA_MEDIATOR_CITATION: Orfeus - European Integrated Data Archive (EIDA) http://www.orfeus-eu.org/eida/
ORIGINAL_DATA_MEDIATOR: Orfeus - European Integrated Data Archive (EIDA)
ORIGINAL_DATA_CREATOR_CITATION: 
ORIGINAL_DATA_CREATOR: network: TV (INGV Experiments Network); owner: Istituto Nazionale di Geofisica e Vulcanologia
USER1: 
USER2: 
USER3: 
USER4: 
USER5: 
    0.010000   374.709045
    0.020000   378.292725
    0.022000   379.290161
    0.025000   384.007477
    0.029000   393.016815
    0.030000   397.265808
    0.032000   401.533325
    0.035001   407.618347
    0.036000   411.865082
    0.040000   429.876404
    0.041999   437.134583
    0.044001   458.359680
    0.045000   461.688446
    0.046000   463.169617
    0.048001   459.872437
    0.050000   443.236755
    0.054999   444.297607
    0.059999   526.107544
    0.064998   571.252441
    0.067002   582.855591
    0.069999   617.490417
    0.075002   638.002197
    0.080000   506.218750
    0.084998   474.178833
    0.090001   622.897095
    0.095003   723.993652
    0.100000   682.398499
    0.109999   631.760559
    0.120005   736.860779
    0.130005   771.360901
    0.132996   782.009949
    0.139997   759.039001
    0.149993   616.940613
    0.160000   606.594666
    0.170010   700.339722
    0.179986   947.901733
    0.190006   968.989197
    0.200000   964.043396
    0.220022   797.527344
    0.239981   963.955872
    0.250000   901.120117
    0.260010  1001.027893
    0.280034  1146.765137
    0.290023  1279.536499
    0.300030  1348.692627
    0.320000  1196.691772
    0.340020  1098.760864
    0.350017  1140.421631
    0.359971  1166.608887
    0.379939   997.196350
    0.400000   688.561523
    0.419992   539.958618
    0.439947   521.193237
    0.450045   506.550385
    0.459982   490.182465
    0.480077   456.493103
    0.500000   507.753021
    0.550055   606.475342
    0.599880   585.597168
    0.650195   735.877197
    0.667111   740.743713
    0.699790   677.836487
    0.750188   495.184814
    0.800000   333.700958
    0.850340   282.273987
    0.900090   297.620026
    0.949668   318.239319
    1.000000   322.114899
    1.100110   321.303925
    1.200480   352.646362
    1.300390   397.268311
    1.400560   441.165161
    1.499250   466.323517
    1.600000   465.136292
    1.700680   445.264282
    1.798561   426.116211
    1.901141   410.275665
    2.000000   391.645081
    2.197802   345.364471
    2.398082   295.966431
    2.500000   275.317566
    2.597403   259.577637
    2.801121   226.347458
    3.003003   194.282700
    3.205128   165.757141
    3.401361   139.931259
    3.496503   128.062408
    3.597122   116.931938
    3.802281    96.821419
    4.000000    82.704430
    4.201681    76.308205
    4.405286    70.292206
    4.608295    64.698875
    4.807692    59.546333
    5.000000    54.833420
    5.494505    44.846855
    5.988024    37.059235
    6.493506    30.987064
    6.993007    26.222296
    7.518797    22.447124
    8.000000    19.424053
    8.474576    16.976492
    9.009009    14.970486
    9.523809    13.309896
   10.000000    11.919694
