EVENT_NAME: EMILIA_2ND_SHOCK
EVENT_ID: IT-2012-0011
EVENT_DATE_YYYYMMDD: 20120529
EVENT_TIME_HHMMSS: 070002
EVENT_LATITUDE_DEGREE: 44.8417
EVENT_LONGITUDE_DEGREE: 11.0657
EVENT_DEPTH_KM: 8.1
HYPOCENTER_REFERENCE: INGV-CNT_Seismic_Bulletin
MAGNITUDE_W: 6.0
MAGNITUDE_W_REFERENCE: RCMT-INGV
MAGNITUDE_L: 5.8
MAGNITUDE_L_REFERENCE: INGV-CNT_Seismic_Bulletin
FOCAL_MECHANISM: TF
NETWORK: TV
STATION_CODE: MIR06
STATION_NAME: PIEVE DI CORIANO
STATION_LATITUDE_DEGREE: 45.040100
STATION_LONGITUDE_DEGREE: 11.087400
STATION_ELEVATION_M: 
LOCATION: 
SENSOR_DEPTH_M: 
VS30_M/S: 
SITE_CLASSIFICATION_EC8: C*
MORPHOLOGIC_CLASSIFICATION: 
EPICENTRAL_DISTANCE_KM: 22.1
EARTHQUAKE_BACKAZIMUTH_DEGREE: 184.4
DATE_TIME_FIRST_SAMPLE_YYYYMMDD_HHMMSS: 20120529_065933.000
DATE_TIME_FIRST_SAMPLE_PRECISION: milliseconds
SAMPLING_INTERVAL_S: 0.005000
NDATA: 30001
DURATION_S: 150.005
STREAM: HNN
UNITS: cm/s
INSTRUMENT: sensor = Episensor FBA ES-T [Kinemetrics] | digitizer = Unknown [Unknown]
INSTRUMENT_ANALOG/DIGITAL: D
INSTRUMENTAL_FREQUENCY_HZ: 
INSTRUMENTAL_DAMPING: 
FULL_SCALE_G: 
N_BIT_DIGITAL_CONVERTER: 
PGV_CM/S: -17.772414
TIME_PGV_S: 45.065000
BASELINE_CORRECTION: BASELINE REMOVED
FILTER_TYPE: BUTTERWORTH
FILTER_ORDER: 2
LOW_CUT_FREQUENCY_HZ: 0.060
HIGH_CUT_FREQUENCY_HZ: 40.000
LATE/NORMAL_TRIGGERED: NT
DATABASE_VERSION: DYNA 1.0
HEADER_FORMAT: DYNA 1.2
DATA_TYPE: VELOCITY
PROCESSING: manual (Paolucci et al., 2011)
DATA_TIMESTAMP_YYYYMMDD_HHMMSS: 
DATA_LICENSE: CC-BY4_0 (http://creativecommons.org/licenses/by/4.0/)
DATA_CITATION: ESM working group (2015), European Strong-Motion database, version 0.1, Network Activity 3: Networking acceleration networks and SM data users. Project NERA (www.nera-eu.org)
DATA_CREATOR: ESM working group
ORIGINAL_DATA_MEDIATOR_CITATION: Orfeus - European Integrated Data Archive (EIDA) http://www.orfeus-eu.org/eida/
ORIGINAL_DATA_MEDIATOR: Orfeus - European Integrated Data Archive (EIDA)
ORIGINAL_DATA_CREATOR_CITATION: 
ORIGINAL_DATA_CREATOR: network: TV (INGV Experiments Network); owner: Istituto Nazionale di Geofisica e Vulcanologia
USER1: 
USER2: 
USER3: 
USER4: 
USER5: 
[...]
-0.451869
-0.474271
-0.502140
-0.533261
-0.564763
-0.593441
-0.616431
-0.632309
-0.641628
-0.646584
-0.650072
-0.654033
-0.658081
-0.660034
-0.657851
-0.651241
-0.642454
-0.635966
-0.636507
-0.646537
-0.665317
-0.689679
-0.715175
-0.737434
-0.753844
-0.764536
-0.771627
-0.777292
-0.782583
-0.788100
-0.794970
-0.803746
-0.811985
-0.814300
-0.805905
-0.785911
-0.757289
-0.724626
-0.692333
-0.664379
-0.644629
-0.636102
-0.639177
-0.651093
-0.668008
-0.687352
-0.708021
-0.729211
-0.750086
-0.770404
-0.790576
-0.810560
-0.828810
-0.842515
-0.848661
-0.844774
-0.829509
-0.803436
-0.769221
-0.730908
-0.693000
-0.659216
-0.630673
-0.604960
-0.577394
-0.543901
-0.503736
-0.460246
-0.419042
-0.385143
-0.361414
-0.348781
-0.346708
-0.353165
-0.365000
-0.379158
-0.393614
-0.407225
-0.419204
-0.429148
-0.437665
-0.446593
-0.458118
-0.473735
-0.494166
-0.519666
-0.549994
-0.584422
-0.621768
-0.659772
-0.694383
-0.720640
-0.734884
-0.736095
-0.725528
-0.705803
-0.680277
-0.652722
-0.626955
-0.605699
-0.589064
-0.574965
-0.561890
-0.550648
-0.543018
-0.539582
-0.539256
-0.539791
-0.538018
-0.530775
-0.517107
-0.499806
-0.484333
-0.476169
-0.478676
-0.491902
-0.512212
-0.533610
-0.550678
-0.561210
-0.566767
-0.571065
-0.577727
-0.588988
-0.605438
-0.625664
-0.645895
-0.661173
-0.667963
-0.665729
-0.656570
-0.644623
-0.635777
-0.636216
-0.649953
-0.677519
-0.716510
-0.762327
-0.808239
-0.846319
-0.870511
-0.879948
-0.879406
-0.876670
-0.879318
-0.892565
-0.918080
-0.953672
-0.994061
-1.032452
-1.062220
-1.078074
-1.076624
-1.056996
-1.021575
-0.975543
-0.924730
-0.873557
-0.824590
-0.779187
-0.738390
-0.703897
-0.678733
-0.667011
-0.672876
-0.699255
-0.746964
-0.813950
-0.894754
-0.981223
-1.064660
-1.138053
-1.197667
-1.243551
-1.277796
-1.301372
-1.312880
-1.310192
-1.292173
-1.258719
-1.210551
-1.150065
-1.082133
-1.013405
-0.950212
-0.896430
-0.852826
-0.818189
-0.790959
-0.770290
-0.756517
-0.751149
-0.756272
-0.773646
-0.804125
-0.847273
-0.900711
-0.959672
-1.017453
-1.066481
-1.099835
-1.113505
-1.108266
-1.089052
-1.062061
-1.032476
-1.004185
-0.979625
-0.958574
-0.937752
-0.912966
-0.882182
-0.846907
-0.811422
-0.780635
-0.757517
-0.741607
-0.729890
-0.719503
-0.710256
-0.704943
-0.706991
-0.717565
-0.735038
-0.757362
-0.784562
-0.818532
-0.860409
-0.908237
-0.956930
-1.000049
-1.031584
-1.047267
-1.045847
-1.029533
-1.002638
-0.969316
-0.932051
-0.891730
-0.848957
-0.805417
-0.764219
-0.729391
-0.705156
-0.694857
-0.699366
-0.715952
-0.739093
-0.763087
-0.784222
-0.800639
-0.810723
-0.812381
-0.804060
-0.786023
-0.759960
-0.727022
-0.686696
-0.637889
-0.580658
-0.516968
-0.450736
-0.387790
-0.335288
-0.299842
-0.284674
-0.287657
-0.301977
-0.319465
-0.334503
-0.345766
-0.355116
-0.365929
-0.382453
-0.408834
-0.446788
-0.493815
-0.543966
-0.590669
-0.629312
-0.657969
-0.676732
-0.687114
-0.691876
-0.694267
-0.696186
-0.696747
-0.693273
-0.683897
-0.668283
-0.645629
-0.613191
-0.567673
-0.507746
-0.435022
-0.353067
-0.265600
-0.175239
-0.083448
0.008779
0.099931
0.187030
0.266135
0.334765
0.393838
0.446709
0.495984
0.541113
0.579042
0.606713
0.622217
0.624225
0.612195
0.587442
0.552980
0.512429
0.469642
0.428551
0.392092
0.361232
0.335867
0.317072
0.308243
0.313619
0.335410
0.372526
0.422218
0.482467
0.552683
0.632669
0.721086
0.814804
0.909972
1.003594
1.093774
1.178805
1.256517
1.324615
1.382014
1.430192
1.472735
1.512818
1.550751
1.583710
1.607456
1.618201
1.613608
1.593229
1.558453
1.511665
1.455415
1.392917
1.329160
1.270145
1.220159
1.180246
1.149127
1.124082
1.100304
1.070720
1.028191
0.968846
0.893914
0.808901
0.721144
0.637512
0.563324
0.502365
0.456990
0.427903
0.414559
0.416270
0.432481
0.462005
0.502922
0.553822
0.614638
0.685184
0.762632
0.841177
0.914693
0.979722
1.036389
1.087132
1.134470
1.179046
1.218935
1.250490
1.269879
1.274420
1.263722
1.240019
1.206664
1.166436
1.121978
1.076487
1.032887
0.994291
0.965686
0.952271
0.956052
0.975957
1.009930
1.055849
1.112478
1.180213
1.259837
1.350345
1.447514
1.544260
1.633676
1.712315
1.780510
1.840772
1.896483
1.950776
2.005152
2.058302
2.106354
2.145065
2.172332
2.188980
2.197981
2.202895
2.205646
2.204950
2.196965
2.176275
2.135692
2.067972
1.970049
1.844903
1.699566
1.541860
1.377877
1.213207
1.056219
0.916094
0.798041
0.704466
0.638445
0.601800
0.592481
0.607736
0.647777
0.713067
0.799819
0.900834
1.008288
1.113308
1.206539
1.282221
1.339171
1.376949
1.394368
1.392098
1.373937
1.345028
1.310349
1.274318
1.239040
1.202970
1.163263
1.117821
1.063587
0.995739
0.910104
0.805351
0.683756
0.550506
0.410291
0.263844
0.109922
-0.048773
-0.205719
-0.357985
-0.506073
-0.644728
-0.764649
-0.861780
-0.934167
-0.979303
-1.000278
-1.000990
-0.982122
-0.951441
-0.923031
-0.906197
-0.905033
-0.921012
-0.953482
-1.000904
-1.059170
-1.122239
-1.186583
-1.251758
-1.318997
-1.390621
-1.467206
-1.546032
-1.624017
-1.699186
-1.768824
-1.829054
-1.875732
-1.904823
-1.913365
-1.900557
-1.867752
-1.817926
-1.755199
-1.684343
-1.609148
-1.530162
-1.445461
-1.354347
-1.259092
-1.163564
-1.071693
-0.987526
-0.916430
-0.864536
-0.835561
-0.829401
-0.842915
-0.869504
-0.901081
-0.934068
-0.970814
-1.014026
-1.062998
-1.114837
-1.165979
-1.212446
-1.250798
-1.279343
-1.298083
-1.307998
-1.310346
-1.305703
-1.293181
-1.270260
-1.232902
-1.176349
-1.096931
-0.993737
-0.869340
-0.729858
-0.584513
-0.444369
-0.319776
-0.217826
-0.142196
-0.094621
-0.074456
-0.076013
-0.088224
-0.099110
-0.101113
-0.092429
-0.074500
-0.048815
-0.015215
0.027529
0.079709
0.139344
0.202584
0.265021
0.322376
0.369742
0.401162
0.411437
0.398146
0.361402
0.302702
0.224503
0.131047
0.029295
-0.074014
-0.176317
-0.276189
-0.369594
-0.453453
-0.527128
-0.588997
-0.638152
-0.678096
-0.714895
-0.753833
-0.797649
-0.846730
-0.902884
-0.969970
-1.047990
-1.132585
-1.221760
-1.316940
-1.419585
-1.531047
-1.650767
-1.772341
-1.885036
-1.977789
-2.040214
-2.065271
-2.054468
-2.017948
-1.968715
-1.917585
-1.871697
-1.835512
-1.812240
-1.804402
-1.814430
-1.844869
-1.896667
-1.968382
-2.058199
-2.163845
-2.278872
-2.391366
-2.487468
-2.555873
-2.589558
-2.584187
-2.536859
-2.447876
-2.322865
-2.171708
-2.004494
-1.827703
-1.643450
-1.452140
-1.257086
-1.067772
-0.898051
-0.759520
-0.655156
-0.578595
-0.519411
-0.469519
-0.425592
-0.386571
-0.348866
-0.303593
-0.239116
-0.147047
-0.026080
0.118987
0.280854
0.452186
0.624374
0.783941
0.911519
0.986591
0.995898
0.939306
0.827905
0.677068
0.503044
0.324593
0.163116
0.039072
-0.033044
-0.049441
-0.017115
0.052755
0.150736
0.267982
0.391577
0.502798
0.581164
0.612693
0.595377
0.536995
0.449223
0.342463
0.222611
0.091871
-0.047020
-0.186965
-0.318221
-0.436483
-0.543452
-0.635636
-0.702948
-0.739111
-0.744205
-0.722799
-0.682073
-0.625000
-0.551942
-0.467485
-0.375872
-0.281318
-0.198802
-0.152464
-0.163430
-0.241724
-0.382750
-0.570968
-0.791063
-1.032474
-1.283102
-1.528341
-1.756503
-1.957699
-2.122864
-2.248269
-2.334101
-2.377562
-2.370856
-2.305321
-2.177010
-1.989300
-1.751889
-1.478947
-1.187213
-0.894199
-0.618712
-0.382509
-0.208285
-0.113619
-0.105748
-0.180701
-0.325956
-0.524263
-0.756608
-1.001556
-1.231115
-1.411453
-1.515109
-1.534319
-1.478320
-1.358293
-1.180343
-0.951669
-0.686647
-0.405537
-0.128819
0.129077
0.362069
0.568008
0.743152
0.882767
0.986622
1.062560
1.124731
1.188540
1.265950
1.363465
1.483520
1.627595
1.797619
1.994657
2.216828
2.457949
2.708141
2.956426
3.192465
3.406053
3.584857
3.710841
3.761338
3.719317
3.580953
3.350720
3.037634
2.660427
2.245861
1.818082
1.396927
1.003785
0.660792
0.385738
0.188208
0.066781
0.011133
0.007120
0.038609
0.088882
0.143161
0.189155
0.218697
0.231804
0.238077
0.253253
0.293351
0.370250
0.489496
0.648999
0.841510
1.060193
1.299778
1.554012
1.816457
2.083278
2.353632
2.628674
2.909994
3.196560
3.482582
3.758621
4.013872
4.238290
4.425486
4.574863
4.691031
4.781765
4.856118
4.922857
4.989618
5.062269
5.143049
5.228725
5.312041
5.385742
5.444127
5.480073
5.482579
5.441266
5.353603
5.223436
5.054250
4.850789
4.622930
4.379642
4.125246
3.866604
3.615156
3.379895
3.165036
2.972396
2.802478
2.656281
2.537081
2.449490
2.396781
2.378398
2.389549
2.422162
2.466078
2.512049
2.553867
2.586116
2.601733
2.593994
2.559596
2.497023
2.403331
2.277838
2.127429
1.962336
1.790194
1.619456
1.465159
1.347679
1.285292
1.287699
1.355942
1.484636
1.663652
1.881322
2.126556
2.389757
2.664867
2.949486
3.243016
3.545665
3.858139
4.181416
4.515687
4.858631
5.205414
5.550590
5.889789
6.219684
6.536608
6.835745
7.111740
7.359544
7.574636
7.752735
7.889168
7.978472
8.014962
7.994007
7.913548
7.775738
7.587611
7.359467
7.102110
6.825141
6.536824
6.244768
5.956192
5.676296
5.406178
5.143991
4.887849
4.635465
4.382847
4.127429
3.871454
3.619474
3.374656
3.139148
2.915068
2.704153
2.508916
2.334398
2.187616
2.075736
2.004419
1.976887
1.994592
2.057428
2.162547
2.305431
2.482055
2.687579
2.914312
3.152361
3.390647
3.618057
3.825178
4.003175
4.141400
4.229450
4.261654
4.239233
4.169868
4.065589
3.940969
3.812274
3.695613
3.603972
3.544408
3.516738
3.514325
3.525644
3.536673
3.534840
3.512501
3.468292
3.406959
3.337919
3.271966
3.217102
3.176185
3.147573
3.127285
3.111297
3.097431
3.086516
3.082323
3.089978
3.113001
3.150140
3.194278
3.234535
3.259880
3.261683
3.234143
3.173257
3.076005
2.941030
2.770178
2.568668
2.342808
2.097360
1.835336
1.559305
1.271860
0.976332
0.679169
0.390622
0.120982
-0.123178
-0.338511
-0.523804
-0.680498
-0.811154
-0.917218
-0.999780
-1.060247
-1.099433
-1.118033
-1.117937
-1.102801
-1.078287
-1.051808
-1.031481
-1.024244
-1.033330
-1.056181
-1.083714
-1.102133
-1.097445
-1.060309
-0.988572
-0.885983
-0.758499
-0.612597
-0.456631
-0.301314
-0.156827
-0.029023
0.081353
0.176388
0.258606
0.329830
0.391615
0.446448
0.497456
0.546830
0.595674
0.645681
0.700746
0.767105
0.851668
0.959554
1.092675
1.249377
1.423612
1.603707
1.771967
1.906106
1.984234
1.993174
1.934312
1.821170
1.670906
1.497551
1.310736
1.116892
0.919326
0.717632
0.509272
0.294581
0.081214
-0.117518
-0.287984
-0.418816
-0.503132
-0.542723
-0.545228
-0.514330
-0.449260
-0.353744
-0.235909
-0.099320
0.058050
0.238369
0.443121
0.671751
0.917985
1.173788
1.434756
1.697469
1.957952
2.214870
2.469074
2.719695
2.963281
3.195907
3.413978
3.614421
3.796858
3.964433
4.121186
4.270239
4.414279
4.555769
4.696847
4.839454
4.984545
5.131672
5.280635
5.432275
5.586578
5.742206
5.898945
6.057955
6.218360
6.375542
6.523566
6.658335
6.778691
6.885046
6.977026
7.052655
7.108979
7.142358
7.148993
7.127000
7.078453
7.008935
6.926136
6.839841
6.760996
6.698374
6.655986
6.633366
6.627596
6.635279
6.653570
6.680268
6.713299
6.750604
6.791000
6.834296
6.879373
6.921812
6.953146
6.962594
6.940526
6.880873
6.780105
6.634988
6.442790
6.202614
5.915668
5.585793
5.219200
4.821694
4.397497
3.951418
3.489740
3.019525
2.549045
2.087641
1.644008
1.225124
0.836445
0.482913
0.169211
-0.103073
-0.338968
-0.549024
-0.744070
-0.931710
-1.117721
-1.309350
-1.515439
-1.743206
-1.996865
-2.279219
-2.591473
-2.931369
-3.294770
-3.679522
-4.085007
-4.507485
-4.939168
-5.372945
-5.805086
-6.233046
-6.653917
-7.065024
-7.463265
-7.844130
-8.203087
-8.537103
-8.844089
-9.122170
-9.370383
-9.589769
-9.783723
-9.957345
-10.116150
-10.264950
-10.407720
-10.548020
-10.689170
-10.834090
-10.985510
-11.145780
-11.315150
-11.489300
-11.658350
-11.808680
-11.926380
-12.000540
-12.025130
-11.998290
-11.920110
-11.791620
-11.615490
-11.396740
-11.142190
-10.859410
-10.556300
-10.240590
-9.919345
-9.598923
-9.284711
-8.980432
-8.687736
-8.406076
-8.132659
-7.862674
-7.590001
-7.307983
-7.009818
-6.688953
-6.339905
-5.959109
-5.545535
-5.101193
-4.630758
-4.139544
-3.631115
-3.106843
-2.567662
-2.015859
-1.455125
-0.889448
-0.322370
0.243152
0.804896
1.361425
1.911755
2.454909
2.989593
3.514253
4.027572
4.528595
5.016090
5.488053
5.941633
6.373169
6.778966
7.156202
7.502537
7.815856
8.095504
8.343018
8.561509
8.754542
8.924579
9.071834
9.193849
9.284658
9.333969
9.327789
9.251134
9.092974
8.851203
8.533408
8.152576
7.721718
7.251242
6.749072
6.221726
5.675274
5.115287
4.545976
3.970586
3.393212
2.819874
2.258385
1.717194
1.202535
0.715994
0.255383
-0.183029
-0.604312
-1.015201
-1.422327
-1.830542
-2.243329
-2.663148
-3.090836
-3.525690
-3.966398
-4.412046
-4.862900
-5.320608
-5.787726
-6.266783
-6.759112
-7.264054
-7.779109
-8.300859
-8.825877
-9.351322
-9.875058
-10.395000
-10.908410
-11.412630
-11.906530
-12.390560
-12.865070
-13.329280
-13.781670
-14.220890
-14.646640
-15.059690
-15.459510
-15.842890
-16.206310
-16.547440
-16.862810
-17.146509
-17.390820
-17.585560
-17.717270
-17.772409
-17.742960
-17.629520
-17.440510
-17.189119
-16.889589
-16.554090
-16.191669
-15.809250
-15.412460
-15.004980
-14.587670
-14.159770
-13.720790
-13.270960
-12.811480
-12.345370
-11.877020
-11.409760
-10.943940
-10.478080
-10.011570
-9.544780
-9.076492
-8.603249
-8.122045
-7.632490
-7.136082
-6.634093
-6.127063
-5.616162
-5.102672
-4.585313
-4.060454
-3.525700
-2.981852
-2.431774
-1.878670
-1.325309
-0.775076
-0.233815
0.291220
0.794910
1.275685
1.734607
2.174429
2.598150
3.007768
3.405101
3.792936
4.174359
4.551353
4.924497
5.293956
5.660281
6.023720
6.382957
6.735161
7.077015
7.404099
7.708402
7.978414
8.203861
8.378387
8.495160
8.543302
8.512874
8.401398
8.212331
7.949794
7.618871
7.228910
6.792186
6.320167
5.822536
5.308075
4.785268
4.262038
3.745043
3.239424
2.749365
2.279009
1.832436
1.412722
1.022312
0.664673
0.344186
0.063059
-0.180963
-0.392055
-0.572287
-0.722511
-0.846391
-0.950779
-1.042233
-1.125371
-1.205415
-1.290884
-1.391495
-1.513232
-1.657970
-1.828366
-2.029475
-2.263468
-2.525639
-2.808109
-3.105331
-3.413541
-3.726593
-4.035672
-4.332954
-4.612873
-4.870246
-5.100420
-5.300985
-5.470984
-5.609444
-5.716040
-5.792223
-5.841646
-5.869956
-5.883462
-5.887469
-5.885467
-5.879241
-5.869636
-5.857314
-5.842224
-5.821782
-5.790541
-5.743067
-5.676328
-5.587916
-5.473591
-5.328670
-5.150630
-4.938981
-4.694367
-4.419325
-4.118926
-3.799481
-3.466557
-3.124574
-2.778301
-2.434390
-2.100908
-1.784804
-1.490283
-1.220264
-0.977718
-0.764501
-0.580805
-0.426200
-0.299592
-0.198590
-0.120590
-0.064678
-0.031377
-0.019766
-0.025908
-0.045330
-0.076585
-0.121394
-0.181200
-0.254840
-0.340870
-0.440748
-0.557566
-0.692559
-0.844691
-1.012230
-1.192563
-1.382034
-1.577657
-1.776815
-1.974804
-2.166175
-2.348492
-2.521809
-2.686455
-2.843288
-2.992138
-3.129230
-3.249255
-3.348138
-3.421973
-3.465904
-3.475681
-3.450265
-3.393372
-3.312821
-3.217479
-3.114289
-3.009054
-2.908573
-2.820004
-2.749365
-2.699741
-2.668837
-2.651235
-2.645428
-2.655909
-2.686542
-2.734741
-2.794827
-2.863822
-2.940449
-3.022000
-3.104553
-3.183013
-3.250928
-3.303098
-3.337761
-3.355017
-3.354011
-3.331975
-3.285593
-3.213173
-3.115597
-2.996078
-2.859098
-2.707891
-2.543572
-2.368398
-2.187520
-2.005869
-1.826103
-1.650425
-1.482711
-1.328352
-1.191275
-1.072176
-0.971800
-0.892686
-0.834792
-0.794184
-0.767502
-0.752744
-0.747852
-0.752182
-0.765197
-0.785068
-0.812611
-0.851905
-0.906685
-0.980295
-1.075923
-1.194721
-1.335842
-1.497516
-1.676972
-1.870976
-2.077195
-2.294079
-2.519651
-2.750742
-2.982246
-3.206681
-3.414973
-3.597940
-3.747539
-3.858568
-3.931080
-3.970543
-3.985166
-3.984056
-3.975499
-3.963346
-3.946186
-3.921138
-3.886097
-3.838564
-3.775731
-3.696717
-3.604431
-3.505963
-3.409995
-3.321566
-3.239733
-3.161682
-3.088358
-3.025108
-2.977900
-2.950695
-2.946444
-2.968733
-3.021025
-3.104208
-3.215160
-3.348086
-3.496803
-3.655115
-3.816378
-3.974730
-4.127006
-4.272933
-4.412963
-4.545906
-4.669305
-4.781304
-4.880307
-4.962770
-5.022734
-5.054162
-5.052954
-5.016760
-4.944553
-4.836916
-4.695919
-4.524630
-4.326577
-4.105219
-3.863841
-3.605655
-3.333775
-3.051295
-2.761447
-2.467855
-2.174763
-1.886857
-1.608713
-1.344367
-1.097018
-0.868621
-0.660515
-0.475612
-0.319293
-0.197237
-0.112822
-0.065857
-0.051658
-0.060411
-0.079784
-0.101527
-0.123064
-0.140627
-0.149154
-0.149515
-0.144464
-0.131747
-0.109190
-0.076726
-0.032544
0.024882
0.096501
0.183798
0.284649
0.393904
0.507561
0.621633
0.730483
0.828066
0.910412
0.977400
1.031599
1.076031
1.113432
1.145776
1.173104
1.194915
1.213368
1.230986
1.245927
1.254713
1.257683
1.258388
1.259604
1.260622
1.257516
1.245552
1.221022
1.182429
1.130282
1.065365
0.988864
0.903601
0.813909
0.724171
0.636190
0.548680
0.460139
0.370185
0.278384
0.184229
0.088622
-0.005226
-0.093027
-0.171880
-0.240845
-0.298896
-0.343390
-0.370904
-0.378860
-0.366711
-0.336623
-0.292985
-0.240874
-0.185028
-0.129772
-0.079215
-0.037081
-0.006288
0.011312
0.015356
0.007013
-0.012044
-0.039947
-0.073944
-0.110465
-0.145262
-0.173168
-0.188882
-0.188642
-0.171564
-0.139841
-0.097626
-0.049345
0.001506
0.052341
0.100591
0.143480
0.178783
0.205103
0.221534
0.227993
0.225748
0.217699
0.208657
0.202146
0.196756
0.192046
0.192859
0.199399
0.205712
0.211878
0.222624
0.240321
0.268079
0.308725
0.363647
0.437597
0.535498
0.657458
0.802194
0.968793
1.152237
1.341393
1.525224
1.697607
1.853091
1.985535
2.092315
2.173320
2.230302
2.269843
2.299890
2.325407
2.350347
2.377635
2.407393
2.438722
2.470295
2.498659
2.519587
2.532422
2.541246
2.550905
2.564587
2.585450
2.616209
2.656876
2.705916
2.762682
2.827024
2.897634
2.971934
3.047563
3.123393
3.198603
3.271088
3.337255
3.393494
3.437699
3.469891
3.492762
3.511015
3.528293
3.545326
3.561382
3.575592
3.586734
3.593308
3.594085
3.588795
3.579475
3.571682
3.573857
3.594611
3.639496
3.708959
3.798195
3.899402
4.005667
4.113034
4.219157
4.321882
4.420498
4.517372
4.616944
4.723116
4.837487
4.958990
5.084707
5.211350
5.336186
5.457138
5.572585
5.680823
5.779104
5.862750
5.924816
5.956334
5.947633
5.891817
5.788924
5.645636
5.469893
5.267996
5.047048
4.815412
4.579163
4.341236
4.103218
3.865630
3.629109
3.396906
3.174795
2.969484
2.787244
2.631815
2.503914
2.403676
2.331559
2.285941
2.262479
2.256711
2.263971
2.276527
2.286042
2.290423
2.293582
2.296776
2.294827
2.282153
2.257305
2.220759
2.172851
2.114034
