EVENT_NAME: EMILIA_2ND_SHOCK
EVENT_ID: IT-2012-0011
EVENT_DATE_YYYYMMDD: 20120529
EVENT_TIME_HHMMSS: 070002
EVENT_LATITUDE_DEGREE: 44.8417
EVENT_LONGITUDE_DEGREE: 11.0657
EVENT_DEPTH_KM: 8.1
HYPOCENTER_REFERENCE: INGV-CNT_Seismic_Bulletin
MAGNITUDE_W: 6.0
MAGNITUDE_W_REFERENCE: RCMT-INGV
MAGNITUDE_L: 5.8
MAGNITUDE_L_REFERENCE: INGV-CNT_Seismic_Bulletin
FOCAL_MECHANISM: TF
NETWORK: TV
STATION_CODE: MIR03
STATION_NAME: QUARANTOLI 1
STATION_LATITUDE_DEGREE: 44.938400
STATION_LONGITUDE_DEGREE: 11.104500
STATION_ELEVATION_M: 
LOCATION: 
SENSOR_DEPTH_M: 
VS30_M/S: 
SITE_CLASSIFICATION_EC8: C*
MORPHOLOGIC_CLASSIFICATION: 
EPICENTRAL_DISTANCE_KM: 11.2
EARTHQUAKE_BACKAZIMUTH_DEGREE: 195.9
DATE_TIME_FIRST_SAMPLE_YYYYMMDD_HHMMSS: 20120529_065927.000
DATE_TIME_FIRST_SAMPLE_PRECISION: milliseconds
SAMPLING_INTERVAL_S: 0.005000
NDATA: 18001
DURATION_S: 90.005
STREAM: HNE
UNITS: cm/s
INSTRUMENT: sensor = Episensor FBA ES-T [Kinemetrics] | digitizer = Unknown [Unknown]
INSTRUMENT_ANALOG/DIGITAL: D
INSTRUMENTAL_FREQUENCY_HZ: 
INSTRUMENTAL_DAMPING: 
FULL_SCALE_G: 
N_BIT_DIGITAL_CONVERTER: 
PGV_CM/S: -14.605546
TIME_PGV_S: 50.035000
BASELINE_CORRECTION: BASELINE REMOVED
FILTER_TYPE: BUTTERWORTH
FILTER_ORDER: 2
LOW_CUT_FREQUENCY_HZ: 0.070
HIGH_CUT_FREQUENCY_HZ: 40.000
LATE/NORMAL_TRIGGERED: NT
DATABASE_VERSION: DYNA 1.0
HEADER_FORMAT: DYNA 1.2
DATA_TYPE: VELOCITY
PROCESSING: manual (Paolucci et al., 2011)
DATA_TIMESTAMP_YYYYMMDD_HHMMSS: 
DATA_LICENSE: CC-BY4_0 (http://creativecommons.org/licenses/by/4.0/)
DATA_CITATION: ESM working group (2015), European Strong-Motion database, version 0.1, Network Activity 3: Networking acceleration networks and SM data users. Project NERA (www.nera-eu.org)
DATA_CREATOR: ESM working group
ORIGINAL_DATA_MEDIATOR_CITATION: Orfeus - European Integrated Data Archive (EIDA) http://www.orfeus-eu.org/eida/
ORIGINAL_DATA_MEDIATOR: Orfeus - European Integrated Data Archive (EIDA)
ORIGINAL_DATA_CREATOR_CITATION: 
ORIGINAL_DATA_CREATOR: network: TV (INGV Experiments Network); owner: Istituto Nazionale di Geofisica e Vulcanologia
USER1: 
USER2: 
USER3: 
USER4: 
USER5: 
[...]
-0.671540
-0.735131
-1.005182
-1.448051
-1.960643
-2.398055
-2.635729
-2.631761
-2.440942
-2.173279
-1.937998
-1.808433
-1.810796
-1.930329
-2.127011
-2.347682
-2.533373
-2.634574
-2.634304
-2.560469
-2.474582
-2.442767
-2.503203
-2.643883
-2.805218
-2.911645
-2.915323
-2.825723
-2.705948
-2.635313
-2.662990
-2.784002
-2.948506
-3.093957
-3.176144
-3.175840
-3.087661
-2.919323
-2.705295
-2.508892
-2.394489
-2.385296
-2.446881
-2.517323
-2.555809
-2.566479
-2.585757
-2.651091
-2.774007
-2.929778
-3.063693
-3.111895
-3.034984
-2.850503
-2.638064
-2.502882
-2.516148
-2.670923
-2.885353
-3.056397
-3.122508
-3.078350
-2.940119
-2.715053
-2.403925
-2.018775
-1.597483
-1.206464
-0.921178
-0.790113
-0.809273
-0.929450
-1.091521
-1.260253
-1.430578
-1.608588
-1.786654
-1.928899
-1.978086
-1.885460
-1.644667
-1.299642
-0.917838
-0.555152
-0.241796
0.011032
0.201126
0.329780
0.398832
0.409772
0.366652
0.284308
0.197648
0.158619
0.214651
0.382115
0.634585
0.916105
1.171859
1.371060
1.502852
1.555683
1.506731
1.334240
1.042461
0.675276
0.300106
-0.029256
-0.298241
-0.524164
-0.726924
-0.902015
-1.014379
-1.019576
-0.897649
-0.673985
-0.410157
-0.165733
0.037838
0.215347
0.386473
0.549301
0.677700
0.746306
0.765684
0.792647
0.901202
1.134957
1.476933
1.861048
2.215276
2.498455
2.703357
2.835049
2.892830
2.871763
2.777463
2.635934
2.487374
2.370977
2.315049
2.336151
2.439213
2.614493
2.838823
3.082776
3.312798
3.489456
3.580648
3.591554
3.580024
3.631954
3.814677
4.146649
4.598133
5.111441
5.625015
6.092637
6.493728
6.830912
7.117955
7.370213
7.603610
7.835201
8.075801
8.316812
8.528160
8.675394
8.737386
8.706374
8.579151
8.356885
8.053755
7.700133
7.331232
6.969345
6.616249
6.262083
5.900825
5.536572
5.175111
4.812034
4.431024
4.012456
3.545949
3.047467
2.577883
2.234703
2.090121
2.120027
2.214487
2.266979
2.237117
2.138669
1.996612
1.810421
1.544850
1.161930
0.659998
0.078391
-0.523402
-1.085019
-1.550125
-1.861537
-1.969517
-1.861441
-1.581018
-1.209255
-0.826299
-0.489483
-0.233277
-0.075102
-0.017733
-0.047819
-0.133574
-0.229962
-0.294897
-0.306574
-0.268735
-0.199997
-0.115662
-0.015640
0.114044
0.288620
0.510767
0.768068
1.045732
1.342745
1.673420
2.053024
2.488828
2.989967
3.572731
4.229785
4.887761
5.424732
5.756328
5.895625
5.920826
5.905364
5.882279
5.846990
5.783649
5.696857
5.615325
5.569953
5.581024
5.657702
5.794579
5.968027
6.139406
6.269843
6.346377
6.397027
6.466664
6.564505
6.637656
6.609466
6.447435
6.184564
5.873986
5.537382
5.161428
4.725974
4.222900
3.655979
3.032577
2.359459
1.650097
0.935634
0.267282
-0.290164
-0.671090
-0.828221
-0.753629
-0.488874
-0.109015
0.315573
0.750156
1.198085
1.682197
2.223497
2.830037
3.498748
4.220937
4.981077
5.749365
6.476361
7.099396
7.564684
7.853113
7.987054
8.008741
7.947795
7.806433
7.572136
7.239403
6.817225
6.319476
5.752929
5.113957
4.393616
3.587559
2.707896
1.791853
0.900964
0.110069
-0.507450
-0.896810
-1.045901
-0.998992
-0.831329
-0.604397
-0.353125
-0.106145
0.098356
0.217289
0.223700
0.125911
-0.038547
-0.225919
-0.401208
-0.541369
-0.633433
-0.673016
-0.666411
-0.631475
-0.594063
-0.581751
-0.616055
-0.709142
-0.868598
-1.101440
-1.410165
-1.785860
-2.205689
-2.636031
-3.038805
-3.379146
-3.633243
-3.793391
-3.866442
-3.865589
-3.802842
-3.691074
-3.553624
-3.429079
-3.362053
-3.380511
-3.469919
-3.566120
-3.589345
-3.507680
-3.366276
-3.233363
-3.122077
-2.990857
-2.809949
-2.600214
-2.419397
-2.326270
-2.343105
-2.445438
-2.589516
-2.740692
-2.878583
-2.989642
-3.059516
-3.075382
-3.040008
-2.979627
-2.931485
-2.920964
-2.949517
-3.003394
-3.072405
-3.160114
-3.277393
-3.426351
-3.589898
-3.737317
-3.842235
-3.899519
-3.928206
-3.958302
-4.013337
-4.103715
-4.234006
-4.414092
-4.662396
-4.997747
-5.424834
-5.919859
-6.420426
-6.826358
-7.023848
-6.933993
-6.556073
-5.966304
-5.271247
-4.558347
-3.879003
-3.259343
-2.715521
-2.262055
-1.913172
-1.677211
-1.545639
-1.484912
-1.439917
-1.349524
-1.167607
-0.879718
-0.505669
-0.086374
0.335015
0.726284
1.070322
1.362522
1.605184
1.803818
1.967043
2.106489
2.233906
2.357311
2.479425
2.599494
2.717626
2.840181
2.983555
3.172727
3.433677
3.783400
4.222962
4.736279
5.293457
5.856298
6.385888
6.854386
7.258584
7.624070
7.991542
8.393362
8.838428
9.315312
9.806903
10.301230
10.789610
11.255480
11.664080
11.961560
12.086440
11.986820
11.633330
11.025940
10.199410
9.225929
8.205448
7.237393
6.381995
5.638581
4.964135
4.317487
3.690972
3.111524
2.618099
2.228268
1.912774
1.600331
1.216688
0.732600
0.181437
-0.372063
-0.883299
-1.351169
-1.801271
-2.257620
-2.729289
-3.214019
-3.705945
-4.197727
-4.680343
-5.146592
-5.596708
-6.040437
-6.491162
-6.955886
-7.431906
-7.911744
-8.387378
-8.849499
-9.284658
-9.674835
-10.002980
-10.262000
-10.459140
-10.610720
-10.731660
-10.828650
-10.902350
-10.955100
-10.996760
-11.043120
-11.106950
-11.186110
-11.256890
-11.278460
-11.207960
-11.018110
-10.707240
-10.296940
-9.820043
-9.306152
-8.770679
-8.212372
-7.621845
-6.996266
-6.348674
-5.704907
-5.092165
-4.528771
-4.022182
-3.574539
-3.187415
-2.859373
-2.580774
-2.334439
-2.101947
-1.868095
-1.620191
-1.344763
-1.026186
-0.652353
-0.228589
0.209072
0.597274
0.874166
1.017058
1.053937
1.037118
1.006753
0.971992
0.912601
0.795087
0.594577
0.309015
-0.040056
-0.416274
-0.782696
-1.116447
-1.415768
-1.693443
-1.960525
-2.214672
-2.444293
-2.644119
-2.826387
-3.014153
-3.218132
-3.416107
-3.557383
-3.595037
-3.520012
-3.365945
-3.183322
-3.010312
-2.862446
-2.741514
-2.651196
-2.604103
-2.613447
-2.679002
-2.781697
-2.890044
-2.972169
-3.006053
-2.983683
-2.910364
-2.802452
-2.682853
-2.572897
-2.484619
-2.420042
-2.378805
-2.366277
-2.392666
-2.464550
-2.578597
-2.721427
-2.871985
-3.004147
-3.090963
-3.111330
-3.056186
-2.929723
-2.745327
-2.521946
-2.285869
-2.074478
-1.931106
-1.887285
-1.947099
-2.091417
-2.296835
-2.547306
-2.829165
-3.119800
-3.383520
-3.581371
-3.690723
-3.720074
-3.707074
-3.702199
-3.750412
-3.880323
-4.101699
-4.407379
-4.775649
-5.171087
-5.545614
-5.844372
-6.018213
-6.037826
-5.901848
-5.637289
-5.296640
-4.950667
-4.670312
-4.502333
-4.455099
-4.502252
-4.598234
-4.697251
-4.766398
-4.787188
-4.752469
-4.667455
-4.551600
-4.434417
-4.345590
-4.305568
-4.322304
-4.394067
-4.513717
-4.670785
-4.851608
-5.039980
-5.219072
-5.374023
-5.495782
-5.584695
-5.649243
-5.698796
-5.735140
-5.747982
-5.716528
-5.616037
-5.426159
-5.137502
-4.754064
-4.291038
-3.770047
-3.215181
-2.650337
-2.094878
-1.558065
-1.038373
-0.529742
-0.027473
0.472625
0.978644
1.503481
2.058275
2.640240
3.224026
3.767038
4.227829
4.583030
4.828852
4.969404
5.006458
4.940086
4.776722
4.535388
4.245991
3.941093
3.647933
3.386385
3.171503
3.012311
2.902543
2.813127
2.700054
2.526145
2.279748
1.975479
1.638333
1.286238
0.924406
0.551560
0.168249
-0.220899
-0.611094
-1.001417
-1.393591
-1.786497
-2.171865
-2.533651
-2.848226
-3.083668
-3.205029
-3.193491
-3.068548
-2.886518
-2.709197
-2.572011
-2.479895
-2.426280
-2.411844
-2.446876
-2.538994
-2.681974
-2.857187
-3.042841
-3.220633
-3.376217
-3.497330
-3.576106
-3.616243
-3.636827
-3.665994
-3.727831
-3.832507
-3.976195
-4.148083
-4.336128
-4.526128
-4.696469
-4.817505
-4.863050
-4.827309
-4.729187
-4.598501
-4.460079
-4.328302
-4.207427
-4.093403
-3.979098
-3.858435
-3.724918
-3.570738
-3.390383
-3.182516
-2.947371
-2.684316
-2.393007
-2.078153
-1.754863
-1.448679
-1.187934
-0.993576
-0.873603
-0.824135
-0.833606
-0.885617
-0.958868
-1.027093
-1.063772
-1.052051
-0.993951
-0.912005
-0.841253
-0.815514
-0.854852
-0.959713
-1.113604
-1.292199
-1.473635
-1.644513
-1.799234
-1.934391
-2.042511
-2.109080
-2.115020
-2.044487
-1.894901
-1.683446
-1.444532
-1.217442
-1.030863
-0.894580
-0.803332
-0.747926
-0.723393
-0.727814
-0.754856
-0.788470
-0.804556
-0.778084
-0.691647
-0.542095
-0.343556
-0.125776
0.073608
0.221482
0.300097
0.309679
0.262530
0.175232
0.064906
-0.051105
-0.155416
-0.232363
-0.271707
-0.272056
-0.240173
-0.186087
-0.117946
-0.039780
0.047603
0.144290
0.249198
0.358780
0.466493
0.563191
0.638298
0.681261
0.682983
0.637312
0.542710
0.403675
0.230539
0.036761
-0.164578
-0.362292
-0.547020
-0.712925
-0.862200
-1.008783
-1.176651
-1.391988
-1.673145
-2.024092
-2.434712
-2.886662
-3.360555
-3.840680
-4.315750
-4.776809
-5.215311
-5.624074
-6.001165
-6.353048
-6.691094
-7.018218
-7.312085
-7.523080
-7.600578
-7.530738
-7.346966
-7.100870
-6.826836
-6.532843
-6.213529
-5.866407
-5.501029
-5.137007
-4.795233
-4.494129
-4.251597
-4.081720
-3.985172
-3.945102
-3.936860
-3.945641
-3.976385
-4.046519
-4.168308
-4.336014
-4.526613
-4.710630
-4.864618
-4.979525
-5.061804
-5.126691
-5.187333
-5.245188
-5.286302
-5.286146
-5.220755
-5.076886
-4.855040
-4.565183
-4.219808
-3.829384
-3.402340
-2.948380
-2.481652
-2.020387
-1.582365
-1.178797
-0.810355
-0.467586
-0.135195
0.201928
0.552678
0.914473
1.269451
1.584749
1.824289
1.975637
2.072048
2.177653
2.341773
2.570541
2.838322
3.113830
3.378889
3.632515
3.873997
4.083234
4.226881
4.281740
4.248110
4.144755
3.992884
3.804705
3.587027
3.350249
3.108750
2.873338
2.645410
2.417821
2.179694
1.921474
1.639174
1.336743
1.025194
0.718565
0.429529
0.167702
-0.060065
-0.249914
-0.401163
-0.514497
-0.589937
-0.628913
-0.640176
-0.642823
-0.661570
-0.717378
-0.820710
-0.971458
-1.163057
-1.384188
-1.613911
-1.814770
-1.935701
-1.931011
-1.783626
-1.511656
-1.152241
-0.737828
-0.283480
0.208151
0.731927
1.270885
1.801460
2.307385
2.789444
3.263610
3.750517
4.266118
4.819786
5.416333
6.054445
6.718406
7.368630
7.944862
8.391289
8.689495
8.867857
8.975165
9.044977
9.085012
9.095018
9.088831
9.097961
9.155883
9.279744
9.462646
9.677391
9.887821
10.061840
10.179830
10.236600
10.237170
10.189220
10.097420
9.962526
9.784520
9.566872
9.317517
9.045380
8.756331
8.452502
8.135586
7.812494
7.500237
7.225244
7.013570
6.875284
6.794333
6.734863
6.662054
6.561417
6.441634
6.321097
6.211731
6.114546
6.028141
5.957256
5.912046
5.902876
5.936515
6.011861
6.116510
6.229973
6.332207
6.412692
6.476521
6.540568
6.618729
6.708549
6.791803
6.849194
6.874157
6.869743
6.834120
6.754058
6.612966
6.403915
6.136398
5.833398
5.523293
5.232602
4.981765
4.783004
4.640072
4.550962
4.512845
4.526057
4.593486
4.714906
4.881699
5.078632
5.292016
5.516756
5.756400
6.017126
6.301568
6.606726
6.923805
7.235289
7.511053
7.713019
7.812746
7.809252
7.728706
7.606410
7.470604
7.341669
7.241057
7.195625
7.229881
7.352751
7.552649
7.805588
8.087526
8.380309
8.669266
8.939590
9.178616
9.382294
9.558269
9.721907
9.888533
10.067290
10.259180
10.458370
10.655200
10.839560
11.003480
11.141920
11.251780
11.330390
11.375770
11.389090
11.377520
11.354500
11.337260
11.344020
11.393500
11.505660
11.697030
11.965640
12.273200
12.547110
12.714430
12.742790
12.647870
12.464620
12.217750
11.916160
11.565480
11.181180
10.790670
10.424730
10.106400
9.843347
9.626496
9.433414
9.232273
8.987559
8.671461
8.275610
7.812844
7.307261
6.781844
6.253394
5.735909
5.245562
4.799202
4.406590
4.068113
3.787711
3.589745
3.512296
3.570352
3.727510
3.916131
4.086687
4.232402
4.371501
4.513268
4.640100
4.720275
4.736580
4.699388
4.633873
4.559314
4.479624
4.388778
4.280686
4.151396
3.995019
3.803965
3.574738
3.309602
3.010316
2.672302
2.287088
1.850549
1.369223
0.859592
0.340594
-0.175168
-0.684612
-1.189759
-1.690597
-2.181461
-2.651755
-3.086122
-3.461327
-3.746038
-3.912546
-3.955889
-3.900450
-3.784183
-3.636724
-3.471816
-3.294710
-3.112434
-2.936907
-2.778345
-2.636187
-2.497383
-2.342716
-2.154403
-1.920692
-1.637616
-1.308495
-0.941211
-0.544675
-0.127140
0.302172
0.727842
1.120105
1.429716
1.598629
1.591201
1.423077
1.153900
0.846934
0.537428
0.234110
-0.060416
-0.332413
-0.555786
-0.706623
-0.777611
-0.780605
-0.741144
-0.689937
-0.653196
-0.644991
-0.663375
-0.691521
-0.705048
-0.682124
-0.609522
-0.480896
-0.290759
-0.031390
0.303260
0.707483
1.151432
1.574978
1.899697
2.060929
2.039858
1.868056
1.601262
1.287795
0.955574
0.618987
0.291939
-0.006776
-0.260855
-0.468567
-0.646573
-0.822791
-1.026158
-1.279505
-1.595849
-1.976459
-2.409534
-2.869601
-3.319283
-3.715852
-4.023683
-4.227857
-4.338697
-4.382928
-4.390192
-4.385840
-4.390347
-4.419351
-4.481629
-4.576351
-4.692580
-4.813342
-4.922374
-5.009021
-5.069562
-5.106868
-5.130561
-5.156951
-5.206178
-5.296403
-5.438943
-5.637853
-5.892876
-6.201895
-6.560648
-6.960605
-7.387501
-7.822821
-8.248547
-8.652562
-9.031005
-9.386552
-9.724909
-10.052070
-10.373210
-10.693060
-11.016760
-11.349880
-11.696690
-12.057570
-12.427160
-12.794660
-13.146830
-13.472130
-13.763610
-14.018680
-14.236100
-14.412250
-14.539110
-14.605550
-14.601610
-14.523530
-14.375970
-14.170090
-13.919070
-13.634160
-13.323080
-12.990730
-12.640550
-12.275350
-11.897110
-11.506930
-11.105900
-10.696800
-10.285440
-9.880419
-9.491546
-9.127871
-8.796363
-8.501006
-8.241762
-8.013690
-7.807335
-7.610793
-7.412395
-7.202671
-6.975072
-6.725892
-6.454198
-6.162211
-5.855631
-5.543106
-5.234476
-4.938154
-4.658677
-4.395693
-4.144694
-3.898864
-3.651244
-3.396182
-3.129537
-2.848327
-2.550664
-2.236089
-1.905966
-1.563390
-1.212751
-0.859794
-0.513147
-0.187492
0.094328
0.305538
0.427453
0.460850
0.425166
0.345594
0.240598
0.119410
-0.012554
-0.148267
-0.279090
-0.399011
-0.507636
-0.609237
-0.710050
-0.816515
-0.934891
-1.070835
-1.227348
-1.401559
-1.582547
-1.751690
-1.886293
-1.967137
-1.987247
-1.955060
-1.888557
-1.806036
-1.720775
-1.640058
-1.565594
-1.494260
-1.419183
-1.331211
-1.220994
-1.081162
-0.907710
-0.700376
-0.462695
-0.202121
0.070674
0.344102
0.608391
0.856808
1.085071
1.290500
1.472443
1.633529
1.779267
1.914193
2.036823
2.139694
2.216950
2.270333
2.303575
2.313163
2.290578
2.232372
2.144065
2.036024
1.917578
1.794843
1.674360
1.566010
1.478777
1.414430
1.366447
1.324812
1.282335
1.236829
1.188192
1.135151
1.075448
1.008676
0.938412
0.871385
0.814304
0.770671
0.739794
0.718183
0.701924
0.688667
0.678247
0.672100
0.672824
0.684400
0.712766
0.765747
0.851022
0.972649
1.128738
1.312211
1.514108
1.726635
1.943452
2.157526
2.359355
2.538352
2.687178
2.805761
2.902066
2.989183
3.080148
3.182790
3.296724
3.413614
3.520541
3.604934
3.658634
3.679400
3.670085
3.636937
3.588197
3.533147
3.481274
3.441057
3.418273
3.414471
3.426527
3.447699
3.469630
3.484244
3.484825
3.466454
3.426505
3.365316
3.286297
3.194871
3.096543
2.994865
2.890051
2.778880
2.655907
2.515131
2.351281
2.160824
1.943054
1.700972
1.441255
1.173044
0.906031
0.648627
0.406749
0.183349
-0.021398
-0.209478
-0.384266
-0.549909
-0.711079
-0.872926
-1.040775
-1.219400
-1.412051
-1.619353
-1.837996
-2.059244
-2.268114
-2.445102
-2.572152
-2.641277
-2.660243
-2.650028
-2.634940
-2.632498
-2.649810
-2.686338
-2.737767
-2.797366
-2.855747
-2.901350
-2.922536
-2.910449
-2.860952
-2.774734
-2.656076
-2.510943
-2.344922
-2.161875
-1.964154
-1.754351
-1.537291
-1.320429
-1.112031
-0.918759
-0.745031
-0.594870
-0.474249
-0.390918
-0.350845
-0.353912
-0.392949
-0.457265
-0.537276
-0.626215
-0.718848
-0.809893
-0.893912
-0.966314
-1.024292
-1.067359
-1.098038
-1.122300
-1.148248
-1.182642
-1.227414
-1.278930
-1.330280
-1.374044
-1.402976
-1.408941
-1.382784
-1.316584
-1.206755
-1.055448
-0.869356
-0.657202
-0.427652
-0.188212
0.055226
0.298356
0.537963
0.771315
0.996037
1.210328
1.412245
1.597263
1.755601
1.872811
1.935422
1.938335
1.887575
1.795932
1.676100
1.537361
1.386816
1.231895
1.080969
0.941458
0.817148
0.706855
0.605125
0.504356
0.397524
0.280812
0.155309
0.026800
-0.096548
-0.207236
-0.300144
-0.372070
-0.420227
-0.441520
-0.433266
-0.394746
-0.328472
-0.240323
-0.138390
-0.031427
0.071832
0.162380
0.230888
0.269103
0.272536
0.242858
0.188153
0.120326
0.050947
-0.011966
-0.064814
-0.107616
-0.143174
-0.176936
-0.216915
-0.272486
-0.351864
-0.459404
-0.594268
-0.750970
-0.921135
-1.095572
-1.266074
-1.426592
-1.573583
-1.705571
-1.822176
-1.923121
-2.007649
-2.074606
-2.123092
-2.153300
-2.166753
-2.165512
-2.150780
-2.121919
-2.076620
-2.012077
-1.926422
-1.819729
-1.694322
-1.554366
-1.404800
-1.250096
-1.093593
-0.938060
-0.787288
-0.647508
-0.527214
-0.435065
-0.377021
-0.354383
-0.363703
-0.398162
-0.449331
-0.508403
-0.566637
-0.615620
-0.648194
-0.660250
-0.652523
-0.631070
-0.605645
-0.586200
-0.578860
-0.583399
-0.593564
-0.599834
-0.592880
-0.566055
-0.516197
-0.443284
-0.350073
-0.242036
-0.126908
-0.013330
0.091008
0.180559
0.251779
0.302227
0.330116
0.334895
0.318306
0.284857
0.240979
0.193206
0.146359
0.102691
0.062287
0.024190
-0.012776
-0.050026
-0.089082
-0.130069
-0.169866
-0.202257
-0.220339
-0.219041
-0.196240
-0.152658
-0.091336
-0.016912
0.065567
0.152160
0.241121
0.332922
0.429277
0.531950
0.642112
0.760152
0.885289
1.014857
1.143745
1.264457
1.367912
1.445106
1.489556
1.499415
1.477600
1.429668
1.361278
1.277325
1.182614
1.082176
0.980023
0.877256
0.771446
0.658034
0.532568
0.392063
0.235060
0.061444
-0.127164
-0.326811
-0.531239
-0.732538
-0.921916
-1.090400
-1.229983
-1.335687
-1.407812
-1.452528
-1.479652
-1.498776
-1.516079
-1.533259
-1.548322
-1.557195
-1.555161
-1.537727
-1.501117
-1.442582
-1.360614
-1.255211
-1.128158
-0.982961
-0.824147
-0.656053
-0.481603
-0.301557
-0.114610
0.081609
0.288904
0.506922
0.732337
0.959385
1.181869
1.395873
1.601308
1.800609
1.995396
2.184067
2.362259
2.525036
2.668451
2.789585
2.885805
2.954241
2.991912
2.996293
2.965905
2.900858
2.803307
2.677596
2.529707
2.365964
2.191525
2.009519
1.821192
1.626564
1.424987
1.215485
0.997085
0.769287
0.532548
0.288627
0.040798
-0.206184
-0.446645
-0.675047
-0.886884
-1.078970
-1.249316
-1.397202
-1.523485
-1.630505
-1.721203
-1.797959
-1.861975
-1.913377
-1.951772
-1.977048
-1.990198
-1.993754
-1.991504
-1.987446
-1.984452
-1.983348
-1.982894
-1.980489
-1.973016
-1.957431
-1.931179
-1.892618
-1.841382
-1.778499
-1.706213
-1.627650
-1.546464
-1.466400
-1.390782
-1.322069
-1.261643
-1.209852
-1.166153
-1.129242
-1.097251
-1.068218
-1.040736
-1.014293
-0.988973
-0.964740
-0.940731
-0.914914
-0.884338
-0.845854
-0.796965
-0.736567
-0.665472
-0.586389
