EVENT_NAME: EMILIA_2ND_SHOCK
EVENT_ID: IT-2012-0011
EVENT_DATE_YYYYMMDD: 20120529
EVENT_TIME_HHMMSS: 070002
EVENT_LATITUDE_DEGREE: 44.8417
EVENT_LONGITUDE_DEGREE: 11.0657
EVENT_DEPTH_KM: 8.1
HYPOCENTER_REFERENCE: INGV-CNT_Seismic_Bulletin
MAGNITUDE_W: 6.0
MAGNITUDE_W_REFERENCE: RCMT-INGV
MAGNITUDE_L: 5.8
MAGNITUDE_L_REFERENCE: INGV-CNT_Seismic_Bulletin
FOCAL_MECHANISM: TF
NETWORK: TV
STATION_CODE: MIR04
STATION_NAME: GAVELLO
STATION_LATITUDE_DEGREE: 44.927433
STATION_LONGITUDE_DEGREE: 11.178312
STATION_ELEVATION_M: 
LOCATION: 
SENSOR_DEPTH_M: 
VS30_M/S: 
SITE_CLASSIFICATION_EC8: C*
MORPHOLOGIC_CLASSIFICATION: 
EPICENTRAL_DISTANCE_KM: 13.0
EARTHQUAKE_BACKAZIMUTH_DEGREE: 223.1
DATE_TIME_FIRST_SAMPLE_YYYYMMDD_HHMMSS: 20120529_065927.000
DATE_TIME_FIRST_SAMPLE_PRECISION: milliseconds
SAMPLING_INTERVAL_S: 0.005000
NDATA: 30001
DURATION_S: 150.005
STREAM: HNE
UNITS: cm/s^2
INSTRUMENT: sensor = Episensor FBA ES-T [Kinemetrics] | digitizer = Unknown [Unknown]
INSTRUMENT_ANALOG/DIGITAL: D
INSTRUMENTAL_FREQUENCY_HZ: 
INSTRUMENTAL_DAMPING: 
FULL_SCALE_G: 
N_BIT_DIGITAL_CONVERTER: 
PGA_CM/S^2: 392.110629
TIME_PGA_S: 46.070000
BASELINE_CORRECTION: BASELINE REMOVED
FILTER_TYPE: BUTTERWORTH
FILTER_ORDER: 2
LOW_CUT_FREQUENCY_HZ: 0.050
HIGH_CUT_FREQUENCY_HZ: 40.000
LATE/NORMAL_TRIGGERED: NT
DATABASE_VERSION: DYNA 1.0
HEADER_FORMAT: DYNA 1.2
DATA_TYPE: ACCELERATION
PROCESSING: manual (Paolucci et al., 2011)
DATA_TIMESTAMP_YYYYMMDD_HHMMSS: 
DATA_LICENSE: CC-BY4_0 (http://creativecommons.org/licenses/by/4.0/)
DATA_CITATION: ESM working group (2015), European Strong-Motion database, version 0.1, Network Activity 3: Networking acceleration networks and SM data users. Project NERA (www.nera-eu.org)
DATA_CREATOR: ESM working group
ORIGINAL_DATA_MEDIATOR_CITATION: Orfeus - European Integrated Data Archive (EIDA) http://www.orfeus-eu.org/eida/
ORIGINAL_DATA_MEDIATOR: Orfeus - European Integrated Data Archive (EIDA)
ORIGINAL_DATA_CREATOR_CITATION: 
ORIGINAL_DATA_CREATOR: network: TV (INGV Experiments Network); owner: Istituto Nazionale di Geofisica e Vulcanologia
USER1: 
USER2: 
USER3: 
USER4: 
USER5: 
[...]
-2.994211
-2.540449
-0.775228
1.023720
1.453913
0.174496
-1.726913
-2.815546
-2.614907
-1.558159
-0.360988
0.112817
-0.369293
-0.409156
1.498415
4.353159
5.605868
4.544638
2.528496
0.368193
-2.042364
-4.123990
-5.133454
-5.415720
-4.948859
-2.328912
2.496845
6.557314
6.921213
3.725218
-0.633398
-3.870215
-5.036102
-4.070587
-1.092517
3.005393
6.025914
5.899098
2.584799
-1.871635
-4.800015
-4.500613
-1.498342
1.518315
2.113136
0.622593
-0.708617
-0.710880
-0.164518
-0.175187
-0.889646
-1.623425
-1.555891
-0.436830
0.842303
0.474023
-2.273890
-4.782155
-2.733506
4.358630
10.986121
10.962105
3.823495
-5.368706
-11.168094
-11.299690
-6.819100
-0.745406
4.190220
7.449289
9.787027
10.699039
8.127252
0.982170
-8.385241
-14.608679
-13.502278
-6.246031
1.934932
7.006362
8.387023
7.027739
3.838088
-0.095990
-3.486977
-5.315065
-5.118695
-3.319721
-1.137757
0.478946
1.686223
3.064457
4.311949
4.106081
1.610018
-2.022997
-4.474264
-4.764132
-3.773722
-2.275362
-0.165477
2.527806
5.510093
8.192363
8.790875
5.696334
0.468511
-3.398055
-4.805651
-5.083440
-4.517812
-2.661635
-1.269139
-2.683299
-5.535646
-5.767736
-2.065327
2.435555
4.212802
3.318475
2.458094
3.046762
3.433384
1.188719
-3.668578
-8.168720
-8.727192
-3.988229
3.775200
9.855716
10.775821
7.192183
2.360688
-1.815572
-5.542699
-8.487603
-8.901232
-5.977915
-1.351133
2.493027
4.366495
4.619990
4.136176
3.758344
4.020994
4.497126
4.033894
2.443081
0.940439
0.157905
-0.750259
-2.182902
-3.096025
-2.679188
-1.415032
-0.382530
-0.692564
-2.834544
-5.627863
-6.753352
-4.886158
-0.819483
3.298559
5.418452
4.869495
2.729993
0.673691
-0.330541
0.145176
2.073488
3.961781
3.596412
0.908322
-1.623543
-2.155359
-1.494950
-1.491270
-2.732134
-4.223164
-4.543150
-3.231783
-1.510764
-1.306971
-2.849963
-3.539664
-0.425220
5.793815
10.517123
10.064026
5.718143
1.697730
0.288980
0.623814
1.126665
1.128134
0.404865
-1.149807
-2.950210
-3.764508
-2.886949
-0.738496
2.001664
5.103208
7.997847
9.028209
6.616924
1.130885
-4.996903
-8.996034
-9.634918
-7.590795
-4.057518
0.321299
4.474720
5.986684
3.146861
-2.104058
-5.382640
-4.655200
-1.967170
0.025909
0.898451
1.089099
0.186102
-2.082850
-4.796878
-6.705011
-7.099658
-5.788867
-3.208455
-0.237990
2.700427
5.641829
8.006347
8.591482
6.782207
3.171408
-0.695841
-3.023148
-3.108059
-2.182971
-2.038314
-2.834992
-3.263319
-2.729298
-2.075790
-1.991503
-2.131145
-2.330874
-3.283113
-5.006365
-5.777735
-3.940592
-0.241379
2.796425
3.749132
3.614891
3.813006
3.779416
1.906238
-1.505254
-3.824012
-3.041713
-0.289468
1.262831
-0.221228
-3.653532
-6.708793
-7.932049
-6.779730
-3.153899
2.072252
7.209449
11.040725
13.100260
12.882012
10.108304
5.892410
2.546393
1.767322
3.232246
5.175848
6.321395
6.417551
4.679431
-0.051353
-6.476225
-10.858391
-11.370457
-9.960333
-8.873021
-8.151771
-7.471456
-7.263511
-6.885117
-4.400799
0.698066
6.155244
8.783863
6.962820
1.845571
-3.146139
-4.916252
-3.944477
-4.025389
-7.210908
-10.212708
-8.290908
-1.890971
3.424973
3.564870
-0.126923
-4.092072
-7.074162
-9.217578
-8.976023
-4.400671
3.545353
11.357547
15.687042
14.807140
9.458899
3.483349
1.677794
4.910076
8.028061
4.679045
-5.269065
-14.380645
-14.994575
-7.778444
-1.271447
-1.894449
-6.655872
-8.037467
-3.451484
3.335886
7.815859
8.636469
7.221422
5.442482
3.645480
1.169349
-1.599844
-3.473834
-4.456187
-5.442830
-6.404415
-6.622029
-5.985760
-4.872367
-3.760746
-3.296564
-3.364343
-2.528468
0.296614
4.605418
9.200360
12.589731
13.018589
10.806359
9.692796
12.467146
16.031290
14.076738
3.992160
-10.923337
-24.040266
-28.596554
-21.644600
-7.342507
5.384162
10.047612
6.929383
0.468573
-5.639529
-9.966305
-11.641659
-8.905329
-0.443197
11.450744
20.262419
19.625513
8.955646
-5.537745
-15.443239
-15.766407
-7.396126
4.145036
12.239595
13.007155
7.474510
0.313111
-4.749646
-8.243874
-12.444265
-16.307833
-15.848502
-10.596415
-6.358799
-8.269222
-12.886059
-10.599945
3.650636
22.995649
33.760349
29.636623
18.003407
9.626008
6.449601
3.323104
-2.043864
-6.026600
-5.229737
-0.973740
2.656738
1.721846
-4.581433
-10.841280
-9.868434
-2.346719
3.337203
1.414839
-6.197904
-13.833243
-16.199530
-10.648853
0.218302
9.800693
14.008187
14.522279
13.961308
10.350665
-0.595749
-17.336548
-29.278622
-25.401932
-6.748503
12.338441
17.038927
5.200976
-13.163370
-27.412804
-33.978355
-34.017410
-28.614367
-17.685320
-2.029685
13.870586
22.881401
21.438107
13.508173
6.883314
6.559695
11.839573
18.321058
21.836496
21.040783
17.599676
14.660231
14.132799
14.161153
10.100722
-0.424024
-14.034129
-24.169743
-26.472664
-21.592863
-13.652745
-5.790816
2.451506
12.060783
20.530588
23.786814
20.840904
14.224614
7.647340
4.854775
7.682415
12.439041
10.781024
-2.045353
-20.425627
-32.797321
-32.945930
-24.377932
-13.642907
-3.277170
6.987439
15.406135
18.067089
13.602317
6.115444
1.953759
3.805853
8.543766
10.632452
7.351765
0.668286
-5.102935
-6.467664
-3.038236
1.599158
2.888068
0.698376
-0.261131
3.040559
6.525681
2.086014
-12.638392
-28.158003
-29.832129
-12.152911
14.816218
33.736748
34.865932
23.317360
11.449950
5.073084
-0.116053
-8.788599
-17.645756
-19.904902
-14.945267
-9.402685
-9.237459
-13.345363
-15.794008
-13.023750
-7.170724
-2.559367
-0.894850
-0.275646
3.188320
12.822742
27.084291
37.622486
35.648933
21.035177
2.881822
-8.417597
-9.161112
-4.699782
-4.082915
-10.462357
-17.146969
-14.539718
-1.563420
10.552215
8.797760
-6.669888
-21.752804
-23.393349
-12.336666
-0.429790
3.343355
2.929475
9.581415
27.069357
46.410233
55.431026
49.795559
34.329174
17.250746
4.275203
-4.244106
-11.355185
-18.233887
-22.818035
-24.072435
-23.800005
-23.275372
-21.636951
-18.300688
-13.975521
-8.821600
-2.039119
6.068315
13.043085
16.025511
14.161233
8.722738
1.737470
-3.915243
-4.593588
0.806316
8.310472
12.189795
10.776802
7.605005
6.576908
6.990502
4.340251
-4.269591
-16.379938
-25.809422
-27.833973
-23.120441
-16.860987
-13.277975
-10.134326
-0.696503
16.693600
33.703140
39.528763
31.453178
16.428787
3.893114
-2.259053
-5.420923
-10.204031
-15.479317
-15.599877
-8.816974
-1.466059
-1.248559
-8.410595
-16.837187
-21.890224
-23.155336
-20.965584
-14.377536
-2.656778
12.623435
26.143747
30.552618
23.255611
11.301113
5.683311
10.424928
19.637751
24.137009
18.570724
4.203493
-11.881833
-20.866993
-18.496664
-8.859603
-0.792074
0.681059
-1.454795
-0.838073
4.927828
12.173722
15.626953
14.280524
11.831372
10.693910
7.701667
-1.310162
-14.138175
-24.163952
-29.399488
-33.673897
-38.307098
-39.576748
-35.638420
-29.048649
-21.600134
-13.109948
-5.247881
-0.469222
2.581156
7.436830
13.486854
15.504732
11.002573
5.296329
6.317071
15.129374
24.700745
28.457220
26.613113
22.553682
17.144398
10.249351
4.582438
3.447612
5.998844
7.698729
4.497262
-4.747112
-18.056705
-30.600906
-36.407558
-32.485821
-22.096336
-12.057207
-4.998223
4.004361
20.267645
40.592232
55.232342
58.140678
51.888191
42.094082
29.831549
11.509488
-14.578109
-43.714729
-67.986389
-83.216370
-90.713905
-92.352959
-87.261322
-75.389206
-61.584248
-51.916676
-45.913296
-35.794693
-14.352373
17.696527
50.871304
72.351700
75.256447
64.718796
53.659489
51.265518
54.850967
53.339882
39.613224
18.096231
-0.843727
-11.432559
-15.823411
-19.649628
-26.512831
-35.394329
-42.119572
-44.158840
-43.625629
-43.607670
-42.026340
-31.833176
-8.007767
26.229193
59.717125
80.636833
84.878082
76.073807
57.813545
30.613909
-1.682866
-28.018732
-37.535854
-29.519777
-14.256620
-5.858547
-13.483249
-35.098347
-58.772884
-72.646057
-73.837639
-65.698837
-48.055286
-16.259794
27.007046
64.379868
76.268333
61.195004
38.391132
29.354906
39.868507
59.263554
73.565742
77.513321
74.675362
68.480583
55.379410
28.052736
-13.602347
-55.802891
-79.175056
-75.417534
-53.359138
-28.833136
-12.322120
-5.165189
-1.973976
4.456586
17.286583
33.045692
45.270603
50.172009
48.058155
41.064323
31.849262
23.097691
15.439143
6.566615
-5.403677
-18.418484
-27.894194
-30.435337
-24.608118
-10.229239
9.758141
28.017445
37.682842
38.719395
36.304092
33.640301
30.195633
26.019468
23.194946
22.849186
23.638699
22.883432
17.585464
5.632473
-12.245805
-32.264748
-50.201897
-64.127586
-74.409775
-81.432098
-84.506561
-83.502434
-79.392075
-71.746239
-58.466190
-40.265591
-23.282085
-15.402078
-20.064425
-32.599907
-43.288624
-46.827557
-47.717724
-54.034847
-67.902275
-83.174362
-90.590942
-86.112320
-75.902168
-70.779129
-74.316551
-79.642059
-78.505714
-68.176476
-48.522545
-19.522820
14.667742
44.349174
62.075146
70.154594
75.923103
80.445473
77.549988
64.930962
50.773438
45.526684
48.322742
45.948112
28.470837
2.667550
-15.402718
-18.871565
-15.188819
-13.828630
-14.201197
-8.235063
6.314148
19.973270
22.713543
16.674397
12.427294
16.740814
29.089548
46.253296
65.210045
82.758568
96.037766
104.145294
106.700027
100.969063
85.855087
69.368973
63.113789
66.515846
66.491096
55.017136
37.362621
22.994020
16.662645
17.767904
24.019564
34.942169
50.555035
67.480446
80.366814
87.623924
92.794601
98.449844
100.603119
93.422836
78.133743
60.975479
43.692158
23.130844
-0.263617
-19.919083
-30.260792
-32.059742
-29.517294
-26.430134
-26.739992
-33.655136
-45.245255
-54.776669
-57.828587
-55.901264
-51.788349
-45.348774
-36.040894
-26.794851
-22.376928
-24.474277
-30.229860
-35.419037
-38.102787
-39.809013
-43.905899
-52.366150
-63.776154
-74.843315
-83.929649
-92.161438
-100.251961
-105.404404
-103.317345
-93.787674
-83.177612
-79.799995
-86.735542
-99.182968
-107.995117
-107.429520
-101.445122
-99.745964
-105.472206
-109.550179
-99.113258
-70.704758
-35.339561
-9.995396
-1.969166
-2.913039
-0.663953
6.917884
13.881005
17.462854
21.840300
32.257324
49.583111
70.824471
92.539391
112.811142
130.635544
143.949707
148.872620
142.299133
125.899483
106.170425
89.400970
77.407333
68.039520
57.805935
44.331768
28.860750
16.831203
14.634044
24.842850
44.210049
66.499146
87.273140
105.293823
119.712044
127.956604
127.604813
119.132301
105.469452
89.657089
73.845200
59.599304
48.067497
39.692188
33.917652
29.567463
25.214682
18.353060
5.461419
-14.668942
-37.643959
-55.505718
-63.401016
-63.353939
-59.919296
-53.664261
-41.653934
-23.245083
-2.646560
14.315338
24.544601
28.320274
26.621450
19.527479
7.981127
-3.903788
-10.451824
-9.773658
-6.337940
-6.636898
-13.354835
-24.564705
-36.416267
-45.490925
-51.197674
-57.930321
-72.467850
-95.615311
-117.357903
-124.983421
-117.012733
-104.490730
-96.856361
-92.080147
-83.543793
-70.369965
-56.471996
-44.133125
-32.748531
-21.363390
-9.830381
0.924625
7.583765
5.131363
-7.173217
-21.978888
-31.709248
-38.381248
-48.985073
-64.572662
-80.957291
-95.922501
-109.690170
-121.873405
-131.132599
-133.763626
-120.238281
-78.792015
-9.903799
65.421906
122.017609
154.035080
172.533142
185.879745
195.292725
202.760712
210.647217
216.255600
212.747650
195.288651
166.896393
138.285278
119.349396
110.817108
106.091805
99.936554
93.591042
93.177330
104.360931
126.395752
150.220078
163.807083
160.692978
144.421219
125.133850
110.691177
100.985481
91.298508
78.950043
65.032784
51.233795
36.096493
15.319492
-12.242044
-40.364349
-60.923412
-71.992233
-76.892853
-77.804047
-74.509178
-67.126488
-56.231976
-41.843178
-24.542633
-6.573553
8.651119
17.406956
17.152086
8.930040
-2.316668
-11.608313
-18.029388
-24.017244
-30.600952
-33.865589
-28.358089
-16.181543
-8.539319
-13.189155
-25.626747
-38.427876
-51.804451
-67.927307
-82.213135
-88.176796
-87.312019
-88.177162
-96.459297
-109.789604
-122.163750
-130.196075
-135.105865
-140.833069
-148.727112
-150.826385
-130.158936
-75.069107
2.617360
69.706314
99.638046
96.477905
85.791748
85.602333
93.483269
98.596054
96.534203
90.734856
85.743675
83.839905
86.913933
96.472984
109.888557
120.374161
122.140778
113.163666
94.135788
67.236641
33.954956
-6.350972
-52.391151
-96.528496
-129.219376
-147.527969
-156.216248
-162.444244
-171.813721
-185.950485
-200.419083
-207.013794
-201.096329
-187.155334
-176.220932
-176.783554
-187.976868
-201.643616
-210.271011
-212.621033
-213.207108
-217.794937
-228.757935
-243.186020
-254.810883
-258.597046
-255.020493
-249.538971
-246.169662
-242.908417
-235.922104
-226.281189
-219.310471
-218.259827
-221.074417
-223.086563
-221.342087
-216.386887
-210.737839
-205.943619
-201.493713
-196.550217
-191.472977
-186.845245
-182.052139
-176.393265
-171.626480
-170.976440
-172.343063
-162.722855
-126.058907
-63.112206
1.786735
43.941128
64.032707
80.482506
102.422920
122.379257
131.785767
132.237976
130.372681
129.852646
132.755219
143.692398
167.311935
203.638184
247.809250
292.106262
328.134430
350.769562
361.775787
368.218628
376.210907
385.893188
392.110626
389.656067
377.919220
361.199951
345.567566
335.350891
331.409363
331.773651
333.767242
335.903076
338.132324
340.470551
341.998627
341.539948
338.328918
331.320465
318.930511
300.434784
276.821228
249.427094
218.301895
182.680252
143.230850
103.406693
67.713013
39.092091
19.514666
11.585704
15.835780
27.000206
36.777809
40.654518
40.123783
38.725979
37.710644
35.693756
31.102753
23.924984
15.597950
7.958127
2.109614
-1.947374
-4.656657
-6.316955
-7.405644
-8.938219
-11.615023
-14.546897
-15.700887
-14.013491
-10.722482
-8.447631
-9.017115
-12.130986
-15.825069
-18.078531
-18.635454
-19.882339
-25.599525
-38.283043
-57.329628
-79.597313
-101.896103
-123.364563
-145.711990
-171.087296
-199.375336
-227.342590
-250.511383
-266.193909
-275.185425
-280.955475
-287.080261
-294.763092
-302.309265
-306.863556
-306.851593
-303.359894
-299.741547
-299.899536
-306.108734
-317.186920
-328.512939
-335.172363
-336.259521
-335.765381
-338.718323
-346.701752
-356.787720
-363.792999
-363.666046
-355.709839
-341.848267
-323.666382
-300.665588
-271.490265
-235.833740
-194.688095
-149.680252
-103.211601
-59.168514
-22.205669
4.838899
22.739302
34.573940
42.623337
46.781036
45.654514
38.500153
26.314922
12.024474
-0.361232
-7.787042
-9.896231
-8.270279
-3.746442
4.547181
16.985254
31.459759
44.742752
55.365204
64.306686
73.209061
82.700531
92.289017
101.213516
109.266502
117.064934
125.699905
136.164825
149.071198
164.770126
183.494751
205.043640
228.174088
250.487625
269.380554
283.758972
294.868500
304.530823
312.249359
315.197479
311.397430
301.403259
286.616577
267.795868
245.929764
223.633057
204.608017
190.860931
181.025131
172.803223
166.001190
161.655289
160.120834
161.608475
166.325439
172.350479
174.689514
167.887085
149.921707
123.758575
95.309280
69.608887
48.306385
30.352486
14.745609
2.101278
-6.371445
-10.313510
-10.044193
-5.844862
1.670576
10.680243
18.461126
22.971251
23.847107
21.775087
17.297064
10.409543
1.236653
-9.262454
-19.757523
-29.559416
-38.690971
-47.099491
-54.281239
-59.929340
-64.755135
-70.189163
-77.078033
-84.749596
-91.232796
-94.162766
-91.786034
-84.262054
-74.806313
-68.706993
-69.883896
-78.179787
-90.119484
-101.916161
-111.722275
-119.784744
-126.957489
-132.426315
-132.188660
-120.871132
-97.390358
-69.216591
-48.451340
-41.867664
-45.953014
-52.255211
-55.691315
-57.102753
-60.059612
-66.798126
-76.113235
-83.952972
-86.835373
-85.378708
-83.452545
-83.114838
-81.750237
-75.854591
-66.500900
-58.777542
-56.590893
-60.138878
-67.758217
-77.740929
-87.613197
-93.592010
-93.019707
-87.070602
-79.339668
-71.865234
-63.829517
-53.836639
-42.094406
-30.183523
-19.702730
-11.634880
-6.352382
-3.678010
-3.149441
-4.371764
-7.065426
-10.866809
-15.078852
-18.484528
-19.578264
-17.456600
-12.541029
-5.900029
2.382531
13.819321
30.142595
51.075638
73.237328
91.441895
101.838295
104.191925
100.895882
94.075806
84.473572
73.021561
62.275826
55.273983
53.043484
53.845997
54.878666
54.272778
51.606747
47.148193
40.968765
32.772995
22.333208
9.853319
-4.039243
-18.525499
-32.621658
-44.498627
-50.804783
-48.086540
-36.286228
-20.098459
-5.297898
5.950106
15.023678
22.969486
28.586794
30.250639
27.688595
21.387512
11.742429
-0.312881
-12.577102
-22.280701
-27.485916
-27.780260
-24.174767
-18.585608
-12.797242
-7.507141
-2.588316
1.756847
4.407898
3.775991
-1.355582
-11.089965
-23.991299
-37.439693
-48.832844
-56.572647
-59.839493
-57.804604
-49.822224
-36.671387
-21.005472
-6.036161
6.058689
14.597532
20.111921
23.761261
26.480307
28.674582
31.004274
35.000435
42.168610
52.501129
64.330482
75.664948
85.462227
93.879059
101.914162
110.932976
121.805405
133.683090
143.530457
147.377914
142.711700
130.297119
113.915169
97.807648
83.858360
71.321823
59.033627
47.125942
36.709949
28.876322
24.314810
23.335794
25.809795
30.967182
37.231014
42.541538
45.303692
45.129368
42.750050
39.325230
35.532307
31.208912
26.058046
20.469215
15.441581
11.874890
9.977484
9.171009
8.351155
6.260361
1.997170
-4.488374
-12.466011
-21.249880
-31.020889
-42.620674
-56.260403
-70.257378
-80.929626
-84.064583
-77.695824
-64.542397
-51.316662
-44.235382
-44.635479
-49.426331
-55.539383
-62.837223
-72.908173
-86.661133
-103.718391
-123.063721
-143.391052
-163.105179
-180.311386
-192.740677
-198.034882
-194.854279
-184.179291
-169.515778
-155.327347
-144.406418
-136.239655
-128.208862
-118.794167
-109.527420
-103.768112
-103.874855
-109.541489
-118.158539
-126.236481
-130.985992
-131.460709
-128.327515
-122.139511
-112.046234
-96.841827
-77.155647
-55.841572
-36.125511
-19.885197
-7.538508
1.139586
6.275070
7.715163
5.440299
0.015886
-7.476710
-15.874536
-24.122002
-31.081703
-35.540558
-36.732838
-34.900169
-31.207994
-26.877554
-22.277842
-17.046064
-11.233117
-6.099998
-3.443156
-4.055734
-7.006384
-10.518423
-13.464563
-15.874646
-17.979179
-18.816837
-15.776435
-5.841012
11.528136
31.648260
45.691795
47.242886
39.004841
30.812643
29.065231
30.261423
27.124500
18.115658
7.720189
0.234229
-2.746884
-0.243726
8.960393
24.680115
44.514187
65.130432
83.727287
98.261292
107.273689
110.552742
110.124306
109.755684
112.565849
118.974289
127.186882
135.414368
143.270737
151.410538
160.457687
170.166901
179.140900
185.385025
187.274841
184.097260
176.257263
165.237000
152.813522
140.182968
128.046234
117.084755
107.890823
100.560616
94.518845
88.798233
82.676735
76.199608
69.997581
64.561546
