EVENT_NAME: EMILIA_2ND_SHOCK
EVENT_ID: IT-2012-0011
EVENT_DATE_YYYYMMDD: 20120529
EVENT_TIME_HHMMSS: 070002
EVENT_LATITUDE_DEGREE: 44.8417
EVENT_LONGITUDE_DEGREE: 11.0657
EVENT_DEPTH_KM: 8.1
HYPOCENTER_REFERENCE: INGV-CNT_Seismic_Bulletin
MAGNITUDE_W: 6.0
MAGNITUDE_W_REFERENCE: RCMT-INGV
MAGNITUDE_L: 5.8
MAGNITUDE_L_REFERENCE: INGV-CNT_Seismic_Bulletin
FOCAL_MECHANISM: TF
NETWORK: TV
STATION_CODE: MIR01
STATION_NAME: MEDOLLA
STATION_LATITUDE_DEGREE: 44.844042
STATION_LONGITUDE_DEGREE: 11.071316
STATION_ELEVATION_M: 
LOCATION: 
SENSOR_DEPTH_M: 
VS30_M/S: 
SITE_CLASSIFICATION_EC8: C*
MORPHOLOGIC_CLASSIFICATION: 
EPICENTRAL_DISTANCE_KM: 0.5
EARTHQUAKE_BACKAZIMUTH_DEGREE: 239.6
DATE_TIME_FIRST_SAMPLE_YYYYMMDD_HHMMSS: 20120529_065945.000
DATE_TIME_FIRST_SAMPLE_PRECISION: milliseconds
SAMPLING_INTERVAL_S: 0.005000
NDATA: 30001
DURATION_S: 150.005
STREAM: HNE
UNITS: cm
INSTRUMENT: sensor = Episensor FBA ES-T [Kinemetrics] | digitizer = Unknown [Unknown]
INSTRUMENT_ANALOG/DIGITAL: D
INSTRUMENTAL_FREQUENCY_HZ: 
INSTRUMENTAL_DAMPING: 
FULL_SCALE_G: 
N_BIT_DIGITAL_CONVERTER: 
PGD_CM: -8.250823
TIME_PGD_S: 25.275000
BASELINE_CORRECTION: BASELINE REMOVED
FILTER_TYPE: BUTTERWORTH
FILTER_ORDER: 2
LOW_CUT_FREQUENCY_HZ: 0.050
HIGH_CUT_FREQUENCY_HZ: 40.000
LATE/NORMAL_TRIGGERED: NT
DATABASE_VERSION: DYNA 1.0
HEADER_FORMAT: DYNA 1.2
DATA_TYPE: DISPLACEMENT
PROCESSING: manual (Paolucci et al., 2011)
DATA_TIMESTAMP_YYYYMMDD_HHMMSS: 
DATA_LICENSE: CC-BY4_0 (http://creativecommons.org/licenses/by/4.0/)
DATA_CITATION: ESM working group (2015), European Strong-Motion database, version 0.1, Network Activity 3: Networking acceleration networks and SM data users. Project NERA (www.nera-eu.org)
DATA_CREATOR: ESM working group
ORIGINAL_DATA_MEDIATOR_CITATION: Orfeus - European Integrated Data Archive (EIDA) http://www.orfeus-eu.org/eida/
ORIGINAL_DATA_MEDIATOR: Orfeus - European Integrated Data Archive (EIDA)
ORIGINAL_DATA_CREATOR_CITATION: 
ORIGINAL_DATA_CREATOR: network: TV (INGV Experiments Network); owner: Istituto Nazionale di Geofisica e Vulcanologia
USER1: 
USER2: 
USER3: 
USER4: 
USER5: 
[...]
-2.217887e-01
-2.222374e-01
-2.228879e-01
-2.235725e-01
-2.240808e-01
-2.242268e-01
-2.239030e-01
-2.230832e-01
-2.218079e-01
-2.201861e-01
-2.183879e-01
-2.165919e-01
-2.149067e-01
-2.133370e-01
-2.118371e-01
-2.103852e-01
-2.089916e-01
-2.076533e-01
-2.063298e-01
-2.049709e-01
-2.035692e-01
-2.021941e-01
-2.009708e-01
-2.000108e-01
-1.993390e-01
-1.988571e-01
-1.983642e-01
-1.976477e-01
-1.966039e-01
-1.952824e-01
-1.938116e-01
-1.922962e-01
-1.907709e-01
-1.892056e-01
-1.875349e-01
-1.857121e-01
-1.837567e-01
-1.817547e-01
-1.798183e-01
-1.780445e-01
-1.764904e-01
-1.751639e-01
-1.740229e-01
-1.729735e-01
-1.718766e-01
-1.705877e-01
-1.690215e-01
-1.671782e-01
-1.650918e-01
-1.627637e-01
-1.601586e-01
-1.572587e-01
-1.541088e-01
-1.508143e-01
-1.474934e-01
-1.442234e-01
-1.410156e-01
-1.378334e-01
-1.346382e-01
-1.314213e-01
-1.281830e-01
-1.248759e-01
-1.213996e-01
-1.176966e-01
-1.138612e-01
-1.101262e-01
-1.067479e-01
-1.039254e-01
-1.017891e-01
-1.003822e-01
-9.959410e-02
-9.911374e-02
-9.849121e-02
-9.732168e-02
-9.545681e-02
-9.308924e-02
-9.063069e-02
-8.847802e-02
-8.683778e-02
-8.568873e-02
-8.485897e-02
-8.414375e-02
-8.337225e-02
-8.240153e-02
-8.111748e-02
-7.949304e-02
-7.764150e-02
-7.578613e-02
-7.415080e-02
-7.285019e-02
-7.186287e-02
-7.110153e-02
-7.049524e-02
-6.998254e-02
-6.943199e-02
-6.862140e-02
-6.735374e-02
-6.562126e-02
-6.365296e-02
-6.177823e-02
-6.020691e-02
-5.890038e-02
-5.760956e-02
-5.601129e-02
-5.385100e-02
-5.104645e-02
-4.771721e-02
-4.411677e-02
-4.049241e-02
-3.694758e-02
-3.339644e-02
-2.963969e-02
-2.549425e-02
-2.088760e-02
-1.588478e-02
-1.065811e-02
-5.411729e-03
-2.840738e-04
4.715239e-03
9.674176e-03
1.466397e-02
1.964773e-02
2.451664e-02
2.922127e-02
3.385085e-02
3.858229e-02
4.356961e-02
4.886974e-02
5.443217e-02
6.014682e-02
6.592374e-02
7.172838e-02
7.752369e-02
8.320015e-02
8.860360e-02
9.363060e-02
9.828551e-02
1.026685e-01
1.069040e-01
1.110283e-01
1.149397e-01
1.185015e-01
1.217068e-01
1.247312e-01
1.278196e-01
1.310930e-01
1.344127e-01
1.374473e-01
1.399305e-01
1.418832e-01
1.435986e-01
1.454457e-01
1.476725e-01
1.503073e-01
1.531868e-01
1.561090e-01
1.589802e-01
1.617903e-01
1.644595e-01
1.667586e-01
1.683839e-01
1.691011e-01
1.688661e-01
1.678741e-01
1.665019e-01
1.651548e-01
1.640969e-01
1.633623e-01
1.627768e-01
1.620659e-01
1.610052e-01
1.595355e-01
1.577618e-01
1.558650e-01
1.540183e-01
1.523464e-01
1.509208e-01
1.497950e-01
1.490558e-01
1.488339e-01
1.492639e-01
1.504383e-01
1.523871e-01
1.550758e-01
1.584078e-01
1.622334e-01
1.663967e-01
1.708368e-01
1.756871e-01
1.812626e-01
1.879030e-01
1.957777e-01
2.047959e-01
2.146772e-01
2.251186e-01
2.359346e-01
2.470897e-01
2.586379e-01
2.706343e-01
2.830624e-01
2.957898e-01
3.085617e-01
3.210436e-01
3.329138e-01
3.439728e-01
3.542132e-01
3.638040e-01
3.729872e-01
3.819304e-01
3.906128e-01
3.988168e-01
4.062369e-01
4.126408e-01
4.179792e-01
4.223845e-01
4.260923e-01
4.293616e-01
4.324168e-01
4.354119e-01
4.384241e-01
4.414523e-01
4.444064e-01
4.471526e-01
4.496493e-01
4.520569e-01
4.546985e-01
4.579094e-01
4.619053e-01
4.667431e-01
4.723734e-01
4.787188e-01
4.856803e-01
4.930508e-01
5.004642e-01
5.075158e-01
5.139655e-01
5.197989e-01
5.250895e-01
5.298611e-01
5.341541e-01
5.382325e-01
5.426535e-01
5.480631e-01
5.548972e-01
5.632394e-01
5.728740e-01
5.834158e-01
5.944400e-01
6.055949e-01
6.166690e-01
6.276177e-01
6.385659e-01
6.497600e-01
6.614503e-01
6.737793e-01
6.867682e-01
7.003926e-01
7.146222e-01
7.293319e-01
7.441794e-01
7.586125e-01
7.720586e-01
7.842180e-01
7.952823e-01
8.058695e-01
8.166675e-01
8.280698e-01
8.400723e-01
8.524263e-01
8.648560e-01
8.771582e-01
8.891571e-01
9.006422e-01
9.113987e-01
9.212868e-01
9.302986e-01
9.385823e-01
9.464333e-01
9.542311e-01
9.623456e-01
9.710726e-01
9.806136e-01
9.910640e-01
1.002409e+00
1.014538e+00
1.027225e+00
1.040077e+00
1.052526e+00
1.063976e+00
1.073977e+00
1.082316e+00
1.088962e+00
1.093937e+00
1.097164e+00
1.098394e+00
1.097289e+00
1.093587e+00
1.087186e+00
1.078072e+00
1.066233e+00
1.051649e+00
1.034320e+00
1.014227e+00
9.913041e-01
9.655081e-01
9.368785e-01
9.054614e-01
8.711848e-01
8.338358e-01
7.931223e-01
7.487354e-01
7.004119e-01
6.480054e-01
5.915051e-01
5.309896e-01
4.665724e-01
3.983710e-01
3.264921e-01
2.510562e-01
1.722761e-01
9.056004e-02
6.589713e-03
-7.868599e-02
-1.642058e-01
-2.490187e-01
-3.323515e-01
-4.134982e-01
-4.917604e-01
-5.664979e-01
-6.371276e-01
-7.030709e-01
-7.637971e-01
-8.189508e-01
-8.684118e-01
-9.122076e-01
-9.503451e-01
-9.827003e-01
-1.009043e+00
-1.029161e+00
-1.043001e+00
-1.050769e+00
-1.052942e+00
-1.050193e+00
-1.043302e+00
-1.033058e+00
-1.020114e+00
-1.004854e+00
-9.873882e-01
-9.675947e-01
-9.450921e-01
-9.192512e-01
-8.893657e-01
-8.548712e-01
-8.154227e-01
-7.708602e-01
-7.212479e-01
-6.670146e-01
-6.090200e-01
-5.484195e-01
-4.864231e-01
-4.241441e-01
-3.625953e-01
-3.027218e-01
-2.453792e-01
-1.912673e-01
-1.408549e-01
-9.432758e-02
-5.159171e-02
-1.233690e-02
2.388850e-02
5.762689e-02
8.950796e-02
1.202831e-01
1.507899e-01
1.817450e-01
2.135232e-01
2.462111e-01
2.798599e-01
3.145933e-01
3.505296e-01
3.877724e-01
4.264877e-01
4.668394e-01
5.087284e-01
5.515379e-01
5.941076e-01
6.350350e-01
6.731995e-01
7.081547e-01
7.400796e-01
7.694385e-01
7.967155e-01
8.222771e-01
8.462279e-01
8.683693e-01
8.884285e-01
9.064015e-01
9.227250e-01
9.382332e-01
9.540003e-01
9.710674e-01
9.900828e-01
1.011071e+00
1.033509e+00
1.056589e+00
1.079401e+00
1.101053e+00
1.120952e+00
1.139099e+00
1.156089e+00
1.172774e+00
1.189928e+00
1.208084e+00
1.227442e+00
1.247778e+00
1.268496e+00
1.288809e+00
1.307952e+00
1.325356e+00
1.340790e+00
1.354418e+00
1.366705e+00
1.378204e+00
1.389351e+00
1.400312e+00
1.410933e+00
1.420819e+00
1.429487e+00
1.436441e+00
1.441216e+00
1.443481e+00
1.443159e+00
1.440423e+00
1.435547e+00
1.428720e+00
1.419940e+00
1.409054e+00
1.395976e+00
1.381009e+00
1.365014e+00
1.349288e+00
1.335238e+00
1.324087e+00
1.316707e+00
1.313590e+00
1.314937e+00
1.320799e+00
1.331180e+00
1.346015e+00
1.365082e+00
1.387966e+00
1.414130e+00
1.443058e+00
1.474326e+00
1.507617e+00
1.542728e+00
1.579529e+00
1.617833e+00
1.657263e+00
1.697243e+00
1.737045e+00
1.775815e+00
1.812560e+00
1.846206e+00
1.875733e+00
1.900318e+00
1.919415e+00
1.932778e+00
1.940464e+00
1.942814e+00
1.940379e+00
1.933823e+00
1.923911e+00
1.911570e+00
1.897895e+00
1.884010e+00
1.870877e+00
1.859209e+00
1.849511e+00
1.842153e+00
1.837399e+00
1.835407e+00
1.836257e+00
1.840013e+00
1.846745e+00
1.856367e+00
1.868289e+00
1.881225e+00
1.893508e+00
1.903693e+00
1.910899e+00
1.914781e+00
1.915427e+00
1.913274e+00
1.908910e+00
1.902856e+00
1.895448e+00
1.886840e+00
1.877029e+00
1.865903e+00
1.853325e+00
1.839192e+00
1.823410e+00
1.805850e+00
1.786377e+00
1.764916e+00
1.741497e+00
1.716204e+00
1.689077e+00
1.660083e+00
1.629219e+00
1.596616e+00
1.562508e+00
1.527133e+00
1.490682e+00
1.453307e+00
1.415128e+00
1.376240e+00
1.336700e+00
1.296539e+00
1.255758e+00
1.214314e+00
1.172097e+00
1.128987e+00
1.084977e+00
1.040231e+00
9.950032e-01
9.494678e-01
9.036508e-01
8.575186e-01
8.111384e-01
7.647619e-01
7.187786e-01
6.735925e-01
6.295205e-01
5.867769e-01
5.455189e-01
5.058909e-01
4.680611e-01
4.322721e-01
3.988645e-01
3.682110e-01
3.405823e-01
3.160349e-01
2.944051e-01
2.754131e-01
2.588207e-01
2.445591e-01
2.327545e-01
2.236352e-01
2.173968e-01
2.141119e-01
2.136951e-01
2.158961e-01
2.202855e-01
2.262130e-01
2.327815e-01
2.389432e-01
2.437297e-01
2.464611e-01
2.467623e-01
2.444165e-01
2.392139e-01
2.308762e-01
2.190527e-01
2.033923e-01
1.836497e-01
1.597229e-01
1.316121e-01
9.943164e-02
6.357267e-02
2.491788e-02
-1.510518e-02
-5.474993e-02
-9.233943e-02
-1.265805e-01
-1.566998e-01
-1.824641e-01
-2.041101e-01
-2.221215e-01
-2.368774e-01
-2.483514e-01
-2.560741e-01
-2.594356e-01
-2.582118e-01
-2.530415e-01
-2.454995e-01
-2.376052e-01
-2.310893e-01
-2.269874e-01
-2.257036e-01
-2.271818e-01
-2.309647e-01
-2.363011e-01
-2.424200e-01
-2.488187e-01
-2.553578e-01
-2.621454e-01
-2.693983e-01
-2.774602e-01
-2.869297e-01
-2.986726e-01
-3.136153e-01
-3.325203e-01
-3.559716e-01
-3.845059e-01
-4.186710e-01
-4.589633e-01
-5.057562e-01
-5.592924e-01
-6.197046e-01
-6.869964e-01
-7.609888e-01
-8.412856e-01
-9.272654e-01
-1.018072e+00
-1.112617e+00
-1.209611e+00
-1.307643e+00
-1.405287e+00
-1.501242e+00
-1.594441e+00
-1.684053e+00
-1.769398e+00
-1.849851e+00
-1.924841e+00
-1.993910e+00
-2.056746e+00
-2.113158e+00
-2.163050e+00
-2.206432e+00
-2.243457e+00
-2.274440e+00
-2.299808e+00
-2.319991e+00
-2.335265e+00
-2.345641e+00
-2.350867e+00
-2.350537e+00
-2.344242e+00
-2.331675e+00
-2.312655e+00
-2.287115e+00
-2.255078e+00
-2.216636e+00
-2.171943e+00
-2.121182e+00
-2.064498e+00
-2.001943e+00
-1.933549e+00
-1.859523e+00
-1.780408e+00
-1.697031e+00
-1.610295e+00
-1.520940e+00
-1.429381e+00
-1.335658e+00
-1.239527e+00
-1.140609e+00
-1.038565e+00
-9.332617e-01
-8.248835e-01
-7.139230e-01
-6.010390e-01
-4.868897e-01
-3.720448e-01
-2.569890e-01
-1.421718e-01
-2.805830e-02
8.485525e-02
1.960623e-01
3.050738e-01
4.114225e-01
5.146472e-01
6.142790e-01
7.098335e-01
8.007970e-01
8.866282e-01
9.668165e-01
1.040996e+00
1.109041e+00
1.171092e+00
1.227528e+00
1.278927e+00
1.326033e+00
1.369704e+00
1.410879e+00
1.450580e+00
1.489914e+00
1.529993e+00
1.571804e+00
1.616127e+00
1.663557e+00
1.714579e+00
1.769604e+00
1.828973e+00
1.892964e+00
1.961787e+00
2.035560e+00
2.114270e+00
2.197776e+00
2.285828e+00
2.378104e+00
2.474250e+00
2.573902e+00
2.676647e+00
2.781964e+00
2.889196e+00
2.997539e+00
3.106052e+00
3.213720e+00
3.319614e+00
3.423028e+00
3.523464e+00
3.620479e+00
3.713574e+00
3.802253e+00
3.886125e+00
3.964887e+00
4.038211e+00
4.105709e+00
4.167003e+00
4.221819e+00
4.269993e+00
4.311429e+00
4.346061e+00
4.373848e+00
4.394767e+00
4.408804e+00
4.415945e+00
4.416126e+00
4.409159e+00
4.394718e+00
4.372426e+00
4.342014e+00
4.303429e+00
4.256827e+00
4.202513e+00
4.140913e+00
4.072583e+00
3.998191e+00
3.918386e+00
3.833638e+00
3.744169e+00
3.650054e+00
3.551364e+00
3.448258e+00
3.340964e+00
3.229757e+00
3.114974e+00
2.997060e+00
2.876628e+00
2.754495e+00
2.631659e+00
2.509202e+00
2.388139e+00
2.269311e+00
2.153354e+00
2.040754e+00
1.931891e+00
1.827080e+00
1.726616e+00
1.630864e+00
1.540341e+00
1.455717e+00
1.377730e+00
1.307090e+00
1.244418e+00
1.190246e+00
1.145054e+00
1.109299e+00
1.083408e+00
1.067697e+00
1.062271e+00
1.066960e+00
1.081363e+00
1.104999e+00
1.137491e+00
1.178679e+00
1.228486e+00
1.286439e+00
1.351113e+00
1.420098e+00
1.490694e+00
1.560664e+00
1.628368e+00
1.692478e+00
1.751870e+00
1.805732e+00
1.853679e+00
1.895685e+00
1.931884e+00
1.962335e+00
1.986922e+00
2.005408e+00
2.017590e+00
2.023428e+00
2.023053e+00
2.016691e+00
2.004640e+00
1.987346e+00
1.965461e+00
1.939773e+00
1.911017e+00
1.879725e+00
1.846193e+00
1.810532e+00
1.772735e+00
1.732751e+00
1.690558e+00
1.646223e+00
1.599918e+00
1.551921e+00
1.502589e+00
1.452321e+00
1.401516e+00
1.350533e+00
1.299670e+00
1.249180e+00
1.199346e+00
1.150583e+00
1.103498e+00
1.058810e+00
1.017188e+00
9.791420e-01
9.450214e-01
9.150851e-01
8.895443e-01
8.685578e-01
8.521851e-01
8.402805e-01
8.323343e-01
8.273808e-01
8.241271e-01
8.212790e-01
8.178159e-01
8.130350e-01
8.064477e-01
7.976938e-01
7.865060e-01
7.726890e-01
7.560988e-01
7.366321e-01
7.142267e-01
6.888703e-01
6.606087e-01
6.295263e-01
5.956920e-01
5.591126e-01
5.197429e-01
4.775320e-01
4.324466e-01
3.844502e-01
3.334755e-01
2.794153e-01
2.221320e-01
1.614732e-01
9.728682e-02
2.943006e-02
-4.221835e-02
-1.177465e-01
-1.972323e-01
-2.808086e-01
-3.687090e-01
-4.612232e-01
-5.585823e-01
-6.608739e-01
-7.680674e-01
-8.801051e-01
-9.969249e-01
-1.118333e+00
-1.243815e+00
-1.372474e+00
-1.503208e+00
-1.635023e+00
-1.767241e+00
-1.899478e+00
-2.031527e+00
-2.163301e+00
-2.294786e+00
-2.425972e+00
-2.556834e+00
-2.687377e+00
-2.817676e+00
-2.947870e+00
-3.078126e+00
-3.208618e+00
-3.339519e+00
-3.470991e+00
-3.603169e+00
-3.736144e+00
-3.869923e+00
-4.004391e+00
-4.139322e+00
-4.274440e+00
-4.409480e+00
-4.544227e+00
-4.678510e+00
-4.812201e+00
-4.945217e+00
-5.077548e+00
-5.209271e+00
-5.340516e+00
-5.471366e+00
-5.601785e+00
-5.731636e+00
-5.860736e+00
-5.988897e+00
-6.115922e+00
-6.241613e+00
-6.365773e+00
-6.488195e+00
-6.608653e+00
-6.726874e+00
-6.842547e+00
-6.955344e+00
-7.064954e+00
-7.171092e+00
-7.273500e+00
-7.371950e+00
-7.466231e+00
-7.556119e+00
-7.641357e+00
-7.721669e+00
-7.796783e+00
-7.866467e+00
-7.930543e+00
-7.988892e+00
-8.041448e+00
-8.088166e+00
-8.128991e+00
-8.163855e+00
-8.192728e+00
-8.215649e+00
-8.232739e+00
-8.244173e+00
-8.250147e+00
-8.250823e+00
-8.246291e+00
-8.236583e+00
-8.221718e+00
-8.201773e+00
-8.176923e+00
-8.147432e+00
-8.113599e+00
-8.075696e+00
-8.033936e+00
-7.988503e+00
-7.939607e+00
-7.887572e+00
-7.832910e+00
-7.776316e+00
-7.718555e+00
-7.660314e+00
-7.602136e+00
-7.544445e+00
-7.487602e+00
-7.431940e+00
-7.377791e+00
-7.325510e+00
-7.275473e+00
-7.228057e+00
-7.183601e+00
-7.142372e+00
-7.104503e+00
-7.069906e+00
-7.038222e+00
-7.008882e+00
-6.981261e+00
-6.954803e+00
-6.929074e+00
-6.903744e+00
-6.878595e+00
-6.853555e+00
-6.828721e+00
-6.804322e+00
-6.780628e+00
-6.757866e+00
-6.736179e+00
-6.715643e+00
-6.696299e+00
-6.678175e+00
-6.661289e+00
-6.645626e+00
-6.631107e+00
-6.617568e+00
-6.604763e+00
-6.592395e+00
-6.580146e+00
-6.567702e+00
-6.554787e+00
-6.541197e+00
-6.526793e+00
-6.511474e+00
-6.495132e+00
-6.477623e+00
-6.458780e+00
-6.438440e+00
-6.416461e+00
-6.392711e+00
-6.367039e+00
-6.339287e+00
-6.309318e+00
-6.277047e+00
-6.242434e+00
-6.205456e+00
-6.166090e+00
-6.124307e+00
-6.080045e+00
-6.033195e+00
-5.983645e+00
-5.931369e+00
-5.876511e+00
-5.819433e+00
-5.760710e+00
-5.701078e+00
-5.641329e+00
-5.582180e+00
-5.524136e+00
-5.467394e+00
-5.411806e+00
-5.356979e+00
-5.302483e+00
-5.248030e+00
-5.193496e+00
-5.138839e+00
-5.084014e+00
-5.028946e+00
-4.973519e+00
-4.917564e+00
-4.860870e+00
-4.803211e+00
-4.744384e+00
-4.684225e+00
-4.622605e+00
-4.559413e+00
-4.494536e+00
-4.427881e+00
-4.359386e+00
-4.289052e+00
-4.216968e+00
-4.143333e+00
-4.068416e+00
-3.992470e+00
-3.915652e+00
-3.838007e+00
-3.759501e+00
-3.680061e+00
-3.599611e+00
-3.518094e+00
-3.435465e+00
-3.351680e+00
-3.266682e+00
-3.180415e+00
-3.092823e+00
-3.003839e+00
-2.913362e+00
-2.821259e+00
-2.727374e+00
-2.631558e+00
-2.533688e+00
-2.433669e+00
-2.331423e+00
-2.226870e+00
-2.119892e+00
-2.010299e+00
-1.897810e+00
-1.782096e+00
-1.662842e+00
-1.539811e+00
-1.412881e+00
-1.282058e+00
-1.147468e+00
-1.009309e+00
-8.677961e-01
-7.231265e-01
-5.755122e-01
-4.252390e-01
-2.727074e-01
-1.184200e-01
3.708872e-02
1.933359e-01
3.499297e-01
5.065548e-01
6.629513e-01
8.189171e-01
9.743163e-01
1.129077e+00
1.283174e+00
1.436600e+00
1.589319e+00
1.741233e+00
1.892186e+00
2.041990e+00
2.190440e+00
2.337310e+00
2.482350e+00
2.625286e+00
2.765828e+00
2.903691e+00
3.038610e+00
3.170328e+00
3.298566e+00
3.423035e+00
3.543483e+00
3.659707e+00
3.771515e+00
3.878678e+00
3.980988e+00
4.078328e+00
4.170689e+00
4.258089e+00
4.340515e+00
4.417937e+00
4.490355e+00
4.557798e+00
4.620298e+00
4.677887e+00
4.730630e+00
4.778645e+00
4.822096e+00
4.861170e+00
4.896062e+00
4.926955e+00
4.954008e+00
4.977331e+00
4.996994e+00
5.013032e+00
5.025477e+00
5.034388e+00
5.039885e+00
5.042147e+00
5.041382e+00
5.037795e+00
5.031576e+00
5.022910e+00
5.012008e+00
4.999142e+00
4.984650e+00
4.968901e+00
4.952251e+00
4.935023e+00
4.917513e+00
4.900007e+00
4.882770e+00
4.866000e+00
4.849789e+00
4.834108e+00
4.818822e+00
4.803750e+00
4.788757e+00
4.773832e+00
4.759085e+00
4.744677e+00
4.730775e+00
4.717558e+00
4.705217e+00
4.693933e+00
4.683845e+00
4.675055e+00
4.667626e+00
4.661610e+00
4.657067e+00
4.654069e+00
4.652659e+00
4.652794e+00
4.654294e+00
4.656815e+00
4.659860e+00
4.662880e+00
4.665416e+00
4.667195e+00
4.668128e+00
4.668274e+00
4.667804e+00
4.666936e+00
4.665839e+00
4.664560e+00
4.663033e+00
4.661136e+00
4.658751e+00
4.655776e+00
4.652105e+00
4.647638e+00
4.642335e+00
4.636280e+00
4.629697e+00
4.622908e+00
4.616266e+00
4.610098e+00
4.604662e+00
4.600142e+00
4.596671e+00
4.594360e+00
4.593315e+00
4.593641e+00
4.595449e+00
4.598877e+00
4.604105e+00
4.611360e+00
4.620899e+00
4.633000e+00
4.647956e+00
4.666032e+00
4.687321e+00
4.711605e+00
4.738379e+00
4.767062e+00
4.797204e+00
4.828533e+00
4.860899e+00
4.894206e+00
4.928334e+00
4.963060e+00
4.998018e+00
5.032785e+00
5.067027e+00
5.100619e+00
5.133661e+00
5.166412e+00
5.199189e+00
5.232285e+00
5.265901e+00
5.300105e+00
5.334824e+00
5.369874e+00
5.405037e+00
5.440131e+00
5.475042e+00
5.509709e+00
5.544091e+00
5.578147e+00
5.611827e+00
5.645083e+00
5.677865e+00
5.710083e+00
5.741559e+00
5.772014e+00
5.801095e+00
5.828432e+00
5.853685e+00
5.876577e+00
5.896903e+00
5.914524e+00
5.929342e+00
5.941275e+00
5.950273e+00
5.956334e+00
5.959508e+00
5.959863e+00
5.957459e+00
5.952330e+00
5.944475e+00
5.933870e+00
5.920481e+00
5.904286e+00
5.885278e+00
5.863455e+00
5.838808e+00
5.811315e+00
5.780954e+00
5.747739e+00
5.711738e+00
5.673073e+00
5.631881e+00
5.588258e+00
5.542225e+00
5.493745e+00
5.442777e+00
5.389350e+00
5.333586e+00
5.275667e+00
5.215760e+00
5.153984e+00
5.090415e+00
5.025121e+00
4.958198e+00
4.889798e+00
4.820120e+00
4.749390e+00
4.677846e+00
4.605743e+00
4.533340e+00
4.460865e+00
4.388474e+00
4.316228e+00
4.244096e+00
4.171965e+00
4.099677e+00
4.027082e+00
3.954063e+00
3.880515e+00
3.806309e+00
3.731284e+00
3.655273e+00
3.578140e+00
3.499824e+00
3.420368e+00
3.339918e+00
3.258657e+00
3.176728e+00
3.094197e+00
3.011043e+00
2.927183e+00
2.842503e+00
2.756900e+00
2.670277e+00
2.582521e+00
2.493494e+00
2.403083e+00
2.311307e+00
2.218394e+00
2.124797e+00
2.031075e+00
1.937702e+00
1.844970e+00
1.753045e+00
1.662044e+00
1.572041e+00
1.483030e+00
1.394941e+00
1.307691e+00
1.221235e+00
1.135595e+00
1.050870e+00
9.672158e-01
8.848098e-01
8.037941e-01
7.242292e-01
6.460711e-01
5.691786e-01
4.933443e-01
4.183314e-01
3.439019e-01
2.698421e-01
1.959933e-01
1.222715e-01
4.866415e-02
-2.478948e-02
