EVENT_NAME: EMILIA_2ND_SHOCK
EVENT_ID: IT-2012-0011
EVENT_DATE_YYYYMMDD: 20120529
EVENT_TIME_HHMMSS: 070002
EVENT_LATITUDE_DEGREE: 44.8417
EVENT_LONGITUDE_DEGREE: 11.0657
EVENT_DEPTH_KM: 8.1
HYPOCENTER_REFERENCE: INGV-CNT_Seismic_Bulletin
MAGNITUDE_W: 6.0
MAGNITUDE_W_REFERENCE: RCMT-INGV
MAGNITUDE_L: 5.8
MAGNITUDE_L_REFERENCE: INGV-CNT_Seismic_Bulletin
FOCAL_MECHANISM: TF
NETWORK: TV
STATION_CODE: MIR03
STATION_NAME: QUARANTOLI 1
STATION_LATITUDE_DEGREE: 44.938400
STATION_LONGITUDE_DEGREE: 11.104500
STATION_ELEVATION_M: 
LOCATION: 
SENSOR_DEPTH_M: 
VS30_M/S: 
SITE_CLASSIFICATION_EC8: C*
MORPHOLOGIC_CLASSIFICATION: 
EPICENTRAL_DISTANCE_KM: 11.2
EARTHQUAKE_BACKAZIMUTH_DEGREE: 195.9
DATE_TIME_FIRST_SAMPLE_YYYYMMDD_HHMMSS: 20120529_065927.000
DATE_TIME_FIRST_SAMPLE_PRECISION: milliseconds
SAMPLING_INTERVAL_S: 0.005000
NDATA: 18001
DURATION_S: 90.005
STREAM: HNE
UNITS: cm
INSTRUMENT: sensor = Episensor FBA ES-T [Kinemetrics] | digitizer = Unknown [Unknown]
INSTRUMENT_ANALOG/DIGITAL: D
INSTRUMENTAL_FREQUENCY_HZ: 
INSTRUMENTAL_DAMPING: 
FULL_SCALE_G: 
N_BIT_DIGITAL_CONVERTER: 
PGD_CM: 3.841284
TIME_PGD_S: 49.365000
BASELINE_CORRECTION: BASELINE REMOVED
FILTER_TYPE: BUTTERWORTH
FILTER_ORDER: 2
LOW_CUT_FREQUENCY_HZ: 0.070
HIGH_CUT_FREQUENCY_HZ: 40.000
LATE/NORMAL_TRIGGERED: NT
DATABASE_VERSION: DYNA 1.0
HEADER_FORMAT: DYNA 1.2
DATA_TYPE: DISPLACEMENT
PROCESSING: manual (Paolucci et al., 2011)
DATA_TIMESTAMP_YYYYMMDD_HHMMSS: 
DATA_LICENSE: CC-BY4_0 (http://creativecommons.org/licenses/by/4.0/)
DATA_CITATION: ESM working group (2015), European Strong-Motion database, version 0.1, Network Activity 3: Networking acceleration networks and SM data users. Project NERA (www.nera-eu.org)
DATA_CREATOR: ESM working group
ORIGINAL_DATA_MEDIATOR_CITATION: Orfeus - European Integrated Data Archive (EIDA) http://www.orfeus-eu.org/eida/
ORIGINAL_DATA_MEDIATOR: Orfeus - European Integrated Data Archive (EIDA)
ORIGINAL_DATA_CREATOR_CITATION: 
ORIGINAL_DATA_CREATOR: network: TV (INGV Experiments Network); owner: Istituto Nazionale di Geofisica e Vulcanologia
USER1: 
USER2: 
USER3: 
USER4: 
USER5: 
[...]
9.365223e-01
9.657572e-01
9.946755e-01
1.023160e+00
1.051236e+00
1.079086e+00
1.106991e+00
1.135280e+00
1.164253e+00
1.194093e+00
1.224790e+00
1.256139e+00
1.287871e+00
1.319856e+00
1.352189e+00
1.385012e+00
1.418200e+00
1.451248e+00
1.483485e+00
1.514408e+00
1.543777e+00
1.571464e+00
1.597272e+00
1.620901e+00
1.642016e+00
1.660296e+00
1.675459e+00
1.687256e+00
1.695506e+00
1.700185e+00
1.701521e+00
1.700070e+00
1.696715e+00
1.692574e+00
1.688805e+00
1.686361e+00
1.685816e+00
1.687394e+00
1.691145e+00
1.697135e+00
1.705546e+00
1.716664e+00
1.730814e+00
1.748308e+00
1.769412e+00
1.794318e+00
1.823064e+00
1.855446e+00
1.890943e+00
1.928767e+00
1.968032e+00
2.007967e+00
2.048011e+00
2.087750e+00
2.126782e+00
2.164643e+00
2.200840e+00
2.234926e+00
2.266524e+00
2.295288e+00
2.320858e+00
2.342826e+00
2.360764e+00
2.374303e+00
2.383263e+00
2.387767e+00
2.388318e+00
2.385780e+00
2.381296e+00
2.376067e+00
2.371072e+00
2.366915e+00
2.363893e+00
2.362128e+00
2.361597e+00
2.362089e+00
2.363175e+00
2.364294e+00
2.364923e+00
2.364731e+00
2.363601e+00
2.361595e+00
2.358888e+00
2.355721e+00
2.352356e+00
2.349024e+00
2.345866e+00
2.342896e+00
2.339987e+00
2.336907e+00
2.333361e+00
2.329018e+00
2.323511e+00
2.316460e+00
2.307531e+00
2.296503e+00
2.283322e+00
2.268128e+00
2.251233e+00
2.233066e+00
2.214099e+00
2.194767e+00
2.175439e+00
2.156425e+00
2.137970e+00
2.120202e+00
2.103056e+00
2.086246e+00
2.069343e+00
2.051994e+00
2.034163e+00
2.016216e+00
1.998678e+00
1.981847e+00
1.965680e+00
1.950070e+00
1.935115e+00
1.921065e+00
1.908064e+00
1.895967e+00
1.884336e+00
1.872621e+00
1.860393e+00
1.847446e+00
1.833742e+00
1.819349e+00
1.804401e+00
1.789104e+00
1.773727e+00
1.758527e+00
1.743629e+00
1.728971e+00
1.714366e+00
1.699619e+00
1.684602e+00
1.669240e+00
1.653439e+00
1.637052e+00
1.619920e+00
1.601971e+00
1.583284e+00
1.564073e+00
1.544576e+00
1.524935e+00
1.505143e+00
1.485076e+00
1.464558e+00
1.443388e+00
1.421317e+00
1.398005e+00
1.373017e+00
1.345892e+00
1.316293e+00
1.284191e+00
1.250059e+00
1.214940e+00
1.180270e+00
1.147490e+00
1.117658e+00
1.091302e+00
1.068510e+00
1.049115e+00
1.032818e+00
1.019241e+00
1.007931e+00
9.983647e-01
9.899786e-01
9.822504e-01
9.748258e-01
9.676263e-01
9.608786e-01
9.550406e-01
9.506420e-01
9.481137e-01
9.476818e-01
9.493569e-01
9.529883e-01
9.583399e-01
9.651525e-01
9.731784e-01
9.821975e-01
9.920327e-01
1.002565e+00
1.013735e+00
1.025521e+00
1.037918e+00
1.050916e+00
1.064504e+00
1.078705e+00
1.093623e+00
1.109486e+00
1.126655e+00
1.145572e+00
1.166687e+00
1.190368e+00
1.216835e+00
1.246117e+00
1.278046e+00
1.312318e+00
1.348611e+00
1.386731e+00
1.426689e+00
1.468656e+00
1.512848e+00
1.559425e+00
1.608459e+00
1.659965e+00
1.713913e+00
1.770191e+00
1.828511e+00
1.888319e+00
1.948751e+00
2.008685e+00
2.066852e+00
2.121982e+00
2.172979e+00
2.219108e+00
2.260135e+00
2.296322e+00
2.328232e+00
2.356425e+00
2.381246e+00
2.402833e+00
2.421288e+00
2.436846e+00
2.449936e+00
2.461078e+00
2.470642e+00
2.478643e+00
2.484727e+00
2.488390e+00
2.489297e+00
2.487437e+00
2.483020e+00
2.476264e+00
2.467258e+00
2.455970e+00
2.442323e+00
2.426253e+00
2.407724e+00
2.386735e+00
2.363333e+00
2.337600e+00
2.309617e+00
2.279414e+00
2.246959e+00
2.212179e+00
2.175020e+00
2.135461e+00
2.093524e+00
2.049277e+00
2.002853e+00
1.954479e+00
1.904464e+00
1.853154e+00
1.800859e+00
1.747805e+00
1.694147e+00
1.640003e+00
1.585492e+00
1.530716e+00
1.475732e+00
1.420517e+00
1.364982e+00
1.309051e+00
1.252767e+00
1.196375e+00
1.140335e+00
1.085244e+00
1.031708e+00
9.802234e-01
9.311232e-01
8.845924e-01
8.407390e-01
7.996772e-01
7.615679e-01
7.265866e-01
6.948433e-01
6.663187e-01
6.408579e-01
6.182140e-01
5.981031e-01
5.802304e-01
5.642934e-01
5.499965e-01
5.370926e-01
5.254204e-01
5.149107e-01
5.055702e-01
4.974693e-01
4.907455e-01
4.856145e-01
4.823528e-01
4.812098e-01
4.822552e-01
4.852415e-01
4.896124e-01
4.946977e-01
4.999674e-01
5.051529e-01
5.101867e-01
5.150467e-01
5.196097e-01
5.235851e-01
5.265580e-01
5.281031e-01
5.279028e-01
5.258214e-01
5.219079e-01
5.163257e-01
5.092469e-01
5.007796e-01
4.909770e-01
4.799037e-01
4.676822e-01
4.544616e-01
4.403297e-01
4.252589e-01
4.091682e-01
3.920877e-01
3.743008e-01
3.563256e-01
3.387255e-01
3.218958e-01
3.059792e-01
2.909276e-01
2.766154e-01
2.629078e-01
2.496519e-01
2.366314e-01
2.235641e-01
2.101691e-01
1.962606e-01
1.818104e-01
1.669496e-01
1.519193e-01
1.370009e-01
1.224491e-01
1.084368e-01
9.502254e-02
8.215805e-02
6.973496e-02
5.763475e-02
4.574072e-02
3.390934e-02
2.194601e-02
9.623261e-03
-3.269724e-03
-1.687686e-02
-3.123679e-02
-4.625752e-02
-6.171234e-02
-7.726898e-02
-9.254992e-02
-1.071985e-01
-1.209252e-01
-1.335349e-01
-1.449642e-01
-1.553366e-01
-1.649922e-01
-1.744286e-01
-1.841641e-01
-1.946212e-01
-2.061053e-01
-2.188419e-01
-2.329877e-01
-2.485867e-01
-2.655043e-01
-2.834111e-01
-3.018648e-01
-3.204651e-01
-3.390005e-01
-3.575115e-01
-3.762636e-01
-3.956652e-01
-4.161737e-01
-4.382106e-01
-4.620888e-01
-4.879442e-01
-5.156723e-01
-5.448942e-01
-5.749852e-01
-6.051744e-01
-6.346836e-01
-6.628700e-01
-6.893532e-01
-7.141066e-01
-7.374581e-01
-7.599698e-01
-7.822453e-01
-8.047566e-01
-8.277477e-01
-8.512340e-01
-8.750660e-01
-8.990019e-01
-9.227643e-01
-9.461015e-01
-9.688595e-01
-9.910316e-01
-1.012760e+00
-1.034287e+00
-1.055899e+00
-1.077869e+00
-1.100438e+00
-1.123792e+00
-1.148050e+00
-1.173250e+00
-1.199345e+00
-1.226215e+00
-1.253694e+00
-1.281618e+00
-1.309864e+00
-1.338358e+00
-1.367033e+00
-1.395773e+00
-1.424356e+00
-1.452436e+00
-1.479567e+00
-1.505255e+00
-1.529025e+00
-1.550480e+00
-1.569330e+00
-1.585406e+00
-1.598658e+00
-1.609132e+00
-1.616923e+00
-1.622114e+00
-1.624763e+00
-1.624901e+00
-1.622537e+00
-1.617644e+00
-1.610127e+00
-1.599835e+00
-1.586634e+00
-1.570514e+00
-1.551679e+00
-1.530540e+00
-1.507625e+00
-1.483480e+00
-1.458633e+00
-1.433601e+00
-1.408901e+00
-1.385017e+00
-1.362340e+00
-1.341110e+00
-1.321405e+00
-1.303165e+00
-1.286233e+00
-1.270375e+00
-1.255314e+00
-1.240801e+00
-1.226736e+00
-1.213235e+00
-1.200605e+00
-1.189206e+00
-1.179328e+00
-1.171137e+00
-1.164706e+00
-1.160084e+00
-1.157326e+00
-1.156485e+00
-1.157589e+00
-1.160644e+00
-1.165652e+00
-1.172620e+00
-1.181552e+00
-1.192411e+00
-1.205080e+00
-1.219321e+00
-1.234739e+00
-1.250764e+00
-1.266732e+00
-1.282074e+00
-1.296507e+00
-1.310053e+00
-1.322913e+00
-1.335313e+00
-1.347444e+00
-1.359503e+00
-1.371738e+00
-1.384432e+00
-1.397842e+00
-1.412128e+00
-1.427342e+00
-1.443446e+00
-1.460327e+00
-1.477813e+00
-1.495694e+00
-1.513775e+00
-1.531959e+00
-1.550289e+00
-1.568928e+00
-1.588091e+00
-1.607972e+00
-1.628712e+00
-1.650393e+00
-1.673024e+00
-1.696506e+00
-1.720593e+00
-1.744909e+00
-1.769045e+00
-1.792691e+00
-1.815684e+00
-1.837984e+00
-1.859626e+00
-1.880663e+00
-1.901130e+00
-1.921025e+00
-1.940317e+00
-1.958942e+00
-1.976796e+00
-1.993748e+00
-2.009660e+00
-2.024397e+00
-2.037819e+00
-2.049784e+00
-2.060174e+00
-2.068949e+00
-2.076192e+00
-2.082132e+00
-2.087100e+00
-2.091468e+00
-2.095588e+00
-2.099756e+00
-2.104185e+00
-2.108979e+00
-2.114114e+00
-2.119433e+00
-2.124693e+00
-2.129663e+00
-2.134223e+00
-2.138429e+00
-2.142507e+00
-2.146781e+00
-2.151580e+00
-2.157148e+00
-2.163609e+00
-2.170977e+00
-2.179200e+00
-2.188196e+00
-2.197868e+00
-2.208080e+00
-2.218626e+00
-2.229201e+00
-2.239423e+00
-2.248898e+00
-2.257315e+00
-2.264538e+00
-2.270625e+00
-2.275779e+00
-2.280252e+00
-2.284269e+00
-2.288008e+00
-2.291625e+00
-2.295264e+00
-2.299039e+00
-2.302981e+00
-2.307004e+00
-2.310894e+00
-2.314352e+00
-2.317063e+00
-2.318781e+00
-2.319410e+00
-2.319042e+00
-2.317934e+00
-2.316434e+00
-2.314885e+00
-2.313573e+00
-2.312696e+00
-2.312372e+00
-2.312627e+00
-2.313404e+00
-2.314566e+00
-2.315925e+00
-2.317285e+00
-2.318486e+00
-2.319416e+00
-2.320006e+00
-2.320205e+00
-2.319967e+00
-2.319246e+00
-2.318000e+00
-2.316206e+00
-2.313873e+00
-2.311057e+00
-2.307866e+00
-2.304459e+00
-2.301045e+00
-2.297858e+00
-2.295144e+00
-2.293126e+00
-2.291973e+00
-2.291790e+00
-2.292612e+00
-2.294424e+00
-2.297159e+00
-2.300724e+00
-2.305035e+00
-2.310079e+00
-2.315962e+00
-2.322922e+00
-2.331287e+00
-2.341408e+00
-2.353581e+00
-2.368015e+00
-2.384818e+00
-2.404021e+00
-2.425600e+00
-2.449484e+00
-2.475560e+00
-2.503681e+00
-2.533687e+00
-2.565452e+00
-2.598907e+00
-2.633998e+00
-2.670559e+00
-2.708174e+00
-2.746177e+00
-2.783831e+00
-2.820566e+00
-2.856070e+00
-2.890204e+00
-2.922868e+00
-2.953936e+00
-2.983268e+00
-3.010773e+00
-3.036458e+00
-3.060434e+00
-3.082905e+00
-3.104163e+00
-3.124572e+00
-3.144497e+00
-3.164223e+00
-3.183907e+00
-3.203635e+00
-3.223517e+00
-3.243750e+00
-3.264592e+00
-3.286272e+00
-3.308905e+00
-3.332458e+00
-3.356781e+00
-3.381679e+00
-3.406988e+00
-3.432621e+00
-3.458558e+00
-3.484784e+00
-3.511215e+00
-3.537646e+00
-3.563750e+00
-3.589134e+00
-3.613409e+00
-3.636235e+00
-3.657334e+00
-3.676481e+00
-3.693493e+00
-3.708235e+00
-3.720643e+00
-3.730745e+00
-3.738657e+00
-3.744551e+00
-3.748602e+00
-3.750940e+00
-3.751616e+00
-3.750607e+00
-3.747843e+00
-3.743271e+00
-3.736924e+00
-3.729000e+00
-3.719879e+00
-3.710000e+00
-3.699640e+00
-3.688752e+00
-3.677043e+00
-3.664190e+00
-3.649999e+00
-3.634430e+00
-3.617535e+00
-3.599372e+00
-3.580003e+00
-3.559586e+00
-3.538452e+00
-3.517043e+00
-3.495803e+00
-3.475079e+00
-3.455114e+00
-3.436091e+00
-3.418156e+00
-3.401405e+00
-3.385861e+00
-3.371494e+00
-3.358267e+00
-3.346178e+00
-3.335280e+00
-3.325672e+00
-3.317476e+00
-3.310793e+00
-3.305667e+00
-3.302074e+00
-3.299926e+00
-3.299088e+00
-3.299388e+00
-3.300638e+00
-3.302643e+00
-3.305216e+00
-3.308165e+00
-3.311310e+00
-3.314511e+00
-3.317725e+00
-3.321033e+00
-3.324620e+00
-3.328723e+00
-3.333581e+00
-3.339396e+00
-3.346317e+00
-3.354386e+00
-3.363460e+00
-3.373139e+00
-3.382794e+00
-3.391712e+00
-3.399270e+00
-3.405031e+00
-3.408721e+00
-3.410138e+00
-3.409097e+00
-3.405438e+00
-3.399083e+00
-3.390076e+00
-3.378539e+00
-3.364592e+00
-3.348274e+00
-3.329521e+00
-3.308190e+00
-3.284092e+00
-3.257010e+00
-3.226738e+00
-3.193146e+00
-3.156302e+00
-3.116578e+00
-3.074622e+00
-3.031174e+00
-2.986835e+00
-2.941959e+00
-2.896734e+00
-2.851309e+00
-2.805834e+00
-2.760390e+00
-2.714900e+00
-2.669121e+00
-2.622722e+00
-2.575409e+00
-2.527022e+00
-2.477583e+00
-2.427274e+00
-2.376374e+00
-2.325191e+00
-2.274006e+00
-2.223059e+00
-2.172572e+00
-2.122760e+00
-2.073837e+00
-2.026003e+00
-1.979415e+00
-1.934188e+00
-1.890407e+00
-1.848144e+00
-1.807466e+00
-1.768404e+00
-1.730903e+00
-1.694776e+00
-1.659708e+00
-1.625332e+00
-1.591360e+00
-1.557686e+00
-1.524376e+00
-1.491569e+00
-1.459361e+00
-1.427755e+00
-1.396696e+00
-1.366124e+00
-1.335983e+00
-1.306197e+00
-1.276636e+00
-1.247122e+00
-1.217439e+00
-1.187380e+00
-1.156798e+00
-1.125648e+00
-1.093987e+00
-1.061923e+00
-1.029541e+00
-9.968378e-01
-9.637442e-01
-9.302014e-01
-8.962424e-01
-8.619964e-01
-8.276257e-01
-7.932769e-01
-7.591063e-01
-7.253360e-01
-6.922712e-01
-6.602516e-01
-6.295697e-01
-6.004027e-01
-5.727862e-01
-5.466232e-01
-5.217144e-01
-4.977993e-01
-4.745990e-01
-4.518442e-01
-4.292799e-01
-4.066497e-01
-3.836822e-01
-3.601077e-01
-3.356992e-01
-3.103060e-01
-2.838460e-01
-2.562622e-01
-2.274802e-01
-1.973945e-01
-1.658867e-01
-1.328531e-01
-9.823406e-02
-6.205761e-02
-2.450235e-02
1.406275e-02
5.312648e-02
9.217274e-02
1.308163e-01
1.688483e-01
2.062013e-01
2.429097e-01
2.791150e-01
3.150931e-01
3.512425e-01
3.880063e-01
4.257695e-01
4.647974e-01
5.052351e-01
5.471366e-01
5.904830e-01
6.351809e-01
6.810740e-01
7.279855e-01
7.757768e-01
8.243863e-01
8.738290e-01
9.241654e-01
9.754613e-01
1.027753e+00
1.081029e+00
1.135227e+00
1.190244e+00
1.245954e+00
1.302213e+00
1.358865e+00
1.415744e+00
1.472689e+00
1.529577e+00
1.586349e+00
1.643035e+00
1.699756e+00
1.756723e+00
1.814251e+00
1.872737e+00
1.932565e+00
1.993931e+00
2.056666e+00
2.120238e+00
2.183952e+00
2.247192e+00
2.309515e+00
2.370604e+00
2.430184e+00
2.488012e+00
2.543918e+00
2.597871e+00
2.649995e+00
2.700527e+00
2.749743e+00
2.797876e+00
2.845043e+00
2.891204e+00
2.936142e+00
2.979499e+00
3.020877e+00
3.059942e+00
3.096478e+00
3.130387e+00
3.161654e+00
3.190334e+00
3.216561e+00
3.240558e+00
3.262590e+00
3.282931e+00
3.301870e+00
3.319818e+00
3.337380e+00
3.355232e+00
3.373869e+00
3.393450e+00
3.413883e+00
3.435045e+00
3.456903e+00
3.479469e+00
3.502670e+00
3.526271e+00
3.549954e+00
3.573451e+00
3.596620e+00
3.619417e+00
3.641815e+00
3.663759e+00
3.685162e+00
3.705919e+00
3.725894e+00
3.744914e+00
3.762788e+00
3.779336e+00
3.794387e+00
3.807749e+00
3.819184e+00
3.828437e+00
3.835283e+00
3.839581e+00
3.841284e+00
3.840408e+00
3.836985e+00
3.831036e+00
3.822583e+00
3.811676e+00
3.798417e+00
3.782987e+00
3.765680e+00
3.746950e+00
3.727387e+00
3.707608e+00
3.688105e+00
3.669185e+00
3.651001e+00
3.633642e+00
3.617168e+00
3.601606e+00
3.586922e+00
3.573030e+00
3.559849e+00
3.547362e+00
3.535648e+00
3.524876e+00
3.515273e+00
3.507085e+00
3.500542e+00
3.495836e+00
3.493113e+00
3.492477e+00
3.493988e+00
3.497627e+00
3.503228e+00
3.510376e+00
3.518370e+00
3.526326e+00
3.533441e+00
3.539210e+00
3.543445e+00
3.546132e+00
3.547303e+00
3.547001e+00
3.545339e+00
3.542560e+00
3.539027e+00
3.535139e+00
3.531236e+00
3.527530e+00
3.524080e+00
3.520814e+00
3.517589e+00
3.514272e+00
3.510815e+00
3.507289e+00
3.503879e+00
3.500831e+00
3.498427e+00
3.496973e+00
3.496816e+00
3.498332e+00
3.501870e+00
3.507627e+00
3.515502e+00
3.525000e+00
3.535305e+00
3.545504e+00
3.554844e+00
3.562851e+00
3.569290e+00
3.574068e+00
3.577163e+00
3.578622e+00
3.578588e+00
3.577284e+00
3.574941e+00
3.571708e+00
3.567594e+00
3.562464e+00
3.556066e+00
3.548087e+00
3.538205e+00
3.526157e+00
3.511809e+00
3.495213e+00
3.476633e+00
3.456515e+00
3.435376e+00
3.413682e+00
3.391767e+00
3.369816e+00
3.347887e+00
3.325936e+00
3.303839e+00
3.281431e+00
3.258549e+00
3.235086e+00
3.211019e+00
3.186407e+00
3.161362e+00
3.136014e+00
3.110480e+00
3.084827e+00
3.059043e+00
3.033012e+00
3.006530e+00
2.979335e+00
2.951146e+00
2.921681e+00
2.890672e+00
2.857869e+00
2.823066e+00
2.786128e+00
2.747014e+00
2.705771e+00
2.662508e+00
2.617353e+00
2.570421e+00
2.521796e+00
2.471536e+00
2.419670e+00
2.366204e+00
2.311121e+00
2.254371e+00
2.195888e+00
2.135600e+00
2.073464e+00
2.009491e+00
1.943757e+00
1.876396e+00
1.807578e+00
1.737485e+00
1.666304e+00
1.594243e+00
1.521547e+00
1.448520e+00
1.375511e+00
1.302894e+00
1.231014e+00
1.160164e+00
1.090568e+00
1.022397e+00
9.557821e-01
8.908285e-01
8.276257e-01
7.662490e-01
7.067634e-01
6.492288e-01
5.936993e-01
5.402153e-01
4.887881e-01
4.393860e-01
3.919282e-01
3.462889e-01
3.023071e-01
2.598020e-01
2.185932e-01
1.785248e-01
1.394881e-01
1.014341e-01
6.437216e-02
2.835881e-02
-6.516552e-03
-4.014601e-02
-7.241700e-02
-1.032281e-01
-1.325062e-01
-1.602217e-01
-1.863941e-01
-2.110849e-01
-2.343783e-01
-2.563567e-01
-2.770802e-01
-2.965745e-01
-3.148308e-01
-3.318117e-01
-3.474594e-01
-3.617010e-01
-3.744543e-01
-3.856348e-01
-3.951646e-01
-4.029815e-01
-4.090453e-01
-4.133443e-01
-4.159100e-01
-4.168475e-01
-4.163758e-01
-4.148481e-01
-4.127109e-01
-4.104066e-01
-4.082808e-01
-4.065528e-01
-4.053498e-01
-4.047528e-01
-4.048155e-01
-4.055569e-01
-4.069523e-01
-4.089474e-01
-4.114856e-01
-4.145318e-01
-4.180820e-01
-4.221646e-01
-4.268390e-01
-4.321932e-01
-4.383299e-01
-4.453377e-01
-4.532505e-01
-4.620089e-01
-4.714404e-01
-4.812761e-01
-4.912123e-01
-5.009876e-01
-5.104304e-01
-5.194606e-01
-5.280645e-01
-5.362647e-01
-5.440927e-01
-5.515640e-01
-5.586599e-01
-5.653160e-01
-5.714210e-01
-5.768268e-01
-5.813653e-01
-5.848672e-01
-5.871807e-01
-5.881913e-01
-5.878379e-01
-5.861174e-01
-5.830754e-01
-5.787914e-01
-5.733660e-01
-5.669135e-01
-5.595513e-01
-5.513837e-01
-5.424874e-01
-5.329164e-01
-5.227323e-01
-5.120338e-01
-5.009491e-01
-4.895974e-01
-4.780795e-01
-4.665137e-01
-4.550608e-01
-4.438990e-01
-4.331786e-01
-4.229985e-01
-4.134106e-01
-4.044364e-01
-3.960646e-01
-3.882345e-01
-3.808407e-01
-3.737685e-01
-3.669363e-01
-3.603122e-01
-3.539005e-01
-3.477164e-01
-3.417754e-01
-3.360997e-01
-3.307224e-01
-3.256791e-01
-3.209870e-01
-3.166301e-01
-3.125586e-01
-3.087052e-01
-3.050062e-01
-3.014153e-01
-2.979057e-01
-2.944624e-01
-2.910711e-01
-2.877106e-01
-2.843465e-01
-2.809245e-01
-2.773607e-01
-2.735319e-01
-2.692768e-01
-2.644136e-01
-2.587699e-01
-2.522088e-01
-2.446383e-01
-2.360051e-01
-2.262879e-01
-2.155002e-01
-2.037035e-01
-1.910117e-01
-1.775758e-01
-1.635470e-01
-1.490367e-01
-1.340908e-01
-1.186900e-01
-1.027761e-01
-8.629246e-02
-6.922439e-02
-5.162168e-02
-3.359701e-02
-1.530385e-02
3.093155e-03
2.144358e-02
3.962826e-02
5.756925e-02
7.523498e-02
9.264135e-02
1.098466e-01
1.269380e-01
1.440104e-01
1.611430e-01
1.783815e-01
1.957296e-01
2.131509e-01
2.305750e-01
2.479072e-01
2.650398e-01
2.818664e-01
2.982978e-01
3.142722e-01
3.297549e-01
3.447292e-01
3.591795e-01
3.730739e-01
3.863534e-01
3.989291e-01
4.106855e-01
4.214896e-01
4.312049e-01
4.397097e-01
4.469160e-01
4.527812e-01
4.573114e-01
4.605545e-01
4.625883e-01
4.635050e-01
4.633980e-01
4.623506e-01
4.604293e-01
4.576797e-01
4.541244e-01
4.497597e-01
4.445559e-01
4.384589e-01
4.313986e-01
4.233018e-01
4.141119e-01
4.038156e-01
3.924751e-01
3.802495e-01
3.673888e-01
3.541824e-01
3.408812e-01
3.276310e-01
3.144563e-01
3.012939e-01
2.880448e-01
2.746131e-01
2.609243e-01
2.469374e-01
2.326587e-01
2.181520e-01
2.035393e-01
1.889870e-01
1.746823e-01
1.608086e-01
1.475282e-01
1.349735e-01
1.232489e-01
1.124395e-01
1.026188e-01
9.384700e-02
8.616055e-02
7.955840e-02
7.399824e-02
6.940445e-02
6.567930e-02
6.270495e-02
6.033370e-02
5.837911e-02
5.662488e-02
5.485532e-02
5.289058e-02
5.060426e-02
4.791788e-02
4.478680e-02
4.119256e-02
3.714310e-02
3.267354e-02
2.784197e-02
2.272051e-02
1.738371e-02
1.189353e-02
6.282026e-03
5.407841e-04
-5.372426e-03
-1.150950e-02
-1.790415e-02
-2.455555e-02
-3.142577e-02
-3.844065e-02
-4.548535e-02
-5.239927e-02
-5.898219e-02
-6.501597e-02
-7.029321e-02
-7.463999e-02
-7.792600e-02
-8.006426e-02
