EVENT_NAME: EMILIA_2ND_SHOCK
EVENT_ID: IT-2012-0011
EVENT_DATE_YYYYMMDD: 20120529
EVENT_TIME_HHMMSS: 070002
EVENT_LATITUDE_DEGREE: 44.8417
EVENT_LONGITUDE_DEGREE: 11.0657
EVENT_DEPTH_KM: 8.1
HYPOCENTER_REFERENCE: INGV-CNT_Seismic_Bulletin
MAGNITUDE_W: 6.0
MAGNITUDE_W_REFERENCE: RCMT-INGV
MAGNITUDE_L: 5.8
MAGNITUDE_L_REFERENCE: INGV-CNT_Seismic_Bulletin
FOCAL_MECHANISM: TF
NETWORK: TV
STATION_CODE: MIR08
STATION_NAME: QUARANTOLI 2
STATION_LATITUDE_DEGREE: 44.916900
STATION_LONGITUDE_DEGREE: 11.089500
STATION_ELEVATION_M: 
LOCATION: 
SENSOR_DEPTH_M: 
VS30_M/S: 
SITE_CLASSIFICATION_EC8: C*
MORPHOLOGIC_CLASSIFICATION: 
EPICENTRAL_DISTANCE_KM: 8.6
EARTHQUAKE_BACKAZIMUTH_DEGREE: 192.7
DATE_TIME_FIRST_SAMPLE_YYYYMMDD_HHMMSS: 20120529_065929.000
DATE_TIME_FIRST_SAMPLE_PRECISION: milliseconds
SAMPLING_INTERVAL_S: 0.005000
NDATA: 105
DURATION_S: 
STREAM: HNE
UNITS: cm/s^2
INSTRUMENT: sensor = Episensor FBA ES-T [Kinemetrics] | digitizer = Unknown [Unknown]
INSTRUMENT_ANALOG/DIGITAL: D
INSTRUMENTAL_FREQUENCY_HZ: 
INSTRUMENTAL_DAMPING: 
FULL_SCALE_G: 
N_BIT_DIGITAL_CONVERTER: 
PGV_CM/S: -18.682912
TIME_PGV_S: 42.140000
BASELINE_CORRECTION: BASELINE REMOVED
FILTER_TYPE: BUTTERWORTH
FILTER_ORDER: 2
LOW_CUT_FREQUENCY_HZ: 0.050
HIGH_CUT_FREQUENCY_HZ: 40.000
LATE/NORMAL_TRIGGERED: NT
DATABASE_VERSION: DYNA 1.0
HEADER_FORMAT: DYNA 1.2
DATA_TYPE: PSEUDO-VELOCITY RESPONSE SPECTRUM
PROCESSING: manual (Paolucci et al., 2011)
DATA_TIMESTAMP_YYYYMMDD_HHMMSS: 
DATA_LICENSE: CC-BY4_0 (http://creativecommons.org/licenses/by/4.0/)
DATA_CITATION: ESM working group (2015), European Strong-Motion database, version 0.1, Network Activity 3: Networking acceleration networks and SM data users. Project NERA (www.nera-eu.org)
DATA_CREATOR: ESM working group
ORIGINAL_DATA_MEDIATOR_CITATION: Orfeus - European Integrated Data Archive (EIDA) http://www.orfeus-eu.org/eida/
ORIGINAL_DATA_MEDIATOR: Orfeus - European Integrated Data Archive (EIDA)
ORIGINAL_DATA_CREATOR_CITATION: 
ORIGINAL_DATA_CREATOR: network: TV (INGV Experiments Network); owner: Istituto Nazionale di Geofisica e Vulcanologia
USER1: 
USER2: 
USER3: 
USER4: 
USER5: 
    0.010000     0.349720
    0.020000     0.732701
    0.022000     0.853932
    0.025000     0.971325
    0.029000     1.046734
    0.030000     1.065123
    0.032000     1.210708
    0.035001     1.358021
    0.036000     1.421563
    0.040000     1.940969
    0.041999     2.040158
    0.044001     2.204369
    0.045000     2.293911
    0.046000     2.388133
    0.048001     2.626205
    0.050000     2.907025
    0.054999     3.248525
    0.059999     3.430867
    0.064998     4.417671
    0.067002     4.385170
    0.069999     3.819965
    0.075002     4.433241
    0.080000     5.551258
    0.084998     6.405102
    0.090001     6.802247
    0.095003     9.028447
    0.100000    10.311584
    0.109999     9.852564
    0.120005     8.924438
    0.130005     9.118071
    0.132996     9.320356
    0.139997    10.058025
    0.149993    11.580539
    0.160000    11.816990
    0.170010    13.722925
    0.179986    19.578983
    0.190006    24.250029
    0.200000    22.728739
    0.220022    15.792485
    0.239981    18.043758
    0.250000    20.874680
    0.260010    25.893129
    0.280034    30.033091
    0.290023    28.382128
    0.300030    26.399876
    0.320000    33.357582
    0.340020    37.736790
    0.350017    35.515152
    0.359971    33.437050
    0.379939    37.456543
    0.400000    34.429058
    0.419992    31.651583
    0.439947    32.627724
    0.450045    29.917398
    0.459982    26.328976
    0.480077    20.729637
    0.500000    20.172266
    0.550055    28.622318
    0.599880    30.845781
    0.650195    36.577328
    0.667111    31.798519
    0.699790    28.195198
    0.750188    33.902828
    0.800000    30.025181
    0.850340    23.467480
    0.900090    20.453033
    0.949668    18.506046
    1.000000    20.803406
    1.100110    30.285376
    1.200480    28.189695
    1.300390    23.250223
    1.400560    23.240261
    1.499250    18.674984
    1.600000    18.190859
    1.700680    17.570536
    1.798561    17.675838
    1.901141    17.438208
    2.000000    19.312130
    2.197802    24.674572
    2.398082    22.210176
    2.500000    19.156189
    2.597403    17.129747
    2.801121    16.527742
    3.003003    15.778515
    3.205128    14.592952
    3.401361    16.122982
    3.496503    16.738678
    3.597122    16.500668
    3.802281    13.761482
    4.000000    10.038484
    4.201681     9.468374
    4.405286     9.391735
    4.608295    11.147550
    4.807692    11.944252
    5.000000    11.832291
    5.494505    10.834659
    5.988024     9.233977
    6.493506     7.278963
    6.993007     6.202819
    7.518797     5.618663
    8.000000     4.970392
    8.474576     4.342978
    9.009009     3.917391
    9.523809     3.593186
   10.000000     3.307271
