EVENT_NAME: EMILIA_2ND_SHOCK
EVENT_ID: IT-2012-0011
EVENT_DATE_YYYYMMDD: 20120529
EVENT_TIME_HHMMSS: 070002
EVENT_LATITUDE_DEGREE: 44.8417
EVENT_LONGITUDE_DEGREE: 11.0657
EVENT_DEPTH_KM: 8.1
HYPOCENTER_REFERENCE: INGV-CNT_Seismic_Bulletin
MAGNITUDE_W: 6.0
MAGNITUDE_W_REFERENCE: RCMT-INGV
MAGNITUDE_L: 5.8
MAGNITUDE_L_REFERENCE: INGV-CNT_Seismic_Bulletin
FOCAL_MECHANISM: TF
NETWORK: TV
STATION_CODE: MIR01
STATION_NAME: MEDOLLA
STATION_LATITUDE_DEGREE: 44.844042
STATION_LONGITUDE_DEGREE: 11.071316
STATION_ELEVATION_M: 
LOCATION: 
SENSOR_DEPTH_M: 
VS30_M/S: 
SITE_CLASSIFICATION_EC8: C*
MORPHOLOGIC_CLASSIFICATION: 
EPICENTRAL_DISTANCE_KM: 0.5
EARTHQUAKE_BACKAZIMUTH_DEGREE: 239.6
DATE_TIME_FIRST_SAMPLE_YYYYMMDD_HHMMSS: 20120529_065945.000
DATE_TIME_FIRST_SAMPLE_PRECISION: milliseconds
SAMPLING_INTERVAL_S: 0.005000
NDATA: 105
DURATION_S: 
STREAM: HNN
UNITS: cm
INSTRUMENT: sensor = Episensor FBA ES-T [Kinemetrics] | digitizer = Unknown [Unknown]
INSTRUMENT_ANALOG/DIGITAL: D
INSTRUMENTAL_FREQUENCY_HZ: 
INSTRUMENTAL_DAMPING: 
FULL_SCALE_G: 
N_BIT_DIGITAL_CONVERTER: 
PGD_CM: 21.069797
TIME_PGD_S: 24.665000
BASELINE_CORRECTION: BASELINE REMOVED
FILTER_TYPE: BUTTERWORTH
FILTER_ORDER: 2
LOW_CUT_FREQUENCY_HZ: 0.050
HIGH_CUT_FREQUENCY_HZ: 40.000
LATE/NORMAL_TRIGGERED: NT
DATABASE_VERSION: DYNA 1.0
HEADER_FORMAT: DYNA 1.2
DATA_TYPE: DISPLACEMENT RESPONSE SPECTRUM
PROCESSING: manual (Paolucci et al., 2011)
DATA_TIMESTAMP_YYYYMMDD_HHMMSS: 
DATA_LICENSE: CC-BY4_0 (http://creativecommons.org/licenses/by/4.0/)
DATA_CITATION: ESM working group (2015), European Strong-Motion database, version 0.1, Network Activity 3: Networking acceleration networks and SM data users. Project NERA (www.nera-eu.org)
DATA_CREATOR: ESM working group
ORIGINAL_DATA_MEDIATOR_CITATION: Orfeus - European Integrated Data Archive (EIDA) http://www.orfeus-eu.org/eida/
ORIGINAL_DATA_MEDIATOR: Orfeus - European Integrated Data Archive (EIDA)
ORIGINAL_DATA_CREATOR_CITATION: 
ORIGINAL_DATA_CREATOR: network: TV (INGV Experiments Network); owner: Istituto Nazionale di Geofisica e Vulcanologia
USER1: 
USER2: 
USER3: 
USER4: 
USER5: 
    0.010000     0.000949
    0.020000     0.003833
    0.022000     0.004648
    0.025000     0.006074
    0.029000     0.008374
    0.030000     0.009064
    0.032000     0.010415
    0.035001     0.012638
    0.036000     0.013496
    0.040000     0.017388
    0.041999     0.019501
    0.044001     0.022447
    0.045000     0.023669
    0.046000     0.024811
    0.048001     0.026862
    0.050000     0.027970
    0.054999     0.034066
    0.059999     0.048166
    0.064998     0.060628
    0.067002     0.066282
    0.069999     0.077039
    0.075002     0.090520
    0.080000     0.081404
    0.084998     0.086279
    0.090001     0.127423
    0.095003     0.164537
    0.100000     0.171596
    0.109999     0.192157
    0.120005     0.269133
    0.130005     0.329164
    0.132996     0.349243
    0.139997     0.376453
    0.149993     0.350273
    0.160000     0.393045
    0.170010     0.509899
    0.179986     0.775162
    0.190006     0.882458
    0.200000     0.972891
    0.220022     0.972847
    0.239981     1.400136
    0.250000     1.419151
    0.260010     1.708643
    0.280034     2.269773
    0.290023     2.715562
    0.300030     3.063174
    0.320000     3.091826
    0.340020     3.203996
    0.350017     3.523589
    0.359971     3.813546
    0.379939     3.632083
    0.400000     2.773837
    0.419992     2.399786
    0.439947     2.541928
    0.450045     2.582436
    0.459982     2.610160
    0.480077     2.651600
    0.500000     3.202582
    0.550055     4.624763
    0.599880     5.323204
    0.650195     7.844181
    0.667111     8.312957
    0.699790     8.376644
    0.750188     7.025182
    0.800000     5.387764
    0.850340     5.154524
    0.900090     6.092827
    0.949668     7.244411
    1.000000     8.123182
    1.100110     9.808225
    1.200480    12.817007
    1.300390    16.954380
    1.400560    21.810228
    1.499250    26.404270
    1.600000    29.937265
    1.700680    32.445808
    1.798561    34.843204
    1.901141    37.343552
    2.000000    39.451809
    2.197802    42.145588
    2.398082    42.960407
    2.500000    43.274429
    2.597403    44.088634
    2.801121    44.566456
    3.003003    44.009911
    3.205128    42.666889
    3.401361    40.592289
    3.496503    39.329697
    3.597122    37.949669
    3.802281    34.932133
    4.000000    32.987556
    4.201681    33.469345
    4.405286    33.741146
    4.608295    33.846378
    4.807692    33.822601
    5.000000    33.698879
    5.494505    33.111458
    5.988024    32.314308
    6.493506    31.450970
    6.993007    30.596338
    7.518797    29.788263
    8.000000    29.045258
    8.474576    28.367846
    9.009009    27.754671
    9.523809    27.202145
   10.000000    26.700611
