EVENT_NAME: EMILIA_2ND_SHOCK
EVENT_ID: IT-2012-0011
EVENT_DATE_YYYYMMDD: 20120529
EVENT_TIME_HHMMSS: 070002
EVENT_LATITUDE_DEGREE: 44.8417
EVENT_LONGITUDE_DEGREE: 11.0657
EVENT_DEPTH_KM: 8.1
HYPOCENTER_REFERENCE: INGV-CNT_Seismic_Bulletin
MAGNITUDE_W: 6.0
MAGNITUDE_W_REFERENCE: RCMT-INGV
MAGNITUDE_L: 5.8
MAGNITUDE_L_REFERENCE: INGV-CNT_Seismic_Bulletin
FOCAL_MECHANISM: TF
NETWORK: TV
STATION_CODE: MIR08
STATION_NAME: QUARANTOLI 2
STATION_LATITUDE_DEGREE: 44.916900
STATION_LONGITUDE_DEGREE: 11.089500
STATION_ELEVATION_M: 
LOCATION: 
SENSOR_DEPTH_M: 
VS30_M/S: 
SITE_CLASSIFICATION_EC8: C*
MORPHOLOGIC_CLASSIFICATION: 
EPICENTRAL_DISTANCE_KM: 8.6
EARTHQUAKE_BACKAZIMUTH_DEGREE: 192.7
DATE_TIME_FIRST_SAMPLE_YYYYMMDD_HHMMSS: 20120529_065929.000
DATE_TIME_FIRST_SAMPLE_PRECISION: milliseconds
SAMPLING_INTERVAL_S: 0.005000
NDATA: 105
DURATION_S: 
STREAM: HNN
UNITS: cm
INSTRUMENT: sensor = Episensor FBA ES-T [Kinemetrics] | digitizer = Unknown [Unknown]
INSTRUMENT_ANALOG/DIGITAL: D
INSTRUMENTAL_FREQUENCY_HZ: 
INSTRUMENTAL_DAMPING: 
FULL_SCALE_G: 
N_BIT_DIGITAL_CONVERTER: 
PGD_CM: -10.016992
TIME_PGD_S: 42.455000
BASELINE_CORRECTION: BASELINE REMOVED
FILTER_TYPE: BUTTERWORTH
FILTER_ORDER: 2
LOW_CUT_FREQUENCY_HZ: 0.050
HIGH_CUT_FREQUENCY_HZ: 40.000
LATE/NORMAL_TRIGGERED: NT
DATABASE_VERSION: DYNA 1.0
HEADER_FORMAT: DYNA 1.2
DATA_TYPE: DISPLACEMENT RESPONSE SPECTRUM
PROCESSING: manual (Paolucci et al., 2011)
DATA_TIMESTAMP_YYYYMMDD_HHMMSS: 
DATA_LICENSE: CC-BY4_0 (http://creativecommons.org/licenses/by/4.0/)
DATA_CITATION: ESM working group (2015), European Strong-Motion database, version 0.1, Network Activity 3: Networking acceleration networks and SM data users. Project NERA (www.nera-eu.org)
DATA_CREATOR: ESM working group
ORIGINAL_DATA_MEDIATOR_CITATION: Orfeus - European Integrated Data Archive (EIDA) http://www.orfeus-eu.org/eida/
ORIGINAL_DATA_MEDIATOR: Orfeus - European Integrated Data Archive (EIDA)
ORIGINAL_DATA_CREATOR_CITATION: 
ORIGINAL_DATA_CREATOR: network: TV (INGV Experiments Network); owner: Istituto Nazionale di Geofisica e Vulcanologia
USER1: 
USER2: 
USER3: 
USER4: 
USER5: 
    0.010000     0.000618
    0.020000     0.002484
    0.022000     0.003054
    0.025000     0.004506
    0.029000     0.006672
    0.030000     0.007183
    0.032000     0.008604
    0.035001     0.012289
    0.036000     0.014026
    0.040000     0.016889
    0.041999     0.017535
    0.044001     0.018747
    0.045000     0.018919
    0.046000     0.019087
    0.048001     0.024345
    0.050000     0.033250
    0.054999     0.045114
    0.059999     0.054004
    0.064998     0.068155
    0.067002     0.078056
    0.069999     0.087724
    0.075002     0.089508
    0.080000     0.098133
    0.084998     0.118415
    0.090001     0.111469
    0.095003     0.130813
    0.100000     0.181558
    0.109999     0.253042
    0.120005     0.225710
    0.130005     0.232028
    0.132996     0.263955
    0.139997     0.322754
    0.149993     0.412366
    0.160000     0.491250
    0.170010     0.466964
    0.179986     0.460035
    0.190006     0.542997
    0.200000     0.664281
    0.220022     0.834184
    0.239981     1.011401
    0.250000     1.073579
    0.260010     1.068504
    0.280034     1.337579
    0.290023     1.514012
    0.300030     1.802023
    0.320000     1.821263
    0.340020     1.969096
    0.350017     2.106446
    0.359971     2.122060
    0.379939     2.393416
    0.400000     2.535419
    0.419992     2.877653
    0.439947     3.218965
    0.450045     3.270283
    0.459982     3.234421
    0.480077     3.029478
    0.500000     3.021988
    0.550055     5.605591
    0.599880     7.620702
    0.650195     7.763622
    0.667111     7.253310
    0.699790     6.599223
    0.750188     6.584857
    0.800000     7.841854
    0.850340     9.156839
    0.900090     8.854257
    0.949668     7.116641
    1.000000     6.703453
    1.100110     9.152113
    1.200480    11.224469
    1.300390    11.408948
    1.400560    10.918491
    1.499250    12.384428
    1.600000    15.604845
    1.700680    19.088341
    1.798561    22.095823
    1.901141    24.489662
    2.000000    25.680956
    2.197802    26.481958
    2.398082    27.542717
    2.500000    28.555227
    2.597403    28.933430
    2.801121    27.938583
    3.003003    25.001944
    3.205128    25.124485
    3.401361    25.195110
    3.496503    25.002022
    3.597122    24.680437
    3.802281    23.747036
    4.000000    22.518917
    4.201681    21.080902
    4.405286    19.793541
    4.608295    18.921642
    4.807692    18.934679
    5.000000    19.243877
    5.494505    17.737364
    5.988024    17.940903
    6.493506    17.865740
    6.993007    17.613691
    7.518797    17.252779
    8.000000    16.830078
    8.474576    16.382221
    9.009009    15.926946
    9.523809    15.473887
   10.000000    15.031823
