EVENT_NAME: EMILIA_2ND_SHOCK
EVENT_ID: IT-2012-0011
EVENT_DATE_YYYYMMDD: 20120529
EVENT_TIME_HHMMSS: 070002
EVENT_LATITUDE_DEGREE: 44.8417
EVENT_LONGITUDE_DEGREE: 11.0657
EVENT_DEPTH_KM: 8.1
HYPOCENTER_REFERENCE: INGV-CNT_Seismic_Bulletin
MAGNITUDE_W: 6.0
MAGNITUDE_W_REFERENCE: RCMT-INGV
MAGNITUDE_L: 5.8
MAGNITUDE_L_REFERENCE: INGV-CNT_Seismic_Bulletin
FOCAL_MECHANISM: TF
NETWORK: TV
STATION_CODE: MIR05
STATION_NAME: POGGIO RUSCO
STATION_LATITUDE_DEGREE: 44.980800
STATION_LONGITUDE_DEGREE: 11.107190
STATION_ELEVATION_M: 
LOCATION: 
SENSOR_DEPTH_M: 
VS30_M/S: 
SITE_CLASSIFICATION_EC8: C*
MORPHOLOGIC_CLASSIFICATION: 
EPICENTRAL_DISTANCE_KM: 15.8
EARTHQUAKE_BACKAZIMUTH_DEGREE: 192.0
DATE_TIME_FIRST_SAMPLE_YYYYMMDD_HHMMSS: 20120529_065929.000
DATE_TIME_FIRST_SAMPLE_PRECISION: milliseconds
SAMPLING_INTERVAL_S: 0.005000
NDATA: 30001
DURATION_S: 150.005
STREAM: HNZ
UNITS: cm
INSTRUMENT: sensor = Episensor FBA ES-T [Kinemetrics] | digitizer = Unknown [Unknown]
INSTRUMENT_ANALOG/DIGITAL: D
INSTRUMENTAL_FREQUENCY_HZ: 
INSTRUMENTAL_DAMPING: 
FULL_SCALE_G: 
N_BIT_DIGITAL_CONVERTER: 
PGD_CM: -1.661928
TIME_PGD_S: 47.855000
BASELINE_CORRECTION: BASELINE REMOVED
FILTER_TYPE: BUTTERWORTH
FILTER_ORDER: 2
LOW_CUT_FREQUENCY_HZ: 0.070
HIGH_CUT_FREQUENCY_HZ: 40.000
LATE/NORMAL_TRIGGERED: NT
DATABASE_VERSION: DYNA 1.0
HEADER_FORMAT: DYNA 1.2
DATA_TYPE: DISPLACEMENT
PROCESSING: manual (Paolucci et al., 2011)
DATA_TIMESTAMP_YYYYMMDD_HHMMSS: 
DATA_LICENSE: CC-BY4_0 (http://creativecommons.org/licenses/by/4.0/)
DATA_CITATION: ESM working group (2015), European Strong-Motion database, version 0.1, Network Activity 3: Networking acceleration networks and SM data users. Project NERA (www.nera-eu.org)
DATA_CREATOR: ESM working group
ORIGINAL_DATA_MEDIATOR_CITATION: Orfeus - European Integrated Data Archive (EIDA) http://www.orfeus-eu.org/eida/
ORIGINAL_DATA_MEDIATOR: Orfeus - European Integrated Data Archive (EIDA)
ORIGINAL_DATA_CREATOR_CITATION: 
ORIGINAL_DATA_CREATOR: network: TV (INGV Experiments Network); owner: Istituto Nazionale di Geofisica e Vulcanologia
USER1: 
USER2: 
USER3: 
USER4: 
USER5: 
[...]
9.947849e-01
9.959172e-01
9.971512e-01
9.985235e-01
1.000120e+00
1.001867e+00
1.003437e+00
1.004390e+00
1.004483e+00
1.003804e+00
1.002584e+00
1.000930e+00
9.987787e-01
9.960181e-01
9.925878e-01
9.885003e-01
9.838341e-01
9.787272e-01
9.733685e-01
9.679603e-01
9.626262e-01
9.573255e-01
9.518960e-01
9.462240e-01
9.403881e-01
9.346404e-01
9.292473e-01
9.243247e-01
9.197854e-01
9.154247e-01
9.110768e-01
9.067216e-01
9.024801e-01
8.985410e-01
8.950900e-01
8.922587e-01
8.900983e-01
8.885967e-01
8.877332e-01
8.875114e-01
8.879271e-01
8.889088e-01
8.903158e-01
8.920111e-01
8.939464e-01
8.961990e-01
8.989335e-01
9.022864e-01
9.062346e-01
9.105666e-01
9.149901e-01
9.192756e-01
9.233301e-01
9.272113e-01
9.311194e-01
9.353197e-01
9.399610e-01
9.449110e-01
9.497919e-01
9.542136e-01
9.580015e-01
9.612801e-01
9.644621e-01
9.681749e-01
9.730567e-01
9.794544e-01
9.872201e-01
9.957510e-01
1.004250e+00
1.012104e+00
1.019222e+00
1.026067e+00
1.033288e+00
1.041173e+00
1.049402e+00
1.057320e+00
1.064451e+00
1.070775e+00
1.076592e+00
1.082179e+00
1.087563e+00
1.092545e+00
1.096877e+00
1.100389e+00
1.102987e+00
1.104613e+00
1.105329e+00
1.105467e+00
1.105573e+00
1.106119e+00
1.107246e+00
1.108785e+00
1.110450e+00
1.112018e+00
1.113396e+00
1.114576e+00
1.115493e+00
1.115892e+00
1.115333e+00
1.113385e+00
1.109837e+00
1.104797e+00
1.098593e+00
1.091557e+00
1.083823e+00
1.075259e+00
1.065592e+00
1.054668e+00
1.042658e+00
1.030018e+00
1.017286e+00
1.004959e+00
9.934693e-01
9.831537e-01
9.741820e-01
9.665420e-01
9.600408e-01
9.542818e-01
9.487186e-01
9.428578e-01
9.365004e-01
9.298271e-01
9.232385e-01
9.170635e-01
9.113864e-01
9.061176e-01
9.011547e-01
8.964169e-01
8.917707e-01
8.870263e-01
8.820516e-01
8.768459e-01
8.714445e-01
8.657430e-01
8.594390e-01
8.521783e-01
8.438135e-01
8.345894e-01
8.250910e-01
8.159537e-01
8.075575e-01
7.999559e-01
7.930419e-01
7.867298e-01
7.809941e-01
7.758287e-01
7.712383e-01
7.672575e-01
7.639219e-01
7.612202e-01
7.591248e-01
7.576988e-01
7.571296e-01
7.576105e-01
7.591757e-01
7.616274e-01
7.646006e-01
7.677286e-01
7.708280e-01
7.739925e-01
7.775164e-01
7.816818e-01
7.865730e-01
7.920599e-01
7.979285e-01
8.039943e-01
8.100766e-01
8.158945e-01
8.210515e-01
8.251338e-01
8.278050e-01
8.288599e-01
8.283167e-01
8.265209e-01
8.241192e-01
8.218464e-01
8.202626e-01
8.196552e-01
8.201382e-01
8.217379e-01
8.243125e-01
8.274595e-01
8.306142e-01
8.332705e-01
8.351075e-01
8.359820e-01
8.359074e-01
8.350474e-01
8.336581e-01
8.320171e-01
8.304089e-01
8.291114e-01
8.283191e-01
8.280872e-01
8.283792e-01
8.291290e-01
8.302221e-01
8.314673e-01
8.326525e-01
8.336491e-01
8.344779e-01
8.353249e-01
8.365333e-01
8.385614e-01
8.418926e-01
8.469462e-01
8.540268e-01
8.632633e-01
8.745379e-01
8.874998e-01
9.016790e-01
9.166037e-01
9.318713e-01
9.471553e-01
9.621030e-01
9.761725e-01
9.886078e-01
9.986733e-01
1.006003e+00
1.010800e+00
1.013759e+00
1.015827e+00
1.017965e+00
1.021049e+00
1.025866e+00
1.033032e+00
1.042783e+00
1.054830e+00
1.068538e+00
1.083327e+00
1.098895e+00
1.115092e+00
1.131666e+00
1.148134e+00
1.163843e+00
1.178158e+00
1.190673e+00
1.201287e+00
1.210115e+00
1.217355e+00
1.223271e+00
1.228231e+00
1.232699e+00
1.237168e+00
1.242074e+00
1.247654e+00
1.253821e+00
1.260158e+00
1.266084e+00
1.271097e+00
1.274986e+00
1.277867e+00
1.280055e+00
1.281881e+00
1.283616e+00
1.285453e+00
1.287463e+00
1.289530e+00
1.291389e+00
1.292773e+00
1.293532e+00
1.293699e+00
1.293493e+00
1.293264e+00
1.293318e+00
1.293755e+00
1.294471e+00
1.295319e+00
1.296264e+00
1.297408e+00
1.298936e+00
1.301050e+00
1.303874e+00
1.307340e+00
1.311107e+00
1.314588e+00
1.317065e+00
1.317869e+00
1.316563e+00
1.313084e+00
1.307779e+00
1.301266e+00
1.294150e+00
1.286728e+00
1.278865e+00
1.270134e+00
1.260142e+00
1.248792e+00
1.236310e+00
1.223077e+00
1.209449e+00
1.195680e+00
1.181897e+00
1.168087e+00
1.154113e+00
1.139799e+00
1.125085e+00
1.110173e+00
1.095574e+00
1.081990e+00
1.070120e+00
1.060462e+00
1.053158e+00
1.047882e+00
1.043882e+00
1.040231e+00
1.036194e+00
1.031489e+00
1.026342e+00
1.021325e+00
1.017050e+00
1.013838e+00
1.011595e+00
1.009995e+00
1.008758e+00
1.007766e+00
1.006953e+00
1.006169e+00
1.005193e+00
1.003912e+00
1.002490e+00
1.001326e+00
1.000787e+00
1.000987e+00
1.001830e+00
1.003250e+00
1.005339e+00
1.008192e+00
1.011620e+00
1.015071e+00
1.017879e+00
1.019616e+00
1.020264e+00
1.020140e+00
1.019753e+00
1.019639e+00
1.020192e+00
1.021535e+00
1.023506e+00
1.025759e+00
1.027891e+00
1.029497e+00
1.030160e+00
1.029485e+00
1.027206e+00
1.023260e+00
1.017758e+00
1.010928e+00
1.003113e+00
9.947960e-01
9.865452e-01
9.788673e-01
9.720842e-01
9.663454e-01
9.617208e-01
9.582121e-01
9.556422e-01
9.535952e-01
9.515575e-01
9.491763e-01
9.463972e-01
9.433379e-01
9.400021e-01
9.361206e-01
9.313023e-01
9.253715e-01
9.185820e-01
9.115417e-01
9.049505e-01
8.993619e-01
8.950503e-01
8.919719e-01
8.898215e-01
8.881739e-01
8.866143e-01
8.847941e-01
8.824720e-01
8.795911e-01
8.762941e-01
8.727746e-01
8.690879e-01
8.651369e-01
8.608346e-01
8.562270e-01
8.514411e-01
8.465383e-01
8.414140e-01
8.358294e-01
8.295822e-01
8.227004e-01
8.154686e-01
8.082482e-01
8.012822e-01
7.946769e-01
7.885168e-01
7.829107e-01
7.779021e-01
7.733879e-01
7.691763e-01
7.651150e-01
7.611581e-01
7.573625e-01
7.538816e-01
7.509298e-01
7.486582e-01
7.470002e-01
7.456377e-01
7.441364e-01
7.421652e-01
7.396816e-01
7.369797e-01
7.345080e-01
7.325274e-01
7.308951e-01
7.291724e-01
7.269123e-01
7.238320e-01
7.197998e-01
7.147924e-01
7.089249e-01
7.024896e-01
6.959239e-01
6.897028e-01
6.842030e-01
6.795807e-01
6.757203e-01
6.723120e-01
6.690353e-01
6.657199e-01
6.623765e-01
6.591248e-01
6.561190e-01
6.535133e-01
6.514528e-01
6.500796e-01
6.495492e-01
6.500045e-01
6.514691e-01
6.537372e-01
6.564025e-01
6.590435e-01
6.614149e-01
6.634894e-01
6.653449e-01
6.670230e-01
6.684530e-01
6.694466e-01
6.697578e-01
6.692125e-01
6.678510e-01
6.659696e-01
6.640212e-01
6.624285e-01
6.614029e-01
6.608430e-01
6.603500e-01
6.593360e-01
6.571941e-01
6.535346e-01
6.484411e-01
6.425699e-01
6.369189e-01
6.323411e-01
6.291408e-01
6.270405e-01
6.254965e-01
6.240876e-01
6.226971e-01
6.214184e-01
6.203300e-01
6.193569e-01
6.183319e-01
6.171709e-01
6.159567e-01
6.148337e-01
6.138433e-01
6.128797e-01
6.117823e-01
6.104408e-01
6.088397e-01
6.070601e-01
6.052461e-01
6.035302e-01
6.019685e-01
6.005522e-01
5.992657e-01
5.981179e-01
5.971591e-01
5.965164e-01
5.963879e-01
5.969376e-01
5.981710e-01
5.999081e-01
6.018345e-01
6.035399e-01
6.045455e-01
6.043792e-01
6.026893e-01
5.993300e-01
5.944028e-01
5.882758e-01
5.815547e-01
5.749533e-01
5.690855e-01
5.642790e-01
5.604767e-01
5.572497e-01
5.539621e-01
5.500690e-01
5.453605e-01
5.399556e-01
5.340822e-01
5.278552e-01
5.211964e-01
5.139056e-01
5.058279e-01
4.969964e-01
4.876412e-01
4.780910e-01
4.686896e-01
4.597831e-01
4.517213e-01
4.448227e-01
4.393121e-01
4.352679e-01
4.326052e-01
4.310944e-01
4.303822e-01
4.300172e-01
4.295257e-01
4.285434e-01
4.269254e-01
4.247625e-01
4.222961e-01
4.197702e-01
4.172921e-01
4.148168e-01
4.122879e-01
4.098063e-01
4.076417e-01
4.060556e-01
4.050806e-01
4.044285e-01
4.035869e-01
4.020332e-01
3.994493e-01
3.958417e-01
3.915341e-01
3.870399e-01
3.828672e-01
3.793460e-01
3.765664e-01
3.744390e-01
3.727968e-01
3.714353e-01
3.700783e-01
3.683810e-01
3.660616e-01
3.630872e-01
3.597203e-01
3.563386e-01
3.531648e-01
3.501214e-01
3.468915e-01
3.431089e-01
3.385497e-01
3.332126e-01
3.272601e-01
3.208981e-01
3.142971e-01
3.075858e-01
3.008778e-01
2.942855e-01
2.879222e-01
2.819113e-01
2.763945e-01
2.714989e-01
2.672629e-01
2.635954e-01
2.603106e-01
2.571953e-01
2.540607e-01
2.507855e-01
2.473386e-01
2.437380e-01
2.399852e-01
2.360689e-01
2.320512e-01
2.281311e-01
2.245828e-01
2.215822e-01
2.190459e-01
2.166146e-01
2.138186e-01
2.103283e-01
2.061189e-01
2.014381e-01
1.966210e-01
1.918964e-01
1.873067e-01
1.827436e-01
1.780176e-01
1.729069e-01
1.671923e-01
1.607079e-01
1.534070e-01
1.454153e-01
1.370447e-01
1.287386e-01
1.209382e-01
1.139269e-01
1.077614e-01
1.023332e-01
9.749685e-02
9.316070e-02
8.928617e-02
8.582023e-02
8.265379e-02
7.966253e-02
7.677457e-02
7.397132e-02
7.122511e-02
6.846028e-02
6.557773e-02
6.249584e-02
5.916085e-02
5.553425e-02
5.158214e-02
4.727479e-02
4.260011e-02
3.759527e-02
3.237517e-02
2.711641e-02
2.199751e-02
1.714717e-02
1.262898e-02
8.436410e-03
4.486463e-03
6.571791e-04
-3.105048e-03
-6.690004e-03
-9.864899e-03
-1.244969e-02
-1.446768e-02
-1.613315e-02
-1.769982e-02
-1.930725e-02
-2.094622e-02
-2.255337e-02
-2.412794e-02
-2.574899e-02
-2.748812e-02
-2.933154e-02
-3.120640e-02
-3.308207e-02
-3.503853e-02
-3.723594e-02
-3.981957e-02
-4.284415e-02
-4.625919e-02
-4.992959e-02
-5.365216e-02
-5.717040e-02
-6.022396e-02
-6.264282e-02
-6.442979e-02
-6.575285e-02
-6.684061e-02
-6.787223e-02
-6.895536e-02
-7.017988e-02
-7.165293e-02
-7.347591e-02
-7.572180e-02
-7.845158e-02
-8.172797e-02
-8.560226e-02
-9.010912e-02
-9.526073e-02
-1.009836e-01
-1.070362e-01
-1.130359e-01
-1.186097e-01
-1.235294e-01
-1.277377e-01
-1.313265e-01
-1.345244e-01
-1.376531e-01
-1.410206e-01
-1.448202e-01
-1.491378e-01
-1.540422e-01
-1.596390e-01
-1.660236e-01
-1.732042e-01
-1.810892e-01
-1.895565e-01
-1.985390e-01
-2.080559e-01
-2.181803e-01
-2.289816e-01
-2.404791e-01
-2.526037e-01
-2.651543e-01
-2.777870e-01
-2.900864e-01
-3.016997e-01
-3.124401e-01
-3.223126e-01
-3.314925e-01
-3.402659e-01
-3.489081e-01
-3.575405e-01
-3.660885e-01
-3.743940e-01
-3.823652e-01
-3.900164e-01
-3.973917e-01
-4.044822e-01
-4.112067e-01
-4.174515e-01
-4.231329e-01
-4.282513e-01
-4.329033e-01
-4.372423e-01
-4.414364e-01
-4.456648e-01
-4.501167e-01
-4.549369e-01
-4.601298e-01
-4.655037e-01
-4.707250e-01
-4.754703e-01
-4.795788e-01
-4.831061e-01
-4.862706e-01
-4.893506e-01
-4.925797e-01
-4.960690e-01
-4.997904e-01
-5.036201e-01
-5.073866e-01
-5.109117e-01
-5.140891e-01
-5.169760e-01
-5.197901e-01
-5.227897e-01
-5.261453e-01
-5.298974e-01
-5.339927e-01
-5.383385e-01
-5.428393e-01
-5.474134e-01
-5.519942e-01
-5.565156e-01
-5.608910e-01
-5.650006e-01
-5.686981e-01
-5.718395e-01
-5.743275e-01
-5.761578e-01
-5.774592e-01
-5.785172e-01
-5.797486e-01
-5.816020e-01
-5.844135e-01
-5.882879e-01
-5.930557e-01
-5.983172e-01
-6.035756e-01
-6.084299e-01
-6.127398e-01
-6.166818e-01
-6.206750e-01
-6.252113e-01
-6.306616e-01
-6.371598e-01
-6.446174e-01
-6.528385e-01
-6.616519e-01
-6.709662e-01
-6.807115e-01
-6.907475e-01
-7.008552e-01
-7.108236e-01
-7.205228e-01
-7.298913e-01
-7.388735e-01
-7.473953e-01
-7.553989e-01
-7.629012e-01
-7.700325e-01
-7.770265e-01
-7.841469e-01
-7.915765e-01
-7.993464e-01
-8.073577e-01
-8.154635e-01
-8.235261e-01
-8.314047e-01
-8.389130e-01
-8.458220e-01
-8.519479e-01
-8.572680e-01
-8.619648e-01
-8.663431e-01
-8.706784e-01
-8.751227e-01
-8.797369e-01
-8.845835e-01
-8.897483e-01
-8.952579e-01
-9.010122e-01
-9.068493e-01
-9.126939e-01
-9.186222e-01
-9.247565e-01
-9.310920e-01
-9.374201e-01
-9.434141e-01
-9.487971e-01
-9.534626e-01
-9.574799e-01
-9.610269e-01
-9.643238e-01
-9.675974e-01
-9.710542e-01
-9.748393e-01
-9.789941e-01
-9.834545e-01
-9.881105e-01
-9.928927e-01
-9.978122e-01
-1.002919e+00
-1.008223e+00
-1.013661e+00
-1.019123e+00
-1.024493e+00
-1.029652e+00
-1.034460e+00
-1.038758e+00
-1.042432e+00
-1.045503e+00
-1.048167e+00
-1.050728e+00
-1.053485e+00
-1.056651e+00
-1.060348e+00
-1.064644e+00
-1.069563e+00
-1.075092e+00
-1.081200e+00
-1.087860e+00
-1.095045e+00
-1.102708e+00
-1.110757e+00
-1.119055e+00
-1.127436e+00
-1.135746e+00
-1.143894e+00
-1.151860e+00
-1.159673e+00
-1.167388e+00
-1.175077e+00
-1.182812e+00
-1.190642e+00
-1.198556e+00
-1.206485e+00
-1.214331e+00
-1.222002e+00
-1.229434e+00
-1.236598e+00
-1.243502e+00
-1.250185e+00
-1.256712e+00
-1.263182e+00
-1.269712e+00
-1.276420e+00
-1.283402e+00
-1.290705e+00
-1.298325e+00
-1.306216e+00
-1.314309e+00
-1.322527e+00
-1.330777e+00
-1.338960e+00
-1.347039e+00
-1.355116e+00
-1.363413e+00
-1.372141e+00
-1.381363e+00
-1.390963e+00
-1.400742e+00
-1.410542e+00
-1.420311e+00
-1.430082e+00
-1.439905e+00
-1.449762e+00
-1.459538e+00
-1.469060e+00
-1.478155e+00
-1.486686e+00
-1.494577e+00
-1.501849e+00
-1.508622e+00
-1.515073e+00
-1.521368e+00
-1.527650e+00
-1.534035e+00
-1.540619e+00
-1.547450e+00
-1.554517e+00
-1.561754e+00
-1.569089e+00
-1.576469e+00
-1.583865e+00
-1.591226e+00
-1.598448e+00
-1.605387e+00
-1.611902e+00
-1.617885e+00
-1.623276e+00
-1.628058e+00
-1.632239e+00
-1.635840e+00
-1.638890e+00
-1.641452e+00
-1.643624e+00
-1.645528e+00
-1.647271e+00
-1.648920e+00
-1.650514e+00
-1.652082e+00
-1.653662e+00
-1.655292e+00
-1.656972e+00
-1.658641e+00
-1.660160e+00
-1.661328e+00
-1.661928e+00
-1.661816e+00
-1.660992e+00
-1.659624e+00
-1.658004e+00
-1.656475e+00
-1.655343e+00
-1.654776e+00
-1.654740e+00
-1.655042e+00
-1.655459e+00
-1.655850e+00
-1.656163e+00
-1.656373e+00
-1.656416e+00
-1.656200e+00
-1.655656e+00
-1.654786e+00
-1.653673e+00
-1.652455e+00
-1.651271e+00
-1.650195e+00
-1.649213e+00
-1.648243e+00
-1.647183e+00
-1.645933e+00
-1.644416e+00
-1.642601e+00
-1.640538e+00
-1.638344e+00
-1.636155e+00
-1.634090e+00
-1.632248e+00
-1.630720e+00
-1.629573e+00
-1.628817e+00
-1.628380e+00
-1.628139e+00
-1.627959e+00
-1.627726e+00
-1.627365e+00
-1.626849e+00
-1.626188e+00
-1.625412e+00
-1.624540e+00
-1.623593e+00
-1.622597e+00
-1.621562e+00
-1.620469e+00
-1.619285e+00
-1.618018e+00
-1.616736e+00
-1.615534e+00
-1.614472e+00
-1.613547e+00
-1.612729e+00
-1.612011e+00
-1.611444e+00
-1.611104e+00
-1.611038e+00
-1.611218e+00
-1.611557e+00
-1.611945e+00
-1.612293e+00
-1.612546e+00
-1.612663e+00
-1.612575e+00
-1.612186e+00
-1.611415e+00
-1.610265e+00
-1.608835e+00
-1.607304e+00
-1.605885e+00
-1.604775e+00
-1.604106e+00
-1.603892e+00
-1.603995e+00
-1.604140e+00
-1.603964e+00
-1.603123e+00
-1.601375e+00
-1.598601e+00
-1.594779e+00
-1.589960e+00
-1.584267e+00
-1.577900e+00
-1.571108e+00
-1.564154e+00
-1.557256e+00
-1.550537e+00
-1.543990e+00
-1.537479e+00
-1.530794e+00
-1.523743e+00
-1.516232e+00
-1.508271e+00
-1.499922e+00
-1.491225e+00
-1.482177e+00
-1.472744e+00
-1.462883e+00
-1.452580e+00
-1.441890e+00
-1.430965e+00
-1.420023e+00
-1.409292e+00
-1.398953e+00
-1.389120e+00
-1.379842e+00
-1.371117e+00
-1.362891e+00
-1.355052e+00
-1.347434e+00
-1.339856e+00
-1.332171e+00
-1.324320e+00
-1.316314e+00
-1.308181e+00
-1.299906e+00
-1.291431e+00
-1.282693e+00
-1.273682e+00
-1.264455e+00
-1.255091e+00
-1.245649e+00
-1.236170e+00
-1.226721e+00
-1.217419e+00
-1.208412e+00
-1.199810e+00
-1.191641e+00
-1.183840e+00
-1.176284e+00
-1.168858e+00
-1.161497e+00
-1.154201e+00
-1.147023e+00
-1.140039e+00
-1.133309e+00
-1.126843e+00
-1.120598e+00
-1.114519e+00
-1.108592e+00
-1.102853e+00
-1.097360e+00
-1.092145e+00
-1.087180e+00
-1.082385e+00
-1.077663e+00
-1.072966e+00
-1.068314e+00
-1.063775e+00
-1.059403e+00
-1.055186e+00
-1.051044e+00
-1.046867e+00
-1.042558e+00
-1.038044e+00
-1.033272e+00
-1.028212e+00
-1.022859e+00
-1.017240e+00
-1.011397e+00
-1.005375e+00
-9.991948e-01
-9.928432e-01
-9.862596e-01
-9.793509e-01
-9.720222e-01
-9.642124e-01
-9.559183e-01
-9.471959e-01
-9.381398e-01
-9.288486e-01
-9.193977e-01
-9.098300e-01
-9.001643e-01
-8.904103e-01
-8.805790e-01
-8.706858e-01
-8.607511e-01
-8.507968e-01
-8.408404e-01
-8.308844e-01
-8.209081e-01
-8.108680e-01
-8.007116e-01
-7.904052e-01
-7.799614e-01
-7.694444e-01
-7.589456e-01
-7.485496e-01
-7.383108e-01
-7.282472e-01
-7.183426e-01
-7.085583e-01
-6.988562e-01
-6.892238e-01
-6.796786e-01
-6.702459e-01
-6.609267e-01
-6.516765e-01
-6.424088e-01
-6.330186e-01
-6.234161e-01
-6.135584e-01
-6.034683e-01
-5.932284e-01
-5.829553e-01
-5.727659e-01
-5.627470e-01
-5.529307e-01
-5.432842e-01
-5.337224e-01
-5.241424e-01
-5.144612e-01
-5.046329e-01
-4.946437e-01
-4.844972e-01
-4.741992e-01
-4.637438e-01
-4.530999e-01
-4.422034e-01
-4.309632e-01
-4.192939e-01
-4.071613e-01
-3.946043e-01
-3.817132e-01
-3.685865e-01
-3.553051e-01
-3.419371e-01
-3.285505e-01
-3.152097e-01
-3.019493e-01
-2.887429e-01
-2.754929e-01
-2.620588e-01
-2.483110e-01
-2.341686e-01
-2.195988e-01
-2.045919e-01
-1.891482e-01
-1.732922e-01
-1.570877e-01
-1.406236e-01
-1.239795e-01
-1.072115e-01
-9.036325e-02
-7.346846e-02
-5.653659e-02
-3.954872e-02
-2.248169e-02
-5.342366e-03
1.182088e-02
2.893563e-02
4.592667e-02
6.271701e-02
7.921322e-02
9.530394e-02
1.108904e-01
1.259298e-01
1.404514e-01
1.545327e-01
1.682630e-01
1.817268e-01
1.950037e-01
2.081678e-01
2.212756e-01
2.343429e-01
2.473282e-01
2.601345e-01
2.726366e-01
2.847224e-01
2.963359e-01
3.074992e-01
3.183000e-01
3.288509e-01
3.392465e-01
3.495361e-01
3.597225e-01
3.697878e-01
3.797317e-01
3.895925e-01
3.994402e-01
4.093516e-01
4.193824e-01
4.295495e-01
4.398310e-01
4.501886e-01
4.605984e-01
4.710664e-01
4.816180e-01
4.922728e-01
5.030307e-01
5.138754e-01
5.247898e-01
5.357681e-01
5.468117e-01
5.579140e-01
5.690514e-01
5.801933e-01
5.913261e-01
6.024658e-01
6.136482e-01
6.249066e-01
6.362533e-01
6.476652e-01
6.590730e-01
6.703628e-01
6.813920e-01
6.920183e-01
7.021309e-01
7.116727e-01
7.206520e-01
7.291446e-01
7.372764e-01
7.451895e-01
7.530159e-01
7.608751e-01
7.688771e-01
7.771085e-01
7.856134e-01
7.943865e-01
8.033797e-01
8.125191e-01
8.217352e-01
8.309960e-01
8.403198e-01
8.497596e-01
8.593661e-01
8.691570e-01
8.791143e-01
8.892112e-01
8.994449e-01
9.098433e-01
9.204387e-01
9.312320e-01
9.421773e-01
9.531887e-01
9.641545e-01
9.749555e-01
9.854903e-01
9.956987e-01
1.005570e+00
1.015134e+00
1.024449e+00
1.033587e+00
1.042612e+00
1.051566e+00
1.060459e+00
1.069275e+00
1.078003e+00
1.086655e+00
1.095261e+00
1.103860e+00
1.112476e+00
1.121111e+00
1.129742e+00
1.138324e+00
1.146814e+00
1.155187e+00
1.163455e+00
1.171629e+00
1.179683e+00
1.187530e+00
1.195042e+00
1.202107e+00
1.208688e+00
1.214838e+00
1.220676e+00
1.226348e+00
1.231981e+00
1.237658e+00
1.243428e+00
1.249311e+00
1.255311e+00
1.261417e+00
1.267609e+00
1.273870e+00
1.280169e+00
1.286450e+00
1.292619e+00
1.298557e+00
1.304146e+00
1.309295e+00
1.313966e+00
1.318183e+00
1.322028e+00
1.325603e+00
1.328992e+00
1.332234e+00
1.335323e+00
1.338238e+00
1.340951e+00
