EVENT_NAME: EMILIA_2ND_SHOCK
EVENT_ID: IT-2012-0011
EVENT_DATE_YYYYMMDD: 20120529
EVENT_TIME_HHMMSS: 070002
EVENT_LATITUDE_DEGREE: 44.8417
EVENT_LONGITUDE_DEGREE: 11.0657
EVENT_DEPTH_KM: 8.1
HYPOCENTER_REFERENCE: INGV-CNT_Seismic_Bulletin
MAGNITUDE_W: 6.0
MAGNITUDE_W_REFERENCE: RCMT-INGV
MAGNITUDE_L: 5.8
MAGNITUDE_L_REFERENCE: INGV-CNT_Seismic_Bulletin
FOCAL_MECHANISM: TF
NETWORK: TV
STATION_CODE: MIR08
STATION_NAME: QUARANTOLI 2
STATION_LATITUDE_DEGREE: 44.916900
STATION_LONGITUDE_DEGREE: 11.089500
STATION_ELEVATION_M: 
LOCATION: 
SENSOR_DEPTH_M: 
VS30_M/S: 
SITE_CLASSIFICATION_EC8: C*
MORPHOLOGIC_CLASSIFICATION: 
EPICENTRAL_DISTANCE_KM: 8.6
EARTHQUAKE_BACKAZIMUTH_DEGREE: 192.7
DATE_TIME_FIRST_SAMPLE_YYYYMMDD_HHMMSS: 20120529_065929.000
DATE_TIME_FIRST_SAMPLE_PRECISION: milliseconds
SAMPLING_INTERVAL_S: 0.005000
NDATA: 105
DURATION_S: 
STREAM: HNZ
UNITS: cm/s^2
INSTRUMENT: sensor = Episensor FBA ES-T [Kinemetrics] | digitizer = Unknown [Unknown]
INSTRUMENT_ANALOG/DIGITAL: D
INSTRUMENTAL_FREQUENCY_HZ: 
INSTRUMENTAL_DAMPING: 
FULL_SCALE_G: 
N_BIT_DIGITAL_CONVERTER: 
PGA_CM/S^2: -306.674131
TIME_PGA_S: 39.060000
BASELINE_CORRECTION: BASELINE REMOVED
FILTER_TYPE: BUTTERWORTH
FILTER_ORDER: 2
LOW_CUT_FREQUENCY_HZ: 0.050
HIGH_CUT_FREQUENCY_HZ: 40.000
LATE/NORMAL_TRIGGERED: NT
DATABASE_VERSION: DYNA 1.0
HEADER_FORMAT: DYNA 1.2
DATA_TYPE: ACCELERATION RESPONSE SPECTRUM
PROCESSING: manual (Paolucci et al., 2011)
DATA_TIMESTAMP_YYYYMMDD_HHMMSS: 
DATA_LICENSE: CC-BY4_0 (http://creativecommons.org/licenses/by/4.0/)
DATA_CITATION: ESM working group (2015), European Strong-Motion database, version 0.1, Network Activity 3: Networking acceleration networks and SM data users. Project NERA (www.nera-eu.org)
DATA_CREATOR: ESM working group
ORIGINAL_DATA_MEDIATOR_CITATION: Orfeus - European Integrated Data Archive (EIDA) http://www.orfeus-eu.org/eida/
ORIGINAL_DATA_MEDIATOR: Orfeus - European Integrated Data Archive (EIDA)
ORIGINAL_DATA_CREATOR_CITATION: 
ORIGINAL_DATA_CREATOR: network: TV (INGV Experiments Network); owner: Istituto Nazionale di Geofisica e Vulcanologia
USER1: 
USER2: 
USER3: 
USER4: 
USER5: 
    0.010000   306.864441
    0.020000   337.676941
    0.022000   365.931061
    0.025000   379.482178
    0.029000   548.799683
    0.030000   530.621460
    0.032000   531.055603
    0.035001   721.501221
    0.036000   770.156189
    0.040000  1062.351807
    0.041999  1015.773926
    0.044001   823.925049
    0.045000   799.568237
    0.046000   759.442505
    0.048001   765.454102
    0.050000   792.024353
    0.054999   750.992249
    0.059999   808.107422
    0.064998  1010.001343
    0.067002   924.538452
    0.069999   913.152283
    0.075002  1187.158325
    0.080000  1027.950195
    0.084998   976.153687
    0.090001   774.660706
    0.095003   625.704346
    0.100000   772.043640
    0.109999   750.591309
    0.120005   691.472595
    0.130005   702.169006
    0.132996   712.669983
    0.139997   658.143250
    0.149993   652.388306
    0.160000   507.285004
    0.170010   450.768097
    0.179986   439.817444
    0.190006   447.893677
    0.200000   412.683807
    0.220022   378.570099
    0.239981   299.320038
    0.250000   237.808792
    0.260010   248.213654
    0.280034   236.107605
    0.290023   228.798599
    0.300030   217.498566
    0.320000   182.488190
    0.340020   206.441605
    0.350017   216.894028
    0.359971   220.222687
    0.379939   229.022278
    0.400000   226.175781
    0.419992   218.746216
    0.439947   199.885590
    0.450045   192.128021
    0.459982   185.734009
    0.480077   174.196060
    0.500000   163.322754
    0.550055   125.555893
    0.599880   125.235634
    0.650195    90.767220
    0.667111    76.215347
    0.699790    63.339058
    0.750188    66.888870
    0.800000    64.884315
    0.850340    60.728313
    0.900090    50.980064
    0.949668    41.794060
    1.000000    33.622105
    1.100110    30.974609
    1.200480    28.159025
    1.300390    31.538660
    1.400560    33.105862
    1.499250    34.628403
    1.600000    45.553608
    1.700680    58.072578
    1.798561    59.228218
    1.901141    60.042210
    2.000000    54.471241
    2.197802    39.878109
    2.398082    51.412033
    2.500000    55.182697
    2.597403    53.731518
    2.801121    44.651497
    3.003003    30.939020
    3.205128    24.257486
    3.401361    22.047470
    3.496503    20.876650
    3.597122    19.580381
    3.802281    17.075422
    4.000000    14.895584
    4.201681    14.152646
    4.405286    14.398683
    4.608295    13.351175
    4.807692    12.056307
    5.000000    11.868348
    5.494505    10.256004
    5.988024     7.688564
    6.493506     6.970036
    6.993007     5.999524
    7.518797     5.016787
    8.000000     4.052757
    8.474576     3.174492
    9.009009     2.473548
    9.523809     2.105549
   10.000000     1.889259
