EVENT_NAME: EMILIA_2ND_SHOCK
EVENT_ID: IT-2012-0011
EVENT_DATE_YYYYMMDD: 20120529
EVENT_TIME_HHMMSS: 070002
EVENT_LATITUDE_DEGREE: 44.8417
EVENT_LONGITUDE_DEGREE: 11.0657
EVENT_DEPTH_KM: 8.1
HYPOCENTER_REFERENCE: INGV-CNT_Seismic_Bulletin
MAGNITUDE_W: 6.0
MAGNITUDE_W_REFERENCE: RCMT-INGV
MAGNITUDE_L: 5.8
MAGNITUDE_L_REFERENCE: INGV-CNT_Seismic_Bulletin
FOCAL_MECHANISM: TF
NETWORK: TV
STATION_CODE: MIR01
STATION_NAME: MEDOLLA
STATION_LATITUDE_DEGREE: 44.844042
STATION_LONGITUDE_DEGREE: 11.071316
STATION_ELEVATION_M: 
LOCATION: 
SENSOR_DEPTH_M: 
VS30_M/S: 
SITE_CLASSIFICATION_EC8: C*
MORPHOLOGIC_CLASSIFICATION: 
EPICENTRAL_DISTANCE_KM: 0.5
EARTHQUAKE_BACKAZIMUTH_DEGREE: 239.6
DATE_TIME_FIRST_SAMPLE_YYYYMMDD_HHMMSS: 20120529_065945.000
DATE_TIME_FIRST_SAMPLE_PRECISION: milliseconds
SAMPLING_INTERVAL_S: 0.005000
NDATA: 105
DURATION_S: 
STREAM: HNN
UNITS: cm/s^2
INSTRUMENT: sensor = Episensor FBA ES-T [Kinemetrics] | digitizer = Unknown [Unknown]
INSTRUMENT_ANALOG/DIGITAL: D
INSTRUMENTAL_FREQUENCY_HZ: 
INSTRUMENTAL_DAMPING: 
FULL_SCALE_G: 
N_BIT_DIGITAL_CONVERTER: 
PGV_CM/S: 52.382421
TIME_PGV_S: 24.210000
BASELINE_CORRECTION: BASELINE REMOVED
FILTER_TYPE: BUTTERWORTH
FILTER_ORDER: 2
LOW_CUT_FREQUENCY_HZ: 0.050
HIGH_CUT_FREQUENCY_HZ: 40.000
LATE/NORMAL_TRIGGERED: NT
DATABASE_VERSION: DYNA 1.0
HEADER_FORMAT: DYNA 1.2
DATA_TYPE: PSEUDO-VELOCITY RESPONSE SPECTRUM
PROCESSING: manual (Paolucci et al., 2011)
DATA_TIMESTAMP_YYYYMMDD_HHMMSS: 
DATA_LICENSE: CC-BY4_0 (http://creativecommons.org/licenses/by/4.0/)
DATA_CITATION: ESM working group (2015), European Strong-Motion database, version 0.1, Network Activity 3: Networking acceleration networks and SM data users. Project NERA (www.nera-eu.org)
DATA_CREATOR: ESM working group
ORIGINAL_DATA_MEDIATOR_CITATION: Orfeus - European Integrated Data Archive (EIDA) http://www.orfeus-eu.org/eida/
ORIGINAL_DATA_MEDIATOR: Orfeus - European Integrated Data Archive (EIDA)
ORIGINAL_DATA_CREATOR_CITATION: 
ORIGINAL_DATA_CREATOR: network: TV (INGV Experiments Network); owner: Istituto Nazionale di Geofisica e Vulcanologia
USER1: 
USER2: 
USER3: 
USER4: 
USER5: 
    0.010000     0.596392
    0.020000     1.204293
    0.022000     1.327559
    0.025000     1.526524
    0.029000     1.814240
    0.030000     1.898382
    0.032000     2.044920
    0.035001     2.268743
    0.036000     2.355419
    0.040000     2.731277
    0.041999     2.917288
    0.044001     3.205439
    0.045000     3.304879
    0.046000     3.388998
    0.048001     3.516176
    0.050000     3.514846
    0.054999     3.891747
    0.059999     5.043937
    0.064998     5.860535
    0.067002     6.215898
    0.069999     6.915047
    0.075002     7.583364
    0.080000     6.393494
    0.084998     6.377710
    0.090001     8.895821
    0.095003    10.882306
    0.100000    10.781696
    0.109999    10.976033
    0.120005    14.091805
    0.130005    15.909253
    0.132996    16.498995
    0.139997    16.895226
    0.149993    14.672221
    0.160000    15.434887
    0.170010    18.845884
    0.179986    27.058334
    0.190006    29.182413
    0.200000    30.564333
    0.220022    27.784512
    0.239981    36.655556
    0.250000    35.667236
    0.260010    41.291328
    0.280034    50.933693
    0.290023    58.835934
    0.300030    64.155113
    0.320000    60.708000
    0.340020    59.209854
    0.350017    63.255470
    0.359971    66.559090
    0.379939    60.055538
    0.400000    43.571423
    0.419992    35.900803
    0.439947    36.298725
    0.450045    36.057686
    0.459982    35.652512
    0.480077    34.709438
    0.500000    40.244930
    0.550055    52.833298
    0.599880    55.744583
    0.650195    75.825478
    0.667111    78.308800
    0.699790    75.188759
    0.750188    58.854160
    0.800000    42.315491
    0.850340    38.102242
    0.900090    42.536057
    0.949668    47.913773
    1.000000    51.039577
    1.100110    56.024578
    1.200480    67.109840
    1.300390    81.944435
    1.400560    97.884300
    1.499250   110.602203
    1.600000   117.563637
    1.700680   119.919701
    1.798561   121.626015
    1.901141   123.493156
    2.000000   123.941795
    2.197802   120.367798
    2.398082   112.470337
    2.500000   108.760757
    2.597403   106.545280
    2.801121   100.007126
    3.003003    92.174355
    3.205128    83.776436
    3.401361    75.014549
    3.496503    70.604668
    3.597122    66.234825
    3.802281    57.759361
    4.000000    51.816853
    4.201681    50.070141
    4.405286    48.182354
    4.608295    46.231209
    4.807692    44.273781
    5.000000    42.347359
    5.494505    37.826527
    5.988024    33.839542
    6.493506    30.401958
    6.993007    27.463274
    7.518797    24.955414
    8.000000    22.812145
    8.474576    20.969511
    9.009009    19.376459
    9.523809    17.991213
   10.000000    16.776527
