EVENT_NAME: EMILIA_2ND_SHOCK
EVENT_ID: IT-2012-0011
EVENT_DATE_YYYYMMDD: 20120529
EVENT_TIME_HHMMSS: 070002
EVENT_LATITUDE_DEGREE: 44.8417
EVENT_LONGITUDE_DEGREE: 11.0657
EVENT_DEPTH_KM: 8.1
HYPOCENTER_REFERENCE: INGV-CNT_Seismic_Bulletin
MAGNITUDE_W: 6.0
MAGNITUDE_W_REFERENCE: RCMT-INGV
MAGNITUDE_L: 5.8
MAGNITUDE_L_REFERENCE: INGV-CNT_Seismic_Bulletin
FOCAL_MECHANISM: TF
NETWORK: TV
STATION_CODE: MIR02
STATION_NAME: MIRANDOLA MRN
STATION_LATITUDE_DEGREE: 44.886948
STATION_LONGITUDE_DEGREE: 11.073198
STATION_ELEVATION_M: 
LOCATION: 
SENSOR_DEPTH_M: 
VS30_M/S: 
SITE_CLASSIFICATION_EC8: C*
MORPHOLOGIC_CLASSIFICATION: 
EPICENTRAL_DISTANCE_KM: 5.1
EARTHQUAKE_BACKAZIMUTH_DEGREE: 186.7
DATE_TIME_FIRST_SAMPLE_YYYYMMDD_HHMMSS: 20120529_065950.000
DATE_TIME_FIRST_SAMPLE_PRECISION: milliseconds
SAMPLING_INTERVAL_S: 0.005000
NDATA: 12601
DURATION_S: 63.005
STREAM: HNN
UNITS: cm
INSTRUMENT: sensor = Episensor FBA ES-T [Kinemetrics] | digitizer = Unknown [Unknown]
INSTRUMENT_ANALOG/DIGITAL: D
INSTRUMENTAL_FREQUENCY_HZ: 
INSTRUMENTAL_DAMPING: 
FULL_SCALE_G: 
N_BIT_DIGITAL_CONVERTER: 
PGD_CM: 15.479486
TIME_PGD_S: 18.890000
BASELINE_CORRECTION: BASELINE REMOVED
FILTER_TYPE: BUTTERWORTH
FILTER_ORDER: 2
LOW_CUT_FREQUENCY_HZ: 0.050
HIGH_CUT_FREQUENCY_HZ: 40.000
LATE/NORMAL_TRIGGERED: NT
DATABASE_VERSION: DYNA 1.0
HEADER_FORMAT: DYNA 1.2
DATA_TYPE: DISPLACEMENT
PROCESSING: manual (Paolucci et al., 2011)
DATA_TIMESTAMP_YYYYMMDD_HHMMSS: 20141028_094514.539
DATA_LICENSE: CC-BY4_0 (http://creativecommons.org/licenses/by/4.0/)
DATA_CITATION: ESM working group (2015), European Strong-Motion database, version 0.1, Network Activity 3: Networking acceleration networks and SM data users. Project NERA (www.nera-eu.org)
DATA_CREATOR: ESM working group
ORIGINAL_DATA_MEDIATOR_CITATION: Orfeus - European Integrated Data Archive (EIDA) http://www.orfeus-eu.org/eida/
ORIGINAL_DATA_MEDIATOR: Orfeus - European Integrated Data Archive (EIDA)
ORIGINAL_DATA_CREATOR_CITATION: 
ORIGINAL_DATA_CREATOR: network: TV (INGV Experiments Network); owner: Istituto Nazionale di Geofisica e Vulcanologia
USER1: /home/dyna/processing-itaca/processing.py /var/www/processing/tmp/Lucia//TV.MIR02..HNE.D.20120529.070003.X.ACC.ASC /var/www/processing/tmp/Lucia//TV.MIR02..HNN.D.20120529.070003.X.ACC.ASC /var/www/processing/tmp/Lucia//TV.MIR02..HNZ.D.20120529.070003.X.ACC.ASC --tmp /var/www/processing/tmp/Lucia/ --le 0.050 --he 40.000 --ln 0.050 --hn 40.000 --lz 0.050 --hz 40.000 --fo 2 --ca 50 --cz 180 --ta 5 --tz 5 --mf 1 --rf 0 --tr NT
USER2: 
USER3: 
USER4: 
USER5: 
[...]
-2.105381e+00
-2.108502e+00
-2.111624e+00
-2.114748e+00
-2.117874e+00
-2.121001e+00
-2.124129e+00
-2.127259e+00
-2.130391e+00
-2.133524e+00
-2.136659e+00
-2.139796e+00
-2.142935e+00
-2.146075e+00
-2.149217e+00
-2.152361e+00
-2.155507e+00
-2.158655e+00
-2.161805e+00
-2.164957e+00
-2.168112e+00
-2.171268e+00
-2.174426e+00
-2.177586e+00
-2.180748e+00
-2.183911e+00
-2.187076e+00
-2.190242e+00
-2.193410e+00
-2.196579e+00
-2.199749e+00
-2.202921e+00
-2.206095e+00
-2.209271e+00
-2.212448e+00
-2.215627e+00
-2.218807e+00
-2.221989e+00
-2.225172e+00
-2.228356e+00
-2.231541e+00
-2.234728e+00
-2.237916e+00
-2.241106e+00
-2.244298e+00
-2.247491e+00
-2.250686e+00
-2.253883e+00
-2.257081e+00
-2.260280e+00
-2.263481e+00
-2.266684e+00
-2.269888e+00
-2.273094e+00
-2.276301e+00
-2.279510e+00
-2.282721e+00
-2.285934e+00
-2.289148e+00
-2.292362e+00
-2.295578e+00
-2.298795e+00
-2.302013e+00
-2.305232e+00
-2.308453e+00
-2.311676e+00
-2.314900e+00
-2.318125e+00
-2.321351e+00
-2.324579e+00
-2.327809e+00
-2.331042e+00
-2.334277e+00
-2.337515e+00
-2.340754e+00
-2.343995e+00
-2.347237e+00
-2.350480e+00
-2.353724e+00
-2.356969e+00
-2.360216e+00
-2.363465e+00
-2.366715e+00
-2.369968e+00
-2.373222e+00
-2.376477e+00
-2.379734e+00
-2.382993e+00
-2.386254e+00
-2.389517e+00
-2.392780e+00
-2.396045e+00
-2.399310e+00
-2.402575e+00
-2.405842e+00
-2.409109e+00
-2.412378e+00
-2.415649e+00
-2.418921e+00
-2.422194e+00
-2.425470e+00
-2.428746e+00
-2.432025e+00
-2.435304e+00
-2.438584e+00
-2.441866e+00
-2.445148e+00
-2.448433e+00
-2.451718e+00
-2.455003e+00
-2.458290e+00
-2.461577e+00
-2.464866e+00
-2.468155e+00
-2.471446e+00
-2.474738e+00
-2.478031e+00
-2.481325e+00
-2.484621e+00
-2.487917e+00
-2.491216e+00
-2.494516e+00
-2.497818e+00
-2.501121e+00
-2.504426e+00
-2.507732e+00
-2.511039e+00
-2.514348e+00
-2.517659e+00
-2.520971e+00
-2.524284e+00
-2.527598e+00
-2.530912e+00
-2.534228e+00
-2.537544e+00
-2.540861e+00
-2.544180e+00
-2.547500e+00
-2.550822e+00
-2.554146e+00
-2.557469e+00
-2.560791e+00
-2.564109e+00
-2.567421e+00
-2.570726e+00
-2.574022e+00
-2.577308e+00
-2.580580e+00
-2.583833e+00
-2.587067e+00
-2.590281e+00
-2.593476e+00
-2.596649e+00
-2.599794e+00
-2.602910e+00
-2.605999e+00
-2.609065e+00
-2.612107e+00
-2.615112e+00
-2.618067e+00
-2.620970e+00
-2.623840e+00
-2.626707e+00
-2.629598e+00
-2.632509e+00
-2.635409e+00
-2.638262e+00
-2.641052e+00
-2.643801e+00
-2.646543e+00
-2.649293e+00
-2.652044e+00
-2.654794e+00
-2.657576e+00
-2.660436e+00
-2.663403e+00
-2.666448e+00
-2.669500e+00
-2.672497e+00
-2.675427e+00
-2.678341e+00
-2.681304e+00
-2.684346e+00
-2.687446e+00
-2.690559e+00
-2.693652e+00
-2.696721e+00
-2.699766e+00
-2.702766e+00
-2.705692e+00
-2.708557e+00
-2.711432e+00
-2.714415e+00
-2.717549e+00
-2.720784e+00
-2.724036e+00
-2.727255e+00
-2.730435e+00
-2.733577e+00
-2.736668e+00
-2.739687e+00
-2.742601e+00
-2.745378e+00
-2.748005e+00
-2.750501e+00
-2.752890e+00
-2.755183e+00
-2.757394e+00
-2.759585e+00
-2.761830e+00
-2.764155e+00
-2.766520e+00
-2.768892e+00
-2.771290e+00
-2.773759e+00
-2.776333e+00
-2.779020e+00
-2.781801e+00
-2.784644e+00
-2.787537e+00
-2.790473e+00
-2.793414e+00
-2.796272e+00
-2.798973e+00
-2.801518e+00
-2.803982e+00
-2.806456e+00
-2.809014e+00
-2.811703e+00
-2.814523e+00
-2.817431e+00
-2.820385e+00
-2.823392e+00
-2.826477e+00
-2.829626e+00
-2.832789e+00
-2.835929e+00
-2.839039e+00
-2.842093e+00
-2.845023e+00
-2.847760e+00
-2.850287e+00
-2.852660e+00
-2.854977e+00
-2.857317e+00
-2.859676e+00
-2.861964e+00
-2.864087e+00
-2.866051e+00
-2.867965e+00
-2.869957e+00
-2.872081e+00
-2.874310e+00
-2.876583e+00
-2.878849e+00
-2.881092e+00
-2.883312e+00
-2.885486e+00
-2.887558e+00
-2.889476e+00
-2.891231e+00
-2.892873e+00
-2.894471e+00
-2.896053e+00
-2.897612e+00
-2.899196e+00
-2.900928e+00
-2.902909e+00
-2.905130e+00
-2.907516e+00
-2.910020e+00
-2.912649e+00
-2.915405e+00
-2.918233e+00
-2.921024e+00
-2.923657e+00
-2.926032e+00
-2.928141e+00
-2.930092e+00
-2.932022e+00
-2.933957e+00
-2.935802e+00
-2.937475e+00
-2.939006e+00
-2.940509e+00
-2.942086e+00
-2.943776e+00
-2.945590e+00
-2.947543e+00
-2.949677e+00
-2.952025e+00
-2.954554e+00
-2.957102e+00
-2.959423e+00
-2.961346e+00
-2.962903e+00
-2.964286e+00
-2.965664e+00
-2.967055e+00
-2.968395e+00
-2.969699e+00
-2.971093e+00
-2.972688e+00
-2.974471e+00
-2.976317e+00
-2.978100e+00
-2.979795e+00
-2.981472e+00
-2.983171e+00
-2.984814e+00
-2.986270e+00
-2.987490e+00
-2.988553e+00
-2.989577e+00
-2.990604e+00
-2.991557e+00
-2.992336e+00
-2.992945e+00
-2.993504e+00
-2.994141e+00
-2.994910e+00
-2.995800e+00
-2.996786e+00
-2.997840e+00
-2.998951e+00
-3.000138e+00
-3.001404e+00
-3.002699e+00
-3.003931e+00
-3.005016e+00
-3.005895e+00
-3.006522e+00
-3.006827e+00
-3.006729e+00
-3.006219e+00
-3.005418e+00
-3.004521e+00
-3.003690e+00
-3.003017e+00
-3.002556e+00
-3.002338e+00
-3.002352e+00
-3.002558e+00
-3.002860e+00
-3.003051e+00
-3.002858e+00
-3.002090e+00
-3.000790e+00
-2.999254e+00
-2.997837e+00
-2.996695e+00
-2.995709e+00
-2.994646e+00
-2.993377e+00
-2.991938e+00
-2.990446e+00
-2.988964e+00
-2.987430e+00
-2.985719e+00
-2.983771e+00
-2.981677e+00
-2.979633e+00
-2.977809e+00
-2.976270e+00
-2.974987e+00
-2.973877e+00
-2.972806e+00
-2.971636e+00
-2.970316e+00
-2.968929e+00
-2.967630e+00
-2.966516e+00
-2.965569e+00
-2.964704e+00
-2.963848e+00
-2.962979e+00
-2.962185e+00
-2.961677e+00
-2.961657e+00
-2.962109e+00
-2.962747e+00
-2.963165e+00
-2.963058e+00
-2.962400e+00
-2.961451e+00
-2.960536e+00
-2.959749e+00
-2.958895e+00
-2.957736e+00
-2.956250e+00
-2.954656e+00
-2.953205e+00
-2.951975e+00
-2.950876e+00
-2.949780e+00
-2.948607e+00
-2.947336e+00
-2.946017e+00
-2.944700e+00
-2.943330e+00
-2.941758e+00
-2.939867e+00
-2.937607e+00
-2.934924e+00
-2.931721e+00
-2.927909e+00
-2.923562e+00
-2.918995e+00
-2.914652e+00
-2.910899e+00
-2.907909e+00
-2.905690e+00
-2.904169e+00
-2.903232e+00
-2.902664e+00
-2.902078e+00
-2.901037e+00
-2.899315e+00
-2.896998e+00
-2.894291e+00
-2.891301e+00
-2.888009e+00
-2.884364e+00
-2.880357e+00
-2.876114e+00
-2.871920e+00
-2.868060e+00
-2.864603e+00
-2.861372e+00
-2.858102e+00
-2.854606e+00
-2.850842e+00
-2.846912e+00
-2.842975e+00
-2.839118e+00
-2.835255e+00
-2.831134e+00
-2.826431e+00
-2.820894e+00
-2.814465e+00
-2.807306e+00
-2.799765e+00
-2.792290e+00
-2.785268e+00
-2.778831e+00
-2.772860e+00
-2.767168e+00
-2.761645e+00
-2.756212e+00
-2.750720e+00
-2.744924e+00
-2.738586e+00
-2.731646e+00
-2.724311e+00
-2.716937e+00
-2.709825e+00
-2.703125e+00
-2.696905e+00
-2.691233e+00
-2.686159e+00
-2.681603e+00
-2.677352e+00
-2.673202e+00
-2.669063e+00
-2.664840e+00
-2.660302e+00
-2.655174e+00
-2.649366e+00
-2.643138e+00
-2.637066e+00
-2.631741e+00
-2.627309e+00
-2.623290e+00
-2.618889e+00
-2.613468e+00
-2.606842e+00
-2.599272e+00
-2.591193e+00
-2.582827e+00
-2.574016e+00
-2.564374e+00
-2.553608e+00
-2.541878e+00
-2.529827e+00
-2.518143e+00
-2.506999e+00
-2.495955e+00
-2.484356e+00
-2.471783e+00
-2.458209e+00
-2.443965e+00
-2.429600e+00
-2.415606e+00
-2.402200e+00
-2.389421e+00
-2.377304e+00
-2.365824e+00
-2.354804e+00
-2.343949e+00
-2.333022e+00
-2.322038e+00
-2.311285e+00
-2.301113e+00
-2.291793e+00
-2.283500e+00
-2.276163e+00
-2.269232e+00
-2.261743e+00
-2.252704e+00
-2.241459e+00
-2.227902e+00
-2.212532e+00
-2.196275e+00
-2.180152e+00
-2.164954e+00
-2.150930e+00
-2.137630e+00
-2.124212e+00
-2.110100e+00
-2.095330e+00
-2.080309e+00
-2.065352e+00
-2.050464e+00
-2.035442e+00
-2.020072e+00
-2.004205e+00
-1.987782e+00
-1.970856e+00
-1.953454e+00
-1.935377e+00
-1.916259e+00
-1.895860e+00
-1.874285e+00
-1.851946e+00
-1.829331e+00
-1.806722e+00
-1.784105e+00
-1.761321e+00
-1.738235e+00
-1.714731e+00
-1.690727e+00
-1.666328e+00
-1.641860e+00
-1.617741e+00
-1.594458e+00
-1.572419e+00
-1.551609e+00
-1.531615e+00
-1.512053e+00
-1.492645e+00
-1.472936e+00
-1.452362e+00
-1.430635e+00
-1.407835e+00
-1.384176e+00
-1.359778e+00
-1.334657e+00
-1.308908e+00
-1.282783e+00
-1.256599e+00
-1.230573e+00
-1.204604e+00
-1.178180e+00
-1.150744e+00
-1.122198e+00
-1.092926e+00
-1.063443e+00
-1.034089e+00
-1.004796e+00
-9.750229e-01
-9.441924e-01
-9.123004e-01
-8.798600e-01
-8.472192e-01
-8.142309e-01
-7.806712e-01
-7.467634e-01
-7.132295e-01
-6.809861e-01
-6.507540e-01
-6.226255e-01
-5.957665e-01
-5.686057e-01
-5.395140e-01
-5.075171e-01
-4.726001e-01
-4.355531e-01
-3.975877e-01
-3.598721e-01
-3.230706e-01
-2.870820e-01
-2.511670e-01
-2.144428e-01
-1.764545e-01
-1.373444e-01
-9.738303e-02
-5.641522e-02
-1.403284e-02
2.976988e-02
7.445084e-02
1.193461e-01
1.639301e-01
2.078463e-01
2.510847e-01
2.941451e-01
3.378607e-01
3.829620e-01
4.296614e-01
4.774673e-01
5.253324e-01
5.721339e-01
6.172923e-01
6.611241e-01
7.046518e-01
7.489997e-01
7.948135e-01
8.421500e-01
8.908123e-01
9.405368e-01
9.907960e-01
1.040792e+00
1.089966e+00
1.138420e+00
1.186726e+00
1.235487e+00
1.285243e+00
1.336567e+00
1.389927e+00
1.445425e+00
1.502770e+00
1.561493e+00
1.621113e+00
1.681164e+00
1.741262e+00
1.801279e+00
1.861379e+00
1.921852e+00
1.983048e+00
2.045354e+00
2.108986e+00
2.173782e+00
2.239205e+00
2.304528e+00
2.369187e+00
2.433075e+00
2.496390e+00
2.559305e+00
2.622001e+00
2.684815e+00
2.747924e+00
2.810908e+00
2.872779e+00
2.932322e+00
2.988407e+00
3.040247e+00
3.087590e+00
3.130696e+00
3.170158e+00
3.206693e+00
3.240935e+00
3.273234e+00
3.303574e+00
3.331764e+00
3.357760e+00
3.381746e+00
3.403847e+00
3.424004e+00
3.442289e+00
3.459273e+00
3.476043e+00
3.493842e+00
3.513462e+00
3.534816e+00
3.557229e+00
3.580214e+00
3.603886e+00
3.628765e+00
3.655484e+00
3.684652e+00
3.716677e+00
3.751617e+00
3.789200e+00
3.828881e+00
3.869848e+00
3.911250e+00
3.952573e+00
3.993698e+00
4.034638e+00
4.075356e+00
4.115704e+00
4.155259e+00
4.193213e+00
4.228582e+00
4.260609e+00
4.289031e+00
4.314062e+00
4.336163e+00
4.355847e+00
4.373712e+00
4.390533e+00
4.407115e+00
4.424052e+00
4.441696e+00
4.460274e+00
4.479923e+00
4.500691e+00
4.522568e+00
4.545523e+00
4.569576e+00
4.595040e+00
4.622689e+00
4.653418e+00
4.687607e+00
4.724939e+00
4.764921e+00
4.807407e+00
4.852492e+00
4.900046e+00
4.949531e+00
5.000209e+00
5.051500e+00
5.103254e+00
5.155777e+00
5.209609e+00
5.265286e+00
5.323246e+00
5.383659e+00
5.446154e+00
5.509846e+00
5.573784e+00
5.637341e+00
5.700252e+00
5.762496e+00
5.824252e+00
5.885968e+00
5.948287e+00
6.011806e+00
6.076907e+00
6.143747e+00
6.212272e+00
6.282291e+00
6.353641e+00
6.426269e+00
6.500102e+00
6.574926e+00
6.650422e+00
6.726248e+00
6.802031e+00
6.877372e+00
6.951944e+00
7.025617e+00
7.098598e+00
7.171507e+00
7.245172e+00
7.320174e+00
7.396573e+00
7.474019e+00
7.552054e+00
7.630404e+00
7.709074e+00
7.788127e+00
7.867464e+00
7.946995e+00
8.026965e+00
8.107979e+00
8.190763e+00
8.275915e+00
8.363747e+00
8.454270e+00
8.547373e+00
8.643009e+00
8.741075e+00
8.841026e+00
8.941679e+00
9.041517e+00
9.139215e+00
9.233936e+00
9.325352e+00
9.413537e+00
9.498825e+00
9.581619e+00
9.662151e+00
9.740309e+00
9.815635e+00
9.887471e+00
9.955174e+00
1.001829e+01
1.007663e+01
1.013021e+01
1.017912e+01
1.022348e+01
1.026345e+01
1.029919e+01
1.033078e+01
1.035818e+01
1.038145e+01
1.040096e+01
1.041763e+01
1.043291e+01
1.044857e+01
1.046637e+01
1.048778e+01
1.051376e+01
1.054457e+01
1.057971e+01
1.061799e+01
1.065780e+01
1.069743e+01
1.073551e+01
1.077143e+01
1.080550e+01
1.083859e+01
1.087172e+01
1.090573e+01
1.094130e+01
1.097873e+01
1.101786e+01
1.105811e+01
1.109868e+01
1.113866e+01
1.117703e+01
1.121279e+01
1.124514e+01
1.127370e+01
1.129844e+01
1.131954e+01
1.133747e+01
1.135315e+01
1.136806e+01
1.138396e+01
1.140243e+01
1.142452e+01
1.145066e+01
1.148094e+01
1.151542e+01
1.155421e+01
1.159734e+01
1.164465e+01
1.169585e+01
1.175068e+01
1.180910e+01
1.187132e+01
1.193762e+01
1.200810e+01
1.208255e+01
1.216072e+01
1.224253e+01
1.232798e+01
1.241697e+01
1.250953e+01
1.260599e+01
1.270670e+01
1.281180e+01
1.292121e+01
1.303486e+01
1.315263e+01
1.327397e+01
1.339780e+01
1.352248e+01
1.364616e+01
1.376703e+01
1.388360e+01
1.399496e+01
1.410074e+01
1.420095e+01
1.429565e+01
1.438499e+01
1.446934e+01
1.454925e+01
1.462528e+01
1.469779e+01
1.476685e+01
1.483259e+01
1.489535e+01
1.495559e+01
1.501364e+01
1.506942e+01
1.512258e+01
1.517273e+01
1.521962e+01
1.526306e+01
1.530287e+01
1.533868e+01
1.537009e+01
1.539677e+01
1.541870e+01
1.543622e+01
1.545004e+01
1.546094e+01
1.546948e+01
1.547568e+01
1.547915e+01
1.547949e+01
1.547657e+01
1.547048e+01
1.546128e+01
1.544914e+01
1.543443e+01
1.541778e+01
1.540005e+01
1.538235e+01
1.536580e+01
1.535129e+01
1.533927e+01
1.532993e+01
1.532325e+01
1.531907e+01
1.531725e+01
1.531767e+01
1.532014e+01
1.532419e+01
1.532899e+01
1.533347e+01
1.533644e+01
1.533673e+01
1.533334e+01
1.532583e+01
1.531422e+01
1.529880e+01
1.527965e+01
1.525662e+01
1.522928e+01
1.519704e+01
1.515939e+01
1.511600e+01
1.506679e+01
1.501184e+01
1.495131e+01
1.488539e+01
1.481428e+01
1.473817e+01
1.465724e+01
1.457152e+01
1.448090e+01
1.438521e+01
1.428438e+01
1.417835e+01
1.406698e+01
1.395009e+01
1.382753e+01
1.369928e+01
1.356552e+01
1.342657e+01
1.328267e+01
1.313394e+01
1.298035e+01
1.282169e+01
1.265761e+01
1.248795e+01
1.231307e+01
1.213394e+01
1.195204e+01
1.176894e+01
1.158600e+01
1.140415e+01
1.122406e+01
1.104625e+01
1.087111e+01
1.069877e+01
1.052915e+01
1.036203e+01
1.019706e+01
1.003365e+01
9.870995e+00
9.708332e+00
9.545425e+00
9.382716e+00
9.220993e+00
9.060995e+00
8.903318e+00
8.748478e+00
8.596829e+00
8.448367e+00
8.302683e+00
8.159208e+00
8.017568e+00
7.877839e+00
7.740542e+00
7.606472e+00
7.476448e+00
7.351057e+00
7.230488e+00
7.114628e+00
7.003306e+00
6.896435e+00
6.794040e+00
6.696298e+00
6.603537e+00
6.515973e+00
6.433261e+00
6.354202e+00
6.276961e+00
6.199618e+00
6.120608e+00
6.038825e+00
5.953493e+00
5.864049e+00
5.770133e+00
5.671607e+00
5.568516e+00
5.461003e+00
5.349229e+00
5.233257e+00
5.112960e+00
4.988058e+00
4.858313e+00
4.723752e+00
4.584819e+00
4.442445e+00
4.297925e+00
4.152571e+00
4.007319e+00
3.862507e+00
3.717909e+00
3.572901e+00
3.426631e+00
3.278080e+00
3.126155e+00
2.969880e+00
2.808611e+00
2.642106e+00
2.470545e+00
2.294443e+00
2.114383e+00
1.930650e+00
1.743048e+00
1.551080e+00
1.354327e+00
1.152664e+00
9.461449e-01
7.348377e-01
5.188314e-01
2.983418e-01
7.367671e-02
-1.549561e-01
-3.875828e-01
-6.243969e-01
-8.656220e-01
-1.111434e+00
-1.361821e+00
-1.616399e+00
-1.874512e+00
-2.135555e+00
-2.399072e+00
-2.664541e+00
-2.931251e+00
-3.198460e+00
-3.465609e+00
-3.732343e+00
-3.998345e+00
-4.263182e+00
-4.526315e+00
-4.787254e+00
-5.045752e+00
-5.301898e+00
-5.556001e+00
-5.808342e+00
-6.059088e+00
-6.308375e+00
-6.556309e+00
-6.802805e+00
-7.047484e+00
-7.289780e+00
-7.529091e+00
-7.764873e+00
-7.996682e+00
-8.224142e+00
-8.446864e+00
-8.664532e+00
-8.877113e+00
-9.084952e+00
-9.288593e+00
-9.488475e+00
-9.684736e+00
-9.877190e+00
-1.006544e+01
-1.024904e+01
-1.042765e+01
-1.060103e+01
-1.076910e+01
-1.093197e+01
-1.108999e+01
-1.124367e+01
-1.139346e+01
-1.153954e+01
-1.168198e+01
-1.182085e+01
-1.195634e+01
-1.208867e+01
-1.221804e+01
-1.234446e+01
-1.246770e+01
-1.258746e+01
-1.270359e+01
-1.281619e+01
-1.292551e+01
-1.303180e+01
-1.313512e+01
-1.323539e+01
-1.333243e+01
-1.342594e+01
-1.351561e+01
-1.360117e+01
-1.368242e+01
-1.375926e+01
-1.383169e+01
-1.389973e+01
-1.396338e+01
-1.402263e+01
-1.407751e+01
-1.412815e+01
-1.417469e+01
-1.421716e+01
-1.425546e+01
-1.428939e+01
-1.431877e+01
-1.434348e+01
-1.436344e+01
-1.437868e+01
-1.438932e+01
-1.439559e+01
-1.439793e+01
-1.439690e+01
-1.439309e+01
-1.438694e+01
-1.437877e+01
-1.436876e+01
-1.435683e+01
-1.434265e+01
-1.432576e+01
-1.430577e+01
-1.428243e+01
-1.425573e+01
-1.422586e+01
-1.419328e+01
-1.415858e+01
-1.412236e+01
-1.408525e+01
-1.404777e+01
-1.401030e+01
-1.397306e+01
-1.393626e+01
-1.390017e+01
-1.386507e+01
-1.383127e+01
-1.379910e+01
-1.376889e+01
-1.374093e+01
-1.371540e+01
-1.369242e+01
-1.367208e+01
-1.365444e+01
-1.363953e+01
-1.362738e+01
-1.361796e+01
-1.361116e+01
-1.360668e+01
-1.360405e+01
-1.360253e+01
-1.360115e+01
-1.359884e+01
-1.359462e+01
-1.358770e+01
-1.357755e+01
-1.356393e+01
-1.354676e+01
-1.352607e+01
-1.350188e+01
-1.347416e+01
-1.344280e+01
-1.340752e+01
-1.336797e+01
-1.332382e+01
-1.327487e+01
-1.322115e+01
-1.316290e+01
-1.310052e+01
-1.303434e+01
-1.296457e+01
-1.289133e+01
-1.281476e+01
-1.273504e+01
-1.265235e+01
-1.256686e+01
-1.247865e+01
-1.238777e+01
-1.229428e+01
-1.219829e+01
-1.209981e+01
-1.199890e+01
-1.189570e+01
-1.179053e+01
-1.168375e+01
-1.157556e+01
-1.146594e+01
-1.135478e+01
-1.124198e+01
-1.112753e+01
-1.101147e+01
-1.089378e+01
-1.077432e+01
-1.065292e+01
-1.052943e+01
-1.040370e+01
-1.027560e+01
-1.014506e+01
-1.001207e+01
-9.876630e+00
-9.738827e+00
-9.598829e+00
-9.456895e+00
-9.313383e+00
-9.168774e+00
-9.023613e+00
-8.878354e+00
-8.733304e+00
-8.588715e+00
-8.444905e+00
-8.302286e+00
-8.161322e+00
-8.022429e+00
-7.885896e+00
-7.751921e+00
-7.620690e+00
-7.492378e+00
-7.367088e+00
-7.244804e+00
-7.125390e+00
-7.008589e+00
-6.894023e+00
-6.781233e+00
-6.669739e+00
-6.559097e+00
-6.448928e+00
-6.338906e+00
-6.228721e+00
-6.118071e+00
-6.006716e+00
-5.894516e+00
-5.781419e+00
-5.667460e+00
-5.552766e+00
-5.437506e+00
-5.321786e+00
-5.205563e+00
-5.088661e+00
-4.970863e+00
-4.851987e+00
-4.731977e+00
-4.610988e+00
-4.489381e+00
-4.367602e+00
-4.246044e+00
-4.124984e+00
-4.004576e+00
-3.884918e+00
-3.766112e+00
-3.648259e+00
-3.531401e+00
-3.415464e+00
-3.300167e+00
-3.184948e+00
-3.069053e+00
-2.951715e+00
-2.832266e+00
-2.710127e+00
-2.584819e+00
-2.456027e+00
-2.323616e+00
-2.187580e+00
-2.047974e+00
-1.904915e+00
-1.758622e+00
-1.609435e+00
-1.457816e+00
-1.304349e+00
