EVENT_NAME: EMILIA_2ND_SHOCK
EVENT_ID: IT-2012-0011
EVENT_DATE_YYYYMMDD: 20120529
EVENT_TIME_HHMMSS: 070002
EVENT_LATITUDE_DEGREE: 44.8417
EVENT_LONGITUDE_DEGREE: 11.0657
EVENT_DEPTH_KM: 8.1
HYPOCENTER_REFERENCE: INGV-CNT_Seismic_Bulletin
MAGNITUDE_W: 6.0
MAGNITUDE_W_REFERENCE: RCMT-INGV
MAGNITUDE_L: 5.8
MAGNITUDE_L_REFERENCE: INGV-CNT_Seismic_Bulletin
FOCAL_MECHANISM: TF
NETWORK: TV
STATION_CODE: MIR08
STATION_NAME: QUARANTOLI 2
STATION_LATITUDE_DEGREE: 44.916900
STATION_LONGITUDE_DEGREE: 11.089500
STATION_ELEVATION_M: 
LOCATION: 
SENSOR_DEPTH_M: 
VS30_M/S: 
SITE_CLASSIFICATION_EC8: C*
MORPHOLOGIC_CLASSIFICATION: 
EPICENTRAL_DISTANCE_KM: 8.6
EARTHQUAKE_BACKAZIMUTH_DEGREE: 192.7
DATE_TIME_FIRST_SAMPLE_YYYYMMDD_HHMMSS: 20120529_065929.000
DATE_TIME_FIRST_SAMPLE_PRECISION: milliseconds
SAMPLING_INTERVAL_S: 0.005000
NDATA: 105
DURATION_S: 
STREAM: HNN
UNITS: cm/s^2
INSTRUMENT: sensor = Episensor FBA ES-T [Kinemetrics] | digitizer = Unknown [Unknown]
INSTRUMENT_ANALOG/DIGITAL: D
INSTRUMENTAL_FREQUENCY_HZ: 
INSTRUMENTAL_DAMPING: 
FULL_SCALE_G: 
N_BIT_DIGITAL_CONVERTER: 
PGV_CM/S: -32.452384
TIME_PGV_S: 41.685000
BASELINE_CORRECTION: BASELINE REMOVED
FILTER_TYPE: BUTTERWORTH
FILTER_ORDER: 2
LOW_CUT_FREQUENCY_HZ: 0.050
HIGH_CUT_FREQUENCY_HZ: 40.000
LATE/NORMAL_TRIGGERED: NT
DATABASE_VERSION: DYNA 1.0
HEADER_FORMAT: DYNA 1.2
DATA_TYPE: PSEUDO-VELOCITY RESPONSE SPECTRUM
PROCESSING: manual (Paolucci et al., 2011)
DATA_TIMESTAMP_YYYYMMDD_HHMMSS: 
DATA_LICENSE: CC-BY4_0 (http://creativecommons.org/licenses/by/4.0/)
DATA_CITATION: ESM working group (2015), European Strong-Motion database, version 0.1, Network Activity 3: Networking acceleration networks and SM data users. Project NERA (www.nera-eu.org)
DATA_CREATOR: ESM working group
ORIGINAL_DATA_MEDIATOR_CITATION: Orfeus - European Integrated Data Archive (EIDA) http://www.orfeus-eu.org/eida/
ORIGINAL_DATA_MEDIATOR: Orfeus - European Integrated Data Archive (EIDA)
ORIGINAL_DATA_CREATOR_CITATION: 
ORIGINAL_DATA_CREATOR: network: TV (INGV Experiments Network); owner: Istituto Nazionale di Geofisica e Vulcanologia
USER1: 
USER2: 
USER3: 
USER4: 
USER5: 
    0.010000     0.388522
    0.020000     0.780417
    0.022000     0.872313
    0.025000     1.132584
    0.029000     1.445503
    0.030000     1.504440
    0.032000     1.689442
    0.035001     2.206163
    0.036000     2.448063
    0.040000     2.652885
    0.041999     2.623215
    0.044001     2.677042
    0.045000     2.641539
    0.046000     2.607101
    0.048001     3.186799
    0.050000     4.178303
    0.054999     5.153830
    0.059999     5.655304
    0.064998     6.588139
    0.067002     7.320042
    0.069999     7.874135
    0.075002     7.498616
    0.080000     7.707327
    0.084998     8.753230
    0.090001     7.782031
    0.095003     8.651825
    0.100000    11.407640
    0.109999    14.453761
    0.120005    11.818168
    0.130005    11.214448
    0.132996    12.469787
    0.139997    14.485216
    0.149993    17.273176
    0.160000    19.291376
    0.170010    17.258980
    0.179986    16.058304
    0.190006    17.956636
    0.200000    20.869062
    0.220022    23.824293
    0.239981    26.478479
    0.250000    26.982044
    0.260010    25.821636
    0.280034    30.015274
    0.290023    32.802895
    0.300030    37.741562
    0.320000    35.760502
    0.340020    36.388897
    0.350017    37.814922
    0.359971    37.037018
    0.379939    39.574501
    0.400000    39.826351
    0.419992    43.049690
    0.439947    45.966824
    0.450045    45.661869
    0.459982    44.179382
    0.480077    39.655872
    0.500000    37.975513
    0.550055    64.038269
    0.599880    79.803986
    0.650195    75.046753
    0.667111    68.326828
    0.699790    59.234627
    0.750188    55.165298
    0.800000    61.589916
    0.850340    67.687355
    0.900090    61.814518
    0.949668    47.068710
    1.000000    42.119133
    1.100110    52.276867
    1.200480    58.771317
    1.300390    55.142082
    1.400560    49.002190
    1.499250    51.875889
    1.600000    61.280224
    1.700680    70.550507
    1.798561    77.129150
    1.901141    80.986023
    2.000000    80.679291
    2.197802    75.632469
    2.398082    72.106827
    2.500000    71.767281
    2.597403    69.920975
    2.801121    62.694180
    3.003003    52.364067
    3.205128    49.331924
    3.401361    46.560562
    3.496503    44.883629
    3.597122    43.075588
    3.802281    39.265099
    4.000000    35.372715
    4.201681    31.537031
    4.405286    28.265177
    4.608295    25.845318
    4.807692    24.785492
    5.000000    24.182625
    5.494505    20.263163
    5.988024    18.787712
    6.493506    17.269848
    6.993007    15.810049
    7.518797    14.453688
    8.000000    13.218343
    8.474576    12.109737
    9.009009    11.119131
    9.523809    10.234266
   10.000000     9.444795
