EVENT_NAME: EMILIA_2ND_SHOCK
EVENT_ID: IT-2012-0011
EVENT_DATE_YYYYMMDD: 20120529
EVENT_TIME_HHMMSS: 070002
EVENT_LATITUDE_DEGREE: 44.8417
EVENT_LONGITUDE_DEGREE: 11.0657
EVENT_DEPTH_KM: 8.1
HYPOCENTER_REFERENCE: INGV-CNT_Seismic_Bulletin
MAGNITUDE_W: 6.0
MAGNITUDE_W_REFERENCE: RCMT-INGV
MAGNITUDE_L: 5.8
MAGNITUDE_L_REFERENCE: INGV-CNT_Seismic_Bulletin
FOCAL_MECHANISM: TF
NETWORK: TV
STATION_CODE: MIR01
STATION_NAME: MEDOLLA
STATION_LATITUDE_DEGREE: 44.844042
STATION_LONGITUDE_DEGREE: 11.071316
STATION_ELEVATION_M: 
LOCATION: 
SENSOR_DEPTH_M: 
VS30_M/S: 
SITE_CLASSIFICATION_EC8: C*
MORPHOLOGIC_CLASSIFICATION: 
EPICENTRAL_DISTANCE_KM: 0.5
EARTHQUAKE_BACKAZIMUTH_DEGREE: 239.6
DATE_TIME_FIRST_SAMPLE_YYYYMMDD_HHMMSS: 20120529_065945.000
DATE_TIME_FIRST_SAMPLE_PRECISION: milliseconds
SAMPLING_INTERVAL_S: 0.005000
NDATA: 30001
DURATION_S: 150.005
STREAM: HNZ
UNITS: cm/s^2
INSTRUMENT: sensor = Episensor FBA ES-T [Kinemetrics] | digitizer = Unknown [Unknown]
INSTRUMENT_ANALOG/DIGITAL: D
INSTRUMENTAL_FREQUENCY_HZ: 
INSTRUMENTAL_DAMPING: 
FULL_SCALE_G: 
N_BIT_DIGITAL_CONVERTER: 
PGA_CM/S^2: -361.534980
TIME_PGA_S: 22.585000
BASELINE_CORRECTION: BASELINE REMOVED
FILTER_TYPE: BUTTERWORTH
FILTER_ORDER: 2
LOW_CUT_FREQUENCY_HZ: 0.050
HIGH_CUT_FREQUENCY_HZ: 40.000
LATE/NORMAL_TRIGGERED: NT
DATABASE_VERSION: DYNA 1.0
HEADER_FORMAT: DYNA 1.2
DATA_TYPE: ACCELERATION
PROCESSING: manual (Paolucci et al., 2011)
DATA_TIMESTAMP_YYYYMMDD_HHMMSS: 
DATA_LICENSE: CC-BY4_0 (http://creativecommons.org/licenses/by/4.0/)
DATA_CITATION: ESM working group (2015), European Strong-Motion database, version 0.1, Network Activity 3: Networking acceleration networks and SM data users. Project NERA (www.nera-eu.org)
DATA_CREATOR: ESM working group
ORIGINAL_DATA_MEDIATOR_CITATION: Orfeus - European Integrated Data Archive (EIDA) http://www.orfeus-eu.org/eida/
ORIGINAL_DATA_MEDIATOR: Orfeus - European Integrated Data Archive (EIDA)
ORIGINAL_DATA_CREATOR_CITATION: 
ORIGINAL_DATA_CREATOR: network: TV (INGV Experiments Network); owner: Istituto Nazionale di Geofisica e Vulcanologia
USER1: 
USER2: 
USER3: 
USER4: 
USER5: 
[...]
-0.127888
-0.123940
-0.119213
-0.116441
-0.117651
-0.119192
-0.114296
-0.104128
-0.099480
-0.106165
-0.115294
-0.113710
-0.101353
-0.092571
-0.097411
-0.108470
-0.113333
-0.111075
-0.107000
-0.101775
-0.095996
-0.095713
-0.105141
-0.120391
-0.133552
-0.138726
-0.134893
-0.125772
-0.115824
-0.107186
-0.101142
-0.099165
-0.101780
-0.108201
-0.116746
-0.125516
-0.132932
-0.137533
-0.137944
-0.132915
-0.122456
-0.110181
-0.101643
-0.099369
-0.101972
-0.106340
-0.109321
-0.109635
-0.108406
-0.107903
-0.109923
-0.113381
-0.114765
-0.112360
-0.107414
-0.101961
-0.098128
-0.097983
-0.102438
-0.110616
-0.120223
-0.128311
-0.131858
-0.129170
-0.121482
-0.112058
-0.104320
-0.101368
-0.104644
-0.112520
-0.121528
-0.127646
-0.127427
-0.121517
-0.114923
-0.111182
-0.110321
-0.112257
-0.116378
-0.120788
-0.125453
-0.130701
-0.133999
-0.133342
-0.128984
-0.120905
-0.110499
-0.102092
-0.098720
-0.099644
-0.102647
-0.105855
-0.108550
-0.112590
-0.119953
-0.127503
-0.129836
-0.126949
-0.122549
-0.118600
-0.116659
-0.117590
-0.118390
-0.116675
-0.114831
-0.114486
-0.114043
-0.113376
-0.113354
-0.112570
-0.110652
-0.110618
-0.113511
-0.115581
-0.113476
-0.108925
-0.108113
-0.115514
-0.124883
-0.123109
-0.110500
-0.104440
-0.113364
-0.124293
-0.123626
-0.112405
-0.099075
-0.091324
-0.092449
-0.098611
-0.103812
-0.107173
-0.111491
-0.119139
-0.130452
-0.140949
-0.143768
-0.138787
-0.132116
-0.126163
-0.119547
-0.113558
-0.110354
-0.110640
-0.116106
-0.125743
-0.132835
-0.133228
-0.129023
-0.122056
-0.113977
-0.109166
-0.108790
-0.109050
-0.108895
-0.110408
-0.113349
-0.117160
-0.122110
-0.124950
-0.122215
-0.116326
-0.110785
-0.105989
-0.104131
-0.108363
-0.116895
-0.125729
-0.132242
-0.133366
-0.127864
-0.118843
-0.109688
-0.102695
-0.101462
-0.107406
-0.116179
-0.122815
-0.126298
-0.126483
-0.122702
-0.116918
-0.112466
-0.110458
-0.111191
-0.115009
-0.120212
-0.124450
-0.126695
-0.126278
-0.123527
-0.120375
-0.117899
-0.115660
-0.114116
-0.114983
-0.118741
-0.124218
-0.130319
-0.135083
-0.135018
-0.128422
-0.116848
-0.103885
-0.094965
-0.094115
-0.099620
-0.106990
-0.113768
-0.118521
-0.120108
-0.120540
-0.123892
-0.129826
-0.131792
-0.124721
-0.112541
-0.105752
-0.109692
-0.115374
-0.110631
-0.101500
-0.106094
-0.125978
-0.143016
-0.144085
-0.132451
-0.118498
-0.110900
-0.112583
-0.119549
-0.125652
-0.127987
-0.127326
-0.126146
-0.125355
-0.122159
-0.114371
-0.105886
-0.103032
-0.106760
-0.112892
-0.117274
-0.117537
-0.114806
-0.114032
-0.116734
-0.117931
-0.114850
-0.110620
-0.108513
-0.110198
-0.116165
-0.123434
-0.127988
-0.129266
-0.128055
-0.124213
-0.119027
-0.114759
-0.112086
-0.111629
-0.114349
-0.118508
-0.121260
-0.122345
-0.121493
-0.116970
-0.110971
-0.108751
-0.109931
-0.110025
-0.109206
-0.110283
-0.113009
-0.116547
-0.120804
-0.123870
-0.124290
-0.123422
-0.122425
-0.121646
-0.121948
-0.121995
-0.119476
-0.116419
-0.115545
-0.114736
-0.112098
-0.109691
-0.109116
-0.110413
-0.114152
-0.119564
-0.124199
-0.127768
-0.131702
-0.135204
-0.137313
-0.139403
-0.140519
-0.137662
-0.132387
-0.126819
-0.117661
-0.104260
-0.092532
-0.085209
-0.080847
-0.081154
-0.087590
-0.097237
-0.108074
-0.119476
-0.128366
-0.133013
-0.135427
-0.135655
-0.131663
-0.125489
-0.121190
-0.119198
-0.118410
-0.117763
-0.114203
-0.107495
-0.103551
-0.105770
-0.110953
-0.116290
-0.120959
-0.123477
-0.124643
-0.127032
-0.128974
-0.126892
-0.121996
-0.117186
-0.112436
-0.108546
-0.107500
-0.107498
-0.106446
-0.106751
-0.109621
-0.112560
-0.114822
-0.116314
-0.114641
-0.110345
-0.107700
-0.107375
-0.106726
-0.105811
-0.106177
-0.108228
-0.113258
-0.121817
-0.130106
-0.134632
-0.137137
-0.139142
-0.138181
-0.133020
-0.125025
-0.115277
-0.106029
-0.100377
-0.098366
-0.098332
-0.100249
-0.103847
-0.107408
-0.110904
-0.115508
-0.119768
-0.121731
-0.123080
-0.126235
-0.130045
-0.131540
-0.129290
-0.123365
-0.114669
-0.105609
-0.098841
-0.094960
-0.093640
-0.095178
-0.099168
-0.104593
-0.111276
-0.118707
-0.125274
-0.130233
-0.133872
-0.135266
-0.133177
-0.128543
-0.122784
-0.116139
-0.109656
-0.104989
-0.102305
-0.101186
-0.101509
-0.102453
-0.103176
-0.103930
-0.104892
-0.105604
-0.106568
-0.108943
-0.111773
-0.112636
-0.111796
-0.111968
-0.113887
-0.115814
-0.116339
-0.114908
-0.111664
-0.108450
-0.107411
-0.107566
-0.106074
-0.103541
-0.103503
-0.107051
-0.113041
-0.120654
-0.127405
-0.129897
-0.128262
-0.124175
-0.117013
-0.107575
-0.100434
-0.098342
-0.100040
-0.104195
-0.109258
-0.112427
-0.113701
-0.115817
-0.118640
-0.119690
-0.118705
-0.116303
-0.111931
-0.106670
-0.102671
-0.099200
-0.095181
-0.093162
-0.095402
-0.100131
-0.104781
-0.108103
-0.108914
-0.107793
-0.108254
-0.112337
-0.117663
-0.121019
-0.121952
-0.121135
-0.118157
-0.113444
-0.109216
-0.106170
-0.103359
-0.101651
-0.102367
-0.104606
-0.107119
-0.109395
-0.110398
-0.109267
-0.106457
-0.102831
-0.099240
-0.097493
-0.098968
-0.101995
-0.104127
-0.105338
-0.106189
-0.106990
-0.109112
-0.112234
-0.113322
-0.111557
-0.109127
-0.106744
-0.103740
-0.100998
-0.099619
-0.099082
-0.099475
-0.102387
-0.107573
-0.112365
-0.115119
-0.115882
-0.114976
-0.113266
-0.111646
-0.109812
-0.107009
-0.103475
-0.100794
-0.100139
-0.100421
-0.100293
-0.100165
-0.100097
-0.098754
-0.095849
-0.093028
-0.091758
-0.092426
-0.095458
-0.100825
-0.106798
-0.111394
-0.113712
-0.112802
-0.108094
-0.101657
-0.097152
-0.096154
-0.097814
-0.101224
-0.105402
-0.108473
-0.108919
-0.106637
-0.102993
-0.099964
-0.098388
-0.098051
-0.098734
-0.099241
-0.097529
-0.093437
-0.089126
-0.086094
-0.084311
-0.084717
-0.088819
-0.095652
-0.102276
-0.106563
-0.108166
-0.107909
-0.106636
-0.104744
-0.102652
-0.101221
-0.101536
-0.103378
-0.104637
-0.103827
-0.101448
-0.098351
-0.095306
-0.093833
-0.095085
-0.098253
-0.101725
-0.104577
-0.105318
-0.102441
-0.097267
-0.092354
-0.088369
-0.085344
-0.084177
-0.085546
-0.088848
-0.092490
-0.095623
-0.098860
-0.101912
-0.102554
-0.100086
-0.096765
-0.093872
-0.090763
-0.088550
-0.088940
-0.090261
-0.090441
-0.091044
-0.093457
-0.095590
-0.095976
-0.095932
-0.095761
-0.094101
-0.091679
-0.090815
-0.091037
-0.089834
-0.087497
-0.086090
-0.084781
-0.081751
-0.078621
-0.078139
-0.079819
-0.081475
-0.083040
-0.085650
-0.088751
-0.091159
-0.093439
-0.096444
-0.098558
-0.097935
-0.096251
-0.095323
-0.093434
-0.089907
-0.087290
-0.086155
-0.084439
-0.082588
-0.083131
-0.085086
-0.084972
-0.083432
-0.084061
-0.086167
-0.085807
-0.083057
-0.081494
-0.081468
-0.080712
-0.080125
-0.081688
-0.083442
-0.083379
-0.083890
-0.086568
-0.087821
-0.084927
-0.081019
-0.079612
-0.079978
-0.080736
-0.082327
-0.084859
-0.087664
-0.090444
-0.092181
-0.091367
-0.089815
-0.090765
-0.084839
-0.035186
0.124112
0.487858
1.208763
2.527547
4.686452
7.714113
11.349807
15.341648
19.761711
24.669727
29.427429
32.861267
34.178566
33.344162
31.106649
29.247751
29.708960
32.577980
35.815937
37.289330
36.176273
32.868813
29.172594
28.320505
32.832916
41.889885
51.385906
56.335899
53.549053
42.778812
25.211901
1.948289
-24.500849
-49.048229
-66.330772
-73.077789
-68.977364
-58.216331
-49.261902
-49.556988
-59.432014
-71.471649
-75.148109
-63.118439
-36.660778
-6.508345
14.194974
19.248617
10.841453
-6.232314
-27.826092
-48.311787
-59.445145
-55.287933
-39.207615
-22.802177
-14.002353
-7.525906
7.292549
28.900145
41.448868
33.516098
12.199448
-5.423853
-9.544616
-2.161598
11.078831
27.203379
44.233849
57.951736
63.229977
57.704628
42.137707
18.235006
-9.830961
-32.467430
-40.073139
-32.727028
-19.215942
-7.225751
0.832701
5.486393
9.144150
14.667342
20.042830
16.176615
-4.631963
-36.938740
-62.880650
-67.543045
-52.313896
-30.609894
-11.246636
9.703063
38.826885
71.468369
92.001549
86.233032
51.284897
-2.107092
-51.346539
-71.429909
-54.009132
-17.375978
10.440317
17.375141
10.633640
1.650243
-2.466029
1.037108
9.944565
20.068970
30.505701
40.605473
45.271626
41.104107
34.132725
34.215202
42.172123
48.348892
45.958153
40.095627
39.490383
43.883987
43.296982
27.239653
-5.540868
-42.240749
-62.315781
-55.726402
-35.169510
-24.957010
-38.259037
-67.085335
-91.128532
-94.018066
-73.337166
-38.529381
-1.533489
28.740433
42.610989
27.938486
-17.155493
-72.237801
-105.843590
-99.691307
-59.574795
-8.888435
26.327724
34.582451
25.795074
18.978397
23.345064
30.570763
23.625751
-2.510747
-27.886877
-23.621838
17.559608
73.244217
112.271606
119.510155
103.425293
84.280281
77.056053
84.406799
98.988937
108.055367
101.446144
80.057144
53.009613
26.105799
-1.568970
-30.397453
-53.742069
-60.213146
-47.373051
-33.421669
-43.006748
-78.530075
-118.168076
-141.049606
-140.141602
-117.725922
-87.319969
-72.723572
-86.761650
-114.827110
-129.252899
-115.746628
-81.763443
-43.547722
-9.968590
18.988510
41.375320
49.271259
37.697659
12.538985
-11.565926
-20.682762
-12.467596
1.528633
7.301851
2.042744
-4.114224
3.015366
30.938717
72.125389
103.675545
102.428383
65.794228
14.141508
-27.846779
-44.941044
-29.289906
18.404829
78.936119
118.480881
112.346611
62.772804
-5.873464
-63.537746
-90.281136
-87.004280
-70.971878
-54.842587
-33.764297
0.881330
40.897388
63.854427
55.130703
21.628109
-14.909189
-34.536629
-32.680164
-21.805937
-19.417318
-33.784016
-58.298325
-74.297615
-63.209606
-23.699745
26.100286
66.996361
92.905106
103.686584
93.693413
58.826851
13.695156
-11.034180
3.404811
43.078354
74.445900
75.214775
47.644287
8.143386
-24.006130
-29.983883
0.206580
54.943230
104.027046
122.088120
107.803802
77.733841
44.888832
9.011329
-31.838064
-68.369370
-86.743126
-84.815727
-74.673767
-70.375023
-76.703812
-87.712036
-93.349304
-88.651726
-77.838554
-68.546013
-62.869686
-56.999046
-48.160263
-36.136581
-17.821924
12.089904
50.567848
81.168999
85.855782
61.250443
20.001104
-19.387037
-38.949768
-26.576456
13.474282
59.510128
89.833710
99.561829
99.472664
101.680908
105.229103
95.734634
63.345444
17.347429
-23.284962
-48.653694
-63.047661
-78.527977
-104.447647
-134.719376
-146.644348
-120.802048
-61.793316
3.380274
43.986153
43.936424
11.335145
-26.923470
-46.105030
-42.050014
-28.790070
-21.532724
-22.965368
-23.588608
-14.341217
4.369441
27.243603
50.056782
68.890533
81.629898
91.381760
102.476379
114.175552
121.134880
115.688538
88.240868
34.726021
-29.272270
-69.179192
-58.038448
-4.015240
53.946899
77.875053
55.700260
1.776201
-55.407398
-86.313316
-74.077637
-25.000191
35.126423
79.572136
97.231186
91.445457
66.738548
22.606895
-36.642105
-88.346405
-97.227036
-44.852551
45.205231
116.540916
120.733032
57.576160
-21.206831
-53.895412
-21.985880
35.863998
62.628910
34.714989
-23.383015
-70.049782
-86.142464
-84.256294
-85.536736
-93.953232
-94.463181
-71.371880
-23.862307
32.018326
71.738762
80.854088
71.057228
67.122818
73.787865
69.534920
38.992428
-2.861301
-27.996845
-23.946905
5.948472
56.495247
115.503593
149.856094
119.952599
21.977579
-93.450073
-160.224594
-153.811249
-103.194832
-51.743965
-13.797383
31.363047
105.365120
192.686264
241.796265
208.454788
97.865898
-36.205540
-131.504623
-157.815247
-128.559830
-81.905991
-47.273624
-20.585451
30.445204
128.234940
248.414185
332.708862
342.340515
284.854431
192.046188
92.576180
6.020263
-52.933918
-74.124924
-61.169979
-39.464512
-41.785679
-79.785248
-135.314499
-178.064789
-186.447784
-158.651184
-110.980240
-61.452785
-15.336201
26.300280
51.547153
46.277122
12.872466
-32.169975
-73.572861
-102.875862
-118.566666
-125.957344
-126.077354
-102.847343
-35.361553
72.355408
185.082642
265.057953
296.317291
277.141052
209.065292
110.418556
27.224335
7.030798
55.373203
126.135620
159.917221
127.776031
41.348305
-62.411964
-143.275528
-181.458282
-186.471634
-176.945786
-155.275848
-110.995323
-45.544422
16.434072
40.652908
7.263457
-68.703835
-138.385971
-152.305634
-99.386299
-13.212776
57.174637
81.398590
58.660915
5.976827
-54.758797
-101.788681
-119.661942
-106.022690
-68.316460
-14.859557
46.130939
101.561768
135.067780
137.508179
115.272820
85.515839
64.157677
62.332424
87.594528
134.329865
177.590210
194.506912
186.314301
161.822937
113.822617
35.056828
-56.731663
-131.681580
-176.122330
-194.072128
-191.735321
-174.747910
-151.902695
-127.875565
-98.726608
-65.114754
-43.765114
-55.894375
-104.581795
-167.220856
-210.080673
-209.249847
-161.997864
-85.918152
-8.251250
48.310562
71.103729
55.558155
14.246203
-10.083232
30.773436
132.854156
229.559113
257.430359
214.597061
147.680862
99.413582
70.333702
26.092239
-48.585358
-109.050255
-86.350975
34.257015
185.820419
272.007111
237.874619
98.127090
-80.169853
-216.930603
-257.934937
-192.936523
-54.737904
88.282196
158.698273
118.398705
-5.959209
-152.745651
-273.668427
-346.809601
-361.534973
-318.380310
-240.729904
-160.956039
-89.243576
-12.695430
69.412605
127.194695
130.624023
85.798058
24.732965
-28.601864
-61.323303
-52.888916
16.330086
133.804764
251.245117
321.636688
332.528473
297.167633
225.271301
116.723778
-21.647469
-163.818802
-270.660248
-310.097809
-275.393646
-188.680191
-91.835594
-28.447811
-20.426861
-55.936775
-103.302681
-139.967743
-167.326691
-196.348114
-225.662064
-239.948929
-221.912704
-161.520660
-64.838318
41.054035
120.813889
154.982849
151.117920
131.034683
109.952454
92.169487
84.284782
97.406013
126.480225
141.637451
119.784897
79.693443
64.138367
85.150612
106.578255
85.045288
11.940825
-86.254066
-173.088577
-223.467041
-230.357544
-201.090927
-151.932343
-100.803490
-57.182930
-20.773811
7.294570
18.927523
10.236820
-7.557257
-16.399351
-10.633467
-4.697106
-20.510969
-65.230804
-120.922180
-160.567749
-174.432022
-173.660721
-167.478775
-147.443588
-102.009003
-40.627064
9.056564
29.619539
30.755409
36.269058
60.353054
96.718292
126.745178
138.223633
135.516586
126.441422
103.212105
53.049892
-8.911966
-36.805492
2.139021
85.229263
143.984772
123.887009
38.102974
-43.848747
-62.561985
-18.650902
36.697048
47.312477
-7.163963
-100.093735
-180.407791
-206.068756
-162.139679
-64.520531
43.333298
109.919983
108.830162
55.775284
-8.307437
-48.392567
-51.492577
-21.619200
30.771090
91.352310
139.842438
153.405121
117.713333
38.450527
-56.342632
-127.660645
-144.927338
-100.723511
-13.683364
79.069618
137.313309
136.348236
79.128036
-6.283516
-82.477394
-121.092010
-112.427475
-64.285622
2.889350
61.411297
86.201172
68.472038
23.070141
-22.540262
-52.785095
-72.947235
-87.640533
-80.434265
-28.234350
67.599907
173.495575
244.451813
248.475067
179.880310
62.053486
-63.680542
-162.102295
-220.989304
-245.773972
-244.184814
-217.975021
-161.646072
-65.666084
67.935043
202.640594
270.957794
223.346817
81.120003
-68.152184
-134.140503
-85.406464
38.452309
159.507629
211.327469
176.826599
90.778145
10.085462
-23.575993
-6.512511
31.159231
50.766609
29.817736
-29.699961
-108.380081
-177.784714
-203.506088
-155.934555
-33.863235
120.550911
236.783813
256.755157
175.426422
49.735359
-39.085892
-46.246403
5.800215
54.294598
51.394741
-1.983996
-66.678566
-103.204704
-99.892563
-71.863144
-39.929970
-10.333016
26.089993
76.500282
131.805191
169.934052
172.275894
140.478073
98.337898
70.872299
59.090504
43.146553
11.773741
-22.705421
-41.199062
-37.856129
-19.300795
6.005084
31.551739
53.013603
71.991234
94.746887
119.809418
130.508835
107.683304
49.626671
-24.691540
-91.076996
-134.520035
-150.526993
-141.422592
-114.615242
-78.102585
-35.405647
9.949689
44.900776
48.139042
4.995251
-76.802338
-164.212708
-214.448029
-200.022491
-124.993073
-22.682364
62.622208
99.060059
79.986801
22.615171
-39.312374
-68.554375
-43.342072
29.241240
116.145691
177.203384
188.371445
152.707535
92.120026
28.958038
-25.579084
-68.453316
-97.857758
-112.198051
-110.319221
-90.822029
-55.709251
-15.238206
16.061440
31.603088
38.012138
44.798298
52.501541
55.466122
52.376579
47.682243
43.349457
34.771366
16.515387
-11.252668
-42.710308
-68.858124
-79.646347
-68.940514
-41.402130
-12.918495
0.031984
-6.271761
-20.626637
-27.903725
-20.386118
-0.405140
22.041151
33.814072
26.003748
-1.552632
-42.224644
-84.651787
-114.061638
-119.373131
-100.089897
-61.291546
-5.636132
60.110924
112.574409
118.915970
64.773712
-26.567890
-107.031525
-137.817596
-113.322403
-56.928074
1.643296
44.486275
66.627869
69.537781
60.769768
54.745564
65.218658
95.144417
131.780807
149.509155
124.308365
53.814205
-37.289013
-114.274193
-153.889435
-152.323547
-121.263618
-79.438843
-40.971405
-6.719177
30.638565
71.502991
102.416855
106.573692
80.236160
36.421001
-7.026477
-38.944016
-55.475849
-57.371822
-49.528687
-37.901501
-25.108843
-11.510835
0.679705
7.273994
6.889827
5.601727
14.154989
37.154655
65.819946
83.770248
79.421349
52.939144
15.400101
-16.170900
-27.681780
-18.103050
-0.506410
9.345461
4.943427
-8.736959
-20.153988
-18.242453
0.060448
25.289938
38.618259
23.103346
-23.977163
-89.193115
-153.275543
-200.250107
-217.909515
-199.453247
-151.195312
-94.994308
-56.428944
-45.335373
-46.421169
-32.990410
6.515355
56.056034
85.579536
75.444031
29.894543
-28.100368
-73.713097
-95.244713
-95.673706
-82.111290
-57.870953
-26.367567
3.096380
20.618952
26.385715
31.233570
45.377636
69.253479
96.000572
118.594536
131.591843
130.243301
113.386162
86.867470
62.299889
51.877804
60.970936
81.912354
96.105499
85.201920
41.900272
-26.710875
-101.362465
-156.572968
-172.449814
-147.423645
-98.561905
-47.077736
-6.373461
15.182713
10.180727
-19.204304
-54.014809
-71.039276
-63.231956
-43.374474
-29.182686
-28.285494
-35.589062
-40.910248
-38.986668
-34.310959
-36.691341
-51.809395
-75.644623
-95.769402
-97.545059
-73.398842
-29.324514
18.598972
54.472256
69.914742
66.216698
53.619450
45.229748
46.630695
52.593353
56.116325
57.882271
63.282890
70.582802
65.953957
34.478256
-23.337841
-88.415161
-135.607803
-146.505310
-115.081604
-51.746250
16.694176
59.402729
58.834297
18.933100
-36.617657
-73.855225
-67.438629
-18.535418
46.120953
94.257362
108.871529
94.026405
66.030060
40.937534
26.574366
21.127048
17.830225
13.111533
11.041159
17.074282
27.021017
27.111414
7.256661
-29.239655
-70.057213
-103.191132
-120.097992
-115.293144
-88.604492
-46.893867
-0.680340
39.894337
65.054909
66.660660
