EVENT_NAME: EMILIA_2ND_SHOCK
EVENT_ID: IT-2012-0011
EVENT_DATE_YYYYMMDD: 20120529
EVENT_TIME_HHMMSS: 070002
EVENT_LATITUDE_DEGREE: 44.8417
EVENT_LONGITUDE_DEGREE: 11.0657
EVENT_DEPTH_KM: 8.1
HYPOCENTER_REFERENCE: INGV-CNT_Seismic_Bulletin
MAGNITUDE_W: 6.0
MAGNITUDE_W_REFERENCE: RCMT-INGV
MAGNITUDE_L: 5.8
MAGNITUDE_L_REFERENCE: INGV-CNT_Seismic_Bulletin
FOCAL_MECHANISM: TF
NETWORK: TV
STATION_CODE: MIR06
STATION_NAME: PIEVE DI CORIANO
STATION_LATITUDE_DEGREE: 45.040100
STATION_LONGITUDE_DEGREE: 11.087400
STATION_ELEVATION_M: 
LOCATION: 
SENSOR_DEPTH_M: 
VS30_M/S: 
SITE_CLASSIFICATION_EC8: C*
MORPHOLOGIC_CLASSIFICATION: 
EPICENTRAL_DISTANCE_KM: 22.1
EARTHQUAKE_BACKAZIMUTH_DEGREE: 184.4
DATE_TIME_FIRST_SAMPLE_YYYYMMDD_HHMMSS: 20120529_065933.000
DATE_TIME_FIRST_SAMPLE_PRECISION: milliseconds
SAMPLING_INTERVAL_S: 0.005000
NDATA: 30001
DURATION_S: 150.005
STREAM: HNN
UNITS: cm
INSTRUMENT: sensor = Episensor FBA ES-T [Kinemetrics] | digitizer = Unknown [Unknown]
INSTRUMENT_ANALOG/DIGITAL: D
INSTRUMENTAL_FREQUENCY_HZ: 
INSTRUMENTAL_DAMPING: 
FULL_SCALE_G: 
N_BIT_DIGITAL_CONVERTER: 
PGD_CM: -6.359280
TIME_PGD_S: 52.820000
BASELINE_CORRECTION: BASELINE REMOVED
FILTER_TYPE: BUTTERWORTH
FILTER_ORDER: 2
LOW_CUT_FREQUENCY_HZ: 0.060
HIGH_CUT_FREQUENCY_HZ: 40.000
LATE/NORMAL_TRIGGERED: NT
DATABASE_VERSION: DYNA 1.0
HEADER_FORMAT: DYNA 1.2
DATA_TYPE: DISPLACEMENT
PROCESSING: manual (Paolucci et al., 2011)
DATA_TIMESTAMP_YYYYMMDD_HHMMSS: 
DATA_LICENSE: CC-BY4_0 (http://creativecommons.org/licenses/by/4.0/)
DATA_CITATION: ESM working group (2015), European Strong-Motion database, version 0.1, Network Activity 3: Networking acceleration networks and SM data users. Project NERA (www.nera-eu.org)
DATA_CREATOR: ESM working group
ORIGINAL_DATA_MEDIATOR_CITATION: Orfeus - European Integrated Data Archive (EIDA) http://www.orfeus-eu.org/eida/
ORIGINAL_DATA_MEDIATOR: Orfeus - European Integrated Data Archive (EIDA)
ORIGINAL_DATA_CREATOR_CITATION: 
ORIGINAL_DATA_CREATOR: network: TV (INGV Experiments Network); owner: Istituto Nazionale di Geofisica e Vulcanologia
USER1: 
USER2: 
USER3: 
USER4: 
USER5: 
[...]
-3.955233e-01
-3.703675e-01
-3.452922e-01
-3.203489e-01
-2.955723e-01
-2.709897e-01
-2.466233e-01
-2.224897e-01
-1.985981e-01
-1.749420e-01
-1.514911e-01
-1.281893e-01
-1.049593e-01
-8.171090e-02
-5.834688e-02
-3.476596e-02
-1.087152e-02
1.341575e-02
3.815243e-02
6.337399e-02
8.909337e-02
1.152980e-01
1.419506e-01
1.689939e-01
1.963593e-01
2.239750e-01
2.517686e-01
2.796764e-01
3.076578e-01
3.356986e-01
3.638032e-01
3.919858e-01
4.202660e-01
4.486662e-01
4.772051e-01
5.058915e-01
5.347240e-01
5.636889e-01
5.927579e-01
6.218907e-01
6.510418e-01
6.801651e-01
7.092154e-01
7.381500e-01
7.669311e-01
7.955267e-01
8.239101e-01
8.520595e-01
8.799574e-01
9.075949e-01
9.349769e-01
9.621270e-01
9.890957e-01
1.015969e+00
1.042870e+00
1.069953e+00
1.097388e+00
1.125344e+00
1.153975e+00
1.183406e+00
1.213727e+00
1.244978e+00
1.277157e+00
1.310220e+00
1.344089e+00
1.378659e+00
1.413793e+00
1.449333e+00
1.485092e+00
1.520853e+00
1.556383e+00
1.591445e+00
1.625818e+00
1.659315e+00
1.691793e+00
1.723151e+00
1.753328e+00
1.782298e+00
1.810065e+00
1.836665e+00
1.862144e+00
1.886561e+00
1.909978e+00
1.932472e+00
1.954125e+00
1.975026e+00
1.995266e+00
2.014938e+00
2.034134e+00
2.052942e+00
2.071433e+00
2.089666e+00
2.107682e+00
2.125512e+00
2.143172e+00
2.160673e+00
2.178026e+00
2.195240e+00
2.212327e+00
2.229302e+00
2.246171e+00
2.262935e+00
2.279581e+00
2.296095e+00
2.312459e+00
2.328648e+00
2.344638e+00
2.360414e+00
2.375974e+00
2.391330e+00
2.406502e+00
2.421518e+00
2.436412e+00
2.451224e+00
2.466006e+00
2.480818e+00
2.495738e+00
2.510858e+00
2.526283e+00
2.542125e+00
2.558501e+00
2.575524e+00
2.593299e+00
2.611914e+00
2.631443e+00
2.651937e+00
2.673422e+00
2.695901e+00
2.719346e+00
2.743703e+00
2.768892e+00
2.794797e+00
2.821271e+00
2.848135e+00
2.875184e+00
2.902200e+00
2.928962e+00
2.955253e+00
2.980865e+00
3.005618e+00
3.029378e+00
3.052055e+00
3.073588e+00
3.093932e+00
3.113061e+00
3.130962e+00
3.147638e+00
3.163101e+00
3.177366e+00
3.190454e+00
3.202383e+00
3.213174e+00
3.222848e+00
3.231422e+00
3.238913e+00
3.245331e+00
3.250677e+00
3.254947e+00
3.258127e+00
3.260199e+00
3.261144e+00
3.260935e+00
3.259556e+00
3.257002e+00
3.253291e+00
3.248464e+00
3.242597e+00
3.235792e+00
3.228166e+00
3.219843e+00
3.210960e+00
3.201656e+00
3.192070e+00
3.182336e+00
3.172581e+00
3.162921e+00
3.153460e+00
3.144289e+00
3.135478e+00
3.127071e+00
3.119091e+00
3.111545e+00
3.104421e+00
3.097680e+00
3.091258e+00
3.085073e+00
3.079039e+00
3.073071e+00
3.067090e+00
3.061016e+00
3.054782e+00
3.048346e+00
3.041688e+00
3.034799e+00
3.027694e+00
3.020403e+00
3.012972e+00
3.005450e+00
2.997886e+00
2.990328e+00
2.982814e+00
2.975386e+00
2.968091e+00
2.960980e+00
2.954110e+00
2.947537e+00
2.941309e+00
2.935454e+00
2.929982e+00
2.924894e+00
2.920174e+00
2.915798e+00
2.911743e+00
2.907994e+00
2.904553e+00
2.901419e+00
2.898596e+00
2.896090e+00
2.893916e+00
2.892092e+00
2.890645e+00
2.889603e+00
2.889001e+00
2.888866e+00
2.889219e+00
2.890072e+00
2.891417e+00
2.893217e+00
2.895407e+00
2.897901e+00
2.900598e+00
2.903395e+00
2.906193e+00
2.908895e+00
2.911419e+00
2.913697e+00
2.915671e+00
2.917288e+00
2.918493e+00
2.919226e+00
2.919427e+00
2.919044e+00
2.918029e+00
2.916327e+00
2.913886e+00
2.910655e+00
2.906591e+00
2.901661e+00
2.895840e+00
2.889110e+00
2.881456e+00
2.872864e+00
2.863330e+00
2.852853e+00
2.841439e+00
2.829097e+00
2.815845e+00
2.801708e+00
2.786724e+00
2.770937e+00
2.754401e+00
2.737180e+00
2.719333e+00
2.700913e+00
2.681960e+00
2.662501e+00
2.642550e+00
2.622109e+00
2.601167e+00
2.579704e+00
2.557699e+00
2.535133e+00
2.511996e+00
2.488280e+00
2.463981e+00
2.439091e+00
2.413611e+00
2.387542e+00
2.360888e+00
2.333645e+00
2.305814e+00
2.277397e+00
2.248394e+00
2.218803e+00
2.188624e+00
2.157866e+00
2.126534e+00
2.094634e+00
2.062179e+00
2.029180e+00
1.995647e+00
1.961597e+00
1.927061e+00
1.892076e+00
1.856694e+00
1.820976e+00
1.784991e+00
1.748813e+00
1.712531e+00
1.676241e+00
1.640016e+00
1.603894e+00
1.567897e+00
1.532025e+00
1.496269e+00
1.460607e+00
1.425011e+00
1.389445e+00
1.353881e+00
1.318308e+00
1.282727e+00
1.247135e+00
1.211524e+00
1.175888e+00
1.140244e+00
1.104624e+00
1.069055e+00
1.033567e+00
9.981993e-01
9.630076e-01
9.280712e-01
8.934821e-01
8.593362e-01
8.257369e-01
7.927926e-01
7.606060e-01
7.292809e-01
6.989327e-01
6.696728e-01
6.415852e-01
6.147360e-01
5.892024e-01
5.650743e-01
5.424273e-01
5.213140e-01
5.017842e-01
4.838941e-01
4.676889e-01
4.531930e-01
4.404206e-01
4.293807e-01
4.200673e-01
4.124526e-01
4.064914e-01
4.021276e-01
3.992977e-01
3.979280e-01
3.979346e-01
3.992268e-01
4.017107e-01
4.052879e-01
4.098505e-01
4.152791e-01
4.214484e-01
4.282355e-01
4.355270e-01
4.432213e-01
4.512299e-01
4.594893e-01
4.679785e-01
4.767165e-01
4.857423e-01
4.951090e-01
5.048933e-01
5.151910e-01
5.260981e-01
5.376951e-01
5.500462e-01
5.632154e-01
5.772741e-01
5.922846e-01
6.082875e-01
6.253119e-01
6.433816e-01
6.624971e-01
6.826281e-01
7.037280e-01
7.257423e-01
7.486070e-01
7.722493e-01
7.965879e-01
8.215333e-01
8.469938e-01
8.728822e-01
8.991178e-01
9.256207e-01
9.523090e-01
9.791037e-01
1.005936e+00
1.032750e+00
1.059496e+00
1.086126e+00
1.112581e+00
1.138804e+00
1.164737e+00
1.190317e+00
1.215487e+00
1.240191e+00
1.264381e+00
1.288015e+00
1.311061e+00
1.333496e+00
1.355300e+00
1.376458e+00
1.396962e+00
1.416816e+00
1.436034e+00
1.454646e+00
1.472696e+00
1.490244e+00
1.507360e+00
1.524129e+00
1.540637e+00
1.556973e+00
1.573220e+00
1.589465e+00
1.605796e+00
1.622289e+00
1.639031e+00
1.656118e+00
1.673643e+00
1.691683e+00
1.710313e+00
1.729609e+00
1.749646e+00
1.770483e+00
1.792159e+00
1.814708e+00
1.838158e+00
1.862523e+00
1.887804e+00
1.913983e+00
1.941025e+00
1.968875e+00
1.997459e+00
2.026689e+00
2.056470e+00
2.086707e+00
2.117299e+00
2.148143e+00
2.179146e+00
2.210235e+00
2.241359e+00
2.272470e+00
2.303535e+00
2.334543e+00
2.365502e+00
2.396434e+00
2.427382e+00
2.458406e+00
2.489577e+00
2.520981e+00
2.552714e+00
2.584866e+00
2.617513e+00
2.650716e+00
2.684516e+00
2.718933e+00
2.753961e+00
2.789567e+00
2.825689e+00
2.862240e+00
2.899107e+00
2.936165e+00
2.973276e+00
3.010301e+00
3.047110e+00
3.083570e+00
3.119555e+00
3.154945e+00
3.189638e+00
3.223540e+00
3.256566e+00
3.288643e+00
3.319706e+00
3.349710e+00
3.378623e+00
3.406423e+00
3.433097e+00
3.458645e+00
3.483066e+00
3.506358e+00
3.528515e+00
3.549532e+00
3.569411e+00
3.588156e+00
3.605765e+00
3.622236e+00
3.637568e+00
3.651771e+00
3.664871e+00
3.676911e+00
3.687935e+00
3.697991e+00
3.707129e+00
3.715395e+00
3.722830e+00
3.729461e+00
3.735300e+00
3.740343e+00
3.744575e+00
3.747978e+00
3.750527e+00
3.752193e+00
3.752940e+00
3.752732e+00
3.751533e+00
3.749308e+00
3.746025e+00
3.741646e+00
3.736133e+00
3.729444e+00
3.721539e+00
3.712382e+00
3.701938e+00
3.690181e+00
3.677090e+00
3.662652e+00
3.646862e+00
3.629724e+00
3.611258e+00
3.591505e+00
3.570520e+00
3.548375e+00
3.525155e+00
3.500958e+00
3.475897e+00
3.450091e+00
3.423670e+00
3.396767e+00
3.369521e+00
3.342072e+00
3.314557e+00
3.287110e+00
3.259863e+00
3.232942e+00
3.206463e+00
3.180524e+00
3.155200e+00
3.130549e+00
3.106626e+00
3.083482e+00
3.061151e+00
3.039638e+00
3.018930e+00
2.998996e+00
2.979800e+00
2.961285e+00
2.943384e+00
2.926019e+00
2.909114e+00
2.892594e+00
2.876391e+00
2.860446e+00
2.844715e+00
2.829156e+00
2.813724e+00
2.798371e+00
2.783047e+00
2.767700e+00
2.752277e+00
2.736723e+00
2.720984e+00
2.705011e+00
2.688768e+00
2.672229e+00
2.655385e+00
2.638240e+00
2.620797e+00
2.603064e+00
2.585042e+00
2.566730e+00
2.548123e+00
2.529215e+00
2.510002e+00
2.490490e+00
2.470697e+00
2.450653e+00
2.430394e+00
2.409967e+00
2.389434e+00
2.368868e+00
2.348351e+00
2.327975e+00
2.307832e+00
2.288017e+00
2.268616e+00
2.249694e+00
2.231298e+00
2.213450e+00
2.196144e+00
2.179349e+00
2.162999e+00
2.147003e+00
2.131246e+00
2.115600e+00
2.099931e+00
2.084110e+00
2.068015e+00
2.051541e+00
2.034597e+00
2.017110e+00
1.999025e+00
1.980304e+00
1.960921e+00
1.940865e+00
1.920134e+00
1.898733e+00
1.876674e+00
1.853967e+00
1.830626e+00
1.806660e+00
1.782075e+00
1.756876e+00
1.731064e+00
1.704633e+00
1.677572e+00
1.649859e+00
1.621471e+00
1.592384e+00
1.562587e+00
1.532078e+00
1.500854e+00
1.468915e+00
1.436280e+00
1.402978e+00
1.369041e+00
1.334499e+00
1.299384e+00
1.263717e+00
1.227519e+00
1.190808e+00
1.153594e+00
1.115882e+00
1.077679e+00
1.038998e+00
9.998417e-01
9.601965e-01
9.200482e-01
8.793982e-01
8.382563e-01
7.966245e-01
7.544968e-01
7.118682e-01
6.687357e-01
6.251065e-01
5.810091e-01
5.364823e-01
4.915588e-01
4.462715e-01
4.006647e-01
3.547923e-01
3.087089e-01
2.624658e-01
2.161143e-01
1.697086e-01
1.233066e-01
7.697265e-02
3.077698e-02
-1.521220e-02
-6.093634e-02
-1.063494e-01
-1.514165e-01
-1.961113e-01
-2.404155e-01
-2.843150e-01
-3.277980e-01
-3.708521e-01
-4.134603e-01
-4.555966e-01
-4.972237e-01
-5.382949e-01
-5.787574e-01
-6.185597e-01
-6.576555e-01
-6.960007e-01
-7.335545e-01
-7.702847e-01
-8.061707e-01
-8.411998e-01
-8.753622e-01
-9.086505e-01
-9.410625e-01
-9.726051e-01
-1.003298e+00
-1.033172e+00
-1.062269e+00
-1.090634e+00
-1.118313e+00
-1.145352e+00
-1.171791e+00
-1.197669e+00
-1.223021e+00
-1.247881e+00
-1.272282e+00
-1.296250e+00
-1.319813e+00
-1.342995e+00
-1.365823e+00
-1.388321e+00
-1.410511e+00
-1.432412e+00
-1.454042e+00
-1.475418e+00
-1.496561e+00
-1.517500e+00
-1.538276e+00
-1.558937e+00
-1.579542e+00
-1.600156e+00
-1.620847e+00
-1.641679e+00
-1.662703e+00
-1.683954e+00
-1.705448e+00
-1.727184e+00
-1.749145e+00
-1.771299e+00
-1.793608e+00
-1.816027e+00
-1.838512e+00
-1.861026e+00
-1.883538e+00
-1.906027e+00
-1.928476e+00
-1.950877e+00
-1.973224e+00
-1.995511e+00
-2.017726e+00
-2.039855e+00
-2.061879e+00
-2.083770e+00
-2.105486e+00
-2.126983e+00
-2.148215e+00
-2.169130e+00
-2.189676e+00
-2.209801e+00
-2.229466e+00
-2.248649e+00
-2.267348e+00
-2.285584e+00
-2.303393e+00
-2.320824e+00
-2.337945e+00
-2.354837e+00
-2.371578e+00
-2.388238e+00
-2.404880e+00
-2.421550e+00
-2.438276e+00
-2.455080e+00
-2.471977e+00
-2.488981e+00
-2.506102e+00
-2.523359e+00
-2.540774e+00
-2.558380e+00
-2.576208e+00
-2.594290e+00
-2.612654e+00
-2.631322e+00
-2.650312e+00
-2.669636e+00
-2.689298e+00
-2.709304e+00
-2.729656e+00
-2.750359e+00
-2.771408e+00
-2.792794e+00
-2.814490e+00
-2.836463e+00
-2.858673e+00
-2.881079e+00
-2.903640e+00
-2.926320e+00
-2.949089e+00
-2.971931e+00
-2.994841e+00
-3.017822e+00
-3.040891e+00
-3.064073e+00
-3.087403e+00
-3.110926e+00
-3.134695e+00
-3.158769e+00
-3.183209e+00
-3.208074e+00
-3.233418e+00
-3.259289e+00
-3.285730e+00
-3.312773e+00
-3.340444e+00
-3.368757e+00
-3.397718e+00
-3.427322e+00
-3.457552e+00
-3.488378e+00
-3.519763e+00
-3.551661e+00
-3.584031e+00
-3.616835e+00
-3.650040e+00
-3.683628e+00
-3.717586e+00
-3.751907e+00
-3.786586e+00
-3.821610e+00
-3.856955e+00
-3.892588e+00
-3.928467e+00
-3.964542e+00
-4.000759e+00
-4.037064e+00
-4.073408e+00
-4.109752e+00
-4.146065e+00
-4.182324e+00
-4.218516e+00
-4.254631e+00
-4.290668e+00
-4.326632e+00
-4.362535e+00
-4.398389e+00
-4.434211e+00
-4.470017e+00
-4.505824e+00
-4.541644e+00
-4.577487e+00
-4.613354e+00
-4.649237e+00
-4.685116e+00
-4.720966e+00
-4.756755e+00
-4.792443e+00
-4.827991e+00
-4.863358e+00
-4.898502e+00
-4.933383e+00
-4.967961e+00
-5.002195e+00
-5.036043e+00
-5.069458e+00
-5.102396e+00
-5.134815e+00
-5.166676e+00
-5.197945e+00
-5.228587e+00
-5.258577e+00
-5.287887e+00
-5.316493e+00
-5.344373e+00
-5.371504e+00
-5.397872e+00
-5.423464e+00
-5.448275e+00
-5.472303e+00
-5.495561e+00
-5.518076e+00
-5.539888e+00
-5.561043e+00
-5.581599e+00
-5.601624e+00
-5.621192e+00
-5.640377e+00
-5.659238e+00
-5.677821e+00
-5.696154e+00
-5.714249e+00
-5.732100e+00
-5.749685e+00
-5.766971e+00
-5.783919e+00
-5.800490e+00
-5.816640e+00
-5.832329e+00
-5.847520e+00
-5.862180e+00
-5.876287e+00
-5.889825e+00
-5.902787e+00
-5.915171e+00
-5.926989e+00
-5.938266e+00
-5.949044e+00
-5.959373e+00
-5.969303e+00
-5.978883e+00
-5.988175e+00
-5.997243e+00
-6.006141e+00
-6.014912e+00
-6.023604e+00
-6.032258e+00
-6.040909e+00
-6.049589e+00
-6.058323e+00
-6.067117e+00
-6.075964e+00
-6.084842e+00
-6.093725e+00
-6.102576e+00
-6.111363e+00
-6.120053e+00
-6.128626e+00
-6.137075e+00
-6.145401e+00
-6.153617e+00
-6.161737e+00
-6.169775e+00
-6.177748e+00
-6.185669e+00
-6.193554e+00
-6.201422e+00
-6.209291e+00
-6.217182e+00
-6.225118e+00
-6.233118e+00
-6.241192e+00
-6.249341e+00
-6.257549e+00
-6.265784e+00
-6.273999e+00
-6.282137e+00
-6.290133e+00
-6.297919e+00
-6.305427e+00
-6.312595e+00
-6.319369e+00
-6.325707e+00
-6.331578e+00
-6.336958e+00
-6.341819e+00
-6.346133e+00
-6.349878e+00
-6.353035e+00
-6.355587e+00
-6.357502e+00
-6.358743e+00
-6.359280e+00
-6.359097e+00
-6.358178e+00
-6.356504e+00
-6.354059e+00
-6.350835e+00
-6.346825e+00
-6.342024e+00
-6.336433e+00
-6.330059e+00
-6.322910e+00
-6.315001e+00
-6.306355e+00
-6.296998e+00
-6.286963e+00
-6.276287e+00
-6.265009e+00
-6.253174e+00
-6.240823e+00
-6.227995e+00
-6.214722e+00
-6.201025e+00
-6.186919e+00
-6.172409e+00
-6.157494e+00
-6.142162e+00
-6.126393e+00
-6.110164e+00
-6.093450e+00
-6.076221e+00
-6.058448e+00
-6.040101e+00
-6.021153e+00
-6.001581e+00
-5.981367e+00
-5.960491e+00
-5.938934e+00
-5.916674e+00
-5.893686e+00
-5.869947e+00
-5.845432e+00
-5.820116e+00
-5.793979e+00
-5.766999e+00
-5.739159e+00
-5.710446e+00
-5.680847e+00
-5.650356e+00
-5.618968e+00
-5.586680e+00
-5.553495e+00
-5.519417e+00
-5.484460e+00
-5.448639e+00
-5.411974e+00
-5.374491e+00
-5.336216e+00
-5.297181e+00
-5.257413e+00
-5.216943e+00
-5.175804e+00
-5.134038e+00
-5.091687e+00
-5.048795e+00
-5.005407e+00
-4.961570e+00
-4.917333e+00
-4.872744e+00
-4.827852e+00
-4.782703e+00
-4.737337e+00
-4.691793e+00
-4.646110e+00
-4.600316e+00
-4.554432e+00
-4.508468e+00
-4.462437e+00
-4.416347e+00
-4.370208e+00
-4.324022e+00
-4.277796e+00
-4.231542e+00
-4.185270e+00
-4.138990e+00
-4.092708e+00
-4.046429e+00
-4.000152e+00
-3.953869e+00
-3.907565e+00
-3.861221e+00
-3.814815e+00
-3.768322e+00
-3.721709e+00
-3.674940e+00
-3.627973e+00
-3.580765e+00
-3.533274e+00
-3.485457e+00
-3.437275e+00
-3.388694e+00
-3.339686e+00
-3.290234e+00
-3.240326e+00
-3.189965e+00
-3.139159e+00
-3.087931e+00
-3.036313e+00
-2.984346e+00
-2.932074e+00
-2.879544e+00
-2.826803e+00
-2.773895e+00
-2.720868e+00
-2.667762e+00
-2.614618e+00
-2.561469e+00
-2.508343e+00
-2.455262e+00
-2.402237e+00
-2.349271e+00
-2.296355e+00
-2.243473e+00
-2.190600e+00
-2.137708e+00
-2.084768e+00
-2.031763e+00
-1.978676e+00
-1.925490e+00
-1.872181e+00
-1.818723e+00
-1.765095e+00
-1.711274e+00
-1.657235e+00
-1.602948e+00
-1.548387e+00
-1.493540e+00
-1.438397e+00
-1.382946e+00
-1.327169e+00
-1.271051e+00
-1.214584e+00
-1.157756e+00
-1.100551e+00
-1.042949e+00
-9.849337e-01
-9.264903e-01
-8.676077e-01
-8.082812e-01
-7.485148e-01
-6.883223e-01
-6.277270e-01
-5.667592e-01
-5.054526e-01
-4.438420e-01
-3.819633e-01
-3.198546e-01
-2.575545e-01
-1.950983e-01
-1.325159e-01
-6.983283e-02
-7.072076e-03
5.574729e-02
1.186128e-01
1.815182e-01
2.444603e-01
3.074357e-01
3.704394e-01
4.334640e-01
4.964969e-01
5.595197e-01
6.225099e-01
6.854421e-01
7.482858e-01
8.110064e-01
8.735658e-01
9.359243e-01
9.980413e-01
1.059876e+00
1.121387e+00
1.182537e+00
1.243291e+00
1.303620e+00
1.363503e+00
1.422924e+00
1.481875e+00
1.540350e+00
1.598344e+00
1.655860e+00
1.712911e+00
1.769501e+00
1.825621e+00
1.881256e+00
1.936420e+00
1.991145e+00
2.045457e+00
2.099368e+00
2.152887e+00
2.206034e+00
2.258829e+00
2.311285e+00
2.363407e+00
2.415204e+00
2.466687e+00
2.517868e+00
2.568758e+00
2.619371e+00
2.669721e+00
2.719819e+00
2.769666e+00
2.819255e+00
2.868574e+00
2.917610e+00
2.966340e+00
3.014732e+00
3.062756e+00
3.110379e+00
3.157575e+00
3.204316e+00
3.250581e+00
3.296347e+00
3.341599e+00
3.386322e+00
3.430506e+00
3.474146e+00
3.517240e+00
3.559792e+00
3.601810e+00
3.643303e+00
3.684283e+00
3.724760e+00
3.764742e+00
3.804241e+00
3.843266e+00
3.881830e+00
3.919942e+00
3.957611e+00
3.994842e+00
4.031642e+00
4.068022e+00
4.103993e+00
4.139574e+00
4.174781e+00
4.209634e+00
4.244149e+00
4.278336e+00
4.312195e+00
4.345719e+00
4.378892e+00
4.411686e+00
4.444063e+00
4.475971e+00
4.507358e+00
4.538173e+00
4.568366e+00
4.597886e+00
4.626680e+00
4.654699e+00
4.681894e+00
4.708219e+00
4.733638e+00
4.758118e+00
4.781637e+00
4.804181e+00
4.825746e+00
4.846340e+00
4.865983e+00
4.884703e+00
4.902532e+00
4.919507e+00
4.935668e+00
4.951057e+00
4.965711e+00
4.979668e+00
4.992961e+00
5.005620e+00
5.017672e+00
5.029144e+00
5.040063e+00
5.050457e+00
5.060356e+00
5.069791e+00
5.078797e+00
5.087410e+00
5.095669e+00
5.103614e+00
5.111283e+00
5.118709e+00
5.125920e+00
5.132937e+00
5.139770e+00
5.146421e+00
5.152889e+00
5.159164e+00
5.165235e+00
5.171087e+00
5.176703e+00
5.182063e+00
5.187138e+00
5.191896e+00
5.196295e+00
5.200287e+00
5.203817e+00
5.206835e+00
5.209287e+00
5.211130e+00
5.212320e+00
5.212822e+00
5.212603e+00
5.211640e+00
5.209915e+00
5.207424e+00
5.204169e+00
5.200166e+00
5.195444e+00
5.190043e+00
5.184011e+00
5.177401e+00
5.170266e+00
5.162659e+00
5.154632e+00
5.146229e+00
5.137486e+00
5.128436e+00
5.119115e+00
5.109561e+00
5.099811e+00
5.089904e+00
5.079885e+00
5.069793e+00
5.059658e+00
5.049498e+00
5.039314e+00
5.029095e+00
5.018821e+00
5.008457e+00
4.997967e+00
4.987311e+00
4.976446e+00
4.965333e+00
4.953938e+00
4.942238e+00
4.930205e+00
4.917812e+00
4.905035e+00
4.891857e+00
4.878275e+00
4.864294e+00
4.849909e+00
4.835111e+00
4.819899e+00
4.804285e+00
4.788292e+00
4.771943e+00
4.755256e+00
4.738251e+00
4.720952e+00
4.703389e+00
4.685582e+00
4.667551e+00
4.649319e+00
4.630911e+00
4.612350e+00
4.593664e+00
4.574879e+00
4.556020e+00
4.537112e+00
4.518182e+00
4.499249e+00
4.480331e+00
4.461440e+00
4.442585e+00
4.423773e+00
4.405003e+00
4.386274e+00
4.367581e+00
4.348916e+00
4.330266e+00
4.311614e+00
4.292943e+00
4.274233e+00
4.255466e+00
4.236619e+00
4.217670e+00
4.198596e+00
4.179366e+00
4.159951e+00
4.140311e+00
4.120405e+00
4.100186e+00
4.079604e+00
4.058614e+00
4.037171e+00
4.015243e+00
3.992808e+00
3.969859e+00
3.946403e+00
3.922467e+00
3.898085e+00
3.873303e+00
3.848168e+00
3.822723e+00
