EVENT_NAME: EMILIA_2ND_SHOCK
EVENT_ID: IT-2012-0011
EVENT_DATE_YYYYMMDD: 20120529
EVENT_TIME_HHMMSS: 070002
EVENT_LATITUDE_DEGREE: 44.8417
EVENT_LONGITUDE_DEGREE: 11.0657
EVENT_DEPTH_KM: 8.1
HYPOCENTER_REFERENCE: INGV-CNT_Seismic_Bulletin
MAGNITUDE_W: 6.0
MAGNITUDE_W_REFERENCE: RCMT-INGV
MAGNITUDE_L: 5.8
MAGNITUDE_L_REFERENCE: INGV-CNT_Seismic_Bulletin
FOCAL_MECHANISM: TF
NETWORK: TV
STATION_CODE: MIR04
STATION_NAME: GAVELLO
STATION_LATITUDE_DEGREE: 44.927433
STATION_LONGITUDE_DEGREE: 11.178312
STATION_ELEVATION_M: 
LOCATION: 
SENSOR_DEPTH_M: 
VS30_M/S: 
SITE_CLASSIFICATION_EC8: C*
MORPHOLOGIC_CLASSIFICATION: 
EPICENTRAL_DISTANCE_KM: 13.0
EARTHQUAKE_BACKAZIMUTH_DEGREE: 223.1
DATE_TIME_FIRST_SAMPLE_YYYYMMDD_HHMMSS: 20120529_065927.000
DATE_TIME_FIRST_SAMPLE_PRECISION: milliseconds
SAMPLING_INTERVAL_S: 0.005000
NDATA: 30001
DURATION_S: 150.005
STREAM: HNN
UNITS: cm
INSTRUMENT: sensor = Episensor FBA ES-T [Kinemetrics] | digitizer = Unknown [Unknown]
INSTRUMENT_ANALOG/DIGITAL: D
INSTRUMENTAL_FREQUENCY_HZ: 
INSTRUMENTAL_DAMPING: 
FULL_SCALE_G: 
N_BIT_DIGITAL_CONVERTER: 
PGD_CM: 5.874318
TIME_PGD_S: 50.150000
BASELINE_CORRECTION: BASELINE REMOVED
FILTER_TYPE: BUTTERWORTH
FILTER_ORDER: 2
LOW_CUT_FREQUENCY_HZ: 0.050
HIGH_CUT_FREQUENCY_HZ: 40.000
LATE/NORMAL_TRIGGERED: NT
DATABASE_VERSION: DYNA 1.0
HEADER_FORMAT: DYNA 1.2
DATA_TYPE: DISPLACEMENT
PROCESSING: manual (Paolucci et al., 2011)
DATA_TIMESTAMP_YYYYMMDD_HHMMSS: 
DATA_LICENSE: CC-BY4_0 (http://creativecommons.org/licenses/by/4.0/)
DATA_CITATION: ESM working group (2015), European Strong-Motion database, version 0.1, Network Activity 3: Networking acceleration networks and SM data users. Project NERA (www.nera-eu.org)
DATA_CREATOR: ESM working group
ORIGINAL_DATA_MEDIATOR_CITATION: Orfeus - European Integrated Data Archive (EIDA) http://www.orfeus-eu.org/eida/
ORIGINAL_DATA_MEDIATOR: Orfeus - European Integrated Data Archive (EIDA)
ORIGINAL_DATA_CREATOR_CITATION: 
ORIGINAL_DATA_CREATOR: network: TV (INGV Experiments Network); owner: Istituto Nazionale di Geofisica e Vulcanologia
USER1: 
USER2: 
USER3: 
USER4: 
USER5: 
[...]
-2.770249e+00
-2.792997e+00
-2.817853e+00
-2.843871e+00
-2.869588e+00
-2.893327e+00
-2.913712e+00
-2.929977e+00
-2.941867e+00
-2.949392e+00
-2.952680e+00
-2.951934e+00
-2.947390e+00
-2.939285e+00
-2.927865e+00
-2.913412e+00
-2.896285e+00
-2.876951e+00
-2.855962e+00
-2.833851e+00
-2.811073e+00
-2.788066e+00
-2.765373e+00
-2.743684e+00
-2.723756e+00
-2.706309e+00
-2.691893e+00
-2.680720e+00
-2.672534e+00
-2.666682e+00
-2.662403e+00
-2.659122e+00
-2.656491e+00
-2.654261e+00
-2.652198e+00
-2.650141e+00
-2.648063e+00
-2.646061e+00
-2.644305e+00
-2.643010e+00
-2.642415e+00
-2.642718e+00
-2.643960e+00
-2.645972e+00
-2.648456e+00
-2.651148e+00
-2.653887e+00
-2.656609e+00
-2.659292e+00
-2.661918e+00
-2.664464e+00
-2.666920e+00
-2.669312e+00
-2.671705e+00
-2.674182e+00
-2.676824e+00
-2.679703e+00
-2.682871e+00
-2.686364e+00
-2.690202e+00
-2.694391e+00
-2.698920e+00
-2.703761e+00
-2.708917e+00
-2.714488e+00
-2.720715e+00
-2.727957e+00
-2.736609e+00
-2.747038e+00
-2.759559e+00
-2.774453e+00
-2.791976e+00
-2.812352e+00
-2.835762e+00
-2.862361e+00
-2.892280e+00
-2.925482e+00
-2.961434e+00
-2.998897e+00
-3.036260e+00
-3.072253e+00
-3.106276e+00
-3.138044e+00
-3.167207e+00
-3.193440e+00
-3.216674e+00
-3.237054e+00
-3.254804e+00
-3.270219e+00
-3.283651e+00
-3.295372e+00
-3.305430e+00
-3.313671e+00
-3.319893e+00
-3.323990e+00
-3.325971e+00
-3.325879e+00
-3.323709e+00
-3.319397e+00
-3.312856e+00
-3.304033e+00
-3.292929e+00
-3.279613e+00
-3.264194e+00
-3.246784e+00
-3.227458e+00
-3.206209e+00
-3.182930e+00
-3.157467e+00
-3.129680e+00
-3.099468e+00
-3.066722e+00
-3.031270e+00
-2.992835e+00
-2.951024e+00
-2.905352e+00
-2.855291e+00
-2.800322e+00
-2.739962e+00
-2.673770e+00
-2.601368e+00
-2.522482e+00
-2.436987e+00
-2.344909e+00
-2.246399e+00
-2.141731e+00
-2.031393e+00
-1.916197e+00
-1.797278e+00
-1.675912e+00
-1.553265e+00
-1.430202e+00
-1.307220e+00
-1.184472e+00
-1.061864e+00
-9.391717e-01
-8.161094e-01
-6.923571e-01
-5.676018e-01
-4.416160e-01
-3.143216e-01
-1.858008e-01
-5.626920e-02
7.395987e-02
2.045037e-01
3.349403e-01
4.648476e-01
5.938387e-01
7.215704e-01
8.477434e-01
9.721280e-01
1.094600e+00
1.215140e+00
1.333801e+00
1.450657e+00
1.565781e+00
1.679208e+00
1.790884e+00
1.900615e+00
2.008055e+00
2.112737e+00
2.214112e+00
2.311571e+00
2.404471e+00
2.492192e+00
2.574188e+00
2.649988e+00
2.719172e+00
2.781364e+00
2.836266e+00
2.883699e+00
2.923602e+00
2.955992e+00
2.980923e+00
2.998483e+00
3.008826e+00
3.012194e+00
3.008913e+00
2.999345e+00
2.983827e+00
2.962622e+00
2.935909e+00
2.903806e+00
2.866414e+00
2.823856e+00
2.776274e+00
2.723820e+00
2.666652e+00
2.604975e+00
2.539126e+00
2.469661e+00
2.397379e+00
2.323263e+00
2.248373e+00
2.173750e+00
2.100373e+00
2.029146e+00
1.960860e+00
1.896114e+00
1.835249e+00
1.778336e+00
1.725237e+00
1.675676e+00
1.629267e+00
1.585529e+00
1.543906e+00
1.503821e+00
1.464751e+00
1.426278e+00
1.388103e+00
1.350059e+00
1.312106e+00
1.274342e+00
1.236986e+00
1.200332e+00
1.164683e+00
1.130297e+00
1.097348e+00
1.065905e+00
1.035927e+00
1.007273e+00
9.797204e-01
9.530154e-01
9.269232e-01
9.012904e-01
8.760933e-01
8.514605e-01
8.276678e-01
8.051164e-01
7.843001e-01
7.657677e-01
7.500880e-01
7.378133e-01
7.294303e-01
7.252838e-01
7.254847e-01
7.298563e-01
7.379720e-01
7.492751e-01
7.631991e-01
7.792113e-01
7.967807e-01
8.153397e-01
8.342968e-01
8.530799e-01
8.711644e-01
8.880833e-01
9.034478e-01
9.169766e-01
9.285085e-01
9.379817e-01
9.453772e-01
9.506536e-01
9.537176e-01
9.544372e-01
9.526609e-01
9.482303e-01
9.409957e-01
9.308258e-01
9.176075e-01
9.012631e-01
8.818073e-01
8.594017e-01
8.343441e-01
8.069898e-01
7.776721e-01
7.466747e-01
7.142463e-01
6.806185e-01
6.459954e-01
6.105191e-01
5.742389e-01
5.371149e-01
4.990562e-01
4.599623e-01
4.197450e-01
3.783350e-01
3.356820e-01
2.917554e-01
2.465491e-01
2.000819e-01
1.523942e-01
1.035522e-01
5.366306e-02
2.880031e-03
-4.861439e-02
-1.006339e-01
-1.529993e-01
-2.055325e-01
-2.580536e-01
-3.103874e-01
-3.623666e-01
-4.138144e-01
-4.645189e-01
-5.142242e-01
-5.626540e-01
-6.095480e-01
-6.546784e-01
-6.978349e-01
-7.387910e-01
-7.772813e-01
-8.129993e-01
-8.456108e-01
-8.747711e-01
-9.001443e-01
-9.214274e-01
-9.383953e-01
-9.509765e-01
-9.593342e-01
-9.638739e-01
-9.651135e-01
-9.634759e-01
-9.591665e-01
-9.522270e-01
-9.426646e-01
-9.304957e-01
-9.156905e-01
-8.981289e-01
-8.776239e-01
-8.539882e-01
-8.270998e-01
-7.969338e-01
-7.635344e-01
-7.269575e-01
-6.872439e-01
-6.444453e-01
-5.986642e-01
-5.500516e-01
-4.987623e-01
-4.449206e-01
-3.886414e-01
-3.301000e-01
-2.696038e-01
-2.076012e-01
-1.446012e-01
-8.107073e-02
-1.739891e-02
4.607684e-02
1.090658e-01
1.713636e-01
2.328790e-01
2.936142e-01
3.536269e-01
4.130071e-01
4.718610e-01
5.302922e-01
5.883867e-01
6.461970e-01
7.037250e-01
7.609106e-01
8.176358e-01
8.737360e-01
9.290124e-01
9.832498e-01
1.036235e+00
1.087758e+00
1.137576e+00
1.185365e+00
1.230694e+00
1.273030e+00
1.311780e+00
1.346357e+00
1.376259e+00
1.401118e+00
1.420708e+00
1.434932e+00
1.443825e+00
1.447552e+00
1.446380e+00
1.440603e+00
1.430474e+00
1.416178e+00
1.397819e+00
1.375406e+00
1.348847e+00
1.317978e+00
1.282636e+00
1.242719e+00
1.198213e+00
1.149188e+00
1.095799e+00
1.038282e+00
9.769663e-01
9.123053e-01
8.449127e-01
7.755623e-01
7.050862e-01
6.342074e-01
5.634253e-01
4.930276e-01
4.231703e-01
3.539316e-01
2.853097e-01
2.172046e-01
1.494231e-01
8.171225e-02
1.380123e-02
-5.456028e-02
-1.235618e-01
-1.932925e-01
-2.637219e-01
-3.347168e-01
-4.060832e-01
-4.776077e-01
-5.490853e-01
-6.203368e-01
-6.912150e-01
-7.616046e-01
-8.314219e-01
-9.006157e-01
-9.691645e-01
-1.037065e+00
-1.104304e+00
-1.170815e+00
-1.236390e+00
-1.300585e+00
-1.362689e+00
-1.421854e+00
-1.477385e+00
-1.529026e+00
-1.576981e+00
-1.621638e+00
-1.663239e+00
-1.701792e+00
-1.737223e+00
-1.769506e+00
-1.798675e+00
-1.824756e+00
-1.847742e+00
-1.867584e+00
-1.884180e+00
-1.897370e+00
-1.906954e+00
-1.912739e+00
-1.914568e+00
-1.912349e+00
-1.906050e+00
-1.895691e+00
-1.881331e+00
-1.863080e+00
-1.841146e+00
-1.815884e+00
-1.787821e+00
-1.757612e+00
-1.725952e+00
-1.693467e+00
-1.660675e+00
-1.627986e+00
-1.595722e+00
-1.564122e+00
-1.533317e+00
-1.503328e+00
-1.474070e+00
-1.445371e+00
-1.416991e+00
-1.388655e+00
-1.360108e+00
-1.331190e+00
-1.301885e+00
-1.272310e+00
-1.242667e+00
-1.213189e+00
-1.184100e+00
-1.155594e+00
-1.127832e+00
-1.100940e+00
-1.075013e+00
-1.050112e+00
-1.026265e+00
-1.003468e+00
-9.817075e-01
-9.609828e-01
-9.413198e-01
-9.227691e-01
-9.053891e-01
-8.892251e-01
-8.743001e-01
-8.606237e-01
-8.482116e-01
-8.370881e-01
-8.272541e-01
-8.186230e-01
-8.109663e-01
-8.039228e-01
-7.970927e-01
-7.901715e-01
-7.830305e-01
-7.756867e-01
-7.682011e-01
-7.605999e-01
-7.528644e-01
-7.449539e-01
-7.368196e-01
-7.284011e-01
-7.196199e-01
-7.103747e-01
-7.005492e-01
-6.900377e-01
-6.787898e-01
-6.668588e-01
-6.544281e-01
-6.417962e-01
-6.293249e-01
-6.173806e-01
-6.063064e-01
-5.964283e-01
-5.880697e-01
-5.815413e-01
-5.771102e-01
-5.749705e-01
-5.752276e-01
-5.778980e-01
-5.829226e-01
-5.901942e-01
-5.995953e-01
-6.110317e-01
-6.244524e-01
-6.398487e-01
-6.572344e-01
-6.766175e-01
-6.979795e-01
-7.212741e-01
-7.464404e-01
-7.734110e-01
-8.020985e-01
-8.323691e-01
-8.640238e-01
-8.967981e-01
-9.303820e-01
-9.644545e-01
-9.987227e-01
-1.032949e+00
-1.066963e+00
-1.100667e+00
-1.134024e+00
-1.167049e+00
-1.199783e+00
-1.232277e+00
-1.264573e+00
-1.296686e+00
-1.328601e+00
-1.360272e+00
-1.391629e+00
-1.422575e+00
-1.452992e+00
-1.482738e+00
-1.511665e+00
-1.539637e+00
-1.566543e+00
-1.592291e+00
-1.616753e+00
-1.639696e+00
-1.660723e+00
-1.679295e+00
-1.694898e+00
-1.707291e+00
-1.716676e+00
-1.723624e+00
-1.728772e+00
-1.732569e+00
-1.735278e+00
-1.737112e+00
-1.738296e+00
-1.738971e+00
-1.739116e+00
-1.738550e+00
-1.736995e+00
-1.734110e+00
-1.729531e+00
-1.722926e+00
-1.714050e+00
-1.702766e+00
-1.689028e+00
-1.672871e+00
-1.654413e+00
-1.633837e+00
-1.611335e+00
-1.587046e+00
-1.561042e+00
-1.533350e+00
-1.503994e+00
-1.473017e+00
-1.440482e+00
-1.406481e+00
-1.371140e+00
-1.334633e+00
-1.297194e+00
-1.259116e+00
-1.220729e+00
-1.182366e+00
-1.144333e+00
-1.106880e+00
-1.070198e+00
-1.034425e+00
-9.996620e-01
-9.659729e-01
-9.333786e-01
-9.018605e-01
-8.713829e-01
-8.419134e-01
-8.134279e-01
-7.859126e-01
-7.593697e-01
-7.338238e-01
-7.093217e-01
-6.859322e-01
-6.637463e-01
-6.428767e-01
-6.234536e-01
-6.056180e-01
-5.895103e-01
-5.752615e-01
-5.629929e-01
-5.528312e-01
-5.449326e-01
-5.394953e-01
-5.367467e-01
-5.369104e-01
-5.401710e-01
-5.466539e-01
-5.564212e-01
-5.694670e-01
-5.857001e-01
-6.049195e-01
-6.268104e-01
-6.509787e-01
-6.770242e-01
-7.046222e-01
-7.335733e-01
-7.638009e-01
-7.953046e-01
-8.281051e-01
-8.622056e-01
-8.975799e-01
-9.341828e-01
-9.719648e-01
-1.010875e+00
-1.050840e+00
-1.091727e+00
-1.133314e+00
-1.175296e+00
-1.217330e+00
-1.259099e+00
-1.300362e+00
-1.340952e+00
-1.380761e+00
-1.419724e+00
-1.457817e+00
-1.495060e+00
-1.531520e+00
-1.567314e+00
-1.602615e+00
-1.637639e+00
-1.672602e+00
-1.707681e+00
-1.742995e+00
-1.778606e+00
-1.814537e+00
-1.850774e+00
-1.887269e+00
-1.923958e+00
-1.960786e+00
-1.997722e+00
-2.034761e+00
-2.071924e+00
-2.109265e+00
-2.146874e+00
-2.184874e+00
-2.223402e+00
-2.262587e+00
-2.302527e+00
-2.343286e+00
-2.384889e+00
-2.427320e+00
-2.470525e+00
-2.514413e+00
-2.558860e+00
-2.603722e+00
-2.648847e+00
-2.694089e+00
-2.739317e+00
-2.784419e+00
-2.829293e+00
-2.873847e+00
-2.917996e+00
-2.961671e+00
-3.004813e+00
-3.047378e+00
-3.089321e+00
-3.130592e+00
-3.171120e+00
-3.210800e+00
-3.249498e+00
-3.287063e+00
-3.323345e+00
-3.358203e+00
-3.391490e+00
-3.423052e+00
-3.452730e+00
-3.480378e+00
-3.505880e+00
-3.529152e+00
-3.550138e+00
-3.568786e+00
-3.585030e+00
-3.598786e+00
-3.609943e+00
-3.618377e+00
-3.623952e+00
-3.626544e+00
-3.626045e+00
-3.622377e+00
-3.615487e+00
-3.605354e+00
-3.592012e+00
-3.575566e+00
-3.556203e+00
-3.534180e+00
-3.509808e+00
-3.483460e+00
-3.455577e+00
-3.426650e+00
-3.397145e+00
-3.367416e+00
-3.337655e+00
-3.307924e+00
-3.278192e+00
-3.248369e+00
-3.218320e+00
-3.187894e+00
-3.156963e+00
-3.125437e+00
-3.093267e+00
-3.060450e+00
-3.027044e+00
-2.993164e+00
-2.958971e+00
-2.924615e+00
-2.890196e+00
-2.855731e+00
-2.821160e+00
-2.786365e+00
-2.751189e+00
-2.715450e+00
-2.678948e+00
-2.641480e+00
-2.602850e+00
-2.562884e+00
-2.521443e+00
-2.478440e+00
-2.433835e+00
-2.387626e+00
-2.339821e+00
-2.290427e+00
-2.239434e+00
-2.186828e+00
-2.132590e+00
-2.076716e+00
-2.019234e+00
-1.960215e+00
-1.899777e+00
-1.838057e+00
-1.775173e+00
-1.711188e+00
-1.646114e+00
-1.579952e+00
-1.512724e+00
-1.444480e+00
-1.375275e+00
-1.305139e+00
-1.234084e+00
-1.162131e+00
-1.089334e+00
-1.015787e+00
-9.416146e-01
-8.669519e-01
-7.919268e-01
-7.166584e-01
-6.412656e-01
-5.658734e-01
-4.906056e-01
-4.155652e-01
-3.408187e-01
-2.663942e-01
-1.922927e-01
-1.185091e-01
-4.505655e-02
2.801818e-02
1.006396e-01
1.727249e-01
2.442071e-01
3.150450e-01
3.852177e-01
4.547099e-01
5.235033e-01
5.915768e-01
6.589132e-01
7.255051e-01
7.913590e-01
8.564949e-01
9.209427e-01
9.847350e-01
1.047900e+00
1.110459e+00
1.172429e+00
1.233818e+00
1.294637e+00
1.354902e+00
1.414640e+00
1.473887e+00
1.532687e+00
1.591091e+00
1.649157e+00
1.706953e+00
1.764552e+00
1.822017e+00
1.879396e+00
1.936719e+00
1.993997e+00
2.051228e+00
2.108392e+00
2.165452e+00
2.222359e+00
2.279059e+00
2.335501e+00
2.391641e+00
2.447451e+00
2.502918e+00
2.558048e+00
2.612865e+00
2.667401e+00
2.721684e+00
2.775735e+00
2.829560e+00
2.883154e+00
2.936500e+00
2.989574e+00
3.042342e+00
3.094764e+00
3.146797e+00
3.198402e+00
3.249560e+00
3.300269e+00
3.350551e+00
3.400440e+00
3.449989e+00
3.499262e+00
3.548324e+00
3.597229e+00
3.646017e+00
3.694717e+00
3.743345e+00
3.791900e+00
3.840355e+00
3.888655e+00
3.936733e+00
3.984519e+00
4.031959e+00
4.079018e+00
4.125675e+00
4.171916e+00
4.217713e+00
4.263012e+00
4.307726e+00
4.351740e+00
4.394943e+00
4.437278e+00
4.478794e+00
4.519643e+00
4.560019e+00
4.600084e+00
4.639938e+00
4.679637e+00
4.719237e+00
4.758794e+00
4.798345e+00
4.837889e+00
4.877373e+00
4.916700e+00
4.955744e+00
4.994380e+00
5.032509e+00
5.070079e+00
5.107083e+00
5.143542e+00
5.179488e+00
5.214945e+00
5.249929e+00
5.284453e+00
5.318520e+00
5.352117e+00
5.385201e+00
5.417698e+00
5.449506e+00
5.480515e+00
5.510622e+00
5.539743e+00
5.567818e+00
5.594815e+00
5.620712e+00
5.645499e+00
5.669170e+00
5.691729e+00
5.713186e+00
5.733542e+00
5.752788e+00
5.770890e+00
5.787795e+00
5.803432e+00
5.817718e+00
5.830563e+00
5.841878e+00
5.851587e+00
5.859624e+00
5.865941e+00
5.870504e+00
5.873296e+00
5.874318e+00
5.873595e+00
5.871177e+00
5.867130e+00
5.861521e+00
5.854405e+00
5.845826e+00
5.835843e+00
5.824564e+00
5.812165e+00
5.798870e+00
5.784872e+00
5.770290e+00
5.755178e+00
5.739559e+00
5.723443e+00
5.706814e+00
5.689636e+00
5.671863e+00
5.653463e+00
5.634423e+00
5.614751e+00
5.594479e+00
5.573653e+00
5.552337e+00
5.530597e+00
5.508492e+00
5.486067e+00
5.463347e+00
5.440351e+00
5.417082e+00
5.393531e+00
5.369671e+00
5.345468e+00
5.320887e+00
5.295896e+00
5.270462e+00
5.244546e+00
5.218105e+00
5.191094e+00
5.163481e+00
5.135241e+00
5.106358e+00
5.076813e+00
5.046583e+00
5.015643e+00
4.983963e+00
4.951509e+00
4.918238e+00
4.884100e+00
4.849032e+00
4.812968e+00
4.775867e+00
4.737744e+00
4.698700e+00
4.658932e+00
4.618725e+00
4.578408e+00
4.538272e+00
4.498488e+00
4.459085e+00
4.420016e+00
4.381233e+00
4.342710e+00
4.304414e+00
4.266277e+00
4.228203e+00
4.190094e+00
4.151878e+00
4.113517e+00
4.075025e+00
4.036465e+00
3.997934e+00
3.959529e+00
3.921327e+00
3.883362e+00
3.845631e+00
3.808101e+00
3.770727e+00
3.733448e+00
3.696185e+00
3.658840e+00
3.621309e+00
3.583500e+00
3.545349e+00
3.506827e+00
3.467932e+00
3.428686e+00
3.389120e+00
3.349263e+00
3.309135e+00
3.268753e+00
3.228128e+00
3.187270e+00
3.146179e+00
3.104851e+00
3.063270e+00
3.021417e+00
2.979275e+00
2.936834e+00
2.894090e+00
2.851042e+00
2.807692e+00
2.764043e+00
2.720105e+00
2.675894e+00
2.631425e+00
2.586707e+00
2.541741e+00
2.496523e+00
2.451042e+00
2.405285e+00
2.359247e+00
2.312928e+00
2.266341e+00
2.219509e+00
2.172463e+00
2.125239e+00
2.077880e+00
2.030435e+00
1.982957e+00
1.935495e+00
1.888088e+00
1.840763e+00
1.793537e+00
1.746420e+00
1.699418e+00
1.652539e+00
1.605789e+00
1.559176e+00
1.512707e+00
1.466394e+00
1.420250e+00
1.374288e+00
1.328521e+00
1.282961e+00
1.237626e+00
1.192541e+00
1.147739e+00
1.103257e+00
1.059138e+00
1.015433e+00
9.722065e-01
9.295400e-01
8.875269e-01
8.462651e-01
8.058457e-01
7.663438e-01
7.278103e-01
6.902647e-01
6.536914e-01
6.180442e-01
5.832597e-01
5.492770e-01
5.160554e-01
4.835850e-01
4.518874e-01
4.210102e-01
3.910208e-01
3.619990e-01
3.340284e-01
3.071857e-01
2.815285e-01
2.570848e-01
2.338444e-01
2.117578e-01
1.907453e-01
1.707144e-01
1.515800e-01
1.332778e-01
1.157704e-01
9.904450e-02
8.310684e-02
6.797958e-02
5.369735e-02
4.030078e-02
2.782503e-02
1.628709e-02
5.677354e-03
-4.042264e-03
-1.293531e-02
-2.108610e-02
-2.859439e-02
-3.556887e-02
-4.211882e-02
-4.834442e-02
-5.432786e-02
-6.012660e-02
-6.576998e-02
-7.126073e-02
-7.658249e-02
-8.171179e-02
-8.662986e-02
-9.132929e-02
-9.581473e-02
-1.001010e-01
-1.042117e-01
-1.081773e-01
-1.120307e-01
-1.157993e-01
-1.194938e-01
-1.230987e-01
-1.265674e-01
-1.298326e-01
-1.328241e-01
-1.354821e-01
-1.377575e-01
-1.396047e-01
-1.409770e-01
-1.418263e-01
-1.421026e-01
-1.417534e-01
-1.407227e-01
-1.389526e-01
-1.363841e-01
-1.329567e-01
-1.286081e-01
-1.232761e-01
-1.169046e-01
-1.094498e-01
-1.008816e-01
-9.118188e-02
-8.034182e-02
-6.836212e-02
-5.525569e-02
-4.104802e-02
-2.577202e-02
-9.460513e-03
7.857944e-03
2.615832e-02
4.541666e-02
6.560912e-02
8.671246e-02
1.087028e-01
1.315496e-01
1.552067e-01
1.796062e-01
2.046597e-01
2.302681e-01
2.563336e-01
2.827679e-01
3.094957e-01
3.364529e-01
3.635850e-01
3.908482e-01
4.182122e-01
4.456604e-01
4.731848e-01
5.007752e-01
5.284073e-01
5.560370e-01
5.836076e-01
6.110615e-01
6.383495e-01
6.654339e-01
6.922910e-01
7.189111e-01
7.452929e-01
7.714334e-01
7.973241e-01
8.229545e-01
8.483180e-01
8.734134e-01
8.982438e-01
9.228134e-01
9.471247e-01
9.711743e-01
9.949495e-01
1.018428e+00
1.041582e+00
1.064386e+00
1.086818e+00
1.108858e+00
1.130489e+00
1.151695e+00
1.172461e+00
1.192779e+00
1.212645e+00
1.232064e+00
1.251042e+00
1.269580e+00
1.287665e+00
1.305268e+00
1.322355e+00
1.338901e+00
1.354896e+00
1.370350e+00
1.385283e+00
1.399725e+00
1.413703e+00
1.427247e+00
1.440386e+00
1.453153e+00
1.465574e+00
1.477665e+00
1.489426e+00
1.500838e+00
1.511869e+00
1.522479e+00
1.532627e+00
1.542274e+00
1.551382e+00
1.559911e+00
1.567822e+00
1.575076e+00
1.581638e+00
1.587471e+00
1.592533e+00
1.596781e+00
1.600168e+00
1.602655e+00
1.604217e+00
1.604843e+00
1.604540e+00
1.603332e+00
1.601256e+00
1.598362e+00
1.594706e+00
1.590352e+00
1.585366e+00
1.579808e+00
1.573723e+00
1.567135e+00
1.560052e+00
1.552471e+00
1.544395e+00
1.535832e+00
1.526809e+00
1.517356e+00
1.507510e+00
1.497316e+00
1.486824e+00
1.476097e+00
1.465205e+00
1.454210e+00
1.443161e+00
1.432084e+00
1.420988e+00
1.409857e+00
1.398661e+00
1.387365e+00
1.375936e+00
1.364350e+00
1.352591e+00
1.340649e+00
1.328516e+00
1.316185e+00
1.303636e+00
1.290800e+00
1.277540e+00
1.263690e+00
1.249126e+00
1.233811e+00
1.217761e+00
1.200985e+00
1.183471e+00
1.165203e+00
1.146184e+00
1.126420e+00
1.105911e+00
1.084648e+00
1.062614e+00
1.039787e+00
1.016138e+00
9.916392e-01
9.662829e-01
9.401109e-01
9.132276e-01
8.857784e-01
8.579069e-01
8.297252e-01
8.013197e-01
7.727722e-01
7.441670e-01
7.155784e-01
6.870538e-01
6.586060e-01
6.302138e-01
6.018307e-01
5.734018e-01
5.448856e-01
5.162674e-01
4.875575e-01
4.587775e-01
4.299475e-01
4.010795e-01
3.721778e-01
3.432432e-01
3.142765e-01
2.852725e-01
2.562087e-01
2.270373e-01
1.976893e-01
1.680827e-01
1.381286e-01
1.077369e-01
7.682788e-02
4.534977e-02
1.329031e-02
-1.932616e-02
-5.245746e-02
-8.606568e-02
-1.201270e-01
-1.546289e-01
-1.895653e-01
-2.249358e-01
-2.607404e-01
-2.969745e-01
-3.336294e-01
