EVENT_NAME: EMILIA_2ND_SHOCK
EVENT_ID: IT-2012-0011
EVENT_DATE_YYYYMMDD: 20120529
EVENT_TIME_HHMMSS: 070002
EVENT_LATITUDE_DEGREE: 44.8417
EVENT_LONGITUDE_DEGREE: 11.0657
EVENT_DEPTH_KM: 8.1
HYPOCENTER_REFERENCE: INGV-CNT_Seismic_Bulletin
MAGNITUDE_W: 6.0
MAGNITUDE_W_REFERENCE: RCMT-INGV
MAGNITUDE_L: 5.8
MAGNITUDE_L_REFERENCE: INGV-CNT_Seismic_Bulletin
FOCAL_MECHANISM: TF
NETWORK: TV
STATION_CODE: MIR08
STATION_NAME: QUARANTOLI 2
STATION_LATITUDE_DEGREE: 44.916900
STATION_LONGITUDE_DEGREE: 11.089500
STATION_ELEVATION_M: 
LOCATION: 
SENSOR_DEPTH_M: 
VS30_M/S: 
SITE_CLASSIFICATION_EC8: C*
MORPHOLOGIC_CLASSIFICATION: 
EPICENTRAL_DISTANCE_KM: 8.6
EARTHQUAKE_BACKAZIMUTH_DEGREE: 192.7
DATE_TIME_FIRST_SAMPLE_YYYYMMDD_HHMMSS: 20120529_065929.000
DATE_TIME_FIRST_SAMPLE_PRECISION: milliseconds
SAMPLING_INTERVAL_S: 0.005000
NDATA: 34001
DURATION_S: 170.005
STREAM: HNZ
UNITS: cm/s
INSTRUMENT: sensor = Episensor FBA ES-T [Kinemetrics] | digitizer = Unknown [Unknown]
INSTRUMENT_ANALOG/DIGITAL: D
INSTRUMENTAL_FREQUENCY_HZ: 
INSTRUMENTAL_DAMPING: 
FULL_SCALE_G: 
N_BIT_DIGITAL_CONVERTER: 
PGV_CM/S: -7.838663
TIME_PGV_S: 42.325000
BASELINE_CORRECTION: BASELINE REMOVED
FILTER_TYPE: BUTTERWORTH
FILTER_ORDER: 2
LOW_CUT_FREQUENCY_HZ: 0.050
HIGH_CUT_FREQUENCY_HZ: 40.000
LATE/NORMAL_TRIGGERED: NT
DATABASE_VERSION: DYNA 1.0
HEADER_FORMAT: DYNA 1.2
DATA_TYPE: VELOCITY
PROCESSING: manual (Paolucci et al., 2011)
DATA_TIMESTAMP_YYYYMMDD_HHMMSS: 
DATA_LICENSE: CC-BY4_0 (http://creativecommons.org/licenses/by/4.0/)
DATA_CITATION: ESM working group (2015), European Strong-Motion database, version 0.1, Network Activity 3: Networking acceleration networks and SM data users. Project NERA (www.nera-eu.org)
DATA_CREATOR: ESM working group
ORIGINAL_DATA_MEDIATOR_CITATION: Orfeus - European Integrated Data Archive (EIDA) http://www.orfeus-eu.org/eida/
ORIGINAL_DATA_MEDIATOR: Orfeus - European Integrated Data Archive (EIDA)
ORIGINAL_DATA_CREATOR_CITATION: 
ORIGINAL_DATA_CREATOR: network: TV (INGV Experiments Network); owner: Istituto Nazionale di Geofisica e Vulcanologia
USER1: 
USER2: 
USER3: 
USER4: 
USER5: 
[...]
-0.145031
-0.145148
-0.145265
-0.145381
-0.145498
-0.145621
-0.145757
-0.145891
-0.145997
-0.146067
-0.146122
-0.146195
-0.146299
-0.146425
-0.146552
-0.146661
-0.146737
-0.146784
-0.146823
-0.146886
-0.146994
-0.147141
-0.147303
-0.147449
-0.147555
-0.147614
-0.147643
-0.147673
-0.147735
-0.147846
-0.148013
-0.148222
-0.148445
-0.148637
-0.148767
-0.148839
-0.148891
-0.148961
-0.149074
-0.149222
-0.149379
-0.149519
-0.149637
-0.149747
-0.149863
-0.149990
-0.150123
-0.150256
-0.150383
-0.150504
-0.150626
-0.150771
-0.150960
-0.151187
-0.151411
-0.151583
-0.151680
-0.151707
-0.151701
-0.151718
-0.151808
-0.151987
-0.152232
-0.152500
-0.152743
-0.152908
-0.152973
-0.152963
-0.152935
-0.152942
-0.153009
-0.153141
-0.153324
-0.153542
-0.153775
-0.154006
-0.154215
-0.154377
-0.154479
-0.154520
-0.154516
-0.154492
-0.154484
-0.154522
-0.154617
-0.154758
-0.154920
-0.155071
-0.155197
-0.155305
-0.155417
-0.155555
-0.155722
-0.155908
-0.156089
-0.156233
-0.156327
-0.156379
-0.156417
-0.156463
-0.156529
-0.156625
-0.156758
-0.156918
-0.157092
-0.157269
-0.157437
-0.157578
-0.157680
-0.157743
-0.157784
-0.157818
-0.157861
-0.157922
-0.158017
-0.158152
-0.158320
-0.158495
-0.158653
-0.158780
-0.158874
-0.158950
-0.159023
-0.159104
-0.159198
-0.159310
-0.159449
-0.159618
-0.159806
-0.159984
-0.160128
-0.160237
-0.160323
-0.160404
-0.160493
-0.160597
-0.160713
-0.160837
-0.160967
-0.161101
-0.161235
-0.161368
-0.161509
-0.161661
-0.161810
-0.161932
-0.162016
-0.162072
-0.162113
-0.162153
-0.162201
-0.162265
-0.162351
-0.162456
-0.162570
-0.162670
-0.162733
-0.162752
-0.162743
-0.162740
-0.162774
-0.162866
-0.163025
-0.163247
-0.163507
-0.163764
-0.163973
-0.164109
-0.164168
-0.164164
-0.164121
-0.164072
-0.164049
-0.164086
-0.164211
-0.164431
-0.164714
-0.165001
-0.165247
-0.165429
-0.165543
-0.165598
-0.165615
-0.165614
-0.165605
-0.165590
-0.165577
-0.165580
-0.165606
-0.165646
-0.165691
-0.165756
-0.165875
-0.166079
-0.166378
-0.166745
-0.167116
-0.167421
-0.167611
-0.167672
-0.167621
-0.167507
-0.167391
-0.167322
-0.167321
-0.167403
-0.167573
-0.167801
-0.167974
-0.167857
-0.167107
-0.165358
-0.162326
-0.157864
-0.151913
-0.144381
-0.135029
-0.123577
-0.110074
-0.095126
-0.079436
-0.062996
-0.045053
-0.025172
-0.004029
0.017443
0.039839
0.065572
0.096542
0.131296
0.164913
0.192102
0.210788
0.223305
0.234421
0.247314
0.260078
0.266263
0.260580
0.244717
0.226223
0.210872
0.196603
0.174981
0.138391
0.086493
0.026495
-0.032754
-0.087438
-0.140977
-0.200903
-0.272844
-0.356000
-0.444140
-0.530365
-0.609402
-0.675615
-0.722047
-0.744398
-0.745652
-0.735373
-0.725351
-0.727234
-0.752254
-0.806970
-0.882734
-0.949965
-0.972911
-0.938814
-0.871360
-0.810290
-0.775016
-0.747890
-0.695067
-0.602958
-0.490363
-0.389090
-0.319800
-0.280164
-0.247505
-0.198796
-0.133936
-0.070820
-0.011921
0.071750
0.211703
0.405147
0.615393
0.796113
0.906831
0.923703
0.851483
0.719025
0.561100
0.407242
0.272563
0.147504
0.010213
-0.142788
-0.285148
-0.374732
-0.374670
-0.275913
-0.107935
0.078220
0.235110
0.328210
0.340337
0.282370
0.192962
0.113519
0.056971
0.000409
-0.093793
-0.249341
-0.457051
-0.672202
-0.833016
-0.892904
-0.845301
-0.725245
-0.585222
-0.457029
-0.328552
-0.159668
0.076161
0.362335
0.637453
0.815854
0.829347
0.671494
0.403502
0.118037
-0.103469
-0.226032
-0.282418
-0.348965
-0.477548
-0.645887
-0.769756
-0.760615
-0.589785
-0.317178
-0.055820
0.100024
0.118393
0.027156
-0.099872
-0.165236
-0.107825
0.034176
0.138844
0.090510
-0.143660
-0.497217
-0.837918
-1.040940
-1.070391
-1.001878
-0.955461
-0.993318
-1.071666
-1.084433
-0.952708
-0.683187
-0.358142
-0.078734
0.088084
0.129085
0.076287
-0.014870
-0.088023
-0.097195
-0.014292
0.151504
0.339563
0.465131
0.483180
0.427776
0.375761
0.370809
0.397565
0.423855
0.438453
0.440510
0.416273
0.344980
0.226865
0.096339
-0.002043
-0.053780
-0.084610
-0.127350
-0.187098
-0.248392
-0.309297
-0.390716
-0.514144
-0.693014
-0.947267
-1.297461
-1.727520
-2.163013
-2.498145
-2.647161
-2.573488
-2.287526
-1.843824
-1.343057
-0.900861
-0.580868
-0.361762
-0.186395
-0.032856
0.084417
0.167233
0.242625
0.315097
0.349665
0.315909
0.226595
0.126707
0.055304
0.014784
-0.029468
-0.108534
-0.193862
-0.185705
0.022004
0.449983
1.002866
1.526148
1.887671
2.012344
1.874517
1.498432
0.975469
0.458495
0.112895
0.048563
0.269444
0.667530
1.069274
1.314140
1.328684
1.153035
0.888336
0.603540
0.298802
-0.041997
-0.389642
-0.676892
-0.851270
-0.898869
-0.817711
-0.593956
-0.234414
0.179110
0.508133
0.656822
0.641786
0.563238
0.529551
0.601812
0.773299
0.982425
1.149561
1.216173
1.173642
1.069704
0.972874
0.908755
0.828673
0.653235
0.355445
0.000997
-0.288281
-0.408377
-0.342877
-0.196644
-0.141549
-0.286530
-0.592831
-0.914883
-1.110195
-1.120200
-0.976869
-0.755090
-0.527676
-0.350088
-0.253857
-0.239213
-0.276672
-0.315810
-0.310482
-0.262551
-0.228180
-0.255468
-0.332314
-0.414237
-0.482508
-0.557678
-0.663711
-0.785880
-0.871075
-0.877510
-0.820481
-0.765839
-0.787236
-0.931823
-1.196990
-1.504991
-1.722523
-1.755195
-1.624438
-1.436481
-1.288859
-1.206254
-1.138846
-1.008998
-0.772180
-0.452461
-0.130219
0.108271
0.230840
0.291955
0.395090
0.595418
0.839645
1.011684
1.028569
0.892430
0.675867
0.472910
0.348727
0.312628
0.322590
0.315438
0.257639
0.184000
0.170321
0.254341
0.396900
0.527003
0.600366
0.601775
0.527773
0.405221
0.319809
0.395325
0.708581
1.206191
1.725180
2.105963
2.272276
2.237059
2.087551
1.939497
1.845571
1.750511
1.561427
1.257307
0.927094
0.717285
0.739192
0.991897
1.344664
1.594850
1.572674
1.227286
0.636470
-0.050901
-0.688334
-1.193776
-1.567008
-1.823570
-1.915828
-1.772681
-1.417060
-0.976284
-0.565013
-0.215860
0.071594
0.274085
0.361658
0.348821
0.301990
0.285258
0.319731
0.406324
0.546679
0.720985
0.879620
0.971546
0.967544
0.851073
0.582939
0.102493
-0.567432
-1.215409
-1.522637
-1.276192
-0.478838
0.711928
2.084988
3.409164
4.437346
4.992922
5.095044
4.913642
4.557619
4.002544
3.262002
2.492529
1.831362
1.221123
0.509229
-0.317264
-1.094150
-1.657496
-1.975769
-2.130933
-2.258418
-2.508549
-2.997411
-3.732461
-4.560673
-5.221627
-5.492760
-5.287582
-4.647477
-3.720695
-2.765473
-2.072985
-1.783645
-1.777388
-1.786046
-1.619800
-1.304191
-1.039620
-1.012865
-1.221985
-1.503726
-1.692727
-1.690692
-1.438185
-0.906502
-0.128043
0.759230
1.507698
1.880423
1.840787
1.598967
1.422073
1.395575
1.362355
1.043762
0.222987
-1.095084
-2.628455
-3.935265
-4.658236
-4.732556
-4.389604
-3.950911
-3.615862
-3.397656
-3.147248
-2.628302
-1.690454
-0.439150
0.773780
1.543900
1.642133
1.123887
0.281372
-0.481432
-0.794761
-0.493673
0.284982
1.234995
2.132389
2.899707
3.469296
3.712548
3.508809
2.819002
1.720080
0.425992
-0.744981
-1.503016
-1.749874
-1.611856
-1.303342
-0.963567
-0.580262
-0.033562
0.730092
1.551296
2.142634
2.282788
1.885633
1.011941
-0.087675
-1.057395
-1.671642
-1.945703
-2.002306
-1.922986
-1.752351
-1.538022
-1.302976
-1.039639
-0.774610
-0.592121
-0.556418
-0.639387
-0.758864
-0.888351
-1.108574
-1.528615
-2.149316
-2.811901
-3.288403
-3.436349
-3.282124
-2.954995
-2.549013
-2.079770
-1.564762
-1.078213
-0.708316
-0.519761
-0.559912
-0.807542
-1.094529
-1.186180
-0.993884
-0.637670
-0.256248
0.184971
0.844405
1.781664
2.815116
3.619356
3.973226
3.880908
3.449425
2.765287
1.954569
1.223569
0.725370
0.467720
0.405878
0.523690
0.773998
1.039985
1.231266
1.373930
1.552681
1.790867
2.044106
2.315806
2.718236
3.366757
4.228872
5.110578
5.780639
6.110917
6.154586
6.115824
6.213518
6.554635
7.091354
7.611734
7.784754
7.340201
6.285041
4.941028
3.750117
3.006938
2.726192
2.740583
2.905411
3.160670
3.425037
3.574882
3.582777
3.563369
3.609459
3.651005
3.540641
3.240322
2.867154
2.566611
2.373604
2.194006
1.908812
1.502798
1.093321
0.814585
0.657977
0.432416
-0.099758
-1.038351
-2.279642
-3.578815
-4.654700
-5.323955
-5.620058
-5.748841
-5.875666
-5.959550
-5.799356
-5.239097
-4.337868
-3.345133
-2.507521
-1.885705
-1.338345
-0.677296
0.156655
1.044022
1.758661
2.086580
1.946519
1.455325
0.882420
0.502428
0.430649
0.578554
0.768055
0.864421
0.828707
0.731543
0.733047
0.980650
1.466209
1.969812
2.168922
1.834986
0.955471
-0.273451
-1.513009
-2.373040
-2.573201
-2.127081
-1.342475
-0.564486
0.072602
0.631240
1.202623
1.817119
2.448528
3.001380
3.285873
3.078085
2.270802
0.986372
-0.458887
-1.697358
-2.445566
-2.584376
-2.176488
-1.421803
-0.589945
0.054304
0.353243
0.338180
0.201722
0.158720
0.298474
0.545304
0.754565
0.851733
0.891493
1.001482
1.283234
1.748976
2.306999
2.791868
3.041307
2.975627
2.622981
2.097005
1.553888
1.129506
0.889312
0.844106
1.001172
1.363871
1.875584
2.401660
2.800115
3.006632
3.041635
2.957220
2.804514
2.647742
2.583179
2.715352
3.092011
3.656202
4.269457
4.792033
5.153169
5.349779
5.378391
5.193117
4.760215
4.140469
3.488372
2.967723
2.666135
2.573730
2.628941
2.774214
2.972008
3.198842
3.440915
3.666200
3.784075
3.669538
3.262973
2.647437
2.022530
1.587557
1.418785
1.444605
1.536167
1.610032
1.657193
1.715190
1.820521
1.963592
2.083892
2.114896
2.031907
1.859517
1.635005
1.358457
0.983128
0.473849
-0.106857
-0.570504
-0.694015
-0.388304
0.197997
0.744077
0.955266
0.754429
0.318960
-0.066770
-0.201805
-0.047486
0.317835
0.795981
1.342258
1.960913
2.632097
3.245811
3.629758
3.676154
3.441474
3.104074
2.837211
2.730026
2.786165
2.953593
3.164822
3.378397
3.599846
3.871673
4.231138
4.656582
5.054860
5.309751
5.350850
5.194496
4.929143
4.651829
4.411726
4.212647
4.049907
3.924153
3.835356
3.789029
3.799947
3.873009
3.984238
4.085225
4.127695
4.093065
4.005662
3.925022
3.936220
4.131058
4.551038
5.123417
5.670378
6.002748
6.024683
5.785247
5.451647
5.205350
5.125731
5.161872
5.211335
5.218156
5.197805
5.184366
5.184221
5.199535
5.261960
5.391472
5.533030
5.586110
5.499723
5.301448
5.050406
4.818156
4.703907
4.800999
5.121088
5.564958
5.971568
6.190526
6.124955
5.756957
5.173971
4.547388
4.035962
3.703070
3.527665
3.457673
3.436563
3.418664
3.395016
3.401800
3.491638
3.688317
3.955002
4.200976
4.337833
4.344364
4.265768
4.144562
3.976683
3.744520
3.459890
3.158114
2.887510
2.726376
2.760264
2.991052
3.294541
3.527555
3.682517
3.891674
4.265389
4.765047
5.244888
5.567057
5.649079
5.445765
4.943114
4.190027
3.327671
2.566454
2.110789
2.082831
2.485474
3.205110
4.048291
4.811716
5.354603
5.623652
5.633519
5.447044
5.155922
4.847695
4.599615
4.504806
4.649072
5.028874
5.519821
5.939464
6.127748
5.990406
5.523989
4.829335
4.077387
3.419110
2.898301
2.442482
1.954329
1.435226
1.017736
0.861355
1.015913
1.382767
1.783349
2.055951
2.122159
2.013355
1.858922
1.818464
1.960288
2.184681
2.309387
2.251354
2.094573
1.979283
1.968999
2.037293
2.142369
2.277238
2.451373
2.651004
2.839763
2.998958
3.148378
3.316905
3.501288
3.661256
3.753912
3.765619
3.704540
3.577487
3.394620
3.191220
3.028139
2.959350
2.988766
3.060261
3.099873
3.068602
2.973283
2.833832
2.651387
2.415008
2.130527
1.826682
1.533284
1.267502
1.045273
0.890096
0.809039
0.757416
0.652986
0.451593
0.200372
-0.008970
-0.137295
-0.233889
-0.387276
-0.655816
-1.030989
-1.445973
-1.814861
-2.064876
-2.148809
-2.063939
-1.865802
-1.630393
-1.391266
-1.133490
-0.846048
-0.554080
-0.302891
-0.137179
-0.093786
-0.182436
-0.355013
-0.505648
-0.525351
-0.377475
-0.131955
0.074262
0.120397
-0.041066
-0.388716
-0.862631
-1.378985
-1.842830
-2.184211
-2.391162
-2.502774
-2.579596
-2.679780
-2.832194
-3.017154
-3.192960
-3.345130
-3.492667
-3.652187
-3.815282
-3.956896
-4.048626
-4.063171
-3.982045
-3.811524
-3.587162
-3.352543
-3.133714
-2.936716
-2.760488
-2.606077
-2.484668
-2.424868
-2.464652
-2.630191
-2.918185
-3.284060
-3.644741
-3.920296
-4.093441
-4.215850
-4.346273
-4.497192
-4.642663
-4.747361
-4.775102
-4.697649
-4.516114
-4.261430
-3.964606
-3.637055
-3.281940
-2.905375
-2.507782
-2.082316
-1.632504
-1.184254
-0.787951
-0.521128
-0.468053
-0.662787
-1.049371
-1.511002
-1.936221
-2.257656
-2.450397
-2.519186
-2.492744
-2.414966
-2.324246
-2.240115
-2.167955
-2.102585
-2.031765
-1.954460
-1.889455
-1.862362
-1.904020
-2.053836
-2.329051
-2.681131
-2.994256
-3.134015
-3.010981
-2.624356
-2.067130
-1.492619
-1.061840
-0.892798
-1.023865
-1.401797
-1.899055
-2.361699
-2.681578
-2.852640
-2.959859
-3.106008
-3.340566
-3.637669
-3.915698
-4.082599
-4.099938
-4.024109
-3.969698
-4.020240
-4.184261
-4.428495
-4.712579
-4.980874
-5.165590
-5.231910
-5.203822
-5.130792
-5.046545
-4.963790
-4.884501
-4.808016
-4.743403
-4.717528
-4.766782
-4.923389
-5.205650
-5.600575
-6.042515
-6.423552
-6.650518
-6.708170
-6.672247
-6.654572
-6.725334
-6.886344
-7.107247
-7.357969
-7.598922
-7.773201
-7.838663
-7.801723
-7.701813
-7.566141
-7.395528
-7.190452
-6.969677
-6.764494
-6.617771
-6.582637
-6.684606
-6.872449
-7.026752
-7.029297
-6.827379
-6.450303
-5.993108
-5.587670
-5.349949
-5.315412
-5.427580
-5.597015
-5.757948
-5.878392
-5.954813
-6.008931
-6.068558
-6.136426
-6.178392
-6.147222
-6.021468
-5.819873
-5.576201
-5.309613
-5.032059
-4.775160
-4.584046
-4.474757
-4.411075
-4.332779
-4.199560
-4.015167
-3.839015
-3.774725
-3.905738
-4.212107
-4.555704
-4.763013
-4.732846
-4.480826
-4.111067
-3.761564
-3.549564
-3.517791
-3.605257
-3.684342
-3.652941
-3.503642
-3.310465
-3.150551
-3.030762
-2.888366
-2.665395
-2.372047
-2.078661
-1.871571
-1.820414
-1.955787
-2.257098
-2.664212
-3.104257
-3.512788
-3.839129
-4.039196
-4.077095
-3.952101
-3.724494
-3.495370
-3.344360
-3.279299
-3.239557
-3.148158
-2.973232
-2.755082
-2.582418
-2.537290
-2.646978
-2.871400
-3.123750
-3.308736
-3.373483
-3.349219
-3.333521
-3.405207
-3.547838
-3.664219
-3.670165
-3.566780
-3.418496
-3.279053
-3.152843
-3.010146
-2.815038
-2.539379
-2.171496
-1.734898
-1.303254
-0.973349
-0.797942
-0.748931
-0.760486
-0.795705
-0.851190
-0.914329
-0.949029
-0.922293
-0.829321
-0.695796
-0.564307
-0.479431
-0.480419
-0.594976
-0.824105
-1.125311
-1.418061
-1.623683
-1.715784
-1.734485
-1.742941
-1.769691
-1.796065
-1.778032
-1.671736
-1.478327
-1.279400
-1.185752
-1.232975
-1.349640
-1.429498
-1.417555
-1.332764
-1.232578
-1.162784
-1.132846
-1.133700
-1.163200
-1.213362
-1.242547
-1.194970
-1.063997
-0.917732
-0.840018
-0.853866
-0.918089
-0.978892
-0.997140
-0.946451
-0.827533
-0.686100
-0.589199
-0.573208
-0.620833
-0.689001
-0.751194
-0.809127
-0.876088
-0.965460
-1.086790
-1.230948
-1.359486
-1.422931
-1.391090
-1.259856
-1.034341
-0.725739
-0.376443
-0.066221
0.135741
0.216972
0.201020
0.098448
-0.097778
-0.383573
-0.732547
-1.102095
-1.432843
-1.649807
-1.684558
-1.513124
-1.183528
-0.800925
-0.464595
-0.207752
0.001794
0.211929
0.445050
0.692070
0.924323
1.101682
1.180599
1.136144
0.986479
0.793277
0.634044
0.564422
0.593389
0.689570
0.813607
0.942337
1.059290
1.134001
1.129004
1.025439
0.832546
0.588814
0.371482
0.280059
0.374675
0.629849
0.958033
1.268156
1.501391
1.643731
1.730494
1.822340
1.951612
2.094793
2.202994
2.244277
2.210727
2.107786
1.956128
1.797031
1.686428
1.685805
1.850633
2.198097
2.664217
3.106279
3.377072
3.408986
3.229597
2.912985
2.530283
2.132502
1.748860
1.387238
1.045528
0.726850
0.439253
0.189587
-0.010665
-0.141842
-0.190955
-0.168298
-0.102765
-0.016902
0.095911
0.264994
0.504115
0.781102
1.033012
1.206437
1.275426
1.236176
1.111783
0.964683
0.884073
0.942424
1.147672
1.423494
1.636682
1.658384
1.426274
0.986274
0.494478
0.155008
0.111730
0.370209
0.807304
1.243576
1.522852
1.574738
1.443019
1.257070
1.157375
1.220523
1.421534
1.645620
1.747379
1.637979
1.345905
1.001474
0.761475
0.730557
0.916409
1.234701
1.560604
1.789261
1.867669
1.798861
1.630446
1.429106
1.250621
1.122449
1.047176
1.019994
1.040260
1.102021
1.172756
1.188079
1.078420
0.812555
0.430674
0.044220
-0.214906
-0.274075
-0.159761
0.034360
0.204396
0.275368
0.228167
0.111948
0.018106
0.023513
0.146328
0.344244
0.546368
0.691892
0.759105
0.777860
0.816289
0.939441
1.163576
1.442819
1.693424
1.831549
1.810325
1.641739
1.379539
1.078112
0.776030
0.506320
0.293801
0.142466
0.042264
-0.015244
-0.031840
-0.002592
0.077197
0.193779
0.308141
0.374505
0.362485
0.265902
0.101142
-0.107648
-0.351187
-0.636623
-0.959953
-1.284903
-1.553895
-1.716257
-1.752771
-1.685305
-1.562495
-1.430119
-1.309075
-1.190859
-1.049316
-0.864606
-0.644585
-0.428131
-0.267276
-0.195376
-0.203439
-0.248880
-0.291318
-0.324113
-0.373911
-0.466830
-0.597204
-0.733086
-0.840411
-0.893858
-0.882507
-0.822619
-0.761692
-0.760390
-0.857996
-1.041245
-1.245665
-1.395397
-1.445845
-1.396496
-1.281349
-1.155277
-1.074046
-1.066961
-1.124542
-1.216557
-1.317462
-1.410973
-1.484579
-1.537365
-1.588434
-1.661433
-1.761306
-1.876882
-2.001509
-2.138172
-2.287673
-2.443962
-2.601964
-2.764375
-2.938816
-3.128598
-3.327637
-3.524219
-3.704471
-3.851117
-3.947961
-3.989607
-3.980738
-3.927316
-3.836791
-3.726543
-3.628278
-3.581640
-3.613628
-3.715157
-3.839380
-3.923373
-3.910913
-3.768167
-3.497590
-3.141819
-2.763759
-2.411615
-2.098646
-1.815833
-1.562662
-1.365208
-1.266625
-1.299948
-1.462572
-1.707923
-1.960286
-2.144099
-2.208954
-2.137883
-1.943726
-1.665221
-1.360826
-1.090170
-0.892802
-0.784958
-0.770338
-0.845309
-0.998860
-1.218002
-1.491112
-1.797547
-2.096489
-2.337339
-2.486963
-2.544189
-2.525564
-2.443639
-2.308876
-2.151537
-2.029849
-2.005554
-2.104591
-2.297492
-2.512676
-2.665450
-2.691161
-2.583512
-2.413147
-2.290423
-2.288304
-2.391942
-2.518668
-2.581192
-2.535091
-2.389382
-2.196607
-2.031321
-1.956178
-1.990857
-2.108493
-2.261117
-2.408372
-2.530628
-2.627893
-2.710501
-2.789071
-2.870749
-2.960090
-3.060987
-3.176952
-3.303620
-3.416980
-3.475934
-3.446212
-3.325347
-3.144900
-2.948414
-2.765219
-2.602360
-2.456153
-2.326434
-2.223114
-2.163032
-2.155312
-2.188200
-2.235758
-2.273380
-2.280412
-2.238124
-2.137163
-1.982856
-1.790402
-1.582788
-1.390371
-1.236416
-1.118352
-1.007952
-0.868725
-0.678716
-0.452318
-0.242457
-0.109687
-0.082451
-0.144239
-0.250729
-0.354264
-0.421218
-0.442659
-0.436622
-0.437106
-0.474374
-0.557990
-0.670733
-0.776799
-0.842433
-0.858286
-0.845630
-0.837421
-0.850727
-0.877276
-0.897890
