EVENT_NAME: EMILIA_2ND_SHOCK
EVENT_ID: IT-2012-0011
EVENT_DATE_YYYYMMDD: 20120529
EVENT_TIME_HHMMSS: 070002
EVENT_LATITUDE_DEGREE: 44.8417
EVENT_LONGITUDE_DEGREE: 11.0657
EVENT_DEPTH_KM: 8.1
HYPOCENTER_REFERENCE: INGV-CNT_Seismic_Bulletin
MAGNITUDE_W: 6.0
MAGNITUDE_W_REFERENCE: RCMT-INGV
MAGNITUDE_L: 5.8
MAGNITUDE_L_REFERENCE: INGV-CNT_Seismic_Bulletin
FOCAL_MECHANISM: TF
NETWORK: TV
STATION_CODE: MIR03
STATION_NAME: QUARANTOLI 1
STATION_LATITUDE_DEGREE: 44.938400
STATION_LONGITUDE_DEGREE: 11.104500
STATION_ELEVATION_M: 
LOCATION: 
SENSOR_DEPTH_M: 
VS30_M/S: 
SITE_CLASSIFICATION_EC8: C*
MORPHOLOGIC_CLASSIFICATION: 
EPICENTRAL_DISTANCE_KM: 11.2
EARTHQUAKE_BACKAZIMUTH_DEGREE: 195.9
DATE_TIME_FIRST_SAMPLE_YYYYMMDD_HHMMSS: 20120529_065927.000
DATE_TIME_FIRST_SAMPLE_PRECISION: milliseconds
SAMPLING_INTERVAL_S: 0.005000
NDATA: 18001
DURATION_S: 90.005
STREAM: HNZ
UNITS: cm
INSTRUMENT: sensor = Episensor FBA ES-T [Kinemetrics] | digitizer = Unknown [Unknown]
INSTRUMENT_ANALOG/DIGITAL: D
INSTRUMENTAL_FREQUENCY_HZ: 
INSTRUMENTAL_DAMPING: 
FULL_SCALE_G: 
N_BIT_DIGITAL_CONVERTER: 
PGD_CM: 2.621240
TIME_PGD_S: 45.105000
BASELINE_CORRECTION: BASELINE REMOVED
FILTER_TYPE: BUTTERWORTH
FILTER_ORDER: 2
LOW_CUT_FREQUENCY_HZ: 0.070
HIGH_CUT_FREQUENCY_HZ: 40.000
LATE/NORMAL_TRIGGERED: NT
DATABASE_VERSION: DYNA 1.0
HEADER_FORMAT: DYNA 1.2
DATA_TYPE: DISPLACEMENT
PROCESSING: manual (Paolucci et al., 2011)
DATA_TIMESTAMP_YYYYMMDD_HHMMSS: 
DATA_LICENSE: CC-BY4_0 (http://creativecommons.org/licenses/by/4.0/)
DATA_CITATION: ESM working group (2015), European Strong-Motion database, version 0.1, Network Activity 3: Networking acceleration networks and SM data users. Project NERA (www.nera-eu.org)
DATA_CREATOR: ESM working group
ORIGINAL_DATA_MEDIATOR_CITATION: Orfeus - European Integrated Data Archive (EIDA) http://www.orfeus-eu.org/eida/
ORIGINAL_DATA_MEDIATOR: Orfeus - European Integrated Data Archive (EIDA)
ORIGINAL_DATA_CREATOR_CITATION: 
ORIGINAL_DATA_CREATOR: network: TV (INGV Experiments Network); owner: Istituto Nazionale di Geofisica e Vulcanologia
USER1: 
USER2: 
USER3: 
USER4: 
USER5: 
[...]
-2.653296e-01
-2.712374e-01
-2.782568e-01
-2.853319e-01
-2.915027e-01
-2.960091e-01
-2.982283e-01
-2.975620e-01
-2.934755e-01
-2.857770e-01
-2.749691e-01
-2.623428e-01
-2.496336e-01
-2.384030e-01
-2.295146e-01
-2.229883e-01
-2.182699e-01
-2.147299e-01
-2.120901e-01
-2.105225e-01
-2.103862e-01
-2.118358e-01
-2.145999e-01
-2.180661e-01
-2.215945e-01
-2.248748e-01
-2.281252e-01
-2.319682e-01
-2.369982e-01
-2.432940e-01
-2.502175e-01
-2.566633e-01
-2.616051e-01
-2.645756e-01
-2.657706e-01
-2.657756e-01
-2.652039e-01
-2.645218e-01
-2.640733e-01
-2.641630e-01
-2.651206e-01
-2.673402e-01
-2.712554e-01
-2.771799e-01
-2.850196e-01
-2.940045e-01
-3.026588e-01
-3.091333e-01
-3.117985e-01
-3.098206e-01
-3.034501e-01
-2.939139e-01
-2.830145e-01
-2.726578e-01
-2.644815e-01
-2.596151e-01
-2.585338e-01
-2.610197e-01
-2.662759e-01
-2.731637e-01
-2.804594e-01
-2.870804e-01
-2.923044e-01
-2.959673e-01
-2.985347e-01
-3.009807e-01
-3.045182e-01
-3.102605e-01
-3.188797e-01
-3.303720e-01
-3.440561e-01
-3.588364e-01
-3.736016e-01
-3.875359e-01
-4.001986e-01
-4.113924e-01
-4.209796e-01
-4.288266e-01
-4.349155e-01
-4.394770e-01
-4.429659e-01
-4.458552e-01
-4.484084e-01
-4.506172e-01
-4.523444e-01
-4.535301e-01
-4.543020e-01
-4.549667e-01
-4.559531e-01
-4.577453e-01
-4.607880e-01
-4.653463e-01
-4.713405e-01
-4.782456e-01
-4.851919e-01
-4.912779e-01
-4.959036e-01
-4.989106e-01
-5.004979e-01
-5.010294e-01
-5.008716e-01
-5.003456e-01
-4.997754e-01
-4.995324e-01
-4.999820e-01
-5.013385e-01
-5.035568e-01
-5.063977e-01
-5.096577e-01
-5.133806e-01
-5.178650e-01
-5.234510e-01
-5.302593e-01
-5.380729e-01
-5.464281e-01
-5.548657e-01
-5.632203e-01
-5.717917e-01
-5.812489e-01
-5.922576e-01
-6.050143e-01
-6.189392e-01
-6.326710e-01
-6.443831e-01
-6.523402e-01
-6.554819e-01
-6.537686e-01
-6.481122e-01
-6.399138e-01
-6.304527e-01
-6.205003e-01
-6.103919e-01
-6.004527e-01
-5.914277e-01
-5.845671e-01
-5.812417e-01
-5.822744e-01
-5.874002e-01
-5.952191e-01
-6.037315e-01
-6.112145e-01
-6.169556e-01
-6.214016e-01
-6.256441e-01
-6.306227e-01
-6.366121e-01
-6.433074e-01
-6.503345e-01
-6.577312e-01
-6.660752e-01
-6.762479e-01
-6.890191e-01
-7.046563e-01
-7.227077e-01
-7.420638e-01
-7.613279e-01
-7.793614e-01
-7.956873e-01
-8.104680e-01
-8.240371e-01
-8.362956e-01
-8.464174e-01
-8.531081e-01
-8.552676e-01
-8.526579e-01
-8.462255e-01
-8.379470e-01
-8.302939e-01
-8.255461e-01
-8.251517e-01
-8.292588e-01
-8.365566e-01
-8.445877e-01
-8.506079e-01
-8.527837e-01
-8.511386e-01
-8.476045e-01
-8.450870e-01
-8.461260e-01
-8.519016e-01
-8.619857e-01
-8.748157e-01
-8.886015e-01
-9.022014e-01
-9.154651e-01
-9.289056e-01
-9.431062e-01
-9.584101e-01
-9.750158e-01
-9.931745e-01
-1.013184e+00
-1.035143e+00
-1.058680e+00
-1.082881e+00
-1.106501e+00
-1.128330e+00
-1.147505e+00
-1.163600e+00
-1.176458e+00
-1.185882e+00
-1.191450e+00
-1.192669e+00
-1.189449e+00
-1.182620e+00
-1.174061e+00
-1.166218e+00
-1.161228e+00
-1.160137e+00
-1.162607e+00
-1.167134e+00
-1.171646e+00
-1.174282e+00
-1.174086e+00
-1.171302e+00
-1.167137e+00
-1.163162e+00
-1.160716e+00
-1.160593e+00
-1.163007e+00
-1.167726e+00
-1.174277e+00
-1.182191e+00
-1.191254e+00
-1.201593e+00
-1.213418e+00
-1.226520e+00
-1.239895e+00
-1.251878e+00
-1.260746e+00
-1.265375e+00
-1.265580e+00
-1.262050e+00
-1.255969e+00
-1.248523e+00
-1.240514e+00
-1.232228e+00
-1.223607e+00
-1.214622e+00
-1.205674e+00
-1.197738e+00
-1.192165e+00
-1.190195e+00
-1.192457e+00
-1.198712e+00
-1.208010e+00
-1.219193e+00
-1.231451e+00
-1.244610e+00
-1.259035e+00
-1.275268e+00
-1.293664e+00
-1.314213e+00
-1.336622e+00
-1.360492e+00
-1.385335e+00
-1.410356e+00
-1.434225e+00
-1.455246e+00
-1.472063e+00
-1.484460e+00
-1.493598e+00
-1.501318e+00
-1.508940e+00
-1.516420e+00
-1.522471e+00
-1.525590e+00
-1.525285e+00
-1.522600e+00
-1.519473e+00
-1.517384e+00
-1.516286e+00
-1.514517e+00
-1.509632e+00
-1.499607e+00
-1.483805e+00
-1.463232e+00
-1.439996e+00
-1.416321e+00
-1.393709e+00
-1.372720e+00
-1.353361e+00
-1.335675e+00
-1.320030e+00
-1.306990e+00
-1.296939e+00
-1.289771e+00
-1.284858e+00
-1.281275e+00
-1.278142e+00
-1.274957e+00
-1.271696e+00
-1.268551e+00
-1.265362e+00
-1.261101e+00
-1.253816e+00
-1.241190e+00
-1.221559e+00
-1.194886e+00
-1.163166e+00
-1.129973e+00
-1.099345e+00
-1.074579e+00
-1.057418e+00
-1.047830e+00
-1.044273e+00
-1.044324e+00
-1.045490e+00
-1.045903e+00
-1.044516e+00
-1.040674e+00
-1.033428e+00
-1.021240e+00
-1.002512e+00
-9.766923e-01
-9.450849e-01
-9.106583e-01
-8.768860e-01
-8.464177e-01
-8.203493e-01
-7.983193e-01
-7.792078e-01
-7.620020e-01
-7.463424e-01
-7.324567e-01
-7.206167e-01
-7.105652e-01
-7.012972e-01
-6.912794e-01
-6.789532e-01
-6.632774e-01
-6.440402e-01
-6.217683e-01
-5.973104e-01
-5.714279e-01
-5.446743e-01
-5.175188e-01
-4.904852e-01
-4.642165e-01
-4.395280e-01
-4.174347e-01
-3.990392e-01
-3.852659e-01
-3.765617e-01
-3.726705e-01
-3.725499e-01
-3.745008e-01
-3.765176e-01
-3.768040e-01
-3.743872e-01
-3.696311e-01
-3.642785e-01
-3.608341e-01
-3.616188e-01
-3.680499e-01
-3.803909e-01
-3.978337e-01
-4.187598e-01
-4.412028e-01
-4.634492e-01
-4.844513e-01
-5.037258e-01
-5.208100e-01
-5.347805e-01
-5.443366e-01
-5.484522e-01
-5.470962e-01
-5.414877e-01
-5.337557e-01
-5.262795e-01
-5.210653e-01
-5.193253e-01
-5.212755e-01
-5.261395e-01
-5.323623e-01
-5.380261e-01
-5.414092e-01
-5.414813e-01
-5.380297e-01
-5.313196e-01
-5.216068e-01
-5.089974e-01
-4.938057e-01
-4.770021e-01
-4.602180e-01
-4.452200e-01
-4.332498e-01
-4.246661e-01
-4.190320e-01
-4.155209e-01
-4.133974e-01
-4.123243e-01
-4.123743e-01
-4.138419e-01
-4.170715e-01
-4.224229e-01
-4.302807e-01
-4.409219e-01
-4.541829e-01
-4.691177e-01
-4.839931e-01
-4.968195e-01
-5.062011e-01
-5.119724e-01
-5.151922e-01
-5.175119e-01
-5.203469e-01
-5.243458e-01
-5.293860e-01
-5.349658e-01
-5.406412e-01
-5.461731e-01
-5.513097e-01
-5.554340e-01
-5.574289e-01
-5.559622e-01
-5.500697e-01
-5.396836e-01
-5.258175e-01
-5.103500e-01
-4.955692e-01
-4.837244e-01
-4.767286e-01
-4.759951e-01
-4.823177e-01
-4.957195e-01
-5.152730e-01
-5.390128e-01
-5.640987e-01
-5.872963e-01
-6.056876e-01
-6.173809e-01
-6.218779e-01
-6.198665e-01
-6.126221e-01
-6.015035e-01
-5.878260e-01
-5.729871e-01
-5.585858e-01
-5.463801e-01
-5.380442e-01
-5.347889e-01
-5.369553e-01
-5.437234e-01
-5.530987e-01
-5.623120e-01
-5.686071e-01
-5.701597e-01
-5.667006e-01
-5.594768e-01
-5.505291e-01
-5.417378e-01
-5.342545e-01
-5.285696e-01
-5.249327e-01
-5.236707e-01
-5.251664e-01
-5.295717e-01
-5.365026e-01
-5.449540e-01
-5.535113e-01
-5.606784e-01
-5.650588e-01
-5.653733e-01
-5.605920e-01
-5.503663e-01
-5.355189e-01
-5.181002e-01
-5.008027e-01
-4.860868e-01
-4.755527e-01
-4.697366e-01
-4.682102e-01
-4.698954e-01
-4.735269e-01
-4.780659e-01
-4.828542e-01
-4.874920e-01
-4.916460e-01
-4.950061e-01
-4.974015e-01
-4.989307e-01
-4.999582e-01
-5.009086e-01
-5.019134e-01
-5.025324e-01
-5.017991e-01
-4.986430e-01
-4.924750e-01
-4.835951e-01
-4.731849e-01
-4.628916e-01
-4.542426e-01
-4.481738e-01
-4.448033e-01
-4.434757e-01
-4.430777e-01
-4.424935e-01
-4.409042e-01
-4.377390e-01
-4.324508e-01
-4.245339e-01
-4.139526e-01
-4.016101e-01
-3.892943e-01
-3.789756e-01
-3.719217e-01
-3.681803e-01
-3.666157e-01
-3.653762e-01
-3.625810e-01
-3.569783e-01
-3.483266e-01
-3.373607e-01
-3.253800e-01
-3.136940e-01
-3.032195e-01
-2.943512e-01
-2.870254e-01
-2.809011e-01
-2.756402e-01
-2.711926e-01
-2.678813e-01
-2.661676e-01
-2.662315e-01
-2.676926e-01
-2.696957e-01
-2.713068e-01
-2.719644e-01
-2.717339e-01
-2.712254e-01
-2.712016e-01
-2.720868e-01
-2.736790e-01
-2.752692e-01
-2.761051e-01
-2.758837e-01
-2.749215e-01
-2.738939e-01
-2.733393e-01
-2.732454e-01
-2.729360e-01
-2.712967e-01
-2.672115e-01
-2.600074e-01
-2.497185e-01
-2.370762e-01
-2.232679e-01
-2.095846e-01
-1.970654e-01
-1.862281e-01
-1.769834e-01
-1.688103e-01
-1.611304e-01
-1.536475e-01
-1.464049e-01
-1.395391e-01
-1.329892e-01
-1.264653e-01
-1.197409e-01
-1.130266e-01
-1.070827e-01
-1.029208e-01
-1.012607e-01
-1.021002e-01
-1.046886e-01
-1.079279e-01
-1.109263e-01
-1.133194e-01
-1.151733e-01
-1.166034e-01
-1.173832e-01
-1.167618e-01
-1.135870e-01
-1.066849e-01
-9.532090e-02
-7.951221e-02
-6.004482e-02
-3.823322e-02
-1.560150e-02
6.373305e-03
2.644631e-02
4.374162e-02
5.781316e-02
6.861311e-02
7.638300e-02
8.147671e-02
8.417390e-02
8.460644e-02
8.285729e-02
7.916151e-02
7.407279e-02
6.848497e-02
6.348900e-02
6.012019e-02
5.907122e-02
6.048146e-02
6.395837e-02
6.890564e-02
7.498105e-02
8.230367e-02
9.116258e-02
1.014090e-01
1.120454e-01
1.214340e-01
1.281055e-01
1.316976e-01
1.334236e-01
1.357588e-01
1.414939e-01
1.526317e-01
1.696567e-01
1.915352e-01
2.164000e-01
2.424511e-01
2.685169e-01
2.940757e-01
3.189672e-01
3.431201e-01
3.664561e-01
3.889304e-01
4.105595e-01
4.313387e-01
4.511219e-01
4.696299e-01
4.866517e-01
5.023204e-01
5.172478e-01
5.323613e-01
5.484523e-01
5.656448e-01
5.831280e-01
5.993955e-01
6.128805e-01
6.225841e-01
6.283686e-01
6.309165e-01
6.315060e-01
6.317014e-01
6.330242e-01
6.366765e-01
6.433749e-01
6.533574e-01
6.665732e-01
6.828981e-01
7.021578e-01
7.239591e-01
7.475350e-01
7.717753e-01
7.954604e-01
8.176195e-01
8.378754e-01
8.566497e-01
8.751502e-01
8.950705e-01
9.180056e-01
9.447661e-01
9.749357e-01
1.006981e+00
1.038918e+00
1.069129e+00
1.096852e+00
1.122173e+00
1.145716e+00
1.168247e+00
1.190391e+00
1.212536e+00
1.234884e+00
1.257538e+00
1.280564e+00
1.303996e+00
1.327818e+00
1.351941e+00
1.376194e+00
1.400314e+00
1.423955e+00
1.446754e+00
1.468434e+00
1.488934e+00
1.508491e+00
1.527647e+00
1.547108e+00
1.567492e+00
1.589051e+00
1.611516e+00
1.634130e+00
1.655844e+00
1.675544e+00
1.692211e+00
1.705015e+00
1.713373e+00
1.716990e+00
1.715875e+00
1.710332e+00
1.700970e+00
1.688740e+00
1.674961e+00
1.661186e+00
1.648897e+00
1.639135e+00
1.632289e+00
1.628178e+00
1.626337e+00
1.626273e+00
1.627570e+00
1.629911e+00
1.633074e+00
1.636928e+00
1.641415e+00
1.646554e+00
1.652402e+00
1.658951e+00
1.666059e+00
1.673598e+00
1.681705e+00
1.690803e+00
1.701338e+00
1.713515e+00
1.727214e+00
1.742092e+00
1.757777e+00
1.773960e+00
1.790236e+00
1.805880e+00
1.819809e+00
1.830806e+00
1.837909e+00
1.840786e+00
1.839891e+00
1.836284e+00
1.831215e+00
1.825726e+00
1.820430e+00
1.815505e+00
1.810842e+00
1.806272e+00
1.801771e+00
1.797550e+00
1.794042e+00
1.791820e+00
1.791457e+00
1.793322e+00
1.797386e+00
1.803175e+00
1.809897e+00
1.816644e+00
1.822583e+00
1.827079e+00
1.829774e+00
1.830579e+00
1.829633e+00
1.827288e+00
1.824171e+00
1.821261e+00
1.819826e+00
1.821101e+00
1.825831e+00
1.833951e+00
1.844594e+00
1.856417e+00
1.868066e+00
1.878559e+00
1.887451e+00
1.894797e+00
1.901052e+00
1.906939e+00
1.913273e+00
1.920738e+00
1.929687e+00
1.940068e+00
1.951511e+00
1.963501e+00
1.975544e+00
1.987257e+00
1.998425e+00
2.009065e+00
2.019482e+00
2.030220e+00
2.041890e+00
2.054978e+00
2.069744e+00
2.086211e+00
2.104159e+00
2.123085e+00
2.142205e+00
2.160595e+00
2.177466e+00
2.192388e+00
2.205333e+00
2.216541e+00
2.226348e+00
2.235080e+00
2.243021e+00
2.250396e+00
2.257343e+00
2.263892e+00
2.270003e+00
2.275639e+00
2.280774e+00
2.285309e+00
2.289046e+00
2.291763e+00
2.293325e+00
2.293762e+00
2.293366e+00
2.292748e+00
2.292762e+00
2.294258e+00
2.297785e+00
2.303380e+00
2.310555e+00
2.318461e+00
2.326128e+00
2.332682e+00
2.337489e+00
2.340235e+00
2.340911e+00
2.339731e+00
2.336990e+00
2.332886e+00
2.327408e+00
2.320347e+00
2.311460e+00
2.300712e+00
2.288497e+00
2.275686e+00
2.263420e+00
2.252728e+00
2.244235e+00
2.238166e+00
2.234592e+00
2.233649e+00
2.235518e+00
2.240180e+00
2.247216e+00
2.255809e+00
2.264967e+00
2.273760e+00
2.281453e+00
2.287526e+00
2.291712e+00
2.294106e+00
2.295221e+00
2.295878e+00
2.296926e+00
2.298927e+00
2.301975e+00
2.305801e+00
2.310091e+00
2.314790e+00
2.320130e+00
2.326356e+00
2.333352e+00
2.340515e+00
2.347045e+00
2.352425e+00
2.356708e+00
2.360384e+00
2.363969e+00
2.367630e+00
2.371092e+00
2.373824e+00
2.375312e+00
2.375249e+00
2.373583e+00
2.370425e+00
2.365926e+00
2.360246e+00
2.353609e+00
2.346403e+00
2.339253e+00
2.333005e+00
2.328624e+00
2.327043e+00
2.329007e+00
2.334888e+00
2.344498e+00
2.357031e+00
2.371214e+00
2.385603e+00
2.398883e+00
2.410068e+00
2.418580e+00
2.424230e+00
2.427114e+00
2.427525e+00
2.425883e+00
2.422693e+00
2.418502e+00
2.413824e+00
2.409098e+00
2.404745e+00
2.401339e+00
2.399747e+00
2.401070e+00
2.406296e+00
2.415839e+00
2.429257e+00
2.445404e+00
2.462898e+00
2.480573e+00
2.497670e+00
2.513757e+00
2.528515e+00
2.541589e+00
2.552592e+00
2.561255e+00
2.567608e+00
2.572073e+00
2.575412e+00
2.578569e+00
2.582425e+00
2.587521e+00
2.593832e+00
2.600770e+00
2.607465e+00
2.613174e+00
2.617481e+00
2.620215e+00
2.621240e+00
2.620374e+00
2.617445e+00
2.612415e+00
2.605504e+00
2.597212e+00
2.588264e+00
2.579529e+00
2.571929e+00
2.566332e+00
2.563391e+00
2.563385e+00
2.566142e+00
2.571085e+00
2.577364e+00
2.583980e+00
2.589896e+00
2.594159e+00
2.596048e+00
2.595194e+00
2.591624e+00
2.585727e+00
2.578152e+00
2.569652e+00
2.560919e+00
2.552443e+00
2.544490e+00
2.537160e+00
2.530447e+00
2.524233e+00
2.518211e+00
2.511864e+00
2.504574e+00
2.495845e+00
2.485479e+00
2.473634e+00
2.460769e+00
2.447511e+00
2.434424e+00
2.421772e+00
2.409440e+00
2.397064e+00
2.384175e+00
2.370295e+00
2.355071e+00
2.338477e+00
2.320938e+00
2.303287e+00
2.286568e+00
2.271764e+00
2.259553e+00
2.250162e+00
2.243283e+00
2.238124e+00
2.233606e+00
2.228684e+00
2.222613e+00
2.215040e+00
2.205901e+00
2.195254e+00
2.183181e+00
2.169822e+00
2.155496e+00
2.140769e+00
2.126387e+00
2.113081e+00
2.101321e+00
2.091158e+00
2.082213e+00
2.073820e+00
2.065239e+00
2.055823e+00
2.045075e+00
2.032655e+00
2.018410e+00
2.002425e+00
1.985057e+00
1.966920e+00
1.948818e+00
1.931600e+00
1.915963e+00
1.902275e+00
1.890496e+00
1.880238e+00
1.870917e+00
1.861918e+00
1.852712e+00
1.842901e+00
1.832215e+00
1.820491e+00
1.807679e+00
1.793815e+00
1.778977e+00
1.763247e+00
1.746730e+00
1.729608e+00
1.712184e+00
1.694858e+00
1.678025e+00
1.661954e+00
1.646725e+00
1.632243e+00
1.618330e+00
1.604829e+00
1.591668e+00
1.578870e+00
1.566514e+00
1.554650e+00
1.543201e+00
1.531929e+00
1.520486e+00
1.508560e+00
1.496035e+00
1.483134e+00
1.470457e+00
1.458855e+00
1.449183e+00
1.441980e+00
1.437239e+00
1.434342e+00
1.432195e+00
1.429499e+00
1.425045e+00
1.417964e+00
1.407833e+00
1.394640e+00
1.378643e+00
1.360225e+00
1.339802e+00
1.317868e+00
1.295067e+00
1.272216e+00
1.250162e+00
1.229476e+00
1.210127e+00
1.191346e+00
1.171848e+00
1.150332e+00
1.126021e+00
1.098979e+00
1.070142e+00
1.041017e+00
1.013121e+00
9.873501e-01
9.636241e-01
9.409863e-01
9.180929e-01
8.938241e-01
8.676963e-01
8.399020e-01
8.110366e-01
7.817233e-01
7.523579e-01
7.230858e-01
6.939438e-01
6.650154e-01
6.364980e-01
6.086416e-01
5.815829e-01
5.552093e-01
5.291862e-01
5.031200e-01
4.767475e-01
4.500900e-01
4.235023e-01
3.975501e-01
3.727785e-01
3.495345e-01
3.279392e-01
3.079604e-01
2.894676e-01
2.722198e-01
2.558374e-01
2.398252e-01
2.236485e-01
2.068191e-01
1.889449e-01
1.697184e-01
1.488832e-01
1.262393e-01
1.016878e-01
7.526474e-02
4.713541e-02
1.754944e-02
-1.322627e-02
-4.495775e-02
-7.742238e-02
-1.103115e-01
-1.431333e-01
-1.752050e-01
-2.057584e-01
-2.341221e-01
-2.599179e-01
-2.831862e-01
-3.043620e-01
-3.240898e-01
-3.429708e-01
-3.613699e-01
-3.793616e-01
-3.968138e-01
-4.135552e-01
-4.295407e-01
-4.449311e-01
-4.600538e-01
-4.752711e-01
-4.908104e-01
-5.066203e-01
-5.223284e-01
-5.373496e-01
-5.510983e-01
-5.631911e-01
-5.735594e-01
-5.824509e-01
-5.903285e-01
-5.977050e-01
-6.050137e-01
-6.125969e-01
-6.208039e-01
-6.300921e-01
-6.410205e-01
-6.540935e-01
-6.695347e-01
-6.871427e-01
-7.063368e-01
-7.263805e-01
-7.466694e-01
-7.669570e-01
-7.874269e-01
-8.085642e-01
-8.308549e-01
-8.544638e-01
-8.790579e-01
-9.038455e-01
-9.277863e-01
-9.498827e-01
-9.694360e-01
-9.861661e-01
-1.000185e+00
-1.011893e+00
-1.021879e+00
-1.030847e+00
-1.039559e+00
-1.048721e+00
-1.058855e+00
-1.070168e+00
-1.082547e+00
-1.095667e+00
-1.109147e+00
-1.122641e+00
-1.135838e+00
-1.148434e+00
-1.160126e+00
-1.170651e+00
-1.179829e+00
-1.187620e+00
-1.194153e+00
-1.199705e+00
-1.204656e+00
-1.209393e+00
-1.214233e+00
-1.219388e+00
-1.225003e+00
-1.231217e+00
-1.238181e+00
-1.245965e+00
-1.254437e+00
-1.263228e+00
-1.271860e+00
-1.279959e+00
-1.287430e+00
-1.294491e+00
-1.301554e+00
-1.309005e+00
-1.317016e+00
-1.325475e+00
-1.334052e+00
-1.342341e+00
-1.350003e+00
-1.356822e+00
-1.362681e+00
-1.367515e+00
-1.371300e+00
-1.374108e+00
-1.376202e+00
-1.378099e+00
-1.380534e+00
-1.384298e+00
-1.390024e+00
-1.397992e+00
-1.408022e+00
-1.419459e+00
-1.431289e+00
-1.442371e+00
-1.451734e+00
-1.458841e+00
-1.463742e+00
-1.467007e+00
-1.469493e+00
-1.472053e+00
-1.475331e+00
-1.479682e+00
-1.485166e+00
-1.491571e+00
-1.498424e+00
-1.505044e+00
-1.510632e+00
-1.514434e+00
-1.515967e+00
-1.515225e+00
-1.512769e+00
-1.509587e+00
-1.506808e+00
-1.505385e+00
-1.505895e+00
-1.508467e+00
-1.512812e+00
-1.518337e+00
-1.524326e+00
-1.530142e+00
-1.535386e+00
-1.539957e+00
-1.543983e+00
-1.547664e+00
-1.551115e+00
-1.554291e+00
-1.557020e+00
-1.559131e+00
-1.560580e+00
-1.561471e+00
-1.561990e+00
-1.562305e+00
-1.562510e+00
-1.562629e+00
-1.562684e+00
-1.562757e+00
-1.562999e+00
-1.563571e+00
-1.564544e+00
-1.565820e+00
-1.567127e+00
-1.568080e+00
-1.568293e+00
-1.567509e+00
-1.565710e+00
-1.563145e+00
-1.560264e+00
-1.557581e+00
-1.555516e+00
-1.554299e+00
-1.553941e+00
-1.554284e+00
-1.555072e+00
-1.556025e+00
-1.556873e+00
-1.557373e+00
-1.557282e+00
-1.556345e+00
-1.554305e+00
-1.550928e+00
-1.546058e+00
-1.539674e+00
-1.531945e+00
-1.523219e+00
-1.513941e+00
-1.504535e+00
-1.495314e+00
-1.486468e+00
-1.478109e+00
-1.470321e+00
-1.463174e+00
-1.456689e+00
-1.450824e+00
-1.445519e+00
-1.440792e+00
-1.436806e+00
-1.433841e+00
-1.432159e+00
-1.431853e+00
-1.432739e+00
-1.434386e+00
-1.436262e+00
-1.437918e+00
-1.439095e+00
-1.439721e+00
-1.439835e+00
-1.439485e+00
-1.438686e+00
-1.437409e+00
-1.435589e+00
-1.433098e+00
-1.429716e+00
-1.425137e+00
-1.419062e+00
-1.411349e+00
-1.402156e+00
-1.391959e+00
-1.381440e+00
