EVENT_NAME: EMILIA_2ND_SHOCK
EVENT_ID: IT-2012-0011
EVENT_DATE_YYYYMMDD: 20120529
EVENT_TIME_HHMMSS: 070002
EVENT_LATITUDE_DEGREE: 44.8417
EVENT_LONGITUDE_DEGREE: 11.0657
EVENT_DEPTH_KM: 8.1
HYPOCENTER_REFERENCE: INGV-CNT_Seismic_Bulletin
MAGNITUDE_W: 6.0
MAGNITUDE_W_REFERENCE: RCMT-INGV
MAGNITUDE_L: 5.8
MAGNITUDE_L_REFERENCE: INGV-CNT_Seismic_Bulletin
FOCAL_MECHANISM: TF
NETWORK: TV
STATION_CODE: MIR02
STATION_NAME: MIRANDOLA MRN
STATION_LATITUDE_DEGREE: 44.886948
STATION_LONGITUDE_DEGREE: 11.073198
STATION_ELEVATION_M: 
LOCATION: 
SENSOR_DEPTH_M: 
VS30_M/S: 
SITE_CLASSIFICATION_EC8: C*
MORPHOLOGIC_CLASSIFICATION: 
EPICENTRAL_DISTANCE_KM: 5.1
EARTHQUAKE_BACKAZIMUTH_DEGREE: 186.7
DATE_TIME_FIRST_SAMPLE_YYYYMMDD_HHMMSS: 20120529_065950.000
DATE_TIME_FIRST_SAMPLE_PRECISION: milliseconds
SAMPLING_INTERVAL_S: 0.005000
NDATA: 12601
DURATION_S: 63.005
STREAM: HNN
UNITS: cm/s
INSTRUMENT: sensor = Episensor FBA ES-T [Kinemetrics] | digitizer = Unknown [Unknown]
INSTRUMENT_ANALOG/DIGITAL: D
INSTRUMENTAL_FREQUENCY_HZ: 
INSTRUMENTAL_DAMPING: 
FULL_SCALE_G: 
N_BIT_DIGITAL_CONVERTER: 
PGV_CM/S: -53.441770
TIME_PGV_S: 19.660000
BASELINE_CORRECTION: BASELINE REMOVED
FILTER_TYPE: BUTTERWORTH
FILTER_ORDER: 2
LOW_CUT_FREQUENCY_HZ: 0.050
HIGH_CUT_FREQUENCY_HZ: 40.000
LATE/NORMAL_TRIGGERED: NT
DATABASE_VERSION: DYNA 1.0
HEADER_FORMAT: DYNA 1.2
DATA_TYPE: VELOCITY
PROCESSING: manual (Paolucci et al., 2011)
DATA_TIMESTAMP_YYYYMMDD_HHMMSS: 20141028_094514.539
DATA_LICENSE: CC-BY4_0 (http://creativecommons.org/licenses/by/4.0/)
DATA_CITATION: ESM working group (2015), European Strong-Motion database, version 0.1, Network Activity 3: Networking acceleration networks and SM data users. Project NERA (www.nera-eu.org)
DATA_CREATOR: ESM working group
ORIGINAL_DATA_MEDIATOR_CITATION: Orfeus - European Integrated Data Archive (EIDA) http://www.orfeus-eu.org/eida/
ORIGINAL_DATA_MEDIATOR: Orfeus - European Integrated Data Archive (EIDA)
ORIGINAL_DATA_CREATOR_CITATION: 
ORIGINAL_DATA_CREATOR: network: TV (INGV Experiments Network); owner: Istituto Nazionale di Geofisica e Vulcanologia
USER1: /home/dyna/processing-itaca/processing.py /var/www/processing/tmp/Lucia//TV.MIR02..HNE.D.20120529.070003.X.ACC.ASC /var/www/processing/tmp/Lucia//TV.MIR02..HNN.D.20120529.070003.X.ACC.ASC /var/www/processing/tmp/Lucia//TV.MIR02..HNZ.D.20120529.070003.X.ACC.ASC --tmp /var/www/processing/tmp/Lucia/ --le 0.050 --he 40.000 --ln 0.050 --hn 40.000 --lz 0.050 --hz 40.000 --fo 2 --ca 50 --cz 180 --ta 5 --tz 5 --mf 1 --rf 0 --tr NT
USER2: 
USER3: 
USER4: 
USER5: 
[...]
-0.538929
-0.539376
-0.539849
-0.540358
-0.540881
-0.541383
-0.541839
-0.542251
-0.542652
-0.543097
-0.543607
-0.544158
-0.544717
-0.545275
-0.545825
-0.546337
-0.546785
-0.547177
-0.547544
-0.547897
-0.548223
-0.548525
-0.548847
-0.549238
-0.549716
-0.550262
-0.550841
-0.551417
-0.551963
-0.552467
-0.552926
-0.553342
-0.553730
-0.554115
-0.554525
-0.554978
-0.555470
-0.555977
-0.556469
-0.556927
-0.557356
-0.557774
-0.558206
-0.558676
-0.559190
-0.559733
-0.560267
-0.560764
-0.561215
-0.561623
-0.561995
-0.562334
-0.562642
-0.562932
-0.563235
-0.563570
-0.563936
-0.564338
-0.564795
-0.565316
-0.565869
-0.566402
-0.566887
-0.567330
-0.567755
-0.568176
-0.568594
-0.569012
-0.569441
-0.569893
-0.570367
-0.570845
-0.571318
-0.571791
-0.572271
-0.572752
-0.573215
-0.573650
-0.574061
-0.574463
-0.574881
-0.575336
-0.575821
-0.576310
-0.576780
-0.577230
-0.577669
-0.578118
-0.578602
-0.579136
-0.579703
-0.580258
-0.580756
-0.581174
-0.581522
-0.581840
-0.582174
-0.582539
-0.582902
-0.583219
-0.583489
-0.583761
-0.584083
-0.584457
-0.584855
-0.585269
-0.585707
-0.586162
-0.586597
-0.586988
-0.587343
-0.587687
-0.588037
-0.588397
-0.588768
-0.589152
-0.589554
-0.589979
-0.590427
-0.590897
-0.591374
-0.591833
-0.592260
-0.592670
-0.593092
-0.593546
-0.594021
-0.594492
-0.594944
-0.595369
-0.595752
-0.596081
-0.596379
-0.596705
-0.597107
-0.597582
-0.598092
-0.598603
-0.599109
-0.599604
-0.600074
-0.600516
-0.600947
-0.601377
-0.601776
-0.602112
-0.602402
-0.602704
-0.603051
-0.603429
-0.603816
-0.604210
-0.604621
-0.605049
-0.605474
-0.605874
-0.606246
-0.606601
-0.606951
-0.607296
-0.607635
-0.607965
-0.608275
-0.608555
-0.608817
-0.609108
-0.609464
-0.609882
-0.610334
-0.610803
-0.611293
-0.611808
-0.612343
-0.612881
-0.613384
-0.613798
-0.614101
-0.614334
-0.614571
-0.614860
-0.615213
-0.615615
-0.616033
-0.616424
-0.616773
-0.617117
-0.617503
-0.617928
-0.618351
-0.618741
-0.619099
-0.619443
-0.619789
-0.620150
-0.620511
-0.620850
-0.621176
-0.621527
-0.621916
-0.622317
-0.622698
-0.623059
-0.623414
-0.623770
-0.624120
-0.624463
-0.624802
-0.625131
-0.625436
-0.625719
-0.626000
-0.626303
-0.626638
-0.626999
-0.627367
-0.627729
-0.628083
-0.628440
-0.628804
-0.629180
-0.629574
-0.629996
-0.630439
-0.630877
-0.631283
-0.631658
-0.632016
-0.632356
-0.632667
-0.632948
-0.633216
-0.633488
-0.633772
-0.634084
-0.634434
-0.634802
-0.635150
-0.635464
-0.635757
-0.636043
-0.636316
-0.636572
-0.636822
-0.637086
-0.637371
-0.637673
-0.637990
-0.638321
-0.638656
-0.638984
-0.639300
-0.639601
-0.639896
-0.640196
-0.640508
-0.640831
-0.641160
-0.641498
-0.641849
-0.642198
-0.642509
-0.642754
-0.642944
-0.643126
-0.643344
-0.643610
-0.643908
-0.644215
-0.644510
-0.644775
-0.645010
-0.645261
-0.645592
-0.646032
-0.646545
-0.647060
-0.647515
-0.647883
-0.648166
-0.648385
-0.648579
-0.648794
-0.649066
-0.649392
-0.649745
-0.650094
-0.650433
-0.650774
-0.651119
-0.651462
-0.651806
-0.652148
-0.652466
-0.652720
-0.652891
-0.653004
-0.653122
-0.653296
-0.653532
-0.653801
-0.654081
-0.654384
-0.654721
-0.655067
-0.655373
-0.655620
-0.655834
-0.656057
-0.656306
-0.656569
-0.656816
-0.657021
-0.657177
-0.657306
-0.657454
-0.657650
-0.657893
-0.658156
-0.658413
-0.658641
-0.658840
-0.659049
-0.659324
-0.659679
-0.660062
-0.660406
-0.660683
-0.660922
-0.661174
-0.661465
-0.661788
-0.662112
-0.662404
-0.662632
-0.662791
-0.662912
-0.663049
-0.663238
-0.663486
-0.663775
-0.664086
-0.664396
-0.664650
-0.664714
-0.664410
-0.663623
-0.662405
-0.660923
-0.659235
-0.657140
-0.654319
-0.650724
-0.646750
-0.642871
-0.639021
-0.634545
-0.629035
-0.623088
-0.617784
-0.613305
-0.608341
-0.601067
-0.591052
-0.580593
-0.573841
-0.573552
-0.578162
-0.582192
-0.580052
-0.570495
-0.558106
-0.549753
-0.548282
-0.550030
-0.550212
-0.550114
-0.556229
-0.572191
-0.593300
-0.608936
-0.610535
-0.599240
-0.586046
-0.582805
-0.592582
-0.608410
-0.620108
-0.622540
-0.618576
-0.613839
-0.609049
-0.599945
-0.585286
-0.572818
-0.575041
-0.596686
-0.626703
-0.647103
-0.650439
-0.643757
-0.635962
-0.628402
-0.618295
-0.603637
-0.582813
-0.555433
-0.525462
-0.499110
-0.477911
-0.458534
-0.442290
-0.438014
-0.449138
-0.464917
-0.472948
-0.474478
-0.479647
-0.493798
-0.514808
-0.537425
-0.556041
-0.568659
-0.578576
-0.587337
-0.588074
-0.571691
-0.540216
-0.508954
-0.492715
-0.494877
-0.511637
-0.537674
-0.564112
-0.581616
-0.590796
-0.601315
-0.616999
-0.629852
-0.632507
-0.628103
-0.622003
-0.610692
-0.586028
-0.547396
-0.505383
-0.474592
-0.463507
-0.467979
-0.471761
-0.457629
-0.424691
-0.392637
-0.382954
-0.398422
-0.424669
-0.445876
-0.454658
-0.453141
-0.448527
-0.444089
-0.434828
-0.414391
-0.383514
-0.351019
-0.328408
-0.319636
-0.316307
-0.311850
-0.316859
-0.346433
-0.396053
-0.444212
-0.477259
-0.500808
-0.525758
-0.551220
-0.565515
-0.558326
-0.526492
-0.475138
-0.421801
-0.390130
-0.385919
-0.386997
-0.369150
-0.334593
-0.306178
-0.300644
-0.315292
-0.338092
-0.362641
-0.390752
-0.426669
-0.469691
-0.505832
-0.509476
-0.464188
-0.384675
-0.311392
-0.276571
-0.275644
-0.278251
-0.268020
-0.260775
-0.278701
-0.319044
-0.356649
-0.369245
-0.356503
-0.338977
-0.335472
-0.339850
-0.328543
-0.291179
-0.244058
-0.212441
-0.204879
-0.205415
-0.190654
-0.155847
-0.121698
-0.111722
-0.127574
-0.153680
-0.178070
-0.197255
-0.210670
-0.222214
-0.237442
-0.253252
-0.258840
-0.246513
-0.216922
-0.175823
-0.125516
-0.060952
0.019696
0.101969
0.160247
0.179420
0.166161
0.134647
0.092036
0.043688
-0.002805
-0.041307
-0.060264
-0.038231
0.038491
0.153696
0.260067
0.307199
0.283296
0.228347
0.197369
0.212477
0.253797
0.287882
0.298420
0.296442
0.306706
0.342176
0.389525
0.418812
0.408893
0.364715
0.307962
0.256600
0.221926
0.214144
0.234099
0.264002
0.277257
0.259920
0.222762
0.189370
0.172976
0.171263
0.173703
0.158914
0.101563
0.003952
-0.090336
-0.127584
-0.083594
0.021347
0.131684
0.189805
0.182976
0.157411
0.170674
0.231868
0.297248
0.318788
0.290210
0.245867
0.219846
0.219151
0.234727
0.254228
0.263836
0.263214
0.274067
0.314441
0.378169
0.452069
0.536460
0.640697
0.762371
0.869467
0.913366
0.868535
0.750723
0.597968
0.443774
0.304265
0.187253
0.113654
0.117239
0.208138
0.344385
0.463489
0.541277
0.598112
0.658342
0.729031
0.801423
0.848577
0.838751
0.771980
0.691394
0.646272
0.653967
0.699277
0.752752
0.786046
0.787326
0.771510
0.772595
0.824070
0.940574
1.107400
1.285893
1.431768
1.508269
1.494888
1.404566
1.287305
1.194160
1.138349
1.104675
1.086542
1.098483
1.159213
1.267528
1.387981
1.467112
1.474691
1.422428
1.339982
1.244052
1.134332
1.014947
0.911123
0.850269
0.829869
0.827840
0.844685
0.907445
1.025622
1.161698
1.245668
1.214337
1.065053
0.886415
0.803668
0.880260
1.084077
1.325392
1.513917
1.615732
1.673325
1.762041
1.928584
2.153029
2.346060
2.410139
2.336851
2.228844
2.208871
2.319683
2.514666
2.714710
2.848785
2.873056
2.798883
2.681215
2.555651
2.423518
2.295868
2.204062
2.170922
2.185459
2.196840
2.150646
2.034278
1.864042
1.658632
1.467295
1.386216
1.497810
1.807878
2.249002
2.711302
3.074038
3.251453
3.224510
3.039638
2.804806
2.660110
2.683541
2.822380
2.954001
3.004309
2.991333
2.977607
3.004404
3.073987
3.173458
3.284535
3.385107
3.480441
3.615452
3.823610
4.079683
4.315132
4.467753
4.523029
4.521807
4.523443
4.556775
4.617170
4.700792
4.800844
4.879647
4.893779
4.823729
4.656516
4.407899
4.162012
3.998764
3.912436
3.881515
3.941843
4.114830
4.345347
4.559926
4.731886
4.879709
5.024010
5.149945
5.224927
5.236790
5.205182
5.193772
5.284875
5.487196
5.709221
5.854464
5.896551
5.870710
5.858653
5.954628
6.166102
6.378402
6.488087
6.528159
6.597645
6.711938
6.781570
6.706784
6.448674
6.046422
5.625708
5.371791
5.432154
5.818354
6.399364
6.983416
7.409385
7.593084
7.543120
7.360300
7.197730
7.182984
7.344846
7.597669
7.822010
7.992276
8.193563
8.476476
8.760545
8.936191
8.979051
8.916798
8.783242
8.647682
8.612087
8.743106
9.020261
9.339886
9.561185
9.573012
9.360304
9.031674
8.766369
8.705526
8.869583
9.162765
9.467301
9.732449
9.944911
10.051845
9.999244
9.834734
9.690808
9.661132
9.752256
9.951251
10.264699
10.671999
11.099653
11.469103
11.744501
11.923970
12.010254
12.019505
12.003498
12.020014
12.094603
12.239188
12.461125
12.726445
12.959272
13.084622
13.064516
12.931767
12.777607
12.663079
12.582857
12.539306
12.562880
12.621743
12.596786
12.374150
11.908655
11.216918
10.368093
9.468578
8.621154
7.892452
7.307036
6.848358
6.459710
6.068139
5.637867
5.199318
4.797198
4.420243
4.031376
3.656944
3.396747
3.353957
3.559879
3.924066
4.270817
4.482597
4.596982
4.734286
4.975810
5.343929
5.833439
6.405166
6.988000
7.516526
7.936237
8.193442
8.280337
8.264612
8.225036
8.187829
8.143671
8.069720
7.910940
7.590748
7.073835
6.405417
5.684441
5.006185
4.420228
3.936766
3.572967
3.364209
3.316429
3.387285
3.528812
3.715549
3.929969
4.153577
4.375380
4.590936
4.810585
5.092890
5.529737
6.145789
6.837742
7.466418
7.996499
8.497243
9.016836
9.510988
9.896980
10.135424
10.258329
10.350805
10.504497
10.766452
11.135505
11.591871
12.082603
12.498955
12.738483
12.787680
12.711225
12.582336
12.448724
12.351311
12.343207
12.463720
12.703787
13.020299
13.367890
13.704980
14.003829
14.270084
14.525465
14.766726
14.964814
15.099137
15.165260
15.156603
15.068108
14.914417
14.734677
14.596040
14.581801
14.733075
15.000426
15.279793
15.489105
15.606999
15.670140
15.733983
15.810469
15.867458
15.906293
15.993911
16.202845
16.556835
17.030369
17.566397
18.104631
18.620556
19.127113
19.613298
19.990185
20.130527
19.967747
19.539476
18.944260
18.283260
17.636845
17.057695
16.558828
16.106260
15.631763
15.065167
14.367088
13.540776
12.623670
11.668247
10.715703
9.781833
8.871508
7.993420
7.148327
6.317559
5.481318
4.653304
3.901385
3.333954
3.056907
3.132215
3.560177
4.282539
5.195508
6.161941
7.027591
7.655636
7.961434
7.926911
7.616460
7.184080
6.813152
6.619262
6.624176
6.803369
7.114239
7.486101
7.825577
8.050416
8.114116
7.994865
7.674291
7.150916
6.470534
5.713312
4.947705
4.219439
3.585331
3.137624
2.981942
3.178557
3.694565
4.418245
5.228218
6.056076
6.895306
7.757648
8.626837
9.462593
10.239174
10.966354
11.684333
12.442977
13.260750
14.096312
14.889581
15.632807
16.362591
17.089794
17.798546
18.512735
19.290529
20.142609
21.019094
21.881924
22.731453
23.552601
24.269867
24.765293
24.935789
24.735018
24.174093
23.315496
22.270559
21.157297
20.041716
18.939930
17.868748
16.868971
15.981136
15.207116
14.501064
13.813737
13.147726
12.550404
12.049506
11.609584
11.155611
10.631550
10.030766
9.377326
8.689587
7.960059
7.162953
6.282026
5.336370
4.384620
3.505329
2.763944
2.180247
1.706723
1.240774
0.694582
0.066560
-0.583510
-1.218595
-1.838554
-2.428186
-2.942198
-3.330707
-3.545319
-3.540834
-3.309074
-2.902856
-2.402403
-1.868262
-1.337410
-0.834671
-0.364540
0.083055
0.494153
0.810411
0.960133
0.895864
0.595218
0.056378
-0.676611
-1.503462
-2.320252
-3.085870
-3.828648
-4.605705
-5.469030
-6.447141
-7.530749
-8.677585
-9.841267
-10.990708
-12.107142
-13.183167
-14.221437
-15.221906
-16.186954
-17.142776
-18.124504
-19.138107
-20.166468
-21.206411
-22.273371
-23.378038
-24.512896
-25.650063
-26.750463
-27.790878
-28.780466
-29.745640
-30.717049
-31.732891
-32.816551
-33.931679
-34.976189
-35.824699
-36.380833
-36.618877
-36.589111
-36.370323
-36.018002
-35.560986
-35.029247
-34.467663
-33.922554
-33.423935
-32.995548
-32.681427
-32.530994
-32.532692
-32.581215
-32.541832
-32.344711
-31.999504
-31.535421
-30.968092
-30.329657
-29.692530
-29.136742
-28.695055
-28.327909
-27.945894
-27.459295
-26.814125
-26.004742
-25.078194
-24.113867
-23.171997
-22.264345
-21.374187
-20.479074
-19.548244
-18.552341
-17.512676
-16.542543
-15.811791
-15.448026
-15.468656
-15.802019
-16.356619
-17.066378
-17.888746
-18.783222
-19.705236
-20.618315
-21.502459
-22.354803
-23.194359
-24.059418
-24.980440
-25.948990
-26.912333
-27.786480
-28.474764
-28.904142
-29.070719
-29.050440
-28.962317
-28.919725
-29.001522
-29.254095
-29.710028
-30.385166
-31.254839
-32.253941
-33.300896
-34.312206
-35.220413
-36.011993
-36.746677
-37.520397
-38.393581
-39.350479
-40.332771
-41.303738
-42.261433
-43.201267
-44.097904
-44.933025
-45.726562
-46.525345
-47.362808
-48.245026
-49.162449
-50.077316
-50.915688
-51.622543
-52.208534
-52.703430
-53.093853
-53.342030
-53.441769
-53.429703
-53.346806
-53.200466
-52.967358
-52.626591
-52.187862
-51.699532
-51.229340
-50.820496
-50.468140
-50.149223
-49.857441
-49.586880
-49.299061
-48.935871
-48.459202
-47.862125
-47.156395
-46.361992
-45.491806
-44.544529
-43.533585
-42.516121
-41.567879
-40.728195
-39.976421
-39.252209
-38.490810
-37.650024
-36.720901
-35.720730
-34.676041
-33.614342
-32.573471
-31.603783
-30.737356
-29.957003
-29.216349
-28.487457
-27.775047
-27.097273
-26.466524
-25.874271
-25.283466
-24.648233
-23.952246
-23.225582
-22.519480
-21.865072
-21.256405
-20.663992
-20.055504
-19.406597
-18.701988
-17.935251
-17.112061
-16.249676
-15.368803
-14.485696
-13.607216
-12.729780
-11.849599
-10.976367
-10.128096
-9.308140
-8.494773
-7.658867
-6.785759
-5.876853
-4.941093
-3.992438
-3.048317
-2.127217
-1.254652
-0.467253
0.205035
0.762352
1.229531
1.633309
2.002815
2.385648
2.835611
3.377855
3.999133
4.667052
5.341429
5.973256
6.515610
6.941436
7.243181
7.422625
7.495155
7.493704
7.447544
7.360127
7.219453
7.019758
6.759922
6.434078
6.040680
5.592516
5.107035
4.595616
4.066895
3.528510
2.982654
2.430530
1.882658
1.360791
0.895203
0.526318
0.304411
0.275891
0.461139
0.844645
1.384901
2.028977
2.724342
3.432804
4.138174
4.839175
5.543554
6.272509
7.055511
7.910121
8.830311
9.789442
10.744825
11.649274
12.476461
13.235709
13.954159
14.647764
15.314046
15.944496
16.536636
17.098284
17.642654
18.176563
18.696323
19.199837
19.694777
20.182589
20.639921
21.033363
21.355949
21.638601
21.923428
22.232601
22.560886
22.890022
23.211388
23.538036
23.891426
24.279806
24.698862
25.146032
25.619081
26.107582
26.599426
27.087427
27.560505
27.999689
28.386723
28.702473
28.921824
29.032154
29.051697
29.010164
28.917723
28.762033
28.523813
28.192656
27.778671
27.306709
26.794910
26.246183
25.662411
25.058071
24.456789
23.882742
23.360205
22.913143
22.558033
22.298790
22.128361
22.033792
22.004381
22.037155
22.130022
22.270901
22.440071
22.619358
22.791710
22.938908
23.051971
23.143927
23.244659
23.380320
23.559763
23.775230
24.001911
24.197735
24.321383
24.355953
24.311501
24.212049
24.081604
23.931629
23.761074
23.570686
23.371662
23.187288
23.059481
23.043684
23.179050
23.467558
23.889830
24.427816
25.061531
25.758530
26.482153
27.207207
27.921167
28.611792
29.258701
29.837336
30.323750
30.693489
30.926287
31.017508
30.977636
30.816704
30.536430
30.142042
29.655910
29.114965
28.556278
28.002316
27.453232
26.890806
26.291151
25.638828
24.937117
24.207521
23.475241
22.751673
22.030687
21.303061
20.577604
19.890568
19.294626
18.836658
18.538843
18.390509
18.352852
18.373997
18.405132
18.410416
18.370934
18.284073
18.159105
18.013264
17.867128
17.731522
17.593351
17.421412
17.190062
16.896410
16.562620
16.230236
15.946102
15.744841
15.643421
15.644692
15.734886
15.885719
16.073669
16.290600
16.526754
16.757889
16.961170
17.128382
17.246672
17.280993
17.202852
17.034172
16.840918
16.682058
16.576500
16.515970
16.493330
16.507090
16.544142
16.574314
16.566933
16.506891
16.397121
16.251347
16.082233
15.897221
15.712894
15.569230
15.514333
15.571287
15.728197
15.958478
16.240063
16.557993
16.902651
17.266926
17.630466
17.939745
18.117710
18.108122
17.908926
17.563732
17.134308
16.677767
16.227970
15.790955
15.362866
14.949448
14.566666
14.228434
13.933536
13.657081
13.356193
12.996569
12.579423
12.136381
11.694712
11.251192
10.780191
10.262060
9.701271
9.122067
8.552235
8.006108
7.473968
6.931473
6.367639
5.799590
5.256799
4.758379
4.303098
3.867339
3.413829
2.916769
2.380440
1.827032
1.272558
0.724078
0.192968
-0.304380
-0.763401
-1.202216
-1.648852
-2.120811
-2.622963
-3.156463
-3.717875
-4.296067
-4.880345
-5.468854
-6.065314
-6.671158
-7.283846
-7.902723
-8.535138
-9.194521
-9.893513
-10.640992
-11.440920
-12.288081
-13.165776
-14.051308
-14.927805
-15.792401
-16.651417
-17.512159
-18.383081
-19.271559
-20.175253
-21.082310
-21.979078
-22.852736
-23.693085
-24.494774
-25.249802
-25.938381
-26.537569
-27.039885
-27.455412
-27.796127
-28.066458
-28.267855
-28.402903
-28.473770
-28.483664
-28.440609
-28.355230
-28.236214
-28.092360
-27.935400
-27.773245
-27.599710
-27.395056
-27.137907
-26.816309
-26.430281
-25.988970
-25.508350
-25.009550
-24.511539
-24.017990
-23.511452
-22.963465
-22.350691
-21.665356
-20.921253
-20.155622
-19.421488
-18.774168
-18.257858
-17.888779
-17.642199
-17.463697
-17.300253
-17.120586
-16.913160
-16.678719
-16.426270
-16.165361
-15.898428
-15.624315
-15.344663
-15.059550
-14.761340
-14.440179
-14.091813
-13.716919
-13.322525
-12.930573
-12.575138
-12.280279
-12.038938
-11.812472
-11.550994
-11.221066
-10.820100
-10.370003
-9.908427
-9.486491
-9.153970
-8.929786
-8.790406
-8.695209
-8.623160
-8.582618
-8.591246
-8.655764
-8.768993
-8.914535
-9.069757
-9.213541
-9.342152
-9.474699
-9.634312
-9.825616
-10.030786
-10.216802
-10.347327
-10.404121
-10.402636
-10.380157
-10.370255
-10.392372
-10.456151
-10.565511
-10.722521
-10.933290
-11.206198
-11.535766
-11.886183
-12.198396
-12.418386
-12.518657
-12.501184
-12.390450
-12.219381
-12.012288
-11.780007
-11.530188
-11.277182
-11.039830
-10.826032
-10.614759
-10.361267
-10.033800
-9.644001
-9.233270
-8.833888
-8.449997
-8.068873
-7.679411
-7.277877
-6.862345
-6.430599
-5.986487
-5.542599
-5.110924
-4.691066
