EVENT_NAME: EMILIA_2ND_SHOCK
EVENT_ID: IT-2012-0011
EVENT_DATE_YYYYMMDD: 20120529
EVENT_TIME_HHMMSS: 070002
EVENT_LATITUDE_DEGREE: 44.8417
EVENT_LONGITUDE_DEGREE: 11.0657
EVENT_DEPTH_KM: 8.1
HYPOCENTER_REFERENCE: INGV-CNT_Seismic_Bulletin
MAGNITUDE_W: 6.0
MAGNITUDE_W_REFERENCE: RCMT-INGV
MAGNITUDE_L: 5.8
MAGNITUDE_L_REFERENCE: INGV-CNT_Seismic_Bulletin
FOCAL_MECHANISM: TF
NETWORK: TV
STATION_CODE: MIR06
STATION_NAME: PIEVE DI CORIANO
STATION_LATITUDE_DEGREE: 45.040100
STATION_LONGITUDE_DEGREE: 11.087400
STATION_ELEVATION_M: 
LOCATION: 
SENSOR_DEPTH_M: 
VS30_M/S: 
SITE_CLASSIFICATION_EC8: C*
MORPHOLOGIC_CLASSIFICATION: 
EPICENTRAL_DISTANCE_KM: 22.1
EARTHQUAKE_BACKAZIMUTH_DEGREE: 184.4
DATE_TIME_FIRST_SAMPLE_YYYYMMDD_HHMMSS: 20120529_065933.000
DATE_TIME_FIRST_SAMPLE_PRECISION: milliseconds
SAMPLING_INTERVAL_S: 0.005000
NDATA: 30001
DURATION_S: 150.005
STREAM: HNE
UNITS: cm/s
INSTRUMENT: sensor = Episensor FBA ES-T [Kinemetrics] | digitizer = Unknown [Unknown]
INSTRUMENT_ANALOG/DIGITAL: D
INSTRUMENTAL_FREQUENCY_HZ: 
INSTRUMENTAL_DAMPING: 
FULL_SCALE_G: 
N_BIT_DIGITAL_CONVERTER: 
PGV_CM/S: -6.187912
TIME_PGV_S: 44.610000
BASELINE_CORRECTION: BASELINE REMOVED
FILTER_TYPE: BUTTERWORTH
FILTER_ORDER: 2
LOW_CUT_FREQUENCY_HZ: 0.060
HIGH_CUT_FREQUENCY_HZ: 40.000
LATE/NORMAL_TRIGGERED: NT
DATABASE_VERSION: DYNA 1.0
HEADER_FORMAT: DYNA 1.2
DATA_TYPE: VELOCITY
PROCESSING: manual (Paolucci et al., 2011)
DATA_TIMESTAMP_YYYYMMDD_HHMMSS: 
DATA_LICENSE: CC-BY4_0 (http://creativecommons.org/licenses/by/4.0/)
DATA_CITATION: ESM working group (2015), European Strong-Motion database, version 0.1, Network Activity 3: Networking acceleration networks and SM data users. Project NERA (www.nera-eu.org)
DATA_CREATOR: ESM working group
ORIGINAL_DATA_MEDIATOR_CITATION: Orfeus - European Integrated Data Archive (EIDA) http://www.orfeus-eu.org/eida/
ORIGINAL_DATA_MEDIATOR: Orfeus - European Integrated Data Archive (EIDA)
ORIGINAL_DATA_CREATOR_CITATION: 
ORIGINAL_DATA_CREATOR: network: TV (INGV Experiments Network); owner: Istituto Nazionale di Geofisica e Vulcanologia
USER1: 
USER2: 
USER3: 
USER4: 
USER5: 
[...]
-0.015518
0.001316
0.014203
0.018494
0.011943
-0.003520
-0.022754
-0.039786
-0.049529
-0.048919
-0.038439
-0.022951
-0.009577
-0.003525
-0.005830
-0.014809
-0.028548
-0.045066
-0.060878
-0.071204
-0.072350
-0.063629
-0.047435
-0.028132
-0.010269
0.002937
0.009816
0.009960
0.004489
-0.004192
-0.014020
-0.024825
-0.037878
-0.053571
-0.069703
-0.082593
-0.090042
-0.092948
-0.094135
-0.096161
-0.100334
-0.106868
-0.114861
-0.121956
-0.124600
-0.119480
-0.105762
-0.086303
-0.066045
-0.049130
-0.037796
-0.032616
-0.031933
-0.031903
-0.028977
-0.022295
-0.013086
-0.002728
0.007628
0.016658
0.023616
0.028703
0.031248
0.028450
0.017587
-0.000812
-0.022850
-0.043563
-0.058651
-0.065304
-0.063378
-0.056117
-0.048904
-0.046696
-0.052016
-0.063952
-0.077915
-0.087129
-0.086251
-0.074408
-0.054890
-0.032569
-0.011951
0.003529
0.011911
0.013006
0.008348
0.000734
-0.006735
-0.011784
-0.013302
-0.010953
-0.005240
0.002033
0.008517
0.013199
0.016823
0.020079
0.022100
0.021326
0.017663
0.013296
0.010905
0.011204
0.012524
0.012321
0.008433
-0.000340
-0.013444
-0.028260
-0.041354
-0.050273
-0.054161
-0.053231
-0.048468
-0.042044
-0.037502
-0.038577
-0.046896
-0.060418
-0.074571
-0.085269
-0.090854
-0.092023
-0.091290
-0.092391
-0.098700
-0.111276
-0.128430
-0.147080
-0.164377
-0.178243
-0.186993
-0.189165
-0.184047
-0.171982
-0.153832
-0.130619
-0.104190
-0.077881
-0.055619
-0.039950
-0.030993
-0.027027
-0.025714
-0.025253
-0.025056
-0.025495
-0.027316
-0.031535
-0.039320
-0.051123
-0.065781
-0.080661
-0.092857
-0.100471
-0.103200
-0.102122
-0.099319
-0.097757
-0.100853
-0.110909
-0.127032
-0.144808
-0.158774
-0.165535
-0.164689
-0.157750
-0.146983
-0.134625
-0.122027
-0.109273
-0.095850
-0.081474
-0.066182
-0.050300
-0.034920
-0.021888
-0.012487
-0.006263
-0.001764
0.001556
0.002446
-0.001116
-0.010243
-0.024328
-0.041103
-0.057150
-0.068821
-0.073122
-0.068402
-0.055569
-0.038976
-0.024809
-0.017685
-0.018623
-0.025413
-0.034011
-0.040185
-0.041264
-0.036691
-0.027076
-0.013972
-0.000858
0.007494
0.008186
0.002521
-0.005457
-0.012494
-0.017823
-0.022095
-0.025663
-0.028024
-0.028532
-0.027491
-0.026367
-0.026946
-0.030432
-0.036839
-0.044190
-0.048435
-0.045667
-0.035149
-0.019827
-0.004184
0.007725
0.013206
0.012008
0.006756
0.001279
-0.001740
-0.001342
0.002520
0.009195
0.016796
0.022335
0.022823
0.016441
0.003139
-0.015467
-0.036806
-0.058143
-0.076880
-0.090627
-0.097880
-0.099117
-0.096721
-0.093127
-0.088989
-0.083268
-0.074856
-0.063901
-0.051734
-0.039727
-0.028423
-0.017824
-0.008004
0.000956
0.009323
0.017876
0.027972
0.040774
0.055192
0.066774
0.070008
0.062308
0.045465
0.023638
0.000871
-0.019743
-0.036177
-0.047966
-0.056354
-0.063321
-0.070095
-0.076345
-0.080647
-0.081524
-0.077977
-0.069533
-0.056470
-0.040297
-0.023858
-0.010233
-0.000832
0.005244
0.009762
0.013682
0.017223
0.021005
0.025985
0.031643
0.035021
0.032586
0.023061
0.008123
-0.009060
-0.025189
-0.037421
-0.044338
-0.046948
-0.047975
-0.049748
-0.052769
-0.055572
-0.055508
-0.050508
-0.040883
-0.029143
-0.017853
-0.008077
-0.000220
0.004230
0.002840
-0.005577
-0.019199
-0.033722
-0.044466
-0.048282
-0.044233
-0.033213
-0.017409
-0.000210
0.014254
0.022708
0.024276
0.020619
0.014958
0.010626
0.009509
0.011221
0.013690
0.014506
0.011645
0.003752
-0.008716
-0.022148
-0.030865
-0.030804
-0.022063
-0.007578
0.009850
0.028283
0.045177
0.056988
0.061130
0.058134
0.051585
0.045800
0.043362
0.044642
0.049027
0.055686
0.063025
0.068429
0.069628
0.066821
0.063224
0.062840
0.067497
0.075899
0.084773
0.090710
0.091994
0.089568
0.086090
0.083614
0.081934
0.078893
0.071947
0.059473
0.041321
0.018911
-0.005197
-0.028008
-0.046263
-0.056454
-0.056142
-0.045916
-0.029435
-0.011481
0.003449
0.011497
0.010634
0.002420
-0.008385
-0.016754
-0.020065
-0.018680
-0.015008
-0.012007
-0.011713
-0.014594
-0.019564
-0.023828
-0.023031
-0.012755
0.009249
0.041720
0.080184
0.118634
0.151995
0.178171
0.197716
0.211257
0.217858
0.216178
0.206023
0.187983
0.162660
0.131389
0.097269
0.064804
0.038468
0.021355
0.014658
0.018140
0.031107
0.052957
0.082512
0.116683
0.150452
0.178988
0.199926
0.213896
0.223430
0.231158
0.238385
0.245313
0.252518
0.261354
0.272711
0.286282
0.301295
0.316819
0.331248
0.343375
0.354515
0.367620
0.383604
0.399935
0.413137
0.421703
0.426540
0.429524
0.432029
0.434223
0.435111
0.433392
0.428671
0.421834
0.414380
0.407568
0.401509
0.394347
0.382778
0.364022
0.337217
0.303029
0.262733
0.218105
0.171477
0.124973
0.080029
0.037967
0.000176
-0.032654
-0.060276
-0.081055
-0.090888
-0.084841
-0.060427
-0.019680
0.031239
0.083961
0.130492
0.165703
0.188462
0.200904
0.206621
0.208821
0.208990
0.206295
0.197969
0.181029
0.154728
0.121753
0.087117
0.056177
0.032655
0.016749
0.005742
-0.003089
-0.012162
-0.025237
-0.045277
-0.070715
-0.096574
-0.118576
-0.134927
-0.146070
-0.154097
-0.161274
-0.168568
-0.175346
-0.179490
-0.178268
-0.170039
-0.154580
-0.132199
-0.103771
-0.070873
-0.035015
0.002623
0.040693
0.077866
0.113904
0.149855
0.186584
0.224243
0.263584
0.304658
0.342769
0.369988
0.382575
0.383532
0.378685
0.373541
0.370904
0.369292
0.366762
0.365420
0.369054
0.378503
0.391788
0.406213
0.418111
0.423317
0.419781
0.407107
0.384493
0.353362
0.319371
0.288072
0.262070
0.242877
0.230299
0.220689
0.209561
0.194586
0.175313
0.152556
0.128560
0.106292
0.088225
0.075802
0.069439
0.068476
0.071135
0.075336
0.080058
0.085706
0.093908
0.106984
0.126037
0.149830
0.175791
0.200058
0.217961
0.228142
0.232995
0.233216
0.229589
0.226506
0.222799
0.210788
0.190287
0.165691
0.136205
0.103477
0.072792
0.044850
0.018289
-0.008036
-0.035880
-0.064745
-0.094287
-0.126953
-0.163428
-0.201052
-0.236749
-0.267308
-0.289435
-0.302820
-0.310844
-0.316802
-0.322286
-0.328422
-0.335049
-0.339890
-0.340029
-0.333267
-0.318645
-0.296947
-0.271354
-0.247008
-0.227634
-0.212615
-0.199505
-0.188117
-0.179509
-0.172909
-0.166902
-0.162415
-0.162385
-0.169777
-0.186495
-0.212134
-0.243733
-0.278165
-0.313738
-0.348372
-0.377760
-0.396834
-0.402281
-0.393069
-0.370820
-0.340711
-0.309413
-0.281515
-0.259243
-0.243772
-0.234508
-0.227613
-0.216525
-0.195245
-0.162361
-0.122152
-0.081933
-0.048101
-0.023275
-0.005614
0.009574
0.026951
0.048939
0.075178
0.102814
0.127029
0.142347
0.144892
0.134272
0.113575
0.088042
0.063474
0.044396
0.032506
0.026657
0.024412
0.023911
0.024731
0.027543
0.033058
0.040414
0.046225
0.047128
0.044079
0.040878
0.037711
0.030667
0.017734
-0.000191
-0.023963
-0.057603
-0.105578
-0.170116
-0.249605
-0.337955
-0.425093
-0.500301
-0.558687
-0.603492
-0.639162
-0.665067
-0.679819
-0.687399
-0.693736
-0.700924
-0.708936
-0.718328
-0.728373
-0.738045
-0.749520
-0.765434
-0.784953
-0.806049
-0.827502
-0.847297
-0.862489
-0.871058
-0.872950
-0.868977
-0.858783
-0.841312
-0.816913
-0.787649
-0.756314
-0.724782
-0.691970
-0.654445
-0.610145
-0.560894
-0.510917
-0.463832
-0.422058
-0.387640
-0.361557
-0.343473
-0.333418
-0.332103
-0.338428
-0.346927
-0.348142
-0.332325
-0.293923
-0.234085
-0.160166
-0.083139
-0.014705
0.035224
0.060490
0.059069
0.031972
-0.017981
-0.086979
-0.171137
-0.267450
-0.373969
-0.488974
-0.609812
-0.731883
-0.848235
-0.950452
-1.030804
-1.084448
-1.110759
-1.114104
-1.103375
-1.088245
-1.073649
-1.057914
-1.036103
-1.004113
-0.960544
-0.907896
-0.853231
-0.805754
-0.771950
-0.752898
-0.745738
-0.746279
-0.749687
-0.750584
-0.744805
-0.730768
-0.708438
-0.678528
-0.643521
-0.608261
-0.578188
-0.555707
-0.538779
-0.524651
-0.514735
-0.514250
-0.525468
-0.545093
-0.572273
-0.608545
-0.644233
-0.663196
-0.665001
-0.663363
-0.666822
-0.675284
-0.685871
-0.693946
-0.693496
-0.679091
-0.648811
-0.604966
-0.551713
-0.492852
-0.430540
-0.367119
-0.305858
-0.247313
-0.191889
-0.144069
-0.107626
-0.083957
-0.077155
-0.092891
-0.131668
-0.185753
-0.242391
-0.289870
-0.322480
-0.342637
-0.358370
-0.377729
-0.405845
-0.445530
-0.497825
-0.561455
-0.631816
-0.700626
-0.758669
-0.800753
-0.827900
-0.845100
-0.858004
-0.870739
-0.884531
-0.897892
-0.908704
-0.915915
-0.919055
-0.916844
-0.907072
-0.888017
-0.859542
-0.822807
-0.779443
-0.730789
-0.677455
-0.620393
-0.562412
-0.506814
-0.454014
-0.401161
-0.345814
-0.288970
-0.234131
-0.184312
-0.139931
-0.098467
-0.056185
-0.010654
0.039413
0.096590
0.164761
0.247331
0.347536
0.467566
0.604375
0.749996
0.897974
1.045082
1.186311
1.313804
1.421926
1.508835
1.573103
1.613615
1.631313
1.628187
1.609068
1.584266
1.565651
1.562560
1.582206
1.629587
1.706576
1.811897
1.941285
2.087880
2.243592
2.401039
2.552222
2.684448
2.781548
2.831162
2.830297
2.785073
2.705893
2.603043
2.486679
2.368269
2.259245
2.167541
2.095640
2.042168
2.004669
1.980680
1.967695
1.963132
1.964085
1.967331
1.970326
1.972505
1.975412
1.981296
1.990680
2.000144
2.002567
1.990065
1.956398
1.896952
1.808751
1.692539
1.554193
1.402784
1.248251
1.100450
0.965610
0.842076
0.723689
0.606895
0.490198
0.370299
0.244221
0.112151
-0.024016
-0.162991
-0.305880
-0.455614
-0.614278
-0.783110
-0.962413
-1.147755
-1.326820
-1.480093
-1.585832
-1.628780
-1.608070
-1.537983
-1.440060
-1.334442
-1.238099
-1.165127
-1.121250
-1.099041
-1.085908
-1.076315
-1.069742
-1.063663
-1.059956
-1.069163
-1.098205
-1.142936
-1.193950
-1.238979
-1.262864
-1.252806
-1.202274
-1.110798
-0.982827
-0.825419
-0.645670
-0.449635
-0.242519
-0.029440
0.184271
0.393188
0.590898
0.768643
0.915378
1.020108
1.076153
1.084083
1.050133
0.982403
0.889096
0.779168
0.662979
0.551070
0.451675
0.369532
0.307493
0.269013
0.258437
0.279190
0.332266
0.416121
0.527494
0.662281
0.815650
0.981344
1.151197
1.316462
1.471057
1.612812
1.739913
1.847883
1.933265
1.998713
2.050632
2.092568
2.123102
2.138629
2.136783
2.117946
2.084331
2.039411
1.990105
1.948556
1.928540
1.938232
1.977684
2.042195
2.123546
2.208922
2.284360
2.341050
2.377812
2.399797
2.415933
2.433634
2.453151
2.467761
2.467066
2.438713
2.372172
2.263549
2.114851
1.930292
1.716058
1.481687
1.238712
0.997941
0.768683
0.559564
0.379065
0.234875
0.131896
0.069862
0.042828
0.042059
0.060373
0.094165
0.142106
0.202830
0.273970
0.352431
0.435072
0.519789
0.605943
0.692991
0.778641
0.858447
0.927364
0.982573
1.025300
1.059181
1.086117
1.103596
1.106010
1.088435
1.049452
0.991108
0.916379
0.826635
0.721916
0.603693
0.476719
0.347957
0.224134
0.110102
0.007276
-0.088775
-0.188106
-0.300448
-0.429174
-0.572532
-0.728251
-0.893401
-1.061132
-1.220350
-1.358908
-1.466250
-1.534358
-1.561444
-1.555641
-1.530077
-1.494480
-1.452747
-1.404795
-1.350317
-1.292257
-1.236421
-1.189823
-1.159467
-1.149898
-1.162164
-1.195900
-1.251008
-1.325693
-1.413466
-1.505683
-1.597304
-1.685378
-1.763672
-1.825503
-1.868705
-1.891685
-1.889046
-1.855045
-1.786779
-1.683210
-1.545320
-1.376624
-1.181245
-0.963015
-0.726860
-0.478874
-0.225287
0.026943
0.269321
0.492653
0.687658
0.844626
0.954973
1.015557
1.032077
1.017650
0.986831
0.950024
0.913265
0.882047
0.863280
0.862063
0.876170
0.896360
0.916722
0.942719
0.981507
1.028760
1.078383
1.139007
1.222988
1.326629
1.437526
1.550895
1.667872
1.789183
1.916105
2.050385
2.191884
2.339774
2.494792
2.656935
2.822889
2.988139
3.147667
3.293628
3.416261
3.506350
3.555662
3.558333
3.512756
3.420563
3.285018
3.111453
2.907156
2.679939
2.437600
2.187810
1.937218
1.691239
1.455672
1.238317
1.048085
0.891804
0.770760
0.679580
0.609081
0.549771
0.491890
0.425090
0.340620
0.232377
0.096332
-0.068954
-0.262463
-0.482278
-0.726263
-0.992235
-1.277476
-1.576888
-1.882745
-2.186812
-2.481290
-2.757566
-3.005161
-3.212778
-3.371200
-3.475934
-3.527787
-3.531323
-3.492779
-3.419077
-3.317805
-3.197036
-3.064910
-2.929468
-2.798726
-2.680564
-2.582356
-2.510393
-2.468902
-2.459185
-2.479246
-2.522811
-2.578940
-2.634870
-2.679854
-2.707542
-2.717369
-2.712257
-2.693728
-2.662089
-2.619503
-2.568756
-2.511103
-2.446397
-2.372676
-2.286664
-2.186487
-2.072051
-1.942009
-1.792959
-1.624387
-1.443888
-1.263456
-1.088718
-0.914643
-0.733051
-0.541510
-0.343642
-0.143271
0.058697
0.262321
0.466672
0.669208
0.865467
1.051318
1.225582
1.388791
1.541112
1.682282
1.811765
1.928676
2.031709
2.118839
2.187461
2.235149
2.261150
2.268027
2.261448
2.248320
2.235638
2.230189
2.237901
2.262961
2.307308
2.370549
2.450201
2.542084
2.640645
2.738955
2.828237
2.897448
2.933834
2.924960
2.861571
2.739045
2.556141
2.313902
2.016700
1.672001
1.287863
0.872188
0.433661
-0.018999
-0.478092
-0.936430
-1.387196
-1.824394
-2.242400
-2.635924
-3.001164
-3.336375
-3.641553
-3.917977
-4.167775
-4.393825
-4.599688
-4.788871
-4.963966
-5.126476
-5.277034
-5.415646
-5.542340
-5.658058
-5.764427
-5.862477
-5.952033
-6.031939
-6.099812
-6.151666
-6.182570
-6.187912
-6.164315
-6.110105
-6.025478
-5.912647
-5.775730
-5.619459
-5.447754
-5.264163
-5.072332
-4.874500
-4.670570
-4.459602
-4.241339
-4.016391
-3.786161
-3.551567
-3.310865
-3.060687
-2.799470
-2.527578
-2.244614
-1.948958
-1.640220
-1.320640
-0.993540
-0.662074
-0.330569
-0.007335
0.292664
0.550282
0.751644
0.893804
0.980629
1.018734
1.017264
0.985762
0.932683
0.867460
0.800083
0.737748
0.684983
0.646890
0.630229
0.641649
0.685787
0.764196
0.874665
1.011521
1.167242
1.333912
1.503145
1.665225
1.809317
1.925229
2.005496
2.046434
2.047794
2.011746
1.942054
1.843775
1.723122
1.586899
1.441667
1.293220
1.146601
1.006629
0.878461
0.767430
0.678195
0.613901
0.575764
0.563020
0.572649
0.598889
0.634431
0.673171
0.711174
0.744742
0.768066
0.773251
0.753486
0.705928
0.630177
0.525181
0.389387
0.222335
0.024739
-0.201162
-0.449837
-0.711866
-0.976172
-1.233552
-1.479002
-1.711577
-1.932542
-2.143289
-2.344226
-2.535718
-2.719376
-2.896767
-3.067064
-3.226846
-3.371511
-3.497146
-3.602337
-3.688192
-3.756548
-3.808145
-3.841716
-3.855177
-3.847498
-3.817531
-3.762647
-3.680984
-3.572817
-3.438952
-3.280175
-3.097795
-2.893392
-2.668821
-2.426296
-2.167548
-1.893782
-1.608040
-1.317357
-1.030850
-0.755189
-0.492826
-0.244566
-0.013014
0.197361
0.384008
0.548783
0.695533
0.826859
0.944309
1.049910
1.146242
1.235932
1.321792
1.407233
1.496560
1.594810
1.706450
1.833507
1.975720
2.133578
2.310460
2.510422
2.733851
2.976513
3.233303
3.500371
3.771568
4.035294
4.276939
4.484114
4.649781
4.771324
4.848882
4.885651
4.886665
4.855749
4.794924
4.705703
4.589534
4.447133
4.278147
4.083605
3.869678
3.646852
3.424258
3.205904
2.992557
2.785269
2.585344
2.392152
2.203067
2.015549
1.829225
1.645858
1.466883
1.292786
1.126729
0.975680
0.843906
0.728051
0.623713
0.533531
0.462434
0.408732
0.365934
0.330150
0.302128
0.284120
0.276268
0.275421
0.276811
0.276396
0.271338
0.258801
0.235419
0.197802
0.142885
0.068151
-0.028737
-0.151031
-0.302388
-0.484160
-0.693799
-0.926642
-1.178672
-1.446562
-1.725537
-2.009016
-2.291002
-2.567992
-2.838165
-3.099277
-3.347538
-3.577868
-3.784671
-3.962175
-4.104266
-4.205068
-4.260319
-4.267462
-4.225025
-4.134173
-4.000582
-3.831982
-3.634284
-3.412809
-3.175059
-2.928420
-2.677990
-2.429953
-2.193557
-1.976944
-1.783251
-1.612192
-1.463697
-1.338409
-1.236304
-1.156372
-1.095569
-1.047870
-1.006912
-0.968243
-0.927372
-0.878791
-0.817946
-0.740758
-0.641648
-0.515810
-0.363169
-0.187896
0.005849
0.216622
0.443641
0.683828
0.933071
1.187716
1.442969
1.693966
1.938031
2.172198
2.392669
2.598578
2.791340
2.971186
3.135995
3.280467
3.396483
3.474827
3.506182
3.483134
3.402918
3.267862
3.083728
2.857635
2.596678
2.308141
1.999552
1.676358
1.341494
0.999367
0.656664
0.318383
-0.012358
-0.329771
-0.623176
-0.881293
-1.098836
-1.276855
-1.418397
-1.527625
-1.611065
-1.675873
-1.726245
-1.761754
-1.779856
-1.779289
-1.759106
-1.716724
-1.650522
-1.562364
-1.455181
-1.330614
-1.190886
-1.040206
-0.882190
-0.717602
-0.546141
-0.369904
-0.193733
-0.021666
0.142457
0.288368
0.401563
0.473180
0.497931
0.469716
0.389890
0.267830
0.112057
-0.066141
-0.250223
-0.428208
-0.594421
-0.744007
-0.873349
-0.981124
-1.067597
-1.134127
-1.181278
-1.209031
-1.219654
-1.217309
-1.205018
-1.184302
-1.157000
-1.126264
-1.096562
-1.073122
-1.061054
-1.064683
-1.086692
-1.127396
-1.185616
-1.260054
-1.348527
-1.446389
-1.547561
-1.646885
-1.741807
-1.833896
-1.927190
-2.024214
-2.126607
-2.236470
-2.353425
-2.474440
-2.596350
-2.715017
-2.824228
-2.916629
-2.984013
-3.017309
-3.008750
-2.955634
-2.861335
-2.732173
-2.574335
-2.393437
-2.195826
-1.989210
-1.780870
-1.576113
-1.379615
-1.196244
-1.029209
-0.879743
-0.750165
-0.644977
-0.566461
-0.510850
-0.471267
-0.441919
-0.417026
-0.389383
-0.353068
-0.305144
-0.243726
-0.166898
-0.074074
0.033518
0.154026
0.285678
0.426612
0.574822
0.728242
0.884530
1.040670
1.193054
1.337695
1.469530
1.582482
1.671945
1.736663
1.777206
1.792932
1.779980
1.732520
1.647368
1.526535
1.375117
1.197608
0.995087
0.769116
0.530059
0.292257
0.062996
-0.151995
-0.343832
-0.508906
-0.646027
-0.752524
-0.832005
-0.887772
-0.916353
-0.918934
-0.901282
-0.867256
-0.822747
-0.774714
-0.728790
-0.691254
-0.667300
-0.660677
-0.674945
-0.711752
-0.771003
-0.852748
-0.956665
-1.080258
-1.219012
-1.368402
-1.524844
-1.687402
-1.859840
-2.046884
-2.249739
-2.467913
-2.700134
-2.942659
-3.191191
-3.442533
-3.692840
-3.935712
-4.161519
-4.359658
-4.521604
-4.639639
-4.704240
-4.705340
-4.636265
-4.496527
-4.291405
-4.029620
-3.721363
-3.376512
-3.003460
-2.610249
-2.205677
-1.798215
-1.395884
-1.007780
-0.643749
-0.312579
-0.021029
0.226553
0.428409
0.585365
0.701215
0.782939
0.839201
0.877492
0.902865
0.919275
0.930685
0.941177
0.955779
0.980368
1.019797
1.077070
1.153621
1.249382
1.363112
1.492089
1.630834
1.771167
1.904356
2.023591
2.125026
2.207420
2.271578
2.319696
2.353940
2.375188
2.383698
2.381415
2.372763
2.361954
2.350880
2.342575
2.344566
2.364432
2.405869
2.471549
2.562480
2.675895
2.809065
2.958514
3.118653
3.288303
3.469243
3.659285
3.855002
4.053924
4.251914
4.443357
4.621909
4.779755
4.907959
4.999563
5.050833
5.057335
5.014702
4.924942
4.795557
4.635329
4.454623
4.264118
4.072791
3.888881
3.718886
3.566176
3.433375
3.324444
3.243471
3.192169
3.169169
3.171181
3.193239
3.228874
3.271999
3.317316
3.358252
3.387230
3.399586
3.395900
3.379435
3.351792
3.311724
