EVENT_NAME: EMILIA_2ND_SHOCK
EVENT_ID: IT-2012-0011
EVENT_DATE_YYYYMMDD: 20120529
EVENT_TIME_HHMMSS: 070002
EVENT_LATITUDE_DEGREE: 44.8417
EVENT_LONGITUDE_DEGREE: 11.0657
EVENT_DEPTH_KM: 8.1
HYPOCENTER_REFERENCE: INGV-CNT_Seismic_Bulletin
MAGNITUDE_W: 6.0
MAGNITUDE_W_REFERENCE: RCMT-INGV
MAGNITUDE_L: 5.8
MAGNITUDE_L_REFERENCE: INGV-CNT_Seismic_Bulletin
FOCAL_MECHANISM: TF
NETWORK: TV
STATION_CODE: MIR01
STATION_NAME: MEDOLLA
STATION_LATITUDE_DEGREE: 44.844042
STATION_LONGITUDE_DEGREE: 11.071316
STATION_ELEVATION_M: 
LOCATION: 
SENSOR_DEPTH_M: 
VS30_M/S: 
SITE_CLASSIFICATION_EC8: C*
MORPHOLOGIC_CLASSIFICATION: 
EPICENTRAL_DISTANCE_KM: 0.5
EARTHQUAKE_BACKAZIMUTH_DEGREE: 239.6
DATE_TIME_FIRST_SAMPLE_YYYYMMDD_HHMMSS: 20120529_065945.000
DATE_TIME_FIRST_SAMPLE_PRECISION: milliseconds
SAMPLING_INTERVAL_S: 0.005000
NDATA: 30001
DURATION_S: 150.005
STREAM: HNE
UNITS: cm/s^2
INSTRUMENT: sensor = Episensor FBA ES-T [Kinemetrics] | digitizer = Unknown [Unknown]
INSTRUMENT_ANALOG/DIGITAL: D
INSTRUMENTAL_FREQUENCY_HZ: 
INSTRUMENTAL_DAMPING: 
FULL_SCALE_G: 
N_BIT_DIGITAL_CONVERTER: 
PGA_CM/S^2: 411.371986
TIME_PGA_S: 24.455000
BASELINE_CORRECTION: BASELINE REMOVED
FILTER_TYPE: BUTTERWORTH
FILTER_ORDER: 2
LOW_CUT_FREQUENCY_HZ: 0.050
HIGH_CUT_FREQUENCY_HZ: 40.000
LATE/NORMAL_TRIGGERED: NT
DATABASE_VERSION: DYNA 1.0
HEADER_FORMAT: DYNA 1.2
DATA_TYPE: ACCELERATION
PROCESSING: manual (Paolucci et al., 2011)
DATA_TIMESTAMP_YYYYMMDD_HHMMSS: 
DATA_LICENSE: CC-BY4_0 (http://creativecommons.org/licenses/by/4.0/)
DATA_CITATION: ESM working group (2015), European Strong-Motion database, version 0.1, Network Activity 3: Networking acceleration networks and SM data users. Project NERA (www.nera-eu.org)
DATA_CREATOR: ESM working group
ORIGINAL_DATA_MEDIATOR_CITATION: Orfeus - European Integrated Data Archive (EIDA) http://www.orfeus-eu.org/eida/
ORIGINAL_DATA_MEDIATOR: Orfeus - European Integrated Data Archive (EIDA)
ORIGINAL_DATA_CREATOR_CITATION: 
ORIGINAL_DATA_CREATOR: network: TV (INGV Experiments Network); owner: Istituto Nazionale di Geofisica e Vulcanologia
USER1: 
USER2: 
USER3: 
USER4: 
USER5: 
[...]
-0.011065
-0.013958
-0.018526
-0.022569
-0.024237
-0.024195
-0.022563
-0.017886
-0.011351
-0.007025
-0.006081
-0.006318
-0.007328
-0.009886
-0.012302
-0.012385
-0.010060
-0.006791
-0.005177
-0.007135
-0.011205
-0.014823
-0.017733
-0.019650
-0.018807
-0.015996
-0.014679
-0.015668
-0.017073
-0.018355
-0.019010
-0.016507
-0.010709
-0.006217
-0.006684
-0.010888
-0.015582
-0.018105
-0.016834
-0.012921
-0.010344
-0.011641
-0.015209
-0.018247
-0.019426
-0.017615
-0.012380
-0.006060
-0.001463
0.000761
0.000455
-0.002853
-0.007893
-0.011948
-0.014082
-0.015455
-0.016373
-0.016037
-0.014634
-0.013068
-0.011950
-0.011861
-0.012702
-0.013066
-0.011877
-0.009744
-0.007896
-0.007163
-0.007794
-0.008532
-0.007300
-0.004470
-0.003244
-0.006170
-0.013009
-0.021136
-0.026877
-0.027766
-0.024266
-0.018897
-0.014026
-0.010533
-0.008245
-0.007055
-0.006556
-0.006188
-0.006881
-0.009805
-0.014230
-0.018875
-0.022448
-0.022636
-0.017899
-0.009832
-0.002418
0.000923
-0.000549
-0.005392
-0.010930
-0.014445
-0.015426
-0.015089
-0.014051
-0.012676
-0.011504
-0.010440
-0.009460
-0.008941
-0.008578
-0.007785
-0.006960
-0.007083
-0.008682
-0.011935
-0.016582
-0.021108
-0.023625
-0.023702
-0.021958
-0.018943
-0.015229
-0.011413
-0.007946
-0.005157
-0.003247
-0.002611
-0.003409
-0.004674
-0.005556
-0.006537
-0.008011
-0.009480
-0.010653
-0.011844
-0.013274
-0.014861
-0.016637
-0.018226
-0.018327
-0.016223
-0.012873
-0.009768
-0.007906
-0.007972
-0.010402
-0.014588
-0.018466
-0.019902
-0.018401
-0.015062
-0.011347
-0.008430
-0.007253
-0.007949
-0.009424
-0.010737
-0.011922
-0.012836
-0.012553
-0.010382
-0.007306
-0.005454
-0.005723
-0.007508
-0.010133
-0.012864
-0.014524
-0.014164
-0.012191
-0.009884
-0.007483
-0.004766
-0.003106
-0.004411
-0.008548
-0.013220
-0.016066
-0.016674
-0.016430
-0.016724
-0.018044
-0.020167
-0.022161
-0.022409
-0.019557
-0.013925
-0.007194
-0.001156
0.002503
0.002965
0.000768
-0.003326
-0.008327
-0.012514
-0.014551
-0.014705
-0.014595
-0.015422
-0.016515
-0.016253
-0.014393
-0.012472
-0.010924
-0.007996
-0.003291
0.000737
0.001880
0.000090
-0.003450
-0.007195
-0.009690
-0.010680
-0.011417
-0.012599
-0.013515
-0.013978
-0.014162
-0.013106
-0.010614
-0.008850
-0.009187
-0.009877
-0.009578
-0.009985
-0.012370
-0.015149
-0.016454
-0.016136
-0.015073
-0.014265
-0.014347
-0.015491
-0.017222
-0.017791
-0.015748
-0.012753
-0.011258
-0.010559
-0.009436
-0.009280
-0.011075
-0.013064
-0.013355
-0.012349
-0.011158
-0.009832
-0.009022
-0.009767
-0.010764
-0.010509
-0.010260
-0.010875
-0.010555
-0.008404
-0.006252
-0.005276
-0.004770
-0.005082
-0.007367
-0.010379
-0.011306
-0.009383
-0.006465
-0.004503
-0.004050
-0.005060
-0.007360
-0.010078
-0.012099
-0.013086
-0.012905
-0.011035
-0.008200
-0.006792
-0.007688
-0.008756
-0.007327
-0.001434
0.011448
0.034154
0.066142
0.100427
0.126908
0.139321
0.137938
0.125277
0.101815
0.064019
-0.006870
-0.129676
-0.251613
-0.256447
-0.115644
0.064601
0.174671
0.147090
-0.071822
-0.423569
-0.700980
-0.761302
-0.666615
-0.522000
-0.368947
-0.310555
-0.470305
-0.783433
-1.056405
-1.148439
-1.000657
-0.663938
-0.214956
0.412791
1.186308
1.680041
1.472594
0.641879
-0.400976
-1.232800
-1.451742
-0.842473
0.304828
1.361305
1.945334
2.116024
2.115781
2.207751
2.523564
2.861736
2.918798
2.678259
2.235047
1.433002
0.087939
-1.424058
-2.118326
-1.271815
0.535661
1.455333
0.091926
-2.493865
-3.467278
-1.575203
1.304267
2.754892
2.783072
3.084513
4.101233
4.215112
1.967061
-1.940304
-5.193288
-5.952100
-4.214450
-1.297691
1.538283
3.586554
4.528500
4.467974
3.490655
0.964800
-3.594358
-8.830366
-12.023420
-11.507651
-7.727730
-2.131929
3.825286
8.638046
10.912097
10.157861
7.223265
3.640823
0.181076
-3.821733
-8.909473
-13.298026
-13.564396
-8.243467
0.178364
7.558675
11.498745
11.904930
9.647405
5.971928
2.231809
-0.879011
-3.149499
-3.898494
-2.455853
0.609483
3.867231
6.276143
7.596778
8.336171
9.272688
10.159274
9.356608
5.735664
0.624413
-2.976220
-3.159208
-0.592001
2.711327
5.422322
7.391560
8.473855
7.631954
3.828422
-2.259046
-7.785172
-9.503886
-6.592907
-1.643886
1.655737
1.839209
0.410937
-0.640100
-1.330775
-2.963925
-5.495142
-6.680516
-4.019506
2.390757
8.806114
10.411172
5.603545
-2.661318
-9.795774
-13.266212
-13.729287
-13.408743
-13.551382
-13.511809
-11.993690
-8.070926
-1.366710
7.053907
14.491607
18.790882
19.842623
18.217672
13.858462
7.060859
-0.091068
-4.431023
-4.622377
-2.788686
-1.920278
-2.337047
-2.208002
-0.590139
1.414518
1.711070
-1.062718
-6.075049
-10.528853
-11.527125
-7.599967
0.443303
8.944242
13.087176
11.112703
5.969544
1.787511
0.392516
1.600056
4.216388
6.088060
5.300598
1.862833
-2.624066
-6.502740
-8.785454
-9.106309
-7.421474
-3.664018
1.902003
7.681268
11.086920
11.089518
9.721169
9.669268
11.076402
11.797970
9.993493
5.789009
1.054659
-2.036615
-2.488259
-1.025050
0.522855
0.867684
0.855982
2.748925
6.771628
9.067074
5.294291
-4.014853
-14.270936
-22.225777
-27.453665
-29.174366
-24.749777
-12.310923
5.686356
21.880415
27.813299
20.107965
3.639606
-12.235755
-20.496540
-19.648031
-12.771773
-4.581377
2.251288
7.968994
12.532638
13.616076
9.083758
0.153230
-8.801681
-13.388640
-12.531514
-9.039217
-6.202141
-3.743740
1.514094
10.401959
18.282402
18.593040
9.432624
-3.742652
-12.136662
-10.591528
-0.628387
12.298119
22.480797
25.770447
20.987610
10.847889
0.956913
-3.181351
0.252511
8.224262
15.547718
18.448292
15.846692
8.954493
0.787954
-4.748840
-5.133704
-1.615034
1.234340
-0.241369
-4.594375
-6.570590
-3.002450
4.074461
10.235399
12.512479
10.491623
6.088896
2.491183
1.108267
-0.372874
-4.753880
-10.920511
-15.058416
-14.883269
-10.876396
-5.901480
-4.444597
-8.517151
-13.988055
-14.253261
-7.241579
2.564549
7.395283
1.854299
-11.401759
-22.059475
-21.221411
-9.485738
5.263636
15.187588
16.320530
9.788728
1.707019
-2.038632
-2.444208
-5.637344
-14.801442
-26.951830
-36.326370
-38.086395
-30.282345
-15.204778
1.001163
11.568131
12.931339
5.967070
-5.019055
-13.989507
-16.361332
-12.157640
-4.925966
2.004207
6.992323
9.848745
11.994818
15.465324
20.691225
26.076092
29.774700
30.973577
29.602053
25.729170
19.743231
13.507233
11.073037
16.408155
29.007303
42.597462
49.372353
45.739613
34.523708
22.401842
14.985631
13.566935
15.721366
17.925491
17.270880
11.973254
1.775927
-11.595957
-24.469961
-32.449837
-32.741837
-25.982979
-16.304066
-9.599764
-10.433063
-19.137873
-31.354519
-40.647808
-42.618347
-37.328674
-27.895279
-17.540073
-8.568317
-2.402299
0.685510
0.640908
-2.964827
-8.316082
-9.980891
-3.562683
9.356305
22.776031
31.398527
33.676598
31.701426
28.598982
24.647629
16.359951
1.716090
-14.473254
-24.076002
-24.650995
-21.709318
-20.764408
-19.142849
-8.582370
13.701674
39.546036
56.980198
60.319817
51.700897
36.286545
19.296162
5.225331
-3.227895
-5.020317
-0.015992
9.833438
19.848589
25.549152
26.393063
25.425104
24.202131
19.205927
5.513251
-16.576483
-39.478008
-51.470592
-43.802460
-19.085346
8.432273
24.173246
24.004690
14.062141
3.028645
-5.097753
-12.137567
-20.545954
-29.147980
-34.737125
-35.050919
-29.120975
-17.310001
-2.128497
12.666390
24.504316
32.555603
36.378277
35.802368
31.317532
22.352711
6.574059
-16.072313
-40.026497
-57.907574
-66.480957
-67.730881
-66.858322
-69.913345
-79.861771
-93.425117
-103.867447
-107.968559
-108.482368
-109.053291
-109.774048
-109.773682
-110.584373
-113.212486
-114.912468
-113.339996
-111.502876
-114.376266
-122.898750
-134.578598
-146.939224
-157.460007
-163.322906
-163.750732
-160.608994
-156.065018
-151.372192
-147.096512
-142.281998
-133.766388
-117.440353
-90.169678
-52.214966
-9.765472
28.279234
59.202347
87.441994
115.382294
140.986740
164.312485
187.457001
208.682709
222.901276
227.709747
226.606308
226.328522
231.295181
240.497452
248.994614
251.117508
242.866486
223.801300
196.891525
165.707596
134.077835
108.004822
92.663086
88.213661
93.110405
108.365715
133.532059
161.784164
184.358170
198.163040
204.556595
201.992020
184.843658
150.450104
104.233772
55.840378
11.302531
-29.209797
-67.012558
-101.235703
-129.224121
-147.984146
-155.401108
-151.658676
-139.242264
-121.176430
-99.480850
-74.292419
-44.238731
-10.729120
17.926802
32.926743
36.386795
38.438145
43.380985
48.118225
52.260094
58.898872
65.457870
61.490604
36.819637
-9.590919
-65.694336
-110.512863
-128.375839
-121.210030
-102.639954
-83.274002
-68.618401
-64.431175
-72.375458
-83.290398
-83.444374
-65.983231
-32.610737
10.356018
52.000610
77.932671
78.892807
58.019535
25.693649
-10.778472
-46.327950
-70.170456
-70.082253
-46.251575
-12.195024
18.713076
40.129639
48.049915
39.147289
15.255611
-16.198452
-46.794083
-69.555054
-78.816978
-72.229378
-53.648819
-31.487934
-14.100314
-7.444110
-13.626191
-29.339542
-48.753201
-68.569939
-87.150459
-100.400703
-103.487419
-96.538345
-85.603043
-78.050804
-78.118378
-84.270203
-87.647102
-75.563652
-41.086815
10.720590
67.043312
115.963264
150.839691
170.522018
178.538147
180.650818
180.727005
178.137466
169.332550
152.629318
131.238785
110.557449
93.589401
80.908066
72.794533
67.630562
60.094856
45.058186
21.969322
-7.074209
-41.322510
-80.979591
-123.937881
-164.790680
-197.693863
-219.483643
-229.365540
-227.095398
-213.417618
-191.423294
-164.838058
-134.238022
-97.146065
-53.366501
-8.423019
30.093927
58.613941
78.791031
93.602486
104.157280
110.473061
113.666588
116.259048
119.069519
115.581604
91.962860
40.584335
-26.094498
-83.950752
-119.172928
-132.941757
-129.400681
-112.028709
-88.396111
-67.623917
-54.140083
-47.986019
-48.140953
-52.624134
-58.048141
-62.195629
-65.991623
-71.078941
-76.552223
-79.512749
-78.332642
-74.943161
-73.367287
-74.677444
-74.773338
-69.576988
-60.221195
-50.671268
-43.006660
-37.013222
-32.130093
-28.378656
-26.032625
-24.904781
-24.770472
-26.515520
-30.922001
-35.709564
-36.023193
-29.399351
-19.311321
-12.290232
-11.266562
-12.607398
-9.919466
0.147058
15.727974
31.886293
44.563873
53.137627
59.426842
65.196953
71.927101
81.635338
95.251770
110.168976
120.986946
123.254082
116.703415
105.514664
95.980652
93.234505
98.280746
107.409157
115.237373
118.136551
114.729370
104.710281
87.535187
61.522064
25.645575
-16.278074
-55.003838
-82.204308
-97.208946
-105.880829
-114.271416
-125.404808
-139.431747
-153.475250
-163.288345
-167.365448
-167.364059
-162.784729
-147.140640
-111.832367
-54.730862
15.132115
82.210213
133.935989
164.872818
174.198593
164.733200
145.381897
130.221786
131.277603
150.048752
174.452164
183.407288
157.860413
94.870415
14.092336
-55.136703
-96.559753
-112.725143
-110.481049
-92.184990
-62.141731
-31.301493
-11.190337
-5.614638
-9.941369
-18.615385
-32.355446
-56.304276
-90.936211
-127.993675
-158.489594
-181.856781
-203.317123
-225.229553
-245.091400
-260.019928
-269.734528
-275.041626
-275.181641
-268.024628
-252.179428
-227.316315
-193.090714
-149.495117
-97.978752
-41.522182
15.499727
67.569908
110.282570
143.421112
170.703568
195.699081
218.513397
236.822876
249.318848
256.944336
260.829376
260.419281
254.231995
241.716293
224.582016
207.398026
196.359283
195.926682
206.019104
222.216705
238.582230
250.929062
258.099243
260.769714
259.906708
256.188568
250.060242
242.702682
236.916214
234.845947
233.591125
225.231201
203.589508
170.465866
134.361908
104.760811
88.195717
86.491112
96.366188
111.490105
125.009293
130.381851
122.996971
103.291107
76.940666
50.611805
27.823536
8.439539
-9.549189
-28.144381
-47.999096
-68.261024
-87.820297
-106.512428
-124.962090
-143.712723
-163.095078
-183.637177
-205.294724
-225.712128
-240.359863
-245.366806
-239.755112
-224.639908
-201.447052
-171.715668
-137.404510
-99.859039
-58.932049
-14.704606
29.804905
69.302689
100.455673
124.284737
143.676117
160.116821
173.774170
184.867203
193.308395
197.956223
197.515701
191.832458
181.830994
168.944931
154.832779
140.229553
123.708710
102.900810
76.581055
44.461422
6.769394
-33.770050
-70.971985
-99.216805
-119.097755
-136.854935
-156.799042
-176.635147
-192.263992
-204.431808
-217.485245
-233.070312
-248.146286
-259.133850
-265.655579
-269.547302
-272.143890
-273.792053
-274.738739
-275.254089
-275.853180
-278.421631
-285.870575
-298.993408
-314.048462
-324.767975
-326.944763
-320.695099
-308.455322
-291.459412
-269.164368
-242.513184
-216.506439
-197.738007
-188.787796
-185.909546
-182.952377
-176.672363
-167.498871
-156.492523
-143.075119
-125.239830
-100.708992
-68.056160
-28.109753
15.135717
55.805756
89.358398
114.878853
134.238464
149.524048
162.072021
173.867279
188.476013
209.152328
235.946045
265.517395
293.860809
318.724518
340.034790
359.159546
377.484924
394.544830
407.242096
411.371979
404.572601
388.600403
369.317078
354.234528
347.842041
344.761627
325.836304
268.829132
172.449600
64.437828
-25.013985
-90.684303
-143.718872
-188.776871
-221.131927
-236.649323
-237.603683
-232.305115
-229.903900
-234.582214
-244.045044
-252.137466
-253.741119
-248.545288
-239.495438
-227.543640
-209.737640
-183.608337
-152.141342
-122.718681
-101.430618
-89.590958
-85.173279
-85.423981
-87.491676
-88.357780
-85.714607
-78.743065
-67.706497
-53.432953
-37.401691
-21.470360
-7.148565
4.800262
14.953623
26.197105
42.877079
67.114838
95.848724
122.674591
143.023758
157.021454
167.369934
175.819382
182.168427
184.556717
178.723694
158.335098
119.704674
67.996483
16.223618
-24.600691
-52.714745
-72.251152
-86.668449
-97.351593
-105.170372
-110.929008
-115.058334
-117.550423
-118.037003
-116.209404
-112.831917
-110.076653
-109.801178
-111.614906
-113.645370
-114.984528
-116.435898
-119.133835
-123.417854
-128.928497
-135.017029
-141.101562
-146.817200
-151.665680
-155.189850
-158.305786
-163.621857
-172.960175
-184.555038
-193.792816
-197.302643
-196.075302
-193.770920
-191.278992
-183.525497
-162.963760
-127.099091
-82.982010
-43.239670
-16.123270
-0.726742
7.485696
10.983788
11.586057
11.950372
12.954343
12.779557
9.738135
4.206599
-2.457544
-9.445858
-16.393209
-22.815676
-28.230064
-31.885468
-32.172516
-27.568264
-18.511578
-7.448568
3.062673
11.759399
18.552208
23.695021
26.974489
27.413647
24.301378
19.150503
15.799758
17.204517
22.759995
30.001820
37.601624
45.420326
53.337353
61.269623
69.481110
78.613007
89.435448
101.955284
115.035583
127.472641
138.874573
149.186066
158.327896
166.781982
175.716949
185.956680
197.100372
207.887100
217.182098
224.352295
229.090057
231.703445
233.486145
235.776352
238.395126
239.667908
238.052368
233.278091
226.202637
218.418640
211.946884
208.270279
207.084686
206.259933
203.179733
196.219208
185.653702
173.652710
162.826477
154.255524
146.948486
138.498138
125.553253
105.092178
77.278000
46.691013
19.183912
-2.517292
-19.490189
-33.912048
-47.234699
-60.523026
-74.689896
-89.793060
-104.822815
-118.414116
-129.089996
-134.400085
-130.863724
-116.511803
-93.791382
-68.713211
-46.567623
-29.127409
-15.972251
-7.249607
-4.358147
-8.224611
-17.392338
-28.232262
-37.248581
-43.009541
-46.059158
-47.672215
-48.791061
-49.496864
-48.942039
-45.795715
-39.168736
-29.351385
-17.496584
-4.748591
7.818220
18.805849
27.033298
32.530602
36.599800
40.956432
46.646309
53.358528
59.888508
65.543549
70.887192
76.835663
83.219620
88.670815
92.067551
93.697845
94.626717
95.480988
96.680519
99.184258
103.504555
107.984093
109.056465
103.273705
88.812210
65.797958
36.368168
4.656361
-23.972696
-44.235844
-52.053070
-46.171997
-30.447187
-13.225535
-1.690493
3.180811
4.941859
6.735361
9.707509
14.369718
21.111942
29.579432
38.576412
46.734455
53.274300
58.404320
62.947277
67.340385
71.157532
73.570297
73.600739
69.979225
62.029968
51.262478
41.188580
34.890842
33.062393
34.448502
37.354507
40.384026
42.713837
44.444820
46.270916
48.493793
50.779457
52.986076
55.701126
59.685192
65.081131
71.265747
77.223167
82.160873
85.965759
89.076653
92.300072
96.977356
104.645302
115.799698
129.009705
141.582581
151.068314
155.986771
155.723007
150.699249
142.714310
134.183548
126.260025
117.788422
106.360085
90.330887
70.233879
48.853359
29.538708
13.862558
1.252885
-9.140503
-17.232426
-22.662724
-25.549967
-26.523371
-26.840967
-28.301950
-32.205410
-38.420193
-45.954384
-54.190468
-63.185364
-73.173256
-84.176186
-95.785065
-107.155991
-117.726768
-128.064987
-139.193207
-150.740875
-160.879593
-168.919952
-176.692535
-185.733566
-194.189590
-198.761780
-199.160110
-198.429932
-198.974899
-200.141602
-200.176575
-198.993988
-197.729935
-196.441025
-193.847366
-189.099686
-182.567841
-175.075607
-167.301743
-159.908600
-153.660385
-149.146698
-146.433670
-144.989365
-143.756393
-141.321030
-136.548141
-129.425476
-121.085609
-112.849808
-105.286423
-97.906273
-89.421257
-78.542999
-65.070396
-50.285824
-36.005478
-23.139914
-11.288670
0.176544
10.742221
18.696712
22.368921
21.168215
15.813667
8.566613
3.160751
2.731484
7.104265
13.545302
20.256323
27.401457
35.059452
42.225525
47.903690
51.873177
54.473118
56.499931
58.925102
61.790287
63.527161
61.796310
54.617149
40.805229
20.980148
-1.001234
-19.340506
-30.297655
-33.847649
-31.467979
-24.635828
-15.922267
-9.182452
-7.246719
-9.940943
-14.796231
-19.512644
-23.624704
-27.824286
-31.838289
-33.447994
-30.071379
-21.106146
-8.259978
5.889522
18.958836
29.292221
36.621231
41.946335
46.422237
50.640381
54.824200
59.306557
64.785141
72.010742
81.075226
91.354759
102.446144
114.254494
124.785400
128.500046
119.797157
99.626457
76.369385
58.328522
47.491657
41.488148
37.605019
32.889664
23.885923
9.302884
-7.664438
-20.985157
-25.992344
-22.000286
-11.679162
1.078926
12.764233
20.789049
23.524115
20.570187
13.270975
4.519181
-2.764814
-7.328101
-9.765601
-11.373449
-13.074482
-15.025795
-16.931444
-18.982721
-22.578890
-29.640081
-40.867134
-54.972969
-69.743050
-83.325516
-94.489708
-102.638603
-108.155052
-112.166183
-115.388275
-117.410248
-117.436768
-115.522728
-112.745819
-110.341118
-109.031700
-109.011536
-110.018753
-111.350945
-112.254807
-112.522774
-112.577545
-112.973473
-113.857643
-114.664978
-114.208038
-111.443199
-106.529884
-101.088425
-97.263824
-96.365196
-97.897087
-99.513115
-98.389565
