EVENT_NAME: EMILIA_2ND_SHOCK
EVENT_ID: IT-2012-0011
EVENT_DATE_YYYYMMDD: 20120529
EVENT_TIME_HHMMSS: 070002
EVENT_LATITUDE_DEGREE: 44.8417
EVENT_LONGITUDE_DEGREE: 11.0657
EVENT_DEPTH_KM: 8.1
HYPOCENTER_REFERENCE: INGV-CNT_Seismic_Bulletin
MAGNITUDE_W: 6.0
MAGNITUDE_W_REFERENCE: RCMT-INGV
MAGNITUDE_L: 5.8
MAGNITUDE_L_REFERENCE: INGV-CNT_Seismic_Bulletin
FOCAL_MECHANISM: TF
NETWORK: TV
STATION_CODE: MIR01
STATION_NAME: MEDOLLA
STATION_LATITUDE_DEGREE: 44.844042
STATION_LONGITUDE_DEGREE: 11.071316
STATION_ELEVATION_M: 
LOCATION: 
SENSOR_DEPTH_M: 
VS30_M/S: 
SITE_CLASSIFICATION_EC8: C*
MORPHOLOGIC_CLASSIFICATION: 
EPICENTRAL_DISTANCE_KM: 0.5
EARTHQUAKE_BACKAZIMUTH_DEGREE: 239.6
DATE_TIME_FIRST_SAMPLE_YYYYMMDD_HHMMSS: 20120529_065945.000
DATE_TIME_FIRST_SAMPLE_PRECISION: milliseconds
SAMPLING_INTERVAL_S: 0.005000
NDATA: 105
DURATION_S: 
STREAM: HNZ
UNITS: cm/s^2
INSTRUMENT: sensor = Episensor FBA ES-T [Kinemetrics] | digitizer = Unknown [Unknown]
INSTRUMENT_ANALOG/DIGITAL: D
INSTRUMENTAL_FREQUENCY_HZ: 
INSTRUMENTAL_DAMPING: 
FULL_SCALE_G: 
N_BIT_DIGITAL_CONVERTER: 
PGV_CM/S: 13.804242
TIME_PGV_S: 22.315000
BASELINE_CORRECTION: BASELINE REMOVED
FILTER_TYPE: BUTTERWORTH
FILTER_ORDER: 2
LOW_CUT_FREQUENCY_HZ: 0.050
HIGH_CUT_FREQUENCY_HZ: 40.000
LATE/NORMAL_TRIGGERED: NT
DATABASE_VERSION: DYNA 1.0
HEADER_FORMAT: DYNA 1.2
DATA_TYPE: PSEUDO-VELOCITY RESPONSE SPECTRUM
PROCESSING: manual (Paolucci et al., 2011)
DATA_TIMESTAMP_YYYYMMDD_HHMMSS: 
DATA_LICENSE: CC-BY4_0 (http://creativecommons.org/licenses/by/4.0/)
DATA_CITATION: ESM working group (2015), European Strong-Motion database, version 0.1, Network Activity 3: Networking acceleration networks and SM data users. Project NERA (www.nera-eu.org)
DATA_CREATOR: ESM working group
ORIGINAL_DATA_MEDIATOR_CITATION: Orfeus - European Integrated Data Archive (EIDA) http://www.orfeus-eu.org/eida/
ORIGINAL_DATA_MEDIATOR: Orfeus - European Integrated Data Archive (EIDA)
ORIGINAL_DATA_CREATOR_CITATION: 
ORIGINAL_DATA_CREATOR: network: TV (INGV Experiments Network); owner: Istituto Nazionale di Geofisica e Vulcanologia
USER1: 
USER2: 
USER3: 
USER4: 
USER5: 
    0.010000     0.580530
    0.020000     1.261478
    0.022000     1.448712
    0.025000     1.962169
    0.029000     2.890914
    0.030000     3.242670
    0.032000     3.894068
    0.035001     5.027710
    0.036000     5.434478
    0.040000     6.443607
    0.041999     7.719182
    0.044001     9.625322
    0.045000    10.494266
    0.046000    10.741330
    0.048001    10.835273
    0.050000    11.957699
    0.054999    12.251267
    0.059999    13.321340
    0.064998    11.721146
    0.067002    11.372288
    0.069999    10.625589
    0.075002    11.383282
    0.080000    12.196106
    0.084998    13.685594
    0.090001    12.249578
    0.095003    11.132499
    0.100000    11.610040
    0.109999    10.868004
    0.120005    15.010640
    0.130005    13.979332
    0.132996    14.665906
    0.139997    14.585380
    0.149993    18.303408
    0.160000    19.768482
    0.170010    21.844915
    0.179986    27.240274
    0.190006    31.964005
    0.200000    33.296177
    0.220022    21.914724
    0.239981    18.862194
    0.250000    14.388707
    0.260010    12.611044
    0.280034     9.125846
    0.290023     9.434065
    0.300030    12.044851
    0.320000    11.462297
    0.340020    10.850427
    0.350017    10.694221
    0.359971    10.655152
    0.379939     9.112459
    0.400000    10.317066
    0.419992    10.012570
    0.439947     8.075057
    0.450045     7.202179
    0.459982     6.592755
    0.480077     6.363629
    0.500000     7.536109
    0.550055    10.022551
    0.599880     8.403936
    0.650195     7.616844
    0.667111     8.574254
    0.699790     9.676172
    0.750188    10.115655
    0.800000    12.343197
    0.850340    12.973739
    0.900090    12.234266
    0.949668    11.527269
    1.000000    11.684307
    1.100110    11.636948
    1.200480    14.305123
    1.300390    18.836489
    1.400560    20.890787
    1.499250    19.988960
    1.600000    17.242409
    1.700680    18.487379
    1.798561    20.063786
    1.901141    20.981813
    2.000000    26.013414
    2.197802    27.231981
    2.398082    22.085913
    2.500000    19.128801
    2.597403    16.370081
    2.801121    13.760677
    3.003003    12.762607
    3.205128    11.855778
    3.401361    11.025339
    3.496503    10.652621
    3.597122    10.278052
    3.802281     9.535682
    4.000000     9.970913
    4.201681    11.044842
    4.405286    11.696289
    4.608295    11.956207
    4.807692    11.948746
    5.000000    11.623691
    5.494505     9.904227
    5.988024     7.690219
    6.493506     8.252395
    6.993007     8.640790
    7.518797     8.640248
    8.000000     8.365599
    8.474576     7.927087
    9.009009     7.432078
    9.523809     6.890521
   10.000000     6.329868
