EVENT_NAME: EMILIA_2ND_SHOCK
EVENT_ID: IT-2012-0011
EVENT_DATE_YYYYMMDD: 20120529
EVENT_TIME_HHMMSS: 070002
EVENT_LATITUDE_DEGREE: 44.8417
EVENT_LONGITUDE_DEGREE: 11.0657
EVENT_DEPTH_KM: 8.1
HYPOCENTER_REFERENCE: INGV-CNT_Seismic_Bulletin
MAGNITUDE_W: 6.0
MAGNITUDE_W_REFERENCE: RCMT-INGV
MAGNITUDE_L: 5.8
MAGNITUDE_L_REFERENCE: INGV-CNT_Seismic_Bulletin
FOCAL_MECHANISM: TF
NETWORK: TV
STATION_CODE: MIR08
STATION_NAME: QUARANTOLI 2
STATION_LATITUDE_DEGREE: 44.916900
STATION_LONGITUDE_DEGREE: 11.089500
STATION_ELEVATION_M: 
LOCATION: 
SENSOR_DEPTH_M: 
VS30_M/S: 
SITE_CLASSIFICATION_EC8: C*
MORPHOLOGIC_CLASSIFICATION: 
EPICENTRAL_DISTANCE_KM: 8.6
EARTHQUAKE_BACKAZIMUTH_DEGREE: 192.7
DATE_TIME_FIRST_SAMPLE_YYYYMMDD_HHMMSS: 20120529_065929.000
DATE_TIME_FIRST_SAMPLE_PRECISION: milliseconds
SAMPLING_INTERVAL_S: 0.005000
NDATA: 34001
DURATION_S: 170.005
STREAM: HNZ
UNITS: cm/s^2
INSTRUMENT: sensor = Episensor FBA ES-T [Kinemetrics] | digitizer = Unknown [Unknown]
INSTRUMENT_ANALOG/DIGITAL: D
INSTRUMENTAL_FREQUENCY_HZ: 
INSTRUMENTAL_DAMPING: 
FULL_SCALE_G: 
N_BIT_DIGITAL_CONVERTER: 
PGA_CM/S^2: -306.674131
TIME_PGA_S: 39.060000
BASELINE_CORRECTION: BASELINE REMOVED
FILTER_TYPE: BUTTERWORTH
FILTER_ORDER: 2
LOW_CUT_FREQUENCY_HZ: 0.050
HIGH_CUT_FREQUENCY_HZ: 40.000
LATE/NORMAL_TRIGGERED: NT
DATABASE_VERSION: DYNA 1.0
HEADER_FORMAT: DYNA 1.2
DATA_TYPE: ACCELERATION
PROCESSING: manual (Paolucci et al., 2011)
DATA_TIMESTAMP_YYYYMMDD_HHMMSS: 
DATA_LICENSE: CC-BY4_0 (http://creativecommons.org/licenses/by/4.0/)
DATA_CITATION: ESM working group (2015), European Strong-Motion database, version 0.1, Network Activity 3: Networking acceleration networks and SM data users. Project NERA (www.nera-eu.org)
DATA_CREATOR: ESM working group
ORIGINAL_DATA_MEDIATOR_CITATION: Orfeus - European Integrated Data Archive (EIDA) http://www.orfeus-eu.org/eida/
ORIGINAL_DATA_MEDIATOR: Orfeus - European Integrated Data Archive (EIDA)
ORIGINAL_DATA_CREATOR_CITATION: 
ORIGINAL_DATA_CREATOR: network: TV (INGV Experiments Network); owner: Istituto Nazionale di Geofisica e Vulcanologia
USER1: 
USER2: 
USER3: 
USER4: 
USER5: 
[...]
0.063450
-0.034151
-0.146913
-0.225414
-0.227874
-0.143249
-0.002641
0.136793
0.223607
0.231924
0.164791
0.048610
-0.078477
-0.178196
-0.222143
-0.202835
-0.135926
-0.048121
0.033207
0.083804
0.093023
0.068706
0.020695
-0.046073
-0.113171
-0.147120
-0.127297
-0.063546
0.012776
0.067848
0.081202
0.052191
-0.003896
-0.063995
-0.103875
-0.105781
-0.069491
-0.015716
0.028045
0.047424
0.046454
0.035826
0.020115
-0.002819
-0.032524
-0.059932
-0.073530
-0.069801
-0.054813
-0.038775
-0.031831
-0.038784
-0.051656
-0.052335
-0.030694
0.001548
0.021912
0.020325
0.004320
-0.015170
-0.033204
-0.046175
-0.047185
-0.033210
-0.014211
-0.005987
-0.012654
-0.023872
-0.028682
-0.023861
-0.012529
-0.003273
-0.005044
-0.017321
-0.031560
-0.042264
-0.049387
-0.052755
-0.050979
-0.043645
-0.031193
-0.015668
-0.002834
0.000244
-0.007878
-0.019270
-0.022234
-0.012826
-0.000606
-0.001515
-0.023038
-0.055418
-0.078613
-0.078298
-0.054523
-0.017188
0.021219
0.047153
0.048055
0.019942
-0.026794
-0.071101
-0.093018
-0.085221
-0.056098
-0.022617
0.000023
0.004586
-0.004838
-0.014486
-0.013686
-0.005672
-0.000967
-0.005360
-0.017618
-0.032411
-0.043410
-0.047648
-0.046940
-0.043657
-0.037519
-0.028747
-0.021224
-0.017862
-0.015216
-0.008206
0.001341
0.005870
0.000992
-0.011735
-0.029893
-0.051784
-0.073108
-0.086587
-0.085138
-0.065516
-0.031221
0.006771
0.033581
0.038411
0.021057
-0.009375
-0.040708
-0.062696
-0.070302
-0.064819
-0.050014
-0.028204
-0.003515
0.014338
0.015352
-0.001992
-0.028745
-0.051695
-0.062335
-0.060646
-0.050241
-0.031945
-0.005334
0.023640
0.041265
0.035023
0.002878
-0.044480
-0.086989
-0.103799
-0.086609
-0.047401
-0.008424
0.017499
0.032477
0.039094
0.029235
-0.005154
-0.054292
-0.092770
-0.100791
-0.079266
-0.044567
-0.012370
0.011639
0.027222
0.030996
0.016745
-0.015121
-0.051413
-0.073772
-0.073724
-0.057989
-0.038350
-0.019062
0.002870
0.025100
0.033251
0.014351
-0.024703
-0.060456
-0.074183
-0.064533
-0.042895
-0.022290
-0.008549
0.000583
0.007057
0.005750
-0.009688
-0.035024
-0.054566
-0.056312
-0.046438
-0.042449
-0.050771
-0.057617
-0.046010
-0.016840
0.012642
0.027576
0.026612
0.016077
-0.001386
-0.028714
-0.064224
-0.092750
-0.093744
-0.062986
-0.022048
0.001770
0.002706
-0.003643
-0.004423
-0.003249
-0.009203
-0.022435
-0.035828
-0.044004
-0.045747
-0.041966
-0.035142
-0.029179
-0.026532
-0.025336
-0.023542
-0.026566
-0.043293
-0.070126
-0.085786
-0.068823
-0.018542
0.043520
0.089235
0.098882
0.067012
0.003187
-0.070207
-0.126221
-0.146315
-0.128330
-0.082976
-0.025883
0.026598
0.060856
0.069410
0.049704
0.004004
-0.054608
-0.101156
-0.112536
-0.086010
-0.040568
0.000805
0.023830
0.023034
0.004025
-0.017092
-0.029380
-0.039087
-0.056463
-0.074620
-0.073487
-0.045889
-0.008872
0.014476
0.015489
0.000611
-0.017531
-0.027985
-0.029244
-0.029634
-0.035670
-0.042365
-0.039396
-0.025801
-0.012795
-0.011216
-0.021951
-0.038667
-0.053757
-0.060159
-0.052688
-0.032875
-0.010537
0.003685
0.005197
-0.005243
-0.022173
-0.035864
-0.039873
-0.038028
-0.039178
-0.045008
-0.046778
-0.036506
-0.017480
-0.000776
0.005199
0.000966
-0.006462
-0.012123
-0.016982
-0.023408
-0.031692
-0.041748
-0.053331
-0.062518
-0.062229
-0.050081
-0.032078
-0.015172
-0.001759
0.005921
0.003955
-0.007133
-0.020334
-0.029115
-0.033260
-0.035615
-0.035890
-0.032179
-0.026227
-0.021665
-0.019788
-0.020110
-0.020884
-0.019723
-0.017311
-0.017202
-0.020556
-0.024558
-0.026489
-0.027161
-0.028382
-0.028960
-0.027308
-0.025409
-0.026536
-0.031835
-0.039294
-0.043925
-0.041215
-0.031245
-0.018422
-0.008898
-0.008193
-0.018116
-0.034746
-0.050699
-0.059834
-0.059498
-0.049723
-0.032160
-0.010445
0.007977
0.013205
0.000868
-0.022284
-0.043231
-0.052060
-0.047859
-0.036999
-0.025663
-0.016239
-0.010442
-0.011397
-0.020509
-0.033685
-0.043262
-0.044372
-0.037878
-0.027604
-0.017446
-0.011685
-0.014229
-0.024351
-0.035874
-0.042468
-0.041192
-0.032229
-0.019591
-0.010332
-0.008640
-0.011865
-0.015071
-0.017511
-0.021676
-0.027688
-0.032826
-0.035635
-0.036192
-0.033923
-0.029003
-0.024234
-0.021869
-0.019091
-0.011788
-0.003592
-0.004295
-0.017601
-0.036284
-0.050175
-0.054360
-0.049738
-0.040061
-0.029561
-0.021160
-0.016261
-0.015538
-0.018116
-0.022097
-0.027075
-0.032680
-0.036341
-0.036609
-0.035846
-0.036490
-0.036654
-0.032485
-0.024398
-0.017109
-0.013516
-0.012614
-0.013814
-0.019410
-0.030155
-0.040802
-0.043732
-0.036304
-0.023182
-0.012473
-0.009444
-0.013259
-0.019900
-0.026511
-0.031871
-0.035595
-0.037429
-0.035606
-0.028462
-0.018369
-0.010519
-0.008511
-0.013245
-0.023284
-0.034094
-0.039787
-0.037845
-0.031330
-0.026157
-0.025787
-0.028319
-0.030000
-0.029797
-0.028494
-0.026735
-0.025568
-0.025629
-0.025802
-0.025032
-0.024192
-0.024378
-0.025048
-0.025208
-0.024677
-0.023665
-0.022758
-0.022950
-0.024699
-0.027301
-0.028736
-0.027081
-0.023873
-0.023192
-0.025724
-0.027669
-0.026053
-0.022250
-0.020457
-0.023204
-0.028731
-0.033514
-0.035477
-0.034165
-0.030525
-0.026791
-0.025248
-0.026944
-0.030618
-0.032683
-0.030079
-0.024029
-0.019666
-0.020709
-0.025517
-0.029543
-0.030530
-0.029747
-0.028805
-0.027861
-0.027412
-0.028641
-0.030602
-0.030401
-0.027895
-0.025836
-0.024462
-0.021952
-0.019132
-0.017790
-0.017569
-0.018117
-0.020174
-0.023205
-0.025245
-0.025247
-0.023615
-0.021105
-0.018765
-0.018039
-0.019129
-0.019676
-0.017173
-0.012969
-0.011407
-0.014744
-0.020940
-0.026090
-0.028039
-0.027684
-0.026898
-0.026302
-0.025146
-0.022757
-0.020335
-0.019856
-0.021334
-0.023651
-0.026655
-0.030336
-0.033907
-0.036621
-0.038098
-0.037937
-0.035857
-0.032088
-0.027448
-0.023132
-0.020734
-0.022183
-0.028109
-0.035928
-0.040871
-0.039670
-0.033350
-0.026365
-0.023019
-0.024530
-0.028735
-0.032364
-0.033752
-0.033034
-0.030541
-0.026880
-0.024089
-0.024035
-0.025868
-0.027228
-0.027009
-0.025605
-0.024014
-0.023265
-0.023372
-0.023320
-0.023262
-0.024783
-0.027215
-0.026711
-0.021191
-0.013978
-0.010982
-0.014534
-0.020941
-0.025131
-0.025341
-0.021786
-0.015339
-0.009258
-0.007868
-0.012725
-0.021472
-0.029428
-0.032477
-0.029231
-0.021121
-0.011827
-0.005815
-0.005975
-0.012288
-0.022360
-0.033239
-0.041966
-0.044607
-0.038357
-0.025869
-0.014501
-0.010304
-0.014155
-0.022499
-0.029696
-0.031385
-0.027927
-0.023630
-0.022041
-0.023252
-0.025326
-0.026590
-0.026502
-0.025435
-0.024202
-0.024497
-0.028981
-0.037778
-0.045359
-0.044769
-0.034555
-0.019266
-0.005356
0.001202
-0.003470
-0.018063
-0.035713
-0.048948
-0.053764
-0.048426
-0.033032
-0.012981
0.001977
0.005464
-0.001362
-0.013445
-0.026244
-0.036772
-0.043555
-0.046605
-0.046195
-0.041652
-0.032502
-0.020318
-0.008238
0.000849
0.004668
0.001616
-0.007548
-0.019017
-0.028264
-0.032275
-0.030356
-0.025135
-0.021504
-0.022540
-0.027476
-0.033457
-0.037295
-0.036098
-0.028885
-0.018611
-0.010552
-0.007645
-0.009057
-0.013157
-0.019375
-0.026530
-0.032087
-0.034769
-0.035302
-0.033558
-0.028307
-0.020289
-0.012677
-0.008118
-0.006966
-0.008437
-0.012330
-0.018937
-0.027099
-0.033429
-0.034992
-0.031673
-0.025361
-0.018904
-0.015092
-0.014636
-0.016237
-0.018803
-0.022415
-0.027690
-0.033890
-0.037565
-0.035555
-0.028942
-0.021747
-0.017194
-0.016214
-0.017875
-0.020645
-0.023202
-0.024869
-0.026030
-0.026843
-0.026725
-0.026550
-0.028131
-0.030446
-0.029776
-0.024424
-0.016947
-0.011069
-0.008257
-0.008011
-0.009650
-0.012824
-0.017036
-0.021060
-0.022774
-0.020031
-0.012644
-0.003746
0.001750
0.000667
-0.006803
-0.018468
-0.031855
-0.044273
-0.052004
-0.051345
-0.041893
-0.027229
-0.011799
0.000949
0.008513
0.009793
0.004618
-0.007336
-0.025137
-0.044042
-0.056472
-0.057555
-0.049089
-0.036334
-0.022895
-0.011049
-0.003261
0.000178
0.001793
0.003038
0.002584
-0.000741
-0.005218
-0.007856
-0.008997
-0.013080
-0.023817
-0.040818
-0.059795
-0.073333
-0.074264
-0.060998
-0.038037
-0.012051
0.010234
0.022771
0.023056
0.013942
0.000105
-0.016333
-0.033935
-0.045658
-0.034672
0.023391
0.149991
0.349899
0.606408
0.892423
1.190103
1.506486
1.870321
2.290378
2.700595
2.989604
3.137965
3.288093
3.588562
3.976188
4.228558
4.294490
4.479224
5.146475
6.194019
6.950902
6.723345
5.437853
3.737166
2.503359
2.223278
2.578655
2.552647
1.236976
-1.136551
-3.172463
-3.698828
-3.070234
-2.853806
-4.324468
-7.318030
-10.379576
-11.999634
-11.849692
-10.936730
-10.707862
-11.985318
-14.388069
-16.631275
-17.628012
-17.244991
-15.807388
-13.242610
-9.286400
-4.470158
-0.250731
2.055656
2.004544
-0.376792
-5.003883
-10.943228
-15.152771
-13.446283
-4.589157
6.819468
13.490832
12.213922
7.054728
5.425244
10.564677
18.421728
22.519070
20.254625
13.858030
7.927181
6.531636
9.741860
12.971917
12.623275
11.779919
16.734184
27.990622
38.688675
42.049290
36.143929
22.143658
3.374310
-14.444021
-26.491583
-31.584883
-30.771641
-26.935820
-25.011847
-27.458120
-30.600218
-28.472013
-17.916767
0.012306
19.751522
33.595455
37.231113
31.377970
18.620033
2.425418
-11.593390
-17.881607
-15.888572
-11.309618
-11.312402
-18.840437
-31.109695
-41.541847
-43.030380
-32.162628
-11.977724
9.520659
24.011219
28.004541
25.638622
25.695322
33.776894
47.165852
57.234653
55.023663
35.680233
2.698546
-31.570473
-53.598602
-57.092850
-44.301186
-24.512709
-11.277137
-13.309392
-25.716698
-33.667648
-24.773977
1.828276
34.166039
54.521309
52.271667
31.168917
3.673698
-18.247368
-25.405600
-13.072818
11.482108
28.400173
20.933777
-9.666872
-46.834053
-70.711403
-68.140083
-40.604465
-5.890158
13.702540
9.283373
-7.571455
-15.669504
-2.553461
26.344967
53.904362
65.008896
55.881691
33.363518
8.200157
-10.559507
-18.231354
-14.630710
-1.834328
16.580627
33.159054
37.611847
25.113653
3.609695
-11.080765
-10.402863
-0.990458
5.351131
5.258002
2.919717
0.411414
-4.847497
-14.258580
-23.623096
-26.105160
-19.676357
-10.347379
-6.165992
-8.548009
-11.949585
-12.258822
-12.181059
-16.283831
-24.685446
-35.774090
-50.850689
-70.038635
-86.011803
-87.098679
-67.026413
-29.803202
14.734545
57.192398
88.740509
100.153419
88.439224
63.998615
43.821049
35.073509
30.707771
23.454552
16.563156
15.078462
14.494362
6.913558
-6.751046
-17.862900
-19.977493
-14.280686
-8.103986
-8.850376
-15.813138
-17.065584
1.631235
41.541782
85.595818
110.576599
104.656464
72.304520
24.934637
-27.565437
-75.216873
-104.592651
-103.394821
-69.119904
-12.866484
44.176231
79.617256
80.348778
48.973106
2.908751
-35.129757
-52.939774
-56.959274
-60.947609
-68.159592
-69.529175
-57.449863
-34.875710
-9.519691
16.231611
44.750942
71.908432
82.704697
65.804718
29.737724
-3.007109
-15.709746
-6.737308
14.452246
34.297298
41.825161
33.427208
13.322391
-8.506087
-20.787703
-19.366030
-12.823687
-16.016369
-35.087738
-59.557907
-70.889603
-57.855675
-24.019064
13.099918
29.246576
11.018930
-28.996061
-61.260300
-64.410355
-39.062469
-2.000986
28.666187
44.355785
45.482971
35.517536
19.246090
2.928954
-7.491851
-7.827679
1.065678
9.586142
6.874284
-5.457634
-15.369278
-16.384556
-13.654181
-15.033974
-21.206524
-24.433798
-17.039057
-1.286969
11.405728
10.928497
-4.279495
-28.917418
-53.033337
-61.600300
-43.506363
-6.534353
26.151295
37.591488
29.524357
16.521042
13.481591
25.969585
47.363556
63.943874
64.448318
47.698071
24.513794
12.223044
20.627048
40.065521
48.845432
34.407806
3.376979
-27.227819
-43.312641
-40.591404
-24.836630
-7.219658
1.992387
-1.430404
-11.559919
-14.727662
-2.735776
16.803848
28.511948
26.020535
14.672560
0.281744
-14.800294
-24.510456
-17.082447
15.103267
62.651279
99.521881
103.797874
76.156631
33.262554
-7.043430
-29.901537
-29.610821
-18.785164
-19.012125
-37.816750
-60.823948
-66.042732
-41.961716
4.381336
50.541153
70.553246
50.037212
-4.435148
-69.077652
-118.163055
-137.474228
-127.486702
-101.088341
-74.646469
-51.312431
-18.451542
28.629421
71.124275
88.155075
82.254211
69.830704
57.490742
40.498154
17.514606
-2.567429
-9.366144
-3.346458
6.894610
17.318682
28.070913
34.861355
31.726883
18.385202
-0.800348
-23.294207
-53.626812
-96.089134
-133.984985
-129.595428
-61.445690
49.289097
159.470795
238.153076
274.612000
264.835236
205.636429
111.115219
20.424303
-36.280338
-71.204628
-111.014954
-148.108429
-153.894516
-132.233398
-122.047829
-142.378784
-165.298630
-155.377289
-112.669098
-63.654716
-31.032816
-25.496929
-50.026257
-97.772415
-147.009949
-165.642334
-132.190887
-54.226513
41.035507
128.021118
185.356384
191.044327
138.497620
57.867928
1.251418
-1.731449
33.249138
63.121708
52.914330
5.350955
-41.823967
-56.348331
-37.800106
0.407008
50.501312
106.336617
155.691772
177.454620
149.693649
74.545021
-7.927260
-48.363911
-35.378841
-5.299614
-6.644043
-63.718452
-164.155014
-263.614319
-306.674133
-261.362000
-144.594177
-14.864124
68.590462
87.738548
67.009796
43.641342
50.081455
103.789207
187.569702
250.260712
242.586029
154.023941
19.646746
-103.649323
-168.502975
-152.560776
-62.665771
60.217548
155.731094
190.002533
179.478775
153.463547
113.917877
48.650330
-40.747787
-137.961380
-219.784409
-258.817505
-234.194702
-151.606964
-49.371529
27.603539
61.702763
67.954964
76.661064
109.339951
152.730927
164.240631
118.267616
28.030912
-79.431030
-174.738495
-219.923080
-193.944077
-122.849365
-54.812237
-11.320606
15.864032
34.127071
42.865753
47.009251
52.667385
53.005852
36.497757
7.140549
-16.593719
-23.895447
-25.897364
-44.044579
-84.008224
-124.140350
-132.516876
-95.300392
-29.589188
30.844902
65.425919
81.196419
93.848503
103.001678
97.309746
73.979385
37.710945
-8.030210
-49.526020
-57.397270
-18.330328
38.459312
71.242767
76.284416
88.243729
131.886887
187.451828
206.690399
160.847916
70.774048
-18.463621
-86.296570
-136.827591
-162.143539
-146.200150
-99.639725
-51.530083
-12.368423
23.562403
50.061787
53.197281
38.256123
28.532930
35.750069
47.637218
50.647778
54.340038
80.485970
129.704315
172.422928
176.341248
134.012131
66.055748
8.733805
-7.752411
19.538824
68.223259
107.343819
104.076118
34.603859
-88.910614
-211.031845
-268.802643
-238.182251
-148.635773
-56.149193
2.878080
32.965637
51.051888
52.873268
29.969067
1.579087
-3.881676
9.218041
8.309244
-22.072927
-60.063831
-74.633469
-60.108593
-38.601406
-35.919598
-57.038841
-81.202805
-81.895470
-55.747211
-31.321531
-45.112103
-106.434944
-187.718552
-248.258255
-259.834595
-215.176971
-133.851013
-59.220581
-25.756506
-25.365070
-16.776716
32.038681
112.051872
180.245819
198.547028
167.522385
124.363159
109.471909
132.209778
166.790268
177.473404
142.927872
65.583710
-28.012188
-98.238693
-114.581139
-75.998421
-14.355720
29.580906
37.900257
19.273287
-7.142956
-19.432642
0.300716
49.520634
97.111687
100.720749
39.821907
-66.787239
-175.902939
-245.784393
-247.911636
-172.006119
-40.032227
89.223923
156.921204
155.597824
127.417702
111.727631
114.276558
122.899170
126.281738
110.570404
56.898586
-41.557495
-161.456711
-256.885864
-289.051880
-247.694199
-149.641678
-27.761999
81.577560
150.937073
166.371582
128.849884
59.787716
-3.012545
-27.291594
-8.600421
27.950752
49.366070
41.852058
19.433783
7.951920
21.997723
56.350513
93.148422
111.604576
96.973694
49.887852
-13.136027
-70.529198
-105.195099
-108.623398
-84.876457
-48.038750
-9.041324
31.413214
72.539925
102.342575
105.215141
79.691101
41.303246
7.000629
-16.882915
-30.541231
-31.354359
-12.912687
26.434710
75.331734
112.838203
122.650978
104.515175
72.227158
39.322048
5.722471
-37.054913
-86.580292
-123.949242
-130.419449
-104.129715
-60.317577
-18.481045
11.042208
29.054499
39.558765
45.366806
48.414757
45.056965
23.574898
-22.907322
-81.312981
-123.107216
-124.981369
-86.994560
-33.754414
5.164003
18.312428
14.772957
9.432235
11.599320
21.066128
28.614180
24.060129
6.200705
-16.597700
-34.478020
-44.902447
-55.309612
-75.065674
-101.855873
-116.141159
-92.729523
-24.702074
61.142170
117.260185
109.216042
42.237743
-40.167515
-87.093681
-77.146027
-27.006981
30.863737
73.064232
95.629257
109.255455
123.730942
134.236679
122.742981
76.789284
9.279321
-46.936035
-67.480003
-53.372658
-21.437046
11.227760
33.485748
42.245705
42.715034
44.289761
54.365391
71.892990
85.088844
79.655617
50.978165
8.219899
-31.270821
-53.070629
-55.462749
-48.020737
-39.815788
-32.547943
-25.150764
-17.759539
-9.265289
2.183675
14.612268
22.245857
20.197411
8.493891
-6.925868
-17.480616
-16.128035
2.239542
38.967747
83.995857
114.475800
109.392326
66.474014
4.386835
-47.887081
-66.720100
-49.259300
-15.923848
7.228188
9.892658
1.364193
-4.070190
-2.687748
-0.029021
3.062831
12.484893
25.902424
28.311687
10.615836
-17.277309
-39.654961
-50.208466
-46.450066
-22.849699
19.418365
64.017860
88.773926
81.322083
43.791546
-13.114204
-73.599586
-116.597137
-125.316788
-102.285126
-66.578430
-35.080868
-13.998462
-4.222106
-3.579612
-4.729762
1.356777
17.967745
39.335720
53.336975
49.194832
27.371346
1.306203
-15.719180
-24.241245
-33.575806
-46.432465
-56.926048
-60.355259
-54.120747
-32.226761
6.777612
46.157650
60.697742
46.602837
30.992311
41.831348
74.743149
99.931549
95.968201
64.433731
16.404493
-40.662769
-100.530228
-150.617523
-172.471222
-152.243240
-91.133087
-5.591604
80.528610
143.927231
168.636154
152.685120
108.577362
53.809837
1.973212
-37.294960
-58.224281
-61.645432
-49.616108
-18.961784
28.853317
75.960350
98.189331
83.928703
37.656788
-27.468445
-93.283379
-138.930817
-150.389526
-131.655502
-104.161713
-91.163864
-97.630653
-103.820442
-83.498039
-31.276320
30.911627
73.370773
80.116516
54.520370
13.241617
-21.760935
-30.886520
-8.091552
28.364799
44.878532
24.941229
-11.606597
-31.356171
-23.057945
-2.056906
13.658786
21.015219
26.973820
34.827049
39.926086
37.751957
31.838978
29.883905
33.705471
36.876629
31.993467
18.531315
2.341431
-12.215858
-25.410568
-36.573441
-40.680038
-32.616261
-13.757689
5.883169
14.299078
7.922351
-6.254266
-19.063690
-27.890345
-36.488888
-47.275852
-56.896198
-60.768978
-58.679649
-53.156326
-44.445904
-31.035290
-16.211370
-10.324629
-20.886049
-40.278629
-50.244213
-41.868435
-25.664928
-19.318760
-30.677452
-53.708057
-75.034554
-82.996803
-73.777504
-50.003033
-16.786674
16.974003
39.627518
