EVENT_NAME: EMILIA_2ND_SHOCK
EVENT_ID: IT-2012-0011
EVENT_DATE_YYYYMMDD: 20120529
EVENT_TIME_HHMMSS: 070002
EVENT_LATITUDE_DEGREE: 44.8417
EVENT_LONGITUDE_DEGREE: 11.0657
EVENT_DEPTH_KM: 8.1
HYPOCENTER_REFERENCE: INGV-CNT_Seismic_Bulletin
MAGNITUDE_W: 6.0
MAGNITUDE_W_REFERENCE: RCMT-INGV
MAGNITUDE_L: 5.8
MAGNITUDE_L_REFERENCE: INGV-CNT_Seismic_Bulletin
FOCAL_MECHANISM: TF
NETWORK: TV
STATION_CODE: MIR02
STATION_NAME: MIRANDOLA MRN
STATION_LATITUDE_DEGREE: 44.886948
STATION_LONGITUDE_DEGREE: 11.073198
STATION_ELEVATION_M: 
LOCATION: 
SENSOR_DEPTH_M: 
VS30_M/S: 
SITE_CLASSIFICATION_EC8: C*
MORPHOLOGIC_CLASSIFICATION: 
EPICENTRAL_DISTANCE_KM: 5.1
EARTHQUAKE_BACKAZIMUTH_DEGREE: 186.7
DATE_TIME_FIRST_SAMPLE_YYYYMMDD_HHMMSS: 20120529_065950.000
DATE_TIME_FIRST_SAMPLE_PRECISION: milliseconds
SAMPLING_INTERVAL_S: 0.005000
NDATA: 12601
DURATION_S: 63.005
STREAM: HNN
UNITS: cm/s^2
INSTRUMENT: sensor = Episensor FBA ES-T [Kinemetrics] | digitizer = Unknown [Unknown]
INSTRUMENT_ANALOG/DIGITAL: D
INSTRUMENTAL_FREQUENCY_HZ: 
INSTRUMENTAL_DAMPING: 
FULL_SCALE_G: 
N_BIT_DIGITAL_CONVERTER: 
PGA_CM/S^2: -232.736468
TIME_PGA_S: 19.055000
BASELINE_CORRECTION: BASELINE REMOVED
FILTER_TYPE: BUTTERWORTH
FILTER_ORDER: 2
LOW_CUT_FREQUENCY_HZ: 0.050
HIGH_CUT_FREQUENCY_HZ: 40.000
LATE/NORMAL_TRIGGERED: NT
DATABASE_VERSION: DYNA 1.0
HEADER_FORMAT: DYNA 1.2
DATA_TYPE: ACCELERATION
PROCESSING: manual (Paolucci et al., 2011)
DATA_TIMESTAMP_YYYYMMDD_HHMMSS: 20141028_094514.539
DATA_LICENSE: CC-BY4_0 (http://creativecommons.org/licenses/by/4.0/)
DATA_CITATION: ESM working group (2015), European Strong-Motion database, version 0.1, Network Activity 3: Networking acceleration networks and SM data users. Project NERA (www.nera-eu.org)
DATA_CREATOR: ESM working group
ORIGINAL_DATA_MEDIATOR_CITATION: Orfeus - European Integrated Data Archive (EIDA) http://www.orfeus-eu.org/eida/
ORIGINAL_DATA_MEDIATOR: Orfeus - European Integrated Data Archive (EIDA)
ORIGINAL_DATA_CREATOR_CITATION: 
ORIGINAL_DATA_CREATOR: network: TV (INGV Experiments Network); owner: Istituto Nazionale di Geofisica e Vulcanologia
USER1: /home/dyna/processing-itaca/processing.py /var/www/processing/tmp/Lucia//TV.MIR02..HNE.D.20120529.070003.X.ACC.ASC /var/www/processing/tmp/Lucia//TV.MIR02..HNN.D.20120529.070003.X.ACC.ASC /var/www/processing/tmp/Lucia//TV.MIR02..HNZ.D.20120529.070003.X.ACC.ASC --tmp /var/www/processing/tmp/Lucia/ --le 0.050 --he 40.000 --ln 0.050 --hn 40.000 --lz 0.050 --hz 40.000 --fo 2 --ca 50 --cz 180 --ta 5 --tz 5 --mf 1 --rf 0 --tr NT
USER2: 
USER3: 
USER4: 
USER5: 
[...]
-0.101648
-0.089675
-0.080968
-0.083233
-0.093451
-0.102748
-0.105573
-0.102214
-0.094905
-0.085812
-0.078606
-0.077765
-0.084446
-0.094451
-0.102193
-0.106186
-0.107902
-0.107116
-0.102941
-0.097234
-0.093733
-0.094763
-0.098736
-0.101164
-0.099129
-0.094022
-0.090545
-0.092545
-0.097721
-0.099595
-0.096498
-0.093837
-0.096794
-0.104078
-0.109125
-0.106316
-0.096365
-0.086941
-0.085883
-0.092280
-0.099124
-0.103168
-0.105770
-0.108539
-0.111364
-0.110776
-0.103356
-0.092586
-0.086486
-0.088634
-0.095818
-0.103398
-0.109003
-0.110352
-0.104340
-0.092236
-0.081864
-0.079573
-0.082316
-0.081834
-0.074948
-0.066662
-0.064194
-0.069682
-0.079084
-0.087715
-0.094938
-0.102346
-0.108629
-0.109269
-0.103029
-0.095170
-0.091014
-0.089947
-0.089077
-0.089573
-0.094540
-0.101762
-0.104717
-0.100396
-0.091172
-0.082244
-0.080374
-0.088878
-0.101968
-0.110248
-0.111886
-0.111636
-0.109981
-0.102422
-0.089463
-0.078397
-0.073500
-0.070632
-0.065069
-0.060461
-0.064442
-0.078196
-0.095445
-0.109215
-0.115906
-0.115155
-0.109158
-0.100841
-0.091765
-0.083268
-0.077678
-0.077011
-0.081911
-0.090546
-0.098429
-0.101402
-0.098383
-0.091689
-0.085646
-0.083603
-0.086514
-0.093884
-0.102974
-0.108460
-0.106814
-0.099504
-0.090194
-0.081530
-0.074415
-0.067864
-0.061441
-0.058073
-0.060617
-0.066971
-0.073283
-0.080323
-0.091394
-0.104161
-0.110591
-0.106700
-0.097010
-0.088616
-0.084866
-0.084209
-0.083738
-0.083534
-0.085769
-0.090509
-0.094727
-0.095675
-0.094507
-0.094564
-0.096147
-0.096132
-0.092611
-0.087036
-0.082120
-0.080358
-0.083686
-0.090973
-0.097036
-0.097699
-0.094105
-0.089962
-0.087886
-0.089757
-0.096752
-0.106757
-0.113456
-0.111027
-0.099500
-0.083661
-0.069678
-0.063533
-0.066785
-0.072967
-0.072639
-0.063487
-0.053968
-0.054316
-0.064413
-0.074805
-0.079663
-0.082659
-0.087696
-0.090929
-0.087110
-0.078235
-0.070985
-0.068782
-0.069973
-0.071989
-0.074097
-0.076825
-0.080547
-0.084918
-0.089612
-0.093936
-0.095410
-0.091873
-0.085468
-0.081815
-0.084454
-0.090867
-0.095016
-0.094120
-0.090359
-0.085123
-0.076609
-0.065714
-0.059617
-0.065233
-0.080368
-0.095033
-0.101903
-0.102342
-0.101170
-0.099015
-0.093947
-0.088299
-0.086394
-0.085958
-0.079744
-0.067207
-0.058079
-0.060305
-0.069399
-0.075709
-0.077270
-0.078742
-0.082359
-0.085585
-0.084959
-0.080065
-0.074307
-0.071013
-0.069921
-0.069084
-0.067839
-0.065954
-0.062008
-0.055918
-0.052571
-0.058113
-0.071216
-0.083592
-0.090327
-0.093868
-0.097980
-0.102981
-0.107024
-0.107661
-0.100528
-0.082728
-0.060601
-0.046713
-0.047284
-0.057880
-0.070593
-0.080376
-0.083658
-0.078268
-0.069732
-0.068795
-0.077239
-0.085042
-0.084451
-0.078016
-0.071733
-0.068631
-0.069366
-0.072107
-0.072151
-0.067848
-0.065287
-0.070089
-0.077819
-0.080148
-0.076295
-0.072123
-0.071106
-0.071173
-0.069995
-0.068580
-0.067794
-0.065705
-0.061051
-0.056573
-0.056255
-0.060660
-0.067007
-0.072083
-0.073721
-0.072282
-0.070836
-0.071363
-0.072930
-0.075031
-0.078863
-0.084389
-0.088607
-0.087572
-0.081294
-0.074922
-0.071564
-0.068181
-0.062119
-0.056094
-0.053687
-0.054420
-0.056877
-0.062355
-0.069931
-0.073537
-0.069739
-0.062830
-0.058586
-0.057094
-0.054716
-0.051145
-0.050037
-0.052817
-0.056957
-0.060413
-0.063449
-0.066074
-0.067019
-0.065709
-0.063016
-0.060275
-0.058983
-0.060038
-0.062481
-0.064533
-0.065805
-0.067573
-0.070128
-0.069864
-0.062243
-0.048913
-0.038027
-0.036409
-0.043559
-0.053187
-0.059602
-0.061454
-0.059078
-0.052861
-0.047116
-0.050249
-0.066206
-0.087891
-0.102571
-0.102952
-0.091070
-0.073673
-0.056642
-0.043790
-0.038635
-0.043155
-0.054306
-0.065283
-0.070554
-0.069828
-0.067840
-0.068089
-0.068944
-0.068730
-0.068739
-0.068435
-0.063481
-0.050856
-0.034171
-0.022711
-0.023614
-0.034829
-0.047177
-0.053665
-0.056041
-0.060571
-0.067446
-0.069118
-0.061230
-0.049453
-0.042880
-0.044550
-0.049875
-0.052514
-0.049440
-0.041029
-0.031058
-0.025947
-0.029547
-0.039222
-0.048458
-0.052686
-0.051316
-0.045615
-0.039829
-0.041864
-0.054985
-0.070900
-0.076796
-0.068726
-0.055302
-0.047921
-0.050310
-0.058160
-0.064610
-0.064968
-0.058203
-0.045701
-0.031863
-0.024192
-0.027244
-0.037945
-0.049555
-0.057774
-0.062137
-0.062151
-0.050677
-0.012890
0.060821
0.157412
0.243518
0.296552
0.337436
0.419058
0.564143
0.719028
0.794898
0.775846
0.769859
0.895237
1.101947
1.189405
1.060954
0.895628
0.992929
1.454713
2.003062
2.091873
1.350326
0.057712
-0.921931
-0.806027
0.428045
1.911335
2.477796
1.670712
0.294126
-0.349575
-0.036482
0.019647
-1.223058
-3.192342
-4.221813
-3.127128
-0.319804
2.258883
2.638807
0.648198
-1.955410
-3.165569
-2.339459
-0.486429
0.792814
0.947283
0.958047
1.820769
2.931753
2.493697
-0.444619
-4.328941
-6.003355
-4.080132
-0.667104
1.336322
1.559045
1.511933
2.021376
2.931722
4.164706
5.476057
5.994133
5.270445
4.239897
3.875226
3.248941
0.855203
-2.224936
-3.155719
-1.606284
-0.305886
-1.033774
-2.830316
-4.201938
-4.523483
-3.723224
-2.523492
-1.983339
-1.752319
-0.147382
3.276666
6.294948
6.252392
3.247757
-0.432418
-3.352005
-5.207318
-5.287592
-3.500881
-1.836020
-2.103744
-3.136764
-2.570693
-0.530930
0.880748
1.220115
2.262255
4.932641
7.726461
8.402675
6.158168
2.216996
-0.894374
-0.756427
2.826410
6.587509
6.410829
1.936670
-3.093625
-5.249496
-4.241303
-1.756334
0.303378
0.922805
0.887554
1.852163
4.087485
6.175301
6.499053
4.522103
1.754468
0.665733
0.891533
-1.001780
-5.914898
-9.923931
-9.631777
-6.609526
-4.709848
-4.989932
-5.092285
-2.859110
1.437910
6.366777
10.270729
10.667496
6.334184
0.842162
-0.215683
3.569515
6.911399
5.682851
1.106881
-2.929577
-4.559962
-4.909771
-5.622192
-7.183488
-8.604412
-7.228119
-0.728953
9.057769
15.902550
14.656610
6.964237
0.185365
-0.521519
2.046234
1.449073
-3.585157
-8.068773
-7.521006
-2.519139
2.548376
3.505322
0.700861
-0.875520
2.261362
7.472770
9.424292
6.323300
1.512424
-0.107179
2.952175
6.961487
6.829823
1.995084
-3.170438
-5.221187
-4.878008
-3.837010
-2.682909
-2.308774
-3.045711
-3.161818
-1.117642
2.465444
5.918186
8.219776
10.061378
12.912685
16.129749
16.454466
11.655691
3.834565
-2.651872
-6.302701
-8.522208
-9.669616
-9.298655
-7.700304
-3.791520
4.406744
15.344408
23.040977
21.274105
9.426545
-4.780649
-10.989782
-6.195685
3.021694
8.263912
6.816967
2.107669
-0.395643
2.052866
7.093922
9.469841
5.857471
-1.983817
-8.835651
-11.350672
-10.272243
-6.934953
-1.556330
3.990989
5.980623
2.651049
-3.467451
-7.431709
-6.678279
-3.278834
-0.342581
0.487926
-2.957659
-11.470199
-19.522379
-18.857450
-7.449638
8.797974
20.988165
22.067532
11.624079
-1.365679
-5.113001
2.652444
12.238819
13.076053
4.307904
-5.715431
-8.868683
-5.204164
-0.139090
3.115307
3.900064
1.921741
-0.124361
2.170432
8.074832
12.745718
14.779975
16.878193
20.847441
24.334639
21.419321
8.779749
-8.966264
-23.562387
-30.551008
-30.838739
-27.901730
-23.402563
-14.719668
0.716920
18.179804
27.249498
23.820814
15.557558
11.366958
12.045979
14.137864
14.478466
9.430662
-1.965239
-13.354168
-16.117191
-9.024418
1.539005
9.062112
10.694974
6.658801
0.255927
-3.163130
0.216875
10.295159
23.300814
33.365055
35.698631
29.175095
15.300152
-2.676126
-18.064514
-23.452093
-18.629095
-11.162220
-6.734755
-3.626675
2.388257
12.146095
21.662897
24.090614
15.826138
1.515919
-10.452734
-16.489138
-19.185896
-21.944008
-23.877007
-20.764906
-12.170795
-4.079971
-0.405766
3.369004
12.552025
23.635366
27.215120
16.793978
-6.266198
-29.856758
-35.727669
-16.549223
15.318389
40.763340
48.263000
37.705040
20.362896
11.518700
17.743170
33.308613
44.889004
38.606232
12.815651
-14.657499
-21.601398
-3.994556
22.162239
38.996696
40.008842
26.814907
4.854170
-14.834488
-23.533672
-25.112827
-26.426510
-25.529947
-18.361172
-6.628001
2.907237
2.276312
-9.238935
-23.273607
-34.047104
-41.082008
-38.267422
-16.215691
22.318647
62.013599
88.224800
92.460152
72.547058
35.483112
-5.388554
-36.974487
-46.966366
-28.939268
4.686167
27.767834
26.324148
10.061725
-2.595292
-2.745096
5.359431
13.916541
19.894152
22.215380
20.114346
19.066919
27.002127
41.631577
51.214699
47.089752
30.524185
11.055193
-0.244294
0.327202
6.666315
12.078979
16.724503
20.010307
15.760664
2.826431
-14.010036
-33.442631
-49.723499
-49.177277
-32.649712
-17.265518
-6.184203
12.065684
34.597401
46.103336
42.915874
34.391983
29.564531
28.860121
25.187059
14.996369
2.372567
-6.321592
-2.282023
18.220688
40.464115
44.405174
29.048525
8.417374
-5.168176
-2.411383
19.195070
42.294727
42.459961
21.936991
8.014511
13.897115
22.858702
13.926244
-14.957179
-51.621964
-80.450325
-84.142929
-50.783405
12.072679
77.239983
116.201935
116.810524
85.193810
36.739712
-9.992737
-36.564037
-32.514061
-2.949044
32.372234
50.564663
44.868294
34.053162
40.257263
56.582691
56.813873
35.129211
8.571861
-12.450453
-26.711241
-27.112009
-7.119057
26.203808
55.430939
63.925159
44.259747
2.365371
-42.541683
-65.725922
-53.060978
-12.168554
32.811333
58.636448
60.907063
53.029690
42.492355
21.386892
-10.520227
-32.901989
-28.785263
-5.935206
18.224730
39.799038
62.689632
81.460098
85.530739
73.890076
55.079437
35.893845
17.256746
1.850355
-3.201468
3.303141
14.917790
28.917164
44.387394
53.064003
46.565285
25.070040
-4.021224
-26.549765
-30.832060
-22.905647
-16.044310
-8.710191
4.714688
11.772688
-4.991329
-44.527328
-93.098923
-138.347473
-169.764938
-179.902924
-169.484879
-145.740448
-117.083244
-91.735489
-77.729729
-78.314087
-86.054512
-87.709694
-80.424103
-75.390953
-77.773438
-74.886391
-52.039410
-8.557842
41.184319
72.837425
69.350281
42.355984
22.876965
27.460842
48.304649
73.623802
97.902122
114.345314
116.566742
105.705254
83.942261
51.440891
17.379179
-3.145110
-7.915109
-7.441446
-8.831531
-14.790322
-31.755878
-64.038399
-103.382668
-133.683670
-144.195175
-135.651108
-117.191544
-96.692307
-72.759766
-41.751572
-9.556034
14.171187
28.305363
37.347298
42.884094
44.721638
44.360519
43.111187
43.929916
56.461014
87.369347
123.210411
138.390503
125.735298
106.016197
100.148827
103.918503
98.830460
77.198463
47.688622
24.581194
18.495119
30.738485
52.390858
73.810661
91.273132
98.146423
83.270485
47.905453
9.839552
-15.291067
-25.777809
-26.722477
-19.482471
-1.620852
24.102713
48.013332
63.302410
69.518097
67.417969
59.769943
53.251034
51.076077
48.252178
39.617584
26.864664
13.224638
-1.731495
-17.699015
-30.738197
-35.947971
-27.727251
-2.847924
30.254807
53.470284
55.873268
41.862530
23.578674
12.628339
12.768611
15.297064
11.397823
7.767027
17.523508
41.786793
70.798180
94.706566
107.205574
107.647141
103.184677
101.311790
97.236954
75.377159
28.068649
-32.556316
-85.653862
-119.043427
-132.199921
-129.283005
-115.829895
-99.773575
-90.513466
-94.899414
-113.319336
-139.615784
-165.262375
-183.421158
-191.084671
-190.508804
-186.774033
-182.064926
-175.617538
-169.018738
-166.153427
-167.248199
-165.602890
-150.383850
-113.486176
-55.409401
15.061548
85.592430
144.472443
182.593811
193.286499
173.130112
125.608986
61.159637
-6.904589
-62.090176
-86.475967
-74.185623
-38.778000
0.982760
35.838665
62.173897
74.372307
67.895271
44.967911
12.739829
-23.850103
-64.114830
-104.674957
-136.076324
-151.444504
-153.121490
-145.653198
-126.821526
-89.541435
-31.136423
39.323093
103.201599
144.736069
161.994476
165.571655
167.846039
172.468338
173.837753
167.151276
155.316086
145.436050
143.595856
151.728790
163.554550
167.112518
158.653717
148.645096
145.956741
145.440720
141.750443
142.837738
155.559006
170.415848
175.297180
172.565689
169.905884
164.229477
143.453384
99.085411
34.099148
-40.154377
-112.184769
-171.719604
-208.987411
-222.652176
-223.116653
-220.356964
-214.236420
-199.955399
-177.566986
-154.803909
-141.210556
-137.465286
-133.202194
-119.464401
-100.179695
-87.984421
-90.794487
-104.812294
-120.156784
-130.688019
-137.547714
-145.905563
-159.421310
-176.185425
-189.131119
-190.350052
-175.858124
-148.276993
-116.739548
-94.704636
-93.189903
-109.238380
-125.604477
-130.014023
-127.016869
-123.991852
-117.926384
-102.802452
-77.701752
-42.922489
0.897084
46.351971
81.243668
100.090546
106.828308
106.170311
100.547897
94.026184
89.518951
82.219543
63.251568
29.944410
-12.853815
-60.129143
-107.767960
-146.597839
-165.370209
-163.357941
-153.123611
-148.555588
-155.411438
-172.664948
-195.622314
-216.721619
-229.367035
-232.736465
-229.888245
-223.286850
-215.205017
-207.653931
-200.093872
-193.009415
-191.164627
-196.345444
-202.720734
-205.671875
-207.988892
-213.391739
-220.933701
-226.971497
-227.433273
-220.080276
-208.082886
-197.917740
-193.034622
-194.281509
-203.168610
-216.732422
-223.025208
-208.901657
-169.702118
-111.226654
-47.609196
5.953502
43.757565
70.464340
91.402519
106.348335
112.316315
109.021904
99.724022
85.677376
62.824219
30.086748
-0.339549
-9.704419
7.876364
39.423496
69.041656
92.816795
113.465752
127.687057
127.425606
111.157661
88.337212
73.429199
76.402641
97.319931
129.033951
161.876831
185.309509
192.865402
188.373917
181.530258
178.031662
179.022552
186.166245
199.180618
207.932938
194.026672
146.150436
72.752998
-4.126030
-66.672569
-110.919731
-141.951981
-164.473953
-178.895157
-184.402802
-182.615463
-176.828888
-170.468796
-167.910995
-173.012115
-184.204590
-193.709503
-192.668686
-174.829620
-137.656708
-85.875687
-33.315067
4.055631
17.624620
8.518229
-16.359425
-50.514675
-91.186378
-135.027786
-173.934326
-199.820572
-209.390656
-202.262314
-181.641418
-158.316177
-146.936920
-154.743607
-174.637390
-191.378876
-196.458527
-194.193787
-191.538361
-187.967621
-179.327194
-167.024368
-158.707352
-159.756149
-167.492981
-176.443344
-183.484756
-182.973267
-167.674301
-141.371155
-117.198380
-98.979202
-78.084023
-49.635578
-19.948200
2.413838
16.578821
29.267797
46.622143
68.153496
87.745834
97.665588
94.038780
81.768944
70.470650
63.783577
58.356258
54.112061
57.564232
72.638077
95.333649
119.415283
141.146042
158.880692
174.036957
189.455399
202.188797
203.493195
189.648193
167.936478
150.354935
144.842270
152.279877
168.156952
185.824844
200.034622
208.937393
212.339783
208.174652
193.937408
173.285141
156.070740
148.131119
145.778152
142.481781
135.555161
126.149544
118.450485
118.160973
127.046570
139.197906
145.332291
141.220779
130.881363
121.733604
118.482643
121.697601
129.781158
140.921783
153.347610
164.637878
172.477020
176.174713
176.621216
175.696182
175.487045
176.036194
174.646484
169.654099
163.991333
162.673294
167.181351
174.621506
181.781219
187.152069
189.730820
188.824234
184.220108
174.512848
157.479935
134.457550
111.463486
93.435699
80.755554
73.901299
76.566467
89.992790
108.448700
124.255600
133.583832
134.875275
126.365479
108.470779
85.165154
60.349136
35.888680
14.506068
-0.290240
-9.231960
-17.483463
-28.134727
-39.939030
-51.967270
-65.168747
-78.679466
-89.632874
-97.096298
-102.283806
-105.744041
-107.677116
-109.171097
-110.424858
-109.574448
-104.373276
-93.117783
-73.776825
-44.381538
-5.703880
37.049496
76.701286
108.051140
128.815247
139.073029
141.692322
141.074020
140.200256
140.875809
145.790878
156.600403
170.922043
184.038086
191.826172
191.076477
180.889938
165.437286
151.849625
143.689987
138.720963
133.256516
126.090034
118.428070
112.329216
108.874336
106.781845
103.951790
100.702682
98.988060
97.562447
91.466713
78.688141
64.517258
56.530411
56.965252
61.834743
65.657005
65.827347
64.272903
65.329674
70.678284
77.675804
83.811211
89.433968
94.609810
97.700462
98.368401
97.600456
94.615417
87.836998
77.406464
63.150066
43.870216
22.066181
3.908435
-8.306310
-18.488373
-31.137840
-47.644230
-66.231316
-82.797081
-94.392433
-102.359825
-109.745384
-116.754425
-120.867836
-120.256577
-114.809242
-104.507439
-89.412514
-71.021873
-51.848732
-34.085976
-18.913576
-5.882221
6.554841
18.573526
28.175571
33.834057
35.857613
34.470280
29.439356
22.612823
18.391085
20.146589
27.132004
35.888626
43.093491
45.336220
39.164810
24.729397
6.914357
-8.890497
-19.890284
-26.089161
-29.995108
-34.110664
-38.077667
-39.804890
-36.874699
-25.561541
-3.159433
27.073435
57.701118
84.454498
107.597221
126.743317
139.399445
144.724747
145.010834
142.791977
138.124832
129.381912
115.726982
97.282921
73.947861
46.559322
18.244303
-7.974440
-32.186581
-56.054535
-78.877396
-97.226532
-108.188950
-111.737282
-110.792755
-109.816986
-112.484917
-119.930878
-130.464432
-140.342728
-145.918671
-146.456436
-144.713409
-144.197281
-145.525238
-145.091080
-137.407486
-119.188133
-91.593742
-59.562866
-29.667099
-7.531506
4.228922
6.227566
1.056428
-7.896471
-17.372313
-24.993246
-29.168325
-29.226921
-27.121365
-27.633995
-34.388142
-46.270111
-58.730167
-66.757767
-66.476967
-56.827003
-40.252159
-20.283951
0.254161
18.038767
30.166613
37.590111
43.385860
47.231171
46.226910
40.656269
33.442345
23.658049
6.864050
-15.627871
-33.736340
-38.650913
-31.771809
-21.111614
-12.105708
-4.528350
2.752138
7.410250
6.034653
-1.476539
-12.008123
-21.953922
-29.155016
-33.822536
-37.002560
-36.865425
-28.732853
-10.979325
11.390800
31.381908
46.056202
56.316799
63.585930
68.931679
72.855118
72.708389
61.855556
35.593178
-1.917742
-39.839214
-69.038727
-85.885033
-91.308380
-89.958992
-87.403046
-85.617981
-82.683426
-76.556473
-67.646492
-58.979557
-55.290901
-60.177586
-71.924767
-83.429398
-88.608215
-88.333946
-88.704041
-94.200142
-103.626160
-112.157700
-115.840813
-113.966393
-109.225395
-106.428040
-108.499001
-112.766853
-113.609894
-108.558037
-99.684006
-91.056229
-87.151810
-90.702049
-99.412064
-107.265625
-110.681702
-110.894829
-109.695885
-106.222000
-99.469688
-91.804276
-87.762894
-89.327187
