EVENT_NAME: EMILIA_2ND_SHOCK
EVENT_ID: IT-2012-0011
EVENT_DATE_YYYYMMDD: 20120529
EVENT_TIME_HHMMSS: 070002
EVENT_LATITUDE_DEGREE: 44.8417
EVENT_LONGITUDE_DEGREE: 11.0657
EVENT_DEPTH_KM: 8.1
HYPOCENTER_REFERENCE: INGV-CNT_Seismic_Bulletin
MAGNITUDE_W: 6.0
MAGNITUDE_W_REFERENCE: RCMT-INGV
MAGNITUDE_L: 5.8
MAGNITUDE_L_REFERENCE: INGV-CNT_Seismic_Bulletin
FOCAL_MECHANISM: TF
NETWORK: TV
STATION_CODE: MIR05
STATION_NAME: POGGIO RUSCO
STATION_LATITUDE_DEGREE: 44.980800
STATION_LONGITUDE_DEGREE: 11.107190
STATION_ELEVATION_M: 
LOCATION: 
SENSOR_DEPTH_M: 
VS30_M/S: 
SITE_CLASSIFICATION_EC8: C*
MORPHOLOGIC_CLASSIFICATION: 
EPICENTRAL_DISTANCE_KM: 15.8
EARTHQUAKE_BACKAZIMUTH_DEGREE: 192.0
DATE_TIME_FIRST_SAMPLE_YYYYMMDD_HHMMSS: 20120529_065929.000
DATE_TIME_FIRST_SAMPLE_PRECISION: milliseconds
SAMPLING_INTERVAL_S: 0.005000
NDATA: 30001
DURATION_S: 150.005
STREAM: HNE
UNITS: cm/s
INSTRUMENT: sensor = Episensor FBA ES-T [Kinemetrics] | digitizer = Unknown [Unknown]
INSTRUMENT_ANALOG/DIGITAL: D
INSTRUMENTAL_FREQUENCY_HZ: 
INSTRUMENTAL_DAMPING: 
FULL_SCALE_G: 
N_BIT_DIGITAL_CONVERTER: 
PGV_CM/S: -14.781197
TIME_PGV_S: 45.485000
BASELINE_CORRECTION: BASELINE REMOVED
FILTER_TYPE: BUTTERWORTH
FILTER_ORDER: 2
LOW_CUT_FREQUENCY_HZ: 0.070
HIGH_CUT_FREQUENCY_HZ: 40.000
LATE/NORMAL_TRIGGERED: NT
DATABASE_VERSION: DYNA 1.0
HEADER_FORMAT: DYNA 1.2
DATA_TYPE: VELOCITY
PROCESSING: manual (Paolucci et al., 2011)
DATA_TIMESTAMP_YYYYMMDD_HHMMSS: 
DATA_LICENSE: CC-BY4_0 (http://creativecommons.org/licenses/by/4.0/)
DATA_CITATION: ESM working group (2015), European Strong-Motion database, version 0.1, Network Activity 3: Networking acceleration networks and SM data users. Project NERA (www.nera-eu.org)
DATA_CREATOR: ESM working group
ORIGINAL_DATA_MEDIATOR_CITATION: Orfeus - European Integrated Data Archive (EIDA) http://www.orfeus-eu.org/eida/
ORIGINAL_DATA_MEDIATOR: Orfeus - European Integrated Data Archive (EIDA)
ORIGINAL_DATA_CREATOR_CITATION: 
ORIGINAL_DATA_CREATOR: network: TV (INGV Experiments Network); owner: Istituto Nazionale di Geofisica e Vulcanologia
USER1: 
USER2: 
USER3: 
USER4: 
USER5: 
[...]
0.031603
0.020003
0.010778
0.010254
0.018660
0.031102
0.040107
0.038914
0.025590
0.005119
-0.013667
-0.024066
-0.024956
-0.019661
-0.012182
-0.004134
0.004820
0.014100
0.020869
0.021803
0.015907
0.005651
-0.004116
-0.008135
-0.003095
0.009480
0.022114
0.026088
0.020534
0.015845
0.024246
0.046560
0.071278
0.086881
0.091679
0.090554
0.086055
0.076436
0.061143
0.044573
0.033073
0.029375
0.031401
0.036648
0.045798
0.059696
0.073329
0.076427
0.062680
0.037096
0.011452
-0.006887
-0.018306
-0.023922
-0.021438
-0.010933
0.000182
0.003427
-0.001136
-0.006362
-0.008320
-0.009762
-0.012878
-0.014577
-0.011522
-0.005235
0.000942
0.006632
0.013193
0.020376
0.027361
0.035028
0.043553
0.049193
0.047481
0.038944
0.027657
0.015470
0.003249
-0.003403
0.002759
0.019994
0.035230
0.035675
0.021466
0.005013
-0.001424
0.003845
0.013308
0.019681
0.021782
0.021824
0.021125
0.020393
0.020762
0.021754
0.020371
0.014139
0.003471
-0.009399
-0.021656
-0.030541
-0.035354
-0.037713
-0.037113
-0.028747
-0.010118
0.012596
0.030011
0.039559
0.045294
0.049340
0.048294
0.038219
0.021111
0.006975
0.008841
0.031254
0.062399
0.082214
0.080785
0.066060
0.052448
0.045241
0.038226
0.023683
0.001408
-0.021175
-0.034872
-0.034907
-0.024740
-0.014858
-0.014477
-0.022266
-0.027899
-0.025033
-0.019596
-0.021335
-0.029880
-0.034667
-0.027555
-0.010334
0.009965
0.028425
0.043510
0.053843
0.056046
0.045740
0.020710
-0.015355
-0.051468
-0.073868
-0.074721
-0.057241
-0.031807
-0.007060
0.013843
0.028226
0.029655
0.012823
-0.018587
-0.051400
-0.071179
-0.072431
-0.061721
-0.050196
-0.043459
-0.039917
-0.037462
-0.037717
-0.042757
-0.051594
-0.061422
-0.068600
-0.067845
-0.055335
-0.034400
-0.015190
-0.006947
-0.010324
-0.015298
-0.006218
0.025458
0.068324
0.094903
0.084820
0.043985
-0.000726
-0.023979
-0.019349
0.001333
0.021958
0.035010
0.042668
0.048116
0.049281
0.042733
0.030519
0.019293
0.012991
0.007920
-0.004240
-0.026840
-0.051056
-0.062877
-0.060820
-0.060780
-0.077095
-0.104209
-0.124225
-0.128033
-0.120902
-0.109578
-0.092949
-0.068505
-0.043322
-0.032656
-0.044464
-0.067555
-0.080669
-0.073619
-0.054260
-0.034848
-0.018329
0.000348
0.024676
0.050892
0.069157
0.068521
0.043381
-0.000558
-0.046061
-0.073524
-0.073994
-0.055418
-0.036491
-0.032795
-0.046326
-0.065469
-0.074329
-0.065541
-0.046456
-0.030737
-0.023720
-0.020688
-0.020755
-0.033774
-0.063131
-0.086605
-0.072756
-0.020647
0.033621
0.056085
0.044919
0.016537
-0.018410
-0.052225
-0.067649
-0.047310
0.004107
0.056639
0.076852
0.053732
0.008070
-0.024129
-0.025519
-0.014798
-0.021195
-0.043371
-0.048772
-0.018334
0.023661
0.036064
0.006205
-0.045363
-0.097131
-0.145391
-0.189692
-0.215732
-0.206016
-0.165316
-0.124189
-0.112070
-0.130370
-0.153556
-0.153525
-0.123534
-0.082918
-0.058757
-0.059847
-0.069450
-0.065410
-0.044186
-0.022120
-0.015689
-0.024979
-0.037541
-0.044579
-0.048813
-0.056892
-0.066881
-0.065671
-0.043309
-0.011728
-0.001529
-0.030948
-0.079851
-0.104297
-0.080800
-0.030683
0.001902
-0.011202
-0.067887
-0.146828
-0.219881
-0.260559
-0.257520
-0.225377
-0.196001
-0.194953
-0.225705
-0.272518
-0.313235
-0.330216
-0.316468
-0.277878
-0.229538
-0.186365
-0.154703
-0.131609
-0.113189
-0.104279
-0.114839
-0.141985
-0.160345
-0.140085
-0.078361
-0.007855
0.031324
0.026719
-0.001358
-0.025350
-0.036716
-0.046838
-0.064314
-0.077388
-0.066487
-0.034990
-0.019313
-0.059197
-0.156675
-0.268540
-0.341038
-0.352987
-0.328197
-0.307908
-0.313015
-0.335046
-0.359566
-0.388212
-0.431806
-0.486111
-0.524562
-0.520079
-0.471957
-0.411065
-0.379172
-0.395666
-0.437352
-0.455546
-0.418863
-0.336438
-0.238782
-0.145331
-0.056752
0.030017
0.110559
0.173468
0.204155
0.192098
0.141579
0.073573
0.012531
-0.028327
-0.049210
-0.058435
-0.069913
-0.099778
-0.155061
-0.223314
-0.278906
-0.303464
-0.299642
-0.285313
-0.278005
-0.286832
-0.314303
-0.357825
-0.408648
-0.455137
-0.488909
-0.505690
-0.502802
-0.481917
-0.455176
-0.442230
-0.453519
-0.475030
-0.474961
-0.429809
-0.344159
-0.245187
-0.159087
-0.093905
-0.045486
-0.015270
-0.013404
-0.042393
-0.085004
-0.114106
-0.113893
-0.090675
-0.065529
-0.057004
-0.066441
-0.078581
-0.080161
-0.076076
-0.082091
-0.105164
-0.138969
-0.179299
-0.236467
-0.325135
-0.440744
-0.549482
-0.605356
-0.581766
-0.492419
-0.384487
-0.307382
-0.280819
-0.289401
-0.306173
-0.317393
-0.324679
-0.331313
-0.333076
-0.321005
-0.290055
-0.244267
-0.192539
-0.140106
-0.086663
-0.032191
0.017798
0.052652
0.062334
0.045445
0.012666
-0.020400
-0.046910
-0.074727
-0.116280
-0.173996
-0.239684
-0.307111
-0.378539
-0.454447
-0.520843
-0.555251
-0.548403
-0.516478
-0.488502
-0.481548
-0.488783
-0.488872
-0.463180
-0.406742
-0.329644
-0.249430
-0.179684
-0.125191
-0.087145
-0.069183
-0.074692
-0.097915
-0.121329
-0.127746
-0.117938
-0.112395
-0.130710
-0.169940
-0.206288
-0.217456
-0.201063
-0.173408
-0.156485
-0.167803
-0.215167
-0.292563
-0.381286
-0.460055
-0.513723
-0.531313
-0.504045
-0.434462
-0.345059
-0.269917
-0.233355
-0.233709
-0.245247
-0.237940
-0.201101
-0.149957
-0.107746
-0.084371
-0.077458
-0.088624
-0.126190
-0.190293
-0.264841
-0.328337
-0.367132
-0.375991
-0.354370
-0.308996
-0.253906
-0.200579
-0.151116
-0.105192
-0.068672
-0.048483
-0.040981
-0.032643
-0.014537
0.006585
0.013476
-0.006251
-0.051080
-0.109383
-0.170007
-0.231691
-0.302243
-0.383821
-0.459971
-0.503823
-0.500384
-0.457628
-0.398292
-0.347278
-0.324603
-0.339074
-0.382642
-0.434179
-0.471726
-0.481678
-0.460356
-0.412181
-0.345212
-0.263382
-0.164266
-0.049113
0.068433
0.170200
0.247351
0.300848
0.331055
0.334175
0.310505
0.270307
0.225787
0.178077
0.115283
0.023185
-0.102850
-0.254053
-0.412612
-0.559191
-0.679464
-0.766179
-0.815352
-0.823295
-0.791449
-0.732208
-0.665029
-0.605947
-0.561291
-0.529385
-0.506091
-0.488800
-0.475695
-0.461156
-0.433710
-0.382481
-0.308466
-0.229578
-0.171463
-0.148379
-0.151171
-0.156632
-0.150451
-0.138403
-0.132966
-0.133648
-0.126581
-0.101959
-0.067026
-0.041829
-0.044287
-0.078692
-0.136197
-0.203910
-0.272512
-0.336911
-0.392458
-0.432685
-0.453731
-0.462863
-0.478073
-0.512900
-0.563105
-0.612694
-0.650632
-0.676750
-0.692574
-0.692940
-0.671291
-0.630162
-0.579940
-0.527397
-0.470719
-0.407392
-0.342717
-0.285313
-0.234872
-0.181068
-0.117469
-0.051792
0.001220
0.033673
0.046467
0.039428
0.006280
-0.058434
-0.151184
-0.259657
-0.368270
-0.463588
-0.538357
-0.590869
-0.618163
-0.611970
-0.566439
-0.490290
-0.406348
-0.336835
-0.292424
-0.274494
-0.279774
-0.301120
-0.330237
-0.360597
-0.384755
-0.392299
-0.375400
-0.335263
-0.280099
-0.217017
-0.147834
-0.072543
0.004773
0.073338
0.118952
0.132471
0.117590
0.090062
0.067813
0.059975
0.062423
0.061089
0.040370
-0.007284
-0.076172
-0.151448
-0.220730
-0.282602
-0.341786
-0.395544
-0.428793
-0.425631
-0.382994
-0.310365
-0.219707
-0.120929
-0.026524
0.044950
0.074526
0.053643
-0.009029
-0.088919
-0.153650
-0.174773
-0.138024
-0.046028
0.086207
0.235664
0.374053
0.475816
0.530028
0.543128
0.530312
0.509484
0.501708
0.526047
0.587088
0.670027
0.749994
0.804198
0.815876
0.773775
0.675987
0.536030
0.380103
0.232938
0.105540
-0.002688
-0.092962
-0.162190
-0.207832
-0.232931
-0.244106
-0.246596
-0.242518
-0.231377
-0.210732
-0.179726
-0.143828
-0.111918
-0.086949
-0.064951
-0.045299
-0.035783
-0.045256
-0.077587
-0.135870
-0.226666
-0.353462
-0.504131
-0.646908
-0.744553
-0.779344
-0.765865
-0.737586
-0.722565
-0.732224
-0.764329
-0.808261
-0.851677
-0.889033
-0.921551
-0.945668
-0.945870
-0.904399
-0.818151
-0.704574
-0.592456
-0.508490
-0.470647
-0.489370
-0.568291
-0.697815
-0.848668
-0.979998
-1.062198
-1.094270
-1.098113
-1.096954
-1.100757
-1.108979
-1.119479
-1.130161
-1.135217
-1.126052
-1.097987
-1.054100
-1.001809
-0.947599
-0.894250
-0.838966
-0.773737
-0.691581
-0.594070
-0.491072
-0.392908
-0.304228
-0.224380
-0.150318
-0.080086
-0.019035
0.015860
0.003029
-0.067306
-0.183941
-0.323725
-0.467710
-0.604319
-0.718684
-0.788854
-0.801405
-0.770795
-0.737602
-0.743796
-0.808923
-0.927689
-1.084223
-1.264530
-1.457318
-1.647788
-1.815900
-1.946453
-2.043498
-2.130194
-2.227476
-2.333189
-2.426804
-2.492508
-2.531516
-2.552814
-2.559653
-2.549723
-2.525178
-2.496153
-2.472040
-2.451425
-2.424034
-2.384669
-2.344989
-2.331011
-2.368439
-2.465436
-2.602588
-2.740178
-2.842274
-2.895918
-2.904756
-2.868088
-2.774490
-2.616508
-2.404610
-2.163942
-1.921006
-1.693763
-1.488867
-1.305404
-1.144280
-1.015660
-0.934237
-0.905971
-0.922080
-0.964595
-1.012125
-1.041855
-1.035776
-0.990853
-0.922462
-0.856972
-0.818831
-0.818335
-0.845719
-0.876458
-0.884806
-0.856045
-0.792082
-0.709970
-0.633408
-0.581893
-0.565793
-0.588587
-0.649494
-0.742634
-0.856273
-0.974782
-1.080341
-1.153651
-1.178609
-1.150743
-1.079572
-0.980615
-0.867956
-0.755431
-0.656818
-0.576871
-0.505315
-0.426014
-0.331120
-0.223377
-0.108119
0.012094
0.137091
0.268776
0.411036
0.566026
0.730256
0.896039
1.053978
1.190072
1.285359
1.329179
1.334824
1.333874
1.350182
1.382353
1.413424
1.434160
1.454087
1.491095
1.551142
1.616400
1.654660
1.645695
1.600756
1.555011
1.542496
1.581474
1.678644
1.834016
2.035760
2.257468
2.468071
2.646408
2.788679
2.905903
3.014678
3.126183
3.239458
3.344972
3.436931
3.521463
3.611808
3.718347
3.843862
3.982197
4.115134
4.209294
4.218525
4.096598
3.819901
3.406561
2.912135
2.401688
1.921147
1.485849
1.087858
0.714861
0.365026
0.045696
-0.235819
-0.475747
-0.672865
-0.829794
-0.954260
-1.053173
-1.121787
-1.141908
-1.096915
-0.990838
-0.851315
-0.714035
-0.605450
-0.536890
-0.508664
-0.517801
-0.562936
-0.639978
-0.731190
-0.802580
-0.819538
-0.768676
-0.664135
-0.534272
-0.404692
-0.291528
-0.204738
-0.154306
-0.152398
-0.207698
-0.317600
-0.470063
-0.654305
-0.866201
-1.105758
-1.377144
-1.691054
-2.060144
-2.486876
-2.948565
-3.385538
-3.706657
-3.823847
-3.698372
-3.358869
-2.874022
-2.309255
-1.708543
-1.107215
-0.545972
-0.063398
0.321909
0.618727
0.858012
1.083452
1.339720
1.655912
2.028159
2.416039
2.762186
3.019812
3.163218
3.180325
3.066526
2.826919
2.478598
2.050964
1.586958
1.139348
0.758829
0.486044
0.355229
0.395473
0.615557
0.983937
1.429173
1.869706
2.252277
2.568545
2.844078
3.118410
3.428701
3.797412
4.226655
4.701738
5.199141
5.692481
6.155904
6.566543
6.903727
7.143963
7.256023
7.203589
6.965516
6.567704
6.091624
5.639112
5.282630
5.040640
4.888307
4.790788
4.733614
4.725359
4.774792
4.872349
4.995022
5.117991
5.211208
5.232663
5.142873
4.932868
4.632719
4.289164
3.937148
3.590554
3.249658
2.912998
2.590304
2.309256
2.105245
2.001372
1.997132
2.070157
2.184896
2.306170
2.415187
2.519802
2.651251
2.847588
3.134710
3.518451
3.989361
4.528583
5.105649
5.671571
6.155798
6.474167
6.553643
6.368123
5.958442
5.412344
4.820086
4.248686
3.747809
3.356457
3.088271
2.914371
2.772123
2.598629
2.360698
2.058177
1.707129
1.326749
0.937594
0.559731
0.208357
-0.102481
-0.346997
-0.481845
-0.462610
-0.274171
0.053430
0.457099
0.863789
1.207211
1.440918
1.551531
1.564959
1.538962
1.542199
1.627736
1.816010
2.095693
2.435704
2.796194
3.133229
3.400868
3.555999
3.566055
3.415740
3.109259
2.668630
2.130868
1.542053
0.946608
0.381717
-0.114348
-0.492916
-0.704719
-0.723519
-0.557185
-0.235896
0.204422
0.725174
1.282360
1.836801
2.372699
2.899297
3.429375
3.958222
4.464277
4.925882
5.330473
5.660513
5.871737
5.900962
5.711044
5.324510
4.801564
4.190395
3.510126
2.774553
2.015729
1.279758
0.605128
0.013057
-0.477234
-0.833372
-1.024561
-1.053218
-0.965511
-0.830325
-0.709164
-0.639391
-0.633792
-0.685217
-0.769761
-0.854941
-0.915273
-0.943872
-0.953884
-0.977419
-1.063015
-1.258457
-1.576426
-1.969880
-2.350046
-2.639045
-2.807654
-2.869198
-2.852882
-2.787167
-2.695311
-2.594511
-2.495246
-2.398015
-2.289273
-2.144803
-1.940790
-1.662742
-1.307684
-0.883026
-0.403930
0.111927
0.650742
1.204197
1.764425
2.320305
2.861500
3.384959
3.895004
4.396915
4.891616
5.376386
5.848954
6.308762
6.753396
7.174470
7.555881
7.874551
8.106702
8.238847
8.273378
8.224107
8.109867
7.952104
7.772290
7.585801
7.398404
7.211793
7.032120
6.870274
6.735137
6.630542
6.558682
6.522612
6.523311
6.555229
6.605134
6.653581
6.677483
6.656025
6.578894
6.448105
6.268105
6.033235
5.727011
5.334274
4.852757
4.294023
3.676211
3.015746
2.323439
1.606042
0.869091
0.117551
-0.644435
-1.412540
-2.180186
-2.937416
-3.672613
-4.376175
-5.042951
-5.672327
-6.267843
-6.836111
-7.382299
-7.904299
-8.393451
-8.843603
-9.258364
-9.647217
-10.015750
-10.362010
-10.680570
-10.966720
-11.218620
-11.440710
-11.647800
-11.864830
-12.119650
-12.430470
-12.794650
-13.187870
-13.576340
-13.931970
-14.237750
-14.483040
-14.658990
-14.759230
-14.781200
-14.723850
-14.585050
-14.363780
-14.066320
-13.710430
-13.323170
-12.931800
-12.551820
-12.181510
-11.808730
-11.423660
-11.024050
-10.608520
-10.168240
-9.688642
-9.158472
-8.575218
-7.943381
-7.270326
-6.563173
-5.826894
-5.063914
-4.275406
-3.463187
-2.630157
-1.779468
-0.915523
-0.046188
0.818479
1.670485
2.505747
3.322284
4.118481
4.893352
5.646656
6.377525
7.083807
7.763061
8.412633
9.027835
9.601224
10.125130
10.594820
11.008990
11.368290
11.673070
11.920200
12.101770
12.209510
12.241720
12.206780
12.122880
12.017100
11.925870
11.894220
11.964080
12.150700
12.427150
12.735740
13.017840
13.236190
13.376770
13.437750
13.418340
13.314660
13.122790
12.842490
12.475930
12.024830
11.491820
10.884340
10.215120
9.499444
8.753736
7.995320
7.239564
6.495474
5.766516
5.058146
4.384351
3.766508
3.226179
2.777236
2.421124
2.146830
1.935363
1.767161
1.629240
1.517333
1.430520
1.362155
1.294609
1.202064
1.058549
0.844295
0.547139
0.161509
-0.311727
-0.864353
-1.481166
-2.143498
-2.834673
-3.544095
-4.267534
-5.003444
-5.748208
-6.493908
-7.229616
-7.944956
-8.633045
-9.290013
-9.912319
-10.494240
-11.024390
-11.481420
-11.834350
-12.051480
-12.114670
-12.028720
-11.817120
-11.508290
-11.124670
-10.680990
-10.187340
-9.652463
-9.087027
-8.506085
-7.927951
-7.368526
-6.835184
-6.325876
-5.835442
-5.365464
-4.930673
-4.556892
-4.272515
-4.099970
-4.049944
-4.117554
-4.281614
-4.508131
-4.756156
-4.984259
-5.156770
-5.247568
-5.239851
-5.123512
-4.893273
-4.548956
-4.097442
-3.555968
-2.955924
-2.343695
-1.774608
-1.300004
-0.951684
-0.730672
-0.608192
-0.540389
-0.487282
-0.424392
-0.343562
-0.246100
-0.133135
0.001452
0.171148
0.390648
0.669899
1.012689
1.417231
1.876784
2.382749
2.928829
3.510734
4.122429
4.755517
5.401858
6.053607
6.701117
7.334267
7.944174
8.515145
9.009727
9.367467
9.529373
9.469967
9.207615
8.787800
8.260221
7.668217
7.050276
6.444003
5.884708
5.396645
4.983590
4.629460
4.310507
4.008331
3.713958
3.424525
3.139571
2.860183
2.589994
2.335505
2.103126
1.893378
1.697403
1.500215
1.287078
1.045388
0.762672
0.428207
0.037945
-0.404625
-0.891288
-1.409900
-1.944756
-2.480785
-3.008670
-3.525006
-4.027874
-4.514103
-4.981980
-5.435106
-5.881049
-6.326629
-6.776952
-7.238357
-7.718897
-8.224830
-8.758240
-9.318820
-9.903887
-10.496010
-11.042400
-11.456380
-11.662170
-11.648220
-11.469030
-11.197190
-10.884200
-10.555890
-10.220970
-9.880324
-9.537673
-9.204211
-8.894559
-8.620095
-8.384773
-8.185564
-8.016382
-7.871115
-7.743037
-7.623263
-7.502296
-7.373484
-7.233959
-7.081906
-6.912376
-6.714917
-6.475584
-6.182709
-5.832293
-5.429049
-4.982881
-4.503816
-3.998484
-3.469849
-2.919606
-2.350454
-1.765927
-1.169025
-0.563171
0.044086
0.638094
1.197182
1.696317
2.113380
2.434241
2.654695
2.780466
2.824611
2.802056
2.724180
2.595556
2.414160
2.176475
1.883758
1.543393
1.167040
0.771275
0.379824
0.022715
-0.269327
-0.473554
-0.582653
-0.606078
-0.564332
-0.480855
-0.377099
-0.272021
-0.183272
-0.127388
-0.118062
-0.163450
-0.264302
-0.413989
-0.599809
-0.804748
-1.010151
-1.199234
-1.360129
-1.487327
-1.580550
-1.641562
-1.671780
-1.671845
-1.641605
-1.579943
-1.485585
-1.358657
-1.200643
-1.012358
-0.793601
-0.546802
-0.282021
-0.018738
0.217399
0.400226
0.507661
0.525033
0.447713
0.281855
0.042688
-0.247973
-0.563973
-0.877704
-1.163493
-1.400329
-1.574292
-1.680664
-1.723641
-1.713824
-1.666273
-1.598672
-1.526281
-1.454951
-1.378482
-1.284440
-1.164835
-1.022115
-0.865059
-0.701597
-0.539412
-0.393346
-0.287600
-0.245281
-0.272706
-0.353733
-0.460045
-0.568053
-0.669194
-0.768321
-0.874566
-0.993952
-1.128827
-1.280107
-1.445928
-1.616417
-1.770394
-1.880498
-1.926884
-1.909180
-1.844291
-1.751500
-1.640504
-1.512712
-1.369783
-1.218178
-1.066169
-0.917683
-0.769215
-0.612738
-0.441711
-0.254636
-0.054521
0.151880
0.352706
0.530464
0.665169
0.740059
0.746554
0.685583
0.565061
0.395766
0.188252
-0.047904
-0.303907
-0.573032
-0.852555
-1.143302
-1.446265
-1.758834
-2.073624
-2.380595
-2.670206
-2.934850
-3.168531
-3.366662
-3.526312
-3.645123
-3.718836
-3.740962
-3.706293
-3.614884
-3.473252
-3.292903
-3.086967
-2.865884
-2.634031
-2.389054
-2.125469
-1.842383
-1.550936
-1.275185
-1.045225
-0.887923
-0.820342
-0.846020
-0.953391
-1.117894
-1.308636
-1.497444
-1.666469
-1.811084
-1.937405
-2.056759
-2.180040
-2.314072
-2.460721
-2.617049
-2.774565
-2.919313
-3.035039
-3.107946
-3.130757
-3.105245
-3.042096
-2.957453
-2.867835
-2.786396
-2.722263
-2.682064
-2.671395
-2.694810
-2.754235
-2.847377
-2.968632
-3.112385
-3.275111
-3.453858
-3.643024
-3.832538
-4.008609
-4.157327
-4.269979
-4.345783
-4.388923
-4.403219
-4.389852
-4.348427
-4.278199
-4.178794
-4.051947
-3.903248
-3.740966
-3.572048
-3.399377
-3.223958
-3.051280
-2.896923
-2.785441
-2.740006
-2.768472
-2.857109
-2.977267
-3.097708
-3.192313
-3.242004
-3.236365
-3.176310
-3.073613
-2.944884
-2.803838
-2.657820
-2.510341
-2.366464
-2.236211
-2.132268
-2.062541
-2.023420
-1.999987
-1.973476
-1.930523
-1.868566
-1.795721
-1.727562
-1.683878
-1.685538
-1.749516
-1.882484
-2.077656
-2.318093
-2.583075
-2.853249
-3.114413
-3.359580
-3.587632
-3.800177
-3.999545
-4.187601
-4.364092
-4.525362
-4.664952
-4.776663
-4.858488
-4.913603
-4.947543
-4.965604
-4.972711
-4.973356
-4.969870
-4.959980
-4.935372
-4.882816
-4.788041
-4.640521
-4.436682
-4.180047
-3.878722
-3.542162
-3.179215
-2.798712
-2.411482
-2.029794
