EVENT_NAME: EMILIA_2ND_SHOCK
EVENT_ID: IT-2012-0011
EVENT_DATE_YYYYMMDD: 20120529
EVENT_TIME_HHMMSS: 070002
EVENT_LATITUDE_DEGREE: 44.8417
EVENT_LONGITUDE_DEGREE: 11.0657
EVENT_DEPTH_KM: 8.1
HYPOCENTER_REFERENCE: INGV-CNT_Seismic_Bulletin
MAGNITUDE_W: 6.0
MAGNITUDE_W_REFERENCE: RCMT-INGV
MAGNITUDE_L: 5.8
MAGNITUDE_L_REFERENCE: INGV-CNT_Seismic_Bulletin
FOCAL_MECHANISM: TF
NETWORK: TV
STATION_CODE: MIR05
STATION_NAME: POGGIO RUSCO
STATION_LATITUDE_DEGREE: 44.980800
STATION_LONGITUDE_DEGREE: 11.107190
STATION_ELEVATION_M: 
LOCATION: 
SENSOR_DEPTH_M: 
VS30_M/S: 
SITE_CLASSIFICATION_EC8: C*
MORPHOLOGIC_CLASSIFICATION: 
EPICENTRAL_DISTANCE_KM: 15.8
EARTHQUAKE_BACKAZIMUTH_DEGREE: 192.0
DATE_TIME_FIRST_SAMPLE_YYYYMMDD_HHMMSS: 20120529_065929.000
DATE_TIME_FIRST_SAMPLE_PRECISION: milliseconds
SAMPLING_INTERVAL_S: 0.005000
NDATA: 30001
DURATION_S: 150.005
STREAM: HNN
UNITS: cm
INSTRUMENT: sensor = Episensor FBA ES-T [Kinemetrics] | digitizer = Unknown [Unknown]
INSTRUMENT_ANALOG/DIGITAL: D
INSTRUMENTAL_FREQUENCY_HZ: 
INSTRUMENTAL_DAMPING: 
FULL_SCALE_G: 
N_BIT_DIGITAL_CONVERTER: 
PGD_CM: -7.311463
TIME_PGD_S: 52.690000
BASELINE_CORRECTION: BASELINE REMOVED
FILTER_TYPE: BUTTERWORTH
FILTER_ORDER: 2
LOW_CUT_FREQUENCY_HZ: 0.070
HIGH_CUT_FREQUENCY_HZ: 40.000
LATE/NORMAL_TRIGGERED: NT
DATABASE_VERSION: DYNA 1.0
HEADER_FORMAT: DYNA 1.2
DATA_TYPE: DISPLACEMENT
PROCESSING: manual (Paolucci et al., 2011)
DATA_TIMESTAMP_YYYYMMDD_HHMMSS: 
DATA_LICENSE: CC-BY4_0 (http://creativecommons.org/licenses/by/4.0/)
DATA_CITATION: ESM working group (2015), European Strong-Motion database, version 0.1, Network Activity 3: Networking acceleration networks and SM data users. Project NERA (www.nera-eu.org)
DATA_CREATOR: ESM working group
ORIGINAL_DATA_MEDIATOR_CITATION: Orfeus - European Integrated Data Archive (EIDA) http://www.orfeus-eu.org/eida/
ORIGINAL_DATA_MEDIATOR: Orfeus - European Integrated Data Archive (EIDA)
ORIGINAL_DATA_CREATOR_CITATION: 
ORIGINAL_DATA_CREATOR: network: TV (INGV Experiments Network); owner: Istituto Nazionale di Geofisica e Vulcanologia
USER1: 
USER2: 
USER3: 
USER4: 
USER5: 
[...]
-4.853080e+00
-4.854189e+00
-4.855268e+00
-4.856365e+00
-4.857381e+00
-4.858089e+00
-4.858183e+00
-4.857347e+00
-4.855316e+00
-4.851914e+00
-4.847059e+00
-4.840747e+00
-4.833017e+00
-4.823919e+00
-4.813486e+00
-4.801731e+00
-4.788650e+00
-4.774228e+00
-4.758465e+00
-4.741384e+00
-4.723060e+00
-4.703633e+00
-4.683333e+00
-4.662490e+00
-4.641524e+00
-4.620907e+00
-4.601105e+00
-4.582545e+00
-4.565589e+00
-4.550511e+00
-4.537492e+00
-4.526626e+00
-4.517971e+00
-4.511596e+00
-4.507596e+00
-4.506074e+00
-4.507103e+00
-4.510705e+00
-4.516825e+00
-4.525306e+00
-4.535865e+00
-4.548108e+00
-4.561596e+00
-4.575944e+00
-4.590904e+00
-4.606392e+00
-4.622444e+00
-4.639162e+00
-4.656666e+00
-4.675060e+00
-4.694416e+00
-4.714764e+00
-4.736089e+00
-4.758338e+00
-4.781425e+00
-4.805254e+00
-4.829732e+00
-4.854779e+00
-4.880317e+00
-4.906271e+00
-4.932551e+00
-4.959034e+00
-4.985557e+00
-5.011921e+00
-5.037899e+00
-5.063267e+00
-5.087819e+00
-5.111384e+00
-5.133833e+00
-5.155085e+00
-5.175110e+00
-5.193922e+00
-5.211571e+00
-5.228141e+00
-5.243746e+00
-5.258526e+00
-5.272640e+00
-5.286243e+00
-5.299471e+00
-5.312416e+00
-5.325111e+00
-5.337520e+00
-5.349537e+00
-5.360991e+00
-5.371671e+00
-5.381354e+00
-5.389833e+00
-5.396961e+00
-5.402656e+00
-5.406903e+00
-5.409723e+00
-5.411134e+00
-5.411138e+00
-5.409717e+00
-5.406866e+00
-5.402603e+00
-5.396972e+00
-5.390029e+00
-5.381829e+00
-5.372406e+00
-5.361756e+00
-5.349830e+00
-5.336541e+00
-5.321770e+00
-5.305384e+00
-5.287250e+00
-5.267244e+00
-5.245254e+00
-5.221183e+00
-5.194959e+00
-5.166544e+00
-5.135933e+00
-5.103137e+00
-5.068164e+00
-5.031001e+00
-4.991619e+00
-4.949994e+00
-4.906165e+00
-4.860312e+00
-4.812790e+00
-4.764066e+00
-4.714565e+00
-4.664570e+00
-4.614222e+00
-4.563606e+00
-4.512825e+00
-4.462041e+00
-4.411492e+00
-4.361481e+00
-4.312339e+00
-4.264362e+00
-4.217758e+00
-4.172617e+00
-4.128909e+00
-4.086518e+00
-4.045287e+00
-4.005057e+00
-3.965692e+00
-3.927090e+00
-3.889184e+00
-3.851936e+00
-3.815314e+00
-3.779274e+00
-3.743744e+00
-3.708615e+00
-3.673752e+00
-3.639005e+00
-3.604235e+00
-3.569330e+00
-3.534216e+00
-3.498850e+00
-3.463197e+00
-3.427215e+00
-3.390834e+00
-3.353954e+00
-3.316446e+00
-3.278160e+00
-3.238944e+00
-3.198672e+00
-3.157256e+00
-3.114665e+00
-3.070918e+00
-3.026074e+00
-2.980215e+00
-2.933424e+00
-2.885768e+00
-2.837284e+00
-2.787966e+00
-2.737760e+00
-2.686573e+00
-2.634276e+00
-2.580729e+00
-2.525795e+00
-2.469370e+00
-2.411399e+00
-2.351883e+00
-2.290877e+00
-2.228485e+00
-2.164870e+00
-2.100265e+00
-2.034977e+00
-1.969374e+00
-1.903868e+00
-1.838888e+00
-1.774860e+00
-1.712156e+00
-1.651013e+00
-1.591441e+00
-1.533188e+00
-1.475816e+00
-1.418863e+00
-1.361985e+00
-1.304995e+00
-1.247824e+00
-1.190464e+00
-1.132917e+00
-1.075176e+00
-1.017233e+00
-9.590872e-01
-9.007477e-01
-8.422296e-01
-7.835447e-01
-7.247010e-01
-6.657179e-01
-6.066531e-01
-5.476240e-01
-4.888123e-01
-4.304437e-01
-3.727470e-01
-3.159008e-01
-2.599795e-01
-2.049170e-01
-1.505089e-01
-9.646423e-02
-4.248850e-02
1.164171e-02
6.604778e-02
1.207660e-01
1.757858e-01
2.310802e-01
2.866189e-01
3.423688e-01
3.982810e-01
4.542677e-01
5.101774e-01
5.657894e-01
6.208403e-01
6.750715e-01
7.282718e-01
7.803005e-01
8.310884e-01
8.806247e-01
9.289410e-01
9.761090e-01
1.022257e+00
1.067603e+00
1.112483e+00
1.157337e+00
1.202637e+00
1.248785e+00
1.296065e+00
1.344640e+00
1.394593e+00
1.445959e+00
1.498729e+00
1.552867e+00
1.608315e+00
1.665002e+00
1.722847e+00
1.781765e+00
1.841678e+00
1.902526e+00
1.964276e+00
2.026899e+00
2.090351e+00
2.154540e+00
2.219305e+00
2.284399e+00
2.349508e+00
2.414305e+00
2.478530e+00
2.542050e+00
2.604845e+00
2.666957e+00
2.728426e+00
2.789244e+00
2.849340e+00
2.908596e+00
2.966882e+00
3.024101e+00
3.080217e+00
3.135276e+00
3.189408e+00
3.242820e+00
3.295789e+00
3.348638e+00
3.401706e+00
3.455311e+00
3.509717e+00
3.565115e+00
3.621628e+00
3.679324e+00
3.738231e+00
3.798348e+00
3.859649e+00
3.922090e+00
3.985614e+00
4.050138e+00
4.115558e+00
4.181734e+00
4.248495e+00
4.315630e+00
4.382895e+00
4.450031e+00
4.516799e+00
4.583000e+00
4.648495e+00
4.713196e+00
4.777066e+00
4.840097e+00
4.902297e+00
4.963673e+00
5.024216e+00
5.083890e+00
5.142636e+00
5.200380e+00
5.257052e+00
5.312603e+00
5.367015e+00
5.420290e+00
5.472440e+00
5.523482e+00
5.573448e+00
5.622389e+00
5.670372e+00
5.717470e+00
5.763747e+00
5.809252e+00
5.854020e+00
5.898091e+00
5.941518e+00
5.984373e+00
6.026740e+00
6.068703e+00
6.110339e+00
6.151704e+00
6.192842e+00
6.233784e+00
6.274551e+00
6.315152e+00
6.355566e+00
6.395739e+00
6.435579e+00
6.474964e+00
6.513767e+00
6.551868e+00
6.589168e+00
6.625588e+00
6.661051e+00
6.695481e+00
6.728792e+00
6.760890e+00
6.791688e+00
6.821111e+00
6.849109e+00
6.875658e+00
6.900767e+00
6.924469e+00
6.946815e+00
6.967859e+00
6.987656e+00
7.006269e+00
7.023779e+00
7.040295e+00
7.055960e+00
7.070934e+00
7.085362e+00
7.099335e+00
7.112875e+00
7.125930e+00
7.138402e+00
7.150170e+00
7.161129e+00
7.171209e+00
7.180384e+00
7.188672e+00
7.196111e+00
7.202736e+00
7.208559e+00
7.213557e+00
7.217678e+00
7.220849e+00
7.222992e+00
7.224040e+00
7.223945e+00
7.222688e+00
7.220273e+00
7.216731e+00
7.212111e+00
7.206482e+00
7.199936e+00
7.192592e+00
7.184592e+00
7.176091e+00
7.167237e+00
7.158148e+00
7.148905e+00
7.139549e+00
7.130081e+00
7.120478e+00
7.110702e+00
7.100711e+00
7.090475e+00
7.079979e+00
7.069220e+00
7.058212e+00
7.046978e+00
7.035550e+00
7.023971e+00
7.012293e+00
7.000576e+00
6.988892e+00
6.977322e+00
6.965957e+00
6.954887e+00
6.944176e+00
6.933847e+00
6.923864e+00
6.914141e+00
6.904545e+00
6.894917e+00
6.885098e+00
6.874958e+00
6.864417e+00
6.853453e+00
6.842091e+00
6.830377e+00
6.818357e+00
6.806047e+00
6.793419e+00
6.780406e+00
6.766913e+00
6.752829e+00
6.738050e+00
6.722486e+00
6.706072e+00
6.688776e+00
6.670607e+00
6.651613e+00
6.631860e+00
6.611405e+00
6.590260e+00
6.568379e+00
6.545668e+00
6.522000e+00
6.497246e+00
6.471296e+00
6.444068e+00
6.415512e+00
6.385611e+00
6.354360e+00
6.321753e+00
6.287770e+00
6.252370e+00
6.215498e+00
6.177100e+00
6.137129e+00
6.095557e+00
6.052383e+00
6.007635e+00
5.961364e+00
5.913637e+00
5.864515e+00
5.814045e+00
5.762252e+00
5.709143e+00
5.654711e+00
5.598955e+00
5.541891e+00
5.483575e+00
5.424121e+00
5.363718e+00
5.302639e+00
5.241215e+00
5.179796e+00
5.118703e+00
5.058204e+00
4.998498e+00
4.939726e+00
4.881982e+00
4.825324e+00
4.769792e+00
4.715421e+00
4.662251e+00
4.610331e+00
4.559708e+00
4.510421e+00
4.462484e+00
4.415867e+00
4.370472e+00
4.326116e+00
4.282525e+00
4.239356e+00
4.196261e+00
4.152955e+00
4.109269e+00
4.065164e+00
4.020705e+00
3.976024e+00
3.931282e+00
3.886642e+00
3.842247e+00
3.798201e+00
3.754558e+00
3.711332e+00
3.668497e+00
3.626000e+00
3.583762e+00
3.541693e+00
3.499700e+00
3.457707e+00
3.415666e+00
3.373550e+00
3.331346e+00
3.289030e+00
3.246568e+00
3.203914e+00
3.161016e+00
3.117824e+00
3.074291e+00
3.030382e+00
2.986075e+00
2.941375e+00
2.896322e+00
2.850995e+00
2.805504e+00
2.759977e+00
2.714546e+00
2.669334e+00
2.624440e+00
2.579933e+00
2.535845e+00
2.492176e+00
2.448901e+00
2.405978e+00
2.363364e+00
2.321017e+00
2.278914e+00
2.237058e+00
2.195477e+00
2.154231e+00
2.113406e+00
2.073103e+00
2.033435e+00
1.994515e+00
1.956456e+00
1.919361e+00
1.883316e+00
1.848386e+00
1.814613e+00
1.782011e+00
1.750564e+00
1.720226e+00
1.690920e+00
1.662548e+00
1.635001e+00
1.608165e+00
1.581927e+00
1.556191e+00
1.530884e+00
1.505976e+00
1.481477e+00
1.457443e+00
1.433968e+00
1.411173e+00
1.389199e+00
1.368182e+00
1.348235e+00
1.329430e+00
1.311799e+00
1.295345e+00
1.280045e+00
1.265849e+00
1.252686e+00
1.240456e+00
1.229041e+00
1.218317e+00
1.208166e+00
1.198483e+00
1.189177e+00
1.180158e+00
1.171331e+00
1.162592e+00
1.153837e+00
1.144970e+00
1.135922e+00
1.126654e+00
1.117163e+00
1.107475e+00
1.097632e+00
1.087671e+00
1.077602e+00
1.067395e+00
1.056977e+00
1.046236e+00
1.035042e+00
1.023254e+00
1.010737e+00
9.973711e-01
9.830606e-01
9.677463e-01
9.514166e-01
9.341141e-01
9.159379e-01
8.970395e-01
8.776131e-01
8.578774e-01
8.380516e-01
8.183307e-01
7.988710e-01
7.797862e-01
7.611532e-01
7.430214e-01
7.254244e-01
7.083897e-01
6.919423e-01
6.761044e-01
6.608943e-01
6.463249e-01
6.324045e-01
6.191334e-01
6.064985e-01
5.944674e-01
5.829895e-01
5.719998e-01
5.614206e-01
5.511644e-01
5.411399e-01
5.312628e-01
5.214667e-01
5.117097e-01
5.019797e-01
4.922981e-01
4.827174e-01
4.733117e-01
4.641639e-01
4.553525e-01
4.469364e-01
4.389386e-01
4.313369e-01
4.240634e-01
4.170153e-01
4.100743e-01
4.031322e-01
3.961125e-01
3.889850e-01
3.817679e-01
3.745132e-01
3.672810e-01
3.601111e-01
3.530030e-01
3.459073e-01
3.387314e-01
3.313602e-01
3.236900e-01
3.156674e-01
3.073243e-01
2.987950e-01
2.903072e-01
2.821406e-01
2.745714e-01
2.678267e-01
2.620671e-01
2.573907e-01
2.538440e-01
2.514314e-01
2.501214e-01
2.498530e-01
2.505379e-01
2.520551e-01
2.542433e-01
2.569028e-01
2.598191e-01
2.628033e-01
2.657270e-01
2.685366e-01
2.712464e-01
2.739224e-01
2.766621e-01
2.795725e-01
2.827503e-01
2.862662e-01
2.901555e-01
2.944153e-01
2.990064e-01
3.038602e-01
3.088891e-01
3.140018e-01
3.191143e-01
3.241550e-01
3.290670e-01
3.338079e-01
3.383468e-01
3.426629e-01
3.467449e-01
3.505910e-01
3.542082e-01
3.576077e-01
3.607979e-01
3.637785e-01
3.665420e-01
3.690822e-01
3.714017e-01
3.735148e-01
3.754401e-01
3.771903e-01
3.787617e-01
3.801316e-01
3.812594e-01
3.820897e-01
3.825590e-01
3.826032e-01
3.821634e-01
3.811889e-01
3.796399e-01
3.774930e-01
3.747419e-01
3.713931e-01
3.674567e-01
3.629392e-01
3.578447e-01
3.521819e-01
3.459697e-01
3.392403e-01
3.320405e-01
3.244314e-01
3.164855e-01
3.082807e-01
2.998966e-01
2.914145e-01
2.829155e-01
2.744729e-01
2.661403e-01
2.579412e-01
2.498675e-01
2.418843e-01
2.339390e-01
2.259677e-01
2.178984e-01
2.096492e-01
2.011226e-01
1.922025e-01
1.827580e-01
1.726559e-01
1.617752e-01
1.500210e-01
1.373343e-01
1.236967e-01
1.091291e-01
9.368685e-02
7.745886e-02
6.056934e-02
4.317839e-02
2.547373e-02
7.652061e-03
-1.010513e-02
-2.765369e-02
-4.490148e-02
-6.181378e-02
-7.841092e-02
-9.476047e-02
-1.109659e-01
-1.271534e-01
-1.434598e-01
-1.600204e-01
-1.769587e-01
-1.943775e-01
-2.123506e-01
-2.309140e-01
-2.500627e-01
-2.697551e-01
-2.899256e-01
-3.105011e-01
-3.314168e-01
-3.526278e-01
-3.741139e-01
-3.958777e-01
-4.179390e-01
-4.403277e-01
-4.630800e-01
-4.862377e-01
-5.098508e-01
-5.339785e-01
-5.586864e-01
-5.840395e-01
-6.100951e-01
-6.368953e-01
-6.644637e-01
-6.928037e-01
-7.219006e-01
-7.517288e-01
-7.822593e-01
-8.134676e-01
-8.453379e-01
-8.778646e-01
-9.110510e-01
-9.449064e-01
-9.794458e-01
-1.014689e+00
-1.050661e+00
-1.087388e+00
-1.124903e+00
-1.163235e+00
-1.202417e+00
-1.242478e+00
-1.283445e+00
-1.325335e+00
-1.368162e+00
-1.411929e+00
-1.456630e+00
-1.502247e+00
-1.548745e+00
-1.596072e+00
-1.644144e+00
-1.692843e+00
-1.742006e+00
-1.791426e+00
-1.840874e+00
-1.890124e+00
-1.938972e+00
-1.987263e+00
-2.034885e+00
-2.081776e+00
-2.127920e+00
-2.173340e+00
-2.218100e+00
-2.262304e+00
-2.306081e+00
-2.349583e+00
-2.392972e+00
-2.436402e+00
-2.480015e+00
-2.523926e+00
-2.568239e+00
-2.613045e+00
-2.658434e+00
-2.704480e+00
-2.751235e+00
-2.798729e+00
-2.846964e+00
-2.895921e+00
-2.945562e+00
-2.995833e+00
-3.046676e+00
-3.098029e+00
-3.149835e+00
-3.202047e+00
-3.254635e+00
-3.307595e+00
-3.360946e+00
-3.414733e+00
-3.469022e+00
-3.523885e+00
-3.579395e+00
-3.635614e+00
-3.692596e+00
-3.750387e+00
-3.809035e+00
-3.868582e+00
-3.929069e+00
-3.990524e+00
-4.052960e+00
-4.116362e+00
-4.180688e+00
-4.245861e+00
-4.311781e+00
-4.378323e+00
-4.445350e+00
-4.512718e+00
-4.580284e+00
-4.647914e+00
-4.715482e+00
-4.782877e+00
-4.849999e+00
-4.916763e+00
-4.983107e+00
-5.048989e+00
-5.114383e+00
-5.179265e+00
-5.243608e+00
-5.307381e+00
-5.370548e+00
-5.433069e+00
-5.494912e+00
-5.556053e+00
-5.616489e+00
-5.676231e+00
-5.735310e+00
-5.793766e+00
-5.851635e+00
-5.908934e+00
-5.965649e+00
-6.021736e+00
-6.077123e+00
-6.131723e+00
-6.185448e+00
-6.238219e+00
-6.289969e+00
-6.340639e+00
-6.390174e+00
-6.438518e+00
-6.485615e+00
-6.531409e+00
-6.575847e+00
-6.618885e+00
-6.660495e+00
-6.700669e+00
-6.739419e+00
-6.776776e+00
-6.812781e+00
-6.847483e+00
-6.880923e+00
-6.913133e+00
-6.944126e+00
-6.973895e+00
-7.002416e+00
-7.029658e+00
-7.055585e+00
-7.080160e+00
-7.103350e+00
-7.125125e+00
-7.145455e+00
-7.164322e+00
-7.181722e+00
-7.197671e+00
-7.212207e+00
-7.225388e+00
-7.237289e+00
-7.247998e+00
-7.257611e+00
-7.266224e+00
-7.273931e+00
-7.280815e+00
-7.286945e+00
-7.292372e+00
-7.297131e+00
-7.301236e+00
-7.304686e+00
-7.307462e+00
-7.309535e+00
-7.310876e+00
-7.311463e+00
-7.311279e+00
-7.310322e+00
-7.308601e+00
-7.306141e+00
-7.302971e+00
-7.299125e+00
-7.294632e+00
-7.289508e+00
-7.283756e+00
-7.277357e+00
-7.270278e+00
-7.262473e+00
-7.253894e+00
-7.244494e+00
-7.234232e+00
-7.223076e+00
-7.210999e+00
-7.197982e+00
-7.184010e+00
-7.169070e+00
-7.153148e+00
-7.136235e+00
-7.118324e+00
-7.099426e+00
-7.079562e+00
-7.058765e+00
-7.037081e+00
-7.014556e+00
-6.991238e+00
-6.967173e+00
-6.942401e+00
-6.916960e+00
-6.890883e+00
-6.864203e+00
-6.836956e+00
-6.809178e+00
-6.780909e+00
-6.752189e+00
-6.723057e+00
-6.693555e+00
-6.663726e+00
-6.633606e+00
-6.603228e+00
-6.572616e+00
-6.541786e+00
-6.510748e+00
-6.479506e+00
-6.448061e+00
-6.416407e+00
-6.384537e+00
-6.352438e+00
-6.320091e+00
-6.287475e+00
-6.254563e+00
-6.221325e+00
-6.187736e+00
-6.153770e+00
-6.119411e+00
-6.084647e+00
-6.049479e+00
-6.013921e+00
-5.977992e+00
-5.941721e+00
-5.905133e+00
-5.868248e+00
-5.831078e+00
-5.793628e+00
-5.755902e+00
-5.717906e+00
-5.679649e+00
-5.641141e+00
-5.602394e+00
-5.563414e+00
-5.524201e+00
-5.484747e+00
-5.445032e+00
-5.405023e+00
-5.364683e+00
-5.323968e+00
-5.282834e+00
-5.241239e+00
-5.199145e+00
-5.156518e+00
-5.113331e+00
-5.069561e+00
-5.025188e+00
-4.980193e+00
-4.934556e+00
-4.888255e+00
-4.841264e+00
-4.793558e+00
-4.745112e+00
-4.695908e+00
-4.645939e+00
-4.595212e+00
-4.543751e+00
-4.491598e+00
-4.438811e+00
-4.385468e+00
-4.331653e+00
-4.277454e+00
-4.222953e+00
-4.168223e+00
-4.113324e+00
-4.058307e+00
-4.003213e+00
-3.948082e+00
-3.892950e+00
-3.837853e+00
-3.782824e+00
-3.727889e+00
-3.673062e+00
-3.618339e+00
-3.563701e+00
-3.509111e+00
-3.454527e+00
-3.399902e+00
-3.345195e+00
-3.290373e+00
-3.235415e+00
-3.180310e+00
-3.125055e+00
-3.069650e+00
-3.014100e+00
-2.958408e+00
-2.902579e+00
-2.846622e+00
-2.790543e+00
-2.734353e+00
-2.678062e+00
-2.621685e+00
-2.565245e+00
-2.508776e+00
-2.452324e+00
-2.395944e+00
-2.339698e+00
-2.283647e+00
-2.227848e+00
-2.172350e+00
-2.117194e+00
-2.062415e+00
-2.008041e+00
-1.954098e+00
-1.900601e+00
-1.847555e+00
-1.794951e+00
-1.742757e+00
-1.690912e+00
-1.639324e+00
-1.587880e+00
-1.536456e+00
-1.484940e+00
-1.433248e+00
-1.381339e+00
-1.329209e+00
-1.276890e+00
-1.224435e+00
-1.171912e+00
-1.119392e+00
-1.066945e+00
-1.014630e+00
-9.624976e-01
-9.105918e-01
-8.589464e-01
-8.075866e-01
-7.565297e-01
-7.057849e-01
-6.553536e-01
-6.052282e-01
-5.553920e-01
-5.058192e-01
-4.564763e-01
-4.073244e-01
-3.583216e-01
-3.094264e-01
-2.606003e-01
-2.118106e-01
-1.630325e-01
-1.142480e-01
-6.544293e-02
-1.660137e-02
3.229857e-02
8.128690e-02
1.304010e-01
1.796814e-01
2.291667e-01
2.788893e-01
3.288731e-01
3.791316e-01
4.296647e-01
4.804573e-01
5.314806e-01
5.826954e-01
6.340555e-01
6.855100e-01
7.370043e-01
7.884826e-01
8.398905e-01
8.911789e-01
9.423061e-01
9.932393e-01
1.043953e+00
1.094426e+00
1.144638e+00
1.194570e+00
1.244206e+00
1.293528e+00
1.342526e+00
1.391195e+00
1.439536e+00
1.487559e+00
1.535279e+00
1.582718e+00
1.629903e+00
1.676862e+00
1.723632e+00
1.770255e+00
1.816776e+00
1.863242e+00
1.909692e+00
1.956153e+00
2.002637e+00
2.049140e+00
2.095644e+00
2.142125e+00
2.188555e+00
2.234902e+00
2.281131e+00
2.327205e+00
2.373084e+00
2.418723e+00
2.464072e+00
2.509079e+00
2.553694e+00
2.597871e+00
2.641570e+00
2.684756e+00
2.727399e+00
2.769473e+00
2.810956e+00
2.851829e+00
2.892080e+00
2.931703e+00
2.970707e+00
3.009112e+00
3.046958e+00
3.084298e+00
3.121194e+00
3.157710e+00
3.193901e+00
3.229810e+00
3.265458e+00
3.300849e+00
3.335966e+00
3.370784e+00
3.405273e+00
3.439406e+00
3.473162e+00
3.506526e+00
3.539491e+00
3.572052e+00
3.604204e+00
3.635940e+00
3.667255e+00
3.698137e+00
3.728576e+00
3.758561e+00
3.788085e+00
3.817143e+00
3.845729e+00
3.873838e+00
3.901461e+00
3.928588e+00
3.955213e+00
3.981330e+00
4.006940e+00
4.032052e+00
4.056683e+00
4.080854e+00
4.104583e+00
4.127888e+00
4.150775e+00
4.173239e+00
4.195259e+00
4.216802e+00
4.237822e+00
4.258263e+00
4.278062e+00
4.297153e+00
4.315471e+00
4.332953e+00
4.349541e+00
4.365186e+00
4.379847e+00
4.393490e+00
4.406090e+00
4.417630e+00
4.428102e+00
4.437509e+00
4.445861e+00
4.453177e+00
4.459486e+00
4.464822e+00
4.469230e+00
4.472759e+00
4.475465e+00
4.477408e+00
4.478648e+00
4.479243e+00
4.479243e+00
4.478690e+00
4.477619e+00
4.476057e+00
4.474028e+00
4.471552e+00
4.468648e+00
4.465333e+00
4.461621e+00
4.457528e+00
4.453066e+00
4.448254e+00
4.443117e+00
4.437689e+00
4.432007e+00
4.426117e+00
4.420068e+00
4.413912e+00
4.407703e+00
4.401493e+00
4.395327e+00
4.389236e+00
4.383239e+00
4.377330e+00
4.371489e+00
4.365678e+00
4.359851e+00
4.353961e+00
4.347960e+00
4.341805e+00
4.335455e+00
4.328874e+00
4.322023e+00
4.314866e+00
4.307370e+00
4.299505e+00
4.291252e+00
4.282599e+00
4.273549e+00
4.264115e+00
4.254314e+00
4.244172e+00
4.233715e+00
4.222970e+00
4.211959e+00
4.200698e+00
4.189198e+00
4.177462e+00
4.165491e+00
4.153284e+00
4.140845e+00
4.128180e+00
4.115304e+00
4.102241e+00
4.089017e+00
4.075661e+00
4.062203e+00
4.048669e+00
4.035076e+00
4.021436e+00
4.007750e+00
3.994009e+00
3.980198e+00
3.966291e+00
3.952256e+00
3.938059e+00
3.923665e+00
3.909038e+00
3.894146e+00
3.878954e+00
3.863430e+00
3.847548e+00
3.831286e+00
3.814632e+00
3.797583e+00
3.780140e+00
3.762311e+00
3.744111e+00
3.725558e+00
3.706677e+00
3.687495e+00
3.668048e+00
3.648373e+00
3.628514e+00
3.608513e+00
3.588416e+00
3.568260e+00
3.548080e+00
3.527895e+00
