EVENT_NAME: EMILIA_2ND_SHOCK
EVENT_ID: IT-2012-0011
EVENT_DATE_YYYYMMDD: 20120529
EVENT_TIME_HHMMSS: 070002
EVENT_LATITUDE_DEGREE: 44.8417
EVENT_LONGITUDE_DEGREE: 11.0657
EVENT_DEPTH_KM: 8.1
HYPOCENTER_REFERENCE: INGV-CNT_Seismic_Bulletin
MAGNITUDE_W: 6.0
MAGNITUDE_W_REFERENCE: RCMT-INGV
MAGNITUDE_L: 5.8
MAGNITUDE_L_REFERENCE: INGV-CNT_Seismic_Bulletin
FOCAL_MECHANISM: TF
NETWORK: TV
STATION_CODE: MIR04
STATION_NAME: GAVELLO
STATION_LATITUDE_DEGREE: 44.927433
STATION_LONGITUDE_DEGREE: 11.178312
STATION_ELEVATION_M: 
LOCATION: 
SENSOR_DEPTH_M: 
VS30_M/S: 
SITE_CLASSIFICATION_EC8: C*
MORPHOLOGIC_CLASSIFICATION: 
EPICENTRAL_DISTANCE_KM: 13.0
EARTHQUAKE_BACKAZIMUTH_DEGREE: 223.1
DATE_TIME_FIRST_SAMPLE_YYYYMMDD_HHMMSS: 20120529_065927.000
DATE_TIME_FIRST_SAMPLE_PRECISION: milliseconds
SAMPLING_INTERVAL_S: 0.005000
NDATA: 30001
DURATION_S: 150.005
STREAM: HNZ
UNITS: cm/s^2
INSTRUMENT: sensor = Episensor FBA ES-T [Kinemetrics] | digitizer = Unknown [Unknown]
INSTRUMENT_ANALOG/DIGITAL: D
INSTRUMENTAL_FREQUENCY_HZ: 
INSTRUMENTAL_DAMPING: 
FULL_SCALE_G: 
N_BIT_DIGITAL_CONVERTER: 
PGA_CM/S^2: 258.256757
TIME_PGA_S: 42.130000
BASELINE_CORRECTION: BASELINE REMOVED
FILTER_TYPE: BUTTERWORTH
FILTER_ORDER: 2
LOW_CUT_FREQUENCY_HZ: 0.050
HIGH_CUT_FREQUENCY_HZ: 40.000
LATE/NORMAL_TRIGGERED: NT
DATABASE_VERSION: DYNA 1.0
HEADER_FORMAT: DYNA 1.2
DATA_TYPE: ACCELERATION
PROCESSING: manual (Paolucci et al., 2011)
DATA_TIMESTAMP_YYYYMMDD_HHMMSS: 
DATA_LICENSE: CC-BY4_0 (http://creativecommons.org/licenses/by/4.0/)
DATA_CITATION: ESM working group (2015), European Strong-Motion database, version 0.1, Network Activity 3: Networking acceleration networks and SM data users. Project NERA (www.nera-eu.org)
DATA_CREATOR: ESM working group
ORIGINAL_DATA_MEDIATOR_CITATION: Orfeus - European Integrated Data Archive (EIDA) http://www.orfeus-eu.org/eida/
ORIGINAL_DATA_MEDIATOR: Orfeus - European Integrated Data Archive (EIDA)
ORIGINAL_DATA_CREATOR_CITATION: 
ORIGINAL_DATA_CREATOR: network: TV (INGV Experiments Network); owner: Istituto Nazionale di Geofisica e Vulcanologia
USER1: 
USER2: 
USER3: 
USER4: 
USER5: 
[...]
-0.005455
-0.006700
-0.007995
-0.009316
-0.009683
-0.009221
-0.009255
-0.009439
-0.008814
-0.008075
-0.008159
-0.008760
-0.008331
-0.005778
-0.002750
-0.001480
-0.001275
-0.000697
-0.000138
0.000295
0.001337
0.002377
0.002085
0.000654
-0.000249
0.000107
-0.000650
-0.004855
-0.009556
-0.010358
-0.009159
-0.010056
-0.011014
-0.008769
-0.006431
-0.007251
-0.008623
-0.008050
-0.006550
-0.005385
-0.004879
-0.004204
-0.002420
-0.000688
-0.000372
-0.000958
-0.001654
-0.002379
-0.003426
-0.004837
-0.005805
-0.005658
-0.004836
-0.004087
-0.003803
-0.004128
-0.004795
-0.005440
-0.006017
-0.006077
-0.005185
-0.004397
-0.004738
-0.005180
-0.004882
-0.005119
-0.006586
-0.007738
-0.007272
-0.005762
-0.004568
-0.004563
-0.005476
-0.006192
-0.006229
-0.006338
-0.007087
-0.007856
-0.007926
-0.007558
-0.007412
-0.007422
-0.006979
-0.006072
-0.005288
-0.004857
-0.004253
-0.002942
-0.001757
-0.001844
-0.002592
-0.003320
-0.004518
-0.005751
-0.006484
-0.007717
-0.009185
-0.008602
-0.005528
-0.002305
-0.001069
-0.001951
-0.003196
-0.002952
-0.001685
-0.001169
-0.001596
-0.002238
-0.003427
-0.005386
-0.006673
-0.006095
-0.004798
-0.004512
-0.005308
-0.006323
-0.007511
-0.009410
-0.011089
-0.010771
-0.009151
-0.008445
-0.008485
-0.007451
-0.005416
-0.004432
-0.005433
-0.006951
-0.007049
-0.005348
-0.003567
-0.003778
-0.005263
-0.005654
-0.004736
-0.003278
-0.001193
0.000484
0.000637
0.000517
0.000765
-0.000115
-0.001995
-0.002945
-0.002828
-0.003196
-0.004552
-0.005887
-0.006560
-0.007007
-0.007438
-0.007556
-0.007215
-0.006279
-0.004940
-0.004012
-0.003909
-0.004578
-0.006315
-0.009024
-0.011286
-0.011056
-0.008179
-0.006337
-0.008771
-0.012504
-0.012138
-0.007477
-0.002967
-0.002101
-0.004317
-0.006512
-0.007516
-0.008561
-0.009091
-0.007409
-0.004852
-0.003888
-0.004185
-0.004265
-0.003772
-0.002918
-0.002414
-0.002728
-0.003408
-0.004264
-0.004775
-0.004217
-0.003855
-0.004864
-0.005979
-0.006321
-0.006771
-0.007822
-0.008846
-0.009258
-0.009288
-0.009183
-0.008231
-0.005867
-0.003240
-0.002226
-0.003024
-0.004197
-0.005109
-0.006323
-0.007849
-0.008990
-0.009135
-0.008031
-0.006436
-0.005557
-0.005064
-0.004043
-0.003297
-0.003751
-0.004351
-0.003807
-0.002598
-0.002111
-0.002634
-0.003287
-0.004089
-0.005748
-0.007233
-0.006946
-0.005788
-0.005791
-0.006753
-0.006853
-0.005839
-0.005235
-0.005369
-0.004930
-0.003716
-0.003049
-0.003692
-0.005123
-0.006458
-0.007244
-0.007236
-0.006433
-0.005836
-0.006576
-0.008203
-0.009047
-0.008255
-0.006749
-0.005537
-0.004636
-0.004371
-0.004903
-0.005111
-0.004682
-0.005068
-0.006986
-0.009061
-0.009106
-0.006877
-0.005116
-0.005323
-0.005431
-0.005086
-0.006513
-0.008398
-0.007907
-0.006494
-0.005890
-0.004426
-0.001999
-0.001639
-0.003996
-0.006100
-0.006227
-0.005597
-0.005821
-0.006978
-0.008031
-0.008886
-0.009857
-0.009891
-0.008592
-0.007161
-0.006308
-0.006246
-0.006956
-0.007536
-0.007652
-0.008098
-0.008614
-0.008226
-0.007396
-0.006643
-0.005291
-0.003847
-0.003867
-0.004743
-0.004550
-0.003063
-0.001408
-0.000503
-0.000556
-0.001109
-0.002125
-0.004326
-0.007106
-0.008453
-0.008197
-0.007955
-0.008098
-0.008110
-0.008271
-0.008780
-0.009069
-0.008760
-0.007990
-0.007039
-0.006140
-0.005295
-0.004967
-0.006190
-0.008143
-0.008037
-0.005494
-0.003329
-0.002864
-0.003011
-0.003743
-0.005740
-0.007692
-0.007796
-0.006420
-0.005015
-0.004264
-0.004229
-0.004934
-0.006456
-0.008331
-0.009254
-0.008633
-0.007776
-0.007854
-0.007804
-0.006274
-0.004164
-0.002848
-0.002016
-0.001596
-0.002392
-0.003718
-0.004479
-0.005149
-0.006246
-0.007700
-0.009233
-0.010123
-0.010119
-0.009385
-0.007839
-0.006478
-0.006912
-0.008323
-0.008612
-0.008438
-0.009235
-0.009450
-0.007636
-0.005198
-0.003713
-0.003299
-0.003463
-0.004093
-0.005595
-0.007128
-0.006671
-0.004554
-0.003367
-0.004112
-0.005944
-0.007509
-0.007258
-0.005596
-0.004396
-0.003328
-0.001765
-0.001718
-0.003830
-0.006027
-0.007772
-0.009521
-0.010293
-0.009709
-0.008974
-0.009041
-0.009783
-0.010503
-0.010405
-0.008910
-0.006461
-0.004126
-0.002389
-0.002177
-0.004568
-0.008087
-0.009983
-0.009669
-0.008651
-0.008192
-0.007560
-0.005541
-0.003581
-0.003901
-0.005231
-0.004989
-0.003684
-0.002847
-0.001937
-0.000820
-0.000943
-0.002234
-0.003365
-0.004259
-0.005299
-0.006410
-0.007338
-0.007648
-0.007559
-0.007516
-0.007016
-0.006458
-0.007272
-0.008643
-0.008491
-0.007316
-0.007054
-0.007728
-0.008379
-0.009140
-0.009772
-0.009120
-0.007324
-0.005356
-0.003840
-0.003780
-0.005107
-0.005954
-0.005771
-0.005839
-0.006410
-0.006650
-0.006751
-0.007587
-0.008745
-0.008988
-0.008356
-0.007866
-0.007307
-0.005541
-0.003261
-0.002696
-0.004298
-0.006500
-0.008067
-0.008496
-0.007668
-0.006350
-0.005655
-0.005837
-0.006230
-0.006294
-0.006568
-0.007870
-0.009538
-0.009925
-0.008506
-0.006420
-0.005257
-0.005400
-0.005799
-0.006070
-0.006952
-0.007881
-0.007556
-0.006791
-0.007162
-0.008241
-0.008627
-0.007945
-0.006470
-0.004382
-0.002318
-0.000921
-0.000097
-0.000430
-0.002847
-0.006112
-0.008150
-0.008681
-0.008070
-0.006776
-0.006630
-0.008692
-0.010953
-0.011431
-0.011081
-0.011091
-0.010309
-0.007874
-0.005407
-0.004328
-0.003578
-0.001924
-0.000577
-0.001151
-0.002763
-0.003919
-0.004950
-0.006521
-0.008199
-0.009793
-0.011902
-0.013809
-0.013245
-0.009613
-0.005163
-0.002422
-0.002054
-0.003463
-0.006045
-0.008850
-0.010692
-0.011099
-0.009825
-0.007437
-0.006271
-0.007298
-0.008932
-0.010393
-0.011050
-0.008940
-0.004851
-0.002544
-0.002906
-0.003670
-0.003680
-0.003274
-0.003105
-0.003605
-0.003861
-0.003347
-0.003882
-0.006117
-0.007870
-0.008082
-0.007550
-0.006706
-0.006310
-0.007382
-0.009132
-0.009808
-0.008853
-0.006748
-0.004602
-0.003848
-0.004805
-0.006412
-0.007643
-0.008185
-0.008114
-0.007553
-0.006710
-0.006192
-0.006597
-0.007646
-0.008384
-0.007946
-0.006223
-0.004463
-0.004207
-0.004982
-0.004905
-0.003904
-0.003612
-0.004445
-0.005638
-0.006732
-0.007732
-0.008958
-0.010007
-0.009953
-0.009128
-0.008071
-0.006613
-0.005456
-0.005549
-0.006394
-0.006797
-0.006293
-0.005224
-0.004268
-0.004277
-0.005478
-0.007399
-0.009985
-0.012510
-0.012914
-0.010844
-0.008390
-0.006982
-0.006776
-0.007815
-0.009000
-0.008324
-0.005957
-0.004015
-0.003227
-0.003081
-0.003522
-0.004388
-0.005228
-0.005662
-0.005264
-0.004416
-0.004160
-0.004436
-0.004466
-0.004266
-0.004362
-0.004957
-0.005600
-0.005829
-0.006026
-0.006414
-0.006692
-0.007241
-0.008306
-0.009084
-0.009228
-0.009437
-0.010042
-0.010664
-0.011160
-0.011227
-0.010382
-0.009269
-0.008637
-0.008034
-0.007066
-0.005838
-0.004685
-0.004241
-0.004789
-0.006034
-0.007138
-0.006994
-0.005824
-0.005035
-0.004614
-0.003204
-0.000958
0.000349
-0.000327
-0.002670
-0.005792
-0.008696
-0.010554
-0.011399
-0.012060
-0.012368
-0.011482
-0.010215
-0.009487
-0.008509
-0.007099
-0.006251
-0.006068
-0.005984
-0.005876
-0.005551
-0.004539
-0.003278
-0.003166
-0.005053
-0.009160
-0.016303
-0.028190
-0.046938
-0.073836
-0.107965
-0.148870
-0.203058
-0.284607
-0.410107
-0.601012
-0.876982
-1.206490
-1.456998
-1.442083
-1.067024
-0.455313
0.056769
0.088767
-0.519016
-1.514865
-2.317042
-2.407993
-1.789037
-1.063891
-0.966305
-1.702243
-2.684865
-2.971126
-2.225000
-1.263369
-1.257617
-2.277629
-2.863491
-1.306784
2.332291
5.655666
6.020946
3.311251
0.249193
-0.382319
1.022742
1.105558
-2.176012
-6.206910
-6.313454
-1.787523
2.740444
3.211327
1.415367
1.881085
4.882646
5.991264
2.531945
-2.516858
-3.825918
0.164855
4.213199
0.591137
-10.267595
-16.206909
-7.894703
5.950892
8.576396
-0.877548
-5.484356
4.494044
15.085343
6.098223
-19.004345
-32.366768
-14.186408
22.136095
43.190765
30.299063
-3.137740
-26.331129
-20.531698
3.749064
18.965334
11.344406
-5.442260
-8.988700
6.464682
25.855206
30.348886
15.520141
-7.803242
-26.617805
-34.631260
-31.319059
-20.107330
-9.148648
-7.384297
-14.167921
-16.555775
-3.997987
16.518394
27.009504
18.421776
-0.829796
-13.050676
-6.126171
14.765264
30.136332
25.174685
5.041180
-11.769123
-14.770399
-11.689704
-14.688987
-22.411388
-23.110222
-11.567705
6.327678
24.099873
39.735649
48.652462
41.099346
14.054844
-17.725760
-31.674931
-20.899620
-2.080329
3.508880
-7.042918
-19.227840
-20.790089
-11.932433
0.152603
7.338573
5.084302
-1.745583
-2.312634
6.302728
14.461925
13.126002
5.382291
0.019913
0.198722
3.998425
7.995259
5.535143
-8.052003
-25.171486
-29.654099
-11.648542
23.595226
58.466290
73.639145
58.658913
16.878021
-34.192650
-69.664101
-72.392105
-45.019653
-7.159660
19.599405
25.820709
17.352688
6.661589
-0.201082
-7.959947
-22.167980
-37.996613
-42.433559
-26.279522
6.377104
37.911705
48.036282
31.047583
3.896285
-7.681721
4.663540
20.842430
13.320331
-18.655172
-43.878426
-34.549713
0.891034
28.464867
26.416901
4.259514
-12.044408
-6.100229
16.386183
34.952824
33.037098
11.577701
-13.421615
-25.360310
-21.228701
-13.075235
-13.478778
-20.551495
-21.104954
-7.387433
14.222336
31.150927
36.092094
29.370401
15.104788
-1.245813
-13.282902
-15.724687
-8.226528
4.666947
18.830217
32.849483
43.676140
45.016331
33.557899
12.972278
-10.248975
-30.143686
-40.681423
-38.030594
-23.721401
-4.443844
9.339362
8.988120
-3.662218
-18.427153
-28.701454
-34.137394
-32.888882
-21.278419
-2.509986
13.222094
19.727879
17.556059
5.441130
-17.692734
-39.197178
-37.242905
-8.185056
21.783123
22.771584
-5.894451
-35.593636
-38.615696
-13.292923
19.496475
38.067532
36.149277
23.683807
16.823177
24.487455
40.356979
49.233753
42.537243
24.523926
3.911909
-14.758905
-30.184095
-39.489178
-38.320618
-26.198835
-9.044584
5.762755
14.250441
14.354781
4.931772
-10.224423
-22.402960
-25.343807
-18.930712
-6.458079
6.458636
12.879515
9.675884
0.718289
-5.939833
-3.799907
6.842135
18.991142
25.315525
22.791059
12.375925
-1.016535
-9.371230
-8.109044
-2.079142
-1.230162
-10.028343
-22.904554
-28.594990
-18.163061
6.871620
32.138943
40.652950
28.423805
7.467992
-7.511531
-12.721532
-14.968239
-20.447372
-25.967131
-21.134399
0.276876
29.025169
42.684261
25.666210
-12.099712
-41.244949
-39.885975
-13.425696
13.171613
21.107435
12.461811
0.585556
-6.547244
-9.480969
-10.011062
-8.352692
-6.262956
-6.678549
-8.798198
-7.728257
-1.321267
6.182283
9.728725
8.885456
5.762662
1.308551
-3.733686
-6.031141
-1.932168
5.928805
8.643042
1.740973
-7.175935
-7.597917
-1.621624
-1.495180
-10.318842
-15.641813
-7.146102
8.082717
15.362282
11.570786
5.748031
4.329995
5.173448
4.695855
2.511853
-1.650183
-9.766359
-21.852688
-32.382965
-32.786678
-19.333040
1.656568
18.060045
20.899664
8.888930
-11.578141
-28.369881
-30.164276
-15.488538
6.079782
22.864681
28.875387
23.112480
7.172648
-12.632692
-25.610331
-26.342670
-22.300154
-24.312721
-30.894594
-30.457083
-18.962667
-7.232795
-6.479242
-11.565264
-7.401618
8.912547
22.587379
20.024595
5.043144
-7.725809
-10.695609
-8.271819
-3.987545
8.386023
33.317490
60.043060
70.822617
58.477711
29.526480
-3.551015
-28.333179
-37.560768
-33.350624
-25.045132
-21.913395
-26.282488
-32.284710
-32.557213
-24.327488
-8.052701
11.713714
22.052298
11.437772
-10.753465
-17.402742
5.232601
38.560295
51.599728
32.897186
-3.403777
-35.111706
-46.977440
-33.083145
3.460256
46.531494
69.237183
53.468712
10.700898
-23.521072
-20.680443
12.173490
35.939827
19.701372
-23.919737
-54.111015
-47.474209
-16.902580
10.059439
19.968685
16.219275
1.812638
-23.349588
-48.294224
-52.801128
-27.930399
13.596958
45.846672
46.663074
15.168573
-23.107990
-33.946712
-4.792492
37.910248
47.512253
4.728127
-54.027485
-66.620239
-9.655044
71.214577
103.083496
55.954739
-35.369911
-111.546165
-136.437790
-108.449821
-44.532173
32.047882
93.324448
116.381775
101.741661
72.647034
48.777538
27.350773
-3.477347
-38.246674
-52.476646
-29.594231
17.465046
54.486382
54.142097
17.932907
-27.128717
-51.698624
-42.806049
-7.606061
29.141708
35.340939
-2.826186
-60.423992
-90.979149
-69.264671
-11.723349
41.465229
58.020580
36.117607
5.016590
-2.162435
17.072611
32.003250
15.610477
-21.786354
-43.413200
-28.198753
5.619333
20.163029
-3.511395
-46.563568
-69.826508
-51.439163
-5.883009
34.727352
50.948696
46.001678
35.191624
30.848700
33.137409
31.252888
15.638562
-8.360383
-21.412580
-9.455111
17.769535
36.577759
42.532120
56.697002
84.093681
85.418900
17.418476
-104.190369
-205.889862
-225.732483
-168.262421
-84.357399
-11.017267
51.301441
106.529373
133.331497
106.721069
40.897331
-13.772624
-19.961292
14.856464
52.814991
59.526081
29.970745
-8.417003
-22.249819
-4.995327
20.973133
30.377472
14.071600
-21.045868
-58.052898
-79.474648
-81.989922
-79.501541
-83.643288
-84.895142
-63.197334
-18.945396
17.136791
16.659536
-5.540159
2.830975
75.244514
182.868210
258.256744
257.569092
192.084381
107.714386
42.039696
-2.121520
-42.594891
-83.652237
-109.881279
-110.844589
-94.876282
-76.643906
-60.486248
-40.035030
-11.158640
20.528234
44.734364
54.096565
48.301331
36.250751
33.452919
50.781658
82.426407
106.851540
101.588539
59.826546
-3.736795
-64.830048
-109.910194
-140.691483
-156.551147
-141.356781
-79.041664
17.507484
102.648094
129.022034
82.733635
-6.086977
-78.563301
-80.634750
-3.068415
105.174278
176.810913
186.157043
160.879852
135.385666
110.477470
65.616051
-4.101587
-76.227272
-121.767876
-127.501244
-98.465126
-47.220097
13.249718
64.086098
78.093414
39.812103
-32.262062
-94.566124
-111.108116
-78.783028
-29.428122
-9.007953
-41.765240
-103.337379
-133.847549
-88.916733
13.389996
95.517601
84.491135
-14.392552
-114.548668
-129.134903
-54.359695
32.553303
56.740723
18.788418
-19.726892
-13.504402
21.049522
39.313602
27.496908
11.859772
15.946514
29.531864
30.560169
23.156454
33.817795
73.406181
116.458244
117.827454
49.349110
-70.171249
-179.195892
-215.012695
-157.500351
-43.263470
53.933372
71.764694
12.022548
-57.512543
-68.327972
-17.695112
33.871456
29.194248
-21.226795
-46.257343
4.200021
92.204361
126.991600
67.013512
-33.306328
-84.685463
-56.376072
-0.052413
12.849913
-33.306877
-91.275223
-109.156288
-78.611771
-29.263168
6.592139
18.962448
17.369667
11.768813
2.544585
-11.250202
-21.141788
-14.950033
7.707461
36.549934
67.189522
102.426170
135.504974
145.210602
114.089905
48.542587
-23.034563
-72.134789
-88.982620
-83.637627
-72.726219
-64.528374
-56.289967
-42.945316
-24.654209
-8.623475
-4.586304
-14.066691
-23.806776
-12.429040
32.623055
98.304306
147.122925
144.885529
93.087875
32.312576
7.135260
23.457899
46.993374
46.627724
27.090742
12.643181
11.343587
8.682544
-6.521381
-22.323017
-17.767813
5.760349
18.448517
-6.301112
-59.069199
-100.429482
-101.689507
-73.180916
-45.409855
-31.928658
-24.678152
-17.198542
-15.805371
-30.853819
-63.902531
-98.673477
-107.345825
-77.308357
-29.005806
4.722354
15.020800
22.655886
49.585266
92.684731
124.447975
115.080109
54.772552
-37.456345
-120.091049
-152.628891
-125.089302
-63.680870
-5.737243
26.003590
27.934097
7.797810
-22.316004
-48.935631
-55.867748
-28.412855
27.595104
76.168350
80.320847
41.283882
-6.599973
-36.713108
-48.414223
-47.986012
-35.332340
-16.239775
-5.646974
-5.361140
4.769601
40.673450
90.716415
125.542648
121.706367
74.148026
-2.598940
-78.374176
-118.661903
-105.938240
-56.816727
-7.836343
23.092209
48.552284
79.994270
102.438950
90.263832
38.424248
-26.072784
-60.832932
-40.774994
20.577770
83.215698
112.735451
101.410713
67.103691
34.705898
12.830286
-9.387359
-39.768517
-67.724648
-77.970940
-69.670746
-51.585072
-22.965136
25.477482
86.943581
129.488922
123.781921
76.787506
29.992155
17.586617
27.520159
17.859793
-24.155449
-60.228458
-50.817741
-8.981758
12.110522
-21.297508
-85.771889
-120.623558
-82.046173
20.320559
132.445847
196.814423
192.681992
145.320450
95.678940
60.969215
28.295736
-15.671032
-59.632290
-78.750893
-63.901741
-33.135799
-16.460449
-29.689247
-60.926956
-82.454132
-75.712944
-45.868500
-13.435983
6.652898
15.181097
19.755890
20.413097
8.380957
-17.606581
-39.484447
-36.590511
-14.522837
-2.731821
-17.867073
-43.223736
-51.426800
-35.482746
-10.236300
9.741834
25.972889
48.628960
76.739876
89.228203
59.382805
-15.564916
-98.134712
-131.234314
-85.024651
11.010567
86.033630
86.463127
21.024950
-53.176743
-85.795601
-69.640869
-30.393093
5.494229
28.475348
38.055920
30.148134
2.345050
-31.543659
-43.295460
-14.094637
44.120270
97.933113
123.605385
120.724670
97.310501
57.279842
8.116697
-30.122215
-34.697918
-3.083053
37.289314
50.593353
26.343260
-13.476080
-41.007153
-49.665222
-50.404736
-47.369370
-32.880066
-9.402057
1.977496
-13.887892
-44.421246
-63.240051
-59.939938
-44.940990
-29.548611
-17.189100
-12.589998
-22.367338
-45.395626
-72.536682
-92.755257
-95.617302
-76.349678
-42.697674
-11.244377
6.680751
16.029039
33.415195
68.185135
109.431892
133.245407
119.617386
65.680908
-9.254237
-72.355644
-95.239738
-67.560287
-5.667641
46.604904
45.274616
-8.095769
-57.579372
-46.643417
17.846918
65.919823
36.407829
-56.986034
-140.176727
-152.438675
-94.380196
-10.867170
54.847031
86.181129
85.954124
58.910454
7.234400
-59.565414
-120.137001
-154.060638
-151.834717
-109.307999
-31.620773
50.459873
92.845345
84.031685
65.612640
87.057213
142.102371
170.101669
126.813095
38.161186
-27.809584
-35.369541
-13.768242
-12.188207
-34.815292
-36.818447
13.929884
88.605125
127.551788
108.623695
61.537312
18.508732
-22.019382
-77.421326
-144.075531
-185.294678
-155.474014
-44.702381
93.097038
165.450195
119.217529
1.419114
-81.612740
-71.272377
1.904775
73.699036
105.117416
89.615250
37.337154
-31.507942
-84.504402
-83.571754
-13.899437
86.214645
145.035965
122.712044
43.801605
-38.303326
-88.767303
-100.080772
-74.792915
-20.485903
37.273369
62.600113
45.137032
10.883056
-10.796104
-14.436559
-11.205129
-13.081971
-28.094414
-57.184166
-91.044495
-115.905670
-123.027878
-110.992470
-81.651024
-37.625824
14.013259
57.865967
76.375610
62.478607
25.878212
-11.020461
-25.089611
-6.038009
39.566338
94.119019
136.854523
152.967468
139.254196
100.781319
48.992241
4.829339
-10.672136
1.993832
16.584059
3.937015
-42.563080
-99.270531
-127.082794
-102.715424
-41.043949
17.262672
41.676834
32.165157
7.370638
-17.291201
-38.594376
