EVENT_NAME: EMILIA_2ND_SHOCK
EVENT_ID: IT-2012-0011
EVENT_DATE_YYYYMMDD: 20120529
EVENT_TIME_HHMMSS: 070002
EVENT_LATITUDE_DEGREE: 44.8417
EVENT_LONGITUDE_DEGREE: 11.0657
EVENT_DEPTH_KM: 8.1
HYPOCENTER_REFERENCE: INGV-CNT_Seismic_Bulletin
MAGNITUDE_W: 6.0
MAGNITUDE_W_REFERENCE: RCMT-INGV
MAGNITUDE_L: 5.8
MAGNITUDE_L_REFERENCE: INGV-CNT_Seismic_Bulletin
FOCAL_MECHANISM: TF
NETWORK: TV
STATION_CODE: MIR04
STATION_NAME: GAVELLO
STATION_LATITUDE_DEGREE: 44.927433
STATION_LONGITUDE_DEGREE: 11.178312
STATION_ELEVATION_M: 
LOCATION: 
SENSOR_DEPTH_M: 
VS30_M/S: 
SITE_CLASSIFICATION_EC8: C*
MORPHOLOGIC_CLASSIFICATION: 
EPICENTRAL_DISTANCE_KM: 13.0
EARTHQUAKE_BACKAZIMUTH_DEGREE: 223.1
DATE_TIME_FIRST_SAMPLE_YYYYMMDD_HHMMSS: 20120529_065927.000
DATE_TIME_FIRST_SAMPLE_PRECISION: milliseconds
SAMPLING_INTERVAL_S: 0.005000
NDATA: 30001
DURATION_S: 150.005
STREAM: HNZ
UNITS: cm/s
INSTRUMENT: sensor = Episensor FBA ES-T [Kinemetrics] | digitizer = Unknown [Unknown]
INSTRUMENT_ANALOG/DIGITAL: D
INSTRUMENTAL_FREQUENCY_HZ: 
INSTRUMENTAL_DAMPING: 
FULL_SCALE_G: 
N_BIT_DIGITAL_CONVERTER: 
PGV_CM/S: -5.720918
TIME_PGV_S: 47.020000
BASELINE_CORRECTION: BASELINE REMOVED
FILTER_TYPE: BUTTERWORTH
FILTER_ORDER: 2
LOW_CUT_FREQUENCY_HZ: 0.050
HIGH_CUT_FREQUENCY_HZ: 40.000
LATE/NORMAL_TRIGGERED: NT
DATABASE_VERSION: DYNA 1.0
HEADER_FORMAT: DYNA 1.2
DATA_TYPE: VELOCITY
PROCESSING: manual (Paolucci et al., 2011)
DATA_TIMESTAMP_YYYYMMDD_HHMMSS: 
DATA_LICENSE: CC-BY4_0 (http://creativecommons.org/licenses/by/4.0/)
DATA_CITATION: ESM working group (2015), European Strong-Motion database, version 0.1, Network Activity 3: Networking acceleration networks and SM data users. Project NERA (www.nera-eu.org)
DATA_CREATOR: ESM working group
ORIGINAL_DATA_MEDIATOR_CITATION: Orfeus - European Integrated Data Archive (EIDA) http://www.orfeus-eu.org/eida/
ORIGINAL_DATA_MEDIATOR: Orfeus - European Integrated Data Archive (EIDA)
ORIGINAL_DATA_CREATOR_CITATION: 
ORIGINAL_DATA_CREATOR: network: TV (INGV Experiments Network); owner: Istituto Nazionale di Geofisica e Vulcanologia
USER1: 
USER2: 
USER3: 
USER4: 
USER5: 
[...]
-0.194104
-0.300496
-0.313046
-0.246936
-0.148296
-0.060516
-0.033310
-0.121774
-0.317760
-0.503974
-0.544900
-0.435984
-0.322126
-0.351599
-0.529567
-0.722645
-0.789110
-0.691627
-0.501290
-0.320543
-0.202124
-0.118008
0.004429
0.206214
0.452383
0.665069
0.787688
0.807248
0.733453
0.582533
0.385087
0.193484
0.062490
0.017267
0.046081
0.117333
0.189107
0.213766
0.162644
0.050629
-0.076090
-0.170744
-0.203034
-0.170741
-0.106344
-0.057964
-0.054373
-0.084072
-0.103071
-0.068861
0.026095
0.152673
0.266628
0.328508
0.323425
0.276569
0.236024
0.225628
0.219477
0.169335
0.054812
-0.088162
-0.178978
-0.144620
0.016075
0.219340
0.361459
0.398799
0.361241
0.297633
0.222792
0.120555
-0.009280
-0.114952
-0.113568
0.031558
0.244979
0.373310
0.312812
0.106587
-0.092843
-0.159971
-0.094113
0.011424
0.073733
0.076661
0.043925
-0.003480
-0.053536
-0.095299
-0.126614
-0.160007
-0.203998
-0.242639
-0.249245
-0.218334
-0.169690
-0.125263
-0.096450
-0.089907
-0.108575
-0.138731
-0.148392
-0.118748
-0.075533
-0.066828
-0.102707
-0.140697
-0.148805
-0.156281
-0.207875
-0.286084
-0.321815
-0.281401
-0.204590
-0.146736
-0.117996
-0.096346
-0.070478
-0.046999
-0.034440
-0.042691
-0.091523
-0.200786
-0.362701
-0.526634
-0.623299
-0.615017
-0.524716
-0.420218
-0.375773
-0.433664
-0.575514
-0.726335
-0.803778
-0.773379
-0.659055
-0.514678
-0.399116
-0.363253
-0.426416
-0.554468
-0.686181
-0.797682
-0.919246
-1.073719
-1.226004
-1.320817
-1.356981
-1.389378
-1.447204
-1.484212
-1.439649
-1.326712
-1.226589
-1.201374
-1.240003
-1.293481
-1.334840
-1.354777
-1.312847
-1.146260
-0.846045
-0.491932
-0.199543
-0.051911
-0.069666
-0.211332
-0.399135
-0.565889
-0.691114
-0.800681
-0.932094
-1.093517
-1.256303
-1.377941
-1.418204
-1.359636
-1.249374
-1.192185
-1.245953
-1.332966
-1.306803
-1.114002
-0.856003
-0.691517
-0.708536
-0.884095
-1.118982
-1.284398
-1.267096
-1.034439
-0.688253
-0.420909
-0.367405
-0.485010
-0.588413
-0.527545
-0.347846
-0.249339
-0.368938
-0.639493
-0.876864
-0.961377
-0.911080
-0.811236
-0.730140
-0.721076
-0.837825
-1.079296
-1.343301
-1.482953
-1.414968
-1.185735
-0.952420
-0.876577
-0.992117
-1.161850
-1.185813
-0.996262
-0.758700
-0.735060
-1.005197
-1.338298
-1.386574
-1.030501
-0.515083
-0.235309
-0.412159
-0.969890
-1.652079
-2.194328
-2.416989
-2.256749
-1.790127
-1.208218
-0.699510
-0.336275
-0.092387
0.044367
0.026980
-0.164253
-0.426636
-0.574608
-0.487283
-0.214851
0.055860
0.145524
0.009881
-0.248612
-0.462642
-0.500673
-0.354964
-0.178260
-0.192391
-0.494511
-0.949406
-1.295730
-1.354346
-1.147020
-0.856917
-0.676329
-0.651246
-0.662058
-0.576695
-0.416679
-0.338627
-0.447558
-0.664625
-0.805618
-0.777522
-0.676706
-0.694264
-0.927081
-1.276214
-1.533410
-1.562825
-1.389188
-1.134444
-0.904436
-0.728478
-0.574234
-0.408547
-0.252283
-0.174090
-0.215892
-0.322955
-0.370230
-0.281383
-0.098494
0.114166
0.397651
0.818120
1.245214
1.332307
0.811355
-0.218094
-1.346757
-2.188069
-2.609856
-2.664942
-2.408435
-1.875788
-1.209131
-0.675525
-0.471039
-0.539902
-0.639708
-0.565426
-0.301351
-0.003720
0.146133
0.104048
-0.007201
-0.032178
0.072688
0.224576
0.294933
0.189704
-0.100560
-0.497934
-0.907883
-1.305391
-1.723607
-2.148083
-2.464070
-2.558797
-2.473113
-2.389815
-2.417516
-2.403361
-2.027138
-1.112797
0.178486
1.466332
2.426754
2.965326
3.175524
3.164917
2.951942
2.533681
1.984275
1.430052
0.955670
0.572451
0.270020
0.069844
0.014051
0.116692
0.340364
0.610847
0.852354
1.033607
1.200872
1.454780
1.866912
2.401170
2.909113
3.208245
3.189561
2.865411
2.315860
1.612403
0.829647
0.122863
-0.272345
-0.184808
0.328433
0.973543
1.387211
1.356776
0.963960
0.560786
0.545444
1.071315
1.955370
2.886155
3.690555
4.367483
4.919870
5.247950
5.227443
4.846306
4.237467
3.599961
3.107635
2.871534
2.937783
3.258214
3.648681
3.847741
3.686431
3.213600
2.658060
2.264144
2.117004
2.071964
1.863138
1.346451
0.677213
0.232630
0.299580
0.777168
1.199623
1.127660
0.554917
-0.090757
-0.362556
-0.199789
0.083914
0.177856
0.079222
0.011700
0.116948
0.313516
0.451000
0.510299
0.590032
0.737691
0.890492
1.006274
1.175363
1.542394
2.124685
2.713822
2.960568
2.609712
1.713732
0.638669
-0.148833
-0.365150
-0.095484
0.263340
0.323453
0.035890
-0.305750
-0.394226
-0.224868
-0.078897
-0.185031
-0.416318
-0.395317
0.065704
0.700662
1.035730
0.869198
0.445771
0.163890
0.163628
0.227878
0.061344
-0.395032
-0.940814
-1.333873
-1.480189
-1.447228
-1.352416
-1.265567
-1.206723
-1.194000
-1.250251
-1.355960
-1.430711
-1.392173
-1.209424
-0.873476
-0.361345
0.316180
1.042233
1.612682
1.855395
1.740222
1.379549
0.934635
0.516447
0.152816
-0.169826
-0.451275
-0.666002
-0.789273
-0.832390
-0.855322
-0.925655
-1.044689
-1.106835
-0.943719
-0.452198
0.283417
1.007844
1.473284
1.634847
1.670523
1.787812
2.022779
2.255918
2.391372
2.454588
2.511306
2.554718
2.522111
2.410496
2.321657
2.350459
2.442702
2.411196
2.115850
1.613703
1.105255
0.739350
0.512301
0.352658
0.229267
0.143274
0.064248
-0.090022
-0.409534
-0.902901
-1.439631
-1.826172
-1.971201
-1.947590
-1.872486
-1.759206
-1.511280
-1.047856
-0.425616
0.149784
0.423647
0.236365
-0.364090
-1.127235
-1.752681
-2.071085
-2.099772
-1.969754
-1.830083
-1.791094
-1.902674
-2.147352
-2.426691
-2.568755
-2.430780
-2.049938
-1.648334
-1.441914
-1.474914
-1.658480
-1.900551
-2.140481
-2.317143
-2.398342
-2.426576
-2.453382
-2.429534
-2.226167
-1.772585
-1.144872
-0.536340
-0.165600
-0.178594
-0.570465
-1.163775
-1.693466
-1.977550
-2.016731
-1.901270
-1.658509
-1.258537
-0.746343
-0.295024
-0.102902
-0.233266
-0.537431
-0.741306
-0.638417
-0.222338
0.341339
0.848392
1.183911
1.357440
1.421592
1.374655
1.175812
0.837189
0.447334
0.098981
-0.158945
-0.273770
-0.146383
0.288335
0.935780
1.554689
1.938627
2.088588
2.176521
2.314121
2.403420
2.282643
1.981501
1.727412
1.682503
1.743056
1.636568
1.207709
0.604591
0.194360
0.295963
0.958192
1.942264
2.905674
3.632277
4.110671
4.415517
4.556996
4.478641
4.180480
3.786725
3.467216
3.301537
3.219235
3.070789
2.766154
2.353883
1.975319
1.745976
1.678796
1.712061
1.787966
1.886746
1.988811
2.030716
1.942683
1.745261
1.562308
1.489694
1.476035
1.386700
1.170581
0.913447
0.736033
0.684852
0.733561
0.863425
1.106570
1.490270
1.936411
2.233325
2.155500
1.664826
1.008655
0.583532
0.638584
1.068753
1.501068
1.606193
1.340309
0.911331
0.563127
0.411161
0.438632
0.581009
0.771289
0.922029
0.933755
0.776037
0.559559
0.489086
0.709687
1.199353
1.817380
2.421003
2.907556
3.193955
3.234538
3.083927
2.910438
2.895022
3.081469
3.334436
3.466152
3.398772
3.193736
2.945410
2.693386
2.456539
2.292139
2.245129
2.255016
2.185577
1.963471
1.647270
1.347571
1.122866
0.975123
0.889177
0.826227
0.714390
0.487412
0.124729
-0.339047
-0.817134
-1.198882
-1.412371
-1.468593
-1.435189
-1.355044
-1.187968
-0.847042
-0.299883
0.366345
0.964432
1.292836
1.246565
0.884787
0.408588
0.070786
0.042448
0.275473
0.501846
0.461367
0.173470
-0.059747
0.029488
0.359087
0.541126
0.256196
-0.444688
-1.206881
-1.678782
-1.733118
-1.458883
-1.027977
-0.598207
-0.303654
-0.267482
-0.565310
-1.165995
-1.936298
-2.695471
-3.242011
-3.400115
-3.147816
-2.683589
-2.263431
-1.935367
-1.500081
-0.789570
0.060939
0.695004
0.885810
0.746762
0.569915
0.501073
0.440132
0.266056
0.081964
0.151613
0.594639
1.232398
1.775516
2.083203
2.175746
2.065649
1.678543
0.958165
0.031692
-0.745678
-0.969190
-0.503705
0.323546
0.919634
0.926729
0.518665
0.162304
0.171827
0.540322
1.065910
1.513986
1.700672
1.543132
1.120610
0.702751
0.633254
1.064327
1.789507
2.403067
2.622075
2.430559
1.986722
1.486318
1.112354
1.009924
1.196291
1.509292
1.734977
1.789392
1.735411
1.663229
1.607203
1.541793
1.401321
1.115400
0.660178
0.080649
-0.534490
-1.089452
-1.497707
-1.685837
-1.615770
-1.326440
-0.944562
-0.632169
-0.502778
-0.557881
-0.683329
-0.713519
-0.515687
-0.045092
0.639181
1.404018
2.100289
2.604196
2.849157
2.873303
2.819943
2.829912
2.912832
2.932517
2.719702
2.223349
1.587935
1.074358
0.869138
0.955452
1.163836
1.324662
1.361515
1.275059
1.082087
0.788934
0.435662
0.145751
0.069036
0.249624
0.570285
0.824982
0.845946
0.596757
0.172051
-0.281813
-0.641907
-0.827653
-0.787787
-0.511512
-0.070087
0.384501
0.701654
0.821089
0.793148
0.734037
0.753052
0.894403
1.127236
1.380399
1.592114
1.737494
1.812443
1.800648
1.673023
1.420939
1.068245
0.641995
0.158116
-0.349481
-0.804765
-1.112676
-1.219699
-1.157024
-1.011333
-0.854214
-0.713040
-0.593263
-0.500848
-0.445141
-0.434290
-0.463623
-0.488468
-0.404590
-0.091511
0.486361
1.219712
1.906551
2.374294
2.568886
2.550757
2.435035
2.340990
2.359814
2.533824
2.854360
3.261585
3.636705
3.834125
3.779854
3.547952
3.305437
3.167270
3.116352
3.055588
2.919091
2.740829
2.626912
2.653979
2.790705
2.924999
2.965229
2.903296
2.787607
2.670953
2.602427
2.639085
2.826766
3.154976
3.521432
3.745927
3.667984
3.293710
2.859621
2.697325
2.965239
3.494706
3.923816
3.991769
3.707772
3.275609
2.892483
2.602101
2.300541
1.862722
1.263288
0.600097
0.036601
-0.278863
-0.288592
-0.074731
0.167610
0.253388
0.137544
-0.071430
-0.218905
-0.226443
-0.137553
-0.067272
-0.102413
-0.238609
-0.405045
-0.541097
-0.649682
-0.786284
-1.001525
-1.296879
-1.632997
-1.961165
-2.238616
-2.440501
-2.572242
-2.645889
-2.637444
-2.500220
-2.229724
-1.885914
-1.543716
-1.238548
-0.954543
-0.652021
-0.313332
0.033128
0.337875
0.573098
0.744674
0.864547
0.913175
0.837065
0.601165
0.251723
-0.083954
-0.274561
-0.270639
-0.134623
-0.004416
0.003230
-0.101053
-0.177701
-0.090200
0.164327
0.457574
0.640217
0.636928
0.463300
0.196159
-0.072301
-0.285763
-0.438729
-0.529849
-0.511525
-0.315667
0.054782
0.475196
0.770800
0.854077
0.787476
0.715841
0.749959
0.899403
1.079805
1.176730
1.127709
0.954251
0.708306
0.397319
-0.013986
-0.515229
-0.977867
-1.204255
-1.068545
-0.609234
0.003142
0.582336
1.047998
1.455259
1.878873
2.275253
2.507448
2.506813
2.369574
2.284766
2.384010
2.666658
3.054291
3.484776
3.933698
4.368841
4.730358
4.973975
5.114680
5.205062
5.270407
5.279375
5.184115
4.980228
4.716451
4.444339
4.170169
3.870046
3.549532
3.270941
3.109471
3.084413
3.138682
3.181086
3.150692
3.064784
3.015244
3.088391
3.259605
3.377154
3.272836
2.893741
2.329019
1.722301
1.164339
0.661680
0.194999
-0.210589
-0.492105
-0.630097
-0.703211
-0.837583
-1.102284
-1.461053
-1.813363
-2.068314
-2.186611
-2.176686
-2.072493
-1.914349
-1.734728
-1.548659
-1.351473
-1.132588
-0.905778
-0.728147
-0.677011
-0.791438
-1.029873
-1.296492
-1.517914
-1.687809
-1.838891
-1.991382
-2.135902
-2.247219
-2.299690
-2.277567
-2.184166
-2.047715
-1.917717
-1.849711
-1.883430
-2.017507
-2.194025
-2.322749
-2.344166
-2.277825
-2.209002
-2.225795
-2.354757
-2.534701
-2.650706
-2.614963
-2.427239
-2.160474
-1.901535
-1.708242
-1.593305
-1.518700
-1.412741
-1.226153
-0.987308
-0.789769
-0.716061
-0.776236
-0.911735
-1.041193
-1.103423
-1.074589
-0.958676
-0.770529
-0.536823
-0.311039
-0.169803
-0.176408
-0.338423
-0.595685
-0.847838
-1.003545
-1.022839
-0.927840
-0.781445
-0.655134
-0.597438
-0.609733
-0.653576
-0.695975
-0.742814
-0.814498
-0.901929
-0.970342
-0.996780
-0.979607
-0.917707
-0.800309
-0.619086
-0.385747
-0.135457
0.097049
0.307872
0.512944
0.700004
0.810245
0.774722
0.563217
0.212045
-0.176598
-0.472891
-0.591699
-0.552277
-0.457206
-0.391220
-0.342533
-0.233576
-0.023801
0.224789
0.379789
0.332901
0.072172
-0.324544
-0.757689
-1.169523
-1.557759
-1.944533
-2.331613
-2.674988
-2.898670
-2.940762
-2.805462
-2.586728
-2.432031
-2.455887
-2.670685
-2.993070
-3.311607
-3.558592
-3.742547
-3.925463
-4.161186
-4.445448
-4.718316
-4.908023
-4.977257
-4.941803
-4.852481
-4.762189
-4.709665
-4.716262
-4.772386
-4.827547
-4.815316
-4.697280
-4.482973
-4.213894
-3.932018
-3.663077
-3.428566
-3.262595
-3.201150
-3.247421
-3.349965
-3.423531
-3.404562
-3.302425
-3.201830
-3.198772
-3.313987
-3.463439
-3.515825
-3.384068
-3.072358
-2.649721
-2.188434
-1.729193
-1.298329
-0.941127
-0.716619
-0.648885
-0.687920
-0.731690
-0.700400
-0.594720
-0.478940
-0.404833
-0.351212
-0.239374
-0.014456
0.282596
0.527263
0.604763
0.500878
0.311119
0.168191
0.154912
0.269581
0.455578
0.650198
0.804330
0.873495
0.815340
0.606807
0.261725
-0.166636
-0.597463
-0.945464
-1.153112
-1.221352
-1.212196
-1.207372
-1.252518
-1.337539
-1.425830
-1.495655
-1.556003
-1.635839
-1.761876
-1.933008
-2.110163
-2.244937
-2.325761
-2.385592
-2.461715
-2.560400
-2.662782
-2.750358
-2.816154
-2.859643
-2.883260
-2.896491
-2.917019
-2.962705
-3.042502
-3.154629
-3.292101
-3.450991
-3.633038
-3.839444
-4.066558
-4.311091
-4.575721
-4.863532
-5.162799
-5.437219
-5.636163
-5.720918
-5.685693
-5.556247
-5.370618
-5.161155
-4.949608
-4.750413
-4.570810
-4.405781
-4.239294
-4.060798
-3.885986
-3.756424
-3.707251
-3.729645
-3.769169
-3.764690
-3.689732
-3.561196
-3.416698
-3.288706
-3.198924
-3.168771
-3.223100
-3.372596
-3.586211
-3.789117
-3.909930
-3.941434
-3.943551
-3.977100
-4.041599
-4.080413
-4.037779
-3.908475
-3.736395
-3.571464
-3.436810
-3.331927
-3.248953
-3.180179
-3.115894
-3.040759
-2.939751
-2.811828
-2.674288
-2.550387
-2.453377
-2.384139
-2.341162
-2.325801
-2.336446
-2.360934
-2.374843
-2.349854
-2.273240
-2.164456
-2.067473
-2.019057
-2.022064
-2.050785
-2.078853
-2.095117
-2.093884
-2.061255
-1.981714
-1.860869
-1.734745
-1.644071
-1.592518
-1.534035
-1.408934
-1.198631
-0.948187
-0.732397
-0.594955
-0.520302
-0.462898
-0.396349
-0.331871
-0.298432
-0.315210
-0.383150
-0.495467
-0.648287
-0.835006
-1.031096
-1.193258
-1.279054
-1.268511
-1.174730
-1.043110
-0.936700
-0.909508
-0.982359
-1.134693
-1.315964
-1.473702
-1.580826
-1.637707
-1.650626
-1.616010
-1.528631
-1.399766
-1.260625
-1.146285
-1.075898
-1.044385
-1.031278
-1.022274
-1.025731
-1.065333
-1.153833
-1.274623
-1.389148
-1.462880
-1.488244
-1.486338
-1.485645
-1.496966
-1.509980
-1.514326
-1.517613
-1.535404
-1.565630
-1.580721
-1.545822
-1.440239
-1.264346
-1.035126
-0.776267
-0.505628
-0.230665
0.041642
0.294453
0.503627
0.644699
0.697022
0.652050
0.523428
0.346450
0.167902
0.037005
-0.001957
0.077185
0.265074
0.512080
0.750415
0.930936
1.044124
1.110579
1.155948
1.195411
1.237600
1.294911
1.381953
1.501627
1.635172
1.748989
1.814592
1.825579
1.798548
1.758935
1.722148
1.681264
1.610456
1.484428
1.299152
1.075668
0.844973
0.630014
0.440217
0.278906
0.152908
0.074882
0.055019
0.087213
0.143361
0.184269
0.180402
0.128046
0.047877
-0.036157
-0.120429
-0.224065
-0.365568
-0.534052
-0.683715
-0.762711
-0.753574
-0.686967
-0.615824
-0.574675
-0.560598
-0.548363
-0.518059
-0.467095
-0.402391
-0.327918
-0.239986
-0.132677
-0.008799
0.115982
0.224810
0.315408
0.398267
0.475851
0.526647
0.513101
0.405038
0.198581
-0.077916
-0.371170
-0.623690
-0.799885
-0.899187
-0.946719
-0.971396
-0.986417
-0.982707
-0.941792
-0.860269
-0.761411
-0.679285
-0.631482
-0.608048
-0.584310
-0.542408
-0.483205
-0.422198
-0.375031
-0.343796
-0.314845
-0.269785
-0.197701
-0.097163
0.027707
0.168783
0.316216
0.464748
0.615763
0.768530
0.909412
1.015082
1.074017
1.107275
1.160502
1.266593
1.415781
1.564551
1.672846
1.734752
1.779114
1.843165
1.943784
2.070280
2.200420
2.320705
2.430543
2.529355
2.607752
2.657747
2.687152
2.716641
2.762923
2.825905
2.887726
2.921424
2.905915
2.839988
2.743121
2.640403
2.545561
2.454851
2.351549
2.217911
2.050969
1.870338
1.707112
1.582273
1.496785
1.440570
1.403811
1.376593
1.343819
1.288827
1.206219
1.112118
1.040085
1.021477
1.062817
1.138991
1.211322
1.257848
1.289683
1.338405
1.425321
1.539728
1.644782
1.704525
1.708258
1.673367
1.628553
1.595947
1.585287
1.597400
1.630264
1.684569
1.765165
1.876947
2.019703
2.185992
2.359741
2.512536
2.603078
2.589184
2.448577
2.190459
1.847733
1.459721
1.060593
0.677633
0.333316
0.045204
-0.176921
-0.333994
-0.438328
-0.510503
-0.572115
-0.636190
-0.699496
-0.743078
-0.744819
-0.697462
-0.617231
-0.534398
-0.472461
-0.432752
-0.398610
-0.356718
-0.315026
-0.298765
-0.329977
-0.412729
-0.534910
-0.677287
-0.817529
-0.928392
-0.980229
-0.956559
-0.871883
-0.766689
-0.675651
-0.600366
-0.516753
-0.406425
-0.274876
-0.140491
-0.013686
0.110097
0.240632
0.379840
0.518982
0.647117
0.760176
0.861985
0.958822
1.053261
1.140569
1.209374
1.247857
1.252975
1.236034
1.218954
1.222245
1.254150
1.310442
1.382184
1.461777
1.545162
1.632656
1.726373
1.823636
1.914267
1.988090
2.045711
2.099249
2.159590
2.222172
2.268202
2.283061
2.271914
2.253006
2.236259
2.213558
2.171453
2.109638
2.044180
1.992394
1.954024
1.906521
1.819341
1.674863
1.478784
1.254108
1.026946
0.816999
0.637055
0.493445
0.382252
0.289675
0.201598
0.111270
0.017075
-0.081060
-0.178484
-0.261587
-0.310963
-0.310978
-0.258731
-0.167271
-0.061103
0.035353
0.110935
0.172883
0.237687
0.313773
0.390634
0.442798
0.444639
0.384762
0.269638
0.115176
-0.064272
-0.257867
-0.450087
-0.615079
-0.725214
-0.766985
-0.746473
-0.681115
-0.592092
-0.504742
-0.447742
-0.443632
-0.496430
-0.586959
-0.682369
-0.756078
-0.802990
-0.837253
-0.876568
-0.928769
-0.990774
-1.056022
-1.120810
-1.186190
-1.256807
-1.336741
-1.424682
-1.513884
-1.597163
-1.670875
-1.733211
-1.779540
-1.803037
-1.802399
-1.786688
-1.770371
-1.764469
-1.771570
-1.786471
-1.801302
-1.810371
-1.808400
-1.784321
-1.721806
-1.611718
-1.466569
-1.320893
-1.212025
-1.154995
-1.133096
-1.111660
-1.062638
-0.981799
-0.889135
-0.815581
-0.785744
-0.804934
-0.855681
-0.905831
-0.924287
-0.896084
-0.829646
-0.752053
-0.693851
-0.673184
-0.689122
-0.725291
-0.759691
-0.775944
-0.770154
-0.749974
-0.728617
-0.718779
-0.727859
-0.754622
-0.790245
-0.824874
-0.853436
-0.874613
-0.886533
-0.886351
-0.873243
-0.850020
-0.822384
-0.797146
-0.779837
-0.772319
-0.771043
-0.766692
-0.746963
-0.702901
-0.635108
-0.554045
-0.471852
-0.391319
-0.303230
-0.197035
-0.075630
0.041179
0.129322
0.177113
0.191383
0.191775
0.200440
0.232339
0.290527
0.369596
0.462005
0.559315
0.650197
0.722692
0.771061
0.799614
0.817602
0.829063
0.828273
0.806129
0.761034
0.703305
0.649395
0.611511
0.590226
0.573987
0.545881
0.494787
0.423939
0.349766
0.291556
0.260088
