EVENT_NAME: EMILIA_2ND_SHOCK
EVENT_ID: IT-2012-0011
EVENT_DATE_YYYYMMDD: 20120529
EVENT_TIME_HHMMSS: 070002
EVENT_LATITUDE_DEGREE: 44.8417
EVENT_LONGITUDE_DEGREE: 11.0657
EVENT_DEPTH_KM: 8.1
HYPOCENTER_REFERENCE: INGV-CNT_Seismic_Bulletin
MAGNITUDE_W: 6.0
MAGNITUDE_W_REFERENCE: RCMT-INGV
MAGNITUDE_L: 5.8
MAGNITUDE_L_REFERENCE: INGV-CNT_Seismic_Bulletin
FOCAL_MECHANISM: TF
NETWORK: TV
STATION_CODE: MIR08
STATION_NAME: QUARANTOLI 2
STATION_LATITUDE_DEGREE: 44.916900
STATION_LONGITUDE_DEGREE: 11.089500
STATION_ELEVATION_M: 
LOCATION: 
SENSOR_DEPTH_M: 
VS30_M/S: 
SITE_CLASSIFICATION_EC8: C*
MORPHOLOGIC_CLASSIFICATION: 
EPICENTRAL_DISTANCE_KM: 8.6
EARTHQUAKE_BACKAZIMUTH_DEGREE: 192.7
DATE_TIME_FIRST_SAMPLE_YYYYMMDD_HHMMSS: 20120529_065929.000
DATE_TIME_FIRST_SAMPLE_PRECISION: milliseconds
SAMPLING_INTERVAL_S: 0.005000
NDATA: 34001
DURATION_S: 170.005
STREAM: HNN
UNITS: cm/s
INSTRUMENT: sensor = Episensor FBA ES-T [Kinemetrics] | digitizer = Unknown [Unknown]
INSTRUMENT_ANALOG/DIGITAL: D
INSTRUMENTAL_FREQUENCY_HZ: 
INSTRUMENTAL_DAMPING: 
FULL_SCALE_G: 
N_BIT_DIGITAL_CONVERTER: 
PGV_CM/S: -32.452384
TIME_PGV_S: 41.685000
BASELINE_CORRECTION: BASELINE REMOVED
FILTER_TYPE: BUTTERWORTH
FILTER_ORDER: 2
LOW_CUT_FREQUENCY_HZ: 0.050
HIGH_CUT_FREQUENCY_HZ: 40.000
LATE/NORMAL_TRIGGERED: NT
DATABASE_VERSION: DYNA 1.0
HEADER_FORMAT: DYNA 1.2
DATA_TYPE: VELOCITY
PROCESSING: manual (Paolucci et al., 2011)
DATA_TIMESTAMP_YYYYMMDD_HHMMSS: 
DATA_LICENSE: CC-BY4_0 (http://creativecommons.org/licenses/by/4.0/)
DATA_CITATION: ESM working group (2015), European Strong-Motion database, version 0.1, Network Activity 3: Networking acceleration networks and SM data users. Project NERA (www.nera-eu.org)
DATA_CREATOR: ESM working group
ORIGINAL_DATA_MEDIATOR_CITATION: Orfeus - European Integrated Data Archive (EIDA) http://www.orfeus-eu.org/eida/
ORIGINAL_DATA_MEDIATOR: Orfeus - European Integrated Data Archive (EIDA)
ORIGINAL_DATA_CREATOR_CITATION: 
ORIGINAL_DATA_CREATOR: network: TV (INGV Experiments Network); owner: Istituto Nazionale di Geofisica e Vulcanologia
USER1: 
USER2: 
USER3: 
USER4: 
USER5: 
[...]
-0.180969
-0.181157
-0.181279
-0.181356
-0.181430
-0.181542
-0.181699
-0.181876
-0.182036
-0.182163
-0.182277
-0.182410
-0.182570
-0.182730
-0.182859
-0.182951
-0.183026
-0.183114
-0.183237
-0.183389
-0.183550
-0.183697
-0.183818
-0.183926
-0.184044
-0.184185
-0.184348
-0.184537
-0.184749
-0.184964
-0.185149
-0.185287
-0.185393
-0.185494
-0.185614
-0.185761
-0.185935
-0.186134
-0.186341
-0.186525
-0.186658
-0.186744
-0.186809
-0.186883
-0.186985
-0.187121
-0.187282
-0.187456
-0.187640
-0.187846
-0.188078
-0.188309
-0.188497
-0.188618
-0.188685
-0.188738
-0.188810
-0.188908
-0.189022
-0.189147
-0.189284
-0.189426
-0.189563
-0.189694
-0.189833
-0.189996
-0.190181
-0.190371
-0.190544
-0.190687
-0.190795
-0.190862
-0.190892
-0.190898
-0.190903
-0.190940
-0.191046
-0.191242
-0.191508
-0.191795
-0.192048
-0.192235
-0.192363
-0.192454
-0.192540
-0.192640
-0.192757
-0.192871
-0.192967
-0.193052
-0.193154
-0.193296
-0.193476
-0.193667
-0.193838
-0.193982
-0.194108
-0.194232
-0.194364
-0.194508
-0.194665
-0.194834
-0.194998
-0.195140
-0.195256
-0.195355
-0.195443
-0.195537
-0.195663
-0.195843
-0.196065
-0.196286
-0.196459
-0.196572
-0.196644
-0.196698
-0.196748
-0.196812
-0.196909
-0.197029
-0.197151
-0.197265
-0.197388
-0.197540
-0.197714
-0.197880
-0.198017
-0.198122
-0.198204
-0.198277
-0.198355
-0.198448
-0.198561
-0.198691
-0.198829
-0.198960
-0.199077
-0.199186
-0.199306
-0.199453
-0.199624
-0.199802
-0.199968
-0.200108
-0.200207
-0.200253
-0.200254
-0.200252
-0.200305
-0.200445
-0.200662
-0.200913
-0.201151
-0.201346
-0.201485
-0.201570
-0.201609
-0.201631
-0.201672
-0.201760
-0.201890
-0.202048
-0.202224
-0.202417
-0.202613
-0.202789
-0.202930
-0.203041
-0.203132
-0.203208
-0.203273
-0.203342
-0.203433
-0.203560
-0.203718
-0.203891
-0.204049
-0.204159
-0.204222
-0.204280
-0.204382
-0.204548
-0.204752
-0.204951
-0.205113
-0.205219
-0.205267
-0.205273
-0.205281
-0.205331
-0.205436
-0.205580
-0.205735
-0.205884
-0.206019
-0.206139
-0.206253
-0.206362
-0.206460
-0.206542
-0.206615
-0.206696
-0.206800
-0.206932
-0.207086
-0.207246
-0.207391
-0.207501
-0.207575
-0.207620
-0.207658
-0.207713
-0.207802
-0.207922
-0.208044
-0.208142
-0.208212
-0.208275
-0.208347
-0.208436
-0.208543
-0.208670
-0.208813
-0.208948
-0.209058
-0.209138
-0.209200
-0.209256
-0.209311
-0.209366
-0.209422
-0.209477
-0.209532
-0.209590
-0.209668
-0.209776
-0.209910
-0.210051
-0.210185
-0.210303
-0.210409
-0.210514
-0.210630
-0.210758
-0.210878
-0.210969
-0.211035
-0.211105
-0.211204
-0.211326
-0.211453
-0.211571
-0.211682
-0.211796
-0.211924
-0.212067
-0.212210
-0.212337
-0.212435
-0.212506
-0.212568
-0.212637
-0.212721
-0.212819
-0.212927
-0.213039
-0.213142
-0.213225
-0.213283
-0.213331
-0.213390
-0.213481
-0.213601
-0.213736
-0.213865
-0.213974
-0.214055
-0.214108
-0.214142
-0.214167
-0.214193
-0.214230
-0.214295
-0.214399
-0.214532
-0.214663
-0.214767
-0.214843
-0.214903
-0.214953
-0.214989
-0.215017
-0.215059
-0.215135
-0.215243
-0.215356
-0.215451
-0.215526
-0.215601
-0.215699
-0.215820
-0.215942
-0.216039
-0.216091
-0.216096
-0.216066
-0.216023
-0.215996
-0.216018
-0.216110
-0.216261
-0.216445
-0.216626
-0.216779
-0.216889
-0.216955
-0.216993
-0.217029
-0.217080
-0.217155
-0.217251
-0.217345
-0.217405
-0.217425
-0.217429
-0.217440
-0.217454
-0.217472
-0.217523
-0.217641
-0.217817
-0.217981
-0.218042
-0.217942
-0.217670
-0.217250
-0.216716
-0.216115
-0.215497
-0.214889
-0.214279
-0.213647
-0.212999
-0.212324
-0.211505
-0.210377
-0.208928
-0.207352
-0.205777
-0.203991
-0.201616
-0.198615
-0.195492
-0.192886
-0.191053
-0.189817
-0.188811
-0.187534
-0.185390
-0.182146
-0.178457
-0.175455
-0.173625
-0.172467
-0.171379
-0.170405
-0.169898
-0.169894
-0.170141
-0.170551
-0.171180
-0.171770
-0.171804
-0.171282
-0.171123
-0.172449
-0.175618
-0.179958
-0.183991
-0.186039
-0.185325
-0.182828
-0.180886
-0.181814
-0.186965
-0.196767
-0.210866
-0.227425
-0.241940
-0.248087
-0.242328
-0.228343
-0.214997
-0.209242
-0.212052
-0.220630
-0.232196
-0.244203
-0.251970
-0.250033
-0.238627
-0.225967
-0.220780
-0.224654
-0.233308
-0.241453
-0.243871
-0.236230
-0.219281
-0.199672
-0.183784
-0.174343
-0.174410
-0.187860
-0.212099
-0.235089
-0.242900
-0.229321
-0.199725
-0.167274
-0.143478
-0.132192
-0.132631
-0.142194
-0.153630
-0.156659
-0.146559
-0.128035
-0.111708
-0.109547
-0.128387
-0.161967
-0.192025
-0.201664
-0.187525
-0.159687
-0.133511
-0.121747
-0.129433
-0.152097
-0.177799
-0.192209
-0.185888
-0.160652
-0.128664
-0.103724
-0.093038
-0.095476
-0.104566
-0.113035
-0.118163
-0.125039
-0.141971
-0.170723
-0.203107
-0.225893
-0.226662
-0.200694
-0.157807
-0.117283
-0.091787
-0.080276
-0.076352
-0.076204
-0.077220
-0.075198
-0.067208
-0.057811
-0.061266
-0.091349
-0.141706
-0.180698
-0.177855
-0.135238
-0.083639
-0.051869
-0.049170
-0.070157
-0.102286
-0.128563
-0.133381
-0.112333
-0.077821
-0.053377
-0.058199
-0.094094
-0.146167
-0.193534
-0.219400
-0.218147
-0.199139
-0.180458
-0.173595
-0.175083
-0.173089
-0.157425
-0.124345
-0.079811
-0.039903
-0.022518
-0.035882
-0.075327
-0.129508
-0.186458
-0.232950
-0.253864
-0.240594
-0.201702
-0.160008
-0.134412
-0.124278
-0.114233
-0.092791
-0.059875
-0.016473
0.040989
0.107222
0.156239
0.155979
0.098497
0.010299
-0.071567
-0.129753
-0.167894
-0.188805
-0.185162
-0.153535
-0.105990
-0.059199
-0.016970
0.026196
0.065031
0.079873
0.059795
0.019922
-0.013378
-0.026365
-0.016881
0.018280
0.073579
0.115500
0.098093
0.008252
-0.116567
-0.221280
-0.274696
-0.277563
-0.243549
-0.184008
-0.109210
-0.033636
0.027400
0.065559
0.080818
0.076280
0.053845
0.012571
-0.048745
-0.120462
-0.173483
-0.173430
-0.109853
-0.005857
0.103132
0.191947
0.244394
0.244072
0.186211
0.100486
0.043940
0.057995
0.136813
0.241022
0.331540
0.383394
0.380950
0.320906
0.225088
0.138990
0.104898
0.132749
0.201280
0.284459
0.363631
0.416390
0.418344
0.368942
0.302461
0.258780
0.244237
0.230052
0.191716
0.140985
0.110094
0.109838
0.116901
0.104729
0.075561
0.055138
0.063244
0.099146
0.152538
0.216438
0.285140
0.345739
0.378402
0.369251
0.323344
0.260836
0.200136
0.148222
0.103500
0.061673
0.021814
-0.007635
-0.009275
0.035086
0.131873
0.262057
0.381089
0.444072
0.434401
0.366385
0.268211
0.169449
0.097799
0.074978
0.106894
0.175731
0.247257
0.291304
0.293593
0.249407
0.161411
0.056450
-0.011263
0.000364
0.080865
0.179010
0.245686
0.257615
0.216080
0.140941
0.065012
0.021266
0.024796
0.063013
0.104769
0.124843
0.121094
0.106754
0.096113
0.103693
0.141499
0.205017
0.272476
0.326623
0.371064
0.422206
0.489366
0.562456
0.619322
0.648623
0.660749
0.670484
0.677227
0.671019
0.648890
0.614402
0.572101
0.536889
0.540157
0.611195
0.750208
0.923339
1.086119
1.207807
1.269260
1.253736
1.164229
1.044069
0.954314
0.923927
0.929747
0.923457
0.873814
0.788003
0.699578
0.637166
0.603949
0.586040
0.573809
0.568225
0.571205
0.581105
0.599622
0.633659
0.686757
0.755358
0.830997
0.894511
0.912833
0.861976
0.757206
0.643567
0.553364
0.488583
0.445916
0.440954
0.494477
0.596749
0.701884
0.769633
0.800609
0.819211
0.837613
0.851913
0.862996
0.881405
0.907356
0.922150
0.916502
0.918437
0.970645
1.084205
1.234270
1.391305
1.529073
1.603998
1.559348
1.376571
1.116855
0.882558
0.728878
0.642818
0.614844
0.673719
0.816038
0.957219
1.009083
0.980196
0.953124
0.977094
1.029684
1.080064
1.136028
1.206061
1.246810
1.186180
1.007293
0.786543
0.630419
0.591948
0.658669
0.787376
0.921402
0.996689
0.969577
0.845174
0.669767
0.503497
0.402795
0.405012
0.510564
0.681290
0.861538
1.013064
1.142098
1.284121
1.455634
1.632059
1.768991
1.830225
1.803874
1.709802
1.591842
1.491831
1.432285
1.427779
1.486586
1.579759
1.639522
1.618648
1.536132
1.448278
1.389357
1.357179
1.341870
1.334676
1.311879
1.254269
1.189478
1.177519
1.247155
1.364100
1.460817
1.493426
1.468801
1.418669
1.369609
1.348016
1.383285
1.481868
1.612470
1.725500
1.767835
1.688115
1.476734
1.205556
0.987698
0.895868
0.940588
1.108056
1.379098
1.705783
2.000918
2.171553
2.165004
2.003105
1.787219
1.641558
1.632132
1.752422
1.960578
2.185971
2.336277
2.363576
2.303352
2.207007
2.073064
1.884387
1.670146
1.484857
1.354057
1.272785
1.229729
1.205775
1.173723
1.127103
1.101281
1.151040
1.303317
1.528316
1.756861
1.931462
2.037589
2.082903
2.064523
1.975048
1.826814
1.641816
1.418483
1.136777
0.811381
0.527249
0.399482
0.484800
0.739302
1.066137
1.380371
1.617793
1.725559
1.690207
1.557911
1.389627
1.205901
1.002557
0.807396
0.688486
0.693320
0.792100
0.912985
1.041977
1.240763
1.538923
1.863383
2.120462
2.305361
2.478798
2.663469
2.819105
2.909683
2.945316
2.953864
2.948459
2.937530
2.945952
3.003539
3.113407
3.247804
3.375896
3.481194
3.557879
3.614960
3.684952
3.804742
3.972224
4.123100
4.166355
4.060646
3.858807
3.677265
3.623615
3.737918
3.982271
4.281935
4.570894
4.783038
4.820019
4.598139
4.160416
3.688662
3.361230
3.230427
3.254309
3.388565
3.601888
3.833458
3.987661
3.990988
3.854105
3.667840
3.525007
3.449439
3.410904
3.393119
3.417030
3.497470
3.607632
3.706668
3.796451
3.932196
4.162397
4.463506
4.749080
4.945237
5.048704
5.106933
5.151184
5.169535
5.147914
5.108225
5.084427
5.080312
5.077127
5.068643
5.056596
5.019932
4.926381
4.780984
4.638874
4.556883
4.539187
4.543806
4.537151
4.515110
4.474253
4.403508
4.316293
4.262997
4.291426
4.399978
4.542065
4.671489
4.769750
4.840650
4.903971
4.992824
5.131171
5.301203
5.448305
5.531692
5.552733
5.522932
5.441828
5.337179
5.294660
5.402916
5.666907
5.995276
6.281407
6.489779
6.658179
6.832298
7.025308
7.241837
7.503227
7.810537
8.088200
8.208570
8.104266
7.843671
7.571612
7.383765
7.278481
7.219292
7.207527
7.275257
7.423354
7.589830
7.690734
7.695872
7.657369
7.656356
7.730301
7.857779
7.996429
8.120991
8.232140
8.337628
8.427554
8.475727
8.464820
8.394425
8.260404
8.044311
7.736686
7.362752
6.972327
6.607980
6.294503
6.056983
5.933044
5.953572
6.108766
6.340637
6.577544
6.773669
6.907178
6.949877
6.863108
6.633691
6.303289
5.945738
5.605982
5.266252
4.881629
4.446958
4.020197
3.680308
3.476054
3.424288
3.535819
3.806652
4.180566
4.551099
4.820467
4.953385
4.974191
4.922412
4.817070
4.662672
4.477622
4.295373
4.133663
3.980515
3.815848
3.632116
3.429530
3.205136
2.955233
2.683403
2.402922
2.134494
1.900088
1.713592
1.575926
1.477470
1.398792
1.306025
1.152763
0.896064
0.518165
0.042992
-0.462126
-0.900125
-1.157835
-1.128853
-0.773085
-0.167510
0.533233
1.195205
1.755398
2.200736
2.533208
2.756969
2.883478
2.939102
2.960218
2.973231
2.974790
2.930938
2.800120
2.567412
2.267873
1.982905
1.809033
1.813100
2.001762
2.329713
2.736302
3.173298
3.605248
3.999434
4.328015
4.582991
4.786579
4.980930
5.203290
5.471994
5.790934
6.154809
6.549511
6.958395
7.373329
7.798795
8.246238
8.727395
9.253690
9.836113
10.476250
11.154880
11.835610
12.483880
13.082990
13.637860
14.164860
14.657060
15.043460
15.208540
15.086630
14.724710
14.227740
13.670080
13.096860
12.578470
12.200970
11.991780
11.878180
11.733580
11.464930
11.051690
10.515730
9.886923
9.202625
8.510410
7.854828
7.270073
6.790638
6.462379
6.331914
6.417869
6.697582
7.123151
7.633632
8.145998
8.556693
8.771148
8.736276
8.456591
7.994024
7.447673
6.916542
6.467666
6.125789
5.881925
5.713943
5.605176
5.542560
5.503668
5.464871
5.425978
5.406835
5.412587
5.421671
5.413411
5.381751
5.307946
5.144982
4.856217
4.461614
4.024894
3.599433
3.207277
2.866660
2.606395
2.435441
2.316611
2.192988
2.042740
1.895838
1.787368
1.702541
1.581967
1.376208
1.077134
0.693070
0.214773
-0.373286
-1.053891
-1.767087
-2.442656
-3.040687
-3.566712
-4.052242
-4.522881
-4.994423
-5.495812
-6.065760
-6.711049
-7.383724
-8.008584
-8.526443
-8.912800
-9.172330
-9.335442
-9.462714
-9.633156
-9.906985
-10.291120
-10.740320
-11.189620
-11.578890
-11.849960
-11.944360
-11.827100
-11.514870
-11.069010
-10.550780
-9.984291
-9.370066
-8.725255
-8.088947
-7.490830
-6.941442
-6.455246
-6.054899
-5.741483
-5.479847
-5.232421
-5.007478
-4.862182
-4.851863
-4.984625
-5.232782
-5.577062
-6.021171
-6.561041
-7.155376
-7.742224
-8.286933
-8.804331
-9.329304
-9.876821
-10.440720
-11.022690
-11.647410
-12.345100
-13.123060
-13.958120
-14.815250
-15.669200
-16.507429
-17.317690
-18.083019
-18.797689
-19.482950
-20.171810
-20.869320
-21.527390
-22.065001
-22.426750
-22.630520
-22.754721
-22.879881
-23.053989
-23.307699
-23.668550
-24.141081
-24.690550
-25.264059
-25.825411
-26.364920
-26.878710
-27.347731
-27.749060
-28.085581
-28.385429
-28.666750
-28.918859
-29.123480
-29.280001
-29.403799
-29.512011
-29.618570
-29.735020
-29.867451
-30.015659
-30.181179
-30.374660
-30.611601
-30.899851
-31.230930
-31.580469
-31.913639
-32.190620
-32.375832
-32.452381
-32.426800
-32.315552
-32.132351
-31.889910
-31.601110
-31.269871
-30.886200
-30.431810
-29.884211
-29.217890
-28.415529
-27.486530
-26.472099
-25.430389
-24.415300
-23.463079
-22.591591
-21.807030
-21.109671
-20.495171
-19.953859
-19.471451
-19.033180
-18.629690
-18.256571
-17.904400
-17.550810
-17.166800
-16.729330
-16.225349
-15.651620
-15.021310
-14.368450
-13.737190
-13.164700
-12.672480
-12.262770
-11.914480
-11.590040
-11.258460
-10.913630
-10.569090
-10.241210
-9.940418
-9.669236
-9.419794
-9.175062
-8.915391
-8.621267
-8.274386
-7.867897
-7.416278
-6.945704
-6.471766
-5.988258
-5.473918
-4.905911
-4.270221
-3.570830
-2.849092
-2.211135
-1.818681
-1.796961
-2.121819
-2.633933
-3.187064
-3.739657
-4.293800
-4.818733
-5.272316
-5.653236
-5.995314
-6.323943
-6.641244
-6.950130
-7.270673
-7.626938
-8.031470
-8.488753
-9.005996
-9.592862
-10.249960
-10.960220
-11.693680
-12.425210
-13.153770
-13.905290
-14.714990
-15.601850
-16.537029
-17.411510
-18.055639
-18.350241
-18.334471
-18.162781
-17.955360
-17.740730
-17.525579
-17.340469
-17.205879
-17.104679
-16.999640
-16.854820
-16.640381
-16.335529
-15.933680
-15.444050
-14.893900
-14.330680
-13.815610
-13.411700
-13.172920
-13.132420
-13.288420
-13.597750
-13.991330
-14.405530
-14.802810
-15.170060
-15.508490
-15.827000
-16.135160
-16.430670
-16.687840
-16.857740
-16.883459
-16.725840
-16.386181
-15.906510
-15.342300
-14.731390
-14.088580
-13.424960
-12.760280
-12.110700
-11.472780
-10.826920
-10.151140
-9.428069
-8.648190
-7.816771
-6.957319
-6.104727
-5.293649
-4.548545
-3.874702
-3.257319
-2.685866
-2.185291
-1.794369
-1.495619
-1.198194
-0.812116
-0.313405
0.272596
0.915600
1.594737
2.298885
3.030917
3.801741
4.612510
5.444785
6.267690
7.053506
7.789923
8.480550
9.134944
9.760490
10.362140
10.942550
11.500330
12.034700
12.555460
13.084240
13.639030
14.212780
14.762200
15.213360
15.481320
15.503840
15.278010
14.869660
14.382210
13.912060
13.521790
13.237080
13.057580
12.971190
12.962220
13.011260
13.097140
13.205830
13.332370
13.467920
13.591240
13.676600
13.701510
13.642760
13.473290
13.172300
12.742300
12.213660
11.626850
11.006630
10.353440
9.658066
8.919686
8.151015
7.377948
6.647081
6.035300
5.639109
5.533466
5.727416
6.161635
6.754481
7.447914
8.208242
8.998211
9.769657
10.487650
11.152760
11.795300
12.448830
13.128030
13.829190
14.544540
15.266470
15.980730
16.671700
17.341360
18.014860
18.718691
19.447321
20.141260
20.689520
20.968531
20.914970
20.578609
20.086590
19.549259
19.015791
18.500780
18.007561
17.524031
17.023300
16.471809
15.834550
15.085870
14.221480
13.256800
12.221100
11.177600
10.274350
9.751754
9.813679
10.442980
11.403030
12.458890
13.526760
14.589380
15.580140
16.414240
17.067070
17.566641
17.928761
18.125071
18.110790
17.877140
17.477779
17.001591
16.525560
16.111990
15.844480
15.826080
16.113079
16.656130
17.327410
18.017990
18.703409
19.409321
20.137171
20.852591
21.533550
22.194010
22.855339
23.513741
24.141140
24.709780
25.212839
25.663771
26.080130
26.470791
26.834040
27.160549
27.436529
27.646910
27.779619
27.832760
27.821930
27.779261
27.739241
27.718060
27.703819
27.667601
27.580330
27.415291
27.144421
26.747330
26.225010
25.595940
24.877991
24.078350
23.198420
22.244350
21.232670
20.185650
19.120630
18.047850
16.978170
15.924230
14.891200
13.874210
12.867750
11.870340
10.875290
9.861632
8.801916
7.680359
6.501365
5.286516
4.077123
2.942060
1.963747
1.191471
0.599978
0.101103
-0.398617
-0.949990
-1.557888
-2.206178
-2.877339
-3.554577
-4.218923
-4.853661
-5.448005
-5.987171
-6.438208
-6.753776
-6.895307
-6.852044
-6.641552
-6.303894
-5.900725
-5.510032
-5.207522
-5.040866
-5.010355
-5.072726
-5.171808
-5.268072
-5.341257
-5.380842
-5.389637
-5.393842
-5.434775
-5.539841
-5.701490
-5.885047
-6.048374
-6.149393
-6.148076
-6.021797
-5.787291
-5.499908
-5.220014
-4.974546
-4.745942
-4.492456
-4.180691
-3.805507
-3.384483
-2.937522
-2.472782
-1.988898
-1.487986
-0.986805
-0.516707
-0.112569
0.202624
0.430719
0.603687
0.777751
1.017085
1.373656
1.871044
2.497333
3.211350
3.961704
4.702977
5.389782
5.955235
6.306586
6.361276
6.106312
5.621388
5.020612
4.365208
3.650121
2.863375
2.019447
1.134996
0.209641
-0.753043
-1.720640
-2.645749
-3.506699
-4.322790
-5.126712
-5.935398
-6.750948
-7.576016
-8.419724
-9.291300
-10.194650
-11.134890
-12.126010
-13.181890
-14.298670
-15.451930
-16.609739
-17.740129
-18.804070
-19.751789
-20.538691
-21.149420
-21.606850
-21.957470
-22.245800
-22.497601
-22.719431
-22.908020
-23.063770
-23.202841
-23.351440
-23.520491
-23.694420
-23.856110
-24.010960
-24.169050
-24.315430
-24.419109
-24.465839
-24.468651
-24.453810
-24.440350
-24.417959
-24.343510
-24.177219
-23.924410
-23.629999
-23.336861
-23.062290
-22.810499
-22.594110
-22.435480
-22.348650
-22.325430
-22.338930
-22.360781
-22.381321
-22.413919
-22.476681
-22.576090
-22.712931
-22.892481
-23.118330
-23.380480
-23.654631
-23.912951
-24.138229
-24.330959
-24.501471
-24.653879
-24.776440
-24.842010
-24.814980
-24.664480
-24.379650
-23.973940
-23.474840
-22.910540
-22.303329
-21.670361
-21.028919
-20.401360
-19.814180
-19.287571
-18.818550
-18.373260
-17.903000
-17.370871
-16.762650
-16.081390
-15.341000
-14.561400
-13.762620
-12.960350
-12.164170
-11.378380
-10.602810
-9.829901
-9.044410
-8.231723
-7.386367
-6.511272
-5.609776
-4.678326
-3.707484
-2.691585
-1.636225
-0.554493
0.541781
1.643851
