EVENT_NAME: EMILIA_2ND_SHOCK
EVENT_ID: IT-2012-0011
EVENT_DATE_YYYYMMDD: 20120529
EVENT_TIME_HHMMSS: 070002
EVENT_LATITUDE_DEGREE: 44.8417
EVENT_LONGITUDE_DEGREE: 11.0657
EVENT_DEPTH_KM: 8.1
HYPOCENTER_REFERENCE: INGV-CNT_Seismic_Bulletin
MAGNITUDE_W: 6.0
MAGNITUDE_W_REFERENCE: RCMT-INGV
MAGNITUDE_L: 5.8
MAGNITUDE_L_REFERENCE: INGV-CNT_Seismic_Bulletin
FOCAL_MECHANISM: TF
NETWORK: TV
STATION_CODE: MIR02
STATION_NAME: MIRANDOLA MRN
STATION_LATITUDE_DEGREE: 44.886948
STATION_LONGITUDE_DEGREE: 11.073198
STATION_ELEVATION_M: 
LOCATION: 
SENSOR_DEPTH_M: 
VS30_M/S: 
SITE_CLASSIFICATION_EC8: C*
MORPHOLOGIC_CLASSIFICATION: 
EPICENTRAL_DISTANCE_KM: 5.1
EARTHQUAKE_BACKAZIMUTH_DEGREE: 186.7
DATE_TIME_FIRST_SAMPLE_YYYYMMDD_HHMMSS: 20120529_065950.000
DATE_TIME_FIRST_SAMPLE_PRECISION: milliseconds
SAMPLING_INTERVAL_S: 0.005000
NDATA: 12601
DURATION_S: 63.005
STREAM: HNE
UNITS: cm/s
INSTRUMENT: sensor = Episensor FBA ES-T [Kinemetrics] | digitizer = Unknown [Unknown]
INSTRUMENT_ANALOG/DIGITAL: D
INSTRUMENTAL_FREQUENCY_HZ: 
INSTRUMENTAL_DAMPING: 
FULL_SCALE_G: 
N_BIT_DIGITAL_CONVERTER: 
PGV_CM/S: -36.396387
TIME_PGV_S: 19.215000
BASELINE_CORRECTION: BASELINE REMOVED
FILTER_TYPE: BUTTERWORTH
FILTER_ORDER: 2
LOW_CUT_FREQUENCY_HZ: 0.050
HIGH_CUT_FREQUENCY_HZ: 40.000
LATE/NORMAL_TRIGGERED: NT
DATABASE_VERSION: DYNA 1.0
HEADER_FORMAT: DYNA 1.2
DATA_TYPE: VELOCITY
PROCESSING: manual (Paolucci et al., 2011)
DATA_TIMESTAMP_YYYYMMDD_HHMMSS: 20141028_094514.539
DATA_LICENSE: CC-BY4_0 (http://creativecommons.org/licenses/by/4.0/)
DATA_CITATION: ESM working group (2015), European Strong-Motion database, version 0.1, Network Activity 3: Networking acceleration networks and SM data users. Project NERA (www.nera-eu.org)
DATA_CREATOR: ESM working group
ORIGINAL_DATA_MEDIATOR_CITATION: Orfeus - European Integrated Data Archive (EIDA) http://www.orfeus-eu.org/eida/
ORIGINAL_DATA_MEDIATOR: Orfeus - European Integrated Data Archive (EIDA)
ORIGINAL_DATA_CREATOR_CITATION: 
ORIGINAL_DATA_CREATOR: network: TV (INGV Experiments Network); owner: Istituto Nazionale di Geofisica e Vulcanologia
USER1: /home/dyna/processing-itaca/processing.py /var/www/processing/tmp/Lucia//TV.MIR02..HNE.D.20120529.070003.X.ACC.ASC /var/www/processing/tmp/Lucia//TV.MIR02..HNN.D.20120529.070003.X.ACC.ASC /var/www/processing/tmp/Lucia//TV.MIR02..HNZ.D.20120529.070003.X.ACC.ASC --tmp /var/www/processing/tmp/Lucia/ --le 0.050 --he 40.000 --ln 0.050 --hn 40.000 --lz 0.050 --hz 40.000 --fo 2 --ca 50 --cz 180 --ta 5 --tz 5 --mf 1 --rf 0 --tr NT
USER2: 
USER3: 
USER4: 
USER5: 
[...]
-0.195547
-0.195792
-0.196054
-0.196302
-0.196503
-0.196636
-0.196707
-0.196734
-0.196740
-0.196762
-0.196852
-0.197043
-0.197312
-0.197596
-0.197843
-0.198052
-0.198259
-0.198490
-0.198736
-0.198960
-0.199130
-0.199240
-0.199327
-0.199446
-0.199617
-0.199795
-0.199927
-0.200018
-0.200119
-0.200255
-0.200410
-0.200559
-0.200705
-0.200859
-0.201011
-0.201135
-0.201224
-0.201305
-0.201416
-0.201569
-0.201727
-0.201862
-0.201992
-0.202158
-0.202369
-0.202586
-0.202763
-0.202898
-0.203014
-0.203120
-0.203215
-0.203311
-0.203452
-0.203671
-0.203953
-0.204240
-0.204482
-0.204679
-0.204858
-0.205022
-0.205168
-0.205318
-0.205502
-0.205698
-0.205863
-0.205996
-0.206144
-0.206340
-0.206564
-0.206751
-0.206857
-0.206902
-0.206946
-0.207018
-0.207100
-0.207174
-0.207259
-0.207384
-0.207546
-0.207712
-0.207870
-0.208038
-0.208226
-0.208410
-0.208564
-0.208689
-0.208807
-0.208928
-0.209049
-0.209174
-0.209306
-0.209433
-0.209528
-0.209586
-0.209652
-0.209786
-0.210004
-0.210261
-0.210505
-0.210727
-0.210939
-0.211129
-0.211254
-0.211295
-0.211282
-0.211271
-0.211290
-0.211325
-0.211368
-0.211449
-0.211608
-0.211847
-0.212139
-0.212454
-0.212763
-0.213035
-0.213253
-0.213421
-0.213561
-0.213685
-0.213786
-0.213860
-0.213918
-0.213984
-0.214076
-0.214197
-0.214357
-0.214569
-0.214818
-0.215058
-0.215258
-0.215420
-0.215576
-0.215757
-0.215972
-0.216201
-0.216397
-0.216517
-0.216544
-0.216499
-0.216429
-0.216376
-0.216347
-0.216353
-0.216428
-0.216586
-0.216781
-0.216960
-0.217120
-0.217296
-0.217506
-0.217730
-0.217937
-0.218116
-0.218278
-0.218431
-0.218567
-0.218686
-0.218812
-0.218972
-0.219164
-0.219348
-0.219484
-0.219567
-0.219619
-0.219671
-0.219752
-0.219879
-0.220048
-0.220226
-0.220381
-0.220502
-0.220592
-0.220646
-0.220656
-0.220636
-0.220628
-0.220677
-0.220809
-0.221006
-0.221230
-0.221444
-0.221625
-0.221766
-0.221869
-0.221947
-0.222012
-0.222079
-0.222161
-0.222270
-0.222407
-0.222556
-0.222704
-0.222849
-0.222991
-0.223125
-0.223253
-0.223375
-0.223485
-0.223572
-0.223637
-0.223694
-0.223763
-0.223849
-0.223946
-0.224044
-0.224145
-0.224265
-0.224421
-0.224602
-0.224773
-0.224907
-0.225009
-0.225100
-0.225189
-0.225273
-0.225343
-0.225400
-0.225463
-0.225558
-0.225694
-0.225853
-0.226019
-0.226214
-0.226474
-0.226780
-0.227045
-0.227197
-0.227248
-0.227265
-0.227291
-0.227345
-0.227446
-0.227598
-0.227750
-0.227827
-0.227831
-0.227857
-0.227989
-0.228196
-0.228379
-0.228481
-0.228528
-0.228560
-0.228571
-0.228547
-0.228514
-0.228518
-0.228575
-0.228665
-0.228771
-0.228909
-0.229100
-0.229322
-0.229515
-0.229647
-0.229727
-0.229768
-0.229774
-0.229772
-0.229815
-0.229933
-0.230095
-0.230241
-0.230346
-0.230428
-0.230500
-0.230550
-0.230574
-0.230612
-0.230727
-0.230939
-0.231188
-0.231392
-0.231513
-0.231571
-0.231620
-0.231709
-0.231839
-0.231948
-0.231961
-0.231863
-0.231713
-0.231597
-0.231571
-0.231654
-0.231832
-0.232063
-0.232275
-0.232409
-0.232469
-0.232518
-0.232612
-0.232748
-0.232889
-0.233008
-0.233102
-0.233172
-0.233220
-0.233256
-0.233308
-0.233410
-0.233563
-0.233732
-0.233888
-0.234024
-0.234153
-0.234278
-0.234390
-0.234477
-0.234541
-0.234596
-0.234639
-0.234648
-0.234606
-0.234533
-0.234470
-0.234437
-0.234435
-0.234473
-0.234575
-0.234752
-0.234983
-0.235227
-0.235454
-0.235664
-0.235866
-0.236033
-0.236103
-0.236042
-0.235876
-0.235657
-0.235439
-0.235283
-0.235235
-0.235291
-0.235405
-0.235565
-0.235800
-0.236094
-0.236356
-0.236495
-0.236491
-0.236393
-0.236275
-0.236203
-0.236220
-0.236334
-0.236512
-0.236708
-0.236888
-0.237030
-0.237140
-0.237247
-0.237363
-0.237461
-0.237509
-0.237509
-0.237489
-0.237474
-0.237476
-0.237504
-0.237559
-0.237621
-0.237671
-0.237719
-0.237786
-0.237871
-0.237944
-0.237974
-0.237965
-0.237965
-0.238017
-0.238132
-0.238289
-0.238475
-0.238656
-0.238773
-0.238783
-0.238708
-0.238617
-0.238558
-0.238531
-0.238522
-0.238535
-0.238596
-0.238712
-0.238850
-0.238951
-0.238976
-0.238944
-0.238908
-0.238880
-0.238817
-0.238691
-0.238552
-0.238493
-0.238555
-0.238694
-0.238849
-0.239002
-0.239151
-0.239270
-0.239327
-0.239329
-0.239315
-0.239298
-0.239265
-0.239230
-0.239242
-0.239333
-0.239492
-0.239685
-0.239844
-0.239881
-0.239761
-0.239548
-0.239349
-0.239212
-0.239123
-0.239067
-0.239074
-0.239161
-0.239296
-0.239434
-0.239573
-0.239733
-0.239904
-0.240042
-0.240103
-0.240086
-0.240015
-0.239906
-0.239778
-0.239684
-0.239684
-0.239786
-0.239929
-0.240043
-0.240072
-0.239951
-0.239632
-0.239151
-0.238611
-0.238047
-0.237367
-0.236470
-0.235393
-0.234298
-0.233270
-0.232140
-0.230587
-0.228465
-0.225929
-0.223196
-0.220419
-0.217595
-0.214097
-0.208947
-0.202849
-0.199354
-0.201919
-0.209362
-0.215391
-0.213284
-0.201611
-0.186458
-0.177740
-0.181091
-0.192593
-0.202733
-0.204970
-0.199598
-0.192516
-0.191904
-0.200726
-0.210625
-0.210246
-0.201293
-0.198221
-0.209993
-0.229412
-0.242045
-0.239725
-0.224419
-0.204353
-0.189143
-0.185575
-0.193426
-0.204998
-0.212109
-0.213378
-0.211855
-0.208235
-0.201052
-0.191817
-0.185958
-0.188702
-0.200388
-0.214109
-0.218903
-0.209051
-0.190286
-0.173508
-0.163490
-0.158577
-0.159608
-0.169518
-0.181568
-0.180347
-0.163487
-0.151242
-0.162362
-0.189903
-0.212183
-0.218092
-0.211702
-0.200804
-0.190372
-0.183557
-0.182458
-0.186429
-0.191935
-0.196237
-0.199656
-0.202186
-0.200108
-0.188975
-0.170549
-0.155271
-0.154694
-0.169891
-0.189401
-0.199916
-0.196889
-0.183791
-0.164492
-0.140710
-0.116606
-0.099961
-0.094219
-0.092997
-0.089084
-0.087049
-0.097557
-0.117752
-0.129542
-0.124071
-0.116573
-0.127421
-0.155917
-0.181092
-0.186121
-0.177180
-0.173987
-0.182506
-0.188638
-0.182640
-0.173493
-0.172031
-0.175368
-0.173622
-0.160498
-0.137489
-0.115986
-0.110689
-0.126044
-0.155116
-0.191489
-0.231758
-0.265715
-0.276986
-0.259957
-0.228708
-0.202821
-0.188461
-0.177259
-0.158899
-0.131725
-0.104014
-0.083954
-0.068607
-0.051994
-0.043972
-0.064974
-0.115457
-0.162039
-0.166268
-0.127604
-0.085806
-0.075040
-0.090418
-0.108338
-0.122276
-0.143271
-0.172678
-0.189367
-0.171901
-0.128851
-0.092491
-0.080746
-0.082280
-0.082691
-0.087934
-0.114880
-0.167726
-0.226807
-0.261305
-0.259568
-0.242595
-0.235383
-0.232652
-0.209642
-0.158758
-0.097450
-0.047458
-0.023188
-0.030721
-0.060084
-0.086618
-0.093835
-0.087988
-0.084031
-0.085460
-0.081542
-0.062056
-0.034524
-0.019923
-0.026325
-0.039758
-0.048920
-0.059791
-0.072958
-0.068638
-0.034281
0.009918
0.031392
0.020241
-0.002991
-0.006620
0.019847
0.050186
0.052471
0.029228
0.005892
-0.009345
-0.028869
-0.056869
-0.081477
-0.092555
-0.087594
-0.061668
-0.008608
0.063068
0.120395
0.118734
0.038228
-0.082465
-0.162897
-0.149191
-0.059609
0.040986
0.093795
0.076452
0.010892
-0.053551
-0.080812
-0.072227
-0.050234
-0.032068
-0.022904
-0.022553
-0.025514
-0.012372
0.039382
0.120633
0.185711
0.198698
0.166113
0.115218
0.064519
0.025163
0.010256
0.027925
0.070558
0.118280
0.152211
0.163839
0.156121
0.137396
0.113649
0.089993
0.078313
0.092428
0.128422
0.155839
0.142061
0.088849
0.032416
0.005909
0.016051
0.051982
0.098310
0.140768
0.169676
0.180078
0.171894
0.149182
0.110845
0.047232
-0.040956
-0.125189
-0.162348
-0.125998
-0.027354
0.085320
0.155841
0.169903
0.171320
0.208034
0.276300
0.342266
0.392713
0.431766
0.452203
0.443881
0.413949
0.376015
0.337085
0.307633
0.301495
0.320186
0.360070
0.428151
0.527017
0.640791
0.757596
0.881270
1.000488
1.070241
1.040524
0.897794
0.692984
0.534106
0.508407
0.591249
0.668439
0.658130
0.574084
0.470335
0.374449
0.294023
0.250908
0.275045
0.367430
0.480605
0.542370
0.514600
0.439160
0.404861
0.446961
0.503410
0.499199
0.438870
0.375360
0.334193
0.328384
0.398877
0.556936
0.715904
0.757795
0.657067
0.498370
0.391805
0.389587
0.465554
0.562152
0.654680
0.767097
0.928864
1.119620
1.264383
1.295071
1.217119
1.116129
1.096834
1.196232
1.348581
1.442055
1.405928
1.258970
1.107805
1.083469
1.236160
1.487236
1.689352
1.724567
1.571104
1.322287
1.131205
1.089169
1.143570
1.156734
1.062884
0.946629
0.938138
1.061547
1.230830
1.358726
1.414680
1.404205
1.350700
1.297963
1.295030
1.365677
1.495172
1.642623
1.772745
1.888352
2.024509
2.193030
2.334527
2.361713
2.275504
2.191929
2.210982
2.315401
2.443684
2.583584
2.732332
2.838637
2.853646
2.794541
2.705874
2.591361
2.428556
2.234694
2.089060
2.082869
2.234027
2.455242
2.630096
2.706425
2.704803
2.679479
2.676554
2.687951
2.667408
2.630452
2.687040
2.911987
3.216428
3.417956
3.436265
3.356817
3.289769
3.248765
3.208557
3.187041
3.219333
3.329172
3.524608
3.741594
3.837947
3.727587
3.486643
3.286132
3.257286
3.425931
3.705764
3.926484
3.933775
3.723287
3.462248
3.348752
3.458100
3.711779
3.941559
3.987350
3.801069
3.494837
3.281871
3.352287
3.762758
4.386492
4.963644
5.258156
5.219637
5.006626
4.847173
4.871861
5.056306
5.279100
5.423611
5.448288
5.379846
5.268042
5.172906
5.172643
5.328726
5.610595
5.877523
5.983048
5.910371
5.789722
5.774460
5.905076
6.099881
6.252868
6.307473
6.258503
6.139316
6.022970
5.996648
6.095408
6.265878
6.409662
6.449027
6.356530
6.170946
6.005250
5.990301
6.153938
6.367921
6.473926
6.456976
6.433887
6.493315
6.629296
6.812524
7.027188
7.231070
7.361985
7.396098
7.355833
7.279017
7.211100
7.195622
7.243816
7.318078
7.342537
7.250122
7.060193
6.885409
6.816053
6.837171
6.894926
6.969528
7.026091
6.967802
6.712619
6.286619
5.806650
5.389850
5.088158
4.895970
4.795740
4.749800
4.649146
4.356208
3.849424
3.282569
2.861931
2.679402
2.682720
2.792382
3.009509
3.388374
3.925647
4.503323
4.937926
5.107166
5.068007
5.022810
5.135797
5.422391
5.810334
6.217317
6.559509
6.770131
6.838729
6.803790
6.720951
6.661495
6.695454
6.821308
6.936024
6.917134
6.727975
6.437040
6.154339
5.957337
5.873705
5.915412
6.089553
6.361555
6.640458
6.835186
6.931340
7.008140
7.186424
7.560256
8.147249
8.868513
9.577149
10.127629
10.436148
10.509031
10.450474
10.419663
10.516887
10.699660
10.836815
10.832528
10.674519
10.395615
10.048643
9.721160
9.517458
9.493644
9.625772
9.840944
10.060552
10.236209
10.380796
10.544967
10.738793
10.912998
11.041413
11.181180
11.414994
11.751833
12.120656
12.448961
12.696096
12.822990
12.803801
12.676313
12.537338
12.489140
12.589297
12.809073
13.034128
13.147204
13.123221
13.033875
12.973980
12.995511
13.091048
13.219187
13.350771
13.497224
13.692394
13.950546
14.246503
14.540490
14.826784
15.146143
15.528517
15.927032
16.237658
16.389961
16.392164
16.294388
16.154938
16.046846
16.051344
16.216339
16.521214
16.882330
17.188728
17.342144
17.295778
17.076223
16.753996
16.381508
15.966750
15.500572
14.988062
14.444063
13.868209
13.239502
12.540461
11.784492
11.019605
10.305128
9.677246
9.128827
8.626744
8.152980
7.719763
7.346278
7.041728
6.817728
6.698963
6.707482
6.841682
7.081189
7.408251
7.803797
8.213021
8.537315
8.688737
8.654110
8.495751
8.296847
8.118412
8.003710
7.995489
8.108907
8.284833
8.414466
8.433806
8.377538
8.331319
8.341975
8.387450
8.428690
8.457118
8.478334
8.485177
8.470259
8.445795
8.435925
8.456401
8.507008
8.575882
8.639967
8.663849
8.614866
8.493919
8.354441
8.283844
8.353114
8.566418
8.845707
9.067557
9.126113
8.977537
8.656609
8.262858
7.901040
7.618088
7.412067
7.284899
7.234807
7.208173
7.135011
7.025641
6.971397
7.034299
7.171469
7.260730
7.161644
6.764826
6.043109
5.090326
4.084409
3.165966
2.347552
1.557913
0.745926
-0.093988
-0.955071
-1.815887
-2.630959
-3.374664
-4.076301
-4.775790
-5.458761
-6.058215
-6.506790
-6.776738
-6.895416
-6.946422
-7.042353
-7.268219
-7.641869
-8.133540
-8.710764
-9.347738
-10.011911
-10.673041
-11.328284
-12.007264
-12.733943
-13.467708
-14.096187
-14.510205
-14.686663
-14.685721
-14.572048
-14.362418
-14.041483
-13.584889
-12.967343
-12.193775
-11.341959
-10.571223
-10.086899
-10.066892
-10.567467
-11.469093
-12.534042
-13.554080
-14.453517
-15.256650
-15.993466
-16.664286
-17.270269
-17.835835
-18.389668
-18.938217
-19.467503
-19.963291
-20.421295
-20.844778
-21.241247
-21.622364
-22.007620
-22.418846
-22.856129
-23.289740
-23.690798
-24.053709
-24.379963
-24.665943
-24.921982
-25.185259
-25.498316
-25.883459
-26.340475
-26.847837
-27.361010
-27.834650
-28.258341
-28.658684
-29.061726
-29.462467
-29.837238
-30.180553
-30.515371
-30.863544
-31.232067
-31.646378
-32.162060
-32.802624
-33.505421
-34.164768
-34.714279
-35.152058
-35.513214
-35.832169
-36.112869
-36.320625
-36.396385
-36.284584
-35.967159
-35.479755
-34.893856
-34.286556
-33.716225
-33.193909
-32.660351
-32.016369
-31.208151
-30.271734
-29.274836
-28.246262
-27.197464
-26.186316
-25.303600
-24.577271
-23.921391
-23.210276
-22.381575
-21.447018
-20.447739
-19.443644
-18.526005
-17.796059
-17.314713
-17.083004
-17.063093
-17.182383
-17.320381
-17.347534
-17.213018
-16.979918
-16.749617
-16.559902
-16.377762
-16.166033
-15.907763
-15.578283
-15.152962
-14.651922
-14.141537
-13.684377
-13.301585
-12.986452
-12.740766
-12.568751
-12.438017
-12.303527
-12.192284
-12.215075
-12.472136
-12.980341
-13.693847
-14.551439
-15.486013
-16.417582
-17.274294
-18.027058
-18.688667
-19.280186
-19.805115
-20.243065
-20.557756
-20.720276
-20.742926
-20.701429
-20.707911
-20.837881
-21.086580
-21.400999
-21.735256
-22.067068
-22.378201
-22.641895
-22.850712
-23.052654
-23.321688
-23.675566
-24.043274
-24.318512
-24.427525
-24.348104
-24.097143
-23.726427
-23.312868
-22.919210
-22.572657
-22.303934
-22.181499
-22.271534
-22.571363
-23.003712
-23.482080
-23.976250
-24.511436
-25.114658
-25.766371
-26.389482
-26.881308
-27.171116
-27.252136
-27.154852
-26.899952
-26.487787
-25.922333
-25.231337
-24.461069
-23.648046
-22.795038
-21.883883
-20.913797
-19.916470
-18.927052
-17.949692
-16.965513
-15.969807
-14.985044
-14.042659
-13.167826
-12.372573
-11.649561
-10.984908
-10.385614
-9.871940
-9.425880
-8.970602
-8.431569
-7.808737
-7.165373
-6.560240
-6.010643
-5.497171
-4.978834
-4.422707
-3.841359
-3.292455
-2.828224
-2.448844
-2.110863
-1.770262
-1.402478
-0.991273
-0.526875
-0.024708
0.464411
0.873236
1.160550
1.345494
1.497981
1.689582
1.946629
2.244062
2.541763
2.821239
3.086711
3.346151
3.607847
3.896562
4.258984
4.739426
5.348132
6.052498
6.793251
7.514137
8.192879
8.847468
9.502343
10.151841
10.768063
11.330877
11.826333
12.225384
12.493274
12.621538
12.633272
12.557928
12.415880
12.225523
12.005808
11.766920
11.513199
11.256052
11.010116
10.780836
10.571848
10.400359
10.287115
10.230836
10.207161
10.193363
10.182804
10.177609
10.181626
10.203852
10.256325
10.338637
10.428495
10.493872
10.511327
10.471297
10.376972
10.245961
10.104539
9.970379
9.841779
9.706682
9.559439
9.403407
9.238321
9.054519
8.845447
8.621655
8.407239
8.225664
8.093184
8.018828
8.003723
8.045161
8.144006
8.303358
8.518629
8.773649
9.048407
9.324465
9.582106
9.802236
9.974314
10.100779
10.199914
10.306017
10.452857
10.642092
10.830268
10.961498
11.018288
11.034576
11.060807
11.124416
11.219559
11.321162
11.406428
11.471838
11.534845
11.620832
11.749901
11.926584
12.125186
12.287115
12.352344
12.301704
12.165596
11.998526
11.851108
11.753468
11.712839
11.730473
11.818458
11.990154
12.241404
12.553752
12.912174
13.312949
13.755715
14.230451
14.714182
15.179446
15.599816
15.945713
16.182068
16.277384
16.217983
16.012699
15.682117
15.242775
14.700540
14.058179
13.330336
12.551567
11.768909
11.025525
10.348698
9.746536
9.209135
8.716086
8.253469
7.827825
7.461297
7.171276
6.952516
6.775415
6.603956
6.432153
6.319629
6.380061
6.708305
7.310906
8.109322
8.998819
9.891669
10.712303
11.375028
11.786288
11.878377
11.647604
11.166822
10.561002
9.952337
9.401593
8.888543
8.349383
7.737611
7.059080
6.361574
5.696607
5.088599
4.532848
4.013103
3.517978
3.048944
2.621574
2.258739
1.977265
1.777436
1.644963
1.563718
1.526099
1.535110
1.605454
1.764007
2.040123
2.447655
2.974872
3.591388
4.261761
4.947560
5.594089
6.121358
6.442902
6.508556
6.335169
5.993627
5.562647
5.091832
4.600504
4.097379
3.593229
3.103685
2.656084
2.298566
2.094069
2.095285
2.319761
2.742821
3.304115
3.916331
4.477944
4.896364
5.114218
5.123106
4.957844
4.676618
4.337667
3.983288
3.636171
3.302496
2.976095
2.646074
2.304941
1.948744
1.576099
1.197590
0.842814
0.547315
0.331807
0.195167
0.116939
0.059766
-0.016527
-0.122349
-0.212758
-0.202440
-0.021398
0.334874
0.812620
1.352415
1.922267
2.505764
3.077101
3.590708
3.991370
4.242447
4.353155
4.376759
4.379122
4.409102
4.489576
4.619741
4.786098
4.985189
5.234318
5.541831
5.859421
6.081495
6.114928
5.951708
5.664736
5.342621
5.041569
4.781255
4.556642
4.351313
4.152361
3.955160
3.751812
3.522194
3.248873
2.940085
2.625023
2.324782
2.036239
1.742526
1.434123
1.124169
0.845888
0.631002
0.489204
0.407653
0.365415
0.348334
0.357834
0.409629
0.520453
0.694702
0.923646
1.188103
1.454940
1.684173
1.855761
1.984395
2.097631
2.207321
2.312239
2.417690
2.534034
2.654910
2.754998
2.822459
2.880389
2.958696
3.058154
3.160250
3.256337
3.347329
3.427048
3.486500
3.534813
3.603586
3.723122
3.895772
4.095381
4.290149
4.462804
4.615573
4.766036
4.935482
5.131894
5.342895
5.545248
5.716607
5.839230
5.902810
5.912185
5.889770
5.861111
5.831000
5.770507
5.628745
5.367142
4.990444
4.539811
4.052855
3.538071
2.988363
2.406741
1.810980
1.218757
0.636916
0.063852
-0.505489
-1.076246
-1.646179
-2.198004
-2.701928
-3.126401
-3.446626
-3.648468
-3.734320
-3.730965
-3.686751
-3.651787
-3.655210
-3.697014
-3.756645
-3.806688
-3.820600
-3.776035
-3.659765
-3.472622
-3.230952
-2.964141
-2.706359
-2.482946
-2.299678
-2.141292
-1.976645
-1.768711
-1.489480
-1.130157
-0.698289
-0.210976
0.308251
0.838216
1.374055
1.925637
2.496741
3.072918
3.636129
4.184544
4.729732
5.279860
5.832698
6.376248
6.885031
7.320820
7.648829
