EVENT_NAME: EMILIA_2ND_SHOCK
EVENT_ID: IT-2012-0011
EVENT_DATE_YYYYMMDD: 20120529
EVENT_TIME_HHMMSS: 070002
EVENT_LATITUDE_DEGREE: 44.8417
EVENT_LONGITUDE_DEGREE: 11.0657
EVENT_DEPTH_KM: 8.1
HYPOCENTER_REFERENCE: INGV-CNT_Seismic_Bulletin
MAGNITUDE_W: 6.0
MAGNITUDE_W_REFERENCE: RCMT-INGV
MAGNITUDE_L: 5.8
MAGNITUDE_L_REFERENCE: INGV-CNT_Seismic_Bulletin
FOCAL_MECHANISM: TF
NETWORK: TV
STATION_CODE: MIR02
STATION_NAME: MIRANDOLA MRN
STATION_LATITUDE_DEGREE: 44.886948
STATION_LONGITUDE_DEGREE: 11.073198
STATION_ELEVATION_M: 
LOCATION: 
SENSOR_DEPTH_M: 
VS30_M/S: 
SITE_CLASSIFICATION_EC8: C*
MORPHOLOGIC_CLASSIFICATION: 
EPICENTRAL_DISTANCE_KM: 5.1
EARTHQUAKE_BACKAZIMUTH_DEGREE: 186.7
DATE_TIME_FIRST_SAMPLE_YYYYMMDD_HHMMSS: 20120529_065950.000
DATE_TIME_FIRST_SAMPLE_PRECISION: milliseconds
SAMPLING_INTERVAL_S: 0.005000
NDATA: 12601
DURATION_S: 63.005
STREAM: HNZ
UNITS: cm/s^2
INSTRUMENT: sensor = Episensor FBA ES-T [Kinemetrics] | digitizer = Unknown [Unknown]
INSTRUMENT_ANALOG/DIGITAL: D
INSTRUMENTAL_FREQUENCY_HZ: 
INSTRUMENTAL_DAMPING: 
FULL_SCALE_G: 
N_BIT_DIGITAL_CONVERTER: 
PGA_CM/S^2: -452.271833
TIME_PGA_S: 17.930000
BASELINE_CORRECTION: BASELINE REMOVED
FILTER_TYPE: BUTTERWORTH
FILTER_ORDER: 2
LOW_CUT_FREQUENCY_HZ: 0.050
HIGH_CUT_FREQUENCY_HZ: 40.000
LATE/NORMAL_TRIGGERED: NT
DATABASE_VERSION: DYNA 1.0
HEADER_FORMAT: DYNA 1.2
DATA_TYPE: ACCELERATION
PROCESSING: manual (Paolucci et al., 2011)
DATA_TIMESTAMP_YYYYMMDD_HHMMSS: 20141028_094514.539
DATA_LICENSE: CC-BY4_0 (http://creativecommons.org/licenses/by/4.0/)
DATA_CITATION: ESM working group (2015), European Strong-Motion database, version 0.1, Network Activity 3: Networking acceleration networks and SM data users. Project NERA (www.nera-eu.org)
DATA_CREATOR: ESM working group
ORIGINAL_DATA_MEDIATOR_CITATION: Orfeus - European Integrated Data Archive (EIDA) http://www.orfeus-eu.org/eida/
ORIGINAL_DATA_MEDIATOR: Orfeus - European Integrated Data Archive (EIDA)
ORIGINAL_DATA_CREATOR_CITATION: 
ORIGINAL_DATA_CREATOR: network: TV (INGV Experiments Network); owner: Istituto Nazionale di Geofisica e Vulcanologia
USER1: /home/dyna/processing-itaca/processing.py /var/www/processing/tmp/Lucia//TV.MIR02..HNE.D.20120529.070003.X.ACC.ASC /var/www/processing/tmp/Lucia//TV.MIR02..HNN.D.20120529.070003.X.ACC.ASC /var/www/processing/tmp/Lucia//TV.MIR02..HNZ.D.20120529.070003.X.ACC.ASC --tmp /var/www/processing/tmp/Lucia/ --le 0.050 --he 40.000 --ln 0.050 --hn 40.000 --lz 0.050 --hz 40.000 --fo 2 --ca 50 --cz 180 --ta 5 --tz 5 --mf 1 --rf 0 --tr NT
USER2: 
USER3: 
USER4: 
USER5: 
[...]
-0.102428
-0.108986
-0.108280
-0.109732
-0.113751
-0.109717
-0.093849
-0.076789
-0.070924
-0.077385
-0.087373
-0.093399
-0.094985
-0.093777
-0.089921
-0.084560
-0.081055
-0.082802
-0.090431
-0.100401
-0.107999
-0.112264
-0.115257
-0.116730
-0.113067
-0.102909
-0.091502
-0.086605
-0.090760
-0.099068
-0.104130
-0.104053
-0.104225
-0.108931
-0.116860
-0.126037
-0.134312
-0.136577
-0.129563
-0.116277
-0.102705
-0.093797
-0.091489
-0.093449
-0.095834
-0.098411
-0.104206
-0.112653
-0.116508
-0.110770
-0.101459
-0.096951
-0.095327
-0.090743
-0.085844
-0.087405
-0.094903
-0.100832
-0.100224
-0.096988
-0.098505
-0.104111
-0.106366
-0.102513
-0.094848
-0.085135
-0.077036
-0.075742
-0.080616
-0.085414
-0.086037
-0.084050
-0.084677
-0.092462
-0.106446
-0.119256
-0.123252
-0.118466
-0.111603
-0.107315
-0.105450
-0.104564
-0.102030
-0.095432
-0.087896
-0.084841
-0.086180
-0.089197
-0.093334
-0.097114
-0.097907
-0.096705
-0.097126
-0.099260
-0.099854
-0.098667
-0.098935
-0.102788
-0.109732
-0.116687
-0.120329
-0.120877
-0.119701
-0.115411
-0.106837
-0.097493
-0.093374
-0.095549
-0.099273
-0.101926
-0.104764
-0.107328
-0.107841
-0.107113
-0.106982
-0.106870
-0.104752
-0.100828
-0.097901
-0.097697
-0.099106
-0.101385
-0.106407
-0.114903
-0.123241
-0.126541
-0.122847
-0.113963
-0.103419
-0.093422
-0.085448
-0.082806
-0.088203
-0.099328
-0.109363
-0.112356
-0.108323
-0.101966
-0.097419
-0.096168
-0.095991
-0.091963
-0.084933
-0.083468
-0.090347
-0.097881
-0.101105
-0.102945
-0.105526
-0.106724
-0.105037
-0.102036
-0.099136
-0.095894
-0.093071
-0.092858
-0.095505
-0.099154
-0.101882
-0.102971
-0.103090
-0.103386
-0.105793
-0.112464
-0.121715
-0.128625
-0.131298
-0.130598
-0.125682
-0.116354
-0.106233
-0.098977
-0.095511
-0.096268
-0.100056
-0.101802
-0.097853
-0.091157
-0.087686
-0.089404
-0.091598
-0.088843
-0.083796
-0.084836
-0.093532
-0.101104
-0.101031
-0.098027
-0.099025
-0.102260
-0.101289
-0.095648
-0.091832
-0.094882
-0.103974
-0.114225
-0.118907
-0.114595
-0.105545
-0.098967
-0.097502
-0.098022
-0.097848
-0.100240
-0.107850
-0.115122
-0.115944
-0.112069
-0.108373
-0.106688
-0.106402
-0.106744
-0.106618
-0.105009
-0.103934
-0.106438
-0.110747
-0.112105
-0.109220
-0.105026
-0.102490
-0.101954
-0.101966
-0.100252
-0.095273
-0.088948
-0.085652
-0.088262
-0.096292
-0.106728
-0.115879
-0.120643
-0.119460
-0.112713
-0.102127
-0.091213
-0.084205
-0.082344
-0.084195
-0.087921
-0.091015
-0.092955
-0.097498
-0.106672
-0.114919
-0.115599
-0.111532
-0.110465
-0.112417
-0.111470
-0.105746
-0.098485
-0.094469
-0.096397
-0.100276
-0.098673
-0.091960
-0.089272
-0.095492
-0.104772
-0.109706
-0.110422
-0.111065
-0.111815
-0.109316
-0.104315
-0.102581
-0.105305
-0.106335
-0.103159
-0.101939
-0.108203
-0.119298
-0.127383
-0.126916
-0.119097
-0.108484
-0.097165
-0.086226
-0.079387
-0.079615
-0.084941
-0.090963
-0.096128
-0.102061
-0.106730
-0.103431
-0.092560
-0.083812
-0.081887
-0.082911
-0.086100
-0.095836
-0.110945
-0.123590
-0.130292
-0.132855
-0.129878
-0.118362
-0.101560
-0.087923
-0.081802
-0.079216
-0.076355
-0.076861
-0.084812
-0.096417
-0.105338
-0.112445
-0.122188
-0.131274
-0.131050
-0.119994
-0.106159
-0.098333
-0.098061
-0.101268
-0.105115
-0.107733
-0.104852
-0.094620
-0.082236
-0.074075
-0.071140
-0.072032
-0.078237
-0.090748
-0.103358
-0.108561
-0.108829
-0.111148
-0.115262
-0.116478
-0.112863
-0.105718
-0.098821
-0.096004
-0.096770
-0.097158
-0.094493
-0.089742
-0.086968
-0.089155
-0.094217
-0.098094
-0.099014
-0.097012
-0.093718
-0.092098
-0.094093
-0.099202
-0.103189
-0.100046
-0.090126
-0.081699
-0.080535
-0.083625
-0.086466
-0.091372
-0.102749
-0.117486
-0.127136
-0.127562
-0.121991
-0.115977
-0.111158
-0.105652
-0.099828
-0.096892
-0.098214
-0.101668
-0.104361
-0.105898
-0.107499
-0.108715
-0.107689
-0.103830
-0.099581
-0.098856
-0.101392
-0.101466
-0.096474
-0.092382
-0.094734
-0.099968
-0.102430
-0.102740
-0.104052
-0.106598
-0.107897
-0.105790
-0.100730
-0.094029
-0.086591
-0.081714
-0.083240
-0.088985
-0.093089
-0.094320
-0.095018
-0.095060
-0.093435
-0.092019
-0.092496
-0.093092
-0.092522
-0.093931
-0.101214
-0.111883
-0.116982
-0.111331
-0.099368
-0.087421
-0.077758
-0.071924
-0.071928
-0.077324
-0.084814
-0.090843
-0.094325
-0.096376
-0.097397
-0.096768
-0.095098
-0.093017
-0.088921
-0.082142
-0.076604
-0.077978
-0.086894
-0.096463
-0.099744
-0.097419
-0.094288
-0.093891
-0.098066
-0.105006
-0.109667
-0.109845
-0.107566
-0.104050
-0.098477
-0.091192
-0.084158
-0.079359
-0.078476
-0.082281
-0.089784
-0.097730
-0.101491
-0.100821
-0.102559
-0.110190
-0.116166
-0.113224
-0.104712
-0.095939
-0.085819
-0.073650
-0.065480
-0.067515
-0.076935
-0.085671
-0.091482
-0.097398
-0.103003
-0.105007
-0.104508
-0.106220
-0.110006
-0.109520
-0.101211
-0.089184
-0.080288
-0.078913
-0.085237
-0.094743
-0.100899
-0.099995
-0.093755
-0.088173
-0.087504
-0.089047
-0.087756
-0.083738
-0.080882
-0.081364
-0.083813
-0.084385
-0.080754
-0.076355
-0.077373
-0.084658
-0.092059
-0.094370
-0.093378
-0.092761
-0.092125
-0.090635
-0.090410
-0.091808
-0.090529
-0.084140
-0.078604
-0.082400
-0.094469
-0.104270
-0.104193
-0.096518
-0.088212
-0.082027
-0.074936
-0.065674
-0.057425
-0.052996
-0.055035
-0.066155
-0.083149
-0.097518
-0.104555
-0.108196
-0.113222
-0.115214
-0.106425
-0.089255
-0.073771
-0.064017
-0.055765
-0.047191
-0.044915
-0.055799
-0.075932
-0.094601
-0.106513
-0.112805
-0.115134
-0.113505
-0.106424
-0.094618
-0.083727
-0.078507
-0.077880
-0.078619
-0.080017
-0.083386
-0.088842
-0.094583
-0.099212
-0.101652
-0.099697
-0.094119
-0.091677
-0.096884
-0.104002
-0.104281
-0.097749
-0.090365
-0.083590
-0.075807
-0.069310
-0.066795
-0.065461
-0.062190
-0.060291
-0.064220
-0.072002
-0.078000
-0.077713
-0.069136
-0.056153
-0.048437
-0.052504
-0.065103
-0.077661
-0.084635
-0.085963
-0.084030
-0.080953
-0.078216
-0.077208
-0.078910
-0.082693
-0.086481
-0.088447
-0.087900
-0.085145
-0.080913
-0.075061
-0.067449
-0.061393
-0.061369
-0.066445
-0.072224
-0.076898
-0.079840
-0.079696
-0.077711
-0.077412
-0.078071
-0.073789
-0.063632
-0.056167
-0.057962
-0.066157
-0.076458
-0.088202
-0.098889
-0.102070
-0.094464
-0.081691
-0.073174
-0.072273
-0.073821
-0.071425
-0.065558
-0.061408
-0.060520
-0.060928
-0.063854
-0.072987
-0.087422
-0.101090
-0.107994
-0.100345
-0.058868
0.064985
0.381236
1.059063
2.201430
3.661575
5.086305
6.297004
7.548156
9.124309
10.625644
11.033512
9.895788
8.262873
7.714149
8.235952
7.976809
5.886455
3.884931
5.354936
11.689964
20.579441
26.840834
25.077576
13.755789
-1.835358
-12.149560
-11.341580
-3.070534
2.634003
-0.992352
-10.406796
-15.259650
-10.816527
-4.820797
-7.962485
-19.830011
-29.557322
-28.347933
-16.035847
2.094223
18.165846
23.163769
13.694871
-1.889008
-11.161030
-12.801475
-16.572531
-25.622610
-28.849072
-17.914282
-2.606791
0.875161
-8.736732
-17.347734
-13.308596
1.721124
18.112604
28.030466
29.385799
24.660229
18.430859
15.097856
16.930389
22.984266
29.138992
29.683617
21.808199
8.967566
-3.987452
-17.371334
-31.351610
-37.180546
-25.979849
-5.825409
4.114636
-1.121690
-5.976718
2.408338
16.193043
19.662727
11.119899
1.114780
-4.705309
-8.721425
-11.637141
-11.104093
-8.788199
-10.127941
-15.305976
-16.558908
-8.696144
1.606135
2.490452
-8.121299
-18.728916
-17.067167
-4.293602
6.754657
6.877301
1.794144
7.276312
30.124235
53.595890
50.713390
16.373484
-23.502279
-40.508274
-33.255013
-21.449984
-16.483622
-9.676706
8.698514
31.668894
45.562519
47.921432
44.408089
36.408188
23.940081
12.075846
1.728841
-16.095749
-44.569271
-69.014793
-70.977623
-48.382332
-15.871057
9.930840
19.811373
12.120321
-5.315270
-15.895047
-10.377213
-2.099244
-12.091225
-36.281574
-42.279202
-9.276566
38.373371
53.239376
20.646181
-22.547834
-33.089809
-12.411707
1.837495
-12.866335
-38.875843
-45.606544
-26.107431
2.738873
24.921160
37.341736
44.286831
50.496696
56.546688
55.985641
39.471378
5.618386
-32.480911
-55.260426
-53.739742
-37.007828
-20.255493
-7.678070
7.416621
28.049665
48.107403
59.830036
58.330692
42.387531
18.262564
-2.139808
-12.699355
-17.822325
-22.093836
-22.060600
-13.441796
0.709588
13.588406
18.665062
9.673294
-12.918581
-34.898804
-36.587765
-13.694942
11.056947
8.968512
-15.068698
-21.551600
11.826176
54.986568
59.915432
19.516928
-27.265671
-44.468594
-32.069279
-11.278563
1.571435
3.581578
0.241176
-2.898436
-2.844818
0.214777
-1.443166
-16.510668
-37.663853
-42.126926
-13.846357
37.254429
77.824852
76.633308
31.682093
-27.963011
-65.778282
-63.830238
-31.783018
4.583629
24.453394
24.541094
13.768631
1.561062
-5.978210
-4.648751
8.248014
30.968225
50.336681
44.089470
3.247430
-48.485073
-69.694023
-44.458534
-5.844283
-0.781220
-33.883133
-67.732117
-73.839485
-54.146629
-17.411289
30.248177
69.224030
74.212898
48.767178
27.499180
32.285946
45.432552
35.810463
-2.504774
-44.853603
-64.364159
-61.012077
-57.324886
-68.476295
-85.137848
-82.441322
-42.583382
26.993505
100.074127
154.252029
179.379700
175.264084
152.520157
122.279381
81.264870
21.178925
-50.380318
-108.161934
-126.704773
-101.802826
-53.583908
-3.867329
38.525021
67.196205
71.625893
49.333736
14.074296
-18.623735
-45.961472
-62.905872
-52.355667
-15.059788
16.476749
17.750671
2.262075
-2.620953
8.226551
16.255301
5.642475
-18.083387
-35.885506
-36.531410
-25.621197
-11.111094
12.395956
49.430016
76.949600
56.266525
-19.457520
-104.960205
-138.131287
-92.161415
2.879301
86.947906
122.536713
117.162994
95.315346
67.560165
35.193504
7.747986
-0.689978
7.627195
8.327089
-18.790630
-59.869732
-74.397217
-34.643108
46.827030
127.025200
164.702484
143.195709
68.989975
-35.797348
-126.912445
-146.164566
-79.239830
-1.216865
-9.309043
-98.387024
-159.159744
-114.472923
-0.518535
96.061104
125.026176
90.765266
29.955956
-14.566014
-18.248615
3.908896
5.929194
-26.998228
-34.560226
54.795147
224.504898
373.866425
411.819092
320.671783
147.649750
-21.524734
-87.277039
-4.071260
145.924698
202.519684
85.288597
-128.636749
-290.869202
-322.963745
-274.643433
-248.591461
-278.721405
-308.435608
-272.359955
-164.506592
-37.181808
54.334072
103.289909
126.124611
107.234840
29.428272
-58.050488
-75.205254
-9.676025
81.830917
161.785034
242.020096
324.974182
362.748993
295.310242
124.512131
-61.010876
-158.872757
-153.481430
-115.464478
-100.395683
-79.482201
7.888030
142.236618
219.752167
192.472534
142.687698
159.436447
206.997543
183.949402
73.247574
-31.451920
-45.169514
13.313905
60.847496
47.324463
-8.386903
-62.136093
-94.931122
-106.843384
-97.767647
-84.406738
-80.932785
-45.538509
64.395737
186.628769
209.336334
115.052925
-12.938891
-95.917892
-121.451607
-123.875671
-128.764481
-128.874588
-105.717926
-43.883034
45.525433
87.026947
-0.897388
-182.448517
-312.288269
-275.933990
-85.994240
132.933762
235.314026
172.544556
33.861446
-55.333809
-58.069878
-20.587118
13.667040
27.564476
-5.267296
-105.589401
-221.933945
-235.341187
-72.508240
200.873383
412.229370
405.318604
162.688766
-164.283508
-363.225220
-327.107697
-130.265305
54.599174
116.873856
81.800980
29.932131
-17.903711
-95.437012
-183.172104
-175.669434
-15.431079
176.412247
197.929291
9.767149
-207.925613
-276.107819
-205.777573
-123.947975
-98.798248
-99.654648
-82.951775
-51.461720
-17.974871
40.490940
146.138580
255.510498
275.465881
156.856979
-49.329399
-246.148682
-369.136017
-383.955750
-269.154938
-62.853428
125.491295
209.863480
204.589081
175.454208
147.583603
100.124176
30.348703
-29.965700
-63.487778
-85.742859
-104.939110
-103.625519
-73.697243
-32.277679
12.730645
71.293915
125.434166
118.857452
19.282269
-128.907990
-224.527542
-190.813385
-46.871399
120.618820
243.085358
287.057983
234.503769
114.006393
-0.530396
-75.927193
-137.852966
-170.226471
-89.684853
126.183388
344.773804
374.927246
171.617783
-84.879089
-165.299683
-41.490665
96.120453
72.863441
-73.653297
-158.224075
-83.073044
46.815735
70.515823
-27.131126
-132.159409
-169.695511
-161.633789
-143.265137
-103.142670
-11.151412
115.966423
194.156799
153.304550
32.374092
-56.817383
-53.854088
12.534093
99.804840
198.077057
290.361176
327.361755
267.669189
118.625565
-61.067356
-190.850800
-220.975037
-162.763245
-61.897190
40.702984
116.869904
148.390686
129.771332
68.066093
-9.197629
-49.690475
-22.744078
21.301229
-15.193590
-166.872192
-354.474396
-452.271820
-393.053925
-210.451691
-2.648231
142.299973
204.275269
208.181549
150.133438
7.815980
-165.258774
-241.690125
-161.025589
-15.216309
51.574135
7.049132
-47.081161
-20.704935
48.040058
56.611286
-23.736185
-115.310333
-123.704994
-43.423977
37.435169
51.524487
38.900578
81.226807
174.860001
216.176498
129.261139
-20.011770
-91.572708
-43.128990
33.435566
35.955742
-52.184914
-171.321487
-240.189713
-213.417740
-111.768913
0.854740
69.351929
83.660210
78.003563
92.468750
125.043434
126.820801
57.065220
-62.883640
-166.819702
-208.872040
-195.611679
-162.034424
-129.488815
-85.321754
-10.577538
74.223465
127.153259
152.099991
194.600189
261.738098
297.285431
246.903763
117.178764
-32.521194
-140.795914
-185.991013
-187.242279
-172.263580
-143.717316
-79.355789
25.156942
123.385185
151.354691
92.315392
-6.453876
-79.813599
-100.714928
-93.064247
-96.425865
-124.503059
-158.829422
-173.017609
-154.823135
-110.513947
-54.985538
1.363225
52.157597
86.664246
98.786980
101.264145
110.960480
121.094872
105.024399
51.208221
-18.076559
-73.661728
-113.748528
-149.880142
-166.198364
-121.790146
-4.681521
127.141243
182.137329
133.924438
62.673832
60.979595
122.650162
167.271622
145.770187
76.864029
-0.783022
-71.776588
-132.738739
-160.518890
-126.600807
-47.686432
19.794592
51.917912
85.047073
149.686981
205.183273
172.636826
34.976433
-120.258606
-181.933487
-127.880501
-32.250870
24.346069
24.359528
1.777820
-15.147934
-33.248535
-65.028023
-97.024574
-106.333000
-90.629539
-71.716682
-79.559624
-123.481628
-165.313904
-142.695282
-41.881790
75.333008
142.417267
157.917709
151.807190
117.491837
34.006165
-64.770882
-104.672958
-55.089386
36.269348
96.503174
105.361145
106.636871
138.774200
186.448212
207.859222
167.201065
46.244476
-126.329315
-266.551392
-292.970520
-190.828247
-19.640594
128.319778
190.428925
173.820496
130.606796
96.042694
64.866898
23.825518
-19.447887
-51.763954
-73.011902
-81.518494
-62.796833
-8.409702
64.862572
118.367447
115.281380
51.189503
-38.537739
-107.745247
-133.861328
-118.573944
-63.690807
23.253548
94.266945
80.867699
-23.739222
-137.526154
-166.760635
-90.258141
36.273003
133.858749
154.535446
111.089043
64.377281
63.356823
94.830582
105.931770
68.241241
3.205334
-46.853130
-54.912144
-21.261988
30.459278
62.977341
47.288792
-12.418153
-84.606003
-144.375732
-184.220352
-192.585449
-151.383957
-62.385006
42.749809
122.281242
148.486420
122.753555
76.086060
42.268280
23.099136
-2.267272
-33.831905
-46.668507
-27.056791
15.802924
63.953518
101.427780
128.496826
162.401428
201.317734
203.950745
132.780258
8.314259
-96.023010
-116.037407
-61.225491
-12.262664
-33.029991
-95.526054
-123.219444
-91.775917
-46.079018
-28.636312
-28.016289
-4.070482
49.853752
86.379509
54.785553
-39.527039
-134.879166
-161.023651
-88.095039
50.140827
176.373337
227.736435
195.185593
101.412956
-33.402946
-177.212875
-267.605438
-257.294861
-174.679855
-98.866913
-65.344124
-29.325853
60.365723
178.993134
238.929764
173.950134
7.419183
-157.150238
-218.983261
-156.767746
-34.821598
45.662697
17.855761
-94.075951
-192.497818
-194.822144
-103.234764
10.278724
76.601128
81.093719
53.027985
27.217670
22.683689
38.790104
58.734776
60.180878
26.254835
-40.910057
-107.983719
-133.903336
-116.067596
-87.447701
-69.348228
-57.723408
-46.946365
-33.724846
-5.448690
41.499683
73.371803
44.025139
-40.009445
-104.127525
-73.629311
47.673473
175.848328
225.512009
182.119736
95.113739
18.499910
-34.267254
-88.128563
-159.482498
-216.279083
-204.022507
-109.632065
11.483086
72.963287
35.489738
-46.698116
-79.222488
-32.406170
30.359732
34.840645
-13.810325
-41.787216
-0.533267
80.410965
138.464111
139.265045
89.783989
31.464588
17.524185
60.067245
110.095528
113.693970
69.872375
18.518801
-11.951354
-30.439363
-60.073479
-103.629555
-138.622772
-136.246201
-85.042961
-9.543827
41.587585
43.321709
21.319723
15.372140
28.661133
31.264545
2.012140
-49.780090
-95.563522
-112.747215
-108.127670
-111.830841
-132.371597
-131.388855
-68.079880
40.891438
127.289444
132.379837
55.312634
-45.995018
-95.619484
-57.560459
30.799633
85.893417
52.877701
-41.574974
-118.873924
-127.280998
-78.428658
-17.577843
18.636942
21.467861
6.361024
-10.216288
-30.264452
-60.196651
-81.991158
-57.713573
29.072365
143.357346
218.454971
209.661804
130.956802
41.765282
-4.208586
-2.246378
11.238395
6.126722
-12.797397
-20.957506
-4.460155
24.878757
42.835274
42.244434
41.237972
55.944347
74.377251
68.361122
27.150480
-32.004845
-83.894531
-113.630432
-118.458939
-104.774879
-81.616371
-50.038212
-6.095721
40.904007
67.214218
61.417503
38.666904
16.723932
-7.351294
-42.251091
-79.120964
-100.711891
-103.170891
-94.315208
-80.202133
-64.044456
-46.942657
-21.854174
20.137489
70.630112
104.060417
105.555298
87.689308
69.928825
53.072006
28.361261
1.724493
-10.160957
-4.217326
4.689078
4.356420
1.353678
13.907896
49.693123
92.656952
113.848709
94.996071
43.464817
-13.757127
-53.450871
-73.760773
-86.969398
-99.022247
-99.112244
-69.616104
-11.038203
44.711567
59.324848
28.321238
-15.657117
-38.692169
-34.648651
-22.216116
-20.753336
-28.369469
-25.140057
-1.039426
25.353342
25.538744
-2.884085
-28.302670
-15.783333
37.074856
93.816994
108.632057
67.773705
5.546056
-24.502928
