EVENT_NAME: EMILIA_2ND_SHOCK
EVENT_ID: IT-2012-0011
EVENT_DATE_YYYYMMDD: 20120529
EVENT_TIME_HHMMSS: 070002
EVENT_LATITUDE_DEGREE: 44.8417
EVENT_LONGITUDE_DEGREE: 11.0657
EVENT_DEPTH_KM: 8.1
HYPOCENTER_REFERENCE: INGV-CNT_Seismic_Bulletin
MAGNITUDE_W: 6.0
MAGNITUDE_W_REFERENCE: RCMT-INGV
MAGNITUDE_L: 5.8
MAGNITUDE_L_REFERENCE: INGV-CNT_Seismic_Bulletin
FOCAL_MECHANISM: TF
NETWORK: TV
STATION_CODE: MIR05
STATION_NAME: POGGIO RUSCO
STATION_LATITUDE_DEGREE: 44.980800
STATION_LONGITUDE_DEGREE: 11.107190
STATION_ELEVATION_M: 
LOCATION: 
SENSOR_DEPTH_M: 
VS30_M/S: 
SITE_CLASSIFICATION_EC8: C*
MORPHOLOGIC_CLASSIFICATION: 
EPICENTRAL_DISTANCE_KM: 15.8
EARTHQUAKE_BACKAZIMUTH_DEGREE: 192.0
DATE_TIME_FIRST_SAMPLE_YYYYMMDD_HHMMSS: 20120529_065929.000
DATE_TIME_FIRST_SAMPLE_PRECISION: milliseconds
SAMPLING_INTERVAL_S: 0.005000
NDATA: 30001
DURATION_S: 150.005
STREAM: HNE
UNITS: cm
INSTRUMENT: sensor = Episensor FBA ES-T [Kinemetrics] | digitizer = Unknown [Unknown]
INSTRUMENT_ANALOG/DIGITAL: D
INSTRUMENTAL_FREQUENCY_HZ: 
INSTRUMENTAL_DAMPING: 
FULL_SCALE_G: 
N_BIT_DIGITAL_CONVERTER: 
PGD_CM: -3.458339
TIME_PGD_S: 48.865000
BASELINE_CORRECTION: BASELINE REMOVED
FILTER_TYPE: BUTTERWORTH
FILTER_ORDER: 2
LOW_CUT_FREQUENCY_HZ: 0.070
HIGH_CUT_FREQUENCY_HZ: 40.000
LATE/NORMAL_TRIGGERED: NT
DATABASE_VERSION: DYNA 1.0
HEADER_FORMAT: DYNA 1.2
DATA_TYPE: DISPLACEMENT
PROCESSING: manual (Paolucci et al., 2011)
DATA_TIMESTAMP_YYYYMMDD_HHMMSS: 
DATA_LICENSE: CC-BY4_0 (http://creativecommons.org/licenses/by/4.0/)
DATA_CITATION: ESM working group (2015), European Strong-Motion database, version 0.1, Network Activity 3: Networking acceleration networks and SM data users. Project NERA (www.nera-eu.org)
DATA_CREATOR: ESM working group
ORIGINAL_DATA_MEDIATOR_CITATION: Orfeus - European Integrated Data Archive (EIDA) http://www.orfeus-eu.org/eida/
ORIGINAL_DATA_MEDIATOR: Orfeus - European Integrated Data Archive (EIDA)
ORIGINAL_DATA_CREATOR_CITATION: 
ORIGINAL_DATA_CREATOR: network: TV (INGV Experiments Network); owner: Istituto Nazionale di Geofisica e Vulcanologia
USER1: 
USER2: 
USER3: 
USER4: 
USER5: 
[...]
-4.198006e-01
-3.840808e-01
-3.478007e-01
-3.117827e-01
-2.769551e-01
-2.441166e-01
-2.136585e-01
-1.854629e-01
-1.590498e-01
-1.338466e-01
-1.094051e-01
-8.545111e-02
-6.178304e-02
-3.815625e-02
-1.428229e-02
1.007946e-02
3.505457e-02
6.064452e-02
8.670057e-02
1.128639e-01
1.385782e-01
1.632426e-01
1.864062e-01
2.078520e-01
2.275377e-01
2.454905e-01
2.617388e-01
2.763038e-01
2.892553e-01
3.008016e-01
3.113278e-01
3.213347e-01
3.313203e-01
3.416711e-01
3.525956e-01
3.641265e-01
3.762024e-01
3.888014e-01
4.020577e-01
4.162956e-01
4.319691e-01
4.495614e-01
4.695082e-01
4.921511e-01
5.176794e-01
5.460372e-01
5.768162e-01
6.091871e-01
6.419553e-01
6.737959e-01
7.035881e-01
7.306498e-01
7.547502e-01
7.759937e-01
7.947327e-01
8.115150e-01
8.269564e-01
8.415282e-01
8.553888e-01
8.683820e-01
8.801855e-01
8.904763e-01
8.990120e-01
9.056457e-01
9.103337e-01
9.131324e-01
9.141741e-01
9.136617e-01
9.119268e-01
9.095175e-01
9.072045e-01
9.058336e-01
9.061008e-01
9.083863e-01
9.127052e-01
9.187413e-01
9.259459e-01
9.337035e-01
9.415283e-01
9.492231e-01
9.569341e-01
9.650728e-01
9.741528e-01
9.846313e-01
9.968098e-01
1.010791e+00
1.026457e+00
1.043461e+00
1.061241e+00
1.079072e+00
1.096150e+00
1.111697e+00
1.125040e+00
1.135694e+00
1.143404e+00
1.148137e+00
1.150046e+00
1.149474e+00
1.147010e+00
1.143486e+00
1.139868e+00
1.137082e+00
1.135903e+00
1.136925e+00
1.140551e+00
1.146963e+00
1.156147e+00
1.168010e+00
1.182507e+00
1.199654e+00
1.219445e+00
1.241766e+00
1.266396e+00
1.293048e+00
1.321350e+00
1.350709e+00
1.380214e+00
1.408769e+00
1.435392e+00
1.459400e+00
1.480352e+00
1.497902e+00
1.511775e+00
1.521854e+00
1.528252e+00
1.531278e+00
1.531343e+00
1.528957e+00
1.524790e+00
1.519667e+00
1.514401e+00
1.509574e+00
1.505422e+00
1.501876e+00
1.498679e+00
1.495510e+00
1.492084e+00
1.488236e+00
1.483961e+00
1.479384e+00
1.474665e+00
1.469896e+00
1.465009e+00
1.459694e+00
1.453401e+00
1.445519e+00
1.435670e+00
1.423919e+00
1.410724e+00
1.396686e+00
1.382340e+00
1.368076e+00
1.354140e+00
1.340663e+00
1.327691e+00
1.315214e+00
1.303224e+00
1.291778e+00
1.281054e+00
1.271350e+00
1.263036e+00
1.256498e+00
1.252083e+00
1.250063e+00
1.250623e+00
1.253876e+00
1.259897e+00
1.268720e+00
1.280321e+00
1.294629e+00
1.311553e+00
1.331028e+00
1.353013e+00
1.377471e+00
1.404353e+00
1.433598e+00
1.465142e+00
1.498909e+00
1.534781e+00
1.572560e+00
1.611933e+00
1.652467e+00
1.693661e+00
1.735028e+00
1.776148e+00
1.816698e+00
1.856458e+00
1.895320e+00
1.933249e+00
1.970241e+00
2.006300e+00
2.041460e+00
2.075811e+00
2.109487e+00
2.142640e+00
2.175433e+00
2.208046e+00
2.240663e+00
2.273439e+00
2.306465e+00
2.339733e+00
2.373120e+00
2.406400e+00
2.439295e+00
2.471535e+00
2.502876e+00
2.533042e+00
2.561677e+00
2.588348e+00
2.612612e+00
2.634082e+00
2.652463e+00
2.667542e+00
2.679159e+00
2.687189e+00
2.691535e+00
2.692123e+00
2.688900e+00
2.681838e+00
2.670937e+00
2.656250e+00
2.637887e+00
2.616006e+00
2.590791e+00
2.562429e+00
2.531090e+00
2.496910e+00
2.459998e+00
2.420477e+00
2.378509e+00
2.334291e+00
2.288000e+00
2.239763e+00
2.189685e+00
2.137875e+00
2.084472e+00
2.029638e+00
1.973545e+00
1.916342e+00
1.858103e+00
1.798778e+00
1.738180e+00
1.676028e+00
1.612055e+00
1.546115e+00
1.478233e+00
1.408574e+00
1.337385e+00
1.264970e+00
1.191675e+00
1.117879e+00
1.043973e+00
9.703534e-01
8.974281e-01
8.256093e-01
7.552777e-01
6.867255e-01
6.201097e-01
5.554507e-01
4.926916e-01
4.317840e-01
3.727404e-01
3.156221e-01
2.605018e-01
2.074592e-01
1.566181e-01
1.081748e-01
6.238248e-02
1.950639e-02
-2.021051e-02
-5.656215e-02
-8.937801e-02
-1.185125e-01
-1.438320e-01
-1.652091e-01
-1.825250e-01
-1.956758e-01
-2.045731e-01
-2.091508e-01
-2.093817e-01
-2.052893e-01
-1.969369e-01
-1.844081e-01
-1.677967e-01
-1.472043e-01
-1.227376e-01
-9.450428e-02
-6.261665e-02
-2.719762e-02
1.161769e-02
5.368085e-02
9.882003e-02
1.468262e-01
1.974518e-01
2.504259e-01
3.054708e-01
3.623122e-01
4.206776e-01
4.802786e-01
5.407875e-01
6.018350e-01
6.630436e-01
7.240775e-01
7.846919e-01
8.447774e-01
9.044068e-01
9.638779e-01
1.023698e+00
1.084452e+00
1.146588e+00
1.210266e+00
1.275355e+00
1.341536e+00
1.408420e+00
1.475609e+00
1.542701e+00
1.609274e+00
1.674888e+00
1.739100e+00
1.801480e+00
1.861604e+00
1.919063e+00
1.973485e+00
2.024561e+00
2.072058e+00
2.115827e+00
2.155803e+00
2.192001e+00
2.224478e+00
2.253311e+00
2.278602e+00
2.300523e+00
2.319356e+00
2.335487e+00
2.349373e+00
2.361479e+00
2.372213e+00
2.381890e+00
2.390725e+00
2.398872e+00
2.406458e+00
2.413611e+00
2.420422e+00
2.426895e+00
2.432905e+00
2.438198e+00
2.442419e+00
2.445155e+00
2.445962e+00
2.444404e+00
2.440082e+00
2.432676e+00
2.421959e+00
2.407785e+00
2.390065e+00
2.368727e+00
2.343710e+00
2.314969e+00
2.282499e+00
2.246351e+00
2.206627e+00
2.163461e+00
2.117011e+00
2.067450e+00
2.014978e+00
1.959857e+00
1.902449e+00
1.843278e+00
1.783020e+00
1.722447e+00
1.662303e+00
1.603218e+00
1.545676e+00
1.490053e+00
1.436648e+00
1.385711e+00
1.337449e+00
1.292014e+00
1.249483e+00
1.209844e+00
1.173001e+00
1.138825e+00
1.107196e+00
1.078019e+00
1.051191e+00
1.026538e+00
1.003753e+00
9.823908e-01
9.618910e-01
9.416413e-01
9.210535e-01
8.996454e-01
8.771048e-01
8.533240e-01
8.284027e-01
8.026188e-01
7.763810e-01
7.501817e-01
7.245642e-01
7.000978e-01
6.773530e-01
6.568658e-01
6.390860e-01
6.243064e-01
6.125879e-01
6.037148e-01
5.972148e-01
5.924564e-01
5.888030e-01
5.857621e-01
5.830601e-01
5.806237e-01
5.785018e-01
5.767840e-01
5.755535e-01
5.748878e-01
5.748950e-01
5.757508e-01
5.777040e-01
5.810535e-01
5.861170e-01
5.932031e-01
6.025870e-01
6.145008e-01
6.291449e-01
6.466986e-01
6.673107e-01
6.910883e-01
7.180976e-01
7.483657e-01
7.818712e-01
8.185426e-01
8.582635e-01
9.008392e-01
9.458878e-01
9.927251e-01
1.040372e+00
1.087722e+00
1.133760e+00
1.177699e+00
1.219000e+00
1.257341e+00
1.292592e+00
1.324813e+00
1.354236e+00
1.381219e+00
1.406137e+00
1.429285e+00
1.450837e+00
1.470879e+00
1.489448e+00
1.506571e+00
1.522269e+00
1.536570e+00
1.549520e+00
1.561197e+00
1.571713e+00
1.581180e+00
1.589667e+00
1.597168e+00
1.603603e+00
1.608830e+00
1.612644e+00
1.614785e+00
1.614974e+00
1.612951e+00
1.608495e+00
1.601445e+00
1.591722e+00
1.579318e+00
1.564274e+00
1.546649e+00
1.526510e+00
1.503939e+00
1.479030e+00
1.451854e+00
1.422449e+00
1.390816e+00
1.356931e+00
1.320739e+00
1.282145e+00
1.241020e+00
1.197229e+00
1.150635e+00
1.101116e+00
1.048636e+00
9.934237e-01
9.361418e-01
8.778309e-01
8.195898e-01
7.622447e-01
7.062587e-01
6.518377e-01
5.990582e-01
5.479534e-01
4.985518e-01
4.508634e-01
4.048424e-01
3.603696e-01
3.172691e-01
2.753452e-01
2.344174e-01
1.943355e-01
1.549799e-01
1.162648e-01
7.814844e-02
4.063696e-02
3.769543e-03
-3.240025e-02
-6.780978e-02
-1.023717e-01
-1.359462e-01
-1.683242e-01
-1.992377e-01
-2.283992e-01
-2.555444e-01
-2.804588e-01
-3.029779e-01
-3.229703e-01
-3.403196e-01
-3.549176e-01
-3.666699e-01
-3.754995e-01
-3.813446e-01
-3.841605e-01
-3.839401e-01
-3.807496e-01
-3.747637e-01
-3.662821e-01
-3.557152e-01
-3.435440e-01
-3.302705e-01
-3.163682e-01
-3.022451e-01
-2.882348e-01
-2.746139e-01
-2.616362e-01
-2.495654e-01
-2.386830e-01
-2.292642e-01
-2.215472e-01
-2.157120e-01
-2.118557e-01
-2.099566e-01
-2.098430e-01
-2.111896e-01
-2.135574e-01
-2.164706e-01
-2.195010e-01
-2.223227e-01
-2.247270e-01
-2.266125e-01
-2.279726e-01
-2.288889e-01
-2.295259e-01
-2.301162e-01
-2.309334e-01
-2.322549e-01
-2.343249e-01
-2.373239e-01
-2.413477e-01
-2.463984e-01
-2.523946e-01
-2.591952e-01
-2.666319e-01
-2.745346e-01
-2.827424e-01
-2.911013e-01
-2.994606e-01
-3.076686e-01
-3.155683e-01
-3.229962e-01
-3.297895e-01
-3.357927e-01
-3.408545e-01
-3.448225e-01
-3.475565e-01
-3.489666e-01
-3.490603e-01
-3.479733e-01
-3.459722e-01
-3.434339e-01
-3.408087e-01
-3.385702e-01
-3.371609e-01
-3.369475e-01
-3.381873e-01
-3.410072e-01
-3.453957e-01
-3.512132e-01
-3.582148e-01
-3.660863e-01
-3.744896e-01
-3.831078e-01
-3.916769e-01
-4.000083e-01
-4.080017e-01
-4.156331e-01
-4.229078e-01
-4.298002e-01
-4.362224e-01
-4.420466e-01
-4.471572e-01
-4.514825e-01
-4.549905e-01
-4.576875e-01
-4.596542e-01
-4.610922e-01
-4.623187e-01
-4.636822e-01
-4.654508e-01
-4.677511e-01
-4.705913e-01
-4.739373e-01
-4.777789e-01
-4.821517e-01
-4.871215e-01
-4.927656e-01
-4.991662e-01
-5.063958e-01
-5.144779e-01
-5.233299e-01
-5.327323e-01
-5.423668e-01
-5.519127e-01
-5.611341e-01
-5.698916e-01
-5.780941e-01
-5.856577e-01
-5.925066e-01
-5.985975e-01
-6.039284e-01
-6.085168e-01
-6.123628e-01
-6.154265e-01
-6.176351e-01
-6.189083e-01
-6.191809e-01
-6.184215e-01
-6.166579e-01
-6.140056e-01
-6.106798e-01
-6.069795e-01
-6.032467e-01
-5.998188e-01
-5.969935e-01
-5.950147e-01
-5.940734e-01
-5.943129e-01
-5.958325e-01
-5.986976e-01
-6.029604e-01
-6.086769e-01
-6.159082e-01
-6.247024e-01
-6.350705e-01
-6.469735e-01
-6.603245e-01
-6.749988e-01
-6.908414e-01
-7.076747e-01
-7.253063e-01
-7.435319e-01
-7.621261e-01
-7.808309e-01
-7.993624e-01
-8.174368e-01
-8.348030e-01
-8.512675e-01
-8.667024e-01
-8.810318e-01
-8.942020e-01
-9.061472e-01
-9.167746e-01
-9.259865e-01
-9.337412e-01
-9.401171e-01
-9.453432e-01
-9.497828e-01
-9.538845e-01
-9.581146e-01
-9.628816e-01
-9.684711e-01
-9.750142e-01
-9.825015e-01
-9.908338e-01
-9.998892e-01
-1.009576e+00
-1.019860e+00
-1.030760e+00
-1.042331e+00
-1.054634e+00
-1.067719e+00
-1.081592e+00
-1.096189e+00
-1.111364e+00
-1.126904e+00
-1.142558e+00
-1.158084e+00
-1.173294e+00
-1.188082e+00
-1.202421e+00
-1.216353e+00
-1.229964e+00
-1.243374e+00
-1.256731e+00
-1.270205e+00
-1.283977e+00
-1.298213e+00
-1.313057e+00
-1.328618e+00
-1.344994e+00
-1.362263e+00
-1.380478e+00
-1.399641e+00
-1.419684e+00
-1.440471e+00
-1.461821e+00
-1.483550e+00
-1.505494e+00
-1.527510e+00
-1.549460e+00
-1.571202e+00
-1.592593e+00
-1.613487e+00
-1.633746e+00
-1.653263e+00
-1.671968e+00
-1.689828e+00
-1.706825e+00
-1.722944e+00
-1.738201e+00
-1.752685e+00
-1.766613e+00
-1.780313e+00
-1.794155e+00
-1.808441e+00
-1.823327e+00
-1.838815e+00
-1.854777e+00
-1.870987e+00
-1.887169e+00
-1.903050e+00
-1.918418e+00
-1.933143e+00
-1.947162e+00
-1.960451e+00
-1.973003e+00
-1.984835e+00
-1.996016e+00
-2.006678e+00
-2.016990e+00
-2.027107e+00
-2.037107e+00
-2.046975e+00
-2.056627e+00
-2.065970e+00
-2.074949e+00
-2.083587e+00
-2.092006e+00
-2.100434e+00
-2.109181e+00
-2.118594e+00
-2.128982e+00
-2.140572e+00
-2.153488e+00
-2.167754e+00
-2.183326e+00
-2.200124e+00
-2.218062e+00
-2.237063e+00
-2.257061e+00
-2.277999e+00
-2.299819e+00
-2.322446e+00
-2.345771e+00
-2.369654e+00
-2.393947e+00
-2.418515e+00
-2.443252e+00
-2.468080e+00
-2.492944e+00
-2.517811e+00
-2.542660e+00
-2.567460e+00
-2.592137e+00
-2.616551e+00
-2.640491e+00
-2.663694e+00
-2.685877e+00
-2.706777e+00
-2.726171e+00
-2.743882e+00
-2.759778e+00
-2.773771e+00
-2.785829e+00
-2.795978e+00
-2.804294e+00
-2.810869e+00
-2.815784e+00
-2.819092e+00
-2.820824e+00
-2.821016e+00
-2.819755e+00
-2.817185e+00
-2.813508e+00
-2.808954e+00
-2.803745e+00
-2.798059e+00
-2.792014e+00
-2.785650e+00
-2.778948e+00
-2.771851e+00
-2.764299e+00
-2.756252e+00
-2.747703e+00
-2.738702e+00
-2.729347e+00
-2.719770e+00
-2.710090e+00
-2.700390e+00
-2.690684e+00
-2.680909e+00
-2.670914e+00
-2.660493e+00
-2.649436e+00
-2.637591e+00
-2.624901e+00
-2.611397e+00
-2.597180e+00
-2.582401e+00
-2.567235e+00
-2.551861e+00
-2.536423e+00
-2.521016e+00
-2.505663e+00
-2.490312e+00
-2.474844e+00
-2.459097e+00
-2.442899e+00
-2.426100e+00
-2.408595e+00
-2.390339e+00
-2.371355e+00
-2.351728e+00
-2.331607e+00
-2.311199e+00
-2.290772e+00
-2.270622e+00
-2.251031e+00
-2.232228e+00
-2.214381e+00
-2.197627e+00
-2.182114e+00
-2.168024e+00
-2.155554e+00
-2.144897e+00
-2.136229e+00
-2.129704e+00
-2.125454e+00
-2.123582e+00
-2.124147e+00
-2.127158e+00
-2.132575e+00
-2.140325e+00
-2.150322e+00
-2.162480e+00
-2.176717e+00
-2.192970e+00
-2.211191e+00
-2.231351e+00
-2.253419e+00
-2.277363e+00
-2.303140e+00
-2.330703e+00
-2.359986e+00
-2.390880e+00
-2.423195e+00
-2.456619e+00
-2.490696e+00
-2.524883e+00
-2.558671e+00
-2.591717e+00
-2.623896e+00
-2.655244e+00
-2.685859e+00
-2.715825e+00
-2.745198e+00
-2.774024e+00
-2.802343e+00
-2.830178e+00
-2.857519e+00
-2.884328e+00
-2.910554e+00
-2.936145e+00
-2.961077e+00
-2.985367e+00
-3.009086e+00
-3.032346e+00
-3.055261e+00
-3.077905e+00
-3.100288e+00
-3.122373e+00
-3.144102e+00
-3.165426e+00
-3.186320e+00
-3.206778e+00
-3.226800e+00
-3.246373e+00
-3.265457e+00
-3.283986e+00
-3.301873e+00
-3.319021e+00
-3.335343e+00
-3.350761e+00
-3.365225e+00
-3.378704e+00
-3.391191e+00
-3.402693e+00
-3.413223e+00
-3.422794e+00
-3.431404e+00
-3.439016e+00
-3.445551e+00
-3.450891e+00
-3.454897e+00
-3.457424e+00
-3.458339e+00
-3.457531e+00
-3.454923e+00
-3.450465e+00
-3.444140e+00
-3.435951e+00
-3.425912e+00
-3.414030e+00
-3.400292e+00
-3.384653e+00
-3.367042e+00
-3.347365e+00
-3.325498e+00
-3.301298e+00
-3.274629e+00
-3.245386e+00
-3.213513e+00
-3.179029e+00
-3.142065e+00
-3.102942e+00
-3.062251e+00
-3.020862e+00
-2.979800e+00
-2.940006e+00
-2.902138e+00
-2.866507e+00
-2.833143e+00
-2.801878e+00
-2.772387e+00
-2.744212e+00
-2.716821e+00
-2.689707e+00
-2.662491e+00
-2.634936e+00
-2.606910e+00
-2.578320e+00
-2.549085e+00
-2.519131e+00
-2.488392e+00
-2.456801e+00
-2.424282e+00
-2.390768e+00
-2.356232e+00
-2.320732e+00
-2.284449e+00
-2.247708e+00
-2.210971e+00
-2.174784e+00
-2.139687e+00
-2.106123e+00
-2.074395e+00
-2.044681e+00
-2.017066e+00
-1.991555e+00
-1.968065e+00
-1.946419e+00
-1.926377e+00
-1.907678e+00
-1.890043e+00
-1.873164e+00
-1.856701e+00
-1.840333e+00
-1.823809e+00
-1.806968e+00
-1.789705e+00
-1.771946e+00
-1.753631e+00
-1.734734e+00
-1.715273e+00
-1.695299e+00
-1.674877e+00
-1.654050e+00
-1.632829e+00
-1.611186e+00
-1.589066e+00
-1.566413e+00
-1.543195e+00
-1.519409e+00
-1.495073e+00
-1.470223e+00
-1.444912e+00
-1.419221e+00
-1.393267e+00
-1.367193e+00
-1.341152e+00
-1.315279e+00
-1.289671e+00
-1.264377e+00
-1.239404e+00
-1.214723e+00
-1.190274e+00
-1.165960e+00
-1.141649e+00
-1.117183e+00
-1.092409e+00
-1.067203e+00
-1.041479e+00
-1.015181e+00
-9.882634e-01
-9.606889e-01
-9.324297e-01
-9.034800e-01
-8.738693e-01
-8.436774e-01
-8.130494e-01
-7.821987e-01
-7.513830e-01
-7.208595e-01
-6.908355e-01
-6.614321e-01
-6.326693e-01
-6.044803e-01
-5.767493e-01
-5.493509e-01
-5.221741e-01
-4.951272e-01
-4.681276e-01
-4.410885e-01
-4.139120e-01
-3.864929e-01
-3.587315e-01
-3.305444e-01
-3.018694e-01
-2.726694e-01
-2.429410e-01
-2.127244e-01
-1.821053e-01
-1.512044e-01
-1.201579e-01
-8.909322e-02
-5.810885e-02
-2.726833e-02
3.392819e-03
3.385584e-02
6.410591e-02
9.411675e-02
1.238392e-01
1.532012e-01
1.821183e-01
2.105082e-01
2.382982e-01
2.654302e-01
2.918685e-01
3.176189e-01
3.427492e-01
3.674033e-01
3.917967e-01
4.161871e-01
4.408259e-01
4.659101e-01
4.915585e-01
5.178174e-01
5.446819e-01
5.721135e-01
6.000496e-01
6.284118e-01
6.571175e-01
6.860888e-01
7.152543e-01
7.445401e-01
7.738604e-01
8.031157e-01
8.321977e-01
8.609946e-01
8.893986e-01
9.173142e-01
9.446672e-01
9.714065e-01
9.975021e-01
1.022942e+00
1.047732e+00
1.071898e+00
1.095488e+00
1.118566e+00
1.141197e+00
1.163435e+00
1.185314e+00
1.206852e+00
1.228053e+00
1.248918e+00
1.269445e+00
1.289637e+00
1.309510e+00
1.329107e+00
1.348510e+00
1.367845e+00
1.387282e+00
1.407010e+00
1.427211e+00
1.448019e+00
1.469513e+00
1.491725e+00
1.514659e+00
1.538307e+00
1.562657e+00
1.587694e+00
1.613398e+00
1.639751e+00
1.666731e+00
1.694319e+00
1.722500e+00
1.751270e+00
1.780639e+00
1.810626e+00
1.841246e+00
1.872512e+00
1.904435e+00
1.937026e+00
1.970301e+00
2.004269e+00
2.038927e+00
2.074240e+00
2.110125e+00
2.146438e+00
2.182968e+00
2.219447e+00
2.255585e+00
2.291100e+00
2.325759e+00
2.359379e+00
2.391834e+00
2.423034e+00
2.452922e+00
2.481463e+00
2.508636e+00
2.534430e+00
2.558837e+00
2.581850e+00
2.603464e+00
2.623675e+00
2.642490e+00
2.659925e+00
2.676003e+00
2.690761e+00
2.704249e+00
2.716550e+00
2.727803e+00
2.738213e+00
2.748043e+00
2.757573e+00
2.767037e+00
2.776582e+00
2.786262e+00
2.796061e+00
2.805941e+00
2.815868e+00
2.825828e+00
2.835808e+00
2.845772e+00
2.855640e+00
2.865284e+00
2.874546e+00
2.883269e+00
2.891316e+00
2.898585e+00
2.905013e+00
2.910570e+00
2.915272e+00
2.919181e+00
2.922418e+00
2.925163e+00
2.927636e+00
2.930056e+00
2.932598e+00
2.935362e+00
2.938373e+00
2.941605e+00
2.945005e+00
2.948519e+00
2.952092e+00
2.955672e+00
2.959208e+00
2.962643e+00
2.965912e+00
2.968944e+00
2.971660e+00
2.973982e+00
2.975835e+00
2.977148e+00
2.977851e+00
2.977879e+00
2.977164e+00
2.975646e+00
2.973270e+00
2.969989e+00
2.965771e+00
2.960604e+00
2.954496e+00
2.947476e+00
2.939590e+00
2.930886e+00
2.921418e+00
2.911244e+00
2.900432e+00
2.889080e+00
2.877328e+00
2.865362e+00
2.853391e+00
2.841606e+00
2.830151e+00
2.819117e+00
2.808551e+00
2.798478e+00
2.788918e+00
2.779898e+00
2.771463e+00
2.763671e+00
2.756584e+00
2.750255e+00
2.744714e+00
2.739959e+00
2.735955e+00
2.732626e+00
2.729845e+00
2.727434e+00
2.725185e+00
2.722902e+00
2.720442e+00
2.717743e+00
2.714815e+00
2.711710e+00
2.708485e+00
2.705173e+00
2.701769e+00
2.698221e+00
2.694428e+00
2.690264e+00
2.685600e+00
2.680325e+00
2.674366e+00
2.667717e+00
2.660455e+00
2.652755e+00
2.644881e+00
2.637155e+00
2.629900e+00
2.623383e+00
2.617779e+00
2.613174e+00
2.609595e+00
2.607040e+00
2.605496e+00
2.604936e+00
2.605310e+00
2.606531e+00
2.608461e+00
2.610907e+00
2.613641e+00
2.616440e+00
2.619117e+00
2.621545e+00
2.623652e+00
2.625392e+00
2.626729e+00
2.627618e+00
2.628011e+00
2.627864e+00
2.627144e+00
2.625835e+00
2.623929e+00
2.621415e+00
2.618277e+00
2.614484e+00
2.609998e+00
2.604782e+00
2.598814e+00
2.592089e+00
2.584618e+00
2.576418e+00
2.567506e+00
2.557897e+00
2.547599e+00
2.536616e+00
2.524940e+00
2.512561e+00
2.499468e+00
2.485649e+00
2.471079e+00
2.455715e+00
2.439494e+00
2.422336e+00
2.404155e+00
2.384873e+00
2.364424e+00
2.342771e+00
2.319910e+00
2.295876e+00
2.270748e+00
2.244660e+00
2.217806e+00
2.190432e+00
2.162803e+00
2.135166e+00
2.107716e+00
2.080585e+00
2.053853e+00
2.027573e+00
2.001787e+00
1.976529e+00
1.951823e+00
1.927673e+00
1.904045e+00
1.880863e+00
