EVENT_NAME: EMILIA_2ND_SHOCK
EVENT_ID: IT-2012-0011
EVENT_DATE_YYYYMMDD: 20120529
EVENT_TIME_HHMMSS: 070002
EVENT_LATITUDE_DEGREE: 44.8417
EVENT_LONGITUDE_DEGREE: 11.0657
EVENT_DEPTH_KM: 8.1
HYPOCENTER_REFERENCE: INGV-CNT_Seismic_Bulletin
MAGNITUDE_W: 6.0
MAGNITUDE_W_REFERENCE: RCMT-INGV
MAGNITUDE_L: 5.8
MAGNITUDE_L_REFERENCE: INGV-CNT_Seismic_Bulletin
FOCAL_MECHANISM: TF
NETWORK: TV
STATION_CODE: MIR03
STATION_NAME: QUARANTOLI 1
STATION_LATITUDE_DEGREE: 44.938400
STATION_LONGITUDE_DEGREE: 11.104500
STATION_ELEVATION_M: 
LOCATION: 
SENSOR_DEPTH_M: 
VS30_M/S: 
SITE_CLASSIFICATION_EC8: C*
MORPHOLOGIC_CLASSIFICATION: 
EPICENTRAL_DISTANCE_KM: 11.2
EARTHQUAKE_BACKAZIMUTH_DEGREE: 195.9
DATE_TIME_FIRST_SAMPLE_YYYYMMDD_HHMMSS: 20120529_065927.000
DATE_TIME_FIRST_SAMPLE_PRECISION: milliseconds
SAMPLING_INTERVAL_S: 0.005000
NDATA: 18001
DURATION_S: 90.005
STREAM: HNE
UNITS: cm/s^2
INSTRUMENT: sensor = Episensor FBA ES-T [Kinemetrics] | digitizer = Unknown [Unknown]
INSTRUMENT_ANALOG/DIGITAL: D
INSTRUMENTAL_FREQUENCY_HZ: 
INSTRUMENTAL_DAMPING: 
FULL_SCALE_G: 
N_BIT_DIGITAL_CONVERTER: 
PGA_CM/S^2: -204.096205
TIME_PGA_S: 45.825000
BASELINE_CORRECTION: BASELINE REMOVED
FILTER_TYPE: BUTTERWORTH
FILTER_ORDER: 2
LOW_CUT_FREQUENCY_HZ: 0.070
HIGH_CUT_FREQUENCY_HZ: 40.000
LATE/NORMAL_TRIGGERED: NT
DATABASE_VERSION: DYNA 1.0
HEADER_FORMAT: DYNA 1.2
DATA_TYPE: ACCELERATION
PROCESSING: manual (Paolucci et al., 2011)
DATA_TIMESTAMP_YYYYMMDD_HHMMSS: 
DATA_LICENSE: CC-BY4_0 (http://creativecommons.org/licenses/by/4.0/)
DATA_CITATION: ESM working group (2015), European Strong-Motion database, version 0.1, Network Activity 3: Networking acceleration networks and SM data users. Project NERA (www.nera-eu.org)
DATA_CREATOR: ESM working group
ORIGINAL_DATA_MEDIATOR_CITATION: Orfeus - European Integrated Data Archive (EIDA) http://www.orfeus-eu.org/eida/
ORIGINAL_DATA_MEDIATOR: Orfeus - European Integrated Data Archive (EIDA)
ORIGINAL_DATA_CREATOR_CITATION: 
ORIGINAL_DATA_CREATOR: network: TV (INGV Experiments Network); owner: Istituto Nazionale di Geofisica e Vulcanologia
USER1: 
USER2: 
USER3: 
USER4: 
USER5: 
[...]
-6.624538
-3.093471
0.230108
3.243607
7.490564
13.425387
18.743452
20.058502
16.040598
8.164502
-1.421363
-11.448339
-20.517309
-25.915560
-24.990946
-17.811756
-7.648713
1.545757
7.857597
11.636037
13.778399
14.525547
13.744537
11.525261
8.050290
3.256649
-2.890659
-9.732887
-15.568849
-18.000154
-14.987993
-6.262220
5.656193
15.748445
18.769161
12.636929
0.325020
-11.622027
-16.982368
-13.296528
-2.557224
10.698058
21.860916
27.663834
26.513771
18.699167
6.562635
-6.306813
-16.592888
-22.140301
-22.101622
-17.121250
-9.561853
-2.850162
0.620375
1.432486
2.195490
4.157453
5.529309
3.717945
-1.211214
-5.736076
-5.749767
-0.394373
6.976421
11.495496
10.223627
3.440835
-6.127643
-14.393096
-16.976398
-11.095595
2.492586
19.288267
32.679031
35.803127
23.077757
-6.959096
-47.621300
-83.732613
-98.210960
-80.990646
-33.721523
30.853928
93.263329
134.469391
142.641541
115.909203
61.907597
-4.544982
-66.054420
-107.583755
-120.618896
-106.840729
-76.320877
-39.177193
-1.179802
32.350876
53.485561
55.416023
38.744740
13.272772
-7.221122
-13.382319
-5.920660
6.443065
15.665666
19.801846
19.540447
13.419208
-0.215400
-17.443518
-28.239824
-24.026587
-5.601778
17.312483
34.206539
40.631393
37.641758
27.729647
13.222160
-3.305622
-19.059052
-31.528049
-38.642574
-38.364681
-29.154936
-12.154187
7.435435
22.199844
26.629892
20.202938
6.764676
-8.521169
-21.256582
-28.142878
-27.157406
-18.637201
-6.318513
3.956511
7.903717
5.373119
-0.397834
-5.160720
-5.446958
0.407885
11.329596
23.108107
30.087952
28.694433
19.809639
7.711396
-3.457357
-12.428113
-20.329151
-27.892481
-33.154148
-31.624310
-19.438986
2.298962
26.033157
41.372147
41.304451
26.469030
4.915589
-12.545112
-18.947433
-14.805366
-5.539421
3.754025
10.426698
13.219750
11.561334
6.097250
-1.180108
-7.916367
-12.733901
-15.855144
-18.136423
-19.068386
-16.290264
-8.010789
4.070974
15.061439
20.649508
20.283155
16.615030
12.750750
10.094795
8.135522
6.204346
4.685499
3.222463
-1.307733
-12.436775
-28.713848
-41.954037
-42.597008
-27.533674
-2.859585
20.583483
34.353214
36.238499
28.637621
14.771953
-2.634113
-19.862055
-31.334873
-31.692606
-19.661285
0.012390
19.467266
33.102524
39.507843
38.708527
29.946184
13.290631
-7.923850
-27.658772
-40.557713
-44.827953
-41.803242
-33.549866
-22.006216
-9.694139
0.512232
7.040221
10.840817
14.199745
17.785925
19.690760
18.003576
13.422308
8.658016
5.852196
5.270199
6.279528
8.634712
12.343624
16.574024
19.035395
17.052753
10.118543
1.404320
-4.252415
-4.798708
-3.473998
-6.176863
-15.786798
-29.281256
-40.414734
-44.377449
-39.920216
-28.794235
-14.320212
0.281778
13.213743
24.018208
32.003242
34.852631
29.717871
16.517622
-0.112879
-12.856418
-16.127085
-9.117633
4.294858
17.990170
26.741282
28.016399
21.644176
9.223811
-5.456766
-16.674721
-19.252419
-12.162396
-0.078178
9.465612
11.242850
5.305848
-3.612297
-8.696756
-5.047842
6.015585
16.353283
16.332010
2.354486
-19.385265
-36.308083
-38.315697
-25.266682
-6.810393
5.309699
6.259963
0.470081
-4.303050
-3.934786
0.475708
5.801298
10.851860
16.363480
20.813999
19.235672
8.524700
-7.510938
-19.955053
-21.705660
-13.333577
-3.043668
-0.185770
-7.372118
-18.444159
-23.965675
-18.342005
-2.364139
18.942938
39.048531
50.584217
45.978855
21.772602
-15.390337
-48.520905
-58.730515
-37.126213
8.377846
57.222424
88.340340
90.153748
62.700344
15.436077
-34.936878
-69.235519
-75.496880
-56.646732
-27.968477
-5.612812
4.281520
5.593382
2.682873
-5.360137
-20.276644
-37.804550
-47.801632
-42.250393
-23.071793
-1.212971
12.004540
13.137733
7.837592
4.840319
9.057457
19.859461
33.990677
48.148781
58.342934
58.851364
45.212780
19.504786
-8.498283
-26.589790
-27.658411
-13.594279
6.911065
24.007204
31.065495
25.617481
8.464027
-16.411430
-41.337486
-56.978928
-57.909267
-47.250385
-34.997211
-30.669004
-36.526672
-46.619190
-51.213566
-42.600193
-19.585455
11.090947
38.351517
53.759975
56.221394
50.512730
42.233856
35.287743
32.938480
37.729115
48.398315
57.712460
55.501858
36.159622
4.515648
-25.483089
-39.092098
-30.840504
-8.853937
11.327420
18.717703
13.322999
1.946948
-10.205749
-22.869413
-37.349903
-52.127209
-61.902428
-59.949688
-42.390106
-12.547504
18.066885
34.885872
29.478251
6.141245
-19.371071
-29.153912
-16.148518
8.641872
23.787678
15.404733
-11.672718
-39.366211
-50.724045
-40.076733
-13.640833
16.871935
41.359463
53.856903
51.525253
35.185966
11.549157
-8.584774
-17.225393
-14.036620
-4.705710
3.691923
6.566561
4.021871
0.158630
-0.778692
1.893513
4.985281
3.897048
-4.387539
-18.786860
-32.470345
-34.058891
-14.188144
25.761389
71.830002
105.631393
113.958412
92.398407
45.829659
-11.574054
-60.533817
-85.289398
-81.603096
-59.542992
-36.897457
-25.220594
-21.403145
-13.849065
4.099163
26.948347
41.513245
38.336884
19.583462
-3.753173
-20.611837
-25.329445
-18.949608
-8.566959
-2.865462
-5.867832
-14.783581
-22.852093
-24.111446
-16.699741
-2.886489
12.401167
23.452099
26.947124
24.097744
18.766380
13.721980
9.334579
5.807560
5.507351
11.122271
21.102722
28.614809
26.312738
12.338896
-8.293824
-27.695318
-39.445522
-39.544098
-26.549763
-3.437543
22.053150
41.026020
47.334675
38.176804
13.413602
-22.669819
-59.039478
-81.232933
-80.371239
-59.886169
-33.607815
-15.413031
-7.996144
-1.730934
14.948520
44.336174
76.955811
98.128899
97.693687
76.028603
42.502975
8.076001
-21.231461
-44.411835
-60.362675
-64.636002
-53.584969
-31.619316
-10.833516
-1.082192
-1.235989
-1.432319
5.593918
15.934340
18.415497
6.474919
-15.105926
-34.039871
-40.095764
-32.426922
-18.323082
-4.650177
8.309341
24.037085
42.422066
56.438118
56.230904
37.098305
4.618948
-27.127386
-42.329857
-31.173132
3.902892
47.167313
77.783844
82.746201
63.538776
32.445057
3.705280
-14.434844
-22.615719
-26.641373
-30.956215
-35.211914
-35.889400
-30.355112
-19.157429
-4.771897
10.657896
25.340528
36.307491
39.444836
31.498993
11.531450
-18.778788
-54.237442
-85.600731
-102.453545
-98.469444
-74.501839
-37.601376
2.359681
36.462307
59.558250
71.032516
73.219238
68.602112
58.344776
43.590824
26.882038
10.468082
-6.553879
-27.425060
-52.452637
-74.582764
-81.509598
-63.877499
-23.592758
24.526266
60.543732
71.463852
57.824699
30.773262
4.014052
-13.548867
-20.697531
-20.891008
-17.717733
-14.351444
-14.607524
-21.030605
-31.850504
-40.355171
-37.568390
-17.557671
17.216343
54.736778
79.127899
79.775978
56.478024
18.556854
-19.357292
-44.163948
-51.166695
-44.996944
-34.057335
-24.365086
-17.127338
-10.258178
-2.059217
5.837562
9.024950
3.927707
-8.980187
-24.572813
-35.116005
-34.043221
-19.294477
5.500647
32.329910
52.495625
60.115005
52.499523
29.841642
-2.945530
-35.885181
-58.818584
-67.455803
-63.944969
-52.049427
-33.060722
-7.006080
22.429199
45.721470
52.020065
36.313625
3.352050
-33.208965
-56.626347
-56.384346
-34.504288
-3.213976
23.726231
38.657352
41.199699
34.105091
20.103434
3.062524
-10.526372
-14.069698
-5.878345
8.073317
17.279177
14.532259
1.505853
-12.758842
-17.734138
-7.390215
15.879887
41.881500
58.622574
60.090103
50.226166
39.917755
38.885265
48.333672
60.137848
63.357300
52.103249
28.471403
0.385127
-22.868769
-35.407677
-37.321625
-33.028027
-26.927856
-20.531971
-13.648648
-7.861490
-7.411248
-14.760709
-25.297361
-28.823105
-18.166174
3.637915
25.092575
35.450375
32.726517
23.055323
12.841369
2.675579
-10.919496
-29.399967
-49.134487
-63.794750
-68.965309
-65.031143
-56.942635
-51.523636
-53.866905
-64.911087
-81.302032
-96.742599
-104.184387
-98.574753
-78.341843
-44.320789
1.662149
55.493362
108.082115
146.665405
161.887741
154.550308
135.351517
117.412056
106.321762
95.090996
70.015739
24.178614
-33.928848
-85.834984
-116.799805
-123.842171
-113.757950
-96.661110
-79.130219
-61.156223
-40.125278
-16.019272
8.453213
29.991495
45.412300
51.426899
44.603054
22.668371
-12.718019
-54.010300
-88.573837
-102.518234
-87.482475
-47.534878
0.793735
38.163673
53.532692
47.056175
25.913044
-0.472670
-23.906530
-39.336475
-44.134098
-37.138298
-20.240227
0.054055
14.766902
17.177549
6.362962
-12.087329
-28.135948
-32.266964
-21.285366
-0.735721
17.920116
23.955038
14.126960
-5.535439
-24.202482
-32.900616
-29.090343
-16.437323
0.060774
17.635742
33.667721
42.805473
39.280621
22.880718
1.838457
-12.316852
-14.088431
-7.697335
-2.133912
-3.855590
-13.066805
-24.583122
-31.154215
-26.783047
-9.640456
15.382301
36.896198
42.487823
27.036308
-2.653260
-30.954969
-42.885944
-34.208820
-13.222185
8.831573
27.646151
45.013317
62.225609
77.030022
84.258217
78.203957
57.057224
26.212994
-3.832110
-24.035440
-32.414021
-33.746552
-34.065029
-35.601940
-35.613083
-28.449091
-9.837396
18.525179
48.158543
69.005096
76.360764
72.537170
62.671265
50.565590
38.018742
25.730919
13.810353
2.187916
-8.624043
-16.468744
-17.331879
-7.805821
11.206411
33.492771
50.494068
56.303921
51.150707
39.840343
26.358423
10.566047
-9.790356
-34.498253
-58.355774
-73.436989
-75.033958
-65.872437
-53.797039
-45.184589
-40.552052
-35.018154
-22.472736
-1.039465
24.385504
44.732674
52.765652
48.884945
40.714146
35.501835
34.225128
32.565563
25.679853
13.721130
3.875582
5.392686
21.711069
46.750896
68.395187
76.822990
70.845711
56.635700
40.980312
26.338579
11.556132
-4.213346
-18.860086
-28.305744
-29.712029
-23.279337
-11.185694
4.220514
20.612316
35.055912
44.866116
48.790607
46.004433
35.331474
18.238413
2.181205
-2.306059
10.386085
36.544506
66.394402
90.296875
102.661659
102.714783
93.524338
80.218170
67.436806
57.408676
50.451672
46.679256
46.318207
48.119980
48.202206
42.269600
29.446793
12.398385
-6.202235
-25.444757
-44.453152
-60.626007
-70.724457
-73.780144
-72.377342
-70.619247
-70.833191
-72.251572
-72.850548
-72.292267
-72.615463
-76.201881
-83.713661
-93.301437
-99.696465
-93.916740
-68.636055
-28.916279
5.981116
18.892101
10.498317
-5.972303
-19.689730
-28.411394
-37.238213
-53.114201
-76.583847
-100.386406
-116.321526
-120.358551
-112.323349
-93.021286
-62.282269
-21.596004
21.615042
56.084740
74.352608
76.591064
67.363304
51.241161
31.634932
11.473792
-6.017074
-17.151148
-19.277456
-12.987018
-2.335477
7.567840
13.747508
16.867136
20.004293
25.936821
34.915253
44.429420
51.460121
55.532848
59.402645
66.134850
75.920959
87.160789
100.227737
116.552795
131.410858
131.595078
107.394325
66.319229
27.859339
5.040229
-3.092471
-4.616980
-7.057849
-12.668207
-17.358391
-16.306408
-9.074304
2.214119
15.335550
27.375532
34.689541
34.275875
26.087406
15.306797
10.129892
13.927479
19.568104
14.630295
-5.638048
-32.406109
-52.574181
-62.115612
-67.320961
-75.190697
-87.090858
-100.614677
-113.384361
-124.680244
-134.623627
-141.872421
-142.892502
-133.670593
-111.489075
-76.185242
-31.426291
14.918501
52.951054
75.971764
84.917618
86.916634
89.585686
96.822495
108.259995
121.307877
133.742310
144.437820
152.028000
153.657593
145.399109
124.607109
93.057480
57.685867
26.788157
4.337410
-12.189222
-28.272301
-46.859497
-66.546547
-84.435616
-99.549751
-113.309402
-127.794373
-144.068176
-161.211548
-175.932571
-183.208603
-178.177780
-158.178955
-123.503769
-77.872101
-29.818132
9.381680
33.532730
45.386440
50.254372
49.395889
40.900158
23.786600
1.282333
-19.557758
-32.891670
-37.474510
-35.057621
-28.032206
-18.412968
-7.916424
1.320950
6.987175
7.482341
2.462379
-6.860820
-18.617262
-31.891228
-46.568401
-61.745056
-75.138916
-83.965767
-86.068459
-80.554733
-68.068352
-50.819321
-32.029556
-14.610266
0.170633
12.549323
22.353676
27.490046
24.908873
13.405162
-3.691472
-17.881681
-19.240202
-4.644976
16.332985
28.280899
26.582516
22.257273
26.243938
36.181702
41.946941
36.163292
18.625469
-3.367002
-20.466497
-28.815598
-30.235277
-27.578253
-22.211788
-13.974697
-3.173191
7.074659
12.076287
9.628363
2.104119
-5.710618
-10.775263
-13.802144
-17.541958
-23.455715
-29.791550
-32.709518
-29.483776
-20.983620
-11.456740
-5.737434
-6.019199
-11.006952
-18.075611
-26.058222
-36.017120
-49.660912
-67.070251
-85.417412
-99.004913
-100.113373
-81.186371
-39.498039
17.970919
75.584145
117.953751
139.011444
142.579880
135.868820
123.932098
108.764297
90.693245
69.776535
47.192261
26.314451
12.145243
8.999094
18.078568
36.383392
57.577869
74.809761
83.858917
84.277969
78.253693
68.807724
58.439857
48.532372
39.726940
32.644890
27.889212
25.483442
24.680984
24.422709
24.013880
23.626335
24.511065
28.674843
37.834431
52.189850
69.944740
87.912346
102.663315
111.435623
112.568268
105.918045
93.699524
80.839699
73.097046
73.494522
80.363907
89.013237
95.376823
98.318176
98.866333
97.674438
93.174927
81.720016
59.496552
24.976124
-19.924931
-70.697609
-121.478928
-165.306366
-194.695328
-204.096207
-193.610977
-171.079681
-148.682846
-134.889023
-129.329758
-125.302925
-115.889587
-98.684967
-77.966217
-63.098911
-62.488483
-76.728737
-96.817444
-110.232597
-110.700050
-102.247200
-93.574081
-90.020386
-91.269791
-94.333801
-96.945930
-98.385193
-98.356483
-96.523216
-93.249695
-90.023178
-88.745895
-90.144951
-92.944778
-95.204048
-95.967529
-95.126801
-92.424370
-87.031624
-78.035500
-65.628258
-51.805237
-39.426788
-30.316717
-24.188522
-19.398340
-14.738313
-10.551165
-8.330713
-9.273220
-12.765573
-15.832637
-14.155881
-4.313976
14.099538
37.970547
62.173405
82.061295
95.379059
102.778221
107.094475
111.661392
118.105499
125.115761
129.518463
128.753418
122.548225
112.678848
101.317894
89.528542
77.424850
65.608360
55.719772
49.266933
46.498543
46.770260
49.580879
55.085655
63.715366
74.766594
84.752838
87.532150
77.640495
55.378380
28.578346
7.375809
-3.363867
-6.073068
-6.952124
-11.878087
-23.502979
-40.101841
-57.112453
-69.814156
-75.243690
-73.284340
-66.750275
-59.864208
-55.535023
-53.416245
-50.829529
-45.924240
-39.965050
-36.453632
-37.553143
-40.795879
-39.594936
-28.255339
-7.530804
15.005161
30.813326
36.524494
34.602028
29.573187
24.186419
18.063711
9.418513
-1.868727
-13.110992
-20.538954
-21.669403
-16.425127
-6.776771
4.474009
14.663890
21.582279
23.919838
21.991158
17.655729
12.915318
8.247345
2.505747
-5.277833
-14.376853
-22.809422
-28.566084
-30.111584
-26.432274
-17.363241
-4.073308
11.028623
25.292761
36.879040
44.676319
47.215321
42.278179
28.674398
8.764271
-11.962855
-28.863483
-41.083595
-50.094181
-56.371937
-58.126888
-52.743984
-39.570301
-21.870337
-5.870254
2.599942
0.975119
-9.642624
-25.982159
-44.275299
-61.135918
-73.653976
-79.087730
-74.905373
-59.751667
-34.768208
-3.922459
27.195551
52.911781
68.129776
69.194695
56.070858
33.595856
9.446752
-9.430493
-19.196342
-19.803474
-13.829350
-4.157972
6.943752
17.002674
23.171049
23.436558
17.765436
8.004528
-3.347355
-14.352630
-23.929926
-31.413660
-36.164425
-37.674564
-35.818420
-30.990034
-24.351786
-17.782745
-12.909447
-9.910760
-7.268663
-2.568451
6.290725
20.098297
37.975567
57.731331
76.687729
92.605125
104.198227
110.973122
112.968788
111.091965
107.362541
103.938438
101.726097
100.453896
100.019424
101.203880
104.967339
110.958870
116.392990
116.757286
108.602272
92.158333
71.040108
49.164398
28.110374
7.410784
-13.274428
-32.672756
-48.266796
-57.879414
-60.979561
-58.631912
-52.309597
-42.976460
-31.838339
-21.953688
-17.883234
-22.614571
-34.781864
-49.279259
-60.853931
-67.429062
-70.418991
-72.366508
-74.569199
-76.662239
-77.829552
-78.038879
-78.064667
-78.434738
-78.581314
-77.073639
-72.357094
-62.915073
-47.088474
-24.272093
2.307560
24.988569
36.406067
35.464203
27.437181
18.423309
10.722918
2.887249
-7.006425
-18.423660
-28.595957
-35.042583
-37.130772
-35.558456
-31.116873
-24.222565
-15.755243
-8.027233
-4.116954
-5.833390
-12.367352
-20.935240
-28.737486
-34.377666
-37.608910
-38.000114
-34.068195
-24.207201
-9.108886
7.148042
19.624384
26.137299
27.684450
26.355316
24.175077
22.804667
22.861118
24.132612
26.703415
30.835875
36.071064
41.573280
47.029102
52.610977
58.261837
62.970722
64.658020
61.236801
52.148987
38.871750
23.994473
9.893642
-1.894246
-10.402169
-14.650113
-13.645032
-7.335927
2.344283
11.620069
16.389168
14.150440
5.147683
-7.867576
-20.972237
-30.778105
-35.719067
-36.287109
-34.175610
-30.944195
-27.031570
-21.623838
-13.313842
-1.188008
14.106530
29.917227
42.291042
47.782749
45.417957
37.315891
27.256618
18.249638
11.081138
4.906551
-0.884080
-5.408542
-6.722761
-3.217083
5.294382
17.287411
29.910427
39.707695
43.555984
39.876740
29.574921
15.722916
1.916514
-9.429902
-17.459623
-22.065123
-23.202148
-20.862238
-15.389361
-7.868879
-0.069823
6.376564
10.817200
13.628323
15.633179
17.476549
19.337379
20.981636
21.916441
21.542555
19.339613
15.021459
8.592477
0.344463
-9.134157
-18.920485
-27.807049
-34.627090
-38.755577
-40.267830
-39.542736
-36.945740
-33.180885
-29.855089
-29.316513
-33.573727
-43.067421
-56.231281
-70.189362
-82.124084
-90.390007
-94.778557
-96.025093
-95.014038
-92.211716
-87.700394
-81.752625
-75.418228
-70.376503
-67.609207
-65.424805
-58.773518
-42.198910
-15.499563
13.967895
36.754433
49.219288
54.806805
58.798458
63.862858
69.424454
73.075554
72.804329
68.354980
60.220646
48.506546
33.975319
19.309633
8.013958
1.648368
-1.756067
-6.148896
-14.026830
-24.357786
-33.541225
-38.119709
-36.803394
-30.797592
-22.981426
-16.455866
-12.977381
-12.128303
-11.571120
-8.222731
0.031194
13.078261
28.773802
44.369034
57.971523
69.074951
78.084816
85.408859
90.791977
93.345566
92.252937
87.604469
80.713600
73.688271
68.554008
66.478104
67.424660
70.149872
72.358948
70.995667
63.059540
47.908157
30.269558
19.282164
21.120991
32.824081
45.753593
53.556225
55.101452
53.011868
50.725216
48.296387
41.847427
28.729380
10.971772
-6.725969
-20.670931
-30.374350
-37.635620
-43.535740
-47.355499
-48.299843
-47.082428
-45.585556
-45.517746
-47.625526
-51.643875
-56.460136
-60.486130
-62.309902
-61.325668
-57.807255
-52.365387
-45.553337
-37.969940
-30.249634
-22.666885
-15.087949
-7.795186
-2.252607
-0.529460
-3.749421
-11.161634
-20.666294
-30.149645
-38.319893
-44.226089
-45.944607
-40.171757
-24.186356
0.937985
29.477119
54.394035
71.883011
82.882614
90.869598
98.326118
104.755165
107.791649
106.114952
101.184982
