EVENT_NAME: EMILIA_2ND_SHOCK
EVENT_ID: IT-2012-0011
EVENT_DATE_YYYYMMDD: 20120529
EVENT_TIME_HHMMSS: 070002
EVENT_LATITUDE_DEGREE: 44.8417
EVENT_LONGITUDE_DEGREE: 11.0657
EVENT_DEPTH_KM: 8.1
HYPOCENTER_REFERENCE: INGV-CNT_Seismic_Bulletin
MAGNITUDE_W: 6.0
MAGNITUDE_W_REFERENCE: RCMT-INGV
MAGNITUDE_L: 5.8
MAGNITUDE_L_REFERENCE: INGV-CNT_Seismic_Bulletin
FOCAL_MECHANISM: TF
NETWORK: TV
STATION_CODE: MIR01
STATION_NAME: MEDOLLA
STATION_LATITUDE_DEGREE: 44.844042
STATION_LONGITUDE_DEGREE: 11.071316
STATION_ELEVATION_M: 
LOCATION: 
SENSOR_DEPTH_M: 
VS30_M/S: 
SITE_CLASSIFICATION_EC8: C*
MORPHOLOGIC_CLASSIFICATION: 
EPICENTRAL_DISTANCE_KM: 0.5
EARTHQUAKE_BACKAZIMUTH_DEGREE: 239.6
DATE_TIME_FIRST_SAMPLE_YYYYMMDD_HHMMSS: 20120529_065945.000
DATE_TIME_FIRST_SAMPLE_PRECISION: milliseconds
SAMPLING_INTERVAL_S: 0.005000
NDATA: 105
DURATION_S: 
STREAM: HNE
UNITS: cm/s^2
INSTRUMENT: sensor = Episensor FBA ES-T [Kinemetrics] | digitizer = Unknown [Unknown]
INSTRUMENT_ANALOG/DIGITAL: D
INSTRUMENTAL_FREQUENCY_HZ: 
INSTRUMENTAL_DAMPING: 
FULL_SCALE_G: 
N_BIT_DIGITAL_CONVERTER: 
PGV_CM/S: 31.325017
TIME_PGV_S: 26.005000
BASELINE_CORRECTION: BASELINE REMOVED
FILTER_TYPE: BUTTERWORTH
FILTER_ORDER: 2
LOW_CUT_FREQUENCY_HZ: 0.050
HIGH_CUT_FREQUENCY_HZ: 40.000
LATE/NORMAL_TRIGGERED: NT
DATABASE_VERSION: DYNA 1.0
HEADER_FORMAT: DYNA 1.2
DATA_TYPE: PSEUDO-VELOCITY RESPONSE SPECTRUM
PROCESSING: manual (Paolucci et al., 2011)
DATA_TIMESTAMP_YYYYMMDD_HHMMSS: 
DATA_LICENSE: CC-BY4_0 (http://creativecommons.org/licenses/by/4.0/)
DATA_CITATION: ESM working group (2015), European Strong-Motion database, version 0.1, Network Activity 3: Networking acceleration networks and SM data users. Project NERA (www.nera-eu.org)
DATA_CREATOR: ESM working group
ORIGINAL_DATA_MEDIATOR_CITATION: Orfeus - European Integrated Data Archive (EIDA) http://www.orfeus-eu.org/eida/
ORIGINAL_DATA_MEDIATOR: Orfeus - European Integrated Data Archive (EIDA)
ORIGINAL_DATA_CREATOR_CITATION: 
ORIGINAL_DATA_CREATOR: network: TV (INGV Experiments Network); owner: Istituto Nazionale di Geofisica e Vulcanologia
USER1: 
USER2: 
USER3: 
USER4: 
USER5: 
    0.010000     0.654879
    0.020000     1.324137
    0.022000     1.459912
    0.025000     1.670922
    0.029000     2.004680
    0.030000     2.074795
    0.032000     2.169112
    0.035001     2.360265
    0.036000     2.456017
    0.040000     2.814103
    0.041999     2.897378
    0.044001     2.922022
    0.045000     2.923963
    0.046000     3.027509
    0.048001     3.392784
    0.050000     3.774149
    0.054999     4.430229
    0.059999     4.900187
    0.064998     5.892496
    0.067002     6.369138
    0.069999     6.504827
    0.075002     6.441012
    0.080000     7.309384
    0.084998     7.806267
    0.090001     8.545759
    0.095003    10.183352
    0.100000    12.027391
    0.109999    14.177044
    0.120005    17.975117
    0.130005    15.337851
    0.132996    15.351748
    0.139997    16.087255
    0.149993    15.520945
    0.160000    21.444422
    0.170010    23.116819
    0.179986    33.534924
    0.190006    34.235130
    0.200000    32.102596
    0.220022    36.896149
    0.239981    44.074024
    0.250000    43.277821
    0.260010    50.167706
    0.280034    56.302376
    0.290023    67.366188
    0.300030    77.468132
    0.320000    79.714455
    0.340020    75.079117
    0.350017    74.128601
    0.359971    70.774963
    0.379939    54.947399
    0.400000    42.145088
    0.419992    38.982651
    0.439947    38.914764
    0.450045    43.625252
    0.459982    47.478188
    0.480077    56.073284
    0.500000    58.562828
    0.550055    67.216454
    0.599880    59.684444
    0.650195    81.065704
    0.667111    84.773178
    0.699790    83.916069
    0.750188    78.121574
    0.800000    59.596058
    0.850340    44.601532
    0.900090    38.148235
    0.949668    40.760529
    1.000000    41.565075
    1.100110    46.758251
    1.200480    43.621597
    1.300390    42.555317
    1.400560    50.410324
    1.499250    61.714211
    1.600000    65.815521
    1.700680    63.452950
    1.798561    58.520004
    1.901141    66.611076
    2.000000    67.717880
    2.197802    64.937691
    2.398082    56.839985
    2.500000    52.134212
    2.597403    47.667370
    2.801121    42.604069
    3.003003    37.518112
    3.205128    33.011040
    3.401361    29.028526
    3.496503    27.259102
    3.597122    25.606955
    3.802281    22.520374
    4.000000    19.662485
    4.201681    18.014112
    4.405286    16.767456
    4.608295    15.608130
    4.807692    14.523780
    5.000000    13.506621
    5.494505    11.859558
    5.988024    10.456814
    6.493506     9.226745
    6.993007     8.661975
    7.518797     8.129817
    8.000000     7.627178
    8.474576     7.155233
    9.009009     6.717744
    9.523809     6.316820
   10.000000     5.951679
