EVENT_NAME: EMILIA_2ND_SHOCK
EVENT_ID: IT-2012-0011
EVENT_DATE_YYYYMMDD: 20120529
EVENT_TIME_HHMMSS: 070002
EVENT_LATITUDE_DEGREE: 44.8417
EVENT_LONGITUDE_DEGREE: 11.0657
EVENT_DEPTH_KM: 8.1
HYPOCENTER_REFERENCE: INGV-CNT_Seismic_Bulletin
MAGNITUDE_W: 6.0
MAGNITUDE_W_REFERENCE: RCMT-INGV
MAGNITUDE_L: 5.8
MAGNITUDE_L_REFERENCE: INGV-CNT_Seismic_Bulletin
FOCAL_MECHANISM: TF
NETWORK: TV
STATION_CODE: MIR02
STATION_NAME: MIRANDOLA MRN
STATION_LATITUDE_DEGREE: 44.886948
STATION_LONGITUDE_DEGREE: 11.073198
STATION_ELEVATION_M: 
LOCATION: 
SENSOR_DEPTH_M: 
VS30_M/S: 
SITE_CLASSIFICATION_EC8: C*
MORPHOLOGIC_CLASSIFICATION: 
EPICENTRAL_DISTANCE_KM: 5.1
EARTHQUAKE_BACKAZIMUTH_DEGREE: 186.7
DATE_TIME_FIRST_SAMPLE_YYYYMMDD_HHMMSS: 20120529_065950.000
DATE_TIME_FIRST_SAMPLE_PRECISION: milliseconds
SAMPLING_INTERVAL_S: 0.005000
NDATA: 12601
DURATION_S: 63.005
STREAM: HNZ
UNITS: cm/s
INSTRUMENT: sensor = Episensor FBA ES-T [Kinemetrics] | digitizer = Unknown [Unknown]
INSTRUMENT_ANALOG/DIGITAL: D
INSTRUMENTAL_FREQUENCY_HZ: 
INSTRUMENTAL_DAMPING: 
FULL_SCALE_G: 
N_BIT_DIGITAL_CONVERTER: 
PGV_CM/S: 12.009883
TIME_PGV_S: 17.100000
BASELINE_CORRECTION: BASELINE REMOVED
FILTER_TYPE: BUTTERWORTH
FILTER_ORDER: 2
LOW_CUT_FREQUENCY_HZ: 0.050
HIGH_CUT_FREQUENCY_HZ: 40.000
LATE/NORMAL_TRIGGERED: NT
DATABASE_VERSION: DYNA 1.0
HEADER_FORMAT: DYNA 1.2
DATA_TYPE: VELOCITY
PROCESSING: manual (Paolucci et al., 2011)
DATA_TIMESTAMP_YYYYMMDD_HHMMSS: 20141028_094514.539
DATA_LICENSE: CC-BY4_0 (http://creativecommons.org/licenses/by/4.0/)
DATA_CITATION: ESM working group (2015), European Strong-Motion database, version 0.1, Network Activity 3: Networking acceleration networks and SM data users. Project NERA (www.nera-eu.org)
DATA_CREATOR: ESM working group
ORIGINAL_DATA_MEDIATOR_CITATION: Orfeus - European Integrated Data Archive (EIDA) http://www.orfeus-eu.org/eida/
ORIGINAL_DATA_MEDIATOR: Orfeus - European Integrated Data Archive (EIDA)
ORIGINAL_DATA_CREATOR_CITATION: 
ORIGINAL_DATA_CREATOR: network: TV (INGV Experiments Network); owner: Istituto Nazionale di Geofisica e Vulcanologia
USER1: /home/dyna/processing-itaca/processing.py /var/www/processing/tmp/Lucia//TV.MIR02..HNE.D.20120529.070003.X.ACC.ASC /var/www/processing/tmp/Lucia//TV.MIR02..HNN.D.20120529.070003.X.ACC.ASC /var/www/processing/tmp/Lucia//TV.MIR02..HNZ.D.20120529.070003.X.ACC.ASC --tmp /var/www/processing/tmp/Lucia/ --le 0.050 --he 40.000 --ln 0.050 --hn 40.000 --lz 0.050 --hz 40.000 --fo 2 --ca 50 --cz 180 --ta 5 --tz 5 --mf 1 --rf 0 --tr NT
USER2: 
USER3: 
USER4: 
USER5: 
[...]
-0.259811
-0.260159
-0.260505
-0.260892
-0.261338
-0.261834
-0.262358
-0.262890
-0.263416
-0.263923
-0.264405
-0.264855
-0.265277
-0.265690
-0.266118
-0.266567
-0.267025
-0.267479
-0.267923
-0.268349
-0.268745
-0.269120
-0.269495
-0.269867
-0.270221
-0.270560
-0.270913
-0.271310
-0.271760
-0.272248
-0.272736
-0.273198
-0.273630
-0.274055
-0.274490
-0.274939
-0.275393
-0.275849
-0.276311
-0.276781
-0.277257
-0.277737
-0.278224
-0.278723
-0.279235
-0.279756
-0.280275
-0.280786
-0.281279
-0.281740
-0.282165
-0.282580
-0.283032
-0.283539
-0.284086
-0.284646
-0.285191
-0.285700
-0.286175
-0.286625
-0.287057
-0.287476
-0.287896
-0.288323
-0.288752
-0.289169
-0.289564
-0.289935
-0.290297
-0.290670
-0.291072
-0.291509
-0.291966
-0.292413
-0.292825
-0.293204
-0.293573
-0.293955
-0.294369
-0.294820
-0.295299
-0.295788
-0.296276
-0.296758
-0.297231
-0.297687
-0.298125
-0.298550
-0.298978
-0.299419
-0.299879
-0.300354
-0.300838
-0.301327
-0.301819
-0.302311
-0.302800
-0.303282
-0.303751
-0.304205
-0.304659
-0.305137
-0.305649
-0.306173
-0.306681
-0.307176
-0.307667
-0.308146
-0.308607
-0.309060
-0.309528
-0.310017
-0.310514
-0.310996
-0.311462
-0.311932
-0.312424
-0.312937
-0.313454
-0.313960
-0.314453
-0.314931
-0.315388
-0.315819
-0.316238
-0.316684
-0.317177
-0.317712
-0.318274
-0.318850
-0.319417
-0.319943
-0.320403
-0.320806
-0.321182
-0.321554
-0.321925
-0.322299
-0.322696
-0.323131
-0.323600
-0.324092
-0.324608
-0.325138
-0.325656
-0.326147
-0.326617
-0.327073
-0.327511
-0.327932
-0.328360
-0.328813
-0.329286
-0.329763
-0.330240
-0.330726
-0.331217
-0.331708
-0.332205
-0.332715
-0.333227
-0.333730
-0.334221
-0.334693
-0.335143
-0.335587
-0.336052
-0.336542
-0.337040
-0.337532
-0.338032
-0.338560
-0.339118
-0.339688
-0.340255
-0.340800
-0.341296
-0.341730
-0.342126
-0.342532
-0.342968
-0.343413
-0.343836
-0.344248
-0.344689
-0.345193
-0.345744
-0.346289
-0.346790
-0.347266
-0.347768
-0.348318
-0.348907
-0.349516
-0.350117
-0.350660
-0.351099
-0.351450
-0.351784
-0.352162
-0.352585
-0.353015
-0.353445
-0.353919
-0.354477
-0.355099
-0.355732
-0.356343
-0.356938
-0.357533
-0.358113
-0.358643
-0.359106
-0.359499
-0.359833
-0.360147
-0.360500
-0.360933
-0.361445
-0.361990
-0.362532
-0.363080
-0.363649
-0.364198
-0.364667
-0.365051
-0.365406
-0.365792
-0.366229
-0.366696
-0.367171
-0.367640
-0.368090
-0.368513
-0.368918
-0.369332
-0.369784
-0.370286
-0.370826
-0.371387
-0.371964
-0.372547
-0.373113
-0.373627
-0.374085
-0.374518
-0.374971
-0.375467
-0.375987
-0.376508
-0.377029
-0.377573
-0.378158
-0.378788
-0.379460
-0.380142
-0.380790
-0.381372
-0.381885
-0.382354
-0.382812
-0.383279
-0.383758
-0.384250
-0.384771
-0.385334
-0.385917
-0.386471
-0.386978
-0.387463
-0.387939
-0.388393
-0.388822
-0.389259
-0.389734
-0.390238
-0.390739
-0.391224
-0.391717
-0.392237
-0.392769
-0.393282
-0.393756
-0.394181
-0.394567
-0.394945
-0.395348
-0.395776
-0.396206
-0.396626
-0.397049
-0.397512
-0.398044
-0.398640
-0.399256
-0.399849
-0.400407
-0.400943
-0.401471
-0.401993
-0.402504
-0.402981
-0.403420
-0.403844
-0.404275
-0.404721
-0.405188
-0.405674
-0.406163
-0.406647
-0.407132
-0.407629
-0.408128
-0.408621
-0.409116
-0.409630
-0.410178
-0.410762
-0.411363
-0.411968
-0.412566
-0.413143
-0.413678
-0.414165
-0.414632
-0.415110
-0.415606
-0.416116
-0.416640
-0.417176
-0.417715
-0.418251
-0.418786
-0.419320
-0.419844
-0.420348
-0.420838
-0.421326
-0.421822
-0.422329
-0.422861
-0.423435
-0.424051
-0.424684
-0.425298
-0.425868
-0.426385
-0.426852
-0.427279
-0.427694
-0.428135
-0.428631
-0.429178
-0.429740
-0.430281
-0.430791
-0.431278
-0.431759
-0.432239
-0.432699
-0.433124
-0.433541
-0.433993
-0.434482
-0.434988
-0.435502
-0.436030
-0.436564
-0.437089
-0.437599
-0.438095
-0.438574
-0.439039
-0.439504
-0.439981
-0.440477
-0.440986
-0.441501
-0.442017
-0.442534
-0.443063
-0.443625
-0.444234
-0.444877
-0.445533
-0.446186
-0.446815
-0.447396
-0.447927
-0.448422
-0.448900
-0.449381
-0.449882
-0.450391
-0.450880
-0.451336
-0.451774
-0.452221
-0.452679
-0.453123
-0.453542
-0.453966
-0.454434
-0.454940
-0.455445
-0.455935
-0.456430
-0.456941
-0.457448
-0.457926
-0.458385
-0.458860
-0.459379
-0.459951
-0.460545
-0.461118
-0.461646
-0.462141
-0.462628
-0.463118
-0.463607
-0.464109
-0.464648
-0.465224
-0.465803
-0.466364
-0.466905
-0.467439
-0.467971
-0.468505
-0.469038
-0.469563
-0.470082
-0.470615
-0.471168
-0.471729
-0.472275
-0.472800
-0.473313
-0.473822
-0.474332
-0.474833
-0.475310
-0.475755
-0.476183
-0.476624
-0.477106
-0.477639
-0.478219
-0.478822
-0.479419
-0.479983
-0.480493
-0.480949
-0.481370
-0.481782
-0.482203
-0.482643
-0.483098
-0.483563
-0.484050
-0.484583
-0.485158
-0.485736
-0.486294
-0.486846
-0.487408
-0.487965
-0.488494
-0.488987
-0.489459
-0.489941
-0.490442
-0.490936
-0.491395
-0.491842
-0.492319
-0.492843
-0.493392
-0.493944
-0.494499
-0.495058
-0.495605
-0.496126
-0.496639
-0.497166
-0.497697
-0.498213
-0.498723
-0.499264
-0.499860
-0.500497
-0.501132
-0.501727
-0.502270
-0.502756
-0.503187
-0.503584
-0.503982
-0.504406
-0.504861
-0.505342
-0.505852
-0.506386
-0.506903
-0.507366
-0.507785
-0.508194
-0.508609
-0.509039
-0.509519
-0.510073
-0.510691
-0.511343
-0.512007
-0.512656
-0.513248
-0.513756
-0.514196
-0.514605
-0.515001
-0.515382
-0.515767
-0.516191
-0.516673
-0.517200
-0.517762
-0.518373
-0.519029
-0.519684
-0.520284
-0.520815
-0.521307
-0.521797
-0.522303
-0.522829
-0.523368
-0.523892
-0.524365
-0.524776
-0.525147
-0.525502
-0.525862
-0.526254
-0.526707
-0.527224
-0.527767
-0.528311
-0.528867
-0.529443
-0.530026
-0.530590
-0.531118
-0.531613
-0.532093
-0.532576
-0.533062
-0.533535
-0.533983
-0.534418
-0.534864
-0.535335
-0.535826
-0.536321
-0.536806
-0.537274
-0.537735
-0.538205
-0.538701
-0.539217
-0.539717
-0.540168
-0.540577
-0.540979
-0.541397
-0.541830
-0.542287
-0.542800
-0.543388
-0.544023
-0.544661
-0.545271
-0.545851
-0.546407
-0.546935
-0.547434
-0.547919
-0.548410
-0.548918
-0.549440
-0.549969
-0.550507
-0.551051
-0.551589
-0.552108
-0.552606
-0.553100
-0.553607
-0.554115
-0.554597
-0.555059
-0.555533
-0.556032
-0.556545
-0.557058
-0.557578
-0.558111
-0.558651
-0.559180
-0.559684
-0.560154
-0.560587
-0.560995
-0.561411
-0.561856
-0.562322
-0.562793
-0.563268
-0.563744
-0.564211
-0.564671
-0.565134
-0.565599
-0.566062
-0.566531
-0.567037
-0.567597
-0.568182
-0.568738
-0.569235
-0.569672
-0.570061
-0.570421
-0.570780
-0.571167
-0.571591
-0.572045
-0.572517
-0.572999
-0.573486
-0.573970
-0.574445
-0.574910
-0.575355
-0.575765
-0.576148
-0.576538
-0.576973
-0.577455
-0.577954
-0.578441
-0.578912
-0.579382
-0.579872
-0.580397
-0.580946
-0.581495
-0.582033
-0.582553
-0.583045
-0.583501
-0.583922
-0.584319
-0.584711
-0.585123
-0.585571
-0.586060
-0.586568
-0.587072
-0.587584
-0.588135
-0.588716
-0.589282
-0.589806
-0.590286
-0.590715
-0.591083
-0.591410
-0.591748
-0.592133
-0.592561
-0.593018
-0.593505
-0.594020
-0.594545
-0.595068
-0.595599
-0.596149
-0.596697
-0.597203
-0.597649
-0.598050
-0.598445
-0.598871
-0.599345
-0.599849
-0.600349
-0.600818
-0.601259
-0.601696
-0.602141
-0.602580
-0.602999
-0.603403
-0.603810
-0.604229
-0.604651
-0.605055
-0.605437
-0.605824
-0.606247
-0.606707
-0.607179
-0.607646
-0.608110
-0.608570
-0.609023
-0.609476
-0.609935
-0.610387
-0.610808
-0.611201
-0.611613
-0.612085
-0.612607
-0.613128
-0.613610
-0.614051
-0.614461
-0.614836
-0.615164
-0.615452
-0.615717
-0.615992
-0.616322
-0.616738
-0.617226
-0.617749
-0.618290
-0.618856
-0.619432
-0.619964
-0.620410
-0.620779
-0.621099
-0.621378
-0.621614
-0.621838
-0.622117
-0.622497
-0.622970
-0.623503
-0.624067
-0.624642
-0.625210
-0.625742
-0.626215
-0.626634
-0.627026
-0.627416
-0.627809
-0.628209
-0.628626
-0.629070
-0.629543
-0.630039
-0.630547
-0.631046
-0.631516
-0.631975
-0.632459
-0.632979
-0.633501
-0.633989
-0.634441
-0.634859
-0.635238
-0.635585
-0.635919
-0.636246
-0.636557
-0.636858
-0.637179
-0.637539
-0.637929
-0.638318
-0.638664
-0.638944
-0.639187
-0.639449
-0.639775
-0.640163
-0.640586
-0.641016
-0.641436
-0.641841
-0.642232
-0.642618
-0.643013
-0.643426
-0.643858
-0.644301
-0.644740
-0.645166
-0.645570
-0.645946
-0.646283
-0.646590
-0.646897
-0.647229
-0.647590
-0.647975
-0.648374
-0.648772
-0.649161
-0.649548
-0.649938
-0.650307
-0.650625
-0.650906
-0.651196
-0.651527
-0.651909
-0.652350
-0.652845
-0.653355
-0.653827
-0.654236
-0.654602
-0.654963
-0.655332
-0.655689
-0.656017
-0.656324
-0.656627
-0.656931
-0.657250
-0.657615
-0.658053
-0.658558
-0.659098
-0.659600
-0.659894
-0.659569
-0.657663
-0.652368
-0.641360
-0.623053
-0.597621
-0.566136
-0.528395
-0.482774
-0.429645
-0.374478
-0.324999
-0.283685
-0.245114
-0.203934
-0.164050
-0.134618
-0.115193
-0.088418
-0.029969
0.072929
0.207133
0.332521
0.401300
0.392123
0.331375
0.274667
0.259314
0.272484
0.267523
0.215489
0.139190
0.085108
0.061004
0.021191
-0.077959
-0.225745
-0.367485
-0.447664
-0.437193
-0.346364
-0.230545
-0.162071
-0.171516
-0.227321
-0.291328
-0.374191
-0.502304
-0.646549
-0.736121
-0.749155
-0.744779
-0.788462
-0.875201
-0.941744
-0.933139
-0.842575
-0.702423
-0.555494
-0.432193
-0.340039
-0.264549
-0.179897
-0.064976
0.080719
0.229137
0.338178
0.383016
0.363078
0.276222
0.119464
-0.066439
-0.196338
-0.225465
-0.204892
-0.210501
-0.240384
-0.228342
-0.147377
-0.049064
0.006536
0.012110
-0.011417
-0.055024
-0.113210
-0.168730
-0.212671
-0.263311
-0.339841
-0.422635
-0.466116
-0.458085
-0.445633
-0.486239
-0.579884
-0.665220
-0.686688
-0.652915
-0.618528
-0.609557
-0.573176
-0.422555
-0.154575
0.098992
0.180859
0.063348
-0.139194
-0.305469
-0.412719
-0.495137
-0.543520
-0.500028
-0.341683
-0.113871
0.125737
0.347777
0.529818
0.649518
0.709898
0.718542
0.638063
0.415217
0.070143
-0.284745
-0.526657
-0.606012
-0.556358
-0.457301
-0.396700
-0.423276
-0.502751
-0.554637
-0.565134
-0.625590
-0.806998
-1.018394
-1.064776
-0.872910
-0.606713
-0.503482
-0.616221
-0.781670
-0.843728
-0.834541
-0.898873
-1.093252
-1.321285
-1.451822
-1.438127
-1.313522
-1.126813
-0.905379
-0.652895
-0.370162
-0.090234
0.107123
0.135215
-0.027189
-0.303492
-0.572190
-0.757229
-0.858507
-0.896897
-0.859814
-0.719566
-0.479029
-0.179879
0.111775
0.323713
0.415025
0.404326
0.340830
0.251718
0.141249
0.030946
-0.036263
-0.032715
0.035227
0.128552
0.176919
0.112326
-0.062168
-0.245107
-0.313582
-0.258297
-0.213455
-0.288798
-0.396556
-0.337425
-0.062492
0.237085
0.334669
0.198341
-0.024002
-0.184348
-0.240741
-0.232884
-0.214976
-0.213770
-0.228262
-0.242486
-0.241413
-0.248628
-0.331182
-0.519501
-0.730136
-0.799367
-0.613095
-0.223971
0.159196
0.317606
0.177791
-0.151100
-0.470252
-0.629167
-0.606249
-0.483982
-0.361276
-0.292433
-0.284628
-0.314519
-0.337763
-0.296522
-0.141681
0.110002
0.330449
0.346687
0.104261
-0.244209
-0.466502
-0.495723
-0.499629
-0.669045
-1.007705
-1.376903
-1.647636
-1.734692
-1.583451
-1.237331
-0.866267
-0.622431
-0.484935
-0.323505
-0.096343
0.082710
0.070186
-0.154082
-0.475903
-0.780963
-1.067588
-1.409969
-1.835658
-2.247865
-2.460782
-2.325814
-1.825444
-1.054184
-0.157285
0.719035
1.481636
2.093033
2.499357
2.605252
2.353350
1.812541
1.179017
0.670003
0.402083
0.382747
0.575372
0.911353
1.269482
1.516151
1.586522
1.493404
1.263596
0.949067
0.687289
0.611990
0.694373
0.783127
0.794437
0.781332
0.822465
0.903742
0.931954
0.841537
0.662110
0.479452
0.351346
0.295791
0.357771
0.604921
0.989669
1.271001
1.173714
0.648913
-0.041744
-0.502551
-0.488154
-0.053415
0.559269
1.145084
1.621661
1.959461
2.135429
2.174169
2.170719
2.208855
2.250490
2.156537
1.857189
1.485203
1.311987
1.546122
2.181248
3.004761
3.720739
4.065689
3.886702
3.252140
2.521317
2.125118
2.119034
2.072488
1.580553
0.784755
0.212390
0.209797
0.690103
1.315234
1.769060
1.918840
1.846010
1.754767
1.774311
1.803957
1.668966
1.496165
1.770141
2.892665
4.761997
6.821093
8.424452
9.162700
9.055077
8.618692
8.598335
9.327959
10.340557
10.767000
10.123816
8.669470
7.054652
5.681434
4.438477
3.044870
1.502692
0.140892
-0.681641
-0.867550
-0.595879
-0.079430
0.551193
1.087367
1.234509
0.944256
0.568230
0.519850
0.929004
1.737930
2.948030
4.572901
6.386646
7.863197
8.485758
8.180703
7.386340
6.618932
6.041610
5.539632
5.142221
5.181661
5.892844
6.991605
7.953967
8.667406
9.464588
10.499576
11.419323
11.785561
11.628301
11.402454
11.469023
11.773261
12.009883
11.967948
11.657268
11.182612
10.648395
10.159557
9.737523
9.332860
9.105167
9.427146
10.360289
11.406971
11.982236
11.917541
11.437952
10.830694
10.211315
9.567493
8.923120
8.394531
8.175115
8.402743
8.837877
8.833390
7.921148
6.359706
4.980037
4.550065
5.214734
6.391304
7.254027
7.423334
7.146665
6.856316
6.753380
6.821716
6.959538
6.933201
6.405254
5.295585
4.118879
3.756338
4.760704
6.821851
8.848444
9.661888
8.840471
7.024345
5.388806
4.737480
5.010475
5.594845
6.003850
6.153510
6.063992
5.586807
4.670946
3.792599
3.715444
4.597505
5.587151
5.635987
4.596359
3.215820
2.186932
1.567192
1.073201
0.574927
0.160169
-0.097140
-0.187014
0.015440
0.746133
2.023686
3.401015
4.185300
3.938653
2.707910
0.862230
-1.057549
-2.403324
-2.717591
-2.090135
-1.040817
-0.017872
0.859399
1.597317
2.097938
2.249682
2.099853
1.782414
1.353700
0.829004
0.310877
-0.057609
-0.218998
-0.155345
0.201125
0.828296
1.422583
1.518995
0.874455
-0.248183
-1.202250
-1.436607
-0.833513
0.381914
1.817204
2.989723
3.559755
3.557103
3.177467
2.488202
1.637069
1.188645
1.819562
3.543431
5.418067
6.276156
5.851761
5.025262
4.817809
5.298411
5.662728
5.294462
4.503342
4.087976
4.322055
4.674634
4.538979
3.878182
3.029704
2.221535
1.505209
0.989496
0.933739
1.513571
2.484355
3.250878
3.412748
3.128661
2.859391
2.922061
3.421086
4.411471
5.863277
7.500086
8.838432
9.431559
9.126223
8.171969
7.067093
6.253277
5.943791
6.147306
6.731656
7.473609
8.122466
8.462796
8.416808
8.168356
8.054635
8.161141
8.085173
7.250812
5.478441
3.217081
1.251812
0.199553
0.186312
0.897812
1.919188
2.960096
3.710763
3.749843
2.923549
1.715099
0.909971
0.833889
1.091760
1.127005
0.891600
0.788075
1.028275
1.311332
1.192651
0.616099
-0.002426
-0.219546
-0.032370
0.225253
0.419755
0.825889
1.700190
2.781072
3.427378
3.327319
2.869455
2.653810
2.820988
3.000767
2.739842
1.883235
0.682286
-0.384802
-0.943647
-0.939373
-0.592614
-0.174313
0.215705
0.678049
1.303266
1.937370
2.222696
1.908278
1.074180
0.029819
-0.948239
-1.758411
-2.405855
-2.832464
-2.885352
-2.514234
-1.878468
-1.117968
-0.144967
1.163723
2.650150
3.884669
4.470563
4.307957
3.603977
2.674022
1.737811
0.876493
0.157907
-0.238872
-0.113088
0.503838
1.260612
1.722189
1.689919
1.290851
0.787277
0.321955
-0.160174
-0.782689
-1.576836
-2.441924
-3.216040
-3.768610
-4.043538
-4.036721
-3.775933
-3.342612
-2.848677
-2.342357
-1.787554
-1.182080
-0.656958
-0.400917
-0.491300
-0.859608
-1.428351
-2.177752
-3.008743
-3.617694
-3.641102
-3.005395
-2.094709
-1.425087
-1.111717
-0.806819
-0.193569
0.642789
1.371640
1.755961
1.752045
1.393162
0.729469
-0.073126
-0.706130
-0.944562
-0.845589
-0.585999
-0.160764
0.587671
1.613587
2.476771
2.651654
2.050361
1.140693
0.501291
0.340036
0.461767
0.583564
0.592453
0.516714
0.350471
0.025331
-0.459792
-0.991457
-1.444605
-1.803188
-2.200986
-2.818394
-3.644964
-4.358440
-4.567849
-4.191184
-3.479098
-2.689509
-1.930473
-1.343014
-1.172983
-1.496838
-2.020203
-2.295650
-2.114303
-1.631787
-1.104981
-0.571797
0.122074
1.054315
2.093611
2.929617
3.160839
2.529192
1.196435
-0.268417
-1.222558
-1.320761
-0.679162
0.272982
1.142085
1.795119
2.275332
2.599667
2.718794
2.621555
2.362735
1.997675
1.590083
1.276099
1.234050
1.558363
2.150200
2.726607
2.982555
2.789866
2.251140
1.581833
0.988964
0.670510
0.786777
1.258112
1.662451
1.543754
0.856124
0.022321
-0.428970
-0.247605
0.421689
1.194366
1.749811
2.071697
2.388481
2.862634
3.392293
3.733499
3.749526
3.515260
3.240700
3.134390
3.286686
3.601573
3.838017
3.775926
3.352896
2.631017
1.709916
0.746988
-0.009931
-0.321856
-0.108107
0.503299
1.245731
1.859499
2.239929
2.451270
2.566766
2.555430
2.386270
2.152928
2.017644
2.096658
2.416426
2.923565
3.566049
4.378056
5.384645
6.404398
7.068300
7.109871
6.629756
6.049569
5.743441
5.682128
5.516978
5.039348
4.423251
3.964371
3.733976
3.590794
3.450713
3.430361
3.679629
4.111527
4.385455
4.187819
3.513424
2.708305
2.267830
2.518534
3.400401
4.539083
5.515011
6.022076
5.855061
4.968997
3.630969
2.344495
1.471096
0.976761
0.650041
0.503411
0.805240
1.700206
2.894855
3.764605
3.801701
3.015950
1.921034
1.137195
0.963087
1.191400
1.280679
0.810299
-0.152190
-1.126300
-1.642474
-1.591081
-1.208075
-0.802606
-0.537466
-0.401378
-0.287960
-0.094009
0.199665
0.500569
0.631843
0.427293
-0.112625
-0.782142
-1.362480
-1.799719
-2.146460
-2.435077
-2.669809
-2.838433
-2.865676
-2.658178
-2.291319
-2.071193
-2.271240
-2.791878
-3.160025
-2.921657
-2.042416
-0.914856
-0.004257
0.471312
0.563811
0.392475
-0.048168
-0.845580
-1.926976
-2.947088
-3.495248
-3.437833
-3.073017
-2.895568
-3.129058
-3.525171
-3.687202
-3.535403
-3.361200
-3.430251
-3.639188
-3.641854
-3.239799
-2.547478
-1.851153
-1.402233
-1.244910
-1.157289
-0.856953
-0.306476
0.261994
0.611356
0.703950
0.644193
0.491997
0.191629
-0.326519
-1.019633
-1.700864
-2.126078
-2.173797
-1.965860
-1.749251
-1.642652
-1.565792
-1.422486
-1.266163
-1.256103
-1.505003
-1.982821
-2.546557
-3.087195
-3.646349
-4.308207
-4.965152
-5.305551
-5.101094
-4.464646
-3.802747
-3.526184
-3.756159
-4.234257
-4.522059
-4.368061
-3.938594
-3.674205
-3.882080
-4.476450
-5.112855
-5.504998
-5.592887
-5.499703
-5.392363
-5.360558
-5.411640
-5.562962
-5.863945
-6.273901
-6.562469
-6.417107
-5.700320
