EVENT_NAME: EMILIA_2ND_SHOCK
EVENT_ID: IT-2012-0011
EVENT_DATE_YYYYMMDD: 20120529
EVENT_TIME_HHMMSS: 070002
EVENT_LATITUDE_DEGREE: 44.8417
EVENT_LONGITUDE_DEGREE: 11.0657
EVENT_DEPTH_KM: 8.1
HYPOCENTER_REFERENCE: INGV-CNT_Seismic_Bulletin
MAGNITUDE_W: 6.0
MAGNITUDE_W_REFERENCE: RCMT-INGV
MAGNITUDE_L: 5.8
MAGNITUDE_L_REFERENCE: INGV-CNT_Seismic_Bulletin
FOCAL_MECHANISM: TF
NETWORK: TV
STATION_CODE: MIR08
STATION_NAME: QUARANTOLI 2
STATION_LATITUDE_DEGREE: 44.916900
STATION_LONGITUDE_DEGREE: 11.089500
STATION_ELEVATION_M: 
LOCATION: 
SENSOR_DEPTH_M: 
VS30_M/S: 
SITE_CLASSIFICATION_EC8: C*
MORPHOLOGIC_CLASSIFICATION: 
EPICENTRAL_DISTANCE_KM: 8.6
EARTHQUAKE_BACKAZIMUTH_DEGREE: 192.7
DATE_TIME_FIRST_SAMPLE_YYYYMMDD_HHMMSS: 20120529_065929.000
DATE_TIME_FIRST_SAMPLE_PRECISION: milliseconds
SAMPLING_INTERVAL_S: 0.005000
NDATA: 34001
DURATION_S: 170.005
STREAM: HNN
UNITS: cm
INSTRUMENT: sensor = Episensor FBA ES-T [Kinemetrics] | digitizer = Unknown [Unknown]
INSTRUMENT_ANALOG/DIGITAL: D
INSTRUMENTAL_FREQUENCY_HZ: 
INSTRUMENTAL_DAMPING: 
FULL_SCALE_G: 
N_BIT_DIGITAL_CONVERTER: 
PGD_CM: -10.016992
TIME_PGD_S: 42.455000
BASELINE_CORRECTION: BASELINE REMOVED
FILTER_TYPE: BUTTERWORTH
FILTER_ORDER: 2
LOW_CUT_FREQUENCY_HZ: 0.050
HIGH_CUT_FREQUENCY_HZ: 40.000
LATE/NORMAL_TRIGGERED: NT
DATABASE_VERSION: DYNA 1.0
HEADER_FORMAT: DYNA 1.2
DATA_TYPE: DISPLACEMENT
PROCESSING: manual (Paolucci et al., 2011)
DATA_TIMESTAMP_YYYYMMDD_HHMMSS: 
DATA_LICENSE: CC-BY4_0 (http://creativecommons.org/licenses/by/4.0/)
DATA_CITATION: ESM working group (2015), European Strong-Motion database, version 0.1, Network Activity 3: Networking acceleration networks and SM data users. Project NERA (www.nera-eu.org)
DATA_CREATOR: ESM working group
ORIGINAL_DATA_MEDIATOR_CITATION: Orfeus - European Integrated Data Archive (EIDA) http://www.orfeus-eu.org/eida/
ORIGINAL_DATA_MEDIATOR: Orfeus - European Integrated Data Archive (EIDA)
ORIGINAL_DATA_CREATOR_CITATION: 
ORIGINAL_DATA_CREATOR: network: TV (INGV Experiments Network); owner: Istituto Nazionale di Geofisica e Vulcanologia
USER1: 
USER2: 
USER3: 
USER4: 
USER5: 
[...]
-1.005021e+00
-1.004921e+00
-1.004988e+00
-1.005120e+00
-1.005204e+00
-1.005113e+00
-1.004745e+00
-1.004167e+00
-1.003677e+00
-1.003636e+00
-1.004218e+00
-1.005325e+00
-1.006698e+00
-1.008086e+00
-1.009304e+00
-1.010224e+00
-1.010770e+00
-1.010938e+00
-1.010801e+00
-1.010473e+00
-1.010069e+00
-1.009688e+00
-1.009419e+00
-1.009356e+00
-1.009600e+00
-1.010202e+00
-1.011069e+00
-1.011936e+00
-1.012486e+00
-1.012515e+00
-1.011999e+00
-1.011040e+00
-1.009818e+00
-1.008597e+00
-1.007666e+00
-1.007164e+00
-1.006944e+00
-1.006654e+00
-1.005970e+00
-1.004765e+00
-1.003107e+00
-1.001190e+00
-9.992855e-01
-9.976810e-01
-9.965555e-01
-9.958606e-01
-9.953361e-01
-9.946723e-01
-9.936659e-01
-9.922436e-01
-9.904255e-01
-9.883435e-01
-9.862518e-01
-9.844071e-01
-9.828948e-01
-9.816009e-01
-9.803797e-01
-9.792294e-01
-9.782709e-01
-9.775659e-01
-9.770155e-01
-9.764663e-01
-9.758818e-01
-9.753581e-01
-9.749803e-01
-9.747046e-01
-9.743884e-01
-9.738927e-01
-9.731300e-01
-9.720478e-01
-9.706221e-01
-9.688934e-01
-9.670014e-01
-9.651552e-01
-9.635384e-01
-9.622343e-01
-9.612336e-01
-9.604925e-01
-9.599750e-01
-9.596666e-01
-9.595575e-01
-9.595957e-01
-9.596421e-01
-9.594667e-01
-9.588073e-01
-9.574970e-01
-9.555916e-01
-9.533712e-01
-9.511992e-01
-9.493673e-01
-9.480262e-01
-9.471790e-01
-9.466900e-01
-9.463151e-01
-9.457806e-01
-9.449020e-01
-9.436657e-01
-9.422092e-01
-9.407412e-01
-9.394942e-01
-9.386871e-01
-9.384049e-01
-9.384612e-01
-9.384594e-01
-9.380550e-01
-9.371600e-01
-9.359315e-01
-9.346435e-01
-9.335631e-01
-9.328584e-01
-9.325333e-01
-9.324270e-01
-9.323030e-01
-9.319879e-01
-9.314641e-01
-9.308399e-01
-9.302344e-01
-9.297006e-01
-9.292201e-01
-9.287016e-01
-9.279941e-01
-9.269690e-01
-9.256066e-01
-9.239735e-01
-9.221182e-01
-9.200072e-01
-9.175604e-01
-9.147481e-01
-9.116515e-01
-9.084083e-01
-9.051046e-01
-9.017522e-01
-8.983660e-01
-8.950110e-01
-8.917665e-01
-8.886945e-01
-8.858340e-01
-8.831495e-01
-8.804488e-01
-8.773928e-01
-8.736417e-01
-8.690250e-01
-8.635945e-01
-8.575554e-01
-8.512091e-01
-8.449404e-01
-8.391193e-01
-8.338989e-01
-8.291274e-01
-8.245077e-01
-8.198590e-01
-8.152417e-01
-8.108727e-01
-8.069326e-01
-8.034347e-01
-8.002489e-01
-7.972292e-01
-7.942990e-01
-7.914299e-01
-7.885888e-01
-7.857328e-01
-7.828273e-01
-7.798292e-01
-7.766609e-01
-7.732271e-01
-7.694503e-01
-7.652953e-01
-7.608227e-01
-7.562586e-01
-7.519487e-01
-7.481627e-01
-7.449448e-01
-7.421780e-01
-7.397351e-01
-7.375055e-01
-7.353007e-01
-7.328284e-01
-7.298446e-01
-7.263352e-01
-7.224870e-01
-7.184840e-01
-7.143879e-01
-7.101999e-01
-7.059403e-01
-7.016253e-01
-6.972183e-01
-6.926815e-01
-6.880708e-01
-6.834883e-01
-6.788961e-01
-6.740428e-01
-6.686218e-01
-6.624505e-01
-6.554939e-01
-6.478486e-01
-6.398286e-01
-6.320318e-01
-6.251490e-01
-6.195647e-01
-6.151519e-01
-6.115075e-01
-6.082934e-01
-6.052192e-01
-6.018506e-01
-5.977704e-01
-5.929843e-01
-5.879389e-01
-5.830380e-01
-5.782723e-01
-5.733869e-01
-5.682384e-01
-5.628381e-01
-5.571580e-01
-5.511277e-01
-5.448936e-01
-5.389627e-01
-5.339263e-01
-5.299936e-01
-5.268415e-01
-5.238817e-01
-5.205884e-01
-5.166515e-01
-5.120445e-01
-5.070610e-01
-5.022132e-01
-4.979873e-01
-4.946384e-01
-4.921210e-01
-4.901070e-01
-4.880819e-01
-4.855291e-01
-4.821227e-01
-4.778150e-01
-4.727496e-01
-4.670392e-01
-4.606186e-01
-4.533404e-01
-4.451801e-01
-4.363351e-01
-4.271840e-01
-4.181646e-01
-4.096156e-01
-4.016564e-01
-3.941973e-01
-3.870358e-01
-3.798969e-01
-3.724640e-01
-3.645652e-01
-3.563676e-01
-3.482744e-01
-3.405937e-01
-3.333523e-01
-3.264055e-01
-3.196196e-01
-3.129103e-01
-3.062369e-01
-2.996775e-01
-2.934062e-01
-2.874588e-01
-2.815712e-01
-2.753354e-01
-2.685149e-01
-2.612108e-01
-2.537437e-01
-2.463997e-01
-2.393063e-01
-2.324583e-01
-2.257182e-01
-2.188018e-01
-2.113925e-01
-2.033301e-01
-1.947026e-01
-1.858634e-01
-1.774229e-01
-1.700392e-01
-1.640114e-01
-1.590729e-01
-1.545936e-01
-1.498906e-01
-1.443504e-01
-1.374549e-01
-1.289260e-01
-1.189214e-01
-1.080636e-01
-9.723858e-02
-8.722306e-02
-7.828696e-02
-7.007917e-02
-6.191851e-02
-5.315640e-02
-4.335351e-02
-3.242366e-02
-2.074227e-02
-8.924392e-03
2.592369e-03
1.362740e-02
2.399273e-02
3.341466e-02
4.176539e-02
4.918967e-02
5.595996e-02
6.232388e-02
6.847253e-02
7.450140e-02
8.037002e-02
8.600553e-02
9.151194e-02
9.726714e-02
1.037837e-01
1.114253e-01
1.202096e-01
1.298669e-01
1.400549e-01
1.504694e-01
1.607920e-01
1.706672e-01
1.798013e-01
1.880104e-01
1.951028e-01
2.007867e-01
2.048436e-01
2.074798e-01
2.094772e-01
2.119012e-01
2.155978e-01
2.209284e-01
2.278303e-01
2.359193e-01
2.445471e-01
2.529981e-01
2.607876e-01
2.677358e-01
2.737653e-01
2.787781e-01
2.828150e-01
2.862575e-01
2.897241e-01
2.936846e-01
2.982495e-01
3.034594e-01
3.096632e-01
3.173578e-01
3.266747e-01
3.372770e-01
3.488038e-01
3.611978e-01
3.745152e-01
3.886107e-01
4.031591e-01
4.178857e-01
4.326550e-01
4.473973e-01
4.620850e-01
4.768147e-01
4.918324e-01
5.073995e-01
5.236385e-01
5.405180e-01
5.579239e-01
5.757133e-01
5.937881e-01
6.122129e-01
6.312366e-01
6.510977e-01
6.717132e-01
6.925450e-01
7.128482e-01
7.321422e-01
7.505286e-01
7.686466e-01
7.873362e-01
8.072476e-01
8.286573e-01
8.515117e-01
8.754269e-01
8.995270e-01
9.225177e-01
9.433198e-01
9.617631e-01
9.785693e-01
9.947214e-01
1.010993e+00
1.027936e+00
1.045945e+00
1.065113e+00
1.085051e+00
1.105006e+00
1.124276e+00
1.142615e+00
1.160241e+00
1.177488e+00
1.194542e+00
1.211508e+00
1.228593e+00
1.246080e+00
1.264118e+00
1.282652e+00
1.301634e+00
1.321295e+00
1.342107e+00
1.364425e+00
1.388170e+00
1.412896e+00
1.438140e+00
1.463674e+00
1.489430e+00
1.515278e+00
1.541017e+00
1.566559e+00
1.591981e+00
1.617382e+00
1.642768e+00
1.668111e+00
1.693394e+00
1.718494e+00
1.743126e+00
1.767031e+00
1.790225e+00
1.813009e+00
1.835705e+00
1.858424e+00
1.881110e+00
1.903686e+00
1.926057e+00
1.948074e+00
1.969656e+00
1.990971e+00
2.012428e+00
2.034428e+00
2.057138e+00
2.080496e+00
2.104344e+00
2.128548e+00
2.153068e+00
2.178032e+00
2.203688e+00
2.230194e+00
2.257435e+00
2.285094e+00
2.312857e+00
2.340472e+00
2.367681e+00
2.394367e+00
2.420840e+00
2.447855e+00
2.476189e+00
2.506166e+00
2.537573e+00
2.570022e+00
2.603313e+00
2.637474e+00
2.672601e+00
2.708810e+00
2.746326e+00
2.785379e+00
2.825820e+00
2.866862e+00
2.907384e+00
2.946602e+00
2.984460e+00
3.021379e+00
3.057771e+00
3.093868e+00
3.129906e+00
3.166282e+00
3.203399e+00
3.241348e+00
3.279801e+00
3.318281e+00
3.356568e+00
3.394849e+00
3.433501e+00
3.472790e+00
3.512772e+00
3.553377e+00
3.594538e+00
3.636226e+00
3.678363e+00
3.720742e+00
3.763066e+00
3.805038e+00
3.846340e+00
3.886562e+00
3.925245e+00
3.962059e+00
3.996921e+00
4.029961e+00
4.061433e+00
4.091718e+00
4.121383e+00
4.151151e+00
4.181695e+00
4.213398e+00
4.246286e+00
4.280154e+00
4.314690e+00
4.349440e+00
4.383755e+00
4.416923e+00
4.448440e+00
4.478169e+00
4.506199e+00
4.532530e+00
4.556938e+00
4.579173e+00
4.599274e+00
4.617675e+00
4.635056e+00
4.652177e+00
4.669856e+00
4.688889e+00
4.709792e+00
4.732548e+00
4.756650e+00
4.781417e+00
4.806288e+00
4.830900e+00
4.854985e+00
4.878299e+00
4.900687e+00
4.922164e+00
4.942832e+00
4.962735e+00
4.981814e+00
4.999974e+00
5.017122e+00
5.033148e+00
5.047924e+00
5.061341e+00
5.073355e+00
5.084028e+00
5.093528e+00
5.102096e+00
5.109976e+00
5.117363e+00
5.124357e+00
5.130887e+00
5.136651e+00
5.141132e+00
5.143722e+00
5.143937e+00
5.141627e+00
5.137126e+00
5.131337e+00
5.125693e+00
5.121827e+00
5.120990e+00
5.123656e+00
5.129632e+00
5.138409e+00
5.149413e+00
5.162079e+00
5.175863e+00
5.190281e+00
5.204976e+00
5.219777e+00
5.234644e+00
5.249517e+00
5.264172e+00
5.278173e+00
5.291010e+00
5.302349e+00
5.312264e+00
5.321309e+00
5.330374e+00
5.340383e+00
5.352032e+00
5.365713e+00
5.381580e+00
5.399606e+00
5.419603e+00
5.441243e+00
5.464158e+00
5.488091e+00
5.512996e+00
5.539012e+00
5.566372e+00
5.595327e+00
5.626101e+00
5.658848e+00
5.693640e+00
5.730507e+00
5.769501e+00
5.810732e+00
5.854369e+00
5.900638e+00
5.949818e+00
6.002199e+00
6.057974e+00
6.117152e+00
6.179571e+00
6.244986e+00
6.313176e+00
6.384000e+00
6.457285e+00
6.532502e+00
6.608545e+00
6.683978e+00
6.757602e+00
6.828741e+00
6.897091e+00
6.962575e+00
7.025468e+00
7.086472e+00
7.146431e+00
7.205822e+00
7.264490e+00
7.321815e+00
7.377073e+00
7.429652e+00
7.479086e+00
7.525100e+00
7.567652e+00
7.606926e+00
7.643276e+00
7.677229e+00
7.709541e+00
7.741201e+00
7.773290e+00
7.806778e+00
7.842394e+00
7.880562e+00
7.921292e+00
7.964075e+00
8.007931e+00
8.051613e+00
8.093895e+00
8.133866e+00
8.171104e+00
8.205687e+00
8.238025e+00
8.268654e+00
8.298064e+00
8.326633e+00
8.354659e+00
8.382372e+00
8.409890e+00
8.437215e+00
8.464345e+00
8.491379e+00
8.518442e+00
8.545550e+00
8.572617e+00
8.599526e+00
8.626066e+00
8.651790e+00
8.676072e+00
8.698380e+00
8.718504e+00
8.736501e+00
8.752538e+00
8.766871e+00
8.779903e+00
8.792080e+00
8.803663e+00
8.814628e+00
8.824842e+00
8.834321e+00
8.843258e+00
8.851771e+00
8.859680e+00
8.866561e+00
8.871947e+00
8.875412e+00
8.876486e+00
8.874620e+00
8.869350e+00
8.860515e+00
8.848302e+00
8.833098e+00
8.815265e+00
8.795004e+00
8.772389e+00
8.747417e+00
8.719938e+00
8.689609e+00
8.656054e+00
8.619135e+00
8.579092e+00
8.536460e+00
8.491896e+00
8.446034e+00
8.399357e+00
8.352044e+00
8.303878e+00
8.254343e+00
8.202887e+00
8.149186e+00
8.093238e+00
8.035343e+00
7.976093e+00
7.916372e+00
7.857236e+00
7.799662e+00
7.744317e+00
7.691563e+00
7.641641e+00
7.594791e+00
7.551165e+00
7.510720e+00
7.473266e+00
7.438559e+00
7.406283e+00
7.376008e+00
7.347301e+00
7.319901e+00
7.293739e+00
7.268702e+00
7.244391e+00
7.220132e+00
7.195209e+00
7.169045e+00
7.141159e+00
7.111053e+00
7.078248e+00
7.042471e+00
7.003760e+00
6.962326e+00
6.918304e+00
6.871657e+00
6.822273e+00
6.770070e+00
6.714956e+00
6.656719e+00
6.594994e+00
6.529378e+00
6.459588e+00
6.385512e+00
6.307166e+00
6.224628e+00
6.138040e+00
6.047625e+00
5.953636e+00
5.856222e+00
5.755363e+00
5.651016e+00
5.543379e+00
5.433054e+00
5.320920e+00
5.207768e+00
5.093994e+00
4.979595e+00
4.864325e+00
4.747786e+00
4.629444e+00
4.508738e+00
4.385285e+00
4.258965e+00
4.129838e+00
3.998013e+00
3.863620e+00
3.726881e+00
3.588136e+00
3.447708e+00
3.305781e+00
3.162447e+00
3.017853e+00
2.872235e+00
2.725835e+00
2.578816e+00
2.431256e+00
2.283164e+00
2.134488e+00
1.985151e+00
1.835073e+00
1.684167e+00
1.532294e+00
1.379236e+00
1.224736e+00
1.068582e+00
9.106794e-01
7.511112e-01
5.901581e-01
4.282790e-01
2.660170e-01
1.038830e-01
-5.769472e-02
-2.183565e-01
-3.778061e-01
-5.358116e-01
-6.921610e-01
-8.465920e-01
-9.987510e-01
-1.148172e+00
-1.294262e+00
-1.436339e+00
-1.573772e+00
-1.706132e+00
-1.833284e+00
-1.955361e+00
-2.072676e+00
-2.185634e+00
-2.294669e+00
-2.400218e+00
-2.502693e+00
-2.602463e+00
-2.699820e+00
-2.794986e+00
-2.888134e+00
-2.979417e+00
-3.068939e+00
-3.156693e+00
-3.242527e+00
-3.326174e+00
-3.407301e+00
-3.485559e+00
-3.560665e+00
-3.632508e+00
-3.701194e+00
-3.767017e+00
-3.830379e+00
-3.891693e+00
-3.951266e+00
-4.009216e+00
-4.065508e+00
-4.120076e+00
-4.172922e+00
-4.224128e+00
-4.273830e+00
-4.322176e+00
-4.369275e+00
-4.415150e+00
-4.459727e+00
-4.502834e+00
-4.544206e+00
-4.583545e+00
-4.620627e+00
-4.655355e+00
-4.687714e+00
-4.717655e+00
-4.745025e+00
-4.769554e+00
-4.790905e+00
-4.808760e+00
-4.823005e+00
-4.834061e+00
-4.843154e+00
-4.852139e+00
-4.862748e+00
-4.875918e+00
-4.891853e+00
-4.910551e+00
-4.932020e+00
-4.956114e+00
-4.982476e+00
-5.010742e+00
-5.040718e+00
-5.072338e+00
-5.105544e+00
-5.140295e+00
-5.176648e+00
-5.214783e+00
-5.254940e+00
-5.297384e+00
-5.342414e+00
-5.390378e+00
-5.441628e+00
-5.496429e+00
-5.554898e+00
-5.617024e+00
-5.682793e+00
-5.752319e+00
-5.825894e+00
-5.903903e+00
-5.986588e+00
-6.073646e+00
-6.163924e+00
-6.255675e+00
-6.347348e+00
-6.438161e+00
-6.527938e+00
-6.616642e+00
-6.704270e+00
-6.790972e+00
-6.877002e+00
-6.962525e+00
-7.047523e+00
-7.131797e+00
-7.214999e+00
-7.296677e+00
-7.376345e+00
-7.453565e+00
-7.528035e+00
-7.599688e+00
-7.668766e+00
-7.735825e+00
-7.801690e+00
-7.867352e+00
-7.933794e+00
-8.001782e+00
-8.071739e+00
-8.143767e+00
-8.217781e+00
-8.293631e+00
-8.371174e+00
-8.450309e+00
-8.530984e+00
-8.613138e+00
-8.696577e+00
-8.780866e+00
-8.865283e+00
-8.948912e+00
-9.030843e+00
-9.110376e+00
-9.187087e+00
-9.260744e+00
-9.331187e+00
-9.398312e+00
-9.462113e+00
-9.522667e+00
-9.580031e+00
-9.634165e+00
-9.684921e+00
-9.732061e+00
-9.775302e+00
-9.814386e+00
-9.849173e+00
-9.879696e+00
-9.906164e+00
-9.928907e+00
-9.948281e+00
-9.964567e+00
-9.977997e+00
-9.988923e+00
-9.997895e+00
-1.000537e+01
-1.001136e+01
-1.001542e+01
-1.001699e+01
-1.001563e+01
-1.001105e+01
-1.000308e+01
-9.991583e+00
-9.976428e+00
-9.957419e+00
-9.934357e+00
-9.907133e+00
-9.875794e+00
-9.840527e+00
-9.801577e+00
-9.759174e+00
-9.713500e+00
-9.664697e+00
-9.612887e+00
-9.558174e+00
-9.500672e+00
-9.440499e+00
-9.377721e+00
-9.312300e+00
-9.244105e+00
-9.173041e+00
-9.099230e+00
-9.023163e+00
-8.945757e+00
-8.868237e+00
-8.791847e+00
-8.717499e+00
-8.645588e+00
-8.576028e+00
-8.508419e+00
-8.442233e+00
-8.376945e+00
-8.312089e+00
-8.247278e+00
-8.182222e+00
-8.116736e+00
-8.050707e+00
-7.984045e+00
-7.916706e+00
-7.848750e+00
-7.780367e+00
-7.711859e+00
-7.643645e+00
-7.576279e+00
-7.510417e+00
-7.446706e+00
-7.385637e+00
-7.327503e+00
-7.272470e+00
-7.220703e+00
-7.172413e+00
-7.127814e+00
-7.087059e+00
-7.050169e+00
-7.016934e+00
-6.986757e+00
-6.958562e+00
-6.930895e+00
-6.902257e+00
-6.871449e+00
-6.837677e+00
-6.800437e+00
-6.759396e+00
-6.714405e+00
-6.665557e+00
-6.613118e+00
-6.557355e+00
-6.498378e+00
-6.436134e+00
-6.370494e+00
-6.301348e+00
-6.228625e+00
-6.152293e+00
-6.072389e+00
-5.989031e+00
-5.902324e+00
-5.812250e+00
-5.718656e+00
-5.621420e+00
-5.520713e+00
-5.417266e+00
-5.312423e+00
-5.207848e+00
-5.104955e+00
-5.004522e+00
-4.906776e+00
-4.811697e+00
-4.719193e+00
-4.629155e+00
-4.541535e+00
-4.456419e+00
-4.374060e+00
-4.294887e+00
-4.219458e+00
-4.148350e+00
-4.082066e+00
-4.020961e+00
-3.965073e+00
-3.913701e+00
-3.864942e+00
-3.815874e+00
-3.763659e+00
-3.706644e+00
-3.644349e+00
-3.576716e+00
-3.503769e+00
-3.425868e+00
-3.343797e+00
-3.258461e+00
-3.170628e+00
-3.080985e+00
-2.990359e+00
-2.899805e+00
-2.810420e+00
-2.723031e+00
-2.638023e+00
-2.555395e+00
-2.474835e+00
-2.395613e+00
-2.316482e+00
-2.235917e+00
-2.152636e+00
-2.065999e+00
-1.975909e+00
-1.882392e+00
-1.785345e+00
-1.684660e+00
-1.580397e+00
-1.472729e+00
-1.361759e+00
-1.247482e+00
-1.129913e+00
-1.009208e+00
-8.856588e-01
-7.595946e-01
-6.312758e-01
-5.008751e-01
-3.685211e-01
-2.343509e-01
-9.854817e-02
3.863449e-02
1.768691e-01
3.157672e-01
4.549310e-01
5.940406e-01
7.329369e-01
8.716331e-01
1.010223e+00
1.148742e+00
1.287080e+00
1.424982e+00
1.562059e+00
1.697781e+00
1.831517e+00
1.962642e+00
2.090622e+00
2.215012e+00
2.335404e+00
2.451396e+00
2.562618e+00
2.668781e+00
2.769709e+00
2.865312e+00
2.955552e+00
3.040442e+00
3.120064e+00
3.194520e+00
3.263891e+00
3.328229e+00
3.387581e+00
3.441957e+00
3.491266e+00
3.535275e+00
3.573677e+00
3.606184e+00
3.632616e+00
3.653002e+00
3.667712e+00
3.677531e+00
3.683488e+00
3.686488e+00
3.686994e+00
3.685001e+00
3.680251e+00
3.672461e+00
3.661430e+00
3.647044e+00
3.629271e+00
3.608176e+00
3.583908e+00
3.556668e+00
3.526732e+00
3.494541e+00
3.460772e+00
3.426296e+00
3.392035e+00
3.358828e+00
3.327308e+00
3.297805e+00
3.270254e+00
3.244217e+00
3.219012e+00
3.193961e+00
3.168597e+00
3.142738e+00
3.116398e+00
3.089691e+00
3.062787e+00
3.035839e+00
3.008870e+00
2.981696e+00
2.953997e+00
2.925489e+00
2.896064e+00
2.865822e+00
2.835075e+00
2.804335e+00
2.774226e+00
2.745289e+00
2.717790e+00
2.691690e+00
2.666817e+00
2.643087e+00
2.620625e+00
2.599722e+00
2.580694e+00
2.563772e+00
2.549084e+00
2.536720e+00
2.526776e+00
2.519336e+00
2.514402e+00
2.511818e+00
2.511255e+00
2.512268e+00
2.514422e+00
2.517440e+00
2.521329e+00
2.526415e+00
2.533283e+00
2.542638e+00
2.555125e+00
2.571182e+00
2.590990e+00
2.614505e+00
2.641454e+00
2.671230e+00
2.702763e+00
2.734569e+00
2.765101e+00
2.793208e+00
2.818311e+00
2.840137e+00
2.858388e+00
2.872704e+00
2.882802e+00
2.888477e+00
2.889525e+00
2.885760e+00
2.877156e+00
2.863928e+00
2.846394e+00
2.824780e+00
2.799147e+00
2.769470e+00
2.735715e+00
2.697835e+00
2.655736e+00
2.609280e+00
2.558306e+00
2.502632e+00
2.442002e+00
2.376093e+00
2.304599e+00
2.227339e+00
2.144291e+00
2.055590e+00
1.961570e+00
1.862811e+00
1.760117e+00
1.654370e+00
1.546336e+00
1.436549e+00
1.325320e+00
1.212832e+00
1.099235e+00
9.846945e-01
8.693756e-01
7.533614e-01
6.366042e-01
5.190018e-01
4.005297e-01
2.812491e-01
1.611944e-01
4.034912e-02
-8.122800e-02
-2.033236e-01
-3.256528e-01
-4.479960e-01
-5.702650e-01
-6.924668e-01
-8.145566e-01
-9.362741e-01
-1.057160e+00
-1.176782e+00
-1.294932e+00
-1.411617e+00
-1.526928e+00
-1.640981e+00
-1.753951e+00
-1.866128e+00
-1.977872e+00
-2.089499e+00
-2.201194e+00
-2.312997e+00
-2.424904e+00
-2.536974e+00
-2.649357e+00
-2.762237e+00
-2.875802e+00
-2.990265e+00
-3.105856e+00
-3.222759e+00
-3.341032e+00
-3.460597e+00
-3.581288e+00
-3.702942e+00
-3.825450e+00
-3.948719e+00
-4.072601e+00
-4.196811e+00
-4.320886e+00
-4.444209e+00
-4.566107e+00
-4.685977e+00
-4.803351e+00
-4.917904e+00
-5.029420e+00
-5.137772e+00
-5.242917e+00
-5.344923e+00
-5.443994e+00
-5.540432e+00
-5.634525e+00
-5.726391e+00
-5.815906e+00
-5.902761e+00
-5.986574e+00
-6.066981e+00
-6.143686e+00
-6.216493e+00
-6.285306e+00
-6.350108e+00
-6.410929e+00
-6.467820e+00
-6.520834e+00
-6.569984e+00
-6.615206e+00
-6.656365e+00
-6.693296e+00
-6.725853e+00
-6.753902e+00
-6.777293e+00
-6.795831e+00
-6.809289e+00
-6.817470e+00
-6.820242e+00
-6.817533e+00
-6.809314e+00
-6.795604e+00
-6.776469e+00
-6.751986e+00
-6.722190e+00
-6.687053e+00
-6.646503e+00
-6.600443e+00
-6.548804e+00
-6.491595e+00
-6.428912e+00
-6.360898e+00
-6.287688e+00
-6.209410e+00
-6.126180e+00
-6.038069e+00
-5.945074e+00
-5.847125e+00
-5.744144e+00
-5.636104e+00
-5.523039e+00
-5.405011e+00
-5.282080e+00
-5.154311e+00
-5.021797e+00
