EVENT_NAME: EMILIA_2ND_SHOCK
EVENT_ID: IT-2012-0011
EVENT_DATE_YYYYMMDD: 20120529
EVENT_TIME_HHMMSS: 070002
EVENT_LATITUDE_DEGREE: 44.8417
EVENT_LONGITUDE_DEGREE: 11.0657
EVENT_DEPTH_KM: 8.1
HYPOCENTER_REFERENCE: INGV-CNT_Seismic_Bulletin
MAGNITUDE_W: 6.0
MAGNITUDE_W_REFERENCE: RCMT-INGV
MAGNITUDE_L: 5.8
MAGNITUDE_L_REFERENCE: INGV-CNT_Seismic_Bulletin
FOCAL_MECHANISM: TF
NETWORK: TV
STATION_CODE: MIR05
STATION_NAME: POGGIO RUSCO
STATION_LATITUDE_DEGREE: 44.980800
STATION_LONGITUDE_DEGREE: 11.107190
STATION_ELEVATION_M: 
LOCATION: 
SENSOR_DEPTH_M: 
VS30_M/S: 
SITE_CLASSIFICATION_EC8: C*
MORPHOLOGIC_CLASSIFICATION: 
EPICENTRAL_DISTANCE_KM: 15.8
EARTHQUAKE_BACKAZIMUTH_DEGREE: 192.0
DATE_TIME_FIRST_SAMPLE_YYYYMMDD_HHMMSS: 20120529_065929.000
DATE_TIME_FIRST_SAMPLE_PRECISION: milliseconds
SAMPLING_INTERVAL_S: 0.005000
NDATA: 30001
DURATION_S: 150.005
STREAM: HNN
UNITS: cm/s^2
INSTRUMENT: sensor = Episensor FBA ES-T [Kinemetrics] | digitizer = Unknown [Unknown]
INSTRUMENT_ANALOG/DIGITAL: D
INSTRUMENTAL_FREQUENCY_HZ: 
INSTRUMENTAL_DAMPING: 
FULL_SCALE_G: 
N_BIT_DIGITAL_CONVERTER: 
PGA_CM/S^2: 269.313167
TIME_PGA_S: 44.335000
BASELINE_CORRECTION: BASELINE REMOVED
FILTER_TYPE: BUTTERWORTH
FILTER_ORDER: 2
LOW_CUT_FREQUENCY_HZ: 0.070
HIGH_CUT_FREQUENCY_HZ: 40.000
LATE/NORMAL_TRIGGERED: NT
DATABASE_VERSION: DYNA 1.0
HEADER_FORMAT: DYNA 1.2
DATA_TYPE: ACCELERATION
PROCESSING: manual (Paolucci et al., 2011)
DATA_TIMESTAMP_YYYYMMDD_HHMMSS: 
DATA_LICENSE: CC-BY4_0 (http://creativecommons.org/licenses/by/4.0/)
DATA_CITATION: ESM working group (2015), European Strong-Motion database, version 0.1, Network Activity 3: Networking acceleration networks and SM data users. Project NERA (www.nera-eu.org)
DATA_CREATOR: ESM working group
ORIGINAL_DATA_MEDIATOR_CITATION: Orfeus - European Integrated Data Archive (EIDA) http://www.orfeus-eu.org/eida/
ORIGINAL_DATA_MEDIATOR: Orfeus - European Integrated Data Archive (EIDA)
ORIGINAL_DATA_CREATOR_CITATION: 
ORIGINAL_DATA_CREATOR: network: TV (INGV Experiments Network); owner: Istituto Nazionale di Geofisica e Vulcanologia
USER1: 
USER2: 
USER3: 
USER4: 
USER5: 
[...]
0.053178
0.051823
0.044483
0.033287
0.021090
0.009120
-0.003270
-0.016986
-0.031543
-0.044126
-0.051579
-0.054138
-0.054598
-0.054118
-0.052438
-0.051328
-0.054117
-0.061999
-0.073606
-0.087608
-0.104331
-0.126889
-0.159414
-0.200670
-0.242212
-0.274048
-0.288024
-0.278818
-0.249079
-0.212033
-0.184183
-0.175146
-0.183281
-0.199426
-0.217737
-0.241266
-0.268491
-0.281334
-0.264183
-0.224593
-0.181232
-0.155874
-0.168995
-0.193214
-0.148110
0.000477
0.189139
0.324984
0.333450
0.159502
-0.160411
-0.413772
-0.351326
0.030315
0.492508
0.797028
0.768799
0.346828
-0.216167
-0.503175
-0.399395
-0.153218
-0.003326
0.022182
-0.025716
-0.115971
-0.158002
-0.046528
0.158791
0.308441
0.396115
0.490261
0.485774
0.210273
-0.224863
-0.498066
-0.483650
-0.281512
0.046601
0.491792
0.919609
1.046477
0.682035
0.000036
-0.578639
-0.821677
-0.820224
-0.677618
-0.390822
-0.132333
-0.246172
-0.764688
-1.224199
-1.138705
-0.498575
0.315956
0.962678
1.293094
1.225956
0.729107
-0.104138
-1.092074
-1.987398
-2.364424
-1.756759
-0.272544
1.148515
1.543520
0.802235
-0.521516
-1.783713
-2.359571
-1.814657
-0.364270
1.168007
2.000485
1.865915
0.982784
-0.139353
-0.882154
-0.869131
-0.274940
0.459856
1.139247
1.703904
1.908460
1.559455
0.824353
0.019969
-0.694719
-1.288630
-1.637064
-1.525569
-1.046462
-0.707712
-0.791632
-0.908951
-0.473206
0.621507
1.879782
2.586587
2.288417
1.094159
-0.326662
-1.225557
-1.347869
-0.799557
0.360493
1.951438
3.399806
3.933225
3.031051
0.865222
-1.676299
-3.524269
-3.992850
-3.064972
-1.406375
0.006226
0.535853
0.318857
-0.018004
-0.109474
-0.073312
-0.013059
0.162513
0.267142
-0.233348
-1.415511
-2.424278
-2.245511
-0.723841
1.364568
2.894457
3.005205
1.590298
-0.704331
-3.051729
-4.819922
-5.491849
-4.763430
-2.873976
-0.603971
1.113851
1.664141
1.091388
0.055804
-0.604904
-0.284965
1.174072
3.307271
5.073483
5.387745
3.853348
1.105437
-1.555409
-3.017478
-2.995294
-1.892993
-0.259249
1.415127
2.654761
3.149375
2.906809
2.184926
1.271676
0.318437
-0.467625
-0.700055
-0.383035
-0.289744
-1.181676
-2.820263
-4.023665
-3.598074
-1.256191
2.115630
4.971955
6.054775
5.130987
2.976460
0.630668
-1.360972
-2.928090
-3.928736
-4.125842
-3.664538
-2.964751
-2.091451
-0.783763
0.796295
1.822136
1.568135
0.196384
-1.456428
-2.721324
-3.397239
-3.336578
-2.303325
-0.386931
1.825245
3.531349
4.014811
2.940054
0.625302
-2.075158
-4.264588
-5.389368
-5.245083
-3.876967
-1.710921
0.449871
2.054497
3.280094
4.348831
4.732032
3.833153
2.180949
1.058918
0.981527
1.203729
0.811431
-0.192367
-1.171044
-1.883040
-2.559335
-3.115772
-3.223041
-3.075065
-3.115052
-3.055855
-2.085787
-0.155715
1.732814
2.764443
3.095081
3.192012
3.240359
3.473575
4.242484
5.295711
5.519723
3.864341
0.444406
-3.374641
-5.977058
-6.702918
-6.130982
-5.195392
-4.310187
-3.535358
-3.030624
-2.763485
-2.284494
-1.317361
0.031501
1.813846
4.038962
5.897358
6.308003
5.332733
4.024681
2.874698
1.428290
-0.571234
-2.651590
-4.308485
-5.368214
-5.560872
-4.678408
-3.328194
-2.523663
-2.309144
-1.655073
0.116222
2.392702
3.835360
3.505113
1.427155
-1.531062
-4.077054
-5.048222
-4.020925
-1.548312
1.325850
3.717157
4.949953
4.515109
2.586765
0.193243
-1.747087
-3.345172
-5.220994
-7.344087
-8.999422
-9.603600
-8.831118
-6.339469
-2.283796
2.137194
5.400310
6.846342
6.875140
6.198999
5.206498
4.119570
3.397271
3.447330
4.048560
4.442713
4.029781
2.879520
1.413266
-0.194202
-1.830718
-3.171317
-4.141887
-4.905875
-5.135812
-4.266774
-2.535459
-0.990444
-0.502786
-1.082254
-1.929674
-1.889492
-0.112663
3.057374
5.748493
5.790600
2.483926
-2.974127
-8.206003
-10.663644
-9.097012
-4.741909
-0.483271
1.547992
1.100725
-1.087355
-3.868182
-5.535704
-4.823894
-2.262291
0.456298
2.222534
2.979669
3.175118
3.477130
4.363404
5.560996
6.313579
5.974610
4.148359
1.044528
-2.104676
-3.778257
-3.487845
-1.876812
0.090438
1.132275
-0.327380
-4.468113
-8.873269
-10.448950
-8.272264
-3.861009
0.841082
5.076453
8.932184
11.897857
12.499484
9.666802
3.912925
-3.097592
-9.401407
-12.868073
-11.705462
-6.062149
1.178702
5.984225
5.644119
0.117010
-8.008737
-14.699840
-16.446478
-11.966919
-2.808762
7.297030
14.173344
15.411896
11.757155
6.282184
1.828739
-0.574495
-1.209647
-1.070545
-1.821910
-4.826176
-9.590840
-13.612106
-14.142169
-10.297087
-3.475020
3.731914
8.384528
8.152537
3.344017
-2.524933
-5.888616
-6.299572
-5.138796
-2.568474
2.197758
8.477526
13.790243
15.696679
13.042125
5.926415
-4.128829
-13.728135
-18.650587
-16.565144
-8.851657
0.503097
7.539968
9.752664
6.575931
0.132646
-5.632630
-8.047193
-7.351178
-4.996272
-1.752916
1.649125
3.625397
3.454618
2.847533
3.708048
5.112169
4.227362
-0.152496
-5.951319
-9.673670
-9.415749
-5.818563
-0.833264
3.535933
5.513675
3.774636
-1.362179
-7.128019
-10.098189
-8.848679
-4.275355
1.473023
5.690471
6.454351
4.272058
1.718222
1.276127
3.566513
6.873656
8.097925
5.183909
-0.583302
-5.156610
-5.391140
-2.134051
0.861226
0.908349
-1.600183
-4.685644
-6.744427
-7.356541
-7.512661
-8.646295
-10.731812
-11.833778
-9.852952
-4.554759
2.257436
8.355485
12.067019
12.039305
7.889133
1.258547
-5.006485
-8.546778
-8.114010
-3.824529
2.119275
5.719790
4.041807
-1.913663
-8.455094
-12.778807
-13.934340
-11.532582
-5.526380
2.772274
10.468618
14.637409
14.532612
12.267414
10.862242
11.194178
11.351997
9.430316
5.849052
2.267226
-0.375089
-1.987504
-2.827293
-3.601695
-5.049460
-6.782056
-7.378352
-6.072350
-3.354901
0.324112
4.889914
9.301859
11.600652
10.685341
6.839364
1.029653
-4.859386
-7.991770
-6.733585
-2.646776
0.940198
2.024296
0.800219
-1.650660
-4.220942
-5.665885
-4.979948
-2.375255
0.633212
2.430939
2.557049
1.941457
2.002170
3.363100
5.361487
6.650701
6.152374
3.643068
-0.218431
-4.276604
-7.429196
-8.905391
-7.903057
-3.585371
3.380173
9.768728
11.781749
7.879579
-0.701125
-10.806605
-18.360191
-20.275320
-16.218447
-7.947386
2.620834
13.730049
22.968327
27.695202
26.593765
20.715233
13.286997
7.932095
6.029062
5.741912
3.706758
-2.516624
-12.749468
-23.971472
-32.103195
-34.172630
-28.951883
-16.940845
-0.885892
14.229886
23.274532
24.014324
18.063534
9.299457
1.599641
-3.326272
-6.741921
-10.768541
-15.661421
-20.004107
-22.499823
-22.259941
-18.563381
-11.899633
-4.615814
0.547737
2.595257
2.936113
4.211872
8.250995
14.578682
20.839294
24.613876
24.487183
20.150064
12.709888
4.260604
-3.834233
-11.336354
-17.285076
-19.222271
-15.413437
-7.328376
0.877081
5.452065
5.557932
3.054103
0.434514
-0.841502
-0.810135
-0.806020
-2.538761
-6.372599
-10.458390
-12.123522
-10.036556
-4.883322
1.352872
6.242968
7.638931
4.480953
-2.559357
-11.064223
-17.738308
-19.701052
-15.462741
-5.624736
6.829692
17.566511
22.834337
20.823406
12.457343
1.731005
-5.937159
-7.251571
-3.090777
3.006117
7.805920
10.055025
10.415557
10.396990
11.032931
12.015373
11.847585
9.235570
4.677948
0.153159
-3.040791
-5.327437
-7.484469
-9.162327
-8.987145
-5.303976
2.921215
14.342639
24.127588
26.321545
18.220423
2.017356
-17.027681
-32.789600
-40.002018
-36.481426
-24.444162
-9.024929
4.292673
10.861433
7.835506
-3.753789
-18.233023
-28.200794
-29.291557
-22.483406
-12.113585
-2.403352
4.227623
7.161505
7.365038
6.919534
7.487359
8.922495
10.282121
11.658375
13.460543
14.860188
14.839810
13.880935
13.162956
12.987986
12.832624
12.035741
10.214987
8.077177
7.590899
10.077760
14.300220
17.176807
15.992378
9.747497
-0.811162
-13.826165
-27.015369
-38.205383
-45.600136
-47.692814
-43.415009
-32.880402
-18.099443
-3.060185
7.506838
10.797849
7.785468
2.104780
-2.432428
-3.108776
1.287920
9.804547
19.273869
25.830532
27.092958
23.317926
17.006071
11.508556
9.049428
9.395625
10.673669
11.177857
10.212100
8.149487
6.025410
4.506023
3.290446
1.793916
0.144821
-0.672975
0.596786
4.602635
10.433352
15.620562
17.680002
15.779306
11.166713
6.504616
4.685803
7.640439
15.357376
25.321936
33.325127
35.782055
31.519855
21.551928
7.978780
-6.597775
-19.381197
-27.895151
-30.614939
-27.599508
-20.779325
-13.368190
-8.362509
-6.697168
-6.630803
-5.722313
-3.342019
-0.513584
1.918156
4.097593
6.879874
10.954776
15.585040
18.494270
17.635239
13.035578
6.864080
2.041612
0.812038
3.760127
9.425631
15.265580
19.441933
21.480864
21.479012
19.380577
15.207023
9.635503
3.548791
-3.368945
-12.358559
-22.996496
-32.192528
-36.618790
-34.956516
-27.452753
-14.724761
2.061432
20.172544
35.518986
44.730816
46.886196
43.169277
35.392048
24.499018
10.052034
-8.063882
-27.395956
-43.569435
-53.371426
-56.635757
-55.319031
-51.338177
-45.289452
-36.493774
-23.686228
-6.191206
14.671982
35.276825
51.302891
60.118889
61.909328
58.866268
53.729256
48.902790
45.720161
43.690205
40.996479
36.028248
27.861773
15.789136
0.100925
-16.319963
-28.799578
-34.272152
-33.239052
-28.319258
-21.953459
-15.557415
-9.712136
-4.369893
0.871165
5.888837
9.275527
9.145498
4.970433
-1.826284
-9.083544
-15.122421
-18.989014
-20.687508
-21.661636
-24.220194
-29.783676
-37.935112
-47.121799
-55.277378
-59.588207
-56.911549
-45.194328
-24.621382
1.852555
28.712009
49.527309
59.295589
55.788570
39.817253
15.142770
-12.214897
-35.661900
-50.280827
-54.698654
-51.369164
-44.690022
-38.202328
-33.185066
-29.366650
-25.785702
-20.491686
-11.157959
2.361598
16.928610
28.520279
34.949249
35.868565
31.355545
21.759253
9.113864
-2.075049
-6.740469
-2.976660
5.958313
13.632551
14.702945
7.757511
-4.840861
-18.798880
-30.035706
-36.454735
-38.224525
-36.612129
-33.231964
-30.075123
-28.909876
-30.021902
-31.485416
-29.827295
-22.355974
-9.660530
4.332561
15.024508
20.009304
19.878599
17.009533
13.970826
12.586594
13.481059
16.080788
19.234810
21.897333
23.449217
23.787663
22.946074
20.470592
15.586909
7.811081
-2.980879
-16.209179
-29.544548
-39.063137
-41.709347
-37.989693
-31.847780
-27.543839
-26.809732
-28.907726
-32.415367
-36.131229
-38.856377
-39.401134
-36.877216
-30.719326
-20.968479
-9.025602
2.278070
9.886018
11.869428
7.795757
-1.533043
-14.077334
-26.379745
-34.250526
-34.615959
-27.041859
-13.527365
2.803573
18.694250
31.213646
38.419788
40.253555
38.553806
35.739079
33.563778
33.303368
36.354389
43.584648
54.199741
65.784706
75.237488
79.694893
77.464684
68.839676
56.161213
42.803894
31.635681
24.082687
20.208977
19.237732
20.085917
21.853905
24.137833
27.020861
30.646666
34.637077
38.198376
41.041531
43.728596
46.760098
49.841095
52.162140
52.340675
47.626778
34.503342
11.733664
-16.812428
-43.157032
-59.847519
-63.900795
-56.998444
-43.572205
-29.010927
-17.530846
-10.101655
-4.727857
0.915881
7.063273
11.507111
11.252716
4.491483
-8.597415
-25.995317
-44.446815
-60.500874
-71.415688
-75.353546
-71.194977
-58.751591
-39.838383
-19.304752
-3.900649
1.399762
-3.578329
-14.871432
-27.327211
-36.566334
-39.480614
-34.650650
-22.982372
-7.833464
6.024663
14.510769
16.301191
13.457151
9.958666
9.064381
11.623177
16.389320
21.118290
23.286791
21.146759
15.351682
9.294520
7.038403
10.506128
18.228094
26.271570
30.562359
29.417027
24.864168
21.497349
23.242476
30.446793
39.498680
44.799980
41.304867
26.564791
2.377568
-24.715841
-46.031254
-55.638466
-53.058815
-42.060719
-28.654299
-19.433187
-18.770779
-26.461370
-38.519474
-49.978104
-57.012550
-57.835991
-52.870697
-44.083481
-33.724228
-23.733768
-16.150034
-13.262348
-16.784058
-26.573294
-40.097450
-53.583080
-63.707485
-67.532532
-61.163296
-40.574215
-5.882483
35.368073
71.308807
92.969757
97.753777
87.208740
64.225784
32.532909
-2.789906
-35.283100
-58.741909
-70.009239
-69.971977
-61.563961
-47.262711
-28.611368
-7.611055
12.192239
26.825226
34.438869
36.286808
34.833115
31.438923
26.285280
19.633165
12.043427
3.650987
-6.014708
-17.620592
-31.508974
-46.959106
-61.833626
-73.519043
-80.400520
-82.142654
-78.479103
-67.837288
-47.365334
-15.289577
25.686523
68.037117
103.961975
129.712006
144.475891
147.579315
139.741699
125.058647
108.291283
90.935585
71.981033
51.638992
32.716816
18.611170
10.569050
6.725471
3.333998
-3.938614
-19.497967
-45.797737
-80.278984
-115.291512
-141.869965
-154.234894
-151.716003
-137.017700
-113.004417
-81.286095
-43.580944
-3.962589
31.127779
56.421146
71.881248
82.644798
94.794876
111.477554
132.001968
152.780869
168.847076
175.918533
172.506790
160.361053
142.182159
118.355835
86.152397
42.933708
-9.299121
-63.036461
-109.511940
-143.451920
-163.829803
-171.669937
-168.474304
-156.561218
-139.809204
-123.209885
-111.267723
-106.139908
-107.010551
-111.483810
-117.136459
-121.386208
-120.232948
-108.213326
-82.415390
-48.036507
-17.244251
-0.380481
0.930765
-7.389411
-17.553549
-23.854162
-22.417961
-9.330239
18.877806
62.141018
114.776726
167.285065
211.048141
242.188705
261.299072
269.313171
264.788391
247.073486
220.737000
193.476395
169.993347
150.653076
134.827835
121.255852
105.285332
80.315239
43.845230
0.699024
-40.413105
-73.314697
-97.605629
-116.500725
-132.484055
-144.956512
-151.273254
-149.133774
-137.389267
-115.743149
-85.351898
-49.097507
-10.300068
27.674820
60.292625
82.867386
93.893105
95.810555
92.079559
84.719238
74.553650
62.355953
48.961742
34.842403
20.338387
5.994633
-7.693749
-20.088758
-29.591885
-34.004555
-32.299683
-25.518492
-15.838224
-5.542926
3.067956
8.212856
10.216201
11.910077
16.444075
24.747581
35.147209
44.882156
51.974712
56.204800
58.512928
59.486313
58.457989
53.506721
41.704994
20.203329
-11.386353
-49.463799
-87.984634
-121.547539
-146.611786
-160.597672
-161.992523
-152.067200
-134.734772
-113.786270
-90.983643
-66.192383
-37.962742
-4.707456
32.840649
69.944618
99.809525
118.162430
125.768585
126.395973
122.807343
114.635246
99.484123
75.718712
44.220608
8.026386
-28.944384
-62.833923
-89.787819
-104.287224
-97.961861
-64.023148
-6.814758
55.011372
99.880859
118.462486
116.110298
103.619820
89.292877
77.287376
68.789566
63.673714
61.649540
61.529835
59.919609
52.619358
38.046013
18.164778
-4.146064
-27.670876
-52.791309
-79.805916
-107.698067
-134.014923
-155.728165
-170.891571
-179.661682
-182.900909
-179.138611
-163.058136
-128.296967
-74.188202
-11.147915
42.713791
74.091660
84.178001
84.277512
83.459351
83.110237
80.912468
75.605408
67.691490
57.729069
44.836651
26.926470
2.615816
-26.989012
-58.391850
-87.302803
-110.003258
-124.188423
-129.946609
-129.747040
-126.447411
-121.445465
-114.950546
-107.079414
-98.104782
-88.073402
-76.479660
-62.349373
-44.749371
-23.264297
1.719668
28.853119
56.142040
81.498383
102.814491
118.095108
126.229050
127.563728
123.669411
116.653984
108.555382
101.283646
96.738441
96.172287
99.356041
104.854294
111.036819
116.660202
120.938560
123.527580
124.509598
124.258202
122.990341
119.918396
112.141701
94.357376
61.779106
15.909188
-33.480274
-74.845497
-102.981033
-119.565598
-128.363937
-132.500504
-134.654053
-136.992874
-140.232666
-143.214890
-143.569031
-139.054169
-129.020126
-115.034729
-100.025795
-86.640907
-75.812462
-66.273949
-55.746571
-42.862137
-27.820341
-11.912692
2.737574
13.477327
18.082382
15.729742
7.233666
-5.548835
-20.716480
-36.919395
-53.161594
-68.196068
-80.170959
-86.909431
-86.427238
-77.207489
-58.723076
-32.531578
-2.919505
24.102772
43.414490
53.340450
55.716286
53.020706
45.587765
32.096325
12.509629
-10.410691
-32.741867
-51.774281
-66.541100
-76.830887
-82.368713
-83.136719
-80.148956
-75.081680
-68.952354
-61.615288
-52.407448
-40.918880
-27.199957
-11.306092
7.088922
28.156263
51.105904
74.321548
96.112007
115.029007
129.810745
139.650040
144.724136
146.227463
145.623093
143.805084
141.046844
137.623627
133.964523
130.027908
125.204781
119.044746
111.460442
102.422897
92.291756
82.412621
74.830002
71.219246
72.156593
77.192200
85.121506
94.265190
103.122322
110.975540
117.874664
124.257408
130.476974
136.315002
140.869202
143.059204
142.280334
138.098190
128.714645
110.575058
81.509148
44.831596
8.820055
-19.040672
-36.833202
-47.179047
-53.339916
-57.687260
-62.476631
-69.966339
-81.358932
-95.871216
-110.945679
-123.724792
-132.610229
-137.593704
-139.472366
-138.854568
-135.716019
-129.961349
-122.456543
-115.244583
-110.705261
-110.621101
-115.570175
-124.486603
-134.875076
-143.925369
-149.507919
-150.461578
-146.783279
-139.714783
-131.093552
-122.459335
-114.860588
-109.035225
-105.162407
-102.373024
-98.838852
-92.737518
-83.291908
-70.881973
-56.464535
-41.221981
-26.520912
-13.579382
-2.872227
5.780830
12.234348
15.580731
15.065388
10.967603
4.346613
-3.386575
-10.388460
-14.778527
-15.818770
-14.624004
-13.725234
-16.037357
-23.752495
-37.128914
-53.608837
-68.812561
-79.352676
-84.348709
-84.289360
-79.886299
-72.402168
-63.759521
-55.605453
-48.746578
-43.734215
-41.453449
-42.604282
-46.699924
-51.852776
-55.428291
-54.779488
-47.737965
-33.183014
-11.855848
13.339651
38.532932
60.897766
79.616852
95.451439
109.914871
124.310257
138.673019
151.322495
159.465637
160.541763
153.394638
138.478638
117.373711
92.130562
64.536362
35.814007
7.103775
-20.063313
-44.015583
-63.626530
-78.796051
-90.292816
-99.091621
-105.850708
-110.826561
-113.999306
-115.218407
-114.245476
-110.677711
-104.026695
-94.078857
-81.235764
-66.642647
-52.136868
-39.800049
-31.150509
-26.687546
-26.063005
-28.278194
-31.548569
-33.231525
-30.239048
-19.760288
-0.049256
28.411234
61.608036
92.300133
113.022438
119.770737
113.019516
95.563957
70.114578
39.107975
5.944696
-24.666494
-48.184029
-62.432659
-68.610703
-70.070351
-69.962936
-69.985611
-70.830185
-72.880150
-76.152420
-79.943535
-82.929718
-83.879402
-82.285095
-78.150146
-71.456055
-62.300125
-51.377766
-40.031612
-30.004782
-23.111347
-20.645342
-22.754438
-28.319212
-35.554939
-42.979210
-49.953213
-56.480392
-62.840961
-69.473244
-76.789474
-84.713371
-92.423141
-98.808777
-103.122147
-104.914841
-103.617111
-98.764832
-90.623444
-79.999428
-66.992386
-50.079990
-27.179462
1.593556
32.365013
59.814724
81.441345
98.636398
113.626060
126.922729
138.077728
147.323395
155.229065
161.242569
163.943069
162.885742
159.150772
154.022766
147.962784
140.973145
133.472961
126.374329
120.273277
115.151482
111.117287
108.780029
108.525070
109.867645
111.768555
113.381706
114.448357
115.029854
