EVENT_NAME: EMILIA_2ND_SHOCK
EVENT_ID: IT-2012-0011
EVENT_DATE_YYYYMMDD: 20120529
EVENT_TIME_HHMMSS: 070002
EVENT_LATITUDE_DEGREE: 44.8417
EVENT_LONGITUDE_DEGREE: 11.0657
EVENT_DEPTH_KM: 8.1
HYPOCENTER_REFERENCE: INGV-CNT_Seismic_Bulletin
MAGNITUDE_W: 6.0
MAGNITUDE_W_REFERENCE: RCMT-INGV
MAGNITUDE_L: 5.8
MAGNITUDE_L_REFERENCE: INGV-CNT_Seismic_Bulletin
FOCAL_MECHANISM: TF
NETWORK: TV
STATION_CODE: MIR08
STATION_NAME: QUARANTOLI 2
STATION_LATITUDE_DEGREE: 44.916900
STATION_LONGITUDE_DEGREE: 11.089500
STATION_ELEVATION_M: 
LOCATION: 
SENSOR_DEPTH_M: 
VS30_M/S: 
SITE_CLASSIFICATION_EC8: C*
MORPHOLOGIC_CLASSIFICATION: 
EPICENTRAL_DISTANCE_KM: 8.6
EARTHQUAKE_BACKAZIMUTH_DEGREE: 192.7
DATE_TIME_FIRST_SAMPLE_YYYYMMDD_HHMMSS: 20120529_065929.000
DATE_TIME_FIRST_SAMPLE_PRECISION: milliseconds
SAMPLING_INTERVAL_S: 0.005000
NDATA: 34001
DURATION_S: 170.005
STREAM: HNN
UNITS: cm/s^2
INSTRUMENT: sensor = Episensor FBA ES-T [Kinemetrics] | digitizer = Unknown [Unknown]
INSTRUMENT_ANALOG/DIGITAL: D
INSTRUMENTAL_FREQUENCY_HZ: 
INSTRUMENTAL_DAMPING: 
FULL_SCALE_G: 
N_BIT_DIGITAL_CONVERTER: 
PGA_CM/S^2: -242.969959
TIME_PGA_S: 43.340000
BASELINE_CORRECTION: BASELINE REMOVED
FILTER_TYPE: BUTTERWORTH
FILTER_ORDER: 2
LOW_CUT_FREQUENCY_HZ: 0.050
HIGH_CUT_FREQUENCY_HZ: 40.000
LATE/NORMAL_TRIGGERED: NT
DATABASE_VERSION: DYNA 1.0
HEADER_FORMAT: DYNA 1.2
DATA_TYPE: ACCELERATION
PROCESSING: manual (Paolucci et al., 2011)
DATA_TIMESTAMP_YYYYMMDD_HHMMSS: 
DATA_LICENSE: CC-BY4_0 (http://creativecommons.org/licenses/by/4.0/)
DATA_CITATION: ESM working group (2015), European Strong-Motion database, version 0.1, Network Activity 3: Networking acceleration networks and SM data users. Project NERA (www.nera-eu.org)
DATA_CREATOR: ESM working group
ORIGINAL_DATA_MEDIATOR_CITATION: Orfeus - European Integrated Data Archive (EIDA) http://www.orfeus-eu.org/eida/
ORIGINAL_DATA_MEDIATOR: Orfeus - European Integrated Data Archive (EIDA)
ORIGINAL_DATA_CREATOR_CITATION: 
ORIGINAL_DATA_CREATOR: network: TV (INGV Experiments Network); owner: Istituto Nazionale di Geofisica e Vulcanologia
USER1: 
USER2: 
USER3: 
USER4: 
USER5: 
[...]
5.047208
6.397631
4.987888
2.137153
-0.487608
-1.817911
-1.693832
-1.025640
-1.375058
-3.386417
-5.750447
-6.476756
-4.557293
-0.153714
5.193461
8.577530
8.104862
5.099194
2.302043
0.784793
0.029659
-0.203159
0.404280
1.598155
1.879319
-0.691022
-6.016651
-10.071422
-7.798213
0.568451
8.523396
10.319844
6.353986
0.539853
-4.197500
-6.425634
-5.255427
-0.963649
4.209525
6.902464
4.888825
-0.964391
-7.179109
-10.414553
-9.473473
-5.173014
0.250560
3.801475
3.736223
1.372609
-0.297569
0.398922
3.132751
6.615864
8.906850
7.981688
3.476856
-2.672728
-7.889016
-10.836179
-11.389967
-9.298510
-4.182613
2.653825
7.778541
8.338721
5.119168
2.026902
2.009007
4.288331
6.583126
8.680487
11.492309
13.246663
9.803524
-0.052189
-11.496214
-17.639614
-16.373358
-11.637129
-7.628113
-4.182259
0.728593
6.325307
9.509060
9.358268
8.445813
8.633214
7.766835
2.968478
-4.015585
-7.974533
-6.660148
-2.597390
1.896861
7.032201
11.059855
8.384188
-3.481491
-17.968143
-24.963749
-20.942574
-10.683331
-0.573378
6.802824
11.908231
14.959555
15.114738
12.207225
7.631802
3.051916
-0.907689
-4.487069
-8.254760
-12.263155
-14.343500
-10.604007
0.010429
12.715476
20.799290
21.797672
17.763069
10.489454
-0.064510
-11.572226
-17.144978
-11.309229
2.811097
15.763610
20.841753
18.103680
10.370738
-0.488733
-12.008939
-19.163589
-17.219500
-6.818440
5.570291
13.706169
16.635735
15.834344
10.551784
0.390801
-9.880269
-13.296263
-8.736127
-2.908716
-2.836947
-7.667242
-10.146140
-6.178238
-0.051280
1.412600
-2.434337
-5.833664
-4.084416
1.621134
7.180318
10.678426
12.780116
13.740321
12.119752
6.532598
-1.830262
-9.181287
-12.501530
-12.140084
-10.382811
-8.944496
-8.365386
-7.971701
-5.889828
-0.327964
8.872211
19.357277
26.036837
23.806435
12.596640
-1.934130
-13.603365
-19.634748
-19.752369
-14.329979
-4.564200
6.383145
13.767411
14.305152
8.809478
0.457757
-8.837109
-17.599318
-20.992142
-13.542573
2.325307
16.100241
19.629103
13.335038
2.385977
-8.307132
-15.027838
-15.185736
-8.749182
0.705905
7.643512
8.351115
4.014892
-0.749905
-2.867948
-2.128268
1.516176
7.561131
12.703609
13.491879
10.829317
8.888205
10.228471
13.431834
14.618101
11.373075
5.860219
2.425346
1.946987
1.348532
-1.241605
-4.425816
-6.897638
-8.460091
-7.042442
0.653588
14.207596
27.802698
34.626236
32.555908
24.337507
12.290755
-3.104910
-17.901436
-24.031958
-17.951042
-6.077295
1.163957
-1.258007
-9.928523
-17.162189
-17.685101
-12.482417
-6.643413
-3.581735
-2.446300
-1.116791
0.596024
1.980027
3.703464
6.807363
10.619654
13.720148
15.127805
12.702807
3.664334
-10.171334
-20.953966
-22.727819
-18.040564
-12.956192
-8.533515
-0.992287
10.704603
20.454395
21.026899
13.549758
6.195313
3.720416
3.680364
2.859976
2.216585
3.681741
5.190209
2.958858
-1.129679
0.387087
10.441595
22.712025
30.012913
31.407127
27.553558
14.985051
-8.930143
-36.555374
-51.943188
-46.859356
-30.735933
-17.211994
-5.594874
11.775048
28.463694
28.236181
10.372873
-5.777472
-5.414365
4.794109
10.517844
10.076020
11.192858
14.006698
8.149628
-12.125969
-35.777317
-44.150043
-31.224848
-7.694119
13.344174
25.741480
26.805201
15.057366
-5.422508
-24.880568
-35.081306
-33.254002
-20.140526
0.443541
21.110287
34.145290
36.049553
30.305170
25.806808
28.404606
34.302532
35.285179
27.386232
12.246777
-5.270028
-18.814468
-23.591948
-20.002329
-11.909148
-0.901135
11.761438
18.634424
11.952749
-4.174826
-16.503199
-17.570791
-11.784309
-6.435539
-3.061811
-1.438835
-4.559299
-11.522084
-12.958236
-2.391686
13.927053
23.389044
19.343363
6.521936
-4.925026
-10.026432
-9.812076
-4.318555
7.053804
19.716686
26.120377
22.605997
8.466883
-15.943965
-42.276215
-54.235535
-43.571526
-18.366026
8.943950
33.493580
54.208405
65.337051
59.026978
34.127045
-1.309866
-32.379852
-43.177090
-29.132307
-1.885172
24.058031
41.631191
45.078648
30.061184
5.459840
-12.044804
-19.269022
-26.788561
-37.735565
-42.848171
-37.057682
-26.160048
-16.254459
-8.611080
-4.790807
-6.410476
-9.323960
-5.164441
9.951896
30.455381
44.999741
45.708961
34.920330
21.225334
9.062815
-3.676043
-17.894913
-29.646982
-36.999413
-44.666721
-56.341148
-65.079315
-56.826401
-25.553226
17.063435
50.900509
65.366951
62.846840
47.484341
21.553150
-7.070399
-26.459099
-33.656868
-36.745037
-40.668819
-39.032211
-23.782148
0.966848
19.756069
24.176916
25.798452
39.757187
59.631924
64.892075
51.415852
36.979778
34.687283
36.934338
31.127237
18.115578
7.126613
1.709472
-1.080893
-2.185913
1.684562
11.517217
21.973761
26.879284
25.618448
21.059536
15.336997
11.416280
13.998299
23.958035
33.496449
30.175274
8.650922
-21.141844
-40.367809
-36.308296
-10.729948
22.860552
48.870564
59.932827
57.791756
42.428844
7.396064
-44.375854
-87.544579
-94.350845
-65.486389
-26.160534
4.776304
26.851280
42.664539
46.314075
30.840427
0.665512
-27.376648
-37.252995
-28.566534
-15.113737
-7.706950
-3.557071
4.782298
16.087906
22.032402
19.807219
17.956629
27.149103
46.040207
60.221714
57.114780
39.231514
20.693327
11.645836
8.850184
3.670176
-4.324116
-7.937954
-4.759538
-0.822903
-0.637161
-1.696790
-2.409409
-7.332632
-18.710346
-29.079254
-28.422045
-16.398310
-3.539040
0.923651
-1.330925
-4.408208
-8.171400
-14.148955
-17.443001
-10.659248
5.685793
21.710325
28.417467
25.884739
19.652317
14.179858
12.664208
17.770767
27.669271
34.006474
29.420456
16.677414
4.208162
-5.960240
-16.220877
-20.929758
-8.503696
21.651125
52.798172
65.673866
57.226135
41.674507
33.679951
34.823738
38.602119
43.305679
52.278000
61.461960
55.532722
24.073900
-20.860786
-52.119053
-54.411720
-37.569416
-21.056767
-11.837825
-2.352951
13.546053
29.619347
33.295181
20.180700
1.027599
-7.700483
-0.202700
14.789108
25.495466
27.730164
24.912258
22.229774
21.097738
17.985172
9.634517
-2.181245
-14.079046
-26.804262
-43.218491
-61.525162
-74.786720
-78.085106
-72.869232
-62.695534
-47.503971
-24.787798
4.105577
31.038904
46.374104
47.381496
39.225002
26.701799
8.539770
-17.353844
-45.883396
-66.080338
-71.510223
-67.951157
-67.946159
-76.924538
-86.934143
-85.352242
-67.977753
-40.850842
-10.353103
22.306156
54.166542
74.782715
74.106674
53.873608
26.583612
4.161115
-10.355745
-21.068384
-30.879559
-37.010048
-36.449833
-32.341885
-30.629690
-32.933311
-36.746460
-40.517136
-44.878933
-49.980530
-54.366104
-56.096169
-53.685513
-46.881187
-37.299210
-27.533178
-19.691187
-15.735602
-18.553413
-30.652475
-51.339722
-75.579918
-95.034515
-101.023590
-87.599808
-51.541946
5.796304
71.153656
121.115036
140.148514
132.394318
112.038727
89.067627
66.494270
44.752232
25.301926
11.124684
4.223177
2.602603
0.311879
-8.770432
-26.163679
-46.541470
-59.907852
-56.993664
-34.774399
0.813502
37.732380
65.590096
81.317955
87.399132
86.389999
78.837242
65.716148
50.995205
40.717537
38.870216
44.472019
53.740833
63.788078
72.774910
78.940338
81.776772
82.986931
85.093170
89.488495
96.231445
105.258957
116.484657
128.027084
135.726212
136.146057
129.654373
119.821518
110.974739
105.399643
98.439331
77.280067
33.016800
-24.382566
-72.384415
-99.392685
-111.533607
-114.643051
-103.678413
-75.499802
-41.838223
-22.719604
-28.919777
-53.729774
-82.648705
-107.192337
-125.760910
-136.859604
-138.442932
-131.116364
-116.950920
-95.887115
-65.651711
-26.093138
17.190989
55.942589
85.113861
102.096321
102.473015
82.139091
42.891071
-6.974487
-55.936954
-92.513481
-109.270111
-106.226303
-89.775154
-68.375450
-48.772720
-33.596485
-21.753277
-12.523218
-7.778383
-7.759466
-7.778670
-3.828607
1.150552
1.816680
-1.651867
-6.332103
-14.760975
-32.592861
-57.753006
-78.920578
-87.343941
-85.092178
-78.431313
-68.123383
-52.053017
-34.190723
-23.765892
-24.724705
-30.049643
-29.380436
-21.693979
-16.965273
-24.114870
-41.151855
-59.814640
-76.812820
-95.659485
-117.611786
-136.121033
-142.639069
-135.113846
-119.606262
-105.204887
-97.106087
-94.127724
-94.308464
-100.277756
-113.989639
-129.057861
-134.534912
-124.971931
-103.571884
-77.271446
-51.905891
-32.622524
-25.454426
-34.088352
-54.765842
-76.826225
-89.839798
-89.861412
-77.853783
-54.213425
-18.880074
23.450829
62.447811
89.170967
103.647125
113.296951
122.844894
128.962128
127.261589
119.623466
109.877556
97.239372
80.069229
62.683353
52.327168
49.485161
44.988560
29.059317
2.063797
-26.552528
-49.631359
-68.856010
-88.821709
-107.974129
-118.866974
-117.369553
-108.941772
-103.479668
-104.994598
-109.503456
-112.779335
-116.393768
-124.945351
-139.536911
-155.592575
-167.011047
-171.427032
-170.789551
-167.645584
-162.053360
-153.065460
-142.933395
-137.051712
-137.771866
-139.503418
-131.613861
-107.521004
-72.350761
-40.754730
-24.838751
-25.031397
-34.822487
-50.742245
-72.170120
-94.506561
-109.892967
-114.702827
-112.270264
-107.901276
-102.758430
-93.803368
-80.265678
-67.304222
-59.969650
-56.264545
-50.422890
-40.923382
-31.303013
-24.761547
-21.641788
-21.311188
-23.290985
-26.485662
-29.642195
-33.103188
-38.697235
-47.387348
-57.650124
-66.216110
-69.908150
-66.634018
-55.394627
-37.042263
-15.311366
5.117380
22.248966
36.639580
48.488213
57.760525
66.247765
76.733780
90.878342
109.519707
133.265503
160.471786
185.799454
202.885559
208.341507
203.019394
190.443207
174.299057
156.912109
139.470047
122.900352
108.261902
96.483513
87.653008
80.697922
74.625237
70.433426
70.716652
76.803040
87.494202
100.795403
114.745857
126.063004
130.572113
126.251534
114.497902
98.443016
81.942192
69.658470
64.888229
66.315376
68.966591
68.908905
65.574417
60.159111
54.236427
49.888329
48.946377
51.934200
58.824944
69.376137
81.297714
90.323837
94.114799
94.787628
96.701630
102.867996
113.601364
127.137993
139.878235
144.347641
127.591446
78.490623
4.344105
-64.971657
-102.422745
-110.626289
-110.518478
-110.828659
-104.986641
-90.716606
-76.183846
-68.415695
-65.725868
-63.460155
-61.777084
-64.108742
-71.253052
-80.906364
-91.456528
-103.448563
-117.373337
-131.419281
-142.052597
-146.692230
-146.304565
-145.712387
-150.304443
-161.939453
-177.371750
-187.036606
-174.896652
-128.825470
-58.920334
3.153355
34.339794
41.482784
42.925705
43.029854
37.023094
26.918280
20.238981
21.008701
28.963015
42.888386
60.971245
80.369820
97.926132
110.028969
112.644020
103.013687
80.781738
47.757610
8.098614
-31.200321
-61.864479
-78.717339
-82.839813
-79.454994
-73.450867
-67.686287
-63.701515
-61.631149
-59.102543
-51.434441
-33.979542
-5.144427
31.524435
67.931480
95.934250
112.841423
122.182899
128.562515
132.723892
132.935837
129.916321
127.582329
129.172195
135.156006
144.614853
155.975815
166.283722
171.890350
170.518402
162.215668
149.020782
134.768570
123.476624
114.290703
100.114830
78.184517
59.750000
59.484982
77.215599
99.742188
117.200195
128.600876
135.827423
140.829468
146.406418
154.164780
162.153854
166.455002
164.581039
157.163086
147.283417
138.125473
130.878769
125.109253
120.330780
116.081909
111.556076
106.872375
104.153778
105.754089
110.959602
114.748940
109.885300
90.231987
53.591156
4.503523
-45.164707
-81.671700
-97.488251
-94.029930
-78.054535
-56.941959
-35.900475
-17.277885
-1.794776
9.809613
17.174303
21.738413
25.308392
27.109312
24.665028
17.072334
4.980468
-11.748237
-33.895119
-60.198235
-85.999779
-105.728317
-117.362030
-124.044090
-130.637222
-139.075043
-147.675919
-153.734268
-154.613281
-146.173386
-122.356300
-79.238152
-21.128658
38.789982
86.843925
118.569092
138.686569
152.065720
157.993698
154.289276
143.599594
133.020737
128.507965
130.705704
135.839905
140.231888
143.070938
144.385513
142.853058
138.194275
133.930283
134.701736
140.764145
145.726135
138.787994
109.652611
55.801464
-10.711787
-67.271118
-98.405083
-107.465385
-106.693420
-103.003075
-98.643288
-96.707077
-100.145172
-110.298248
-127.452644
-149.734863
-172.878815
-192.936340
-207.139465
-208.699631
-180.650848
-104.518272
12.385090
125.859390
192.011124
211.171127
213.574677
212.523300
198.151581
166.820740
130.565887
99.913651
72.423676
39.262047
-2.855817
-46.730202
-79.871399
-95.237083
-95.207245
-82.713577
-53.501202
-3.679622
57.398682
108.610527
134.255783
138.116180
137.083099
141.182800
145.570282
143.084351
136.191727
132.092484
132.265640
131.679626
125.479179
113.729507
100.612053
90.184654
83.273064
78.132111
72.649223
65.302345
55.196312
42.076416
26.541666
10.627537
-2.165920
-8.534369
-8.004848
-4.235763
-2.848228
-7.243168
-17.454367
-33.007160
-54.174885
-79.417557
-104.462982
-125.815643
-143.589493
-159.928558
-175.984253
-190.815323
-202.335037
-209.404205
-213.004669
-214.556671
-213.935440
-210.787781
-206.606155
-203.397507
-201.292389
-199.482040
-199.010605
-202.730820
-211.943192
-224.311295
-235.798782
-242.969955
-241.878601
-227.012527
-195.662582
-154.455093
-118.298721
-99.774979
-99.944000
-110.274544
-121.579712
-129.657867
-134.232178
-135.447708
-132.869156
-126.947578
-118.868820
-107.833206
-90.207489
-63.113564
-28.306231
8.652609
42.098347
67.531654
80.633926
78.138481
60.502056
33.331081
6.102256
-12.474223
-19.816439
-19.252663
-14.636979
-7.916969
-1.759081
-0.841046
-8.186489
-21.013182
-32.329899
-36.711483
-32.665375
-20.203653
0.263281
25.255928
46.901169
57.476582
55.978695
49.093700
45.720840
50.697052
62.353123
75.036728
84.204826
89.392166
92.947998
96.776772
100.182388
100.236313
94.019669
80.827484
63.038506
45.619064
34.593548
34.812809
47.866932
71.314056
99.477760
125.257645
142.803467
150.070831
148.254669
137.360886
113.090576
70.270271
10.938029
-50.992794
-96.984825
-120.155273
-131.080811
-143.017319
-157.349167
-168.785675
-176.890182
-185.071045
-192.536835
-193.519226
-185.021820
-172.189987
-163.218338
-160.784424
-161.737167
-163.109848
-165.013657
-168.741669
-174.315186
-180.670212
-188.047043
-198.224930
-211.176132
-223.356461
-230.652206
-231.560089
-226.078415
-212.788132
-189.544739
-157.380051
-122.145813
-91.486313
-70.123169
-57.665798
-50.360020
-44.366093
-37.717545
-31.151827
-27.813007
-29.719061
-33.810692
-34.785339
-32.339733
-30.968664
-31.618057
-29.275602
-20.736923
-9.346350
-0.560616
2.966894
2.692441
4.478584
14.888427
33.259193
50.561218
58.881645
58.627792
54.915707
50.358093
43.276134
31.726654
17.366659
4.643633
-2.700172
-4.370741
-4.106452
-6.520926
-12.552518
-19.880381
-27.369335
-35.910477
-45.169132
-52.429626
-54.830349
-51.663509
-45.055698
-38.546822
-34.102749
-30.481945
-24.510506
-13.113956
5.405682
30.099297
56.966877
81.142250
99.818970
112.859329
121.442459
126.593964
128.289215
125.510963
117.435463
105.322235
93.804398
89.058289
94.051903
106.426186
121.642998
136.252945
148.078247
155.919052
159.756622
160.454086
159.236496
157.157227
155.113892
154.582092
157.098038
162.537399
169.071259
175.018936
180.299210
186.290115
194.168396
203.179718
211.072067
216.346329
219.254868
220.413986
219.636246
216.973511
213.945724
212.546890
213.567902
216.561295
220.402679
223.170731
222.796021
218.915985
213.303299
207.792175
202.725494
198.126312
195.195633
195.349792
198.177475
201.289749
202.352158
200.996796
198.541046
196.092361
193.539215
189.774292
181.855255
163.990540
131.083633
85.681068
38.645451
0.124773
-27.947870
-48.560993
-62.725666
-69.142113
-68.043999
-62.194435
-54.904808
-48.741112
-45.710911
-47.133797
-52.673275
-60.042007
-66.237389
-69.338326
-69.391159
-67.845116
-66.341400
-65.970894
-67.225571
-70.072678
-73.735771
-76.639175
-77.099426
-74.307480
-68.754128
-61.761639
-54.174320
-45.275215
-33.730579
-20.117302
-7.733151
-0.156870
1.423328
-2.083758
-9.552250
-20.042652
-32.220837
-44.877628
-57.606686
-69.940186
-80.576416
-88.731529
-95.767487
-104.191765
-114.916565
-126.116783
-134.928955
-140.121506
-142.933456
-145.135391
-146.962738
-147.957199
-148.935013
-151.275146
-154.450729
-155.761398
-152.931030
-146.279099
-137.822067
-129.025040
-120.536652
-113.200256
-107.408203
-101.506470
-92.341995
-78.155891
-60.663765
-43.875687
-30.937616
-22.296059
-16.478758
-11.753669
-6.747823
-0.309486
8.344152
19.401768
32.474136
46.382919
58.938660
67.630936
71.000542
69.324142
63.983280
56.385151
47.706631
39.447327
33.314674
30.063854
29.075403
29.323366
30.249416
31.919619
34.605877
37.648754
38.997414
36.724205
30.396414
20.368004
7.254918
-6.709228
-17.573568
-22.699856
-22.865261
-20.610128
-17.907322
-15.578607
-13.135031
-8.621203
0.464810
15.592901
36.119934
59.029938
79.847664
94.876709
103.027107
105.290039
103.136711
98.351959
93.643837
91.886360
94.491798
100.933945
109.627106
118.760735
126.673576
132.581131
136.892776
138.516312
130.001617
98.481232
38.994652
-31.461773
-83.627533
-105.721985
-112.333443
-119.349586
-126.209145
-127.371880
-124.479980
-122.245110
-122.693222
-125.935524
-132.079697
-141.055267
-151.363495
-159.956985
-164.187271
-163.818069
-160.795670
-157.389099
-154.819427
-153.165878
-152.023392
-150.826828
-148.541351
-143.974060
-136.777237
-127.566635
-117.080429
-105.603279
-93.288895
-81.204369
-71.797722
-67.453163
-68.301704
-72.160225
-76.881454
-81.904770
-87.239624
-92.144867
-95.435143
-95.971138
-92.086243
-81.635925
-63.986397
-41.879902
-20.477743
-4.153805
5.803180
10.621027
11.875711
10.357689
6.798390
2.988698
1.593300
4.530767
11.628552
21.293110
32.394901
44.686218
57.084393
66.459343
69.117142
63.585350
51.812534
37.911812
25.887703
18.299335
16.444601
20.725443
30.116430
41.728321
51.667625
56.670986
55.353699
48.517380
38.357601
27.045784
16.035002
6.617183
0.284554
-2.159906
-1.278283
2.013756
7.684428
16.123526
26.924078
38.610161
49.212132
57.160961
62.119225
64.845688
66.081467
65.871483
64.056679
61.064224
57.934353
55.638958
54.598000
54.810062
56.047562
57.850700
59.675739
60.899689
60.406849
56.805267
49.651119
40.075455
29.813272
19.800610
9.760056
-1.330527
-14.654546
-30.801353
-48.729671
-65.532654
-78.075745
-85.463791
-89.597557
-93.008156
-96.760780
-100.660416
-104.392914
-107.891670
-111.292717
-114.854408
-118.472511
-121.227852
-121.849472
-119.748337
-115.360519
-109.378349
-101.853065
-92.338783
-80.937042
-68.837440
-57.534286
-47.701694
-39.114418
-31.480118
-24.854231
-18.986664
-12.592216
