EVENT_NAME: EMILIA_2ND_SHOCK
EVENT_ID: IT-2012-0011
EVENT_DATE_YYYYMMDD: 20120529
EVENT_TIME_HHMMSS: 070002
EVENT_LATITUDE_DEGREE: 44.8417
EVENT_LONGITUDE_DEGREE: 11.0657
EVENT_DEPTH_KM: 8.1
HYPOCENTER_REFERENCE: INGV-CNT_Seismic_Bulletin
MAGNITUDE_W: 6.0
MAGNITUDE_W_REFERENCE: RCMT-INGV
MAGNITUDE_L: 5.8
MAGNITUDE_L_REFERENCE: INGV-CNT_Seismic_Bulletin
FOCAL_MECHANISM: TF
NETWORK: TV
STATION_CODE: MIR01
STATION_NAME: MEDOLLA
STATION_LATITUDE_DEGREE: 44.844042
STATION_LONGITUDE_DEGREE: 11.071316
STATION_ELEVATION_M: 
LOCATION: 
SENSOR_DEPTH_M: 
VS30_M/S: 
SITE_CLASSIFICATION_EC8: C*
MORPHOLOGIC_CLASSIFICATION: 
EPICENTRAL_DISTANCE_KM: 0.5
EARTHQUAKE_BACKAZIMUTH_DEGREE: 239.6
DATE_TIME_FIRST_SAMPLE_YYYYMMDD_HHMMSS: 20120529_065945.000
DATE_TIME_FIRST_SAMPLE_PRECISION: milliseconds
SAMPLING_INTERVAL_S: 0.005000
NDATA: 30001
DURATION_S: 150.005
STREAM: HNZ
UNITS: cm
INSTRUMENT: sensor = Episensor FBA ES-T [Kinemetrics] | digitizer = Unknown [Unknown]
INSTRUMENT_ANALOG/DIGITAL: D
INSTRUMENTAL_FREQUENCY_HZ: 
INSTRUMENTAL_DAMPING: 
FULL_SCALE_G: 
N_BIT_DIGITAL_CONVERTER: 
PGD_CM: 5.143191
TIME_PGD_S: 22.755000
BASELINE_CORRECTION: BASELINE REMOVED
FILTER_TYPE: BUTTERWORTH
FILTER_ORDER: 2
LOW_CUT_FREQUENCY_HZ: 0.050
HIGH_CUT_FREQUENCY_HZ: 40.000
LATE/NORMAL_TRIGGERED: NT
DATABASE_VERSION: DYNA 1.0
HEADER_FORMAT: DYNA 1.2
DATA_TYPE: DISPLACEMENT
PROCESSING: manual (Paolucci et al., 2011)
DATA_TIMESTAMP_YYYYMMDD_HHMMSS: 
DATA_LICENSE: CC-BY4_0 (http://creativecommons.org/licenses/by/4.0/)
DATA_CITATION: ESM working group (2015), European Strong-Motion database, version 0.1, Network Activity 3: Networking acceleration networks and SM data users. Project NERA (www.nera-eu.org)
DATA_CREATOR: ESM working group
ORIGINAL_DATA_MEDIATOR_CITATION: Orfeus - European Integrated Data Archive (EIDA) http://www.orfeus-eu.org/eida/
ORIGINAL_DATA_MEDIATOR: Orfeus - European Integrated Data Archive (EIDA)
ORIGINAL_DATA_CREATOR_CITATION: 
ORIGINAL_DATA_CREATOR: network: TV (INGV Experiments Network); owner: Istituto Nazionale di Geofisica e Vulcanologia
USER1: 
USER2: 
USER3: 
USER4: 
USER5: 
[...]
-1.533717e+00
-1.536722e+00
-1.539730e+00
-1.542741e+00
-1.545754e+00
-1.548770e+00
-1.551789e+00
-1.554810e+00
-1.557834e+00
-1.560861e+00
-1.563891e+00
-1.566924e+00
-1.569960e+00
-1.573000e+00
-1.576044e+00
-1.579091e+00
-1.582141e+00
-1.585194e+00
-1.588250e+00
-1.591309e+00
-1.594370e+00
-1.597434e+00
-1.600500e+00
-1.603569e+00
-1.606640e+00
-1.609715e+00
-1.612791e+00
-1.615871e+00
-1.618954e+00
-1.622039e+00
-1.625128e+00
-1.628220e+00
-1.631315e+00
-1.634414e+00
-1.637516e+00
-1.640621e+00
-1.643728e+00
-1.646839e+00
-1.649951e+00
-1.653067e+00
-1.656184e+00
-1.659304e+00
-1.662426e+00
-1.665551e+00
-1.668679e+00
-1.671810e+00
-1.674944e+00
-1.678081e+00
-1.681221e+00
-1.684365e+00
-1.687512e+00
-1.690663e+00
-1.693816e+00
-1.696973e+00
-1.700132e+00
-1.703294e+00
-1.706458e+00
-1.709625e+00
-1.712794e+00
-1.715966e+00
-1.719140e+00
-1.722318e+00
-1.725497e+00
-1.728680e+00
-1.731865e+00
-1.735052e+00
-1.738243e+00
-1.741436e+00
-1.744633e+00
-1.747831e+00
-1.751033e+00
-1.754238e+00
-1.757446e+00
-1.760656e+00
-1.763869e+00
-1.767085e+00
-1.770304e+00
-1.773525e+00
-1.776749e+00
-1.779976e+00
-1.783205e+00
-1.786437e+00
-1.789672e+00
-1.792909e+00
-1.796150e+00
-1.799394e+00
-1.802642e+00
-1.805892e+00
-1.809146e+00
-1.812402e+00
-1.815660e+00
-1.818921e+00
-1.822185e+00
-1.825451e+00
-1.828720e+00
-1.831992e+00
-1.835266e+00
-1.838544e+00
-1.841824e+00
-1.845107e+00
-1.848394e+00
-1.851683e+00
-1.854975e+00
-1.858270e+00
-1.861567e+00
-1.864867e+00
-1.868169e+00
-1.871473e+00
-1.874780e+00
-1.878090e+00
-1.881402e+00
-1.884716e+00
-1.888034e+00
-1.891354e+00
-1.894677e+00
-1.898002e+00
-1.901331e+00
-1.904662e+00
-1.907997e+00
-1.911335e+00
-1.914675e+00
-1.918019e+00
-1.921365e+00
-1.924714e+00
-1.928065e+00
-1.931419e+00
-1.934776e+00
-1.938135e+00
-1.941497e+00
-1.944861e+00
-1.948228e+00
-1.951598e+00
-1.954971e+00
-1.958346e+00
-1.961724e+00
-1.965104e+00
-1.968487e+00
-1.971872e+00
-1.975260e+00
-1.978650e+00
-1.982044e+00
-1.985439e+00
-1.988838e+00
-1.992239e+00
-1.995643e+00
-1.999050e+00
-2.002460e+00
-2.005872e+00
-2.009287e+00
-2.012705e+00
-2.016125e+00
-2.019547e+00
-2.022972e+00
-2.026399e+00
-2.029830e+00
-2.033263e+00
-2.036698e+00
-2.040137e+00
-2.043579e+00
-2.047023e+00
-2.050470e+00
-2.053920e+00
-2.057373e+00
-2.060828e+00
-2.064286e+00
-2.067746e+00
-2.071209e+00
-2.074674e+00
-2.078142e+00
-2.081612e+00
-2.085085e+00
-2.088560e+00
-2.092038e+00
-2.095518e+00
-2.099000e+00
-2.102484e+00
-2.105971e+00
-2.109461e+00
-2.112953e+00
-2.116449e+00
-2.119947e+00
-2.123448e+00
-2.126951e+00
-2.130457e+00
-2.133965e+00
-2.137475e+00
-2.140989e+00
-2.144504e+00
-2.148023e+00
-2.151544e+00
-2.155068e+00
-2.158595e+00
-2.162124e+00
-2.165655e+00
-2.169189e+00
-2.172725e+00
-2.176264e+00
-2.179805e+00
-2.183349e+00
-2.186895e+00
-2.190443e+00
-2.193993e+00
-2.197545e+00
-2.201100e+00
-2.204656e+00
-2.208216e+00
-2.211778e+00
-2.215343e+00
-2.218910e+00
-2.222480e+00
-2.226053e+00
-2.229628e+00
-2.233206e+00
-2.236786e+00
-2.240369e+00
-2.243955e+00
-2.247543e+00
-2.251134e+00
-2.254727e+00
-2.258322e+00
-2.261920e+00
-2.265521e+00
-2.269123e+00
-2.272729e+00
-2.276336e+00
-2.279947e+00
-2.283560e+00
-2.287176e+00
-2.290793e+00
-2.294413e+00
-2.298036e+00
-2.301660e+00
-2.305286e+00
-2.308915e+00
-2.312546e+00
-2.316179e+00
-2.319815e+00
-2.323453e+00
-2.327094e+00
-2.330738e+00
-2.334383e+00
-2.338032e+00
-2.341682e+00
-2.345335e+00
-2.348989e+00
-2.352647e+00
-2.356306e+00
-2.359968e+00
-2.363632e+00
-2.367298e+00
-2.370967e+00
-2.374638e+00
-2.378312e+00
-2.381988e+00
-2.385666e+00
-2.389346e+00
-2.393029e+00
-2.396714e+00
-2.400401e+00
-2.404091e+00
-2.407782e+00
-2.411476e+00
-2.415171e+00
-2.418869e+00
-2.422568e+00
-2.426270e+00
-2.429973e+00
-2.433679e+00
-2.437387e+00
-2.441097e+00
-2.444810e+00
-2.448525e+00
-2.452242e+00
-2.455962e+00
-2.459684e+00
-2.463409e+00
-2.467136e+00
-2.470865e+00
-2.474596e+00
-2.478330e+00
-2.482066e+00
-2.485803e+00
-2.489543e+00
-2.493285e+00
-2.497029e+00
-2.500775e+00
-2.504524e+00
-2.508274e+00
-2.512027e+00
-2.515781e+00
-2.519538e+00
-2.523297e+00
-2.527057e+00
-2.530820e+00
-2.534585e+00
-2.538352e+00
-2.542121e+00
-2.545892e+00
-2.549665e+00
-2.553440e+00
-2.557218e+00
-2.560997e+00
-2.564779e+00
-2.568562e+00
-2.572348e+00
-2.576136e+00
-2.579925e+00
-2.583717e+00
-2.587511e+00
-2.591308e+00
-2.595107e+00
-2.598908e+00
-2.602711e+00
-2.606516e+00
-2.610323e+00
-2.614126e+00
-2.617917e+00
-2.621678e+00
-2.625375e+00
-2.628956e+00
-2.632343e+00
-2.635447e+00
-2.638167e+00
-2.640394e+00
-2.642003e+00
-2.642877e+00
-2.642929e+00
-2.642127e+00
-2.640491e+00
-2.638078e+00
-2.634933e+00
-2.631046e+00
-2.626344e+00
-2.620747e+00
-2.614217e+00
-2.606784e+00
-2.598528e+00
-2.589543e+00
-2.579850e+00
-2.569336e+00
-2.557775e+00
-2.544930e+00
-2.530676e+00
-2.515083e+00
-2.498421e+00
-2.481128e+00
-2.463787e+00
-2.447058e+00
-2.431556e+00
-2.417712e+00
-2.405694e+00
-2.395402e+00
-2.386564e+00
-2.378958e+00
-2.372591e+00
-2.367710e+00
-2.364616e+00
-2.363400e+00
-2.363762e+00
-2.365041e+00
-2.366483e+00
-2.367569e+00
-2.368175e+00
-2.368509e+00
-2.368999e+00
-2.370185e+00
-2.372579e+00
-2.376459e+00
-2.381721e+00
-2.387963e+00
-2.394775e+00
-2.401937e+00
-2.409288e+00
-2.416456e+00
-2.422901e+00
-2.428311e+00
-2.432882e+00
-2.437149e+00
-2.441551e+00
-2.446192e+00
-2.450886e+00
-2.455304e+00
-2.459042e+00
-2.461674e+00
-2.462857e+00
-2.462459e+00
-2.460619e+00
-2.457725e+00
-2.454375e+00
-2.451271e+00
-2.448979e+00
-2.447689e+00
-2.447217e+00
-2.447225e+00
-2.447414e+00
-2.447582e+00
-2.447613e+00
-2.447415e+00
-2.446851e+00
-2.445785e+00
-2.444315e+00
-2.442961e+00
-2.442531e+00
-2.443672e+00
-2.446502e+00
-2.450640e+00
-2.455543e+00
-2.460727e+00
-2.465669e+00
-2.469640e+00
-2.471824e+00
-2.471708e+00
-2.469437e+00
-2.465883e+00
-2.462382e+00
-2.460165e+00
-2.459733e+00
-2.460652e+00
-2.462005e+00
-2.463097e+00
-2.463754e+00
-2.464146e+00
-2.464497e+00
-2.464909e+00
-2.465295e+00
-2.465433e+00
-2.465069e+00
-2.463942e+00
-2.461800e+00
-2.458527e+00
-2.454225e+00
-2.449071e+00
-2.443061e+00
-2.435997e+00
-2.427724e+00
-2.418302e+00
-2.407877e+00
-2.396466e+00
-2.383957e+00
-2.370366e+00
-2.356094e+00
-2.341960e+00
-2.328883e+00
-2.317363e+00
-2.307237e+00
-2.297989e+00
-2.289366e+00
-2.281699e+00
-2.275709e+00
-2.271998e+00
-2.270637e+00
-2.271109e+00
-2.272545e+00
-2.274019e+00
-2.274774e+00
-2.274464e+00
-2.273456e+00
-2.272876e+00
-2.274103e+00
-2.277976e+00
-2.284341e+00
-2.292195e+00
-2.300271e+00
-2.307690e+00
-2.314243e+00
-2.320152e+00
-2.325586e+00
-2.330437e+00
-2.334524e+00
-2.338020e+00
-2.341578e+00
-2.345834e+00
-2.350680e+00
-2.355088e+00
-2.357664e+00
-2.357433e+00
-2.354215e+00
-2.348411e+00
-2.340500e+00
-2.330663e+00
-2.318715e+00
-2.304293e+00
-2.287169e+00
-2.267510e+00
-2.245848e+00
-2.222862e+00
-2.199223e+00
-2.175623e+00
-2.152783e+00
-2.131287e+00
-2.111296e+00
-2.092489e+00
-2.074518e+00
-2.057622e+00
-2.042689e+00
-2.030710e+00
-2.022258e+00
-2.017309e+00
-2.015304e+00
-2.015481e+00
-2.017476e+00
-2.021641e+00
-2.028676e+00
-2.038943e+00
-2.052103e+00
-2.067307e+00
-2.083600e+00
-2.100142e+00
-2.116210e+00
-2.131243e+00
-2.145044e+00
-2.157903e+00
-2.170448e+00
-2.183283e+00
-2.196634e+00
-2.210297e+00
-2.223922e+00
-2.237365e+00
-2.250756e+00
-2.264251e+00
-2.277670e+00
-2.290315e+00
-2.301157e+00
-2.309408e+00
-2.315097e+00
-2.319142e+00
-2.322834e+00
-2.327221e+00
-2.332732e+00
-2.338975e+00
-2.344758e+00
-2.348568e+00
-2.349416e+00
-2.347455e+00
-2.343925e+00
-2.340541e+00
-2.338746e+00
-2.339208e+00
-2.341845e+00
-2.346257e+00
-2.352039e+00
-2.358666e+00
-2.365271e+00
-2.370853e+00
-2.374839e+00
-2.377446e+00
-2.379513e+00
-2.381952e+00
-2.385255e+00
-2.389375e+00
-2.394040e+00
-2.399191e+00
-2.405186e+00
-2.412639e+00
-2.421949e+00
-2.432839e+00
-2.444322e+00
-2.455152e+00
-2.464307e+00
-2.471140e+00
-2.475381e+00
-2.477279e+00
-2.477707e+00
-2.477792e+00
-2.478153e+00
-2.478429e+00
-2.477628e+00
-2.474965e+00
-2.470423e+00
-2.464689e+00
-2.458752e+00
-2.453415e+00
-2.448827e+00
-2.444235e+00
-2.438268e+00
-2.429701e+00
-2.418082e+00
-2.403768e+00
-2.387511e+00
-2.370131e+00
-2.352526e+00
-2.335717e+00
-2.320617e+00
-2.307685e+00
-2.296874e+00
-2.287930e+00
-2.280746e+00
-2.275479e+00
-2.272404e+00
-2.271664e+00
-2.273139e+00
-2.276561e+00
-2.281697e+00
-2.288404e+00
-2.296536e+00
-2.305872e+00
-2.316111e+00
-2.326796e+00
-2.337179e+00
-2.346298e+00
-2.353387e+00
-2.358330e+00
-2.361742e+00
-2.364653e+00
-2.368050e+00
-2.372420e+00
-2.377454e+00
-2.382152e+00
-2.385362e+00
-2.386326e+00
-2.384801e+00
-2.380789e+00
-2.374235e+00
-2.365051e+00
-2.353473e+00
-2.340311e+00
-2.326716e+00
-2.313703e+00
-2.301906e+00
-2.291686e+00
-2.283428e+00
-2.277782e+00
-2.275504e+00
-2.276892e+00
-2.281300e+00
-2.287252e+00
-2.293121e+00
-2.297889e+00
-2.301559e+00
-2.304946e+00
-2.309006e+00
-2.314219e+00
-2.320483e+00
-2.327466e+00
-2.334988e+00
-2.343084e+00
-2.351770e+00
-2.360814e+00
-2.369749e+00
-2.378003e+00
-2.385005e+00
-2.390286e+00
-2.393525e+00
-2.394480e+00
-2.392873e+00
-2.388412e+00
-2.380922e+00
-2.370540e+00
-2.357952e+00
-2.344496e+00
-2.331772e+00
-2.320777e+00
-2.311233e+00
-2.301789e+00
-2.290997e+00
-2.278258e+00
-2.264127e+00
-2.249951e+00
-2.237160e+00
-2.226527e+00
-2.217746e+00
-2.209590e+00
-2.200556e+00
-2.189533e+00
-2.176078e+00
-2.160338e+00
-2.142929e+00
-2.124955e+00
-2.107897e+00
-2.093048e+00
-2.080629e+00
-2.069332e+00
-2.056905e+00
-2.041564e+00
-2.023204e+00
-2.003406e+00
-1.984137e+00
-1.966216e+00
-1.948845e+00
-1.930576e+00
-1.910743e+00
-1.890041e+00
-1.869924e+00
-1.851558e+00
-1.835346e+00
-1.821240e+00
-1.809272e+00
-1.799654e+00
-1.792397e+00
-1.786924e+00
-1.782048e+00
-1.776371e+00
-1.768901e+00
-1.759410e+00
-1.748142e+00
-1.735196e+00
-1.720405e+00
-1.703876e+00
-1.686372e+00
-1.668940e+00
-1.652207e+00
-1.636074e+00
-1.619791e+00
-1.602096e+00
-1.581514e+00
-1.557185e+00
-1.529857e+00
-1.501980e+00
-1.476440e+00
-1.454904e+00
-1.437214e+00
-1.422104e+00
-1.408288e+00
-1.394816e+00
-1.380561e+00
-1.363671e+00
-1.341964e+00
-1.314212e+00
-1.281249e+00
-1.245839e+00
-1.211335e+00
-1.180118e+00
-1.152846e+00
-1.128788e+00
-1.106778e+00
-1.085950e+00
-1.065637e+00
-1.044562e+00
-1.020281e+00
-9.897904e-01
-9.509818e-01
-9.036147e-01
-8.491262e-01
-7.898365e-01
-7.282324e-01
-6.664779e-01
-6.060467e-01
-5.474686e-01
-4.904197e-01
-4.343575e-01
-3.793399e-01
-3.263169e-01
-2.766768e-01
-2.314883e-01
-1.909610e-01
-1.544000e-01
-1.206135e-01
-8.836336e-02
-5.649658e-02
-2.397230e-02
9.840666e-03
4.481056e-02
8.010226e-02
1.145897e-01
1.472378e-01
1.773141e-01
2.044261e-01
2.283893e-01
2.492005e-01
2.674405e-01
2.847965e-01
3.039613e-01
3.277533e-01
3.581716e-01
3.959979e-01
4.407528e-01
4.907342e-01
5.434762e-01
5.968987e-01
6.504970e-01
7.054797e-01
7.636157e-01
8.257497e-01
8.910780e-01
9.574401e-01
1.022242e+00
1.083462e+00
1.140145e+00
1.192167e+00
1.239765e+00
1.283481e+00
1.324422e+00
1.364225e+00
1.404438e+00
1.445668e+00
1.487079e+00
1.526773e+00
1.563007e+00
1.595434e+00
1.625375e+00
1.654987e+00
1.686028e+00
1.719104e+00
1.753646e+00
1.788338e+00
1.821661e+00
1.852439e+00
1.880225e+00
1.905361e+00
1.928789e+00
1.951846e+00
1.976056e+00
2.002805e+00
2.032930e+00
2.066493e+00
2.102939e+00
2.141522e+00
2.181708e+00
2.223454e+00
2.267389e+00
2.314682e+00
2.366415e+00
2.423011e+00
2.484265e+00
2.549564e+00
2.617709e+00
2.686730e+00
2.754333e+00
2.818644e+00
2.878552e+00
2.933608e+00
2.983870e+00
3.029764e+00
3.071861e+00
3.110760e+00
3.147191e+00
3.181995e+00
3.215704e+00
3.248016e+00
3.277713e+00
3.303230e+00
3.323495e+00
3.338529e+00
3.349513e+00
3.358348e+00
3.366978e+00
3.376815e+00
3.388430e+00
3.401434e+00
3.414793e+00
3.427901e+00
3.441778e+00
3.458977e+00
3.481914e+00
3.511288e+00
3.546026e+00
3.584456e+00
3.625372e+00
3.668046e+00
3.711372e+00
3.753483e+00
3.792869e+00
3.830095e+00
3.868178e+00
3.910907e+00
3.960435e+00
4.015911e+00
4.073839e+00
4.129764e+00
4.180265e+00
4.224318e+00
4.263547e+00
4.301408e+00
4.341476e+00
4.385512e+00
4.432507e+00
4.479353e+00
4.522381e+00
4.558567e+00
4.586083e+00
4.604561e+00
4.615079e+00
4.619578e+00
4.620054e+00
4.618299e+00
4.616226e+00
4.615889e+00
4.618731e+00
4.624840e+00
4.633093e+00
4.641964e+00
4.650120e+00
4.656744e+00
4.662045e+00
4.667754e+00
4.676808e+00
4.692144e+00
4.715520e+00
4.747210e+00
4.786329e+00
4.831080e+00
4.878748e+00
4.925876e+00
4.968908e+00
5.005174e+00
5.033687e+00
5.055315e+00
5.072226e+00
5.086842e+00
5.100746e+00
5.114140e+00
5.126135e+00
5.135547e+00
5.141461e+00
5.143191e+00
5.140012e+00
5.131192e+00
5.116373e+00
5.096007e+00
5.071602e+00
5.045577e+00
5.020577e+00
4.998598e+00
4.980494e+00
4.966168e+00
4.955117e+00
4.946816e+00
4.940818e+00
4.936928e+00
4.935473e+00
4.937179e+00
4.942427e+00
4.950670e+00
4.960904e+00
4.972743e+00
4.986710e+00
5.003341e+00
5.022098e+00
5.041154e+00
5.058054e+00
5.070627e+00
5.077613e+00
5.078839e+00
5.075039e+00
5.067440e+00
5.057321e+00
5.045773e+00
5.033705e+00
5.021820e+00
5.010408e+00
4.999252e+00
4.987906e+00
4.976151e+00
4.964130e+00
4.951992e+00
4.939341e+00
4.925059e+00
4.907754e+00
4.886435e+00
4.860755e+00
4.830733e+00
4.796525e+00
4.758630e+00
4.718185e+00
4.676725e+00
4.635491e+00
4.594997e+00
4.555272e+00
4.516454e+00
4.479145e+00
4.444254e+00
4.412531e+00
4.384264e+00
4.359385e+00
4.337667e+00
4.318530e+00
4.300718e+00
4.282684e+00
4.263729e+00
4.244829e+00
4.228058e+00
4.214888e+00
4.204814e+00
4.195693e+00
4.185476e+00
4.173695e+00
4.161448e+00
4.150118e+00
4.139971e+00
4.129645e+00
4.116816e+00
4.099477e+00
4.076987e+00
4.050443e+00
4.022286e+00
3.995212e+00
3.970886e+00
3.949282e+00
3.929071e+00
3.908653e+00
3.887025e+00
3.864109e+00
3.840654e+00
3.817967e+00
3.797564e+00
3.780658e+00
3.767586e+00
3.757457e+00
3.748290e+00
3.737714e+00
3.723946e+00
3.706556e+00
3.686647e+00
3.666396e+00
3.648122e+00
3.633281e+00
3.621848e+00
3.612394e+00
3.602782e+00
3.591109e+00
3.576408e+00
3.558896e+00
3.539778e+00
3.520732e+00
3.503221e+00
3.487865e+00
3.474220e+00
3.461153e+00
3.447522e+00
3.432571e+00
3.415797e+00
3.396832e+00
3.375856e+00
3.354174e+00
3.334182e+00
3.318527e+00
3.308984e+00
3.305652e+00
3.306818e+00
3.309535e+00
3.310660e+00
3.307732e+00
3.299279e+00
3.284683e+00
3.263981e+00
3.237831e+00
3.207639e+00
3.175805e+00
3.145670e+00
3.120601e+00
3.102306e+00
3.089594e+00
3.078911e+00
3.066523e+00
3.050782e+00
3.032906e+00
3.015992e+00
3.003065e+00
2.995421e+00
2.992198e+00
2.991244e+00
2.990542e+00
2.989251e+00
2.987797e+00
2.987123e+00
2.987717e+00
2.989057e+00
2.989654e+00
2.987542e+00
2.980985e+00
2.969341e+00
2.953798e+00
2.937408e+00
2.924033e+00
2.916577e+00
2.915539e+00
2.918888e+00
2.923480e+00
2.927094e+00
2.929553e+00
2.932157e+00
2.936118e+00
2.941363e+00
2.946560e+00
2.950089e+00
2.951038e+00
2.949490e+00
2.946145e+00
2.941802e+00
2.937201e+00
2.933251e+00
2.931215e+00
2.932473e+00
2.937980e+00
2.947794e+00
2.961120e+00
2.976904e+00
2.994460e+00
3.013493e+00
3.033605e+00
3.054011e+00
3.073850e+00
3.092659e+00
3.110521e+00
3.127901e+00
3.145431e+00
3.163749e+00
3.183393e+00
3.204837e+00
3.228649e+00
3.255457e+00
3.285527e+00
3.318290e+00
3.352293e+00
3.385679e+00
3.416788e+00
3.444534e+00
3.468517e+00
3.488964e+00
3.506546e+00
3.522175e+00
3.536919e+00
3.551912e+00
3.568027e+00
3.585346e+00
3.602790e+00
3.618313e+00
3.629732e+00
3.635789e+00
3.636845e+00
3.634777e+00
3.632142e+00
3.631072e+00
3.632479e+00
3.635885e+00
3.639857e+00
3.642846e+00
3.644121e+00
3.644313e+00
3.645236e+00
3.649062e+00
3.657318e+00
3.670284e+00
3.687067e+00
3.706153e+00
3.725964e+00
3.745134e+00
3.762594e+00
3.777607e+00
3.789815e+00
3.799265e+00
3.806445e+00
3.812231e+00
3.817637e+00
3.823445e+00
3.830042e+00
3.837590e+00
3.846258e+00
3.856238e+00
3.867605e+00
3.880281e+00
3.894149e+00
3.909102e+00
3.924923e+00
3.941157e+00
3.957110e+00
3.971995e+00
3.985159e+00
3.996332e+00
4.005781e+00
4.014195e+00
4.022286e+00
4.030378e+00
4.038313e+00
4.045732e+00
4.052454e+00
4.058666e+00
4.064868e+00
4.071622e+00
4.079220e+00
4.087468e+00
4.095678e+00
4.102832e+00
4.107870e+00
4.110056e+00
4.109258e+00
4.105958e+00
4.101125e+00
4.096152e+00
4.092681e+00
4.092025e+00
4.094341e+00
4.098277e+00
4.101549e+00
4.102144e+00
4.099295e+00
4.093612e+00
4.086506e+00
4.079442e+00
4.073489e+00
4.069202e+00
4.066654e+00
4.065625e+00
4.065964e+00
4.067934e+00
4.072282e+00
4.079925e+00
4.091306e+00
4.105795e+00
4.121628e+00
4.136530e+00
4.148575e+00
4.156772e+00
4.161162e+00
4.162520e+00
4.161891e+00
4.160239e+00
4.158419e+00
4.157364e+00
4.158097e+00
4.161391e+00
4.167349e+00
4.175312e+00
4.184187e+00
4.192885e+00
4.200610e+00
4.206949e+00
4.211853e+00
4.215518e+00
4.218236e+00
4.220327e+00
4.222129e+00
4.223949e+00
4.225950e+00
4.228124e+00
4.230438e+00
4.233105e+00
4.236702e+00
4.241944e+00
4.249280e+00
4.258602e+00
4.269247e+00
4.280278e+00
4.290904e+00
4.300837e+00
4.310319e+00
4.319788e+00
4.329490e+00
4.339316e+00
4.348923e+00
4.358027e+00
4.366675e+00
4.375324e+00
4.384605e+00
4.394852e+00
4.405676e+00
4.415901e+00
4.423896e+00
4.428060e+00
4.427217e+00
4.420926e+00
4.409649e+00
4.394592e+00
4.377160e+00
4.358317e+00
4.338342e+00
4.317205e+00
4.295244e+00
4.273446e+00
4.253049e+00
4.234791e+00
4.218420e+00
4.202796e+00
4.186469e+00
4.168300e+00
4.147750e+00
4.124807e+00
4.099812e+00
4.073371e+00
4.046270e+00
4.019246e+00
3.992738e+00
3.966889e+00
3.941822e+00
3.917888e+00
3.895687e+00
3.875885e+00
3.859048e+00
3.845501e+00
3.835209e+00
3.827753e+00
3.822468e+00
3.818741e+00
3.816311e+00
3.815405e+00
3.816546e+00
3.820091e+00
3.825765e+00
3.832487e+00
3.838541e+00
3.842061e+00
3.841667e+00
3.836962e+00
3.828571e+00
3.817716e+00
3.805684e+00
3.793492e+00
3.781680e+00
3.770123e+00
3.758086e+00
3.744698e+00
3.729534e+00
3.712790e+00
3.694961e+00
3.676402e+00
3.657137e+00
3.636981e+00
3.615803e+00
3.593650e+00
3.570640e+00
3.546712e+00
3.521489e+00
3.494375e+00
3.464866e+00
3.432919e+00
3.399137e+00
3.364622e+00
3.330572e+00
