EVENT_NAME: EMILIA_2ND_SHOCK
EVENT_ID: IT-2012-0011
EVENT_DATE_YYYYMMDD: 20120529
EVENT_TIME_HHMMSS: 070002
EVENT_LATITUDE_DEGREE: 44.8417
EVENT_LONGITUDE_DEGREE: 11.0657
EVENT_DEPTH_KM: 8.1
HYPOCENTER_REFERENCE: INGV-CNT_Seismic_Bulletin
MAGNITUDE_W: 6.0
MAGNITUDE_W_REFERENCE: RCMT-INGV
MAGNITUDE_L: 5.8
MAGNITUDE_L_REFERENCE: INGV-CNT_Seismic_Bulletin
FOCAL_MECHANISM: TF
NETWORK: TV
STATION_CODE: MIR05
STATION_NAME: POGGIO RUSCO
STATION_LATITUDE_DEGREE: 44.980800
STATION_LONGITUDE_DEGREE: 11.107190
STATION_ELEVATION_M: 
LOCATION: 
SENSOR_DEPTH_M: 
VS30_M/S: 
SITE_CLASSIFICATION_EC8: C*
MORPHOLOGIC_CLASSIFICATION: 
EPICENTRAL_DISTANCE_KM: 15.8
EARTHQUAKE_BACKAZIMUTH_DEGREE: 192.0
DATE_TIME_FIRST_SAMPLE_YYYYMMDD_HHMMSS: 20120529_065929.000
DATE_TIME_FIRST_SAMPLE_PRECISION: milliseconds
SAMPLING_INTERVAL_S: 0.005000
NDATA: 30001
DURATION_S: 150.005
STREAM: HNN
UNITS: cm/s
INSTRUMENT: sensor = Episensor FBA ES-T [Kinemetrics] | digitizer = Unknown [Unknown]
INSTRUMENT_ANALOG/DIGITAL: D
INSTRUMENTAL_FREQUENCY_HZ: 
INSTRUMENTAL_DAMPING: 
FULL_SCALE_G: 
N_BIT_DIGITAL_CONVERTER: 
PGV_CM/S: -19.822061
TIME_PGV_S: 46.660000
BASELINE_CORRECTION: BASELINE REMOVED
FILTER_TYPE: BUTTERWORTH
FILTER_ORDER: 2
LOW_CUT_FREQUENCY_HZ: 0.070
HIGH_CUT_FREQUENCY_HZ: 40.000
LATE/NORMAL_TRIGGERED: NT
DATABASE_VERSION: DYNA 1.0
HEADER_FORMAT: DYNA 1.2
DATA_TYPE: VELOCITY
PROCESSING: manual (Paolucci et al., 2011)
DATA_TIMESTAMP_YYYYMMDD_HHMMSS: 
DATA_LICENSE: CC-BY4_0 (http://creativecommons.org/licenses/by/4.0/)
DATA_CITATION: ESM working group (2015), European Strong-Motion database, version 0.1, Network Activity 3: Networking acceleration networks and SM data users. Project NERA (www.nera-eu.org)
DATA_CREATOR: ESM working group
ORIGINAL_DATA_MEDIATOR_CITATION: Orfeus - European Integrated Data Archive (EIDA) http://www.orfeus-eu.org/eida/
ORIGINAL_DATA_MEDIATOR: Orfeus - European Integrated Data Archive (EIDA)
ORIGINAL_DATA_CREATOR_CITATION: 
ORIGINAL_DATA_CREATOR: network: TV (INGV Experiments Network); owner: Istituto Nazionale di Geofisica e Vulcanologia
USER1: 
USER2: 
USER3: 
USER4: 
USER5: 
[...]
-0.409371
-0.332312
-0.273526
-0.242115
-0.232972
-0.235844
-0.241892
-0.247245
-0.256355
-0.280486
-0.328440
-0.396500
-0.467211
-0.518696
-0.536072
-0.517412
-0.475489
-0.434727
-0.418007
-0.430631
-0.460074
-0.491572
-0.517266
-0.530109
-0.519120
-0.476732
-0.407781
-0.329298
-0.264087
-0.234455
-0.255099
-0.323740
-0.416993
-0.499818
-0.544077
-0.541561
-0.503861
-0.455098
-0.422218
-0.421555
-0.449718
-0.489954
-0.526710
-0.551691
-0.560456
-0.552210
-0.534083
-0.516810
-0.502573
-0.484032
-0.458472
-0.437335
-0.438097
-0.467854
-0.516222
-0.563301
-0.592394
-0.596560
-0.578880
-0.551312
-0.532439
-0.539250
-0.574890
-0.625381
-0.669624
-0.691001
-0.683636
-0.655183
-0.622912
-0.601551
-0.592960
-0.586580
-0.568747
-0.534379
-0.493889
-0.467970
-0.470886
-0.496669
-0.523625
-0.534295
-0.529989
-0.525447
-0.533448
-0.556876
-0.590599
-0.627381
-0.664945
-0.708176
-0.761835
-0.821004
-0.870269
-0.893043
-0.881755
-0.839978
-0.779643
-0.719446
-0.680001
-0.673708
-0.698740
-0.741474
-0.782044
-0.801167
-0.790571
-0.761972
-0.741763
-0.751331
-0.793606
-0.857500
-0.927172
-0.984835
-1.012467
-0.998605
-0.946262
-0.873075
-0.800412
-0.739075
-0.684764
-0.628793
-0.572033
-0.524882
-0.495636
-0.484300
-0.486176
-0.496113
-0.510250
-0.528258
-0.553505
-0.587416
-0.624308
-0.654669
-0.671444
-0.669823
-0.645374
-0.598864
-0.540861
-0.487434
-0.453238
-0.448089
-0.472386
-0.512345
-0.546013
-0.559247
-0.554546
-0.544424
-0.540423
-0.548677
-0.569781
-0.598111
-0.623010
-0.634887
-0.631721
-0.619566
-0.606781
-0.597073
-0.587063
-0.570247
-0.543440
-0.510186
-0.479424
-0.461209
-0.462301
-0.483684
-0.520830
-0.565357
-0.604872
-0.622799
-0.605898
-0.557055
-0.498146
-0.458748
-0.462254
-0.516287
-0.608088
-0.709464
-0.790556
-0.830293
-0.817189
-0.748539
-0.633697
-0.495221
-0.362253
-0.258676
-0.192241
-0.152581
-0.122436
-0.093726
-0.075192
-0.087775
-0.151523
-0.271380
-0.431896
-0.602759
-0.747519
-0.832223
-0.836652
-0.765503
-0.649130
-0.529059
-0.438741
-0.392244
-0.384245
-0.400877
-0.434586
-0.488429
-0.566736
-0.666757
-0.779256
-0.890556
-0.983373
-1.042871
-1.065950
-1.063211
-1.050235
-1.035554
-1.014495
-0.973240
-0.900346
-0.796150
-0.673081
-0.550645
-0.449894
-0.386345
-0.365042
-0.384213
-0.440895
-0.527320
-0.623432
-0.700499
-0.737141
-0.732755
-0.705495
-0.677705
-0.662435
-0.660262
-0.664470
-0.668520
-0.672550
-0.685244
-0.717107
-0.769399
-0.830017
-0.880200
-0.904616
-0.897852
-0.866637
-0.828442
-0.806037
-0.818834
-0.874155
-0.962847
-1.061352
-1.138666
-1.166790
-1.132641
-1.044809
-0.930637
-0.826520
-0.764233
-0.755578
-0.785264
-0.821522
-0.836976
-0.821945
-0.782915
-0.732640
-0.680563
-0.628578
-0.573413
-0.513336
-0.454098
-0.407920
-0.384531
-0.383765
-0.398969
-0.425606
-0.463028
-0.508840
-0.553776
-0.580296
-0.565690
-0.493976
-0.373338
-0.241731
-0.150629
-0.140542
-0.225680
-0.389628
-0.589638
-0.772045
-0.894266
-0.939391
-0.917927
-0.863620
-0.824443
-0.843212
-0.934377
-1.075381
-1.221839
-1.334256
-1.394824
-1.406840
-1.385702
-1.349895
-1.313069
-1.278472
-1.241035
-1.196423
-1.145012
-1.086720
-1.019417
-0.945116
-0.870917
-0.801513
-0.735698
-0.670758
-0.606595
-0.546416
-0.495341
-0.454955
-0.417001
-0.366612
-0.295111
-0.209227
-0.129265
-0.080528
-0.084583
-0.153714
-0.288791
-0.479818
-0.707819
-0.946283
-1.163358
-1.327760
-1.418257
-1.433558
-1.396024
-1.342034
-1.303107
-1.292583
-1.304745
-1.320289
-1.313850
-1.264827
-1.168458
-1.039305
-0.903840
-0.787250
-0.702220
-0.644677
-0.599430
-0.552452
-0.499084
-0.443194
-0.392134
-0.351386
-0.321259
-0.298729
-0.282277
-0.273308
-0.272583
-0.275948
-0.272964
-0.249951
-0.197784
-0.119682
-0.031282
0.047615
0.103449
0.135972
0.159401
0.197603
0.274390
0.400999
0.567625
0.746535
0.904135
1.011894
1.051788
1.018799
0.921893
0.782417
0.629343
0.491345
0.387449
0.320608
0.278795
0.245309
0.212155
0.183544
0.166834
0.164266
0.173856
0.194345
0.228744
0.283518
0.361443
0.453914
0.542090
0.607268
0.641589
0.651797
0.655857
0.674658
0.721786
0.798114
0.895323
1.002728
1.110123
1.207026
1.283061
1.331238
1.348982
1.332137
1.270345
1.155362
0.994399
0.811306
0.636523
0.499259
0.425635
0.435943
0.536805
0.714400
0.938054
1.172485
1.388332
1.565292
1.687787
1.738047
1.697728
1.560748
1.342901
1.076044
0.792865
0.516270
0.259579
0.033132
-0.149337
-0.267768
-0.298724
-0.225365
-0.048980
0.207534
0.508129
0.817675
1.112006
1.380653
1.625167
1.853767
2.072219
2.277201
2.457342
2.596651
2.675597
2.676101
2.594502
2.450504
2.279143
2.112948
1.971351
1.861584
1.783797
1.735236
1.713387
1.717743
1.747187
1.793564
1.839292
1.864144
1.855013
1.809595
1.733983
1.639038
1.535600
1.427292
1.306191
1.157273
0.967597
0.731988
0.455601
0.157660
-0.126897
-0.352869
-0.475976
-0.466713
-0.323153
-0.075517
0.220961
0.499904
0.698990
0.774704
0.713630
0.535320
0.283916
0.010423
-0.246423
-0.469873
-0.660885
-0.826810
-0.973643
-1.102572
-1.205030
-1.260820
-1.249012
-1.164369
-1.021768
-0.847021
-0.667679
-0.510901
-0.402105
-0.356535
-0.366910
-0.400613
-0.415496
-0.385705
-0.317542
-0.244027
-0.205240
-0.229444
-0.323438
-0.473617
-0.655891
-0.847013
-1.030074
-1.196234
-1.346609
-1.491159
-1.641268
-1.798695
-1.947832
-2.059611
-2.107914
-2.086251
-2.011129
-1.911082
-1.811689
-1.726642
-1.656787
-1.593855
-1.526449
-1.446045
-1.349871
-1.240385
-1.123138
-1.004200
-0.889470
-0.787117
-0.709182
-0.670127
-0.685031
-0.766077
-0.913800
-1.109116
-1.317662
-1.507611
-1.666850
-1.804569
-1.938618
-2.083156
-2.245233
-2.425889
-2.620171
-2.817177
-3.001563
-3.155159
-3.260002
-3.305130
-3.293739
-3.244309
-3.184962
-3.145983
-3.153649
-3.224035
-3.355934
-3.527187
-3.700266
-3.835476
-3.903113
-3.889095
-3.795623
-3.639555
-3.447456
-3.246189
-3.053420
-2.874724
-2.706905
-2.540388
-2.358616
-2.140693
-1.869695
-1.540771
-1.164584
-0.766109
-0.378786
-0.034587
0.246219
0.460238
0.618417
0.738830
0.839875
0.936064
1.036493
1.145763
1.266452
1.401556
1.554790
1.727975
1.918967
2.124174
2.342817
2.576618
2.825823
3.086634
3.348338
3.586471
3.758988
3.817656
3.733594
3.517809
3.218572
2.899068
2.614075
2.396214
2.251160
2.163505
2.112997
2.089358
2.093937
2.129254
2.186789
2.243053
2.265510
2.222523
2.092547
1.870312
1.567808
1.210730
0.833962
0.477987
0.184229
-0.014963
-0.111487
-0.130990
-0.123991
-0.141883
-0.216240
-0.352876
-0.535708
-0.733111
-0.906364
-1.021276
-1.060443
-1.030320
-0.957766
-0.876260
-0.808974
-0.759181
-0.713859
-0.655743
-0.573797
-0.468205
-0.351771
-0.246037
-0.169279
-0.122806
-0.087614
-0.035084
0.056057
0.187415
0.340227
0.487312
0.611633
0.719119
0.835332
0.987566
1.185059
1.409059
1.615583
1.748407
1.760295
1.636716
1.406560
1.128367
0.863073
0.652770
0.509498
0.412332
0.318478
0.186171
-0.006426
-0.256317
-0.541379
-0.830559
-1.094913
-1.315330
-1.483951
-1.602620
-1.683370
-1.749682
-1.833602
-1.966469
-2.166956
-2.434871
-2.753409
-3.091071
-3.396888
-3.599759
-3.629171
-3.452331
-3.095787
-2.630938
-2.142169
-1.706126
-1.384997
-1.222332
-1.236282
-1.412697
-1.706407
-2.056453
-2.406313
-2.714133
-2.950446
-3.093503
-3.131558
-3.070597
-2.936471
-2.764277
-2.582843
-2.408677
-2.251482
-2.120056
-2.021890
-1.961673
-1.943418
-1.973492
-2.061595
-2.219140
-2.453935
-2.763103
-3.130698
-3.532701
-3.943414
-4.335810
-4.674996
-4.911823
-4.988271
-4.859838
-4.519653
-3.999843
-3.351283
-2.628903
-1.891007
-1.192298
-0.567005
-0.025549
0.429129
0.789035
1.047230
1.210814
1.303869
1.356715
1.390342
1.407012
1.387319
1.289829
1.060840
0.659446
0.082988
-0.626362
-1.397536
-2.156116
-2.841205
-3.406227
-3.812657
-4.030562
-4.050375
-3.894736
-3.612631
-3.253224
-2.840000
-2.366026
-1.808638
-1.148628
-0.384724
0.459511
1.339104
2.201638
3.003443
3.714354
4.306133
4.736895
4.951564
4.905068
4.589886
4.042326
3.325067
2.505918
1.647568
0.805196
0.022390
-0.676656
-1.292705
-1.849044
-2.379743
-2.914796
-3.472215
-4.057897
-4.664828
-5.265993
-5.807060
-6.219137
-6.459319
-6.545541
-6.547443
-6.542789
-6.579736
-6.667504
-6.786775
-6.898865
-6.945516
-6.851127
-6.540422
-5.966538
-5.130113
-4.074872
-2.863928
-1.557433
-0.210867
1.113075
2.348442
3.452127
4.419509
5.269476
6.022741
6.696880
7.303160
7.829586
8.231162
8.450389
8.453884
8.251818
7.885245
7.397217
6.814713
6.152293
5.427510
4.671144
3.925475
3.238529
2.659813
2.233053
1.987566
1.936066
2.074440
2.375903
2.790240
3.259705
3.738758
4.199156
4.622752
4.995520
5.307300
5.552109
5.726321
5.828013
5.857986
5.819517
5.719073
5.571114
5.401091
5.239593
5.112000
5.032809
5.005094
5.020434
5.061499
5.112580
5.172130
5.254350
5.378088
5.553824
5.778235
6.038109
6.319133
6.611697
6.909129
7.201419
7.468952
7.677477
7.778494
7.721562
7.474243
7.034320
6.426582
5.693523
4.890535
4.080572
3.320236
2.646563
2.077631
1.622713
1.291751
1.101937
1.078400
1.242603
1.592326
2.091374
2.682186
3.311029
3.943009
4.557046
5.130222
5.627643
6.006236
6.227339
6.267471
6.122749
5.808579
5.359640
4.838204
4.348395
4.028279
3.994205
4.269262
4.768667
5.360979
5.941530
6.459630
6.906094
7.292531
7.636479
7.954847
8.263095
8.570744
8.870342
9.133439
9.323669
9.414493
9.393763
9.255408
8.991452
8.592422
8.053932
7.383857
6.605216
5.750758
4.852450
3.937945
3.042252
2.226962
1.585477
1.214536
1.158796
1.372365
1.742824
2.163714
2.585101
3.002398
3.417949
3.822511
4.200538
4.538996
4.827641
5.051824
5.186457
5.199536
5.064591
4.772632
4.336118
3.786101
3.165159
2.515426
1.866691
1.234454
0.627227
0.052474
-0.482923
-0.973447
-1.413814
-1.796212
-2.107959
-2.331706
-2.448028
-2.439429
-2.295164
-2.014454
-1.606962
-1.092889
-0.502414
0.128732
0.766550
1.384897
1.968167
2.510944
3.017362
3.501055
3.981916
4.478696
5.002968
5.558152
6.141453
6.746146
7.363784
7.986332
8.607623
9.222574
9.822166
10.382870
10.854660
11.163560
11.243100
11.075700
10.701470
10.186570
9.588741
8.946921
8.284419
7.611149
6.926184
6.225021
5.508947
4.791101
4.095831
3.450730
2.875556
2.375427
1.942223
1.563161
1.231791
0.953058
0.738747
0.599646
0.540082
0.553770
0.621157
0.711569
0.790217
0.826386
0.798641
0.695059
0.510462
0.244654
-0.096326
-0.497181
-0.931728
-1.363864
-1.749902
-2.043517
-2.206175
-2.220773
-2.100259
-1.883186
-1.616484
-1.337903
-1.072799
-0.844860
-0.684379
-0.621831
-0.673884
-0.837593
-1.096465
-1.429170
-1.813325
-2.225168
-2.640852
-3.041597
-3.417005
-3.761767
-4.069843
-4.331880
-4.536475
-4.672475
-4.729005
-4.693560
-4.552779
-4.297250
-3.925642
-3.445082
-2.869937
-2.220883
-1.522633
-0.799012
-0.067875
0.660241
1.379266
2.084500
2.772618
3.442441
4.092580
4.718604
5.313828
5.871130
6.383245
6.844704
7.256767
7.630917
7.987013
8.347796
8.733757
9.159364
9.630690
10.146300
10.701180
11.290550
11.911840
12.564220
13.245800
13.950150
14.665440
15.376840
16.067329
16.710911
17.263781
17.671329
17.895491
17.939590
17.844379
17.660219
17.424320
17.157619
16.869190
16.556801
16.206970
15.800180
15.320820
14.766090
14.147470
13.484420
12.796450
12.099090
11.404810
10.726230
10.076430
9.464145
8.887922
8.334395
7.781290
7.203439
6.581006
5.906631
5.187004
4.439464
3.687156
2.953240
2.254666
1.599198
0.986901
0.412598
-0.132578
-0.658390
-1.170255
-1.664449
-2.128137
-2.544596
-2.899006
-3.181329
-3.387439
-3.520043
-3.587940
-3.602301
-3.573397
-3.512225
-3.434322
-3.358995
-3.304157
-3.282424
-3.299357
-3.351299
-3.425191
-3.504285
-3.577405
-3.646031
-3.726218
-3.844981
-4.030625
-4.298669
-4.642732
-5.039496
-5.461239
-5.882686
-6.282118
-6.644128
-6.962926
-7.240953
-7.484686
-7.703357
-7.910624
-8.123646
-8.357145
-8.616409
-8.893551
-9.167448
-9.406138
-9.572053
-9.631332
-9.564634
-9.371969
-9.067481
-8.669396
-8.192139
-7.642565
-7.021013
-6.327648
-5.571036
-4.773708
-3.970999
-3.204026
-2.511633
-1.924764
-1.464111
-1.141429
-0.962359
-0.926840
-1.027157
-1.247235
-1.565368
-1.959348
-2.410812
-2.906270
-3.435524
-3.989656
-4.559653
-5.135745
-5.706972
-6.260361
-6.780494
-7.250889
-7.657068
-7.990281
-8.250965
-8.449965
-8.605718
-8.739156
-8.869471
-9.010862
-9.168604
-9.334762
-9.485957
-9.584759
-9.585005
-9.442949
-9.134909
-8.673408
-8.108296
-7.509442
-6.944345
-6.466525
-6.115952
-5.920412
-5.890689
-6.014021
-6.254941
-6.567104
-6.910158
-7.260510
-7.610324
-7.960252
-8.314403
-8.678804
-9.059566
-9.459284
-9.873933
-10.293330
-10.704750
-11.095510
-11.452790
-11.764290
-12.021180
-12.221330
-12.371360
-12.486910
-12.590140
-12.703910
-12.845510
-13.023280
-13.238180
-13.487950
-13.770350
-14.084550
-14.431920
-14.815870
-15.239430
-15.701550
-16.195589
-16.711201
-17.235781
-17.753860
-18.247690
-18.700800
-19.100800
-19.435760
-19.686159
-19.822060
-19.814091
-19.652269
-19.353189
-18.945990
-18.452810
-17.884680
-17.250059
-16.559669
-15.823060
-15.046910
-14.240700
-13.420980
-12.606550
-11.810800
-11.040690
-10.300870
-9.596007
-8.928642
-8.296770
-7.695404
-7.119646
-6.564060
-6.020160
-5.477534
-4.928196
-4.369353
-3.802445
-3.230203
-2.655054
-2.080252
-1.510884
-0.952456
-0.410313
0.108159
0.593454
1.038420
1.440426
1.796512
2.098328
2.334263
2.494826
2.574646
2.572937
2.495231
2.352292
2.154840
1.911135
1.630905
1.328710
1.021300
0.723738
0.449076
0.207632
0.002515
-0.173423
-0.334172
-0.494615
-0.667547
-0.861782
-1.078142
-1.306131
-1.525730
-1.714965
-1.859333
-1.956731
-2.015669
-2.050490
-2.077461
-2.112685
-2.170435
-2.260359
-2.384596
-2.536488
-2.701096
-2.858564
-2.989548
-3.078747
-3.116259
-3.099211
-3.032187
-2.925264
-2.792145
-2.647791
-2.503420
-2.362750
-2.224139
-2.086313
-1.951680
-1.823938
-1.702851
-1.582019
-1.451375
-1.301218
-1.125028
-0.921724
-0.698320
-0.470108
-0.255887
-0.071527
0.072939
0.171739
0.220586
0.216042
0.157753
0.052830
-0.080320
-0.214227
-0.322764
-0.393242
-0.431079
-0.455209
-0.489837
-0.557145
-0.671123
-0.833031
-1.030995
-1.243392
-1.441749
-1.591039
-1.651508
-1.587991
-1.385663
-1.060262
-0.651066
-0.201371
0.257025
0.707299
1.143580
1.565283
1.972748
2.364999
2.737748
3.080078
3.371121
3.578392
3.660372
3.577750
3.310965
2.869935
2.286593
1.600384
0.850987
0.076629
-0.690205
-1.427947
-2.126008
-2.780741
-3.391464
-3.957792
-4.478308
-4.951011
-5.374609
-5.749070
-6.075499
-6.356642
-6.597737
-6.805816
-6.987383
-7.146858
-7.287494
-7.413693
-7.532178
-7.650833
-7.776449
-7.912879
-8.059897
-8.212795
-8.362932
-8.499790
-8.614651
-8.704179
-8.771437
-8.823699
-8.868395
-8.909345
-8.945064
-8.969174
-8.971637
-8.940078
-8.861048
-8.721443
-8.510941
-8.225626
-7.870788
-7.461107
-7.019347
-6.575111
-6.162534
-5.814844
-5.555895
-5.391394
-5.304482
-5.260015
-5.217360
-5.145266
-5.031040
-4.880788
-4.713310
-4.552785
-4.423358
-4.345142
-4.329895
-4.376776
-4.471174
-4.588917
-4.704562
-4.799601
-4.866808
-4.909664
-4.937843
-4.960927
-4.983538
-5.003894
-5.015279
-5.009726
-4.983377
-4.940279
-4.890363
-4.842226
-4.796489
-4.744566
-4.673125
-4.571279
-4.435956
-4.272502
-4.091442
-3.903954
-3.718347
-3.539255
-3.368407
-3.204673
-3.044585
-2.885372
-2.728440
-2.579449
-2.444085
-2.322619
-2.207936
-2.088322
-1.952126
-1.792037
-1.608506
-1.411218
-1.218315
-1.055238
-0.953532
-0.945970
-1.055158
-1.281053
-1.598760
-1.969717
-2.355178
-2.721684
-3.040523
-3.286953
-3.440860
-3.489959
-3.435792
-3.297069
-3.103797
-2.884468
-2.656155
-2.423720
-2.186067
-1.943285
-1.699814
-1.463101
-1.240895
-1.039098
-0.859880
-0.701178
-0.559392
-0.433964
-0.330292
-0.257681
-0.221751
-0.215915
-0.219271
-0.203216
-0.141668
-0.018866
0.167228
0.406205
0.680407
0.970972
1.262449
1.545926
1.819678
2.086616
2.350965
2.616321
2.884222
3.152743
3.416092
3.664807
3.885392
4.060075
4.168613
4.193089
4.123567
3.960390
3.711892
3.391282
3.015525
2.603921
2.173153
1.730933
1.275019
0.799919
0.304514
-0.205788
-0.720416
-1.224111
-1.696187
-2.111798
-2.448624
-2.697542
-2.869517
-2.992145
-3.097536
-3.210396
-3.343668
-3.500743
-3.678801
-3.871205
-4.069543
-4.265074
-4.449699
-4.617417
-4.765800
-4.895721
-5.009241
-5.107704
-5.190852
-5.255847
-5.296569
-5.304748
-5.272645
-5.195649
-5.073611
-4.910483
-4.713001
-4.489727
-4.250431
-4.005029
-3.762370
-3.529863
-3.314009
-3.120936
-2.956047
-2.822684
-2.720659
-2.645567
-2.588964
-2.539055
-2.481898
-2.403259
-2.290798
-2.136110
-1.936455
-1.695989
-1.425422
-1.138980
-0.849470
-0.563930
-0.282364
-0.000648
0.284088
0.570150
0.852579
1.126355
1.388597
1.639861
1.884585
2.130133
2.385145
2.657816
2.954203
3.277213
3.626800
4.001175
4.397995
4.814196
5.244822
5.683010
6.122217
6.559114
6.994675
7.432610
7.876396
8.324942
8.765769
9.170693
9.504282
9.744919
9.900154
9.999104
10.069570
10.123110
10.156160
10.156800
10.109870
10.002140
9.828414
9.595403
9.320766
9.028305
8.741616
8.478137
8.246162
8.045986
7.873020
7.720436
7.581124
7.449709
7.324445
7.207933
7.106034
7.025694
6.972655
6.949425
6.954094
6.980946
7.022696
7.073332
7.130523
7.196386
7.276147
7.376013
7.501708
7.657239
7.843028
8.054569
8.283169
8.518193
8.749368
8.968714
9.171852
9.358313
9.531205
9.696783
9.863618
10.041060
10.237530
10.459300
10.709440
10.986720
11.285010
11.594250
11.903140
12.201210
12.478390
12.723000
12.920990
13.057670
13.120560
13.101310
12.995930
12.805590
12.540850
12.228610
11.914300
11.650560
11.474450
11.390570
11.375640
11.398080
11.434070
11.472000
11.509550
11.548170
11.588520
11.629170
11.667910
11.703620
11.736970
11.768740
11.796610
11.812970
11.805810
11.762340
11.673730
11.539330
11.369230
11.184260
11.012510
10.881620
10.808930
10.795150
10.826040
10.881210
10.943640
11.003970
11.058870
11.107750
11.149980
11.182440
11.197340
11.181940
11.122400
11.010180
10.846230
10.640070
10.405740
10.157580
9.907256
9.663280
9.433582
9.229544
9.069167
8.976045
8.970916
9.059848
9.229733
9.455976
9.714971
9.990686
10.273030
10.554140
10.827650
11.089520
11.337330
11.569090
11.783640
11.982430
12.169670
12.349940
12.524760
12.690420
12.837770
12.952870
13.018900
13.021850
12.959260
12.845060
12.703940
12.559020
12.422440
12.293770
12.163590
12.019220
11.851130
11.657260
11.443780
11.223260
11.011830
10.826320
10.682490
10.593820
10.569750
