EVENT_NAME: EMILIA_2ND_SHOCK
EVENT_ID: IT-2012-0011
EVENT_DATE_YYYYMMDD: 20120529
EVENT_TIME_HHMMSS: 070002
EVENT_LATITUDE_DEGREE: 44.8417
EVENT_LONGITUDE_DEGREE: 11.0657
EVENT_DEPTH_KM: 8.1
HYPOCENTER_REFERENCE: INGV-CNT_Seismic_Bulletin
MAGNITUDE_W: 6.0
MAGNITUDE_W_REFERENCE: RCMT-INGV
MAGNITUDE_L: 5.8
MAGNITUDE_L_REFERENCE: INGV-CNT_Seismic_Bulletin
FOCAL_MECHANISM: TF
NETWORK: TV
STATION_CODE: MIR04
STATION_NAME: GAVELLO
STATION_LATITUDE_DEGREE: 44.927433
STATION_LONGITUDE_DEGREE: 11.178312
STATION_ELEVATION_M: 
LOCATION: 
SENSOR_DEPTH_M: 
VS30_M/S: 
SITE_CLASSIFICATION_EC8: C*
MORPHOLOGIC_CLASSIFICATION: 
EPICENTRAL_DISTANCE_KM: 13.0
EARTHQUAKE_BACKAZIMUTH_DEGREE: 223.1
DATE_TIME_FIRST_SAMPLE_YYYYMMDD_HHMMSS: 20120529_065927.000
DATE_TIME_FIRST_SAMPLE_PRECISION: milliseconds
SAMPLING_INTERVAL_S: 0.005000
NDATA: 30001
DURATION_S: 150.005
STREAM: HNE
UNITS: cm/s
INSTRUMENT: sensor = Episensor FBA ES-T [Kinemetrics] | digitizer = Unknown [Unknown]
INSTRUMENT_ANALOG/DIGITAL: D
INSTRUMENTAL_FREQUENCY_HZ: 
INSTRUMENTAL_DAMPING: 
FULL_SCALE_G: 
N_BIT_DIGITAL_CONVERTER: 
PGV_CM/S: -35.410696
TIME_PGV_S: 45.955000
BASELINE_CORRECTION: BASELINE REMOVED
FILTER_TYPE: BUTTERWORTH
FILTER_ORDER: 2
LOW_CUT_FREQUENCY_HZ: 0.050
HIGH_CUT_FREQUENCY_HZ: 40.000
LATE/NORMAL_TRIGGERED: NT
DATABASE_VERSION: DYNA 1.0
HEADER_FORMAT: DYNA 1.2
DATA_TYPE: VELOCITY
PROCESSING: manual (Paolucci et al., 2011)
DATA_TIMESTAMP_YYYYMMDD_HHMMSS: 
DATA_LICENSE: CC-BY4_0 (http://creativecommons.org/licenses/by/4.0/)
DATA_CITATION: ESM working group (2015), European Strong-Motion database, version 0.1, Network Activity 3: Networking acceleration networks and SM data users. Project NERA (www.nera-eu.org)
DATA_CREATOR: ESM working group
ORIGINAL_DATA_MEDIATOR_CITATION: Orfeus - European Integrated Data Archive (EIDA) http://www.orfeus-eu.org/eida/
ORIGINAL_DATA_MEDIATOR: Orfeus - European Integrated Data Archive (EIDA)
ORIGINAL_DATA_CREATOR_CITATION: 
ORIGINAL_DATA_CREATOR: network: TV (INGV Experiments Network); owner: Istituto Nazionale di Geofisica e Vulcanologia
USER1: 
USER2: 
USER3: 
USER4: 
USER5: 
[...]
-0.017984
-0.017731
-0.018392
-0.019723
-0.020698
-0.020556
-0.019777
-0.019731
-0.021137
-0.023017
-0.023555
-0.022284
-0.021133
-0.022408
-0.025657
-0.027761
-0.026853
-0.024993
-0.025463
-0.028134
-0.029605
-0.027908
-0.024937
-0.023736
-0.024904
-0.025962
-0.023773
-0.018866
-0.017133
-0.023265
-0.032278
-0.034096
-0.028210
-0.025562
-0.032225
-0.039280
-0.034871
-0.021267
-0.013043
-0.018885
-0.030638
-0.033192
-0.022688
-0.011283
-0.013933
-0.032274
-0.051244
-0.052132
-0.032185
-0.010370
-0.008171
-0.025709
-0.043401
-0.045716
-0.036066
-0.028372
-0.029700
-0.034114
-0.032323
-0.023697
-0.016142
-0.016069
-0.022399
-0.030002
-0.034585
-0.034027
-0.029445
-0.025168
-0.024569
-0.027437
-0.032395
-0.037026
-0.035367
-0.023322
-0.008178
-0.004693
-0.019118
-0.042602
-0.062186
-0.073612
-0.080042
-0.081716
-0.073488
-0.053565
-0.028851
-0.008742
0.001957
0.002219
-0.007248
-0.022219
-0.034921
-0.038797
-0.033679
-0.026409
-0.025536
-0.034171
-0.048249
-0.061323
-0.069114
-0.070919
-0.070355
-0.072201
-0.074247
-0.066755
-0.044989
-0.016960
0.005763
0.018406
0.020247
0.010035
-0.010585
-0.036252
-0.063331
-0.088075
-0.099720
-0.087236
-0.054449
-0.019843
-0.001217
-0.004384
-0.023735
-0.048915
-0.069268
-0.074731
-0.059704
-0.029574
-0.000079
0.012845
0.003487
-0.020513
-0.043016
-0.050508
-0.042916
-0.032351
-0.029238
-0.032781
-0.036335
-0.037158
-0.038034
-0.042482
-0.050599
-0.058379
-0.060563
-0.056351
-0.053981
-0.065351
-0.089261
-0.102929
-0.081136
-0.026205
0.028605
0.047723
0.020879
-0.034961
-0.091460
-0.125555
-0.129282
-0.108331
-0.071085
-0.022149
0.031346
0.071982
0.076893
0.034967
-0.038077
-0.105588
-0.136818
-0.127144
-0.092112
-0.050177
-0.015038
0.004152
0.003673
-0.013762
-0.040338
-0.065931
-0.082530
-0.088219
-0.085824
-0.077393
-0.062070
-0.040511
-0.019980
-0.011930
-0.022045
-0.044417
-0.068237
-0.087106
-0.098483
-0.099310
-0.086671
-0.059120
-0.018159
0.025796
0.054277
0.056620
0.039630
0.015601
-0.009816
-0.032405
-0.045713
-0.052059
-0.065475
-0.093153
-0.121992
-0.132319
-0.120141
-0.099077
-0.082485
-0.070194
-0.054960
-0.037793
-0.031850
-0.050193
-0.091036
-0.134672
-0.154613
-0.135737
-0.086459
-0.032580
0.003381
0.015185
0.006107
-0.021607
-0.064045
-0.108551
-0.138441
-0.145196
-0.132731
-0.110899
-0.087799
-0.067118
-0.048326
-0.028221
-0.005735
0.014434
0.026650
0.031352
0.032141
0.028390
0.017475
0.001995
-0.011401
-0.018476
-0.020388
-0.023851
-0.038024
-0.066163
-0.099930
-0.124361
-0.128458
-0.111965
-0.084873
-0.060526
-0.046876
-0.043507
-0.045160
-0.044434
-0.034067
-0.014258
0.003724
0.008266
0.000148
-0.010629
-0.018103
-0.025560
-0.039220
-0.060336
-0.083052
-0.099211
-0.106765
-0.113300
-0.127549
-0.145248
-0.147374
-0.118405
-0.065819
-0.015499
0.013092
0.021580
0.023025
0.026144
0.031778
0.037418
0.039443
0.033694
0.018943
0.000120
-0.014315
-0.018007
-0.007999
0.017517
0.057506
0.102647
0.135732
0.141386
0.116402
0.071422
0.023247
-0.014707
-0.034994
-0.033388
-0.011014
0.018919
0.034653
0.024133
-0.002780
-0.026056
-0.035892
-0.035762
-0.031270
-0.025825
-0.024894
-0.035308
-0.059293
-0.092818
-0.128316
-0.157260
-0.173303
-0.174493
-0.160991
-0.132781
-0.092750
-0.049792
-0.015881
-0.000024
-0.003503
-0.018619
-0.034159
-0.045074
-0.055266
-0.069441
-0.085757
-0.099404
-0.109783
-0.119740
-0.130396
-0.142050
-0.158466
-0.183498
-0.212387
-0.232089
-0.233296
-0.219314
-0.200568
-0.182494
-0.163429
-0.144532
-0.135001
-0.142527
-0.161647
-0.176856
-0.178303
-0.171989
-0.173095
-0.191363
-0.224907
-0.264567
-0.298465
-0.314235
-0.303874
-0.267826
-0.212623
-0.147122
-0.082712
-0.032170
-0.002708
0.010024
0.018861
0.035022
0.060901
0.092508
0.124596
0.147993
0.147736
0.115355
0.061063
0.004211
-0.045591
-0.089956
-0.130715
-0.168072
-0.204390
-0.238815
-0.260819
-0.257329
-0.226553
-0.182633
-0.147819
-0.138591
-0.154322
-0.178903
-0.198626
-0.218753
-0.254807
-0.305871
-0.347325
-0.356780
-0.339655
-0.321831
-0.322466
-0.342926
-0.378297
-0.424385
-0.469265
-0.491268
-0.473541
-0.416754
-0.338318
-0.264283
-0.216988
-0.199571
-0.191182
-0.166632
-0.126492
-0.103097
-0.129442
-0.201345
-0.276318
-0.315210
-0.321567
-0.331040
-0.364319
-0.404506
-0.421764
-0.405084
-0.366005
-0.322823
-0.286716
-0.259503
-0.241276
-0.235429
-0.243428
-0.260797
-0.283078
-0.310293
-0.342315
-0.375425
-0.405353
-0.429715
-0.448519
-0.465002
-0.481824
-0.494466
-0.492983
-0.469956
-0.423954
-0.361005
-0.295912
-0.241881
-0.193417
-0.131081
-0.050924
0.019459
0.039420
-0.015197
-0.135398
-0.278381
-0.386604
-0.423316
-0.396396
-0.346157
-0.311511
-0.309168
-0.337365
-0.387197
-0.445405
-0.489932
-0.492148
-0.434894
-0.333582
-0.235454
-0.190676
-0.218365
-0.295581
-0.374413
-0.411394
-0.390669
-0.329470
-0.264435
-0.227062
-0.225497
-0.249245
-0.290464
-0.352686
-0.434225
-0.513467
-0.566449
-0.598243
-0.639589
-0.704020
-0.757019
-0.738766
-0.623788
-0.454986
-0.306803
-0.216786
-0.168656
-0.136408
-0.119792
-0.130012
-0.160145
-0.186293
-0.191162
-0.177879
-0.169269
-0.192177
-0.246383
-0.295725
-0.307459
-0.290773
-0.283698
-0.314688
-0.383854
-0.464852
-0.518096
-0.517005
-0.468001
-0.397960
-0.325349
-0.255542
-0.203789
-0.206768
-0.293450
-0.439844
-0.566853
-0.600596
-0.538903
-0.453709
-0.427704
-0.493521
-0.630585
-0.800477
-0.970564
-1.113635
-1.202062
-1.212210
-1.142858
-1.028451
-0.921260
-0.853719
-0.819303
-0.786504
-0.727306
-0.635701
-0.526519
-0.421315
-0.333316
-0.260015
-0.189351
-0.118545
-0.068042
-0.070162
-0.140332
-0.261181
-0.393544
-0.501509
-0.569772
-0.598727
-0.586469
-0.526165
-0.423512
-0.304578
-0.200374
-0.129250
-0.091014
-0.066740
-0.028328
0.033867
0.087772
0.077546
-0.024582
-0.188569
-0.353299
-0.475188
-0.543403
-0.559789
-0.524852
-0.447821
-0.357485
-0.289474
-0.258897
-0.249128
-0.230099
-0.187380
-0.134218
-0.097459
-0.094117
-0.119632
-0.151970
-0.167161
-0.159166
-0.144725
-0.141233
-0.142539
-0.127336
-0.094708
-0.084278
-0.147470
-0.288260
-0.437420
-0.498185
-0.424104
-0.255420
-0.081090
0.035496
0.092746
0.118111
0.117531
0.073588
-0.014641
-0.114165
-0.188891
-0.235905
-0.282092
-0.348819
-0.427789
-0.492908
-0.528761
-0.541558
-0.546032
-0.547411
-0.531469
-0.467355
-0.331934
-0.143821
0.034423
0.139599
0.154008
0.111920
0.066115
0.042616
0.022201
-0.030111
-0.115845
-0.188544
-0.196361
-0.143600
-0.099611
-0.132961
-0.241725
-0.358691
-0.420375
-0.422524
-0.405807
-0.391160
-0.343253
-0.207906
0.024145
0.301301
0.550278
0.721924
0.808178
0.829554
0.808334
0.751558
0.660388
0.546298
0.425936
0.306936
0.190559
0.082374
-0.009129
-0.079007
-0.123115
-0.133310
-0.102969
-0.037754
0.042374
0.113180
0.156794
0.165481
0.145905
0.122937
0.126969
0.168521
0.229470
0.283354
0.321379
0.354264
0.389216
0.410917
0.389569
0.307670
0.178623
0.039453
-0.076150
-0.160454
-0.226844
-0.277516
-0.280998
-0.197530
-0.029015
0.168629
0.325895
0.408039
0.427505
0.416209
0.389105
0.338084
0.260688
0.182689
0.138604
0.131273
0.125031
0.082978
-0.001208
-0.110660
-0.226436
-0.331264
-0.403152
-0.416436
-0.353319
-0.222600
-0.069837
0.046441
0.102947
0.131363
0.183488
0.281677
0.402362
0.495216
0.516233
0.456824
0.352489
0.260006
0.215707
0.211747
0.215153
0.207879
0.203688
0.228327
0.289196
0.367331
0.438733
0.497890
0.551360
0.589868
0.583317
0.512626
0.391807
0.244809
0.076440
-0.115096
-0.312980
-0.491172
-0.636415
-0.744416
-0.809965
-0.836205
-0.838551
-0.825645
-0.788461
-0.721027
-0.643503
-0.588490
-0.562009
-0.530423
-0.454776
-0.331273
-0.188986
-0.055921
0.056848
0.142569
0.193816
0.216728
0.233966
0.263961
0.302454
0.324941
0.301205
0.210922
0.057917
-0.124121
-0.286550
-0.397031
-0.457318
-0.482309
-0.462287
-0.360949
-0.157988
0.118174
0.408878
0.668319
0.878789
1.027947
1.085494
1.012604
0.794030
0.454098
0.038016
-0.415553
-0.877318
-1.313625
-1.690571
-1.998492
-2.258075
-2.487642
-2.666615
-2.738377
-2.649895
-2.395538
-2.033780
-1.657497
-1.333903
-1.065606
-0.809278
-0.535023
-0.268324
-0.070258
0.020223
0.016005
-0.041158
-0.120275
-0.218523
-0.351088
-0.528059
-0.738657
-0.959451
-1.177579
-1.395618
-1.605749
-1.764915
-1.804954
-1.673808
-1.375223
-0.972038
-0.547648
-0.167279
0.121789
0.274858
0.266444
0.126350
-0.061329
-0.208928
-0.280211
-0.309504
-0.376920
-0.552412
-0.846276
-1.209506
-1.578694
-1.907189
-2.147465
-2.228764
-2.093729
-1.771830
-1.390488
-1.084513
-0.892557
-0.745783
-0.546440
-0.250122
0.117706
0.505273
0.878650
1.221053
1.497950
1.638213
1.570202
1.291187
0.895312
0.518224
0.251429
0.107263
0.045652
0.019826
0.009957
0.032240
0.118672
0.283901
0.510254
0.761114
1.001405
1.206726
1.365973
1.481461
1.558657
1.591490
1.564471
1.472379
1.332908
1.180731
1.057691
1.006545
1.055335
1.195423
1.383837
1.577434
1.758954
1.927156
2.078134
2.208231
2.324206
2.438452
2.556645
2.671063
2.758990
2.787152
2.725923
2.564599
2.313590
1.992952
1.620903
1.213743
0.791210
0.373698
-0.023263
-0.381994
-0.674325
-0.875653
-0.992063
-1.069074
-1.169396
-1.332395
-1.548838
-1.782976
-2.021565
-2.291739
-2.631250
-3.047122
-3.500077
-3.930639
-4.310149
-4.664045
-5.035628
-5.433838
-5.826367
-6.167249
-6.409862
-6.507476
-6.434137
-6.212391
-5.902016
-5.551243
-5.171627
-4.769400
-4.381650
-4.056995
-3.803128
-3.575494
-3.333881
-3.104140
-2.961786
-2.948448
-3.025462
-3.119820
-3.195764
-3.264907
-3.335913
-3.377088
-3.345517
-3.245651
-3.132083
-3.048711
-2.986575
-2.902871
-2.757423
-2.526157
-2.200106
-1.786314
-1.306125
-0.785398
-0.251898
0.252947
0.682223
1.029067
1.344636
1.677216
2.009671
2.284757
2.471570
2.586540
2.669853
2.758693
2.878791
3.053501
3.306277
3.643679
4.045513
4.483633
4.947606
5.439855
5.942870
6.409985
6.800653
7.105531
7.323992
7.439646
7.438328
7.338732
7.187428
7.027130
6.879543
6.747392
6.613692
6.445417
6.219190
5.945307
5.656164
5.376658
5.117716
4.890972
4.710768
4.576794
4.464909
4.342538
4.191388
4.014293
3.823779
3.624734
3.405205
3.143374
2.824493
2.450276
2.030628
1.569821
1.068561
0.541539
0.024952
-0.443986
-0.859874
-1.258874
-1.692552
-2.188466
-2.728442
-3.265590
-3.772815
-4.271545
-4.798906
-5.346657
-5.842223
-6.195747
-6.372445
-6.422422
-6.432268
-6.446833
-6.450153
-6.415563
-6.346158
-6.258844
-6.149642
-5.988356
-5.740440
-5.386318
-4.923621
-4.359565
-3.706388
-2.986639
-2.242276
-1.530780
-0.901283
-0.370431
0.076574
0.463611
0.803808
1.092838
1.314497
1.458801
1.542957
1.616127
1.740341
1.961391
2.293887
2.730253
3.256722
3.855282
4.495065
5.133089
5.728751
6.256098
6.704383
7.073609
7.371606
7.611943
7.810404
7.979993
8.127830
8.253903
8.345669
8.372976
8.299631
8.111411
7.833883
7.516877
7.200108
6.900511
6.632190
6.423920
6.307695
6.294462
6.366039
6.488762
6.630363
6.763470
6.861108
6.901013
6.881495
6.829235
6.780367
6.748677
6.715493
6.648719
6.525895
6.343814
6.116359
5.860371
5.570719
5.208380
4.730304
4.143514
3.518597
2.933533
2.411080
1.926798
1.466397
1.048678
0.696828
0.414468
0.193803
0.030060
-0.076757
-0.125909
-0.121286
-0.083367
-0.057710
-0.093576
-0.203471
-0.362017
-0.553923
-0.798848
-1.121712
-1.526498
-2.006111
-2.554562
-3.163929
-3.819592
-4.488410
-5.089601
-5.483561
-5.533080
-5.205971
-4.595883
-3.825707
-2.963041
-2.033643
-1.057179
-0.043375
1.009861
2.091139
3.154877
4.131320
4.965802
5.657228
6.253975
6.808061
7.338520
7.838203
8.306158
8.772045
9.293849
9.925828
10.676930
11.495960
12.299430
13.021530
13.647200
14.200660
14.705590
15.162080
15.556830
15.881990
16.138161
16.318649
16.395241
16.334030
16.132210
15.827590
15.467630
15.083170
14.694150
14.321600
13.985970
13.704810
13.495590
13.372880
13.340010
13.383270
13.470300
13.556060
13.600710
13.589130
13.531090
13.440940
13.320860
13.167850
12.998520
12.856730
12.775830
12.733130
12.667180
12.539050
12.346910
12.087890
11.748250
11.337190
10.896300
10.459740
10.018860
9.536559
8.987611
8.376792
7.725812
7.050282
6.346117
5.602482
4.848350
4.197555
3.822209
3.835296
4.183828
4.682018
5.164408
5.593366
6.021378
6.488794
6.981775
7.464446
7.918120
8.346838
8.766038
9.200607
9.682972
10.232420
10.834290
11.444990
12.010810
12.481490
12.817670
12.987450
12.955690
12.693730
12.211090
11.565000
10.827360
10.046270
9.234053
8.374984
7.445232
6.443136
5.408067
4.402586
3.466809
2.585704
1.701787
0.761902
-0.246316
-1.297671
-2.360776
-3.426812
-4.515786
-5.659576
-6.875506
-8.149560
-9.442546
-10.717650
-11.965340
-13.196190
-14.410730
-15.590340
-16.721750
-17.818300
-18.909599
-20.014971
-21.130409
-22.237120
-23.319050
-24.372740
-25.402460
-26.409929
-27.392679
-28.350040
-29.284269
-30.194530
-31.076500
-31.934629
-32.789509
-33.651230
-34.464840
-35.095131
-35.410702
-35.401760
-35.182060
-34.861889
-34.459480
-33.947369
-33.335468
-32.676540
-32.015350
-31.363489
-30.714220
-30.050449
-29.331989
-28.495430
-27.477240
-26.238190
-24.777660
-23.136990
-21.383141
-19.574261
-17.733170
-15.852110
-13.922650
-11.962090
-10.013810
-8.124216
-6.318216
-4.590378
-2.913624
-1.256577
0.402291
2.071128
3.750643
5.441305
7.143657
8.853650
10.561350
12.252990
13.909600
15.504250
17.006420
18.390530
19.637671
20.729170
21.642580
22.358730
22.875759
23.214331
23.409790
23.507360
23.565290
23.644470
23.779470
23.963360
24.166630
24.367250
24.560881
24.749430
24.927900
25.083420
25.203039
25.281031
25.320820
25.331369
25.321630
25.298349
25.266769
25.229740
25.185049
25.126970
25.054239
24.975731
24.905661
24.852051
24.809811
24.764730
24.704069
24.624950
24.534559
24.441380
24.341970
24.213970
24.022551
23.735910
23.337919
22.828440
22.211620
21.483061
20.627621
19.630739
18.494030
17.241470
15.910500
14.534580
13.129800
11.694400
10.220580
8.709036
7.174718
5.640460
4.123660
2.624953
1.125455
-0.405089
-1.991023
-3.633588
-5.309450
-6.990748
-8.669575
-10.363170
-12.096670
-13.880610
-15.699580
-17.517910
-19.296459
-21.005699
-22.624029
-24.127359
-25.484810
-26.663980
-27.637421
-28.385820
-28.901880
-29.197720
-29.308750
-29.284559
-29.170860
-28.997990
-28.784870
-28.550970
-28.322689
-28.130190
-27.998619
-27.938499
-27.940300
-27.979240
-28.028721
-28.070070
-28.088800
-28.066071
-27.981140
-27.823839
-27.600130
-27.323299
-27.001770
-26.635719
-26.222219
-25.760780
-25.254709
-24.708380
-24.123051
-23.494551
-22.813730
-22.068371
-21.244520
-20.327049
-19.301830
-18.160959
-16.908520
-15.561620
-14.142820
-12.668480
-11.145830
-9.584579
-8.008592
-6.451605
-4.944588
-3.511505
-2.172526
-0.942877
0.175288
1.198328
2.152633
3.057758
3.921774
4.751780
5.560057
6.360661
7.168703
8.000331
8.862083
9.735531
10.574970
11.324570
11.943370
12.419910
12.767960
13.009490
13.161250
13.234980
13.245490
13.213630
13.162060
13.111840
13.082620
13.090970
13.144370
13.236680
13.351530
13.470770
13.579640
13.666130
13.718180
13.724360
13.678050
13.579260
13.431460
13.238010
13.002510
12.731100
12.431460
12.107680
11.756740
11.371350
10.947600
10.491430
10.020620
9.561690
9.140380
8.766349
8.422814
8.073394
7.682495
7.231898
6.722317
6.163706
5.564782
4.929994
4.267863
3.606920
3.002564
2.515612
2.169529
1.927272
1.717934
1.488169
1.226893
0.948436
0.662923
0.362625
0.028634
-0.351932
-0.771697
-1.205874
-1.632767
-2.050030
-2.465604
-2.874356
-3.253628
-3.586133
-3.880021
-4.162975
-4.463670
-4.802461
-5.191165
-5.629231
-6.097191
-6.562290
-6.997643
-7.394341
-7.753667
-8.072815
-8.341998
-8.552470
-8.703388
-8.801901
-8.860076
-8.891838
-8.910228
-8.925975
-8.947834
-8.983161
-9.037495
-9.112889
-9.205312
-9.303203
-9.390486
-9.453191
-9.482692
-9.470779
-9.401682
-9.250969
-8.995591
-8.629404
-8.172195
-7.663004
-7.142044
-6.637565
-6.167185
-5.744818
-5.379710
-5.068331
-4.791961
-4.526743
-4.257513
-3.983120
-3.711756
-3.453722
-3.217981
-3.013138
-2.849273
-2.737607
-2.688340
-2.708536
-2.801164
-2.964272
-3.186765
-3.440789
-3.681222
-3.862653
-3.963145
-3.989635
-3.959884
-3.884766
-3.769918
-3.626984
-3.475731
-3.337288
-3.230351
-3.171639
-3.173203
-3.236088
-3.347492
-3.484922
-3.623823
-3.744697
-3.837625
-3.901611
-3.939147
-3.952088
-3.943304
-3.921264
-3.902385
-3.909162
-3.964612
-4.084569
-4.271767
-4.515931
-4.798795
-5.097992
-5.387015
-5.636126
-5.819483
-5.924511
-5.954691
-5.924398
-5.851410
-5.750851
-5.632044
-5.499643
-5.356270
-5.201249
-5.026246
-4.815403
-4.552898
-4.231245
-3.852921
-3.425609
-2.956214
-2.446643
-1.891978
-1.282951
-0.614536
0.103116
0.840006
1.553564
2.205050
2.774626
3.263664
3.682956
4.039565
4.334733
4.570363
4.753913
4.898294
5.019868
5.136547
5.265596
5.420432
5.606587
5.819295
6.045813
6.271460
6.485210
6.681837
6.859498
7.015543
7.145833
7.248179
7.325387
7.384761
7.434649
7.480504
7.522260
7.553561
7.563547
7.541105
7.478775
7.372526
7.217421
7.004318
6.723016
6.371729
5.967081
5.546758
5.158279
4.835567
4.578984
4.357807
4.134629
3.887498
3.609801
3.295615
2.931074
2.497768
1.979176
1.363858
0.646902
-0.168624
-1.070180
-2.033884
-3.024058
-3.998330
-4.919226
-5.766805
-6.543442
-7.265474
-7.946672
-8.587716
-9.181687
-9.729324
-10.248160
-10.767540
-11.315250
-11.906040
-12.537220
-13.192150
-13.849460
-14.491090
-15.101790
-15.662020
-16.146231
-16.532009
-16.811220
-16.991840
-17.091270
-17.128960
-17.123260
-17.091890
-17.053310
-17.026110
-17.026030
-17.063419
-17.142790
-17.263399
-17.418810
-17.596510
-17.780170
-17.954679
-18.110720
-18.245100
-18.356489
-18.441719
-18.497890
-18.528391
-18.545601
-18.565880
-18.600910
-18.653509
-18.720831
-18.800200
-18.890100
-18.984180
-19.063061
-19.092270
-19.034630
-18.876390
-18.647930
-18.411711
-18.216690
-18.062630
-17.917299
-17.765989
-17.630369
-17.539789
-17.501190
-17.500019
-17.513760
-17.514971
-17.470169
-17.346769
-17.124201
-16.798550
-16.379910
-15.888610
-15.352240
-14.799470
-14.248850
-13.700070
-13.137240
-12.542370
-11.906440
-11.229370
-10.513010
-9.755960
-8.953672
-8.102837
-7.207133
-6.280208
-5.343833
-4.423347
-3.542061
-2.715876
-1.951808
-1.250893
-0.610662
-0.025238
0.514216
1.017019
1.489613
1.933604
2.346988
2.727986
3.077974
3.400782
3.700122
3.978151
4.235432
4.471913
4.688946
4.890370
5.081008
5.264832
5.445147
