EVENT_NAME: EMILIA_2ND_SHOCK
EVENT_ID: IT-2012-0011
EVENT_DATE_YYYYMMDD: 20120529
EVENT_TIME_HHMMSS: 070002
EVENT_LATITUDE_DEGREE: 44.8417
EVENT_LONGITUDE_DEGREE: 11.0657
EVENT_DEPTH_KM: 8.1
HYPOCENTER_REFERENCE: INGV-CNT_Seismic_Bulletin
MAGNITUDE_W: 6.0
MAGNITUDE_W_REFERENCE: RCMT-INGV
MAGNITUDE_L: 5.8
MAGNITUDE_L_REFERENCE: INGV-CNT_Seismic_Bulletin
FOCAL_MECHANISM: TF
NETWORK: TV
STATION_CODE: MIR08
STATION_NAME: QUARANTOLI 2
STATION_LATITUDE_DEGREE: 44.916900
STATION_LONGITUDE_DEGREE: 11.089500
STATION_ELEVATION_M: 
LOCATION: 
SENSOR_DEPTH_M: 
VS30_M/S: 
SITE_CLASSIFICATION_EC8: C*
MORPHOLOGIC_CLASSIFICATION: 
EPICENTRAL_DISTANCE_KM: 8.6
EARTHQUAKE_BACKAZIMUTH_DEGREE: 192.7
DATE_TIME_FIRST_SAMPLE_YYYYMMDD_HHMMSS: 20120529_065929.000
DATE_TIME_FIRST_SAMPLE_PRECISION: milliseconds
SAMPLING_INTERVAL_S: 0.005000
NDATA: 105
DURATION_S: 
STREAM: HNN
UNITS: cm/s^2
INSTRUMENT: sensor = Episensor FBA ES-T [Kinemetrics] | digitizer = Unknown [Unknown]
INSTRUMENT_ANALOG/DIGITAL: D
INSTRUMENTAL_FREQUENCY_HZ: 
INSTRUMENTAL_DAMPING: 
FULL_SCALE_G: 
N_BIT_DIGITAL_CONVERTER: 
PGA_CM/S^2: -242.969959
TIME_PGA_S: 43.340000
BASELINE_CORRECTION: BASELINE REMOVED
FILTER_TYPE: BUTTERWORTH
FILTER_ORDER: 2
LOW_CUT_FREQUENCY_HZ: 0.050
HIGH_CUT_FREQUENCY_HZ: 40.000
LATE/NORMAL_TRIGGERED: NT
DATABASE_VERSION: DYNA 1.0
HEADER_FORMAT: DYNA 1.2
DATA_TYPE: ACCELERATION RESPONSE SPECTRUM
PROCESSING: manual (Paolucci et al., 2011)
DATA_TIMESTAMP_YYYYMMDD_HHMMSS: 
DATA_LICENSE: CC-BY4_0 (http://creativecommons.org/licenses/by/4.0/)
DATA_CITATION: ESM working group (2015), European Strong-Motion database, version 0.1, Network Activity 3: Networking acceleration networks and SM data users. Project NERA (www.nera-eu.org)
DATA_CREATOR: ESM working group
ORIGINAL_DATA_MEDIATOR_CITATION: Orfeus - European Integrated Data Archive (EIDA) http://www.orfeus-eu.org/eida/
ORIGINAL_DATA_MEDIATOR: Orfeus - European Integrated Data Archive (EIDA)
ORIGINAL_DATA_CREATOR_CITATION: 
ORIGINAL_DATA_CREATOR: network: TV (INGV Experiments Network); owner: Istituto Nazionale di Geofisica e Vulcanologia
USER1: 
USER2: 
USER3: 
USER4: 
USER5: 
    0.010000   244.141449
    0.020000   245.229218
    0.022000   250.237488
    0.025000   285.255554
    0.029000   313.991302
    0.030000   315.965546
    0.032000   332.609375
    0.035001   400.248962
    0.036000   426.156433
    0.040000   420.046661
    0.041999   391.524841
    0.044001   382.036255
    0.045000   368.525696
    0.046000   357.378510
    0.048001   418.881622
    0.050000   527.206299
    0.054999   590.739197
    0.059999   590.471680
    0.064998   643.707581
    0.067002   686.192932
    0.069999   716.109070
    0.075002   629.655029
    0.080000   610.101990
    0.084998   653.367554
    0.090001   548.081787
    0.095003   577.464966
    0.100000   718.767822
    0.109999   826.138550
    0.120005   619.478516
    0.130005   541.625366
    0.132996   594.091553
    0.139997   651.436768
    0.149993   724.933594
    0.160000   762.086975
    0.170010   639.254089
    0.179986   563.441589
    0.190006   596.994263
    0.200000   658.697266
    0.220022   683.480713
    0.239981   695.906982
    0.250000   681.371277
    0.260010   626.318970
    0.280034   675.914551
    0.290023   713.135925
    0.300030   793.126038
    0.320000   705.139648
    0.340020   675.287354
    0.350017   681.737000
    0.359971   648.984680
    0.379939   657.378418
    0.400000   628.630005
    0.419992   646.927612
    0.439947   659.336731
    0.450045   640.456055
    0.459982   606.459167
    0.480077   521.353821
    0.500000   479.508148
    0.550055   735.170166
    0.599880   838.884033
    0.650195   729.382324
    0.667111   646.984314
    0.699790   534.493347
    0.750188   464.784241
    0.800000   486.521851
    0.850340   502.990356
    0.900090   433.597687
    0.949668   313.050476
    1.000000   265.828430
    1.100110   300.140564
    1.200480   309.626404
    1.300390   268.111389
    1.400560   221.079453
    1.499250   218.425400
    1.600000   242.150208
    1.700680   262.309265
    1.798561   271.174194
    1.901141   269.920013
    2.000000   255.186478
    2.197802   217.764465
    2.398082   190.328384
    2.500000   181.838745
    2.597403   170.610641
    2.801121   142.382843
    3.003003   111.309959
    3.205128    98.399155
    3.401361    87.514069
    3.496503    82.024055
    3.597122    76.625046
    3.802281    66.287933
    4.000000    56.757320
    4.201681    48.186970
    4.405286    40.839275
    4.608295    35.993191
    4.807692    32.877930
    5.000000    30.987387
    5.494505    23.791092
    5.988024    20.368729
    6.493506    17.408224
    6.993007    14.910467
    7.518797    12.824615
    8.000000    11.088916
    8.474576     9.646151
    9.009009     8.443507
    9.523809     7.436823
   10.000000     6.588634
