EVENT_NAME: EMILIA_2ND_SHOCK
EVENT_ID: IT-2012-0011
EVENT_DATE_YYYYMMDD: 20120529
EVENT_TIME_HHMMSS: 070002
EVENT_LATITUDE_DEGREE: 44.8417
EVENT_LONGITUDE_DEGREE: 11.0657
EVENT_DEPTH_KM: 8.1
HYPOCENTER_REFERENCE: INGV-CNT_Seismic_Bulletin
MAGNITUDE_W: 6.0
MAGNITUDE_W_REFERENCE: RCMT-INGV
MAGNITUDE_L: 5.8
MAGNITUDE_L_REFERENCE: INGV-CNT_Seismic_Bulletin
FOCAL_MECHANISM: TF
NETWORK: TV
STATION_CODE: MIR01
STATION_NAME: MEDOLLA
STATION_LATITUDE_DEGREE: 44.844042
STATION_LONGITUDE_DEGREE: 11.071316
STATION_ELEVATION_M: 
LOCATION: 
SENSOR_DEPTH_M: 
VS30_M/S: 
SITE_CLASSIFICATION_EC8: C*
MORPHOLOGIC_CLASSIFICATION: 
EPICENTRAL_DISTANCE_KM: 0.5
EARTHQUAKE_BACKAZIMUTH_DEGREE: 239.6
DATE_TIME_FIRST_SAMPLE_YYYYMMDD_HHMMSS: 20120529_065945.000
DATE_TIME_FIRST_SAMPLE_PRECISION: milliseconds
SAMPLING_INTERVAL_S: 0.005000
NDATA: 105
DURATION_S: 
STREAM: HNZ
UNITS: cm
INSTRUMENT: sensor = Episensor FBA ES-T [Kinemetrics] | digitizer = Unknown [Unknown]
INSTRUMENT_ANALOG/DIGITAL: D
INSTRUMENTAL_FREQUENCY_HZ: 
INSTRUMENTAL_DAMPING: 
FULL_SCALE_G: 
N_BIT_DIGITAL_CONVERTER: 
PGD_CM: 5.143191
TIME_PGD_S: 22.755000
BASELINE_CORRECTION: BASELINE REMOVED
FILTER_TYPE: BUTTERWORTH
FILTER_ORDER: 2
LOW_CUT_FREQUENCY_HZ: 0.050
HIGH_CUT_FREQUENCY_HZ: 40.000
LATE/NORMAL_TRIGGERED: NT
DATABASE_VERSION: DYNA 1.0
HEADER_FORMAT: DYNA 1.2
DATA_TYPE: DISPLACEMENT RESPONSE SPECTRUM
PROCESSING: manual (Paolucci et al., 2011)
DATA_TIMESTAMP_YYYYMMDD_HHMMSS: 
DATA_LICENSE: CC-BY4_0 (http://creativecommons.org/licenses/by/4.0/)
DATA_CITATION: ESM working group (2015), European Strong-Motion database, version 0.1, Network Activity 3: Networking acceleration networks and SM data users. Project NERA (www.nera-eu.org)
DATA_CREATOR: ESM working group
ORIGINAL_DATA_MEDIATOR_CITATION: Orfeus - European Integrated Data Archive (EIDA) http://www.orfeus-eu.org/eida/
ORIGINAL_DATA_MEDIATOR: Orfeus - European Integrated Data Archive (EIDA)
ORIGINAL_DATA_CREATOR_CITATION: 
ORIGINAL_DATA_CREATOR: network: TV (INGV Experiments Network); owner: Istituto Nazionale di Geofisica e Vulcanologia
USER1: 
USER2: 
USER3: 
USER4: 
USER5: 
    0.010000     0.000924
    0.020000     0.004015
    0.022000     0.005073
    0.025000     0.007807
    0.029000     0.013343
    0.030000     0.015483
    0.032000     0.019832
    0.035001     0.028006
    0.036000     0.031137
    0.040000     0.041021
    0.041999     0.051599
    0.044001     0.067404
    0.045000     0.075159
    0.046000     0.078638
    0.048001     0.082775
    0.050000     0.095156
    0.054999     0.107241
    0.059999     0.127209
    0.064998     0.121256
    0.067002     0.121267
    0.069999     0.118378
    0.075002     0.135878
    0.080000     0.155285
    0.084998     0.185141
    0.090001     0.175462
    0.095003     0.168320
    0.100000     0.184779
    0.109999     0.190266
    0.120005     0.286681
    0.130005     0.289234
    0.132996     0.310441
    0.139997     0.324986
    0.149993     0.436961
    0.160000     0.503399
    0.170010     0.591042
    0.179986     0.780375
    0.190006     0.966571
    0.200000     1.059848
    0.220022     0.767322
    0.239981     0.720481
    0.250000     0.572507
    0.260010     0.521847
    0.280034     0.406678
    0.290023     0.435428
    0.300030     0.575098
    0.320000     0.583769
    0.340020     0.587144
    0.350017     0.595712
    0.359971     0.610494
    0.379939     0.551110
    0.400000     0.656803
    0.419992     0.669289
    0.439947     0.565480
    0.450045     0.515817
    0.459982     0.482663
    0.480077     0.486144
    0.500000     0.599703
    0.550055     0.877324
    0.599880     0.802515
    0.650195     0.787966
    0.667111     0.910209
    0.699790     1.078005
    0.750188     1.207465
    0.800000     1.571581
    0.850340     1.755105
    0.900090     1.752425
    0.949668     1.742887
    1.000000     1.859611
    1.100110     2.037281
    1.200480     2.732071
    1.300390     3.897287
    1.400560     4.654810
    1.499250     4.772002
    1.600000     4.390733
    1.700680     5.001997
    1.798561     5.747838
    1.901141     6.344768
    2.000000     8.280308
    2.197802     9.535007
    2.398082     8.436178
    2.500000     7.611091
    2.597403     6.773970
    2.801121     6.132209
    3.003003     6.093682
    3.205128     6.038084
    3.401361     5.966093
    3.496503     5.933947
    3.597122     5.888876
    3.802281     5.767060
    4.000000     6.347666
    4.201681     7.382915
    4.405286     8.190679
    4.608295     8.753271
    4.807692     9.128149
    5.000000     9.249818
    5.494505     8.669667
    5.988024     7.343602
    6.493506     8.537142
    6.993007     9.626549
    7.518797    10.313513
    8.000000    10.651386
    8.474576    10.723873
    9.009009    10.645644
    9.523809    10.418250
   10.000000    10.074275
