EVENT_NAME: EMILIA_2ND_SHOCK
EVENT_ID: IT-2012-0011
EVENT_DATE_YYYYMMDD: 20120529
EVENT_TIME_HHMMSS: 070002
EVENT_LATITUDE_DEGREE: 44.8417
EVENT_LONGITUDE_DEGREE: 11.0657
EVENT_DEPTH_KM: 8.1
HYPOCENTER_REFERENCE: INGV-CNT_Seismic_Bulletin
MAGNITUDE_W: 6.0
MAGNITUDE_W_REFERENCE: RCMT-INGV
MAGNITUDE_L: 5.8
MAGNITUDE_L_REFERENCE: INGV-CNT_Seismic_Bulletin
FOCAL_MECHANISM: TF
NETWORK: TV
STATION_CODE: MIR08
STATION_NAME: QUARANTOLI 2
STATION_LATITUDE_DEGREE: 44.916900
STATION_LONGITUDE_DEGREE: 11.089500
STATION_ELEVATION_M: 
LOCATION: 
SENSOR_DEPTH_M: 
VS30_M/S: 
SITE_CLASSIFICATION_EC8: C*
MORPHOLOGIC_CLASSIFICATION: 
EPICENTRAL_DISTANCE_KM: 8.6
EARTHQUAKE_BACKAZIMUTH_DEGREE: 192.7
DATE_TIME_FIRST_SAMPLE_YYYYMMDD_HHMMSS: 20120529_065929.000
DATE_TIME_FIRST_SAMPLE_PRECISION: milliseconds
SAMPLING_INTERVAL_S: 0.005000
NDATA: 105
DURATION_S: 
STREAM: HNE
UNITS: cm
INSTRUMENT: sensor = Episensor FBA ES-T [Kinemetrics] | digitizer = Unknown [Unknown]
INSTRUMENT_ANALOG/DIGITAL: D
INSTRUMENTAL_FREQUENCY_HZ: 
INSTRUMENTAL_DAMPING: 
FULL_SCALE_G: 
N_BIT_DIGITAL_CONVERTER: 
PGD_CM: 3.386489
TIME_PGD_S: 41.295000
BASELINE_CORRECTION: BASELINE REMOVED
FILTER_TYPE: BUTTERWORTH
FILTER_ORDER: 2
LOW_CUT_FREQUENCY_HZ: 0.050
HIGH_CUT_FREQUENCY_HZ: 40.000
LATE/NORMAL_TRIGGERED: NT
DATABASE_VERSION: DYNA 1.0
HEADER_FORMAT: DYNA 1.2
DATA_TYPE: DISPLACEMENT RESPONSE SPECTRUM
PROCESSING: manual (Paolucci et al., 2011)
DATA_TIMESTAMP_YYYYMMDD_HHMMSS: 
DATA_LICENSE: CC-BY4_0 (http://creativecommons.org/licenses/by/4.0/)
DATA_CITATION: ESM working group (2015), European Strong-Motion database, version 0.1, Network Activity 3: Networking acceleration networks and SM data users. Project NERA (www.nera-eu.org)
DATA_CREATOR: ESM working group
ORIGINAL_DATA_MEDIATOR_CITATION: Orfeus - European Integrated Data Archive (EIDA) http://www.orfeus-eu.org/eida/
ORIGINAL_DATA_MEDIATOR: Orfeus - European Integrated Data Archive (EIDA)
ORIGINAL_DATA_CREATOR_CITATION: 
ORIGINAL_DATA_CREATOR: network: TV (INGV Experiments Network); owner: Istituto Nazionale di Geofisica e Vulcanologia
USER1: 
USER2: 
USER3: 
USER4: 
USER5: 
    0.010000     0.000557
    0.020000     0.002332
    0.022000     0.002990
    0.025000     0.003865
    0.029000     0.004831
    0.030000     0.005086
    0.032000     0.006166
    0.035001     0.007565
    0.036000     0.008145
    0.040000     0.012357
    0.041999     0.013637
    0.044001     0.015437
    0.045000     0.016429
    0.046000     0.017484
    0.048001     0.020063
    0.050000     0.023133
    0.054999     0.028436
    0.059999     0.032762
    0.064998     0.045701
    0.067002     0.046761
    0.069999     0.042558
    0.075002     0.052918
    0.080000     0.070681
    0.084998     0.086649
    0.090001     0.097435
    0.095003     0.136507
    0.100000     0.164114
    0.109999     0.172489
    0.120005     0.170444
    0.130005     0.188654
    0.132996     0.197289
    0.139997     0.224109
    0.149993     0.276464
    0.160000     0.300916
    0.170010     0.371291
    0.179986     0.560895
    0.190006     0.733306
    0.200000     0.723477
    0.220022     0.552958
    0.239981     0.689219
    0.250000     0.830575
    0.260010     1.071463
    0.280034     1.338373
    0.290023     1.309972
    0.300030     1.260498
    0.320000     1.698884
    0.340020     2.042034
    0.350017     1.978340
    0.359971     1.915797
    0.379939     2.265324
    0.400000     2.191817
    0.419992     2.115747
    0.439947     2.284855
    0.450045     2.142671
    0.459982     1.927573
    0.480077     1.583624
    0.500000     1.605254
    0.550055     2.505455
    0.599880     2.945549
    0.650195     3.783942
    0.667111     3.375607
    0.699790     3.141176
    0.750188     4.046843
    0.800000     3.822916
    0.850340     3.174713
    0.900090     2.929674
    0.949668     2.798056
    1.000000     3.310957
    1.100110     5.302062
    1.200480     5.383823
    1.300390     4.810493
    1.400560     5.178311
    1.499250     4.458314
    1.600000     4.632254
    1.700680     4.753933
    1.798561     5.063743
    1.901141     5.273204
    2.000000     6.147228
    2.197802     8.639556
    2.398082     8.483644
    2.500000     7.621988
    2.597403     7.088322
    2.801121     7.365304
    3.003003     7.533669
    3.205128     7.432112
    3.401361     8.724558
    3.496503     9.324130
    3.597122     9.454165
    3.802281     8.322771
    4.000000     6.390682
    4.201681     6.329127
    4.405286     6.576845
    4.608295     8.161244
    4.807692     9.124716
    5.000000     9.415816
    5.494505     9.484120
    5.988024     8.817779
    6.493506     7.530121
    6.993007     6.910449
    7.518797     6.706769
    8.000000     6.328485
    8.474576     5.875241
    9.009009     5.611236
    9.523809     5.432783
   10.000000     5.263672
