EVENT_NAME: EMILIA_2ND_SHOCK
EVENT_ID: IT-2012-0011
EVENT_DATE_YYYYMMDD: 20120529
EVENT_TIME_HHMMSS: 070002
EVENT_LATITUDE_DEGREE: 44.8417
EVENT_LONGITUDE_DEGREE: 11.0657
EVENT_DEPTH_KM: 8.1
HYPOCENTER_REFERENCE: INGV-CNT_Seismic_Bulletin
MAGNITUDE_W: 6.0
MAGNITUDE_W_REFERENCE: RCMT-INGV
MAGNITUDE_L: 5.8
MAGNITUDE_L_REFERENCE: INGV-CNT_Seismic_Bulletin
FOCAL_MECHANISM: TF
NETWORK: TV
STATION_CODE: MIR01
STATION_NAME: MEDOLLA
STATION_LATITUDE_DEGREE: 44.844042
STATION_LONGITUDE_DEGREE: 11.071316
STATION_ELEVATION_M: 
LOCATION: 
SENSOR_DEPTH_M: 
VS30_M/S: 
SITE_CLASSIFICATION_EC8: C*
MORPHOLOGIC_CLASSIFICATION: 
EPICENTRAL_DISTANCE_KM: 0.5
EARTHQUAKE_BACKAZIMUTH_DEGREE: 239.6
DATE_TIME_FIRST_SAMPLE_YYYYMMDD_HHMMSS: 20120529_065945.000
DATE_TIME_FIRST_SAMPLE_PRECISION: milliseconds
SAMPLING_INTERVAL_S: 0.005000
NDATA: 30001
DURATION_S: 150.005
STREAM: HNZ
UNITS: cm/s
INSTRUMENT: sensor = Episensor FBA ES-T [Kinemetrics] | digitizer = Unknown [Unknown]
INSTRUMENT_ANALOG/DIGITAL: D
INSTRUMENTAL_FREQUENCY_HZ: 
INSTRUMENTAL_DAMPING: 
FULL_SCALE_G: 
N_BIT_DIGITAL_CONVERTER: 
PGV_CM/S: 13.804242
TIME_PGV_S: 22.315000
BASELINE_CORRECTION: BASELINE REMOVED
FILTER_TYPE: BUTTERWORTH
FILTER_ORDER: 2
LOW_CUT_FREQUENCY_HZ: 0.050
HIGH_CUT_FREQUENCY_HZ: 40.000
LATE/NORMAL_TRIGGERED: NT
DATABASE_VERSION: DYNA 1.0
HEADER_FORMAT: DYNA 1.2
DATA_TYPE: VELOCITY
PROCESSING: manual (Paolucci et al., 2011)
DATA_TIMESTAMP_YYYYMMDD_HHMMSS: 
DATA_LICENSE: CC-BY4_0 (http://creativecommons.org/licenses/by/4.0/)
DATA_CITATION: ESM working group (2015), European Strong-Motion database, version 0.1, Network Activity 3: Networking acceleration networks and SM data users. Project NERA (www.nera-eu.org)
DATA_CREATOR: ESM working group
ORIGINAL_DATA_MEDIATOR_CITATION: Orfeus - European Integrated Data Archive (EIDA) http://www.orfeus-eu.org/eida/
ORIGINAL_DATA_MEDIATOR: Orfeus - European Integrated Data Archive (EIDA)
ORIGINAL_DATA_CREATOR_CITATION: 
ORIGINAL_DATA_CREATOR: network: TV (INGV Experiments Network); owner: Istituto Nazionale di Geofisica e Vulcanologia
USER1: 
USER2: 
USER3: 
USER4: 
USER5: 
[...]
-0.335355
-0.335873
-0.336386
-0.336903
-0.337426
-0.337956
-0.338502
-0.339059
-0.339614
-0.340155
-0.340671
-0.341158
-0.341631
-0.342115
-0.342618
-0.343144
-0.343700
-0.344291
-0.344907
-0.345525
-0.346105
-0.346617
-0.347086
-0.347569
-0.348076
-0.348573
-0.349055
-0.349559
-0.350116
-0.350719
-0.351334
-0.351920
-0.352443
-0.352899
-0.353313
-0.353728
-0.354185
-0.354691
-0.355215
-0.355746
-0.356308
-0.356919
-0.357560
-0.358201
-0.358818
-0.359389
-0.359908
-0.360388
-0.360846
-0.361297
-0.361767
-0.362272
-0.362810
-0.363375
-0.363953
-0.364528
-0.365085
-0.365631
-0.366167
-0.366690
-0.367211
-0.367754
-0.368323
-0.368909
-0.369504
-0.370095
-0.370660
-0.371189
-0.371690
-0.372176
-0.372668
-0.373185
-0.373727
-0.374281
-0.374844
-0.375418
-0.376002
-0.376604
-0.377232
-0.377873
-0.378514
-0.379147
-0.379754
-0.380307
-0.380799
-0.381246
-0.381674
-0.382125
-0.382639
-0.383222
-0.383848
-0.384490
-0.385120
-0.385706
-0.386232
-0.386703
-0.387133
-0.387546
-0.387978
-0.388459
-0.388992
-0.389562
-0.390145
-0.390712
-0.391255
-0.391792
-0.392330
-0.392868
-0.393409
-0.393956
-0.394503
-0.395055
-0.395621
-0.396208
-0.396823
-0.397464
-0.398112
-0.398752
-0.399371
-0.399967
-0.400550
-0.401138
-0.401734
-0.402305
-0.402826
-0.403323
-0.403854
-0.404431
-0.404999
-0.405506
-0.405969
-0.406456
-0.406998
-0.407565
-0.408120
-0.408655
-0.409164
-0.409644
-0.410123
-0.410648
-0.411250
-0.411918
-0.412612
-0.413286
-0.413915
-0.414494
-0.415030
-0.415536
-0.416032
-0.416541
-0.417082
-0.417665
-0.418293
-0.418958
-0.419645
-0.420335
-0.420999
-0.421612
-0.422163
-0.422671
-0.423168
-0.423678
-0.424209
-0.424756
-0.425304
-0.425846
-0.426385
-0.426935
-0.427502
-0.428076
-0.428638
-0.429175
-0.429685
-0.430175
-0.430665
-0.431177
-0.431730
-0.432332
-0.432973
-0.433632
-0.434278
-0.434886
-0.435446
-0.435968
-0.436474
-0.436998
-0.437560
-0.438168
-0.438806
-0.439443
-0.440051
-0.440625
-0.441181
-0.441733
-0.442294
-0.442876
-0.443480
-0.444107
-0.444761
-0.445431
-0.446097
-0.446742
-0.447347
-0.447899
-0.448410
-0.448904
-0.449402
-0.449915
-0.450444
-0.450987
-0.451550
-0.452150
-0.452787
-0.453436
-0.454071
-0.454684
-0.455277
-0.455860
-0.456448
-0.457040
-0.457623
-0.458198
-0.458770
-0.459340
-0.459907
-0.460474
-0.461037
-0.461590
-0.462143
-0.462711
-0.463288
-0.463856
-0.464401
-0.464941
-0.465519
-0.466143
-0.466759
-0.467311
-0.467833
-0.468400
-0.469022
-0.469640
-0.470202
-0.470697
-0.471154
-0.471616
-0.472109
-0.472628
-0.473164
-0.473721
-0.474317
-0.474969
-0.475674
-0.476393
-0.477087
-0.477747
-0.478378
-0.478976
-0.479544
-0.480096
-0.480649
-0.481229
-0.481858
-0.482522
-0.483188
-0.483833
-0.484444
-0.485014
-0.485559
-0.486103
-0.486649
-0.487193
-0.487745
-0.488312
-0.488898
-0.489508
-0.490133
-0.490744
-0.491326
-0.491880
-0.492410
-0.492930
-0.493472
-0.494057
-0.494685
-0.495346
-0.496013
-0.496653
-0.497247
-0.497795
-0.498309
-0.498816
-0.499353
-0.499934
-0.500548
-0.501180
-0.501812
-0.502425
-0.503010
-0.503572
-0.504125
-0.504681
-0.505256
-0.505857
-0.506479
-0.507112
-0.507744
-0.508361
-0.508963
-0.509553
-0.510131
-0.510702
-0.511277
-0.511870
-0.512491
-0.513143
-0.513818
-0.514494
-0.515136
-0.515720
-0.516239
-0.516714
-0.517185
-0.517683
-0.518218
-0.518787
-0.519379
-0.519980
-0.520582
-0.521202
-0.521851
-0.522510
-0.523134
-0.523696
-0.524225
-0.524773
-0.525350
-0.525904
-0.526411
-0.526941
-0.527571
-0.528287
-0.529007
-0.529669
-0.530262
-0.530816
-0.531379
-0.531977
-0.532605
-0.533245
-0.533882
-0.534512
-0.535139
-0.535750
-0.536322
-0.536851
-0.537366
-0.537900
-0.538465
-0.539051
-0.539639
-0.540213
-0.540783
-0.541367
-0.541956
-0.542530
-0.543083
-0.543626
-0.544177
-0.544758
-0.545375
-0.546015
-0.546661
-0.547302
-0.547923
-0.548518
-0.549092
-0.549652
-0.550210
-0.550782
-0.551374
-0.551981
-0.552593
-0.553200
-0.553785
-0.554340
-0.554883
-0.555433
-0.555983
-0.556529
-0.557081
-0.557646
-0.558228
-0.558833
-0.559452
-0.560073
-0.560690
-0.561302
-0.561911
-0.562521
-0.563130
-0.563728
-0.564310
-0.564888
-0.565461
-0.566022
-0.566570
-0.567116
-0.567668
-0.568239
-0.568837
-0.569457
-0.570096
-0.570755
-0.571431
-0.572117
-0.572815
-0.573517
-0.574205
-0.574867
-0.575501
-0.576090
-0.576611
-0.577074
-0.577500
-0.577904
-0.578310
-0.578748
-0.579234
-0.579774
-0.580372
-0.581013
-0.581679
-0.582356
-0.583034
-0.583692
-0.584320
-0.584926
-0.585522
-0.586114
-0.586703
-0.587273
-0.587811
-0.588329
-0.588858
-0.589412
-0.589994
-0.590599
-0.591216
-0.591839
-0.592474
-0.593119
-0.593754
-0.594364
-0.594950
-0.595512
-0.596054
-0.596592
-0.597130
-0.597662
-0.598195
-0.598744
-0.599306
-0.599881
-0.600462
-0.601035
-0.601587
-0.602126
-0.602662
-0.603196
-0.603725
-0.604256
-0.604797
-0.605363
-0.605972
-0.606623
-0.607296
-0.607982
-0.608678
-0.609368
-0.610034
-0.610659
-0.611235
-0.611765
-0.612267
-0.612759
-0.613251
-0.613752
-0.614271
-0.614808
-0.615363
-0.615940
-0.616539
-0.617148
-0.617763
-0.618394
-0.619044
-0.619702
-0.620349
-0.620965
-0.621539
-0.622067
-0.622561
-0.623036
-0.623504
-0.623980
-0.624476
-0.624999
-0.625555
-0.626149
-0.626775
-0.627426
-0.628096
-0.628772
-0.629438
-0.630080
-0.630694
-0.631275
-0.631823
-0.632348
-0.632860
-0.633366
-0.633873
-0.634386
-0.634901
-0.635421
-0.635945
-0.636474
-0.637006
-0.637551
-0.638110
-0.638673
-0.639232
-0.639792
-0.640361
-0.640940
-0.641522
-0.642097
-0.642655
-0.643197
-0.643734
-0.644272
-0.644803
-0.645320
-0.645838
-0.646373
-0.646938
-0.647542
-0.648179
-0.648828
-0.649469
-0.650090
-0.650675
-0.651213
-0.651715
-0.652207
-0.652707
-0.653228
-0.653774
-0.654337
-0.654905
-0.655484
-0.656077
-0.656676
-0.657269
-0.657851
-0.658410
-0.658944
-0.659457
-0.659953
-0.660429
-0.660895
-0.661372
-0.661873
-0.662396
-0.662937
-0.663482
-0.664021
-0.664562
-0.665124
-0.665712
-0.666317
-0.666927
-0.667532
-0.668123
-0.668690
-0.669236
-0.669767
-0.670284
-0.670792
-0.671304
-0.671827
-0.672363
-0.672910
-0.673462
-0.674008
-0.674540
-0.675054
-0.675551
-0.676038
-0.676533
-0.677043
-0.677564
-0.678090
-0.678621
-0.679156
-0.679702
-0.680263
-0.680830
-0.681387
-0.681933
-0.682467
-0.682985
-0.683490
-0.683989
-0.684484
-0.684981
-0.685493
-0.686031
-0.686593
-0.687168
-0.687748
-0.688323
-0.688889
-0.689447
-0.689996
-0.690531
-0.691049
-0.691553
-0.692053
-0.692556
-0.693057
-0.693558
-0.694058
-0.694552
-0.695031
-0.695496
-0.695955
-0.696418
-0.696895
-0.697399
-0.697933
-0.698490
-0.699058
-0.699622
-0.700163
-0.700671
-0.701157
-0.701638
-0.702127
-0.702633
-0.703160
-0.703702
-0.704247
-0.704780
-0.705295
-0.705795
-0.706287
-0.706777
-0.707271
-0.707767
-0.708255
-0.708722
-0.709167
-0.709598
-0.710019
-0.710443
-0.710887
-0.711365
-0.711877
-0.712409
-0.712950
-0.713490
-0.714023
-0.714547
-0.715060
-0.715566
-0.716074
-0.716591
-0.717114
-0.717633
-0.718140
-0.718632
-0.719109
-0.719578
-0.720053
-0.720544
-0.721053
-0.721576
-0.722103
-0.722615
-0.723101
-0.723563
-0.724005
-0.724431
-0.724852
-0.725280
-0.725724
-0.726187
-0.726665
-0.727159
-0.727669
-0.728181
-0.728682
-0.729166
-0.729635
-0.730089
-0.730532
-0.730976
-0.731428
-0.731880
-0.732335
-0.732802
-0.733280
-0.733760
-0.734240
-0.734719
-0.735189
-0.735647
-0.736102
-0.736557
-0.737006
-0.737443
-0.737874
-0.738298
-0.738707
-0.739100
-0.739490
-0.739890
-0.740297
-0.740712
-0.741140
-0.741584
-0.742040
-0.742507
-0.742989
-0.743482
-0.743972
-0.744453
-0.744930
-0.745397
-0.745846
-0.746283
-0.746714
-0.747136
-0.747549
-0.747964
-0.748390
-0.748815
-0.749232
-0.749652
-0.750083
-0.750512
-0.750927
-0.751335
-0.751742
-0.752146
-0.752546
-0.752955
-0.753372
-0.753789
-0.754208
-0.754641
-0.755080
-0.755505
-0.755910
-0.756308
-0.756708
-0.757111
-0.757523
-0.757947
-0.758386
-0.758838
-0.759299
-0.759756
-0.760205
-0.760659
-0.761083
-0.761259
-0.760638
-0.758199
-0.752155
-0.739517
-0.716085
-0.677514
-0.620766
-0.544057
-0.445249
-0.321900
-0.174763
-0.010457
0.160436
0.327157
0.482690
0.628929
0.777474
0.940364
1.119443
1.305890
1.486771
1.651116
1.796979
1.938581
2.102746
2.312195
2.569125
2.850804
3.118549
3.332443
3.458503
3.468244
3.345740
3.100499
2.768845
2.403456
2.058569
1.767488
1.521178
1.273393
0.976233
0.618875
0.243134
-0.072458
-0.255762
-0.288303
-0.217329
-0.121086
-0.066878
-0.098040
-0.237170
-0.478729
-0.775955
-1.052395
-1.248433
-1.362444
-1.432455
-1.470085
-1.433622
-1.289121
-1.081877
-0.914297
-0.853299
-0.880419
-0.928142
-0.938950
-0.883555
-0.747539
-0.526369
-0.236611
0.079539
0.368062
0.578751
0.669926
0.620771
0.458434
0.258068
0.094433
-0.001647
-0.037775
-0.033612
-0.006180
0.039541
0.112878
0.213092
0.293975
0.270815
0.086121
-0.228282
-0.565997
-0.827567
-0.980616
-1.036849
-0.988334
-0.794200
-0.436858
0.023150
0.454315
0.710740
0.700204
0.443471
0.086322
-0.183724
-0.270604
-0.218402
-0.131526
-0.078358
-0.070107
-0.082437
-0.077251
-0.027529
0.072816
0.225345
0.428372
0.654730
0.860251
1.030914
1.201990
1.412851
1.654595
1.884386
2.084864
2.282316
2.501736
2.718221
2.854419
2.826715
2.615511
2.303932
2.025300
1.849453
1.724668
1.533373
1.197946
0.742303
0.272213
-0.094473
-0.287120
-0.294787
-0.151085
0.061970
0.201662
0.115885
-0.245304
-0.774522
-1.272979
-1.570853
-1.615295
-1.483656
-1.310744
-1.181769
-1.086877
-0.970151
-0.817298
-0.699169
-0.711722
-0.851157
-0.969266
-0.881468
-0.515247
0.046111
0.643662
1.160788
1.582190
1.967470
2.389504
2.884449
3.424726
3.931956
4.332242
4.597290
4.727819
4.719974
4.567987
4.299277
3.998211
3.761346
3.594237
3.379204
2.986553
2.395713
1.690465
0.989757
0.401127
-0.035473
-0.399090
-0.832899
-1.407034
-2.053299
-2.632032
-3.040849
-3.258588
-3.308431
-3.213488
-3.006612
-2.760255
-2.571767
-2.509072
-2.566902
-2.670315
-2.732653
-2.725010
-2.688501
-2.678287
-2.698858
-2.683782
-2.529088
-2.168461
-1.650083
-1.137941
-0.808970
-0.738263
-0.877497
-1.102202
-1.248651
-1.156627
-0.761947
-0.169542
0.392191
0.706055
0.676687
0.358999
-0.092407
-0.527428
-0.882288
-1.156501
-1.325322
-1.320915
-1.116429
-0.797156
-0.521503
-0.413362
-0.487908
-0.660591
-0.823992
-0.933022
-1.030109
-1.199029
-1.490520
-1.862008
-2.178056
-2.296555
-2.166054
-1.831072
-1.366546
-0.848113
-0.379646
-0.085512
-0.017036
-0.072207
-0.055183
0.160209
0.532438
0.908512
1.146733
1.187450
1.067420
0.917500
0.918533
1.193249
1.713385
2.323825
2.862844
3.251513
3.475958
3.521014
3.361824
3.019977
2.586261
2.162183
1.788814
1.436939
1.053420
0.614860
0.148113
-0.295146
-0.684338
-1.027068
-1.341417
-1.626412
-1.867213
-2.047896
-2.137006
-2.076556
-1.823717
-1.417872
-0.988593
-0.682341
-0.582335
-0.679271
-0.874020
-1.006902
-0.939530
-0.641980
-0.192811
0.304998
0.802361
1.310766
1.836911
2.315584
2.632312
2.719049
2.602624
2.359356
2.044117
1.651477
1.129239
0.455642
-0.277579
-0.881590
-1.190556
-1.173655
-0.953724
-0.734042
-0.677366
-0.811984
-1.042509
-1.252759
-1.396709
-1.504373
-1.619200
-1.737143
-1.808849
-1.787002
-1.650784
-1.400500
-1.056047
-0.647897
-0.190989
0.321393
0.892271
1.497945
2.076388
2.517592
2.691222
2.544861
2.198965
1.908773
1.888697
2.158431
2.547807
2.826308
2.835189
2.558152
2.126585
1.756197
1.631196
1.806828
2.204689
2.690845
3.148072
3.481765
3.594799
3.411589
2.969857
2.483722
2.259459
2.485485
3.068190
3.671855
3.959736
3.853701
3.584224
3.474295
3.653615
3.966759
4.140334
4.023419
3.673170
3.242458
2.821177
2.393493
1.923727
1.451411
1.094552
0.975240
1.135332
1.494025
1.898296
2.253582
2.589196
2.958135
3.305810
3.500772
3.486466
3.346481
3.226747
3.256489
3.538965
4.116483
4.865764
5.465527
5.575415
5.108164
4.307042
3.537985
3.022011
2.763291
2.694304
2.851120
3.377945
4.341377
5.550358
6.592632
7.081961
6.900934
6.243411
5.454334
4.811535
4.402005
4.165637
4.062710
4.214936
4.856111
6.098182
7.761726
9.473428
10.897700
11.857930
12.320810
12.350910
12.086240
11.715620
11.409770
11.212450
11.003520
10.604590
9.928020
9.037696
8.105457
7.312201
6.757300
6.450036
6.373355
6.504857
6.762592
6.993978
7.058340
6.897490
6.529626
6.015247
5.422413
4.792627
4.162240
3.648003
3.471195
3.832973
4.758386
6.083675
7.565262
8.950967
9.996294
10.548390
10.684510
10.719660
10.996530
11.627210
12.426790
13.065670
13.272410
12.960350
12.243980
11.336690
10.404330
9.519598
8.743219
8.188242
7.960520
8.042690
8.245955
8.282272
7.938753
7.246823
6.485295
5.988364
5.922300
6.208173
6.615166
6.908470
6.938355
6.664561
6.155617
5.557307
5.027194
4.685612
4.611314
4.841969
5.349777
6.025116
6.712657
7.289021
7.716601
8.037389
8.349051
8.787024
9.458673
10.346620
11.319160
12.250730
13.059840
13.628960
13.804240
13.520580
12.862180
11.981560
11.011200
10.052530
9.178787
8.419274
7.779896
7.286263
6.960689
6.741864
6.462392
5.939483
5.103378
4.052975
3.006726
2.196736
1.767146
1.725889
1.967442
2.322961
2.600752
2.671983
2.621567
2.775434
3.439705
4.587500
5.874652
6.947637
7.686042
8.183109
8.534778
8.665239
8.422312
7.877061
7.445306
7.616591
8.545693
9.905729
11.095100
11.585740
11.184890
10.100240
8.810561
7.845878
7.572188
8.013599
8.807091
9.399084
9.369288
8.605560
7.237218
5.503170
3.695495
2.103594
0.899944
0.095164
-0.351054
-0.414531
-0.067468
0.568505
1.221625
1.650616
1.774281
1.631271
1.324655
1.060210
1.141861
1.810884
3.067110
4.675293
6.337936
7.823774
8.950131
9.533749
9.425512
8.606418
7.253117
5.702628
4.325660
3.382259
2.923081
2.780842
2.678707
2.399023
1.882510
1.182671
0.346038
-0.635703
-1.764013
-2.963758
-4.073321
-4.880924
-5.205116
-4.999846
-4.395776
-3.620862
-2.865273
-2.210099
-1.660337
-1.199489
-0.778066
-0.291036
0.341366
1.049553
1.648477
2.046945
2.367636
2.793390
3.326281
3.751507
3.811211
3.379941
2.514498
1.397163
0.245375
-0.760080
-1.519741
-2.023759
-2.309673
-2.413542
-2.377070
-2.282432
-2.231248
-2.269034
-2.351031
-2.404198
-2.427684
-2.530239
-2.856393
-3.461003
-4.263842
-5.136002
-6.004306
-6.841700
-7.578918
-8.088963
-8.292098
-8.246815
-8.098718
-7.944941
-7.763595
-7.461830
-6.978239
-6.344513
-5.653394
-4.975812
-4.343604
-3.827544
-3.562294
-3.606854
-3.790882
-3.780187
-3.354040
-2.634116
-2.014681
-1.824167
-2.043410
-2.356220
-2.449475
-2.265989
-2.029427
-2.065247
-2.565716
-3.467754
-4.498098
-5.308797
-5.631399
-5.414733
-4.865133
-4.320982
-4.042106
-4.083643
-4.325606
-4.583069
-4.691165
-4.537309
-4.080547
-3.381335
-2.614310
-2.025743
-1.833490
-2.115204
-2.753507
-3.478143
-3.981761
-4.050178
-3.654830
-2.968263
-2.286522
-1.890882
-1.922299
-2.334686
-2.940146
-3.502284
-3.823712
-3.809265
-3.502209
-3.071203
-2.728843
-2.613492
-2.726193
-2.990119
-3.354855
-3.793057
-4.195229
-4.336401
-3.998401
-3.130923
-1.908664
-0.666289
0.233113
0.543380
0.224978
-0.585534
-1.690480
-2.919350
-4.140274
-5.230149
-6.038380
-6.366710
-6.027035
-5.013832
-3.659043
-2.542309
-2.136709
-2.477470
-3.148172
-3.575205
-3.382943
-2.585405
-1.528768
-0.644635
-0.190744
-0.140317
-0.258197
-0.290759
-0.134963
0.118870
0.267959
0.119459
-0.422442
-1.311365
-2.328896
-3.108568
-3.277884
-2.675130
-1.491211
-0.207435
0.669697
0.918374
0.722944
0.491712
0.520713
0.792186
1.049160
1.039240
0.705847
0.189824
-0.309639
-0.668955
-0.868605
-0.920270
-0.789820
-0.407318
0.251708
1.101378
1.962757
2.665148
3.156837
3.511199
3.806651
4.022384
4.081253
3.967726
3.761730
3.572450
3.475946
3.505971
3.663730
3.928798
4.288754
4.762488
5.361535
6.014080
6.552496
6.800630
6.677172
6.221787
5.549187
4.796552
4.089439
3.516363
3.125850
2.948821
2.998570
3.223074
3.463769
3.488745
3.104733
2.283670
1.211430
0.211317
-0.413648
-0.527060
-0.213949
0.281352
0.681286
0.794361
0.597799
0.255028
0.038317
0.184523
0.765252
1.651269
2.593126
3.356664
3.817264
3.962054
3.834159
3.491892
3.002603
2.441613
1.890017
1.435907
1.157360
1.081169
1.161477
1.319492
1.509553
1.733544
1.996052
2.273383
2.535265
2.773677
2.990424
3.164281
3.246858
3.190594
2.977043
2.632752
2.234521
1.889818
1.682807
1.618215
1.618375
1.587016
1.483883
1.344364
1.242434
1.240408
1.350614
1.519684
1.649703
1.641940
1.430816
1.007557
0.437249
-0.159616
-0.660066
-0.966524
-0.994704
-0.694150
-0.131278
0.463302
0.787171
0.654331
0.119174
-0.569914
-1.136526
-1.421167
-1.412950
-1.190519
-0.857379
-0.509691
-0.205842
0.067886
0.393979
0.869702
1.528606
2.276151
2.897693
3.166764
2.980319
2.408948
1.639501
0.877883
0.271565
-0.125629
-0.330486
-0.364082
-0.210889
0.146626
0.658710
1.191579
1.592759
1.774864
1.739732
1.545012
1.267633
0.980774
0.733130
0.543623
0.418078
0.360524
0.363923
0.400293
0.434742
0.462750
0.533525
0.719299
1.048398
1.467250
1.864356
2.129052
2.206053
2.125198
1.986789
1.896274
1.893742
1.940469
1.965186
1.921502
1.820732
1.729519
1.729822
1.856271
2.049363
2.164879
2.044994
1.599028
0.832650
-0.168600
-1.258148
-2.255414
-3.011391
-3.486362
-3.768507
-3.995184
-4.227290
-4.392242
-4.359665
-4.079385
-3.651487
-3.274267
-3.124794
-3.265296
-3.633862
-4.110085
-4.588454
-4.999010
-5.288365
-5.420203
-5.404721
-5.301626
-5.169697
-5.013530
-4.786641
-4.440374
-3.960371
-3.367398
-2.709439
-2.058223
-1.491292
-1.056955
-0.745455
-0.486066
-0.181211
0.228350
0.708878
1.134887
1.344389
1.210834
0.704022
-0.078843
-0.941092
-1.678210
-2.171020
-2.406408
-2.438276
-2.362362
-2.311458
-2.407480
-2.677554
-3.032750
-3.348910
-3.565782
-3.711696
-3.853123
-4.031069
-4.235620
-4.430553
-4.602108
-4.785565
-5.044612
-5.422835
-5.901682
-6.389407
-6.756401
-6.903024
-6.810029
-6.537668
-6.188094
-5.857011
-5.588913
-5.362765
-5.129611
-4.866644
-4.586063
-4.296651
-3.980237
-3.627323
-3.297553
-3.125162
-3.241851
-3.683927
-4.361966
-5.094492
-5.669900
-5.928632
-5.845161
-5.548147
-5.253976
-5.159310
-5.342399
-5.711675
-6.048868
-6.141545
-5.910940
-5.439653
-4.895296
-4.425164
-4.095013
-3.890326
-3.757454
-3.651819
-3.562667
-3.497110
-3.441904
-3.356533
-3.221428
-3.085870
-3.049587
-3.195785
-3.546071
-4.062027
-4.662517
-5.238983
-5.682005
-5.916475
-5.919876
-5.720405
-5.395130
-5.061827
-4.833559
-4.752732
-4.776028
-4.830034
-4.864115
-4.846565
-4.742729
-4.527450
