EVENT_NAME: EMILIA_2ND_SHOCK
EVENT_ID: IT-2012-0011
EVENT_DATE_YYYYMMDD: 20120529
EVENT_TIME_HHMMSS: 070002
EVENT_LATITUDE_DEGREE: 44.8417
EVENT_LONGITUDE_DEGREE: 11.0657
EVENT_DEPTH_KM: 8.1
HYPOCENTER_REFERENCE: INGV-CNT_Seismic_Bulletin
MAGNITUDE_W: 6.0
MAGNITUDE_W_REFERENCE: RCMT-INGV
MAGNITUDE_L: 5.8
MAGNITUDE_L_REFERENCE: INGV-CNT_Seismic_Bulletin
FOCAL_MECHANISM: TF
NETWORK: TV
STATION_CODE: MIR06
STATION_NAME: PIEVE DI CORIANO
STATION_LATITUDE_DEGREE: 45.040100
STATION_LONGITUDE_DEGREE: 11.087400
STATION_ELEVATION_M: 
LOCATION: 
SENSOR_DEPTH_M: 
VS30_M/S: 
SITE_CLASSIFICATION_EC8: C*
MORPHOLOGIC_CLASSIFICATION: 
EPICENTRAL_DISTANCE_KM: 22.1
EARTHQUAKE_BACKAZIMUTH_DEGREE: 184.4
DATE_TIME_FIRST_SAMPLE_YYYYMMDD_HHMMSS: 20120529_065933.000
DATE_TIME_FIRST_SAMPLE_PRECISION: milliseconds
SAMPLING_INTERVAL_S: 0.005000
NDATA: 30001
DURATION_S: 150.005
STREAM: HNE
UNITS: cm/s^2
INSTRUMENT: sensor = Episensor FBA ES-T [Kinemetrics] | digitizer = Unknown [Unknown]
INSTRUMENT_ANALOG/DIGITAL: D
INSTRUMENTAL_FREQUENCY_HZ: 
INSTRUMENTAL_DAMPING: 
FULL_SCALE_G: 
N_BIT_DIGITAL_CONVERTER: 
PGA_CM/S^2: -91.818682
TIME_PGA_S: 44.475000
BASELINE_CORRECTION: BASELINE REMOVED
FILTER_TYPE: BUTTERWORTH
FILTER_ORDER: 2
LOW_CUT_FREQUENCY_HZ: 0.060
HIGH_CUT_FREQUENCY_HZ: 40.000
LATE/NORMAL_TRIGGERED: NT
DATABASE_VERSION: DYNA 1.0
HEADER_FORMAT: DYNA 1.2
DATA_TYPE: ACCELERATION
PROCESSING: manual (Paolucci et al., 2011)
DATA_TIMESTAMP_YYYYMMDD_HHMMSS: 
DATA_LICENSE: CC-BY4_0 (http://creativecommons.org/licenses/by/4.0/)
DATA_CITATION: ESM working group (2015), European Strong-Motion database, version 0.1, Network Activity 3: Networking acceleration networks and SM data users. Project NERA (www.nera-eu.org)
DATA_CREATOR: ESM working group
ORIGINAL_DATA_MEDIATOR_CITATION: Orfeus - European Integrated Data Archive (EIDA) http://www.orfeus-eu.org/eida/
ORIGINAL_DATA_MEDIATOR: Orfeus - European Integrated Data Archive (EIDA)
ORIGINAL_DATA_CREATOR_CITATION: 
ORIGINAL_DATA_CREATOR: network: TV (INGV Experiments Network); owner: Istituto Nazionale di Geofisica e Vulcanologia
USER1: 
USER2: 
USER3: 
USER4: 
USER5: 
[...]
2.577393
0.858238
-1.310194
-3.092579
-3.846732
-3.406388
-1.948709
0.122018
2.096082
3.097634
2.674773
1.210326
-0.460902
-1.795968
-2.747740
-3.303617
-3.162278
-2.065197
-0.229323
1.744338
3.238619
3.860714
3.572583
2.641152
1.375849
0.028703
-1.094185
-1.736115
-1.965710
-2.160938
-2.610480
-3.138729
-3.226399
-2.577963
-1.489868
-0.581228
-0.237345
-0.405157
-0.834599
-1.306830
-1.598580
-1.419054
-0.528800
1.024114
2.743526
3.891864
4.051498
3.383098
2.266771
1.035983
0.136574
0.006057
0.585259
1.336333
1.841777
2.071600
2.071222
1.806003
1.391665
1.017317
0.509009
-0.559674
-2.172461
-3.679916
-4.407617
-4.142563
-3.017508
-1.330729
0.385285
1.452153
1.442646
0.441643
-1.064081
-2.387281
-2.792511
-1.842886
0.175729
2.368485
3.903695
4.464122
4.123574
3.096137
1.676248
0.219125
-0.931606
-1.522740
-1.493855
-1.009759
-0.303626
0.469690
1.142677
1.454567
1.296847
0.936349
0.724776
0.651163
0.404308
-0.154906
-0.732541
-0.873445
-0.478072
0.059687
0.264001
-0.040481
-0.777719
-1.754569
-2.620690
-2.963207
-2.618842
-1.783929
-0.777480
0.185887
0.952722
1.284818
0.908410
-0.215117
-1.663709
-2.704377
-2.830640
-2.139623
-1.117025
-0.233845
0.146724
-0.220189
-1.261804
-2.515298
-3.430675
-3.730153
-3.459263
-2.773218
-1.750101
-0.434296
1.023464
2.412984
3.630060
4.642631
5.285732
5.261909
4.452334
3.133877
1.791340
0.793174
0.262729
0.092047
0.039379
-0.087753
-0.364139
-0.843898
-1.556834
-2.360769
-2.931563
-2.976057
-2.439090
-1.522910
-0.545722
0.215662
0.560570
0.312472
-0.619297
-2.011120
-3.224734
-3.555117
-2.793267
-1.352245
0.169220
1.387848
2.153351
2.471599
2.519724
2.550763
2.684560
2.875202
3.058444
3.176404
3.075960
2.606349
1.880360
1.244646
0.899826
0.664022
0.177946
-0.712279
-1.825509
-2.817004
-3.355009
-3.209319
-2.334194
-0.860251
0.944011
2.566612
3.318661
2.833427
1.424633
-0.187454
-1.358065
-1.719567
-1.234755
-0.215922
0.914728
1.922961
2.620710
2.622838
1.670323
0.138425
-1.132921
-1.595677
-1.407271
-1.065911
-0.854309
-0.713605
-0.472162
-0.101724
0.208292
0.224791
-0.115731
-0.697201
-1.281595
-1.470033
-0.849060
0.553687
2.103584
3.064222
3.128798
2.381737
1.096132
-0.239667
-1.050330
-1.095352
-0.603856
0.079564
0.772569
1.334858
1.520286
1.107811
0.097518
-1.276363
-2.660317
-3.721305
-4.267862
-4.267304
-3.747354
-2.749364
-1.450669
-0.247417
0.479253
0.718720
0.827678
1.144121
1.682396
2.191067
2.433309
2.401500
2.260750
2.119734
1.964136
1.792004
1.673234
1.710612
2.019212
2.560460
2.883696
2.316317
0.646852
-1.540135
-3.368609
-4.365222
-4.553592
-4.122802
-3.286638
-2.357868
-1.677589
-1.393378
-1.354896
-1.250028
-0.860331
-0.175398
0.709443
1.688817
2.612513
3.234634
3.287723
2.725148
1.880063
1.215276
0.903555
0.784112
0.708103
0.756487
0.996032
1.131595
0.675437
-0.486862
-1.904962
-2.987696
-3.436553
-3.225789
-2.446486
-1.383327
-0.522109
-0.205398
-0.354559
-0.604102
-0.560694
0.012915
0.999984
1.925022
2.347835
2.257994
1.955267
1.571317
0.890130
-0.278040
-1.683375
-2.724523
-2.904490
-2.148835
-0.763253
0.809810
2.204026
3.160820
3.439824
2.892855
1.690794
0.313560
-0.731333
-1.132215
-0.866547
-0.223256
0.342312
0.493914
0.163065
-0.572213
-1.578558
-2.493659
-2.686321
-1.743381
0.012253
1.748209
2.896999
3.485599
3.686546
3.378782
2.362119
0.828374
-0.599178
-1.309674
-1.157047
-0.487582
0.255881
0.877131
1.331808
1.467742
1.080857
0.239694
-0.561244
-0.719411
-0.076821
0.931343
1.680467
1.774765
1.187355
0.256878
-0.485215
-0.695698
-0.495103
-0.335953
-0.608311
-1.389112
-2.494916
-3.630433
-4.481982
-4.821532
-4.562303
-3.651010
-2.038071
0.062367
2.045198
3.296219
3.590797
2.985939
1.609565
-0.172551
-1.642731
-2.161010
-1.673749
-0.662376
0.277190
0.734349
0.600204
0.058818
-0.576205
-0.994046
-0.852792
0.159394
2.055102
4.400809
6.494227
7.692919
7.689827
6.672357
5.235118
3.909023
2.708195
1.320171
-0.335906
-2.031003
-3.608069
-5.064527
-6.254249
-6.823952
-6.493069
-5.267265
-3.422436
-1.339385
0.696316
2.593414
4.369933
5.911122
6.834092
6.753893
5.707098
4.187586
2.794154
1.906695
1.545687
1.445323
1.385688
1.440873
1.767174
2.271542
2.714132
3.002571
3.104915
2.885638
2.425382
2.228086
2.620899
3.196880
3.266166
2.640411
1.713243
0.967288
0.596951
0.501033
0.438719
0.177593
-0.343826
-0.944167
-1.367320
-1.490810
-1.362473
-1.211779
-1.432416
-2.313784
-3.751174
-5.361122
-6.837515
-8.059262
-8.925465
-9.325761
-9.300649
-8.988956
-8.412326
-7.558127
-6.566004
-5.524387
-4.155780
-1.966697
1.209439
4.882698
8.149562
10.183774
10.544365
9.306270
7.042071
4.551838
2.488381
1.143406
0.439932
0.033908
-0.539097
-1.665080
-3.388035
-5.260299
-6.594836
-6.927338
-6.187968
-4.704435
-3.181236
-2.201410
-1.766161
-1.814573
-2.614955
-4.007983
-5.087683
-5.171819
-4.400373
-3.270196
-2.228655
-1.605327
-1.435371
-1.458837
-1.355551
-0.828885
0.244384
1.645885
3.091831
4.476088
5.685602
6.579713
7.171519
7.527673
7.614044
7.434479
7.207636
7.190135
7.345959
7.531742
7.868202
8.214812
7.622186
5.443826
2.517382
0.191362
-0.969361
-1.028750
-0.527477
-0.322311
-0.506186
-0.268371
0.726935
1.889750
2.657041
2.884874
2.379671
1.041265
-0.707251
-2.534809
-4.522807
-6.226178
-6.798205
-6.259787
-5.200371
-3.838632
-2.515655
-1.921934
-2.225659
-2.994950
-3.854611
-4.551422
-4.799141
-4.453592
-3.613476
-2.484646
-1.272631
-0.192435
0.531792
0.840127
0.944491
1.129499
1.640438
2.615220
3.810511
4.758703
5.192039
4.853400
3.580717
2.036198
0.970556
0.044302
-0.725520
-0.616560
-0.741416
-2.402185
-4.100287
-4.919048
-5.897281
-6.545653
-6.136854
-5.588514
-5.312160
-5.264957
-5.568866
-5.773003
-5.908295
-6.533379
-7.294904
-7.524776
-7.139324
-6.111801
-4.425443
-2.676988
-1.604819
-1.191555
-1.096894
-1.227162
-1.325510
-0.968186
-0.027696
1.352447
2.924236
4.339631
5.118613
4.869328
3.874749
3.003697
2.622149
2.277577
1.721554
1.320034
1.201340
0.897447
0.005972
-1.478487
-3.343476
-5.127830
-6.319923
-6.886389
-7.114420
-6.926857
-5.877567
-3.814825
-1.089423
1.842477
4.449739
6.021699
6.259747
5.579462
4.454365
3.094359
1.852821
1.378830
2.217777
4.256004
6.576706
8.041745
8.043809
6.766494
4.965220
3.532079
3.037681
3.475462
4.397578
5.247777
5.527203
4.843018
3.063544
0.509068
-2.124170
-4.139231
-5.106703
-4.913553
-3.815556
-2.378065
-1.169877
-0.448894
-0.100275
0.164090
0.562449
1.102884
1.471272
1.162073
0.180772
-0.609917
-0.640103
-0.633453
-1.408794
-2.586654
-3.585028
-4.754286
-6.727994
-9.595112
-12.907612
-15.897786
-17.670019
-17.427477
-15.041547
-11.677219
-8.961180
-7.133933
-5.180917
-2.950510
-1.516014
-1.267266
-1.437715
-1.602327
-1.878456
-2.008979
-1.934363
-2.294954
-3.182881
-3.903840
-4.219046
-4.290766
-3.958956
-3.038417
-1.713844
-0.378313
0.794600
2.038716
3.494286
4.879834
5.852713
6.267114
6.306326
6.562398
7.505057
8.859981
9.850215
9.995311
9.416999
8.354943
6.883567
5.216473
3.616846
2.010992
0.263028
-1.264968
-1.699857
-0.243001
3.163499
7.680282
11.967710
14.783709
15.405410
13.686734
9.985906
5.053140
-0.284113
-5.419478
-9.990586
-13.799533
-16.831573
-19.262768
-21.303680
-23.001011
-24.167690
-24.414162
-23.270329
-20.443439
-16.070404
-10.728713
-5.262304
-0.669073
2.145847
3.025977
2.919226
3.147129
4.362050
6.398151
8.713669
10.529605
10.932984
9.495543
6.760601
3.810436
1.432113
-0.108339
-0.681541
-0.179266
1.155695
2.807357
4.466158
5.981880
7.001493
7.051976
6.014436
4.496414
3.385439
2.825763
1.983083
0.096931
-2.243457
-3.925095
-5.435892
-7.254505
-7.137520
-3.792595
-0.360984
0.327457
-0.691841
-1.692284
-2.117302
-1.615174
0.090089
2.880895
6.056173
8.768935
10.650653
11.772042
12.462420
12.684158
12.252262
11.708943
11.084967
9.564008
7.288524
4.733899
1.360297
-3.147273
-7.755418
-10.816840
-11.327658
-9.495867
-6.521966
-4.031321
-3.146569
-3.871913
-5.623190
-7.937070
-10.458878
-12.726050
-14.072195
-13.761902
-11.608692
-8.416796
-5.429445
-3.439973
-2.580701
-2.546972
-2.758592
-2.672076
-2.162473
-1.442255
-0.627937
0.442286
1.954297
3.811148
5.694842
7.347005
8.672826
9.730923
10.666765
11.412271
11.596267
11.119592
10.559950
10.570610
11.069424
11.368860
10.967707
9.963765
8.876237
8.292757
8.456519
9.106265
10.013273
11.435537
13.634117
16.514053
20.040892
24.006081
27.361736
29.124159
29.595625
29.421703
28.245729
25.498608
21.624405
17.381844
12.853534
8.102491
3.539525
-0.625295
-3.823782
-4.960416
-3.722880
-0.618146
3.929133
9.476186
15.397852
21.064123
25.877546
29.319101
31.142349
31.489368
30.236698
26.445112
19.420101
9.922725
-0.173033
-9.044797
-15.835944
-20.569950
-23.272770
-23.682096
-21.804754
-18.340771
-14.380289
-10.694440
-7.499671
-4.797940
-2.596982
-0.912636
0.190769
0.649193
0.598904
0.435756
0.581488
1.176808
1.876714
1.892825
0.484638
-2.500409
-6.733425
-11.889139
-17.640266
-23.242292
-27.669304
-30.281811
-30.906540
-29.560303
-26.967960
-24.706734
-23.677391
-23.358753
-23.339457
-23.979866
-25.215475
-26.414001
-27.233524
-27.794947
-28.577894
-29.946650
-31.732927
-33.766403
-35.860508
-37.068398
-35.813076
-30.654484
-21.147953
-8.589525
4.142030
14.017355
19.584707
21.123613
19.268578
14.594345
8.775390
4.441855
2.626525
1.918678
1.314586
1.215700
0.741372
-1.841267
-5.808395
-8.946203
-10.202919
-9.005780
-4.776986
2.011623
10.106467
18.295050
25.594284
31.481499
35.949810
39.207073
41.423134
42.615871
42.742298
41.783398
39.541920
35.549023
29.347034
20.946020
11.208853
1.586125
-6.790030
-13.546018
-18.661364
-21.985638
-23.237827
-22.381706
-19.879000
-16.428707
-12.407725
-7.696014
-2.115144
4.150509
10.615197
16.771009
22.274513
26.957544
30.673672
33.138889
33.970562
33.053082
30.918985
28.350904
25.420177
21.594025
17.076351
13.089648
10.383783
8.387338
6.106681
3.105516
-0.369257
-3.767394
-6.723004
-8.983991
-9.861254
-8.309859
-4.003088
1.938293
7.890412
12.902234
16.270161
17.075256
15.087694
11.338007
7.352359
4.396874
3.227246
3.540321
3.903347
2.921979
-0.139056
-5.670447
-13.308317
-21.724562
-29.739637
-36.911736
-42.846886
-46.874138
-48.594948
-48.154190
-45.851673
-41.823814
-36.099812
-28.838015
-20.595785
-12.406739
-5.406853
-0.153720
3.662765
6.758367
9.588148
12.144856
14.228048
15.692171
16.528214
16.943415
17.230782
17.409639
17.129944
15.961159
13.783310
11.041904
8.545400
6.776210
5.387283
3.495644
0.482951
-3.515118
-7.796665
-11.668721
-14.945744
-17.948893
-20.943710
-23.644644
-25.394817
-25.752485
-24.764519
-22.806402
-20.565180
-19.210236
-19.866123
-22.468475
-25.745102
-28.671680
-31.143782
-33.029900
-33.546238
-31.843651
-27.711588
-21.468319
-13.621688
-5.417268
1.160671
5.112834
7.119297
8.346565
9.590488
10.895532
11.612039
11.167193
9.319611
6.071315
1.913655
-2.453107
-6.747248
-11.021545
-14.937108
-17.554438
-18.443453
-18.324306
-17.614759
-15.658855
-12.366108
-8.640335
-4.596032
0.527694
6.800255
13.653149
20.713833
27.577991
33.739185
39.075809
43.646065
47.231068
49.597080
50.717415
50.446110
48.475494
44.666386
39.001034
31.393633
22.069441
12.116818
3.303900
-2.885339
-6.163922
-7.361260
-7.351874
-6.243631
-3.753321
-0.243541
2.821538
4.038014
4.072338
5.199300
7.757647
9.450712
9.924553
12.124776
16.796162
20.728252
22.179424
22.673803
23.395462
24.262203
25.384254
26.855955
28.299934
29.578039
31.003620
32.428513
33.190849
33.049885
31.905642
29.192249
24.526569
18.017784
9.862497
0.534087
-9.115296
-18.438734
-27.108959
-34.713024
-40.859344
-45.443344
-48.467892
-49.958042
-50.118267
-49.195820
-47.113384
-43.471153
-38.046261
-31.256193
-24.208784
-18.236151
-14.099802
-11.861874
-11.576213
-13.359934
-16.894176
-21.648521
-27.208916
-33.057285
-38.701866
-43.962833
-48.797108
-53.194439
-57.048065
-59.882507
-61.171467
-60.813393
-58.895569
-55.255199
-49.518864
-41.523525
-31.684389
-20.946760
-10.370520
-0.707230
7.708819
14.740347
20.254398
24.153685
26.425331
27.088339
26.148352
23.632450
19.641678
14.392616
8.298176
1.943343
-4.012252
-8.712888
-11.225889
-11.186010
-8.996814
-5.537544
-1.965495
1.022551
3.705765
6.327768
8.517291
10.149281
11.530577
12.941289
14.744200
17.202303
20.035439
22.887297
26.008295
29.810055
33.714397
36.099842
36.086338
34.947533
34.815002
36.318531
38.308228
39.573578
40.074181
40.393505
40.724850
40.870163
40.507175
39.251892
37.170235
34.852749
32.641762
30.464155
28.234062
25.896654
23.382229
20.606562
17.426065
13.724283
9.537657
5.200178
1.375439
-1.315858
-2.625602
-2.536373
-1.089752
1.542301
5.011930
8.869423
12.648324
15.930319
18.376644
19.712282
19.661812
17.856491
13.842139
7.277240
-1.774731
-12.677891
-24.505066
-36.580917
-48.447853
-59.440380
-68.939682
-76.827698
-83.134888
-87.705544
-90.531860
-91.818680
-91.667664
-90.153084
-87.439743
-83.601044
-78.704865
-73.047997
-67.042213
-61.035580
-55.284782
-49.959675
-45.210014
-41.172482
-37.836632
-35.019081
-32.501865
-30.111763
-27.722361
-25.338812
-23.143490
-21.273834
-19.610064
-17.911222
-15.981112
-13.574576
-10.370869
-6.180690
-1.068398
4.719264
10.842152
16.925314
22.566282
27.383322
31.254204
34.340950
36.718330
38.366184
39.566273
40.786087
42.193481
43.652737
44.989460
46.045994
46.918941
48.140404
50.035480
52.243412
54.378422
56.592884
59.131050
61.747639
63.916031
65.420105
66.293198
66.300896
64.646797
59.999744
51.523602
40.272533
28.431993
17.365038
7.620936
-0.294098
-6.300337
-10.615730
-13.044638
-13.475337
-12.467089
-10.552896
-7.618627
-3.332200
2.283912
8.827559
15.681868
22.093784
27.371239
31.144089
33.334084
33.846684
32.415844
28.818521
23.182384
16.053452
8.187508
0.271935
-7.209517
-13.938483
-19.655760
-24.130617
-27.244617
-29.046244
-29.689466
-29.323847
-27.994282
-25.633621
-22.206255
-17.847059
-12.858654
-7.627580
-2.548644
1.925728
5.247991
7.108442
7.747952
7.600706
6.713423
4.664965
1.036932
-3.953058
-9.511631
-15.150166
-20.999180
-27.158850
-33.410351
-39.519218
-45.180206
-49.734974
-52.405823
-52.861145
-51.475929
-49.090176
-46.514851
-44.193054
-42.149361
-40.187481
-38.298321
-36.731644
-35.478168
-34.059494
-31.956427
-28.932974
-25.126898
-21.038214
-17.171129
-13.671035
-10.319413
-6.714243
-2.692218
1.535766
5.993478
10.976735
16.332590
21.633484
26.772936
31.755348
36.476147
40.880501
44.914127
48.505028
51.749660
54.753269
57.148407
58.136562
57.301414
55.132065
52.472637
49.652027
46.310375
42.075008
37.329517
32.954990
29.349888
26.265184
23.490150
21.120193
19.266245
17.937998
17.172007
17.088242
17.865482
19.649952
22.327892
25.411480
28.442680
31.571499
35.376495
39.992260
44.685879
48.532391
51.357983
53.413589
54.239429
52.745132
48.329159
41.434860
33.133514
24.308559
15.511530
7.353935
0.202678
-6.183201
-12.164980
-17.844109
-23.233967
-28.480040
-33.797173
-38.908432
-42.785442
-44.565262
-44.518745
-43.670803
-42.669487
-41.457458
-39.985157
-38.638233
-37.817146
-37.503445
-37.264854
-36.673508
-35.794937
-34.819427
-33.211304
-30.209885
-26.354717
-23.171047
-20.867529
-18.036398
-14.219491
-10.740324
-8.559604
-7.156799
-5.604359
-3.601742
-1.570341
-0.169408
0.278006
-0.082923
-1.011716
-2.507474
-4.676299
-7.523286
-10.983527
-14.946852
-19.377586
-24.458849
-30.271399
-36.354317
-41.927845
-46.568535
-50.406059
-53.577919
-55.795033
-56.695850
-56.397236
-55.397991
-54.034473
-52.222397
-49.652283
-46.066006
-41.360512
-35.500916
-28.418072
-20.160477
-11.050119
-1.428598
8.487403
18.170362
26.718153
33.719978
39.539589
44.294968
47.550014
49.327843
50.086006
49.607346
47.279339
43.322639
38.738564
34.211658
29.699169
25.057564
20.420935
15.986394
12.160682
9.539759
8.191616
7.733805
8.174220
9.716164
12.168949
15.437519
19.822050
25.167618
30.528200
35.054688
38.748970
42.154541
45.403870
48.037418
49.848579
50.928925
51.050743
50.199348
48.812927
46.833450
44.094196
41.181767
38.552353
35.969257
32.961727
28.894402
23.203247
15.668801
6.270967
-4.609530
-16.043139
-27.011187
-36.826958
-45.218544
-52.191296
-57.707413
-61.717850
-64.638847
-66.972839
-68.425285
-68.540627
-67.656174
-66.148178
-63.482742
-58.681019
-51.623386
-43.508560
-35.603718
-28.308456
-21.845692
-16.687834
-12.961690
-10.074317
-7.101869
-3.620493
0.113436
4.036718
8.476329
13.240373
17.631586
21.436701
24.913355
27.945681
30.135963
31.603170
32.917614
34.292103
35.247437
35.234165
34.413380
32.824753
29.182102
22.639011
14.323418
4.950285
-5.643054
-15.965136
-24.412115
-31.154547
-35.639599
-36.816441
-35.596924
-33.242653
-29.917192
-25.868416
-21.555004
-17.294647
-13.305950
-9.430284
-5.550508
-2.124606
0.469036
2.458114
4.143252
5.460383
6.147119
5.940451
4.688121
2.413506
-0.725881
-4.401687
-8.140889
-11.643853
-14.887630
-17.694698
-19.572330
-20.234339
-19.864931
-18.984373
-18.417809
-18.658852
-19.404751
-20.478611
-21.972473
-23.391060
-24.202993
-24.381971
-23.733475
-21.842136
-18.480228
-13.476784
-6.659270
1.711904
10.623068
18.859924
25.832359
31.567625
36.179539
39.522205
41.323154
41.668152
40.951397
39.299442
36.674248
33.406994
29.893297
25.915606
21.037464
15.703337
11.122133
7.916617
5.869489
4.978786
5.528416
7.262989
9.584785
12.283694
15.365544
18.564886
21.518320
24.101574
26.330511
28.186832
29.642014
30.683901
31.257710
31.228008
30.476770
28.928045
26.367046
22.590456
17.892565
12.943601
8.108696
3.145056
-2.590381
-9.491902
-17.030493
-24.166519
-30.283554
-35.501858
-40.504292
-45.194103
-47.811520
-47.560406
-45.852184
-42.998169
-38.367428
-33.014767
-27.424168
-21.299356
-15.896280
-11.153335
-5.716230
-0.516235
3.530369
6.805273
8.901723
9.606768
9.184749
7.507099
4.790970
1.324534
-2.853612
-7.361322
-11.850212
-16.349018
-20.783525
-24.718452
-27.750801
-29.878086
-31.288399
-32.511559
-34.487549
-37.408985
-40.570831
-43.634823
-46.444187
-48.505135
-49.706318
-50.268372
-50.061455
-48.574406
-45.161339
-39.627869
-32.389153
-23.607040
-12.920201
-0.220055
13.814976
27.947786
41.024403
52.357002
61.651257
68.970314
74.610390
78.642204
80.914352
81.492401
80.466156
77.620918
72.806206
66.233902
58.310017
49.516403
40.371223
31.391222
23.169930
16.344772
11.252482
7.658226
5.074423
3.282101
2.282081
2.098415
2.920376
4.917654
