EVENT_NAME: EMILIA_2ND_SHOCK
EVENT_ID: IT-2012-0011
EVENT_DATE_YYYYMMDD: 20120529
EVENT_TIME_HHMMSS: 070002
EVENT_LATITUDE_DEGREE: 44.8417
EVENT_LONGITUDE_DEGREE: 11.0657
EVENT_DEPTH_KM: 8.1
HYPOCENTER_REFERENCE: INGV-CNT_Seismic_Bulletin
MAGNITUDE_W: 6.0
MAGNITUDE_W_REFERENCE: RCMT-INGV
MAGNITUDE_L: 5.8
MAGNITUDE_L_REFERENCE: INGV-CNT_Seismic_Bulletin
FOCAL_MECHANISM: TF
NETWORK: TV
STATION_CODE: MIR04
STATION_NAME: GAVELLO
STATION_LATITUDE_DEGREE: 44.927433
STATION_LONGITUDE_DEGREE: 11.178312
STATION_ELEVATION_M: 
LOCATION: 
SENSOR_DEPTH_M: 
VS30_M/S: 
SITE_CLASSIFICATION_EC8: C*
MORPHOLOGIC_CLASSIFICATION: 
EPICENTRAL_DISTANCE_KM: 13.0
EARTHQUAKE_BACKAZIMUTH_DEGREE: 223.1
DATE_TIME_FIRST_SAMPLE_YYYYMMDD_HHMMSS: 20120529_065927.000
DATE_TIME_FIRST_SAMPLE_PRECISION: milliseconds
SAMPLING_INTERVAL_S: 0.005000
NDATA: 30001
DURATION_S: 150.005
STREAM: HNN
UNITS: cm/s^2
INSTRUMENT: sensor = Episensor FBA ES-T [Kinemetrics] | digitizer = Unknown [Unknown]
INSTRUMENT_ANALOG/DIGITAL: D
INSTRUMENTAL_FREQUENCY_HZ: 
INSTRUMENTAL_DAMPING: 
FULL_SCALE_G: 
N_BIT_DIGITAL_CONVERTER: 
PGA_CM/S^2: -301.197482
TIME_PGA_S: 46.420000
BASELINE_CORRECTION: BASELINE REMOVED
FILTER_TYPE: BUTTERWORTH
FILTER_ORDER: 2
LOW_CUT_FREQUENCY_HZ: 0.050
HIGH_CUT_FREQUENCY_HZ: 40.000
LATE/NORMAL_TRIGGERED: NT
DATABASE_VERSION: DYNA 1.0
HEADER_FORMAT: DYNA 1.2
DATA_TYPE: ACCELERATION
PROCESSING: manual (Paolucci et al., 2011)
DATA_TIMESTAMP_YYYYMMDD_HHMMSS: 
DATA_LICENSE: CC-BY4_0 (http://creativecommons.org/licenses/by/4.0/)
DATA_CITATION: ESM working group (2015), European Strong-Motion database, version 0.1, Network Activity 3: Networking acceleration networks and SM data users. Project NERA (www.nera-eu.org)
DATA_CREATOR: ESM working group
ORIGINAL_DATA_MEDIATOR_CITATION: Orfeus - European Integrated Data Archive (EIDA) http://www.orfeus-eu.org/eida/
ORIGINAL_DATA_MEDIATOR: Orfeus - European Integrated Data Archive (EIDA)
ORIGINAL_DATA_CREATOR_CITATION: 
ORIGINAL_DATA_CREATOR: network: TV (INGV Experiments Network); owner: Istituto Nazionale di Geofisica e Vulcanologia
USER1: 
USER2: 
USER3: 
USER4: 
USER5: 
[...]
-1.220682
0.473560
3.129808
5.762602
6.165311
3.144293
-1.565561
-4.970137
-5.669653
-4.516080
-3.205246
-2.678382
-2.507889
-1.550341
0.753491
3.760380
5.950774
5.581889
1.965106
-3.246860
-6.952586
-7.306301
-4.990898
-1.801501
1.262646
4.253859
7.171957
8.975810
7.971992
3.407212
-3.607201
-10.199806
-12.296805
-7.308525
2.336664
10.430121
12.531583
8.923075
2.788961
-2.681767
-5.625136
-5.565746
-3.184254
-0.043639
2.012677
2.036180
0.689623
-1.057152
-3.449478
-6.463915
-7.763531
-5.046355
-0.084800
2.731913
1.874825
-0.249774
-1.279839
-0.793247
1.250928
4.573551
7.054736
6.141715
2.355457
-0.593253
0.201347
3.794724
6.667732
6.209890
2.452768
-2.771732
-7.214911
-9.027740
-7.471869
-3.377578
1.493773
5.796991
8.978316
10.380626
8.991070
4.707412
-0.737495
-4.935523
-6.807467
-6.781856
-5.485400
-3.700397
-2.974420
-4.138043
-5.500941
-4.422438
-0.659133
3.163771
4.480382
3.197132
1.127054
0.050844
0.544683
1.815059
2.253900
0.596847
-2.740229
-5.281112
-4.332295
0.252118
5.860670
9.677781
10.423855
8.028925
3.284186
-2.065549
-6.107390
-7.898097
-7.426025
-4.914154
-0.872616
3.445092
6.299321
6.283096
3.151564
-1.504803
-4.685163
-4.127296
-0.426984
3.193987
3.520028
0.084993
-4.478368
-6.650813
-4.611527
0.767862
6.625603
9.700866
8.406010
4.321398
1.119746
1.157131
3.190775
3.934325
1.669913
-2.381850
-5.904423
-7.499879
-6.883249
-4.381497
-1.143130
1.032057
1.431072
1.257020
1.522396
1.158637
-1.401433
-5.257283
-7.123830
-5.009780
-0.773898
1.981278
1.674825
-0.579006
-3.085571
-4.852512
-5.158634
-3.808270
-2.285657
-2.820926
-5.396514
-6.961622
-4.473685
1.988702
9.506438
14.722773
15.456424
11.239418
3.698465
-3.759321
-7.669311
-6.635094
-2.015283
3.419230
7.363540
8.511816
6.194238
0.889522
-5.098761
-8.883168
-9.268309
-7.196702
-4.084600
-0.886468
1.079036
0.326157
-2.777397
-5.529314
-5.374530
-2.496120
0.530518
1.624298
0.971162
-0.326620
-1.935607
-3.598424
-3.963698
-1.603492
3.024043
7.434298
9.008812
7.125984
3.711988
1.490538
1.803589
4.411595
8.201382
11.280164
12.097377
11.253336
10.472403
9.709558
7.267562
2.808320
-1.750409
-4.825039
-6.919851
-8.962313
-10.495559
-10.802039
-10.760727
-12.126790
-15.049288
-17.288774
-16.255489
-11.216794
-3.428891
4.711992
10.241151
10.665420
5.707697
-1.568286
-6.097671
-4.883792
0.228235
4.725619
5.458002
2.451148
-1.510714
-3.348227
-2.438406
-0.248485
1.656491
2.069541
0.247945
-2.987452
-4.632229
-1.300146
7.009954
15.637067
19.201641
16.035408
8.141564
-1.277325
-9.327627
-14.230504
-16.094772
-16.441862
-15.853073
-12.458942
-4.215517
7.623703
18.364342
22.550209
17.062365
3.593805
-11.882068
-22.947245
-25.482943
-17.934055
-2.156795
15.494271
26.820686
27.923145
21.697783
13.001714
3.919525
-4.815631
-11.065517
-12.026071
-6.856406
1.620441
8.017202
8.096223
1.912970
-6.304237
-10.948484
-8.168102
1.522422
11.915300
14.574434
6.461477
-6.712925
-15.599456
-15.002075
-7.328672
0.614600
4.078489
3.302411
0.818554
-1.775634
-4.002433
-5.860266
-7.716074
-9.462942
-9.899214
-7.903653
-3.902218
0.444138
3.624824
4.773834
3.880452
2.867585
5.013081
11.415924
18.765659
21.781147
17.680410
7.965640
-3.296161
-12.165557
-17.032940
-18.894579
-18.529613
-14.542497
-6.244218
3.077108
8.537268
8.768168
6.184871
2.060761
-5.323278
-15.331242
-21.154961
-15.977188
-1.462928
13.866742
23.713999
27.848318
27.377010
21.161446
9.716180
-1.057774
-4.025382
2.447088
12.940192
19.055037
16.002098
5.872680
-6.001165
-15.233581
-18.465832
-14.484967
-6.604638
-0.341566
1.237232
-1.738663
-7.620930
-13.627866
-16.320528
-13.950995
-8.287203
-3.409716
-3.086110
-8.992184
-18.897362
-26.035303
-23.905106
-12.717378
1.196594
11.096111
13.441208
8.724911
0.204778
-9.203541
-17.814354
-22.938225
-20.670050
-9.377922
7.529718
23.515427
33.971359
38.669857
39.419777
37.191414
32.202896
25.446520
18.840567
13.907831
10.991926
9.764074
9.908402
10.943838
11.343827
8.688966
1.643221
-8.760004
-20.113590
-29.604248
-33.513313
-27.624182
-10.508367
12.945064
32.415642
37.963234
26.281733
2.850243
-21.163586
-35.337086
-35.785408
-25.934650
-12.175885
0.406812
9.288752
14.375209
16.488075
14.963797
8.749355
0.156886
-5.693978
-6.024249
-3.004668
-0.411863
0.901972
2.344724
3.482169
1.891453
-2.462223
-5.733103
-4.615550
0.062150
5.313242
8.659549
8.260196
4.019531
-0.538175
-0.379198
5.686464
12.974541
15.151141
10.161301
2.105562
-2.187138
1.009667
9.000101
15.047005
14.235071
7.211069
-1.377721
-7.758228
-12.237457
-17.097822
-21.863272
-23.553778
-21.918583
-19.885014
-17.809212
-12.103901
-1.115847
11.026057
17.573460
14.534150
3.200450
-10.573669
-18.953419
-15.738216
-0.271346
20.813454
37.088505
41.201805
32.603474
16.024895
-1.916024
-16.183809
-25.093218
-27.851789
-22.181133
-7.801928
9.146277
18.813332
15.621145
3.394876
-7.083423
-6.367508
5.871090
20.846020
29.563314
30.899576
29.254942
26.687729
21.286146
12.670781
4.701761
0.651166
-1.399113
-5.913139
-14.322562
-23.233400
-27.227171
-23.219442
-12.763975
-1.035181
6.690864
8.546418
5.170886
-3.895453
-19.201717
-37.426868
-52.229328
-58.987495
-56.720764
-45.819984
-26.865665
-3.100902
18.959324
33.619129
39.472454
39.073982
36.469143
34.718864
35.390842
38.875530
43.319077
44.635311
39.154938
25.817669
6.629803
-13.517922
-28.096355
-32.061512
-25.254215
-12.562399
-0.363231
6.711202
6.362564
-0.863506
-9.888999
-12.705644
-5.126220
8.443487
18.358952
18.194990
10.121420
1.194200
-5.031487
-10.557941
-17.622187
-24.721169
-28.058867
-25.783108
-20.545876
-17.080647
-17.163979
-18.264454
-17.430595
-14.750837
-11.841445
-9.002854
-5.519944
-0.862033
4.934790
10.402186
13.145767
12.212615
8.475855
3.308079
-1.054537
-0.949691
6.426886
19.233585
29.783808
29.005672
14.010119
-9.393307
-32.078766
-47.332191
-51.477680
-43.928123
-29.718569
-18.643276
-17.993704
-26.374905
-35.845467
-39.480553
-35.636482
-25.893295
-12.081171
3.786921
18.821743
30.224062
37.651409
43.427109
48.040791
47.445633
38.658379
25.325094
13.473435
5.179042
0.393062
0.657115
6.680499
15.652907
24.239279
31.741009
37.886612
39.378002
31.917170
16.142000
-1.301333
-14.388096
-23.291220
-31.660208
-40.945873
-49.928204
-57.577618
-63.158733
-64.649574
-59.984299
-49.801907
-37.129829
-24.435383
-12.635292
-2.501922
5.380376
12.101103
19.982616
29.875105
38.996834
42.736954
40.109161
35.899921
35.374451
38.777409
43.272648
47.738499
51.784992
50.912010
37.459164
9.610216
-22.290483
-42.348320
-41.968124
-23.930145
3.242910
30.659613
50.883240
58.379177
49.640797
24.658594
-10.147936
-42.075409
-58.577072
-54.822540
-35.019779
-8.823975
12.914973
23.587570
24.710688
22.480448
20.085321
15.010519
4.084973
-10.510067
-21.794920
-23.597898
-14.572109
1.120695
15.554880
21.911053
19.265289
11.517026
2.335431
-6.903263
-15.161960
-20.162489
-19.794931
-14.455987
-6.132489
5.008235
20.330662
37.604370
48.728359
45.914146
30.284597
12.042024
1.809128
3.556381
14.296085
26.137695
29.343021
18.457041
-2.938666
-24.575174
-37.139721
-38.601082
-33.641769
-27.600029
-22.459955
-18.356544
-16.331406
-17.108793
-17.505362
-11.670539
2.715490
22.141201
41.261517
56.326115
64.948479
65.211899
56.225147
40.213505
24.103598
16.385489
20.032507
29.406305
34.907772
29.958000
14.649991
-4.867457
-20.346205
-26.572962
-24.090874
-17.788586
-13.721839
-16.587696
-27.003382
-40.233513
-50.715786
-58.190964
-66.613159
-78.005211
-89.972542
-98.724266
-103.059937
-104.565819
-104.292328
-101.585495
-96.543610
-90.420181
-82.723557
-70.811478
-53.593784
-34.374233
-19.071701
-11.388822
-10.453124
-13.363385
-17.697460
-21.024483
-21.149576
-17.340458
-9.334214
3.286143
18.876202
33.180382
42.685593
47.622879
51.452080
57.077579
63.141468
65.754196
63.890877
60.430817
58.813683
60.510132
63.029198
59.653198
45.123737
22.690594
2.732858
-7.078539
-8.370671
-7.028099
-5.149607
-2.076630
0.729746
1.053203
-0.618251
-2.521542
-4.418494
-6.831364
-8.695349
-7.112004
0.105142
11.288076
21.601809
28.511583
34.871365
44.494244
56.577850
66.932007
73.867966
80.246834
88.315529
95.223518
96.509064
90.287086
75.142372
49.573559
17.094175
-12.125399
-27.617458
-26.440174
-14.090083
1.561009
13.526574
14.106367
-1.123231
-25.793030
-46.302719
-53.960941
-49.796440
-39.490456
-27.394707
-15.175735
-4.940101
-0.957896
-4.828336
-11.260121
-13.312885
-10.519322
-8.998684
-13.852723
-21.830730
-22.976433
-11.254657
9.167286
30.247183
48.756416
65.608185
79.334877
84.436539
76.609612
56.708004
28.528517
-4.558327
-38.960308
-69.181747
-90.324905
-102.276489
-108.565712
-111.120598
-108.704056
-100.047630
-86.401810
-71.214050
-58.695705
-53.120865
-57.805824
-72.485794
-92.297539
-110.540947
-121.982300
-125.058105
-122.795868
-119.779694
-117.346710
-113.717171
-108.025948
-101.572701
-95.605949
-89.411514
-80.542404
-67.746490
-54.405613
-46.683098
-46.578804
-49.118858
-47.594234
-39.331463
-25.960274
-10.734859
3.641192
16.404846
28.156649
37.982780
43.194366
43.805180
44.061310
46.853184
49.864388
49.714787
46.932930
44.619991
44.455379
45.868198
47.395592
47.428974
45.071915
40.994228
36.265091
30.529282
22.520205
12.325073
2.865796
-1.022863
4.252532
18.296665
36.813702
54.058098
65.755569
70.788002
70.765083
68.143028
64.552216
60.374149
55.250973
49.064693
42.810360
38.105247
36.025478
37.337772
42.979843
52.897472
65.250275
77.722824
88.402901
93.987854
88.127892
65.112854
27.735098
-11.235841
-39.145447
-52.800934
-54.916039
-45.844666
-24.478672
5.196567
34.215824
55.500961
67.760315
72.726715
70.443306
57.747574
31.365650
-7.206656
-50.567093
-90.221191
-122.119194
-147.046936
-167.213806
-183.277298
-193.493744
-195.864883
-191.163483
-181.107925
-162.795288
-128.998108
-77.238380
-17.189432
34.492592
67.722122
84.519882
90.838951
88.796898
79.597885
68.350082
61.072060
58.548389
56.449066
51.842411
46.967350
45.130722
45.563343
44.026161
35.727272
17.766489
-6.880233
-28.764635
-40.178448
-42.794987
-43.308815
-43.438095
-38.304348
-23.359343
0.257988
25.776518
44.824600
54.043133
57.438023
59.272861
57.397305
47.184654
28.585400
6.546847
-13.270307
-29.253485
-45.052773
-64.184746
-85.218445
-104.754860
-121.607918
-135.901581
-147.206726
-154.537827
-156.103500
-149.128845
-131.464539
-102.791840
-63.025585
-11.623663
48.007179
104.697815
145.545471
166.951935
175.670731
178.910583
178.099823
172.586395
164.402451
156.575195
148.495682
135.835327
116.345993
95.033524
81.630112
81.783615
91.371590
99.123108
93.407486
68.772354
29.568995
-13.645530
-52.779942
-86.053123
-114.315796
-137.489090
-155.461487
-169.530579
-181.344437
-191.610031
-199.204895
-197.995392
-174.907028
-118.488129
-34.479687
52.062000
116.064919
150.529099
162.771057
159.977615
143.198425
110.866730
64.877922
13.209636
-34.865810
-74.475403
-103.057373
-117.196892
-116.534676
-105.335342
-84.326073
-46.452415
11.987069
79.180862
134.134842
164.801941
174.989944
174.609650
169.466690
161.377472
151.929489
142.415192
132.604050
121.322403
106.980362
88.249413
66.238571
44.859715
26.677048
9.163166
-12.595474
-40.115051
-70.467628
-99.230370
-121.233711
-129.718414
-119.486137
-93.332230
-62.962948
-39.885944
-26.025896
-16.015947
-6.699349
-0.226964
0.825145
-3.042662
-9.841449
-18.423677
-28.012157
-35.917652
-37.563297
-30.753021
-18.956511
-8.251908
-1.915307
0.672909
1.561682
2.285796
3.213545
3.607365
2.545287
-0.039901
-3.366878
-6.619492
-9.425062
-11.602414
-13.004281
-13.768844
-14.055292
-13.595557
-12.511423
-12.563770
-16.594641
-26.277657
-40.560940
-56.410549
-71.077293
-83.705177
-94.905174
-105.161140
-114.102524
-121.367599
-127.589790
-132.784042
-131.285522
-110.020897
-60.476135
4.042050
54.801804
78.782562
90.184570
104.237610
117.163872
119.964554
114.182739
105.190384
93.404099
79.307327
68.466934
66.498398
72.680672
80.761848
85.003632
84.630486
82.919792
83.115700
85.722778
89.098396
91.329498
91.196068
88.504524
84.144295
79.605293
76.632454
76.972740
81.148178
87.374542
92.946861
97.028900
101.333427
108.258690
119.334854
135.007828
154.449432
175.581375
196.300797
215.636292
233.280197
248.406036
259.328674
264.384613
263.325531
257.301575
246.292282
226.818497
194.309601
148.917084
97.856529
51.265728
16.624998
-3.225720
-9.355779
-5.612003
3.385846
14.794118
27.596903
40.120132
49.221821
52.343483
49.051891
40.436745
27.897617
12.591616
-4.293845
-21.167919
-36.646072
-50.379921
-62.345982
-71.537430
-76.522682
-77.234489
-75.209114
-72.171577
-69.290672
-67.877258
-70.023857
-77.797668
-91.667831
-110.319473
-132.247894
-156.655304
-182.372498
-207.145035
-229.017197
-247.836700
-264.635040
-279.673309
-291.597046
-298.778290
-301.197479
-300.515411
-298.355957
-294.828094
-288.719391
-278.972473
-265.945251
-251.481415
-238.023636
-227.465683
-220.325897
-215.614990
-211.528870
-206.681824
-200.925705
-194.883148
-188.579437
-180.345490
-166.851837
-144.671844
-112.703041
-73.328346
-30.958881
10.664711
49.853695
86.003983
117.610382
141.631683
155.224426
158.084961
152.578537
141.479340
126.120506
106.833618
84.559036
61.554111
40.618153
23.825268
11.981614
5.189363
3.653048
7.574395
16.325277
28.056259
40.221458
50.517147
57.450993
60.252300
58.638748
52.906925
44.090229
33.891235
24.515411
18.373899
17.430202
22.570335
33.605087
49.652477
69.401054
91.359482
114.105598
136.199203
155.669098
169.461075
173.897720
166.822647
149.767197
127.498268
104.830711
83.530693
62.288094
39.584213
15.923573
-6.956765
-27.948017
-46.624931
-62.172382
-73.429573
-79.877533
-82.347008
-83.106201
-84.767021
-88.492699
-93.777229
-99.837189
-106.169701
-112.164154
-117.408638
-121.935364
-125.045158
-124.458397
-117.987740
-106.083549
-91.868187
-78.530914
-67.193916
-57.236824
-47.977188
-39.812019
-34.126312
-32.157990
-33.751858
-37.384506
-41.411179
-44.936260
-47.705788
-49.723907
-50.942547
-51.187401
-50.434147
-48.823456
-46.168732
-41.886513
-35.756172
-28.455576
-21.005335
-13.832264
-6.713234
0.484756
7.488502
14.189656
21.249977
29.733841
39.970570
51.018208
61.434441
70.538239
78.959747
88.016060
98.633423
110.888390
124.263245
138.044464
151.486343
163.604431
172.609406
175.466507
168.936752
152.724976
132.002579
115.084045
106.875504
105.206528
104.911766
104.261169
105.450233
110.260201
117.731667
125.233437
130.102631
131.104706
129.338089
127.098816
125.468857
123.398193
119.302437
113.258728
107.069824
102.095245
97.497841
90.488625
78.192230
60.257385
39.893700
21.221254
5.652703
-7.842521
-19.470779
-27.649080
-31.292162
-31.211283
-28.899460
-25.297836
-21.055916
-16.903578
-13.472015
-11.363455
-11.293901
-13.697111
-18.415195
-25.000303
-32.953083
-41.560989
-50.066963
-58.505409
-68.227318
-81.143013
-98.386551
-119.700768
-143.467392
-166.926697
-187.005432
-201.703445
-210.748688
-214.630325
-213.294922
-206.604401
-195.937988
-184.223404
-174.089569
-166.696289
-162.489990
-162.135620
-165.890793
-172.390747
-178.903397
-182.986923
-183.591858
-180.724243
-174.587753
-165.133743
-151.919632
-133.818588
-109.264336
-78.317223
-45.022953
-16.109833
3.869462
15.373897
21.617550
24.741678
24.675449
20.669863
12.942269
2.829572
-8.008078
-18.020033
-25.600330
-29.168018
-27.946486
-22.617863
-14.863651
-6.322629
1.873838
9.046748
14.931481
19.542381
22.894119
24.939638
25.796980
25.954929
26.416618
29.131674
37.445869
55.210838
83.644875
117.565590
145.315186
155.628876
147.439606
131.927505
122.252686
121.872261
124.933762
125.866798
124.597183
123.513084
123.810242
125.749992
129.827820
136.264267
144.196503
152.011246
158.207565
161.939880
163.167709
162.413986
160.071640
155.607101
147.321960
133.119171
112.077705
85.790367
58.088818
32.943886
12.302525
-4.092955
-17.047096
-26.519760
-31.830368
-32.622864
-29.234859
-22.359699
-12.779900
-1.739963
8.446783
14.822514
15.486902
10.792471
2.709921
-6.591201
-15.547215
-23.340593
-29.737879
-34.799976
-38.603767
-41.075180
-42.120838
-42.001377
-41.467709
-41.433105
-42.468822
-44.492054
-46.826214
-48.641201
-49.556797
-49.949203
-50.566441
-51.548134
-51.579975
-48.113728
-38.976437
-24.528034
-8.538095
3.646442
8.792308
8.109383
5.673887
4.622400
5.373947
6.998007
8.956183
11.361755
14.512175
18.558409
23.213390
27.439528
29.454620
27.325857
19.989368
8.044145
-6.421141
-21.083097
-34.799446
-47.849461
-60.776524
-73.205605
-83.897972
-91.651901
-95.870796
-96.536476
-94.166306
-89.880447
-85.176270
-81.414200
-79.373528
-79.023430
-79.574989
-79.896507
-79.157127
-77.301552
-74.870384
-72.172951
-68.674393
-63.323666
-55.362946
-44.785831
-32.380547
-19.549694
-7.825021
1.687809
8.466597
12.425723
13.843675
13.322858
11.631774
9.575032
7.934603
7.309153
7.937096
9.747271
12.584933
16.395262
21.197645
26.831150
32.759007
38.204990
42.612434
46.369381
51.402878
60.747463
76.696342
98.154922
118.745895
128.448166
120.299400
97.480782
71.999641
53.999847
43.581463
34.960903
26.032888
20.319014
21.234928
28.409313
39.595020
53.177711
67.759727
81.060638
90.811295
96.320389
98.183914
96.771667
92.015419
84.704399
77.064148
71.456848
68.629936
67.507347
66.543701
64.878273
62.287220
58.642452
53.614391
46.646835
37.258797
25.551727
12.380441
-0.964036
-13.171249
-23.244858
-30.838793
-36.351814
-40.377968
-42.970257
-43.796787
-43.044373
-41.619366
-40.323029
-39.365055
-38.803165
-38.898682
-39.876911
-41.755016
-44.504684
-48.143841
-52.648052
-57.865509
-63.495007
-69.118515
-74.356842
-79.204651
-84.278557
-90.524872
-98.448921
-107.548851
-116.493279
-123.876244
-128.894058
-131.372284
-131.141479
-127.488586
-119.457253
-106.857140
-91.096703
-75.089699
-62.095810
-54.128529
-51.055672
-51.047146
-51.872513
-51.996048
-50.955826
-49.140327
-47.167080
-45.132271
-42.193722
-36.872078
-28.007481
-15.788897
-2.060008
10.563536
20.268148
26.890285
31.231201
33.861279
34.813789
33.993099
31.328688
26.617201
19.703222
11.127344
2.421877
-4.671280
-9.352181
-11.902338
-12.811538
-12.221379
-10.310382
-7.777061
-5.576068
-4.308404
-4.102227
-4.980187
-7.118939
-10.713473
-15.618332
-21.138474
-26.270187
-30.235188
-32.738850
-33.734890
