EVENT_NAME: EMILIA_2ND_SHOCK
EVENT_ID: IT-2012-0011
EVENT_DATE_YYYYMMDD: 20120529
EVENT_TIME_HHMMSS: 070002
EVENT_LATITUDE_DEGREE: 44.8417
EVENT_LONGITUDE_DEGREE: 11.0657
EVENT_DEPTH_KM: 8.1
HYPOCENTER_REFERENCE: INGV-CNT_Seismic_Bulletin
MAGNITUDE_W: 6.0
MAGNITUDE_W_REFERENCE: RCMT-INGV
MAGNITUDE_L: 5.8
MAGNITUDE_L_REFERENCE: INGV-CNT_Seismic_Bulletin
FOCAL_MECHANISM: TF
NETWORK: TV
STATION_CODE: MIR04
STATION_NAME: GAVELLO
STATION_LATITUDE_DEGREE: 44.927433
STATION_LONGITUDE_DEGREE: 11.178312
STATION_ELEVATION_M: 
LOCATION: 
SENSOR_DEPTH_M: 
VS30_M/S: 
SITE_CLASSIFICATION_EC8: C*
MORPHOLOGIC_CLASSIFICATION: 
EPICENTRAL_DISTANCE_KM: 13.0
EARTHQUAKE_BACKAZIMUTH_DEGREE: 223.1
DATE_TIME_FIRST_SAMPLE_YYYYMMDD_HHMMSS: 20120529_065927.000
DATE_TIME_FIRST_SAMPLE_PRECISION: milliseconds
SAMPLING_INTERVAL_S: 0.005000
NDATA: 30001
DURATION_S: 150.005
STREAM: HNN
UNITS: cm/s
INSTRUMENT: sensor = Episensor FBA ES-T [Kinemetrics] | digitizer = Unknown [Unknown]
INSTRUMENT_ANALOG/DIGITAL: D
INSTRUMENTAL_FREQUENCY_HZ: 
INSTRUMENTAL_DAMPING: 
FULL_SCALE_G: 
N_BIT_DIGITAL_CONVERTER: 
PGV_CM/S: 26.108773
TIME_PGV_S: 46.285000
BASELINE_CORRECTION: BASELINE REMOVED
FILTER_TYPE: BUTTERWORTH
FILTER_ORDER: 2
LOW_CUT_FREQUENCY_HZ: 0.050
HIGH_CUT_FREQUENCY_HZ: 40.000
LATE/NORMAL_TRIGGERED: NT
DATABASE_VERSION: DYNA 1.0
HEADER_FORMAT: DYNA 1.2
DATA_TYPE: VELOCITY
PROCESSING: manual (Paolucci et al., 2011)
DATA_TIMESTAMP_YYYYMMDD_HHMMSS: 
DATA_LICENSE: CC-BY4_0 (http://creativecommons.org/licenses/by/4.0/)
DATA_CITATION: ESM working group (2015), European Strong-Motion database, version 0.1, Network Activity 3: Networking acceleration networks and SM data users. Project NERA (www.nera-eu.org)
DATA_CREATOR: ESM working group
ORIGINAL_DATA_MEDIATOR_CITATION: Orfeus - European Integrated Data Archive (EIDA) http://www.orfeus-eu.org/eida/
ORIGINAL_DATA_MEDIATOR: Orfeus - European Integrated Data Archive (EIDA)
ORIGINAL_DATA_CREATOR_CITATION: 
ORIGINAL_DATA_CREATOR: network: TV (INGV Experiments Network); owner: Istituto Nazionale di Geofisica e Vulcanologia
USER1: 
USER2: 
USER3: 
USER4: 
USER5: 
[...]
-0.026845
-0.016172
-0.008291
-0.003770
-0.003783
-0.011835
-0.026340
-0.036950
-0.033909
-0.018567
-0.001551
0.006644
0.002109
-0.011709
-0.027156
-0.036546
-0.035895
-0.027645
-0.018336
-0.011659
-0.005927
0.001075
0.007660
0.009647
0.004448
-0.007266
-0.022194
-0.035010
-0.040412
-0.037312
-0.030636
-0.027002
-0.027684
-0.027041
-0.019548
-0.007583
0.000324
-0.001636
-0.012554
-0.027174
-0.037461
-0.036231
-0.025939
-0.019706
-0.027673
-0.045839
-0.062505
-0.071166
-0.072405
-0.067414
-0.055232
-0.034594
-0.005025
0.031731
0.067303
0.085268
0.071058
0.027507
-0.022439
-0.053433
-0.057953
-0.047053
-0.035202
-0.029501
-0.030601
-0.036348
-0.041777
-0.040560
-0.031863
-0.023051
-0.020291
-0.019868
-0.014520
-0.005010
0.000502
-0.002911
-0.012111
-0.021694
-0.029417
-0.036594
-0.048745
-0.070481
-0.091908
-0.088371
-0.043187
0.032391
0.104312
0.138292
0.119577
0.059077
-0.013903
-0.068074
-0.085546
-0.066058
-0.023013
0.023159
0.054887
0.064595
0.052675
0.022916
-0.017542
-0.056333
-0.078512
-0.075902
-0.054080
-0.027190
-0.007793
-0.003157
-0.014170
-0.032240
-0.043488
-0.042607
-0.037991
-0.038661
-0.041768
-0.038054
-0.025259
-0.010972
-0.004249
-0.007588
-0.016037
-0.022141
-0.019773
-0.004124
0.024689
0.055516
0.071237
0.063409
0.038559
0.010210
-0.012370
-0.028396
-0.041788
-0.054328
-0.062079
-0.058312
-0.039510
-0.009756
0.018153
0.027979
0.011745
-0.023018
-0.059550
-0.084504
-0.093512
-0.087199
-0.065929
-0.030070
0.014810
0.054669
0.071706
0.053670
0.002670
-0.058814
-0.095356
-0.083673
-0.031522
0.031136
0.075751
0.089696
0.076287
0.048161
0.020333
0.004411
0.004193
0.014257
0.024437
0.027886
0.022600
0.005352
-0.026967
-0.065785
-0.091017
-0.091441
-0.077781
-0.068407
-0.069656
-0.076055
-0.080021
-0.073767
-0.050899
-0.015625
0.015083
0.026861
0.023894
0.024901
0.043875
0.077213
0.108263
0.120527
0.106668
0.070594
0.025455
-0.011904
-0.028792
-0.021324
0.007661
0.052553
0.104456
0.149411
0.172949
0.169261
0.144583
0.110546
0.076637
0.049210
0.030708
0.015836
-0.004854
-0.032359
-0.054471
-0.057767
-0.041948
-0.019546
-0.003561
0.002075
0.002329
0.005052
0.014128
0.025397
0.028381
0.014680
-0.011725
-0.033387
-0.032126
-0.002823
0.045566
0.097685
0.137830
0.154251
0.143923
0.113386
0.073896
0.036766
0.012195
0.007832
0.025057
0.056554
0.087969
0.103727
0.096203
0.072777
0.052141
0.050006
0.065976
0.083576
0.084001
0.061609
0.028355
0.005297
0.009137
0.042265
0.090769
0.132799
0.154406
0.160005
0.165790
0.181744
0.201416
0.209765
0.197856
0.168334
0.130835
0.096418
0.074511
0.068795
0.073956
0.081111
0.087396
0.095008
0.100801
0.093794
0.067508
0.031888
0.006840
0.002970
0.012877
0.021251
0.018356
0.002928
-0.021335
-0.047128
-0.066169
-0.077598
-0.091702
-0.118685
-0.153493
-0.175861
-0.165918
-0.118386
-0.044772
0.032510
0.088707
0.107200
0.088403
0.050057
0.016881
0.006805
0.023901
0.060719
0.103278
0.134249
0.138696
0.113203
0.068787
0.022445
-0.013538
-0.033961
-0.038394
-0.032998
-0.031368
-0.045255
-0.072901
-0.099774
-0.112255
-0.109602
-0.101480
-0.096625
-0.098258
-0.107936
-0.125928
-0.145746
-0.153764
-0.138644
-0.101472
-0.056428
-0.020798
-0.002238
0.005215
0.014232
0.036290
0.077297
0.133698
0.194185
0.250452
0.302814
0.351362
0.387699
0.401741
0.392989
0.368864
0.334264
0.289453
0.236975
0.182965
0.129161
0.068527
-0.006719
-0.093163
-0.174440
-0.230524
-0.247669
-0.224109
-0.172903
-0.119576
-0.091038
-0.098879
-0.129367
-0.153786
-0.152645
-0.129017
-0.101727
-0.089471
-0.097025
-0.113766
-0.125958
-0.127200
-0.118918
-0.108570
-0.107331
-0.122268
-0.145429
-0.151930
-0.116880
-0.038695
0.057314
0.137491
0.178199
0.171812
0.125174
0.054021
-0.026453
-0.108662
-0.187927
-0.250222
-0.271300
-0.233181
-0.141359
-0.028608
0.056703
0.074672
0.015262
-0.099474
-0.226889
-0.316559
-0.327343
-0.249872
-0.115768
0.023847
0.132336
0.197345
0.216943
0.192864
0.137537
0.077406
0.043124
0.051227
0.091313
0.131794
0.141359
0.109837
0.055095
0.014255
0.021867
0.081443
0.154315
0.186623
0.153058
0.075061
0.000050
-0.036593
-0.033520
-0.013128
0.003385
0.007477
-0.001401
-0.021413
-0.050714
-0.089295
-0.136609
-0.186106
-0.225624
-0.245135
-0.242914
-0.224790
-0.200921
-0.181519
-0.167181
-0.142115
-0.085036
0.008793
0.117698
0.206100
0.245929
0.229448
0.168620
0.083455
-0.011018
-0.103666
-0.176378
-0.207599
-0.192214
-0.149527
-0.105687
-0.074762
-0.064458
-0.091075
-0.167731
-0.273506
-0.353392
-0.360706
-0.291373
-0.172803
-0.033561
0.103324
0.209131
0.257712
0.252423
0.232296
0.244532
0.309233
0.404508
0.484518
0.513882
0.483876
0.407708
0.315379
0.242954
0.209931
0.208223
0.214409
0.205716
0.167611
0.099472
0.017869
-0.051886
-0.093322
-0.110370
-0.125801
-0.170762
-0.265249
-0.395425
-0.514951
-0.578537
-0.572555
-0.517074
-0.449868
-0.406243
-0.405219
-0.451237
-0.540309
-0.655000
-0.758350
-0.805240
-0.767591
-0.650014
-0.480157
-0.286808
-0.089709
0.096248
0.257262
0.384495
0.478698
0.548237
0.603197
0.652017
0.701559
0.756278
0.812997
0.856442
0.864658
0.820858
0.720290
0.572269
0.404702
0.266582
0.214040
0.278765
0.440843
0.630659
0.762068
0.776319
0.670501
0.493816
0.314889
0.185216
0.124336
0.126370
0.172814
0.244690
0.327130
0.401949
0.445696
0.446481
0.418011
0.387890
0.372866
0.370807
0.375317
0.387040
0.404451
0.413908
0.401597
0.372932
0.349854
0.350165
0.376731
0.420029
0.461330
0.481427
0.478736
0.476840
0.505273
0.570146
0.645901
0.696708
0.707236
0.696300
0.701348
0.746349
0.821584
0.892759
0.928814
0.921926
0.883135
0.821947
0.736458
0.627142
0.509373
0.399780
0.300355
0.211309
0.150789
0.145210
0.200341
0.288208
0.360879
0.376881
0.324012
0.229245
0.150554
0.149198
0.253265
0.438707
0.644716
0.807734
0.887858
0.878278
0.797359
0.671893
0.532634
0.421728
0.382719
0.428450
0.522517
0.600622
0.617597
0.582180
0.550342
0.579698
0.683928
0.831744
0.986242
1.132517
1.265956
1.372386
1.435740
1.459249
1.462505
1.455509
1.425944
1.354331
1.238164
1.102028
0.985931
0.922111
0.916935
0.950389
0.993121
1.018976
0.999498
0.903490
0.716356
0.455209
0.160271
-0.123332
-0.352432
-0.486761
-0.502265
-0.407468
-0.239373
-0.042011
0.153359
0.335705
0.509299
0.686254
0.880631
1.097227
1.320403
1.516178
1.645266
1.678415
1.610826
1.470344
1.310036
1.183765
1.120953
1.119137
1.152693
1.184506
1.180188
1.130743
1.067215
1.041584
1.083801
1.175596
1.266571
1.317178
1.323149
1.297992
1.245202
1.157091
1.033485
0.893191
0.764275
0.661546
0.576143
0.490323
0.399001
0.311848
0.238094
0.178886
0.133872
0.106272
0.101962
0.126636
0.178647
0.244376
0.305439
0.347818
0.364359
0.359086
0.354338
0.386472
0.482640
0.631559
0.776587
0.846638
0.799671
0.639278
0.402617
0.145228
-0.074412
-0.223005
-0.316222
-0.406190
-0.538065
-0.717292
-0.914695
-1.092877
-1.222344
-1.282750
-1.263815
-1.169706
-1.018586
-0.830329
-0.613193
-0.372989
-0.135761
0.057531
0.184156
0.251523
0.277418
0.279384
0.282669
0.316072
0.394336
0.515533
0.674238
0.863671
1.060561
1.220147
1.300857
1.294350
1.222410
1.105954
0.947653
0.742923
0.493282
0.205394
-0.110400
-0.433648
-0.733569
-0.982579
-1.168228
-1.290405
-1.353581
-1.366091
-1.339189
-1.278683
-1.178770
-1.029395
-0.834410
-0.620726
-0.420180
-0.240680
-0.063808
0.130079
0.346442
0.585135
0.844060
1.098620
1.285916
1.333967
1.222514
1.010773
0.800932
0.681281
0.697496
0.850794
1.105210
1.397106
1.645310
1.768603
1.717863
1.507486
1.214601
0.940488
0.765389
0.721269
0.785844
0.903782
1.027335
1.139738
1.240164
1.315217
1.335642
1.283091
1.174117
1.056127
0.983267
0.988870
1.066645
1.176200
1.272526
1.330112
1.341789
1.307272
1.231463
1.130650
1.031675
0.959396
0.928733
0.953774
1.055428
1.243449
1.487091
1.716662
1.868085
1.928295
1.937341
1.955123
2.026603
2.157291
2.304007
2.396292
2.381598
2.258723
2.073024
1.880019
1.711810
1.573810
1.461510
1.369727
1.288070
1.202526
1.114999
1.056647
1.070224
1.180930
1.387238
1.668868
1.993611
2.319670
2.600796
2.801863
2.922381
3.004309
3.104471
3.251503
3.426042
3.575832
3.649082
3.624744
3.523013
3.390149
3.269694
3.180751
3.112142
3.029204
2.894187
2.693019
2.439440
2.148485
1.815420
1.425393
0.975531
0.481909
-0.033390
-0.556219
-1.077681
-1.585608
-2.068326
-2.520427
-2.934045
-3.288103
-3.556072
-3.727943
-3.823301
-3.880245
-3.932511
-3.999328
-4.087815
-4.192938
-4.298685
-4.385388
-4.432059
-4.415628
-4.321247
-4.155345
-3.941917
-3.703803
-3.446542
-3.161155
-2.845447
-2.516676
-2.197222
-1.895068
-1.600999
-1.298449
-0.983303
-0.685037
-0.459418
-0.345965
-0.332301
-0.367693
-0.409547
-0.444687
-0.470435
-0.480819
-0.477170
-0.471904
-0.474995
-0.487603
-0.509695
-0.543852
-0.587329
-0.622889
-0.622363
-0.565923
-0.457914
-0.315356
-0.140999
0.081472
0.364362
0.699022
1.068361
1.469596
1.911173
2.387291
2.869836
3.321272
3.696983
3.944851
4.030322
3.969695
3.831608
3.699407
3.628957
3.636762
3.704395
3.774926
3.769310
3.640345
3.408831
3.139027
2.890045
2.692592
2.555619
2.479740
2.455040
2.450250
2.426108
2.369808
2.303243
2.250647
2.205653
2.136390
2.027236
1.912354
1.856081
1.901917
2.053153
2.296935
2.624976
3.021650
3.443833
3.826881
4.110421
4.253064
4.230272
4.035471
3.689562
3.237937
2.726555
2.183726
1.628123
1.084603
0.584365
0.152356
-0.203714
-0.497193
-0.762797
-1.051826
-1.414255
-1.875743
-2.428448
-3.038359
-3.663650
-4.277629
-4.876528
-5.463261
-6.031847
-6.571977
-7.079840
-7.557870
-8.004927
-8.407639
-8.746372
-9.018400
-9.251816
-9.484710
-9.730304
-9.968275
-10.164930
-10.294730
-10.348410
-10.330200
-10.248180
-10.107390
-9.917481
-9.701509
-9.482483
-9.262176
-9.027910
-8.778588
-8.530015
-8.295350
-8.072250
-7.849973
-7.620632
-7.383654
-7.146509
-6.921150
-6.716179
-6.534853
-6.382207
-6.269606
-6.207980
-6.193651
-6.198766
-6.177503
-6.086020
-5.901951
-5.631661
-5.302883
-4.948943
-4.595117
-4.254402
-3.931641
-3.629770
-3.353516
-3.108192
-2.894140
-2.703614
-2.523487
-2.336798
-2.121899
-1.857411
-1.531160
-1.142546
-0.700531
-0.230592
0.210048
0.535612
0.674287
0.618108
0.422381
0.158376
-0.116204
-0.345427
-0.467821
-0.441838
-0.270759
0.006746
0.345548
0.709181
1.061398
1.350136
1.506964
1.470931
1.218095
0.766989
0.156393
-0.578841
-1.414910
-2.331297
-3.298766
-4.278090
-5.233907
-6.139447
-6.953424
-7.598414
-7.984606
-8.070553
-7.898090
-7.559480
-7.136880
-6.682685
-6.238701
-5.840711
-5.498961
-5.193601
-4.900859
-4.618613
-4.359401
-4.124565
-3.898911
-3.671094
-3.450964
-3.272327
-3.183495
-3.217896
-3.361719
-3.562611
-3.776586
-3.993130
-4.210321
-4.401843
-4.518639
-4.517349
-4.388467
-4.164344
-3.894128
-3.606938
-3.310574
-3.023587
-2.787664
-2.644737
-2.612003
-2.678354
-2.824622
-3.049885
-3.370809
-3.796901
-4.320676
-4.928715
-5.608223
-6.344257
-7.116946
-7.897464
-8.643108
-9.300430
-9.814390
-10.129520
-10.187640
-9.947600
-9.424111
-8.696384
-7.861624
-6.983270
-6.088717
-5.198218
-4.335286
-3.513274
-2.730398
-1.987920
-1.308743
-0.727013
-0.251845
0.156305
0.565223
1.022081
1.517697
1.984734
2.328596
2.476441
2.408213
2.144314
1.714048
1.142469
0.455023
-0.322284
-1.169937
-2.076659
-3.034709
-4.030734
-5.020711
-5.895246
-6.487686
-6.660085
-6.399775
-5.819450
-5.066805
-4.252949
-3.453061
-2.737069
-2.182736
-1.858346
-1.792298
-1.966627
-2.339004
-2.854291
-3.440275
-4.022949
-4.549625
-4.971256
-5.203518
-5.143582
-4.747678
-4.077004
-3.252994
-2.378044
-1.504996
-0.657663
0.149225
0.908872
1.620948
2.283968
2.890580
3.425482
3.866729
4.197922
4.422220
4.555606
4.601422
4.538444
4.337869
3.985531
3.489379
2.883210
2.234618
1.637188
1.170526
0.855712
0.656282
0.526152
0.446073
0.412576
0.411441
0.415567
0.400354
0.351146
0.259028
0.118967
-0.060621
-0.248438
-0.402203
-0.496985
-0.538245
-0.547821
-0.544457
-0.536648
-0.525219
-0.509152
-0.491115
-0.478388
-0.478588
-0.495422
-0.528520
-0.575645
-0.633657
-0.698679
-0.767523
-0.837799
-0.905777
-0.968334
-1.031153
-1.114126
-1.245515
-1.448319
-1.730372
-2.085758
-2.504284
-2.978810
-3.504616
-4.075128
-4.681966
-5.319915
-5.983836
-6.640263
-7.190368
-7.492748
-7.472538
-7.198529
-6.804616
-6.353693
-5.832505
-5.246686
-4.646863
-4.075950
-3.549998
-3.082977
-2.686440
-2.344106
-2.011614
-1.648210
-1.244401
-0.819383
-0.396231
0.018368
0.433947
0.862561
1.308053
1.764700
2.220680
2.663203
3.083925
3.481951
3.865113
4.249977
4.655718
5.092591
5.557325
6.042469
6.549137
7.090430
7.687104
8.362143
9.134391
10.012300
10.993800
12.071980
13.238380
14.480410
15.777060
17.098980
18.415609
19.702120
20.933580
22.067671
23.039221
23.783800
24.273090
24.529409
24.612539
24.596411
24.549629
24.521570
24.538500
24.612471
24.750460
24.951059
25.197170
25.458879
25.704140
25.906330
26.045811
26.108770
26.087299
25.981461
25.798229
25.546329
25.234600
24.876921
24.494301
24.108130
23.732090
23.371229
23.024771
22.685390
22.335270
21.946280
21.487940
20.936340
20.275101
19.491831
18.579969
17.544241
16.399151
15.159970
13.836800
12.438430
10.980440
9.486552
7.980565
6.477988
4.986208
3.512068
2.068471
0.673608
-0.656118
-1.913525
-3.103643
-4.240972
-5.342601
-6.420676
-7.478320
-8.511730
-9.516358
-10.490770
-11.433670
-12.335400
-13.169660
-13.893020
-14.456530
-14.823170
-14.977970
-14.924640
-14.675380
-14.245360
-13.657300
-12.949150
-12.173020
-11.382600
-10.619710
-9.912310
-9.281707
-8.747539
-8.324744
-8.016973
-7.813883
-7.694756
-7.634848
-7.608901
-7.590636
-7.552764
-7.471138
-7.330856
-7.129749
-6.877163
-6.589908
-6.288647
-5.995453
-5.730919
-5.510467
-5.341011
-5.218434
-5.126565
-5.039414
-4.926562
-4.758537
-4.510274
-4.163269
-3.706472
-3.135944
-2.454948
-1.676602
-0.829297
0.040192
0.874305
1.623141
2.260633
2.784786
3.202440
3.513880
3.711801
3.791419
3.756635
3.616895
3.383770
3.072909
2.705761
2.306373
1.894638
1.479107
1.055272
0.612808
0.143922
-0.355264
-0.886112
-1.446933
-2.033976
-2.643653
-3.268879
-3.891171
-4.481110
-5.011527
-5.470868
-5.863523
-6.199492
-6.485677
-6.725562
-6.924623
-7.095254
-7.256044
-7.424803
-7.611726
-7.818782
-8.043463
-8.281992
-8.530612
-8.785324
-9.041261
-9.293432
-9.537549
-9.768393
-9.977825
-10.156610
-10.298880
-10.403910
-10.473070
-10.506640
-10.504210
-10.466770
-10.395820
-10.289570
-10.140900
-9.941052
-9.685961
-9.378789
-9.026097
-8.631299
-8.191218
-7.698051
-7.143609
-6.522293
-5.832071
-5.074639
-4.256617
-3.393570
-2.516238
-1.671554
-0.907929
-0.247916
0.327504
0.861882
1.387914
1.912473
2.433779
2.961030
3.512331
4.100990
4.727157
5.377670
6.033194
6.679884
7.315378
7.942722
8.559713
9.156226
9.722519
10.257870
10.768340
11.255830
11.708280
12.099240
12.400520
12.599990
12.706100
12.734360
12.695150
12.597800
12.459550
12.303090
12.147030
12.002540
11.876050
11.770770
11.686250
11.618890
11.562070
11.505600
11.437120
11.345040
11.220040
11.055270
10.847470
10.597140
10.304610
9.963471
9.557756
9.065824
8.467320
7.749983
6.915349
5.980322
4.971805
3.918061
2.844910
1.778435
0.745413
-0.234277
-1.155394
-2.025842
-2.859323
-3.671773
-4.482451
-5.311905
-6.173859
-7.068376
-7.983310
-8.901270
-9.804891
-10.677830
-11.503500
-12.263100
-12.932190
-13.478510
-13.870100
-14.095210
-14.175760
-14.156410
-14.079540
-13.971460
-13.847750
-13.724370
-13.621020
-13.556310
-13.542160
-13.582200
-13.672300
-13.800300
-13.946140
-14.085880
-14.198970
-14.273280
-14.304900
-14.295530
-14.250300
-14.175640
-14.077930
-13.963460
-13.838760
-13.709770
-13.580000
-13.447910
-13.302260
-13.115030
-12.838970
-12.420750
-11.832920
-11.106340
-10.328200
-9.591002
-8.931364
-8.320101
-7.710739
-7.086071
-6.456737
-5.833751
-5.216185
-4.597134
-3.968384
-3.319245
-2.637924
-1.916941
-1.156885
-0.365847
0.443852
1.259691
2.071761
2.872119
3.650154
4.386764
5.052360
5.612748
6.041700
6.332144
6.496864
6.558376
6.537912
6.452676
6.320077
6.160925
5.997811
5.851637
5.739838
5.675939
5.667239
5.709473
5.783586
5.861020
5.914982
5.928532
5.895576
5.817840
5.701137
5.552448
5.378448
5.185429
4.980053
4.769449
4.559442
4.352103
4.144938
3.932594
3.710133
3.476002
3.232796
2.985012
2.735266
2.482434
2.224693
1.966794
1.726225
1.531343
1.408703
1.366012
1.384244
1.428206
1.468753
1.497122
1.520234
1.547104
1.582094
1.626875
1.683684
1.756245
1.849037
1.965104
2.102301
2.249574
2.386204
2.486150
2.526371
2.494265
2.388850
2.214853
1.975605
1.671723
1.305695
0.886205
0.427945
-0.051409
-0.534091
-1.004923
-1.454325
-1.880206
-2.287277
-2.684145
-3.079262
-3.477137
-3.876619
-4.272405
-4.658913
-5.033265
-5.394129
-5.737501
-6.054120
-6.330934
-6.554864
-6.716766
-6.814515
-6.853640
-6.845201
-6.802868
-6.740739
-6.671521
-6.604907
-6.546748
-6.498873
-6.459200
-6.422654
-6.382968
-6.334232
-6.271307
-6.189331
-6.083343
-5.949187
-5.785392
-5.594367
-5.381305
-5.149458
-4.892444
-4.588706
-4.205225
-3.714450
-3.120720
-2.478480
-1.876983
-1.389579
-1.029580
-0.759581
-0.541674
-0.366869
-0.236705
-0.135110
-0.028935
0.113111
0.311086
0.576975
0.915774
1.321077
1.775133
2.256735
2.747655
3.231513
3.691590
4.115112
4.500433
4.857717
5.200867
5.538404
5.871122
6.195514
6.506950
6.800162
7.068234
7.301468
7.487762
7.615521
7.677423
7.672603
7.606746
7.490522
7.336328
7.154569
6.952679
6.737828
6.518844
6.303622
6.095525
5.893910
5.697085
5.503069
5.308576
5.109191
4.900416
4.677893
4.437173
4.173933
3.884606
3.567131
3.221538
2.849754
2.453731
2.032338
1.579713
1.087469
0.549725
-0.032742
-0.652123
-1.296593
-1.953455
-2.609162
-3.246605
-3.843891
-4.378177
-4.833661
-5.209109
-5.519588
-5.790231
-6.045509
-6.300745
-6.560107
-6.820088
-7.074867
-7.320568
-7.556404
-7.782065
-7.993034
-8.177394
-8.317432
-8.396376
-8.406676
-8.353858
-8.252518
-8.118066
-7.961910
-7.792604
-7.618535
-7.448569
-7.291926
-7.158840
-7.060324
-7.004687
-6.992578
-7.015934
-7.062695
-7.122207
-7.186264
-7.247371
-7.298923
-7.337809
-7.365689
-7.387231
-7.407742
-7.432643
-7.468238
-7.521805
-7.599897
-7.705589
-7.836940
-7.988116
-8.151810
-8.320485
-8.486263
-8.641083
-8.777507
-8.889389
-8.972432
-9.024979
-9.048322
-9.045674
-9.020398
-8.974884
-8.910749
-8.829858
-8.734860
-8.628555
-8.512923
-8.388610
-8.254229
-8.105534
-7.936024
-7.739545
