EVENT_NAME: EMILIA_2ND_SHOCK
EVENT_ID: IT-2012-0011
EVENT_DATE_YYYYMMDD: 20120529
EVENT_TIME_HHMMSS: 070002
EVENT_LATITUDE_DEGREE: 44.8417
EVENT_LONGITUDE_DEGREE: 11.0657
EVENT_DEPTH_KM: 8.1
HYPOCENTER_REFERENCE: INGV-CNT_Seismic_Bulletin
MAGNITUDE_W: 6.0
MAGNITUDE_W_REFERENCE: RCMT-INGV
MAGNITUDE_L: 5.8
MAGNITUDE_L_REFERENCE: INGV-CNT_Seismic_Bulletin
FOCAL_MECHANISM: TF
NETWORK: TV
STATION_CODE: MIR05
STATION_NAME: POGGIO RUSCO
STATION_LATITUDE_DEGREE: 44.980800
STATION_LONGITUDE_DEGREE: 11.107190
STATION_ELEVATION_M: 
LOCATION: 
SENSOR_DEPTH_M: 
VS30_M/S: 
SITE_CLASSIFICATION_EC8: C*
MORPHOLOGIC_CLASSIFICATION: 
EPICENTRAL_DISTANCE_KM: 15.8
EARTHQUAKE_BACKAZIMUTH_DEGREE: 192.0
DATE_TIME_FIRST_SAMPLE_YYYYMMDD_HHMMSS: 20120529_065929.000
DATE_TIME_FIRST_SAMPLE_PRECISION: milliseconds
SAMPLING_INTERVAL_S: 0.005000
NDATA: 30001
DURATION_S: 150.005
STREAM: HNE
UNITS: cm/s^2
INSTRUMENT: sensor = Episensor FBA ES-T [Kinemetrics] | digitizer = Unknown [Unknown]
INSTRUMENT_ANALOG/DIGITAL: D
INSTRUMENTAL_FREQUENCY_HZ: 
INSTRUMENTAL_DAMPING: 
FULL_SCALE_G: 
N_BIT_DIGITAL_CONVERTER: 
PGA_CM/S^2: 173.867103
TIME_PGA_S: 45.625000
BASELINE_CORRECTION: BASELINE REMOVED
FILTER_TYPE: BUTTERWORTH
FILTER_ORDER: 2
LOW_CUT_FREQUENCY_HZ: 0.070
HIGH_CUT_FREQUENCY_HZ: 40.000
LATE/NORMAL_TRIGGERED: NT
DATABASE_VERSION: DYNA 1.0
HEADER_FORMAT: DYNA 1.2
DATA_TYPE: ACCELERATION
PROCESSING: manual (Paolucci et al., 2011)
DATA_TIMESTAMP_YYYYMMDD_HHMMSS: 
DATA_LICENSE: CC-BY4_0 (http://creativecommons.org/licenses/by/4.0/)
DATA_CITATION: ESM working group (2015), European Strong-Motion database, version 0.1, Network Activity 3: Networking acceleration networks and SM data users. Project NERA (www.nera-eu.org)
DATA_CREATOR: ESM working group
ORIGINAL_DATA_MEDIATOR_CITATION: Orfeus - European Integrated Data Archive (EIDA) http://www.orfeus-eu.org/eida/
ORIGINAL_DATA_MEDIATOR: Orfeus - European Integrated Data Archive (EIDA)
ORIGINAL_DATA_CREATOR_CITATION: 
ORIGINAL_DATA_CREATOR: network: TV (INGV Experiments Network); owner: Istituto Nazionale di Geofisica e Vulcanologia
USER1: 
USER2: 
USER3: 
USER4: 
USER5: 
[...]
3.047028
0.089164
-2.841863
-3.290535
-1.287497
1.053851
1.892543
1.274597
0.420233
0.008463
-0.139899
-0.146279
0.073730
0.198385
-0.276601
-1.246427
-2.133560
-2.574066
-2.451355
-1.776897
-0.962655
-0.471830
0.120094
1.673160
3.725657
4.542964
3.482874
1.909676
1.146949
0.809172
-0.209062
-2.015088
-3.421587
-2.827173
0.373060
4.482662
6.229079
3.962997
-0.285824
-2.944981
-2.722453
-1.441402
-1.402913
-2.908618
-4.455000
-4.516555
-2.739395
-0.007139
2.033403
1.976459
0.076239
-1.557854
-1.126558
0.573179
1.087292
-0.347817
-1.708867
-0.957534
1.422400
3.444371
4.059718
3.691917
3.016996
2.066688
0.440515
-2.061068
-5.006069
-7.212895
-7.222716
-4.479935
-0.170594
3.495958
5.086734
4.949387
4.180733
2.876546
0.285886
-3.366505
-6.281999
-6.562543
-3.955791
-0.250395
2.142036
2.305001
1.347380
0.708403
0.491018
-0.050983
-1.008126
-1.767311
-1.965655
-1.435666
0.151094
2.502059
4.186863
3.842076
1.648581
-0.675354
-0.994834
1.815969
6.335163
8.573146
5.315989
-2.016684
-8.166965
-8.942202
-4.650635
0.925957
4.136455
4.124984
2.610342
1.531674
1.089617
0.232965
-1.309529
-2.442935
-2.245143
-1.260442
-1.014176
-2.431909
-4.520006
-4.843202
-2.364221
0.411441
0.007855
-3.262866
-5.422809
-4.003337
-0.761579
1.426253
2.264806
3.325829
4.888782
5.036653
2.133183
-2.361640
-4.618235
-2.622771
1.409975
3.871911
3.882311
3.303796
3.735508
4.865582
5.243139
3.652944
-0.127070
-5.028114
-8.787731
-9.100711
-5.492613
-0.093973
3.715154
3.785511
0.739265
-2.706281
-3.828602
-1.771986
1.757558
3.817033
3.143811
1.403380
0.606332
-0.013370
-2.603724
-5.871397
-4.694825
2.769767
10.421914
10.853419
4.492825
-2.233104
-5.676367
-6.989555
-6.762878
-3.084863
4.067858
10.283436
10.506382
4.042532
-4.624032
-9.132289
-6.439827
-0.277939
2.144153
-1.279411
-4.435211
-1.080202
6.087624
8.398919
2.480692
-5.971838
-10.313625
-10.353562
-9.651977
-8.860351
-5.207957
1.943224
8.140037
8.225307
2.423915
-3.660004
-4.637261
0.006214
5.998217
8.123276
4.832090
-0.217983
-1.920618
0.808103
4.244663
4.413335
1.286041
-1.857884
-2.512378
-1.407547
-0.846793
-1.615912
-1.997808
0.242058
4.472352
6.316238
2.039752
-5.883846
-9.780484
-4.889205
4.699379
10.023322
6.517115
-2.620877
-11.337060
-15.788209
-14.610487
-8.135702
0.607952
6.428469
5.875180
0.209626
-6.150252
-9.362749
-8.143349
-3.396252
2.749577
7.717984
9.668002
8.634742
6.332365
4.618817
3.683960
1.782024
-2.112038
-5.429110
-3.671990
4.051883
12.344928
14.101034
7.835911
-0.920957
-5.615453
-4.798403
-2.273160
-2.024498
-3.495147
-2.614859
2.180335
6.299376
3.135414
-7.976821
-19.495579
-22.373098
-14.499507
-2.389969
4.958166
4.057733
-1.021443
-4.406150
-4.904012
-5.729191
-8.718802
-10.861035
-7.690249
0.896667
9.624323
12.178414
6.378606
-3.298719
-8.337307
-3.638701
7.336671
16.484903
19.531256
18.690109
17.715809
17.353760
16.108538
12.581637
6.137428
-2.411342
-10.103814
-13.601109
-12.208437
-8.171543
-4.176583
-1.845087
-2.295653
-5.972990
-11.056570
-13.650679
-11.118407
-4.911592
0.764511
2.865734
1.461569
-1.765296
-5.494195
-8.704455
-10.164691
-9.297779
-6.754372
-3.356120
0.577515
4.177033
5.348256
2.589094
-2.257772
-4.302160
0.013852
9.030426
17.129942
19.794374
17.220013
13.036436
9.683737
6.043174
0.373266
-5.797837
-8.522079
-5.820442
0.042460
4.643587
5.029383
1.704833
-1.887276
-2.428100
-0.315878
0.816934
-1.203008
-4.614581
-6.760978
-8.065949
-11.433620
-17.733641
-23.121731
-21.747671
-11.174727
4.717823
17.869471
21.586500
15.420826
5.312671
-1.716451
-3.354267
-2.243979
-1.457320
-1.326800
-0.352545
2.414275
6.189849
9.157688
10.345649
10.486554
10.688597
10.894316
9.997783
6.970898
1.936391
-3.377860
-6.555680
-6.613205
-5.302020
-5.563501
-8.310519
-11.543315
-13.137533
-13.485313
-14.285623
-15.181710
-13.279058
-6.881631
1.369490
6.385160
5.595054
1.390736
-1.446845
-0.017910
5.138477
11.287588
15.419558
16.042831
13.949190
10.898565
7.609288
3.592345
-1.101710
-4.644613
-4.682765
-1.283434
1.961517
1.108600
-3.663028
-7.845936
-7.269611
-2.233582
3.278490
5.531009
3.384618
-2.263624
-9.472632
-15.479354
-17.744566
-15.753745
-10.733690
-3.517972
5.453588
13.916585
17.880741
15.028342
7.312350
-0.070818
-2.307613
1.461455
7.367826
10.228828
8.442139
4.674933
1.382599
-2.233070
-7.513136
-12.820619
-14.909738
-12.699070
-7.759142
-1.771662
4.324192
9.074755
11.018038
10.665391
9.892548
9.184851
7.303900
4.037867
1.500339
1.667574
3.621299
4.224306
1.378342
-3.945522
-8.965843
-11.660488
-12.124743
-12.336913
-14.110354
-16.315573
-15.230138
-8.770270
0.687734
8.551230
11.867242
10.202716
4.535032
-2.894229
-8.713578
-10.307386
-7.509422
-1.990366
4.264400
9.634906
13.393988
16.366009
19.823141
23.030510
23.509281
20.353361
15.430271
10.699265
6.041466
0.624067
-4.734044
-8.039537
-8.904069
-9.542001
-12.558723
-18.419680
-25.207018
-30.240625
-31.711851
-29.315708
-24.054571
-17.343109
-9.834561
-1.588505
6.369051
11.848268
13.435882
11.816332
8.931153
6.381213
4.658798
3.458292
2.620963
2.907863
5.489114
10.245844
14.802871
15.777744
11.622923
4.616875
-0.558389
-1.092352
1.236236
2.409712
1.087336
-0.136453
1.413546
4.924346
6.986551
5.039326
-0.491466
-6.881065
-11.500919
-13.542603
-13.720350
-12.879843
-11.109513
-8.045459
-4.209028
-1.826543
-3.041863
-6.965386
-10.040991
-9.917800
-7.587607
-5.223689
-3.164801
-0.073097
4.329633
8.225869
10.044367
10.508727
11.335610
12.665342
12.934974
11.480760
10.088223
10.760798
12.719858
13.135371
10.602451
6.490455
2.558790
-1.407707
-6.629603
-12.942796
-18.549967
-21.694651
-21.722549
-19.063570
-14.953791
-10.502430
-5.458884
1.238648
9.106234
15.229822
16.788303
13.902618
8.882276
3.585970
-1.056115
-4.269138
-5.823421
-6.072060
-4.831443
-1.508947
3.379806
8.027544
11.032780
12.616375
13.836626
15.058206
15.463062
13.713145
9.122713
2.703873
-2.976212
-5.505690
-4.449654
-1.567671
0.489615
-0.266847
-4.143785
-9.530779
-13.777712
-15.055150
-13.856440
-12.374257
-11.836915
-10.751633
-6.649741
0.632512
8.527324
14.525821
18.131655
19.755623
18.880947
14.294695
5.915338
-4.176618
-12.534398
-15.978115
-12.946243
-4.224453
7.349661
18.399326
26.446882
29.891472
27.677774
20.352552
10.842370
2.620051
-2.563227
-4.165572
-1.555212
4.867762
12.208287
16.587902
15.993344
10.840771
2.335652
-8.420200
-19.557755
-27.991402
-31.185381
-29.432947
-25.479660
-21.645517
-18.054861
-13.845590
-9.128392
-5.019687
-2.234965
-0.498000
0.815438
2.228316
4.129055
6.201013
7.179762
6.382026
4.993731
4.399551
3.930508
1.903165
-1.894686
-6.466170
-11.656515
-18.159224
-25.359209
-30.133879
-28.555305
-19.528990
-6.958388
2.695843
5.655845
3.004306
-1.931953
-6.420857
-8.786396
-8.683315
-7.471260
-6.503465
-4.823487
-0.040385
8.294145
17.249622
22.715509
22.423515
16.793200
7.568640
-3.744567
-15.784160
-25.904903
-30.170637
-26.265989
-16.439951
-6.414313
-0.768763
0.231815
-0.760632
-1.644241
-2.100061
-2.136358
-1.011341
1.833159
5.613003
8.777311
10.458161
10.842052
10.669879
11.056791
13.045778
16.431126
19.502308
20.599573
19.632727
17.736132
15.969538
14.812428
14.046276
12.210321
6.978902
-2.566171
-14.067003
-23.326944
-27.956959
-28.796949
-27.321728
-22.873049
-14.034019
-2.510229
6.122114
6.638593
-1.238884
-13.025347
-23.753176
-31.306854
-36.061363
-38.557659
-38.093906
-33.622520
-26.110542
-19.408945
-17.339178
-19.456429
-21.142651
-18.723007
-13.140757
-7.801650
-4.259567
-1.367745
1.985954
4.909028
5.805073
4.822600
4.122843
5.478179
7.873032
7.936085
2.795592
-7.485654
-19.399471
-27.430380
-27.518005
-20.419170
-10.728731
-1.767567
7.333651
18.719566
31.596331
42.379570
48.133713
48.587029
45.448738
40.979214
36.692558
32.224876
25.723902
16.284712
5.653155
-3.221899
-8.502978
-9.505999
-5.946081
1.215824
8.984683
13.678150
13.098055
7.628108
0.099278
-5.476882
-6.147745
-1.669627
5.752227
12.792595
16.422426
15.312442
10.302901
3.220099
-4.558748
-12.181445
-18.628002
-22.727770
-23.701942
-21.111818
-14.661975
-4.991545
5.573140
14.234328
19.791267
22.531958
22.504814
19.722710
15.989318
14.311249
15.860287
18.978786
21.548447
23.051714
24.042603
24.999283
26.337172
28.451857
30.998165
32.845829
33.156643
31.587833
27.218714
19.057447
8.763962
1.129018
-0.189968
3.261617
6.434134
6.214190
4.147303
3.985315
7.401669
12.009343
13.051606
7.652118
-1.793130
-8.987801
-9.148896
-2.503092
7.795703
19.434023
31.074286
40.348816
44.341667
42.120598
35.667278
28.454321
23.444799
21.754910
22.301105
22.654863
21.102816
18.391821
16.906446
18.069057
21.307762
25.103018
27.666882
26.587555
18.831966
1.846116
-24.385403
-55.339272
-82.667992
-98.885345
-102.089294
-96.108345
-87.059486
-79.598152
-74.599503
-69.967010
-63.865891
-56.303158
-47.985580
-39.423546
-31.385811
-24.893118
-19.782661
-13.722882
-4.024026
8.998542
21.215460
27.904436
27.456062
21.716995
13.711963
5.645323
-1.827405
-9.027154
-15.408315
-18.242371
-14.278006
-3.391617
10.172461
20.908131
25.972576
25.915943
22.632910
17.357922
10.086467
0.381646
-11.060160
-21.980356
-30.492510
-36.848331
-42.379242
-47.911549
-54.277142
-62.781933
-73.818016
-85.346321
-92.337975
-87.394562
-64.223679
-23.438103
25.094988
67.900703
96.969406
112.953285
120.142509
120.265450
112.248703
96.514717
77.061409
59.363636
47.857029
45.087898
51.253635
63.238358
74.449432
77.576157
69.229279
51.525219
28.681128
3.421407
-22.759705
-47.921387
-69.664284
-85.526810
-92.801117
-89.522064
-76.103745
-54.557117
-26.162809
8.048752
44.016857
73.675888
89.047134
88.106773
76.514183
63.253605
55.106529
54.866367
62.058174
73.742294
85.848579
95.016624
99.480507
98.668030
92.684631
82.127769
67.436783
48.047153
22.412119
-10.486802
-47.614697
-79.562408
-95.215889
-90.502480
-71.296295
-48.398121
-30.466526
-19.503853
-11.434753
-1.650972
9.886513
19.511524
24.534536
24.593794
18.643471
4.290961
-17.957983
-42.000992
-60.029797
-68.710976
-70.403389
-69.318634
-68.179260
-67.331985
-64.538872
-56.209526
-40.802181
-20.774632
-0.848037
14.604941
22.947788
24.254917
21.803341
20.923054
26.289799
39.267418
57.424416
76.748047
94.182175
107.844391
115.413139
113.184402
96.845436
63.673691
15.895221
-37.103939
-81.936195
-109.219604
-118.451591
-114.280037
-100.175346
-78.270439
-53.637180
-34.780010
-28.449600
-34.698887
-47.586044
-60.504204
-70.209679
-76.075951
-77.831154
-75.572464
-70.274879
-62.167648
-48.903107
-26.969618
3.847065
37.687767
65.520187
80.733818
81.337929
68.684525
46.741306
22.122677
2.685443
-5.199362
0.647363
17.107477
37.654850
55.936577
68.002167
72.098045
67.406960
53.527809
31.026117
2.011305
-30.063009
-61.296143
-88.125786
-107.552391
-117.763161
-119.088959
-112.978096
-99.213074
-75.713486
-42.360699
-3.760007
33.266705
64.257957
88.063576
104.150406
111.437134
110.888229
107.179550
105.319603
106.015625
105.769356
101.211014
92.321129
80.918114
66.007988
42.244911
5.844824
-37.983475
-77.306885
-104.589111
-122.233917
-136.053818
-147.114532
-151.764755
-147.194229
-134.926086
-118.414070
-98.058266
-71.227669
-38.237637
-5.731533
17.541439
27.037189
24.232313
13.954490
1.119810
-10.284887
-16.908953
-17.036032
-12.066218
-5.719886
-2.002335
-4.706977
-17.119377
-39.088387
-63.593708
-78.690910
-76.033035
-57.799965
-33.721672
-12.308912
3.263314
13.143034
18.371054
20.160065
19.852999
19.446192
21.748413
28.894014
40.802502
55.609688
71.011513
84.931778
95.819115
103.171394
107.763054
110.690872
112.045746
111.175888
108.239037
104.691895
102.008827
100.382278
98.940247
96.953941
94.513603
91.961571
88.926842
84.214737
76.282150
63.734009
46.430283
26.428993
6.906143
-9.854047
-22.848112
-31.552486
-35.962795
-37.297909
-37.479424
-37.322071
-35.934605
-32.369194
-27.027405
-20.918983
-14.372084
-7.214067
0.139939
6.383536
9.981045
9.689243
4.780507
-4.291524
-15.426308
-26.157877
-35.999893
-46.973915
-61.244946
-78.547256
-96.303452
-111.746803
-123.562370
-132.093063
-138.461395
-143.479431
-147.390259
-150.307999
-152.397141
-153.620972
-153.529251
-151.446014
-147.039291
-140.712494
-133.355133
-125.875282
-119.103104
-113.653679
-109.237595
-104.399986
-97.830292
-90.030502
-82.952080
-77.770615
-73.706673
-69.252487
-63.711327
-57.230732
-50.379440
-44.417160
-41.418015
-43.407455
-50.964180
-62.163818
-72.834686
-78.643936
-77.694633
-71.125885
-61.156227
-49.058128
-35.189007
-20.048128
-4.394123
11.468976
27.760511
44.254086
59.491913
71.178383
77.451248
78.275139
75.995445
74.061020
74.556664
77.014778
79.920624
83.106758
88.056480
95.918907
106.033974
116.650795
126.367569
134.610886
141.430634
147.255783
152.596024
157.701660
162.443665
166.605972
170.137924
172.788925
173.867096
172.933365
170.401184
167.052414
163.307404
159.239304
154.974228
150.660843
146.173752
141.256531
135.850800
129.914307
123.040459
114.677750
104.780876
93.937630
82.834419
71.859406
60.957108
49.426689
36.312832
21.548174
6.442580
-6.989457
-16.778408
-21.156445
-18.246429
-6.328799
13.971001
37.324108
55.290329
61.717541
56.420300
43.670372
28.115189
12.196902
-3.882483
-20.736799
-38.372784
-56.060337
-73.311584
-90.220673
-106.602722
-121.495941
-133.844055
-143.134460
-149.141708
-151.683167
-151.151199
-148.817917
-145.791702
-141.673889
-134.759003
-123.568718
-108.065834
-89.788597
-71.222351
-54.858814
-42.293457
-33.640408
-27.584192
-22.381218
-17.362780
-13.672839
-13.509348
-18.508898
-28.702971
-42.850849
-59.431286
-77.126038
-94.647011
-110.525215
-123.362633
-132.466415
-138.234985
-141.884476
-144.687668
-147.182022
-148.952850
-149.139984
-147.141602
-143.067978
-137.617783
-131.393707
-124.461121
-116.384140
-106.029205
-91.407394
-70.586060
-43.425358
-12.638998
17.191843
42.319630
61.766026
76.723328
88.735954
98.730972
106.974464
113.087311
116.188301
115.626915
111.884972
106.668312
101.861671
98.086761
93.995583
86.958267
74.756142
56.875412
34.509075
10.005147
-13.522056
-32.811958
-45.303436
-49.604992
-45.620628
-34.502026
-18.159754
1.543389
23.267780
46.047832
68.863548
90.302811
108.294662
120.008858
122.445877
113.817284
94.920746
69.664146
44.202385
24.496017
13.560596
10.621252
12.578041
16.166124
19.492352
22.592896
26.917471
33.939152
43.900101
55.850147
68.558083
80.908279
91.910599
101.193069
109.215942
116.381058
122.338974
126.617607
129.268173
130.349792
129.502075
126.630020
121.981285
114.194206
98.916412
71.547913
32.381336
-11.881272
-52.470295
-83.963036
-105.515816
-118.400772
-123.588158
-121.254707
-111.858940
-97.612701
-82.611015
-70.825935
-63.790646
-60.435246
-58.874496
-57.886578
-56.990784
-55.877567
-54.037800
-50.897968
-46.475746
-41.949612
-39.194965
-39.437557
-42.627541
-48.338001
-56.543144
-66.892914
-78.052361
-88.514145
-97.332458
-103.722527
-106.971092
-107.205849
-105.577087
-103.267120
-100.573593
-97.245819
-93.575310
-90.625305
-89.188652
-89.115906
-90.064598
-92.280968
-96.108086
-101.186546
-106.681992
-112.115952
-117.013443
-118.423721
-109.278687
-82.795662
-41.158649
2.790026
35.837307
54.368690
62.598091
65.661400
66.985542
68.128242
68.530190
66.692444
61.930267
54.892872
47.064358
39.841858
33.836391
29.053371
25.615580
23.954884
24.193350
25.762484
27.904869
30.410753
33.905914
39.491768
47.866661
58.574974
70.083160
80.648918
89.233467
95.813126
101.066338
105.726944
110.048553
113.830421
116.905441
119.380386
121.170776
121.451424
118.801666
111.817497
99.827080
83.412560
64.172188
44.090908
25.154203
8.828956
-4.511086
-15.575097
-25.724871
-36.279156
-47.537006
-58.543484
-68.073006
-75.270599
-79.153023
-78.290092
-71.421761
-58.408340
-40.845505
-21.819881
-4.684824
8.349055
16.695536
20.751053
21.015638
17.749840
11.176824
1.865113
-9.077600
-20.170435
-29.937366
-37.163906
-40.987835
-41.080578
-37.816715
-32.178925
-25.439541
-18.644587
-12.202523
-6.043500
-0.012982
6.048036
12.332276
18.871719
25.385546
31.602682
37.657021
43.751518
49.359718
52.956200
52.656586
47.227440
36.565319
21.487144
3.474340
-15.464102
-33.171600
-47.833397
-58.132107
-63.200073
-62.746094
-57.157848
-47.367268
-34.792595
-21.274246
-8.595526
1.963520
9.510057
13.520329
14.478085
14.266030
15.293894
18.808439
23.920940
28.543865
31.411293
32.692360
32.436962
29.213367
21.149046
8.463907
-5.484959
-16.205536
-21.262453
-21.601421
-20.228243
-19.825344
-21.249041
-23.877213
-26.974936
-30.256020
-33.164280
-34.097832
-30.795338
-22.020880
-9.277239
3.540832
12.977852
18.558302
22.199173
25.558409
28.585726
30.321091
30.401634
29.697317
29.693502
31.295509
34.205318
37.414989
40.023109
41.280087
40.165310
35.551586
26.940983
14.978041
1.298891
-12.194071
-24.104504
-33.859077
-41.502735
-47.231106
-51.200718
-53.824951
-55.904541
-58.149494
-60.592480
-62.513969
-62.958000
-61.394138
-57.922112
-52.928783
-46.736351
-39.626087
-31.930138
-23.762182
-14.742540
-4.425099
6.933770
18.281813
28.326403
36.069664
41.187347
44.216522
46.370678
48.995342
52.717026
56.617199
58.289375
55.150078
45.992126
31.460466
13.516185
-5.135645
-21.474249
-32.900616
-38.148357
-37.761555
-33.805111
-28.922871
-25.264351
-23.870733
-24.656195
-26.806459
-29.329840
-31.265503
-31.503262
-28.949589
-23.145088
-14.581470
-4.562194
5.102412
12.629790
16.928631
17.923508
16.287813
12.826650
8.039875
2.133750
-4.683129
-11.884938
-18.628386
-24.250956
-28.750601
-32.545258
-35.749344
-37.833176
-37.902771
-35.214287
-29.743532
-22.530449
-15.160887
-8.627964
-2.859231
2.673497
8.284913
14.045627
19.881086
25.369345
29.739771
32.456451
33.783600
34.534199
35.083691
34.535641
30.871349
22.296444
9.086986
-5.693144
-17.727425
-24.031498
-24.088354
-18.920908
-9.938287
1.127805
12.011020
20.539545
25.745741
28.209249
29.203573
29.495800
28.775316
26.050579
20.788691
13.945335
7.824175
4.686583
5.302248
8.590640
12.391413
14.569049
13.631720
8.736798
-0.331967
-12.795565
-26.593615
-39.034546
-48.087311
-52.996471
-54.034748
-52.232685
-49.033394
-45.610455
-42.509007
-39.873569
-37.611225
-35.298233
-32.254013
-27.917931
-22.342323
-16.364956
-11.022968
-6.787922
-3.612236
-1.421429
-0.128930
0.697195
1.977873
4.921568
