EVENT_NAME: EMILIA_2ND_SHOCK
EVENT_ID: IT-2012-0011
EVENT_DATE_YYYYMMDD: 20120529
EVENT_TIME_HHMMSS: 070002
EVENT_LATITUDE_DEGREE: 44.8417
EVENT_LONGITUDE_DEGREE: 11.0657
EVENT_DEPTH_KM: 8.1
HYPOCENTER_REFERENCE: INGV-CNT_Seismic_Bulletin
MAGNITUDE_W: 6.0
MAGNITUDE_W_REFERENCE: RCMT-INGV
MAGNITUDE_L: 5.8
MAGNITUDE_L_REFERENCE: INGV-CNT_Seismic_Bulletin
FOCAL_MECHANISM: TF
NETWORK: TV
STATION_CODE: MIR01
STATION_NAME: MEDOLLA
STATION_LATITUDE_DEGREE: 44.844042
STATION_LONGITUDE_DEGREE: 11.071316
STATION_ELEVATION_M: 
LOCATION: 
SENSOR_DEPTH_M: 
VS30_M/S: 
SITE_CLASSIFICATION_EC8: C*
MORPHOLOGIC_CLASSIFICATION: 
EPICENTRAL_DISTANCE_KM: 0.5
EARTHQUAKE_BACKAZIMUTH_DEGREE: 239.6
DATE_TIME_FIRST_SAMPLE_YYYYMMDD_HHMMSS: 20120529_065945.000
DATE_TIME_FIRST_SAMPLE_PRECISION: milliseconds
SAMPLING_INTERVAL_S: 0.005000
NDATA: 105
DURATION_S: 
STREAM: HNE
UNITS: cm/s^2
INSTRUMENT: sensor = Episensor FBA ES-T [Kinemetrics] | digitizer = Unknown [Unknown]
INSTRUMENT_ANALOG/DIGITAL: D
INSTRUMENTAL_FREQUENCY_HZ: 
INSTRUMENTAL_DAMPING: 
FULL_SCALE_G: 
N_BIT_DIGITAL_CONVERTER: 
PGA_CM/S^2: 411.371986
TIME_PGA_S: 24.455000
BASELINE_CORRECTION: BASELINE REMOVED
FILTER_TYPE: BUTTERWORTH
FILTER_ORDER: 2
LOW_CUT_FREQUENCY_HZ: 0.050
HIGH_CUT_FREQUENCY_HZ: 40.000
LATE/NORMAL_TRIGGERED: NT
DATABASE_VERSION: DYNA 1.0
HEADER_FORMAT: DYNA 1.2
DATA_TYPE: ACCELERATION RESPONSE SPECTRUM
PROCESSING: manual (Paolucci et al., 2011)
DATA_TIMESTAMP_YYYYMMDD_HHMMSS: 
DATA_LICENSE: CC-BY4_0 (http://creativecommons.org/licenses/by/4.0/)
DATA_CITATION: ESM working group (2015), European Strong-Motion database, version 0.1, Network Activity 3: Networking acceleration networks and SM data users. Project NERA (www.nera-eu.org)
DATA_CREATOR: ESM working group
ORIGINAL_DATA_MEDIATOR_CITATION: Orfeus - European Integrated Data Archive (EIDA) http://www.orfeus-eu.org/eida/
ORIGINAL_DATA_MEDIATOR: Orfeus - European Integrated Data Archive (EIDA)
ORIGINAL_DATA_CREATOR_CITATION: 
ORIGINAL_DATA_CREATOR: network: TV (INGV Experiments Network); owner: Istituto Nazionale di Geofisica e Vulcanologia
USER1: 
USER2: 
USER3: 
USER4: 
USER5: 
    0.010000   411.481781
    0.020000   416.030975
    0.022000   416.849579
    0.025000   419.906799
    0.029000   434.525726
    0.030000   435.140656
    0.032000   426.073608
    0.035001   423.979279
    0.036000   429.086975
    0.040000   441.843445
    0.041999   434.197357
    0.044001   417.473053
    0.045000   408.392456
    0.046000   414.381744
    0.048001   445.709839
    0.050000   470.765533
    0.054999   505.513184
    0.059999   513.484558
    0.064998   572.972046
    0.067002   600.441956
    0.069999   586.658142
    0.075002   542.155823
    0.080000   578.096130
    0.084998   577.579773
    0.090001   594.705200
    0.095003   674.312195
    0.100000   753.103394
    0.109999   814.391724
    0.120005   942.829468
    0.130005   745.320312
    0.132996   728.881348
    0.139997   725.073853
    0.149993   654.910645
    0.160000   843.711304
    0.170010   858.077698
    0.179986  1174.007568
    0.190006  1139.879028
    0.200000  1013.624634
    0.220022  1056.456665
    0.239981  1157.150269
    0.250000  1092.452637
    0.260010  1217.165405
    0.280034  1268.639404
    0.290023  1466.044556
    0.300030  1630.171143
    0.320000  1572.904541
    0.340020  1394.521362
    0.350017  1337.979980
    0.359971  1242.070435
    0.379939   914.317871
    0.400000   664.744019
    0.419992   586.956970
    0.439947   559.699951
    0.450045   613.283081
    0.459982   651.280396
    0.480077   737.464539
    0.500000   739.983704
    0.550055   772.892822
    0.599880   627.557312
    0.650195   787.682190
    0.667111   802.701599
    0.699790   757.540466
    0.750188   657.956116
    0.800000   470.599335
    0.850340   333.201660
    0.900090   269.488281
    0.949668   270.838135
    1.000000   262.032379
    1.100110   270.416687
    1.200480   231.397079
    1.300390   206.784149
    1.400560   227.694565
    1.499250   259.693787
    1.600000   260.090027
    1.700680   235.897171
    1.798561   205.267181
    1.901141   221.844482
    2.000000   214.049530
    2.197802   186.384369
    2.398082   149.665268
    2.500000   131.872482
    2.597403   116.029472
    2.801121    96.333237
    3.003003    79.189674
    3.205128    65.350914
    3.401361    54.071064
    3.496503    49.238224
    3.597122    45.008839
    3.802281    37.646969
    4.000000    31.422493
    4.201681    27.915924
    4.405286    24.889446
    4.608295    22.246904
    4.807692    19.927326
    5.000000    17.880249
    5.494505    13.796208
    5.988024    11.340896
    6.493506     9.953781
    6.993007     8.789619
    7.518797     7.802895
    8.000000     6.962769
    8.474576     6.240289
    9.009009     5.620571
    9.523809     5.088214
   10.000000     4.629138
